<?xml version="1.0" encoding="UTF-8"?>
<osm version="0.6" generator="osmapis">
	<node lat="62.58892212151469" lon="9.69163348523588" id="-82043">
		<tag k="name" v="Morkelvegen" />
		<tag k="ssr:date" v="2019-05-30" />
		<tag k="ssr:gruppe" v="veg" />
		<tag k="ssr:hovedgruppe" v="infrastruktur" />
		<tag k="ssr:stedsnr" v="28582" />
		<tag k="ssr:type" v="adressenavn" />
	</node>
	<node lat="62.597881966260644" lon="9.698496406846482" id="-82044">
		<tag k="name" v="Museumsvegen" />
		<tag k="ssr:date" v="2019-05-30" />
		<tag k="ssr:gruppe" v="veg" />
		<tag k="ssr:hovedgruppe" v="infrastruktur" />
		<tag k="ssr:stedsnr" v="28583" />
		<tag k="ssr:type" v="adressenavn" />
	</node>
	<node lat="62.60375553819843" lon="9.64435151880761" id="-82065">
		<tag k="name" v="Kjerkvegen" />
		<tag k="ssr:date" v="2019-05-30" />
		<tag k="ssr:gruppe" v="veg" />
		<tag k="ssr:hovedgruppe" v="infrastruktur" />
		<tag k="ssr:stedsnr" v="237838" />
		<tag k="ssr:type" v="adressenavn" />
	</node>
	<node lat="62.623791054018795" lon="9.479620776786957" id="-82067">
		<tag k="name" v="Nyrønningsvegen" />
		<tag k="ssr:date" v="2019-05-30" />
		<tag k="ssr:gruppe" v="veg" />
		<tag k="ssr:hovedgruppe" v="infrastruktur" />
		<tag k="ssr:stedsnr" v="60317" />
		<tag k="ssr:type" v="adressenavn" />
	</node>
	<node lat="62.704024402628974" lon="9.564950444728654" id="-82070">
		<tag k="name" v="Trøaenget" />
		<tag k="ssr:date" v="2019-05-30" />
		<tag k="ssr:gruppe" v="veg" />
		<tag k="ssr:hovedgruppe" v="infrastruktur" />
		<tag k="ssr:stedsnr" v="242324" />
		<tag k="ssr:type" v="adressenavn" />
	</node>
	<node lat="62.640714192935214" lon="9.50184890953343" id="-82075">
		<tag k="name" v="Øvre Klettstølvegen" />
		<tag k="ssr:date" v="2019-05-30" />
		<tag k="ssr:gruppe" v="veg" />
		<tag k="ssr:hovedgruppe" v="infrastruktur" />
		<tag k="ssr:stedsnr" v="242244" />
		<tag k="ssr:type" v="adressenavn" />
	</node>
	<node lat="62.612836114886" lon="9.53141111003821" id="-82078">
		<tag k="name" v="Dørremsgrenda" />
		<tag k="ssr:date" v="2018-01-09" />
		<tag k="ssr:gruppe" v="veg" />
		<tag k="ssr:hovedgruppe" v="infrastruktur" />
		<tag k="ssr:stedsnr" v="242537" />
		<tag k="ssr:type" v="adressetilleggsnavn" />
	</node>
	<node lat="62.61313888679695" lon="9.517797229914354" id="-82079">
		<tag k="name" v="Toftåker" />
		<tag k="ssr:date" v="2018-01-09" />
		<tag k="ssr:gruppe" v="veg" />
		<tag k="ssr:hovedgruppe" v="infrastruktur" />
		<tag k="ssr:stedsnr" v="242590" />
		<tag k="ssr:type" v="adressetilleggsnavn" />
	</node>
	<node lat="62.59266821071608" lon="9.6784615666903" id="-82115">
		<tag k="name" v="Karsevegen" />
		<tag k="ssr:date" v="2019-05-30" />
		<tag k="ssr:gruppe" v="veg" />
		<tag k="ssr:hovedgruppe" v="infrastruktur" />
		<tag k="ssr:stedsnr" v="89590" />
		<tag k="ssr:type" v="adressenavn" />
	</node>
	<node lat="62.59912370858706" lon="9.704640620069645" id="-82123">
		<tag k="name" v="Hårråvegen" />
		<tag k="ssr:date" v="2019-05-30" />
		<tag k="ssr:gruppe" v="veg" />
		<tag k="ssr:hovedgruppe" v="infrastruktur" />
		<tag k="ssr:stedsnr" v="101766" />
		<tag k="ssr:type" v="adressenavn" />
	</node>
	<node lat="62.597945964901896" lon="9.692845462164748" id="-82229">
		<tag k="name" v="Heggvegen" />
		<tag k="ssr:date" v="2019-05-30" />
		<tag k="ssr:gruppe" v="veg" />
		<tag k="ssr:hovedgruppe" v="infrastruktur" />
		<tag k="ssr:stedsnr" v="149555" />
		<tag k="ssr:type" v="adressenavn" />
	</node>
	<node lat="62.59039298167628" lon="9.702454777353662" id="-82235">
		<tag k="name" v="Riskevegen" />
		<tag k="ssr:date" v="2019-05-30" />
		<tag k="ssr:gruppe" v="veg" />
		<tag k="ssr:hovedgruppe" v="infrastruktur" />
		<tag k="ssr:stedsnr" v="161764" />
		<tag k="ssr:type" v="adressenavn" />
	</node>
	<node lat="62.60020358584582" lon="9.657390815565988" id="-82236">
		<tag k="name" v="Haugen skules veg" />
		<tag k="ssr:date" v="2019-05-30" />
		<tag k="ssr:gruppe" v="veg" />
		<tag k="ssr:hovedgruppe" v="infrastruktur" />
		<tag k="ssr:stedsnr" v="163220" />
		<tag k="ssr:type" v="adressenavn" />
	</node>
	<node lat="62.604873316223234" lon="9.731158120678796" id="-82240">
		<tag k="name" v="Gorsetråket" />
		<tag k="ssr:date" v="2019-05-30" />
		<tag k="ssr:gruppe" v="veg" />
		<tag k="ssr:hovedgruppe" v="infrastruktur" />
		<tag k="ssr:stedsnr" v="163764" />
		<tag k="ssr:type" v="adressenavn" />
	</node>
	<node lat="62.615617298272284" lon="9.485182980684876" id="-82255">
		<tag k="name" v="Festavegen" />
		<tag k="ssr:date" v="2019-05-30" />
		<tag k="ssr:gruppe" v="veg" />
		<tag k="ssr:hovedgruppe" v="infrastruktur" />
		<tag k="ssr:stedsnr" v="181258" />
		<tag k="ssr:type" v="adressenavn" />
	</node>
	<node lat="62.59345141160887" lon="9.675931544687405" id="-82268">
		<tag k="name" v="Konvallvegen" />
		<tag k="ssr:date" v="2019-05-30" />
		<tag k="ssr:gruppe" v="veg" />
		<tag k="ssr:hovedgruppe" v="infrastruktur" />
		<tag k="ssr:stedsnr" v="210578" />
		<tag k="ssr:type" v="adressenavn" />
	</node>
	<node lat="62.587667828248115" lon="9.671987053504951" id="-82269">
		<tag k="name" v="Røsslyngvegen" />
		<tag k="ssr:date" v="2019-05-30" />
		<tag k="ssr:gruppe" v="veg" />
		<tag k="ssr:hovedgruppe" v="infrastruktur" />
		<tag k="ssr:stedsnr" v="210584" />
		<tag k="ssr:type" v="adressenavn" />
	</node>
	<node lat="62.761708407916394" lon="9.606210083406683" id="-82285">
		<tag k="name" v="Eldålivegen" />
		<tag k="ssr:date" v="2019-05-30" />
		<tag k="ssr:gruppe" v="veg" />
		<tag k="ssr:hovedgruppe" v="infrastruktur" />
		<tag k="ssr:stedsnr" v="224446" />
		<tag k="ssr:type" v="adressenavn" />
	</node>
	<node lat="62.624366160294" lon="9.493995587260333" id="-82331">
		<tag k="name" v="Festavollan" />
		<tag k="ssr:date" v="2019-05-30" />
		<tag k="ssr:gruppe" v="veg" />
		<tag k="ssr:hovedgruppe" v="infrastruktur" />
		<tag k="ssr:stedsnr" v="242228" />
		<tag k="ssr:type" v="adressenavn" />
	</node>
	<node lat="62.73195015717009" lon="9.55279160128603" id="-82332">
		<tag k="name" v="Haldostølvegen" />
		<tag k="ssr:date" v="2019-05-30" />
		<tag k="ssr:gruppe" v="veg" />
		<tag k="ssr:hovedgruppe" v="infrastruktur" />
		<tag k="ssr:stedsnr" v="242111" />
		<tag k="ssr:type" v="adressenavn" />
	</node>
	<node lat="62.59666041163502" lon="9.6995255044927" id="-82343">
		<tag k="name" v="Gorsetvegen" />
		<tag k="ssr:date" v="2019-05-30" />
		<tag k="ssr:gruppe" v="veg" />
		<tag k="ssr:hovedgruppe" v="infrastruktur" />
		<tag k="ssr:stedsnr" v="453588" />
		<tag k="ssr:type" v="adressenavn" />
	</node>
	<node lat="62.60053891435001" lon="9.69830435578857" id="-82344">
		<tag k="name" v="Lyngvegen" />
		<tag k="ssr:date" v="2019-05-30" />
		<tag k="ssr:gruppe" v="veg" />
		<tag k="ssr:hovedgruppe" v="infrastruktur" />
		<tag k="ssr:stedsnr" v="453591" />
		<tag k="ssr:type" v="adressenavn" />
	</node>
	<node lat="62.59084241126798" lon="9.667346609857654" id="-82345">
		<tag k="name" v="Gullrisvegen" />
		<tag k="ssr:date" v="2019-05-30" />
		<tag k="ssr:gruppe" v="veg" />
		<tag k="ssr:hovedgruppe" v="infrastruktur" />
		<tag k="ssr:stedsnr" v="453601" />
		<tag k="ssr:type" v="adressenavn" />
	</node>
	<node lat="62.59701539521898" lon="9.68803072534431" id="-82409">
		<tag k="name" v="Bjerkevegen" />
		<tag k="ssr:date" v="2019-05-30" />
		<tag k="ssr:gruppe" v="veg" />
		<tag k="ssr:hovedgruppe" v="infrastruktur" />
		<tag k="ssr:stedsnr" v="271612" />
		<tag k="ssr:type" v="adressenavn" />
	</node>
	<node lat="62.59973373282284" lon="9.700159410135232" id="-82410">
		<tag k="name" v="Museumslia" />
		<tag k="ssr:date" v="2019-05-30" />
		<tag k="ssr:gruppe" v="veg" />
		<tag k="ssr:hovedgruppe" v="infrastruktur" />
		<tag k="ssr:stedsnr" v="271622" />
		<tag k="ssr:type" v="adressenavn" />
	</node>
	<node lat="62.58896549094667" lon="9.662462317492643" id="-82411">
		<tag k="name" v="Roseringen" />
		<tag k="ssr:date" v="2019-05-30" />
		<tag k="ssr:gruppe" v="veg" />
		<tag k="ssr:hovedgruppe" v="infrastruktur" />
		<tag k="ssr:stedsnr" v="271586" />
		<tag k="ssr:type" v="adressenavn" />
	</node>
	<node lat="62.64998107758467" lon="9.89001609668648" id="-82413">
		<tag k="name" v="Finnmovegen" />
		<tag k="ssr:date" v="2019-05-30" />
		<tag k="ssr:gruppe" v="veg" />
		<tag k="ssr:hovedgruppe" v="infrastruktur" />
		<tag k="ssr:stedsnr" v="271702" />
		<tag k="ssr:type" v="adressenavn" />
	</node>
	<node lat="62.59143880813303" lon="9.668345186750454" id="-82422">
		<tag k="name" v="Mogopsvingen" />
		<tag k="ssr:date" v="2019-05-30" />
		<tag k="ssr:gruppe" v="veg" />
		<tag k="ssr:hovedgruppe" v="infrastruktur" />
		<tag k="ssr:stedsnr" v="271906" />
		<tag k="ssr:type" v="adressenavn" />
	</node>
	<node lat="62.61611188647704" lon="9.583201355522883" id="-82439">
		<tag k="name" v="Tyvesmorka" />
		<tag k="ssr:date" v="2019-05-30" />
		<tag k="ssr:gruppe" v="veg" />
		<tag k="ssr:hovedgruppe" v="infrastruktur" />
		<tag k="ssr:stedsnr" v="302384" />
		<tag k="ssr:type" v="adressenavn" />
	</node>
	<node lat="62.49918187328215" lon="9.849911864488497" id="-82440">
		<tag k="name" v="Unndalsvegen" />
		<tag k="ssr:date" v="2019-05-30" />
		<tag k="ssr:gruppe" v="veg" />
		<tag k="ssr:hovedgruppe" v="infrastruktur" />
		<tag k="ssr:stedsnr" v="302386" />
		<tag k="ssr:type" v="adressenavn" />
	</node>
	<node lat="62.60973333043719" lon="9.713816676247983" id="-82442">
		<tag k="name" v="Øver-Gorset" />
		<tag k="ssr:date" v="2018-01-09" />
		<tag k="ssr:gruppe" v="veg" />
		<tag k="ssr:hovedgruppe" v="infrastruktur" />
		<tag k="ssr:stedsnr" v="303571" />
		<tag k="ssr:type" v="adressetilleggsnavn" />
	</node>
	<node lat="62.600744446430966" lon="9.676769451676012" id="-82443">
		<tag k="name" v="Aune" />
		<tag k="ssr:date" v="2018-01-09" />
		<tag k="ssr:gruppe" v="veg" />
		<tag k="ssr:hovedgruppe" v="infrastruktur" />
		<tag k="ssr:stedsnr" v="303578" />
		<tag k="ssr:type" v="adressetilleggsnavn" />
	</node>
	<node lat="62.60065812648287" lon="9.70082169431924" id="-82517">
		<tag k="name" v="Nedre Tunveg" />
		<tag k="ssr:date" v="2019-05-30" />
		<tag k="ssr:gruppe" v="veg" />
		<tag k="ssr:hovedgruppe" v="infrastruktur" />
		<tag k="ssr:stedsnr" v="331565" />
		<tag k="ssr:type" v="adressenavn" />
	</node>
	<node lat="62.60874563041994" lon="9.455546493357945" id="-82550">
		<tag k="name" v="Eggavegen" />
		<tag k="ssr:date" v="2019-05-30" />
		<tag k="ssr:gruppe" v="veg" />
		<tag k="ssr:hovedgruppe" v="infrastruktur" />
		<tag k="ssr:stedsnr" v="363232" />
		<tag k="ssr:type" v="adressenavn" />
	</node>
	<node lat="62.637903015082124" lon="9.488659998806101" id="-82552">
		<tag k="name" v="Ljøslivegen" />
		<tag k="ssr:date" v="2019-05-30" />
		<tag k="ssr:gruppe" v="veg" />
		<tag k="ssr:hovedgruppe" v="infrastruktur" />
		<tag k="ssr:stedsnr" v="363158" />
		<tag k="ssr:type" v="adressenavn" />
	</node>
	<node lat="62.6171272281062" lon="9.734600174511803" id="-82555">
		<tag k="name" v="Støllivegen" />
		<tag k="ssr:date" v="2019-05-30" />
		<tag k="ssr:gruppe" v="veg" />
		<tag k="ssr:hovedgruppe" v="infrastruktur" />
		<tag k="ssr:stedsnr" v="363315" />
		<tag k="ssr:type" v="adressenavn" />
	</node>
	<node lat="62.62333473655944" lon="9.478948479113235" id="-82556">
		<tag k="name" v="Vardamsvegen" />
		<tag k="ssr:date" v="2019-05-30" />
		<tag k="ssr:gruppe" v="veg" />
		<tag k="ssr:hovedgruppe" v="infrastruktur" />
		<tag k="ssr:stedsnr" v="363324" />
		<tag k="ssr:type" v="adressenavn" />
	</node>
	<node lat="62.59385188522204" lon="9.693249398634611" id="-82589">
		<tag k="name" v="Trondheimsvegen" />
		<tag k="ssr:date" v="2019-05-30" />
		<tag k="ssr:gruppe" v="veg" />
		<tag k="ssr:hovedgruppe" v="infrastruktur" />
		<tag k="ssr:stedsnr" v="480855" />
		<tag k="ssr:type" v="adressenavn" />
	</node>
	<node lat="62.587495774646136" lon="9.671986711351273" id="-82606">
		<tag k="name" v="Blåklokkevegen" />
		<tag k="ssr:date" v="2019-05-30" />
		<tag k="ssr:gruppe" v="veg" />
		<tag k="ssr:hovedgruppe" v="infrastruktur" />
		<tag k="ssr:stedsnr" v="392633" />
		<tag k="ssr:type" v="adressenavn" />
	</node>
	<node lat="62.587136786739805" lon="9.674164237632978" id="-82607">
		<tag k="name" v="Røllikvegen" />
		<tag k="ssr:date" v="2019-05-30" />
		<tag k="ssr:gruppe" v="veg" />
		<tag k="ssr:hovedgruppe" v="infrastruktur" />
		<tag k="ssr:stedsnr" v="392634" />
		<tag k="ssr:type" v="adressenavn" />
	</node>
	<node lat="62.687775754572336" lon="9.11553789879432" id="-82613">
		<tag k="name" v="Hesjingvegen" />
		<tag k="ssr:date" v="2019-05-30" />
		<tag k="ssr:gruppe" v="veg" />
		<tag k="ssr:hovedgruppe" v="infrastruktur" />
		<tag k="ssr:stedsnr" v="484101" />
		<tag k="ssr:type" v="adressenavn" />
	</node>
	<node lat="62.57523972136325" lon="9.651660212260394" id="-82614">
		<tag k="name" v="Mælesvollvegen" />
		<tag k="ssr:date" v="2019-05-30" />
		<tag k="ssr:gruppe" v="veg" />
		<tag k="ssr:hovedgruppe" v="infrastruktur" />
		<tag k="ssr:stedsnr" v="484145" />
		<tag k="ssr:type" v="adressenavn" />
	</node>
	<node lat="62.604548433050056" lon="9.44286579834204" id="-82617">
		<tag k="name" v="Furunesvegen" />
		<tag k="ssr:date" v="2019-05-30" />
		<tag k="ssr:gruppe" v="veg" />
		<tag k="ssr:hovedgruppe" v="infrastruktur" />
		<tag k="ssr:stedsnr" v="484240" />
		<tag k="ssr:type" v="adressenavn" />
	</node>
	<node lat="62.612794995698344" lon="9.726819623007922" id="-82619">
		<tag k="name" v="Øvre Gorsetråket" />
		<tag k="ssr:date" v="2019-05-30" />
		<tag k="ssr:gruppe" v="veg" />
		<tag k="ssr:hovedgruppe" v="infrastruktur" />
		<tag k="ssr:stedsnr" v="484251" />
		<tag k="ssr:type" v="adressenavn" />
	</node>
	<node lat="62.67137928176593" lon="9.845023743880096" id="-82622">
		<tag k="name" v="Stormyregga" />
		<tag k="ssr:date" v="2019-05-30" />
		<tag k="ssr:gruppe" v="veg" />
		<tag k="ssr:hovedgruppe" v="infrastruktur" />
		<tag k="ssr:stedsnr" v="484338" />
		<tag k="ssr:type" v="adressenavn" />
	</node>
	<node lat="62.60338611398958" lon="9.656038891760927" id="-82624">
		<tag k="name" v="Skjørstad" />
		<tag k="ssr:date" v="2018-01-09" />
		<tag k="ssr:gruppe" v="veg" />
		<tag k="ssr:hovedgruppe" v="infrastruktur" />
		<tag k="ssr:stedsnr" v="485566" />
		<tag k="ssr:type" v="adressetilleggsnavn" />
	</node>
	<node lat="62.659257929793746" lon="9.278268091617038" id="-82649">
		<tag k="name" v="Gamle Storlidalsvegen" />
		<tag k="ssr:date" v="2019-05-30" />
		<tag k="ssr:gruppe" v="veg" />
		<tag k="ssr:hovedgruppe" v="infrastruktur" />
		<tag k="ssr:stedsnr" v="424246" />
		<tag k="ssr:type" v="adressenavn" />
	</node>
	<node lat="62.61350238703196" lon="9.450029617077178" id="-82651">
		<tag k="name" v="Pilvegen" />
		<tag k="ssr:date" v="2019-05-30" />
		<tag k="ssr:gruppe" v="veg" />
		<tag k="ssr:hovedgruppe" v="infrastruktur" />
		<tag k="ssr:stedsnr" v="424319" />
		<tag k="ssr:type" v="adressenavn" />
	</node>
	<node lat="62.613666663333845" lon="9.539649991961792" id="-82655">
		<tag k="name" v="Utigard Dørrem" />
		<tag k="ssr:date" v="2018-01-09" />
		<tag k="ssr:gruppe" v="veg" />
		<tag k="ssr:hovedgruppe" v="infrastruktur" />
		<tag k="ssr:stedsnr" v="424600" />
		<tag k="ssr:type" v="adressetilleggsnavn" />
	</node>
	<node lat="62.61120824172899" lon="9.648568951080053" id="-82726">
		<tag k="name" v="Øvre Prestløkkja" />
		<tag k="ssr:date" v="2019-05-30" />
		<tag k="ssr:gruppe" v="veg" />
		<tag k="ssr:hovedgruppe" v="infrastruktur" />
		<tag k="ssr:stedsnr" v="480870" />
		<tag k="ssr:type" v="adressenavn" />
	</node>
	<node lat="62.65678804220367" lon="9.880524842749274" id="-82739">
		<tag k="name" v="Haugavegen" />
		<tag k="ssr:date" v="2019-05-30" />
		<tag k="ssr:gruppe" v="veg" />
		<tag k="ssr:hovedgruppe" v="infrastruktur" />
		<tag k="ssr:stedsnr" v="484102" />
		<tag k="ssr:type" v="adressenavn" />
	</node>
	<node lat="62.61666763405828" lon="9.733430806862014" id="-82744">
		<tag k="name" v="Rønningslivegen" />
		<tag k="ssr:date" v="2019-05-30" />
		<tag k="ssr:gruppe" v="veg" />
		<tag k="ssr:hovedgruppe" v="infrastruktur" />
		<tag k="ssr:stedsnr" v="484319" />
		<tag k="ssr:type" v="adressenavn" />
	</node>
	<node lat="62.610783331172705" lon="9.49090832933483" id="-82747">
		<tag k="name" v="Hustøftet" />
		<tag k="ssr:date" v="2018-01-09" />
		<tag k="ssr:gruppe" v="veg" />
		<tag k="ssr:hovedgruppe" v="infrastruktur" />
		<tag k="ssr:stedsnr" v="485516" />
		<tag k="ssr:type" v="adressetilleggsnavn" />
	</node>
	<node lat="62.59497672351303" lon="9.689228398568353" id="-82816">
		<tag k="name" v="Inge Krokanns veg" />
		<tag k="ssr:date" v="2019-05-30" />
		<tag k="ssr:gruppe" v="veg" />
		<tag k="ssr:hovedgruppe" v="infrastruktur" />
		<tag k="ssr:stedsnr" v="513617" />
		<tag k="ssr:type" v="adressenavn" />
	</node>
	<node lat="62.69332886174671" lon="9.102750625747035" id="-82856">
		<tag k="name" v="Storligrenda" />
		<tag k="ssr:date" v="2019-05-30" />
		<tag k="ssr:gruppe" v="veg" />
		<tag k="ssr:hovedgruppe" v="infrastruktur" />
		<tag k="ssr:stedsnr" v="545317" />
		<tag k="ssr:type" v="adressenavn" />
	</node>
	<node lat="62.60940409301216" lon="9.513589011978311" id="-82857">
		<tag k="name" v="Tørvesgjelan" />
		<tag k="ssr:date" v="2019-05-30" />
		<tag k="ssr:gruppe" v="veg" />
		<tag k="ssr:hovedgruppe" v="infrastruktur" />
		<tag k="ssr:stedsnr" v="545319" />
		<tag k="ssr:type" v="adressenavn" />
	</node>
	<node lat="62.69293184670543" lon="9.094715477973867" id="-82858">
		<tag k="name" v="Tovassvegen" />
		<tag k="ssr:date" v="2019-05-30" />
		<tag k="ssr:gruppe" v="veg" />
		<tag k="ssr:hovedgruppe" v="infrastruktur" />
		<tag k="ssr:stedsnr" v="545323" />
		<tag k="ssr:type" v="adressenavn" />
	</node>
	<node lat="62.600271306930196" lon="9.693514534196362" id="-82900">
		<tag k="name" v="Skogvegen" />
		<tag k="ssr:date" v="2019-05-30" />
		<tag k="ssr:gruppe" v="veg" />
		<tag k="ssr:hovedgruppe" v="infrastruktur" />
		<tag k="ssr:stedsnr" v="574601" />
		<tag k="ssr:type" v="adressenavn" />
	</node>
	<node lat="62.59740600427569" lon="9.695618673957531" id="-82907">
		<tag k="name" v="Rognvegen" />
		<tag k="ssr:date" v="2019-05-30" />
		<tag k="ssr:gruppe" v="veg" />
		<tag k="ssr:hovedgruppe" v="infrastruktur" />
		<tag k="ssr:stedsnr" v="695574" />
		<tag k="ssr:type" v="adressenavn" />
	</node>
	<node lat="62.59524071172489" lon="9.692969304565176" id="-82910">
		<tag k="name" v="Aunevegen" />
		<tag k="ssr:date" v="2019-05-30" />
		<tag k="ssr:gruppe" v="veg" />
		<tag k="ssr:hovedgruppe" v="infrastruktur" />
		<tag k="ssr:stedsnr" v="695598" />
		<tag k="ssr:type" v="adressenavn" />
	</node>
	<node lat="62.58721874369152" lon="9.672046415318256" id="-82914">
		<tag k="name" v="Krokusvegen" />
		<tag k="ssr:date" v="2019-05-30" />
		<tag k="ssr:gruppe" v="veg" />
		<tag k="ssr:hovedgruppe" v="infrastruktur" />
		<tag k="ssr:stedsnr" v="695729" />
		<tag k="ssr:type" v="adressenavn" />
	</node>
	<node lat="62.59987537695488" lon="9.674842152664615" id="-83008">
		<tag k="name" v="Bakkevegen" />
		<tag k="ssr:date" v="2019-05-30" />
		<tag k="ssr:gruppe" v="veg" />
		<tag k="ssr:hovedgruppe" v="infrastruktur" />
		<tag k="ssr:stedsnr" v="646787" />
		<tag k="ssr:type" v="adressenavn" />
	</node>
	<node lat="62.60474850899752" lon="9.706154014503742" id="-83011">
		<tag k="name" v="Bukkeråket" />
		<tag k="ssr:date" v="2019-05-30" />
		<tag k="ssr:gruppe" v="veg" />
		<tag k="ssr:hovedgruppe" v="infrastruktur" />
		<tag k="ssr:stedsnr" v="648792" />
		<tag k="ssr:type" v="adressenavn" />
	</node>
	<node lat="62.60267653869557" lon="9.701887971929338" id="-83033">
		<tag k="name" v="Øvre Tunveg" />
		<tag k="ssr:date" v="2021-02-09" />
		<tag k="ssr:gruppe" v="veg" />
		<tag k="ssr:hovedgruppe" v="infrastruktur" />
		<tag k="ssr:stedsnr" v="662836" />
		<tag k="ssr:type" v="adressenavn" />
	</node>
	<node lat="62.609486985313474" lon="9.649836544480166" id="-83034">
		<tag k="name" v="Nedre Vangstunet" />
		<tag k="ssr:date" v="2019-05-30" />
		<tag k="ssr:gruppe" v="veg" />
		<tag k="ssr:hovedgruppe" v="infrastruktur" />
		<tag k="ssr:stedsnr" v="662839" />
		<tag k="ssr:type" v="adressenavn" />
	</node>
	<node lat="62.60969022507429" lon="9.651362602488271" id="-83035">
		<tag k="name" v="Øvre Vangstunet" />
		<tag k="ssr:date" v="2019-05-30" />
		<tag k="ssr:gruppe" v="veg" />
		<tag k="ssr:hovedgruppe" v="infrastruktur" />
		<tag k="ssr:stedsnr" v="662841" />
		<tag k="ssr:type" v="adressenavn" />
	</node>
	<node lat="62.59701539521898" lon="9.68803072534431" id="-83040">
		<tag k="name" v="Mellomvegen" />
		<tag k="ssr:date" v="2019-05-30" />
		<tag k="ssr:gruppe" v="veg" />
		<tag k="ssr:hovedgruppe" v="infrastruktur" />
		<tag k="ssr:stedsnr" v="890794" />
		<tag k="ssr:type" v="adressenavn" />
	</node>
	<node lat="62.6154240419165" lon="9.584214064573322" id="-83052">
		<tag k="name" v="Fjellvegen" />
		<tag k="ssr:date" v="2019-05-30" />
		<tag k="ssr:gruppe" v="veg" />
		<tag k="ssr:hovedgruppe" v="infrastruktur" />
		<tag k="ssr:stedsnr" v="891788" />
		<tag k="ssr:type" v="adressenavn" />
	</node>
	<node lat="62.59682691956802" lon="9.696197426911903" id="-83106">
		<tag k="name" v="Ospvegen" />
		<tag k="ssr:date" v="2019-05-30" />
		<tag k="ssr:gruppe" v="veg" />
		<tag k="ssr:hovedgruppe" v="infrastruktur" />
		<tag k="ssr:stedsnr" v="695568" />
		<tag k="ssr:type" v="adressenavn" />
	</node>
	<node lat="62.656262331200764" lon="9.879216378773778" id="-83127">
		<tag k="name" v="Stasjonsvegen" />
		<tag k="ssr:date" v="2019-05-30" />
		<tag k="ssr:gruppe" v="veg" />
		<tag k="ssr:hovedgruppe" v="infrastruktur" />
		<tag k="ssr:stedsnr" v="707865" />
		<tag k="ssr:type" v="adressenavn" />
	</node>
	<node lat="62.60465106516769" lon="9.706351255871347" id="-83131">
		<tag k="name" v="Bruråket" />
		<tag k="ssr:date" v="2019-05-30" />
		<tag k="ssr:gruppe" v="veg" />
		<tag k="ssr:hovedgruppe" v="infrastruktur" />
		<tag k="ssr:stedsnr" v="709794" />
		<tag k="ssr:type" v="adressenavn" />
	</node>
	<node lat="62.57091889449873" lon="9.354595282353408" id="-83167">
		<tag k="name" v="Veggavegen" />
		<tag k="ssr:date" v="2019-05-30" />
		<tag k="ssr:gruppe" v="veg" />
		<tag k="ssr:hovedgruppe" v="infrastruktur" />
		<tag k="ssr:stedsnr" v="727376" />
		<tag k="ssr:type" v="adressenavn" />
	</node>
	<node lat="62.60257223426409" lon="9.698137056646724" id="-83225">
		<tag k="name" v="Bjørndalsvegen" />
		<tag k="ssr:date" v="2019-05-30" />
		<tag k="ssr:gruppe" v="veg" />
		<tag k="ssr:hovedgruppe" v="infrastruktur" />
		<tag k="ssr:stedsnr" v="767807" />
		<tag k="ssr:type" v="adressenavn" />
	</node>
	<node lat="62.61361059326226" lon="9.449106293371507" id="-83258">
		<tag k="name" v="Munkvollhovdvegen" />
		<tag k="ssr:date" v="2019-05-30" />
		<tag k="ssr:gruppe" v="veg" />
		<tag k="ssr:hovedgruppe" v="infrastruktur" />
		<tag k="ssr:stedsnr" v="909181" />
		<tag k="ssr:type" v="adressenavn" />
	</node>
	<node lat="62.66257787480418" lon="9.867906726119509" id="-83259">
		<tag k="name" v="Nyhaugvegen" />
		<tag k="ssr:date" v="2019-05-30" />
		<tag k="ssr:gruppe" v="veg" />
		<tag k="ssr:hovedgruppe" v="infrastruktur" />
		<tag k="ssr:stedsnr" v="909184" />
		<tag k="ssr:type" v="adressenavn" />
	</node>
	<node lat="62.27844513813559" lon="9.599725341623342" id="-83260">
		<tag k="name" v="Gåvålivegen" />
		<tag k="ssr:date" v="2019-05-30" />
		<tag k="ssr:gruppe" v="veg" />
		<tag k="ssr:hovedgruppe" v="infrastruktur" />
		<tag k="ssr:stedsnr" v="909139" />
		<tag k="ssr:type" v="adressenavn" />
	</node>
	<node lat="62.60754132257714" lon="9.441209360891385" id="-83262">
		<tag k="name" v="Skinnsetvegen" />
		<tag k="ssr:date" v="2019-05-30" />
		<tag k="ssr:gruppe" v="veg" />
		<tag k="ssr:hovedgruppe" v="infrastruktur" />
		<tag k="ssr:stedsnr" v="909351" />
		<tag k="ssr:type" v="adressenavn" />
	</node>
	<node lat="62.66360922751983" lon="9.214502010170415" id="-83263">
		<tag k="name" v="Sandøyvegen" />
		<tag k="ssr:date" v="2019-05-30" />
		<tag k="ssr:gruppe" v="veg" />
		<tag k="ssr:hovedgruppe" v="infrastruktur" />
		<tag k="ssr:stedsnr" v="909354" />
		<tag k="ssr:type" v="adressenavn" />
	</node>
	<node lat="62.486167996510375" lon="9.581113723405876" id="-83264">
		<tag k="name" v="Vammervegen" />
		<tag k="ssr:date" v="2019-05-30" />
		<tag k="ssr:gruppe" v="veg" />
		<tag k="ssr:hovedgruppe" v="infrastruktur" />
		<tag k="ssr:stedsnr" v="909364" />
		<tag k="ssr:type" v="adressenavn" />
	</node>
	<node lat="62.70976255015989" lon="9.562074697270345" id="-83265">
		<tag k="name" v="Vekvesenget" />
		<tag k="ssr:date" v="2019-05-30" />
		<tag k="ssr:gruppe" v="veg" />
		<tag k="ssr:hovedgruppe" v="infrastruktur" />
		<tag k="ssr:stedsnr" v="909378" />
		<tag k="ssr:type" v="adressenavn" />
	</node>
	<node lat="62.60972358331374" lon="9.730051988867713" id="-83266">
		<tag k="name" v="Gardåråket" />
		<tag k="ssr:date" v="2019-05-30" />
		<tag k="ssr:gruppe" v="veg" />
		<tag k="ssr:hovedgruppe" v="infrastruktur" />
		<tag k="ssr:stedsnr" v="909277" />
		<tag k="ssr:type" v="adressenavn" />
	</node>
	<node lat="62.61326819494589" lon="9.470020247250435" id="-83267">
		<tag k="name" v="Gamle Festavegen" />
		<tag k="ssr:date" v="2019-05-30" />
		<tag k="ssr:gruppe" v="veg" />
		<tag k="ssr:hovedgruppe" v="infrastruktur" />
		<tag k="ssr:stedsnr" v="909280" />
		<tag k="ssr:type" v="adressenavn" />
	</node>
	<node lat="62.611106434165876" lon="9.497910536765094" id="-83269">
		<tag k="name" v="Brandhaugvegen" />
		<tag k="ssr:date" v="2019-05-30" />
		<tag k="ssr:gruppe" v="veg" />
		<tag k="ssr:hovedgruppe" v="infrastruktur" />
		<tag k="ssr:stedsnr" v="909292" />
		<tag k="ssr:type" v="adressenavn" />
	</node>
	<node lat="62.608485331804395" lon="9.442339000702061" id="-83271">
		<tag k="name" v="Ytre Eggavegen" />
		<tag k="ssr:date" v="2019-05-30" />
		<tag k="ssr:gruppe" v="veg" />
		<tag k="ssr:hovedgruppe" v="infrastruktur" />
		<tag k="ssr:stedsnr" v="909385" />
		<tag k="ssr:type" v="adressenavn" />
	</node>
	<node lat="62.616848359365434" lon="9.731427602239167" id="-83274">
		<tag k="name" v="Stølstrøavegen" />
		<tag k="ssr:date" v="2019-05-30" />
		<tag k="ssr:gruppe" v="veg" />
		<tag k="ssr:hovedgruppe" v="infrastruktur" />
		<tag k="ssr:stedsnr" v="783850" />
		<tag k="ssr:type" v="adressenavn" />
	</node>
	<node lat="62.600984164364256" lon="9.658387176503744" id="-83276">
		<tag k="name" v="Skjørstadhaugvegen" />
		<tag k="ssr:date" v="2019-05-30" />
		<tag k="ssr:gruppe" v="veg" />
		<tag k="ssr:hovedgruppe" v="infrastruktur" />
		<tag k="ssr:stedsnr" v="783853" />
		<tag k="ssr:type" v="adressenavn" />
	</node>
	<node lat="62.6880390640713" lon="9.113160362357915" id="-83280">
		<tag k="name" v="Brandhaugdalsvegen" />
		<tag k="ssr:date" v="2019-05-30" />
		<tag k="ssr:gruppe" v="veg" />
		<tag k="ssr:hovedgruppe" v="infrastruktur" />
		<tag k="ssr:stedsnr" v="788201" />
		<tag k="ssr:type" v="adressenavn" />
	</node>
	<node lat="62.589460969931004" lon="9.664317779816626" id="-83312">
		<tag k="name" v="Astersvegen" />
		<tag k="ssr:date" v="2019-05-30" />
		<tag k="ssr:gruppe" v="veg" />
		<tag k="ssr:hovedgruppe" v="infrastruktur" />
		<tag k="ssr:stedsnr" v="817521" />
		<tag k="ssr:type" v="adressenavn" />
	</node>
	<node lat="62.58607971722762" lon="9.339908796592825" id="-83357">
		<tag k="name" v="Moavegen" />
		<tag k="ssr:date" v="2019-05-30" />
		<tag k="ssr:gruppe" v="veg" />
		<tag k="ssr:hovedgruppe" v="infrastruktur" />
		<tag k="ssr:stedsnr" v="829774" />
		<tag k="ssr:type" v="adressenavn" />
	</node>
	<node lat="62.637268493701505" lon="9.497878321520329" id="-83384">
		<tag k="name" v="Midtre Rasmusslættet" />
		<tag k="ssr:date" v="2019-05-30" />
		<tag k="ssr:gruppe" v="veg" />
		<tag k="ssr:hovedgruppe" v="infrastruktur" />
		<tag k="ssr:stedsnr" v="849190" />
		<tag k="ssr:type" v="adressenavn" />
	</node>
	<node lat="62.68036846156213" lon="9.541943295024796" id="-83386">
		<tag k="name" v="Kvamslia" />
		<tag k="ssr:date" v="2019-05-30" />
		<tag k="ssr:gruppe" v="veg" />
		<tag k="ssr:hovedgruppe" v="infrastruktur" />
		<tag k="ssr:stedsnr" v="849215" />
		<tag k="ssr:type" v="adressenavn" />
	</node>
	<node lat="62.59676894741499" lon="9.70514887235302" id="-83430">
		<tag k="name" v="Smivegen" />
		<tag k="ssr:date" v="2019-05-30" />
		<tag k="ssr:gruppe" v="veg" />
		<tag k="ssr:hovedgruppe" v="infrastruktur" />
		<tag k="ssr:stedsnr" v="877752" />
		<tag k="ssr:type" v="adressenavn" />
	</node>
	<node lat="62.59301480116679" lon="9.684885795835623" id="-83431">
		<tag k="name" v="Russervegen" />
		<tag k="ssr:date" v="2019-05-30" />
		<tag k="ssr:gruppe" v="veg" />
		<tag k="ssr:hovedgruppe" v="infrastruktur" />
		<tag k="ssr:stedsnr" v="877754" />
		<tag k="ssr:type" v="adressenavn" />
	</node>
	<node lat="62.3359944465016" lon="9.621769439821263" id="-83457">
		<tag k="name" v="Vadvegen" />
		<tag k="ssr:date" v="2018-01-09" />
		<tag k="ssr:gruppe" v="veg" />
		<tag k="ssr:hovedgruppe" v="infrastruktur" />
		<tag k="ssr:stedsnr" v="893118" />
		<tag k="ssr:type" v="vegstrekning" />
	</node>
	<node lat="62.613655556394654" lon="9.493624994785707" id="-83468">
		<tag k="loc_name" v="Øverlia" />
		<tag k="name" v="Øverli" />
		<tag k="ssr:date" v="2018-01-09" />
		<tag k="ssr:gruppe" v="veg" />
		<tag k="ssr:hovedgruppe" v="infrastruktur" />
		<tag k="ssr:stedsnr" v="910584" />
		<tag k="ssr:type" v="adressetilleggsnavn" />
	</node>
	<node lat="62.535068344895095" lon="9.597187809680033" id="-83503">
		<tag k="name" v="Båggåstrondvegen" />
		<tag k="ssr:date" v="2019-05-30" />
		<tag k="ssr:gruppe" v="veg" />
		<tag k="ssr:hovedgruppe" v="infrastruktur" />
		<tag k="ssr:stedsnr" v="938535" />
		<tag k="ssr:type" v="adressenavn" />
	</node>
	<node lat="62.59657500075619" lon="9.642608339331565" id="-83504">
		<tag k="name" v="Gamle Kirkevegen" />
		<tag k="ssr:date" v="2018-01-09" />
		<tag k="ssr:gruppe" v="veg" />
		<tag k="ssr:hovedgruppe" v="infrastruktur" />
		<tag k="ssr:stedsnr" v="938538" />
		<tag k="ssr:type" v="vegstrekning" />
	</node>
	<node lat="62.600271306930196" lon="9.693514534196362" id="-83506">
		<tag k="name" v="Konglevegen" />
		<tag k="ssr:date" v="2019-05-30" />
		<tag k="ssr:gruppe" v="veg" />
		<tag k="ssr:hovedgruppe" v="infrastruktur" />
		<tag k="ssr:stedsnr" v="938545" />
		<tag k="ssr:type" v="adressenavn" />
	</node>
	<node lat="62.59966579027573" lon="9.707252431496727" id="-83519">
		<tag k="name" v="Røskattvegen" />
		<tag k="ssr:date" v="2019-05-30" />
		<tag k="ssr:gruppe" v="veg" />
		<tag k="ssr:hovedgruppe" v="infrastruktur" />
		<tag k="ssr:stedsnr" v="950834" />
		<tag k="ssr:type" v="adressenavn" />
	</node>
	<node lat="62.66813451343483" lon="9.203520989109462" id="-83541">
		<tag k="name" v="Nausthaugvegen" />
		<tag k="ssr:date" v="2019-05-30" />
		<tag k="ssr:gruppe" v="veg" />
		<tag k="ssr:hovedgruppe" v="infrastruktur" />
		<tag k="ssr:stedsnr" v="970246" />
		<tag k="ssr:type" v="adressenavn" />
	</node>
	<node lat="62.61304475314246" lon="9.724667211849747" id="-83566">
		<tag k="name" v="Gorsetflata" />
		<tag k="ssr:date" v="2019-05-30" />
		<tag k="ssr:gruppe" v="veg" />
		<tag k="ssr:hovedgruppe" v="infrastruktur" />
		<tag k="ssr:stedsnr" v="976720" />
		<tag k="ssr:type" v="adressenavn" />
	</node>
	<node lat="62.76310129252261" lon="9.559893201844517" id="-83568">
		<tag k="name" v="Kåsengtrøa" />
		<tag k="ssr:date" v="2019-05-30" />
		<tag k="ssr:gruppe" v="veg" />
		<tag k="ssr:hovedgruppe" v="infrastruktur" />
		<tag k="ssr:stedsnr" v="976722" />
		<tag k="ssr:type" v="adressenavn" />
	</node>
	<node lat="62.66094730811857" lon="9.863085510785947" id="-83571">
		<tag k="name" v="Nyhaugbakken" />
		<tag k="ssr:date" v="2019-05-30" />
		<tag k="ssr:gruppe" v="veg" />
		<tag k="ssr:hovedgruppe" v="infrastruktur" />
		<tag k="ssr:stedsnr" v="976725" />
		<tag k="ssr:type" v="adressenavn" />
	</node>
	<node lat="62.67183197883051" lon="9.910268736895818" id="-83572">
		<tag k="name" v="Skogheimvegen" />
		<tag k="ssr:date" v="2019-05-30" />
		<tag k="ssr:gruppe" v="veg" />
		<tag k="ssr:hovedgruppe" v="infrastruktur" />
		<tag k="ssr:stedsnr" v="976726" />
		<tag k="ssr:type" v="adressenavn" />
	</node>
	<node lat="62.57498707093659" lon="9.671774264761961" id="-83574">
		<tag k="name" v="Sollisætervegen" />
		<tag k="ssr:date" v="2019-05-30" />
		<tag k="ssr:gruppe" v="veg" />
		<tag k="ssr:hovedgruppe" v="infrastruktur" />
		<tag k="ssr:stedsnr" v="976728" />
		<tag k="ssr:type" v="adressenavn" />
	</node>
	<node lat="62.58881948855479" lon="9.68606967907478" id="-83676">
		<tag k="name" v="Kantarellvegen" />
		<tag k="ssr:date" v="2019-05-30" />
		<tag k="ssr:gruppe" v="veg" />
		<tag k="ssr:hovedgruppe" v="infrastruktur" />
		<tag k="ssr:stedsnr" v="40800" />
		<tag k="ssr:type" v="adressenavn" />
	</node>
	<node lat="62.63070847886594" lon="9.490308183197818" id="-83707">
		<tag k="name" v="Hornvegen" />
		<tag k="ssr:date" v="2019-05-30" />
		<tag k="ssr:gruppe" v="veg" />
		<tag k="ssr:hovedgruppe" v="infrastruktur" />
		<tag k="ssr:stedsnr" v="60145" />
		<tag k="ssr:type" v="adressenavn" />
	</node>
	<node lat="62.63577313378305" lon="9.497522740660488" id="-83709">
		<tag k="name" v="Fremre Rasmusslættet" />
		<tag k="ssr:date" v="2019-05-30" />
		<tag k="ssr:gruppe" v="veg" />
		<tag k="ssr:hovedgruppe" v="infrastruktur" />
		<tag k="ssr:stedsnr" v="60244" />
		<tag k="ssr:type" v="adressenavn" />
	</node>
	<node lat="62.48597849819942" lon="9.582529452983335" id="-83710">
		<tag k="name" v="Åmotsdalsvegen" />
		<tag k="ssr:date" v="2019-05-30" />
		<tag k="ssr:gruppe" v="veg" />
		<tag k="ssr:hovedgruppe" v="infrastruktur" />
		<tag k="ssr:stedsnr" v="60256" />
		<tag k="ssr:type" v="adressenavn" />
	</node>
	<node lat="62.65737702547648" lon="9.806975811034238" id="-83711">
		<tag k="name" v="Stavåvegen" />
		<tag k="ssr:date" v="2019-05-30" />
		<tag k="ssr:gruppe" v="veg" />
		<tag k="ssr:hovedgruppe" v="infrastruktur" />
		<tag k="ssr:stedsnr" v="60329" />
		<tag k="ssr:type" v="adressenavn" />
	</node>
	<node lat="62.67267925137975" lon="9.545476111183001" id="-83712">
		<tag k="name" v="Stølsslettvegen" />
		<tag k="ssr:date" v="2019-05-30" />
		<tag k="ssr:gruppe" v="veg" />
		<tag k="ssr:hovedgruppe" v="infrastruktur" />
		<tag k="ssr:stedsnr" v="60337" />
		<tag k="ssr:type" v="adressenavn" />
	</node>
	<node lat="62.63989268246528" lon="9.499246263072964" id="-83714">
		<tag k="name" v="Ytre Rasmusslættet" />
		<tag k="ssr:date" v="2019-05-30" />
		<tag k="ssr:gruppe" v="veg" />
		<tag k="ssr:hovedgruppe" v="infrastruktur" />
		<tag k="ssr:stedsnr" v="60366" />
		<tag k="ssr:type" v="adressenavn" />
	</node>
	<node lat="62.58927499891081" lon="9.344880547706852" id="-83717">
		<tag k="name" v="Ner Lønset" />
		<tag k="ssr:date" v="2018-01-09" />
		<tag k="ssr:gruppe" v="veg" />
		<tag k="ssr:hovedgruppe" v="infrastruktur" />
		<tag k="ssr:stedsnr" v="60548" />
		<tag k="ssr:type" v="adressetilleggsnavn" />
	</node>
	<node lat="62.596441666247834" lon="9.705380556964801" id="-83787">
		<tag k="name" v="Gjelråket" />
		<tag k="ssr:date" v="2018-01-09" />
		<tag k="ssr:gruppe" v="veg" />
		<tag k="ssr:hovedgruppe" v="infrastruktur" />
		<tag k="ssr:stedsnr" v="89733" />
		<tag k="ssr:type" v="vegstrekning" />
	</node>
	<node lat="62.59353695507248" lon="9.69307911013484" id="-83788">
		<tag k="name" v="O. Skasliens veg" />
		<tag k="ssr:date" v="2019-05-30" />
		<tag k="ssr:gruppe" v="veg" />
		<tag k="ssr:hovedgruppe" v="infrastruktur" />
		<tag k="ssr:stedsnr" v="89738" />
		<tag k="ssr:type" v="adressenavn" />
	</node>
	<node lat="62.59847245639786" lon="9.69791662134797" id="-83790">
		<tag k="name" v="Rådyrvegen" />
		<tag k="ssr:date" v="2019-05-30" />
		<tag k="ssr:gruppe" v="veg" />
		<tag k="ssr:hovedgruppe" v="infrastruktur" />
		<tag k="ssr:stedsnr" v="89573" />
		<tag k="ssr:type" v="adressenavn" />
	</node>
	<node lat="62.59439386948788" lon="9.670006900032483" id="-83793">
		<tag k="name" v="Valmuevegen" />
		<tag k="ssr:date" v="2019-05-30" />
		<tag k="ssr:gruppe" v="veg" />
		<tag k="ssr:hovedgruppe" v="infrastruktur" />
		<tag k="ssr:stedsnr" v="89582" />
		<tag k="ssr:type" v="adressenavn" />
	</node>
	<node lat="62.623920392497716" lon="9.563770180163164" id="-83796">
		<tag k="name" v="Nerskogvegen" />
		<tag k="ssr:date" v="2019-05-30" />
		<tag k="ssr:gruppe" v="veg" />
		<tag k="ssr:hovedgruppe" v="infrastruktur" />
		<tag k="ssr:stedsnr" v="89837" />
		<tag k="ssr:type" v="adressenavn" />
	</node>
	<node lat="62.60171922353969" lon="9.701783314817922" id="-83802">
		<tag k="name" v="Museumsåsen" />
		<tag k="ssr:date" v="2019-05-30" />
		<tag k="ssr:gruppe" v="veg" />
		<tag k="ssr:hovedgruppe" v="infrastruktur" />
		<tag k="ssr:stedsnr" v="101787" />
		<tag k="ssr:type" v="adressenavn" />
	</node>
	<node lat="62.5997732783505" lon="9.697998995206436" id="-83805">
		<tag k="name" v="Elgfaret" />
		<tag k="ssr:date" v="2019-05-30" />
		<tag k="ssr:gruppe" v="veg" />
		<tag k="ssr:hovedgruppe" v="infrastruktur" />
		<tag k="ssr:stedsnr" v="102795" />
		<tag k="ssr:type" v="adressenavn" />
	</node>
	<node lat="62.619283126217944" lon="9.471912767904362" id="-83830">
		<tag k="name" v="Hornlivegen" />
		<tag k="ssr:date" v="2019-05-30" />
		<tag k="ssr:gruppe" v="veg" />
		<tag k="ssr:hovedgruppe" v="infrastruktur" />
		<tag k="ssr:stedsnr" v="120125" />
		<tag k="ssr:type" v="adressenavn" />
	</node>
	<node lat="62.51007637865568" lon="9.598799170788602" id="-83831">
		<tag k="name" v="Gottesvegen" />
		<tag k="ssr:date" v="2019-05-30" />
		<tag k="ssr:gruppe" v="veg" />
		<tag k="ssr:hovedgruppe" v="infrastruktur" />
		<tag k="ssr:stedsnr" v="120138" />
		<tag k="ssr:type" v="adressenavn" />
	</node>
	<node lat="62.680299353543795" lon="9.553682426054673" id="-83832">
		<tag k="name" v="Grønlia" />
		<tag k="ssr:date" v="2019-05-30" />
		<tag k="ssr:gruppe" v="veg" />
		<tag k="ssr:hovedgruppe" v="infrastruktur" />
		<tag k="ssr:stedsnr" v="120141" />
		<tag k="ssr:type" v="adressenavn" />
	</node>
	<node lat="62.663007083661135" lon="9.86749656307422" id="-83833">
		<tag k="name" v="Gjelhaugvegen" />
		<tag k="ssr:date" v="2019-05-30" />
		<tag k="ssr:gruppe" v="veg" />
		<tag k="ssr:hovedgruppe" v="infrastruktur" />
		<tag k="ssr:stedsnr" v="120251" />
		<tag k="ssr:type" v="adressenavn" />
	</node>
	<node lat="62.70725289614785" lon="9.562719729718484" id="-83835">
		<tag k="name" v="Skjørstadenget" />
		<tag k="ssr:date" v="2019-05-30" />
		<tag k="ssr:gruppe" v="veg" />
		<tag k="ssr:hovedgruppe" v="infrastruktur" />
		<tag k="ssr:stedsnr" v="120336" />
		<tag k="ssr:type" v="adressenavn" />
	</node>
	<node lat="62.56473333569954" lon="9.633016660784481" id="-83895">
		<tag k="name" v="Moavegen" />
		<tag k="ssr:date" v="2018-01-09" />
		<tag k="ssr:gruppe" v="veg" />
		<tag k="ssr:hovedgruppe" v="infrastruktur" />
		<tag k="ssr:stedsnr" v="149622" />
		<tag k="ssr:type" v="vegstrekning" />
	</node>
	<node lat="62.59150965676808" lon="9.682179743316322" id="-83899">
		<tag k="name" v="Bregnevegen" />
		<tag k="ssr:date" v="2019-05-30" />
		<tag k="ssr:gruppe" v="veg" />
		<tag k="ssr:hovedgruppe" v="infrastruktur" />
		<tag k="ssr:stedsnr" v="149572" />
		<tag k="ssr:type" v="adressenavn" />
	</node>
	<node lat="62.35674999805271" lon="9.631663883023817" id="-83924">
		<tag k="name" v="Grimdalssvingen" />
		<tag k="ssr:date" v="2018-01-09" />
		<tag k="ssr:gruppe" v="veg" />
		<tag k="ssr:hovedgruppe" v="infrastruktur" />
		<tag k="ssr:stedsnr" v="165022" />
		<tag k="ssr:type" v="vegstrekning" />
	</node>
	<node lat="62.33410881136833" lon="9.814394931290222" id="-83951">
		<tag k="name" v="Tanglægervegen" />
		<tag k="ssr:date" v="2019-05-30" />
		<tag k="ssr:gruppe" v="veg" />
		<tag k="ssr:hovedgruppe" v="infrastruktur" />
		<tag k="ssr:stedsnr" v="181356" />
		<tag k="ssr:type" v="adressenavn" />
	</node>
	<node lat="62.61954444703279" lon="9.551080552256263" id="-83954">
		<tag k="name" v="Sessåker" />
		<tag k="ssr:date" v="2018-01-09" />
		<tag k="ssr:gruppe" v="veg" />
		<tag k="ssr:hovedgruppe" v="infrastruktur" />
		<tag k="ssr:stedsnr" v="181591" />
		<tag k="ssr:type" v="adressetilleggsnavn" />
	</node>
	<node lat="62.594941666404026" lon="9.687608336880817" id="-84031">
		<tag k="name" v="Oppdal kommune" />
		<tag k="old_name" v="Opdal" />
		<tag k="ssr:date" v="2018-01-09" />
		<tag k="ssr:gruppe" v="administrativeIndelinger" />
		<tag k="ssr:hovedgruppe" v="offentligAdministrasjon" />
		<tag k="ssr:stedsnr" v="207973" />
		<tag k="ssr:type" v="kommune" />
	</node>
	<node lat="62.597318742741884" lon="9.699114047295696" id="-84038">
		<tag k="name" v="Ekornvegen" />
		<tag k="ssr:date" v="2019-05-30" />
		<tag k="ssr:gruppe" v="veg" />
		<tag k="ssr:hovedgruppe" v="infrastruktur" />
		<tag k="ssr:stedsnr" v="210565" />
		<tag k="ssr:type" v="adressenavn" />
	</node>
	<node lat="62.5900346637994" lon="9.683736439538185" id="-84039">
		<tag k="name" v="Tiurvegen" />
		<tag k="ssr:date" v="2019-05-30" />
		<tag k="ssr:gruppe" v="veg" />
		<tag k="ssr:hovedgruppe" v="infrastruktur" />
		<tag k="ssr:stedsnr" v="210591" />
		<tag k="ssr:type" v="adressenavn" />
	</node>
	<node lat="62.586815226617624" lon="9.676422617075415" id="-84040">
		<tag k="name" v="Tranevegen" />
		<tag k="ssr:date" v="2019-05-30" />
		<tag k="ssr:gruppe" v="veg" />
		<tag k="ssr:hovedgruppe" v="infrastruktur" />
		<tag k="ssr:stedsnr" v="210592" />
		<tag k="ssr:type" v="adressenavn" />
	</node>
	<node lat="62.597908641117556" lon="9.672769071599038" id="-84041">
		<tag k="name" v="Røtveivegen" />
		<tag k="ssr:date" v="2019-05-30" />
		<tag k="ssr:gruppe" v="veg" />
		<tag k="ssr:hovedgruppe" v="infrastruktur" />
		<tag k="ssr:stedsnr" v="210602" />
		<tag k="ssr:type" v="adressenavn" />
	</node>
	<node lat="62.26469696506058" lon="9.56793568488548" id="-84097">
		<tag k="name" v="Dovrevegen" />
		<tag k="ssr:date" v="2019-05-30" />
		<tag k="ssr:gruppe" v="veg" />
		<tag k="ssr:hovedgruppe" v="infrastruktur" />
		<tag k="ssr:stedsnr" v="284846" />
		<tag k="ssr:type" v="adressenavn" />
	</node>
	<node lat="62.27266666532788" lon="9.596825005151711" id="-84103">
		<tag k="name" v="Gamle Kongevei" />
		<tag k="ssr:date" v="2018-01-09" />
		<tag k="ssr:gruppe" v="veg" />
		<tag k="ssr:hovedgruppe" v="infrastruktur" />
		<tag k="ssr:stedsnr" v="286117" />
		<tag k="ssr:type" v="vegstrekning" />
	</node>
	<node lat="62.704442060936294" lon="9.564709520984206" id="-84131">
		<tag k="name" v="Rembekkvegen" />
		<tag k="ssr:date" v="2019-05-30" />
		<tag k="ssr:gruppe" v="veg" />
		<tag k="ssr:hovedgruppe" v="infrastruktur" />
		<tag k="ssr:stedsnr" v="302343" />
		<tag k="ssr:type" v="adressenavn" />
	</node>
	<node lat="62.514528983672484" lon="9.605454670036117" id="-84133">
		<tag k="name" v="Rislivegen" />
		<tag k="ssr:date" v="2019-05-30" />
		<tag k="ssr:gruppe" v="veg" />
		<tag k="ssr:hovedgruppe" v="infrastruktur" />
		<tag k="ssr:stedsnr" v="302360" />
		<tag k="ssr:type" v="adressenavn" />
	</node>
	<node lat="62.610021605737614" lon="9.501751488773923" id="-84134">
		<tag k="name" v="Ålbusøyvegen" />
		<tag k="ssr:date" v="2019-05-30" />
		<tag k="ssr:gruppe" v="veg" />
		<tag k="ssr:hovedgruppe" v="infrastruktur" />
		<tag k="ssr:stedsnr" v="303252" />
		<tag k="ssr:type" v="adressenavn" />
	</node>
	<node lat="62.59422693292728" lon="9.668015264408629" id="-84187">
		<tag k="name" v="Lupinvegen" />
		<tag k="ssr:date" v="2019-05-30" />
		<tag k="ssr:gruppe" v="veg" />
		<tag k="ssr:hovedgruppe" v="infrastruktur" />
		<tag k="ssr:stedsnr" v="331521" />
		<tag k="ssr:type" v="adressenavn" />
	</node>
	<node lat="62.59776086369146" lon="9.715984089315612" id="-84201">
		<tag k="name" v="Orkelsjøvegen" />
		<tag k="ssr:date" v="2019-05-30" />
		<tag k="ssr:gruppe" v="veg" />
		<tag k="ssr:hovedgruppe" v="infrastruktur" />
		<tag k="ssr:stedsnr" v="331759" />
		<tag k="ssr:type" v="adressenavn" />
	</node>
	<node lat="62.61289563761729" lon="9.519893307311577" id="-84205">
		<tag k="name" v="Ordførarvegen" />
		<tag k="ssr:date" v="2019-05-30" />
		<tag k="ssr:gruppe" v="veg" />
		<tag k="ssr:hovedgruppe" v="infrastruktur" />
		<tag k="ssr:stedsnr" v="331790" />
		<tag k="ssr:type" v="adressenavn" />
	</node>
	<node lat="62.583283151236714" lon="9.668433740236033" id="-84211">
		<tag k="name" v="Blødighaug" />
		<tag k="ssr:date" v="2019-05-30" />
		<tag k="ssr:gruppe" v="veg" />
		<tag k="ssr:hovedgruppe" v="infrastruktur" />
		<tag k="ssr:stedsnr" v="342779" />
		<tag k="ssr:type" v="adressenavn" />
	</node>
	<node lat="62.59852445517107" lon="9.680927481063032" id="-84212">
		<tag k="name" v="Steinvegen" />
		<tag k="ssr:date" v="2019-05-30" />
		<tag k="ssr:gruppe" v="veg" />
		<tag k="ssr:hovedgruppe" v="infrastruktur" />
		<tag k="ssr:stedsnr" v="343892" />
		<tag k="ssr:type" v="adressenavn" />
	</node>
	<node lat="62.60216005988854" lon="9.695753992774824" id="-84213">
		<tag k="name" v="Slepphaugen" />
		<tag k="ssr:date" v="2019-05-30" />
		<tag k="ssr:gruppe" v="veg" />
		<tag k="ssr:hovedgruppe" v="infrastruktur" />
		<tag k="ssr:stedsnr" v="343878" />
		<tag k="ssr:type" v="adressenavn" />
	</node>
	<node lat="62.60884872015427" lon="9.741821458117204" id="-84244">
		<tag k="name" v="Gorsetsætervegen" />
		<tag k="ssr:date" v="2019-05-30" />
		<tag k="ssr:gruppe" v="veg" />
		<tag k="ssr:hovedgruppe" v="infrastruktur" />
		<tag k="ssr:stedsnr" v="363126" />
		<tag k="ssr:type" v="adressenavn" />
	</node>
	<node lat="62.66018291379362" lon="9.832431124474086" id="-84245">
		<tag k="name" v="Grytdalsvegen" />
		<tag k="ssr:date" v="2019-05-30" />
		<tag k="ssr:gruppe" v="veg" />
		<tag k="ssr:hovedgruppe" v="infrastruktur" />
		<tag k="ssr:stedsnr" v="363128" />
		<tag k="ssr:type" v="adressenavn" />
	</node>
	<node lat="62.599291975667086" lon="9.693754379905974" id="-84312">
		<tag k="name" v="Seljevegen" />
		<tag k="ssr:date" v="2019-05-30" />
		<tag k="ssr:gruppe" v="veg" />
		<tag k="ssr:hovedgruppe" v="infrastruktur" />
		<tag k="ssr:stedsnr" v="392614" />
		<tag k="ssr:type" v="adressenavn" />
	</node>
	<node lat="62.600271306930196" lon="9.693514534196362" id="-84313">
		<tag k="name" v="Einervegen" />
		<tag k="ssr:date" v="2019-05-30" />
		<tag k="ssr:gruppe" v="veg" />
		<tag k="ssr:hovedgruppe" v="infrastruktur" />
		<tag k="ssr:stedsnr" v="392616" />
		<tag k="ssr:type" v="adressenavn" />
	</node>
	<node lat="62.5949084014302" lon="9.695433804497629" id="-84314">
		<tag k="name" v="Nyvegen" />
		<tag k="ssr:date" v="2019-05-30" />
		<tag k="ssr:gruppe" v="veg" />
		<tag k="ssr:hovedgruppe" v="infrastruktur" />
		<tag k="ssr:stedsnr" v="392618" />
		<tag k="ssr:type" v="adressenavn" />
	</node>
	<node lat="62.59524071172489" lon="9.692969304565176" id="-84315">
		<tag k="name" v="Høgmovegen" />
		<tag k="ssr:date" v="2019-05-30" />
		<tag k="ssr:gruppe" v="veg" />
		<tag k="ssr:hovedgruppe" v="infrastruktur" />
		<tag k="ssr:stedsnr" v="392622" />
		<tag k="ssr:type" v="adressenavn" />
	</node>
	<node lat="62.590376630605725" lon="9.66471056459928" id="-84316">
		<tag k="name" v="Pionvegen" />
		<tag k="ssr:date" v="2019-05-30" />
		<tag k="ssr:gruppe" v="veg" />
		<tag k="ssr:hovedgruppe" v="infrastruktur" />
		<tag k="ssr:stedsnr" v="392631" />
		<tag k="ssr:type" v="adressenavn" />
	</node>
	<node lat="62.58224052516935" lon="9.344672065648345" id="-84323">
		<tag k="name" v="Storlidalsvegen" />
		<tag k="ssr:date" v="2019-05-30" />
		<tag k="ssr:gruppe" v="veg" />
		<tag k="ssr:hovedgruppe" v="infrastruktur" />
		<tag k="ssr:stedsnr" v="392847" />
		<tag k="ssr:type" v="adressenavn" />
	</node>
	<node lat="62.59991181949441" lon="9.693578060766521" id="-84331">
		<tag k="name" v="Sanatellvegen" />
		<tag k="ssr:date" v="2019-05-30" />
		<tag k="ssr:gruppe" v="veg" />
		<tag k="ssr:hovedgruppe" v="infrastruktur" />
		<tag k="ssr:stedsnr" v="404839" />
		<tag k="ssr:type" v="adressenavn" />
	</node>
	<node lat="62.599165234913805" lon="9.685037221176326" id="-84359">
		<tag k="name" v="Vinkelvegen" />
		<tag k="ssr:date" v="2020-02-17" />
		<tag k="ssr:gruppe" v="veg" />
		<tag k="ssr:hovedgruppe" v="infrastruktur" />
		<tag k="ssr:stedsnr" v="419831" />
		<tag k="ssr:type" v="adressenavn" />
	</node>
	<node lat="62.6187674483292" lon="9.550993585137764" id="-84361">
		<tag k="name" v="Hindsetvegen" />
		<tag k="ssr:date" v="2019-05-30" />
		<tag k="ssr:gruppe" v="veg" />
		<tag k="ssr:hovedgruppe" v="infrastruktur" />
		<tag k="ssr:stedsnr" v="424151" />
		<tag k="ssr:type" v="adressenavn" />
	</node>
	<node lat="62.584241889349656" lon="9.528247140932132" id="-84362">
		<tag k="name" v="Gravådalsvegen" />
		<tag k="ssr:date" v="2019-05-30" />
		<tag k="ssr:gruppe" v="veg" />
		<tag k="ssr:hovedgruppe" v="infrastruktur" />
		<tag k="ssr:stedsnr" v="424157" />
		<tag k="ssr:type" v="adressenavn" />
	</node>
	<node lat="62.63449697321345" lon="9.504200063317423" id="-84365">
		<tag k="name" v="Langbergvegen" />
		<tag k="ssr:date" v="2019-05-30" />
		<tag k="ssr:gruppe" v="veg" />
		<tag k="ssr:hovedgruppe" v="infrastruktur" />
		<tag k="ssr:stedsnr" v="424189" />
		<tag k="ssr:type" v="adressenavn" />
	</node>
	<node lat="62.70478486738267" lon="9.899984873584145" id="-84366">
		<tag k="name" v="Veslsæterråket" />
		<tag k="ssr:date" v="2019-05-30" />
		<tag k="ssr:gruppe" v="veg" />
		<tag k="ssr:hovedgruppe" v="infrastruktur" />
		<tag k="ssr:stedsnr" v="424363" />
		<tag k="ssr:type" v="adressenavn" />
	</node>
	<node lat="62.61076666308667" lon="9.316041672047806" id="-84367">
		<tag k="name" v="Stølan" />
		<tag k="ssr:date" v="2018-01-09" />
		<tag k="ssr:gruppe" v="veg" />
		<tag k="ssr:hovedgruppe" v="infrastruktur" />
		<tag k="ssr:stedsnr" v="424560" />
		<tag k="ssr:type" v="adressetilleggsnavn" />
	</node>
	<node lat="62.591186654884474" lon="9.683104489725588" id="-84462">
		<tag k="name" v="Vikavegen" />
		<tag k="ssr:date" v="2019-05-30" />
		<tag k="ssr:gruppe" v="veg" />
		<tag k="ssr:hovedgruppe" v="infrastruktur" />
		<tag k="ssr:stedsnr" v="513554" />
		<tag k="ssr:type" v="adressenavn" />
	</node>
	<node lat="62.598562207894474" lon="9.692700054178475" id="-84466">
		<tag k="name" v="Oldervegen" />
		<tag k="ssr:date" v="2019-05-30" />
		<tag k="ssr:gruppe" v="veg" />
		<tag k="ssr:hovedgruppe" v="infrastruktur" />
		<tag k="ssr:stedsnr" v="513592" />
		<tag k="ssr:type" v="adressenavn" />
	</node>
	<node lat="62.604072898702526" lon="9.644618566953651" id="-84490">
		<tag k="name" v="Fjellvang" />
		<tag k="ssr:date" v="2019-05-30" />
		<tag k="ssr:gruppe" v="veg" />
		<tag k="ssr:hovedgruppe" v="infrastruktur" />
		<tag k="ssr:stedsnr" v="527765" />
		<tag k="ssr:type" v="adressenavn" />
	</node>
	<node lat="62.629607671169865" lon="9.490389462131885" id="-84518">
		<tag k="name" v="Kvamsvegen" />
		<tag k="ssr:date" v="2019-05-30" />
		<tag k="ssr:gruppe" v="veg" />
		<tag k="ssr:hovedgruppe" v="infrastruktur" />
		<tag k="ssr:stedsnr" v="545178" />
		<tag k="ssr:type" v="adressenavn" />
	</node>
	<node lat="62.63475843899599" lon="9.77767570027329" id="-84519">
		<tag k="name" v="Aunsætervegen" />
		<tag k="ssr:date" v="2019-05-30" />
		<tag k="ssr:gruppe" v="veg" />
		<tag k="ssr:hovedgruppe" v="infrastruktur" />
		<tag k="ssr:stedsnr" v="545184" />
		<tag k="ssr:type" v="adressenavn" />
	</node>
	<node lat="62.68848958559671" lon="9.109085212731799" id="-84520">
		<tag k="name" v="Østre Sløvadvegen" />
		<tag k="ssr:date" v="2019-05-30" />
		<tag k="ssr:gruppe" v="veg" />
		<tag k="ssr:hovedgruppe" v="infrastruktur" />
		<tag k="ssr:stedsnr" v="545334" />
		<tag k="ssr:type" v="adressenavn" />
	</node>
	<node lat="62.70531693532571" lon="9.898231890336934" id="-84521">
		<tag k="name" v="Veslsæterlivegen" />
		<tag k="ssr:date" v="2019-05-30" />
		<tag k="ssr:gruppe" v="veg" />
		<tag k="ssr:hovedgruppe" v="infrastruktur" />
		<tag k="ssr:stedsnr" v="545337" />
		<tag k="ssr:type" v="adressenavn" />
	</node>
	<node lat="62.68909728853828" lon="9.104503917534897" id="-84522">
		<tag k="name" v="Vestre Sløvadvegen" />
		<tag k="ssr:date" v="2019-05-30" />
		<tag k="ssr:gruppe" v="veg" />
		<tag k="ssr:hovedgruppe" v="infrastruktur" />
		<tag k="ssr:stedsnr" v="545341" />
		<tag k="ssr:type" v="adressenavn" />
	</node>
	<node lat="62.59721944397974" lon="9.587222218941392" id="-84523">
		<tag k="name" v="Lia" />
		<tag k="ssr:date" v="2018-01-09" />
		<tag k="ssr:gruppe" v="veg" />
		<tag k="ssr:hovedgruppe" v="infrastruktur" />
		<tag k="ssr:stedsnr" v="545548" />
		<tag k="ssr:type" v="adressetilleggsnavn" />
	</node>
	<node lat="62.58429881537772" lon="9.671344359082804" id="-84575">
		<tag k="name" v="Brennhaugvegen" />
		<tag k="ssr:date" v="2019-05-30" />
		<tag k="ssr:gruppe" v="veg" />
		<tag k="ssr:hovedgruppe" v="infrastruktur" />
		<tag k="ssr:stedsnr" v="574609" />
		<tag k="ssr:type" v="adressenavn" />
	</node>
	<node lat="62.58721874369152" lon="9.672046415318256" id="-84576">
		<tag k="name" v="Neslevegen" />
		<tag k="ssr:date" v="2019-05-30" />
		<tag k="ssr:gruppe" v="veg" />
		<tag k="ssr:hovedgruppe" v="infrastruktur" />
		<tag k="ssr:stedsnr" v="574611" />
		<tag k="ssr:type" v="adressenavn" />
	</node>
	<node lat="62.59855764380926" lon="9.680383823100449" id="-84577">
		<tag k="name" v="Trollvegen" />
		<tag k="ssr:date" v="2019-05-30" />
		<tag k="ssr:gruppe" v="veg" />
		<tag k="ssr:hovedgruppe" v="infrastruktur" />
		<tag k="ssr:stedsnr" v="574618" />
		<tag k="ssr:type" v="adressenavn" />
	</node>
	<node lat="62.58964178178689" lon="9.700294013301146" id="-84582">
		<tag k="name" v="Kremlevegen" />
		<tag k="ssr:date" v="2019-05-30" />
		<tag k="ssr:gruppe" v="veg" />
		<tag k="ssr:hovedgruppe" v="infrastruktur" />
		<tag k="ssr:stedsnr" v="574767" />
		<tag k="ssr:type" v="adressenavn" />
	</node>
	<node lat="62.655040622791795" lon="9.881298493822795" id="-84599">
		<tag k="name" v="Fururingen" />
		<tag k="ssr:date" v="2019-05-30" />
		<tag k="ssr:gruppe" v="veg" />
		<tag k="ssr:hovedgruppe" v="infrastruktur" />
		<tag k="ssr:stedsnr" v="587788" />
		<tag k="ssr:type" v="adressenavn" />
	</node>
	<node lat="62.61220069583665" lon="9.726531382172652" id="-84618">
		<tag k="name" v="Gardåvegen" />
		<tag k="ssr:date" v="2019-05-30" />
		<tag k="ssr:gruppe" v="veg" />
		<tag k="ssr:hovedgruppe" v="infrastruktur" />
		<tag k="ssr:stedsnr" v="601836" />
		<tag k="ssr:type" v="adressenavn" />
	</node>
	<node lat="62.5722627450872" lon="9.384466115111644" id="-84620">
		<tag k="name" v="Hammerbekkvegen" />
		<tag k="ssr:date" v="2019-05-30" />
		<tag k="ssr:gruppe" v="veg" />
		<tag k="ssr:hovedgruppe" v="infrastruktur" />
		<tag k="ssr:stedsnr" v="605146" />
		<tag k="ssr:type" v="adressenavn" />
	</node>
	<node lat="62.56344923822157" lon="9.642875646525447" id="-84621">
		<tag k="name" v="Hevlesvegen" />
		<tag k="ssr:date" v="2019-05-30" />
		<tag k="ssr:gruppe" v="veg" />
		<tag k="ssr:hovedgruppe" v="infrastruktur" />
		<tag k="ssr:stedsnr" v="605148" />
		<tag k="ssr:type" v="adressenavn" />
	</node>
	<node lat="62.61522002840789" lon="9.473237265302938" id="-84622">
		<tag k="name" v="Gjetdalsvegen" />
		<tag k="ssr:date" v="2019-05-30" />
		<tag k="ssr:gruppe" v="veg" />
		<tag k="ssr:hovedgruppe" v="infrastruktur" />
		<tag k="ssr:stedsnr" v="605278" />
		<tag k="ssr:type" v="adressenavn" />
	</node>
	<node lat="62.61715693958549" lon="9.484969485728497" id="-84624">
		<tag k="name" v="Osvegen" />
		<tag k="ssr:date" v="2019-05-30" />
		<tag k="ssr:gruppe" v="veg" />
		<tag k="ssr:hovedgruppe" v="infrastruktur" />
		<tag k="ssr:stedsnr" v="605355" />
		<tag k="ssr:type" v="adressenavn" />
	</node>
	<node lat="62.58198316345184" lon="9.2545073219007" id="-84628">
		<tag k="name" v="Sliperlivegen" />
		<tag k="ssr:date" v="2019-05-30" />
		<tag k="ssr:gruppe" v="veg" />
		<tag k="ssr:hovedgruppe" v="infrastruktur" />
		<tag k="ssr:stedsnr" v="605371" />
		<tag k="ssr:type" v="adressenavn" />
	</node>
	<node lat="62.5218264084732" lon="9.882556935800455" id="-84629">
		<tag k="name" v="Veslorkelsjøvegen" />
		<tag k="ssr:date" v="2019-05-30" />
		<tag k="ssr:gruppe" v="veg" />
		<tag k="ssr:hovedgruppe" v="infrastruktur" />
		<tag k="ssr:stedsnr" v="605398" />
		<tag k="ssr:type" v="adressenavn" />
	</node>
	<node lat="62.59386415568151" lon="9.669889483739393" id="-84682">
		<tag k="name" v="Soleivegen" />
		<tag k="ssr:date" v="2019-05-30" />
		<tag k="ssr:gruppe" v="veg" />
		<tag k="ssr:hovedgruppe" v="infrastruktur" />
		<tag k="ssr:stedsnr" v="634752" />
		<tag k="ssr:type" v="adressenavn" />
	</node>
	<node lat="62.58935856022968" lon="9.69150661860792" id="-84697">
		<tag k="name" v="Rødskrubbvegen" />
		<tag k="ssr:date" v="2019-05-30" />
		<tag k="ssr:gruppe" v="veg" />
		<tag k="ssr:hovedgruppe" v="infrastruktur" />
		<tag k="ssr:stedsnr" v="646842" />
		<tag k="ssr:type" v="adressenavn" />
	</node>
	<node lat="62.58275848532524" lon="9.338427654145127" id="-84724">
		<tag k="name" v="Lønsetvegen" />
		<tag k="ssr:date" v="2019-05-30" />
		<tag k="ssr:gruppe" v="veg" />
		<tag k="ssr:hovedgruppe" v="infrastruktur" />
		<tag k="ssr:stedsnr" v="666183" />
		<tag k="ssr:type" v="adressenavn" />
	</node>
	<node lat="62.65191798237302" lon="9.493675798133541" id="-84725">
		<tag k="name" v="Naustdalsvegen" />
		<tag k="ssr:date" v="2019-05-30" />
		<tag k="ssr:gruppe" v="veg" />
		<tag k="ssr:hovedgruppe" v="infrastruktur" />
		<tag k="ssr:stedsnr" v="666175" />
		<tag k="ssr:type" v="adressenavn" />
	</node>
	<node lat="62.646791994921145" lon="9.491114086901302" id="-84728">
		<tag k="name" v="Langoddvegen" />
		<tag k="ssr:date" v="2019-05-30" />
		<tag k="ssr:gruppe" v="veg" />
		<tag k="ssr:hovedgruppe" v="infrastruktur" />
		<tag k="ssr:stedsnr" v="666189" />
		<tag k="ssr:type" v="adressenavn" />
	</node>
	<node lat="62.76139469022159" lon="9.561547142346104" id="-84729">
		<tag k="name" v="Kåsenget" />
		<tag k="ssr:date" v="2019-05-30" />
		<tag k="ssr:gruppe" v="veg" />
		<tag k="ssr:hovedgruppe" v="infrastruktur" />
		<tag k="ssr:stedsnr" v="666192" />
		<tag k="ssr:type" v="adressenavn" />
	</node>
	<node lat="62.6568259581713" lon="9.876315069889321" id="-84730">
		<tag k="name" v="Fagerhaugvegen" />
		<tag k="ssr:date" v="2019-05-30" />
		<tag k="ssr:gruppe" v="veg" />
		<tag k="ssr:hovedgruppe" v="infrastruktur" />
		<tag k="ssr:stedsnr" v="666267" />
		<tag k="ssr:type" v="adressenavn" />
	</node>
	<node lat="62.680394218193314" lon="9.88986405987733" id="-84731">
		<tag k="name" v="Stugguhaugløkkja" />
		<tag k="ssr:date" v="2019-05-30" />
		<tag k="ssr:gruppe" v="veg" />
		<tag k="ssr:hovedgruppe" v="infrastruktur" />
		<tag k="ssr:stedsnr" v="666362" />
		<tag k="ssr:type" v="adressenavn" />
	</node>
	<node lat="62.67108245946429" lon="9.543954825345722" id="-84747">
		<tag k="name" v="Gamle Skarvegen" />
		<tag k="old_name" v="Gamle Skardvegen" />
		<tag k="ssr:date" v="2019-05-30" />
		<tag k="ssr:gruppe" v="veg" />
		<tag k="ssr:hovedgruppe" v="infrastruktur" />
		<tag k="ssr:stedsnr" v="711701" />
		<tag k="ssr:type" v="adressenavn" />
	</node>
	<node lat="62.62826058157427" lon="9.491464593002569" id="-84751">
		<tag k="name" v="Gjetbergsvegen" />
		<tag k="ssr:date" v="2019-05-30" />
		<tag k="ssr:gruppe" v="veg" />
		<tag k="ssr:hovedgruppe" v="infrastruktur" />
		<tag k="ssr:stedsnr" v="727260" />
		<tag k="ssr:type" v="adressenavn" />
	</node>
	<node lat="62.480466506309654" lon="9.579166382826923" id="-84752">
		<tag k="name" v="Enganvegen" />
		<tag k="ssr:date" v="2019-05-30" />
		<tag k="ssr:gruppe" v="veg" />
		<tag k="ssr:hovedgruppe" v="infrastruktur" />
		<tag k="ssr:stedsnr" v="727266" />
		<tag k="ssr:type" v="adressenavn" />
	</node>
	<node lat="62.614257260082084" lon="9.734462693355857" id="-84753">
		<tag k="name" v="Øvre Stølsvegen" />
		<tag k="ssr:date" v="2019-05-30" />
		<tag k="ssr:gruppe" v="veg" />
		<tag k="ssr:hovedgruppe" v="infrastruktur" />
		<tag k="ssr:stedsnr" v="727269" />
		<tag k="ssr:type" v="adressenavn" />
	</node>
	<node lat="62.61550883040094" lon="9.583518288532092" id="-84755">
		<tag k="name" v="Tyvesvegen" />
		<tag k="ssr:date" v="2019-05-30" />
		<tag k="ssr:gruppe" v="veg" />
		<tag k="ssr:hovedgruppe" v="infrastruktur" />
		<tag k="ssr:stedsnr" v="727361" />
		<tag k="ssr:type" v="adressenavn" />
	</node>
	<node lat="62.61649166579867" lon="9.582652784289701" id="-84756">
		<tag k="name" v="Tyve" />
		<tag k="ssr:date" v="2018-01-09" />
		<tag k="ssr:gruppe" v="veg" />
		<tag k="ssr:hovedgruppe" v="infrastruktur" />
		<tag k="ssr:stedsnr" v="728555" />
		<tag k="ssr:type" v="adressetilleggsnavn" />
	</node>
	<node lat="62.599234731592574" lon="9.689039363371903" id="-84814">
		<tag k="name" v="Bjerkehagen" />
		<tag k="ssr:date" v="2019-05-30" />
		<tag k="ssr:gruppe" v="veg" />
		<tag k="ssr:hovedgruppe" v="infrastruktur" />
		<tag k="ssr:stedsnr" v="756565" />
		<tag k="ssr:type" v="adressenavn" />
	</node>
	<node lat="62.5938190965126" lon="9.669885489689982" id="-84816">
		<tag k="name" v="Liljevegen" />
		<tag k="ssr:date" v="2019-05-30" />
		<tag k="ssr:gruppe" v="veg" />
		<tag k="ssr:hovedgruppe" v="infrastruktur" />
		<tag k="ssr:stedsnr" v="756584" />
		<tag k="ssr:type" v="adressenavn" />
	</node>
	<node lat="62.56928620821579" lon="9.646710671902614" id="-84817">
		<tag k="name" v="Krossvegen" />
		<tag k="ssr:date" v="2019-05-30" />
		<tag k="ssr:gruppe" v="veg" />
		<tag k="ssr:hovedgruppe" v="infrastruktur" />
		<tag k="ssr:stedsnr" v="756653" />
		<tag k="ssr:type" v="adressenavn" />
	</node>
	<node lat="62.62653771385911" lon="9.778369230522834" id="-84818">
		<tag k="name" v="Elgsmovegen" />
		<tag k="ssr:date" v="2019-05-30" />
		<tag k="ssr:gruppe" v="veg" />
		<tag k="ssr:hovedgruppe" v="infrastruktur" />
		<tag k="ssr:stedsnr" v="756679" />
		<tag k="ssr:type" v="adressenavn" />
	</node>
	<node lat="62.60024758124073" lon="9.700414740512349" id="-84834">
		<tag k="name" v="Hesteskoen" />
		<tag k="ssr:date" v="2019-05-30" />
		<tag k="ssr:gruppe" v="veg" />
		<tag k="ssr:hovedgruppe" v="infrastruktur" />
		<tag k="ssr:stedsnr" v="768782" />
		<tag k="ssr:type" v="adressenavn" />
	</node>
	<node lat="62.66321578356705" lon="9.867137952446685" id="-84857">
		<tag k="name" v="Nyhauglia" />
		<tag k="ssr:date" v="2019-05-30" />
		<tag k="ssr:gruppe" v="veg" />
		<tag k="ssr:hovedgruppe" v="infrastruktur" />
		<tag k="ssr:stedsnr" v="788168" />
		<tag k="ssr:type" v="adressenavn" />
	</node>
	<node lat="62.64771347550383" lon="9.906498262692669" id="-84859">
		<tag k="name" v="Langvelldalsvegen" />
		<tag k="ssr:date" v="2019-05-30" />
		<tag k="ssr:gruppe" v="veg" />
		<tag k="ssr:hovedgruppe" v="infrastruktur" />
		<tag k="ssr:stedsnr" v="788175" />
		<tag k="ssr:type" v="adressenavn" />
	</node>
	<node lat="62.646471882469804" lon="9.793441048297515" id="-84860">
		<tag k="name" v="Magnhildhaugvegen" />
		<tag k="ssr:date" v="2019-05-30" />
		<tag k="ssr:gruppe" v="veg" />
		<tag k="ssr:hovedgruppe" v="infrastruktur" />
		<tag k="ssr:stedsnr" v="788177" />
		<tag k="ssr:type" v="adressenavn" />
	</node>
	<node lat="62.689558082122495" lon="9.933052345029454" id="-84862">
		<tag k="name" v="Holdavegen" />
		<tag k="ssr:date" v="2019-05-30" />
		<tag k="ssr:gruppe" v="veg" />
		<tag k="ssr:hovedgruppe" v="infrastruktur" />
		<tag k="ssr:stedsnr" v="788138" />
		<tag k="ssr:type" v="adressenavn" />
	</node>
	<node lat="62.663605550634536" lon="9.82716459744288" id="-84863">
		<tag k="name" v="Stormyrvegen" />
		<tag k="ssr:date" v="2019-05-30" />
		<tag k="ssr:gruppe" v="veg" />
		<tag k="ssr:hovedgruppe" v="infrastruktur" />
		<tag k="ssr:stedsnr" v="788329" />
		<tag k="ssr:type" v="adressenavn" />
	</node>
	<node lat="62.48492543623292" lon="9.579126306681642" id="-84864">
		<tag k="name" v="Vammervollvegen" />
		<tag k="ssr:date" v="2019-05-30" />
		<tag k="ssr:gruppe" v="veg" />
		<tag k="ssr:hovedgruppe" v="infrastruktur" />
		<tag k="ssr:stedsnr" v="788331" />
		<tag k="ssr:type" v="adressenavn" />
	</node>
	<node lat="62.59353710824485" lon="9.673108677452005" id="-84933">
		<tag k="name" v="Sildrevegen" />
		<tag k="ssr:date" v="2019-05-30" />
		<tag k="ssr:gruppe" v="veg" />
		<tag k="ssr:hovedgruppe" v="infrastruktur" />
		<tag k="ssr:stedsnr" v="817738" />
		<tag k="ssr:type" v="adressenavn" />
	</node>
	<node lat="62.60731764461784" lon="9.65235060286057" id="-84981">
		<tag k="name" v="Vangshaugvegen" />
		<tag k="ssr:date" v="2019-05-30" />
		<tag k="ssr:gruppe" v="veg" />
		<tag k="ssr:hovedgruppe" v="infrastruktur" />
		<tag k="ssr:stedsnr" v="844849" />
		<tag k="ssr:type" v="adressenavn" />
	</node>
	<node lat="62.614844089370465" lon="9.73807784529081" id="-84982">
		<tag k="name" v="Stølshåggåvegen" />
		<tag k="ssr:date" v="2019-05-30" />
		<tag k="ssr:gruppe" v="veg" />
		<tag k="ssr:hovedgruppe" v="infrastruktur" />
		<tag k="ssr:stedsnr" v="844854" />
		<tag k="ssr:type" v="adressenavn" />
	</node>
	<node lat="62.6157436057374" lon="9.577168365646115" id="-84983">
		<tag k="name" v="Bredstigen" />
		<tag k="ssr:date" v="2019-05-30" />
		<tag k="ssr:gruppe" v="veg" />
		<tag k="ssr:hovedgruppe" v="infrastruktur" />
		<tag k="ssr:stedsnr" v="844872" />
		<tag k="ssr:type" v="adressenavn" />
	</node>
	<node lat="62.46445000140812" lon="9.57610592816742" id="-84986">
		<tag k="name" v="Sæterfjellvegen" />
		<tag k="ssr:date" v="2019-05-30" />
		<tag k="ssr:gruppe" v="veg" />
		<tag k="ssr:hovedgruppe" v="infrastruktur" />
		<tag k="ssr:stedsnr" v="849348" />
		<tag k="ssr:type" v="adressenavn" />
	</node>
	<node lat="62.76578253398082" lon="9.572507866281864" id="-84988">
		<tag k="name" v="Sørlivegen" />
		<tag k="ssr:date" v="2019-05-30" />
		<tag k="ssr:gruppe" v="veg" />
		<tag k="ssr:hovedgruppe" v="infrastruktur" />
		<tag k="ssr:stedsnr" v="849359" />
		<tag k="ssr:type" v="adressenavn" />
	</node>
	<node lat="62.618883337586624" lon="9.477438886835007" id="-84989">
		<tag k="name" v="Nyvold" />
		<tag k="ssr:date" v="2018-01-09" />
		<tag k="ssr:gruppe" v="veg" />
		<tag k="ssr:hovedgruppe" v="infrastruktur" />
		<tag k="ssr:stedsnr" v="849662" />
		<tag k="ssr:type" v="adressetilleggsnavn" />
	</node>
	<node lat="62.612666670022705" lon="9.58957222243602" id="-84990">
		<tag k="name" v="Vekve" />
		<tag k="ssr:date" v="2018-01-09" />
		<tag k="ssr:gruppe" v="veg" />
		<tag k="ssr:hovedgruppe" v="infrastruktur" />
		<tag k="ssr:stedsnr" v="849671" />
		<tag k="ssr:type" v="adressetilleggsnavn" />
	</node>
	<node lat="62.597262887109494" lon="9.689978727617637" id="-85053">
		<tag k="name" v="Kløvervegen" />
		<tag k="ssr:date" v="2019-05-30" />
		<tag k="ssr:gruppe" v="veg" />
		<tag k="ssr:hovedgruppe" v="infrastruktur" />
		<tag k="ssr:stedsnr" v="877578" />
		<tag k="ssr:type" v="adressenavn" />
	</node>
	<node lat="62.599187982202096" lon="9.68778901120244" id="-85054">
		<tag k="name" v="Engvegen" />
		<tag k="ssr:date" v="2019-05-30" />
		<tag k="ssr:gruppe" v="veg" />
		<tag k="ssr:hovedgruppe" v="infrastruktur" />
		<tag k="ssr:stedsnr" v="877579" />
		<tag k="ssr:type" v="adressenavn" />
	</node>
	<node lat="62.59307557114653" lon="9.666476275413094" id="-85058">
		<tag k="name" v="Nellikvegen" />
		<tag k="ssr:date" v="2019-05-30" />
		<tag k="ssr:gruppe" v="veg" />
		<tag k="ssr:hovedgruppe" v="infrastruktur" />
		<tag k="ssr:stedsnr" v="878593" />
		<tag k="ssr:type" v="adressenavn" />
	</node>
	<node lat="62.586509330423475" lon="9.676091283065007" id="-85075">
		<tag k="name" v="Lerkevegen" />
		<tag k="ssr:date" v="2019-05-30" />
		<tag k="ssr:gruppe" v="veg" />
		<tag k="ssr:hovedgruppe" v="infrastruktur" />
		<tag k="ssr:stedsnr" v="938569" />
		<tag k="ssr:type" v="adressenavn" />
	</node>
	<node lat="62.610554329073544" lon="9.649950165402895" id="-85144">
		<tag k="name" v="Nedre Prestløkkja" />
		<tag k="ssr:date" v="2019-05-30" />
		<tag k="ssr:gruppe" v="veg" />
		<tag k="ssr:hovedgruppe" v="infrastruktur" />
		<tag k="ssr:stedsnr" v="965860" />
		<tag k="ssr:type" v="adressenavn" />
	</node>
	<node lat="62.60494286921198" lon="9.705883605710579" id="-85145">
		<tag k="name" v="Trollråket" />
		<tag k="ssr:date" v="2019-05-30" />
		<tag k="ssr:gruppe" v="veg" />
		<tag k="ssr:hovedgruppe" v="infrastruktur" />
		<tag k="ssr:stedsnr" v="967831" />
		<tag k="ssr:type" v="adressenavn" />
	</node>
	<node lat="62.56882152489098" lon="9.62070924784605" id="-85147">
		<tag k="name" v="Mælesvegen" />
		<tag k="ssr:date" v="2019-05-30" />
		<tag k="ssr:gruppe" v="veg" />
		<tag k="ssr:hovedgruppe" v="infrastruktur" />
		<tag k="ssr:stedsnr" v="970233" />
		<tag k="ssr:type" v="adressenavn" />
	</node>
	<node lat="62.6253089415734" lon="9.740512309361803" id="-85149">
		<tag k="name" v="Gardådalsvegen" />
		<tag k="ssr:date" v="2019-05-30" />
		<tag k="ssr:gruppe" v="veg" />
		<tag k="ssr:hovedgruppe" v="infrastruktur" />
		<tag k="ssr:stedsnr" v="970358" />
		<tag k="ssr:type" v="adressenavn" />
	</node>
	<node lat="62.66101184197875" lon="9.826557252198993" id="-85150">
		<tag k="name" v="Veslstavåvegen" />
		<tag k="ssr:date" v="2019-05-30" />
		<tag k="ssr:gruppe" v="veg" />
		<tag k="ssr:hovedgruppe" v="infrastruktur" />
		<tag k="ssr:stedsnr" v="970567" />
		<tag k="ssr:type" v="adressenavn" />
	</node>
	<node lat="62.62735706654381" lon="9.55599753352509" id="-85152">
		<tag k="name" v="Rolfsjord" />
		<tag k="ssr:date" v="2021-12-01" />
		<tag k="ssr:gruppe" v="veg" />
		<tag k="ssr:hovedgruppe" v="infrastruktur" />
		<tag k="ssr:stedsnr" v="970804" />
		<tag k="ssr:type" v="adressetilleggsnavn" />
	</node>
	<node lat="62.66380834005761" lon="9.880133543689823" id="-85153">
		<tag k="name" v="Sigridhaugen" />
		<tag k="ssr:date" v="2018-01-09" />
		<tag k="ssr:gruppe" v="veg" />
		<tag k="ssr:hovedgruppe" v="infrastruktur" />
		<tag k="ssr:stedsnr" v="970805" />
		<tag k="ssr:type" v="adressetilleggsnavn" />
	</node>
	<node lat="62.607836770502175" lon="9.640398860101614" id="-85154">
		<tag k="name" v="Håkårsvollen" />
		<tag k="ssr:date" v="2018-01-09" />
		<tag k="ssr:gruppe" v="veg" />
		<tag k="ssr:hovedgruppe" v="infrastruktur" />
		<tag k="ssr:stedsnr" v="970806" />
		<tag k="ssr:type" v="adressetilleggsnavn" />
	</node>
	<node lat="62.602287171398956" lon="9.653761347562506" id="-85156">
		<tag k="name" v="Stengjerdet" />
		<tag k="ssr:date" v="2021-12-01" />
		<tag k="ssr:gruppe" v="veg" />
		<tag k="ssr:hovedgruppe" v="infrastruktur" />
		<tag k="ssr:stedsnr" v="970809" />
		<tag k="ssr:type" v="adressetilleggsnavn" />
	</node>
	<node lat="62.61466323201007" lon="9.523646285769235" id="-85157">
		<tag k="name" v="Klett" />
		<tag k="ssr:date" v="2021-12-01" />
		<tag k="ssr:gruppe" v="veg" />
		<tag k="ssr:hovedgruppe" v="infrastruktur" />
		<tag k="ssr:stedsnr" v="970811" />
		<tag k="ssr:type" v="adressetilleggsnavn" />
	</node>
	<node lat="62.643326649327676" lon="9.822424382210466" id="-85159">
		<tag k="name" v="Krokan" />
		<tag k="ssr:date" v="2021-12-01" />
		<tag k="ssr:gruppe" v="veg" />
		<tag k="ssr:hovedgruppe" v="infrastruktur" />
		<tag k="ssr:stedsnr" v="970813" />
		<tag k="ssr:type" v="adressetilleggsnavn" />
	</node>
	<node lat="62.615626737398316" lon="9.734852046955071" id="-85160">
		<tag k="name" v="Stølen" />
		<tag k="ssr:date" v="2021-12-01" />
		<tag k="ssr:gruppe" v="veg" />
		<tag k="ssr:hovedgruppe" v="infrastruktur" />
		<tag k="ssr:stedsnr" v="970814" />
		<tag k="ssr:type" v="adressetilleggsnavn" />
	</node>
	<node lat="62.6922895272568" lon="9.906218489152568" id="-85161">
		<tag k="name" v="Holda" />
		<tag k="ssr:date" v="2021-12-01" />
		<tag k="ssr:gruppe" v="veg" />
		<tag k="ssr:hovedgruppe" v="infrastruktur" />
		<tag k="ssr:stedsnr" v="970820" />
		<tag k="ssr:type" v="adressetilleggsnavn" />
	</node>
	<node lat="62.68882563105895" lon="9.900561737992644" id="-85162">
		<tag k="name" v="Stubban" />
		<tag k="ssr:date" v="2018-01-09" />
		<tag k="ssr:gruppe" v="veg" />
		<tag k="ssr:hovedgruppe" v="infrastruktur" />
		<tag k="ssr:stedsnr" v="970822" />
		<tag k="ssr:type" v="adressetilleggsnavn" />
	</node>
	<node lat="62.61039970332776" lon="9.723411320813002" id="-85163">
		<tag k="name" v="Innesto Gorset" />
		<tag k="ssr:date" v="2018-01-09" />
		<tag k="ssr:gruppe" v="veg" />
		<tag k="ssr:hovedgruppe" v="infrastruktur" />
		<tag k="ssr:stedsnr" v="970824" />
		<tag k="ssr:type" v="adressetilleggsnavn" />
	</node>
	<node lat="62.61424114184979" lon="9.58329228330204" id="-85164">
		<tag k="name" v="Tyve" />
		<tag k="ssr:date" v="2018-01-09" />
		<tag k="ssr:gruppe" v="veg" />
		<tag k="ssr:hovedgruppe" v="infrastruktur" />
		<tag k="ssr:stedsnr" v="970825" />
		<tag k="ssr:type" v="adressetilleggsnavn" />
	</node>
	<node lat="62.428350511873404" lon="9.61723342823338" id="-85165">
		<tag k="name" v="Drivstua" />
		<tag k="ssr:date" v="2018-01-09" />
		<tag k="ssr:gruppe" v="veg" />
		<tag k="ssr:hovedgruppe" v="infrastruktur" />
		<tag k="ssr:stedsnr" v="970826" />
		<tag k="ssr:type" v="adressetilleggsnavn" />
	</node>
	<node lat="62.59598553942494" lon="9.430032941365573" id="-85167">
		<tag k="name" v="Skroo" />
		<tag k="ssr:date" v="2018-01-09" />
		<tag k="ssr:gruppe" v="veg" />
		<tag k="ssr:hovedgruppe" v="infrastruktur" />
		<tag k="ssr:stedsnr" v="970828" />
		<tag k="ssr:type" v="adressetilleggsnavn" />
	</node>
	<node lat="62.61440175703548" lon="9.525406899065501" id="-85168">
		<tag k="name" v="Klettvollen" />
		<tag k="ssr:date" v="2018-01-09" />
		<tag k="ssr:gruppe" v="veg" />
		<tag k="ssr:hovedgruppe" v="infrastruktur" />
		<tag k="ssr:stedsnr" v="970829" />
		<tag k="ssr:type" v="adressetilleggsnavn" />
	</node>
	<node lat="62.62647301096468" lon="9.586609456589985" id="-85169">
		<tag k="name" v="Haugset" />
		<tag k="ssr:date" v="2018-01-09" />
		<tag k="ssr:gruppe" v="veg" />
		<tag k="ssr:hovedgruppe" v="infrastruktur" />
		<tag k="ssr:stedsnr" v="970830" />
		<tag k="ssr:type" v="adressetilleggsnavn" />
	</node>
	<node lat="62.540044833420616" lon="9.631584946515176" id="-85170">
		<tag k="name" v="Resthaugen" />
		<tag k="ssr:date" v="2018-01-09" />
		<tag k="ssr:gruppe" v="veg" />
		<tag k="ssr:hovedgruppe" v="infrastruktur" />
		<tag k="ssr:stedsnr" v="970831" />
		<tag k="ssr:type" v="adressetilleggsnavn" />
	</node>
	<node lat="62.724579947845086" lon="9.54786160703757" id="-85171">
		<tag k="name" v="Svahøvegen" />
		<tag k="ssr:date" v="2019-05-30" />
		<tag k="ssr:gruppe" v="veg" />
		<tag k="ssr:hovedgruppe" v="infrastruktur" />
		<tag k="ssr:stedsnr" v="970516" />
		<tag k="ssr:type" v="adressenavn" />
	</node>
	<node lat="62.62212867098072" lon="9.740463531113216" id="-85173">
		<tag k="name" v="Stølhøvegen" />
		<tag k="ssr:date" v="2019-05-30" />
		<tag k="ssr:gruppe" v="veg" />
		<tag k="ssr:hovedgruppe" v="infrastruktur" />
		<tag k="ssr:stedsnr" v="970520" />
		<tag k="ssr:type" v="adressenavn" />
	</node>
	<node lat="62.57991594144067" lon="9.356793544908122" id="-85182">
		<tag k="name" v="Gravaune" />
		<tag k="ssr:date" v="2018-01-09" />
		<tag k="ssr:gruppe" v="veg" />
		<tag k="ssr:hovedgruppe" v="infrastruktur" />
		<tag k="ssr:stedsnr" v="970833" />
		<tag k="ssr:type" v="adressetilleggsnavn" />
	</node>
	<node lat="62.60736923851486" lon="9.438587890280607" id="-85183">
		<tag k="name" v="Skinnset" />
		<tag k="ssr:date" v="2018-01-09" />
		<tag k="ssr:gruppe" v="veg" />
		<tag k="ssr:hovedgruppe" v="infrastruktur" />
		<tag k="ssr:stedsnr" v="970834" />
		<tag k="ssr:type" v="adressetilleggsnavn" />
	</node>
	<node lat="62.76264678149556" lon="9.577674483329819" id="-85195">
		<tag k="name" v="Gregosvegen" />
		<tag k="ssr:date" v="2019-05-30" />
		<tag k="ssr:gruppe" v="veg" />
		<tag k="ssr:hovedgruppe" v="infrastruktur" />
		<tag k="ssr:stedsnr" v="976731" />
		<tag k="ssr:type" v="adressenavn" />
	</node>
	<node lat="62.62390421456559" lon="9.504611808503444" id="-85196">
		<tag k="name" v="Kleberbergvegen" />
		<tag k="ssr:date" v="2019-05-30" />
		<tag k="ssr:gruppe" v="veg" />
		<tag k="ssr:hovedgruppe" v="infrastruktur" />
		<tag k="ssr:stedsnr" v="976732" />
		<tag k="ssr:type" v="adressenavn" />
	</node>
	<node lat="62.41093704506234" lon="9.717611672792863" id="-85198">
		<tag k="name" v="Drotningdalsvegen" />
		<tag k="ssr:date" v="2019-05-30" />
		<tag k="ssr:gruppe" v="veg" />
		<tag k="ssr:hovedgruppe" v="infrastruktur" />
		<tag k="ssr:stedsnr" v="976734" />
		<tag k="ssr:type" v="adressenavn" />
	</node>
	<node lat="62.36517522392453" lon="9.643919750186004" id="-85199">
		<tag k="name" v="Vårstigen" />
		<tag k="ssr:date" v="2019-05-30" />
		<tag k="ssr:gruppe" v="veg" />
		<tag k="ssr:hovedgruppe" v="infrastruktur" />
		<tag k="ssr:stedsnr" v="976735" />
		<tag k="ssr:type" v="adressenavn" />
	</node>
	<node lat="62.53042303816347" lon="9.596548024736578" id="-85200">
		<tag k="name" v="Sætrumsmovegen" />
		<tag k="ssr:date" v="2019-05-30" />
		<tag k="ssr:gruppe" v="veg" />
		<tag k="ssr:hovedgruppe" v="infrastruktur" />
		<tag k="ssr:stedsnr" v="976736" />
		<tag k="ssr:type" v="adressenavn" />
	</node>
	<node lat="62.66817734046784" lon="9.498174235929326" id="-85203">
		<tag k="name" v="Tørveshaugenget" />
		<tag k="ssr:date" v="2019-05-30" />
		<tag k="ssr:gruppe" v="veg" />
		<tag k="ssr:hovedgruppe" v="infrastruktur" />
		<tag k="ssr:stedsnr" v="984323" />
		<tag k="ssr:type" v="adressenavn" />
	</node>
	<node lat="62.64826088042957" lon="9.552535870539646" id="-85204">
		<tag k="name" v="Veslgjerdet" />
		<tag k="ssr:date" v="2019-05-30" />
		<tag k="ssr:gruppe" v="veg" />
		<tag k="ssr:hovedgruppe" v="infrastruktur" />
		<tag k="ssr:stedsnr" v="984324" />
		<tag k="ssr:type" v="adressenavn" />
	</node>
	<node lat="62.635491811094234" lon="9.50877854281198" id="-85205">
		<tag k="name" v="Øvre Rasmusslættet" />
		<tag k="ssr:date" v="2019-05-30" />
		<tag k="ssr:gruppe" v="veg" />
		<tag k="ssr:hovedgruppe" v="infrastruktur" />
		<tag k="ssr:stedsnr" v="984325" />
		<tag k="ssr:type" v="adressenavn" />
	</node>
	<node lat="62.62427389851367" lon="9.761034131265285" id="-85223">
		<tag k="name" v="Hamnvegen" />
		<tag k="ssr:date" v="2019-06-24" />
		<tag k="ssr:gruppe" v="veg" />
		<tag k="ssr:hovedgruppe" v="infrastruktur" />
		<tag k="ssr:stedsnr" v="1071983" />
		<tag k="ssr:type" v="adressenavn" />
	</node>
	<node lat="62.69608831639479" lon="9.07772116027726" id="-85226">
		<tag k="name" v="Øvre Negardslia" />
		<tag k="ssr:date" v="2019-06-24" />
		<tag k="ssr:gruppe" v="veg" />
		<tag k="ssr:hovedgruppe" v="infrastruktur" />
		<tag k="ssr:stedsnr" v="1071989" />
		<tag k="ssr:type" v="adressenavn" />
	</node>
	<node lat="62.70942812196011" lon="9.563904589605583" id="-85227">
		<tag k="name" v="Øvre Vekvesenget" />
		<tag k="ssr:date" v="2019-06-24" />
		<tag k="ssr:gruppe" v="veg" />
		<tag k="ssr:hovedgruppe" v="infrastruktur" />
		<tag k="ssr:stedsnr" v="1071987" />
		<tag k="ssr:type" v="adressenavn" />
	</node>
	<node lat="62.695327312918515" lon="9.079500827318851" id="-85228">
		<tag k="name" v="Nedre Negardslia" />
		<tag k="ssr:date" v="2019-06-24" />
		<tag k="ssr:gruppe" v="veg" />
		<tag k="ssr:hovedgruppe" v="infrastruktur" />
		<tag k="ssr:stedsnr" v="1071988" />
		<tag k="ssr:type" v="adressenavn" />
	</node>
	<node lat="62.6271951247898" lon="9.771319566041349" id="-85256">
		<tag k="name" v="Liavegen" />
		<tag k="ssr:date" v="2020-05-15" />
		<tag k="ssr:gruppe" v="veg" />
		<tag k="ssr:hovedgruppe" v="infrastruktur" />
		<tag k="ssr:stedsnr" v="1076957" />
		<tag k="ssr:type" v="adressenavn" />
	</node>
	<node lat="62.61767895655687" lon="9.515615465618017" id="-85257">
		<tag k="name" v="Klettgjelan" />
		<tag k="ssr:date" v="2020-11-04" />
		<tag k="ssr:gruppe" v="veg" />
		<tag k="ssr:hovedgruppe" v="infrastruktur" />
		<tag k="ssr:stedsnr" v="1077444" />
		<tag k="ssr:type" v="adressenavn" />
	</node>
	<node lat="62.60561541911656" lon="9.70861545913988" id="-85259">
		<tag k="name" v="Slettvollkroken" />
		<tag k="ssr:date" v="2020-11-04" />
		<tag k="ssr:gruppe" v="veg" />
		<tag k="ssr:hovedgruppe" v="infrastruktur" />
		<tag k="ssr:stedsnr" v="1077446" />
		<tag k="ssr:type" v="adressenavn" />
	</node>
	<node lat="62.578651737784895" lon="9.536971286826017" id="-85260">
		<tag k="name" v="Trøasætervegen" />
		<tag k="ssr:date" v="2020-06-23" />
		<tag k="ssr:gruppe" v="veg" />
		<tag k="ssr:hovedgruppe" v="infrastruktur" />
		<tag k="ssr:stedsnr" v="1077447" />
		<tag k="ssr:type" v="adressenavn" />
	</node>
	<node lat="62.70027591031828" lon="9.566730768340278" id="-85261">
		<tag k="name" v="Vangsenget" />
		<tag k="ssr:date" v="2020-06-23" />
		<tag k="ssr:gruppe" v="veg" />
		<tag k="ssr:hovedgruppe" v="infrastruktur" />
		<tag k="ssr:stedsnr" v="1077449" />
		<tag k="ssr:type" v="adressenavn" />
	</node>
	<node lat="62.65944816234239" lon="9.80303305314718" id="-85262">
		<tag k="name" v="Sagløkkjvegen" />
		<tag k="ssr:date" v="2020-06-23" />
		<tag k="ssr:gruppe" v="veg" />
		<tag k="ssr:hovedgruppe" v="infrastruktur" />
		<tag k="ssr:stedsnr" v="1077451" />
		<tag k="ssr:type" v="adressenavn" />
	</node>
	<node lat="62.66325807369914" lon="9.80233592806308" id="-85264">
		<tag k="name" v="Sagløkkjflata" />
		<tag k="ssr:date" v="2020-06-23" />
		<tag k="ssr:gruppe" v="veg" />
		<tag k="ssr:hovedgruppe" v="infrastruktur" />
		<tag k="ssr:stedsnr" v="1077453" />
		<tag k="ssr:type" v="adressenavn" />
	</node>
	<node lat="62.62118527596602" lon="9.48899360308132" id="-85266">
		<tag k="name" v="Vardamsflata" />
		<tag k="ssr:date" v="2020-06-23" />
		<tag k="ssr:gruppe" v="veg" />
		<tag k="ssr:hovedgruppe" v="infrastruktur" />
		<tag k="ssr:stedsnr" v="1077455" />
		<tag k="ssr:type" v="adressenavn" />
	</node>
	<node lat="62.61548294295329" lon="9.728630783586834" id="-85267">
		<tag k="name" v="Trøabakken" />
		<tag k="ssr:date" v="2021-06-21" />
		<tag k="ssr:gruppe" v="veg" />
		<tag k="ssr:hovedgruppe" v="infrastruktur" />
		<tag k="ssr:stedsnr" v="1081592" />
		<tag k="ssr:type" v="adressenavn" />
	</node>
	<node lat="62.59407250227445" lon="9.557747255262887" id="-85268">
		<tag k="name" v="Bøasæterbakken" />
		<tag k="ssr:date" v="2021-06-21" />
		<tag k="ssr:gruppe" v="veg" />
		<tag k="ssr:hovedgruppe" v="infrastruktur" />
		<tag k="ssr:stedsnr" v="1081591" />
		<tag k="ssr:type" v="adressenavn" />
	</node>
	<node lat="62.613950020575615" lon="9.728866013773407" id="-85269">
		<tag k="name" v="Øvre Trøavegen" />
		<tag k="ssr:date" v="2021-06-21" />
		<tag k="ssr:gruppe" v="veg" />
		<tag k="ssr:hovedgruppe" v="infrastruktur" />
		<tag k="ssr:stedsnr" v="1081593" />
		<tag k="ssr:type" v="adressenavn" />
	</node>
	<node lat="62.61339525330872" lon="9.728700808524035" id="-85271">
		<tag k="name" v="Nedre Trøavegen" />
		<tag k="ssr:date" v="2021-06-21" />
		<tag k="ssr:gruppe" v="veg" />
		<tag k="ssr:hovedgruppe" v="infrastruktur" />
		<tag k="ssr:stedsnr" v="1081594" />
		<tag k="ssr:type" v="adressenavn" />
	</node>
	<node lat="62.605076474122974" lon="9.442171389545686" id="-85274">
		<tag k="name" v="Skinnsettrøa" />
		<tag k="ssr:date" v="2021-11-24" />
		<tag k="ssr:gruppe" v="veg" />
		<tag k="ssr:hovedgruppe" v="infrastruktur" />
		<tag k="ssr:stedsnr" v="1082998" />
		<tag k="ssr:type" v="adressenavn" />
	</node>
	<node lat="62.60962799808521" lon="9.64737726087375" id="-85275">
		<tag k="name" v="Vangsløkkja" />
		<tag k="ssr:date" v="2021-11-24" />
		<tag k="ssr:gruppe" v="veg" />
		<tag k="ssr:hovedgruppe" v="infrastruktur" />
		<tag k="ssr:stedsnr" v="1082999" />
		<tag k="ssr:type" v="adressenavn" />
	</node>
</osm>
