<?xml version="1.0" encoding="UTF-8"?>
<osm version="0.6" generator="osmapis">
	<node lat="62.611555537413935" lon="9.738430389764437" id="-31248">
		<tag k="amenity" v="school" />
		<tag k="old_name" v="Stølen skole" />
		<tag k="ssr:date" v="2020-04-02" />
		<tag k="ssr:gruppe" v="institusjoner" />
		<tag k="ssr:hovedgruppe" v="bebyggelse" />
		<tag k="ssr:stedsnr" v="271769" />
		<tag k="ssr:type" v="skole" />
	</node>
	<node lat="62.59602222002108" lon="9.691755550934353" id="-31892">
		<tag k="old_name" v="Hotell Nor" />
		<tag k="ssr:date" v="2018-01-09" />
		<tag k="ssr:gruppe" v="næring" />
		<tag k="ssr:hovedgruppe" v="bebyggelse" />
		<tag k="ssr:stedsnr" v="709157" />
		<tag k="ssr:type" v="hotell" />
		<tag k="tourism" v="hotel" />
	</node>
	<node lat="62.6055611100973" lon="9.815758339377657" id="-31953">
		<tag k="fixme" v="consider highway=path" />
		<tag k="highway" v="track" />
		<tag k="old_name" v="Kviknvangvegen" />
		<tag k="ssr:date" v="2018-01-09" />
		<tag k="ssr:gruppe" v="veg" />
		<tag k="ssr:hovedgruppe" v="infrastruktur" />
		<tag k="ssr:stedsnr" v="893455" />
		<tag k="ssr:type" v="traktorveg" />
	</node>
	<node lat="62.60432500412339" lon="9.645463887915808" id="-32049">
		<tag k="amenity" v="school" />
		<tag k="old_name" v="Fjellvang skole;Fjellvang" />
		<tag k="ssr:date" v="2018-01-09" />
		<tag k="ssr:gruppe" v="institusjoner" />
		<tag k="ssr:hovedgruppe" v="bebyggelse" />
		<tag k="ssr:stedsnr" v="756559" />
		<tag k="ssr:type" v="skole" />
	</node>
	<node lat="62.6013015291818" lon="9.659995580885159" id="-32435">
		<tag k="amenity" v="school" />
		<tag k="old_name" v="Haugen skole" />
		<tag k="ssr:date" v="2020-04-02" />
		<tag k="ssr:gruppe" v="institusjoner" />
		<tag k="ssr:hovedgruppe" v="bebyggelse" />
		<tag k="ssr:stedsnr" v="28539" />
		<tag k="ssr:type" v="skole" />
	</node>
</osm>
