<?xml version="1.0" encoding="UTF-8"?>
<osm version="0.6" generator="osmapis">
	<node lat="63.53634721764238" lon="11.23623611954054" id="-39047">
		<tag k="name" v="Mæleskjølen" />
		<tag k="natural" v="slope" />
		<tag k="place" v="locality" />
		<tag k="ssr:date" v="2018-01-09" />
		<tag k="ssr:gruppe" v="skråninger" />
		<tag k="ssr:hovedgruppe" v="terreng" />
		<tag k="ssr:stedsnr" v="230609" />
		<tag k="ssr:type" v="li" />
	</node>
	<node lat="63.541119441618164" lon="11.351019445876142" id="-39048">
		<tag k="name" v="Øvre Raudåtjønna" />
		<tag k="natural" v="water" />
		<tag k="ssr:date" v="2018-01-09" />
		<tag k="ssr:gruppe" v="stilleståendeVann" />
		<tag k="ssr:hovedgruppe" v="ferskvann" />
		<tag k="ssr:stedsnr" v="230611" />
		<tag k="ssr:type" v="tjern" />
	</node>
	<node lat="63.563802779463266" lon="11.193444441412682" id="-39049">
		<tag k="name" v="Bulandselva" />
		<tag k="ssr:date" v="2018-01-09" />
		<tag k="ssr:gruppe" v="rennendeVann" />
		<tag k="ssr:hovedgruppe" v="ferskvann" />
		<tag k="ssr:stedsnr" v="229785" />
		<tag k="ssr:type" v="elv" />
		<tag k="waterway" v="river" />
	</node>
	<node lat="63.57460833758545" lon="11.286691667393198" id="-39050">
		<tag k="name" v="Skogndalen" />
		<tag k="natural" v="valley" />
		<tag k="place" v="locality" />
		<tag k="ssr:date" v="2018-01-09" />
		<tag k="ssr:gruppe" v="senkninger" />
		<tag k="ssr:hovedgruppe" v="terreng" />
		<tag k="ssr:stedsnr" v="229767" />
		<tag k="ssr:type" v="dal" />
	</node>
	<node lat="63.566613885672176" lon="11.315716656839653" id="-39051">
		<tag k="name" v="Gåstjønndalen" />
		<tag k="natural" v="valley" />
		<tag k="place" v="locality" />
		<tag k="ssr:date" v="2018-01-09" />
		<tag k="ssr:gruppe" v="senkninger" />
		<tag k="ssr:hovedgruppe" v="terreng" />
		<tag k="ssr:stedsnr" v="229768" />
		<tag k="ssr:type" v="dal" />
	</node>
	<node lat="63.56040000001025" lon="11.113486105056241" id="-39052">
		<tag k="name" v="Gjeilvatnet sør" />
		<tag k="natural" v="water" />
		<tag k="ssr:date" v="2018-01-09" />
		<tag k="ssr:gruppe" v="stilleståendeVann" />
		<tag k="ssr:hovedgruppe" v="ferskvann" />
		<tag k="ssr:stedsnr" v="229776" />
		<tag k="ssr:type" v="tjern" />
	</node>
	<node lat="63.56341111524004" lon="11.118597218590363" id="-39053">
		<tag k="name" v="Gjeilvatnet nord" />
		<tag k="natural" v="water" />
		<tag k="ssr:date" v="2018-01-09" />
		<tag k="ssr:gruppe" v="stilleståendeVann" />
		<tag k="ssr:hovedgruppe" v="ferskvann" />
		<tag k="ssr:stedsnr" v="229777" />
		<tag k="ssr:type" v="tjern" />
	</node>
	<node lat="63.5334944460289" lon="11.213711116945026" id="-39054">
		<tag k="name" v="Grønnmyra" />
		<tag k="natural" v="wetland" />
		<tag k="ssr:date" v="2018-01-09" />
		<tag k="ssr:gruppe" v="våtmark" />
		<tag k="ssr:hovedgruppe" v="markslag" />
		<tag k="ssr:stedsnr" v="229831" />
		<tag k="ssr:type" v="myr" />
	</node>
	<node lat="63.53186666740493" lon="11.206527782446846" id="-39055">
		<tag k="name" v="Svarttjønna" />
		<tag k="natural" v="water" />
		<tag k="ssr:date" v="2018-01-09" />
		<tag k="ssr:gruppe" v="stilleståendeVann" />
		<tag k="ssr:hovedgruppe" v="ferskvann" />
		<tag k="ssr:stedsnr" v="229834" />
		<tag k="ssr:type" v="tjern" />
	</node>
	<node lat="63.55571666618118" lon="11.199708329120494" id="-39056">
		<tag k="name" v="Tronkbjørga" />
		<tag k="natural" v="slope" />
		<tag k="place" v="locality" />
		<tag k="ssr:date" v="2018-01-09" />
		<tag k="ssr:gruppe" v="skråninger" />
		<tag k="ssr:hovedgruppe" v="terreng" />
		<tag k="ssr:stedsnr" v="229875" />
		<tag k="ssr:type" v="li" />
	</node>
	<node lat="63.50867222060389" lon="11.22875000049666" id="-39057">
		<tag k="name" v="Bruås og Rauå statsalmenning" />
		<tag k="place" v="locality" />
		<tag k="ssr:date" v="2018-01-09" />
		<tag k="ssr:gruppe" v="verne-OgBruksområder" />
		<tag k="ssr:hovedgruppe" v="offentligAdministrasjon" />
		<tag k="ssr:stedsnr" v="230645" />
		<tag k="ssr:type" v="allmenning" />
	</node>
	<node lat="63.49725555800279" lon="11.239508331226158" id="-39058">
		<tag k="name" v="Gammel Islandsvollen" />
		<tag k="place" v="locality" />
		<tag k="ssr:date" v="2018-01-09" />
		<tag k="ssr:gruppe" v="terrengdetaljer" />
		<tag k="ssr:hovedgruppe" v="terreng" />
		<tag k="ssr:stedsnr" v="230650" />
		<tag k="ssr:type" v="annenTerrengdetalj" />
	</node>
	<node lat="63.517752773702036" lon="11.515038880944552" id="-39059">
		<tag k="name" v="Rundhammerdalen" />
		<tag k="natural" v="valley" />
		<tag k="place" v="locality" />
		<tag k="ssr:date" v="2018-01-09" />
		<tag k="ssr:gruppe" v="senkninger" />
		<tag k="ssr:hovedgruppe" v="terreng" />
		<tag k="ssr:stedsnr" v="230664" />
		<tag k="ssr:type" v="dal" />
	</node>
	<node lat="63.4509805555216" lon="11.162849996216554" id="-39060">
		<tag k="landuse" v="military" />
		<tag k="name" v="Hegra festning" />
		<tag k="ssr:date" v="2018-01-09" />
		<tag k="ssr:gruppe" v="institusjoner" />
		<tag k="ssr:hovedgruppe" v="bebyggelse" />
		<tag k="ssr:stedsnr" v="13102" />
		<tag k="ssr:type" v="militærtByggAnlegg" />
	</node>
	<node lat="63.444277778011845" lon="11.152455546515919" id="-39061">
		<tag k="name" v="Fullsetbekken" />
		<tag k="ssr:date" v="2021-06-08" />
		<tag k="ssr:gruppe" v="rennendeVann" />
		<tag k="ssr:hovedgruppe" v="ferskvann" />
		<tag k="ssr:stedsnr" v="13113" />
		<tag k="ssr:type" v="bekk" />
		<tag k="waterway" v="stream" />
	</node>
	<node lat="63.477663884928134" lon="11.10195554527804" id="-39062">
		<tag k="alt_name" v="Åsveien" />
		<tag k="name" v="Åsvegen" />
		<tag k="place" v="farm" />
		<tag k="ssr:date" v="2018-01-09" />
		<tag k="ssr:gruppe" v="gardsbebyggelse" />
		<tag k="ssr:hovedgruppe" v="bebyggelse" />
		<tag k="ssr:stedsnr" v="13164" />
		<tag k="ssr:type" v="bruk" />
	</node>
	<node lat="63.451997226838905" lon="11.014122213254154" id="-39063">
		<tag k="alt_name" v="Nordre Ersgard;Ersgard nordre" />
		<tag k="name" v="Ersgard" />
		<tag k="place" v="farm" />
		<tag k="ssr:date" v="2018-01-09" />
		<tag k="ssr:gruppe" v="gardsbebyggelse" />
		<tag k="ssr:hovedgruppe" v="bebyggelse" />
		<tag k="ssr:stedsnr" v="13166" />
		<tag k="ssr:type" v="bruk" />
	</node>
	<node lat="63.47188610690106" lon="11.197330556899917" id="-39064">
		<tag k="name" v="Fordalssveet" />
		<tag k="place" v="farm" />
		<tag k="ssr:date" v="2021-06-08" />
		<tag k="ssr:gruppe" v="gardsbebyggelse" />
		<tag k="ssr:hovedgruppe" v="bebyggelse" />
		<tag k="ssr:stedsnr" v="13170" />
		<tag k="ssr:type" v="bruk" />
	</node>
	<node lat="63.468497219237435" lon="10.95905000934896" id="-39065">
		<tag k="name" v="Skiftet" />
		<tag k="place" v="farm" />
		<tag k="ssr:date" v="2021-06-08" />
		<tag k="ssr:gruppe" v="gardsbebyggelse" />
		<tag k="ssr:hovedgruppe" v="bebyggelse" />
		<tag k="ssr:stedsnr" v="13176" />
		<tag k="ssr:type" v="bruk" />
	</node>
	<node lat="63.46564180187337" lon="10.976831619177918" id="-39066">
		<tag k="fixme" v="consider place=hamlet" />
		<tag k="name" v="Meli" />
		<tag k="place" v="farm" />
		<tag k="ssr:date" v="2021-06-08" />
		<tag k="ssr:gruppe" v="gardsbebyggelse" />
		<tag k="ssr:hovedgruppe" v="bebyggelse" />
		<tag k="ssr:stedsnr" v="13178" />
		<tag k="ssr:type" v="gard" />
	</node>
	<node lat="63.45688888553289" lon="11.23552778186877" id="-39067">
		<tag k="fixme" v="consider natural=peak for the most distinct mountains in the district" />
		<tag k="name" v="Høgrya" />
		<tag k="natural" v="hill" />
		<tag k="place" v="locality" />
		<tag k="ssr:date" v="2018-01-09" />
		<tag k="ssr:gruppe" v="høyder" />
		<tag k="ssr:hovedgruppe" v="terreng" />
		<tag k="ssr:stedsnr" v="13181" />
		<tag k="ssr:type" v="ås" />
	</node>
	<node lat="63.46741752402615" lon="11.144298333048598" id="-39068">
		<tag k="fixme" v="consider place=hamlet" />
		<tag k="name" v="Smågard" />
		<tag k="place" v="farm" />
		<tag k="ssr:date" v="2018-01-09" />
		<tag k="ssr:gruppe" v="gardsbebyggelse" />
		<tag k="ssr:hovedgruppe" v="bebyggelse" />
		<tag k="ssr:stedsnr" v="13183" />
		<tag k="ssr:type" v="gard" />
	</node>
	<node lat="63.45826809805175" lon="11.446641528739105" id="-39069">
		<tag k="fixme" v="consider place=hamlet" />
		<tag k="name" v="Nordkringen" />
		<tag k="place" v="farm" />
		<tag k="ssr:date" v="2018-01-09" />
		<tag k="ssr:gruppe" v="gardsbebyggelse" />
		<tag k="ssr:hovedgruppe" v="bebyggelse" />
		<tag k="ssr:stedsnr" v="13311" />
		<tag k="ssr:type" v="gard" />
	</node>
	<node lat="63.460836113484895" lon="11.371083327133688" id="-39070">
		<tag k="name" v="Flormoen" />
		<tag k="place" v="farm" />
		<tag k="ssr:date" v="2021-06-08" />
		<tag k="ssr:gruppe" v="gardsbebyggelse" />
		<tag k="ssr:hovedgruppe" v="bebyggelse" />
		<tag k="ssr:stedsnr" v="13318" />
		<tag k="ssr:type" v="bruk" />
	</node>
	<node lat="63.37639732307551" lon="11.48574498931397" id="-39071">
		<tag k="name" v="Østre Sonvatnet" />
		<tag k="natural" v="water" />
		<tag k="ssr:date" v="2021-06-08" />
		<tag k="ssr:gruppe" v="stilleståendeVann" />
		<tag k="ssr:hovedgruppe" v="ferskvann" />
		<tag k="ssr:stedsnr" v="13414" />
		<tag k="ssr:type" v="vann" />
		<tag k="water" v="lake" />
	</node>
	<node lat="63.38193888629579" lon="11.234099993457674" id="-39072">
		<tag k="name" v="Fagerbekken" />
		<tag k="ssr:date" v="2018-01-09" />
		<tag k="ssr:gruppe" v="rennendeVann" />
		<tag k="ssr:hovedgruppe" v="ferskvann" />
		<tag k="ssr:stedsnr" v="13418" />
		<tag k="ssr:type" v="bekk" />
		<tag k="waterway" v="stream" />
	</node>
	<node lat="63.59119722533254" lon="11.615330550763248" id="-39073">
		<tag k="name" v="Reinåvollen" />
		<tag k="place" v="isolated_dwelling" />
		<tag k="ssr:date" v="2018-01-09" />
		<tag k="ssr:gruppe" v="bolighus" />
		<tag k="ssr:hovedgruppe" v="bebyggelse" />
		<tag k="ssr:stedsnr" v="13468" />
		<tag k="ssr:type" v="fritidsbolig" />
	</node>
	<node lat="63.39213055496495" lon="11.16420278473985" id="-39074">
		<tag k="name" v="Gruvelva" />
		<tag k="ssr:date" v="2018-01-09" />
		<tag k="ssr:gruppe" v="rennendeVann" />
		<tag k="ssr:hovedgruppe" v="ferskvann" />
		<tag k="ssr:stedsnr" v="13479" />
		<tag k="ssr:type" v="bekk" />
		<tag k="waterway" v="stream" />
	</node>
	<node lat="63.38391111355079" lon="10.91604444365857" id="-39075">
		<tag k="alt_name" v="Stormalmmyra" />
		<tag k="name" v="Malmmyra" />
		<tag k="natural" v="wetland" />
		<tag k="ssr:date" v="2018-01-09" />
		<tag k="ssr:gruppe" v="våtmark" />
		<tag k="ssr:hovedgruppe" v="markslag" />
		<tag k="ssr:stedsnr" v="13501" />
		<tag k="ssr:type" v="myr" />
	</node>
	<node lat="63.53087500085136" lon="11.627672216942678" id="-39076">
		<tag k="name" v="Funnsjødalen" />
		<tag k="natural" v="valley" />
		<tag k="place" v="locality" />
		<tag k="ssr:date" v="2019-12-27" />
		<tag k="ssr:gruppe" v="senkninger" />
		<tag k="ssr:hovedgruppe" v="terreng" />
		<tag k="ssr:stedsnr" v="13506" />
		<tag k="ssr:type" v="dal" />
	</node>
	<node lat="63.413700001802255" lon="11.435111104597562" id="-39077">
		<tag k="fixme" v="consider natural=peak for the most distinct mountains in the district" />
		<tag k="name" v="Grønfjellet" />
		<tag k="natural" v="hill" />
		<tag k="place" v="locality" />
		<tag k="ssr:date" v="2021-06-08" />
		<tag k="ssr:gruppe" v="høyder" />
		<tag k="ssr:hovedgruppe" v="terreng" />
		<tag k="ssr:stedsnr" v="13507" />
		<tag k="ssr:type" v="fjell" />
	</node>
	<node lat="63.534238884420475" lon="11.607211117455206" id="-39078">
		<tag k="name" v="Vollsvollen" />
		<tag k="place" v="isolated_dwelling" />
		<tag k="ssr:date" v="2018-01-09" />
		<tag k="ssr:gruppe" v="bolighus" />
		<tag k="ssr:hovedgruppe" v="bebyggelse" />
		<tag k="ssr:stedsnr" v="13513" />
		<tag k="ssr:type" v="fritidsbolig" />
	</node>
	<node lat="63.38464722464149" lon="10.900391661853904" id="-39079">
		<tag k="alt_name" v="Svulluskardet" />
		<tag k="name" v="Svuluskardet" />
		<tag k="natural" v="hill" />
		<tag k="place" v="locality" />
		<tag k="ssr:date" v="2018-01-09" />
		<tag k="ssr:gruppe" v="høyder" />
		<tag k="ssr:hovedgruppe" v="terreng" />
		<tag k="ssr:stedsnr" v="13515" />
		<tag k="ssr:type" v="haug" />
	</node>
	<node lat="63.529469446450484" lon="11.30796943869232" id="-39080">
		<tag k="alt_name" v="Litltylda" />
		<tag k="name" v="Litltyldvollen" />
		<tag k="place" v="isolated_dwelling" />
		<tag k="ssr:date" v="2018-01-09" />
		<tag k="ssr:gruppe" v="bolighus" />
		<tag k="ssr:hovedgruppe" v="bebyggelse" />
		<tag k="ssr:stedsnr" v="13521" />
		<tag k="ssr:type" v="fritidsbolig" />
	</node>
	<node lat="63.50944722332622" lon="11.15629443680171" id="-39081">
		<tag k="alt_name" v="Bantjønna" />
		<tag k="name" v="Barntjønna" />
		<tag k="natural" v="water" />
		<tag k="ssr:date" v="2018-01-09" />
		<tag k="ssr:gruppe" v="stilleståendeVann" />
		<tag k="ssr:hovedgruppe" v="ferskvann" />
		<tag k="ssr:stedsnr" v="13708" />
		<tag k="ssr:type" v="tjern" />
	</node>
	<node lat="63.510922222169214" lon="10.976311108962552" id="-39082">
		<tag k="name" v="Storbekken" />
		<tag k="ssr:date" v="2018-01-09" />
		<tag k="ssr:gruppe" v="rennendeVann" />
		<tag k="ssr:hovedgruppe" v="ferskvann" />
		<tag k="ssr:stedsnr" v="13713" />
		<tag k="ssr:type" v="bekk" />
		<tag k="waterway" v="stream" />
	</node>
	<node lat="63.51165555462837" lon="11.022797222542914" id="-39083">
		<tag k="alt_name" v="Lundåsen" />
		<tag k="fixme" v="consider natural=peak for the most distinct mountains in the district" />
		<tag k="name" v="Staursetåsen" />
		<tag k="natural" v="hill" />
		<tag k="place" v="locality" />
		<tag k="ssr:date" v="2018-01-09" />
		<tag k="ssr:gruppe" v="høyder" />
		<tag k="ssr:hovedgruppe" v="terreng" />
		<tag k="ssr:stedsnr" v="13714" />
		<tag k="ssr:type" v="ås" />
	</node>
	<node lat="63.41966944702035" lon="10.895622218934923" id="-39084">
		<tag k="name" v="Olbakken" />
		<tag k="place" v="locality" />
		<tag k="ssr:date" v="2018-01-09" />
		<tag k="ssr:gruppe" v="terrengdetaljer" />
		<tag k="ssr:hovedgruppe" v="terreng" />
		<tag k="ssr:stedsnr" v="27908" />
		<tag k="ssr:type" v="annenTerrengdetalj" />
	</node>
	<node lat="63.41832221854828" lon="10.880116658677911" id="-39085">
		<tag k="name" v="Solemsmoen" />
		<tag k="place" v="locality" />
		<tag k="ssr:date" v="2018-01-09" />
		<tag k="ssr:gruppe" v="bolighus" />
		<tag k="ssr:hovedgruppe" v="bebyggelse" />
		<tag k="ssr:stedsnr" v="27909" />
		<tag k="ssr:type" v="gammelBosettingsplass" />
	</node>
	<node lat="63.426597218201714" lon="10.886552780339358" id="-39086">
		<tag k="name" v="Svartdalen" />
		<tag k="natural" v="valley" />
		<tag k="place" v="locality" />
		<tag k="ssr:date" v="2018-01-09" />
		<tag k="ssr:gruppe" v="senkninger" />
		<tag k="ssr:hovedgruppe" v="terreng" />
		<tag k="ssr:stedsnr" v="27911" />
		<tag k="ssr:type" v="dal" />
	</node>
	<node lat="63.42468889141738" lon="10.882977770399233" id="-39087">
		<tag k="name" v="Furuåsen" />
		<tag k="place" v="locality" />
		<tag k="ssr:date" v="2018-01-09" />
		<tag k="ssr:gruppe" v="bolighus" />
		<tag k="ssr:hovedgruppe" v="bebyggelse" />
		<tag k="ssr:stedsnr" v="27912" />
		<tag k="ssr:type" v="gammelBosettingsplass" />
	</node>
	<node lat="63.4896888894806" lon="10.969608337181755" id="-39088">
		<tag k="fixme" v="consider natural=peak for the most distinct mountains in the district" />
		<tag k="name" v="Stugguåsen" />
		<tag k="natural" v="hill" />
		<tag k="place" v="locality" />
		<tag k="ssr:date" v="2018-01-09" />
		<tag k="ssr:gruppe" v="høyder" />
		<tag k="ssr:hovedgruppe" v="terreng" />
		<tag k="ssr:stedsnr" v="27869" />
		<tag k="ssr:type" v="ås" />
	</node>
	<node lat="63.49041944436243" lon="10.94012778373691" id="-39089">
		<tag k="name" v="Storhaugen" />
		<tag k="natural" v="hill" />
		<tag k="place" v="locality" />
		<tag k="ssr:date" v="2018-01-09" />
		<tag k="ssr:gruppe" v="høyder" />
		<tag k="ssr:hovedgruppe" v="terreng" />
		<tag k="ssr:stedsnr" v="27871" />
		<tag k="ssr:type" v="haug" />
	</node>
	<node lat="63.450777776762116" lon="11.461950001778016" id="-39090">
		<tag k="historic" v="shieling" />
		<tag k="name" v="Midtivollen" />
		<tag k="place" v="isolated_dwelling" />
		<tag k="ssr:date" v="2018-01-09" />
		<tag k="ssr:gruppe" v="gardsbebyggelse" />
		<tag k="ssr:hovedgruppe" v="bebyggelse" />
		<tag k="ssr:stedsnr" v="28170" />
		<tag k="ssr:type" v="seterStøl" />
	</node>
	<node lat="63.45611388909468" lon="11.517283327625304" id="-39091">
		<tag k="name" v="Sagelvhaugan" />
		<tag k="ssr:date" v="2018-01-09" />
		<tag k="ssr:gruppe" v="rennendeVann" />
		<tag k="ssr:hovedgruppe" v="ferskvann" />
		<tag k="ssr:stedsnr" v="28177" />
		<tag k="ssr:type" v="elv" />
		<tag k="waterway" v="river" />
	</node>
	<node lat="63.472622217841504" lon="11.477822230676699" id="-39092">
		<tag k="name" v="Dalan" />
		<tag k="natural" v="valley" />
		<tag k="place" v="locality" />
		<tag k="ssr:date" v="2018-01-09" />
		<tag k="ssr:gruppe" v="senkninger" />
		<tag k="ssr:hovedgruppe" v="terreng" />
		<tag k="ssr:stedsnr" v="28184" />
		<tag k="ssr:type" v="dal" />
	</node>
	<node lat="63.46079999780834" lon="11.492147229572291" id="-39093">
		<tag k="name" v="Tjurubekken" />
		<tag k="ssr:date" v="2018-01-09" />
		<tag k="ssr:gruppe" v="rennendeVann" />
		<tag k="ssr:hovedgruppe" v="ferskvann" />
		<tag k="ssr:stedsnr" v="28185" />
		<tag k="ssr:type" v="bekk" />
		<tag k="waterway" v="stream" />
	</node>
	<node lat="63.43058889189731" lon="11.237827769788542" id="-39094">
		<tag k="fixme" v="consider natural=peak for the most distinct mountains in the district" />
		<tag k="name" v="Høgåsan" />
		<tag k="natural" v="hill" />
		<tag k="place" v="locality" />
		<tag k="ssr:date" v="2018-01-09" />
		<tag k="ssr:gruppe" v="høyder" />
		<tag k="ssr:hovedgruppe" v="terreng" />
		<tag k="ssr:stedsnr" v="28301" />
		<tag k="ssr:type" v="ås" />
	</node>
	<node lat="63.50308610842162" lon="11.305341670308795" id="-39095">
		<tag k="fixme" v="consider natural=peak for the most distinct mountains in the district" />
		<tag k="name" v="Bjørnåsen" />
		<tag k="natural" v="hill" />
		<tag k="place" v="locality" />
		<tag k="ssr:date" v="2018-01-09" />
		<tag k="ssr:gruppe" v="høyder" />
		<tag k="ssr:hovedgruppe" v="terreng" />
		<tag k="ssr:stedsnr" v="28312" />
		<tag k="ssr:type" v="ås" />
	</node>
	<node lat="63.49737500388854" lon="11.30247500482881" id="-39096">
		<tag k="name" v="Barhaugen" />
		<tag k="natural" v="wetland" />
		<tag k="ssr:date" v="2018-01-09" />
		<tag k="ssr:gruppe" v="våtmark" />
		<tag k="ssr:hovedgruppe" v="markslag" />
		<tag k="ssr:stedsnr" v="28314" />
		<tag k="ssr:type" v="myr" />
	</node>
	<node lat="63.47885278031725" lon="11.25518889119045" id="-39097">
		<tag k="fixme" v="consider natural=peak for the most distinct mountains in the district" />
		<tag k="name" v="Skuggseteråsen" />
		<tag k="natural" v="hill" />
		<tag k="place" v="locality" />
		<tag k="ssr:date" v="2018-01-09" />
		<tag k="ssr:gruppe" v="høyder" />
		<tag k="ssr:hovedgruppe" v="terreng" />
		<tag k="ssr:stedsnr" v="28320" />
		<tag k="ssr:type" v="ås" />
	</node>
	<node lat="63.48206666853463" lon="11.291669449669543" id="-39098">
		<tag k="name" v="Korphammeren" />
		<tag k="natural" v="hill" />
		<tag k="place" v="locality" />
		<tag k="ssr:date" v="2018-01-09" />
		<tag k="ssr:gruppe" v="høyder" />
		<tag k="ssr:hovedgruppe" v="terreng" />
		<tag k="ssr:stedsnr" v="28322" />
		<tag k="ssr:type" v="berg" />
	</node>
	<node lat="63.45313611384582" lon="11.34133056258874" id="-39099">
		<tag k="name" v="Karromhammeren" />
		<tag k="natural" v="hill" />
		<tag k="place" v="locality" />
		<tag k="ssr:date" v="2018-01-09" />
		<tag k="ssr:gruppe" v="høyder" />
		<tag k="ssr:hovedgruppe" v="terreng" />
		<tag k="ssr:stedsnr" v="28284" />
		<tag k="ssr:type" v="berg" />
	</node>
	<node lat="63.43548333083108" lon="11.274477784921759" id="-39100">
		<tag k="name" v="Rundhaugen" />
		<tag k="natural" v="hill" />
		<tag k="place" v="locality" />
		<tag k="ssr:date" v="2018-01-09" />
		<tag k="ssr:gruppe" v="høyder" />
		<tag k="ssr:hovedgruppe" v="terreng" />
		<tag k="ssr:stedsnr" v="28290" />
		<tag k="ssr:type" v="haug" />
	</node>
	<node lat="63.47081870962845" lon="11.478906374040466" id="-39101">
		<tag k="name" v="Hesthølhaugen" />
		<tag k="natural" v="hill" />
		<tag k="place" v="locality" />
		<tag k="ssr:date" v="2018-12-11" />
		<tag k="ssr:gruppe" v="høyder" />
		<tag k="ssr:hovedgruppe" v="terreng" />
		<tag k="ssr:stedsnr" v="28404" />
		<tag k="ssr:type" v="haug" />
	</node>
	<node lat="63.437861109960515" lon="11.20483888044374" id="-39102">
		<tag k="name" v="Liahaugen" />
		<tag k="natural" v="hill" />
		<tag k="place" v="locality" />
		<tag k="ssr:date" v="2018-01-09" />
		<tag k="ssr:gruppe" v="høyder" />
		<tag k="ssr:hovedgruppe" v="terreng" />
		<tag k="ssr:stedsnr" v="28412" />
		<tag k="ssr:type" v="haug" />
	</node>
	<node lat="63.43879166419175" lon="11.114730558500304" id="-39103">
		<tag k="name" v="Spakhalla" />
		<tag k="natural" v="slope" />
		<tag k="place" v="locality" />
		<tag k="ssr:date" v="2018-01-09" />
		<tag k="ssr:gruppe" v="skråninger" />
		<tag k="ssr:hovedgruppe" v="terreng" />
		<tag k="ssr:stedsnr" v="28418" />
		<tag k="ssr:type" v="li" />
	</node>
	<node lat="63.50403055643663" lon="11.155266662721818" id="-39104">
		<tag k="name" v="Bjørnmyran" />
		<tag k="natural" v="wetland" />
		<tag k="ssr:date" v="2018-01-09" />
		<tag k="ssr:gruppe" v="våtmark" />
		<tag k="ssr:hovedgruppe" v="markslag" />
		<tag k="ssr:stedsnr" v="28423" />
		<tag k="ssr:type" v="myr" />
	</node>
	<node lat="63.421855555543004" lon="11.258113885987186" id="-39105">
		<tag k="name" v="Nersonbekken" />
		<tag k="ssr:date" v="2018-01-09" />
		<tag k="ssr:gruppe" v="rennendeVann" />
		<tag k="ssr:hovedgruppe" v="ferskvann" />
		<tag k="ssr:stedsnr" v="28509" />
		<tag k="ssr:type" v="bekk" />
		<tag k="waterway" v="stream" />
	</node>
	<node lat="63.409830555379045" lon="11.28245000335898" id="-39106">
		<tag k="name" v="Sonneset" />
		<tag k="natural" v="cape" />
		<tag k="ssr:date" v="2018-01-09" />
		<tag k="ssr:gruppe" v="rennendeVann" />
		<tag k="ssr:hovedgruppe" v="ferskvann" />
		<tag k="ssr:stedsnr" v="28513" />
		<tag k="ssr:type" v="nesVedElver" />
	</node>
	<node lat="63.52885000056337" lon="11.068011111367035" id="-39107">
		<tag k="name" v="Bjørnspiten" />
		<tag k="natural" v="valley" />
		<tag k="place" v="locality" />
		<tag k="ssr:date" v="2018-01-09" />
		<tag k="ssr:gruppe" v="senkninger" />
		<tag k="ssr:hovedgruppe" v="terreng" />
		<tag k="ssr:stedsnr" v="28576" />
		<tag k="ssr:type" v="dal" />
	</node>
	<node lat="63.39428594991665" lon="10.98088542627516" id="-39108">
		<tag k="fixme" v="consider place=hamlet" />
		<tag k="name" v="Julset" />
		<tag k="place" v="farm" />
		<tag k="ssr:date" v="2018-01-09" />
		<tag k="ssr:gruppe" v="gardsbebyggelse" />
		<tag k="ssr:hovedgruppe" v="bebyggelse" />
		<tag k="ssr:stedsnr" v="28714" />
		<tag k="ssr:type" v="gard" />
	</node>
	<node lat="63.41436111216987" lon="11.063247227519797" id="-39109">
		<tag k="name" v="Langmyra" />
		<tag k="natural" v="wetland" />
		<tag k="ssr:date" v="2018-01-09" />
		<tag k="ssr:gruppe" v="våtmark" />
		<tag k="ssr:hovedgruppe" v="markslag" />
		<tag k="ssr:stedsnr" v="28720" />
		<tag k="ssr:type" v="myr" />
	</node>
	<node lat="63.5299000001098" lon="10.977594439879798" id="-39110">
		<tag k="name" v="Rangelåsmyra" />
		<tag k="natural" v="wetland" />
		<tag k="ssr:date" v="2018-01-09" />
		<tag k="ssr:gruppe" v="våtmark" />
		<tag k="ssr:hovedgruppe" v="markslag" />
		<tag k="ssr:stedsnr" v="28604" />
		<tag k="ssr:type" v="myr" />
	</node>
	<node lat="63.525027781280315" lon="10.992622212447836" id="-39111">
		<tag k="name" v="Trollvassmyra" />
		<tag k="natural" v="wetland" />
		<tag k="ssr:date" v="2018-01-09" />
		<tag k="ssr:gruppe" v="våtmark" />
		<tag k="ssr:hovedgruppe" v="markslag" />
		<tag k="ssr:stedsnr" v="28605" />
		<tag k="ssr:type" v="myr" />
	</node>
	<node lat="63.455599996761215" lon="11.174244442963458" id="-39112">
		<tag k="name" v="Bakkplassen" />
		<tag k="place" v="locality" />
		<tag k="ssr:date" v="2018-01-09" />
		<tag k="ssr:gruppe" v="bolighus" />
		<tag k="ssr:hovedgruppe" v="bebyggelse" />
		<tag k="ssr:stedsnr" v="28609" />
		<tag k="ssr:type" v="gammelBosettingsplass" />
	</node>
	<node lat="63.44760833235578" lon="11.138241659833538" id="-39113">
		<tag k="fixme" v="consider natural=peak for the most distinct mountains in the district" />
		<tag k="name" v="Øytjholhåmmåren" />
		<tag k="natural" v="hill" />
		<tag k="place" v="locality" />
		<tag k="ssr:date" v="2018-01-09" />
		<tag k="ssr:gruppe" v="høyder" />
		<tag k="ssr:hovedgruppe" v="terreng" />
		<tag k="ssr:stedsnr" v="28610" />
		<tag k="ssr:type" v="ås" />
	</node>
	<node lat="63.435536114234694" lon="11.136544446296261" id="-39114">
		<tag k="name" v="Solliåsbekken" />
		<tag k="ssr:date" v="2018-01-09" />
		<tag k="ssr:gruppe" v="rennendeVann" />
		<tag k="ssr:hovedgruppe" v="ferskvann" />
		<tag k="ssr:stedsnr" v="28618" />
		<tag k="ssr:type" v="bekk" />
		<tag k="waterway" v="stream" />
	</node>
	<node lat="63.448052782023254" lon="11.0577972315288" id="-39115">
		<tag k="name" v="Torshaugen" />
		<tag k="natural" v="hill" />
		<tag k="place" v="locality" />
		<tag k="ssr:date" v="2018-01-09" />
		<tag k="ssr:gruppe" v="høyder" />
		<tag k="ssr:hovedgruppe" v="terreng" />
		<tag k="ssr:stedsnr" v="28667" />
		<tag k="ssr:type" v="haug" />
	</node>
	<node lat="63.44394166519589" lon="11.018150004301875" id="-39116">
		<tag k="name" v="Haugen" />
		<tag k="place" v="farm" />
		<tag k="ssr:date" v="2018-01-09" />
		<tag k="ssr:gruppe" v="gardsbebyggelse" />
		<tag k="ssr:hovedgruppe" v="bebyggelse" />
		<tag k="ssr:stedsnr" v="28670" />
		<tag k="ssr:type" v="bruk" />
	</node>
	<node lat="63.464690959489744" lon="11.075196928113403" id="-39117">
		<tag k="alt_name" v="Trøyta" />
		<tag k="fixme" v="consider place=hamlet" />
		<tag k="name" v="Vestre Trøyta" />
		<tag k="place" v="farm" />
		<tag k="ssr:date" v="2021-05-03" />
		<tag k="ssr:gruppe" v="gardsbebyggelse" />
		<tag k="ssr:hovedgruppe" v="bebyggelse" />
		<tag k="ssr:stedsnr" v="28679" />
		<tag k="ssr:type" v="gard" />
	</node>
	<node lat="63.4659194441352" lon="11.010775008916722" id="-39118">
		<tag k="name" v="Brannan" />
		<tag k="natural" v="slope" />
		<tag k="place" v="locality" />
		<tag k="ssr:date" v="2018-01-09" />
		<tag k="ssr:gruppe" v="skråninger" />
		<tag k="ssr:hovedgruppe" v="terreng" />
		<tag k="ssr:stedsnr" v="28687" />
		<tag k="ssr:type" v="li" />
	</node>
	<node lat="63.511461112128174" lon="10.969797229338457" id="-39119">
		<tag k="fixme" v="consider natural=peak for the most distinct mountains in the district" />
		<tag k="name" v="Lauvåsen" />
		<tag k="natural" v="hill" />
		<tag k="place" v="locality" />
		<tag k="ssr:date" v="2018-01-09" />
		<tag k="ssr:gruppe" v="høyder" />
		<tag k="ssr:hovedgruppe" v="terreng" />
		<tag k="ssr:stedsnr" v="28810" />
		<tag k="ssr:type" v="ås" />
	</node>
	<node lat="63.48363611195734" lon="11.032527786890396" id="-39120">
		<tag k="name" v="Stormyra" />
		<tag k="natural" v="wetland" />
		<tag k="ssr:date" v="2018-01-09" />
		<tag k="ssr:gruppe" v="våtmark" />
		<tag k="ssr:hovedgruppe" v="markslag" />
		<tag k="ssr:stedsnr" v="28774" />
		<tag k="ssr:type" v="myr" />
	</node>
	<node lat="63.47199999983597" lon="10.756188880337126" id="-39121">
		<tag k="name" v="Litlegrunnen" />
		<tag k="natural" v="shoal" />
		<tag k="place" v="locality" />
		<tag k="ssr:date" v="2018-01-09" />
		<tag k="ssr:gruppe" v="grunnerISjø" />
		<tag k="ssr:hovedgruppe" v="sjø" />
		<tag k="ssr:stedsnr" v="44391" />
		<tag k="ssr:type" v="grunneISjø" />
	</node>
	<node lat="63.50529253284508" lon="10.880364808071292" id="-39122">
		<tag k="fixme" v="consider place=hamlet" />
		<tag k="name" v="Øvre Holan" />
		<tag k="old_name" v="Holan øvre" />
		<tag k="place" v="farm" />
		<tag k="ssr:date" v="2021-06-08" />
		<tag k="ssr:gruppe" v="gardsbebyggelse" />
		<tag k="ssr:hovedgruppe" v="bebyggelse" />
		<tag k="ssr:stedsnr" v="44461" />
		<tag k="ssr:type" v="gard" />
	</node>
	<node lat="63.54341666807705" lon="10.85864444467158" id="-39123">
		<tag k="name" v="Sveskjerpa" />
		<tag k="natural" v="beach" />
		<tag k="ssr:date" v="2018-01-09" />
		<tag k="ssr:gruppe" v="kystkontur" />
		<tag k="ssr:hovedgruppe" v="sjø" />
		<tag k="ssr:stedsnr" v="44643" />
		<tag k="ssr:type" v="strandISjø" />
	</node>
	<node lat="63.37264675586712" lon="11.023157211501998" id="-39124">
		<tag k="name" v="Bjønnmyra" />
		<tag k="natural" v="wetland" />
		<tag k="ssr:date" v="2018-01-09" />
		<tag k="ssr:gruppe" v="våtmark" />
		<tag k="ssr:hovedgruppe" v="markslag" />
		<tag k="ssr:stedsnr" v="47370" />
		<tag k="ssr:type" v="myr" />
	</node>
	<node lat="63.35878389586247" lon="11.087385640314654" id="-39125">
		<tag k="name" v="Talgåsmyra" />
		<tag k="natural" v="wetland" />
		<tag k="ssr:date" v="2018-01-09" />
		<tag k="ssr:gruppe" v="våtmark" />
		<tag k="ssr:hovedgruppe" v="markslag" />
		<tag k="ssr:stedsnr" v="47406" />
		<tag k="ssr:type" v="myr" />
	</node>
	<node lat="63.37352631380085" lon="11.095881414192927" id="-39126">
		<tag k="name" v="Stihaugan" />
		<tag k="natural" v="hill" />
		<tag k="place" v="locality" />
		<tag k="ssr:date" v="2018-01-09" />
		<tag k="ssr:gruppe" v="høyder" />
		<tag k="ssr:hovedgruppe" v="terreng" />
		<tag k="ssr:stedsnr" v="47425" />
		<tag k="ssr:type" v="haug" />
	</node>
	<node lat="63.36842693258424" lon="11.360913925187827" id="-39127">
		<tag k="name" v="Karlsmyra" />
		<tag k="natural" v="wetland" />
		<tag k="ssr:date" v="2018-01-09" />
		<tag k="ssr:gruppe" v="våtmark" />
		<tag k="ssr:hovedgruppe" v="markslag" />
		<tag k="ssr:stedsnr" v="47474" />
		<tag k="ssr:type" v="myr" />
	</node>
	<node lat="63.40207222185085" lon="11.231530545520306" id="-39128">
		<tag k="name" v="Tyskvollen" />
		<tag k="place" v="locality" />
		<tag k="ssr:date" v="2018-01-09" />
		<tag k="ssr:gruppe" v="terrengdetaljer" />
		<tag k="ssr:hovedgruppe" v="terreng" />
		<tag k="ssr:stedsnr" v="47476" />
		<tag k="ssr:type" v="annenTerrengdetalj" />
	</node>
	<node lat="63.39677499855099" lon="11.282716658719817" id="-39129">
		<tag k="name" v="Lysarbekken" />
		<tag k="ssr:date" v="2018-01-09" />
		<tag k="ssr:gruppe" v="rennendeVann" />
		<tag k="ssr:hovedgruppe" v="ferskvann" />
		<tag k="ssr:stedsnr" v="47478" />
		<tag k="ssr:type" v="bekk" />
		<tag k="waterway" v="stream" />
	</node>
	<node lat="63.56026389019316" lon="11.258741660596444" id="-39130">
		<tag k="name" v="Engelselva" />
		<tag k="ssr:date" v="2018-01-09" />
		<tag k="ssr:gruppe" v="rennendeVann" />
		<tag k="ssr:hovedgruppe" v="ferskvann" />
		<tag k="ssr:stedsnr" v="47776" />
		<tag k="ssr:type" v="elv" />
		<tag k="waterway" v="river" />
	</node>
	<node lat="63.56229722398763" lon="11.088338884428099" id="-39131">
		<tag k="name" v="Skinnartjønnbekken" />
		<tag k="ssr:date" v="2018-01-09" />
		<tag k="ssr:gruppe" v="rennendeVann" />
		<tag k="ssr:hovedgruppe" v="ferskvann" />
		<tag k="ssr:stedsnr" v="47780" />
		<tag k="ssr:type" v="bekk" />
		<tag k="waterway" v="stream" />
	</node>
	<node lat="63.57114444516286" lon="11.22436388422057" id="-39132">
		<tag k="name" v="Flovollbekken" />
		<tag k="ssr:date" v="2018-01-09" />
		<tag k="ssr:gruppe" v="rennendeVann" />
		<tag k="ssr:hovedgruppe" v="ferskvann" />
		<tag k="ssr:stedsnr" v="47788" />
		<tag k="ssr:type" v="bekk" />
		<tag k="waterway" v="stream" />
	</node>
	<node lat="63.51965358302418" lon="11.2188080463858" id="-39133">
		<tag k="fixme" v="consider place=hamlet" />
		<tag k="name" v="Råvatnet" />
		<tag k="place" v="farm" />
		<tag k="ssr:date" v="2018-01-09" />
		<tag k="ssr:gruppe" v="gardsbebyggelse" />
		<tag k="ssr:hovedgruppe" v="bebyggelse" />
		<tag k="ssr:stedsnr" v="47819" />
		<tag k="ssr:type" v="gard" />
	</node>
	<node lat="63.40426666852213" lon="11.389369445078781" id="-39134">
		<tag k="fixme" v="consider natural=peak for the most distinct mountains in the district" />
		<tag k="name" v="Heståsen" />
		<tag k="natural" v="hill" />
		<tag k="place" v="locality" />
		<tag k="ssr:date" v="2018-01-09" />
		<tag k="ssr:gruppe" v="høyder" />
		<tag k="ssr:hovedgruppe" v="terreng" />
		<tag k="ssr:stedsnr" v="48502" />
		<tag k="ssr:type" v="ås" />
	</node>
	<node lat="63.40371389100557" lon="11.405844446272203" id="-39135">
		<tag k="name" v="Grønnfjellvolltjønna" />
		<tag k="natural" v="water" />
		<tag k="ssr:date" v="2018-01-09" />
		<tag k="ssr:gruppe" v="stilleståendeVann" />
		<tag k="ssr:hovedgruppe" v="ferskvann" />
		<tag k="ssr:stedsnr" v="48504" />
		<tag k="ssr:type" v="tjern" />
	</node>
	<node lat="63.51938611555025" lon="11.401516663328216" id="-39136">
		<tag k="name" v="Bjugdalsbekken" />
		<tag k="ssr:date" v="2018-01-09" />
		<tag k="ssr:gruppe" v="rennendeVann" />
		<tag k="ssr:hovedgruppe" v="ferskvann" />
		<tag k="ssr:stedsnr" v="48702" />
		<tag k="ssr:type" v="bekk" />
		<tag k="waterway" v="stream" />
	</node>
	<node lat="63.52987778117157" lon="11.444580554450749" id="-39137">
		<tag k="name" v="Øvre Bærmyra" />
		<tag k="natural" v="wetland" />
		<tag k="ssr:date" v="2018-01-09" />
		<tag k="ssr:gruppe" v="våtmark" />
		<tag k="ssr:hovedgruppe" v="markslag" />
		<tag k="ssr:stedsnr" v="48706" />
		<tag k="ssr:type" v="myr" />
	</node>
	<node lat="63.535486113341236" lon="11.386841660899968" id="-39138">
		<tag k="name" v="Langslettan" />
		<tag k="natural" v="wetland" />
		<tag k="ssr:date" v="2018-01-09" />
		<tag k="ssr:gruppe" v="våtmark" />
		<tag k="ssr:hovedgruppe" v="markslag" />
		<tag k="ssr:stedsnr" v="48720" />
		<tag k="ssr:type" v="myr" />
	</node>
	<node lat="63.507261114039466" lon="11.184338891930912" id="-39139">
		<tag k="name" v="Reindalsbekken" />
		<tag k="ssr:date" v="2018-01-09" />
		<tag k="ssr:gruppe" v="rennendeVann" />
		<tag k="ssr:hovedgruppe" v="ferskvann" />
		<tag k="ssr:stedsnr" v="58123" />
		<tag k="ssr:type" v="bekk" />
		<tag k="waterway" v="stream" />
	</node>
	<node lat="63.49536110695037" lon="11.032052778938967" id="-39140">
		<tag k="name" v="Hessjøen" />
		<tag k="natural" v="water" />
		<tag k="ssr:date" v="2021-06-08" />
		<tag k="ssr:gruppe" v="stilleståendeVann" />
		<tag k="ssr:hovedgruppe" v="ferskvann" />
		<tag k="ssr:stedsnr" v="73212" />
		<tag k="ssr:type" v="tjern" />
	</node>
	<node lat="63.36362221838153" lon="10.990347224108252" id="-39141">
		<tag k="name" v="Hylltjønna" />
		<tag k="natural" v="water" />
		<tag k="ssr:date" v="2021-06-08" />
		<tag k="ssr:gruppe" v="stilleståendeVann" />
		<tag k="ssr:hovedgruppe" v="ferskvann" />
		<tag k="ssr:stedsnr" v="73410" />
		<tag k="ssr:type" v="tjern" />
	</node>
	<node lat="63.36311944619904" lon="10.857202787579089" id="-39142">
		<tag k="name" v="Koltjønnin" />
		<tag k="natural" v="water" />
		<tag k="ssr:date" v="2019-12-27" />
		<tag k="ssr:gruppe" v="stilleståendeVann" />
		<tag k="ssr:hovedgruppe" v="ferskvann" />
		<tag k="ssr:stedsnr" v="73411" />
		<tag k="ssr:type" v="tjern" />
	</node>
	<node lat="63.36345278148609" lon="10.953494442980023" id="-39143">
		<tag k="name" v="Renndalsskardet" />
		<tag k="natural" v="valley" />
		<tag k="place" v="locality" />
		<tag k="ssr:date" v="2018-01-09" />
		<tag k="ssr:gruppe" v="senkninger" />
		<tag k="ssr:hovedgruppe" v="terreng" />
		<tag k="ssr:stedsnr" v="73408" />
		<tag k="ssr:type" v="skar" />
	</node>
	<node lat="63.49721388880277" lon="11.263719450748738" id="-39144">
		<tag k="fixme" v="multiple name tags, choose one and add the other to alt_name" />
		<tag k="name" v="Tyholt;Tyldbakken" />
		<tag k="place" v="farm" />
		<tag k="ssr:date" v="2018-01-09" />
		<tag k="ssr:gruppe" v="gardsbebyggelse" />
		<tag k="ssr:hovedgruppe" v="bebyggelse" />
		<tag k="ssr:stedsnr" v="73365" />
		<tag k="ssr:type" v="bruk" />
	</node>
	<node lat="63.355213889442176" lon="11.087466661112275" id="-39145">
		<tag k="fixme" v="consider natural=peak for the most distinct mountains in the district" />
		<tag k="name" v="Øyvollkammen" />
		<tag k="natural" v="hill" />
		<tag k="place" v="locality" />
		<tag k="ssr:date" v="2018-01-09" />
		<tag k="ssr:gruppe" v="høyder" />
		<tag k="ssr:hovedgruppe" v="terreng" />
		<tag k="ssr:stedsnr" v="73388" />
		<tag k="ssr:type" v="ås" />
	</node>
	<node lat="63.36165833071818" lon="11.003897218843179" id="-39146">
		<tag k="name" v="Flensbergtjønna" />
		<tag k="natural" v="water" />
		<tag k="ssr:date" v="2021-06-08" />
		<tag k="ssr:gruppe" v="stilleståendeVann" />
		<tag k="ssr:hovedgruppe" v="ferskvann" />
		<tag k="ssr:stedsnr" v="73390" />
		<tag k="ssr:type" v="tjern" />
	</node>
	<node lat="63.373194448055905" lon="10.86537778360411" id="-39147">
		<tag k="name" v="Krokåtbekken" />
		<tag k="ssr:date" v="2021-06-08" />
		<tag k="ssr:gruppe" v="rennendeVann" />
		<tag k="ssr:hovedgruppe" v="ferskvann" />
		<tag k="ssr:stedsnr" v="73394" />
		<tag k="ssr:type" v="bekk" />
		<tag k="waterway" v="stream" />
	</node>
	<node lat="63.49980555631098" lon="11.146083325619243" id="-39148">
		<tag k="name" v="Langset" />
		<tag k="place" v="farm" />
		<tag k="ssr:date" v="2018-01-09" />
		<tag k="ssr:gruppe" v="gardsbebyggelse" />
		<tag k="ssr:hovedgruppe" v="bebyggelse" />
		<tag k="ssr:stedsnr" v="73677" />
		<tag k="ssr:type" v="bruk" />
	</node>
	<node lat="63.51506944063081" lon="11.132752769404878" id="-39149">
		<tag k="name" v="Brenne" />
		<tag k="place" v="farm" />
		<tag k="ssr:date" v="2018-01-09" />
		<tag k="ssr:gruppe" v="gardsbebyggelse" />
		<tag k="ssr:hovedgruppe" v="bebyggelse" />
		<tag k="ssr:stedsnr" v="73703" />
		<tag k="ssr:type" v="bruk" />
	</node>
	<node lat="63.51444872958497" lon="11.054726867167185" id="-39150">
		<tag k="fixme" v="consider place=hamlet" />
		<tag k="name" v="Staurset" />
		<tag k="place" v="farm" />
		<tag k="ssr:date" v="2018-01-09" />
		<tag k="ssr:gruppe" v="gardsbebyggelse" />
		<tag k="ssr:hovedgruppe" v="bebyggelse" />
		<tag k="ssr:stedsnr" v="73705" />
		<tag k="ssr:type" v="gard" />
	</node>
	<node lat="63.55425693380485" lon="11.05919752278904" id="-39151">
		<tag k="name" v="Vollsvollen" />
		<tag k="place" v="locality" />
		<tag k="ssr:date" v="2020-01-09" />
		<tag k="ssr:gruppe" v="gardsbebyggelse" />
		<tag k="ssr:hovedgruppe" v="bebyggelse" />
		<tag k="ssr:stedsnr" v="73806" />
		<tag k="ssr:type" v="byggForJordbrukFiskeOgFangst" />
	</node>
	<node lat="63.42060586937736" lon="10.887723532354391" id="-39152">
		<tag k="fixme" v="consider place=hamlet" />
		<tag k="name" v="Furan" />
		<tag k="place" v="farm" />
		<tag k="ssr:date" v="2018-01-09" />
		<tag k="ssr:gruppe" v="gardsbebyggelse" />
		<tag k="ssr:hovedgruppe" v="bebyggelse" />
		<tag k="ssr:stedsnr" v="74001" />
		<tag k="ssr:type" v="gard" />
	</node>
	<node lat="63.424877448250996" lon="10.917009506031642" id="-39153">
		<tag k="fixme" v="consider place=hamlet" />
		<tag k="name" v="Havdalin" />
		<tag k="place" v="farm" />
		<tag k="ssr:date" v="2021-06-08" />
		<tag k="ssr:gruppe" v="gardsbebyggelse" />
		<tag k="ssr:hovedgruppe" v="bebyggelse" />
		<tag k="ssr:stedsnr" v="74004" />
		<tag k="ssr:type" v="gard" />
	</node>
	<node lat="63.42746111110465" lon="10.960716665418188" id="-39154">
		<tag k="name" v="Bergli" />
		<tag k="place" v="farm" />
		<tag k="ssr:date" v="2018-01-09" />
		<tag k="ssr:gruppe" v="gardsbebyggelse" />
		<tag k="ssr:hovedgruppe" v="bebyggelse" />
		<tag k="ssr:stedsnr" v="74005" />
		<tag k="ssr:type" v="bruk" />
	</node>
	<node lat="63.40242979558999" lon="10.926710583491868" id="-39155">
		<tag k="fixme" v="consider place=hamlet" />
		<tag k="name" v="Frigården" />
		<tag k="place" v="farm" />
		<tag k="ssr:date" v="2021-06-08" />
		<tag k="ssr:gruppe" v="gardsbebyggelse" />
		<tag k="ssr:hovedgruppe" v="bebyggelse" />
		<tag k="ssr:stedsnr" v="74065" />
		<tag k="ssr:type" v="gard" />
	</node>
	<node lat="63.44873055292185" lon="10.97386667630208" id="-39156">
		<tag k="name" v="Melan" />
		<tag k="place" v="farm" />
		<tag k="ssr:date" v="2021-06-08" />
		<tag k="ssr:gruppe" v="gardsbebyggelse" />
		<tag k="ssr:hovedgruppe" v="bebyggelse" />
		<tag k="ssr:stedsnr" v="74070" />
		<tag k="ssr:type" v="bruk" />
	</node>
	<node lat="63.44810833556072" lon="10.966763891883286" id="-39157">
		<tag k="name" v="Noteng" />
		<tag k="place" v="farm" />
		<tag k="ssr:date" v="2018-01-09" />
		<tag k="ssr:gruppe" v="gardsbebyggelse" />
		<tag k="ssr:hovedgruppe" v="bebyggelse" />
		<tag k="ssr:stedsnr" v="74071" />
		<tag k="ssr:type" v="bruk" />
	</node>
	<node lat="63.4398277807731" lon="11.036336103997739" id="-39158">
		<tag k="name" v="Litlmarka" />
		<tag k="place" v="farm" />
		<tag k="ssr:date" v="2021-06-08" />
		<tag k="ssr:gruppe" v="gardsbebyggelse" />
		<tag k="ssr:hovedgruppe" v="bebyggelse" />
		<tag k="ssr:stedsnr" v="74102" />
		<tag k="ssr:type" v="bruk" />
	</node>
	<node lat="63.443976332822444" lon="10.979723227848554" id="-39159">
		<tag k="fixme" v="consider place=hamlet" />
		<tag k="name" v="Eidom" />
		<tag k="place" v="farm" />
		<tag k="ssr:date" v="2021-06-08" />
		<tag k="ssr:gruppe" v="gardsbebyggelse" />
		<tag k="ssr:hovedgruppe" v="bebyggelse" />
		<tag k="ssr:stedsnr" v="74106" />
		<tag k="ssr:type" v="gard" />
	</node>
	<node lat="63.42738888747033" lon="11.099933336183248" id="-39160">
		<tag k="name" v="Trolltjønna" />
		<tag k="natural" v="water" />
		<tag k="ssr:date" v="2021-06-08" />
		<tag k="ssr:gruppe" v="stilleståendeVann" />
		<tag k="ssr:hovedgruppe" v="ferskvann" />
		<tag k="ssr:stedsnr" v="74111" />
		<tag k="ssr:type" v="tjern" />
	</node>
	<node lat="63.46543638162438" lon="11.082053072841928" id="-39161">
		<tag k="name" v="Trøyta" />
		<tag k="place" v="hamlet" />
		<tag k="ssr:date" v="2021-06-08" />
		<tag k="ssr:gruppe" v="gardsbebyggelse" />
		<tag k="ssr:hovedgruppe" v="bebyggelse" />
		<tag k="ssr:stedsnr" v="74157" />
		<tag k="ssr:type" v="navnegard" />
	</node>
	<node lat="63.46788875937872" lon="11.054299668710545" id="-39162">
		<tag k="fixme" v="consider place=hamlet" />
		<tag k="name" v="Bøstad" />
		<tag k="place" v="farm" />
		<tag k="ssr:date" v="2021-06-08" />
		<tag k="ssr:gruppe" v="gardsbebyggelse" />
		<tag k="ssr:hovedgruppe" v="bebyggelse" />
		<tag k="ssr:stedsnr" v="74158" />
		<tag k="ssr:type" v="gard" />
	</node>
	<node lat="63.488983330365286" lon="11.464000003835617" id="-39163">
		<tag k="fixme" v="consider natural=peak for the most distinct mountains in the district" />
		<tag k="name" v="Vollåsen" />
		<tag k="natural" v="hill" />
		<tag k="place" v="locality" />
		<tag k="ssr:date" v="2018-01-09" />
		<tag k="ssr:gruppe" v="høyder" />
		<tag k="ssr:hovedgruppe" v="terreng" />
		<tag k="ssr:stedsnr" v="74272" />
		<tag k="ssr:type" v="ås" />
	</node>
	<node lat="63.557724999860426" lon="11.586277784725874" id="-39164">
		<tag k="name" v="Vassvollbekken" />
		<tag k="ssr:date" v="2018-01-09" />
		<tag k="ssr:gruppe" v="rennendeVann" />
		<tag k="ssr:hovedgruppe" v="ferskvann" />
		<tag k="ssr:stedsnr" v="74458" />
		<tag k="ssr:type" v="bekk" />
		<tag k="waterway" v="stream" />
	</node>
	<node lat="63.393369443278665" lon="10.960638884468807" id="-39165">
		<tag k="alt_name" v="Marka" />
		<tag k="name" v="Fossaunet" />
		<tag k="place" v="farm" />
		<tag k="ssr:date" v="2018-01-09" />
		<tag k="ssr:gruppe" v="gardsbebyggelse" />
		<tag k="ssr:hovedgruppe" v="bebyggelse" />
		<tag k="ssr:stedsnr" v="74459" />
		<tag k="ssr:type" v="bruk" />
	</node>
	<node lat="63.557324996080055" lon="11.523569445080549" id="-39166">
		<tag k="name" v="Kvitsteinvola" />
		<tag k="natural" v="hill" />
		<tag k="place" v="locality" />
		<tag k="ssr:date" v="2018-01-09" />
		<tag k="ssr:gruppe" v="høyder" />
		<tag k="ssr:hovedgruppe" v="terreng" />
		<tag k="ssr:stedsnr" v="74461" />
		<tag k="ssr:type" v="berg" />
	</node>
	<node lat="63.39541388605944" lon="10.945291662457622" id="-39167">
		<tag k="name" v="Fossberga" />
		<tag k="natural" v="hill" />
		<tag k="place" v="locality" />
		<tag k="ssr:date" v="2018-01-09" />
		<tag k="ssr:gruppe" v="høyder" />
		<tag k="ssr:hovedgruppe" v="terreng" />
		<tag k="ssr:stedsnr" v="74462" />
		<tag k="ssr:type" v="berg" />
	</node>
	<node lat="63.4334277741733" lon="11.42459167589718" id="-39168">
		<tag k="name" v="Lauvhaugen" />
		<tag k="natural" v="hill" />
		<tag k="place" v="locality" />
		<tag k="ssr:date" v="2018-01-09" />
		<tag k="ssr:gruppe" v="høyder" />
		<tag k="ssr:hovedgruppe" v="terreng" />
		<tag k="ssr:stedsnr" v="74501" />
		<tag k="ssr:type" v="haug" />
	</node>
	<node lat="63.52365000291937" lon="10.958047219147078" id="-39169">
		<tag k="name" v="Kjølhaugan" />
		<tag k="natural" v="hill" />
		<tag k="place" v="locality" />
		<tag k="ssr:date" v="2021-06-08" />
		<tag k="ssr:gruppe" v="høyder" />
		<tag k="ssr:hovedgruppe" v="terreng" />
		<tag k="ssr:stedsnr" v="74703" />
		<tag k="ssr:type" v="haug" />
	</node>
	<node lat="63.43814721847674" lon="11.034700007901513" id="-39170">
		<tag k="name" v="Bergsmoen" />
		<tag k="place" v="farm" />
		<tag k="ssr:date" v="2018-01-09" />
		<tag k="ssr:gruppe" v="gardsbebyggelse" />
		<tag k="ssr:hovedgruppe" v="bebyggelse" />
		<tag k="ssr:stedsnr" v="88604" />
		<tag k="ssr:type" v="bruk" />
	</node>
	<node lat="63.44501110842267" lon="11.033833338646007" id="-39171">
		<tag k="name" v="Bjørghåmmåren" />
		<tag k="natural" v="hill" />
		<tag k="place" v="locality" />
		<tag k="ssr:date" v="2018-01-09" />
		<tag k="ssr:gruppe" v="høyder" />
		<tag k="ssr:hovedgruppe" v="terreng" />
		<tag k="ssr:stedsnr" v="88609" />
		<tag k="ssr:type" v="berg" />
	</node>
	<node lat="63.44481944033611" lon="10.991486110644406" id="-39172">
		<tag k="alt_name" v="Eidom litle" />
		<tag k="name" v="Litle Eidom" />
		<tag k="place" v="farm" />
		<tag k="ssr:date" v="2018-01-09" />
		<tag k="ssr:gruppe" v="gardsbebyggelse" />
		<tag k="ssr:hovedgruppe" v="bebyggelse" />
		<tag k="ssr:stedsnr" v="88610" />
		<tag k="ssr:type" v="bruk" />
	</node>
	<node lat="63.47117261113629" lon="11.043947068824485" id="-39173">
		<tag k="fixme" v="consider place=hamlet" />
		<tag k="name" v="Bjørken" />
		<tag k="place" v="farm" />
		<tag k="ssr:date" v="2018-01-09" />
		<tag k="ssr:gruppe" v="gardsbebyggelse" />
		<tag k="ssr:hovedgruppe" v="bebyggelse" />
		<tag k="ssr:stedsnr" v="88623" />
		<tag k="ssr:type" v="gard" />
	</node>
	<node lat="63.40398055293821" lon="11.128663883593964" id="-39174">
		<tag k="name" v="Botenlausmyra" />
		<tag k="natural" v="wetland" />
		<tag k="ssr:date" v="2018-01-09" />
		<tag k="ssr:gruppe" v="våtmark" />
		<tag k="ssr:hovedgruppe" v="markslag" />
		<tag k="ssr:stedsnr" v="88569" />
		<tag k="ssr:type" v="myr" />
	</node>
	<node lat="63.40192499876114" lon="11.148005548649774" id="-39175">
		<tag k="fixme" v="consider natural=peak for the most distinct mountains in the district" />
		<tag k="name" v="Hosetåsen" />
		<tag k="natural" v="hill" />
		<tag k="place" v="locality" />
		<tag k="ssr:date" v="2018-01-09" />
		<tag k="ssr:gruppe" v="høyder" />
		<tag k="ssr:hovedgruppe" v="terreng" />
		<tag k="ssr:stedsnr" v="88572" />
		<tag k="ssr:type" v="ås" />
	</node>
	<node lat="63.4866722256736" lon="10.867127783150694" id="-39176">
		<tag k="name" v="Vifstadåsen" />
		<tag k="place" v="farm" />
		<tag k="ssr:date" v="2018-01-09" />
		<tag k="ssr:gruppe" v="gardsbebyggelse" />
		<tag k="ssr:hovedgruppe" v="bebyggelse" />
		<tag k="ssr:stedsnr" v="88770" />
		<tag k="ssr:type" v="bruk" />
	</node>
	<node lat="63.473541665730735" lon="10.980036101463718" id="-39177">
		<tag k="name" v="Byabekken" />
		<tag k="ssr:date" v="2018-01-09" />
		<tag k="ssr:gruppe" v="rennendeVann" />
		<tag k="ssr:hovedgruppe" v="ferskvann" />
		<tag k="ssr:stedsnr" v="88778" />
		<tag k="ssr:type" v="bekk" />
		<tag k="waterway" v="stream" />
	</node>
	<node lat="63.49193333026341" lon="11.057005554226414" id="-39178">
		<tag k="name" v="Sigridhaugen" />
		<tag k="natural" v="hill" />
		<tag k="place" v="locality" />
		<tag k="ssr:date" v="2018-01-09" />
		<tag k="ssr:gruppe" v="høyder" />
		<tag k="ssr:hovedgruppe" v="terreng" />
		<tag k="ssr:stedsnr" v="88702" />
		<tag k="ssr:type" v="haug" />
	</node>
	<node lat="63.48189722439485" lon="11.005177782798253" id="-39179">
		<tag k="name" v="Beistadtrøa" />
		<tag k="place" v="farm" />
		<tag k="ssr:date" v="2018-01-09" />
		<tag k="ssr:gruppe" v="gardsbebyggelse" />
		<tag k="ssr:hovedgruppe" v="bebyggelse" />
		<tag k="ssr:stedsnr" v="88708" />
		<tag k="ssr:type" v="bruk" />
	</node>
	<node lat="63.47265555634251" lon="10.839655547003998" id="-39180">
		<tag k="name" v="Kjerringberget" />
		<tag k="natural" v="hill" />
		<tag k="place" v="locality" />
		<tag k="ssr:date" v="2018-01-09" />
		<tag k="ssr:gruppe" v="høyder" />
		<tag k="ssr:hovedgruppe" v="terreng" />
		<tag k="ssr:stedsnr" v="88906" />
		<tag k="ssr:type" v="berg" />
	</node>
	<node lat="63.41371111188877" lon="10.880372223222698" id="-39181">
		<tag k="name" v="Stormyrberget" />
		<tag k="natural" v="hill" />
		<tag k="place" v="locality" />
		<tag k="ssr:date" v="2018-01-09" />
		<tag k="ssr:gruppe" v="høyder" />
		<tag k="ssr:hovedgruppe" v="terreng" />
		<tag k="ssr:stedsnr" v="88910" />
		<tag k="ssr:type" v="berg" />
	</node>
	<node lat="63.41280833155318" lon="10.861650009295118" id="-39182">
		<tag k="name" v="Rundhaughalla" />
		<tag k="natural" v="slope" />
		<tag k="place" v="locality" />
		<tag k="ssr:date" v="2018-01-09" />
		<tag k="ssr:gruppe" v="skråninger" />
		<tag k="ssr:hovedgruppe" v="terreng" />
		<tag k="ssr:stedsnr" v="88912" />
		<tag k="ssr:type" v="li" />
	</node>
	<node lat="63.413124999283816" lon="10.934419436874757" id="-39183">
		<tag k="name" v="Julan" />
		<tag k="place" v="hamlet" />
		<tag k="ssr:date" v="2018-01-09" />
		<tag k="ssr:gruppe" v="bebyggelsesområder" />
		<tag k="ssr:hovedgruppe" v="bebyggelse" />
		<tag k="ssr:stedsnr" v="88977" />
		<tag k="ssr:type" v="grend" />
	</node>
	<node lat="63.41249722247662" lon="10.925505553086564" id="-39184">
		<tag k="name" v="Hjelsetberget" />
		<tag k="natural" v="hill" />
		<tag k="place" v="locality" />
		<tag k="ssr:date" v="2018-01-09" />
		<tag k="ssr:gruppe" v="høyder" />
		<tag k="ssr:hovedgruppe" v="terreng" />
		<tag k="ssr:stedsnr" v="88979" />
		<tag k="ssr:type" v="berg" />
	</node>
	<node lat="63.55197222574468" lon="11.095527772635442" id="-39185">
		<tag k="name" v="Vikin" />
		<tag k="natural" v="bay" />
		<tag k="ssr:date" v="2018-01-09" />
		<tag k="ssr:gruppe" v="ferskvannskontur" />
		<tag k="ssr:hovedgruppe" v="ferskvann" />
		<tag k="ssr:stedsnr" v="88669" />
		<tag k="ssr:type" v="vik" />
	</node>
	<node lat="63.557319440202114" lon="11.101652783281503" id="-39186">
		<tag k="name" v="Trasttjønna" />
		<tag k="natural" v="water" />
		<tag k="ssr:date" v="2018-01-09" />
		<tag k="ssr:gruppe" v="stilleståendeVann" />
		<tag k="ssr:hovedgruppe" v="ferskvann" />
		<tag k="ssr:stedsnr" v="88672" />
		<tag k="ssr:type" v="tjern" />
	</node>
	<node lat="63.53381666944121" lon="10.918044446333324" id="-39187">
		<tag k="fixme" v="consider natural=peak for the most distinct mountains in the district" />
		<tag k="name" v="Hårråskardhalla" />
		<tag k="natural" v="hill" />
		<tag k="place" v="locality" />
		<tag k="ssr:date" v="2018-01-09" />
		<tag k="ssr:gruppe" v="høyder" />
		<tag k="ssr:hovedgruppe" v="terreng" />
		<tag k="ssr:stedsnr" v="88829" />
		<tag k="ssr:type" v="ås" />
	</node>
	<node lat="63.52337777487388" lon="10.935255558805213" id="-39188">
		<tag k="historic" v="shieling" />
		<tag k="name" v="Hønbyvollen" />
		<tag k="place" v="isolated_dwelling" />
		<tag k="ssr:date" v="2018-01-09" />
		<tag k="ssr:gruppe" v="gardsbebyggelse" />
		<tag k="ssr:hovedgruppe" v="bebyggelse" />
		<tag k="ssr:stedsnr" v="88836" />
		<tag k="ssr:type" v="seterStøl" />
	</node>
	<node lat="63.51896666643184" lon="10.966766669516314" id="-39189">
		<tag k="name" v="Rundhåmmåren" />
		<tag k="natural" v="hill" />
		<tag k="place" v="locality" />
		<tag k="ssr:date" v="2018-01-09" />
		<tag k="ssr:gruppe" v="høyder" />
		<tag k="ssr:hovedgruppe" v="terreng" />
		<tag k="ssr:stedsnr" v="88839" />
		<tag k="ssr:type" v="berg" />
	</node>
	<node lat="63.47216666677035" lon="10.927505554647805" id="-39190">
		<tag k="alt_name" v="Halsen skole" />
		<tag k="amenity" v="school" />
		<tag k="name" v="Halsen barneskole" />
		<tag k="ssr:date" v="2018-01-09" />
		<tag k="ssr:gruppe" v="institusjoner" />
		<tag k="ssr:hovedgruppe" v="bebyggelse" />
		<tag k="ssr:stedsnr" v="88871" />
		<tag k="ssr:type" v="skole" />
	</node>
	<node lat="63.52389999593869" lon="10.784161105470854" id="-39191">
		<tag k="name" v="Bringberget" />
		<tag k="natural" v="hill" />
		<tag k="place" v="locality" />
		<tag k="ssr:date" v="2018-01-09" />
		<tag k="ssr:gruppe" v="høyder" />
		<tag k="ssr:hovedgruppe" v="terreng" />
		<tag k="ssr:stedsnr" v="88891" />
		<tag k="ssr:type" v="berg" />
	</node>
	<node lat="63.43196388479659" lon="11.293299994082986" id="-39192">
		<tag k="name" v="Rulvollbekken" />
		<tag k="ssr:date" v="2018-01-09" />
		<tag k="ssr:gruppe" v="rennendeVann" />
		<tag k="ssr:hovedgruppe" v="ferskvann" />
		<tag k="ssr:stedsnr" v="89303" />
		<tag k="ssr:type" v="bekk" />
		<tag k="waterway" v="stream" />
	</node>
	<node lat="63.43226388510684" lon="11.231047212045834" id="-39193">
		<tag k="fixme" v="consider natural=peak for the most distinct mountains in the district" />
		<tag k="name" v="Sørkilåsan" />
		<tag k="natural" v="hill" />
		<tag k="place" v="locality" />
		<tag k="ssr:date" v="2018-01-09" />
		<tag k="ssr:gruppe" v="høyder" />
		<tag k="ssr:hovedgruppe" v="terreng" />
		<tag k="ssr:stedsnr" v="89307" />
		<tag k="ssr:type" v="ås" />
	</node>
	<node lat="63.505211112552914" lon="11.340027783587681" id="-39194">
		<tag k="name" v="Trongsmyra" />
		<tag k="natural" v="wetland" />
		<tag k="ssr:date" v="2018-01-09" />
		<tag k="ssr:gruppe" v="våtmark" />
		<tag k="ssr:hovedgruppe" v="markslag" />
		<tag k="ssr:stedsnr" v="89312" />
		<tag k="ssr:type" v="myr" />
	</node>
	<node lat="63.50077499808623" lon="11.36141666592372" id="-39195">
		<tag k="name" v="Marktrøa" />
		<tag k="place" v="locality" />
		<tag k="ssr:date" v="2018-01-09" />
		<tag k="ssr:gruppe" v="terrengdetaljer" />
		<tag k="ssr:hovedgruppe" v="terreng" />
		<tag k="ssr:stedsnr" v="89166" />
		<tag k="ssr:type" v="annenTerrengdetalj" />
	</node>
	<node lat="63.50035555705456" lon="11.3650027709999" id="-39196">
		<tag k="name" v="Kvernbekken" />
		<tag k="ssr:date" v="2018-01-09" />
		<tag k="ssr:gruppe" v="rennendeVann" />
		<tag k="ssr:hovedgruppe" v="ferskvann" />
		<tag k="ssr:stedsnr" v="89168" />
		<tag k="ssr:type" v="bekk" />
		<tag k="waterway" v="stream" />
	</node>
	<node lat="63.50345833224768" lon="11.319827773800915" id="-39197">
		<tag k="name" v="Steinmyra" />
		<tag k="natural" v="wetland" />
		<tag k="ssr:date" v="2018-01-09" />
		<tag k="ssr:gruppe" v="våtmark" />
		<tag k="ssr:hovedgruppe" v="markslag" />
		<tag k="ssr:stedsnr" v="89315" />
		<tag k="ssr:type" v="myr" />
	</node>
	<node lat="63.47441110865885" lon="11.246077774387103" id="-39198">
		<tag k="name" v="Brunmyra" />
		<tag k="natural" v="wetland" />
		<tag k="ssr:date" v="2018-01-09" />
		<tag k="ssr:gruppe" v="våtmark" />
		<tag k="ssr:hovedgruppe" v="markslag" />
		<tag k="ssr:stedsnr" v="89332" />
		<tag k="ssr:type" v="myr" />
	</node>
	<node lat="63.472194441852075" lon="11.238636105681396" id="-39199">
		<tag k="name" v="Raudmyra" />
		<tag k="natural" v="wetland" />
		<tag k="ssr:date" v="2018-01-09" />
		<tag k="ssr:gruppe" v="våtmark" />
		<tag k="ssr:hovedgruppe" v="markslag" />
		<tag k="ssr:stedsnr" v="89334" />
		<tag k="ssr:type" v="myr" />
	</node>
	<node lat="63.449791668941025" lon="11.379061107978998" id="-39200">
		<tag k="fixme" v="consider natural=peak for the most distinct mountains in the district" />
		<tag k="name" v="Høgåsen" />
		<tag k="natural" v="hill" />
		<tag k="place" v="locality" />
		<tag k="ssr:date" v="2018-01-09" />
		<tag k="ssr:gruppe" v="høyder" />
		<tag k="ssr:hovedgruppe" v="terreng" />
		<tag k="ssr:stedsnr" v="89411" />
		<tag k="ssr:type" v="ås" />
	</node>
	<node lat="63.5351972213222" lon="11.124538898747803" id="-39201">
		<tag k="name" v="Hårråmyra" />
		<tag k="natural" v="wetland" />
		<tag k="ssr:date" v="2018-01-09" />
		<tag k="ssr:gruppe" v="våtmark" />
		<tag k="ssr:hovedgruppe" v="markslag" />
		<tag k="ssr:stedsnr" v="89509" />
		<tag k="ssr:type" v="myr" />
	</node>
	<node lat="63.54152499934001" lon="11.148033342434918" id="-39202">
		<tag k="name" v="Grønnliin" />
		<tag k="natural" v="slope" />
		<tag k="place" v="locality" />
		<tag k="ssr:date" v="2018-01-09" />
		<tag k="ssr:gruppe" v="skråninger" />
		<tag k="ssr:hovedgruppe" v="terreng" />
		<tag k="ssr:stedsnr" v="89511" />
		<tag k="ssr:type" v="li" />
	</node>
	<node lat="63.46628611234279" lon="11.249738888669697" id="-39203">
		<tag k="historic" v="shieling" />
		<tag k="name" v="Midtkilvollen" />
		<tag k="place" v="isolated_dwelling" />
		<tag k="ssr:date" v="2018-01-09" />
		<tag k="ssr:gruppe" v="gardsbebyggelse" />
		<tag k="ssr:hovedgruppe" v="bebyggelse" />
		<tag k="ssr:stedsnr" v="89519" />
		<tag k="ssr:type" v="seterStøl" />
	</node>
	<node lat="63.420655558275215" lon="11.276513893934384" id="-39204">
		<tag k="name" v="Kammen" />
		<tag k="natural" v="hill" />
		<tag k="place" v="locality" />
		<tag k="ssr:date" v="2018-01-09" />
		<tag k="ssr:gruppe" v="høyder" />
		<tag k="ssr:hovedgruppe" v="terreng" />
		<tag k="ssr:stedsnr" v="89523" />
		<tag k="ssr:type" v="haug" />
	</node>
	<node lat="63.50183610802814" lon="11.213327768036962" id="-39205">
		<tag k="name" v="Einarsrommet" />
		<tag k="natural" v="valley" />
		<tag k="place" v="locality" />
		<tag k="ssr:date" v="2018-01-09" />
		<tag k="ssr:gruppe" v="senkninger" />
		<tag k="ssr:hovedgruppe" v="terreng" />
		<tag k="ssr:stedsnr" v="107694" />
		<tag k="ssr:type" v="botn" />
	</node>
	<node lat="63.39468888522094" lon="11.321625006584183" id="-39206">
		<tag k="name" v="Høstslettet" />
		<tag k="place" v="locality" />
		<tag k="ssr:date" v="2018-01-09" />
		<tag k="ssr:gruppe" v="flater" />
		<tag k="ssr:hovedgruppe" v="terreng" />
		<tag k="ssr:stedsnr" v="108514" />
		<tag k="ssr:type" v="slette" />
	</node>
	<node lat="63.53329999650406" lon="11.185302785816566" id="-39207">
		<tag k="fixme" v="consider natural=peak for the most distinct mountains in the district" />
		<tag k="name" v="Rognhaugen" />
		<tag k="natural" v="hill" />
		<tag k="place" v="locality" />
		<tag k="ssr:date" v="2018-01-09" />
		<tag k="ssr:gruppe" v="høyder" />
		<tag k="ssr:hovedgruppe" v="terreng" />
		<tag k="ssr:stedsnr" v="108814" />
		<tag k="ssr:type" v="ås" />
	</node>
	<node lat="63.50092777962668" lon="11.18987778365422" id="-39208">
		<tag k="name" v="Gammelvollen" />
		<tag k="place" v="locality" />
		<tag k="ssr:date" v="2018-01-09" />
		<tag k="ssr:gruppe" v="terrengdetaljer" />
		<tag k="ssr:hovedgruppe" v="terreng" />
		<tag k="ssr:stedsnr" v="109621" />
		<tag k="ssr:type" v="annenTerrengdetalj" />
	</node>
	<node lat="63.49812499567826" lon="11.269180548946704" id="-39209">
		<tag k="name" v="Brunesbjørga" />
		<tag k="natural" v="slope" />
		<tag k="place" v="locality" />
		<tag k="ssr:date" v="2018-01-09" />
		<tag k="ssr:gruppe" v="skråninger" />
		<tag k="ssr:hovedgruppe" v="terreng" />
		<tag k="ssr:stedsnr" v="109634" />
		<tag k="ssr:type" v="li" />
	</node>
	<node lat="63.568037099356204" lon="11.407422503718458" id="-39210">
		<tag k="alt_name" v="Kleivåsan" />
		<tag k="fixme" v="consider natural=peak for the most distinct mountains in the district" />
		<tag k="name" v="Kleivåsen" />
		<tag k="natural" v="hill" />
		<tag k="place" v="locality" />
		<tag k="ssr:date" v="2019-12-05" />
		<tag k="ssr:gruppe" v="høyder" />
		<tag k="ssr:hovedgruppe" v="terreng" />
		<tag k="ssr:stedsnr" v="109774" />
		<tag k="ssr:type" v="ås" />
	</node>
	<node lat="63.4276555525318" lon="10.927399999489326" id="-39211">
		<tag k="name" v="Leira" />
		<tag k="place" v="farm" />
		<tag k="ssr:date" v="2018-01-09" />
		<tag k="ssr:gruppe" v="gardsbebyggelse" />
		<tag k="ssr:hovedgruppe" v="bebyggelse" />
		<tag k="ssr:stedsnr" v="134005" />
		<tag k="ssr:type" v="bruk" />
	</node>
	<node lat="63.42035555150077" lon="10.96109444139336" id="-39212">
		<tag k="name" v="Dyvaslunden" />
		<tag k="place" v="farm" />
		<tag k="ssr:date" v="2018-01-09" />
		<tag k="ssr:gruppe" v="gardsbebyggelse" />
		<tag k="ssr:hovedgruppe" v="bebyggelse" />
		<tag k="ssr:stedsnr" v="134012" />
		<tag k="ssr:type" v="bruk" />
	</node>
	<node lat="63.41141856291791" lon="10.92927409092033" id="-39213">
		<tag k="fixme" v="consider place=hamlet" />
		<tag k="name" v="Hjelset" />
		<tag k="place" v="farm" />
		<tag k="ssr:date" v="2018-01-09" />
		<tag k="ssr:gruppe" v="gardsbebyggelse" />
		<tag k="ssr:hovedgruppe" v="bebyggelse" />
		<tag k="ssr:stedsnr" v="134060" />
		<tag k="ssr:type" v="gard" />
	</node>
	<node lat="63.39953611434025" lon="11.154347212883993" id="-39214">
		<tag k="name" v="Solheim" />
		<tag k="place" v="farm" />
		<tag k="ssr:date" v="2018-01-09" />
		<tag k="ssr:gruppe" v="gardsbebyggelse" />
		<tag k="ssr:hovedgruppe" v="bebyggelse" />
		<tag k="ssr:stedsnr" v="134071" />
		<tag k="ssr:type" v="bruk" />
	</node>
	<node lat="63.45710833284633" lon="11.011469447456719" id="-39215">
		<tag k="name" v="Nesitrøa" />
		<tag k="place" v="farm" />
		<tag k="ssr:date" v="2021-06-08" />
		<tag k="ssr:gruppe" v="gardsbebyggelse" />
		<tag k="ssr:hovedgruppe" v="bebyggelse" />
		<tag k="ssr:stedsnr" v="134214" />
		<tag k="ssr:type" v="bruk" />
	</node>
	<node lat="63.44479721916468" lon="11.191483342846565" id="-39216">
		<tag k="name" v="Skjerva" />
		<tag k="place" v="farm" />
		<tag k="ssr:date" v="2018-01-09" />
		<tag k="ssr:gruppe" v="gardsbebyggelse" />
		<tag k="ssr:hovedgruppe" v="bebyggelse" />
		<tag k="ssr:stedsnr" v="134105" />
		<tag k="ssr:type" v="bruk" />
	</node>
	<node lat="63.45087500034215" lon="11.200475009442203" id="-39217">
		<tag k="alt_name" v="Einang, vestre" />
		<tag k="name" v="Vestre Einang" />
		<tag k="place" v="farm" />
		<tag k="ssr:date" v="2018-01-09" />
		<tag k="ssr:gruppe" v="gardsbebyggelse" />
		<tag k="ssr:hovedgruppe" v="bebyggelse" />
		<tag k="ssr:stedsnr" v="134107" />
		<tag k="ssr:type" v="bruk" />
	</node>
	<node lat="63.44969721974008" lon="11.070516663357711" id="-39218">
		<tag k="name" v="Rønningen" />
		<tag k="place" v="farm" />
		<tag k="ssr:date" v="2018-01-09" />
		<tag k="ssr:gruppe" v="gardsbebyggelse" />
		<tag k="ssr:hovedgruppe" v="bebyggelse" />
		<tag k="ssr:stedsnr" v="134109" />
		<tag k="ssr:type" v="bruk" />
	</node>
	<node lat="63.43534166888919" lon="11.21294999421759" id="-39219">
		<tag k="alt_name" v="Sørkilflå" />
		<tag k="name" v="Sørkilflåa" />
		<tag k="place" v="farm" />
		<tag k="ssr:date" v="2018-01-09" />
		<tag k="ssr:gruppe" v="gardsbebyggelse" />
		<tag k="ssr:hovedgruppe" v="bebyggelse" />
		<tag k="ssr:stedsnr" v="134116" />
		<tag k="ssr:type" v="bruk" />
	</node>
	<node lat="63.437613890706665" lon="11.200277782843768" id="-39220">
		<tag k="name" v="Svartmyra" />
		<tag k="natural" v="wetland" />
		<tag k="ssr:date" v="2018-01-09" />
		<tag k="ssr:gruppe" v="våtmark" />
		<tag k="ssr:hovedgruppe" v="markslag" />
		<tag k="ssr:stedsnr" v="134117" />
		<tag k="ssr:type" v="myr" />
	</node>
	<node lat="63.435830560002294" lon="11.197774998759291" id="-39221">
		<tag k="name" v="Liabekken" />
		<tag k="ssr:date" v="2018-01-09" />
		<tag k="ssr:gruppe" v="rennendeVann" />
		<tag k="ssr:hovedgruppe" v="ferskvann" />
		<tag k="ssr:stedsnr" v="134119" />
		<tag k="ssr:type" v="bekk" />
		<tag k="waterway" v="stream" />
	</node>
	<node lat="63.47614444614007" lon="11.419758339777248" id="-39222">
		<tag k="name" v="Rollsmyra" />
		<tag k="natural" v="wetland" />
		<tag k="ssr:date" v="2021-06-08" />
		<tag k="ssr:gruppe" v="våtmark" />
		<tag k="ssr:hovedgruppe" v="markslag" />
		<tag k="ssr:stedsnr" v="134302" />
		<tag k="ssr:type" v="myr" />
	</node>
	<node lat="63.4776500030687" lon="11.424202786671318" id="-39223">
		<tag k="name" v="Kulåsplassen" />
		<tag k="place" v="farm" />
		<tag k="ssr:date" v="2018-01-09" />
		<tag k="ssr:gruppe" v="gardsbebyggelse" />
		<tag k="ssr:hovedgruppe" v="bebyggelse" />
		<tag k="ssr:stedsnr" v="134304" />
		<tag k="ssr:type" v="bruk" />
	</node>
	<node lat="63.576049997520535" lon="11.611461101644224" id="-39224">
		<tag k="name" v="Storbekkvælva" />
		<tag k="natural" v="valley" />
		<tag k="place" v="locality" />
		<tag k="ssr:date" v="2018-01-09" />
		<tag k="ssr:gruppe" v="senkninger" />
		<tag k="ssr:hovedgruppe" v="terreng" />
		<tag k="ssr:stedsnr" v="134504" />
		<tag k="ssr:type" v="botn" />
	</node>
	<node lat="63.56521944097401" lon="11.320316674297768" id="-39225">
		<tag k="name" v="Mælashøgdin" />
		<tag k="natural" v="hill" />
		<tag k="place" v="locality" />
		<tag k="ssr:date" v="2018-01-09" />
		<tag k="ssr:gruppe" v="høyder" />
		<tag k="ssr:hovedgruppe" v="terreng" />
		<tag k="ssr:stedsnr" v="134510" />
		<tag k="ssr:type" v="haug" />
	</node>
	<node lat="63.56092777875006" lon="11.319324993368859" id="-39226">
		<tag k="name" v="Svarttjønna" />
		<tag k="natural" v="water" />
		<tag k="ssr:date" v="2018-01-09" />
		<tag k="ssr:gruppe" v="stilleståendeVann" />
		<tag k="ssr:hovedgruppe" v="ferskvann" />
		<tag k="ssr:stedsnr" v="134511" />
		<tag k="ssr:type" v="tjern" />
	</node>
	<node lat="63.55719444767197" lon="11.261630559803985" id="-39227">
		<tag k="name" v="Kvålsmyrin" />
		<tag k="natural" v="wetland" />
		<tag k="ssr:date" v="2018-01-09" />
		<tag k="ssr:gruppe" v="våtmark" />
		<tag k="ssr:hovedgruppe" v="markslag" />
		<tag k="ssr:stedsnr" v="134512" />
		<tag k="ssr:type" v="myr" />
	</node>
	<node lat="63.546456444378855" lon="11.460648570672973" id="-39228">
		<tag k="historic" v="shieling" />
		<tag k="name" v="Almlivollen" />
		<tag k="place" v="isolated_dwelling" />
		<tag k="ssr:date" v="2020-01-06" />
		<tag k="ssr:gruppe" v="gardsbebyggelse" />
		<tag k="ssr:hovedgruppe" v="bebyggelse" />
		<tag k="ssr:stedsnr" v="134516" />
		<tag k="ssr:type" v="seterStøl" />
	</node>
	<node lat="63.36989166751011" lon="11.088833324350786" id="-39229">
		<tag k="name" v="Svedjan" />
		<tag k="natural" v="wetland" />
		<tag k="ssr:date" v="2018-01-09" />
		<tag k="ssr:gruppe" v="våtmark" />
		<tag k="ssr:hovedgruppe" v="markslag" />
		<tag k="ssr:stedsnr" v="134453" />
		<tag k="ssr:type" v="myr" />
	</node>
	<node lat="63.52506636365293" lon="11.100810149039509" id="-39230">
		<tag k="fixme" v="consider place=hamlet" />
		<tag k="name" v="Litlkleiva" />
		<tag k="place" v="farm" />
		<tag k="ssr:date" v="2021-06-08" />
		<tag k="ssr:gruppe" v="gardsbebyggelse" />
		<tag k="ssr:hovedgruppe" v="bebyggelse" />
		<tag k="ssr:stedsnr" v="134753" />
		<tag k="ssr:type" v="gard" />
	</node>
	<node lat="63.53268333435996" lon="11.08466110596087" id="-39231">
		<tag k="name" v="Svartåsen" />
		<tag k="place" v="farm" />
		<tag k="ssr:date" v="2021-06-08" />
		<tag k="ssr:gruppe" v="gardsbebyggelse" />
		<tag k="ssr:hovedgruppe" v="bebyggelse" />
		<tag k="ssr:stedsnr" v="134754" />
		<tag k="ssr:type" v="bruk" />
	</node>
	<node lat="63.53153611527917" lon="10.84839445081396" id="-39232">
		<tag k="name" v="Forbordsmyra" />
		<tag k="place" v="farm" />
		<tag k="ssr:date" v="2021-06-08" />
		<tag k="ssr:gruppe" v="gardsbebyggelse" />
		<tag k="ssr:hovedgruppe" v="bebyggelse" />
		<tag k="ssr:stedsnr" v="134762" />
		<tag k="ssr:type" v="bruk" />
	</node>
	<node lat="63.55197290223554" lon="11.00199523409199" id="-39233">
		<tag k="fixme" v="consider place=hamlet" />
		<tag k="name" v="Skei" />
		<tag k="place" v="farm" />
		<tag k="ssr:date" v="2018-01-09" />
		<tag k="ssr:gruppe" v="gardsbebyggelse" />
		<tag k="ssr:hovedgruppe" v="bebyggelse" />
		<tag k="ssr:stedsnr" v="134766" />
		<tag k="ssr:type" v="gard" />
	</node>
	<node lat="63.54932222073952" lon="10.721980561779462" id="-39234">
		<tag k="bay" v="fjord" />
		<tag k="name" v="Åsenfjorden" />
		<tag k="natural" v="bay" />
		<tag k="ssr:date" v="2019-12-27" />
		<tag k="ssr:gruppe" v="farvann" />
		<tag k="ssr:hovedgruppe" v="sjø" />
		<tag k="ssr:stedsnr" v="134806" />
		<tag k="ssr:type" v="fjord" />
	</node>
	<node lat="63.556150025198" lon="10.974561135733321" id="-39235">
		<tag k="fixme" v="consider place=hamlet" />
		<tag k="name" v="Fossen" />
		<tag k="old_name" v="Skårån" />
		<tag k="place" v="farm" />
		<tag k="ssr:date" v="2021-06-08" />
		<tag k="ssr:gruppe" v="gardsbebyggelse" />
		<tag k="ssr:hovedgruppe" v="bebyggelse" />
		<tag k="ssr:stedsnr" v="134808" />
		<tag k="ssr:type" v="gard" />
	</node>
	<node lat="63.55711388790231" lon="10.943111115144243" id="-39236">
		<tag k="name" v="Nordsveet" />
		<tag k="place" v="farm" />
		<tag k="ssr:date" v="2018-01-09" />
		<tag k="ssr:gruppe" v="gardsbebyggelse" />
		<tag k="ssr:hovedgruppe" v="bebyggelse" />
		<tag k="ssr:stedsnr" v="134809" />
		<tag k="ssr:type" v="bruk" />
	</node>
	<node lat="63.49933055927566" lon="11.140683325943979" id="-39237">
		<tag k="name" v="Gressetet" />
		<tag k="place" v="farm" />
		<tag k="ssr:date" v="2021-06-08" />
		<tag k="ssr:gruppe" v="gardsbebyggelse" />
		<tag k="ssr:hovedgruppe" v="bebyggelse" />
		<tag k="ssr:stedsnr" v="255228" />
		<tag k="ssr:type" v="bruk" />
	</node>
	<node lat="63.49105000216557" lon="10.824455549733365" id="-39238">
		<tag k="name" v="Hafsåsen" />
		<tag k="place" v="farm" />
		<tag k="ssr:date" v="2021-06-08" />
		<tag k="ssr:gruppe" v="gardsbebyggelse" />
		<tag k="ssr:hovedgruppe" v="bebyggelse" />
		<tag k="ssr:stedsnr" v="255236" />
		<tag k="ssr:type" v="bruk" />
	</node>
	<node lat="63.44619999812384" lon="10.865372224834948" id="-39239">
		<tag k="name" v="Billedholmen" />
		<tag k="natural" v="cape" />
		<tag k="ssr:date" v="2018-01-09" />
		<tag k="ssr:gruppe" v="kystkontur" />
		<tag k="ssr:hovedgruppe" v="sjø" />
		<tag k="ssr:stedsnr" v="255092" />
		<tag k="ssr:type" v="nesISjø" />
	</node>
	<node lat="63.46185555764336" lon="10.976747219293353" id="-39240">
		<tag k="name" v="Kongsreina" />
		<tag k="place" v="farm" />
		<tag k="ssr:date" v="2018-01-09" />
		<tag k="ssr:gruppe" v="gardsbebyggelse" />
		<tag k="ssr:hovedgruppe" v="bebyggelse" />
		<tag k="ssr:stedsnr" v="255187" />
		<tag k="ssr:type" v="bruk" />
	</node>
	<node lat="63.42954166730218" lon="11.112280551831828" id="-39241">
		<tag k="name" v="Stormyra" />
		<tag k="natural" v="wetland" />
		<tag k="ssr:date" v="2018-01-09" />
		<tag k="ssr:gruppe" v="våtmark" />
		<tag k="ssr:hovedgruppe" v="markslag" />
		<tag k="ssr:stedsnr" v="255160" />
		<tag k="ssr:type" v="myr" />
	</node>
	<node lat="63.48745000271286" lon="10.876825009065366" id="-39242">
		<tag k="name" v="Bakken" />
		<tag k="place" v="farm" />
		<tag k="ssr:date" v="2018-01-09" />
		<tag k="ssr:gruppe" v="gardsbebyggelse" />
		<tag k="ssr:hovedgruppe" v="bebyggelse" />
		<tag k="ssr:stedsnr" v="255255" />
		<tag k="ssr:type" v="bruk" />
	</node>
	<node lat="63.33718333604388" lon="10.947186107514446" id="-39243">
		<tag k="historic" v="shieling" />
		<tag k="name" v="Røssvollen" />
		<tag k="place" v="isolated_dwelling" />
		<tag k="ssr:date" v="2021-06-08" />
		<tag k="ssr:gruppe" v="gardsbebyggelse" />
		<tag k="ssr:hovedgruppe" v="bebyggelse" />
		<tag k="ssr:stedsnr" v="255332" />
		<tag k="ssr:type" v="seterStøl" />
	</node>
	<node lat="63.441777287487454" lon="11.262296766581438" id="-39244">
		<tag k="fixme" v="consider place=hamlet" />
		<tag k="name" v="Kilneset" />
		<tag k="place" v="farm" />
		<tag k="ssr:date" v="2021-06-08" />
		<tag k="ssr:gruppe" v="gardsbebyggelse" />
		<tag k="ssr:hovedgruppe" v="bebyggelse" />
		<tag k="ssr:stedsnr" v="255429" />
		<tag k="ssr:type" v="gard" />
	</node>
	<node lat="63.360730555524064" lon="11.149852784996392" id="-39245">
		<tag k="name" v="Stor-Karåsen" />
		<tag k="natural" v="slope" />
		<tag k="place" v="locality" />
		<tag k="ssr:date" v="2021-06-08" />
		<tag k="ssr:gruppe" v="skråninger" />
		<tag k="ssr:hovedgruppe" v="terreng" />
		<tag k="ssr:stedsnr" v="255377" />
		<tag k="ssr:type" v="li" />
	</node>
	<node lat="63.370227778463196" lon="10.911027777430803" id="-39246">
		<tag k="name" v="Støbergsvollen" />
		<tag k="place" v="locality" />
		<tag k="ssr:date" v="2021-06-08" />
		<tag k="ssr:gruppe" v="gardsbebyggelse" />
		<tag k="ssr:hovedgruppe" v="bebyggelse" />
		<tag k="ssr:stedsnr" v="255388" />
		<tag k="ssr:type" v="eiendom" />
	</node>
	<node lat="63.370308334259285" lon="11.173361101715342" id="-39247">
		<tag k="fixme" v="consider natural=peak for the most distinct mountains in the district" />
		<tag k="name" v="Klimpan" />
		<tag k="natural" v="hill" />
		<tag k="place" v="locality" />
		<tag k="ssr:date" v="2021-06-08" />
		<tag k="ssr:gruppe" v="høyder" />
		<tag k="ssr:hovedgruppe" v="terreng" />
		<tag k="ssr:stedsnr" v="255395" />
		<tag k="ssr:type" v="fjell" />
	</node>
	<node lat="63.44731111160288" lon="11.261638885061691" id="-39248">
		<tag k="name" v="Løfta" />
		<tag k="place" v="isolated_dwelling" />
		<tag k="ssr:date" v="2018-01-09" />
		<tag k="ssr:gruppe" v="bolighus" />
		<tag k="ssr:hovedgruppe" v="bebyggelse" />
		<tag k="ssr:stedsnr" v="255441" />
		<tag k="ssr:type" v="fritidsbolig" />
	</node>
	<node lat="63.45606944694247" lon="11.33916943951355" id="-39249">
		<tag k="name" v="Rønningen" />
		<tag k="place" v="farm" />
		<tag k="ssr:date" v="2018-01-09" />
		<tag k="ssr:gruppe" v="gardsbebyggelse" />
		<tag k="ssr:hovedgruppe" v="bebyggelse" />
		<tag k="ssr:stedsnr" v="255452" />
		<tag k="ssr:type" v="bruk" />
	</node>
	<node lat="63.45799334824641" lon="11.358960892570016" id="-39250">
		<tag k="amenity" v="place_of_worship" />
		<tag k="denomination" v="lutheran" />
		<tag k="name" v="Flora kapell" />
		<tag k="religion" v="christian" />
		<tag k="ssr:date" v="2019-02-19" />
		<tag k="ssr:gruppe" v="kulturinstitusjoner" />
		<tag k="ssr:hovedgruppe" v="kultur" />
		<tag k="ssr:stedsnr" v="255454" />
		<tag k="ssr:type" v="kirke" />
	</node>
	<node lat="63.452894448304576" lon="11.380538892064822" id="-39251">
		<tag k="name" v="Furuhåmmåren" />
		<tag k="natural" v="hill" />
		<tag k="place" v="locality" />
		<tag k="ssr:date" v="2021-06-08" />
		<tag k="ssr:gruppe" v="høyder" />
		<tag k="ssr:hovedgruppe" v="terreng" />
		<tag k="ssr:stedsnr" v="255458" />
		<tag k="ssr:type" v="berg" />
	</node>
	<node lat="63.51226666726551" lon="11.435899997767008" id="-39252">
		<tag k="name" v="Almlisvea" />
		<tag k="place" v="farm" />
		<tag k="ssr:date" v="2018-01-09" />
		<tag k="ssr:gruppe" v="gardsbebyggelse" />
		<tag k="ssr:hovedgruppe" v="bebyggelse" />
		<tag k="ssr:stedsnr" v="255500" />
		<tag k="ssr:type" v="bruk" />
	</node>
	<node lat="63.501694445936984" lon="11.20559167472967" id="-39253">
		<tag k="alt_name" v="Bjønndalen" />
		<tag k="name" v="Bjørndalen" />
		<tag k="natural" v="valley" />
		<tag k="place" v="locality" />
		<tag k="ssr:date" v="2018-01-09" />
		<tag k="ssr:gruppe" v="senkninger" />
		<tag k="ssr:hovedgruppe" v="terreng" />
		<tag k="ssr:stedsnr" v="255691" />
		<tag k="ssr:type" v="dal" />
	</node>
	<node lat="63.50843971869628" lon="11.000899310400321" id="-39254">
		<tag k="fixme" v="consider place=hamlet" />
		<tag k="name" v="Lundan" />
		<tag k="place" v="farm" />
		<tag k="ssr:date" v="2018-01-09" />
		<tag k="ssr:gruppe" v="gardsbebyggelse" />
		<tag k="ssr:hovedgruppe" v="bebyggelse" />
		<tag k="ssr:stedsnr" v="255700" />
		<tag k="ssr:type" v="gard" />
	</node>
	<node lat="63.54849999879125" lon="10.930386107462402" id="-39255">
		<tag k="name" v="Langsteindalen" />
		<tag k="natural" v="valley" />
		<tag k="place" v="locality" />
		<tag k="ssr:date" v="2018-01-09" />
		<tag k="ssr:gruppe" v="senkninger" />
		<tag k="ssr:hovedgruppe" v="terreng" />
		<tag k="ssr:stedsnr" v="255779" />
		<tag k="ssr:type" v="dal" />
	</node>
	<node lat="63.55326389249073" lon="10.960563892709319" id="-39256">
		<tag k="name" v="Hammermoen" />
		<tag k="place" v="farm" />
		<tag k="ssr:date" v="2021-06-08" />
		<tag k="ssr:gruppe" v="gardsbebyggelse" />
		<tag k="ssr:hovedgruppe" v="bebyggelse" />
		<tag k="ssr:stedsnr" v="255781" />
		<tag k="ssr:type" v="bruk" />
	</node>
	<node lat="63.56423888834647" lon="10.99909722693484" id="-39257">
		<tag k="alt_name" v="Øyavollen" />
		<tag k="name" v="Saltøysætra" />
		<tag k="place" v="locality" />
		<tag k="ssr:date" v="2018-01-09" />
		<tag k="ssr:gruppe" v="gardsbebyggelse" />
		<tag k="ssr:hovedgruppe" v="bebyggelse" />
		<tag k="ssr:stedsnr" v="255826" />
		<tag k="ssr:type" v="eiendom" />
	</node>
	<node lat="63.56691944193439" lon="11.187613891074346" id="-39258">
		<tag k="loc_name" v="Bulandsvatn" />
		<tag k="name" v="Bulandsvatnet" />
		<tag k="natural" v="water" />
		<tag k="ssr:date" v="2018-01-09" />
		<tag k="ssr:gruppe" v="stilleståendeVann" />
		<tag k="ssr:hovedgruppe" v="ferskvann" />
		<tag k="ssr:stedsnr" v="255829" />
		<tag k="ssr:type" v="vann" />
		<tag k="water" v="lake" />
	</node>
	<node lat="63.43099919617033" lon="10.933361862341282" id="-39259">
		<tag k="name" v="Leira" />
		<tag k="place" v="hamlet" />
		<tag k="ssr:date" v="2021-06-08" />
		<tag k="ssr:gruppe" v="gardsbebyggelse" />
		<tag k="ssr:hovedgruppe" v="bebyggelse" />
		<tag k="ssr:stedsnr" v="256114" />
		<tag k="ssr:type" v="navnegard" />
	</node>
	<node lat="63.43798611513429" lon="11.147449996027245" id="-39260">
		<tag k="name" v="Litltjønna" />
		<tag k="natural" v="water" />
		<tag k="ssr:date" v="2021-06-08" />
		<tag k="ssr:gruppe" v="stilleståendeVann" />
		<tag k="ssr:hovedgruppe" v="ferskvann" />
		<tag k="ssr:stedsnr" v="256088" />
		<tag k="ssr:type" v="tjern" />
	</node>
	<node lat="63.438170821477215" lon="10.989635978783726" id="-39261">
		<tag k="name" v="Svorte" />
		<tag k="place" v="hamlet" />
		<tag k="ssr:date" v="2019-10-29" />
		<tag k="ssr:gruppe" v="gardsbebyggelse" />
		<tag k="ssr:hovedgruppe" v="bebyggelse" />
		<tag k="ssr:stedsnr" v="256095" />
		<tag k="ssr:type" v="navnegard" />
	</node>
	<node lat="63.43099166897825" lon="10.940252775165337" id="-39262">
		<tag k="name" v="Leirheim" />
		<tag k="place" v="farm" />
		<tag k="ssr:date" v="2018-01-09" />
		<tag k="ssr:gruppe" v="gardsbebyggelse" />
		<tag k="ssr:hovedgruppe" v="bebyggelse" />
		<tag k="ssr:stedsnr" v="256108" />
		<tag k="ssr:type" v="bruk" />
	</node>
	<node lat="63.48249444263274" lon="10.882658332687244" id="-39263">
		<tag k="alt_name" v="Vikaune" />
		<tag k="name" v="Vikaunet" />
		<tag k="place" v="farm" />
		<tag k="ssr:date" v="2018-01-09" />
		<tag k="ssr:gruppe" v="gardsbebyggelse" />
		<tag k="ssr:hovedgruppe" v="bebyggelse" />
		<tag k="ssr:stedsnr" v="256138" />
		<tag k="ssr:type" v="bruk" />
	</node>
	<node lat="63.47963798147291" lon="10.935125345704343" id="-39264">
		<tag k="fixme" v="consider place=hamlet" />
		<tag k="name" v="Fosslia" />
		<tag k="place" v="farm" />
		<tag k="ssr:date" v="2021-06-08" />
		<tag k="ssr:gruppe" v="gardsbebyggelse" />
		<tag k="ssr:hovedgruppe" v="bebyggelse" />
		<tag k="ssr:stedsnr" v="256143" />
		<tag k="ssr:type" v="gard" />
	</node>
	<node lat="63.46841944559806" lon="11.007572226841276" id="-39265">
		<tag k="name" v="Brannmyra" />
		<tag k="natural" v="wetland" />
		<tag k="ssr:date" v="2018-01-09" />
		<tag k="ssr:gruppe" v="våtmark" />
		<tag k="ssr:hovedgruppe" v="markslag" />
		<tag k="ssr:stedsnr" v="148705" />
		<tag k="ssr:type" v="myr" />
	</node>
	<node lat="63.49605833579353" lon="11.057555553637544" id="-39266">
		<tag k="name" v="Porsmyråsen" />
		<tag k="natural" v="hill" />
		<tag k="place" v="locality" />
		<tag k="ssr:date" v="2018-01-09" />
		<tag k="ssr:gruppe" v="høyder" />
		<tag k="ssr:hovedgruppe" v="terreng" />
		<tag k="ssr:stedsnr" v="148760" />
		<tag k="ssr:type" v="haug" />
	</node>
	<node lat="63.49305555468512" lon="10.987283337585456" id="-39267">
		<tag k="name" v="Rebrannen" />
		<tag k="natural" v="slope" />
		<tag k="place" v="locality" />
		<tag k="ssr:date" v="2018-01-09" />
		<tag k="ssr:gruppe" v="skråninger" />
		<tag k="ssr:hovedgruppe" v="terreng" />
		<tag k="ssr:stedsnr" v="148764" />
		<tag k="ssr:type" v="li" />
	</node>
	<node lat="63.5086138848631" lon="11.098516659048894" id="-39268">
		<tag k="name" v="Smedhaug" />
		<tag k="place" v="farm" />
		<tag k="ssr:date" v="2018-01-09" />
		<tag k="ssr:gruppe" v="gardsbebyggelse" />
		<tag k="ssr:hovedgruppe" v="bebyggelse" />
		<tag k="ssr:stedsnr" v="148771" />
		<tag k="ssr:type" v="bruk" />
	</node>
	<node lat="63.50694444471768" lon="11.044549990055032" id="-39269">
		<tag k="name" v="Hessmyra" />
		<tag k="natural" v="wetland" />
		<tag k="ssr:date" v="2018-01-09" />
		<tag k="ssr:gruppe" v="våtmark" />
		<tag k="ssr:hovedgruppe" v="markslag" />
		<tag k="ssr:stedsnr" v="148774" />
		<tag k="ssr:type" v="myr" />
	</node>
	<node lat="63.47891944069002" lon="11.143391674971387" id="-39270">
		<tag k="name" v="Steinset" />
		<tag k="place" v="farm" />
		<tag k="ssr:date" v="2018-01-09" />
		<tag k="ssr:gruppe" v="gardsbebyggelse" />
		<tag k="ssr:hovedgruppe" v="bebyggelse" />
		<tag k="ssr:stedsnr" v="256155" />
		<tag k="ssr:type" v="bruk" />
	</node>
	<node lat="63.456170645141974" lon="11.170545747938704" id="-39271">
		<tag k="name" v="Kleivplassen" />
		<tag k="place" v="locality" />
		<tag k="ssr:date" v="2020-06-16" />
		<tag k="ssr:gruppe" v="kulturminner" />
		<tag k="ssr:hovedgruppe" v="kultur" />
		<tag k="ssr:stedsnr" v="148610" />
		<tag k="ssr:type" v="annenKulturdetalj" />
	</node>
	<node lat="63.47891666891828" lon="10.860508339996139" id="-39272">
		<tag k="name" v="Folvikberga" />
		<tag k="natural" v="hill" />
		<tag k="place" v="locality" />
		<tag k="ssr:date" v="2018-01-09" />
		<tag k="ssr:gruppe" v="høyder" />
		<tag k="ssr:hovedgruppe" v="terreng" />
		<tag k="ssr:stedsnr" v="148806" />
		<tag k="ssr:type" v="berg" />
	</node>
	<node lat="63.458305557375645" lon="10.949347227318459" id="-39273">
		<tag k="name" v="Litl-Øyan" />
		<tag k="place" v="farm" />
		<tag k="ssr:date" v="2018-01-09" />
		<tag k="ssr:gruppe" v="gardsbebyggelse" />
		<tag k="ssr:hovedgruppe" v="bebyggelse" />
		<tag k="ssr:stedsnr" v="148816" />
		<tag k="ssr:type" v="bruk" />
	</node>
	<node lat="63.452608337199344" lon="10.91919444317044" id="-39274">
		<tag k="name" v="Feristadreina" />
		<tag k="place" v="locality" />
		<tag k="ssr:date" v="2018-01-09" />
		<tag k="ssr:gruppe" v="terrengdetaljer" />
		<tag k="ssr:hovedgruppe" v="terreng" />
		<tag k="ssr:stedsnr" v="148822" />
		<tag k="ssr:type" v="annenTerrengdetalj" />
	</node>
	<node lat="63.390274996313245" lon="10.931488890368009" id="-39275">
		<tag k="name" v="Fossdalen" />
		<tag k="natural" v="valley" />
		<tag k="place" v="locality" />
		<tag k="ssr:date" v="2018-01-09" />
		<tag k="ssr:gruppe" v="senkninger" />
		<tag k="ssr:hovedgruppe" v="terreng" />
		<tag k="ssr:stedsnr" v="148957" />
		<tag k="ssr:type" v="dal" />
	</node>
	<node lat="63.38735555856797" lon="10.927866676612755" id="-39276">
		<tag k="name" v="Damsletta" />
		<tag k="natural" v="wetland" />
		<tag k="ssr:date" v="2018-01-09" />
		<tag k="ssr:gruppe" v="våtmark" />
		<tag k="ssr:hovedgruppe" v="markslag" />
		<tag k="ssr:stedsnr" v="148958" />
		<tag k="ssr:type" v="myr" />
	</node>
	<node lat="63.39282222390413" lon="10.920025000912872" id="-39277">
		<tag k="fixme" v="consider natural=peak for the most distinct mountains in the district" />
		<tag k="name" v="Storbakken" />
		<tag k="natural" v="hill" />
		<tag k="place" v="locality" />
		<tag k="ssr:date" v="2018-01-09" />
		<tag k="ssr:gruppe" v="høyder" />
		<tag k="ssr:hovedgruppe" v="terreng" />
		<tag k="ssr:stedsnr" v="148960" />
		<tag k="ssr:type" v="ås" />
	</node>
	<node lat="63.46601172054826" lon="10.88374663645864" id="-39278">
		<tag k="landuse" v="harbour" />
		<tag k="name" v="Stjørdal havn" />
		<tag k="seamark:type" v="harbour" />
		<tag k="ssr:date" v="2020-02-14" />
		<tag k="ssr:gruppe" v="sjøfart" />
		<tag k="ssr:hovedgruppe" v="infrastruktur" />
		<tag k="ssr:stedsnr" v="148963" />
		<tag k="ssr:type" v="havn" />
	</node>
	<node lat="63.395155556021734" lon="10.932705563889613" id="-39279">
		<tag k="name" v="Kjerringkastmyra" />
		<tag k="natural" v="wetland" />
		<tag k="ssr:date" v="2018-01-09" />
		<tag k="ssr:gruppe" v="våtmark" />
		<tag k="ssr:hovedgruppe" v="markslag" />
		<tag k="ssr:stedsnr" v="148969" />
		<tag k="ssr:type" v="myr" />
	</node>
	<node lat="63.42395555221298" lon="10.918416668257054" id="-39280">
		<tag k="name" v="Havdalshaugen" />
		<tag k="natural" v="hill" />
		<tag k="place" v="locality" />
		<tag k="ssr:date" v="2018-01-09" />
		<tag k="ssr:gruppe" v="høyder" />
		<tag k="ssr:hovedgruppe" v="terreng" />
		<tag k="ssr:stedsnr" v="148976" />
		<tag k="ssr:type" v="haug" />
	</node>
	<node lat="63.42378055276106" lon="11.372350000157441" id="-39281">
		<tag k="name" v="Håkkådalen" />
		<tag k="natural" v="valley" />
		<tag k="place" v="locality" />
		<tag k="ssr:date" v="2021-06-08" />
		<tag k="ssr:gruppe" v="senkninger" />
		<tag k="ssr:hovedgruppe" v="terreng" />
		<tag k="ssr:stedsnr" v="149108" />
		<tag k="ssr:type" v="dal" />
	</node>
	<node lat="63.46033889175023" lon="11.486800009291896" id="-39282">
		<tag k="name" v="Brannhaugen" />
		<tag k="natural" v="hill" />
		<tag k="place" v="locality" />
		<tag k="ssr:date" v="2018-01-09" />
		<tag k="ssr:gruppe" v="høyder" />
		<tag k="ssr:hovedgruppe" v="terreng" />
		<tag k="ssr:stedsnr" v="256275" />
		<tag k="ssr:type" v="haug" />
	</node>
	<node lat="63.475908331270354" lon="10.887847214405289" id="-39283">
		<tag k="name" v="Leira industriområde" />
		<tag k="place" v="quarter" />
		<tag k="ssr:date" v="2018-01-09" />
		<tag k="ssr:gruppe" v="bebyggelsesområder" />
		<tag k="ssr:hovedgruppe" v="bebyggelse" />
		<tag k="ssr:stedsnr" v="148867" />
		<tag k="ssr:type" v="industriområde" />
	</node>
	<node lat="63.469147220369436" lon="11.348297220255366" id="-39284">
		<tag k="name" v="Stormyra" />
		<tag k="natural" v="wetland" />
		<tag k="ssr:date" v="2018-01-09" />
		<tag k="ssr:gruppe" v="våtmark" />
		<tag k="ssr:hovedgruppe" v="markslag" />
		<tag k="ssr:stedsnr" v="149510" />
		<tag k="ssr:type" v="myr" />
	</node>
	<node lat="63.453583335693935" lon="11.284888895798693" id="-39285">
		<tag k="name" v="Brudalsbekken" />
		<tag k="ssr:date" v="2018-01-09" />
		<tag k="ssr:gruppe" v="rennendeVann" />
		<tag k="ssr:hovedgruppe" v="ferskvann" />
		<tag k="ssr:stedsnr" v="149511" />
		<tag k="ssr:type" v="bekk" />
		<tag k="waterway" v="stream" />
	</node>
	<node lat="63.43873889242326" lon="11.175661108373268" id="-39286">
		<tag k="highway" v="path" />
		<tag k="name" v="Steinvegen" />
		<tag k="ssr:date" v="2018-01-09" />
		<tag k="ssr:gruppe" v="veg" />
		<tag k="ssr:hovedgruppe" v="infrastruktur" />
		<tag k="ssr:stedsnr" v="149402" />
		<tag k="ssr:type" v="sti" />
	</node>
	<node lat="63.43187222197807" lon="11.150172228776533" id="-39287">
		<tag k="alt_name" v="Ingstadvollen Nordre" />
		<tag k="historic" v="shieling" />
		<tag k="name" v="Nordre Ingstadvollen" />
		<tag k="place" v="isolated_dwelling" />
		<tag k="ssr:date" v="2018-01-09" />
		<tag k="ssr:gruppe" v="gardsbebyggelse" />
		<tag k="ssr:hovedgruppe" v="bebyggelse" />
		<tag k="ssr:stedsnr" v="149406" />
		<tag k="ssr:type" v="seterStøl" />
	</node>
	<node lat="63.4314305530264" lon="11.113047222646045" id="-39288">
		<tag k="name" v="Flaksjø og Lillefjell allmenning" />
		<tag k="place" v="locality" />
		<tag k="ssr:date" v="2018-01-09" />
		<tag k="ssr:gruppe" v="verne-OgBruksområder" />
		<tag k="ssr:hovedgruppe" v="offentligAdministrasjon" />
		<tag k="ssr:stedsnr" v="149409" />
		<tag k="ssr:type" v="allmenning" />
	</node>
	<node lat="63.50493333719509" lon="11.153836112385395" id="-39289">
		<tag k="name" v="Høgpynten" />
		<tag k="natural" v="hill" />
		<tag k="place" v="locality" />
		<tag k="ssr:date" v="2018-01-09" />
		<tag k="ssr:gruppe" v="høyder" />
		<tag k="ssr:hovedgruppe" v="terreng" />
		<tag k="ssr:stedsnr" v="149416" />
		<tag k="ssr:type" v="haug" />
	</node>
	<node lat="63.51385833424989" lon="11.165522225339929" id="-39290">
		<tag k="name" v="Langmyra" />
		<tag k="natural" v="wetland" />
		<tag k="ssr:date" v="2018-01-09" />
		<tag k="ssr:gruppe" v="våtmark" />
		<tag k="ssr:hovedgruppe" v="markslag" />
		<tag k="ssr:stedsnr" v="149428" />
		<tag k="ssr:type" v="myr" />
	</node>
	<node lat="63.4971166693579" lon="11.14847777356177" id="-39291">
		<tag k="name" v="Skjelstadfossen" />
		<tag k="natural" v="waterfall" />
		<tag k="ssr:date" v="2021-06-08" />
		<tag k="ssr:gruppe" v="rennendeVann" />
		<tag k="ssr:hovedgruppe" v="ferskvann" />
		<tag k="ssr:stedsnr" v="149437" />
		<tag k="ssr:type" v="foss" />
	</node>
	<node lat="63.51129166532372" lon="11.169458341369058" id="-39292">
		<tag k="name" v="Tjønndalsbekken" />
		<tag k="ssr:date" v="2018-01-09" />
		<tag k="ssr:gruppe" v="rennendeVann" />
		<tag k="ssr:hovedgruppe" v="ferskvann" />
		<tag k="ssr:stedsnr" v="149439" />
		<tag k="ssr:type" v="bekk" />
		<tag k="waterway" v="stream" />
	</node>
	<node lat="63.51534722339386" lon="11.165886114412562" id="-39293">
		<tag k="name" v="Furuhaugen" />
		<tag k="natural" v="hill" />
		<tag k="place" v="locality" />
		<tag k="ssr:date" v="2018-01-09" />
		<tag k="ssr:gruppe" v="høyder" />
		<tag k="ssr:hovedgruppe" v="terreng" />
		<tag k="ssr:stedsnr" v="149471" />
		<tag k="ssr:type" v="haug" />
	</node>
	<node lat="63.48295592110407" lon="10.80322660313286" id="-39294">
		<tag k="name" v="Skardshåmmåren" />
		<tag k="natural" v="hill" />
		<tag k="old_name" v="Skarshammeren" />
		<tag k="place" v="locality" />
		<tag k="ssr:date" v="2021-06-08" />
		<tag k="ssr:gruppe" v="høyder" />
		<tag k="ssr:hovedgruppe" v="terreng" />
		<tag k="ssr:stedsnr" v="149810" />
		<tag k="ssr:type" v="berg" />
	</node>
	<node lat="63.47304444482315" lon="10.825775008819866" id="-39295">
		<tag k="name" v="Kleivhåmmåren" />
		<tag k="natural" v="hill" />
		<tag k="place" v="locality" />
		<tag k="ssr:date" v="2021-06-08" />
		<tag k="ssr:gruppe" v="høyder" />
		<tag k="ssr:hovedgruppe" v="terreng" />
		<tag k="ssr:stedsnr" v="149812" />
		<tag k="ssr:type" v="berg" />
	</node>
	<node lat="63.443261108739236" lon="10.865366674058428" id="-39296">
		<tag k="name" v="Småvollan" />
		<tag k="place" v="locality" />
		<tag k="ssr:date" v="2018-01-09" />
		<tag k="ssr:gruppe" v="bolighus" />
		<tag k="ssr:hovedgruppe" v="bebyggelse" />
		<tag k="ssr:stedsnr" v="149818" />
		<tag k="ssr:type" v="gammelBosettingsplass" />
	</node>
	<node lat="63.42202778126659" lon="11.016361116883651" id="-39297">
		<tag k="name" v="Løfthamran" />
		<tag k="natural" v="hill" />
		<tag k="place" v="locality" />
		<tag k="ssr:date" v="2018-01-09" />
		<tag k="ssr:gruppe" v="høyder" />
		<tag k="ssr:hovedgruppe" v="terreng" />
		<tag k="ssr:stedsnr" v="149871" />
		<tag k="ssr:type" v="berg" />
	</node>
	<node lat="63.42756944863592" lon="11.058497218779241" id="-39298">
		<tag k="name" v="Snøfonnberget" />
		<tag k="natural" v="hill" />
		<tag k="place" v="locality" />
		<tag k="ssr:date" v="2018-01-09" />
		<tag k="ssr:gruppe" v="høyder" />
		<tag k="ssr:hovedgruppe" v="terreng" />
		<tag k="ssr:stedsnr" v="149876" />
		<tag k="ssr:type" v="berg" />
	</node>
	<node lat="63.47186110857172" lon="11.397249989855116" id="-39299">
		<tag k="alt_name" v="Helsettrøa" />
		<tag k="name" v="Heggsettrøa" />
		<tag k="place" v="farm" />
		<tag k="ssr:date" v="2018-01-09" />
		<tag k="ssr:gruppe" v="gardsbebyggelse" />
		<tag k="ssr:hovedgruppe" v="bebyggelse" />
		<tag k="ssr:stedsnr" v="256292" />
		<tag k="ssr:type" v="bruk" />
	</node>
	<node lat="63.46704166770602" lon="11.497569450011392" id="-39300">
		<tag k="name" v="Meåa" />
		<tag k="ssr:date" v="2021-06-08" />
		<tag k="ssr:gruppe" v="rennendeVann" />
		<tag k="ssr:hovedgruppe" v="ferskvann" />
		<tag k="ssr:stedsnr" v="256295" />
		<tag k="ssr:type" v="bekk" />
		<tag k="waterway" v="stream" />
	</node>
	<node lat="63.555294442660234" lon="11.033588890386726" id="-39301">
		<tag k="name" v="Frosttjønnmyra" />
		<tag k="natural" v="wetland" />
		<tag k="ssr:date" v="2018-01-09" />
		<tag k="ssr:gruppe" v="våtmark" />
		<tag k="ssr:hovedgruppe" v="markslag" />
		<tag k="ssr:stedsnr" v="149714" />
		<tag k="ssr:type" v="myr" />
	</node>
	<node lat="63.55420000289538" lon="11.030416671286968" id="-39302">
		<tag k="name" v="Bjørnmyra" />
		<tag k="natural" v="wetland" />
		<tag k="ssr:date" v="2018-01-09" />
		<tag k="ssr:gruppe" v="våtmark" />
		<tag k="ssr:hovedgruppe" v="markslag" />
		<tag k="ssr:stedsnr" v="149716" />
		<tag k="ssr:type" v="myr" />
	</node>
	<node lat="63.39965000061635" lon="11.173458328619375" id="-39303">
		<tag k="name" v="Hosetmoen" />
		<tag k="place" v="farm" />
		<tag k="ssr:date" v="2018-01-09" />
		<tag k="ssr:gruppe" v="gardsbebyggelse" />
		<tag k="ssr:hovedgruppe" v="bebyggelse" />
		<tag k="ssr:stedsnr" v="256420" />
		<tag k="ssr:type" v="bruk" />
	</node>
	<node lat="63.39430555602584" lon="10.978516661919674" id="-39304">
		<tag k="alt_name" v="Julset, midtre" />
		<tag k="name" v="Midtre Julset" />
		<tag k="place" v="farm" />
		<tag k="ssr:date" v="2018-01-09" />
		<tag k="ssr:gruppe" v="gardsbebyggelse" />
		<tag k="ssr:hovedgruppe" v="bebyggelse" />
		<tag k="ssr:stedsnr" v="256422" />
		<tag k="ssr:type" v="bruk" />
	</node>
	<node lat="63.42497499930812" lon="11.420049995509816" id="-39305">
		<tag k="fixme" v="consider natural=peak for the most distinct mountains in the district" />
		<tag k="name" v="Fagerlia" />
		<tag k="natural" v="hill" />
		<tag k="place" v="locality" />
		<tag k="ssr:date" v="2018-01-09" />
		<tag k="ssr:gruppe" v="høyder" />
		<tag k="ssr:hovedgruppe" v="terreng" />
		<tag k="ssr:stedsnr" v="256429" />
		<tag k="ssr:type" v="ås" />
	</node>
	<node lat="63.530263884687365" lon="11.511166674435735" id="-39306">
		<tag k="name" v="Aunvollen" />
		<tag k="place" v="isolated_dwelling" />
		<tag k="ssr:date" v="2018-01-09" />
		<tag k="ssr:gruppe" v="bolighus" />
		<tag k="ssr:hovedgruppe" v="bebyggelse" />
		<tag k="ssr:stedsnr" v="256434" />
		<tag k="ssr:type" v="fritidsbolig" />
	</node>
	<node lat="63.53735776009879" lon="11.29251785263454" id="-39307">
		<tag k="fixme" v="consider place=hamlet" />
		<tag k="name" v="Tyldsjøen" />
		<tag k="place" v="farm" />
		<tag k="ssr:date" v="2018-01-09" />
		<tag k="ssr:gruppe" v="gardsbebyggelse" />
		<tag k="ssr:hovedgruppe" v="bebyggelse" />
		<tag k="ssr:stedsnr" v="256444" />
		<tag k="ssr:type" v="gard" />
	</node>
	<node lat="63.386580558257144" lon="11.045611118679846" id="-39308">
		<tag k="name" v="Sautjønna" />
		<tag k="natural" v="water" />
		<tag k="ssr:date" v="2021-06-08" />
		<tag k="ssr:gruppe" v="stilleståendeVann" />
		<tag k="ssr:hovedgruppe" v="ferskvann" />
		<tag k="ssr:stedsnr" v="256445" />
		<tag k="ssr:type" v="tjern" />
	</node>
	<node lat="63.516930552941524" lon="11.290152769126713" id="-39309">
		<tag k="name" v="Raudåkjølen" />
		<tag k="natural" v="wetland" />
		<tag k="ssr:date" v="2018-01-09" />
		<tag k="ssr:gruppe" v="våtmark" />
		<tag k="ssr:hovedgruppe" v="markslag" />
		<tag k="ssr:stedsnr" v="256447" />
		<tag k="ssr:type" v="myr" />
	</node>
	<node lat="63.44064166648984" lon="11.252130557841344" id="-39310">
		<tag k="name" v="Sørkilmoen" />
		<tag k="place" v="farm" />
		<tag k="ssr:date" v="2021-06-08" />
		<tag k="ssr:gruppe" v="gardsbebyggelse" />
		<tag k="ssr:hovedgruppe" v="bebyggelse" />
		<tag k="ssr:stedsnr" v="256450" />
		<tag k="ssr:type" v="bruk" />
	</node>
	<node lat="63.441619447243966" lon="11.29145278294791" id="-39311">
		<tag k="name" v="Kilnesdammen" />
		<tag k="natural" v="water" />
		<tag k="ssr:date" v="2018-01-09" />
		<tag k="ssr:gruppe" v="stilleståendeVann" />
		<tag k="ssr:hovedgruppe" v="ferskvann" />
		<tag k="ssr:stedsnr" v="256456" />
		<tag k="ssr:type" v="tjern" />
	</node>
	<node lat="63.385074995818094" lon="11.288002784269604" id="-39312">
		<tag k="name" v="Fosstun" />
		<tag k="place" v="isolated_dwelling" />
		<tag k="ssr:date" v="2018-01-09" />
		<tag k="ssr:gruppe" v="bolighus" />
		<tag k="ssr:hovedgruppe" v="bebyggelse" />
		<tag k="ssr:stedsnr" v="256349" />
		<tag k="ssr:type" v="eneboligMindreBoligbygg" />
	</node>
	<node lat="63.521716669830624" lon="11.195633332070908" id="-39313">
		<tag k="fixme" v="consider natural=peak for the most distinct mountains in the district" />
		<tag k="name" v="Brattåsen" />
		<tag k="natural" v="hill" />
		<tag k="place" v="locality" />
		<tag k="ssr:date" v="2018-01-09" />
		<tag k="ssr:gruppe" v="høyder" />
		<tag k="ssr:hovedgruppe" v="terreng" />
		<tag k="ssr:stedsnr" v="256678" />
		<tag k="ssr:type" v="ås" />
	</node>
	<node lat="63.46478055978639" lon="10.444752769544145" id="-39314">
		<tag k="bay" v="fjord" />
		<tag k="name" v="Strindfjorden" />
		<tag k="natural" v="bay" />
		<tag k="ssr:date" v="2019-12-27" />
		<tag k="ssr:gruppe" v="farvann" />
		<tag k="ssr:hovedgruppe" v="sjø" />
		<tag k="ssr:stedsnr" v="256682" />
		<tag k="ssr:type" v="fjord" />
	</node>
	<node lat="63.51587902342269" lon="11.073163079898896" id="-39315">
		<tag k="fixme" v="consider place=hamlet" />
		<tag k="name" v="Frigarden" />
		<tag k="place" v="farm" />
		<tag k="ssr:date" v="2021-06-08" />
		<tag k="ssr:gruppe" v="gardsbebyggelse" />
		<tag k="ssr:hovedgruppe" v="bebyggelse" />
		<tag k="ssr:stedsnr" v="256684" />
		<tag k="ssr:type" v="gard" />
	</node>
	<node lat="63.52512593422115" lon="10.81394999357739" id="-39316">
		<tag k="name" v="Heggja" />
		<tag k="place" v="hamlet" />
		<tag k="ssr:date" v="2021-06-08" />
		<tag k="ssr:gruppe" v="gardsbebyggelse" />
		<tag k="ssr:hovedgruppe" v="bebyggelse" />
		<tag k="ssr:stedsnr" v="256691" />
		<tag k="ssr:type" v="navnegard" />
	</node>
	<node lat="63.527030553189554" lon="11.186286119056456" id="-39317">
		<tag k="fixme" v="consider natural=peak for the most distinct mountains in the district" />
		<tag k="name" v="Hosetkammen" />
		<tag k="natural" v="hill" />
		<tag k="place" v="locality" />
		<tag k="ssr:date" v="2018-01-09" />
		<tag k="ssr:gruppe" v="høyder" />
		<tag k="ssr:hovedgruppe" v="terreng" />
		<tag k="ssr:stedsnr" v="256698" />
		<tag k="ssr:type" v="ås" />
	</node>
	<node lat="63.52558610658645" lon="11.185030562356022" id="-39318">
		<tag k="name" v="Hosetvollen" />
		<tag k="place" v="locality" />
		<tag k="ssr:date" v="2018-01-09" />
		<tag k="ssr:gruppe" v="gardsbebyggelse" />
		<tag k="ssr:hovedgruppe" v="bebyggelse" />
		<tag k="ssr:stedsnr" v="256699" />
		<tag k="ssr:type" v="eiendom" />
	</node>
	<node lat="63.53360277753846" lon="10.822455552171608" id="-39319">
		<tag k="name" v="Solhaugen" />
		<tag k="place" v="farm" />
		<tag k="ssr:date" v="2018-01-09" />
		<tag k="ssr:gruppe" v="gardsbebyggelse" />
		<tag k="ssr:hovedgruppe" v="bebyggelse" />
		<tag k="ssr:stedsnr" v="256717" />
		<tag k="ssr:type" v="bruk" />
	</node>
	<node lat="63.54492500434601" lon="11.031233334866227" id="-39320">
		<tag k="name" v="Fagerliåsen" />
		<tag k="natural" v="hill" />
		<tag k="place" v="locality" />
		<tag k="ssr:date" v="2021-06-08" />
		<tag k="ssr:gruppe" v="høyder" />
		<tag k="ssr:hovedgruppe" v="terreng" />
		<tag k="ssr:stedsnr" v="256726" />
		<tag k="ssr:type" v="haug" />
	</node>
	<node lat="63.53997222156181" lon="10.965966662076266" id="-39321">
		<tag k="name" v="Langdalen" />
		<tag k="natural" v="valley" />
		<tag k="place" v="locality" />
		<tag k="ssr:date" v="2018-01-09" />
		<tag k="ssr:gruppe" v="senkninger" />
		<tag k="ssr:hovedgruppe" v="terreng" />
		<tag k="ssr:stedsnr" v="256735" />
		<tag k="ssr:type" v="dal" />
	</node>
	<node lat="63.37075615229514" lon="11.290303186120997" id="-39322">
		<tag k="name" v="Vollskogen" />
		<tag k="place" v="locality" />
		<tag k="ssr:date" v="2018-01-09" />
		<tag k="ssr:gruppe" v="vegetasjon" />
		<tag k="ssr:hovedgruppe" v="markslag" />
		<tag k="ssr:stedsnr" v="168425" />
		<tag k="ssr:type" v="skog" />
	</node>
	<node lat="63.3616041638386" lon="11.391371713532113" id="-39323">
		<tag k="name" v="Sillerbekken" />
		<tag k="ssr:date" v="2018-01-09" />
		<tag k="ssr:gruppe" v="rennendeVann" />
		<tag k="ssr:hovedgruppe" v="ferskvann" />
		<tag k="ssr:stedsnr" v="168468" />
		<tag k="ssr:type" v="bekk" />
		<tag k="waterway" v="stream" />
	</node>
	<node lat="63.37777368673562" lon="11.369240235798955" id="-39324">
		<tag k="name" v="Storsillermyra" />
		<tag k="natural" v="wetland" />
		<tag k="ssr:date" v="2018-01-09" />
		<tag k="ssr:gruppe" v="våtmark" />
		<tag k="ssr:hovedgruppe" v="markslag" />
		<tag k="ssr:stedsnr" v="168475" />
		<tag k="ssr:type" v="myr" />
	</node>
	<node lat="63.360045989132296" lon="11.001780328388913" id="-39325">
		<tag k="name" v="Fleinberget" />
		<tag k="natural" v="hill" />
		<tag k="place" v="locality" />
		<tag k="ssr:date" v="2018-01-09" />
		<tag k="ssr:gruppe" v="høyder" />
		<tag k="ssr:hovedgruppe" v="terreng" />
		<tag k="ssr:stedsnr" v="168367" />
		<tag k="ssr:type" v="berg" />
	</node>
	<node lat="63.368327779872125" lon="10.91613889644314" id="-39326">
		<tag k="fixme" v="consider natural=peak for the most distinct mountains in the district" />
		<tag k="name" v="Steinåsen" />
		<tag k="natural" v="hill" />
		<tag k="place" v="locality" />
		<tag k="ssr:date" v="2018-01-09" />
		<tag k="ssr:gruppe" v="høyder" />
		<tag k="ssr:hovedgruppe" v="terreng" />
		<tag k="ssr:stedsnr" v="168571" />
		<tag k="ssr:type" v="ås" />
	</node>
	<node lat="63.53055555673017" lon="11.217800008046881" id="-39327">
		<tag k="name" v="Hogneskjølen" />
		<tag k="natural" v="wetland" />
		<tag k="ssr:date" v="2018-01-09" />
		<tag k="ssr:gruppe" v="våtmark" />
		<tag k="ssr:hovedgruppe" v="markslag" />
		<tag k="ssr:stedsnr" v="168826" />
		<tag k="ssr:type" v="myr" />
	</node>
	<node lat="63.37082592765112" lon="11.051304898455992" id="-39328">
		<tag k="name" v="Trygmyra" />
		<tag k="natural" v="wetland" />
		<tag k="ssr:date" v="2018-01-09" />
		<tag k="ssr:gruppe" v="våtmark" />
		<tag k="ssr:hovedgruppe" v="markslag" />
		<tag k="ssr:stedsnr" v="169421" />
		<tag k="ssr:type" v="myr" />
	</node>
	<node lat="63.57919721938111" lon="11.564449992910891" id="-39329">
		<tag k="name" v="Elgvadsfoss statsalmenning" />
		<tag k="place" v="locality" />
		<tag k="ssr:date" v="2018-01-09" />
		<tag k="ssr:gruppe" v="verne-OgBruksområder" />
		<tag k="ssr:hovedgruppe" v="offentligAdministrasjon" />
		<tag k="ssr:stedsnr" v="169712" />
		<tag k="ssr:type" v="allmenning" />
	</node>
	<node lat="63.528852781599184" lon="11.387975003472928" id="-39330">
		<tag k="name" v="Knottbekken" />
		<tag k="ssr:date" v="2018-01-09" />
		<tag k="ssr:gruppe" v="rennendeVann" />
		<tag k="ssr:hovedgruppe" v="ferskvann" />
		<tag k="ssr:stedsnr" v="169723" />
		<tag k="ssr:type" v="bekk" />
		<tag k="waterway" v="stream" />
	</node>
	<node lat="63.413700001802255" lon="11.435111104597562" id="-39331">
		<tag k="fixme" v="consider natural=peak for the most distinct mountains in the district" />
		<tag k="name" v="Grønfjellpynten" />
		<tag k="natural" v="hill" />
		<tag k="place" v="locality" />
		<tag k="ssr:date" v="2021-06-08" />
		<tag k="ssr:gruppe" v="høyder" />
		<tag k="ssr:hovedgruppe" v="terreng" />
		<tag k="ssr:stedsnr" v="172517" />
		<tag k="ssr:type" v="topp" />
	</node>
	<node lat="63.49825833684211" lon="11.350177775271638" id="-39333">
		<tag k="name" v="Fossbakken" />
		<tag k="place" v="farm" />
		<tag k="ssr:date" v="2021-06-08" />
		<tag k="ssr:gruppe" v="gardsbebyggelse" />
		<tag k="ssr:hovedgruppe" v="bebyggelse" />
		<tag k="ssr:stedsnr" v="263256" />
		<tag k="ssr:type" v="bruk" />
	</node>
	<node lat="63.349113891005" lon="11.326194435036031" id="-39334">
		<tag k="fixme" v="consider natural=peak for the most distinct mountains in the district" />
		<tag k="name" v="Hevlknekten" />
		<tag k="natural" v="hill" />
		<tag k="place" v="locality" />
		<tag k="ssr:date" v="2021-06-08" />
		<tag k="ssr:gruppe" v="høyder" />
		<tag k="ssr:hovedgruppe" v="terreng" />
		<tag k="ssr:stedsnr" v="263257" />
		<tag k="ssr:type" v="topp" />
	</node>
	<node lat="63.390438885688084" lon="11.427977771870836" id="-39335">
		<tag k="name" v="Midtkilbekken" />
		<tag k="ssr:date" v="2021-06-08" />
		<tag k="ssr:gruppe" v="rennendeVann" />
		<tag k="ssr:hovedgruppe" v="ferskvann" />
		<tag k="ssr:stedsnr" v="263454" />
		<tag k="ssr:type" v="bekk" />
		<tag k="waterway" v="stream" />
	</node>
	<node lat="63.4650111075766" lon="11.261802786286232" id="-39336">
		<tag k="fixme" v="consider natural=peak for the most distinct mountains in the district" />
		<tag k="name" v="Kammen" />
		<tag k="natural" v="hill" />
		<tag k="place" v="locality" />
		<tag k="ssr:date" v="2021-06-08" />
		<tag k="ssr:gruppe" v="høyder" />
		<tag k="ssr:hovedgruppe" v="terreng" />
		<tag k="ssr:stedsnr" v="195335" />
		<tag k="ssr:type" v="ås" />
	</node>
	<node lat="63.519400000557425" lon="11.319830560618199" id="-39337">
		<tag k="name" v="Litlådalen" />
		<tag k="natural" v="valley" />
		<tag k="place" v="locality" />
		<tag k="ssr:date" v="2018-01-09" />
		<tag k="ssr:gruppe" v="senkninger" />
		<tag k="ssr:hovedgruppe" v="terreng" />
		<tag k="ssr:stedsnr" v="195530" />
		<tag k="ssr:type" v="dal" />
	</node>
	<node lat="63.51236388873293" lon="11.38154445387745" id="-39338">
		<tag k="name" v="Bjugdalen" />
		<tag k="natural" v="valley" />
		<tag k="place" v="locality" />
		<tag k="ssr:date" v="2018-01-09" />
		<tag k="ssr:gruppe" v="senkninger" />
		<tag k="ssr:hovedgruppe" v="terreng" />
		<tag k="ssr:stedsnr" v="195532" />
		<tag k="ssr:type" v="dal" />
	</node>
	<node lat="63.38306944346675" lon="11.147047230313555" id="-39339">
		<tag k="name" v="Kjerringa" />
		<tag k="natural" v="hill" />
		<tag k="place" v="locality" />
		<tag k="ssr:date" v="2018-01-09" />
		<tag k="ssr:gruppe" v="høyder" />
		<tag k="ssr:hovedgruppe" v="terreng" />
		<tag k="ssr:stedsnr" v="195533" />
		<tag k="ssr:type" v="haug" />
	</node>
	<node lat="63.51772866629471" lon="10.871464379121232" id="-39340">
		<tag k="fixme" v="consider place=hamlet" />
		<tag k="name" v="Berget" />
		<tag k="place" v="farm" />
		<tag k="ssr:date" v="2021-06-08" />
		<tag k="ssr:gruppe" v="gardsbebyggelse" />
		<tag k="ssr:hovedgruppe" v="bebyggelse" />
		<tag k="ssr:stedsnr" v="195706" />
		<tag k="ssr:type" v="gard" />
	</node>
	<node lat="63.512055359909624" lon="10.861491966373585" id="-39341">
		<tag k="alt_name" v="Skatval" />
		<tag k="amenity" v="place_of_worship" />
		<tag k="denomination" v="lutheran" />
		<tag k="name" v="Skatval kirke" />
		<tag k="religion" v="christian" />
		<tag k="ssr:date" v="2019-02-20" />
		<tag k="ssr:gruppe" v="kulturinstitusjoner" />
		<tag k="ssr:hovedgruppe" v="kultur" />
		<tag k="ssr:stedsnr" v="195709" />
		<tag k="ssr:type" v="kirke" />
	</node>
	<node lat="63.52579424092303" lon="10.852340478001246" id="-39342">
		<tag k="fixme" v="consider place=hamlet" />
		<tag k="name" v="Forbord" />
		<tag k="place" v="farm" />
		<tag k="ssr:date" v="2018-01-09" />
		<tag k="ssr:gruppe" v="gardsbebyggelse" />
		<tag k="ssr:hovedgruppe" v="bebyggelse" />
		<tag k="ssr:stedsnr" v="195735" />
		<tag k="ssr:type" v="gard" />
	</node>
	<node lat="63.34935555521097" lon="11.245380548833314" id="-39343">
		<tag k="fixme" v="consider natural=peak for the most distinct mountains in the district" />
		<tag k="name" v="Kvitfjellet" />
		<tag k="natural" v="hill" />
		<tag k="place" v="locality" />
		<tag k="ssr:date" v="2021-06-08" />
		<tag k="ssr:gruppe" v="høyder" />
		<tag k="ssr:hovedgruppe" v="terreng" />
		<tag k="ssr:stedsnr" v="195431" />
		<tag k="ssr:type" v="ås" />
	</node>
	<node lat="63.346122220786164" lon="11.31378333148239" id="-39344">
		<tag k="alt_name" v="Vestre Langlivollen" />
		<tag k="historic" v="shieling" />
		<tag k="name" v="Langlivollen" />
		<tag k="place" v="isolated_dwelling" />
		<tag k="ssr:date" v="2018-01-09" />
		<tag k="ssr:gruppe" v="gardsbebyggelse" />
		<tag k="ssr:hovedgruppe" v="bebyggelse" />
		<tag k="ssr:stedsnr" v="195432" />
		<tag k="ssr:type" v="seterStøl" />
	</node>
	<node lat="63.34054722429433" lon="11.028791666522984" id="-39345">
		<tag k="alt_name" v="Grønlivollen" />
		<tag k="name" v="Grønlivollan" />
		<tag k="place" v="locality" />
		<tag k="ssr:date" v="2018-01-09" />
		<tag k="ssr:gruppe" v="gardsbebyggelse" />
		<tag k="ssr:hovedgruppe" v="bebyggelse" />
		<tag k="ssr:stedsnr" v="195437" />
		<tag k="ssr:type" v="eiendom" />
	</node>
	<node lat="63.45220000011863" lon="11.250808325546501" id="-39346">
		<tag k="alt_name" v="Østkilbekken" />
		<tag k="name" v="Austkilbekken" />
		<tag k="ssr:date" v="2018-01-09" />
		<tag k="ssr:gruppe" v="rennendeVann" />
		<tag k="ssr:hovedgruppe" v="ferskvann" />
		<tag k="ssr:stedsnr" v="195483" />
		<tag k="ssr:type" v="bekk" />
		<tag k="waterway" v="stream" />
	</node>
	<node lat="63.40090555810183" lon="11.18350833359086" id="-39347">
		<tag k="name" v="Sørli" />
		<tag k="place" v="farm" />
		<tag k="ssr:date" v="2018-01-09" />
		<tag k="ssr:gruppe" v="gardsbebyggelse" />
		<tag k="ssr:hovedgruppe" v="bebyggelse" />
		<tag k="ssr:stedsnr" v="195487" />
		<tag k="ssr:type" v="bruk" />
	</node>
	<node lat="63.39391388592681" lon="10.982591669463881" id="-39348">
		<tag k="alt_name" v="Julset, austre" />
		<tag k="name" v="Austre Julset" />
		<tag k="place" v="farm" />
		<tag k="ssr:date" v="2018-01-09" />
		<tag k="ssr:gruppe" v="gardsbebyggelse" />
		<tag k="ssr:hovedgruppe" v="bebyggelse" />
		<tag k="ssr:stedsnr" v="195490" />
		<tag k="ssr:type" v="bruk" />
	</node>
	<node lat="63.54195833129528" lon="11.547122212883991" id="-39349">
		<tag k="loc_name" v="Risvollen" />
		<tag k="name" v="Risvolvollen" />
		<tag k="place" v="isolated_dwelling" />
		<tag k="ssr:date" v="2018-01-09" />
		<tag k="ssr:gruppe" v="bolighus" />
		<tag k="ssr:hovedgruppe" v="bebyggelse" />
		<tag k="ssr:stedsnr" v="195495" />
		<tag k="ssr:type" v="fritidsbolig" />
	</node>
	<node lat="63.50338961976973" lon="11.121699164742308" id="-39350">
		<tag k="fixme" v="consider place=hamlet" />
		<tag k="name" v="Kristlok" />
		<tag k="place" v="farm" />
		<tag k="ssr:date" v="2018-01-09" />
		<tag k="ssr:gruppe" v="gardsbebyggelse" />
		<tag k="ssr:hovedgruppe" v="bebyggelse" />
		<tag k="ssr:stedsnr" v="195685" />
		<tag k="ssr:type" v="gard" />
	</node>
	<node lat="65.11002777597567" lon="13.085422216082504" id="-39351">
		<tag k="fixme" v="consider natural=peak for the most distinct mountains in the district" />
		<tag k="name" v="Kløftfjellet - Sloeptjenguevtele" />
		<tag k="name:no" v="Kløftfjellet" />
		<tag k="name:sma" v="Sloeptjenguevtele" />
		<tag k="natural" v="hill" />
		<tag k="place" v="locality" />
		<tag k="ssr:date" v="2021-10-07" />
		<tag k="ssr:gruppe" v="høyder" />
		<tag k="ssr:hovedgruppe" v="terreng" />
		<tag k="ssr:stedsnr" v="196523" />
		<tag k="ssr:type" v="fjell" />
	</node>
	<node lat="63.48910000429049" lon="11.372377785726481" id="-39352">
		<tag k="name" v="Ådalsvollen" />
		<tag k="place" v="locality" />
		<tag k="ssr:date" v="2018-01-09" />
		<tag k="ssr:gruppe" v="flater" />
		<tag k="ssr:hovedgruppe" v="terreng" />
		<tag k="ssr:stedsnr" v="210136" />
		<tag k="ssr:type" v="mo" />
	</node>
	<node lat="63.456872219797376" lon="11.331527780772648" id="-39353">
		<tag k="name" v="Mølskhølen" />
		<tag k="place" v="locality" />
		<tag k="ssr:date" v="2018-01-09" />
		<tag k="ssr:gruppe" v="rennendeVann" />
		<tag k="ssr:hovedgruppe" v="ferskvann" />
		<tag k="ssr:stedsnr" v="210290" />
		<tag k="ssr:type" v="høl" />
	</node>
	<node lat="63.45960277371628" lon="11.315944453834836" id="-39354">
		<tag k="name" v="Ståggåberghølen" />
		<tag k="place" v="locality" />
		<tag k="ssr:date" v="2018-01-09" />
		<tag k="ssr:gruppe" v="rennendeVann" />
		<tag k="ssr:hovedgruppe" v="ferskvann" />
		<tag k="ssr:stedsnr" v="210292" />
		<tag k="ssr:type" v="høl" />
	</node>
	<node lat="63.45284444823834" lon="11.308308324304903" id="-39355">
		<tag k="fixme" v="consider natural=peak for the most distinct mountains in the district" />
		<tag k="name" v="Raudmyråsen" />
		<tag k="natural" v="hill" />
		<tag k="place" v="locality" />
		<tag k="ssr:date" v="2018-01-09" />
		<tag k="ssr:gruppe" v="høyder" />
		<tag k="ssr:hovedgruppe" v="terreng" />
		<tag k="ssr:stedsnr" v="210296" />
		<tag k="ssr:type" v="ås" />
	</node>
	<node lat="63.441869440475344" lon="11.210597231199475" id="-39356">
		<tag k="name" v="Nesikleiva" />
		<tag k="natural" v="slope" />
		<tag k="place" v="locality" />
		<tag k="ssr:date" v="2018-01-09" />
		<tag k="ssr:gruppe" v="skråninger" />
		<tag k="ssr:hovedgruppe" v="terreng" />
		<tag k="ssr:stedsnr" v="210411" />
		<tag k="ssr:type" v="li" />
	</node>
	<node lat="63.450591666075226" lon="11.357011115615546" id="-39357">
		<tag k="historic" v="shieling" />
		<tag k="name" v="Flornesvollen" />
		<tag k="place" v="isolated_dwelling" />
		<tag k="ssr:date" v="2018-01-09" />
		<tag k="ssr:gruppe" v="gardsbebyggelse" />
		<tag k="ssr:hovedgruppe" v="bebyggelse" />
		<tag k="ssr:stedsnr" v="210303" />
		<tag k="ssr:type" v="seterStøl" />
	</node>
	<node lat="63.43338055116349" lon="11.275477782906012" id="-39358">
		<tag k="name" v="Brennåsen" />
		<tag k="place" v="locality" />
		<tag k="ssr:date" v="2018-01-09" />
		<tag k="ssr:gruppe" v="bolighus" />
		<tag k="ssr:hovedgruppe" v="bebyggelse" />
		<tag k="ssr:stedsnr" v="210308" />
		<tag k="ssr:type" v="gammelBosettingsplass" />
	</node>
	<node lat="63.43077777395221" lon="11.24740555786167" id="-39359">
		<tag k="name" v="Raudmyra" />
		<tag k="natural" v="wetland" />
		<tag k="ssr:date" v="2018-01-09" />
		<tag k="ssr:gruppe" v="våtmark" />
		<tag k="ssr:hovedgruppe" v="markslag" />
		<tag k="ssr:stedsnr" v="210312" />
		<tag k="ssr:type" v="myr" />
	</node>
	<node lat="63.49556388575992" lon="11.324138889219242" id="-39360">
		<tag k="name" v="Beitlandsbjøra" />
		<tag k="natural" v="slope" />
		<tag k="place" v="locality" />
		<tag k="ssr:date" v="2018-01-09" />
		<tag k="ssr:gruppe" v="skråninger" />
		<tag k="ssr:hovedgruppe" v="terreng" />
		<tag k="ssr:stedsnr" v="210329" />
		<tag k="ssr:type" v="li" />
	</node>
	<node lat="63.46923333323707" lon="11.400247217574243" id="-39361">
		<tag k="name" v="Flåum" />
		<tag k="place" v="farm" />
		<tag k="ssr:date" v="2018-01-09" />
		<tag k="ssr:gruppe" v="gardsbebyggelse" />
		<tag k="ssr:hovedgruppe" v="bebyggelse" />
		<tag k="ssr:stedsnr" v="210378" />
		<tag k="ssr:type" v="bruk" />
	</node>
	<node lat="63.45802777846708" lon="11.369266661671189" id="-39362">
		<tag k="name" v="Florneshølen" />
		<tag k="place" v="locality" />
		<tag k="ssr:date" v="2018-01-09" />
		<tag k="ssr:gruppe" v="rennendeVann" />
		<tag k="ssr:hovedgruppe" v="ferskvann" />
		<tag k="ssr:stedsnr" v="210381" />
		<tag k="ssr:type" v="høl" />
	</node>
	<node lat="63.45779722658641" lon="11.416477777550263" id="-39363">
		<tag k="name" v="Litlmoen" />
		<tag k="place" v="farm" />
		<tag k="ssr:date" v="2018-01-09" />
		<tag k="ssr:gruppe" v="gardsbebyggelse" />
		<tag k="ssr:hovedgruppe" v="bebyggelse" />
		<tag k="ssr:stedsnr" v="210383" />
		<tag k="ssr:type" v="bruk" />
	</node>
	<node lat="63.463133335760105" lon="11.396072230694609" id="-39364">
		<tag k="name" v="Bjørnbekken" />
		<tag k="ssr:date" v="2018-01-09" />
		<tag k="ssr:gruppe" v="rennendeVann" />
		<tag k="ssr:hovedgruppe" v="ferskvann" />
		<tag k="ssr:stedsnr" v="210385" />
		<tag k="ssr:type" v="bekk" />
		<tag k="waterway" v="stream" />
	</node>
	<node lat="63.497155555345294" lon="11.125488896484253" id="-39365">
		<tag k="name" v="Islandsplassen" />
		<tag k="place" v="locality" />
		<tag k="ssr:date" v="2018-01-09" />
		<tag k="ssr:gruppe" v="bolighus" />
		<tag k="ssr:hovedgruppe" v="bebyggelse" />
		<tag k="ssr:stedsnr" v="210428" />
		<tag k="ssr:type" v="gammelBosettingsplass" />
	</node>
	<node lat="63.5278916652955" lon="11.109724991827656" id="-39366">
		<tag k="fixme" v="consider natural=peak for the most distinct mountains in the district" />
		<tag k="name" v="Hallaren" />
		<tag k="natural" v="hill" />
		<tag k="place" v="locality" />
		<tag k="ssr:date" v="2018-01-09" />
		<tag k="ssr:gruppe" v="høyder" />
		<tag k="ssr:hovedgruppe" v="terreng" />
		<tag k="ssr:stedsnr" v="210482" />
		<tag k="ssr:type" v="ås" />
	</node>
	<node lat="63.46623888599395" lon="11.262655559150627" id="-39367">
		<tag k="name" v="Stormyra" />
		<tag k="natural" v="wetland" />
		<tag k="ssr:date" v="2018-01-09" />
		<tag k="ssr:gruppe" v="våtmark" />
		<tag k="ssr:hovedgruppe" v="markslag" />
		<tag k="ssr:stedsnr" v="210492" />
		<tag k="ssr:type" v="myr" />
	</node>
	<node lat="63.46423332956515" lon="11.287044440327515" id="-39368">
		<tag k="name" v="Blåberga" />
		<tag k="natural" v="hill" />
		<tag k="place" v="locality" />
		<tag k="ssr:date" v="2018-01-09" />
		<tag k="ssr:gruppe" v="høyder" />
		<tag k="ssr:hovedgruppe" v="terreng" />
		<tag k="ssr:stedsnr" v="210493" />
		<tag k="ssr:type" v="berg" />
	</node>
	<node lat="63.39936944055234" lon="11.213997226742332" id="-39369">
		<tag k="name" v="Bjørklibekken" />
		<tag k="ssr:date" v="2018-01-09" />
		<tag k="ssr:gruppe" v="rennendeVann" />
		<tag k="ssr:hovedgruppe" v="ferskvann" />
		<tag k="ssr:stedsnr" v="210626" />
		<tag k="ssr:type" v="bekk" />
		<tag k="waterway" v="stream" />
	</node>
	<node lat="63.39305277429032" lon="11.19050278637263" id="-39370">
		<tag k="name" v="Kvernhusbekken" />
		<tag k="ssr:date" v="2018-01-09" />
		<tag k="ssr:gruppe" v="rennendeVann" />
		<tag k="ssr:hovedgruppe" v="ferskvann" />
		<tag k="ssr:stedsnr" v="210627" />
		<tag k="ssr:type" v="bekk" />
		<tag k="waterway" v="stream" />
	</node>
	<node lat="63.39780277996019" lon="11.175594438511961" id="-39371">
		<tag k="name" v="Hosetbekken" />
		<tag k="ssr:date" v="2018-01-09" />
		<tag k="ssr:gruppe" v="rennendeVann" />
		<tag k="ssr:hovedgruppe" v="ferskvann" />
		<tag k="ssr:stedsnr" v="210629" />
		<tag k="ssr:type" v="bekk" />
		<tag k="waterway" v="stream" />
	</node>
	<node lat="63.447325002096996" lon="10.999186101314386" id="-39372">
		<tag k="name" v="Ystihamran" />
		<tag k="natural" v="hill" />
		<tag k="place" v="locality" />
		<tag k="ssr:date" v="2018-01-09" />
		<tag k="ssr:gruppe" v="høyder" />
		<tag k="ssr:hovedgruppe" v="terreng" />
		<tag k="ssr:stedsnr" v="210676" />
		<tag k="ssr:type" v="berg" />
	</node>
	<node lat="63.45778611013635" lon="11.090991664490161" id="-39373">
		<tag k="name" v="Rønningen" />
		<tag k="place" v="farm" />
		<tag k="ssr:date" v="2018-01-09" />
		<tag k="ssr:gruppe" v="gardsbebyggelse" />
		<tag k="ssr:hovedgruppe" v="bebyggelse" />
		<tag k="ssr:stedsnr" v="210684" />
		<tag k="ssr:type" v="bruk" />
	</node>
	<node lat="63.46166944188936" lon="11.09830000510233" id="-39374">
		<tag k="name" v="Vinland" />
		<tag k="place" v="locality" />
		<tag k="ssr:date" v="2018-01-09" />
		<tag k="ssr:gruppe" v="dyrkamark" />
		<tag k="ssr:hovedgruppe" v="markslag" />
		<tag k="ssr:stedsnr" v="210690" />
		<tag k="ssr:type" v="jorde" />
	</node>
	<node lat="63.456516663945315" lon="11.067138884280936" id="-39375">
		<tag k="name" v="Kamneset" />
		<tag k="place" v="locality" />
		<tag k="ssr:date" v="2018-01-09" />
		<tag k="ssr:gruppe" v="terrengdetaljer" />
		<tag k="ssr:hovedgruppe" v="terreng" />
		<tag k="ssr:stedsnr" v="210693" />
		<tag k="ssr:type" v="annenTerrengdetalj" />
	</node>
	<node lat="63.52057962323071" lon="11.076370413701225" id="-39376">
		<tag k="fixme" v="consider place=hamlet" />
		<tag k="name" v="Rolseng" />
		<tag k="place" v="farm" />
		<tag k="ssr:date" v="2018-01-09" />
		<tag k="ssr:gruppe" v="gardsbebyggelse" />
		<tag k="ssr:hovedgruppe" v="bebyggelse" />
		<tag k="ssr:stedsnr" v="210574" />
		<tag k="ssr:type" v="gard" />
	</node>
	<node lat="63.53501944598189" lon="10.989138885215425" id="-39377">
		<tag k="name" v="Skarddalen" />
		<tag k="natural" v="valley" />
		<tag k="place" v="locality" />
		<tag k="ssr:date" v="2018-01-09" />
		<tag k="ssr:gruppe" v="senkninger" />
		<tag k="ssr:hovedgruppe" v="terreng" />
		<tag k="ssr:stedsnr" v="210580" />
		<tag k="ssr:type" v="dal" />
	</node>
	<node lat="63.538611113761554" lon="10.996994436129444" id="-39378">
		<tag k="name" v="Stamnåsbekken" />
		<tag k="ssr:date" v="2018-01-09" />
		<tag k="ssr:gruppe" v="rennendeVann" />
		<tag k="ssr:hovedgruppe" v="ferskvann" />
		<tag k="ssr:stedsnr" v="210725" />
		<tag k="ssr:type" v="bekk" />
		<tag k="waterway" v="stream" />
	</node>
	<node lat="63.556583334103586" lon="10.857080559349818" id="-39379">
		<tag k="name" v="Skarvholman" />
		<tag k="place" v="islet" />
		<tag k="ssr:date" v="2018-01-09" />
		<tag k="ssr:gruppe" v="kystkontur" />
		<tag k="ssr:hovedgruppe" v="sjø" />
		<tag k="ssr:stedsnr" v="210905" />
		<tag k="ssr:type" v="holmeISjø" />
	</node>
	<node lat="63.52264721781301" lon="10.823724998906158" id="-39380">
		<tag k="alt_name" v="Heggja søre" />
		<tag k="name" v="Søre Heggja" />
		<tag k="place" v="farm" />
		<tag k="ssr:date" v="2018-01-09" />
		<tag k="ssr:gruppe" v="gardsbebyggelse" />
		<tag k="ssr:hovedgruppe" v="bebyggelse" />
		<tag k="ssr:stedsnr" v="210915" />
		<tag k="ssr:type" v="bruk" />
	</node>
	<node lat="63.52129444777548" lon="10.770330546020942" id="-39381">
		<tag k="fixme" v="multiple name tags, choose one and add the other to alt_name" />
		<tag k="name" v="Nordre Rykkja;Rykkja" />
		<tag k="place" v="farm" />
		<tag k="ssr:date" v="2021-06-08" />
		<tag k="ssr:gruppe" v="gardsbebyggelse" />
		<tag k="ssr:hovedgruppe" v="bebyggelse" />
		<tag k="ssr:stedsnr" v="210916" />
		<tag k="ssr:type" v="bruk" />
	</node>
	<node lat="63.442236115517375" lon="10.89934444151815" id="-39382">
		<tag k="landuse" v="quarry" />
		<tag k="name" v="Dronningberget" />
		<tag k="ssr:date" v="2018-01-09" />
		<tag k="ssr:gruppe" v="uttakOgDeponi" />
		<tag k="ssr:hovedgruppe" v="markslag" />
		<tag k="ssr:stedsnr" v="210829" />
		<tag k="ssr:type" v="grustakSteinbrudd" />
	</node>
	<node lat="63.41947777657666" lon="11.018438894334373" id="-39383">
		<tag k="alt_name" v="Strætasfjellet vestre" />
		<tag k="fixme" v="consider natural=peak for the most distinct mountains in the district" />
		<tag k="name" v="Vestre Strætasfjellet" />
		<tag k="natural" v="hill" />
		<tag k="place" v="locality" />
		<tag k="ssr:date" v="2018-01-09" />
		<tag k="ssr:gruppe" v="høyder" />
		<tag k="ssr:hovedgruppe" v="terreng" />
		<tag k="ssr:stedsnr" v="210878" />
		<tag k="ssr:type" v="fjell" />
	</node>
	<node lat="63.49042222266053" lon="10.960963891572328" id="-39384">
		<tag k="name" v="Kinnsetskardet" />
		<tag k="natural" v="valley" />
		<tag k="place" v="locality" />
		<tag k="ssr:date" v="2018-01-09" />
		<tag k="ssr:gruppe" v="senkninger" />
		<tag k="ssr:hovedgruppe" v="terreng" />
		<tag k="ssr:stedsnr" v="210882" />
		<tag k="ssr:type" v="skar" />
	</node>
	<node lat="63.47892500305652" lon="10.973186115389792" id="-39385">
		<tag k="name" v="Finnmyra" />
		<tag k="natural" v="wetland" />
		<tag k="ssr:date" v="2018-01-09" />
		<tag k="ssr:gruppe" v="våtmark" />
		<tag k="ssr:hovedgruppe" v="markslag" />
		<tag k="ssr:stedsnr" v="210893" />
		<tag k="ssr:type" v="myr" />
	</node>
	<node lat="63.4367277737244" lon="11.172702776577907" id="-39386">
		<tag k="name" v="Slåttmyra" />
		<tag k="natural" v="wetland" />
		<tag k="ssr:date" v="2018-01-09" />
		<tag k="ssr:gruppe" v="våtmark" />
		<tag k="ssr:hovedgruppe" v="markslag" />
		<tag k="ssr:stedsnr" v="270403" />
		<tag k="ssr:type" v="myr" />
	</node>
	<node lat="63.45829721942379" lon="11.183708338280626" id="-39387">
		<tag k="name" v="Storneset" />
		<tag k="natural" v="cape" />
		<tag k="ssr:date" v="2018-01-09" />
		<tag k="ssr:gruppe" v="rennendeVann" />
		<tag k="ssr:hovedgruppe" v="ferskvann" />
		<tag k="ssr:stedsnr" v="270617" />
		<tag k="ssr:type" v="nesVedElver" />
	</node>
	<node lat="63.45838055219189" lon="11.202075003354445" id="-39388">
		<tag k="name" v="Åsmokleiva" />
		<tag k="natural" v="slope" />
		<tag k="place" v="locality" />
		<tag k="ssr:date" v="2018-01-09" />
		<tag k="ssr:gruppe" v="skråninger" />
		<tag k="ssr:hovedgruppe" v="terreng" />
		<tag k="ssr:stedsnr" v="270619" />
		<tag k="ssr:type" v="li" />
	</node>
	<node lat="63.473936107444175" lon="11.007886112861517" id="-39389">
		<tag k="name" v="Vollshaugen" />
		<tag k="natural" v="hill" />
		<tag k="place" v="locality" />
		<tag k="ssr:date" v="2018-01-09" />
		<tag k="ssr:gruppe" v="høyder" />
		<tag k="ssr:hovedgruppe" v="terreng" />
		<tag k="ssr:stedsnr" v="270722" />
		<tag k="ssr:type" v="haug" />
	</node>
	<node lat="63.41630555361177" lon="11.144755559639016" id="-39390">
		<tag k="historic" v="shieling" />
		<tag k="name" v="Holmsvollen" />
		<tag k="place" v="isolated_dwelling" />
		<tag k="ssr:date" v="2018-01-09" />
		<tag k="ssr:gruppe" v="gardsbebyggelse" />
		<tag k="ssr:hovedgruppe" v="bebyggelse" />
		<tag k="ssr:stedsnr" v="270520" />
		<tag k="ssr:type" v="seterStøl" />
	</node>
	<node lat="63.46546944518722" lon="11.20434167070227" id="-39391">
		<tag k="name" v="Hesjedalen" />
		<tag k="natural" v="valley" />
		<tag k="place" v="locality" />
		<tag k="ssr:date" v="2018-01-09" />
		<tag k="ssr:gruppe" v="senkninger" />
		<tag k="ssr:hovedgruppe" v="terreng" />
		<tag k="ssr:stedsnr" v="270621" />
		<tag k="ssr:type" v="dal" />
	</node>
	<node lat="63.429516670830765" lon="11.16363610767951" id="-39392">
		<tag k="alt_name" v="Ingstadvollen Østre" />
		<tag k="historic" v="shieling" />
		<tag k="name" v="Øystre Ingstadvollen" />
		<tag k="place" v="isolated_dwelling" />
		<tag k="ssr:date" v="2018-01-09" />
		<tag k="ssr:gruppe" v="gardsbebyggelse" />
		<tag k="ssr:hovedgruppe" v="bebyggelse" />
		<tag k="ssr:stedsnr" v="270405" />
		<tag k="ssr:type" v="seterStøl" />
	</node>
	<node lat="63.44974722150595" lon="11.057677778829355" id="-39393">
		<tag k="name" v="Øfsti" />
		<tag k="place" v="farm" />
		<tag k="ssr:date" v="2018-01-09" />
		<tag k="ssr:gruppe" v="gardsbebyggelse" />
		<tag k="ssr:hovedgruppe" v="bebyggelse" />
		<tag k="ssr:stedsnr" v="270535" />
		<tag k="ssr:type" v="bruk" />
	</node>
	<node lat="63.53082777481054" lon="11.043011112095737" id="-39394">
		<tag k="name" v="Høgåsen" />
		<tag k="natural" v="hill" />
		<tag k="place" v="locality" />
		<tag k="ssr:date" v="2018-01-09" />
		<tag k="ssr:gruppe" v="høyder" />
		<tag k="ssr:hovedgruppe" v="terreng" />
		<tag k="ssr:stedsnr" v="270553" />
		<tag k="ssr:type" v="haug" />
	</node>
	<node lat="63.526147224041836" lon="11.079613894409365" id="-39395">
		<tag k="name" v="Leirbakken" />
		<tag k="place" v="locality" />
		<tag k="ssr:date" v="2018-01-09" />
		<tag k="ssr:gruppe" v="bolighus" />
		<tag k="ssr:hovedgruppe" v="bebyggelse" />
		<tag k="ssr:stedsnr" v="270554" />
		<tag k="ssr:type" v="gammelBosettingsplass" />
	</node>
	<node lat="63.45678610855528" lon="11.224363888226616" id="-39396">
		<tag k="name" v="Stamnberga" />
		<tag k="natural" v="hill" />
		<tag k="place" v="locality" />
		<tag k="ssr:date" v="2018-01-09" />
		<tag k="ssr:gruppe" v="høyder" />
		<tag k="ssr:hovedgruppe" v="terreng" />
		<tag k="ssr:stedsnr" v="270626" />
		<tag k="ssr:type" v="berg" />
	</node>
	<node lat="63.453455556501034" lon="11.147927785209315" id="-39397">
		<tag k="name" v="Portan" />
		<tag k="place" v="locality" />
		<tag k="ssr:date" v="2018-01-09" />
		<tag k="ssr:gruppe" v="terrengdetaljer" />
		<tag k="ssr:hovedgruppe" v="terreng" />
		<tag k="ssr:stedsnr" v="270641" />
		<tag k="ssr:type" v="annenTerrengdetalj" />
	</node>
	<node lat="63.39528055333162" lon="11.137002773069419" id="-39398">
		<tag k="fixme" v="consider natural=peak for the most distinct mountains in the district" />
		<tag k="name" v="Aunåsen" />
		<tag k="natural" v="hill" />
		<tag k="place" v="locality" />
		<tag k="ssr:date" v="2018-01-09" />
		<tag k="ssr:gruppe" v="høyder" />
		<tag k="ssr:hovedgruppe" v="terreng" />
		<tag k="ssr:stedsnr" v="270647" />
		<tag k="ssr:type" v="ås" />
	</node>
	<node lat="63.397969444616685" lon="11.155988879742205" id="-39399">
		<tag k="name" v="Hoset" />
		<tag k="place" v="farm" />
		<tag k="ssr:date" v="2018-01-09" />
		<tag k="ssr:gruppe" v="gardsbebyggelse" />
		<tag k="ssr:hovedgruppe" v="bebyggelse" />
		<tag k="ssr:stedsnr" v="270648" />
		<tag k="ssr:type" v="bruk" />
	</node>
	<node lat="63.39441666772841" lon="11.024522228393769" id="-39400">
		<tag k="name" v="Storneset" />
		<tag k="natural" v="cape" />
		<tag k="ssr:date" v="2018-01-09" />
		<tag k="ssr:gruppe" v="rennendeVann" />
		<tag k="ssr:hovedgruppe" v="ferskvann" />
		<tag k="ssr:stedsnr" v="270701" />
		<tag k="ssr:type" v="nesVedElver" />
	</node>
	<node lat="63.50344444430251" lon="11.067625005179012" id="-39401">
		<tag k="name" v="Fryshus" />
		<tag k="place" v="locality" />
		<tag k="ssr:date" v="2021-09-14" />
		<tag k="ssr:gruppe" v="bolighus" />
		<tag k="ssr:hovedgruppe" v="bebyggelse" />
		<tag k="ssr:stedsnr" v="270730" />
		<tag k="ssr:type" v="gammelBosettingsplass" />
	</node>
	<node lat="63.49853332923068" lon="11.069430555491559" id="-39402">
		<tag k="name" v="Kvålsbekken" />
		<tag k="ssr:date" v="2018-01-09" />
		<tag k="ssr:gruppe" v="rennendeVann" />
		<tag k="ssr:hovedgruppe" v="ferskvann" />
		<tag k="ssr:stedsnr" v="270733" />
		<tag k="ssr:type" v="bekk" />
		<tag k="waterway" v="stream" />
	</node>
	<node lat="63.499236109483256" lon="11.015408323300003" id="-39403">
		<tag k="name" v="Rundtreet" />
		<tag k="place" v="locality" />
		<tag k="ssr:date" v="2018-01-09" />
		<tag k="ssr:gruppe" v="terrengdetaljer" />
		<tag k="ssr:hovedgruppe" v="terreng" />
		<tag k="ssr:stedsnr" v="270740" />
		<tag k="ssr:type" v="annenTerrengdetalj" />
	</node>
	<node lat="63.512283335520095" lon="11.07817499768197" id="-39404">
		<tag k="name" v="Fristad" />
		<tag k="place" v="farm" />
		<tag k="ssr:date" v="2018-01-09" />
		<tag k="ssr:gruppe" v="gardsbebyggelse" />
		<tag k="ssr:hovedgruppe" v="bebyggelse" />
		<tag k="ssr:stedsnr" v="270742" />
		<tag k="ssr:type" v="bruk" />
	</node>
	<node lat="63.49915000462175" lon="10.867572213109106" id="-39405">
		<tag k="name" v="Vollsdalen" />
		<tag k="natural" v="valley" />
		<tag k="place" v="locality" />
		<tag k="ssr:date" v="2018-01-09" />
		<tag k="ssr:gruppe" v="senkninger" />
		<tag k="ssr:hovedgruppe" v="terreng" />
		<tag k="ssr:stedsnr" v="270766" />
		<tag k="ssr:type" v="dal" />
	</node>
	<node lat="63.47625555969256" lon="11.094822215463545" id="-39406">
		<tag k="name" v="Åsveiberga" />
		<tag k="natural" v="hill" />
		<tag k="place" v="locality" />
		<tag k="ssr:date" v="2018-01-09" />
		<tag k="ssr:gruppe" v="høyder" />
		<tag k="ssr:hovedgruppe" v="terreng" />
		<tag k="ssr:stedsnr" v="270720" />
		<tag k="ssr:type" v="berg" />
	</node>
	<node lat="63.44910833740873" lon="10.932177774095518" id="-39407">
		<tag k="name" v="Reppasleiret" />
		<tag k="place" v="locality" />
		<tag k="ssr:date" v="2018-01-09" />
		<tag k="ssr:gruppe" v="terrengdetaljer" />
		<tag k="ssr:hovedgruppe" v="terreng" />
		<tag k="ssr:stedsnr" v="270804" />
		<tag k="ssr:type" v="annenTerrengdetalj" />
	</node>
	<node lat="63.43141111463566" lon="10.865266669074858" id="-39408">
		<tag k="name" v="Rundhaugen" />
		<tag k="natural" v="hill" />
		<tag k="place" v="locality" />
		<tag k="ssr:date" v="2018-01-09" />
		<tag k="ssr:gruppe" v="høyder" />
		<tag k="ssr:hovedgruppe" v="terreng" />
		<tag k="ssr:stedsnr" v="270809" />
		<tag k="ssr:type" v="haug" />
	</node>
	<node lat="63.43687499615785" lon="10.86250833064442" id="-39409">
		<tag k="name" v="Stordalen" />
		<tag k="natural" v="valley" />
		<tag k="place" v="locality" />
		<tag k="ssr:date" v="2018-01-09" />
		<tag k="ssr:gruppe" v="senkninger" />
		<tag k="ssr:hovedgruppe" v="terreng" />
		<tag k="ssr:stedsnr" v="270811" />
		<tag k="ssr:type" v="dal" />
	</node>
	<node lat="63.4870944411677" lon="10.970549990241024" id="-39410">
		<tag k="name" v="Snauskallen" />
		<tag k="natural" v="hill" />
		<tag k="place" v="locality" />
		<tag k="ssr:date" v="2018-01-09" />
		<tag k="ssr:gruppe" v="høyder" />
		<tag k="ssr:hovedgruppe" v="terreng" />
		<tag k="ssr:stedsnr" v="270850" />
		<tag k="ssr:type" v="haug" />
	</node>
	<node lat="63.4887416653561" lon="10.921830551098704" id="-39411">
		<tag k="name" v="Hållån" />
		<tag k="natural" v="hill" />
		<tag k="place" v="locality" />
		<tag k="ssr:date" v="2018-01-09" />
		<tag k="ssr:gruppe" v="høyder" />
		<tag k="ssr:hovedgruppe" v="terreng" />
		<tag k="ssr:stedsnr" v="270854" />
		<tag k="ssr:type" v="berg" />
	</node>
	<node lat="63.488213888678416" lon="10.914080549928238" id="-39412">
		<tag k="name" v="Gråbrekkhaugan" />
		<tag k="natural" v="hill" />
		<tag k="place" v="locality" />
		<tag k="ssr:date" v="2018-01-09" />
		<tag k="ssr:gruppe" v="høyder" />
		<tag k="ssr:hovedgruppe" v="terreng" />
		<tag k="ssr:stedsnr" v="270855" />
		<tag k="ssr:type" v="haug" />
	</node>
	<node lat="63.54330000003071" lon="10.917225000444587" id="-39413">
		<tag k="name" v="Kverndalsbekken" />
		<tag k="ssr:date" v="2018-01-09" />
		<tag k="ssr:gruppe" v="rennendeVann" />
		<tag k="ssr:hovedgruppe" v="ferskvann" />
		<tag k="ssr:stedsnr" v="270868" />
		<tag k="ssr:type" v="bekk" />
		<tag k="waterway" v="stream" />
	</node>
	<node lat="63.55408610951987" lon="10.93385556395184" id="-39414">
		<tag k="name" v="Trøgården" />
		<tag k="place" v="locality" />
		<tag k="ssr:date" v="2018-01-09" />
		<tag k="ssr:gruppe" v="bolighus" />
		<tag k="ssr:hovedgruppe" v="bebyggelse" />
		<tag k="ssr:stedsnr" v="270816" />
		<tag k="ssr:type" v="gammelBosettingsplass" />
	</node>
	<node lat="63.49420555122754" lon="10.838880559670685" id="-39415">
		<tag k="name" v="Bårdsbekken" />
		<tag k="ssr:date" v="2018-01-09" />
		<tag k="ssr:gruppe" v="rennendeVann" />
		<tag k="ssr:hovedgruppe" v="ferskvann" />
		<tag k="ssr:stedsnr" v="270929" />
		<tag k="ssr:type" v="bekk" />
		<tag k="waterway" v="stream" />
	</node>
	<node lat="63.47036110808023" lon="10.906158327991248" id="-39416">
		<tag k="name" v="Tangmoen" />
		<tag k="place" v="locality" />
		<tag k="ssr:date" v="2018-01-09" />
		<tag k="ssr:gruppe" v="flater" />
		<tag k="ssr:hovedgruppe" v="terreng" />
		<tag k="ssr:stedsnr" v="270957" />
		<tag k="ssr:type" v="slette" />
	</node>
	<node lat="63.47045833501172" lon="10.891977773080908" id="-39417">
		<tag k="name" v="Naustberget" />
		<tag k="natural" v="hill" />
		<tag k="place" v="locality" />
		<tag k="ssr:date" v="2018-01-09" />
		<tag k="ssr:gruppe" v="høyder" />
		<tag k="ssr:hovedgruppe" v="terreng" />
		<tag k="ssr:stedsnr" v="270959" />
		<tag k="ssr:type" v="berg" />
	</node>
	<node lat="63.4045999979148" lon="10.96649443649619" id="-39418">
		<tag k="name" v="Trongskurrumyra" />
		<tag k="natural" v="wetland" />
		<tag k="ssr:date" v="2018-01-09" />
		<tag k="ssr:gruppe" v="våtmark" />
		<tag k="ssr:hovedgruppe" v="markslag" />
		<tag k="ssr:stedsnr" v="270968" />
		<tag k="ssr:type" v="myr" />
	</node>
	<node lat="63.4020999965481" lon="10.931494450439557" id="-39419">
		<tag k="name" v="Julanstrøa" />
		<tag k="place" v="farm" />
		<tag k="ssr:date" v="2018-01-09" />
		<tag k="ssr:gruppe" v="gardsbebyggelse" />
		<tag k="ssr:hovedgruppe" v="bebyggelse" />
		<tag k="ssr:stedsnr" v="270969" />
		<tag k="ssr:type" v="bruk" />
	</node>
	<node lat="63.47677778094999" lon="11.372880556933017" id="-39420">
		<tag k="name" v="Hevla" />
		<tag k="place" v="locality" />
		<tag k="ssr:date" v="2018-01-09" />
		<tag k="ssr:gruppe" v="terrengdetaljer" />
		<tag k="ssr:hovedgruppe" v="terreng" />
		<tag k="ssr:stedsnr" v="271160" />
		<tag k="ssr:type" v="annenTerrengdetalj" />
	</node>
	<node lat="63.47448611118661" lon="11.383880551885143" id="-39421">
		<tag k="name" v="Langtjønnhaugen" />
		<tag k="natural" v="hill" />
		<tag k="place" v="locality" />
		<tag k="ssr:date" v="2018-01-09" />
		<tag k="ssr:gruppe" v="høyder" />
		<tag k="ssr:hovedgruppe" v="terreng" />
		<tag k="ssr:stedsnr" v="271161" />
		<tag k="ssr:type" v="haug" />
	</node>
	<node lat="63.50343610883318" lon="11.446763885141577" id="-39422">
		<tag k="fixme" v="consider natural=peak for the most distinct mountains in the district" />
		<tag k="name" v="Klipåsen" />
		<tag k="natural" v="hill" />
		<tag k="place" v="locality" />
		<tag k="ssr:date" v="2018-01-09" />
		<tag k="ssr:gruppe" v="høyder" />
		<tag k="ssr:hovedgruppe" v="terreng" />
		<tag k="ssr:stedsnr" v="271163" />
		<tag k="ssr:type" v="ås" />
	</node>
	<node lat="63.50196111446952" lon="11.475663888186055" id="-39423">
		<tag k="name" v="Storhaugen" />
		<tag k="natural" v="hill" />
		<tag k="place" v="locality" />
		<tag k="ssr:date" v="2018-01-09" />
		<tag k="ssr:gruppe" v="høyder" />
		<tag k="ssr:hovedgruppe" v="terreng" />
		<tag k="ssr:stedsnr" v="271165" />
		<tag k="ssr:type" v="haug" />
	</node>
	<node lat="63.45331620833593" lon="11.066527419946416" id="-39424">
		<tag k="alt_name" v="Moum" />
		<tag k="name" v="Moan" />
		<tag k="place" v="hamlet" />
		<tag k="ssr:date" v="2018-01-09" />
		<tag k="ssr:gruppe" v="gardsbebyggelse" />
		<tag k="ssr:hovedgruppe" v="bebyggelse" />
		<tag k="ssr:stedsnr" v="224441" />
		<tag k="ssr:type" v="navnegard" />
	</node>
	<node lat="63.42966388642967" lon="11.28978888216789" id="-39425">
		<tag k="name" v="Gunnarshaugen" />
		<tag k="natural" v="hill" />
		<tag k="place" v="locality" />
		<tag k="ssr:date" v="2018-01-09" />
		<tag k="ssr:gruppe" v="høyder" />
		<tag k="ssr:hovedgruppe" v="terreng" />
		<tag k="ssr:stedsnr" v="271335" />
		<tag k="ssr:type" v="haug" />
	</node>
	<node lat="63.50203611440436" lon="11.337991665648184" id="-39426">
		<tag k="historic" v="shieling" />
		<tag k="name" v="Litlvollen" />
		<tag k="place" v="isolated_dwelling" />
		<tag k="ssr:date" v="2018-01-09" />
		<tag k="ssr:gruppe" v="gardsbebyggelse" />
		<tag k="ssr:hovedgruppe" v="bebyggelse" />
		<tag k="ssr:stedsnr" v="271348" />
		<tag k="ssr:type" v="seterStøl" />
	</node>
	<node lat="63.49650555778206" lon="11.356597223305544" id="-39427">
		<tag k="name" v="Moen" />
		<tag k="place" v="hamlet" />
		<tag k="ssr:date" v="2018-01-09" />
		<tag k="ssr:gruppe" v="bebyggelsesområder" />
		<tag k="ssr:hovedgruppe" v="bebyggelse" />
		<tag k="ssr:stedsnr" v="271355" />
		<tag k="ssr:type" v="grend" />
	</node>
	<node lat="63.48957715089726" lon="11.248382845380572" id="-39428">
		<tag k="name" v="Skuggen" />
		<tag k="place" v="locality" />
		<tag k="ssr:date" v="2018-01-09" />
		<tag k="ssr:gruppe" v="bolighus" />
		<tag k="ssr:hovedgruppe" v="bebyggelse" />
		<tag k="ssr:stedsnr" v="271358" />
		<tag k="ssr:type" v="gammelBosettingsplass" />
	</node>
	<node lat="63.49100833133941" lon="11.267158329265545" id="-39429">
		<tag k="name" v="Bruneshaugen" />
		<tag k="natural" v="hill" />
		<tag k="place" v="locality" />
		<tag k="ssr:date" v="2018-01-09" />
		<tag k="ssr:gruppe" v="høyder" />
		<tag k="ssr:hovedgruppe" v="terreng" />
		<tag k="ssr:stedsnr" v="271360" />
		<tag k="ssr:type" v="haug" />
	</node>
	<node lat="63.48159721934591" lon="11.235674992962585" id="-39430">
		<tag k="name" v="Moan" />
		<tag k="place" v="locality" />
		<tag k="ssr:date" v="2018-01-09" />
		<tag k="ssr:gruppe" v="terrengdetaljer" />
		<tag k="ssr:hovedgruppe" v="terreng" />
		<tag k="ssr:stedsnr" v="271363" />
		<tag k="ssr:type" v="annenTerrengdetalj" />
	</node>
	<node lat="63.48220555305829" lon="11.243772213201549" id="-39431">
		<tag k="name" v="Sjurdalen" />
		<tag k="natural" v="valley" />
		<tag k="place" v="locality" />
		<tag k="ssr:date" v="2018-01-09" />
		<tag k="ssr:gruppe" v="senkninger" />
		<tag k="ssr:hovedgruppe" v="terreng" />
		<tag k="ssr:stedsnr" v="271364" />
		<tag k="ssr:type" v="dal" />
	</node>
	<node lat="63.45378888701206" lon="11.393105558124072" id="-39432">
		<tag k="name" v="Godbergshaugen" />
		<tag k="natural" v="hill" />
		<tag k="place" v="locality" />
		<tag k="ssr:date" v="2018-01-09" />
		<tag k="ssr:gruppe" v="høyder" />
		<tag k="ssr:hovedgruppe" v="terreng" />
		<tag k="ssr:stedsnr" v="271434" />
		<tag k="ssr:type" v="haug" />
	</node>
	<node lat="63.45657221965172" lon="11.460275008611415" id="-39433">
		<tag k="name" v="Kvernbekken" />
		<tag k="ssr:date" v="2018-01-09" />
		<tag k="ssr:gruppe" v="rennendeVann" />
		<tag k="ssr:hovedgruppe" v="ferskvann" />
		<tag k="ssr:stedsnr" v="271438" />
		<tag k="ssr:type" v="bekk" />
		<tag k="waterway" v="stream" />
	</node>
	<node lat="63.48709444867293" lon="11.143169436377821" id="-39434">
		<tag k="name" v="Storkjølen" />
		<tag k="place" v="locality" />
		<tag k="ssr:date" v="2018-01-09" />
		<tag k="ssr:gruppe" v="terrengdetaljer" />
		<tag k="ssr:hovedgruppe" v="terreng" />
		<tag k="ssr:stedsnr" v="271492" />
		<tag k="ssr:type" v="annenTerrengdetalj" />
	</node>
	<node lat="63.440430551672165" lon="11.18263889818622" id="-39435">
		<tag k="fixme" v="consider natural=peak for the most distinct mountains in the district" />
		<tag k="name" v="Brennmyråsen" />
		<tag k="natural" v="hill" />
		<tag k="place" v="locality" />
		<tag k="ssr:date" v="2018-01-09" />
		<tag k="ssr:gruppe" v="høyder" />
		<tag k="ssr:hovedgruppe" v="terreng" />
		<tag k="ssr:stedsnr" v="271446" />
		<tag k="ssr:type" v="ås" />
	</node>
	<node lat="63.50178888456605" lon="11.137041674722932" id="-39436">
		<tag k="name" v="Gressli" />
		<tag k="place" v="farm" />
		<tag k="ssr:date" v="2018-01-09" />
		<tag k="ssr:gruppe" v="gardsbebyggelse" />
		<tag k="ssr:hovedgruppe" v="bebyggelse" />
		<tag k="ssr:stedsnr" v="271460" />
		<tag k="ssr:type" v="bruk" />
	</node>
	<node lat="63.54243888842681" lon="11.11076667195542" id="-39437">
		<tag k="name" v="Stordalen" />
		<tag k="natural" v="valley" />
		<tag k="place" v="locality" />
		<tag k="ssr:date" v="2018-01-09" />
		<tag k="ssr:gruppe" v="senkninger" />
		<tag k="ssr:hovedgruppe" v="terreng" />
		<tag k="ssr:stedsnr" v="271517" />
		<tag k="ssr:type" v="dal" />
	</node>
	<node lat="63.46716944175174" lon="11.256213879775933" id="-39438">
		<tag k="fixme" v="consider natural=peak for the most distinct mountains in the district" />
		<tag k="name" v="Sagåsen" />
		<tag k="natural" v="hill" />
		<tag k="place" v="locality" />
		<tag k="ssr:date" v="2018-01-09" />
		<tag k="ssr:gruppe" v="høyder" />
		<tag k="ssr:hovedgruppe" v="terreng" />
		<tag k="ssr:stedsnr" v="271547" />
		<tag k="ssr:type" v="ås" />
	</node>
	<node lat="63.48090833547702" lon="10.795791666170766" id="-39439">
		<tag k="name" v="Øra" />
		<tag k="place" v="farm" />
		<tag k="ssr:date" v="2021-06-08" />
		<tag k="ssr:gruppe" v="gardsbebyggelse" />
		<tag k="ssr:hovedgruppe" v="bebyggelse" />
		<tag k="ssr:stedsnr" v="226446" />
		<tag k="ssr:type" v="bruk" />
	</node>
	<node lat="63.52548646992688" lon="10.852058895984515" id="-39440">
		<tag k="alt_name" v="Forbord Vestre" />
		<tag k="name" v="Vestre Forbord" />
		<tag k="place" v="farm" />
		<tag k="ssr:date" v="2018-01-09" />
		<tag k="ssr:gruppe" v="gardsbebyggelse" />
		<tag k="ssr:hovedgruppe" v="bebyggelse" />
		<tag k="ssr:stedsnr" v="226409" />
		<tag k="ssr:type" v="bruk" />
	</node>
	<node lat="63.4245138885804" lon="11.09372777645893" id="-39441">
		<tag k="fixme" v="consider natural=peak for the most distinct mountains in the district" />
		<tag k="name" v="Vargåsen" />
		<tag k="natural" v="hill" />
		<tag k="place" v="locality" />
		<tag k="ssr:date" v="2018-01-09" />
		<tag k="ssr:gruppe" v="høyder" />
		<tag k="ssr:hovedgruppe" v="terreng" />
		<tag k="ssr:stedsnr" v="271751" />
		<tag k="ssr:type" v="ås" />
	</node>
	<node lat="63.4171722208192" lon="11.042799990301592" id="-39442">
		<tag k="name" v="Skinnfellbua" />
		<tag k="natural" v="wetland" />
		<tag k="ssr:date" v="2018-01-09" />
		<tag k="ssr:gruppe" v="våtmark" />
		<tag k="ssr:hovedgruppe" v="markslag" />
		<tag k="ssr:stedsnr" v="271754" />
		<tag k="ssr:type" v="myr" />
	</node>
	<node lat="63.47973611358792" lon="11.138013879555023" id="-39443">
		<tag k="name" v="Kverndalen" />
		<tag k="natural" v="valley" />
		<tag k="place" v="locality" />
		<tag k="ssr:date" v="2021-06-08" />
		<tag k="ssr:gruppe" v="senkninger" />
		<tag k="ssr:hovedgruppe" v="terreng" />
		<tag k="ssr:stedsnr" v="271831" />
		<tag k="ssr:type" v="dal" />
	</node>
	<node lat="63.47518332980647" lon="10.80340000503543" id="-39444">
		<tag k="name" v="Velvangsøra" />
		<tag k="natural" v="beach" />
		<tag k="ssr:date" v="2021-06-08" />
		<tag k="ssr:gruppe" v="kystkontur" />
		<tag k="ssr:hovedgruppe" v="sjø" />
		<tag k="ssr:stedsnr" v="271843" />
		<tag k="ssr:type" v="strandISjø" />
	</node>
	<node lat="63.35895833292717" lon="10.889163885001587" id="-39445">
		<tag k="fixme" v="consider natural=peak for the most distinct mountains in the district" />
		<tag k="name" v="Hauktjønnåsen" />
		<tag k="natural" v="hill" />
		<tag k="place" v="locality" />
		<tag k="ssr:date" v="2018-01-09" />
		<tag k="ssr:gruppe" v="høyder" />
		<tag k="ssr:hovedgruppe" v="terreng" />
		<tag k="ssr:stedsnr" v="229579" />
		<tag k="ssr:type" v="ås" />
	</node>
	<node lat="63.4111388879498" lon="11.446297225036268" id="-39446">
		<tag k="name" v="Frøstdalshalia" />
		<tag k="natural" v="slope" />
		<tag k="place" v="locality" />
		<tag k="ssr:date" v="2018-01-09" />
		<tag k="ssr:gruppe" v="skråninger" />
		<tag k="ssr:hovedgruppe" v="terreng" />
		<tag k="ssr:stedsnr" v="230524" />
		<tag k="ssr:type" v="li" />
	</node>
	<node lat="63.508713892722675" lon="11.224130552899677" id="-39447">
		<tag k="name" v="Sør-Nonshaugen" />
		<tag k="natural" v="hill" />
		<tag k="place" v="locality" />
		<tag k="ssr:date" v="2018-01-09" />
		<tag k="ssr:gruppe" v="høyder" />
		<tag k="ssr:hovedgruppe" v="terreng" />
		<tag k="ssr:stedsnr" v="230638" />
		<tag k="ssr:type" v="haug" />
	</node>
	<node lat="63.4285361089386" lon="11.383061103688688" id="-39448">
		<tag k="name" v="Storhaugen" />
		<tag k="natural" v="hill" />
		<tag k="place" v="locality" />
		<tag k="ssr:date" v="2018-01-09" />
		<tag k="ssr:gruppe" v="høyder" />
		<tag k="ssr:hovedgruppe" v="terreng" />
		<tag k="ssr:stedsnr" v="230683" />
		<tag k="ssr:type" v="haug" />
	</node>
	<node lat="63.528063892550705" lon="11.275561106175445" id="-39449">
		<tag k="name" v="Bruåsbjørga" />
		<tag k="natural" v="slope" />
		<tag k="place" v="locality" />
		<tag k="ssr:date" v="2018-01-09" />
		<tag k="ssr:gruppe" v="skråninger" />
		<tag k="ssr:hovedgruppe" v="terreng" />
		<tag k="ssr:stedsnr" v="230595" />
		<tag k="ssr:type" v="li" />
	</node>
	<node lat="63.53197500246776" lon="11.47474722091643" id="-39450">
		<tag k="name" v="Elgvadsbekken" />
		<tag k="ssr:date" v="2018-01-09" />
		<tag k="ssr:gruppe" v="rennendeVann" />
		<tag k="ssr:hovedgruppe" v="ferskvann" />
		<tag k="ssr:stedsnr" v="230704" />
		<tag k="ssr:type" v="bekk" />
		<tag k="waterway" v="stream" />
	</node>
	<node lat="63.54659166997883" lon="11.413891666116463" id="-39451">
		<tag k="name" v="Hofstadvollbjørga" />
		<tag k="natural" v="wetland" />
		<tag k="ssr:date" v="2018-01-09" />
		<tag k="ssr:gruppe" v="våtmark" />
		<tag k="ssr:hovedgruppe" v="markslag" />
		<tag k="ssr:stedsnr" v="230709" />
		<tag k="ssr:type" v="myr" />
	</node>
	<node lat="63.5591722215647" lon="11.372847225864955" id="-39452">
		<tag k="name" v="Kjerringdalen" />
		<tag k="natural" v="valley" />
		<tag k="place" v="locality" />
		<tag k="ssr:date" v="2018-01-09" />
		<tag k="ssr:gruppe" v="senkninger" />
		<tag k="ssr:hovedgruppe" v="terreng" />
		<tag k="ssr:stedsnr" v="230779" />
		<tag k="ssr:type" v="dal" />
	</node>
	<node lat="63.48491944869" lon="11.227866664974547" id="-39453">
		<tag k="name" v="Grønvold" />
		<tag k="place" v="farm" />
		<tag k="ssr:date" v="2018-01-09" />
		<tag k="ssr:gruppe" v="gardsbebyggelse" />
		<tag k="ssr:hovedgruppe" v="bebyggelse" />
		<tag k="ssr:stedsnr" v="453466" />
		<tag k="ssr:type" v="bruk" />
	</node>
	<node lat="63.480541662613504" lon="11.211536115139358" id="-39454">
		<tag k="name" v="Stordalsmyra" />
		<tag k="natural" v="wetland" />
		<tag k="ssr:date" v="2018-01-09" />
		<tag k="ssr:gruppe" v="våtmark" />
		<tag k="ssr:hovedgruppe" v="markslag" />
		<tag k="ssr:stedsnr" v="453469" />
		<tag k="ssr:type" v="myr" />
	</node>
	<node lat="63.479280555903934" lon="11.18105834288764" id="-39455">
		<tag k="name" v="Solemsbekken" />
		<tag k="ssr:date" v="2018-01-09" />
		<tag k="ssr:gruppe" v="rennendeVann" />
		<tag k="ssr:hovedgruppe" v="ferskvann" />
		<tag k="ssr:stedsnr" v="453470" />
		<tag k="ssr:type" v="bekk" />
		<tag k="waterway" v="stream" />
	</node>
	<node lat="63.523977781686646" lon="10.992833329929354" id="-39456">
		<tag k="name" v="Bubjørga" />
		<tag k="natural" v="slope" />
		<tag k="place" v="locality" />
		<tag k="ssr:date" v="2018-01-09" />
		<tag k="ssr:gruppe" v="skråninger" />
		<tag k="ssr:hovedgruppe" v="terreng" />
		<tag k="ssr:stedsnr" v="452593" />
		<tag k="ssr:type" v="li" />
	</node>
	<node lat="63.450483332811075" lon="11.172177783597775" id="-39457">
		<tag k="fixme" v="consider natural=peak for the most distinct mountains in the district" />
		<tag k="name" v="Svartåsen" />
		<tag k="natural" v="hill" />
		<tag k="place" v="locality" />
		<tag k="ssr:date" v="2018-01-09" />
		<tag k="ssr:gruppe" v="høyder" />
		<tag k="ssr:hovedgruppe" v="terreng" />
		<tag k="ssr:stedsnr" v="452598" />
		<tag k="ssr:type" v="ås" />
	</node>
	<node lat="63.44973611409354" lon="11.34695000603922" id="-39458">
		<tag k="name" v="Stibekken" />
		<tag k="ssr:date" v="2018-01-09" />
		<tag k="ssr:gruppe" v="rennendeVann" />
		<tag k="ssr:hovedgruppe" v="ferskvann" />
		<tag k="ssr:stedsnr" v="453300" />
		<tag k="ssr:type" v="bekk" />
		<tag k="waterway" v="stream" />
	</node>
	<node lat="63.46015833238819" lon="11.425058325975485" id="-39459">
		<tag k="name" v="Nessihammeren" />
		<tag k="natural" v="hill" />
		<tag k="place" v="locality" />
		<tag k="ssr:date" v="2018-01-09" />
		<tag k="ssr:gruppe" v="høyder" />
		<tag k="ssr:hovedgruppe" v="terreng" />
		<tag k="ssr:stedsnr" v="453397" />
		<tag k="ssr:type" v="berg" />
	</node>
	<node lat="63.47639444259848" lon="11.518347224813915" id="-39460">
		<tag k="name" v="Nedre Vollhauen" />
		<tag k="natural" v="hill" />
		<tag k="place" v="locality" />
		<tag k="ssr:date" v="2018-01-09" />
		<tag k="ssr:gruppe" v="høyder" />
		<tag k="ssr:hovedgruppe" v="terreng" />
		<tag k="ssr:stedsnr" v="452417" />
		<tag k="ssr:type" v="haug" />
	</node>
	<node lat="63.44158055802665" lon="11.141158333935953" id="-39461">
		<tag k="name" v="Fullsetrantan" />
		<tag k="place" v="locality" />
		<tag k="ssr:date" v="2018-01-09" />
		<tag k="ssr:gruppe" v="terrengdetaljer" />
		<tag k="ssr:hovedgruppe" v="terreng" />
		<tag k="ssr:stedsnr" v="452409" />
		<tag k="ssr:type" v="annenTerrengdetalj" />
	</node>
	<node lat="63.42985278082928" lon="11.162119438082382" id="-39462">
		<tag k="name" v="Vollmyra" />
		<tag k="natural" v="wetland" />
		<tag k="ssr:date" v="2018-01-09" />
		<tag k="ssr:gruppe" v="våtmark" />
		<tag k="ssr:hovedgruppe" v="markslag" />
		<tag k="ssr:stedsnr" v="452411" />
		<tag k="ssr:type" v="myr" />
	</node>
	<node lat="63.42507222117656" lon="11.146827773930706" id="-39463">
		<tag k="name" v="Svartdalen" />
		<tag k="natural" v="valley" />
		<tag k="place" v="locality" />
		<tag k="ssr:date" v="2018-01-09" />
		<tag k="ssr:gruppe" v="senkninger" />
		<tag k="ssr:hovedgruppe" v="terreng" />
		<tag k="ssr:stedsnr" v="452534" />
		<tag k="ssr:type" v="dal" />
	</node>
	<node lat="63.3970027797733" lon="11.000741672390538" id="-39464">
		<tag k="name" v="Setnanhaugan" />
		<tag k="natural" v="hill" />
		<tag k="place" v="locality" />
		<tag k="ssr:date" v="2018-01-09" />
		<tag k="ssr:gruppe" v="høyder" />
		<tag k="ssr:hovedgruppe" v="terreng" />
		<tag k="ssr:stedsnr" v="452684" />
		<tag k="ssr:type" v="haug" />
	</node>
	<node lat="63.40626666384113" lon="11.089149991050755" id="-39465">
		<tag k="name" v="Strompen" />
		<tag k="place" v="locality" />
		<tag k="ssr:date" v="2018-01-09" />
		<tag k="ssr:gruppe" v="terrengdetaljer" />
		<tag k="ssr:hovedgruppe" v="terreng" />
		<tag k="ssr:stedsnr" v="452685" />
		<tag k="ssr:type" v="annenTerrengdetalj" />
	</node>
	<node lat="63.430166663119515" lon="11.040883329589368" id="-39466">
		<tag k="fixme" v="consider natural=peak for the most distinct mountains in the district" />
		<tag k="name" v="Stamnåsen" />
		<tag k="natural" v="hill" />
		<tag k="place" v="locality" />
		<tag k="ssr:date" v="2018-01-09" />
		<tag k="ssr:gruppe" v="høyder" />
		<tag k="ssr:hovedgruppe" v="terreng" />
		<tag k="ssr:stedsnr" v="452763" />
		<tag k="ssr:type" v="ås" />
	</node>
	<node lat="63.396366670376636" lon="11.130536106946542" id="-39467">
		<tag k="fixme" v="consider natural=peak for the most distinct mountains in the district" />
		<tag k="name" v="Hoåsen" />
		<tag k="natural" v="hill" />
		<tag k="place" v="locality" />
		<tag k="ssr:date" v="2018-01-09" />
		<tag k="ssr:gruppe" v="høyder" />
		<tag k="ssr:hovedgruppe" v="terreng" />
		<tag k="ssr:stedsnr" v="452646" />
		<tag k="ssr:type" v="ås" />
	</node>
	<node lat="63.47834722339204" lon="10.98558056058449" id="-39468">
		<tag k="alt_name" v="Haugen ytre" />
		<tag k="name" v="Ytre Haugen" />
		<tag k="place" v="farm" />
		<tag k="ssr:date" v="2018-01-09" />
		<tag k="ssr:gruppe" v="gardsbebyggelse" />
		<tag k="ssr:hovedgruppe" v="bebyggelse" />
		<tag k="ssr:stedsnr" v="452728" />
		<tag k="ssr:type" v="bruk" />
	</node>
	<node lat="63.49088610796823" lon="11.014099996268536" id="-39469">
		<tag k="name" v="Beistadmyra" />
		<tag k="natural" v="wetland" />
		<tag k="ssr:date" v="2018-01-09" />
		<tag k="ssr:gruppe" v="våtmark" />
		<tag k="ssr:hovedgruppe" v="markslag" />
		<tag k="ssr:stedsnr" v="452735" />
		<tag k="ssr:type" v="myr" />
	</node>
	<node lat="63.48028888825445" lon="11.024405565070047" id="-39470">
		<tag k="fixme" v="consider natural=peak for the most distinct mountains in the district" />
		<tag k="name" v="Tortælåsen" />
		<tag k="natural" v="hill" />
		<tag k="place" v="locality" />
		<tag k="ssr:date" v="2018-01-09" />
		<tag k="ssr:gruppe" v="høyder" />
		<tag k="ssr:hovedgruppe" v="terreng" />
		<tag k="ssr:stedsnr" v="452744" />
		<tag k="ssr:type" v="ås" />
	</node>
	<node lat="63.50266111433376" lon="11.045325003748747" id="-39471">
		<tag k="name" v="Bjørndalsbekken" />
		<tag k="ssr:date" v="2018-01-09" />
		<tag k="ssr:gruppe" v="rennendeVann" />
		<tag k="ssr:hovedgruppe" v="ferskvann" />
		<tag k="ssr:stedsnr" v="452745" />
		<tag k="ssr:type" v="bekk" />
		<tag k="waterway" v="stream" />
	</node>
	<node lat="63.497105557782106" lon="11.051025004601096" id="-39472">
		<tag k="name" v="Storhaugen" />
		<tag k="natural" v="hill" />
		<tag k="place" v="locality" />
		<tag k="ssr:date" v="2018-01-09" />
		<tag k="ssr:gruppe" v="høyder" />
		<tag k="ssr:hovedgruppe" v="terreng" />
		<tag k="ssr:stedsnr" v="452749" />
		<tag k="ssr:type" v="haug" />
	</node>
	<node lat="63.504844443982776" lon="11.005966676154666" id="-39473">
		<tag k="alt_name" v="Skarsjøhamran" />
		<tag k="name" v="Skardsjøhamran" />
		<tag k="natural" v="hill" />
		<tag k="place" v="locality" />
		<tag k="ssr:date" v="2018-01-09" />
		<tag k="ssr:gruppe" v="høyder" />
		<tag k="ssr:hovedgruppe" v="terreng" />
		<tag k="ssr:stedsnr" v="452755" />
		<tag k="ssr:type" v="berg" />
	</node>
	<node lat="63.44749444347778" lon="10.86508611447955" id="-39474">
		<tag k="name" v="Skjøtten" />
		<tag k="place" v="islet" />
		<tag k="ssr:date" v="2018-01-09" />
		<tag k="ssr:gruppe" v="kystkontur" />
		<tag k="ssr:hovedgruppe" v="sjø" />
		<tag k="ssr:stedsnr" v="452822" />
		<tag k="ssr:type" v="holmeISjø" />
	</node>
	<node lat="63.50581944721099" lon="10.868838881308198" id="-39475">
		<tag k="name" v="Holthaugen" />
		<tag k="natural" v="hill" />
		<tag k="place" v="locality" />
		<tag k="ssr:date" v="2018-01-09" />
		<tag k="ssr:gruppe" v="høyder" />
		<tag k="ssr:hovedgruppe" v="terreng" />
		<tag k="ssr:stedsnr" v="452771" />
		<tag k="ssr:type" v="haug" />
	</node>
	<node lat="63.51168611333647" lon="10.864583331507387" id="-39476">
		<tag k="name" v="Skatvalsbekken" />
		<tag k="ssr:date" v="2018-01-09" />
		<tag k="ssr:gruppe" v="rennendeVann" />
		<tag k="ssr:hovedgruppe" v="ferskvann" />
		<tag k="ssr:stedsnr" v="452775" />
		<tag k="ssr:type" v="bekk" />
		<tag k="waterway" v="stream" />
	</node>
	<node lat="63.51114444666767" lon="10.961016670418937" id="-39477">
		<tag k="name" v="Løftin" />
		<tag k="place" v="locality" />
		<tag k="ssr:date" v="2018-01-09" />
		<tag k="ssr:gruppe" v="terrengdetaljer" />
		<tag k="ssr:hovedgruppe" v="terreng" />
		<tag k="ssr:stedsnr" v="452782" />
		<tag k="ssr:type" v="hylle" />
	</node>
	<node lat="63.505133335187395" lon="10.919958326612416" id="-39478">
		<tag k="fixme" v="consider natural=peak for the most distinct mountains in the district" />
		<tag k="name" v="Neveråsen" />
		<tag k="natural" v="hill" />
		<tag k="place" v="locality" />
		<tag k="ssr:date" v="2018-01-09" />
		<tag k="ssr:gruppe" v="høyder" />
		<tag k="ssr:hovedgruppe" v="terreng" />
		<tag k="ssr:stedsnr" v="452784" />
		<tag k="ssr:type" v="ås" />
	</node>
	<node lat="63.49264166698044" lon="10.872174995115945" id="-39479">
		<tag k="name" v="Bolkhaugen" />
		<tag k="natural" v="hill" />
		<tag k="place" v="locality" />
		<tag k="ssr:date" v="2018-01-09" />
		<tag k="ssr:gruppe" v="høyder" />
		<tag k="ssr:hovedgruppe" v="terreng" />
		<tag k="ssr:stedsnr" v="452794" />
		<tag k="ssr:type" v="haug" />
	</node>
	<node lat="63.49440047166365" lon="10.91040424754417" id="-39480">
		<tag k="fixme" v="consider place=hamlet" />
		<tag k="name" v="Mæla" />
		<tag k="place" v="farm" />
		<tag k="ssr:date" v="2018-01-09" />
		<tag k="ssr:gruppe" v="gardsbebyggelse" />
		<tag k="ssr:hovedgruppe" v="bebyggelse" />
		<tag k="ssr:stedsnr" v="452796" />
		<tag k="ssr:type" v="gard" />
	</node>
	<node lat="63.47628611464031" lon="10.879813886539804" id="-39481">
		<tag k="name" v="Holmberget" />
		<tag k="natural" v="hill" />
		<tag k="place" v="locality" />
		<tag k="ssr:date" v="2018-01-09" />
		<tag k="ssr:gruppe" v="høyder" />
		<tag k="ssr:hovedgruppe" v="terreng" />
		<tag k="ssr:stedsnr" v="452800" />
		<tag k="ssr:type" v="berg" />
	</node>
	<node lat="63.48282222051064" lon="10.884405548949326" id="-39482">
		<tag k="name" v="Åsan" />
		<tag k="place" v="hamlet" />
		<tag k="ssr:date" v="2018-01-09" />
		<tag k="ssr:gruppe" v="bebyggelsesområder" />
		<tag k="ssr:hovedgruppe" v="bebyggelse" />
		<tag k="ssr:stedsnr" v="452801" />
		<tag k="ssr:type" v="grend" />
	</node>
	<node lat="63.54515833563856" lon="10.916191660200406" id="-39483">
		<tag k="fixme" v="consider natural=peak for the most distinct mountains in the district" />
		<tag k="name" v="Kåppårhåmmåren" />
		<tag k="natural" v="hill" />
		<tag k="place" v="locality" />
		<tag k="ssr:date" v="2018-01-09" />
		<tag k="ssr:gruppe" v="høyder" />
		<tag k="ssr:hovedgruppe" v="terreng" />
		<tag k="ssr:stedsnr" v="452897" />
		<tag k="ssr:type" v="ås" />
	</node>
	<node lat="63.53853055786337" lon="10.900966662926319" id="-39484">
		<tag k="name" v="Steinsberga" />
		<tag k="natural" v="wood" />
		<tag k="ssr:date" v="2018-01-09" />
		<tag k="ssr:gruppe" v="terrengområder" />
		<tag k="ssr:hovedgruppe" v="terreng" />
		<tag k="ssr:stedsnr" v="452898" />
		<tag k="ssr:type" v="skogområde" />
	</node>
	<node lat="63.41389444752943" lon="10.927116660175754" id="-39485">
		<tag k="name" v="Hjelsetbekken" />
		<tag k="ssr:date" v="2018-01-09" />
		<tag k="ssr:gruppe" v="rennendeVann" />
		<tag k="ssr:hovedgruppe" v="ferskvann" />
		<tag k="ssr:stedsnr" v="452988" />
		<tag k="ssr:type" v="bekk" />
		<tag k="waterway" v="stream" />
	</node>
	<node lat="63.50805555553698" lon="10.801358342543983" id="-39486">
		<tag k="name" v="Ørhaugen" />
		<tag k="natural" v="hill" />
		<tag k="place" v="locality" />
		<tag k="ssr:date" v="2018-01-09" />
		<tag k="ssr:gruppe" v="høyder" />
		<tag k="ssr:hovedgruppe" v="terreng" />
		<tag k="ssr:stedsnr" v="452931" />
		<tag k="ssr:type" v="haug" />
	</node>
	<node lat="63.49252222084747" lon="10.834377775444262" id="-39487">
		<tag k="name" v="Bårsdalen" />
		<tag k="natural" v="valley" />
		<tag k="place" v="locality" />
		<tag k="ssr:date" v="2018-01-09" />
		<tag k="ssr:gruppe" v="senkninger" />
		<tag k="ssr:hovedgruppe" v="terreng" />
		<tag k="ssr:stedsnr" v="452948" />
		<tag k="ssr:type" v="dal" />
	</node>
	<node lat="63.511041668324005" lon="11.436733341391719" id="-39488">
		<tag k="name" v="Svebekken" />
		<tag k="ssr:date" v="2018-01-09" />
		<tag k="ssr:gruppe" v="rennendeVann" />
		<tag k="ssr:hovedgruppe" v="ferskvann" />
		<tag k="ssr:stedsnr" v="453174" />
		<tag k="ssr:type" v="bekk" />
		<tag k="waterway" v="stream" />
	</node>
	<node lat="63.449769445343584" lon="11.434044437309687" id="-39489">
		<tag k="name" v="Stormyra" />
		<tag k="natural" v="wetland" />
		<tag k="ssr:date" v="2018-01-09" />
		<tag k="ssr:gruppe" v="våtmark" />
		<tag k="ssr:hovedgruppe" v="markslag" />
		<tag k="ssr:stedsnr" v="453181" />
		<tag k="ssr:type" v="myr" />
	</node>
	<node lat="63.43026666905204" lon="11.173702780002715" id="-39490">
		<tag k="name" v="Langmyra" />
		<tag k="natural" v="wetland" />
		<tag k="ssr:date" v="2018-01-09" />
		<tag k="ssr:gruppe" v="våtmark" />
		<tag k="ssr:hovedgruppe" v="markslag" />
		<tag k="ssr:stedsnr" v="453433" />
		<tag k="ssr:type" v="myr" />
	</node>
	<node lat="63.43386666840329" lon="11.184338890368645" id="-39491">
		<tag k="name" v="Kjerringmastudalen" />
		<tag k="natural" v="valley" />
		<tag k="place" v="locality" />
		<tag k="ssr:date" v="2018-01-09" />
		<tag k="ssr:gruppe" v="senkninger" />
		<tag k="ssr:hovedgruppe" v="terreng" />
		<tag k="ssr:stedsnr" v="453436" />
		<tag k="ssr:type" v="dal" />
	</node>
	<node lat="63.51327499964017" lon="11.150888891598647" id="-39492">
		<tag k="name" v="Bremsetbjørga" />
		<tag k="natural" v="slope" />
		<tag k="place" v="locality" />
		<tag k="ssr:date" v="2018-01-09" />
		<tag k="ssr:gruppe" v="skråninger" />
		<tag k="ssr:hovedgruppe" v="terreng" />
		<tag k="ssr:stedsnr" v="453440" />
		<tag k="ssr:type" v="li" />
	</node>
	<node lat="63.48161388896156" lon="11.129947215241375" id="-39493">
		<tag k="name" v="Våttåhaugen" />
		<tag k="natural" v="hill" />
		<tag k="place" v="locality" />
		<tag k="ssr:date" v="2018-01-09" />
		<tag k="ssr:gruppe" v="høyder" />
		<tag k="ssr:hovedgruppe" v="terreng" />
		<tag k="ssr:stedsnr" v="453443" />
		<tag k="ssr:type" v="haug" />
	</node>
	<node lat="63.47643611320076" lon="11.10483611726706" id="-39494">
		<tag k="fixme" v="consider natural=peak for the most distinct mountains in the district" />
		<tag k="name" v="Knottbakkan" />
		<tag k="natural" v="hill" />
		<tag k="place" v="locality" />
		<tag k="ssr:date" v="2018-01-09" />
		<tag k="ssr:gruppe" v="høyder" />
		<tag k="ssr:hovedgruppe" v="terreng" />
		<tag k="ssr:stedsnr" v="453448" />
		<tag k="ssr:type" v="ås" />
	</node>
	<node lat="63.489674997849484" lon="11.162355546918624" id="-39495">
		<tag k="name" v="Åltjønnkleppen" />
		<tag k="natural" v="hill" />
		<tag k="place" v="locality" />
		<tag k="ssr:date" v="2018-01-09" />
		<tag k="ssr:gruppe" v="høyder" />
		<tag k="ssr:hovedgruppe" v="terreng" />
		<tag k="ssr:stedsnr" v="453457" />
		<tag k="ssr:type" v="berg" />
	</node>
	<node lat="63.5033999984083" lon="11.43252499816852" id="-39496">
		<tag k="name" v="Klipbjørga" />
		<tag k="natural" v="slope" />
		<tag k="place" v="locality" />
		<tag k="ssr:date" v="2018-01-09" />
		<tag k="ssr:gruppe" v="skråninger" />
		<tag k="ssr:hovedgruppe" v="terreng" />
		<tag k="ssr:stedsnr" v="453158" />
		<tag k="ssr:type" v="li" />
	</node>
	<node lat="63.492722221696845" lon="11.463013881200093" id="-39497">
		<tag k="name" v="Bjørnberget" />
		<tag k="natural" v="hill" />
		<tag k="place" v="locality" />
		<tag k="ssr:date" v="2018-01-09" />
		<tag k="ssr:gruppe" v="høyder" />
		<tag k="ssr:hovedgruppe" v="terreng" />
		<tag k="ssr:stedsnr" v="453160" />
		<tag k="ssr:type" v="berg" />
	</node>
	<node lat="63.55127221821757" lon="11.143433333563623" id="-39498">
		<tag k="name" v="Nerdalsbekken" />
		<tag k="ssr:date" v="2018-01-09" />
		<tag k="ssr:gruppe" v="rennendeVann" />
		<tag k="ssr:hovedgruppe" v="ferskvann" />
		<tag k="ssr:stedsnr" v="453485" />
		<tag k="ssr:type" v="bekk" />
		<tag k="waterway" v="stream" />
	</node>
	<node lat="63.55355833027277" lon="11.144672219784923" id="-39499">
		<tag k="landuse" v="quarry" />
		<tag k="name" v="Buland gruver" />
		<tag k="ssr:date" v="2018-01-09" />
		<tag k="ssr:gruppe" v="uttakOgDeponi" />
		<tag k="ssr:hovedgruppe" v="markslag" />
		<tag k="ssr:stedsnr" v="453486" />
		<tag k="ssr:type" v="bergverk" />
	</node>
	<node lat="63.52220555202625" lon="11.13484443572614" id="-39500">
		<tag k="name" v="Råbjørga" />
		<tag k="natural" v="slope" />
		<tag k="place" v="locality" />
		<tag k="ssr:date" v="2018-01-09" />
		<tag k="ssr:gruppe" v="skråninger" />
		<tag k="ssr:hovedgruppe" v="terreng" />
		<tag k="ssr:stedsnr" v="453500" />
		<tag k="ssr:type" v="li" />
	</node>
	<node lat="63.4185027748435" lon="10.983491670587544" id="-39501">
		<tag k="name" v="Sveddiberget" />
		<tag k="natural" v="hill" />
		<tag k="place" v="locality" />
		<tag k="ssr:date" v="2018-01-09" />
		<tag k="ssr:gruppe" v="høyder" />
		<tag k="ssr:hovedgruppe" v="terreng" />
		<tag k="ssr:stedsnr" v="453860" />
		<tag k="ssr:type" v="berg" />
	</node>
	<node lat="63.45298611384299" lon="10.97189444404546" id="-39502">
		<tag k="name" v="Prestmoen" />
		<tag k="place" v="farm" />
		<tag k="ssr:date" v="2021-06-08" />
		<tag k="ssr:gruppe" v="gardsbebyggelse" />
		<tag k="ssr:hovedgruppe" v="bebyggelse" />
		<tag k="ssr:stedsnr" v="255075" />
		<tag k="ssr:type" v="bruk" />
	</node>
	<node lat="63.34726110852322" lon="11.330094438550585" id="-39503">
		<tag k="historic" v="shieling" />
		<tag k="name" v="Øystre Langlivollen" />
		<tag k="place" v="isolated_dwelling" />
		<tag k="ssr:date" v="2021-06-08" />
		<tag k="ssr:gruppe" v="gardsbebyggelse" />
		<tag k="ssr:hovedgruppe" v="bebyggelse" />
		<tag k="ssr:stedsnr" v="255405" />
		<tag k="ssr:type" v="seterStøl" />
	</node>
	<node lat="63.334319443266494" lon="10.977158328544302" id="-39504">
		<tag k="alt_name" v="Litlfjellbekken" />
		<tag k="name" v="Fjellbekken" />
		<tag k="ssr:date" v="2018-01-09" />
		<tag k="ssr:gruppe" v="rennendeVann" />
		<tag k="ssr:hovedgruppe" v="ferskvann" />
		<tag k="ssr:stedsnr" v="255407" />
		<tag k="ssr:type" v="bekk" />
		<tag k="waterway" v="stream" />
	</node>
	<node lat="63.34971389295009" lon="10.892844445207054" id="-39505">
		<tag k="name" v="Sagdalsberget" />
		<tag k="natural" v="hill" />
		<tag k="place" v="locality" />
		<tag k="ssr:date" v="2018-01-09" />
		<tag k="ssr:gruppe" v="høyder" />
		<tag k="ssr:hovedgruppe" v="terreng" />
		<tag k="ssr:stedsnr" v="255416" />
		<tag k="ssr:type" v="berg" />
	</node>
	<node lat="63.35584999859818" lon="10.95603056198917" id="-39506">
		<tag k="historic" v="shieling" />
		<tag k="name" v="Ratbuvollen" />
		<tag k="place" v="isolated_dwelling" />
		<tag k="ssr:date" v="2021-06-08" />
		<tag k="ssr:gruppe" v="gardsbebyggelse" />
		<tag k="ssr:hovedgruppe" v="bebyggelse" />
		<tag k="ssr:stedsnr" v="255418" />
		<tag k="ssr:type" v="seterStøl" />
	</node>
	<node lat="63.347252778758346" lon="11.106911102381003" id="-39507">
		<tag k="name" v="Svarttjønna" />
		<tag k="natural" v="water" />
		<tag k="ssr:date" v="2021-06-08" />
		<tag k="ssr:gruppe" v="stilleståendeVann" />
		<tag k="ssr:hovedgruppe" v="ferskvann" />
		<tag k="ssr:stedsnr" v="255420" />
		<tag k="ssr:type" v="tjern" />
	</node>
	<node lat="63.36560000274246" lon="11.312377770299626" id="-39508">
		<tag k="historic" v="shieling" />
		<tag k="name" v="Hevlvollen" />
		<tag k="place" v="locality" />
		<tag k="ssr:date" v="2021-06-08" />
		<tag k="ssr:gruppe" v="dyrkamark" />
		<tag k="ssr:hovedgruppe" v="markslag" />
		<tag k="ssr:stedsnr" v="255422" />
		<tag k="ssr:type" v="setervoll" />
	</node>
	<node lat="63.376561591248965" lon="11.077447311546859" id="-39509">
		<tag k="fixme" v="consider place=hamlet" />
		<tag k="name" v="Elvermoen" />
		<tag k="place" v="farm" />
		<tag k="ssr:date" v="2018-01-09" />
		<tag k="ssr:gruppe" v="gardsbebyggelse" />
		<tag k="ssr:hovedgruppe" v="bebyggelse" />
		<tag k="ssr:stedsnr" v="255477" />
		<tag k="ssr:type" v="gard" />
	</node>
	<node lat="63.508636928777584" lon="10.875072640893226" id="-39510">
		<tag k="name" v="Holan" />
		<tag k="old_name" v="Hollan" />
		<tag k="place" v="farm" />
		<tag k="ssr:date" v="2018-01-09" />
		<tag k="ssr:gruppe" v="gardsbebyggelse" />
		<tag k="ssr:hovedgruppe" v="bebyggelse" />
		<tag k="ssr:stedsnr" v="255706" />
		<tag k="ssr:type" v="bruk" />
	</node>
	<node lat="63.51101389031821" lon="11.203175002768996" id="-39511">
		<tag k="name" v="Nonshaugan" />
		<tag k="natural" v="hill" />
		<tag k="place" v="locality" />
		<tag k="ssr:date" v="2018-01-09" />
		<tag k="ssr:gruppe" v="høyder" />
		<tag k="ssr:hovedgruppe" v="terreng" />
		<tag k="ssr:stedsnr" v="255711" />
		<tag k="ssr:type" v="haug" />
	</node>
	<node lat="63.5162611084329" lon="10.94449444150516" id="-39512">
		<tag k="name" v="Svartkamberget" />
		<tag k="natural" v="hill" />
		<tag k="place" v="locality" />
		<tag k="ssr:date" v="2018-01-09" />
		<tag k="ssr:gruppe" v="høyder" />
		<tag k="ssr:hovedgruppe" v="terreng" />
		<tag k="ssr:stedsnr" v="255722" />
		<tag k="ssr:type" v="berg" />
	</node>
	<node lat="63.42480833109045" lon="10.88840554926895" id="-39513">
		<tag k="name" v="Furhåmmåren" />
		<tag k="natural" v="hill" />
		<tag k="place" v="locality" />
		<tag k="ssr:date" v="2021-06-08" />
		<tag k="ssr:gruppe" v="høyder" />
		<tag k="ssr:hovedgruppe" v="terreng" />
		<tag k="ssr:stedsnr" v="256004" />
		<tag k="ssr:type" v="haug" />
	</node>
	<node lat="63.42268055288872" lon="10.950530548305947" id="-39514">
		<tag k="fixme" v="multiple name tags, choose one and add the other to alt_name" />
		<tag k="name" v="Nordhalla;Nordre Dyva" />
		<tag k="place" v="farm" />
		<tag k="ssr:date" v="2018-01-09" />
		<tag k="ssr:gruppe" v="gardsbebyggelse" />
		<tag k="ssr:hovedgruppe" v="bebyggelse" />
		<tag k="ssr:stedsnr" v="256009" />
		<tag k="ssr:type" v="bruk" />
	</node>
	<node lat="63.48567525183768" lon="11.342862700042911" id="-39515">
		<tag k="fixme" v="consider place=hamlet" />
		<tag k="name" v="Hoggåsen" />
		<tag k="place" v="farm" />
		<tag k="ssr:date" v="2021-06-08" />
		<tag k="ssr:gruppe" v="gardsbebyggelse" />
		<tag k="ssr:hovedgruppe" v="bebyggelse" />
		<tag k="ssr:stedsnr" v="256260" />
		<tag k="ssr:type" v="gard" />
	</node>
	<node lat="63.529200003955765" lon="11.207605548480483" id="-39516">
		<tag k="fixme" v="consider natural=peak for the most distinct mountains in the district" />
		<tag k="name" v="Høgåsen" />
		<tag k="natural" v="hill" />
		<tag k="place" v="locality" />
		<tag k="ssr:date" v="2018-01-09" />
		<tag k="ssr:gruppe" v="høyder" />
		<tag k="ssr:hovedgruppe" v="terreng" />
		<tag k="ssr:stedsnr" v="256161" />
		<tag k="ssr:type" v="ås" />
	</node>
	<node lat="63.40118611430674" lon="11.370819447725701" id="-39517">
		<tag k="fixme" v="multiple name tags, choose one and add the other to alt_name" />
		<tag k="name" v="Kongrosletta;Bakvendtkjølen" />
		<tag k="natural" v="wetland" />
		<tag k="ssr:date" v="2018-01-09" />
		<tag k="ssr:gruppe" v="våtmark" />
		<tag k="ssr:hovedgruppe" v="markslag" />
		<tag k="ssr:stedsnr" v="256363" />
		<tag k="ssr:type" v="myr" />
	</node>
	<node lat="63.57521388754384" lon="11.277586118267875" id="-39518">
		<tag k="alt_name" v="Høgsætervola" />
		<tag k="name" v="Høgsetervola" />
		<tag k="natural" v="hill" />
		<tag k="place" v="locality" />
		<tag k="ssr:date" v="2019-12-27" />
		<tag k="ssr:gruppe" v="høyder" />
		<tag k="ssr:hovedgruppe" v="terreng" />
		<tag k="ssr:stedsnr" v="256410" />
		<tag k="ssr:type" v="berg" />
	</node>
	<node lat="63.57168189893005" lon="11.486096306549392" id="-39519">
		<tag k="name" v="Almlivollen" />
		<tag k="place" v="locality" />
		<tag k="ssr:date" v="2020-01-09" />
		<tag k="ssr:gruppe" v="gardsbebyggelse" />
		<tag k="ssr:hovedgruppe" v="bebyggelse" />
		<tag k="ssr:stedsnr" v="256414" />
		<tag k="ssr:type" v="byggForJordbrukFiskeOgFangst" />
	</node>
	<node lat="63.43224444826822" lon="11.290383334277616" id="-39520">
		<tag k="name" v="Flåtjønna" />
		<tag k="natural" v="water" />
		<tag k="ssr:date" v="2021-06-08" />
		<tag k="ssr:gruppe" v="stilleståendeVann" />
		<tag k="ssr:hovedgruppe" v="ferskvann" />
		<tag k="ssr:stedsnr" v="256458" />
		<tag k="ssr:type" v="tjern" />
	</node>
	<node lat="63.38736217204114" lon="11.096187392944385" id="-39521">
		<tag k="fixme" v="consider place=hamlet" />
		<tag k="name" v="Kleivan" />
		<tag k="place" v="farm" />
		<tag k="ssr:date" v="2018-01-09" />
		<tag k="ssr:gruppe" v="gardsbebyggelse" />
		<tag k="ssr:hovedgruppe" v="bebyggelse" />
		<tag k="ssr:stedsnr" v="256460" />
		<tag k="ssr:type" v="gard" />
	</node>
	<node lat="63.56280277989828" lon="11.045558330014599" id="-39522">
		<tag k="fixme" v="consider natural=peak for the most distinct mountains in the district" />
		<tag k="name" v="Varden" />
		<tag k="natural" v="hill" />
		<tag k="place" v="locality" />
		<tag k="ssr:date" v="2018-01-09" />
		<tag k="ssr:gruppe" v="høyder" />
		<tag k="ssr:hovedgruppe" v="terreng" />
		<tag k="ssr:stedsnr" v="457530" />
		<tag k="ssr:type" v="topp" />
	</node>
	<node lat="63.447230554875254" lon="11.144047227459788" id="-39523">
		<tag k="name" v="Tronskodalsbekken" />
		<tag k="ssr:date" v="2018-01-09" />
		<tag k="ssr:gruppe" v="rennendeVann" />
		<tag k="ssr:hovedgruppe" v="ferskvann" />
		<tag k="ssr:stedsnr" v="270606" />
		<tag k="ssr:type" v="bekk" />
		<tag k="waterway" v="stream" />
	</node>
	<node lat="63.408158334773624" lon="11.212444450875731" id="-39524">
		<tag k="name" v="Hansåsen" />
		<tag k="place" v="locality" />
		<tag k="ssr:date" v="2018-01-09" />
		<tag k="ssr:gruppe" v="terrengdetaljer" />
		<tag k="ssr:hovedgruppe" v="terreng" />
		<tag k="ssr:stedsnr" v="270527" />
		<tag k="ssr:type" v="annenTerrengdetalj" />
	</node>
	<node lat="63.415136114688856" lon="11.166599991048669" id="-39525">
		<tag k="fixme" v="consider natural=peak for the most distinct mountains in the district" />
		<tag k="name" v="Stormaritrya" />
		<tag k="natural" v="hill" />
		<tag k="place" v="locality" />
		<tag k="ssr:date" v="2018-01-09" />
		<tag k="ssr:gruppe" v="høyder" />
		<tag k="ssr:hovedgruppe" v="terreng" />
		<tag k="ssr:stedsnr" v="270529" />
		<tag k="ssr:type" v="ås" />
	</node>
	<node lat="63.539933331490516" lon="11.05881666190472" id="-39526">
		<tag k="name" v="Kjellsvebekken" />
		<tag k="ssr:date" v="2018-01-09" />
		<tag k="ssr:gruppe" v="rennendeVann" />
		<tag k="ssr:hovedgruppe" v="ferskvann" />
		<tag k="ssr:stedsnr" v="270572" />
		<tag k="ssr:type" v="bekk" />
		<tag k="waterway" v="stream" />
	</node>
	<node lat="63.53435000090561" lon="11.010824990257513" id="-39527">
		<tag k="name" v="Furumyrbekken" />
		<tag k="ssr:date" v="2018-01-09" />
		<tag k="ssr:gruppe" v="rennendeVann" />
		<tag k="ssr:hovedgruppe" v="ferskvann" />
		<tag k="ssr:stedsnr" v="270574" />
		<tag k="ssr:type" v="bekk" />
		<tag k="waterway" v="stream" />
	</node>
	<node lat="63.54332499839225" lon="11.058291660510982" id="-39528">
		<tag k="fixme" v="consider natural=peak for the most distinct mountains in the district" />
		<tag k="name" v="Bergbjørga" />
		<tag k="natural" v="hill" />
		<tag k="place" v="locality" />
		<tag k="ssr:date" v="2018-01-09" />
		<tag k="ssr:gruppe" v="høyder" />
		<tag k="ssr:hovedgruppe" v="terreng" />
		<tag k="ssr:stedsnr" v="270580" />
		<tag k="ssr:type" v="ås" />
	</node>
	<node lat="63.54207222433974" lon="11.097208327299041" id="-39529">
		<tag k="name" v="Sniptjønnbekken" />
		<tag k="ssr:date" v="2018-01-09" />
		<tag k="ssr:gruppe" v="rennendeVann" />
		<tag k="ssr:hovedgruppe" v="ferskvann" />
		<tag k="ssr:stedsnr" v="270585" />
		<tag k="ssr:type" v="bekk" />
		<tag k="waterway" v="stream" />
	</node>
	<node lat="63.456716670304544" lon="11.166941661270416" id="-39530">
		<tag k="highway" v="path" />
		<tag k="name" v="Kleivstien" />
		<tag k="ssr:date" v="2018-01-09" />
		<tag k="ssr:gruppe" v="veg" />
		<tag k="ssr:hovedgruppe" v="infrastruktur" />
		<tag k="ssr:stedsnr" v="270595" />
		<tag k="ssr:type" v="sti" />
	</node>
	<node lat="63.55684166716779" lon="11.078611111528868" id="-39531">
		<tag k="name" v="Krokan" />
		<tag k="ssr:date" v="2018-01-09" />
		<tag k="ssr:gruppe" v="rennendeVann" />
		<tag k="ssr:hovedgruppe" v="ferskvann" />
		<tag k="ssr:stedsnr" v="270712" />
		<tag k="ssr:type" v="bekk" />
		<tag k="waterway" v="stream" />
	</node>
	<node lat="63.455186113426905" lon="11.093947213937978" id="-39532">
		<tag k="name" v="Kjerringberget" />
		<tag k="natural" v="hill" />
		<tag k="place" v="locality" />
		<tag k="ssr:date" v="2018-01-09" />
		<tag k="ssr:gruppe" v="høyder" />
		<tag k="ssr:hovedgruppe" v="terreng" />
		<tag k="ssr:stedsnr" v="270672" />
		<tag k="ssr:type" v="berg" />
	</node>
	<node lat="63.46396944668422" lon="11.025674997781612" id="-39533">
		<tag k="name" v="Gluggbekken" />
		<tag k="ssr:date" v="2018-01-09" />
		<tag k="ssr:gruppe" v="rennendeVann" />
		<tag k="ssr:hovedgruppe" v="ferskvann" />
		<tag k="ssr:stedsnr" v="270685" />
		<tag k="ssr:type" v="bekk" />
		<tag k="waterway" v="stream" />
	</node>
	<node lat="63.40055555703075" lon="11.059302773752954" id="-39534">
		<tag k="name" v="Nedre Meilbekken" />
		<tag k="ssr:date" v="2018-01-09" />
		<tag k="ssr:gruppe" v="rennendeVann" />
		<tag k="ssr:hovedgruppe" v="ferskvann" />
		<tag k="ssr:stedsnr" v="270692" />
		<tag k="ssr:type" v="bekk" />
		<tag k="waterway" v="stream" />
	</node>
	<node lat="63.401436107234225" lon="11.057933338588827" id="-39535">
		<tag k="name" v="Romhaugen" />
		<tag k="natural" v="hill" />
		<tag k="place" v="locality" />
		<tag k="ssr:date" v="2018-01-09" />
		<tag k="ssr:gruppe" v="høyder" />
		<tag k="ssr:hovedgruppe" v="terreng" />
		<tag k="ssr:stedsnr" v="270693" />
		<tag k="ssr:type" v="haug" />
	</node>
	<node lat="63.393908334552684" lon="11.03145834065706" id="-39536">
		<tag k="name" v="Joelfossen" />
		<tag k="natural" v="waterfall" />
		<tag k="ssr:date" v="2018-01-09" />
		<tag k="ssr:gruppe" v="rennendeVann" />
		<tag k="ssr:hovedgruppe" v="ferskvann" />
		<tag k="ssr:stedsnr" v="270696" />
		<tag k="ssr:type" v="foss" />
	</node>
	<node lat="63.51635555532365" lon="10.875897223796482" id="-39537">
		<tag k="name" v="Bergfjellet" />
		<tag k="natural" v="hill" />
		<tag k="place" v="locality" />
		<tag k="ssr:date" v="2018-01-09" />
		<tag k="ssr:gruppe" v="høyder" />
		<tag k="ssr:hovedgruppe" v="terreng" />
		<tag k="ssr:stedsnr" v="270825" />
		<tag k="ssr:type" v="berg" />
	</node>
	<node lat="63.52884444847068" lon="10.961363889655924" id="-39538">
		<tag k="historic" v="shieling" />
		<tag k="name" v="Litlsetervollen" />
		<tag k="place" v="isolated_dwelling" />
		<tag k="ssr:date" v="2018-01-09" />
		<tag k="ssr:gruppe" v="gardsbebyggelse" />
		<tag k="ssr:hovedgruppe" v="bebyggelse" />
		<tag k="ssr:stedsnr" v="270830" />
		<tag k="ssr:type" v="seterStøl" />
	</node>
	<node lat="63.51746666251249" lon="10.785552783110793" id="-39539">
		<tag k="name" v="Sandberg" />
		<tag k="natural" v="hill" />
		<tag k="place" v="locality" />
		<tag k="ssr:date" v="2018-01-09" />
		<tag k="ssr:gruppe" v="høyder" />
		<tag k="ssr:hovedgruppe" v="terreng" />
		<tag k="ssr:stedsnr" v="270874" />
		<tag k="ssr:type" v="berg" />
	</node>
	<node lat="63.51755277715442" lon="10.789008323359601" id="-39540">
		<tag k="name" v="Østre Rykkja" />
		<tag k="place" v="farm" />
		<tag k="ssr:date" v="2021-06-08" />
		<tag k="ssr:gruppe" v="gardsbebyggelse" />
		<tag k="ssr:hovedgruppe" v="bebyggelse" />
		<tag k="ssr:stedsnr" v="270876" />
		<tag k="ssr:type" v="bruk" />
	</node>
	<node lat="63.4076111120534" lon="10.895208340624258" id="-39541">
		<tag k="name" v="Følltjønna" />
		<tag k="natural" v="water" />
		<tag k="ssr:date" v="2018-01-09" />
		<tag k="ssr:gruppe" v="stilleståendeVann" />
		<tag k="ssr:hovedgruppe" v="ferskvann" />
		<tag k="ssr:stedsnr" v="270893" />
		<tag k="ssr:type" v="tjern" />
	</node>
	<node lat="63.45074721837989" lon="10.928422231655682" id="-39542">
		<tag k="name" v="Kapteinsøra" />
		<tag k="place" v="locality" />
		<tag k="ssr:date" v="2018-01-09" />
		<tag k="ssr:gruppe" v="ferskvannskontur" />
		<tag k="ssr:hovedgruppe" v="ferskvann" />
		<tag k="ssr:stedsnr" v="270786" />
		<tag k="ssr:type" v="eid" />
	</node>
	<node lat="63.46732500008369" lon="10.94061388708015" id="-39543">
		<tag k="name" v="Lillemoen" />
		<tag k="place" v="farm" />
		<tag k="ssr:date" v="2018-01-09" />
		<tag k="ssr:gruppe" v="gardsbebyggelse" />
		<tag k="ssr:hovedgruppe" v="bebyggelse" />
		<tag k="ssr:stedsnr" v="270791" />
		<tag k="ssr:type" v="bruk" />
	</node>
	<node lat="63.44032222226065" lon="10.895466660147294" id="-39544">
		<tag k="name" v="Måssåhatten" />
		<tag k="natural" v="hill" />
		<tag k="place" v="locality" />
		<tag k="ssr:date" v="2018-01-09" />
		<tag k="ssr:gruppe" v="høyder" />
		<tag k="ssr:hovedgruppe" v="terreng" />
		<tag k="ssr:stedsnr" v="270794" />
		<tag k="ssr:type" v="haug" />
	</node>
	<node lat="63.4206444446303" lon="10.881691664277113" id="-39545">
		<tag k="name" v="Furgjerdet" />
		<tag k="place" v="locality" />
		<tag k="ssr:date" v="2018-01-09" />
		<tag k="ssr:gruppe" v="bolighus" />
		<tag k="ssr:hovedgruppe" v="bebyggelse" />
		<tag k="ssr:stedsnr" v="270902" />
		<tag k="ssr:type" v="gammelBosettingsplass" />
	</node>
	<node lat="63.416036111649184" lon="10.87858334310799" id="-39546">
		<tag k="name" v="Stormyrbekken" />
		<tag k="ssr:date" v="2018-01-09" />
		<tag k="ssr:gruppe" v="rennendeVann" />
		<tag k="ssr:hovedgruppe" v="ferskvann" />
		<tag k="ssr:stedsnr" v="270905" />
		<tag k="ssr:type" v="bekk" />
		<tag k="waterway" v="stream" />
	</node>
	<node lat="63.42481666792524" lon="10.866216666678609" id="-39547">
		<tag k="name" v="Smørauget" />
		<tag k="natural" v="water" />
		<tag k="ssr:date" v="2018-01-09" />
		<tag k="ssr:gruppe" v="stilleståendeVann" />
		<tag k="ssr:hovedgruppe" v="ferskvann" />
		<tag k="ssr:stedsnr" v="270907" />
		<tag k="ssr:type" v="tjern" />
	</node>
	<node lat="63.393136108434085" lon="10.90730554943198" id="-39548">
		<tag k="fixme" v="consider natural=peak for the most distinct mountains in the district" />
		<tag k="name" v="Julåsen" />
		<tag k="natural" v="hill" />
		<tag k="place" v="locality" />
		<tag k="ssr:date" v="2018-01-09" />
		<tag k="ssr:gruppe" v="høyder" />
		<tag k="ssr:hovedgruppe" v="terreng" />
		<tag k="ssr:stedsnr" v="270939" />
		<tag k="ssr:type" v="ås" />
	</node>
	<node lat="63.3970111122019" lon="10.944483329063377" id="-39549">
		<tag k="name" v="Svartdalen" />
		<tag k="natural" v="valley" />
		<tag k="place" v="locality" />
		<tag k="ssr:date" v="2018-01-09" />
		<tag k="ssr:gruppe" v="senkninger" />
		<tag k="ssr:hovedgruppe" v="terreng" />
		<tag k="ssr:stedsnr" v="270975" />
		<tag k="ssr:type" v="dal" />
	</node>
	<node lat="63.40793055788127" lon="10.931658332544888" id="-39550">
		<tag k="name" v="Sakshaug" />
		<tag k="place" v="farm" />
		<tag k="ssr:date" v="2018-01-09" />
		<tag k="ssr:gruppe" v="gardsbebyggelse" />
		<tag k="ssr:hovedgruppe" v="bebyggelse" />
		<tag k="ssr:stedsnr" v="270978" />
		<tag k="ssr:type" v="bruk" />
	</node>
	<node lat="63.45327499886928" lon="11.495213888574185" id="-39551">
		<tag k="fixme" v="consider natural=peak for the most distinct mountains in the district" />
		<tag k="name" v="Seteråsen" />
		<tag k="natural" v="hill" />
		<tag k="place" v="locality" />
		<tag k="ssr:date" v="2018-01-09" />
		<tag k="ssr:gruppe" v="høyder" />
		<tag k="ssr:hovedgruppe" v="terreng" />
		<tag k="ssr:stedsnr" v="271205" />
		<tag k="ssr:type" v="ås" />
	</node>
	<node lat="63.481625002321316" lon="11.42552499281378" id="-39552">
		<tag k="name" v="Seterdalen" />
		<tag k="natural" v="valley" />
		<tag k="place" v="locality" />
		<tag k="ssr:date" v="2018-01-09" />
		<tag k="ssr:gruppe" v="senkninger" />
		<tag k="ssr:hovedgruppe" v="terreng" />
		<tag k="ssr:stedsnr" v="271208" />
		<tag k="ssr:type" v="dal" />
	</node>
	<node lat="63.47284999687791" lon="11.403763883625144" id="-39553">
		<tag k="name" v="Flåmyra" />
		<tag k="natural" v="wetland" />
		<tag k="ssr:date" v="2018-01-09" />
		<tag k="ssr:gruppe" v="våtmark" />
		<tag k="ssr:hovedgruppe" v="markslag" />
		<tag k="ssr:stedsnr" v="271215" />
		<tag k="ssr:type" v="myr" />
	</node>
	<node lat="63.4910861079527" lon="11.411786120715945" id="-39554">
		<tag k="name" v="Tømmeråsbjørga" />
		<tag k="natural" v="slope" />
		<tag k="place" v="locality" />
		<tag k="ssr:date" v="2018-01-09" />
		<tag k="ssr:gruppe" v="skråninger" />
		<tag k="ssr:hovedgruppe" v="terreng" />
		<tag k="ssr:stedsnr" v="271157" />
		<tag k="ssr:type" v="li" />
	</node>
	<node lat="63.49267777688537" lon="11.395783338321916" id="-39555">
		<tag k="name" v="Porkdalen" />
		<tag k="natural" v="valley" />
		<tag k="place" v="locality" />
		<tag k="ssr:date" v="2018-01-09" />
		<tag k="ssr:gruppe" v="senkninger" />
		<tag k="ssr:hovedgruppe" v="terreng" />
		<tag k="ssr:stedsnr" v="271174" />
		<tag k="ssr:type" v="dal" />
	</node>
	<node lat="63.50951388736631" lon="11.365208332244846" id="-39556">
		<tag k="historic" v="shieling" />
		<tag k="name" v="Movollen" />
		<tag k="place" v="isolated_dwelling" />
		<tag k="ssr:date" v="2018-01-09" />
		<tag k="ssr:gruppe" v="gardsbebyggelse" />
		<tag k="ssr:hovedgruppe" v="bebyggelse" />
		<tag k="ssr:stedsnr" v="271190" />
		<tag k="ssr:type" v="seterStøl" />
	</node>
	<node lat="63.43305000239348" lon="11.28470556399471" id="-39557">
		<tag k="name" v="Sagbakken" />
		<tag k="natural" v="slope" />
		<tag k="place" v="locality" />
		<tag k="ssr:date" v="2018-01-09" />
		<tag k="ssr:gruppe" v="skråninger" />
		<tag k="ssr:hovedgruppe" v="terreng" />
		<tag k="ssr:stedsnr" v="271327" />
		<tag k="ssr:type" v="bakke" />
	</node>
	<node lat="63.490197221649154" lon="11.318066664471173" id="-39558">
		<tag k="name" v="Raudmyra" />
		<tag k="natural" v="wetland" />
		<tag k="ssr:date" v="2018-01-09" />
		<tag k="ssr:gruppe" v="våtmark" />
		<tag k="ssr:hovedgruppe" v="markslag" />
		<tag k="ssr:stedsnr" v="271378" />
		<tag k="ssr:type" v="myr" />
	</node>
	<node lat="63.464255554988284" lon="11.39034444346591" id="-39559">
		<tag k="name" v="Kvernbekken" />
		<tag k="ssr:date" v="2018-01-09" />
		<tag k="ssr:gruppe" v="rennendeVann" />
		<tag k="ssr:hovedgruppe" v="ferskvann" />
		<tag k="ssr:stedsnr" v="271423" />
		<tag k="ssr:type" v="bekk" />
		<tag k="waterway" v="stream" />
	</node>
	<node lat="63.432558334433935" lon="11.199780555375963" id="-39560">
		<tag k="fixme" v="consider natural=peak for the most distinct mountains in the district" />
		<tag k="name" v="Digreåsen" />
		<tag k="natural" v="hill" />
		<tag k="place" v="locality" />
		<tag k="ssr:date" v="2018-01-09" />
		<tag k="ssr:gruppe" v="høyder" />
		<tag k="ssr:hovedgruppe" v="terreng" />
		<tag k="ssr:stedsnr" v="271470" />
		<tag k="ssr:type" v="ås" />
	</node>
	<node lat="63.544150000131154" lon="11.13425832562331" id="-39561">
		<tag k="name" v="Bakktjønnbekken" />
		<tag k="ssr:date" v="2018-01-09" />
		<tag k="ssr:gruppe" v="rennendeVann" />
		<tag k="ssr:hovedgruppe" v="ferskvann" />
		<tag k="ssr:stedsnr" v="271520" />
		<tag k="ssr:type" v="bekk" />
		<tag k="waterway" v="stream" />
	</node>
	<node lat="63.457580551333386" lon="11.292927773820374" id="-39562">
		<tag k="name" v="Hyllbekken" />
		<tag k="ssr:date" v="2018-01-09" />
		<tag k="ssr:gruppe" v="rennendeVann" />
		<tag k="ssr:hovedgruppe" v="ferskvann" />
		<tag k="ssr:stedsnr" v="271571" />
		<tag k="ssr:type" v="bekk" />
		<tag k="waterway" v="stream" />
	</node>
	<node lat="63.42673333720412" lon="11.02321944782589" id="-39563">
		<tag k="name" v="Hesjemyra" />
		<tag k="natural" v="wetland" />
		<tag k="ssr:date" v="2018-01-09" />
		<tag k="ssr:gruppe" v="våtmark" />
		<tag k="ssr:hovedgruppe" v="markslag" />
		<tag k="ssr:stedsnr" v="271887" />
		<tag k="ssr:type" v="myr" />
	</node>
	<node lat="63.5567249957802" lon="11.024747214801772" id="-39564">
		<tag k="name" v="Meraker Bruk" />
		<tag k="place" v="locality" />
		<tag k="ssr:date" v="2018-01-09" />
		<tag k="ssr:gruppe" v="gardsbebyggelse" />
		<tag k="ssr:hovedgruppe" v="bebyggelse" />
		<tag k="ssr:stedsnr" v="285392" />
		<tag k="ssr:type" v="eiendom" />
	</node>
	<node lat="63.54881666372275" lon="10.849194440292525" id="-39565">
		<tag k="name" v="Litlegrunnen" />
		<tag k="natural" v="shoal" />
		<tag k="place" v="locality" />
		<tag k="ssr:date" v="2018-01-09" />
		<tag k="ssr:gruppe" v="grunnerISjø" />
		<tag k="ssr:hovedgruppe" v="sjø" />
		<tag k="ssr:stedsnr" v="287677" />
		<tag k="ssr:type" v="grunneISjø" />
	</node>
	<node lat="63.54150277991981" lon="10.808816668345255" id="-39566">
		<tag k="name" v="Steinvikbukta" />
		<tag k="natural" v="bay" />
		<tag k="ssr:date" v="2018-01-09" />
		<tag k="ssr:gruppe" v="kystkontur" />
		<tag k="ssr:hovedgruppe" v="sjø" />
		<tag k="ssr:stedsnr" v="287682" />
		<tag k="ssr:type" v="vikISjø" />
	</node>
	<node lat="63.36117311589412" lon="11.135752327095988" id="-39567">
		<tag k="name" v="Gåsauna" />
		<tag k="natural" v="hill" />
		<tag k="place" v="locality" />
		<tag k="ssr:date" v="2018-01-09" />
		<tag k="ssr:gruppe" v="høyder" />
		<tag k="ssr:hovedgruppe" v="terreng" />
		<tag k="ssr:stedsnr" v="290375" />
		<tag k="ssr:type" v="høyde" />
	</node>
	<node lat="63.43222499721366" lon="11.463655547895232" id="-39568">
		<tag k="fixme" v="consider natural=peak for the most distinct mountains in the district" />
		<tag k="name" v="Tortlifjellet" />
		<tag k="natural" v="hill" />
		<tag k="place" v="locality" />
		<tag k="ssr:date" v="2018-01-09" />
		<tag k="ssr:gruppe" v="høyder" />
		<tag k="ssr:hovedgruppe" v="terreng" />
		<tag k="ssr:stedsnr" v="290476" />
		<tag k="ssr:type" v="fjell" />
	</node>
	<node lat="63.55968055480191" lon="11.058644453248968" id="-39569">
		<tag k="name" v="Nordre-Frosttjønndalen" />
		<tag k="natural" v="valley" />
		<tag k="place" v="locality" />
		<tag k="ssr:date" v="2018-01-09" />
		<tag k="ssr:gruppe" v="senkninger" />
		<tag k="ssr:hovedgruppe" v="terreng" />
		<tag k="ssr:stedsnr" v="291775" />
		<tag k="ssr:type" v="dal" />
	</node>
	<node lat="63.560375001206964" lon="11.002475008294638" id="-39570">
		<tag k="name" v="Litlvola" />
		<tag k="natural" v="hill" />
		<tag k="place" v="locality" />
		<tag k="ssr:date" v="2018-01-09" />
		<tag k="ssr:gruppe" v="høyder" />
		<tag k="ssr:hovedgruppe" v="terreng" />
		<tag k="ssr:stedsnr" v="291785" />
		<tag k="ssr:type" v="berg" />
	</node>
	<node lat="63.516450000053126" lon="10.765355551199058" id="-39571">
		<tag k="fixme" v="multiple name tags, choose one and add the other to alt_name; consider place=hamlet" />
		<tag k="name" v="Vestre Rykkja;Rykkja" />
		<tag k="place" v="farm" />
		<tag k="ssr:date" v="2021-06-08" />
		<tag k="ssr:gruppe" v="gardsbebyggelse" />
		<tag k="ssr:hovedgruppe" v="bebyggelse" />
		<tag k="ssr:stedsnr" v="300135" />
		<tag k="ssr:type" v="gard" />
	</node>
	<node lat="63.477969446972565" lon="10.928661120136027" id="-39572">
		<tag k="amenity" v="school" />
		<tag k="name" v="Stokkan ungdomsskole" />
		<tag k="ssr:date" v="2018-01-09" />
		<tag k="ssr:gruppe" v="institusjoner" />
		<tag k="ssr:hovedgruppe" v="bebyggelse" />
		<tag k="ssr:stedsnr" v="466156" />
		<tag k="ssr:type" v="skole" />
	</node>
	<node lat="63.5030588032466" lon="11.132866953771064" id="-39573">
		<tag k="fixme" v="consider place=hamlet" />
		<tag k="name" v="Gressetet" />
		<tag k="place" v="farm" />
		<tag k="ssr:date" v="2021-06-08" />
		<tag k="ssr:gruppe" v="gardsbebyggelse" />
		<tag k="ssr:hovedgruppe" v="bebyggelse" />
		<tag k="ssr:stedsnr" v="466262" />
		<tag k="ssr:type" v="gard" />
	</node>
	<node lat="63.40433610772482" lon="11.001475003512676" id="-39574">
		<tag k="name" v="Damtjønna" />
		<tag k="natural" v="water" />
		<tag k="ssr:date" v="2021-06-08" />
		<tag k="ssr:gruppe" v="stilleståendeVann" />
		<tag k="ssr:hovedgruppe" v="ferskvann" />
		<tag k="ssr:stedsnr" v="316053" />
		<tag k="ssr:type" v="tjern" />
	</node>
	<node lat="63.40306944563954" lon="11.093447217006762" id="-39575">
		<tag k="name" v="Romsjøen" />
		<tag k="natural" v="water" />
		<tag k="ssr:date" v="2018-01-09" />
		<tag k="ssr:gruppe" v="stilleståendeVann" />
		<tag k="ssr:hovedgruppe" v="ferskvann" />
		<tag k="ssr:stedsnr" v="316058" />
		<tag k="ssr:type" v="vann" />
		<tag k="water" v="lake" />
	</node>
	<node lat="63.44073518094723" lon="10.970061509476887" id="-39576">
		<tag k="fixme" v="consider place=hamlet" />
		<tag k="name" v="Mona" />
		<tag k="place" v="farm" />
		<tag k="ssr:date" v="2021-06-08" />
		<tag k="ssr:gruppe" v="gardsbebyggelse" />
		<tag k="ssr:hovedgruppe" v="bebyggelse" />
		<tag k="ssr:stedsnr" v="316118" />
		<tag k="ssr:type" v="gard" />
	</node>
	<node lat="63.49791944226258" lon="11.147952781983388" id="-39577">
		<tag k="name" v="Bergly" />
		<tag k="place" v="farm" />
		<tag k="ssr:date" v="2018-01-09" />
		<tag k="ssr:gruppe" v="gardsbebyggelse" />
		<tag k="ssr:hovedgruppe" v="bebyggelse" />
		<tag k="ssr:stedsnr" v="316249" />
		<tag k="ssr:type" v="bruk" />
	</node>
	<node lat="63.493373764281564" lon="11.06654538564992" id="-39578">
		<tag k="fixme" v="consider place=hamlet" />
		<tag k="name" v="Oppem" />
		<tag k="place" v="farm" />
		<tag k="ssr:date" v="2021-06-08" />
		<tag k="ssr:gruppe" v="gardsbebyggelse" />
		<tag k="ssr:hovedgruppe" v="bebyggelse" />
		<tag k="ssr:stedsnr" v="316251" />
		<tag k="ssr:type" v="gard" />
	</node>
	<node lat="63.49909166698748" lon="11.151113898713056" id="-39579">
		<tag k="name" v="Ulstadmoen" />
		<tag k="place" v="farm" />
		<tag k="ssr:date" v="2018-01-09" />
		<tag k="ssr:gruppe" v="gardsbebyggelse" />
		<tag k="ssr:hovedgruppe" v="bebyggelse" />
		<tag k="ssr:stedsnr" v="316263" />
		<tag k="ssr:type" v="bruk" />
	</node>
	<node lat="63.496663887249916" lon="11.220283333681143" id="-39580">
		<tag k="name" v="Flåtjønna" />
		<tag k="natural" v="water" />
		<tag k="ssr:date" v="2021-06-08" />
		<tag k="ssr:gruppe" v="stilleståendeVann" />
		<tag k="ssr:hovedgruppe" v="ferskvann" />
		<tag k="ssr:stedsnr" v="316264" />
		<tag k="ssr:type" v="tjern" />
	</node>
	<node lat="63.37001666829456" lon="10.945152785453665" id="-39581">
		<tag k="name" v="Brannvatna" />
		<tag k="natural" v="water" />
		<tag k="ssr:date" v="2021-06-08" />
		<tag k="ssr:gruppe" v="stilleståendeVann" />
		<tag k="ssr:hovedgruppe" v="ferskvann" />
		<tag k="ssr:stedsnr" v="316454" />
		<tag k="ssr:type" v="tjern" />
	</node>
	<node lat="63.39301110781519" lon="11.384924990459341" id="-39582">
		<tag k="alt_name" v="Øyesvollen" />
		<tag k="name" v="Øyvollen" />
		<tag k="place" v="isolated_dwelling" />
		<tag k="ssr:date" v="2018-01-09" />
		<tag k="ssr:gruppe" v="bolighus" />
		<tag k="ssr:hovedgruppe" v="bebyggelse" />
		<tag k="ssr:stedsnr" v="316458" />
		<tag k="ssr:type" v="fritidsbolig" />
	</node>
	<node lat="63.39232500044353" lon="11.348983329972167" id="-39583">
		<tag k="name" v="Sunndalstjønna" />
		<tag k="natural" v="water" />
		<tag k="ssr:date" v="2021-06-08" />
		<tag k="ssr:gruppe" v="stilleståendeVann" />
		<tag k="ssr:hovedgruppe" v="ferskvann" />
		<tag k="ssr:stedsnr" v="316459" />
		<tag k="ssr:type" v="tjern" />
	</node>
	<node lat="63.48552221947059" lon="11.232763887939871" id="-39584">
		<tag k="name" v="Forra" />
		<tag k="ssr:date" v="2021-06-08" />
		<tag k="ssr:gruppe" v="rennendeVann" />
		<tag k="ssr:hovedgruppe" v="ferskvann" />
		<tag k="ssr:stedsnr" v="316198" />
		<tag k="ssr:type" v="elv" />
		<tag k="waterway" v="river" />
	</node>
</osm>
