<?xml version="1.0" encoding="UTF-8"?>
<osm generator="osmapis" version="0.6">
	<node id="-893661" lat="63.5045201027" lon="11.0755868272">
		<tag k="name" v="Håmmårbakken" />
		<tag k="ssr:date" v="2019-05-30" />
		<tag k="ssr:gruppe" v="veg" />
		<tag k="ssr:hovedgruppe" v="infrastruktur" />
		<tag k="ssr:stedsnr" v="982731" />
		<tag k="ssr:type" v="adressenavn" />
	</node>
	<node id="-893660" lat="63.442018892" lon="11.1353880695">
		<tag k="name" v="Stortjønna" />
		<tag k="ssr:date" v="2019-05-30" />
		<tag k="ssr:gruppe" v="veg" />
		<tag k="ssr:hovedgruppe" v="infrastruktur" />
		<tag k="ssr:stedsnr" v="982729" />
		<tag k="ssr:type" v="adressenavn" />
	</node>
	<node id="-893659" lat="63.472837128" lon="11.114672074">
		<tag k="name" v="Martin Åsas veg" />
		<tag k="ssr:date" v="2019-05-30" />
		<tag k="ssr:gruppe" v="veg" />
		<tag k="ssr:hovedgruppe" v="infrastruktur" />
		<tag k="ssr:stedsnr" v="982727" />
		<tag k="ssr:type" v="adressenavn" />
	</node>
	<node id="-893658" lat="63.4437819131" lon="10.9044328471">
		<tag k="name" v="Anna Bakkens veg" />
		<tag k="ssr:date" v="2019-05-30" />
		<tag k="ssr:gruppe" v="veg" />
		<tag k="ssr:hovedgruppe" v="infrastruktur" />
		<tag k="ssr:stedsnr" v="982714" />
		<tag k="ssr:type" v="adressenavn" />
	</node>
	<node id="-893657" lat="63.4400485948" lon="10.8989814204">
		<tag k="name" v="Johan Gevings veg" />
		<tag k="ssr:date" v="2019-05-30" />
		<tag k="ssr:gruppe" v="veg" />
		<tag k="ssr:hovedgruppe" v="infrastruktur" />
		<tag k="ssr:stedsnr" v="982711" />
		<tag k="ssr:type" v="adressenavn" />
	</node>
	<node id="-892696" lat="63.4880944458" lon="10.9514111019">
		<tag k="name" v="Kinnsetvegen" />
		<tag k="ssr:date" v="2018-01-09" />
		<tag k="ssr:gruppe" v="veg" />
		<tag k="ssr:hovedgruppe" v="infrastruktur" />
		<tag k="ssr:stedsnr" v="28894" />
		<tag k="ssr:type" v="vegstrekning" />
	</node>
	<node id="-893654" lat="63.5169210211" lon="10.4860505232">
		<tag k="name" v="Trøndelag fylke - Trööndelagen fylhke" />
		<tag k="name:no" v="Trøndelag fylke" />
		<tag k="name:sma" v="Trööndelagen fylhke" />
		<tag k="ssr:date" v="2018-06-27" />
		<tag k="ssr:gruppe" v="administrativeIndelinger" />
		<tag k="ssr:hovedgruppe" v="offentligAdministrasjon" />
		<tag k="ssr:stedsnr" v="980645" />
		<tag k="ssr:type" v="fylke" />
	</node>
	<node id="-890579" lat="63.5518499969" lon="10.8754555617">
		<tag k="name" v="Saltøy" />
		<tag k="old_name" v="Saltøya" />
		<tag k="ssr:date" v="2018-01-09" />
		<tag k="ssr:gruppe" v="navigasjon" />
		<tag k="ssr:hovedgruppe" v="infrastruktur" />
		<tag k="ssr:stedsnr" v="335938" />
		<tag k="ssr:type" v="fyrlykt" />
	</node>
	<node id="-890962" lat="63.471266671" lon="10.8292500078">
		<tag k="name" v="Kleiva" />
		<tag k="ssr:date" v="2018-01-09" />
		<tag k="ssr:gruppe" v="veg" />
		<tag k="ssr:hovedgruppe" v="infrastruktur" />
		<tag k="ssr:stedsnr" v="331814" />
		<tag k="ssr:type" v="vegstrekning" />
	</node>
	<node id="-892216" lat="63.4648361144" lon="10.8819388816">
		<tag k="name" v="Stjørdal havn" />
		<tag k="ssr:date" v="2018-01-09" />
		<tag k="ssr:gruppe" v="navigasjon" />
		<tag k="ssr:hovedgruppe" v="infrastruktur" />
		<tag k="ssr:stedsnr" v="894481" />
		<tag k="ssr:type" v="fyrlykt" />
	</node>
	<node id="-892044" lat="63.4700472204" lon="10.9126000047">
		<tag k="name" v="Stjørdal kommune" />
		<tag k="ssr:date" v="2018-01-09" />
		<tag k="ssr:gruppe" v="administrativeIndelinger" />
		<tag k="ssr:hovedgruppe" v="offentligAdministrasjon" />
		<tag k="ssr:stedsnr" v="207885" />
		<tag k="ssr:type" v="kommune" />
	</node>
	<node id="-893666" lat="63.4656703586" lon="11.1604055728">
		<tag k="name" v="Trelstadvegen" />
		<tag k="ssr:date" v="2019-05-30" />
		<tag k="ssr:gruppe" v="veg" />
		<tag k="ssr:hovedgruppe" v="infrastruktur" />
		<tag k="ssr:stedsnr" v="1030507" />
		<tag k="ssr:type" v="adressenavn" />
	</node>
</osm>
