<?xml version="1.0" encoding="UTF-8"?>
<osm generator="osmapis" version="0.6">
	<node id="-97917" lat="62.2547805553" lon="10.7412500065">
		<tag k="name" v="Østre Brekkvei" />
		<tag k="ssr:date" v="2016-05-10" />
		<tag k="ssr:gruppe" v="veg" />
		<tag k="ssr:hovedgruppe" v="infrastruktur" />
		<tag k="ssr:stedsnr" v="597007" />
		<tag k="ssr:type" v="vegstrekning" />
	</node>
	<node id="-96122" lat="62.3139805576" lon="10.7494249961">
		<tag k="name" v="Kvannrøstvegen" />
		<tag k="ssr:date" v="2016-05-10" />
		<tag k="ssr:gruppe" v="veg" />
		<tag k="ssr:hovedgruppe" v="infrastruktur" />
		<tag k="ssr:stedsnr" v="294109" />
		<tag k="ssr:type" v="vegstrekning" />
	</node>
	<node id="-97529" lat="62.2236388907" lon="10.6702083342">
		<tag k="name" v="Djupgrubveien" />
		<tag k="ssr:date" v="2016-05-10" />
		<tag k="ssr:gruppe" v="veg" />
		<tag k="ssr:hovedgruppe" v="infrastruktur" />
		<tag k="ssr:stedsnr" v="416733" />
		<tag k="ssr:type" v="vegstrekning" />
	</node>
	<node id="-96886" lat="62.3406861087" lon="10.7166194515">
		<tag k="name" v="Langsæterlivegen" />
		<tag k="ssr:date" v="2016-05-10" />
		<tag k="ssr:gruppe" v="veg" />
		<tag k="ssr:hovedgruppe" v="infrastruktur" />
		<tag k="ssr:stedsnr" v="112099" />
		<tag k="ssr:type" v="vegstrekning" />
	</node>
	<node id="-98158" lat="62.6162777822" lon="10.3383027786">
		<tag k="name" v="Sverjesjøliveien" />
		<tag k="ssr:date" v="2016-05-10" />
		<tag k="ssr:gruppe" v="veg" />
		<tag k="ssr:hovedgruppe" v="infrastruktur" />
		<tag k="ssr:stedsnr" v="658961" />
		<tag k="ssr:type" v="vegstrekning" />
	</node>
	<node id="-99069" lat="62.5739583313" lon="10.526577785">
		<tag k="name" v="Grønntjønnveien" />
		<tag k="ssr:date" v="2016-05-11" />
		<tag k="ssr:gruppe" v="veg" />
		<tag k="ssr:hovedgruppe" v="infrastruktur" />
		<tag k="ssr:stedsnr" v="961866" />
		<tag k="ssr:type" v="vegstrekning" />
	</node>
	<node id="-97512" lat="62.319186115" lon="10.6934972129">
		<tag k="name" v="Moanlangsætervegen" />
		<tag k="ssr:date" v="2016-05-10" />
		<tag k="ssr:gruppe" v="veg" />
		<tag k="ssr:hovedgruppe" v="infrastruktur" />
		<tag k="ssr:stedsnr" v="416165" />
		<tag k="ssr:type" v="vegstrekning" />
	</node>
	<node id="-96484" lat="62.2570527804" lon="10.7272194357">
		<tag k="name" v="Nedre Brekkvei" />
		<tag k="ssr:date" v="2016-05-10" />
		<tag k="ssr:gruppe" v="veg" />
		<tag k="ssr:hovedgruppe" v="infrastruktur" />
		<tag k="ssr:stedsnr" v="476009" />
		<tag k="ssr:type" v="vegstrekning" />
	</node>
	<node id="-97634" lat="62.2738638867" lon="10.7762611014">
		<tag k="name" v="Tynset kommune" />
		<tag k="ssr:date" v="2016-05-10" />
		<tag k="ssr:gruppe" v="administrativeIndelinger" />
		<tag k="ssr:hovedgruppe" v="offentligAdministrasjon" />
		<tag k="ssr:stedsnr" v="449122" />
		<tag k="ssr:type" v="kommune" />
	</node>
	<node id="-96736" lat="62.4117083305" lon="10.5845500045">
		<tag k="name" v="Ryanvegen" />
		<tag k="ssr:date" v="2016-05-10" />
		<tag k="ssr:gruppe" v="veg" />
		<tag k="ssr:hovedgruppe" v="infrastruktur" />
		<tag k="ssr:stedsnr" v="52609" />
		<tag k="ssr:type" v="vegstrekning" />
	</node>
	<node id="-99158" lat="60.5908609473" lon="9.63819281559">
		<tag k="fixme" v="multiple name tags, choose one and add the other to alt_name" />
		<tag k="name" v="Austlandet;Østlandet" />
		<tag k="ssr:date" v="2018-01-09" />
		<tag k="ssr:gruppe" v="administrativeIndelinger" />
		<tag k="ssr:hovedgruppe" v="offentligAdministrasjon" />
		<tag k="ssr:stedsnr" v="974775" />
		<tag k="ssr:type" v="annenAdministrativInndeling" />
	</node>
	<node id="-98507" lat="62.4303750029" lon="10.4055166723">
		<tag k="name" v="Mosvegen" />
		<tag k="ssr:date" v="2016-05-11" />
		<tag k="ssr:gruppe" v="veg" />
		<tag k="ssr:hovedgruppe" v="infrastruktur" />
		<tag k="ssr:stedsnr" v="779972" />
		<tag k="ssr:type" v="vegstrekning" />
	</node>
	<node id="-97482" lat="62.5727166675" lon="10.4785416596">
		<tag k="name" v="Svartsjøliveien" />
		<tag k="ssr:date" v="2016-05-10" />
		<tag k="ssr:gruppe" v="veg" />
		<tag k="ssr:hovedgruppe" v="infrastruktur" />
		<tag k="ssr:stedsnr" v="415861" />
		<tag k="ssr:type" v="vegstrekning" />
	</node>
	<node id="-97481" lat="62.515022223" lon="10.3861972154">
		<tag k="name" v="Gamleveien" />
		<tag k="ssr:date" v="2016-05-10" />
		<tag k="ssr:gruppe" v="veg" />
		<tag k="ssr:hovedgruppe" v="infrastruktur" />
		<tag k="ssr:stedsnr" v="415827" />
		<tag k="ssr:type" v="vegstrekning" />
	</node>
	<node id="-98501" lat="62.5904500023" lon="10.1547527807">
		<tag k="name" v="Innerdalsveien" />
		<tag k="ssr:date" v="2016-05-11" />
		<tag k="ssr:gruppe" v="veg" />
		<tag k="ssr:hovedgruppe" v="infrastruktur" />
		<tag k="ssr:stedsnr" v="779855" />
		<tag k="ssr:type" v="vegstrekning" />
	</node>
	<node id="-97469" lat="62.2922166653" lon="10.8714388945">
		<tag k="name" v="Månveien" />
		<tag k="ssr:date" v="2016-05-10" />
		<tag k="ssr:gruppe" v="veg" />
		<tag k="ssr:hovedgruppe" v="infrastruktur" />
		<tag k="ssr:stedsnr" v="415320" />
		<tag k="ssr:type" v="vegstrekning" />
	</node>
	<node id="-96167" lat="62.2683027763" lon="10.8476388917">
		<tag k="name" v="Brydalsveien" />
		<tag k="ssr:date" v="2016-05-10" />
		<tag k="ssr:gruppe" v="veg" />
		<tag k="ssr:hovedgruppe" v="infrastruktur" />
		<tag k="ssr:stedsnr" v="295300" />
		<tag k="ssr:type" v="vegstrekning" />
	</node>
	<node id="-97303" lat="62.5520861083" lon="10.3570694367">
		<tag k="name" v="Grøtliveien" />
		<tag k="ssr:date" v="2016-05-10" />
		<tag k="ssr:gruppe" v="veg" />
		<tag k="ssr:hovedgruppe" v="infrastruktur" />
		<tag k="ssr:stedsnr" v="233243" />
		<tag k="ssr:type" v="vegstrekning" />
	</node>
	<node id="-98704" lat="62.3106777789" lon="10.7533166732">
		<tag k="name" v="Slåttåvegen" />
		<tag k="ssr:date" v="2016-05-11" />
		<tag k="ssr:gruppe" v="veg" />
		<tag k="ssr:hovedgruppe" v="infrastruktur" />
		<tag k="ssr:stedsnr" v="841130" />
		<tag k="ssr:type" v="vegstrekning" />
	</node>
	<node id="-98188" lat="62.2391666685" lon="10.7822305647">
		<tag k="name" v="Skarvangvegen" />
		<tag k="ssr:date" v="2016-05-10" />
		<tag k="ssr:gruppe" v="veg" />
		<tag k="ssr:hovedgruppe" v="infrastruktur" />
		<tag k="ssr:stedsnr" v="659957" />
		<tag k="ssr:type" v="vegstrekning" />
	</node>
	<node id="-96905" lat="62.215911108" lon="10.7765527689">
		<tag k="name" v="Gamle Tylldalsvegen" />
		<tag k="ssr:date" v="2016-05-10" />
		<tag k="ssr:gruppe" v="veg" />
		<tag k="ssr:hovedgruppe" v="infrastruktur" />
		<tag k="ssr:stedsnr" v="112908" />
		<tag k="ssr:type" v="vegstrekning" />
	</node>
	<node id="-99077" lat="62.2579361136" lon="10.7550722226">
		<tag k="name" v="Karusellsvingen" />
		<tag k="ssr:date" v="2016-05-11" />
		<tag k="ssr:gruppe" v="veg" />
		<tag k="ssr:hovedgruppe" v="infrastruktur" />
		<tag k="ssr:stedsnr" v="962011" />
		<tag k="ssr:type" v="vegstrekning" />
	</node>
	<node id="-97283" lat="62.3012111156" lon="10.7556388844">
		<tag k="name" v="Såttåveien" />
		<tag k="ssr:date" v="2016-05-10" />
		<tag k="ssr:gruppe" v="veg" />
		<tag k="ssr:hovedgruppe" v="infrastruktur" />
		<tag k="ssr:stedsnr" v="233101" />
		<tag k="ssr:type" v="vegstrekning" />
	</node>
</osm>
