<?xml version="1.0" encoding="UTF-8"?>
<<<<<<< HEAD
<osm version="0.6" generator="osmapis">
	<node lat="63.810022225405426" lon="9.596749999005716" id="-32068">
		<tag k="old_name" v="Valsholmskjær" />
=======
<osm generator="osmapis" version="0.6">
	<node id="-812808" lat="63.8100222254" lon="9.59674999901">
		<tag k="old_name" v="Valsholmskjær" />
		<tag k="ssr:date" v="2019-12-27" />
		<tag k="ssr:gruppe" v="navigasjon" />
		<tag k="ssr:hovedgruppe" v="infrastruktur" />
		<tag k="ssr:stedsnr" v="455147" />
		<tag k="ssr:type" v="fyrlykt" />
	</node>
	<node id="-814781" lat="63.8122777759" lon="9.5826833313">
		<tag k="old_name" v="Lysholmflu lysbøye;Valsholmflu Lysbøye" />
>>>>>>> e1d4bc35ff8a6074a6f2e91616a996b547c36f15
		<tag k="ssr:date" v="2019-12-27" />
		<tag k="ssr:gruppe" v="navigasjon" />
		<tag k="ssr:hovedgruppe" v="infrastruktur" />
		<tag k="ssr:stedsnr" v="455147" />
		<tag k="ssr:type" v="fyrlykt" />
	</node>
<<<<<<< HEAD
	<node lat="63.819925000570166" lon="9.608416671905244" id="-32236">
=======
	<node id="-812996" lat="63.8199250006" lon="9.60841667191">
>>>>>>> e1d4bc35ff8a6074a6f2e91616a996b547c36f15
		<tag k="old_name" v="Hauråsskjær;Hauråsskjeret" />
		<tag k="ssr:date" v="2019-12-27" />
		<tag k="ssr:gruppe" v="navigasjon" />
		<tag k="ssr:hovedgruppe" v="infrastruktur" />
		<tag k="ssr:stedsnr" v="316702" />
		<tag k="ssr:type" v="fyrlykt" />
	</node>
<<<<<<< HEAD
	<node lat="63.81227777590695" lon="9.5826833313049" id="-33758">
		<tag k="old_name" v="Lysholmflu lysbøye;Valsholmflu Lysbøye" />
		<tag k="ssr:date" v="2019-12-27" />
		<tag k="ssr:gruppe" v="navigasjon" />
		<tag k="ssr:hovedgruppe" v="infrastruktur" />
		<tag k="ssr:stedsnr" v="213167" />
		<tag k="ssr:type" v="fyrlykt" />
=======
	<node id="-815378" lat="63.8493583293" lon="9.75236111687">
		<tag k="loc_name" v="Ruth Sandnes vei;Ruth Sandnes' vei" />
		<tag k="ssr:date" v="2019-12-27" />
		<tag k="ssr:gruppe" v="veg" />
		<tag k="ssr:hovedgruppe" v="infrastruktur" />
		<tag k="ssr:stedsnr" v="601846" />
		<tag k="ssr:type" v="adressenavn" />
>>>>>>> e1d4bc35ff8a6074a6f2e91616a996b547c36f15
	</node>
</osm>
