<?xml version="1.0" encoding="UTF-8"?>
<osm generator="osmapis" version="0.6">
	<node id="-80512" lat="63.7267748156" lon="9.53094283054">
		<tag k="name" v="Kjeungskjæret fyr" />
		<tag k="ssr:date" v="2019-12-27" />
		<tag k="ssr:gruppe" v="navigasjon" />
		<tag k="ssr:hovedgruppe" v="infrastruktur" />
		<tag k="ssr:stedsnr" v="498016" />
		<tag k="ssr:type" v="fyrstasjon" />
	</node>
	<node id="-82687" lat="63.6500222232" lon="9.56580276901">
		<tag k="name" v="Beian" />
		<tag k="ssr:date" v="2019-12-27" />
		<tag k="ssr:gruppe" v="navigasjon" />
		<tag k="ssr:hovedgruppe" v="infrastruktur" />
		<tag k="ssr:stedsnr" v="558055" />
		<tag k="ssr:type" v="fyrlykt" />
	</node>
	<node id="-83070" lat="63.8964554381" lon="9.77665734911">
		<tag k="name" v="Treholmen" />
		<tag k="old_name" v="Treholmen lykt" />
		<tag k="ssr:date" v="2020-09-10" />
		<tag k="ssr:gruppe" v="navigasjon" />
		<tag k="ssr:hovedgruppe" v="infrastruktur" />
		<tag k="ssr:stedsnr" v="758682" />
		<tag k="ssr:type" v="fyrlykt" />
	</node>
	<node id="-83349" lat="63.6844178021" lon="9.65460359333">
		<tag k="name" v="Internatveien" />
		<tag k="ssr:date" v="2019-12-27" />
		<tag k="ssr:gruppe" v="veg" />
		<tag k="ssr:hovedgruppe" v="infrastruktur" />
		<tag k="ssr:stedsnr" v="1021339" />
		<tag k="ssr:type" v="adressenavn" />
	</node>
	<node id="-82556" lat="63.8442777792" lon="9.70645556161">
		<tag k="name" v="Halvardvegen" />
		<tag k="ssr:date" v="2019-12-27" />
		<tag k="ssr:gruppe" v="veg" />
		<tag k="ssr:hovedgruppe" v="infrastruktur" />
		<tag k="ssr:stedsnr" v="394745" />
		<tag k="ssr:type" v="vegstrekning" />
	</node>
	<node id="-82138" lat="63.8693833306" lon="9.74840000977">
		<tag k="name" v="Valsøya" />
		<tag k="ssr:date" v="2019-12-27" />
		<tag k="ssr:gruppe" v="veg" />
		<tag k="ssr:hovedgruppe" v="infrastruktur" />
		<tag k="ssr:stedsnr" v="181636" />
		<tag k="ssr:type" v="adressetilleggsnavn" />
	</node>
	<node id="-83028" lat="63.9304111105" lon="9.78057778172">
		<tag k="name" v="Nauteflua" />
		<tag k="ssr:date" v="2019-12-27" />
		<tag k="ssr:gruppe" v="navigasjon" />
		<tag k="ssr:hovedgruppe" v="infrastruktur" />
		<tag k="ssr:stedsnr" v="758012" />
		<tag k="ssr:type" v="lanterne" />
	</node>
	<node id="-82231" lat="63.8498942806" lon="9.69366790916">
		<tag k="name" v="Haldorhamn" />
		<tag k="ssr:date" v="2020-09-10" />
		<tag k="ssr:gruppe" v="navigasjon" />
		<tag k="ssr:hovedgruppe" v="infrastruktur" />
		<tag k="ssr:stedsnr" v="212747" />
		<tag k="ssr:type" v="fyrlykt" />
	</node>
	<node id="-82217" lat="63.8650944429" lon="9.95143611735">
		<tag k="name" v="Melvassvegen" />
		<tag k="ssr:date" v="2019-12-27" />
		<tag k="ssr:gruppe" v="veg" />
		<tag k="ssr:hovedgruppe" v="infrastruktur" />
		<tag k="ssr:stedsnr" v="212552" />
		<tag k="ssr:type" v="vegstrekning" />
	</node>
	<node id="-83187" lat="63.6857333342" lon="9.66632778594">
		<tag k="name" v="Ørland kommune" />
		<tag k="ssr:date" v="2019-12-27" />
		<tag k="ssr:gruppe" v="administrativeIndelinger" />
		<tag k="ssr:hovedgruppe" v="offentligAdministrasjon" />
		<tag k="ssr:stedsnr" v="814159" />
		<tag k="ssr:type" v="kommune" />
	</node>
	<node id="-83347" lat="63.8435828848" lon="10.211674742">
		<tag k="name" v="Austdalsveien" />
		<tag k="ssr:date" v="2019-12-27" />
		<tag k="ssr:gruppe" v="veg" />
		<tag k="ssr:hovedgruppe" v="infrastruktur" />
		<tag k="ssr:stedsnr" v="1020925" />
		<tag k="ssr:type" v="adressenavn" />
	</node>
	<node id="-82600" lat="63.8122777759" lon="9.5826833313">
		<tag k="name" v="Valsholmflua" />
		<tag k="ssr:date" v="2019-12-27" />
		<tag k="ssr:gruppe" v="navigasjon" />
		<tag k="ssr:hovedgruppe" v="infrastruktur" />
		<tag k="ssr:stedsnr" v="406082" />
		<tag k="ssr:type" v="fyrlykt" />
	</node>
	<node id="-82535" lat="63.769225003" lon="9.7772444517">
		<tag k="name" v="Valheivegen" />
		<tag k="ssr:date" v="2019-12-27" />
		<tag k="ssr:gruppe" v="veg" />
		<tag k="ssr:hovedgruppe" v="infrastruktur" />
		<tag k="ssr:stedsnr" v="394469" />
		<tag k="ssr:type" v="vegstrekning" />
	</node>
	<node id="-83303" lat="63.8432685224" lon="9.64731026745">
		<tag k="name" v="Kråktaren" />
		<tag k="ssr:date" v="2020-09-10" />
		<tag k="ssr:gruppe" v="navigasjon" />
		<tag k="ssr:hovedgruppe" v="infrastruktur" />
		<tag k="ssr:stedsnr" v="862661" />
		<tag k="ssr:type" v="fyrlykt" />
	</node>
	<node id="-83345" lat="63.8783809403" lon="9.80966508537">
		<tag k="name" v="Madsøya" />
		<tag k="ssr:date" v="2019-12-27" />
		<tag k="ssr:gruppe" v="veg" />
		<tag k="ssr:hovedgruppe" v="infrastruktur" />
		<tag k="ssr:stedsnr" v="1020591" />
		<tag k="ssr:type" v="adressenavn" />
	</node>
	<node id="-82452" lat="63.9418987845" lon="9.77159101569">
		<tag k="name" v="Asenvågsøya fyr" />
		<tag k="ssr:date" v="2019-12-27" />
		<tag k="ssr:gruppe" v="navigasjon" />
		<tag k="ssr:hovedgruppe" v="infrastruktur" />
		<tag k="ssr:stedsnr" v="377533" />
		<tag k="ssr:type" v="fyrstasjon" />
	</node>
	<node id="-80272" lat="63.903705555" lon="9.84862500856">
		<tag k="name" v="Skjelholmen" />
		<tag k="ssr:date" v="2019-12-27" />
		<tag k="ssr:gruppe" v="navigasjon" />
		<tag k="ssr:hovedgruppe" v="infrastruktur" />
		<tag k="ssr:stedsnr" v="455073" />
		<tag k="ssr:type" v="fyrlykt" />
	</node>
	<node id="-81945" lat="63.73444722" lon="9.64890555655">
		<tag k="name" v="Rabben" />
		<tag k="ssr:date" v="2019-12-27" />
		<tag k="ssr:gruppe" v="veg" />
		<tag k="ssr:hovedgruppe" v="infrastruktur" />
		<tag k="ssr:stedsnr" v="120683" />
		<tag k="ssr:type" v="adressetilleggsnavn" />
	</node>
	<node id="-82780" lat="63.8866166627" lon="9.66518610788">
		<tag k="name" v="Rødgjæsingen" />
		<tag k="ssr:date" v="2019-12-27" />
		<tag k="ssr:gruppe" v="navigasjon" />
		<tag k="ssr:hovedgruppe" v="infrastruktur" />
		<tag k="ssr:stedsnr" v="576442" />
		<tag k="ssr:type" v="fyrlykt" />
	</node>
	<node id="-81883" lat="63.8136492664" lon="9.65471375378">
		<tag k="name" v="Valsfjorden" />
		<tag k="old_name" v="Valsfjorden lykt" />
		<tag k="ssr:date" v="2020-09-10" />
		<tag k="ssr:gruppe" v="navigasjon" />
		<tag k="ssr:hovedgruppe" v="infrastruktur" />
		<tag k="ssr:stedsnr" v="91791" />
		<tag k="ssr:type" v="fyrlykt" />
	</node>
	<node id="-80986" lat="63.8885611106" lon="9.81053334204">
		<tag k="name" v="Skjørøya" />
		<tag k="ssr:date" v="2019-12-27" />
		<tag k="ssr:gruppe" v="navigasjon" />
		<tag k="ssr:hovedgruppe" v="infrastruktur" />
		<tag k="ssr:stedsnr" v="636519" />
		<tag k="ssr:type" v="fyrlykt" />
	</node>
	<node id="-83343" lat="63.8875412018" lon="9.79875104847">
		<tag k="name" v="Skjørøya" />
		<tag k="ssr:date" v="2019-12-27" />
		<tag k="ssr:gruppe" v="veg" />
		<tag k="ssr:hovedgruppe" v="infrastruktur" />
		<tag k="ssr:stedsnr" v="1020270" />
		<tag k="ssr:type" v="adressenavn" />
	</node>
	<node id="-82767" lat="63.7699222227" lon="9.79315555261">
		<tag k="name" v="Ratdalsvegen" />
		<tag k="ssr:date" v="2019-12-27" />
		<tag k="ssr:gruppe" v="veg" />
		<tag k="ssr:hovedgruppe" v="infrastruktur" />
		<tag k="ssr:stedsnr" v="576348" />
		<tag k="ssr:type" v="vegstrekning" />
	</node>
	<node id="-81110" lat="63.7140861088" lon="9.52687776978">
		<tag k="name" v="Rugmelsflua" />
		<tag k="ssr:date" v="2019-12-27" />
		<tag k="ssr:gruppe" v="navigasjon" />
		<tag k="ssr:hovedgruppe" v="infrastruktur" />
		<tag k="ssr:stedsnr" v="881998" />
		<tag k="ssr:type" v="fyrlykt" />
	</node>
	<node id="-80596" lat="63.7954194469" lon="9.43361666053">
		<tag k="name" v="Fårøya" />
		<tag k="old_name" v="Farøy lykt;Fårøy" />
		<tag k="ssr:date" v="2019-12-27" />
		<tag k="ssr:gruppe" v="navigasjon" />
		<tag k="ssr:hovedgruppe" v="infrastruktur" />
		<tag k="ssr:stedsnr" v="515178" />
		<tag k="ssr:type" v="fyrlykt" />
	</node>
	<node id="-83342" lat="64.0144468016" lon="11.4818866293">
		<tag k="name" v="Trøndelag fylke - Trööndelagen fylhke" />
		<tag k="name:no" v="Trøndelag fylke" />
		<tag k="name:sma" v="Trööndelagen fylhke" />
		<tag k="ssr:date" v="2020-01-13" />
		<tag k="ssr:gruppe" v="administrativeIndelinger" />
		<tag k="ssr:hovedgruppe" v="offentligAdministrasjon" />
		<tag k="ssr:stedsnr" v="980645" />
		<tag k="ssr:type" v="fylke" />
	</node>
	<node id="-83026" lat="63.8100638907" lon="9.85020000944">
		<tag k="name" v="Nordskogvegen" />
		<tag k="ssr:date" v="2019-12-27" />
		<tag k="ssr:gruppe" v="veg" />
		<tag k="ssr:hovedgruppe" v="infrastruktur" />
		<tag k="ssr:stedsnr" v="758006" />
		<tag k="ssr:type" v="vegstrekning" />
	</node>
	<node id="-83152" lat="63.6427572764" lon="9.47618905501">
		<tag k="name" v="Tjuvholmen" />
		<tag k="ssr:date" v="2020-09-10" />
		<tag k="ssr:gruppe" v="navigasjon" />
		<tag k="ssr:hovedgruppe" v="infrastruktur" />
		<tag k="ssr:stedsnr" v="802093" />
		<tag k="ssr:type" v="fyrlykt" />
	</node>
	<node id="-81592" lat="63.8528975411" lon="9.77727030176">
		<tag k="name" v="Hvilebergveien" />
		<tag k="ssr:date" v="2019-12-27" />
		<tag k="ssr:gruppe" v="veg" />
		<tag k="ssr:hovedgruppe" v="infrastruktur" />
		<tag k="ssr:stedsnr" v="1020533" />
		<tag k="ssr:type" v="adressenavn" />
	</node>
	<node id="-81997" lat="63.9323388909" lon="9.77094443958">
		<tag k="name" v="Nautsundet" />
		<tag k="ssr:date" v="2019-12-27" />
		<tag k="ssr:gruppe" v="navigasjon" />
		<tag k="ssr:hovedgruppe" v="infrastruktur" />
		<tag k="ssr:stedsnr" v="151028" />
		<tag k="ssr:type" v="lanterne" />
	</node>
	<node id="-82763" lat="63.7666833366" lon="9.84932777743">
		<tag k="name" v="Steinvegen" />
		<tag k="ssr:date" v="2019-12-27" />
		<tag k="ssr:gruppe" v="veg" />
		<tag k="ssr:hovedgruppe" v="infrastruktur" />
		<tag k="ssr:stedsnr" v="576332" />
		<tag k="ssr:type" v="vegstrekning" />
	</node>
	<node id="-81482" lat="63.7838166633" lon="9.54614999418">
		<tag k="name" v="Flutaren" />
		<tag k="ssr:date" v="2019-12-27" />
		<tag k="ssr:gruppe" v="navigasjon" />
		<tag k="ssr:hovedgruppe" v="infrastruktur" />
		<tag k="ssr:stedsnr" v="942226" />
		<tag k="ssr:type" v="fyrlykt" />
	</node>
	<node id="-80695" lat="63.862588885" lon="9.74970556495">
		<tag k="name" v="Vallersund gård" />
		<tag k="ssr:date" v="2019-12-27" />
		<tag k="ssr:gruppe" v="veg" />
		<tag k="ssr:hovedgruppe" v="infrastruktur" />
		<tag k="ssr:stedsnr" v="667593" />
		<tag k="ssr:type" v="adressetilleggsnavn" />
	</node>
	<node id="-83214" lat="63.7580583341" lon="9.78744444377">
		<tag k="name" v="Sjøvegen" />
		<tag k="ssr:date" v="2019-12-27" />
		<tag k="ssr:gruppe" v="veg" />
		<tag k="ssr:hovedgruppe" v="infrastruktur" />
		<tag k="ssr:stedsnr" v="819482" />
		<tag k="ssr:type" v="vegstrekning" />
	</node>
	<node id="-80694" lat="63.8446750011" lon="9.73666111591">
		<tag k="name" v="Kvenngjerdet" />
		<tag k="ssr:date" v="2019-12-27" />
		<tag k="ssr:gruppe" v="veg" />
		<tag k="ssr:hovedgruppe" v="infrastruktur" />
		<tag k="ssr:stedsnr" v="667590" />
		<tag k="ssr:type" v="adressetilleggsnavn" />
	</node>
	<node id="-82880" lat="63.8110647719" lon="9.37485367763">
		<tag k="name" v="Tarva" />
		<tag k="ssr:date" v="2020-09-10" />
		<tag k="ssr:gruppe" v="navigasjon" />
		<tag k="ssr:hovedgruppe" v="infrastruktur" />
		<tag k="ssr:stedsnr" v="619690" />
		<tag k="ssr:type" v="fyrlykt" />
	</node>
	<node id="-82371" lat="63.7970361156" lon="9.57908055506">
		<tag k="name" v="Vettabåen" />
		<tag k="ssr:date" v="2019-12-27" />
		<tag k="ssr:gruppe" v="navigasjon" />
		<tag k="ssr:hovedgruppe" v="infrastruktur" />
		<tag k="ssr:stedsnr" v="334146" />
		<tag k="ssr:type" v="fyrlykt" />
	</node>
	<node id="-80565" lat="63.8762222245" lon="9.76280832334">
		<tag k="name" v="Svinøyflua" />
		<tag k="ssr:date" v="2019-12-27" />
		<tag k="ssr:gruppe" v="navigasjon" />
		<tag k="ssr:hovedgruppe" v="infrastruktur" />
		<tag k="ssr:stedsnr" v="394613" />
		<tag k="ssr:type" v="fyrlykt" />
	</node>
	<node id="-81539" lat="63.768655553" lon="9.80743888576">
		<tag k="name" v="Elglausfaret" />
		<tag k="ssr:date" v="2019-12-27" />
		<tag k="ssr:gruppe" v="veg" />
		<tag k="ssr:hovedgruppe" v="infrastruktur" />
		<tag k="ssr:stedsnr" v="880483" />
		<tag k="ssr:type" v="vegstrekning" />
	</node>
	<node id="-83259" lat="63.9587888924" lon="9.54285278145">
		<tag k="name" v="Store Flatholmen" />
		<tag k="ssr:date" v="2019-12-27" />
		<tag k="ssr:gruppe" v="navigasjon" />
		<tag k="ssr:hovedgruppe" v="infrastruktur" />
		<tag k="ssr:stedsnr" v="819979" />
		<tag k="ssr:type" v="fyrlykt" />
	</node>
	<node id="-81464" lat="63.7285999996" lon="9.58486666105">
		<tag k="name" v="Uthaug" />
		<tag k="ssr:date" v="2019-12-27" />
		<tag k="ssr:gruppe" v="navigasjon" />
		<tag k="ssr:hovedgruppe" v="infrastruktur" />
		<tag k="ssr:stedsnr" v="941340" />
		<tag k="ssr:type" v="fyrlykt" />
	</node>
	<node id="-81591" lat="63.8043444047" lon="10.1644673417">
		<tag k="name" v="Høgsetåsstien" />
		<tag k="ssr:date" v="2019-12-27" />
		<tag k="ssr:gruppe" v="veg" />
		<tag k="ssr:hovedgruppe" v="infrastruktur" />
		<tag k="ssr:stedsnr" v="1020514" />
		<tag k="ssr:type" v="adressenavn" />
	</node>
	<node id="-81590" lat="63.8364816944" lon="9.50200374406">
		<tag k="name" v="Tryggholmen" />
		<tag k="ssr:date" v="2019-12-27" />
		<tag k="ssr:gruppe" v="veg" />
		<tag k="ssr:hovedgruppe" v="infrastruktur" />
		<tag k="ssr:stedsnr" v="1020317" />
		<tag k="ssr:type" v="adressenavn" />
	</node>
	<node id="-81589" lat="63.8700234155" lon="9.77637227305">
		<tag k="name" v="Tranøya" />
		<tag k="ssr:date" v="2019-12-27" />
		<tag k="ssr:gruppe" v="veg" />
		<tag k="ssr:hovedgruppe" v="infrastruktur" />
		<tag k="ssr:stedsnr" v="1020315" />
		<tag k="ssr:type" v="adressenavn" />
	</node>
	<node id="-83358" lat="63.7282408055" lon="9.60343067654">
		<tag k="name" v="Likskjærveien" />
		<tag k="ssr:date" v="2019-12-27" />
		<tag k="ssr:gruppe" v="veg" />
		<tag k="ssr:hovedgruppe" v="infrastruktur" />
		<tag k="ssr:stedsnr" v="1072737" />
		<tag k="ssr:type" v="adressenavn" />
	</node>
	<node id="-82610" lat="63.7028943671" lon="9.51569911543">
		<tag k="name" v="Ribeflua" />
		<tag k="ssr:date" v="2020-09-10" />
		<tag k="ssr:gruppe" v="navigasjon" />
		<tag k="ssr:hovedgruppe" v="infrastruktur" />
		<tag k="ssr:stedsnr" v="437035" />
		<tag k="ssr:type" v="fyrlykt" />
	</node>
	<node id="-82611" lat="63.705861107" lon="9.62630000378">
		<tag k="name" v="Ørlandet" />
		<tag k="ssr:date" v="2019-12-27" />
		<tag k="ssr:gruppe" v="terrengområder" />
		<tag k="ssr:hovedgruppe" v="terreng" />
		<tag k="ssr:stedsnr" v="437037" />
		<tag k="ssr:type" v="landskapsområde" />
	</node>
	<node id="-81839" lat="63.7524138889" lon="9.69494166607">
		<tag k="name" v="Nervikhammeren" />
		<tag k="old_name" v="Nerviklykta" />
		<tag k="ssr:date" v="2019-12-27" />
		<tag k="ssr:gruppe" v="navigasjon" />
		<tag k="ssr:hovedgruppe" v="infrastruktur" />
		<tag k="ssr:stedsnr" v="91411" />
		<tag k="ssr:type" v="fyrlykt" />
	</node>
	<node id="-82446" lat="63.7001583305" lon="9.44969999629">
		<tag k="name" v="Sandholmen" />
		<tag k="ssr:date" v="2019-12-27" />
		<tag k="ssr:gruppe" v="navigasjon" />
		<tag k="ssr:hovedgruppe" v="infrastruktur" />
		<tag k="ssr:stedsnr" v="376038" />
		<tag k="ssr:type" v="fyrlykt" />
	</node>
	<node id="-82872" lat="63.9103913301" lon="9.76995662011">
		<tag k="name" v="Oddtaren" />
		<tag k="ssr:date" v="2020-09-10" />
		<tag k="ssr:gruppe" v="navigasjon" />
		<tag k="ssr:hovedgruppe" v="infrastruktur" />
		<tag k="ssr:stedsnr" v="619634" />
		<tag k="ssr:type" v="fyrlykt" />
	</node>
	<node id="-82006" lat="63.8634472186" lon="9.96201667251">
		<tag k="name" v="Storvassvegen" />
		<tag k="ssr:date" v="2019-12-27" />
		<tag k="ssr:gruppe" v="veg" />
		<tag k="ssr:hovedgruppe" v="infrastruktur" />
		<tag k="ssr:stedsnr" v="151560" />
		<tag k="ssr:type" v="vegstrekning" />
	</node>
	<node id="-82481" lat="63.8568055548" lon="9.76804166786">
		<tag k="name" v="Fauskaskjæret" />
		<tag k="ssr:date" v="2019-12-27" />
		<tag k="ssr:gruppe" v="navigasjon" />
		<tag k="ssr:hovedgruppe" v="infrastruktur" />
		<tag k="ssr:stedsnr" v="394086" />
		<tag k="ssr:type" v="fyrlykt" />
	</node>
	<node id="-80566" lat="63.8748305582" lon="9.75723888166">
		<tag k="alt_name" v="Valsøyøra lykt" />
		<tag k="loc_name" v="Valsøyråsa" />
		<tag k="name" v="Valsøyøra" />
		<tag k="ssr:date" v="2019-12-27" />
		<tag k="ssr:gruppe" v="navigasjon" />
		<tag k="ssr:hovedgruppe" v="infrastruktur" />
		<tag k="ssr:stedsnr" v="394614" />
		<tag k="ssr:type" v="fyrlykt" />
	</node>
	<node id="-83362" lat="63.7421005624" lon="9.6891355012">
		<tag k="name" v="Branthaugen" />
		<tag k="ssr:date" v="2019-12-27" />
		<tag k="ssr:gruppe" v="veg" />
		<tag k="ssr:hovedgruppe" v="infrastruktur" />
		<tag k="ssr:stedsnr" v="1072742" />
		<tag k="ssr:type" v="adressenavn" />
	</node>
	<node id="-83361" lat="63.7070014009" lon="9.69729449051">
		<tag k="name" v="Skardbakken" />
		<tag k="ssr:date" v="2019-12-27" />
		<tag k="ssr:gruppe" v="veg" />
		<tag k="ssr:hovedgruppe" v="infrastruktur" />
		<tag k="ssr:stedsnr" v="1072741" />
		<tag k="ssr:type" v="adressenavn" />
	</node>
	<node id="-83360" lat="63.7234652322" lon="9.58628338565">
		<tag k="name" v="Stormoloen" />
		<tag k="ssr:date" v="2019-12-27" />
		<tag k="ssr:gruppe" v="veg" />
		<tag k="ssr:hovedgruppe" v="infrastruktur" />
		<tag k="ssr:stedsnr" v="1072740" />
		<tag k="ssr:type" v="adressenavn" />
	</node>
	<node id="-83359" lat="63.6986169931" lon="9.66737261214">
		<tag k="name" v="Budeibekken" />
		<tag k="name:no" v="Budeibekken" />
		<tag k="ssr:date" v="2019-12-27" />
		<tag k="ssr:gruppe" v="veg" />
		<tag k="ssr:hovedgruppe" v="infrastruktur" />
		<tag k="ssr:stedsnr" v="1072739" />
		<tag k="ssr:type" v="adressenavn" />
	</node>
	<node id="-80926" lat="63.891094039" lon="9.87393491138">
		<tag k="fixme" v="multiple name tags, choose one and add the other to alt_name" />
		<tag k="name" v="Lysøysundet lykt;Lysøysundet" />
		<tag k="ssr:date" v="2020-09-10" />
		<tag k="ssr:gruppe" v="navigasjon" />
		<tag k="ssr:hovedgruppe" v="infrastruktur" />
		<tag k="ssr:stedsnr" v="576522" />
		<tag k="ssr:type" v="fyrlykt" />
	</node>
	<node id="-83357" lat="63.7259064088" lon="9.70631049176">
		<tag k="name" v="Hammarmyrveien" />
		<tag k="ssr:date" v="2019-12-27" />
		<tag k="ssr:gruppe" v="veg" />
		<tag k="ssr:hovedgruppe" v="infrastruktur" />
		<tag k="ssr:stedsnr" v="1072738" />
		<tag k="ssr:type" v="adressenavn" />
	</node>
	<node id="-83356" lat="63.7071690182" lon="9.69891249732">
		<tag k="name" v="Skardet" />
		<tag k="ssr:date" v="2019-12-27" />
		<tag k="ssr:gruppe" v="veg" />
		<tag k="ssr:hovedgruppe" v="infrastruktur" />
		<tag k="ssr:stedsnr" v="1072735" />
		<tag k="ssr:type" v="adressenavn" />
	</node>
	<node id="-83355" lat="63.6918383376" lon="9.66481322168">
		<tag k="name" v="Fjæraveien" />
		<tag k="ssr:date" v="2019-12-27" />
		<tag k="ssr:gruppe" v="veg" />
		<tag k="ssr:hovedgruppe" v="infrastruktur" />
		<tag k="ssr:stedsnr" v="1072734" />
		<tag k="ssr:type" v="adressenavn" />
	</node>
	<node id="-83354" lat="63.7007477005" lon="9.67057898508">
		<tag k="name" v="Bruholmjordet" />
		<tag k="ssr:date" v="2019-12-27" />
		<tag k="ssr:gruppe" v="veg" />
		<tag k="ssr:hovedgruppe" v="infrastruktur" />
		<tag k="ssr:stedsnr" v="1072736" />
		<tag k="ssr:type" v="adressenavn" />
	</node>
	<node id="-83353" lat="63.7249909655" lon="9.7065334605">
		<tag k="name" v="Søtbergstubben" />
		<tag k="ssr:date" v="2019-12-27" />
		<tag k="ssr:gruppe" v="veg" />
		<tag k="ssr:hovedgruppe" v="infrastruktur" />
		<tag k="ssr:stedsnr" v="1072733" />
		<tag k="ssr:type" v="adressenavn" />
	</node>
	<node id="-83352" lat="63.685581508" lon="9.63905756199">
		<tag k="name" v="Ørland næringspark" />
		<tag k="ssr:date" v="2019-12-27" />
		<tag k="ssr:gruppe" v="veg" />
		<tag k="ssr:hovedgruppe" v="infrastruktur" />
		<tag k="ssr:stedsnr" v="1072435" />
		<tag k="ssr:type" v="adressenavn" />
	</node>
	<node id="-83351" lat="63.6812738113" lon="9.65751305963">
		<tag k="name" v="Gildeveien" />
		<tag k="ssr:date" v="2019-12-27" />
		<tag k="ssr:gruppe" v="veg" />
		<tag k="ssr:hovedgruppe" v="infrastruktur" />
		<tag k="ssr:stedsnr" v="1021684" />
		<tag k="ssr:type" v="adressenavn" />
	</node>
	<node id="-83350" lat="63.675921685" lon="9.66464958171">
		<tag k="name" v="Hovdtåveien" />
		<tag k="ssr:date" v="2019-12-27" />
		<tag k="ssr:gruppe" v="veg" />
		<tag k="ssr:hovedgruppe" v="infrastruktur" />
		<tag k="ssr:stedsnr" v="1021276" />
		<tag k="ssr:type" v="adressenavn" />
	</node>
	<node id="-80917" lat="63.7523416625" lon="9.78003611811">
		<tag k="name" v="Frødalvegen" />
		<tag k="ssr:date" v="2019-12-27" />
		<tag k="ssr:gruppe" v="veg" />
		<tag k="ssr:hovedgruppe" v="infrastruktur" />
		<tag k="ssr:stedsnr" v="576469" />
		<tag k="ssr:type" v="vegstrekning" />
	</node>
	<node id="-83348" lat="63.7559690228" lon="9.67223583316">
		<tag k="name" v="Bjugnholmen" />
		<tag k="ssr:date" v="2019-12-27" />
		<tag k="ssr:gruppe" v="veg" />
		<tag k="ssr:hovedgruppe" v="infrastruktur" />
		<tag k="ssr:stedsnr" v="1020940" />
		<tag k="ssr:type" v="adressenavn" />
	</node>
	<node id="-80403" lat="63.871817509" lon="9.71914154437">
		<tag k="name" v="Kvaløya" />
		<tag k="ssr:date" v="2020-09-10" />
		<tag k="ssr:gruppe" v="navigasjon" />
		<tag k="ssr:hovedgruppe" v="infrastruktur" />
		<tag k="ssr:stedsnr" v="273675" />
		<tag k="ssr:type" v="fyrlykt" />
	</node>
	<node id="-83346" lat="63.938900599" lon="9.76856102338">
		<tag k="name" v="Asen" />
		<tag k="ssr:date" v="2019-12-27" />
		<tag k="ssr:gruppe" v="veg" />
		<tag k="ssr:hovedgruppe" v="infrastruktur" />
		<tag k="ssr:stedsnr" v="1020885" />
		<tag k="ssr:type" v="adressenavn" />
	</node>
	<node id="-80913" lat="63.7556361076" lon="9.73340555026">
		<tag k="name" v="Høgvegen" />
		<tag k="ssr:date" v="2019-12-27" />
		<tag k="ssr:gruppe" v="veg" />
		<tag k="ssr:hovedgruppe" v="infrastruktur" />
		<tag k="ssr:stedsnr" v="576322" />
		<tag k="ssr:type" v="vegstrekning" />
	</node>
	<node id="-81424" lat="63.8402333313" lon="9.86050277557">
		<tag k="name" v="Audalsvegen" />
		<tag k="ssr:date" v="2019-12-27" />
		<tag k="ssr:gruppe" v="veg" />
		<tag k="ssr:hovedgruppe" v="infrastruktur" />
		<tag k="ssr:stedsnr" v="940552" />
		<tag k="ssr:type" v="vegstrekning" />
	</node>
	<node id="-81039" lat="63.7596527804" lon="9.68576388795">
		<tag k="name" v="Skorven" />
		<tag k="ssr:date" v="2019-12-27" />
		<tag k="ssr:gruppe" v="navigasjon" />
		<tag k="ssr:hovedgruppe" v="infrastruktur" />
		<tag k="ssr:stedsnr" v="880366" />
		<tag k="ssr:type" v="fyrlykt" />
	</node>
	<node id="-81678" lat="63.7597944415" lon="9.76021667642">
		<tag k="name" v="Gammelvegen" />
		<tag k="ssr:date" v="2019-12-27" />
		<tag k="ssr:gruppe" v="veg" />
		<tag k="ssr:hovedgruppe" v="infrastruktur" />
		<tag k="ssr:stedsnr" v="30463" />
		<tag k="ssr:type" v="vegstrekning" />
	</node>
	<node id="-82701" lat="63.830405557" lon="9.46441666302">
		<tag k="name" v="Kløvholmen" />
		<tag k="old_name" v="Klovhholmen lykt" />
		<tag k="ssr:date" v="2019-12-27" />
		<tag k="ssr:gruppe" v="navigasjon" />
		<tag k="ssr:hovedgruppe" v="infrastruktur" />
		<tag k="ssr:stedsnr" v="558715" />
		<tag k="ssr:type" v="fyrlykt" />
	</node>
	<node id="-80779" lat="63.8569638901" lon="9.85950276958">
		<tag k="name" v="Valen" />
		<tag k="ssr:date" v="2019-12-27" />
		<tag k="ssr:gruppe" v="veg" />
		<tag k="ssr:hovedgruppe" v="infrastruktur" />
		<tag k="ssr:stedsnr" v="545614" />
		<tag k="ssr:type" v="adressetilleggsnavn" />
	</node>
	<node id="-82057" lat="63.7617777753" lon="9.76377500117">
		<tag k="name" v="Fabrikkvegen" />
		<tag k="ssr:date" v="2019-12-27" />
		<tag k="ssr:gruppe" v="veg" />
		<tag k="ssr:hovedgruppe" v="infrastruktur" />
		<tag k="ssr:stedsnr" v="151483" />
		<tag k="ssr:type" v="vegstrekning" />
	</node>
	<node id="-83344" lat="63.8845339238" lon="9.87765430715">
		<tag k="name" v="Stubben" />
		<tag k="ssr:date" v="2019-12-27" />
		<tag k="ssr:gruppe" v="veg" />
		<tag k="ssr:hovedgruppe" v="infrastruktur" />
		<tag k="ssr:stedsnr" v="1020308" />
		<tag k="ssr:type" v="adressenavn" />
	</node>
	<node id="-80726" lat="63.7614798002" lon="9.45748548602">
		<tag k="name" v="Tørrskjæret" />
		<tag k="ssr:date" v="2020-09-10" />
		<tag k="ssr:gruppe" v="navigasjon" />
		<tag k="ssr:hovedgruppe" v="infrastruktur" />
		<tag k="ssr:stedsnr" v="680792" />
		<tag k="ssr:type" v="fyrlykt" />
	</node>
	<node id="-80002" lat="63.7596500038" lon="9.55106944653">
		<tag k="name" v="Bjugnskjæret" />
		<tag k="ssr:date" v="2019-12-27" />
		<tag k="ssr:gruppe" v="navigasjon" />
		<tag k="ssr:hovedgruppe" v="infrastruktur" />
		<tag k="ssr:stedsnr" v="74722" />
		<tag k="ssr:type" v="fyrlykt" />
	</node>
</osm>
