<?xml version="1.0" encoding="UTF-8"?>
<osm version="0.6" generator="osmapis">
	<node lat="59.21335490983164" lon="10.365819146497325" id="-49457">
		<tag k="name" v="Kausen" />
		<tag k="ssr:date" v="2019-12-27" />
		<tag k="ssr:gruppe" v="navigasjon" />
		<tag k="ssr:hovedgruppe" v="infrastruktur" />
		<tag k="ssr:stedsnr" v="1088" />
		<tag k="ssr:type" v="fyrlykt" />
	</node>
	<node lat="59.175392589906146" lon="10.473890264508238" id="-49486">
		<tag k="name" v="Vassholmen" />
		<tag k="ssr:date" v="2021-06-08" />
		<tag k="ssr:gruppe" v="navigasjon" />
		<tag k="ssr:hovedgruppe" v="infrastruktur" />
		<tag k="ssr:stedsnr" v="62089" />
		<tag k="ssr:type" v="fyrlykt" />
	</node>
	<node lat="59.15637581639615" lon="10.374762791288783" id="-49494">
		<tag k="name" v="Saltbu" />
		<tag k="old_name" v="Saltbu lykt" />
		<tag k="ssr:date" v="2020-09-03" />
		<tag k="ssr:gruppe" v="navigasjon" />
		<tag k="ssr:hovedgruppe" v="infrastruktur" />
		<tag k="ssr:stedsnr" v="244122" />
		<tag k="ssr:type" v="fyrlykt" />
	</node>
	<node lat="59.080441472055114" lon="10.454743165848102" id="-49541">
		<tag k="name" v="Krukepynten" />
		<tag k="ssr:date" v="2019-12-27" />
		<tag k="ssr:gruppe" v="navigasjon" />
		<tag k="ssr:hovedgruppe" v="infrastruktur" />
		<tag k="ssr:stedsnr" v="183369" />
		<tag k="ssr:type" v="fyrlykt" />
	</node>
	<node lat="59.25820277377212" lon="10.427319441378703" id="-49638">
		<tag k="name" v="Træla" />
		<tag k="ssr:date" v="2019-12-27" />
		<tag k="ssr:gruppe" v="sjøbunn" />
		<tag k="ssr:hovedgruppe" v="sjø" />
		<tag k="ssr:stedsnr" v="267730" />
		<tag k="ssr:type" v="renneKløftISjø" />
	</node>
	<node lat="59.270313886588085" lon="10.385558324919655" id="-49648">
		<tag k="name" v="Tønsbergrenna" />
		<tag k="ssr:date" v="2019-12-27" />
		<tag k="ssr:gruppe" v="navigasjon" />
		<tag k="ssr:hovedgruppe" v="infrastruktur" />
		<tag k="ssr:stedsnr" v="298293" />
		<tag k="ssr:type" v="lysbøye" />
	</node>
	<node lat="59.10900609296651" lon="10.383356182093182" id="-49708">
		<tag k="alt_name" v="Barkevik, øvre" />
		<tag k="name" v="Øvre Barkevik" />
		<tag k="ssr:date" v="2020-09-03" />
		<tag k="ssr:gruppe" v="navigasjon" />
		<tag k="ssr:hovedgruppe" v="infrastruktur" />
		<tag k="ssr:stedsnr" v="486451" />
		<tag k="ssr:type" v="fyrlykt" />
	</node>
	<node lat="58.92481666683794" lon="10.565372214653205" id="-49769">
		<tag k="name" v="Olasen" />
		<tag k="ssr:date" v="2019-12-27" />
		<tag k="ssr:gruppe" v="sjøbunn" />
		<tag k="ssr:hovedgruppe" v="sjø" />
		<tag k="ssr:stedsnr" v="539537" />
		<tag k="ssr:type" v="renneKløftISjø" />
	</node>
	<node lat="59.02681565617608" lon="10.52464156147374" id="-49774">
		<tag k="alt_name" v="Færder" />
		<tag k="name" v="Færder fyr" />
		<tag k="ssr:date" v="2019-12-27" />
		<tag k="ssr:gruppe" v="navigasjon" />
		<tag k="ssr:hovedgruppe" v="infrastruktur" />
		<tag k="ssr:stedsnr" v="547527" />
		<tag k="ssr:type" v="fyrstasjon" />
	</node>
	<node lat="59.24502355319635" lon="10.44613799580642" id="-49806">
		<tag k="loc_name" v="Kalvetangen lykt" />
		<tag k="name" v="Kalvetangen" />
		<tag k="ssr:date" v="2019-12-27" />
		<tag k="ssr:gruppe" v="navigasjon" />
		<tag k="ssr:hovedgruppe" v="infrastruktur" />
		<tag k="ssr:stedsnr" v="608010" />
		<tag k="ssr:type" v="fyrlykt" />
	</node>
	<node lat="59.1725300761872" lon="10.36287549932506" id="-49811">
		<tag k="name" v="Tenvikskjær" />
		<tag k="ssr:date" v="2021-06-08" />
		<tag k="ssr:gruppe" v="navigasjon" />
		<tag k="ssr:hovedgruppe" v="infrastruktur" />
		<tag k="ssr:stedsnr" v="608094" />
		<tag k="ssr:type" v="fyrlykt" />
	</node>
	<node lat="59.17533937365042" lon="10.59917534612257" id="-49838">
		<tag k="name" v="Fulehuk" />
		<tag k="ssr:date" v="2021-06-08" />
		<tag k="ssr:gruppe" v="navigasjon" />
		<tag k="ssr:hovedgruppe" v="infrastruktur" />
		<tag k="ssr:stedsnr" v="669083" />
		<tag k="ssr:type" v="fyrlykt" />
	</node>
	<node lat="59.07462757913914" lon="10.522734297530059" id="-49842">
		<tag k="name" v="Store Færder" />
		<tag k="ssr:date" v="2020-09-03" />
		<tag k="ssr:gruppe" v="navigasjon" />
		<tag k="ssr:hovedgruppe" v="infrastruktur" />
		<tag k="ssr:stedsnr" v="669481" />
		<tag k="ssr:type" v="fyrlykt" />
	</node>
	<node lat="59.21150712249466" lon="10.494325094333679" id="-49902">
		<tag k="name" v="Hvaløy" />
		<tag k="ssr:date" v="2021-06-08" />
		<tag k="ssr:gruppe" v="navigasjon" />
		<tag k="ssr:hovedgruppe" v="infrastruktur" />
		<tag k="ssr:stedsnr" v="912049" />
		<tag k="ssr:type" v="fyrlykt" />
	</node>
	<node lat="59.18707881247041" lon="10.547700541491974" id="-49911">
		<tag k="name" v="Huikjæla" />
		<tag k="ssr:date" v="2020-09-03" />
		<tag k="ssr:gruppe" v="navigasjon" />
		<tag k="ssr:hovedgruppe" v="infrastruktur" />
		<tag k="ssr:stedsnr" v="912086" />
		<tag k="ssr:type" v="fyrlykt" />
	</node>
	<node lat="59.04755159444617" lon="10.463111398587063" id="-49942">
		<tag k="name" v="Laksskjær" />
		<tag k="ssr:date" v="2021-06-08" />
		<tag k="ssr:gruppe" v="navigasjon" />
		<tag k="ssr:hovedgruppe" v="infrastruktur" />
		<tag k="ssr:stedsnr" v="851410" />
		<tag k="ssr:type" v="fyrlykt" />
	</node>
	<node lat="59.224097358077046" lon="10.408932752278528" id="-49984">
		<tag k="loc_name" v="Færder" />
		<tag k="name" v="Færder kommune" />
		<tag k="ssr:date" v="2021-06-08" />
		<tag k="ssr:gruppe" v="administrativeIndelinger" />
		<tag k="ssr:hovedgruppe" v="offentligAdministrasjon" />
		<tag k="ssr:stedsnr" v="981086" />
		<tag k="ssr:type" v="kommune" />
	</node>
	<node lat="59.1448057691268" lon="10.494672481829925" id="-49992">
		<tag k="name" v="Leisteinvarden" />
		<tag k="ssr:date" v="2019-12-27" />
		<tag k="ssr:gruppe" v="navigasjon" />
		<tag k="ssr:hovedgruppe" v="infrastruktur" />
		<tag k="ssr:stedsnr" v="988629" />
		<tag k="ssr:type" v="sjøvarde" />
	</node>
	<node lat="59.17238295298708" lon="10.396191115184338" id="-49994">
		<tag k="name" v="Sundebåen" />
		<tag k="ssr:date" v="2019-12-27" />
		<tag k="ssr:gruppe" v="navigasjon" />
		<tag k="ssr:hovedgruppe" v="infrastruktur" />
		<tag k="ssr:stedsnr" v="988632" />
		<tag k="ssr:type" v="lanterne" />
	</node>
	<node lat="59.1737528177558" lon="10.396172028800232" id="-50032">
		<tag k="name" v="Tuten" />
		<tag k="ssr:date" v="2019-12-27" />
		<tag k="ssr:gruppe" v="navigasjon" />
		<tag k="ssr:hovedgruppe" v="infrastruktur" />
		<tag k="ssr:stedsnr" v="62092" />
		<tag k="ssr:type" v="fyrlykt" />
	</node>
	<node lat="59.141258261542355" lon="10.49577408504368" id="-50041">
		<tag k="name" v="Leistein" />
		<tag k="ssr:date" v="2020-09-03" />
		<tag k="ssr:gruppe" v="navigasjon" />
		<tag k="ssr:hovedgruppe" v="infrastruktur" />
		<tag k="ssr:stedsnr" v="62393" />
		<tag k="ssr:type" v="fyrlykt" />
	</node>
	<node lat="59.102427682408305" lon="10.37908601144309" id="-50047">
		<tag k="alt_name" v="Barkevik, nedre" />
		<tag k="name" v="Nedre Barkevik" />
		<tag k="ssr:date" v="2020-09-03" />
		<tag k="ssr:gruppe" v="navigasjon" />
		<tag k="ssr:hovedgruppe" v="infrastruktur" />
		<tag k="ssr:stedsnr" v="62426" />
		<tag k="ssr:type" v="fyrlykt" />
	</node>
	<node lat="59.25469999923075" lon="10.43631110666685" id="-50214">
		<tag k="name" v="Tønsberg kanal" />
		<tag k="ssr:date" v="2019-12-27" />
		<tag k="ssr:gruppe" v="navigasjon" />
		<tag k="ssr:hovedgruppe" v="infrastruktur" />
		<tag k="ssr:stedsnr" v="359231" />
		<tag k="ssr:type" v="lysbøye" />
	</node>
	<node lat="59.027491665402124" lon="10.55123610932389" id="-50259">
		<tag k="name" v="Knapprenna" />
		<tag k="ssr:date" v="2019-12-27" />
		<tag k="ssr:gruppe" v="sjøbunn" />
		<tag k="ssr:hovedgruppe" v="sjø" />
		<tag k="ssr:stedsnr" v="418485" />
		<tag k="ssr:type" v="renneKløftISjø" />
	</node>
	<node lat="59.1587359879415" lon="10.442194071975415" id="-50295">
		<tag k="name" v="Mågerøtangen" />
		<tag k="ssr:date" v="2021-06-08" />
		<tag k="ssr:gruppe" v="navigasjon" />
		<tag k="ssr:hovedgruppe" v="infrastruktur" />
		<tag k="ssr:stedsnr" v="547124" />
		<tag k="ssr:type" v="fyrlykt" />
	</node>
	<node lat="59.17028610731429" lon="10.58620554692351" id="-50358">
		<tag k="name" v="Rauerrenna" />
		<tag k="ssr:date" v="2019-12-27" />
		<tag k="ssr:gruppe" v="sjøbunn" />
		<tag k="ssr:hovedgruppe" v="sjø" />
		<tag k="ssr:stedsnr" v="631844" />
		<tag k="ssr:type" v="renneKløftISjø" />
	</node>
	<node lat="59.225641902725975" lon="10.379929245437992" id="-50375">
		<tag k="name" v="Furuodden" />
		<tag k="ssr:date" v="2019-12-27" />
		<tag k="ssr:gruppe" v="navigasjon" />
		<tag k="ssr:hovedgruppe" v="infrastruktur" />
		<tag k="ssr:stedsnr" v="669017" />
		<tag k="ssr:type" v="fyrlykt" />
	</node>
	<node lat="59.08940075478421" lon="10.450214463759302" id="-50377">
		<tag k="name" v="Sandviksberget" />
		<tag k="ssr:date" v="2021-06-08" />
		<tag k="ssr:gruppe" v="navigasjon" />
		<tag k="ssr:hovedgruppe" v="infrastruktur" />
		<tag k="ssr:stedsnr" v="668430" />
		<tag k="ssr:type" v="fyrlykt" />
	</node>
	<node lat="59.16075842414095" lon="10.626011401545957" id="-50378">
		<tag k="loc_name" v="Hollenderbåen lykt" />
		<tag k="name" v="Hollenderbåen" />
		<tag k="old_name" v="Hollenderbåen fyr" />
		<tag k="ssr:date" v="2019-12-27" />
		<tag k="ssr:gruppe" v="navigasjon" />
		<tag k="ssr:hovedgruppe" v="infrastruktur" />
		<tag k="ssr:stedsnr" v="669107" />
		<tag k="ssr:type" v="fyrlykt" />
	</node>
	<node lat="59.13361111566643" lon="10.37543610687693" id="-50399">
		<tag k="name" v="Østre Vakersholmen" />
		<tag k="old_name" v="Vakerholmen;Vakersholmen;Østre Vakerholmen" />
		<tag k="ssr:date" v="2019-12-27" />
		<tag k="ssr:gruppe" v="navigasjon" />
		<tag k="ssr:hovedgruppe" v="infrastruktur" />
		<tag k="ssr:stedsnr" v="730395" />
		<tag k="ssr:type" v="fyrlykt" />
	</node>
	<node lat="59.2508305541635" lon="10.381399995366982" id="-50403">
		<tag k="name" v="Munkerekka" />
		<tag k="ssr:date" v="2019-12-27" />
		<tag k="ssr:gruppe" v="navigasjon" />
		<tag k="ssr:hovedgruppe" v="infrastruktur" />
		<tag k="ssr:stedsnr" v="738974" />
		<tag k="ssr:type" v="fyrlykt" />
	</node>
	<node lat="59.12154201412564" lon="10.454837040135146" id="-50446">
		<tag k="name" v="Kongsholmen" />
		<tag k="ssr:date" v="2020-09-03" />
		<tag k="ssr:gruppe" v="navigasjon" />
		<tag k="ssr:hovedgruppe" v="infrastruktur" />
		<tag k="ssr:stedsnr" v="790380" />
		<tag k="ssr:type" v="fyrlykt" />
	</node>
	<node lat="59.23377812417814" lon="10.386401986183808" id="-50547">
		<tag k="name" v="Niels Werrings vei" />
		<tag k="ssr:date" v="2019-12-27" />
		<tag k="ssr:gruppe" v="veg" />
		<tag k="ssr:hovedgruppe" v="infrastruktur" />
		<tag k="ssr:stedsnr" v="1043540" />
		<tag k="ssr:type" v="adressenavn" />
	</node>
	<node lat="59.17322071912939" lon="10.446157123397258" id="-50548">
		<tag k="name" v="Nestvikveien" />
		<tag k="ssr:date" v="2019-12-27" />
		<tag k="ssr:gruppe" v="veg" />
		<tag k="ssr:hovedgruppe" v="infrastruktur" />
		<tag k="ssr:stedsnr" v="1043546" />
		<tag k="ssr:type" v="adressenavn" />
	</node>
	<node lat="59.21919918921595" lon="10.456470449170098" id="-50549">
		<tag k="name" v="Nesbryggveien" />
		<tag k="ssr:date" v="2019-12-27" />
		<tag k="ssr:gruppe" v="veg" />
		<tag k="ssr:hovedgruppe" v="infrastruktur" />
		<tag k="ssr:stedsnr" v="1043550" />
		<tag k="ssr:type" v="adressenavn" />
	</node>
	<node lat="59.211292268705726" lon="10.447858891738385" id="-50550">
		<tag k="name" v="Nesveien" />
		<tag k="ssr:date" v="2019-12-27" />
		<tag k="ssr:gruppe" v="veg" />
		<tag k="ssr:hovedgruppe" v="infrastruktur" />
		<tag k="ssr:stedsnr" v="1043553" />
		<tag k="ssr:type" v="adressenavn" />
	</node>
	<node lat="59.196377832265384" lon="10.38591065590059" id="-50551">
		<tag k="name" v="Nedre Gurødvei" />
		<tag k="ssr:date" v="2019-12-27" />
		<tag k="ssr:gruppe" v="veg" />
		<tag k="ssr:hovedgruppe" v="infrastruktur" />
		<tag k="ssr:stedsnr" v="1043556" />
		<tag k="ssr:type" v="adressenavn" />
	</node>
	<node lat="59.2460247576642" lon="10.397963645149733" id="-50552">
		<tag k="name" v="Måltrostveien" />
		<tag k="ssr:date" v="2019-12-27" />
		<tag k="ssr:gruppe" v="veg" />
		<tag k="ssr:hovedgruppe" v="infrastruktur" />
		<tag k="ssr:stedsnr" v="1043559" />
		<tag k="ssr:type" v="adressenavn" />
	</node>
	<node lat="59.24713271816561" lon="10.396995786795577" id="-50553">
		<tag k="name" v="Myrveien" />
		<tag k="ssr:date" v="2019-12-27" />
		<tag k="ssr:gruppe" v="veg" />
		<tag k="ssr:hovedgruppe" v="infrastruktur" />
		<tag k="ssr:stedsnr" v="1043565" />
		<tag k="ssr:type" v="adressenavn" />
	</node>
	<node lat="59.23584681673477" lon="10.452746191173398" id="-50554">
		<tag k="name" v="Myraveien" />
		<tag k="ssr:date" v="2019-12-27" />
		<tag k="ssr:gruppe" v="veg" />
		<tag k="ssr:hovedgruppe" v="infrastruktur" />
		<tag k="ssr:stedsnr" v="1043566" />
		<tag k="ssr:type" v="adressenavn" />
	</node>
	<node lat="59.247823767723936" lon="10.386129968582402" id="-50555">
		<tag k="name" v="Munkoddveien" />
		<tag k="ssr:date" v="2019-12-27" />
		<tag k="ssr:gruppe" v="veg" />
		<tag k="ssr:hovedgruppe" v="infrastruktur" />
		<tag k="ssr:stedsnr" v="1043571" />
		<tag k="ssr:type" v="adressenavn" />
	</node>
	<node lat="59.22608441164182" lon="10.435995204052297" id="-50556">
		<tag k="name" v="Syenittveien" />
		<tag k="ssr:date" v="2019-12-27" />
		<tag k="ssr:gruppe" v="veg" />
		<tag k="ssr:hovedgruppe" v="infrastruktur" />
		<tag k="ssr:stedsnr" v="1043575" />
		<tag k="ssr:type" v="adressenavn" />
	</node>
	<node lat="59.17678487812942" lon="10.446486452930568" id="-50557">
		<tag k="name" v="Svensrødveien" />
		<tag k="ssr:date" v="2019-12-27" />
		<tag k="ssr:gruppe" v="veg" />
		<tag k="ssr:hovedgruppe" v="infrastruktur" />
		<tag k="ssr:stedsnr" v="1043584" />
		<tag k="ssr:type" v="adressenavn" />
	</node>
	<node lat="59.253064547767984" lon="10.414332692100123" id="-50558">
		<tag k="name" v="Teieveien" />
		<tag k="ssr:date" v="2019-12-27" />
		<tag k="ssr:gruppe" v="veg" />
		<tag k="ssr:hovedgruppe" v="infrastruktur" />
		<tag k="ssr:stedsnr" v="1043640" />
		<tag k="ssr:type" v="adressenavn" />
	</node>
	<node lat="59.25080344063105" lon="10.421430363468183" id="-50559">
		<tag k="name" v="Teglverksveien" />
		<tag k="ssr:date" v="2019-12-27" />
		<tag k="ssr:gruppe" v="veg" />
		<tag k="ssr:hovedgruppe" v="infrastruktur" />
		<tag k="ssr:stedsnr" v="1043644" />
		<tag k="ssr:type" v="adressenavn" />
	</node>
	<node lat="59.22796495308051" lon="10.416876922604688" id="-50560">
		<tag k="name" v="Tanstadveien" />
		<tag k="ssr:date" v="2019-12-27" />
		<tag k="ssr:gruppe" v="veg" />
		<tag k="ssr:hovedgruppe" v="infrastruktur" />
		<tag k="ssr:stedsnr" v="1043646" />
		<tag k="ssr:type" v="adressenavn" />
	</node>
	<node lat="59.174857661017036" lon="10.365640555837423" id="-50561">
		<tag k="name" v="Søndre Tenvikvei" />
		<tag k="ssr:date" v="2019-12-27" />
		<tag k="ssr:gruppe" v="veg" />
		<tag k="ssr:hovedgruppe" v="infrastruktur" />
		<tag k="ssr:stedsnr" v="1043647" />
		<tag k="ssr:type" v="adressenavn" />
	</node>
	<node lat="59.24710595057549" lon="10.420153743926477" id="-50562">
		<tag k="name" v="Søndre Løkkevei" />
		<tag k="ssr:date" v="2019-12-27" />
		<tag k="ssr:gruppe" v="veg" />
		<tag k="ssr:hovedgruppe" v="infrastruktur" />
		<tag k="ssr:stedsnr" v="1043649" />
		<tag k="ssr:type" v="adressenavn" />
	</node>
	<node lat="59.26167805996732" lon="10.395063485209942" id="-50563">
		<tag k="name" v="Sleipners vei" />
		<tag k="ssr:date" v="2019-12-27" />
		<tag k="ssr:gruppe" v="veg" />
		<tag k="ssr:hovedgruppe" v="infrastruktur" />
		<tag k="ssr:stedsnr" v="1043666" />
		<tag k="ssr:type" v="adressenavn" />
	</node>
	<node lat="59.208425428941105" lon="10.4535412254197" id="-50564">
		<tag k="name" v="Ankerveien" />
		<tag k="ssr:date" v="2019-12-27" />
		<tag k="ssr:gruppe" v="veg" />
		<tag k="ssr:hovedgruppe" v="infrastruktur" />
		<tag k="ssr:stedsnr" v="1042818" />
		<tag k="ssr:type" v="adressenavn" />
	</node>
	<node lat="59.24752038447024" lon="10.385995456622739" id="-50565">
		<tag k="name" v="Amundrødveien" />
		<tag k="ssr:date" v="2019-12-27" />
		<tag k="ssr:gruppe" v="veg" />
		<tag k="ssr:hovedgruppe" v="infrastruktur" />
		<tag k="ssr:stedsnr" v="1042827" />
		<tag k="ssr:type" v="adressenavn" />
	</node>
	<node lat="59.25509336248909" lon="10.38801678064703" id="-50566">
		<tag k="name" v="Alfheimveien" />
		<tag k="ssr:date" v="2019-12-27" />
		<tag k="ssr:gruppe" v="veg" />
		<tag k="ssr:hovedgruppe" v="infrastruktur" />
		<tag k="ssr:stedsnr" v="1042832" />
		<tag k="ssr:type" v="adressenavn" />
	</node>
	<node lat="59.26267548543896" lon="10.387155341589745" id="-50567">
		<tag k="name" v="Abraham Berges vei" />
		<tag k="ssr:date" v="2019-12-27" />
		<tag k="ssr:gruppe" v="veg" />
		<tag k="ssr:hovedgruppe" v="infrastruktur" />
		<tag k="ssr:stedsnr" v="1042834" />
		<tag k="ssr:type" v="adressenavn" />
	</node>
	<node lat="59.23575483157249" lon="10.45443467933307" id="-50568">
		<tag k="name" v="Båtveien" />
		<tag k="ssr:date" v="2019-12-27" />
		<tag k="ssr:gruppe" v="veg" />
		<tag k="ssr:hovedgruppe" v="infrastruktur" />
		<tag k="ssr:stedsnr" v="1042933" />
		<tag k="ssr:type" v="adressenavn" />
	</node>
	<node lat="59.194442945505656" lon="10.448136291601141" id="-50569">
		<tag k="name" v="Aråsveien" />
		<tag k="ssr:date" v="2019-12-27" />
		<tag k="ssr:gruppe" v="veg" />
		<tag k="ssr:hovedgruppe" v="infrastruktur" />
		<tag k="ssr:stedsnr" v="1043036" />
		<tag k="ssr:type" v="adressenavn" />
	</node>
	<node lat="59.25696101440352" lon="10.39180553595577" id="-50570">
		<tag k="name" v="Bøkeliveien" />
		<tag k="ssr:date" v="2019-12-27" />
		<tag k="ssr:gruppe" v="veg" />
		<tag k="ssr:hovedgruppe" v="infrastruktur" />
		<tag k="ssr:stedsnr" v="1042937" />
		<tag k="ssr:type" v="adressenavn" />
	</node>
	<node lat="59.18510895957789" lon="10.459476717381943" id="-50571">
		<tag k="name" v="Buktaveien" />
		<tag k="ssr:date" v="2019-12-27" />
		<tag k="ssr:gruppe" v="veg" />
		<tag k="ssr:hovedgruppe" v="infrastruktur" />
		<tag k="ssr:stedsnr" v="1042938" />
		<tag k="ssr:type" v="adressenavn" />
	</node>
	<node lat="59.22246819669603" lon="10.440402185111408" id="-50572">
		<tag k="name" v="Bugården nord" />
		<tag k="ssr:date" v="2019-12-27" />
		<tag k="ssr:gruppe" v="veg" />
		<tag k="ssr:hovedgruppe" v="infrastruktur" />
		<tag k="ssr:stedsnr" v="1042939" />
		<tag k="ssr:type" v="adressenavn" />
	</node>
	<node lat="59.235881142597144" lon="10.441822378717369" id="-50573">
		<tag k="name" v="Bueråsveien" />
		<tag k="ssr:date" v="2019-12-27" />
		<tag k="ssr:gruppe" v="veg" />
		<tag k="ssr:hovedgruppe" v="infrastruktur" />
		<tag k="ssr:stedsnr" v="1042941" />
		<tag k="ssr:type" v="adressenavn" />
	</node>
	<node lat="59.16955483374421" lon="10.423596709738309" id="-50574">
		<tag k="name" v="Buerstadveien" />
		<tag k="ssr:date" v="2019-12-27" />
		<tag k="ssr:gruppe" v="veg" />
		<tag k="ssr:hovedgruppe" v="infrastruktur" />
		<tag k="ssr:stedsnr" v="1042942" />
		<tag k="ssr:type" v="adressenavn" />
	</node>
	<node lat="59.25456130038853" lon="10.415569747620845" id="-50575">
		<tag k="name" v="Buddes vei" />
		<tag k="ssr:date" v="2019-12-27" />
		<tag k="ssr:gruppe" v="veg" />
		<tag k="ssr:hovedgruppe" v="infrastruktur" />
		<tag k="ssr:stedsnr" v="1042944" />
		<tag k="ssr:type" v="adressenavn" />
	</node>
	<node lat="59.19199344635716" lon="10.431234540360395" id="-50576">
		<tag k="name" v="Bubergveien" />
		<tag k="ssr:date" v="2019-12-27" />
		<tag k="ssr:gruppe" v="veg" />
		<tag k="ssr:hovedgruppe" v="infrastruktur" />
		<tag k="ssr:stedsnr" v="1042946" />
		<tag k="ssr:type" v="adressenavn" />
	</node>
	<node lat="59.250758220424906" lon="10.425584155628265" id="-50577">
		<tag k="name" v="Bryggeveien" />
		<tag k="ssr:date" v="2019-12-27" />
		<tag k="ssr:gruppe" v="veg" />
		<tag k="ssr:hovedgruppe" v="infrastruktur" />
		<tag k="ssr:stedsnr" v="1042954" />
		<tag k="ssr:type" v="adressenavn" />
	</node>
	<node lat="59.246551422533784" lon="10.403463761937687" id="-50578">
		<tag k="name" v="Briskveien" />
		<tag k="ssr:date" v="2019-12-27" />
		<tag k="ssr:gruppe" v="veg" />
		<tag k="ssr:hovedgruppe" v="infrastruktur" />
		<tag k="ssr:stedsnr" v="1042959" />
		<tag k="ssr:type" v="adressenavn" />
	</node>
	<node lat="59.16657918132979" lon="10.432283988222853" id="-50579">
		<tag k="name" v="Brevikveien" />
		<tag k="ssr:date" v="2019-12-27" />
		<tag k="ssr:gruppe" v="veg" />
		<tag k="ssr:hovedgruppe" v="infrastruktur" />
		<tag k="ssr:stedsnr" v="1042962" />
		<tag k="ssr:type" v="adressenavn" />
	</node>
	<node lat="59.21900259683711" lon="10.455324722434463" id="-50580">
		<tag k="name" v="Breidablikkveien" />
		<tag k="ssr:date" v="2019-12-27" />
		<tag k="ssr:gruppe" v="veg" />
		<tag k="ssr:hovedgruppe" v="infrastruktur" />
		<tag k="ssr:stedsnr" v="1042965" />
		<tag k="ssr:type" v="adressenavn" />
	</node>
	<node lat="59.21803689858551" lon="10.456102443369602" id="-50581">
		<tag k="name" v="Breidablikk Sjømannshjem" />
		<tag k="ssr:date" v="2019-12-27" />
		<tag k="ssr:gruppe" v="veg" />
		<tag k="ssr:hovedgruppe" v="infrastruktur" />
		<tag k="ssr:stedsnr" v="1042966" />
		<tag k="ssr:type" v="adressenavn" />
	</node>
	<node lat="59.23512552462035" lon="10.388024059133654" id="-50582">
		<tag k="name" v="Bregneveien" />
		<tag k="ssr:date" v="2019-12-27" />
		<tag k="ssr:gruppe" v="veg" />
		<tag k="ssr:hovedgruppe" v="infrastruktur" />
		<tag k="ssr:stedsnr" v="1042969" />
		<tag k="ssr:type" v="adressenavn" />
	</node>
	<node lat="59.25533926018251" lon="10.414932030448282" id="-50583">
		<tag k="name" v="Elgveien" />
		<tag k="ssr:date" v="2019-12-27" />
		<tag k="ssr:gruppe" v="veg" />
		<tag k="ssr:hovedgruppe" v="infrastruktur" />
		<tag k="ssr:stedsnr" v="1042972" />
		<tag k="ssr:type" v="adressenavn" />
	</node>
	<node lat="59.228608278560166" lon="10.435511092536629" id="-50584">
		<tag k="name" v="Ekenesstokken" />
		<tag k="ssr:date" v="2019-12-27" />
		<tag k="ssr:gruppe" v="veg" />
		<tag k="ssr:hovedgruppe" v="infrastruktur" />
		<tag k="ssr:stedsnr" v="1042975" />
		<tag k="ssr:type" v="adressenavn" />
	</node>
	<node lat="59.25271637313377" lon="10.412480465295994" id="-50585">
		<tag k="name" v="Ekebergveien" />
		<tag k="ssr:date" v="2019-12-27" />
		<tag k="ssr:gruppe" v="veg" />
		<tag k="ssr:hovedgruppe" v="infrastruktur" />
		<tag k="ssr:stedsnr" v="1042978" />
		<tag k="ssr:type" v="adressenavn" />
	</node>
	<node lat="59.24506351510504" lon="10.422299826485206" id="-50586">
		<tag k="name" v="Eikeveien" />
		<tag k="ssr:date" v="2019-12-27" />
		<tag k="ssr:gruppe" v="veg" />
		<tag k="ssr:hovedgruppe" v="infrastruktur" />
		<tag k="ssr:stedsnr" v="1042981" />
		<tag k="ssr:type" v="adressenavn" />
	</node>
	<node lat="59.21292268272303" lon="10.455962372881165" id="-50587">
		<tag k="name" v="Dukenveien" />
		<tag k="ssr:date" v="2019-12-27" />
		<tag k="ssr:gruppe" v="veg" />
		<tag k="ssr:hovedgruppe" v="infrastruktur" />
		<tag k="ssr:stedsnr" v="1042987" />
		<tag k="ssr:type" v="adressenavn" />
	</node>
	<node lat="59.246345594243884" lon="10.389917268117408" id="-50588">
		<tag k="name" v="Dueveien" />
		<tag k="ssr:date" v="2019-12-27" />
		<tag k="ssr:gruppe" v="veg" />
		<tag k="ssr:hovedgruppe" v="infrastruktur" />
		<tag k="ssr:stedsnr" v="1042991" />
		<tag k="ssr:type" v="adressenavn" />
	</node>
	<node lat="59.207662214226396" lon="10.445778998311903" id="-50589">
		<tag k="name" v="Dreggveien" />
		<tag k="ssr:date" v="2019-12-27" />
		<tag k="ssr:gruppe" v="veg" />
		<tag k="ssr:hovedgruppe" v="infrastruktur" />
		<tag k="ssr:stedsnr" v="1042998" />
		<tag k="ssr:type" v="adressenavn" />
	</node>
	<node lat="59.25136224822603" lon="10.405081685439281" id="-50590">
		<tag k="name" v="Damveien" />
		<tag k="ssr:date" v="2019-12-27" />
		<tag k="ssr:gruppe" v="veg" />
		<tag k="ssr:hovedgruppe" v="infrastruktur" />
		<tag k="ssr:stedsnr" v="1043002" />
		<tag k="ssr:type" v="adressenavn" />
	</node>
	<node lat="59.24699261394226" lon="10.422084594065671" id="-50591">
		<tag k="name" v="Bekkeveien" />
		<tag k="ssr:date" v="2019-12-27" />
		<tag k="ssr:gruppe" v="veg" />
		<tag k="ssr:hovedgruppe" v="infrastruktur" />
		<tag k="ssr:stedsnr" v="1043004" />
		<tag k="ssr:type" v="adressenavn" />
	</node>
	<node lat="59.2451735615482" lon="10.405600233193006" id="-50592">
		<tag k="name" v="Barnålveien" />
		<tag k="ssr:date" v="2019-12-27" />
		<tag k="ssr:gruppe" v="veg" />
		<tag k="ssr:hovedgruppe" v="infrastruktur" />
		<tag k="ssr:stedsnr" v="1043011" />
		<tag k="ssr:type" v="adressenavn" />
	</node>
	<node lat="59.255024195926" lon="10.4074137770209" id="-50593">
		<tag k="name" v="Banebakken" />
		<tag k="ssr:date" v="2019-12-27" />
		<tag k="ssr:gruppe" v="veg" />
		<tag k="ssr:hovedgruppe" v="infrastruktur" />
		<tag k="ssr:stedsnr" v="1043017" />
		<tag k="ssr:type" v="adressenavn" />
	</node>
	<node lat="59.26224463847414" lon="10.397374148582198" id="-50594">
		<tag k="name" v="Balders vei" />
		<tag k="ssr:date" v="2019-12-27" />
		<tag k="ssr:gruppe" v="veg" />
		<tag k="ssr:hovedgruppe" v="infrastruktur" />
		<tag k="ssr:stedsnr" v="1043022" />
		<tag k="ssr:type" v="adressenavn" />
	</node>
	<node lat="59.25123692350347" lon="10.407420269805032" id="-50595">
		<tag k="name" v="Bakkeveien" />
		<tag k="ssr:date" v="2019-12-27" />
		<tag k="ssr:gruppe" v="veg" />
		<tag k="ssr:hovedgruppe" v="infrastruktur" />
		<tag k="ssr:stedsnr" v="1043027" />
		<tag k="ssr:type" v="adressenavn" />
	</node>
	<node lat="59.238546301283506" lon="10.412465676226907" id="-50596">
		<tag k="name" v="Astoriaveien" />
		<tag k="ssr:date" v="2019-12-27" />
		<tag k="ssr:gruppe" v="veg" />
		<tag k="ssr:hovedgruppe" v="infrastruktur" />
		<tag k="ssr:stedsnr" v="1043033" />
		<tag k="ssr:type" v="adressenavn" />
	</node>
	<node lat="59.24123289487795" lon="10.421966350970246" id="-50597">
		<tag k="name" v="Askevoldveien" />
		<tag k="ssr:date" v="2019-12-27" />
		<tag k="ssr:gruppe" v="veg" />
		<tag k="ssr:hovedgruppe" v="infrastruktur" />
		<tag k="ssr:stedsnr" v="1043034" />
		<tag k="ssr:type" v="adressenavn" />
	</node>
	<node lat="59.25247700253531" lon="10.418975216017389" id="-50598">
		<tag k="name" v="Arenfeldts vei" />
		<tag k="ssr:date" v="2019-12-27" />
		<tag k="ssr:gruppe" v="veg" />
		<tag k="ssr:hovedgruppe" v="infrastruktur" />
		<tag k="ssr:stedsnr" v="1043040" />
		<tag k="ssr:type" v="adressenavn" />
	</node>
	<node lat="59.246182659120784" lon="10.394019824280532" id="-50599">
		<tag k="name" v="Bokfinkveien" />
		<tag k="ssr:date" v="2019-12-27" />
		<tag k="ssr:gruppe" v="veg" />
		<tag k="ssr:hovedgruppe" v="infrastruktur" />
		<tag k="ssr:stedsnr" v="1043044" />
		<tag k="ssr:type" v="adressenavn" />
	</node>
	<node lat="59.21378044239907" lon="10.456342971906734" id="-50600">
		<tag k="name" v="Blåskjellveien" />
		<tag k="ssr:date" v="2019-12-27" />
		<tag k="ssr:gruppe" v="veg" />
		<tag k="ssr:hovedgruppe" v="infrastruktur" />
		<tag k="ssr:stedsnr" v="1043048" />
		<tag k="ssr:type" v="adressenavn" />
	</node>
	<node lat="59.23825178561581" lon="10.393569499317325" id="-50601">
		<tag k="name" v="Bjørnebærveien" />
		<tag k="ssr:date" v="2019-12-27" />
		<tag k="ssr:gruppe" v="veg" />
		<tag k="ssr:hovedgruppe" v="infrastruktur" />
		<tag k="ssr:stedsnr" v="1043052" />
		<tag k="ssr:type" v="adressenavn" />
	</node>
	<node lat="59.23623290353473" lon="10.449759766228082" id="-50602">
		<tag k="name" v="Bjørnebuveien" />
		<tag k="ssr:date" v="2019-12-27" />
		<tag k="ssr:gruppe" v="veg" />
		<tag k="ssr:hovedgruppe" v="infrastruktur" />
		<tag k="ssr:stedsnr" v="1043054" />
		<tag k="ssr:type" v="adressenavn" />
	</node>
	<node lat="59.18944486528694" lon="10.381406232253154" id="-50603">
		<tag k="name" v="Bjørndalveien" />
		<tag k="ssr:date" v="2019-12-27" />
		<tag k="ssr:gruppe" v="veg" />
		<tag k="ssr:hovedgruppe" v="infrastruktur" />
		<tag k="ssr:stedsnr" v="1043056" />
		<tag k="ssr:type" v="adressenavn" />
	</node>
	<node lat="59.25532904081366" lon="10.409422236513198" id="-50604">
		<tag k="name" v="Bjørkveien" />
		<tag k="ssr:date" v="2019-12-27" />
		<tag k="ssr:gruppe" v="veg" />
		<tag k="ssr:hovedgruppe" v="infrastruktur" />
		<tag k="ssr:stedsnr" v="1043058" />
		<tag k="ssr:type" v="adressenavn" />
	</node>
	<node lat="59.217826517295855" lon="10.428873935227815" id="-50605">
		<tag k="name" v="Bjønnesveien" />
		<tag k="ssr:date" v="2019-12-27" />
		<tag k="ssr:gruppe" v="veg" />
		<tag k="ssr:hovedgruppe" v="infrastruktur" />
		<tag k="ssr:stedsnr" v="1043059" />
		<tag k="ssr:type" v="adressenavn" />
	</node>
	<node lat="59.16671998369615" lon="10.38072800951121" id="-50606">
		<tag k="name" v="Bjønnhueveien" />
		<tag k="ssr:date" v="2019-12-27" />
		<tag k="ssr:gruppe" v="veg" />
		<tag k="ssr:hovedgruppe" v="infrastruktur" />
		<tag k="ssr:stedsnr" v="1043060" />
		<tag k="ssr:type" v="adressenavn" />
	</node>
	<node lat="59.21171672089597" lon="10.45284511511567" id="-50607">
		<tag k="name" v="Bjerkøyveien" />
		<tag k="ssr:date" v="2019-12-27" />
		<tag k="ssr:gruppe" v="veg" />
		<tag k="ssr:hovedgruppe" v="infrastruktur" />
		<tag k="ssr:stedsnr" v="1043064" />
		<tag k="ssr:type" v="adressenavn" />
	</node>
	<node lat="59.216280973350955" lon="10.444340999990036" id="-50608">
		<tag k="name" v="Bjerkhaugveien" />
		<tag k="ssr:date" v="2019-12-27" />
		<tag k="ssr:gruppe" v="veg" />
		<tag k="ssr:hovedgruppe" v="infrastruktur" />
		<tag k="ssr:stedsnr" v="1043071" />
		<tag k="ssr:type" v="adressenavn" />
	</node>
	<node lat="59.236524217862765" lon="10.439005206329728" id="-50609">
		<tag k="name" v="Berglyveien" />
		<tag k="ssr:date" v="2019-12-27" />
		<tag k="ssr:gruppe" v="veg" />
		<tag k="ssr:hovedgruppe" v="infrastruktur" />
		<tag k="ssr:stedsnr" v="1043072" />
		<tag k="ssr:type" v="adressenavn" />
	</node>
	<node lat="59.22837544693809" lon="10.434486010077798" id="-50610">
		<tag k="name" v="Porfyrveien" />
		<tag k="ssr:date" v="2019-12-27" />
		<tag k="ssr:gruppe" v="veg" />
		<tag k="ssr:hovedgruppe" v="infrastruktur" />
		<tag k="ssr:stedsnr" v="1043410" />
		<tag k="ssr:type" v="adressenavn" />
	</node>
	<node lat="59.19373316552209" lon="10.443211888627127" id="-50611">
		<tag k="name" v="Petterødveien" />
		<tag k="ssr:date" v="2019-12-27" />
		<tag k="ssr:gruppe" v="veg" />
		<tag k="ssr:hovedgruppe" v="infrastruktur" />
		<tag k="ssr:stedsnr" v="1043411" />
		<tag k="ssr:type" v="adressenavn" />
	</node>
	<node lat="59.250758220424906" lon="10.425584155628265" id="-50612">
		<tag k="name" v="Parkveien" />
		<tag k="ssr:date" v="2019-12-27" />
		<tag k="ssr:gruppe" v="veg" />
		<tag k="ssr:hovedgruppe" v="infrastruktur" />
		<tag k="ssr:stedsnr" v="1043416" />
		<tag k="ssr:type" v="adressenavn" />
	</node>
	<node lat="59.2502562273503" lon="10.405729718109383" id="-50613">
		<tag k="name" v="Panveien" />
		<tag k="ssr:date" v="2019-12-27" />
		<tag k="ssr:gruppe" v="veg" />
		<tag k="ssr:hovedgruppe" v="infrastruktur" />
		<tag k="ssr:stedsnr" v="1043421" />
		<tag k="ssr:type" v="adressenavn" />
	</node>
	<node lat="59.240703020245974" lon="10.391826619232523" id="-50614">
		<tag k="name" v="Orreveien" />
		<tag k="ssr:date" v="2019-12-27" />
		<tag k="ssr:gruppe" v="veg" />
		<tag k="ssr:hovedgruppe" v="infrastruktur" />
		<tag k="ssr:stedsnr" v="1043428" />
		<tag k="ssr:type" v="adressenavn" />
	</node>
	<node lat="59.18097368671032" lon="10.439954669803123" id="-50615">
		<tag k="name" v="Olaf Knudsens vei" />
		<tag k="ssr:date" v="2019-12-27" />
		<tag k="ssr:gruppe" v="veg" />
		<tag k="ssr:hovedgruppe" v="infrastruktur" />
		<tag k="ssr:stedsnr" v="1043430" />
		<tag k="ssr:type" v="adressenavn" />
	</node>
	<node lat="59.26224463847414" lon="10.397374148582198" id="-50616">
		<tag k="name" v="Odins vei" />
		<tag k="ssr:date" v="2019-12-27" />
		<tag k="ssr:gruppe" v="veg" />
		<tag k="ssr:hovedgruppe" v="infrastruktur" />
		<tag k="ssr:stedsnr" v="1043435" />
		<tag k="ssr:type" v="adressenavn" />
	</node>
	<node lat="59.242631323053544" lon="10.390028159960247" id="-50617">
		<tag k="name" v="Rugdeveien" />
		<tag k="ssr:date" v="2019-12-27" />
		<tag k="ssr:gruppe" v="veg" />
		<tag k="ssr:hovedgruppe" v="infrastruktur" />
		<tag k="ssr:stedsnr" v="1043489" />
		<tag k="ssr:type" v="adressenavn" />
	</node>
	<node lat="59.253555142184915" lon="10.42179992085772" id="-50618">
		<tag k="name" v="Rosanesveien" />
		<tag k="ssr:date" v="2019-12-27" />
		<tag k="ssr:gruppe" v="veg" />
		<tag k="ssr:hovedgruppe" v="infrastruktur" />
		<tag k="ssr:stedsnr" v="1043497" />
		<tag k="ssr:type" v="adressenavn" />
	</node>
	<node lat="59.224603524546936" lon="10.407208817566127" id="-50619">
		<tag k="name" v="Rektorveien" />
		<tag k="ssr:date" v="2019-12-27" />
		<tag k="ssr:gruppe" v="veg" />
		<tag k="ssr:hovedgruppe" v="infrastruktur" />
		<tag k="ssr:stedsnr" v="1043502" />
		<tag k="ssr:type" v="adressenavn" />
	</node>
	<node lat="59.25871385266765" lon="10.389571286705362" id="-50620">
		<tag k="name" v="Ravnveien" />
		<tag k="ssr:date" v="2019-12-27" />
		<tag k="ssr:gruppe" v="veg" />
		<tag k="ssr:hovedgruppe" v="infrastruktur" />
		<tag k="ssr:stedsnr" v="1043505" />
		<tag k="ssr:type" v="adressenavn" />
	</node>
	<node lat="59.23314881241764" lon="10.417140564357261" id="-50621">
		<tag k="name" v="Rabbeveien" />
		<tag k="ssr:date" v="2019-12-27" />
		<tag k="ssr:gruppe" v="veg" />
		<tag k="ssr:hovedgruppe" v="infrastruktur" />
		<tag k="ssr:stedsnr" v="1043510" />
		<tag k="ssr:type" v="adressenavn" />
	</node>
	<node lat="59.232287137138094" lon="10.408254577547421" id="-50622">
		<tag k="name" v="Nygårdveien" />
		<tag k="ssr:date" v="2019-12-27" />
		<tag k="ssr:gruppe" v="veg" />
		<tag k="ssr:hovedgruppe" v="infrastruktur" />
		<tag k="ssr:stedsnr" v="1043437" />
		<tag k="ssr:type" v="adressenavn" />
	</node>
	<node lat="59.2481551337882" lon="10.419096174411095" id="-50623">
		<tag k="name" v="Nordre Løkkevei" />
		<tag k="ssr:date" v="2019-12-27" />
		<tag k="ssr:gruppe" v="veg" />
		<tag k="ssr:hovedgruppe" v="infrastruktur" />
		<tag k="ssr:stedsnr" v="1043443" />
		<tag k="ssr:type" v="adressenavn" />
	</node>
	<node lat="59.24171853698902" lon="10.401599769002193" id="-50624">
		<tag k="name" v="Sidensvansveien" />
		<tag k="ssr:date" v="2019-12-27" />
		<tag k="ssr:gruppe" v="veg" />
		<tag k="ssr:hovedgruppe" v="infrastruktur" />
		<tag k="ssr:stedsnr" v="1043452" />
		<tag k="ssr:type" v="adressenavn" />
	</node>
	<node lat="59.184838342040706" lon="10.458348968364538" id="-50625">
		<tag k="name" v="Sandløkkveien" />
		<tag k="ssr:date" v="2019-12-27" />
		<tag k="ssr:gruppe" v="veg" />
		<tag k="ssr:hovedgruppe" v="infrastruktur" />
		<tag k="ssr:stedsnr" v="1043457" />
		<tag k="ssr:type" v="adressenavn" />
	</node>
	<node lat="59.18031717027558" lon="10.394020414385784" id="-50626">
		<tag k="name" v="Sevikveien" />
		<tag k="ssr:date" v="2019-12-27" />
		<tag k="ssr:gruppe" v="veg" />
		<tag k="ssr:hovedgruppe" v="infrastruktur" />
		<tag k="ssr:stedsnr" v="1043459" />
		<tag k="ssr:type" v="adressenavn" />
	</node>
	<node lat="59.21632784860074" lon="10.418610664926296" id="-50627">
		<tag k="name" v="Semsåsveien" />
		<tag k="ssr:date" v="2019-12-27" />
		<tag k="ssr:gruppe" v="veg" />
		<tag k="ssr:hovedgruppe" v="infrastruktur" />
		<tag k="ssr:stedsnr" v="1043463" />
		<tag k="ssr:type" v="adressenavn" />
	</node>
	<node lat="59.18196625919684" lon="10.36942747962599" id="-50628">
		<tag k="name" v="Sagglovaveien" />
		<tag k="ssr:date" v="2019-12-27" />
		<tag k="ssr:gruppe" v="veg" />
		<tag k="ssr:hovedgruppe" v="infrastruktur" />
		<tag k="ssr:stedsnr" v="1043465" />
		<tag k="ssr:type" v="adressenavn" />
	</node>
	<node lat="59.23925429078317" lon="10.41126588956386" id="-50629">
		<tag k="name" v="Røsselgata" />
		<tag k="ssr:date" v="2019-12-27" />
		<tag k="ssr:gruppe" v="veg" />
		<tag k="ssr:hovedgruppe" v="infrastruktur" />
		<tag k="ssr:stedsnr" v="1043469" />
		<tag k="ssr:type" v="adressenavn" />
	</node>
	<node lat="59.24208966811534" lon="10.401361846454762" id="-50630">
		<tag k="name" v="Rødstrupeveien" />
		<tag k="ssr:date" v="2019-12-27" />
		<tag k="ssr:gruppe" v="veg" />
		<tag k="ssr:hovedgruppe" v="infrastruktur" />
		<tag k="ssr:stedsnr" v="1043473" />
		<tag k="ssr:type" v="adressenavn" />
	</node>
	<node lat="59.247388580982985" lon="10.385943939113375" id="-50631">
		<tag k="name" v="Munkerekkveien" />
		<tag k="ssr:date" v="2019-12-27" />
		<tag k="ssr:gruppe" v="veg" />
		<tag k="ssr:hovedgruppe" v="infrastruktur" />
		<tag k="ssr:stedsnr" v="1043516" />
		<tag k="ssr:type" v="adressenavn" />
	</node>
	<node lat="59.258588033207474" lon="10.390232942333364" id="-50632">
		<tag k="name" v="Midtåsveien" />
		<tag k="ssr:date" v="2019-12-27" />
		<tag k="ssr:gruppe" v="veg" />
		<tag k="ssr:hovedgruppe" v="infrastruktur" />
		<tag k="ssr:stedsnr" v="1043521" />
		<tag k="ssr:type" v="adressenavn" />
	</node>
	<node lat="59.247645082894664" lon="10.41960370643152" id="-50633">
		<tag k="name" v="Midtre Løkkevei" />
		<tag k="ssr:date" v="2019-12-27" />
		<tag k="ssr:gruppe" v="veg" />
		<tag k="ssr:hovedgruppe" v="infrastruktur" />
		<tag k="ssr:stedsnr" v="1043526" />
		<tag k="ssr:type" v="adressenavn" />
	</node>
	<node lat="59.17756581679873" lon="10.45395549538134" id="-50634">
		<tag k="name" v="Middelborgveien" />
		<tag k="ssr:date" v="2019-12-27" />
		<tag k="ssr:gruppe" v="veg" />
		<tag k="ssr:hovedgruppe" v="infrastruktur" />
		<tag k="ssr:stedsnr" v="1043529" />
		<tag k="ssr:type" v="adressenavn" />
	</node>
	<node lat="59.24482886359643" lon="10.399775516825738" id="-50635">
		<tag k="name" v="Meiseveien" />
		<tag k="ssr:date" v="2019-12-27" />
		<tag k="ssr:gruppe" v="veg" />
		<tag k="ssr:hovedgruppe" v="infrastruktur" />
		<tag k="ssr:stedsnr" v="1043531" />
		<tag k="ssr:type" v="adressenavn" />
	</node>
	<node lat="59.25384625010032" lon="10.425007968144167" id="-50636">
		<tag k="name" v="Mauds vei" />
		<tag k="ssr:date" v="2019-12-27" />
		<tag k="ssr:gruppe" v="veg" />
		<tag k="ssr:hovedgruppe" v="infrastruktur" />
		<tag k="ssr:stedsnr" v="1043535" />
		<tag k="ssr:type" v="adressenavn" />
	</node>
	<node lat="59.23910609100395" lon="10.385661589521279" id="-50637">
		<tag k="name" v="Svartorveien" />
		<tag k="ssr:date" v="2019-12-27" />
		<tag k="ssr:gruppe" v="veg" />
		<tag k="ssr:hovedgruppe" v="infrastruktur" />
		<tag k="ssr:stedsnr" v="1043589" />
		<tag k="ssr:type" v="adressenavn" />
	</node>
	<node lat="59.247721185479136" lon="10.391271100790197" id="-50638">
		<tag k="name" v="Svaleveien" />
		<tag k="ssr:date" v="2019-12-27" />
		<tag k="ssr:gruppe" v="veg" />
		<tag k="ssr:hovedgruppe" v="infrastruktur" />
		<tag k="ssr:stedsnr" v="1043594" />
		<tag k="ssr:type" v="adressenavn" />
	</node>
	<node lat="59.24761342681576" lon="10.39049024113383" id="-50639">
		<tag k="name" v="Stærveien" />
		<tag k="ssr:date" v="2019-12-27" />
		<tag k="ssr:gruppe" v="veg" />
		<tag k="ssr:hovedgruppe" v="infrastruktur" />
		<tag k="ssr:stedsnr" v="1043600" />
		<tag k="ssr:type" v="adressenavn" />
	</node>
	<node lat="59.17578259217103" lon="10.397981789571602" id="-50640">
		<tag k="name" v="Styrsvikveien" />
		<tag k="ssr:date" v="2019-12-27" />
		<tag k="ssr:gruppe" v="veg" />
		<tag k="ssr:hovedgruppe" v="infrastruktur" />
		<tag k="ssr:stedsnr" v="1043602" />
		<tag k="ssr:type" v="adressenavn" />
	</node>
	<node lat="59.25089421320948" lon="10.417730498513865" id="-50641">
		<tag k="name" v="Stubbveien" />
		<tag k="ssr:date" v="2019-12-27" />
		<tag k="ssr:gruppe" v="veg" />
		<tag k="ssr:hovedgruppe" v="infrastruktur" />
		<tag k="ssr:stedsnr" v="1043604" />
		<tag k="ssr:type" v="adressenavn" />
	</node>
	<node lat="59.17233308070548" lon="10.409065143908116" id="-50642">
		<tag k="name" v="Strengsdalveien" />
		<tag k="ssr:date" v="2019-12-27" />
		<tag k="ssr:gruppe" v="veg" />
		<tag k="ssr:hovedgruppe" v="infrastruktur" />
		<tag k="ssr:stedsnr" v="1043607" />
		<tag k="ssr:type" v="adressenavn" />
	</node>
	<node lat="59.175686619040555" lon="10.444793044984568" id="-50643">
		<tag k="name" v="Strandåsveien" />
		<tag k="ssr:date" v="2019-12-27" />
		<tag k="ssr:gruppe" v="veg" />
		<tag k="ssr:hovedgruppe" v="infrastruktur" />
		<tag k="ssr:stedsnr" v="1043609" />
		<tag k="ssr:type" v="adressenavn" />
	</node>
	<node lat="59.25505943576881" lon="10.388302569192541" id="-50644">
		<tag k="name" v="Strandheimveien" />
		<tag k="ssr:date" v="2019-12-27" />
		<tag k="ssr:gruppe" v="veg" />
		<tag k="ssr:hovedgruppe" v="infrastruktur" />
		<tag k="ssr:stedsnr" v="1043615" />
		<tag k="ssr:type" v="adressenavn" />
	</node>
	<node lat="59.17208029476376" lon="10.378003312057784" id="-50645">
		<tag k="name" v="Tokenesveien" />
		<tag k="ssr:date" v="2019-12-27" />
		<tag k="ssr:gruppe" v="veg" />
		<tag k="ssr:hovedgruppe" v="infrastruktur" />
		<tag k="ssr:stedsnr" v="1043618" />
		<tag k="ssr:type" v="adressenavn" />
	</node>
	<node lat="59.24474818758653" lon="10.397447764152187" id="-50646">
		<tag k="name" v="Tiurveien" />
		<tag k="ssr:date" v="2019-12-27" />
		<tag k="ssr:gruppe" v="veg" />
		<tag k="ssr:hovedgruppe" v="infrastruktur" />
		<tag k="ssr:stedsnr" v="1043623" />
		<tag k="ssr:type" v="adressenavn" />
	</node>
	<node lat="59.24782874643311" lon="10.41268755271643" id="-50647">
		<tag k="name" v="Thueveien" />
		<tag k="ssr:date" v="2019-12-27" />
		<tag k="ssr:gruppe" v="veg" />
		<tag k="ssr:hovedgruppe" v="infrastruktur" />
		<tag k="ssr:stedsnr" v="1043626" />
		<tag k="ssr:type" v="adressenavn" />
	</node>
	<node lat="59.25303885078982" lon="10.418355256339764" id="-50648">
		<tag k="name" v="Thorvald Bergs vei" />
		<tag k="ssr:date" v="2019-12-27" />
		<tag k="ssr:gruppe" v="veg" />
		<tag k="ssr:hovedgruppe" v="infrastruktur" />
		<tag k="ssr:stedsnr" v="1043633" />
		<tag k="ssr:type" v="adressenavn" />
	</node>
	<node lat="59.19975847555767" lon="10.414064311258269" id="-50649">
		<tag k="name" v="Skrafskjærveien" />
		<tag k="ssr:date" v="2019-12-27" />
		<tag k="ssr:gruppe" v="veg" />
		<tag k="ssr:hovedgruppe" v="infrastruktur" />
		<tag k="ssr:stedsnr" v="1043688" />
		<tag k="ssr:type" v="adressenavn" />
	</node>
	<node lat="59.25136430504147" lon="10.412320428229622" id="-50650">
		<tag k="name" v="Skoleveien" />
		<tag k="ssr:date" v="2019-12-27" />
		<tag k="ssr:gruppe" v="veg" />
		<tag k="ssr:hovedgruppe" v="infrastruktur" />
		<tag k="ssr:stedsnr" v="1043702" />
		<tag k="ssr:type" v="adressenavn" />
	</node>
	<node lat="59.250758220424906" lon="10.425584155628265" id="-50651">
		<tag k="name" v="Skuteveien" />
		<tag k="ssr:date" v="2019-12-27" />
		<tag k="ssr:gruppe" v="veg" />
		<tag k="ssr:hovedgruppe" v="infrastruktur" />
		<tag k="ssr:stedsnr" v="1043683" />
		<tag k="ssr:type" v="adressenavn" />
	</node>
	<node lat="59.23450262165797" lon="10.427171992555849" id="-50652">
		<tag k="name" v="Skarphagaveien" />
		<tag k="ssr:date" v="2019-12-27" />
		<tag k="ssr:gruppe" v="veg" />
		<tag k="ssr:hovedgruppe" v="infrastruktur" />
		<tag k="ssr:stedsnr" v="1043737" />
		<tag k="ssr:type" v="adressenavn" />
	</node>
	<node lat="59.20248525779878" lon="10.440500687814747" id="-50653">
		<tag k="name" v="Skallestadveien" />
		<tag k="ssr:date" v="2019-12-27" />
		<tag k="ssr:gruppe" v="veg" />
		<tag k="ssr:hovedgruppe" v="infrastruktur" />
		<tag k="ssr:stedsnr" v="1043746" />
		<tag k="ssr:type" v="adressenavn" />
	</node>
	<node lat="59.24055716572534" lon="10.4249469994177" id="-50654">
		<tag k="name" v="Sjøveien" />
		<tag k="ssr:date" v="2019-12-27" />
		<tag k="ssr:gruppe" v="veg" />
		<tag k="ssr:hovedgruppe" v="infrastruktur" />
		<tag k="ssr:stedsnr" v="1043751" />
		<tag k="ssr:type" v="adressenavn" />
	</node>
	<node lat="59.187216529687966" lon="10.36245996987555" id="-50655">
		<tag k="name" v="Storebuktveien" />
		<tag k="ssr:date" v="2019-12-27" />
		<tag k="ssr:gruppe" v="veg" />
		<tag k="ssr:hovedgruppe" v="infrastruktur" />
		<tag k="ssr:stedsnr" v="1043764" />
		<tag k="ssr:type" v="adressenavn" />
	</node>
	<node lat="59.24714835789787" lon="10.395343862746687" id="-50656">
		<tag k="name" v="Steindulpveien" />
		<tag k="ssr:date" v="2019-12-27" />
		<tag k="ssr:gruppe" v="veg" />
		<tag k="ssr:hovedgruppe" v="infrastruktur" />
		<tag k="ssr:stedsnr" v="1043772" />
		<tag k="ssr:type" v="adressenavn" />
	</node>
	<node lat="59.22142318929572" lon="10.405022593181119" id="-50657">
		<tag k="name" v="Solhaugveien" />
		<tag k="ssr:date" v="2019-12-27" />
		<tag k="ssr:gruppe" v="veg" />
		<tag k="ssr:hovedgruppe" v="infrastruktur" />
		<tag k="ssr:stedsnr" v="1043841" />
		<tag k="ssr:type" v="adressenavn" />
	</node>
	<node lat="59.2014169400593" lon="10.375818435736887" id="-50658">
		<tag k="name" v="Snarrønningveien" />
		<tag k="ssr:date" v="2019-12-27" />
		<tag k="ssr:gruppe" v="veg" />
		<tag k="ssr:hovedgruppe" v="infrastruktur" />
		<tag k="ssr:stedsnr" v="1043845" />
		<tag k="ssr:type" v="adressenavn" />
	</node>
	<node lat="59.17314103415319" lon="10.369844782787967" id="-50659">
		<tag k="name" v="Småvikveien" />
		<tag k="ssr:date" v="2019-12-27" />
		<tag k="ssr:gruppe" v="veg" />
		<tag k="ssr:hovedgruppe" v="infrastruktur" />
		<tag k="ssr:stedsnr" v="1043848" />
		<tag k="ssr:type" v="adressenavn" />
	</node>
	<node lat="59.221196751530584" lon="10.443579293730926" id="-50660">
		<tag k="name" v="Smidsrødveien" />
		<tag k="ssr:date" v="2019-12-27" />
		<tag k="ssr:gruppe" v="veg" />
		<tag k="ssr:hovedgruppe" v="infrastruktur" />
		<tag k="ssr:stedsnr" v="1043853" />
		<tag k="ssr:type" v="adressenavn" />
	</node>
	<node lat="59.23419923366914" lon="10.4203500001093" id="-50661">
		<tag k="name" v="Sløyfeveien" />
		<tag k="ssr:date" v="2019-12-27" />
		<tag k="ssr:gruppe" v="veg" />
		<tag k="ssr:hovedgruppe" v="infrastruktur" />
		<tag k="ssr:stedsnr" v="1043866" />
		<tag k="ssr:type" v="adressenavn" />
	</node>
	<node lat="59.236533280336644" lon="10.388737600401047" id="-50662">
		<tag k="name" v="Skogstjerneveien" />
		<tag k="ssr:date" v="2019-12-27" />
		<tag k="ssr:gruppe" v="veg" />
		<tag k="ssr:hovedgruppe" v="infrastruktur" />
		<tag k="ssr:stedsnr" v="1043717" />
		<tag k="ssr:type" v="adressenavn" />
	</node>
	<node lat="59.253064547767984" lon="10.414332692100123" id="-50663">
		<tag k="name" v="Skogveien" />
		<tag k="ssr:date" v="2019-12-27" />
		<tag k="ssr:gruppe" v="veg" />
		<tag k="ssr:hovedgruppe" v="infrastruktur" />
		<tag k="ssr:stedsnr" v="1043730" />
		<tag k="ssr:type" v="adressenavn" />
	</node>
	<node lat="59.185946744203584" lon="10.37193594292551" id="-50664">
		<tag k="name" v="Skjerpeveien" />
		<tag k="ssr:date" v="2019-12-27" />
		<tag k="ssr:gruppe" v="veg" />
		<tag k="ssr:hovedgruppe" v="infrastruktur" />
		<tag k="ssr:stedsnr" v="1043734" />
		<tag k="ssr:type" v="adressenavn" />
	</node>
	<node lat="59.263885788338285" lon="10.392468902282088" id="-50665">
		<tag k="name" v="Stalsbergveien" />
		<tag k="ssr:date" v="2019-12-27" />
		<tag k="ssr:gruppe" v="veg" />
		<tag k="ssr:hovedgruppe" v="infrastruktur" />
		<tag k="ssr:stedsnr" v="1043790" />
		<tag k="ssr:type" v="adressenavn" />
	</node>
	<node lat="59.25469407911238" lon="10.409906460354568" id="-50666">
		<tag k="name" v="Speiderveien" />
		<tag k="ssr:date" v="2019-12-27" />
		<tag k="ssr:gruppe" v="veg" />
		<tag k="ssr:hovedgruppe" v="infrastruktur" />
		<tag k="ssr:stedsnr" v="1043808" />
		<tag k="ssr:type" v="adressenavn" />
	</node>
	<node lat="59.194069460653246" lon="10.458164504865518" id="-50667">
		<tag k="name" v="Spars vei" />
		<tag k="ssr:date" v="2019-12-27" />
		<tag k="ssr:gruppe" v="veg" />
		<tag k="ssr:hovedgruppe" v="infrastruktur" />
		<tag k="ssr:stedsnr" v="1043819" />
		<tag k="ssr:type" v="adressenavn" />
	</node>
	<node lat="59.17742217567447" lon="10.442122625547823" id="-50668">
		<tag k="name" v="Solåsveien" />
		<tag k="ssr:date" v="2019-12-27" />
		<tag k="ssr:gruppe" v="veg" />
		<tag k="ssr:hovedgruppe" v="infrastruktur" />
		<tag k="ssr:stedsnr" v="1043834" />
		<tag k="ssr:type" v="adressenavn" />
	</node>
	<node lat="59.253102668807884" lon="10.425499430246324" id="-50669">
		<tag k="name" v="Gjøas vei" />
		<tag k="ssr:date" v="2019-12-27" />
		<tag k="ssr:gruppe" v="veg" />
		<tag k="ssr:hovedgruppe" v="infrastruktur" />
		<tag k="ssr:stedsnr" v="1043886" />
		<tag k="ssr:type" v="adressenavn" />
	</node>
	<node lat="59.23201885074724" lon="10.423381601783538" id="-50670">
		<tag k="name" v="Gipøveien" />
		<tag k="ssr:date" v="2019-12-27" />
		<tag k="ssr:gruppe" v="veg" />
		<tag k="ssr:hovedgruppe" v="infrastruktur" />
		<tag k="ssr:stedsnr" v="1043889" />
		<tag k="ssr:type" v="adressenavn" />
	</node>
	<node lat="59.24984371583805" lon="10.41671107830485" id="-50671">
		<tag k="name" v="Gimleveien" />
		<tag k="ssr:date" v="2019-12-27" />
		<tag k="ssr:gruppe" v="veg" />
		<tag k="ssr:hovedgruppe" v="infrastruktur" />
		<tag k="ssr:stedsnr" v="1043892" />
		<tag k="ssr:type" v="adressenavn" />
	</node>
	<node lat="59.24896080832208" lon="10.413766592172562" id="-50672">
		<tag k="name" v="Gartnerveien" />
		<tag k="ssr:date" v="2019-12-27" />
		<tag k="ssr:gruppe" v="veg" />
		<tag k="ssr:hovedgruppe" v="infrastruktur" />
		<tag k="ssr:stedsnr" v="1043895" />
		<tag k="ssr:type" v="adressenavn" />
	</node>
	<node lat="59.23118831410955" lon="10.406914282190415" id="-50673">
		<tag k="name" v="Gamle Hellavei" />
		<tag k="ssr:date" v="2019-12-27" />
		<tag k="ssr:gruppe" v="veg" />
		<tag k="ssr:hovedgruppe" v="infrastruktur" />
		<tag k="ssr:stedsnr" v="1043897" />
		<tag k="ssr:type" v="adressenavn" />
	</node>
	<node lat="59.2482490472319" lon="10.413021145194898" id="-50674">
		<tag k="name" v="Gamleveien" />
		<tag k="ssr:date" v="2019-12-27" />
		<tag k="ssr:gruppe" v="veg" />
		<tag k="ssr:hovedgruppe" v="infrastruktur" />
		<tag k="ssr:stedsnr" v="1043901" />
		<tag k="ssr:type" v="adressenavn" />
	</node>
	<node lat="59.199612673178216" lon="10.44682992095138" id="-50675">
		<tag k="name" v="Galeasveien" />
		<tag k="ssr:date" v="2019-12-27" />
		<tag k="ssr:gruppe" v="veg" />
		<tag k="ssr:hovedgruppe" v="infrastruktur" />
		<tag k="ssr:stedsnr" v="1043902" />
		<tag k="ssr:type" v="adressenavn" />
	</node>
	<node lat="59.20555789647718" lon="10.423186037878967" id="-50676">
		<tag k="name" v="Føykåsveien" />
		<tag k="ssr:date" v="2019-12-27" />
		<tag k="ssr:gruppe" v="veg" />
		<tag k="ssr:hovedgruppe" v="infrastruktur" />
		<tag k="ssr:stedsnr" v="1043904" />
		<tag k="ssr:type" v="adressenavn" />
	</node>
	<node lat="59.2532213327025" lon="10.40930934468921" id="-50677">
		<tag k="name" v="Granveien" />
		<tag k="ssr:date" v="2019-12-27" />
		<tag k="ssr:gruppe" v="veg" />
		<tag k="ssr:hovedgruppe" v="infrastruktur" />
		<tag k="ssr:stedsnr" v="1043876" />
		<tag k="ssr:type" v="adressenavn" />
	</node>
	<node lat="59.22621633465999" lon="10.436498710789884" id="-50678">
		<tag k="name" v="Granittveien" />
		<tag k="ssr:date" v="2019-12-27" />
		<tag k="ssr:gruppe" v="veg" />
		<tag k="ssr:hovedgruppe" v="infrastruktur" />
		<tag k="ssr:stedsnr" v="1043878" />
		<tag k="ssr:type" v="adressenavn" />
	</node>
	<node lat="59.1946295183278" lon="10.372707023715096" id="-50679">
		<tag k="name" v="Glomsteinveien" />
		<tag k="ssr:date" v="2019-12-27" />
		<tag k="ssr:gruppe" v="veg" />
		<tag k="ssr:hovedgruppe" v="infrastruktur" />
		<tag k="ssr:stedsnr" v="1043881" />
		<tag k="ssr:type" v="adressenavn" />
	</node>
	<node lat="59.24490097962992" lon="10.388291960557588" id="-50680">
		<tag k="name" v="Grågåsveien" />
		<tag k="ssr:date" v="2019-12-27" />
		<tag k="ssr:gruppe" v="veg" />
		<tag k="ssr:hovedgruppe" v="infrastruktur" />
		<tag k="ssr:stedsnr" v="1043936" />
		<tag k="ssr:type" v="adressenavn" />
	</node>
	<node lat="59.25080477316562" lon="10.408695449223066" id="-50681">
		<tag k="name" v="Grindstuveien" />
		<tag k="ssr:date" v="2019-12-27" />
		<tag k="ssr:gruppe" v="veg" />
		<tag k="ssr:hovedgruppe" v="infrastruktur" />
		<tag k="ssr:stedsnr" v="1043939" />
		<tag k="ssr:type" v="adressenavn" />
	</node>
	<node lat="59.256930921252845" lon="10.420478375912596" id="-50682">
		<tag k="name" v="Grensegaten" />
		<tag k="ssr:date" v="2019-12-27" />
		<tag k="ssr:gruppe" v="veg" />
		<tag k="ssr:hovedgruppe" v="infrastruktur" />
		<tag k="ssr:stedsnr" v="1043942" />
		<tag k="ssr:type" v="adressenavn" />
	</node>
	<node lat="59.228408616245325" lon="10.4539374916758" id="-50683">
		<tag k="name" v="Fossåsveien" />
		<tag k="ssr:date" v="2019-12-27" />
		<tag k="ssr:gruppe" v="veg" />
		<tag k="ssr:hovedgruppe" v="infrastruktur" />
		<tag k="ssr:stedsnr" v="1043944" />
		<tag k="ssr:type" v="adressenavn" />
	</node>
	<node lat="59.2441266254825" lon="10.39833406952348" id="-50684">
		<tag k="name" v="Flaggspettveien" />
		<tag k="ssr:date" v="2019-12-27" />
		<tag k="ssr:gruppe" v="veg" />
		<tag k="ssr:hovedgruppe" v="infrastruktur" />
		<tag k="ssr:stedsnr" v="1043947" />
		<tag k="ssr:type" v="adressenavn" />
	</node>
	<node lat="59.24815262454952" lon="10.407233686949498" id="-50685">
		<tag k="name" v="Fjellveien" />
		<tag k="ssr:date" v="2019-12-27" />
		<tag k="ssr:gruppe" v="veg" />
		<tag k="ssr:hovedgruppe" v="infrastruktur" />
		<tag k="ssr:stedsnr" v="1043951" />
		<tag k="ssr:type" v="adressenavn" />
	</node>
	<node lat="59.2419038694594" lon="10.402947629277195" id="-50686">
		<tag k="name" v="Fasanveien" />
		<tag k="ssr:date" v="2019-12-27" />
		<tag k="ssr:gruppe" v="veg" />
		<tag k="ssr:hovedgruppe" v="infrastruktur" />
		<tag k="ssr:stedsnr" v="1043955" />
		<tag k="ssr:type" v="adressenavn" />
	</node>
	<node lat="59.170758220536676" lon="10.382457364736108" id="-50687">
		<tag k="name" v="Fagerbergveien" />
		<tag k="ssr:date" v="2019-12-27" />
		<tag k="ssr:gruppe" v="veg" />
		<tag k="ssr:hovedgruppe" v="infrastruktur" />
		<tag k="ssr:stedsnr" v="1043958" />
		<tag k="ssr:type" v="adressenavn" />
	</node>
	<node lat="59.25518227336491" lon="10.415175495069375" id="-50688">
		<tag k="name" v="Even Tollefsens vei" />
		<tag k="ssr:date" v="2019-12-27" />
		<tag k="ssr:gruppe" v="veg" />
		<tag k="ssr:hovedgruppe" v="infrastruktur" />
		<tag k="ssr:stedsnr" v="1043961" />
		<tag k="ssr:type" v="adressenavn" />
	</node>
	<node lat="59.22200893548587" lon="10.449667733502313" id="-50689">
		<tag k="name" v="Espelundveien" />
		<tag k="ssr:date" v="2019-12-27" />
		<tag k="ssr:gruppe" v="veg" />
		<tag k="ssr:hovedgruppe" v="infrastruktur" />
		<tag k="ssr:stedsnr" v="1043965" />
		<tag k="ssr:type" v="adressenavn" />
	</node>
	<node lat="59.25156204947682" lon="10.418391576375143" id="-50690">
		<tag k="name" v="Engveien" />
		<tag k="ssr:date" v="2019-12-27" />
		<tag k="ssr:gruppe" v="veg" />
		<tag k="ssr:hovedgruppe" v="infrastruktur" />
		<tag k="ssr:stedsnr" v="1043971" />
		<tag k="ssr:type" v="adressenavn" />
	</node>
	<node lat="59.24763611595181" lon="10.390673310938968" id="-50691">
		<tag k="name" v="Furusetveien" />
		<tag k="ssr:date" v="2019-12-27" />
		<tag k="ssr:gruppe" v="veg" />
		<tag k="ssr:hovedgruppe" v="infrastruktur" />
		<tag k="ssr:stedsnr" v="1043974" />
		<tag k="ssr:type" v="adressenavn" />
	</node>
	<node lat="59.19982351412789" lon="10.443535292010504" id="-50692">
		<tag k="name" v="Fullriggerveien" />
		<tag k="ssr:date" v="2019-12-27" />
		<tag k="ssr:gruppe" v="veg" />
		<tag k="ssr:hovedgruppe" v="infrastruktur" />
		<tag k="ssr:stedsnr" v="1043977" />
		<tag k="ssr:type" v="adressenavn" />
	</node>
	<node lat="59.169375167127505" lon="10.381247591911785" id="-50693">
		<tag k="name" v="Fuglevikveien" />
		<tag k="ssr:date" v="2019-12-27" />
		<tag k="ssr:gruppe" v="veg" />
		<tag k="ssr:hovedgruppe" v="infrastruktur" />
		<tag k="ssr:stedsnr" v="1043979" />
		<tag k="ssr:type" v="adressenavn" />
	</node>
	<node lat="59.236651470201735" lon="10.394652861924815" id="-50694">
		<tag k="name" v="Furumoveien" />
		<tag k="ssr:date" v="2019-12-27" />
		<tag k="ssr:gruppe" v="veg" />
		<tag k="ssr:hovedgruppe" v="infrastruktur" />
		<tag k="ssr:stedsnr" v="1043981" />
		<tag k="ssr:type" v="adressenavn" />
	</node>
	<node lat="59.20000765967452" lon="10.448218538038159" id="-50695">
		<tag k="name" v="Kreiertveien" />
		<tag k="ssr:date" v="2019-12-27" />
		<tag k="ssr:gruppe" v="veg" />
		<tag k="ssr:hovedgruppe" v="infrastruktur" />
		<tag k="ssr:stedsnr" v="1044037" />
		<tag k="ssr:type" v="adressenavn" />
	</node>
	<node lat="59.24444025773408" lon="10.394394022979638" id="-50696">
		<tag k="name" v="Korsnebbveien" />
		<tag k="ssr:date" v="2019-12-27" />
		<tag k="ssr:gruppe" v="veg" />
		<tag k="ssr:hovedgruppe" v="infrastruktur" />
		<tag k="ssr:stedsnr" v="1044042" />
		<tag k="ssr:type" v="adressenavn" />
	</node>
	<node lat="59.24649205231247" lon="10.420292432141531" id="-50697">
		<tag k="name" v="Kornveien" />
		<tag k="ssr:date" v="2019-12-27" />
		<tag k="ssr:gruppe" v="veg" />
		<tag k="ssr:hovedgruppe" v="infrastruktur" />
		<tag k="ssr:stedsnr" v="1044048" />
		<tag k="ssr:type" v="adressenavn" />
	</node>
	<node lat="59.22015477051773" lon="10.450781723058293" id="-50698">
		<tag k="name" v="Masløveien" />
		<tag k="ssr:date" v="2019-12-27" />
		<tag k="ssr:gruppe" v="veg" />
		<tag k="ssr:hovedgruppe" v="infrastruktur" />
		<tag k="ssr:stedsnr" v="1044052" />
		<tag k="ssr:type" v="adressenavn" />
	</node>
	<node lat="59.24167079544161" lon="10.424734842323097" id="-50699">
		<tag k="name" v="Marienborgveien" />
		<tag k="ssr:date" v="2019-12-27" />
		<tag k="ssr:gruppe" v="veg" />
		<tag k="ssr:hovedgruppe" v="infrastruktur" />
		<tag k="ssr:stedsnr" v="1044058" />
		<tag k="ssr:type" v="adressenavn" />
	</node>
	<node lat="59.256360214743786" lon="10.390639791508882" id="-50700">
		<tag k="name" v="Løvveien" />
		<tag k="ssr:date" v="2019-12-27" />
		<tag k="ssr:gruppe" v="veg" />
		<tag k="ssr:hovedgruppe" v="infrastruktur" />
		<tag k="ssr:stedsnr" v="1044061" />
		<tag k="ssr:type" v="adressenavn" />
	</node>
	<node lat="59.24134412123126" lon="10.420197638090125" id="-50701">
		<tag k="name" v="Løvvangveien" />
		<tag k="ssr:date" v="2019-12-27" />
		<tag k="ssr:gruppe" v="veg" />
		<tag k="ssr:hovedgruppe" v="infrastruktur" />
		<tag k="ssr:stedsnr" v="1044063" />
		<tag k="ssr:type" v="adressenavn" />
	</node>
	<node lat="59.23329650935902" lon="10.409024307224653" id="-50702">
		<tag k="name" v="Lysakerveien" />
		<tag k="ssr:date" v="2019-12-27" />
		<tag k="ssr:gruppe" v="veg" />
		<tag k="ssr:hovedgruppe" v="infrastruktur" />
		<tag k="ssr:stedsnr" v="1044065" />
		<tag k="ssr:type" v="adressenavn" />
	</node>
	<node lat="59.239291940473876" lon="10.42216909193583" id="-50703">
		<tag k="name" v="Lundheimveien" />
		<tag k="ssr:date" v="2019-12-27" />
		<tag k="ssr:gruppe" v="veg" />
		<tag k="ssr:hovedgruppe" v="infrastruktur" />
		<tag k="ssr:stedsnr" v="1044072" />
		<tag k="ssr:type" v="adressenavn" />
	</node>
	<node lat="59.23528365997379" lon="10.44486676889457" id="-50704">
		<tag k="name" v="Føynveien" />
		<tag k="ssr:date" v="2019-12-27" />
		<tag k="ssr:gruppe" v="veg" />
		<tag k="ssr:hovedgruppe" v="infrastruktur" />
		<tag k="ssr:stedsnr" v="1043905" />
		<tag k="ssr:type" v="adressenavn" />
	</node>
	<node lat="59.23255648103532" lon="10.431359081224668" id="-50705">
		<tag k="name" v="Føynlandveien" />
		<tag k="ssr:date" v="2019-12-27" />
		<tag k="ssr:gruppe" v="veg" />
		<tag k="ssr:hovedgruppe" v="infrastruktur" />
		<tag k="ssr:stedsnr" v="1043906" />
		<tag k="ssr:type" v="adressenavn" />
	</node>
	<node lat="59.20673561885854" lon="10.399109062353952" id="-50706">
		<tag k="name" v="Hovlandveien" />
		<tag k="ssr:date" v="2019-12-27" />
		<tag k="ssr:gruppe" v="veg" />
		<tag k="ssr:hovedgruppe" v="infrastruktur" />
		<tag k="ssr:stedsnr" v="1043908" />
		<tag k="ssr:type" v="adressenavn" />
	</node>
	<node lat="59.2047673514401" lon="10.368732049330625" id="-50707">
		<tag k="name" v="Holmsbrekkene" />
		<tag k="ssr:date" v="2019-12-27" />
		<tag k="ssr:gruppe" v="veg" />
		<tag k="ssr:hovedgruppe" v="infrastruktur" />
		<tag k="ssr:stedsnr" v="1043911" />
		<tag k="ssr:type" v="adressenavn" />
	</node>
	<node lat="59.25136964494935" lon="10.415319418444048" id="-50708">
		<tag k="name" v="Holmenveien" />
		<tag k="ssr:date" v="2019-12-27" />
		<tag k="ssr:gruppe" v="veg" />
		<tag k="ssr:hovedgruppe" v="infrastruktur" />
		<tag k="ssr:stedsnr" v="1043915" />
		<tag k="ssr:type" v="adressenavn" />
	</node>
	<node lat="59.23930880031897" lon="10.41031412159115" id="-50709">
		<tag k="name" v="Herstadåsen" />
		<tag k="ssr:date" v="2019-12-27" />
		<tag k="ssr:gruppe" v="veg" />
		<tag k="ssr:hovedgruppe" v="infrastruktur" />
		<tag k="ssr:stedsnr" v="1043917" />
		<tag k="ssr:type" v="adressenavn" />
	</node>
	<node lat="59.195725265807276" lon="10.448950634647348" id="-50710">
		<tag k="name" v="Hellerudveien" />
		<tag k="ssr:date" v="2019-12-27" />
		<tag k="ssr:gruppe" v="veg" />
		<tag k="ssr:hovedgruppe" v="infrastruktur" />
		<tag k="ssr:stedsnr" v="1043919" />
		<tag k="ssr:type" v="adressenavn" />
	</node>
	<node lat="59.235316301600086" lon="10.410695372945186" id="-50711">
		<tag k="name" v="Herstadveien" />
		<tag k="ssr:date" v="2019-12-27" />
		<tag k="ssr:gruppe" v="veg" />
		<tag k="ssr:hovedgruppe" v="infrastruktur" />
		<tag k="ssr:stedsnr" v="1043920" />
		<tag k="ssr:type" v="adressenavn" />
	</node>
	<node lat="59.1752747724736" lon="10.383540441096894" id="-50712">
		<tag k="name" v="Havgløttveien" />
		<tag k="ssr:date" v="2019-12-27" />
		<tag k="ssr:gruppe" v="veg" />
		<tag k="ssr:hovedgruppe" v="infrastruktur" />
		<tag k="ssr:stedsnr" v="1043921" />
		<tag k="ssr:type" v="adressenavn" />
	</node>
	<node lat="59.22634825460071" lon="10.403245835635476" id="-50713">
		<tag k="name" v="Hellaveien" />
		<tag k="ssr:date" v="2019-12-27" />
		<tag k="ssr:gruppe" v="veg" />
		<tag k="ssr:hovedgruppe" v="infrastruktur" />
		<tag k="ssr:stedsnr" v="1043922" />
		<tag k="ssr:type" v="adressenavn" />
	</node>
	<node lat="59.23247024013499" lon="10.442938224538382" id="-50714">
		<tag k="name" v="Haugåkerveien" />
		<tag k="ssr:date" v="2019-12-27" />
		<tag k="ssr:gruppe" v="veg" />
		<tag k="ssr:hovedgruppe" v="infrastruktur" />
		<tag k="ssr:stedsnr" v="1043923" />
		<tag k="ssr:type" v="adressenavn" />
	</node>
	<node lat="59.24266919138488" lon="10.408454674843451" id="-50715">
		<tag k="name" v="Hansinegata" />
		<tag k="ssr:date" v="2019-12-27" />
		<tag k="ssr:gruppe" v="veg" />
		<tag k="ssr:hovedgruppe" v="infrastruktur" />
		<tag k="ssr:stedsnr" v="1043924" />
		<tag k="ssr:type" v="adressenavn" />
	</node>
	<node lat="59.177878209896775" lon="10.435243800538151" id="-50716">
		<tag k="name" v="Haukemyrveien" />
		<tag k="ssr:date" v="2019-12-27" />
		<tag k="ssr:gruppe" v="veg" />
		<tag k="ssr:hovedgruppe" v="infrastruktur" />
		<tag k="ssr:stedsnr" v="1043925" />
		<tag k="ssr:type" v="adressenavn" />
	</node>
	<node lat="59.22210494372266" lon="10.450046184691699" id="-50717">
		<tag k="name" v="Hanefluveien" />
		<tag k="ssr:date" v="2019-12-27" />
		<tag k="ssr:gruppe" v="veg" />
		<tag k="ssr:hovedgruppe" v="infrastruktur" />
		<tag k="ssr:stedsnr" v="1043926" />
		<tag k="ssr:type" v="adressenavn" />
	</node>
	<node lat="59.17053304900584" lon="10.425721115603173" id="-50718">
		<tag k="name" v="Havnåsveien" />
		<tag k="ssr:date" v="2019-12-27" />
		<tag k="ssr:gruppe" v="veg" />
		<tag k="ssr:hovedgruppe" v="infrastruktur" />
		<tag k="ssr:stedsnr" v="1043927" />
		<tag k="ssr:type" v="adressenavn" />
	</node>
	<node lat="59.232131584016194" lon="10.417385049067427" id="-50719">
		<tag k="name" v="Hagaveien" />
		<tag k="ssr:date" v="2019-12-27" />
		<tag k="ssr:gruppe" v="veg" />
		<tag k="ssr:hovedgruppe" v="infrastruktur" />
		<tag k="ssr:stedsnr" v="1043928" />
		<tag k="ssr:type" v="adressenavn" />
	</node>
	<node lat="59.24289160379594" lon="10.409182093832278" id="-50720">
		<tag k="name" v="Hageliveien" />
		<tag k="ssr:date" v="2019-12-27" />
		<tag k="ssr:gruppe" v="veg" />
		<tag k="ssr:hovedgruppe" v="infrastruktur" />
		<tag k="ssr:stedsnr" v="1043929" />
		<tag k="ssr:type" v="adressenavn" />
	</node>
	<node lat="59.26397747453276" lon="10.391351510421735" id="-50721">
		<tag k="name" v="Harpunveien" />
		<tag k="ssr:date" v="2019-12-27" />
		<tag k="ssr:gruppe" v="veg" />
		<tag k="ssr:hovedgruppe" v="infrastruktur" />
		<tag k="ssr:stedsnr" v="1043931" />
		<tag k="ssr:type" v="adressenavn" />
	</node>
	<node lat="59.20314910594717" lon="10.443035854675355" id="-50722">
		<tag k="name" v="Hagabergveien" />
		<tag k="ssr:date" v="2019-12-27" />
		<tag k="ssr:gruppe" v="veg" />
		<tag k="ssr:hovedgruppe" v="infrastruktur" />
		<tag k="ssr:stedsnr" v="1043932" />
		<tag k="ssr:type" v="adressenavn" />
	</node>
	<node lat="59.21955130236802" lon="10.40067915523778" id="-50723">
		<tag k="name" v="Gunnestadveien" />
		<tag k="ssr:date" v="2019-12-27" />
		<tag k="ssr:gruppe" v="veg" />
		<tag k="ssr:hovedgruppe" v="infrastruktur" />
		<tag k="ssr:stedsnr" v="1043933" />
		<tag k="ssr:type" v="adressenavn" />
	</node>
	<node lat="59.244950601230805" lon="10.399098932986284" id="-50724">
		<tag k="name" v="Fugleveien" />
		<tag k="ssr:date" v="2019-12-27" />
		<tag k="ssr:gruppe" v="veg" />
		<tag k="ssr:hovedgruppe" v="infrastruktur" />
		<tag k="ssr:stedsnr" v="1043988" />
		<tag k="ssr:type" v="adressenavn" />
	</node>
	<node lat="59.262567459483385" lon="10.396432875796533" id="-50725">
		<tag k="name" v="Frøyas vei" />
		<tag k="ssr:date" v="2019-12-27" />
		<tag k="ssr:gruppe" v="veg" />
		<tag k="ssr:hovedgruppe" v="infrastruktur" />
		<tag k="ssr:stedsnr" v="1043993" />
		<tag k="ssr:type" v="adressenavn" />
	</node>
	<node lat="59.247222722223235" lon="10.40581209672113" id="-50726">
		<tag k="name" v="Frognerveien" />
		<tag k="ssr:date" v="2019-12-27" />
		<tag k="ssr:gruppe" v="veg" />
		<tag k="ssr:hovedgruppe" v="infrastruktur" />
		<tag k="ssr:stedsnr" v="1043997" />
		<tag k="ssr:type" v="adressenavn" />
	</node>
	<node lat="59.261801144410505" lon="10.386671245720203" id="-50727">
		<tag k="name" v="Friggs vei" />
		<tag k="ssr:date" v="2019-12-27" />
		<tag k="ssr:gruppe" v="veg" />
		<tag k="ssr:hovedgruppe" v="infrastruktur" />
		<tag k="ssr:stedsnr" v="1044000" />
		<tag k="ssr:type" v="adressenavn" />
	</node>
	<node lat="59.25145211063485" lon="10.424116002127999" id="-50728">
		<tag k="name" v="Frams vei" />
		<tag k="ssr:date" v="2019-12-27" />
		<tag k="ssr:gruppe" v="veg" />
		<tag k="ssr:hovedgruppe" v="infrastruktur" />
		<tag k="ssr:stedsnr" v="1044009" />
		<tag k="ssr:type" v="adressenavn" />
	</node>
	<node lat="59.25961492255516" lon="10.396110013941845" id="-50729">
		<tag k="name" v="Lokes vei" />
		<tag k="ssr:date" v="2019-12-27" />
		<tag k="ssr:gruppe" v="veg" />
		<tag k="ssr:hovedgruppe" v="infrastruktur" />
		<tag k="ssr:stedsnr" v="1044011" />
		<tag k="ssr:type" v="adressenavn" />
	</node>
	<node lat="59.24721704854294" lon="10.395340550463468" id="-50730">
		<tag k="name" v="Linerleveien" />
		<tag k="ssr:date" v="2019-12-27" />
		<tag k="ssr:gruppe" v="veg" />
		<tag k="ssr:hovedgruppe" v="infrastruktur" />
		<tag k="ssr:stedsnr" v="1044016" />
		<tag k="ssr:type" v="adressenavn" />
	</node>
	<node lat="59.218692379229076" lon="10.452396669026482" id="-50731">
		<tag k="name" v="Steinklossveien" />
		<tag k="ssr:date" v="2019-12-27" />
		<tag k="ssr:gruppe" v="veg" />
		<tag k="ssr:hovedgruppe" v="infrastruktur" />
		<tag k="ssr:stedsnr" v="1044021" />
		<tag k="ssr:type" v="adressenavn" />
	</node>
	<node lat="59.24719886979301" lon="10.39286231793275" id="-50732">
		<tag k="name" v="Lerkeveien" />
		<tag k="ssr:date" v="2019-12-27" />
		<tag k="ssr:gruppe" v="veg" />
		<tag k="ssr:hovedgruppe" v="infrastruktur" />
		<tag k="ssr:stedsnr" v="1044026" />
		<tag k="ssr:type" v="adressenavn" />
	</node>
	<node lat="59.19019973698184" lon="10.430051126205496" id="-50733">
		<tag k="name" v="Leirfjellveien" />
		<tag k="ssr:date" v="2019-12-27" />
		<tag k="ssr:gruppe" v="veg" />
		<tag k="ssr:hovedgruppe" v="infrastruktur" />
		<tag k="ssr:stedsnr" v="1044029" />
		<tag k="ssr:type" v="adressenavn" />
	</node>
	<node lat="59.23317123600346" lon="10.433560987341874" id="-50734">
		<tag k="name" v="Lahelleveien" />
		<tag k="ssr:date" v="2019-12-27" />
		<tag k="ssr:gruppe" v="veg" />
		<tag k="ssr:hovedgruppe" v="infrastruktur" />
		<tag k="ssr:stedsnr" v="1044030" />
		<tag k="ssr:type" v="adressenavn" />
	</node>
	<node lat="59.2536973274686" lon="10.41066420899045" id="-50735">
		<tag k="name" v="Kvernhusveien" />
		<tag k="ssr:date" v="2019-12-27" />
		<tag k="ssr:gruppe" v="veg" />
		<tag k="ssr:hovedgruppe" v="infrastruktur" />
		<tag k="ssr:stedsnr" v="1044032" />
		<tag k="ssr:type" v="adressenavn" />
	</node>
	<node lat="59.19982351412789" lon="10.443535292010504" id="-50736">
		<tag k="name" v="Kutterveien" />
		<tag k="ssr:date" v="2019-12-27" />
		<tag k="ssr:gruppe" v="veg" />
		<tag k="ssr:hovedgruppe" v="infrastruktur" />
		<tag k="ssr:stedsnr" v="1044034" />
		<tag k="ssr:type" v="adressenavn" />
	</node>
	<node lat="59.24493506262131" lon="10.407273997135748" id="-50737">
		<tag k="name" v="Knausveien" />
		<tag k="ssr:date" v="2019-12-27" />
		<tag k="ssr:gruppe" v="veg" />
		<tag k="ssr:hovedgruppe" v="infrastruktur" />
		<tag k="ssr:stedsnr" v="1044138" />
		<tag k="ssr:type" v="adressenavn" />
	</node>
	<node lat="59.20805980165259" lon="10.45019636260511" id="-50738">
		<tag k="name" v="Knarbergveien" />
		<tag k="ssr:date" v="2019-12-27" />
		<tag k="ssr:gruppe" v="veg" />
		<tag k="ssr:hovedgruppe" v="infrastruktur" />
		<tag k="ssr:stedsnr" v="1044142" />
		<tag k="ssr:type" v="adressenavn" />
	</node>
	<node lat="59.24600980167505" lon="10.42171620615791" id="-50739">
		<tag k="name" v="Kløverveien" />
		<tag k="ssr:date" v="2019-12-27" />
		<tag k="ssr:gruppe" v="veg" />
		<tag k="ssr:hovedgruppe" v="infrastruktur" />
		<tag k="ssr:stedsnr" v="1044145" />
		<tag k="ssr:type" v="adressenavn" />
	</node>
	<node lat="59.22867814767814" lon="10.406510046588318" id="-50740">
		<tag k="name" v="Klokkerveien" />
		<tag k="ssr:date" v="2019-12-27" />
		<tag k="ssr:gruppe" v="veg" />
		<tag k="ssr:hovedgruppe" v="infrastruktur" />
		<tag k="ssr:stedsnr" v="1044146" />
		<tag k="ssr:type" v="adressenavn" />
	</node>
	<node lat="59.20065670533044" lon="10.44554397437778" id="-50741">
		<tag k="name" v="Klipperveien" />
		<tag k="ssr:date" v="2019-12-27" />
		<tag k="ssr:gruppe" v="veg" />
		<tag k="ssr:hovedgruppe" v="infrastruktur" />
		<tag k="ssr:stedsnr" v="1044148" />
		<tag k="ssr:type" v="adressenavn" />
	</node>
	<node lat="59.13120642694336" lon="10.404352861266288" id="-50742">
		<tag k="name" v="Brekka" />
		<tag k="ssr:date" v="2019-12-27" />
		<tag k="ssr:gruppe" v="veg" />
		<tag k="ssr:hovedgruppe" v="infrastruktur" />
		<tag k="ssr:stedsnr" v="1044150" />
		<tag k="ssr:type" v="adressenavn" />
	</node>
	<node lat="59.076165969194996" lon="10.405224008972635" id="-50743">
		<tag k="name" v="Bjørnevågveien" />
		<tag k="ssr:date" v="2019-12-27" />
		<tag k="ssr:gruppe" v="veg" />
		<tag k="ssr:hovedgruppe" v="infrastruktur" />
		<tag k="ssr:stedsnr" v="1044151" />
		<tag k="ssr:type" v="adressenavn" />
	</node>
	<node lat="59.064616670796845" lon="10.408243509131683" id="-50744">
		<tag k="name" v="Bakkebekkveien" />
		<tag k="ssr:date" v="2019-12-27" />
		<tag k="ssr:gruppe" v="veg" />
		<tag k="ssr:hovedgruppe" v="infrastruktur" />
		<tag k="ssr:stedsnr" v="1044152" />
		<tag k="ssr:type" v="adressenavn" />
	</node>
	<node lat="59.1014390458518" lon="10.382849498905026" id="-50745">
		<tag k="name" v="Barkevikveien" />
		<tag k="ssr:date" v="2019-12-27" />
		<tag k="ssr:gruppe" v="veg" />
		<tag k="ssr:hovedgruppe" v="infrastruktur" />
		<tag k="ssr:stedsnr" v="1044153" />
		<tag k="ssr:type" v="adressenavn" />
	</node>
	<node lat="59.108375204380735" lon="10.4136817841729" id="-50746">
		<tag k="name" v="Bakeriveien" />
		<tag k="ssr:date" v="2019-12-27" />
		<tag k="ssr:gruppe" v="veg" />
		<tag k="ssr:hovedgruppe" v="infrastruktur" />
		<tag k="ssr:stedsnr" v="1044154" />
		<tag k="ssr:type" v="adressenavn" />
	</node>
	<node lat="59.24794562659581" lon="10.42205665671367" id="-50747">
		<tag k="name" v="Lundgaardveien" />
		<tag k="ssr:date" v="2019-12-27" />
		<tag k="ssr:gruppe" v="veg" />
		<tag k="ssr:hovedgruppe" v="infrastruktur" />
		<tag k="ssr:stedsnr" v="1044075" />
		<tag k="ssr:type" v="adressenavn" />
	</node>
	<node lat="59.25420297545553" lon="10.411865831040942" id="-50748">
		<tag k="name" v="Lundveien" />
		<tag k="ssr:date" v="2019-12-27" />
		<tag k="ssr:gruppe" v="veg" />
		<tag k="ssr:hovedgruppe" v="infrastruktur" />
		<tag k="ssr:stedsnr" v="1044080" />
		<tag k="ssr:type" v="adressenavn" />
	</node>
	<node lat="59.24005200440622" lon="10.397951269340577" id="-50749">
		<tag k="name" v="Kjernåsveien" />
		<tag k="ssr:date" v="2019-12-27" />
		<tag k="ssr:gruppe" v="veg" />
		<tag k="ssr:hovedgruppe" v="infrastruktur" />
		<tag k="ssr:stedsnr" v="1044086" />
		<tag k="ssr:type" v="adressenavn" />
	</node>
	<node lat="59.171069312684004" lon="10.384078657912731" id="-50750">
		<tag k="name" v="Kirkeveien" />
		<tag k="ssr:date" v="2019-12-27" />
		<tag k="ssr:gruppe" v="veg" />
		<tag k="ssr:hovedgruppe" v="infrastruktur" />
		<tag k="ssr:stedsnr" v="1044093" />
		<tag k="ssr:type" v="adressenavn" />
	</node>
	<node lat="59.255024195926" lon="10.4074137770209" id="-50751">
		<tag k="name" v="Kikutveien" />
		<tag k="ssr:date" v="2019-12-27" />
		<tag k="ssr:gruppe" v="veg" />
		<tag k="ssr:hovedgruppe" v="infrastruktur" />
		<tag k="ssr:stedsnr" v="1044098" />
		<tag k="ssr:type" v="adressenavn" />
	</node>
	<node lat="59.24111591375299" lon="10.39183066577528" id="-50752">
		<tag k="name" v="Jerpeveien" />
		<tag k="ssr:date" v="2019-12-27" />
		<tag k="ssr:gruppe" v="veg" />
		<tag k="ssr:hovedgruppe" v="infrastruktur" />
		<tag k="ssr:stedsnr" v="1044101" />
		<tag k="ssr:type" v="adressenavn" />
	</node>
	<node lat="59.24055716572534" lon="10.4249469994177" id="-50753">
		<tag k="name" v="Jacob Tiedemanns vei" />
		<tag k="ssr:date" v="2019-12-27" />
		<tag k="ssr:gruppe" v="veg" />
		<tag k="ssr:hovedgruppe" v="infrastruktur" />
		<tag k="ssr:stedsnr" v="1044105" />
		<tag k="ssr:type" v="adressenavn" />
	</node>
	<node lat="59.253555142184915" lon="10.42179992085772" id="-50754">
		<tag k="name" v="Jacob Falcks vei" />
		<tag k="ssr:date" v="2019-12-27" />
		<tag k="ssr:gruppe" v="veg" />
		<tag k="ssr:hovedgruppe" v="infrastruktur" />
		<tag k="ssr:stedsnr" v="1044109" />
		<tag k="ssr:type" v="adressenavn" />
	</node>
	<node lat="59.2032406398504" lon="10.411001235282713" id="-50755">
		<tag k="name" v="Håvaldsrødveien" />
		<tag k="ssr:date" v="2019-12-27" />
		<tag k="ssr:gruppe" v="veg" />
		<tag k="ssr:hovedgruppe" v="infrastruktur" />
		<tag k="ssr:stedsnr" v="1044110" />
		<tag k="ssr:type" v="adressenavn" />
	</node>
	<node lat="59.194890657607026" lon="10.445234811681187" id="-50756">
		<tag k="name" v="Hårkollveien" />
		<tag k="ssr:date" v="2019-12-27" />
		<tag k="ssr:gruppe" v="veg" />
		<tag k="ssr:hovedgruppe" v="infrastruktur" />
		<tag k="ssr:stedsnr" v="1044113" />
		<tag k="ssr:type" v="adressenavn" />
	</node>
	<node lat="59.220141589717464" lon="10.453588784797354" id="-50757">
		<tag k="name" v="Huiveien" />
		<tag k="ssr:date" v="2019-12-27" />
		<tag k="ssr:gruppe" v="veg" />
		<tag k="ssr:hovedgruppe" v="infrastruktur" />
		<tag k="ssr:stedsnr" v="1044117" />
		<tag k="ssr:type" v="adressenavn" />
	</node>
	<node lat="59.23812123591938" lon="10.38890039682392" id="-50758">
		<tag k="name" v="Konvallveien" />
		<tag k="ssr:date" v="2019-12-27" />
		<tag k="ssr:gruppe" v="veg" />
		<tag k="ssr:hovedgruppe" v="infrastruktur" />
		<tag k="ssr:stedsnr" v="1044123" />
		<tag k="ssr:type" v="adressenavn" />
	</node>
	<node lat="59.24655153055282" lon="10.409061293458386" id="-50759">
		<tag k="name" v="Kolleveien" />
		<tag k="ssr:date" v="2019-12-27" />
		<tag k="ssr:gruppe" v="veg" />
		<tag k="ssr:hovedgruppe" v="infrastruktur" />
		<tag k="ssr:stedsnr" v="1044128" />
		<tag k="ssr:type" v="adressenavn" />
	</node>
	<node lat="59.24613310135651" lon="10.411409512788168" id="-50760">
		<tag k="name" v="Kolbergveien" />
		<tag k="ssr:date" v="2019-12-27" />
		<tag k="ssr:gruppe" v="veg" />
		<tag k="ssr:hovedgruppe" v="infrastruktur" />
		<tag k="ssr:stedsnr" v="1044134" />
		<tag k="ssr:type" v="adressenavn" />
	</node>
	<node lat="59.19960761595181" lon="10.448608513261663" id="-50761">
		<tag k="name" v="Koggeveien" />
		<tag k="ssr:date" v="2019-12-27" />
		<tag k="ssr:gruppe" v="veg" />
		<tag k="ssr:hovedgruppe" v="infrastruktur" />
		<tag k="ssr:stedsnr" v="1044135" />
		<tag k="ssr:type" v="adressenavn" />
	</node>
	<node lat="59.24796136634678" lon="10.422094923840433" id="-50762">
		<tag k="name" v="Øvre Strandvei" />
		<tag k="ssr:date" v="2019-12-27" />
		<tag k="ssr:gruppe" v="veg" />
		<tag k="ssr:hovedgruppe" v="infrastruktur" />
		<tag k="ssr:stedsnr" v="1044237" />
		<tag k="ssr:type" v="adressenavn" />
	</node>
	<node lat="59.2342863523088" lon="10.419300990535069" id="-50763">
		<tag k="name" v="Øvre Smidsrødvei" />
		<tag k="ssr:date" v="2019-12-27" />
		<tag k="ssr:gruppe" v="veg" />
		<tag k="ssr:hovedgruppe" v="infrastruktur" />
		<tag k="ssr:stedsnr" v="1044240" />
		<tag k="ssr:type" v="adressenavn" />
	</node>
	<node lat="59.19694444844386" lon="10.388946183223013" id="-50764">
		<tag k="name" v="Øvre Gurødvei" />
		<tag k="ssr:date" v="2019-12-27" />
		<tag k="ssr:gruppe" v="veg" />
		<tag k="ssr:hovedgruppe" v="infrastruktur" />
		<tag k="ssr:stedsnr" v="1044243" />
		<tag k="ssr:type" v="adressenavn" />
	</node>
	<node lat="59.24674046717191" lon="10.406010555285793" id="-50765">
		<tag k="name" v="Øvre Fjellvei" />
		<tag k="ssr:date" v="2019-12-27" />
		<tag k="ssr:gruppe" v="veg" />
		<tag k="ssr:hovedgruppe" v="infrastruktur" />
		<tag k="ssr:stedsnr" v="1044247" />
		<tag k="ssr:type" v="adressenavn" />
	</node>
	<node lat="59.25137632599351" lon="10.415151873409776" id="-50766">
		<tag k="name" v="Ørsnesalleen" />
		<tag k="ssr:date" v="2019-12-27" />
		<tag k="ssr:gruppe" v="veg" />
		<tag k="ssr:hovedgruppe" v="infrastruktur" />
		<tag k="ssr:stedsnr" v="1044251" />
		<tag k="ssr:type" v="adressenavn" />
	</node>
	<node lat="59.24728452575194" lon="10.412804888377334" id="-50767">
		<tag k="name" v="Øgårdsveien" />
		<tag k="ssr:date" v="2019-12-27" />
		<tag k="ssr:gruppe" v="veg" />
		<tag k="ssr:hovedgruppe" v="infrastruktur" />
		<tag k="ssr:stedsnr" v="1044259" />
		<tag k="ssr:type" v="adressenavn" />
	</node>
	<node lat="59.24807501248682" lon="10.393258340694121" id="-50768">
		<tag k="name" v="Veståsveien" />
		<tag k="ssr:date" v="2019-12-27" />
		<tag k="ssr:gruppe" v="veg" />
		<tag k="ssr:hovedgruppe" v="infrastruktur" />
		<tag k="ssr:stedsnr" v="1044263" />
		<tag k="ssr:type" v="adressenavn" />
	</node>
	<node lat="59.180631206530705" lon="10.39693796330725" id="-50769">
		<tag k="name" v="Vestre Styrsvikvei" />
		<tag k="ssr:date" v="2019-12-27" />
		<tag k="ssr:gruppe" v="veg" />
		<tag k="ssr:hovedgruppe" v="infrastruktur" />
		<tag k="ssr:stedsnr" v="1044264" />
		<tag k="ssr:type" v="adressenavn" />
	</node>
	<node lat="59.195594826839425" lon="10.448719085177379" id="-50770">
		<tag k="name" v="Vestre Oterbekkvei" />
		<tag k="ssr:date" v="2019-12-27" />
		<tag k="ssr:gruppe" v="veg" />
		<tag k="ssr:hovedgruppe" v="infrastruktur" />
		<tag k="ssr:stedsnr" v="1044266" />
		<tag k="ssr:type" v="adressenavn" />
	</node>
	<node lat="59.207075265628994" lon="10.443687942250111" id="-50771">
		<tag k="name" v="Veumåsen" />
		<tag k="ssr:date" v="2019-12-27" />
		<tag k="ssr:gruppe" v="veg" />
		<tag k="ssr:hovedgruppe" v="infrastruktur" />
		<tag k="ssr:stedsnr" v="1044268" />
		<tag k="ssr:type" v="adressenavn" />
	</node>
	<node lat="59.23003368725941" lon="10.457513749476089" id="-50772">
		<tag k="name" v="Nilsåsveien" />
		<tag k="ssr:date" v="2019-12-27" />
		<tag k="ssr:gruppe" v="veg" />
		<tag k="ssr:hovedgruppe" v="infrastruktur" />
		<tag k="ssr:stedsnr" v="1044269" />
		<tag k="ssr:type" v="adressenavn" />
	</node>
	<node lat="59.235558627659984" lon="10.445970041071426" id="-50773">
		<tag k="name" v="Kalvetangveien" />
		<tag k="ssr:date" v="2019-12-27" />
		<tag k="ssr:gruppe" v="veg" />
		<tag k="ssr:hovedgruppe" v="infrastruktur" />
		<tag k="ssr:stedsnr" v="1044270" />
		<tag k="ssr:type" v="adressenavn" />
	</node>
	<node lat="59.12098444349933" lon="10.394793031620033" id="-50774">
		<tag k="name" v="Abrahams vei" />
		<tag k="ssr:date" v="2019-12-27" />
		<tag k="ssr:gruppe" v="veg" />
		<tag k="ssr:hovedgruppe" v="infrastruktur" />
		<tag k="ssr:stedsnr" v="1044155" />
		<tag k="ssr:type" v="adressenavn" />
	</node>
	<node lat="59.073478963994944" lon="10.4375642363094" id="-50775">
		<tag k="name" v="Båtbyggerstien" />
		<tag k="ssr:date" v="2019-12-27" />
		<tag k="ssr:gruppe" v="veg" />
		<tag k="ssr:hovedgruppe" v="infrastruktur" />
		<tag k="ssr:stedsnr" v="1044158" />
		<tag k="ssr:type" v="adressenavn" />
	</node>
	<node lat="59.16271012398707" lon="10.407865372098058" id="-50776">
		<tag k="name" v="Bustangen" />
		<tag k="ssr:date" v="2019-12-27" />
		<tag k="ssr:gruppe" v="veg" />
		<tag k="ssr:hovedgruppe" v="infrastruktur" />
		<tag k="ssr:stedsnr" v="1044159" />
		<tag k="ssr:type" v="adressenavn" />
	</node>
	<node lat="59.12101679922537" lon="10.42329816682237" id="-50777">
		<tag k="name" v="Bukkholmveien" />
		<tag k="ssr:date" v="2019-12-27" />
		<tag k="ssr:gruppe" v="veg" />
		<tag k="ssr:hovedgruppe" v="infrastruktur" />
		<tag k="ssr:stedsnr" v="1044160" />
		<tag k="ssr:type" v="adressenavn" />
	</node>
	<node lat="59.15169044049387" lon="10.390331718568804" id="-50778">
		<tag k="name" v="Bukkeliveien" />
		<tag k="ssr:date" v="2019-12-27" />
		<tag k="ssr:gruppe" v="veg" />
		<tag k="ssr:hovedgruppe" v="infrastruktur" />
		<tag k="ssr:stedsnr" v="1044163" />
		<tag k="ssr:type" v="adressenavn" />
	</node>
	<node lat="59.146959296525004" lon="10.389914900438036" id="-50779">
		<tag k="name" v="Bukkeliodden" />
		<tag k="ssr:date" v="2019-12-27" />
		<tag k="ssr:gruppe" v="veg" />
		<tag k="ssr:hovedgruppe" v="infrastruktur" />
		<tag k="ssr:stedsnr" v="1044164" />
		<tag k="ssr:type" v="adressenavn" />
	</node>
	<node lat="59.12602181823036" lon="10.384271179450486" id="-50780">
		<tag k="name" v="Budalåsen" />
		<tag k="ssr:date" v="2019-12-27" />
		<tag k="ssr:gruppe" v="veg" />
		<tag k="ssr:hovedgruppe" v="infrastruktur" />
		<tag k="ssr:stedsnr" v="1044165" />
		<tag k="ssr:type" v="adressenavn" />
	</node>
	<node lat="59.126461951819856" lon="10.384027430335376" id="-50781">
		<tag k="name" v="Budalstranda" />
		<tag k="ssr:date" v="2019-12-27" />
		<tag k="ssr:gruppe" v="veg" />
		<tag k="ssr:hovedgruppe" v="infrastruktur" />
		<tag k="ssr:stedsnr" v="1044166" />
		<tag k="ssr:type" v="adressenavn" />
	</node>
	<node lat="59.12397361105544" lon="10.385422208804812" id="-50782">
		<tag k="name" v="Budalsskogen" />
		<tag k="ssr:date" v="2019-12-27" />
		<tag k="ssr:gruppe" v="veg" />
		<tag k="ssr:hovedgruppe" v="infrastruktur" />
		<tag k="ssr:stedsnr" v="1044167" />
		<tag k="ssr:type" v="adressenavn" />
	</node>
	<node lat="59.123520746455064" lon="10.40860862453873" id="-50783">
		<tag k="name" v="Briskebakken" />
		<tag k="ssr:date" v="2019-12-27" />
		<tag k="ssr:gruppe" v="veg" />
		<tag k="ssr:hovedgruppe" v="infrastruktur" />
		<tag k="ssr:stedsnr" v="1044168" />
		<tag k="ssr:type" v="adressenavn" />
	</node>
	<node lat="59.094895765930495" lon="10.42502540637853" id="-50784">
		<tag k="name" v="Brøtsøveien" />
		<tag k="ssr:date" v="2019-12-27" />
		<tag k="ssr:gruppe" v="veg" />
		<tag k="ssr:hovedgruppe" v="infrastruktur" />
		<tag k="ssr:stedsnr" v="1044169" />
		<tag k="ssr:type" v="adressenavn" />
	</node>
	<node lat="59.06507994934983" lon="10.412022109870236" id="-50785">
		<tag k="name" v="Grepanveien øst" />
		<tag k="ssr:date" v="2019-12-27" />
		<tag k="ssr:gruppe" v="veg" />
		<tag k="ssr:hovedgruppe" v="infrastruktur" />
		<tag k="ssr:stedsnr" v="1044186" />
		<tag k="ssr:type" v="adressenavn" />
	</node>
	<node lat="59.06398050358814" lon="10.408258568967081" id="-50786">
		<tag k="name" v="Grepanveien vest" />
		<tag k="ssr:date" v="2019-12-27" />
		<tag k="ssr:gruppe" v="veg" />
		<tag k="ssr:hovedgruppe" v="infrastruktur" />
		<tag k="ssr:stedsnr" v="1044188" />
		<tag k="ssr:type" v="adressenavn" />
	</node>
	<node lat="59.11669070170239" lon="10.389612023283842" id="-50787">
		<tag k="name" v="Granøveien" />
		<tag k="ssr:date" v="2019-12-27" />
		<tag k="ssr:gruppe" v="veg" />
		<tag k="ssr:hovedgruppe" v="infrastruktur" />
		<tag k="ssr:stedsnr" v="1044189" />
		<tag k="ssr:type" v="adressenavn" />
	</node>
	<node lat="59.10044244782124" lon="10.39328550369797" id="-50788">
		<tag k="name" v="Goneveien" />
		<tag k="ssr:date" v="2019-12-27" />
		<tag k="ssr:gruppe" v="veg" />
		<tag k="ssr:hovedgruppe" v="infrastruktur" />
		<tag k="ssr:stedsnr" v="1044190" />
		<tag k="ssr:type" v="adressenavn" />
	</node>
	<node lat="59.137949314879165" lon="10.394735136875909" id="-50789">
		<tag k="name" v="Glenneveien" />
		<tag k="ssr:date" v="2019-12-27" />
		<tag k="ssr:gruppe" v="veg" />
		<tag k="ssr:hovedgruppe" v="infrastruktur" />
		<tag k="ssr:stedsnr" v="1044191" />
		<tag k="ssr:type" v="adressenavn" />
	</node>
	<node lat="59.13994546703079" lon="10.383321974123797" id="-50790">
		<tag k="name" v="Glennestranda" />
		<tag k="ssr:date" v="2019-12-27" />
		<tag k="ssr:gruppe" v="veg" />
		<tag k="ssr:hovedgruppe" v="infrastruktur" />
		<tag k="ssr:stedsnr" v="1044192" />
		<tag k="ssr:type" v="adressenavn" />
	</node>
	<node lat="59.11499727401677" lon="10.390628777188473" id="-50791">
		<tag k="name" v="Hudøveien" />
		<tag k="ssr:date" v="2019-12-27" />
		<tag k="ssr:gruppe" v="veg" />
		<tag k="ssr:hovedgruppe" v="infrastruktur" />
		<tag k="ssr:stedsnr" v="1044193" />
		<tag k="ssr:type" v="adressenavn" />
	</node>
	<node lat="59.139405203894086" lon="10.405876240685187" id="-50792">
		<tag k="name" v="Holtekjærlia" />
		<tag k="ssr:date" v="2019-12-27" />
		<tag k="ssr:gruppe" v="veg" />
		<tag k="ssr:hovedgruppe" v="infrastruktur" />
		<tag k="ssr:stedsnr" v="1044194" />
		<tag k="ssr:type" v="adressenavn" />
	</node>
	<node lat="59.139839431369175" lon="10.406378408179457" id="-50793">
		<tag k="name" v="Holtekjærstranda" />
		<tag k="ssr:date" v="2019-12-27" />
		<tag k="ssr:gruppe" v="veg" />
		<tag k="ssr:hovedgruppe" v="infrastruktur" />
		<tag k="ssr:stedsnr" v="1044195" />
		<tag k="ssr:type" v="adressenavn" />
	</node>
	<node lat="59.09811120260255" lon="10.426318070586197" id="-50794">
		<tag k="name" v="Holmeveien" />
		<tag k="ssr:date" v="2019-12-27" />
		<tag k="ssr:gruppe" v="veg" />
		<tag k="ssr:hovedgruppe" v="infrastruktur" />
		<tag k="ssr:stedsnr" v="1044196" />
		<tag k="ssr:type" v="adressenavn" />
	</node>
	<node lat="59.111312760370204" lon="10.392962214567088" id="-50795">
		<tag k="name" v="Hestehavna" />
		<tag k="ssr:date" v="2019-12-27" />
		<tag k="ssr:gruppe" v="veg" />
		<tag k="ssr:hovedgruppe" v="infrastruktur" />
		<tag k="ssr:stedsnr" v="1044197" />
		<tag k="ssr:type" v="adressenavn" />
	</node>
	<node lat="59.07031848247616" lon="10.41038990589047" id="-50796">
		<tag k="name" v="Holeveien" />
		<tag k="ssr:date" v="2019-12-27" />
		<tag k="ssr:gruppe" v="veg" />
		<tag k="ssr:hovedgruppe" v="infrastruktur" />
		<tag k="ssr:stedsnr" v="1044198" />
		<tag k="ssr:type" v="adressenavn" />
	</node>
	<node lat="59.072743395220606" lon="10.399894023495202" id="-50797">
		<tag k="name" v="Hellesmoveien" />
		<tag k="ssr:date" v="2019-12-27" />
		<tag k="ssr:gruppe" v="veg" />
		<tag k="ssr:hovedgruppe" v="infrastruktur" />
		<tag k="ssr:stedsnr" v="1044199" />
		<tag k="ssr:type" v="adressenavn" />
	</node>
	<node lat="59.06922990255709" lon="10.403677298755284" id="-50798">
		<tag k="name" v="Helgerødveien" />
		<tag k="ssr:date" v="2019-12-27" />
		<tag k="ssr:gruppe" v="veg" />
		<tag k="ssr:hovedgruppe" v="infrastruktur" />
		<tag k="ssr:stedsnr" v="1044200" />
		<tag k="ssr:type" v="adressenavn" />
	</node>
	<node lat="59.118597872611126" lon="10.394520271187769" id="-50799">
		<tag k="name" v="Haugsrønningen" />
		<tag k="ssr:date" v="2019-12-27" />
		<tag k="ssr:gruppe" v="veg" />
		<tag k="ssr:hovedgruppe" v="infrastruktur" />
		<tag k="ssr:stedsnr" v="1044201" />
		<tag k="ssr:type" v="adressenavn" />
	</node>
	<node lat="59.12205155257619" lon="10.398763516536274" id="-50800">
		<tag k="name" v="Haugsjordet" />
		<tag k="ssr:date" v="2019-12-27" />
		<tag k="ssr:gruppe" v="veg" />
		<tag k="ssr:hovedgruppe" v="infrastruktur" />
		<tag k="ssr:stedsnr" v="1044202" />
		<tag k="ssr:type" v="adressenavn" />
	</node>
	<node lat="59.12413000114106" lon="10.411795059728508" id="-50801">
		<tag k="name" v="Haugsveien" />
		<tag k="ssr:date" v="2019-12-27" />
		<tag k="ssr:gruppe" v="veg" />
		<tag k="ssr:hovedgruppe" v="infrastruktur" />
		<tag k="ssr:stedsnr" v="1044203" />
		<tag k="ssr:type" v="adressenavn" />
	</node>
	<node lat="59.0845494284131" lon="10.407792025048856" id="-50802">
		<tag k="name" v="Havnaveien" />
		<tag k="ssr:date" v="2019-12-27" />
		<tag k="ssr:gruppe" v="veg" />
		<tag k="ssr:hovedgruppe" v="infrastruktur" />
		<tag k="ssr:stedsnr" v="1044204" />
		<tag k="ssr:type" v="adressenavn" />
	</node>
	<node lat="59.10716912296208" lon="10.402960046819775" id="-50803">
		<tag k="name" v="Hallveien" />
		<tag k="ssr:date" v="2019-12-27" />
		<tag k="ssr:gruppe" v="veg" />
		<tag k="ssr:hovedgruppe" v="infrastruktur" />
		<tag k="ssr:stedsnr" v="1044205" />
		<tag k="ssr:type" v="adressenavn" />
	</node>
	<node lat="59.12544102971031" lon="10.409873658251206" id="-50804">
		<tag k="name" v="Aksels vei" />
		<tag k="ssr:date" v="2019-12-27" />
		<tag k="ssr:gruppe" v="veg" />
		<tag k="ssr:hovedgruppe" v="infrastruktur" />
		<tag k="ssr:stedsnr" v="1044206" />
		<tag k="ssr:type" v="adressenavn" />
	</node>
	<node lat="59.16529430796692" lon="10.40293267038105" id="-50805">
		<tag k="name" v="Grindholmveien" />
		<tag k="ssr:date" v="2019-12-27" />
		<tag k="ssr:gruppe" v="veg" />
		<tag k="ssr:hovedgruppe" v="infrastruktur" />
		<tag k="ssr:stedsnr" v="1044207" />
		<tag k="ssr:type" v="adressenavn" />
	</node>
	<node lat="59.06442452028791" lon="10.407190396490341" id="-50806">
		<tag k="name" v="Gunnarsrødveien" />
		<tag k="ssr:date" v="2019-12-27" />
		<tag k="ssr:gruppe" v="veg" />
		<tag k="ssr:hovedgruppe" v="infrastruktur" />
		<tag k="ssr:stedsnr" v="1044208" />
		<tag k="ssr:type" v="adressenavn" />
	</node>
	<node lat="59.133847817724636" lon="10.415172536297995" id="-50807">
		<tag k="name" v="Grimestadstranda" />
		<tag k="ssr:date" v="2019-12-27" />
		<tag k="ssr:gruppe" v="veg" />
		<tag k="ssr:hovedgruppe" v="infrastruktur" />
		<tag k="ssr:stedsnr" v="1044209" />
		<tag k="ssr:type" v="adressenavn" />
	</node>
	<node lat="59.06766780220295" lon="10.412180798716506" id="-50808">
		<tag k="name" v="Grevikveien" />
		<tag k="ssr:date" v="2019-12-27" />
		<tag k="ssr:gruppe" v="veg" />
		<tag k="ssr:hovedgruppe" v="infrastruktur" />
		<tag k="ssr:stedsnr" v="1044210" />
		<tag k="ssr:type" v="adressenavn" />
	</node>
	<node lat="59.11707852484882" lon="10.414216744674693" id="-50809">
		<tag k="name" v="Flatåsveien" />
		<tag k="ssr:date" v="2019-12-27" />
		<tag k="ssr:gruppe" v="veg" />
		<tag k="ssr:hovedgruppe" v="infrastruktur" />
		<tag k="ssr:stedsnr" v="1044211" />
		<tag k="ssr:type" v="adressenavn" />
	</node>
	<node lat="59.14233405332081" lon="10.404056581169678" id="-50810">
		<tag k="name" v="Flekkenveien" />
		<tag k="ssr:date" v="2019-12-27" />
		<tag k="ssr:gruppe" v="veg" />
		<tag k="ssr:hovedgruppe" v="infrastruktur" />
		<tag k="ssr:stedsnr" v="1044213" />
		<tag k="ssr:type" v="adressenavn" />
	</node>
	<node lat="59.16598493532861" lon="10.395858647245651" id="-50811">
		<tag k="name" v="Ferjeodden" />
		<tag k="ssr:date" v="2019-12-27" />
		<tag k="ssr:gruppe" v="veg" />
		<tag k="ssr:hovedgruppe" v="infrastruktur" />
		<tag k="ssr:stedsnr" v="1044215" />
		<tag k="ssr:type" v="adressenavn" />
	</node>
	<node lat="59.10879094172676" lon="10.412300942983375" id="-50812">
		<tag k="name" v="Fagerheimveien" />
		<tag k="ssr:date" v="2019-12-27" />
		<tag k="ssr:gruppe" v="veg" />
		<tag k="ssr:hovedgruppe" v="infrastruktur" />
		<tag k="ssr:stedsnr" v="1044216" />
		<tag k="ssr:type" v="adressenavn" />
	</node>
	<node lat="59.12413000114106" lon="10.411795059728508" id="-50813">
		<tag k="name" v="Engøveien" />
		<tag k="ssr:date" v="2019-12-27" />
		<tag k="ssr:gruppe" v="veg" />
		<tag k="ssr:hovedgruppe" v="infrastruktur" />
		<tag k="ssr:stedsnr" v="1044218" />
		<tag k="ssr:type" v="adressenavn" />
	</node>
	<node lat="59.121072622646096" lon="10.403048415392806" id="-50814">
		<tag k="name" v="Eikeliveien" />
		<tag k="ssr:date" v="2019-12-27" />
		<tag k="ssr:gruppe" v="veg" />
		<tag k="ssr:hovedgruppe" v="infrastruktur" />
		<tag k="ssr:stedsnr" v="1044219" />
		<tag k="ssr:type" v="adressenavn" />
	</node>
	<node lat="59.11458861135105" lon="10.404417339886228" id="-50815">
		<tag k="name" v="Drillene" />
		<tag k="ssr:date" v="2019-12-27" />
		<tag k="ssr:gruppe" v="veg" />
		<tag k="ssr:hovedgruppe" v="infrastruktur" />
		<tag k="ssr:stedsnr" v="1044220" />
		<tag k="ssr:type" v="adressenavn" />
	</node>
	<node lat="59.078323338139235" lon="10.431830911660162" id="-50816">
		<tag k="name" v="Dramsåsveien" />
		<tag k="ssr:date" v="2019-12-27" />
		<tag k="ssr:gruppe" v="veg" />
		<tag k="ssr:hovedgruppe" v="infrastruktur" />
		<tag k="ssr:stedsnr" v="1044221" />
		<tag k="ssr:type" v="adressenavn" />
	</node>
	<node lat="59.10950158479611" lon="10.398686279969512" id="-50817">
		<tag k="name" v="Doktorveien" />
		<tag k="ssr:date" v="2019-12-27" />
		<tag k="ssr:gruppe" v="veg" />
		<tag k="ssr:hovedgruppe" v="infrastruktur" />
		<tag k="ssr:stedsnr" v="1044222" />
		<tag k="ssr:type" v="adressenavn" />
	</node>
	<node lat="59.1084476270681" lon="10.41679267337326" id="-50818">
		<tag k="name" v="Dalsveien" />
		<tag k="ssr:date" v="2019-12-27" />
		<tag k="ssr:gruppe" v="veg" />
		<tag k="ssr:hovedgruppe" v="infrastruktur" />
		<tag k="ssr:stedsnr" v="1044223" />
		<tag k="ssr:type" v="adressenavn" />
	</node>
	<node lat="59.12282313451122" lon="10.413140886639264" id="-50819">
		<tag k="name" v="Dalstoppen" />
		<tag k="ssr:date" v="2019-12-27" />
		<tag k="ssr:gruppe" v="veg" />
		<tag k="ssr:hovedgruppe" v="infrastruktur" />
		<tag k="ssr:stedsnr" v="1044224" />
		<tag k="ssr:type" v="adressenavn" />
	</node>
	<node lat="59.144947650470385" lon="10.39037289945097" id="-50820">
		<tag k="name" v="Gjervågveien" />
		<tag k="ssr:date" v="2019-12-27" />
		<tag k="ssr:gruppe" v="veg" />
		<tag k="ssr:hovedgruppe" v="infrastruktur" />
		<tag k="ssr:stedsnr" v="1044225" />
		<tag k="ssr:type" v="adressenavn" />
	</node>
	<node lat="59.14639833867719" lon="10.3991148842681" id="-50821">
		<tag k="name" v="Gjervågskauen" />
		<tag k="ssr:date" v="2019-12-27" />
		<tag k="ssr:gruppe" v="veg" />
		<tag k="ssr:hovedgruppe" v="infrastruktur" />
		<tag k="ssr:stedsnr" v="1044226" />
		<tag k="ssr:type" v="adressenavn" />
	</node>
	<node lat="59.1207756683671" lon="10.414443175379427" id="-50822">
		<tag k="name" v="Gata" />
		<tag k="ssr:date" v="2019-12-27" />
		<tag k="ssr:gruppe" v="veg" />
		<tag k="ssr:hovedgruppe" v="infrastruktur" />
		<tag k="ssr:stedsnr" v="1044227" />
		<tag k="ssr:type" v="adressenavn" />
	</node>
	<node lat="59.16530612368139" lon="10.396916966987522" id="-50823">
		<tag k="name" v="Hellveien" />
		<tag k="ssr:date" v="2019-12-27" />
		<tag k="ssr:gruppe" v="veg" />
		<tag k="ssr:hovedgruppe" v="infrastruktur" />
		<tag k="ssr:stedsnr" v="1044228" />
		<tag k="ssr:type" v="adressenavn" />
	</node>
	<node lat="59.1249263292416" lon="10.417770190159537" id="-50824">
		<tag k="name" v="Gamle Engøvei" />
		<tag k="ssr:date" v="2019-12-27" />
		<tag k="ssr:gruppe" v="veg" />
		<tag k="ssr:hovedgruppe" v="infrastruktur" />
		<tag k="ssr:stedsnr" v="1044229" />
		<tag k="ssr:type" v="adressenavn" />
	</node>
	<node lat="59.079950616227414" lon="10.452881031140814" id="-50825">
		<tag k="name" v="Fynveien" />
		<tag k="ssr:date" v="2019-12-27" />
		<tag k="ssr:gruppe" v="veg" />
		<tag k="ssr:hovedgruppe" v="infrastruktur" />
		<tag k="ssr:stedsnr" v="1044231" />
		<tag k="ssr:type" v="adressenavn" />
	</node>
	<node lat="59.116830752037494" lon="10.395644271491534" id="-50826">
		<tag k="name" v="Fredtunveien" />
		<tag k="ssr:date" v="2019-12-27" />
		<tag k="ssr:gruppe" v="veg" />
		<tag k="ssr:hovedgruppe" v="infrastruktur" />
		<tag k="ssr:stedsnr" v="1044232" />
		<tag k="ssr:type" v="adressenavn" />
	</node>
	<node lat="59.121089769018546" lon="10.391406036288245" id="-50827">
		<tag k="name" v="Flåteskjærveien" />
		<tag k="ssr:date" v="2019-12-27" />
		<tag k="ssr:gruppe" v="veg" />
		<tag k="ssr:hovedgruppe" v="infrastruktur" />
		<tag k="ssr:stedsnr" v="1044233" />
		<tag k="ssr:type" v="adressenavn" />
	</node>
	<node lat="59.232435847891516" lon="10.456482971665626" id="-50828">
		<tag k="name" v="Marteåsveien" />
		<tag k="ssr:date" v="2019-12-27" />
		<tag k="ssr:gruppe" v="veg" />
		<tag k="ssr:hovedgruppe" v="infrastruktur" />
		<tag k="ssr:stedsnr" v="1044287" />
		<tag k="ssr:type" v="adressenavn" />
	</node>
	<node lat="59.23696866925057" lon="10.396965502854801" id="-50829">
		<tag k="name" v="Labakken" />
		<tag k="ssr:date" v="2019-12-27" />
		<tag k="ssr:gruppe" v="veg" />
		<tag k="ssr:hovedgruppe" v="infrastruktur" />
		<tag k="ssr:stedsnr" v="1044288" />
		<tag k="ssr:type" v="adressenavn" />
	</node>
	<node lat="59.24845896106953" lon="10.404121291288728" id="-50830">
		<tag k="name" v="Seileråsen" />
		<tag k="ssr:date" v="2019-12-27" />
		<tag k="ssr:gruppe" v="veg" />
		<tag k="ssr:hovedgruppe" v="infrastruktur" />
		<tag k="ssr:stedsnr" v="1044290" />
		<tag k="ssr:type" v="adressenavn" />
	</node>
	<node lat="59.256045108707696" lon="10.414468209001537" id="-50831">
		<tag k="name" v="Solveien" />
		<tag k="ssr:date" v="2019-12-27" />
		<tag k="ssr:gruppe" v="veg" />
		<tag k="ssr:hovedgruppe" v="infrastruktur" />
		<tag k="ssr:stedsnr" v="1044291" />
		<tag k="ssr:type" v="adressenavn" />
	</node>
	<node lat="59.204608164935685" lon="10.440804782312677" id="-50832">
		<tag k="name" v="Roppestadveien" />
		<tag k="ssr:date" v="2019-12-27" />
		<tag k="ssr:gruppe" v="veg" />
		<tag k="ssr:hovedgruppe" v="infrastruktur" />
		<tag k="ssr:stedsnr" v="1044292" />
		<tag k="ssr:type" v="adressenavn" />
	</node>
	<node lat="59.2033821010898" lon="10.445781492966132" id="-50833">
		<tag k="name" v="Hauganveien" />
		<tag k="ssr:date" v="2019-12-27" />
		<tag k="ssr:gruppe" v="veg" />
		<tag k="ssr:hovedgruppe" v="infrastruktur" />
		<tag k="ssr:stedsnr" v="1044294" />
		<tag k="ssr:type" v="adressenavn" />
	</node>
	<node lat="59.171646629335775" lon="10.428614527352101" id="-50834">
		<tag k="name" v="Movikveien" />
		<tag k="ssr:date" v="2019-12-27" />
		<tag k="ssr:gruppe" v="veg" />
		<tag k="ssr:hovedgruppe" v="infrastruktur" />
		<tag k="ssr:stedsnr" v="1044295" />
		<tag k="ssr:type" v="adressenavn" />
	</node>
	<node lat="59.223344130917226" lon="10.460883792349998" id="-50835">
		<tag k="name" v="Fjærholmveien" />
		<tag k="ssr:date" v="2019-12-27" />
		<tag k="ssr:gruppe" v="veg" />
		<tag k="ssr:hovedgruppe" v="infrastruktur" />
		<tag k="ssr:stedsnr" v="1044296" />
		<tag k="ssr:type" v="adressenavn" />
	</node>
	<node lat="59.19306949891498" lon="10.449144135111123" id="-50836">
		<tag k="name" v="Berganveien" />
		<tag k="ssr:date" v="2019-12-27" />
		<tag k="ssr:gruppe" v="veg" />
		<tag k="ssr:hovedgruppe" v="infrastruktur" />
		<tag k="ssr:stedsnr" v="1044298" />
		<tag k="ssr:type" v="adressenavn" />
	</node>
	<node lat="59.23415573193295" lon="10.454974312679889" id="-50837">
		<tag k="name" v="Fanejunkerveien" />
		<tag k="ssr:date" v="2019-12-27" />
		<tag k="ssr:gruppe" v="veg" />
		<tag k="ssr:hovedgruppe" v="infrastruktur" />
		<tag k="ssr:stedsnr" v="1044299" />
		<tag k="ssr:type" v="adressenavn" />
	</node>
	<node lat="59.23275291438849" lon="10.451256296717125" id="-50838">
		<tag k="name" v="Østbyveien" />
		<tag k="ssr:date" v="2019-12-27" />
		<tag k="ssr:gruppe" v="veg" />
		<tag k="ssr:hovedgruppe" v="infrastruktur" />
		<tag k="ssr:stedsnr" v="1044300" />
		<tag k="ssr:type" v="adressenavn" />
	</node>
	<node lat="59.2086213347825" lon="10.448404522708778" id="-50839">
		<tag k="name" v="Mallaåsveien" />
		<tag k="ssr:date" v="2019-12-27" />
		<tag k="ssr:gruppe" v="veg" />
		<tag k="ssr:hovedgruppe" v="infrastruktur" />
		<tag k="ssr:stedsnr" v="1044273" />
		<tag k="ssr:type" v="adressenavn" />
	</node>
	<node lat="59.184275166205005" lon="10.389822220403516" id="-50840">
		<tag k="name" v="Høgåsveien" />
		<tag k="ssr:date" v="2019-12-27" />
		<tag k="ssr:gruppe" v="veg" />
		<tag k="ssr:hovedgruppe" v="infrastruktur" />
		<tag k="ssr:stedsnr" v="1044275" />
		<tag k="ssr:type" v="adressenavn" />
	</node>
	<node lat="59.16962490087542" lon="10.431808706204095" id="-50841">
		<tag k="name" v="Movikåsen" />
		<tag k="ssr:date" v="2019-12-27" />
		<tag k="ssr:gruppe" v="veg" />
		<tag k="ssr:hovedgruppe" v="infrastruktur" />
		<tag k="ssr:stedsnr" v="1044277" />
		<tag k="ssr:type" v="adressenavn" />
	</node>
	<node lat="59.26114072862438" lon="10.403537855191237" id="-50842">
		<tag k="name" v="Eiketoppen" />
		<tag k="ssr:date" v="2019-12-27" />
		<tag k="ssr:gruppe" v="veg" />
		<tag k="ssr:hovedgruppe" v="infrastruktur" />
		<tag k="ssr:stedsnr" v="1044278" />
		<tag k="ssr:type" v="adressenavn" />
	</node>
	<node lat="59.23947835958635" lon="10.427204967124002" id="-50843">
		<tag k="name" v="Sjølyst" />
		<tag k="ssr:date" v="2019-12-27" />
		<tag k="ssr:gruppe" v="veg" />
		<tag k="ssr:hovedgruppe" v="infrastruktur" />
		<tag k="ssr:stedsnr" v="1044279" />
		<tag k="ssr:type" v="adressenavn" />
	</node>
	<node lat="59.250592253937995" lon="10.387549767151041" id="-50844">
		<tag k="name" v="Munkholmveien" />
		<tag k="ssr:date" v="2019-12-27" />
		<tag k="ssr:gruppe" v="veg" />
		<tag k="ssr:hovedgruppe" v="infrastruktur" />
		<tag k="ssr:stedsnr" v="1044281" />
		<tag k="ssr:type" v="adressenavn" />
	</node>
	<node lat="59.26053355050932" lon="10.391350284243336" id="-50845">
		<tag k="name" v="Brattbakken" />
		<tag k="ssr:date" v="2019-12-27" />
		<tag k="ssr:gruppe" v="veg" />
		<tag k="ssr:hovedgruppe" v="infrastruktur" />
		<tag k="ssr:stedsnr" v="1044282" />
		<tag k="ssr:type" v="adressenavn" />
	</node>
	<node lat="59.2501250547925" lon="10.410363936689892" id="-50846">
		<tag k="name" v="Steingata" />
		<tag k="ssr:date" v="2019-12-27" />
		<tag k="ssr:gruppe" v="veg" />
		<tag k="ssr:hovedgruppe" v="infrastruktur" />
		<tag k="ssr:stedsnr" v="1044283" />
		<tag k="ssr:type" v="adressenavn" />
	</node>
	<node lat="59.25890378009115" lon="10.385978174153314" id="-50847">
		<tag k="name" v="Ramberg terrasse" />
		<tag k="ssr:date" v="2019-12-27" />
		<tag k="ssr:gruppe" v="veg" />
		<tag k="ssr:hovedgruppe" v="infrastruktur" />
		<tag k="ssr:stedsnr" v="1044284" />
		<tag k="ssr:type" v="adressenavn" />
	</node>
	<node lat="59.26394522881707" lon="10.398726773979115" id="-50848">
		<tag k="name" v="Fagerheimgaten" />
		<tag k="ssr:date" v="2019-12-27" />
		<tag k="ssr:gruppe" v="veg" />
		<tag k="ssr:hovedgruppe" v="infrastruktur" />
		<tag k="ssr:stedsnr" v="1044285" />
		<tag k="ssr:type" v="adressenavn" />
	</node>
	<node lat="59.23772708642117" lon="10.388137277338807" id="-50849">
		<tag k="name" v="Tørkoppveien" />
		<tag k="ssr:date" v="2019-12-27" />
		<tag k="ssr:gruppe" v="veg" />
		<tag k="ssr:hovedgruppe" v="infrastruktur" />
		<tag k="ssr:stedsnr" v="1044341" />
		<tag k="ssr:type" v="adressenavn" />
	</node>
	<node lat="59.22119165404038" lon="10.444853722119635" id="-50850">
		<tag k="name" v="Tørfestveien" />
		<tag k="ssr:date" v="2019-12-27" />
		<tag k="ssr:gruppe" v="veg" />
		<tag k="ssr:hovedgruppe" v="infrastruktur" />
		<tag k="ssr:stedsnr" v="1044349" />
		<tag k="ssr:type" v="adressenavn" />
	</node>
	<node lat="59.251999176518666" lon="10.420498750489973" id="-50851">
		<tag k="name" v="Tverrveien" />
		<tag k="ssr:date" v="2019-12-27" />
		<tag k="ssr:gruppe" v="veg" />
		<tag k="ssr:hovedgruppe" v="infrastruktur" />
		<tag k="ssr:stedsnr" v="1044357" />
		<tag k="ssr:type" v="adressenavn" />
	</node>
	<node lat="59.26031103511508" lon="10.398241456587403" id="-50852">
		<tag k="name" v="Tryms vei" />
		<tag k="ssr:date" v="2019-12-27" />
		<tag k="ssr:gruppe" v="veg" />
		<tag k="ssr:hovedgruppe" v="infrastruktur" />
		<tag k="ssr:stedsnr" v="1044366" />
		<tag k="ssr:type" v="adressenavn" />
	</node>
	<node lat="59.20410866950501" lon="10.409681563280037" id="-50853">
		<tag k="name" v="Trolltorødveien" />
		<tag k="ssr:date" v="2019-12-27" />
		<tag k="ssr:gruppe" v="veg" />
		<tag k="ssr:hovedgruppe" v="infrastruktur" />
		<tag k="ssr:stedsnr" v="1044370" />
		<tag k="ssr:type" v="adressenavn" />
	</node>
	<node lat="59.175201030388074" lon="10.422646175332911" id="-50854">
		<tag k="name" v="Torødveien" />
		<tag k="ssr:date" v="2019-12-27" />
		<tag k="ssr:gruppe" v="veg" />
		<tag k="ssr:hovedgruppe" v="infrastruktur" />
		<tag k="ssr:stedsnr" v="1044372" />
		<tag k="ssr:type" v="adressenavn" />
	</node>
	<node lat="59.25175834785259" lon="10.417106575741244" id="-50855">
		<tag k="name" v="Torvet" />
		<tag k="ssr:date" v="2019-12-27" />
		<tag k="ssr:gruppe" v="veg" />
		<tag k="ssr:hovedgruppe" v="infrastruktur" />
		<tag k="ssr:stedsnr" v="1044374" />
		<tag k="ssr:type" v="adressenavn" />
	</node>
	<node lat="59.26159028081256" lon="10.39959509719021" id="-50856">
		<tag k="name" v="Tors vei" />
		<tag k="ssr:date" v="2019-12-27" />
		<tag k="ssr:gruppe" v="veg" />
		<tag k="ssr:hovedgruppe" v="infrastruktur" />
		<tag k="ssr:stedsnr" v="1044377" />
		<tag k="ssr:type" v="adressenavn" />
	</node>
	<node lat="59.196234853101636" lon="10.383610421735348" id="-50857">
		<tag k="name" v="Torbjørnrødveien" />
		<tag k="ssr:date" v="2019-12-27" />
		<tag k="ssr:gruppe" v="veg" />
		<tag k="ssr:hovedgruppe" v="infrastruktur" />
		<tag k="ssr:stedsnr" v="1044383" />
		<tag k="ssr:type" v="adressenavn" />
	</node>
	<node lat="59.25392094710787" lon="10.421460985720474" id="-50858">
		<tag k="name" v="Tom Wilhelmsens vei" />
		<tag k="ssr:date" v="2019-12-27" />
		<tag k="ssr:gruppe" v="veg" />
		<tag k="ssr:hovedgruppe" v="infrastruktur" />
		<tag k="ssr:stedsnr" v="1044385" />
		<tag k="ssr:type" v="adressenavn" />
	</node>
	<node lat="59.25373183916131" lon="10.391339450884644" id="-50859">
		<tag k="name" v="Vestliveien" />
		<tag k="ssr:date" v="2019-12-27" />
		<tag k="ssr:gruppe" v="veg" />
		<tag k="ssr:hovedgruppe" v="infrastruktur" />
		<tag k="ssr:stedsnr" v="1044392" />
		<tag k="ssr:type" v="adressenavn" />
	</node>
	<node lat="59.19637969276902" lon="10.374317798766855" id="-50860">
		<tag k="name" v="Vestheimveien" />
		<tag k="ssr:date" v="2019-12-27" />
		<tag k="ssr:gruppe" v="veg" />
		<tag k="ssr:hovedgruppe" v="infrastruktur" />
		<tag k="ssr:stedsnr" v="1044393" />
		<tag k="ssr:type" v="adressenavn" />
	</node>
	<node lat="59.24213001379566" lon="10.405373212079326" id="-50861">
		<tag k="name" v="Vestfjordveien" />
		<tag k="ssr:date" v="2019-12-27" />
		<tag k="ssr:gruppe" v="veg" />
		<tag k="ssr:hovedgruppe" v="infrastruktur" />
		<tag k="ssr:stedsnr" v="1044397" />
		<tag k="ssr:type" v="adressenavn" />
	</node>
	<node lat="59.19427304498721" lon="10.405244682593844" id="-50862">
		<tag k="name" v="Veibakken" />
		<tag k="ssr:date" v="2019-12-27" />
		<tag k="ssr:gruppe" v="veg" />
		<tag k="ssr:hovedgruppe" v="infrastruktur" />
		<tag k="ssr:stedsnr" v="1044400" />
		<tag k="ssr:type" v="adressenavn" />
	</node>
	<node lat="59.24403049391274" lon="10.397144397639698" id="-50863">
		<tag k="name" v="Vaktelveien" />
		<tag k="ssr:date" v="2019-12-27" />
		<tag k="ssr:gruppe" v="veg" />
		<tag k="ssr:hovedgruppe" v="infrastruktur" />
		<tag k="ssr:stedsnr" v="1044403" />
		<tag k="ssr:type" v="adressenavn" />
	</node>
	<node lat="59.25079267713905" lon="10.405283352182815" id="-50864">
		<tag k="name" v="Utsiktsveien" />
		<tag k="ssr:date" v="2019-12-27" />
		<tag k="ssr:gruppe" v="veg" />
		<tag k="ssr:hovedgruppe" v="infrastruktur" />
		<tag k="ssr:stedsnr" v="1044408" />
		<tag k="ssr:type" v="adressenavn" />
	</node>
	<node lat="59.26106774624434" lon="10.396168327133461" id="-50865">
		<tag k="name" v="Urds vei" />
		<tag k="ssr:date" v="2019-12-27" />
		<tag k="ssr:gruppe" v="veg" />
		<tag k="ssr:hovedgruppe" v="infrastruktur" />
		<tag k="ssr:stedsnr" v="1044413" />
		<tag k="ssr:type" v="adressenavn" />
	</node>
	<node lat="59.20027715119583" lon="10.450255979975596" id="-50866">
		<tag k="name" v="Ulvåsveien" />
		<tag k="ssr:date" v="2019-12-27" />
		<tag k="ssr:gruppe" v="veg" />
		<tag k="ssr:hovedgruppe" v="infrastruktur" />
		<tag k="ssr:stedsnr" v="1044415" />
		<tag k="ssr:type" v="adressenavn" />
	</node>
	<node lat="59.204776443199734" lon="10.449609872576044" id="-50867">
		<tag k="name" v="Ulvøveien" />
		<tag k="ssr:date" v="2019-12-27" />
		<tag k="ssr:gruppe" v="veg" />
		<tag k="ssr:hovedgruppe" v="infrastruktur" />
		<tag k="ssr:stedsnr" v="1044419" />
		<tag k="ssr:type" v="adressenavn" />
	</node>
	<node lat="59.26508956756772" lon="10.394533641041109" id="-50868">
		<tag k="name" v="Ramdalveien" />
		<tag k="ssr:date" v="2019-12-27" />
		<tag k="ssr:gruppe" v="veg" />
		<tag k="ssr:hovedgruppe" v="infrastruktur" />
		<tag k="ssr:stedsnr" v="1044302" />
		<tag k="ssr:type" v="adressenavn" />
	</node>
	<node lat="59.233835786484285" lon="10.457988352629268" id="-50869">
		<tag k="name" v="Nedre Fjærholmvei" />
		<tag k="ssr:date" v="2019-12-27" />
		<tag k="ssr:gruppe" v="veg" />
		<tag k="ssr:hovedgruppe" v="infrastruktur" />
		<tag k="ssr:stedsnr" v="1044304" />
		<tag k="ssr:type" v="adressenavn" />
	</node>
	<node lat="59.1749821169808" lon="10.365448451169383" id="-50870">
		<tag k="name" v="Tenvikveien" />
		<tag k="ssr:date" v="2019-12-27" />
		<tag k="ssr:gruppe" v="veg" />
		<tag k="ssr:hovedgruppe" v="infrastruktur" />
		<tag k="ssr:stedsnr" v="1044307" />
		<tag k="ssr:type" v="adressenavn" />
	</node>
	<node lat="59.19607074375691" lon="10.400186684130576" id="-50871">
		<tag k="name" v="Mølleveien" />
		<tag k="ssr:date" v="2019-12-27" />
		<tag k="ssr:gruppe" v="veg" />
		<tag k="ssr:hovedgruppe" v="infrastruktur" />
		<tag k="ssr:stedsnr" v="1044308" />
		<tag k="ssr:type" v="adressenavn" />
	</node>
	<node lat="59.16749449521674" lon="10.427375983960367" id="-50872">
		<tag k="name" v="Movik Vestre" />
		<tag k="ssr:date" v="2019-12-27" />
		<tag k="ssr:gruppe" v="veg" />
		<tag k="ssr:hovedgruppe" v="infrastruktur" />
		<tag k="ssr:stedsnr" v="1044310" />
		<tag k="ssr:type" v="adressenavn" />
	</node>
	<node lat="59.217141953213826" lon="10.405596200385562" id="-50873">
		<tag k="name" v="Stangebyveien" />
		<tag k="ssr:date" v="2019-12-27" />
		<tag k="ssr:gruppe" v="veg" />
		<tag k="ssr:hovedgruppe" v="infrastruktur" />
		<tag k="ssr:stedsnr" v="1044311" />
		<tag k="ssr:type" v="adressenavn" />
	</node>
	<node lat="59.18050953880268" lon="10.440213922692381" id="-50874">
		<tag k="name" v="Oserødveien" />
		<tag k="ssr:date" v="2019-12-27" />
		<tag k="ssr:gruppe" v="veg" />
		<tag k="ssr:hovedgruppe" v="infrastruktur" />
		<tag k="ssr:stedsnr" v="1044312" />
		<tag k="ssr:type" v="adressenavn" />
	</node>
	<node lat="59.262699153299096" lon="10.400938477561844" id="-50875">
		<tag k="name" v="Sundveien" />
		<tag k="ssr:date" v="2019-12-27" />
		<tag k="ssr:gruppe" v="veg" />
		<tag k="ssr:hovedgruppe" v="infrastruktur" />
		<tag k="ssr:stedsnr" v="1044313" />
		<tag k="ssr:type" v="adressenavn" />
	</node>
	<node lat="59.22467644977847" lon="10.408947549740468" id="-50876">
		<tag k="name" v="Tinghaugveien" />
		<tag k="ssr:date" v="2019-12-27" />
		<tag k="ssr:gruppe" v="veg" />
		<tag k="ssr:hovedgruppe" v="infrastruktur" />
		<tag k="ssr:stedsnr" v="1044314" />
		<tag k="ssr:type" v="adressenavn" />
	</node>
	<node lat="59.171453870056666" lon="10.412711660308219" id="-50877">
		<tag k="name" v="Saltbustadveien" />
		<tag k="ssr:date" v="2019-12-27" />
		<tag k="ssr:gruppe" v="veg" />
		<tag k="ssr:hovedgruppe" v="infrastruktur" />
		<tag k="ssr:stedsnr" v="1044315" />
		<tag k="ssr:type" v="adressenavn" />
	</node>
	<node lat="59.21006016941226" lon="10.438374857371649" id="-50878">
		<tag k="name" v="Semsveien" />
		<tag k="ssr:date" v="2019-12-27" />
		<tag k="ssr:gruppe" v="veg" />
		<tag k="ssr:hovedgruppe" v="infrastruktur" />
		<tag k="ssr:stedsnr" v="1044316" />
		<tag k="ssr:type" v="adressenavn" />
	</node>
	<node lat="59.19599571108322" lon="10.406040277179736" id="-50879">
		<tag k="name" v="Brattåsveien" />
		<tag k="ssr:date" v="2019-12-27" />
		<tag k="ssr:gruppe" v="veg" />
		<tag k="ssr:hovedgruppe" v="infrastruktur" />
		<tag k="ssr:stedsnr" v="1044317" />
		<tag k="ssr:type" v="adressenavn" />
	</node>
	<node lat="59.21080667192973" lon="10.410904745700437" id="-50880">
		<tag k="name" v="Nattvallveien" />
		<tag k="ssr:date" v="2019-12-27" />
		<tag k="ssr:gruppe" v="veg" />
		<tag k="ssr:hovedgruppe" v="infrastruktur" />
		<tag k="ssr:stedsnr" v="1044318" />
		<tag k="ssr:type" v="adressenavn" />
	</node>
	<node lat="59.2047282283753" lon="10.443864954127315" id="-50881">
		<tag k="name" v="Løkkeåsveien" />
		<tag k="ssr:date" v="2019-12-27" />
		<tag k="ssr:gruppe" v="veg" />
		<tag k="ssr:hovedgruppe" v="infrastruktur" />
		<tag k="ssr:stedsnr" v="1044319" />
		<tag k="ssr:type" v="adressenavn" />
	</node>
	<node lat="59.203705730122" lon="10.441908876198283" id="-50882">
		<tag k="name" v="Bergveien" />
		<tag k="ssr:date" v="2019-12-27" />
		<tag k="ssr:gruppe" v="veg" />
		<tag k="ssr:hovedgruppe" v="infrastruktur" />
		<tag k="ssr:stedsnr" v="1044321" />
		<tag k="ssr:type" v="adressenavn" />
	</node>
	<node lat="59.219345381084864" lon="10.443382688249836" id="-50883">
		<tag k="name" v="Hjemsengveien" />
		<tag k="ssr:date" v="2019-12-27" />
		<tag k="ssr:gruppe" v="veg" />
		<tag k="ssr:hovedgruppe" v="infrastruktur" />
		<tag k="ssr:stedsnr" v="1044322" />
		<tag k="ssr:type" v="adressenavn" />
	</node>
	<node lat="59.21159885226122" lon="10.384671943468724" id="-50884">
		<tag k="name" v="Øraveien" />
		<tag k="ssr:date" v="2019-12-27" />
		<tag k="ssr:gruppe" v="veg" />
		<tag k="ssr:hovedgruppe" v="infrastruktur" />
		<tag k="ssr:stedsnr" v="1044323" />
		<tag k="ssr:type" v="adressenavn" />
	</node>
	<node lat="59.20214015573579" lon="10.443222597403397" id="-50885">
		<tag k="name" v="Krokveien" />
		<tag k="ssr:date" v="2019-12-27" />
		<tag k="ssr:gruppe" v="veg" />
		<tag k="ssr:hovedgruppe" v="infrastruktur" />
		<tag k="ssr:stedsnr" v="1044324" />
		<tag k="ssr:type" v="adressenavn" />
	</node>
	<node lat="59.24343163764686" lon="10.406293286926763" id="-50886">
		<tag k="name" v="Åsveien" />
		<tag k="ssr:date" v="2019-12-27" />
		<tag k="ssr:gruppe" v="veg" />
		<tag k="ssr:hovedgruppe" v="infrastruktur" />
		<tag k="ssr:stedsnr" v="1044325" />
		<tag k="ssr:type" v="adressenavn" />
	</node>
	<node lat="59.18097523748738" lon="10.451867796388088" id="-50887">
		<tag k="name" v="Årøyveien" />
		<tag k="ssr:date" v="2019-12-27" />
		<tag k="ssr:gruppe" v="veg" />
		<tag k="ssr:hovedgruppe" v="infrastruktur" />
		<tag k="ssr:stedsnr" v="1044328" />
		<tag k="ssr:type" v="adressenavn" />
	</node>
	<node lat="59.24735349114297" lon="10.419904515997645" id="-50888">
		<tag k="name" v="Åkerveien" />
		<tag k="ssr:date" v="2019-12-27" />
		<tag k="ssr:gruppe" v="veg" />
		<tag k="ssr:hovedgruppe" v="infrastruktur" />
		<tag k="ssr:stedsnr" v="1044331" />
		<tag k="ssr:type" v="adressenavn" />
	</node>
	<node lat="59.25126195922859" lon="10.402888010144395" id="-50889">
		<tag k="name" v="Øvreveien" />
		<tag k="ssr:date" v="2019-12-27" />
		<tag k="ssr:gruppe" v="veg" />
		<tag k="ssr:hovedgruppe" v="infrastruktur" />
		<tag k="ssr:stedsnr" v="1044334" />
		<tag k="ssr:type" v="adressenavn" />
	</node>
	<node lat="59.243972443058084" lon="10.399643562648862" id="-50890">
		<tag k="name" v="Ugleveien" />
		<tag k="ssr:date" v="2019-12-27" />
		<tag k="ssr:gruppe" v="veg" />
		<tag k="ssr:hovedgruppe" v="infrastruktur" />
		<tag k="ssr:stedsnr" v="1044335" />
		<tag k="ssr:type" v="adressenavn" />
	</node>
	<node lat="59.16408691453992" lon="10.344600809878118" id="-50891">
		<tag k="name" v="Albyveien" />
		<tag k="ssr:date" v="2019-12-27" />
		<tag k="ssr:gruppe" v="veg" />
		<tag k="ssr:hovedgruppe" v="infrastruktur" />
		<tag k="ssr:stedsnr" v="1044537" />
		<tag k="ssr:type" v="adressenavn" />
	</node>
	<node lat="59.16100360739939" lon="10.347082120808354" id="-50892">
		<tag k="name" v="Vestgårdsveien" />
		<tag k="ssr:date" v="2019-12-27" />
		<tag k="ssr:gruppe" v="veg" />
		<tag k="ssr:hovedgruppe" v="infrastruktur" />
		<tag k="ssr:stedsnr" v="1044539" />
		<tag k="ssr:type" v="adressenavn" />
	</node>
	<node lat="59.16328311276603" lon="10.344734778569428" id="-50893">
		<tag k="name" v="Skauveien" />
		<tag k="ssr:date" v="2019-12-27" />
		<tag k="ssr:gruppe" v="veg" />
		<tag k="ssr:hovedgruppe" v="infrastruktur" />
		<tag k="ssr:stedsnr" v="1044541" />
		<tag k="ssr:type" v="adressenavn" />
	</node>
	<node lat="59.16285463945377" lon="10.358712917191509" id="-50894">
		<tag k="name" v="Kjølholmåsen" />
		<tag k="ssr:date" v="2019-12-27" />
		<tag k="ssr:gruppe" v="veg" />
		<tag k="ssr:hovedgruppe" v="infrastruktur" />
		<tag k="ssr:stedsnr" v="1044542" />
		<tag k="ssr:type" v="adressenavn" />
	</node>
	<node lat="59.16256200254868" lon="10.352145585842333" id="-50895">
		<tag k="name" v="Albykilen" />
		<tag k="ssr:date" v="2019-12-27" />
		<tag k="ssr:gruppe" v="veg" />
		<tag k="ssr:hovedgruppe" v="infrastruktur" />
		<tag k="ssr:stedsnr" v="1044544" />
		<tag k="ssr:type" v="adressenavn" />
	</node>
	<node lat="59.142925471395884" lon="10.342700795599292" id="-50896">
		<tag k="name" v="Tangenveien" />
		<tag k="ssr:date" v="2019-12-27" />
		<tag k="ssr:gruppe" v="veg" />
		<tag k="ssr:hovedgruppe" v="infrastruktur" />
		<tag k="ssr:stedsnr" v="1044545" />
		<tag k="ssr:type" v="adressenavn" />
	</node>
	<node lat="59.15569353599934" lon="10.352807785617587" id="-50897">
		<tag k="name" v="Krikaveien" />
		<tag k="ssr:date" v="2019-12-27" />
		<tag k="ssr:gruppe" v="veg" />
		<tag k="ssr:hovedgruppe" v="infrastruktur" />
		<tag k="ssr:stedsnr" v="1044546" />
		<tag k="ssr:type" v="adressenavn" />
	</node>
	<node lat="59.15107524160845" lon="10.357929436165083" id="-50898">
		<tag k="name" v="Taraldkil" />
		<tag k="ssr:date" v="2019-12-27" />
		<tag k="ssr:gruppe" v="veg" />
		<tag k="ssr:hovedgruppe" v="infrastruktur" />
		<tag k="ssr:stedsnr" v="1044548" />
		<tag k="ssr:type" v="adressenavn" />
	</node>
	<node lat="59.15173919708488" lon="10.346895270924053" id="-50899">
		<tag k="name" v="Hvervodden" />
		<tag k="ssr:date" v="2019-12-27" />
		<tag k="ssr:gruppe" v="veg" />
		<tag k="ssr:hovedgruppe" v="infrastruktur" />
		<tag k="ssr:stedsnr" v="1044549" />
		<tag k="ssr:type" v="adressenavn" />
	</node>
	<node lat="59.147578222978254" lon="10.364532923472566" id="-50900">
		<tag k="name" v="Oslebakkveien" />
		<tag k="ssr:date" v="2019-12-27" />
		<tag k="ssr:gruppe" v="veg" />
		<tag k="ssr:hovedgruppe" v="infrastruktur" />
		<tag k="ssr:stedsnr" v="1044550" />
		<tag k="ssr:type" v="adressenavn" />
	</node>
	<node lat="59.15264802189304" lon="10.359386849006803" id="-50901">
		<tag k="name" v="Krikakilen" />
		<tag k="ssr:date" v="2019-12-27" />
		<tag k="ssr:gruppe" v="veg" />
		<tag k="ssr:hovedgruppe" v="infrastruktur" />
		<tag k="ssr:stedsnr" v="1044551" />
		<tag k="ssr:type" v="adressenavn" />
	</node>
	<node lat="59.136353445335075" lon="10.359920616287672" id="-50902">
		<tag k="name" v="Leirkil" />
		<tag k="ssr:date" v="2019-12-27" />
		<tag k="ssr:gruppe" v="veg" />
		<tag k="ssr:hovedgruppe" v="infrastruktur" />
		<tag k="ssr:stedsnr" v="1044552" />
		<tag k="ssr:type" v="adressenavn" />
	</node>
	<node lat="59.15884878038173" lon="10.36284199821358" id="-50903">
		<tag k="name" v="Rønningen" />
		<tag k="ssr:date" v="2019-12-27" />
		<tag k="ssr:gruppe" v="veg" />
		<tag k="ssr:hovedgruppe" v="infrastruktur" />
		<tag k="ssr:stedsnr" v="1044556" />
		<tag k="ssr:type" v="adressenavn" />
	</node>
	<node lat="59.25736914370104" lon="10.42124096722413" id="-50904">
		<tag k="name" v="Ørsnes Brygge" />
		<tag k="ssr:date" v="2019-12-27" />
		<tag k="ssr:gruppe" v="veg" />
		<tag k="ssr:hovedgruppe" v="infrastruktur" />
		<tag k="ssr:stedsnr" v="1044519" />
		<tag k="ssr:type" v="adressenavn" />
	</node>
	<node lat="59.20032817460494" lon="10.429701954878825" id="-50905">
		<tag k="name" v="Vardåsveien" />
		<tag k="ssr:date" v="2019-12-27" />
		<tag k="ssr:gruppe" v="veg" />
		<tag k="ssr:hovedgruppe" v="infrastruktur" />
		<tag k="ssr:stedsnr" v="1044521" />
		<tag k="ssr:type" v="adressenavn" />
	</node>
	<node lat="59.17544510253991" lon="10.599405151694762" id="-50906">
		<tag k="name" v="Fulehuk" />
		<tag k="ssr:date" v="2019-12-27" />
		<tag k="ssr:gruppe" v="veg" />
		<tag k="ssr:hovedgruppe" v="infrastruktur" />
		<tag k="ssr:stedsnr" v="1044523" />
		<tag k="ssr:type" v="adressenavn" />
	</node>
	<node lat="59.1401604272324" lon="10.369440426895343" id="-50907">
		<tag k="name" v="Søndre Oslebakkholmen" />
		<tag k="ssr:date" v="2019-12-27" />
		<tag k="ssr:gruppe" v="veg" />
		<tag k="ssr:hovedgruppe" v="infrastruktur" />
		<tag k="ssr:stedsnr" v="1044525" />
		<tag k="ssr:type" v="adressenavn" />
	</node>
	<node lat="59.1424183845219" lon="10.368322980012566" id="-50908">
		<tag k="name" v="Nordre Oslebakkholmen" />
		<tag k="ssr:date" v="2019-12-27" />
		<tag k="ssr:gruppe" v="veg" />
		<tag k="ssr:hovedgruppe" v="infrastruktur" />
		<tag k="ssr:stedsnr" v="1044526" />
		<tag k="ssr:type" v="adressenavn" />
	</node>
	<node lat="59.14022801096987" lon="10.339711063603167" id="-50909">
		<tag k="name" v="Søndre Brydeholmen" />
		<tag k="ssr:date" v="2019-12-27" />
		<tag k="ssr:gruppe" v="veg" />
		<tag k="ssr:hovedgruppe" v="infrastruktur" />
		<tag k="ssr:stedsnr" v="1044527" />
		<tag k="ssr:type" v="adressenavn" />
	</node>
	<node lat="59.14139211898182" lon="10.339179715905422" id="-50910">
		<tag k="name" v="Nordre Brydeholmen" />
		<tag k="ssr:date" v="2019-12-27" />
		<tag k="ssr:gruppe" v="veg" />
		<tag k="ssr:hovedgruppe" v="infrastruktur" />
		<tag k="ssr:stedsnr" v="1044529" />
		<tag k="ssr:type" v="adressenavn" />
	</node>
	<node lat="59.14503195296546" lon="10.363973681141976" id="-50911">
		<tag k="name" v="Oslebakk" />
		<tag k="ssr:date" v="2019-12-27" />
		<tag k="ssr:gruppe" v="veg" />
		<tag k="ssr:hovedgruppe" v="infrastruktur" />
		<tag k="ssr:stedsnr" v="1044531" />
		<tag k="ssr:type" v="adressenavn" />
	</node>
	<node lat="59.1379678543028" lon="10.352399174980013" id="-50912">
		<tag k="name" v="Nordre Pikeskjær" />
		<tag k="ssr:date" v="2019-12-27" />
		<tag k="ssr:gruppe" v="veg" />
		<tag k="ssr:hovedgruppe" v="infrastruktur" />
		<tag k="ssr:stedsnr" v="1044533" />
		<tag k="ssr:type" v="adressenavn" />
	</node>
	<node lat="59.164862048523254" lon="10.34840501753567" id="-50913">
		<tag k="name" v="Jutodden" />
		<tag k="ssr:date" v="2019-12-27" />
		<tag k="ssr:gruppe" v="veg" />
		<tag k="ssr:hovedgruppe" v="infrastruktur" />
		<tag k="ssr:stedsnr" v="1044535" />
		<tag k="ssr:type" v="adressenavn" />
	</node>
	<node lat="59.222458927508896" lon="10.392861682815045" id="-50914">
		<tag k="name" v="Sanneveien" />
		<tag k="ssr:date" v="2019-12-27" />
		<tag k="ssr:gruppe" v="veg" />
		<tag k="ssr:hovedgruppe" v="infrastruktur" />
		<tag k="ssr:stedsnr" v="1044586" />
		<tag k="ssr:type" v="adressenavn" />
	</node>
	<node lat="59.165307554899485" lon="10.488010843586562" id="-50915">
		<tag k="name" v="Bukkholmen" />
		<tag k="ssr:date" v="2019-12-27" />
		<tag k="ssr:gruppe" v="veg" />
		<tag k="ssr:hovedgruppe" v="infrastruktur" />
		<tag k="ssr:stedsnr" v="1044588" />
		<tag k="ssr:type" v="adressenavn" />
	</node>
	<node lat="59.227562828799684" lon="10.490160202147454" id="-50916">
		<tag k="name" v="Langeskjær" />
		<tag k="ssr:date" v="2019-12-27" />
		<tag k="ssr:gruppe" v="veg" />
		<tag k="ssr:hovedgruppe" v="infrastruktur" />
		<tag k="ssr:stedsnr" v="1044591" />
		<tag k="ssr:type" v="adressenavn" />
	</node>
	<node lat="59.18289718092169" lon="10.483017418400005" id="-50917">
		<tag k="name" v="Kjøleholmen" />
		<tag k="ssr:date" v="2019-12-27" />
		<tag k="ssr:gruppe" v="veg" />
		<tag k="ssr:hovedgruppe" v="infrastruktur" />
		<tag k="ssr:stedsnr" v="1044593" />
		<tag k="ssr:type" v="adressenavn" />
	</node>
	<node lat="59.166355672835" lon="10.492167226249643" id="-50918">
		<tag k="name" v="Roppestadholmen" />
		<tag k="ssr:date" v="2019-12-27" />
		<tag k="ssr:gruppe" v="veg" />
		<tag k="ssr:hovedgruppe" v="infrastruktur" />
		<tag k="ssr:stedsnr" v="1044596" />
		<tag k="ssr:type" v="adressenavn" />
	</node>
	<node lat="59.174283826166445" lon="10.47431579884616" id="-50919">
		<tag k="name" v="Vassholmen" />
		<tag k="ssr:date" v="2019-12-27" />
		<tag k="ssr:gruppe" v="veg" />
		<tag k="ssr:hovedgruppe" v="infrastruktur" />
		<tag k="ssr:stedsnr" v="1044598" />
		<tag k="ssr:type" v="adressenavn" />
	</node>
	<node lat="59.2182253387608" lon="10.462948331574358" id="-50920">
		<tag k="name" v="Barneskjær" />
		<tag k="ssr:date" v="2019-12-27" />
		<tag k="ssr:gruppe" v="veg" />
		<tag k="ssr:hovedgruppe" v="infrastruktur" />
		<tag k="ssr:stedsnr" v="1044601" />
		<tag k="ssr:type" v="adressenavn" />
	</node>
	<node lat="59.17565480851991" lon="10.461881503464475" id="-50921">
		<tag k="name" v="Geiteskjær" />
		<tag k="ssr:date" v="2019-12-27" />
		<tag k="ssr:gruppe" v="veg" />
		<tag k="ssr:hovedgruppe" v="infrastruktur" />
		<tag k="ssr:stedsnr" v="1044603" />
		<tag k="ssr:type" v="adressenavn" />
	</node>
	<node lat="59.17824556950922" lon="10.485843277179866" id="-50922">
		<tag k="name" v="Lindholmen" />
		<tag k="ssr:date" v="2019-12-27" />
		<tag k="ssr:gruppe" v="veg" />
		<tag k="ssr:hovedgruppe" v="infrastruktur" />
		<tag k="ssr:stedsnr" v="1044605" />
		<tag k="ssr:type" v="adressenavn" />
	</node>
	<node lat="59.17354437416773" lon="10.451795078150278" id="-50923">
		<tag k="name" v="Søndre Årøy" />
		<tag k="ssr:date" v="2019-12-27" />
		<tag k="ssr:gruppe" v="veg" />
		<tag k="ssr:hovedgruppe" v="infrastruktur" />
		<tag k="ssr:stedsnr" v="1044606" />
		<tag k="ssr:type" v="adressenavn" />
	</node>
	<node lat="59.18051748167879" lon="10.46238787053796" id="-50924">
		<tag k="name" v="Nordre Årøy" />
		<tag k="ssr:date" v="2019-12-27" />
		<tag k="ssr:gruppe" v="veg" />
		<tag k="ssr:hovedgruppe" v="infrastruktur" />
		<tag k="ssr:stedsnr" v="1044608" />
		<tag k="ssr:type" v="adressenavn" />
	</node>
	<node lat="59.1962991258596" lon="10.506359116065134" id="-50925">
		<tag k="name" v="Gåsøy" />
		<tag k="ssr:date" v="2019-12-27" />
		<tag k="ssr:gruppe" v="veg" />
		<tag k="ssr:hovedgruppe" v="infrastruktur" />
		<tag k="ssr:stedsnr" v="1044609" />
		<tag k="ssr:type" v="adressenavn" />
	</node>
	<node lat="59.15485229368967" lon="10.48725955831485" id="-50926">
		<tag k="name" v="Skrøslingen" />
		<tag k="ssr:date" v="2019-12-27" />
		<tag k="ssr:gruppe" v="veg" />
		<tag k="ssr:hovedgruppe" v="infrastruktur" />
		<tag k="ssr:stedsnr" v="1044610" />
		<tag k="ssr:type" v="adressenavn" />
	</node>
	<node lat="59.19731074011728" lon="10.466588648214032" id="-50927">
		<tag k="name" v="Bjerkøy" />
		<tag k="ssr:date" v="2019-12-27" />
		<tag k="ssr:gruppe" v="veg" />
		<tag k="ssr:hovedgruppe" v="infrastruktur" />
		<tag k="ssr:stedsnr" v="1044612" />
		<tag k="ssr:type" v="adressenavn" />
	</node>
	<node lat="59.20238514595834" lon="10.497346064098084" id="-50928">
		<tag k="name" v="Hvaløy" />
		<tag k="ssr:date" v="2019-12-27" />
		<tag k="ssr:gruppe" v="veg" />
		<tag k="ssr:hovedgruppe" v="infrastruktur" />
		<tag k="ssr:stedsnr" v="1044613" />
		<tag k="ssr:type" v="adressenavn" />
	</node>
	<node lat="59.226123832916095" lon="10.433939354042739" id="-50929">
		<tag k="name" v="Gneisveien" />
		<tag k="ssr:date" v="2019-12-27" />
		<tag k="ssr:gruppe" v="veg" />
		<tag k="ssr:hovedgruppe" v="infrastruktur" />
		<tag k="ssr:stedsnr" v="1044614" />
		<tag k="ssr:type" v="adressenavn" />
	</node>
	<node lat="59.21653869263054" lon="10.442548675616699" id="-50930">
		<tag k="name" v="Nordre Nesvei" />
		<tag k="ssr:date" v="2019-12-27" />
		<tag k="ssr:gruppe" v="veg" />
		<tag k="ssr:hovedgruppe" v="infrastruktur" />
		<tag k="ssr:stedsnr" v="1044615" />
		<tag k="ssr:type" v="adressenavn" />
	</node>
	<node lat="59.19857894183549" lon="10.377309898807917" id="-50931">
		<tag k="name" v="Tømmerholtåsen" />
		<tag k="ssr:date" v="2019-12-27" />
		<tag k="ssr:gruppe" v="veg" />
		<tag k="ssr:hovedgruppe" v="infrastruktur" />
		<tag k="ssr:stedsnr" v="1044616" />
		<tag k="ssr:type" v="adressenavn" />
	</node>
	<node lat="59.19741371065536" lon="10.45203992898364" id="-50932">
		<tag k="name" v="Arås brygge" />
		<tag k="ssr:date" v="2019-12-27" />
		<tag k="ssr:gruppe" v="veg" />
		<tag k="ssr:hovedgruppe" v="infrastruktur" />
		<tag k="ssr:stedsnr" v="1044617" />
		<tag k="ssr:type" v="adressenavn" />
	</node>
	<node lat="59.18100220316443" lon="10.442109472209934" id="-50933">
		<tag k="name" v="Kapellveien" />
		<tag k="ssr:date" v="2019-12-27" />
		<tag k="ssr:gruppe" v="veg" />
		<tag k="ssr:hovedgruppe" v="infrastruktur" />
		<tag k="ssr:stedsnr" v="1044618" />
		<tag k="ssr:type" v="adressenavn" />
	</node>
	<node lat="59.264130641204936" lon="10.389762016841075" id="-50934">
		<tag k="name" v="Danholmen" />
		<tag k="ssr:date" v="2019-12-27" />
		<tag k="ssr:gruppe" v="veg" />
		<tag k="ssr:hovedgruppe" v="infrastruktur" />
		<tag k="ssr:stedsnr" v="1044619" />
		<tag k="ssr:type" v="adressenavn" />
	</node>
	<node lat="59.26512448065744" lon="10.394757305916972" id="-50935">
		<tag k="name" v="Kaldnesgaten" />
		<tag k="ssr:date" v="2019-12-27" />
		<tag k="ssr:gruppe" v="veg" />
		<tag k="ssr:hovedgruppe" v="infrastruktur" />
		<tag k="ssr:stedsnr" v="1044620" />
		<tag k="ssr:type" v="adressenavn" />
	</node>
	<node lat="59.23203176568938" lon="10.389487313450537" id="-50936">
		<tag k="name" v="Hellalia" />
		<tag k="ssr:date" v="2019-12-27" />
		<tag k="ssr:gruppe" v="veg" />
		<tag k="ssr:hovedgruppe" v="infrastruktur" />
		<tag k="ssr:stedsnr" v="1044621" />
		<tag k="ssr:type" v="adressenavn" />
	</node>
	<node lat="59.220386261764105" lon="10.438182141161219" id="-50937">
		<tag k="name" v="Bugården syd" />
		<tag k="ssr:date" v="2019-12-27" />
		<tag k="ssr:gruppe" v="veg" />
		<tag k="ssr:hovedgruppe" v="infrastruktur" />
		<tag k="ssr:stedsnr" v="1044623" />
		<tag k="ssr:type" v="adressenavn" />
	</node>
	<node lat="59.26176440322825" lon="10.39872137260378" id="-50938">
		<tag k="name" v="Brages vei" />
		<tag k="ssr:date" v="2019-12-27" />
		<tag k="ssr:gruppe" v="veg" />
		<tag k="ssr:hovedgruppe" v="infrastruktur" />
		<tag k="ssr:stedsnr" v="1044624" />
		<tag k="ssr:type" v="adressenavn" />
	</node>
	<node lat="59.19740899485869" lon="10.439039556027877" id="-50939">
		<tag k="name" v="Oserødmyra" />
		<tag k="ssr:date" v="2019-12-27" />
		<tag k="ssr:gruppe" v="veg" />
		<tag k="ssr:hovedgruppe" v="infrastruktur" />
		<tag k="ssr:stedsnr" v="1044626" />
		<tag k="ssr:type" v="adressenavn" />
	</node>
	<node lat="59.14501536266361" lon="10.341436510143307" id="-50940">
		<tag k="name" v="Hverven" />
		<tag k="ssr:date" v="2019-12-27" />
		<tag k="ssr:gruppe" v="veg" />
		<tag k="ssr:hovedgruppe" v="infrastruktur" />
		<tag k="ssr:stedsnr" v="1044559" />
		<tag k="ssr:type" v="adressenavn" />
	</node>
	<node lat="59.14072786031092" lon="10.346093087610242" id="-50941">
		<tag k="name" v="Salteriodden" />
		<tag k="ssr:date" v="2019-12-27" />
		<tag k="ssr:gruppe" v="veg" />
		<tag k="ssr:hovedgruppe" v="infrastruktur" />
		<tag k="ssr:stedsnr" v="1044560" />
		<tag k="ssr:type" v="adressenavn" />
	</node>
	<node lat="59.148299078771906" lon="10.343932307738369" id="-50942">
		<tag k="name" v="Kongshavn" />
		<tag k="ssr:date" v="2019-12-27" />
		<tag k="ssr:gruppe" v="veg" />
		<tag k="ssr:hovedgruppe" v="infrastruktur" />
		<tag k="ssr:stedsnr" v="1044563" />
		<tag k="ssr:type" v="adressenavn" />
	</node>
	<node lat="59.145737135605025" lon="10.338510306215856" id="-50943">
		<tag k="name" v="Vestre Tangenkil" />
		<tag k="ssr:date" v="2019-12-27" />
		<tag k="ssr:gruppe" v="veg" />
		<tag k="ssr:hovedgruppe" v="infrastruktur" />
		<tag k="ssr:stedsnr" v="1044565" />
		<tag k="ssr:type" v="adressenavn" />
	</node>
	<node lat="59.14836516670224" lon="10.343944339692747" id="-50944">
		<tag k="name" v="Rispa" />
		<tag k="ssr:date" v="2019-12-27" />
		<tag k="ssr:gruppe" v="veg" />
		<tag k="ssr:hovedgruppe" v="infrastruktur" />
		<tag k="ssr:stedsnr" v="1044567" />
		<tag k="ssr:type" v="adressenavn" />
	</node>
	<node lat="59.15043705947026" lon="10.338895865430395" id="-50945">
		<tag k="name" v="Såta" />
		<tag k="ssr:date" v="2019-12-27" />
		<tag k="ssr:gruppe" v="veg" />
		<tag k="ssr:hovedgruppe" v="infrastruktur" />
		<tag k="ssr:stedsnr" v="1044569" />
		<tag k="ssr:type" v="adressenavn" />
	</node>
	<node lat="59.15396075877667" lon="10.341568066036237" id="-50946">
		<tag k="name" v="Gamle Tangenvei" />
		<tag k="ssr:date" v="2019-12-27" />
		<tag k="ssr:gruppe" v="veg" />
		<tag k="ssr:hovedgruppe" v="infrastruktur" />
		<tag k="ssr:stedsnr" v="1044571" />
		<tag k="ssr:type" v="adressenavn" />
	</node>
	<node lat="59.15043705947026" lon="10.338895865430395" id="-50947">
		<tag k="name" v="Båsløkka" />
		<tag k="ssr:date" v="2019-12-27" />
		<tag k="ssr:gruppe" v="veg" />
		<tag k="ssr:hovedgruppe" v="infrastruktur" />
		<tag k="ssr:stedsnr" v="1044573" />
		<tag k="ssr:type" v="adressenavn" />
	</node>
	<node lat="59.17870747123111" lon="10.354407849016765" id="-50948">
		<tag k="name" v="Håøya" />
		<tag k="ssr:date" v="2019-12-27" />
		<tag k="ssr:gruppe" v="veg" />
		<tag k="ssr:hovedgruppe" v="infrastruktur" />
		<tag k="ssr:stedsnr" v="1044575" />
		<tag k="ssr:type" v="adressenavn" />
	</node>
	<node lat="59.21121170634117" lon="10.556463971479415" id="-50949">
		<tag k="name" v="Mellom Bolæren" />
		<tag k="ssr:date" v="2019-12-27" />
		<tag k="ssr:gruppe" v="veg" />
		<tag k="ssr:hovedgruppe" v="infrastruktur" />
		<tag k="ssr:stedsnr" v="1044577" />
		<tag k="ssr:type" v="adressenavn" />
	</node>
	<node lat="59.236798640098755" lon="10.450720399383737" id="-50950">
		<tag k="name" v="Mathiasbakken" />
		<tag k="ssr:date" v="2019-12-27" />
		<tag k="ssr:gruppe" v="veg" />
		<tag k="ssr:hovedgruppe" v="infrastruktur" />
		<tag k="ssr:stedsnr" v="1044579" />
		<tag k="ssr:type" v="adressenavn" />
	</node>
	<node lat="59.177037535983665" lon="10.422363400215204" id="-50951">
		<tag k="name" v="Buerteigveien" />
		<tag k="ssr:date" v="2019-12-27" />
		<tag k="ssr:gruppe" v="veg" />
		<tag k="ssr:hovedgruppe" v="infrastruktur" />
		<tag k="ssr:stedsnr" v="1044581" />
		<tag k="ssr:type" v="adressenavn" />
	</node>
	<node lat="59.24309001669941" lon="10.51755698382762" id="-50952">
		<tag k="name" v="Fjærskjær" />
		<tag k="ssr:date" v="2019-12-27" />
		<tag k="ssr:gruppe" v="veg" />
		<tag k="ssr:hovedgruppe" v="infrastruktur" />
		<tag k="ssr:stedsnr" v="1044583" />
		<tag k="ssr:type" v="adressenavn" />
	</node>
	<node lat="59.261656869746" lon="10.402899067281387" id="-50953">
		<tag k="name" v="Petersborgveien" />
		<tag k="ssr:date" v="2019-12-27" />
		<tag k="ssr:gruppe" v="veg" />
		<tag k="ssr:hovedgruppe" v="infrastruktur" />
		<tag k="ssr:stedsnr" v="1044640" />
		<tag k="ssr:type" v="adressenavn" />
	</node>
	<node lat="59.24142944928769" lon="10.387782057409694" id="-50954">
		<tag k="name" v="Skogroveien" />
		<tag k="ssr:date" v="2019-12-27" />
		<tag k="ssr:gruppe" v="veg" />
		<tag k="ssr:hovedgruppe" v="infrastruktur" />
		<tag k="ssr:stedsnr" v="1044641" />
		<tag k="ssr:type" v="adressenavn" />
	</node>
	<node lat="59.21619708488704" lon="10.527644969913172" id="-50955">
		<tag k="name" v="Vestre Bolæren" />
		<tag k="ssr:date" v="2019-12-27" />
		<tag k="ssr:gruppe" v="veg" />
		<tag k="ssr:hovedgruppe" v="infrastruktur" />
		<tag k="ssr:stedsnr" v="1044642" />
		<tag k="ssr:type" v="adressenavn" />
	</node>
	<node lat="59.208422192565436" lon="10.44062732550993" id="-50956">
		<tag k="name" v="Berganåsen" />
		<tag k="ssr:date" v="2019-12-27" />
		<tag k="ssr:gruppe" v="veg" />
		<tag k="ssr:hovedgruppe" v="infrastruktur" />
		<tag k="ssr:stedsnr" v="1044643" />
		<tag k="ssr:type" v="adressenavn" />
	</node>
	<node lat="59.2370759673316" lon="10.426847192659057" id="-50957">
		<tag k="name" v="Øreveien" />
		<tag k="ssr:date" v="2019-12-27" />
		<tag k="ssr:gruppe" v="veg" />
		<tag k="ssr:hovedgruppe" v="infrastruktur" />
		<tag k="ssr:stedsnr" v="1044645" />
		<tag k="ssr:type" v="adressenavn" />
	</node>
	<node lat="59.201240387074954" lon="10.446450494649623" id="-50958">
		<tag k="name" v="Skonnertveien" />
		<tag k="ssr:date" v="2019-12-27" />
		<tag k="ssr:gruppe" v="veg" />
		<tag k="ssr:hovedgruppe" v="infrastruktur" />
		<tag k="ssr:stedsnr" v="1044646" />
		<tag k="ssr:type" v="adressenavn" />
	</node>
	<node lat="59.10528164367939" lon="10.347708571803626" id="-50959">
		<tag k="name" v="Unholmen" />
		<tag k="ssr:date" v="2019-12-27" />
		<tag k="ssr:gruppe" v="veg" />
		<tag k="ssr:hovedgruppe" v="infrastruktur" />
		<tag k="ssr:stedsnr" v="1044647" />
		<tag k="ssr:type" v="adressenavn" />
	</node>
	<node lat="59.10042055788124" lon="10.444448511587101" id="-50960">
		<tag k="name" v="Vasskalven" />
		<tag k="ssr:date" v="2019-12-27" />
		<tag k="ssr:gruppe" v="veg" />
		<tag k="ssr:hovedgruppe" v="infrastruktur" />
		<tag k="ssr:stedsnr" v="1044648" />
		<tag k="ssr:type" v="adressenavn" />
	</node>
	<node lat="59.026894858617126" lon="10.524414954625154" id="-50961">
		<tag k="name" v="Tristein" />
		<tag k="ssr:date" v="2019-12-27" />
		<tag k="ssr:gruppe" v="veg" />
		<tag k="ssr:hovedgruppe" v="infrastruktur" />
		<tag k="ssr:stedsnr" v="1044649" />
		<tag k="ssr:type" v="adressenavn" />
	</node>
	<node lat="59.11251330733313" lon="10.421379133495448" id="-50962">
		<tag k="name" v="Terneskjær" />
		<tag k="ssr:date" v="2019-12-27" />
		<tag k="ssr:gruppe" v="veg" />
		<tag k="ssr:hovedgruppe" v="infrastruktur" />
		<tag k="ssr:stedsnr" v="1044650" />
		<tag k="ssr:type" v="adressenavn" />
	</node>
	<node lat="59.08408985596371" lon="10.458246336850543" id="-50963">
		<tag k="name" v="Sandø" />
		<tag k="ssr:date" v="2019-12-27" />
		<tag k="ssr:gruppe" v="veg" />
		<tag k="ssr:hovedgruppe" v="infrastruktur" />
		<tag k="ssr:stedsnr" v="1044651" />
		<tag k="ssr:type" v="adressenavn" />
	</node>
	<node lat="59.09543601676815" lon="10.43551057271748" id="-50964">
		<tag k="name" v="Måkeskjær" />
		<tag k="ssr:date" v="2019-12-27" />
		<tag k="ssr:gruppe" v="veg" />
		<tag k="ssr:hovedgruppe" v="infrastruktur" />
		<tag k="ssr:stedsnr" v="1044652" />
		<tag k="ssr:type" v="adressenavn" />
	</node>
	<node lat="59.124888512923576" lon="10.431343900032466" id="-50965">
		<tag k="name" v="Møyeskjær nordre" />
		<tag k="ssr:date" v="2019-12-27" />
		<tag k="ssr:gruppe" v="veg" />
		<tag k="ssr:hovedgruppe" v="infrastruktur" />
		<tag k="ssr:stedsnr" v="1044653" />
		<tag k="ssr:type" v="adressenavn" />
	</node>
	<node lat="59.15108929129445" lon="10.427223331823049" id="-50966">
		<tag k="name" v="Ødegårdsveien" />
		<tag k="ssr:date" v="2019-12-27" />
		<tag k="ssr:gruppe" v="veg" />
		<tag k="ssr:hovedgruppe" v="infrastruktur" />
		<tag k="ssr:stedsnr" v="1044655" />
		<tag k="ssr:type" v="adressenavn" />
	</node>
	<node lat="59.16530634653172" lon="10.402828403044039" id="-50967">
		<tag k="name" v="Vindåsen" />
		<tag k="ssr:date" v="2019-12-27" />
		<tag k="ssr:gruppe" v="veg" />
		<tag k="ssr:hovedgruppe" v="infrastruktur" />
		<tag k="ssr:stedsnr" v="1044656" />
		<tag k="ssr:type" v="adressenavn" />
	</node>
	<node lat="59.12075228793448" lon="10.396341655336467" id="-50968">
		<tag k="name" v="Viktors vei" />
		<tag k="ssr:date" v="2019-12-27" />
		<tag k="ssr:gruppe" v="veg" />
		<tag k="ssr:hovedgruppe" v="infrastruktur" />
		<tag k="ssr:stedsnr" v="1044657" />
		<tag k="ssr:type" v="adressenavn" />
	</node>
	<node lat="59.08049805450154" lon="10.42952845536469" id="-50969">
		<tag k="name" v="Vikerholmveien" />
		<tag k="ssr:date" v="2019-12-27" />
		<tag k="ssr:gruppe" v="veg" />
		<tag k="ssr:hovedgruppe" v="infrastruktur" />
		<tag k="ssr:stedsnr" v="1044658" />
		<tag k="ssr:type" v="adressenavn" />
	</node>
	<node lat="59.0716712319256" lon="10.419509177413538" id="-50970">
		<tag k="name" v="Vestre Ramsen" />
		<tag k="ssr:date" v="2019-12-27" />
		<tag k="ssr:gruppe" v="veg" />
		<tag k="ssr:hovedgruppe" v="infrastruktur" />
		<tag k="ssr:stedsnr" v="1044659" />
		<tag k="ssr:type" v="adressenavn" />
	</node>
	<node lat="59.12275429014025" lon="10.386367828972675" id="-50971">
		<tag k="name" v="Vestveien" />
		<tag k="ssr:date" v="2019-12-27" />
		<tag k="ssr:gruppe" v="veg" />
		<tag k="ssr:hovedgruppe" v="infrastruktur" />
		<tag k="ssr:stedsnr" v="1044660" />
		<tag k="ssr:type" v="adressenavn" />
	</node>
	<node lat="59.08059561477963" lon="10.44386896850431" id="-50972">
		<tag k="name" v="Vestegårdsveien" />
		<tag k="ssr:date" v="2019-12-27" />
		<tag k="ssr:gruppe" v="veg" />
		<tag k="ssr:hovedgruppe" v="infrastruktur" />
		<tag k="ssr:stedsnr" v="1044661" />
		<tag k="ssr:type" v="adressenavn" />
	</node>
	<node lat="59.136473559893126" lon="10.406579335035259" id="-50973">
		<tag k="name" v="Velveien" />
		<tag k="ssr:date" v="2019-12-27" />
		<tag k="ssr:gruppe" v="veg" />
		<tag k="ssr:hovedgruppe" v="infrastruktur" />
		<tag k="ssr:stedsnr" v="1044662" />
		<tag k="ssr:type" v="adressenavn" />
	</node>
	<node lat="59.07917117386167" lon="10.403526746543356" id="-50974">
		<tag k="name" v="Treideneveien" />
		<tag k="ssr:date" v="2019-12-27" />
		<tag k="ssr:gruppe" v="veg" />
		<tag k="ssr:hovedgruppe" v="infrastruktur" />
		<tag k="ssr:stedsnr" v="1044664" />
		<tag k="ssr:type" v="adressenavn" />
	</node>
	<node lat="59.12416613425827" lon="10.430876983914594" id="-50975">
		<tag k="name" v="Møyeskjær søndre" />
		<tag k="ssr:date" v="2019-12-27" />
		<tag k="ssr:gruppe" v="veg" />
		<tag k="ssr:hovedgruppe" v="infrastruktur" />
		<tag k="ssr:stedsnr" v="1044665" />
		<tag k="ssr:type" v="adressenavn" />
	</node>
	<node lat="59.088043697865096" lon="10.437156452657714" id="-50976">
		<tag k="name" v="Krukeskjær østre" />
		<tag k="ssr:date" v="2019-12-27" />
		<tag k="ssr:gruppe" v="veg" />
		<tag k="ssr:hovedgruppe" v="infrastruktur" />
		<tag k="ssr:stedsnr" v="1044666" />
		<tag k="ssr:type" v="adressenavn" />
	</node>
	<node lat="59.089298844770994" lon="10.435742854958928" id="-50977">
		<tag k="name" v="Krukeskjær vestre" />
		<tag k="ssr:date" v="2019-12-27" />
		<tag k="ssr:gruppe" v="veg" />
		<tag k="ssr:hovedgruppe" v="infrastruktur" />
		<tag k="ssr:stedsnr" v="1044667" />
		<tag k="ssr:type" v="adressenavn" />
	</node>
	<node lat="59.09176458178572" lon="10.418164231709387" id="-50978">
		<tag k="name" v="Jonsholmen østre" />
		<tag k="ssr:date" v="2019-12-27" />
		<tag k="ssr:gruppe" v="veg" />
		<tag k="ssr:hovedgruppe" v="infrastruktur" />
		<tag k="ssr:stedsnr" v="1044668" />
		<tag k="ssr:type" v="adressenavn" />
	</node>
	<node lat="59.09177999400986" lon="10.415930662910073" id="-50979">
		<tag k="name" v="Jonsholmen vestre" />
		<tag k="ssr:date" v="2019-12-27" />
		<tag k="ssr:gruppe" v="veg" />
		<tag k="ssr:hovedgruppe" v="infrastruktur" />
		<tag k="ssr:stedsnr" v="1044669" />
		<tag k="ssr:type" v="adressenavn" />
	</node>
	<node lat="59.0894716277817" lon="10.418401206992668" id="-50980">
		<tag k="name" v="Jonsholmen søndre" />
		<tag k="ssr:date" v="2019-12-27" />
		<tag k="ssr:gruppe" v="veg" />
		<tag k="ssr:hovedgruppe" v="infrastruktur" />
		<tag k="ssr:stedsnr" v="1044670" />
		<tag k="ssr:type" v="adressenavn" />
	</node>
	<node lat="59.13985530059163" lon="10.439187528968766" id="-50981">
		<tag k="name" v="Håholmen" />
		<tag k="ssr:date" v="2019-12-27" />
		<tag k="ssr:gruppe" v="veg" />
		<tag k="ssr:hovedgruppe" v="infrastruktur" />
		<tag k="ssr:stedsnr" v="1044671" />
		<tag k="ssr:type" v="adressenavn" />
	</node>
	<node lat="59.11310292983165" lon="10.436354111378671" id="-50982">
		<tag k="name" v="Gryteskjær" />
		<tag k="ssr:date" v="2019-12-27" />
		<tag k="ssr:gruppe" v="veg" />
		<tag k="ssr:hovedgruppe" v="infrastruktur" />
		<tag k="ssr:stedsnr" v="1044672" />
		<tag k="ssr:type" v="adressenavn" />
	</node>
	<node lat="59.11789137761617" lon="10.363155373193766" id="-50983">
		<tag k="name" v="Hui" />
		<tag k="ssr:date" v="2019-12-27" />
		<tag k="ssr:gruppe" v="veg" />
		<tag k="ssr:hovedgruppe" v="infrastruktur" />
		<tag k="ssr:stedsnr" v="1044673" />
		<tag k="ssr:type" v="adressenavn" />
	</node>
	<node lat="59.16927756813077" lon="10.402408707102264" id="-50984">
		<tag k="name" v="Grindholmen østre" />
		<tag k="ssr:date" v="2019-12-27" />
		<tag k="ssr:gruppe" v="veg" />
		<tag k="ssr:hovedgruppe" v="infrastruktur" />
		<tag k="ssr:stedsnr" v="1044675" />
		<tag k="ssr:type" v="adressenavn" />
	</node>
	<node lat="59.169752387120674" lon="10.396382963000605" id="-50985">
		<tag k="name" v="Grindholmen vestre" />
		<tag k="ssr:date" v="2019-12-27" />
		<tag k="ssr:gruppe" v="veg" />
		<tag k="ssr:hovedgruppe" v="infrastruktur" />
		<tag k="ssr:stedsnr" v="1044676" />
		<tag k="ssr:type" v="adressenavn" />
	</node>
	<node lat="59.12538924064042" lon="10.341560166271123" id="-50986">
		<tag k="name" v="Flåteskjær" />
		<tag k="ssr:date" v="2019-12-27" />
		<tag k="ssr:gruppe" v="veg" />
		<tag k="ssr:hovedgruppe" v="infrastruktur" />
		<tag k="ssr:stedsnr" v="1044677" />
		<tag k="ssr:type" v="adressenavn" />
	</node>
	<node lat="59.11659521078154" lon="10.447015654731585" id="-50987">
		<tag k="name" v="Froungen" />
		<tag k="ssr:date" v="2019-12-27" />
		<tag k="ssr:gruppe" v="veg" />
		<tag k="ssr:hovedgruppe" v="infrastruktur" />
		<tag k="ssr:stedsnr" v="1044678" />
		<tag k="ssr:type" v="adressenavn" />
	</node>
	<node lat="59.11433644751137" lon="10.425489324384566" id="-50988">
		<tag k="name" v="Dragholmen" />
		<tag k="ssr:date" v="2019-12-27" />
		<tag k="ssr:gruppe" v="veg" />
		<tag k="ssr:hovedgruppe" v="infrastruktur" />
		<tag k="ssr:stedsnr" v="1044679" />
		<tag k="ssr:type" v="adressenavn" />
	</node>
	<node lat="59.12886151959235" lon="10.44646712787515" id="-50989">
		<tag k="name" v="Burø" />
		<tag k="ssr:date" v="2019-12-27" />
		<tag k="ssr:gruppe" v="veg" />
		<tag k="ssr:hovedgruppe" v="infrastruktur" />
		<tag k="ssr:stedsnr" v="1044680" />
		<tag k="ssr:type" v="adressenavn" />
	</node>
	<node lat="59.121713462427806" lon="10.367603591841545" id="-50990">
		<tag k="name" v="Brentholmen" />
		<tag k="ssr:date" v="2019-12-27" />
		<tag k="ssr:gruppe" v="veg" />
		<tag k="ssr:hovedgruppe" v="infrastruktur" />
		<tag k="ssr:stedsnr" v="1044681" />
		<tag k="ssr:type" v="adressenavn" />
	</node>
	<node lat="59.0663834906837" lon="10.413730510447264" id="-50991">
		<tag k="name" v="Haukevikveien" />
		<tag k="ssr:date" v="2019-12-27" />
		<tag k="ssr:gruppe" v="veg" />
		<tag k="ssr:hovedgruppe" v="infrastruktur" />
		<tag k="ssr:stedsnr" v="1044682" />
		<tag k="ssr:type" v="adressenavn" />
	</node>
	<node lat="59.13071565509493" lon="10.402617071464723" id="-50992">
		<tag k="name" v="Åsen" />
		<tag k="ssr:date" v="2019-12-27" />
		<tag k="ssr:gruppe" v="veg" />
		<tag k="ssr:hovedgruppe" v="infrastruktur" />
		<tag k="ssr:stedsnr" v="1044683" />
		<tag k="ssr:type" v="adressenavn" />
	</node>
	<node lat="59.1291963870954" lon="10.382451751114989" id="-50993">
		<tag k="name" v="Ålebråta" />
		<tag k="ssr:date" v="2019-12-27" />
		<tag k="ssr:gruppe" v="veg" />
		<tag k="ssr:hovedgruppe" v="infrastruktur" />
		<tag k="ssr:stedsnr" v="1044684" />
		<tag k="ssr:type" v="adressenavn" />
	</node>
	<node lat="59.11368323798545" lon="10.390472739075893" id="-50994">
		<tag k="name" v="Østveien" />
		<tag k="ssr:date" v="2019-12-27" />
		<tag k="ssr:gruppe" v="veg" />
		<tag k="ssr:hovedgruppe" v="infrastruktur" />
		<tag k="ssr:stedsnr" v="1044685" />
		<tag k="ssr:type" v="adressenavn" />
	</node>
	<node lat="59.1580670208003" lon="10.404972475062976" id="-50995">
		<tag k="name" v="Kråkereveien" />
		<tag k="ssr:date" v="2019-12-27" />
		<tag k="ssr:gruppe" v="veg" />
		<tag k="ssr:hovedgruppe" v="infrastruktur" />
		<tag k="ssr:stedsnr" v="1044737" />
		<tag k="ssr:type" v="adressenavn" />
	</node>
	<node lat="59.08088884241217" lon="10.446740807496267" id="-50996">
		<tag k="name" v="Krukeveien" />
		<tag k="ssr:date" v="2019-12-27" />
		<tag k="ssr:gruppe" v="veg" />
		<tag k="ssr:hovedgruppe" v="infrastruktur" />
		<tag k="ssr:stedsnr" v="1044745" />
		<tag k="ssr:type" v="adressenavn" />
	</node>
	<node lat="59.07179786250477" lon="10.422440422026373" id="-50997">
		<tag k="name" v="Midtre Ramsen" />
		<tag k="ssr:date" v="2019-12-27" />
		<tag k="ssr:gruppe" v="veg" />
		<tag k="ssr:hovedgruppe" v="infrastruktur" />
		<tag k="ssr:stedsnr" v="1044747" />
		<tag k="ssr:type" v="adressenavn" />
	</node>
	<node lat="59.18652620193688" lon="10.406865118334581" id="-50998">
		<tag k="name" v="Tjærgravveien" />
		<tag k="ssr:date" v="2019-12-27" />
		<tag k="ssr:gruppe" v="veg" />
		<tag k="ssr:hovedgruppe" v="infrastruktur" />
		<tag k="ssr:stedsnr" v="1044628" />
		<tag k="ssr:type" v="adressenavn" />
	</node>
	<node lat="59.10856277976185" lon="10.39667415236353" id="-50999">
		<tag k="name" v="Øvre Gonevei" />
		<tag k="ssr:date" v="2019-12-27" />
		<tag k="ssr:gruppe" v="veg" />
		<tag k="ssr:hovedgruppe" v="infrastruktur" />
		<tag k="ssr:stedsnr" v="1044686" />
		<tag k="ssr:type" v="adressenavn" />
	</node>
	<node lat="59.07179786250477" lon="10.422440422026373" id="-51000">
		<tag k="name" v="Østre Ramsen" />
		<tag k="ssr:date" v="2019-12-27" />
		<tag k="ssr:gruppe" v="veg" />
		<tag k="ssr:hovedgruppe" v="infrastruktur" />
		<tag k="ssr:stedsnr" v="1044687" />
		<tag k="ssr:type" v="adressenavn" />
	</node>
	<node lat="59.10038855016648" lon="10.415423706063752" id="-51001">
		<tag k="name" v="Ødekjærveien" />
		<tag k="ssr:date" v="2019-12-27" />
		<tag k="ssr:gruppe" v="veg" />
		<tag k="ssr:hovedgruppe" v="infrastruktur" />
		<tag k="ssr:stedsnr" v="1044688" />
		<tag k="ssr:type" v="adressenavn" />
	</node>
	<node lat="59.06657751949822" lon="10.44483034293186" id="-51002">
		<tag k="name" v="Liaveien" />
		<tag k="ssr:date" v="2019-12-27" />
		<tag k="ssr:gruppe" v="veg" />
		<tag k="ssr:hovedgruppe" v="infrastruktur" />
		<tag k="ssr:stedsnr" v="1044727" />
		<tag k="ssr:type" v="adressenavn" />
	</node>
	<node lat="59.116236891219486" lon="10.38758427401032" id="-51003">
		<tag k="name" v="Langvikveien" />
		<tag k="ssr:date" v="2019-12-27" />
		<tag k="ssr:gruppe" v="veg" />
		<tag k="ssr:hovedgruppe" v="infrastruktur" />
		<tag k="ssr:stedsnr" v="1044728" />
		<tag k="ssr:type" v="adressenavn" />
	</node>
	<node lat="59.074288084375496" lon="10.434233171463248" id="-51004">
		<tag k="name" v="Langestrandveien" />
		<tag k="ssr:date" v="2019-12-27" />
		<tag k="ssr:gruppe" v="veg" />
		<tag k="ssr:hovedgruppe" v="infrastruktur" />
		<tag k="ssr:stedsnr" v="1044729" />
		<tag k="ssr:type" v="adressenavn" />
	</node>
	<node lat="59.16026209376432" lon="10.39326825486632" id="-51005">
		<tag k="name" v="Kjynnaveien" />
		<tag k="ssr:date" v="2019-12-27" />
		<tag k="ssr:gruppe" v="veg" />
		<tag k="ssr:hovedgruppe" v="infrastruktur" />
		<tag k="ssr:stedsnr" v="1044730" />
		<tag k="ssr:type" v="adressenavn" />
	</node>
	<node lat="59.07504596742278" lon="10.444359729190994" id="-51006">
		<tag k="name" v="Kvieveien" />
		<tag k="ssr:date" v="2019-12-27" />
		<tag k="ssr:gruppe" v="veg" />
		<tag k="ssr:hovedgruppe" v="infrastruktur" />
		<tag k="ssr:stedsnr" v="1044731" />
		<tag k="ssr:type" v="adressenavn" />
	</node>
	<node lat="59.13483653310978" lon="10.406858496677884" id="-51007">
		<tag k="name" v="Løkkeveien" />
		<tag k="ssr:date" v="2019-12-27" />
		<tag k="ssr:gruppe" v="veg" />
		<tag k="ssr:hovedgruppe" v="infrastruktur" />
		<tag k="ssr:stedsnr" v="1044786" />
		<tag k="ssr:type" v="adressenavn" />
	</node>
	<node lat="59.15409306661078" lon="10.407113129404161" id="-51008">
		<tag k="name" v="Lufta" />
		<tag k="ssr:date" v="2019-12-27" />
		<tag k="ssr:gruppe" v="veg" />
		<tag k="ssr:hovedgruppe" v="infrastruktur" />
		<tag k="ssr:stedsnr" v="1044788" />
		<tag k="ssr:type" v="adressenavn" />
	</node>
	<node lat="59.08148135869135" lon="10.450199761628824" id="-51009">
		<tag k="name" v="Losveien" />
		<tag k="ssr:date" v="2019-12-27" />
		<tag k="ssr:gruppe" v="veg" />
		<tag k="ssr:hovedgruppe" v="infrastruktur" />
		<tag k="ssr:stedsnr" v="1044789" />
		<tag k="ssr:type" v="adressenavn" />
	</node>
	<node lat="59.111747585722334" lon="10.3944711075292" id="-51010">
		<tag k="name" v="Lindholmveien" />
		<tag k="ssr:date" v="2019-12-27" />
		<tag k="ssr:gruppe" v="veg" />
		<tag k="ssr:hovedgruppe" v="infrastruktur" />
		<tag k="ssr:stedsnr" v="1044798" />
		<tag k="ssr:type" v="adressenavn" />
	</node>
	<node lat="59.12438311520903" lon="10.414135621281078" id="-51011">
		<tag k="name" v="Lindeveien" />
		<tag k="ssr:date" v="2019-12-27" />
		<tag k="ssr:gruppe" v="veg" />
		<tag k="ssr:hovedgruppe" v="infrastruktur" />
		<tag k="ssr:stedsnr" v="1044809" />
		<tag k="ssr:type" v="adressenavn" />
	</node>
	<node lat="59.08278496743763" lon="10.442173116110837" id="-51012">
		<tag k="name" v="Lilleskagveien" />
		<tag k="ssr:date" v="2019-12-27" />
		<tag k="ssr:gruppe" v="veg" />
		<tag k="ssr:hovedgruppe" v="infrastruktur" />
		<tag k="ssr:stedsnr" v="1044813" />
		<tag k="ssr:type" v="adressenavn" />
	</node>
	<node lat="59.07043931036553" lon="10.403577157848611" id="-51013">
		<tag k="name" v="Midtgårdsveien" />
		<tag k="ssr:date" v="2019-12-27" />
		<tag k="ssr:gruppe" v="veg" />
		<tag k="ssr:hovedgruppe" v="infrastruktur" />
		<tag k="ssr:stedsnr" v="1044755" />
		<tag k="ssr:type" v="adressenavn" />
	</node>
	<node lat="59.16159691497272" lon="10.392774043959083" id="-51014">
		<tag k="name" v="Mellomskauen" />
		<tag k="ssr:date" v="2019-12-27" />
		<tag k="ssr:gruppe" v="veg" />
		<tag k="ssr:hovedgruppe" v="infrastruktur" />
		<tag k="ssr:stedsnr" v="1044766" />
		<tag k="ssr:type" v="adressenavn" />
	</node>
	<node lat="59.115750043438595" lon="10.405312739092352" id="-51015">
		<tag k="name" v="Mefjæren" />
		<tag k="ssr:date" v="2019-12-27" />
		<tag k="ssr:gruppe" v="veg" />
		<tag k="ssr:hovedgruppe" v="infrastruktur" />
		<tag k="ssr:stedsnr" v="1044770" />
		<tag k="ssr:type" v="adressenavn" />
	</node>
	<node lat="59.126795758043144" lon="10.426770433838401" id="-51016">
		<tag k="name" v="Medøåsen" />
		<tag k="ssr:date" v="2019-12-27" />
		<tag k="ssr:gruppe" v="veg" />
		<tag k="ssr:hovedgruppe" v="infrastruktur" />
		<tag k="ssr:stedsnr" v="1044773" />
		<tag k="ssr:type" v="adressenavn" />
	</node>
	<node lat="59.12195815988074" lon="10.42219444069291" id="-51017">
		<tag k="name" v="Medøveien" />
		<tag k="ssr:date" v="2019-12-27" />
		<tag k="ssr:gruppe" v="veg" />
		<tag k="ssr:hovedgruppe" v="infrastruktur" />
		<tag k="ssr:stedsnr" v="1044776" />
		<tag k="ssr:type" v="adressenavn" />
	</node>
	<node lat="59.142356324132464" lon="10.408425905421979" id="-51018">
		<tag k="name" v="Maries vei" />
		<tag k="ssr:date" v="2019-12-27" />
		<tag k="ssr:gruppe" v="veg" />
		<tag k="ssr:hovedgruppe" v="infrastruktur" />
		<tag k="ssr:stedsnr" v="1044779" />
		<tag k="ssr:type" v="adressenavn" />
	</node>
	<node lat="59.12581172370179" lon="10.407999118419585" id="-51019">
		<tag k="name" v="Krokebakken" />
		<tag k="ssr:date" v="2019-12-27" />
		<tag k="ssr:gruppe" v="veg" />
		<tag k="ssr:hovedgruppe" v="infrastruktur" />
		<tag k="ssr:stedsnr" v="1044836" />
		<tag k="ssr:type" v="adressenavn" />
	</node>
	<node lat="59.11420029762953" lon="10.40513404954117" id="-51020">
		<tag k="name" v="Kringlene" />
		<tag k="ssr:date" v="2019-12-27" />
		<tag k="ssr:gruppe" v="veg" />
		<tag k="ssr:hovedgruppe" v="infrastruktur" />
		<tag k="ssr:stedsnr" v="1044837" />
		<tag k="ssr:type" v="adressenavn" />
	</node>
	<node lat="59.11566725920666" lon="10.392932297856206" id="-51021">
		<tag k="name" v="Korsholmveien" />
		<tag k="ssr:date" v="2019-12-27" />
		<tag k="ssr:gruppe" v="veg" />
		<tag k="ssr:hovedgruppe" v="infrastruktur" />
		<tag k="ssr:stedsnr" v="1044839" />
		<tag k="ssr:type" v="adressenavn" />
	</node>
	<node lat="59.08113711660811" lon="10.443139891036097" id="-51022">
		<tag k="name" v="Koløkka" />
		<tag k="ssr:date" v="2019-12-27" />
		<tag k="ssr:gruppe" v="veg" />
		<tag k="ssr:hovedgruppe" v="infrastruktur" />
		<tag k="ssr:stedsnr" v="1044840" />
		<tag k="ssr:type" v="adressenavn" />
	</node>
	<node lat="59.132232608591906" lon="10.40498054115347" id="-51023">
		<tag k="name" v="Kneika" />
		<tag k="ssr:date" v="2019-12-27" />
		<tag k="ssr:gruppe" v="veg" />
		<tag k="ssr:hovedgruppe" v="infrastruktur" />
		<tag k="ssr:stedsnr" v="1044841" />
		<tag k="ssr:type" v="adressenavn" />
	</node>
	<node lat="59.11334758279774" lon="10.405918283300856" id="-51024">
		<tag k="name" v="Knappeskjærveien" />
		<tag k="ssr:date" v="2019-12-27" />
		<tag k="ssr:gruppe" v="veg" />
		<tag k="ssr:hovedgruppe" v="infrastruktur" />
		<tag k="ssr:stedsnr" v="1044842" />
		<tag k="ssr:type" v="adressenavn" />
	</node>
	<node lat="59.10678625961012" lon="10.416379237940935" id="-51025">
		<tag k="name" v="Kjøpmannstien" />
		<tag k="ssr:date" v="2019-12-27" />
		<tag k="ssr:gruppe" v="veg" />
		<tag k="ssr:hovedgruppe" v="infrastruktur" />
		<tag k="ssr:stedsnr" v="1044843" />
		<tag k="ssr:type" v="adressenavn" />
	</node>
	<node lat="59.11413114272744" lon="10.39807743715494" id="-51026">
		<tag k="name" v="Kirkerønningen" />
		<tag k="ssr:date" v="2019-12-27" />
		<tag k="ssr:gruppe" v="veg" />
		<tag k="ssr:hovedgruppe" v="infrastruktur" />
		<tag k="ssr:stedsnr" v="1044844" />
		<tag k="ssr:type" v="adressenavn" />
	</node>
	<node lat="59.11359093053745" lon="10.388642225334745" id="-51027">
		<tag k="name" v="Kirkebakken" />
		<tag k="ssr:date" v="2019-12-27" />
		<tag k="ssr:gruppe" v="veg" />
		<tag k="ssr:hovedgruppe" v="infrastruktur" />
		<tag k="ssr:stedsnr" v="1044845" />
		<tag k="ssr:type" v="adressenavn" />
	</node>
	<node lat="59.114480128345946" lon="10.398128330465202" id="-51028">
		<tag k="name" v="Kirkemarka" />
		<tag k="ssr:date" v="2019-12-27" />
		<tag k="ssr:gruppe" v="veg" />
		<tag k="ssr:hovedgruppe" v="infrastruktur" />
		<tag k="ssr:stedsnr" v="1044847" />
		<tag k="ssr:type" v="adressenavn" />
	</node>
	<node lat="59.07818742843214" lon="10.441478594041866" id="-51029">
		<tag k="name" v="Kilsveien" />
		<tag k="ssr:date" v="2019-12-27" />
		<tag k="ssr:gruppe" v="veg" />
		<tag k="ssr:hovedgruppe" v="infrastruktur" />
		<tag k="ssr:stedsnr" v="1044853" />
		<tag k="ssr:type" v="adressenavn" />
	</node>
	<node lat="59.06818469212068" lon="10.450539499317173" id="-51030">
		<tag k="name" v="Jørestrandveien" />
		<tag k="ssr:date" v="2019-12-27" />
		<tag k="ssr:gruppe" v="veg" />
		<tag k="ssr:hovedgruppe" v="infrastruktur" />
		<tag k="ssr:stedsnr" v="1044857" />
		<tag k="ssr:type" v="adressenavn" />
	</node>
	<node lat="59.12574082107807" lon="10.398242246199619" id="-51031">
		<tag k="name" v="Karens vei" />
		<tag k="ssr:date" v="2019-12-27" />
		<tag k="ssr:gruppe" v="veg" />
		<tag k="ssr:hovedgruppe" v="infrastruktur" />
		<tag k="ssr:stedsnr" v="1044859" />
		<tag k="ssr:type" v="adressenavn" />
	</node>
	<node lat="59.06134949603104" lon="10.399790797324385" id="-51032">
		<tag k="name" v="Skåeveien" />
		<tag k="ssr:date" v="2019-12-27" />
		<tag k="ssr:gruppe" v="veg" />
		<tag k="ssr:hovedgruppe" v="infrastruktur" />
		<tag k="ssr:stedsnr" v="1044861" />
		<tag k="ssr:type" v="adressenavn" />
	</node>
	<node lat="59.16501284982381" lon="10.406221006822191" id="-51033">
		<tag k="name" v="Skogliveien" />
		<tag k="ssr:date" v="2019-12-27" />
		<tag k="ssr:gruppe" v="veg" />
		<tag k="ssr:hovedgruppe" v="infrastruktur" />
		<tag k="ssr:stedsnr" v="1044862" />
		<tag k="ssr:type" v="adressenavn" />
	</node>
	<node lat="59.15161123089501" lon="10.378284908453486" id="-51034">
		<tag k="name" v="Skautangveien" />
		<tag k="ssr:date" v="2019-12-27" />
		<tag k="ssr:gruppe" v="veg" />
		<tag k="ssr:hovedgruppe" v="infrastruktur" />
		<tag k="ssr:stedsnr" v="1044863" />
		<tag k="ssr:type" v="adressenavn" />
	</node>
	<node lat="59.081514141980655" lon="10.4506769789138" id="-51035">
		<tag k="name" v="Skagenstien" />
		<tag k="ssr:date" v="2019-12-27" />
		<tag k="ssr:gruppe" v="veg" />
		<tag k="ssr:hovedgruppe" v="infrastruktur" />
		<tag k="ssr:stedsnr" v="1044866" />
		<tag k="ssr:type" v="adressenavn" />
	</node>
	<node lat="59.11067201632174" lon="10.416524863852775" id="-51036">
		<tag k="name" v="Sjøholtveien" />
		<tag k="ssr:date" v="2019-12-27" />
		<tag k="ssr:gruppe" v="veg" />
		<tag k="ssr:hovedgruppe" v="infrastruktur" />
		<tag k="ssr:stedsnr" v="1044867" />
		<tag k="ssr:type" v="adressenavn" />
	</node>
	<node lat="59.083580562602336" lon="10.418132096782985" id="-51037">
		<tag k="name" v="Sjøbusand" />
		<tag k="ssr:date" v="2019-12-27" />
		<tag k="ssr:gruppe" v="veg" />
		<tag k="ssr:hovedgruppe" v="infrastruktur" />
		<tag k="ssr:stedsnr" v="1044868" />
		<tag k="ssr:type" v="adressenavn" />
	</node>
	<node lat="59.088471713710945" lon="10.432902688701699" id="-51038">
		<tag k="name" v="Sandsveien" />
		<tag k="ssr:date" v="2019-12-27" />
		<tag k="ssr:gruppe" v="veg" />
		<tag k="ssr:hovedgruppe" v="infrastruktur" />
		<tag k="ssr:stedsnr" v="1044869" />
		<tag k="ssr:type" v="adressenavn" />
	</node>
	<node lat="59.13122463770623" lon="10.392423958130104" id="-51039">
		<tag k="name" v="Sandbekkveien" />
		<tag k="ssr:date" v="2019-12-27" />
		<tag k="ssr:gruppe" v="veg" />
		<tag k="ssr:hovedgruppe" v="infrastruktur" />
		<tag k="ssr:stedsnr" v="1044870" />
		<tag k="ssr:type" v="adressenavn" />
	</node>
	<node lat="59.07739362822838" lon="10.40881868194869" id="-51040">
		<tag k="name" v="Toråsveien" />
		<tag k="ssr:date" v="2019-12-27" />
		<tag k="ssr:gruppe" v="veg" />
		<tag k="ssr:hovedgruppe" v="infrastruktur" />
		<tag k="ssr:stedsnr" v="1044871" />
		<tag k="ssr:type" v="adressenavn" />
	</node>
	<node lat="59.07582943234242" lon="10.437078566127687" id="-51041">
		<tag k="name" v="Tjønnåsveien" />
		<tag k="ssr:date" v="2019-12-27" />
		<tag k="ssr:gruppe" v="veg" />
		<tag k="ssr:hovedgruppe" v="infrastruktur" />
		<tag k="ssr:stedsnr" v="1044872" />
		<tag k="ssr:type" v="adressenavn" />
	</node>
	<node lat="59.121952843628" lon="10.422247643899935" id="-51042">
		<tag k="name" v="Torbjørnsvei" />
		<tag k="ssr:date" v="2019-12-27" />
		<tag k="ssr:gruppe" v="veg" />
		<tag k="ssr:hovedgruppe" v="infrastruktur" />
		<tag k="ssr:stedsnr" v="1044873" />
		<tag k="ssr:type" v="adressenavn" />
	</node>
	<node lat="59.069088845834905" lon="10.438086018657062" id="-51043">
		<tag k="name" v="Tjønnebergveien" />
		<tag k="ssr:date" v="2019-12-27" />
		<tag k="ssr:gruppe" v="veg" />
		<tag k="ssr:hovedgruppe" v="infrastruktur" />
		<tag k="ssr:stedsnr" v="1044874" />
		<tag k="ssr:type" v="adressenavn" />
	</node>
	<node lat="59.15064979203078" lon="10.419489477768225" id="-51044">
		<tag k="name" v="Tjømekollen" />
		<tag k="ssr:date" v="2019-12-27" />
		<tag k="ssr:gruppe" v="veg" />
		<tag k="ssr:hovedgruppe" v="infrastruktur" />
		<tag k="ssr:stedsnr" v="1044875" />
		<tag k="ssr:type" v="adressenavn" />
	</node>
	<node lat="59.133250503473015" lon="10.380839320193108" id="-51045">
		<tag k="name" v="Søndre Svelvikstranda" />
		<tag k="ssr:date" v="2019-12-27" />
		<tag k="ssr:gruppe" v="veg" />
		<tag k="ssr:hovedgruppe" v="infrastruktur" />
		<tag k="ssr:stedsnr" v="1044876" />
		<tag k="ssr:type" v="adressenavn" />
	</node>
	<node lat="59.15928534486095" lon="10.387258033780789" id="-51046">
		<tag k="name" v="Søndre Strandvei" />
		<tag k="ssr:date" v="2019-12-27" />
		<tag k="ssr:gruppe" v="veg" />
		<tag k="ssr:hovedgruppe" v="infrastruktur" />
		<tag k="ssr:stedsnr" v="1044877" />
		<tag k="ssr:type" v="adressenavn" />
	</node>
	<node lat="59.15221500042649" lon="10.430999157746028" id="-51047">
		<tag k="name" v="Sydvesten" />
		<tag k="ssr:date" v="2019-12-27" />
		<tag k="ssr:gruppe" v="veg" />
		<tag k="ssr:hovedgruppe" v="infrastruktur" />
		<tag k="ssr:stedsnr" v="1044878" />
		<tag k="ssr:type" v="adressenavn" />
	</node>
	<node lat="59.16550693362155" lon="10.40126119722007" id="-51048">
		<tag k="name" v="Sundarveien" />
		<tag k="ssr:date" v="2019-12-27" />
		<tag k="ssr:gruppe" v="veg" />
		<tag k="ssr:hovedgruppe" v="infrastruktur" />
		<tag k="ssr:stedsnr" v="1044879" />
		<tag k="ssr:type" v="adressenavn" />
	</node>
	<node lat="59.12068436089227" lon="10.393537104693065" id="-51049">
		<tag k="name" v="Stillaugs vei" />
		<tag k="ssr:date" v="2019-12-27" />
		<tag k="ssr:gruppe" v="veg" />
		<tag k="ssr:hovedgruppe" v="infrastruktur" />
		<tag k="ssr:stedsnr" v="1044880" />
		<tag k="ssr:type" v="adressenavn" />
	</node>
	<node lat="59.16581054996218" lon="10.399913951877771" id="-51050">
		<tag k="name" v="Strandgårdsveien" />
		<tag k="ssr:date" v="2019-12-27" />
		<tag k="ssr:gruppe" v="veg" />
		<tag k="ssr:hovedgruppe" v="infrastruktur" />
		<tag k="ssr:stedsnr" v="1044881" />
		<tag k="ssr:type" v="adressenavn" />
	</node>
	<node lat="59.0980097382552" lon="10.425902600809872" id="-51051">
		<tag k="name" v="Strandaveien" />
		<tag k="ssr:date" v="2019-12-27" />
		<tag k="ssr:gruppe" v="veg" />
		<tag k="ssr:hovedgruppe" v="infrastruktur" />
		<tag k="ssr:stedsnr" v="1044882" />
		<tag k="ssr:type" v="adressenavn" />
	</node>
	<node lat="59.0682466826968" lon="10.444627666912803" id="-51052">
		<tag k="name" v="Storemyrveien" />
		<tag k="ssr:date" v="2019-12-27" />
		<tag k="ssr:gruppe" v="veg" />
		<tag k="ssr:hovedgruppe" v="infrastruktur" />
		<tag k="ssr:stedsnr" v="1044883" />
		<tag k="ssr:type" v="adressenavn" />
	</node>
	<node lat="59.114720449134545" lon="10.391739073153479" id="-51053">
		<tag k="name" v="Stauperveien" />
		<tag k="ssr:date" v="2019-12-27" />
		<tag k="ssr:gruppe" v="veg" />
		<tag k="ssr:hovedgruppe" v="infrastruktur" />
		<tag k="ssr:stedsnr" v="1044884" />
		<tag k="ssr:type" v="adressenavn" />
	</node>
	<node lat="59.12086210540263" lon="10.39433715550645" id="-51054">
		<tag k="name" v="Smed Larsens vei" />
		<tag k="ssr:date" v="2019-12-27" />
		<tag k="ssr:gruppe" v="veg" />
		<tag k="ssr:hovedgruppe" v="infrastruktur" />
		<tag k="ssr:stedsnr" v="1044885" />
		<tag k="ssr:type" v="adressenavn" />
	</node>
	<node lat="59.12484472537121" lon="10.418031302493521" id="-51055">
		<tag k="name" v="Jordeveien" />
		<tag k="ssr:date" v="2019-12-27" />
		<tag k="ssr:gruppe" v="veg" />
		<tag k="ssr:hovedgruppe" v="infrastruktur" />
		<tag k="ssr:stedsnr" v="1044822" />
		<tag k="ssr:type" v="adressenavn" />
	</node>
	<node lat="59.126173364640145" lon="10.42550389849301" id="-51056">
		<tag k="name" v="Hønsøveien" />
		<tag k="ssr:date" v="2019-12-27" />
		<tag k="ssr:gruppe" v="veg" />
		<tag k="ssr:hovedgruppe" v="infrastruktur" />
		<tag k="ssr:stedsnr" v="1044828" />
		<tag k="ssr:type" v="adressenavn" />
	</node>
	<node lat="59.11251980563323" lon="10.393395061250178" id="-51057">
		<tag k="name" v="Hvitskjærveien" />
		<tag k="ssr:date" v="2019-12-27" />
		<tag k="ssr:gruppe" v="veg" />
		<tag k="ssr:hovedgruppe" v="infrastruktur" />
		<tag k="ssr:stedsnr" v="1044830" />
		<tag k="ssr:type" v="adressenavn" />
	</node>
	<node lat="59.07667241492748" lon="10.43557491762603" id="-51058">
		<tag k="name" v="Hvasserveien" />
		<tag k="ssr:date" v="2019-12-27" />
		<tag k="ssr:gruppe" v="veg" />
		<tag k="ssr:hovedgruppe" v="infrastruktur" />
		<tag k="ssr:stedsnr" v="1044831" />
		<tag k="ssr:type" v="adressenavn" />
	</node>
	<node lat="59.124150261522594" lon="10.411818413704678" id="-51059">
		<tag k="name" v="Hulebakveien" />
		<tag k="ssr:date" v="2019-12-27" />
		<tag k="ssr:gruppe" v="veg" />
		<tag k="ssr:hovedgruppe" v="infrastruktur" />
		<tag k="ssr:stedsnr" v="1044834" />
		<tag k="ssr:type" v="adressenavn" />
	</node>
	<node lat="59.12957050242935" lon="10.402776615912906" id="-51060">
		<tag k="name" v="Hulebakbrekka" />
		<tag k="ssr:date" v="2019-12-27" />
		<tag k="ssr:gruppe" v="veg" />
		<tag k="ssr:hovedgruppe" v="infrastruktur" />
		<tag k="ssr:stedsnr" v="1044835" />
		<tag k="ssr:type" v="adressenavn" />
	</node>
	<node lat="59.13261674134974" lon="10.405124807634223" id="-51061">
		<tag k="name" v="Slottåsen" />
		<tag k="ssr:date" v="2019-12-27" />
		<tag k="ssr:gruppe" v="veg" />
		<tag k="ssr:hovedgruppe" v="infrastruktur" />
		<tag k="ssr:stedsnr" v="1044886" />
		<tag k="ssr:type" v="adressenavn" />
	</node>
	<node lat="59.11896577571378" lon="10.39259988872469" id="-51062">
		<tag k="name" v="Oskjærveien" />
		<tag k="ssr:date" v="2019-12-27" />
		<tag k="ssr:gruppe" v="veg" />
		<tag k="ssr:hovedgruppe" v="infrastruktur" />
		<tag k="ssr:stedsnr" v="1044887" />
		<tag k="ssr:type" v="adressenavn" />
	</node>
	<node lat="59.09445560432256" lon="10.404642257857333" id="-51063">
		<tag k="name" v="Otterstig" />
		<tag k="ssr:date" v="2019-12-27" />
		<tag k="ssr:gruppe" v="veg" />
		<tag k="ssr:hovedgruppe" v="infrastruktur" />
		<tag k="ssr:stedsnr" v="1044889" />
		<tag k="ssr:type" v="adressenavn" />
	</node>
	<node lat="59.108061347779845" lon="10.401239574914944" id="-51064">
		<tag k="name" v="Ormeletveien" />
		<tag k="ssr:date" v="2019-12-27" />
		<tag k="ssr:gruppe" v="veg" />
		<tag k="ssr:hovedgruppe" v="infrastruktur" />
		<tag k="ssr:stedsnr" v="1044890" />
		<tag k="ssr:type" v="adressenavn" />
	</node>
	<node lat="59.0726470667812" lon="10.437767247067537" id="-51065">
		<tag k="name" v="Oppegårdsveien" />
		<tag k="ssr:date" v="2019-12-27" />
		<tag k="ssr:gruppe" v="veg" />
		<tag k="ssr:hovedgruppe" v="infrastruktur" />
		<tag k="ssr:stedsnr" v="1044891" />
		<tag k="ssr:type" v="adressenavn" />
	</node>
	<node lat="59.166422000118914" lon="10.394410851355685" id="-51066">
		<tag k="name" v="Nordre Strandvei" />
		<tag k="ssr:date" v="2019-12-27" />
		<tag k="ssr:gruppe" v="veg" />
		<tag k="ssr:hovedgruppe" v="infrastruktur" />
		<tag k="ssr:stedsnr" v="1044892" />
		<tag k="ssr:type" v="adressenavn" />
	</node>
	<node lat="59.134249445438556" lon="10.383407331556509" id="-51067">
		<tag k="name" v="Nordre Svelvikstranda" />
		<tag k="ssr:date" v="2019-12-27" />
		<tag k="ssr:gruppe" v="veg" />
		<tag k="ssr:hovedgruppe" v="infrastruktur" />
		<tag k="ssr:stedsnr" v="1044893" />
		<tag k="ssr:type" v="adressenavn" />
	</node>
	<node lat="59.07691808117338" lon="10.437173312599805" id="-51068">
		<tag k="name" v="Nessletta" />
		<tag k="ssr:date" v="2019-12-27" />
		<tag k="ssr:gruppe" v="veg" />
		<tag k="ssr:hovedgruppe" v="infrastruktur" />
		<tag k="ssr:stedsnr" v="1044894" />
		<tag k="ssr:type" v="adressenavn" />
	</node>
	<node lat="59.088994182489266" lon="10.44403237181461" id="-51069">
		<tag k="name" v="Nordhavna" />
		<tag k="ssr:date" v="2019-12-27" />
		<tag k="ssr:gruppe" v="veg" />
		<tag k="ssr:hovedgruppe" v="infrastruktur" />
		<tag k="ssr:stedsnr" v="1044895" />
		<tag k="ssr:type" v="adressenavn" />
	</node>
	<node lat="59.07975528437739" lon="10.430255900141974" id="-51070">
		<tag k="name" v="Nesgårdsveien" />
		<tag k="ssr:date" v="2019-12-27" />
		<tag k="ssr:gruppe" v="veg" />
		<tag k="ssr:hovedgruppe" v="infrastruktur" />
		<tag k="ssr:stedsnr" v="1044896" />
		<tag k="ssr:type" v="adressenavn" />
	</node>
	<node lat="59.10005295735113" lon="10.424790617521978" id="-51071">
		<tag k="name" v="Neholmveien" />
		<tag k="ssr:date" v="2019-12-27" />
		<tag k="ssr:gruppe" v="veg" />
		<tag k="ssr:hovedgruppe" v="infrastruktur" />
		<tag k="ssr:stedsnr" v="1044897" />
		<tag k="ssr:type" v="adressenavn" />
	</node>
	<node lat="59.07821991434987" lon="10.431392866495479" id="-51072">
		<tag k="name" v="Nedre Dramsås" />
		<tag k="ssr:date" v="2019-12-27" />
		<tag k="ssr:gruppe" v="veg" />
		<tag k="ssr:hovedgruppe" v="infrastruktur" />
		<tag k="ssr:stedsnr" v="1044898" />
		<tag k="ssr:type" v="adressenavn" />
	</node>
	<node lat="59.154170148832655" lon="10.413449352345664" id="-51073">
		<tag k="name" v="Nautnesveien" />
		<tag k="ssr:date" v="2019-12-27" />
		<tag k="ssr:gruppe" v="veg" />
		<tag k="ssr:hovedgruppe" v="infrastruktur" />
		<tag k="ssr:stedsnr" v="1044899" />
		<tag k="ssr:type" v="adressenavn" />
	</node>
	<node lat="59.15419451480788" lon="10.409759029374676" id="-51074">
		<tag k="name" v="Mågerøveien" />
		<tag k="ssr:date" v="2019-12-27" />
		<tag k="ssr:gruppe" v="veg" />
		<tag k="ssr:hovedgruppe" v="infrastruktur" />
		<tag k="ssr:stedsnr" v="1044900" />
		<tag k="ssr:type" v="adressenavn" />
	</node>
	<node lat="59.15121293450244" lon="10.435783175698102" id="-51075">
		<tag k="name" v="Mågerølia" />
		<tag k="ssr:date" v="2019-12-27" />
		<tag k="ssr:gruppe" v="veg" />
		<tag k="ssr:hovedgruppe" v="infrastruktur" />
		<tag k="ssr:stedsnr" v="1044901" />
		<tag k="ssr:type" v="adressenavn" />
	</node>
	<node lat="59.113654562812286" lon="10.395192451299486" id="-51076">
		<tag k="name" v="Mølleråsen" />
		<tag k="ssr:date" v="2019-12-27" />
		<tag k="ssr:gruppe" v="veg" />
		<tag k="ssr:hovedgruppe" v="infrastruktur" />
		<tag k="ssr:stedsnr" v="1044902" />
		<tag k="ssr:type" v="adressenavn" />
	</node>
	<node lat="59.158429835915655" lon="10.390716145138985" id="-51077">
		<tag k="name" v="Mølledammen" />
		<tag k="ssr:date" v="2019-12-27" />
		<tag k="ssr:gruppe" v="veg" />
		<tag k="ssr:hovedgruppe" v="infrastruktur" />
		<tag k="ssr:stedsnr" v="1044903" />
		<tag k="ssr:type" v="adressenavn" />
	</node>
	<node lat="59.072691381029145" lon="10.402156595178981" id="-51078">
		<tag k="name" v="Moveien" />
		<tag k="ssr:date" v="2019-12-27" />
		<tag k="ssr:gruppe" v="veg" />
		<tag k="ssr:hovedgruppe" v="infrastruktur" />
		<tag k="ssr:stedsnr" v="1044904" />
		<tag k="ssr:type" v="adressenavn" />
	</node>
	<node lat="59.07963729474829" lon="10.449108416578714" id="-51079">
		<tag k="name" v="Motellveien" />
		<tag k="ssr:date" v="2019-12-27" />
		<tag k="ssr:gruppe" v="veg" />
		<tag k="ssr:hovedgruppe" v="infrastruktur" />
		<tag k="ssr:stedsnr" v="1044905" />
		<tag k="ssr:type" v="adressenavn" />
	</node>
	<node lat="59.08493161092028" lon="10.410263224870658" id="-51080">
		<tag k="name" v="Havnarønningen" />
		<tag k="ssr:date" v="2019-12-27" />
		<tag k="ssr:gruppe" v="veg" />
		<tag k="ssr:hovedgruppe" v="infrastruktur" />
		<tag k="ssr:stedsnr" v="1044906" />
		<tag k="ssr:type" v="adressenavn" />
	</node>
	<node lat="59.114635031316205" lon="10.394175646821958" id="-51081">
		<tag k="name" v="Rødskjærveien" />
		<tag k="ssr:date" v="2019-12-27" />
		<tag k="ssr:gruppe" v="veg" />
		<tag k="ssr:hovedgruppe" v="infrastruktur" />
		<tag k="ssr:stedsnr" v="1044907" />
		<tag k="ssr:type" v="adressenavn" />
	</node>
	<node lat="59.113722150861285" lon="10.39041870426329" id="-51082">
		<tag k="name" v="Rødsgata" />
		<tag k="ssr:date" v="2019-12-27" />
		<tag k="ssr:gruppe" v="veg" />
		<tag k="ssr:hovedgruppe" v="infrastruktur" />
		<tag k="ssr:stedsnr" v="1044908" />
		<tag k="ssr:type" v="adressenavn" />
	</node>
	<node lat="59.15673752260936" lon="10.382964418022112" id="-51083">
		<tag k="name" v="Rødnesveien" />
		<tag k="ssr:date" v="2019-12-27" />
		<tag k="ssr:gruppe" v="veg" />
		<tag k="ssr:hovedgruppe" v="infrastruktur" />
		<tag k="ssr:stedsnr" v="1044909" />
		<tag k="ssr:type" v="adressenavn" />
	</node>
	<node lat="59.11731606781886" lon="10.395714784758521" id="-51084">
		<tag k="name" v="Revestien" />
		<tag k="ssr:date" v="2019-12-27" />
		<tag k="ssr:gruppe" v="veg" />
		<tag k="ssr:hovedgruppe" v="infrastruktur" />
		<tag k="ssr:stedsnr" v="1044910" />
		<tag k="ssr:type" v="adressenavn" />
	</node>
	<node lat="59.135188928399806" lon="10.411093700966143" id="-51085">
		<tag k="name" v="Ramsåsveien" />
		<tag k="ssr:date" v="2019-12-27" />
		<tag k="ssr:gruppe" v="veg" />
		<tag k="ssr:hovedgruppe" v="infrastruktur" />
		<tag k="ssr:stedsnr" v="1044911" />
		<tag k="ssr:type" v="adressenavn" />
	</node>
	<node lat="59.15908054960112" lon="10.388699344680042" id="-51086">
		<tag k="name" v="Randines vei" />
		<tag k="ssr:date" v="2019-12-27" />
		<tag k="ssr:gruppe" v="veg" />
		<tag k="ssr:hovedgruppe" v="infrastruktur" />
		<tag k="ssr:stedsnr" v="1044912" />
		<tag k="ssr:type" v="adressenavn" />
	</node>
	<node lat="59.08106462582143" lon="10.44843034569265" id="-51087">
		<tag k="name" v="Putten" />
		<tag k="ssr:date" v="2019-12-27" />
		<tag k="ssr:gruppe" v="veg" />
		<tag k="ssr:hovedgruppe" v="infrastruktur" />
		<tag k="ssr:stedsnr" v="1044913" />
		<tag k="ssr:type" v="adressenavn" />
	</node>
	<node lat="59.115561118432446" lon="10.402363040405701" id="-51088">
		<tag k="name" v="Pytterønningen" />
		<tag k="ssr:date" v="2019-12-27" />
		<tag k="ssr:gruppe" v="veg" />
		<tag k="ssr:hovedgruppe" v="infrastruktur" />
		<tag k="ssr:stedsnr" v="1044914" />
		<tag k="ssr:type" v="adressenavn" />
	</node>
	<node lat="59.11535339052426" lon="10.40645387582605" id="-51089">
		<tag k="name" v="Pipegrunnkroken" />
		<tag k="ssr:date" v="2019-12-27" />
		<tag k="ssr:gruppe" v="veg" />
		<tag k="ssr:hovedgruppe" v="infrastruktur" />
		<tag k="ssr:stedsnr" v="1044915" />
		<tag k="ssr:type" v="adressenavn" />
	</node>
	<node lat="59.12527129173915" lon="10.4161564083011" id="-51090">
		<tag k="name" v="Ottosvei" />
		<tag k="ssr:date" v="2019-12-27" />
		<tag k="ssr:gruppe" v="veg" />
		<tag k="ssr:hovedgruppe" v="infrastruktur" />
		<tag k="ssr:stedsnr" v="1044916" />
		<tag k="ssr:type" v="adressenavn" />
	</node>
	<node lat="59.21614767841852" lon="9.611103016923492" id="-51092">
		<tag k="name" v="Vestfold og Telemark fylke" />
		<tag k="ssr:date" v="2021-06-08" />
		<tag k="ssr:gruppe" v="administrativeIndelinger" />
		<tag k="ssr:hovedgruppe" v="offentligAdministrasjon" />
		<tag k="ssr:stedsnr" v="1073927" />
		<tag k="ssr:type" v="fylke" />
	</node>
	<node lat="59.23570239446157" lon="10.451041271896335" id="-51093">
		<tag k="name" v="Tillas vei" />
		<tag k="ssr:date" v="2019-12-27" />
		<tag k="ssr:gruppe" v="veg" />
		<tag k="ssr:hovedgruppe" v="infrastruktur" />
		<tag k="ssr:stedsnr" v="1074134" />
		<tag k="ssr:type" v="adressenavn" />
	</node>
	<node lat="59.2025002713437" lon="10.44024646085421" id="-51095">
		<tag k="name" v="Roppestadkollen" />
		<tag k="ssr:date" v="2020-05-11" />
		<tag k="ssr:gruppe" v="veg" />
		<tag k="ssr:hovedgruppe" v="infrastruktur" />
		<tag k="ssr:stedsnr" v="1076848" />
		<tag k="ssr:type" v="adressenavn" />
	</node>
	<node lat="59.17361921069436" lon="10.430108382141439" id="-51096">
		<tag k="name" v="Haukemyrkroken" />
		<tag k="ssr:date" v="2020-07-06" />
		<tag k="ssr:gruppe" v="veg" />
		<tag k="ssr:hovedgruppe" v="infrastruktur" />
		<tag k="ssr:stedsnr" v="1077571" />
		<tag k="ssr:type" v="adressenavn" />
	</node>
	<node lat="59.17347127946356" lon="10.378977993038232" id="-51103">
		<tag k="name" v="Tokeneslia" />
		<tag k="ssr:date" v="2021-01-28" />
		<tag k="ssr:gruppe" v="veg" />
		<tag k="ssr:hovedgruppe" v="infrastruktur" />
		<tag k="ssr:stedsnr" v="1079775" />
		<tag k="ssr:type" v="adressenavn" />
	</node>
	<node lat="59.19627430813908" lon="10.407594494229707" id="-51104">
		<tag k="name" v="Engåstoppen" />
		<tag k="ssr:date" v="2021-02-10" />
		<tag k="ssr:gruppe" v="veg" />
		<tag k="ssr:hovedgruppe" v="infrastruktur" />
		<tag k="ssr:stedsnr" v="1079924" />
		<tag k="ssr:type" v="adressenavn" />
	</node>
	<node lat="59.17194739075451" lon="10.377849410641105" id="-51105">
		<tag k="name" v="Monstangen" />
		<tag k="ssr:date" v="2021-01-28" />
		<tag k="ssr:gruppe" v="veg" />
		<tag k="ssr:hovedgruppe" v="infrastruktur" />
		<tag k="ssr:stedsnr" v="1079776" />
		<tag k="ssr:type" v="adressenavn" />
	</node>
	<node lat="59.17655719570475" lon="10.375095276569102" id="-51109">
		<tag k="name" v="Tokenesåsen" />
		<tag k="ssr:date" v="2021-04-08" />
		<tag k="ssr:gruppe" v="veg" />
		<tag k="ssr:hovedgruppe" v="infrastruktur" />
		<tag k="ssr:stedsnr" v="1080759" />
		<tag k="ssr:type" v="adressenavn" />
	</node>
	<node lat="59.24023154777417" lon="10.398326425125342" id="-51110">
		<tag k="name" v="Mathilde Henriksens vei" />
		<tag k="ssr:date" v="2021-04-21" />
		<tag k="ssr:gruppe" v="veg" />
		<tag k="ssr:hovedgruppe" v="infrastruktur" />
		<tag k="ssr:stedsnr" v="1080952" />
		<tag k="ssr:type" v="adressenavn" />
	</node>
	<node lat="59.07753050663766" lon="10.434309130614205" id="-51111">
		<tag k="name" v="Nesåsen" />
		<tag k="ssr:date" v="2021-08-31" />
		<tag k="ssr:gruppe" v="veg" />
		<tag k="ssr:hovedgruppe" v="infrastruktur" />
		<tag k="ssr:stedsnr" v="1082060" />
		<tag k="ssr:type" v="adressenavn" />
	</node>
	<node lat="59.10729952985331" lon="10.406110524305268" id="-51112">
		<tag k="name" v="Kjæreberget" />
		<tag k="ssr:date" v="2021-08-31" />
		<tag k="ssr:gruppe" v="veg" />
		<tag k="ssr:hovedgruppe" v="infrastruktur" />
		<tag k="ssr:stedsnr" v="1082061" />
		<tag k="ssr:type" v="adressenavn" />
	</node>
	<node lat="59.106980300059526" lon="10.405730740388146" id="-51113">
		<tag k="name" v="Lillekjære" />
		<tag k="ssr:date" v="2021-08-31" />
		<tag k="ssr:gruppe" v="veg" />
		<tag k="ssr:hovedgruppe" v="infrastruktur" />
		<tag k="ssr:stedsnr" v="1082062" />
		<tag k="ssr:type" v="adressenavn" />
	</node>
</osm>
