<?xml version="1.0" encoding="UTF-8"?>
<osm version="0.6" generator="osmapis">
	<node lat="62.45584444639516" lon="11.588155558305806" id="-48846">
		<tag k="name" v="Storbekken" />
		<tag k="name:no" v="Storbekken" />
		<tag k="ssr:stedsnr" v="11327" />
		<tag k="waterway" v="stream" />
	</node>
	<node lat="62.42369166611406" lon="11.777052781757108" id="-48847">
		<tag k="name" v="Rundtjønna" />
		<tag k="name:no" v="Rundtjønna" />
		<tag k="natural" v="water" />
		<tag k="ssr:stedsnr" v="11515" />
	</node>
	<node lat="62.414400003884936" lon="11.994011105120432" id="-48848">
		<tag k="name" v="Gråbenlokan" />
		<tag k="name:no" v="Gråbenlokan" />
		<tag k="natural" v="water" />
		<tag k="ssr:stedsnr" v="11519" />
	</node>
	<node lat="62.68805000327945" lon="11.877144452390219" id="-48853">
		<tag k="name" v="Hyddhåen" />
		<tag k="name:no" v="Hyddhåen" />
		<tag k="place" v="locality" />
		<tag k="ssr:stedsnr" v="11709" />
	</node>
	<node lat="62.515491666346726" lon="11.452911116252347" id="-48856">
		<tag k="name" v="Kvernhusbekken" />
		<tag k="name:no" v="Kvernhusbekken" />
		<tag k="ssr:stedsnr" v="12514" />
		<tag k="waterway" v="stream" />
	</node>
	<node lat="62.776616663107134" lon="11.753280560331303" id="-48861">
		<tag k="name" v="Fjellsjøtjønnan" />
		<tag k="name:no" v="Fjellsjøtjønnan" />
		<tag k="natural" v="water" />
		<tag k="ssr:stedsnr" v="12817" />
	</node>
	<node lat="62.55546389060254" lon="11.411883336014059" id="-48875">
		<tag k="name" v="Rundtjønna" />
		<tag k="name:no" v="Rundtjønna" />
		<tag k="natural" v="water" />
		<tag k="ssr:stedsnr" v="38021" />
	</node>
	<node lat="62.63108611333032" lon="11.920511109994855" id="-48877">
		<tag k="name" v="Fisklausloken" />
		<tag k="name:no" v="Fisklausloken" />
		<tag k="natural" v="water" />
		<tag k="ssr:stedsnr" v="38068" />
	</node>
	<node lat="62.484802776012366" lon="11.868088890259246" id="-48880">
		<tag k="name" v="Tamnesvika" />
		<tag k="name:no" v="Tamnesvika" />
		<tag k="natural" v="bay" />
		<tag k="ssr:stedsnr" v="38222" />
	</node>
	<node lat="62.638527778091174" lon="11.661322223707131" id="-48882">
		<tag k="name" v="Litlvika" />
		<tag k="name:no" v="Litlvika" />
		<tag k="natural" v="bay" />
		<tag k="ssr:stedsnr" v="38760" />
	</node>
	<node lat="62.751938893247605" lon="11.926722221269076" id="-48886">
		<tag k="name" v="Svartbekkosen" />
		<tag k="name:no" v="Svartbekkosen" />
		<tag k="natural" v="bay" />
		<tag k="ssr:stedsnr" v="42001" />
	</node>
	<node lat="62.642672222600304" lon="11.777527771506573" id="-48889">
		<tag k="name" v="Volloken" />
		<tag k="name:no" v="Volloken" />
		<tag k="natural" v="water" />
		<tag k="ssr:stedsnr" v="42302" />
	</node>
	<node lat="62.69210277545003" lon="11.689408328719477" id="-48893">
		<tag k="name" v="Stenbekken" />
		<tag k="name:no" v="Stenbekken" />
		<tag k="ssr:stedsnr" v="42314" />
		<tag k="waterway" v="stream" />
	</node>
	<node lat="62.719819441252156" lon="11.91124167389347" id="-48896">
		<tag k="name" v="Kojebekken" />
		<tag k="name:no" v="Kojebekken" />
		<tag k="ssr:stedsnr" v="42019" />
		<tag k="waterway" v="stream" />
	</node>
	<node lat="62.74113611048105" lon="11.937100002312041" id="-48897">
		<tag k="name" v="Finnflobekken" />
		<tag k="name:no" v="Finnflobekken" />
		<tag k="ssr:stedsnr" v="42025" />
		<tag k="waterway" v="stream" />
	</node>
	<node lat="62.597974999452774" lon="11.810555564439811" id="-48901">
		<tag k="name" v="Våghalsloken" />
		<tag k="name:no" v="Våghalsloken" />
		<tag k="natural" v="water" />
		<tag k="ssr:stedsnr" v="42281" />
	</node>
	<node lat="62.62644166514731" lon="11.925388887898743" id="-48906">
		<tag k="name" v="Vinkelloken" />
		<tag k="name:no" v="Vinkelloken" />
		<tag k="natural" v="water" />
		<tag k="ssr:stedsnr" v="42428" />
	</node>
	<node lat="62.611997224226755" lon="11.84270278468841" id="-48907">
		<tag k="name" v="Jonasvika" />
		<tag k="name:no" v="Jonasvika" />
		<tag k="natural" v="bay" />
		<tag k="ssr:stedsnr" v="42431" />
	</node>
	<node lat="62.53476944894114" lon="11.453249999745882" id="-48908">
		<tag k="name" v="Åstjønna" />
		<tag k="name:no" v="Åstjønna" />
		<tag k="natural" v="water" />
		<tag k="ssr:stedsnr" v="42472" />
	</node>
	<node lat="62.65667500381111" lon="11.782863895992282" id="-48909">
		<tag k="name" v="Lauvåsbekken" />
		<tag k="name:no" v="Lauvåsbekken" />
		<tag k="ssr:stedsnr" v="42473" />
		<tag k="waterway" v="stream" />
	</node>
	<node lat="62.65072777983124" lon="11.781363898780159" id="-48911">
		<tag k="name" v="Lomlokan" />
		<tag k="name:no" v="Lomlokan" />
		<tag k="natural" v="water" />
		<tag k="ssr:stedsnr" v="42479" />
	</node>
	<node lat="62.66871666487153" lon="11.731636117905005" id="-48916">
		<tag k="name" v="Tamnesbekken" />
		<tag k="name:no" v="Tamnesbekken" />
		<tag k="ssr:stedsnr" v="42493" />
		<tag k="waterway" v="stream" />
	</node>
	<node lat="62.53074722099973" lon="11.924536104587336" id="-48917">
		<tag k="name" v="Stabbursbekken" />
		<tag k="name:no" v="Stabbursbekken" />
		<tag k="ssr:stedsnr" v="42381" />
		<tag k="waterway" v="stream" />
	</node>
	<node lat="62.54607777435812" lon="11.635941661487365" id="-48919">
		<tag k="name" v="Røbekken" />
		<tag k="name:no" v="Røbekken" />
		<tag k="ssr:stedsnr" v="42504" />
		<tag k="waterway" v="stream" />
	</node>
	<node lat="62.575194447905304" lon="11.562775006635084" id="-48924">
		<tag k="name" v="Småslættbekken" />
		<tag k="name:no" v="Småslættbekken" />
		<tag k="ssr:stedsnr" v="42804" />
		<tag k="waterway" v="stream" />
	</node>
	<node lat="62.744763884474864" lon="11.863955558606111" id="-48933">
		<tag k="name" v="Digerodden" />
		<tag k="name:no" v="Digerodden" />
		<tag k="natural" v="cape" />
		<tag k="ssr:stedsnr" v="43573" />
	</node>
	<node lat="62.77790833274902" lon="11.868705549728784" id="-48934">
		<tag k="name" v="Gammelkoitjønna" />
		<tag k="name:no" v="Gammelkoitjønna" />
		<tag k="natural" v="water" />
		<tag k="ssr:stedsnr" v="43579" />
	</node>
	<node lat="62.72781388530705" lon="11.792083325304947" id="-48939">
		<tag k="name" v="Kokkseterbekken" />
		<tag k="name:no" v="Kokkseterbekken" />
		<tag k="ssr:stedsnr" v="43731" />
		<tag k="waterway" v="stream" />
	</node>
	<node lat="62.46645277563041" lon="11.866583332756202" id="-48951">
		<tag k="name" v="Bakkaloken" />
		<tag k="name:no" v="Bakkaloken" />
		<tag k="natural" v="water" />
		<tag k="ssr:stedsnr" v="242031" />
	</node>
	<node lat="62.64077500399747" lon="11.933219444188627" id="-48955">
		<tag k="name" v="Seterbekken" />
		<tag k="name:no" v="Seterbekken" />
		<tag k="ssr:stedsnr" v="72626" />
		<tag k="waterway" v="stream" />
	</node>
	<node lat="62.60399167009002" lon="12.007544440297886" id="-48957">
		<tag k="name" v="Stenhåen" />
		<tag k="name:no" v="Stenhåen" />
		<tag k="natural" v="water" />
		<tag k="ssr:stedsnr" v="72645" />
	</node>
	<node lat="62.60644999853349" lon="11.888519439111585" id="-48958">
		<tag k="name" v="Langneset" />
		<tag k="name:no" v="Langneset" />
		<tag k="natural" v="cape" />
		<tag k="ssr:stedsnr" v="72648" />
	</node>
	<node lat="62.611741666501516" lon="11.896561101780447" id="-48959">
		<tag k="name" v="Krokstadodden" />
		<tag k="name:no" v="Krokstadodden" />
		<tag k="natural" v="cape" />
		<tag k="ssr:stedsnr" v="72649" />
	</node>
	<node lat="62.64830000060703" lon="11.797544447591426" id="-48962">
		<tag k="name" v="Halvorloken" />
		<tag k="name:no" v="Halvorloken" />
		<tag k="place" v="locality" />
		<tag k="ssr:stedsnr" v="72708" />
	</node>
	<node lat="62.639913887064594" lon="11.632705551876787" id="-48967">
		<tag k="name" v="Bekkostjønna" />
		<tag k="name:no" v="Bekkostjønna" />
		<tag k="natural" v="water" />
		<tag k="ssr:stedsnr" v="72868" />
	</node>
	<node lat="62.65242777558092" lon="11.344374999247247" id="-48975">
		<tag k="name" v="Orva" />
		<tag k="name:no" v="Orva" />
		<tag k="ssr:stedsnr" v="72982" />
		<tag k="waterway" v="river" />
	</node>
	<node lat="62.598469448415564" lon="11.27065000721539" id="-48978">
		<tag k="name" v="Skitligbekken" />
		<tag k="name:no" v="Skitligbekken" />
		<tag k="ssr:stedsnr" v="81802" />
		<tag k="waterway" v="stream" />
	</node>
	<node lat="62.63838610964539" lon="11.900744448584849" id="-48982">
		<tag k="name" v="Rybekken" />
		<tag k="name:no" v="Rybekken" />
		<tag k="ssr:stedsnr" v="99080" />
		<tag k="waterway" v="stream" />
	</node>
	<node lat="62.65379166784492" lon="11.684880549064829" id="-48984">
		<tag k="name" v="Skjervikan" />
		<tag k="name:no" v="Skjervikan" />
		<tag k="natural" v="beach" />
		<tag k="ssr:stedsnr" v="99217" />
	</node>
	<node lat="62.75108333236204" lon="11.919641662358385" id="-48991">
		<tag k="name" v="Litlskjeret" />
		<tag k="name:no" v="Litlskjeret" />
		<tag k="place" v="islet" />
		<tag k="ssr:stedsnr" v="103006" />
	</node>
	<node lat="62.71413610782786" lon="11.952449996455226" id="-48995">
		<tag k="name" v="Iversundet" />
		<tag k="name:no" v="Iversundet" />
		<tag k="natural" v="strait" />
		<tag k="ssr:stedsnr" v="103109" />
	</node>
	<node lat="62.5562944478391" lon="11.25694167561518" id="-49005">
		<tag k="name" v="Lomtjønnbekken" />
		<tag k="name:no" v="Lomtjønnbekken" />
		<tag k="ssr:stedsnr" v="103306" />
		<tag k="waterway" v="stream" />
	</node>
	<node lat="62.53124166659149" lon="11.289125004015977" id="-49008">
		<tag k="name" v="Kardusloken" />
		<tag k="name:no" v="Kardusloken" />
		<tag k="natural" v="water" />
		<tag k="ssr:stedsnr" v="103312" />
	</node>
	<node lat="62.67716666701155" lon="11.661024994773431" id="-49010">
		<tag k="name" v="Flotjønna" />
		<tag k="name:no" v="Flotjønna" />
		<tag k="natural" v="water" />
		<tag k="ssr:stedsnr" v="103325" />
	</node>
	<node lat="62.584558336745" lon="11.810961107204102" id="-49016">
		<tag k="name" v="Storodden" />
		<tag k="name:no" v="Storodden" />
		<tag k="natural" v="cape" />
		<tag k="ssr:stedsnr" v="103388" />
	</node>
	<node lat="62.579811112743826" lon="11.807497220636451" id="-49017">
		<tag k="name" v="Røragen" />
		<tag k="name:no" v="Røragen" />
		<tag k="natural" v="water" />
		<tag k="ssr:stedsnr" v="103389" />
		<tag k="water" v="lake" />
	</node>
	<node lat="62.5785527755547" lon="11.797372215661774" id="-49019">
		<tag k="name" v="Storvika" />
		<tag k="name:no" v="Storvika" />
		<tag k="natural" v="bay" />
		<tag k="ssr:stedsnr" v="103391" />
	</node>
	<node lat="62.579638885704234" lon="11.228702777016636" id="-49020">
		<tag k="name" v="Livollbekken" />
		<tag k="name:no" v="Livollbekken" />
		<tag k="ssr:stedsnr" v="103392" />
		<tag k="waterway" v="stream" />
	</node>
	<node lat="62.64335000013363" lon="11.813330554100437" id="-49029">
		<tag k="name" v="Kvernhusbekken" />
		<tag k="name:no" v="Kvernhusbekken" />
		<tag k="ssr:stedsnr" v="103472" />
		<tag k="waterway" v="stream" />
	</node>
	<node lat="62.54091666785805" lon="11.44275277575367" id="-49031">
		<tag k="name" v="Rismosjøen" />
		<tag k="name:no" v="Rismosjøen" />
		<tag k="natural" v="water" />
		<tag k="ssr:stedsnr" v="103487" />
		<tag k="water" v="lake" />
	</node>
	<node lat="62.693527780127354" lon="11.742658340793382" id="-49037">
		<tag k="name" v="Lomtjønnloken" />
		<tag k="name:no" v="Lomtjønnloken" />
		<tag k="natural" v="water" />
		<tag k="ssr:stedsnr" v="103577" />
	</node>
	<node lat="62.749499997655676" lon="11.816624995922163" id="-49039">
		<tag k="name" v="Gammelmanntjønna" />
		<tag k="name:no" v="Gammelmanntjønna" />
		<tag k="natural" v="water" />
		<tag k="ssr:stedsnr" v="103583" />
	</node>
	<node lat="62.568091670789904" lon="11.540947226995856" id="-49048">
		<tag k="name" v="Lunningsloken" />
		<tag k="name:no" v="Lunningsloken" />
		<tag k="natural" v="water" />
		<tag k="ssr:stedsnr" v="103827" />
	</node>
	<node lat="62.76238055568175" lon="11.878869437561653" id="-49053">
		<tag k="name" v="Rien" />
		<tag k="name:no" v="Rien" />
		<tag k="natural" v="water" />
		<tag k="ssr:stedsnr" v="104573" />
		<tag k="water" v="lake" />
	</node>
	<node lat="62.673450001431746" lon="11.744563893153781" id="-49054">
		<tag k="name" v="Milstensodden" />
		<tag k="name:no" v="Milstensodden" />
		<tag k="natural" v="cape" />
		<tag k="ssr:stedsnr" v="104673" />
	</node>
	<node lat="62.691361109482244" lon="11.749322226794138" id="-49056">
		<tag k="name" v="Haugabekken" />
		<tag k="name:no" v="Haugabekken" />
		<tag k="ssr:stedsnr" v="104678" />
		<tag k="waterway" v="stream" />
	</node>
	<node lat="62.41010555940986" lon="11.930466658557789" id="-49064">
		<tag k="name" v="Neset" />
		<tag k="name:no" v="Neset" />
		<tag k="natural" v="cape" />
		<tag k="ssr:stedsnr" v="132505" />
	</node>
	<node lat="62.69750277488008" lon="11.957749999488287" id="-49067">
		<tag k="name" v="Haksinbekken" />
		<tag k="name:no" v="Haksinbekken" />
		<tag k="ssr:stedsnr" v="132714" />
		<tag k="waterway" v="stream" />
	</node>
	<node lat="62.65743610686214" lon="11.968163897203233" id="-49068">
		<tag k="name" v="Sandtjønna" />
		<tag k="name:no" v="Sandtjønna" />
		<tag k="natural" v="water" />
		<tag k="ssr:stedsnr" v="132725" />
	</node>
	<node lat="62.66411388535384" lon="11.891911118631636" id="-49069">
		<tag k="name" v="Stenvollbekken" />
		<tag k="name:no" v="Stenvollbekken" />
		<tag k="ssr:stedsnr" v="132726" />
		<tag k="waterway" v="stream" />
	</node>
	<node lat="62.650883337019245" lon="11.801241657767914" id="-49071">
		<tag k="name" v="Langloken" />
		<tag k="name:no" v="Langloken" />
		<tag k="place" v="locality" />
		<tag k="ssr:stedsnr" v="132728" />
	</node>
	<node lat="62.655652779236256" lon="11.781502785432325" id="-49072">
		<tag k="name" v="Lauvåsbekken" />
		<tag k="name:no" v="Lauvåsbekken" />
		<tag k="ssr:stedsnr" v="132729" />
		<tag k="waterway" v="stream" />
	</node>
	<node lat="62.66628462145574" lon="11.959653925921279" id="-49073">
		<tag k="name" v="Storfisktjønna" />
		<tag k="name:no" v="Storfisktjønna" />
		<tag k="natural" v="water" />
		<tag k="ssr:stedsnr" v="132732" />
	</node>
	<node lat="62.41113889185725" lon="12.127661102488377" id="-49076">
		<tag k="name" v="Litlvolsjøen" />
		<tag k="name:no" v="Litlvolsjøen" />
		<tag k="natural" v="water" />
		<tag k="ssr:stedsnr" v="132612" />
	</node>
	<node lat="62.3475666671363" lon="12.158827781319971" id="-49077">
		<tag k="name" v="Styggsjøan" />
		<tag k="name:no" v="Styggsjøan" />
		<tag k="natural" v="water" />
		<tag k="ssr:stedsnr" v="132621" />
		<tag k="water" v="lake" />
	</node>
	<node lat="62.670838893035" lon="11.187236109706866" id="-49080">
		<tag k="name" v="Nordre Langtjønna" />
		<tag k="name:no" v="Nordre Langtjønna" />
		<tag k="natural" v="water" />
		<tag k="ssr:stedsnr" v="133202" />
	</node>
	<node lat="62.64135277334574" lon="11.737263891435958" id="-49084">
		<tag k="name" v="Blindtjønna" />
		<tag k="name:no" v="Blindtjønna" />
		<tag k="natural" v="water" />
		<tag k="ssr:stedsnr" v="133608" />
	</node>
	<node lat="62.61480833228105" lon="11.781713881697664" id="-49085">
		<tag k="name" v="Litlodden" />
		<tag k="name:no" v="Litlodden" />
		<tag k="natural" v="cape" />
		<tag k="ssr:stedsnr" v="133658" />
	</node>
	<node lat="62.78190833337261" lon="11.834550001125422" id="-49087">
		<tag k="name" v="Øversjøen" />
		<tag k="name:no" v="Øversjøen" />
		<tag k="natural" v="water" />
		<tag k="ssr:stedsnr" v="133808" />
		<tag k="water" v="lake" />
	</node>
	<node lat="62.759482030605554" lon="11.95890363759675" id="-49088">
		<tag k="name" v="Svartbekktjønna" />
		<tag k="name:no" v="Svartbekktjønna" />
		<tag k="natural" v="water" />
		<tag k="ssr:stedsnr" v="133823" />
	</node>
	<node lat="62.699888889306834" lon="11.268775008111241" id="-49089">
		<tag k="name" v="Fjellsjøen" />
		<tag k="name:no" v="Fjellsjøen" />
		<tag k="natural" v="water" />
		<tag k="ssr:stedsnr" v="133961" />
		<tag k="water" v="lake" />
	</node>
	<node lat="62.400349998265916" lon="11.687336117894784" id="-49090">
		<tag k="name" v="Lomloken" />
		<tag k="name:no" v="Lomloken" />
		<tag k="natural" v="water" />
		<tag k="ssr:stedsnr" v="254395" />
	</node>
	<node lat="62.61643038462089" lon="11.164475939013228" id="-49091">
		<tag k="name" v="Storsandtjønna" />
		<tag k="name:no" v="Storsandtjønna" />
		<tag k="natural" v="water" />
		<tag k="ssr:stedsnr" v="254164" />
	</node>
	<node lat="62.56796110938072" lon="11.749319441660695" id="-49092">
		<tag k="name" v="Djupskardtjønna" />
		<tag k="name:no" v="Djupskardtjønna" />
		<tag k="natural" v="water" />
		<tag k="ssr:stedsnr" v="254264" />
	</node>
	<node lat="62.44792777351646" lon="11.657525001866405" id="-49093">
		<tag k="name" v="Langtjønna" />
		<tag k="name:no" v="Langtjønna" />
		<tag k="natural" v="water" />
		<tag k="ssr:stedsnr" v="254321" />
	</node>
	<node lat="62.47502777905763" lon="11.792136105899743" id="-49095">
		<tag k="name" v="Gjetstraumen" />
		<tag k="name:no" v="Gjetstraumen" />
		<tag k="ssr:stedsnr" v="254526" />
		<tag k="waterway" v="stream" />
	</node>
	<node lat="62.478680554670355" lon="11.865013896332545" id="-49096">
		<tag k="alt_name:no" v="Rundtjønna" />
		<tag k="name" v="Blindtjønna" />
		<tag k="name:no" v="Blindtjønna" />
		<tag k="natural" v="water" />
		<tag k="ssr:stedsnr" v="254527" />
	</node>
	<node lat="62.46752777758202" lon="11.794363896355396" id="-49097">
		<tag k="name" v="Olaloken" />
		<tag k="name:no" v="Olaloken" />
		<tag k="natural" v="water" />
		<tag k="ssr:stedsnr" v="254529" />
	</node>
	<node lat="62.71734285851063" lon="11.81622906181102" id="-49098">
		<tag k="name" v="Budalstjønna" />
		<tag k="name:no" v="Budalstjønna" />
		<tag k="natural" v="water" />
		<tag k="ssr:stedsnr" v="254531" />
	</node>
	<node lat="62.72251110657713" lon="12.11225556432178" id="-49099">
		<tag k="name" v="Stortjønna" />
		<tag k="name:no" v="Stortjønna" />
		<tag k="natural" v="water" />
		<tag k="ssr:stedsnr" v="254533" />
	</node>
	<node lat="62.430030553951205" lon="12.082149990308265" id="-49100">
		<tag k="name" v="Nedre Muggsjøen" />
		<tag k="name:no" v="Nedre Muggsjøen" />
		<tag k="natural" v="water" />
		<tag k="ssr:stedsnr" v="254485" />
		<tag k="water" v="lake" />
	</node>
	<node lat="62.42986389219535" lon="12.14308888270101" id="-49102">
		<tag k="name" v="Mugga" />
		<tag k="name:no" v="Mugga" />
		<tag k="ssr:stedsnr" v="254487" />
		<tag k="waterway" v="stream" />
	</node>
	<node lat="62.70379055005713" lon="11.894576424690044" id="-49105">
		<tag k="name" v="Fisklaustjønna" />
		<tag k="name:no" v="Fisklaustjønna" />
		<tag k="natural" v="water" />
		<tag k="ssr:stedsnr" v="254517" />
	</node>
	<node lat="62.31279999933041" lon="12.150580563861153" id="-49108">
		<tag k="name" v="Storbuddhåen" />
		<tag k="name:no" v="Storbuddhåen" />
		<tag k="place" v="locality" />
		<tag k="ssr:stedsnr" v="254540" />
	</node>
	<node lat="62.52008889333518" lon="11.310438884357826" id="-49112">
		<tag k="name" v="Djupbekken" />
		<tag k="ssr:stedsnr" v="140792" />
		<tag k="waterway" v="stream" />
	</node>
	<node lat="62.50509166814137" lon="11.620305554505542" id="-49113">
		<tag k="name" v="Merkesbekken" />
		<tag k="name:no" v="Merkesbekken" />
		<tag k="ssr:stedsnr" v="140799" />
		<tag k="waterway" v="stream" />
	</node>
	<node lat="62.35521110664048" lon="12.098613896338055" id="-49118">
		<tag k="name" v="Julfisktjønna" />
		<tag k="name:no" v="Julfisktjønna" />
		<tag k="natural" v="water" />
		<tag k="ssr:stedsnr" v="254589" />
	</node>
	<node lat="62.36475555245403" lon="12.07088054921274" id="-49119">
		<tag k="name" v="Styggfisktjønna" />
		<tag k="name:no" v="Styggfisktjønna" />
		<tag k="natural" v="water" />
		<tag k="ssr:stedsnr" v="254593" />
	</node>
	<node lat="62.36270000337158" lon="11.982474992313536" id="-49120">
		<tag k="name" v="Røsanden" />
		<tag k="name:no" v="Røsanden" />
		<tag k="natural" v="cape" />
		<tag k="ssr:stedsnr" v="254595" />
	</node>
	<node lat="62.36849999963574" lon="12.007241662118386" id="-49121">
		<tag k="name" v="Granbekktjønna" />
		<tag k="name:no" v="Granbekktjønna" />
		<tag k="natural" v="water" />
		<tag k="ssr:stedsnr" v="254598" />
	</node>
	<node lat="62.65398055583092" lon="12.044350002341968" id="-49122">
		<tag k="name" v="Vaula" />
		<tag k="name:no" v="Vaula" />
		<tag k="ssr:stedsnr" v="254696" />
		<tag k="waterway" v="stream" />
	</node>
	<node lat="62.6852889320982" lon="11.72221443045079" id="-49125">
		<tag k="name" v="Søodden" />
		<tag k="name:no" v="Søodden" />
		<tag k="natural" v="cape" />
		<tag k="ssr:stedsnr" v="254666" />
	</node>
	<node lat="62.66226388686892" lon="11.44965832821882" id="-49139">
		<tag k="name" v="Blisterbekken" />
		<tag k="name:no" v="Blisterbekken" />
		<tag k="ssr:stedsnr" v="254999" />
		<tag k="waterway" v="stream" />
	</node>
	<node lat="62.69644999570755" lon="11.318833337723838" id="-49141">
		<tag k="name" v="Tullodden" />
		<tag k="name:no" v="Tullodden" />
		<tag k="natural" v="cape" />
		<tag k="ssr:stedsnr" v="142834" />
	</node>
	<node lat="62.65265447962324" lon="11.392976217211292" id="-49143">
		<tag k="name" v="Hjulmakerloken" />
		<tag k="name:no" v="Hjulmakerloken" />
		<tag k="natural" v="water" />
		<tag k="ssr:stedsnr" v="142846" />
	</node>
	<node lat="62.791377778027936" lon="11.919613894683014" id="-49144">
		<tag k="name" v="Langtjønna" />
		<tag k="name:no" v="Langtjønna" />
		<tag k="natural" v="water" />
		<tag k="ssr:stedsnr" v="255656" />
	</node>
	<node lat="62.805236107543436" lon="11.822013884881093" id="-49146">
		<tag k="name" v="Storelva" />
		<tag k="name:no" v="Storelva" />
		<tag k="ssr:stedsnr" v="255839" />
		<tag k="waterway" v="river" />
	</node>
	<node lat="62.782863891940465" lon="11.823405560206847" id="-49147">
		<tag k="name" v="Åbbårholet" />
		<tag k="name:no" v="Åbbårholet" />
		<tag k="natural" v="water" />
		<tag k="ssr:stedsnr" v="255850" />
	</node>
	<node lat="62.767794442487" lon="11.861711116439379" id="-49148">
		<tag k="name" v="Stenhyllholmen" />
		<tag k="name:no" v="Stenhyllholmen" />
		<tag k="place" v="islet" />
		<tag k="ssr:stedsnr" v="255852" />
	</node>
	<node lat="62.769883329251336" lon="11.728308336698976" id="-49149">
		<tag k="name" v="Sødalstjønnan" />
		<tag k="name:no" v="Sødalstjønnan" />
		<tag k="natural" v="water" />
		<tag k="ssr:stedsnr" v="255856" />
	</node>
	<node lat="62.75152500233637" lon="11.754074993375632" id="-49150">
		<tag k="name" v="Enoktjønna" />
		<tag k="name:no" v="Enoktjønna" />
		<tag k="natural" v="water" />
		<tag k="ssr:stedsnr" v="255857" />
	</node>
	<node lat="62.763074999705736" lon="11.630833337271069" id="-49152">
		<tag k="name" v="Rundtjønna" />
		<tag k="name:no" v="Rundtjønna" />
		<tag k="natural" v="water" />
		<tag k="ssr:stedsnr" v="255950" />
	</node>
	<node lat="62.753994445622844" lon="11.923361117936503" id="-49154">
		<tag k="name" v="Svartbekksanden" />
		<tag k="name:no" v="Svartbekksanden" />
		<tag k="natural" v="beach" />
		<tag k="ssr:stedsnr" v="163012" />
	</node>
	<node lat="62.630875002025135" lon="11.727250000587372" id="-49169">
		<tag k="name" v="Fjøsvollodden" />
		<tag k="name:no" v="Fjøsvollodden" />
		<tag k="natural" v="cape" />
		<tag k="ssr:stedsnr" v="164365" />
	</node>
	<node lat="62.6261444451885" lon="11.881783329368835" id="-49172">
		<tag k="name" v="Litlauretjønna" />
		<tag k="name:no" v="Litlauretjønna" />
		<tag k="natural" v="water" />
		<tag k="ssr:stedsnr" v="164512" />
	</node>
	<node lat="62.45629999995444" lon="11.551622228395283" id="-49175">
		<tag k="name" v="Gammelvollbekken" />
		<tag k="name:no" v="Gammelvollbekken" />
		<tag k="ssr:stedsnr" v="164283" />
		<tag k="waterway" v="stream" />
	</node>
	<node lat="62.608974064223666" lon="11.283253757853773" id="-49179">
		<tag k="name" v="Røa" />
		<tag k="name:no" v="Røa" />
		<tag k="ssr:stedsnr" v="164465" />
		<tag k="waterway" v="river" />
	</node>
	<node lat="62.553516666715225" lon="11.854072226258785" id="-49181">
		<tag k="name" v="Djupdalsbekken" />
		<tag k="name:no" v="Djupdalsbekken" />
		<tag k="ssr:stedsnr" v="164474" />
		<tag k="waterway" v="stream" />
	</node>
	<node lat="62.559574997792986" lon="11.870555555703149" id="-49183">
		<tag k="name" v="Sandvika" />
		<tag k="name:no" v="Sandvika" />
		<tag k="natural" v="bay" />
		<tag k="ssr:stedsnr" v="164478" />
	</node>
	<node lat="62.77243888574882" lon="11.894050008928089" id="-49188">
		<tag k="name" v="Skallbekken" />
		<tag k="name:no" v="Skallbekken" />
		<tag k="ssr:stedsnr" v="164674" />
		<tag k="waterway" v="stream" />
	</node>
	<node lat="62.588538884813715" lon="11.63829443737455" id="-49189">
		<tag k="name" v="Kvernhusfossen" />
		<tag k="name:no" v="Kvernhusfossen" />
		<tag k="natural" v="waterfall" />
		<tag k="ssr:stedsnr" v="164679" />
	</node>
	<node lat="62.528083335001384" lon="11.465574991947754" id="-49192">
		<tag k="name" v="Kvernbekken" />
		<tag k="name:no" v="Kvernbekken" />
		<tag k="ssr:stedsnr" v="164871" />
		<tag k="waterway" v="stream" />
	</node>
	<node lat="62.608452777367816" lon="11.619844444867246" id="-49194">
		<tag k="name" v="Merkesbekken" />
		<tag k="name:no" v="Merkesbekken" />
		<tag k="ssr:stedsnr" v="164711" />
		<tag k="waterway" v="stream" />
	</node>
	<node lat="62.644802777523374" lon="11.705550002569751" id="-49199">
		<tag k="name" v="Granåbekken" />
		<tag k="name:no" v="Granåbekken" />
		<tag k="ssr:stedsnr" v="164765" />
		<tag k="waterway" v="stream" />
	</node>
	<node lat="62.71613055941622" lon="11.890197220793542" id="-49205">
		<tag k="name" v="Jo Mortensaodden" />
		<tag k="name:no" v="Jo Mortensaodden" />
		<tag k="natural" v="cape" />
		<tag k="ssr:stedsnr" v="165594" />
	</node>
	<node lat="62.76064166236535" lon="11.835458326185082" id="-49207">
		<tag k="name" v="Gjeddtjønna" />
		<tag k="name:no" v="Gjeddtjønna" />
		<tag k="natural" v="water" />
		<tag k="ssr:stedsnr" v="165819" />
	</node>
	<node lat="62.76727222470004" lon="11.833222212759456" id="-49208">
		<tag k="name" v="Litlribekken" />
		<tag k="name:no" v="Litlribekken" />
		<tag k="ssr:stedsnr" v="165822" />
		<tag k="waterway" v="stream" />
	</node>
	<node lat="62.785822219923595" lon="11.800633331621826" id="-49211">
		<tag k="name" v="Kolbrennbekken" />
		<tag k="name:no" v="Kolbrennbekken" />
		<tag k="ssr:stedsnr" v="165826" />
		<tag k="waterway" v="stream" />
	</node>
	<node lat="62.68866389059293" lon="11.72407500437871" id="-49213">
		<tag k="name" v="Litlsøa" />
		<tag k="name:no" v="Litlsøa" />
		<tag k="old_name:no" v="Litl-søa" />
		<tag k="ssr:stedsnr" v="165710" />
		<tag k="waterway" v="river" />
	</node>
	<node lat="62.557786113790655" lon="11.406825006549289" id="-49216">
		<tag k="name" v="Pinstitjønna" />
		<tag k="name:no" v="Pinstitjønna" />
		<tag k="natural" v="water" />
		<tag k="ssr:stedsnr" v="262839" />
	</node>
	<node lat="62.54873055735826" lon="12.016619452063376" id="-49217">
		<tag k="name" v="Kvernhustjønna" />
		<tag k="name:no" v="Kvernhustjønna" />
		<tag k="natural" v="water" />
		<tag k="ssr:stedsnr" v="263317" />
	</node>
	<node lat="62.44591110877889" lon="11.620124991250082" id="-49220">
		<tag k="name" v="Tutørkatjønna" />
		<tag k="name:no" v="Tutørkatjønna" />
		<tag k="natural" v="water" />
		<tag k="ssr:stedsnr" v="263565" />
	</node>
	<node lat="62.76482500410061" lon="12.022305562145178" id="-49221">
		<tag k="name" v="Tuvtjønna" />
		<tag k="name:no" v="Tuvtjønna" />
		<tag k="natural" v="water" />
		<tag k="ssr:stedsnr" v="263716" />
	</node>
	<node lat="62.58013888520936" lon="11.43896667501712" id="-49222">
		<tag k="name" v="Stendalsbekken" />
		<tag k="name:no" v="Stendalsbekken" />
		<tag k="ssr:stedsnr" v="263781" />
		<tag k="waterway" v="stream" />
	</node>
	<node lat="62.51270833688244" lon="11.946825004853372" id="-49226">
		<tag k="name" v="Hesjestøbekken" />
		<tag k="name:no" v="Hesjestøbekken" />
		<tag k="ssr:stedsnr" v="203306" />
		<tag k="waterway" v="stream" />
	</node>
	<node lat="62.55940277357787" lon="11.402936115447668" id="-49241">
		<tag k="name" v="Gorrtjønna" />
		<tag k="name:no" v="Gorrtjønna" />
		<tag k="natural" v="water" />
		<tag k="ssr:stedsnr" v="221021" />
	</node>
	<node lat="62.746777777753685" lon="11.938233336751187" id="-49250">
		<tag k="name" v="Stortjønna" />
		<tag k="name:no" v="Stortjønna" />
		<tag k="natural" v="water" />
		<tag k="ssr:stedsnr" v="224041" />
	</node>
	<node lat="62.47145555609079" lon="11.578058333266462" id="-49251">
		<tag k="name" v="Rambergtjønna" />
		<tag k="name:no" v="Rambergtjønna" />
		<tag k="natural" v="water" />
		<tag k="ssr:stedsnr" v="224227" />
	</node>
	<node lat="62.45209444025465" lon="11.561424992758448" id="-49255">
		<tag k="name" v="Litltjønna" />
		<tag k="name:no" v="Litltjønna" />
		<tag k="natural" v="water" />
		<tag k="ssr:stedsnr" v="224247" />
	</node>
	<node lat="62.51912500110408" lon="11.91631944528142" id="-49259">
		<tag k="name" v="Skarpnesvika" />
		<tag k="name:no" v="Skarpnesvika" />
		<tag k="natural" v="bay" />
		<tag k="ssr:stedsnr" v="224389" />
	</node>
	<node lat="62.4550749992726" lon="11.491061114128403" id="-49260">
		<tag k="name" v="Grubbtjønna" />
		<tag k="name:no" v="Grubbtjønna" />
		<tag k="natural" v="water" />
		<tag k="ssr:stedsnr" v="224787" />
	</node>
	<node lat="62.439355558050956" lon="11.530858329595608" id="-49261">
		<tag k="name" v="Mikkelodden" />
		<tag k="name:no" v="Mikkelodden" />
		<tag k="natural" v="cape" />
		<tag k="ssr:stedsnr" v="224790" />
	</node>
	<node lat="62.46901666481876" lon="11.539277771390086" id="-49262">
		<tag k="name" v="Svahyllbekken" />
		<tag k="name:no" v="Svahyllbekken" />
		<tag k="ssr:stedsnr" v="224800" />
		<tag k="waterway" v="stream" />
	</node>
	<node lat="62.47321944377591" lon="11.477936119403486" id="-49265">
		<tag k="name" v="Petter Olsa-tjønna" />
		<tag k="name:no" v="Petter Olsa-tjønna" />
		<tag k="natural" v="water" />
		<tag k="ssr:stedsnr" v="224807" />
	</node>
	<node lat="62.53392777817957" lon="11.463119447138304" id="-49272">
		<tag k="name" v="Gjeddholet" />
		<tag k="name:no" v="Gjeddholet" />
		<tag k="place" v="locality" />
		<tag k="ssr:stedsnr" v="225503" />
	</node>
	<node lat="62.47822778236001" lon="11.633863884397035" id="-49273">
		<tag k="name" v="Storstenodden" />
		<tag k="name:no" v="Storstenodden" />
		<tag k="natural" v="cape" />
		<tag k="ssr:stedsnr" v="225582" />
	</node>
	<node lat="62.597786109425584" lon="11.706291672824618" id="-49282">
		<tag k="name" v="Harbekken" />
		<tag k="name:no" v="Harbekken" />
		<tag k="ssr:stedsnr" v="225622" />
		<tag k="waterway" v="stream" />
	</node>
	<node lat="62.51265555865782" lon="11.539775003080782" id="-49288">
		<tag k="name" v="Håa" />
		<tag k="name:no" v="Håa" />
		<tag k="natural" v="water" />
		<tag k="ssr:stedsnr" v="225841" />
		<tag k="water" v="lake" />
	</node>
	<node lat="62.68062777498807" lon="11.522444436358084" id="-49291">
		<tag k="name" v="Sakrisodden" />
		<tag k="name:no" v="Sakrisodden" />
		<tag k="natural" v="cape" />
		<tag k="ssr:stedsnr" v="225942" />
	</node>
	<node lat="62.51449999612372" lon="11.83040278293085" id="-49296">
		<tag k="name" v="Storskogtjønna" />
		<tag k="name:no" v="Storskogtjønna" />
		<tag k="natural" v="water" />
		<tag k="ssr:stedsnr" v="254229" />
	</node>
	<node lat="62.436936111569295" lon="11.603749990351908" id="-49302">
		<tag k="name" v="Harbekken" />
		<tag k="name:no" v="Harbekken" />
		<tag k="ssr:stedsnr" v="254374" />
		<tag k="waterway" v="stream" />
	</node>
	<node lat="62.71929999581946" lon="12.037841671128438" id="-49303">
		<tag k="name" v="Hyllingstjønna" />
		<tag k="name:no" v="Hyllingstjønna" />
		<tag k="natural" v="water" />
		<tag k="ssr:stedsnr" v="254505" />
	</node>
	<node lat="62.47625833434041" lon="11.888350007747173" id="-49304">
		<tag k="name" v="Skaftholmen" />
		<tag k="name:no" v="Skaftholmen" />
		<tag k="place" v="islet" />
		<tag k="ssr:stedsnr" v="254523" />
	</node>
	<node lat="62.74019722269088" lon="11.884516666937973" id="-49305">
		<tag k="name" v="Rien" />
		<tag k="name:no" v="Rien" />
		<tag k="natural" v="water" />
		<tag k="ssr:stedsnr" v="254469" />
		<tag k="water" v="lake" />
	</node>
	<node lat="62.63259999982143" lon="12.00648333723541" id="-49306">
		<tag k="name" v="Beverbekken" />
		<tag k="name:no" v="Beverbekken" />
		<tag k="ssr:stedsnr" v="254605" />
		<tag k="waterway" v="stream" />
	</node>
	<node lat="62.62450832890322" lon="11.738675001175329" id="-49307">
		<tag k="name" v="Vakkerstenodden" />
		<tag k="name:no" v="Vakkerstenodden" />
		<tag k="natural" v="cape" />
		<tag k="ssr:stedsnr" v="254608" />
	</node>
	<node lat="62.637415318806056" lon="11.857285426850492" id="-49308">
		<tag k="name" v="Skallhaugtjønnan" />
		<tag k="name:no" v="Skallhaugtjønnan" />
		<tag k="natural" v="water" />
		<tag k="ssr:stedsnr" v="254619" />
	</node>
	<node lat="62.69009166640587" lon="11.955269441208074" id="-49310">
		<tag k="name" v="Tritjønnbekken" />
		<tag k="name:no" v="Tritjønnbekken" />
		<tag k="ssr:stedsnr" v="254687" />
		<tag k="waterway" v="stream" />
	</node>
	<node lat="62.64626944018973" lon="11.810194435049409" id="-49311">
		<tag k="fixme" v="multiple name tags, choose one and add the other to alt_name" />
		<tag k="name" v="Sjøvolltjønna;Stortjønna" />
		<tag k="name:no" v="Sjøvolltjønna;Stortjønna" />
		<tag k="natural" v="water" />
		<tag k="ssr:stedsnr" v="254703" />
	</node>
	<node lat="62.66180277998075" lon="11.977430556678803" id="-49312">
		<tag k="name" v="Dagvolsjøen" />
		<tag k="name:no" v="Dagvolsjøen" />
		<tag k="natural" v="water" />
		<tag k="ssr:stedsnr" v="254710" />
		<tag k="water" v="lake" />
	</node>
	<node lat="62.7051555562124" lon="11.425791665443082" id="-49317">
		<tag k="name" v="Bukstjønna" />
		<tag k="name:no" v="Bukstjønna" />
		<tag k="natural" v="water" />
		<tag k="ssr:stedsnr" v="254923" />
	</node>
	<node lat="62.70579722306155" lon="11.36268333656874" id="-49318">
		<tag k="name" v="Hartjønna" />
		<tag k="name:no" v="Hartjønna" />
		<tag k="natural" v="water" />
		<tag k="ssr:stedsnr" v="254934" />
	</node>
	<node lat="62.60034999892521" lon="11.331599995054962" id="-49325">
		<tag k="name" v="Tarvaldsodden" />
		<tag k="name:no" v="Tarvaldsodden" />
		<tag k="natural" v="cape" />
		<tag k="ssr:stedsnr" v="263799" />
	</node>
	<node lat="62.764519440119834" lon="11.95766389555636" id="-49329">
		<tag k="name" v="Inner Svartbekktj" />
		<tag k="name:no" v="Inner Svartbekktj" />
		<tag k="natural" v="water" />
		<tag k="ssr:stedsnr" v="281204" />
	</node>
	<node lat="62.573277779149535" lon="11.19786110238572" id="-49340">
		<tag k="name" v="Langvikodden" />
		<tag k="name:no" v="Langvikodden" />
		<tag k="natural" v="cape" />
		<tag k="ssr:stedsnr" v="285276" />
	</node>
	<node lat="62.505688892117135" lon="11.899905560265225" id="-49345">
		<tag k="name" v="Ljøsnåneset" />
		<tag k="name:no" v="Ljøsnåneset" />
		<tag k="natural" v="cape" />
		<tag k="ssr:stedsnr" v="285408" />
	</node>
	<node lat="62.58031388910213" lon="11.795900004274694" id="-49354">
		<tag k="name" v="Storvikodden" />
		<tag k="name:no" v="Storvikodden" />
		<tag k="natural" v="cape" />
		<tag k="ssr:stedsnr" v="285376" />
	</node>
	<node lat="62.609038890226124" lon="11.33511111353326" id="-49356">
		<tag k="name" v="Kvernbekken" />
		<tag k="name:no" v="Kvernbekken" />
		<tag k="ssr:stedsnr" v="285380" />
		<tag k="waterway" v="stream" />
	</node>
	<node lat="62.44652222611474" lon="11.915147222909175" id="-49358">
		<tag k="name" v="Røstbekken" />
		<tag k="name:no" v="Røstbekken" />
		<tag k="ssr:stedsnr" v="285389" />
		<tag k="waterway" v="stream" />
	</node>
	<node lat="62.44716388490806" lon="11.91033055285225" id="-49359">
		<tag k="name" v="Stensundet" />
		<tag k="name:no" v="Stensundet" />
		<tag k="natural" v="strait" />
		<tag k="ssr:stedsnr" v="285391" />
	</node>
	<node lat="62.43743333539896" lon="11.838875000936575" id="-49361">
		<tag k="name" v="Kattloken" />
		<tag k="name:no" v="Kattloken" />
		<tag k="natural" v="water" />
		<tag k="ssr:stedsnr" v="285395" />
	</node>
	<node lat="62.60201389322582" lon="11.2855305487774" id="-49363">
		<tag k="name" v="Storflobekken" />
		<tag k="name:no" v="Storflobekken" />
		<tag k="ssr:stedsnr" v="285399" />
		<tag k="waterway" v="stream" />
	</node>
	<node lat="62.40292499637547" lon="11.933083333800672" id="-49366">
		<tag k="name" v="Revsundet" />
		<tag k="name:no" v="Revsundet" />
		<tag k="natural" v="strait" />
		<tag k="ssr:stedsnr" v="285509" />
	</node>
	<node lat="62.4169634620343" lon="11.916602334939233" id="-49367">
		<tag k="name" v="Øvre Lerviktjønna" />
		<tag k="name:no" v="Øvre Lerviktjønna" />
		<tag k="natural" v="water" />
		<tag k="ssr:stedsnr" v="285511" />
	</node>
	<node lat="62.58949722280989" lon="11.637333340636376" id="-49375">
		<tag k="name" v="Frostbekken" />
		<tag k="name:no" v="Frostbekken" />
		<tag k="ssr:stedsnr" v="285607" />
		<tag k="waterway" v="stream" />
	</node>
	<node lat="62.63614722603968" lon="11.625066663393804" id="-49380">
		<tag k="name" v="Svarterdalsbekken" />
		<tag k="name:no" v="Svarterdalsbekken" />
		<tag k="ssr:stedsnr" v="285629" />
		<tag k="waterway" v="stream" />
	</node>
	<node lat="62.641908336486196" lon="11.686697213166422" id="-49383">
		<tag k="name" v="Holmen" />
		<tag k="name:no" v="Holmen" />
		<tag k="place" v="islet" />
		<tag k="ssr:stedsnr" v="285723" />
	</node>
	<node lat="62.460347221781355" lon="11.473813891594668" id="-49385">
		<tag k="name" v="Markkåsholbekken" />
		<tag k="name:no" v="Markkåsholbekken" />
		<tag k="ssr:stedsnr" v="285783" />
		<tag k="waterway" v="stream" />
	</node>
	<node lat="62.60317500301886" lon="11.547424991389335" id="-49387">
		<tag k="name" v="Djupsjøhåa" />
		<tag k="name:no" v="Djupsjøhåa" />
		<tag k="natural" v="water" />
		<tag k="ssr:stedsnr" v="285913" />
		<tag k="water" v="lake" />
	</node>
	<node lat="62.583130552181885" lon="11.472458327119181" id="-49391">
		<tag k="name" v="Stikkillvika" />
		<tag k="name:no" v="Stikkillvika" />
		<tag k="natural" v="bay" />
		<tag k="ssr:stedsnr" v="285890" />
	</node>
	<node lat="62.816049998208776" lon="11.8411027777201" id="-49399">
		<tag k="name" v="Vassbekktjønnan" />
		<tag k="name:no" v="Vassbekktjønnan" />
		<tag k="natural" v="water" />
		<tag k="ssr:stedsnr" v="286578" />
	</node>
	<node lat="62.77598333414668" lon="11.83239444484128" id="-49408">
		<tag k="name" v="Korsen" />
		<tag k="name:no" v="Korsen" />
		<tag k="natural" v="bay" />
		<tag k="ssr:stedsnr" v="286813" />
	</node>
	<node lat="62.70768610747586" lon="11.802922228083537" id="-49417">
		<tag k="name" v="Rålaubekken" />
		<tag k="name:no" v="Rålaubekken" />
		<tag k="ssr:stedsnr" v="286787" />
		<tag k="waterway" v="stream" />
	</node>
	<node lat="62.7714583372846" lon="11.820005553285123" id="-49420">
		<tag k="name" v="Kojebekken" />
		<tag k="name:no" v="Kojebekken" />
		<tag k="ssr:stedsnr" v="286801" />
		<tag k="waterway" v="stream" />
	</node>
	<node lat="62.53457777845511" lon="11.340688898422336" id="-49431">
		<tag k="name" v="Neder Langhaugbekken" />
		<tag k="name:no" v="Neder Langhaugbekken" />
		<tag k="ssr:stedsnr" v="463450" />
		<tag k="waterway" v="stream" />
	</node>
	<node lat="62.67067222405699" lon="11.691186117102102" id="-49433">
		<tag k="name" v="Kvernbekkvika" />
		<tag k="name:no" v="Kvernbekkvika" />
		<tag k="natural" v="bay" />
		<tag k="ssr:stedsnr" v="463725" />
	</node>
	<node lat="62.44008312828554" lon="11.916031247850324" id="-49438">
		<tag k="name" v="Litllangtjønna" />
		<tag k="name:no" v="Litllangtjønna" />
		<tag k="natural" v="water" />
		<tag k="ssr:stedsnr" v="314554" />
	</node>
	<node lat="62.436849998003005" lon="11.785161118550628" id="-49439">
		<tag k="name" v="Sellesdalstjønnan" />
		<tag k="name:no" v="Sellesdalstjønnan" />
		<tag k="natural" v="water" />
		<tag k="ssr:stedsnr" v="314557" />
	</node>
	<node lat="62.709691670152175" lon="11.976875005457922" id="-49440">
		<tag k="name" v="Djupbekken" />
		<tag k="name:no" v="Djupbekken" />
		<tag k="ssr:stedsnr" v="314563" />
		<tag k="waterway" v="stream" />
	</node>
	<node lat="62.71382500031425" lon="11.95136110403454" id="-49441">
		<tag k="name" v="Hyllingen" />
		<tag k="name:no" v="Hyllingen" />
		<tag k="natural" v="water" />
		<tag k="ssr:stedsnr" v="314564" />
		<tag k="water" v="lake" />
	</node>
	<node lat="62.715505556274756" lon="11.894394447278087" id="-49442">
		<tag k="name" v="Rihåen" />
		<tag k="name:no" v="Rihåen" />
		<tag k="natural" v="water" />
		<tag k="ssr:stedsnr" v="314567" />
		<tag k="water" v="lake" />
	</node>
	<node lat="62.6422916671886" lon="11.444200007439202" id="-49448">
		<tag k="name" v="Maglibekken" />
		<tag k="name:no" v="Maglibekken" />
		<tag k="ssr:stedsnr" v="467056" />
		<tag k="waterway" v="stream" />
	</node>
	<node lat="62.589166663246125" lon="11.646800005869123" id="-49451">
		<tag k="name" v="Åbekken" />
		<tag k="name:no" v="Åbekken" />
		<tag k="ssr:stedsnr" v="467217" />
		<tag k="waterway" v="stream" />
	</node>
	<node lat="62.68550833413739" lon="11.869333342088607" id="-49457">
		<tag k="name" v="Starloken" />
		<tag k="name:no" v="Starloken" />
		<tag k="natural" v="water" />
		<tag k="ssr:stedsnr" v="315709" />
	</node>
	<node lat="62.68961666855935" lon="11.916513898569544" id="-49458">
		<tag k="name" v="Hyddfossen" />
		<tag k="name:no" v="Hyddfossen" />
		<tag k="natural" v="waterfall" />
		<tag k="ssr:stedsnr" v="315713" />
	</node>
	<node lat="62.646719443692604" lon="11.74993889328904" id="-49460">
		<tag k="name" v="Flotjønna" />
		<tag k="name:no" v="Flotjønna" />
		<tag k="natural" v="water" />
		<tag k="ssr:stedsnr" v="315723" />
	</node>
	<node lat="62.452561113813374" lon="11.558647231492843" id="-49464">
		<tag k="name" v="Odden" />
		<tag k="name:no" v="Odden" />
		<tag k="natural" v="cape" />
		<tag k="ssr:stedsnr" v="467241" />
	</node>
	<node lat="62.63053610901471" lon="11.917325003849532" id="-49465">
		<tag k="alt_name:no" v="Kvisla" />
		<tag k="name" v="Kvitla" />
		<tag k="name:no" v="Kvitla" />
		<tag k="ssr:stedsnr" v="315622" />
		<tag k="waterway" v="stream" />
	</node>
	<node lat="62.64479444152625" lon="12.071241667237773" id="-49466">
		<tag k="name" v="Volltjønna" />
		<tag k="name:no" v="Volltjønna" />
		<tag k="natural" v="water" />
		<tag k="ssr:stedsnr" v="315631" />
	</node>
	<node lat="62.633774997659465" lon="11.804408327371398" id="-49467">
		<tag k="name" v="Litlbekken" />
		<tag k="name:no" v="Litlbekken" />
		<tag k="ssr:stedsnr" v="315632" />
		<tag k="waterway" v="stream" />
	</node>
	<node lat="62.644053489372475" lon="12.052044641080096" id="-49468">
		<tag k="name" v="Storvolltjønna" />
		<tag k="name:no" v="Storvolltjønna" />
		<tag k="natural" v="water" />
		<tag k="ssr:stedsnr" v="315636" />
	</node>
	<node lat="62.60004444343425" lon="11.820150008263115" id="-49470">
		<tag k="name" v="Båtstadvika" />
		<tag k="name:no" v="Båtstadvika" />
		<tag k="natural" v="bay" />
		<tag k="ssr:stedsnr" v="315665" />
	</node>
	<node lat="62.61437777879932" lon="11.769255547227543" id="-49473">
		<tag k="name" v="Lokan" />
		<tag k="name:no" v="Lokan" />
		<tag k="natural" v="water" />
		<tag k="ssr:stedsnr" v="467300" />
	</node>
	<node lat="62.71983055688174" lon="11.594011110613101" id="-49478">
		<tag k="name" v="Gjeltsjøen" />
		<tag k="name:no" v="Gjeltsjøen" />
		<tag k="natural" v="water" />
		<tag k="ssr:stedsnr" v="315800" />
		<tag k="water" v="lake" />
	</node>
	<node lat="62.491127777234" lon="11.84154166055588" id="-49488">
		<tag k="name" v="Røstbekken" />
		<tag k="name:no" v="Røstbekken" />
		<tag k="ssr:stedsnr" v="467428" />
		<tag k="waterway" v="stream" />
	</node>
	<node lat="62.61957499675499" lon="11.266966658185531" id="-49490">
		<tag k="name" v="Jonasøya" />
		<tag k="name:no" v="Jonasøya" />
		<tag k="natural" v="cape" />
		<tag k="ssr:stedsnr" v="467433" />
	</node>
	<node lat="62.64748610955585" lon="11.812019453429349" id="-49496">
		<tag k="name" v="Langmyrodden" />
		<tag k="name:no" v="Langmyrodden" />
		<tag k="natural" v="cape" />
		<tag k="ssr:stedsnr" v="467471" />
	</node>
	<node lat="62.719436106908724" lon="11.341269438814475" id="-49501">
		<tag k="name" v="Ruglsjøen" />
		<tag k="name:no" v="Ruglsjøen" />
		<tag k="natural" v="water" />
		<tag k="ssr:stedsnr" v="467484" />
		<tag k="water" v="lake" />
	</node>
	<node lat="62.49637777608538" lon="11.613580562860847" id="-49502">
		<tag k="name" v="Merkesbekken" />
		<tag k="name:no" v="Merkesbekken" />
		<tag k="ssr:stedsnr" v="467534" />
		<tag k="waterway" v="stream" />
	</node>
	<node lat="62.4900499992311" lon="11.617852771749499" id="-49503">
		<tag k="name" v="Kåstjønna" />
		<tag k="name:no" v="Kåstjønna" />
		<tag k="natural" v="water" />
		<tag k="ssr:stedsnr" v="467543" />
	</node>
	<node lat="62.73894166870105" lon="11.837927779586916" id="-49505">
		<tag k="name" v="Litltjønna" />
		<tag k="name:no" v="Litltjønna" />
		<tag k="natural" v="water" />
		<tag k="ssr:stedsnr" v="467557" />
	</node>
	<node lat="62.775466669196895" lon="11.858622229013594" id="-49511">
		<tag k="name" v="Skjettholet" />
		<tag k="name:no" v="Skjettholet" />
		<tag k="natural" v="water" />
		<tag k="ssr:stedsnr" v="467592" />
		<tag k="water" v="lake" />
	</node>
	<node lat="62.46600833151631" lon="11.515936110730278" id="-49521">
		<tag k="name" v="Fjerdingsbekken" />
		<tag k="name:no" v="Fjerdingsbekken" />
		<tag k="ssr:stedsnr" v="467796" />
		<tag k="waterway" v="stream" />
	</node>
	<node lat="62.51033055704062" lon="11.559666664687748" id="-49522">
		<tag k="name" v="Tjønna" />
		<tag k="name:no" v="Tjønna" />
		<tag k="natural" v="water" />
		<tag k="ssr:stedsnr" v="467871" />
	</node>
	<node lat="62.57535833231596" lon="11.581902771174454" id="-49524">
		<tag k="name" v="Sjøendbekken" />
		<tag k="name:no" v="Sjøendbekken" />
		<tag k="ssr:stedsnr" v="467832" />
		<tag k="waterway" v="stream" />
	</node>
	<node lat="62.64350278157651" lon="11.591130555200502" id="-49528">
		<tag k="name" v="Kalvloken" />
		<tag k="name:no" v="Kalvloken" />
		<tag k="natural" v="water" />
		<tag k="ssr:stedsnr" v="467898" />
	</node>
	<node lat="62.59405555918355" lon="11.528036105876177" id="-49530">
		<tag k="name" v="Måssåholmen" />
		<tag k="name:no" v="Måssåholmen" />
		<tag k="place" v="islet" />
		<tag k="ssr:stedsnr" v="467929" />
	</node>
	<node lat="62.65809166554439" lon="11.52179721332894" id="-49532">
		<tag k="name" v="Hallvardåtbekken" />
		<tag k="name:no" v="Hallvardåtbekken" />
		<tag k="ssr:stedsnr" v="467937" />
		<tag k="waterway" v="stream" />
	</node>
	<node lat="62.67744166634245" lon="11.477091659317141" id="-49535">
		<tag k="name" v="Langodden" />
		<tag k="name:no" v="Langodden" />
		<tag k="natural" v="cape" />
		<tag k="ssr:stedsnr" v="467951" />
	</node>
	<node lat="62.675402779840525" lon="11.72282777467274" id="-49537">
		<tag k="name" v="Snauodden" />
		<tag k="name:no" v="Snauodden" />
		<tag k="natural" v="cape" />
		<tag k="ssr:stedsnr" v="468683" />
	</node>
	<node lat="62.70840555333849" lon="11.786144451321713" id="-49541">
		<tag k="name" v="Langtjønnbekken" />
		<tag k="name:no" v="Langtjønnbekken" />
		<tag k="ssr:stedsnr" v="468729" />
		<tag k="waterway" v="stream" />
	</node>
	<node lat="62.504952774062566" lon="11.651399991521078" id="-49550">
		<tag k="name" v="Dalsholet" />
		<tag k="name:no" v="Dalsholet" />
		<tag k="ssr:stedsnr" v="323802" />
		<tag k="waterway" v="stream" />
	</node>
	<node lat="62.549874998690186" lon="11.317961107035309" id="-49551">
		<tag k="name" v="Stiftslinjebekken" />
		<tag k="name:no" v="Stiftslinjebekken" />
		<tag k="ssr:stedsnr" v="323814" />
		<tag k="waterway" v="stream" />
	</node>
	<node lat="62.68844166532894" lon="11.870394449186332" id="-49554">
		<tag k="name" v="Storhåen" />
		<tag k="name:no" v="Storhåen" />
		<tag k="natural" v="water" />
		<tag k="ssr:stedsnr" v="468852" />
		<tag k="water" v="lake" />
	</node>
	<node lat="62.6492805539788" lon="11.557316673359514" id="-49558">
		<tag k="name" v="Valsettjønna" />
		<tag k="name:no" v="Valsettjønna" />
		<tag k="natural" v="water" />
		<tag k="ssr:stedsnr" v="324839" />
	</node>
	<node lat="62.49983888713619" lon="11.957872231618412" id="-49561">
		<tag k="name" v="Måssåtjønna" />
		<tag k="name:no" v="Måssåtjønna" />
		<tag k="natural" v="water" />
		<tag k="ssr:stedsnr" v="341209" />
	</node>
	<node lat="62.75755833606086" lon="11.937894434965619" id="-49569">
		<tag k="name" v="Svartbekken" />
		<tag k="name:no" v="Svartbekken" />
		<tag k="ssr:stedsnr" v="345010" />
		<tag k="waterway" v="stream" />
	</node>
	<node lat="62.75129166511237" lon="11.913152774558588" id="-49570">
		<tag k="name" v="Rien" />
		<tag k="name:no" v="Rien" />
		<tag k="natural" v="water" />
		<tag k="ssr:stedsnr" v="345023" />
		<tag k="water" v="lake" />
	</node>
	<node lat="62.689438887871916" lon="11.388327777645179" id="-49578">
		<tag k="name" v="Gorloken" />
		<tag k="name:no" v="Gorloken" />
		<tag k="natural" v="water" />
		<tag k="ssr:stedsnr" v="345179" />
	</node>
	<node lat="62.67668610800527" lon="11.664658326665714" id="-49579">
		<tag k="name" v="Ryggvika" />
		<tag k="name:no" v="Ryggvika" />
		<tag k="natural" v="bay" />
		<tag k="ssr:stedsnr" v="345306" />
	</node>
	<node lat="62.57720833631931" lon="11.646077779638224" id="-49583">
		<tag k="name" v="Hesjestøvika" />
		<tag k="name:no" v="Hesjestøvika" />
		<tag k="natural" v="bay" />
		<tag k="ssr:stedsnr" v="345606" />
	</node>
	<node lat="62.68666666531865" lon="11.610594435141088" id="-49584">
		<tag k="name" v="Sjølaubekken" />
		<tag k="name:no" v="Sjølaubekken" />
		<tag k="ssr:stedsnr" v="345672" />
		<tag k="waterway" v="stream" />
	</node>
	<node lat="62.55038610844809" lon="11.495794441286185" id="-49585">
		<tag k="name" v="Litlskåkåstjønna" />
		<tag k="name:no" v="Litlskåkåstjønna" />
		<tag k="natural" v="water" />
		<tag k="ssr:stedsnr" v="345812" />
	</node>
	<node lat="62.47321666387573" lon="11.48518610989307" id="-49586">
		<tag k="name" v="Storrøtjønna" />
		<tag k="name:no" v="Storrøtjønna" />
		<tag k="natural" v="water" />
		<tag k="ssr:stedsnr" v="345768" />
	</node>
	<node lat="62.68240278126229" lon="11.535474991520454" id="-49588">
		<tag k="name" v="Ysterodden" />
		<tag k="name:no" v="Ysterodden" />
		<tag k="natural" v="cape" />
		<tag k="ssr:stedsnr" v="345959" />
	</node>
	<node lat="62.46016111491248" lon="11.904469443367" id="-49597">
		<tag k="name" v="Håmmårsundet" />
		<tag k="name:no" v="Håmmårsundet" />
		<tag k="natural" v="strait" />
		<tag k="ssr:stedsnr" v="346423" />
	</node>
	<node lat="62.783047220753396" lon="11.857816661164176" id="-49601">
		<tag k="name" v="Stor-håen" />
		<tag k="name:no" v="Stor-håen" />
		<tag k="natural" v="water" />
		<tag k="ssr:stedsnr" v="346605" />
		<tag k="water" v="lake" />
	</node>
	<node lat="62.64487221854543" lon="11.647774994328879" id="-49605">
		<tag k="name" v="Lokan" />
		<tag k="name:no" v="Lokan" />
		<tag k="natural" v="water" />
		<tag k="ssr:stedsnr" v="346671" />
	</node>
	<node lat="62.61563889114554" lon="11.67596943982645" id="-49610">
		<tag k="name" v="Øvre Aresttjønna" />
		<tag k="name:no" v="Øvre Aresttjønna" />
		<tag k="natural" v="water" />
		<tag k="ssr:stedsnr" v="346712" />
	</node>
	<node lat="62.778072224811474" lon="11.83919166835921" id="-49615">
		<tag k="name" v="Anders - Andreasodden" />
		<tag k="name:no" v="Anders - Andreasodden" />
		<tag k="natural" v="cape" />
		<tag k="ssr:stedsnr" v="347813" />
	</node>
	<node lat="62.65720277999333" lon="11.17672222121532" id="-49621">
		<tag k="name" v="Tverrøtjønna" />
		<tag k="name:no" v="Tverrøtjønna" />
		<tag k="natural" v="water" />
		<tag k="ssr:stedsnr" v="375185" />
	</node>
	<node lat="62.42643055607354" lon="11.823586105142612" id="-49626">
		<tag k="name" v="Nedre Olbekktjønna" />
		<tag k="name:no" v="Nedre Olbekktjønna" />
		<tag k="natural" v="water" />
		<tag k="ssr:stedsnr" v="375487" />
	</node>
	<node lat="62.70185000099736" lon="11.969236117855324" id="-49627">
		<tag k="name" v="Grøndalsbekken" />
		<tag k="name:no" v="Grøndalsbekken" />
		<tag k="ssr:stedsnr" v="375501" />
		<tag k="waterway" v="stream" />
	</node>
	<node lat="62.627249995715225" lon="11.813936117191806" id="-49628">
		<tag k="name" v="Hagavika" />
		<tag k="name:no" v="Hagavika" />
		<tag k="natural" v="bay" />
		<tag k="ssr:stedsnr" v="375602" />
	</node>
	<node lat="62.407430555114814" lon="11.719475006355689" id="-49634">
		<tag k="name" v="Sleppfisktjønna" />
		<tag k="name:no" v="Sleppfisktjønna" />
		<tag k="natural" v="water" />
		<tag k="ssr:stedsnr" v="375705" />
	</node>
	<node lat="62.41380000228317" lon="11.740525003344597" id="-49635">
		<tag k="name" v="Rundtjønna" />
		<tag k="name:no" v="Rundtjønna" />
		<tag k="natural" v="water" />
		<tag k="ssr:stedsnr" v="375706" />
	</node>
	<node lat="62.65480555425289" lon="11.947241661012768" id="-49636">
		<tag k="name" v="Flatvolltjønna" />
		<tag k="name:no" v="Flatvolltjønna" />
		<tag k="natural" v="water" />
		<tag k="ssr:stedsnr" v="375709" />
	</node>
	<node lat="62.6849500032325" lon="12.033300005551732" id="-49639">
		<tag k="name" v="Gruvsjølangtjønna" />
		<tag k="name:no" v="Gruvsjølangtjønna" />
		<tag k="natural" v="water" />
		<tag k="ssr:stedsnr" v="375679" />
	</node>
	<node lat="62.69585277576784" lon="11.762013892728987" id="-49640">
		<tag k="name" v="Haugatjønna" />
		<tag k="name:no" v="Haugatjønna" />
		<tag k="natural" v="water" />
		<tag k="ssr:stedsnr" v="375685" />
	</node>
	<node lat="62.68033333398558" lon="11.505063884185166" id="-49646">
		<tag k="name" v="Furuholmen" />
		<tag k="name:no" v="Furuholmen" />
		<tag k="place" v="islet" />
		<tag k="ssr:stedsnr" v="375985" />
	</node>
	<node lat="62.49363055127569" lon="11.810113886180122" id="-49647">
		<tag k="name" v="Fjelltjønnbekken" />
		<tag k="name:no" v="Fjelltjønnbekken" />
		<tag k="ssr:stedsnr" v="376536" />
		<tag k="waterway" v="stream" />
	</node>
	<node lat="62.6603194464031" lon="11.526694453324597" id="-49650">
		<tag k="name" v="Vikabekken" />
		<tag k="name:no" v="Vikabekken" />
		<tag k="ssr:stedsnr" v="384801" />
		<tag k="waterway" v="stream" />
	</node>
	<node lat="62.63345833613048" lon="11.382997227097556" id="-49655">
		<tag k="name" v="Hjulmakerholmen" />
		<tag k="name:no" v="Hjulmakerholmen" />
		<tag k="place" v="islet" />
		<tag k="ssr:stedsnr" v="402083" />
	</node>
	<node lat="62.64251666358458" lon="11.384077768218612" id="-49656">
		<tag k="name" v="Holtåsbekken" />
		<tag k="name:no" v="Holtåsbekken" />
		<tag k="ssr:stedsnr" v="402088" />
		<tag k="waterway" v="stream" />
	</node>
	<node lat="62.540533337012626" lon="11.363197216749805" id="-49664">
		<tag k="name" v="Storflobekken" />
		<tag k="name:no" v="Storflobekken" />
		<tag k="ssr:stedsnr" v="406044" />
		<tag k="waterway" v="stream" />
	</node>
	<node lat="62.45003333141356" lon="11.584730554973067" id="-49669">
		<tag k="name" v="Stortjønna" />
		<tag k="name:no" v="Stortjønna" />
		<tag k="natural" v="water" />
		<tag k="ssr:stedsnr" v="406253" />
	</node>
	<node lat="62.62439166221251" lon="11.76335278454419" id="-49677">
		<tag k="name" v="Smiodden" />
		<tag k="name:no" v="Smiodden" />
		<tag k="natural" v="cape" />
		<tag k="ssr:stedsnr" v="406318" />
	</node>
	<node lat="62.60205833689474" lon="11.716500009071924" id="-49680">
		<tag k="name" v="Djupodden" />
		<tag k="name:no" v="Djupodden" />
		<tag k="natural" v="cape" />
		<tag k="ssr:stedsnr" v="406292" />
	</node>
	<node lat="62.46641666360564" lon="11.555547225591143" id="-49693">
		<tag k="name" v="Lomloken" />
		<tag k="name:no" v="Lomloken" />
		<tag k="natural" v="water" />
		<tag k="ssr:stedsnr" v="406810" />
	</node>
	<node lat="62.60560000364869" lon="11.23541666612349" id="-49699">
		<tag k="name" v="Storholet" />
		<tag k="name:no" v="Storholet" />
		<tag k="place" v="locality" />
		<tag k="ssr:stedsnr" v="407406" />
	</node>
	<node lat="62.60313888826554" lon="11.336449994250342" id="-49702">
		<tag k="name" v="Kalvhagaloken" />
		<tag k="name:no" v="Kalvhagaloken" />
		<tag k="natural" v="water" />
		<tag k="ssr:stedsnr" v="407412" />
	</node>
	<node lat="62.53639722368222" lon="11.29048612016375" id="-49705">
		<tag k="name" v="Øyodden" />
		<tag k="name:no" v="Øyodden" />
		<tag k="natural" v="cape" />
		<tag k="ssr:stedsnr" v="407342" />
	</node>
	<node lat="62.48942778014157" lon="11.623788897092197" id="-49718">
		<tag k="name" v="Litlkloppbekken" />
		<tag k="name:no" v="Litlkloppbekken" />
		<tag k="ssr:stedsnr" v="407585" />
		<tag k="waterway" v="stream" />
	</node>
	<node lat="62.58035277957724" lon="11.737841670719263" id="-49732">
		<tag k="name" v="Klettjønnan" />
		<tag k="name:no" v="Klettjønnan" />
		<tag k="natural" v="water" />
		<tag k="ssr:stedsnr" v="436269" />
	</node>
	<node lat="62.443605558682776" lon="11.566566666016774" id="-49733">
		<tag k="name" v="Lomloken" />
		<tag k="name:no" v="Lomloken" />
		<tag k="natural" v="water" />
		<tag k="ssr:stedsnr" v="436375" />
	</node>
	<node lat="62.615686107821276" lon="11.735536105843327" id="-49737">
		<tag k="name" v="Stenvollbekken" />
		<tag k="name:no" v="Stenvollbekken" />
		<tag k="ssr:stedsnr" v="436602" />
		<tag k="waterway" v="stream" />
	</node>
	<node lat="62.63676944070951" lon="11.89508056084326" id="-49738">
		<tag k="name" v="Ryfossen" />
		<tag k="name:no" v="Ryfossen" />
		<tag k="natural" v="waterfall" />
		<tag k="ssr:stedsnr" v="436611" />
	</node>
	<node lat="62.6970944455757" lon="11.7949777757032" id="-49740">
		<tag k="name" v="Mortenstjønna" />
		<tag k="name:no" v="Mortenstjønna" />
		<tag k="natural" v="water" />
		<tag k="ssr:stedsnr" v="436704" />
	</node>
	<node lat="62.697802775107945" lon="11.991044441222348" id="-49741">
		<tag k="name" v="Langtjønna" />
		<tag k="name:no" v="Langtjønna" />
		<tag k="natural" v="water" />
		<tag k="ssr:stedsnr" v="436711" />
	</node>
	<node lat="62.76671666933203" lon="11.768016662986149" id="-49750">
		<tag k="name" v="Storbekktjønnan" />
		<tag k="name:no" v="Storbekktjønnan" />
		<tag k="natural" v="water" />
		<tag k="ssr:stedsnr" v="437818" />
	</node>
	<node lat="62.77075000402373" lon="11.946175009202623" id="-49751">
		<tag k="name" v="Knuvlloken" />
		<tag k="name:no" v="Knuvlloken" />
		<tag k="natural" v="water" />
		<tag k="ssr:stedsnr" v="437819" />
	</node>
	<node lat="62.69168333406313" lon="11.311711106324614" id="-49755">
		<tag k="name" v="Orvsjøen" />
		<tag k="name:no" v="Orvsjøen" />
		<tag k="natural" v="water" />
		<tag k="ssr:stedsnr" v="437952" />
		<tag k="water" v="lake" />
	</node>
	<node lat="62.59220555510996" lon="11.546380564185847" id="-49757">
		<tag k="name" v="Djupsjøen" />
		<tag k="name:no" v="Djupsjøen" />
		<tag k="natural" v="water" />
		<tag k="ssr:stedsnr" v="437898" />
		<tag k="water" v="lake" />
	</node>
	<node lat="62.46265833755945" lon="11.540119442892394" id="-49759">
		<tag k="name" v="Kvernbekken" />
		<tag k="name:no" v="Kvernbekken" />
		<tag k="ssr:stedsnr" v="444536" />
		<tag k="waterway" v="stream" />
	</node>
	<node lat="62.78092678791189" lon="11.735964289160908" id="-49763">
		<tag k="name" v="Raarhkovejaevrie - Fjellsjøen" />
		<tag k="name:no" v="Fjellsjøen" />
		<tag k="name:sma" v="Raarhkovejaevrie" />
		<tag k="natural" v="water" />
		<tag k="ssr:stedsnr" v="445836" />
		<tag k="water" v="lake" />
	</node>
	<node lat="62.68728610986362" lon="11.386736116220774" id="-49775">
		<tag k="name" v="Bergbekken" />
		<tag k="name:no" v="Bergbekken" />
		<tag k="ssr:stedsnr" v="467174" />
		<tag k="waterway" v="stream" />
	</node>
	<node lat="62.58109167063914" lon="11.248594446387326" id="-49790">
		<tag k="name" v="Skitligdalsloken" />
		<tag k="name:no" v="Skitligdalsloken" />
		<tag k="natural" v="water" />
		<tag k="ssr:stedsnr" v="467370" />
	</node>
	<node lat="62.58981666926636" lon="11.217977778607876" id="-49791">
		<tag k="name" v="Lorthola" />
		<tag k="name:no" v="Lorthola" />
		<tag k="natural" v="water" />
		<tag k="ssr:stedsnr" v="467383" />
	</node>
	<node lat="62.60233611144169" lon="11.21954999769877" id="-49792">
		<tag k="name" v="Revsjøbekken" />
		<tag k="name:no" v="Revsjøbekken" />
		<tag k="ssr:stedsnr" v="467385" />
		<tag k="waterway" v="stream" />
	</node>
	<node lat="62.59906111251842" lon="11.696055556023127" id="-49801">
		<tag k="name" v="Kvernhusbekken" />
		<tag k="name:no" v="Kvernhusbekken" />
		<tag k="ssr:stedsnr" v="467608" />
		<tag k="waterway" v="stream" />
	</node>
	<node lat="62.68964444753765" lon="11.593519448031218" id="-49815">
		<tag k="name" v="Gjeltodden" />
		<tag k="name:no" v="Gjeltodden" />
		<tag k="natural" v="cape" />
		<tag k="ssr:stedsnr" v="467708" />
	</node>
	<node lat="62.483286112898355" lon="11.484880549745924" id="-49819">
		<tag k="name" v="Litlrøtjønna" />
		<tag k="name:no" v="Litlrøtjønna" />
		<tag k="natural" v="water" />
		<tag k="ssr:stedsnr" v="467767" />
	</node>
	<node lat="62.499466669580286" lon="11.505105547175374" id="-49820">
		<tag k="name" v="Måssåfjellbekken" />
		<tag k="name:no" v="Måssåfjellbekken" />
		<tag k="ssr:stedsnr" v="467770" />
		<tag k="waterway" v="stream" />
	</node>
	<node lat="62.724977779601396" lon="11.891327771674796" id="-49830">
		<tag k="name" v="Digerodden" />
		<tag k="name:no" v="Digerodden" />
		<tag k="natural" v="cape" />
		<tag k="ssr:stedsnr" v="468575" />
	</node>
	<node lat="62.81583611375842" lon="11.816813880733337" id="-49835">
		<tag k="name" v="Adamsfossen" />
		<tag k="name:no" v="Adamsfossen" />
		<tag k="natural" v="waterfall" />
		<tag k="ssr:stedsnr" v="468819" />
	</node>
	<node lat="62.70602777587332" lon="11.855991672503798" id="-49837">
		<tag k="name" v="Puttbekken" />
		<tag k="name:no" v="Puttbekken" />
		<tag k="ssr:stedsnr" v="468838" />
		<tag k="waterway" v="stream" />
	</node>
	<node lat="62.456180555396045" lon="11.982694440756521" id="-49838">
		<tag k="name" v="Svartviktjønnan" />
		<tag k="name:no" v="Svartviktjønnan" />
		<tag k="natural" v="water" />
		<tag k="ssr:stedsnr" v="679473" />
	</node>
	<node lat="62.49642777452939" lon="11.58798611031" id="-49849">
		<tag k="name" v="Rambergssjøen" />
		<tag k="name:no" v="Rambergssjøen" />
		<tag k="natural" v="water" />
		<tag k="ssr:stedsnr" v="679279" />
		<tag k="water" v="lake" />
	</node>
	<node lat="62.421627779376664" lon="11.71309167318188" id="-49851">
		<tag k="name" v="Finntomastjønna" />
		<tag k="name:no" v="Finntomastjønna" />
		<tag k="natural" v="water" />
		<tag k="ssr:stedsnr" v="679345" />
	</node>
	<node lat="62.387886113427705" lon="11.704213887657968" id="-49852">
		<tag k="name" v="Storfurutjønna" />
		<tag k="name:no" v="Storfurutjønna" />
		<tag k="natural" v="water" />
		<tag k="ssr:stedsnr" v="679384" />
	</node>
	<node lat="62.33267500183885" lon="12.072141664070053" id="-49853">
		<tag k="name" v="Nedre Roasten" />
		<tag k="natural" v="water" />
		<tag k="ssr:stedsnr" v="679533" />
		<tag k="water" v="lake" />
	</node>
	<node lat="62.39226110828056" lon="12.070194452901774" id="-49854">
		<tag k="name" v="Litlsvartsjøen" />
		<tag k="name:no" v="Litlsvartsjøen" />
		<tag k="natural" v="water" />
		<tag k="ssr:stedsnr" v="679551" />
	</node>
	<node lat="62.45071388883792" lon="11.828622219570697" id="-49855">
		<tag k="name" v="Grunntjønna" />
		<tag k="name:no" v="Grunntjønna" />
		<tag k="natural" v="water" />
		<tag k="ssr:stedsnr" v="679455" />
	</node>
	<node lat="62.461266663916874" lon="12.035041665217639" id="-49856">
		<tag k="name" v="Halvortjønna" />
		<tag k="name:no" v="Halvortjønna" />
		<tag k="natural" v="water" />
		<tag k="ssr:stedsnr" v="679464" />
	</node>
	<node lat="62.40593332873294" lon="11.802619453164658" id="-49857">
		<tag k="name" v="Bergtjønna" />
		<tag k="name:no" v="Bergtjønna" />
		<tag k="natural" v="water" />
		<tag k="ssr:stedsnr" v="679556" />
	</node>
	<node lat="62.61861388688954" lon="12.037638887444524" id="-49861">
		<tag k="name" v="Ruttjønnan" />
		<tag k="name:no" v="Ruttjønnan" />
		<tag k="natural" v="water" />
		<tag k="ssr:stedsnr" v="679655" />
	</node>
	<node lat="62.73931389005569" lon="11.30394999417793" id="-49862">
		<tag k="name" v="Stordalsbekken" />
		<tag k="name:no" v="Stordalsbekken" />
		<tag k="ssr:stedsnr" v="679748" />
		<tag k="waterway" v="stream" />
	</node>
	<node lat="62.72922777889863" lon="11.492216663575885" id="-49863">
		<tag k="name" v="Stormolinga" />
		<tag k="name:no" v="Stormolinga" />
		<tag k="ssr:stedsnr" v="679769" />
		<tag k="waterway" v="river" />
	</node>
	<node lat="62.72917500032724" lon="11.677530548150816" id="-49865">
		<tag k="name" v="Søtjønna" />
		<tag k="name:no" v="Søtjønna" />
		<tag k="natural" v="water" />
		<tag k="ssr:stedsnr" v="679757" />
	</node>
	<node lat="62.82916741154159" lon="11.80782285175845" id="-49867">
		<tag k="name" v="Svarttjønna" />
		<tag k="natural" v="water" />
		<tag k="ssr:stedsnr" v="679771" />
	</node>
	<node lat="62.737261106946676" lon="11.35462222749238" id="-49868">
		<tag k="name" v="Kattjønna" />
		<tag k="name:no" v="Kattjønna" />
		<tag k="natural" v="water" />
		<tag k="ssr:stedsnr" v="679773" />
	</node>
	<node lat="62.785724995957395" lon="11.882691659026401" id="-49869">
		<tag k="name" v="Langtjønna" />
		<tag k="name:no" v="Langtjønna" />
		<tag k="natural" v="water" />
		<tag k="ssr:stedsnr" v="679785" />
	</node>
	<node lat="62.61745000336878" lon="11.52919999961142" id="-49872">
		<tag k="name" v="Prestbekken" />
		<tag k="name:no" v="Prestbekken" />
		<tag k="ssr:stedsnr" v="679890" />
		<tag k="waterway" v="stream" />
	</node>
	<node lat="62.61236111028749" lon="11.516019447744817" id="-49873">
		<tag k="name" v="Krestenbekken" />
		<tag k="name:no" v="Krestenbekken" />
		<tag k="ssr:stedsnr" v="679891" />
		<tag k="waterway" v="stream" />
	</node>
	<node lat="62.6222499973887" lon="11.580275003800805" id="-49875">
		<tag k="alt_name:no" v="Stormyrbekken" />
		<tag k="name" v="Tellebondbekken" />
		<tag k="name:no" v="Tellebondbekken" />
		<tag k="ssr:stedsnr" v="679897" />
		<tag k="waterway" v="stream" />
	</node>
	<node lat="62.699254568814055" lon="11.370038390638326" id="-49881">
		<tag k="name" v="Storsandtjønna" />
		<tag k="name:no" v="Storsandtjønna" />
		<tag k="natural" v="water" />
		<tag k="ssr:stedsnr" v="679955" />
	</node>
	<node lat="62.75068610854353" lon="12.105313884879276" id="-49883">
		<tag k="name" v="Litlhyddsjøen" />
		<tag k="name:no" v="Litlhyddsjøen" />
		<tag k="natural" v="water" />
		<tag k="ssr:stedsnr" v="680885" />
	</node>
	<node lat="62.56916933401297" lon="11.713049620879543" id="-49885">
		<tag k="name" v="Langtjønna" />
		<tag k="name:no" v="Langtjønna" />
		<tag k="natural" v="water" />
		<tag k="ssr:stedsnr" v="496610" />
	</node>
	<node lat="62.34705000307742" lon="12.052427771200824" id="-49886">
		<tag k="name" v="Djuphåen" />
		<tag k="name:no" v="Djuphåen" />
		<tag k="place" v="locality" />
		<tag k="ssr:stedsnr" v="496624" />
	</node>
	<node lat="62.42602777637288" lon="11.863927776162917" id="-49887">
		<tag k="name" v="Åbbårtjønna" />
		<tag k="name:no" v="Åbbårtjønna" />
		<tag k="natural" v="water" />
		<tag k="ssr:stedsnr" v="496548" />
	</node>
	<node lat="62.72224999726062" lon="11.880433334250293" id="-49890">
		<tag k="name" v="Riosen" />
		<tag k="name:no" v="Riosen" />
		<tag k="natural" v="bay" />
		<tag k="ssr:stedsnr" v="496568" />
	</node>
	<node lat="62.724236110615976" lon="11.938483334147508" id="-49891">
		<tag k="name" v="Flatatjønna" />
		<tag k="name:no" v="Flatatjønna" />
		<tag k="natural" v="water" />
		<tag k="ssr:stedsnr" v="496570" />
	</node>
	<node lat="62.631266668567264" lon="11.254280565433804" id="-49892">
		<tag k="name" v="Lokan" />
		<tag k="name:no" v="Lokan" />
		<tag k="natural" v="water" />
		<tag k="ssr:stedsnr" v="496866" />
	</node>
	<node lat="62.501425002226085" lon="11.890761102738667" id="-49897">
		<tag k="name" v="Ljøsnåneset" />
		<tag k="name:no" v="Ljøsnåneset" />
		<tag k="natural" v="cape" />
		<tag k="ssr:stedsnr" v="497248" />
	</node>
	<node lat="62.5469777737606" lon="11.934055547566532" id="-49900">
		<tag k="name" v="Kvennhusbekken" />
		<tag k="name:no" v="Kvennhusbekken" />
		<tag k="ssr:stedsnr" v="497302" />
		<tag k="waterway" v="stream" />
	</node>
	<node lat="62.549505551992816" lon="11.909805553766466" id="-49901">
		<tag k="name" v="Breibekken" />
		<tag k="name:no" v="Breibekken" />
		<tag k="ssr:stedsnr" v="497304" />
		<tag k="waterway" v="stream" />
	</node>
	<node lat="62.560602773574395" lon="11.987975009179252" id="-49902">
		<tag k="name" v="Vigltjønna" />
		<tag k="name:no" v="Vigltjønna" />
		<tag k="natural" v="water" />
		<tag k="ssr:stedsnr" v="497307" />
	</node>
	<node lat="62.56398611241509" lon="11.886872216937268" id="-49903">
		<tag k="name" v="Sandviktjønna" />
		<tag k="name:no" v="Sandviktjønna" />
		<tag k="natural" v="water" />
		<tag k="ssr:stedsnr" v="497309" />
	</node>
	<node lat="62.62464999883908" lon="11.867000000550584" id="-49909">
		<tag k="name" v="Svartåstjønna" />
		<tag k="name:no" v="Svartåstjønna" />
		<tag k="natural" v="water" />
		<tag k="ssr:stedsnr" v="497610" />
	</node>
	<node lat="62.64390833019786" lon="11.982583329167934" id="-49910">
		<tag k="name" v="Nedre Jervtjønna" />
		<tag k="name:no" v="Nedre Jervtjønna" />
		<tag k="natural" v="water" />
		<tag k="ssr:stedsnr" v="497627" />
	</node>
	<node lat="62.61078888622239" lon="11.789136108711425" id="-49911">
		<tag k="name" v="Kuodden" />
		<tag k="name:no" v="Kuodden" />
		<tag k="natural" v="cape" />
		<tag k="ssr:stedsnr" v="497650" />
	</node>
	<node lat="62.54110277485403" lon="11.658850006055008" id="-49913">
		<tag k="name" v="Korstjønna" />
		<tag k="name:no" v="Korstjønna" />
		<tag k="natural" v="water" />
		<tag k="ssr:stedsnr" v="497596" />
		<tag k="water" v="lake" />
	</node>
	<node lat="62.54208610880589" lon="11.524380546872997" id="-49914">
		<tag k="name" v="Tjønnbekken" />
		<tag k="name:no" v="Tjønnbekken" />
		<tag k="ssr:stedsnr" v="497598" />
		<tag k="waterway" v="stream" />
	</node>
	<node lat="62.70118530944838" lon="11.843422593705737" id="-49916">
		<tag k="name" v="Tjønnslættjønna" />
		<tag k="name:no" v="Tjønnslættjønna" />
		<tag k="natural" v="water" />
		<tag k="ssr:stedsnr" v="497703" />
	</node>
	<node lat="62.69495277558081" lon="12.036300006952132" id="-49917">
		<tag k="name" v="Gruvsjøbekken" />
		<tag k="name:no" v="Gruvsjøbekken" />
		<tag k="ssr:stedsnr" v="497707" />
		<tag k="waterway" v="stream" />
	</node>
	<node lat="62.694416665391564" lon="11.971188888370458" id="-49918">
		<tag k="name" v="Håmmårtjønna" />
		<tag k="name:no" v="Håmmårtjønna" />
		<tag k="natural" v="water" />
		<tag k="ssr:stedsnr" v="497709" />
	</node>
	<node lat="62.66561389227355" lon="11.825858326265642" id="-49921">
		<tag k="name" v="Langnesodden" />
		<tag k="name:no" v="Langnesodden" />
		<tag k="natural" v="cape" />
		<tag k="ssr:stedsnr" v="497745" />
	</node>
	<node lat="62.81765833601722" lon="11.77973888600294" id="-49922">
		<tag k="name" v="Skurtjønna" />
		<tag k="name:no" v="Skurtjønna" />
		<tag k="natural" v="water" />
		<tag k="ssr:stedsnr" v="497793" />
	</node>
	<node lat="62.71875000102354" lon="11.544650005346313" id="-49923">
		<tag k="name" v="Øvre Stenbutjønna" />
		<tag k="name:no" v="Øvre Stenbutjønna" />
		<tag k="natural" v="water" />
		<tag k="ssr:stedsnr" v="497802" />
	</node>
	<node lat="62.70157500439409" lon="11.295949993471194" id="-49926">
		<tag k="name" v="Starrloken" />
		<tag k="name:no" v="Starrloken" />
		<tag k="natural" v="water" />
		<tag k="ssr:stedsnr" v="506815" />
	</node>
	<node lat="62.579249875936576" lon="11.396237269686239" id="-49931">
		<tag k="name" v="Hyttelva" />
		<tag k="name:no" v="Hyttelva" />
		<tag k="ssr:stedsnr" v="506857" />
		<tag k="waterway" v="river" />
	</node>
	<node lat="62.63245555378412" lon="11.889963882313927" id="-49934">
		<tag k="name" v="Oleviksloken" />
		<tag k="name:no" v="Oleviksloken" />
		<tag k="natural" v="water" />
		<tag k="ssr:stedsnr" v="524066" />
	</node>
	<node lat="62.636433337695614" lon="11.901583339031875" id="-49935">
		<tag k="name" v="Ryfossen" />
		<tag k="name:no" v="Ryfossen" />
		<tag k="natural" v="waterfall" />
		<tag k="ssr:stedsnr" v="524067" />
	</node>
	<node lat="62.63372499765048" lon="11.385849998427583" id="-49936">
		<tag k="name" v="Storholmen" />
		<tag k="name:no" v="Storholmen" />
		<tag k="place" v="islet" />
		<tag k="ssr:stedsnr" v="524072" />
	</node>
	<node lat="62.75049166530111" lon="11.928933338582283" id="-49942">
		<tag k="name" v="Finntrøa" />
		<tag k="name:no" v="Finntrøa" />
		<tag k="natural" v="cape" />
		<tag k="ssr:stedsnr" v="527002" />
	</node>
	<node lat="62.75544444043296" lon="11.9207972228676" id="-49945">
		<tag k="name" v="Litlholmen" />
		<tag k="name:no" v="Litlholmen" />
		<tag k="place" v="islet" />
		<tag k="ssr:stedsnr" v="527017" />
	</node>
	<node lat="62.77349444211563" lon="11.927466657850234" id="-49946">
		<tag k="name" v="Martatjønna" />
		<tag k="name:no" v="Martatjønna" />
		<tag k="natural" v="water" />
		<tag k="ssr:stedsnr" v="527071" />
	</node>
	<node lat="62.69780277536802" lon="11.705708323996612" id="-49949">
		<tag k="name" v="Skiftrøsta" />
		<tag k="name:no" v="Skiftrøsta" />
		<tag k="ssr:stedsnr" v="527334" />
		<tag k="waterway" v="stream" />
	</node>
	<node lat="62.65558889084954" lon="11.609683341379949" id="-49951">
		<tag k="name" v="Storfossen" />
		<tag k="name:no" v="Storfossen" />
		<tag k="natural" v="waterfall" />
		<tag k="ssr:stedsnr" v="527707" />
	</node>
	<node lat="62.610644440072804" lon="11.454552782808197" id="-49962">
		<tag k="name" v="Rundloken" />
		<tag k="name:no" v="Rundloken" />
		<tag k="natural" v="water" />
		<tag k="ssr:stedsnr" v="528082" />
	</node>
	<node lat="62.599324998505374" lon="11.418800002302651" id="-49963">
		<tag k="name" v="Strømmevollbekken" />
		<tag k="name:no" v="Strømmevollbekken" />
		<tag k="ssr:stedsnr" v="528087" />
		<tag k="waterway" v="stream" />
	</node>
	<node lat="62.67298333442147" lon="11.409191671870882" id="-49966">
		<tag k="name" v="Krokhølen" />
		<tag k="name:no" v="Krokhølen" />
		<tag k="place" v="locality" />
		<tag k="ssr:stedsnr" v="528208" />
	</node>
	<node lat="62.63205555118043" lon="11.811766665403578" id="-49973">
		<tag k="name" v="Litlbekken" />
		<tag k="name:no" v="Litlbekken" />
		<tag k="ssr:stedsnr" v="528510" />
		<tag k="waterway" v="stream" />
	</node>
	<node lat="62.603558334609566" lon="11.743813879509863" id="-49977">
		<tag k="name" v="Storkattloken" />
		<tag k="name:no" v="Storkattloken" />
		<tag k="natural" v="water" />
		<tag k="ssr:stedsnr" v="528294" />
	</node>
	<node lat="62.602988893343955" lon="11.22750555287143" id="-49979">
		<tag k="name" v="Nordvika" />
		<tag k="name:no" v="Nordvika" />
		<tag k="natural" v="bay" />
		<tag k="ssr:stedsnr" v="528416" />
	</node>
	<node lat="62.60255555208362" lon="11.616141675612102" id="-49982">
		<tag k="name" v="Sandvika" />
		<tag k="name:no" v="Sandvika" />
		<tag k="natural" v="bay" />
		<tag k="ssr:stedsnr" v="528628" />
	</node>
	<node lat="62.61358055139108" lon="11.695694434475119" id="-49986">
		<tag k="name" v="Lisebekken" />
		<tag k="name:no" v="Lisebekken" />
		<tag k="ssr:stedsnr" v="528685" />
		<tag k="waterway" v="stream" />
	</node>
	<node lat="62.556180558795134" lon="11.529636106145547" id="-49989">
		<tag k="name" v="Oksloken" />
		<tag k="name:no" v="Oksloken" />
		<tag k="natural" v="water" />
		<tag k="ssr:stedsnr" v="528811" />
	</node>
	<node lat="62.609408335224266" lon="11.558269442359089" id="-49992">
		<tag k="name" v="Kommandanthåa" />
		<tag k="name:no" v="Kommandanthåa" />
		<tag k="natural" v="water" />
		<tag k="ssr:stedsnr" v="528874" />
		<tag k="water" v="lake" />
	</node>
	<node lat="62.4716388924177" lon="11.626083324335168" id="-49994">
		<tag k="name" v="Svenskmyrbekken" />
		<tag k="name:no" v="Svenskmyrbekken" />
		<tag k="ssr:stedsnr" v="528577" />
		<tag k="waterway" v="stream" />
	</node>
	<node lat="62.45260555964178" lon="11.50110834165625" id="-49999">
		<tag k="name" v="Svartvika" />
		<tag k="name:no" v="Svartvika" />
		<tag k="natural" v="bay" />
		<tag k="ssr:stedsnr" v="528781" />
	</node>
	<node lat="62.82115833697112" lon="11.799336108833987" id="-50011">
		<tag k="name" v="Djuploken" />
		<tag k="name:no" v="Djuploken" />
		<tag k="natural" v="water" />
		<tag k="ssr:stedsnr" v="529842" />
	</node>
	<node lat="62.475455553373536" lon="11.694816661454771" id="-50013">
		<tag k="name" v="Evja" />
		<tag k="name:no" v="Evja" />
		<tag k="natural" v="bay" />
		<tag k="ssr:stedsnr" v="710567" />
	</node>
	<node lat="62.471136111598064" lon="11.686397220351758" id="-50014">
		<tag k="name" v="Evjebekken" />
		<tag k="name:no" v="Evjebekken" />
		<tag k="ssr:stedsnr" v="710568" />
		<tag k="waterway" v="stream" />
	</node>
	<node lat="62.73614166518161" lon="11.836999993403207" id="-50016">
		<tag k="name" v="Langvikbekken" />
		<tag k="name:no" v="Langvikbekken" />
		<tag k="ssr:stedsnr" v="710570" />
		<tag k="waterway" v="stream" />
	</node>
	<node lat="62.573372220167656" lon="11.663233337708249" id="-50017">
		<tag k="name" v="Peråsvika" />
		<tag k="name:no" v="Peråsvika" />
		<tag k="natural" v="bay" />
		<tag k="ssr:stedsnr" v="710640" />
	</node>
	<node lat="62.72977499803339" lon="11.857841672511817" id="-50018">
		<tag k="name" v="Svartloken" />
		<tag k="name:no" v="Svartloken" />
		<tag k="natural" v="water" />
		<tag k="ssr:stedsnr" v="710641" />
	</node>
	<node lat="62.55243889262883" lon="11.900838886741248" id="-50023">
		<tag k="name" v="Brennbekken" />
		<tag k="name:no" v="Brennbekken" />
		<tag k="ssr:stedsnr" v="688315" />
		<tag k="waterway" v="stream" />
	</node>
	<node lat="62.503199999332566" lon="11.883591660493112" id="-50025">
		<tag k="name" v="Litlholmen" />
		<tag k="name:no" v="Litlholmen" />
		<tag k="place" v="islet" />
		<tag k="ssr:stedsnr" v="557252" />
	</node>
	<node lat="62.504575001978004" lon="11.84185554697485" id="-50026">
		<tag k="name" v="Litlskogtjønna" />
		<tag k="name:no" v="Litlskogtjønna" />
		<tag k="natural" v="water" />
		<tag k="ssr:stedsnr" v="557253" />
	</node>
	<node lat="62.57596110738395" lon="11.705558331410906" id="-50029">
		<tag k="name" v="Heksemtjønna" />
		<tag k="name:no" v="Heksemtjønna" />
		<tag k="natural" v="water" />
		<tag k="ssr:stedsnr" v="557553" />
		<tag k="water" v="lake" />
	</node>
	<node lat="62.40153332957488" lon="11.948775007130154" id="-50031">
		<tag k="alt_name:no" v="Bastuholmen" />
		<tag k="name" v="Badstuholmen" />
		<tag k="name:no" v="Badstuholmen" />
		<tag k="place" v="islet" />
		<tag k="ssr:stedsnr" v="557565" />
	</node>
	<node lat="62.405775000977826" lon="11.727088886156556" id="-50032">
		<tag k="name" v="Langtjønna" />
		<tag k="name:no" v="Langtjønna" />
		<tag k="natural" v="water" />
		<tag k="ssr:stedsnr" v="557567" />
	</node>
	<node lat="62.660550002266866" lon="12.029200004479039" id="-50033">
		<tag k="name" v="Gruvsjøtjønnan" />
		<tag k="name:no" v="Gruvsjøtjønnan" />
		<tag k="natural" v="water" />
		<tag k="ssr:stedsnr" v="557716" />
	</node>
	<node lat="62.421749585663704" lon="11.932705784617069" id="-50036">
		<tag k="name" v="Nordvika" />
		<tag k="name:no" v="Nordvika" />
		<tag k="natural" v="bay" />
		<tag k="ssr:stedsnr" v="557499" />
	</node>
	<node lat="62.59357499808055" lon="11.821677781614454" id="-50039">
		<tag k="name" v="Skardbekken" />
		<tag k="name:no" v="Skardbekken" />
		<tag k="ssr:stedsnr" v="557619" />
		<tag k="waterway" v="stream" />
	</node>
	<node lat="62.61998888502284" lon="11.774552787135937" id="-50041">
		<tag k="name" v="Valsetholman" />
		<tag k="name:no" v="Valsetholman" />
		<tag k="place" v="islet" />
		<tag k="ssr:stedsnr" v="557646" />
	</node>
	<node lat="62.40395833094201" lon="11.575058340112578" id="-50045">
		<tag k="name" v="Storbekken" />
		<tag k="name:no" v="Storbekken" />
		<tag k="ssr:stedsnr" v="557700" />
		<tag k="waterway" v="stream" />
	</node>
	<node lat="62.615263884835144" lon="11.701416665276698" id="-50048">
		<tag k="name" v="Valsettjønna" />
		<tag k="name:no" v="Valsettjønna" />
		<tag k="natural" v="water" />
		<tag k="ssr:stedsnr" v="557902" />
	</node>
	<node lat="62.678941512659456" lon="11.563807435376212" id="-50053">
		<tag k="name" v="Vestre Sandneset" />
		<tag k="name:no" v="Vestre Sandneset" />
		<tag k="natural" v="cape" />
		<tag k="ssr:stedsnr" v="557961" />
	</node>
	<node lat="62.63666944483662" lon="11.6117500017516" id="-50061">
		<tag k="name" v="Volloken" />
		<tag k="name:no" v="Volloken" />
		<tag k="natural" v="water" />
		<tag k="ssr:stedsnr" v="710652" />
	</node>
	<node lat="62.64047221955376" lon="11.598197227562647" id="-50062">
		<tag k="name" v="Smedtjønna" />
		<tag k="name:no" v="Smedtjønna" />
		<tag k="natural" v="water" />
		<tag k="ssr:stedsnr" v="710653" />
	</node>
	<node lat="62.51944166250487" lon="11.51427777154169" id="-50063">
		<tag k="name" v="Flatelva" />
		<tag k="name:no" v="Flatelva" />
		<tag k="ssr:stedsnr" v="565810" />
		<tag k="waterway" v="river" />
	</node>
	<node lat="62.66083610678798" lon="11.859727783591952" id="-50080">
		<tag k="name" v="Lerbekken" />
		<tag k="name:no" v="Lerbekken" />
		<tag k="ssr:stedsnr" v="588121" />
		<tag k="waterway" v="stream" />
	</node>
	<node lat="62.68846389308021" lon="11.960580558618549" id="-50081">
		<tag k="name" v="Tritjønnbekken" />
		<tag k="name:no" v="Tritjønnbekken" />
		<tag k="ssr:stedsnr" v="588126" />
		<tag k="waterway" v="stream" />
	</node>
	<node lat="62.675072220541864" lon="11.661680563508979" id="-50085">
		<tag k="name" v="Ryggen" />
		<tag k="name:no" v="Ryggen" />
		<tag k="natural" v="cape" />
		<tag k="ssr:stedsnr" v="588312" />
	</node>
	<node lat="62.67142221927405" lon="11.256425006990883" id="-50096">
		<tag k="name" v="Røosen" />
		<tag k="name:no" v="Røosen" />
		<tag k="natural" v="bay" />
		<tag k="ssr:stedsnr" v="588431" />
	</node>
	<node lat="62.6833000003478" lon="11.314722213951715" id="-50097">
		<tag k="name" v="Årvbergsodden" />
		<tag k="name:no" v="Årvbergsodden" />
		<tag k="natural" v="cape" />
		<tag k="ssr:stedsnr" v="588433" />
	</node>
	<node lat="62.725841669105" lon="11.326700004302337" id="-50101">
		<tag k="name" v="Rugla" />
		<tag k="name:no" v="Rugla" />
		<tag k="ssr:stedsnr" v="588453" />
		<tag k="waterway" v="river" />
	</node>
	<node lat="62.64864166875025" lon="11.802916670098478" id="-50106">
		<tag k="name" v="Abborloken" />
		<tag k="name:no" v="Abborloken" />
		<tag k="natural" v="water" />
		<tag k="ssr:stedsnr" v="588465" />
	</node>
	<node lat="62.49309166636247" lon="11.593752772600407" id="-50108">
		<tag k="name" v="Gunnarshaugvika" />
		<tag k="name:no" v="Gunnarshaugvika" />
		<tag k="natural" v="bay" />
		<tag k="ssr:stedsnr" v="588517" />
	</node>
	<node lat="62.491325002909335" lon="11.637038898026082" id="-50110">
		<tag k="name" v="Lokbekken" />
		<tag k="name:no" v="Lokbekken" />
		<tag k="ssr:stedsnr" v="588527" />
		<tag k="waterway" v="stream" />
	</node>
	<node lat="62.47788611469806" lon="11.662241676613426" id="-50112">
		<tag k="name" v="Dammen" />
		<tag k="name:no" v="Dammen" />
		<tag k="ssr:stedsnr" v="588534" />
		<tag k="waterway" v="dam" />
	</node>
	<node lat="62.746713893271654" lon="11.85800555658622" id="-50116">
		<tag k="name" v="Skjervika" />
		<tag k="name:no" v="Skjervika" />
		<tag k="natural" v="bay" />
		<tag k="ssr:stedsnr" v="588565" />
	</node>
	<node lat="62.73626667106628" lon="11.902808336077937" id="-50117">
		<tag k="name" v="Litlvika" />
		<tag k="name:no" v="Litlvika" />
		<tag k="natural" v="bay" />
		<tag k="ssr:stedsnr" v="588571" />
	</node>
	<node lat="62.60158055614552" lon="11.626955554560825" id="-50119">
		<tag k="name" v="Djupodden" />
		<tag k="name:no" v="Djupodden" />
		<tag k="natural" v="cape" />
		<tag k="ssr:stedsnr" v="588605" />
	</node>
	<node lat="62.6058111077205" lon="11.649538882961547" id="-50123">
		<tag k="name" v="Kokkmyrbekken" />
		<tag k="name:no" v="Kokkmyrbekken" />
		<tag k="ssr:stedsnr" v="588613" />
		<tag k="waterway" v="stream" />
	</node>
	<node lat="62.49758889169817" lon="11.576227781009687" id="-50130">
		<tag k="name" v="Oddloken" />
		<tag k="name:no" v="Oddloken" />
		<tag k="natural" v="water" />
		<tag k="ssr:stedsnr" v="588818" />
	</node>
	<node lat="62.72881111197049" lon="11.818791660862018" id="-50141">
		<tag k="name" v="Fisklaustjønna" />
		<tag k="name:no" v="Fisklaustjønna" />
		<tag k="natural" v="water" />
		<tag k="ssr:stedsnr" v="589702" />
	</node>
	<node lat="62.68344999787168" lon="11.757522216859554" id="-50146">
		<tag k="name" v="Båstadvika" />
		<tag k="name:no" v="Båstadvika" />
		<tag k="natural" v="bay" />
		<tag k="ssr:stedsnr" v="589664" />
	</node>
	<node lat="62.36509004632184" lon="11.925050133844573" id="-50155">
		<tag k="name" v="Prestodden" />
		<tag k="natural" v="cape" />
		<tag k="ssr:stedsnr" v="618605" />
	</node>
	<node lat="62.62556666907177" lon="11.762300001177614" id="-50157">
		<tag k="name" v="Smiodden" />
		<tag k="name:no" v="Smiodden" />
		<tag k="natural" v="cape" />
		<tag k="ssr:stedsnr" v="618618" />
	</node>
	<node lat="62.63863888914964" lon="11.756080554576606" id="-50158">
		<tag k="name" v="Flotjønnsbekken" />
		<tag k="name:no" v="Flotjønnsbekken" />
		<tag k="ssr:stedsnr" v="618630" />
		<tag k="waterway" v="stream" />
	</node>
	<node lat="62.6387845731272" lon="12.035583476956063" id="-50159">
		<tag k="name" v="Tollartjønna" />
		<tag k="name:no" v="Tollartjønna" />
		<tag k="natural" v="water" />
		<tag k="ssr:stedsnr" v="618632" />
	</node>
	<node lat="62.61202777496726" lon="11.984627772745771" id="-50164">
		<tag k="name" v="Fjellborga" />
		<tag k="name:no" v="Fjellborga" />
		<tag k="ssr:stedsnr" v="618653" />
		<tag k="waterway" v="stream" />
	</node>
	<node lat="62.391444441354416" lon="11.795074999103555" id="-50166">
		<tag k="name" v="Kamptjønnan" />
		<tag k="name:no" v="Kamptjønnan" />
		<tag k="natural" v="water" />
		<tag k="ssr:stedsnr" v="618577" />
	</node>
	<node lat="62.403691665820396" lon="11.941355564824114" id="-50168">
		<tag k="alt_name:no" v="Femundsklauven" />
		<tag k="name" v="Femundsklauva" />
		<tag k="name:no" v="Femundsklauva" />
		<tag k="natural" v="cape" />
		<tag k="ssr:stedsnr" v="618583" />
	</node>
	<node lat="62.410069443938596" lon="11.955830557488394" id="-50169">
		<tag k="name" v="Røstneset" />
		<tag k="name:no" v="Røstneset" />
		<tag k="natural" v="cape" />
		<tag k="ssr:stedsnr" v="618589" />
	</node>
	<node lat="62.57021944495964" lon="11.347925003725006" id="-50170">
		<tag k="name" v="Håelva" />
		<tag k="name:no" v="Håelva" />
		<tag k="ssr:stedsnr" v="618591" />
		<tag k="waterway" v="river" />
	</node>
	<node lat="62.653036111219066" lon="11.915883327996243" id="-50171">
		<tag k="name" v="Gjartrudstjønna" />
		<tag k="name:no" v="Gjartrudstjønna" />
		<tag k="natural" v="water" />
		<tag k="ssr:stedsnr" v="618707" />
	</node>
	<node lat="62.65278889048749" lon="11.806186106601727" id="-50172">
		<tag k="name" v="Kattloken" />
		<tag k="name:no" v="Kattloken" />
		<tag k="natural" v="water" />
		<tag k="ssr:stedsnr" v="618713" />
	</node>
	<node lat="62.61327500082642" lon="11.585930562701545" id="-50173">
		<tag k="name" v="Grunnsjøen" />
		<tag k="name:no" v="Grunnsjøen" />
		<tag k="natural" v="water" />
		<tag k="ssr:stedsnr" v="618880" />
	</node>
	<node lat="62.62340833142478" lon="11.688933331206592" id="-50174">
		<tag k="name" v="Stamnesbekken" />
		<tag k="name:no" v="Stamnesbekken" />
		<tag k="ssr:stedsnr" v="618893" />
		<tag k="waterway" v="stream" />
	</node>
	<node lat="62.60503888995758" lon="11.626600003266127" id="-50176">
		<tag k="name" v="Storhittersjøen" />
		<tag k="name:no" v="Storhittersjøen" />
		<tag k="natural" v="water" />
		<tag k="ssr:stedsnr" v="618905" />
		<tag k="water" v="lake" />
	</node>
	<node lat="62.63922493552669" lon="11.662393231658339" id="-50187">
		<tag k="name" v="Litlvikodden" />
		<tag k="name:no" v="Litlvikodden" />
		<tag k="natural" v="cape" />
		<tag k="ssr:stedsnr" v="627857" />
	</node>
	<node lat="62.69278333573223" lon="11.377622219942955" id="-50197">
		<tag k="name" v="Midttjønna" />
		<tag k="name:no" v="Midttjønna" />
		<tag k="natural" v="water" />
		<tag k="ssr:stedsnr" v="706126" />
	</node>
	<node lat="62.638183335920935" lon="11.889836109499571" id="-50208">
		<tag k="name" v="Odden" />
		<tag k="name:no" v="Odden" />
		<tag k="natural" v="cape" />
		<tag k="ssr:stedsnr" v="645078" />
	</node>
	<node lat="62.57704166390596" lon="11.374722212615609" id="-50219">
		<tag k="name" v="Doktertjønna" />
		<tag k="name:no" v="Doktertjønna" />
		<tag k="natural" v="water" />
		<tag k="ssr:stedsnr" v="649044" />
	</node>
	<node lat="62.57453610818059" lon="11.200391673001157" id="-50226">
		<tag k="name" v="Langvika" />
		<tag k="name:no" v="Langvika" />
		<tag k="natural" v="bay" />
		<tag k="ssr:stedsnr" v="649287" />
	</node>
	<node lat="62.5960444436174" lon="11.301652780413916" id="-50232">
		<tag k="name" v="Merkesbekken" />
		<tag k="name:no" v="Merkesbekken" />
		<tag k="ssr:stedsnr" v="649438" />
		<tag k="waterway" v="stream" />
	</node>
	<node lat="62.52015277865654" lon="11.924227777357157" id="-50234">
		<tag k="name" v="Støvlbekken" />
		<tag k="name:no" v="Støvlbekken" />
		<tag k="ssr:stedsnr" v="649447" />
		<tag k="waterway" v="stream" />
	</node>
	<node lat="62.4687305568552" lon="11.774736118524258" id="-50238">
		<tag k="name" v="Ormkåsbekken" />
		<tag k="name:no" v="Ormkåsbekken" />
		<tag k="ssr:stedsnr" v="649400" />
		<tag k="waterway" v="stream" />
	</node>
	<node lat="62.526747223292524" lon="11.451908327508573" id="-50242">
		<tag k="name" v="Løkkjebekken" />
		<tag k="name:no" v="Løkkjebekken" />
		<tag k="ssr:stedsnr" v="649516" />
		<tag k="waterway" v="stream" />
	</node>
	<node lat="62.53126666619304" lon="11.460838880461136" id="-50243">
		<tag k="name" v="Dalselva" />
		<tag k="name:no" v="Dalselva" />
		<tag k="ssr:stedsnr" v="649518" />
		<tag k="waterway" v="river" />
	</node>
	<node lat="62.41023611067006" lon="11.89458610874654" id="-50244">
		<tag k="name" v="Sandvikodden" />
		<tag k="name:no" v="Sandvikodden" />
		<tag k="natural" v="cape" />
		<tag k="ssr:stedsnr" v="649540" />
	</node>
	<node lat="62.55489999937777" lon="11.696711117996312" id="-50247">
		<tag k="name" v="Husbekken" />
		<tag k="name:no" v="Husbekken" />
		<tag k="ssr:stedsnr" v="649550" />
		<tag k="waterway" v="stream" />
	</node>
	<node lat="62.47345833657564" lon="11.525130551439855" id="-50257">
		<tag k="name" v="Stallbekken" />
		<tag k="name:no" v="Stallbekken" />
		<tag k="ssr:stedsnr" v="649811" />
		<tag k="waterway" v="stream" />
	</node>
	<node lat="62.67566666723653" lon="11.708430550658536" id="-50261">
		<tag k="name" v="Seterodden" />
		<tag k="name:no" v="Seterodden" />
		<tag k="natural" v="cape" />
		<tag k="ssr:stedsnr" v="649710" />
	</node>
	<node lat="62.59697778000739" lon="11.523480564817016" id="-50266">
		<tag k="name" v="Kristensholmen" />
		<tag k="name:no" v="Kristensholmen" />
		<tag k="place" v="islet" />
		<tag k="ssr:stedsnr" v="649913" />
	</node>
	<node lat="62.591313888550076" lon="11.525702786556623" id="-50267">
		<tag k="name" v="Trangsundholmen" />
		<tag k="name:no" v="Trangsundholmen" />
		<tag k="place" v="islet" />
		<tag k="ssr:stedsnr" v="649916" />
	</node>
	<node lat="62.67424166817898" lon="11.793816659387451" id="-50269">
		<tag k="name" v="Digerodden" />
		<tag k="name:no" v="Digerodden" />
		<tag k="natural" v="cape" />
		<tag k="ssr:stedsnr" v="650621" />
	</node>
	<node lat="62.77957499838358" lon="11.83748611123966" id="-50274">
		<tag k="name" v="Askvika" />
		<tag k="name:no" v="Askvika" />
		<tag k="natural" v="bay" />
		<tag k="ssr:stedsnr" v="650814" />
	</node>
	<node lat="62.779119443743625" lon="11.843052786784959" id="-50275">
		<tag k="name" v="Draget" />
		<tag k="name:no" v="Draget" />
		<tag k="place" v="locality" />
		<tag k="ssr:stedsnr" v="650815" />
	</node>
	<node lat="62.81521388507336" lon="11.835677786196316" id="-50278">
		<tag k="name" v="Vasstjønnbekken" />
		<tag k="name:no" v="Vasstjønnbekken" />
		<tag k="ssr:stedsnr" v="650835" />
		<tag k="waterway" v="stream" />
	</node>
	<node lat="62.79373055571191" lon="11.79910000619017" id="-50283">
		<tag k="name" v="Kjerråa" />
		<tag k="name:no" v="Kjerråa" />
		<tag k="ssr:stedsnr" v="650796" />
		<tag k="waterway" v="river" />
	</node>
	<node lat="62.781300004020096" lon="11.847425006307976" id="-50286">
		<tag k="name" v="Litlhåen" />
		<tag k="name:no" v="Litlhåen" />
		<tag k="natural" v="water" />
		<tag k="ssr:stedsnr" v="710602" />
		<tag k="water" v="lake" />
	</node>
	<node lat="62.78131388978875" lon="11.899438896646434" id="-50287">
		<tag k="name" v="Djuptjønna" />
		<tag k="name:no" v="Djuptjønna" />
		<tag k="natural" v="water" />
		<tag k="ssr:stedsnr" v="710616" />
	</node>
	<node lat="62.737608329603155" lon="11.965947214990832" id="-50292">
		<tag k="name" v="Litlbekken" />
		<tag k="name:no" v="Litlbekken" />
		<tag k="ssr:stedsnr" v="710016" />
		<tag k="waterway" v="stream" />
	</node>
	<node lat="62.68865833023692" lon="11.91639444011289" id="-50296">
		<tag k="name" v="Fallhølen" />
		<tag k="name:no" v="Fallhølen" />
		<tag k="place" v="locality" />
		<tag k="ssr:stedsnr" v="710101" />
	</node>
	<node lat="62.625513889185385" lon="11.76937499519962" id="-50313">
		<tag k="name" v="Sandvika" />
		<tag k="name:no" v="Sandvika" />
		<tag k="natural" v="bay" />
		<tag k="ssr:stedsnr" v="710321" />
	</node>
	<node lat="62.63035555585482" lon="11.172408332893843" id="-50314">
		<tag k="name" v="Stenbekken" />
		<tag k="name:no" v="Stenbekken" />
		<tag k="ssr:stedsnr" v="710322" />
		<tag k="waterway" v="stream" />
	</node>
	<node lat="62.56875277372878" lon="11.829616657144848" id="-50319">
		<tag k="name" v="Elva" />
		<tag k="name:no" v="Elva" />
		<tag k="ssr:stedsnr" v="710398" />
		<tag k="waterway" v="river" />
	</node>
	<node lat="62.5865749982472" lon="11.336497214840765" id="-50327">
		<tag k="name" v="Håan" />
		<tag k="name:no" v="Håan" />
		<tag k="ssr:stedsnr" v="710372" />
		<tag k="waterway" v="river" />
	</node>
	<node lat="62.47136666684221" lon="11.900666669145412" id="-50329">
		<tag k="name" v="Langtjønnbekken" />
		<tag k="name:no" v="Langtjønnbekken" />
		<tag k="ssr:stedsnr" v="710423" />
		<tag k="waterway" v="stream" />
	</node>
	<node lat="62.65385000028198" lon="11.795636106542535" id="-50331">
		<tag k="name" v="Litlfiskloken" />
		<tag k="name:no" v="Litlfiskloken" />
		<tag k="natural" v="water" />
		<tag k="ssr:stedsnr" v="710510" />
	</node>
	<node lat="62.72071667052908" lon="12.009961106266939" id="-50336">
		<tag k="name" v="Øvre Hyllingen" />
		<tag k="name:no" v="Øvre Hyllingen" />
		<tag k="natural" v="water" />
		<tag k="ssr:stedsnr" v="678532" />
		<tag k="water" v="lake" />
	</node>
	<node lat="62.68042217766569" lon="11.528048745721781" id="-50338">
		<tag k="name" v="Storholmen" />
		<tag k="name:no" v="Storholmen" />
		<tag k="place" v="islet" />
		<tag k="ssr:stedsnr" v="678970" />
	</node>
	<node lat="62.744927781762755" lon="11.990688892628445" id="-50341">
		<tag k="name" v="Røtjønnan" />
		<tag k="name:no" v="Røtjønnan" />
		<tag k="natural" v="water" />
		<tag k="ssr:stedsnr" v="679468" />
	</node>
	<node lat="62.458119442002996" lon="12.088402785621819" id="-50342">
		<tag k="name" v="Gjettjønna" />
		<tag k="name:no" v="Gjettjønna" />
		<tag k="natural" v="water" />
		<tag k="ssr:stedsnr" v="679470" />
	</node>
	<node lat="62.63290000229093" lon="11.896361104917393" id="-50343">
		<tag k="name" v="Borgfossen" />
		<tag k="name:no" v="Borgfossen" />
		<tag k="natural" v="waterfall" />
		<tag k="ssr:stedsnr" v="679609" />
	</node>
	<node lat="62.6419333325222" lon="11.817591666201729" id="-50344">
		<tag k="fixme" v="multiple name tags, choose one and add the other to alt_name" />
		<tag k="name" v="Tysktjønna;Litltjønna" />
		<tag k="name:no" v="Tysktjønna;Litltjønna" />
		<tag k="natural" v="water" />
		<tag k="ssr:stedsnr" v="679610" />
	</node>
	<node lat="62.63926084625535" lon="11.83566979006474" id="-50345">
		<tag k="name" v="Lomtjønna" />
		<tag k="name:no" v="Lomtjønna" />
		<tag k="natural" v="water" />
		<tag k="ssr:stedsnr" v="679614" />
	</node>
	<node lat="62.49139444528204" lon="11.989008342926965" id="-50349">
		<tag k="name" v="Svenselva" />
		<tag k="name:no" v="Svenselva" />
		<tag k="ssr:stedsnr" v="679513" />
		<tag k="waterway" v="stream" />
	</node>
	<node lat="62.485827773377935" lon="11.756472219500145" id="-50350">
		<tag k="name" v="Bjørbekken" />
		<tag k="name:no" v="Bjørbekken" />
		<tag k="ssr:stedsnr" v="679519" />
		<tag k="waterway" v="stream" />
	</node>
	<node lat="62.34362500290167" lon="12.091216670308214" id="-50351">
		<tag k="name" v="Roastbekken" />
		<tag k="name:no" v="Roastbekken" />
		<tag k="ssr:stedsnr" v="679565" />
		<tag k="waterway" v="stream" />
	</node>
	<node lat="62.359000003629795" lon="12.125669439379807" id="-50353">
		<tag k="name" v="Midtslåttjønnan" />
		<tag k="name:no" v="Midtslåttjønnan" />
		<tag k="natural" v="water" />
		<tag k="ssr:stedsnr" v="679568" />
	</node>
	<node lat="62.37332499645562" lon="11.981766664917682" id="-50355">
		<tag k="name" v="Granbekkodden" />
		<tag k="name:no" v="Granbekkodden" />
		<tag k="natural" v="cape" />
		<tag k="ssr:stedsnr" v="679575" />
	</node>
	<node lat="62.37235277732319" lon="12.022233334192205" id="-50356">
		<tag k="name" v="Syndre Skarpåstjønna" />
		<tag k="name:no" v="Syndre Skarpåstjønna" />
		<tag k="natural" v="water" />
		<tag k="ssr:stedsnr" v="679577" />
	</node>
	<node lat="62.648980559806525" lon="11.7659611043806" id="-50358">
		<tag k="name" v="Lauvåstjønna" />
		<tag k="name:no" v="Lauvåstjønna" />
		<tag k="natural" v="water" />
		<tag k="old_name:no" v="Lauåstjernet" />
		<tag k="ssr:stedsnr" v="679708" />
	</node>
	<node lat="62.65308611025138" lon="11.863774997483988" id="-50359">
		<tag k="name" v="Åbbårtjønna" />
		<tag k="name:no" v="Åbbårtjønna" />
		<tag k="natural" v="water" />
		<tag k="ssr:stedsnr" v="679712" />
	</node>
	<node lat="62.77492777908288" lon="11.901183327479936" id="-50360">
		<tag k="name" v="Skallbekktjønnan" />
		<tag k="name:no" v="Skallbekktjønnan" />
		<tag k="natural" v="water" />
		<tag k="ssr:stedsnr" v="679804" />
	</node>
	<node lat="62.59042500169522" lon="11.418277785001019" id="-50368">
		<tag k="name" v="Hittersjøen" />
		<tag k="name:no" v="Hittersjøen" />
		<tag k="natural" v="water" />
		<tag k="ssr:stedsnr" v="679917" />
		<tag k="water" v="lake" />
	</node>
	<node lat="62.594708329319396" lon="11.442616660892671" id="-50370">
		<tag k="name" v="Strømme-elva" />
		<tag k="name:no" v="Strømme-elva" />
		<tag k="ssr:stedsnr" v="892081" />
		<tag k="waterway" v="river" />
	</node>
	<node lat="62.698077779186875" lon="11.930197220722771" id="-50371">
		<tag k="name" v="Nedre Langodden" />
		<tag k="name:no" v="Nedre Langodden" />
		<tag k="natural" v="cape" />
		<tag k="ssr:stedsnr" v="892085" />
	</node>
	<node lat="62.73322500237504" lon="11.964413882596528" id="-50373">
		<tag k="name" v="Røbekken" />
		<tag k="name:no" v="Røbekken" />
		<tag k="ssr:stedsnr" v="892097" />
		<tag k="waterway" v="stream" />
	</node>
	<node lat="62.673980560004" lon="11.408980551712366" id="-50374">
		<tag k="name" v="Krokhølen" />
		<tag k="name:no" v="Krokhølen" />
		<tag k="place" v="locality" />
		<tag k="ssr:stedsnr" v="892043" />
	</node>
	<node lat="62.58354166962105" lon="11.389438880250214" id="-50375">
		<tag k="name" v="Lergruvdammen" />
		<tag k="name:no" v="Lergruvdammen" />
		<tag k="natural" v="water" />
		<tag k="ssr:stedsnr" v="892047" />
	</node>
	<node lat="62.65358997219188" lon="11.411000475034387" id="-50377">
		<tag k="name" v="Pustbekken" />
		<tag k="name:no" v="Pustbekken" />
		<tag k="ssr:stedsnr" v="892191" />
		<tag k="waterway" v="stream" />
	</node>
	<node lat="62.67353055138511" lon="11.408836115200021" id="-50378">
		<tag k="name" v="Spellolatangen" />
		<tag k="name:no" v="Spellolatangen" />
		<tag k="natural" v="cape" />
		<tag k="ssr:stedsnr" v="892194" />
	</node>
	<node lat="62.67041111538614" lon="11.413700006253881" id="-50379">
		<tag k="name" v="Vintervollodden" />
		<tag k="name:no" v="Vintervollodden" />
		<tag k="natural" v="cape" />
		<tag k="ssr:stedsnr" v="892195" />
	</node>
	<node lat="62.7215194429371" lon="11.43198055239059" id="-50384">
		<tag k="name" v="Litl-Molinga" />
		<tag k="name:no" v="Litl-Molinga" />
		<tag k="ssr:stedsnr" v="892246" />
		<tag k="waterway" v="river" />
	</node>
	<node lat="62.62517222025353" lon="11.739061113532228" id="-50395">
		<tag k="name" v="Vakkerstenodden" />
		<tag k="name:no" v="Vakkerstenodden" />
		<tag k="natural" v="cape" />
		<tag k="ssr:stedsnr" v="892298" />
	</node>
	<node lat="62.47058055214133" lon="11.746672217660581" id="-50397">
		<tag k="name" v="Sørensvika" />
		<tag k="name:no" v="Sørensvika" />
		<tag k="natural" v="bay" />
		<tag k="ssr:stedsnr" v="892332" />
	</node>
	<node lat="62.47262500332287" lon="11.761494435456921" id="-50399">
		<tag k="name" v="Harrbekkneset" />
		<tag k="name:no" v="Harrbekkneset" />
		<tag k="natural" v="cape" />
		<tag k="ssr:stedsnr" v="892335" />
	</node>
	<node lat="62.47548889063607" lon="11.735497221610153" id="-50400">
		<tag k="name" v="Litlholmen" />
		<tag k="name:no" v="Litlholmen" />
		<tag k="place" v="islet" />
		<tag k="ssr:stedsnr" v="892336" />
	</node>
	<node lat="62.62986666899309" lon="11.30057777057074" id="-50407">
		<tag k="name" v="Kvernbekk-kroken" />
		<tag k="name:no" v="Kvernbekk-kroken" />
		<tag k="natural" v="water" />
		<tag k="ssr:stedsnr" v="892399" />
		<tag k="water" v="lake" />
	</node>
	<node lat="62.62501944131883" lon="11.951797231490529" id="-50410">
		<tag k="name" v="Digerodden" />
		<tag k="name:no" v="Digerodden" />
		<tag k="natural" v="cape" />
		<tag k="ssr:stedsnr" v="892436" />
	</node>
	<node lat="62.47749722427041" lon="11.641327774906243" id="-50413">
		<tag k="name" v="Hammersborg" />
		<tag k="name:no" v="Hammersborg" />
		<tag k="natural" v="cape" />
		<tag k="ssr:stedsnr" v="892526" />
	</node>
	<node lat="62.70611944557322" lon="11.528644449344501" id="-50415">
		<tag k="name" v="Blanktjønna" />
		<tag k="name:no" v="Blanktjønna" />
		<tag k="natural" v="water" />
		<tag k="ssr:stedsnr" v="892544" />
	</node>
	<node lat="62.599041667291964" lon="11.608286104390844" id="-50422">
		<tag k="name" v="Brattlibekken" />
		<tag k="name:no" v="Brattlibekken" />
		<tag k="ssr:stedsnr" v="892569" />
		<tag k="waterway" v="stream" />
	</node>
	<node lat="62.60485000302649" lon="11.646841670904829" id="-50424">
		<tag k="name" v="Nepholmen" />
		<tag k="name:no" v="Nepholmen" />
		<tag k="natural" v="cape" />
		<tag k="ssr:stedsnr" v="892586" />
	</node>
	<node lat="62.57794722157688" lon="11.656569446909" id="-50428">
		<tag k="name" v="Klevtjønna" />
		<tag k="name:no" v="Klevtjønna" />
		<tag k="natural" v="water" />
		<tag k="ssr:stedsnr" v="892599" />
	</node>
	<node lat="62.68761666262715" lon="11.712380555388354" id="-50436">
		<tag k="name" v="Lervika" />
		<tag k="name:no" v="Lervika" />
		<tag k="natural" v="bay" />
		<tag k="ssr:stedsnr" v="892682" />
	</node>
	<node lat="62.4594888883614" lon="11.537236116498077" id="-50438">
		<tag k="name" v="Kvernbekken" />
		<tag k="name:no" v="Kvernbekken" />
		<tag k="ssr:stedsnr" v="892790" />
		<tag k="waterway" v="stream" />
	</node>
	<node lat="62.51428055560181" lon="11.515144445157576" id="-50443">
		<tag k="name" v="Blindsildbekken" />
		<tag k="name:no" v="Blindsildbekken" />
		<tag k="ssr:stedsnr" v="892732" />
		<tag k="waterway" v="stream" />
	</node>
	<node lat="62.480911110441205" lon="11.48912500797684" id="-50444">
		<tag k="name" v="Åstjønna" />
		<tag k="name:no" v="Åstjønna" />
		<tag k="natural" v="water" />
		<tag k="ssr:stedsnr" v="892736" />
	</node>
	<node lat="62.461551127286484" lon="11.490279705608337" id="-50447">
		<tag k="name" v="Åbbårtjønna" />
		<tag k="name:no" v="Åbbårtjønna" />
		<tag k="natural" v="water" />
		<tag k="ssr:stedsnr" v="892756" />
	</node>
	<node lat="62.692111113104055" lon="11.809327769667037" id="-50456">
		<tag k="name" v="Skremtjønna" />
		<tag k="name:no" v="Skremtjønna" />
		<tag k="natural" v="water" />
		<tag k="ssr:stedsnr" v="893633" />
	</node>
	<node lat="62.77920833048661" lon="11.838491668984632" id="-50463">
		<tag k="name" v="Skjeggtoppodden" />
		<tag k="name:no" v="Skjeggtoppodden" />
		<tag k="natural" v="cape" />
		<tag k="ssr:stedsnr" v="893814" />
	</node>
	<node lat="62.59045198473912" lon="11.535929588991273" id="-50466">
		<tag k="name" v="Sauholmen" />
		<tag k="name:no" v="Sauholmen" />
		<tag k="place" v="islet" />
		<tag k="ssr:stedsnr" v="688791" />
	</node>
	<node lat="62.80188888738825" lon="11.81392500563853" id="-50469">
		<tag k="name" v="Rukåsbekken" />
		<tag k="name:no" v="Rukåsbekken" />
		<tag k="ssr:stedsnr" v="893832" />
		<tag k="waterway" v="stream" />
	</node>
	<node lat="62.70104722129854" lon="11.904077780563568" id="-50473">
		<tag k="name" v="Torsloken" />
		<tag k="name:no" v="Torsloken" />
		<tag k="natural" v="water" />
		<tag k="ssr:stedsnr" v="893852" />
		<tag k="water" v="lake" />
	</node>
	<node lat="62.73445277575455" lon="11.302074994354635" id="-50474">
		<tag k="name" v="Stordalsbekken" />
		<tag k="name:no" v="Stordalsbekken" />
		<tag k="ssr:stedsnr" v="895690" />
		<tag k="waterway" v="stream" />
	</node>
	<node lat="62.55817222573214" lon="11.384552780311648" id="-50480">
		<tag k="name" v="Storbekken" />
		<tag k="name:no" v="Storbekken" />
		<tag k="ssr:stedsnr" v="706439" />
		<tag k="waterway" v="stream" />
	</node>
	<node lat="62.69554166377116" lon="11.93302222298401" id="-50483">
		<tag k="name" v="Lorthåen" />
		<tag k="name:no" v="Lorthåen" />
		<tag k="place" v="locality" />
		<tag k="ssr:stedsnr" v="710103" />
	</node>
	<node lat="62.71090833106754" lon="11.362155548538269" id="-50486">
		<tag k="name" v="Grøntrøbekken" />
		<tag k="name:no" v="Grøntrøbekken" />
		<tag k="ssr:stedsnr" v="710223" />
		<tag k="waterway" v="stream" />
	</node>
	<node lat="62.60926110880116" lon="11.594216669151738" id="-50487">
		<tag k="name" v="Billaelva" />
		<tag k="name:no" v="Billaelva" />
		<tag k="ssr:stedsnr" v="710227" />
		<tag k="waterway" v="river" />
	</node>
	<node lat="62.61112778008292" lon="11.566302776978086" id="-50488">
		<tag k="name" v="Rundhåa" />
		<tag k="name:no" v="Rundhåa" />
		<tag k="natural" v="water" />
		<tag k="ssr:stedsnr" v="710240" />
		<tag k="water" v="lake" />
	</node>
	<node lat="62.61130833573391" lon="11.78985277587008" id="-50494">
		<tag k="name" v="Kuodden" />
		<tag k="name:no" v="Kuodden" />
		<tag k="natural" v="cape" />
		<tag k="ssr:stedsnr" v="710309" />
	</node>
	<node lat="62.537374996934574" lon="11.320483326031603" id="-50495">
		<tag k="name" v="Skårbekken" />
		<tag k="name:no" v="Skårbekken" />
		<tag k="ssr:stedsnr" v="710311" />
		<tag k="waterway" v="stream" />
	</node>
	<node lat="62.69214166743308" lon="11.685072220827664" id="-50500">
		<tag k="name" v="Litlbekken" />
		<tag k="name:no" v="Litlbekken" />
		<tag k="ssr:stedsnr" v="710335" />
		<tag k="waterway" v="stream" />
	</node>
	<node lat="62.44015555213504" lon="11.78114721470613" id="-50502">
		<tag k="name" v="Tårnstensloken" />
		<tag k="name:no" v="Tårnstensloken" />
		<tag k="natural" v="water" />
		<tag k="ssr:stedsnr" v="710382" />
	</node>
	<node lat="62.45750555338175" lon="11.760350006724615" id="-50504">
		<tag k="name" v="Harrbekktjønna" />
		<tag k="name:no" v="Harrbekktjønna" />
		<tag k="natural" v="water" />
		<tag k="ssr:stedsnr" v="710386" />
	</node>
	<node lat="62.45153333582557" lon="11.90519443808665" id="-50509">
		<tag k="name" v="Langtjønna" />
		<tag k="name:no" v="Langtjønna" />
		<tag k="natural" v="water" />
		<tag k="ssr:stedsnr" v="710428" />
	</node>
	<node lat="62.605652782221085" lon="11.620166669633871" id="-50519">
		<tag k="name" v="Holholmen" />
		<tag k="name:no" v="Holholmen" />
		<tag k="place" v="islet" />
		<tag k="ssr:stedsnr" v="710627" />
	</node>
	<node lat="62.59984167012481" lon="11.653986112623901" id="-50523">
		<tag k="name" v="Halvvegsbekken" />
		<tag k="name:no" v="Halvvegsbekken" />
		<tag k="ssr:stedsnr" v="710593" />
		<tag k="waterway" v="stream" />
	</node>
	<node lat="62.6229555575755" lon="11.677663892859506" id="-50525">
		<tag k="name" v="Merkesbekken" />
		<tag k="name:no" v="Merkesbekken" />
		<tag k="ssr:stedsnr" v="710703" />
		<tag k="waterway" v="stream" />
	</node>
	<node lat="62.68046944647599" lon="11.630850009512084" id="-50526">
		<tag k="name" v="Haukodden" />
		<tag k="name:no" v="Haukodden" />
		<tag k="natural" v="cape" />
		<tag k="ssr:stedsnr" v="710708" />
	</node>
	<node lat="62.636436109666406" lon="11.706072228864237" id="-50527">
		<tag k="name" v="Godvika" />
		<tag k="name:no" v="Godvika" />
		<tag k="natural" v="bay" />
		<tag k="ssr:stedsnr" v="710737" />
	</node>
	<node lat="62.5523583294643" lon="11.534216676019804" id="-50530">
		<tag k="name" v="Midtiloken" />
		<tag k="name:no" v="Midtiloken" />
		<tag k="natural" v="water" />
		<tag k="ssr:stedsnr" v="710813" />
	</node>
	<node lat="62.56684444760185" lon="11.483949994660303" id="-50531">
		<tag k="name" v="Storbekken" />
		<tag k="name:no" v="Storbekken" />
		<tag k="ssr:stedsnr" v="710835" />
		<tag k="waterway" v="stream" />
	</node>
	<node lat="62.59623055973032" lon="11.516122227212884" id="-50534">
		<tag k="name" v="Storholmen" />
		<tag k="name:no" v="Storholmen" />
		<tag k="place" v="islet" />
		<tag k="ssr:stedsnr" v="710914" />
	</node>
	<node lat="62.73118332944625" lon="11.89478056269931" id="-50535">
		<tag k="name" v="Storøra" />
		<tag k="name:no" v="Storøra" />
		<tag k="natural" v="shoal" />
		<tag k="place" v="locality" />
		<tag k="ssr:stedsnr" v="711609" />
	</node>
	<node lat="62.723986109395284" lon="11.80795832583751" id="-50542">
		<tag k="name" v="Ner Notåstjønna" />
		<tag k="name:no" v="Ner Notåstjønna" />
		<tag k="natural" v="water" />
		<tag k="ssr:stedsnr" v="711728" />
	</node>
	<node lat="62.70179444820052" lon="11.824316660501282" id="-50547">
		<tag k="name" v="Stenvolloken" />
		<tag k="name:no" v="Stenvolloken" />
		<tag k="natural" v="water" />
		<tag k="old_name:no" v="Stenvoll loken" />
		<tag k="ssr:stedsnr" v="711799" />
	</node>
	<node lat="62.47536695784528" lon="11.526327280541839" id="-50550">
		<tag k="name" v="Stallbekktjønna" />
		<tag k="name:no" v="Stallbekktjønna" />
		<tag k="natural" v="water" />
		<tag k="ssr:stedsnr" v="739343" />
	</node>
	<node lat="62.4448166656445" lon="12.054469453592366" id="-50553">
		<tag k="name" v="Muggsjølitjønna" />
		<tag k="name:no" v="Muggsjølitjønna" />
		<tag k="natural" v="water" />
		<tag k="ssr:stedsnr" v="739506" />
	</node>
	<node lat="62.43903274865315" lon="11.83103775620878" id="-50554">
		<tag k="name" v="Stortjønna" />
		<tag k="name:no" v="Stortjønna" />
		<tag k="natural" v="water" />
		<tag k="ssr:stedsnr" v="739510" />
	</node>
	<node lat="62.44758056008943" lon="12.023686105632443" id="-50556">
		<tag k="name" v="Blindtjønna" />
		<tag k="name:no" v="Blindtjønna" />
		<tag k="natural" v="water" />
		<tag k="ssr:stedsnr" v="739501" />
	</node>
	<node lat="62.44246944388807" lon="12.042463885679343" id="-50557">
		<tag k="name" v="Stortjønna" />
		<tag k="name:no" v="Stortjønna" />
		<tag k="natural" v="water" />
		<tag k="ssr:stedsnr" v="739502" />
	</node>
	<node lat="62.41270000187858" lon="11.992483326829193" id="-50558">
		<tag k="name" v="Koltjønna" />
		<tag k="name:no" v="Koltjønna" />
		<tag k="natural" v="water" />
		<tag k="ssr:stedsnr" v="739607" />
	</node>
	<node lat="62.41165833315537" lon="11.892999993898334" id="-50559">
		<tag k="name" v="Sandodden" />
		<tag k="name:no" v="Sandodden" />
		<tag k="natural" v="cape" />
		<tag k="ssr:stedsnr" v="739608" />
	</node>
	<node lat="62.54659912412083" lon="11.682269797569996" id="-50562">
		<tag k="name" v="Langtjønna" />
		<tag k="name:no" v="Langtjønna" />
		<tag k="natural" v="water" />
		<tag k="ssr:stedsnr" v="739620" />
	</node>
	<node lat="62.54631438802246" lon="11.500994794111474" id="-50563">
		<tag k="name" v="Skåkåstjønna" />
		<tag k="name:no" v="Skåkåstjønna" />
		<tag k="natural" v="water" />
		<tag k="ssr:stedsnr" v="739629" />
	</node>
	<node lat="62.64346111274539" lon="11.793808341350013" id="-50565">
		<tag k="name" v="Treloken" />
		<tag k="name:no" v="Treloken" />
		<tag k="place" v="locality" />
		<tag k="ssr:stedsnr" v="739721" />
	</node>
	<node lat="62.6709611084065" lon="12.037041674158763" id="-50566">
		<tag k="name" v="Gruvsjøen" />
		<tag k="name:no" v="Gruvsjøen" />
		<tag k="natural" v="water" />
		<tag k="ssr:stedsnr" v="739749" />
		<tag k="water" v="lake" />
	</node>
	<node lat="62.50794166290119" lon="11.87209999060929" id="-50568">
		<tag k="name" v="Knutsvika" />
		<tag k="name:no" v="Knutsvika" />
		<tag k="natural" v="bay" />
		<tag k="ssr:stedsnr" v="740255" />
	</node>
	<node lat="62.53729999789161" lon="11.92176389183133" id="-50569">
		<tag k="name" v="Halvveisbekken" />
		<tag k="name:no" v="Halvveisbekken" />
		<tag k="ssr:stedsnr" v="740297" />
		<tag k="waterway" v="stream" />
	</node>
	<node lat="62.536224996729985" lon="11.74600000807344" id="-50570">
		<tag k="name" v="Hesttjønna" />
		<tag k="name:no" v="Hesttjønna" />
		<tag k="natural" v="water" />
		<tag k="ssr:stedsnr" v="740301" />
	</node>
	<node lat="62.391963892288494" lon="11.538711118381114" id="-50571">
		<tag k="name" v="Taksbekken" />
		<tag k="name:no" v="Taksbekken" />
		<tag k="ssr:stedsnr" v="740393" />
		<tag k="waterway" v="stream" />
	</node>
	<node lat="62.72253888621379" lon="11.841241660978353" id="-50572">
		<tag k="name" v="Åbbårsjøen" />
		<tag k="name:no" v="Åbbårsjøen" />
		<tag k="natural" v="water" />
		<tag k="ssr:stedsnr" v="740537" />
		<tag k="water" v="lake" />
	</node>
	<node lat="62.79732499735666" lon="11.896619438892232" id="-50574">
		<tag k="name" v="Blankhåen" />
		<tag k="name:no" v="Blankhåen" />
		<tag k="natural" v="water" />
		<tag k="ssr:stedsnr" v="740799" />
	</node>
	<node lat="62.59979999786766" lon="11.228297222031548" id="-50575">
		<tag k="name" v="Storfjellsjøen" />
		<tag k="name:no" v="Storfjellsjøen" />
		<tag k="natural" v="water" />
		<tag k="ssr:stedsnr" v="740907" />
	</node>
	<node lat="62.59244444842181" lon="11.435027783533373" id="-50576">
		<tag k="name" v="Massingtjønna" />
		<tag k="name:no" v="Massingtjønna" />
		<tag k="natural" v="water" />
		<tag k="ssr:stedsnr" v="740920" />
	</node>
	<node lat="62.58834999621509" lon="11.464663893786906" id="-50577">
		<tag k="name" v="Stikkillen" />
		<tag k="name:no" v="Stikkillen" />
		<tag k="natural" v="water" />
		<tag k="ssr:stedsnr" v="740921" />
		<tag k="water" v="lake" />
	</node>
	<node lat="62.64409166328361" lon="11.420086108994484" id="-50583">
		<tag k="name" v="Maglibekken" />
		<tag k="name:no" v="Maglibekken" />
		<tag k="ssr:stedsnr" v="766110" />
		<tag k="waterway" v="stream" />
	</node>
	<node lat="62.64852094808334" lon="11.377502678952105" id="-50588">
		<tag k="name" v="Holtåstjønna" />
		<tag k="name:no" v="Holtåstjønna" />
		<tag k="natural" v="water" />
		<tag k="ssr:stedsnr" v="766079" />
	</node>
	<node lat="62.446449999447374" lon="11.583966672018148" id="-50594">
		<tag k="name" v="Harrbekken" />
		<tag k="name:no" v="Harrbekken" />
		<tag k="ssr:stedsnr" v="770219" />
		<tag k="waterway" v="stream" />
	</node>
	<node lat="62.600650004156655" lon="11.812677773058438" id="-50604">
		<tag k="name" v="Tømmervika" />
		<tag k="name:no" v="Tømmervika" />
		<tag k="natural" v="bay" />
		<tag k="ssr:stedsnr" v="770275" />
	</node>
	<node lat="62.6726805570385" lon="11.907338893295327" id="-50606">
		<tag k="name" v="Storvollbekken" />
		<tag k="name:no" v="Storvollbekken" />
		<tag k="ssr:stedsnr" v="770119" />
		<tag k="waterway" v="stream" />
	</node>
	<node lat="62.67254722195201" lon="11.435180564343117" id="-50607">
		<tag k="name" v="Åkerhølen" />
		<tag k="name:no" v="Åkerhølen" />
		<tag k="place" v="locality" />
		<tag k="ssr:stedsnr" v="770132" />
	</node>
	<node lat="62.43435833290458" lon="11.918844439449984" id="-50618">
		<tag k="name" v="Lortholet" />
		<tag k="name:no" v="Lortholet" />
		<tag k="natural" v="water" />
		<tag k="ssr:stedsnr" v="770365" />
	</node>
	<node lat="62.55056388824399" lon="11.56602500303003" id="-50619">
		<tag k="name" v="Langtjønnbekken" />
		<tag k="name:no" v="Langtjønnbekken" />
		<tag k="ssr:stedsnr" v="770803" />
		<tag k="waterway" v="stream" />
	</node>
	<node lat="62.5225138934707" lon="11.484913881641672" id="-50622">
		<tag k="name" v="Krokhølen" />
		<tag k="name:no" v="Krokhølen" />
		<tag k="place" v="locality" />
		<tag k="ssr:stedsnr" v="770864" />
	</node>
	<node lat="62.537297226232155" lon="11.57872499418694" id="-50627">
		<tag k="name" v="Klettbekken" />
		<tag k="name:no" v="Klettbekken" />
		<tag k="ssr:stedsnr" v="770876" />
		<tag k="waterway" v="stream" />
	</node>
	<node lat="62.49250277331803" lon="11.48616389491145" id="-50630">
		<tag k="name" v="Tordbekken" />
		<tag k="name:no" v="Tordbekken" />
		<tag k="ssr:stedsnr" v="770755" />
		<tag k="waterway" v="stream" />
	</node>
	<node lat="62.51663611340828" lon="11.48035556469542" id="-50631">
		<tag k="name" v="Langkåsbekken" />
		<tag k="name:no" v="Langkåsbekken" />
		<tag k="ssr:stedsnr" v="770764" />
		<tag k="waterway" v="stream" />
	</node>
	<node lat="62.552552773754726" lon="11.308794453407351" id="-50639">
		<tag k="name" v="Stiftslindsbekken" />
		<tag k="name:no" v="Stiftslindsbekken" />
		<tag k="ssr:stedsnr" v="771362" />
		<tag k="waterway" v="stream" />
	</node>
	<node lat="62.61381111543354" lon="11.301433334847255" id="-50644">
		<tag k="name" v="Svartåstjønna" />
		<tag k="name:no" v="Svartåstjønna" />
		<tag k="natural" v="water" />
		<tag k="ssr:stedsnr" v="771434" />
	</node>
	<node lat="62.792788889016975" lon="11.860347213481573" id="-50656">
		<tag k="name" v="Kjerstibekkaloken" />
		<tag k="name:no" v="Kjerstibekkaloken" />
		<tag k="natural" v="water" />
		<tag k="ssr:stedsnr" v="771607" />
	</node>
	<node lat="62.413180554284565" lon="11.75189721781032" id="-50666">
		<tag k="name" v="Sleppfisktjønna" />
		<tag k="name:no" v="Sleppfisktjønna" />
		<tag k="natural" v="water" />
		<tag k="ssr:stedsnr" v="800612" />
	</node>
	<node lat="62.68640833547422" lon="11.967649998822239" id="-50667">
		<tag k="name" v="Tritjønnan" />
		<tag k="name:no" v="Tritjønnan" />
		<tag k="natural" v="water" />
		<tag k="ssr:stedsnr" v="800686" />
	</node>
	<node lat="62.496327780171185" lon="11.964661105721028" id="-50670">
		<tag k="name" v="Ljøsnåa" />
		<tag k="name:no" v="Ljøsnåa" />
		<tag k="ssr:stedsnr" v="801523" />
		<tag k="waterway" v="river" />
	</node>
	<node lat="62.74635833350168" lon="11.928208336752045" id="-50673">
		<tag k="name" v="Finnflovika" />
		<tag k="name:no" v="Finnflovika" />
		<tag k="natural" v="bay" />
		<tag k="ssr:stedsnr" v="801491" />
	</node>
	<node lat="62.75798055798923" lon="11.977861113325647" id="-50676">
		<tag k="name" v="Røsjøen" />
		<tag k="name:no" v="Røsjøen" />
		<tag k="natural" v="water" />
		<tag k="ssr:stedsnr" v="801808" />
		<tag k="water" v="lake" />
	</node>
	<node lat="62.76161388594896" lon="11.862699999880629" id="-50677">
		<tag k="name" v="Blokkarneset" />
		<tag k="name:no" v="Blokkarneset" />
		<tag k="place" v="islet" />
		<tag k="ssr:stedsnr" v="801813" />
	</node>
	<node lat="62.55881388512472" lon="11.42439721782617" id="-50679">
		<tag k="name" v="Grøpbekken" />
		<tag k="name:no" v="Grøpbekken" />
		<tag k="ssr:stedsnr" v="808804" />
		<tag k="waterway" v="stream" />
	</node>
	<node lat="62.53642778044753" lon="11.654972218366693" id="-50681">
		<tag k="name" v="Røbekken" />
		<tag k="name:no" v="Røbekken" />
		<tag k="ssr:stedsnr" v="808808" />
		<tag k="waterway" v="stream" />
	</node>
	<node lat="62.58073333486965" lon="11.886549995229961" id="-50683">
		<tag k="name" v="Storbekken" />
		<tag k="name:no" v="Storbekken" />
		<tag k="ssr:stedsnr" v="921338" />
		<tag k="waterway" v="stream" />
	</node>
	<node lat="62.44089166650057" lon="12.172613891216713" id="-50685">
		<tag k="name" v="Midtre Muggsjøen" />
		<tag k="name:no" v="Midtre Muggsjøen" />
		<tag k="natural" v="water" />
		<tag k="ssr:stedsnr" v="921546" />
		<tag k="water" v="lake" />
	</node>
	<node lat="62.57620833465298" lon="11.680388896811534" id="-50686">
		<tag k="name" v="Åsbekken" />
		<tag k="name:no" v="Åsbekken" />
		<tag k="ssr:stedsnr" v="921616" />
		<tag k="waterway" v="stream" />
	</node>
	<node lat="62.42324444183689" lon="11.816774991086072" id="-50687">
		<tag k="name" v="Øvre Olbekktjønna" />
		<tag k="name:no" v="Øvre Olbekktjønna" />
		<tag k="natural" v="water" />
		<tag k="ssr:stedsnr" v="921550" />
	</node>
	<node lat="62.57570277363466" lon="11.458322224648049" id="-50688">
		<tag k="name" v="Raustensbekken" />
		<tag k="name:no" v="Raustensbekken" />
		<tag k="ssr:stedsnr" v="827013" />
		<tag k="waterway" v="stream" />
	</node>
	<node lat="62.52044166764464" lon="11.8582777684478" id="-50694">
		<tag k="name" v="Langnesbekken" />
		<tag k="name:no" v="Langnesbekken" />
		<tag k="ssr:stedsnr" v="922272" />
		<tag k="waterway" v="stream" />
	</node>
	<node lat="62.67157221988306" lon="11.692191672766311" id="-50695">
		<tag k="name" v="Kvernbekkodden" />
		<tag k="name:no" v="Kvernbekkodden" />
		<tag k="natural" v="cape" />
		<tag k="ssr:stedsnr" v="827784" />
	</node>
	<node lat="62.413483336665315" lon="11.712605563937514" id="-50698">
		<tag k="name" v="Djuptjønnan" />
		<tag k="name:no" v="Djuptjønnan" />
		<tag k="natural" v="water" />
		<tag k="ssr:stedsnr" v="922349" />
	</node>
	<node lat="62.46384999573849" lon="11.753125003098111" id="-50699">
		<tag k="name" v="Harrbekken" />
		<tag k="name:no" v="Harrbekken" />
		<tag k="ssr:stedsnr" v="922520" />
		<tag k="waterway" v="stream" />
	</node>
	<node lat="62.40369166797432" lon="11.959250000123472" id="-50705">
		<tag k="name" v="Jabben" />
		<tag k="name:no" v="Jabben" />
		<tag k="place" v="islet" />
		<tag k="ssr:stedsnr" v="922565" />
	</node>
	<node lat="62.405416669783015" lon="11.892925005396753" id="-50706">
		<tag k="name" v="Digerodden" />
		<tag k="name:no" v="Digerodden" />
		<tag k="natural" v="cape" />
		<tag k="ssr:stedsnr" v="922568" />
	</node>
	<node lat="62.40980833161058" lon="12.156580560328" id="-50707">
		<tag k="name" v="Skjebrotjønnan" />
		<tag k="name:no" v="Skjebrotjønnan" />
		<tag k="natural" v="water" />
		<tag k="ssr:stedsnr" v="922572" />
		<tag k="water" v="lake" />
	</node>
	<node lat="62.682375004606676" lon="11.875966657882838" id="-50709">
		<tag k="name" v="Kuevja" />
		<tag k="name:no" v="Kuevja" />
		<tag k="place" v="locality" />
		<tag k="ssr:stedsnr" v="922688" />
	</node>
	<node lat="62.65985833181647" lon="11.969950003893349" id="-50713">
		<tag k="name" v="Stentjønna" />
		<tag k="name:no" v="Stentjønna" />
		<tag k="natural" v="water" />
		<tag k="ssr:stedsnr" v="922721" />
	</node>
	<node lat="62.76724444649424" lon="11.633066670943924" id="-50716">
		<tag k="name" v="Rundtjønnbekken" />
		<tag k="name:no" v="Rundtjønnbekken" />
		<tag k="ssr:stedsnr" v="922928" />
		<tag k="waterway" v="stream" />
	</node>
	<node lat="62.74503909636572" lon="11.429668224047825" id="-50718">
		<tag k="name" v="Rundtjønna" />
		<tag k="name:no" v="Rundtjønna" />
		<tag k="natural" v="water" />
		<tag k="ssr:stedsnr" v="922756" />
	</node>
	<node lat="62.71961388738486" lon="11.930116675110234" id="-50721">
		<tag k="name" v="Tallrøstloken" />
		<tag k="name:no" v="Tallrøstloken" />
		<tag k="natural" v="water" />
		<tag k="ssr:stedsnr" v="831130" />
	</node>
	<node lat="62.74924166880348" lon="11.932619442587656" id="-50722">
		<tag k="name" v="Stortjønnbekken" />
		<tag k="name:no" v="Stortjønnbekken" />
		<tag k="ssr:stedsnr" v="831039" />
		<tag k="waterway" v="stream" />
	</node>
	<node lat="62.50387500341268" lon="11.585372225975892" id="-50725">
		<tag k="name" v="Sundkloppbekken" />
		<tag k="name:no" v="Sundkloppbekken" />
		<tag k="ssr:stedsnr" v="831228" />
		<tag k="waterway" v="stream" />
	</node>
	<node lat="62.63812777537386" lon="11.280827783982682" id="-50726">
		<tag k="name" v="Grøtbekken" />
		<tag k="name:no" v="Grøtbekken" />
		<tag k="ssr:stedsnr" v="922869" />
		<tag k="waterway" v="stream" />
	</node>
	<node lat="62.60141666562928" lon="11.810116664670467" id="-50731">
		<tag k="name" v="Båtodden" />
		<tag k="name:no" v="Båtodden" />
		<tag k="natural" v="cape" />
		<tag k="ssr:stedsnr" v="831281" />
	</node>
	<node lat="62.57096388582526" lon="11.213522229903715" id="-50732">
		<tag k="name" v="Galåkroken" />
		<tag k="name:no" v="Galåkroken" />
		<tag k="natural" v="water" />
		<tag k="ssr:stedsnr" v="831282" />
		<tag k="water" v="lake" />
	</node>
	<node lat="62.63732222236732" lon="11.805974993390508" id="-50736">
		<tag k="name" v="Starrloken" />
		<tag k="name:no" v="Starrloken" />
		<tag k="natural" v="water" />
		<tag k="ssr:stedsnr" v="831437" />
	</node>
	<node lat="62.412449998433914" lon="11.900091674856757" id="-50737">
		<tag k="name" v="Sandvika" />
		<tag k="name:no" v="Sandvika" />
		<tag k="natural" v="bay" />
		<tag k="ssr:stedsnr" v="831479" />
	</node>
	<node lat="62.50319166966224" lon="11.56350277989117" id="-50741">
		<tag k="name" v="Litlengholmen" />
		<tag k="name:no" v="Litlengholmen" />
		<tag k="place" v="islet" />
		<tag k="ssr:stedsnr" v="831734" />
	</node>
	<node lat="62.59110555883214" lon="11.414988895463468" id="-50751">
		<tag k="name" v="Langholmen" />
		<tag k="name:no" v="Langholmen" />
		<tag k="place" v="islet" />
		<tag k="ssr:stedsnr" v="832083" />
	</node>
	<node lat="62.53695833504314" lon="11.45178888426856" id="-50759">
		<tag k="name" v="Midtosen" />
		<tag k="name:no" v="Midtosen" />
		<tag k="natural" v="bay" />
		<tag k="ssr:stedsnr" v="832506" />
	</node>
	<node lat="62.485316667350915" lon="11.639394435168647" id="-50762">
		<tag k="name" v="Gammelbekken" />
		<tag k="name:no" v="Gammelbekken" />
		<tag k="ssr:stedsnr" v="832579" />
		<tag k="waterway" v="stream" />
	</node>
	<node lat="62.74730277951368" lon="11.782652777051508" id="-50765">
		<tag k="name" v="Setertjønna" />
		<tag k="name:no" v="Setertjønna" />
		<tag k="natural" v="water" />
		<tag k="ssr:stedsnr" v="832602" />
	</node>
	<node lat="62.60177222680325" lon="11.322383324223619" id="-50769">
		<tag k="name" v="Ålbyggtjønna" />
		<tag k="name:no" v="Ålbyggtjønna" />
		<tag k="natural" v="water" />
		<tag k="ssr:stedsnr" v="832432" />
	</node>
	<node lat="62.76242777905635" lon="11.852186113209882" id="-50772">
		<tag k="name" v="Storholmen" />
		<tag k="name:no" v="Storholmen" />
		<tag k="place" v="islet" />
		<tag k="ssr:stedsnr" v="832612" />
	</node>
	<node lat="62.77936388867071" lon="11.827841670073195" id="-50779">
		<tag k="name" v="Ololsastarra" />
		<tag k="name:no" v="Ololsastarra" />
		<tag k="natural" v="bay" />
		<tag k="ssr:stedsnr" v="832795" />
	</node>
	<node lat="62.69858611034058" lon="11.855433332365754" id="-50783">
		<tag k="name" v="Tjønnslættbekken" />
		<tag k="name:no" v="Tjønnslættbekken" />
		<tag k="ssr:stedsnr" v="832830" />
		<tag k="waterway" v="stream" />
	</node>
	<node lat="62.68936110807521" lon="11.392272213282045" id="-50789">
		<tag k="name" v="Djuptjønna" />
		<tag k="name:no" v="Djuptjønna" />
		<tag k="natural" v="water" />
		<tag k="ssr:stedsnr" v="922939" />
	</node>
	<node lat="62.68560000139814" lon="11.485436102215527" id="-50790">
		<tag k="name" v="Brattholmen" />
		<tag k="name:no" v="Brattholmen" />
		<tag k="place" v="islet" />
		<tag k="ssr:stedsnr" v="922941" />
	</node>
	<node lat="62.69540833216158" lon="11.461563879651056" id="-50791">
		<tag k="name" v="Fokstjønna" />
		<tag k="name:no" v="Fokstjønna" />
		<tag k="natural" v="water" />
		<tag k="ssr:stedsnr" v="922951" />
	</node>
	<node lat="62.70109444406704" lon="11.289458331723234" id="-50792">
		<tag k="fixme" v="multiple name tags, choose one and add the other to alt_name" />
		<tag k="name" v="Ålbyggtjønna;Lomtjønna" />
		<tag k="name:no" v="Ålbyggtjønna;Lomtjønna" />
		<tag k="natural" v="water" />
		<tag k="ssr:stedsnr" v="922953" />
	</node>
	<node lat="62.67533889258211" lon="11.19700278468987" id="-50795">
		<tag k="name" v="Bukstjønna" />
		<tag k="name:no" v="Bukstjønna" />
		<tag k="natural" v="water" />
		<tag k="ssr:stedsnr" v="861209" />
	</node>
	<node lat="62.55235257726327" lon="11.894917881103847" id="-50796">
		<tag k="name" v="Storvika" />
		<tag k="name:no" v="Storvika" />
		<tag k="natural" v="bay" />
		<tag k="ssr:stedsnr" v="861298" />
	</node>
	<node lat="62.349900001713365" lon="11.70487499608471" id="-50797">
		<tag k="name" v="Brattfallbekken" />
		<tag k="name:no" v="Brattfallbekken" />
		<tag k="ssr:stedsnr" v="861422" />
		<tag k="waterway" v="stream" />
	</node>
	<node lat="62.38385833669581" lon="12.024341669521307" id="-50805">
		<tag k="name" v="Nørdre Skarpåstjønna" />
		<tag k="name:no" v="Nørdre Skarpåstjønna" />
		<tag k="natural" v="water" />
		<tag k="ssr:stedsnr" v="861592" />
	</node>
	<node lat="62.63589999995739" lon="11.830111111299344" id="-50809">
		<tag k="name" v="Oksloken" />
		<tag k="name:no" v="Oksloken" />
		<tag k="natural" v="water" />
		<tag k="ssr:stedsnr" v="861607" />
	</node>
	<node lat="62.69276666668786" lon="11.740724992731085" id="-50812">
		<tag k="name" v="Lomtjønna" />
		<tag k="name:no" v="Lomtjønna" />
		<tag k="natural" v="water" />
		<tag k="ssr:stedsnr" v="861683" />
	</node>
	<node lat="62.698569455827474" lon="11.822415253897022" id="-50813">
		<tag k="name" v="Storestjønna" />
		<tag k="name:no" v="Storestjønna" />
		<tag k="natural" v="water" />
		<tag k="ssr:stedsnr" v="861694" />
	</node>
	<node lat="62.72267500248771" lon="11.638486115271343" id="-50815">
		<tag k="name" v="Snøfonntjønnan" />
		<tag k="name:no" v="Snøfonntjønnan" />
		<tag k="natural" v="water" />
		<tag k="ssr:stedsnr" v="861801" />
	</node>
	<node lat="62.6171375345738" lon="11.67635647105467" id="-50816">
		<tag k="name" v="Aresttjønnan" />
		<tag k="name:no" v="Aresttjønnan" />
		<tag k="natural" v="water" />
		<tag k="ssr:stedsnr" v="861905" />
	</node>
	<node lat="62.67118333050648" lon="11.47896388034013" id="-50821">
		<tag k="name" v="Djuptjønnbekken" />
		<tag k="name:no" v="Djuptjønnbekken" />
		<tag k="ssr:stedsnr" v="870810" />
		<tag k="waterway" v="stream" />
	</node>
	<node lat="62.682672221642434" lon="11.555508324641208" id="-50822">
		<tag k="name" v="Ruden" />
		<tag k="name:no" v="Ruden" />
		<tag k="place" v="islet" />
		<tag k="ssr:stedsnr" v="870817" />
	</node>
	<node lat="62.702715788415034" lon="11.371167682420637" id="-50823">
		<tag k="name" v="Oksloken" />
		<tag k="name:no" v="Oksloken" />
		<tag k="natural" v="water" />
		<tag k="ssr:stedsnr" v="870822" />
	</node>
	<node lat="62.76648889197949" lon="11.983724991764573" id="-50828">
		<tag k="name" v="Håmmårtjønna" />
		<tag k="name:no" v="Håmmårtjønna" />
		<tag k="natural" v="water" />
		<tag k="ssr:stedsnr" v="931764" />
	</node>
	<node lat="62.63078611523141" lon="11.430899994062568" id="-50830">
		<tag k="name" v="Storbekken" />
		<tag k="name:no" v="Storbekken" />
		<tag k="ssr:stedsnr" v="931861" />
		<tag k="waterway" v="stream" />
	</node>
	<node lat="62.564622223965586" lon="11.407313884893547" id="-50837">
		<tag k="name" v="Djupdalsbekken" />
		<tag k="name:no" v="Djupdalsbekken" />
		<tag k="ssr:stedsnr" v="888022" />
		<tag k="waterway" v="stream" />
	</node>
	<node lat="62.6668416638284" lon="11.44731666069513" id="-50840">
		<tag k="name" v="Svarthølen" />
		<tag k="name:no" v="Svarthølen" />
		<tag k="place" v="locality" />
		<tag k="ssr:stedsnr" v="888096" />
	</node>
	<node lat="62.66951388582658" lon="11.679477778530007" id="-50843">
		<tag k="name" v="Langodden" />
		<tag k="name:no" v="Langodden" />
		<tag k="natural" v="cape" />
		<tag k="ssr:stedsnr" v="888710" />
	</node>
	<node lat="62.666513893483966" lon="11.696769435861647" id="-50846">
		<tag k="name" v="Kvernbekken" />
		<tag k="name:no" v="Kvernbekken" />
		<tag k="ssr:stedsnr" v="888701" />
		<tag k="waterway" v="stream" />
	</node>
	<node lat="62.659000002821585" lon="11.966138883414784" id="-50850">
		<tag k="name" v="Sandtjønna" />
		<tag k="name:no" v="Sandtjønna" />
		<tag k="natural" v="water" />
		<tag k="ssr:stedsnr" v="892117" />
	</node>
	<node lat="62.7540555581742" lon="11.921388882956528" id="-50853">
		<tag k="name" v="Langholmen" />
		<tag k="name:no" v="Langholmen" />
		<tag k="place" v="islet" />
		<tag k="ssr:stedsnr" v="892012" />
	</node>
	<node lat="62.77178889048564" lon="11.855130556353451" id="-50869">
		<tag k="name" v="Digerodden" />
		<tag k="name:no" v="Digerodden" />
		<tag k="natural" v="cape" />
		<tag k="ssr:stedsnr" v="892560" />
	</node>
	<node lat="62.489208334601585" lon="11.651949993338393" id="-50871">
		<tag k="name" v="Kvernbekken" />
		<tag k="name:no" v="Kvernbekken" />
		<tag k="ssr:stedsnr" v="892522" />
		<tag k="waterway" v="stream" />
	</node>
	<node lat="62.422716662634684" lon="11.880966660931827" id="-50878">
		<tag k="name" v="Litlkrokåttjønna" />
		<tag k="name:no" v="Litlkrokåttjønna" />
		<tag k="natural" v="water" />
		<tag k="ssr:stedsnr" v="892486" />
	</node>
	<node lat="62.64153055671315" lon="11.634452775908226" id="-50879">
		<tag k="name" v="Bekkosbekken" />
		<tag k="name:no" v="Bekkosbekken" />
		<tag k="ssr:stedsnr" v="892605" />
		<tag k="waterway" v="stream" />
	</node>
	<node lat="62.45760000173433" lon="11.485875009714384" id="-50881">
		<tag k="name" v="Håmmårbotntjønna" />
		<tag k="name:no" v="Håmmårbotntjønna" />
		<tag k="natural" v="water" />
		<tag k="ssr:stedsnr" v="892767" />
	</node>
	<node lat="62.49802777697066" lon="11.577927772375025" id="-50882">
		<tag k="name" v="Odden" />
		<tag k="name:no" v="Odden" />
		<tag k="natural" v="cape" />
		<tag k="ssr:stedsnr" v="892776" />
	</node>
	<node lat="62.682486111878745" lon="11.514547229018005" id="-50886">
		<tag k="name" v="Hundskinnvika" />
		<tag k="name:no" v="Hundskinnvika" />
		<tag k="natural" v="bay" />
		<tag k="ssr:stedsnr" v="892925" />
	</node>
	<node lat="62.68452500161815" lon="11.50302500748274" id="-50887">
		<tag k="name" v="Abbortjønna" />
		<tag k="name:no" v="Abbortjønna" />
		<tag k="natural" v="water" />
		<tag k="ssr:stedsnr" v="892930" />
	</node>
	<node lat="62.67470833488765" lon="11.579630554028887" id="-50890">
		<tag k="name" v="Kvernhusbekken" />
		<tag k="name:no" v="Kvernhusbekken" />
		<tag k="ssr:stedsnr" v="892943" />
		<tag k="waterway" v="stream" />
	</node>
	<node lat="62.527802780384334" lon="11.53383889243999" id="-50894">
		<tag k="name" v="Hegghølbekken" />
		<tag k="name:no" v="Hegghølbekken" />
		<tag k="ssr:stedsnr" v="892865" />
		<tag k="waterway" v="stream" />
	</node>
	<node lat="62.77788611304013" lon="11.840202779048793" id="-50903">
		<tag k="name" v="Angelvika" />
		<tag k="name:no" v="Angelvika" />
		<tag k="natural" v="bay" />
		<tag k="ssr:stedsnr" v="893808" />
	</node>
	<node lat="62.454063888224006" lon="12.13129999080528" id="-50905">
		<tag k="name" v="Stortjønna" />
		<tag k="name:no" v="Stortjønna" />
		<tag k="natural" v="water" />
		<tag k="ssr:stedsnr" v="921534" />
	</node>
	<node lat="62.65806666753336" lon="11.299663893231166" id="-50911">
		<tag k="name" v="Bondetjønna" />
		<tag k="name:no" v="Bondetjønna" />
		<tag k="natural" v="water" />
		<tag k="ssr:stedsnr" v="921985" />
	</node>
	<node lat="62.65218888744453" lon="11.452163884588591" id="-50912">
		<tag k="name" v="Vikvegbekken" />
		<tag k="name:no" v="Vikvegbekken" />
		<tag k="ssr:stedsnr" v="921986" />
		<tag k="waterway" v="stream" />
	</node>
	<node lat="62.53700277937376" lon="11.827463881804594" id="-50916">
		<tag k="name" v="Klumptjønna" />
		<tag k="name:no" v="Klumptjønna" />
		<tag k="natural" v="water" />
		<tag k="ssr:stedsnr" v="922280" />
	</node>
	<node lat="62.421774999889465" lon="11.989088894476788" id="-50917">
		<tag k="name" v="Grunnhåen" />
		<tag k="name:no" v="Grunnhåen" />
		<tag k="place" v="locality" />
		<tag k="ssr:stedsnr" v="922474" />
	</node>
	<node lat="62.42207499765961" lon="12.12512499217897" id="-50918">
		<tag k="name" v="Bjørbekken" />
		<tag k="name:no" v="Bjørbekken" />
		<tag k="ssr:stedsnr" v="922476" />
		<tag k="waterway" v="stream" />
	</node>
	<node lat="62.41248294543182" lon="11.942263349364712" id="-50921">
		<tag k="name" v="Storholmen" />
		<tag k="name:no" v="Storholmen" />
		<tag k="place" v="islet" />
		<tag k="ssr:stedsnr" v="922573" />
	</node>
	<node lat="62.55357499590946" lon="11.684941657331786" id="-50927">
		<tag k="name" v="Heksemtjønna" />
		<tag k="name:no" v="Heksemtjønna" />
		<tag k="natural" v="water" />
		<tag k="ssr:stedsnr" v="922581" />
		<tag k="water" v="lake" />
	</node>
	<node lat="62.70300877159404" lon="11.773106502810519" id="-50929">
		<tag k="name" v="Rundtjønna" />
		<tag k="name:no" v="Rundtjønna" />
		<tag k="natural" v="water" />
		<tag k="ssr:stedsnr" v="922704" />
	</node>
	<node lat="62.64434444469994" lon="11.823677775540544" id="-50930">
		<tag k="name" v="Kyrmyrloken" />
		<tag k="name:no" v="Kyrmyrloken" />
		<tag k="natural" v="water" />
		<tag k="ssr:stedsnr" v="922713" />
	</node>
	<node lat="62.80320000016948" lon="11.790519436957654" id="-50933">
		<tag k="alt_name:no" v="Tjerråa" />
		<tag k="name" v="Spranhkenjohke - Kjerråa" />
		<tag k="name:no" v="Kjerråa" />
		<tag k="name:sma" v="Spranhkenjohke" />
		<tag k="ssr:stedsnr" v="922781" />
		<tag k="waterway" v="river" />
	</node>
	<node lat="62.669300003875605" lon="11.728180550533695" id="-50937">
		<tag k="name" v="Tamnesbekken" />
		<tag k="name:no" v="Tamnesbekken" />
		<tag k="ssr:stedsnr" v="922681" />
		<tag k="waterway" v="stream" />
	</node>
	<node lat="62.66885277504539" lon="11.76441944372277" id="-50938">
		<tag k="name" v="Okssandodden" />
		<tag k="name:no" v="Okssandodden" />
		<tag k="natural" v="cape" />
		<tag k="ssr:stedsnr" v="922682" />
	</node>
	<node lat="62.673394442339436" lon="11.780394437985057" id="-50939">
		<tag k="name" v="Brekkfjorden" />
		<tag k="name:no" v="Brekkfjorden" />
		<tag k="natural" v="water" />
		<tag k="ssr:stedsnr" v="922683" />
		<tag k="water" v="lake" />
	</node>
	<node lat="62.770244443858786" lon="11.868005551407286" id="-50940">
		<tag k="name" v="Håmmårholmen" />
		<tag k="name:no" v="Håmmårholmen" />
		<tag k="place" v="islet" />
		<tag k="ssr:stedsnr" v="922815" />
	</node>
	<node lat="62.52420833318018" lon="11.83566665753584" id="-50944">
		<tag k="name" v="Katrenaloken" />
		<tag k="name:no" v="Katrenaloken" />
		<tag k="natural" v="water" />
		<tag k="ssr:stedsnr" v="931306" />
		<tag k="water" v="pond" />
	</node>
	<node lat="62.507166666131056" lon="11.942175000531096" id="-50945">
		<tag k="name" v="Gammelvollbekken" />
		<tag k="name:no" v="Gammelvollbekken" />
		<tag k="ssr:stedsnr" v="931315" />
		<tag k="waterway" v="stream" />
	</node>
	<node lat="62.7087333347233" lon="11.9432750015693" id="-50953">
		<tag k="name" v="Langodden" />
		<tag k="name:no" v="Langodden" />
		<tag k="natural" v="cape" />
		<tag k="ssr:stedsnr" v="952120" />
	</node>
	<node lat="62.672326397401484" lon="11.952538979536698" id="-50954">
		<tag k="name" v="Svarttjønna" />
		<tag k="name:no" v="Svarttjønna" />
		<tag k="natural" v="water" />
		<tag k="ssr:stedsnr" v="952143" />
	</node>
	<node lat="62.60500277823183" lon="11.526055564034607" id="-50958">
		<tag k="name" v="Prestbekken" />
		<tag k="name:no" v="Prestbekken" />
		<tag k="ssr:stedsnr" v="952925" />
		<tag k="waterway" v="stream" />
	</node>
	<node lat="62.56641388937501" lon="11.883461105992527" id="-50969">
		<tag k="name" v="Sandviktjønna" />
		<tag k="name:no" v="Sandviktjønna" />
		<tag k="natural" v="water" />
		<tag k="ssr:stedsnr" v="953432" />
	</node>
	<node lat="62.70823055928252" lon="11.588458330066025" id="-50979">
		<tag k="name" v="Bendixbekken" />
		<tag k="name:no" v="Bendixbekken" />
		<tag k="ssr:stedsnr" v="953612" />
		<tag k="waterway" v="stream" />
	</node>
	<node lat="62.7710000041419" lon="11.842938892317665" id="-50984">
		<tag k="name" v="Penggravvika" />
		<tag k="name:no" v="Penggravvika" />
		<tag k="natural" v="bay" />
		<tag k="ssr:stedsnr" v="953789" />
	</node>
	<node lat="62.698080555263154" lon="11.788077780282656" id="-51004">
		<tag k="name" v="Mortensbekken" />
		<tag k="name:no" v="Mortensbekken" />
		<tag k="ssr:stedsnr" v="954740" />
		<tag k="waterway" v="stream" />
	</node>
	<node lat="62.64762669946442" lon="11.385391303258483" id="-51010">
		<tag k="name" v="Gorrloken" />
		<tag k="name:no" v="Gorrloken" />
		<tag k="natural" v="water" />
		<tag k="ssr:stedsnr" v="976082" />
	</node>
	<node lat="62.46788124199583" lon="11.669726192108415" id="-51011">
		<tag k="name" v="Grågåsloken" />
		<tag k="name:no" v="Grågåsloken" />
		<tag k="natural" v="water" />
		<tag k="ssr:stedsnr" v="976125" />
	</node>
	<node lat="62.678097219398545" lon="11.196836119147667" id="-51017">
		<tag k="name" v="Storhovsbekktjønna" />
		<tag k="name:no" v="Storhovsbekktjønna" />
		<tag k="natural" v="water" />
		<tag k="ssr:stedsnr" v="11222" />
	</node>
	<node lat="62.477947224098024" lon="11.677758332658474" id="-51020">
		<tag k="name" v="Håsjøen" />
		<tag k="name:no" v="Håsjøen" />
		<tag k="natural" v="water" />
		<tag k="ssr:stedsnr" v="11373" />
		<tag k="water" v="lake" />
	</node>
	<node lat="62.43026666559892" lon="11.980480559817558" id="-51021">
		<tag k="name" v="Åbbårtjønna" />
		<tag k="name:no" v="Åbbårtjønna" />
		<tag k="natural" v="water" />
		<tag k="ssr:stedsnr" v="11530" />
	</node>
	<node lat="62.72281110778195" lon="11.950774990251988" id="-51025">
		<tag k="name" v="Sandbekken" />
		<tag k="name:no" v="Sandbekken" />
		<tag k="ssr:stedsnr" v="11560" />
		<tag k="waterway" v="stream" />
	</node>
	<node lat="62.3647250003641" lon="12.033750005995538" id="-51031">
		<tag k="name" v="Heggrøsttjønnan" />
		<tag k="name:no" v="Heggrøsttjønnan" />
		<tag k="natural" v="water" />
		<tag k="ssr:stedsnr" v="11617" />
	</node>
	<node lat="62.64269947878043" lon="11.768232162304159" id="-51036">
		<tag k="name" v="Vollokan" />
		<tag k="name:no" v="Vollokan" />
		<tag k="natural" v="water" />
		<tag k="ssr:stedsnr" v="11729" />
	</node>
	<node lat="62.58331944245202" lon="11.804050001229486" id="-51045">
		<tag k="name" v="Røragen" />
		<tag k="name:no" v="Røragen" />
		<tag k="natural" v="water" />
		<tag k="ssr:stedsnr" v="12299" />
		<tag k="water" v="lake" />
	</node>
	<node lat="62.660069442937036" lon="11.142649993820086" id="-51046">
		<tag k="name" v="Kjølitjønna" />
		<tag k="name:no" v="Kjølitjønna" />
		<tag k="natural" v="water" />
		<tag k="ssr:stedsnr" v="12215" />
	</node>
	<node lat="62.623030553956134" lon="12.003191674009654" id="-51051">
		<tag k="name" v="Storbolagstjønna" />
		<tag k="name:no" v="Storbolagstjønna" />
		<tag k="natural" v="water" />
		<tag k="ssr:stedsnr" v="12627" />
	</node>
	<node lat="62.633794444861216" lon="11.887394446213921" id="-51052">
		<tag k="name" v="Åbbårtjønna" />
		<tag k="name:no" v="Åbbårtjønna" />
		<tag k="natural" v="water" />
		<tag k="ssr:stedsnr" v="12635" />
	</node>
	<node lat="62.75074999960826" lon="11.816805552888733" id="-51053">
		<tag k="name" v="Storbekken" />
		<tag k="name:no" v="Storbekken" />
		<tag k="ssr:stedsnr" v="12645" />
		<tag k="waterway" v="stream" />
	</node>
	<node lat="62.73344999667054" lon="12.09498612028495" id="-51054">
		<tag k="name" v="Hadtanjohke - Hydda" />
		<tag k="name:no" v="Hydda" />
		<tag k="name:sma" v="Hadtanjohke" />
		<tag k="ssr:stedsnr" v="12555" />
		<tag k="waterway" v="river" />
	</node>
	<node lat="62.73193611359083" lon="12.110550004695838" id="-51055">
		<tag k="name" v="Kristianstjønna" />
		<tag k="name:no" v="Kristianstjønna" />
		<tag k="natural" v="water" />
		<tag k="ssr:stedsnr" v="12556" />
	</node>
	<node lat="62.691383332725565" lon="11.288780561243248" id="-51063">
		<tag k="name" v="Litlfjellsjøen" />
		<tag k="name:no" v="Litlfjellsjøen" />
		<tag k="natural" v="water" />
		<tag k="ssr:stedsnr" v="12956" />
	</node>
	<node lat="62.543644441257406" lon="11.442747212257734" id="-51070">
		<tag k="name" v="Nordre Dalstjønna" />
		<tag k="name:no" v="Nordre Dalstjønna" />
		<tag k="natural" v="water" />
		<tag k="ssr:stedsnr" v="20826" />
	</node>
	<node lat="62.63425049684821" lon="11.390036603294407" id="-51074">
		<tag k="name" v="Odden" />
		<tag k="name:no" v="Odden" />
		<tag k="place" v="islet" />
		<tag k="ssr:stedsnr" v="38083" />
	</node>
	<node lat="62.62795277491489" lon="11.35913889502045" id="-51076">
		<tag k="name" v="Merkesbekken" />
		<tag k="name:no" v="Merkesbekken" />
		<tag k="ssr:stedsnr" v="38093" />
		<tag k="waterway" v="stream" />
	</node>
	<node lat="62.64547499573526" lon="11.874036112072428" id="-51078">
		<tag k="name" v="Okkelholet" />
		<tag k="name:no" v="Okkelholet" />
		<tag k="natural" v="cape" />
		<tag k="ssr:stedsnr" v="38200" />
	</node>
	<node lat="62.57843332975538" lon="11.380686109613368" id="-51093">
		<tag k="name" v="Åstjønna" />
		<tag k="name:no" v="Åstjønna" />
		<tag k="natural" v="water" />
		<tag k="ssr:stedsnr" v="42048" />
	</node>
	<node lat="62.74760277403709" lon="11.916311102221679" id="-51095">
		<tag k="name" v="Finnfloodden" />
		<tag k="name:no" v="Finnfloodden" />
		<tag k="natural" v="cape" />
		<tag k="ssr:stedsnr" v="42002" />
	</node>
	<node lat="62.64770277834932" lon="12.053877779045969" id="-51099">
		<tag k="name" v="Litlelva" />
		<tag k="name:no" v="Litlelva" />
		<tag k="ssr:stedsnr" v="42286" />
		<tag k="waterway" v="river" />
	</node>
	<node lat="62.61899722468413" lon="11.777952780541442" id="-51102">
		<tag k="name" v="Langholmen" />
		<tag k="name:no" v="Langholmen" />
		<tag k="place" v="islet" />
		<tag k="ssr:stedsnr" v="42293" />
	</node>
	<node lat="62.53569722364283" lon="11.31854444756289" id="-51103">
		<tag k="name" v="Korslivollbekken" />
		<tag k="name:no" v="Korslivollbekken" />
		<tag k="ssr:stedsnr" v="42294" />
		<tag k="waterway" v="stream" />
	</node>
	<node lat="62.572638889883336" lon="11.850811115900223" id="-51106">
		<tag k="name" v="Stenbekken" />
		<tag k="name:no" v="Stenbekken" />
		<tag k="ssr:stedsnr" v="42393" />
		<tag k="waterway" v="stream" />
	</node>
	<node lat="62.76075555164245" lon="11.913261110904571" id="-51113">
		<tag k="name" v="Gammelvollvika" />
		<tag k="name:no" v="Gammelvollvika" />
		<tag k="natural" v="bay" />
		<tag k="ssr:stedsnr" v="42056" />
	</node>
	<node lat="62.757066664406594" lon="11.914638889788112" id="-51114">
		<tag k="name" v="Skallen" />
		<tag k="name:no" v="Skallen" />
		<tag k="place" v="islet" />
		<tag k="ssr:stedsnr" v="42059" />
	</node>
	<node lat="62.68667499891536" lon="11.966872212509319" id="-51116">
		<tag k="name" v="Tvitjønna" />
		<tag k="name:no" v="Tvitjønna" />
		<tag k="natural" v="water" />
		<tag k="ssr:stedsnr" v="42138" />
	</node>
	<node lat="62.4431583356673" lon="11.78022778311428" id="-51122">
		<tag k="name" v="Krokloken" />
		<tag k="name:no" v="Krokloken" />
		<tag k="natural" v="water" />
		<tag k="ssr:stedsnr" v="42347" />
	</node>
	<node lat="62.60338333048738" lon="11.232808332336516" id="-51127">
		<tag k="name" v="Fjellsjøhåen" />
		<tag k="name:no" v="Fjellsjøhåen" />
		<tag k="natural" v="water" />
		<tag k="ssr:stedsnr" v="42357" />
	</node>
	<node lat="62.681452775593435" lon="11.306327781452078" id="-51132">
		<tag k="name" v="Sjøvika" />
		<tag k="name:no" v="Sjøvika" />
		<tag k="natural" v="bay" />
		<tag k="ssr:stedsnr" v="42437" />
	</node>
	<node lat="62.68854444421655" lon="11.281141663256122" id="-51135">
		<tag k="name" v="Lillebekken" />
		<tag k="name:no" v="Lillebekken" />
		<tag k="ssr:stedsnr" v="42452" />
		<tag k="waterway" v="stream" />
	</node>
	<node lat="62.653800003960846" lon="11.827252775839833" id="-51136">
		<tag k="name" v="Litlkåsmyrodden" />
		<tag k="name:no" v="Litlkåsmyrodden" />
		<tag k="natural" v="cape" />
		<tag k="ssr:stedsnr" v="42455" />
	</node>
	<node lat="62.51695277495916" lon="11.457705546579264" id="-51137">
		<tag k="name" v="Kvernhusbekken" />
		<tag k="name:no" v="Kvernhusbekken" />
		<tag k="ssr:stedsnr" v="42456" />
		<tag k="waterway" v="stream" />
	</node>
	<node lat="62.482705555600695" lon="11.597327779874867" id="-51145">
		<tag k="name" v="Kåsbekken" />
		<tag k="name:no" v="Kåsbekken" />
		<tag k="ssr:stedsnr" v="42516" />
		<tag k="waterway" v="stream" />
	</node>
	<node lat="62.49174444182452" lon="11.613966657875919" id="-51146">
		<tag k="name" v="Kåsbekken" />
		<tag k="name:no" v="Kåsbekken" />
		<tag k="ssr:stedsnr" v="42520" />
		<tag k="waterway" v="stream" />
	</node>
	<node lat="62.63690277849218" lon="11.703494452240657" id="-51148">
		<tag k="name" v="Midtvika" />
		<tag k="name:no" v="Midtvika" />
		<tag k="natural" v="bay" />
		<tag k="ssr:stedsnr" v="42698" />
	</node>
	<node lat="62.5941833372722" lon="11.53033610362143" id="-51152">
		<tag k="name" v="Litlholmen" />
		<tag k="name:no" v="Litlholmen" />
		<tag k="place" v="islet" />
		<tag k="ssr:stedsnr" v="42921" />
	</node>
	<node lat="62.603883330504296" lon="11.709455546403504" id="-51153">
		<tag k="name" v="Ellenholmen" />
		<tag k="name:no" v="Ellenholmen" />
		<tag k="natural" v="cape" />
		<tag k="ssr:stedsnr" v="42556" />
	</node>
	<node lat="62.60816666914033" lon="11.70402777145576" id="-51157">
		<tag k="name" v="Piprørtjønna" />
		<tag k="name:no" v="Piprørtjønna" />
		<tag k="natural" v="water" />
		<tag k="ssr:stedsnr" v="42636" />
	</node>
	<node lat="62.621686109064306" lon="11.691730561839618" id="-51158">
		<tag k="name" v="Stamnesbekken" />
		<tag k="name:no" v="Stamnesbekken" />
		<tag k="ssr:stedsnr" v="42638" />
		<tag k="waterway" v="stream" />
	</node>
	<node lat="62.68333333579208" lon="11.709230565007298" id="-51160">
		<tag k="name" v="Langholmen" />
		<tag k="name:no" v="Langholmen" />
		<tag k="place" v="islet" />
		<tag k="ssr:stedsnr" v="42649" />
	</node>
	<node lat="62.498363887993065" lon="11.563772214839204" id="-51168">
		<tag k="name" v="Rambergsbekken" />
		<tag k="name:no" v="Rambergsbekken" />
		<tag k="ssr:stedsnr" v="42770" />
		<tag k="waterway" v="stream" />
	</node>
	<node lat="62.53596111493377" lon="11.568233333993183" id="-51169">
		<tag k="name" v="Midtlilokan" />
		<tag k="name:no" v="Midtlilokan" />
		<tag k="natural" v="water" />
		<tag k="ssr:stedsnr" v="42844" />
	</node>
	<node lat="62.74831388477044" lon="11.802041669117648" id="-51171">
		<tag k="name" v="Storbekken" />
		<tag k="name:no" v="Storbekken" />
		<tag k="ssr:stedsnr" v="43538" />
		<tag k="waterway" v="stream" />
	</node>
	<node lat="62.69295555151361" lon="11.571272214452257" id="-51174">
		<tag k="name" v="Høgvollbekken" />
		<tag k="name:no" v="Høgvollbekken" />
		<tag k="ssr:stedsnr" v="42954" />
		<tag k="waterway" v="stream" />
	</node>
	<node lat="62.60635278189909" lon="11.327422214976924" id="-51177">
		<tag k="name" v="Kalvhagabekken" />
		<tag k="name:no" v="Kalvhagabekken" />
		<tag k="ssr:stedsnr" v="43380" />
		<tag k="waterway" v="stream" />
	</node>
	<node lat="62.70676944737485" lon="11.839802771178693" id="-51183">
		<tag k="name" v="Puttbekken" />
		<tag k="name:no" v="Puttbekken" />
		<tag k="ssr:stedsnr" v="43781" />
		<tag k="waterway" v="stream" />
	</node>
	<node lat="62.775638890155314" lon="11.834966661881815" id="-51192">
		<tag k="name" v="Øversjøen" />
		<tag k="name:no" v="Øversjøen" />
		<tag k="natural" v="water" />
		<tag k="ssr:stedsnr" v="43796" />
		<tag k="water" v="lake" />
	</node>
	<node lat="62.73546944426382" lon="11.843502772725692" id="-51201">
		<tag k="name" v="Langvika" />
		<tag k="name:no" v="Langvika" />
		<tag k="natural" v="bay" />
		<tag k="ssr:stedsnr" v="72481" />
	</node>
	<node lat="62.73638611429878" lon="12.041908342690014" id="-51203">
		<tag k="name" v="Storkrokåttjønna" />
		<tag k="name:no" v="Storkrokåttjønna" />
		<tag k="natural" v="water" />
		<tag k="ssr:stedsnr" v="72483" />
	</node>
	<node lat="62.73870038298974" lon="11.824432607120201" id="-51204">
		<tag k="name" v="Grubbvolltjønna" />
		<tag k="name:no" v="Grubbvolltjønna" />
		<tag k="natural" v="water" />
		<tag k="ssr:stedsnr" v="72487" />
	</node>
	<node lat="62.42939167033243" lon="11.765516668652376" id="-51206">
		<tag k="name" v="Paddloken" />
		<tag k="name:no" v="Paddloken" />
		<tag k="natural" v="water" />
		<tag k="ssr:stedsnr" v="72503" />
	</node>
	<node lat="62.42926944799926" lon="11.988075004977896" id="-51207">
		<tag k="name" v="Krabbtjønna" />
		<tag k="name:no" v="Krabbtjønna" />
		<tag k="natural" v="water" />
		<tag k="ssr:stedsnr" v="72511" />
	</node>
	<node lat="62.72905555323905" lon="11.824936111194942" id="-51209">
		<tag k="name" v="Kjerresttjønna" />
		<tag k="name:no" v="Kjerresttjønna" />
		<tag k="natural" v="water" />
		<tag k="ssr:stedsnr" v="72531" />
	</node>
	<node lat="62.46674333023543" lon="11.78704250159243" id="-51210">
		<tag k="name" v="Ormkåstjønna" />
		<tag k="name:no" v="Ormkåstjønna" />
		<tag k="natural" v="water" />
		<tag k="ssr:stedsnr" v="72533" />
	</node>
	<node lat="62.7293305554004" lon="11.803136105926324" id="-51211">
		<tag k="name" v="Fisklaustjønna" />
		<tag k="name:no" v="Fisklaustjønna" />
		<tag k="natural" v="water" />
		<tag k="ssr:stedsnr" v="72534" />
	</node>
	<node lat="62.3186888930447" lon="12.112383335971195" id="-51212">
		<tag k="name" v="Øvre Roasten" />
		<tag k="name:no" v="Øvre Roasten" />
		<tag k="natural" v="water" />
		<tag k="ssr:stedsnr" v="72547" />
		<tag k="water" v="lake" />
	</node>
	<node lat="62.55689828327211" lon="11.550069998724341" id="-51213">
		<tag k="name" v="Langtjønna" />
		<tag k="name:no" v="Langtjønna" />
		<tag k="natural" v="water" />
		<tag k="ssr:stedsnr" v="72549" />
		<tag k="water" v="lake" />
	</node>
	<node lat="62.399833331657135" lon="12.036988885641545" id="-51215">
		<tag k="name" v="Svartsjøbekken" />
		<tag k="name:no" v="Svartsjøbekken" />
		<tag k="ssr:stedsnr" v="72576" />
		<tag k="waterway" v="stream" />
	</node>
	<node lat="62.415436530551005" lon="11.883927938682895" id="-51217">
		<tag k="name" v="Synnervika" />
		<tag k="name:no" v="Synnervika" />
		<tag k="natural" v="beach" />
		<tag k="ssr:stedsnr" v="72585" />
	</node>
	<node lat="62.41221388691902" lon="11.792669438046943" id="-51218">
		<tag k="name" v="Stortjønna" />
		<tag k="name:no" v="Stortjønna" />
		<tag k="natural" v="water" />
		<tag k="ssr:stedsnr" v="72587" />
	</node>
	<node lat="62.36536111113649" lon="11.991127783392566" id="-51220">
		<tag k="name" v="Granbekken" />
		<tag k="name:no" v="Granbekken" />
		<tag k="ssr:stedsnr" v="72596" />
		<tag k="waterway" v="stream" />
	</node>
	<node lat="62.478325000586544" lon="11.906463881169543" id="-51236">
		<tag k="name" v="Storholmen" />
		<tag k="name:no" v="Storholmen" />
		<tag k="place" v="islet" />
		<tag k="ssr:stedsnr" v="73579" />
	</node>
	<node lat="62.81006388592032" lon="11.819552777058288" id="-51237">
		<tag k="name" v="Nora" />
		<tag k="name:no" v="Nora" />
		<tag k="natural" v="water" />
		<tag k="ssr:stedsnr" v="73805" />
	</node>
	<node lat="62.7770335809669" lon="11.886792971734566" id="-51238">
		<tag k="name" v="Gjeddtjønna" />
		<tag k="name:no" v="Gjeddtjønna" />
		<tag k="natural" v="water" />
		<tag k="ssr:stedsnr" v="73821" />
	</node>
	<node lat="62.76625833011481" lon="11.832124991149598" id="-51239">
		<tag k="name" v="Litlrien" />
		<tag k="name:no" v="Litlrien" />
		<tag k="natural" v="water" />
		<tag k="ssr:stedsnr" v="73824" />
	</node>
	<node lat="62.77705278104108" lon="11.952686108347287" id="-51240">
		<tag k="name" v="Fisklaustjønna" />
		<tag k="name:no" v="Fisklaustjønna" />
		<tag k="natural" v="water" />
		<tag k="ssr:stedsnr" v="73827" />
	</node>
	<node lat="62.75645555133421" lon="11.929502773721453" id="-51241">
		<tag k="name" v="Svartbekken" />
		<tag k="name:no" v="Svartbekken" />
		<tag k="ssr:stedsnr" v="73832" />
		<tag k="waterway" v="stream" />
	</node>
	<node lat="62.76854444067746" lon="11.692550004233711" id="-51242">
		<tag k="name" v="Fjellsjøelva" />
		<tag k="name:no" v="Fjellsjøelva" />
		<tag k="ssr:stedsnr" v="73944" />
		<tag k="waterway" v="river" />
	</node>
	<node lat="62.63087222612739" lon="11.872066673236208" id="-51257">
		<tag k="name" v="Svartåstjønnbekken" />
		<tag k="name:no" v="Svartåstjønnbekken" />
		<tag k="ssr:stedsnr" v="99053" />
		<tag k="waterway" v="stream" />
	</node>
	<node lat="62.665983334061906" lon="11.268911110156239" id="-51268">
		<tag k="name" v="Prussubekken" />
		<tag k="name:no" v="Prussubekken" />
		<tag k="ssr:stedsnr" v="103457" />
		<tag k="waterway" v="stream" />
	</node>
	<node lat="62.61331944310379" lon="11.847952780449175" id="-51270">
		<tag k="name" v="Vollbekken" />
		<tag k="name:no" v="Vollbekken" />
		<tag k="ssr:stedsnr" v="103465" />
		<tag k="waterway" v="stream" />
	</node>
	<node lat="62.75929999696489" lon="11.912536118145894" id="-51273">
		<tag k="name" v="Gammelvollholmen" />
		<tag k="name:no" v="Gammelvollholmen" />
		<tag k="place" v="islet" />
		<tag k="ssr:stedsnr" v="103061" />
	</node>
	<node lat="62.5996722263884" lon="11.816341671825596" id="-51278">
		<tag k="name" v="Kvernhusbekken" />
		<tag k="name:no" v="Kvernhusbekken" />
		<tag k="ssr:stedsnr" v="103276" />
		<tag k="waterway" v="stream" />
	</node>
	<node lat="62.48191667026052" lon="11.843347213147515" id="-51286">
		<tag k="name" v="Øvre Skjevhåen" />
		<tag k="name:no" v="Øvre Skjevhåen" />
		<tag k="natural" v="water" />
		<tag k="ssr:stedsnr" v="103396" />
		<tag k="water" v="lake" />
	</node>
	<node lat="62.73079166974969" lon="11.447086102732891" id="-51291">
		<tag k="name" v="Storbekken" />
		<tag k="name:no" v="Storbekken" />
		<tag k="ssr:stedsnr" v="103242" />
		<tag k="waterway" v="stream" />
	</node>
	<node lat="62.74035277900739" lon="11.431474996215865" id="-51293">
		<tag k="name" v="Langtjønna" />
		<tag k="name:no" v="Langtjønna" />
		<tag k="natural" v="water" />
		<tag k="ssr:stedsnr" v="103245" />
	</node>
	<node lat="62.752772218322136" lon="11.426294447858728" id="-51294">
		<tag k="name" v="Gammelvollbekken" />
		<tag k="name:no" v="Gammelvollbekken" />
		<tag k="ssr:stedsnr" v="103251" />
		<tag k="waterway" v="stream" />
	</node>
	<node lat="62.46755833193216" lon="11.719119437565112" id="-51299">
		<tag k="name" v="Nedre Bukkbekken" />
		<tag k="name:no" v="Nedre Bukkbekken" />
		<tag k="ssr:stedsnr" v="103357" />
		<tag k="waterway" v="stream" />
	</node>
	<node lat="62.4776833308476" lon="11.626749992657869" id="-51304">
		<tag k="name" v="Svenskmyrvika" />
		<tag k="name:no" v="Svenskmyrvika" />
		<tag k="natural" v="bay" />
		<tag k="ssr:stedsnr" v="103547" />
	</node>
	<node lat="62.723588887945404" lon="11.485288896332163" id="-51305">
		<tag k="name" v="Maglihølen" />
		<tag k="name:no" v="Maglihølen" />
		<tag k="place" v="locality" />
		<tag k="ssr:stedsnr" v="103557" />
	</node>
	<node lat="62.77162777425007" lon="11.8684027735716" id="-51311">
		<tag k="name" v="Litlholmen" />
		<tag k="name:no" v="Litlholmen" />
		<tag k="place" v="islet" />
		<tag k="ssr:stedsnr" v="103592" />
	</node>
	<node lat="62.570211108154595" lon="11.67287776908339" id="-51316">
		<tag k="name" v="Peråsbekken" />
		<tag k="name:no" v="Peråsbekken" />
		<tag k="ssr:stedsnr" v="103618" />
		<tag k="waterway" v="stream" />
	</node>
	<node lat="62.684944442580445" lon="11.621633330616012" id="-51317">
		<tag k="name" v="Merkesbekken" />
		<tag k="name:no" v="Merkesbekken" />
		<tag k="ssr:stedsnr" v="103675" />
		<tag k="waterway" v="stream" />
	</node>
	<node lat="62.654316669186606" lon="11.601024992833707" id="-51319">
		<tag k="name" v="Lomtjønnbekken" />
		<tag k="name:no" v="Lomtjønnbekken" />
		<tag k="ssr:stedsnr" v="103685" />
		<tag k="waterway" v="stream" />
	</node>
	<node lat="62.64983055179111" lon="11.684283342072906" id="-51321">
		<tag k="name" v="Skjeret" />
		<tag k="name:no" v="Skjeret" />
		<tag k="place" v="islet" />
		<tag k="ssr:stedsnr" v="103722" />
	</node>
	<node lat="62.562044446831415" lon="11.547391663802184" id="-51323">
		<tag k="name" v="Trekanttjønna" />
		<tag k="name:no" v="Trekanttjønna" />
		<tag k="natural" v="water" />
		<tag k="ssr:stedsnr" v="103807" />
	</node>
	<node lat="62.707802780686514" lon="11.535449994241274" id="-51327">
		<tag k="name" v="Blanktjønna" />
		<tag k="name:no" v="Blanktjønna" />
		<tag k="natural" v="water" />
		<tag k="ssr:stedsnr" v="103569" />
	</node>
	<node lat="62.612933333128545" lon="11.636008337024132" id="-51331">
		<tag k="name" v="Svartholbekken" />
		<tag k="name:no" v="Svartholbekken" />
		<tag k="ssr:stedsnr" v="103655" />
		<tag k="waterway" v="stream" />
	</node>
	<node lat="62.483608335416285" lon="11.469744448051998" id="-51333">
		<tag k="name" v="Langsmaltjønna" />
		<tag k="name:no" v="Langsmaltjønna" />
		<tag k="natural" v="water" />
		<tag k="ssr:stedsnr" v="103748" />
	</node>
	<node lat="62.50093888901432" lon="11.569666661841621" id="-51337">
		<tag k="name" v="Johanholmen" />
		<tag k="name:no" v="Johanholmen" />
		<tag k="place" v="islet" />
		<tag k="ssr:stedsnr" v="103766" />
	</node>
	<node lat="62.517641662400095" lon="11.526416674861158" id="-51338">
		<tag k="name" v="Dalselva" />
		<tag k="name:no" v="Dalselva" />
		<tag k="ssr:stedsnr" v="103845" />
		<tag k="waterway" v="river" />
	</node>
	<node lat="62.64689999699262" lon="11.574302782601116" id="-51346">
		<tag k="name" v="Lokan" />
		<tag k="name:no" v="Lokan" />
		<tag k="natural" v="water" />
		<tag k="ssr:stedsnr" v="103965" />
	</node>
	<node lat="62.75481666677079" lon="11.826372231434336" id="-51349">
		<tag k="name" v="Storbekkøyan" />
		<tag k="name:no" v="Storbekkøyan" />
		<tag k="ssr:stedsnr" v="104547" />
		<tag k="waterway" v="stream" />
	</node>
	<node lat="62.71893333159225" lon="11.744883326680954" id="-51351">
		<tag k="name" v="Bubekken" />
		<tag k="name:no" v="Bubekken" />
		<tag k="ssr:stedsnr" v="104619" />
		<tag k="waterway" v="stream" />
	</node>
	<node lat="62.73309999648252" lon="11.802366666209618" id="-51352">
		<tag k="name" v="Storfossen" />
		<tag k="name:no" v="Storfossen" />
		<tag k="natural" v="waterfall" />
		<tag k="ssr:stedsnr" v="104710" />
	</node>
	<node lat="62.725322221982076" lon="11.81268055108727" id="-51354">
		<tag k="name" v="Øver Notåstjønna" />
		<tag k="name:no" v="Øver Notåstjønna" />
		<tag k="natural" v="water" />
		<tag k="ssr:stedsnr" v="104714" />
	</node>
	<node lat="62.380441667646735" lon="11.56997221285443" id="-51368">
		<tag k="name" v="Litlkorssjøen" />
		<tag k="name:no" v="Litlkorssjøen" />
		<tag k="natural" v="water" />
		<tag k="ssr:stedsnr" v="133379" />
		<tag k="water" v="lake" />
	</node>
	<node lat="62.42504999740704" lon="11.706388888687666" id="-51370">
		<tag k="name" v="Stortjønna" />
		<tag k="name:no" v="Stortjønna" />
		<tag k="natural" v="water" />
		<tag k="ssr:stedsnr" v="132382" />
	</node>
	<node lat="62.43802499820271" lon="11.490730561368856" id="-51371">
		<tag k="name" v="Litlrøbekktjønnan" />
		<tag k="name:no" v="Litlrøbekktjønnan" />
		<tag k="natural" v="water" />
		<tag k="ssr:stedsnr" v="132384" />
	</node>
</osm>
