<?xml version="1.0" encoding="UTF-8"?>
<osm version="0.6" generator="osmapis">
	<node lat="62.64736946530931" lon="11.872413566701324" id="-84220">
		<tag k="amenity" v="place_of_worship" />
		<tag k="denomination" v="lutheran" />
		<tag k="name" v="Brekken kirke" />
		<tag k="religion" v="christian" />
		<tag k="ssr:stedsnr" v="254626" />
	</node>
	<node lat="62.60261388946336" lon="11.753600005556356" id="-84228">
		<tag k="amenity" v="community_centre" />
		<tag k="name" v="Samhold" />
		<tag k="old_name" v="Samholt" />
		<tag k="ssr:stedsnr" v="254634" />
	</node>
	<node lat="62.70042225396791" lon="11.799784257464811" id="-84240">
		<tag k="name" v="Bekkdalslaua" />
		<tag k="old_name" v="Bekkdalsløa" />
		<tag k="place" v="locality" />
		<tag k="ssr:stedsnr" v="142104" />
	</node>
	<node lat="62.64951022216254" lon="11.334122423031147" id="-84247">
		<tag k="name" v="Lergruvbakken gruve" />
		<tag k="ssr:stedsnr" v="142845" />
		<tag k="tourism" v="attraction" />
	</node>
	<node lat="62.5774027761434" lon="11.387744442618411" id="-84269">
		<tag k="amenity" v="place_of_worship" />
		<tag k="denomination" v="lutheran" />
		<tag k="name" v="Røros kirke" />
		<tag k="religion" v="christian" />
		<tag k="ssr:stedsnr" v="164070" />
	</node>
	<node lat="62.75190155012046" lon="11.928500695940906" id="-84443">
		<tag k="alt_name" v="Finnkoja" />
		<tag k="name" v="Finnkojan" />
		<tag k="place" v="locality" />
		<tag k="ssr:stedsnr" v="285004" />
	</node>
	<node lat="62.66963611159712" lon="11.282052787202247" id="-84724">
		<tag k="name" v="Oscars sjakt" />
		<tag k="ssr:stedsnr" v="346463" />
		<tag k="tourism" v="attraction" />
	</node>
	<node lat="62.62887222571952" lon="11.536483336961554" id="-84734">
		<tag k="name" v="Sjakta" />
		<tag k="ssr:stedsnr" v="346876" />
		<tag k="tourism" v="attraction" />
	</node>
	<node lat="62.57530555307014" lon="11.393613895475267" id="-84778">
		<tag k="name" v="Elden" />
		<tag k="place" v="locality" />
		<tag k="ssr:stedsnr" v="484691" />
	</node>
	<node lat="62.67287500241949" lon="11.429541673558123" id="-85025">
		<tag k="alt_name" v="Glåmos" />
		<tag k="amenity" v="place_of_worship" />
		<tag k="denomination" v="lutheran" />
		<tag k="name" v="Glåmos kirke" />
		<tag k="religion" v="christian" />
		<tag k="ssr:stedsnr" v="496965" />
	</node>
	<node lat="62.563180559009425" lon="11.780352780260134" id="-85161">
		<tag k="name" v="Wessel" />
		<tag k="place" v="locality" />
		<tag k="ssr:stedsnr" v="688699" />
	</node>
	<node lat="62.6292750021911" lon="11.378908341398928" id="-85200">
		<tag k="amenity" v="community_centre" />
		<tag k="name" v="Nyheim" />
		<tag k="ssr:stedsnr" v="566762" />
	</node>
	<node lat="62.61366944587824" lon="11.616630559257281" id="-85263">
		<tag k="name" v="Brenntorvhuset" />
		<tag k="place" v="locality" />
		<tag k="ssr:stedsnr" v="588669" />
	</node>
	<node lat="62.64614166748863" lon="11.864102773383733" id="-85438">
		<tag k="amenity" v="community_centre" />
		<tag k="name" v="Bjørkly" />
		<tag k="ssr:stedsnr" v="709664" />
	</node>
	<node lat="62.73031944607592" lon="11.327319445648401" id="-85977">
		<tag k="amenity" v="community_centre" />
		<tag k="name" v="Solvang" />
		<tag k="ssr:stedsnr" v="861804" />
	</node>
	<node lat="62.593102776886305" lon="11.390877778068644" id="-85989">
		<tag k="name" v="Isakgruva" />
		<tag k="ssr:stedsnr" v="930785" />
		<tag k="tourism" v="attraction" />
	</node>
	<node lat="62.55362582767446" lon="11.780619923785867" id="-85992">
		<tag k="name" v="Røtjønngruva" />
		<tag k="place" v="locality" />
		<tag k="ssr:stedsnr" v="931719" />
	</node>
	<node lat="62.67241389032688" lon="11.326586103962754" id="-86237">
		<tag k="name" v="Flotasjonen" />
		<tag k="ssr:stedsnr" v="20785" />
		<tag k="tourism" v="attraction" />
	</node>
	<node lat="62.55305000200052" lon="11.793027781339067" id="-86238">
		<tag k="name" v="Mynta" />
		<tag k="place" v="locality" />
		<tag k="ssr:stedsnr" v="20712" />
	</node>
	<node lat="62.57903889241085" lon="11.381122221044464" id="-86374">
		<tag k="amenity" v="community_centre" />
		<tag k="name" v="Storstuggu" />
		<tag k="ssr:stedsnr" v="59682" />
	</node>
	<node lat="62.553675002514524" lon="11.806708330340175" id="-86429">
		<tag k="name" v="Svinet" />
		<tag k="place" v="locality" />
		<tag k="ssr:stedsnr" v="81710" />
	</node>
	<node lat="62.57999166569442" lon="11.395936104371648" id="-86435">
		<tag k="name" v="Kvernhuset" />
		<tag k="ssr:stedsnr" v="99007" />
		<tag k="tourism" v="attraction" />
	</node>
	<node lat="62.60917778028734" lon="11.631372227602945" id="-86591">
		<tag k="alt_name" v="Hitterdal" />
		<tag k="amenity" v="place_of_worship" />
		<tag k="denomination" v="lutheran" />
		<tag k="name" v="Hitterdal kapell" />
		<tag k="religion" v="christian" />
		<tag k="ssr:stedsnr" v="133915" />
	</node>
	<node lat="62.555836111517756" lon="11.286769445347748" id="-86602">
		<tag k="alt_name" v="Folkvang forsamlingshus" />
		<tag k="amenity" v="community_centre" />
		<tag k="fixme" v="multiple name tags, choose one and add the other to alt_name" />
		<tag k="name" v="Galåen samfunnshus;Folkvang" />
		<tag k="ssr:stedsnr" v="141731" />
	</node>
	<node lat="62.576636112993256" lon="11.392552781192075" id="-86620">
		<tag k="name" v="Smelthytta" />
		<tag k="ssr:stedsnr" v="160008" />
		<tag k="tourism" v="attraction" />
	</node>
	<node lat="62.55511388817938" lon="11.824358327933" id="-86791">
		<tag k="name" v="Skardgruva" />
		<tag k="place" v="locality" />
		<tag k="ssr:stedsnr" v="194283" />
	</node>
	<node lat="62.60877500098302" lon="11.635936115186922" id="-86835">
		<tag k="amenity" v="community_centre" />
		<tag k="name" v="Solheim" />
		<tag k="ssr:stedsnr" v="202782" />
	</node>
	<node lat="62.61340000008007" lon="11.558847224355526" id="-87104">
		<tag k="name" v="Trønnesstollen" />
		<tag k="ssr:stedsnr" v="323767" />
		<tag k="tourism" v="attraction" />
	</node>
	<node lat="62.67391388918871" lon="11.530177775706685" id="-87105">
		<tag k="amenity" v="community_centre" />
		<tag k="name" v="Vikheim" />
		<tag k="ssr:stedsnr" v="323769" />
	</node>
	<node lat="62.56532500398506" lon="11.808838897303751" id="-87485">
		<tag k="name" v="Stensgruva" />
		<tag k="place" v="locality" />
		<tag k="ssr:stedsnr" v="445712" />
	</node>
	<node lat="62.630624963966355" lon="11.562556735307162" id="-87548">
		<tag k="name" v="Olavsgruva museum" />
		<tag k="ssr:stedsnr" v="505767" />
		<tag k="tourism" v="attraction" />
	</node>
	<node lat="62.57664444638758" lon="11.396169440509572" id="-87552">
		<tag k="name" v="Slagghaugen" />
		<tag k="ssr:stedsnr" v="524013" />
		<tag k="tourism" v="attraction" />
	</node>
	<node lat="62.69298227856948" lon="11.70068458063001" id="-87840">
		<tag k="name" v="Stormyrløa" />
		<tag k="place" v="locality" />
		<tag k="ssr:stedsnr" v="588700" />
	</node>
	<node lat="62.576697220300225" lon="11.39276667570026" id="-88121">
		<tag k="name" v="Malmplassen" />
		<tag k="ssr:stedsnr" v="766015" />
		<tag k="tourism" v="attraction" />
	</node>
	<node lat="62.655155550996504" lon="11.241872230685106" id="-88197">
		<tag k="name" v="Jaktbua" />
		<tag k="place" v="locality" />
		<tag k="ssr:stedsnr" v="771477" />
	</node>
	<node lat="62.50353091180755" lon="11.555781808184017" id="-88276">
		<tag k="amenity" v="community_centre" />
		<tag k="name" v="Rambu" />
		<tag k="ssr:stedsnr" v="809762" />
	</node>
	<node lat="62.57913055959017" lon="11.386791660787832" id="-88537">
		<tag k="amenity" v="place_of_worship" />
		<tag k="denomination" v="lutheran" />
		<tag k="name" v="Røros kapell" />
		<tag k="religion" v="christian" />
		<tag k="ssr:stedsnr" v="953582" />
	</node>
	<node lat="62.6289805567851" lon="11.553169452514043" id="-88559">
		<tag k="name" v="Qvintus" />
		<tag k="ssr:stedsnr" v="953878" />
		<tag k="tourism" v="attraction" />
	</node>
</osm>
