<?xml version="1.0" encoding="UTF-8"?>
<osm version="0.6" generator="osmapis">
	<node lat="62.665441664726714" lon="11.460922214449086" id="-48873">
		<tag k="name" v="Litllauslåtten" />
		<tag k="name:no" v="Litllauslåtten" />
		<tag k="place" v="locality" />
		<tag k="ssr:stedsnr" v="38123" />
	</node>
	<node lat="62.58353055840743" lon="11.40274722069938" id="-48874">
		<tag k="name" v="Sjømyra" />
		<tag k="name:no" v="Sjømyra" />
		<tag k="natural" v="wetland" />
		<tag k="ssr:stedsnr" v="38017" />
	</node>
	<node lat="62.55889444178092" lon="11.601958331523274" id="-48884">
		<tag k="landuse" v="quarry" />
		<tag k="name" v="Lossius" />
		<tag k="name:no" v="Lossius" />
		<tag k="ssr:stedsnr" v="41002" />
	</node>
	<node lat="62.62052500170394" lon="11.725263882154517" id="-48890">
		<tag k="name" v="Estenkåsa" />
		<tag k="name:no" v="Estenkåsa" />
		<tag k="place" v="locality" />
		<tag k="ssr:stedsnr" v="42306" />
	</node>
	<node lat="62.64877221803439" lon="11.770488895022536" id="-48891">
		<tag k="name" v="Langmyra" />
		<tag k="name:no" v="Langmyra" />
		<tag k="natural" v="wetland" />
		<tag k="ssr:stedsnr" v="42311" />
	</node>
	<node lat="62.59734722184953" lon="11.803447223139813" id="-48900">
		<tag k="name" v="Langmyra" />
		<tag k="name:no" v="Langmyra" />
		<tag k="natural" v="wetland" />
		<tag k="ssr:stedsnr" v="42279" />
	</node>
	<node lat="62.56965277720998" lon="11.86923334103437" id="-48903">
		<tag k="name" v="Storbekkmyran" />
		<tag k="name:no" v="Storbekkmyran" />
		<tag k="natural" v="wetland" />
		<tag k="ssr:stedsnr" v="42403" />
	</node>
	<node lat="62.658797218793225" lon="11.786997228812526" id="-48912">
		<tag k="name" v="Sjømyra" />
		<tag k="name:no" v="Sjømyra" />
		<tag k="place" v="locality" />
		<tag k="ssr:stedsnr" v="42483" />
	</node>
	<node lat="62.65829721804778" lon="11.788969451748452" id="-48913">
		<tag k="landuse" v="meadow" />
		<tag k="name" v="Litlstakkenget" />
		<tag k="name:no" v="Litlstakkenget" />
		<tag k="ssr:stedsnr" v="42486" />
	</node>
	<node lat="62.47607777991739" lon="11.618036111392756" id="-48920">
		<tag k="name" v="Litlmyra" />
		<tag k="name:no" v="Litlmyra" />
		<tag k="natural" v="wetland" />
		<tag k="ssr:stedsnr" v="42526" />
	</node>
	<node lat="62.47456667059509" lon="11.622683328277253" id="-48921">
		<tag k="name" v="Glitterbergskogen" />
		<tag k="name:no" v="Glitterbergskogen" />
		<tag k="place" v="locality" />
		<tag k="ssr:stedsnr" v="42530" />
	</node>
	<node lat="62.51881666235618" lon="11.493188895794571" id="-48923">
		<tag k="name" v="Moen" />
		<tag k="name:no" v="Moen" />
		<tag k="place" v="locality" />
		<tag k="ssr:stedsnr" v="42714" />
	</node>
	<node lat="62.51997499719484" lon="11.546597213113605" id="-48925">
		<tag k="name" v="Vassfloen" />
		<tag k="name:no" v="Vassfloen" />
		<tag k="natural" v="wetland" />
		<tag k="ssr:stedsnr" v="42823" />
	</node>
	<node lat="62.8047583345248" lon="11.847163879361183" id="-48935">
		<tag k="name" v="Storgrana" />
		<tag k="name:no" v="Storgrana" />
		<tag k="place" v="locality" />
		<tag k="ssr:stedsnr" v="43589" />
	</node>
	<node lat="62.715436112535514" lon="11.839952784590162" id="-48936">
		<tag k="name" v="Stormyra" />
		<tag k="name:no" v="Stormyra" />
		<tag k="natural" v="wetland" />
		<tag k="ssr:stedsnr" v="43704" />
	</node>
	<node lat="62.711702776637324" lon="11.739786115410489" id="-48938">
		<tag k="name" v="Katrinamyra" />
		<tag k="name:no" v="Katrinamyra" />
		<tag k="natural" v="wetland" />
		<tag k="ssr:stedsnr" v="43772" />
	</node>
	<node lat="62.69300277986666" lon="11.725783335325623" id="-48940">
		<tag k="name" v="Litlfloen" />
		<tag k="name:no" v="Litlfloen" />
		<tag k="natural" v="wetland" />
		<tag k="ssr:stedsnr" v="43627" />
	</node>
	<node lat="62.70381666549972" lon="11.719274993222395" id="-48942">
		<tag k="name" v="Tangmyran" />
		<tag k="name:no" v="Tangmyran" />
		<tag k="natural" v="wetland" />
		<tag k="ssr:stedsnr" v="43689" />
	</node>
	<node lat="62.69656110961065" lon="11.72641389647771" id="-48943">
		<tag k="name" v="Storfloen" />
		<tag k="name:no" v="Storfloen" />
		<tag k="natural" v="wetland" />
		<tag k="ssr:stedsnr" v="43694" />
	</node>
	<node lat="62.69612222667646" lon="11.72120277990277" id="-48944">
		<tag k="name" v="Stortorvan" />
		<tag k="name:no" v="Stortorvan" />
		<tag k="natural" v="wetland" />
		<tag k="ssr:stedsnr" v="43697" />
	</node>
	<node lat="62.781200004344015" lon="11.81010278540184" id="-48947">
		<tag k="name" v="Øya" />
		<tag k="name:no" v="Øya" />
		<tag k="place" v="locality" />
		<tag k="ssr:stedsnr" v="43810" />
	</node>
	<node lat="62.79064167041007" lon="11.817780554992021" id="-48948">
		<tag k="historic" v="shieling" />
		<tag k="name" v="Smedvollen" />
		<tag k="name:no" v="Smedvollen" />
		<tag k="place" v="locality" />
		<tag k="ssr:stedsnr" v="43815" />
	</node>
	<node lat="62.456950001374565" lon="11.876669444728968" id="-48949">
		<tag k="name" v="Kasperslåtten" />
		<tag k="name:no" v="Kasperslåtten" />
		<tag k="natural" v="wetland" />
		<tag k="ssr:stedsnr" v="60021" />
	</node>
	<node lat="62.42652382148632" lon="11.898388062376222" id="-48950">
		<tag k="name" v="Storstensmyra" />
		<tag k="name:no" v="Storstensmyra" />
		<tag k="natural" v="wetland" />
		<tag k="ssr:stedsnr" v="242019" />
	</node>
	<node lat="62.61966110901122" lon="11.737641661571324" id="-48960">
		<tag k="name" v="Storfloen" />
		<tag k="name:no" v="Storfloen" />
		<tag k="natural" v="wetland" />
		<tag k="ssr:stedsnr" v="72603" />
	</node>
	<node lat="62.53208889015366" lon="11.68823610682277" id="-48965">
		<tag k="name" v="Gjetbergsmyra" />
		<tag k="name:no" v="Gjetbergsmyra" />
		<tag k="natural" v="wetland" />
		<tag k="ssr:stedsnr" v="72575" />
	</node>
	<node lat="62.626852780838625" lon="11.418511113763044" id="-48980">
		<tag k="name" v="Dumpfloen" />
		<tag k="name:no" v="Dumpfloen" />
		<tag k="natural" v="wetland" />
		<tag k="ssr:stedsnr" v="99110" />
	</node>
	<node lat="62.70513888636019" lon="11.413144436286649" id="-48985">
		<tag k="name" v="Merkesmyra" />
		<tag k="name:no" v="Merkesmyra" />
		<tag k="natural" v="wetland" />
		<tag k="ssr:stedsnr" v="99224" />
	</node>
	<node lat="62.52837777778822" lon="11.350388894226699" id="-48986">
		<tag k="name" v="Høsmyra" />
		<tag k="name:no" v="Høsmyra" />
		<tag k="natural" v="wetland" />
		<tag k="ssr:stedsnr" v="99468" />
	</node>
	<node lat="62.538474998568105" lon="11.371388897221136" id="-48987">
		<tag k="name" v="Storfloen" />
		<tag k="name:no" v="Storfloen" />
		<tag k="natural" v="wetland" />
		<tag k="ssr:stedsnr" v="99470" />
	</node>
	<node lat="62.67091388808436" lon="11.707802783884638" id="-48988">
		<tag k="name" v="Korsmyra" />
		<tag k="name:no" v="Korsmyra" />
		<tag k="natural" v="wetland" />
		<tag k="ssr:stedsnr" v="99762" />
	</node>
	<node lat="62.657605559810044" lon="11.706677771275181" id="-48989">
		<tag k="name" v="Langmyran" />
		<tag k="name:no" v="Langmyran" />
		<tag k="natural" v="wetland" />
		<tag k="ssr:stedsnr" v="99763" />
	</node>
	<node lat="62.63786389107692" lon="11.765327772456555" id="-49003">
		<tag k="name" v="Volbandet" />
		<tag k="name:no" v="Volbandet" />
		<tag k="place" v="locality" />
		<tag k="ssr:stedsnr" v="103304" />
	</node>
	<node lat="62.69356388894638" lon="11.710197228758824" id="-49012">
		<tag k="name" v="Revhimyra" />
		<tag k="name:no" v="Revhimyra" />
		<tag k="natural" v="wetland" />
		<tag k="ssr:stedsnr" v="103333" />
	</node>
	<node lat="62.43599722207172" lon="11.861244453126478" id="-49023">
		<tag k="name" v="Rognrøsta" />
		<tag k="name:no" v="Rognrøsta" />
		<tag k="place" v="locality" />
		<tag k="ssr:stedsnr" v="103508" />
	</node>
	<node lat="62.561186114550736" lon="11.631969450786823" id="-49026">
		<tag k="name" v="Rauhåmmårslåttan" />
		<tag k="name:no" v="Rauhåmmårslåttan" />
		<tag k="place" v="locality" />
		<tag k="ssr:stedsnr" v="103527" />
	</node>
	<node lat="62.69443889073895" lon="11.300883334078867" id="-49030">
		<tag k="name" v="Naustermyra" />
		<tag k="name:no" v="Naustermyra" />
		<tag k="natural" v="wetland" />
		<tag k="ssr:stedsnr" v="103478" />
	</node>
	<node lat="62.70643055681622" lon="11.58205555596887" id="-49035">
		<tag k="historic" v="shieling" />
		<tag k="name" v="Kokksetervollen" />
		<tag k="name:no" v="Kokksetervollen" />
		<tag k="place" v="locality" />
		<tag k="ssr:stedsnr" v="103572" />
	</node>
	<node lat="62.69793611127189" lon="11.566669445850463" id="-49036">
		<tag k="name" v="Høgvollan" />
		<tag k="name:no" v="Høgvollan" />
		<tag k="place" v="locality" />
		<tag k="ssr:stedsnr" v="103576" />
	</node>
	<node lat="62.684630559599746" lon="11.530108339926981" id="-49038">
		<tag k="historic" v="shieling" />
		<tag k="name" v="Lisbetvollen" />
		<tag k="name:no" v="Lisbetvollen" />
		<tag k="place" v="locality" />
		<tag k="ssr:stedsnr" v="103579" />
	</node>
	<node lat="62.59856388535391" lon="11.658425008549372" id="-49040">
		<tag k="name" v="Jo-Langen Stakkmyra" />
		<tag k="name:no" v="Jo-Langen Stakkmyra" />
		<tag k="natural" v="wetland" />
		<tag k="ssr:stedsnr" v="103584" />
	</node>
	<node lat="62.641680552630405" lon="11.697413885781712" id="-49043">
		<tag k="landuse" v="meadow" />
		<tag k="name" v="Holmlauenget" />
		<tag k="name:no" v="Holmlauenget" />
		<tag k="ssr:stedsnr" v="103724" />
	</node>
	<node lat="62.494288891773785" lon="11.58600833657329" id="-49044">
		<tag k="name" v="Grytmyra" />
		<tag k="name:no" v="Grytmyra" />
		<tag k="natural" v="wetland" />
		<tag k="ssr:stedsnr" v="103794" />
	</node>
	<node lat="62.4596722228109" lon="11.528811112365938" id="-49045">
		<tag k="name" v="Småmyran" />
		<tag k="name:no" v="Småmyran" />
		<tag k="natural" v="wetland" />
		<tag k="ssr:stedsnr" v="103798" />
	</node>
	<node lat="62.55097500039891" lon="11.515519437049178" id="-49052">
		<tag k="name" v="Vassbekkmyra" />
		<tag k="name:no" v="Vassbekkmyra" />
		<tag k="natural" v="wetland" />
		<tag k="ssr:stedsnr" v="104226" />
	</node>
	<node lat="62.68664166922852" lon="11.727327773875487" id="-49057">
		<tag k="name" v="Kåsløa" />
		<tag k="name:no" v="Kåsløa" />
		<tag k="place" v="locality" />
		<tag k="ssr:stedsnr" v="104694" />
	</node>
	<node lat="62.79627778070407" lon="11.841450002934806" id="-49058">
		<tag k="name" v="Halsan" />
		<tag k="name:no" v="Halsan" />
		<tag k="place" v="locality" />
		<tag k="ssr:stedsnr" v="104805" />
	</node>
	<node lat="62.70961666413956" lon="11.866116670115478" id="-49059">
		<tag k="name" v="Langrya" />
		<tag k="name:no" v="Langrya" />
		<tag k="place" v="locality" />
		<tag k="ssr:stedsnr" v="104827" />
	</node>
	<node lat="62.72523611185837" lon="11.792263882781583" id="-49060">
		<tag k="name" v="Hopslåtten" />
		<tag k="name:no" v="Hopslåtten" />
		<tag k="place" v="locality" />
		<tag k="ssr:stedsnr" v="104730" />
	</node>
	<node lat="62.627283334057" lon="11.518030564452408" id="-49061">
		<tag k="landuse" v="quarry" />
		<tag k="name" v="Storwartz gruve" />
		<tag k="name:no" v="Storwartz gruve" />
		<tag k="old_name:no" v="Storwartz" />
		<tag k="ssr:stedsnr" v="110694" />
	</node>
	<node lat="62.538411115059624" lon="11.374347219717762" id="-49075">
		<tag k="name" v="Storfloen" />
		<tag k="name:no" v="Storfloen" />
		<tag k="natural" v="wetland" />
		<tag k="ssr:stedsnr" v="132609" />
	</node>
	<node lat="62.63080693276124" lon="11.563872952393304" id="-49079">
		<tag k="landuse" v="quarry" />
		<tag k="name" v="Olavsgruva" />
		<tag k="name:no" v="Olavsgruva" />
		<tag k="ssr:stedsnr" v="132873" />
	</node>
	<node lat="62.47871666898157" lon="11.97485000142659" id="-49081">
		<tag k="name" v="Gammelmyra" />
		<tag k="name:no" v="Gammelmyra" />
		<tag k="natural" v="wetland" />
		<tag k="ssr:stedsnr" v="133519" />
	</node>
	<node lat="62.46664444727426" lon="11.542024994395756" id="-49094">
		<tag k="name" v="Kvernbekkmyran" />
		<tag k="name:no" v="Kvernbekkmyran" />
		<tag k="natural" v="wetland" />
		<tag k="ssr:stedsnr" v="254329" />
	</node>
	<node lat="62.41166666347795" lon="12.03642777323985" id="-49116">
		<tag k="name" v="Stormyra" />
		<tag k="name:no" v="Stormyra" />
		<tag k="natural" v="wetland" />
		<tag k="ssr:stedsnr" v="254580" />
	</node>
	<node lat="62.689805553247425" lon="11.242800007307768" id="-49140">
		<tag k="name" v="Svartdika" />
		<tag k="name:no" v="Svartdika" />
		<tag k="natural" v="wetland" />
		<tag k="ssr:stedsnr" v="142831" />
	</node>
	<node lat="62.38969999772374" lon="12.038424995833436" id="-49159">
		<tag k="name" v="Femundsmarka" />
		<tag k="name:no" v="Femundsmarka" />
		<tag k="place" v="locality" />
		<tag k="ssr:stedsnr" v="163371" />
	</node>
	<node lat="62.67416110986427" lon="11.710741662268022" id="-49160">
		<tag k="name" v="Gammelmyra" />
		<tag k="name:no" v="Gammelmyra" />
		<tag k="natural" v="wetland" />
		<tag k="ssr:stedsnr" v="163671" />
	</node>
	<node lat="62.68938610691527" lon="11.713280553238585" id="-49161">
		<tag k="name" v="Kåsin" />
		<tag k="name:no" v="Kåsin" />
		<tag k="place" v="locality" />
		<tag k="ssr:stedsnr" v="163678" />
	</node>
	<node lat="62.614955554745414" lon="11.448677777920613" id="-49166">
		<tag k="name" v="Erlimyran" />
		<tag k="name:no" v="Erlimyran" />
		<tag k="natural" v="wetland" />
		<tag k="ssr:stedsnr" v="164079" />
	</node>
	<node lat="62.58959999852465" lon="11.724316661307528" id="-49167">
		<tag k="historic" v="shieling" />
		<tag k="name" v="Klettvollen" />
		<tag k="name:no" v="Klettvollen" />
		<tag k="place" v="locality" />
		<tag k="ssr:stedsnr" v="164318" />
	</node>
	<node lat="62.58013333526889" lon="11.33583888218856" id="-49177">
		<tag k="name" v="Sørfloan" />
		<tag k="name:no" v="Sørfloan" />
		<tag k="natural" v="wetland" />
		<tag k="ssr:stedsnr" v="164411" />
	</node>
	<node lat="62.609513887870484" lon="11.320300002349645" id="-49182">
		<tag k="name" v="Tømmermyrbrottet" />
		<tag k="name:no" v="Tømmermyrbrottet" />
		<tag k="place" v="locality" />
		<tag k="ssr:stedsnr" v="164475" />
	</node>
	<node lat="62.73769999825145" lon="11.80983056400571" id="-49184">
		<tag k="name" v="Renholtmyra" />
		<tag k="name:no" v="Renholtmyra" />
		<tag k="natural" v="wetland" />
		<tag k="ssr:stedsnr" v="164611" />
	</node>
	<node lat="62.795380556906714" lon="11.87806667539394" id="-49185">
		<tag k="name" v="Kløftmyra" />
		<tag k="name:no" v="Kløftmyra" />
		<tag k="natural" v="wetland" />
		<tag k="ssr:stedsnr" v="164660" />
	</node>
	<node lat="62.598797226412735" lon="11.694002783575723" id="-49186">
		<tag k="name" v="Rundengen" />
		<tag k="name:no" v="Rundengen" />
		<tag k="place" v="locality" />
		<tag k="ssr:stedsnr" v="164662" />
	</node>
	<node lat="62.682983336109956" lon="11.892247231574684" id="-49190">
		<tag k="historic" v="shieling" />
		<tag k="name" v="Hyddvollen" />
		<tag k="name:no" v="Hyddvollen" />
		<tag k="place" v="locality" />
		<tag k="ssr:stedsnr" v="164859" />
	</node>
	<node lat="62.62716389133448" lon="11.711280561315695" id="-49198">
		<tag k="name" v="Kjellsbua" />
		<tag k="name:no" v="Kjellsbua" />
		<tag k="place" v="locality" />
		<tag k="ssr:stedsnr" v="164725" />
	</node>
	<node lat="62.715283335333005" lon="11.88408332995695" id="-49206">
		<tag k="name" v="Jo Mortensaholet" />
		<tag k="name:no" v="Jo Mortensaholet" />
		<tag k="place" v="locality" />
		<tag k="ssr:stedsnr" v="165596" />
	</node>
	<node lat="62.76860555334405" lon="11.83145277942556" id="-49209">
		<tag k="name" v="Eldstadbakken" />
		<tag k="name:no" v="Eldstadbakken" />
		<tag k="place" v="locality" />
		<tag k="ssr:stedsnr" v="165825" />
	</node>
	<node lat="62.804783336917474" lon="11.82797222873484" id="-49210">
		<tag k="name" v="Gammellautomta" />
		<tag k="name:no" v="Gammellautomta" />
		<tag k="place" v="locality" />
		<tag k="ssr:stedsnr" v="165859" />
	</node>
	<node lat="62.71084166483847" lon="11.791469453803993" id="-49214">
		<tag k="name" v="Pipmyran" />
		<tag k="name:no" v="Pipmyran" />
		<tag k="natural" v="wetland" />
		<tag k="ssr:stedsnr" v="165762" />
	</node>
	<node lat="62.57243333539298" lon="11.405994448200962" id="-49237">
		<tag k="name" v="Østerhagan" />
		<tag k="name:no" v="Østerhagan" />
		<tag k="place" v="locality" />
		<tag k="ssr:stedsnr" v="220026" />
	</node>
	<node lat="62.65451667050081" lon="11.704683339560775" id="-49240">
		<tag k="landuse" v="meadow" />
		<tag k="name" v="Dikelauenget" />
		<tag k="name:no" v="Dikelauenget" />
		<tag k="ssr:stedsnr" v="220782" />
	</node>
	<node lat="62.64229166237917" lon="11.380366659605732" id="-49242">
		<tag k="name" v="Massingsmedmyra" />
		<tag k="name:no" v="Massingsmedmyra" />
		<tag k="natural" v="wetland" />
		<tag k="ssr:stedsnr" v="221092" />
	</node>
	<node lat="62.44777777673639" lon="11.553999992173496" id="-49254">
		<tag k="name" v="Slåttmyra" />
		<tag k="name:no" v="Slåttmyra" />
		<tag k="natural" v="wetland" />
		<tag k="ssr:stedsnr" v="224244" />
	</node>
	<node lat="62.68334166518617" lon="11.630897223827123" id="-49263">
		<tag k="name" v="Haukmyran" />
		<tag k="name:no" v="Haukmyran" />
		<tag k="natural" v="wetland" />
		<tag k="ssr:stedsnr" v="224698" />
	</node>
	<node lat="62.63726110913845" lon="11.587886110770137" id="-49267">
		<tag k="historic" v="shieling" />
		<tag k="name" v="Lauvvollen" />
		<tag k="name:no" v="Lauvvollen" />
		<tag k="place" v="locality" />
		<tag k="ssr:stedsnr" v="224892" />
	</node>
	<node lat="62.61034166867922" lon="11.68547777394358" id="-49274">
		<tag k="name" v="Kjellsmyra" />
		<tag k="name:no" v="Kjellsmyra" />
		<tag k="natural" v="wetland" />
		<tag k="ssr:stedsnr" v="225706" />
	</node>
	<node lat="62.70608055544945" lon="11.719155564706996" id="-49275">
		<tag k="name" v="Jonasslåtten" />
		<tag k="name:no" v="Jonasslåtten" />
		<tag k="place" v="locality" />
		<tag k="ssr:stedsnr" v="225708" />
	</node>
	<node lat="62.699083329439866" lon="11.730074996269838" id="-49276">
		<tag k="name" v="Litlfloen" />
		<tag k="name:no" v="Litlfloen" />
		<tag k="natural" v="wetland" />
		<tag k="ssr:stedsnr" v="225709" />
	</node>
	<node lat="62.718038888356126" lon="11.796244439877837" id="-49277">
		<tag k="name" v="Vargholet" />
		<tag k="name:no" v="Vargholet" />
		<tag k="place" v="locality" />
		<tag k="ssr:stedsnr" v="225735" />
	</node>
	<node lat="62.586836112625754" lon="11.655563884578662" id="-49280">
		<tag k="historic" v="shieling" />
		<tag k="name" v="Litlvollen" />
		<tag k="name:no" v="Litlvollen" />
		<tag k="place" v="locality" />
		<tag k="ssr:stedsnr" v="225613" />
	</node>
	<node lat="62.747005556834786" lon="11.833966662050022" id="-49281">
		<tag k="name" v="Storfinnskjegg-grubba" />
		<tag k="name:no" v="Storfinnskjegg-grubba" />
		<tag k="place" v="locality" />
		<tag k="ssr:stedsnr" v="225621" />
	</node>
	<node lat="62.72257222000081" lon="11.862883338078813" id="-49283">
		<tag k="name" v="Nordkåsa" />
		<tag k="name:no" v="Nordkåsa" />
		<tag k="place" v="locality" />
		<tag k="ssr:stedsnr" v="225655" />
	</node>
	<node lat="62.64814999735422" lon="11.604311120547598" id="-49284">
		<tag k="name" v="Lomtjønnmyran" />
		<tag k="name:no" v="Lomtjønnmyran" />
		<tag k="natural" v="wetland" />
		<tag k="ssr:stedsnr" v="225659" />
	</node>
	<node lat="62.68471389045563" lon="11.819188890409627" id="-49285">
		<tag k="name" v="Finnskjeggryan" />
		<tag k="name:no" v="Finnskjeggryan" />
		<tag k="place" v="locality" />
		<tag k="ssr:stedsnr" v="225660" />
	</node>
	<node lat="62.62124166879164" lon="11.697327782679011" id="-49286">
		<tag k="historic" v="shieling" />
		<tag k="name" v="Setervollen" />
		<tag k="name:no" v="Setervollen" />
		<tag k="place" v="locality" />
		<tag k="ssr:stedsnr" v="225693" />
	</node>
	<node lat="62.77213610966503" lon="11.808905550138613" id="-49289">
		<tag k="name" v="Granmyra" />
		<tag k="name:no" v="Granmyra" />
		<tag k="natural" v="wetland" />
		<tag k="ssr:stedsnr" v="225785" />
	</node>
	<node lat="62.55324999922286" lon="11.793650005304736" id="-49299">
		<tag k="landuse" v="quarry" />
		<tag k="name" v="Feragen kromgruvefelt" />
		<tag k="name:no" v="Feragen kromgruvefelt" />
		<tag k="ssr:stedsnr" v="254286" />
	</node>
	<node lat="62.68135832989598" lon="11.415516663043041" id="-49331">
		<tag k="name" v="Jenslautomta" />
		<tag k="name:no" v="Jenslautomta" />
		<tag k="place" v="locality" />
		<tag k="ssr:stedsnr" v="281227" />
	</node>
	<node lat="62.7170666677074" lon="11.389927772499036" id="-49339">
		<tag k="name" v="Kjølen" />
		<tag k="name:no" v="Kjølen" />
		<tag k="natural" v="wetland" />
		<tag k="ssr:stedsnr" v="285232" />
	</node>
	<node lat="62.62342778085471" lon="11.284377783383452" id="-49346">
		<tag k="name" v="Svartåskoja" />
		<tag k="name:no" v="Svartåskoja" />
		<tag k="place" v="locality" />
		<tag k="ssr:stedsnr" v="285410" />
	</node>
	<node lat="62.63789166653063" lon="11.951180564796035" id="-49372">
		<tag k="name" v="Rundmyra" />
		<tag k="name:no" v="Rundmyra" />
		<tag k="natural" v="wetland" />
		<tag k="ssr:stedsnr" v="285432" />
	</node>
	<node lat="62.57733333462971" lon="11.606219446051396" id="-49373">
		<tag k="name" v="Storlaua" />
		<tag k="name:no" v="Storlaua" />
		<tag k="place" v="locality" />
		<tag k="ssr:stedsnr" v="285604" />
	</node>
	<node lat="62.580816667404484" lon="11.671661106424553" id="-49376">
		<tag k="name" v="Greskkåsa" />
		<tag k="name:no" v="Greskkåsa" />
		<tag k="place" v="locality" />
		<tag k="ssr:stedsnr" v="285615" />
	</node>
	<node lat="62.63971389091469" lon="11.643344445727301" id="-49381">
		<tag k="name" v="Stortallen" />
		<tag k="name:no" v="Stortallen" />
		<tag k="place" v="locality" />
		<tag k="ssr:stedsnr" v="285642" />
	</node>
	<node lat="62.647730554615386" lon="11.688291673184139" id="-49382">
		<tag k="landuse" v="meadow" />
		<tag k="name" v="Gubblauenget" />
		<tag k="name:no" v="Gubblauenget" />
		<tag k="ssr:stedsnr" v="285721" />
	</node>
	<node lat="62.641977775792085" lon="11.571899990446736" id="-49389">
		<tag k="name" v="Stormyra" />
		<tag k="name:no" v="Stormyra" />
		<tag k="natural" v="wetland" />
		<tag k="ssr:stedsnr" v="285880" />
	</node>
	<node lat="62.57443611025516" lon="11.475525008309193" id="-49392">
		<tag k="name" v="Tovhaugmyran" />
		<tag k="name:no" v="Tovhaugmyran" />
		<tag k="natural" v="wetland" />
		<tag k="ssr:stedsnr" v="285893" />
	</node>
	<node lat="62.741722221853145" lon="11.823497218758376" id="-49398">
		<tag k="name" v="Grubbvollen" />
		<tag k="name:no" v="Grubbvollen" />
		<tag k="place" v="locality" />
		<tag k="ssr:stedsnr" v="286558" />
	</node>
	<node lat="62.675983336267514" lon="11.794661103912393" id="-49400">
		<tag k="name" v="Granhollaua" />
		<tag k="name:no" v="Granhollaua" />
		<tag k="place" v="locality" />
		<tag k="ssr:stedsnr" v="286584" />
	</node>
	<node lat="62.79136944153452" lon="11.86278055770269" id="-49401">
		<tag k="name" v="Perråsmyra" />
		<tag k="name:no" v="Perråsmyra" />
		<tag k="natural" v="wetland" />
		<tag k="ssr:stedsnr" v="286609" />
	</node>
	<node lat="62.69084722447682" lon="11.76936111218626" id="-49403">
		<tag k="name" v="Skoglund" />
		<tag k="name:no" v="Skoglund" />
		<tag k="place" v="locality" />
		<tag k="ssr:stedsnr" v="286688" />
	</node>
	<node lat="62.685111113143904" lon="11.758750008793228" id="-49405">
		<tag k="name" v="Øvja" />
		<tag k="name:no" v="Øvja" />
		<tag k="place" v="locality" />
		<tag k="ssr:stedsnr" v="286696" />
	</node>
	<node lat="62.671797219161526" lon="11.743608326540482" id="-49406">
		<tag k="name" v="Milstenen" />
		<tag k="name:no" v="Milstenen" />
		<tag k="place" v="locality" />
		<tag k="ssr:stedsnr" v="286698" />
	</node>
	<node lat="62.79617499570575" lon="11.829569450685367" id="-49409">
		<tag k="name" v="Nilskåsa" />
		<tag k="name:no" v="Nilskåsa" />
		<tag k="place" v="locality" />
		<tag k="ssr:stedsnr" v="286827" />
	</node>
	<node lat="62.79381944738182" lon="11.83702499950154" id="-49410">
		<tag k="name" v="Tydalskåsa" />
		<tag k="name:no" v="Tydalskåsa" />
		<tag k="place" v="locality" />
		<tag k="ssr:stedsnr" v="286829" />
	</node>
	<node lat="62.69985833614404" lon="11.735883327080531" id="-49414">
		<tag k="name" v="Sødal" />
		<tag k="name:no" v="Sødal" />
		<tag k="place" v="locality" />
		<tag k="ssr:stedsnr" v="286727" />
	</node>
	<node lat="62.72534722579926" lon="11.796763897811855" id="-49415">
		<tag k="name" v="Stormyra" />
		<tag k="name:no" v="Stormyra" />
		<tag k="natural" v="wetland" />
		<tag k="ssr:stedsnr" v="286738" />
	</node>
	<node lat="62.71197499893796" lon="11.799405549639328" id="-49416">
		<tag k="name" v="Gammelmyra" />
		<tag k="name:no" v="Gammelmyra" />
		<tag k="natural" v="wetland" />
		<tag k="ssr:stedsnr" v="286786" />
	</node>
	<node lat="62.69491389189247" lon="11.820777769516186" id="-49418">
		<tag k="name" v="Kartfloen" />
		<tag k="name:no" v="Kartfloen" />
		<tag k="natural" v="wetland" />
		<tag k="ssr:stedsnr" v="286797" />
	</node>
	<node lat="62.772697221321614" lon="11.816350008934366" id="-49419">
		<tag k="name" v="Litljordet" />
		<tag k="name:no" v="Litljordet" />
		<tag k="place" v="locality" />
		<tag k="ssr:stedsnr" v="286800" />
	</node>
	<node lat="62.68238888702433" lon="11.41419443517687" id="-49429">
		<tag k="name" v="Gjeltmyra" />
		<tag k="name:no" v="Gjeltmyra" />
		<tag k="natural" v="wetland" />
		<tag k="ssr:stedsnr" v="463191" />
	</node>
	<node lat="62.6968083347793" lon="11.382263886425553" id="-49430">
		<tag k="landuse" v="meadow" />
		<tag k="name" v="Litlstakkenget" />
		<tag k="name:no" v="Litlstakkenget" />
		<tag k="ssr:stedsnr" v="463196" />
	</node>
	<node lat="62.666530551339065" lon="11.689449996103596" id="-49432">
		<tag k="name" v="Dreivollen" />
		<tag k="name:no" v="Dreivollen" />
		<tag k="place" v="locality" />
		<tag k="ssr:stedsnr" v="463724" />
	</node>
	<node lat="62.63068611471744" lon="11.760222232194938" id="-49454">
		<tag k="name" v="Bustmyra" />
		<tag k="name:no" v="Bustmyra" />
		<tag k="natural" v="wetland" />
		<tag k="ssr:stedsnr" v="467325" />
	</node>
	<node lat="62.63668055937265" lon="11.749455564032617" id="-49455">
		<tag k="historic" v="shieling" />
		<tag k="name" v="Kåslauvollen" />
		<tag k="name:no" v="Kåslauvollen" />
		<tag k="place" v="locality" />
		<tag k="ssr:stedsnr" v="467326" />
	</node>
	<node lat="62.41807499635" lon="12.049494443625232" id="-49456">
		<tag k="name" v="Langmyra" />
		<tag k="name:no" v="Langmyra" />
		<tag k="natural" v="wetland" />
		<tag k="ssr:stedsnr" v="315510" />
	</node>
	<node lat="62.6406611145688" lon="11.583266673624388" id="-49462">
		<tag k="name" v="Grønflekken" />
		<tag k="name:no" v="Grønflekken" />
		<tag k="place" v="locality" />
		<tag k="ssr:stedsnr" v="467221" />
	</node>
	<node lat="62.650044446190236" lon="11.586874991854877" id="-49463">
		<tag k="name" v="Storfloen" />
		<tag k="name:no" v="Storfloen" />
		<tag k="natural" v="wetland" />
		<tag k="ssr:stedsnr" v="467222" />
	</node>
	<node lat="62.64011944030086" lon="12.057630562079396" id="-49472">
		<tag k="historic" v="shieling" />
		<tag k="name" v="Gamle Elvavollen" />
		<tag k="name:no" v="Gamle Elvavollen" />
		<tag k="place" v="locality" />
		<tag k="ssr:stedsnr" v="467297" />
	</node>
	<node lat="62.644280552184036" lon="11.743127787140512" id="-49483">
		<tag k="name" v="Volbumyran" />
		<tag k="name:no" v="Volbumyran" />
		<tag k="natural" v="wetland" />
		<tag k="ssr:stedsnr" v="467332" />
	</node>
	<node lat="62.65082499700507" lon="11.24111389371592" id="-49492">
		<tag k="name" v="Lofloen" />
		<tag k="name:no" v="Lofloen" />
		<tag k="natural" v="wetland" />
		<tag k="ssr:stedsnr" v="467447" />
	</node>
	<node lat="62.63838889149421" lon="11.96279999222356" id="-49493">
		<tag k="name" v="Bustensbråttet" />
		<tag k="name:no" v="Bustensbråttet" />
		<tag k="place" v="locality" />
		<tag k="ssr:stedsnr" v="467450" />
	</node>
	<node lat="62.63954166919885" lon="11.951422214208256" id="-49495">
		<tag k="name" v="Granmyra" />
		<tag k="name:no" v="Granmyra" />
		<tag k="natural" v="wetland" />
		<tag k="ssr:stedsnr" v="467457" />
	</node>
	<node lat="62.693119442697245" lon="11.253808327331981" id="-49497">
		<tag k="name" v="Svartdiket" />
		<tag k="name:no" v="Svartdiket" />
		<tag k="place" v="locality" />
		<tag k="ssr:stedsnr" v="467473" />
	</node>
	<node lat="62.638747218381674" lon="11.727788881133574" id="-49500">
		<tag k="name" v="Bjørsa" />
		<tag k="name:no" v="Bjørsa" />
		<tag k="place" v="locality" />
		<tag k="ssr:stedsnr" v="467478" />
	</node>
	<node lat="62.749708334487806" lon="11.81424445337908" id="-49504">
		<tag k="name" v="Rundmyra" />
		<tag k="name:no" v="Rundmyra" />
		<tag k="natural" v="wetland" />
		<tag k="ssr:stedsnr" v="467549" />
	</node>
	<node lat="62.7209611107089" lon="11.860377774115012" id="-49506">
		<tag k="name" v="Vinkelen" />
		<tag k="name:no" v="Vinkelen" />
		<tag k="place" v="locality" />
		<tag k="ssr:stedsnr" v="467628" />
	</node>
	<node lat="62.60545278092064" lon="11.596441668552297" id="-49512">
		<tag k="name" v="Gråbenmyran" />
		<tag k="name:no" v="Gråbenmyran" />
		<tag k="natural" v="wetland" />
		<tag k="ssr:stedsnr" v="467601" />
	</node>
	<node lat="62.7264916652962" lon="11.849836114344898" id="-49513">
		<tag k="name" v="Åbborsjøråa" />
		<tag k="name:no" v="Åbborsjøråa" />
		<tag k="place" v="locality" />
		<tag k="ssr:stedsnr" v="467633" />
	</node>
	<node lat="62.72561388880818" lon="11.863000006698561" id="-49515">
		<tag k="name" v="Merramyra" />
		<tag k="name:no" v="Merramyra" />
		<tag k="natural" v="wetland" />
		<tag k="ssr:stedsnr" v="467639" />
	</node>
	<node lat="62.58120555580406" lon="11.668308323914363" id="-49516">
		<tag k="name" v="Kringla" />
		<tag k="name:no" v="Kringla" />
		<tag k="place" v="locality" />
		<tag k="ssr:stedsnr" v="467643" />
	</node>
	<node lat="62.501650002804794" lon="11.486999999899153" id="-49520">
		<tag k="name" v="Brynkåsfloan" />
		<tag k="name:no" v="Brynkåsfloan" />
		<tag k="natural" v="wetland" />
		<tag k="ssr:stedsnr" v="467787" />
	</node>
	<node lat="62.56632222287381" lon="11.472694442300392" id="-49526">
		<tag k="landuse" v="quarry" />
		<tag k="name" v="Skåkåsgruva" />
		<tag k="name:no" v="Skåkåsgruva" />
		<tag k="ssr:stedsnr" v="467855" />
	</node>
	<node lat="62.689097220484435" lon="11.50992222621755" id="-49533">
		<tag k="name" v="Bekklaumyran" />
		<tag k="name:no" v="Bekklaumyran" />
		<tag k="natural" v="wetland" />
		<tag k="ssr:stedsnr" v="467941" />
	</node>
	<node lat="62.68124167089088" lon="11.815799997947085" id="-49539">
		<tag k="name" v="Oppå myrom" />
		<tag k="name:no" v="Oppå myrom" />
		<tag k="natural" v="wetland" />
		<tag k="ssr:stedsnr" v="468629" />
	</node>
	<node lat="62.71277777968745" lon="11.784716661740353" id="-49542">
		<tag k="name" v="Stenkåsa" />
		<tag k="name:no" v="Stenkåsa" />
		<tag k="place" v="locality" />
		<tag k="ssr:stedsnr" v="468730" />
	</node>
	<node lat="62.71441666419957" lon="11.737827777495966" id="-49545">
		<tag k="name" v="Rypmyra" />
		<tag k="name:no" v="Rypmyra" />
		<tag k="natural" v="wetland" />
		<tag k="ssr:stedsnr" v="468751" />
	</node>
	<node lat="62.7067972260258" lon="11.750366671868877" id="-49546">
		<tag k="name" v="Vibotnet" />
		<tag k="name:no" v="Vibotnet" />
		<tag k="place" v="locality" />
		<tag k="ssr:stedsnr" v="468752" />
	</node>
	<node lat="62.697641668003456" lon="11.750711118772646" id="-49547">
		<tag k="name" v="Veikåsa" />
		<tag k="name:no" v="Veikåsa" />
		<tag k="place" v="locality" />
		<tag k="ssr:stedsnr" v="468759" />
	</node>
	<node lat="62.70029444730369" lon="11.855030565192763" id="-49553">
		<tag k="name" v="Stormyra" />
		<tag k="name:no" v="Stormyra" />
		<tag k="natural" v="wetland" />
		<tag k="ssr:stedsnr" v="468837" />
	</node>
	<node lat="62.65324722461472" lon="11.688394441449118" id="-49562">
		<tag k="name" v="Utgjerdet" />
		<tag k="name:no" v="Utgjerdet" />
		<tag k="place" v="locality" />
		<tag k="ssr:stedsnr" v="341216" />
	</node>
	<node lat="62.64267221824524" lon="11.868683334802872" id="-49564">
		<tag k="name" v="Abeljordet" />
		<tag k="name:no" v="Abeljordet" />
		<tag k="place" v="locality" />
		<tag k="ssr:stedsnr" v="342045" />
	</node>
	<node lat="62.74554444799291" lon="11.91883055231591" id="-49568">
		<tag k="name" v="Snøfonna" />
		<tag k="name:no" v="Snøfonna" />
		<tag k="place" v="locality" />
		<tag k="ssr:stedsnr" v="345009" />
	</node>
	<node lat="62.594300003349254" lon="11.754513880359319" id="-49575">
		<tag k="name" v="Storgrusmæla" />
		<tag k="name:no" v="Storgrusmæla" />
		<tag k="place" v="locality" />
		<tag k="ssr:stedsnr" v="345271" />
	</node>
	<node lat="62.59145555968965" lon="11.827330561329438" id="-49576">
		<tag k="name" v="Stor-Ingridstenen" />
		<tag k="name:no" v="Stor-Ingridstenen" />
		<tag k="natural" v="stone" />
		<tag k="ssr:stedsnr" v="345275" />
	</node>
	<node lat="62.70144722003075" lon="11.681038889572537" id="-49581">
		<tag k="name" v="Latkristiansmyra" />
		<tag k="name:no" v="Latkristiansmyra" />
		<tag k="natural" v="wetland" />
		<tag k="ssr:stedsnr" v="345325" />
	</node>
	<node lat="62.62365555942873" lon="11.171197231544374" id="-49592">
		<tag k="name" v="Storfloen" />
		<tag k="name:no" v="Storfloen" />
		<tag k="natural" v="wetland" />
		<tag k="ssr:stedsnr" v="346312" />
	</node>
	<node lat="62.577769441006126" lon="11.332966658061736" id="-49594">
		<tag k="name" v="Monsfloen" />
		<tag k="name:no" v="Monsfloen" />
		<tag k="place" v="locality" />
		<tag k="ssr:stedsnr" v="346364" />
	</node>
	<node lat="62.62087500293447" lon="11.234161111764932" id="-49598">
		<tag k="name" v="Kvitstenen" />
		<tag k="name:no" v="Kvitstenen" />
		<tag k="natural" v="stone" />
		<tag k="ssr:stedsnr" v="346454" />
	</node>
	<node lat="62.62389444152899" lon="11.60168055960032" id="-49603">
		<tag k="name" v="Stormyra" />
		<tag k="name:no" v="Stormyra" />
		<tag k="natural" v="wetland" />
		<tag k="ssr:stedsnr" v="346665" />
	</node>
	<node lat="62.81709166452395" lon="11.806525006646233" id="-49607">
		<tag k="name" v="Nykåsa" />
		<tag k="name:no" v="Nykåsa" />
		<tag k="place" v="locality" />
		<tag k="ssr:stedsnr" v="346809" />
	</node>
	<node lat="62.62005555945974" lon="11.587130557462277" id="-49611">
		<tag k="name" v="Brynhildmyra" />
		<tag k="name:no" v="Brynhildmyra" />
		<tag k="natural" v="wetland" />
		<tag k="ssr:stedsnr" v="346918" />
	</node>
	<node lat="62.719750001625805" lon="11.749525002310577" id="-49613">
		<tag k="name" v="Bumyran" />
		<tag k="name:no" v="Bumyran" />
		<tag k="natural" v="wetland" />
		<tag k="ssr:stedsnr" v="347624" />
	</node>
	<node lat="62.73190555281948" lon="11.81757777108371" id="-49614">
		<tag k="name" v="Skjevmyra" />
		<tag k="name:no" v="Skjevmyra" />
		<tag k="natural" v="wetland" />
		<tag k="ssr:stedsnr" v="347710" />
	</node>
	<node lat="62.71214999952112" lon="11.75559445359186" id="-49616">
		<tag k="name" v="Steffamyran" />
		<tag k="name:no" v="Steffamyran" />
		<tag k="natural" v="wetland" />
		<tag k="ssr:stedsnr" v="347755" />
	</node>
	<node lat="62.71414722176275" lon="11.77692778695804" id="-49617">
		<tag k="name" v="Tretthåa" />
		<tag k="name:no" v="Tretthåa" />
		<tag k="place" v="locality" />
		<tag k="ssr:stedsnr" v="347760" />
	</node>
	<node lat="62.69421666956177" lon="11.767469452001961" id="-49619">
		<tag k="name" v="Gormyra" />
		<tag k="name:no" v="Gormyra" />
		<tag k="natural" v="wetland" />
		<tag k="ssr:stedsnr" v="347770" />
	</node>
	<node lat="62.73327777351101" lon="11.658524997882715" id="-49638">
		<tag k="landuse" v="quarry" />
		<tag k="name" v="Klinkengruva" />
		<tag k="name:no" v="Klinkengruva" />
		<tag k="ssr:stedsnr" v="375778" />
	</node>
	<node lat="62.66776388906451" lon="11.697627781448123" id="-49657">
		<tag k="name" v="Tangan" />
		<tag k="name:no" v="Tangan" />
		<tag k="place" v="locality" />
		<tag k="ssr:stedsnr" v="402224" />
	</node>
	<node lat="62.62876388953586" lon="11.41306110451418" id="-49660">
		<tag k="name" v="Kojeåsmyra" />
		<tag k="name:no" v="Kojeåsmyra" />
		<tag k="natural" v="wetland" />
		<tag k="ssr:stedsnr" v="403114" />
	</node>
	<node lat="62.69684444553642" lon="11.395722220477646" id="-49665">
		<tag k="historic" v="shieling" />
		<tag k="name" v="Gammelvollen" />
		<tag k="name:no" v="Gammelvollen" />
		<tag k="place" v="locality" />
		<tag k="ssr:stedsnr" v="406048" />
	</node>
	<node lat="62.61169444059231" lon="11.74409166163814" id="-49676">
		<tag k="name" v="Hylla" />
		<tag k="name:no" v="Hylla" />
		<tag k="place" v="locality" />
		<tag k="ssr:stedsnr" v="406315" />
	</node>
	<node lat="62.703455553714825" lon="11.689113891458854" id="-49678">
		<tag k="name" v="Langmyra" />
		<tag k="name:no" v="Langmyra" />
		<tag k="natural" v="wetland" />
		<tag k="ssr:stedsnr" v="406352" />
	</node>
	<node lat="62.69910833240235" lon="11.692155552589652" id="-49679">
		<tag k="name" v="Jamtfloen" />
		<tag k="name:no" v="Jamtfloen" />
		<tag k="natural" v="wetland" />
		<tag k="ssr:stedsnr" v="406357" />
	</node>
	<node lat="62.58767499609323" lon="11.630658329368941" id="-49684">
		<tag k="name" v="Frostmyra" />
		<tag k="name:no" v="Frostmyra" />
		<tag k="natural" v="wetland" />
		<tag k="ssr:stedsnr" v="406602" />
	</node>
	<node lat="62.658508335374286" lon="11.804583335710259" id="-49685">
		<tag k="name" v="Fransengmyra" />
		<tag k="name:no" v="Fransengmyra" />
		<tag k="natural" v="wetland" />
		<tag k="ssr:stedsnr" v="406502" />
	</node>
	<node lat="62.629050001276646" lon="11.811713897008417" id="-49686">
		<tag k="name" v="Oddan" />
		<tag k="name:no" v="Oddan" />
		<tag k="place" v="locality" />
		<tag k="ssr:stedsnr" v="406507" />
	</node>
	<node lat="62.72046110829554" lon="11.48307499975284" id="-49687">
		<tag k="name" v="Strømmeslåtten" />
		<tag k="name:no" v="Strømmeslåtten" />
		<tag k="place" v="locality" />
		<tag k="ssr:stedsnr" v="406557" />
	</node>
	<node lat="62.580986107839436" lon="11.228630551295245" id="-49700">
		<tag k="historic" v="shieling" />
		<tag k="name" v="Høgvollen" />
		<tag k="name:no" v="Høgvollen" />
		<tag k="place" v="locality" />
		<tag k="ssr:stedsnr" v="407409" />
	</node>
	<node lat="62.54314167117256" lon="11.270949995806154" id="-49706">
		<tag k="name" v="Jordbukkmyra" />
		<tag k="name:no" v="Jordbukkmyra" />
		<tag k="natural" v="wetland" />
		<tag k="ssr:stedsnr" v="407345" />
	</node>
	<node lat="62.74934999762222" lon="11.824408335110894" id="-49709">
		<tag k="name" v="Storkåsa" />
		<tag k="name:no" v="Storkåsa" />
		<tag k="place" v="locality" />
		<tag k="ssr:stedsnr" v="407608" />
	</node>
	<node lat="62.75666666977535" lon="11.817202786871393" id="-49710">
		<tag k="name" v="Stormyra" />
		<tag k="name:no" v="Stormyra" />
		<tag k="natural" v="wetland" />
		<tag k="ssr:stedsnr" v="407609" />
	</node>
	<node lat="62.69557222084684" lon="11.800586120110292" id="-49711">
		<tag k="name" v="Kjerrmyra" />
		<tag k="name:no" v="Kjerrmyra" />
		<tag k="natural" v="wetland" />
		<tag k="ssr:stedsnr" v="407623" />
	</node>
	<node lat="62.59792222531079" lon="11.676550007346702" id="-49713">
		<tag k="name" v="Torvmyra" />
		<tag k="name:no" v="Torvmyra" />
		<tag k="natural" v="wetland" />
		<tag k="ssr:stedsnr" v="407648" />
	</node>
	<node lat="62.5999472187067" lon="11.61713333489853" id="-49715">
		<tag k="name" v="Gammellaua" />
		<tag k="name:no" v="Gammellaua" />
		<tag k="place" v="locality" />
		<tag k="ssr:stedsnr" v="407655" />
	</node>
	<node lat="62.77246110859444" lon="11.813208328729353" id="-49717">
		<tag k="name" v="Kojemyra" />
		<tag k="name:no" v="Kojemyra" />
		<tag k="natural" v="wetland" />
		<tag k="ssr:stedsnr" v="407804" />
	</node>
	<node lat="62.64251389014588" lon="11.639474993785692" id="-49720">
		<tag k="name" v="Spekmyra" />
		<tag k="name:no" v="Spekmyra" />
		<tag k="natural" v="wetland" />
		<tag k="ssr:stedsnr" v="407704" />
	</node>
	<node lat="62.702422224374914" lon="11.832136113760871" id="-49723">
		<tag k="name" v="Korsmyra" />
		<tag k="name:no" v="Korsmyra" />
		<tag k="natural" v="wetland" />
		<tag k="ssr:stedsnr" v="407797" />
	</node>
	<node lat="62.664761113501534" lon="11.519811116955127" id="-49726">
		<tag k="name" v="Flatvollan" />
		<tag k="name:no" v="Flatvollan" />
		<tag k="place" v="locality" />
		<tag k="ssr:stedsnr" v="407995" />
	</node>
	<node lat="62.68651110724206" lon="11.724119451642592" id="-49728">
		<tag k="name" v="Litljordet" />
		<tag k="name:no" v="Litljordet" />
		<tag k="place" v="locality" />
		<tag k="ssr:stedsnr" v="408691" />
	</node>
	<node lat="62.70565555179504" lon="11.801752771494405" id="-49735">
		<tag k="name" v="Kaldkjøldmyra" />
		<tag k="name:no" v="Kaldkjøldmyra" />
		<tag k="natural" v="wetland" />
		<tag k="ssr:stedsnr" v="436524" />
	</node>
	<node lat="62.761171654842194" lon="11.915060787158847" id="-49752">
		<tag k="alt_name:no" v="Gammel Strickertvollen" />
		<tag k="historic" v="shieling" />
		<tag k="name" v="Gamle Strikkertvollen" />
		<tag k="name:no" v="Gamle Strikkertvollen" />
		<tag k="old_name:no" v="Strikkertvollen, gamle" />
		<tag k="place" v="locality" />
		<tag k="ssr:stedsnr" v="437821" />
	</node>
	<node lat="62.68951666795658" lon="11.453833334429747" id="-49764">
		<tag k="name" v="Løken" />
		<tag k="name:no" v="Løken" />
		<tag k="natural" v="wetland" />
		<tag k="ssr:stedsnr" v="446821" />
	</node>
	<node lat="62.632075004334126" lon="11.462508334063154" id="-49766">
		<tag k="name" v="Brottet" />
		<tag k="name:no" v="Brottet" />
		<tag k="place" v="locality" />
		<tag k="ssr:stedsnr" v="463122" />
	</node>
	<node lat="62.63277221926883" lon="11.919544452935353" id="-49768">
		<tag k="name" v="Vintermyra" />
		<tag k="name:no" v="Vintermyra" />
		<tag k="natural" v="wetland" />
		<tag k="ssr:stedsnr" v="463055" />
	</node>
	<node lat="62.63270555231186" lon="11.663886109558238" id="-49769">
		<tag k="name" v="Åslaumyra" />
		<tag k="name:no" v="Åslaumyra" />
		<tag k="natural" v="wetland" />
		<tag k="ssr:stedsnr" v="463761" />
	</node>
	<node lat="62.555050004194015" lon="11.26123612054503" id="-49772">
		<tag k="name" v="Skurfa" />
		<tag k="name:no" v="Skurfa" />
		<tag k="place" v="locality" />
		<tag k="ssr:stedsnr" v="467066" />
	</node>
	<node lat="62.64294721861373" lon="12.004797228561511" id="-49778">
		<tag k="name" v="Langmyra" />
		<tag k="name:no" v="Langmyra" />
		<tag k="natural" v="wetland" />
		<tag k="ssr:stedsnr" v="467282" />
	</node>
	<node lat="62.45940833593452" lon="11.86138056029158" id="-49779">
		<tag k="name" v="Tjukkskogen" />
		<tag k="name:no" v="Tjukkskogen" />
		<tag k="place" v="locality" />
		<tag k="ssr:stedsnr" v="467402" />
	</node>
	<node lat="62.601158334924236" lon="11.316938881604056" id="-49780">
		<tag k="name" v="Ålbyggmyra" />
		<tag k="name:no" v="Ålbyggmyra" />
		<tag k="natural" v="wetland" />
		<tag k="ssr:stedsnr" v="467404" />
	</node>
	<node lat="62.61766666746582" lon="11.840772219168127" id="-49785">
		<tag k="name" v="Stenkåsa" />
		<tag k="name:no" v="Stenkåsa" />
		<tag k="natural" v="stone" />
		<tag k="ssr:stedsnr" v="467461" />
	</node>
	<node lat="62.609813890389205" lon="11.732497224401762" id="-49787">
		<tag k="name" v="Jensmyran" />
		<tag k="name:no" v="Jensmyran" />
		<tag k="natural" v="wetland" />
		<tag k="ssr:stedsnr" v="467314" />
	</node>
	<node lat="62.57865277660962" lon="11.238530560339136" id="-49789">
		<tag k="name" v="Rundmyra" />
		<tag k="name:no" v="Rundmyra" />
		<tag k="natural" v="wetland" />
		<tag k="ssr:stedsnr" v="467365" />
	</node>
	<node lat="62.47618610951051" lon="11.631747222148668" id="-49796">
		<tag k="name" v="Svenskmyra" />
		<tag k="name:no" v="Svenskmyra" />
		<tag k="natural" v="wetland" />
		<tag k="ssr:stedsnr" v="467561" />
	</node>
	<node lat="62.60066111020377" lon="11.612188890428767" id="-49798">
		<tag k="name" v="Brenna" />
		<tag k="name:no" v="Brenna" />
		<tag k="place" v="locality" />
		<tag k="ssr:stedsnr" v="467602" />
	</node>
	<node lat="62.615180557763196" lon="11.606100009798437" id="-49802">
		<tag k="landuse" v="meadow" />
		<tag k="name" v="Litl-lauegnet" />
		<tag k="name:no" v="Litl-lauegnet" />
		<tag k="ssr:stedsnr" v="467662" />
	</node>
	<node lat="62.63894722654267" lon="11.650711119553863" id="-49804">
		<tag k="historic" v="shieling" />
		<tag k="name" v="Litlkojevollen" />
		<tag k="name:no" v="Litlkojevollen" />
		<tag k="place" v="locality" />
		<tag k="ssr:stedsnr" v="467666" />
	</node>
	<node lat="62.61406388679364" lon="11.650963891447152" id="-49805">
		<tag k="name" v="Torvmyra" />
		<tag k="name:no" v="Torvmyra" />
		<tag k="natural" v="wetland" />
		<tag k="ssr:stedsnr" v="467670" />
	</node>
	<node lat="62.61941110750317" lon="11.671413890617924" id="-49806">
		<tag k="name" v="Furuskogen" />
		<tag k="name:no" v="Furuskogen" />
		<tag k="place" v="locality" />
		<tag k="ssr:stedsnr" v="467675" />
	</node>
	<node lat="62.45617221837322" lon="11.538422230339188" id="-49810">
		<tag k="name" v="Småskogen" />
		<tag k="name:no" v="Småskogen" />
		<tag k="place" v="locality" />
		<tag k="ssr:stedsnr" v="467811" />
	</node>
	<node lat="62.654944445265556" lon="11.609722231376576" id="-49817">
		<tag k="name" v="Storfloen" />
		<tag k="name:no" v="Storfloen" />
		<tag k="natural" v="wetland" />
		<tag k="ssr:stedsnr" v="467719" />
	</node>
	<node lat="62.51879166643178" lon="11.579319449858453" id="-49822">
		<tag k="name" v="Rabbfloen" />
		<tag k="name:no" v="Rabbfloen" />
		<tag k="natural" v="wetland" />
		<tag k="ssr:stedsnr" v="467778" />
	</node>
	<node lat="62.6404694427264" lon="11.570569449517233" id="-49824">
		<tag k="name" v="Torvfloen" />
		<tag k="name:no" v="Torvfloen" />
		<tag k="natural" v="wetland" />
		<tag k="ssr:stedsnr" v="467908" />
	</node>
	<node lat="62.62237222181566" lon="11.586808333995753" id="-49825">
		<tag k="historic" v="shieling" />
		<tag k="name" v="Oppdalsetra" />
		<tag k="name:no" v="Oppdalsetra" />
		<tag k="place" v="locality" />
		<tag k="ssr:stedsnr" v="467925" />
	</node>
	<node lat="62.678016667211175" lon="11.811541673753878" id="-49829">
		<tag k="name" v="Stobuholmen" />
		<tag k="name:no" v="Stobuholmen" />
		<tag k="place" v="locality" />
		<tag k="ssr:stedsnr" v="468622" />
	</node>
	<node lat="62.72074444266722" lon="11.891102781936775" id="-49831">
		<tag k="name" v="Langloken" />
		<tag k="name:no" v="Langloken" />
		<tag k="natural" v="wetland" />
		<tag k="ssr:stedsnr" v="468576" />
	</node>
	<node lat="62.6822305524987" lon="11.790944440928536" id="-49832">
		<tag k="name" v="Småmyran" />
		<tag k="name:no" v="Småmyran" />
		<tag k="natural" v="wetland" />
		<tag k="ssr:stedsnr" v="468579" />
	</node>
	<node lat="62.67010000118082" lon="11.300813885819576" id="-49842">
		<tag k="landuse" v="quarry" />
		<tag k="name" v="Arvedals gruve" />
		<tag k="name:no" v="Arvedals gruve" />
		<tag k="ssr:stedsnr" v="678957" />
	</node>
	<node lat="62.509027776432305" lon="11.742541658647546" id="-49843">
		<tag k="name" v="Gjetbergsfloan" />
		<tag k="name:no" v="Gjetbergsfloan" />
		<tag k="natural" v="wetland" />
		<tag k="ssr:stedsnr" v="679230" />
	</node>
	<node lat="62.57092499702403" lon="11.87584165784342" id="-49846">
		<tag k="name" v="Branneggfloen" />
		<tag k="name:no" v="Branneggfloen" />
		<tag k="natural" v="wetland" />
		<tag k="ssr:stedsnr" v="679253" />
	</node>
	<node lat="62.61209167094314" lon="11.740805557967418" id="-49860">
		<tag k="name" v="Langvollmyra" />
		<tag k="name:no" v="Langvollmyra" />
		<tag k="natural" v="wetland" />
		<tag k="ssr:stedsnr" v="679654" />
	</node>
	<node lat="62.6715194430862" lon="11.259438884017655" id="-49894">
		<tag k="landuse" v="quarry" />
		<tag k="name" v="Rødalen gruve" />
		<tag k="name:no" v="Rødalen gruve" />
		<tag k="ssr:stedsnr" v="496963" />
	</node>
	<node lat="62.62395277759636" lon="11.899819442184326" id="-49915">
		<tag k="name" v="Storfloen" />
		<tag k="name:no" v="Storfloen" />
		<tag k="natural" v="wetland" />
		<tag k="ssr:stedsnr" v="497599" />
	</node>
	<node lat="62.61678610759758" lon="11.738305560173286" id="-49932">
		<tag k="historic" v="shieling" />
		<tag k="name" v="Skarpvollen" />
		<tag k="name:no" v="Skarpvollen" />
		<tag k="place" v="locality" />
		<tag k="ssr:stedsnr" v="523212" />
	</node>
	<node lat="62.63653333010304" lon="11.930788885299823" id="-49933">
		<tag k="historic" v="shieling" />
		<tag k="name" v="Gammel-Ryvollen" />
		<tag k="name:no" v="Gammel-Ryvollen" />
		<tag k="place" v="locality" />
		<tag k="ssr:stedsnr" v="524061" />
	</node>
	<node lat="62.68546666639748" lon="11.364730563279949" id="-49938">
		<tag k="name" v="Kaldvasslåtten" />
		<tag k="name:no" v="Kaldvasslåtten" />
		<tag k="place" v="locality" />
		<tag k="ssr:stedsnr" v="524122" />
	</node>
	<node lat="62.69402500116788" lon="11.70206943892884" id="-49948">
		<tag k="name" v="Småskogen" />
		<tag k="name:no" v="Småskogen" />
		<tag k="place" v="locality" />
		<tag k="ssr:stedsnr" v="527332" />
	</node>
	<node lat="62.611358334381244" lon="11.443255564384009" id="-49961">
		<tag k="name" v="Karitorva" />
		<tag k="name:no" v="Karitorva" />
		<tag k="natural" v="wetland" />
		<tag k="ssr:stedsnr" v="528078" />
	</node>
	<node lat="62.642088892393225" lon="11.946400004622033" id="-49964">
		<tag k="name" v="Slagmyra" />
		<tag k="name:no" v="Slagmyra" />
		<tag k="natural" v="wetland" />
		<tag k="ssr:stedsnr" v="528092" />
	</node>
	<node lat="62.5988916689243" lon="11.431894442539912" id="-49965">
		<tag k="name" v="Pålmyra" />
		<tag k="name:no" v="Pålmyra" />
		<tag k="natural" v="wetland" />
		<tag k="ssr:stedsnr" v="528094" />
	</node>
	<node lat="62.6475777789257" lon="11.78860277853692" id="-49974">
		<tag k="name" v="Anikamyra" />
		<tag k="name:no" v="Anikamyra" />
		<tag k="natural" v="wetland" />
		<tag k="ssr:stedsnr" v="528513" />
	</node>
	<node lat="62.595977778817485" lon="11.744680546427528" id="-49976">
		<tag k="name" v="Feragsmyra" />
		<tag k="name:no" v="Feragsmyra" />
		<tag k="natural" v="wetland" />
		<tag k="ssr:stedsnr" v="528289" />
	</node>
	<node lat="62.58351944156816" lon="11.645905558700116" id="-49983">
		<tag k="name" v="Kristenlaua" />
		<tag k="name:no" v="Kristenlaua" />
		<tag k="place" v="locality" />
		<tag k="ssr:stedsnr" v="528630" />
	</node>
	<node lat="62.608813891123496" lon="11.67648889296971" id="-49987">
		<tag k="landuse" v="meadow" />
		<tag k="name" v="Gabrielskjegget" />
		<tag k="name:no" v="Gabrielskjegget" />
		<tag k="ssr:stedsnr" v="528687" />
	</node>
	<node lat="62.60878055784201" lon="11.66030555688561" id="-49988">
		<tag k="landuse" v="meadow" />
		<tag k="name" v="Rådlauslaua" />
		<tag k="name:no" v="Rådlauslaua" />
		<tag k="ssr:stedsnr" v="528692" />
	</node>
	<node lat="62.64013888767735" lon="11.710074997778909" id="-49997">
		<tag k="landuse" v="meadow" />
		<tag k="name" v="Storlauenget" />
		<tag k="name:no" v="Storlauenget" />
		<tag k="ssr:stedsnr" v="528730" />
	</node>
	<node lat="62.77310000164103" lon="11.822377778433216" id="-50009">
		<tag k="name" v="Svartholet" />
		<tag k="name:no" v="Svartholet" />
		<tag k="place" v="locality" />
		<tag k="ssr:stedsnr" v="529807" />
	</node>
	<node lat="62.792308333158715" lon="11.829677786794088" id="-50010">
		<tag k="name" v="Gisnekåsa" />
		<tag k="name:no" v="Gisnekåsa" />
		<tag k="place" v="locality" />
		<tag k="ssr:stedsnr" v="529839" />
	</node>
	<node lat="62.72481944876381" lon="11.859216667902547" id="-50020">
		<tag k="name" v="Rundfloen" />
		<tag k="name:no" v="Rundfloen" />
		<tag k="natural" v="wetland" />
		<tag k="ssr:stedsnr" v="710643" />
	</node>
	<node lat="62.650286114307846" lon="11.623722232148197" id="-50022">
		<tag k="name" v="Øymyran" />
		<tag k="name:no" v="Øymyran" />
		<tag k="natural" v="wetland" />
		<tag k="ssr:stedsnr" v="710648" />
	</node>
	<node lat="62.67121388894217" lon="11.993938886915567" id="-50034">
		<tag k="name" v="Kvitmannvollen" />
		<tag k="name:no" v="Kvitmannvollen" />
		<tag k="place" v="locality" />
		<tag k="ssr:stedsnr" v="557719" />
	</node>
	<node lat="62.472402773813386" lon="11.886380555180754" id="-50074">
		<tag k="name" v="Johannesmyra" />
		<tag k="name:no" v="Johannesmyra" />
		<tag k="natural" v="wetland" />
		<tag k="ssr:stedsnr" v="584215" />
	</node>
	<node lat="62.76797777659483" lon="11.920975002947706" id="-50075">
		<tag k="name" v="Storstenan" />
		<tag k="name:no" v="Storstenan" />
		<tag k="natural" v="stone" />
		<tag k="ssr:stedsnr" v="588060" />
	</node>
	<node lat="62.557186115149875" lon="11.249027775332642" id="-50076">
		<tag k="name" v="Lortdiket" />
		<tag k="name:no" v="Lortdiket" />
		<tag k="natural" v="wetland" />
		<tag k="ssr:stedsnr" v="588071" />
	</node>
	<node lat="62.715583329922914" lon="11.912497225956892" id="-50079">
		<tag k="name" v="Langmyra" />
		<tag k="name:no" v="Langmyra" />
		<tag k="natural" v="wetland" />
		<tag k="ssr:stedsnr" v="588115" />
	</node>
	<node lat="62.69089999643268" lon="11.679075003461937" id="-50082">
		<tag k="name" v="Storlangkåsmyra" />
		<tag k="name:no" v="Storlangkåsmyra" />
		<tag k="natural" v="wetland" />
		<tag k="ssr:stedsnr" v="588306" />
	</node>
	<node lat="62.69172778057252" lon="11.69146665960216" id="-50084">
		<tag k="name" v="Ol-hansamyra" />
		<tag k="name:no" v="Ol-hansamyra" />
		<tag k="natural" v="wetland" />
		<tag k="ssr:stedsnr" v="588311" />
	</node>
	<node lat="62.686716664327776" lon="11.672672227123659" id="-50088">
		<tag k="name" v="Vintervegmyran" />
		<tag k="name:no" v="Vintervegmyran" />
		<tag k="natural" v="wetland" />
		<tag k="ssr:stedsnr" v="588319" />
	</node>
	<node lat="62.579688892530754" lon="11.889544449039647" id="-50090">
		<tag k="name" v="Kjærlighetsmyra" />
		<tag k="name:no" v="Kjærlighetsmyra" />
		<tag k="natural" v="wetland" />
		<tag k="ssr:stedsnr" v="588405" />
	</node>
	<node lat="62.639494447327834" lon="11.963744443270018" id="-50092">
		<tag k="name" v="Bustenen" />
		<tag k="name:no" v="Bustenen" />
		<tag k="natural" v="stone" />
		<tag k="ssr:stedsnr" v="588415" />
	</node>
	<node lat="62.61134444119392" lon="11.865777774639783" id="-50093">
		<tag k="name" v="Floen" />
		<tag k="name:no" v="Floen" />
		<tag k="natural" v="wetland" />
		<tag k="ssr:stedsnr" v="588423" />
	</node>
	<node lat="62.61828610672717" lon="11.850636114334193" id="-50094">
		<tag k="name" v="Kroken" />
		<tag k="name:no" v="Kroken" />
		<tag k="place" v="locality" />
		<tag k="ssr:stedsnr" v="588425" />
	</node>
	<node lat="62.661541666884986" lon="11.27795832486534" id="-50095">
		<tag k="name" v="Storstenen" />
		<tag k="name:no" v="Storstenen" />
		<tag k="natural" v="stone" />
		<tag k="ssr:stedsnr" v="588426" />
	</node>
	<node lat="62.64353889164048" lon="11.799141672603922" id="-50102">
		<tag k="name" v="Rundmyra" />
		<tag k="name:no" v="Rundmyra" />
		<tag k="natural" v="wetland" />
		<tag k="ssr:stedsnr" v="588455" />
	</node>
	<node lat="62.63299167025414" lon="11.797452775530363" id="-50103">
		<tag k="name" v="Hesklofloen" />
		<tag k="name:no" v="Hesklofloen" />
		<tag k="natural" v="wetland" />
		<tag k="ssr:stedsnr" v="588458" />
	</node>
	<node lat="62.48795000299375" lon="11.59096389718217" id="-50109">
		<tag k="name" v="Enrøsta" />
		<tag k="name:no" v="Enrøsta" />
		<tag k="place" v="locality" />
		<tag k="ssr:stedsnr" v="588520" />
	</node>
	<node lat="62.47574444269922" lon="11.668552787080106" id="-50113">
		<tag k="historic" v="shieling" />
		<tag k="name" v="Osøyvollen" />
		<tag k="name:no" v="Osøyvollen" />
		<tag k="place" v="locality" />
		<tag k="ssr:stedsnr" v="588535" />
	</node>
	<node lat="62.59851111354458" lon="11.620050007555058" id="-50120">
		<tag k="name" v="Merkeskåsa" />
		<tag k="name:no" v="Merkeskåsa" />
		<tag k="place" v="locality" />
		<tag k="ssr:stedsnr" v="588607" />
	</node>
	<node lat="62.63308888540806" lon="11.57302777603639" id="-50134">
		<tag k="name" v="Stulltomta" />
		<tag k="name:no" v="Stulltomta" />
		<tag k="place" v="locality" />
		<tag k="ssr:stedsnr" v="588906" />
	</node>
	<node lat="62.67361666711705" lon="11.58236943829158" id="-50135">
		<tag k="name" v="Myrlaumyra" />
		<tag k="name:no" v="Myrlaumyra" />
		<tag k="natural" v="wetland" />
		<tag k="ssr:stedsnr" v="588960" />
	</node>
	<node lat="62.6778055540938" lon="11.579349991461235" id="-50136">
		<tag k="name" v="Trekmyra" />
		<tag k="name:no" v="Trekmyra" />
		<tag k="natural" v="wetland" />
		<tag k="ssr:stedsnr" v="588963" />
	</node>
	<node lat="62.720108330777826" lon="11.74250000788066" id="-50140">
		<tag k="historic" v="shieling" />
		<tag k="name" v="Øvervollen" />
		<tag k="name:no" v="Øvervollen" />
		<tag k="place" v="locality" />
		<tag k="ssr:stedsnr" v="589625" />
	</node>
	<node lat="62.73087221840013" lon="11.828333342622336" id="-50142">
		<tag k="historic" v="shieling" />
		<tag k="name" v="Sverdsvollen" />
		<tag k="name:no" v="Sverdsvollen" />
		<tag k="place" v="locality" />
		<tag k="ssr:stedsnr" v="589707" />
	</node>
	<node lat="62.73187500083836" lon="11.806761113464784" id="-50144">
		<tag k="name" v="Gunnabekkøya" />
		<tag k="name:no" v="Gunnabekkøya" />
		<tag k="place" v="locality" />
		<tag k="ssr:stedsnr" v="589718" />
	</node>
	<node lat="62.68479166406413" lon="11.760594452592356" id="-50145">
		<tag k="name" v="Stenøymyra" />
		<tag k="name:no" v="Stenøymyra" />
		<tag k="place" v="locality" />
		<tag k="ssr:stedsnr" v="589662" />
	</node>
	<node lat="62.621166666883646" lon="11.597372219912375" id="-50149">
		<tag k="name" v="Djupmyra" />
		<tag k="name:no" v="Djupmyra" />
		<tag k="natural" v="wetland" />
		<tag k="ssr:stedsnr" v="710660" />
	</node>
	<node lat="62.6164166634782" lon="11.707358326491377" id="-50151">
		<tag k="name" v="Høgåsmyra" />
		<tag k="name:no" v="Høgåsmyra" />
		<tag k="natural" v="wetland" />
		<tag k="ssr:stedsnr" v="710698" />
	</node>
	<node lat="62.626947225655165" lon="11.691044452680885" id="-50152">
		<tag k="name" v="Storvikmyran" />
		<tag k="name:no" v="Storvikmyran" />
		<tag k="natural" v="wetland" />
		<tag k="ssr:stedsnr" v="710702" />
	</node>
	<node lat="62.570036109178915" lon="11.449333334218815" id="-50185">
		<tag k="name" v="Løbergsfloen" />
		<tag k="name:no" v="Løbergsfloen" />
		<tag k="natural" v="wetland" />
		<tag k="ssr:stedsnr" v="626804" />
	</node>
	<node lat="62.621591667556324" lon="11.630858326591943" id="-50188">
		<tag k="name" v="Svarthollaua" />
		<tag k="name:no" v="Svarthollaua" />
		<tag k="place" v="locality" />
		<tag k="ssr:stedsnr" v="710693" />
	</node>
	<node lat="62.635027780010134" lon="11.911819449978633" id="-50190">
		<tag k="historic" v="shieling" />
		<tag k="name" v="Vaulevollen" />
		<tag k="name:no" v="Vaulevollen" />
		<tag k="place" v="locality" />
		<tag k="ssr:stedsnr" v="706068" />
	</node>
	<node lat="62.70177778178867" lon="11.382316670631145" id="-50195">
		<tag k="name" v="Djuplauslåtten" />
		<tag k="name:no" v="Djuplauslåtten" />
		<tag k="natural" v="wetland" />
		<tag k="ssr:stedsnr" v="706186" />
	</node>
	<node lat="62.62731389239762" lon="11.394105560325754" id="-50202">
		<tag k="historic" v="shieling" />
		<tag k="name" v="Svortarvollen" />
		<tag k="name:no" v="Svortarvollen" />
		<tag k="place" v="locality" />
		<tag k="ssr:stedsnr" v="645108" />
	</node>
	<node lat="62.650547219749484" lon="11.40475277024686" id="-50205">
		<tag k="name" v="Veskyttmyra" />
		<tag k="name:no" v="Veskyttmyra" />
		<tag k="natural" v="wetland" />
		<tag k="ssr:stedsnr" v="645120" />
	</node>
	<node lat="62.64725833108201" lon="11.345630555266707" id="-50207">
		<tag k="name" v="Hans-Sjursadolpa" />
		<tag k="name:no" v="Hans-Sjursadolpa" />
		<tag k="place" v="locality" />
		<tag k="ssr:stedsnr" v="645129" />
	</node>
	<node lat="62.65417777515641" lon="11.62982778050538" id="-50211">
		<tag k="name" v="Merkeskåsa" />
		<tag k="name:no" v="Merkeskåsa" />
		<tag k="place" v="locality" />
		<tag k="ssr:stedsnr" v="645682" />
	</node>
	<node lat="62.65808055108863" lon="11.628486112560463" id="-50212">
		<tag k="name" v="Tutkåsa" />
		<tag k="name:no" v="Tutkåsa" />
		<tag k="place" v="locality" />
		<tag k="ssr:stedsnr" v="645683" />
	</node>
	<node lat="62.65973055473004" lon="11.625747215894675" id="-50215">
		<tag k="historic" v="shieling" />
		<tag k="name" v="Ellenssetervollen" />
		<tag k="name:no" v="Ellenssetervollen" />
		<tag k="place" v="locality" />
		<tag k="ssr:stedsnr" v="706721" />
	</node>
	<node lat="62.618772218195126" lon="11.623974994587524" id="-50221">
		<tag k="landuse" v="meadow" />
		<tag k="name" v="Nylauslåtten" />
		<tag k="name:no" v="Nylauslåtten" />
		<tag k="ssr:stedsnr" v="710694" />
	</node>
	<node lat="62.56204166313051" lon="11.8651472224198" id="-50233">
		<tag k="name" v="Svartstenfloen" />
		<tag k="name:no" v="Svartstenfloen" />
		<tag k="natural" v="wetland" />
		<tag k="ssr:stedsnr" v="649445" />
	</node>
	<node lat="62.543902776970754" lon="11.313366664876277" id="-50236">
		<tag k="name" v="Nordskogen" />
		<tag k="name:no" v="Nordskogen" />
		<tag k="place" v="locality" />
		<tag k="ssr:stedsnr" v="649304" />
	</node>
	<node lat="62.58641944454581" lon="11.669505563702351" id="-50248">
		<tag k="landuse" v="meadow" />
		<tag k="name" v="Jokomslauenget" />
		<tag k="name:no" v="Jokomslauenget" />
		<tag k="ssr:stedsnr" v="649605" />
	</node>
	<node lat="62.73388055863934" lon="11.854908329886207" id="-50255">
		<tag k="historic" v="shieling" />
		<tag k="name" v="Litlvollen" />
		<tag k="name:no" v="Litlvollen" />
		<tag k="place" v="locality" />
		<tag k="ssr:stedsnr" v="649649" />
	</node>
	<node lat="62.62339444586427" lon="11.706536109879808" id="-50256">
		<tag k="name" v="Grankåsa" />
		<tag k="name:no" v="Grankåsa" />
		<tag k="place" v="locality" />
		<tag k="ssr:stedsnr" v="649691" />
	</node>
	<node lat="62.6850138893935" lon="11.639988884294041" id="-50262">
		<tag k="historic" v="shieling" />
		<tag k="name" v="Høgvollan" />
		<tag k="name:no" v="Høgvollan" />
		<tag k="place" v="locality" />
		<tag k="ssr:stedsnr" v="649735" />
	</node>
	<node lat="62.70649722539649" lon="11.792894444741664" id="-50272">
		<tag k="name" v="Mortensmyra" />
		<tag k="name:no" v="Mortensmyra" />
		<tag k="natural" v="wetland" />
		<tag k="ssr:stedsnr" v="650726" />
	</node>
	<node lat="62.697344446063404" lon="11.847983340686344" id="-50277">
		<tag k="name" v="Stallen" />
		<tag k="name:no" v="Stallen" />
		<tag k="place" v="locality" />
		<tag k="ssr:stedsnr" v="650834" />
	</node>
	<node lat="62.697822226639055" lon="11.86333610228217" id="-50279">
		<tag k="name" v="Langkåsa" />
		<tag k="name:no" v="Langkåsa" />
		<tag k="place" v="locality" />
		<tag k="ssr:stedsnr" v="650839" />
	</node>
	<node lat="62.7730611104252" lon="11.83510554993764" id="-50281">
		<tag k="name" v="Øversjøfloen" />
		<tag k="name:no" v="Øversjøfloen" />
		<tag k="natural" v="wetland" />
		<tag k="ssr:stedsnr" v="650785" />
	</node>
	<node lat="62.7615999993679" lon="11.834322213001949" id="-50282">
		<tag k="name" v="Svendsmyran" />
		<tag k="name:no" v="Svendsmyran" />
		<tag k="natural" v="wetland" />
		<tag k="ssr:stedsnr" v="650789" />
	</node>
	<node lat="62.747736113926955" lon="11.945708341878772" id="-50289">
		<tag k="name" v="Ystertangen" />
		<tag k="name:no" v="Ystertangen" />
		<tag k="place" v="locality" />
		<tag k="ssr:stedsnr" v="710027" />
	</node>
	<node lat="62.7635972189831" lon="11.926258328677731" id="-50299">
		<tag k="name" v="Dalom" />
		<tag k="name:no" v="Dalom" />
		<tag k="place" v="locality" />
		<tag k="ssr:stedsnr" v="710049" />
	</node>
	<node lat="62.64639999584567" lon="12.023452768496037" id="-50300">
		<tag k="name" v="Storfloen" />
		<tag k="name:no" v="Storfloen" />
		<tag k="natural" v="wetland" />
		<tag k="ssr:stedsnr" v="710057" />
	</node>
	<node lat="62.60520277483851" lon="11.75787221940957" id="-50303">
		<tag k="name" v="Potetåkeren" />
		<tag k="name:no" v="Potetåkeren" />
		<tag k="place" v="locality" />
		<tag k="ssr:stedsnr" v="710281" />
	</node>
	<node lat="62.610916664240506" lon="11.765608332953846" id="-50305">
		<tag k="name" v="Øverlaukåsa" />
		<tag k="name:no" v="Øverlaukåsa" />
		<tag k="place" v="locality" />
		<tag k="ssr:stedsnr" v="710301" />
	</node>
	<node lat="62.60986110804709" lon="11.718163880514053" id="-50306">
		<tag k="name" v="Storfloen" />
		<tag k="name:no" v="Storfloen" />
		<tag k="natural" v="wetland" />
		<tag k="ssr:stedsnr" v="710317" />
	</node>
	<node lat="62.69154722657926" lon="11.695522224215312" id="-50310">
		<tag k="name" v="Vintervegmyran" />
		<tag k="name:no" v="Vintervegmyran" />
		<tag k="natural" v="wetland" />
		<tag k="ssr:stedsnr" v="710339" />
	</node>
	<node lat="62.5675666669591" lon="11.284197221246194" id="-50316">
		<tag k="historic" v="shieling" />
		<tag k="name" v="Fruvollen" />
		<tag k="name:no" v="Fruvollen" />
		<tag k="place" v="locality" />
		<tag k="ssr:stedsnr" v="710391" />
	</node>
	<node lat="62.57303611134007" lon="11.83137221604295" id="-50318">
		<tag k="name" v="Nyråa" />
		<tag k="name:no" v="Nyråa" />
		<tag k="place" v="locality" />
		<tag k="ssr:stedsnr" v="710397" />
	</node>
	<node lat="62.64576388890311" lon="11.796883335389941" id="-50330">
		<tag k="name" v="Gunnalaumyra" />
		<tag k="name:no" v="Gunnalaumyra" />
		<tag k="natural" v="wetland" />
		<tag k="ssr:stedsnr" v="710502" />
	</node>
	<node lat="62.652311107345945" lon="11.783116660695256" id="-50332">
		<tag k="name" v="Vassmyrkåsa" />
		<tag k="name:no" v="Vassmyrkåsa" />
		<tag k="place" v="locality" />
		<tag k="ssr:stedsnr" v="710512" />
	</node>
	<node lat="62.593411114348115" lon="11.680025002387536" id="-50335">
		<tag k="name" v="Langstrypet" />
		<tag k="name:no" v="Langstrypet" />
		<tag k="place" v="locality" />
		<tag k="ssr:stedsnr" v="892563" />
	</node>
	<node lat="62.59626666678962" lon="11.761000009406262" id="-50348">
		<tag k="name" v="Stormyra" />
		<tag k="name:no" v="Stormyra" />
		<tag k="natural" v="wetland" />
		<tag k="ssr:stedsnr" v="679633" />
	</node>
	<node lat="62.63794351797404" lon="11.58075963022657" id="-50362">
		<tag k="historic" v="shieling" />
		<tag k="name" v="Bukkvollan" />
		<tag k="name:no" v="Bukkvollan" />
		<tag k="place" v="locality" />
		<tag k="ssr:stedsnr" v="679877" />
	</node>
	<node lat="62.66737777582445" lon="11.40502500887972" id="-50380">
		<tag k="name" v="Røttertrøa" />
		<tag k="name:no" v="Røttertrøa" />
		<tag k="place" v="locality" />
		<tag k="ssr:stedsnr" v="892196" />
	</node>
	<node lat="62.58285000291326" lon="11.209105547208631" id="-50390">
		<tag k="name" v="Rødmyra" />
		<tag k="name:no" v="Rødmyra" />
		<tag k="natural" v="wetland" />
		<tag k="ssr:stedsnr" v="892272" />
	</node>
	<node lat="62.59865278039091" lon="11.823683338547957" id="-50392">
		<tag k="name" v="Båtstadmyra" />
		<tag k="name:no" v="Båtstadmyra" />
		<tag k="natural" v="wetland" />
		<tag k="ssr:stedsnr" v="892277" />
	</node>
	<node lat="62.62772778072715" lon="11.204716661589302" id="-50394">
		<tag k="name" v="Lokan" />
		<tag k="name:no" v="Lokan" />
		<tag k="natural" v="wetland" />
		<tag k="ssr:stedsnr" v="892294" />
	</node>
	<node lat="62.605805557552486" lon="11.22521666252833" id="-50402">
		<tag k="name" v="Hartzmyra" />
		<tag k="name:no" v="Hartzmyra" />
		<tag k="natural" v="wetland" />
		<tag k="ssr:stedsnr" v="892349" />
	</node>
	<node lat="62.575730553854946" lon="11.831122218245584" id="-50403">
		<tag k="name" v="Bergmesterbotnet" />
		<tag k="name:no" v="Bergmesterbotnet" />
		<tag k="place" v="locality" />
		<tag k="ssr:stedsnr" v="892353" />
	</node>
	<node lat="62.570497224189864" lon="11.879108328784557" id="-50404">
		<tag k="name" v="Grunnvadfloen" />
		<tag k="name:no" v="Grunnvadfloen" />
		<tag k="natural" v="wetland" />
		<tag k="ssr:stedsnr" v="892387" />
	</node>
	<node lat="62.64670555527107" lon="11.739427768333519" id="-50412">
		<tag k="name" v="Volbua" />
		<tag k="name:no" v="Volbua" />
		<tag k="place" v="locality" />
		<tag k="ssr:stedsnr" v="892453" />
	</node>
	<node lat="62.59721111292464" lon="11.688616676282885" id="-50421">
		<tag k="name" v="Kjellsmyra" />
		<tag k="name:no" v="Kjellsmyra" />
		<tag k="natural" v="wetland" />
		<tag k="ssr:stedsnr" v="892567" />
	</node>
	<node lat="62.58541666983955" lon="11.634444436659095" id="-50426">
		<tag k="name" v="Oslaua" />
		<tag k="name:no" v="Oslaua" />
		<tag k="place" v="locality" />
		<tag k="ssr:stedsnr" v="892591" />
	</node>
	<node lat="62.727777774520504" lon="11.854949999835597" id="-50427">
		<tag k="name" v="Åbborsjøegga" />
		<tag k="name:no" v="Åbborsjøegga" />
		<tag k="place" v="locality" />
		<tag k="ssr:stedsnr" v="892597" />
	</node>
	<node lat="62.644911113080134" lon="11.643388888825704" id="-50430">
		<tag k="name" v="Langmyra" />
		<tag k="name:no" v="Langmyra" />
		<tag k="natural" v="wetland" />
		<tag k="ssr:stedsnr" v="892629" />
	</node>
	<node lat="62.61386666472368" lon="11.613949996326076" id="-50431">
		<tag k="name" v="Billamyra" />
		<tag k="name:no" v="Billamyra" />
		<tag k="natural" v="wetland" />
		<tag k="ssr:stedsnr" v="892643" />
	</node>
	<node lat="62.61725555592258" lon="11.628097218271503" id="-50433">
		<tag k="landuse" v="meadow" />
		<tag k="name" v="Tørrabbslåtten" />
		<tag k="name:no" v="Tørrabbslåtten" />
		<tag k="ssr:stedsnr" v="892653" />
	</node>
	<node lat="62.5771416711508" lon="11.488083330793383" id="-50440">
		<tag k="name" v="Grønglenna" />
		<tag k="name:no" v="Grønglenna" />
		<tag k="place" v="locality" />
		<tag k="ssr:stedsnr" v="892815" />
	</node>
	<node lat="62.64355000406806" lon="11.712352785169184" id="-50442">
		<tag k="landuse" v="meadow" />
		<tag k="name" v="Nylauenget" />
		<tag k="name:no" v="Nylauenget" />
		<tag k="ssr:stedsnr" v="892719" />
	</node>
	<node lat="62.461705559624114" lon="11.473072225194313" id="-50446">
		<tag k="name" v="Bålstadmyra" />
		<tag k="name:no" v="Bålstadmyra" />
		<tag k="natural" v="wetland" />
		<tag k="ssr:stedsnr" v="892754" />
	</node>
	<node lat="62.71265278030583" lon="11.777480552235378" id="-50458">
		<tag k="name" v="Lomtjønnmyra" />
		<tag k="name:no" v="Lomtjønnmyra" />
		<tag k="natural" v="wetland" />
		<tag k="ssr:stedsnr" v="893742" />
	</node>
	<node lat="62.71035555628075" lon="11.76411111328948" id="-50459">
		<tag k="name" v="Stuggumyra" />
		<tag k="name:no" v="Stuggumyra" />
		<tag k="natural" v="wetland" />
		<tag k="ssr:stedsnr" v="893748" />
	</node>
	<node lat="62.79918332980483" lon="11.837150002001371" id="-50468">
		<tag k="name" v="Per-Svensakåsan" />
		<tag k="name:no" v="Per-Svensakåsan" />
		<tag k="place" v="locality" />
		<tag k="ssr:stedsnr" v="893828" />
	</node>
	<node lat="62.81383055145634" lon="11.832194451427569" id="-50470">
		<tag k="name" v="Gammelmyra" />
		<tag k="name:no" v="Gammelmyra" />
		<tag k="natural" v="wetland" />
		<tag k="ssr:stedsnr" v="893835" />
	</node>
	<node lat="62.81206388873283" lon="11.826597217714626" id="-50471">
		<tag k="name" v="Småstakkan" />
		<tag k="name:no" v="Småstakkan" />
		<tag k="place" v="locality" />
		<tag k="ssr:stedsnr" v="893840" />
	</node>
	<node lat="62.70843889065914" lon="11.86865000772204" id="-50472">
		<tag k="name" v="Odden" />
		<tag k="name:no" v="Odden" />
		<tag k="place" v="locality" />
		<tag k="ssr:stedsnr" v="893845" />
	</node>
	<node lat="62.577794444596464" lon="11.439288894111435" id="-50476">
		<tag k="name" v="Risdikja" />
		<tag k="name:no" v="Risdikja" />
		<tag k="natural" v="wetland" />
		<tag k="ssr:stedsnr" v="706020" />
	</node>
	<node lat="62.619827780143396" lon="11.429413886280036" id="-50477">
		<tag k="name" v="Tyskmyra" />
		<tag k="name:no" v="Tyskmyra" />
		<tag k="natural" v="wetland" />
		<tag k="ssr:stedsnr" v="706104" />
	</node>
	<node lat="62.65351666887283" lon="11.700086119030447" id="-50481">
		<tag k="name" v="Ole-Pedersen-myra" />
		<tag k="name:no" v="Ole-Pedersen-myra" />
		<tag k="natural" v="wetland" />
		<tag k="ssr:stedsnr" v="706709" />
	</node>
	<node lat="62.45398055723875" lon="11.571747222997836" id="-50489">
		<tag k="name" v="Kløftkåsa" />
		<tag k="name:no" v="Kløftkåsa" />
		<tag k="natural" v="wetland" />
		<tag k="ssr:stedsnr" v="710245" />
	</node>
	<node lat="62.52485555850359" lon="11.317183329380649" id="-50496">
		<tag k="historic" v="shieling" />
		<tag k="name" v="Litlvollen" />
		<tag k="name:no" v="Litlvollen" />
		<tag k="place" v="locality" />
		<tag k="ssr:stedsnr" v="710313" />
	</node>
	<node lat="62.609894443027834" lon="11.744808329099607" id="-50497">
		<tag k="name" v="Langmyra" />
		<tag k="name:no" v="Langmyra" />
		<tag k="natural" v="wetland" />
		<tag k="ssr:stedsnr" v="710315" />
	</node>
	<node lat="62.612475000983494" lon="11.725497229707937" id="-50498">
		<tag k="name" v="Stengen" />
		<tag k="name:no" v="Stengen" />
		<tag k="place" v="locality" />
		<tag k="ssr:stedsnr" v="710328" />
	</node>
	<node lat="62.64553888909149" lon="11.746505557531073" id="-50499">
		<tag k="name" v="Flotjønnmyran" />
		<tag k="name:no" v="Flotjønnmyran" />
		<tag k="natural" v="wetland" />
		<tag k="ssr:stedsnr" v="710334" />
	</node>
	<node lat="62.55868888668015" lon="11.285119453726374" id="-50501">
		<tag k="name" v="Åsskogen" />
		<tag k="name:no" v="Åsskogen" />
		<tag k="place" v="locality" />
		<tag k="ssr:stedsnr" v="710336" />
	</node>
	<node lat="62.4733277814085" lon="11.828988879852876" id="-50505">
		<tag k="name" v="Tørresdalsmyra" />
		<tag k="name:no" v="Tørresdalsmyra" />
		<tag k="natural" v="wetland" />
		<tag k="ssr:stedsnr" v="710388" />
	</node>
	<node lat="62.58421111443382" lon="11.815072224974639" id="-50506">
		<tag k="name" v="Bjørnmyra" />
		<tag k="name:no" v="Bjørnmyra" />
		<tag k="natural" v="wetland" />
		<tag k="ssr:stedsnr" v="710406" />
	</node>
	<node lat="62.612152781730124" lon="11.316008337817381" id="-50511">
		<tag k="name" v="Langmyrbrottet" />
		<tag k="name:no" v="Langmyrbrottet" />
		<tag k="place" v="locality" />
		<tag k="ssr:stedsnr" v="710434" />
	</node>
	<node lat="62.64929444868009" lon="11.732516674237415" id="-50512">
		<tag k="name" v="Vollaua" />
		<tag k="name:no" v="Vollaua" />
		<tag k="place" v="locality" />
		<tag k="ssr:stedsnr" v="710481" />
	</node>
	<node lat="62.6402833334211" lon="11.826808328144343" id="-50514">
		<tag k="historic" v="shieling" />
		<tag k="name" v="Tyskvollen" />
		<tag k="name:no" v="Tyskvollen" />
		<tag k="place" v="locality" />
		<tag k="ssr:stedsnr" v="710488" />
	</node>
	<node lat="62.781913889347535" lon="11.863786116461894" id="-50516">
		<tag k="name" v="Storkåsa" />
		<tag k="name:no" v="Storkåsa" />
		<tag k="place" v="locality" />
		<tag k="ssr:stedsnr" v="710604" />
	</node>
	<node lat="62.78828055733229" lon="11.861036120933367" id="-50517">
		<tag k="name" v="Stillmyra" />
		<tag k="name:no" v="Stillmyra" />
		<tag k="natural" v="wetland" />
		<tag k="ssr:stedsnr" v="710607" />
	</node>
	<node lat="62.597766662888276" lon="11.664941673943435" id="-50522">
		<tag k="landuse" v="meadow" />
		<tag k="name" v="Lauvenget" />
		<tag k="name:no" v="Lauvenget" />
		<tag k="ssr:stedsnr" v="710589" />
	</node>
	<node lat="62.69538610825886" lon="11.83118889180924" id="-50539">
		<tag k="name" v="Dammyra" />
		<tag k="name:no" v="Dammyra" />
		<tag k="natural" v="wetland" />
		<tag k="ssr:stedsnr" v="711805" />
	</node>
	<node lat="62.685547220585136" lon="11.724555547874159" id="-50540">
		<tag k="name" v="Søosflata" />
		<tag k="name:no" v="Søosflata" />
		<tag k="place" v="locality" />
		<tag k="ssr:stedsnr" v="711704" />
	</node>
	<node lat="62.71198889228485" lon="11.742277787836276" id="-50543">
		<tag k="name" v="Tamnesmyran" />
		<tag k="name:no" v="Tamnesmyran" />
		<tag k="natural" v="wetland" />
		<tag k="ssr:stedsnr" v="711775" />
	</node>
	<node lat="62.70478333121244" lon="11.796544445224818" id="-50545">
		<tag k="name" v="Kaldkjøldmyra" />
		<tag k="name:no" v="Kaldkjøldmyra" />
		<tag k="natural" v="wetland" />
		<tag k="ssr:stedsnr" v="711788" />
	</node>
	<node lat="62.467136106776316" lon="11.811636115091641" id="-50555">
		<tag k="name" v="Storhåsjømyra" />
		<tag k="name:no" v="Storhåsjømyra" />
		<tag k="natural" v="wetland" />
		<tag k="ssr:stedsnr" v="739513" />
	</node>
	<node lat="62.67786388793417" lon="11.865905561832678" id="-50564">
		<tag k="name" v="Mela" />
		<tag k="name:no" v="Mela" />
		<tag k="place" v="locality" />
		<tag k="ssr:stedsnr" v="739694" />
	</node>
	<node lat="62.69735555750665" lon="11.437144453561555" id="-50591">
		<tag k="name" v="Stor-Perstakkstøet" />
		<tag k="name:no" v="Stor-Perstakkstøet" />
		<tag k="place" v="locality" />
		<tag k="ssr:stedsnr" v="766221" />
	</node>
	<node lat="62.62111666716807" lon="11.40664723065554" id="-50593">
		<tag k="historic" v="shieling" />
		<tag k="name" v="Arestvollen" />
		<tag k="name:no" v="Arestvollen" />
		<tag k="place" v="locality" />
		<tag k="ssr:stedsnr" v="767108" />
	</node>
	<node lat="62.60570277534038" lon="11.742250002430637" id="-50597">
		<tag k="name" v="Litlkattloken" />
		<tag k="name:no" v="Litlkattloken" />
		<tag k="natural" v="wetland" />
		<tag k="ssr:stedsnr" v="770262" />
	</node>
	<node lat="62.594416664156704" lon="11.768980549380624" id="-50598">
		<tag k="name" v="Gjetryggfloen" />
		<tag k="name:no" v="Gjetryggfloen" />
		<tag k="natural" v="wetland" />
		<tag k="ssr:stedsnr" v="770263" />
	</node>
	<node lat="62.59756389066274" lon="11.811572230757555" id="-50603">
		<tag k="name" v="Våghalsmyra" />
		<tag k="name:no" v="Våghalsmyra" />
		<tag k="natural" v="wetland" />
		<tag k="ssr:stedsnr" v="770271" />
	</node>
	<node lat="62.671450000825295" lon="11.428888882436855" id="-50608">
		<tag k="name" v="Vedhølegga" />
		<tag k="name:no" v="Vedhølegga" />
		<tag k="place" v="locality" />
		<tag k="ssr:stedsnr" v="770133" />
	</node>
	<node lat="62.68762778120326" lon="11.686488886381618" id="-50609">
		<tag k="name" v="Tørrenggrua" />
		<tag k="name:no" v="Tørrenggrua" />
		<tag k="place" v="locality" />
		<tag k="ssr:stedsnr" v="770306" />
	</node>
	<node lat="62.69690833468845" lon="11.705444440163873" id="-50610">
		<tag k="name" v="Skiftrøstmyra" />
		<tag k="name:no" v="Skiftrøstmyra" />
		<tag k="natural" v="wetland" />
		<tag k="ssr:stedsnr" v="770316" />
	</node>
	<node lat="62.57462499759523" lon="11.893099993866786" id="-50612">
		<tag k="name" v="Langmyra" />
		<tag k="name:no" v="Langmyra" />
		<tag k="natural" v="wetland" />
		<tag k="ssr:stedsnr" v="770410" />
	</node>
	<node lat="62.66188055269895" lon="11.769352769284492" id="-50613">
		<tag k="historic" v="shieling" />
		<tag k="name" v="Lauvåsvollen" />
		<tag k="name:no" v="Lauvåsvollen" />
		<tag k="place" v="locality" />
		<tag k="ssr:stedsnr" v="770473" />
	</node>
	<node lat="62.60882222547186" lon="11.6501000051908" id="-50614">
		<tag k="name" v="Kåsan" />
		<tag k="name:no" v="Kåsan" />
		<tag k="place" v="locality" />
		<tag k="ssr:stedsnr" v="770629" />
	</node>
	<node lat="62.61706388851272" lon="11.686319439458657" id="-50617">
		<tag k="name" v="Litllaua" />
		<tag k="name:no" v="Litllaua" />
		<tag k="place" v="locality" />
		<tag k="ssr:stedsnr" v="770669" />
	</node>
	<node lat="62.56337222123595" lon="11.498833331743237" id="-50623">
		<tag k="name" v="Svartåsmyran" />
		<tag k="name:no" v="Svartåsmyran" />
		<tag k="natural" v="wetland" />
		<tag k="ssr:stedsnr" v="770866" />
	</node>
	<node lat="62.64415277985218" lon="11.580502768776977" id="-50633">
		<tag k="name" v="Flatan" />
		<tag k="name:no" v="Flatan" />
		<tag k="place" v="locality" />
		<tag k="ssr:stedsnr" v="770916" />
	</node>
	<node lat="62.64536666979122" lon="11.581394435140046" id="-50635">
		<tag k="name" v="Turtgrubba" />
		<tag k="name:no" v="Turtgrubba" />
		<tag k="place" v="locality" />
		<tag k="ssr:stedsnr" v="770968" />
	</node>
	<node lat="62.6500916688514" lon="11.574569449426873" id="-50636">
		<tag k="name" v="Øyan" />
		<tag k="name:no" v="Øyan" />
		<tag k="natural" v="wetland" />
		<tag k="ssr:stedsnr" v="770973" />
	</node>
	<node lat="62.741233330350966" lon="11.794916657419233" id="-50649">
		<tag k="name" v="Fiskholet" />
		<tag k="name:no" v="Fiskholet" />
		<tag k="natural" v="wetland" />
		<tag k="ssr:stedsnr" v="771567" />
	</node>
	<node lat="62.74240000113502" lon="11.836436118993156" id="-50651">
		<tag k="name" v="Langkåsa" />
		<tag k="name:no" v="Langkåsa" />
		<tag k="place" v="locality" />
		<tag k="ssr:stedsnr" v="771570" />
	</node>
	<node lat="62.68842778080431" lon="11.742130562503506" id="-50652">
		<tag k="name" v="Litljordet" />
		<tag k="name:no" v="Litljordet" />
		<tag k="place" v="locality" />
		<tag k="ssr:stedsnr" v="771706" />
	</node>
	<node lat="62.71636388784835" lon="11.879377768866792" id="-50657">
		<tag k="name" v="Volvollmyran" />
		<tag k="name:no" v="Volvollmyran" />
		<tag k="natural" v="wetland" />
		<tag k="ssr:stedsnr" v="771619" />
	</node>
	<node lat="62.79381388955552" lon="11.813880554431258" id="-50659">
		<tag k="name" v="Smedmyra" />
		<tag k="name:no" v="Smedmyra" />
		<tag k="natural" v="wetland" />
		<tag k="ssr:stedsnr" v="771813" />
	</node>
	<node lat="62.67803611024435" lon="11.79729165754996" id="-50660">
		<tag k="name" v="Tjønnslættmyran" />
		<tag k="name:no" v="Tjønnslættmyran" />
		<tag k="natural" v="wetland" />
		<tag k="ssr:stedsnr" v="772654" />
	</node>
	<node lat="62.4964999994062" lon="11.635824995639616" id="-50663">
		<tag k="name" v="Lokmyra" />
		<tag k="name:no" v="Lokmyra" />
		<tag k="natural" v="wetland" />
		<tag k="ssr:stedsnr" v="800305" />
	</node>
	<node lat="62.54883888608867" lon="11.508438892857317" id="-50680">
		<tag k="name" v="Skåkåsstenen" />
		<tag k="name:no" v="Skåkåsstenen" />
		<tag k="natural" v="stone" />
		<tag k="ssr:stedsnr" v="808807" />
	</node>
	<node lat="62.570236113200224" lon="11.409425004695864" id="-50690">
		<tag k="name" v="Svornråa" />
		<tag k="name:no" v="Svornråa" />
		<tag k="place" v="locality" />
		<tag k="ssr:stedsnr" v="827020" />
	</node>
	<node lat="62.74139999702144" lon="11.824491659318825" id="-50702">
		<tag k="name" v="Grubbvollen" />
		<tag k="name:no" v="Grubbvollen" />
		<tag k="place" v="locality" />
		<tag k="ssr:stedsnr" v="922459" />
	</node>
	<node lat="62.718047225893024" lon="11.37423333061802" id="-50723">
		<tag k="name" v="Ristelen" />
		<tag k="name:no" v="Ristelen" />
		<tag k="place" v="locality" />
		<tag k="ssr:stedsnr" v="831210" />
	</node>
	<node lat="62.71755277788213" lon="11.364900002461734" id="-50724">
		<tag k="name" v="Dolpin" />
		<tag k="name:no" v="Dolpin" />
		<tag k="place" v="locality" />
		<tag k="ssr:stedsnr" v="831215" />
	</node>
	<node lat="62.70461388512869" lon="11.605858341374454" id="-50727">
		<tag k="name" v="Piggstenen" />
		<tag k="name:no" v="Piggstenen" />
		<tag k="natural" v="stone" />
		<tag k="ssr:stedsnr" v="831334" />
	</node>
	<node lat="62.64663332888141" lon="11.806411118006862" id="-50735">
		<tag k="name" v="Slåttmyra" />
		<tag k="name:no" v="Slåttmyra" />
		<tag k="natural" v="wetland" />
		<tag k="ssr:stedsnr" v="831434" />
	</node>
	<node lat="62.58474166884614" lon="11.484700000438902" id="-50745">
		<tag k="name" v="Stormyra" />
		<tag k="name:no" v="Stormyra" />
		<tag k="natural" v="wetland" />
		<tag k="ssr:stedsnr" v="831906" />
	</node>
	<node lat="62.63796944675521" lon="11.568822231543923" id="-50749">
		<tag k="name" v="Brennrabben" />
		<tag k="name:no" v="Brennrabben" />
		<tag k="place" v="locality" />
		<tag k="ssr:stedsnr" v="831889" />
	</node>
	<node lat="62.58180277830069" lon="11.212961110872678" id="-50750">
		<tag k="name" v="Hjortmyran" />
		<tag k="name:no" v="Hjortmyran" />
		<tag k="natural" v="wetland" />
		<tag k="ssr:stedsnr" v="832307" />
	</node>
	<node lat="62.58689999973722" lon="11.329419441793686" id="-50757">
		<tag k="name" v="Prostfloen" />
		<tag k="name:no" v="Prostfloen" />
		<tag k="place" v="locality" />
		<tag k="ssr:stedsnr" v="832385" />
	</node>
	<node lat="62.74226944451743" lon="11.839325003860699" id="-50763">
		<tag k="historic" v="shieling" />
		<tag k="name" v="Sjøvollvollen" />
		<tag k="name:no" v="Sjøvollvollen" />
		<tag k="place" v="locality" />
		<tag k="ssr:stedsnr" v="832586" />
	</node>
	<node lat="62.74756388972092" lon="11.82439999782219" id="-50764">
		<tag k="name" v="Litlkåsa" />
		<tag k="name:no" v="Litlkåsa" />
		<tag k="place" v="locality" />
		<tag k="ssr:stedsnr" v="832594" />
	</node>
	<node lat="62.6100916627241" lon="11.678652786961255" id="-50766">
		<tag k="name" v="Raustenmyra" />
		<tag k="name:no" v="Raustenmyra" />
		<tag k="natural" v="wetland" />
		<tag k="ssr:stedsnr" v="832707" />
	</node>
	<node lat="62.685222222424315" lon="11.534908340961927" id="-50771">
		<tag k="name" v="Røstmyra" />
		<tag k="name:no" v="Røstmyra" />
		<tag k="natural" v="wetland" />
		<tag k="ssr:stedsnr" v="832606" />
	</node>
	<node lat="62.602844440173385" lon="11.658305552897186" id="-50773">
		<tag k="name" v="Holla" />
		<tag k="name:no" v="Holla" />
		<tag k="place" v="locality" />
		<tag k="ssr:stedsnr" v="832613" />
	</node>
	<node lat="62.60198610994905" lon="11.620894449658834" id="-50775">
		<tag k="historic" v="shieling" />
		<tag k="name" v="Bitrudsvollen" />
		<tag k="name:no" v="Bitrudsvollen" />
		<tag k="place" v="locality" />
		<tag k="ssr:stedsnr" v="832641" />
	</node>
	<node lat="62.62033055432246" lon="11.709611103645821" id="-50776">
		<tag k="historic" v="shieling" />
		<tag k="name" v="Romsdølvollen" />
		<tag k="name:no" v="Romsdølvollen" />
		<tag k="place" v="locality" />
		<tag k="ssr:stedsnr" v="832698" />
	</node>
	<node lat="62.61379444826795" lon="11.702497229721638" id="-50777">
		<tag k="name" v="Lisemyran" />
		<tag k="name:no" v="Lisemyran" />
		<tag k="natural" v="wetland" />
		<tag k="ssr:stedsnr" v="832701" />
	</node>
	<node lat="62.70388610909795" lon="11.888658338122909" id="-50785">
		<tag k="name" v="Ormlokan" />
		<tag k="name:no" v="Ormlokan" />
		<tag k="natural" v="wetland" />
		<tag k="ssr:stedsnr" v="832836" />
	</node>
	<node lat="62.693319447524985" lon="11.894647230510854" id="-50786">
		<tag k="name" v="Tuvloken" />
		<tag k="name:no" v="Tuvloken" />
		<tag k="natural" v="wetland" />
		<tag k="ssr:stedsnr" v="832839" />
	</node>
	<node lat="62.69890833545454" lon="11.739483340274441" id="-50793">
		<tag k="historic" v="shieling" />
		<tag k="name" v="Kjellsvollen" />
		<tag k="name:no" v="Kjellsvollen" />
		<tag k="place" v="locality" />
		<tag k="ssr:stedsnr" v="833715" />
	</node>
	<node lat="62.61095555304595" lon="11.596086107718268" id="-50824">
		<tag k="name" v="Grunnsjømyran" />
		<tag k="name:no" v="Grunnsjømyran" />
		<tag k="natural" v="wetland" />
		<tag k="ssr:stedsnr" v="931857" />
	</node>
	<node lat="62.57865278093457" lon="11.418608340197743" id="-50835">
		<tag k="name" v="Gråmyra" />
		<tag k="name:no" v="Gråmyra" />
		<tag k="natural" v="wetland" />
		<tag k="ssr:stedsnr" v="888016" />
	</node>
	<node lat="62.69377499975575" lon="11.461433326751175" id="-50839">
		<tag k="name" v="Lokfloan" />
		<tag k="name:no" v="Lokfloan" />
		<tag k="natural" v="wetland" />
		<tag k="ssr:stedsnr" v="888125" />
	</node>
	<node lat="62.63691388804998" lon="11.343444448073397" id="-50841">
		<tag k="name" v="Stormyra" />
		<tag k="name:no" v="Stormyra" />
		<tag k="natural" v="wetland" />
		<tag k="ssr:stedsnr" v="888102" />
	</node>
	<node lat="62.67998333095337" lon="11.94820000440805" id="-50851">
		<tag k="name" v="Støvlmyran" />
		<tag k="name:no" v="Støvlmyran" />
		<tag k="natural" v="wetland" />
		<tag k="ssr:stedsnr" v="892122" />
	</node>
	<node lat="62.740913886033326" lon="11.91381111106843" id="-50852">
		<tag k="name" v="Kåsan" />
		<tag k="name:no" v="Kåsan" />
		<tag k="place" v="locality" />
		<tag k="ssr:stedsnr" v="892006" />
	</node>
	<node lat="62.68356389085011" lon="11.3976444439969" id="-50856">
		<tag k="name" v="Grunna" />
		<tag k="name:no" v="Grunna" />
		<tag k="place" v="locality" />
		<tag k="ssr:stedsnr" v="892203" />
	</node>
	<node lat="62.544298869978626" lon="11.2833695654171" id="-50862">
		<tag k="name" v="Trøan" />
		<tag k="name:no" v="Trøan" />
		<tag k="place" v="locality" />
		<tag k="ssr:stedsnr" v="892304" />
	</node>
	<node lat="62.645374998573764" lon="11.77253332709271" id="-50863">
		<tag k="name" v="Røstmyra" />
		<tag k="name:no" v="Røstmyra" />
		<tag k="natural" v="wetland" />
		<tag k="ssr:stedsnr" v="892305" />
	</node>
	<node lat="62.60073610783619" lon="11.27557500220446" id="-50865">
		<tag k="name" v="Ryan" />
		<tag k="name:no" v="Ryan" />
		<tag k="place" v="locality" />
		<tag k="ssr:stedsnr" v="892361" />
	</node>
	<node lat="62.60693333513877" lon="11.66684722192278" id="-50868">
		<tag k="name" v="Rundhaugmyra" />
		<tag k="name:no" v="Rundhaugmyra" />
		<tag k="natural" v="wetland" />
		<tag k="ssr:stedsnr" v="892558" />
	</node>
	<node lat="62.63421944029813" lon="11.950227778211948" id="-50874">
		<tag k="name" v="Skjeftmyran" />
		<tag k="name:no" v="Skjeftmyran" />
		<tag k="natural" v="wetland" />
		<tag k="ssr:stedsnr" v="892424" />
	</node>
	<node lat="62.662483335523675" lon="11.763402772676919" id="-50876">
		<tag k="name" v="Midtlauvåskåsa" />
		<tag k="name:no" v="Midtlauvåskåsa" />
		<tag k="place" v="locality" />
		<tag k="ssr:stedsnr" v="892477" />
	</node>
	<node lat="62.661136113277244" lon="11.746380561879764" id="-50877">
		<tag k="name" v="Bjørnåsstenen" />
		<tag k="name:no" v="Bjørnåsstenen" />
		<tag k="natural" v="stone" />
		<tag k="ssr:stedsnr" v="892480" />
	</node>
	<node lat="62.691305559076746" lon="11.520722224949614" id="-50885">
		<tag k="name" v="Storfloen" />
		<tag k="name:no" v="Storfloen" />
		<tag k="natural" v="wetland" />
		<tag k="ssr:stedsnr" v="892922" />
	</node>
	<node lat="62.692066664655606" lon="11.488772226591058" id="-50888">
		<tag k="name" v="Lemskliningen" />
		<tag k="name:no" v="Lemskliningen" />
		<tag k="place" v="locality" />
		<tag k="ssr:stedsnr" v="892934" />
	</node>
	<node lat="62.567088888908735" lon="11.582441660781347" id="-50892">
		<tag k="landuse" v="meadow" />
		<tag k="name" v="Småslættan" />
		<tag k="name:no" v="Småslættan" />
		<tag k="ssr:stedsnr" v="892805" />
	</node>
	<node lat="62.684736112353534" lon="11.777658332177978" id="-50896">
		<tag k="name" v="Andreasmyra" />
		<tag k="name:no" v="Andreasmyra" />
		<tag k="natural" v="wetland" />
		<tag k="ssr:stedsnr" v="893711" />
	</node>
	<node lat="62.71189166838387" lon="11.729630563061072" id="-50897">
		<tag k="name" v="Vassmyra" />
		<tag k="name:no" v="Vassmyra" />
		<tag k="natural" v="wetland" />
		<tag k="ssr:stedsnr" v="893704" />
	</node>
	<node lat="62.692008329208335" lon="11.720849996677613" id="-50898">
		<tag k="name" v="Kokkvollslåtten" />
		<tag k="name:no" v="Kokkvollslåtten" />
		<tag k="place" v="locality" />
		<tag k="ssr:stedsnr" v="893615" />
	</node>
	<node lat="62.67471944078637" lon="11.823680549555808" id="-50899">
		<tag k="name" v="Holmen" />
		<tag k="name:no" v="Holmen" />
		<tag k="place" v="locality" />
		<tag k="ssr:stedsnr" v="893623" />
	</node>
	<node lat="62.68730833243691" lon="11.745352771798425" id="-50900">
		<tag k="name" v="Bastubakken" />
		<tag k="name:no" v="Bastubakken" />
		<tag k="place" v="locality" />
		<tag k="ssr:stedsnr" v="893665" />
	</node>
	<node lat="62.70628611401301" lon="11.734402770815251" id="-50902">
		<tag k="name" v="Kvernhuset" />
		<tag k="name:no" v="Kvernhuset" />
		<tag k="place" v="locality" />
		<tag k="ssr:stedsnr" v="893774" />
	</node>
	<node lat="62.563316670493215" lon="11.633522227520835" id="-50907">
		<tag k="name" v="Raudhåmmårslåttan" />
		<tag k="name:no" v="Raudhåmmårslåttan" />
		<tag k="natural" v="wetland" />
		<tag k="ssr:stedsnr" v="921602" />
	</node>
	<node lat="62.46176666398817" lon="11.69840276859655" id="-50908">
		<tag k="landuse" v="meadow" />
		<tag k="name" v="Svinåslættet" />
		<tag k="name:no" v="Svinåslættet" />
		<tag k="ssr:stedsnr" v="921387" />
	</node>
	<node lat="62.60068333701618" lon="11.786011106483734" id="-50946">
		<tag k="name" v="Granfloen" />
		<tag k="name:no" v="Granfloen" />
		<tag k="natural" v="wetland" />
		<tag k="ssr:stedsnr" v="931316" />
	</node>
	<node lat="62.55699166236086" lon="11.840169448171874" id="-50947">
		<tag k="name" v="Middagsmyran" />
		<tag k="name:no" v="Middagsmyran" />
		<tag k="natural" v="wetland" />
		<tag k="ssr:stedsnr" v="931302" />
	</node>
	<node lat="62.44100555629822" lon="11.576044452670754" id="-50951">
		<tag k="name" v="Brennslåttfloen" />
		<tag k="name:no" v="Brennslåttfloen" />
		<tag k="natural" v="wetland" />
		<tag k="ssr:stedsnr" v="952052" />
	</node>
	<node lat="62.641997219066205" lon="11.584905559037756" id="-50955">
		<tag k="name" v="Småmyra" />
		<tag k="name:no" v="Småmyra" />
		<tag k="natural" v="wetland" />
		<tag k="ssr:stedsnr" v="952911" />
	</node>
	<node lat="62.59220555786629" lon="11.809352771009916" id="-50959">
		<tag k="name" v="Skansen" />
		<tag k="name:no" v="Skansen" />
		<tag k="place" v="locality" />
		<tag k="ssr:stedsnr" v="953304" />
	</node>
	<node lat="62.6432000020522" lon="12.04419722224085" id="-50960">
		<tag k="name" v="Storvolltjønnrya" />
		<tag k="name:no" v="Storvolltjønnrya" />
		<tag k="place" v="locality" />
		<tag k="ssr:stedsnr" v="953305" />
	</node>
	<node lat="62.63452500289186" lon="11.761777773231456" id="-50962">
		<tag k="name" v="Kvitstenfloen" />
		<tag k="name:no" v="Kvitstenfloen" />
		<tag k="natural" v="wetland" />
		<tag k="ssr:stedsnr" v="953343" />
	</node>
	<node lat="62.59368610926951" lon="11.292633324311716" id="-50968">
		<tag k="name" v="Varglimyra" />
		<tag k="name:no" v="Varglimyra" />
		<tag k="natural" v="wetland" />
		<tag k="ssr:stedsnr" v="953427" />
	</node>
	<node lat="62.55505555641345" lon="11.843611113622579" id="-50970">
		<tag k="name" v="Middagsmyran" />
		<tag k="name:no" v="Middagsmyran" />
		<tag k="natural" v="wetland" />
		<tag k="ssr:stedsnr" v="953433" />
	</node>
	<node lat="62.74011389249704" lon="11.798199996624513" id="-50973">
		<tag k="name" v="Storfloen" />
		<tag k="name:no" v="Storfloen" />
		<tag k="natural" v="wetland" />
		<tag k="ssr:stedsnr" v="953597" />
	</node>
	<node lat="62.61478611273793" lon="11.6201722192683" id="-50976">
		<tag k="name" v="Ellingsmyra" />
		<tag k="name:no" v="Ellingsmyra" />
		<tag k="natural" v="wetland" />
		<tag k="ssr:stedsnr" v="953707" />
	</node>
	<node lat="62.608761114325546" lon="11.668327778639464" id="-50978">
		<tag k="name" v="Stormyra" />
		<tag k="name:no" v="Stormyra" />
		<tag k="natural" v="wetland" />
		<tag k="ssr:stedsnr" v="953719" />
	</node>
	<node lat="62.716400001052705" lon="11.745108342145313" id="-50980">
		<tag k="name" v="Anderskåsan" />
		<tag k="name:no" v="Anderskåsan" />
		<tag k="place" v="locality" />
		<tag k="ssr:stedsnr" v="953613" />
	</node>
	<node lat="62.60353332915484" lon="11.666777784905163" id="-50982">
		<tag k="name" v="Vedmyra" />
		<tag k="name:no" v="Vedmyra" />
		<tag k="natural" v="wetland" />
		<tag k="ssr:stedsnr" v="953619" />
	</node>
	<node lat="62.77541944527037" lon="11.840033337613047" id="-50985">
		<tag k="name" v="Øya" />
		<tag k="name:no" v="Øya" />
		<tag k="place" v="locality" />
		<tag k="ssr:stedsnr" v="953797" />
	</node>
	<node lat="62.59118333669021" lon="11.571772224829692" id="-50987">
		<tag k="name" v="Kåsan" />
		<tag k="name:no" v="Kåsan" />
		<tag k="place" v="locality" />
		<tag k="ssr:stedsnr" v="953911" />
	</node>
	<node lat="62.69123055968527" lon="11.492402773280359" id="-50988">
		<tag k="historic" v="shieling" />
		<tag k="name" v="Halvvollen" />
		<tag k="name:no" v="Halvvollen" />
		<tag k="place" v="locality" />
		<tag k="ssr:stedsnr" v="953940" />
	</node>
	<node lat="62.675750004231176" lon="11.586863883120406" id="-50989">
		<tag k="name" v="Langmyra" />
		<tag k="name:no" v="Langmyra" />
		<tag k="natural" v="wetland" />
		<tag k="ssr:stedsnr" v="953947" />
	</node>
	<node lat="62.67831389129648" lon="11.807922216726292" id="-50995">
		<tag k="name" v="Røstlaua" />
		<tag k="name:no" v="Røstlaua" />
		<tag k="place" v="locality" />
		<tag k="ssr:stedsnr" v="954642" />
	</node>
	<node lat="62.67689722596773" lon="11.785655562046635" id="-50998">
		<tag k="name" v="Holkastet" />
		<tag k="name:no" v="Holkastet" />
		<tag k="place" v="locality" />
		<tag k="ssr:stedsnr" v="954650" />
	</node>
	<node lat="62.69822222159305" lon="11.719925005794797" id="-50999">
		<tag k="name" v="Tangmyran" />
		<tag k="name:no" v="Tangmyran" />
		<tag k="natural" v="wetland" />
		<tag k="ssr:stedsnr" v="954701" />
	</node>
	<node lat="62.785550002382564" lon="11.804266668776489" id="-51001">
		<tag k="name" v="Tjukk-kjerran" />
		<tag k="name:no" v="Tjukk-kjerran" />
		<tag k="place" v="locality" />
		<tag k="ssr:stedsnr" v="954809" />
	</node>
	<node lat="62.702108332375325" lon="11.746119453378025" id="-51007">
		<tag k="name" v="Okstjønnmyra" />
		<tag k="name:no" v="Okstjønnmyra" />
		<tag k="natural" v="wetland" />
		<tag k="ssr:stedsnr" v="954749" />
	</node>
	<node lat="62.77225833541892" lon="11.81531388816362" id="-51008">
		<tag k="historic" v="shieling" />
		<tag k="name" v="Kåsavollen" />
		<tag k="name:no" v="Kåsavollen" />
		<tag k="place" v="locality" />
		<tag k="ssr:stedsnr" v="954791" />
	</node>
	<node lat="62.71176666545331" lon="11.819019440068455" id="-51023">
		<tag k="name" v="Storfloen" />
		<tag k="name:no" v="Storfloen" />
		<tag k="natural" v="wetland" />
		<tag k="ssr:stedsnr" v="11553" />
	</node>
	<node lat="62.680636112354215" lon="11.94394999195727" id="-51033">
		<tag k="name" v="Støvelmyra" />
		<tag k="name:no" v="Støvelmyra" />
		<tag k="natural" v="wetland" />
		<tag k="ssr:stedsnr" v="11690" />
	</node>
	<node lat="62.672639302655604" lon="11.7230917961286" id="-51034">
		<tag k="name" v="Tamnesvollen" />
		<tag k="name:no" v="Tamnesvollen" />
		<tag k="place" v="locality" />
		<tag k="ssr:stedsnr" v="11693" />
	</node>
	<node lat="62.413313885169686" lon="11.681183330387334" id="-51065">
		<tag k="name" v="Stormåssårya" />
		<tag k="name:no" v="Stormåssårya" />
		<tag k="natural" v="wetland" />
		<tag k="ssr:stedsnr" v="20577" />
	</node>
	<node lat="62.646772219041445" lon="11.366152768600063" id="-51075">
		<tag k="name" v="Storfloen" />
		<tag k="name:no" v="Storfloen" />
		<tag k="natural" v="wetland" />
		<tag k="ssr:stedsnr" v="38088" />
	</node>
	<node lat="62.63044444728299" lon="11.868561119552533" id="-51080">
		<tag k="name" v="Markmyra" />
		<tag k="name:no" v="Markmyra" />
		<tag k="natural" v="wetland" />
		<tag k="ssr:stedsnr" v="38053" />
	</node>
	<node lat="62.680086111233415" lon="11.42271111634069" id="-51087">
		<tag k="name" v="Langmyra" />
		<tag k="name:no" v="Langmyra" />
		<tag k="natural" v="wetland" />
		<tag k="ssr:stedsnr" v="38239" />
	</node>
	<node lat="62.63560833302242" lon="11.658969451223085" id="-51088">
		<tag k="historic" v="shieling" />
		<tag k="name" v="Storkojevollen" />
		<tag k="name:no" v="Storkojevollen" />
		<tag k="place" v="locality" />
		<tag k="ssr:stedsnr" v="38756" />
	</node>
	<node lat="62.66684722042928" lon="11.465386112903506" id="-51091">
		<tag k="name" v="Kurråslauslåtten" />
		<tag k="name:no" v="Kurråslauslåtten" />
		<tag k="place" v="locality" />
		<tag k="ssr:stedsnr" v="42042" />
	</node>
	<node lat="62.65595833085779" lon="11.358433334341033" id="-51098">
		<tag k="name" v="Vensåsmosen" />
		<tag k="name:no" v="Vensåsmosen" />
		<tag k="place" v="locality" />
		<tag k="ssr:stedsnr" v="42197" />
	</node>
	<node lat="62.60421388569471" lon="11.782197225103236" id="-51101">
		<tag k="historic" v="shieling" />
		<tag k="name" v="Lauvollen" />
		<tag k="name:no" v="Lauvollen" />
		<tag k="place" v="locality" />
		<tag k="ssr:stedsnr" v="42292" />
	</node>
	<node lat="62.751422224937954" lon="11.421505551824236" id="-51118">
		<tag k="name" v="Skrankelhaugfloen" />
		<tag k="name:no" v="Skrankelhaugfloen" />
		<tag k="natural" v="wetland" />
		<tag k="ssr:stedsnr" v="42243" />
	</node>
	<node lat="62.45311944867734" lon="11.82297222811979" id="-51121">
		<tag k="name" v="Gjetvollen" />
		<tag k="name:no" v="Gjetvollen" />
		<tag k="place" v="locality" />
		<tag k="ssr:stedsnr" v="42345" />
	</node>
	<node lat="62.57126666207264" lon="11.267461120115238" id="-51124">
		<tag k="name" v="Stormyran" />
		<tag k="name:no" v="Stormyran" />
		<tag k="natural" v="wetland" />
		<tag k="ssr:stedsnr" v="42352" />
	</node>
	<node lat="62.47274722053453" lon="11.907119452342915" id="-51129">
		<tag k="name" v="Kurråsmyra" />
		<tag k="name:no" v="Kurråsmyra" />
		<tag k="natural" v="wetland" />
		<tag k="ssr:stedsnr" v="42369" />
	</node>
	<node lat="62.65876944643044" lon="11.810269439420333" id="-51139">
		<tag k="name" v="Hainnbakken" />
		<tag k="name:no" v="Hainnbakken" />
		<tag k="place" v="locality" />
		<tag k="ssr:stedsnr" v="42461" />
	</node>
	<node lat="62.64818333284086" lon="11.803249998542373" id="-51140">
		<tag k="name" v="Abbormyra" />
		<tag k="name:no" v="Abbormyra" />
		<tag k="natural" v="wetland" />
		<tag k="ssr:stedsnr" v="42469" />
	</node>
	<node lat="62.60436110779789" lon="11.66117777429951" id="-51142">
		<tag k="name" v="Feragsmyra" />
		<tag k="name:no" v="Feragsmyra" />
		<tag k="natural" v="wetland" />
		<tag k="ssr:stedsnr" v="42548" />
	</node>
	<node lat="62.5989250041555" lon="11.486913891553483" id="-51151">
		<tag k="historic" v="shieling" />
		<tag k="name" v="Steffavollen" />
		<tag k="name:no" v="Steffavollen" />
		<tag k="place" v="locality" />
		<tag k="ssr:stedsnr" v="42915" />
	</node>
	<node lat="62.60002777585856" lon="11.701694443481108" id="-51155">
		<tag k="name" v="Harbekkmyra" />
		<tag k="name:no" v="Harbekkmyra" />
		<tag k="natural" v="wetland" />
		<tag k="ssr:stedsnr" v="42558" />
	</node>
	<node lat="62.598474999460336" lon="11.683302770201626" id="-51156">
		<tag k="name" v="Langsmyra" />
		<tag k="name:no" v="Langsmyra" />
		<tag k="natural" v="wetland" />
		<tag k="ssr:stedsnr" v="42559" />
	</node>
	<node lat="62.49330277762008" lon="11.503663888571362" id="-51167">
		<tag k="name" v="Milstenfloen" />
		<tag k="name:no" v="Milstenfloen" />
		<tag k="natural" v="wetland" />
		<tag k="ssr:stedsnr" v="42737" />
	</node>
	<node lat="62.53797777808655" lon="11.546044438839507" id="-51170">
		<tag k="name" v="Midtlifloan" />
		<tag k="name:no" v="Midtlifloan" />
		<tag k="natural" v="wetland" />
		<tag k="ssr:stedsnr" v="42850" />
	</node>
	<node lat="62.608113891545884" lon="11.325080556995971" id="-51176">
		<tag k="name" v="Kveldsbetemyran" />
		<tag k="name:no" v="Kveldsbetemyran" />
		<tag k="natural" v="wetland" />
		<tag k="ssr:stedsnr" v="43378" />
	</node>
	<node lat="62.703030559251374" lon="11.765883330072306" id="-51180">
		<tag k="name" v="Ner Stugguvollen" />
		<tag k="name:no" v="Ner Stugguvollen" />
		<tag k="place" v="locality" />
		<tag k="ssr:stedsnr" v="43748" />
	</node>
	<node lat="62.751005555578246" lon="11.835349998018664" id="-51185">
		<tag k="name" v="Storfinnskjeggrya" />
		<tag k="name:no" v="Storfinnskjeggrya" />
		<tag k="place" v="locality" />
		<tag k="ssr:stedsnr" v="43565" />
	</node>
	<node lat="62.730905552924284" lon="11.724527782933581" id="-51186">
		<tag k="name" v="Skuttmyran" />
		<tag k="name:no" v="Skuttmyran" />
		<tag k="natural" v="wetland" />
		<tag k="ssr:stedsnr" v="43640" />
	</node>
	<node lat="62.684563886273935" lon="11.763672220612634" id="-51188">
		<tag k="name" v="Langmyra" />
		<tag k="name:no" v="Langmyra" />
		<tag k="place" v="locality" />
		<tag k="ssr:stedsnr" v="43667" />
	</node>
	<node lat="62.77143333653861" lon="11.810622217182479" id="-51189">
		<tag k="name" v="Brattkåsa" />
		<tag k="name:no" v="Brattkåsa" />
		<tag k="place" v="locality" />
		<tag k="ssr:stedsnr" v="43791" />
	</node>
	<node lat="62.809674997859474" lon="11.834605558397481" id="-51193">
		<tag k="name" v="Breikåsa" />
		<tag k="name:no" v="Breikåsa" />
		<tag k="place" v="locality" />
		<tag k="ssr:stedsnr" v="43830" />
	</node>
	<node lat="62.68888055936352" lon="11.681886104887495" id="-51194">
		<tag k="landuse" v="meadow" />
		<tag k="name" v="Nedre Bekkstangenget" />
		<tag k="name:no" v="Nedre Bekkstangenget" />
		<tag k="ssr:stedsnr" v="55078" />
	</node>
	<node lat="62.56623967748311" lon="11.810498625777635" id="-51198">
		<tag k="landuse" v="quarry" />
		<tag k="name" v="Lergruva" />
		<tag k="name:no" v="Lergruva" />
		<tag k="ssr:stedsnr" v="72277" />
	</node>
	<node lat="62.69273333279385" lon="11.380669438439158" id="-51254">
		<tag k="name" v="Litlstranda" />
		<tag k="name:no" v="Litlstranda" />
		<tag k="place" v="locality" />
		<tag k="ssr:stedsnr" v="99154" />
	</node>
	<node lat="62.5206027793819" lon="11.933216670066216" id="-51258">
		<tag k="name" v="Støvlmyra" />
		<tag k="name:no" v="Støvlmyra" />
		<tag k="natural" v="wetland" />
		<tag k="ssr:stedsnr" v="99188" />
	</node>
	<node lat="62.63603333108856" lon="11.95533334242344" id="-51265">
		<tag k="name" v="Permyra" />
		<tag k="name:no" v="Permyra" />
		<tag k="natural" v="wetland" />
		<tag k="ssr:stedsnr" v="103444" />
	</node>
	<node lat="62.63619722213551" lon="11.217544453424374" id="-51267">
		<tag k="name" v="Langmyrlaua" />
		<tag k="name:no" v="Langmyrlaua" />
		<tag k="place" v="locality" />
		<tag k="ssr:stedsnr" v="103449" />
	</node>
	<node lat="62.62407777437082" lon="11.898266662670215" id="-51269">
		<tag k="name" v="Storfloen" />
		<tag k="name:no" v="Storfloen" />
		<tag k="natural" v="wetland" />
		<tag k="ssr:stedsnr" v="103460" />
	</node>
	<node lat="62.7148583374371" lon="11.920658340494809" id="-51275">
		<tag k="name" v="Ytter Storkåsa" />
		<tag k="name:no" v="Ytter Storkåsa" />
		<tag k="place" v="locality" />
		<tag k="ssr:stedsnr" v="103118" />
	</node>
	<node lat="62.64510833469581" lon="12.044691657060554" id="-51281">
		<tag k="name" v="Stakkrya" />
		<tag k="name:no" v="Stakkrya" />
		<tag k="place" v="locality" />
		<tag k="ssr:stedsnr" v="103283" />
	</node>
	<node lat="62.60528610752529" lon="11.303741658815765" id="-51288">
		<tag k="name" v="Kloppmyra" />
		<tag k="name:no" v="Kloppmyra" />
		<tag k="natural" v="wetland" />
		<tag k="ssr:stedsnr" v="103398" />
	</node>
	<node lat="62.652650001515184" lon="11.79867499283011" id="-51290">
		<tag k="name" v="Flåttåmyrsundet" />
		<tag k="name:no" v="Flåttåmyrsundet" />
		<tag k="place" v="locality" />
		<tag k="ssr:stedsnr" v="103496" />
	</node>
	<node lat="62.6956194405545" lon="11.689463893791382" id="-51295">
		<tag k="name" v="Kåret" />
		<tag k="name:no" v="Kåret" />
		<tag k="place" v="locality" />
		<tag k="ssr:stedsnr" v="103336" />
	</node>
	<node lat="62.700405550989906" lon="11.687588894949823" id="-51296">
		<tag k="name" v="Pikstengmyran" />
		<tag k="name:no" v="Pikstengmyran" />
		<tag k="natural" v="wetland" />
		<tag k="ssr:stedsnr" v="103341" />
	</node>
	<node lat="62.58282777762419" lon="11.242513889500525" id="-51300">
		<tag k="name" v="Glasmakermyra" />
		<tag k="name:no" v="Glasmakermyra" />
		<tag k="natural" v="wetland" />
		<tag k="ssr:stedsnr" v="103358" />
	</node>
	<node lat="62.72521944566076" lon="11.484313897631607" id="-51306">
		<tag k="name" v="Storfloen" />
		<tag k="name:no" v="Storfloen" />
		<tag k="natural" v="wetland" />
		<tag k="ssr:stedsnr" v="103559" />
	</node>
	<node lat="62.65008055214048" lon="11.812000003710175" id="-51308">
		<tag k="name" v="Tjønnmyra" />
		<tag k="name:no" v="Tjønnmyra" />
		<tag k="natural" v="wetland" />
		<tag k="ssr:stedsnr" v="103497" />
	</node>
	<node lat="62.591447226401876" lon="11.666783340442008" id="-51312">
		<tag k="name" v="Navnstenen" />
		<tag k="name:no" v="Navnstenen" />
		<tag k="natural" v="stone" />
		<tag k="ssr:stedsnr" v="103593" />
	</node>
	<node lat="62.58811666490211" lon="11.672127779702825" id="-51313">
		<tag k="name" v="Kvitstenen" />
		<tag k="name:no" v="Kvitstenen" />
		<tag k="natural" v="stone" />
		<tag k="ssr:stedsnr" v="103596" />
	</node>
	<node lat="62.5967138862214" lon="11.69290278633868" id="-51315">
		<tag k="name" v="Skarpkåsa" />
		<tag k="name:no" v="Skarpkåsa" />
		<tag k="place" v="locality" />
		<tag k="ssr:stedsnr" v="103601" />
	</node>
	<node lat="62.64713611384935" lon="11.696130551236967" id="-51320">
		<tag k="name" v="Tørgasletet" />
		<tag k="name:no" v="Tørgasletet" />
		<tag k="place" v="locality" />
		<tag k="ssr:stedsnr" v="103721" />
	</node>
	<node lat="62.6134777757616" lon="11.635344444424533" id="-51330">
		<tag k="name" v="Stendalsmyra" />
		<tag k="name:no" v="Stendalsmyra" />
		<tag k="natural" v="wetland" />
		<tag k="ssr:stedsnr" v="103654" />
	</node>
	<node lat="62.65881110858349" lon="11.547861103940491" id="-51347">
		<tag k="alt_name:no" v="Gaukvollen søre" />
		<tag k="name" v="Søre Gaukvollen" />
		<tag k="name:no" v="Søre Gaukvollen" />
		<tag k="place" v="locality" />
		<tag k="ssr:stedsnr" v="103989" />
	</node>
	<node lat="62.67015833004799" lon="11.58283610242171" id="-51348">
		<tag k="name" v="Bekkøyan" />
		<tag k="name:no" v="Bekkøyan" />
		<tag k="place" v="locality" />
		<tag k="ssr:stedsnr" v="103993" />
	</node>
	<node lat="62.71864444493694" lon="11.874852775311867" id="-51350">
		<tag k="name" v="Jensmerket" />
		<tag k="name:no" v="Jensmerket" />
		<tag k="place" v="locality" />
		<tag k="ssr:stedsnr" v="104593" />
	</node>
	<node lat="62.722897220393286" lon="11.805024994963384" id="-51353">
		<tag k="name" v="Notåstjønnlaua" />
		<tag k="name:no" v="Notåstjønnlaua" />
		<tag k="place" v="locality" />
		<tag k="ssr:stedsnr" v="104713" />
	</node>
	<node lat="62.68408055788495" lon="11.77298888635436" id="-51355">
		<tag k="historic" v="shieling" />
		<tag k="name" v="Litlvollen" />
		<tag k="name:no" v="Litlvollen" />
		<tag k="place" v="locality" />
		<tag k="ssr:stedsnr" v="104721" />
	</node>
	<node lat="62.8106888866867" lon="11.835841673136601" id="-51356">
		<tag k="name" v="Korsen" />
		<tag k="name:no" v="Korsen" />
		<tag k="place" v="locality" />
		<tag k="ssr:stedsnr" v="104821" />
	</node>
	<node lat="62.675988890134484" lon="11.814963883678521" id="-51357">
		<tag k="name" v="Tistelholmen" />
		<tag k="name:no" v="Tistelholmen" />
		<tag k="place" v="locality" />
		<tag k="ssr:stedsnr" v="104639" />
	</node>
	<node lat="62.70123889110973" lon="11.791649999480793" id="-51360">
		<tag k="historic" v="shieling" />
		<tag k="name" v="Mortenvollen" />
		<tag k="name:no" v="Mortenvollen" />
		<tag k="place" v="locality" />
		<tag k="ssr:stedsnr" v="104740" />
	</node>
	<node lat="62.70531944468383" lon="11.758538893048412" id="-51361">
		<tag k="name" v="Rundmyra" />
		<tag k="name:no" v="Rundmyra" />
		<tag k="natural" v="wetland" />
		<tag k="ssr:stedsnr" v="104747" />
	</node>
	<node lat="62.697472220225166" lon="11.816947224433214" id="-51362">
		<tag k="name" v="Tvilokfloen" />
		<tag k="name:no" v="Tvilokfloen" />
		<tag k="natural" v="wetland" />
		<tag k="ssr:stedsnr" v="104758" />
	</node>
	<node lat="62.69413333256754" lon="11.80439999251144" id="-51363">
		<tag k="name" v="Skrømkåsa" />
		<tag k="name:no" v="Skrømkåsa" />
		<tag k="place" v="locality" />
		<tag k="ssr:stedsnr" v="104766" />
	</node>
	<node lat="62.699347218824634" lon="11.897094437993978" id="-51364">
		<tag k="name" v="Jonettastenan" />
		<tag k="name:no" v="Jonettastenan" />
		<tag k="place" v="locality" />
		<tag k="ssr:stedsnr" v="104834" />
	</node>
</osm>
