<?xml version="1.0" encoding="UTF-8"?>
<<<<<<< HEAD
<osm version="0.6" generator="osmapis">
	<node lat="62.684416666732886" lon="11.832641673303518" id="-38495">
		<tag k="fixme" v="consider boundary=protected_area and relevant protect_class if not nature reserve" />
		<tag k="leisure" v="nature_reserve" />
		<tag k="name" v="Sølendet naturreservat" />
		<tag k="name:no" v="Sølendet naturreservat" />
		<tag k="ssr:stedsnr" v="41795" />
	</node>
	<node lat="62.71156944695003" lon="11.145500005306385" id="-38600">
=======
<osm generator="osmapis" version="0.6">
	<node id="-742655" lat="62.6335416662" lon="11.4108722213">
		<tag k="historic" v="boundary_stone" />
		<tag k="man_made" v="cairn" />
		<tag k="name" v="Brannegga" />
		<tag k="name:no" v="Brannegga" />
		<tag k="place" v="locality" />
		<tag k="ssr:stedsnr" v="829394" />
	</node>
	<node id="-741439" lat="62.7125222185" lon="11.9935361134">
>>>>>>> e1d4bc35ff8a6074a6f2e91616a996b547c36f15
		<tag k="fixme" v="consider boundary=protected_area and relevant protect_class if not nature reserve" />
		<tag k="leisure" v="nature_reserve" />
		<tag k="name" v="Øyungen landskapsvernområde" />
		<tag k="ssr:stedsnr" v="100369" />
	</node>
<<<<<<< HEAD
	<node lat="62.611910345387976" lon="12.056087790375143" id="-38829">
=======
	<node id="-740605" lat="62.5384393699" lon="11.4709017047">
		<tag k="fixme" v="consider boundary=protected_area and relevant protect_class if not nature reserve" />
		<tag k="leisure" v="nature_reserve" />
		<tag k="name" v="Mølmannsdalen naturreservat" />
		<tag k="name:no" v="Mølmannsdalen naturreservat" />
		<tag k="ssr:stedsnr" v="980990" />
	</node>
	<node id="-740298" lat="62.6715750025" lon="12.0913527739">
		<tag k="historic" v="boundary_stone" />
		<tag k="man_made" v="cairn" />
		<tag k="name" v="Gruvsjøfjellrøysa" />
		<tag k="name:no" v="Gruvsjøfjellrøysa" />
		<tag k="old_name:no" v="Dalvolskaftrøsa;Dalvolaskaft Røset;Dalvolaskaftrøysa" />
		<tag k="place" v="locality" />
		<tag k="ssr:stedsnr" v="899080" />
	</node>
	<node id="-738777" lat="62.6119103454" lon="12.0560877904">
>>>>>>> e1d4bc35ff8a6074a6f2e91616a996b547c36f15
		<tag k="historic" v="boundary_stone" />
		<tag k="man_made" v="cairn" />
		<tag k="name" v="Rutrøysa" />
		<tag k="name:no" v="Rutrøysa" />
		<tag k="place" v="locality" />
		<tag k="ssr:stedsnr" v="263328" />
	</node>
<<<<<<< HEAD
	<node lat="62.590094443355966" lon="11.684744449359297" id="-38889">
		<tag k="fixme" v="specify shooting=range, clay_pigeon etc" />
		<tag k="leisure" v="pitch" />
		<tag k="name" v="Skytebanen" />
		<tag k="name:no" v="Skytebanen" />
		<tag k="sport" v="shooting" />
		<tag k="ssr:stedsnr" v="225609" />
	</node>
	<node lat="62.6948194408925" lon="11.73669722554922" id="-39044">
		<tag k="fixme" v="specify shooting=range, clay_pigeon etc" />
		<tag k="leisure" v="pitch" />
		<tag k="name" v="Kokkvollen skytebane" />
		<tag k="name:no" v="Kokkvollen skytebane" />
		<tag k="sport" v="shooting" />
		<tag k="ssr:stedsnr" v="302699" />
	</node>
	<node lat="62.52042500349433" lon="11.484727787735281" id="-39262">
		<tag k="fixme" v="specify shooting=range, clay_pigeon etc" />
		<tag k="leisure" v="pitch" />
		<tag k="name" v="Hådalen skytebane" />
		<tag k="name:no" v="Hådalen skytebane" />
		<tag k="sport" v="shooting" />
		<tag k="ssr:stedsnr" v="484690" />
	</node>
	<node lat="62.772827780025814" lon="11.784236104316204" id="-40156">
=======
	<node id="-741622" lat="62.3652750009" lon="12.0841583394">
		<tag k="fixme" v="consider boundary=protected_area and relevant protect_class if not nature reserve" />
		<tag k="leisure" v="nature_reserve" />
		<tag k="name" v="Femundsmarka nasjonalpark" />
		<tag k="name:no" v="Femundsmarka nasjonalpark" />
		<tag k="ssr:stedsnr" v="389235" />
	</node>
	<node id="-740596" lat="62.6956027782" lon="11.7351111109">
		<tag k="fixme" v="specify shooting=range, clay_pigeon etc" />
		<tag k="leisure" v="pitch" />
		<tag k="name" v="Skytebanen" />
		<tag k="name:no" v="Skytebanen" />
		<tag k="sport" v="shooting" />
		<tag k="ssr:stedsnr" v="954705" />
	</node>
	<node id="-741747" lat="62.4908111098" lon="12.1413111025">
		<tag k="historic" v="boundary_stone" />
		<tag k="man_made" v="cairn" />
		<tag k="name" v="Viglskaftrøysa" />
		<tag k="name:no" v="Viglskaftrøysa" />
		<tag k="place" v="locality" />
		<tag k="ssr:stedsnr" v="413083" />
	</node>
	<node id="-741074" lat="62.7479190384" lon="12.1363571645">
		<tag k="historic" v="boundary_stone" />
		<tag k="man_made" v="cairn" />
		<tag k="name" v="Haftorsstøtrøysa" />
		<tag k="name:no" v="Haftorsstøtrøysa" />
		<tag k="place" v="locality" />
		<tag k="ssr:stedsnr" v="110064" />
	</node>
	<node id="-741075" lat="62.4011138847" lon="12.2049277694">
		<tag k="historic" v="boundary_stone" />
		<tag k="man_made" v="cairn" />
		<tag k="name" v="Skjebroskaftrøysa" />
		<tag k="name:no" v="Skjebroskaftrøysa" />
		<tag k="place" v="locality" />
		<tag k="ssr:stedsnr" v="110084" />
	</node>
	<node id="-742992" lat="62.5410750017" lon="12.1055055463">
		<tag k="historic" v="boundary_stone" />
		<tag k="man_made" v="cairn" />
		<tag k="name" v="Fjellbolagsrøysa" />
		<tag k="name:no" v="Fjellbolagsrøysa" />
		<tag k="place" v="locality" />
		<tag k="ssr:stedsnr" v="960078" />
	</node>
	<node id="-738764" lat="62.711569447" lon="11.1455000053">
		<tag k="fixme" v="consider boundary=protected_area and relevant protect_class if not nature reserve" />
		<tag k="leisure" v="nature_reserve" />
		<tag k="name" v="Øyungen landskapsvernområde" />
		<tag k="ssr:stedsnr" v="100369" />
	</node>
	<node id="-739979" lat="62.77282778" lon="11.7842361043">
		<tag k="name" v="Røros nordre allmenning" />
		<tag k="name:no" v="Røros nordre allmenning" />
		<tag k="place" v="locality" />
		<tag k="ssr:stedsnr" v="711797" />
	</node>
	<node id="-742570" lat="62.65095" lon="11.3349111068">
		<tag k="fixme" v="specify shooting=range, clay_pigeon etc" />
		<tag k="leisure" v="pitch" />
		<tag k="name" v="Glåmos skytebane" />
		<tag k="name:no" v="Glåmos skytebane" />
		<tag k="sport" v="shooting" />
		<tag k="ssr:stedsnr" v="787704" />
	</node>
	<node id="-739304" lat="62.5204250035" lon="11.4847277877">
		<tag k="fixme" v="specify shooting=range, clay_pigeon etc" />
		<tag k="leisure" v="pitch" />
		<tag k="name" v="Hådalen skytebane" />
		<tag k="name:no" v="Hådalen skytebane" />
		<tag k="sport" v="shooting" />
		<tag k="ssr:stedsnr" v="484690" />
	</node>
	<node id="-741354" lat="62.6948194409" lon="11.7366972255">
		<tag k="fixme" v="specify shooting=range, clay_pigeon etc" />
		<tag k="leisure" v="pitch" />
		<tag k="name" v="Kokkvollen skytebane" />
		<tag k="name:no" v="Kokkvollen skytebane" />
		<tag k="sport" v="shooting" />
		<tag k="ssr:stedsnr" v="302699" />
	</node>
	<node id="-740817" lat="62.761494442" lon="11.785588885">
>>>>>>> e1d4bc35ff8a6074a6f2e91616a996b547c36f15
		<tag k="name" v="Røros nordre allmenning" />
		<tag k="name:no" v="Røros nordre allmenning" />
		<tag k="place" v="locality" />
		<tag k="ssr:stedsnr" v="711797" />
	</node>
<<<<<<< HEAD
	<node lat="62.67157500246954" lon="12.091352773907277" id="-40159">
		<tag k="historic" v="boundary_stone" />
		<tag k="man_made" v="cairn" />
		<tag k="name" v="Gruvsjøfjellrøysa" />
		<tag k="name:no" v="Gruvsjøfjellrøysa" />
		<tag k="old_name:no" v="Dalvolskaftrøsa;Dalvolaskaft Røset;Dalvolaskaftrøysa" />
		<tag k="place" v="locality" />
		<tag k="ssr:stedsnr" v="899080" />
	</node>
	<node lat="62.650949999962165" lon="11.334911106834165" id="-40272">
=======
	<node id="-738628" lat="62.5900944434" lon="11.6847444494">
>>>>>>> e1d4bc35ff8a6074a6f2e91616a996b547c36f15
		<tag k="fixme" v="specify shooting=range, clay_pigeon etc" />
		<tag k="leisure" v="pitch" />
		<tag k="name" v="Skytebanen" />
		<tag k="name:no" v="Skytebanen" />
		<tag k="sport" v="shooting" />
		<tag k="ssr:stedsnr" v="225609" />
	</node>
<<<<<<< HEAD
=======
	<node id="-740678" lat="62.6844166667" lon="11.8326416733">
		<tag k="fixme" v="consider boundary=protected_area and relevant protect_class if not nature reserve" />
		<tag k="leisure" v="nature_reserve" />
		<tag k="name" v="Sølendet naturreservat" />
		<tag k="name:no" v="Sølendet naturreservat" />
		<tag k="ssr:stedsnr" v="41795" />
	</node>
	<node id="-740507" lat="62.7066251728" lon="11.405069479">
		<tag k="historic" v="boundary_stone" />
		<tag k="man_made" v="cairn" />
		<tag k="name" v="Markstenshøgda" />
		<tag k="name:no" v="Markstenshøgda" />
		<tag k="place" v="locality" />
		<tag k="ssr:stedsnr" v="949190" />
	</node>
>>>>>>> e1d4bc35ff8a6074a6f2e91616a996b547c36f15
</osm>
