<?xml version="1.0" encoding="UTF-8"?>
<osm version="0.6" generator="osmapis">
	<node lat="62.55170000394251" lon="11.365899992192029" id="-31527">
		<tag k="historic" v="shieling" />
		<tag k="name" v="Sjursvollan" />
		<tag k="name:no" v="Sjursvollan" />
		<tag k="place" v="isolated_dwelling" />
		<tag k="ssr:stedsnr" v="11577" />
	</node>
	<node lat="62.57362500006773" lon="11.413505564314647" id="-31528">
		<tag k="historic" v="shieling" />
		<tag k="name" v="Småsetran" />
		<tag k="name:no" v="Småsetran" />
		<tag k="place" v="isolated_dwelling" />
		<tag k="ssr:stedsnr" v="11590" />
	</node>
	<node lat="62.676711107694246" lon="11.907327769745734" id="-31529">
		<tag k="historic" v="shieling" />
		<tag k="name" v="Høgvollivollan" />
		<tag k="name:no" v="Høgvollivollan" />
		<tag k="place" v="isolated_dwelling" />
		<tag k="ssr:stedsnr" v="11703" />
	</node>
	<node lat="62.6992138858422" lon="12.093144447372204" id="-31530">
		<tag k="historic" v="shieling" />
		<tag k="name" v="Hyddkroken" />
		<tag k="name:no" v="Hyddkroken" />
		<tag k="place" v="isolated_dwelling" />
		<tag k="ssr:stedsnr" v="11706" />
	</node>
	<node lat="62.5708277802543" lon="11.843241668719788" id="-31535">
		<tag k="fixme" v="consider place=hamlet" />
		<tag k="name" v="Feragen" />
		<tag k="name:no" v="Feragen" />
		<tag k="place" v="village" />
		<tag k="ssr:stedsnr" v="12288" />
	</node>
	<node lat="62.571619447788656" lon="11.847499994840277" id="-31536">
		<tag k="name" v="Haugan" />
		<tag k="name:no" v="Haugan" />
		<tag k="place" v="farm" />
		<tag k="ssr:stedsnr" v="12292" />
	</node>
	<node lat="62.723713890449616" lon="11.591497213998386" id="-31537">
		<tag k="historic" v="shieling" />
		<tag k="name" v="Sulussetra" />
		<tag k="name:no" v="Sulussetra" />
		<tag k="place" v="isolated_dwelling" />
		<tag k="ssr:stedsnr" v="12801" />
	</node>
	<node lat="62.81727638992977" lon="11.829369914183648" id="-31538">
		<tag k="alt_name:no" v="Fjellheim, øvre" />
		<tag k="name" v="Øvre Fjellheim" />
		<tag k="name:no" v="Øvre Fjellheim" />
		<tag k="place" v="farm" />
		<tag k="ssr:stedsnr" v="12805" />
	</node>
	<node lat="62.600508333629634" lon="11.693352778476491" id="-31542">
		<tag k="name" v="Kjelsvollen" />
		<tag k="name:no" v="Kjelsvollen" />
		<tag k="place" v="farm" />
		<tag k="ssr:stedsnr" v="12911" />
	</node>
	<node lat="62.60340000329429" lon="11.462586109210575" id="-31543">
		<tag k="historic" v="shieling" />
		<tag k="name" v="Enarsvollen" />
		<tag k="name:no" v="Enarsvollen" />
		<tag k="place" v="isolated_dwelling" />
		<tag k="ssr:stedsnr" v="20810" />
	</node>
	<node lat="62.6788454516625" lon="11.788949394590354" id="-31544">
		<tag k="fixme" v="consider place=hamlet" />
		<tag k="name" v="Martavollen" />
		<tag k="name:no" v="Martavollen" />
		<tag k="place" v="farm" />
		<tag k="ssr:stedsnr" v="21708" />
	</node>
	<node lat="62.666962508123206" lon="11.682273969087678" id="-31547">
		<tag k="fixme" v="consider place=hamlet" />
		<tag k="name" v="Tamneset" />
		<tag k="name:no" v="Tamneset" />
		<tag k="place" v="farm" />
		<tag k="ssr:stedsnr" v="25082" />
	</node>
	<node lat="62.62896666671494" lon="11.410474994216136" id="-31549">
		<tag k="name" v="Skottvollen" />
		<tag k="name:no" v="Skottvollen" />
		<tag k="place" v="locality" />
		<tag k="ssr:stedsnr" v="38103" />
	</node>
	<node lat="62.6183805557756" lon="11.435377777554539" id="-31550">
		<tag k="historic" v="shieling" />
		<tag k="name" v="Trøa" />
		<tag k="name:no" v="Trøa" />
		<tag k="place" v="isolated_dwelling" />
		<tag k="ssr:stedsnr" v="38112" />
	</node>
	<node lat="62.64873333711297" lon="11.855225004238733" id="-31554">
		<tag k="name" v="Borgosen" />
		<tag k="name:no" v="Borgosen" />
		<tag k="place" v="farm" />
		<tag k="ssr:stedsnr" v="38057" />
	</node>
	<node lat="62.646991669396414" lon="11.879380562295584" id="-31557">
		<tag k="alt_name:no" v="Henningsgården midtre" />
		<tag k="name" v="Midtre Henningsgården" />
		<tag k="name:no" v="Midtre Henningsgården" />
		<tag k="place" v="farm" />
		<tag k="ssr:stedsnr" v="38079" />
	</node>
	<node lat="62.65216388469721" lon="11.641313897103274" id="-31561">
		<tag k="name" v="Karihaugen" />
		<tag k="name:no" v="Karihaugen" />
		<tag k="place" v="farm" />
		<tag k="ssr:stedsnr" v="38769" />
	</node>
	<node lat="62.67909722640458" lon="11.911422216412973" id="-31565">
		<tag k="historic" v="shieling" />
		<tag k="name" v="Estenvollen" />
		<tag k="name:no" v="Estenvollen" />
		<tag k="place" v="isolated_dwelling" />
		<tag k="ssr:stedsnr" v="42110" />
	</node>
	<node lat="62.560244440314676" lon="11.297436110358959" id="-31570">
		<tag k="alt_name:no" v="Tyvoll søndre" />
		<tag k="name" v="Søndre Tyvoll" />
		<tag k="name:no" v="Søndre Tyvoll" />
		<tag k="place" v="farm" />
		<tag k="ssr:stedsnr" v="42312" />
	</node>
	<node lat="62.54697222581755" lon="11.297994438435124" id="-31573">
		<tag k="name" v="Nyheim" />
		<tag k="name:no" v="Nyheim" />
		<tag k="place" v="farm" />
		<tag k="ssr:stedsnr" v="42329" />
	</node>
	<node lat="62.55473333014962" lon="11.361811117414465" id="-31588">
		<tag k="historic" v="shieling" />
		<tag k="name" v="Kåsvollan" />
		<tag k="name:no" v="Kåsvollan" />
		<tag k="place" v="isolated_dwelling" />
		<tag k="ssr:stedsnr" v="42477" />
	</node>
	<node lat="62.55161944561639" lon="11.365611117810177" id="-31592">
		<tag k="historic" v="shieling" />
		<tag k="name" v="Sjursvollen" />
		<tag k="name:no" v="Sjursvollen" />
		<tag k="place" v="isolated_dwelling" />
		<tag k="ssr:stedsnr" v="42490" />
	</node>
	<node lat="62.43444166326225" lon="11.851677778332512" id="-31593">
		<tag k="alt_name:no" v="Langen nordre" />
		<tag k="name" v="Nordre Langen" />
		<tag k="name:no" v="Nordre Langen" />
		<tag k="place" v="farm" />
		<tag k="ssr:stedsnr" v="42492" />
	</node>
	<node lat="62.57933055594398" lon="11.672313895675305" id="-31600">
		<tag k="historic" v="shieling" />
		<tag k="name" v="Jensåslaua" />
		<tag k="name:no" v="Jensåslaua" />
		<tag k="place" v="isolated_dwelling" />
		<tag k="ssr:stedsnr" v="42590" />
	</node>
	<node lat="62.58971944778293" lon="11.518944438923365" id="-31605">
		<tag k="name" v="Amundvollen" />
		<tag k="name:no" v="Amundvollen" />
		<tag k="place" v="farm" />
		<tag k="ssr:stedsnr" v="42894" />
	</node>
	<node lat="62.59025555192682" lon="11.578399992300346" id="-31609">
		<tag k="alt_name:no" v="Svendslia østre" />
		<tag k="name" v="Østre Svendslia" />
		<tag k="name:no" v="Østre Svendslia" />
		<tag k="place" v="farm" />
		<tag k="ssr:stedsnr" v="43209" />
	</node>
	<node lat="62.68713333161619" lon="11.751088896635084" id="-31619">
		<tag k="name" v="Mosebakken" />
		<tag k="name:no" v="Mosebakken" />
		<tag k="place" v="farm" />
		<tag k="ssr:stedsnr" v="43677" />
	</node>
	<node lat="62.64500277794447" lon="12.038233331289078" id="-31632">
		<tag k="alt_name:no" v="Elvasetra" />
		<tag k="historic" v="shieling" />
		<tag k="name" v="Elvavollen" />
		<tag k="name:no" v="Elvavollen" />
		<tag k="place" v="isolated_dwelling" />
		<tag k="ssr:stedsnr" v="72625" />
	</node>
	<node lat="62.64540837247452" lon="11.870948220371847" id="-31634">
		<tag k="fixme" v="consider place=hamlet" />
		<tag k="name" v="Elva" />
		<tag k="name:no" v="Elva" />
		<tag k="place" v="farm" />
		<tag k="ssr:stedsnr" v="72630" />
	</node>
	<node lat="62.634782457458876" lon="11.969168591277231" id="-31639">
		<tag k="name" v="Ryvollen" />
		<tag k="name:no" v="Ryvollen" />
		<tag k="place" v="farm" />
		<tag k="ssr:stedsnr" v="72609" />
	</node>
	<node lat="62.54014444641296" lon="11.335366668132822" id="-31642">
		<tag k="name" v="Indre Håneset" />
		<tag k="name:no" v="Indre Håneset" />
		<tag k="place" v="farm" />
		<tag k="ssr:stedsnr" v="72572" />
	</node>
	<node lat="62.643057675812294" lon="11.40288960155823" id="-31646">
		<tag k="name" v="Trøan" />
		<tag k="name:no" v="Trøan" />
		<tag k="place" v="farm" />
		<tag k="ssr:stedsnr" v="72873" />
	</node>
	<node lat="62.62035555339883" lon="11.402833324727998" id="-31647">
		<tag k="name" v="Pellevollen" />
		<tag k="name:no" v="Pellevollen" />
		<tag k="place" v="isolated_dwelling" />
		<tag k="ssr:stedsnr" v="72884" />
	</node>
	<node lat="62.60461714674369" lon="11.330374773176718" id="-31648">
		<tag k="fixme" v="consider place=hamlet" />
		<tag k="name" v="Kalvhagan" />
		<tag k="name:no" v="Kalvhagan" />
		<tag k="place" v="farm" />
		<tag k="ssr:stedsnr" v="72901" />
	</node>
	<node lat="62.60365108574765" lon="11.498106813196854" id="-31649">
		<tag k="name" v="Kvaksvollen" />
		<tag k="name:no" v="Kvaksvollen" />
		<tag k="place" v="farm" />
		<tag k="ssr:stedsnr" v="72904" />
	</node>
	<node lat="62.59470283947149" lon="11.689401759588756" id="-31650">
		<tag k="name" v="Salvevollen" />
		<tag k="name:no" v="Salvevollen" />
		<tag k="place" v="farm" />
		<tag k="ssr:stedsnr" v="72915" />
	</node>
	<node lat="62.67260896742092" lon="11.421001744294331" id="-31651">
		<tag k="fixme" v="consider place=hamlet" />
		<tag k="name" v="Almåsvollen" />
		<tag k="name:no" v="Almåsvollen" />
		<tag k="place" v="farm" />
		<tag k="ssr:stedsnr" v="72963" />
	</node>
	<node lat="62.67448462958634" lon="11.40411856447532" id="-31652">
		<tag k="name" v="Kroken" />
		<tag k="name:no" v="Kroken" />
		<tag k="place" v="hamlet" />
		<tag k="ssr:stedsnr" v="72969" />
	</node>
	<node lat="62.81723055269641" lon="11.820866673837271" id="-31654">
		<tag k="name" v="Adamsvollen" />
		<tag k="name:no" v="Adamsvollen" />
		<tag k="place" v="locality" />
		<tag k="ssr:stedsnr" v="73807" />
	</node>
	<node lat="62.574102780242875" lon="11.223111120417048" id="-31655">
		<tag k="historic" v="shieling" />
		<tag k="name" v="Flatvollen" />
		<tag k="name:no" v="Flatvollen" />
		<tag k="place" v="isolated_dwelling" />
		<tag k="ssr:stedsnr" v="80796" />
	</node>
	<node lat="62.617722219717" lon="11.769391660160005" id="-31657">
		<tag k="name" v="Valset" />
		<tag k="name:no" v="Valset" />
		<tag k="place" v="farm" />
		<tag k="ssr:stedsnr" v="88619" />
	</node>
	<node lat="62.646598720748386" lon="11.858636003901054" id="-31661">
		<tag k="fixme" v="consider place=hamlet" />
		<tag k="name" v="Elveplassen" />
		<tag k="name:no" v="Elveplassen" />
		<tag k="place" v="farm" />
		<tag k="ssr:stedsnr" v="99083" />
	</node>
	<node lat="62.664322219712524" lon="11.877713892627794" id="-31675">
		<tag k="name" v="Lia" />
		<tag k="name:no" v="Lia" />
		<tag k="place" v="farm" />
		<tag k="ssr:stedsnr" v="103080" />
	</node>
	<node lat="62.58786110689394" lon="11.41966111153401" id="-31676">
		<tag k="name" v="Kjelsbergvollen" />
		<tag k="name:no" v="Kjelsbergvollen" />
		<tag k="place" v="farm" />
		<tag k="ssr:stedsnr" v="103087" />
	</node>
	<node lat="62.6008805550162" lon="11.463619443383354" id="-31678">
		<tag k="historic" v="shieling" />
		<tag k="name" v="Tellebondvollen" />
		<tag k="name:no" v="Tellebondvollen" />
		<tag k="place" v="isolated_dwelling" />
		<tag k="ssr:stedsnr" v="103093" />
	</node>
	<node lat="62.71622556019041" lon="11.353042297870601" id="-31679">
		<tag k="fixme" v="consider place=hamlet" />
		<tag k="name" v="Ruglsjøen" />
		<tag k="name:no" v="Ruglsjøen" />
		<tag k="place" v="farm" />
		<tag k="ssr:stedsnr" v="103206" />
	</node>
	<node lat="62.63002777814717" lon="11.774094450965636" id="-31682">
		<tag k="historic" v="shieling" />
		<tag k="name" v="Lauvollen" />
		<tag k="name:no" v="Lauvollen" />
		<tag k="place" v="isolated_dwelling" />
		<tag k="ssr:stedsnr" v="103305" />
	</node>
	<node lat="62.554280557482315" lon="11.28798889128955" id="-31687">
		<tag k="amenity" v="school" />
		<tag k="name" v="Galåa skole" />
		<tag k="name:no" v="Galåa skole" />
		<tag k="ssr:stedsnr" v="103323" />
	</node>
	<node lat="62.562305558464885" lon="11.300508340650747" id="-31689">
		<tag k="name" v="Ner Galåplassen" />
		<tag k="name:no" v="Ner Galåplassen" />
		<tag k="place" v="farm" />
		<tag k="ssr:stedsnr" v="103332" />
	</node>
	<node lat="62.555230557713095" lon="11.457836103527333" id="-31699">
		<tag k="historic" v="shieling" />
		<tag k="name" v="Ødegårdsvollen" />
		<tag k="name:no" v="Ødegårdsvollen" />
		<tag k="place" v="isolated_dwelling" />
		<tag k="ssr:stedsnr" v="103505" />
	</node>
	<node lat="62.43219999692103" lon="11.854711101240067" id="-31700">
		<tag k="alt_name:no" v="Langen søre" />
		<tag k="name" v="Søre Langen" />
		<tag k="name:no" v="Søre Langen" />
		<tag k="place" v="farm" />
		<tag k="ssr:stedsnr" v="103506" />
	</node>
	<node lat="62.55450277929539" lon="11.444366661646386" id="-31702">
		<tag k="name" v="Ragnhildvollen" />
		<tag k="name:no" v="Ragnhildvollen" />
		<tag k="place" v="farm" />
		<tag k="ssr:stedsnr" v="103513" />
	</node>
	<node lat="62.55249721804021" lon="11.614502776215136" id="-31703">
		<tag k="historic" v="shieling" />
		<tag k="name" v="Rauhåmmårvollen" />
		<tag k="name:no" v="Rauhåmmårvollen" />
		<tag k="place" v="isolated_dwelling" />
		<tag k="ssr:stedsnr" v="103523" />
	</node>
	<node lat="62.59508333615879" lon="11.659774991658972" id="-31719">
		<tag k="name" v="Skottmikkelvollen" />
		<tag k="name:no" v="Skottmikkelvollen" />
		<tag k="place" v="farm" />
		<tag k="ssr:stedsnr" v="103587" />
	</node>
	<node lat="62.59196389284031" lon="11.652513896613678" id="-31720">
		<tag k="historic" v="shieling" />
		<tag k="name" v="Kojedalsvollen" />
		<tag k="name:no" v="Kojedalsvollen" />
		<tag k="place" v="isolated_dwelling" />
		<tag k="ssr:stedsnr" v="103588" />
	</node>
	<node lat="62.60265277901092" lon="11.502352777967534" id="-31724">
		<tag k="name" v="Klasvollen øvre" />
		<tag k="name:no" v="Klasvollen øvre" />
		<tag k="place" v="farm" />
		<tag k="ssr:stedsnr" v="103905" />
	</node>
	<node lat="62.573572221068225" lon="11.556774998973125" id="-31725">
		<tag k="name" v="Sagmestervollen" />
		<tag k="name:no" v="Sagmestervollen" />
		<tag k="place" v="farm" />
		<tag k="ssr:stedsnr" v="103824" />
	</node>
	<node lat="62.57397777431851" lon="11.553227769182142" id="-31727">
		<tag k="name" v="Rådlauslia" />
		<tag k="name:no" v="Rådlauslia" />
		<tag k="place" v="farm" />
		<tag k="ssr:stedsnr" v="103830" />
	</node>
	<node lat="62.64071111553418" lon="11.581047214738096" id="-31728">
		<tag k="alt_name:no" v="Bukkvollen nordre" />
		<tag k="name" v="Nordre Bukkvollen" />
		<tag k="name:no" v="Nordre Bukkvollen" />
		<tag k="place" v="farm" />
		<tag k="ssr:stedsnr" v="103894" />
	</node>
	<node lat="62.64109999785691" lon="11.580472224527732" id="-31729">
		<tag k="alt_name:no" v="Bukkvollen nordvestre" />
		<tag k="name" v="Nordvestre Bukkvollen" />
		<tag k="name:no" v="Nordvestre Bukkvollen" />
		<tag k="place" v="farm" />
		<tag k="ssr:stedsnr" v="103896" />
	</node>
	<node lat="62.685550001612874" lon="11.747158331944297" id="-31733">
		<tag k="name" v="Brynhildsvollen" />
		<tag k="name:no" v="Brynhildsvollen" />
		<tag k="place" v="hamlet" />
		<tag k="ssr:stedsnr" v="104674" />
	</node>
	<node lat="62.4222083317571" lon="11.864302781162127" id="-31741">
		<tag k="name" v="Kåkan" />
		<tag k="name:no" v="Kåkan" />
		<tag k="place" v="locality" />
		<tag k="ssr:stedsnr" v="121027" />
	</node>
	<node lat="62.56406318702196" lon="11.308188227883251" id="-31743">
		<tag k="fixme" v="consider place=hamlet" />
		<tag k="name" v="Engan" />
		<tag k="name:no" v="Engan" />
		<tag k="place" v="farm" />
		<tag k="ssr:stedsnr" v="132565" />
	</node>
	<node lat="62.701955556175136" lon="11.873177770871072" id="-31744">
		<tag k="historic" v="shieling" />
		<tag k="name" v="Elvavollen" />
		<tag k="name:no" v="Elvavollen" />
		<tag k="place" v="isolated_dwelling" />
		<tag k="ssr:stedsnr" v="132710" />
	</node>
	<node lat="62.66129404501183" lon="11.870731694674493" id="-31748">
		<tag k="name" v="Nordbrekka" />
		<tag k="name:no" v="Nordbrekka" />
		<tag k="place" v="hamlet" />
		<tag k="ssr:stedsnr" v="132727" />
	</node>
	<node lat="62.68315833185443" lon="11.51231667428814" id="-31756">
		<tag k="name" v="Bendiksvollen" />
		<tag k="name:no" v="Bendiksvollen" />
		<tag k="place" v="farm" />
		<tag k="ssr:stedsnr" v="132980" />
	</node>
	<node lat="62.617589366041074" lon="11.750751932803592" id="-31764">
		<tag k="name" v="Spellvollen" />
		<tag k="name:no" v="Spellvollen" />
		<tag k="place" v="farm" />
		<tag k="ssr:stedsnr" v="133660" />
	</node>
	<node lat="62.71156944698363" lon="11.779463886528275" id="-31781">
		<tag k="name" v="Liheim" />
		<tag k="name:no" v="Liheim" />
		<tag k="place" v="farm" />
		<tag k="ssr:stedsnr" v="254500" />
	</node>
	<node lat="62.540143161593825" lon="11.2829007823118" id="-31784">
		<tag k="name" v="Skogheim" />
		<tag k="name:no" v="Skogheim" />
		<tag k="place" v="farm" />
		<tag k="ssr:stedsnr" v="254572" />
	</node>
	<node lat="62.56611944579827" lon="11.37673888953468" id="-31787">
		<tag k="name" v="Gjøssvika" />
		<tag k="name:no" v="Gjøssvika" />
		<tag k="place" v="quarter" />
		<tag k="ssr:stedsnr" v="254542" />
	</node>
	<node lat="62.558511108567835" lon="11.352038892665114" id="-31788">
		<tag k="historic" v="shieling" />
		<tag k="name" v="Korporalsvollen" />
		<tag k="name:no" v="Korporalsvollen" />
		<tag k="place" v="isolated_dwelling" />
		<tag k="ssr:stedsnr" v="254552" />
	</node>
	<node lat="62.57467500006605" lon="11.384194444510007" id="-31789">
		<tag k="name" v="Røros" />
		<tag k="name:no" v="Røros" />
		<tag k="place" v="town" />
		<tag k="ssr:stedsnr" v="254556" />
	</node>
	<node lat="62.57989499486988" lon="11.538088104873964" id="-31792">
		<tag k="historic" v="shieling" />
		<tag k="name" v="Rislia" />
		<tag k="name:no" v="Rislia" />
		<tag k="place" v="isolated_dwelling" />
		<tag k="ssr:stedsnr" v="254558" />
	</node>
	<node lat="62.54708888721167" lon="11.285844450708748" id="-31795">
		<tag k="name" v="Finnegården" />
		<tag k="name:no" v="Finnegården" />
		<tag k="place" v="farm" />
		<tag k="ssr:stedsnr" v="254587" />
	</node>
	<node lat="62.61565555668318" lon="11.755155552585052" id="-31802">
		<tag k="name" v="Åsheim" />
		<tag k="name:no" v="Åsheim" />
		<tag k="place" v="farm" />
		<tag k="ssr:stedsnr" v="254645" />
	</node>
	<node lat="62.732080069486464" lon="11.321355783281287" id="-31806">
		<tag k="fixme" v="consider place=hamlet" />
		<tag k="name" v="Myran" />
		<tag k="name:no" v="Myran" />
		<tag k="place" v="farm" />
		<tag k="ssr:stedsnr" v="254783" />
	</node>
	<node lat="62.633025000808786" lon="11.451166670848323" id="-31807">
		<tag k="historic" v="shieling" />
		<tag k="name" v="Pliktfogdløkkja" />
		<tag k="name:no" v="Pliktfogdløkkja" />
		<tag k="place" v="isolated_dwelling" />
		<tag k="ssr:stedsnr" v="254871" />
	</node>
	<node lat="62.614224294004195" lon="11.562411569074216" id="-31811">
		<tag k="name" v="Trønneshaugen" />
		<tag k="name:no" v="Trønneshaugen" />
		<tag k="place" v="farm" />
		<tag k="ssr:stedsnr" v="254883" />
	</node>
	<node lat="62.620688890099714" lon="11.437869447079335" id="-31812">
		<tag k="historic" v="shieling" />
		<tag k="name" v="Hodølsvollen" />
		<tag k="name:no" v="Hodølsvollen" />
		<tag k="place" v="isolated_dwelling" />
		<tag k="ssr:stedsnr" v="254888" />
	</node>
	<node lat="62.66675833456605" lon="11.53102777251321" id="-31814">
		<tag k="name" v="Sivertsvollen" />
		<tag k="name:no" v="Sivertsvollen" />
		<tag k="place" v="farm" />
		<tag k="ssr:stedsnr" v="254965" />
	</node>
	<node lat="62.68753667990418" lon="11.706301946293035" id="-31815">
		<tag k="name" v="Televollen" />
		<tag k="name:no" v="Televollen" />
		<tag k="place" v="isolated_dwelling" />
		<tag k="ssr:stedsnr" v="254969" />
	</node>
	<node lat="62.64650489275624" lon="11.564381380568065" id="-31816">
		<tag k="historic" v="shieling" />
		<tag k="name" v="Pliktfogdvollen" />
		<tag k="name:no" v="Pliktfogdvollen" />
		<tag k="place" v="isolated_dwelling" />
		<tag k="ssr:stedsnr" v="254984" />
	</node>
	<node lat="62.64592777436752" lon="11.855877779983606" id="-31831">
		<tag k="name" v="Borgosen" />
		<tag k="name:no" v="Borgosen" />
		<tag k="place" v="farm" />
		<tag k="ssr:stedsnr" v="159066" />
	</node>
	<node lat="62.63788253895711" lon="11.578972903905582" id="-31841">
		<tag k="alt_name:no" v="Bukkvollen nedre og vestre" />
		<tag k="name" v="Nedre Vestre Bukkvollen" />
		<tag k="name:no" v="Nedre Vestre Bukkvollen" />
		<tag k="place" v="farm" />
		<tag k="ssr:stedsnr" v="163903" />
	</node>
	<node lat="62.58755000354336" lon="11.303141658427261" id="-31854">
		<tag k="name" v="Synner Prestvollen" />
		<tag k="name:no" v="Synner Prestvollen" />
		<tag k="place" v="farm" />
		<tag k="ssr:stedsnr" v="164406" />
	</node>
	<node lat="62.56136944338201" lon="11.298508334919314" id="-31856">
		<tag k="alt_name:no" v="Tyvoll søndre" />
		<tag k="name" v="Søndre Tyvoll" />
		<tag k="name:no" v="Søndre Tyvoll" />
		<tag k="place" v="farm" />
		<tag k="ssr:stedsnr" v="164414" />
	</node>
	<node lat="62.50688889091663" lon="11.553163898242977" id="-31869">
		<tag k="name" v="Tørresdalen" />
		<tag k="name:no" v="Tørresdalen" />
		<tag k="place" v="farm" />
		<tag k="ssr:stedsnr" v="164863" />
	</node>
	<node lat="62.593436110146904" lon="11.48484443985609" id="-31879">
		<tag k="alt_name:no" v="Stikkelåsvollen Østre" />
		<tag k="name" v="Østre Stikkillåsvollen" />
		<tag k="name:no" v="Østre Stikkillåsvollen" />
		<tag k="place" v="farm" />
		<tag k="ssr:stedsnr" v="164916" />
	</node>
	<node lat="62.60295277926395" lon="11.493597213429057" id="-31880">
		<tag k="name" v="Karlløkka" />
		<tag k="name:no" v="Karlløkka" />
		<tag k="place" v="farm" />
		<tag k="ssr:stedsnr" v="164917" />
	</node>
	<node lat="62.59964722617567" lon="11.525791665933708" id="-31881">
		<tag k="name" v="Kulberg" />
		<tag k="name:no" v="Kulberg" />
		<tag k="place" v="farm" />
		<tag k="ssr:stedsnr" v="164918" />
	</node>
	<node lat="62.60239444435572" lon="11.47247777175639" id="-31882">
		<tag k="name" v="Sollia mellom" />
		<tag k="name:no" v="Sollia mellom" />
		<tag k="place" v="farm" />
		<tag k="ssr:stedsnr" v="164923" />
	</node>
	<node lat="62.78613889292303" lon="11.818669438936874" id="-31890">
		<tag k="historic" v="shieling" />
		<tag k="name" v="Davevollen" />
		<tag k="name:no" v="Davevollen" />
		<tag k="place" v="isolated_dwelling" />
		<tag k="ssr:stedsnr" v="165836" />
	</node>
	<node lat="62.40504166723554" lon="12.01501943824964" id="-31901">
		<tag k="name" v="Gubbtjønnbua" />
		<tag k="name:no" v="Gubbtjønnbua" />
		<tag k="place" v="isolated_dwelling" />
		<tag k="ssr:stedsnr" v="263847" />
	</node>
	<node lat="62.43436944690046" lon="11.851608331246512" id="-31908">
		<tag k="name" v="Langen gjestegård" />
		<tag k="name:no" v="Langen gjestegård" />
		<tag k="old_name:no" v="Langen" />
		<tag k="ssr:stedsnr" v="268138" />
		<tag k="tourism" v="hotel" />
	</node>
	<node lat="62.6802372918962" lon="11.57316472693748" id="-31909">
		<tag k="name" v="Sandneset" />
		<tag k="name:no" v="Sandneset" />
		<tag k="place" v="hamlet" />
		<tag k="ssr:stedsnr" v="207044" />
	</node>
	<node lat="62.649345989450204" lon="11.853001884953258" id="-31910">
		<tag k="name" v="Borgosen" />
		<tag k="name:no" v="Borgosen" />
		<tag k="place" v="hamlet" />
		<tag k="ssr:stedsnr" v="210631" />
	</node>
	<node lat="62.6468861094413" lon="11.875886108409086" id="-31911">
		<tag k="alt_name:no" v="Henningsgården vestre" />
		<tag k="name" v="Vestre Henningsgården" />
		<tag k="name:no" v="Vestre Henningsgården" />
		<tag k="place" v="farm" />
		<tag k="ssr:stedsnr" v="220104" />
	</node>
	<node lat="62.63968889012149" lon="11.370736105004074" id="-31913">
		<tag k="name" v="Bakkavollen" />
		<tag k="name:no" v="Bakkavollen" />
		<tag k="place" v="farm" />
		<tag k="ssr:stedsnr" v="220116" />
	</node>
	<node lat="62.586052775965385" lon="11.407883339557698" id="-31916">
		<tag k="historic" v="shieling" />
		<tag k="name" v="Arestvollen" />
		<tag k="name:no" v="Arestvollen" />
		<tag k="place" v="isolated_dwelling" />
		<tag k="ssr:stedsnr" v="220029" />
	</node>
	<node lat="62.62272778150977" lon="11.347744438486364" id="-31921">
		<tag k="name" v="Midtvollen" />
		<tag k="name:no" v="Midtvollen" />
		<tag k="place" v="farm" />
		<tag k="ssr:stedsnr" v="221096" />
	</node>
	<node lat="62.63759444346893" lon="11.411025001417542" id="-31922">
		<tag k="name" v="Løvoll østre nord" />
		<tag k="name:no" v="Løvoll østre nord" />
		<tag k="place" v="farm" />
		<tag k="ssr:stedsnr" v="221112" />
	</node>
	<node lat="62.63900555743341" lon="11.408561117514328" id="-31923">
		<tag k="name" v="Løvoll vestre nord" />
		<tag k="name:no" v="Løvoll vestre nord" />
		<tag k="place" v="farm" />
		<tag k="ssr:stedsnr" v="221115" />
	</node>
	<node lat="62.55746944812786" lon="11.382925000494293" id="-31925">
		<tag k="name" v="Bjørkvollen" />
		<tag k="name:no" v="Bjørkvollen" />
		<tag k="place" v="farm" />
		<tag k="ssr:stedsnr" v="221421" />
	</node>
	<node lat="62.67201666395901" lon="11.425838895878417" id="-31926">
		<tag k="amenity" v="school" />
		<tag k="name" v="Glåmos skole" />
		<tag k="name:no" v="Glåmos skole" />
		<tag k="ssr:stedsnr" v="222213" />
	</node>
	<node lat="62.53970000152207" lon="11.309513885189185" id="-31946">
		<tag k="name" v="Nytrøa" />
		<tag k="name:no" v="Nytrøa" />
		<tag k="place" v="farm" />
		<tag k="ssr:stedsnr" v="225316" />
	</node>
	<node lat="62.563688890854756" lon="11.304444444323963" id="-31947">
		<tag k="name" v="Nyheim" />
		<tag k="name:no" v="Nyheim" />
		<tag k="place" v="farm" />
		<tag k="ssr:stedsnr" v="225327" />
	</node>
	<node lat="62.68371111372833" lon="11.524480548825183" id="-31970">
		<tag k="name" v="Sakrisvollen" />
		<tag k="name:no" v="Sakrisvollen" />
		<tag k="place" v="farm" />
		<tag k="ssr:stedsnr" v="225945" />
	</node>
	<node lat="62.67521669037518" lon="11.444459704043462" id="-31973">
		<tag k="fixme" v="consider place=hamlet" />
		<tag k="name" v="Kurråsen" />
		<tag k="name:no" v="Kurråsen" />
		<tag k="place" v="farm" />
		<tag k="ssr:stedsnr" v="241989" />
	</node>
	<node lat="62.688660011237054" lon="11.73607812662089" id="-31987">
		<tag k="fixme" v="consider place=hamlet" />
		<tag k="name" v="Kokkvollen" />
		<tag k="name:no" v="Kokkvollen" />
		<tag k="place" v="farm" />
		<tag k="ssr:stedsnr" v="254672" />
	</node>
	<node lat="62.60534040807414" lon="11.650910363282078" id="-31991">
		<tag k="name" v="Litlvollen" />
		<tag k="name:no" v="Litlvollen" />
		<tag k="place" v="farm" />
		<tag k="ssr:stedsnr" v="254902" />
	</node>
	<node lat="62.590641665308446" lon="11.403861101377176" id="-31992">
		<tag k="name" v="Dokterløkkja" />
		<tag k="name:no" v="Dokterløkkja" />
		<tag k="place" v="farm" />
		<tag k="ssr:stedsnr" v="254913" />
	</node>
	<node lat="62.602463890006085" lon="11.473141672879867" id="-31993">
		<tag k="name" v="Sollia" />
		<tag k="name:no" v="Sollia" />
		<tag k="place" v="farm" />
		<tag k="ssr:stedsnr" v="254917" />
	</node>
	<node lat="62.59524927528754" lon="11.466243619785677" id="-31994">
		<tag k="name" v="Risvollen" />
		<tag k="name:no" v="Risvollen" />
		<tag k="place" v="farm" />
		<tag k="ssr:stedsnr" v="254918" />
	</node>
	<node lat="62.658717427051215" lon="11.411799828127458" id="-31999">
		<tag k="fixme" v="consider place=hamlet" />
		<tag k="name" v="Slettmoen" />
		<tag k="name:no" v="Slettmoen" />
		<tag k="place" v="farm" />
		<tag k="ssr:stedsnr" v="254979" />
	</node>
	<node lat="62.59726111310083" lon="11.44641110570546" id="-32002">
		<tag k="historic" v="shieling" />
		<tag k="name" v="Granåsen" />
		<tag k="name:no" v="Granåsen" />
		<tag k="place" v="isolated_dwelling" />
		<tag k="ssr:stedsnr" v="263790" />
	</node>
	<node lat="62.620333331175715" lon="11.390069451625195" id="-32004">
		<tag k="historic" v="shieling" />
		<tag k="name" v="Dillevollen" />
		<tag k="name:no" v="Dillevollen" />
		<tag k="place" v="isolated_dwelling" />
		<tag k="ssr:stedsnr" v="281088" />
	</node>
	<node lat="62.638397218811484" lon="11.41010832784763" id="-32006">
		<tag k="name" v="Løvoll" />
		<tag k="name:no" v="Løvoll" />
		<tag k="place" v="farm" />
		<tag k="ssr:stedsnr" v="281100" />
	</node>
	<node lat="62.603505558975826" lon="11.463958327019014" id="-32011">
		<tag k="historic" v="shieling" />
		<tag k="name" v="Hansvollen" />
		<tag k="name:no" v="Hansvollen" />
		<tag k="place" v="isolated_dwelling" />
		<tag k="ssr:stedsnr" v="285113" />
	</node>
	<node lat="62.70768611021928" lon="11.359936109107187" id="-32015">
		<tag k="name" v="Sandtjernan" />
		<tag k="name:no" v="Sandtjernan" />
		<tag k="place" v="farm" />
		<tag k="ssr:stedsnr" v="285229" />
	</node>
	<node lat="62.54078055372655" lon="11.308716669338212" id="-32020">
		<tag k="name" v="Litlåkeren" />
		<tag k="name:no" v="Litlåkeren" />
		<tag k="place" v="farm" />
		<tag k="ssr:stedsnr" v="285290" />
	</node>
	<node lat="62.53908055919371" lon="11.307480564309618" id="-32021">
		<tag k="name" v="Høsøya søndre" />
		<tag k="name:no" v="Høsøya søndre" />
		<tag k="place" v="farm" />
		<tag k="ssr:stedsnr" v="285293" />
	</node>
	<node lat="62.62544166788217" lon="11.76346667519602" id="-32022">
		<tag k="name" v="Klokkervollen" />
		<tag k="name:no" v="Klokkervollen" />
		<tag k="place" v="farm" />
		<tag k="ssr:stedsnr" v="285300" />
	</node>
	<node lat="62.56153888882646" lon="11.274555558351855" id="-32026">
		<tag k="name" v="Galåvollen" />
		<tag k="name:no" v="Galåvollen" />
		<tag k="place" v="farm" />
		<tag k="ssr:stedsnr" v="285306" />
	</node>
	<node lat="62.5554555598189" lon="11.274694439640069" id="-32027">
		<tag k="name" v="Solhaug" />
		<tag k="name:no" v="Solhaug" />
		<tag k="place" v="isolated_dwelling" />
		<tag k="ssr:stedsnr" v="285309" />
	</node>
	<node lat="62.58231935424238" lon="11.318747298179145" id="-32030">
		<tag k="fixme" v="consider place=hamlet" />
		<tag k="name" v="Kåsa" />
		<tag k="name:no" v="Kåsa" />
		<tag k="place" v="farm" />
		<tag k="ssr:stedsnr" v="285335" />
	</node>
	<node lat="62.47159999691797" lon="11.897302777806088" id="-32035">
		<tag k="name" v="Langtjønnbua" />
		<tag k="name:no" v="Langtjønnbua" />
		<tag k="place" v="locality" />
		<tag k="ssr:stedsnr" v="285385" />
	</node>
	<node lat="62.58836388593908" lon="11.30395555512583" id="-32040">
		<tag k="name" v="Midter Prestvollen" />
		<tag k="name:no" v="Midter Prestvollen" />
		<tag k="place" v="farm" />
		<tag k="ssr:stedsnr" v="285396" />
	</node>
	<node lat="62.555500001737414" lon="11.348822229945693" id="-32042">
		<tag k="historic" v="shieling" />
		<tag k="name" v="Sollivollen" />
		<tag k="name:no" v="Sollivollen" />
		<tag k="place" v="isolated_dwelling" />
		<tag k="ssr:stedsnr" v="285502" />
	</node>
	<node lat="62.558555557424356" lon="11.443180562405406" id="-32043">
		<tag k="historic" v="shieling" />
		<tag k="name" v="Hallvollen" />
		<tag k="name:no" v="Hallvollen" />
		<tag k="place" v="isolated_dwelling" />
		<tag k="ssr:stedsnr" v="285506" />
	</node>
	<node lat="62.490488885579815" lon="11.600988882095345" id="-32048">
		<tag k="name" v="Ustigårda" />
		<tag k="name:no" v="Ustigårda" />
		<tag k="place" v="farm" />
		<tag k="ssr:stedsnr" v="285529" />
	</node>
	<node lat="62.576733331705746" lon="11.467083335480163" id="-32071">
		<tag k="historic" v="shieling" />
		<tag k="name" v="Trondsvollen" />
		<tag k="name:no" v="Trondsvollen" />
		<tag k="place" v="isolated_dwelling" />
		<tag k="ssr:stedsnr" v="285895" />
	</node>
	<node lat="62.5755027800696" lon="11.468938889347958" id="-32072">
		<tag k="historic" v="shieling" />
		<tag k="name" v="Rasmusvollen" />
		<tag k="name:no" v="Rasmusvollen" />
		<tag k="place" v="isolated_dwelling" />
		<tag k="ssr:stedsnr" v="285897" />
	</node>
	<node lat="62.64717222224963" lon="11.538994445829054" id="-32073">
		<tag k="historic" v="shieling" />
		<tag k="name" v="Oddvollen" />
		<tag k="name:no" v="Oddvollen" />
		<tag k="place" v="isolated_dwelling" />
		<tag k="ssr:stedsnr" v="285981" />
	</node>
	<node lat="62.66570555446528" lon="11.571602778346415" id="-32074">
		<tag k="historic" v="shieling" />
		<tag k="name" v="Hyllsetra" />
		<tag k="name:no" v="Hyllsetra" />
		<tag k="place" v="isolated_dwelling" />
		<tag k="ssr:stedsnr" v="285984" />
	</node>
	<node lat="62.714300000139446" lon="11.874897213019189" id="-32080">
		<tag k="historic" v="shieling" />
		<tag k="name" v="Volvollen" />
		<tag k="name:no" v="Volvollen" />
		<tag k="place" v="isolated_dwelling" />
		<tag k="ssr:stedsnr" v="286627" />
	</node>
	<node lat="62.76435833735418" lon="11.828336111466228" id="-32085">
		<tag k="name" v="Litlrilaua" />
		<tag k="name:no" v="Litlrilaua" />
		<tag k="place" v="isolated_dwelling" />
		<tag k="ssr:stedsnr" v="286808" />
	</node>
	<node lat="62.68821944432451" lon="11.748488885003583" id="-32089">
		<tag k="name" v="Sommerfjøsbakken" />
		<tag k="name:no" v="Sommerfjøsbakken" />
		<tag k="place" v="farm" />
		<tag k="ssr:stedsnr" v="286703" />
	</node>
	<node lat="62.68609166242599" lon="11.741074991951844" id="-32091">
		<tag k="name" v="Elvheim" />
		<tag k="name:no" v="Elvheim" />
		<tag k="place" v="locality" />
		<tag k="ssr:stedsnr" v="286709" />
	</node>
	<node lat="62.55190000128152" lon="11.439188884293628" id="-32099">
		<tag k="fixme" v="multiple name tags, choose one and add the other to alt_name" />
		<tag k="name" v="Påska;Påskvollen" />
		<tag k="name:no" v="Påska;Påskvollen" />
		<tag k="place" v="farm" />
		<tag k="ssr:stedsnr" v="463469" />
	</node>
	<node lat="62.640202776525285" lon="11.366438886257367" id="-32101">
		<tag k="name" v="Lorchtomta" />
		<tag k="name:no" v="Lorchtomta" />
		<tag k="place" v="locality" />
		<tag k="ssr:stedsnr" v="463070" />
	</node>
	<node lat="62.63715277782639" lon="11.409961101918865" id="-32105">
		<tag k="name" v="Løvoll østre" />
		<tag k="name:no" v="Løvoll østre" />
		<tag k="place" v="farm" />
		<tag k="ssr:stedsnr" v="463096" />
	</node>
	<node lat="62.64720833690117" lon="11.844869441126997" id="-32106">
		<tag k="name" v="Borgosen" />
		<tag k="name:no" v="Borgosen" />
		<tag k="place" v="farm" />
		<tag k="ssr:stedsnr" v="463165" />
	</node>
	<node lat="62.60966731918881" lon="11.198084621265325" id="-32113">
		<tag k="name" v="Løvenskjoldhytta" />
		<tag k="name:no" v="Løvenskjoldhytta" />
		<tag k="place" v="isolated_dwelling" />
		<tag k="ssr:stedsnr" v="314206" />
	</node>
	<node lat="62.57149834288602" lon="11.339756831487191" id="-32114">
		<tag k="name" v="Sjåfram" />
		<tag k="name:no" v="Sjåfram" />
		<tag k="place" v="farm" />
		<tag k="ssr:stedsnr" v="314604" />
	</node>
	<node lat="62.59322500156666" lon="11.462261113616773" id="-32115">
		<tag k="name" v="Peråsvollen" />
		<tag k="name:no" v="Peråsvollen" />
		<tag k="place" v="farm" />
		<tag k="ssr:stedsnr" v="467083" />
	</node>
	<node lat="62.577044446324955" lon="11.36902500849974" id="-32122">
		<tag k="amenity" v="school" />
		<tag k="name" v="Røros videregående skole" />
		<tag k="name:no" v="Røros videregående skole" />
		<tag k="ssr:stedsnr" v="467029" />
	</node>
	<node lat="62.58999999611055" lon="11.401124991845593" id="-32123">
		<tag k="historic" v="shieling" />
		<tag k="name" v="Prytzsetra" />
		<tag k="name:no" v="Prytzsetra" />
		<tag k="place" v="isolated_dwelling" />
		<tag k="ssr:stedsnr" v="467036" />
	</node>
	<node lat="62.568013888995445" lon="11.351730555206876" id="-32124">
		<tag k="alt_name:no" v="Håneset nedre" />
		<tag k="name" v="Nedre Håneset" />
		<tag k="name:no" v="Nedre Håneset" />
		<tag k="place" v="farm" />
		<tag k="ssr:stedsnr" v="467038" />
	</node>
	<node lat="62.67548055869253" lon="11.404644442605962" id="-32125">
		<tag k="name" v="Robakken" />
		<tag k="name:no" v="Robakken" />
		<tag k="place" v="farm" />
		<tag k="ssr:stedsnr" v="467053" />
	</node>
	<node lat="62.67324722114679" lon="11.449308336110008" id="-32127">
		<tag k="name" v="Flata" />
		<tag k="name:no" v="Flata" />
		<tag k="place" v="farm" />
		<tag k="ssr:stedsnr" v="467143" />
	</node>
	<node lat="62.66660000058877" lon="11.41187500510995" id="-32128">
		<tag k="alt_name:no" v="Kroken Søre" />
		<tag k="name" v="Søre Kroken" />
		<tag k="name:no" v="Søre Kroken" />
		<tag k="place" v="farm" />
		<tag k="ssr:stedsnr" v="467185" />
	</node>
	<node lat="62.566394442372705" lon="11.86268887902232" id="-32130">
		<tag k="name" v="Haugen" />
		<tag k="name:no" v="Haugen" />
		<tag k="place" v="farm" />
		<tag k="ssr:stedsnr" v="315267" />
	</node>
	<node lat="62.57506905462003" lon="11.837418067296879" id="-32131">
		<tag k="name" v="Solbakken" />
		<tag k="name:no" v="Solbakken" />
		<tag k="place" v="farm" />
		<tag k="ssr:stedsnr" v="315273" />
	</node>
	<node lat="62.669977780754756" lon="11.754733324015552" id="-32139">
		<tag k="name" v="Rundkåsvollen" />
		<tag k="name:no" v="Rundkåsvollen" />
		<tag k="place" v="locality" />
		<tag k="ssr:stedsnr" v="315751" />
	</node>
	<node lat="62.54309166679942" lon="11.339058328165686" id="-32152">
		<tag k="alt_name:no" v="Håneset nordre" />
		<tag k="name" v="Nordre Håneset" />
		<tag k="name:no" v="Nordre Håneset" />
		<tag k="place" v="farm" />
		<tag k="ssr:stedsnr" v="467301" />
	</node>
	<node lat="62.60385000387602" lon="11.611227774617692" id="-32157">
		<tag k="name" v="Mølnervollen" />
		<tag k="name:no" v="Mølnervollen" />
		<tag k="old_name:no" v="Møllnervollen" />
		<tag k="place" v="farm" />
		<tag k="ssr:stedsnr" v="315912" />
	</node>
	<node lat="62.60896944360352" lon="11.470747215916377" id="-32158">
		<tag k="name" v="Agalausvollen" />
		<tag k="name:no" v="Agalausvollen" />
		<tag k="place" v="isolated_dwelling" />
		<tag k="ssr:stedsnr" v="315916" />
	</node>
	<node lat="62.68122778084205" lon="11.656100002384205" id="-32159">
		<tag k="name" v="Evavollen" />
		<tag k="name:no" v="Evavollen" />
		<tag k="place" v="farm" />
		<tag k="ssr:stedsnr" v="315950" />
	</node>
	<node lat="62.5597694468758" lon="11.28858054729031" id="-32162">
		<tag k="name" v="Åsen" />
		<tag k="name:no" v="Åsen" />
		<tag k="place" v="farm" />
		<tag k="ssr:stedsnr" v="467333" />
	</node>
	<node lat="62.546480551951106" lon="11.303563884394224" id="-32164">
		<tag k="name" v="Furuly" />
		<tag k="name:no" v="Furuly" />
		<tag k="place" v="farm" />
		<tag k="ssr:stedsnr" v="467348" />
	</node>
	<node lat="62.6101916674585" lon="11.262352777804217" id="-32167">
		<tag k="name" v="Derikbua" />
		<tag k="name:no" v="Derikbua" />
		<tag k="place" v="isolated_dwelling" />
		<tag k="ssr:stedsnr" v="467432" />
	</node>
	<node lat="62.73188889044819" lon="11.321376234086882" id="-32177">
		<tag k="name" v="Myran" />
		<tag k="name:no" v="Myran" />
		<tag k="place" v="farm" />
		<tag k="ssr:stedsnr" v="467476" />
	</node>
	<node lat="62.63285555699964" lon="11.584775006460854" id="-32207">
		<tag k="name" v="Guldalsvollen søre" />
		<tag k="name:no" v="Guldalsvollen søre" />
		<tag k="place" v="farm" />
		<tag k="ssr:stedsnr" v="467900" />
	</node>
	<node lat="62.66425833321543" lon="11.588127783585392" id="-32214">
		<tag k="historic" v="shieling" />
		<tag k="name" v="Håmmårsetervollen" />
		<tag k="name:no" v="Håmmårsetervollen" />
		<tag k="place" v="isolated_dwelling" />
		<tag k="ssr:stedsnr" v="467991" />
	</node>
	<node lat="62.70619166382113" lon="11.7656444489691" id="-32222">
		<tag k="name" v="Breiløa" />
		<tag k="name:no" v="Breiløa" />
		<tag k="place" v="isolated_dwelling" />
		<tag k="ssr:stedsnr" v="468737" />
	</node>
	<node lat="62.771655552849126" lon="11.844883341941221" id="-32226">
		<tag k="name" v="Litlberget" />
		<tag k="name:no" v="Litlberget" />
		<tag k="place" v="isolated_dwelling" />
		<tag k="ssr:stedsnr" v="468796" />
	</node>
	<node lat="62.70977019083256" lon="11.420513633567246" id="-32233">
		<tag k="historic" v="shieling" />
		<tag k="name" v="Langenvollen" />
		<tag k="name:no" v="Langenvollen" />
		<tag k="place" v="isolated_dwelling" />
		<tag k="ssr:stedsnr" v="324820" />
	</node>
	<node lat="62.6551500012765" lon="11.545052776414357" id="-32235">
		<tag k="name" v="Jamthaugen" />
		<tag k="name:no" v="Jamthaugen" />
		<tag k="place" v="farm" />
		<tag k="ssr:stedsnr" v="324838" />
	</node>
	<node lat="62.609997225710686" lon="11.636938883977171" id="-32237">
		<tag k="fixme" v="consider place=hamlet" />
		<tag k="name" v="Hitterdalen" />
		<tag k="name:no" v="Hitterdalen" />
		<tag k="place" v="village" />
		<tag k="ssr:stedsnr" v="328103" />
	</node>
	<node lat="62.554561111648624" lon="11.379477786907584" id="-32243">
		<tag k="name" v="Kjelsbergvollan" />
		<tag k="name:no" v="Kjelsbergvollan" />
		<tag k="place" v="farm" />
		<tag k="ssr:stedsnr" v="342402" />
	</node>
	<node lat="62.544249996432576" lon="11.420563882008988" id="-32244">
		<tag k="name" v="Rybakken" />
		<tag k="name:no" v="Rybakken" />
		<tag k="place" v="farm" />
		<tag k="ssr:stedsnr" v="342398" />
	</node>
	<node lat="62.67925277932727" lon="11.90707500791919" id="-32249">
		<tag k="historic" v="shieling" />
		<tag k="name" v="Nilsvollen" />
		<tag k="name:no" v="Nilsvollen" />
		<tag k="place" v="isolated_dwelling" />
		<tag k="ssr:stedsnr" v="345113" />
	</node>
	<node lat="62.673344448396406" lon="11.417536119493409" id="-32250">
		<tag k="name" v="Jensøyen" />
		<tag k="name:no" v="Jensøyen" />
		<tag k="place" v="farm" />
		<tag k="ssr:stedsnr" v="345204" />
	</node>
	<node lat="62.677936111929064" lon="11.403375005980413" id="-32251">
		<tag k="name" v="Grubba" />
		<tag k="name:no" v="Grubba" />
		<tag k="place" v="farm" />
		<tag k="ssr:stedsnr" v="345208" />
	</node>
	<node lat="62.70965277984799" lon="11.3638888925" id="-32252">
		<tag k="name" v="Ruglsjøen" />
		<tag k="name:no" v="Ruglsjøen" />
		<tag k="place" v="farm" />
		<tag k="ssr:stedsnr" v="345221" />
	</node>
	<node lat="62.57972222197317" lon="11.666061111144725" id="-32260">
		<tag k="historic" v="shieling" />
		<tag k="name" v="Åsenget" />
		<tag k="name:no" v="Åsenget" />
		<tag k="place" v="isolated_dwelling" />
		<tag k="ssr:stedsnr" v="345602" />
	</node>
	<node lat="62.58586111309135" lon="11.325116660038958" id="-32271">
		<tag k="name" v="Sundet søndre" />
		<tag k="name:no" v="Sundet søndre" />
		<tag k="place" v="farm" />
		<tag k="ssr:stedsnr" v="346357" />
	</node>
	<node lat="62.55522222187378" lon="11.45935277898684" id="-32273">
		<tag k="historic" v="shieling" />
		<tag k="name" v="Tørresvollen" />
		<tag k="name:no" v="Tørresvollen" />
		<tag k="place" v="isolated_dwelling" />
		<tag k="ssr:stedsnr" v="346521" />
	</node>
	<node lat="62.557108330100334" lon="11.453838883041524" id="-32274">
		<tag k="historic" v="shieling" />
		<tag k="name" v="Lassevollen" />
		<tag k="name:no" v="Lassevollen" />
		<tag k="place" v="isolated_dwelling" />
		<tag k="ssr:stedsnr" v="346525" />
	</node>
	<node lat="62.617861542943395" lon="11.593784996737858" id="-32282">
		<tag k="alt_name:no" v="Strømmelia nedre;Mortensvollen" />
		<tag k="name" v="Nedre Strømmelia" />
		<tag k="name:no" v="Nedre Strømmelia" />
		<tag k="place" v="farm" />
		<tag k="ssr:stedsnr" v="346667" />
	</node>
	<node lat="62.80148888862349" lon="11.811124991290056" id="-32286">
		<tag k="name" v="Rukåslaua" />
		<tag k="name:no" v="Rukåslaua" />
		<tag k="place" v="isolated_dwelling" />
		<tag k="ssr:stedsnr" v="346814" />
	</node>
	<node lat="62.69439166544098" lon="11.774038890193953" id="-32296">
		<tag k="name" v="Skurufloen" />
		<tag k="name:no" v="Skurufloen" />
		<tag k="place" v="isolated_dwelling" />
		<tag k="ssr:stedsnr" v="347768" />
	</node>
	<node lat="62.57192499765022" lon="11.845308341474588" id="-32298">
		<tag k="alt_name:no" v="Storhagan" />
		<tag k="name" v="Hagan" />
		<tag k="name:no" v="Hagan" />
		<tag k="place" v="farm" />
		<tag k="ssr:stedsnr" v="375247" />
	</node>
	<node lat="62.457858730216614" lon="11.53592589835517" id="-32300">
		<tag k="fixme" v="consider place=hamlet" />
		<tag k="name" v="Korssjøen" />
		<tag k="name:no" v="Korssjøen" />
		<tag k="place" v="farm" />
		<tag k="ssr:stedsnr" v="375307" />
	</node>
	<node lat="62.556308334274654" lon="11.275066676306912" id="-32302">
		<tag k="name" v="Haugen" />
		<tag k="name:no" v="Haugen" />
		<tag k="place" v="farm" />
		<tag k="ssr:stedsnr" v="375536" />
	</node>
	<node lat="62.51452272696048" lon="11.499227916898764" id="-32303">
		<tag k="fixme" v="consider place=hamlet" />
		<tag k="name" v="Sevatdalen" />
		<tag k="name:no" v="Sevatdalen" />
		<tag k="place" v="farm" />
		<tag k="ssr:stedsnr" v="375478" />
	</node>
	<node lat="62.63613610675733" lon="11.93455556029881" id="-32307">
		<tag k="historic" v="shieling" />
		<tag k="name" v="Bentvollen" />
		<tag k="name:no" v="Bentvollen" />
		<tag k="place" v="isolated_dwelling" />
		<tag k="ssr:stedsnr" v="375608" />
	</node>
	<node lat="62.59228535726317" lon="11.804870515819166" id="-32308">
		<tag k="name" v="Stensåsen" />
		<tag k="name:no" v="Stensåsen" />
		<tag k="place" v="farm" />
		<tag k="ssr:stedsnr" v="375628" />
	</node>
	<node lat="62.65462778011511" lon="11.8740777846071" id="-32311">
		<tag k="name" v="Åsheim" />
		<tag k="name:no" v="Åsheim" />
		<tag k="place" v="farm" />
		<tag k="ssr:stedsnr" v="375704" />
	</node>
	<node lat="62.62252037509597" lon="11.348158535348045" id="-32319">
		<tag k="historic" v="shieling" />
		<tag k="name" v="Midtvollen" />
		<tag k="name:no" v="Midtvollen" />
		<tag k="place" v="isolated_dwelling" />
		<tag k="ssr:stedsnr" v="375891" />
	</node>
	<node lat="62.628609353532056" lon="11.378979599608359" id="-32321">
		<tag k="fixme" v="consider place=hamlet" />
		<tag k="name" v="Orvos" />
		<tag k="name:no" v="Orvos" />
		<tag k="old_name:no" v="Orvas" />
		<tag k="place" v="village" />
		<tag k="ssr:stedsnr" v="375899" />
	</node>
	<node lat="62.62549166545073" lon="11.43073610786317" id="-32322">
		<tag k="historic" v="shieling" />
		<tag k="name" v="Krullen" />
		<tag k="name:no" v="Krullen" />
		<tag k="place" v="isolated_dwelling" />
		<tag k="ssr:stedsnr" v="375900" />
	</node>
	<node lat="62.68665985457708" lon="11.38667192435467" id="-32323">
		<tag k="fixme" v="consider place=hamlet" />
		<tag k="name" v="Rugldalen" />
		<tag k="name:no" v="Rugldalen" />
		<tag k="place" v="farm" />
		<tag k="ssr:stedsnr" v="375974" />
	</node>
	<node lat="62.573986112621974" lon="11.552924998796339" id="-32326">
		<tag k="name" v="Rådlausvollen" />
		<tag k="name:no" v="Rådlausvollen" />
		<tag k="place" v="farm" />
		<tag k="ssr:stedsnr" v="383801" />
	</node>
	<node lat="62.59227900745535" lon="12.024555086105137" id="-32329">
		<tag k="name" v="Borgedalsbua" />
		<tag k="name:no" v="Borgedalsbua" />
		<tag k="place" v="isolated_dwelling" />
		<tag k="ssr:stedsnr" v="385105" />
	</node>
	<node lat="62.633652777127224" lon="11.404441657390036" id="-32332">
		<tag k="historic" v="shieling" />
		<tag k="name" v="Randivollan" />
		<tag k="name:no" v="Randivollan" />
		<tag k="place" v="isolated_dwelling" />
		<tag k="ssr:stedsnr" v="402105" />
	</node>
	<node lat="62.616913008025755" lon="11.390121683769333" id="-32337">
		<tag k="historic" v="shieling" />
		<tag k="name" v="Saksvollen" />
		<tag k="name:no" v="Saksvollen" />
		<tag k="place" v="isolated_dwelling" />
		<tag k="ssr:stedsnr" v="403111" />
	</node>
	<node lat="62.65633333313137" lon="11.818222223509542" id="-32339">
		<tag k="name" v="Sjøvollen" />
		<tag k="name:no" v="Sjøvollen" />
		<tag k="place" v="farm" />
		<tag k="ssr:stedsnr" v="404092" />
	</node>
	<node lat="62.64931388949114" lon="11.864466667144752" id="-32340">
		<tag k="amenity" v="school" />
		<tag k="name" v="Brekken skole" />
		<tag k="name:no" v="Brekken skole" />
		<tag k="ssr:stedsnr" v="404230" />
	</node>
	<node lat="62.57675277433426" lon="11.371397229441882" id="-32341">
		<tag k="amenity" v="school" />
		<tag k="name" v="Røros skole" />
		<tag k="name:no" v="Røros skole" />
		<tag k="ssr:stedsnr" v="404234" />
	</node>
	<node lat="62.685469440520514" lon="11.387399992396013" id="-32345">
		<tag k="name" v="Litlgården" />
		<tag k="name:no" v="Litlgården" />
		<tag k="place" v="farm" />
		<tag k="ssr:stedsnr" v="406204" />
	</node>
	<node lat="62.67931944847591" lon="11.39751111631389" id="-32351">
		<tag k="name" v="Torptrøa" />
		<tag k="name:no" v="Torptrøa" />
		<tag k="place" v="farm" />
		<tag k="ssr:stedsnr" v="406201" />
	</node>
	<node lat="62.73023611736881" lon="11.330512324280658" id="-32361">
		<tag k="name" v="Ivervollen" />
		<tag k="name:no" v="Ivervollen" />
		<tag k="place" v="farm" />
		<tag k="ssr:stedsnr" v="406501" />
	</node>
	<node lat="62.46291388913732" lon="11.52238610698059" id="-32373">
		<tag k="historic" v="shieling" />
		<tag k="name" v="Stallan" />
		<tag k="name:no" v="Stallan" />
		<tag k="place" v="isolated_dwelling" />
		<tag k="ssr:stedsnr" v="406790" />
	</node>
	<node lat="62.588986109534304" lon="11.40635555923157" id="-32374">
		<tag k="name" v="Bredalsvollen" />
		<tag k="name:no" v="Bredalsvollen" />
		<tag k="place" v="farm" />
		<tag k="ssr:stedsnr" v="407104" />
	</node>
	<node lat="62.624627774242136" lon="11.452052786766068" id="-32375">
		<tag k="historic" v="shieling" />
		<tag k="name" v="Persvollen" />
		<tag k="name:no" v="Persvollen" />
		<tag k="place" v="isolated_dwelling" />
		<tag k="ssr:stedsnr" v="407092" />
	</node>
	<node lat="62.58971531364192" lon="11.322786503881732" id="-32381">
		<tag k="fixme" v="consider place=hamlet" />
		<tag k="name" v="Sundet" />
		<tag k="name:no" v="Sundet" />
		<tag k="place" v="farm" />
		<tag k="ssr:stedsnr" v="407422" />
	</node>
	<node lat="62.55658055919955" lon="11.28290000175252" id="-32385">
		<tag k="name" v="Ditlevløkkja" />
		<tag k="name:no" v="Ditlevløkkja" />
		<tag k="place" v="farm" />
		<tag k="ssr:stedsnr" v="407353" />
	</node>
	<node lat="62.5984999975554" lon="11.330219448537328" id="-32386">
		<tag k="name" v="Rørosgård" />
		<tag k="name:no" v="Rørosgård" />
		<tag k="place" v="farm" />
		<tag k="ssr:stedsnr" v="407401" />
	</node>
	<node lat="62.61183055488884" lon="11.612272227265247" id="-32394">
		<tag k="historic" v="shieling" />
		<tag k="name" v="Øver Billavollen" />
		<tag k="name:no" v="Øver Billavollen" />
		<tag k="place" v="isolated_dwelling" />
		<tag k="ssr:stedsnr" v="407699" />
	</node>
	<node lat="62.66289722204535" lon="11.528833333434221" id="-32405">
		<tag k="name" v="Dalvang" />
		<tag k="name:no" v="Dalvang" />
		<tag k="place" v="farm" />
		<tag k="ssr:stedsnr" v="407997" />
	</node>
	<node lat="62.57949722385677" lon="11.378919438535885" id="-32407">
		<tag k="name" v="Hotell Røros" />
		<tag k="name:no" v="Hotell Røros" />
		<tag k="ssr:stedsnr" v="423728" />
		<tag k="tourism" v="hotel" />
	</node>
	<node lat="62.564402776239895" lon="11.850330561168711" id="-32408">
		<tag k="alt_name:no" v="Gjerde" />
		<tag k="name" v="Gjerdet" />
		<tag k="name:no" v="Gjerdet" />
		<tag k="place" v="farm" />
		<tag k="ssr:stedsnr" v="436256" />
	</node>
	<node lat="62.570133334557745" lon="11.836808336820827" id="-32409">
		<tag k="name" v="Kalsagården" />
		<tag k="name:no" v="Kalsagården" />
		<tag k="place" v="farm" />
		<tag k="ssr:stedsnr" v="436266" />
	</node>
	<node lat="62.575986107146186" lon="11.512538880039322" id="-32414">
		<tag k="alt_name:no" v="Åsvollen søndre (Tomasvollen);Holstvollen;Tomasvollen" />
		<tag k="historic" v="shieling" />
		<tag k="name" v="Søre Åsvollen" />
		<tag k="name:no" v="Søre Åsvollen" />
		<tag k="place" v="isolated_dwelling" />
		<tag k="ssr:stedsnr" v="436566" />
	</node>
	<node lat="62.64967499837504" lon="11.758686113659227" id="-32420">
		<tag k="name" v="Granåsen" />
		<tag k="name:no" v="Granåsen" />
		<tag k="place" v="isolated_dwelling" />
		<tag k="ssr:stedsnr" v="436713" />
	</node>
	<node lat="62.64942893754855" lon="11.837790275328828" id="-32421">
		<tag k="alt_name:no" v="Villmannan" />
		<tag k="fixme" v="consider place=hamlet" />
		<tag k="name" v="Sjøvollen" />
		<tag k="name:no" v="Sjøvollen" />
		<tag k="place" v="farm" />
		<tag k="ssr:stedsnr" v="436717" />
	</node>
	<node lat="62.62336150138889" lon="11.415826217204499" id="-32422">
		<tag k="historic" v="shieling" />
		<tag k="name" v="Torsløkkja" />
		<tag k="name:no" v="Torsløkkja" />
		<tag k="place" v="isolated_dwelling" />
		<tag k="ssr:stedsnr" v="436905" />
	</node>
	<node lat="62.607125004001205" lon="11.611358325284288" id="-32423">
		<tag k="name" v="Billahaugen" />
		<tag k="name:no" v="Billahaugen" />
		<tag k="place" v="farm" />
		<tag k="ssr:stedsnr" v="436907" />
	</node>
	<node lat="62.47173611199524" lon="11.93367499853544" id="-32425">
		<tag k="historic" v="shieling" />
		<tag k="name" v="Svartvika" />
		<tag k="name:no" v="Svartvika" />
		<tag k="place" v="isolated_dwelling" />
		<tag k="ssr:stedsnr" v="437555" />
	</node>
	<node lat="62.793827779540166" lon="11.845738896321649" id="-32427">
		<tag k="name" v="Valsetvollen" />
		<tag k="name:no" v="Valsetvollen" />
		<tag k="place" v="isolated_dwelling" />
		<tag k="ssr:stedsnr" v="437806" />
	</node>
	<node lat="62.824702775457055" lon="11.811549999378249" id="-32431">
		<tag k="alt_name:no" v="Fjellheim, nedre;Fjellheim" />
		<tag k="name" v="Nedre Fjellheim" />
		<tag k="name:no" v="Nedre Fjellheim" />
		<tag k="place" v="farm" />
		<tag k="ssr:stedsnr" v="437800" />
	</node>
	<node lat="62.60079061673299" lon="11.421286809198952" id="-32432">
		<tag k="name" v="Valldølsvollen" />
		<tag k="name:no" v="Valldølsvollen" />
		<tag k="place" v="isolated_dwelling" />
		<tag k="ssr:stedsnr" v="437915" />
	</node>
	<node lat="62.68760000228969" lon="11.500577777429694" id="-32434">
		<tag k="name" v="Sulus" />
		<tag k="name:no" v="Sulus" />
		<tag k="place" v="farm" />
		<tag k="ssr:stedsnr" v="437957" />
	</node>
	<node lat="62.58746491310187" lon="11.325458493065671" id="-32436">
		<tag k="name" v="Sundet" />
		<tag k="name:no" v="Sundet" />
		<tag k="place" v="hamlet" />
		<tag k="ssr:stedsnr" v="437900" />
	</node>
	<node lat="62.60776397945799" lon="11.551188260125725" id="-32440">
		<tag k="name" v="Solbakken" />
		<tag k="name:no" v="Solbakken" />
		<tag k="place" v="farm" />
		<tag k="ssr:stedsnr" v="445806" />
	</node>
	<node lat="62.58503611338334" lon="11.40877499359833" id="-32443">
		<tag k="historic" v="shieling" />
		<tag k="name" v="Møllervollen" />
		<tag k="name:no" v="Møllervollen" />
		<tag k="place" v="isolated_dwelling" />
		<tag k="ssr:stedsnr" v="463013" />
	</node>
	<node lat="62.64629444731364" lon="11.429733335852935" id="-32445">
		<tag k="name" v="Maglivollen" />
		<tag k="name:no" v="Maglivollen" />
		<tag k="place" v="farm" />
		<tag k="ssr:stedsnr" v="463126" />
	</node>
	<node lat="62.56239166304816" lon="11.429552782976282" id="-32448">
		<tag k="fixme" v="multiple name tags, choose one and add the other to alt_name" />
		<tag k="name" v="Pinsti;Pinstivollen" />
		<tag k="name:no" v="Pinsti;Pinstivollen" />
		<tag k="place" v="farm" />
		<tag k="ssr:stedsnr" v="466610" />
	</node>
	<node lat="62.687024998966166" lon="11.384699998822681" id="-32454">
		<tag k="name" v="Tavlen" />
		<tag k="name:no" v="Tavlen" />
		<tag k="place" v="farm" />
		<tag k="ssr:stedsnr" v="467175" />
	</node>
	<node lat="62.617819443538465" lon="11.76746666146224" id="-32464">
		<tag k="name" v="Valset" />
		<tag k="name:no" v="Valset" />
		<tag k="place" v="farm" />
		<tag k="ssr:stedsnr" v="467303" />
	</node>
	<node lat="62.62261111303974" lon="11.745577782963002" id="-32466">
		<tag k="historic" v="shieling" />
		<tag k="name" v="Gammelspellvollen" />
		<tag k="name:no" v="Gammelspellvollen" />
		<tag k="place" v="isolated_dwelling" />
		<tag k="ssr:stedsnr" v="467316" />
	</node>
	<node lat="62.66972778091389" lon="11.755655564858447" id="-32471">
		<tag k="historic" v="shieling" />
		<tag k="name" v="Rundkåsvollen" />
		<tag k="name:no" v="Rundkåsvollen" />
		<tag k="place" v="isolated_dwelling" />
		<tag k="ssr:stedsnr" v="467504" />
	</node>
	<node lat="62.74050000284271" lon="11.849705553469235" id="-32478">
		<tag k="name" v="Adamsvollen" />
		<tag k="name:no" v="Adamsvollen" />
		<tag k="place" v="farm" />
		<tag k="ssr:stedsnr" v="467606" />
	</node>
	<node lat="62.457511110304814" lon="11.534680564686767" id="-32487">
		<tag k="name" v="Korssjøen" />
		<tag k="name:no" v="Korssjøen" />
		<tag k="place" v="farm" />
		<tag k="ssr:stedsnr" v="467808" />
	</node>
	<node lat="62.49997499638063" lon="11.564652775303463" id="-32489">
		<tag k="name" v="Rambergsbakken" />
		<tag k="name:no" v="Rambergsbakken" />
		<tag k="place" v="farm" />
		<tag k="ssr:stedsnr" v="467813" />
	</node>
	<node lat="62.69097778159878" lon="11.593791674041247" id="-32492">
		<tag k="name" v="Nyhus" />
		<tag k="name:no" v="Nyhus" />
		<tag k="place" v="farm" />
		<tag k="ssr:stedsnr" v="467706" />
	</node>
	<node lat="62.61246944702255" lon="11.58313055623699" id="-32504">
		<tag k="historic" v="shieling" />
		<tag k="name" v="Grunnsjøvollen" />
		<tag k="name:no" v="Grunnsjøvollen" />
		<tag k="place" v="isolated_dwelling" />
		<tag k="ssr:stedsnr" v="467927" />
	</node>
	<node lat="62.68727222029636" lon="11.74160277938876" id="-32511">
		<tag k="name" v="Elvøy" />
		<tag k="name:no" v="Elvøy" />
		<tag k="place" v="locality" />
		<tag k="ssr:stedsnr" v="468677" />
	</node>
	<node lat="62.78954722478129" lon="11.832552782362864" id="-32514">
		<tag k="name" v="Valsetbåtstaden" />
		<tag k="name:no" v="Valsetbåtstaden" />
		<tag k="place" v="isolated_dwelling" />
		<tag k="ssr:stedsnr" v="468809" />
	</node>
	<node lat="62.71583888642433" lon="11.793700004441458" id="-32517">
		<tag k="name" v="Bjørkli" />
		<tag k="name:no" v="Bjørkli" />
		<tag k="place" v="farm" />
		<tag k="ssr:stedsnr" v="678553" />
	</node>
	<node lat="62.565615190341966" lon="11.306143798172151" id="-32518">
		<tag k="name" v="Trondløkkja" />
		<tag k="name:no" v="Trondløkkja" />
		<tag k="place" v="farm" />
		<tag k="ssr:stedsnr" v="678556" />
	</node>
	<node lat="62.482600087314665" lon="11.643562710973193" id="-32528">
		<tag k="fixme" v="consider place=hamlet" />
		<tag k="name" v="Kvipsdalen" />
		<tag k="name:no" v="Kvipsdalen" />
		<tag k="place" v="farm" />
		<tag k="ssr:stedsnr" v="679334" />
	</node>
	<node lat="62.53118117768384" lon="11.454892899856807" id="-32536">
		<tag k="name" v="Løkkja" />
		<tag k="name:no" v="Løkkja" />
		<tag k="place" v="farm" />
		<tag k="ssr:stedsnr" v="679560" />
	</node>
	<node lat="62.532811110938475" lon="11.259163894693828" id="-32537">
		<tag k="alt_name:no" v="Rektørsvollen" />
		<tag k="name" v="Bjørnstad" />
		<tag k="name:no" v="Bjørnstad" />
		<tag k="place" v="farm" />
		<tag k="ssr:stedsnr" v="679561" />
	</node>
	<node lat="62.74261738252634" lon="11.32483630913691" id="-32542">
		<tag k="fixme" v="consider place=hamlet" />
		<tag k="name" v="Trøa" />
		<tag k="name:no" v="Trøa" />
		<tag k="place" v="farm" />
		<tag k="ssr:stedsnr" v="679749" />
	</node>
	<node lat="62.79025555930535" lon="11.819755563148872" id="-32549">
		<tag k="name" v="Heia" />
		<tag k="name:no" v="Heia" />
		<tag k="place" v="isolated_dwelling" />
		<tag k="ssr:stedsnr" v="679797" />
	</node>
	<node lat="62.619930552192564" lon="11.344788897483646" id="-32552">
		<tag k="name" v="Litlvollen" />
		<tag k="name:no" v="Litlvollen" />
		<tag k="place" v="isolated_dwelling" />
		<tag k="ssr:stedsnr" v="679893" />
	</node>
	<node lat="62.600307456310674" lon="11.506913820591361" id="-32554">
		<tag k="name" v="Mattisvollen" />
		<tag k="name:no" v="Mattisvollen" />
		<tag k="place" v="farm" />
		<tag k="ssr:stedsnr" v="679926" />
	</node>
	<node lat="62.706438891442296" lon="11.494483337062354" id="-32555">
		<tag k="historic" v="shieling" />
		<tag k="name" v="Finnlandsåsen" />
		<tag k="name:no" v="Finnlandsåsen" />
		<tag k="place" v="isolated_dwelling" />
		<tag k="ssr:stedsnr" v="679927" />
	</node>
	<node lat="62.68769999758244" lon="11.384374991587562" id="-32557">
		<tag k="name" v="Bergan" />
		<tag k="name:no" v="Bergan" />
		<tag k="place" v="farm" />
		<tag k="ssr:stedsnr" v="679948" />
	</node>
	<node lat="62.688341669246206" lon="11.558947219236915" id="-32558">
		<tag k="name" v="Abrahamsvollen" />
		<tag k="name:no" v="Abrahamsvollen" />
		<tag k="place" v="isolated_dwelling" />
		<tag k="ssr:stedsnr" v="679954" />
	</node>
	<node lat="62.57083611375742" lon="11.395175006381043" id="-32562">
		<tag k="alt_name:no" v="Østerhagan" />
		<tag k="name" v="Hagan" />
		<tag k="name:no" v="Hagan" />
		<tag k="place" v="farm" />
		<tag k="ssr:stedsnr" v="496605" />
	</node>
	<node lat="62.7048166683687" lon="11.738752785043781" id="-32566">
		<tag k="name" v="Øvre Sødalen" />
		<tag k="name:no" v="Øvre Sødalen" />
		<tag k="old_name:no" v="Sødal, øvre" />
		<tag k="place" v="farm" />
		<tag k="ssr:stedsnr" v="496560" />
	</node>
	<node lat="62.50726621750728" lon="11.549595410936439" id="-32582">
		<tag k="fixme" v="consider place=hamlet" />
		<tag k="name" v="Tørresdalen" />
		<tag k="name:no" v="Tørresdalen" />
		<tag k="place" v="farm" />
		<tag k="ssr:stedsnr" v="497502" />
	</node>
	<node lat="62.70090410314795" lon="11.739607150027926" id="-32583">
		<tag k="name" v="Nedre Sødalen" />
		<tag k="name:no" v="Nedre Sødalen" />
		<tag k="old_name:no" v="Sødal, nedre" />
		<tag k="place" v="farm" />
		<tag k="ssr:stedsnr" v="497517" />
	</node>
	<node lat="62.73041264042697" lon="11.798571282156146" id="-32585">
		<tag k="historic" v="shieling" />
		<tag k="name" v="Notåsen" />
		<tag k="name:no" v="Notåsen" />
		<tag k="place" v="isolated_dwelling" />
		<tag k="ssr:stedsnr" v="497529" />
	</node>
	<node lat="62.65657273869543" lon="11.815166514147615" id="-32597">
		<tag k="name" v="Sjøvollen" />
		<tag k="name:no" v="Sjøvollen" />
		<tag k="place" v="farm" />
		<tag k="ssr:stedsnr" v="497722" />
	</node>
	<node lat="62.666275539361784" lon="11.836874541822182" id="-32598">
		<tag k="name" v="Sundet" />
		<tag k="name:no" v="Sundet" />
		<tag k="place" v="farm" />
		<tag k="ssr:stedsnr" v="497744" />
	</node>
	<node lat="62.59343333051981" lon="11.48484722734725" id="-32608">
		<tag k="name" v="Mortenås" />
		<tag k="name:no" v="Mortenås" />
		<tag k="place" v="farm" />
		<tag k="ssr:stedsnr" v="506774" />
	</node>
	<node lat="62.56093055577988" lon="11.42783889353354" id="-32619">
		<tag k="fixme" v="multiple name tags, choose one and add the other to alt_name" />
		<tag k="name" v="Pinsti;Pinstivollen" />
		<tag k="name:no" v="Pinsti;Pinstivollen" />
		<tag k="place" v="farm" />
		<tag k="ssr:stedsnr" v="526607" />
	</node>
	<node lat="62.66115000135825" lon="11.87189444575869" id="-32625">
		<tag k="name" v="Nordbrekka" />
		<tag k="name:no" v="Nordbrekka" />
		<tag k="place" v="farm" />
		<tag k="ssr:stedsnr" v="527090" />
	</node>
	<node lat="62.67136670384804" lon="11.612102338713274" id="-32631">
		<tag k="historic" v="shieling" />
		<tag k="name" v="Svarthåmmårvollan" />
		<tag k="name:no" v="Svarthåmmårvollan" />
		<tag k="place" v="isolated_dwelling" />
		<tag k="ssr:stedsnr" v="527720" />
	</node>
	<node lat="62.62416111299632" lon="11.434466665450099" id="-32634">
		<tag k="historic" v="shieling" />
		<tag k="name" v="Storgunhildsvollen" />
		<tag k="name:no" v="Storgunhildsvollen" />
		<tag k="place" v="isolated_dwelling" />
		<tag k="ssr:stedsnr" v="528134" />
	</node>
	<node lat="62.54637778013223" lon="11.422402780479809" id="-32635">
		<tag k="name" v="Rya østre" />
		<tag k="name:no" v="Rya østre" />
		<tag k="place" v="farm" />
		<tag k="ssr:stedsnr" v="528027" />
	</node>
	<node lat="62.67169905243568" lon="11.408335006856046" id="-32645">
		<tag k="alt_name:no" v="Kroken Søre" />
		<tag k="fixme" v="consider place=hamlet" />
		<tag k="name" v="Søre Kroken" />
		<tag k="name:no" v="Søre Kroken" />
		<tag k="place" v="farm" />
		<tag k="ssr:stedsnr" v="528209" />
	</node>
	<node lat="62.555097221791236" lon="11.291949992148433" id="-32649">
		<tag k="name" v="Klasvollen søndre" />
		<tag k="name:no" v="Klasvollen søndre" />
		<tag k="place" v="farm" />
		<tag k="ssr:stedsnr" v="528372" />
	</node>
	<node lat="62.55256111179089" lon="11.284672213663361" id="-32650">
		<tag k="alt_name:no" v="Galå vestre" />
		<tag k="name" v="Vestre Galåa" />
		<tag k="name:no" v="Vestre Galåa" />
		<tag k="place" v="farm" />
		<tag k="ssr:stedsnr" v="528379" />
	</node>
	<node lat="62.56268332897929" lon="11.38896944488627" id="-32653">
		<tag k="name" v="Estenvollen" />
		<tag k="name:no" v="Estenvollen" />
		<tag k="place" v="farm" />
		<tag k="ssr:stedsnr" v="528522" />
	</node>
	<node lat="62.65471110942" lon="11.260336118071102" id="-32659">
		<tag k="historic" v="shieling" />
		<tag k="name" v="Oksvollen" />
		<tag k="name:no" v="Oksvollen" />
		<tag k="place" v="isolated_dwelling" />
		<tag k="ssr:stedsnr" v="528479" />
	</node>
	<node lat="62.57844166737434" lon="11.573313881384378" id="-32669">
		<tag k="alt_name:no" v="Sjøendvollen" />
		<tag k="historic" v="shieling" />
		<tag k="name" v="Sjøenden" />
		<tag k="name:no" v="Sjøenden" />
		<tag k="place" v="isolated_dwelling" />
		<tag k="ssr:stedsnr" v="528829" />
	</node>
	<node lat="62.47877221874004" lon="11.487927786169536" id="-32676">
		<tag k="historic" v="shieling" />
		<tag k="name" v="Rødals-setra" />
		<tag k="name:no" v="Rødals-setra" />
		<tag k="place" v="isolated_dwelling" />
		<tag k="ssr:stedsnr" v="528779" />
	</node>
	<node lat="62.575997225158154" lon="11.467491668552237" id="-32679">
		<tag k="historic" v="shieling" />
		<tag k="name" v="Kokkvollen" />
		<tag k="name:no" v="Kokkvollen" />
		<tag k="place" v="isolated_dwelling" />
		<tag k="ssr:stedsnr" v="528906" />
	</node>
	<node lat="62.59793055849168" lon="11.466622228377465" id="-32680">
		<tag k="name" v="Saksvollen" />
		<tag k="name:no" v="Saksvollen" />
		<tag k="place" v="farm" />
		<tag k="ssr:stedsnr" v="528917" />
	</node>
	<node lat="62.688555554735544" lon="11.561480547855773" id="-32681">
		<tag k="name" v="Karivollen" />
		<tag k="name:no" v="Karivollen" />
		<tag k="place" v="isolated_dwelling" />
		<tag k="ssr:stedsnr" v="528972" />
	</node>
	<node lat="62.667485201784906" lon="11.866967768511362" id="-32713">
		<tag k="fixme" v="consider place=hamlet" />
		<tag k="name" v="Stenvollen" />
		<tag k="name:no" v="Stenvollen" />
		<tag k="place" v="farm" />
		<tag k="ssr:stedsnr" v="557722" />
	</node>
	<node lat="62.63229166793862" lon="11.831133329084182" id="-32715">
		<tag k="alt_name:no" v="Hagavik" />
		<tag k="name" v="Hagavika" />
		<tag k="name:no" v="Hagavika" />
		<tag k="place" v="farm" />
		<tag k="ssr:stedsnr" v="557603" />
	</node>
	<node lat="62.64661666459526" lon="12.069633328098648" id="-32716">
		<tag k="name" v="Gamle Elvavollen" />
		<tag k="name:no" v="Gamle Elvavollen" />
		<tag k="place" v="isolated_dwelling" />
		<tag k="ssr:stedsnr" v="557611" />
	</node>
	<node lat="62.591666662816486" lon="11.810519443822182" id="-32718">
		<tag k="name" v="Åsvang" />
		<tag k="name:no" v="Åsvang" />
		<tag k="place" v="isolated_dwelling" />
		<tag k="ssr:stedsnr" v="557623" />
	</node>
	<node lat="62.61650555674857" lon="11.76317500811761" id="-32720">
		<tag k="alt_name:no" v="Valset, vestre" />
		<tag k="name" v="Vestre Valset" />
		<tag k="name:no" v="Vestre Valset" />
		<tag k="place" v="farm" />
		<tag k="ssr:stedsnr" v="557649" />
	</node>
	<node lat="62.67379166294138" lon="11.835491660033366" id="-32721">
		<tag k="name" v="Nesvollen" />
		<tag k="name:no" v="Nesvollen" />
		<tag k="place" v="farm" />
		<tag k="ssr:stedsnr" v="557663" />
	</node>
	<node lat="62.65499386563404" lon="11.873815708036956" id="-32722">
		<tag k="fixme" v="consider place=hamlet" />
		<tag k="name" v="Embrektsgården" />
		<tag k="name:no" v="Embrektsgården" />
		<tag k="place" v="farm" />
		<tag k="ssr:stedsnr" v="557699" />
	</node>
	<node lat="62.54638888505236" lon="11.390411106761528" id="-32724">
		<tag k="amenity" v="cafe" />
		<tag k="name" v="Skistuggu" />
		<tag k="name:no" v="Skistuggu" />
		<tag k="ssr:stedsnr" v="688759" />
	</node>
	<node lat="62.720058334448154" lon="11.485147221528399" id="-32725">
		<tag k="historic" v="shieling" />
		<tag k="name" v="Strømmeslåtten" />
		<tag k="name:no" v="Strømmeslåtten" />
		<tag k="place" v="isolated_dwelling" />
		<tag k="ssr:stedsnr" v="557796" />
	</node>
	<node lat="62.60879304781515" lon="11.343559900317162" id="-32727">
		<tag k="fixme" v="consider place=hamlet" />
		<tag k="name" v="Kvernengan" />
		<tag k="name:no" v="Kvernengan" />
		<tag k="place" v="farm" />
		<tag k="ssr:stedsnr" v="557905" />
	</node>
	<node lat="62.69179166583496" lon="11.581858330539278" id="-32729">
		<tag k="name" v="Engesvollen" />
		<tag k="name:no" v="Engesvollen" />
		<tag k="place" v="farm" />
		<tag k="ssr:stedsnr" v="557957" />
	</node>
	<node lat="62.66299166427637" lon="11.52154999604336" id="-32732">
		<tag k="name" v="Ditlovollen" />
		<tag k="name:no" v="Ditlovollen" />
		<tag k="place" v="farm" />
		<tag k="ssr:stedsnr" v="557998" />
	</node>
	<node lat="62.65997500158511" lon="11.546066675625248" id="-32733">
		<tag k="name" v="Gaukvollan" />
		<tag k="name:no" v="Gaukvollan" />
		<tag k="place" v="farm" />
		<tag k="ssr:stedsnr" v="558000" />
	</node>
	<node lat="62.60957499925995" lon="11.560986106227263" id="-32734">
		<tag k="name" v="Kommandantvollen" />
		<tag k="name:no" v="Kommandantvollen" />
		<tag k="place" v="farm" />
		<tag k="ssr:stedsnr" v="557897" />
	</node>
	<node lat="62.43220833511211" lon="11.782624996107739" id="-32735">
		<tag k="name" v="Sellesdalsbua" />
		<tag k="name:no" v="Sellesdalsbua" />
		<tag k="place" v="isolated_dwelling" />
		<tag k="ssr:stedsnr" v="688874" />
	</node>
	<node lat="62.819052779107786" lon="11.807061105064411" id="-32737">
		<tag k="name" v="Holmstad" />
		<tag k="name:no" v="Holmstad" />
		<tag k="place" v="isolated_dwelling" />
		<tag k="ssr:stedsnr" v="558850" />
	</node>
	<node lat="62.610916664267705" lon="11.647666669794695" id="-32738">
		<tag k="alt_name:no" v="Grubba" />
		<tag k="name" v="Ernstgrubba" />
		<tag k="name:no" v="Ernstgrubba" />
		<tag k="old_name:no" v="Ernstgrubben" />
		<tag k="place" v="farm" />
		<tag k="ssr:stedsnr" v="688927" />
	</node>
	<node lat="62.582050002146914" lon="11.3925194386449" id="-32743">
		<tag k="fixme" v="consider place=suburb, village or hamlet" />
		<tag k="name" v="Sjøbakken" />
		<tag k="name:no" v="Sjøbakken" />
		<tag k="place" v="quarter" />
		<tag k="ssr:stedsnr" v="566758" />
	</node>
	<node lat="62.600557748900826" lon="11.468549193990597" id="-32745">
		<tag k="historic" v="shieling" />
		<tag k="name" v="Monsvollen" />
		<tag k="name:no" v="Monsvollen" />
		<tag k="place" v="isolated_dwelling" />
		<tag k="ssr:stedsnr" v="566804" />
	</node>
	<node lat="62.6104222210178" lon="11.391522222186438" id="-32746">
		<tag k="historic" v="shieling" />
		<tag k="name" v="Bentvollen" />
		<tag k="name:no" v="Bentvollen" />
		<tag k="place" v="isolated_dwelling" />
		<tag k="ssr:stedsnr" v="584110" />
	</node>
	<node lat="62.616383331568585" lon="11.430674991916694" id="-32747">
		<tag k="historic" v="shieling" />
		<tag k="name" v="Tyskvollen" />
		<tag k="name:no" v="Tyskvollen" />
		<tag k="place" v="isolated_dwelling" />
		<tag k="ssr:stedsnr" v="584117" />
	</node>
	<node lat="62.63233055367362" lon="11.44068334151176" id="-32748">
		<tag k="name" v="Ålbyggvollen" />
		<tag k="name:no" v="Ålbyggvollen" />
		<tag k="place" v="farm" />
		<tag k="ssr:stedsnr" v="584145" />
	</node>
	<node lat="62.630583336756175" lon="11.417352785591316" id="-32749">
		<tag k="name" v="Bentvollen" />
		<tag k="name:no" v="Bentvollen" />
		<tag k="place" v="farm" />
		<tag k="ssr:stedsnr" v="584150" />
	</node>
	<node lat="62.6314638910561" lon="11.395230558883688" id="-32750">
		<tag k="name" v="Gaukvollen" />
		<tag k="name:no" v="Gaukvollen" />
		<tag k="place" v="farm" />
		<tag k="ssr:stedsnr" v="584094" />
	</node>
	<node lat="62.62861666330621" lon="11.451372220124718" id="-32755">
		<tag k="historic" v="shieling" />
		<tag k="name" v="Støvollen" />
		<tag k="name:no" v="Støvollen" />
		<tag k="place" v="isolated_dwelling" />
		<tag k="ssr:stedsnr" v="588076" />
	</node>
	<node lat="62.676805552878356" lon="11.906624993093098" id="-32756">
		<tag k="historic" v="shieling" />
		<tag k="name" v="Andersvollen" />
		<tag k="name:no" v="Andersvollen" />
		<tag k="place" v="isolated_dwelling" />
		<tag k="ssr:stedsnr" v="588107" />
	</node>
	<node lat="62.55658065646874" lon="11.285868462433346" id="-32761">
		<tag k="alt_name:no" v="Galåa nordre" />
		<tag k="name" v="Nordre Galåa" />
		<tag k="name:no" v="Nordre Galåa" />
		<tag k="place" v="farm" />
		<tag k="ssr:stedsnr" v="588310" />
	</node>
	<node lat="62.55329722248577" lon="11.277961113970015" id="-32765">
		<tag k="alt_name:no" v="Galåa ytre;Ytter Galåplassen" />
		<tag k="name" v="Ytre Galåa" />
		<tag k="name:no" v="Ytre Galåa" />
		<tag k="place" v="farm" />
		<tag k="ssr:stedsnr" v="588317" />
	</node>
	<node lat="62.63504167069419" lon="11.244130546534002" id="-32769">
		<tag k="name" v="Tverrødalsbua" />
		<tag k="name:no" v="Tverrødalsbua" />
		<tag k="place" v="isolated_dwelling" />
		<tag k="ssr:stedsnr" v="588408" />
	</node>
	<node lat="62.529641882862016" lon="11.461926904848866" id="-32782">
		<tag k="fixme" v="consider place=hamlet" />
		<tag k="name" v="Storrya" />
		<tag k="name:no" v="Storrya" />
		<tag k="place" v="farm" />
		<tag k="ssr:stedsnr" v="588462" />
	</node>
	<node lat="62.53341111299231" lon="11.44682776867397" id="-32783">
		<tag k="name" v="Åsvollen" />
		<tag k="name:no" v="Åsvollen" />
		<tag k="place" v="farm" />
		<tag k="ssr:stedsnr" v="588464" />
	</node>
	<node lat="62.477483330048415" lon="11.66112500421478" id="-32789">
		<tag k="name" v="Dammbua" />
		<tag k="name:no" v="Dammbua" />
		<tag k="place" v="isolated_dwelling" />
		<tag k="ssr:stedsnr" v="588532" />
	</node>
	<node lat="62.61285995189818" lon="11.624417482981942" id="-32805">
		<tag k="name" v="Strømmevollen" />
		<tag k="name:no" v="Strømmevollen" />
		<tag k="place" v="farm" />
		<tag k="ssr:stedsnr" v="588671" />
	</node>
	<node lat="62.457011110811244" lon="11.534416665923445" id="-32807">
		<tag k="name" v="Korssjøen" />
		<tag k="name:no" v="Korssjøen" />
		<tag k="place" v="farm" />
		<tag k="ssr:stedsnr" v="588811" />
	</node>
	<node lat="62.547113891040105" lon="11.772461110236753" id="-32831">
		<tag k="historic" v="shieling" />
		<tag k="name" v="Røtjønnrøsta" />
		<tag k="name:no" v="Røtjønnrøsta" />
		<tag k="place" v="isolated_dwelling" />
		<tag k="ssr:stedsnr" v="618281" />
	</node>
	<node lat="62.548880554011404" lon="11.459141669891391" id="-32832">
		<tag k="historic" v="shieling" />
		<tag k="name" v="Ensomhet" />
		<tag k="name:no" v="Ensomhet" />
		<tag k="place" v="isolated_dwelling" />
		<tag k="ssr:stedsnr" v="618604" />
	</node>
	<node lat="62.613549999245706" lon="11.78276389063365" id="-32841">
		<tag k="name" v="Aursanden" />
		<tag k="name:no" v="Aursanden" />
		<tag k="place" v="isolated_dwelling" />
		<tag k="ssr:stedsnr" v="618650" />
	</node>
	<node lat="62.72732563156289" lon="11.870500992862933" id="-32843">
		<tag k="historic" v="shieling" />
		<tag k="name" v="Litlvollen" />
		<tag k="name:no" v="Litlvollen" />
		<tag k="place" v="isolated_dwelling" />
		<tag k="ssr:stedsnr" v="618538" />
	</node>
	<node lat="62.609400704675345" lon="11.555277926908031" id="-32853">
		<tag k="name" v="Stigerslia" />
		<tag k="name:no" v="Stigerslia" />
		<tag k="place" v="farm" />
		<tag k="ssr:stedsnr" v="618903" />
	</node>
	<node lat="62.59575294521253" lon="11.326230042383997" id="-32855">
		<tag k="fixme" v="consider place=hamlet" />
		<tag k="name" v="Flata" />
		<tag k="name:no" v="Flata" />
		<tag k="place" v="farm" />
		<tag k="ssr:stedsnr" v="618914" />
	</node>
	<node lat="62.5995916665897" lon="11.525908329033786" id="-32856">
		<tag k="name" v="Djupsjølia" />
		<tag k="name:no" v="Djupsjølia" />
		<tag k="place" v="farm" />
		<tag k="ssr:stedsnr" v="618915" />
	</node>
	<node lat="62.600338887733244" lon="11.50018889608646" id="-32857">
		<tag k="name" v="Hallstensvollen" />
		<tag k="name:no" v="Hallstensvollen" />
		<tag k="place" v="farm" />
		<tag k="ssr:stedsnr" v="618924" />
	</node>
	<node lat="62.70871666662363" lon="11.447775001698306" id="-32858">
		<tag k="historic" v="shieling" />
		<tag k="name" v="Folkesvollen" />
		<tag k="name:no" v="Folkesvollen" />
		<tag k="place" v="isolated_dwelling" />
		<tag k="ssr:stedsnr" v="618928" />
	</node>
	<node lat="62.6892928951481" lon="11.233122607317169" id="-32859">
		<tag k="name" v="Grønhaugan" />
		<tag k="name:no" v="Grønhaugan" />
		<tag k="place" v="locality" />
		<tag k="ssr:stedsnr" v="618975" />
	</node>
	<node lat="62.680292424191194" lon="11.397639161809213" id="-32860">
		<tag k="fixme" v="consider place=hamlet" />
		<tag k="name" v="Koian" />
		<tag k="name:no" v="Koian" />
		<tag k="place" v="farm" />
		<tag k="ssr:stedsnr" v="618976" />
	</node>
	<node lat="62.62428888621862" lon="11.451725007520862" id="-32864">
		<tag k="historic" v="shieling" />
		<tag k="name" v="Erlia" />
		<tag k="name:no" v="Erlia" />
		<tag k="place" v="isolated_dwelling" />
		<tag k="ssr:stedsnr" v="627852" />
	</node>
	<node lat="62.6381992489707" lon="11.896497901154769" id="-32869">
		<tag k="fixme" v="consider place=hamlet" />
		<tag k="name" v="Rya" />
		<tag k="name:no" v="Rya" />
		<tag k="place" v="farm" />
		<tag k="ssr:stedsnr" v="706071" />
	</node>
	<node lat="62.6447666621865" lon="11.888108340989781" id="-32870">
		<tag k="name" v="Skott-trøa" />
		<tag k="name:no" v="Skott-trøa" />
		<tag k="place" v="isolated_dwelling" />
		<tag k="ssr:stedsnr" v="706073" />
	</node>
	<node lat="62.55296110915028" lon="11.444580551842433" id="-32871">
		<tag k="name" v="Påskvollen" />
		<tag k="name:no" v="Påskvollen" />
		<tag k="place" v="farm" />
		<tag k="ssr:stedsnr" v="706055" />
	</node>
	<node lat="62.6222361089228" lon="11.419416672650245" id="-32872">
		<tag k="historic" v="shieling" />
		<tag k="name" v="Hesjedalsvollen" />
		<tag k="name:no" v="Hesjedalsvollen" />
		<tag k="place" v="isolated_dwelling" />
		<tag k="ssr:stedsnr" v="706101" />
	</node>
	<node lat="62.56733611288394" lon="11.848702772345062" id="-32876">
		<tag k="name" v="Moen" />
		<tag k="name:no" v="Moen" />
		<tag k="place" v="farm" />
		<tag k="ssr:stedsnr" v="644185" />
	</node>
	<node lat="62.668658330478394" lon="11.865569442903134" id="-32877">
		<tag k="name" v="Stenvollen" />
		<tag k="name:no" v="Stenvollen" />
		<tag k="place" v="farm" />
		<tag k="ssr:stedsnr" v="644189" />
	</node>
	<node lat="62.633800000118555" lon="11.414425001592667" id="-32881">
		<tag k="name" v="Guldalsvollen" />
		<tag k="name:no" v="Guldalsvollen" />
		<tag k="place" v="farm" />
		<tag k="ssr:stedsnr" v="645116" />
	</node>
	<node lat="62.67428040673546" lon="11.415675436825255" id="-32888">
		<tag k="fixme" v="consider place=hamlet" />
		<tag k="name" v="Jensvollen" />
		<tag k="name:no" v="Jensvollen" />
		<tag k="place" v="farm" />
		<tag k="ssr:stedsnr" v="645175" />
	</node>
	<node lat="62.65153333050768" lon="11.639247228658347" id="-32891">
		<tag k="name" v="Trøa" />
		<tag k="name:no" v="Trøa" />
		<tag k="place" v="farm" />
		<tag k="ssr:stedsnr" v="645708" />
	</node>
	<node lat="62.653719440241126" lon="11.877322219761751" id="-32901">
		<tag k="name" v="Saksgården" />
		<tag k="name:no" v="Saksgården" />
		<tag k="place" v="farm" />
		<tag k="ssr:stedsnr" v="649116" />
	</node>
	<node lat="62.62660833032075" lon="11.431875006702427" id="-32902">
		<tag k="historic" v="shieling" />
		<tag k="name" v="Bygmestervollen" />
		<tag k="name:no" v="Bygmestervollen" />
		<tag k="place" v="isolated_dwelling" />
		<tag k="ssr:stedsnr" v="649122" />
	</node>
	<node lat="62.539605551868036" lon="11.306461116806714" id="-32915">
		<tag k="name" v="Høsøya nordre" />
		<tag k="name:no" v="Høsøya nordre" />
		<tag k="place" v="farm" />
		<tag k="ssr:stedsnr" v="649306" />
	</node>
	<node lat="62.72500555540434" lon="11.33158889457206" id="-32919">
		<tag k="name" v="Dalen" />
		<tag k="name:no" v="Dalen" />
		<tag k="place" v="farm" />
		<tag k="ssr:stedsnr" v="649512" />
	</node>
	<node lat="62.42303333761049" lon="11.939374994723481" id="-32923">
		<tag k="name" v="Nordvika" />
		<tag k="name:no" v="Nordvika" />
		<tag k="place" v="farm" />
		<tag k="ssr:stedsnr" v="649541" />
	</node>
	<node lat="62.6408583315844" lon="11.576233331189096" id="-32941">
		<tag k="historic" v="shieling" />
		<tag k="name" v="Haftorvollen" />
		<tag k="name:no" v="Haftorvollen" />
		<tag k="place" v="isolated_dwelling" />
		<tag k="ssr:stedsnr" v="649903" />
	</node>
	<node lat="62.57574167026363" lon="11.468263893868972" id="-32942">
		<tag k="historic" v="shieling" />
		<tag k="name" v="Stikkilldalssetran" />
		<tag k="name:no" v="Stikkilldalssetran" />
		<tag k="place" v="isolated_dwelling" />
		<tag k="ssr:stedsnr" v="649909" />
	</node>
	<node lat="62.603597225159795" lon="11.502066661742038" id="-32943">
		<tag k="name" v="Fjellråa" />
		<tag k="name:no" v="Fjellråa" />
		<tag k="place" v="farm" />
		<tag k="ssr:stedsnr" v="649911" />
	</node>
	<node lat="62.603100000051555" lon="11.474441659730429" id="-32946">
		<tag k="name" v="Sollia østre" />
		<tag k="name:no" v="Sollia østre" />
		<tag k="place" v="farm" />
		<tag k="ssr:stedsnr" v="649922" />
	</node>
	<node lat="62.71928889281361" lon="11.807316666200567" id="-32948">
		<tag k="name" v="Langtjønnbua" />
		<tag k="name:no" v="Langtjønnbua" />
		<tag k="place" v="locality" />
		<tag k="ssr:stedsnr" v="650706" />
	</node>
	<node lat="62.65997777464112" lon="11.546072225086732" id="-32962">
		<tag k="alt_name:no" v="Gaukvollen nordre" />
		<tag k="name" v="Nordre Gaukvollen" />
		<tag k="name:no" v="Nordre Gaukvollen" />
		<tag k="place" v="farm" />
		<tag k="ssr:stedsnr" v="651616" />
	</node>
	<node lat="62.60025277339172" lon="11.678083337088568" id="-32963">
		<tag k="name" v="Langen søndre" />
		<tag k="name:no" v="Langen søndre" />
		<tag k="place" v="farm" />
		<tag k="ssr:stedsnr" v="710600" />
	</node>
	<node lat="62.637772217693424" lon="11.581838897918969" id="-32982">
		<tag k="alt_name:no" v="Bukkvollen søre" />
		<tag k="name" v="Søre Bukkvollen" />
		<tag k="name:no" v="Søre Bukkvollen" />
		<tag k="place" v="farm" />
		<tag k="ssr:stedsnr" v="710283" />
	</node>
	<node lat="62.62722778126771" lon="11.776588896568846" id="-32990">
		<tag k="historic" v="shieling" />
		<tag k="name" v="Buvollen" />
		<tag k="name:no" v="Buvollen" />
		<tag k="place" v="isolated_dwelling" />
		<tag k="ssr:stedsnr" v="710319" />
	</node>
	<node lat="62.55322777544483" lon="11.288630548283496" id="-32999">
		<tag k="name" v="Øster-Galåplassen" />
		<tag k="name:no" v="Øster-Galåplassen" />
		<tag k="place" v="farm" />
		<tag k="ssr:stedsnr" v="710344" />
	</node>
	<node lat="62.54717777345748" lon="11.300252777739654" id="-33000">
		<tag k="name" v="Kvilheim" />
		<tag k="name:no" v="Kvilheim" />
		<tag k="place" v="farm" />
		<tag k="ssr:stedsnr" v="710351" />
	</node>
	<node lat="62.587638889671894" lon="11.322758338273333" id="-33002">
		<tag k="name" v="Sundet nordre" />
		<tag k="name:no" v="Sundet nordre" />
		<tag k="place" v="farm" />
		<tag k="ssr:stedsnr" v="710367" />
	</node>
	<node lat="62.573241666974575" lon="11.556775002891253" id="-33015">
		<tag k="name" v="Sagmesterlia" />
		<tag k="name:no" v="Sagmesterlia" />
		<tag k="place" v="farm" />
		<tag k="ssr:stedsnr" v="678582" />
	</node>
	<node lat="62.65361173956616" lon="11.408433137720078" id="-33017">
		<tag k="fixme" v="consider place=hamlet" />
		<tag k="name" v="Pustbakken" />
		<tag k="name:no" v="Pustbakken" />
		<tag k="place" v="farm" />
		<tag k="ssr:stedsnr" v="678973" />
	</node>
	<node lat="62.640548186915524" lon="12.031027114345394" id="-33024">
		<tag k="name" v="Vauldalen Fjellhotell" />
		<tag k="name:no" v="Vauldalen Fjellhotell" />
		<tag k="old_name:no" v="Vauldalen Turiststasjon" />
		<tag k="ssr:stedsnr" v="679622" />
		<tag k="tourism" v="hotel" />
	</node>
	<node lat="62.55457500228444" lon="11.455699992377767" id="-33030">
		<tag k="historic" v="shieling" />
		<tag k="name" v="Gråbergan" />
		<tag k="name:no" v="Gråbergan" />
		<tag k="place" v="isolated_dwelling" />
		<tag k="ssr:stedsnr" v="679566" />
	</node>
	<node lat="62.76620000399423" lon="11.819024993869265" id="-33039">
		<tag k="historic" v="shieling" />
		<tag k="name" v="Nysetervollen" />
		<tag k="name:no" v="Nysetervollen" />
		<tag k="place" v="isolated_dwelling" />
		<tag k="ssr:stedsnr" v="679820" />
	</node>
	<node lat="62.73813928470222" lon="11.325468534502164" id="-33041">
		<tag k="name" v="Ryvollen" />
		<tag k="name:no" v="Ryvollen" />
		<tag k="place" v="farm" />
		<tag k="ssr:stedsnr" v="679765" />
	</node>
	<node lat="62.61261843327707" lon="11.624514975398444" id="-33043">
		<tag k="historic" v="shieling" />
		<tag k="name" v="Strømmevollen" />
		<tag k="name:no" v="Strømmevollen" />
		<tag k="place" v="isolated_dwelling" />
		<tag k="ssr:stedsnr" v="679910" />
	</node>
	<node lat="62.61026948869601" lon="11.365237267210214" id="-33044">
		<tag k="name" v="Gullikstad" />
		<tag k="name:no" v="Gullikstad" />
		<tag k="place" v="hamlet" />
		<tag k="ssr:stedsnr" v="679912" />
	</node>
	<node lat="62.58684999599862" lon="11.53285000808113" id="-33045">
		<tag k="name" v="Fastevollen" />
		<tag k="name:no" v="Fastevollen" />
		<tag k="place" v="farm" />
		<tag k="ssr:stedsnr" v="679913" />
	</node>
	<node lat="62.593723763321165" lon="11.420314802959835" id="-33047">
		<tag k="name" v="Strømmevollen" />
		<tag k="name:no" v="Strømmevollen" />
		<tag k="place" v="farm" />
		<tag k="ssr:stedsnr" v="679922" />
	</node>
	<node lat="62.65929722168197" lon="11.41133334101668" id="-33054">
		<tag k="alt_name:no" v="Slettmoen Nordre" />
		<tag k="name" v="Nordre Slettmoen" />
		<tag k="name:no" v="Nordre Slettmoen" />
		<tag k="place" v="farm" />
		<tag k="ssr:stedsnr" v="892189" />
	</node>
	<node lat="62.68151056137215" lon="11.388990462717898" id="-33059">
		<tag k="name" v="Litlvollen" />
		<tag k="name:no" v="Litlvollen" />
		<tag k="place" v="farm" />
		<tag k="ssr:stedsnr" v="892200" />
	</node>
	<node lat="62.597622224994296" lon="11.741855564851178" id="-33060">
		<tag k="name" v="Brattøra" />
		<tag k="name:no" v="Brattøra" />
		<tag k="place" v="farm" />
		<tag k="ssr:stedsnr" v="892262" />
	</node>
	<node lat="62.56056666973327" lon="11.29123888555463" id="-33066">
		<tag k="name" v="Bratthaugen" />
		<tag k="name:no" v="Bratthaugen" />
		<tag k="place" v="farm" />
		<tag k="ssr:stedsnr" v="892330" />
	</node>
	<node lat="62.54615555403286" lon="11.42356389848401" id="-33096">
		<tag k="name" v="Snefridvollen" />
		<tag k="name:no" v="Snefridvollen" />
		<tag k="place" v="farm" />
		<tag k="ssr:stedsnr" v="892490" />
	</node>
	<node lat="62.561675004142614" lon="11.436800003316819" id="-33097">
		<tag k="name" v="Gropstuggu" />
		<tag k="name:no" v="Gropstuggu" />
		<tag k="place" v="isolated_dwelling" />
		<tag k="ssr:stedsnr" v="892492" />
	</node>
	<node lat="62.592436112346974" lon="11.629869440548305" id="-33101">
		<tag k="name" v="Smedbakken" />
		<tag k="name:no" v="Smedbakken" />
		<tag k="place" v="farm" />
		<tag k="ssr:stedsnr" v="892579" />
	</node>
	<node lat="62.5830444415051" lon="11.66715834132769" id="-33107">
		<tag k="historic" v="shieling" />
		<tag k="name" v="Brattlia" />
		<tag k="name:no" v="Brattlia" />
		<tag k="place" v="isolated_dwelling" />
		<tag k="ssr:stedsnr" v="892601" />
	</node>
	<node lat="62.50282222313977" lon="11.559705554654315" id="-33119">
		<tag k="name" v="Røros skogforvaltning Fløtarbua" />
		<tag k="name:no" v="Røros skogforvaltning Fløtarbua" />
		<tag k="place" v="locality" />
		<tag k="ssr:stedsnr" v="892835" />
	</node>
	<node lat="62.50639166561162" lon="11.55223889637964" id="-33127">
		<tag k="name" v="Movollen" />
		<tag k="name:no" v="Movollen" />
		<tag k="place" v="farm" />
		<tag k="ssr:stedsnr" v="892855" />
	</node>
	<node lat="62.692080556305974" lon="11.567733326281255" id="-33128">
		<tag k="historic" v="shieling" />
		<tag k="name" v="Tonjesetra" />
		<tag k="name:no" v="Tonjesetra" />
		<tag k="place" v="isolated_dwelling" />
		<tag k="ssr:stedsnr" v="892953" />
	</node>
	<node lat="62.6906388893355" lon="11.564155563286782" id="-33129">
		<tag k="historic" v="shieling" />
		<tag k="name" v="Flatvollen" />
		<tag k="name:no" v="Flatvollen" />
		<tag k="place" v="isolated_dwelling" />
		<tag k="ssr:stedsnr" v="892954" />
	</node>
	<node lat="62.66661944773499" lon="11.527705549515316" id="-33132">
		<tag k="name" v="Fjellvika" />
		<tag k="name:no" v="Fjellvika" />
		<tag k="place" v="farm" />
		<tag k="ssr:stedsnr" v="893000" />
	</node>
	<node lat="62.57057777614074" lon="11.397983339586366" id="-33133">
		<tag k="name" v="Hagan" />
		<tag k="name:no" v="Hagan" />
		<tag k="place" v="farm" />
		<tag k="ssr:stedsnr" v="687792" />
	</node>
	<node lat="62.79494722226302" lon="11.820174993967344" id="-33142">
		<tag k="historic" v="shieling" />
		<tag k="name" v="Storelv-vollen" />
		<tag k="name:no" v="Storelv-vollen" />
		<tag k="place" v="isolated_dwelling" />
		<tag k="ssr:stedsnr" v="893815" />
	</node>
	<node lat="62.67860000090793" lon="11.40891388713561" id="-33157">
		<tag k="name" v="Lerdalen" />
		<tag k="name:no" v="Lerdalen" />
		<tag k="place" v="farm" />
		<tag k="ssr:stedsnr" v="706177" />
	</node>
	<node lat="62.56148333470692" lon="11.430141665354682" id="-33160">
		<tag k="fixme" v="multiple name tags, choose one and add the other to alt_name" />
		<tag k="name" v="Pinsti;Pinstivollen" />
		<tag k="name:no" v="Pinsti;Pinstivollen" />
		<tag k="place" v="farm" />
		<tag k="ssr:stedsnr" v="709583" />
	</node>
	<node lat="62.60229444376987" lon="11.413244442087633" id="-33163">
		<tag k="historic" v="shieling" />
		<tag k="name" v="Jørgenvollen" />
		<tag k="name:no" v="Jørgenvollen" />
		<tag k="place" v="isolated_dwelling" />
		<tag k="ssr:stedsnr" v="710082" />
	</node>
	<node lat="62.62587500160833" lon="11.431369444694093" id="-33169">
		<tag k="historic" v="shieling" />
		<tag k="name" v="Gaukvollen" />
		<tag k="name:no" v="Gaukvollen" />
		<tag k="place" v="isolated_dwelling" />
		<tag k="ssr:stedsnr" v="710134" />
	</node>
	<node lat="62.62449166670909" lon="11.437305549245584" id="-33170">
		<tag k="name" v="Krullen" />
		<tag k="name:no" v="Krullen" />
		<tag k="place" v="hamlet" />
		<tag k="ssr:stedsnr" v="710136" />
	</node>
	<node lat="62.54006944758552" lon="11.311541669822896" id="-33171">
		<tag k="name" v="Høstrøa" />
		<tag k="name:no" v="Høstrøa" />
		<tag k="place" v="farm" />
		<tag k="ssr:stedsnr" v="710307" />
	</node>
	<node lat="62.4512444480831" lon="11.771794449437701" id="-33181">
		<tag k="name" v="Kjørarbua" />
		<tag k="name:no" v="Kjørarbua" />
		<tag k="place" v="isolated_dwelling" />
		<tag k="ssr:stedsnr" v="710383" />
	</node>
	<node lat="62.59168889117238" lon="11.223750002106325" id="-33185">
		<tag k="name" v="Klemmetbua" />
		<tag k="name:no" v="Klemmetbua" />
		<tag k="place" v="isolated_dwelling" />
		<tag k="ssr:stedsnr" v="710407" />
	</node>
	<node lat="62.720697224145354" lon="11.331833334553044" id="-33193">
		<tag k="name" v="Flattrøa" />
		<tag k="name:no" v="Flattrøa" />
		<tag k="place" v="farm" />
		<tag k="ssr:stedsnr" v="710493" />
	</node>
	<node lat="62.60149722087969" lon="11.603355557238817" id="-33196">
		<tag k="historic" v="shieling" />
		<tag k="name" v="Baklivollen" />
		<tag k="name:no" v="Baklivollen" />
		<tag k="place" v="isolated_dwelling" />
		<tag k="ssr:stedsnr" v="710615" />
	</node>
	<node lat="62.74007222303572" lon="11.844738889942947" id="-33199">
		<tag k="name" v="Borgosvollen" />
		<tag k="name:no" v="Borgosvollen" />
		<tag k="place" v="farm" />
		<tag k="ssr:stedsnr" v="710587" />
	</node>
	<node lat="62.70283924864711" lon="11.73888625820166" id="-33216">
		<tag k="name" v="Sødalen" />
		<tag k="name:no" v="Sødalen" />
		<tag k="place" v="locality" />
		<tag k="ssr:stedsnr" v="711699" />
	</node>
	<node lat="62.68592500375594" lon="11.725858329686224" id="-33219">
		<tag k="name" v="Storsletta" />
		<tag k="name:no" v="Storsletta" />
		<tag k="place" v="farm" />
		<tag k="ssr:stedsnr" v="711706" />
	</node>
	<node lat="62.70019573545872" lon="11.80934007123985" id="-33222">
		<tag k="name" v="Vassmyråsbua" />
		<tag k="name:no" v="Vassmyråsbua" />
		<tag k="place" v="isolated_dwelling" />
		<tag k="ssr:stedsnr" v="711781" />
	</node>
	<node lat="62.55649721784529" lon="11.450569447859634" id="-33238">
		<tag k="alt_name:no" v="Gråbergsetra" />
		<tag k="historic" v="shieling" />
		<tag k="name" v="Djupdalsvollen" />
		<tag k="name:no" v="Djupdalsvollen" />
		<tag k="place" v="isolated_dwelling" />
		<tag k="ssr:stedsnr" v="739613" />
	</node>
	<node lat="62.55226110788711" lon="11.615750008433551" id="-33239">
		<tag k="historic" v="shieling" />
		<tag k="name" v="Raudhåmmårvollen" />
		<tag k="name:no" v="Raudhåmmårvollen" />
		<tag k="place" v="isolated_dwelling" />
		<tag k="ssr:stedsnr" v="739618" />
	</node>
	<node lat="62.45094444314845" lon="11.774552773892179" id="-33257">
		<tag k="name" v="Harrbekkbua" />
		<tag k="name:no" v="Harrbekkbua" />
		<tag k="place" v="isolated_dwelling" />
		<tag k="ssr:stedsnr" v="748882" />
	</node>
	<node lat="62.44289999813509" lon="11.525261101671704" id="-33259">
		<tag k="historic" v="shieling" />
		<tag k="name" v="Nedigårdsvollen" />
		<tag k="name:no" v="Nedigårdsvollen" />
		<tag k="place" v="isolated_dwelling" />
		<tag k="ssr:stedsnr" v="749417" />
	</node>
	<node lat="62.61184999800353" lon="11.45465000892149" id="-33260">
		<tag k="name" v="Jåvvangåetie" />
		<tag k="name:sma" v="Jåvvangåetie" />
		<tag k="place" v="isolated_dwelling" />
		<tag k="ssr:stedsnr" v="749881" />
	</node>
	<node lat="62.63991110983832" lon="11.437630546905897" id="-33262">
		<tag k="name" v="Sandnesvollen" />
		<tag k="name:no" v="Sandnesvollen" />
		<tag k="place" v="farm" />
		<tag k="ssr:stedsnr" v="766139" />
	</node>
	<node lat="62.636844443857726" lon="11.37644443934764" id="-33264">
		<tag k="name" v="Litltrøa" />
		<tag k="name:no" v="Litltrøa" />
		<tag k="place" v="farm" />
		<tag k="ssr:stedsnr" v="766072" />
	</node>
	<node lat="62.641086114645844" lon="11.39794445024471" id="-33267">
		<tag k="name" v="Lunheim" />
		<tag k="name:no" v="Lunheim" />
		<tag k="place" v="farm" />
		<tag k="ssr:stedsnr" v="766084" />
	</node>
	<node lat="62.61985833478026" lon="11.34554165933635" id="-33268">
		<tag k="name" v="Litlvollen" />
		<tag k="name:no" v="Litlvollen" />
		<tag k="place" v="farm" />
		<tag k="ssr:stedsnr" v="766085" />
	</node>
	<node lat="62.56456666584371" lon="11.556133325410563" id="-33298">
		<tag k="historic" v="shieling" />
		<tag k="name" v="Halvorvollen" />
		<tag k="name:no" v="Halvorvollen" />
		<tag k="place" v="isolated_dwelling" />
		<tag k="ssr:stedsnr" v="770812" />
	</node>
	<node lat="62.582780551271114" lon="11.505158340059031" id="-33299">
		<tag k="alt_name:no" v="Åsvollen vestre" />
		<tag k="historic" v="shieling" />
		<tag k="name" v="Vestre Åsvollen" />
		<tag k="name:no" v="Vestre Åsvollen" />
		<tag k="place" v="isolated_dwelling" />
		<tag k="ssr:stedsnr" v="770816" />
	</node>
	<node lat="62.55397777906453" lon="11.508463887432537" id="-33303">
		<tag k="name" v="Skåkåsen" />
		<tag k="name:no" v="Skåkåsen" />
		<tag k="place" v="hamlet" />
		<tag k="ssr:stedsnr" v="770870" />
	</node>
	<node lat="62.546522221766836" lon="11.422172219195405" id="-33307">
		<tag k="name" v="Rya østre" />
		<tag k="name:no" v="Rya østre" />
		<tag k="place" v="farm" />
		<tag k="ssr:stedsnr" v="771027" />
	</node>
	<node lat="62.64010000184921" lon="11.582783338908458" id="-33312">
		<tag k="name" v="Svenskbanken" />
		<tag k="name:no" v="Svenskbanken" />
		<tag k="place" v="isolated_dwelling" />
		<tag k="ssr:stedsnr" v="770919" />
	</node>
	<node lat="62.54076944378435" lon="11.338466656947244" id="-33315">
		<tag k="alt_name:no" v="Håneset øvre" />
		<tag k="name" v="Øvre Håneset" />
		<tag k="name:no" v="Øvre Håneset" />
		<tag k="place" v="farm" />
		<tag k="ssr:stedsnr" v="771312" />
	</node>
	<node lat="62.59943333706395" lon="11.27138611524087" id="-33318">
		<tag k="name" v="Bekkebo" />
		<tag k="name:no" v="Bekkebo" />
		<tag k="place" v="isolated_dwelling" />
		<tag k="ssr:stedsnr" v="771405" />
	</node>
	<node lat="62.56278055461695" lon="11.38337221562475" id="-33323">
		<tag k="name" v="Marenvollen" />
		<tag k="name:no" v="Marenvollen" />
		<tag k="place" v="farm" />
		<tag k="ssr:stedsnr" v="771508" />
	</node>
	<node lat="62.5647277789906" lon="11.350144439538012" id="-33324">
		<tag k="historic" v="shieling" />
		<tag k="name" v="Møllervollen" />
		<tag k="name:no" v="Møllervollen" />
		<tag k="place" v="isolated_dwelling" />
		<tag k="ssr:stedsnr" v="771517" />
	</node>
	<node lat="62.74910833083379" lon="11.81271666089682" id="-33325">
		<tag k="name" v="Fjell-laua" />
		<tag k="name:no" v="Fjell-laua" />
		<tag k="place" v="isolated_dwelling" />
		<tag k="ssr:stedsnr" v="771564" />
	</node>
	<node lat="62.70742499949687" lon="11.728227781624074" id="-33331">
		<tag k="name" v="Elvlia" />
		<tag k="name:no" v="Elvlia" />
		<tag k="place" v="isolated_dwelling" />
		<tag k="ssr:stedsnr" v="771717" />
	</node>
	<node lat="62.63196666544366" lon="11.223905558044416" id="-33333">
		<tag k="name" v="Håmmårbua" />
		<tag k="name:no" v="Håmmårbua" />
		<tag k="place" v="isolated_dwelling" />
		<tag k="ssr:stedsnr" v="771457" />
	</node>
	<node lat="62.478858335436975" lon="11.487750000349434" id="-33342">
		<tag k="name" v="Røtjønnkåsa" />
		<tag k="name:no" v="Røtjønnkåsa" />
		<tag k="place" v="isolated_dwelling" />
		<tag k="ssr:stedsnr" v="800307" />
	</node>
	<node lat="62.4365632810285" lon="11.645238007802416" id="-33343">
		<tag k="fixme" v="consider place=hamlet" />
		<tag k="name" v="Grådalen" />
		<tag k="name:no" v="Grådalen" />
		<tag k="place" v="farm" />
		<tag k="ssr:stedsnr" v="800391" />
	</node>
	<node lat="62.58283333308552" lon="11.50493055572835" id="-33346">
		<tag k="historic" v="shieling" />
		<tag k="name" v="Åsvollan" />
		<tag k="name:no" v="Åsvollan" />
		<tag k="place" v="isolated_dwelling" />
		<tag k="ssr:stedsnr" v="800587" />
	</node>
	<node lat="62.51067026193954" lon="11.565441020816758" id="-33347">
		<tag k="name" v="Skjevdalen" />
		<tag k="name:no" v="Skjevdalen" />
		<tag k="place" v="farm" />
		<tag k="ssr:stedsnr" v="801506" />
	</node>
	<node lat="62.56888547929592" lon="11.843747687772767" id="-33349">
		<tag k="name" v="Mikkelsgården" />
		<tag k="name:no" v="Mikkelsgården" />
		<tag k="place" v="farm" />
		<tag k="ssr:stedsnr" v="801275" />
	</node>
	<node lat="62.60469869008556" lon="11.5468262153921" id="-33352">
		<tag k="alt_name:no" v="Lia" />
		<tag k="fixme" v="consider place=hamlet" />
		<tag k="name" v="Djupsjølia" />
		<tag k="name:no" v="Djupsjølia" />
		<tag k="place" v="farm" />
		<tag k="ssr:stedsnr" v="801907" />
	</node>
	<node lat="62.587342978600326" lon="11.365555103663452" id="-33353">
		<tag k="fixme" v="consider place=hamlet" />
		<tag k="name" v="Bersvensavollen" />
		<tag k="name:no" v="Bersvensavollen" />
		<tag k="place" v="farm" />
		<tag k="ssr:stedsnr" v="801921" />
	</node>
	<node lat="62.69882499883786" lon="11.48598055401775" id="-33356">
		<tag k="historic" v="shieling" />
		<tag k="name" v="Hjulmakervollen" />
		<tag k="name:no" v="Hjulmakervollen" />
		<tag k="place" v="isolated_dwelling" />
		<tag k="ssr:stedsnr" v="801973" />
	</node>
	<node lat="62.587080556370836" lon="11.419858337291352" id="-33367">
		<tag k="historic" v="shieling" />
		<tag k="name" v="Stenviksetra" />
		<tag k="name:no" v="Stenviksetra" />
		<tag k="place" v="isolated_dwelling" />
		<tag k="ssr:stedsnr" v="827015" />
	</node>
	<node lat="62.708125002548776" lon="11.466208324988193" id="-33374">
		<tag k="historic" v="shieling" />
		<tag k="name" v="Sørensvollen" />
		<tag k="name:no" v="Sørensvollen" />
		<tag k="place" v="isolated_dwelling" />
		<tag k="ssr:stedsnr" v="828168" />
	</node>
	<node lat="62.625508328974576" lon="11.80713889068151" id="-33378">
		<tag k="name" v="Gammeltorpet" />
		<tag k="name:no" v="Gammeltorpet" />
		<tag k="place" v="locality" />
		<tag k="ssr:stedsnr" v="922598" />
	</node>
	<node lat="62.58470471874438" lon="11.663715331907998" id="-33381">
		<tag k="historic" v="shieling" />
		<tag k="name" v="Åsvollen" />
		<tag k="name:no" v="Åsvollen" />
		<tag k="place" v="isolated_dwelling" />
		<tag k="ssr:stedsnr" v="922546" />
	</node>
	<node lat="62.54077777471504" lon="11.352718273769804" id="-33382">
		<tag k="historic" v="shieling" />
		<tag k="name" v="Monsvollen" />
		<tag k="name:no" v="Monsvollen" />
		<tag k="place" v="isolated_dwelling" />
		<tag k="ssr:stedsnr" v="922559" />
	</node>
	<node lat="62.638282194417265" lon="11.730945155290055" id="-33386">
		<tag k="name" v="Skogheim" />
		<tag k="name:no" v="Skogheim" />
		<tag k="place" v="farm" />
		<tag k="ssr:stedsnr" v="922617" />
	</node>
	<node lat="62.680936111179285" lon="11.916733341097332" id="-33388">
		<tag k="historic" v="shieling" />
		<tag k="name" v="Hyllbekkvollen" />
		<tag k="name:no" v="Hyllbekkvollen" />
		<tag k="place" v="isolated_dwelling" />
		<tag k="ssr:stedsnr" v="922689" />
	</node>
	<node lat="62.65338422506978" lon="11.873981292597168" id="-33390">
		<tag k="fixme" v="consider place=hamlet" />
		<tag k="name" v="Saksgården" />
		<tag k="name:no" v="Saksgården" />
		<tag k="place" v="farm" />
		<tag k="ssr:stedsnr" v="922720" />
	</node>
	<node lat="62.597513892283054" lon="11.633683341119275" id="-33392">
		<tag k="name" v="Kaspervollen" />
		<tag k="name:no" v="Kaspervollen" />
		<tag k="place" v="farm" />
		<tag k="ssr:stedsnr" v="922922" />
	</node>
	<node lat="62.60010228481696" lon="11.648749476224777" id="-33393">
		<tag k="name" v="Tovhaugen" />
		<tag k="name:no" v="Tovhaugen" />
		<tag k="place" v="farm" />
		<tag k="ssr:stedsnr" v="922923" />
	</node>
	<node lat="62.70623055884884" lon="11.59618332887145" id="-33395">
		<tag k="historic" v="shieling" />
		<tag k="name" v="Tørresvollsetra" />
		<tag k="name:no" v="Tørresvollsetra" />
		<tag k="place" v="isolated_dwelling" />
		<tag k="ssr:stedsnr" v="922931" />
	</node>
	<node lat="62.825061110871665" lon="11.796263898531656" id="-33397">
		<tag k="name" v="Kantstuggu" />
		<tag k="name:no" v="Kantstuggu" />
		<tag k="place" v="isolated_dwelling" />
		<tag k="ssr:stedsnr" v="922758" />
	</node>
	<node lat="62.591888885897184" lon="11.458158325553633" id="-33407">
		<tag k="name" v="Brorvollen" />
		<tag k="name:no" v="Brorvollen" />
		<tag k="place" v="farm" />
		<tag k="ssr:stedsnr" v="922918" />
	</node>
	<node lat="62.59391690516787" lon="11.511008594850876" id="-33408">
		<tag k="name" v="Kvaksvollen" />
		<tag k="name:no" v="Kvaksvollen" />
		<tag k="place" v="farm" />
		<tag k="ssr:stedsnr" v="922921" />
	</node>
	<node lat="62.406880560171864" lon="11.930111103058733" id="-33416">
		<tag k="name" v="Neset" />
		<tag k="name:no" v="Neset" />
		<tag k="place" v="hamlet" />
		<tag k="ssr:stedsnr" v="831484" />
	</node>
	<node lat="62.68293828871714" lon="11.39128309357982" id="-33417">
		<tag k="name" v="Moen" />
		<tag k="name:no" v="Moen" />
		<tag k="place" v="farm" />
		<tag k="ssr:stedsnr" v="922981" />
	</node>
	<node lat="62.56220833673412" lon="11.55301667261924" id="-33421">
		<tag k="name" v="Pantslåtten" />
		<tag k="name:no" v="Pantslåtten" />
		<tag k="place" v="farm" />
		<tag k="ssr:stedsnr" v="831781" />
	</node>
	<node lat="62.57545555445891" lon="11.48302223167255" id="-33424">
		<tag k="historic" v="shieling" />
		<tag k="name" v="Stikkilldalsvollen" />
		<tag k="name:no" v="Stikkilldalsvollen" />
		<tag k="place" v="isolated_dwelling" />
		<tag k="ssr:stedsnr" v="831909" />
	</node>
	<node lat="62.579799998844194" lon="11.538174994605782" id="-33425">
		<tag k="name" v="Mortenåsvollen" />
		<tag k="name:no" v="Mortenåsvollen" />
		<tag k="place" v="farm" />
		<tag k="ssr:stedsnr" v="831805" />
	</node>
	<node lat="62.67988055926689" lon="11.394808333845438" id="-33431">
		<tag k="name" v="Bjørkheim" />
		<tag k="name:no" v="Bjørkheim" />
		<tag k="place" v="farm" />
		<tag k="ssr:stedsnr" v="832212" />
	</node>
	<node lat="62.64017778183224" lon="12.029308335569793" id="-33433">
		<tag k="fixme" v="consider place=hamlet" />
		<tag k="name" v="Vauldalen" />
		<tag k="name:no" v="Vauldalen" />
		<tag k="place" v="village" />
		<tag k="ssr:stedsnr" v="832302" />
	</node>
	<node lat="62.55841110925337" lon="11.444733337815778" id="-33439">
		<tag k="historic" v="shieling" />
		<tag k="name" v="Snekkervollen" />
		<tag k="name:no" v="Snekkervollen" />
		<tag k="place" v="isolated_dwelling" />
		<tag k="ssr:stedsnr" v="832540" />
	</node>
	<node lat="62.602180556873634" lon="11.327569447114548" id="-33445">
		<tag k="name" v="Rørosgård" />
		<tag k="name:no" v="Rørosgård" />
		<tag k="place" v="farm" />
		<tag k="ssr:stedsnr" v="832429" />
	</node>
	<node lat="62.6012833321133" lon="11.32727778296113" id="-33446">
		<tag k="name" v="Rørosgård" />
		<tag k="name:no" v="Rørosgård" />
		<tag k="place" v="farm" />
		<tag k="ssr:stedsnr" v="832430" />
	</node>
	<node lat="62.69338888820187" lon="11.753005562392785" id="-33448">
		<tag k="name" v="Kvernhushytta" />
		<tag k="name:no" v="Kvernhushytta" />
		<tag k="place" v="isolated_dwelling" />
		<tag k="ssr:stedsnr" v="832605" />
	</node>
	<node lat="62.67036111169725" lon="11.578919453696917" id="-33459">
		<tag k="historic" v="shieling" />
		<tag k="name" v="Elensetra" />
		<tag k="name:no" v="Elensetra" />
		<tag k="place" v="isolated_dwelling" />
		<tag k="ssr:stedsnr" v="832991" />
	</node>
	<node lat="62.662391665213036" lon="11.530869441191042" id="-33460">
		<tag k="name" v="Heimly" />
		<tag k="name:no" v="Heimly" />
		<tag k="place" v="isolated_dwelling" />
		<tag k="ssr:stedsnr" v="832998" />
	</node>
</osm>
