<?xml version="1.0" encoding="UTF-8"?>
<osm version="0.6" generator="osmapis">
	<node lat="62.56217777818897" lon="11.255258341324899" id="-50519">
		<tag k="ford" v="yes" />
		<tag k="name" v="Vaden" />
		<tag k="name:no" v="Vaden" />
		<tag k="place" v="locality" />
		<tag k="ssr:stedsnr" v="42301" />
	</node>
	<node lat="62.622541667530854" lon="11.442727786981617" id="-50529">
		<tag k="highway" v="path" />
		<tag k="name" v="Trønnesvegen" />
		<tag k="name:no" v="Trønnesvegen" />
		<tag k="ssr:stedsnr" v="42080" />
	</node>
	<node lat="62.46172222227081" lon="11.552547225840875" id="-50559">
		<tag k="highway" v="path" />
		<tag k="name" v="Sæthersvegen" />
		<tag k="name:no" v="Sæthersvegen" />
		<tag k="ssr:stedsnr" v="42777" />
	</node>
	<node lat="62.59503055570297" lon="11.2123027840353" id="-50787">
		<tag k="fixme" v="consider highway=path" />
		<tag k="highway" v="track" />
		<tag k="name" v="Revsjøåsvegen" />
		<tag k="name:no" v="Revsjøåsvegen" />
		<tag k="ssr:stedsnr" v="163057" />
	</node>
	<node lat="62.70391944390407" lon="11.686980556170564" id="-50789">
		<tag k="highway" v="path" />
		<tag k="name" v="Søtjønnvegen" />
		<tag k="name:no" v="Søtjønnvegen" />
		<tag k="ssr:stedsnr" v="163311" />
	</node>
	<node lat="62.587913888901404" lon="11.617141662010823" id="-50818">
		<tag k="highway" v="path" />
		<tag k="name" v="Løkkjevegen" />
		<tag k="name:no" v="Løkkjevegen" />
		<tag k="ssr:stedsnr" v="164667" />
	</node>
	<node lat="62.61882499821611" lon="11.658380563725759" id="-50827">
		<tag k="fixme" v="consider highway=path" />
		<tag k="highway" v="track" />
		<tag k="name" v="Bekkosvegen" />
		<tag k="name:no" v="Bekkosvegen" />
		<tag k="ssr:stedsnr" v="164718" />
	</node>
	<node lat="62.45313055661023" lon="11.57280832675345" id="-50883">
		<tag k="highway" v="path" />
		<tag k="name" v="Grådalsvegen" />
		<tag k="name:no" v="Grådalsvegen" />
		<tag k="ssr:stedsnr" v="224238" />
	</node>
	<node lat="62.78463333543905" lon="11.835541672368844" id="-50918">
		<tag k="ford" v="yes" />
		<tag k="name" v="Skarvmyrvadet" />
		<tag k="name:no" v="Skarvmyrvadet" />
		<tag k="place" v="locality" />
		<tag k="ssr:stedsnr" v="225803" />
	</node>
	<node lat="62.75183889043563" lon="11.835994441848992" id="-50924">
		<tag k="highway" v="path" />
		<tag k="name" v="Råveien" />
		<tag k="name:no" v="Råveien" />
		<tag k="ssr:stedsnr" v="241892" />
	</node>
	<node lat="62.746499996594665" lon="11.841572222567962" id="-50925">
		<tag k="fixme" v="consider highway=path" />
		<tag k="highway" v="track" />
		<tag k="name" v="Bergveien" />
		<tag k="name:no" v="Bergveien" />
		<tag k="ssr:stedsnr" v="241893" />
	</node>
	<node lat="62.618483329860105" lon="11.412841666017494" id="-50958">
		<tag k="highway" v="path" />
		<tag k="name" v="Volastien" />
		<tag k="name:no" v="Volastien" />
		<tag k="ssr:stedsnr" v="281092" />
	</node>
	<node lat="62.531980554379835" lon="11.323191672452577" id="-50978">
		<tag k="highway" v="path" />
		<tag k="name" v="Kløvvegen" />
		<tag k="name:no" v="Kløvvegen" />
		<tag k="ssr:stedsnr" v="285302" />
	</node>
	<node lat="62.43415000146932" lon="11.920094450205577" id="-50991">
		<tag k="name" v="Kalvrenna" />
		<tag k="name:no" v="Kalvrenna" />
		<tag k="ssr:stedsnr" v="285393" />
		<tag k="waterway" v="canal" />
	</node>
	<node lat="62.573741667720775" lon="11.870908339914163" id="-51002">
		<tag k="highway" v="path" />
		<tag k="name" v="Svenskvadvegen" />
		<tag k="name:no" v="Svenskvadvegen" />
		<tag k="ssr:stedsnr" v="285426" />
	</node>
	<node lat="62.596997218607164" lon="11.274786110217875" id="-51106">
		<tag k="highway" v="path" />
		<tag k="name" v="Nørder Kåsvegen" />
		<tag k="name:no" v="Nørder Kåsvegen" />
		<tag k="ssr:stedsnr" v="467389" />
	</node>
	<node lat="62.69705833366795" lon="11.582975000444181" id="-51140">
		<tag k="highway" v="path" />
		<tag k="name" v="Solhusvegen" />
		<tag k="name:no" v="Solhusvegen" />
		<tag k="ssr:stedsnr" v="467582" />
	</node>
	<node lat="62.6125833338745" lon="11.481402786511744" id="-51158">
		<tag k="highway" v="path" />
		<tag k="name" v="Lergruvvegen" />
		<tag k="name:no" v="Lergruvvegen" />
		<tag k="ssr:stedsnr" v="467892" />
	</node>
	<node lat="62.627311109238235" lon="11.413027771980785" id="-51221">
		<tag k="highway" v="path" />
		<tag k="name" v="Kojeåsstien" />
		<tag k="name:no" v="Kojeåsstien" />
		<tag k="ssr:stedsnr" v="346065" />
	</node>
	<node lat="62.50457500398235" lon="11.546772222608784" id="-51325">
		<tag k="highway" v="path" />
		<tag k="name" v="Korssjøvegen" />
		<tag k="name:no" v="Korssjøvegen" />
		<tag k="ssr:stedsnr" v="406870" />
	</node>
	<node lat="62.64071110947063" lon="11.637780554935437" id="-51434">
		<tag k="highway" v="path" />
		<tag k="name" v="Grubbvegen" />
		<tag k="name:no" v="Grubbvegen" />
		<tag k="ssr:stedsnr" v="467665" />
	</node>
	<node lat="62.48780278021736" lon="11.498866661768332" id="-51449">
		<tag k="fixme" v="consider highway=path" />
		<tag k="highway" v="track" />
		<tag k="name" v="Rødalsvegen" />
		<tag k="name:no" v="Rødalsvegen" />
		<tag k="ssr:stedsnr" v="467765" />
	</node>
	<node lat="62.624919441321246" lon="11.447616663339359" id="-51590">
		<tag k="highway" v="path" />
		<tag k="name" v="Plassvegen" />
		<tag k="name:no" v="Plassvegen" />
		<tag k="ssr:stedsnr" v="528073" />
	</node>
	<node lat="62.71689999812507" lon="11.74313333034087" id="-51638">
		<tag k="highway" v="path" />
		<tag k="name" v="Fjellsjøvegen" />
		<tag k="name:no" v="Fjellsjøvegen" />
		<tag k="ssr:stedsnr" v="529625" />
	</node>
	<node lat="62.456633333517416" lon="11.48869723135076" id="-51759">
		<tag k="highway" v="path" />
		<tag k="name" v="Narjordvegen" />
		<tag k="name:no" v="Narjordvegen" />
		<tag k="ssr:stedsnr" v="588808" />
	</node>
	<node lat="62.47325555614672" lon="11.52741388383536" id="-51762">
		<tag k="highway" v="path" />
		<tag k="name" v="Gamle Grådalsvegen" />
		<tag k="name:no" v="Gamle Grådalsvegen" />
		<tag k="ssr:stedsnr" v="588821" />
	</node>
	<node lat="62.68953889097584" lon="11.71857778358296" id="-51770">
		<tag k="highway" v="path" />
		<tag k="name" v="Vintervegstripa" />
		<tag k="name:no" v="Vintervegstripa" />
		<tag k="ssr:stedsnr" v="589622" />
	</node>
	<node lat="62.43532500143635" lon="11.916752783136992" id="-51862">
		<tag k="name" v="Lortholrenna" />
		<tag k="name:no" v="Lortholrenna" />
		<tag k="ssr:stedsnr" v="649437" />
		<tag k="waterway" v="canal" />
	</node>
	<node lat="62.464124996008906" lon="11.534841673336409" id="-51889">
		<tag k="highway" v="path" />
		<tag k="name" v="Tørresdalsvegen" />
		<tag k="name:no" v="Tørresdalsvegen" />
		<tag k="ssr:stedsnr" v="649813" />
	</node>
	<node lat="62.586172224474225" lon="11.293616673582447" id="-51948">
		<tag k="highway" v="path" />
		<tag k="name" v="Kåsvegen" />
		<tag k="name:no" v="Kåsvegen" />
		<tag k="ssr:stedsnr" v="710394" />
	</node>
	<node lat="62.7001750032584" lon="11.915922216088429" id="-52003">
		<tag k="highway" v="path" />
		<tag k="name" v="Hyllingsvegen" />
		<tag k="name:no" v="Hyllingsvegen" />
		<tag k="ssr:stedsnr" v="892094" />
	</node>
	<node lat="62.69856111351803" lon="11.685555552168523" id="-52018">
		<tag k="highway" v="path" />
		<tag k="name" v="Klinkenvegen" />
		<tag k="name:no" v="Klinkenvegen" />
		<tag k="ssr:stedsnr" v="892325" />
	</node>
	<node lat="62.62409444469363" lon="11.328836107175796" id="-52036">
		<tag k="highway" v="path" />
		<tag k="name" v="Bersvegen" />
		<tag k="name:no" v="Bersvegen" />
		<tag k="ssr:stedsnr" v="892391" />
	</node>
	<node lat="62.61866944883443" lon="11.694361111392325" id="-52065">
		<tag k="highway" v="path" />
		<tag k="name" v="Granbakken" />
		<tag k="name:no" v="Granbakken" />
		<tag k="ssr:stedsnr" v="892656" />
	</node>
	<node lat="62.78135833091511" lon="11.811674998019683" id="-52093">
		<tag k="highway" v="path" />
		<tag k="name" v="Kåsbakken" />
		<tag k="name:no" v="Kåsbakken" />
		<tag k="ssr:stedsnr" v="893813" />
	</node>
	<node lat="62.574819442624396" lon="11.433361113295238" id="-52106">
		<tag k="highway" v="path" />
		<tag k="name" v="Abelonavegen" />
		<tag k="name:no" v="Abelonavegen" />
		<tag k="ssr:stedsnr" v="706011" />
	</node>
	<node lat="62.57714166299518" lon="11.229399996188695" id="-52139">
		<tag k="highway" v="path" />
		<tag k="name" v="Fantstigen" />
		<tag k="name:no" v="Fantstigen" />
		<tag k="ssr:stedsnr" v="710412" />
	</node>
	<node lat="62.50858055850594" lon="11.496027778326917" id="-52263">
		<tag k="highway" v="path" />
		<tag k="name" v="Brynkåsvegen" />
		<tag k="name:no" v="Brynkåsvegen" />
		<tag k="ssr:stedsnr" v="770767" />
	</node>
	<node lat="62.68537777939794" lon="11.69120555019864" id="-52292">
		<tag k="bridge" v="yes" />
		<tag k="layer" v="1" />
		<tag k="name" v="Jamtbekkbrua" />
		<tag k="name:no" v="Jamtbekkbrua" />
		<tag k="ssr:stedsnr" v="909120" />
	</node>
	<node lat="62.70331389066663" lon="11.604294444884621" id="-52359">
		<tag k="highway" v="path" />
		<tag k="name" v="Klingenvegen" />
		<tag k="name:no" v="Klingenvegen" />
		<tag k="ssr:stedsnr" v="831335" />
	</node>
	<node lat="62.578272225165534" lon="11.492608331183321" id="-52375">
		<tag k="highway" v="path" />
		<tag k="name" v="Åsvegen" />
		<tag k="name:no" v="Åsvegen" />
		<tag k="ssr:stedsnr" v="831785" />
	</node>
	<node lat="62.48195833343953" lon="11.597636117879519" id="-52385">
		<tag k="highway" v="path" />
		<tag k="name" v="Korssjøvegen" />
		<tag k="name:no" v="Korssjøvegen" />
		<tag k="ssr:stedsnr" v="832235" />
	</node>
	<node lat="62.570755558054536" lon="11.278383325683572" id="-52387">
		<tag k="highway" v="path" />
		<tag k="name" v="Sarakåsa" />
		<tag k="name:no" v="Sarakåsa" />
		<tag k="ssr:stedsnr" v="832410" />
	</node>
	<node lat="62.42032222112479" lon="11.861130556309483" id="-52391">
		<tag k="name" v="Kanalen" />
		<tag k="name:no" v="Kanalen" />
		<tag k="ssr:stedsnr" v="832533" />
		<tag k="waterway" v="canal" />
	</node>
	<node lat="62.62045832986449" lon="11.508099991708281" id="-52419">
		<tag k="fixme" v="consider highway=path" />
		<tag k="highway" v="track" />
		<tag k="name" v="Gamle Storwartzvegen" />
		<tag k="name:no" v="Gamle Storwartzvegen" />
		<tag k="ssr:stedsnr" v="832885" />
	</node>
	<node lat="62.576538885111795" lon="11.352511113487747" id="-52464">
		<tag k="aeroway" v="aerodrome" />
		<tag k="alt_name:no" v="Røros" />
		<tag k="name" v="Røros lufthavn" />
		<tag k="name:no" v="Røros lufthavn" />
		<tag k="old_name:no" v="Røros lufthavn Stormoen;Røros flyplass" />
		<tag k="ssr:stedsnr" v="878660" />
	</node>
	<node lat="62.71091388554443" lon="11.356644453228748" id="-52490">
		<tag k="highway" v="path" />
		<tag k="name" v="Trondalsvegen" />
		<tag k="name:no" v="Trondalsvegen" />
		<tag k="ssr:stedsnr" v="892206" />
	</node>
	<node lat="62.4865388896953" lon="11.590088885087232" id="-52501">
		<tag k="highway" v="path" />
		<tag k="name" v="Totallvegen" />
		<tag k="name:no" v="Totallvegen" />
		<tag k="ssr:stedsnr" v="892509" />
	</node>
	<node lat="62.48676111160342" lon="11.588875007631081" id="-52598">
		<tag k="highway" v="path" />
		<tag k="name" v="Jokkumvegen" />
		<tag k="name:no" v="Jokkumvegen" />
		<tag k="ssr:stedsnr" v="953224" />
	</node>
	<node lat="62.57308055300769" lon="11.25773056091223" id="-52603">
		<tag k="highway" v="path" />
		<tag k="name" v="Midtvegen" />
		<tag k="name:no" v="Midtvegen" />
		<tag k="ssr:stedsnr" v="953398" />
	</node>
	<node lat="62.693336114211455" lon="11.587102780363905" id="-52621">
		<tag k="highway" v="path" />
		<tag k="name" v="Tronget" />
		<tag k="name:no" v="Tronget" />
		<tag k="ssr:stedsnr" v="953951" />
	</node>
	<node lat="62.57323141453872" lon="11.882080840463477" id="-52700">
		<tag k="ford" v="yes" />
		<tag k="name" v="Svenskvadet" />
		<tag k="name:no" v="Svenskvadet" />
		<tag k="place" v="locality" />
		<tag k="ssr:stedsnr" v="20716" />
	</node>
	<node lat="62.574752778469" lon="11.379066665465578" id="-52721">
		<tag k="name" v="Røros stasjon" />
		<tag k="name:no" v="Røros stasjon" />
		<tag k="railway" v="station" />
		<tag k="ssr:stedsnr" v="42037" />
		<tag k="train" v="yes" />
	</node>
	<node lat="62.64098333482018" lon="11.266755558159288" id="-52741">
		<tag k="highway" v="path" />
		<tag k="name" v="Rødalsvegen" />
		<tag k="name:no" v="Rødalsvegen" />
		<tag k="ssr:stedsnr" v="42415" />
	</node>
	<node lat="62.47316110835705" lon="11.79943610886986" id="-52754">
		<tag k="ford" v="yes" />
		<tag k="name" v="Gjetvadet" />
		<tag k="name:no" v="Gjetvadet" />
		<tag k="place" v="locality" />
		<tag k="ssr:stedsnr" v="42351" />
	</node>
	<node lat="62.57768610892814" lon="11.289155561173073" id="-52757">
		<tag k="highway" v="path" />
		<tag k="name" v="Tjurrudalsvegen" />
		<tag k="name:no" v="Tjurrudalsvegen" />
		<tag k="ssr:stedsnr" v="42354" />
	</node>
	<node lat="62.667238892791666" lon="11.271236103750589" id="-52762">
		<tag k="alt_name:no" v="Rødalsveien" />
		<tag k="fixme" v="consider highway=path" />
		<tag k="highway" v="track" />
		<tag k="name" v="Rødalsvegen" />
		<tag k="name:no" v="Rødalsvegen" />
		<tag k="ssr:stedsnr" v="42435" />
	</node>
	<node lat="62.698741664734975" lon="11.556788887691857" id="-52772">
		<tag k="highway" v="path" />
		<tag k="name" v="Kurråsvegen" />
		<tag k="name:no" v="Kurråsvegen" />
		<tag k="ssr:stedsnr" v="42541" />
	</node>
	<node lat="62.74967222452873" lon="11.83161389824454" id="-52803">
		<tag k="highway" v="path" />
		<tag k="name" v="Råvegen" />
		<tag k="name:no" v="Råvegen" />
		<tag k="ssr:stedsnr" v="43543" />
	</node>
	<node lat="62.51144444438406" lon="11.574294448231448" id="-52966">
		<tag k="highway" v="path" />
		<tag k="name" v="Rabbvegen" />
		<tag k="name:no" v="Rabbvegen" />
		<tag k="ssr:stedsnr" v="103762" />
	</node>
	<node lat="62.68798333409276" lon="11.368183323807953" id="-53073">
		<tag k="highway" v="path" />
		<tag k="name" v="Gjørvollvegen" />
		<tag k="name:no" v="Gjørvollvegen" />
		<tag k="ssr:stedsnr" v="160122" />
	</node>
	<node lat="62.59780555940633" lon="11.244275005246637" id="-53116">
		<tag k="highway" v="path" />
		<tag k="name" v="Tjurrudalsvegen" />
		<tag k="name:no" v="Tjurrudalsvegen" />
		<tag k="ssr:stedsnr" v="164438" />
	</node>
	<node lat="62.66800555646753" lon="11.725758341374355" id="-53129">
		<tag k="highway" v="path" />
		<tag k="name" v="Slettvegen" />
		<tag k="name:no" v="Slettvegen" />
		<tag k="ssr:stedsnr" v="164581" />
	</node>
	<node lat="62.64933611295608" lon="11.632061120966174" id="-53135">
		<tag k="highway" v="path" />
		<tag k="name" v="Plassvegen" />
		<tag k="name:no" v="Plassvegen" />
		<tag k="ssr:stedsnr" v="164693" />
	</node>
	<node lat="62.70699166950964" lon="11.739722229173942" id="-53137">
		<tag k="highway" v="path" />
		<tag k="name" v="Gamle Ridalsvegen" />
		<tag k="name:no" v="Gamle Ridalsvegen" />
		<tag k="ssr:stedsnr" v="165800" />
	</node>
	<node lat="62.693927777979155" lon="11.555988896951607" id="-53162">
		<tag k="highway" v="path" />
		<tag k="name" v="Midtlivegen" />
		<tag k="name:no" v="Midtlivegen" />
		<tag k="ssr:stedsnr" v="164960" />
	</node>
	<node lat="62.441816663621225" lon="11.91426110975949" id="-53363">
		<tag k="name" v="Litlrenna" />
		<tag k="name:no" v="Litlrenna" />
		<tag k="ssr:stedsnr" v="225423" />
		<tag k="waterway" v="canal" />
	</node>
	<node lat="62.691033337365376" lon="11.368366673397501" id="-53387">
		<tag k="highway" v="path" />
		<tag k="name" v="Langmyrvegen" />
		<tag k="name:no" v="Langmyrvegen" />
		<tag k="ssr:stedsnr" v="281154" />
	</node>
	<node lat="62.586366664966256" lon="11.28546666624505" id="-53427">
		<tag k="highway" v="path" />
		<tag k="name" v="Synner Kåsvegen" />
		<tag k="name:no" v="Synner Kåsvegen" />
		<tag k="ssr:stedsnr" v="285356" />
	</node>
	<node lat="62.610052775709654" lon="11.48994444344177" id="-53463">
		<tag k="fixme" v="consider highway=path" />
		<tag k="highway" v="track" />
		<tag k="name" v="Gamle gruvvegen" />
		<tag k="name:no" v="Gamle gruvvegen" />
		<tag k="ssr:stedsnr" v="285869" />
	</node>
	<node lat="62.513397219147855" lon="11.569302770532659" id="-53468">
		<tag k="highway" v="path" />
		<tag k="name" v="Anders Andersavegen" />
		<tag k="name:no" v="Anders Andersavegen" />
		<tag k="ssr:stedsnr" v="285763" />
	</node>
	<node lat="62.64987777964122" lon="11.35009443615821" id="-53552">
		<tag k="highway" v="path" />
		<tag k="name" v="Stenvegen" />
		<tag k="name:no" v="Stenvegen" />
		<tag k="ssr:stedsnr" v="342125" />
	</node>
	<node lat="62.656894442044255" lon="11.635666656751718" id="-53556">
		<tag k="highway" v="path" />
		<tag k="name" v="Midtslivegen" />
		<tag k="name:no" v="Midtslivegen" />
		<tag k="ssr:stedsnr" v="342675" />
	</node>
	<node lat="62.69535833572319" lon="11.516397224381405" id="-53565">
		<tag k="fixme" v="consider highway=path" />
		<tag k="highway" v="track" />
		<tag k="name" v="Sulusvegen" />
		<tag k="name:no" v="Sulusvegen" />
		<tag k="ssr:stedsnr" v="345513" />
	</node>
	<node lat="62.58984999611614" lon="11.243144439350994" id="-53595">
		<tag k="highway" v="path" />
		<tag k="name" v="Vintervegen" />
		<tag k="name:no" v="Vintervegen" />
		<tag k="ssr:stedsnr" v="346394" />
	</node>
	<node lat="62.59867500064664" lon="11.219683339416209" id="-53597">
		<tag k="highway" v="path" />
		<tag k="name" v="Tjurrudalsvegen" />
		<tag k="name:no" v="Tjurrudalsvegen" />
		<tag k="ssr:stedsnr" v="346399" />
	</node>
	<node lat="62.472036107485756" lon="11.896719437304117" id="-53600">
		<tag k="name" v="Langtjønnkanalen" />
		<tag k="name:no" v="Langtjønnkanalen" />
		<tag k="ssr:stedsnr" v="345370" />
		<tag k="waterway" v="canal" />
	</node>
	<node lat="62.6011277798357" lon="11.394777778115689" id="-53627">
		<tag k="highway" v="path" />
		<tag k="name" v="Langmyrdalsstien" />
		<tag k="name:no" v="Langmyrdalsstien" />
		<tag k="ssr:stedsnr" v="346034" />
	</node>
	<node lat="62.59860000367827" lon="11.351833334465024" id="-53631">
		<tag k="name" v="Kanalen" />
		<tag k="name:no" v="Kanalen" />
		<tag k="ssr:stedsnr" v="346100" />
		<tag k="waterway" v="canal" />
	</node>
	<node lat="62.62063889232467" lon="11.272519450408423" id="-53642">
		<tag k="highway" v="path" />
		<tag k="name" v="Tverrødalsvegen" />
		<tag k="name:no" v="Tverrødalsvegen" />
		<tag k="ssr:stedsnr" v="346445" />
	</node>
	<node lat="62.72705277819592" lon="11.861627778055238" id="-53652">
		<tag k="highway" v="path" />
		<tag k="name" v="Stenbrottet" />
		<tag k="name:no" v="Stenbrottet" />
		<tag k="ssr:stedsnr" v="346641" />
	</node>
</osm>
