<?xml version="1.0" encoding="UTF-8"?>
<osm version="0.6" generator="osmapis">
	<node lat="62.68912777424016" lon="12.004791663219917" id="-32919">
		<tag k="name" v="Gruvsjøklumpen" />
		<tag k="name:no" v="Gruvsjøklumpen" />
		<tag k="natural" v="hill" />
		<tag k="place" v="locality" />
		<tag k="ssr:stedsnr" v="11713" />
	</node>
	<node lat="62.6952888901683" lon="11.802258324893744" id="-32920">
		<tag k="name" v="Mortenslia" />
		<tag k="name:no" v="Mortenslia" />
		<tag k="natural" v="slope" />
		<tag k="place" v="locality" />
		<tag k="ssr:stedsnr" v="11714" />
	</node>
	<node lat="62.7752277808639" lon="11.82910277746097" id="-32927">
		<tag k="name" v="Sundhaugan" />
		<tag k="name:no" v="Sundhaugan" />
		<tag k="natural" v="hill" />
		<tag k="place" v="locality" />
		<tag k="ssr:stedsnr" v="12821" />
	</node>
	<node lat="62.7660361075472" lon="11.930533338451001" id="-32928">
		<tag k="name" v="Dalberget" />
		<tag k="name:no" v="Dalberget" />
		<tag k="natural" v="hill" />
		<tag k="place" v="locality" />
		<tag k="ssr:stedsnr" v="12822" />
	</node>
	<node lat="62.79673333571375" lon="11.912238881689818" id="-32932">
		<tag k="name" v="Gaallanavte" />
		<tag k="name:sma" v="Gaallanavte" />
		<tag k="natural" v="hill" />
		<tag k="place" v="locality" />
		<tag k="ssr:stedsnr" v="21697" />
	</node>
	<node lat="62.69698055586853" lon="11.53345833593098" id="-32933">
		<tag k="name" v="Retbakkhøgda" />
		<tag k="name:no" v="Retbakkhøgda" />
		<tag k="natural" v="hill" />
		<tag k="place" v="locality" />
		<tag k="ssr:stedsnr" v="21815" />
	</node>
	<node lat="62.64711389012583" lon="11.923361120889002" id="-32943">
		<tag k="name" v="Rundhaugan" />
		<tag k="name:no" v="Rundhaugan" />
		<tag k="natural" v="hill" />
		<tag k="place" v="locality" />
		<tag k="ssr:stedsnr" v="38073" />
	</node>
	<node lat="62.71071666784969" lon="11.46490555561614" id="-32946">
		<tag k="fixme" v="consider natural=peak for the most distinct mountains in the district" />
		<tag k="name" v="Tangen" />
		<tag k="name:no" v="Tangen" />
		<tag k="natural" v="hill" />
		<tag k="place" v="locality" />
		<tag k="ssr:stedsnr" v="38223" />
	</node>
	<node lat="62.55313889311749" lon="11.299125000523388" id="-32959">
		<tag k="name" v="Ormegga" />
		<tag k="name:no" v="Ormegga" />
		<tag k="natural" v="ridge" />
		<tag k="place" v="locality" />
		<tag k="ssr:stedsnr" v="42322" />
	</node>
	<node lat="62.71217777351296" lon="11.359947221260198" id="-32964">
		<tag k="name" v="Kvitstenshåmmåren" />
		<tag k="name:no" v="Kvitstenshåmmåren" />
		<tag k="natural" v="hill" />
		<tag k="place" v="locality" />
		<tag k="ssr:stedsnr" v="42205" />
	</node>
	<node lat="62.59771666876703" lon="11.820611104995805" id="-32967">
		<tag k="name" v="Nedre Båtstadhaugen" />
		<tag k="name:no" v="Nedre Båtstadhaugen" />
		<tag k="natural" v="hill" />
		<tag k="place" v="locality" />
		<tag k="ssr:stedsnr" v="42283" />
	</node>
	<node lat="62.66535000350242" lon="11.313855553423762" id="-32969">
		<tag k="name" v="Frysihelbakken" />
		<tag k="name:no" v="Frysihelbakken" />
		<tag k="natural" v="slope" />
		<tag k="place" v="locality" />
		<tag k="ssr:stedsnr" v="42424" />
	</node>
	<node lat="62.62644444403928" lon="11.930163895638657" id="-32970">
		<tag k="name" v="Kjerkhaugen" />
		<tag k="name:no" v="Kjerkhaugen" />
		<tag k="natural" v="hill" />
		<tag k="place" v="locality" />
		<tag k="ssr:stedsnr" v="42426" />
	</node>
	<node lat="62.550694445564694" lon="11.7092861040812" id="-32983">
		<tag k="name" v="Tangen" />
		<tag k="name:no" v="Tangen" />
		<tag k="natural" v="hill" />
		<tag k="place" v="locality" />
		<tag k="ssr:stedsnr" v="42501" />
	</node>
	<node lat="62.64126944445566" lon="11.58515556058566" id="-32991">
		<tag k="name" v="Langhaugen" />
		<tag k="name:no" v="Langhaugen" />
		<tag k="natural" v="hill" />
		<tag k="place" v="locality" />
		<tag k="ssr:stedsnr" v="42892" />
	</node>
	<node lat="62.65768332907895" lon="11.522566663913935" id="-32994">
		<tag k="name" v="Villmannslia" />
		<tag k="name:no" v="Villmannslia" />
		<tag k="natural" v="slope" />
		<tag k="place" v="locality" />
		<tag k="ssr:stedsnr" v="42927" />
	</node>
	<node lat="62.6555027808499" lon="11.56105278139356" id="-32995">
		<tag k="name" v="Svensberga" />
		<tag k="name:no" v="Svensberga" />
		<tag k="natural" v="hill" />
		<tag k="place" v="locality" />
		<tag k="ssr:stedsnr" v="42993" />
	</node>
	<node lat="62.593669440664634" lon="11.685541673800078" id="-32997">
		<tag k="name" v="Rundhaugen" />
		<tag k="name:no" v="Rundhaugen" />
		<tag k="natural" v="hill" />
		<tag k="place" v="locality" />
		<tag k="ssr:stedsnr" v="43199" />
	</node>
	<node lat="62.735355552873706" lon="11.83648332738519" id="-33002">
		<tag k="name" v="Kvarterhaugen" />
		<tag k="name:no" v="Kvarterhaugen" />
		<tag k="natural" v="hill" />
		<tag k="place" v="locality" />
		<tag k="ssr:stedsnr" v="43711" />
	</node>
	<node lat="62.78446944840507" lon="11.796744443801078" id="-33010">
		<tag k="name" v="Høgbakken" />
		<tag k="name:no" v="Høgbakken" />
		<tag k="natural" v="slope" />
		<tag k="place" v="locality" />
		<tag k="ssr:stedsnr" v="43802" />
	</node>
	<node lat="62.780261108824156" lon="11.791947228490132" id="-33011">
		<tag k="name" v="Rovfuglhøgda" />
		<tag k="name:no" v="Rovfuglhøgda" />
		<tag k="natural" v="hill" />
		<tag k="place" v="locality" />
		<tag k="ssr:stedsnr" v="43805" />
	</node>
	<node lat="62.59861666972991" lon="11.202630547323658" id="-33017">
		<tag k="name" v="Trøhaugen" />
		<tag k="name:no" v="Trøhaugen" />
		<tag k="natural" v="hill" />
		<tag k="place" v="locality" />
		<tag k="ssr:stedsnr" v="72174" />
	</node>
	<node lat="62.630477773606735" lon="11.8540999976623" id="-33018">
		<tag k="name" v="Våkhåmmåren" />
		<tag k="name:no" v="Våkhåmmåren" />
		<tag k="natural" v="hill" />
		<tag k="place" v="locality" />
		<tag k="ssr:stedsnr" v="72613" />
	</node>
	<node lat="62.57145277529606" lon="11.490819441241305" id="-33028">
		<tag k="name" v="Stikkilldalen" />
		<tag k="name:no" v="Stikkilldalen" />
		<tag k="natural" v="valley" />
		<tag k="place" v="locality" />
		<tag k="ssr:stedsnr" v="72566" />
	</node>
	<node lat="62.65809166740087" lon="11.936241662003248" id="-33031">
		<tag k="fixme" v="consider natural=peak for the most distinct mountains in the district" />
		<tag k="name" v="Dagvola" />
		<tag k="name:no" v="Dagvola" />
		<tag k="natural" v="hill" />
		<tag k="place" v="locality" />
		<tag k="ssr:stedsnr" v="72716" />
	</node>
	<node lat="62.684191663112145" lon="11.347266672067233" id="-33046">
		<tag k="name" v="Mohøgda" />
		<tag k="name:no" v="Mohøgda" />
		<tag k="natural" v="hill" />
		<tag k="place" v="locality" />
		<tag k="ssr:stedsnr" v="99168" />
	</node>
	<node lat="62.736505551869215" lon="11.925388885442775" id="-33057">
		<tag k="name" v="Rundklumpen" />
		<tag k="name:no" v="Rundklumpen" />
		<tag k="natural" v="hill" />
		<tag k="place" v="locality" />
		<tag k="ssr:stedsnr" v="103009" />
	</node>
	<node lat="62.57186110745343" lon="11.398027778197383" id="-33058">
		<tag k="name" v="Ulvstugguhaugen" />
		<tag k="name:no" v="Ulvstugguhaugen" />
		<tag k="natural" v="hill" />
		<tag k="place" v="locality" />
		<tag k="ssr:stedsnr" v="103010" />
	</node>
	<node lat="62.73688333619467" lon="11.942169444999807" id="-33059">
		<tag k="name" v="Sandbakken" />
		<tag k="name:no" v="Sandbakken" />
		<tag k="natural" v="slope" />
		<tag k="place" v="locality" />
		<tag k="ssr:stedsnr" v="103026" />
	</node>
	<node lat="62.662605553471835" lon="11.907091671961426" id="-33061">
		<tag k="fixme" v="consider natural=peak for the most distinct mountains in the district" />
		<tag k="name" v="Okshåmmåren" />
		<tag k="name:no" v="Okshåmmåren" />
		<tag k="natural" v="hill" />
		<tag k="place" v="locality" />
		<tag k="ssr:stedsnr" v="103127" />
	</node>
	<node lat="62.64099722050218" lon="11.944794451856154" id="-33064">
		<tag k="name" v="Slagberget" />
		<tag k="name:no" v="Slagberget" />
		<tag k="natural" v="hill" />
		<tag k="place" v="locality" />
		<tag k="ssr:stedsnr" v="103090" />
	</node>
	<node lat="62.59847778022645" lon="11.301699994723695" id="-33067">
		<tag k="name" v="Langkåsbakkan" />
		<tag k="name:no" v="Langkåsbakkan" />
		<tag k="natural" v="slope" />
		<tag k="place" v="locality" />
		<tag k="ssr:stedsnr" v="103410" />
	</node>
	<node lat="62.61427777601035" lon="11.736602783878118" id="-33071">
		<tag k="name" v="Langmyrdalen" />
		<tag k="name:no" v="Langmyrdalen" />
		<tag k="natural" v="valley" />
		<tag k="place" v="locality" />
		<tag k="ssr:stedsnr" v="103308" />
	</node>
	<node lat="62.63407222135891" lon="11.746538890365825" id="-33072">
		<tag k="name" v="Finnskjeggrybakken" />
		<tag k="name:no" v="Finnskjeggrybakken" />
		<tag k="natural" v="slope" />
		<tag k="place" v="locality" />
		<tag k="ssr:stedsnr" v="103311" />
	</node>
	<node lat="62.576230559744445" lon="11.321341666069712" id="-33078">
		<tag k="name" v="Dørbakken" />
		<tag k="name:no" v="Dørbakken" />
		<tag k="natural" v="slope" />
		<tag k="place" v="locality" />
		<tag k="ssr:stedsnr" v="103334" />
	</node>
	<node lat="62.59919166461035" lon="11.325561103874868" id="-33079">
		<tag k="name" v="Jellhaugen" />
		<tag k="name:no" v="Jellhaugen" />
		<tag k="natural" v="hill" />
		<tag k="place" v="locality" />
		<tag k="ssr:stedsnr" v="103380" />
	</node>
	<node lat="62.58107500008878" lon="11.830330561681016" id="-33080">
		<tag k="name" v="Flåin" />
		<tag k="name:no" v="Flåin" />
		<tag k="natural" v="slope" />
		<tag k="place" v="locality" />
		<tag k="ssr:stedsnr" v="103385" />
	</node>
	<node lat="62.604327773634374" lon="11.260611119746404" id="-33083">
		<tag k="name" v="Tjukkhaugen" />
		<tag k="name:no" v="Tjukkhaugen" />
		<tag k="natural" v="hill" />
		<tag k="place" v="locality" />
		<tag k="ssr:stedsnr" v="103390" />
	</node>
	<node lat="62.49764166268764" lon="11.605197216580182" id="-33092">
		<tag k="name" v="Stenbakkan" />
		<tag k="name:no" v="Stenbakkan" />
		<tag k="natural" v="slope" />
		<tag k="place" v="locality" />
		<tag k="ssr:stedsnr" v="103531" />
	</node>
	<node lat="62.556541670036324" lon="11.908100001205504" id="-33093">
		<tag k="fixme" v="consider natural=peak for the most distinct mountains in the district" />
		<tag k="name" v="Storvikhåmmåran" />
		<tag k="name:no" v="Storvikhåmmåran" />
		<tag k="natural" v="hill" />
		<tag k="place" v="locality" />
		<tag k="ssr:stedsnr" v="103422" />
	</node>
	<node lat="62.63286388633396" lon="11.801230552864235" id="-33097">
		<tag k="name" v="Moen" />
		<tag k="name:no" v="Moen" />
		<tag k="place" v="locality" />
		<tag k="ssr:stedsnr" v="103488" />
	</node>
	<node lat="62.64296111389237" lon="11.779427786338976" id="-33098">
		<tag k="name" v="Røsta" />
		<tag k="name:no" v="Røsta" />
		<tag k="place" v="locality" />
		<tag k="ssr:stedsnr" v="103493" />
	</node>
	<node lat="62.64572777395853" lon="11.633763884326328" id="-33099">
		<tag k="name" v="Strypet" />
		<tag k="name:no" v="Strypet" />
		<tag k="place" v="locality" />
		<tag k="ssr:stedsnr" v="103628" />
	</node>
	<node lat="62.6699499979456" lon="11.904613892056712" id="-33139">
		<tag k="name" v="Høgvollknippen" />
		<tag k="name:no" v="Høgvollknippen" />
		<tag k="natural" v="hill" />
		<tag k="place" v="locality" />
		<tag k="ssr:stedsnr" v="132734" />
	</node>
	<node lat="62.57074166973299" lon="11.746147218114928" id="-33147">
		<tag k="name" v="Kvernberget" />
		<tag k="name:no" v="Kvernberget" />
		<tag k="natural" v="hill" />
		<tag k="place" v="locality" />
		<tag k="ssr:stedsnr" v="133259" />
	</node>
	<node lat="62.558183335750016" lon="11.767274998589398" id="-33148">
		<tag k="name" v="Storhøgda" />
		<tag k="name:no" v="Storhøgda" />
		<tag k="natural" v="hill" />
		<tag k="place" v="locality" />
		<tag k="ssr:stedsnr" v="133273" />
	</node>
	<node lat="62.5161361112403" lon="11.682191659577773" id="-33166">
		<tag k="fixme" v="consider natural=peak for the most distinct mountains in the district" />
		<tag k="name" v="Tamneshøgda" />
		<tag k="name:no" v="Tamneshøgda" />
		<tag k="natural" v="hill" />
		<tag k="place" v="locality" />
		<tag k="ssr:stedsnr" v="254486" />
	</node>
	<node lat="62.71167500086843" lon="12.081099994049463" id="-33169">
		<tag k="fixme" v="consider natural=peak for the most distinct mountains in the district" />
		<tag k="name" v="Morraklumpen" />
		<tag k="name:no" v="Morraklumpen" />
		<tag k="natural" v="hill" />
		<tag k="place" v="locality" />
		<tag k="ssr:stedsnr" v="254501" />
	</node>
	<node lat="62.493441664578796" lon="12.120008335880854" id="-33172">
		<tag k="fixme" v="consider natural=peak for the most distinct mountains in the district" />
		<tag k="name" v="Viglskaftet" />
		<tag k="name:no" v="Viglskaftet" />
		<tag k="natural" v="hill" />
		<tag k="place" v="locality" />
		<tag k="ssr:stedsnr" v="254535" />
	</node>
	<node lat="62.6455888876446" lon="11.994230548289574" id="-33191">
		<tag k="name" v="Jervbekkhåmmåren" />
		<tag k="name:no" v="Jervbekkhåmmåren" />
		<tag k="natural" v="hill" />
		<tag k="place" v="locality" />
		<tag k="ssr:stedsnr" v="254701" />
	</node>
	<node lat="62.743105559887255" lon="11.652161109848901" id="-33192">
		<tag k="fixme" v="consider natural=peak for the most distinct mountains in the district" />
		<tag k="name" v="Klinkenhåmmåren" />
		<tag k="name:no" v="Klinkenhåmmåren" />
		<tag k="natural" v="hill" />
		<tag k="place" v="locality" />
		<tag k="ssr:stedsnr" v="254767" />
	</node>
	<node lat="62.67523055580584" lon="12.008661114162132" id="-33195">
		<tag k="fixme" v="consider natural=peak for the most distinct mountains in the district" />
		<tag k="name" v="Njuanabaertie" />
		<tag k="name:sma" v="Njuanabaertie" />
		<tag k="natural" v="hill" />
		<tag k="place" v="locality" />
		<tag k="ssr:stedsnr" v="141683" />
	</node>
	<node lat="62.59696111226103" lon="11.92967777828192" id="-33196">
		<tag k="name" v="Villmannsdalen" />
		<tag k="name:no" v="Villmannsdalen" />
		<tag k="natural" v="valley" />
		<tag k="place" v="locality" />
		<tag k="ssr:stedsnr" v="141686" />
	</node>
	<node lat="62.64192499979083" lon="11.324361111848747" id="-33197">
		<tag k="name" v="Hamran" />
		<tag k="name:no" v="Hamran" />
		<tag k="natural" v="hill" />
		<tag k="place" v="locality" />
		<tag k="ssr:stedsnr" v="254882" />
	</node>
	<node lat="62.60432500140516" lon="11.851552779534524" id="-33210">
		<tag k="name" v="Botnlia" />
		<tag k="name:no" v="Botnlia" />
		<tag k="natural" v="slope" />
		<tag k="place" v="locality" />
		<tag k="ssr:stedsnr" v="146166" />
	</node>
	<node lat="62.76525000274006" lon="11.58883333993762" id="-33216">
		<tag k="fixme" v="multiple name tags, choose one and add the other to alt_name; consider natural=peak for the most distinct mountains in the district" />
		<tag k="name" v="Storbekkhøgda;Litlskarven" />
		<tag k="name:no" v="Storbekkhøgda;Litlskarven" />
		<tag k="natural" v="hill" />
		<tag k="place" v="locality" />
		<tag k="ssr:stedsnr" v="255949" />
	</node>
	<node lat="62.721538891654845" lon="11.920224999976366" id="-33220">
		<tag k="name" v="Finntrøvian" />
		<tag k="name:no" v="Finntrøvian" />
		<tag k="natural" v="slope" />
		<tag k="place" v="locality" />
		<tag k="ssr:stedsnr" v="163021" />
	</node>
	<node lat="62.69441111383358" lon="11.704483337842008" id="-33222">
		<tag k="name" v="Vakkerslætta" />
		<tag k="name:no" v="Vakkerslætta" />
		<tag k="place" v="locality" />
		<tag k="ssr:stedsnr" v="163307" />
	</node>
	<node lat="62.6925999971185" lon="11.703133327523505" id="-33227">
		<tag k="name" v="Merkeskåsa" />
		<tag k="name:no" v="Merkeskåsa" />
		<tag k="natural" v="slope" />
		<tag k="place" v="locality" />
		<tag k="ssr:stedsnr" v="163682" />
	</node>
	<node lat="62.62508333717015" lon="11.438775006313852" id="-33230">
		<tag k="name" v="Krullmoen" />
		<tag k="name:no" v="Krullmoen" />
		<tag k="place" v="locality" />
		<tag k="ssr:stedsnr" v="164074" />
	</node>
	<node lat="62.537644440475525" lon="11.265369440396634" id="-33233">
		<tag k="name" v="Finnelia" />
		<tag k="name:no" v="Finnelia" />
		<tag k="natural" v="slope" />
		<tag k="place" v="locality" />
		<tag k="ssr:stedsnr" v="164363" />
	</node>
	<node lat="62.61609166567016" lon="11.92561389362847" id="-33235">
		<tag k="name" v="Klemetgården" />
		<tag k="name:no" v="Klemetgården" />
		<tag k="natural" v="hill" />
		<tag k="place" v="locality" />
		<tag k="ssr:stedsnr" v="164506" />
	</node>
	<node lat="62.64614999701845" lon="11.223911103887337" id="-33236">
		<tag k="name" v="Loberget" />
		<tag k="name:no" v="Loberget" />
		<tag k="natural" v="hill" />
		<tag k="place" v="locality" />
		<tag k="ssr:stedsnr" v="164507" />
	</node>
	<node lat="62.61047222374456" lon="11.841672219840937" id="-33238">
		<tag k="name" v="Rundbakken" />
		<tag k="name:no" v="Rundbakken" />
		<tag k="natural" v="hill" />
		<tag k="place" v="locality" />
		<tag k="ssr:stedsnr" v="164513" />
	</node>
	<node lat="62.444138886445664" lon="11.562422230964756" id="-33239">
		<tag k="fixme" v="consider natural=peak for the most distinct mountains in the district" />
		<tag k="name" v="Slåttmyråsen" />
		<tag k="name:no" v="Slåttmyråsen" />
		<tag k="natural" v="hill" />
		<tag k="place" v="locality" />
		<tag k="ssr:stedsnr" v="164273" />
	</node>
	<node lat="62.60323055204792" lon="11.293166673948" id="-33245">
		<tag k="name" v="Stenrabben" />
		<tag k="name:no" v="Stenrabben" />
		<tag k="place" v="locality" />
		<tag k="ssr:stedsnr" v="164473" />
	</node>
	<node lat="62.63261111383426" lon="11.636088892981325" id="-33258">
		<tag k="fixme" v="consider natural=peak for the most distinct mountains in the district" />
		<tag k="name" v="Svarterdalsåsen" />
		<tag k="name:no" v="Svarterdalsåsen" />
		<tag k="natural" v="hill" />
		<tag k="place" v="locality" />
		<tag k="ssr:stedsnr" v="164702" />
	</node>
	<node lat="62.63381389247246" lon="11.64573611764244" id="-33260">
		<tag k="name" v="Tjønndalen" />
		<tag k="name:no" v="Tjønndalen" />
		<tag k="natural" v="valley" />
		<tag k="place" v="locality" />
		<tag k="ssr:stedsnr" v="164713" />
	</node>
	<node lat="62.616202778687764" lon="11.614661119139143" id="-33262">
		<tag k="name" v="Kattberget" />
		<tag k="name:no" v="Kattberget" />
		<tag k="natural" v="hill" />
		<tag k="place" v="locality" />
		<tag k="ssr:stedsnr" v="164724" />
	</node>
	<node lat="62.58429999990156" lon="11.466824992457974" id="-33265">
		<tag k="name" v="Måssårabben" />
		<tag k="name:no" v="Måssårabben" />
		<tag k="natural" v="hill" />
		<tag k="place" v="locality" />
		<tag k="ssr:stedsnr" v="164913" />
	</node>
	<node lat="62.42656666822992" lon="11.894250002048274" id="-33280">
		<tag k="name" v="Skravlberget" />
		<tag k="name:no" v="Skravlberget" />
		<tag k="natural" v="hill" />
		<tag k="place" v="locality" />
		<tag k="ssr:stedsnr" v="181015" />
	</node>
	<node lat="62.542566668162" lon="11.868344436646101" id="-33283">
		<tag k="name" v="Heksinlia" />
		<tag k="name:no" v="Heksinlia" />
		<tag k="natural" v="slope" />
		<tag k="place" v="locality" />
		<tag k="ssr:stedsnr" v="263321" />
	</node>
	<node lat="65.11002777597567" lon="13.085422216082504" id="-33289">
		<tag k="fixme" v="consider natural=peak for the most distinct mountains in the district" />
		<tag k="name" v="Kløftfjellet - Sloeptjenguevtele" />
		<tag k="name:no" v="Kløftfjellet" />
		<tag k="name:sma" v="Sloeptjenguevtele" />
		<tag k="natural" v="hill" />
		<tag k="place" v="locality" />
		<tag k="ssr:stedsnr" v="196523" />
	</node>
	<node lat="62.520705554490505" lon="11.842758323811747" id="-33290">
		<tag k="name" v="Langneshåmmåren" />
		<tag k="name:no" v="Langneshåmmåren" />
		<tag k="natural" v="hill" />
		<tag k="place" v="locality" />
		<tag k="ssr:stedsnr" v="203304" />
	</node>
	<node lat="62.55802500316585" lon="11.822461104096506" id="-33292">
		<tag k="name" v="Skardet" />
		<tag k="name:no" v="Skardet" />
		<tag k="natural" v="hill" />
		<tag k="place" v="locality" />
		<tag k="ssr:stedsnr" v="203311" />
	</node>
	<node lat="62.518738887880616" lon="12.072524996315675" id="-33293">
		<tag k="fixme" v="consider natural=peak for the most distinct mountains in the district" />
		<tag k="name" v="Viglstøten" />
		<tag k="name:no" v="Viglstøten" />
		<tag k="natural" v="hill" />
		<tag k="place" v="locality" />
		<tag k="ssr:stedsnr" v="203313" />
	</node>
	<node lat="62.59399999956366" lon="11.86262778634042" id="-33294">
		<tag k="name" v="Dravlbullen" />
		<tag k="name:no" v="Dravlbullen" />
		<tag k="natural" v="hill" />
		<tag k="place" v="locality" />
		<tag k="ssr:stedsnr" v="203319" />
	</node>
	<node lat="62.63728333718786" lon="11.365402769340456" id="-33299">
		<tag k="name" v="Storjobakken" />
		<tag k="name:no" v="Storjobakken" />
		<tag k="natural" v="slope" />
		<tag k="place" v="locality" />
		<tag k="ssr:stedsnr" v="220109" />
	</node>
	<node lat="62.57935555998523" lon="11.426797220911356" id="-33301">
		<tag k="fixme" v="consider natural=peak for the most distinct mountains in the district" />
		<tag k="name" v="Storstenåsen" />
		<tag k="name:no" v="Storstenåsen" />
		<tag k="natural" v="hill" />
		<tag k="place" v="locality" />
		<tag k="ssr:stedsnr" v="220021" />
	</node>
	<node lat="62.6341472257869" lon="11.66410833134584" id="-33304">
		<tag k="fixme" v="consider natural=peak for the most distinct mountains in the district" />
		<tag k="name" v="Kløftkåsa" />
		<tag k="name:no" v="Kløftkåsa" />
		<tag k="natural" v="hill" />
		<tag k="place" v="locality" />
		<tag k="ssr:stedsnr" v="220778" />
	</node>
	<node lat="62.66002500045003" lon="11.441433339847102" id="-33311">
		<tag k="name" v="Vintervollia" />
		<tag k="name:no" v="Vintervollia" />
		<tag k="natural" v="slope" />
		<tag k="place" v="locality" />
		<tag k="ssr:stedsnr" v="221117" />
	</node>
	<node lat="62.72686944456136" lon="11.908436104097252" id="-33314">
		<tag k="name" v="Torvhaugen" />
		<tag k="name:no" v="Torvhaugen" />
		<tag k="natural" v="hill" />
		<tag k="place" v="locality" />
		<tag k="ssr:stedsnr" v="224038" />
	</node>
	<node lat="62.44534166967669" lon="11.56842221494101" id="-33318">
		<tag k="name" v="Lia" />
		<tag k="name:no" v="Lia" />
		<tag k="natural" v="slope" />
		<tag k="place" v="locality" />
		<tag k="ssr:stedsnr" v="224239" />
	</node>
	<node lat="62.681844447592255" lon="11.965361102348579" id="-33321">
		<tag k="fixme" v="consider natural=peak for the most distinct mountains in the district" />
		<tag k="name" v="Tverrlivola" />
		<tag k="name:no" v="Tverrlivola" />
		<tag k="natural" v="hill" />
		<tag k="place" v="locality" />
		<tag k="ssr:stedsnr" v="224149" />
	</node>
	<node lat="62.67997777366366" lon="11.960266662901029" id="-33322">
		<tag k="name" v="Tverrlia" />
		<tag k="name:no" v="Tverrlia" />
		<tag k="natural" v="slope" />
		<tag k="place" v="locality" />
		<tag k="ssr:stedsnr" v="224151" />
	</node>
	<node lat="62.58383055827566" lon="11.829205552084831" id="-33323">
		<tag k="name" v="Gjetbergsflåa" />
		<tag k="name:no" v="Gjetbergsflåa" />
		<tag k="natural" v="hill" />
		<tag k="place" v="locality" />
		<tag k="ssr:stedsnr" v="224346" />
	</node>
	<node lat="62.686291670349604" lon="11.632336106826376" id="-33329">
		<tag k="name" v="Klas-Finnseggen" />
		<tag k="name:no" v="Klas-Finnseggen" />
		<tag k="natural" v="ridge" />
		<tag k="place" v="locality" />
		<tag k="ssr:stedsnr" v="224700" />
	</node>
	<node lat="62.57635277464436" lon="11.497363882509722" id="-33331">
		<tag k="name" v="Tørreslia" />
		<tag k="name:no" v="Tørreslia" />
		<tag k="natural" v="slope" />
		<tag k="place" v="locality" />
		<tag k="ssr:stedsnr" v="224833" />
	</node>
	<node lat="62.58748055632181" lon="11.271552786211053" id="-33335">
		<tag k="name" v="Kåsmyrhøgda" />
		<tag k="name:no" v="Kåsmyrhøgda" />
		<tag k="natural" v="hill" />
		<tag k="place" v="locality" />
		<tag k="ssr:stedsnr" v="225384" />
	</node>
	<node lat="62.584088891446996" lon="11.278322223582721" id="-33336">
		<tag k="fixme" v="consider natural=peak for the most distinct mountains in the district" />
		<tag k="name" v="Litlfjellet" />
		<tag k="name:no" v="Litlfjellet" />
		<tag k="natural" v="hill" />
		<tag k="place" v="locality" />
		<tag k="ssr:stedsnr" v="225395" />
	</node>
	<node lat="62.599972224564794" lon="11.671747231007908" id="-33343">
		<tag k="name" v="Pikhaugen" />
		<tag k="name:no" v="Pikhaugen" />
		<tag k="natural" v="hill" />
		<tag k="place" v="locality" />
		<tag k="ssr:stedsnr" v="225604" />
	</node>
	<node lat="62.687225002356286" lon="11.517466661253057" id="-33355">
		<tag k="name" v="Tørreshaugen" />
		<tag k="name:no" v="Tørreshaugen" />
		<tag k="natural" v="hill" />
		<tag k="place" v="locality" />
		<tag k="ssr:stedsnr" v="225935" />
	</node>
	<node lat="62.53081944510142" lon="12.027830547143232" id="-33362">
		<tag k="fixme" v="consider natural=peak for the most distinct mountains in the district" />
		<tag k="name" v="Støvelskaftet" />
		<tag k="name:no" v="Støvelskaftet" />
		<tag k="natural" v="hill" />
		<tag k="place" v="locality" />
		<tag k="ssr:stedsnr" v="254279" />
	</node>
	<node lat="62.53854444702374" lon="11.788750000033234" id="-33363">
		<tag k="name" v="Gammelmannshøgda" />
		<tag k="name:no" v="Gammelmannshøgda" />
		<tag k="natural" v="hill" />
		<tag k="place" v="locality" />
		<tag k="ssr:stedsnr" v="254284" />
	</node>
	<node lat="62.556063885806914" lon="12.030241673266522" id="-33365">
		<tag k="fixme" v="consider natural=peak for the most distinct mountains in the district" />
		<tag k="name" v="Tverrviglen" />
		<tag k="name:no" v="Tverrviglen" />
		<tag k="natural" v="hill" />
		<tag k="place" v="locality" />
		<tag k="ssr:stedsnr" v="254288" />
	</node>
	<node lat="62.424619447807196" lon="11.693372223296182" id="-33366">
		<tag k="fixme" v="consider natural=peak for the most distinct mountains in the district" />
		<tag k="name" v="Stenfjellet" />
		<tag k="name:no" v="Stenfjellet" />
		<tag k="natural" v="hill" />
		<tag k="place" v="locality" />
		<tag k="ssr:stedsnr" v="254372" />
	</node>
	<node lat="62.713844444709686" lon="11.704513880004818" id="-33384">
		<tag k="fixme" v="consider natural=peak for the most distinct mountains in the district" />
		<tag k="name" v="Kokktangen" />
		<tag k="name:no" v="Kokktangen" />
		<tag k="natural" v="hill" />
		<tag k="place" v="locality" />
		<tag k="ssr:stedsnr" v="254937" />
	</node>
	<node lat="62.654655556494625" lon="11.384750000063768" id="-33385">
		<tag k="fixme" v="consider natural=peak for the most distinct mountains in the district" />
		<tag k="name" v="Holtålsåsen" />
		<tag k="name:no" v="Holtålsåsen" />
		<tag k="natural" v="hill" />
		<tag k="place" v="locality" />
		<tag k="ssr:stedsnr" v="254978" />
	</node>
	<node lat="62.53929166753507" lon="11.687977773690381" id="-33387">
		<tag k="name" v="Langtjønnhåmmåran" />
		<tag k="name:no" v="Langtjønnhåmmåran" />
		<tag k="natural" v="hill" />
		<tag k="place" v="locality" />
		<tag k="ssr:stedsnr" v="262846" />
	</node>
	<node lat="62.66284474089352" lon="11.461481942638466" id="-33388">
		<tag k="name" v="Tynsetdalen" />
		<tag k="name:no" v="Tynsetdalen" />
		<tag k="natural" v="valley" />
		<tag k="place" v="locality" />
		<tag k="ssr:stedsnr" v="263845" />
	</node>
	<node lat="62.697674999183626" lon="11.359663886764874" id="-33395">
		<tag k="name" v="Langlandslia" />
		<tag k="name:no" v="Langlandslia" />
		<tag k="natural" v="slope" />
		<tag k="place" v="locality" />
		<tag k="ssr:stedsnr" v="281207" />
	</node>
	<node lat="62.6471666679178" lon="11.930988885494592" id="-33399">
		<tag k="fixme" v="consider natural=peak for the most distinct mountains in the district" />
		<tag k="name" v="Sjåbratoppen" />
		<tag k="name:no" v="Sjåbratoppen" />
		<tag k="natural" v="hill" />
		<tag k="place" v="locality" />
		<tag k="ssr:stedsnr" v="285088" />
	</node>
	<node lat="62.58997222469485" lon="11.408538889527469" id="-33400">
		<tag k="name" v="Bredalsegga" />
		<tag k="name:no" v="Bredalsegga" />
		<tag k="natural" v="hill" />
		<tag k="place" v="locality" />
		<tag k="ssr:stedsnr" v="285093" />
	</node>
	<node lat="62.59786666351823" lon="11.446197228638535" id="-33401">
		<tag k="fixme" v="consider natural=peak for the most distinct mountains in the district" />
		<tag k="name" v="Halvoregga" />
		<tag k="name:no" v="Halvoregga" />
		<tag k="natural" v="hill" />
		<tag k="place" v="locality" />
		<tag k="ssr:stedsnr" v="285094" />
	</node>
	<node lat="62.71655000201945" lon="11.358350008165154" id="-33403">
		<tag k="fixme" v="consider natural=peak for the most distinct mountains in the district" />
		<tag k="name" v="Åsen" />
		<tag k="name:no" v="Åsen" />
		<tag k="natural" v="hill" />
		<tag k="place" v="locality" />
		<tag k="ssr:stedsnr" v="285231" />
	</node>
	<node lat="62.68441666286195" lon="11.666388895238738" id="-33415">
		<tag k="fixme" v="consider natural=peak for the most distinct mountains in the district" />
		<tag k="name" v="Høgåsen" />
		<tag k="name:no" v="Høgåsen" />
		<tag k="natural" v="hill" />
		<tag k="place" v="locality" />
		<tag k="ssr:stedsnr" v="285326" />
	</node>
	<node lat="62.57490833201752" lon="11.305208340653959" id="-33416">
		<tag k="name" v="Kåslia" />
		<tag k="name:no" v="Kåslia" />
		<tag k="natural" v="slope" />
		<tag k="place" v="locality" />
		<tag k="ssr:stedsnr" v="285331" />
	</node>
	<node lat="62.70674444328119" lon="11.703680560449731" id="-33418">
		<tag k="name" v="Skoglidalen" />
		<tag k="name:no" v="Skoglidalen" />
		<tag k="natural" v="valley" />
		<tag k="place" v="locality" />
		<tag k="ssr:stedsnr" v="285336" />
	</node>
	<node lat="62.58249722478262" lon="11.737719447100584" id="-33420">
		<tag k="name" v="Litlkletten" />
		<tag k="name:no" v="Litlkletten" />
		<tag k="natural" v="hill" />
		<tag k="place" v="locality" />
		<tag k="ssr:stedsnr" v="285379" />
	</node>
	<node lat="62.584166671098025" lon="11.71138888867617" id="-33433">
		<tag k="name" v="Dolpin" />
		<tag k="name:no" v="Dolpin" />
		<tag k="natural" v="slope" />
		<tag k="place" v="locality" />
		<tag k="ssr:stedsnr" v="285513" />
	</node>
	<node lat="62.4941249975981" lon="11.590580553556839" id="-33434">
		<tag k="name" v="Gunnarshaugen" />
		<tag k="name:no" v="Gunnarshaugen" />
		<tag k="natural" v="hill" />
		<tag k="place" v="locality" />
		<tag k="ssr:stedsnr" v="285526" />
	</node>
	<node lat="62.573347223232986" lon="11.593769439819463" id="-33439">
		<tag k="name" v="Tollevslian" />
		<tag k="name:no" v="Tollevslian" />
		<tag k="natural" v="slope" />
		<tag k="place" v="locality" />
		<tag k="ssr:stedsnr" v="285605" />
	</node>
	<node lat="62.646416662763166" lon="11.631172228455092" id="-33442">
		<tag k="name" v="Småbergan" />
		<tag k="name:no" v="Småbergan" />
		<tag k="natural" v="hill" />
		<tag k="place" v="locality" />
		<tag k="ssr:stedsnr" v="285618" />
	</node>
	<node lat="62.648777780022165" lon="11.645947215039149" id="-33443">
		<tag k="name" v="Flata" />
		<tag k="name:no" v="Flata" />
		<tag k="place" v="locality" />
		<tag k="ssr:stedsnr" v="285622" />
	</node>
	<node lat="62.63398888778066" lon="11.608627783940822" id="-33444">
		<tag k="name" v="Sørenslaua" />
		<tag k="name:no" v="Sørenslaua" />
		<tag k="natural" v="slope" />
		<tag k="place" v="locality" />
		<tag k="ssr:stedsnr" v="285627" />
	</node>
	<node lat="62.50860555931112" lon="11.503055560255866" id="-33449">
		<tag k="name" v="Flatstenbakken" />
		<tag k="name:no" v="Flatstenbakken" />
		<tag k="natural" v="slope" />
		<tag k="place" v="locality" />
		<tag k="ssr:stedsnr" v="285779" />
	</node>
	<node lat="62.47763610810344" lon="11.505291670771118" id="-33451">
		<tag k="name" v="Gladhaugen" />
		<tag k="name:no" v="Gladhaugen" />
		<tag k="natural" v="hill" />
		<tag k="place" v="locality" />
		<tag k="ssr:stedsnr" v="285786" />
	</node>
	<node lat="62.571419446528125" lon="11.467475002593607" id="-33453">
		<tag k="name" v="Litlberget" />
		<tag k="name:no" v="Litlberget" />
		<tag k="natural" v="hill" />
		<tag k="place" v="locality" />
		<tag k="ssr:stedsnr" v="285832" />
	</node>
	<node lat="62.63819444032611" lon="11.583274998303507" id="-33455">
		<tag k="name" v="Litlberget" />
		<tag k="name:no" v="Litlberget" />
		<tag k="natural" v="hill" />
		<tag k="place" v="locality" />
		<tag k="ssr:stedsnr" v="285882" />
	</node>
	<node lat="62.737386106856356" lon="11.806297222897072" id="-33462">
		<tag k="name" v="Komparslætta" />
		<tag k="name:no" v="Komparslætta" />
		<tag k="place" v="locality" />
		<tag k="ssr:stedsnr" v="286556" />
	</node>
	<node lat="62.686200003120106" lon="11.758319437739242" id="-33469">
		<tag k="name" v="Hestlauhaugen" />
		<tag k="name:no" v="Hestlauhaugen" />
		<tag k="natural" v="hill" />
		<tag k="place" v="locality" />
		<tag k="ssr:stedsnr" v="286694" />
	</node>
	<node lat="62.689511109484926" lon="11.747225004792652" id="-33477">
		<tag k="name" v="Kvernhusdalen" />
		<tag k="name:no" v="Kvernhusdalen" />
		<tag k="natural" v="valley" />
		<tag k="place" v="locality" />
		<tag k="ssr:stedsnr" v="286705" />
	</node>
	<node lat="62.63072778133421" lon="11.853524991479992" id="-33487">
		<tag k="name" v="Våttån" />
		<tag k="name:no" v="Våttån" />
		<tag k="natural" v="hill" />
		<tag k="place" v="locality" />
		<tag k="ssr:stedsnr" v="463043" />
	</node>
	<node lat="62.61491111137902" lon="11.407461101753015" id="-33489">
		<tag k="fixme" v="consider natural=peak for the most distinct mountains in the district" />
		<tag k="name" v="Mortenhøgda" />
		<tag k="name:no" v="Mortenhøgda" />
		<tag k="natural" v="hill" />
		<tag k="place" v="locality" />
		<tag k="ssr:stedsnr" v="463090" />
	</node>
	<node lat="62.678944446258775" lon="11.382158323826003" id="-33490">
		<tag k="name" v="Litlvollia" />
		<tag k="name:no" v="Litlvollia" />
		<tag k="natural" v="slope" />
		<tag k="place" v="locality" />
		<tag k="ssr:stedsnr" v="463136" />
	</node>
	<node lat="62.681019441667566" lon="11.36408611598008" id="-33491">
		<tag k="name" v="Stordalen" />
		<tag k="name:no" v="Stordalen" />
		<tag k="natural" v="valley" />
		<tag k="place" v="locality" />
		<tag k="ssr:stedsnr" v="463137" />
	</node>
	<node lat="62.75398055576026" lon="11.9407222208788" id="-33508">
		<tag k="name" v="Tangen" />
		<tag k="name:no" v="Tangen" />
		<tag k="natural" v="hill" />
		<tag k="place" v="locality" />
		<tag k="ssr:stedsnr" v="467027" />
	</node>
	<node lat="62.68893611115986" lon="11.821691657194172" id="-33524">
		<tag k="name" v="Sølendet" />
		<tag k="name:no" v="Sølendet" />
		<tag k="natural" v="slope" />
		<tag k="place" v="locality" />
		<tag k="ssr:stedsnr" v="315714" />
	</node>
	<node lat="62.58537777677847" lon="11.954483337094441" id="-33534">
		<tag k="fixme" v="consider natural=peak for the most distinct mountains in the district" />
		<tag k="name" v="Viglpiken" />
		<tag k="name:no" v="Viglpiken" />
		<tag k="natural" v="hill" />
		<tag k="place" v="locality" />
		<tag k="ssr:stedsnr" v="315652" />
	</node>
	<node lat="62.59314166900738" lon="11.807963880061662" id="-33536">
		<tag k="name" v="Martin-Hansastenen" />
		<tag k="name:no" v="Martin-Hansastenen" />
		<tag k="natural" v="hill" />
		<tag k="place" v="locality" />
		<tag k="ssr:stedsnr" v="467296" />
	</node>
	<node lat="62.4663527769626" lon="11.848172225784584" id="-33541">
		<tag k="fixme" v="consider natural=peak for the most distinct mountains in the district" />
		<tag k="name" v="Brentrøstan" />
		<tag k="name:no" v="Brentrøstan" />
		<tag k="natural" v="hill" />
		<tag k="place" v="locality" />
		<tag k="ssr:stedsnr" v="467400" />
	</node>
	<node lat="62.81733888733394" lon="11.809213892036638" id="-33542">
		<tag k="name" v="Nordridalen" />
		<tag k="name:no" v="Nordridalen" />
		<tag k="natural" v="valley" />
		<tag k="place" v="locality" />
		<tag k="ssr:stedsnr" v="315799" />
	</node>
	<node lat="62.63087500226323" lon="11.745844437391051" id="-33547">
		<tag k="name" v="Småkåsin" />
		<tag k="name:no" v="Småkåsin" />
		<tag k="natural" v="slope" />
		<tag k="place" v="locality" />
		<tag k="ssr:stedsnr" v="467328" />
	</node>
	<node lat="62.68544722221626" lon="11.672066664624936" id="-33550">
		<tag k="name" v="Tågberget" />
		<tag k="name:no" v="Tågberget" />
		<tag k="natural" v="hill" />
		<tag k="place" v="locality" />
		<tag k="ssr:stedsnr" v="467346" />
	</node>
	<node lat="62.69373055245592" lon="11.676783329867947" id="-33552">
		<tag k="fixme" v="consider natural=peak for the most distinct mountains in the district" />
		<tag k="name" v="Småkåsin" />
		<tag k="name:no" v="Småkåsin" />
		<tag k="natural" v="hill" />
		<tag k="place" v="locality" />
		<tag k="ssr:stedsnr" v="467360" />
	</node>
	<node lat="62.643383336429544" lon="11.261513893754795" id="-33556">
		<tag k="fixme" v="consider natural=peak for the most distinct mountains in the district" />
		<tag k="name" v="Rødalsåsen" />
		<tag k="name:no" v="Rødalsåsen" />
		<tag k="natural" v="hill" />
		<tag k="place" v="locality" />
		<tag k="ssr:stedsnr" v="467443" />
	</node>
	<node lat="62.632930556065105" lon="11.240197228357317" id="-33559">
		<tag k="name" v="Tverrødalshåmmårøyan" />
		<tag k="name:no" v="Tverrødalshåmmårøyan" />
		<tag k="place" v="locality" />
		<tag k="ssr:stedsnr" v="467456" />
	</node>
	<node lat="62.655830555696255" lon="11.253744444012673" id="-33563">
		<tag k="name" v="Albrent" />
		<tag k="name:no" v="Albrent" />
		<tag k="place" v="locality" />
		<tag k="ssr:stedsnr" v="467475" />
	</node>
	<node lat="62.72853610849278" lon="11.7949833278356" id="-33572">
		<tag k="name" v="Kokkseterhaugen" />
		<tag k="name:no" v="Kokkseterhaugen" />
		<tag k="natural" v="hill" />
		<tag k="place" v="locality" />
		<tag k="ssr:stedsnr" v="467579" />
	</node>
	<node lat="62.68635000154851" lon="11.544780552331472" id="-33573">
		<tag k="name" v="Reitlia" />
		<tag k="name:no" v="Reitlia" />
		<tag k="natural" v="slope" />
		<tag k="place" v="locality" />
		<tag k="ssr:stedsnr" v="467580" />
	</node>
	<node lat="62.589491667345875" lon="11.6899805599151" id="-33575">
		<tag k="name" v="Røstdalen" />
		<tag k="name:no" v="Røstdalen" />
		<tag k="natural" v="valley" />
		<tag k="place" v="locality" />
		<tag k="ssr:stedsnr" v="467591" />
	</node>
	<node lat="62.569277775785295" lon="11.68058888244828" id="-33579">
		<tag k="name" v="Peråsdalen" />
		<tag k="name:no" v="Peråsdalen" />
		<tag k="natural" v="valley" />
		<tag k="place" v="locality" />
		<tag k="ssr:stedsnr" v="467635" />
	</node>
	<node lat="62.641691670152554" lon="11.625138879784089" id="-33582">
		<tag k="name" v="Tjønnbakken" />
		<tag k="name:no" v="Tjønnbakken" />
		<tag k="natural" v="slope" />
		<tag k="place" v="locality" />
		<tag k="ssr:stedsnr" v="467648" />
	</node>
	<node lat="62.63555833787722" lon="11.591538883618801" id="-33583">
		<tag k="name" v="Bakkan" />
		<tag k="name:no" v="Bakkan" />
		<tag k="natural" v="slope" />
		<tag k="place" v="locality" />
		<tag k="ssr:stedsnr" v="467657" />
	</node>
	<node lat="62.55226666933994" lon="11.54086111542033" id="-33584">
		<tag k="fixme" v="consider natural=peak for the most distinct mountains in the district" />
		<tag k="name" v="Raubergåsen" />
		<tag k="name:no" v="Raubergåsen" />
		<tag k="natural" v="hill" />
		<tag k="place" v="locality" />
		<tag k="ssr:stedsnr" v="467827" />
	</node>
	<node lat="62.50555000239926" lon="11.551961116960397" id="-33588">
		<tag k="name" v="Storstenen" />
		<tag k="name:no" v="Storstenen" />
		<tag k="natural" v="hill" />
		<tag k="place" v="locality" />
		<tag k="ssr:stedsnr" v="467879" />
	</node>
	<node lat="62.574663888408935" lon="11.496269445181058" id="-33590">
		<tag k="name" v="Tømmerdalshaugan" />
		<tag k="name:no" v="Tømmerdalshaugan" />
		<tag k="natural" v="hill" />
		<tag k="place" v="locality" />
		<tag k="ssr:stedsnr" v="467847" />
	</node>
	<node lat="62.60355555919062" lon="11.556002784263763" id="-33596">
		<tag k="name" v="Henningåsahaugan" />
		<tag k="name:no" v="Henningåsahaugan" />
		<tag k="natural" v="hill" />
		<tag k="place" v="locality" />
		<tag k="ssr:stedsnr" v="467934" />
	</node>
	<node lat="62.689080555810754" lon="11.508222231643744" id="-33599">
		<tag k="name" v="Pikhaugen" />
		<tag k="name:no" v="Pikhaugen" />
		<tag k="natural" v="hill" />
		<tag k="place" v="locality" />
		<tag k="ssr:stedsnr" v="467949" />
	</node>
	<node lat="62.67161388913257" lon="11.812244443758255" id="-33603">
		<tag k="name" v="Vassdalen" />
		<tag k="name:no" v="Vassdalen" />
		<tag k="natural" v="valley" />
		<tag k="place" v="locality" />
		<tag k="ssr:stedsnr" v="468628" />
	</node>
	<node lat="62.67189444596288" lon="11.804799999151168" id="-33605">
		<tag k="name" v="Selbudalen" />
		<tag k="name:no" v="Selbudalen" />
		<tag k="natural" v="valley" />
		<tag k="place" v="locality" />
		<tag k="ssr:stedsnr" v="468639" />
	</node>
	<node lat="62.69558611068897" lon="11.783241670123612" id="-33608">
		<tag k="name" v="Renhåmmårdalen" />
		<tag k="name:no" v="Renhåmmårdalen" />
		<tag k="natural" v="valley" />
		<tag k="place" v="locality" />
		<tag k="ssr:stedsnr" v="468733" />
	</node>
	<node lat="62.76832499690327" lon="11.842975008977719" id="-33614">
		<tag k="name" v="Iver-Hauaberget" />
		<tag k="name:no" v="Iver-Hauaberget" />
		<tag k="natural" v="hill" />
		<tag k="place" v="locality" />
		<tag k="ssr:stedsnr" v="468798" />
	</node>
	<node lat="62.54331876475302" lon="11.674517558075971" id="-33617">
		<tag k="alt_name:no" v="Ol-Torsaberget" />
		<tag k="name" v="Gråbeinsberget" />
		<tag k="name:no" v="Gråbeinsberget" />
		<tag k="natural" v="hill" />
		<tag k="place" v="locality" />
		<tag k="ssr:stedsnr" v="323816" />
	</node>
	<node lat="62.713097224610074" lon="11.31105000096801" id="-33621">
		<tag k="fixme" v="consider natural=peak for the most distinct mountains in the district" />
		<tag k="name" v="Litlkletten" />
		<tag k="name:no" v="Litlkletten" />
		<tag k="natural" v="hill" />
		<tag k="place" v="locality" />
		<tag k="ssr:stedsnr" v="324827" />
	</node>
	<node lat="62.58645000339348" lon="11.838236109983727" id="-33625">
		<tag k="name" v="Skardklumpen" />
		<tag k="name:no" v="Skardklumpen" />
		<tag k="natural" v="hill" />
		<tag k="place" v="locality" />
		<tag k="ssr:stedsnr" v="341205" />
	</node>
	<node lat="62.51129167011722" lon="11.755502786575567" id="-33628">
		<tag k="fixme" v="consider natural=peak for the most distinct mountains in the district" />
		<tag k="name" v="Pikegga" />
		<tag k="name:no" v="Pikegga" />
		<tag k="natural" v="hill" />
		<tag k="place" v="locality" />
		<tag k="ssr:stedsnr" v="341221" />
	</node>
	<node lat="62.73802221986156" lon="11.915122217698189" id="-33632">
		<tag k="fixme" v="consider natural=peak for the most distinct mountains in the district" />
		<tag k="name" v="Åsen" />
		<tag k="name:no" v="Åsen" />
		<tag k="natural" v="hill" />
		<tag k="place" v="locality" />
		<tag k="ssr:stedsnr" v="345008" />
	</node>
	<node lat="62.592219448719064" lon="11.751655548091092" id="-33642">
		<tag k="name" v="Småberga" />
		<tag k="name:no" v="Småberga" />
		<tag k="natural" v="hill" />
		<tag k="place" v="locality" />
		<tag k="ssr:stedsnr" v="345279" />
	</node>
	<node lat="62.69026111370768" lon="11.655308324254241" id="-33645">
		<tag k="name" v="Torvhaugan" />
		<tag k="name:no" v="Torvhaugan" />
		<tag k="natural" v="hill" />
		<tag k="place" v="locality" />
		<tag k="ssr:stedsnr" v="345312" />
	</node>
	<node lat="62.63530833365206" lon="11.582683339756958" id="-33652">
		<tag k="name" v="Djupdalen" />
		<tag k="name:no" v="Djupdalen" />
		<tag k="natural" v="valley" />
		<tag k="place" v="locality" />
		<tag k="ssr:stedsnr" v="345904" />
	</node>
	<node lat="62.61807221856811" lon="11.442949997437923" id="-33654">
		<tag k="name" v="Høgrabben" />
		<tag k="name:no" v="Høgrabben" />
		<tag k="natural" v="hill" />
		<tag k="place" v="locality" />
		<tag k="ssr:stedsnr" v="346064" />
	</node>
	<node lat="62.6107833323298" lon="11.1846555466822" id="-33656">
		<tag k="name" v="Monsmana" />
		<tag k="name:no" v="Monsmana" />
		<tag k="place" v="locality" />
		<tag k="ssr:stedsnr" v="346311" />
	</node>
	<node lat="62.6839777759944" lon="11.30317778186298" id="-33665">
		<tag k="name" v="Slettbakken" />
		<tag k="name:no" v="Slettbakken" />
		<tag k="natural" v="slope" />
		<tag k="place" v="locality" />
		<tag k="ssr:stedsnr" v="346472" />
	</node>
	<node lat="62.605305554434516" lon="11.60101389627686" id="-33667">
		<tag k="name" v="Gråbenhaugan" />
		<tag k="name:no" v="Gråbenhaugan" />
		<tag k="natural" v="hill" />
		<tag k="place" v="locality" />
		<tag k="ssr:stedsnr" v="346607" />
	</node>
	<node lat="62.80602222565881" lon="11.802608339585957" id="-33671">
		<tag k="name" v="Morten Hansatrøan" />
		<tag k="name:no" v="Morten Hansatrøan" />
		<tag k="place" v="locality" />
		<tag k="ssr:stedsnr" v="346806" />
	</node>
	<node lat="62.602069440327476" lon="11.53208888900708" id="-33677">
		<tag k="name" v="Djupsjølia" />
		<tag k="name:no" v="Djupsjølia" />
		<tag k="natural" v="slope" />
		<tag k="place" v="locality" />
		<tag k="ssr:stedsnr" v="346921" />
	</node>
	<node lat="62.705758336084656" lon="11.927280547918146" id="-33688">
		<tag k="fixme" v="consider natural=peak for the most distinct mountains in the district" />
		<tag k="name" v="Derekshåmmåren" />
		<tag k="name:no" v="Derekshåmmåren" />
		<tag k="natural" v="hill" />
		<tag k="place" v="locality" />
		<tag k="ssr:stedsnr" v="375505" />
	</node>
	<node lat="62.59819166478371" lon="12.053133336470854" id="-33696">
		<tag k="name" v="Gråhøgda" />
		<tag k="name:no" v="Gråhøgda" />
		<tag k="natural" v="hill" />
		<tag k="place" v="locality" />
		<tag k="ssr:stedsnr" v="375629" />
	</node>
	<node lat="62.60290833779644" lon="11.745530555780201" id="-33697">
		<tag k="name" v="Kattlokhaugan" />
		<tag k="name:no" v="Kattlokhaugan" />
		<tag k="natural" v="hill" />
		<tag k="place" v="locality" />
		<tag k="ssr:stedsnr" v="375635" />
	</node>
	<node lat="62.65754379414088" lon="11.72786620808041" id="-33702">
		<tag k="fixme" v="consider natural=peak for the most distinct mountains in the district" />
		<tag k="name" v="Tamnesvola" />
		<tag k="name:no" v="Tamnesvola" />
		<tag k="natural" v="hill" />
		<tag k="place" v="locality" />
		<tag k="ssr:stedsnr" v="375720" />
	</node>
	<node lat="62.61977499990369" lon="11.64611111136011" id="-33707">
		<tag k="name" v="Jensfjellhaugen" />
		<tag k="name:no" v="Jensfjellhaugen" />
		<tag k="natural" v="hill" />
		<tag k="place" v="locality" />
		<tag k="ssr:stedsnr" v="375894" />
	</node>
	<node lat="62.56273611078286" lon="11.731675005631486" id="-33714">
		<tag k="fixme" v="consider natural=peak for the most distinct mountains in the district" />
		<tag k="name" v="Djupskardhøgda" />
		<tag k="name:no" v="Djupskardhøgda" />
		<tag k="natural" v="hill" />
		<tag k="place" v="locality" />
		<tag k="ssr:stedsnr" v="384302" />
	</node>
	<node lat="62.62880832908039" lon="11.379972214597487" id="-33723">
		<tag k="name" v="Sandhaugen" />
		<tag k="name:no" v="Sandhaugen" />
		<tag k="natural" v="hill" />
		<tag k="place" v="locality" />
		<tag k="ssr:stedsnr" v="403109" />
	</node>
	<node lat="62.48299721888328" lon="11.51266388946704" id="-33733">
		<tag k="name" v="Sølbuslettan" />
		<tag k="name:no" v="Sølbuslettan" />
		<tag k="place" v="locality" />
		<tag k="ssr:stedsnr" v="406241" />
	</node>
	<node lat="62.74151666361302" lon="11.40900554573197" id="-33735">
		<tag k="name" v="Overloftet" />
		<tag k="name:no" v="Overloftet" />
		<tag k="natural" v="slope" />
		<tag k="place" v="locality" />
		<tag k="ssr:stedsnr" v="406257" />
	</node>
	<node lat="62.69369721965556" lon="11.961172212351967" id="-33736">
		<tag k="name" v="Benjaminrøsta" />
		<tag k="name:no" v="Benjaminrøsta" />
		<tag k="natural" v="hill" />
		<tag k="place" v="locality" />
		<tag k="ssr:stedsnr" v="406103" />
	</node>
	<node lat="62.6705333306577" lon="11.399963879151455" id="-33737">
		<tag k="name" v="Kroklia" />
		<tag k="name:no" v="Kroklia" />
		<tag k="natural" v="slope" />
		<tag k="place" v="locality" />
		<tag k="ssr:stedsnr" v="406193" />
	</node>
	<node lat="62.59095277909598" lon="11.824041667433695" id="-33739">
		<tag k="name" v="Roligdalen" />
		<tag k="name:no" v="Roligdalen" />
		<tag k="natural" v="valley" />
		<tag k="place" v="locality" />
		<tag k="ssr:stedsnr" v="406302" />
	</node>
	<node lat="62.61504444134381" lon="11.750791667115314" id="-33740">
		<tag k="name" v="Langkåshaugan" />
		<tag k="name:no" v="Langkåshaugan" />
		<tag k="natural" v="hill" />
		<tag k="place" v="locality" />
		<tag k="ssr:stedsnr" v="406312" />
	</node>
	<node lat="62.587286114806226" lon="11.744013881397304" id="-33746">
		<tag k="name" v="Laurastenan" />
		<tag k="name:no" v="Laurastenan" />
		<tag k="natural" v="hill" />
		<tag k="place" v="locality" />
		<tag k="ssr:stedsnr" v="406293" />
	</node>
	<node lat="62.57909166891386" lon="11.868391670460383" id="-33747">
		<tag k="fixme" v="consider natural=peak for the most distinct mountains in the district" />
		<tag k="name" v="Svartåsen" />
		<tag k="name:no" v="Svartåsen" />
		<tag k="natural" v="hill" />
		<tag k="place" v="locality" />
		<tag k="ssr:stedsnr" v="406456" />
	</node>
	<node lat="62.69913610825837" lon="11.580513886836354" id="-33753">
		<tag k="name" v="Langbakken" />
		<tag k="name:no" v="Langbakken" />
		<tag k="natural" v="slope" />
		<tag k="place" v="locality" />
		<tag k="ssr:stedsnr" v="406570" />
	</node>
	<node lat="62.669963884487586" lon="11.598383336388567" id="-33754">
		<tag k="fixme" v="consider natural=peak for the most distinct mountains in the district" />
		<tag k="name" v="Heggkåsa" />
		<tag k="name:no" v="Heggkåsa" />
		<tag k="natural" v="hill" />
		<tag k="place" v="locality" />
		<tag k="ssr:stedsnr" v="406706" />
	</node>
	<node lat="62.66710277676875" lon="11.593947224493895" id="-33755">
		<tag k="name" v="Svarthåmmåren" />
		<tag k="name:no" v="Svarthåmmåren" />
		<tag k="natural" v="hill" />
		<tag k="place" v="locality" />
		<tag k="ssr:stedsnr" v="406708" />
	</node>
	<node lat="62.68478610856111" lon="11.634769436396152" id="-33756">
		<tag k="name" v="Langegga" />
		<tag k="name:no" v="Langegga" />
		<tag k="natural" v="ridge" />
		<tag k="place" v="locality" />
		<tag k="ssr:stedsnr" v="406710" />
	</node>
	<node lat="62.66631389238746" lon="11.59382778689681" id="-33757">
		<tag k="name" v="Kløfta" />
		<tag k="name:no" v="Kløfta" />
		<tag k="natural" v="valley" />
		<tag k="place" v="locality" />
		<tag k="ssr:stedsnr" v="406701" />
	</node>
	<node lat="62.61585555729058" lon="11.46184999566363" id="-33763">
		<tag k="name" v="Langberget" />
		<tag k="name:no" v="Langberget" />
		<tag k="natural" v="hill" />
		<tag k="place" v="locality" />
		<tag k="ssr:stedsnr" v="407096" />
	</node>
	<node lat="62.587622224396526" lon="11.222288893988758" id="-33766">
		<tag k="name" v="Brannomshøgda" />
		<tag k="name:no" v="Brannomshøgda" />
		<tag k="natural" v="hill" />
		<tag k="place" v="locality" />
		<tag k="ssr:stedsnr" v="407410" />
	</node>
	<node lat="62.598461113052096" lon="11.320447222305054" id="-33769">
		<tag k="name" v="Røbrubakkan" />
		<tag k="name:no" v="Røbrubakkan" />
		<tag k="natural" v="slope" />
		<tag k="place" v="locality" />
		<tag k="ssr:stedsnr" v="407424" />
	</node>
	<node lat="62.79253889166775" lon="11.849088894442746" id="-33777">
		<tag k="fixme" v="consider natural=peak for the most distinct mountains in the district" />
		<tag k="name" v="Åsen" />
		<tag k="name:no" v="Åsen" />
		<tag k="natural" v="hill" />
		<tag k="place" v="locality" />
		<tag k="ssr:stedsnr" v="407645" />
	</node>
	<node lat="62.750752776436016" lon="11.847669439246781" id="-33779">
		<tag k="fixme" v="consider natural=peak for the most distinct mountains in the district" />
		<tag k="name" v="Inneråsen" />
		<tag k="name:no" v="Inneråsen" />
		<tag k="natural" v="hill" />
		<tag k="place" v="locality" />
		<tag k="ssr:stedsnr" v="407653" />
	</node>
	<node lat="62.7472194446152" lon="11.79704999809604" id="-33784">
		<tag k="name" v="Finnkneppen" />
		<tag k="name:no" v="Finnkneppen" />
		<tag k="natural" v="hill" />
		<tag k="place" v="locality" />
		<tag k="ssr:stedsnr" v="407592" />
	</node>
	<node lat="62.64227499845277" lon="11.649799992384109" id="-33786">
		<tag k="name" v="Lang-Anders-haugen" />
		<tag k="name:no" v="Lang-Anders-haugen" />
		<tag k="natural" v="hill" />
		<tag k="place" v="locality" />
		<tag k="ssr:stedsnr" v="407705" />
	</node>
	<node lat="62.63649444046741" lon="11.649991661020197" id="-33787">
		<tag k="name" v="Gråvvåen" />
		<tag k="name:no" v="Gråvvåen" />
		<tag k="natural" v="slope" />
		<tag k="place" v="locality" />
		<tag k="ssr:stedsnr" v="407707" />
	</node>
	<node lat="62.70022222022002" lon="11.84610000360785" id="-33789">
		<tag k="name" v="Storhaugen" />
		<tag k="name:no" v="Storhaugen" />
		<tag k="natural" v="hill" />
		<tag k="place" v="locality" />
		<tag k="ssr:stedsnr" v="407845" />
	</node>
	<node lat="62.61095833139924" lon="11.5556444350114" id="-33790">
		<tag k="name" v="Marithaugen" />
		<tag k="name:no" v="Marithaugen" />
		<tag k="natural" v="hill" />
		<tag k="place" v="locality" />
		<tag k="ssr:stedsnr" v="407890" />
	</node>
	<node lat="62.72011531910974" lon="11.912025762701706" id="-33799">
		<tag k="name" v="Støveldalen" />
		<tag k="name:no" v="Støveldalen" />
		<tag k="natural" v="valley" />
		<tag k="place" v="locality" />
		<tag k="ssr:stedsnr" v="436515" />
	</node>
	<node lat="62.67877499987388" lon="11.996650000135894" id="-33804">
		<tag k="fixme" v="consider natural=peak for the most distinct mountains in the district" />
		<tag k="name" v="Kvitmannen" />
		<tag k="name:no" v="Kvitmannen" />
		<tag k="natural" v="hill" />
		<tag k="place" v="locality" />
		<tag k="ssr:stedsnr" v="436670" />
	</node>
	<node lat="62.74951666571134" lon="11.969563893609074" id="-33811">
		<tag k="name" v="Røsjøhøgda" />
		<tag k="name:no" v="Røsjøhøgda" />
		<tag k="natural" v="hill" />
		<tag k="place" v="locality" />
		<tag k="ssr:stedsnr" v="437520" />
	</node>
	<node lat="62.49286110877175" lon="11.99179999936844" id="-33813">
		<tag k="name" v="Ljøsnådalen" />
		<tag k="name:no" v="Ljøsnådalen" />
		<tag k="natural" v="valley" />
		<tag k="place" v="locality" />
		<tag k="ssr:stedsnr" v="437564" />
	</node>
	<node lat="62.54867222093689" lon="11.669408332834857" id="-33825">
		<tag k="name" v="Litl-Ol-Torsaberget" />
		<tag k="name:no" v="Litl-Ol-Torsaberget" />
		<tag k="natural" v="hill" />
		<tag k="place" v="locality" />
		<tag k="ssr:stedsnr" v="444802" />
	</node>
	<node lat="62.57444444237814" lon="11.316738898120095" id="-33826">
		<tag k="name" v="Skårhåmmårdalen" />
		<tag k="name:no" v="Skårhåmmårdalen" />
		<tag k="natural" v="valley" />
		<tag k="place" v="locality" />
		<tag k="ssr:stedsnr" v="444778" />
	</node>
	<node lat="62.74534166280439" lon="11.937333331190253" id="-33836">
		<tag k="name" v="Langberga" />
		<tag k="name:no" v="Langberga" />
		<tag k="natural" v="hill" />
		<tag k="place" v="locality" />
		<tag k="ssr:stedsnr" v="467023" />
	</node>
	<node lat="62.596425002426344" lon="11.426091664382097" id="-33838">
		<tag k="name" v="Kattuglhaugen" />
		<tag k="name:no" v="Kattuglhaugen" />
		<tag k="natural" v="hill" />
		<tag k="place" v="locality" />
		<tag k="ssr:stedsnr" v="467081" />
	</node>
	<node lat="62.73027777691345" lon="11.937066675561312" id="-33839">
		<tag k="name" v="Klumpan" />
		<tag k="name:no" v="Klumpan" />
		<tag k="natural" v="hill" />
		<tag k="place" v="locality" />
		<tag k="ssr:stedsnr" v="467106" />
	</node>
	<node lat="62.592508336402" lon="11.722022221480456" id="-33842">
		<tag k="name" v="Abelkåsa" />
		<tag k="name:no" v="Abelkåsa" />
		<tag k="natural" v="slope" />
		<tag k="place" v="locality" />
		<tag k="ssr:stedsnr" v="467277" />
	</node>
	<node lat="62.607505557484195" lon="11.32631389442493" id="-33846">
		<tag k="name" v="Gjetberget" />
		<tag k="name:no" v="Gjetberget" />
		<tag k="natural" v="hill" />
		<tag k="place" v="locality" />
		<tag k="ssr:stedsnr" v="467408" />
	</node>
	<node lat="62.46331944336303" lon="11.912077784446625" id="-33847">
		<tag k="name" v="Stallbakken" />
		<tag k="name:no" v="Stallbakken" />
		<tag k="natural" v="slope" />
		<tag k="place" v="locality" />
		<tag k="ssr:stedsnr" v="467409" />
	</node>
	<node lat="62.568813893315145" lon="11.88168888977432" id="-33848">
		<tag k="name" v="Brannegga" />
		<tag k="name:no" v="Brannegga" />
		<tag k="natural" v="hill" />
		<tag k="place" v="locality" />
		<tag k="ssr:stedsnr" v="467424" />
	</node>
	<node lat="62.55444444757774" lon="11.887777769666068" id="-33849">
		<tag k="name" v="Storvikhaugen" />
		<tag k="name:no" v="Storvikhaugen" />
		<tag k="natural" v="hill" />
		<tag k="place" v="locality" />
		<tag k="ssr:stedsnr" v="467425" />
	</node>
	<node lat="62.580674996164376" lon="11.696191666041052" id="-33859">
		<tag k="name" v="Varden" />
		<tag k="name:no" v="Varden" />
		<tag k="natural" v="hill" />
		<tag k="place" v="locality" />
		<tag k="ssr:stedsnr" v="467521" />
	</node>
	<node lat="62.55769167005023" lon="11.710780562558542" id="-33860">
		<tag k="fixme" v="consider natural=peak for the most distinct mountains in the district" />
		<tag k="name" v="Bogen" />
		<tag k="name:no" v="Bogen" />
		<tag k="natural" v="hill" />
		<tag k="place" v="locality" />
		<tag k="ssr:stedsnr" v="467525" />
	</node>
	<node lat="62.73049722527375" lon="11.494991674150747" id="-33862">
		<tag k="name" v="Stormolingdalen" />
		<tag k="name:no" v="Stormolingdalen" />
		<tag k="natural" v="valley" />
		<tag k="old_name:no" v="Stor-Molingdalen" />
		<tag k="place" v="locality" />
		<tag k="ssr:stedsnr" v="467562" />
	</node>
	<node lat="62.59803611261271" lon="11.700011108975186" id="-33864">
		<tag k="name" v="Kvernmoen" />
		<tag k="name:no" v="Kvernmoen" />
		<tag k="place" v="locality" />
		<tag k="ssr:stedsnr" v="467605" />
	</node>
	<node lat="62.61288055569196" lon="11.630280547195275" id="-33872">
		<tag k="name" v="Bjørnhaugen" />
		<tag k="name:no" v="Bjørnhaugen" />
		<tag k="natural" v="hill" />
		<tag k="place" v="locality" />
		<tag k="ssr:stedsnr" v="467680" />
	</node>
	<node lat="62.44154166300205" lon="11.494722228373456" id="-33873">
		<tag k="name" v="Korssjøkjerka" />
		<tag k="name:no" v="Korssjøkjerka" />
		<tag k="natural" v="hill" />
		<tag k="place" v="locality" />
		<tag k="ssr:stedsnr" v="467805" />
	</node>
	<node lat="62.462616670090746" lon="11.536602777779" id="-33877">
		<tag k="fixme" v="consider natural=peak for the most distinct mountains in the district" />
		<tag k="name" v="Kvernbekkrabben" />
		<tag k="name:no" v="Kvernbekkrabben" />
		<tag k="natural" v="hill" />
		<tag k="place" v="locality" />
		<tag k="ssr:stedsnr" v="467818" />
	</node>
	<node lat="62.465200002546005" lon="11.548863881717123" id="-33878">
		<tag k="name" v="Korssjøslettan" />
		<tag k="name:no" v="Korssjøslettan" />
		<tag k="place" v="locality" />
		<tag k="ssr:stedsnr" v="467823" />
	</node>
	<node lat="62.692086109143325" lon="11.709622224631422" id="-33881">
		<tag k="name" v="Gråbenholet" />
		<tag k="name:no" v="Gråbenholet" />
		<tag k="natural" v="valley" />
		<tag k="place" v="locality" />
		<tag k="ssr:stedsnr" v="467718" />
	</node>
	<node lat="62.517386111488236" lon="11.581452776920143" id="-33886">
		<tag k="name" v="Rabben" />
		<tag k="name:no" v="Rabben" />
		<tag k="natural" v="hill" />
		<tag k="place" v="locality" />
		<tag k="ssr:stedsnr" v="467776" />
	</node>
	<node lat="62.58475277491646" lon="11.48110000127729" id="-33888">
		<tag k="name" v="Kolbenthaugan" />
		<tag k="name:no" v="Kolbenthaugan" />
		<tag k="natural" v="hill" />
		<tag k="place" v="locality" />
		<tag k="ssr:stedsnr" v="467913" />
	</node>
	<node lat="62.56967222473815" lon="11.55771666629496" id="-33892">
		<tag k="name" v="Rabban" />
		<tag k="name:no" v="Rabban" />
		<tag k="natural" v="slope" />
		<tag k="place" v="locality" />
		<tag k="ssr:stedsnr" v="467861" />
	</node>
	<node lat="62.68920277392304" lon="11.719211111097307" id="-33893">
		<tag k="name" v="Storhaugen" />
		<tag k="name:no" v="Storhaugen" />
		<tag k="natural" v="hill" />
		<tag k="place" v="locality" />
		<tag k="ssr:stedsnr" v="468606" />
	</node>
	<node lat="62.78405278020489" lon="11.80526945291521" id="-33899">
		<tag k="name" v="Kolbrennslætta" />
		<tag k="name:no" v="Kolbrennslætta" />
		<tag k="place" v="locality" />
		<tag k="ssr:stedsnr" v="468805" />
	</node>
	<node lat="62.657422220181104" lon="11.282158340756338" id="-33906">
		<tag k="name" v="Brannomshøgda" />
		<tag k="name:no" v="Brannomshøgda" />
		<tag k="natural" v="hill" />
		<tag k="place" v="locality" />
		<tag k="ssr:stedsnr" v="678999" />
	</node>
	<node lat="62.56238469686713" lon="11.846386229720338" id="-33909">
		<tag k="name" v="Middagshaugen" />
		<tag k="name:no" v="Middagshaugen" />
		<tag k="natural" v="hill" />
		<tag k="place" v="locality" />
		<tag k="ssr:stedsnr" v="679248" />
	</node>
	<node lat="62.55786666622779" lon="11.792350007017124" id="-33910">
		<tag k="fixme" v="consider natural=peak for the most distinct mountains in the district" />
		<tag k="name" v="Feragsfjellet" />
		<tag k="name:no" v="Feragsfjellet" />
		<tag k="natural" v="hill" />
		<tag k="place" v="locality" />
		<tag k="ssr:stedsnr" v="679250" />
	</node>
	<node lat="62.5518861092304" lon="12.027872227106412" id="-33912">
		<tag k="name" v="Viglen" />
		<tag k="name:no" v="Viglen" />
		<tag k="natural" v="mountain_range" />
		<tag k="ssr:stedsnr" v="679265" />
	</node>
	<node lat="62.432975003657226" lon="11.882738890683587" id="-33913">
		<tag k="alt_name:no" v="Søre Berget;Synnerberget" />
		<tag k="name" v="Synner Berget" />
		<tag k="name:no" v="Synner Berget" />
		<tag k="natural" v="hill" />
		<tag k="old_name:no" v="Sørberget" />
		<tag k="place" v="locality" />
		<tag k="ssr:stedsnr" v="485018" />
	</node>
	<node lat="62.76758659974843" lon="12.06902578840535" id="-33931">
		<tag k="fixme" v="consider natural=peak for the most distinct mountains in the district" />
		<tag k="name" v="Biernevæjra - Bjørnhåmmåren" />
		<tag k="name:no" v="Bjørnhåmmåren" />
		<tag k="name:sma" v="Biernevæjra" />
		<tag k="natural" v="hill" />
		<tag k="place" v="locality" />
		<tag k="ssr:stedsnr" v="679823" />
	</node>
	<node lat="62.7862512734956" lon="11.919095919507223" id="-33935">
		<tag k="fixme" v="consider natural=peak for the most distinct mountains in the district" />
		<tag k="name" v="Rihkedgåetietjahke - Knuglan" />
		<tag k="name:no" v="Knuglan" />
		<tag k="name:sma" v="Rihkedgåetietjahke" />
		<tag k="natural" v="hill" />
		<tag k="place" v="locality" />
		<tag k="ssr:stedsnr" v="679788" />
	</node>
	<node lat="62.76483055145613" lon="11.694133326185987" id="-33943">
		<tag k="name" v="Sødalen" />
		<tag k="name:no" v="Sødalen" />
		<tag k="natural" v="valley" />
		<tag k="place" v="locality" />
		<tag k="ssr:stedsnr" v="679929" />
	</node>
	<node lat="62.75079166904951" lon="11.683019452509608" id="-33947">
		<tag k="fixme" v="consider natural=peak for the most distinct mountains in the district" />
		<tag k="name" v="Busjøskarven" />
		<tag k="name:no" v="Busjøskarven" />
		<tag k="natural" v="hill" />
		<tag k="place" v="locality" />
		<tag k="ssr:stedsnr" v="679958" />
	</node>
	<node lat="62.71057499592422" lon="12.01585555722484" id="-33954">
		<tag k="fixme" v="consider natural=peak for the most distinct mountains in the district" />
		<tag k="name" v="Gråtangen" />
		<tag k="name:no" v="Gråtangen" />
		<tag k="natural" v="hill" />
		<tag k="place" v="locality" />
		<tag k="ssr:stedsnr" v="496562" />
	</node>
	<node lat="62.62939721900805" lon="11.623208336920476" id="-33958">
		<tag k="name" v="Svartholhøgda" />
		<tag k="name:no" v="Svartholhøgda" />
		<tag k="natural" v="hill" />
		<tag k="place" v="locality" />
		<tag k="ssr:stedsnr" v="496869" />
	</node>
	<node lat="62.6663111067035" lon="11.595108337691855" id="-33961">
		<tag k="fixme" v="consider natural=peak for the most distinct mountains in the district" />
		<tag k="name" v="Svarthåmmåren" />
		<tag k="name:no" v="Svarthåmmåren" />
		<tag k="natural" v="hill" />
		<tag k="place" v="locality" />
		<tag k="ssr:stedsnr" v="496995" />
	</node>
	<node lat="62.53870555420436" lon="12.060263884505007" id="-33963">
		<tag k="fixme" v="consider natural=peak for the most distinct mountains in the district" />
		<tag k="name" v="Storviglen" />
		<tag k="name:no" v="Storviglen" />
		<tag k="natural" v="hill" />
		<tag k="place" v="locality" />
		<tag k="ssr:stedsnr" v="497293" />
	</node>
	<node lat="62.54285000050563" lon="12.014480549264395" id="-33964">
		<tag k="name" v="Støvelbekkhøgda" />
		<tag k="name:no" v="Støvelbekkhøgda" />
		<tag k="natural" v="hill" />
		<tag k="place" v="locality" />
		<tag k="ssr:stedsnr" v="497301" />
	</node>
	<node lat="62.73063888973223" lon="11.758333341538542" id="-33971">
		<tag k="name" v="Brattfonna" />
		<tag k="name:no" v="Brattfonna" />
		<tag k="natural" v="slope" />
		<tag k="place" v="locality" />
		<tag k="ssr:stedsnr" v="497527" />
	</node>
	<node lat="62.51307499759045" lon="11.61085555200717" id="-33973">
		<tag k="name" v="Skjevhøgda" />
		<tag k="name:no" v="Skjevhøgda" />
		<tag k="natural" v="hill" />
		<tag k="place" v="locality" />
		<tag k="ssr:stedsnr" v="497501" />
	</node>
	<node lat="62.61382499907323" lon="11.91490000373706" id="-33977">
		<tag k="fixme" v="consider natural=peak for the most distinct mountains in the district" />
		<tag k="name" v="Viglskaftet" />
		<tag k="name:no" v="Viglskaftet" />
		<tag k="natural" v="hill" />
		<tag k="place" v="locality" />
		<tag k="ssr:stedsnr" v="497656" />
	</node>
	<node lat="62.72392499692823" lon="11.679874994538622" id="-33989">
		<tag k="name" v="Råtangen" />
		<tag k="name:no" v="Råtangen" />
		<tag k="natural" v="mountain_range" />
		<tag k="ssr:stedsnr" v="497804" />
	</node>
	<node lat="62.65845555276084" lon="11.535750006785799" id="-33990">
		<tag k="name" v="Engfløttdalen" />
		<tag k="name:no" v="Engfløttdalen" />
		<tag k="natural" v="valley" />
		<tag k="place" v="locality" />
		<tag k="ssr:stedsnr" v="506807" />
	</node>
	<node lat="62.727180558660166" lon="11.384733341479992" id="-33992">
		<tag k="name" v="Torbertjønnhøgda" />
		<tag k="name:no" v="Torbertjønnhøgda" />
		<tag k="natural" v="hill" />
		<tag k="place" v="locality" />
		<tag k="ssr:stedsnr" v="506820" />
	</node>
	<node lat="62.72106389035062" lon="11.503588894938211" id="-33993">
		<tag k="fixme" v="consider natural=peak for the most distinct mountains in the district" />
		<tag k="name" v="Grønåsen" />
		<tag k="name:no" v="Grønåsen" />
		<tag k="natural" v="hill" />
		<tag k="place" v="locality" />
		<tag k="ssr:stedsnr" v="506821" />
	</node>
	<node lat="62.631211109172135" lon="11.490000000970948" id="-33994">
		<tag k="name" v="Kvitstenshøgda" />
		<tag k="name:no" v="Kvitstenshøgda" />
		<tag k="natural" v="hill" />
		<tag k="place" v="locality" />
		<tag k="ssr:stedsnr" v="506827" />
	</node>
	<node lat="62.64139722410476" lon="11.352525008097187" id="-34002">
		<tag k="name" v="Rokkholet" />
		<tag k="name:no" v="Rokkholet" />
		<tag k="natural" v="valley" />
		<tag k="place" v="locality" />
		<tag k="ssr:stedsnr" v="524110" />
	</node>
	<node lat="62.70405555324507" lon="11.416108324817017" id="-34004">
		<tag k="name" v="Brenthøgda" />
		<tag k="name:no" v="Brenthøgda" />
		<tag k="natural" v="hill" />
		<tag k="place" v="locality" />
		<tag k="ssr:stedsnr" v="524171" />
	</node>
	<node lat="62.63016666658642" lon="11.66516943772624" id="-34005">
		<tag k="fixme" v="consider natural=peak for the most distinct mountains in the district" />
		<tag k="name" v="Brattåsen" />
		<tag k="name:no" v="Brattåsen" />
		<tag k="natural" v="hill" />
		<tag k="place" v="locality" />
		<tag k="ssr:stedsnr" v="524714" />
	</node>
	<node lat="62.73576666637991" lon="11.91309443930475" id="-34008">
		<tag k="name" v="Gammelbua" />
		<tag k="name:no" v="Gammelbua" />
		<tag k="natural" v="valley" />
		<tag k="place" v="locality" />
		<tag k="ssr:stedsnr" v="527009" />
	</node>
	<node lat="62.760886107774795" lon="11.92219444803259" id="-34009">
		<tag k="name" v="Langhaugen" />
		<tag k="name:no" v="Langhaugen" />
		<tag k="natural" v="hill" />
		<tag k="place" v="locality" />
		<tag k="ssr:stedsnr" v="527015" />
	</node>
	<node lat="62.694825003730244" lon="11.69533610317191" id="-34015">
		<tag k="fixme" v="consider natural=peak for the most distinct mountains in the district" />
		<tag k="name" v="Kløftkåsa" />
		<tag k="name:no" v="Kløftkåsa" />
		<tag k="natural" v="hill" />
		<tag k="place" v="locality" />
		<tag k="ssr:stedsnr" v="527348" />
	</node>
	<node lat="62.65160277920012" lon="11.592888895601869" id="-34017">
		<tag k="name" v="Karhaugen" />
		<tag k="name:no" v="Karhaugen" />
		<tag k="natural" v="hill" />
		<tag k="place" v="locality" />
		<tag k="ssr:stedsnr" v="527717" />
	</node>
	<node lat="62.68383333088304" lon="11.639152775841914" id="-34019">
		<tag k="name" v="Litlhaugbakkan" />
		<tag k="name:no" v="Litlhaugbakkan" />
		<tag k="natural" v="slope" />
		<tag k="place" v="locality" />
		<tag k="ssr:stedsnr" v="527722" />
	</node>
	<node lat="62.68077222453193" lon="11.636616665998224" id="-34020">
		<tag k="name" v="Litlhaugslætta" />
		<tag k="name:no" v="Litlhaugslætta" />
		<tag k="place" v="locality" />
		<tag k="ssr:stedsnr" v="527689" />
	</node>
	<node lat="62.60898889270963" lon="11.394858329947933" id="-34023">
		<tag k="name" v="Langmyrdalen" />
		<tag k="name:no" v="Langmyrdalen" />
		<tag k="natural" v="valley" />
		<tag k="place" v="locality" />
		<tag k="ssr:stedsnr" v="528045" />
	</node>
	<node lat="62.62916111110877" lon="11.448188879220096" id="-34025">
		<tag k="name" v="Erlebakken" />
		<tag k="name:no" v="Erlebakken" />
		<tag k="natural" v="slope" />
		<tag k="place" v="locality" />
		<tag k="ssr:stedsnr" v="528076" />
	</node>
	<node lat="62.59228888895144" lon="11.739786112281564" id="-34033">
		<tag k="name" v="Grøndalen" />
		<tag k="name:no" v="Grøndalen" />
		<tag k="natural" v="valley" />
		<tag k="place" v="locality" />
		<tag k="ssr:stedsnr" v="528306" />
	</node>
	<node lat="62.590144443017635" lon="11.749522215241534" id="-34034">
		<tag k="name" v="Stenkista" />
		<tag k="name:no" v="Stenkista" />
		<tag k="natural" v="hill" />
		<tag k="place" v="locality" />
		<tag k="ssr:stedsnr" v="528309" />
	</node>
	<node lat="62.63313055943181" lon="12.028155550531416" id="-34035">
		<tag k="name" v="Langegga" />
		<tag k="name:no" v="Langegga" />
		<tag k="natural" v="ridge" />
		<tag k="place" v="locality" />
		<tag k="ssr:stedsnr" v="528314" />
	</node>
	<node lat="62.57323889133626" lon="11.241647219682745" id="-34043">
		<tag k="name" v="Oppstusletta" />
		<tag k="name:no" v="Oppstusletta" />
		<tag k="place" v="locality" />
		<tag k="ssr:stedsnr" v="528402" />
	</node>
	<node lat="62.66002500415527" lon="11.304502782531092" id="-34045">
		<tag k="fixme" v="consider natural=peak for the most distinct mountains in the district" />
		<tag k="name" v="Gosshåmmårhøgda" />
		<tag k="name:no" v="Gosshåmmårhøgda" />
		<tag k="natural" v="hill" />
		<tag k="place" v="locality" />
		<tag k="ssr:stedsnr" v="528477" />
	</node>
	<node lat="62.584144445385924" lon="11.627224998704587" id="-34049">
		<tag k="name" v="Bekkedalhaugan" />
		<tag k="name:no" v="Bekkedalhaugan" />
		<tag k="natural" v="hill" />
		<tag k="place" v="locality" />
		<tag k="ssr:stedsnr" v="528632" />
	</node>
	<node lat="62.62129166778669" lon="11.659958336529089" id="-34050">
		<tag k="name" v="Stormyrhøgda" />
		<tag k="name:no" v="Stormyrhøgda" />
		<tag k="natural" v="hill" />
		<tag k="place" v="locality" />
		<tag k="ssr:stedsnr" v="528672" />
	</node>
	<node lat="62.54594166574894" lon="11.580838879315314" id="-34055">
		<tag k="name" v="Litlkletten" />
		<tag k="name:no" v="Litlkletten" />
		<tag k="natural" v="hill" />
		<tag k="place" v="locality" />
		<tag k="ssr:stedsnr" v="528822" />
	</node>
	<node lat="62.47527500028418" lon="11.70008333541792" id="-34058">
		<tag k="name" v="Evjemoen" />
		<tag k="name:no" v="Evjemoen" />
		<tag k="place" v="locality" />
		<tag k="ssr:stedsnr" v="528573" />
	</node>
	<node lat="62.70853889312187" lon="11.53687777759262" id="-34060">
		<tag k="name" v="Djupskorra" />
		<tag k="name:no" v="Djupskorra" />
		<tag k="natural" v="valley" />
		<tag k="place" v="locality" />
		<tag k="ssr:stedsnr" v="528581" />
	</node>
	<node lat="62.71015000089614" lon="11.587127787160476" id="-34061">
		<tag k="name" v="Stokkøya" />
		<tag k="name:no" v="Stokkøya" />
		<tag k="place" v="locality" />
		<tag k="ssr:stedsnr" v="528584" />
	</node>
	<node lat="62.457152778328464" lon="11.501636114436286" id="-34065">
		<tag k="fixme" v="consider natural=peak for the most distinct mountains in the district" />
		<tag k="name" v="Sandvikåsen" />
		<tag k="name:no" v="Sandvikåsen" />
		<tag k="natural" v="hill" />
		<tag k="place" v="locality" />
		<tag k="ssr:stedsnr" v="528785" />
	</node>
	<node lat="62.645586107454285" lon="11.555447215934548" id="-34069">
		<tag k="name" v="Middagshaugan" />
		<tag k="name:no" v="Middagshaugan" />
		<tag k="natural" v="hill" />
		<tag k="place" v="locality" />
		<tag k="ssr:stedsnr" v="528983" />
	</node>
	<node lat="62.65241388553114" lon="11.579161117376977" id="-34070">
		<tag k="name" v="Småkollbrottet" />
		<tag k="name:no" v="Småkollbrottet" />
		<tag k="natural" v="slope" />
		<tag k="place" v="locality" />
		<tag k="ssr:stedsnr" v="528989" />
	</node>
	<node lat="62.65196111307334" lon="11.551863881108858" id="-34071">
		<tag k="name" v="Odden" />
		<tag k="name:no" v="Odden" />
		<tag k="place" v="locality" />
		<tag k="ssr:stedsnr" v="528993" />
	</node>
	<node lat="62.69791388974802" lon="11.827024995427141" id="-34073">
		<tag k="name" v="Korsmyrhaugen" />
		<tag k="name:no" v="Korsmyrhaugen" />
		<tag k="natural" v="hill" />
		<tag k="place" v="locality" />
		<tag k="ssr:stedsnr" v="529803" />
	</node>
	<node lat="62.78163055372912" lon="11.837447220574429" id="-34077">
		<tag k="name" v="Skarvmyrhaugen" />
		<tag k="name:no" v="Skarvmyrhaugen" />
		<tag k="natural" v="hill" />
		<tag k="place" v="locality" />
		<tag k="ssr:stedsnr" v="529845" />
	</node>
	<node lat="62.718597223061806" lon="11.493936105274294" id="-34080">
		<tag k="fixme" v="consider natural=peak for the most distinct mountains in the district" />
		<tag k="name" v="Midtåsen" />
		<tag k="name:no" v="Midtåsen" />
		<tag k="natural" v="hill" />
		<tag k="place" v="locality" />
		<tag k="ssr:stedsnr" v="710569" />
	</node>
	<node lat="62.514952780308434" lon="11.337474990862463" id="-34084">
		<tag k="fixme" v="consider natural=peak for the most distinct mountains in the district" />
		<tag k="name" v="Høsfjellet" />
		<tag k="name:no" v="Høsfjellet" />
		<tag k="natural" v="hill" />
		<tag k="place" v="locality" />
		<tag k="ssr:stedsnr" v="687802" />
	</node>
	<node lat="62.72720277645699" lon="11.866094440417347" id="-34086">
		<tag k="name" v="Finnskjeggrya" />
		<tag k="name:no" v="Finnskjeggrya" />
		<tag k="natural" v="hill" />
		<tag k="place" v="locality" />
		<tag k="ssr:stedsnr" v="710645" />
	</node>
	<node lat="62.51092778180181" lon="11.761586115562432" id="-34089">
		<tag k="fixme" v="consider natural=peak for the most distinct mountains in the district" />
		<tag k="name" v="Pikegga" />
		<tag k="name:no" v="Pikegga" />
		<tag k="natural" v="hill" />
		<tag k="place" v="locality" />
		<tag k="ssr:stedsnr" v="557249" />
	</node>
	<node lat="62.584524997914706" lon="11.278197216072957" id="-34093">
		<tag k="fixme" v="consider natural=peak for the most distinct mountains in the district" />
		<tag k="name" v="Litlfjellet" />
		<tag k="name:no" v="Litlfjellet" />
		<tag k="natural" v="hill" />
		<tag k="place" v="locality" />
		<tag k="ssr:stedsnr" v="557546" />
	</node>
	<node lat="62.40078611210267" lon="12.113433324225639" id="-34095">
		<tag k="fixme" v="consider natural=peak for the most distinct mountains in the district" />
		<tag k="name" v="Gråvola" />
		<tag k="name:no" v="Gråvola" />
		<tag k="natural" v="hill" />
		<tag k="place" v="locality" />
		<tag k="ssr:stedsnr" v="557561" />
	</node>
	<node lat="62.58869166611634" lon="11.232666668592" id="-34115">
		<tag k="name" v="Skitlighåmmåran" />
		<tag k="name:no" v="Skitlighåmmåran" />
		<tag k="natural" v="hill" />
		<tag k="place" v="locality" />
		<tag k="ssr:stedsnr" v="557908" />
	</node>
	<node lat="62.69531388860647" lon="11.614288887147774" id="-34117">
		<tag k="name" v="Høgvollia" />
		<tag k="name:no" v="Høgvollia" />
		<tag k="natural" v="slope" />
		<tag k="place" v="locality" />
		<tag k="ssr:stedsnr" v="557959" />
	</node>
	<node lat="62.73207375543402" lon="11.389162995005508" id="-34123">
		<tag k="name" v="Søvola" />
		<tag k="name:no" v="Søvola" />
		<tag k="natural" v="hill" />
		<tag k="place" v="locality" />
		<tag k="ssr:stedsnr" v="688827" />
	</node>
	<node lat="62.535958331495465" lon="11.81692778292978" id="-34129">
		<tag k="name" v="Kasshøgda" />
		<tag k="name:no" v="Kasshøgda" />
		<tag k="natural" v="hill" />
		<tag k="place" v="locality" />
		<tag k="ssr:stedsnr" v="566303" />
	</node>
	<node lat="62.64168333310766" lon="11.394936115077204" id="-34138">
		<tag k="name" v="Langmyrdalen" />
		<tag k="name:no" v="Langmyrdalen" />
		<tag k="natural" v="valley" />
		<tag k="place" v="locality" />
		<tag k="ssr:stedsnr" v="584101" />
	</node>
	<node lat="62.68977777587583" lon="11.673572212763405" id="-34151">
		<tag k="name" v="Høghaugen" />
		<tag k="name:no" v="Høghaugen" />
		<tag k="natural" v="hill" />
		<tag k="place" v="locality" />
		<tag k="ssr:stedsnr" v="588316" />
	</node>
	<node lat="62.704299999664016" lon="11.68883055008579" id="-34154">
		<tag k="name" v="Langmyrhøgda" />
		<tag k="name:no" v="Langmyrhøgda" />
		<tag k="natural" v="hill" />
		<tag k="place" v="locality" />
		<tag k="ssr:stedsnr" v="588325" />
	</node>
	<node lat="62.64159166474521" lon="11.808624997449247" id="-34163">
		<tag k="name" v="Kvernhuskåsa" />
		<tag k="name:no" v="Kvernhuskåsa" />
		<tag k="natural" v="slope" />
		<tag k="place" v="locality" />
		<tag k="ssr:stedsnr" v="588440" />
	</node>
	<node lat="62.6555333344715" lon="11.224636105916845" id="-34164">
		<tag k="fixme" v="consider natural=peak for the most distinct mountains in the district" />
		<tag k="name" v="Storknippen" />
		<tag k="name:no" v="Storknippen" />
		<tag k="natural" v="hill" />
		<tag k="place" v="locality" />
		<tag k="ssr:stedsnr" v="588441" />
	</node>
	<node lat="62.69396666386877" lon="11.2895638871214" id="-34165">
		<tag k="name" v="Lillefjellsjøhaugen" />
		<tag k="name:no" v="Lillefjellsjøhaugen" />
		<tag k="natural" v="hill" />
		<tag k="place" v="locality" />
		<tag k="ssr:stedsnr" v="588445" />
	</node>
	<node lat="62.52142499793396" lon="11.679344446808857" id="-34172">
		<tag k="name" v="Tamneshøgda" />
		<tag k="name:no" v="Tamneshøgda" />
		<tag k="natural" v="hill" />
		<tag k="place" v="locality" />
		<tag k="ssr:stedsnr" v="588508" />
	</node>
	<node lat="62.698925003689865" lon="11.528505565268544" id="-34179">
		<tag k="fixme" v="consider natural=peak for the most distinct mountains in the district" />
		<tag k="name" v="Litlåsen" />
		<tag k="name:no" v="Litlåsen" />
		<tag k="natural" v="hill" />
		<tag k="place" v="locality" />
		<tag k="ssr:stedsnr" v="588557" />
	</node>
	<node lat="62.69478610867243" lon="11.777625002660182" id="-34180">
		<tag k="name" v="Skurusletta" />
		<tag k="name:no" v="Skurusletta" />
		<tag k="place" v="locality" />
		<tag k="ssr:stedsnr" v="588561" />
	</node>
	<node lat="62.68294722569227" lon="11.633638897925934" id="-34183">
		<tag k="name" v="Tverregga" />
		<tag k="name:no" v="Tverregga" />
		<tag k="natural" v="ridge" />
		<tag k="place" v="locality" />
		<tag k="ssr:stedsnr" v="588716" />
	</node>
	<node lat="62.59932499999832" lon="11.615927782938002" id="-34186">
		<tag k="name" v="Storkåsa" />
		<tag k="name:no" v="Storkåsa" />
		<tag k="natural" v="slope" />
		<tag k="place" v="locality" />
		<tag k="ssr:stedsnr" v="588608" />
	</node>
	<node lat="62.595175003005004" lon="11.628163883292553" id="-34187">
		<tag k="name" v="Smibakken" />
		<tag k="name:no" v="Smibakken" />
		<tag k="natural" v="slope" />
		<tag k="place" v="locality" />
		<tag k="ssr:stedsnr" v="588610" />
	</node>
	<node lat="62.61320277564453" lon="11.644161102419787" id="-34189">
		<tag k="name" v="Trøberget" />
		<tag k="name:no" v="Trøberget" />
		<tag k="natural" v="hill" />
		<tag k="place" v="locality" />
		<tag k="ssr:stedsnr" v="588656" />
	</node>
	<node lat="62.62272222561903" lon="11.671208335514626" id="-34190">
		<tag k="name" v="Gammelbudalen" />
		<tag k="name:no" v="Gammelbudalen" />
		<tag k="natural" v="valley" />
		<tag k="place" v="locality" />
		<tag k="ssr:stedsnr" v="588664" />
	</node>
	<node lat="62.54601944682943" lon="11.481997220617233" id="-34197">
		<tag k="name" v="Stor-Gråberget" />
		<tag k="name:no" v="Stor-Gråberget" />
		<tag k="natural" v="hill" />
		<tag k="place" v="locality" />
		<tag k="ssr:stedsnr" v="588853" />
	</node>
	<node lat="62.56908055354272" lon="11.488577780264686" id="-34198">
		<tag k="name" v="Pikhaugen" />
		<tag k="name:no" v="Pikhaugen" />
		<tag k="natural" v="hill" />
		<tag k="place" v="locality" />
		<tag k="ssr:stedsnr" v="588858" />
	</node>
	<node lat="62.64493889179824" lon="11.567597212969101" id="-34202">
		<tag k="name" v="Sløbekkhaugen" />
		<tag k="name:no" v="Sløbekkhaugen" />
		<tag k="natural" v="hill" />
		<tag k="place" v="locality" />
		<tag k="ssr:stedsnr" v="588972" />
	</node>
	<node lat="62.64974999686714" lon="11.570308324737084" id="-34203">
		<tag k="name" v="Pikhaugen" />
		<tag k="name:no" v="Pikhaugen" />
		<tag k="natural" v="hill" />
		<tag k="place" v="locality" />
		<tag k="ssr:stedsnr" v="588976" />
	</node>
	<node lat="62.73105555702678" lon="11.839194442524763" id="-34208">
		<tag k="name" v="Åbborsjølia" />
		<tag k="name:no" v="Åbborsjølia" />
		<tag k="natural" v="slope" />
		<tag k="place" v="locality" />
		<tag k="ssr:stedsnr" v="589711" />
	</node>
	<node lat="62.77997500240245" lon="11.798813892085864" id="-34212">
		<tag k="name" v="Skorra" />
		<tag k="name:no" v="Skorra" />
		<tag k="natural" v="slope" />
		<tag k="place" v="locality" />
		<tag k="ssr:stedsnr" v="589814" />
	</node>
	<node lat="62.60894166249761" lon="11.59810278663647" id="-34215">
		<tag k="name" v="Stenlautomta" />
		<tag k="name:no" v="Stenlautomta" />
		<tag k="natural" v="hill" />
		<tag k="place" v="locality" />
		<tag k="ssr:stedsnr" v="710664" />
	</node>
	<node lat="62.62251944193943" lon="11.860300007444382" id="-34221">
		<tag k="fixme" v="consider natural=peak for the most distinct mountains in the district" />
		<tag k="name" v="Svartåsen" />
		<tag k="name:no" v="Svartåsen" />
		<tag k="natural" v="hill" />
		<tag k="place" v="locality" />
		<tag k="ssr:stedsnr" v="618616" />
	</node>
	<node lat="62.641682920965366" lon="11.853686924467265" id="-34225">
		<tag k="name" v="Skallhaugen" />
		<tag k="name:no" v="Skallhaugen" />
		<tag k="natural" v="hill" />
		<tag k="place" v="locality" />
		<tag k="ssr:stedsnr" v="618633" />
	</node>
	<node lat="62.602181439951025" lon="11.873227619078934" id="-34226">
		<tag k="name" v="Møssmørbullen" />
		<tag k="name:no" v="Møssmørbullen" />
		<tag k="natural" v="hill" />
		<tag k="place" v="locality" />
		<tag k="ssr:stedsnr" v="618641" />
	</node>
	<node lat="62.598152774554386" lon="11.785844436578452" id="-34227">
		<tag k="fixme" v="consider natural=peak for the most distinct mountains in the district" />
		<tag k="name" v="Røragsåsen" />
		<tag k="name:no" v="Røragsåsen" />
		<tag k="natural" v="hill" />
		<tag k="place" v="locality" />
		<tag k="ssr:stedsnr" v="618644" />
	</node>
	<node lat="62.53485277615846" lon="11.612997214265366" id="-34232">
		<tag k="fixme" v="consider natural=peak for the most distinct mountains in the district" />
		<tag k="name" v="Gråhøgda" />
		<tag k="name:no" v="Gråhøgda" />
		<tag k="natural" v="hill" />
		<tag k="place" v="locality" />
		<tag k="ssr:stedsnr" v="618582" />
	</node>
	<node lat="62.65302500220553" lon="11.493913893189626" id="-34248">
		<tag k="name" v="Gråhøgda" />
		<tag k="name:no" v="Gråhøgda" />
		<tag k="natural" v="hill" />
		<tag k="place" v="locality" />
		<tag k="ssr:stedsnr" v="618983" />
	</node>
	<node lat="62.652466669298114" lon="11.522491660819833" id="-34249">
		<tag k="name" v="Viklia" />
		<tag k="name:no" v="Viklia" />
		<tag k="natural" v="slope" />
		<tag k="place" v="locality" />
		<tag k="ssr:stedsnr" v="618985" />
	</node>
	<node lat="62.45748889346288" lon="11.775733328621989" id="-34254">
		<tag k="fixme" v="consider natural=peak for the most distinct mountains in the district" />
		<tag k="name" v="Langmyråsen" />
		<tag k="name:no" v="Langmyråsen" />
		<tag k="natural" v="hill" />
		<tag k="place" v="locality" />
		<tag k="ssr:stedsnr" v="705231" />
	</node>
	<node lat="62.652124997797316" lon="11.351077778758222" id="-34261">
		<tag k="name" v="Venslia" />
		<tag k="name:no" v="Venslia" />
		<tag k="natural" v="slope" />
		<tag k="place" v="locality" />
		<tag k="ssr:stedsnr" v="706122" />
	</node>
	<node lat="62.57863610949116" lon="11.767336119691244" id="-34265">
		<tag k="name" v="Mannolaholet" />
		<tag k="name:no" v="Mannolaholet" />
		<tag k="natural" v="valley" />
		<tag k="place" v="locality" />
		<tag k="ssr:stedsnr" v="644194" />
	</node>
	<node lat="62.644677778353866" lon="11.408497224078571" id="-34269">
		<tag k="name" v="Storøya" />
		<tag k="name:no" v="Storøya" />
		<tag k="place" v="locality" />
		<tag k="ssr:stedsnr" v="645119" />
	</node>
	<node lat="62.63521666947816" lon="11.371963886031896" id="-34271">
		<tag k="name" v="Litljobakken" />
		<tag k="name:no" v="Litljobakken" />
		<tag k="natural" v="slope" />
		<tag k="place" v="locality" />
		<tag k="ssr:stedsnr" v="645126" />
	</node>
	<node lat="62.536866665581606" lon="11.368266669715618" id="-34274">
		<tag k="name" v="Kåshaugen" />
		<tag k="name:no" v="Kåshaugen" />
		<tag k="natural" v="hill" />
		<tag k="place" v="locality" />
		<tag k="ssr:stedsnr" v="645425" />
	</node>
	<node lat="62.631602780548434" lon="11.654105560352898" id="-34279">
		<tag k="fixme" v="consider natural=peak for the most distinct mountains in the district" />
		<tag k="name" v="Åsen" />
		<tag k="name:no" v="Åsen" />
		<tag k="natural" v="hill" />
		<tag k="place" v="locality" />
		<tag k="ssr:stedsnr" v="645727" />
	</node>
	<node lat="62.630069445458545" lon="11.676977777446869" id="-34281">
		<tag k="name" v="Storvikberget" />
		<tag k="name:no" v="Storvikberget" />
		<tag k="natural" v="hill" />
		<tag k="place" v="locality" />
		<tag k="ssr:stedsnr" v="706734" />
	</node>
	<node lat="62.699683330081015" lon="11.961130550669061" id="-34282">
		<tag k="fixme" v="consider natural=peak for the most distinct mountains in the district" />
		<tag k="name" v="Håmmårtjønnhåmmåren" />
		<tag k="name:no" v="Håmmårtjønnhåmmåren" />
		<tag k="natural" v="hill" />
		<tag k="place" v="locality" />
		<tag k="ssr:stedsnr" v="648110" />
	</node>
	<node lat="62.76115833516309" lon="11.933402776916951" id="-34283">
		<tag k="fixme" v="consider natural=peak for the most distinct mountains in the district" />
		<tag k="name" v="Klumpen" />
		<tag k="name:no" v="Klumpen" />
		<tag k="natural" v="hill" />
		<tag k="place" v="locality" />
		<tag k="ssr:stedsnr" v="649013" />
	</node>
	<node lat="62.76513889237251" lon="11.91300834009826" id="-34285">
		<tag k="name" v="Lokken" />
		<tag k="name:no" v="Lokken" />
		<tag k="natural" v="hill" />
		<tag k="place" v="locality" />
		<tag k="ssr:stedsnr" v="649051" />
	</node>
	<node lat="62.72780832978712" lon="11.953880554816156" id="-34287">
		<tag k="name" v="Oddan" />
		<tag k="name:no" v="Oddan" />
		<tag k="natural" v="hill" />
		<tag k="place" v="locality" />
		<tag k="ssr:stedsnr" v="649107" />
	</node>
	<node lat="62.45548333144655" lon="11.562061104391693" id="-34290">
		<tag k="name" v="Berga" />
		<tag k="name:no" v="Berga" />
		<tag k="natural" v="hill" />
		<tag k="place" v="locality" />
		<tag k="ssr:stedsnr" v="649238" />
	</node>
	<node lat="62.59402777697002" lon="11.832330553237755" id="-34292">
		<tag k="name" v="Skorra" />
		<tag k="name:no" v="Skorra" />
		<tag k="natural" v="valley" />
		<tag k="place" v="locality" />
		<tag k="ssr:stedsnr" v="649289" />
	</node>
	<node lat="62.59469444338231" lon="11.783219451155981" id="-34293">
		<tag k="name" v="Kvitstenflata" />
		<tag k="name:no" v="Kvitstenflata" />
		<tag k="place" v="locality" />
		<tag k="ssr:stedsnr" v="649292" />
	</node>
	<node lat="62.59329999890062" lon="11.786130554753163" id="-34294">
		<tag k="name" v="Kartholet" />
		<tag k="name:no" v="Kartholet" />
		<tag k="natural" v="valley" />
		<tag k="place" v="locality" />
		<tag k="ssr:stedsnr" v="649294" />
	</node>
	<node lat="62.593966664368914" lon="11.810155562323454" id="-34295">
		<tag k="name" v="Pesten" />
		<tag k="name:no" v="Pesten" />
		<tag k="natural" v="slope" />
		<tag k="place" v="locality" />
		<tag k="ssr:stedsnr" v="649299" />
	</node>
	<node lat="62.687388887111354" lon="11.28529999432047" id="-34304">
		<tag k="name" v="Lillefjellsjølia" />
		<tag k="name:no" v="Lillefjellsjølia" />
		<tag k="natural" v="slope" />
		<tag k="place" v="locality" />
		<tag k="ssr:stedsnr" v="649503" />
	</node>
	<node lat="62.652252774573284" lon="11.823197213631861" id="-34305">
		<tag k="name" v="Kåsbakken" />
		<tag k="name:no" v="Kåsbakken" />
		<tag k="natural" v="slope" />
		<tag k="place" v="locality" />
		<tag k="ssr:stedsnr" v="649506" />
	</node>
	<node lat="62.419622221405184" lon="11.91359166202521" id="-34311">
		<tag k="name" v="Tusshaugan" />
		<tag k="name:no" v="Tusshaugan" />
		<tag k="natural" v="hill" />
		<tag k="place" v="locality" />
		<tag k="ssr:stedsnr" v="649544" />
	</node>
	<node lat="62.80987222043968" lon="11.851711120136168" id="-34314">
		<tag k="name" v="Søre Langsvola" />
		<tag k="name:no" v="Søre Langsvola" />
		<tag k="natural" v="hill" />
		<tag k="place" v="locality" />
		<tag k="ssr:stedsnr" v="649608" />
	</node>
	<node lat="62.57639999735667" lon="11.629847214095964" id="-34315">
		<tag k="name" v="Langrabben" />
		<tag k="name:no" v="Langrabben" />
		<tag k="place" v="locality" />
		<tag k="ssr:stedsnr" v="649639" />
	</node>
	<node lat="62.58418055679932" lon="11.618819452458329" id="-34316">
		<tag k="name" v="Prinsstuggu" />
		<tag k="name:no" v="Prinsstuggu" />
		<tag k="place" v="locality" />
		<tag k="ssr:stedsnr" v="649640" />
	</node>
	<node lat="62.768016668184686" lon="11.902472215659047" id="-34317">
		<tag k="name" v="Djupdalen" />
		<tag k="name:no" v="Djupdalen" />
		<tag k="natural" v="valley" />
		<tag k="place" v="locality" />
		<tag k="ssr:stedsnr" v="649641" />
	</node>
	<node lat="62.71831667074705" lon="11.862113895501784" id="-34318">
		<tag k="fixme" v="consider natural=peak for the most distinct mountains in the district" />
		<tag k="name" v="Møsmørvola" />
		<tag k="name:no" v="Møsmørvola" />
		<tag k="natural" v="hill" />
		<tag k="place" v="locality" />
		<tag k="ssr:stedsnr" v="649642" />
	</node>
	<node lat="62.58735000259699" lon="11.636177769620625" id="-34319">
		<tag k="name" v="Grønhaugen" />
		<tag k="name:no" v="Grønhaugen" />
		<tag k="natural" v="hill" />
		<tag k="place" v="locality" />
		<tag k="ssr:stedsnr" v="649646" />
	</node>
	<node lat="62.571591662659706" lon="11.486988894043762" id="-34324">
		<tag k="name" v="Tovhaugen" />
		<tag k="name:no" v="Tovhaugen" />
		<tag k="natural" v="hill" />
		<tag k="place" v="locality" />
		<tag k="ssr:stedsnr" v="649840" />
	</node>
	<node lat="62.58120278034145" lon="11.575436109006613" id="-34325">
		<tag k="name" v="Sjøenden" />
		<tag k="name:no" v="Sjøenden" />
		<tag k="place" v="locality" />
		<tag k="ssr:stedsnr" v="649850" />
	</node>
	<node lat="62.72154166926184" lon="11.801572216988854" id="-34336">
		<tag k="name" v="Røstlauhaugen" />
		<tag k="name:no" v="Røstlauhaugen" />
		<tag k="natural" v="hill" />
		<tag k="place" v="locality" />
		<tag k="ssr:stedsnr" v="650724" />
	</node>
	<node lat="62.79472777329382" lon="11.816127781022958" id="-34338">
		<tag k="name" v="Gråbendalen" />
		<tag k="name:no" v="Gråbendalen" />
		<tag k="natural" v="valley" />
		<tag k="place" v="locality" />
		<tag k="ssr:stedsnr" v="650807" />
	</node>
	<node lat="62.79972222185113" lon="11.816822228502613" id="-34341">
		<tag k="name" v="Rukåsdalen" />
		<tag k="name:no" v="Rukåsdalen" />
		<tag k="natural" v="valley" />
		<tag k="place" v="locality" />
		<tag k="ssr:stedsnr" v="650818" />
	</node>
	<node lat="62.70471111284951" lon="11.789449994009717" id="-34345">
		<tag k="name" v="Storsletthaugen" />
		<tag k="name:no" v="Storsletthaugen" />
		<tag k="natural" v="hill" />
		<tag k="place" v="locality" />
		<tag k="ssr:stedsnr" v="650736" />
	</node>
	<node lat="62.45667778198023" lon="11.857480554869426" id="-34355">
		<tag k="name" v="Hekken" />
		<tag k="name:no" v="Hekken" />
		<tag k="natural" v="hill" />
		<tag k="place" v="locality" />
		<tag k="ssr:stedsnr" v="667026" />
	</node>
	<node lat="62.4492300291747" lon="11.887996844885892" id="-34356">
		<tag k="name" v="Elgåsen" />
		<tag k="name:no" v="Elgåsen" />
		<tag k="natural" v="hill" />
		<tag k="place" v="locality" />
		<tag k="ssr:stedsnr" v="667029" />
	</node>
	<node lat="62.741491663433436" lon="11.961041663985865" id="-34358">
		<tag k="name" v="Klumpen" />
		<tag k="name:no" v="Klumpen" />
		<tag k="place" v="locality" />
		<tag k="ssr:stedsnr" v="710017" />
	</node>
	<node lat="62.72000555542548" lon="11.916977778005364" id="-34359">
		<tag k="name" v="Vian" />
		<tag k="name:no" v="Vian" />
		<tag k="natural" v="slope" />
		<tag k="place" v="locality" />
		<tag k="ssr:stedsnr" v="710022" />
	</node>
	<node lat="62.62076944064679" lon="11.451958339227808" id="-34360">
		<tag k="name" v="Trønnesrabben" />
		<tag k="name:no" v="Trønnesrabben" />
		<tag k="natural" v="hill" />
		<tag k="place" v="locality" />
		<tag k="ssr:stedsnr" v="710038" />
	</node>
	<node lat="62.73358333094902" lon="11.932527785559255" id="-34362">
		<tag k="name" v="Kojelia" />
		<tag k="name:no" v="Kojelia" />
		<tag k="natural" v="slope" />
		<tag k="place" v="locality" />
		<tag k="ssr:stedsnr" v="710106" />
	</node>
	<node lat="62.71338333230828" lon="11.92224165820783" id="-34363">
		<tag k="name" v="Storkåsa" />
		<tag k="name:no" v="Storkåsa" />
		<tag k="place" v="locality" />
		<tag k="ssr:stedsnr" v="710112" />
	</node>
	<node lat="62.53659999799773" lon="11.252236112387301" id="-34366">
		<tag k="name" v="Gammelvoll-lia" />
		<tag k="name:no" v="Gammelvoll-lia" />
		<tag k="natural" v="slope" />
		<tag k="place" v="locality" />
		<tag k="ssr:stedsnr" v="710058" />
	</node>
	<node lat="62.64965000218561" lon="11.926097223410544" id="-34367">
		<tag k="name" v="Gruvsalen" />
		<tag k="name:no" v="Gruvsalen" />
		<tag k="natural" v="slope" />
		<tag k="place" v="locality" />
		<tag k="ssr:stedsnr" v="710120" />
	</node>
	<node lat="62.43974721896926" lon="11.554030564436712" id="-34372">
		<tag k="fixme" v="consider natural=peak for the most distinct mountains in the district" />
		<tag k="name" v="Brattegga" />
		<tag k="name:no" v="Brattegga" />
		<tag k="natural" v="hill" />
		<tag k="place" v="locality" />
		<tag k="ssr:stedsnr" v="710256" />
	</node>
	<node lat="62.7454777736981" lon="11.440247217953099" id="-34374">
		<tag k="fixme" v="consider natural=peak for the most distinct mountains in the district" />
		<tag k="name" v="Grønåsen" />
		<tag k="name:no" v="Grønåsen" />
		<tag k="natural" v="hill" />
		<tag k="place" v="locality" />
		<tag k="ssr:stedsnr" v="710275" />
	</node>
	<node lat="62.55673055428793" lon="11.283369438206115" id="-34376">
		<tag k="name" v="Fabrohaugen" />
		<tag k="name:no" v="Fabrohaugen" />
		<tag k="natural" v="hill" />
		<tag k="place" v="locality" />
		<tag k="ssr:stedsnr" v="710341" />
	</node>
	<node lat="62.62951944743487" lon="11.766436106099624" id="-34380">
		<tag k="name" v="Brattbakken" />
		<tag k="name:no" v="Brattbakken" />
		<tag k="natural" v="slope" />
		<tag k="place" v="locality" />
		<tag k="ssr:stedsnr" v="710323" />
	</node>
	<node lat="62.60223333235218" lon="11.313319453306015" id="-34385">
		<tag k="name" v="Ålbyggbakkan" />
		<tag k="name:no" v="Ålbyggbakkan" />
		<tag k="natural" v="slope" />
		<tag k="place" v="locality" />
		<tag k="ssr:stedsnr" v="710420" />
	</node>
	<node lat="62.706655558671905" lon="11.708816659688779" id="-34388">
		<tag k="fixme" v="consider natural=peak for the most distinct mountains in the district" />
		<tag k="name" v="Kokkpiken" />
		<tag k="name:no" v="Kokkpiken" />
		<tag k="natural" v="hill" />
		<tag k="place" v="locality" />
		<tag k="ssr:stedsnr" v="710362" />
	</node>
	<node lat="62.69440833380718" lon="11.60076944109666" id="-34390">
		<tag k="fixme" v="consider natural=peak for the most distinct mountains in the district" />
		<tag k="name" v="Litlåsen" />
		<tag k="name:no" v="Litlåsen" />
		<tag k="natural" v="hill" />
		<tag k="place" v="locality" />
		<tag k="ssr:stedsnr" v="710369" />
	</node>
	<node lat="62.58743611394526" lon="11.336222217499435" id="-34391">
		<tag k="name" v="Omfløddøyan" />
		<tag k="name:no" v="Omfløddøyan" />
		<tag k="place" v="locality" />
		<tag k="ssr:stedsnr" v="710370" />
	</node>
	<node lat="62.61632778028593" lon="11.311319441563453" id="-34393">
		<tag k="name" v="Langmyrhaugen" />
		<tag k="name:no" v="Langmyrhaugen" />
		<tag k="natural" v="hill" />
		<tag k="place" v="locality" />
		<tag k="ssr:stedsnr" v="710437" />
	</node>
	<node lat="62.68965555954674" lon="11.258452775627136" id="-34398">
		<tag k="fixme" v="consider natural=peak for the most distinct mountains in the district" />
		<tag k="name" v="Svartdikehåmmåran" />
		<tag k="name:no" v="Svartdikehåmmåran" />
		<tag k="natural" v="hill" />
		<tag k="place" v="locality" />
		<tag k="ssr:stedsnr" v="710472" />
	</node>
	<node lat="62.65531944588682" lon="11.79580555744429" id="-34399">
		<tag k="name" v="Flåttåmyrhaugen" />
		<tag k="name:no" v="Flåttåmyrhaugen" />
		<tag k="natural" v="hill" />
		<tag k="place" v="locality" />
		<tag k="ssr:stedsnr" v="710515" />
	</node>
	<node lat="62.73778055806603" lon="11.999263886158355" id="-34405">
		<tag k="fixme" v="consider natural=peak for the most distinct mountains in the district" />
		<tag k="name" v="Seterfjellet" />
		<tag k="name:no" v="Seterfjellet" />
		<tag k="natural" v="hill" />
		<tag k="place" v="locality" />
		<tag k="ssr:stedsnr" v="679467" />
	</node>
	<node lat="62.64560555302315" lon="11.922063890810724" id="-34412">
		<tag k="name" v="Rundhaugan" />
		<tag k="name:no" v="Rundhaugan" />
		<tag k="natural" v="hill" />
		<tag k="place" v="locality" />
		<tag k="ssr:stedsnr" v="679627" />
	</node>
	<node lat="62.37287777473509" lon="11.734541662945762" id="-34419">
		<tag k="name" v="Flensberget" />
		<tag k="name:no" v="Flensberget" />
		<tag k="natural" v="hill" />
		<tag k="place" v="locality" />
		<tag k="ssr:stedsnr" v="679574" />
	</node>
	<node lat="62.65422777857156" lon="12.00652777242058" id="-34422">
		<tag k="fixme" v="consider natural=peak for the most distinct mountains in the district" />
		<tag k="name" v="Storhåmmåren" />
		<tag k="name:no" v="Storhåmmåren" />
		<tag k="natural" v="hill" />
		<tag k="place" v="locality" />
		<tag k="ssr:stedsnr" v="679706" />
	</node>
	<node lat="62.59315833721968" lon="11.374783341257706" id="-34429">
		<tag k="fixme" v="consider natural=peak for the most distinct mountains in the district" />
		<tag k="name" v="Bersvensåsen" />
		<tag k="name:no" v="Bersvensåsen" />
		<tag k="natural" v="hill" />
		<tag k="place" v="locality" />
		<tag k="ssr:stedsnr" v="679903" />
	</node>
	<node lat="62.58615277653163" lon="11.826177781341293" id="-34448">
		<tag k="name" v="Brentbakken" />
		<tag k="name:no" v="Brentbakken" />
		<tag k="natural" v="slope" />
		<tag k="place" v="locality" />
		<tag k="ssr:stedsnr" v="892265" />
	</node>
	<node lat="62.72593888518255" lon="11.432772219090817" id="-34450">
		<tag k="name" v="Sankt Olavsbakken" />
		<tag k="name:no" v="Sankt Olavsbakken" />
		<tag k="natural" v="slope" />
		<tag k="place" v="locality" />
		<tag k="ssr:stedsnr" v="892248" />
	</node>
	<node lat="62.72835277432053" lon="11.355669437184686" id="-34451">
		<tag k="name" v="Løssidalen" />
		<tag k="name:no" v="Løssidalen" />
		<tag k="natural" v="valley" />
		<tag k="place" v="locality" />
		<tag k="ssr:stedsnr" v="892249" />
	</node>
	<node lat="62.596333334795084" lon="11.806933337693101" id="-34454">
		<tag k="name" v="Fuglhaugen" />
		<tag k="name:no" v="Fuglhaugen" />
		<tag k="natural" v="hill" />
		<tag k="place" v="locality" />
		<tag k="ssr:stedsnr" v="892271" />
	</node>
	<node lat="62.59827777354724" lon="11.815433329691913" id="-34456">
		<tag k="name" v="Tjønnberget" />
		<tag k="name:no" v="Tjønnberget" />
		<tag k="natural" v="hill" />
		<tag k="place" v="locality" />
		<tag k="ssr:stedsnr" v="892273" />
	</node>
	<node lat="62.59862777720332" lon="11.78509444551489" id="-34458">
		<tag k="fixme" v="consider natural=peak for the most distinct mountains in the district" />
		<tag k="name" v="Røragåsen" />
		<tag k="name:no" v="Røragåsen" />
		<tag k="natural" v="hill" />
		<tag k="place" v="locality" />
		<tag k="ssr:stedsnr" v="892279" />
	</node>
	<node lat="62.456072221775344" lon="11.797599996253044" id="-34461">
		<tag k="fixme" v="consider natural=peak for the most distinct mountains in the district" />
		<tag k="name" v="Svartåsen" />
		<tag k="name:no" v="Svartåsen" />
		<tag k="natural" v="hill" />
		<tag k="place" v="locality" />
		<tag k="ssr:stedsnr" v="892331" />
	</node>
	<node lat="62.582497222134975" lon="11.256091657661141" id="-34463">
		<tag k="name" v="Stormyrhøgda" />
		<tag k="name:no" v="Stormyrhøgda" />
		<tag k="natural" v="hill" />
		<tag k="place" v="locality" />
		<tag k="ssr:stedsnr" v="892333" />
	</node>
	<node lat="62.57151388724378" lon="11.288666658705797" id="-34466">
		<tag k="name" v="Langrya" />
		<tag k="name:no" v="Langrya" />
		<tag k="place" v="locality" />
		<tag k="ssr:stedsnr" v="892347" />
	</node>
	<node lat="62.62471388971121" lon="11.313805546596335" id="-34471">
		<tag k="name" v="Kvernbekklia" />
		<tag k="name:no" v="Kvernbekklia" />
		<tag k="natural" v="slope" />
		<tag k="place" v="locality" />
		<tag k="ssr:stedsnr" v="892394" />
	</node>
	<node lat="62.614433331478104" lon="11.267027777910265" id="-34473">
		<tag k="name" v="Bubakken" />
		<tag k="name:no" v="Bubakken" />
		<tag k="natural" v="slope" />
		<tag k="place" v="locality" />
		<tag k="ssr:stedsnr" v="892402" />
	</node>
	<node lat="62.686088889170925" lon="11.296247228934648" id="-34474">
		<tag k="name" v="Floan" />
		<tag k="name:no" v="Floan" />
		<tag k="place" v="locality" />
		<tag k="ssr:stedsnr" v="892462" />
	</node>
	<node lat="62.67089166898017" lon="11.273061120493427" id="-34476">
		<tag k="name" v="Rundhaugen" />
		<tag k="name:no" v="Rundhaugen" />
		<tag k="natural" v="hill" />
		<tag k="place" v="locality" />
		<tag k="ssr:stedsnr" v="892443" />
	</node>
	<node lat="62.698861106541614" lon="11.517683341412118" id="-34479">
		<tag k="name" v="Børsetdalen" />
		<tag k="name:no" v="Børsetdalen" />
		<tag k="natural" v="valley" />
		<tag k="place" v="locality" />
		<tag k="ssr:stedsnr" v="892543" />
	</node>
	<node lat="62.70988055739974" lon="11.591555550813945" id="-34481">
		<tag k="name" v="Tjukkhaugen" />
		<tag k="name:no" v="Tjukkhaugen" />
		<tag k="natural" v="hill" />
		<tag k="place" v="locality" />
		<tag k="ssr:stedsnr" v="892547" />
	</node>
	<node lat="62.69755832966558" lon="11.53048054998042" id="-34482">
		<tag k="name" v="Reithøgda" />
		<tag k="name:no" v="Reithøgda" />
		<tag k="natural" v="hill" />
		<tag k="place" v="locality" />
		<tag k="ssr:stedsnr" v="892550" />
	</node>
	<node lat="62.58260833181803" lon="11.705577781119745" id="-34485">
		<tag k="name" v="Grønhøgda" />
		<tag k="name:no" v="Grønhøgda" />
		<tag k="natural" v="hill" />
		<tag k="place" v="locality" />
		<tag k="ssr:stedsnr" v="892493" />
	</node>
	<node lat="62.579230555713124" lon="11.636219444254694" id="-34490">
		<tag k="name" v="Nesbakken" />
		<tag k="name:no" v="Nesbakken" />
		<tag k="natural" v="slope" />
		<tag k="place" v="locality" />
		<tag k="ssr:stedsnr" v="892588" />
	</node>
	<node lat="62.614988887241935" lon="11.64026110702288" id="-34497">
		<tag k="name" v="Sandbakkan" />
		<tag k="name:no" v="Sandbakkan" />
		<tag k="natural" v="slope" />
		<tag k="place" v="locality" />
		<tag k="ssr:stedsnr" v="892649" />
	</node>
	<node lat="62.613163886116425" lon="11.689875001996088" id="-34500">
		<tag k="fixme" v="consider natural=peak for the most distinct mountains in the district" />
		<tag k="name" v="Bustmyråsen" />
		<tag k="name:no" v="Bustmyråsen" />
		<tag k="natural" v="hill" />
		<tag k="place" v="locality" />
		<tag k="ssr:stedsnr" v="892670" />
	</node>
	<node lat="62.666016671175605" lon="11.595361111218642" id="-34502">
		<tag k="name" v="Rundhåmmåren" />
		<tag k="name:no" v="Rundhåmmåren" />
		<tag k="natural" v="hill" />
		<tag k="place" v="locality" />
		<tag k="ssr:stedsnr" v="892695" />
	</node>
	<node lat="62.54998888859272" lon="11.50122499216261" id="-34504">
		<tag k="name" v="Gurirabben" />
		<tag k="name:no" v="Gurirabben" />
		<tag k="natural" v="hill" />
		<tag k="place" v="locality" />
		<tag k="ssr:stedsnr" v="892809" />
	</node>
	<node lat="62.511291662266785" lon="11.50048611222859" id="-34510">
		<tag k="name" v="Vintervegbakken" />
		<tag k="name:no" v="Vintervegbakken" />
		<tag k="natural" v="slope" />
		<tag k="place" v="locality" />
		<tag k="ssr:stedsnr" v="892753" />
	</node>
	<node lat="62.64369722107183" lon="11.581269443997911" id="-34513">
		<tag k="name" v="Høyverbakken" />
		<tag k="name:no" v="Høyverbakken" />
		<tag k="natural" v="slope" />
		<tag k="place" v="locality" />
		<tag k="ssr:stedsnr" v="892890" />
	</node>
	<node lat="62.65354722187649" lon="11.570202778002031" id="-34517">
		<tag k="fixme" v="consider natural=peak for the most distinct mountains in the district" />
		<tag k="name" v="Bakkåsen" />
		<tag k="name:no" v="Bakkåsen" />
		<tag k="natural" v="hill" />
		<tag k="place" v="locality" />
		<tag k="ssr:stedsnr" v="892977" />
	</node>
	<node lat="62.67103610716847" lon="11.575777779812489" id="-34518">
		<tag k="fixme" v="consider natural=peak for the most distinct mountains in the district" />
		<tag k="name" v="Elenåsen" />
		<tag k="name:no" v="Elenåsen" />
		<tag k="natural" v="hill" />
		<tag k="place" v="locality" />
		<tag k="ssr:stedsnr" v="892983" />
	</node>
	<node lat="62.684099995877936" lon="11.80696389064289" id="-34522">
		<tag k="fixme" v="consider natural=peak for the most distinct mountains in the district" />
		<tag k="name" v="Sørlendet" />
		<tag k="name:no" v="Sørlendet" />
		<tag k="natural" v="hill" />
		<tag k="place" v="locality" />
		<tag k="ssr:stedsnr" v="893636" />
	</node>
	<node lat="62.69874722512806" lon="11.751747227013082" id="-34525">
		<tag k="name" v="Veikåsdalen" />
		<tag k="name:no" v="Veikåsdalen" />
		<tag k="natural" v="valley" />
		<tag k="place" v="locality" />
		<tag k="ssr:stedsnr" v="893749" />
	</node>
	<node lat="62.63043333355591" lon="11.46900277339937" id="-34530">
		<tag k="name" v="Erlihøgda" />
		<tag k="name:no" v="Erlihøgda" />
		<tag k="natural" v="hill" />
		<tag k="place" v="locality" />
		<tag k="ssr:stedsnr" v="688832" />
	</node>
	<node lat="62.78546944876317" lon="11.798386104137911" id="-34532">
		<tag k="name" v="Sjøvåkberget" />
		<tag k="name:no" v="Sjøvåkberget" />
		<tag k="natural" v="hill" />
		<tag k="place" v="locality" />
		<tag k="ssr:stedsnr" v="893805" />
	</node>
	<node lat="62.63177778012027" lon="11.411455561686541" id="-34543">
		<tag k="fixme" v="consider natural=peak for the most distinct mountains in the district" />
		<tag k="name" v="Kojeåsen" />
		<tag k="name:no" v="Kojeåsen" />
		<tag k="natural" v="hill" />
		<tag k="place" v="locality" />
		<tag k="ssr:stedsnr" v="706107" />
	</node>
	<node lat="62.740327777979275" lon="11.92454721967147" id="-34549">
		<tag k="name" v="Litlklumpen" />
		<tag k="name:no" v="Litlklumpen" />
		<tag k="natural" v="hill" />
		<tag k="place" v="locality" />
		<tag k="ssr:stedsnr" v="710009" />
	</node>
	<node lat="62.73941388945934" lon="11.422063888158723" id="-34555">
		<tag k="name" v="Nerloftet" />
		<tag k="name:no" v="Nerloftet" />
		<tag k="natural" v="slope" />
		<tag k="place" v="locality" />
		<tag k="ssr:stedsnr" v="710251" />
	</node>
	<node lat="62.444055552224555" lon="11.935580550565373" id="-34575">
		<tag k="name" v="Hestbetåsberget" />
		<tag k="name:no" v="Hestbetåsberget" />
		<tag k="natural" v="hill" />
		<tag k="place" v="locality" />
		<tag k="ssr:stedsnr" v="710431" />
	</node>
	<node lat="62.64351944730712" lon="11.829230553247928" id="-34578">
		<tag k="name" v="Storledet" />
		<tag k="name:no" v="Storledet" />
		<tag k="place" v="locality" />
		<tag k="ssr:stedsnr" v="710487" />
	</node>
	<node lat="62.696572223307086" lon="11.516000000773714" id="-34585">
		<tag k="name" v="Revhihaugen" />
		<tag k="name:no" v="Revhihaugen" />
		<tag k="natural" v="hill" />
		<tag k="place" v="locality" />
		<tag k="ssr:stedsnr" v="710581" />
	</node>
	<node lat="62.589911108592815" lon="11.660077779878721" id="-34589">
		<tag k="name" v="Kojedalsbratta" />
		<tag k="name:no" v="Kojedalsbratta" />
		<tag k="natural" v="slope" />
		<tag k="place" v="locality" />
		<tag k="ssr:stedsnr" v="710597" />
	</node>
	<node lat="62.45860000309395" lon="11.532752787387038" id="-34593">
		<tag k="name" v="Pikhaugen" />
		<tag k="name:no" v="Pikhaugen" />
		<tag k="natural" v="hill" />
		<tag k="place" v="locality" />
		<tag k="ssr:stedsnr" v="710803" />
	</node>
	<node lat="62.55309444266213" lon="11.568761112014952" id="-34594">
		<tag k="name" v="Grønnlia" />
		<tag k="name:no" v="Grønnlia" />
		<tag k="natural" v="slope" />
		<tag k="place" v="locality" />
		<tag k="ssr:stedsnr" v="710810" />
	</node>
	<node lat="62.58914444814891" lon="11.468580550687138" id="-34597">
		<tag k="name" v="Storhaugen" />
		<tag k="name:no" v="Storhaugen" />
		<tag k="natural" v="hill" />
		<tag k="place" v="locality" />
		<tag k="ssr:stedsnr" v="710905" />
	</node>
	<node lat="62.60100000182254" lon="11.51517777960819" id="-34598">
		<tag k="name" v="Mattislia" />
		<tag k="name:no" v="Mattislia" />
		<tag k="natural" v="slope" />
		<tag k="place" v="locality" />
		<tag k="ssr:stedsnr" v="710913" />
	</node>
	<node lat="62.72556666814447" lon="11.770083342957768" id="-34601">
		<tag k="name" v="Renstrøa" />
		<tag k="name:no" v="Renstrøa" />
		<tag k="natural" v="hill" />
		<tag k="place" v="locality" />
		<tag k="ssr:stedsnr" v="711629" />
	</node>
	<node lat="62.68358333265223" lon="11.763813891081977" id="-34602">
		<tag k="name" v="Utidalen" />
		<tag k="name:no" v="Utidalen" />
		<tag k="natural" v="valley" />
		<tag k="place" v="locality" />
		<tag k="ssr:stedsnr" v="711679" />
	</node>
	<node lat="62.677491666243014" lon="11.87727222873856" id="-34613">
		<tag k="name" v="Bakkarya" />
		<tag k="name:no" v="Bakkarya" />
		<tag k="natural" v="hill" />
		<tag k="place" v="locality" />
		<tag k="ssr:stedsnr" v="711878" />
	</node>
	<node lat="62.53165277399886" lon="11.523847226862614" id="-34616">
		<tag k="fixme" v="consider natural=peak for the most distinct mountains in the district" />
		<tag k="name" v="Litllifjellet" />
		<tag k="name:no" v="Litllifjellet" />
		<tag k="natural" v="hill" />
		<tag k="place" v="locality" />
		<tag k="ssr:stedsnr" v="739348" />
	</node>
	<node lat="62.4698611110567" lon="11.589213888107649" id="-34617">
		<tag k="name" v="Falkfangerhøgda" />
		<tag k="name:no" v="Falkfangerhøgda" />
		<tag k="natural" v="hill" />
		<tag k="place" v="locality" />
		<tag k="ssr:stedsnr" v="739350" />
	</node>
	<node lat="62.65997777547017" lon="11.21410000370598" id="-34632">
		<tag k="name" v="Røsjøhøgda" />
		<tag k="name:no" v="Røsjøhøgda" />
		<tag k="natural" v="hill" />
		<tag k="place" v="locality" />
		<tag k="ssr:stedsnr" v="740205" />
	</node>
	<node lat="62.79824166386637" lon="11.846811106994991" id="-34638">
		<tag k="name" v="Valsetlia" />
		<tag k="name:no" v="Valsetlia" />
		<tag k="natural" v="slope" />
		<tag k="place" v="locality" />
		<tag k="ssr:stedsnr" v="740795" />
	</node>
	<node lat="62.59291206760116" lon="11.282355559100381" id="-34643">
		<tag k="fixme" v="consider natural=peak for the most distinct mountains in the district" />
		<tag k="name" v="Varglibusta" />
		<tag k="name:no" v="Varglibusta" />
		<tag k="natural" v="hill" />
		<tag k="place" v="locality" />
		<tag k="ssr:stedsnr" v="740925" />
	</node>
	<node lat="62.67462500407423" lon="11.41980555749573" id="-34645">
		<tag k="name" v="Vollberget" />
		<tag k="name:no" v="Vollberget" />
		<tag k="natural" v="hill" />
		<tag k="place" v="locality" />
		<tag k="ssr:stedsnr" v="748775" />
	</node>
	<node lat="62.58529444879105" lon="11.41084444841319" id="-34650">
		<tag k="name" v="Mølleregga" />
		<tag k="name:no" v="Mølleregga" />
		<tag k="natural" v="hill" />
		<tag k="place" v="locality" />
		<tag k="ssr:stedsnr" v="766006" />
	</node>
	<node lat="62.64378055934309" lon="11.36287223182172" id="-34652">
		<tag k="fixme" v="consider natural=peak for the most distinct mountains in the district" />
		<tag k="name" v="Bakkaåsen" />
		<tag k="name:no" v="Bakkaåsen" />
		<tag k="natural" v="hill" />
		<tag k="place" v="locality" />
		<tag k="ssr:stedsnr" v="766078" />
	</node>
	<node lat="62.65596388770482" lon="11.713138886026776" id="-34657">
		<tag k="name" v="Revhibakken" />
		<tag k="name:no" v="Revhibakken" />
		<tag k="natural" v="slope" />
		<tag k="place" v="locality" />
		<tag k="ssr:stedsnr" v="766752" />
	</node>
	<node lat="62.71750277354369" lon="11.44329999786604" id="-34660">
		<tag k="fixme" v="consider natural=peak for the most distinct mountains in the district" />
		<tag k="name" v="Hallguttu" />
		<tag k="name:no" v="Hallguttu" />
		<tag k="natural" v="hill" />
		<tag k="place" v="locality" />
		<tag k="ssr:stedsnr" v="770241" />
	</node>
	<node lat="62.60478610902684" lon="11.756199996836735" id="-34661">
		<tag k="name" v="Brattkåsa" />
		<tag k="name:no" v="Brattkåsa" />
		<tag k="natural" v="slope" />
		<tag k="place" v="locality" />
		<tag k="ssr:stedsnr" v="770261" />
	</node>
	<node lat="62.59932499602567" lon="11.772424995627429" id="-34664">
		<tag k="name" v="Granflobakkan" />
		<tag k="name:no" v="Granflobakkan" />
		<tag k="natural" v="slope" />
		<tag k="place" v="locality" />
		<tag k="ssr:stedsnr" v="770264" />
	</node>
	<node lat="62.604777781932064" lon="11.772713898646414" id="-34665">
		<tag k="name" v="Slåggåslætta" />
		<tag k="name:no" v="Slåggåslætta" />
		<tag k="place" v="locality" />
		<tag k="ssr:stedsnr" v="770265" />
	</node>
	<node lat="62.58969721879664" lon="11.830513884290008" id="-34666">
		<tag k="name" v="Stenskjera" />
		<tag k="name:no" v="Stenskjera" />
		<tag k="natural" v="slope" />
		<tag k="place" v="locality" />
		<tag k="ssr:stedsnr" v="770266" />
	</node>
	<node lat="62.59529999824258" lon="11.716605548161482" id="-34667">
		<tag k="name" v="Stenberget" />
		<tag k="name:no" v="Stenberget" />
		<tag k="natural" v="hill" />
		<tag k="place" v="locality" />
		<tag k="ssr:stedsnr" v="770267" />
	</node>
	<node lat="62.7253027798415" lon="11.944702773793468" id="-34670">
		<tag k="name" v="Sauhaugen" />
		<tag k="name:no" v="Sauhaugen" />
		<tag k="natural" v="hill" />
		<tag k="place" v="locality" />
		<tag k="ssr:stedsnr" v="770104" />
	</node>
	<node lat="62.703347223353774" lon="11.696827769578103" id="-34676">
		<tag k="name" v="Jamtkjerra" />
		<tag k="name:no" v="Jamtkjerra" />
		<tag k="natural" v="hill" />
		<tag k="place" v="locality" />
		<tag k="ssr:stedsnr" v="770317" />
	</node>
	<node lat="62.617727778135645" lon="11.662925004676364" id="-34680">
		<tag k="name" v="Fjellhaugen" />
		<tag k="name:no" v="Fjellhaugen" />
		<tag k="natural" v="hill" />
		<tag k="place" v="locality" />
		<tag k="ssr:stedsnr" v="770663" />
	</node>
	<node lat="62.62243055847443" lon="11.678661106481066" id="-34681">
		<tag k="name" v="Arestlia" />
		<tag k="name:no" v="Arestlia" />
		<tag k="natural" v="slope" />
		<tag k="place" v="locality" />
		<tag k="ssr:stedsnr" v="770667" />
	</node>
	<node lat="62.563130551262375" lon="11.517883341126888" id="-34689">
		<tag k="name" v="Osthåmmårlia" />
		<tag k="name:no" v="Osthåmmårlia" />
		<tag k="natural" v="slope" />
		<tag k="place" v="locality" />
		<tag k="ssr:stedsnr" v="770868" />
	</node>
	<node lat="62.543099999659155" lon="11.533691665797738" id="-34691">
		<tag k="name" v="Rundhaugen" />
		<tag k="name:no" v="Rundhaugen" />
		<tag k="natural" v="hill" />
		<tag k="place" v="locality" />
		<tag k="ssr:stedsnr" v="770872" />
	</node>
	<node lat="62.5362166703682" lon="11.488138891532703" id="-34693">
		<tag k="name" v="Mølmannsdalslia" />
		<tag k="name:no" v="Mølmannsdalslia" />
		<tag k="natural" v="slope" />
		<tag k="place" v="locality" />
		<tag k="ssr:stedsnr" v="770878" />
	</node>
	<node lat="62.599211112857326" lon="11.202191657751184" id="-34703">
		<tag k="name" v="Trøhaugen" />
		<tag k="name:no" v="Trøhaugen" />
		<tag k="natural" v="hill" />
		<tag k="place" v="locality" />
		<tag k="ssr:stedsnr" v="771320" />
	</node>
	<node lat="62.59314166599748" lon="11.293944445918658" id="-34706">
		<tag k="name" v="Tiurhaugen" />
		<tag k="name:no" v="Tiurhaugen" />
		<tag k="natural" v="hill" />
		<tag k="place" v="locality" />
		<tag k="ssr:stedsnr" v="771420" />
	</node>
	<node lat="62.615186108422826" lon="11.298888880854863" id="-34707">
		<tag k="name" v="Kjerringdauen" />
		<tag k="name:no" v="Kjerringdauen" />
		<tag k="natural" v="hill" />
		<tag k="place" v="locality" />
		<tag k="ssr:stedsnr" v="771432" />
	</node>
	<node lat="62.50515555868355" lon="11.91599444460488" id="-34708">
		<tag k="name" v="Øysanden" />
		<tag k="name:no" v="Øysanden" />
		<tag k="place" v="locality" />
		<tag k="ssr:stedsnr" v="771433" />
	</node>
	<node lat="62.75154166580355" lon="11.79640556133578" id="-34713">
		<tag k="name" v="Svartkampen" />
		<tag k="name:no" v="Svartkampen" />
		<tag k="natural" v="hill" />
		<tag k="place" v="locality" />
		<tag k="ssr:stedsnr" v="771565" />
	</node>
	<node lat="62.74589722474625" lon="11.80242222448658" id="-34715">
		<tag k="name" v="Riskneppen" />
		<tag k="name:no" v="Riskneppen" />
		<tag k="natural" v="hill" />
		<tag k="place" v="locality" />
		<tag k="ssr:stedsnr" v="771569" />
	</node>
	<node lat="62.72711110956301" lon="11.819080546901457" id="-34719">
		<tag k="name" v="Karibekkhaugen" />
		<tag k="name:no" v="Karibekkhaugen" />
		<tag k="natural" v="hill" />
		<tag k="place" v="locality" />
		<tag k="ssr:stedsnr" v="771729" />
	</node>
	<node lat="62.78116666849325" lon="11.825772226843412" id="-34723">
		<tag k="name" v="Kjerråøyan" />
		<tag k="name:no" v="Kjerråøyan" />
		<tag k="place" v="locality" />
		<tag k="ssr:stedsnr" v="771809" />
	</node>
	<node lat="62.583580551297004" lon="11.786197214975623" id="-34737">
		<tag k="alt_name:no" v="Storhaugen" />
		<tag k="fixme" v="consider natural=peak for the most distinct mountains in the district" />
		<tag k="name" v="Fjelltjønnhåmmåren" />
		<tag k="name:no" v="Fjelltjønnhåmmåren" />
		<tag k="natural" v="hill" />
		<tag k="place" v="locality" />
		<tag k="ssr:stedsnr" v="801284" />
	</node>
	<node lat="62.44583611481386" lon="11.803225001290194" id="-34747">
		<tag k="fixme" v="consider natural=peak for the most distinct mountains in the district" />
		<tag k="name" v="Svartåsen" />
		<tag k="name:no" v="Svartåsen" />
		<tag k="natural" v="hill" />
		<tag k="place" v="locality" />
		<tag k="ssr:stedsnr" v="809883" />
	</node>
	<node lat="62.48097500224355" lon="11.539750005307546" id="-34749">
		<tag k="fixme" v="consider natural=peak for the most distinct mountains in the district" />
		<tag k="name" v="Rambergsfjellet" />
		<tag k="name:no" v="Rambergsfjellet" />
		<tag k="natural" v="hill" />
		<tag k="place" v="locality" />
		<tag k="ssr:stedsnr" v="921400" />
	</node>
	<node lat="62.69105555481408" lon="11.349305563865537" id="-34756">
		<tag k="name" v="Torvhøgda" />
		<tag k="name:no" v="Torvhøgda" />
		<tag k="natural" v="hill" />
		<tag k="place" v="locality" />
		<tag k="ssr:stedsnr" v="827166" />
	</node>
	<node lat="62.653705555496586" lon="11.896494435420788" id="-34757">
		<tag k="name" v="Kuberget" />
		<tag k="name:no" v="Kuberget" />
		<tag k="natural" v="hill" />
		<tag k="place" v="locality" />
		<tag k="ssr:stedsnr" v="827067" />
	</node>
	<node lat="62.592766663060445" lon="11.772249995364545" id="-34758">
		<tag k="name" v="Gjetryggan" />
		<tag k="name:no" v="Gjetryggan" />
		<tag k="natural" v="ridge" />
		<tag k="place" v="locality" />
		<tag k="ssr:stedsnr" v="827217" />
	</node>
	<node lat="62.71303055904299" lon="11.46484722692044" id="-34762">
		<tag k="fixme" v="consider natural=peak for the most distinct mountains in the district" />
		<tag k="name" v="Tangen" />
		<tag k="name:no" v="Tangen" />
		<tag k="natural" v="hill" />
		<tag k="place" v="locality" />
		<tag k="ssr:stedsnr" v="828172" />
	</node>
	<node lat="62.626555551565076" lon="11.854894437711824" id="-34766">
		<tag k="fixme" v="consider natural=peak for the most distinct mountains in the district" />
		<tag k="name" v="Litlvola" />
		<tag k="name:no" v="Litlvola" />
		<tag k="natural" v="hill" />
		<tag k="place" v="locality" />
		<tag k="ssr:stedsnr" v="922599" />
	</node>
	<node lat="62.60576667004449" lon="11.866233328708114" id="-34776">
		<tag k="name" v="Svartberget" />
		<tag k="name:no" v="Svartberget" />
		<tag k="natural" v="hill" />
		<tag k="place" v="locality" />
		<tag k="ssr:stedsnr" v="922657" />
	</node>
	<node lat="62.72063888705954" lon="11.939250000383579" id="-34785">
		<tag k="fixme" v="consider natural=peak for the most distinct mountains in the district" />
		<tag k="name" v="Litlhåmmåren" />
		<tag k="name:no" v="Litlhåmmåren" />
		<tag k="natural" v="hill" />
		<tag k="place" v="locality" />
		<tag k="ssr:stedsnr" v="831128" />
	</node>
	<node lat="62.59713055687684" lon="11.824522224082228" id="-34798">
		<tag k="name" v="Øvre Båtstadhaugen" />
		<tag k="name:no" v="Øvre Båtstadhaugen" />
		<tag k="natural" v="hill" />
		<tag k="place" v="locality" />
		<tag k="ssr:stedsnr" v="831283" />
	</node>
	<node lat="62.64563888800976" lon="11.806102774324605" id="-34799">
		<tag k="name" v="Nylauslætta" />
		<tag k="name:no" v="Nylauslætta" />
		<tag k="place" v="locality" />
		<tag k="ssr:stedsnr" v="831432" />
	</node>
	<node lat="62.67826944431001" lon="11.344916664294058" id="-34805">
		<tag k="fixme" v="consider natural=peak for the most distinct mountains in the district" />
		<tag k="name" v="Klumpen" />
		<tag k="name:no" v="Klumpen" />
		<tag k="natural" v="hill" />
		<tag k="place" v="locality" />
		<tag k="ssr:stedsnr" v="922984" />
	</node>
	<node lat="62.504697218779256" lon="11.491019439293567" id="-34807">
		<tag k="name" v="Brynkåshaugen" />
		<tag k="name:no" v="Brynkåshaugen" />
		<tag k="natural" v="hill" />
		<tag k="place" v="locality" />
		<tag k="ssr:stedsnr" v="831735" />
	</node>
	<node lat="62.64310000201015" lon="11.590805561047842" id="-34813">
		<tag k="name" v="Sankthanskjerringa" />
		<tag k="name:no" v="Sankthanskjerringa" />
		<tag k="natural" v="hill" />
		<tag k="place" v="locality" />
		<tag k="ssr:stedsnr" v="831885" />
	</node>
	<node lat="62.66465555701694" lon="11.390755562175679" id="-34817">
		<tag k="name" v="Monsberget" />
		<tag k="name:no" v="Monsberget" />
		<tag k="natural" v="hill" />
		<tag k="place" v="locality" />
		<tag k="ssr:stedsnr" v="832207" />
	</node>
	<node lat="62.572272223260896" lon="11.24371110387934" id="-34823">
		<tag k="name" v="Tørreslausletta" />
		<tag k="name:no" v="Tørreslausletta" />
		<tag k="place" v="locality" />
		<tag k="ssr:stedsnr" v="832398" />
	</node>
	<node lat="62.745277774126784" lon="11.845877770610162" id="-34839">
		<tag k="fixme" v="consider natural=peak for the most distinct mountains in the district" />
		<tag k="name" v="Fremmeråsen" />
		<tag k="name:no" v="Fremmeråsen" />
		<tag k="natural" v="hill" />
		<tag k="place" v="locality" />
		<tag k="ssr:stedsnr" v="832640" />
	</node>
	<node lat="62.468611112610816" lon="11.547194453507489" id="-34843">
		<tag k="name" v="Kvernbekkmoa" />
		<tag k="name:no" v="Kvernbekkmoa" />
		<tag k="place" v="locality" />
		<tag k="ssr:stedsnr" v="832805" />
	</node>
	<node lat="62.643361108396554" lon="11.55986943454095" id="-34845">
		<tag k="name" v="Guldalshaugan" />
		<tag k="name:no" v="Guldalshaugan" />
		<tag k="natural" v="hill" />
		<tag k="place" v="locality" />
		<tag k="ssr:stedsnr" v="832984" />
	</node>
</osm>
