<?xml version="1.0" encoding="UTF-8"?>
<<<<<<< HEAD
<osm version="0.6" generator="osmapis">
	<node lat="71.05839722738817" lon="26.18804972310252" id="-42298">
		<tag k="name" v="Vesterjordet" />
		<tag k="place" v="locality" />
		<tag k="ssr:stedsnr" v="20314" />
	</node>
	<node lat="70.87183334129855" lon="25.75119421817591" id="-42315">
=======
<osm generator="osmapis" version="0.6">
	<node id="-904060" lat="70.8441888943" lon="25.4117720367">
		<tag k="name" v="Námmeleakšá" />
		<tag k="name:se" v="Námmeleakšá" />
		<tag k="natural" v="wetland" />
		<tag k="old_name:se" v="Nammelækša" />
		<tag k="ssr:stedsnr" v="262002" />
	</node>
	<node id="-904571" lat="70.8666888981" lon="25.7527747773">
		<tag k="name" v="Maritmyra" />
		<tag k="natural" v="wetland" />
		<tag k="ssr:stedsnr" v="146579" />
	</node>
	<node id="-904057" lat="70.8732361173" lon="25.7324469834">
		<tag k="name" v="Solstrand" />
		<tag k="place" v="locality" />
		<tag k="ssr:stedsnr" v="451636" />
	</node>
	<node id="-904822" lat="70.8602861202" lon="25.7317886541">
		<tag k="name" v="Bottenmyra" />
		<tag k="natural" v="wetland" />
		<tag k="ssr:stedsnr" v="571584" />
	</node>
	<node id="-904437" lat="70.8718333413" lon="25.7511942182">
>>>>>>> e1d4bc35ff8a6074a6f2e91616a996b547c36f15
		<tag k="name" v="Haraldjordet" />
		<tag k="place" v="locality" />
		<tag k="ssr:stedsnr" v="25596" />
	</node>
<<<<<<< HEAD
	<node lat="70.83851666894638" lon="25.795733107233673" id="-42439">
		<tag k="name" v="Lockertmyra" />
		<tag k="natural" v="wetland" />
		<tag k="ssr:stedsnr" v="269550" />
	</node>
	<node lat="70.89861111846666" lon="25.798944211731943" id="-42444">
=======
	<node id="-904435" lat="70.8673638945" lon="25.7711692025">
		<tag k="name" v="Langmyra" />
		<tag k="natural" v="wetland" />
		<tag k="ssr:stedsnr" v="25543" />
	</node>
	<node id="-904047" lat="70.8931944544" lon="25.7831803157">
		<tag k="name" v="Kvitsteinen" />
		<tag k="natural" v="stone" />
		<tag k="ssr:stedsnr" v="449443" />
	</node>
	<node id="-904046" lat="70.8986111185" lon="25.7989442117">
>>>>>>> e1d4bc35ff8a6074a6f2e91616a996b547c36f15
		<tag k="name" v="Gargoøra" />
		<tag k="natural" v="scree" />
		<tag k="ssr:stedsnr" v="449441" />
	</node>
<<<<<<< HEAD
	<node lat="70.89319445440876" lon="25.783180315708677" id="-42445">
		<tag k="name" v="Kvitsteinen" />
		<tag k="natural" v="stone" />
		<tag k="ssr:stedsnr" v="449443" />
	</node>
	<node lat="70.8732361172844" lon="25.732446983430847" id="-42453">
		<tag k="name" v="Solstrand" />
		<tag k="place" v="locality" />
		<tag k="ssr:stedsnr" v="451636" />
	</node>
	<node lat="70.84418889432074" lon="25.41177203665457" id="-42457">
		<tag k="name" v="Námmeleakšá" />
		<tag k="name:se" v="Námmeleakšá" />
=======
	<node id="-903911" lat="71.0583972274" lon="26.1880497231">
		<tag k="name" v="Vesterjordet" />
		<tag k="place" v="locality" />
		<tag k="ssr:stedsnr" v="20314" />
	</node>
	<node id="-904934" lat="70.8516750094" lon="25.8262636538">
		<tag k="name" v="Vargemyra" />
		<tag k="natural" v="wetland" />
		<tag k="ssr:stedsnr" v="754561" />
	</node>
	<node id="-904931" lat="70.9963166714" lon="26.0725358669">
		<tag k="name" v="Kjelvikmyra" />
		<tag k="natural" v="wetland" />
		<tag k="ssr:stedsnr" v="754506" />
	</node>
	<node id="-904800" lat="71.083472231" lon="25.3869581471">
		<tag k="name" v="Storskogen" />
		<tag k="place" v="locality" />
		<tag k="ssr:stedsnr" v="566060" />
	</node>
	<node id="-904409" lat="70.9509472288" lon="25.5688359127">
		<tag k="name" v="Skáhterleakšá" />
		<tag k="name:se" v="Skáhterleakšá" />
		<tag k="natural" v="wetland" />
		<tag k="old_name:se" v="Skatterlækša" />
		<tag k="ssr:stedsnr" v="20051" />
	</node>
	<node id="-904054" lat="70.9795861171" lon="26.0356914238">
		<tag k="name" v="Øra" />
		<tag k="place" v="locality" />
		<tag k="ssr:stedsnr" v="450468" />
	</node>
	<node id="-905025" lat="70.8789222307" lon="25.7530053356">
		<tag k="name" v="Ytrejorda" />
		<tag k="place" v="locality" />
		<tag k="ssr:stedsnr" v="875561" />
	</node>
	<node id="-904384" lat="70.8425888922" lon="25.8310775491">
		<tag k="name" v="Jakob Henriksa-stykket" />
		<tag k="place" v="locality" />
		<tag k="ssr:stedsnr" v="936509" />
	</node>
	<node id="-905023" lat="70.8777722278" lon="25.7632914344">
		<tag k="name" v="Serinamyra" />
		<tag k="natural" v="wetland" />
		<tag k="ssr:stedsnr" v="874492" />
	</node>
	<node id="-904251" lat="71.0244683618" lon="25.896847439">
		<tag k="name" v="Seppolajordet" />
		<tag k="place" v="locality" />
		<tag k="ssr:stedsnr" v="632322" />
	</node>
	<node id="-903991" lat="70.8385166689" lon="25.7957331072">
		<tag k="name" v="Lockertmyra" />
		<tag k="natural" v="wetland" />
		<tag k="ssr:stedsnr" v="269550" />
	</node>
	<node id="-904630" lat="70.8676416729" lon="25.7249942279">
		<tag k="name" v="Pederjordet" />
		<tag k="place" v="locality" />
		<tag k="ssr:stedsnr" v="207568" />
	</node>
	<node id="-904755" lat="70.8697694499" lon="25.7763608876">
		<tag k="name" v="Bårdmyra" />
		<tag k="natural" v="wetland" />
		<tag k="ssr:stedsnr" v="389576" />
	</node>
	<node id="-904362" lat="70.866569447" lon="25.8147219795">
		<tag k="name" v="Rundmyran" />
>>>>>>> e1d4bc35ff8a6074a6f2e91616a996b547c36f15
		<tag k="natural" v="wetland" />
		<tag k="old_name:se" v="Nammelækša" />
		<tag k="ssr:stedsnr" v="262002" />
	</node>
<<<<<<< HEAD
	<node lat="70.97958611711157" lon="26.035691423842454" id="-42533">
		<tag k="name" v="Øra" />
		<tag k="place" v="locality" />
		<tag k="ssr:stedsnr" v="450468" />
=======
	<node id="-904335" lat="70.8741916723" lon="25.7331997706">
		<tag k="name" v="Mattisjorda" />
		<tag k="place" v="locality" />
		<tag k="ssr:stedsnr" v="935564" />
	</node>
	<node id="-904579" lat="70.7867583403" lon="25.7240053256">
		<tag k="name" v="Kattura" />
		<tag k="natural" v="scree" />
		<tag k="ssr:stedsnr" v="150691" />
	</node>
	<node id="-904962" lat="70.8170166769" lon="25.7501331051">
		<tag k="name" v="Fáhccunjeaggi" />
		<tag k="name:se" v="Fáhccunjeaggi" />
		<tag k="natural" v="wetland" />
		<tag k="old_name:se" v="Facconjæggi" />
		<tag k="ssr:stedsnr" v="809115" />
>>>>>>> e1d4bc35ff8a6074a6f2e91616a996b547c36f15
	</node>
</osm>
