<?xml version="1.0" encoding="UTF-8"?>
<osm version="0.6" generator="osmapis">
	<node lat="71.04445833973918" lon="26.14681641097326" id="-55451">
		<tag k="name" v="Laukvikelva" />
		<tag k="ssr:stedsnr" v="20249" />
		<tag k="waterway" v="river" />
	</node>
	<node lat="71.096797231247" lon="25.879169220575722" id="-55456">
		<tag k="name" v="Molvikvatna" />
		<tag k="natural" v="water" />
		<tag k="ssr:stedsnr" v="20289" />
		<tag k="water" v="lake" />
	</node>
	<node lat="71.00323889855476" lon="25.968958092657147" id="-55467">
		<tag k="name" v="Andrevatn" />
		<tag k="natural" v="water" />
		<tag k="ssr:stedsnr" v="24310" />
		<tag k="water" v="lake" />
	</node>
	<node lat="70.8289861183816" lon="25.77189700188338" id="-55475">
		<tag k="name" v="Sandvikelva" />
		<tag k="ssr:stedsnr" v="28573" />
		<tag k="waterway" v="river" />
	</node>
	<node lat="70.83733889352189" lon="25.722838646498918" id="-55478">
		<tag k="name" v="Tredjedalsvatnet" />
		<tag k="natural" v="water" />
		<tag k="ssr:stedsnr" v="80121" />
	</node>
	<node lat="70.76742778793681" lon="25.4590025664009" id="-55485">
		<tag k="name" v="Lafjordvatnet - Lávvárjávri" />
		<tag k="name:no" v="Lafjordvatnet" />
		<tag k="name:se" v="Lávvárjávri" />
		<tag k="natural" v="water" />
		<tag k="old_name:se" v="Lavvarjavri" />
		<tag k="ssr:stedsnr" v="81088" />
		<tag k="water" v="lake" />
	</node>
	<node lat="71.12733611822267" lon="25.757671998141692" id="-55495">
		<tag k="name" v="Kobbenesvannet" />
		<tag k="natural" v="water" />
		<tag k="ssr:stedsnr" v="86292" />
		<tag k="water" v="lake" />
	</node>
	<node lat="70.78710834123419" lon="25.691463650940452" id="-55499">
		<tag k="name" v="Brattelva" />
		<tag k="ssr:stedsnr" v="89720" />
		<tag k="waterway" v="stream" />
	</node>
	<node lat="70.8642333388962" lon="25.815794210619757" id="-55503">
		<tag k="name" v="Porsangvikelva" />
		<tag k="ssr:stedsnr" v="141003" />
		<tag k="waterway" v="river" />
	</node>
	<node lat="70.8942194483443" lon="25.451910904614362" id="-55504">
		<tag k="name" v="Jiekŋajávrrit" />
		<tag k="name:se" v="Jiekŋajávrrit" />
		<tag k="natural" v="water" />
		<tag k="old_name:se" v="Jiegŋajavrit" />
		<tag k="ssr:stedsnr" v="141040" />
		<tag k="water" v="lake" />
	</node>
	<node lat="70.75439723175153" lon="25.503849788503842" id="-55505">
		<tag k="name" v="Ørretvatnet - Dápmotjávri" />
		<tag k="name:no" v="Ørretvatnet" />
		<tag k="name:se" v="Dápmotjávri" />
		<tag k="natural" v="water" />
		<tag k="old_name:se" v="Dabmutjavri" />
		<tag k="ssr:stedsnr" v="141086" />
		<tag k="water" v="lake" />
	</node>
	<node lat="71.10920000348752" lon="25.909877542289102" id="-55506">
		<tag k="name" v="Kaldfjordvatnet" />
		<tag k="natural" v="water" />
		<tag k="ssr:stedsnr" v="141305" />
	</node>
	<node lat="71.06433056243425" lon="25.702974793289048" id="-55508">
		<tag k="name" v="Hamnelva - Irevuonjohka" />
		<tag k="name:no" v="Hamnelva" />
		<tag k="name:se" v="Irevuonjohka" />
		<tag k="old_name:se" v="Irevuonjåkka" />
		<tag k="ssr:stedsnr" v="141388" />
		<tag k="waterway" v="river" />
	</node>
	<node lat="71.03177500261505" lon="25.89308587617197" id="-55509">
		<tag k="name" v="Storvatnet" />
		<tag k="natural" v="water" />
		<tag k="ssr:stedsnr" v="147314" />
		<tag k="water" v="lake" />
	</node>
	<node lat="70.83374167482583" lon="25.52720257880878" id="-55516">
		<tag k="name" v="Láibejávri" />
		<tag k="name:se" v="Láibejávri" />
		<tag k="natural" v="water" />
		<tag k="old_name:se" v="Laibejavri" />
		<tag k="ssr:stedsnr" v="262120" />
	</node>
	<node lat="70.83132223494768" lon="26.337396919983235" id="-55521">
		<tag k="name" v="Russevikelva" />
		<tag k="ssr:stedsnr" v="262158" />
		<tag k="waterway" v="river" />
	</node>
	<node lat="71.08951111475776" lon="25.776444231445357" id="-55531">
		<tag k="loc_name" v="Gjesvær-Rundvatnet" />
		<tag k="name" v="Rundvatnet" />
		<tag k="natural" v="water" />
		<tag k="ssr:stedsnr" v="262359" />
	</node>
	<node lat="71.07136945386544" lon="25.397533141442466" id="-55532">
		<tag k="name" v="Svartvatnet - Čáhppesjávri" />
		<tag k="name:no" v="Svartvatnet" />
		<tag k="name:se" v="Čáhppesjávri" />
		<tag k="natural" v="water" />
		<tag k="old_name:se" v="Čappesjavri" />
		<tag k="ssr:stedsnr" v="262363" />
		<tag k="water" v="lake" />
	</node>
	<node lat="70.66283056612441" lon="26.03400528278883" id="-55534">
		<tag k="name" v="Valjesjohka" />
		<tag k="name:se" v="Valjesjohka" />
		<tag k="old_name:se" v="Valljesjåkka" />
		<tag k="ssr:stedsnr" v="262556" />
		<tag k="waterway" v="stream" />
	</node>
	<node lat="70.74904167391993" lon="25.57333866788222" id="-55535">
		<tag k="name" v="Strandelva - Stránddajohka" />
		<tag k="name:no" v="Strandelva" />
		<tag k="name:se" v="Stránddajohka" />
		<tag k="old_name:se" v="Strandajåkka;Strándajohka" />
		<tag k="ssr:stedsnr" v="262977" />
		<tag k="waterway" v="river" />
	</node>
	<node lat="71.05113889482993" lon="25.690252556928602" id="-55543">
		<tag k="name" v="Irevuonjávri" />
		<tag k="name:se" v="Irevuonjávri" />
		<tag k="natural" v="water" />
		<tag k="old_name:se" v="Irevuonjavri" />
		<tag k="ssr:stedsnr" v="263356" />
	</node>
	<node lat="70.86136667570392" lon="25.621638667916628" id="-55561">
		<tag k="name" v="Fisketindvatnet - Roggejávri" />
		<tag k="name:no" v="Fisketindvatnet" />
		<tag k="name:se" v="Roggejávri" />
		<tag k="natural" v="water" />
		<tag k="old_name:se" v="Råggejavri" />
		<tag k="ssr:stedsnr" v="202011" />
	</node>
	<node lat="71.13835000267566" lon="25.690002573111407" id="-55578">
		<tag k="name" v="Sandfjordvannet øvre" />
		<tag k="natural" v="water" />
		<tag k="ssr:stedsnr" v="268270" />
		<tag k="water" v="lake" />
	</node>
	<node lat="71.10214444751239" lon="25.83025809748821" id="-55581">
		<tag k="name" v="Risfjordvatnet" />
		<tag k="natural" v="water" />
		<tag k="ssr:stedsnr" v="268457" />
		<tag k="water" v="lake" />
	</node>
	<node lat="70.85547500690117" lon="25.78274144514498" id="-55583">
		<tag k="name" v="Brennlielva" />
		<tag k="ssr:stedsnr" v="207534" />
		<tag k="waterway" v="stream" />
	</node>
	<node lat="71.00832778128948" lon="25.877716436611745" id="-55585">
		<tag k="name" v="Østerelvvatnet" />
		<tag k="natural" v="water" />
		<tag k="ssr:stedsnr" v="268822" />
		<tag k="water" v="lake" />
	</node>
	<node lat="70.88425833546137" lon="25.800941428486613" id="-55603">
		<tag k="name" v="Varvatnet" />
		<tag k="natural" v="water" />
		<tag k="ssr:stedsnr" v="449451" />
		<tag k="water" v="lake" />
	</node>
	<node lat="70.99351944805618" lon="26.031138632489" id="-55606">
		<tag k="name" v="Småvatnan" />
		<tag k="natural" v="water" />
		<tag k="ssr:stedsnr" v="450465" />
	</node>
	<node lat="70.87142223173298" lon="25.700558112215685" id="-55614">
		<tag k="name" v="Mattiselva" />
		<tag k="ssr:stedsnr" v="262008" />
		<tag k="waterway" v="stream" />
	</node>
	<node lat="70.90413334009625" lon="25.47771925560799" id="-55616">
		<tag k="name" v="Miššavuonjávri" />
		<tag k="name:se" v="Miššavuonjávri" />
		<tag k="natural" v="water" />
		<tag k="old_name:se" v="Miššavuonjavri" />
		<tag k="ssr:stedsnr" v="262044" />
	</node>
	<node lat="70.75263333462564" lon="25.564522013561135" id="-55619">
		<tag k="alt_name" v="Strandvatnet" />
		<tag k="name" v="Store Strandvatnet" />
		<tag k="natural" v="water" />
		<tag k="old_name" v="Strandvatnet, store" />
		<tag k="ssr:stedsnr" v="263101" />
		<tag k="water" v="lake" />
	</node>
	<node lat="70.80997778293037" lon="26.281930257816846" id="-55632">
		<tag k="name" v="Flatvikelva" />
		<tag k="ssr:stedsnr" v="323174" />
		<tag k="waterway" v="river" />
	</node>
	<node lat="71.00003611980365" lon="25.964877549405784" id="-55642">
		<tag k="name" v="Førstevatn" />
		<tag k="natural" v="water" />
		<tag k="ssr:stedsnr" v="328822" />
		<tag k="water" v="lake" />
	</node>
	<node lat="70.85135278028099" lon="25.38854701234962" id="-55649">
		<tag k="name" v="Suoidnejávri" />
		<tag k="name:se" v="Suoidnejávri" />
		<tag k="natural" v="water" />
		<tag k="old_name:se" v="Suoidnejavri" />
		<tag k="ssr:stedsnr" v="383002" />
	</node>
	<node lat="70.8796527834803" lon="26.457688587565254" id="-55655">
		<tag k="name" v="Rekvikvatnet" />
		<tag k="natural" v="water" />
		<tag k="ssr:stedsnr" v="384151" />
	</node>
	<node lat="70.97816945217895" lon="25.78139143753199" id="-55662">
		<tag k="alt_name" v="Storvatnet" />
		<tag k="name" v="Sætervågvatnet" />
		<tag k="natural" v="water" />
		<tag k="ssr:stedsnr" v="389796" />
		<tag k="water" v="lake" />
	</node>
	<node lat="70.833144447713" lon="25.785449775656254" id="-55663">
		<tag k="name" v="Martavatnan" />
		<tag k="natural" v="water" />
		<tag k="ssr:stedsnr" v="390513" />
	</node>
	<node lat="70.83697500407892" lon="25.6508192097556" id="-55677">
		<tag k="alt_name:no" v="Kåfjordvatnet, nedre" />
		<tag k="name" v="Nedre Kåfjordvatnet - Gávkevuonjávri" />
		<tag k="name:no" v="Nedre Kåfjordvatnet" />
		<tag k="name:se" v="Gávkevuonjávri" />
		<tag k="natural" v="water" />
		<tag k="old_name:se" v="Gavkevuonjavri" />
		<tag k="ssr:stedsnr" v="445128" />
	</node>
	<node lat="71.03554167330375" lon="25.549074809754366" id="-55680">
		<tag k="name" v="Skadjajohka" />
		<tag k="name:se" v="Skadjajohka" />
		<tag k="old_name:se" v="Skaddjajåkka" />
		<tag k="ssr:stedsnr" v="445335" />
		<tag k="waterway" v="river" />
	</node>
	<node lat="71.08130833436842" lon="25.523724815416255" id="-55682">
		<tag k="name" v="Riselva" />
		<tag k="ssr:stedsnr" v="445376" />
		<tag k="waterway" v="river" />
	</node>
	<node lat="70.98728056028335" lon="25.769210883267537" id="-55683">
		<tag k="name" v="Svartvatnet" />
		<tag k="natural" v="water" />
		<tag k="ssr:stedsnr" v="445475" />
	</node>
	<node lat="70.84265000240289" lon="25.81683032120448" id="-55691">
		<tag k="name" v="Seilarvatnet" />
		<tag k="natural" v="water" />
		<tag k="ssr:stedsnr" v="450520" />
		<tag k="water" v="lake" />
	</node>
	<node lat="70.97606389677523" lon="25.880033096664842" id="-55693">
		<tag k="name" v="Nedrevatn" />
		<tag k="natural" v="water" />
		<tag k="ssr:stedsnr" v="450826" />
		<tag k="water" v="lake" />
	</node>
	<node lat="70.79720834013877" lon="25.733891433931298" id="-55694">
		<tag k="name" v="Ørretvatnet" />
		<tag k="natural" v="water" />
		<tag k="ssr:stedsnr" v="454662" />
	</node>
	<node lat="70.85756389665092" lon="25.38384146854369" id="-55696">
		<tag k="name" v="Čivttetjávri" />
		<tag k="name:se" v="Čivttetjávri" />
		<tag k="natural" v="water" />
		<tag k="old_name:se" v="Čivtetjavri" />
		<tag k="ssr:stedsnr" v="505017" />
	</node>
	<node lat="70.87905833990254" lon="25.781841431132737" id="-55697">
		<tag k="name" v="Karenvatnet" />
		<tag k="natural" v="water" />
		<tag k="ssr:stedsnr" v="505019" />
	</node>
	<node lat="70.85781111892435" lon="25.827071992283198" id="-55706">
		<tag k="name" v="Smørkannvatnet" />
		<tag k="natural" v="water" />
		<tag k="ssr:stedsnr" v="511542" />
		<tag k="water" v="lake" />
	</node>
	<node lat="70.82843889712507" lon="25.754652561813746" id="-55716">
		<tag k="name" v="Sandviksvatna" />
		<tag k="natural" v="water" />
		<tag k="ssr:stedsnr" v="687112" />
		<tag k="water" v="lake" />
	</node>
	<node lat="71.0495833400868" lon="25.585474811008343" id="-55724">
		<tag k="name" v="Skadjajávri" />
		<tag k="name:se" v="Skadjajávri" />
		<tag k="natural" v="water" />
		<tag k="old_name:se" v="Skaddjajavri" />
		<tag k="ssr:stedsnr" v="687317" />
	</node>
	<node lat="71.0883972249628" lon="25.519308127345532" id="-55729">
		<tag k="name" v="Čuvgesjávrrit" />
		<tag k="name:se" v="Čuvgesjávrrit" />
		<tag k="natural" v="water" />
		<tag k="old_name:se" v="Čuvgesjavrit" />
		<tag k="ssr:stedsnr" v="687361" />
		<tag k="water" v="lake" />
	</node>
	<node lat="70.76966944721008" lon="25.384766474653205" id="-55738">
		<tag k="name" v="Gámasjohka" />
		<tag k="name:se" v="Gámasjohka" />
		<tag k="old_name:se" v="Gammasjåkka" />
		<tag k="ssr:stedsnr" v="688086" />
		<tag k="waterway" v="river" />
	</node>
	<node lat="70.83380000984633" lon="25.710916448548115" id="-55753">
		<tag k="name" v="Fjerdedalsvatnet" />
		<tag k="natural" v="water" />
		<tag k="ssr:stedsnr" v="566118" />
	</node>
	<node lat="70.83673611872167" lon="25.736305323227924" id="-55754">
		<tag k="alt_name" v="Annendalsvatnet" />
		<tag k="name" v="Andredalsvatnet" />
		<tag k="natural" v="water" />
		<tag k="ssr:stedsnr" v="566119" />
		<tag k="water" v="lake" />
	</node>
	<node lat="70.75318333697153" lon="25.566194224772502" id="-55772">
		<tag k="name" v="Strandvatnan" />
		<tag k="natural" v="water" />
		<tag k="ssr:stedsnr" v="594002" />
		<tag k="water" v="lake" />
	</node>
	<node lat="70.89997501013845" lon="26.49031358435068" id="-55774">
		<tag k="alt_name" v="Rekvikdalelva, yt" />
		<tag k="name" v="Ytre Rekvikdalelva" />
		<tag k="ssr:stedsnr" v="626157" />
		<tag k="waterway" v="river" />
	</node>
	<node lat="71.0881527857665" lon="25.8161331059138" id="-55778">
		<tag k="alt_name" v="Langvatnet, nedre;Nedre Langvatn" />
		<tag k="name" v="Nedre Langvatnet" />
		<tag k="natural" v="water" />
		<tag k="ssr:stedsnr" v="626404" />
		<tag k="water" v="lake" />
	</node>
	<node lat="71.05990834172809" lon="25.550427578728357" id="-55779">
		<tag k="alt_name" v="Risfjordvatnet, øvre" />
		<tag k="name" v="Øvre Risfjordvatnet" />
		<tag k="natural" v="water" />
		<tag k="ssr:stedsnr" v="626418" />
	</node>
	<node lat="71.03892222623062" lon="25.29006093519916" id="-55780">
		<tag k="name" v="Silbajávrrit" />
		<tag k="name:se" v="Silbajávrrit" />
		<tag k="natural" v="water" />
		<tag k="old_name:se" v="Silbajavrit" />
		<tag k="ssr:stedsnr" v="626355" />
	</node>
	<node lat="71.09807222717461" lon="25.8415636776437" id="-55802">
		<tag k="alt_name" v="Langvatnet, øvre;Øvre Langvatn" />
		<tag k="name" v="Øvre Langvatnet" />
		<tag k="natural" v="water" />
		<tag k="ssr:stedsnr" v="688307" />
	</node>
	<node lat="71.0081250023057" lon="25.890752553810497" id="-55805">
		<tag k="name" v="Østerelva" />
		<tag k="ssr:stedsnr" v="692812" />
		<tag k="waterway" v="river" />
	</node>
	<node lat="71.0997250080796" lon="25.80345810630579" id="-55806">
		<tag k="name" v="Østvatnet" />
		<tag k="natural" v="water" />
		<tag k="ssr:stedsnr" v="693484" />
		<tag k="water" v="lake" />
	</node>
	<node lat="70.87191667187716" lon="25.78633864773695" id="-55819">
		<tag k="name" v="Bårdvatnet" />
		<tag k="natural" v="water" />
		<tag k="ssr:stedsnr" v="748013" />
	</node>
	<node lat="70.82098056417892" lon="25.443130360958442" id="-55823">
		<tag k="name" v="Námmejohka" />
		<tag k="name:se" v="Námmejohka" />
		<tag k="old_name:se" v="Nammejåkka;Nammejohka" />
		<tag k="ssr:stedsnr" v="748112" />
		<tag k="waterway" v="river" />
	</node>
	<node lat="70.76706944602648" lon="25.520727562988544" id="-55842">
		<tag k="name" v="Trollvatnet - Ruollačohjávri" />
		<tag k="name:no" v="Trollvatnet" />
		<tag k="name:se" v="Ruollačohjávri" />
		<tag k="natural" v="water" />
		<tag k="old_name:se" v="Ruollacåkjavri" />
		<tag k="ssr:stedsnr" v="809092" />
		<tag k="water" v="lake" />
	</node>
	<node lat="71.08144444629596" lon="25.378641496936062" id="-55844">
		<tag k="name" v="Storskogvatnet" />
		<tag k="natural" v="water" />
		<tag k="ssr:stedsnr" v="809389" />
	</node>
	<node lat="70.84839722401283" lon="25.419580348629655" id="-55852">
		<tag k="name" v="Čiekŋalisjávri" />
		<tag k="name:se" v="Čiekŋalisjávri" />
		<tag k="natural" v="water" />
		<tag k="old_name:se" v="Čiegŋalisjavri" />
		<tag k="ssr:stedsnr" v="930009" />
	</node>
	<node lat="70.76428056151207" lon="25.838749763208384" id="-55866">
		<tag k="name" v="Lomvatnet" />
		<tag k="natural" v="water" />
		<tag k="ssr:stedsnr" v="930165" />
	</node>
	<node lat="71.08773333442524" lon="25.392405362679128" id="-55878">
		<tag k="name" v="Urdvatnet" />
		<tag k="natural" v="water" />
		<tag k="ssr:stedsnr" v="930376" />
	</node>
	<node lat="71.07319722263638" lon="25.517797029478654" id="-55885">
		<tag k="alt_name" v="Risfjordvatnet, nedre" />
		<tag k="name" v="Nedre Risfjordvatnet" />
		<tag k="natural" v="water" />
		<tag k="ssr:stedsnr" v="930389" />
	</node>
	<node lat="70.97941945180241" lon="25.511077569038093" id="-55900">
		<tag k="name" v="Finnvikvatna" />
		<tag k="natural" v="water" />
		<tag k="ssr:stedsnr" v="931475" />
	</node>
	<node lat="70.8794500077306" lon="25.794702545844483" id="-55907">
		<tag k="name" v="Lille Porsangvikvatnet" />
		<tag k="natural" v="water" />
		<tag k="ssr:stedsnr" v="934443" />
		<tag k="water" v="lake" />
	</node>
	<node lat="70.80785833562112" lon="25.482188689063502" id="-55911">
		<tag k="name" v="Lafjordelva - Lávvárjohka" />
		<tag k="name:no" v="Lafjordelva" />
		<tag k="name:se" v="Lávvárjohka" />
		<tag k="old_name:se" v="Lavvarjåkka" />
		<tag k="ssr:stedsnr" v="930005" />
		<tag k="waterway" v="river" />
	</node>
	<node lat="70.78889445569118" lon="25.632308104865995" id="-55915">
		<tag k="name" v="Ánddámáhtejávri" />
		<tag k="name:se" v="Ánddámáhtejávri" />
		<tag k="natural" v="water" />
		<tag k="old_name:se" v="Andamattejavri" />
		<tag k="ssr:stedsnr" v="930102" />
	</node>
	<node lat="70.72071389799329" lon="26.130424714003954" id="-55917">
		<tag k="name" v="Rekvikelva" />
		<tag k="ssr:stedsnr" v="930550" />
		<tag k="waterway" v="stream" />
	</node>
	<node lat="70.7774166710273" lon="25.614627554412923" id="-55925">
		<tag k="name" v="Mattiselva" />
		<tag k="ssr:stedsnr" v="939704" />
		<tag k="waterway" v="stream" />
	</node>
	<node lat="70.82406666933994" lon="25.682224787049684" id="-55931">
		<tag k="name" v="Femtedalsvatnet - Bierssájávri" />
		<tag k="name:no" v="Femtedalsvatnet" />
		<tag k="name:se" v="Bierssájávri" />
		<tag k="natural" v="water" />
		<tag k="old_name:se" v="Biersajavri" />
		<tag k="ssr:stedsnr" v="20109" />
		<tag k="water" v="lake" />
	</node>
	<node lat="70.94178889792173" lon="26.566363565565428" id="-55936">
		<tag k="name" v="Mjåvikelva" />
		<tag k="ssr:stedsnr" v="20148" />
		<tag k="waterway" v="river" />
	</node>
	<node lat="71.0855722309709" lon="25.775672003792064" id="-55947">
		<tag k="name" v="Laksevatnet" />
		<tag k="natural" v="water" />
		<tag k="ssr:stedsnr" v="20358" />
	</node>
	<node lat="71.06697222445904" lon="25.36790814273622" id="-55949">
		<tag k="name" v="Hollendarvatnet" />
		<tag k="natural" v="water" />
		<tag k="ssr:stedsnr" v="20369" />
	</node>
	<node lat="71.00584167291164" lon="25.89856366556187" id="-55955">
		<tag k="name" v="Seibuktvatnet" />
		<tag k="natural" v="water" />
		<tag k="ssr:stedsnr" v="25827" />
		<tag k="water" v="lake" />
	</node>
	<node lat="70.80052778049318" lon="25.592824785542817" id="-55962">
		<tag k="name" v="Kattvatnet" />
		<tag k="natural" v="water" />
		<tag k="ssr:stedsnr" v="29642" />
		<tag k="water" v="lake" />
	</node>
	<node lat="70.95071945523821" lon="25.677580330802105" id="-55967">
		<tag k="name" v="Guvllajávri" />
		<tag k="name:se" v="Guvllajávri" />
		<tag k="natural" v="water" />
		<tag k="old_name:se" v="Guvlajavri" />
		<tag k="ssr:stedsnr" v="80063" />
	</node>
	<node lat="71.08503055907727" lon="25.355063716283585" id="-55981">
		<tag k="name" v="Holmevatnet" />
		<tag k="natural" v="water" />
		<tag k="ssr:stedsnr" v="80359" />
	</node>
	<node lat="71.07940000209389" lon="25.55371090192989" id="-55982">
		<tag k="name" v="Tindvatnet" />
		<tag k="natural" v="water" />
		<tag k="ssr:stedsnr" v="80367" />
	</node>
	<node lat="70.71475000716039" lon="26.255574712428892" id="-55985">
		<tag k="name" v="Sávzaláttu" />
		<tag k="name:se" v="Sávzaláttu" />
		<tag k="natural" v="water" />
		<tag k="old_name:se" v="Savzaladdo" />
		<tag k="ssr:stedsnr" v="80529" />
	</node>
	<node lat="70.84038333478385" lon="25.809655322878374" id="-56003">
		<tag k="name" v="Rastkeilelva" />
		<tag k="ssr:stedsnr" v="86520" />
		<tag k="waterway" v="river" />
	</node>
	<node lat="70.84408889187416" lon="25.830246978069734" id="-56009">
		<tag k="name" v="Jakob Henriksa-vatnet" />
		<tag k="natural" v="water" />
		<tag k="ssr:stedsnr" v="87551" />
		<tag k="water" v="lake" />
	</node>
	<node lat="70.82843889712507" lon="25.754652561813746" id="-56016">
		<tag k="name" v="Nordre Sandvikvatna" />
		<tag k="natural" v="water" />
		<tag k="ssr:stedsnr" v="102176" />
		<tag k="water" v="lake" />
	</node>
	<node lat="70.85001389492344" lon="25.684138680530356" id="-56026">
		<tag k="name" v="Kåfjordelva - Gávkevuonjohka" />
		<tag k="name:no" v="Kåfjordelva" />
		<tag k="name:se" v="Gávkevuonjohka" />
		<tag k="old_name:se" v="Gavkevuonjåkka" />
		<tag k="ssr:stedsnr" v="140494" />
		<tag k="waterway" v="river" />
	</node>
	<node lat="70.84762778288955" lon="25.764888667065414" id="-56037">
		<tag k="name" v="Førstedalsvatnet - Gihcádatjávri" />
		<tag k="name:no" v="Førstedalsvatnet" />
		<tag k="name:se" v="Gihcádatjávri" />
		<tag k="natural" v="water" />
		<tag k="old_name:se" v="Giccadatjavri" />
		<tag k="ssr:stedsnr" v="141008" />
	</node>
	<node lat="71.01073334366328" lon="26.080252523323015" id="-56048">
		<tag k="name" v="Petterelva" />
		<tag k="ssr:stedsnr" v="141283" />
		<tag k="waterway" v="river" />
	</node>
	<node lat="71.10955278555404" lon="26.00852197864749" id="-56049">
		<tag k="name" v="Opnanvatnet" />
		<tag k="natural" v="water" />
		<tag k="ssr:stedsnr" v="141306" />
		<tag k="water" v="lake" />
	</node>
	<node lat="71.07820278656553" lon="25.829260900569494" id="-56050">
		<tag k="name" v="Diksovuonjávrrit" />
		<tag k="name:se" v="Diksovuonjávrrit" />
		<tag k="natural" v="water" />
		<tag k="old_name:se" v="Diksuvuonjavrit" />
		<tag k="ssr:stedsnr" v="141309" />
	</node>
	<node lat="70.99026111917667" lon="26.014008099249654" id="-56058">
		<tag k="name" v="Prestvatnet" />
		<tag k="natural" v="water" />
		<tag k="ssr:stedsnr" v="145311" />
		<tag k="water" v="lake" />
	</node>
	<node lat="70.88371111548744" lon="25.771869227307764" id="-56061">
		<tag k="name" v="Tårnasvatnet" />
		<tag k="natural" v="water" />
		<tag k="ssr:stedsnr" v="146447" />
		<tag k="water" v="lake" />
	</node>
	<node lat="70.85702778230538" lon="25.833152550174535" id="-56065">
		<tag k="name" v="Risvikvatnet" />
		<tag k="natural" v="water" />
		<tag k="ssr:stedsnr" v="147545" />
		<tag k="water" v="lake" />
	</node>
	<node lat="70.73412222822817" lon="25.67318865311678" id="-56069">
		<tag k="name" v="Badevatn" />
		<tag k="natural" v="water" />
		<tag k="ssr:stedsnr" v="150677" />
	</node>
	<node lat="71.08924113391099" lon="25.349926878986555" id="-56092">
		<tag k="name" v="Larsvatnet" />
		<tag k="natural" v="water" />
		<tag k="ssr:stedsnr" v="202358" />
	</node>
	<node lat="71.0772861136966" lon="25.599894250403594" id="-56093">
		<tag k="name" v="Ráktijávrrit" />
		<tag k="name:se" v="Ráktijávrrit" />
		<tag k="natural" v="water" />
		<tag k="old_name:se" v="Raktijavrit" />
		<tag k="ssr:stedsnr" v="202374" />
	</node>
	<node lat="70.88391111727539" lon="26.431016369589887" id="-56096">
		<tag k="name" v="Rekvikelva" />
		<tag k="ssr:stedsnr" v="202540" />
		<tag k="waterway" v="river" />
	</node>
	<node lat="70.96987500929967" lon="25.701710891896262" id="-56101">
		<tag k="name" v="Russevatn" />
		<tag k="natural" v="water" />
		<tag k="ssr:stedsnr" v="206797" />
		<tag k="water" v="lake" />
	</node>
	<node lat="70.87483889180065" lon="25.761685881523643" id="-56103">
		<tag k="name" v="Karenelva" />
		<tag k="ssr:stedsnr" v="207461" />
		<tag k="waterway" v="stream" />
	</node>
	<node lat="70.7846111193623" lon="25.652963659796644" id="-56115">
		<tag k="name" v="Tobiaselva" />
		<tag k="ssr:stedsnr" v="211697" />
		<tag k="waterway" v="stream" />
	</node>
	<node lat="70.7838750040454" lon="25.668094216082935" id="-56116">
		<tag k="name" v="Novaelva" />
		<tag k="ssr:stedsnr" v="211699" />
		<tag k="waterway" v="stream" />
	</node>
	<node lat="70.80392500867116" lon="25.702763669101785" id="-56133">
		<tag k="name" v="Veajetjávri" />
		<tag k="name:se" v="Veajetjávri" />
		<tag k="natural" v="water" />
		<tag k="old_name:se" v="Væjetjavri" />
		<tag k="ssr:stedsnr" v="323117" />
	</node>
	<node lat="70.85841389336267" lon="25.749183112994714" id="-56139">
		<tag k="name" v="Gággačohjávri" />
		<tag k="name:se" v="Gággačohjávri" />
		<tag k="natural" v="water" />
		<tag k="old_name:se" v="Gaggačåkjavri" />
		<tag k="ssr:stedsnr" v="323013" />
	</node>
	<node lat="71.10374722287114" lon="25.729744231370432" id="-56145">
		<tag k="alt_name" v="Kjeftavannet" />
		<tag k="name" v="Kjeftavatnet" />
		<tag k="natural" v="water" />
		<tag k="ssr:stedsnr" v="323347" />
		<tag k="water" v="lake" />
	</node>
	<node lat="71.08406666794441" lon="25.474122028779394" id="-56146">
		<tag k="name" v="Soltindvatnet" />
		<tag k="natural" v="water" />
		<tag k="ssr:stedsnr" v="323360" />
	</node>
	<node lat="71.08211667646151" lon="25.428638694884864" id="-56147">
		<tag k="name" v="Elsejordvatnet" />
		<tag k="natural" v="water" />
		<tag k="ssr:stedsnr" v="323361" />
	</node>
	<node lat="70.73538055836647" lon="25.515944233056047" id="-56160">
		<tag k="name" v="Guhkesjávri" />
		<tag k="name:se" v="Guhkesjávri" />
		<tag k="natural" v="water" />
		<tag k="old_name:se" v="Gukkesjavri" />
		<tag k="ssr:stedsnr" v="323947" />
	</node>
	<node lat="70.7751333387203" lon="26.26068582255041" id="-56177">
		<tag k="name" v="Saueelva" />
		<tag k="ssr:stedsnr" v="383182" />
		<tag k="waterway" v="river" />
	</node>
	<node lat="71.03378055771675" lon="25.899510882940852" id="-56181">
		<tag k="alt_name" v="Småvatnan" />
		<tag k="name" v="Skipsfjordvatna" />
		<tag k="natural" v="water" />
		<tag k="ssr:stedsnr" v="383277" />
	</node>
	<node lat="70.88249167074088" lon="25.461469238864105" id="-56190">
		<tag k="name" v="Iselva" />
		<tag k="ssr:stedsnr" v="384029" />
		<tag k="waterway" v="stream" />
	</node>
	<node lat="70.78068611865719" lon="25.439674792149138" id="-56193">
		<tag k="name" v="Lárkkajávri" />
		<tag k="name:se" v="Lárkkajávri" />
		<tag k="natural" v="water" />
		<tag k="old_name:se" v="Larkajavri;Lárkajávri" />
		<tag k="ssr:stedsnr" v="384111" />
		<tag k="water" v="lake" />
	</node>
	<node lat="70.84205278420292" lon="25.804680307652244" id="-56196">
		<tag k="fixme" v="multiple name tags, choose one and add the other to alt_name" />
		<tag k="name" v="Storvatnet;Rastkeilvatnet - Bahtaváhjávri" />
		<tag k="name:no" v="Storvatnet;Rastkeilvatnet" />
		<tag k="name:se" v="Bahtaváhjávri" />
		<tag k="natural" v="water" />
		<tag k="old_name:se" v="Battavakjavri" />
		<tag k="ssr:stedsnr" v="384141" />
		<tag k="water" v="lake" />
	</node>
	<node lat="70.99094167013506" lon="25.635991458329137" id="-56199">
		<tag k="name" v="Siffargeinnodatjávrrit" />
		<tag k="name:se" v="Siffargeinnodatjávrrit" />
		<tag k="natural" v="water" />
		<tag k="old_name:se" v="Siffargeinudatjavrit" />
		<tag k="ssr:stedsnr" v="384441" />
	</node>
	<node lat="71.09182222739058" lon="25.343213723445633" id="-56211">
		<tag k="name" v="Russelva" />
		<tag k="ssr:stedsnr" v="388279" />
		<tag k="waterway" v="river" />
	</node>
	<node lat="71.143577782775" lon="25.687169248620172" id="-56214">
		<tag k="name" v="Sandfjordvannet nedre" />
		<tag k="natural" v="water" />
		<tag k="ssr:stedsnr" v="389282" />
		<tag k="water" v="lake" />
	</node>
	<node lat="70.85356389506693" lon="25.801583099747987" id="-56216">
		<tag k="name" v="Akselvatnet" />
		<tag k="natural" v="water" />
		<tag k="ssr:stedsnr" v="389580" />
		<tag k="water" v="lake" />
	</node>
	<node lat="70.75063056584638" lon="25.680002551549485" id="-56220">
		<tag k="name" v="Storvatnet" />
		<tag k="natural" v="water" />
		<tag k="ssr:stedsnr" v="393550" />
	</node>
	<node lat="70.82558612063912" lon="25.745838659934314" id="-56223">
		<tag k="name" v="Trollvatnelva" />
		<tag k="ssr:stedsnr" v="393673" />
		<tag k="waterway" v="stream" />
	</node>
	<node lat="70.82305556292502" lon="25.731422003537766" id="-56235">
		<tag k="name" v="Trollvatnet - Fáhccunjávri" />
		<tag k="name:no" v="Trollvatnet" />
		<tag k="name:se" v="Fáhccunjávri" />
		<tag k="natural" v="water" />
		<tag k="old_name:se" v="Facconjavri" />
		<tag k="ssr:stedsnr" v="445115" />
		<tag k="water" v="lake" />
	</node>
	<node lat="71.06067222316067" lon="25.478008150587364" id="-56242">
		<tag k="name" v="Jámešjávri" />
		<tag k="name:se" v="Jámešjávri" />
		<tag k="natural" v="water" />
		<tag k="old_name:se" v="Jamešjavri" />
		<tag k="ssr:stedsnr" v="445390" />
		<tag k="water" v="lake" />
	</node>
	<node lat="71.15536944938748" lon="25.737408137920454" id="-56253">
		<tag k="name" v="Røykholvatnet" />
		<tag k="natural" v="water" />
		<tag k="ssr:stedsnr" v="445725" />
	</node>
	<node lat="70.7822305633191" lon="25.63186644876172" id="-56258">
		<tag k="name" v="Reinelva - Reainnejohka" />
		<tag k="name:no" v="Reinelva" />
		<tag k="name:se" v="Reainnejohka" />
		<tag k="old_name:se" v="Ræinejåkka" />
		<tag k="ssr:stedsnr" v="505106" />
		<tag k="waterway" v="stream" />
	</node>
	<node lat="70.79156388953305" lon="25.412797030242025" id="-56259">
		<tag k="name" v="Námmejávri" />
		<tag k="name:se" v="Námmejávri" />
		<tag k="natural" v="water" />
		<tag k="old_name:se" v="Nammejavri" />
		<tag k="ssr:stedsnr" v="505107" />
	</node>
	<node lat="71.15705555707885" lon="25.64859425100729" id="-56277">
		<tag k="name" v="Knivskjelvatna" />
		<tag k="natural" v="water" />
		<tag k="ssr:stedsnr" v="505719" />
	</node>
	<node lat="70.73167778379134" lon="25.541830339338848" id="-56286">
		<tag k="alt_name" v="Vedbotnvatnan" />
		<tag k="name" v="Vedbotnvatna" />
		<tag k="natural" v="water" />
		<tag k="ssr:stedsnr" v="505928" />
		<tag k="water" v="lake" />
	</node>
	<node lat="70.87125556049513" lon="25.7689636589206" id="-56292">
		<tag k="name" v="Bårdelva" />
		<tag k="ssr:stedsnr" v="510547" />
		<tag k="waterway" v="river" />
	</node>
	<node lat="70.75840833737627" lon="25.39293590258645" id="-56294">
		<tag k="name" v="Lávvárjávrrit" />
		<tag k="name:se" v="Lávvárjávrrit" />
		<tag k="natural" v="water" />
		<tag k="old_name:se" v="Lavvarjavrit" />
		<tag k="ssr:stedsnr" v="511154" />
		<tag k="water" v="lake" />
	</node>
	<node lat="70.78071111629252" lon="26.287446936422285" id="-56313">
		<tag k="name" v="Djupvikelva" />
		<tag k="ssr:stedsnr" v="565145" />
		<tag k="waterway" v="river" />
	</node>
	<node lat="70.71615000481891" lon="26.098091380364718" id="-56331">
		<tag k="name" v="Hårvikelva - Vuohppejohka" />
		<tag k="name:no" v="Hårvikelva" />
		<tag k="name:se" v="Vuohppejohka" />
		<tag k="old_name:se" v="Vuoppenjåkka" />
		<tag k="ssr:stedsnr" v="565520" />
		<tag k="waterway" v="river" />
	</node>
	<node lat="70.73056945401446" lon="26.18540803450166" id="-56332">
		<tag k="name" v="Boššjohka" />
		<tag k="name:se" v="Boššjohka" />
		<tag k="old_name:se" v="Båššjåkka" />
		<tag k="ssr:stedsnr" v="565532" />
		<tag k="waterway" v="river" />
	</node>
	<node lat="70.73525278023338" lon="25.56944700923336" id="-56334">
		<tag k="name" v="Sandvatnet - Sáttojávri" />
		<tag k="name:no" v="Sandvatnet" />
		<tag k="name:se" v="Sáttojávri" />
		<tag k="natural" v="water" />
		<tag k="old_name:se" v="Saddujavri" />
		<tag k="ssr:stedsnr" v="565942" />
	</node>
	<node lat="70.80349722519827" lon="25.750094202782662" id="-56351">
		<tag k="name" v="Laukvikvatnet" />
		<tag k="natural" v="water" />
		<tag k="ssr:stedsnr" v="575627" />
	</node>
	<node lat="70.77078889433952" lon="25.58479978398904" id="-56352">
		<tag k="name" v="Skarvatnet" />
		<tag k="natural" v="water" />
		<tag k="ssr:stedsnr" v="575681" />
		<tag k="water" v="lake" />
	</node>
	<node lat="70.87423889206865" lon="25.54243867999464" id="-56359">
		<tag k="name" v="Sæterelva" />
		<tag k="ssr:stedsnr" v="626023" />
		<tag k="waterway" v="stream" />
	</node>
	<node lat="70.76155278622639" lon="26.152908040439684" id="-56364">
		<tag k="name" v="Sinkelvikelva" />
		<tag k="ssr:stedsnr" v="626195" />
		<tag k="waterway" v="stream" />
	</node>
	<node lat="70.68085278628493" lon="26.02732471804252" id="-56369">
		<tag k="name" v="Ánddešgopjávri" />
		<tag k="name:se" v="Ánddešgopjávri" />
		<tag k="natural" v="water" />
		<tag k="old_name:se" v="Andešgåpjavri" />
		<tag k="ssr:stedsnr" v="626545" />
	</node>
	<node lat="70.83380000984633" lon="25.710916448548115" id="-56372">
		<tag k="name" v="Dorkajávrrit" />
		<tag k="name:se" v="Dorkajávrrit" />
		<tag k="natural" v="water" />
		<tag k="old_name:se" v="Dårkajavrit" />
		<tag k="ssr:stedsnr" v="626142" />
	</node>
	<node lat="71.10597222527055" lon="25.80623312145035" id="-56382">
		<tag k="name" v="Storvatnet" />
		<tag k="natural" v="water" />
		<tag k="ssr:stedsnr" v="626390" />
	</node>
	<node lat="70.75926945413636" lon="25.578608105967042" id="-56388">
		<tag k="alt_name" v="Strandvatnet, l" />
		<tag k="fixme" v="multiple name tags, choose one and add the other to alt_name" />
		<tag k="name" v="Postvatnet;Lille Strandvatnet" />
		<tag k="natural" v="water" />
		<tag k="ssr:stedsnr" v="627088" />
	</node>
	<node lat="71.09410556379227" lon="25.792274778635157" id="-56399">
		<tag k="loc_name" v="Kappsjåtindvatnet" />
		<tag k="name" v="Kappsjåvatnet" />
		<tag k="natural" v="water" />
		<tag k="ssr:stedsnr" v="632476" />
		<tag k="water" v="lake" />
	</node>
	<node lat="70.83480278471757" lon="25.79963030962136" id="-56400">
		<tag k="name" v="Indre Rastkeilvatnet" />
		<tag k="natural" v="water" />
		<tag k="ssr:stedsnr" v="632546" />
	</node>
	<node lat="70.86756667377475" lon="25.685310886122487" id="-56401">
		<tag k="name" v="Mattisvatnet" />
		<tag k="natural" v="water" />
		<tag k="ssr:stedsnr" v="632598" />
		<tag k="water" v="lake" />
	</node>
	<node lat="70.82321111665944" lon="25.731755337957395" id="-56403">
		<tag k="alt_name" v="Søre Sandvikvatna" />
		<tag k="name" v="Fahcconvatnet" />
		<tag k="natural" v="water" />
		<tag k="ssr:stedsnr" v="635664" />
		<tag k="water" v="lake" />
	</node>
	<node lat="70.82843889712507" lon="25.754652561813746" id="-56405">
		<tag k="name" v="Sandvikvatnet" />
		<tag k="natural" v="water" />
		<tag k="ssr:stedsnr" v="648731" />
		<tag k="water" v="lake" />
	</node>
	<node lat="70.95565556008789" lon="25.522769234689164" id="-56421">
		<tag k="name" v="Oammajávri" />
		<tag k="name:se" v="Oammajávri" />
		<tag k="natural" v="water" />
		<tag k="old_name:se" v="Oammajavri" />
		<tag k="ssr:stedsnr" v="747455" />
	</node>
	<node lat="71.10842222564054" lon="25.690224795393295" id="-56426">
		<tag k="name" v="Jalgavárjohka" />
		<tag k="name:se" v="Jalgavárjohka" />
		<tag k="old_name:se" v="Jalgavarjåkka" />
		<tag k="ssr:stedsnr" v="747730" />
		<tag k="waterway" v="stream" />
	</node>
	<node lat="71.11108333985135" lon="25.73672758067699" id="-56427">
		<tag k="alt_name" v="Vestfjordvannet" />
		<tag k="name" v="Vestfjordvatna" />
		<tag k="natural" v="water" />
		<tag k="ssr:stedsnr" v="747735" />
	</node>
	<node lat="70.8358555632701" lon="25.606769216792177" id="-56431">
		<tag k="name" v="Gávkejávrrit" />
		<tag k="name:se" v="Gávkejávrrit" />
		<tag k="natural" v="water" />
		<tag k="old_name:se" v="Gavkejavrit" />
		<tag k="ssr:stedsnr" v="748128" />
	</node>
	<node lat="70.97840000843543" lon="25.633349780141266" id="-56440">
		<tag k="name" v="Čáhppesjohka" />
		<tag k="name:se" v="Čáhppesjohka" />
		<tag k="old_name:se" v="Čappesjåkka" />
		<tag k="ssr:stedsnr" v="748539" />
		<tag k="waterway" v="river" />
	</node>
	<node lat="70.98472222487891" lon="25.828233107092128" id="-56450">
		<tag k="name" v="Indre Baklivatn" />
		<tag k="natural" v="water" />
		<tag k="ssr:stedsnr" v="752793" />
		<tag k="water" v="lake" />
	</node>
	<node lat="70.98497222996617" lon="25.851638654747454" id="-56451">
		<tag k="name" v="Øvrevatn" />
		<tag k="natural" v="water" />
		<tag k="ssr:stedsnr" v="752795" />
		<tag k="water" v="lake" />
	</node>
	<node lat="70.98223334198981" lon="25.869538668903584" id="-56452">
		<tag k="name" v="Mellemvatnet" />
		<tag k="natural" v="water" />
		<tag k="ssr:stedsnr" v="752800" />
		<tag k="water" v="lake" />
	</node>
	<node lat="70.7438527810494" lon="25.674574761191046" id="-56458">
		<tag k="name" v="Rennavatnet" />
		<tag k="natural" v="water" />
		<tag k="ssr:stedsnr" v="757675" />
	</node>
	<node lat="70.78215833983971" lon="25.581894239894844" id="-56475">
		<tag k="alt_name:no" v="Holmenvatnet;Holmenvatn" />
		<tag k="name" v="Holmevatnet - Doallatjávri" />
		<tag k="name:no" v="Holmevatnet" />
		<tag k="name:se" v="Doallatjávri" />
		<tag k="natural" v="water" />
		<tag k="old_name:se" v="Doallatjavri" />
		<tag k="ssr:stedsnr" v="809109" />
		<tag k="water" v="lake" />
	</node>
	<node lat="70.81171112122409" lon="25.545524787109088" id="-56478">
		<tag k="name" v="Øvre Kåfjordvatnet - Suoidnoaijávri" />
		<tag k="name:no" v="Øvre Kåfjordvatnet" />
		<tag k="name:se" v="Suoidnoaijávri" />
		<tag k="natural" v="water" />
		<tag k="old_name:no" v="Kåfjordvatnet, øvre" />
		<tag k="old_name:se" v="Suoidnoaijavri" />
		<tag k="ssr:stedsnr" v="809121" />
	</node>
	<node lat="70.7491694485343" lon="25.50966646294287" id="-56499">
		<tag k="name" v="Tverrelva" />
		<tag k="ssr:stedsnr" v="818667" />
		<tag k="waterway" v="stream" />
	</node>
	<node lat="70.88120555896874" lon="25.71856643908875" id="-56501">
		<tag k="name" v="Sariselva" />
		<tag k="ssr:stedsnr" v="935592" />
		<tag k="waterway" v="river" />
	</node>
	<node lat="70.83943333643624" lon="25.550491441678403" id="-56511">
		<tag k="name" v="Langvatnet - Guollejávri" />
		<tag k="name:no" v="Langvatnet" />
		<tag k="name:se" v="Guollejávri" />
		<tag k="natural" v="water" />
		<tag k="old_name:se" v="Guollejavri" />
		<tag k="ssr:stedsnr" v="869128" />
		<tag k="water" v="lake" />
	</node>
	<node lat="71.0273222274913" lon="26.18991640380224" id="-56512">
		<tag k="name" v="Skarvbergvatnet" />
		<tag k="natural" v="water" />
		<tag k="ssr:stedsnr" v="869290" />
	</node>
	<node lat="71.04964722668574" lon="26.198599744851204" id="-56513">
		<tag k="name" v="Langvatnet" />
		<tag k="natural" v="water" />
		<tag k="ssr:stedsnr" v="869338" />
	</node>
	<node lat="70.88486389198809" lon="25.67141643927902" id="-56520">
		<tag k="alt_name" v="Vesterpollelva" />
		<tag k="name" v="Fisketindelva" />
		<tag k="ssr:stedsnr" v="870038" />
		<tag k="waterway" v="river" />
	</node>
	<node lat="70.73658611528239" lon="25.476766460594604" id="-56523">
		<tag k="name" v="Juhánjávri" />
		<tag k="name:se" v="Juhánjávri" />
		<tag k="natural" v="water" />
		<tag k="old_name:se" v="Juhanjavri" />
		<tag k="ssr:stedsnr" v="869932" />
	</node>
	<node lat="70.88054722581847" lon="25.80659420453456" id="-56534">
		<tag k="name" v="Lille Porsangvikelva" />
		<tag k="ssr:stedsnr" v="873493" />
		<tag k="waterway" v="river" />
	</node>
	<node lat="71.04079166991322" lon="25.91452754466101" id="-56542">
		<tag k="name" v="Snørvikvatnet" />
		<tag k="natural" v="water" />
		<tag k="ssr:stedsnr" v="875312" />
	</node>
	<node lat="70.77850278142273" lon="25.60694144511159" id="-56546">
		<tag k="name" v="Mattisvatnet" />
		<tag k="natural" v="water" />
		<tag k="ssr:stedsnr" v="878734" />
	</node>
	<node lat="70.76638055689648" lon="25.5652581265794" id="-56553">
		<tag k="name" v="Postvatnet" />
		<tag k="natural" v="water" />
		<tag k="ssr:stedsnr" v="939656" />
		<tag k="water" v="lake" />
	</node>
</osm>
