<?xml version="1.0" encoding="UTF-8"?>
<osm version="0.6" generator="osmapis">
	<node lat="70.72250000381945" lon="25.62388867062167" id="-38278">
		<tag k="name" v="Innerbuktgrunnen" />
		<tag k="natural" v="shoal" />
		<tag k="place" v="locality" />
		<tag k="ssr:stedsnr" v="230448" />
	</node>
	<node lat="70.90783334158253" lon="25.49107202534301" id="-38279">
		<tag k="fixme" v="consider natural=peak for the most distinct mountains in the district" />
		<tag k="name" v="Stiikogáisá" />
		<tag k="name:se" v="Stiikogáisá" />
		<tag k="natural" v="hill" />
		<tag k="old_name:se" v="Stiikugaisa" />
		<tag k="place" v="locality" />
		<tag k="ssr:stedsnr" v="20043" />
	</node>
	<node lat="70.90663611364504" lon="25.529305356401256" id="-38280">
		<tag k="name" v="Bealjáidbákti" />
		<tag k="name:se" v="Bealjáidbákti" />
		<tag k="natural" v="hill" />
		<tag k="old_name:se" v="Bælljaidbakti" />
		<tag k="place" v="locality" />
		<tag k="ssr:stedsnr" v="20046" />
	</node>
	<node lat="70.89822222469125" lon="25.481669239961793" id="-38281">
		<tag k="fixme" v="consider natural=peak for the most distinct mountains in the district" />
		<tag k="name" v="Misjonsfjellet - Miššavuonrášša" />
		<tag k="name:no" v="Misjonsfjellet" />
		<tag k="name:se" v="Miššavuonrášša" />
		<tag k="natural" v="hill" />
		<tag k="old_name:se" v="Miššavuonrašša" />
		<tag k="place" v="locality" />
		<tag k="ssr:stedsnr" v="20047" />
	</node>
	<node lat="70.79328611648613" lon="25.75682476688208" id="-38282">
		<tag k="name" v="Fugleberget - Loddebákti" />
		<tag k="name:no" v="Fugleberget" />
		<tag k="name:se" v="Loddebákti" />
		<tag k="natural" v="hill" />
		<tag k="old_name:se" v="Lådebakti" />
		<tag k="place" v="locality" />
		<tag k="ssr:stedsnr" v="20095" />
	</node>
	<node lat="71.04445833973918" lon="26.14681641097326" id="-38283">
		<tag k="name" v="Laukvikelva" />
		<tag k="ssr:stedsnr" v="20249" />
		<tag k="waterway" v="river" />
	</node>
	<node lat="71.05147501092715" lon="25.950363643826496" id="-38284">
		<tag k="fixme" v="multiple name tags, choose one and add the other to alt_name" />
		<tag k="name" v="Kamøya;Store Kamøya - Gáhpesuolu" />
		<tag k="name:no" v="Kamøya;Store Kamøya" />
		<tag k="name:se" v="Gáhpesuolu" />
		<tag k="old_name:no" v="Kamøya, store" />
		<tag k="old_name:se" v="Gappesuolo" />
		<tag k="place" v="island" />
		<tag k="ssr:stedsnr" v="20311" />
	</node>
	<node lat="71.05839722738817" lon="26.18804972310252" id="-38285">
		<tag k="name" v="Vesterjordet" />
		<tag k="place" v="locality" />
		<tag k="ssr:stedsnr" v="20314" />
	</node>
	<node lat="71.04465000509695" lon="25.64309423925804" id="-38286">
		<tag k="fixme" v="consider natural=peak for the most distinct mountains in the district" />
		<tag k="name" v="Bajit Šiivačohkka" />
		<tag k="name:se" v="Bajit Šiivačohkka" />
		<tag k="natural" v="hill" />
		<tag k="old_name:se" v="Šiivačåkka, bajit" />
		<tag k="place" v="locality" />
		<tag k="ssr:stedsnr" v="20320" />
	</node>
	<node lat="71.03720556406863" lon="25.46765258051998" id="-38287">
		<tag k="fixme" v="multiple name tags, choose one and add the other to alt_name" />
		<tag k="name" v="Stillbukta;Vesterbotn" />
		<tag k="natural" v="bay" />
		<tag k="ssr:stedsnr" v="20324" />
	</node>
	<node lat="71.096797231247" lon="25.879169220575722" id="-38288">
		<tag k="name" v="Molvikvatna" />
		<tag k="natural" v="water" />
		<tag k="ssr:stedsnr" v="20289" />
		<tag k="water" v="lake" />
	</node>
	<node lat="71.11391389407758" lon="26.040099764440356" id="-38289">
		<tag k="name" v="Opnan" />
		<tag k="natural" v="cape" />
		<tag k="ssr:stedsnr" v="20291" />
	</node>
	<node lat="71.11319444961879" lon="25.826991459649417" id="-38290">
		<tag k="name" v="Skarsvåg" />
		<tag k="place" v="village" />
		<tag k="ssr:stedsnr" v="20292" />
	</node>
	<node lat="71.1117361149237" lon="25.8944997586936" id="-38291">
		<tag k="name" v="Tinden" />
		<tag k="natural" v="hill" />
		<tag k="place" v="locality" />
		<tag k="ssr:stedsnr" v="20293" />
	</node>
	<node lat="71.07543889432502" lon="25.87038033123653" id="-38292">
		<tag k="name" v="Duksfjord" />
		<tag k="place" v="isolated_dwelling" />
		<tag k="ssr:stedsnr" v="20295" />
	</node>
	<node lat="71.03126667049408" lon="26.20687195822915" id="-38293">
		<tag k="fixme" v="consider natural=peak for the most distinct mountains in the district" />
		<tag k="name" v="Skarvberget" />
		<tag k="natural" v="hill" />
		<tag k="place" v="locality" />
		<tag k="ssr:stedsnr" v="20252" />
	</node>
	<node lat="71.01431944793919" lon="26.050402537525336" id="-38294">
		<tag k="name" v="Falkbergbukta" />
		<tag k="natural" v="bay" />
		<tag k="ssr:stedsnr" v="20275" />
	</node>
	<node lat="71.10687222835668" lon="25.529497023014503" id="-38295">
		<tag k="name" v="Nuorttat Čuvgesnjárga" />
		<tag k="name:se" v="Nuorttat Čuvgesnjárga" />
		<tag k="natural" v="cape" />
		<tag k="old_name:se" v="Čuvgesnjarga, nuortat;Čuvgesnjárga" />
		<tag k="ssr:stedsnr" v="20337" />
	</node>
	<node lat="71.11315556262711" lon="25.789269224015637" id="-38296">
		<tag k="bay" v="fjord" />
		<tag k="name" v="Mefjorden" />
		<tag k="natural" v="bay" />
		<tag k="ssr:stedsnr" v="20401" />
	</node>
	<node lat="70.97428889801665" lon="25.47353590949474" id="-38297">
		<tag k="name" v="Finnvika" />
		<tag k="natural" v="bay" />
		<tag k="ssr:stedsnr" v="20439" />
	</node>
	<node lat="71.183358338662" lon="25.675197009869898" id="-38298">
		<tag k="name" v="Knivskjelodden" />
		<tag k="natural" v="cape" />
		<tag k="ssr:stedsnr" v="20745" />
	</node>
	<node lat="71.00323889855476" lon="25.968958092657147" id="-38299">
		<tag k="name" v="Andrevatn" />
		<tag k="natural" v="water" />
		<tag k="ssr:stedsnr" v="24310" />
		<tag k="water" v="lake" />
	</node>
	<node lat="70.89053056454202" lon="25.760816439111125" id="-38300">
		<tag k="name" v="Indre Gargo" />
		<tag k="natural" v="bay" />
		<tag k="ssr:stedsnr" v="25492" />
	</node>
	<node lat="70.89525555888946" lon="25.707821991884522" id="-38301">
		<tag k="name" v="Mastebergan" />
		<tag k="natural" v="hill" />
		<tag k="place" v="locality" />
		<tag k="ssr:stedsnr" v="25586" />
	</node>
	<node lat="70.87183334129855" lon="25.75119421817591" id="-38302">
		<tag k="name" v="Haraldjordet" />
		<tag k="place" v="locality" />
		<tag k="ssr:stedsnr" v="25596" />
	</node>
	<node lat="71.10500000269244" lon="25.48515536139344" id="-38303">
		<tag k="name" v="Indre Gampollen" />
		<tag k="natural" v="bay" />
		<tag k="ssr:stedsnr" v="26306" />
	</node>
	<node lat="71.10603611093505" lon="25.446049815852117" id="-38304">
		<tag k="name" v="Store Finnstø" />
		<tag k="natural" v="bay" />
		<tag k="ssr:stedsnr" v="26310" />
	</node>
	<node lat="71.09919722910622" lon="25.43401927274955" id="-38305">
		<tag k="fixme" v="multiple name tags, choose one and add the other to alt_name" />
		<tag k="name" v="Lille Melkøya;Melkøya" />
		<tag k="place" v="islet" />
		<tag k="ssr:stedsnr" v="26316" />
	</node>
	<node lat="71.16990556022893" lon="25.802024791930005" id="-38306">
		<tag k="name" v="Lars Gunnersenvika" />
		<tag k="natural" v="bay" />
		<tag k="ssr:stedsnr" v="26485" />
	</node>
	<node lat="70.8289861183816" lon="25.77189700188338" id="-38307">
		<tag k="name" v="Sandvikelva" />
		<tag k="ssr:stedsnr" v="28573" />
		<tag k="waterway" v="river" />
	</node>
	<node lat="71.15842223137844" lon="25.52664702323466" id="-38308">
		<tag k="name" v="Hella" />
		<tag k="natural" v="shoal" />
		<tag k="place" v="locality" />
		<tag k="ssr:stedsnr" v="48211" />
	</node>
	<node lat="71.11903889542077" lon="25.300977608366374" id="-38309">
		<tag k="name" v="Vestre Ramnholman" />
		<tag k="place" v="islet" />
		<tag k="ssr:stedsnr" v="49587" />
	</node>
	<node lat="70.83733889352189" lon="25.722838646498918" id="-38310">
		<tag k="name" v="Tredjedalsvatnet" />
		<tag k="natural" v="water" />
		<tag k="ssr:stedsnr" v="80121" />
	</node>
	<node lat="71.06976389766591" lon="25.87963867354098" id="-38311">
		<tag k="bay" v="fjord" />
		<tag k="name" v="Duksfjorden - Diksovuotna" />
		<tag k="name:no" v="Duksfjorden" />
		<tag k="name:se" v="Diksovuotna" />
		<tag k="natural" v="bay" />
		<tag k="old_name:se" v="Diksuvuodna" />
		<tag k="ssr:stedsnr" v="80305" />
	</node>
	<node lat="71.05731112170447" lon="26.160624732955288" id="-38312">
		<tag k="name" v="Røykholneset" />
		<tag k="natural" v="cape" />
		<tag k="ssr:stedsnr" v="80313" />
	</node>
	<node lat="70.96917778569971" lon="25.473674814456235" id="-38313">
		<tag k="name" v="Springneset" />
		<tag k="natural" v="cape" />
		<tag k="ssr:stedsnr" v="80447" />
	</node>
	<node lat="70.7242305652111" lon="26.289574699431736" id="-38314">
		<tag k="alt_name:se" v="Sávzavárri" />
		<tag k="fixme" v="consider natural=peak for the most distinct mountains in the district" />
		<tag k="name" v="Savzavárri" />
		<tag k="name:se" v="Savzavárri" />
		<tag k="natural" v="hill" />
		<tag k="old_name:se" v="Savzavarri" />
		<tag k="place" v="locality" />
		<tag k="ssr:stedsnr" v="80538" />
	</node>
	<node lat="70.87106945265263" lon="25.3905886917905" id="-38315">
		<tag k="fixme" v="consider natural=peak for the most distinct mountains in the district" />
		<tag k="name" v="Čivttetvárri" />
		<tag k="name:se" v="Čivttetvárri" />
		<tag k="natural" v="hill" />
		<tag k="old_name:se" v="Čivtetvarri" />
		<tag k="place" v="locality" />
		<tag k="ssr:stedsnr" v="81024" />
	</node>
	<node lat="70.89260000555244" lon="25.769708101274645" id="-38316">
		<tag k="fixme" v="consider place=hamlet" />
		<tag k="name" v="Ytre Kåfjord" />
		<tag k="old_name" v="Kåfjord, yt" />
		<tag k="place" v="village" />
		<tag k="ssr:stedsnr" v="81031" />
	</node>
	<node lat="70.76742778793681" lon="25.4590025664009" id="-38317">
		<tag k="name" v="Lafjordvatnet - Lávvárjávri" />
		<tag k="name:no" v="Lafjordvatnet" />
		<tag k="name:se" v="Lávvárjávri" />
		<tag k="natural" v="water" />
		<tag k="old_name:se" v="Lavvarjavri" />
		<tag k="ssr:stedsnr" v="81088" />
		<tag k="water" v="lake" />
	</node>
	<node lat="71.00738611889635" lon="26.161474749612108" id="-38318">
		<tag k="name" v="Russelva" />
		<tag k="natural" v="cape" />
		<tag k="ssr:stedsnr" v="81292" />
	</node>
	<node lat="71.01349167177803" lon="26.183685855065264" id="-38319">
		<tag k="name" v="Hundvikneset" />
		<tag k="natural" v="cape" />
		<tag k="ssr:stedsnr" v="81297" />
	</node>
	<node lat="71.00189167699767" lon="25.91429420956027" id="-38320">
		<tag k="alt_name" v="Skipsfjordtind" />
		<tag k="fixme" v="consider natural=peak for the most distinct mountains in the district" />
		<tag k="name" v="Skipsfjordtinden" />
		<tag k="natural" v="hill" />
		<tag k="place" v="locality" />
		<tag k="ssr:stedsnr" v="81298" />
	</node>
	<node lat="71.12777778537912" lon="26.062849752318062" id="-38321">
		<tag k="name" v="Jarnsteinbåen" />
		<tag k="natural" v="shoal" />
		<tag k="place" v="locality" />
		<tag k="ssr:stedsnr" v="81308" />
	</node>
	<node lat="71.08881389763344" lon="25.992966432075008" id="-38322">
		<tag k="name" v="Trollviknæringen" />
		<tag k="natural" v="cape" />
		<tag k="ssr:stedsnr" v="81316" />
	</node>
	<node lat="71.08920833660416" lon="25.934766420900477" id="-38323">
		<tag k="fixme" v="consider natural=peak for the most distinct mountains in the district" />
		<tag k="name" v="Trollvikfjellet" />
		<tag k="natural" v="hill" />
		<tag k="place" v="locality" />
		<tag k="ssr:stedsnr" v="81318" />
	</node>
	<node lat="71.07393333512708" lon="25.312088700996007" id="-38324">
		<tag k="fixme" v="multiple name tags, choose one and add the other to alt_name; consider seamark:type=rock or natural=shoal" />
		<tag k="name" v="Hollenderskjæret;Hollendarskjæran" />
		<tag k="place" v="islet" />
		<tag k="ssr:stedsnr" v="81396" />
	</node>
	<node lat="70.8962055627498" lon="25.78306922447016" id="-38325">
		<tag k="name" v="Ytre Gargo" />
		<tag k="natural" v="bay" />
		<tag k="ssr:stedsnr" v="85384" />
	</node>
	<node lat="71.18472222599226" lon="25.21666649923417" id="-38326">
		<tag k="name" v="Leira" />
		<tag k="natural" v="shoal" />
		<tag k="place" v="locality" />
		<tag k="ssr:stedsnr" v="85829" />
	</node>
	<node lat="71.12733611822267" lon="25.757671998141692" id="-38327">
		<tag k="name" v="Kobbenesvannet" />
		<tag k="natural" v="water" />
		<tag k="ssr:stedsnr" v="86292" />
		<tag k="water" v="lake" />
	</node>
	<node lat="70.8322444550957" lon="25.80968864943692" id="-38328">
		<tag k="name" v="Husvika" />
		<tag k="natural" v="bay" />
		<tag k="ssr:stedsnr" v="86526" />
	</node>
	<node lat="70.83306111370042" lon="25.809455329649026" id="-38329">
		<tag k="name" v="Husvikklubben" />
		<tag k="natural" v="cape" />
		<tag k="ssr:stedsnr" v="86527" />
	</node>
	<node lat="70.87273889776107" lon="25.74934699742242" id="-38330">
		<tag k="name" v="Haraldberget" />
		<tag k="natural" v="hill" />
		<tag k="place" v="locality" />
		<tag k="ssr:stedsnr" v="86603" />
	</node>
	<node lat="70.78710834123419" lon="25.691463650940452" id="-38331">
		<tag k="name" v="Brattelva" />
		<tag k="ssr:stedsnr" v="89720" />
		<tag k="waterway" v="stream" />
	</node>
	<node lat="71.04730000368801" lon="26.140733064614214" id="-38332">
		<tag k="name" v="Laukvik" />
		<tag k="natural" v="valley" />
		<tag k="place" v="locality" />
		<tag k="ssr:stedsnr" v="107717" />
	</node>
	<node lat="71.10455838685506" lon="25.380685517445873" id="-38333">
		<tag k="name" v="Avløysingen" />
		<tag k="place" v="islet" />
		<tag k="ssr:stedsnr" v="109144" />
	</node>
	<node lat="71.05945277918418" lon="25.873474769774493" id="-38334">
		<tag k="name" v="Kvalvika" />
		<tag k="natural" v="bay" />
		<tag k="ssr:stedsnr" v="140305" />
	</node>
	<node lat="70.8642333388962" lon="25.815794210619757" id="-38335">
		<tag k="name" v="Porsangvikelva" />
		<tag k="ssr:stedsnr" v="141003" />
		<tag k="waterway" v="river" />
	</node>
	<node lat="70.8942194483443" lon="25.451910904614362" id="-38336">
		<tag k="name" v="Jiekŋajávrrit" />
		<tag k="name:se" v="Jiekŋajávrrit" />
		<tag k="natural" v="water" />
		<tag k="old_name:se" v="Jiegŋajavrit" />
		<tag k="ssr:stedsnr" v="141040" />
		<tag k="water" v="lake" />
	</node>
	<node lat="70.75439723175153" lon="25.503849788503842" id="-38337">
		<tag k="name" v="Ørretvatnet - Dápmotjávri" />
		<tag k="name:no" v="Ørretvatnet" />
		<tag k="name:se" v="Dápmotjávri" />
		<tag k="natural" v="water" />
		<tag k="old_name:se" v="Dabmutjavri" />
		<tag k="ssr:stedsnr" v="141086" />
		<tag k="water" v="lake" />
	</node>
	<node lat="71.10920000348752" lon="25.909877542289102" id="-38338">
		<tag k="name" v="Kaldfjordvatnet" />
		<tag k="natural" v="water" />
		<tag k="ssr:stedsnr" v="141305" />
	</node>
	<node lat="71.03691389068396" lon="25.250188714690704" id="-38339">
		<tag k="name" v="Sølvnasa" />
		<tag k="natural" v="cape" />
		<tag k="ssr:stedsnr" v="141336" />
	</node>
	<node lat="71.06433056243425" lon="25.702974793289048" id="-38340">
		<tag k="name" v="Hamnelva - Irevuonjohka" />
		<tag k="name:no" v="Hamnelva" />
		<tag k="name:se" v="Irevuonjohka" />
		<tag k="old_name:se" v="Irevuonjåkka" />
		<tag k="ssr:stedsnr" v="141388" />
		<tag k="waterway" v="river" />
	</node>
	<node lat="71.03177500261505" lon="25.89308587617197" id="-38341">
		<tag k="name" v="Storvatnet" />
		<tag k="natural" v="water" />
		<tag k="ssr:stedsnr" v="147314" />
		<tag k="water" v="lake" />
	</node>
	<node lat="70.74914722754701" lon="25.651583115435503" id="-38342">
		<tag k="name" v="Vestervarden" />
		<tag k="natural" v="hill" />
		<tag k="place" v="locality" />
		<tag k="ssr:stedsnr" v="150553" />
	</node>
	<node lat="70.75058611562561" lon="25.66571087633326" id="-38343">
		<tag k="name" v="Fiskebukta" />
		<tag k="natural" v="bay" />
		<tag k="ssr:stedsnr" v="150554" />
	</node>
	<node lat="70.7598472270017" lon="25.641838658479244" id="-38344">
		<tag k="name" v="Austre Strandgrunnen" />
		<tag k="natural" v="shoal" />
		<tag k="place" v="locality" />
		<tag k="ssr:stedsnr" v="169014" />
	</node>
	<node lat="71.10971666806222" lon="25.315599825084192" id="-38345">
		<tag k="fixme" v="consider seamark:type=rock or natural=shoal" />
		<tag k="name" v="Hompskjæret" />
		<tag k="place" v="islet" />
		<tag k="ssr:stedsnr" v="169104" />
	</node>
	<node lat="70.9507583377828" lon="25.828910865237027" id="-38346">
		<tag k="name" v="Austre Grunnen" />
		<tag k="natural" v="shoal" />
		<tag k="place" v="locality" />
		<tag k="ssr:stedsnr" v="169703" />
	</node>
	<node lat="71.1558416672969" lon="25.716930350684347" id="-38347">
		<tag k="name" v="Mosesholet" />
		<tag k="natural" v="bay" />
		<tag k="ssr:stedsnr" v="169967" />
	</node>
	<node lat="70.83374167482583" lon="25.52720257880878" id="-38348">
		<tag k="name" v="Láibejávri" />
		<tag k="name:se" v="Láibejávri" />
		<tag k="natural" v="water" />
		<tag k="old_name:se" v="Laibejavri" />
		<tag k="ssr:stedsnr" v="262120" />
	</node>
	<node lat="70.84183056491798" lon="25.652877567175267" id="-38349">
		<tag k="name" v="Gávkerápma" />
		<tag k="name:se" v="Gávkerápma" />
		<tag k="natural" v="slope" />
		<tag k="old_name:se" v="Gavkerabma" />
		<tag k="place" v="locality" />
		<tag k="ssr:stedsnr" v="262121" />
	</node>
	<node lat="70.94018889411336" lon="25.498619235231946" id="-38350">
		<tag k="name" v="Magerøysundet - Máhkarainuorri" />
		<tag k="name:no" v="Magerøysundet" />
		<tag k="name:se" v="Máhkarainuorri" />
		<tag k="natural" v="strait" />
		<tag k="old_name:se" v="Makkarajnuorri" />
		<tag k="ssr:stedsnr" v="262060" />
	</node>
	<node lat="70.98815000991169" lon="26.060933071745573" id="-38351">
		<tag k="fixme" v="consider natural=peak for the most distinct mountains in the district" />
		<tag k="name" v="Nordvågfjellet" />
		<tag k="natural" v="hill" />
		<tag k="place" v="locality" />
		<tag k="ssr:stedsnr" v="262064" />
	</node>
	<node lat="70.82678611306054" lon="25.86972475600581" id="-38352">
		<tag k="name" v="Tipsen" />
		<tag k="natural" v="shoal" />
		<tag k="place" v="locality" />
		<tag k="ssr:stedsnr" v="262157" />
	</node>
	<node lat="70.83132223494768" lon="26.337396919983235" id="-38353">
		<tag k="name" v="Russevikelva" />
		<tag k="ssr:stedsnr" v="262158" />
		<tag k="waterway" v="river" />
	</node>
	<node lat="70.9691777847851" lon="25.821252542801677" id="-38354">
		<tag k="name" v="Lille Altsula" />
		<tag k="place" v="islet" />
		<tag k="ssr:stedsnr" v="262176" />
	</node>
	<node lat="70.89611389970756" lon="25.880296975518913" id="-38355">
		<tag k="name" v="Finnroran" />
		<tag k="natural" v="cape" />
		<tag k="ssr:stedsnr" v="262180" />
	</node>
	<node lat="70.87389722400779" lon="25.903510875063972" id="-38356">
		<tag k="name" v="Hjellneset" />
		<tag k="natural" v="cape" />
		<tag k="ssr:stedsnr" v="262189" />
	</node>
	<node lat="71.0453166734567" lon="26.31391084285915" id="-38357">
		<tag k="name" v="Storegrunnen" />
		<tag k="natural" v="shoal" />
		<tag k="place" v="locality" />
		<tag k="ssr:stedsnr" v="262246" />
	</node>
	<node lat="71.10260000960923" lon="25.425247031566556" id="-38358">
		<tag k="alt_name" v="Store Melkøy" />
		<tag k="fixme" v="multiple name tags, choose one and add the other to alt_name" />
		<tag k="name" v="Melkøya;Store Melkøya" />
		<tag k="place" v="island" />
		<tag k="ssr:stedsnr" v="262338" />
	</node>
	<node lat="71.04161945035227" lon="25.93326641974113" id="-38359">
		<tag k="name" v="Snørvikneset" />
		<tag k="natural" v="cape" />
		<tag k="ssr:stedsnr" v="262249" />
	</node>
	<node lat="71.02604722667331" lon="26.031610857790334" id="-38360">
		<tag k="fixme" v="consider seamark:type=rock or natural=shoal" />
		<tag k="name" v="Selvågskjæret" />
		<tag k="place" v="islet" />
		<tag k="ssr:stedsnr" v="262261" />
	</node>
	<node lat="71.0069888982471" lon="26.082424746647757" id="-38361">
		<tag k="alt_name" v="Lenninga" />
		<tag k="name" v="Ledninga" />
		<tag k="natural" v="slope" />
		<tag k="place" v="locality" />
		<tag k="ssr:stedsnr" v="262264" />
	</node>
	<node lat="71.0564000094188" lon="25.896049777594747" id="-38362">
		<tag k="alt_name" v="Krikkenes" />
		<tag k="fixme" v="multiple name tags, choose one and add the other to alt_name" />
		<tag k="name" v="Krikenes;Krykjeneset" />
		<tag k="natural" v="cape" />
		<tag k="ssr:stedsnr" v="262285" />
	</node>
	<node lat="71.08951111475776" lon="25.776444231445357" id="-38363">
		<tag k="loc_name" v="Gjesvær-Rundvatnet" />
		<tag k="name" v="Rundvatnet" />
		<tag k="natural" v="water" />
		<tag k="ssr:stedsnr" v="262359" />
	</node>
	<node lat="71.07136945386544" lon="25.397533141442466" id="-38364">
		<tag k="name" v="Svartvatnet - Čáhppesjávri" />
		<tag k="name:no" v="Svartvatnet" />
		<tag k="name:se" v="Čáhppesjávri" />
		<tag k="natural" v="water" />
		<tag k="old_name:se" v="Čappesjavri" />
		<tag k="ssr:stedsnr" v="262363" />
		<tag k="water" v="lake" />
	</node>
	<node lat="71.07338333573281" lon="25.695566467762074" id="-38365">
		<tag k="name" v="Piparhaugen" />
		<tag k="natural" v="hill" />
		<tag k="place" v="locality" />
		<tag k="ssr:stedsnr" v="262370" />
	</node>
	<node lat="70.66283056612441" lon="26.03400528278883" id="-38366">
		<tag k="name" v="Valjesjohka" />
		<tag k="name:se" v="Valjesjohka" />
		<tag k="old_name:se" v="Valljesjåkka" />
		<tag k="ssr:stedsnr" v="262556" />
		<tag k="waterway" v="stream" />
	</node>
	<node lat="70.74904167391993" lon="25.57333866788222" id="-38367">
		<tag k="name" v="Strandelva - Stránddajohka" />
		<tag k="name:no" v="Strandelva" />
		<tag k="name:se" v="Stránddajohka" />
		<tag k="old_name:se" v="Strandajåkka;Strándajohka" />
		<tag k="ssr:stedsnr" v="262977" />
		<tag k="waterway" v="river" />
	</node>
	<node lat="70.74702778213016" lon="25.673199781741776" id="-38368">
		<tag k="fixme" v="consider place=hamlet" />
		<tag k="name" v="Repvåg - Reiffváhki" />
		<tag k="name:no" v="Repvåg" />
		<tag k="name:se" v="Reiffváhki" />
		<tag k="old_name:se" v="Reifvakki" />
		<tag k="place" v="village" />
		<tag k="ssr:stedsnr" v="262979" />
	</node>
	<node lat="70.89088333759422" lon="25.5651803410397" id="-38369">
		<tag k="name" v="Storholmen" />
		<tag k="place" v="islet" />
		<tag k="ssr:stedsnr" v="263051" />
	</node>
	<node lat="70.89593611751984" lon="25.574980359489196" id="-38370">
		<tag k="name" v="Lilleholmen" />
		<tag k="place" v="islet" />
		<tag k="ssr:stedsnr" v="263054" />
	</node>
	<node lat="70.80797778847308" lon="25.756602538500452" id="-38371">
		<tag k="name" v="Langstranda - Lorttá" />
		<tag k="name:no" v="Langstranda" />
		<tag k="name:se" v="Lorttá" />
		<tag k="natural" v="beach" />
		<tag k="old_name:se" v="Lårta" />
		<tag k="ssr:stedsnr" v="263109" />
	</node>
	<node lat="70.80561667304238" lon="25.720433099468917" id="-38372">
		<tag k="alt_name:se" v="Fáhccun" />
		<tag k="fixme" v="multiple name tags, choose one and add the other to alt_name; consider natural=peak for the most distinct mountains in the district" />
		<tag k="name" v="Langstrandtinden;Børa;Lille Børa - Beavža-Fáhccun" />
		<tag k="name:no" v="Langstrandtinden;Børa;Lille Børa" />
		<tag k="name:se" v="Beavža-Fáhccun" />
		<tag k="natural" v="hill" />
		<tag k="old_name:no" v="Børa, l" />
		<tag k="old_name:se" v="Bævža-Faccon" />
		<tag k="place" v="locality" />
		<tag k="ssr:stedsnr" v="263110" />
	</node>
	<node lat="70.81866389419415" lon="25.67271923459594" id="-38373">
		<tag k="name" v="Bierssávággi" />
		<tag k="name:se" v="Bierssávággi" />
		<tag k="natural" v="valley" />
		<tag k="old_name:se" v="Biersavaggi" />
		<tag k="place" v="locality" />
		<tag k="ssr:stedsnr" v="263114" />
	</node>
	<node lat="71.11599167268963" lon="25.89933866811804" id="-38374">
		<tag k="fixme" v="multiple name tags, choose one and add the other to alt_name; consider natural=peak for the most distinct mountains in the district" />
		<tag k="name" v="Molvikfjellet;Kistefjellet" />
		<tag k="natural" v="hill" />
		<tag k="place" v="locality" />
		<tag k="ssr:stedsnr" v="263326" />
	</node>
	<node lat="71.05113889482993" lon="25.690252556928602" id="-38375">
		<tag k="name" v="Irevuonjávri" />
		<tag k="name:se" v="Irevuonjávri" />
		<tag k="natural" v="water" />
		<tag k="old_name:se" v="Irevuonjavri" />
		<tag k="ssr:stedsnr" v="263356" />
	</node>
	<node lat="71.03512500409876" lon="25.31919426885812" id="-38376">
		<tag k="name" v="Vearaidnjárga" />
		<tag k="name:se" v="Vearaidnjárga" />
		<tag k="natural" v="cape" />
		<tag k="old_name:se" v="Væraidnjarga" />
		<tag k="ssr:stedsnr" v="263358" />
	</node>
	<node lat="71.03709444934508" lon="25.4843497994735" id="-38377">
		<tag k="name" v="Gammelvær" />
		<tag k="place" v="isolated_dwelling" />
		<tag k="ssr:stedsnr" v="263363" />
	</node>
	<node lat="71.03351667657694" lon="25.826449768930814" id="-38378">
		<tag k="alt_name:no" v="Magerøy" />
		<tag k="name" v="Magerøya - Máhkarávju" />
		<tag k="name:no" v="Magerøya" />
		<tag k="name:se" v="Máhkarávju" />
		<tag k="old_name:se" v="Makkaravjo" />
		<tag k="place" v="island" />
		<tag k="ssr:stedsnr" v="263465" />
	</node>
	<node lat="71.12312500618981" lon="25.371963708800642" id="-38379">
		<tag k="fixme" v="consider seamark:type=rock or natural=shoal" />
		<tag k="name" v="Bukkstappskjæran" />
		<tag k="place" v="islet" />
		<tag k="ssr:stedsnr" v="263754" />
	</node>
	<node lat="71.11919167095344" lon="25.26707482818134" id="-38380">
		<tag k="name" v="Ramnholmskalven" />
		<tag k="natural" v="shoal" />
		<tag k="place" v="locality" />
		<tag k="ssr:stedsnr" v="263755" />
	</node>
	<node lat="70.84410556127197" lon="25.839199751755974" id="-38381">
		<tag k="name" v="Fjellfinnbukta" />
		<tag k="natural" v="bay" />
		<tag k="ssr:stedsnr" v="267443" />
	</node>
	<node lat="70.85014722685943" lon="25.86701365001907" id="-38382">
		<tag k="name" v="Brattberget" />
		<tag k="natural" v="hill" />
		<tag k="place" v="locality" />
		<tag k="ssr:stedsnr" v="267444" />
	</node>
	<node lat="70.86747500748632" lon="26.583652438429944" id="-38383">
		<tag k="fixme" v="consider natural=peak for the most distinct mountains in the district" />
		<tag k="name" v="Tømmervikfjellet - Muvroaivi" />
		<tag k="name:no" v="Tømmervikfjellet" />
		<tag k="name:se" v="Muvroaivi" />
		<tag k="natural" v="hill" />
		<tag k="place" v="locality" />
		<tag k="ssr:stedsnr" v="266148" />
	</node>
	<node lat="70.99003611644065" lon="26.042183083299317" id="-38384">
		<tag k="name" v="Elvedalen" />
		<tag k="natural" v="valley" />
		<tag k="place" v="locality" />
		<tag k="ssr:stedsnr" v="267297" />
	</node>
	<node lat="71.1003972274792" lon="25.36191093227894" id="-38385">
		<tag k="name" v="Gammelvær" />
		<tag k="place" v="locality" />
		<tag k="ssr:stedsnr" v="267262" />
	</node>
	<node lat="71.10156111277583" lon="25.362160931246283" id="-38386">
		<tag k="name" v="Nordhamn" />
		<tag k="place" v="locality" />
		<tag k="ssr:stedsnr" v="267263" />
	</node>
	<node lat="71.10207778631025" lon="25.37754982469634" id="-38387">
		<tag k="name" v="Walsøneset" />
		<tag k="natural" v="cape" />
		<tag k="ssr:stedsnr" v="267264" />
	</node>
	<node lat="71.09631389287163" lon="25.35678036731932" id="-38388">
		<tag k="fixme" v="consider seamark:type=rock or natural=shoal" />
		<tag k="name" v="Oddeskjæret" />
		<tag k="place" v="islet" />
		<tag k="ssr:stedsnr" v="267267" />
	</node>
	<node lat="71.0948416753228" lon="25.327747035185297" id="-38389">
		<tag k="name" v="Langnesbukta" />
		<tag k="natural" v="bay" />
		<tag k="ssr:stedsnr" v="267268" />
	</node>
	<node lat="71.09668611349545" lon="25.36209703122806" id="-38390">
		<tag k="name" v="Store Skankeholmen" />
		<tag k="place" v="islet" />
		<tag k="ssr:stedsnr" v="267274" />
	</node>
	<node lat="71.09640833852093" lon="25.37273592653454" id="-38391">
		<tag k="name" v="Valen" />
		<tag k="natural" v="bay" />
		<tag k="ssr:stedsnr" v="267277" />
	</node>
	<node lat="70.87056111353023" lon="25.682246989365776" id="-38392">
		<tag k="fixme" v="consider natural=peak for the most distinct mountains in the district" />
		<tag k="name" v="Sáđešvárit" />
		<tag k="name:se" v="Sáđešvárit" />
		<tag k="natural" v="hill" />
		<tag k="old_name:se" v="Sadešvarit;Sadisvarit" />
		<tag k="place" v="locality" />
		<tag k="ssr:stedsnr" v="202010" />
	</node>
	<node lat="70.86136667570392" lon="25.621638667916628" id="-38393">
		<tag k="name" v="Fisketindvatnet - Roggejávri" />
		<tag k="name:no" v="Fisketindvatnet" />
		<tag k="name:se" v="Roggejávri" />
		<tag k="natural" v="water" />
		<tag k="old_name:se" v="Råggejavri" />
		<tag k="ssr:stedsnr" v="202011" />
	</node>
	<node lat="70.96230000428024" lon="26.655627446723923" id="-38394">
		<tag k="alt_name" v="Eidbukta" />
		<tag k="name" v="Eidsbukta" />
		<tag k="natural" v="bay" />
		<tag k="ssr:stedsnr" v="202142" />
	</node>
	<node lat="71.03455555949336" lon="25.426272047267137" id="-38395">
		<tag k="name" v="Kobbholet" />
		<tag k="natural" v="bay" />
		<tag k="ssr:stedsnr" v="202321" />
	</node>
	<node lat="71.03782778456723" lon="25.599191458843304" id="-38396">
		<tag k="fixme" v="consider natural=peak for the most distinct mountains in the district" />
		<tag k="name" v="Skadjavárri" />
		<tag k="name:se" v="Skadjavárri" />
		<tag k="natural" v="hill" />
		<tag k="old_name:se" v="Skaddjavarri" />
		<tag k="place" v="locality" />
		<tag k="ssr:stedsnr" v="202324" />
	</node>
	<node lat="71.02790278232911" lon="25.535635903201968" id="-38397">
		<tag k="name" v="Austerbotn - Skadjagohppi" />
		<tag k="name:no" v="Austerbotn" />
		<tag k="name:se" v="Skadjagohppi" />
		<tag k="natural" v="bay" />
		<tag k="old_name:se" v="Skaddijagåppi" />
		<tag k="ssr:stedsnr" v="202326" />
	</node>
	<node lat="71.12697778080242" lon="26.029035863722655" id="-38398">
		<tag k="name" v="Fuglenæringen" />
		<tag k="natural" v="cape" />
		<tag k="ssr:stedsnr" v="202345" />
	</node>
	<node lat="71.1076250042116" lon="25.460899800350983" id="-38399">
		<tag k="name" v="Oarjjit Čuvgesnjárga" />
		<tag k="name:se" v="Oarjjit Čuvgesnjárga" />
		<tag k="natural" v="cape" />
		<tag k="old_name:se" v="Čuvgesnjarga, oarjit" />
		<tag k="ssr:stedsnr" v="202346" />
	</node>
	<node lat="71.09187777990074" lon="25.273155377774355" id="-38400">
		<tag k="name" v="Bukkelibukta" />
		<tag k="natural" v="bay" />
		<tag k="ssr:stedsnr" v="202351" />
	</node>
	<node lat="70.97916111626989" lon="25.678124782064934" id="-38401">
		<tag k="fixme" v="consider natural=peak for the most distinct mountains in the district" />
		<tag k="name" v="Gielkavákkečohkka" />
		<tag k="name:se" v="Gielkavákkečohkka" />
		<tag k="natural" v="hill" />
		<tag k="old_name:se" v="Gielkavaggečåkka" />
		<tag k="place" v="locality" />
		<tag k="ssr:stedsnr" v="202451" />
	</node>
	<node lat="71.1750583410474" lon="25.66267757981111" id="-38402">
		<tag k="name" v="Rundingen" />
		<tag k="natural" v="hill" />
		<tag k="place" v="locality" />
		<tag k="ssr:stedsnr" v="202707" />
	</node>
	<node lat="71.17326111920501" lon="25.66069980086272" id="-38403">
		<tag k="name" v="Skaret" />
		<tag k="natural" v="valley" />
		<tag k="place" v="locality" />
		<tag k="ssr:stedsnr" v="202708" />
	</node>
	<node lat="71.16586111855118" lon="25.710280347891878" id="-38404">
		<tag k="bay" v="fjord" />
		<tag k="name" v="Knivskjelbukta" />
		<tag k="natural" v="bay" />
		<tag k="ssr:stedsnr" v="202709" />
	</node>
	<node lat="70.74755000612046" lon="25.52963590909751" id="-38405">
		<tag k="name" v="Stranddalen - Stránddavággi" />
		<tag k="name:no" v="Stranddalen" />
		<tag k="name:se" v="Stránddavággi" />
		<tag k="natural" v="valley" />
		<tag k="old_name:se" v="Strandavaggi" />
		<tag k="place" v="locality" />
		<tag k="ssr:stedsnr" v="202972" />
	</node>
	<node lat="70.73839166903602" lon="25.65876922553131" id="-38406">
		<tag k="name" v="Postkeila" />
		<tag k="natural" v="bay" />
		<tag k="ssr:stedsnr" v="202977" />
	</node>
	<node lat="71.11694445251068" lon="25.416666480991612" id="-38407">
		<tag k="name" v="Sandholmbåen" />
		<tag k="natural" v="shoal" />
		<tag k="place" v="locality" />
		<tag k="ssr:stedsnr" v="267869" />
	</node>
	<node lat="71.04734722763611" lon="25.909077548689034" id="-38408">
		<tag k="name" v="Vika" />
		<tag k="natural" v="bay" />
		<tag k="ssr:stedsnr" v="268245" />
	</node>
	<node lat="71.05453334032075" lon="25.91976920944897" id="-38409">
		<tag k="name" v="Oksen" />
		<tag k="natural" v="cape" />
		<tag k="ssr:stedsnr" v="268265" />
	</node>
	<node lat="71.13835000267566" lon="25.690002573111407" id="-38410">
		<tag k="name" v="Sandfjordvannet øvre" />
		<tag k="natural" v="water" />
		<tag k="ssr:stedsnr" v="268270" />
		<tag k="water" v="lake" />
	</node>
	<node lat="70.84638333677125" lon="25.844141426816403" id="-38411">
		<tag k="name" v="Breilia" />
		<tag k="natural" v="slope" />
		<tag k="place" v="locality" />
		<tag k="ssr:stedsnr" v="268512" />
	</node>
	<node lat="70.84658056440453" lon="25.851141421309585" id="-38412">
		<tag k="name" v="Kuskåra" />
		<tag k="natural" v="valley" />
		<tag k="place" v="locality" />
		<tag k="ssr:stedsnr" v="268513" />
	</node>
	<node lat="71.10214444751239" lon="25.83025809748821" id="-38413">
		<tag k="name" v="Risfjordvatnet" />
		<tag k="natural" v="water" />
		<tag k="ssr:stedsnr" v="268457" />
		<tag k="water" v="lake" />
	</node>
	<node lat="71.09746666920043" lon="25.402010936742546" id="-38414">
		<tag k="name" v="Kobbeneset" />
		<tag k="natural" v="cape" />
		<tag k="ssr:stedsnr" v="207305" />
	</node>
	<node lat="70.85547500690117" lon="25.78274144514498" id="-38415">
		<tag k="name" v="Brennlielva" />
		<tag k="ssr:stedsnr" v="207534" />
		<tag k="waterway" v="stream" />
	</node>
	<node lat="70.87500556198749" lon="25.753055325778103" id="-38416">
		<tag k="name" v="Nilsplass" />
		<tag k="place" v="farm" />
		<tag k="ssr:stedsnr" v="207550" />
	</node>
	<node lat="71.00832778128948" lon="25.877716436611745" id="-38417">
		<tag k="name" v="Østerelvvatnet" />
		<tag k="natural" v="water" />
		<tag k="ssr:stedsnr" v="268822" />
		<tag k="water" v="lake" />
	</node>
	<node lat="71.02617500186099" lon="25.893291432505322" id="-38418">
		<tag k="name" v="Skipsfjord" />
		<tag k="place" v="hamlet" />
		<tag k="ssr:stedsnr" v="208309" />
	</node>
	<node lat="70.98085555975294" lon="26.03799142743768" id="-38419">
		<tag k="name" v="Vika" />
		<tag k="natural" v="bay" />
		<tag k="ssr:stedsnr" v="208479" />
	</node>
	<node lat="70.97893611541949" lon="26.0322469672748" id="-38420">
		<tag k="name" v="Neset" />
		<tag k="natural" v="cape" />
		<tag k="ssr:stedsnr" v="208482" />
	</node>
	<node lat="70.84642223094548" lon="25.820883103825835" id="-38421">
		<tag k="name" v="Kjærlighetshaugen" />
		<tag k="natural" v="hill" />
		<tag k="place" v="locality" />
		<tag k="ssr:stedsnr" v="208539" />
	</node>
	<node lat="70.89080555975947" lon="25.528194238784042" id="-38422">
		<tag k="bay" v="fjord" />
		<tag k="name" v="Lafjorden" />
		<tag k="natural" v="bay" />
		<tag k="ssr:stedsnr" v="210906" />
	</node>
	<node lat="71.05018333716207" lon="25.241372051803445" id="-38423">
		<tag k="name" v="Møljeholet" />
		<tag k="natural" v="strait" />
		<tag k="ssr:stedsnr" v="210875" />
	</node>
	<node lat="71.13416667251035" lon="26.46666637467393" id="-38424">
		<tag k="name" v="Øvergrunnen" />
		<tag k="natural" v="shoal" />
		<tag k="place" v="locality" />
		<tag k="ssr:stedsnr" v="210879" />
	</node>
	<node lat="70.83851666894638" lon="25.795733107233673" id="-38426">
		<tag k="name" v="Lockertmyra" />
		<tag k="natural" v="wetland" />
		<tag k="ssr:stedsnr" v="269550" />
	</node>
	<node lat="70.73247223291108" lon="25.658658106355926" id="-38427">
		<tag k="name" v="Reidarkeila" />
		<tag k="natural" v="bay" />
		<tag k="ssr:stedsnr" v="272654" />
	</node>
	<node lat="70.7729861145838" lon="25.617080341437763" id="-38428">
		<tag k="name" v="Øra" />
		<tag k="natural" v="cape" />
		<tag k="ssr:stedsnr" v="272660" />
	</node>
	<node lat="70.81456389430484" lon="25.81557754875518" id="-38429">
		<tag k="name" v="Yttersalen" />
		<tag k="natural" v="bay" />
		<tag k="ssr:stedsnr" v="271617" />
	</node>
	<node lat="71.0934194488241" lon="25.356408156526506" id="-38430">
		<tag k="name" v="Vasslibukta" />
		<tag k="natural" v="bay" />
		<tag k="ssr:stedsnr" v="449301" />
	</node>
	<node lat="70.89861111846666" lon="25.798944211731943" id="-38431">
		<tag k="name" v="Gargoøra" />
		<tag k="natural" v="scree" />
		<tag k="ssr:stedsnr" v="449441" />
	</node>
	<node lat="70.89319445440876" lon="25.783180315708677" id="-38432">
		<tag k="name" v="Kvitsteinen" />
		<tag k="natural" v="stone" />
		<tag k="ssr:stedsnr" v="449443" />
	</node>
	<node lat="70.90129445071231" lon="25.823705321801953" id="-38433">
		<tag k="name" v="Svabergan" />
		<tag k="natural" v="hill" />
		<tag k="place" v="locality" />
		<tag k="ssr:stedsnr" v="449445" />
	</node>
	<node lat="70.89430000389171" lon="25.791358088839687" id="-38434">
		<tag k="name" v="Gargobakken" />
		<tag k="natural" v="slope" />
		<tag k="place" v="locality" />
		<tag k="ssr:stedsnr" v="449448" />
	</node>
	<node lat="70.88425833546137" lon="25.800941428486613" id="-38435">
		<tag k="name" v="Varvatnet" />
		<tag k="natural" v="water" />
		<tag k="ssr:stedsnr" v="449451" />
		<tag k="water" v="lake" />
	</node>
	<node lat="70.87521945407877" lon="25.90348864236387" id="-38436">
		<tag k="name" v="Hans Hansakeila" />
		<tag k="natural" v="bay" />
		<tag k="ssr:stedsnr" v="449966" />
	</node>
	<node lat="71.10251945348915" lon="25.446530362596235" id="-38437">
		<tag k="name" v="Lille Finnstø" />
		<tag k="natural" v="bay" />
		<tag k="ssr:stedsnr" v="450263" />
	</node>
	<node lat="70.99351944805618" lon="26.031138632489" id="-38438">
		<tag k="name" v="Småvatnan" />
		<tag k="natural" v="water" />
		<tag k="ssr:stedsnr" v="450465" />
	</node>
	<node lat="70.8372833371156" lon="25.805746986054302" id="-38439">
		<tag k="name" v="Indre Rastkeilhaugen" />
		<tag k="natural" v="hill" />
		<tag k="place" v="locality" />
		<tag k="ssr:stedsnr" v="451553" />
	</node>
	<node lat="70.8732361172844" lon="25.732446983430847" id="-38440">
		<tag k="name" v="Solstrand" />
		<tag k="place" v="locality" />
		<tag k="ssr:stedsnr" v="451636" />
	</node>
	<node lat="70.75245278647304" lon="25.747705327347877" id="-38441">
		<tag k="name" v="Keila" />
		<tag k="natural" v="bay" />
		<tag k="ssr:stedsnr" v="453575" />
	</node>
	<node lat="70.78800000493858" lon="25.7481997767879" id="-38442">
		<tag k="name" v="Klubberget" />
		<tag k="natural" v="hill" />
		<tag k="place" v="locality" />
		<tag k="ssr:stedsnr" v="454659" />
	</node>
	<node lat="70.78268333568332" lon="25.714960878714948" id="-38443">
		<tag k="fixme" v="multiple name tags, choose one and add the other to alt_name" />
		<tag k="name" v="Mannskarviknakken;Nakken" />
		<tag k="natural" v="cape" />
		<tag k="ssr:stedsnr" v="454738" />
	</node>
	<node lat="70.84418889432074" lon="25.41177203665457" id="-38444">
		<tag k="name" v="Námmeleakšá" />
		<tag k="name:se" v="Námmeleakšá" />
		<tag k="natural" v="wetland" />
		<tag k="old_name:se" v="Nammelækša" />
		<tag k="ssr:stedsnr" v="262002" />
	</node>
	<node lat="70.8638416748446" lon="25.719999766460155" id="-38445">
		<tag k="alt_name" v="Kåfjord, in" />
		<tag k="name" v="Indre Kåfjord" />
		<tag k="place" v="farm" />
		<tag k="ssr:stedsnr" v="262006" />
	</node>
	<node lat="70.87142223173298" lon="25.700558112215685" id="-38446">
		<tag k="name" v="Mattiselva" />
		<tag k="ssr:stedsnr" v="262008" />
		<tag k="waterway" v="stream" />
	</node>
	<node lat="70.8691055637853" lon="25.524041464495873" id="-38447">
		<tag k="historic" v="shieling" />
		<tag k="name" v="Sætra" />
		<tag k="place" v="isolated_dwelling" />
		<tag k="ssr:stedsnr" v="262016" />
	</node>
	<node lat="70.90413334009625" lon="25.47771925560799" id="-38448">
		<tag k="name" v="Miššavuonjávri" />
		<tag k="name:se" v="Miššavuonjávri" />
		<tag k="natural" v="water" />
		<tag k="old_name:se" v="Miššavuonjavri" />
		<tag k="ssr:stedsnr" v="262044" />
	</node>
	<node lat="71.0904000035468" lon="25.451685936431957" id="-38449">
		<tag k="name" v="Gullholmen" />
		<tag k="place" v="islet" />
		<tag k="ssr:stedsnr" v="262346" />
	</node>
	<node lat="70.98665278464561" lon="25.920880324833036" id="-38450">
		<tag k="name" v="Rossmåltinden" />
		<tag k="natural" v="hill" />
		<tag k="place" v="locality" />
		<tag k="ssr:stedsnr" v="263097" />
	</node>
	<node lat="70.75263333462564" lon="25.564522013561135" id="-38451">
		<tag k="alt_name" v="Strandvatnet" />
		<tag k="name" v="Store Strandvatnet" />
		<tag k="natural" v="water" />
		<tag k="old_name" v="Strandvatnet, store" />
		<tag k="ssr:stedsnr" v="263101" />
		<tag k="water" v="lake" />
	</node>
	<node lat="70.97390278609406" lon="25.47860257373562" id="-38452">
		<tag k="name" v="Finnvika" />
		<tag k="place" v="locality" />
		<tag k="ssr:stedsnr" v="263470" />
	</node>
	<node lat="70.97647222879876" lon="25.736838655717815" id="-38453">
		<tag k="name" v="Ole Arntsagrunnen" />
		<tag k="natural" v="shoal" />
		<tag k="place" v="locality" />
		<tag k="ssr:stedsnr" v="263472" />
	</node>
	<node lat="70.9808416707233" lon="25.722149785960973" id="-38454">
		<tag k="name" v="Ole Arntsavika" />
		<tag k="natural" v="bay" />
		<tag k="ssr:stedsnr" v="263474" />
	</node>
	<node lat="71.1645194456972" lon="25.544733139088994" id="-38455">
		<tag k="name" v="Vesterkeila" />
		<tag k="natural" v="bay" />
		<tag k="ssr:stedsnr" v="263707" />
	</node>
	<node lat="71.16538889090666" lon="25.552294248857848" id="-38456">
		<tag k="name" v="Kjerkeneset" />
		<tag k="natural" v="cape" />
		<tag k="ssr:stedsnr" v="263701" />
	</node>
	<node lat="71.05871389712156" lon="25.308047041885427" id="-38457">
		<tag k="fixme" v="consider natural=peak for the most distinct mountains in the district" />
		<tag k="name" v="Gråkollfjellet" />
		<tag k="natural" v="hill" />
		<tag k="place" v="locality" />
		<tag k="ssr:stedsnr" v="267311" />
	</node>
	<node lat="70.89409722540253" lon="25.703780323047823" id="-38458">
		<tag k="fixme" v="consider natural=peak for the most distinct mountains in the district" />
		<tag k="name" v="Kirka" />
		<tag k="natural" v="hill" />
		<tag k="place" v="locality" />
		<tag k="ssr:stedsnr" v="268592" />
	</node>
	<node lat="70.89330278761074" lon="25.701119217738302" id="-38459">
		<tag k="fixme" v="consider natural=peak for the most distinct mountains in the district" />
		<tag k="name" v="Prekestolen" />
		<tag k="natural" v="hill" />
		<tag k="place" v="locality" />
		<tag k="ssr:stedsnr" v="268595" />
	</node>
	<node lat="70.75983611926016" lon="25.68863032473103" id="-38460">
		<tag k="name" v="Likkista" />
		<tag k="natural" v="bay" />
		<tag k="ssr:stedsnr" v="272508" />
	</node>
	<node lat="70.80515555956596" lon="25.759919216284906" id="-38461">
		<tag k="name" v="Laukvika" />
		<tag k="natural" v="bay" />
		<tag k="ssr:stedsnr" v="272521" />
	</node>
	<node lat="70.84907500698608" lon="25.86402754208644" id="-38462">
		<tag k="name" v="Mortholneset" />
		<tag k="natural" v="cape" />
		<tag k="ssr:stedsnr" v="323202" />
	</node>
	<node lat="70.80808056000829" lon="25.63006643521751" id="-38463">
		<tag k="fixme" v="consider natural=peak for the most distinct mountains in the district" />
		<tag k="name" v="Biersságielas" />
		<tag k="name:se" v="Biersságielas" />
		<tag k="natural" v="hill" />
		<tag k="old_name:se" v="Biersagielas" />
		<tag k="place" v="locality" />
		<tag k="ssr:stedsnr" v="323124" />
	</node>
	<node lat="70.80997778293037" lon="26.281930257816846" id="-38464">
		<tag k="name" v="Flatvikelva" />
		<tag k="ssr:stedsnr" v="323174" />
		<tag k="waterway" v="river" />
	</node>
	<node lat="70.7830750110418" lon="26.28729693493685" id="-38465">
		<tag k="name" v="Basevággi" />
		<tag k="name:se" v="Basevággi" />
		<tag k="natural" v="valley" />
		<tag k="old_name:se" v="Basevaggi" />
		<tag k="place" v="locality" />
		<tag k="ssr:stedsnr" v="323177" />
	</node>
	<node lat="70.98128889179156" lon="25.969241411537354" id="-38466">
		<tag k="name" v="Sørvågen" />
		<tag k="natural" v="cape" />
		<tag k="ssr:stedsnr" v="323182" />
	</node>
	<node lat="70.95791945415678" lon="25.859680311794044" id="-38467">
		<tag k="name" v="Tofta" />
		<tag k="natural" v="cape" />
		<tag k="ssr:stedsnr" v="323188" />
	</node>
	<node lat="71.08027500249915" lon="25.937166430000946" id="-38468">
		<tag k="name" v="Midternæringen" />
		<tag k="natural" v="cape" />
		<tag k="ssr:stedsnr" v="323303" />
	</node>
	<node lat="71.10373056344112" lon="25.395391484080022" id="-38469">
		<tag k="name" v="Lille Nordøya" />
		<tag k="old_name" v="Nordøya, l" />
		<tag k="place" v="island" />
		<tag k="ssr:stedsnr" v="323725" />
	</node>
	<node lat="71.15279167296349" lon="25.7406831179493" id="-38470">
		<tag k="name" v="Røykholdalen" />
		<tag k="natural" v="valley" />
		<tag k="place" v="locality" />
		<tag k="ssr:stedsnr" v="323737" />
	</node>
	<node lat="71.14763889264557" lon="25.336349821518702" id="-38471">
		<tag k="name" v="Stukan" />
		<tag k="natural" v="cape" />
		<tag k="ssr:stedsnr" v="323739" />
	</node>
	<node lat="71.13743055960296" lon="25.383338705195015" id="-38472">
		<tag k="fixme" v="consider seamark:type=rock or natural=shoal" />
		<tag k="name" v="Brødskjæran" />
		<tag k="place" v="islet" />
		<tag k="ssr:stedsnr" v="323743" />
	</node>
	<node lat="70.88714167466115" lon="25.672910897635585" id="-38473">
		<tag k="name" v="Vesterpolldalen" />
		<tag k="natural" v="valley" />
		<tag k="place" v="locality" />
		<tag k="ssr:stedsnr" v="328569" />
	</node>
	<node lat="71.00003611980365" lon="25.964877549405784" id="-38474">
		<tag k="name" v="Førstevatn" />
		<tag k="natural" v="water" />
		<tag k="ssr:stedsnr" v="328822" />
		<tag k="water" v="lake" />
	</node>
	<node lat="71.03988334239138" lon="25.888949765637886" id="-38475">
		<tag k="name" v="Båtbukta" />
		<tag k="natural" v="bay" />
		<tag k="ssr:stedsnr" v="329304" />
	</node>
	<node lat="70.74664722940457" lon="25.604602566122665" id="-38476">
		<tag k="name" v="Strandhalsen" />
		<tag k="natural" v="hill" />
		<tag k="place" v="locality" />
		<tag k="ssr:stedsnr" v="332549" />
	</node>
	<node lat="70.7775583432724" lon="25.637485879870045" id="-38477">
		<tag k="name" v="Indre Lomhola" />
		<tag k="natural" v="bay" />
		<tag k="ssr:stedsnr" v="332707" />
	</node>
	<node lat="70.70208905386276" lon="26.03917426390032" id="-38478">
		<tag k="name" v="Langbukta" />
		<tag k="place" v="locality" />
		<tag k="ssr:stedsnr" v="472447" />
	</node>
	<node lat="70.87805833576266" lon="25.502088679084736" id="-38479">
		<tag k="name" v="Lafjordneset" />
		<tag k="natural" v="cape" />
		<tag k="ssr:stedsnr" v="473167" />
	</node>
	<node lat="71.0075611168615" lon="25.961335882007592" id="-38480">
		<tag k="name" v="Nordmannset" />
		<tag k="place" v="hamlet" />
		<tag k="ssr:stedsnr" v="345169" />
	</node>
	<node lat="70.85135278028099" lon="25.38854701234962" id="-38481">
		<tag k="name" v="Suoidnejávri" />
		<tag k="name:se" v="Suoidnejávri" />
		<tag k="natural" v="water" />
		<tag k="old_name:se" v="Suoidnejavri" />
		<tag k="ssr:stedsnr" v="383002" />
	</node>
	<node lat="70.85455278172546" lon="25.815491421283518" id="-38482">
		<tag k="fixme" v="consider natural=peak for the most distinct mountains in the district" />
		<tag k="name" v="Smørkanna" />
		<tag k="natural" v="hill" />
		<tag k="place" v="locality" />
		<tag k="ssr:stedsnr" v="383007" />
	</node>
	<node lat="70.95110556013063" lon="25.690727547407075" id="-38483">
		<tag k="name" v="Guvllanjárga" />
		<tag k="name:se" v="Guvllanjárga" />
		<tag k="natural" v="cape" />
		<tag k="old_name:se" v="Guvlanjarga" />
		<tag k="ssr:stedsnr" v="383060" />
	</node>
	<node lat="70.72500000473929" lon="26.07037195994138" id="-38484">
		<tag k="name" v="Hårvikneset - Vuohppenjárga" />
		<tag k="name:no" v="Hårvikneset" />
		<tag k="name:se" v="Vuohppenjárga" />
		<tag k="natural" v="cape" />
		<tag k="old_name:se" v="Vuoppenjarga" />
		<tag k="ssr:stedsnr" v="383556" />
	</node>
	<node lat="70.7262722284727" lon="25.66829698724889" id="-38485">
		<tag k="fixme" v="multiple name tags, choose one and add the other to alt_name" />
		<tag k="name" v="Repvågneset;Innerneset - Sisnjárga" />
		<tag k="name:no" v="Repvågneset;Innerneset" />
		<tag k="name:se" v="Sisnjárga" />
		<tag k="natural" v="cape" />
		<tag k="old_name:se" v="Sisnjarga" />
		<tag k="ssr:stedsnr" v="383955" />
	</node>
	<node lat="70.87035556420241" lon="25.49057203022422" id="-38486">
		<tag k="name" v="Nordkroken - Nuortaroahkki" />
		<tag k="name:no" v="Nordkroken" />
		<tag k="name:se" v="Nuortaroahkki" />
		<tag k="natural" v="bay" />
		<tag k="old_name:se" v="Nuortaroakki" />
		<tag k="ssr:stedsnr" v="384023" />
	</node>
	<node lat="70.8796527834803" lon="26.457688587565254" id="-38487">
		<tag k="name" v="Rekvikvatnet" />
		<tag k="natural" v="water" />
		<tag k="ssr:stedsnr" v="384151" />
	</node>
	<node lat="71.07857500979864" lon="25.898535878752263" id="-38488">
		<tag k="fixme" v="consider natural=peak for the most distinct mountains in the district" />
		<tag k="name" v="Trevikaksla" />
		<tag k="natural" v="hill" />
		<tag k="place" v="locality" />
		<tag k="ssr:stedsnr" v="384305" />
	</node>
	<node lat="71.10162500393416" lon="26.004680328556795" id="-38489">
		<tag k="fixme" v="consider natural=peak for the most distinct mountains in the district" />
		<tag k="name" v="Opnanaksla" />
		<tag k="natural" v="hill" />
		<tag k="place" v="locality" />
		<tag k="ssr:stedsnr" v="384310" />
	</node>
	<node lat="71.10154445368171" lon="26.27702752147064" id="-38490">
		<tag k="name" v="Sveet" />
		<tag k="natural" v="shoal" />
		<tag k="place" v="locality" />
		<tag k="ssr:stedsnr" v="384312" />
	</node>
	<node lat="71.02536389367242" lon="25.225802596035184" id="-38491">
		<tag k="name" v="Svartoksgrunnen" />
		<tag k="natural" v="shoal" />
		<tag k="place" v="locality" />
		<tag k="ssr:stedsnr" v="384347" />
	</node>
	<node lat="71.16133333658227" lon="25.680022018077896" id="-38492">
		<tag k="name" v="Svartrapet" />
		<tag k="natural" v="hill" />
		<tag k="place" v="locality" />
		<tag k="ssr:stedsnr" v="384706" />
	</node>
	<node lat="70.9909777889195" lon="25.97024141660399" id="-38493">
		<tag k="fixme" v="consider natural=peak for the most distinct mountains in the district" />
		<tag k="name" v="Lillefjellet" />
		<tag k="natural" v="hill" />
		<tag k="place" v="locality" />
		<tag k="ssr:stedsnr" v="388300" />
	</node>
	<node lat="70.97816945217895" lon="25.78139143753199" id="-38494">
		<tag k="alt_name" v="Storvatnet" />
		<tag k="name" v="Sætervågvatnet" />
		<tag k="natural" v="water" />
		<tag k="ssr:stedsnr" v="389796" />
		<tag k="water" v="lake" />
	</node>
	<node lat="70.833144447713" lon="25.785449775656254" id="-38495">
		<tag k="name" v="Martavatnan" />
		<tag k="natural" v="water" />
		<tag k="ssr:stedsnr" v="390513" />
	</node>
	<node lat="70.81395000642206" lon="25.80609143788347" id="-38496">
		<tag k="name" v="Klubben" />
		<tag k="natural" v="cape" />
		<tag k="ssr:stedsnr" v="392637" />
	</node>
	<node lat="71.09926388971324" lon="25.38433593282203" id="-38497">
		<tag k="man_made" v="quay" />
		<tag k="name" v="Nygård" />
		<tag k="place" v="locality" />
		<tag k="ssr:stedsnr" v="393110" />
	</node>
	<node lat="71.08888889825052" lon="27.016666300842168" id="-38498">
		<tag k="name" v="Sværholthavet" />
		<tag k="place" v="sea" />
		<tag k="ssr:stedsnr" v="424403" />
	</node>
	<node lat="71.09831945022665" lon="25.37607759930371" id="-38499">
		<tag k="name" v="Gjesvær" />
		<tag k="place" v="village" />
		<tag k="ssr:stedsnr" v="444315" />
	</node>
	<node lat="71.0894194487565" lon="25.271433165926606" id="-38500">
		<tag k="alt_name" v="Langneset, yt" />
		<tag k="name" v="Ytre Langneset" />
		<tag k="natural" v="cape" />
		<tag k="ssr:stedsnr" v="444318" />
	</node>
	<node lat="71.04108333809504" lon="25.906935870517305" id="-38501">
		<tag k="fixme" v="consider natural=peak for the most distinct mountains in the district" />
		<tag k="name" v="Stortind" />
		<tag k="natural" v="hill" />
		<tag k="place" v="locality" />
		<tag k="ssr:stedsnr" v="444229" />
	</node>
	<node lat="71.04231389427886" lon="26.09999695928053" id="-38502">
		<tag k="name" v="Avløysingsbukta" />
		<tag k="natural" v="bay" />
		<tag k="ssr:stedsnr" v="444231" />
	</node>
	<node lat="70.72691111849173" lon="26.245508042016453" id="-38503">
		<tag k="fixme" v="consider natural=peak for the most distinct mountains in the district" />
		<tag k="name" v="Sávzačohkka" />
		<tag k="name:se" v="Sávzačohkka" />
		<tag k="natural" v="hill" />
		<tag k="old_name:se" v="Savzačåkka" />
		<tag k="place" v="locality" />
		<tag k="ssr:stedsnr" v="444515" />
	</node>
	<node lat="71.09048889203702" lon="25.22350537254236" id="-38504">
		<tag k="name" v="Næringsgrunnen" />
		<tag k="natural" v="shoal" />
		<tag k="place" v="locality" />
		<tag k="ssr:stedsnr" v="444628" />
	</node>
	<node lat="70.85286389636094" lon="25.448383124269647" id="-38505">
		<tag k="name" v="Lafjordbotn - Námmi" />
		<tag k="name:no" v="Lafjordbotn" />
		<tag k="name:se" v="Námmi" />
		<tag k="natural" v="bay" />
		<tag k="old_name:se" v="Nammi" />
		<tag k="ssr:stedsnr" v="445009" />
	</node>
	<node lat="70.89803055903421" lon="25.521141458133574" id="-38506">
		<tag k="name" v="Miššavuonnjárga" />
		<tag k="name:se" v="Miššavuonnjárga" />
		<tag k="natural" v="cape" />
		<tag k="old_name:se" v="Miššavuonnjarga" />
		<tag k="ssr:stedsnr" v="445031" />
	</node>
	<node lat="70.76021666873402" lon="25.60516367673212" id="-38507">
		<tag k="name" v="Dážagávva" />
		<tag k="name:se" v="Dážagávva" />
		<tag k="natural" v="bay" />
		<tag k="old_name:se" v="Dazagavva" />
		<tag k="ssr:stedsnr" v="445082" />
	</node>
	<node lat="70.75128611924067" lon="25.352672040833397" id="-38508">
		<tag k="name" v="Lávvárrápma" />
		<tag k="name:se" v="Lávvárrápma" />
		<tag k="natural" v="slope" />
		<tag k="old_name:se" v="Lauvvarramba" />
		<tag k="place" v="locality" />
		<tag k="ssr:stedsnr" v="445086" />
	</node>
	<node lat="70.83697500407892" lon="25.6508192097556" id="-38509">
		<tag k="alt_name:no" v="Kåfjordvatnet, nedre" />
		<tag k="name" v="Nedre Kåfjordvatnet - Gávkevuonjávri" />
		<tag k="name:no" v="Nedre Kåfjordvatnet" />
		<tag k="name:se" v="Gávkevuonjávri" />
		<tag k="natural" v="water" />
		<tag k="old_name:se" v="Gavkevuonjavri" />
		<tag k="ssr:stedsnr" v="445128" />
	</node>
	<node lat="71.09417500402164" lon="25.99169974884324" id="-38510">
		<tag k="name" v="Trollvika" />
		<tag k="natural" v="bay" />
		<tag k="ssr:stedsnr" v="445304" />
	</node>
	<node lat="71.08099445297542" lon="25.865760881918355" id="-38511">
		<tag k="fixme" v="consider natural=peak for the most distinct mountains in the district" />
		<tag k="name" v="Duksfjordfjellet" />
		<tag k="natural" v="hill" />
		<tag k="place" v="locality" />
		<tag k="ssr:stedsnr" v="445306" />
	</node>
	<node lat="71.03554167330375" lon="25.549074809754366" id="-38512">
		<tag k="name" v="Skadjajohka" />
		<tag k="name:se" v="Skadjajohka" />
		<tag k="old_name:se" v="Skaddjajåkka" />
		<tag k="ssr:stedsnr" v="445335" />
		<tag k="waterway" v="river" />
	</node>
	<node lat="71.03009445310718" lon="25.56392480524826" id="-38513">
		<tag k="fixme" v="consider natural=peak for the most distinct mountains in the district" />
		<tag k="name" v="Stohpovárri" />
		<tag k="name:se" v="Stohpovárri" />
		<tag k="natural" v="hill" />
		<tag k="old_name:se" v="Ståppuvarri" />
		<tag k="place" v="locality" />
		<tag k="ssr:stedsnr" v="445341" />
	</node>
	<node lat="71.08130833436842" lon="25.523724815416255" id="-38514">
		<tag k="name" v="Riselva" />
		<tag k="ssr:stedsnr" v="445376" />
		<tag k="waterway" v="river" />
	</node>
	<node lat="70.98728056028335" lon="25.769210883267537" id="-38515">
		<tag k="name" v="Svartvatnet" />
		<tag k="natural" v="water" />
		<tag k="ssr:stedsnr" v="445475" />
	</node>
	<node lat="71.17585000179066" lon="25.656247011233468" id="-38516">
		<tag k="alt_name" v="Skarholmen" />
		<tag k="name" v="Skardholmen" />
		<tag k="place" v="islet" />
		<tag k="ssr:stedsnr" v="445708" />
	</node>
	<node lat="71.17093888954541" lon="25.67343035064201" id="-38517">
		<tag k="name" v="Knivskjelvika" />
		<tag k="natural" v="bay" />
		<tag k="ssr:stedsnr" v="445710" />
	</node>
	<node lat="70.99673611498467" lon="25.974544190317825" id="-38518">
		<tag k="fixme" v="consider natural=peak for the most distinct mountains in the district" />
		<tag k="name" v="Sandfjellet" />
		<tag k="natural" v="hill" />
		<tag k="place" v="locality" />
		<tag k="ssr:stedsnr" v="449314" />
	</node>
	<node lat="71.12444445159441" lon="25.395063697889196" id="-38519">
		<tag k="name" v="Revsholmbåen" />
		<tag k="natural" v="shoal" />
		<tag k="place" v="locality" />
		<tag k="ssr:stedsnr" v="449822" />
	</node>
	<node lat="70.97958611711157" lon="26.035691423842454" id="-38520">
		<tag k="name" v="Øra" />
		<tag k="place" v="locality" />
		<tag k="ssr:stedsnr" v="450468" />
	</node>
	<node lat="70.8645361184953" lon="25.72407198897126" id="-38521">
		<tag k="name" v="Solvang" />
		<tag k="place" v="farm" />
		<tag k="ssr:stedsnr" v="450619" />
	</node>
	<node lat="70.84240833789465" lon="25.82249699573413" id="-38522">
		<tag k="name" v="Bergenasen" />
		<tag k="place" v="locality" />
		<tag k="ssr:stedsnr" v="450519" />
	</node>
	<node lat="70.84265000240289" lon="25.81683032120448" id="-38523">
		<tag k="name" v="Seilarvatnet" />
		<tag k="natural" v="water" />
		<tag k="ssr:stedsnr" v="450520" />
		<tag k="water" v="lake" />
	</node>
	<node lat="71.02919167169392" lon="25.587660920639042" id="-38524">
		<tag k="fixme" v="consider tourism=alpine_hut or tourism=chalet" />
		<tag k="name" v="Vannfjordhytta" />
		<tag k="ssr:stedsnr" v="450805" />
		<tag k="tourism" v="wilderness_hut" />
	</node>
	<node lat="70.97606389677523" lon="25.880033096664842" id="-38525">
		<tag k="name" v="Nedrevatn" />
		<tag k="natural" v="water" />
		<tag k="ssr:stedsnr" v="450826" />
		<tag k="water" v="lake" />
	</node>
	<node lat="70.79720834013877" lon="25.733891433931298" id="-38526">
		<tag k="name" v="Ørretvatnet" />
		<tag k="natural" v="water" />
		<tag k="ssr:stedsnr" v="454662" />
	</node>
	<node lat="70.97425000554892" lon="25.78017756164653" id="-38527">
		<tag k="name" v="Sarnes" />
		<tag k="place" v="farm" />
		<tag k="ssr:stedsnr" v="484421" />
	</node>
	<node lat="70.85756389665092" lon="25.38384146854369" id="-38528">
		<tag k="name" v="Čivttetjávri" />
		<tag k="name:se" v="Čivttetjávri" />
		<tag k="natural" v="water" />
		<tag k="old_name:se" v="Čivtetjavri" />
		<tag k="ssr:stedsnr" v="505017" />
	</node>
	<node lat="70.87905833990254" lon="25.781841431132737" id="-38529">
		<tag k="name" v="Karenvatnet" />
		<tag k="natural" v="water" />
		<tag k="ssr:stedsnr" v="505019" />
	</node>
	<node lat="71.05979445491161" lon="26.009955306345635" id="-38530">
		<tag k="bay" v="fjord" />
		<tag k="name" v="Kamøyfjorden - Gáhpevuotna" />
		<tag k="name:no" v="Kamøyfjorden" />
		<tag k="name:se" v="Gáhpevuotna" />
		<tag k="natural" v="bay" />
		<tag k="old_name:se" v="Cappevuodna" />
		<tag k="ssr:stedsnr" v="505310" />
	</node>
	<node lat="71.0718083372064" lon="25.737788674142248" id="-38531">
		<tag k="alt_name" v="Ramnflåget" />
		<tag k="name" v="Ramnfloget" />
		<tag k="natural" v="valley" />
		<tag k="place" v="locality" />
		<tag k="ssr:stedsnr" v="505376" />
	</node>
	<node lat="71.01084167346433" lon="26.03794696390129" id="-38532">
		<tag k="alt_name" v="Falkebergbukta" />
		<tag k="name" v="Falkbergbukta" />
		<tag k="place" v="isolated_dwelling" />
		<tag k="ssr:stedsnr" v="505277" />
	</node>
	<node lat="71.1124000062612" lon="25.861713677068447" id="-38533">
		<tag k="bay" v="fjord" />
		<tag k="name" v="Risfjorden" />
		<tag k="natural" v="bay" />
		<tag k="ssr:stedsnr" v="505404" />
	</node>
	<node lat="70.94735555718786" lon="25.523477567312657" id="-38534">
		<tag k="name" v="Sildtoppen - Oammačohkka" />
		<tag k="name:no" v="Sildtoppen" />
		<tag k="name:se" v="Oammačohkka" />
		<tag k="natural" v="hill" />
		<tag k="old_name:se" v="Oammačåkka" />
		<tag k="place" v="locality" />
		<tag k="ssr:stedsnr" v="505478" />
	</node>
	<node lat="70.97039445225568" lon="25.755035898533713" id="-38535">
		<tag k="bay" v="fjord" />
		<tag k="name" v="Sarnesfjorden - Sárravuotna" />
		<tag k="name:no" v="Sarnesfjorden" />
		<tag k="name:se" v="Sárravuotna" />
		<tag k="natural" v="bay" />
		<tag k="ssr:stedsnr" v="505479" />
	</node>
	<node lat="70.99309167587415" lon="25.947391422193707" id="-38536">
		<tag k="name" v="Even Hansen-bukta" />
		<tag k="natural" v="bay" />
		<tag k="ssr:stedsnr" v="509309" />
	</node>
	<node lat="71.09303611837187" lon="25.362949813490182" id="-38537">
		<tag k="name" v="Vasslineset" />
		<tag k="natural" v="cape" />
		<tag k="ssr:stedsnr" v="510304" />
	</node>
	<node lat="70.85781111892435" lon="25.827071992283198" id="-38538">
		<tag k="name" v="Smørkannvatnet" />
		<tag k="natural" v="water" />
		<tag k="ssr:stedsnr" v="511542" />
		<tag k="water" v="lake" />
	</node>
	<node lat="70.74536944620368" lon="25.678194222778174" id="-38539">
		<tag k="name" v="Nordfarhaugen" />
		<tag k="natural" v="hill" />
		<tag k="place" v="locality" />
		<tag k="ssr:stedsnr" v="513583" />
	</node>
	<node lat="70.75213611685157" lon="25.65063588477671" id="-38540">
		<tag k="name" v="Garnkeila" />
		<tag k="natural" v="bay" />
		<tag k="ssr:stedsnr" v="514586" />
	</node>
	<node lat="70.74956111987004" lon="25.66624143252031" id="-38541">
		<tag k="name" v="Fiskebuktneset" />
		<tag k="natural" v="cape" />
		<tag k="ssr:stedsnr" v="514589" />
	</node>
	<node lat="70.7489027809386" lon="25.663091451434838" id="-38542">
		<tag k="name" v="Svartberget" />
		<tag k="natural" v="hill" />
		<tag k="place" v="locality" />
		<tag k="ssr:stedsnr" v="514594" />
	</node>
	<node lat="70.73948889597288" lon="25.601605347226684" id="-38543">
		<tag k="name" v="Vedbotndalen" />
		<tag k="natural" v="valley" />
		<tag k="place" v="locality" />
		<tag k="ssr:stedsnr" v="514718" />
	</node>
	<node lat="70.97383889161144" lon="25.779449782675076" id="-38545">
		<tag k="name" v="Sarnesøra" />
		<tag k="natural" v="cape" />
		<tag k="ssr:stedsnr" v="527176" />
	</node>
	<node lat="70.69673889334481" lon="26.049652497108244" id="-38546">
		<tag k="name" v="Inner-Hårvika" />
		<tag k="place" v="locality" />
		<tag k="ssr:stedsnr" v="533467" />
	</node>
	<node lat="70.8959944510365" lon="25.58278867277914" id="-38547">
		<tag k="name" v="Laholmen - Sullovuolli" />
		<tag k="name:no" v="Laholmen" />
		<tag k="name:se" v="Sullovuolli" />
		<tag k="old_name:se" v="Sulluvuolli" />
		<tag k="place" v="locality" />
		<tag k="ssr:stedsnr" v="687029" />
	</node>
	<node lat="70.82843889712507" lon="25.754652561813746" id="-38548">
		<tag k="name" v="Sandviksvatna" />
		<tag k="natural" v="water" />
		<tag k="ssr:stedsnr" v="687112" />
		<tag k="water" v="lake" />
	</node>
	<node lat="70.83693889413227" lon="25.65823032167638" id="-38549">
		<tag k="name" v="Kåfjorddalen - Gávkevággi" />
		<tag k="name:no" v="Kåfjorddalen" />
		<tag k="name:se" v="Gávkevággi" />
		<tag k="natural" v="valley" />
		<tag k="old_name:se" v="Gavkevaggi" />
		<tag k="place" v="locality" />
		<tag k="ssr:stedsnr" v="687121" />
	</node>
	<node lat="70.75585000875218" lon="26.192255266011347" id="-38550">
		<tag k="fixme" v="consider natural=peak for the most distinct mountains in the district" />
		<tag k="name" v="Breikrangel" />
		<tag k="natural" v="hill" />
		<tag k="place" v="locality" />
		<tag k="ssr:stedsnr" v="687134" />
	</node>
	<node lat="70.8232027843329" lon="26.29307192252187" id="-38551">
		<tag k="fixme" v="consider natural=peak for the most distinct mountains in the district" />
		<tag k="name" v="Flatvikfjellet" />
		<tag k="natural" v="hill" />
		<tag k="place" v="locality" />
		<tag k="ssr:stedsnr" v="687156" />
	</node>
	<node lat="70.88515834015895" lon="25.858166441896522" id="-38552">
		<tag k="fixme" v="consider natural=peak for the most distinct mountains in the district" />
		<tag k="name" v="Molfjellet" />
		<tag k="natural" v="hill" />
		<tag k="place" v="locality" />
		<tag k="ssr:stedsnr" v="687178" />
	</node>
	<node lat="70.86683611785354" lon="25.88480254802341" id="-38553">
		<tag k="name" v="Porsangneset - Čavččanjárga" />
		<tag k="name:no" v="Porsangneset" />
		<tag k="name:se" v="Čavččanjárga" />
		<tag k="natural" v="cape" />
		<tag k="old_name:se" v="Čavčanjarga" />
		<tag k="ssr:stedsnr" v="687179" />
	</node>
	<node lat="71.05556666981852" lon="25.2315775928141" id="-38554">
		<tag k="fixme" v="multiple name tags, choose one and add the other to alt_name; consider seamark:type=rock or natural=shoal" />
		<tag k="name" v="Skarvskjæret;Skarveskjæret" />
		<tag k="place" v="islet" />
		<tag k="ssr:stedsnr" v="687309" />
	</node>
	<node lat="71.0493833394918" lon="25.274360924045283" id="-38555">
		<tag k="name" v="Gråkollen" />
		<tag k="natural" v="bay" />
		<tag k="ssr:stedsnr" v="687312" />
	</node>
	<node lat="71.0495833400868" lon="25.585474811008343" id="-38556">
		<tag k="name" v="Skadjajávri" />
		<tag k="name:se" v="Skadjajávri" />
		<tag k="natural" v="water" />
		<tag k="old_name:se" v="Skaddjajavri" />
		<tag k="ssr:stedsnr" v="687317" />
	</node>
	<node lat="71.01070833634061" lon="26.001960871176088" id="-38557">
		<tag k="name" v="Valan" />
		<tag k="natural" v="bay" />
		<tag k="ssr:stedsnr" v="687255" />
	</node>
	<node lat="71.00164722472857" lon="26.121027520658703" id="-38558">
		<tag k="name" v="Kjelen" />
		<tag k="place" v="islet" />
		<tag k="ssr:stedsnr" v="687259" />
	</node>
	<node lat="71.01443889475718" lon="26.01977197326624" id="-38559">
		<tag k="name" v="Selvågen" />
		<tag k="natural" v="bay" />
		<tag k="ssr:stedsnr" v="687263" />
	</node>
	<node lat="71.01606389260805" lon="25.284544279350552" id="-38560">
		<tag k="name" v="Skálžoluovttat" />
		<tag k="name:se" v="Skálžoluovttat" />
		<tag k="natural" v="bay" />
		<tag k="old_name:se" v="Skalžuluovtat" />
		<tag k="ssr:stedsnr" v="687334" />
	</node>
	<node lat="71.0883972249628" lon="25.519308127345532" id="-38561">
		<tag k="name" v="Čuvgesjávrrit" />
		<tag k="name:se" v="Čuvgesjávrrit" />
		<tag k="natural" v="water" />
		<tag k="old_name:se" v="Čuvgesjavrit" />
		<tag k="ssr:stedsnr" v="687361" />
		<tag k="water" v="lake" />
	</node>
	<node lat="70.96289444910222" lon="25.486466455446806" id="-38562">
		<tag k="name" v="Girsavákkegohppi" />
		<tag k="name:se" v="Girsavákkegohppi" />
		<tag k="natural" v="bay" />
		<tag k="old_name:se" v="Girsavaggegåppi" />
		<tag k="ssr:stedsnr" v="687449" />
	</node>
	<node lat="70.95851111978494" lon="25.63057757038699" id="-38563">
		<tag k="fixme" v="consider natural=peak for the most distinct mountains in the district" />
		<tag k="name" v="Doaresvárri" />
		<tag k="name:se" v="Doaresvárri" />
		<tag k="natural" v="hill" />
		<tag k="old_name:se" v="Doaresvarri" />
		<tag k="place" v="locality" />
		<tag k="ssr:stedsnr" v="687451" />
	</node>
	<node lat="70.9673861143737" lon="25.72713309775478" id="-38564">
		<tag k="name" v="Kobbholgrunnen" />
		<tag k="natural" v="shoal" />
		<tag k="place" v="locality" />
		<tag k="ssr:stedsnr" v="687452" />
	</node>
	<node lat="70.69896667606402" lon="26.036102512514407" id="-38565">
		<tag k="name" v="Inner-Hårvika - Guhkesluokta" />
		<tag k="name:no" v="Inner-Hårvika" />
		<tag k="name:se" v="Guhkesluokta" />
		<tag k="natural" v="bay" />
		<tag k="old_name:se" v="Gukkesluokta" />
		<tag k="ssr:stedsnr" v="687519" />
	</node>
	<node lat="70.7233277867087" lon="26.110755292108742" id="-38566">
		<tag k="name" v="Skjåneset" />
		<tag k="natural" v="cape" />
		<tag k="ssr:stedsnr" v="687526" />
	</node>
	<node lat="70.67455278253415" lon="26.061941381508014" id="-38567">
		<tag k="fixme" v="consider natural=peak for the most distinct mountains in the district" />
		<tag k="name" v="Hårvikfjellet" />
		<tag k="natural" v="hill" />
		<tag k="place" v="locality" />
		<tag k="ssr:stedsnr" v="687557" />
	</node>
	<node lat="71.18446944962113" lon="25.671169246071017" id="-38568">
		<tag k="name" v="Krokreva" />
		<tag k="natural" v="cape" />
		<tag k="ssr:stedsnr" v="687728" />
	</node>
	<node lat="71.11020278118527" lon="25.575035920739783" id="-38569">
		<tag k="fixme" v="consider seamark:type=rock or natural=shoal" />
		<tag k="name" v="Risfjordskjæret" />
		<tag k="place" v="islet" />
		<tag k="ssr:stedsnr" v="687744" />
	</node>
	<node lat="70.76966944721008" lon="25.384766474653205" id="-38570">
		<tag k="name" v="Gámasjohka" />
		<tag k="name:se" v="Gámasjohka" />
		<tag k="old_name:se" v="Gammasjåkka" />
		<tag k="ssr:stedsnr" v="688086" />
		<tag k="waterway" v="river" />
	</node>
	<node lat="70.75124650317511" lon="25.67823887584448" id="-38571">
		<tag k="name" v="Repvåg" />
		<tag k="place" v="farm" />
		<tag k="ssr:stedsnr" v="688075" />
	</node>
	<node lat="71.11413056480558" lon="25.834496992467994" id="-38572">
		<tag k="name" v="Sildvika" />
		<tag k="natural" v="bay" />
		<tag k="ssr:stedsnr" v="688312" />
	</node>
	<node lat="71.09993055662282" lon="26.022946982109488" id="-38573">
		<tag k="name" v="Reinvika" />
		<tag k="natural" v="bay" />
		<tag k="ssr:stedsnr" v="688317" />
	</node>
	<node lat="71.08189445123291" lon="25.951408095889008" id="-38574">
		<tag k="alt_name" v="Trevika, yt" />
		<tag k="name" v="Ytre Trevika" />
		<tag k="natural" v="bay" />
		<tag k="ssr:stedsnr" v="688326" />
	</node>
	<node lat="71.12830556455626" lon="25.861927557068878" id="-38575">
		<tag k="alt_name" v="Børnes, vestre" />
		<tag k="name" v="Vestre Børnes" />
		<tag k="natural" v="cape" />
		<tag k="ssr:stedsnr" v="688360" />
	</node>
	<node lat="71.12644723046273" lon="25.381285924406082" id="-38576">
		<tag k="fixme" v="consider seamark:type=rock or natural=shoal" />
		<tag k="name" v="Bukkspelen" />
		<tag k="place" v="islet" />
		<tag k="ssr:stedsnr" v="688748" />
	</node>
	<node lat="71.12560000756325" lon="25.31998592601576" id="-38577">
		<tag k="name" v="Seivakta" />
		<tag k="place" v="islet" />
		<tag k="ssr:stedsnr" v="688752" />
	</node>
	<node lat="70.86419444894288" lon="25.901341433530476" id="-38578">
		<tag k="name" v="Alterkeila - Áltárkeailu" />
		<tag k="name:no" v="Alterkeila" />
		<tag k="name:se" v="Áltárkeailu" />
		<tag k="natural" v="bay" />
		<tag k="old_name:se" v="Altarkæilo" />
		<tag k="ssr:stedsnr" v="565165" />
	</node>
	<node lat="71.00593056462684" lon="26.045960860028085" id="-38579">
		<tag k="alt_name" v="Falkeberget" />
		<tag k="fixme" v="consider natural=peak for the most distinct mountains in the district" />
		<tag k="name" v="Falkberget" />
		<tag k="natural" v="hill" />
		<tag k="place" v="locality" />
		<tag k="ssr:stedsnr" v="565265" />
	</node>
	<node lat="70.67770556619706" lon="26.021855295419765" id="-38580">
		<tag k="name" v="Brennvika - Ánddešgohppi" />
		<tag k="name:no" v="Brennvika" />
		<tag k="name:se" v="Ánddešgohppi" />
		<tag k="natural" v="bay" />
		<tag k="old_name:se" v="Andešgåppi" />
		<tag k="ssr:stedsnr" v="565505" />
	</node>
	<node lat="70.69397778405536" lon="26.044124731521762" id="-38581">
		<tag k="name" v="Láttatluokta" />
		<tag k="name:se" v="Láttatluokta" />
		<tag k="natural" v="bay" />
		<tag k="old_name:se" v="Laddatluokta" />
		<tag k="ssr:stedsnr" v="565507" />
	</node>
	<node lat="71.10866388967821" lon="25.51384704049782" id="-38582">
		<tag k="name" v="Gampollaksla" />
		<tag k="natural" v="hill" />
		<tag k="place" v="locality" />
		<tag k="ssr:stedsnr" v="565731" />
	</node>
	<node lat="70.4779694984812" lon="30.901573022960466" id="-38583">
		<tag k="alt_name" v="Østhavet" />
		<tag k="name" v="Austhavet" />
		<tag k="place" v="sea" />
		<tag k="ssr:stedsnr" v="565913" />
	</node>
	<node lat="70.81562222980882" lon="25.806083103171375" id="-38584">
		<tag k="name" v="Jernøya - Ruovdesuolu" />
		<tag k="name:no" v="Jernøya" />
		<tag k="name:se" v="Ruovdesuolu" />
		<tag k="old_name:se" v="Ruovdesuolo" />
		<tag k="place" v="island" />
		<tag k="ssr:stedsnr" v="566104" />
	</node>
	<node lat="70.83380000984633" lon="25.710916448548115" id="-38585">
		<tag k="name" v="Fjerdedalsvatnet" />
		<tag k="natural" v="water" />
		<tag k="ssr:stedsnr" v="566118" />
	</node>
	<node lat="70.83673611872167" lon="25.736305323227924" id="-38586">
		<tag k="alt_name" v="Annendalsvatnet" />
		<tag k="name" v="Andredalsvatnet" />
		<tag k="natural" v="water" />
		<tag k="ssr:stedsnr" v="566119" />
		<tag k="water" v="lake" />
	</node>
	<node lat="71.1102861197136" lon="25.8735247864975" id="-38587">
		<tag k="name" v="Molvika" />
		<tag k="natural" v="bay" />
		<tag k="ssr:stedsnr" v="566306" />
	</node>
	<node lat="71.08400555997304" lon="25.98489974779301" id="-38588">
		<tag k="name" v="Bryggemola" />
		<tag k="natural" v="cape" />
		<tag k="ssr:stedsnr" v="566309" />
	</node>
	<node lat="71.07007222749648" lon="25.830630327714257" id="-38589">
		<tag k="fixme" v="consider natural=peak for the most distinct mountains in the district" />
		<tag k="name" v="Duken" />
		<tag k="natural" v="hill" />
		<tag k="place" v="locality" />
		<tag k="ssr:stedsnr" v="566321" />
	</node>
	<node lat="70.97248611802401" lon="25.87691365918377" id="-38590">
		<tag k="name" v="Ytre Bakli" />
		<tag k="natural" v="bay" />
		<tag k="ssr:stedsnr" v="692829" />
	</node>
	<node lat="71.1633974368295" lon="25.813422675560698" id="-38591">
		<tag k="fixme" v="consider natural=peak for the most distinct mountains in the district" />
		<tag k="name" v="Hornet" />
		<tag k="natural" v="hill" />
		<tag k="place" v="locality" />
		<tag k="ssr:stedsnr" v="566704" />
	</node>
	<node lat="71.15534722503543" lon="25.701355354950323" id="-38592">
		<tag k="name" v="Røykholet" />
		<tag k="natural" v="hill" />
		<tag k="place" v="locality" />
		<tag k="ssr:stedsnr" v="566707" />
	</node>
	<node lat="71.15881944759938" lon="25.767763671550526" id="-38593">
		<tag k="name" v="Davvenjárga" />
		<tag k="name:se" v="Davvenjárga" />
		<tag k="natural" v="cape" />
		<tag k="old_name:se" v="Davvenjarga" />
		<tag k="ssr:stedsnr" v="566710" />
	</node>
	<node lat="70.87348611742266" lon="25.750391430813224" id="-38594">
		<tag k="name" v="Montejorda" />
		<tag k="place" v="farm" />
		<tag k="ssr:stedsnr" v="692860" />
	</node>
	<node lat="70.74612778258023" lon="25.68864700498874" id="-38595">
		<tag k="name" v="Båtmola" />
		<tag k="natural" v="bay" />
		<tag k="ssr:stedsnr" v="692863" />
	</node>
	<node lat="70.8447111178825" lon="26.507888570212167" id="-38596">
		<tag k="fixme" v="consider natural=peak for the most distinct mountains in the district" />
		<tag k="name" v="Blåfjellet - Uhca Giđđa" />
		<tag k="name:no" v="Blåfjellet" />
		<tag k="name:se" v="Uhca Giđđa" />
		<tag k="natural" v="hill" />
		<tag k="old_name:se" v="Giđđa, ucca" />
		<tag k="place" v="locality" />
		<tag k="ssr:stedsnr" v="570111" />
	</node>
</osm>
