<?xml version="1.0" encoding="UTF-8"?>
<osm version="0.6" generator="osmapis">
	<node lat="71.11319444961879" lon="25.826991459649417" id="-34283">
		<tag k="name" v="Skarsvåg" />
		<tag k="place" v="village" />
		<tag k="ssr:stedsnr" v="20292" />
	</node>
	<node lat="71.07543889432502" lon="25.87038033123653" id="-34285">
		<tag k="name" v="Duksfjord" />
		<tag k="place" v="isolated_dwelling" />
		<tag k="ssr:stedsnr" v="20295" />
	</node>
	<node lat="70.89260000555244" lon="25.769708101274645" id="-34309">
		<tag k="fixme" v="consider place=hamlet" />
		<tag k="name" v="Ytre Kåfjord" />
		<tag k="old_name" v="Kåfjord, yt" />
		<tag k="place" v="village" />
		<tag k="ssr:stedsnr" v="81031" />
	</node>
	<node lat="70.74702778213016" lon="25.673199781741776" id="-34361">
		<tag k="fixme" v="consider place=hamlet" />
		<tag k="name" v="Repvåg - Reiffváhki" />
		<tag k="name:no" v="Repvåg" />
		<tag k="name:se" v="Reiffváhki" />
		<tag k="old_name:se" v="Reifvakki" />
		<tag k="place" v="village" />
		<tag k="ssr:stedsnr" v="262979" />
	</node>
	<node lat="71.03709444934508" lon="25.4843497994735" id="-34370">
		<tag k="name" v="Gammelvær" />
		<tag k="place" v="isolated_dwelling" />
		<tag k="ssr:stedsnr" v="263363" />
	</node>
	<node lat="71.1003972274792" lon="25.36191093227894" id="-34378">
		<tag k="name" v="Gammelvær" />
		<tag k="place" v="locality" />
		<tag k="ssr:stedsnr" v="267262" />
	</node>
	<node lat="70.87500556198749" lon="25.753055325778103" id="-34409">
		<tag k="name" v="Nilsplass" />
		<tag k="place" v="farm" />
		<tag k="ssr:stedsnr" v="207550" />
	</node>
	<node lat="71.02617500186099" lon="25.893291432505322" id="-34411">
		<tag k="name" v="Skipsfjord" />
		<tag k="place" v="hamlet" />
		<tag k="ssr:stedsnr" v="208309" />
	</node>
	<node lat="70.8638416748446" lon="25.719999766460155" id="-34438">
		<tag k="alt_name" v="Kåfjord, in" />
		<tag k="name" v="Indre Kåfjord" />
		<tag k="place" v="farm" />
		<tag k="ssr:stedsnr" v="262006" />
	</node>
	<node lat="70.8691055637853" lon="25.524041464495873" id="-34440">
		<tag k="historic" v="shieling" />
		<tag k="name" v="Sætra" />
		<tag k="place" v="isolated_dwelling" />
		<tag k="ssr:stedsnr" v="262016" />
	</node>
	<node lat="70.97390278609406" lon="25.47860257373562" id="-34445">
		<tag k="name" v="Finnvika" />
		<tag k="place" v="locality" />
		<tag k="ssr:stedsnr" v="263470" />
	</node>
	<node lat="70.70208905386276" lon="26.03917426390032" id="-34471">
		<tag k="name" v="Langbukta" />
		<tag k="place" v="locality" />
		<tag k="ssr:stedsnr" v="472447" />
	</node>
	<node lat="71.0075611168615" lon="25.961335882007592" id="-34473">
		<tag k="name" v="Nordmannset" />
		<tag k="place" v="hamlet" />
		<tag k="ssr:stedsnr" v="345169" />
	</node>
	<node lat="71.09831945022665" lon="25.37607759930371" id="-34492">
		<tag k="name" v="Gjesvær" />
		<tag k="place" v="village" />
		<tag k="ssr:stedsnr" v="444315" />
	</node>
	<node lat="70.8645361184953" lon="25.72407198897126" id="-34514">
		<tag k="name" v="Solvang" />
		<tag k="place" v="farm" />
		<tag k="ssr:stedsnr" v="450619" />
	</node>
	<node lat="71.02919167169392" lon="25.587660920639042" id="-34517">
		<tag k="fixme" v="consider tourism=alpine_hut or tourism=chalet" />
		<tag k="name" v="Vannfjordhytta" />
		<tag k="ssr:stedsnr" v="450805" />
		<tag k="tourism" v="wilderness_hut" />
	</node>
	<node lat="70.97425000554892" lon="25.78017756164653" id="-34520">
		<tag k="name" v="Sarnes" />
		<tag k="place" v="farm" />
		<tag k="ssr:stedsnr" v="484421" />
	</node>
	<node lat="71.01084167346433" lon="26.03794696390129" id="-34525">
		<tag k="alt_name" v="Falkebergbukta" />
		<tag k="name" v="Falkbergbukta" />
		<tag k="place" v="isolated_dwelling" />
		<tag k="ssr:stedsnr" v="505277" />
	</node>
	<node lat="70.69673889334481" lon="26.049652497108244" id="-34539">
		<tag k="name" v="Inner-Hårvika" />
		<tag k="place" v="locality" />
		<tag k="ssr:stedsnr" v="533467" />
	</node>
	<node lat="70.8959944510365" lon="25.58278867277914" id="-34540">
		<tag k="name" v="Laholmen - Sullovuolli" />
		<tag k="name:no" v="Laholmen" />
		<tag k="name:se" v="Sullovuolli" />
		<tag k="old_name:se" v="Sulluvuolli" />
		<tag k="place" v="locality" />
		<tag k="ssr:stedsnr" v="687029" />
	</node>
	<node lat="70.75124650317511" lon="25.67823887584448" id="-34564">
		<tag k="name" v="Repvåg" />
		<tag k="place" v="farm" />
		<tag k="ssr:stedsnr" v="688075" />
	</node>
	<node lat="70.87348611742266" lon="25.750391430813224" id="-34587">
		<tag k="name" v="Montejorda" />
		<tag k="place" v="farm" />
		<tag k="ssr:stedsnr" v="692860" />
	</node>
</osm>
