<?xml version="1.0" encoding="UTF-8"?>
<osm version="0.6" generator="osmapis">
	<node lat="71.10989445148363" lon="25.81771645358066" id="-105597">
		<tag k="alt_name" v="Skarsvåg" />
		<tag k="amenity" v="place_of_worship" />
		<tag k="denomination" v="lutheran" />
		<tag k="name" v="Skarsvåg kirke" />
		<tag k="religion" v="christian" />
		<tag k="ssr:stedsnr" v="518803" />
	</node>
	<node lat="71.16981945029515" lon="25.783149794745587" id="-105891">
		<tag k="name" v="Nordkapphallen" />
		<tag k="ssr:stedsnr" v="86466" />
		<tag k="tourism" v="attraction" />
	</node>
	<node lat="70.97798418855413" lon="25.979022622471966" id="-106006">
		<tag k="amenity" v="place_of_worship" />
		<tag k="denomination" v="lutheran" />
		<tag k="loc_name" v="Nordkapp" />
		<tag k="name" v="Honningsvåg  kirke" />
		<tag k="religion" v="christian" />
		<tag k="ssr:stedsnr" v="215848" />
	</node>
	<node lat="70.73945301512758" lon="25.666725792954388" id="-106007">
		<tag k="alt_name" v="Repvåg" />
		<tag k="amenity" v="place_of_worship" />
		<tag k="denomination" v="lutheran" />
		<tag k="name" v="Repvåg kirke" />
		<tag k="religion" v="christian" />
		<tag k="ssr:stedsnr" v="224525" />
	</node>
</osm>
