<?xml version="1.0" encoding="UTF-8"?>
<osm version="0.6" generator="osmapis">
	<node lat="70.72250000381945" lon="25.62388867062167" id="-34271">
		<tag k="name" v="Innerbuktgrunnen" />
		<tag k="natural" v="shoal" />
		<tag k="place" v="locality" />
		<tag k="ssr:stedsnr" v="230448" />
	</node>
	<node lat="71.05147501092715" lon="25.950363643826496" id="-34277">
		<tag k="fixme" v="multiple name tags, choose one and add the other to alt_name" />
		<tag k="name" v="Kamøya;Store Kamøya - Gáhpesuolu" />
		<tag k="name:no" v="Kamøya;Store Kamøya" />
		<tag k="name:se" v="Gáhpesuolu" />
		<tag k="old_name:no" v="Kamøya, store" />
		<tag k="old_name:se" v="Gappesuolo" />
		<tag k="place" v="island" />
		<tag k="ssr:stedsnr" v="20311" />
	</node>
	<node lat="71.03720556406863" lon="25.46765258051998" id="-34280">
		<tag k="fixme" v="multiple name tags, choose one and add the other to alt_name" />
		<tag k="name" v="Stillbukta;Vesterbotn" />
		<tag k="natural" v="bay" />
		<tag k="ssr:stedsnr" v="20324" />
	</node>
	<node lat="71.11391389407758" lon="26.040099764440356" id="-34282">
		<tag k="name" v="Opnan" />
		<tag k="natural" v="cape" />
		<tag k="ssr:stedsnr" v="20291" />
	</node>
	<node lat="71.01431944793919" lon="26.050402537525336" id="-34287">
		<tag k="name" v="Falkbergbukta" />
		<tag k="natural" v="bay" />
		<tag k="ssr:stedsnr" v="20275" />
	</node>
	<node lat="71.10687222835668" lon="25.529497023014503" id="-34288">
		<tag k="name" v="Nuorttat Čuvgesnjárga" />
		<tag k="name:se" v="Nuorttat Čuvgesnjárga" />
		<tag k="natural" v="cape" />
		<tag k="old_name:se" v="Čuvgesnjarga, nuortat;Čuvgesnjárga" />
		<tag k="ssr:stedsnr" v="20337" />
	</node>
	<node lat="71.11315556262711" lon="25.789269224015637" id="-34289">
		<tag k="bay" v="fjord" />
		<tag k="name" v="Mefjorden" />
		<tag k="natural" v="bay" />
		<tag k="ssr:stedsnr" v="20401" />
	</node>
	<node lat="70.97428889801665" lon="25.47353590949474" id="-34290">
		<tag k="name" v="Finnvika" />
		<tag k="natural" v="bay" />
		<tag k="ssr:stedsnr" v="20439" />
	</node>
	<node lat="71.183358338662" lon="25.675197009869898" id="-34291">
		<tag k="name" v="Knivskjelodden" />
		<tag k="natural" v="cape" />
		<tag k="ssr:stedsnr" v="20745" />
	</node>
	<node lat="70.89053056454202" lon="25.760816439111125" id="-34293">
		<tag k="name" v="Indre Gargo" />
		<tag k="natural" v="bay" />
		<tag k="ssr:stedsnr" v="25492" />
	</node>
	<node lat="71.10500000269244" lon="25.48515536139344" id="-34296">
		<tag k="name" v="Indre Gampollen" />
		<tag k="natural" v="bay" />
		<tag k="ssr:stedsnr" v="26306" />
	</node>
	<node lat="71.10603611093505" lon="25.446049815852117" id="-34297">
		<tag k="name" v="Store Finnstø" />
		<tag k="natural" v="bay" />
		<tag k="ssr:stedsnr" v="26310" />
	</node>
	<node lat="71.09919722910622" lon="25.43401927274955" id="-34298">
		<tag k="fixme" v="multiple name tags, choose one and add the other to alt_name" />
		<tag k="name" v="Lille Melkøya;Melkøya" />
		<tag k="place" v="islet" />
		<tag k="ssr:stedsnr" v="26316" />
	</node>
	<node lat="71.16990556022893" lon="25.802024791930005" id="-34299">
		<tag k="name" v="Lars Gunnersenvika" />
		<tag k="natural" v="bay" />
		<tag k="ssr:stedsnr" v="26485" />
	</node>
	<node lat="71.15842223137844" lon="25.52664702323466" id="-34301">
		<tag k="name" v="Hella" />
		<tag k="natural" v="shoal" />
		<tag k="place" v="locality" />
		<tag k="ssr:stedsnr" v="48211" />
	</node>
	<node lat="71.11903889542077" lon="25.300977608366374" id="-34302">
		<tag k="name" v="Vestre Ramnholman" />
		<tag k="place" v="islet" />
		<tag k="ssr:stedsnr" v="49587" />
	</node>
	<node lat="71.06976389766591" lon="25.87963867354098" id="-34304">
		<tag k="bay" v="fjord" />
		<tag k="name" v="Duksfjorden - Diksovuotna" />
		<tag k="name:no" v="Duksfjorden" />
		<tag k="name:se" v="Diksovuotna" />
		<tag k="natural" v="bay" />
		<tag k="old_name:se" v="Diksuvuodna" />
		<tag k="ssr:stedsnr" v="80305" />
	</node>
	<node lat="71.05731112170447" lon="26.160624732955288" id="-34305">
		<tag k="name" v="Røykholneset" />
		<tag k="natural" v="cape" />
		<tag k="ssr:stedsnr" v="80313" />
	</node>
	<node lat="70.96917778569971" lon="25.473674814456235" id="-34306">
		<tag k="name" v="Springneset" />
		<tag k="natural" v="cape" />
		<tag k="ssr:stedsnr" v="80447" />
	</node>
	<node lat="71.00738611889635" lon="26.161474749612108" id="-34311">
		<tag k="name" v="Russelva" />
		<tag k="natural" v="cape" />
		<tag k="ssr:stedsnr" v="81292" />
	</node>
	<node lat="71.01349167177803" lon="26.183685855065264" id="-34312">
		<tag k="name" v="Hundvikneset" />
		<tag k="natural" v="cape" />
		<tag k="ssr:stedsnr" v="81297" />
	</node>
	<node lat="71.12777778537912" lon="26.062849752318062" id="-34314">
		<tag k="name" v="Jarnsteinbåen" />
		<tag k="natural" v="shoal" />
		<tag k="place" v="locality" />
		<tag k="ssr:stedsnr" v="81308" />
	</node>
	<node lat="71.08881389763344" lon="25.992966432075008" id="-34315">
		<tag k="name" v="Trollviknæringen" />
		<tag k="natural" v="cape" />
		<tag k="ssr:stedsnr" v="81316" />
	</node>
	<node lat="71.07393333512708" lon="25.312088700996007" id="-34317">
		<tag k="fixme" v="multiple name tags, choose one and add the other to alt_name; consider seamark:type=rock or natural=shoal" />
		<tag k="name" v="Hollenderskjæret;Hollendarskjæran" />
		<tag k="place" v="islet" />
		<tag k="ssr:stedsnr" v="81396" />
	</node>
	<node lat="70.8962055627498" lon="25.78306922447016" id="-34318">
		<tag k="name" v="Ytre Gargo" />
		<tag k="natural" v="bay" />
		<tag k="ssr:stedsnr" v="85384" />
	</node>
	<node lat="71.18472222599226" lon="25.21666649923417" id="-34319">
		<tag k="name" v="Leira" />
		<tag k="natural" v="shoal" />
		<tag k="place" v="locality" />
		<tag k="ssr:stedsnr" v="85829" />
	</node>
	<node lat="70.8322444550957" lon="25.80968864943692" id="-34321">
		<tag k="name" v="Husvika" />
		<tag k="natural" v="bay" />
		<tag k="ssr:stedsnr" v="86526" />
	</node>
	<node lat="70.83306111370042" lon="25.809455329649026" id="-34322">
		<tag k="name" v="Husvikklubben" />
		<tag k="natural" v="cape" />
		<tag k="ssr:stedsnr" v="86527" />
	</node>
	<node lat="71.10455838685506" lon="25.380685517445873" id="-34326">
		<tag k="name" v="Avløysingen" />
		<tag k="place" v="islet" />
		<tag k="ssr:stedsnr" v="109144" />
	</node>
	<node lat="71.05945277918418" lon="25.873474769774493" id="-34327">
		<tag k="name" v="Kvalvika" />
		<tag k="natural" v="bay" />
		<tag k="ssr:stedsnr" v="140305" />
	</node>
	<node lat="71.03691389068396" lon="25.250188714690704" id="-34332">
		<tag k="name" v="Sølvnasa" />
		<tag k="natural" v="cape" />
		<tag k="ssr:stedsnr" v="141336" />
	</node>
	<node lat="70.75058611562561" lon="25.66571087633326" id="-34336">
		<tag k="name" v="Fiskebukta" />
		<tag k="natural" v="bay" />
		<tag k="ssr:stedsnr" v="150554" />
	</node>
	<node lat="70.7598472270017" lon="25.641838658479244" id="-34337">
		<tag k="name" v="Austre Strandgrunnen" />
		<tag k="natural" v="shoal" />
		<tag k="place" v="locality" />
		<tag k="ssr:stedsnr" v="169014" />
	</node>
	<node lat="71.10971666806222" lon="25.315599825084192" id="-34338">
		<tag k="fixme" v="consider seamark:type=rock or natural=shoal" />
		<tag k="name" v="Hompskjæret" />
		<tag k="place" v="islet" />
		<tag k="ssr:stedsnr" v="169104" />
	</node>
	<node lat="70.9507583377828" lon="25.828910865237027" id="-34339">
		<tag k="name" v="Austre Grunnen" />
		<tag k="natural" v="shoal" />
		<tag k="place" v="locality" />
		<tag k="ssr:stedsnr" v="169703" />
	</node>
	<node lat="71.1558416672969" lon="25.716930350684347" id="-34340">
		<tag k="name" v="Mosesholet" />
		<tag k="natural" v="bay" />
		<tag k="ssr:stedsnr" v="169967" />
	</node>
	<node lat="70.94018889411336" lon="25.498619235231946" id="-34343">
		<tag k="name" v="Magerøysundet - Máhkarainuorri" />
		<tag k="name:no" v="Magerøysundet" />
		<tag k="name:se" v="Máhkarainuorri" />
		<tag k="natural" v="strait" />
		<tag k="old_name:se" v="Makkarajnuorri" />
		<tag k="ssr:stedsnr" v="262060" />
	</node>
	<node lat="70.82678611306054" lon="25.86972475600581" id="-34345">
		<tag k="name" v="Tipsen" />
		<tag k="natural" v="shoal" />
		<tag k="place" v="locality" />
		<tag k="ssr:stedsnr" v="262157" />
	</node>
	<node lat="70.9691777847851" lon="25.821252542801677" id="-34347">
		<tag k="name" v="Lille Altsula" />
		<tag k="place" v="islet" />
		<tag k="ssr:stedsnr" v="262176" />
	</node>
	<node lat="70.89611389970756" lon="25.880296975518913" id="-34348">
		<tag k="name" v="Finnroran" />
		<tag k="natural" v="cape" />
		<tag k="ssr:stedsnr" v="262180" />
	</node>
	<node lat="70.87389722400779" lon="25.903510875063972" id="-34349">
		<tag k="name" v="Hjellneset" />
		<tag k="natural" v="cape" />
		<tag k="ssr:stedsnr" v="262189" />
	</node>
	<node lat="71.0453166734567" lon="26.31391084285915" id="-34350">
		<tag k="name" v="Storegrunnen" />
		<tag k="natural" v="shoal" />
		<tag k="place" v="locality" />
		<tag k="ssr:stedsnr" v="262246" />
	</node>
	<node lat="71.10260000960923" lon="25.425247031566556" id="-34351">
		<tag k="alt_name" v="Store Melkøy" />
		<tag k="fixme" v="multiple name tags, choose one and add the other to alt_name" />
		<tag k="name" v="Melkøya;Store Melkøya" />
		<tag k="place" v="island" />
		<tag k="ssr:stedsnr" v="262338" />
	</node>
	<node lat="71.04161945035227" lon="25.93326641974113" id="-34352">
		<tag k="name" v="Snørvikneset" />
		<tag k="natural" v="cape" />
		<tag k="ssr:stedsnr" v="262249" />
	</node>
	<node lat="71.02604722667331" lon="26.031610857790334" id="-34353">
		<tag k="fixme" v="consider seamark:type=rock or natural=shoal" />
		<tag k="name" v="Selvågskjæret" />
		<tag k="place" v="islet" />
		<tag k="ssr:stedsnr" v="262261" />
	</node>
	<node lat="71.0564000094188" lon="25.896049777594747" id="-34355">
		<tag k="alt_name" v="Krikkenes" />
		<tag k="fixme" v="multiple name tags, choose one and add the other to alt_name" />
		<tag k="name" v="Krikenes;Krykjeneset" />
		<tag k="natural" v="cape" />
		<tag k="ssr:stedsnr" v="262285" />
	</node>
	<node lat="70.89088333759422" lon="25.5651803410397" id="-34362">
		<tag k="name" v="Storholmen" />
		<tag k="place" v="islet" />
		<tag k="ssr:stedsnr" v="263051" />
	</node>
	<node lat="70.89593611751984" lon="25.574980359489196" id="-34363">
		<tag k="name" v="Lilleholmen" />
		<tag k="place" v="islet" />
		<tag k="ssr:stedsnr" v="263054" />
	</node>
	<node lat="70.80797778847308" lon="25.756602538500452" id="-34364">
		<tag k="name" v="Langstranda - Lorttá" />
		<tag k="name:no" v="Langstranda" />
		<tag k="name:se" v="Lorttá" />
		<tag k="natural" v="beach" />
		<tag k="old_name:se" v="Lårta" />
		<tag k="ssr:stedsnr" v="263109" />
	</node>
	<node lat="71.03512500409876" lon="25.31919426885812" id="-34369">
		<tag k="name" v="Vearaidnjárga" />
		<tag k="name:se" v="Vearaidnjárga" />
		<tag k="natural" v="cape" />
		<tag k="old_name:se" v="Væraidnjarga" />
		<tag k="ssr:stedsnr" v="263358" />
	</node>
	<node lat="71.03351667657694" lon="25.826449768930814" id="-34371">
		<tag k="alt_name:no" v="Magerøy" />
		<tag k="name" v="Magerøya - Máhkarávju" />
		<tag k="name:no" v="Magerøya" />
		<tag k="name:se" v="Máhkarávju" />
		<tag k="old_name:se" v="Makkaravjo" />
		<tag k="place" v="island" />
		<tag k="ssr:stedsnr" v="263465" />
	</node>
	<node lat="71.12312500618981" lon="25.371963708800642" id="-34372">
		<tag k="fixme" v="consider seamark:type=rock or natural=shoal" />
		<tag k="name" v="Bukkstappskjæran" />
		<tag k="place" v="islet" />
		<tag k="ssr:stedsnr" v="263754" />
	</node>
	<node lat="71.11919167095344" lon="25.26707482818134" id="-34373">
		<tag k="name" v="Ramnholmskalven" />
		<tag k="natural" v="shoal" />
		<tag k="place" v="locality" />
		<tag k="ssr:stedsnr" v="263755" />
	</node>
	<node lat="70.84410556127197" lon="25.839199751755974" id="-34374">
		<tag k="name" v="Fjellfinnbukta" />
		<tag k="natural" v="bay" />
		<tag k="ssr:stedsnr" v="267443" />
	</node>
	<node lat="71.10207778631025" lon="25.37754982469634" id="-34380">
		<tag k="name" v="Walsøneset" />
		<tag k="natural" v="cape" />
		<tag k="ssr:stedsnr" v="267264" />
	</node>
	<node lat="71.09631389287163" lon="25.35678036731932" id="-34381">
		<tag k="fixme" v="consider seamark:type=rock or natural=shoal" />
		<tag k="name" v="Oddeskjæret" />
		<tag k="place" v="islet" />
		<tag k="ssr:stedsnr" v="267267" />
	</node>
	<node lat="71.0948416753228" lon="25.327747035185297" id="-34382">
		<tag k="name" v="Langnesbukta" />
		<tag k="natural" v="bay" />
		<tag k="ssr:stedsnr" v="267268" />
	</node>
	<node lat="71.09668611349545" lon="25.36209703122806" id="-34383">
		<tag k="name" v="Store Skankeholmen" />
		<tag k="place" v="islet" />
		<tag k="ssr:stedsnr" v="267274" />
	</node>
	<node lat="71.09640833852093" lon="25.37273592653454" id="-34384">
		<tag k="name" v="Valen" />
		<tag k="natural" v="bay" />
		<tag k="ssr:stedsnr" v="267277" />
	</node>
	<node lat="70.96230000428024" lon="26.655627446723923" id="-34387">
		<tag k="alt_name" v="Eidbukta" />
		<tag k="name" v="Eidsbukta" />
		<tag k="natural" v="bay" />
		<tag k="ssr:stedsnr" v="202142" />
	</node>
	<node lat="71.03455555949336" lon="25.426272047267137" id="-34388">
		<tag k="name" v="Kobbholet" />
		<tag k="natural" v="bay" />
		<tag k="ssr:stedsnr" v="202321" />
	</node>
	<node lat="71.02790278232911" lon="25.535635903201968" id="-34390">
		<tag k="name" v="Austerbotn - Skadjagohppi" />
		<tag k="name:no" v="Austerbotn" />
		<tag k="name:se" v="Skadjagohppi" />
		<tag k="natural" v="bay" />
		<tag k="old_name:se" v="Skaddijagåppi" />
		<tag k="ssr:stedsnr" v="202326" />
	</node>
	<node lat="71.12697778080242" lon="26.029035863722655" id="-34391">
		<tag k="name" v="Fuglenæringen" />
		<tag k="natural" v="cape" />
		<tag k="ssr:stedsnr" v="202345" />
	</node>
	<node lat="71.1076250042116" lon="25.460899800350983" id="-34392">
		<tag k="name" v="Oarjjit Čuvgesnjárga" />
		<tag k="name:se" v="Oarjjit Čuvgesnjárga" />
		<tag k="natural" v="cape" />
		<tag k="old_name:se" v="Čuvgesnjarga, oarjit" />
		<tag k="ssr:stedsnr" v="202346" />
	</node>
	<node lat="71.09187777990074" lon="25.273155377774355" id="-34393">
		<tag k="name" v="Bukkelibukta" />
		<tag k="natural" v="bay" />
		<tag k="ssr:stedsnr" v="202351" />
	</node>
	<node lat="71.16586111855118" lon="25.710280347891878" id="-34397">
		<tag k="bay" v="fjord" />
		<tag k="name" v="Knivskjelbukta" />
		<tag k="natural" v="bay" />
		<tag k="ssr:stedsnr" v="202709" />
	</node>
	<node lat="70.73839166903602" lon="25.65876922553131" id="-34399">
		<tag k="name" v="Postkeila" />
		<tag k="natural" v="bay" />
		<tag k="ssr:stedsnr" v="202977" />
	</node>
	<node lat="71.11694445251068" lon="25.416666480991612" id="-34400">
		<tag k="name" v="Sandholmbåen" />
		<tag k="natural" v="shoal" />
		<tag k="place" v="locality" />
		<tag k="ssr:stedsnr" v="267869" />
	</node>
	<node lat="71.04734722763611" lon="25.909077548689034" id="-34401">
		<tag k="name" v="Vika" />
		<tag k="natural" v="bay" />
		<tag k="ssr:stedsnr" v="268245" />
	</node>
	<node lat="71.05453334032075" lon="25.91976920944897" id="-34402">
		<tag k="name" v="Oksen" />
		<tag k="natural" v="cape" />
		<tag k="ssr:stedsnr" v="268265" />
	</node>
	<node lat="71.09746666920043" lon="25.402010936742546" id="-34407">
		<tag k="name" v="Kobbeneset" />
		<tag k="natural" v="cape" />
		<tag k="ssr:stedsnr" v="207305" />
	</node>
	<node lat="70.98085555975294" lon="26.03799142743768" id="-34412">
		<tag k="name" v="Vika" />
		<tag k="natural" v="bay" />
		<tag k="ssr:stedsnr" v="208479" />
	</node>
	<node lat="70.97893611541949" lon="26.0322469672748" id="-34413">
		<tag k="name" v="Neset" />
		<tag k="natural" v="cape" />
		<tag k="ssr:stedsnr" v="208482" />
	</node>
	<node lat="70.89080555975947" lon="25.528194238784042" id="-34415">
		<tag k="bay" v="fjord" />
		<tag k="name" v="Lafjorden" />
		<tag k="natural" v="bay" />
		<tag k="ssr:stedsnr" v="210906" />
	</node>
	<node lat="71.05018333716207" lon="25.241372051803445" id="-34416">
		<tag k="name" v="Møljeholet" />
		<tag k="natural" v="strait" />
		<tag k="ssr:stedsnr" v="210875" />
	</node>
	<node lat="71.13416667251035" lon="26.46666637467393" id="-34417">
		<tag k="name" v="Øvergrunnen" />
		<tag k="natural" v="shoal" />
		<tag k="place" v="locality" />
		<tag k="ssr:stedsnr" v="210879" />
	</node>
	<node lat="70.73247223291108" lon="25.658658106355926" id="-34420">
		<tag k="name" v="Reidarkeila" />
		<tag k="natural" v="bay" />
		<tag k="ssr:stedsnr" v="272654" />
	</node>
	<node lat="70.7729861145838" lon="25.617080341437763" id="-34421">
		<tag k="name" v="Øra" />
		<tag k="natural" v="cape" />
		<tag k="ssr:stedsnr" v="272660" />
	</node>
	<node lat="70.81456389430484" lon="25.81557754875518" id="-34422">
		<tag k="name" v="Yttersalen" />
		<tag k="natural" v="bay" />
		<tag k="ssr:stedsnr" v="271617" />
	</node>
	<node lat="71.0934194488241" lon="25.356408156526506" id="-34423">
		<tag k="name" v="Vasslibukta" />
		<tag k="natural" v="bay" />
		<tag k="ssr:stedsnr" v="449301" />
	</node>
	<node lat="70.87521945407877" lon="25.90348864236387" id="-34429">
		<tag k="name" v="Hans Hansakeila" />
		<tag k="natural" v="bay" />
		<tag k="ssr:stedsnr" v="449966" />
	</node>
	<node lat="71.10251945348915" lon="25.446530362596235" id="-34430">
		<tag k="name" v="Lille Finnstø" />
		<tag k="natural" v="bay" />
		<tag k="ssr:stedsnr" v="450263" />
	</node>
	<node lat="70.75245278647304" lon="25.747705327347877" id="-34434">
		<tag k="name" v="Keila" />
		<tag k="natural" v="bay" />
		<tag k="ssr:stedsnr" v="453575" />
	</node>
	<node lat="70.78268333568332" lon="25.714960878714948" id="-34436">
		<tag k="fixme" v="multiple name tags, choose one and add the other to alt_name" />
		<tag k="name" v="Mannskarviknakken;Nakken" />
		<tag k="natural" v="cape" />
		<tag k="ssr:stedsnr" v="454738" />
	</node>
	<node lat="71.0904000035468" lon="25.451685936431957" id="-34442">
		<tag k="name" v="Gullholmen" />
		<tag k="place" v="islet" />
		<tag k="ssr:stedsnr" v="262346" />
	</node>
	<node lat="70.97647222879876" lon="25.736838655717815" id="-34446">
		<tag k="name" v="Ole Arntsagrunnen" />
		<tag k="natural" v="shoal" />
		<tag k="place" v="locality" />
		<tag k="ssr:stedsnr" v="263472" />
	</node>
	<node lat="70.9808416707233" lon="25.722149785960973" id="-34447">
		<tag k="name" v="Ole Arntsavika" />
		<tag k="natural" v="bay" />
		<tag k="ssr:stedsnr" v="263474" />
	</node>
	<node lat="71.1645194456972" lon="25.544733139088994" id="-34448">
		<tag k="name" v="Vesterkeila" />
		<tag k="natural" v="bay" />
		<tag k="ssr:stedsnr" v="263707" />
	</node>
	<node lat="71.16538889090666" lon="25.552294248857848" id="-34449">
		<tag k="name" v="Kjerkeneset" />
		<tag k="natural" v="cape" />
		<tag k="ssr:stedsnr" v="263701" />
	</node>
	<node lat="70.75983611926016" lon="25.68863032473103" id="-34453">
		<tag k="name" v="Likkista" />
		<tag k="natural" v="bay" />
		<tag k="ssr:stedsnr" v="272508" />
	</node>
	<node lat="70.80515555956596" lon="25.759919216284906" id="-34454">
		<tag k="name" v="Laukvika" />
		<tag k="natural" v="bay" />
		<tag k="ssr:stedsnr" v="272521" />
	</node>
	<node lat="70.84907500698608" lon="25.86402754208644" id="-34455">
		<tag k="name" v="Mortholneset" />
		<tag k="natural" v="cape" />
		<tag k="ssr:stedsnr" v="323202" />
	</node>
	<node lat="70.98128889179156" lon="25.969241411537354" id="-34459">
		<tag k="name" v="Sørvågen" />
		<tag k="natural" v="cape" />
		<tag k="ssr:stedsnr" v="323182" />
	</node>
	<node lat="70.95791945415678" lon="25.859680311794044" id="-34460">
		<tag k="name" v="Tofta" />
		<tag k="natural" v="cape" />
		<tag k="ssr:stedsnr" v="323188" />
	</node>
	<node lat="71.08027500249915" lon="25.937166430000946" id="-34461">
		<tag k="name" v="Midternæringen" />
		<tag k="natural" v="cape" />
		<tag k="ssr:stedsnr" v="323303" />
	</node>
	<node lat="71.10373056344112" lon="25.395391484080022" id="-34462">
		<tag k="name" v="Lille Nordøya" />
		<tag k="old_name" v="Nordøya, l" />
		<tag k="place" v="island" />
		<tag k="ssr:stedsnr" v="323725" />
	</node>
	<node lat="71.14763889264557" lon="25.336349821518702" id="-34464">
		<tag k="name" v="Stukan" />
		<tag k="natural" v="cape" />
		<tag k="ssr:stedsnr" v="323739" />
	</node>
	<node lat="71.13743055960296" lon="25.383338705195015" id="-34465">
		<tag k="fixme" v="consider seamark:type=rock or natural=shoal" />
		<tag k="name" v="Brødskjæran" />
		<tag k="place" v="islet" />
		<tag k="ssr:stedsnr" v="323743" />
	</node>
	<node lat="71.03988334239138" lon="25.888949765637886" id="-34468">
		<tag k="name" v="Båtbukta" />
		<tag k="natural" v="bay" />
		<tag k="ssr:stedsnr" v="329304" />
	</node>
	<node lat="70.7775583432724" lon="25.637485879870045" id="-34470">
		<tag k="name" v="Indre Lomhola" />
		<tag k="natural" v="bay" />
		<tag k="ssr:stedsnr" v="332707" />
	</node>
	<node lat="70.87805833576266" lon="25.502088679084736" id="-34472">
		<tag k="name" v="Lafjordneset" />
		<tag k="natural" v="cape" />
		<tag k="ssr:stedsnr" v="473167" />
	</node>
	<node lat="70.95110556013063" lon="25.690727547407075" id="-34476">
		<tag k="name" v="Guvllanjárga" />
		<tag k="name:se" v="Guvllanjárga" />
		<tag k="natural" v="cape" />
		<tag k="old_name:se" v="Guvlanjarga" />
		<tag k="ssr:stedsnr" v="383060" />
	</node>
	<node lat="70.72500000473929" lon="26.07037195994138" id="-34477">
		<tag k="name" v="Hårvikneset - Vuohppenjárga" />
		<tag k="name:no" v="Hårvikneset" />
		<tag k="name:se" v="Vuohppenjárga" />
		<tag k="natural" v="cape" />
		<tag k="old_name:se" v="Vuoppenjarga" />
		<tag k="ssr:stedsnr" v="383556" />
	</node>
	<node lat="70.7262722284727" lon="25.66829698724889" id="-34478">
		<tag k="fixme" v="multiple name tags, choose one and add the other to alt_name" />
		<tag k="name" v="Repvågneset;Innerneset - Sisnjárga" />
		<tag k="name:no" v="Repvågneset;Innerneset" />
		<tag k="name:se" v="Sisnjárga" />
		<tag k="natural" v="cape" />
		<tag k="old_name:se" v="Sisnjarga" />
		<tag k="ssr:stedsnr" v="383955" />
	</node>
	<node lat="70.87035556420241" lon="25.49057203022422" id="-34479">
		<tag k="name" v="Nordkroken - Nuortaroahkki" />
		<tag k="name:no" v="Nordkroken" />
		<tag k="name:se" v="Nuortaroahkki" />
		<tag k="natural" v="bay" />
		<tag k="old_name:se" v="Nuortaroakki" />
		<tag k="ssr:stedsnr" v="384023" />
	</node>
	<node lat="71.10154445368171" lon="26.27702752147064" id="-34483">
		<tag k="name" v="Sveet" />
		<tag k="natural" v="shoal" />
		<tag k="place" v="locality" />
		<tag k="ssr:stedsnr" v="384312" />
	</node>
	<node lat="71.02536389367242" lon="25.225802596035184" id="-34484">
		<tag k="name" v="Svartoksgrunnen" />
		<tag k="natural" v="shoal" />
		<tag k="place" v="locality" />
		<tag k="ssr:stedsnr" v="384347" />
	</node>
	<node lat="70.81395000642206" lon="25.80609143788347" id="-34489">
		<tag k="name" v="Klubben" />
		<tag k="natural" v="cape" />
		<tag k="ssr:stedsnr" v="392637" />
	</node>
	<node lat="71.08888889825052" lon="27.016666300842168" id="-34491">
		<tag k="name" v="Sværholthavet" />
		<tag k="place" v="sea" />
		<tag k="ssr:stedsnr" v="424403" />
	</node>
	<node lat="71.0894194487565" lon="25.271433165926606" id="-34493">
		<tag k="alt_name" v="Langneset, yt" />
		<tag k="name" v="Ytre Langneset" />
		<tag k="natural" v="cape" />
		<tag k="ssr:stedsnr" v="444318" />
	</node>
	<node lat="71.04231389427886" lon="26.09999695928053" id="-34495">
		<tag k="name" v="Avløysingsbukta" />
		<tag k="natural" v="bay" />
		<tag k="ssr:stedsnr" v="444231" />
	</node>
	<node lat="71.09048889203702" lon="25.22350537254236" id="-34497">
		<tag k="name" v="Næringsgrunnen" />
		<tag k="natural" v="shoal" />
		<tag k="place" v="locality" />
		<tag k="ssr:stedsnr" v="444628" />
	</node>
	<node lat="70.85286389636094" lon="25.448383124269647" id="-34498">
		<tag k="name" v="Lafjordbotn - Námmi" />
		<tag k="name:no" v="Lafjordbotn" />
		<tag k="name:se" v="Námmi" />
		<tag k="natural" v="bay" />
		<tag k="old_name:se" v="Nammi" />
		<tag k="ssr:stedsnr" v="445009" />
	</node>
	<node lat="70.89803055903421" lon="25.521141458133574" id="-34499">
		<tag k="name" v="Miššavuonnjárga" />
		<tag k="name:se" v="Miššavuonnjárga" />
		<tag k="natural" v="cape" />
		<tag k="old_name:se" v="Miššavuonnjarga" />
		<tag k="ssr:stedsnr" v="445031" />
	</node>
	<node lat="70.76021666873402" lon="25.60516367673212" id="-34500">
		<tag k="name" v="Dážagávva" />
		<tag k="name:se" v="Dážagávva" />
		<tag k="natural" v="bay" />
		<tag k="old_name:se" v="Dazagavva" />
		<tag k="ssr:stedsnr" v="445082" />
	</node>
	<node lat="71.09417500402164" lon="25.99169974884324" id="-34503">
		<tag k="name" v="Trollvika" />
		<tag k="natural" v="bay" />
		<tag k="ssr:stedsnr" v="445304" />
	</node>
	<node lat="71.17585000179066" lon="25.656247011233468" id="-34509">
		<tag k="alt_name" v="Skarholmen" />
		<tag k="name" v="Skardholmen" />
		<tag k="place" v="islet" />
		<tag k="ssr:stedsnr" v="445708" />
	</node>
	<node lat="71.17093888954541" lon="25.67343035064201" id="-34510">
		<tag k="name" v="Knivskjelvika" />
		<tag k="natural" v="bay" />
		<tag k="ssr:stedsnr" v="445710" />
	</node>
	<node lat="71.12444445159441" lon="25.395063697889196" id="-34512">
		<tag k="name" v="Revsholmbåen" />
		<tag k="natural" v="shoal" />
		<tag k="place" v="locality" />
		<tag k="ssr:stedsnr" v="449822" />
	</node>
	<node lat="71.05979445491161" lon="26.009955306345635" id="-34523">
		<tag k="bay" v="fjord" />
		<tag k="name" v="Kamøyfjorden - Gáhpevuotna" />
		<tag k="name:no" v="Kamøyfjorden" />
		<tag k="name:se" v="Gáhpevuotna" />
		<tag k="natural" v="bay" />
		<tag k="old_name:se" v="Cappevuodna" />
		<tag k="ssr:stedsnr" v="505310" />
	</node>
	<node lat="71.1124000062612" lon="25.861713677068447" id="-34526">
		<tag k="bay" v="fjord" />
		<tag k="name" v="Risfjorden" />
		<tag k="natural" v="bay" />
		<tag k="ssr:stedsnr" v="505404" />
	</node>
	<node lat="70.97039445225568" lon="25.755035898533713" id="-34528">
		<tag k="bay" v="fjord" />
		<tag k="name" v="Sarnesfjorden - Sárravuotna" />
		<tag k="name:no" v="Sarnesfjorden" />
		<tag k="name:se" v="Sárravuotna" />
		<tag k="natural" v="bay" />
		<tag k="ssr:stedsnr" v="505479" />
	</node>
	<node lat="70.99309167587415" lon="25.947391422193707" id="-34529">
		<tag k="name" v="Even Hansen-bukta" />
		<tag k="natural" v="bay" />
		<tag k="ssr:stedsnr" v="509309" />
	</node>
	<node lat="71.09303611837187" lon="25.362949813490182" id="-34530">
		<tag k="name" v="Vasslineset" />
		<tag k="natural" v="cape" />
		<tag k="ssr:stedsnr" v="510304" />
	</node>
	<node lat="70.75213611685157" lon="25.65063588477671" id="-34533">
		<tag k="name" v="Garnkeila" />
		<tag k="natural" v="bay" />
		<tag k="ssr:stedsnr" v="514586" />
	</node>
	<node lat="70.74956111987004" lon="25.66624143252031" id="-34534">
		<tag k="name" v="Fiskebuktneset" />
		<tag k="natural" v="cape" />
		<tag k="ssr:stedsnr" v="514589" />
	</node>
	<node lat="70.97383889161144" lon="25.779449782675076" id="-34538">
		<tag k="name" v="Sarnesøra" />
		<tag k="natural" v="cape" />
		<tag k="ssr:stedsnr" v="527176" />
	</node>
	<node lat="70.86683611785354" lon="25.88480254802341" id="-34546">
		<tag k="name" v="Porsangneset - Čavččanjárga" />
		<tag k="name:no" v="Porsangneset" />
		<tag k="name:se" v="Čavččanjárga" />
		<tag k="natural" v="cape" />
		<tag k="old_name:se" v="Čavčanjarga" />
		<tag k="ssr:stedsnr" v="687179" />
	</node>
	<node lat="71.05556666981852" lon="25.2315775928141" id="-34547">
		<tag k="fixme" v="multiple name tags, choose one and add the other to alt_name; consider seamark:type=rock or natural=shoal" />
		<tag k="name" v="Skarvskjæret;Skarveskjæret" />
		<tag k="place" v="islet" />
		<tag k="ssr:stedsnr" v="687309" />
	</node>
	<node lat="71.0493833394918" lon="25.274360924045283" id="-34548">
		<tag k="name" v="Gråkollen" />
		<tag k="natural" v="bay" />
		<tag k="ssr:stedsnr" v="687312" />
	</node>
	<node lat="71.01070833634061" lon="26.001960871176088" id="-34550">
		<tag k="name" v="Valan" />
		<tag k="natural" v="bay" />
		<tag k="ssr:stedsnr" v="687255" />
	</node>
	<node lat="71.00164722472857" lon="26.121027520658703" id="-34551">
		<tag k="name" v="Kjelen" />
		<tag k="place" v="islet" />
		<tag k="ssr:stedsnr" v="687259" />
	</node>
	<node lat="71.01443889475718" lon="26.01977197326624" id="-34552">
		<tag k="name" v="Selvågen" />
		<tag k="natural" v="bay" />
		<tag k="ssr:stedsnr" v="687263" />
	</node>
	<node lat="71.01606389260805" lon="25.284544279350552" id="-34553">
		<tag k="name" v="Skálžoluovttat" />
		<tag k="name:se" v="Skálžoluovttat" />
		<tag k="natural" v="bay" />
		<tag k="old_name:se" v="Skalžuluovtat" />
		<tag k="ssr:stedsnr" v="687334" />
	</node>
	<node lat="70.96289444910222" lon="25.486466455446806" id="-34555">
		<tag k="name" v="Girsavákkegohppi" />
		<tag k="name:se" v="Girsavákkegohppi" />
		<tag k="natural" v="bay" />
		<tag k="old_name:se" v="Girsavaggegåppi" />
		<tag k="ssr:stedsnr" v="687449" />
	</node>
	<node lat="70.9673861143737" lon="25.72713309775478" id="-34557">
		<tag k="name" v="Kobbholgrunnen" />
		<tag k="natural" v="shoal" />
		<tag k="place" v="locality" />
		<tag k="ssr:stedsnr" v="687452" />
	</node>
	<node lat="70.69896667606402" lon="26.036102512514407" id="-34558">
		<tag k="name" v="Inner-Hårvika - Guhkesluokta" />
		<tag k="name:no" v="Inner-Hårvika" />
		<tag k="name:se" v="Guhkesluokta" />
		<tag k="natural" v="bay" />
		<tag k="old_name:se" v="Gukkesluokta" />
		<tag k="ssr:stedsnr" v="687519" />
	</node>
	<node lat="70.7233277867087" lon="26.110755292108742" id="-34559">
		<tag k="name" v="Skjåneset" />
		<tag k="natural" v="cape" />
		<tag k="ssr:stedsnr" v="687526" />
	</node>
	<node lat="71.18446944962113" lon="25.671169246071017" id="-34561">
		<tag k="name" v="Krokreva" />
		<tag k="natural" v="cape" />
		<tag k="ssr:stedsnr" v="687728" />
	</node>
	<node lat="71.11020278118527" lon="25.575035920739783" id="-34562">
		<tag k="fixme" v="consider seamark:type=rock or natural=shoal" />
		<tag k="name" v="Risfjordskjæret" />
		<tag k="place" v="islet" />
		<tag k="ssr:stedsnr" v="687744" />
	</node>
	<node lat="71.11413056480558" lon="25.834496992467994" id="-34565">
		<tag k="name" v="Sildvika" />
		<tag k="natural" v="bay" />
		<tag k="ssr:stedsnr" v="688312" />
	</node>
	<node lat="71.09993055662282" lon="26.022946982109488" id="-34566">
		<tag k="name" v="Reinvika" />
		<tag k="natural" v="bay" />
		<tag k="ssr:stedsnr" v="688317" />
	</node>
	<node lat="71.08189445123291" lon="25.951408095889008" id="-34567">
		<tag k="alt_name" v="Trevika, yt" />
		<tag k="name" v="Ytre Trevika" />
		<tag k="natural" v="bay" />
		<tag k="ssr:stedsnr" v="688326" />
	</node>
	<node lat="71.12830556455626" lon="25.861927557068878" id="-34568">
		<tag k="alt_name" v="Børnes, vestre" />
		<tag k="name" v="Vestre Børnes" />
		<tag k="natural" v="cape" />
		<tag k="ssr:stedsnr" v="688360" />
	</node>
	<node lat="71.12644723046273" lon="25.381285924406082" id="-34569">
		<tag k="fixme" v="consider seamark:type=rock or natural=shoal" />
		<tag k="name" v="Bukkspelen" />
		<tag k="place" v="islet" />
		<tag k="ssr:stedsnr" v="688748" />
	</node>
	<node lat="71.12560000756325" lon="25.31998592601576" id="-34570">
		<tag k="name" v="Seivakta" />
		<tag k="place" v="islet" />
		<tag k="ssr:stedsnr" v="688752" />
	</node>
	<node lat="70.86419444894288" lon="25.901341433530476" id="-34571">
		<tag k="name" v="Alterkeila - Áltárkeailu" />
		<tag k="name:no" v="Alterkeila" />
		<tag k="name:se" v="Áltárkeailu" />
		<tag k="natural" v="bay" />
		<tag k="old_name:se" v="Altarkæilo" />
		<tag k="ssr:stedsnr" v="565165" />
	</node>
	<node lat="70.67770556619706" lon="26.021855295419765" id="-34573">
		<tag k="name" v="Brennvika - Ánddešgohppi" />
		<tag k="name:no" v="Brennvika" />
		<tag k="name:se" v="Ánddešgohppi" />
		<tag k="natural" v="bay" />
		<tag k="old_name:se" v="Andešgåppi" />
		<tag k="ssr:stedsnr" v="565505" />
	</node>
	<node lat="70.69397778405536" lon="26.044124731521762" id="-34574">
		<tag k="name" v="Láttatluokta" />
		<tag k="name:se" v="Láttatluokta" />
		<tag k="natural" v="bay" />
		<tag k="old_name:se" v="Laddatluokta" />
		<tag k="ssr:stedsnr" v="565507" />
	</node>
	<node lat="70.4779694984812" lon="30.901573022960466" id="-34576">
		<tag k="alt_name" v="Østhavet" />
		<tag k="name" v="Austhavet" />
		<tag k="place" v="sea" />
		<tag k="ssr:stedsnr" v="565913" />
	</node>
	<node lat="70.81562222980882" lon="25.806083103171375" id="-34577">
		<tag k="name" v="Jernøya - Ruovdesuolu" />
		<tag k="name:no" v="Jernøya" />
		<tag k="name:se" v="Ruovdesuolu" />
		<tag k="old_name:se" v="Ruovdesuolo" />
		<tag k="place" v="island" />
		<tag k="ssr:stedsnr" v="566104" />
	</node>
	<node lat="71.1102861197136" lon="25.8735247864975" id="-34580">
		<tag k="name" v="Molvika" />
		<tag k="natural" v="bay" />
		<tag k="ssr:stedsnr" v="566306" />
	</node>
	<node lat="71.08400555997304" lon="25.98489974779301" id="-34581">
		<tag k="name" v="Bryggemola" />
		<tag k="natural" v="cape" />
		<tag k="ssr:stedsnr" v="566309" />
	</node>
	<node lat="70.97248611802401" lon="25.87691365918377" id="-34583">
		<tag k="name" v="Ytre Bakli" />
		<tag k="natural" v="bay" />
		<tag k="ssr:stedsnr" v="692829" />
	</node>
	<node lat="71.15881944759938" lon="25.767763671550526" id="-34586">
		<tag k="name" v="Davvenjárga" />
		<tag k="name:se" v="Davvenjárga" />
		<tag k="natural" v="cape" />
		<tag k="old_name:se" v="Davvenjarga" />
		<tag k="ssr:stedsnr" v="566710" />
	</node>
	<node lat="70.74612778258023" lon="25.68864700498874" id="-34588">
		<tag k="name" v="Båtmola" />
		<tag k="natural" v="bay" />
		<tag k="ssr:stedsnr" v="692863" />
	</node>
</osm>
