<?xml version="1.0" encoding="UTF-8"?>
<<<<<<< HEAD
<osm version="0.6" generator="osmapis">
	<node lat="70.90783334158253" lon="25.49107202534301" id="-42292">
		<tag k="fixme" v="consider natural=peak for the most distinct mountains in the district" />
		<tag k="name" v="Stiikogáisá" />
		<tag k="name:se" v="Stiikogáisá" />
=======
<osm generator="osmapis" version="0.6">
	<node id="-904699" lat="70.7466472294" lon="25.6046025661">
		<tag k="name" v="Strandhalsen" />
		<tag k="natural" v="hill" />
		<tag k="place" v="locality" />
		<tag k="ssr:stedsnr" v="332549" />
	</node>
	<node id="-904186" lat="70.8232027843" lon="26.2930719225">
		<tag k="fixme" v="consider natural=peak for the most distinct mountains in the district" />
		<tag k="name" v="Flatvikfjellet" />
		<tag k="natural" v="hill" />
		<tag k="place" v="locality" />
		<tag k="ssr:stedsnr" v="687156" />
	</node>
	<node id="-904185" lat="70.7558500088" lon="26.192255266">
		<tag k="fixme" v="consider natural=peak for the most distinct mountains in the district" />
		<tag k="name" v="Breikrangel" />
		<tag k="natural" v="hill" />
		<tag k="place" v="locality" />
		<tag k="ssr:stedsnr" v="687134" />
	</node>
	<node id="-904696" lat="70.8626500053" lon="25.897191435">
		<tag k="name" v="Altran" />
		<tag k="natural" v="hill" />
		<tag k="place" v="locality" />
		<tag k="ssr:stedsnr" v="329562" />
	</node>
	<node id="-904695" lat="70.8337527826" lon="25.8072219807">
		<tag k="name" v="Kvalbergan" />
		<tag k="natural" v="hill" />
		<tag k="place" v="locality" />
		<tag k="ssr:stedsnr" v="329545" />
	</node>
	<node id="-904694" lat="70.8871416747" lon="25.6729108976">
		<tag k="name" v="Vesterpolldalen" />
		<tag k="natural" v="valley" />
		<tag k="place" v="locality" />
		<tag k="ssr:stedsnr" v="328569" />
	</node>
	<node id="-904692" lat="70.7313222285" lon="25.5851636804">
		<tag k="fixme" v="consider natural=peak for the most distinct mountains in the district" />
		<tag k="name" v="Ádjastatvárri" />
		<tag k="name:se" v="Ádjastatvárri" />
		<tag k="natural" v="hill" />
		<tag k="old_name:se" v="Addjastatvarri;Addjastatvárri" />
		<tag k="place" v="locality" />
		<tag k="ssr:stedsnr" v="323945" />
	</node>
	<node id="-904176" lat="70.954136118" lon="25.5048859173">
		<tag k="fixme" v="consider natural=peak for the most distinct mountains in the district" />
		<tag k="name" v="Oammarášša" />
		<tag k="name:se" v="Oammarášša" />
		<tag k="natural" v="hill" />
		<tag k="old_name:se" v="Oammarašša" />
		<tag k="place" v="locality" />
		<tag k="ssr:stedsnr" v="505481" />
	</node>
	<node id="-904687" lat="71.152791673" lon="25.7406831179">
		<tag k="name" v="Røykholdalen" />
		<tag k="natural" v="valley" />
		<tag k="place" v="locality" />
		<tag k="ssr:stedsnr" v="323737" />
	</node>
	<node id="-904174" lat="70.9473555572" lon="25.5234775673">
		<tag k="name" v="Sildtoppen - Oammačohkka" />
		<tag k="name:no" v="Sildtoppen" />
		<tag k="name:se" v="Oammačohkka" />
		<tag k="natural" v="hill" />
		<tag k="old_name:se" v="Oammačåkka" />
		<tag k="place" v="locality" />
		<tag k="ssr:stedsnr" v="505478" />
	</node>
	<node id="-904173" lat="70.9968583346" lon="25.7147247937">
		<tag k="name" v="Polldalen" />
		<tag k="natural" v="valley" />
		<tag k="place" v="locality" />
		<tag k="ssr:stedsnr" v="505460" />
	</node>
	<node id="-904684" lat="71.1650250066" lon="25.6396636839">
		<tag k="alt_name" v="Bispen, store" />
		<tag k="fixme" v="consider natural=peak for the most distinct mountains in the district" />
		<tag k="name" v="Store Bispen" />
		<tag k="natural" v="hill" />
		<tag k="place" v="locality" />
		<tag k="ssr:stedsnr" v="323704" />
	</node>
	<node id="-904683" lat="71.1658777797" lon="25.5484692408">
		<tag k="name" v="Gaphaugen" />
		<tag k="natural" v="hill" />
		<tag k="place" v="locality" />
		<tag k="ssr:stedsnr" v="323702" />
	</node>
	<node id="-904168" lat="70.7838750066" lon="25.3633748093">
		<tag k="fixme" v="consider natural=peak for the most distinct mountains in the district" />
		<tag k="name" v="Mierkoaivi" />
		<tag k="name:se" v="Mierkoaivi" />
		<tag k="natural" v="hill" />
		<tag k="place" v="locality" />
		<tag k="ssr:stedsnr" v="505105" />
	</node>
	<node id="-904678" lat="70.9994972297" lon="25.6931025582">
		<tag k="fixme" v="consider natural=peak for the most distinct mountains in the district" />
		<tag k="name" v="Čuorihančopma" />
		<tag k="name:se" v="Čuorihančopma" />
		<tag k="natural" v="hill" />
		<tag k="old_name:se" v="Čuorihančåbma" />
		<tag k="place" v="locality" />
		<tag k="ssr:stedsnr" v="323445" />
	</node>
	<node id="-904163" lat="70.8424083379" lon="25.8224969957">
		<tag k="name" v="Bergenasen" />
		<tag k="place" v="locality" />
		<tag k="ssr:stedsnr" v="450519" />
	</node>
	<node id="-904187" lat="70.8851583402" lon="25.8581664419">
		<tag k="fixme" v="consider natural=peak for the most distinct mountains in the district" />
		<tag k="name" v="Molfjellet" />
		<tag k="natural" v="hill" />
		<tag k="place" v="locality" />
		<tag k="ssr:stedsnr" v="687178" />
	</node>
	<node id="-904160" lat="70.996736115" lon="25.9745441903">
		<tag k="fixme" v="consider natural=peak for the most distinct mountains in the district" />
		<tag k="name" v="Sandfjellet" />
		<tag k="natural" v="hill" />
		<tag k="place" v="locality" />
		<tag k="ssr:stedsnr" v="449314" />
	</node>
	<node id="-904670" lat="71.0523444478" lon="25.4320942574">
		<tag k="name" v="Govdavággi" />
		<tag k="name:se" v="Govdavággi" />
		<tag k="natural" v="valley" />
		<tag k="old_name:se" v="Gåvdavaggi" />
		<tag k="place" v="locality" />
		<tag k="ssr:stedsnr" v="323316" />
	</node>
	<node id="-904154" lat="70.8058111193" lon="25.5523025799">
		<tag k="name" v="Sennahaugen - Suoidnoaivi" />
		<tag k="name:no" v="Sennahaugen" />
		<tag k="name:se" v="Suoidnoaivi" />
		<tag k="natural" v="hill" />
		<tag k="place" v="locality" />
		<tag k="ssr:stedsnr" v="445109" />
	</node>
	<node id="-904153" lat="71.080994453" lon="25.8657608819">
		<tag k="fixme" v="consider natural=peak for the most distinct mountains in the district" />
		<tag k="name" v="Duksfjordfjellet" />
		<tag k="natural" v="hill" />
		<tag k="place" v="locality" />
		<tag k="ssr:stedsnr" v="445306" />
	</node>
	<node id="-904660" lat="70.783075011" lon="26.2872969349">
		<tag k="name" v="Basevággi" />
		<tag k="name:se" v="Basevággi" />
		<tag k="natural" v="valley" />
		<tag k="old_name:se" v="Basevaggi" />
		<tag k="place" v="locality" />
		<tag k="ssr:stedsnr" v="323177" />
	</node>
	<node id="-904147" lat="70.7489027809" lon="25.6630914514">
		<tag k="name" v="Svartberget" />
		<tag k="natural" v="hill" />
		<tag k="place" v="locality" />
		<tag k="ssr:stedsnr" v="514594" />
	</node>
	<node id="-904658" lat="70.8317083404" lon="26.3255969163">
		<tag k="name" v="Ruoššavággi" />
		<tag k="name:se" v="Ruoššavággi" />
		<tag k="natural" v="valley" />
		<tag k="old_name:se" v="Ruoššavaggi" />
		<tag k="place" v="locality" />
		<tag k="ssr:stedsnr" v="323168" />
	</node>
	<node id="-904657" lat="70.80808056" lon="25.6300664352">
		<tag k="fixme" v="consider natural=peak for the most distinct mountains in the district" />
		<tag k="name" v="Biersságielas" />
		<tag k="name:se" v="Biersságielas" />
		<tag k="natural" v="hill" />
		<tag k="old_name:se" v="Biersagielas" />
		<tag k="place" v="locality" />
		<tag k="ssr:stedsnr" v="323124" />
	</node>
	<node id="-904656" lat="70.7984472257" lon="25.4520192357">
		<tag k="fixme" v="consider natural=peak for the most distinct mountains in the district" />
		<tag k="name" v="Davit Lárkkoaivi" />
		<tag k="name:se" v="Davit Lárkkoaivi" />
		<tag k="natural" v="hill" />
		<tag k="old_name:se" v="Larkoaivi, davit;Davit Lárkaoaivi" />
		<tag k="place" v="locality" />
		<tag k="ssr:stedsnr" v="323122" />
	</node>
	<node id="-904184" lat="70.8369388941" lon="25.6582303217">
		<tag k="name" v="Kåfjorddalen - Gávkevággi" />
		<tag k="name:no" v="Kåfjorddalen" />
		<tag k="name:se" v="Gávkevággi" />
		<tag k="natural" v="valley" />
		<tag k="old_name:se" v="Gavkevaggi" />
		<tag k="place" v="locality" />
		<tag k="ssr:stedsnr" v="687121" />
	</node>
	<node id="-904085" lat="71.0785750098" lon="25.8985358788">
		<tag k="fixme" v="consider natural=peak for the most distinct mountains in the district" />
		<tag k="name" v="Trevikaksla" />
		<tag k="natural" v="hill" />
		<tag k="place" v="locality" />
		<tag k="ssr:stedsnr" v="384305" />
	</node>
	<node id="-904649" lat="70.9461722278" lon="25.7229608838">
		<tag k="alt_name" v="Bismerhallen" />
		<tag k="fixme" v="consider natural=peak for the most distinct mountains in the district" />
		<tag k="name" v="Bismarhallen" />
		<tag k="natural" v="hill" />
		<tag k="place" v="locality" />
		<tag k="ssr:stedsnr" v="323070" />
	</node>
	<node id="-904136" lat="71.0356083371" lon="26.1324413941">
		<tag k="fixme" v="consider natural=peak for the most distinct mountains in the district" />
		<tag k="name" v="Laukvikfjellet - Loddevárri" />
		<tag k="name:no" v="Laukvikfjellet" />
		<tag k="name:se" v="Loddevárri" />
		<tag k="natural" v="hill" />
		<tag k="old_name:se" v="Låddevarri" />
		<tag k="place" v="locality" />
		<tag k="ssr:stedsnr" v="511259" />
	</node>
	<node id="-904125" lat="71.1519500065" lon="25.7989108854">
		<tag k="alt_name" v="Fuggelnakken" />
		<tag k="fixme" v="consider natural=peak for the most distinct mountains in the district" />
		<tag k="name" v="Fuglnakken" />
		<tag k="natural" v="hill" />
		<tag k="place" v="locality" />
		<tag k="ssr:stedsnr" v="505752" />
	</node>
	<node id="-904636" lat="70.8464222309" lon="25.8208831038">
		<tag k="name" v="Kjærlighetshaugen" />
		<tag k="natural" v="hill" />
		<tag k="place" v="locality" />
		<tag k="ssr:stedsnr" v="208539" />
	</node>
	<node id="-904306" lat="71.1095222292" lon="26.0408469905">
		<tag k="name" v="Opnanhaugen" />
		<tag k="natural" v="hill" />
		<tag k="place" v="locality" />
		<tag k="ssr:stedsnr" v="930291" />
	</node>
	<node id="-904351" lat="71.1216222265" lon="25.8417525479">
		<tag k="alt_name" v="Børsnesfjellet" />
		<tag k="fixme" v="consider natural=peak for the most distinct mountains in the district" />
		<tag k="name" v="Børnesfjellet" />
		<tag k="natural" v="hill" />
		<tag k="place" v="locality" />
		<tag k="ssr:stedsnr" v="870366" />
	</node>
	<node id="-904632" lat="71.0494250024" lon="25.9065081107">
		<tag k="name" v="Vikran" />
		<tag k="natural" v="slope" />
		<tag k="place" v="locality" />
		<tag k="ssr:stedsnr" v="208272" />
	</node>
	<node id="-904180" lat="70.739488896" lon="25.6016053472">
		<tag k="name" v="Vedbotndalen" />
		<tag k="natural" v="valley" />
		<tag k="place" v="locality" />
		<tag k="ssr:stedsnr" v="514718" />
	</node>
	<node id="-904117" lat="71.0642416687" lon="25.4531053503">
		<tag k="fixme" v="consider natural=peak for the most distinct mountains in the district" />
		<tag k="name" v="Jámešhárji" />
		<tag k="name:se" v="Jámešhárji" />
		<tag k="natural" v="hill" />
		<tag k="old_name:se" v="Jamešharji" />
		<tag k="place" v="locality" />
		<tag k="ssr:stedsnr" v="505383" />
	</node>
	<node id="-904628" lat="70.8867222246" lon="25.7509108918">
		<tag k="name" v="Sørenskåra" />
		<tag k="natural" v="valley" />
		<tag k="place" v="locality" />
		<tag k="ssr:stedsnr" v="207556" />
	</node>
	<node id="-904115" lat="71.0718083372" lon="25.7377886741">
		<tag k="name" v="Ramnflåget" />
		<tag k="natural" v="valley" />
		<tag k="place" v="locality" />
		<tag k="ssr:stedsnr" v="505376" />
	</node>
	<node id="-904113" lat="71.0996083366" lon="25.4968331309">
		<tag k="fixme" v="consider natural=peak for the most distinct mountains in the district" />
		<tag k="name" v="Tuva" />
		<tag k="natural" v="hill" />
		<tag k="place" v="locality" />
		<tag k="ssr:stedsnr" v="505355" />
	</node>
	<node id="-904110" lat="70.7320000069" lon="26.1760024825">
		<tag k="name" v="Boššávži" />
		<tag k="name:se" v="Boššávži" />
		<tag k="natural" v="valley" />
		<tag k="old_name:se" v="Båššavži" />
		<tag k="place" v="locality" />
		<tag k="ssr:stedsnr" v="505537" />
	</node>
	<node id="-904620" lat="70.7475500061" lon="25.5296359091">
		<tag k="name" v="Stranddalen - Stránddavággi" />
		<tag k="name:no" v="Stranddalen" />
		<tag k="name:se" v="Stránddavággi" />
		<tag k="natural" v="valley" />
		<tag k="old_name:se" v="Strandavaggi" />
		<tag k="place" v="locality" />
		<tag k="ssr:stedsnr" v="202972" />
	</node>
	<node id="-904616" lat="71.1732611192" lon="25.6606998009">
		<tag k="name" v="Skaret" />
		<tag k="natural" v="valley" />
		<tag k="place" v="locality" />
		<tag k="ssr:stedsnr" v="202708" />
	</node>
	<node id="-904615" lat="71.175058341" lon="25.6626775798">
		<tag k="name" v="Rundingen" />
		<tag k="natural" v="hill" />
		<tag k="place" v="locality" />
		<tag k="ssr:stedsnr" v="202707" />
	</node>
	<node id="-904102" lat="70.8966250093" lon="25.7969858821">
		<tag k="name" v="Skurčovággi" />
		<tag k="name:se" v="Skurčovággi" />
		<tag k="natural" v="valley" />
		<tag k="old_name:se" v="Skurčuvaggi" />
		<tag k="place" v="locality" />
		<tag k="ssr:stedsnr" v="505032" />
	</node>
	<node id="-904613" lat="70.963486118" lon="25.6160136764">
		<tag k="fixme" v="consider natural=peak for the most distinct mountains in the district" />
		<tag k="name" v="Buoidenjunni" />
		<tag k="name:se" v="Buoidenjunni" />
		<tag k="natural" v="hill" />
		<tag k="place" v="locality" />
		<tag k="ssr:stedsnr" v="202459" />
	</node>
	<node id="-904611" lat="70.9791611163" lon="25.6781247821">
		<tag k="fixme" v="consider natural=peak for the most distinct mountains in the district" />
		<tag k="name" v="Gielkavákkečohkka" />
		<tag k="name:se" v="Gielkavákkečohkka" />
		<tag k="natural" v="hill" />
		<tag k="old_name:se" v="Gielkavaggečåkka" />
		<tag k="place" v="locality" />
		<tag k="ssr:stedsnr" v="202451" />
	</node>
	<node id="-904237" lat="70.8447111179" lon="26.5078885702">
		<tag k="fixme" v="consider natural=peak for the most distinct mountains in the district" />
		<tag k="name" v="Blåfjellet - Uhca Giđđa" />
		<tag k="name:no" v="Blåfjellet" />
		<tag k="name:se" v="Uhca Giđđa" />
		<tag k="natural" v="hill" />
		<tag k="old_name:se" v="Giđđa, ucca" />
		<tag k="place" v="locality" />
		<tag k="ssr:stedsnr" v="570111" />
	</node>
	<node id="-904347" lat="70.7437527854" lon="25.6702525376">
		<tag k="name" v="Vassberget" />
		<tag k="natural" v="hill" />
		<tag k="place" v="locality" />
		<tag k="ssr:stedsnr" v="939706" />
	</node>
	<node id="-904096" lat="70.7906638965" lon="25.7537858904">
		<tag k="name" v="Kulia" />
		<tag k="natural" v="slope" />
		<tag k="place" v="locality" />
		<tag k="ssr:stedsnr" v="393564" />
	</node>
	<node id="-904095" lat="71.0048333414" lon="26.094652534">
		<tag k="name" v="Kjelvikskaret" />
		<tag k="natural" v="valley" />
		<tag k="place" v="locality" />
		<tag k="ssr:stedsnr" v="393557" />
	</node>
	<node id="-904601" lat="71.0378277846" lon="25.5991914588">
		<tag k="fixme" v="consider natural=peak for the most distinct mountains in the district" />
		<tag k="name" v="Skadjavárri" />
		<tag k="name:se" v="Skadjavárri" />
		<tag k="natural" v="hill" />
		<tag k="old_name:se" v="Skaddjavarri" />
		<tag k="place" v="locality" />
		<tag k="ssr:stedsnr" v="202324" />
	</node>
	<node id="-904086" lat="71.1016250039" lon="26.0046803286">
		<tag k="fixme" v="consider natural=peak for the most distinct mountains in the district" />
		<tag k="name" v="Opnanaksla" />
		<tag k="natural" v="hill" />
		<tag k="place" v="locality" />
		<tag k="ssr:stedsnr" v="384310" />
	</node>
	<node id="-904089" lat="71.1613333366" lon="25.6800220181">
		<tag k="name" v="Svartrapet" />
		<tag k="natural" v="hill" />
		<tag k="place" v="locality" />
		<tag k="ssr:stedsnr" v="384706" />
	</node>
	<node id="-904595" lat="70.8180638931" lon="25.6943803325">
		<tag k="fixme" v="consider natural=peak for the most distinct mountains in the district" />
		<tag k="name" v="Vestretind" />
		<tag k="natural" v="hill" />
		<tag k="place" v="locality" />
		<tag k="ssr:stedsnr" v="202106" />
	</node>
	<node id="-904592" lat="70.9962444503" lon="25.9201136541">
		<tag k="fixme" v="consider natural=peak for the most distinct mountains in the district" />
		<tag k="name" v="Kobbholtinden" />
		<tag k="natural" v="hill" />
		<tag k="ssr:stedsnr" v="202072" />
	</node>
	<node id="-904591" lat="70.9943694549" lon="26.0448858566">
		<tag k="fixme" v="consider natural=peak for the most distinct mountains in the district" />
		<tag k="name" v="Kjelvikfjellet" />
		<tag k="natural" v="hill" />
		<tag k="place" v="locality" />
		<tag k="ssr:stedsnr" v="202070" />
	</node>
	<node id="-904074" lat="71.1673250018" lon="25.8045858982">
		<tag k="name" v="Nordkapp" />
		<tag k="natural" v="mountain_range" />
		<tag k="ssr:stedsnr" v="275555" />
	</node>
	<node id="-904584" lat="70.8705611135" lon="25.6822469894">
		<tag k="fixme" v="consider natural=peak for the most distinct mountains in the district" />
		<tag k="name" v="Sáđešvárit" />
		<tag k="name:se" v="Sáđešvárit" />
		<tag k="natural" v="hill" />
		<tag k="old_name:se" v="Sadešvarit;Sadisvarit" />
		<tag k="place" v="locality" />
		<tag k="ssr:stedsnr" v="202010" />
	</node>
	<node id="-904066" lat="70.8465805644" lon="25.8511414213">
		<tag k="name" v="Kuskåra" />
		<tag k="natural" v="valley" />
		<tag k="place" v="locality" />
		<tag k="ssr:stedsnr" v="268513" />
	</node>
	<node id="-904065" lat="70.8463833368" lon="25.8441414268">
		<tag k="name" v="Breilia" />
		<tag k="natural" v="slope" />
		<tag k="place" v="locality" />
		<tag k="ssr:stedsnr" v="268512" />
	</node>
	<node id="-904576" lat="70.7491472275" lon="25.6515831154">
		<tag k="name" v="Vestervarden" />
		<tag k="natural" v="hill" />
		<tag k="place" v="locality" />
		<tag k="ssr:stedsnr" v="150553" />
	</node>
	<node id="-904574" lat="70.7633611206" lon="25.5701859006">
		<tag k="name" v="Postskaret" />
		<tag k="natural" v="valley" />
		<tag k="place" v="locality" />
		<tag k="ssr:stedsnr" v="150635" />
	</node>
	<node id="-904573" lat="70.7953444541" lon="25.7399942188">
		<tag k="name" v="Mannskarvikhaugen" />
		<tag k="natural" v="hill" />
		<tag k="place" v="locality" />
		<tag k="ssr:stedsnr" v="150630" />
	</node>
	<node id="-904569" lat="71.0936861112" lon="25.3754053771">
		<tag k="name" v="Kvalskåra" />
		<tag k="natural" v="valley" />
		<tag k="place" v="locality" />
		<tag k="ssr:stedsnr" v="146294" />
	</node>
	<node id="-904056" lat="70.8372833371" lon="25.8057469861">
		<tag k="name" v="Indre Rastkeilhaugen" />
		<tag k="natural" v="hill" />
		<tag k="place" v="locality" />
		<tag k="ssr:stedsnr" v="451553" />
	</node>
	<node id="-904510" lat="70.8438611163" lon="25.8241469888">
		<tag k="name" v="Blåbærbakken" />
		<tag k="natural" v="slope" />
		<tag k="place" v="locality" />
		<tag k="ssr:stedsnr" v="87546" />
	</node>
	<node id="-904049" lat="70.8943000039" lon="25.7913580888">
		<tag k="name" v="Gargobakken" />
		<tag k="natural" v="slope" />
		<tag k="place" v="locality" />
		<tag k="ssr:stedsnr" v="449448" />
	</node>
	<node id="-904048" lat="70.9012944507" lon="25.8237053218">
		<tag k="name" v="Svabergan" />
		<tag k="natural" v="hill" />
		<tag k="place" v="locality" />
		<tag k="ssr:stedsnr" v="449445" />
	</node>
	<node id="-904559" lat="71.1342972281" lon="25.9580886584">
		<tag k="name" v="Bispen" />
		<tag k="natural" v="hill" />
		<tag k="place" v="locality" />
		<tag k="ssr:stedsnr" v="141347" />
	</node>
	<node id="-904040" lat="70.9787288395" lon="25.7687683187">
		<tag k="alt_name" v="Ørntind" />
		<tag k="name" v="Ørntinden" />
		<tag k="natural" v="hill" />
		<tag k="place" v="locality" />
		<tag k="ssr:stedsnr" v="445473" />
	</node>
	<node id="-904550" lat="70.7586055588" lon="25.8279497541">
		<tag k="name" v="Seituva" />
		<tag k="natural" v="hill" />
		<tag k="place" v="locality" />
		<tag k="ssr:stedsnr" v="141176" />
	</node>
	<node id="-904337" lat="71.0494250024" lon="25.9065081107">
		<tag k="name" v="Haugen" />
		<tag k="natural" v="hill" />
		<tag k="place" v="locality" />
		<tag k="ssr:stedsnr" v="936244" />
	</node>
	<node id="-904036" lat="71.0896916731" lon="25.4790303745">
		<tag k="fixme" v="consider natural=peak for the most distinct mountains in the district" />
		<tag k="name" v="Soltind" />
		<tag k="natural" v="hill" />
		<tag k="place" v="locality" />
		<tag k="ssr:stedsnr" v="445369" />
	</node>
	<node id="-904166" lat="70.7880000049" lon="25.7481997768">
		<tag k="name" v="Klubberget" />
		<tag k="natural" v="hill" />
		<tag k="place" v="locality" />
		<tag k="ssr:stedsnr" v="454659" />
	</node>
	<node id="-903928" lat="70.8727388978" lon="25.7493469974">
		<tag k="name" v="Haraldberget" />
		<tag k="natural" v="hill" />
		<tag k="place" v="locality" />
		<tag k="ssr:stedsnr" v="86603" />
	</node>
	<node id="-904545" lat="70.7820444454" lon="25.6190914513">
		<tag k="name" v="Reinelvdalen" />
		<tag k="natural" v="valley" />
		<tag k="place" v="locality" />
		<tag k="ssr:stedsnr" v="141108" />
	</node>
	<node id="-904030" lat="71.0300944531" lon="25.5639248052">
		<tag k="fixme" v="consider natural=peak for the most distinct mountains in the district" />
		<tag k="name" v="Stohpovárri" />
		<tag k="name:se" v="Stohpovárri" />
		<tag k="natural" v="hill" />
		<tag k="old_name:se" v="Ståppuvarri" />
		<tag k="place" v="locality" />
		<tag k="ssr:stedsnr" v="445341" />
	</node>
	<node id="-904540" lat="70.8745305615" lon="25.4117803504">
		<tag k="name" v="Stuorragávva" />
		<tag k="name:se" v="Stuorragávva" />
		<tag k="natural" v="slope" />
		<tag k="old_name:se" v="Stuorragavva" />
		<tag k="place" v="locality" />
		<tag k="ssr:stedsnr" v="141032" />
	</node>
	<node id="-904539" lat="70.8878777849" lon="25.7820331037">
		<tag k="fixme" v="consider natural=peak for the most distinct mountains in the district" />
		<tag k="name" v="Høgfjellet - Doaresvárri" />
		<tag k="name:no" v="Høgfjellet" />
		<tag k="name:se" v="Doaresvárri" />
		<tag k="natural" v="hill" />
		<tag k="old_name:se" v="Doaresvarri" />
		<tag k="place" v="locality" />
		<tag k="ssr:stedsnr" v="141030" />
	</node>
	<node id="-904538" lat="70.856563896" lon="25.4233164573">
		<tag k="fixme" v="consider natural=peak for the most distinct mountains in the district" />
		<tag k="name" v="Straumhaugen - Čuomačohkka" />
		<tag k="name:no" v="Straumhaugen" />
		<tag k="name:se" v="Čuomačohkka" />
		<tag k="natural" v="hill" />
		<tag k="old_name:se" v="Čuomačåkka" />
		<tag k="place" v="locality" />
		<tag k="ssr:stedsnr" v="141018" />
	</node>
	<node id="-904079" lat="70.8540111167" lon="25.7779247672">
		<tag k="name" v="Brennlia" />
		<tag k="natural" v="slope" />
		<tag k="place" v="locality" />
		<tag k="ssr:stedsnr" v="328509" />
	</node>
	<node id="-904024" lat="70.9135388983" lon="26.4771997013">
		<tag k="fixme" v="consider natural=peak for the most distinct mountains in the district" />
		<tag k="name" v="Rekvikfjellet" />
		<tag k="natural" v="hill" />
		<tag k="place" v="locality" />
		<tag k="ssr:stedsnr" v="445155" />
	</node>
	<node id="-904022" lat="70.9578055656" lon="26.6422996807">
		<tag k="name" v="Russehallaren - Ruoššaheallár" />
		<tag k="name:no" v="Russehallaren" />
		<tag k="name:se" v="Ruoššaheallár" />
		<tag k="natural" v="slope" />
		<tag k="old_name:se" v="Ruoššahællar" />
		<tag k="place" v="locality" />
		<tag k="ssr:stedsnr" v="445144" />
	</node>
	<node id="-904021" lat="70.9555527885" lon="26.6668191083">
		<tag k="name" v="Monsdalen" />
		<tag k="natural" v="valley" />
		<tag k="place" v="locality" />
		<tag k="ssr:stedsnr" v="445142" />
	</node>
	<node id="-904016" lat="70.7269111185" lon="26.245508042">
		<tag k="fixme" v="consider natural=peak for the most distinct mountains in the district" />
		<tag k="name" v="Sávzačohkka" />
		<tag k="name:se" v="Sávzačohkka" />
		<tag k="natural" v="hill" />
		<tag k="old_name:se" v="Savzačåkka" />
		<tag k="place" v="locality" />
		<tag k="ssr:stedsnr" v="444515" />
	</node>
	<node id="-904418" lat="71.0312666705" lon="26.2068719582">
		<tag k="fixme" v="consider natural=peak for the most distinct mountains in the district" />
		<tag k="name" v="Skarvberget" />
		<tag k="natural" v="hill" />
		<tag k="place" v="locality" />
		<tag k="ssr:stedsnr" v="20252" />
	</node>
	<node id="-904010" lat="71.0410833381" lon="25.9069358705">
		<tag k="fixme" v="consider natural=peak for the most distinct mountains in the district" />
		<tag k="name" v="Stortind" />
		<tag k="natural" v="hill" />
		<tag k="ssr:stedsnr" v="444229" />
	</node>
	<node id="-904520" lat="71.0473000037" lon="26.1407330646">
		<tag k="name" v="Laukvik" />
		<tag k="natural" v="valley" />
		<tag k="place" v="locality" />
		<tag k="ssr:stedsnr" v="107717" />
	</node>
	<node id="-904007" lat="70.786066675" lon="25.7183692047">
		<tag k="name" v="Vassberget" />
		<tag k="natural" v="hill" />
		<tag k="place" v="locality" />
		<tag k="ssr:stedsnr" v="211708" />
	</node>
	<node id="-904518" lat="70.75597223" lon="25.6784747615">
		<tag k="name" v="Notberget" />
		<tag k="natural" v="hill" />
		<tag k="place" v="locality" />
		<tag k="ssr:stedsnr" v="90539" />
	</node>
	<node id="-904517" lat="70.7528055577" lon="25.6620747805">
		<tag k="name" v="Eberget" />
		<tag k="natural" v="hill" />
		<tag k="place" v="locality" />
		<tag k="ssr:stedsnr" v="90532" />
	</node>
	<node id="-905027" lat="70.8406083377" lon="25.7069386705">
		<tag k="name" v="Poastaleahki" />
		<tag k="name:se" v="Poastaleahki" />
		<tag k="natural" v="valley" />
		<tag k="place" v="locality" />
		<tag k="ssr:stedsnr" v="875587" />
	</node>
	<node id="-904002" lat="70.7965888933" lon="26.2741885905">
		<tag k="alt_name" v="Djupviktind" />
		<tag k="fixme" v="consider natural=peak for the most distinct mountains in the district" />
		<tag k="name" v="Djupvikfjellet" />
		<tag k="natural" v="hill" />
		<tag k="place" v="locality" />
		<tag k="ssr:stedsnr" v="202159" />
	</node>
	<node id="-905022" lat="70.9951305575" lon="25.9835330839">
		<tag k="name" v="Seppoladalen" />
		<tag k="natural" v="valley" />
		<tag k="place" v="locality" />
		<tag k="ssr:stedsnr" v="874339" />
	</node>
	<node id="-904509" lat="70.8518722305" lon="25.8139025505">
		<tag k="fixme" v="consider natural=peak for the most distinct mountains in the district" />
		<tag k="name" v="Aksla" />
		<tag k="natural" v="hill" />
		<tag k="place" v="locality" />
		<tag k="ssr:stedsnr" v="87541" />
	</node>
	<node id="-903993" lat="70.8838138969" lon="25.7613164355">
		<tag k="name" v="Tårnashøgda" />
		<tag k="natural" v="hill" />
		<tag k="place" v="locality" />
		<tag k="ssr:stedsnr" v="146452" />
	</node>
	<node id="-903992" lat="71.1628166703" lon="25.611516482">
		<tag k="alt_name" v="Bispen, l" />
		<tag k="fixme" v="consider natural=peak for the most distinct mountains in the district" />
		<tag k="name" v="Lille Bispen" />
		<tag k="natural" v="hill" />
		<tag k="place" v="locality" />
		<tag k="ssr:stedsnr" v="141671" />
	</node>
	<node id="-904502" lat="70.9529638921" lon="25.6615220085">
		<tag k="name" v="Gullgamlia" />
		<tag k="natural" v="slope" />
		<tag k="place" v="locality" />
		<tag k="ssr:stedsnr" v="85748" />
	</node>
	<node id="-905013" lat="70.9833388998" lon="25.8916136491">
		<tag k="fixme" v="consider natural=peak for the most distinct mountains in the district" />
		<tag k="name" v="Honningsvågfjellet" />
		<tag k="natural" v="hill" />
		<tag k="place" v="locality" />
		<tag k="ssr:stedsnr" v="870083" />
	</node>
	<node id="-903988" lat="70.8940972254" lon="25.703780323">
		<tag k="fixme" v="consider natural=peak for the most distinct mountains in the district" />
		<tag k="name" v="Kirka" />
		<tag k="natural" v="hill" />
		<tag k="place" v="locality" />
		<tag k="ssr:stedsnr" v="268592" />
	</node>
	<node id="-905011" lat="71.1132934959" lon="25.8019283598">
		<tag k="alt_name" v="Kjerkeporten" />
		<tag k="name" v="Kirkeporten" />
		<tag k="natural" v="hill" />
		<tag k="place" v="locality" />
		<tag k="ssr:stedsnr" v="869756" />
	</node>
	<node id="-905007" lat="71.0667222243" lon="25.5886331392">
		<tag k="fixme" v="consider natural=peak for the most distinct mountains in the district" />
		<tag k="name" v="Ráktialáš" />
		<tag k="name:se" v="Ráktialáš" />
		<tag k="natural" v="hill" />
		<tag k="old_name:se" v="Raktialaš" />
		<tag k="place" v="locality" />
		<tag k="ssr:stedsnr" v="869412" />
	</node>
	<node id="-904494" lat="71.0036833392" lon="25.5170692547">
		<tag k="fixme" v="consider natural=peak for the most distinct mountains in the district" />
		<tag k="name" v="Vilgeshárji" />
		<tag k="name:se" v="Vilgeshárji" />
		<tag k="natural" v="hill" />
		<tag k="old_name:se" v="Vilgesharji" />
		<tag k="place" v="locality" />
		<tag k="ssr:stedsnr" v="81362" />
	</node>
	<node id="-903981" lat="71.0587138971" lon="25.3080470419">
		<tag k="fixme" v="consider natural=peak for the most distinct mountains in the district" />
		<tag k="name" v="Gråkollfjellet" />
		<tag k="natural" v="hill" />
		<tag k="place" v="locality" />
		<tag k="ssr:stedsnr" v="267311" />
	</node>
	<node id="-903980" lat="70.9900361164" lon="26.0421830833">
		<tag k="name" v="Elvedalen" />
		<tag k="natural" v="valley" />
		<tag k="place" v="locality" />
		<tag k="ssr:stedsnr" v="267297" />
	</node>
	<node id="-904491" lat="71.0556138908" lon="25.3748775918">
		<tag k="name" v="Dalhaugen" />
		<tag k="natural" v="hill" />
		<tag k="place" v="locality" />
		<tag k="ssr:stedsnr" v="81338" />
	</node>
	<node id="-904490" lat="71.0892083366" lon="25.9347664209">
		<tag k="fixme" v="consider natural=peak for the most distinct mountains in the district" />
		<tag k="name" v="Trollvikfjellet" />
		<tag k="natural" v="hill" />
		<tag k="place" v="locality" />
		<tag k="ssr:stedsnr" v="81318" />
	</node>
	<node id="-905001" lat="70.8491722287" lon="25.8433553249">
		<tag k="fixme" v="multiple name tags, choose one and add the other to alt_name; consider natural=peak for the most distinct mountains in the district" />
		<tag k="name" v="Mortholaksla;Mortholhaugen" />
		<tag k="natural" v="hill" />
		<tag k="place" v="locality" />
		<tag k="ssr:stedsnr" v="869205" />
	</node>
	<node id="-904487" lat="71.001891677" lon="25.9142942096">
		<tag k="alt_name" v="Skipsfjordtind" />
		<tag k="fixme" v="consider natural=peak for the most distinct mountains in the district" />
		<tag k="name" v="Skipsfjordtinden" />
		<tag k="natural" v="hill" />
		<tag k="place" v="locality" />
		<tag k="ssr:stedsnr" v="81298" />
	</node>
	<node id="-904484" lat="70.7754277848" lon="25.3963637048">
		<tag k="fixme" v="consider natural=peak for the most distinct mountains in the district" />
		<tag k="name" v="Gámasčohkka" />
		<tag k="name:se" v="Gámasčohkka" />
		<tag k="natural" v="hill" />
		<tag k="old_name:se" v="Gamasčåkka" />
		<tag k="place" v="locality" />
		<tag k="ssr:stedsnr" v="81100" />
	</node>
	<node id="-904481" lat="70.7556722243" lon="25.5476136757">
		<tag k="name" v="Stránddarápma" />
		<tag k="name:se" v="Stránddarápma" />
		<tag k="natural" v="slope" />
		<tag k="old_name:se" v="Strandaramba" />
		<tag k="place" v="locality" />
		<tag k="ssr:stedsnr" v="81078" />
	</node>
	<node id="-904992" lat="70.9384194518" lon="25.5751303469">
		<tag k="name" v="Skattørfjellet" />
		<tag k="natural" v="hill" />
		<tag k="place" v="locality" />
		<tag k="ssr:stedsnr" v="838886" />
	</node>
	<node id="-904479" lat="70.8710694527" lon="25.3905886918">
		<tag k="fixme" v="consider natural=peak for the most distinct mountains in the district" />
		<tag k="name" v="Čivttetvárri" />
		<tag k="name:se" v="Čivttetvárri" />
		<tag k="natural" v="hill" />
		<tag k="old_name:se" v="Čivtetvarri" />
		<tag k="place" v="locality" />
		<tag k="ssr:stedsnr" v="81024" />
	</node>
	<node id="-904028" lat="71.0435861117" lon="25.3223553707">
		<tag k="fixme" v="consider natural=peak for the most distinct mountains in the district" />
		<tag k="name" v="Ørntinden" />
		<tag k="natural" v="hill" />
		<tag k="place" v="locality" />
		<tag k="ssr:stedsnr" v="445332" />
	</node>
	<node id="-904476" lat="70.7242305652" lon="26.2895746994">
		<tag k="alt_name:se" v="Sávzavárri" />
		<tag k="fixme" v="consider natural=peak for the most distinct mountains in the district" />
		<tag k="name" v="Savzavárri" />
		<tag k="name:se" v="Savzavárri" />
		<tag k="natural" v="hill" />
		<tag k="old_name:se" v="Savzavarri" />
		<tag k="place" v="locality" />
		<tag k="ssr:stedsnr" v="80538" />
	</node>
	<node id="-904987" lat="70.7406777812" lon="25.5856525547">
		<tag k="name" v="Jørgendalen" />
		<tag k="natural" v="valley" />
		<tag k="place" v="locality" />
		<tag k="ssr:stedsnr" v="818739" />
	</node>
	<node id="-904474" lat="70.944380564" lon="25.5288136864">
		<tag k="fixme" v="consider natural=peak for the most distinct mountains in the district" />
		<tag k="name" v="Sildnebbet" />
		<tag k="natural" v="hill" />
		<tag k="place" v="locality" />
		<tag k="ssr:stedsnr" v="80459" />
	</node>
	<node id="-903983" lat="70.8501472269" lon="25.86701365">
		<tag k="name" v="Brattberget" />
		<tag k="natural" v="hill" />
		<tag k="place" v="locality" />
		<tag k="ssr:stedsnr" v="267444" />
	</node>
	<node id="-904984" lat="70.8122583403" lon="25.7514803206">
		<tag k="name" v="Langstrandhaugen" />
		<tag k="natural" v="hill" />
		<tag k="place" v="locality" />
		<tag k="ssr:stedsnr" v="818694" />
	</node>
	<node id="-903959" lat="70.805616673" lon="25.7204330995">
		<tag k="alt_name:se" v="Fáhccun" />
		<tag k="fixme" v="multiple name tags, choose one and add the other to alt_name; consider natural=peak for the most distinct mountains in the district" />
		<tag k="name" v="Børa;Langstrandtinden;Lille Børa - Beavža-Fáhccun" />
		<tag k="name:no" v="Børa;Langstrandtinden;Lille Børa" />
		<tag k="name:se" v="Beavža-Fáhccun" />
		<tag k="natural" v="hill" />
		<tag k="old_name:no" v="Børa, l" />
		<tag k="old_name:se" v="Bævža-Faccon" />
		<tag k="place" v="locality" />
		<tag k="ssr:stedsnr" v="263110" />
	</node>
	<node id="-904981" lat="70.8557277831" lon="25.760191428">
		<tag k="name" v="Stohkkeleakti" />
		<tag k="name:se" v="Stohkkeleakti" />
		<tag k="natural" v="valley" />
		<tag k="place" v="locality" />
		<tag k="ssr:stedsnr" v="814578" />
	</node>
	<node id="-903956" lat="70.9866527846" lon="25.9208803248">
		<tag k="name" v="Rossmåltinden" />
		<tag k="natural" v="hill" />
		<tag k="place" v="locality" />
		<tag k="ssr:stedsnr" v="263097" />
	</node>
	<node id="-904979" lat="70.8867916718" lon="25.7610636584">
		<tag k="fixme" v="consider natural=peak for the most distinct mountains in the district" />
		<tag k="name" v="Maritfjellet" />
		<tag k="natural" v="hill" />
		<tag k="place" v="locality" />
		<tag k="ssr:stedsnr" v="813432" />
	</node>
	<node id="-904978" lat="71.0995277807" lon="25.3721220466">
		<tag k="name" v="Storhaugen" />
		<tag k="natural" v="hill" />
		<tag k="place" v="locality" />
		<tag k="ssr:stedsnr" v="813265" />
	</node>
	<node id="-904976" lat="71.1632416678" lon="25.7949108954">
		<tag k="fixme" v="consider natural=peak for the most distinct mountains in the district" />
		<tag k="name" v="Stor-Kappa" />
		<tag k="natural" v="hill" />
		<tag k="place" v="locality" />
		<tag k="ssr:stedsnr" v="809720" />
	</node>
	<node id="-904975" lat="70.9823027842" lon="25.791077564">
		<tag k="fixme" v="consider natural=peak for the most distinct mountains in the district" />
		<tag k="name" v="Prestlifjellet" />
		<tag k="natural" v="hill" />
		<tag k="place" v="locality" />
		<tag k="ssr:stedsnr" v="809484" />
	</node>
	<node id="-903950" lat="71.0733833357" lon="25.6955664678">
		<tag k="name" v="Piparhaugen" />
		<tag k="natural" v="hill" />
		<tag k="place" v="locality" />
		<tag k="ssr:stedsnr" v="262370" />
	</node>
	<node id="-905005" lat="71.0933306208" lon="25.8046276132">
		<tag k="alt_name" v="Kappsjåtinden;Kappesjåtinden" />
		<tag k="fixme" v="consider natural=peak for the most distinct mountains in the district" />
		<tag k="name" v="Kappeskjåtinden" />
		<tag k="natural" v="hill" />
		<tag k="ssr:stedsnr" v="869390" />
	</node>
	<node id="-904460" lat="70.8959722285" lon="25.8308525538">
		<tag k="fixme" v="consider natural=peak for the most distinct mountains in the district" />
		<tag k="name" v="Spáppir" />
		<tag k="name:se" v="Spáppir" />
		<tag k="natural" v="hill" />
		<tag k="old_name:se" v="Spabbir" />
		<tag k="place" v="locality" />
		<tag k="ssr:stedsnr" v="80189" />
	</node>
	<node id="-904970" lat="71.0217111193" lon="25.7637331246">
		<tag k="fixme" v="consider natural=peak for the most distinct mountains in the district" />
		<tag k="name" v="Guhkesgielas" />
		<tag k="name:se" v="Guhkesgielas" />
		<tag k="natural" v="hill" />
		<tag k="old_name:se" v="Gukkesgielas" />
		<tag k="place" v="locality" />
		<tag k="ssr:stedsnr" v="809351" />
	</node>
	<node id="-904457" lat="70.9511416726" lon="26.5942107785">
		<tag k="fixme" v="consider natural=peak for the most distinct mountains in the district" />
		<tag k="name" v="Mjåvikklubben" />
		<tag k="natural" v="hill" />
		<tag k="place" v="locality" />
		<tag k="ssr:stedsnr" v="80162" />
	</node>
	<node id="-903944" lat="71.0069888982" lon="26.0824247466">
		<tag k="alt_name" v="Lenninga" />
		<tag k="name" v="Ledninga" />
		<tag k="natural" v="slope" />
		<tag k="place" v="locality" />
		<tag k="ssr:stedsnr" v="262264" />
	</node>
	<node id="-904455" lat="70.9767250017" lon="25.8921136522">
		<tag k="fixme" v="consider natural=peak for the most distinct mountains in the district" />
		<tag k="name" v="Rávddut" />
		<tag k="name:se" v="Rávddut" />
		<tag k="natural" v="hill" />
		<tag k="old_name:se" v="Ravdot" />
		<tag k="place" v="locality" />
		<tag k="ssr:stedsnr" v="80074" />
	</node>
	<node id="-904966" lat="70.8459166738" lon="25.613794217">
		<tag k="fixme" v="consider natural=peak for the most distinct mountains in the district" />
		<tag k="name" v="Čohkarášša" />
		<tag k="name:se" v="Čohkarášša" />
		<tag k="natural" v="hill" />
		<tag k="old_name:se" v="Čåkkarašša" />
		<tag k="place" v="locality" />
		<tag k="ssr:stedsnr" v="809137" />
	</node>
	<node id="-904963" lat="70.8018361219" lon="25.6725831004">
		<tag k="fixme" v="multiple name tags, choose one and add the other to alt_name; consider natural=peak for the most distinct mountains in the district" />
		<tag k="name" v="Nova;Vestre Fahccon;Store Børa - Duottar-Fáhccun" />
		<tag k="name:no" v="Nova;Vestre Fahccon;Store Børa" />
		<tag k="name:se" v="Duottar-Fáhccun" />
		<tag k="natural" v="hill" />
		<tag k="old_name:no" v="Børa, store" />
		<tag k="old_name:se" v="Duoddar-Faccon" />
		<tag k="place" v="locality" />
		<tag k="ssr:stedsnr" v="809118" />
	</node>
	<node id="-903935" lat="70.8418305649" lon="25.6528775672">
		<tag k="name" v="Gávkerápma" />
		<tag k="name:se" v="Gávkerápma" />
		<tag k="natural" v="slope" />
		<tag k="old_name:se" v="Gavkerabma" />
		<tag k="place" v="locality" />
		<tag k="ssr:stedsnr" v="262121" />
	</node>
	<node id="-904958" lat="70.7520277835" lon="25.4114581207">
		<tag k="fixme" v="consider natural=peak for the most distinct mountains in the district" />
		<tag k="name" v="Stránddoaivi" />
		<tag k="name:se" v="Stránddoaivi" />
		<tag k="natural" v="hill" />
		<tag k="old_name:se" v="Strandoaivi" />
		<tag k="place" v="locality" />
		<tag k="ssr:stedsnr" v="809085" />
	</node>
	<node id="-904957" lat="70.9193944548" lon="25.5316247907">
		<tag k="fixme" v="consider natural=peak for the most distinct mountains in the district" />
		<tag k="name" v="Hysaksla" />
		<tag k="natural" v="hill" />
		<tag k="place" v="locality" />
		<tag k="ssr:stedsnr" v="809047" />
	</node>
	<node id="-904444" lat="70.7910166705" lon="25.7257330917">
		<tag k="name" v="Rássiidjuovva" />
		<tag k="name:se" v="Rássiidjuovva" />
		<tag k="natural" v="valley" />
		<tag k="place" v="locality" />
		<tag k="ssr:stedsnr" v="29655" />
	</node>
	<node id="-904955" lat="70.7383222286" lon="25.5323692406">
		<tag k="fixme" v="consider natural=peak for the most distinct mountains in the district" />
		<tag k="name" v="Juovvavárháhtta" />
		<tag k="name:se" v="Juovvavárháhtta" />
		<tag k="natural" v="hill" />
		<tag k="old_name:se" v="Juovvavarhatta" />
		<tag k="place" v="locality" />
		<tag k="ssr:stedsnr" v="808962" />
	</node>
	<node id="-904319" lat="70.9688805645" lon="25.6574331131">
		<tag k="name" v="Kobbholdalen" />
		<tag k="natural" v="valley" />
		<tag k="place" v="locality" />
		<tag k="ssr:stedsnr" v="930473" />
	</node>
	<node id="-904952" lat="71.0888722295" lon="25.2991581727">
		<tag k="fixme" v="consider natural=peak for the most distinct mountains in the district" />
		<tag k="name" v="Stortuva" />
		<tag k="natural" v="hill" />
		<tag k="place" v="locality" />
		<tag k="ssr:stedsnr" v="808341" />
	</node>
	<node id="-903926" lat="71.1718666736" lon="25.7876275604">
		<tag k="name" v="Juksanberget" />
		<tag k="natural" v="hill" />
		<tag k="place" v="locality" />
		<tag k="ssr:stedsnr" v="86463" />
	</node>
	<node id="-904436" lat="70.8952555589" lon="25.7078219919">
		<tag k="name" v="Mastebergan" />
		<tag k="natural" v="hill" />
		<tag k="place" v="locality" />
		<tag k="ssr:stedsnr" v="25586" />
	</node>
	<node id="-903922" lat="70.745536119" lon="25.6578553421">
		<tag k="name" v="Østervarden" />
>>>>>>> e1d4bc35ff8a6074a6f2e91616a996b547c36f15
		<tag k="natural" v="hill" />
		<tag k="old_name:se" v="Stiikugaisa" />
		<tag k="place" v="locality" />
		<tag k="ssr:stedsnr" v="20043" />
	</node>
<<<<<<< HEAD
	<node lat="70.90663611364504" lon="25.529305356401256" id="-42293">
		<tag k="name" v="Bealjáidbákti" />
		<tag k="name:se" v="Bealjáidbákti" />
=======
	<node id="-904943" lat="70.7333777817" lon="25.6858914276">
		<tag k="name" v="Gytjenberga" />
>>>>>>> e1d4bc35ff8a6074a6f2e91616a996b547c36f15
		<tag k="natural" v="hill" />
		<tag k="old_name:se" v="Bælljaidbakti" />
		<tag k="place" v="locality" />
		<tag k="ssr:stedsnr" v="20046" />
	</node>
<<<<<<< HEAD
	<node lat="70.89822222469125" lon="25.481669239961793" id="-42294">
=======
	<node id="-904940" lat="70.7713694491" lon="25.5951525452">
>>>>>>> e1d4bc35ff8a6074a6f2e91616a996b547c36f15
		<tag k="fixme" v="consider natural=peak for the most distinct mountains in the district" />
		<tag k="name" v="Misjonsfjellet - Miššavuonrášša" />
		<tag k="name:no" v="Misjonsfjellet" />
		<tag k="name:se" v="Miššavuonrášša" />
		<tag k="natural" v="hill" />
		<tag k="old_name:se" v="Miššavuonrašša" />
		<tag k="place" v="locality" />
		<tag k="ssr:stedsnr" v="20047" />
	</node>
<<<<<<< HEAD
	<node lat="70.79328611648613" lon="25.75682476688208" id="-42295">
		<tag k="name" v="Fugleberget - Loddebákti" />
		<tag k="name:no" v="Fugleberget" />
		<tag k="name:se" v="Loddebákti" />
=======
	<node id="-904426" lat="70.9946722245" lon="25.4497498022">
		<tag k="fixme" v="consider natural=peak for the most distinct mountains in the district" />
		<tag k="name" v="Ákšonjárga" />
		<tag k="name:se" v="Ákšonjárga" />
>>>>>>> e1d4bc35ff8a6074a6f2e91616a996b547c36f15
		<tag k="natural" v="hill" />
		<tag k="old_name:se" v="Lådebakti" />
		<tag k="place" v="locality" />
		<tag k="ssr:stedsnr" v="20095" />
	</node>
<<<<<<< HEAD
	<node lat="71.04465000509695" lon="25.64309423925804" id="-42299">
=======
	<node id="-903912" lat="71.0446500051" lon="25.6430942393">
>>>>>>> e1d4bc35ff8a6074a6f2e91616a996b547c36f15
		<tag k="fixme" v="consider natural=peak for the most distinct mountains in the district" />
		<tag k="name" v="Bajit Šiivačohkka" />
		<tag k="name:se" v="Bajit Šiivačohkka" />
		<tag k="natural" v="hill" />
		<tag k="old_name:se" v="Šiivačåkka, bajit" />
		<tag k="place" v="locality" />
		<tag k="ssr:stedsnr" v="20320" />
	</node>
<<<<<<< HEAD
	<node lat="71.1117361149237" lon="25.8944997586936" id="-42304">
=======
	<node id="-904423" lat="71.1117361149" lon="25.8944997587">
>>>>>>> e1d4bc35ff8a6074a6f2e91616a996b547c36f15
		<tag k="name" v="Tinden" />
		<tag k="natural" v="hill" />
		<tag k="place" v="locality" />
		<tag k="ssr:stedsnr" v="20293" />
	</node>
<<<<<<< HEAD
	<node lat="71.03126667049408" lon="26.20687195822915" id="-42306">
		<tag k="fixme" v="consider natural=peak for the most distinct mountains in the district" />
		<tag k="name" v="Skarvberget" />
		<tag k="natural" v="hill" />
=======
	<node id="-904933" lat="70.8320138969" lon="25.8034580888">
		<tag k="name" v="Djupskåra" />
		<tag k="natural" v="valley" />
		<tag k="place" v="locality" />
		<tag k="ssr:stedsnr" v="754553" />
	</node>
	<node id="-904932" lat="70.9847916747" lon="26.0663469712">
		<tag k="name" v="Væktarhaugen" />
		<tag k="natural" v="hill" />
		<tag k="place" v="locality" />
		<tag k="ssr:stedsnr" v="754509" />
	</node>
	<node id="-904930" lat="71.1210888944" lon="25.8316108878">
		<tag k="name" v="Storrevva" />
		<tag k="natural" v="valley" />
>>>>>>> e1d4bc35ff8a6074a6f2e91616a996b547c36f15
		<tag k="place" v="locality" />
		<tag k="ssr:stedsnr" v="754503" />
	</node>
	<node id="-904026" lat="70.7512861192" lon="25.3526720408">
		<tag k="name" v="Lávvárrápma" />
		<tag k="name:se" v="Lávvárrápma" />
		<tag k="natural" v="slope" />
		<tag k="old_name:se" v="Lauvvarramba" />
		<tag k="place" v="locality" />
		<tag k="ssr:stedsnr" v="445086" />
	</node>
<<<<<<< HEAD
	<node lat="70.89525555888946" lon="25.707821991884522" id="-42314">
		<tag k="name" v="Mastebergan" />
		<tag k="natural" v="hill" />
		<tag k="place" v="locality" />
		<tag k="ssr:stedsnr" v="25586" />
	</node>
	<node lat="70.7242305652111" lon="26.289574699431736" id="-42327">
		<tag k="alt_name:se" v="Sávzavárri" />
=======
	<node id="-904928" lat="70.8625833381" lon="25.7487442171">
		<tag k="name" v="Rundhaugen" />
		<tag k="natural" v="hill" />
		<tag k="place" v="locality" />
		<tag k="ssr:stedsnr" v="753555" />
	</node>
	<node id="-904415" lat="71.0681805616" lon="25.5415081438">
		<tag k="name" v="Njálavággi" />
		<tag k="name:se" v="Njálavággi" />
		<tag k="natural" v="valley" />
		<tag k="old_name:se" v="Njalavaggi" />
		<tag k="place" v="locality" />
		<tag k="ssr:stedsnr" v="20364" />
	</node>
	<node id="-904926" lat="70.8451694539" lon="25.8417636565">
		<tag k="name" v="Trappetrinnan" />
		<tag k="natural" v="hill" />
		<tag k="place" v="locality" />
		<tag k="ssr:stedsnr" v="753450" />
	</node>
	<node id="-904412" lat="70.7932861165" lon="25.7568247669">
		<tag k="name" v="Fugleberget - Loddebákti" />
		<tag k="name:no" v="Fugleberget" />
		<tag k="name:se" v="Loddebákti" />
		<tag k="natural" v="hill" />
		<tag k="old_name:se" v="Lådebakti" />
		<tag k="place" v="locality" />
		<tag k="ssr:stedsnr" v="20095" />
	</node>
	<node id="-904411" lat="70.9951277859" lon="26.1060803039">
		<tag k="fixme" v="consider natural=peak for the most distinct mountains in the district" />
		<tag k="name" v="Medtinden" />
		<tag k="natural" v="hill" />
		<tag k="place" v="locality" />
		<tag k="ssr:stedsnr" v="20071" />
	</node>
	<node id="-904922" lat="70.982047228" lon="26.0147247441">
		<tag k="name" v="Vestersida" />
		<tag k="place" v="locality" />
		<tag k="ssr:stedsnr" v="752298" />
	</node>
	<node id="-904408" lat="70.8982222247" lon="25.48166924">
		<tag k="fixme" v="consider natural=peak for the most distinct mountains in the district" />
		<tag k="name" v="Misjonsfjellet - Miššavuonrášša" />
		<tag k="name:no" v="Misjonsfjellet" />
		<tag k="name:se" v="Miššavuonrášša" />
		<tag k="natural" v="hill" />
		<tag k="old_name:se" v="Miššavuonrašša" />
		<tag k="place" v="locality" />
		<tag k="ssr:stedsnr" v="20047" />
	</node>
	<node id="-904407" lat="70.9066361136" lon="25.5293053564">
		<tag k="name" v="Bealjáidbákti" />
		<tag k="name:se" v="Bealjáidbákti" />
		<tag k="natural" v="hill" />
		<tag k="old_name:se" v="Bælljaidbakti" />
		<tag k="place" v="locality" />
		<tag k="ssr:stedsnr" v="20046" />
	</node>
	<node id="-904406" lat="70.9078333416" lon="25.4910720253">
		<tag k="fixme" v="consider natural=peak for the most distinct mountains in the district" />
		<tag k="name" v="Stiikogáisá" />
		<tag k="name:se" v="Stiikogáisá" />
		<tag k="natural" v="hill" />
		<tag k="old_name:se" v="Stiikugaisa" />
		<tag k="place" v="locality" />
		<tag k="ssr:stedsnr" v="20043" />
	</node>
	<node id="-904405" lat="70.9758750088" lon="26.0010219738">
		<tag k="fixme" v="consider natural=peak for the most distinct mountains in the district" />
		<tag k="name" v="Vesteraksla" />
		<tag k="natural" v="hill" />
		<tag k="place" v="locality" />
		<tag k="ssr:stedsnr" v="20175" />
	</node>
	<node id="-904916" lat="70.7214388951" lon="26.2022997106">
		<tag k="fixme" v="consider natural=peak for the most distinct mountains in the district" />
		<tag k="name" v="Boššvárri" />
		<tag k="name:se" v="Boššvárri" />
		<tag k="natural" v="hill" />
		<tag k="old_name:se" v="Båššvarri" />
		<tag k="place" v="locality" />
		<tag k="ssr:stedsnr" v="748543" />
	</node>
	<node id="-904402" lat="70.7620694492" lon="26.204477482">
		<tag k="fixme" v="consider natural=peak for the most distinct mountains in the district" />
		<tag k="name" v="Knuthaugen" />
		<tag k="natural" v="hill" />
		<tag k="place" v="locality" />
		<tag k="ssr:stedsnr" v="20169" />
	</node>
	<node id="-904400" lat="70.8850000071" lon="26.4576774542">
		<tag k="name" v="Ádjávággi" />
		<tag k="name:se" v="Ádjávággi" />
		<tag k="natural" v="valley" />
		<tag k="old_name:se" v="Addjavaggi" />
		<tag k="place" v="locality" />
		<tag k="ssr:stedsnr" v="20129" />
	</node>
	<node id="-904911" lat="70.8218250044" lon="25.5153525675">
		<tag k="fixme" v="consider natural=peak for the most distinct mountains in the district" />
		<tag k="name" v="Ealánvárri" />
		<tag k="name:se" v="Ealánvárri" />
		<tag k="natural" v="hill" />
		<tag k="old_name:se" v="Ælanvarri" />
		<tag k="place" v="locality" />
		<tag k="ssr:stedsnr" v="748116" />
	</node>
	<node id="-904910" lat="70.8230055594" lon="25.4027859167">
		<tag k="fixme" v="consider natural=peak for the most distinct mountains in the district" />
		<tag k="name" v="Jalgavárri" />
		<tag k="name:se" v="Jalgavárri" />
		<tag k="natural" v="hill" />
		<tag k="old_name:se" v="Jalgavarri" />
		<tag k="place" v="locality" />
		<tag k="ssr:stedsnr" v="748114" />
	</node>
	<node id="-904302" lat="71.0259972271" lon="25.8619358783">
		<tag k="name" v="Skipsfjorddalen - Skiipavuonávži" />
		<tag k="name:no" v="Skipsfjorddalen" />
		<tag k="name:se" v="Skiipavuonávži" />
		<tag k="natural" v="valley" />
		<tag k="old_name:se" v="Skiipavuonavži" />
		<tag k="place" v="locality" />
		<tag k="ssr:stedsnr" v="930263" />
	</node>
	<node id="-904907" lat="70.7728972233" lon="25.5770247877">
>>>>>>> e1d4bc35ff8a6074a6f2e91616a996b547c36f15
		<tag k="fixme" v="consider natural=peak for the most distinct mountains in the district" />
		<tag k="name" v="Savzavárri" />
		<tag k="name:se" v="Savzavárri" />
		<tag k="natural" v="hill" />
		<tag k="old_name:se" v="Savzavarri" />
		<tag k="place" v="locality" />
		<tag k="ssr:stedsnr" v="80538" />
	</node>
<<<<<<< HEAD
	<node lat="70.87106945265263" lon="25.3905886917905" id="-42328">
=======
	<node id="-904906" lat="70.7712916756" lon="25.5112359078">
>>>>>>> e1d4bc35ff8a6074a6f2e91616a996b547c36f15
		<tag k="fixme" v="consider natural=peak for the most distinct mountains in the district" />
		<tag k="name" v="Čivttetvárri" />
		<tag k="name:se" v="Čivttetvárri" />
		<tag k="natural" v="hill" />
		<tag k="old_name:se" v="Čivtetvarri" />
		<tag k="place" v="locality" />
		<tag k="ssr:stedsnr" v="81024" />
	</node>
<<<<<<< HEAD
	<node lat="71.00189167699767" lon="25.91429420956027" id="-42333">
		<tag k="alt_name" v="Skipsfjordtind" />
		<tag k="fixme" v="consider natural=peak for the most distinct mountains in the district" />
		<tag k="name" v="Skipsfjordtinden" />
		<tag k="natural" v="hill" />
		<tag k="place" v="locality" />
		<tag k="ssr:stedsnr" v="81298" />
	</node>
	<node lat="71.08920833660416" lon="25.934766420900477" id="-42336">
=======
	<node id="-903933" lat="70.9881500099" lon="26.0609330717">
		<tag k="fixme" v="consider natural=peak for the most distinct mountains in the district" />
		<tag k="name" v="Nordvågfjellet" />
		<tag k="natural" v="hill" />
		<tag k="place" v="locality" />
		<tag k="ssr:stedsnr" v="262064" />
	</node>
	<node id="-904380" lat="70.8673888936" lon="25.7581080938">
		<tag k="name" v="Haraldbergan" />
		<tag k="natural" v="hill" />
		<tag k="place" v="locality" />
		<tag k="ssr:stedsnr" v="935548" />
	</node>
	<node id="-904144" lat="70.7453694462" lon="25.6781942228">
		<tag k="name" v="Nordfarhaugen" />
		<tag k="natural" v="hill" />
		<tag k="place" v="locality" />
		<tag k="ssr:stedsnr" v="513583" />
	</node>
	<node id="-904376" lat="70.7492555642" lon="26.1715136051">
>>>>>>> e1d4bc35ff8a6074a6f2e91616a996b547c36f15
		<tag k="fixme" v="consider natural=peak for the most distinct mountains in the district" />
		<tag k="name" v="Trollvikfjellet" />
		<tag k="natural" v="hill" />
		<tag k="place" v="locality" />
<<<<<<< HEAD
		<tag k="ssr:stedsnr" v="81318" />
	</node>
	<node lat="70.87273889776107" lon="25.74934699742242" id="-42343">
		<tag k="name" v="Haraldberget" />
=======
		<tag k="ssr:stedsnr" v="930527" />
	</node>
	<node id="-904375" lat="71.0532472272" lon="25.8290970078">
		<tag k="name" v="Skálbmevággi" />
		<tag k="name:se" v="Skálbmevággi" />
		<tag k="natural" v="valley" />
		<tag k="old_name:se" v="Skalbmevaggi" />
		<tag k="place" v="locality" />
		<tag k="ssr:stedsnr" v="930313" />
	</node>
	<node id="-904374" lat="70.8395694498" lon="25.7672303118">
		<tag k="fixme" v="consider natural=peak for the most distinct mountains in the district" />
		<tag k="name" v="Dorkačohkka" />
		<tag k="name:se" v="Dorkačohkka" />
>>>>>>> e1d4bc35ff8a6074a6f2e91616a996b547c36f15
		<tag k="natural" v="hill" />
		<tag k="place" v="locality" />
		<tag k="ssr:stedsnr" v="86603" />
	</node>
<<<<<<< HEAD
	<node lat="71.04730000368801" lon="26.140733064614214" id="-42345">
		<tag k="name" v="Laukvik" />
=======
	<node id="-904884" lat="70.7674277808" lon="25.5876720058">
		<tag k="name" v="Skaret" />
>>>>>>> e1d4bc35ff8a6074a6f2e91616a996b547c36f15
		<tag k="natural" v="valley" />
		<tag k="place" v="locality" />
		<tag k="ssr:stedsnr" v="107717" />
	</node>
<<<<<<< HEAD
	<node lat="70.74914722754701" lon="25.651583115435503" id="-42355">
		<tag k="name" v="Vestervarden" />
=======
	<node id="-904883" lat="70.7438777804" lon="25.6665636648">
		<tag k="name" v="Nesseberget" />
>>>>>>> e1d4bc35ff8a6074a6f2e91616a996b547c36f15
		<tag k="natural" v="hill" />
		<tag k="place" v="locality" />
		<tag k="ssr:stedsnr" v="150553" />
	</node>
<<<<<<< HEAD
	<node lat="70.84183056491798" lon="25.652877567175267" id="-42362">
		<tag k="name" v="Gávkerápma" />
		<tag k="name:se" v="Gávkerápma" />
=======
	<node id="-904879" lat="70.8492666761" lon="25.8622997489">
		<tag k="name" v="Ytre Morthollia" />
>>>>>>> e1d4bc35ff8a6074a6f2e91616a996b547c36f15
		<tag k="natural" v="slope" />
		<tag k="old_name:se" v="Gavkerabma" />
		<tag k="place" v="locality" />
<<<<<<< HEAD
		<tag k="ssr:stedsnr" v="262121" />
	</node>
	<node lat="70.98815000991169" lon="26.060933071745573" id="-42364">
=======
		<tag k="ssr:stedsnr" v="632522" />
	</node>
	<node id="-904876" lat="70.844825009" lon="25.7376858811">
		<tag k="name" v="Hennekoleahki" />
		<tag k="name:se" v="Hennekoleahki" />
		<tag k="natural" v="valley" />
		<tag k="place" v="locality" />
		<tag k="ssr:stedsnr" v="631607" />
	</node>
	<node id="-904363" lat="70.7554138974" lon="25.7469081091">
		<tag k="name" v="Skjåholmskaret" />
		<tag k="natural" v="valley" />
		<tag k="place" v="locality" />
		<tag k="ssr:stedsnr" v="878613" />
	</node>
	<node id="-904360" lat="71.0328055598" lon="25.8830803203">
		<tag k="name" v="Skipsfjordhøyda" />
		<tag k="natural" v="hill" />
		<tag k="place" v="locality" />
		<tag k="ssr:stedsnr" v="875308" />
	</node>
	<node id="-904871" lat="71.1276000032" lon="25.7068331371">
		<tag k="fixme" v="consider natural=peak for the most distinct mountains in the district" />
		<tag k="name" v="Jalgavárri" />
		<tag k="name:se" v="Jalgavárri" />
		<tag k="natural" v="hill" />
		<tag k="old_name:se" v="Jalgavarri" />
		<tag k="place" v="locality" />
		<tag k="ssr:stedsnr" v="627767" />
	</node>
	<node id="-904356" lat="70.9945111197" lon="25.9544803184">
		<tag k="name" v="Florhaugen" />
		<tag k="natural" v="hill" />
		<tag k="place" v="locality" />
		<tag k="ssr:stedsnr" v="874823" />
	</node>
	<node id="-904866" lat="71.1574500015" lon="25.5368025722">
>>>>>>> e1d4bc35ff8a6074a6f2e91616a996b547c36f15
		<tag k="fixme" v="consider natural=peak for the most distinct mountains in the district" />
		<tag k="name" v="Nordvågfjellet" />
		<tag k="natural" v="hill" />
		<tag k="place" v="locality" />
<<<<<<< HEAD
		<tag k="ssr:stedsnr" v="262064" />
	</node>
	<node lat="71.0069888982471" lon="26.082424746647757" id="-42374">
		<tag k="alt_name" v="Lenninga" />
		<tag k="name" v="Ledninga" />
		<tag k="natural" v="slope" />
=======
		<tag k="ssr:stedsnr" v="626717" />
	</node>
	<node id="-904865" lat="70.6743083413" lon="26.0524997288">
		<tag k="name" v="Uhcapeaila" />
		<tag k="name:se" v="Uhcapeaila" />
		<tag k="natural" v="valley" />
		<tag k="old_name:se" v="Uccapæila" />
		<tag k="place" v="locality" />
		<tag k="ssr:stedsnr" v="626580" />
	</node>
	<node id="-904352" lat="70.9981000028" lon="25.4402803497">
		<tag k="name" v="Skittenvikdalen" />
		<tag k="natural" v="valley" />
>>>>>>> e1d4bc35ff8a6074a6f2e91616a996b547c36f15
		<tag k="place" v="locality" />
		<tag k="ssr:stedsnr" v="262264" />
	</node>
<<<<<<< HEAD
	<node lat="71.07338333573281" lon="25.695566467762074" id="-42378">
		<tag k="name" v="Piparhaugen" />
		<tag k="natural" v="hill" />
		<tag k="place" v="locality" />
		<tag k="ssr:stedsnr" v="262370" />
	</node>
	<node lat="70.80561667304238" lon="25.720433099468917" id="-42385">
		<tag k="alt_name:se" v="Fáhccun" />
		<tag k="fixme" v="multiple name tags, choose one and add the other to alt_name; consider natural=peak for the most distinct mountains in the district" />
		<tag k="name" v="Langstrandtinden;Børa;Lille Børa - Beavža-Fáhccun" />
		<tag k="name:no" v="Langstrandtinden;Børa;Lille Børa" />
		<tag k="name:se" v="Beavža-Fáhccun" />
		<tag k="natural" v="hill" />
		<tag k="old_name:no" v="Børa, l" />
		<tag k="old_name:se" v="Bævža-Faccon" />
		<tag k="place" v="locality" />
		<tag k="ssr:stedsnr" v="263110" />
	</node>
	<node lat="70.81866389419415" lon="25.67271923459594" id="-42386">
		<tag k="name" v="Bierssávággi" />
		<tag k="name:se" v="Bierssávággi" />
		<tag k="natural" v="valley" />
		<tag k="old_name:se" v="Biersavaggi" />
		<tag k="place" v="locality" />
		<tag k="ssr:stedsnr" v="263114" />
	</node>
	<node lat="71.11599167268963" lon="25.89933866811804" id="-42387">
		<tag k="fixme" v="multiple name tags, choose one and add the other to alt_name; consider natural=peak for the most distinct mountains in the district" />
		<tag k="name" v="Molvikfjellet;Kistefjellet" />
		<tag k="natural" v="hill" />
		<tag k="place" v="locality" />
		<tag k="ssr:stedsnr" v="263326" />
	</node>
	<node lat="70.85014722685943" lon="25.86701365001907" id="-42395">
		<tag k="name" v="Brattberget" />
=======
	<node id="-904863" lat="70.9595111135" lon="25.560477558">
		<tag k="fixme" v="consider natural=peak for the most distinct mountains in the district" />
		<tag k="name" v="Nuorrevárri" />
		<tag k="name:se" v="Nuorrevárri" />
		<tag k="natural" v="hill" />
		<tag k="old_name:se" v="Nuorrevarri" />
		<tag k="place" v="locality" />
		<tag k="ssr:stedsnr" v="626493" />
	</node>
	<node id="-904350" lat="70.741391669" lon="25.6456108781">
		<tag k="name" v="Vestavindsberget" />
		<tag k="natural" v="hill" />
		<tag k="place" v="locality" />
		<tag k="ssr:stedsnr" v="939748" />
	</node>
	<node id="-904986" lat="70.7867305642" lon="25.6961053325">
		<tag k="name" v="Glimmingberget" />
		<tag k="natural" v="hill" />
		<tag k="place" v="locality" />
		<tag k="ssr:stedsnr" v="818737" />
	</node>
	<node id="-904855" lat="71.0340472307" lon="25.6954664656">
		<tag k="fixme" v="consider natural=peak for the most distinct mountains in the district" />
		<tag k="name" v="Vuolit Šiivačohkka" />
		<tag k="name:se" v="Vuolit Šiivačohkka" />
>>>>>>> e1d4bc35ff8a6074a6f2e91616a996b547c36f15
		<tag k="natural" v="hill" />
		<tag k="place" v="locality" />
		<tag k="ssr:stedsnr" v="267444" />
	</node>
<<<<<<< HEAD
	<node lat="70.86747500748632" lon="26.583652438429944" id="-42396">
		<tag k="fixme" v="consider natural=peak for the most distinct mountains in the district" />
		<tag k="name" v="Tømmervikfjellet - Muvroaivi" />
		<tag k="name:no" v="Tømmervikfjellet" />
		<tag k="name:se" v="Muvroaivi" />
		<tag k="natural" v="hill" />
		<tag k="place" v="locality" />
		<tag k="ssr:stedsnr" v="266148" />
	</node>
	<node lat="70.99003611644065" lon="26.042183083299317" id="-42397">
		<tag k="name" v="Elvedalen" />
=======
	<node id="-903961" lat="71.1159916727" lon="25.8993386681">
		<tag k="fixme" v="multiple name tags, choose one and add the other to alt_name; consider natural=peak for the most distinct mountains in the district" />
		<tag k="name" v="Kistefjellet;Molvikfjellet" />
		<tag k="natural" v="hill" />
		<tag k="place" v="locality" />
		<tag k="ssr:stedsnr" v="263326" />
	</node>
	<node id="-904927" lat="70.8534055604" lon="25.7848608695">
		<tag k="name" v="Porsangvikdalen" />
		<tag k="natural" v="valley" />
		<tag k="place" v="locality" />
		<tag k="ssr:stedsnr" v="753511" />
	</node>
	<node id="-904338" lat="70.7410222263" lon="25.608255322">
		<tag k="name" v="Vedbotn" />
>>>>>>> e1d4bc35ff8a6074a6f2e91616a996b547c36f15
		<tag k="natural" v="valley" />
		<tag k="place" v="locality" />
		<tag k="ssr:stedsnr" v="267297" />
	</node>
<<<<<<< HEAD
	<node lat="70.87056111353023" lon="25.682246989365776" id="-42405">
		<tag k="fixme" v="consider natural=peak for the most distinct mountains in the district" />
		<tag k="name" v="Sáđešvárit" />
		<tag k="name:se" v="Sáđešvárit" />
=======
	<node id="-904849" lat="70.9757628694" lon="25.7799957693">
		<tag k="name" v="Sarnestinden" />
>>>>>>> e1d4bc35ff8a6074a6f2e91616a996b547c36f15
		<tag k="natural" v="hill" />
		<tag k="old_name:se" v="Sadešvarit;Sadisvarit" />
		<tag k="place" v="locality" />
<<<<<<< HEAD
		<tag k="ssr:stedsnr" v="202010" />
	</node>
	<node lat="71.03782778456723" lon="25.599191458843304" id="-42409">
		<tag k="fixme" v="consider natural=peak for the most distinct mountains in the district" />
		<tag k="name" v="Skadjavárri" />
		<tag k="name:se" v="Skadjavárri" />
		<tag k="natural" v="hill" />
		<tag k="old_name:se" v="Skaddjavarri" />
=======
		<tag k="ssr:stedsnr" v="626267" />
	</node>
	<node id="-903960" lat="70.8186638942" lon="25.6727192346">
		<tag k="name" v="Bierssávággi" />
		<tag k="name:se" v="Bierssávággi" />
		<tag k="natural" v="valley" />
		<tag k="old_name:se" v="Biersavaggi" />
		<tag k="place" v="locality" />
		<tag k="ssr:stedsnr" v="263114" />
	</node>
	<node id="-904846" lat="70.8015611187" lon="26.3117497082">
		<tag k="name" v="Vuomevággi" />
		<tag k="name:se" v="Vuomevággi" />
		<tag k="natural" v="valley" />
		<tag k="old_name:se" v="Vuomevaggi" />
		<tag k="place" v="locality" />
		<tag k="ssr:stedsnr" v="626191" />
	</node>
	<node id="-904845" lat="70.9261027865" lon="26.4953219038">
		<tag k="name" v="Reinbenkan - Kruvnnut" />
		<tag k="name:no" v="Reinbenkan" />
		<tag k="name:se" v="Kruvnnut" />
		<tag k="natural" v="slope" />
		<tag k="old_name:se" v="Kruvnot" />
>>>>>>> e1d4bc35ff8a6074a6f2e91616a996b547c36f15
		<tag k="place" v="locality" />
		<tag k="ssr:stedsnr" v="202324" />
	</node>
<<<<<<< HEAD
	<node lat="70.97916111626989" lon="25.678124782064934" id="-42414">
=======
	<node id="-904844" lat="70.8994027855" lon="26.5684246683">
>>>>>>> e1d4bc35ff8a6074a6f2e91616a996b547c36f15
		<tag k="fixme" v="consider natural=peak for the most distinct mountains in the district" />
		<tag k="name" v="Gielkavákkečohkka" />
		<tag k="name:se" v="Gielkavákkečohkka" />
		<tag k="natural" v="hill" />
		<tag k="old_name:se" v="Gielkavaggečåkka" />
		<tag k="place" v="locality" />
		<tag k="ssr:stedsnr" v="202451" />
	</node>
<<<<<<< HEAD
	<node lat="71.1750583410474" lon="25.66267757981111" id="-42415">
		<tag k="name" v="Rundingen" />
=======
	<node id="-904843" lat="70.8967166728" lon="26.4427580378">
		<tag k="fixme" v="consider natural=peak for the most distinct mountains in the district" />
		<tag k="name" v="Rekvikklubben" />
>>>>>>> e1d4bc35ff8a6074a6f2e91616a996b547c36f15
		<tag k="natural" v="hill" />
		<tag k="place" v="locality" />
		<tag k="ssr:stedsnr" v="202707" />
	</node>
<<<<<<< HEAD
	<node lat="71.17326111920501" lon="25.66069980086272" id="-42416">
		<tag k="name" v="Skaret" />
=======
	<node id="-903989" lat="70.8933027876" lon="25.7011192177">
		<tag k="fixme" v="consider natural=peak for the most distinct mountains in the district" />
		<tag k="name" v="Prekestolen" />
		<tag k="natural" v="hill" />
		<tag k="place" v="locality" />
		<tag k="ssr:stedsnr" v="268595" />
	</node>
	<node id="-904329" lat="70.9763333383" lon="25.9925497459">
		<tag k="name" v="Sykehusdalen" />
>>>>>>> e1d4bc35ff8a6074a6f2e91616a996b547c36f15
		<tag k="natural" v="valley" />
		<tag k="place" v="locality" />
		<tag k="ssr:stedsnr" v="202708" />
	</node>
<<<<<<< HEAD
	<node lat="70.74755000612046" lon="25.52963590909751" id="-42418">
		<tag k="name" v="Stranddalen - Stránddavággi" />
		<tag k="name:no" v="Stranddalen" />
		<tag k="name:se" v="Stránddavággi" />
=======
	<node id="-904364" lat="70.9692527852" lon="25.6768331087">
		<tag k="name" v="Kobbholet" />
		<tag k="natural" v="hill" />
		<tag k="place" v="locality" />
		<tag k="ssr:stedsnr" v="897759" />
	</node>
	<node id="-904838" lat="70.9817277834" lon="25.9835608634">
		<tag k="name" v="Elvedalen" />
>>>>>>> e1d4bc35ff8a6074a6f2e91616a996b547c36f15
		<tag k="natural" v="valley" />
		<tag k="old_name:se" v="Strandavaggi" />
		<tag k="place" v="locality" />
		<tag k="ssr:stedsnr" v="202972" />
	</node>
<<<<<<< HEAD
	<node lat="70.84638333677125" lon="25.844141426816403" id="-42424">
		<tag k="name" v="Breilia" />
		<tag k="natural" v="slope" />
		<tag k="place" v="locality" />
		<tag k="ssr:stedsnr" v="268512" />
	</node>
	<node lat="70.84658056440453" lon="25.851141421309585" id="-42425">
		<tag k="name" v="Kuskåra" />
		<tag k="natural" v="valley" />
=======
	<node id="-904833" lat="70.8944250084" lon="25.6186164483">
		<tag k="alt_name" v="Urfjellet" />
		<tag k="fixme" v="consider natural=peak for the most distinct mountains in the district" />
		<tag k="name" v="Urdtind" />
		<tag k="natural" v="hill" />
>>>>>>> e1d4bc35ff8a6074a6f2e91616a996b547c36f15
		<tag k="place" v="locality" />
		<tag k="ssr:stedsnr" v="268513" />
	</node>
<<<<<<< HEAD
	<node lat="70.84642223094548" lon="25.820883103825835" id="-42434">
		<tag k="name" v="Kjærlighetshaugen" />
=======
	<node id="-904831" lat="70.8498583414" lon="25.572935912">
		<tag k="fixme" v="consider natural=peak for the most distinct mountains in the district" />
		<tag k="name" v="Skuohtagáisá" />
		<tag k="name:se" v="Skuohtagáisá" />
>>>>>>> e1d4bc35ff8a6074a6f2e91616a996b547c36f15
		<tag k="natural" v="hill" />
		<tag k="place" v="locality" />
		<tag k="ssr:stedsnr" v="208539" />
	</node>
<<<<<<< HEAD
	<node lat="70.90129445071231" lon="25.823705321801953" id="-42446">
		<tag k="name" v="Svabergan" />
=======
	<node id="-904318" lat="70.9986416727" lon="25.5033664718">
		<tag k="fixme" v="consider natural=peak for the most distinct mountains in the district" />
		<tag k="name" v="Ákšovárri" />
		<tag k="name:se" v="Ákšovárri" />
>>>>>>> e1d4bc35ff8a6074a6f2e91616a996b547c36f15
		<tag k="natural" v="hill" />
		<tag k="place" v="locality" />
		<tag k="ssr:stedsnr" v="449445" />
	</node>
<<<<<<< HEAD
	<node lat="70.89430000389171" lon="25.791358088839687" id="-42447">
		<tag k="name" v="Gargobakken" />
		<tag k="natural" v="slope" />
=======
	<node id="-904829" lat="71.1626861171" lon="25.7412386949">
		<tag k="name" v="Lille Kappa" />
		<tag k="natural" v="hill" />
>>>>>>> e1d4bc35ff8a6074a6f2e91616a996b547c36f15
		<tag k="place" v="locality" />
		<tag k="ssr:stedsnr" v="449448" />
	</node>
<<<<<<< HEAD
	<node lat="70.8372833371156" lon="25.805746986054302" id="-42452">
		<tag k="name" v="Indre Rastkeilhaugen" />
		<tag k="natural" v="hill" />
		<tag k="place" v="locality" />
		<tag k="ssr:stedsnr" v="451553" />
	</node>
	<node lat="70.78800000493858" lon="25.7481997767879" id="-42455">
		<tag k="name" v="Klubberget" />
=======
	<node id="-904314" lat="71.0675027833" lon="25.3502081511">
		<tag k="alt_name" v="Hollenderfjellet" />
		<tag k="fixme" v="consider natural=peak for the most distinct mountains in the district" />
		<tag k="name" v="Hollendaren" />
>>>>>>> e1d4bc35ff8a6074a6f2e91616a996b547c36f15
		<tag k="natural" v="hill" />
		<tag k="place" v="locality" />
		<tag k="ssr:stedsnr" v="454659" />
	</node>
<<<<<<< HEAD
	<node lat="70.98665278464561" lon="25.920880324833036" id="-42463">
		<tag k="name" v="Rossmåltinden" />
		<tag k="natural" v="hill" />
		<tag k="place" v="locality" />
		<tag k="ssr:stedsnr" v="263097" />
	</node>
	<node lat="71.05871389712156" lon="25.308047041885427" id="-42470">
=======
	<node id="-904820" lat="71.0271722296" lon="25.9218081099">
>>>>>>> e1d4bc35ff8a6074a6f2e91616a996b547c36f15
		<tag k="fixme" v="consider natural=peak for the most distinct mountains in the district" />
		<tag k="name" v="Gråkollfjellet" />
		<tag k="natural" v="hill" />
		<tag k="place" v="locality" />
		<tag k="ssr:stedsnr" v="267311" />
	</node>
<<<<<<< HEAD
	<node lat="70.89409722540253" lon="25.703780323047823" id="-42471">
		<tag k="fixme" v="consider natural=peak for the most distinct mountains in the district" />
		<tag k="name" v="Kirka" />
=======
	<node id="-904818" lat="70.9895083401" lon="25.8668747781">
		<tag k="fixme" v="consider natural=peak for the most distinct mountains in the district" />
		<tag k="name" v="Kobergtinden" />
		<tag k="natural" v="hill" />
		<tag k="ssr:stedsnr" v="570790" />
	</node>
	<node id="-904817" lat="70.8458333342" lon="25.8382192143">
		<tag k="name" v="Davidbergan" />
>>>>>>> e1d4bc35ff8a6074a6f2e91616a996b547c36f15
		<tag k="natural" v="hill" />
		<tag k="place" v="locality" />
		<tag k="ssr:stedsnr" v="268592" />
	</node>
<<<<<<< HEAD
	<node lat="70.89330278761074" lon="25.701119217738302" id="-42472">
=======
	<node id="-904304" lat="71.0577833382" lon="25.6955692292">
>>>>>>> e1d4bc35ff8a6074a6f2e91616a996b547c36f15
		<tag k="fixme" v="consider natural=peak for the most distinct mountains in the district" />
		<tag k="name" v="Prekestolen" />
		<tag k="natural" v="hill" />
		<tag k="place" v="locality" />
		<tag k="ssr:stedsnr" v="268595" />
	</node>
<<<<<<< HEAD
	<node lat="70.80808056000829" lon="25.63006643521751" id="-42476">
		<tag k="fixme" v="consider natural=peak for the most distinct mountains in the district" />
		<tag k="name" v="Biersságielas" />
		<tag k="name:se" v="Biersságielas" />
=======
	<node id="-904814" lat="71.155347225" lon="25.701355355">
		<tag k="name" v="Røykholet" />
>>>>>>> e1d4bc35ff8a6074a6f2e91616a996b547c36f15
		<tag k="natural" v="hill" />
		<tag k="old_name:se" v="Biersagielas" />
		<tag k="place" v="locality" />
		<tag k="ssr:stedsnr" v="323124" />
	</node>
<<<<<<< HEAD
	<node lat="70.7830750110418" lon="26.28729693493685" id="-42478">
		<tag k="name" v="Basevággi" />
		<tag k="name:se" v="Basevággi" />
		<tag k="natural" v="valley" />
		<tag k="old_name:se" v="Basevaggi" />
=======
	<node id="-904813" lat="71.1633974368" lon="25.8134226756">
		<tag k="fixme" v="consider natural=peak for the most distinct mountains in the district" />
		<tag k="name" v="Hornet" />
		<tag k="natural" v="hill" />
>>>>>>> e1d4bc35ff8a6074a6f2e91616a996b547c36f15
		<tag k="place" v="locality" />
		<tag k="ssr:stedsnr" v="323177" />
	</node>
<<<<<<< HEAD
	<node lat="71.15279167296349" lon="25.7406831179493" id="-42483">
		<tag k="name" v="Røykholdalen" />
		<tag k="natural" v="valley" />
		<tag k="place" v="locality" />
		<tag k="ssr:stedsnr" v="323737" />
	</node>
	<node lat="70.88714167466115" lon="25.672910897635585" id="-42486">
		<tag k="name" v="Vesterpolldalen" />
		<tag k="natural" v="valley" />
=======
	<node id="-904809" lat="71.018319448" lon="25.6912553372">
		<tag k="fixme" v="consider natural=peak for the most distinct mountains in the district" />
		<tag k="name" v="Jalgavárri" />
		<tag k="name:se" v="Jalgavárri" />
		<tag k="natural" v="hill" />
		<tag k="old_name:se" v="Jalgavarri" />
>>>>>>> e1d4bc35ff8a6074a6f2e91616a996b547c36f15
		<tag k="place" v="locality" />
		<tag k="ssr:stedsnr" v="328569" />
	</node>
<<<<<<< HEAD
	<node lat="70.74664722940457" lon="25.604602566122665" id="-42489">
		<tag k="name" v="Strandhalsen" />
=======
	<node id="-904807" lat="71.0508138943" lon="25.3079053719">
		<tag k="name" v="Klubben" />
>>>>>>> e1d4bc35ff8a6074a6f2e91616a996b547c36f15
		<tag k="natural" v="hill" />
		<tag k="place" v="locality" />
		<tag k="ssr:stedsnr" v="332549" />
	</node>
<<<<<<< HEAD
	<node lat="70.85455278172546" lon="25.815491421283518" id="-42495">
=======
	<node id="-904806" lat="71.0700722275" lon="25.8306303277">
>>>>>>> e1d4bc35ff8a6074a6f2e91616a996b547c36f15
		<tag k="fixme" v="consider natural=peak for the most distinct mountains in the district" />
		<tag k="name" v="Smørkanna" />
		<tag k="natural" v="hill" />
		<tag k="place" v="locality" />
		<tag k="ssr:stedsnr" v="383007" />
	</node>
<<<<<<< HEAD
	<node lat="71.07857500979864" lon="25.898535878752263" id="-42501">
		<tag k="fixme" v="consider natural=peak for the most distinct mountains in the district" />
		<tag k="name" v="Trevikaksla" />
		<tag k="natural" v="hill" />
		<tag k="place" v="locality" />
		<tag k="ssr:stedsnr" v="384305" />
	</node>
	<node lat="71.10162500393416" lon="26.004680328556795" id="-42502">
=======
	<node id="-904209" lat="71.109502778" lon="25.5440581385">
		<tag k="name" v="Gampolltuvan" />
		<tag k="natural" v="hill" />
		<tag k="place" v="locality" />
		<tag k="ssr:stedsnr" v="687740" />
	</node>
	<node id="-904431" lat="70.7233777841" lon="25.5494970094">
		<tag k="fixme" v="consider natural=peak for the most distinct mountains in the district" />
		<tag k="name" v="Ádjastatháhtta" />
		<tag k="name:se" v="Ádjastatháhtta" />
		<tag k="natural" v="hill" />
		<tag k="old_name:se" v="Addjastathatta" />
		<tag k="place" v="locality" />
		<tag k="ssr:stedsnr" v="20959" />
	</node>
	<node id="-904291" lat="70.880602784" lon="25.5637747814">
>>>>>>> e1d4bc35ff8a6074a6f2e91616a996b547c36f15
		<tag k="fixme" v="consider natural=peak for the most distinct mountains in the district" />
		<tag k="name" v="Opnanaksla" />
		<tag k="natural" v="hill" />
		<tag k="place" v="locality" />
		<tag k="ssr:stedsnr" v="384310" />
	</node>
<<<<<<< HEAD
	<node lat="71.16133333658227" lon="25.680022018077896" id="-42505">
		<tag k="name" v="Svartrapet" />
=======
	<node id="-904802" lat="70.7891111181" lon="25.6526331138">
		<tag k="name" v="Vargtua - Gumppegahpir" />
		<tag k="name:no" v="Vargtua" />
		<tag k="name:se" v="Gumppegahpir" />
>>>>>>> e1d4bc35ff8a6074a6f2e91616a996b547c36f15
		<tag k="natural" v="hill" />
		<tag k="place" v="locality" />
		<tag k="ssr:stedsnr" v="384706" />
	</node>
<<<<<<< HEAD
	<node lat="70.9909777889195" lon="25.97024141660399" id="-42506">
=======
	<node id="-904801" lat="70.987419448" lon="25.9885441879">
		<tag k="alt_name" v="Storfjellet" />
>>>>>>> e1d4bc35ff8a6074a6f2e91616a996b547c36f15
		<tag k="fixme" v="consider natural=peak for the most distinct mountains in the district" />
		<tag k="name" v="Lillefjellet" />
		<tag k="natural" v="hill" />
		<tag k="place" v="locality" />
		<tag k="ssr:stedsnr" v="388300" />
	</node>
<<<<<<< HEAD
	<node lat="71.04108333809504" lon="25.906935870517305" id="-42514">
=======
	<node id="-904288" lat="70.7120694552" lon="26.187938607">
>>>>>>> e1d4bc35ff8a6074a6f2e91616a996b547c36f15
		<tag k="fixme" v="consider natural=peak for the most distinct mountains in the district" />
		<tag k="name" v="Stortind" />
		<tag k="natural" v="hill" />
		<tag k="place" v="locality" />
		<tag k="ssr:stedsnr" v="444229" />
	</node>
<<<<<<< HEAD
	<node lat="70.72691111849173" lon="26.245508042016453" id="-42516">
=======
	<node id="-904799" lat="70.8871194488" lon="25.4443386978">
>>>>>>> e1d4bc35ff8a6074a6f2e91616a996b547c36f15
		<tag k="fixme" v="consider natural=peak for the most distinct mountains in the district" />
		<tag k="name" v="Sávzačohkka" />
		<tag k="name:se" v="Sávzačohkka" />
		<tag k="natural" v="hill" />
<<<<<<< HEAD
		<tag k="old_name:se" v="Savzačåkka" />
=======
		<tag k="old_name:se" v="Jiegŋarašša" />
		<tag k="place" v="locality" />
		<tag k="ssr:stedsnr" v="566040" />
	</node>
	<node id="-904798" lat="70.8703722233" lon="25.6419720067">
		<tag k="name" v="Skuohtávži" />
		<tag k="name:se" v="Skuohtávži" />
		<tag k="natural" v="valley" />
		<tag k="old_name:se" v="Skuottavži" />
>>>>>>> e1d4bc35ff8a6074a6f2e91616a996b547c36f15
		<tag k="place" v="locality" />
		<tag k="ssr:stedsnr" v="444515" />
	</node>
<<<<<<< HEAD
	<node lat="70.75128611924067" lon="25.352672040833397" id="-42521">
		<tag k="name" v="Lávvárrápma" />
		<tag k="name:se" v="Lávvárrápma" />
		<tag k="natural" v="slope" />
		<tag k="old_name:se" v="Lauvvarramba" />
=======
	<node id="-904285" lat="71.1659555587" lon="25.6762386883">
		<tag k="alt_name" v="Ørnberget" />
		<tag k="name" v="Ørntind" />
		<tag k="natural" v="hill" />
>>>>>>> e1d4bc35ff8a6074a6f2e91616a996b547c36f15
		<tag k="place" v="locality" />
		<tag k="ssr:stedsnr" v="445086" />
	</node>
<<<<<<< HEAD
	<node lat="71.08099445297542" lon="25.865760881918355" id="-42524">
=======
	<node id="-904284" lat="70.9860444515" lon="25.7869775493">
		<tag k="alt_name" v="Svartvannstinden" />
>>>>>>> e1d4bc35ff8a6074a6f2e91616a996b547c36f15
		<tag k="fixme" v="consider natural=peak for the most distinct mountains in the district" />
		<tag k="name" v="Duksfjordfjellet" />
		<tag k="natural" v="hill" />
		<tag k="place" v="locality" />
		<tag k="ssr:stedsnr" v="445306" />
	</node>
<<<<<<< HEAD
	<node lat="71.03009445310718" lon="25.56392480524826" id="-42526">
		<tag k="fixme" v="consider natural=peak for the most distinct mountains in the district" />
		<tag k="name" v="Stohpovárri" />
		<tag k="name:se" v="Stohpovárri" />
		<tag k="natural" v="hill" />
		<tag k="old_name:se" v="Ståppuvarri" />
		<tag k="place" v="locality" />
		<tag k="ssr:stedsnr" v="445341" />
	</node>
	<node lat="70.99673611498467" lon="25.974544190317825" id="-42531">
		<tag k="fixme" v="consider natural=peak for the most distinct mountains in the district" />
		<tag k="name" v="Sandfjellet" />
=======
	<node id="-904283" lat="71.0752388966" lon="25.4373220413">
		<tag k="fixme" v="consider natural=peak for the most distinct mountains in the district" />
		<tag k="name" v="Čáhppeshárji" />
		<tag k="name:se" v="Čáhppeshárji" />
		<tag k="natural" v="hill" />
		<tag k="old_name:se" v="Čappesharji" />
		<tag k="place" v="locality" />
		<tag k="ssr:stedsnr" v="748358" />
	</node>
	<node id="-904282" lat="71.0915250062" lon="25.7328220045">
		<tag k="fixme" v="consider natural=peak for the most distinct mountains in the district" />
		<tag k="name" v="Muotkevárri" />
		<tag k="name:se" v="Muotkevárri" />
		<tag k="natural" v="hill" />
		<tag k="old_name:se" v="Muotkevarri" />
		<tag k="place" v="locality" />
		<tag k="ssr:stedsnr" v="748353" />
	</node>
	<node id="-904207" lat="70.6745527825" lon="26.0619413815">
		<tag k="fixme" v="consider natural=peak for the most distinct mountains in the district" />
		<tag k="name" v="Hårvikfjellet" />
		<tag k="natural" v="hill" />
		<tag k="place" v="locality" />
		<tag k="ssr:stedsnr" v="687557" />
	</node>
	<node id="-904791" lat="71.0884888967" lon="25.6467025651">
		<tag k="name" v="Hola" />
		<tag k="natural" v="valley" />
		<tag k="place" v="locality" />
		<tag k="ssr:stedsnr" v="565350" />
	</node>
	<node id="-904277" lat="70.8502083345" lon="25.7503886673">
		<tag k="alt_name" v="Porsangvikfjellan" />
		<tag k="fixme" v="consider natural=peak for the most distinct mountains in the district" />
		<tag k="name" v="Porsangnesryggen" />
		<tag k="natural" v="hill" />
		<tag k="place" v="locality" />
		<tag k="ssr:stedsnr" v="748004" />
	</node>
	<node id="-904788" lat="71.0692027837" lon="25.7555470077">
		<tag k="fixme" v="consider natural=peak for the most distinct mountains in the district" />
		<tag k="name" v="Tufjordbotn - Heargečohkka" />
		<tag k="name:no" v="Tufjordbotn" />
		<tag k="name:se" v="Heargečohkka" />
		<tag k="natural" v="hill" />
		<tag k="old_name:se" v="Hærgečåkka" />
		<tag k="place" v="locality" />
		<tag k="ssr:stedsnr" v="565301" />
	</node>
	<node id="-904787" lat="71.0543583414" lon="25.98920253">
		<tag k="name" v="Snagtuva" />
>>>>>>> e1d4bc35ff8a6074a6f2e91616a996b547c36f15
		<tag k="natural" v="hill" />
		<tag k="place" v="locality" />
		<tag k="ssr:stedsnr" v="449314" />
	</node>
<<<<<<< HEAD
	<node lat="70.84240833789465" lon="25.82249699573413" id="-42535">
		<tag k="name" v="Bergenasen" />
		<tag k="place" v="locality" />
		<tag k="ssr:stedsnr" v="450519" />
	</node>
	<node lat="71.0718083372064" lon="25.737788674142248" id="-42544">
		<tag k="alt_name" v="Ramnflåget" />
		<tag k="name" v="Ramnfloget" />
		<tag k="natural" v="valley" />
		<tag k="place" v="locality" />
		<tag k="ssr:stedsnr" v="505376" />
	</node>
	<node lat="70.94735555718786" lon="25.523477567312657" id="-42547">
		<tag k="name" v="Sildtoppen - Oammačohkka" />
		<tag k="name:no" v="Sildtoppen" />
		<tag k="name:se" v="Oammačohkka" />
=======
	<node id="-904783" lat="71.0059305646" lon="26.04596086">
		<tag k="alt_name" v="Falkeberget" />
		<tag k="fixme" v="consider natural=peak for the most distinct mountains in the district" />
		<tag k="name" v="Falkberget" />
>>>>>>> e1d4bc35ff8a6074a6f2e91616a996b547c36f15
		<tag k="natural" v="hill" />
		<tag k="old_name:se" v="Oammačåkka" />
		<tag k="place" v="locality" />
<<<<<<< HEAD
		<tag k="ssr:stedsnr" v="505478" />
	</node>
	<node lat="70.74536944620368" lon="25.678194222778174" id="-42552">
		<tag k="name" v="Nordfarhaugen" />
		<tag k="natural" v="hill" />
		<tag k="place" v="locality" />
		<tag k="ssr:stedsnr" v="513583" />
	</node>
	<node lat="70.7489027809386" lon="25.663091451434838" id="-42555">
		<tag k="name" v="Svartberget" />
=======
		<tag k="ssr:stedsnr" v="565265" />
	</node>
	<node id="-904269" lat="70.7698361177" lon="25.6113358815">
		<tag k="name" v="Seterbergan" />
		<tag k="natural" v="hill" />
		<tag k="place" v="locality" />
		<tag k="ssr:stedsnr" v="696717" />
	</node>
	<node id="-904780" lat="70.8870833349" lon="25.8290219904">
		<tag k="name" v="Lille Porsangvikdalen" />
		<tag k="natural" v="valley" />
		<tag k="old_name" v="Porsangvikdalen, l" />
		<tag k="place" v="locality" />
		<tag k="ssr:stedsnr" v="565162" />
	</node>
	<node id="-904295" lat="70.967266677" lon="26.6800802219">
		<tag k="fixme" v="consider natural=peak for the most distinct mountains in the district" />
		<tag k="name" v="Sværholtklubben - Spierta" />
		<tag k="name:no" v="Sværholtklubben" />
		<tag k="name:se" v="Spierta" />
		<tag k="natural" v="hill" />
		<tag k="place" v="locality" />
		<tag k="ssr:stedsnr" v="930145" />
	</node>
	<node id="-904289" lat="71.0858000075" lon="25.9667358648">
		<tag k="fixme" v="consider natural=peak for the most distinct mountains in the district" />
		<tag k="name" v="Bryggeaksla" />
		<tag k="natural" v="hill" />
		<tag k="place" v="locality" />
		<tag k="ssr:stedsnr" v="809312" />
	</node>
	<node id="-904772" lat="70.9531861208" lon="26.6165107958">
		<tag k="name" v="Russemola" />
		<tag k="natural" v="valley" />
		<tag k="place" v="locality" />
		<tag k="ssr:stedsnr" v="565127" />
	</node>
	<node id="-904771" lat="70.7596666748" lon="26.1828108388">
		<tag k="name" v="Musvåkdalen" />
		<tag k="natural" v="valley" />
		<tag k="place" v="locality" />
		<tag k="ssr:stedsnr" v="565124" />
	</node>
	<node id="-904770" lat="70.8359861163" lon="25.6917053407">
		<tag k="fixme" v="consider natural=peak for the most distinct mountains in the district" />
		<tag k="name" v="Gávkoaivvit" />
		<tag k="name:se" v="Gávkoaivvit" />
>>>>>>> e1d4bc35ff8a6074a6f2e91616a996b547c36f15
		<tag k="natural" v="hill" />
		<tag k="place" v="locality" />
		<tag k="ssr:stedsnr" v="514594" />
	</node>
<<<<<<< HEAD
	<node lat="70.73948889597288" lon="25.601605347226684" id="-42556">
		<tag k="name" v="Vedbotndalen" />
		<tag k="natural" v="valley" />
		<tag k="place" v="locality" />
		<tag k="ssr:stedsnr" v="514718" />
	</node>
	<node lat="70.83693889413227" lon="25.65823032167638" id="-42562">
		<tag k="name" v="Kåfjorddalen - Gávkevággi" />
		<tag k="name:no" v="Kåfjorddalen" />
		<tag k="name:se" v="Gávkevággi" />
		<tag k="natural" v="valley" />
		<tag k="old_name:se" v="Gavkevaggi" />
		<tag k="place" v="locality" />
		<tag k="ssr:stedsnr" v="687121" />
	</node>
	<node lat="70.75585000875218" lon="26.192255266011347" id="-42563">
		<tag k="fixme" v="consider natural=peak for the most distinct mountains in the district" />
		<tag k="name" v="Breikrangel" />
=======
	<node id="-904253" lat="70.9920972283" lon="26.061130314">
		<tag k="name" v="Nordvågdalen" />
		<tag k="natural" v="valley" />
		<tag k="place" v="locality" />
		<tag k="ssr:stedsnr" v="648706" />
	</node>
	<node id="-904116" lat="71.0755583395" lon="25.6795720155">
		<tag k="fixme" v="consider natural=peak for the most distinct mountains in the district" />
		<tag k="name" v="Irevuončohkka" />
		<tag k="name:se" v="Irevuončohkka" />
		<tag k="natural" v="hill" />
		<tag k="old_name:se" v="Irevuončåkka" />
		<tag k="place" v="locality" />
		<tag k="ssr:stedsnr" v="505378" />
	</node>
	<node id="-904754" lat="71.0554333393" lon="25.8911219975">
		<tag k="name" v="Krikken" />
		<tag k="place" v="locality" />
		<tag k="ssr:stedsnr" v="389238" />
	</node>
	<node id="-904371" lat="70.8771194481" lon="25.6233081134">
		<tag k="fixme" v="consider natural=peak for the most distinct mountains in the district" />
		<tag k="name" v="Davit Skuohtagáisá" />
		<tag k="name:se" v="Davit Skuohtagáisá" />
>>>>>>> e1d4bc35ff8a6074a6f2e91616a996b547c36f15
		<tag k="natural" v="hill" />
		<tag k="old_name:se" v="Skuottagaisa, davit" />
		<tag k="place" v="locality" />
<<<<<<< HEAD
		<tag k="ssr:stedsnr" v="687134" />
	</node>
	<node lat="70.8232027843329" lon="26.29307192252187" id="-42564">
		<tag k="fixme" v="consider natural=peak for the most distinct mountains in the district" />
		<tag k="name" v="Flatvikfjellet" />
		<tag k="natural" v="hill" />
		<tag k="place" v="locality" />
		<tag k="ssr:stedsnr" v="687156" />
	</node>
	<node lat="70.88515834015895" lon="25.858166441896522" id="-42565">
=======
		<tag k="ssr:stedsnr" v="930018" />
	</node>
	<node id="-904240" lat="70.9982861154" lon="26.0384580884">
		<tag k="name" v="Valanhalsen" />
		<tag k="natural" v="valley" />
		<tag k="place" v="locality" />
		<tag k="ssr:stedsnr" v="571469" />
	</node>
	<node id="-903972" lat="70.8674750075" lon="26.5836524384">
		<tag k="fixme" v="consider natural=peak for the most distinct mountains in the district" />
		<tag k="name" v="Tømmervikfjellet - Muvroaivi" />
		<tag k="name:no" v="Tømmervikfjellet" />
		<tag k="name:se" v="Muvroaivi" />
		<tag k="natural" v="hill" />
		<tag k="place" v="locality" />
		<tag k="ssr:stedsnr" v="266148" />
	</node>
	<node id="-904749" lat="70.8187972333" lon="26.4350330338">
		<tag k="fixme" v="consider natural=peak for the most distinct mountains in the district" />
		<tag k="name" v="Russevikfjellet - Stuorra Giđđa" />
		<tag k="name:no" v="Russevikfjellet" />
		<tag k="name:se" v="Stuorra Giđđa" />
		<tag k="natural" v="hill" />
		<tag k="old_name:se" v="Giđđa, stuorra;Gidda, stuorra" />
		<tag k="place" v="locality" />
		<tag k="ssr:stedsnr" v="388133" />
	</node>
	<node id="-904037" lat="71.0881972286" lon="25.5911609229">
		<tag k="fixme" v="consider natural=peak for the most distinct mountains in the district" />
		<tag k="name" v="Rissevuončohkat" />
		<tag k="name:se" v="Rissevuončohkat" />
		<tag k="natural" v="hill" />
		<tag k="old_name:se" v="Rissevuončåkkat" />
		<tag k="place" v="locality" />
		<tag k="ssr:stedsnr" v="445373" />
	</node>
	<node id="-904743" lat="71.0777388941" lon="25.6211803591">
>>>>>>> e1d4bc35ff8a6074a6f2e91616a996b547c36f15
		<tag k="fixme" v="consider natural=peak for the most distinct mountains in the district" />
		<tag k="name" v="Molfjellet" />
		<tag k="natural" v="hill" />
		<tag k="place" v="locality" />
<<<<<<< HEAD
		<tag k="ssr:stedsnr" v="687178" />
	</node>
	<node lat="70.95851111978494" lon="25.63057757038699" id="-42576">
		<tag k="fixme" v="consider natural=peak for the most distinct mountains in the district" />
		<tag k="name" v="Doaresvárri" />
		<tag k="name:se" v="Doaresvárri" />
		<tag k="natural" v="hill" />
		<tag k="old_name:se" v="Doaresvarri" />
		<tag k="place" v="locality" />
		<tag k="ssr:stedsnr" v="687451" />
	</node>
	<node lat="70.67455278253415" lon="26.061941381508014" id="-42580">
=======
		<tag k="ssr:stedsnr" v="384379" />
	</node>
	<node id="-904230" lat="70.8482916701" lon="25.8563275409">
		<tag k="name" v="Indre Morthollia" />
		<tag k="natural" v="slope" />
		<tag k="place" v="locality" />
		<tag k="ssr:stedsnr" v="693531" />
	</node>
	<node id="-904027" lat="70.7920055645" lon="25.5164303547">
		<tag k="name" v="Ruovddat" />
		<tag k="name:se" v="Ruovddat" />
		<tag k="natural" v="valley" />
		<tag k="old_name:se" v="Ruovdat" />
		<tag k="place" v="locality" />
		<tag k="ssr:stedsnr" v="445100" />
	</node>
	<node id="-904736" lat="70.7841694491" lon="25.4668497964">
>>>>>>> e1d4bc35ff8a6074a6f2e91616a996b547c36f15
		<tag k="fixme" v="consider natural=peak for the most distinct mountains in the district" />
		<tag k="name" v="Hårvikfjellet" />
		<tag k="natural" v="hill" />
		<tag k="place" v="locality" />
		<tag k="ssr:stedsnr" v="687557" />
	</node>
<<<<<<< HEAD
	<node lat="71.00593056462684" lon="26.045960860028085" id="-42592">
		<tag k="alt_name" v="Falkeberget" />
=======
	<node id="-904006" lat="70.7870055642" lon="25.7383581098">
		<tag k="name" v="Sennaberget" />
		<tag k="natural" v="hill" />
		<tag k="place" v="locality" />
		<tag k="ssr:stedsnr" v="211706" />
	</node>
	<node id="-904889" lat="70.8483611143" lon="25.8276914282">
		<tag k="name" v="Svarthola" />
		<tag k="natural" v="valley" />
		<tag k="place" v="locality" />
		<tag k="ssr:stedsnr" v="875540" />
	</node>
	<node id="-904732" lat="70.9963138972" lon="26.0256553184">
>>>>>>> e1d4bc35ff8a6074a6f2e91616a996b547c36f15
		<tag k="fixme" v="consider natural=peak for the most distinct mountains in the district" />
		<tag k="name" v="Falkberget" />
		<tag k="natural" v="hill" />
		<tag k="place" v="locality" />
		<tag k="ssr:stedsnr" v="565265" />
	</node>
<<<<<<< HEAD
	<node lat="71.10866388967821" lon="25.51384704049782" id="-42595">
		<tag k="name" v="Gampollaksla" />
=======
	<node id="-904794" lat="71.1086638897" lon="25.5138470405">
		<tag k="name" v="Gampollaksla" />
		<tag k="natural" v="hill" />
		<tag k="place" v="locality" />
		<tag k="ssr:stedsnr" v="565731" />
	</node>
	<node id="-904292" lat="70.895730563" lon="25.6535303507">
		<tag k="fixme" v="consider natural=peak for the most distinct mountains in the district" />
		<tag k="name" v="Njárgageašrášša" />
		<tag k="name:se" v="Njárgageašrášša" />
>>>>>>> e1d4bc35ff8a6074a6f2e91616a996b547c36f15
		<tag k="natural" v="hill" />
		<tag k="old_name:se" v="Njargagæšrašša" />
		<tag k="place" v="locality" />
<<<<<<< HEAD
		<tag k="ssr:stedsnr" v="565731" />
	</node>
	<node lat="71.07007222749648" lon="25.830630327714257" id="-42602">
=======
		<tag k="ssr:stedsnr" v="930043" />
	</node>
	<node id="-904725" lat="71.118550002" lon="25.7148886912">
>>>>>>> e1d4bc35ff8a6074a6f2e91616a996b547c36f15
		<tag k="fixme" v="consider natural=peak for the most distinct mountains in the district" />
		<tag k="name" v="Duken" />
		<tag k="natural" v="hill" />
		<tag k="place" v="locality" />
		<tag k="ssr:stedsnr" v="566321" />
	</node>
<<<<<<< HEAD
	<node lat="71.1633974368295" lon="25.813422675560698" id="-42604">
		<tag k="fixme" v="consider natural=peak for the most distinct mountains in the district" />
		<tag k="name" v="Hornet" />
		<tag k="natural" v="hill" />
		<tag k="place" v="locality" />
		<tag k="ssr:stedsnr" v="566704" />
	</node>
	<node lat="71.15534722503543" lon="25.701355354950323" id="-42605">
		<tag k="name" v="Røykholet" />
=======
	<node id="-904872" lat="70.8709527854" lon="26.3839358059">
		<tag k="fixme" v="consider natural=peak for the most distinct mountains in the district" />
		<tag k="name" v="Storenga - Eanavárri" />
		<tag k="name:no" v="Storenga" />
		<tag k="name:se" v="Eanavárri" />
		<tag k="natural" v="hill" />
		<tag k="old_name:se" v="Ænavarri" />
		<tag k="place" v="locality" />
		<tag k="ssr:stedsnr" v="631133" />
	</node>
	<node id="-904722" lat="70.7035166735" lon="26.0704497375">
		<tag k="fixme" v="consider natural=peak for the most distinct mountains in the district" />
		<tag k="name" v="Ápmir" />
		<tag k="name:se" v="Ápmir" />
		<tag k="natural" v="hill" />
		<tag k="old_name:se" v="Abmir" />
		<tag k="place" v="locality" />
		<tag k="ssr:stedsnr" v="383546" />
	</node>
	<node id="-904451" lat="70.8610861189" lon="25.8744803191">
		<tag k="name" v="Indre Porsangåsen" />
		<tag k="natural" v="hill" />
		<tag k="place" v="locality" />
		<tag k="ssr:stedsnr" v="48733" />
	</node>
	<node id="-904720" lat="70.9655638931" lon="25.4980442551">
		<tag k="name" v="Girsavággi" />
		<tag k="name:se" v="Girsavággi" />
		<tag k="natural" v="valley" />
		<tag k="old_name:se" v="Girsavaggi" />
		<tag k="place" v="locality" />
		<tag k="ssr:stedsnr" v="383480" />
	</node>
	<node id="-904719" lat="71.0490527819" lon="25.8616081008">
		<tag k="alt_name" v="Sætertind" />
		<tag k="fixme" v="consider natural=peak for the most distinct mountains in the district" />
		<tag k="name" v="Rishamntind" />
>>>>>>> e1d4bc35ff8a6074a6f2e91616a996b547c36f15
		<tag k="natural" v="hill" />
		<tag k="place" v="locality" />
		<tag k="ssr:stedsnr" v="566707" />
	</node>
<<<<<<< HEAD
	<node lat="70.8447111178825" lon="26.507888570212167" id="-42609">
		<tag k="fixme" v="consider natural=peak for the most distinct mountains in the district" />
		<tag k="name" v="Blåfjellet - Uhca Giđđa" />
		<tag k="name:no" v="Blåfjellet" />
		<tag k="name:se" v="Uhca Giđđa" />
=======
	<node id="-904752" lat="70.9909777889" lon="25.9702414166">
		<tag k="fixme" v="consider natural=peak for the most distinct mountains in the district" />
		<tag k="name" v="Lillefjellet" />
>>>>>>> e1d4bc35ff8a6074a6f2e91616a996b547c36f15
		<tag k="natural" v="hill" />
		<tag k="old_name:se" v="Giđđa, ucca" />
		<tag k="place" v="locality" />
<<<<<<< HEAD
		<tag k="ssr:stedsnr" v="570111" />
=======
		<tag k="ssr:stedsnr" v="388300" />
	</node>
	<node id="-904203" lat="70.9585111198" lon="25.6305775704">
		<tag k="fixme" v="consider natural=peak for the most distinct mountains in the district" />
		<tag k="name" v="Doaresvárri" />
		<tag k="name:se" v="Doaresvárri" />
		<tag k="natural" v="hill" />
		<tag k="old_name:se" v="Doaresvarri" />
		<tag k="place" v="locality" />
		<tag k="ssr:stedsnr" v="687451" />
	</node>
	<node id="-904200" lat="71.0023972321" lon="25.5762497871">
		<tag k="fixme" v="consider natural=peak for the most distinct mountains in the district" />
		<tag k="name" v="Nealgesokkečohkka" />
		<tag k="name:se" v="Nealgesokkečohkka" />
		<tag k="natural" v="hill" />
		<tag k="old_name:se" v="Nælgesåggečåkka" />
		<tag k="place" v="locality" />
		<tag k="ssr:stedsnr" v="687344" />
	</node>
	<node id="-904462" lat="71.0427472304" lon="25.8557608792">
		<tag k="fixme" v="consider natural=peak for the most distinct mountains in the district" />
		<tag k="name" v="Fisketind" />
		<tag k="natural" v="hill" />
		<tag k="place" v="locality" />
		<tag k="ssr:stedsnr" v="80266" />
	</node>
	<node id="-904708" lat="70.854988898" lon="25.5932664564">
		<tag k="fixme" v="consider natural=peak for the most distinct mountains in the district" />
		<tag k="name" v="Fisketind" />
		<tag k="natural" v="hill" />
		<tag k="place" v="locality" />
		<tag k="ssr:stedsnr" v="383022" />
	</node>
	<node id="-904706" lat="70.8545527817" lon="25.8154914213">
		<tag k="fixme" v="consider natural=peak for the most distinct mountains in the district" />
		<tag k="name" v="Smørkanna" />
		<tag k="natural" v="hill" />
		<tag k="place" v="locality" />
		<tag k="ssr:stedsnr" v="383007" />
	</node>
	<node id="-904193" lat="71.0557027861" lon="25.8732775453">
		<tag k="fixme" v="consider natural=peak for the most distinct mountains in the district" />
		<tag k="name" v="Kriktind" />
		<tag k="natural" v="hill" />
		<tag k="place" v="locality" />
		<tag k="ssr:stedsnr" v="687297" />
>>>>>>> e1d4bc35ff8a6074a6f2e91616a996b547c36f15
	</node>
</osm>
