<?xml version="1.0" encoding="UTF-8"?>
<osm version="0.6" generator="osmapis">
	<node lat="71.10156111277583" lon="25.362160931246283" id="-52290">
		<tag k="name" v="Nordhamn" />
		<tag k="place" v="locality" />
		<tag k="ssr:stedsnr" v="267263" />
	</node>
	<node lat="71.09926388971324" lon="25.38433593282203" id="-52401">
		<tag k="man_made" v="quay" />
		<tag k="name" v="Nygård" />
		<tag k="place" v="locality" />
		<tag k="ssr:stedsnr" v="393110" />
	</node>
	<node lat="71.0089916716375" lon="25.97798307585737" id="-52836">
		<tag k="aeroway" v="aerodrome" />
		<tag k="alt_name" v="Valan" />
		<tag k="name" v="Honningsvåg lufthavn, Valan" />
		<tag k="old_name" v="Honningsvåg lufthavn" />
		<tag k="ssr:stedsnr" v="206315" />
	</node>
	<node lat="71.10111111812792" lon="25.39336926973265" id="-52945">
		<tag k="landuse" v="harbour" />
		<tag k="name" v="Gjesværhamna" />
		<tag k="seamark:type" v="harbour" />
		<tag k="ssr:stedsnr" v="388271" />
	</node>
	<node lat="71.04844445025854" lon="25.907258103964452" id="-53033">
		<tag k="leisure" v="marina" />
		<tag k="name" v="Russehamn" />
		<tag k="ssr:stedsnr" v="511270" />
	</node>
	<node lat="70.98031955544954" lon="25.97267693356662" id="-53322">
		<tag k="man_made" v="monitoring_station" />
		<tag k="monitoring:water_Level" v="yes" />
		<tag k="name" v="Honningsvåg vannstandsmåler" />
		<tag k="ssr:stedsnr" v="1082345" />
	</node>
</osm>
