<?xml version="1.0" encoding="UTF-8"?>
<osm generator="osmapis" version="0.6">
	<node id="-92156" lat="70.1062611099" lon="20.1009499941">
		<tag k="name" v="Risdalselva" />
		<tag k="ssr:stedsnr" v="112064" />
		<tag k="waterway" v="stream" />
	</node>
	<node id="-90107" lat="70.1905555587" lon="19.6495194381">
		<tag k="name" v="Martinelva" />
		<tag k="ssr:stedsnr" v="233390" />
		<tag k="waterway" v="stream" />
	</node>
	<node id="-90103" lat="70.268597226" lon="19.5765694264">
		<tag k="name" v="Steinvollelva" />
		<tag k="ssr:stedsnr" v="233363" />
		<tag k="waterway" v="stream" />
	</node>
	<node id="-94186" lat="70.2237865979" lon="19.1811819564">
		<tag k="name" v="Mellahalsen" />
		<tag k="natural" v="strait" />
		<tag k="ssr:stedsnr" v="984319" />
	</node>
	<node id="-94181" lat="69.9717694399" lon="19.1590027762">
		<tag k="name" v="Finngamelva" />
		<tag k="ssr:stedsnr" v="961987" />
		<tag k="waterway" v="stream" />
	</node>
	<node id="-92131" lat="70.2577250027" lon="19.7618999939">
		<tag k="name" v="Nakkevatnan" />
		<tag k="natural" v="water" />
		<tag k="ssr:stedsnr" v="111447" />
		<tag k="water" v="lake" />
	</node>
	<node id="-90082" lat="69.9543499981" lon="19.3492055401">
		<tag k="name" v="Straumvatnet" />
		<tag k="natural" v="water" />
		<tag k="ssr:stedsnr" v="233178" />
	</node>
	<node id="-92155" lat="70.1838277807" lon="19.8783860944">
		<tag k="name" v="Lomvatnet" />
		<tag k="natural" v="water" />
		<tag k="ssr:stedsnr" v="112127" />
	</node>
	<node id="-94176" lat="70.0559138915" lon="19.0459138808">
		<tag k="name" v="Oksevatnan" />
		<tag k="natural" v="water" />
		<tag k="ssr:stedsnr" v="961843" />
		<tag k="water" v="lake" />
	</node>
	<node id="-90077" lat="69.9682611151" lon="19.1289027623">
		<tag k="name" v="Steinsundholmen" />
		<tag k="place" v="islet" />
		<tag k="ssr:stedsnr" v="232980" />
	</node>
	<node id="-90076" lat="69.9894805579" lon="19.1283888935">
		<tag k="name" v="Rødsteinholmen" />
		<tag k="place" v="islet" />
		<tag k="ssr:stedsnr" v="232887" />
	</node>
	<node id="-90075" lat="69.9853499977" lon="19.0933777774">
		<tag k="name" v="Dvesebukta" />
		<tag k="natural" v="bay" />
		<tag k="ssr:stedsnr" v="232882" />
	</node>
	<node id="-94170" lat="70.1219388877" lon="18.9921027769">
		<tag k="name" v="Rødbergvatnet" />
		<tag k="natural" v="water" />
		<tag k="ssr:stedsnr" v="961639" />
	</node>
	<node id="-92119" lat="70.1236333327" lon="19.4475305568">
		<tag k="name" v="Skoltevatnet" />
		<tag k="natural" v="water" />
		<tag k="ssr:stedsnr" v="111201" />
	</node>
	<node id="-94166" lat="70.2194083318" lon="19.6504888868">
		<tag k="name" v="Tvinnarvatn" />
		<tag k="natural" v="water" />
		<tag k="ssr:stedsnr" v="961700" />
	</node>
	<node id="-94165" lat="70.2163749966" lon="19.6266194395">
		<tag k="name" v="Kjerringdalelva" />
		<tag k="ssr:stedsnr" v="961695" />
		<tag k="waterway" v="stream" />
	</node>
	<node id="-92109" lat="70.1052361122" lon="20.0672360908">
		<tag k="name" v="Jøvikelva" />
		<tag k="ssr:stedsnr" v="111053" />
		<tag k="waterway" v="stream" />
	</node>
	<node id="-94150" lat="70.0220611152" lon="18.9913666654">
		<tag k="name" v="Tisnestjønnan" />
		<tag k="natural" v="water" />
		<tag k="ssr:stedsnr" v="961233" />
	</node>
	<node id="-94148" lat="69.9856638873" lon="19.5268194326">
		<tag k="name" v="Pesselva" />
		<tag k="ssr:stedsnr" v="961202" />
		<tag k="waterway" v="stream" />
	</node>
	<node id="-94144" lat="70.0154777746" lon="19.0877638887">
		<tag k="name" v="Lilleelva" />
		<tag k="ssr:stedsnr" v="961191" />
		<tag k="waterway" v="stream" />
	</node>
	<node id="-92095" lat="70.0000000026" lon="18.8198416561">
		<tag k="name" v="Merraelvvatnet" />
		<tag k="natural" v="water" />
		<tag k="ssr:stedsnr" v="110394" />
	</node>
	<node id="-90046" lat="70.2205083312" lon="19.1900444387">
		<tag k="name" v="Skarvatnet" />
		<tag k="natural" v="water" />
		<tag k="ssr:stedsnr" v="232226" />
	</node>
	<node id="-90045" lat="69.9966055522" lon="19.4020916528">
		<tag k="name" v="Smalelva" />
		<tag k="ssr:stedsnr" v="232151" />
		<tag k="waterway" v="stream" />
	</node>
	<node id="-94138" lat="70.22225833" lon="19.5216055458">
		<tag k="name" v="Dalelva" />
		<tag k="ssr:stedsnr" v="960795" />
		<tag k="waterway" v="stream" />
	</node>
	<node id="-90038" lat="69.995388888" lon="19.6260805443">
		<tag k="name" v="Lomvatnet" />
		<tag k="natural" v="water" />
		<tag k="ssr:stedsnr" v="232010" />
	</node>
	<node id="-94131" lat="69.9032499962" lon="19.5084833216">
		<tag k="name" v="Nordbuelva" />
		<tag k="ssr:stedsnr" v="960777" />
		<tag k="waterway" v="stream" />
	</node>
	<node id="-90031" lat="69.8565527781" lon="19.5093749846">
		<tag k="name" v="Første Tverrelva" />
		<tag k="ssr:stedsnr" v="231078" />
		<tag k="waterway" v="stream" />
	</node>
	<node id="-94118" lat="69.9050888886" lon="19.769330544">
		<tag k="name" v="Gårdselva" />
		<tag k="ssr:stedsnr" v="960037" />
		<tag k="waterway" v="stream" />
	</node>
	<node id="-94114" lat="69.8746527809" lon="19.6741944465">
		<tag k="name" v="Lomvatnet" />
		<tag k="natural" v="water" />
		<tag k="ssr:stedsnr" v="959989" />
	</node>
	<node id="-94112" lat="69.8554527821" lon="19.6854499922">
		<tag k="name" v="Storskredelva" />
		<tag k="ssr:stedsnr" v="959963" />
		<tag k="waterway" v="stream" />
	</node>
	<node id="-94110" lat="69.8775638851" lon="19.4019305562">
		<tag k="name" v="Åborelva" />
		<tag k="ssr:stedsnr" v="959112" />
		<tag k="waterway" v="stream" />
	</node>
	<node id="-94108" lat="69.8587277759" lon="19.4972222035">
		<tag k="name" v="Fjerde Tverrelva" />
		<tag k="ssr:stedsnr" v="959066" />
		<tag k="waterway" v="stream" />
	</node>
	<node id="-90010" lat="70.1451333353" lon="19.8288472134">
		<tag k="name" v="Steinvatnet" />
		<tag k="natural" v="water" />
		<tag k="ssr:stedsnr" v="19920" />
	</node>
	<node id="-94105" lat="69.8605888916" lon="19.5135916657">
		<tag k="name" v="Første Tverrelva" />
		<tag k="ssr:stedsnr" v="959023" />
		<tag k="waterway" v="stream" />
	</node>
	<node id="-92053" lat="70.1713583338" lon="19.9674583249">
		<tag k="name" v="Ravikvatnet" />
		<tag k="natural" v="water" />
		<tag k="ssr:stedsnr" v="80930" />
	</node>
	<node id="-90001" lat="70.2416583309" lon="19.6353694298">
		<tag k="name" v="Breivikvatnet" />
		<tag k="natural" v="water" />
		<tag k="ssr:stedsnr" v="19609" />
	</node>
	<node id="-89999" lat="70.1176000042" lon="18.9892805552">
		<tag k="name" v="Kistevatnet" />
		<tag k="natural" v="water" />
		<tag k="ssr:stedsnr" v="19533" />
	</node>
	<node id="-92046" lat="69.9786666704" lon="19.0121416596">
		<tag k="name" v="Skogsfjordeidet" />
		<tag k="natural" v="strait" />
		<tag k="ssr:stedsnr" v="80887" />
	</node>
	<node id="-92044" lat="69.9766527783" lon="19.0102638831">
		<tag k="name" v="Langvatnet" />
		<tag k="natural" v="water" />
		<tag k="ssr:stedsnr" v="80880" />
	</node>
	<node id="-89995" lat="69.9371749994" lon="19.7253083207">
		<tag k="name" v="Heielva" />
		<tag k="ssr:stedsnr" v="19520" />
		<tag k="waterway" v="stream" />
	</node>
	<node id="-89993" lat="69.9062499981" lon="19.5291666686">
		<tag k="name" v="Rakkeneselva" />
		<tag k="ssr:stedsnr" v="19512" />
		<tag k="waterway" v="stream" />
	</node>
	<node id="-92036" lat="70.2253222215" lon="19.6572000022">
		<tag k="alt_name" v="Båtnesvatn" />
		<tag k="name" v="Båtnesvatnet" />
		<tag k="natural" v="water" />
		<tag k="ssr:stedsnr" v="80850" />
	</node>
	<node id="-92035" lat="69.9546583358" lon="19.1949777593">
		<tag k="name" v="Lomstjørna" />
		<tag k="natural" v="water" />
		<tag k="ssr:stedsnr" v="80841" />
	</node>
	<node id="-92034" lat="69.9492055548" lon="19.1796027692">
		<tag k="name" v="Innerodden" />
		<tag k="natural" v="cape" />
		<tag k="ssr:stedsnr" v="80840" />
	</node>
	<node id="-94080" lat="69.9850391236" lon="19.3658507464">
		<tag k="name" v="Storelva" />
		<tag k="ssr:stedsnr" v="870496" />
		<tag k="waterway" v="river" />
	</node>
	<node id="-92030" lat="70.1205749983" lon="19.3611333227">
		<tag k="name" v="Kleelva" />
		<tag k="ssr:stedsnr" v="80807" />
		<tag k="waterway" v="stream" />
	</node>
	<node id="-94077" lat="70.0629194445" lon="19.7739777727">
		<tag k="name" v="Langneselva" />
		<tag k="ssr:stedsnr" v="869979" />
		<tag k="waterway" v="stream" />
	</node>
	<node id="-94075" lat="69.9387027767" lon="19.1350222035">
		<tag k="name" v="Kårvikbukta" />
		<tag k="natural" v="bay" />
		<tag k="ssr:stedsnr" v="869844" />
	</node>
	<node id="-94073" lat="70.0730305542" lon="19.7938638808">
		<tag k="name" v="Langnesvatnet" />
		<tag k="natural" v="water" />
		<tag k="ssr:stedsnr" v="869813" />
	</node>
	<node id="-92024" lat="69.8633111103" lon="19.5800916547">
		<tag k="name" v="Lægdeskarvatnet" />
		<tag k="natural" v="water" />
		<tag k="ssr:stedsnr" v="80758" />
	</node>
	<node id="-92021" lat="70.0177666638" lon="18.8869527748">
		<tag k="fixme" v="multiple name tags, choose one and add the other to alt_name" />
		<tag k="name" v="Dalsbergvatnet;Dalskarvatnet" />
		<tag k="natural" v="water" />
		<tag k="ssr:stedsnr" v="80681" />
	</node>
	<node id="-92015" lat="69.9899611138" lon="19.7715416525">
		<tag k="name" v="Urvatnet" />
		<tag k="natural" v="water" />
		<tag k="ssr:stedsnr" v="80629" />
	</node>
	<node id="-92012" lat="69.9822444424" lon="19.3153055344">
		<tag k="name" v="Rundvatnet" />
		<tag k="natural" v="water" />
		<tag k="ssr:stedsnr" v="80607" />
	</node>
	<node id="-92005" lat="70.1056805586" lon="18.7116527863">
		<tag k="name" v="Vassdalsvatnet" />
		<tag k="natural" v="water" />
		<tag k="ssr:stedsnr" v="80569" />
	</node>
	<node id="-92003" lat="69.9430527798" lon="19.3315166495">
		<tag k="alt_name" v="Rundhaugsvatnet" />
		<tag k="name" v="Rundhaugvatnet" />
		<tag k="natural" v="water" />
		<tag k="ssr:stedsnr" v="80554" />
	</node>
	<node id="-94040" lat="69.9711111079" lon="19.5905444267">
		<tag k="alt_name" v="Grågardelva" />
		<tag k="name" v="Grågårdselva" />
		<tag k="ssr:stedsnr" v="869616" />
		<tag k="waterway" v="stream" />
	</node>
	<node id="-94038" lat="70.1248472238" lon="19.0948555419">
		<tag k="alt_name" v="Mollvikelva" />
		<tag k="name" v="Molvikelva" />
		<tag k="ssr:stedsnr" v="869613" />
		<tag k="waterway" v="stream" />
	</node>
	<node id="-94036" lat="69.9260027824" lon="19.4198583186">
		<tag k="name" v="Fjellfinnvatnet" />
		<tag k="natural" v="water" />
		<tag k="ssr:stedsnr" v="869596" />
	</node>
	<node id="-91790" lat="69.8911055521" lon="19.6464749967">
		<tag k="name" v="Finnvatnet" />
		<tag k="natural" v="water" />
		<tag k="ssr:stedsnr" v="19716" />
	</node>
	<node id="-94179" lat="69.9547944494" lon="19.194597206">
		<tag k="name" v="Øvre Lomstjønna" />
		<tag k="natural" v="water" />
		<tag k="ssr:stedsnr" v="961948" />
	</node>
	<node id="-94031" lat="69.8993499954" lon="19.3829527776">
		<tag k="name" v="Kopparvatnet" />
		<tag k="natural" v="water" />
		<tag k="ssr:stedsnr" v="869558" />
		<tag k="water" v="lake" />
	</node>
	<node id="-91977" lat="69.9792138845" lon="19.0932277801">
		<tag k="name" v="Skogsfjordvatnet - Gusmmorjávri" />
		<tag k="name:no" v="Skogsfjordvatnet" />
		<tag k="name:se" v="Gusmmorjávri" />
		<tag k="natural" v="water" />
		<tag k="ssr:stedsnr" v="79811" />
		<tag k="water" v="lake" />
	</node>
	<node id="-91975" lat="69.8681416679" lon="19.1372222044">
		<tag k="alt_name:no" v="Isvatnet, nordre" />
		<tag k="name" v="Nordre Isvatnet - Imajávri" />
		<tag k="name:no" v="Nordre Isvatnet" />
		<tag k="name:se" v="Imajávri" />
		<tag k="natural" v="water" />
		<tag k="old_name:no" v="Nordre Isvannet" />
		<tag k="ssr:stedsnr" v="79729" />
		<tag k="water" v="lake" />
	</node>
	<node id="-94022" lat="70.2135888858" lon="19.1685499878">
		<tag k="name" v="Skarvatnet" />
		<tag k="natural" v="water" />
		<tag k="ssr:stedsnr" v="869418" />
	</node>
	<node id="-91973" lat="70.0800388888" lon="19.8081694312">
		<tag k="name" v="Botnvatnet" />
		<tag k="natural" v="water" />
		<tag k="ssr:stedsnr" v="79101" />
	</node>
	<node id="-91967" lat="69.9705833302" lon="19.1468333258">
		<tag k="name" v="Dåfjordelva" />
		<tag k="ssr:stedsnr" v="51989" />
		<tag k="waterway" v="stream" />
	</node>
	<node id="-91963" lat="69.9864638914" lon="19.0818805564">
		<tag k="name" v="Småskjærholman" />
		<tag k="place" v="islet" />
		<tag k="ssr:stedsnr" v="51892" />
	</node>
	<node id="-91962" lat="69.9488888895" lon="19.1463999885">
		<tag k="name" v="Skognesbukta" />
		<tag k="natural" v="bay" />
		<tag k="ssr:stedsnr" v="51941" />
	</node>
	<node id="-91961" lat="69.9630555552" lon="19.1858527637">
		<tag k="name" v="Kvolvelva" />
		<tag k="ssr:stedsnr" v="51938" />
		<tag k="waterway" v="stream" />
	</node>
	<node id="-91960" lat="69.9525166707" lon="19.0808111043">
		<tag k="name" v="Nonselva" />
		<tag k="ssr:stedsnr" v="51650" />
		<tag k="waterway" v="stream" />
	</node>
	<node id="-91958" lat="70.0008027757" lon="19.0721777599">
		<tag k="name" v="Fossen" />
		<tag k="natural" v="waterfall" />
		<tag k="ssr:stedsnr" v="51883" />
	</node>
	<node id="-91956" lat="70.1754472195" lon="19.6703777682">
		<tag k="name" v="Gamvikelva" />
		<tag k="ssr:stedsnr" v="51777" />
		<tag k="waterway" v="stream" />
	</node>
	<node id="-94000" lat="69.845091666" lon="19.4821222185">
		<tag k="alt_name" v="Mølneelva" />
		<tag k="name" v="Mølnelva" />
		<tag k="ssr:stedsnr" v="868649" />
		<tag k="waterway" v="stream" />
	</node>
	<node id="-91951" lat="70.088702774" lon="20.0245110995">
		<tag k="name" v="Mølnelva" />
		<tag k="ssr:stedsnr" v="51432" />
		<tag k="waterway" v="stream" />
	</node>
	<node id="-93998" lat="70.0277861149" lon="18.8926750059">
		<tag k="name" v="Riselva" />
		<tag k="ssr:stedsnr" v="868639" />
		<tag k="waterway" v="stream" />
	</node>
	<node id="-91948" lat="70.2482166687" lon="19.5738416632">
		<tag k="name" v="Setervikelva" />
		<tag k="ssr:stedsnr" v="51418" />
		<tag k="waterway" v="stream" />
	</node>
	<node id="-91946" lat="70.060422223" lon="19.8214249998">
		<tag k="name" v="Oterelva" />
		<tag k="ssr:stedsnr" v="51382" />
		<tag k="waterway" v="stream" />
	</node>
	<node id="-93993" lat="70.0949361069" lon="18.8831305589">
		<tag k="name" v="Vassdalsvatnet" />
		<tag k="natural" v="water" />
		<tag k="ssr:stedsnr" v="868536" />
	</node>
	<node id="-92124" lat="70.2027611089" lon="19.6482166504">
		<tag k="name" v="Krakelva" />
		<tag k="ssr:stedsnr" v="111355" />
		<tag k="waterway" v="stream" />
	</node>
	<node id="-91940" lat="70.0724055545" lon="19.0443888842">
		<tag k="name" v="Fjellvatnet" />
		<tag k="natural" v="water" />
		<tag k="ssr:stedsnr" v="51189" />
	</node>
	<node id="-93986" lat="70.0689436203" lon="19.8575491869">
		<tag k="loc_name" v="Skjærelvvatnan" />
		<tag k="name" v="Skjervelvvatnan" />
		<tag k="natural" v="water" />
		<tag k="ssr:stedsnr" v="868050" />
		<tag k="water" v="lake" />
	</node>
	<node id="-93981" lat="70.2266361072" lon="19.1694916652">
		<tag k="name" v="Øvervatnet" />
		<tag k="natural" v="water" />
		<tag k="ssr:stedsnr" v="849712" />
		<tag k="water" v="lake" />
	</node>
	<node id="-91097" lat="69.9565722249" lon="19.3558305408">
		<tag k="name" v="Akselvatnet" />
		<tag k="natural" v="water" />
		<tag k="ssr:stedsnr" v="687592" />
	</node>
	<node id="-93971" lat="69.9504055568" lon="19.1812749884">
		<tag k="name" v="Oddelomstjønna" />
		<tag k="natural" v="water" />
		<tag k="ssr:stedsnr" v="840926" />
	</node>
	<node id="-93970" lat="69.9833194476" lon="19.114147222">
		<tag k="name" v="Lasseelva" />
		<tag k="ssr:stedsnr" v="840902" />
		<tag k="waterway" v="stream" />
	</node>
	<node id="-93969" lat="69.9780555586" lon="19.1032861005">
		<tag k="name" v="Lasseneset" />
		<tag k="natural" v="cape" />
		<tag k="ssr:stedsnr" v="840900" />
	</node>
	<node id="-91920" lat="70.1152666705" lon="19.39176665">
		<tag k="name" v="Oterelva" />
		<tag k="ssr:stedsnr" v="50197" />
		<tag k="waterway" v="stream" />
	</node>
	<node id="-91919" lat="69.9288833335" lon="19.4270555511">
		<tag k="name" v="Badedammen" />
		<tag k="natural" v="water" />
		<tag k="ssr:stedsnr" v="50184" />
		<tag k="water" v="lake" />
	</node>
	<node id="-93961" lat="70.2088999992" lon="19.5925472231">
		<tag k="name" v="Elvenes" />
		<tag k="natural" v="cape" />
		<tag k="ssr:stedsnr" v="840790" />
	</node>
	<node id="-93959" lat="70.1673750031" lon="19.6729027702">
		<tag k="name" v="Mikkelvikelva" />
		<tag k="ssr:stedsnr" v="840773" />
		<tag k="waterway" v="stream" />
	</node>
	<node id="-93958" lat="69.9572638899" lon="19.1044138814">
		<tag k="name" v="Nonsdagsbukta" />
		<tag k="natural" v="bay" />
		<tag k="ssr:stedsnr" v="840616" />
	</node>
	<node id="-92118" lat="69.931230553" lon="19.4698722099">
		<tag k="name" v="Kjoselva" />
		<tag k="ssr:stedsnr" v="111182" />
		<tag k="waterway" v="stream" />
	</node>
	<node id="-93949" lat="70.0731111109" lon="19.9520166416">
		<tag k="name" v="Båsen" />
		<tag k="natural" v="strait" />
		<tag k="ssr:stedsnr" v="840383" />
	</node>
	<node id="-93946" lat="70.0073416649" lon="19.074430558">
		<tag k="name" v="Elvekroken" />
		<tag k="natural" v="bay" />
		<tag k="ssr:stedsnr" v="840196" />
	</node>
	<node id="-93945" lat="70.0069166694" lon="19.069330549">
		<tag k="fixme" v="multiple name tags, choose one and add the other to alt_name" />
		<tag k="name" v="Skogsfjordelva;Sørkjoselva" />
		<tag k="ssr:stedsnr" v="840190" />
		<tag k="waterway" v="river" />
	</node>
	<node id="-91894" lat="69.8424944438" lon="19.477600001">
		<tag k="name" v="Sprutelva" />
		<tag k="ssr:stedsnr" v="49064" />
		<tag k="waterway" v="stream" />
	</node>
	<node id="-91432" lat="69.9948694448" lon="19.0744027775">
		<tag k="name" v="Gamtjønna" />
		<tag k="natural" v="water" />
		<tag k="ssr:stedsnr" v="900883" />
	</node>
	<node id="-93916" lat="70.0661722218" lon="19.3709833127">
		<tag k="name" v="Vatnet" />
		<tag k="natural" v="water" />
		<tag k="ssr:stedsnr" v="839210" />
		<tag k="water" v="pond" />
	</node>
	<node id="-93915" lat="70.1339138916" lon="19.4738722058">
		<tag k="name" v="Rødnesvatnan" />
		<tag k="natural" v="water" />
		<tag k="ssr:stedsnr" v="839206" />
		<tag k="water" v="lake" />
	</node>
	<node id="-93910" lat="69.9827527784" lon="19.640133337">
		<tag k="name" v="Småvatnan" />
		<tag k="natural" v="water" />
		<tag k="ssr:stedsnr" v="839048" />
		<tag k="water" v="lake" />
	</node>
	<node id="-93350" lat="69.9553444454" lon="19.1340611153">
		<tag k="name" v="Huiarneset" />
		<tag k="natural" v="cape" />
		<tag k="ssr:stedsnr" v="596926" />
	</node>
	<node id="-91856" lat="70.0345444453" lon="19.4670083205">
		<tag k="alt_name" v="Gammvikvatnet, nedre" />
		<tag k="fixme" v="multiple name tags, choose one and add the other to alt_name" />
		<tag k="name" v="Nedre Gammvikvatnet;Nervatnet" />
		<tag k="natural" v="water" />
		<tag k="ssr:stedsnr" v="19990" />
	</node>
	<node id="-91855" lat="70.0244222227" lon="19.4580999846">
		<tag k="alt_name" v="Gammvikvatnet, øvre" />
		<tag k="fixme" v="multiple name tags, choose one and add the other to alt_name" />
		<tag k="name" v="Gamvikvatnet;Øvervatnet;Øvre Gammvikvatnet" />
		<tag k="natural" v="water" />
		<tag k="ssr:stedsnr" v="19984" />
	</node>
	<node id="-91853" lat="70.1033805524" lon="19.8474805321">
		<tag k="name" v="Skipfjordvatnan" />
		<tag k="natural" v="water" />
		<tag k="ssr:stedsnr" v="19892" />
		<tag k="water" v="lake" />
	</node>
	<node id="-91851" lat="70.1461694479" lon="19.8158861045">
		<tag k="alt_name" v="Skipfjordelva" />
		<tag k="name" v="Skipsfjordelva" />
		<tag k="ssr:stedsnr" v="19875" />
		<tag k="waterway" v="river" />
	</node>
	<node id="-91849" lat="70.1907833356" lon="19.2230249981">
		<tag k="name" v="Storvatnet" />
		<tag k="natural" v="water" />
		<tag k="ssr:stedsnr" v="19869" />
		<tag k="water" v="lake" />
	</node>
	<node id="-93896" lat="69.8585166651" lon="19.5008555475">
		<tag k="name" v="Tredje Tverrelva" />
		<tag k="ssr:stedsnr" v="838073" />
		<tag k="waterway" v="stream" />
	</node>
	<node id="-91846" lat="69.9852087253" lon="19.1316088473">
		<tag k="alt_name" v="Tennvatnet, østre" />
		<tag k="fixme" v="multiple name tags, choose one and add the other to alt_name" />
		<tag k="name" v="Tennvatnet;Østre Tennvatnet" />
		<tag k="natural" v="water" />
		<tag k="ssr:stedsnr" v="19865" />
		<tag k="water" v="lake" />
	</node>
	<node id="-91844" lat="70.2113916698" lon="19.6652027734">
		<tag k="name" v="Storvatnet" />
		<tag k="natural" v="water" />
		<tag k="ssr:stedsnr" v="19846" />
		<tag k="water" v="lake" />
	</node>
	<node id="-91835" lat="69.9286138928" lon="19.1716249935">
		<tag k="alt_name" v="Middagsholmen" />
		<tag k="name" v="Middagsfjellholmen" />
		<tag k="place" v="islet" />
		<tag k="ssr:stedsnr" v="19808" />
	</node>
	<node id="-91828" lat="70.0818388911" lon="19.7361111017">
		<tag k="name" v="Kamelva" />
		<tag k="ssr:stedsnr" v="19770" />
		<tag k="waterway" v="stream" />
	</node>
	<node id="-91422" lat="70.1462972238" lon="19.7399083319">
		<tag k="name" v="Kjerringvatnet" />
		<tag k="natural" v="water" />
		<tag k="ssr:stedsnr" v="900508" />
	</node>
	<node id="-93866" lat="70.0324166627" lon="19.2530444338">
		<tag k="name" v="Storvatnet" />
		<tag k="natural" v="water" />
		<tag k="ssr:stedsnr" v="808998" />
		<tag k="water" v="lake" />
	</node>
	<node id="-91813" lat="69.9792416646" lon="19.2215638794">
		<tag k="name" v="Storelva" />
		<tag k="ssr:stedsnr" v="19591" />
		<tag k="waterway" v="stream" />
	</node>
	<node id="-91809" lat="69.9662555534" lon="19.8032138814">
		<tag k="name" v="Reinsvollelva" />
		<tag k="ssr:stedsnr" v="19570" />
		<tag k="waterway" v="stream" />
	</node>
	<node id="-93853" lat="70.1336055564" lon="19.9194472181">
		<tag k="name" v="Per Olsavik-vatnet" />
		<tag k="natural" v="water" />
		<tag k="ssr:stedsnr" v="808892" />
	</node>
	<node id="-91804" lat="69.9663333348" lon="19.4252333373">
		<tag k="name" v="Dåfjordvatnet" />
		<tag k="natural" v="water" />
		<tag k="ssr:stedsnr" v="19553" />
	</node>
	<node id="-93851" lat="70.1124055555" lon="19.9934444215">
		<tag k="name" v="Trevatnan" />
		<tag k="natural" v="water" />
		<tag k="ssr:stedsnr" v="808882" />
		<tag k="water" v="lake" />
	</node>
	<node id="-93850" lat="70.1197444466" lon="19.8990027585">
		<tag k="name" v="Flyvatnet" />
		<tag k="natural" v="water" />
		<tag k="ssr:stedsnr" v="808880" />
	</node>
	<node id="-91798" lat="70.0992194433" lon="19.7169138816">
		<tag k="name" v="Sandelva" />
		<tag k="ssr:stedsnr" v="19759" />
		<tag k="waterway" v="stream" />
	</node>
	<node id="-91797" lat="70.1145388921" lon="19.735202772">
		<tag k="name" v="Storelva" />
		<tag k="ssr:stedsnr" v="19751" />
		<tag k="waterway" v="stream" />
	</node>
	<node id="-93840" lat="70.1618805582" lon="19.6978166637">
		<tag k="name" v="Olkelva" />
		<tag k="ssr:stedsnr" v="808827" />
		<tag k="waterway" v="stream" />
	</node>
	<node id="-93838" lat="69.9507111157" lon="19.1768110993">
		<tag k="fixme" v="multiple name tags, choose one and add the other to alt_name" />
		<tag k="name" v="Kinnarodden;Ytterodden" />
		<tag k="natural" v="cape" />
		<tag k="ssr:stedsnr" v="808824" />
	</node>
	<node id="-91789" lat="69.894855558" lon="19.6710166668">
		<tag k="fixme" v="multiple name tags, choose one and add the other to alt_name" />
		<tag k="name" v="Gunnarfjellelva;Tverrelva" />
		<tag k="ssr:stedsnr" v="19715" />
		<tag k="waterway" v="stream" />
	</node>
	<node id="-93899" lat="69.8646833372" lon="19.4473805501">
		<tag k="name" v="Småneselva" />
		<tag k="ssr:stedsnr" v="838150" />
		<tag k="waterway" v="stream" />
	</node>
	<node id="-93827" lat="69.8786972189" lon="19.4868583284">
		<tag k="name" v="Serinavatnet" />
		<tag k="natural" v="water" />
		<tag k="ssr:stedsnr" v="808741" />
	</node>
	<node id="-93825" lat="69.8813055576" lon="19.6399666572">
		<tag k="name" v="Sløkfjellvatnet" />
		<tag k="natural" v="water" />
		<tag k="ssr:stedsnr" v="808732" />
	</node>
	<node id="-90048" lat="69.9297222234" lon="19.4408110965">
		<tag k="name" v="Senna" />
		<tag k="natural" v="cape" />
		<tag k="ssr:stedsnr" v="232167" />
	</node>
	<node id="-91233" lat="69.9487277815" lon="19.4675472095">
		<tag k="name" v="Nordelva" />
		<tag k="ssr:stedsnr" v="718146" />
		<tag k="waterway" v="stream" />
	</node>
	<node id="-91769" lat="70.2476777742" lon="19.1918999974">
		<tag k="name" v="Meddalsvatnet" />
		<tag k="natural" v="water" />
		<tag k="ssr:stedsnr" v="19294" />
	</node>
	<node id="-93812" lat="70.0111944462" lon="18.8804860994">
		<tag k="name" v="Jøvikvatnet" />
		<tag k="natural" v="water" />
		<tag k="ssr:stedsnr" v="808658" />
	</node>
	<node id="-91762" lat="69.9804833298" lon="18.9192944481">
		<tag k="name" v="Reingjerdvatnet" />
		<tag k="natural" v="water" />
		<tag k="ssr:stedsnr" v="19176" />
		<tag k="water" v="lake" />
	</node>
	<node id="-93805" lat="70.1679666689" lon="18.9697888832">
		<tag k="name" v="Rambergvikvatnet" />
		<tag k="natural" v="water" />
		<tag k="ssr:stedsnr" v="808614" />
	</node>
	<node id="-93799" lat="69.9869333356" lon="19.3293444324">
		<tag k="alt_name" v="Lilleelva" />
		<tag k="name" v="Litleelva" />
		<tag k="ssr:stedsnr" v="808594" />
		<tag k="waterway" v="stream" />
	</node>
	<node id="-91749" lat="70.1480527746" lon="19.7930305308">
		<tag k="name" v="Tinnvatnet" />
		<tag k="natural" v="water" />
		<tag k="ssr:stedsnr" v="961507" />
	</node>
	<node id="-93796" lat="69.9961499965" lon="19.8010055529">
		<tag k="alt_name" v="Mølneelva" />
		<tag k="name" v="Mølnelva" />
		<tag k="ssr:stedsnr" v="808590" />
		<tag k="waterway" v="stream" />
	</node>
	<node id="-93794" lat="70.1556638912" lon="18.7957749842">
		<tag k="name" v="Sørøyvatnet" />
		<tag k="natural" v="water" />
		<tag k="ssr:stedsnr" v="808579" />
	</node>
	<node id="-91745" lat="70.030902779" lon="19.0118555504">
		<tag k="name" v="Jøvikelva" />
		<tag k="ssr:stedsnr" v="961221" />
		<tag k="waterway" v="stream" />
	</node>
	<node id="-93792" lat="69.9526638924" lon="19.4470805404">
		<tag k="name" v="Nordelva" />
		<tag k="ssr:stedsnr" v="808571" />
		<tag k="waterway" v="stream" />
	</node>
	<node id="-91742" lat="69.9781472218" lon="19.5303611033">
		<tag k="name" v="Botnelva" />
		<tag k="ssr:stedsnr" v="961204" />
		<tag k="waterway" v="stream" />
	</node>
	<node id="-93789" lat="69.9600250026" lon="19.2909611103">
		<tag k="name" v="Indreelvvatnan" />
		<tag k="natural" v="water" />
		<tag k="ssr:stedsnr" v="808563" />
		<tag k="water" v="lake" />
	</node>
	<node id="-90724" lat="70.135019449" lon="19.1504861075">
		<tag k="name" v="Saudasvatnet" />
		<tag k="natural" v="water" />
		<tag k="ssr:stedsnr" v="475672" />
	</node>
	<node id="-93780" lat="70.1019499994" lon="18.7591166571">
		<tag k="name" v="Skutalvatnet" />
		<tag k="natural" v="water" />
		<tag k="ssr:stedsnr" v="808529" />
	</node>
	<node id="-93779" lat="69.9399416686" lon="19.6745027654">
		<tag k="name" v="Finnbyelva" />
		<tag k="ssr:stedsnr" v="808528" />
		<tag k="waterway" v="stream" />
	</node>
	<node id="-93778" lat="69.9199222211" lon="19.6389111056">
		<tag k="alt_name" v="Gunnarelva" />
		<tag k="name" v="Gunnarselva" />
		<tag k="ssr:stedsnr" v="808486" />
		<tag k="waterway" v="stream" />
	</node>
	<node id="-93823" lat="69.8779055568" lon="19.3679361133">
		<tag k="name" v="Åborselvvatnet" />
		<tag k="natural" v="water" />
		<tag k="ssr:stedsnr" v="808721" />
	</node>
	<node id="-91727" lat="70.1369694423" lon="19.2037083295">
		<tag k="name" v="Rakkenesvatnet" />
		<tag k="natural" v="water" />
		<tag k="ssr:stedsnr" v="960224" />
		<tag k="water" v="pond" />
	</node>
	<node id="-91725" lat="70.151575002" lon="19.198399987">
		<tag k="name" v="Rundvatnet" />
		<tag k="natural" v="water" />
		<tag k="ssr:stedsnr" v="960212" />
	</node>
	<node id="-91719" lat="69.9768305523" lon="19.6517222215">
		<tag k="name" v="Krokelva" />
		<tag k="ssr:stedsnr" v="960057" />
		<tag k="waterway" v="stream" />
	</node>
	<node id="-91715" lat="69.9915749971" lon="19.5224999939">
		<tag k="name" v="Tverrelva" />
		<tag k="ssr:stedsnr" v="960145" />
		<tag k="waterway" v="stream" />
	</node>
	<node id="-93760" lat="69.9929916698" lon="19.1441888728">
		<tag k="alt_name" v="Raudsteinelva" />
		<tag k="name" v="Rødsteinelva" />
		<tag k="ssr:stedsnr" v="808158" />
		<tag k="waterway" v="stream" />
	</node>
	<node id="-93758" lat="70.084511115" lon="19.9678305476">
		<tag k="alt_name" v="Tindvannet" />
		<tag k="name" v="Tinnvatnet" />
		<tag k="natural" v="water" />
		<tag k="ssr:stedsnr" v="808073" />
	</node>
	<node id="-93756" lat="70.0903944482" lon="20.0257111019">
		<tag k="name" v="Stakkvatnet" />
		<tag k="natural" v="water" />
		<tag k="ssr:stedsnr" v="808068" />
	</node>
	<node id="-93755" lat="70.06992222" lon="19.8705111054">
		<tag k="alt_name" v="Holmvatnet" />
		<tag k="name" v="Holmevatnet" />
		<tag k="natural" v="water" />
		<tag k="ssr:stedsnr" v="808048" />
	</node>
	<node id="-93753" lat="69.8909361108" lon="19.1277416536">
		<tag k="name" v="Langryggvatnan" />
		<tag k="natural" v="water" />
		<tag k="ssr:stedsnr" v="807772" />
		<tag k="water" v="lake" />
	</node>
	<node id="-91703" lat="70.1330833339" lon="19.1926944507">
		<tag k="name" v="Breivikvatnet" />
		<tag k="natural" v="water" />
		<tag k="ssr:stedsnr" v="930603" />
	</node>
	<node id="-91701" lat="70.1786250044" lon="19.676858322">
		<tag k="alt_name" v="Gammvikvatnet" />
		<tag k="name" v="Gamvikvatnet" />
		<tag k="natural" v="water" />
		<tag k="ssr:stedsnr" v="929808" />
	</node>
	<node id="-91697" lat="70.0129750047" lon="19.1709499925">
		<tag k="name" v="Leirbugvatnan" />
		<tag k="natural" v="water" />
		<tag k="ssr:stedsnr" v="929616" />
		<tag k="water" v="lake" />
	</node>
	<node id="-91741" lat="70.0559472237" lon="19.1064861165">
		<tag k="name" v="Lille Finnengvatnet" />
		<tag k="natural" v="water" />
		<tag k="ssr:stedsnr" v="961174" />
		<tag k="water" v="lake" />
	</node>
	<node id="-93737" lat="70.2197472187" lon="19.5567166682">
		<tag k="name" v="Lomvatnet" />
		<tag k="natural" v="water" />
		<tag k="ssr:stedsnr" v="779749" />
	</node>
	<node id="-93726" lat="70.0571722194" lon="19.8965416651">
		<tag k="name" v="Lanesvatnan" />
		<tag k="natural" v="water" />
		<tag k="ssr:stedsnr" v="779401" />
		<tag k="water" v="lake" />
	</node>
	<node id="-93719" lat="70.2748027801" lon="19.6400805539">
		<tag k="name" v="Breivikvatnet" />
		<tag k="natural" v="water" />
		<tag k="ssr:stedsnr" v="779336" />
	</node>
	<node id="-91707" lat="69.9458027823" lon="19.2264805411">
		<tag k="alt_name" v="Holmelva, indre" />
		<tag k="name" v="Indre Holmelva" />
		<tag k="ssr:stedsnr" v="930615" />
		<tag k="waterway" v="stream" />
	</node>
	<node id="-93717" lat="70.0616194449" lon="19.8398055333">
		<tag k="name" v="Lilleskjærelva" />
		<tag k="ssr:stedsnr" v="779286" />
		<tag k="waterway" v="stream" />
	</node>
	<node id="-93716" lat="70.0653194468" lon="19.8672222181">
		<tag k="name" v="Nedre Storskjærelvvatnet" />
		<tag k="natural" v="water" />
		<tag k="ssr:stedsnr" v="779284" />
	</node>
	<node id="-93714" lat="69.9556444448" lon="19.6897972125">
		<tag k="name" v="Pakkhuselva" />
		<tag k="ssr:stedsnr" v="779255" />
		<tag k="waterway" v="stream" />
	</node>
	<node id="-93713" lat="69.9423666706" lon="19.6907610917">
		<tag k="name" v="Bjørnneselva" />
		<tag k="ssr:stedsnr" v="779251" />
		<tag k="waterway" v="stream" />
	</node>
	<node id="-91664" lat="70.0113416632" lon="19.6289083156">
		<tag k="name" v="Mollvikelva" />
		<tag k="ssr:stedsnr" v="900218" />
		<tag k="waterway" v="stream" />
	</node>
	<node id="-93708" lat="70.0295499963" lon="19.4229472112">
		<tag k="name" v="Buktevatnet" />
		<tag k="natural" v="water" />
		<tag k="ssr:stedsnr" v="779216" />
	</node>
	<node id="-90370" lat="70.1810277776" lon="19.8913055314">
		<tag k="name" v="Elvevatnet" />
		<tag k="natural" v="water" />
		<tag k="ssr:stedsnr" v="293130" />
	</node>
	<node id="-91658" lat="69.8994305567" lon="19.7511999789">
		<tag k="name" v="Lakselva" />
		<tag k="ssr:stedsnr" v="900053" />
		<tag k="waterway" v="stream" />
	</node>
	<node id="-93703" lat="69.9604444489" lon="19.5579416556">
		<tag k="name" v="Holmen" />
		<tag k="natural" v="cape" />
		<tag k="ssr:stedsnr" v="779187" />
	</node>
	<node id="-91650" lat="69.8678833367" lon="19.4883388835">
		<tag k="name" v="Fjerde Tverrelva" />
		<tag k="ssr:stedsnr" v="899011" />
		<tag k="waterway" v="stream" />
	</node>
	<node id="-93695" lat="70.0579638935" lon="19.0911360996">
		<tag k="name" v="Store Finnengvatnet" />
		<tag k="natural" v="water" />
		<tag k="ssr:stedsnr" v="779155" />
		<tag k="water" v="lake" />
	</node>
	<node id="-91646" lat="70.1814249997" lon="19.9048583134">
		<tag k="name" v="Haugvatnet" />
		<tag k="natural" v="water" />
		<tag k="ssr:stedsnr" v="869959" />
	</node>
	<node id="-93693" lat="69.8819277752" lon="19.4849555457">
		<tag k="name" v="Gjerdelva" />
		<tag k="ssr:stedsnr" v="779118" />
		<tag k="waterway" v="stream" />
	</node>
	<node id="-91643" lat="70.2145888868" lon="19.6828388797">
		<tag k="name" v="Lillevatnet" />
		<tag k="natural" v="water" />
		<tag k="ssr:stedsnr" v="869871" />
	</node>
	<node id="-91636" lat="70.2204222275" lon="19.5625749829">
		<tag k="name" v="Småvatnan" />
		<tag k="natural" v="water" />
		<tag k="ssr:stedsnr" v="840765" />
		<tag k="water" v="lake" />
	</node>
	<node id="-93683" lat="70.1121805531" lon="19.55585555">
		<tag k="name" v="Mjønesvatnan" />
		<tag k="natural" v="water" />
		<tag k="ssr:stedsnr" v="778834" />
		<tag k="water" v="lake" />
	</node>
	<node id="-93679" lat="69.8895055588" lon="19.4202583376">
		<tag k="name" v="Krokelva" />
		<tag k="ssr:stedsnr" v="778817" />
		<tag k="waterway" v="stream" />
	</node>
	<node id="-91621" lat="70.1831055535" lon="19.8836861041">
		<tag k="name" v="Sandvatnet" />
		<tag k="natural" v="water" />
		<tag k="ssr:stedsnr" v="840104" />
	</node>
	<node id="-93668" lat="69.8694194485" lon="18.9421777697">
		<tag k="name" v="Kårvikelva" />
		<tag k="ssr:stedsnr" v="778202" />
		<tag k="waterway" v="river" />
	</node>
	<node id="-90205" lat="69.8566472261" lon="19.1729638707">
		<tag k="alt_name" v="Isvatnet, s" />
		<tag k="name" v="Søndre Isvatnet" />
		<tag k="natural" v="water" />
		<tag k="ssr:stedsnr" v="261993" />
		<tag k="water" v="lake" />
	</node>
	<node id="-93665" lat="70.0046944403" lon="19.4238583352">
		<tag k="name" v="Botnlausvatnet" />
		<tag k="natural" v="water" />
		<tag k="ssr:stedsnr" v="778155" />
	</node>
	<node id="-93664" lat="70.0008361073" lon="19.4360722187">
		<tag k="name" v="Hårskoltvatnet" />
		<tag k="natural" v="water" />
		<tag k="ssr:stedsnr" v="778154" />
	</node>
	<node id="-93663" lat="70.1263777811" lon="19.3493499867">
		<tag k="name" v="Kvalsneselva" />
		<tag k="ssr:stedsnr" v="778146" />
		<tag k="waterway" v="stream" />
	</node>
	<node id="-93662" lat="70.122602777" lon="19.8410305523">
		<tag k="name" v="Finndammen" />
		<tag k="natural" v="water" />
		<tag k="ssr:stedsnr" v="778263" />
	</node>
	<node id="-93661" lat="70.1396694422" lon="19.8257277551">
		<tag k="name" v="Djuphølen" />
		<tag k="natural" v="water" />
		<tag k="ssr:stedsnr" v="778255" />
	</node>
	<node id="-93660" lat="70.1585888859" lon="20.0089666572">
		<tag k="name" v="Skjåbergvatnet" />
		<tag k="natural" v="water" />
		<tag k="ssr:stedsnr" v="778080" />
	</node>
	<node id="-93433" lat="70.0096888924" lon="19.4329722122">
		<tag k="name" v="Jettavatnet" />
		<tag k="natural" v="water" />
		<tag k="ssr:stedsnr" v="625948" />
	</node>
	<node id="-91602" lat="70.1086194476" lon="19.9679472034">
		<tag k="name" v="Vanntindvatnet" />
		<tag k="natural" v="water" />
		<tag k="ssr:stedsnr" v="930900" />
	</node>
	<node id="-93649" lat="69.8681916708" lon="19.6593972062">
		<tag k="name" v="Urelva" />
		<tag k="ssr:stedsnr" v="777984" />
		<tag k="waterway" v="stream" />
	</node>
	<node id="-91384" lat="69.8571499968" lon="19.6580694347">
		<tag k="name" v="Tjønna" />
		<tag k="natural" v="water" />
		<tag k="ssr:stedsnr" v="899978" />
	</node>
	<node id="-93643" lat="69.8549555542" lon="19.4325360968">
		<tag k="name" v="Oterelva" />
		<tag k="ssr:stedsnr" v="777020" />
		<tag k="waterway" v="stream" />
	</node>
	<node id="-91593" lat="69.8722666658" lon="19.5458694267">
		<tag k="name" v="Keipvatnet" />
		<tag k="natural" v="water" />
		<tag k="ssr:stedsnr" v="930768" />
	</node>
	<node id="-93640" lat="69.8445861154" lon="19.3161499995">
		<tag k="name" v="Skallvannet" />
		<tag k="natural" v="water" />
		<tag k="ssr:stedsnr" v="777102" />
	</node>
	<node id="-93639" lat="69.9100027737" lon="19.1365305493">
		<tag k="name" v="Vassbotnvatnan" />
		<tag k="natural" v="water" />
		<tag k="ssr:stedsnr" v="777094" />
		<tag k="water" v="lake" />
	</node>
	<node id="-93638" lat="69.8522666629" lon="19.5190972129">
		<tag k="name" v="Akselvaet" />
		<tag k="natural" v="water" />
		<tag k="ssr:stedsnr" v="777068" />
		<tag k="water" v="lake" />
	</node>
	<node id="-93636" lat="69.8764861095" lon="19.6891360998">
		<tag k="name" v="Svartbergelva" />
		<tag k="ssr:stedsnr" v="777055" />
		<tag k="waterway" v="stream" />
	</node>
	<node id="-93635" lat="70.1942833341" lon="19.89561665">
		<tag k="name" v="Svartvatnet" />
		<tag k="natural" v="water" />
		<tag k="ssr:stedsnr" v="776610" />
	</node>
	<node id="-91584" lat="69.9585583354" lon="19.3158583145">
		<tag k="name" v="Jonasvatnet" />
		<tag k="natural" v="water" />
		<tag k="ssr:stedsnr" v="930599" />
	</node>
	<node id="-91583" lat="69.9659055602" lon="19.3599888709">
		<tag k="name" v="Tverrfjellvatnet" />
		<tag k="natural" v="water" />
		<tag k="ssr:stedsnr" v="930597" />
	</node>
	<node id="-91582" lat="69.9549861082" lon="19.2305916615">
		<tag k="alt_name" v="Holmelva, ytre" />
		<tag k="name" v="Ytre Holmelva" />
		<tag k="ssr:stedsnr" v="930595" />
		<tag k="waterway" v="stream" />
	</node>
	<node id="-91573" lat="69.972902782" lon="19.8356861048">
		<tag k="alt_name" v="Reinsvollelva, in" />
		<tag k="name" v="Indre Reinsvollelva" />
		<tag k="ssr:stedsnr" v="930657" />
		<tag k="waterway" v="stream" />
	</node>
	<node id="-91556" lat="70.0146388858" lon="19.26609999">
		<tag k="name" v="Holmevatnet" />
		<tag k="natural" v="water" />
		<tag k="ssr:stedsnr" v="929953" />
	</node>
	<node id="-91554" lat="70.0076388864" lon="19.4251555514">
		<tag k="name" v="Lomvatnet" />
		<tag k="natural" v="water" />
		<tag k="ssr:stedsnr" v="929948" />
	</node>
	<node id="-93601" lat="70.0409055515" lon="19.51051944">
		<tag k="name" v="Brennesvatnet" />
		<tag k="natural" v="water" />
		<tag k="ssr:stedsnr" v="748000" />
	</node>
	<node id="-91548" lat="70.1673861133" lon="19.9628749949">
		<tag k="name" v="Bjørnåsvatnet" />
		<tag k="natural" v="water" />
		<tag k="ssr:stedsnr" v="929925" />
	</node>
	<node id="-91034" lat="69.9067611133" lon="19.3323055381">
		<tag k="name" v="Tindvatnet" />
		<tag k="natural" v="water" />
		<tag k="ssr:stedsnr" v="686511" />
	</node>
	<node id="-93592" lat="69.9366805583" lon="19.1983722194">
		<tag k="name" v="Solltindodden" />
		<tag k="natural" v="cape" />
		<tag k="ssr:stedsnr" v="747829" />
	</node>
	<node id="-91541" lat="70.065025005" lon="19.7388416518">
		<tag k="name" v="Bøtneselva" />
		<tag k="ssr:stedsnr" v="929771" />
		<tag k="waterway" v="stream" />
	</node>
	<node id="-93588" lat="70.122747221" lon="19.7351472063">
		<tag k="name" v="Kollvikelva" />
		<tag k="ssr:stedsnr" v="747803" />
		<tag k="waterway" v="stream" />
	</node>
	<node id="-91538" lat="70.0756555575" lon="19.1072666695">
		<tag k="name" v="Lynggamsvatnet" />
		<tag k="natural" v="water" />
		<tag k="ssr:stedsnr" v="929741" />
	</node>
	<node id="-91536" lat="70.169424997" lon="18.8664166675">
		<tag k="name" v="Trollvatnan" />
		<tag k="natural" v="water" />
		<tag k="ssr:stedsnr" v="929601" />
		<tag k="water" v="lake" />
	</node>
	<node id="-90690" lat="70.0721333308" lon="19.1519277628">
		<tag k="name" v="Botnelva" />
		<tag k="ssr:stedsnr" v="475183" />
		<tag k="waterway" v="stream" />
	</node>
	<node id="-93575" lat="70.0587305556" lon="18.8612888739">
		<tag k="fixme" v="multiple name tags, choose one and add the other to alt_name" />
		<tag k="name" v="Vardvikvatnet;Varvikvannet" />
		<tag k="natural" v="water" />
		<tag k="ssr:stedsnr" v="747718" />
	</node>
	<node id="-91526" lat="69.8818694452" lon="19.3105611143">
		<tag k="name" v="Tredjevatnet" />
		<tag k="natural" v="water" />
		<tag k="ssr:stedsnr" v="929498" />
	</node>
	<node id="-91524" lat="69.9225333345" lon="19.7218249892">
		<tag k="name" v="Knausvatnet" />
		<tag k="natural" v="water" />
		<tag k="ssr:stedsnr" v="929490" />
	</node>
	<node id="-93570" lat="70.1038694488" lon="19.4701305435">
		<tag k="name" v="Gullelva" />
		<tag k="ssr:stedsnr" v="747759" />
		<tag k="waterway" v="stream" />
	</node>
	<node id="-91521" lat="70.1510388929" lon="19.1852805536">
		<tag k="name" v="Klubbevikvatnan" />
		<tag k="natural" v="water" />
		<tag k="ssr:stedsnr" v="929553" />
		<tag k="water" v="lake" />
	</node>
	<node id="-93568" lat="70.010808335" lon="18.9768750029">
		<tag k="name" v="Storvatnet" />
		<tag k="natural" v="water" />
		<tag k="ssr:stedsnr" v="747650" />
	</node>
	<node id="-91516" lat="69.9201499964" lon="19.2492249818">
		<tag k="name" v="Stabbelva" />
		<tag k="ssr:stedsnr" v="929528" />
		<tag k="waterway" v="stream" />
	</node>
	<node id="-91514" lat="69.931838892" lon="19.4034305575">
		<tag k="name" v="Holmevatnet" />
		<tag k="natural" v="water" />
		<tag k="ssr:stedsnr" v="929518" />
	</node>
	<node id="-93559" lat="70.0012777741" lon="18.8398610953">
		<tag k="fixme" v="multiple name tags, choose one and add the other to alt_name" />
		<tag k="name" v="Middagsvatnan;Middagsskarvatnan" />
		<tag k="natural" v="water" />
		<tag k="ssr:stedsnr" v="747656" />
		<tag k="water" v="lake" />
	</node>
	<node id="-91710" lat="69.9521611103" lon="19.3405166535">
		<tag k="name" v="Svartvatnet" />
		<tag k="natural" v="water" />
		<tag k="ssr:stedsnr" v="930623" />
	</node>
	<node id="-93551" lat="69.9418500021" lon="19.4116305356">
		<tag k="name" v="Sørelva" />
		<tag k="ssr:stedsnr" v="747531" />
		<tag k="waterway" v="stream" />
	</node>
	<node id="-93549" lat="69.9090444419" lon="19.4831472144">
		<tag k="alt_name" v="Gammnesøyra" />
		<tag k="name" v="Gamnesøyra" />
		<tag k="natural" v="cape" />
		<tag k="ssr:stedsnr" v="747518" />
	</node>
	<node id="-91500" lat="69.8915305565" lon="19.1701860992">
		<tag k="name" v="Pervatnet" />
		<tag k="natural" v="water" />
		<tag k="ssr:stedsnr" v="928776" />
	</node>
	<node id="-91498" lat="70.1094138884" lon="18.9928666498">
		<tag k="name" v="Moltebærvatnet" />
		<tag k="natural" v="water" />
		<tag k="ssr:stedsnr" v="808525" />
	</node>
	<node id="-91497" lat="69.929305556" lon="19.2905472084">
		<tag k="name" v="Solltindvatnet - Solttenjávri" />
		<tag k="name:no" v="Solltindvatnet" />
		<tag k="name:se" v="Solttenjávri" />
		<tag k="natural" v="water" />
		<tag k="ssr:stedsnr" v="808524" />
		<tag k="water" v="lake" />
	</node>
	<node id="-92049" lat="70.1036638879" lon="20.0362611097">
		<tag k="name" v="Skipparvikvatnet" />
		<tag k="natural" v="water" />
		<tag k="ssr:stedsnr" v="80912" />
	</node>
	<node id="-93539" lat="69.9058499975" lon="19.25577498">
		<tag k="name" v="Stabbvatnan" />
		<tag k="natural" v="water" />
		<tag k="ssr:stedsnr" v="747485" />
		<tag k="water" v="lake" />
	</node>
	<node id="-91489" lat="70.0640777822" lon="19.8196138683">
		<tag k="name" v="Oterelvvatnet" />
		<tag k="natural" v="water" />
		<tag k="ssr:stedsnr" v="778237" />
	</node>
	<node id="-93536" lat="70.2562694478" lon="20.2719388847">
		<tag k="name" v="Hårdskarvatnan" />
		<tag k="natural" v="water" />
		<tag k="ssr:stedsnr" v="747351" />
		<tag k="water" v="lake" />
	</node>
	<node id="-91485" lat="69.9420999986" lon="19.6536444306">
		<tag k="name" v="Lille Finnbyelva" />
		<tag k="ssr:stedsnr" v="778224" />
		<tag k="waterway" v="stream" />
	</node>
	<node id="-91482" lat="69.9424333367" lon="19.6456277667">
		<tag k="name" v="Torvhattelva" />
		<tag k="ssr:stedsnr" v="778217" />
		<tag k="waterway" v="stream" />
	</node>
	<node id="-92047" lat="70.0977444462" lon="20.030033328">
		<tag k="name" v="Jøvikvatnan" />
		<tag k="natural" v="water" />
		<tag k="ssr:stedsnr" v="80906" />
	</node>
	<node id="-91705" lat="69.9759638849" lon="19.400661108">
		<tag k="name" v="Dåfjordelva" />
		<tag k="ssr:stedsnr" v="930611" />
		<tag k="waterway" v="stream" />
	</node>
	<node id="-93522" lat="69.9892416684" lon="19.2909722177">
		<tag k="name" v="Rødbergsvatnet" />
		<tag k="natural" v="water" />
		<tag k="ssr:stedsnr" v="746593" />
	</node>
	<node id="-90339" lat="70.2185111122" lon="19.5184305585">
		<tag k="name" v="Stortjønna" />
		<tag k="natural" v="water" />
		<tag k="ssr:stedsnr" v="171828" />
	</node>
	<node id="-93405" lat="69.9985277816" lon="19.5130472237">
		<tag k="alt_name" v="Hamneelva" />
		<tag k="name" v="Hamnelva" />
		<tag k="ssr:stedsnr" v="625595" />
		<tag k="waterway" v="stream" />
	</node>
	<node id="-91461" lat="69.9442972198" lon="19.2721388766">
		<tag k="alt_name" v="Gammvatnet" />
		<tag k="name" v="Gamvatnet" />
		<tag k="natural" v="water" />
		<tag k="ssr:stedsnr" v="747579" />
	</node>
	<node id="-91457" lat="69.9570805589" lon="19.1866333185">
		<tag k="alt_name" v="Indreelva" />
		<tag k="name" v="Innerelva" />
		<tag k="ssr:stedsnr" v="747561" />
		<tag k="waterway" v="stream" />
	</node>
	<node id="-91456" lat="69.9930694464" lon="19.641505538">
		<tag k="name" v="Klubbevatnet" />
		<tag k="natural" v="water" />
		<tag k="ssr:stedsnr" v="747610" />
	</node>
	<node id="-91453" lat="69.983825" lon="19.4303027782">
		<tag k="alt_name" v="Skilelva" />
		<tag k="name" v="Skjellelva" />
		<tag k="ssr:stedsnr" v="747606" />
		<tag k="waterway" v="stream" />
	</node>
	<node id="-91450" lat="69.9593305581" lon="19.8480444274">
		<tag k="name" v="Gårdselva" />
		<tag k="ssr:stedsnr" v="901079" />
		<tag k="waterway" v="stream" />
	</node>
	<node id="-91449" lat="70.0380833314" lon="19.0909388907">
		<tag k="name" v="Tuelva" />
		<tag k="ssr:stedsnr" v="900952" />
		<tag k="waterway" v="stream" />
	</node>
	<node id="-91447" lat="69.9549250014" lon="19.1898777665">
		<tag k="name" v="Nedre Lomstjønna" />
		<tag k="natural" v="water" />
		<tag k="ssr:stedsnr" v="900930" />
	</node>
	<node id="-91440" lat="69.8964694481" lon="19.4325388866">
		<tag k="name" v="Rennarsteinelva" />
		<tag k="ssr:stedsnr" v="900841" />
		<tag k="waterway" v="stream" />
	</node>
	<node id="-93485" lat="69.9381250034" lon="19.0724110971">
		<tag k="name" v="Tindvatnet" />
		<tag k="natural" v="water" />
		<tag k="ssr:stedsnr" v="626843" />
		<tag k="water" v="lake" />
	</node>
	<node id="-92982" lat="70.1674166662" lon="19.8076166565">
		<tag k="name" v="Langørsvatnet" />
		<tag k="natural" v="water" />
		<tag k="ssr:stedsnr" v="414485" />
	</node>
	<node id="-93483" lat="70.0679250028" lon="19.8027194266">
		<tag k="name" v="Vikavatnan" />
		<tag k="natural" v="water" />
		<tag k="ssr:stedsnr" v="626794" />
		<tag k="water" v="lake" />
	</node>
	<node id="-93480" lat="69.8703222251" lon="19.4769138894">
		<tag k="name" v="Sennvatnet" />
		<tag k="natural" v="water" />
		<tag k="ssr:stedsnr" v="626756" />
	</node>
	<node id="-91430" lat="69.9485777759" lon="19.186688875">
		<tag k="name" v="Rødsiket" />
		<tag k="ssr:stedsnr" v="900880" />
		<tag k="waterway" v="stream" />
	</node>
	<node id="-93472" lat="69.9874444485" lon="19.8343249828">
		<tag k="alt_name" v="Adamelva" />
		<tag k="name" v="Adamselva" />
		<tag k="ssr:stedsnr" v="626656" />
		<tag k="waterway" v="stream" />
	</node>
	<node id="-91423" lat="70.1490499984" lon="19.8474944383">
		<tag k="name" v="Indre Grønlielva" />
		<tag k="ssr:stedsnr" v="900521" />
		<tag k="waterway" v="stream" />
	</node>
	<node id="-93470" lat="69.9926750032" lon="19.7577388853">
		<tag k="name" v="Urelva" />
		<tag k="ssr:stedsnr" v="626643" />
		<tag k="waterway" v="stream" />
	</node>
	<node id="-93466" lat="69.966313887" lon="19.3441277666">
		<tag k="fixme" v="multiple name tags, choose one and add the other to alt_name" />
		<tag k="name" v="Kjerstinavatnet;Kristinavatnet" />
		<tag k="natural" v="water" />
		<tag k="ssr:stedsnr" v="626607" />
	</node>
	<node id="-93465" lat="70.1299944416" lon="19.111450002">
		<tag k="alt_name" v="Mollvikvatnan" />
		<tag k="name" v="Molvikvatnan" />
		<tag k="natural" v="water" />
		<tag k="ssr:stedsnr" v="626604" />
		<tag k="water" v="lake" />
	</node>
	<node id="-93464" lat="69.957249998" lon="19.2643277769">
		<tag k="name" v="Hundvatnet" />
		<tag k="natural" v="water" />
		<tag k="ssr:stedsnr" v="626596" />
	</node>
	<node id="-93463" lat="70.1157944494" lon="18.817758323">
		<tag k="name" v="Rekvikvatnet" />
		<tag k="natural" v="water" />
		<tag k="ssr:stedsnr" v="626587" />
	</node>
	<node id="-91414" lat="70.06139722" lon="19.947244427">
		<tag k="name" v="Toftelivatnet" />
		<tag k="natural" v="water" />
		<tag k="ssr:stedsnr" v="900388" />
	</node>
	<node id="-93460" lat="69.9000277823" lon="19.3186305389">
		<tag k="name" v="Brevatnet" />
		<tag k="natural" v="water" />
		<tag k="ssr:stedsnr" v="626551" />
	</node>
	<node id="-91409" lat="70.0407250021" lon="19.4338638845">
		<tag k="name" v="Håkabykjosen" />
		<tag k="natural" v="bay" />
		<tag k="ssr:stedsnr" v="900233" />
	</node>
	<node id="-91400" lat="69.9329222274" lon="19.4024860948">
		<tag k="name" v="Storholmen" />
		<tag k="place" v="islet" />
		<tag k="ssr:stedsnr" v="900195" />
	</node>
	<node id="-91397" lat="70.0070499962" lon="19.5328083313">
		<tag k="name" v="Fjellsteinelva" />
		<tag k="ssr:stedsnr" v="900186" />
		<tag k="waterway" v="stream" />
	</node>
	<node id="-91396" lat="69.9705277738" lon="19.4300972091">
		<tag k="name" v="Dåfjordeidet" />
		<tag k="natural" v="strait" />
		<tag k="ssr:stedsnr" v="900179" />
	</node>
	<node id="-91395" lat="69.9613083384" lon="19.3655027659">
		<tag k="name" v="Middagselva" />
		<tag k="ssr:stedsnr" v="900178" />
		<tag k="waterway" v="stream" />
	</node>
	<node id="-92032" lat="70.1200916677" lon="19.3916805613">
		<tag k="alt_name" v="Møllneselva" />
		<tag k="name" v="Mølnelva" />
		<tag k="ssr:stedsnr" v="80812" />
		<tag k="waterway" v="stream" />
	</node>
	<node id="-93435" lat="70.017688886" lon="19.2754194477">
		<tag k="alt_name" v="Nedrevatnet" />
		<tag k="name" v="Nervatnet" />
		<tag k="natural" v="water" />
		<tag k="ssr:stedsnr" v="625955" />
	</node>
	<node id="-91385" lat="69.8511111088" lon="19.5761083165">
		<tag k="name" v="Kubekken" />
		<tag k="ssr:stedsnr" v="899983" />
		<tag k="waterway" v="stream" />
	</node>
	<node id="-93432" lat="70.0048611101" lon="19.5196194483">
		<tag k="name" v="Fjellsteinvatnet" />
		<tag k="natural" v="water" />
		<tag k="ssr:stedsnr" v="625945" />
	</node>
	<node id="-93426" lat="69.9601805564" lon="19.1522277756">
		<tag k="name" v="Risholmen" />
		<tag k="place" v="islet" />
		<tag k="ssr:stedsnr" v="625833" />
	</node>
	<node id="-91375" lat="70.1318805562" lon="19.9460110964">
		<tag k="name" v="Valelva" />
		<tag k="ssr:stedsnr" v="897546" />
		<tag k="waterway" v="river" />
	</node>
	<node id="-93413" lat="70.0256777759" lon="18.8974499948">
		<tag k="alt_name" v="Rambergvatnet" />
		<tag k="name" v="Ramnbergvatnet" />
		<tag k="natural" v="water" />
		<tag k="ssr:stedsnr" v="625690" />
	</node>
	<node id="-91363" lat="69.9604083349" lon="19.1440444349">
		<tag k="name" v="Måsholmen" />
		<tag k="place" v="islet" />
		<tag k="ssr:stedsnr" v="718605" />
	</node>
	<node id="-93409" lat="70.0075750039" lon="19.0340499846">
		<tag k="name" v="Hamneelva" />
		<tag k="ssr:stedsnr" v="625639" />
		<tag k="waterway" v="stream" />
	</node>
	<node id="-91357" lat="69.9305833298" lon="19.6095166521">
		<tag k="name" v="Vollaelva" />
		<tag k="ssr:stedsnr" v="718236" />
		<tag k="waterway" v="stream" />
	</node>
	<node id="-93403" lat="70.1686555578" lon="19.1380111139">
		<tag k="name" v="Hermannsfjordvatnet" />
		<tag k="natural" v="water" />
		<tag k="ssr:stedsnr" v="625587" />
	</node>
	<node id="-91354" lat="70.0690611127" lon="18.9541360944">
		<tag k="name" v="Storvatnet" />
		<tag k="natural" v="water" />
		<tag k="ssr:stedsnr" v="718217" />
	</node>
	<node id="-91353" lat="70.1147861083" lon="19.486927766">
		<tag k="name" v="Østre Gullelvvatn" />
		<tag k="natural" v="water" />
		<tag k="ssr:stedsnr" v="718216" />
	</node>
	<node id="-91350" lat="70.131922222" lon="19.4008888685">
		<tag k="name" v="Kvalsnesvatnet" />
		<tag k="natural" v="water" />
		<tag k="ssr:stedsnr" v="718210" />
	</node>
	<node id="-91348" lat="70.0262055518" lon="19.1010805549">
		<tag k="name" v="Okselva" />
		<tag k="ssr:stedsnr" v="718205" />
		<tag k="waterway" v="stream" />
	</node>
	<node id="-93395" lat="70.0995222268" lon="18.9892166508">
		<tag k="alt_name" v="Svartevatnet" />
		<tag k="name" v="Svartvatnet" />
		<tag k="natural" v="water" />
		<tag k="ssr:stedsnr" v="625506" />
	</node>
	<node id="-91343" lat="70.0833888904" lon="19.1647138775">
		<tag k="name" v="Okselva" />
		<tag k="ssr:stedsnr" v="718167" />
		<tag k="waterway" v="stream" />
	</node>
	<node id="-91342" lat="70.060472225" lon="19.1774888762">
		<tag k="name" v="Dalvatnet" />
		<tag k="natural" v="water" />
		<tag k="ssr:stedsnr" v="718165" />
	</node>
	<node id="-93373" lat="69.9157416633" lon="19.1629833226">
		<tag k="name" v="Ytste Botnelva" />
		<tag k="ssr:stedsnr" v="597617" />
		<tag k="waterway" v="stream" />
	</node>
	<node id="-93371" lat="70.0105277801" lon="18.959305548">
		<tag k="name" v="Lillevatnet" />
		<tag k="natural" v="water" />
		<tag k="ssr:stedsnr" v="597255" />
	</node>
	<node id="-93369" lat="70.0200833371" lon="19.4023916483">
		<tag k="name" v="Jettatjønna" />
		<tag k="natural" v="water" />
		<tag k="ssr:stedsnr" v="597244" />
	</node>
	<node id="-93367" lat="70.0474527812" lon="19.4893277822">
		<tag k="name" v="Avløysingsvatnet" />
		<tag k="natural" v="water" />
		<tag k="ssr:stedsnr" v="597236" />
	</node>
	<node id="-93366" lat="70.0749194479" lon="18.9184166561">
		<tag k="name" v="Øvre Toftefjordvatnet" />
		<tag k="natural" v="water" />
		<tag k="ssr:stedsnr" v="597232" />
		<tag k="water" v="lake" />
	</node>
	<node id="-91315" lat="69.9727166671" lon="19.1167527724">
		<tag k="name" v="Lingrasbukta" />
		<tag k="natural" v="bay" />
		<tag k="ssr:stedsnr" v="657885" />
	</node>
	<node id="-91314" lat="69.9868944416" lon="19.1373972115">
		<tag k="name" v="Vasselva" />
		<tag k="ssr:stedsnr" v="657871" />
		<tag k="waterway" v="stream" />
	</node>
	<node id="-93361" lat="70.0063666684" lon="19.0550416506">
		<tag k="name" v="Siket" />
		<tag k="ssr:stedsnr" v="597185" />
		<tag k="waterway" v="stream" />
	</node>
	<node id="-93359" lat="70.0024527795" lon="19.1147499936">
		<tag k="name" v="Tverrelva" />
		<tag k="ssr:stedsnr" v="597181" />
		<tag k="waterway" v="stream" />
	</node>
	<node id="-93356" lat="70.0162194475" lon="19.1589583151">
		<tag k="name" v="Fjellfinnvatnet" />
		<tag k="natural" v="water" />
		<tag k="ssr:stedsnr" v="597033" />
	</node>
	<node id="-91306" lat="70.1523000039" lon="19.7752305579">
		<tag k="name" v="Olkebakkvatnet" />
		<tag k="natural" v="water" />
		<tag k="ssr:stedsnr" v="657511" />
	</node>
	<node id="-91305" lat="70.0661749974" lon="19.8522194266">
		<tag k="name" v="Lilleskjærelvvatnet" />
		<tag k="natural" v="water" />
		<tag k="ssr:stedsnr" v="657283" />
	</node>
	<node id="-91302" lat="70.1774194493" lon="19.8923166552">
		<tag k="name" v="Storelva" />
		<tag k="ssr:stedsnr" v="657108" />
		<tag k="waterway" v="stream" />
	</node>
	<node id="-93349" lat="69.9838388888" lon="19.1182638803">
		<tag k="name" v="Ytre Jollebukt" />
		<tag k="natural" v="bay" />
		<tag k="ssr:stedsnr" v="596908" />
	</node>
	<node id="-93348" lat="69.9875111153" lon="19.0881777798">
		<tag k="name" v="Høgbergbukta" />
		<tag k="natural" v="bay" />
		<tag k="ssr:stedsnr" v="596895" />
	</node>
	<node id="-93347" lat="69.9858722178" lon="19.0505583366">
		<tag k="name" v="Innerelva" />
		<tag k="ssr:stedsnr" v="596885" />
		<tag k="waterway" v="stream" />
	</node>
	<node id="-91298" lat="70.24005833" lon="19.5146277685">
		<tag k="name" v="Fjøsvikelva" />
		<tag k="ssr:stedsnr" v="656861" />
		<tag k="waterway" v="stream" />
	</node>
	<node id="-93345" lat="69.9028944466" lon="19.5068138776">
		<tag k="name" v="Sørbuelva" />
		<tag k="ssr:stedsnr" v="596841" />
		<tag k="waterway" v="stream" />
	</node>
	<node id="-91295" lat="70.1321166646" lon="19.7082583326">
		<tag k="name" v="Kuelva" />
		<tag k="ssr:stedsnr" v="656265" />
		<tag k="waterway" v="stream" />
	</node>
	<node id="-93342" lat="69.9046611121" lon="19.532563881">
		<tag k="name" v="Storfossen" />
		<tag k="natural" v="waterfall" />
		<tag k="ssr:stedsnr" v="596791" />
	</node>
	<node id="-93341" lat="70.0357250025" lon="19.1130749826">
		<tag k="name" v="Sverigeelva" />
		<tag k="ssr:stedsnr" v="596771" />
		<tag k="waterway" v="stream" />
	</node>
	<node id="-93338" lat="70.0602111075" lon="19.0732138865">
		<tag k="name" v="Lille Finnengelva" />
		<tag k="ssr:stedsnr" v="596761" />
		<tag k="waterway" v="stream" />
	</node>
	<node id="-93336" lat="69.9470472233" lon="19.2652972222">
		<tag k="name" v="Gamelva" />
		<tag k="ssr:stedsnr" v="596745" />
		<tag k="waterway" v="stream" />
	</node>
	<node id="-93335" lat="70.2181972204" lon="19.564927781">
		<tag k="name" v="Dalelva" />
		<tag k="ssr:stedsnr" v="596713" />
		<tag k="waterway" v="stream" />
	</node>
	<node id="-93333" lat="70.1196333333" lon="19.1800888705">
		<tag k="name" v="Korsneselva" />
		<tag k="ssr:stedsnr" v="596651" />
		<tag k="waterway" v="stream" />
	</node>
	<node id="-93327" lat="70.1149666698" lon="19.8404305598">
		<tag k="name" v="Tjønna" />
		<tag k="natural" v="water" />
		<tag k="ssr:stedsnr" v="596449" />
	</node>
	<node id="-93325" lat="70.0039833322" lon="19.8972333214">
		<tag k="name" v="Klokkarelva" />
		<tag k="ssr:stedsnr" v="596402" />
		<tag k="waterway" v="stream" />
	</node>
	<node id="-91273" lat="69.982461112" lon="19.137399992">
		<tag k="name" v="Tennvasselva" />
		<tag k="ssr:stedsnr" v="718985" />
		<tag k="waterway" v="stream" />
	</node>
	<node id="-91272" lat="70.0457277814" lon="19.0661500048">
		<tag k="name" v="Lille Trollvatnet" />
		<tag k="natural" v="water" />
		<tag k="ssr:stedsnr" v="718952" />
	</node>
	<node id="-91270" lat="69.9707055539" lon="19.1183194287">
		<tag k="name" v="Steinsundet" />
		<tag k="natural" v="strait" />
		<tag k="ssr:stedsnr" v="718905" />
	</node>
	<node id="-91269" lat="69.9819611111" lon="19.1012027761">
		<tag k="name" v="Lassebukta" />
		<tag k="natural" v="bay" />
		<tag k="ssr:stedsnr" v="718902" />
	</node>
	<node id="-91268" lat="69.9892222222" lon="19.1190611081">
		<tag k="name" v="Ytre Sennebukt" />
		<tag k="natural" v="bay" />
		<tag k="ssr:stedsnr" v="718885" />
	</node>
	<node id="-91267" lat="69.9920277775" lon="19.0628749923">
		<tag k="name" v="Fosselva" />
		<tag k="ssr:stedsnr" v="718876" />
		<tag k="waterway" v="stream" />
	</node>
	<node id="-91266" lat="69.9941055528" lon="19.1228666504">
		<tag k="name" v="Langhalsen" />
		<tag k="natural" v="bay" />
		<tag k="ssr:stedsnr" v="718872" />
	</node>
	<node id="-93310" lat="69.9627861072" lon="19.4410388846">
		<tag k="name" v="Dåfjordeidet" />
		<tag k="natural" v="strait" />
		<tag k="ssr:stedsnr" v="596136" />
	</node>
	<node id="-93308" lat="69.9830972185" lon="19.7458583325">
		<tag k="name" v="Sløkelva" />
		<tag k="ssr:stedsnr" v="596103" />
		<tag k="waterway" v="stream" />
	</node>
	<node id="-91257" lat="69.9812583378" lon="19.1312472098">
		<tag k="name" v="Haraldbukta" />
		<tag k="natural" v="cape" />
		<tag k="ssr:stedsnr" v="718974" />
	</node>
	<node id="-91256" lat="69.9811694465" lon="19.1288194326">
		<tag k="name" v="Lilleholmen" />
		<tag k="place" v="islet" />
		<tag k="ssr:stedsnr" v="718972" />
	</node>
	<node id="-93303" lat="69.940327781" lon="19.6731194424">
		<tag k="name" v="Storfossen" />
		<tag k="natural" v="waterfall" />
		<tag k="ssr:stedsnr" v="596030" />
	</node>
	<node id="-90943" lat="69.9595972191" lon="19.5575833204">
		<tag k="name" v="Utrapselva" />
		<tag k="ssr:stedsnr" v="657231" />
		<tag k="waterway" v="stream" />
	</node>
	<node id="-93300" lat="70.0043250042" lon="19.6344027614">
		<tag k="name" v="Lille Langåsvikelva" />
		<tag k="ssr:stedsnr" v="596014" />
		<tag k="waterway" v="stream" />
	</node>
	<node id="-93299" lat="69.9852166695" lon="19.5710527609">
		<tag k="name" v="Labuktelva" />
		<tag k="ssr:stedsnr" v="596010" />
		<tag k="waterway" v="stream" />
	</node>
	<node id="-93290" lat="70.1838388881" lon="19.2315722073">
		<tag k="name" v="Kråvatnet" />
		<tag k="natural" v="water" />
		<tag k="ssr:stedsnr" v="595200" />
	</node>
	<node id="-91235" lat="70.256919446" lon="19.567613887">
		<tag k="name" v="Mitterelva" />
		<tag k="ssr:stedsnr" v="718386" />
		<tag k="waterway" v="stream" />
	</node>
	<node id="-91323" lat="69.9311500007" lon="19.1564861004">
		<tag k="name" v="Bryggeberget" />
		<tag k="natural" v="cape" />
		<tag k="ssr:stedsnr" v="687816" />
	</node>
	<node id="-93279" lat="70.0975333292" lon="20.026897219">
		<tag k="name" v="Lille Jøvikvatnet" />
		<tag k="natural" v="water" />
		<tag k="ssr:stedsnr" v="576725" />
	</node>
	<node id="-91229" lat="69.9682138905" lon="19.8416416604">
		<tag k="name" v="Kollvatnan" />
		<tag k="natural" v="water" />
		<tag k="ssr:stedsnr" v="718093" />
		<tag k="water" v="lake" />
	</node>
	<node id="-91228" lat="69.9269999982" lon="19.7411999776">
		<tag k="name" v="Kjeelva" />
		<tag k="ssr:stedsnr" v="718085" />
		<tag k="waterway" v="stream" />
	</node>
	<node id="-91222" lat="70.0104472205" lon="19.6142611128">
		<tag k="name" v="Ole-Jonsavatnet" />
		<tag k="natural" v="water" />
		<tag k="ssr:stedsnr" v="718057" />
	</node>
	<node id="-91218" lat="69.9637499988" lon="19.335724997">
		<tag k="name" v="Bjørnskarelva" />
		<tag k="ssr:stedsnr" v="718035" />
		<tag k="waterway" v="stream" />
	</node>
	<node id="-91217" lat="70.0018555564" lon="19.6191555506">
		<tag k="name" v="Lillevatnet" />
		<tag k="natural" v="water" />
		<tag k="ssr:stedsnr" v="718027" />
	</node>
	<node id="-91215" lat="69.9970277813" lon="19.6526444273">
		<tag k="name" v="Langåsvikelva" />
		<tag k="ssr:stedsnr" v="718018" />
		<tag k="waterway" v="stream" />
	</node>
	<node id="-90978" lat="69.9153333329" lon="19.1834055474">
		<tag k="name" v="Vassbotn" />
		<tag k="natural" v="bay" />
		<tag k="ssr:stedsnr" v="444815" />
	</node>
	<node id="-93254" lat="70.1675833311" lon="19.9926166507">
		<tag k="name" v="Vasslivatnet" />
		<tag k="natural" v="water" />
		<tag k="ssr:stedsnr" v="565925" />
		<tag k="water" v="lake" />
	</node>
	<node id="-93252" lat="70.1250027794" lon="19.8877694254">
		<tag k="alt_name" v="Perolsavatnan, øvste" />
		<tag k="name" v="Øvste Perolsavatnan" />
		<tag k="natural" v="water" />
		<tag k="ssr:stedsnr" v="565891" />
	</node>
	<node id="-93250" lat="70.1155638911" lon="19.9229888777">
		<tag k="name" v="Svartvatnan" />
		<tag k="natural" v="water" />
		<tag k="ssr:stedsnr" v="565882" />
		<tag k="water" v="lake" />
	</node>
	<node id="-93246" lat="69.953636109" lon="19.0998777612">
		<tag k="name" v="Nonsvatnet" />
		<tag k="natural" v="water" />
		<tag k="ssr:stedsnr" v="565857" />
	</node>
	<node id="-91197" lat="70.1396694422" lon="19.8257277551">
		<tag k="name" v="Mellomdammen" />
		<tag k="natural" v="water" />
		<tag k="ssr:stedsnr" v="717269" />
		<tag k="water" v="lake" />
	</node>
	<node id="-91196" lat="70.1492833328" lon="19.2158888708">
		<tag k="alt_name" v="Lenevatnet" />
		<tag k="name" v="Klubbevikvatnet" />
		<tag k="natural" v="water" />
		<tag k="ssr:stedsnr" v="717234" />
	</node>
	<node id="-93241" lat="70.111244449" lon="19.4147083257">
		<tag k="name" v="Finnbyelva" />
		<tag k="ssr:stedsnr" v="565822" />
		<tag k="waterway" v="stream" />
	</node>
	<node id="-91192" lat="69.9315250018" lon="19.4410944466">
		<tag k="name" v="Badebukta" />
		<tag k="natural" v="bay" />
		<tag k="ssr:stedsnr" v="717185" />
	</node>
	<node id="-91190" lat="69.9341944421" lon="19.4282249781">
		<tag k="name" v="Holmboevatnet" />
		<tag k="natural" v="water" />
		<tag k="ssr:stedsnr" v="717171" />
	</node>
	<node id="-91189" lat="69.9314166653" lon="19.4093916679">
		<tag k="name" v="Flatholmen" />
		<tag k="place" v="islet" />
		<tag k="ssr:stedsnr" v="717168" />
	</node>
	<node id="-93234" lat="70.0643027775" lon="18.9445610962">
		<tag k="alt_name" v="Thomasvatnet" />
		<tag k="name" v="Tomasvatnet" />
		<tag k="natural" v="water" />
		<tag k="ssr:stedsnr" v="565757" />
	</node>
	<node id="-91185" lat="69.8750222187" lon="19.657527776">
		<tag k="name" v="Stortverrelva" />
		<tag k="ssr:stedsnr" v="716046" />
		<tag k="waterway" v="stream" />
	</node>
	<node id="-91182" lat="69.9369611152" lon="19.7506333194">
		<tag k="name" v="Skavelva" />
		<tag k="ssr:stedsnr" v="597095" />
		<tag k="waterway" v="stream" />
	</node>
	<node id="-91181" lat="69.9486249996" lon="19.742619441">
		<tag k="name" v="Sør Tverrelva" />
		<tag k="ssr:stedsnr" v="597091" />
		<tag k="waterway" v="stream" />
	</node>
	<node id="-93227" lat="70.0482305598" lon="19.0544638892">
		<tag k="name" v="Hundelva" />
		<tag k="ssr:stedsnr" v="565711" />
		<tag k="waterway" v="stream" />
	</node>
	<node id="-91178" lat="70.2827500037" lon="20.2205083303">
		<tag k="name" v="Oljekrusvatnan" />
		<tag k="natural" v="water" />
		<tag k="ssr:stedsnr" v="715048" />
		<tag k="water" v="lake" />
	</node>
	<node id="-93225" lat="70.0357666712" lon="18.9967388815">
		<tag k="name" v="Tisneselva" />
		<tag k="ssr:stedsnr" v="565706" />
		<tag k="waterway" v="stream" />
	</node>
	<node id="-93221" lat="69.9717861091" lon="19.3448194341">
		<tag k="name" v="Vassbottelva" />
		<tag k="ssr:stedsnr" v="565620" />
		<tag k="waterway" v="stream" />
	</node>
	<node id="-93217" lat="69.966097225" lon="19.7349749919">
		<tag k="name" v="Jetleelva" />
		<tag k="ssr:stedsnr" v="565596" />
		<tag k="waterway" v="stream" />
	</node>
	<node id="-93212" lat="69.9677499996" lon="19.2655138682">
		<tag k="name" v="Storvardvatnet" />
		<tag k="natural" v="water" />
		<tag k="ssr:stedsnr" v="565575" />
	</node>
	<node id="-93208" lat="69.9211416688" lon="19.350047209">
		<tag k="name" v="Solvatnet" />
		<tag k="natural" v="water" />
		<tag k="ssr:stedsnr" v="565556" />
		<tag k="water" v="lake" />
	</node>
	<node id="-93202" lat="69.9094888874" lon="19.5835916637">
		<tag k="name" v="Stortindvatnet" />
		<tag k="natural" v="water" />
		<tag k="ssr:stedsnr" v="565529" />
	</node>
	<node id="-93197" lat="69.9098305523" lon="19.3950110971">
		<tag k="alt_name" v="Gammneselvvatnet" />
		<tag k="name" v="Gamneselvvatnet" />
		<tag k="natural" v="water" />
		<tag k="ssr:stedsnr" v="565482" />
	</node>
	<node id="-93195" lat="69.9655888919" lon="19.1968583392">
		<tag k="name" v="Storelva" />
		<tag k="ssr:stedsnr" v="565389" />
		<tag k="waterway" v="river" />
	</node>
	<node id="-91137" lat="70.0709444412" lon="19.1001749918">
		<tag k="name" v="Rennebakkvatnet" />
		<tag k="natural" v="water" />
		<tag k="ssr:stedsnr" v="536168" />
	</node>
	<node id="-91135" lat="69.9360777753" lon="19.2914194296">
		<tag k="name" v="Stakneset" />
		<tag k="natural" v="cape" />
		<tag k="ssr:stedsnr" v="536160" />
	</node>
	<node id="-93181" lat="70.2255166683" lon="19.1744416739">
		<tag k="name" v="Vikavatnan" />
		<tag k="natural" v="water" />
		<tag k="ssr:stedsnr" v="565315" />
		<tag k="water" v="lake" />
	</node>
	<node id="-93179" lat="70.2467361131" lon="19.1734166731">
		<tag k="name" v="Skinnstakkvikvatnet" />
		<tag k="natural" v="water" />
		<tag k="ssr:stedsnr" v="565304" />
	</node>
	<node id="-91130" lat="70.0123250026" lon="19.5882305564">
		<tag k="name" v="Stakkeelva" />
		<tag k="ssr:stedsnr" v="536020" />
		<tag k="waterway" v="stream" />
	</node>
	<node id="-90623" lat="70.1835749987" lon="19.6669722172">
		<tag k="name" v="Fossen" />
		<tag k="natural" v="waterfall" />
		<tag k="ssr:stedsnr" v="293398" />
	</node>
	<node id="-90964" lat="69.9520499982" lon="19.2358333303">
		<tag k="name" v="Midtre Holmelva" />
		<tag k="ssr:stedsnr" v="657744" />
		<tag k="waterway" v="stream" />
	</node>
	<node id="-93173" lat="69.9963954539" lon="19.1012479839">
		<tag k="name" v="Trearmtjørna" />
		<tag k="natural" v="water" />
		<tag k="ssr:stedsnr" v="565161" />
	</node>
	<node id="-93167" lat="70.1262944468" lon="19.4050805464">
		<tag k="name" v="Mølnelvvatnet" />
		<tag k="natural" v="water" />
		<tag k="ssr:stedsnr" v="564795" />
	</node>
	<node id="-91108" lat="69.9467777737" lon="19.1452277786">
		<tag k="name" v="Skogneset" />
		<tag k="natural" v="cape" />
		<tag k="ssr:stedsnr" v="687835" />
	</node>
	<node id="-93155" lat="69.8412694431" lon="19.4562583164">
		<tag k="name" v="Gammelgårdelva" />
		<tag k="ssr:stedsnr" v="655007" />
		<tag k="waterway" v="stream" />
	</node>
	<node id="-91105" lat="69.8576694448" lon="19.5132777738">
		<tag k="name" v="Sæterelva" />
		<tag k="ssr:stedsnr" v="687755" />
		<tag k="waterway" v="stream" />
	</node>
	<node id="-91301" lat="70.1081666627" lon="20.060255542">
		<tag k="name" v="Skippervikelva" />
		<tag k="ssr:stedsnr" v="657057" />
		<tag k="waterway" v="stream" />
	</node>
	<node id="-93148" lat="69.9532138879" lon="19.1803249884">
		<tag k="name" v="Lillebuktholmen" />
		<tag k="place" v="islet" />
		<tag k="ssr:stedsnr" v="536933" />
	</node>
	<node id="-93146" lat="69.9985166679" lon="19.1209499933">
		<tag k="name" v="Fiskarneset" />
		<tag k="natural" v="cape" />
		<tag k="ssr:stedsnr" v="536891" />
	</node>
	<node id="-93145" lat="69.9952555563" lon="19.0718249901">
		<tag k="name" v="Vassenden" />
		<tag k="natural" v="bay" />
		<tag k="ssr:stedsnr" v="536887" />
	</node>
	<node id="-93144" lat="70.1757833378" lon="19.6879555523">
		<tag k="name" v="Storgamvikvatnet" />
		<tag k="natural" v="water" />
		<tag k="ssr:stedsnr" v="536865" />
	</node>
	<node id="-91094" lat="69.9422166644" lon="19.2982611003">
		<tag k="fixme" v="multiple name tags, choose one and add the other to alt_name" />
		<tag k="name" v="Engelskmannvatnet;Øvre Engelskmannsvatnet" />
		<tag k="natural" v="water" />
		<tag k="ssr:stedsnr" v="687555" />
	</node>
	<node id="-91093" lat="69.9425444458" lon="19.2912055458">
		<tag k="name" v="Grønlivatnet" />
		<tag k="natural" v="water" />
		<tag k="ssr:stedsnr" v="687553" />
	</node>
	<node id="-93140" lat="69.992730551" lon="19.3461722209">
		<tag k="name" v="Iselva" />
		<tag k="ssr:stedsnr" v="536786" />
		<tag k="waterway" v="stream" />
	</node>
	<node id="-93139" lat="70.1523805563" lon="19.8481805321">
		<tag k="name" v="Ytre Grønlielva" />
		<tag k="ssr:stedsnr" v="536502" />
		<tag k="waterway" v="stream" />
	</node>
	<node id="-93134" lat="70.0911194443" lon="19.7129916538">
		<tag k="name" v="Mellomjordelva" />
		<tag k="ssr:stedsnr" v="536317" />
		<tag k="waterway" v="stream" />
	</node>
	<node id="-93129" lat="70.0604083347" lon="19.9287972196">
		<tag k="name" v="Storelva" />
		<tag k="ssr:stedsnr" v="536390" />
		<tag k="waterway" v="stream" />
	</node>
	<node id="-93128" lat="70.0648749983" lon="19.8951861051">
		<tag k="name" v="Buksevatnet" />
		<tag k="natural" v="water" />
		<tag k="ssr:stedsnr" v="536386" />
	</node>
	<node id="-93123" lat="70.181113892" lon="19.8804360891">
		<tag k="name" v="Korsvatnan" />
		<tag k="natural" v="water" />
		<tag k="ssr:stedsnr" v="536115" />
		<tag k="water" v="lake" />
	</node>
	<node id="-93122" lat="69.9520388917" lon="19.7420749825">
		<tag k="name" v="Nord Tverrelva" />
		<tag k="ssr:stedsnr" v="536094" />
		<tag k="waterway" v="stream" />
	</node>
	<node id="-91073" lat="69.9987777763" lon="18.8129972177">
		<tag k="name" v="Merraelva" />
		<tag k="ssr:stedsnr" v="687155" />
		<tag k="waterway" v="stream" />
	</node>
	<node id="-91067" lat="69.9645666691" lon="19.1265916548">
		<tag k="name" v="Storholman" />
		<tag k="place" v="island" />
		<tag k="ssr:stedsnr" v="686838" />
	</node>
	<node id="-91066" lat="69.95623611" lon="19.1263694355">
		<tag k="name" v="Hujarneset" />
		<tag k="natural" v="cape" />
		<tag k="ssr:stedsnr" v="686820" />
	</node>
	<node id="-91061" lat="70.0998499974" lon="19.8041860929">
		<tag k="name" v="Svartvatnet" />
		<tag k="natural" v="water" />
		<tag k="ssr:stedsnr" v="686747" />
	</node>
	<node id="-91059" lat="69.844652776" lon="19.4178527725">
		<tag k="name" v="Langsundelva" />
		<tag k="ssr:stedsnr" v="686692" />
		<tag k="waterway" v="stream" />
	</node>
	<node id="-91056" lat="70.020672224" lon="18.8758944511">
		<tag k="name" v="Futjordvatnet" />
		<tag k="natural" v="water" />
		<tag k="ssr:stedsnr" v="686674" />
	</node>
	<node id="-91053" lat="70.0184472268" lon="19.1085694336">
		<tag k="alt_name" v="Leirbugelva" />
		<tag k="name" v="Leirbogelva" />
		<tag k="ssr:stedsnr" v="686647" />
		<tag k="waterway" v="river" />
	</node>
	<node id="-93100" lat="70.1006111089" lon="19.5362277741">
		<tag k="name" v="Kjegleelva" />
		<tag k="ssr:stedsnr" v="535838" />
		<tag k="waterway" v="stream" />
	</node>
	<node id="-91051" lat="70.1787361097" lon="19.117008315">
		<tag k="name" v="Bringvatnet" />
		<tag k="natural" v="water" />
		<tag k="ssr:stedsnr" v="686615" />
	</node>
	<node id="-93096" lat="70.1065972243" lon="19.7254916687">
		<tag k="name" v="Gårdselva" />
		<tag k="ssr:stedsnr" v="535492" />
		<tag k="waterway" v="stream" />
	</node>
	<node id="-91047" lat="69.9280277816" lon="19.2277749981">
		<tag k="name" v="Solltindelva - Solttenjohka" />
		<tag k="name:no" v="Solltindelva" />
		<tag k="name:se" v="Solttenjohka" />
		<tag k="ssr:stedsnr" v="686572" />
		<tag k="waterway" v="river" />
	</node>
	<node id="-91046" lat="69.9322277775" lon="19.7430694415">
		<tag k="name" v="Storelva" />
		<tag k="ssr:stedsnr" v="686570" />
		<tag k="waterway" v="stream" />
	</node>
	<node id="-93090" lat="70.1240194456" lon="19.8396083105">
		<tag k="name" v="Vesterdammen" />
		<tag k="natural" v="water" />
		<tag k="ssr:stedsnr" v="535259" />
	</node>
	<node id="-91041" lat="69.9293722198" lon="19.3042916512">
		<tag k="name" v="Haigbukta" />
		<tag k="natural" v="bay" />
		<tag k="ssr:stedsnr" v="686546" />
	</node>
	<node id="-91040" lat="69.9312222217" lon="19.3258749878">
		<tag k="alt_name" v="Per-Heimvatnet" />
		<tag k="name" v="Perheimvatnet" />
		<tag k="natural" v="water" />
		<tag k="ssr:stedsnr" v="686545" />
	</node>
	<node id="-93084" lat="69.8607527816" lon="19.3489583215">
		<tag k="name" v="Nedre Bjørnskarvatn" />
		<tag k="natural" v="water" />
		<tag k="ssr:stedsnr" v="534110" />
		<tag k="water" v="lake" />
	</node>
	<node id="-93082" lat="69.8757694485" lon="19.665163889">
		<tag k="name" v="Høyskjåelva" />
		<tag k="ssr:stedsnr" v="534045" />
		<tag k="waterway" v="stream" />
	</node>
	<node id="-91017" lat="70.0958805532" lon="19.9351944364">
		<tag k="name" v="Fonnisvatnet" />
		<tag k="natural" v="water" />
		<tag k="ssr:stedsnr" v="505882" />
	</node>
	<node id="-91011" lat="70.0137861111" lon="18.9571777621">
		<tag k="name" v="Tverrelva" />
		<tag k="ssr:stedsnr" v="504660" />
		<tag k="waterway" v="stream" />
	</node>
	<node id="-93054" lat="69.9696749959" lon="19.1196277803">
		<tag k="name" v="Steinsundholman" />
		<tag k="place" v="island" />
		<tag k="ssr:stedsnr" v="415923" />
	</node>
	<node id="-93053" lat="69.9784333382" lon="19.1052138767">
		<tag k="name" v="Lassetjønna" />
		<tag k="natural" v="water" />
		<tag k="ssr:stedsnr" v="415922" />
	</node>
	<node id="-93051" lat="69.9896555521" lon="19.0806972226">
		<tag k="name" v="Småskjæran" />
		<tag k="place" v="islet" />
		<tag k="ssr:stedsnr" v="415901" />
	</node>
	<node id="-93049" lat="70.062486114" lon="19.073583335">
		<tag k="name" v="Lille Finnenga" />
		<tag k="natural" v="bay" />
		<tag k="ssr:stedsnr" v="415823" />
	</node>
	<node id="-93047" lat="70.2121833356" lon="19.5996027619">
		<tag k="name" v="Davidslåttelva" />
		<tag k="ssr:stedsnr" v="415814" />
		<tag k="waterway" v="stream" />
	</node>
	<node id="-93038" lat="70.1425694478" lon="19.8276194252">
		<tag k="name" v="Nerdammen" />
		<tag k="natural" v="water" />
		<tag k="ssr:stedsnr" v="415541" />
		<tag k="water" v="lake" />
	</node>
	<node id="-93037" lat="70.1512555522" lon="19.8215055315">
		<tag k="name" v="Langvatnet" />
		<tag k="natural" v="water" />
		<tag k="ssr:stedsnr" v="415527" />
	</node>
	<node id="-90982" lat="69.9468138919" lon="19.2039388854">
		<tag k="alt_name" v="Holmeelva" />
		<tag k="name" v="Holmelva" />
		<tag k="ssr:stedsnr" v="444827" />
		<tag k="waterway" v="stream" />
	</node>
	<node id="-93029" lat="70.0628861151" lon="19.888222211">
		<tag k="name" v="Nedre Femtevatnet" />
		<tag k="natural" v="water" />
		<tag k="ssr:stedsnr" v="415416" />
	</node>
	<node id="-90980" lat="69.9428666683" lon="19.1976138713">
		<tag k="alt_name" v="Holmebukta" />
		<tag k="name" v="Holmbukta" />
		<tag k="natural" v="bay" />
		<tag k="ssr:stedsnr" v="444821" />
	</node>
	<node id="-93026" lat="70.23838611" lon="19.5885722121">
		<tag k="name" v="Bottenelva" />
		<tag k="ssr:stedsnr" v="415394" />
		<tag k="waterway" v="stream" />
	</node>
	<node id="-90977" lat="69.929977781" lon="19.212013888">
		<tag k="name" v="Solltindbukta" />
		<tag k="natural" v="bay" />
		<tag k="ssr:stedsnr" v="444811" />
	</node>
	<node id="-92093" lat="70.1565972238" lon="19.2045110962">
		<tag k="name" v="Skjærvikvatnet" />
		<tag k="natural" v="water" />
		<tag k="ssr:stedsnr" v="110219" />
	</node>
	<node id="-90973" lat="70.0480805526" lon="18.8760944428">
		<tag k="alt_name" v="Varvikelva" />
		<tag k="name" v="Vardvikelva" />
		<tag k="ssr:stedsnr" v="444729" />
		<tag k="waterway" v="stream" />
	</node>
	<node id="-93020" lat="69.958755554" lon="19.697186103">
		<tag k="name" v="Jakobselva" />
		<tag k="ssr:stedsnr" v="415259" />
		<tag k="waterway" v="stream" />
	</node>
	<node id="-90966" lat="70.1351166664" lon="19.3910166705">
		<tag k="name" v="Mikkelvatnet" />
		<tag k="natural" v="water" />
		<tag k="ssr:stedsnr" v="658221" />
		<tag k="water" v="pond" />
	</node>
	<node id="-93013" lat="69.9364546226" lon="19.1331095161">
		<tag k="name" v="Kårvikelva" />
		<tag k="ssr:stedsnr" v="415191" />
		<tag k="waterway" v="river" />
	</node>
	<node id="-93012" lat="70.0137888892" lon="19.510541669">
		<tag k="name" v="Risdalvatnet" />
		<tag k="natural" v="water" />
		<tag k="ssr:stedsnr" v="415189" />
	</node>
	<node id="-90962" lat="70.1998888846" lon="19.6254138843">
		<tag k="name" v="Kvilelv" />
		<tag k="ssr:stedsnr" v="657650" />
		<tag k="waterway" v="stream" />
	</node>
	<node id="-90269" lat="69.9117444433" lon="19.2072305395">
		<tag k="name" v="Midterelva" />
		<tag k="ssr:stedsnr" v="262842" />
		<tag k="waterway" v="river" />
	</node>
	<node id="-93008" lat="70.0710277799" lon="19.1371944337">
		<tag k="name" v="Sørelva" />
		<tag k="ssr:stedsnr" v="415164" />
		<tag k="waterway" v="stream" />
	</node>
	<node id="-93004" lat="70.1616749974" lon="20.0391583308">
		<tag k="name" v="Ressmålsvatnet" />
		<tag k="natural" v="water" />
		<tag k="ssr:stedsnr" v="415045" />
	</node>
	<node id="-93003" lat="69.8900555585" lon="19.7473527608">
		<tag k="name" v="Finnbyelva" />
		<tag k="ssr:stedsnr" v="415036" />
		<tag k="waterway" v="stream" />
	</node>
	<node id="-93002" lat="69.9839777738" lon="19.3648277793">
		<tag k="name" v="Storelva" />
		<tag k="ssr:stedsnr" v="415032" />
		<tag k="waterway" v="stream" />
	</node>
	<node id="-90952" lat="70.1187833301" lon="19.9715805389">
		<tag k="name" v="Storelva" />
		<tag k="ssr:stedsnr" v="657402" />
		<tag k="waterway" v="stream" />
	</node>
	<node id="-90947" lat="70.2021972201" lon="19.6460583251">
		<tag k="name" v="Lille Krakelva" />
		<tag k="ssr:stedsnr" v="657372" />
		<tag k="waterway" v="stream" />
	</node>
	<node id="-92993" lat="70.116377777" lon="19.5571416564">
		<tag k="name" v="Persbakkelva" />
		<tag k="ssr:stedsnr" v="414835" />
		<tag k="waterway" v="stream" />
	</node>
	<node id="-91616" lat="70.2726666661" lon="20.2368444427">
		<tag k="name" v="Gamvikelva" />
		<tag k="ssr:stedsnr" v="837057" />
		<tag k="waterway" v="stream" />
	</node>
	<node id="-90940" lat="70.0267027781" lon="18.9266472203">
		<tag k="name" v="Skjelklubbelva" />
		<tag k="ssr:stedsnr" v="657220" />
		<tag k="waterway" v="stream" />
	</node>
	<node id="-90934" lat="70.0129583332" lon="19.5301638928">
		<tag k="name" v="Risdalelva" />
		<tag k="ssr:stedsnr" v="657181" />
		<tag k="waterway" v="stream" />
	</node>
	<node id="-92979" lat="70.1148277754" lon="19.7172388851">
		<tag k="name" v="Finneselva" />
		<tag k="ssr:stedsnr" v="414278" />
		<tag k="waterway" v="stream" />
	</node>
	<node id="-90931" lat="69.9328499995" lon="19.2599444313">
		<tag k="name" v="Ytre Grønlifjellvatnet" />
		<tag k="natural" v="water" />
		<tag k="ssr:stedsnr" v="657156" />
		<tag k="water" v="lake" />
	</node>
	<node id="-92975" lat="70.0616555582" lon="19.8059027661">
		<tag k="name" v="Vikaelva" />
		<tag k="ssr:stedsnr" v="414250" />
		<tag k="waterway" v="stream" />
	</node>
	<node id="-90924" lat="70.0340722189" lon="19.173025">
		<tag k="name" v="Lille Kjølvatnet" />
		<tag k="natural" v="water" />
		<tag k="ssr:stedsnr" v="657043" />
	</node>
	<node id="-90923" lat="69.9440361069" lon="19.3075222174">
		<tag k="name" v="Nedre Engelskmannsvatnet" />
		<tag k="natural" v="water" />
		<tag k="ssr:stedsnr" v="657037" />
		<tag k="water" v="lake" />
	</node>
	<node id="-90922" lat="69.8836388937" lon="19.7531027594">
		<tag k="name" v="Skavelva" />
		<tag k="ssr:stedsnr" v="657036" />
		<tag k="waterway" v="stream" />
	</node>
	<node id="-90921" lat="69.9971555576" lon="19.6097194387">
		<tag k="name" v="Storheivatnet" />
		<tag k="natural" v="water" />
		<tag k="ssr:stedsnr" v="657021" />
	</node>
	<node id="-92958" lat="69.8488138913" lon="19.5396611083">
		<tag k="name" v="Klavelva" />
		<tag k="ssr:stedsnr" v="413062" />
		<tag k="waterway" v="stream" />
	</node>
	<node id="-92957" lat="69.8625499986" lon="19.5110861068">
		<tag k="name" v="Andre Tverrelva" />
		<tag k="ssr:stedsnr" v="413011" />
		<tag k="waterway" v="stream" />
	</node>
	<node id="-92952" lat="70.2794583299" lon="20.2308055483">
		<tag k="name" v="Storelva" />
		<tag k="ssr:stedsnr" v="412060" />
		<tag k="waterway" v="stream" />
	</node>
	<node id="-92948" lat="70.2659888895" lon="20.2588277586">
		<tag k="name" v="Heikaelva" />
		<tag k="ssr:stedsnr" v="412029" />
		<tag k="waterway" v="stream" />
	</node>
	<node id="-90898" lat="69.9302388895" lon="19.3844333245">
		<tag k="name" v="Solvannselva" />
		<tag k="ssr:stedsnr" v="656162" />
		<tag k="waterway" v="stream" />
	</node>
	<node id="-90895" lat="69.9732527783" lon="19.7398027645">
		<tag k="name" v="Langstrandelva" />
		<tag k="ssr:stedsnr" v="656086" />
		<tag k="waterway" v="stream" />
	</node>
	<node id="-92941" lat="70.2869527797" lon="20.2101999909">
		<tag k="name" v="Nikalasvatnan" />
		<tag k="natural" v="water" />
		<tag k="ssr:stedsnr" v="394473" />
		<tag k="water" v="lake" />
	</node>
	<node id="-90877" lat="70.0418555537" lon="19.46295278">
		<tag k="alt_name" v="Gammvikelva" />
		<tag k="name" v="Gamvikelva" />
		<tag k="ssr:stedsnr" v="505999" />
		<tag k="waterway" v="stream" />
	</node>
	<node id="-90875" lat="70.0295444457" lon="19.4436805474">
		<tag k="name" v="Håkabyvatnet" />
		<tag k="natural" v="water" />
		<tag k="ssr:stedsnr" v="505987" />
	</node>
	<node id="-92921" lat="70.1894166642" lon="19.8745388821">
		<tag k="name" v="Storvatnet" />
		<tag k="natural" v="water" />
		<tag k="ssr:stedsnr" v="383964" />
	</node>
	<node id="-90871" lat="70.0096444483" lon="19.2433638846">
		<tag k="name" v="Trollvatnet" />
		<tag k="natural" v="water" />
		<tag k="ssr:stedsnr" v="505944" />
	</node>
	<node id="-92917" lat="70.1085611104" lon="19.8356805562">
		<tag k="name" v="Nervatnet" />
		<tag k="natural" v="water" />
		<tag k="ssr:stedsnr" v="383909" />
	</node>
	<node id="-92912" lat="69.9846972217" lon="19.1801500002">
		<tag k="name" v="Tennvassvatnet" />
		<tag k="natural" v="water" />
		<tag k="ssr:stedsnr" v="383881" />
	</node>
	<node id="-92911" lat="70.2079833329" lon="19.6165110958">
		<tag k="name" v="Vannareidelva" />
		<tag k="ssr:stedsnr" v="383880" />
		<tag k="waterway" v="river" />
	</node>
	<node id="-90862" lat="70.0554101468" lon="19.0955866674">
		<tag k="name" v="Finnengvatnan" />
		<tag k="natural" v="water" />
		<tag k="ssr:stedsnr" v="505739" />
		<tag k="water" v="lake" />
	</node>
	<node id="-92906" lat="69.9606055509" lon="19.1413611125">
		<tag k="alt_name" v="Tennskjeret" />
		<tag k="name" v="Tennskjæret" />
		<tag k="place" v="islet" />
		<tag k="ssr:stedsnr" v="383860" />
	</node>
	<node id="-90855" lat="69.958061111" lon="19.7055555352">
		<tag k="name" v="Stakkvikelva" />
		<tag k="ssr:stedsnr" v="505597" />
		<tag k="waterway" v="stream" />
	</node>
	<node id="-92900" lat="70.1658055554" lon="19.2193499892">
		<tag k="name" v="Fjøsvatnet" />
		<tag k="natural" v="water" />
		<tag k="ssr:stedsnr" v="383837" />
	</node>
	<node id="-92895" lat="70.1261694453" lon="19.4219138722">
		<tag k="name" v="Goddalsvatnet" />
		<tag k="natural" v="water" />
		<tag k="ssr:stedsnr" v="383815" />
		<tag k="water" v="lake" />
	</node>
	<node id="-92893" lat="70.1332777752" lon="19.3498249959">
		<tag k="alt_name" v="Rambergelva" />
		<tag k="name" v="Ramnbergelva" />
		<tag k="ssr:stedsnr" v="383800" />
		<tag k="waterway" v="stream" />
	</node>
	<node id="-92891" lat="70.0684861134" lon="18.8554472179">
		<tag k="name" v="Kvitvatnet" />
		<tag k="natural" v="water" />
		<tag k="ssr:stedsnr" v="383751" />
	</node>
	<node id="-92889" lat="70.0558611087" lon="18.7586416665">
		<tag k="name" v="Strompedalsvatnan" />
		<tag k="natural" v="water" />
		<tag k="ssr:stedsnr" v="383737" />
		<tag k="water" v="lake" />
	</node>
	<node id="-92884" lat="70.0175361152" lon="18.8975250051">
		<tag k="alt_name" v="Torvesjåvatnet" />
		<tag k="name" v="Torvskjåvatnet" />
		<tag k="natural" v="water" />
		<tag k="ssr:stedsnr" v="383679" />
	</node>
	<node id="-92881" lat="70.0093000026" lon="18.9333750059">
		<tag k="name" v="Storelva" />
		<tag k="ssr:stedsnr" v="383665" />
		<tag k="waterway" v="stream" />
	</node>
	<node id="-92880" lat="70.0021722226" lon="18.9150361155">
		<tag k="name" v="Laksevatnet" />
		<tag k="natural" v="water" />
		<tag k="ssr:stedsnr" v="383662" />
	</node>
	<node id="-90831" lat="69.9909388897" lon="18.9794277676">
		<tag k="alt_name" v="Nattmålsvatnet" />
		<tag k="name" v="Nattmålvatnet" />
		<tag k="natural" v="water" />
		<tag k="ssr:stedsnr" v="505187" />
		<tag k="water" v="lake" />
	</node>
	<node id="-90829" lat="69.996980556" lon="19.1224027782">
		<tag k="alt_name" v="Tennvatnet, nordre" />
		<tag k="fixme" v="multiple name tags, choose one and add the other to alt_name" />
		<tag k="name" v="Nedre Tennvatn;Nordre Tennvatnet" />
		<tag k="natural" v="water" />
		<tag k="ssr:stedsnr" v="505175" />
	</node>
	<node id="-92873" lat="69.9808527775" lon="19.6276111123">
		<tag k="alt_name" v="Nordgårdselva;Nordgårdelva" />
		<tag k="name" v="Nordgardselva" />
		<tag k="ssr:stedsnr" v="383626" />
		<tag k="waterway" v="stream" />
	</node>
	<node id="-92872" lat="69.9755444405" lon="19.314372223">
		<tag k="name" v="Langvatnet" />
		<tag k="natural" v="water" />
		<tag k="ssr:stedsnr" v="383620" />
	</node>
	<node id="-90823" lat="70.0089999981" lon="19.626547202">
		<tag k="name" v="Skarvatnet" />
		<tag k="natural" v="water" />
		<tag k="ssr:stedsnr" v="504952" />
	</node>
	<node id="-92870" lat="70.161919447" lon="19.0488944288">
		<tag k="name" v="Kopparvikelva" />
		<tag k="ssr:stedsnr" v="383618" />
		<tag k="waterway" v="stream" />
	</node>
	<node id="-90816" lat="70.1830916699" lon="19.6625111141">
		<tag k="alt_name" v="Klokkevollselva;Kokkevollselva" />
		<tag k="name" v="Kokkvollelva" />
		<tag k="ssr:stedsnr" v="504804" />
		<tag k="waterway" v="stream" />
	</node>
	<node id="-92863" lat="69.9226944427" lon="19.2525555511">
		<tag k="name" v="Lokan" />
		<tag k="place" v="locality" />
		<tag k="ssr:stedsnr" v="383594" />
	</node>
	<node id="-90808" lat="69.8518250013" lon="19.4697055502">
		<tag k="fixme" v="multiple name tags, choose one and add the other to alt_name" />
		<tag k="name" v="Småvatnet;Lillevatnet" />
		<tag k="natural" v="water" />
		<tag k="ssr:stedsnr" v="504689" />
	</node>
	<node id="-92853" lat="69.9053750036" lon="19.7006333383">
		<tag k="name" v="Hellebekken" />
		<tag k="ssr:stedsnr" v="383557" />
		<tag k="waterway" v="stream" />
	</node>
	<node id="-92850" lat="69.8954694485" lon="19.420122216">
		<tag k="name" v="Kopparelva" />
		<tag k="ssr:stedsnr" v="383550" />
		<tag k="waterway" v="stream" />
	</node>
	<node id="-92847" lat="69.9126305558" lon="19.6088277603">
		<tag k="name" v="Reinskarelva" />
		<tag k="ssr:stedsnr" v="383531" />
		<tag k="waterway" v="river" />
	</node>
	<node id="-90798" lat="70.1620000032" lon="18.8209666681">
		<tag k="name" v="Nordvikvatnet" />
		<tag k="natural" v="water" />
		<tag k="ssr:stedsnr" v="504601" />
	</node>
	<node id="-90794" lat="70.1514999977" lon="19.0625833385">
		<tag k="name" v="Durmålsvatnet" />
		<tag k="natural" v="water" />
		<tag k="ssr:stedsnr" v="504585" />
	</node>
	<node id="-91591" lat="69.8797250033" lon="19.528202763">
		<tag k="name" v="Middagsnesvatnan" />
		<tag k="natural" v="water" />
		<tag k="ssr:stedsnr" v="930761" />
		<tag k="water" v="lake" />
	</node>
	<node id="-92834" lat="70.2938361137" lon="20.1825249912">
		<tag k="name" v="Stempelvatnet" />
		<tag k="natural" v="water" />
		<tag k="ssr:stedsnr" v="383356" />
	</node>
	<node id="-90769" lat="70.0779583362" lon="19.8549611123">
		<tag k="name" v="Skarvatnet" />
		<tag k="natural" v="water" />
		<tag k="ssr:stedsnr" v="504060" />
	</node>
	<node id="-92815" lat="69.9806555564" lon="19.1270083297">
		<tag k="name" v="Sennebukta" />
		<tag k="natural" v="bay" />
		<tag k="ssr:stedsnr" v="354981" />
	</node>
	<node id="-90762" lat="69.9449666674" lon="19.1899305464">
		<tag k="name" v="Lille Holmebuktholmen" />
		<tag k="place" v="islet" />
		<tag k="ssr:stedsnr" v="354933" />
	</node>
	<node id="-92809" lat="69.9978972248" lon="19.1337944483">
		<tag k="name" v="Nedre Tennvasselva" />
		<tag k="ssr:stedsnr" v="354894" />
		<tag k="waterway" v="stream" />
	</node>
	<node id="-92808" lat="69.9847999987" lon="19.1174166553">
		<tag k="name" v="Garnholman" />
		<tag k="place" v="islet" />
		<tag k="ssr:stedsnr" v="354884" />
	</node>
	<node id="-92805" lat="70.0660388895" lon="19.0887388865">
		<tag k="name" v="Store Finnengelva" />
		<tag k="ssr:stedsnr" v="354800" />
		<tag k="waterway" v="stream" />
	</node>
	<node id="-90747" lat="70.0216249964" lon="19.4992277736">
		<tag k="name" v="Finnelvvatnet" />
		<tag k="natural" v="water" />
		<tag k="ssr:stedsnr" v="476986" />
	</node>
	<node id="-92791" lat="70.0747111078" lon="19.9651360878">
		<tag k="name" v="Vannvågelva" />
		<tag k="ssr:stedsnr" v="354397" />
		<tag k="waterway" v="river" />
	</node>
	<node id="-90742" lat="69.96745278" lon="19.1389722254">
		<tag k="name" v="Gårdsnes" />
		<tag k="natural" v="cape" />
		<tag k="ssr:stedsnr" v="475991" />
	</node>
	<node id="-92789" lat="70.0966611086" lon="19.9784138851">
		<tag k="name" v="Nord-Vannvågelva" />
		<tag k="ssr:stedsnr" v="354393" />
		<tag k="waterway" v="river" />
	</node>
	<node id="-90738" lat="70.0599527793" lon="19.8852277702">
		<tag k="name" v="Skjevikelva" />
		<tag k="ssr:stedsnr" v="322070" />
		<tag k="waterway" v="stream" />
	</node>
	<node id="-90735" lat="69.9865444447" lon="19.128994425">
		<tag k="name" v="Lamholmen" />
		<tag k="place" v="islet" />
		<tag k="ssr:stedsnr" v="475901" />
	</node>
	<node id="-92776" lat="69.9297916681" lon="19.1458972163">
		<tag k="name" v="Middagselva" />
		<tag k="ssr:stedsnr" v="354230" />
		<tag k="waterway" v="stream" />
	</node>
	<node id="-90726" lat="69.9575833356" lon="19.2528110994">
		<tag k="name" v="Vardetutjønna" />
		<tag k="natural" v="water" />
		<tag k="ssr:stedsnr" v="475741" />
	</node>
	<node id="-92772" lat="70.1160805537" lon="19.4258277712">
		<tag k="name" v="Finnbytjernet" />
		<tag k="natural" v="water" />
		<tag k="ssr:stedsnr" v="354215" />
		<tag k="water" v="pond" />
	</node>
	<node id="-90720" lat="70.1427166649" lon="19.733294424">
		<tag k="name" v="Storskovatnet" />
		<tag k="natural" v="water" />
		<tag k="ssr:stedsnr" v="475500" />
		<tag k="water" v="lake" />
	</node>
	<node id="-92767" lat="70.0876666646" lon="19.1938916549">
		<tag k="name" v="Veggevikelva" />
		<tag k="ssr:stedsnr" v="354178" />
		<tag k="waterway" v="stream" />
	</node>
	<node id="-92766" lat="70.0717055532" lon="19.1874416617">
		<tag k="name" v="Fagerfjordvatnan" />
		<tag k="natural" v="water" />
		<tag k="ssr:stedsnr" v="354176" />
		<tag k="water" v="lake" />
	</node>
	<node id="-92765" lat="69.8861749969" lon="19.4793583124">
		<tag k="name" v="Gårdselva" />
		<tag k="ssr:stedsnr" v="354147" />
		<tag k="waterway" v="stream" />
	</node>
	<node id="-92761" lat="69.9478861085" lon="19.8272944443">
		<tag k="name" v="Finnstadelva" />
		<tag k="ssr:stedsnr" v="354093" />
		<tag k="waterway" v="stream" />
	</node>
	<node id="-90709" lat="69.9908333384" lon="19.8472222077">
		<tag k="name" v="Skarvesteinelva" />
		<tag k="ssr:stedsnr" v="475361" />
		<tag k="waterway" v="stream" />
	</node>
	<node id="-92756" lat="69.9415777771" lon="19.8160722201">
		<tag k="name" v="Tjønna" />
		<tag k="natural" v="water" />
		<tag k="ssr:stedsnr" v="354061" />
	</node>
	<node id="-92750" lat="69.9694472253" lon="19.7168499837">
		<tag k="name" v="Jetlegangselva" />
		<tag k="ssr:stedsnr" v="354031" />
		<tag k="waterway" v="stream" />
	</node>
	<node id="-92746" lat="70.2502999983" lon="19.5174972158">
		<tag k="name" v="Jørnholltjønna" />
		<tag k="natural" v="water" />
		<tag k="ssr:stedsnr" v="353829" />
	</node>
	<node id="-90694" lat="69.9086361094" lon="19.5969111088">
		<tag k="name" v="Stortindvannelva" />
		<tag k="ssr:stedsnr" v="475200" />
		<tag k="waterway" v="stream" />
	</node>
	<node id="-92741" lat="70.1174499983" lon="19.1336833158">
		<tag k="name" v="Skjeggebonelva" />
		<tag k="ssr:stedsnr" v="353673" />
		<tag k="waterway" v="stream" />
	</node>
	<node id="-92740" lat="70.1081527744" lon="19.7321916555">
		<tag k="name" v="Kvantoelva" />
		<tag k="ssr:stedsnr" v="353486" />
		<tag k="waterway" v="stream" />
	</node>
	<node id="-92738" lat="69.978752779" lon="19.8512416442">
		<tag k="name" v="Holmen" />
		<tag k="natural" v="cape" />
		<tag k="ssr:stedsnr" v="353391" />
	</node>
	<node id="-92724" lat="69.9162777828" lon="19.5523944324">
		<tag k="name" v="Karielva" />
		<tag k="ssr:stedsnr" v="353806" />
		<tag k="waterway" v="stream" />
	</node>
	<node id="-90674" lat="69.9780888897" lon="19.355549982">
		<tag k="name" v="Skjellnes" />
		<tag k="natural" v="cape" />
		<tag k="ssr:stedsnr" v="475032" />
	</node>
	<node id="-92717" lat="69.8682555585" lon="19.6510610938">
		<tag k="name" v="Lille Tverrelva" />
		<tag k="ssr:stedsnr" v="352988" />
		<tag k="waterway" v="stream" />
	</node>
	<node id="-90546" lat="70.0051805533" lon="18.954741664">
		<tag k="name" v="Middagselva" />
		<tag k="ssr:stedsnr" v="444654" />
		<tag k="waterway" v="stream" />
	</node>
	<node id="-92712" lat="70.2875305589" lon="20.2188138807">
		<tag k="name" v="Nikalaselva" />
		<tag k="ssr:stedsnr" v="351060" />
		<tag k="waterway" v="stream" />
	</node>
	<node id="-90660" lat="70.2312333315" lon="19.5199805519">
		<tag k="name" v="Leirbogelva" />
		<tag k="ssr:stedsnr" v="474826" />
		<tag k="waterway" v="stream" />
	</node>
	<node id="-90657" lat="70.1851416631" lon="19.2428305394">
		<tag k="name" v="Lillevatnet" />
		<tag k="natural" v="water" />
		<tag k="ssr:stedsnr" v="474214" />
	</node>
	<node id="-90653" lat="69.9916833306" lon="19.5108888832">
		<tag k="name" v="Tverrelvvatnan" />
		<tag k="natural" v="water" />
		<tag k="ssr:stedsnr" v="474163" />
		<tag k="water" v="lake" />
	</node>
	<node id="-90445" lat="69.8615388921" lon="19.2256805601">
		<tag k="name" v="Midterelvvatnet" />
		<tag k="natural" v="water" />
		<tag k="ssr:stedsnr" v="201734" />
	</node>
	<node id="-92679" lat="70.1037416652" lon="20.0111110995">
		<tag k="name" v="Stuvikvatnet" />
		<tag k="natural" v="water" />
		<tag k="ssr:stedsnr" v="323907" />
	</node>
	<node id="-92675" lat="70.1486638913" lon="19.3831277706">
		<tag k="name" v="Rekvikvatnet" />
		<tag k="natural" v="water" />
		<tag k="ssr:stedsnr" v="323845" />
	</node>
	<node id="-91945" lat="69.9481499953" lon="19.6929583332">
		<tag k="name" v="Lillevatnet" />
		<tag k="natural" v="water" />
		<tag k="ssr:stedsnr" v="51284" />
	</node>
	<node id="-90625" lat="70.2095861071" lon="19.6175944384">
		<tag k="name" v="Kuvatnan" />
		<tag k="natural" v="water" />
		<tag k="ssr:stedsnr" v="293672" />
		<tag k="water" v="lake" />
	</node>
	<node id="-92671" lat="69.9110444418" lon="19.0391083382">
		<tag k="alt_name" v="Søren-Gabrielsavannet" />
		<tag k="name" v="Søren Gabrielsenvatnet" />
		<tag k="natural" v="water" />
		<tag k="ssr:stedsnr" v="323811" />
		<tag k="water" v="lake" />
	</node>
	<node id="-90619" lat="70.1863194486" lon="19.8853888879">
		<tag k="name" v="Lanesørvatnan" />
		<tag k="natural" v="water" />
		<tag k="ssr:stedsnr" v="290573" />
		<tag k="water" v="lake" />
	</node>
	<node id="-92664" lat="69.8673944442" lon="19.3369666554">
		<tag k="name" v="Bjørnskarvatnan" />
		<tag k="natural" v="water" />
		<tag k="ssr:stedsnr" v="323732" />
		<tag k="water" v="lake" />
	</node>
	<node id="-92662" lat="70.0524416661" lon="19.1903305439">
		<tag k="alt_name" v="Kjølkråvatnet" />
		<tag k="name" v="Kjølkrovatnet" />
		<tag k="natural" v="water" />
		<tag k="ssr:stedsnr" v="323719" />
	</node>
	<node id="-92661" lat="70.0469749977" lon="19.0636166682">
		<tag k="name" v="Trollvatnet" />
		<tag k="natural" v="water" />
		<tag k="ssr:stedsnr" v="323709" />
	</node>
	<node id="-92658" lat="70.0368388906" lon="19.1644749824">
		<tag k="name" v="Kjølvatnet" />
		<tag k="natural" v="water" />
		<tag k="ssr:stedsnr" v="323698" />
	</node>
	<node id="-92657" lat="69.8544361153" lon="19.4693722082">
		<tag k="name" v="Storvatnet" />
		<tag k="natural" v="water" />
		<tag k="ssr:stedsnr" v="323695" />
	</node>
	<node id="-92651" lat="69.9621027749" lon="19.2715805342">
		<tag k="name" v="Krokvatnet" />
		<tag k="natural" v="water" />
		<tag k="ssr:stedsnr" v="323571" />
	</node>
	<node id="-90239" lat="69.9195361155" lon="19.4311777648">
		<tag k="name" v="Nonshaugvatnet" />
		<tag k="natural" v="water" />
		<tag k="ssr:stedsnr" v="262569" />
	</node>
	<node id="-92639" lat="70.2200694406" lon="19.12626944">
		<tag k="name" v="Rekvikvatnet" />
		<tag k="natural" v="water" />
		<tag k="ssr:stedsnr" v="323362" />
	</node>
	<node id="-91898" lat="70.0257555508" lon="18.8705805595">
		<tag k="name" v="Futjordelva" />
		<tag k="ssr:stedsnr" v="49448" />
		<tag k="waterway" v="stream" />
	</node>
	<node id="-91897" lat="69.8745055522" lon="19.4576194355">
		<tag k="name" v="Jamtebyelva" />
		<tag k="ssr:stedsnr" v="49150" />
		<tag k="waterway" v="stream" />
	</node>
	<node id="-90190" lat="69.9444555551" lon="19.6942361038">
		<tag k="name" v="Storvatnet" />
		<tag k="natural" v="water" />
		<tag k="ssr:stedsnr" v="261547" />
	</node>
	<node id="-91125" lat="70.2185638857" lon="19.2188194375">
		<tag k="name" v="Rønnes" />
		<tag k="natural" v="cape" />
		<tag k="ssr:stedsnr" v="535223" />
	</node>
	<node id="-92622" lat="69.9958666626" lon="19.2243833281">
		<tag k="name" v="Leirbugvatnan" />
		<tag k="natural" v="water" />
		<tag k="ssr:stedsnr" v="322882" />
		<tag k="water" v="lake" />
	</node>
	<node id="-92616" lat="69.971002778" lon="19.09233056">
		<tag k="name" v="Joholmen" />
		<tag k="place" v="islet" />
		<tag k="ssr:stedsnr" v="322854" />
	</node>
	<node id="-92613" lat="70.1104611115" lon="19.5176166701">
		<tag k="name" v="Storvatnet" />
		<tag k="natural" v="water" />
		<tag k="ssr:stedsnr" v="322792" />
	</node>
	<node id="-92607" lat="69.8587361129" lon="19.5553694279">
		<tag k="name" v="Hundvatnet" />
		<tag k="natural" v="water" />
		<tag k="ssr:stedsnr" v="322684" />
	</node>
	<node id="-90554" lat="70.2168916627" lon="19.6414111078">
		<tag k="name" v="Tvinnarelva" />
		<tag k="ssr:stedsnr" v="444859" />
		<tag k="waterway" v="stream" />
	</node>
	<node id="-92594" lat="69.9744305592" lon="19.292144434">
		<tag k="name" v="Trollvatnet" />
		<tag k="natural" v="water" />
		<tag k="ssr:stedsnr" v="322610" />
	</node>
	<node id="-92592" lat="69.9960250014" lon="19.4054110977">
		<tag k="name" v="Breielva" />
		<tag k="ssr:stedsnr" v="322605" />
		<tag k="waterway" v="stream" />
	</node>
	<node id="-92591" lat="70.1637388859" lon="19.1491777752">
		<tag k="name" v="Litlevatnet" />
		<tag k="natural" v="water" />
		<tag k="ssr:stedsnr" v="322603" />
	</node>
	<node id="-90538" lat="70.0720499985" lon="18.9462583399">
		<tag k="name" v="Kjoselva" />
		<tag k="ssr:stedsnr" v="444747" />
		<tag k="waterway" v="stream" />
	</node>
	<node id="-92582" lat="69.9125666627" lon="19.2763944424">
		<tag k="name" v="Fiskelausvatnet" />
		<tag k="natural" v="water" />
		<tag k="ssr:stedsnr" v="322544" />
	</node>
	<node id="-90532" lat="69.9771805599" lon="19.3591305555">
		<tag k="name" v="Monsevatnet" />
		<tag k="natural" v="water" />
		<tag k="ssr:stedsnr" v="444593" />
		<tag k="water" v="lake" />
	</node>
	<node id="-90305" lat="69.928963885" lon="19.1034527709">
		<tag k="fixme" v="multiple name tags, choose one and add the other to alt_name" />
		<tag k="name" v="Kårvikbuktvatnet;Kårvikvatnet" />
		<tag k="natural" v="water" />
		<tag k="ssr:stedsnr" v="140811" />
	</node>
	<node id="-92570" lat="69.8898749968" lon="19.1558444338">
		<tag k="name" v="Iselva" />
		<tag k="ssr:stedsnr" v="322402" />
		<tag k="waterway" v="river" />
	</node>
	<node id="-90521" lat="70.1280861069" lon="19.159255555">
		<tag k="fixme" v="multiple name tags, choose one and add the other to alt_name" />
		<tag k="name" v="Rødgammvatnet;Storvatnet" />
		<tag k="natural" v="water" />
		<tag k="ssr:stedsnr" v="444558" />
	</node>
	<node id="-90519" lat="69.9589527782" lon="19.2771638836">
		<tag k="name" v="Rundvatnet" />
		<tag k="natural" v="water" />
		<tag k="ssr:stedsnr" v="444556" />
	</node>
	<node id="-92565" lat="70.2636749977" lon="19.6174361133">
		<tag k="name" v="Stakkengvatnan" />
		<tag k="natural" v="water" />
		<tag k="ssr:stedsnr" v="322380" />
		<tag k="water" v="lake" />
	</node>
	<node id="-90515" lat="70.0816111096" lon="18.9369027811">
		<tag k="name" v="Pedervatnet" />
		<tag k="natural" v="water" />
		<tag k="ssr:stedsnr" v="444481" />
	</node>
	<node id="-90514" lat="69.9056972215" lon="19.1710499898">
		<tag k="fixme" v="multiple name tags, choose one and add the other to alt_name" />
		<tag k="name" v="Botnelva;Inste Botnelva" />
		<tag k="ssr:stedsnr" v="444390" />
		<tag k="waterway" v="river" />
	</node>
	<node id="-91544" lat="70.1431972219" lon="19.7346999904">
		<tag k="name" v="Hamrevatnan" />
		<tag k="natural" v="water" />
		<tag k="ssr:stedsnr" v="929781" />
		<tag k="water" v="lake" />
	</node>
	<node id="-92553" lat="69.9818722215" lon="19.0507055418">
		<tag k="fixme" v="multiple name tags, choose one and add the other to alt_name" />
		<tag k="name" v="Innerelvvatnet;Rørvatnet" />
		<tag k="natural" v="water" />
		<tag k="ssr:stedsnr" v="322166" />
	</node>
	<node id="-92551" lat="70.2219916626" lon="19.1864333239">
		<tag k="name" v="Nervatnet" />
		<tag k="natural" v="water" />
		<tag k="ssr:stedsnr" v="303630" />
		<tag k="water" v="lake" />
	</node>
	<node id="-92550" lat="70.2104277782" lon="19.1368805418">
		<tag k="name" v="Ressmålskarvatnet" />
		<tag k="natural" v="water" />
		<tag k="ssr:stedsnr" v="303341" />
	</node>
	<node id="-92537" lat="70.0977222207" lon="20.0362055532">
		<tag k="name" v="Store Jøvikvatnet" />
		<tag k="natural" v="water" />
		<tag k="ssr:stedsnr" v="206855" />
		<tag k="water" v="lake" />
	</node>
	<node id="-90488" lat="70.150094444" lon="19.7494166651">
		<tag k="name" v="Lille Kjerringvatnet" />
		<tag k="natural" v="water" />
		<tag k="ssr:stedsnr" v="233517" />
	</node>
	<node id="-90487" lat="70.0534694421" lon="19.9320694382">
		<tag k="name" v="Storelva" />
		<tag k="ssr:stedsnr" v="233405" />
		<tag k="waterway" v="stream" />
	</node>
	<node id="-90483" lat="70.2340916709" lon="19.5088194376">
		<tag k="name" v="Leirbogtjønnan" />
		<tag k="natural" v="water" />
		<tag k="ssr:stedsnr" v="232805" />
		<tag k="water" v="lake" />
	</node>
	<node id="-92522" lat="70.0243555543" lon="19.5126722134">
		<tag k="name" v="Finnelva" />
		<tag k="ssr:stedsnr" v="201987" />
		<tag k="waterway" v="stream" />
	</node>
	<node id="-90466" lat="69.8753972253" lon="19.6741472267">
		<tag k="name" v="Urkroken" />
		<tag k="natural" v="bay" />
		<tag k="ssr:stedsnr" v="231056" />
	</node>
	<node id="-90464" lat="69.8417027814" lon="19.4180749833">
		<tag k="name" v="Vassåsvatnet" />
		<tag k="natural" v="water" />
		<tag k="ssr:stedsnr" v="231015" />
	</node>
	<node id="-92507" lat="70.1095194467" lon="19.9843638837">
		<tag k="name" v="Oksevatnet" />
		<tag k="natural" v="water" />
		<tag k="ssr:stedsnr" v="201897" />
	</node>
	<node id="-92506" lat="70.1002666638" lon="19.8470444219">
		<tag k="name" v="Storvatnet" />
		<tag k="natural" v="water" />
		<tag k="ssr:stedsnr" v="201886" />
	</node>
	<node id="-90455" lat="70.0216249964" lon="19.4992277736">
		<tag k="name" v="Finnelvvatnan" />
		<tag k="natural" v="water" />
		<tag k="ssr:stedsnr" v="294576" />
		<tag k="water" v="lake" />
	</node>
	<node id="-90169" lat="69.8641666676" lon="19.5093555548">
		<tag k="name" v="Tredje Tverrelva" />
		<tag k="ssr:stedsnr" v="110015" />
		<tag k="waterway" v="stream" />
	</node>
	<node id="-90452" lat="69.9276722203" lon="19.7525972076">
		<tag k="name" v="Temmerelva" />
		<tag k="ssr:stedsnr" v="294072" />
		<tag k="waterway" v="stream" />
	</node>
	<node id="-90448" lat="69.9822611119" lon="19.1242444336">
		<tag k="name" v="Jollebukta" />
		<tag k="natural" v="bay" />
		<tag k="ssr:stedsnr" v="293973" />
	</node>
	<node id="-92493" lat="69.9226333297" lon="19.1857499993">
		<tag k="name" v="Koppmolneset" />
		<tag k="natural" v="cape" />
		<tag k="ssr:stedsnr" v="201799" />
	</node>
	<node id="-90444" lat="70.0662888885" lon="18.9054250044">
		<tag k="name" v="Trollhammarelva" />
		<tag k="ssr:stedsnr" v="201732" />
		<tag k="waterway" v="stream" />
	</node>
	<node id="-92489" lat="70.1441166629" lon="19.770516657">
		<tag k="name" v="Ringvatnet" />
		<tag k="natural" v="water" />
		<tag k="ssr:stedsnr" v="201772" />
	</node>
	<node id="-92484" lat="70.0084000008" lon="18.9424861138">
		<tag k="name" v="Gjertrudvatnet" />
		<tag k="natural" v="water" />
		<tag k="ssr:stedsnr" v="201633" />
	</node>
	<node id="-90432" lat="70.0423527804" lon="19.0825888827">
		<tag k="name" v="Pjettelva" />
		<tag k="ssr:stedsnr" v="293958" />
		<tag k="waterway" v="stream" />
	</node>
	<node id="-90425" lat="69.8960083305" lon="19.4464194315">
		<tag k="name" v="Nordjordelva" />
		<tag k="ssr:stedsnr" v="293844" />
		<tag k="waterway" v="stream" />
	</node>
	<node id="-92467" lat="69.9250305514" lon="19.6977444416">
		<tag k="name" v="Rundfjellvatnet" />
		<tag k="natural" v="water" />
		<tag k="ssr:stedsnr" v="201520" />
	</node>
	<node id="-92461" lat="69.9167611102" lon="19.3733833208">
		<tag k="name" v="Syrgrasvatnet" />
		<tag k="natural" v="water" />
		<tag k="ssr:stedsnr" v="201484" />
	</node>
	<node id="-90412" lat="70.1521361074" lon="19.786641649">
		<tag k="name" v="Tararelva" />
		<tag k="ssr:stedsnr" v="293514" />
		<tag k="waterway" v="stream" />
	</node>
	<node id="-91527" lat="69.8811694473" lon="19.2469166716">
		<tag k="name" v="Midterelvdalsvatnan" />
		<tag k="natural" v="water" />
		<tag k="ssr:stedsnr" v="929500" />
		<tag k="water" v="lake" />
	</node>
	<node id="-92456" lat="70.078505553" lon="18.9554444436">
		<tag k="name" v="Gamlegårdsvatnet" />
		<tag k="natural" v="water" />
		<tag k="ssr:stedsnr" v="201475" />
	</node>
	<node id="-92455" lat="69.9089055584" lon="19.4362527806">
		<tag k="alt_name" v="Gammneselva" />
		<tag k="name" v="Gamneselva" />
		<tag k="ssr:stedsnr" v="201470" />
		<tag k="waterway" v="stream" />
	</node>
	<node id="-90391" lat="70.0242416682" lon="18.9746777709">
		<tag k="name" v="Håkejordelva" />
		<tag k="ssr:stedsnr" v="293270" />
		<tag k="waterway" v="stream" />
	</node>
	<node id="-90387" lat="70.1018527811" lon="19.5161000016">
		<tag k="name" v="Innerbyelva" />
		<tag k="ssr:stedsnr" v="293249" />
		<tag k="waterway" v="stream" />
	</node>
	<node id="-91255" lat="69.9836972181" lon="19.1278083315">
		<tag k="name" v="Blålusholmen" />
		<tag k="place" v="islet" />
		<tag k="ssr:stedsnr" v="718969" />
	</node>
	<node id="-90381" lat="70.0083388921" lon="19.0681222281">
		<tag k="name" v="Lomstjønna" />
		<tag k="natural" v="water" />
		<tag k="ssr:stedsnr" v="293213" />
	</node>
	<node id="-91522" lat="70.0754333343" lon="18.916852763">
		<tag k="name" v="Toftefjordvatnan" />
		<tag k="natural" v="water" />
		<tag k="ssr:stedsnr" v="929483" />
		<tag k="water" v="lake" />
	</node>
	<node id="-92423" lat="69.9648555557" lon="19.1523888819">
		<tag k="name" v="Moltebærneset" />
		<tag k="natural" v="cape" />
		<tag k="ssr:stedsnr" v="172989" />
	</node>
	<node id="-90374" lat="70.0772027785" lon="19.1775194275">
		<tag k="name" v="Fagerfjordtjønna" />
		<tag k="natural" v="water" />
		<tag k="ssr:stedsnr" v="293187" />
	</node>
	<node id="-92421" lat="70.0354749966" lon="19.1028611109">
		<tag k="name" v="Lilleelva" />
		<tag k="ssr:stedsnr" v="172970" />
		<tag k="waterway" v="stream" />
	</node>
	<node id="-92418" lat="69.9711611118" lon="19.0868472247">
		<tag k="name" v="Skarsfjordbukta" />
		<tag k="natural" v="bay" />
		<tag k="ssr:stedsnr" v="172919" />
	</node>
	<node id="-92415" lat="69.9844250026" lon="19.1210916672">
		<tag k="name" v="Langholmen" />
		<tag k="place" v="islet" />
		<tag k="ssr:stedsnr" v="172910" />
	</node>
	<node id="-90365" lat="69.9840611138" lon="19.6551833238">
		<tag k="name" v="Sirielva" />
		<tag k="ssr:stedsnr" v="293076" />
		<tag k="waterway" v="stream" />
	</node>
	<node id="-90361" lat="69.9121277825" lon="19.7704055394">
		<tag k="name" v="Vikelva" />
		<tag k="ssr:stedsnr" v="293058" />
		<tag k="waterway" v="stream" />
	</node>
	<node id="-90360" lat="69.8550027758" lon="19.5973388806">
		<tag k="name" v="Legdeelva" />
		<tag k="ssr:stedsnr" v="292995" />
		<tag k="waterway" v="stream" />
	</node>
	<node id="-90355" lat="70.2252888879" lon="19.5182361133">
		<tag k="name" v="Torbeinsundelva" />
		<tag k="ssr:stedsnr" v="292833" />
		<tag k="waterway" v="stream" />
	</node>
	<node id="-90347" lat="70.247388892" lon="20.2675833233">
		<tag k="name" v="Hårdskarelva" />
		<tag k="ssr:stedsnr" v="291019" />
		<tag k="waterway" v="stream" />
	</node>
	<node id="-90346" lat="70.1683611101" lon="19.9579138685">
		<tag k="name" v="Bjørndalsvatnet" />
		<tag k="natural" v="water" />
		<tag k="ssr:stedsnr" v="290589" />
	</node>
	<node id="-90341" lat="69.8975027783" lon="19.4380666508">
		<tag k="name" v="Vasselva" />
		<tag k="ssr:stedsnr" v="171842" />
		<tag k="waterway" v="stream" />
	</node>
	<node id="-92387" lat="70.0255666664" lon="19.4078472256">
		<tag k="name" v="Langstrandvatnet" />
		<tag k="natural" v="water" />
		<tag k="ssr:stedsnr" v="172224" />
	</node>
	<node id="-92384" lat="70.0814138883" lon="18.9130027619">
		<tag k="name" v="Nedre Toftefjordvatnet" />
		<tag k="natural" v="water" />
		<tag k="ssr:stedsnr" v="172212" />
		<tag k="water" v="lake" />
	</node>
	<node id="-90334" lat="70.0096916709" lon="19.6232499958">
		<tag k="name" v="Ole-Jonsaelva" />
		<tag k="ssr:stedsnr" v="171021" />
		<tag k="waterway" v="stream" />
	</node>
	<node id="-92379" lat="69.9210944474" lon="19.1854138727">
		<tag k="name" v="Oterhollet" />
		<tag k="natural" v="bay" />
		<tag k="ssr:stedsnr" v="172179" />
	</node>
	<node id="-90329" lat="69.8375250038" lon="19.435419438">
		<tag k="name" v="Finnkrokelva" />
		<tag k="ssr:stedsnr" v="170010" />
		<tag k="waterway" v="stream" />
	</node>
	<node id="-90489" lat="70.1612194468" lon="19.8063083236">
		<tag k="name" v="Bjørnelva" />
		<tag k="ssr:stedsnr" v="233524" />
		<tag k="waterway" v="stream" />
	</node>
	<node id="-92371" lat="69.9303111102" lon="19.2664499836">
		<tag k="name" v="Indre Grønlifjellvatnet" />
		<tag k="natural" v="water" />
		<tag k="ssr:stedsnr" v="172159" />
		<tag k="water" v="lake" />
	</node>
	<node id="-92369" lat="69.9281194446" lon="19.2828999997">
		<tag k="name" v="Skogneset" />
		<tag k="natural" v="cape" />
		<tag k="ssr:stedsnr" v="172154" />
	</node>
	<node id="-92354" lat="70.0230472211" lon="19.2154722159">
		<tag k="name" v="Øvervatnet" />
		<tag k="natural" v="water" />
		<tag k="ssr:stedsnr" v="171778" />
	</node>
	<node id="-92353" lat="70.036870439" lon="19.2672131389">
		<tag k="name" v="Storelva" />
		<tag k="ssr:stedsnr" v="171776" />
		<tag k="waterway" v="stream" />
	</node>
	<node id="-92343" lat="69.9777333346" lon="19.8420305402">
		<tag k="name" v="Polen" />
		<tag k="natural" v="cape" />
		<tag k="ssr:stedsnr" v="171374" />
	</node>
	<node id="-90825" lat="70.015416663" lon="19.4021972105">
		<tag k="name" v="Jettaelva" />
		<tag k="ssr:stedsnr" v="504957" />
		<tag k="waterway" v="stream" />
	</node>
	<node id="-90291" lat="70.0107138909" lon="18.8573722246">
		<tag k="name" v="Jøvikelva" />
		<tag k="ssr:stedsnr" v="263510" />
		<tag k="waterway" v="river" />
	</node>
	<node id="-92336" lat="69.9388805562" lon="19.4677444399">
		<tag k="name" v="Trollvatnet" />
		<tag k="natural" v="water" />
		<tag k="ssr:stedsnr" v="171163" />
	</node>
	<node id="-92333" lat="70.1314888866" lon="19.2000416568">
		<tag k="name" v="Storelva" />
		<tag k="ssr:stedsnr" v="171128" />
		<tag k="waterway" v="stream" />
	</node>
	<node id="-92331" lat="69.8835444483" lon="19.6806694302">
		<tag k="name" v="Verselelva" />
		<tag k="ssr:stedsnr" v="170984" />
		<tag k="waterway" v="stream" />
	</node>
	<node id="-90282" lat="70.1405749992" lon="19.8351722073">
		<tag k="name" v="Ømmervatnet" />
		<tag k="natural" v="water" />
		<tag k="ssr:stedsnr" v="262937" />
	</node>
	<node id="-90277" lat="70.2170861116" lon="19.696872204">
		<tag k="name" v="Bukkevatnet" />
		<tag k="natural" v="water" />
		<tag k="ssr:stedsnr" v="262879" />
	</node>
	<node id="-92323" lat="69.9076249995" lon="19.7674333117">
		<tag k="name" v="Hessebakkelva" />
		<tag k="ssr:stedsnr" v="171038" />
		<tag k="waterway" v="stream" />
	</node>
	<node id="-90273" lat="69.9441972244" lon="19.1890027671">
		<tag k="alt_name" v="Buktholmen" />
		<tag k="name" v="Store Holmebuktholmen" />
		<tag k="place" v="islet" />
		<tag k="ssr:stedsnr" v="262857" />
	</node>
	<node id="-90270" lat="70.1154111111" lon="19.4663249943">
		<tag k="name" v="Gullelvvatnan" />
		<tag k="natural" v="water" />
		<tag k="ssr:stedsnr" v="262844" />
		<tag k="water" v="lake" />
	</node>
	<node id="-92317" lat="69.8571444487" lon="19.501941667">
		<tag k="name" v="Andre Tverrelva" />
		<tag k="ssr:stedsnr" v="170058" />
		<tag k="waterway" v="stream" />
	</node>
	<node id="-90266" lat="69.8526583342" lon="19.3658555354">
		<tag k="name" v="Bjørnskarelva" />
		<tag k="ssr:stedsnr" v="262785" />
		<tag k="waterway" v="stream" />
	</node>
	<node id="-90264" lat="69.8711333315" lon="19.669963873">
		<tag k="name" v="Grøtneselva" />
		<tag k="ssr:stedsnr" v="262767" />
		<tag k="waterway" v="river" />
	</node>
	<node id="-90262" lat="69.893100002" lon="19.7212833296">
		<tag k="name" v="Søreidvatnet" />
		<tag k="natural" v="water" />
		<tag k="ssr:stedsnr" v="262755" />
	</node>
	<node id="-90261" lat="69.8896500021" lon="19.5383861053">
		<tag k="name" v="Rakkenesvatnet" />
		<tag k="natural" v="water" />
		<tag k="ssr:stedsnr" v="262751" />
	</node>
	<node id="-90258" lat="70.0339194475" lon="19.1176694464">
		<tag k="alt_name" v="Mellagårdselva" />
		<tag k="name" v="Mellomgårdselva" />
		<tag k="ssr:stedsnr" v="262717" />
		<tag k="waterway" v="river" />
	</node>
	<node id="-91501" lat="70.0665166704" lon="19.8952305432">
		<tag k="name" v="Femvatnan" />
		<tag k="natural" v="water" />
		<tag k="ssr:stedsnr" v="929060" />
		<tag k="water" v="lake" />
	</node>
	<node id="-90251" lat="69.9828583361" lon="19.2834055413">
		<tag k="name" v="Holmevatnet" />
		<tag k="natural" v="water" />
		<tag k="ssr:stedsnr" v="262606" />
		<tag k="water" v="lake" />
	</node>
	<node id="-92287" lat="70.0358833338" lon="19.2643500029">
		<tag k="name" v="Litlevatnet" />
		<tag k="natural" v="water" />
		<tag k="ssr:stedsnr" v="140972" />
		<tag k="water" v="lake" />
	</node>
	<node id="-92281" lat="70.1446749955" lon="19.8881805514">
		<tag k="name" v="Svartvatnan" />
		<tag k="natural" v="water" />
		<tag k="ssr:stedsnr" v="140927" />
	</node>
	<node id="-92275" lat="70.1850107484" lon="19.2316693624">
		<tag k="name" v="Indreskarvatnan" />
		<tag k="natural" v="water" />
		<tag k="ssr:stedsnr" v="140872" />
		<tag k="water" v="lake" />
	</node>
	<node id="-92263" lat="69.8530805554" lon="19.312075003">
		<tag k="name" v="Skallvatnan" />
		<tag k="natural" v="water" />
		<tag k="ssr:stedsnr" v="140744" />
	</node>
	<node id="-92258" lat="70.0609388875" lon="19.1906944361">
		<tag k="name" v="Veggefjordvatnan" />
		<tag k="natural" v="water" />
		<tag k="ssr:stedsnr" v="140731" />
		<tag k="water" v="lake" />
	</node>
	<node id="-92256" lat="69.8879861148" lon="19.4993499865">
		<tag k="alt_name" v="Middagselva" />
		<tag k="name" v="Middagsneselva" />
		<tag k="ssr:stedsnr" v="140711" />
		<tag k="waterway" v="stream" />
	</node>
	<node id="-91493" lat="70.1712944426" lon="19.9960722102">
		<tag k="name" v="Mollvikelva" />
		<tag k="ssr:stedsnr" v="778627" />
		<tag k="waterway" v="stream" />
	</node>
	<node id="-92250" lat="70.0390138857" lon="19.1503249873">
		<tag k="alt_name" v="Lavatnan" />
		<tag k="name" v="Lavvatnan" />
		<tag k="natural" v="water" />
		<tag k="ssr:stedsnr" v="140684" />
	</node>
	<node id="-90199" lat="70.1369694438" lon="19.7220666521">
		<tag k="name" v="Hamreelva" />
		<tag k="ssr:stedsnr" v="261760" />
		<tag k="waterway" v="stream" />
	</node>
	<node id="-90197" lat="69.8536444436" lon="19.5569138875">
		<tag k="name" v="Hundelva" />
		<tag k="ssr:stedsnr" v="261671" />
		<tag k="waterway" v="stream" />
	</node>
	<node id="-92243" lat="69.9792694442" lon="19.8538555414">
		<tag k="alt_name" v="Reinsvollelva, yt" />
		<tag k="fixme" v="multiple name tags, choose one and add the other to alt_name" />
		<tag k="name" v="Reinsvollelva;Ytre Reinsvollelva" />
		<tag k="ssr:stedsnr" v="140639" />
		<tag k="waterway" v="river" />
	</node>
	<node id="-91491" lat="69.9592305557" lon="19.5377333255">
		<tag k="name" v="Storelva" />
		<tag k="ssr:stedsnr" v="778128" />
		<tag k="waterway" v="stream" />
	</node>
	<node id="-90191" lat="69.9301166642" lon="19.4378277665">
		<tag k="name" v="Langvatnet" />
		<tag k="natural" v="water" />
		<tag k="ssr:stedsnr" v="261549" />
	</node>
	<node id="-92238" lat="69.9928749968" lon="19.7821000007">
		<tag k="alt_name" v="Mølneelvvannet" />
		<tag k="name" v="Mølnelvvatnet" />
		<tag k="natural" v="water" />
		<tag k="ssr:stedsnr" v="140609" />
	</node>
	<node id="-90186" lat="70.0190833378" lon="19.8665360987">
		<tag k="name" v="Arvikelva" />
		<tag k="ssr:stedsnr" v="112329" />
		<tag k="waterway" v="stream" />
	</node>
	<node id="-90185" lat="69.9619416669" lon="19.8575777622">
		<tag k="name" v="Hytteelva" />
		<tag k="ssr:stedsnr" v="112112" />
		<tag k="waterway" v="stream" />
	</node>
	<node id="-90182" lat="69.9528944414" lon="19.186891667">
		<tag k="name" v="Lillebuktelva" />
		<tag k="ssr:stedsnr" v="111920" />
		<tag k="waterway" v="stream" />
	</node>
	<node id="-90181" lat="69.9528499993" lon="19.1825527676">
		<tag k="name" v="Lillebukta" />
		<tag k="natural" v="bay" />
		<tag k="ssr:stedsnr" v="111919" />
	</node>
	<node id="-92226" lat="69.9353944414" lon="19.796780549">
		<tag k="name" v="Krokelva" />
		<tag k="ssr:stedsnr" v="140546" />
		<tag k="waterway" v="stream" />
	</node>
	<node id="-92224" lat="70.1133749984" lon="18.9916944436">
		<tag k="fixme" v="multiple name tags, choose one and add the other to alt_name" />
		<tag k="name" v="Moltebærvatnet;Stabburseidvatnet" />
		<tag k="natural" v="water" />
		<tag k="ssr:stedsnr" v="140540" />
	</node>
	<node id="-92223" lat="70.1792250023" lon="18.9721444397">
		<tag k="name" v="Hamnvatnet" />
		<tag k="natural" v="water" />
		<tag k="ssr:stedsnr" v="140598" />
	</node>
	<node id="-92219" lat="69.9301361108" lon="19.2369222188">
		<tag k="alt_name" v="Skillelva" />
		<tag k="name" v="Skilelva" />
		<tag k="ssr:stedsnr" v="140513" />
		<tag k="waterway" v="stream" />
	</node>
	<node id="-92217" lat="69.9148416702" lon="19.4410305564">
		<tag k="alt_name" v="Avskilelva" />
		<tag k="name" v="Avskjellelva" />
		<tag k="ssr:stedsnr" v="140485" />
		<tag k="waterway" v="stream" />
	</node>
	<node id="-92216" lat="70.0743333381" lon="18.941458317">
		<tag k="name" v="Storvatnet" />
		<tag k="natural" v="water" />
		<tag k="ssr:stedsnr" v="140484" />
	</node>
	<node id="-92215" lat="70.0847416688" lon="18.9524860973">
		<tag k="alt_name" v="Skilelva" />
		<tag k="name" v="Skjellelva" />
		<tag k="ssr:stedsnr" v="140477" />
		<tag k="waterway" v="stream" />
	</node>
	<node id="-90165" lat="70.0602388911" lon="19.8581722084">
		<tag k="fixme" v="multiple name tags, choose one and add the other to alt_name" />
		<tag k="loc_name" v="Skjærelva" />
		<tag k="name" v="Skjerelva;Storskjærelva" />
		<tag k="ssr:stedsnr" v="261062" />
		<tag k="waterway" v="stream" />
	</node>
	<node id="-92212" lat="70.2123055571" lon="19.1869610949">
		<tag k="name" v="Skarelva" />
		<tag k="ssr:stedsnr" v="140385" />
		<tag k="waterway" v="stream" />
	</node>
	<node id="-92210" lat="70.2716027819" lon="20.2147666529">
		<tag k="name" v="Hellartakvatnan" />
		<tag k="natural" v="water" />
		<tag k="ssr:stedsnr" v="140382" />
		<tag k="water" v="lake" />
	</node>
	<node id="-90160" lat="70.0698944455" lon="18.92785556">
		<tag k="name" v="Hanssjurdsavatnet" />
		<tag k="natural" v="water" />
		<tag k="ssr:stedsnr" v="80514" />
	</node>
	<node id="-90152" lat="70.126716669" lon="18.9838083377">
		<tag k="name" v="Kistevatnet" />
		<tag k="natural" v="water" />
		<tag k="ssr:stedsnr" v="51661" />
	</node>
	<node id="-90151" lat="70.2586055535" lon="19.7478888787">
		<tag k="name" v="Storhompvatnet" />
		<tag k="natural" v="water" />
		<tag k="ssr:stedsnr" v="51516" />
	</node>
	<node id="-90143" lat="70.0282277811" lon="18.9074666747">
		<tag k="name" v="Torvelva" />
		<tag k="ssr:stedsnr" v="51256" />
		<tag k="waterway" v="stream" />
	</node>
	<node id="-92190" lat="70.0688749983" lon="19.9652944261">
		<tag k="alt_name" v="Lilleelva" />
		<tag k="name" v="Litleelva" />
		<tag k="ssr:stedsnr" v="140062" />
		<tag k="waterway" v="stream" />
	</node>
	<node id="-90139" lat="70.1130166693" lon="19.5263916707">
		<tag k="name" v="Persbakk-Vatnet" />
		<tag k="natural" v="water" />
		<tag k="ssr:stedsnr" v="51207" />
	</node>
	<node id="-90799" lat="69.982741669" lon="19.2346111164">
		<tag k="name" v="Storelvvatnet" />
		<tag k="natural" v="water" />
		<tag k="ssr:stedsnr" v="504603" />
	</node>
	<node id="-92181" lat="70.2122750051" lon="19.5759833145">
		<tag k="name" v="Lilleelva" />
		<tag k="ssr:stedsnr" v="112782" />
		<tag k="waterway" v="stream" />
	</node>
	<node id="-90130" lat="69.9900777747" lon="19.527241662">
		<tag k="name" v="Steinvollvatnet" />
		<tag k="natural" v="water" />
		<tag k="ssr:stedsnr" v="50164" />
	</node>
	<node id="-90122" lat="69.9838027789" lon="19.1437749984">
		<tag k="name" v="Fosselva" />
		<tag k="ssr:stedsnr" v="233981" />
		<tag k="waterway" v="stream" />
	</node>
	<node id="-92165" lat="69.9047694483" lon="19.6013416625">
		<tag k="name" v="Holman" />
		<tag k="place" v="islet" />
		<tag k="ssr:stedsnr" v="112230" />
	</node>
</osm>
