<?xml version="1.0" encoding="UTF-8"?>
<osm version="0.6" generator="osmapis">
	<node lat="70.26301388834169" lon="20.292766657878303" id="-38144">
		<tag k="name" v="Nessekeila" />
		<tag k="natural" v="bay" />
		<tag k="ssr:stedsnr" v="230041" />
	</node>
	<node lat="70.27138055941451" lon="20.255155531677648" id="-38145">
		<tag k="name" v="Lillevika" />
		<tag k="natural" v="bay" />
		<tag k="ssr:stedsnr" v="230027" />
	</node>
	<node lat="70.1736277784769" lon="20.012049984598917" id="-38146">
		<tag k="name" v="Mollvikneset" />
		<tag k="natural" v="cape" />
		<tag k="ssr:stedsnr" v="230545" />
	</node>
	<node lat="70.10476111194646" lon="20.12242220830879" id="-38153">
		<tag k="name" v="Smørbakkeila" />
		<tag k="natural" v="bay" />
		<tag k="ssr:stedsnr" v="232041" />
	</node>
	<node lat="70.14696944861936" lon="19.996988873814043" id="-38161">
		<tag k="name" v="Båtnes" />
		<tag k="natural" v="cape" />
		<tag k="ssr:stedsnr" v="232061" />
	</node>
	<node lat="69.99563333261894" lon="19.38668331426277" id="-38165">
		<tag k="name" v="Hamnes" />
		<tag k="natural" v="cape" />
		<tag k="ssr:stedsnr" v="232154" />
	</node>
	<node lat="69.94893610827648" lon="19.499424995277998" id="-38168">
		<tag k="name" v="Skognes" />
		<tag k="natural" v="cape" />
		<tag k="ssr:stedsnr" v="232173" />
	</node>
	<node lat="70.12528610772311" lon="19.70269998578252" id="-38175">
		<tag k="name" v="Kollvika" />
		<tag k="natural" v="bay" />
		<tag k="ssr:stedsnr" v="232266" />
	</node>
	<node lat="70.11084166695296" lon="19.05480833990099" id="-38178">
		<tag k="name" v="Rundholman" />
		<tag k="place" v="islet" />
		<tag k="ssr:stedsnr" v="232587" />
	</node>
	<node lat="70.24464999828386" lon="19.501358316547016" id="-38181">
		<tag k="name" v="Kojasanden" />
		<tag k="natural" v="beach" />
		<tag k="ssr:stedsnr" v="232825" />
	</node>
	<node lat="70.24087777444834" lon="19.51178609237688" id="-38182">
		<tag k="name" v="Fjøsvika" />
		<tag k="natural" v="bay" />
		<tag k="ssr:stedsnr" v="232827" />
	</node>
	<node lat="70.0840694470326" lon="19.29990555172523" id="-38184">
		<tag k="name" v="Grinnes" />
		<tag k="natural" v="cape" />
		<tag k="ssr:stedsnr" v="232870" />
	</node>
	<node lat="70.067597225081" lon="19.201577770431747" id="-38185">
		<tag k="name" v="Sakariasnes" />
		<tag k="natural" v="cape" />
		<tag k="ssr:stedsnr" v="232871" />
	</node>
	<node lat="70.07973333646356" lon="19.278741654793375" id="-38186">
		<tag k="name" v="Resseballan" />
		<tag k="natural" v="cape" />
		<tag k="ssr:stedsnr" v="232873" />
	</node>
	<node lat="70.07471111033274" lon="19.20961665047448" id="-38187">
		<tag k="name" v="Steinvollen" />
		<tag k="natural" v="beach" />
		<tag k="ssr:stedsnr" v="232874" />
	</node>
	<node lat="70.08099444781871" lon="19.156269444660865" id="-38192">
		<tag k="name" v="Heimenes" />
		<tag k="natural" v="cape" />
		<tag k="ssr:stedsnr" v="233196" />
	</node>
	<node lat="70.01748055219704" lon="19.04162220905667" id="-38193">
		<tag k="name" v="Vangen" />
		<tag k="natural" v="bay" />
		<tag k="ssr:stedsnr" v="233215" />
	</node>
	<node lat="70.02892222499857" lon="19.396702762767628" id="-38196">
		<tag k="name" v="Langstranda" />
		<tag k="natural" v="beach" />
		<tag k="ssr:stedsnr" v="233241" />
	</node>
	<node lat="70.0187194469551" lon="18.941502764363392" id="-38197">
		<tag k="name" v="Grasnes" />
		<tag k="natural" v="cape" />
		<tag k="ssr:stedsnr" v="233244" />
	</node>
	<node lat="70.01737222565049" lon="19.090369434944392" id="-38201">
		<tag k="name" v="Moa" />
		<tag k="natural" v="cape" />
		<tag k="ssr:stedsnr" v="233223" />
	</node>
	<node lat="70.12062500066567" lon="19.9990277693035" id="-38203">
		<tag k="name" v="Finsand" />
		<tag k="natural" v="beach" />
		<tag k="ssr:stedsnr" v="233429" />
	</node>
	<node lat="70.04698889085901" lon="20.05141387083768" id="-38206">
		<tag k="name" v="Seibåen" />
		<tag k="natural" v="shoal" />
		<tag k="place" v="locality" />
		<tag k="ssr:stedsnr" v="19099" />
	</node>
	<node lat="70.24020833057021" lon="18.880899983818527" id="-38210">
		<tag k="name" v="Streta" />
		<tag k="natural" v="shoal" />
		<tag k="place" v="locality" />
		<tag k="ssr:stedsnr" v="19299" />
	</node>
	<node lat="70.2848416639002" lon="19.582511099879806" id="-38212">
		<tag k="fixme" v="consider seamark:type=rock or natural=shoal" />
		<tag k="name" v="Næringsskjæret" />
		<tag k="place" v="islet" />
		<tag k="ssr:stedsnr" v="233366" />
	</node>
	<node lat="70.29093333641394" lon="19.86858887610698" id="-38213">
		<tag k="name" v="Skallgrunnen" />
		<tag k="natural" v="shoal" />
		<tag k="place" v="locality" />
		<tag k="ssr:stedsnr" v="19342" />
	</node>
	<node lat="70.32374167182066" lon="19.78032776131663" id="-38214">
		<tag k="name" v="Kjerringgrunnan" />
		<tag k="natural" v="shoal" />
		<tag k="place" v="locality" />
		<tag k="ssr:stedsnr" v="19394" />
	</node>
	<node lat="70.34863888990992" lon="19.72757220742802" id="-38215">
		<tag k="name" v="Skrivarskallen" />
		<tag k="natural" v="shoal" />
		<tag k="place" v="locality" />
		<tag k="ssr:stedsnr" v="19398" />
	</node>
	<node lat="70.40450000173604" lon="19.935630553991615" id="-38216">
		<tag k="name" v="Storfallet" />
		<tag k="natural" v="shoal" />
		<tag k="place" v="locality" />
		<tag k="ssr:stedsnr" v="19399" />
	</node>
	<node lat="70.07420000154913" lon="18.687866670253573" id="-38221">
		<tag k="name" v="Hundberget" />
		<tag k="natural" v="cape" />
		<tag k="ssr:stedsnr" v="19516" />
	</node>
	<node lat="70.13497777587078" lon="18.806774984982688" id="-38224">
		<tag k="name" v="Geitvika" />
		<tag k="natural" v="bay" />
		<tag k="ssr:stedsnr" v="19544" />
	</node>
	<node lat="70.23884166397745" lon="19.774880556025664" id="-38232">
		<tag k="name" v="Molda" />
		<tag k="natural" v="cape" />
		<tag k="ssr:stedsnr" v="19843" />
	</node>
	<node lat="70.18509166948157" lon="18.996241671397318" id="-38235">
		<tag k="name" v="Storevalen" />
		<tag k="natural" v="strait" />
		<tag k="ssr:stedsnr" v="19589" />
	</node>
	<node lat="69.8636750011918" lon="19.735966648340625" id="-38238">
		<tag k="alt_name" v="Bergeneset" />
		<tag k="name" v="Bergneset" />
		<tag k="natural" v="cape" />
		<tag k="ssr:stedsnr" v="19744" />
	</node>
	<node lat="70.06453888646529" lon="19.062797224743935" id="-38239">
		<tag k="bay" v="fjord" />
		<tag k="name" v="Dyrsfjorden" />
		<tag k="natural" v="bay" />
		<tag k="ssr:stedsnr" v="19748" />
	</node>
	<node lat="70.17325833549324" lon="20.162474995757517" id="-38242">
		<tag k="name" v="Spennskaga" />
		<tag k="natural" v="cape" />
		<tag k="ssr:stedsnr" v="19915" />
	</node>
	<node lat="70.13231111460429" lon="20.005819438085975" id="-38247">
		<tag k="name" v="Makkenes" />
		<tag k="natural" v="cape" />
		<tag k="ssr:stedsnr" v="233427" />
	</node>
	<node lat="70.15468888546197" lon="19.663713873819187" id="-38256">
		<tag k="name" v="Sæingskroken" />
		<tag k="natural" v="bay" />
		<tag k="ssr:stedsnr" v="233800" />
	</node>
	<node lat="70.25280555881217" lon="19.51262221896693" id="-38257">
		<tag k="name" v="Hella" />
		<tag k="natural" v="shoal" />
		<tag k="place" v="locality" />
		<tag k="ssr:stedsnr" v="23799" />
	</node>
	<node lat="70.29060555888226" lon="19.69499998363789" id="-38260">
		<tag k="name" v="Landsendtaren" />
		<tag k="natural" v="shoal" />
		<tag k="place" v="locality" />
		<tag k="ssr:stedsnr" v="24712" />
	</node>
	<node lat="70.18123055251138" lon="19.62739442465092" id="-38261">
		<tag k="name" v="Kokkevollgrunnen" />
		<tag k="natural" v="shoal" />
		<tag k="place" v="locality" />
		<tag k="ssr:stedsnr" v="24725" />
	</node>
	<node lat="70.01491111339979" lon="19.952791661230805" id="-38263">
		<tag k="name" v="Sandvikgrunnen" />
		<tag k="natural" v="shoal" />
		<tag k="place" v="locality" />
		<tag k="ssr:stedsnr" v="26211" />
	</node>
	<node lat="70.15278055898875" lon="20.16660277472181" id="-38265">
		<tag k="name" v="Sylneset" />
		<tag k="natural" v="cape" />
		<tag k="ssr:stedsnr" v="30876" />
	</node>
	<node lat="70.13519722590134" lon="18.957233334858184" id="-38267">
		<tag k="name" v="Hufattaran" />
		<tag k="natural" v="shoal" />
		<tag k="place" v="locality" />
		<tag k="ssr:stedsnr" v="46310" />
	</node>
	<node lat="70.26395277381064" lon="18.76506387900873" id="-38268">
		<tag k="name" v="Breigrunnen" />
		<tag k="natural" v="shoal" />
		<tag k="place" v="locality" />
		<tag k="ssr:stedsnr" v="46512" />
	</node>
	<node lat="70.12047499679014" lon="19.069405553288338" id="-38269">
		<tag k="name" v="Bårdsetgrunnen" />
		<tag k="natural" v="shoal" />
		<tag k="place" v="locality" />
		<tag k="ssr:stedsnr" v="46480" />
	</node>
	<node lat="70.01164722659767" lon="19.04982776470056" id="-38270">
		<tag k="alt_name" v="Havna" />
		<tag k="name" v="Hamna" />
		<tag k="natural" v="bay" />
		<tag k="ssr:stedsnr" v="46592" />
	</node>
	<node lat="70.28246944317046" lon="19.178769425090497" id="-38271">
		<tag k="name" v="Flatvær" />
		<tag k="place" v="island" />
		<tag k="ssr:stedsnr" v="46986" />
	</node>
	<node lat="70.24179999665816" lon="20.262058323306444" id="-38272">
		<tag k="name" v="Ytter Værret" />
		<tag k="natural" v="bay" />
		<tag k="ssr:stedsnr" v="48024" />
	</node>
	<node lat="70.41009722373161" lon="20.169999994870615" id="-38274">
		<tag k="name" v="Kjerringgrunnen" />
		<tag k="natural" v="shoal" />
		<tag k="place" v="locality" />
		<tag k="ssr:stedsnr" v="238975" />
	</node>
	<node lat="70.221002780828" lon="19.51284999117856" id="-38284">
		<tag k="name" v="Tverrkjegla" />
		<tag k="natural" v="bay" />
		<tag k="ssr:stedsnr" v="50778" />
	</node>
	<node lat="69.89599444601187" lon="19.45413609443734" id="-38286">
		<tag k="name" v="Gårdsneset" />
		<tag k="natural" v="cape" />
		<tag k="ssr:stedsnr" v="50808" />
	</node>
	<node lat="70.01890555810306" lon="19.084483317362096" id="-38293">
		<tag k="fixme" v="consider seamark:type=rock or natural=shoal" />
		<tag k="name" v="Grøttvollskjæret" />
		<tag k="place" v="islet" />
		<tag k="ssr:stedsnr" v="51215" />
	</node>
	<node lat="70.04313333682217" lon="18.89926944618579" id="-38298">
		<tag k="name" v="Varnes" />
		<tag k="natural" v="cape" />
		<tag k="ssr:stedsnr" v="51280" />
	</node>
	<node lat="70.02218333530932" lon="19.890236091367523" id="-38304">
		<tag k="name" v="Kvalsand" />
		<tag k="natural" v="bay" />
		<tag k="ssr:stedsnr" v="51511" />
	</node>
	<node lat="70.40038888901233" lon="20.39087776239468" id="-38314">
		<tag k="name" v="Oksegrunnen" />
		<tag k="natural" v="shoal" />
		<tag k="place" v="locality" />
		<tag k="ssr:stedsnr" v="56988" />
	</node>
	<node lat="70.0192722261719" lon="19.905519437411563" id="-38318">
		<tag k="name" v="Jøviknakken" />
		<tag k="natural" v="cape" />
		<tag k="ssr:stedsnr" v="80115" />
	</node>
	<node lat="70.41587500089935" lon="19.907613870789433" id="-38319">
		<tag k="name" v="Vestrefallet" />
		<tag k="natural" v="shoal" />
		<tag k="place" v="locality" />
		<tag k="ssr:stedsnr" v="80403" />
	</node>
	<node lat="70.26173333783863" lon="19.689638872550873" id="-38321">
		<tag k="name" v="Lokkarsholman" />
		<tag k="place" v="islet" />
		<tag k="ssr:stedsnr" v="80405" />
	</node>
	<node lat="70.19151666409336" lon="18.776491660506384" id="-38322">
		<tag k="alt_name" v="Rekvikskjeran" />
		<tag k="fixme" v="consider seamark:type=rock or natural=shoal" />
		<tag k="name" v="Rekvikskjæran" />
		<tag k="place" v="islet" />
		<tag k="ssr:stedsnr" v="80347" />
	</node>
	<node lat="70.18255833292793" lon="18.779241672841245" id="-38323">
		<tag k="fixme" v="multiple name tags, choose one and add the other to alt_name" />
		<tag k="name" v="Gammskjæret;Gammskjæran" />
		<tag k="place" v="islet" />
		<tag k="ssr:stedsnr" v="80348" />
	</node>
	<node lat="70.25142771493455" lon="19.299805559070116" id="-38324">
		<tag k="name" v="Sandholmen" />
		<tag k="place" v="islet" />
		<tag k="ssr:stedsnr" v="80394" />
	</node>
	<node lat="70.39828333398425" lon="19.767099997200248" id="-38325">
		<tag k="name" v="Gåseggtaren" />
		<tag k="natural" v="shoal" />
		<tag k="place" v="locality" />
		<tag k="ssr:stedsnr" v="80400" />
	</node>
	<node lat="70.082024999662" lon="19.131991666791752" id="-38327">
		<tag k="name" v="Falkeberget" />
		<tag k="natural" v="cape" />
		<tag k="ssr:stedsnr" v="80506" />
	</node>
	<node lat="69.99659444439204" lon="19.946349975055192" id="-38330">
		<tag k="name" v="Bogen" />
		<tag k="natural" v="bay" />
		<tag k="ssr:stedsnr" v="80638" />
	</node>
	<node lat="70.1498083373415" lon="18.992300001870056" id="-38333">
		<tag k="name" v="Båtvika" />
		<tag k="natural" v="bay" />
		<tag k="ssr:stedsnr" v="80596" />
	</node>
	<node lat="70.14286944151068" lon="18.709949990489104" id="-38334">
		<tag k="name" v="Kvalholmen" />
		<tag k="place" v="islet" />
		<tag k="ssr:stedsnr" v="80601" />
	</node>
	<node lat="70.04211388983302" lon="18.952033339872255" id="-38335">
		<tag k="bay" v="fjord" />
		<tag k="name" v="Skagøysundet" />
		<tag k="natural" v="bay" />
		<tag k="ssr:stedsnr" v="80746" />
	</node>
	<node lat="70.2744361097277" lon="19.685349998899046" id="-38339">
		<tag k="name" v="Lokkarstaren" />
		<tag k="natural" v="shoal" />
		<tag k="place" v="locality" />
		<tag k="ssr:stedsnr" v="81407" />
	</node>
	<node lat="70.28023665969557" lon="19.646662215355104" id="-38340">
		<tag k="fixme" v="multiple name tags, choose one and add the other to alt_name" />
		<tag k="name" v="Gylteneset;Breiviknakken" />
		<tag k="natural" v="cape" />
		<tag k="ssr:stedsnr" v="81408" />
	</node>
	<node lat="70.12323889400258" lon="20.015952761510373" id="-38341">
		<tag k="name" v="Flua" />
		<tag k="natural" v="shoal" />
		<tag k="place" v="locality" />
		<tag k="ssr:stedsnr" v="84947" />
	</node>
	<node lat="70.05912499762172" lon="19.71399997585357" id="-38342">
		<tag k="name" v="Ligrunnen" />
		<tag k="natural" v="shoal" />
		<tag k="place" v="locality" />
		<tag k="ssr:stedsnr" v="87073" />
	</node>
	<node lat="70.0410277770802" lon="20.06945554991516" id="-38343">
		<tag k="name" v="Øvre Olegga" />
		<tag k="natural" v="shoal" />
		<tag k="place" v="locality" />
		<tag k="ssr:stedsnr" v="87087" />
	</node>
	<node lat="69.83783889003922" lon="19.523052778994362" id="-38344">
		<tag k="name" v="Lillegrunnen" />
		<tag k="natural" v="shoal" />
		<tag k="place" v="locality" />
		<tag k="ssr:stedsnr" v="87508" />
	</node>
	<node lat="70.16518611123588" lon="18.789088885986892" id="-38347">
		<tag k="name" v="Søre Sandvika" />
		<tag k="natural" v="bay" />
		<tag k="ssr:stedsnr" v="107506" />
	</node>
	<node lat="69.84442499523315" lon="19.366911113518764" id="-38348">
		<tag k="name" v="Mikkelbukta" />
		<tag k="natural" v="bay" />
		<tag k="ssr:stedsnr" v="109090" />
	</node>
	<node lat="69.82051110990399" lon="19.417455550379326" id="-38349">
		<tag k="name" v="Toften" />
		<tag k="natural" v="bay" />
		<tag k="ssr:stedsnr" v="109106" />
	</node>
	<node lat="69.86611944496177" lon="19.442119424774358" id="-38353">
		<tag k="name" v="Smånes" />
		<tag k="natural" v="cape" />
		<tag k="ssr:stedsnr" v="110106" />
	</node>
	<node lat="69.94914444157146" lon="19.48053611029056" id="-38364">
		<tag k="name" v="Djupvik" />
		<tag k="natural" v="bay" />
		<tag k="ssr:stedsnr" v="111181" />
	</node>
	<node lat="70.19056666634741" lon="19.824577769267478" id="-38370">
		<tag k="name" v="Værret" />
		<tag k="natural" v="cape" />
		<tag k="ssr:stedsnr" v="111421" />
	</node>
	<node lat="69.88271666801917" lon="19.42116110913746" id="-38372">
		<tag k="name" v="Skjærneset" />
		<tag k="natural" v="cape" />
		<tag k="ssr:stedsnr" v="111808" />
	</node>
	<node lat="69.92816389384859" lon="19.79236387547285" id="-38379">
		<tag k="name" v="Nordeidneset" />
		<tag k="natural" v="cape" />
		<tag k="ssr:stedsnr" v="112088" />
	</node>
	<node lat="70.02126944847431" lon="19.040294442790103" id="-38382">
		<tag k="name" v="Pålnes" />
		<tag k="natural" v="cape" />
		<tag k="ssr:stedsnr" v="112225" />
	</node>
	<node lat="70.0715916659727" lon="20.003333324825146" id="-38387">
		<tag k="name" v="Smihaugbukta" />
		<tag k="natural" v="bay" />
		<tag k="ssr:stedsnr" v="112411" />
	</node>
	<node lat="70.11832221956405" lon="18.96029443762406" id="-38390">
		<tag k="name" v="Hamnes" />
		<tag k="natural" v="cape" />
		<tag k="ssr:stedsnr" v="112629" />
	</node>
	<node lat="70.20649999879588" lon="19.587366650754706" id="-38393">
		<tag k="name" v="Ropphøyla" />
		<tag k="natural" v="bay" />
		<tag k="ssr:stedsnr" v="112785" />
	</node>
	<node lat="70.31008055961885" lon="20.194244434793184" id="-38395">
		<tag k="name" v="Skagkeila" />
		<tag k="natural" v="bay" />
		<tag k="ssr:stedsnr" v="140372" />
	</node>
	<node lat="70.32928889194848" lon="19.970711107068364" id="-38398">
		<tag k="name" v="Medfjordgrunnen" />
		<tag k="natural" v="shoal" />
		<tag k="place" v="locality" />
		<tag k="ssr:stedsnr" v="140404" />
	</node>
	<node lat="70.16999444535338" lon="19.00279442616346" id="-38401">
		<tag k="alt_name" v="Måsværet, l" />
		<tag k="name" v="Lille Måsværet" />
		<tag k="place" v="island" />
		<tag k="ssr:stedsnr" v="140605" />
	</node>
	<node lat="70.0337916689847" lon="19.019191653503515" id="-38404">
		<tag k="name" v="Jøvika" />
		<tag k="natural" v="bay" />
		<tag k="ssr:stedsnr" v="140687" />
	</node>
	<node lat="69.82126666637406" lon="19.40752499534137" id="-38406">
		<tag k="loc_name:se" v="Niehkkosullot" />
		<tag k="name" v="Nipøya" />
		<tag k="name:no" v="Nipøya" />
		<tag k="place" v="island" />
		<tag k="ssr:stedsnr" v="140696" />
	</node>
	<node lat="70.04432777481635" lon="19.046291656093985" id="-38407">
		<tag k="alt_name" v="Gamlegårdsneset" />
		<tag k="name" v="Gammelgårdsneset" />
		<tag k="natural" v="cape" />
		<tag k="ssr:stedsnr" v="140697" />
	</node>
	<node lat="70.1427611110143" lon="19.23035554246978" id="-38408">
		<tag k="alt_name" v="Rakkeneset, nordre" />
		<tag k="fixme" v="multiple name tags, choose one and add the other to alt_name" />
		<tag k="name" v="Rakkenes;Nordre Rakkeneset" />
		<tag k="natural" v="cape" />
		<tag k="ssr:stedsnr" v="140839" />
	</node>
	<node lat="70.1643499952068" lon="18.650441672269388" id="-38410">
		<tag k="name" v="Fagerværet" />
		<tag k="place" v="island" />
		<tag k="ssr:stedsnr" v="140594" />
	</node>
	<node lat="70.0631250010029" lon="18.667144437725092" id="-38413">
		<tag k="name" v="Bjørnnakkvika" />
		<tag k="natural" v="bay" />
		<tag k="ssr:stedsnr" v="140741" />
	</node>
	<node lat="70.14714721891806" lon="19.927052755436446" id="-38418">
		<tag k="name" v="Per Olsa-vika" />
		<tag k="natural" v="bay" />
		<tag k="ssr:stedsnr" v="140934" />
	</node>
	<node lat="70.13893610863904" lon="19.95791664993387" id="-38419">
		<tag k="name" v="Lyngholmen" />
		<tag k="place" v="islet" />
		<tag k="ssr:stedsnr" v="140935" />
	</node>
	<node lat="70.0389194463465" lon="19.567186094794774" id="-38420">
		<tag k="name" v="Grunnfjordtaran" />
		<tag k="natural" v="shoal" />
		<tag k="place" v="locality" />
		<tag k="ssr:stedsnr" v="140986" />
	</node>
	<node lat="69.93528888568629" lon="19.60343054221408" id="-38422">
		<tag k="alt_name" v="Vollabukt" />
		<tag k="name" v="Vollanbukta" />
		<tag k="natural" v="bay" />
		<tag k="ssr:stedsnr" v="145518" />
	</node>
	<node lat="69.95521944908764" lon="19.848499981638398" id="-38424">
		<tag k="name" v="Klokkarvollneset" />
		<tag k="natural" v="cape" />
		<tag k="ssr:stedsnr" v="146424" />
	</node>
	<node lat="70.11813333531231" lon="20.0570916498182" id="-38426">
		<tag k="fixme" v="consider seamark:type=rock or natural=shoal" />
		<tag k="name" v="Stabben" />
		<tag k="place" v="islet" />
		<tag k="ssr:stedsnr" v="146874" />
	</node>
	<node lat="70.05538611007727" lon="20.113499981851806" id="-38427">
		<tag k="name" v="Nyklakken" />
		<tag k="natural" v="shoal" />
		<tag k="place" v="locality" />
		<tag k="ssr:stedsnr" v="147069" />
	</node>
	<node lat="70.14909166670579" lon="20.1450055488477" id="-38428">
		<tag k="name" v="Hellarbreget" />
		<tag k="natural" v="shoal" />
		<tag k="place" v="locality" />
		<tag k="ssr:stedsnr" v="150402" />
	</node>
	<node lat="70.07215833792189" lon="19.05135554781852" id="-38430">
		<tag k="name" v="Storligrunnen" />
		<tag k="natural" v="shoal" />
		<tag k="place" v="locality" />
		<tag k="ssr:stedsnr" v="167010" />
	</node>
	<node lat="70.14323055224872" lon="18.745744445829132" id="-38431">
		<tag k="name" v="Lysgrunnen" />
		<tag k="natural" v="shoal" />
		<tag k="place" v="locality" />
		<tag k="ssr:stedsnr" v="167157" />
	</node>
	<node lat="70.13394722001912" lon="18.794349986392827" id="-38432">
		<tag k="fixme" v="consider seamark:type=rock or natural=shoal" />
		<tag k="name" v="Andamsmulen" />
		<tag k="place" v="islet" />
		<tag k="ssr:stedsnr" v="167303" />
	</node>
	<node lat="70.15862222196685" lon="18.983338873174727" id="-38433">
		<tag k="name" v="Bjørn" />
		<tag k="place" v="locality" />
		<tag k="seamark:type" v="rock" />
		<tag k="ssr:stedsnr" v="167468" />
	</node>
	<node lat="70.31440000364915" lon="19.144002773651284" id="-38434">
		<tag k="name" v="Skallen" />
		<tag k="natural" v="shoal" />
		<tag k="place" v="locality" />
		<tag k="ssr:stedsnr" v="167776" />
	</node>
	<node lat="69.86335555288265" lon="19.40272498349141" id="-38437">
		<tag k="name" v="Dorgeneset" />
		<tag k="natural" v="cape" />
		<tag k="ssr:stedsnr" v="170021" />
	</node>
	<node lat="70.00830555597214" lon="19.64606942505798" id="-38442">
		<tag k="name" v="Lille Langåsvika" />
		<tag k="natural" v="bay" />
		<tag k="ssr:stedsnr" v="171010" />
	</node>
	<node lat="70.25435000280046" lon="19.499774980423435" id="-38454">
		<tag k="fixme" v="consider seamark:type=rock or natural=shoal" />
		<tag k="name" v="Kråkleiskjæret" />
		<tag k="place" v="islet" />
		<tag k="ssr:stedsnr" v="171817" />
	</node>
	<node lat="70.04033610673773" lon="18.820188889441855" id="-38459">
		<tag k="name" v="Gamtofta" />
		<tag k="natural" v="beach" />
		<tag k="ssr:stedsnr" v="172008" />
	</node>
	<node lat="70.03982499678966" lon="18.836497223221883" id="-38460">
		<tag k="name" v="Holmesundet" />
		<tag k="natural" v="strait" />
		<tag k="ssr:stedsnr" v="172012" />
	</node>
	<node lat="70.06578333733742" lon="18.95629998693606" id="-38465">
		<tag k="name" v="Leirstrandkjosen" />
		<tag k="natural" v="bay" />
		<tag k="ssr:stedsnr" v="172204" />
	</node>
	<node lat="70.07903333256442" lon="19.153049980467976" id="-38475">
		<tag k="name" v="Engenes" />
		<tag k="natural" v="cape" />
		<tag k="ssr:stedsnr" v="172163" />
	</node>
	<node lat="70.08649444404415" lon="19.166702767569173" id="-38476">
		<tag k="name" v="Nordnes" />
		<tag k="natural" v="cape" />
		<tag k="ssr:stedsnr" v="172168" />
	</node>
	<node lat="70.01954166454757" lon="19.06448887306478" id="-38477">
		<tag k="name" v="Ånes" />
		<tag k="natural" v="cape" />
		<tag k="ssr:stedsnr" v="172169" />
	</node>
	<node lat="70.02694722518014" lon="19.08660555591485" id="-38479">
		<tag k="name" v="Vedneset" />
		<tag k="natural" v="cape" />
		<tag k="ssr:stedsnr" v="172174" />
	</node>
	<node lat="70.12833888635927" lon="19.98673888888857" id="-38481">
		<tag k="name" v="Skarvenes" />
		<tag k="natural" v="cape" />
		<tag k="ssr:stedsnr" v="172413" />
	</node>
	<node lat="70.21510000103427" lon="19.737716649364778" id="-38485">
		<tag k="name" v="Svanes" />
		<tag k="natural" v="cape" />
		<tag k="ssr:stedsnr" v="172466" />
	</node>
	<node lat="70.22221389341514" lon="19.727852773567843" id="-38486">
		<tag k="name" v="Lillebukta" />
		<tag k="natural" v="bay" />
		<tag k="ssr:stedsnr" v="172467" />
	</node>
	<node lat="70.06492777651863" lon="19.03436666417024" id="-38491">
		<tag k="name" v="Moltebærnes" />
		<tag k="natural" v="cape" />
		<tag k="ssr:stedsnr" v="172816" />
	</node>
	<node lat="70.03553610898572" lon="19.075208321191678" id="-38501">
		<tag k="name" v="Sjåbergneset" />
		<tag k="natural" v="cape" />
		<tag k="ssr:stedsnr" v="172974" />
	</node>
	<node lat="70.06445277720235" lon="20.01452776051203" id="-38511">
		<tag k="name" v="Vannvåggrunnen" />
		<tag k="natural" v="shoal" />
		<tag k="place" v="locality" />
		<tag k="ssr:stedsnr" v="262066" />
	</node>
	<node lat="70.2090944460185" lon="18.62774166809161" id="-38513">
		<tag k="alt_name" v="Skjæringen" />
		<tag k="fixme" v="consider seamark:type=rock or natural=shoal" />
		<tag k="name" v="Skjerdingen" />
		<tag k="place" v="islet" />
		<tag k="ssr:stedsnr" v="262309" />
	</node>
	<node lat="70.22460277640808" lon="18.64287499795718" id="-38514">
		<tag k="alt_name" v="Fiskebåen, yt" />
		<tag k="name" v="Ytre Fiskebåen" />
		<tag k="natural" v="shoal" />
		<tag k="place" v="locality" />
		<tag k="ssr:stedsnr" v="262316" />
	</node>
	<node lat="70.06715000062395" lon="18.37918054184956" id="-38515">
		<tag k="name" v="Krabbeskolten" />
		<tag k="natural" v="shoal" />
		<tag k="place" v="locality" />
		<tag k="ssr:stedsnr" v="262291" />
	</node>
	<node lat="70.33270000186327" lon="19.60843333585997" id="-38516">
		<tag k="name" v="Kusgrunnen" />
		<tag k="natural" v="shoal" />
		<tag k="place" v="locality" />
		<tag k="ssr:stedsnr" v="262421" />
	</node>
	<node lat="70.36906666637438" lon="19.600272220095555" id="-38517">
		<tag k="name" v="Krabbegrunnen" />
		<tag k="natural" v="shoal" />
		<tag k="place" v="locality" />
		<tag k="ssr:stedsnr" v="262425" />
	</node>
	<node lat="70.318963885213" lon="19.32864165112687" id="-38518">
		<tag k="name" v="Vestfuglebåen" />
		<tag k="natural" v="shoal" />
		<tag k="place" v="locality" />
		<tag k="ssr:stedsnr" v="262433" />
	</node>
	<node lat="70.20299166284673" lon="18.754799990506985" id="-38519">
		<tag k="name" v="Reset" />
		<tag k="natural" v="bay" />
		<tag k="ssr:stedsnr" v="262367" />
	</node>
	<node lat="70.20447500393337" lon="18.678663874632072" id="-38520">
		<tag k="alt_name" v="Bukkeskjeran" />
		<tag k="fixme" v="consider seamark:type=rock or natural=shoal" />
		<tag k="name" v="Bukkeskjæran" />
		<tag k="place" v="islet" />
		<tag k="ssr:stedsnr" v="262368" />
	</node>
	<node lat="70.19852500261842" lon="18.734716651683524" id="-38521">
		<tag k="fixme" v="consider seamark:type=rock or natural=shoal" />
		<tag k="name" v="Hella" />
		<tag k="place" v="islet" />
		<tag k="ssr:stedsnr" v="262372" />
	</node>
	<node lat="70.27526388815635" lon="20.244049996888993" id="-38522">
		<tag k="name" v="Gamvikbukta" />
		<tag k="natural" v="bay" />
		<tag k="ssr:stedsnr" v="262374" />
	</node>
	<node lat="70.26155000223697" lon="19.285500002833118" id="-38523">
		<tag k="name" v="Skarholmen" />
		<tag k="place" v="islet" />
		<tag k="ssr:stedsnr" v="262386" />
	</node>
	<node lat="70.26697500263147" lon="19.183449981751586" id="-38524">
		<tag k="name" v="Flatværet" />
		<tag k="place" v="islet" />
		<tag k="ssr:stedsnr" v="262387" />
	</node>
	<node lat="70.36454444290946" lon="19.42758331167757" id="-38525">
		<tag k="name" v="Svebåen" />
		<tag k="natural" v="shoal" />
		<tag k="place" v="locality" />
		<tag k="ssr:stedsnr" v="262488" />
	</node>
	<node lat="70.11666111249714" lon="18.801463895822554" id="-38532">
		<tag k="name" v="Sinkavikneset" />
		<tag k="natural" v="cape" />
		<tag k="ssr:stedsnr" v="262563" />
	</node>
	<node lat="70.1162388843809" lon="19.091886111804737" id="-38535">
		<tag k="name" v="Storvika" />
		<tag k="natural" v="bay" />
		<tag k="ssr:stedsnr" v="262571" />
	</node>
	<node lat="70.13074166508038" lon="18.843922228873144" id="-38537">
		<tag k="name" v="Andamsneset" />
		<tag k="natural" v="cape" />
		<tag k="ssr:stedsnr" v="262582" />
	</node>
	<node lat="70.13209166372665" lon="18.67155275893646" id="-38539">
		<tag k="alt_name" v="Mulbåskjeran" />
		<tag k="fixme" v="consider seamark:type=rock or natural=shoal" />
		<tag k="name" v="Mulbåskjæran" />
		<tag k="place" v="islet" />
		<tag k="ssr:stedsnr" v="262584" />
	</node>
	<node lat="70.12538888470644" lon="18.84527499300576" id="-38541">
		<tag k="name" v="Andamssanden" />
		<tag k="natural" v="beach" />
		<tag k="ssr:stedsnr" v="262589" />
	</node>
	<node lat="70.24183611044886" lon="19.308802770628404" id="-38548">
		<tag k="name" v="Marhaugan" />
		<tag k="natural" v="shoal" />
		<tag k="place" v="locality" />
		<tag k="ssr:stedsnr" v="262641" />
	</node>
	<node lat="69.81717777980916" lon="19.384194446609243" id="-38552">
		<tag k="alt_name" v="Øyskjeret;Øyskjær" />
		<tag k="fixme" v="consider seamark:type=rock or natural=shoal" />
		<tag k="name" v="Øyskjæret" />
		<tag k="place" v="islet" />
		<tag k="ssr:stedsnr" v="262731" />
	</node>
	<node lat="70.16522500373503" lon="19.54161111283973" id="-38557">
		<tag k="alt_name" v="Hamarfjorden" />
		<tag k="bay" v="fjord" />
		<tag k="name" v="Hamrefjorden" />
		<tag k="natural" v="bay" />
		<tag k="ssr:stedsnr" v="262849" />
	</node>
	<node lat="70.12259444095206" lon="19.234677760409774" id="-38558">
		<tag k="name" v="Bakken" />
		<tag k="natural" v="shoal" />
		<tag k="place" v="locality" />
		<tag k="ssr:stedsnr" v="262828" />
	</node>
	<node lat="70.16628333636841" lon="19.6588416677408" id="-38561">
		<tag k="alt_name" v="Mikkelvik" />
		<tag k="name" v="Mikkelvika" />
		<tag k="natural" v="bay" />
		<tag k="ssr:stedsnr" v="262862" />
	</node>
	<node lat="70.15710109070797" lon="19.66333011341189" id="-38562">
		<tag k="fixme" v="multiple name tags, choose one and add the other to alt_name" />
		<tag k="name" v="Sandbukta;Krokbukta" />
		<tag k="natural" v="bay" />
		<tag k="ssr:stedsnr" v="262868" />
	</node>
	<node lat="70.14857500300892" lon="19.737183317517033" id="-38563">
		<tag k="alt_name" v="Hamreidet" />
		<tag k="name" v="Hamreeidet" />
		<tag k="place" v="locality" />
		<tag k="ssr:stedsnr" v="262871" />
	</node>
	<node lat="70.2265499976178" lon="19.76183887453498" id="-38565">
		<tag k="fixme" v="consider seamark:type=rock or natural=shoal" />
		<tag k="name" v="Skarvesteinen" />
		<tag k="place" v="islet" />
		<tag k="ssr:stedsnr" v="262885" />
	</node>
	<node lat="70.055877781019" lon="19.38017220548295" id="-38569">
		<tag k="alt_name" v="Svensklubben" />
		<tag k="name" v="Svendsklubben" />
		<tag k="natural" v="cape" />
		<tag k="ssr:stedsnr" v="262989" />
	</node>
	<node lat="70.28171666682498" lon="19.341880543678684" id="-38570">
		<tag k="name" v="Skallen" />
		<tag k="natural" v="shoal" />
		<tag k="place" v="locality" />
		<tag k="ssr:stedsnr" v="263459" />
	</node>
	<node lat="70.01240000054995" lon="19.930030547429443" id="-38571">
		<tag k="alt_name" v="Stornes" />
		<tag k="name" v="Storneset" />
		<tag k="natural" v="cape" />
		<tag k="ssr:stedsnr" v="263516" />
	</node>
	<node lat="69.94597499746043" lon="19.825599981947068" id="-38572">
		<tag k="alt_name" v="Finnkjerka" />
		<tag k="name" v="Finnkirka" />
		<tag k="natural" v="beach" />
		<tag k="ssr:stedsnr" v="267460" />
	</node>
	<node lat="69.83613611551887" lon="19.379566659979652" id="-38573">
		<tag k="name" v="Lille Glimtaren" />
		<tag k="natural" v="shoal" />
		<tag k="place" v="locality" />
		<tag k="ssr:stedsnr" v="267261" />
	</node>
	<node lat="70.25264722103863" lon="19.190355542323815" id="-38574">
		<tag k="name" v="Steikarvika" />
		<tag k="natural" v="bay" />
		<tag k="ssr:stedsnr" v="201363" />
	</node>
	<node lat="70.25520833136459" lon="19.16009165274106" id="-38575">
		<tag k="name" v="Urvika" />
		<tag k="natural" v="bay" />
		<tag k="ssr:stedsnr" v="201366" />
	</node>
	<node lat="70.26953055864912" lon="19.68833889051235" id="-38576">
		<tag k="name" v="Lusbåen" />
		<tag k="natural" v="shoal" />
		<tag k="place" v="locality" />
		<tag k="ssr:stedsnr" v="201368" />
	</node>
	<node lat="70.21280833005602" lon="18.645063884491755" id="-38578">
		<tag k="alt_name" v="Bukkeskjerreset" />
		<tag k="name" v="Bukkeskjærreset" />
		<tag k="natural" v="bay" />
		<tag k="ssr:stedsnr" v="201299" />
	</node>
	<node lat="70.0945111136932" lon="19.008711105474216" id="-38579">
		<tag k="name" v="Kjerringvika" />
		<tag k="natural" v="bay" />
		<tag k="ssr:stedsnr" v="201495" />
	</node>
	<node lat="70.0803611114512" lon="18.82538054520577" id="-38580">
		<tag k="name" v="Kalvebukta" />
		<tag k="natural" v="bay" />
		<tag k="ssr:stedsnr" v="201497" />
	</node>
	<node lat="70.2469027749191" lon="19.499602766342868" id="-38584">
		<tag k="alt_name" v="Kåja" />
		<tag k="name" v="Koja" />
		<tag k="place" v="island" />
		<tag k="ssr:stedsnr" v="201610" />
	</node>
	<node lat="70.24075277422868" lon="19.273177759814416" id="-38585">
		<tag k="name" v="Kjelsbåen" />
		<tag k="natural" v="shoal" />
		<tag k="place" v="locality" />
		<tag k="ssr:stedsnr" v="201614" />
	</node>
	<node lat="70.12328055400026" lon="19.33641667098607" id="-38586">
		<tag k="alt_name" v="Kvalsneset, in;Inner Kvalsnes" />
		<tag k="name" v="Indre Kvalsneset" />
		<tag k="natural" v="cape" />
		<tag k="ssr:stedsnr" v="201780" />
	</node>
	<node lat="70.18606110980369" lon="19.625858316196464" id="-38593">
		<tag k="name" v="Svenes" />
		<tag k="natural" v="cape" />
		<tag k="ssr:stedsnr" v="201851" />
	</node>
	<node lat="70.11078333613837" lon="20.076888888970213" id="-38595">
		<tag k="name" v="Skipparvika" />
		<tag k="natural" v="bay" />
		<tag k="ssr:stedsnr" v="201900" />
	</node>
	<node lat="70.27476388491729" lon="19.217724991926044" id="-38597">
		<tag k="name" v="Lagmannsholman" />
		<tag k="place" v="islet" />
		<tag k="ssr:stedsnr" v="202444" />
	</node>
	<node lat="70.24027777494575" lon="19.672102761976056" id="-38599">
		<tag k="alt_name" v="Båtnesskjeret" />
		<tag k="name" v="Båtnesskjæret" />
		<tag k="natural" v="shoal" />
		<tag k="place" v="locality" />
		<tag k="ssr:stedsnr" v="206719" />
	</node>
	<node lat="70.11360832979857" lon="19.20341109996501" id="-38602">
		<tag k="name" v="Vindustaren" />
		<tag k="natural" v="shoal" />
		<tag k="place" v="locality" />
		<tag k="ssr:stedsnr" v="207544" />
	</node>
	<node lat="70.19969999985905" lon="19.82913887107857" id="-38603">
		<tag k="alt_name" v="Lyngnesbukta" />
		<tag k="name" v="Lyngmobukta" />
		<tag k="natural" v="bay" />
		<tag k="ssr:stedsnr" v="268858" />
	</node>
	<node lat="70.17185555167767" lon="19.940749994572652" id="-38604">
		<tag k="name" v="Bonbåen" />
		<tag k="natural" v="shoal" />
		<tag k="place" v="locality" />
		<tag k="ssr:stedsnr" v="268862" />
	</node>
	<node lat="70.05296666428346" lon="20.042813874878025" id="-38606">
		<tag k="name" v="Hanseskallen" />
		<tag k="natural" v="shoal" />
		<tag k="place" v="locality" />
		<tag k="ssr:stedsnr" v="269073" />
	</node>
	<node lat="70.05506944801147" lon="19.996427777496233" id="-38607">
		<tag k="name" v="Øvre Munken" />
		<tag k="natural" v="shoal" />
		<tag k="place" v="locality" />
		<tag k="ssr:stedsnr" v="269080" />
	</node>
	<node lat="70.0077694434368" lon="19.997366663139132" id="-38608">
		<tag k="name" v="Klubbenesgrunnen" />
		<tag k="natural" v="shoal" />
		<tag k="place" v="locality" />
		<tag k="ssr:stedsnr" v="269190" />
	</node>
	<node lat="70.26741111170526" lon="20.272711110251358" id="-38610">
		<tag k="name" v="Gamvika" />
		<tag k="natural" v="bay" />
		<tag k="ssr:stedsnr" v="212230" />
	</node>
	<node lat="70.13588333714188" lon="18.75366944726949" id="-38611">
		<tag k="name" v="Ravsjå" />
		<tag k="natural" v="shoal" />
		<tag k="place" v="locality" />
		<tag k="ssr:stedsnr" v="228141" />
	</node>
	<node lat="70.27086111112482" lon="18.87797776014154" id="-38613">
		<tag k="name" v="Jonsbåen" />
		<tag k="natural" v="shoal" />
		<tag k="place" v="locality" />
		<tag k="ssr:stedsnr" v="228540" />
	</node>
	<node lat="69.8259249972226" lon="19.41296944421215" id="-38615">
		<tag k="name" v="Rørnes" />
		<tag k="natural" v="cape" />
		<tag k="ssr:stedsnr" v="230130" />
	</node>
	<node lat="69.83674722042004" lon="19.454899997910317" id="-38616">
		<tag k="name" v="Krokhaugneset" />
		<tag k="natural" v="cape" />
		<tag k="ssr:stedsnr" v="230132" />
	</node>
	<node lat="69.94586666588478" lon="19.552022209228912" id="-38618">
		<tag k="name" v="Lysegrunnen" />
		<tag k="natural" v="shoal" />
		<tag k="place" v="locality" />
		<tag k="ssr:stedsnr" v="449530" />
	</node>
	<node lat="70.00372085392023" lon="18.8055451917559" id="-38623">
		<tag k="name" v="Jøvikholman" />
		<tag k="place" v="islet" />
		<tag k="ssr:stedsnr" v="231476" />
	</node>
	<node lat="69.92496388638001" lon="19.49027775915407" id="-38628">
		<tag k="name" v="Lorensneset" />
		<tag k="natural" v="cape" />
		<tag k="ssr:stedsnr" v="232179" />
	</node>
	<node lat="70.11488610775548" lon="19.19223333112035" id="-38633">
		<tag k="fixme" v="consider seamark:type=rock or natural=shoal" />
		<tag k="name" v="Skarveskjæret" />
		<tag k="place" v="islet" />
		<tag k="ssr:stedsnr" v="232614" />
	</node>
	<node lat="70.11573889130311" lon="19.180852772126944" id="-38634">
		<tag k="fixme" v="consider seamark:type=rock or natural=shoal" />
		<tag k="name" v="Elveskjæret" />
		<tag k="place" v="islet" />
		<tag k="ssr:stedsnr" v="232615" />
	</node>
	<node lat="70.021208335293" lon="19.303697210619717" id="-38635">
		<tag k="name" v="Vassnes" />
		<tag k="natural" v="cape" />
		<tag k="ssr:stedsnr" v="232724" />
	</node>
	<node lat="70.02441110972228" lon="19.300916654274367" id="-38636">
		<tag k="name" v="Lunvika" />
		<tag k="natural" v="bay" />
		<tag k="ssr:stedsnr" v="232726" />
	</node>
	<node lat="69.88708889243107" lon="19.42870277703492" id="-38642">
		<tag k="fixme" v="consider seamark:type=rock or natural=shoal" />
		<tag k="name" v="Blåsteinan" />
		<tag k="place" v="islet" />
		<tag k="ssr:stedsnr" v="232813" />
	</node>
	<node lat="70.24520833495345" lon="19.49198331530028" id="-38643">
		<tag k="name" v="Sandholmen" />
		<tag k="place" v="islet" />
		<tag k="ssr:stedsnr" v="232822" />
	</node>
	<node lat="70.06180000369673" lon="19.002905547582895" id="-38652">
		<tag k="fixme" v="consider seamark:type=rock or natural=shoal" />
		<tag k="name" v="Vareveingan" />
		<tag k="place" v="islet" />
		<tag k="ssr:stedsnr" v="233232" />
	</node>
	<node lat="70.04776536130095" lon="18.927810104345085" id="-38653">
		<tag k="name" v="Sørtoften" />
		<tag k="natural" v="bay" />
		<tag k="ssr:stedsnr" v="233271" />
	</node>
	<node lat="70.25602777624238" lon="19.52713886662845" id="-38656">
		<tag k="fixme" v="consider seamark:type=rock or natural=shoal" />
		<tag k="name" v="Breileiskjæret" />
		<tag k="place" v="islet" />
		<tag k="ssr:stedsnr" v="233402" />
	</node>
	<node lat="70.10586944895452" lon="19.37648053830828" id="-38665">
		<tag k="name" v="Skjåholmgrunnen" />
		<tag k="natural" v="shoal" />
		<tag k="place" v="locality" />
		<tag k="ssr:stedsnr" v="450588" />
	</node>
	<node lat="70.0824111077818" lon="20.010363870321658" id="-38666">
		<tag k="name" v="Mikkelbreget" />
		<tag k="natural" v="shoal" />
		<tag k="place" v="locality" />
		<tag k="ssr:stedsnr" v="451084" />
	</node>
	<node lat="70.06514166745637" lon="20.107852764430955" id="-38667">
		<tag k="name" v="Kallgrunnen" />
		<tag k="natural" v="shoal" />
		<tag k="place" v="locality" />
		<tag k="ssr:stedsnr" v="451087" />
	</node>
	<node lat="70.2647861100969" lon="20.298808308926734" id="-38670">
		<tag k="name" v="Duaros" />
		<tag k="natural" v="shoal" />
		<tag k="place" v="locality" />
		<tag k="ssr:stedsnr" v="454157" />
	</node>
	<node lat="70.27745833650171" lon="20.304030551808008" id="-38671">
		<tag k="name" v="Håkjerringsnaget" />
		<tag k="natural" v="shoal" />
		<tag k="place" v="locality" />
		<tag k="ssr:stedsnr" v="454159" />
	</node>
	<node lat="70.23997222142792" lon="20.25605276890298" id="-38672">
		<tag k="name" v="Sendingen" />
		<tag k="natural" v="cape" />
		<tag k="ssr:stedsnr" v="454855" />
	</node>
	<node lat="70.18971111276437" lon="20.192505553029235" id="-38673">
		<tag k="name" v="Skallen" />
		<tag k="natural" v="shoal" />
		<tag k="place" v="locality" />
		<tag k="ssr:stedsnr" v="454856" />
	</node>
	<node lat="70.23523333612728" lon="20.24599164953697" id="-38674">
		<tag k="name" v="Laukvikbukta" />
		<tag k="natural" v="bay" />
		<tag k="ssr:stedsnr" v="455294" />
	</node>
	<node lat="70.22833332932927" lon="20.395555546165347" id="-38675">
		<tag k="name" v="Huibakk" />
		<tag k="natural" v="shoal" />
		<tag k="place" v="locality" />
		<tag k="ssr:stedsnr" v="456533" />
	</node>
	<node lat="70.03661110883233" lon="19.76704721999961" id="-38684">
		<tag k="name" v="Vannsundet" />
		<tag k="natural" v="strait" />
		<tag k="ssr:stedsnr" v="262105" />
	</node>
	<node lat="70.01787500232982" lon="19.908902765686992" id="-38685">
		<tag k="name" v="Jøvika" />
		<tag k="natural" v="bay" />
		<tag k="ssr:stedsnr" v="262109" />
	</node>
	<node lat="70.01906111050405" lon="19.854947199638435" id="-38686">
		<tag k="name" v="Arvikneset" />
		<tag k="natural" v="cape" />
		<tag k="ssr:stedsnr" v="262112" />
	</node>
	<node lat="70.01330833731801" lon="19.92025832237307" id="-38688">
		<tag k="name" v="Draugvika" />
		<tag k="natural" v="bay" />
		<tag k="ssr:stedsnr" v="262117" />
	</node>
	<node lat="70.23227777664667" lon="18.63891665907641" id="-38689">
		<tag k="name" v="Sessøybåan" />
		<tag k="natural" v="shoal" />
		<tag k="place" v="locality" />
		<tag k="ssr:stedsnr" v="262299" />
	</node>
	<node lat="70.32896110881518" lon="19.72244165156309" id="-38690">
		<tag k="alt_name" v="Jonsråsgrunnen, s" />
		<tag k="name" v="Søndre Jonsråsgrunnen" />
		<tag k="natural" v="shoal" />
		<tag k="place" v="locality" />
		<tag k="ssr:stedsnr" v="262413" />
	</node>
	<node lat="70.25978333292191" lon="19.201099999529358" id="-38691">
		<tag k="name" v="Straumsneset" />
		<tag k="natural" v="cape" />
		<tag k="ssr:stedsnr" v="262394" />
	</node>
	<node lat="70.07902222207409" lon="18.81939166160207" id="-38694">
		<tag k="fixme" v="consider seamark:type=rock or natural=shoal" />
		<tag k="name" v="Kalven" />
		<tag k="place" v="islet" />
		<tag k="ssr:stedsnr" v="262548" />
	</node>
	<node lat="70.07084166975469" lon="19.384333333779498" id="-38696">
		<tag k="name" v="Storbukta" />
		<tag k="natural" v="bay" />
		<tag k="ssr:stedsnr" v="262809" />
	</node>
	<node lat="70.11032222153739" lon="19.369019447074336" id="-38699">
		<tag k="name" v="Skjåholmen" />
		<tag k="place" v="islet" />
		<tag k="ssr:stedsnr" v="262847" />
	</node>
	<node lat="70.11917500377237" lon="20.120683318518" id="-38705">
		<tag k="name" v="Lenanggrunnen" />
		<tag k="natural" v="shoal" />
		<tag k="place" v="locality" />
		<tag k="ssr:stedsnr" v="262905" />
	</node>
	<node lat="70.1207305510511" lon="20.026297217416626" id="-38706">
		<tag k="name" v="Kraknes" />
		<tag k="natural" v="cape" />
		<tag k="ssr:stedsnr" v="262900" />
	</node>
	<node lat="70.17370556019547" lon="19.003355544946753" id="-38708">
		<tag k="name" v="Kobbevågen" />
		<tag k="natural" v="bay" />
		<tag k="ssr:stedsnr" v="263498" />
	</node>
	<node lat="70.07228055547256" lon="18.824255542238117" id="-38709">
		<tag k="name" v="Bukkeneset" />
		<tag k="natural" v="cape" />
		<tag k="ssr:stedsnr" v="263506" />
	</node>
	<node lat="70.09681666616399" lon="18.8723194387543" id="-38710">
		<tag k="name" v="Kobbeneset" />
		<tag k="natural" v="cape" />
		<tag k="ssr:stedsnr" v="263507" />
	</node>
	<node lat="70.26248333302668" lon="19.515874981914656" id="-38712">
		<tag k="name" v="Sandbarnet" />
		<tag k="natural" v="shoal" />
		<tag k="place" v="locality" />
		<tag k="ssr:stedsnr" v="266781" />
	</node>
	<node lat="70.13994722329558" lon="19.971716663804468" id="-38714">
		<tag k="name" v="Storholmen" />
		<tag k="place" v="islet" />
		<tag k="ssr:stedsnr" v="266912" />
	</node>
	<node lat="70.10967222672673" lon="19.683077773886485" id="-38715">
		<tag k="name" v="Andersgrunnen" />
		<tag k="natural" v="shoal" />
		<tag k="place" v="locality" />
		<tag k="ssr:stedsnr" v="267634" />
	</node>
	<node lat="69.97361666342925" lon="19.6643583277894" id="-38716">
		<tag k="name" v="Stempelgrunnen" />
		<tag k="natural" v="shoal" />
		<tag k="place" v="locality" />
		<tag k="ssr:stedsnr" v="267502" />
	</node>
	<node lat="70.02734167087232" lon="19.577191654823846" id="-38717">
		<tag k="fixme" v="consider seamark:type=rock or natural=shoal" />
		<tag k="name" v="Grunnfjordskjæret" />
		<tag k="place" v="islet" />
		<tag k="ssr:stedsnr" v="268127" />
	</node>
	<node lat="70.10960555596799" lon="20.078152772820985" id="-38718">
		<tag k="name" v="Jøvikneset" />
		<tag k="natural" v="cape" />
		<tag k="ssr:stedsnr" v="268875" />
	</node>
	<node lat="70.04964166285092" lon="19.91456388583762" id="-38719">
		<tag k="loc_name:se" v="Geailu" />
		<tag k="name" v="Kjeglen" />
		<tag k="name:no" v="Kjeglen" />
		<tag k="natural" v="bay" />
		<tag k="ssr:stedsnr" v="273386" />
	</node>
	<node lat="70.05361110841267" lon="20.0247222171196" id="-38721">
		<tag k="name" v="Munkestø" />
		<tag k="natural" v="shoal" />
		<tag k="place" v="locality" />
		<tag k="ssr:stedsnr" v="274573" />
	</node>
	<node lat="70.11219999534009" lon="19.054180556522095" id="-38722">
		<tag k="name" v="Rundholmbåen" />
		<tag k="place" v="locality" />
		<tag k="seamark:type" v="rock" />
		<tag k="ssr:stedsnr" v="289403" />
	</node>
	<node lat="70.17619166818406" lon="18.797427776374573" id="-38723">
		<tag k="name" v="Rekvika" />
		<tag k="natural" v="bay" />
		<tag k="ssr:stedsnr" v="289510" />
	</node>
	<node lat="70.28025555487453" lon="18.961786112067415" id="-38724">
		<tag k="name" v="Haugetaren" />
		<tag k="natural" v="shoal" />
		<tag k="place" v="locality" />
		<tag k="ssr:stedsnr" v="289533" />
	</node>
	<node lat="70.05990277741888" lon="19.381908316054183" id="-38727">
		<tag k="name" v="Hamna" />
		<tag k="natural" v="bay" />
		<tag k="ssr:stedsnr" v="292179" />
	</node>
	<node lat="69.97063888856191" lon="19.716619435350548" id="-38733">
		<tag k="name" v="Nordleira" />
		<tag k="natural" v="bay" />
		<tag k="ssr:stedsnr" v="293123" />
	</node>
	<node lat="70.0165972197364" lon="19.042911115020704" id="-38744">
		<tag k="fixme" v="consider seamark:type=rock or natural=shoal" />
		<tag k="name" v="Tangan" />
		<tag k="place" v="islet" />
		<tag k="ssr:stedsnr" v="293234" />
	</node>
	<node lat="69.96608055407593" lon="19.696705542575874" id="-38748">
		<tag k="name" v="Halsen" />
		<tag k="natural" v="cape" />
		<tag k="ssr:stedsnr" v="293285" />
	</node>
	<node lat="69.9545305581092" lon="19.666808336002966" id="-38749">
		<tag k="name" v="Bjørnneset" />
		<tag k="natural" v="cape" />
		<tag k="ssr:stedsnr" v="293292" />
	</node>
	<node lat="70.2337305589292" lon="19.680555559574287" id="-38753">
		<tag k="name" v="Sandfjordnes" />
		<tag k="natural" v="cape" />
		<tag k="ssr:stedsnr" v="293411" />
	</node>
	<node lat="70.29021389201601" lon="19.782447202668614" id="-38755">
		<tag k="name" v="Skjåkeila" />
		<tag k="natural" v="bay" />
		<tag k="ssr:stedsnr" v="293477" />
	</node>
	<node lat="70.10222777964026" lon="18.499127778694287" id="-38766">
		<tag k="name" v="Sørfugløya - Voreš-Vuovlá" />
		<tag k="name:no" v="Sørfugløya" />
		<tag k="name:se" v="Voreš-Vuovlá" />
		<tag k="place" v="island" />
		<tag k="ssr:stedsnr" v="322231" />
	</node>
	<node lat="70.2386361150906" lon="18.98277500607899" id="-38767">
		<tag k="fixme" v="multiple name tags, choose one and add the other to alt_name; consider seamark:type=rock or natural=shoal" />
		<tag k="name" v="Porterskjæran;Portskjæran" />
		<tag k="place" v="islet" />
		<tag k="ssr:stedsnr" v="322287" />
	</node>
	<node lat="70.08639721885191" lon="18.97485277861993" id="-38769">
		<tag k="name" v="Vårøya" />
		<tag k="place" v="island" />
		<tag k="ssr:stedsnr" v="322506" />
	</node>
	<node lat="70.07414444746603" lon="18.831530554728072" id="-38773">
		<tag k="name" v="Storlikjosen" />
		<tag k="natural" v="bay" />
		<tag k="ssr:stedsnr" v="322514" />
	</node>
	<node lat="70.0812944427877" lon="18.81954166286052" id="-38774">
		<tag k="name" v="Kobbenasen" />
		<tag k="natural" v="cape" />
		<tag k="ssr:stedsnr" v="322529" />
	</node>
	<node lat="70.15314444888917" lon="18.778474999844555" id="-38776">
		<tag k="name" v="Kistholmen" />
		<tag k="place" v="islet" />
		<tag k="ssr:stedsnr" v="322579" />
	</node>
	<node lat="70.1385555594933" lon="18.786480547661117" id="-38778">
		<tag k="bay" v="fjord" />
		<tag k="name" v="Grøtøysundet" />
		<tag k="natural" v="bay" />
		<tag k="ssr:stedsnr" v="322586" />
	</node>
	<node lat="70.1431166656601" lon="18.863497216221717" id="-38779">
		<tag k="name" v="Austneset" />
		<tag k="natural" v="cape" />
		<tag k="ssr:stedsnr" v="322587" />
	</node>
	<node lat="70.1691138872598" lon="18.728294446887347" id="-38780">
		<tag k="alt_name" v="Kuskjeret" />
		<tag k="fixme" v="consider seamark:type=rock or natural=shoal" />
		<tag k="name" v="Kuskjæret" />
		<tag k="place" v="islet" />
		<tag k="ssr:stedsnr" v="322628" />
	</node>
	<node lat="70.07525000087196" lon="18.98074165699916" id="-38784">
		<tag k="name" v="Rebbenes" />
		<tag k="natural" v="cape" />
		<tag k="ssr:stedsnr" v="322730" />
	</node>
	<node lat="70.16248889320951" lon="19.896919425383512" id="-38786">
		<tag k="name" v="Laukvika" />
		<tag k="natural" v="bay" />
		<tag k="ssr:stedsnr" v="322907" />
	</node>
	<node lat="70.32825833748846" lon="19.17681387614857" id="-38790">
		<tag k="name" v="Yksmedbåan" />
		<tag k="natural" v="shoal" />
		<tag k="place" v="locality" />
		<tag k="ssr:stedsnr" v="323408" />
	</node>
	<node lat="70.28033611479076" lon="19.245149996981876" id="-38791">
		<tag k="loc_name:se" v="Fahccasuolu" />
		<tag k="name" v="Våtholman" />
		<tag k="name:no" v="Våtholman" />
		<tag k="place" v="islet" />
		<tag k="ssr:stedsnr" v="323431" />
	</node>
	<node lat="70.10777222486995" lon="18.964230557767028" id="-38792">
		<tag k="name" v="Langneset" />
		<tag k="natural" v="cape" />
		<tag k="ssr:stedsnr" v="323485" />
	</node>
	<node lat="70.09001111178665" lon="18.816916664751147" id="-38793">
		<tag k="name" v="Moltebærneset" />
		<tag k="natural" v="cape" />
		<tag k="ssr:stedsnr" v="323486" />
	</node>
	<node lat="69.95952222020165" lon="19.604272219480613" id="-38806">
		<tag k="name" v="Grågårdsbukta" />
		<tag k="natural" v="bay" />
		<tag k="ssr:stedsnr" v="327517" />
	</node>
	<node lat="70.08851110848332" lon="18.62216388675051" id="-38807">
		<tag k="name" v="Sessøygrunnen" />
		<tag k="natural" v="shoal" />
		<tag k="place" v="locality" />
		<tag k="ssr:stedsnr" v="470189" />
	</node>
	<node lat="69.84714444424836" lon="19.558349983132285" id="-38808">
		<tag k="name" v="Elvetaren" />
		<tag k="natural" v="shoal" />
		<tag k="place" v="locality" />
		<tag k="ssr:stedsnr" v="329515" />
	</node>
	<node lat="69.85668333525554" lon="19.83279720205942" id="-38809">
		<tag k="name" v="Grøtnesgård" />
		<tag k="natural" v="shoal" />
		<tag k="ssr:stedsnr" v="329520" />
	</node>
	<node lat="70.16043611049753" lon="19.932830542294166" id="-38812">
		<tag k="name" v="Slettnesleia" />
		<tag k="natural" v="strait" />
		<tag k="ssr:stedsnr" v="329859" />
	</node>
	<node lat="70.11532222354607" lon="20.071602756745364" id="-38813">
		<tag k="name" v="Merrevika" />
		<tag k="natural" v="bay" />
		<tag k="ssr:stedsnr" v="329869" />
	</node>
	<node lat="70.2601249972044" lon="18.787272213638396" id="-38814">
		<tag k="name" v="Jutetindtaren" />
		<tag k="natural" v="shoal" />
		<tag k="place" v="locality" />
		<tag k="ssr:stedsnr" v="470467" />
	</node>
	<node lat="70.10377777608268" lon="20.174047209345506" id="-38816">
		<tag k="name" v="Banken" />
		<tag k="natural" v="shoal" />
		<tag k="place" v="locality" />
		<tag k="ssr:stedsnr" v="332958" />
	</node>
	<node lat="70.11900555525035" lon="20.034099986001824" id="-38817">
		<tag k="name" v="Stuvika" />
		<tag k="natural" v="bay" />
		<tag k="ssr:stedsnr" v="333518" />
	</node>
	<node lat="70.12722222494011" lon="18.914149984303585" id="-38818">
		<tag k="name" v="Indre Reinskinnskallan" />
		<tag k="natural" v="shoal" />
		<tag k="place" v="locality" />
		<tag k="ssr:stedsnr" v="471456" />
	</node>
	<node lat="70.15631388838396" lon="18.983933326138885" id="-38819">
		<tag k="name" v="Vardnesbukta" />
		<tag k="natural" v="bay" />
		<tag k="ssr:stedsnr" v="471459" />
	</node>
	<node lat="70.13853333579077" lon="19.947361106645253" id="-38823">
		<tag k="name" v="Leirneset" />
		<tag k="natural" v="cape" />
		<tag k="ssr:stedsnr" v="472552" />
	</node>
	<node lat="70.21558055578735" lon="20.218230542347097" id="-38824">
		<tag k="loc_name:se" v="Návvu" />
		<tag k="name" v="Brusnova" />
		<tag k="name:no" v="Brusnova" />
		<tag k="natural" v="cape" />
		<tag k="ssr:stedsnr" v="472722" />
	</node>
	<node lat="70.26536111178213" lon="20.271933323518937" id="-38827">
		<tag k="name" v="Bukta" />
		<tag k="natural" v="bay" />
		<tag k="ssr:stedsnr" v="473038" />
	</node>
	<node lat="69.87908333130594" lon="19.41916665685862" id="-38829">
		<tag k="name" v="Skjærnesbukta" />
		<tag k="natural" v="bay" />
		<tag k="ssr:stedsnr" v="473141" />
	</node>
	<node lat="70.06013055781166" lon="19.007694451306854" id="-38830">
		<tag k="alt_name" v="Veingan" />
		<tag k="fixme" v="consider seamark:type=rock or natural=shoal" />
		<tag k="name" v="Storveingan" />
		<tag k="place" v="islet" />
		<tag k="ssr:stedsnr" v="349010" />
	</node>
	<node lat="70.04238610900732" lon="18.86365276445643" id="-38831">
		<tag k="fixme" v="multiple name tags, choose one and add the other to alt_name" />
		<tag k="name" v="Stakkholmen;Sirvikholmen" />
		<tag k="place" v="islet" />
		<tag k="ssr:stedsnr" v="349054" />
	</node>
	<node lat="70.02842222375496" lon="18.812194452985228" id="-38832">
		<tag k="name" v="Skotsteingrunnen" />
		<tag k="natural" v="shoal" />
		<tag k="place" v="locality" />
		<tag k="ssr:stedsnr" v="349056" />
	</node>
	<node lat="70.10376388845145" lon="19.06643054183744" id="-38833">
		<tag k="name" v="Hersøyskallan" />
		<tag k="natural" v="shoal" />
		<tag k="place" v="locality" />
		<tag k="ssr:stedsnr" v="349464" />
	</node>
	<node lat="70.3032277733434" lon="19.019666669999786" id="-38834">
		<tag k="name" v="Nordre Mulgrunnen" />
		<tag k="natural" v="shoal" />
		<tag k="place" v="locality" />
		<tag k="ssr:stedsnr" v="350453" />
	</node>
	<node lat="70.18533333383763" lon="19.253047213135183" id="-38841">
		<tag k="name" v="Molla" />
		<tag k="natural" v="bay" />
		<tag k="ssr:stedsnr" v="474222" />
	</node>
	<node lat="70.1058194451437" lon="20.122377760479832" id="-38847">
		<tag k="name" v="Smilikeila" />
		<tag k="natural" v="bay" />
		<tag k="ssr:stedsnr" v="353059" />
	</node>
	<node lat="70.10717221926268" lon="20.10019999537122" id="-38848">
		<tag k="name" v="Risdalsfjæra" />
		<tag k="natural" v="beach" />
		<tag k="ssr:stedsnr" v="353064" />
	</node>
	<node lat="69.85648888610154" lon="19.643227759850507" id="-38851">
		<tag k="name" v="Sandbakkneset" />
		<tag k="natural" v="cape" />
		<tag k="ssr:stedsnr" v="352970" />
	</node>
	<node lat="70.11078610905697" lon="19.32983054594665" id="-38852">
		<tag k="name" v="Lille Tjuvholmen" />
		<tag k="place" v="islet" />
		<tag k="ssr:stedsnr" v="353164" />
	</node>
	<node lat="69.89061944738346" lon="19.432583334548664" id="-38856">
		<tag k="name" v="Lilleneset" />
		<tag k="natural" v="cape" />
		<tag k="ssr:stedsnr" v="353821" />
	</node>
	<node lat="70.05652222354652" lon="19.281108325273085" id="-38858">
		<tag k="name" v="Myrbukta" />
		<tag k="natural" v="bay" />
		<tag k="ssr:stedsnr" v="353866" />
	</node>
	<node lat="70.08434999896438" lon="18.969894426571603" id="-38861">
		<tag k="name" v="Varøybukta" />
		<tag k="natural" v="bay" />
		<tag k="ssr:stedsnr" v="354216" />
	</node>
	<node lat="70.03822777728556" lon="19.002725005611442" id="-38865">
		<tag k="name" v="Rottvannstjønna" />
		<tag k="natural" v="bay" />
		<tag k="ssr:stedsnr" v="354238" />
	</node>
	<node lat="70.15190555667004" lon="19.918808332534848" id="-38867">
		<tag k="fixme" v="consider seamark:type=rock or natural=shoal" />
		<tag k="name" v="Hattesteinen" />
		<tag k="place" v="islet" />
		<tag k="ssr:stedsnr" v="354103" />
	</node>
	<node lat="70.17064999605668" lon="19.94921388241237" id="-38869">
		<tag k="fixme" v="consider seamark:type=rock or natural=shoal" />
		<tag k="name" v="Kvannvollskjæret" />
		<tag k="place" v="islet" />
		<tag k="ssr:stedsnr" v="354107" />
	</node>
	<node lat="70.14022222251003" lon="19.993094423036332" id="-38872">
		<tag k="name" v="Øysanden" />
		<tag k="natural" v="beach" />
		<tag k="ssr:stedsnr" v="354403" />
	</node>
	<node lat="70.13434444359798" lon="20.006961103341574" id="-38873">
		<tag k="name" v="Råtarbukta" />
		<tag k="natural" v="bay" />
		<tag k="ssr:stedsnr" v="354404" />
	</node>
	<node lat="70.09146110945437" lon="18.950061092391614" id="-38874">
		<tag k="name" v="Straumhellneset" />
		<tag k="natural" v="cape" />
		<tag k="ssr:stedsnr" v="354638" />
	</node>
	<node lat="70.2537472236952" lon="19.517911105837076" id="-38893">
		<tag k="fixme" v="consider seamark:type=rock or natural=shoal" />
		<tag k="name" v="Nakkeskjæran" />
		<tag k="place" v="islet" />
		<tag k="ssr:stedsnr" v="474835" />
	</node>
	<node lat="70.24797499783674" lon="19.494511101689856" id="-38894">
		<tag k="name" v="Kuholmen" />
		<tag k="place" v="islet" />
		<tag k="ssr:stedsnr" v="474836" />
	</node>
	<node lat="70.23443611171254" lon="19.505041646198173" id="-38896">
		<tag k="name" v="Leirbogen" />
		<tag k="natural" v="bay" />
		<tag k="ssr:stedsnr" v="474844" />
	</node>
	<node lat="70.08301111283913" lon="19.125858319097357" id="-38909">
		<tag k="name" v="Falkebergvika" />
		<tag k="natural" v="bay" />
		<tag k="ssr:stedsnr" v="475149" />
	</node>
	<node lat="70.026116669827" lon="18.947280543266206" id="-38913">
		<tag k="name" v="Holmenes" />
		<tag k="natural" v="cape" />
		<tag k="ssr:stedsnr" v="475246" />
	</node>
	<node lat="70.01430278220658" lon="19.632699984105034" id="-38915">
		<tag k="name" v="Lille Molla" />
		<tag k="natural" v="bay" />
		<tag k="ssr:stedsnr" v="475190" />
	</node>
	<node lat="70.00111944110077" lon="19.83200832285865" id="-38922">
		<tag k="name" v="Hestevika" />
		<tag k="natural" v="bay" />
		<tag k="ssr:stedsnr" v="475333" />
	</node>
	<node lat="70.28240555821041" lon="19.579463870538298" id="-38923">
		<tag k="name" v="Næringskeila" />
		<tag k="natural" v="bay" />
		<tag k="ssr:stedsnr" v="475342" />
	</node>
	<node lat="70.25735277526249" lon="19.540999982829124" id="-38928">
		<tag k="name" v="Nordholmen" />
		<tag k="place" v="islet" />
		<tag k="ssr:stedsnr" v="475397" />
	</node>
	<node lat="70.16074166478333" lon="19.761236102669507" id="-38931">
		<tag k="fixme" v="consider seamark:type=rock or natural=shoal" />
		<tag k="name" v="Bukkeskjæret" />
		<tag k="place" v="islet" />
		<tag k="ssr:stedsnr" v="475488" />
	</node>
	<node lat="70.1623750009706" lon="19.79964165784304" id="-38932">
		<tag k="name" v="Gammelgårdsneset" />
		<tag k="natural" v="cape" />
		<tag k="ssr:stedsnr" v="475495" />
	</node>
	<node lat="70.11278333430323" lon="19.184063881802405" id="-38939">
		<tag k="fixme" v="consider seamark:type=rock or natural=shoal" />
		<tag k="name" v="Senneskjæret" />
		<tag k="place" v="islet" />
		<tag k="ssr:stedsnr" v="475679" />
	</node>
	<node lat="70.20562778022817" lon="19.589411105511363" id="-38941">
		<tag k="name" v="Røyrholmen" />
		<tag k="natural" v="cape" />
		<tag k="ssr:stedsnr" v="475772" />
	</node>
	<node lat="69.97730833286633" lon="19.880922212544412" id="-38947">
		<tag k="name" v="Halsen" />
		<tag k="natural" v="cape" />
		<tag k="ssr:stedsnr" v="476437" />
	</node>
	<node lat="70.04800000340079" lon="19.887599995129406" id="-38950">
		<tag k="name" v="Lanesøyra" />
		<tag k="natural" v="beach" />
		<tag k="ssr:stedsnr" v="383112" />
	</node>
	<node lat="70.19906944824514" lon="19.006641650091833" id="-38953">
		<tag k="name" v="Sædingsholman" />
		<tag k="place" v="islet" />
		<tag k="ssr:stedsnr" v="383362" />
	</node>
	<node lat="70.08924999770392" lon="18.961388879705765" id="-38957">
		<tag k="alt_name:no" v="Vargesundet" />
		<tag k="loc_name:se" v="Várggunuorri" />
		<tag k="name" v="Vargsundet" />
		<tag k="name:no" v="Vargsundet" />
		<tag k="natural" v="strait" />
		<tag k="ssr:stedsnr" v="383555" />
	</node>
	<node lat="70.24286410297279" lon="19.776946801723863" id="-38963">
		<tag k="name" v="Storurneset" />
		<tag k="natural" v="cape" />
		<tag k="ssr:stedsnr" v="383651" />
	</node>
	<node lat="70.23976944202886" lon="19.228299991250577" id="-38965">
		<tag k="name" v="Skattvika" />
		<tag k="natural" v="bay" />
		<tag k="ssr:stedsnr" v="383658" />
	</node>
	<node lat="70.13185278240809" lon="18.972255548817433" id="-38967">
		<tag k="name" v="Svineryggen" />
		<tag k="natural" v="shoal" />
		<tag k="place" v="locality" />
		<tag k="ssr:stedsnr" v="383597" />
	</node>
	<node lat="69.97627740925114" lon="19.670080578432277" id="-38968">
		<tag k="name" v="Skattøra" />
		<tag k="natural" v="cape" />
		<tag k="ssr:stedsnr" v="383600" />
	</node>
	<node lat="70.12848888978247" lon="19.969066647315376" id="-38976">
		<tag k="name" v="Tenneset" />
		<tag k="natural" v="cape" />
		<tag k="ssr:stedsnr" v="387901" />
	</node>
	<node lat="70.25934999952973" lon="19.220463892391468" id="-38977">
		<tag k="name" v="Store Oksen" />
		<tag k="place" v="islet" />
		<tag k="ssr:stedsnr" v="388944" />
	</node>
	<node lat="70.03095278067536" lon="20.182261089098343" id="-38978">
		<tag k="name" v="Larsdjupta" />
		<tag k="natural" v="shoal" />
		<tag k="ssr:stedsnr" v="389859" />
	</node>
	<node lat="70.047677776034" lon="20.01015276810703" id="-38979">
		<tag k="name" v="Bortremunken" />
		<tag k="natural" v="shoal" />
		<tag k="place" v="locality" />
		<tag k="ssr:stedsnr" v="390090" />
	</node>
	<node lat="70.05479167096502" lon="19.778897215419985" id="-38980">
		<tag k="name" v="Ørnnesbukta" />
		<tag k="natural" v="bay" />
		<tag k="ssr:stedsnr" v="390210" />
	</node>
	<node lat="70.13906944045094" lon="20.17237776606011" id="-38981">
		<tag k="name" v="Ivarås" />
		<tag k="natural" v="shoal" />
		<tag k="place" v="locality" />
		<tag k="ssr:stedsnr" v="393403" />
	</node>
	<node lat="70.13549999847656" lon="20.145647210350166" id="-38982">
		<tag k="name" v="Hårås" />
		<tag k="natural" v="shoal" />
		<tag k="place" v="locality" />
		<tag k="ssr:stedsnr" v="393407" />
	</node>
	<node lat="70.13313055743058" lon="19.971249981939646" id="-38983">
		<tag k="name" v="Sildvatnet" />
		<tag k="natural" v="bay" />
		<tag k="ssr:stedsnr" v="394933" />
	</node>
	<node lat="70.13271667018438" lon="20.019291648687762" id="-38984">
		<tag k="fixme" v="consider seamark:type=rock or natural=shoal" />
		<tag k="name" v="Sandskjæran" />
		<tag k="place" v="islet" />
		<tag k="ssr:stedsnr" v="394934" />
	</node>
	<node lat="70.08943888871002" lon="19.013436114864074" id="-38985">
		<tag k="name" v="Lysgrunnen" />
		<tag k="natural" v="shoal" />
		<tag k="place" v="locality" />
		<tag k="ssr:stedsnr" v="410016" />
	</node>
	<node lat="70.14401110838138" lon="18.80362499351523" id="-38986">
		<tag k="fixme" v="consider seamark:type=rock or natural=shoal" />
		<tag k="name" v="Kjerringskjæret" />
		<tag k="place" v="islet" />
		<tag k="ssr:stedsnr" v="410490" />
	</node>
	<node lat="70.31084444709244" lon="20.190158310489124" id="-38987">
		<tag k="name" v="Skagneset" />
		<tag k="natural" v="cape" />
		<tag k="ssr:stedsnr" v="412044" />
	</node>
	<node lat="69.92380555815694" lon="19.54064721664342" id="-38998">
		<tag k="name" v="Rakkenes" />
		<tag k="natural" v="cape" />
		<tag k="ssr:stedsnr" v="414185" />
	</node>
	<node lat="70.0315726815735" lon="19.307796962604943" id="-39001">
		<tag k="name" v="Bukkholmen" />
		<tag k="place" v="islet" />
		<tag k="ssr:stedsnr" v="414738" />
	</node>
	<node lat="70.2489888853841" lon="19.50114721105349" id="-39003">
		<tag k="name" v="Kojenden" />
		<tag k="natural" v="cape" />
		<tag k="ssr:stedsnr" v="414794" />
	</node>
	<node lat="70.13429444420946" lon="19.681088891523853" id="-39007">
		<tag k="name" v="Klubbvika" />
		<tag k="natural" v="bay" />
		<tag k="ssr:stedsnr" v="414841" />
	</node>
	<node lat="70.10150278194632" lon="20.121691643090266" id="-39011">
		<tag k="name" v="Keila" />
		<tag k="natural" v="bay" />
		<tag k="ssr:stedsnr" v="415047" />
	</node>
	<node lat="70.1733805584836" lon="19.91943054270767" id="-39012">
		<tag k="name" v="Neset" />
		<tag k="natural" v="cape" />
		<tag k="ssr:stedsnr" v="415094" />
	</node>
	<node lat="70.01346666491555" lon="19.047874992923475" id="-39016">
		<tag k="fixme" v="consider seamark:type=rock or natural=shoal" />
		<tag k="name" v="Tennskjæret" />
		<tag k="place" v="islet" />
		<tag k="ssr:stedsnr" v="415194" />
	</node>
	<node lat="70.01748611441654" lon="18.942727780426118" id="-39019">
		<tag k="name" v="Kjosen" />
		<tag k="natural" v="bay" />
		<tag k="ssr:stedsnr" v="415248" />
	</node>
	<node lat="70.25480277592028" lon="19.536272201276052" id="-39020">
		<tag k="name" v="Sandholmen" />
		<tag k="place" v="islet" />
		<tag k="ssr:stedsnr" v="415405" />
	</node>
	<node lat="70.26331389177925" lon="19.562922223515113" id="-39025">
		<tag k="name" v="Urbuktsanden" />
		<tag k="natural" v="beach" />
		<tag k="ssr:stedsnr" v="415400" />
	</node>
	<node lat="70.21012499828515" lon="19.561599994036285" id="-39027">
		<tag k="name" v="Dalaneset" />
		<tag k="natural" v="cape" />
		<tag k="ssr:stedsnr" v="415816" />
	</node>
	<node lat="70.04501944055222" lon="19.958977772807067" id="-39036">
		<tag k="name" v="Skjågrunnen" />
		<tag k="natural" v="shoal" />
		<tag k="place" v="locality" />
		<tag k="ssr:stedsnr" v="444105" />
	</node>
	<node lat="70.00862777937536" lon="19.945663871745428" id="-39037">
		<tag k="name" v="Sandvika" />
		<tag k="natural" v="bay" />
		<tag k="ssr:stedsnr" v="444111" />
	</node>
	<node lat="70.28285555838981" lon="19.773486091494256" id="-39038">
		<tag k="alt_name" v="Grimsholmen, l" />
		<tag k="fixme" v="multiple name tags, choose one and add the other to alt_name" />
		<tag k="name" v="Lilleholmen;Lille Grimsholmen" />
		<tag k="place" v="island" />
		<tag k="ssr:stedsnr" v="444317" />
	</node>
	<node lat="70.28832777460615" lon="20.23669166252299" id="-39039">
		<tag k="name" v="Nikalasbukta" />
		<tag k="natural" v="bay" />
		<tag k="ssr:stedsnr" v="444320" />
	</node>
	<node lat="70.24416389261737" lon="19.142936117424075" id="-39040">
		<tag k="name" v="Fuglbergvika" />
		<tag k="natural" v="bay" />
		<tag k="ssr:stedsnr" v="444286" />
	</node>
	<node lat="70.31690832955829" lon="19.168724987498994" id="-39042">
		<tag k="name" v="Bøtnesbåan" />
		<tag k="natural" v="shoal" />
		<tag k="place" v="locality" />
		<tag k="ssr:stedsnr" v="444512" />
	</node>
	<node lat="70.09710000442772" lon="18.85179443259312" id="-39044">
		<tag k="name" v="Andamsholmen" />
		<tag k="place" v="islet" />
		<tag k="ssr:stedsnr" v="444529" />
	</node>
	<node lat="70.16351666596842" lon="19.08059998910661" id="-39048">
		<tag k="name" v="Svartneset" />
		<tag k="natural" v="cape" />
		<tag k="ssr:stedsnr" v="444589" />
	</node>
	<node lat="70.17984023539618" lon="19.1773798964949" id="-39049">
		<tag k="alt_name:no" v="Kvaløya" />
		<tag k="name" v="Nordkvaløya - Fálá" />
		<tag k="name:no" v="Nordkvaløya" />
		<tag k="name:se" v="Fálá" />
		<tag k="place" v="island" />
		<tag k="ssr:stedsnr" v="444592" />
	</node>
	<node lat="70.16425000110692" lon="18.78171665406916" id="-39050">
		<tag k="name" v="Sandvikneset" />
		<tag k="natural" v="cape" />
		<tag k="ssr:stedsnr" v="444605" />
	</node>
	<node lat="70.23513610780928" lon="19.238313873232002" id="-39053">
		<tag k="name" v="Storvika" />
		<tag k="natural" v="bay" />
		<tag k="ssr:stedsnr" v="444633" />
	</node>
	<node lat="70.23832499768774" lon="19.229636116283533" id="-39054">
		<tag k="name" v="Skjelnaneset" />
		<tag k="natural" v="cape" />
		<tag k="ssr:stedsnr" v="444636" />
	</node>
	<node lat="69.85497585343604" lon="19.71919460184839" id="-39055">
		<tag k="alt_name" v="Grøtnesodden" />
		<tag k="name" v="Grøtnes" />
		<tag k="natural" v="cape" />
		<tag k="ssr:stedsnr" v="444684" />
	</node>
	<node lat="70.03606666933473" lon="18.83499721336781" id="-39056">
		<tag k="name" v="Navarsholmen" />
		<tag k="place" v="islet" />
		<tag k="ssr:stedsnr" v="444685" />
	</node>
	<node lat="70.11387499941006" lon="19.336644430225228" id="-39058">
		<tag k="name" v="Gåsholmen" />
		<tag k="place" v="islet" />
		<tag k="ssr:stedsnr" v="444803" />
	</node>
	<node lat="70.04744444159556" lon="19.28754999967355" id="-39063">
		<tag k="name" v="Steinnesgrunnen" />
		<tag k="natural" v="shoal" />
		<tag k="place" v="locality" />
		<tag k="ssr:stedsnr" v="444975" />
	</node>
	<node lat="70.06162499772071" lon="19.428863890957544" id="-39065">
		<tag k="name" v="Reinøytaren" />
		<tag k="natural" v="shoal" />
		<tag k="place" v="locality" />
		<tag k="ssr:stedsnr" v="444980" />
	</node>
	<node lat="70.33311389199152" lon="19.501574998095958" id="-39068">
		<tag k="name" v="Ola Nilsgrunnen" />
		<tag k="natural" v="shoal" />
		<tag k="place" v="locality" />
		<tag k="ssr:stedsnr" v="445430" />
	</node>
	<node lat="70.35943333176779" lon="19.456005544232546" id="-39069">
		<tag k="name" v="Steinskolten" />
		<tag k="natural" v="shoal" />
		<tag k="place" v="locality" />
		<tag k="ssr:stedsnr" v="445432" />
	</node>
	<node lat="70.37647499657787" lon="19.5656222239736" id="-39070">
		<tag k="name" v="Loddegrunnen" />
		<tag k="natural" v="shoal" />
		<tag k="place" v="locality" />
		<tag k="ssr:stedsnr" v="445488" />
	</node>
	<node lat="70.10856388464705" lon="18.85180555978791" id="-39071">
		<tag k="loc_name" v="Čáhppesnjárga" />
		<tag k="name" v="Svartneset" />
		<tag k="natural" v="cape" />
		<tag k="ssr:stedsnr" v="445497" />
	</node>
	<node lat="70.09975833478607" lon="19.44481387407958" id="-39072">
		<tag k="alt_name" v="Svartnes" />
		<tag k="name" v="Svartneset" />
		<tag k="natural" v="cape" />
		<tag k="ssr:stedsnr" v="445507" />
	</node>
	<node lat="70.26456388728678" lon="19.50831942397745" id="-39073">
		<tag k="fixme" v="consider seamark:type=rock or natural=shoal" />
		<tag k="name" v="Grisan" />
		<tag k="place" v="islet" />
		<tag k="ssr:stedsnr" v="448803" />
	</node>
	<node lat="70.25129167071562" lon="19.689480538168258" id="-39074">
		<tag k="name" v="Tåen" />
		<tag k="natural" v="shoal" />
		<tag k="place" v="locality" />
		<tag k="ssr:stedsnr" v="448816" />
	</node>
	<node lat="70.11870278065653" lon="20.00987220265005" id="-39075">
		<tag k="name" v="Hestholmen" />
		<tag k="natural" v="cape" />
		<tag k="ssr:stedsnr" v="448919" />
	</node>
	<node lat="69.94093610787964" lon="19.817780545696337" id="-39076">
		<tag k="alt_name" v="Tjønnøra" />
		<tag k="name" v="Tjørnøra" />
		<tag k="natural" v="beach" />
		<tag k="ssr:stedsnr" v="449504" />
	</node>
	<node lat="70.2564361128464" lon="19.221644446771325" id="-39077">
		<tag k="name" v="Lille Oksen" />
		<tag k="place" v="islet" />
		<tag k="ssr:stedsnr" v="449924" />
	</node>
	<node lat="69.82478055256502" lon="19.386652767464213" id="-39078">
		<tag k="loc_name" v="Hans Isaksataren" />
		<tag k="name" v="Hans Isaktaren" />
		<tag k="natural" v="shoal" />
		<tag k="place" v="locality" />
		<tag k="ssr:stedsnr" v="450304" />
	</node>
	<node lat="69.88820833028731" lon="19.87006109195692" id="-39079">
		<tag k="name" v="Storgrunnen" />
		<tag k="natural" v="shoal" />
		<tag k="ssr:stedsnr" v="450505" />
	</node>
	<node lat="70.04912221952303" lon="19.50633331304657" id="-39081">
		<tag k="alt_name" v="Bergenes" />
		<tag k="name" v="Bergeneset" />
		<tag k="natural" v="cape" />
		<tag k="ssr:stedsnr" v="451163" />
	</node>
	<node lat="70.00754166420202" lon="19.56124165105212" id="-39082">
		<tag k="alt_name" v="Langnesodden" />
		<tag k="name" v="Langneset" />
		<tag k="natural" v="cape" />
		<tag k="ssr:stedsnr" v="451164" />
	</node>
	<node lat="70.08086666457865" lon="19.997049978676696" id="-39083">
		<tag k="name" v="Nordmunken" />
		<tag k="natural" v="cape" />
		<tag k="ssr:stedsnr" v="451218" />
	</node>
	<node lat="70.14016666729938" lon="20.217305548302114" id="-39086">
		<tag k="name" v="Longeros" />
		<tag k="natural" v="shoal" />
		<tag k="place" v="locality" />
		<tag k="ssr:stedsnr" v="454504" />
	</node>
	<node lat="70.10215277857601" lon="19.125708338214714" id="-39087">
		<tag k="name" v="Skallen" />
		<tag k="natural" v="shoal" />
		<tag k="place" v="locality" />
		<tag k="ssr:stedsnr" v="470381" />
	</node>
	<node lat="70.26546388844855" lon="18.78866388691497" id="-39088">
		<tag k="name" v="Jutebåen" />
		<tag k="natural" v="shoal" />
		<tag k="place" v="locality" />
		<tag k="ssr:stedsnr" v="470465" />
	</node>
	<node lat="70.1730388876785" lon="19.952844428261624" id="-39089">
		<tag k="name" v="Spirneset" />
		<tag k="natural" v="cape" />
		<tag k="ssr:stedsnr" v="471668" />
	</node>
	<node lat="70.15812500199063" lon="20.168472200201872" id="-39090">
		<tag k="name" v="Kuhollet" />
		<tag k="natural" v="bay" />
		<tag k="ssr:stedsnr" v="472708" />
	</node>
	<node lat="69.8657694411967" lon="19.40891942237206" id="-39092">
		<tag k="fixme" v="consider seamark:type=rock or natural=shoal" />
		<tag k="name" v="Kvitsteinen" />
		<tag k="place" v="islet" />
		<tag k="ssr:stedsnr" v="473015" />
	</node>
	<node lat="69.94806389225361" lon="19.47491388961168" id="-39098">
		<tag k="name" v="Hessfjordbukta" />
		<tag k="natural" v="bay" />
		<tag k="ssr:stedsnr" v="474175" />
	</node>
	<node lat="70.03688611461469" lon="18.83157777258283" id="-39101">
		<tag k="name" v="Langholmen" />
		<tag k="place" v="islet" />
		<tag k="ssr:stedsnr" v="475016" />
	</node>
	<node lat="70.08922778051748" lon="18.95323054849058" id="-39109">
		<tag k="name" v="Straumhellbukta" />
		<tag k="natural" v="bay" />
		<tag k="ssr:stedsnr" v="475208" />
	</node>
	<node lat="70.06601111302784" lon="19.025191659482516" id="-39111">
		<tag k="name" v="Finnesklubben" />
		<tag k="natural" v="cape" />
		<tag k="ssr:stedsnr" v="475210" />
	</node>
	<node lat="69.93519444709025" lon="19.591341662652386" id="-39113">
		<tag k="name" v="Sandnes" />
		<tag k="natural" v="cape" />
		<tag k="ssr:stedsnr" v="475218" />
	</node>
	<node lat="70.12550277955417" lon="19.969163890179342" id="-39115">
		<tag k="name" v="Garnbukta" />
		<tag k="natural" v="bay" />
		<tag k="ssr:stedsnr" v="475411" />
	</node>
	<node lat="70.11837222379063" lon="19.09000278446881" id="-39116">
		<tag k="name" v="Yttervika" />
		<tag k="natural" v="bay" />
		<tag k="ssr:stedsnr" v="475667" />
	</node>
	<node lat="70.07659999803448" lon="18.258025004440093" id="-39125">
		<tag k="name" v="Paktror" />
		<tag k="natural" v="shoal" />
		<tag k="place" v="locality" />
		<tag k="ssr:stedsnr" v="504267" />
	</node>
	<node lat="69.99336667077084" lon="19.390055547994674" id="-39129">
		<tag k="alt_name" v="Vinternes" />
		<tag k="name" v="Vinterneset" />
		<tag k="natural" v="cape" />
		<tag k="ssr:stedsnr" v="504607" />
	</node>
	<node lat="70.25675555573771" lon="19.168002775546515" id="-39131">
		<tag k="name" v="Mannhalsneset" />
		<tag k="natural" v="cape" />
		<tag k="ssr:stedsnr" v="504376" />
	</node>
	<node lat="70.07886666775795" lon="19.098608335919945" id="-39132">
		<tag k="name" v="Lynggammen" />
		<tag k="natural" v="cape" />
		<tag k="ssr:stedsnr" v="504511" />
	</node>
	<node lat="70.13322499711748" lon="18.82780275991924" id="-39135">
		<tag k="name" v="Molvika" />
		<tag k="natural" v="bay" />
		<tag k="ssr:stedsnr" v="504574" />
	</node>
	<node lat="70.1841750022836" lon="19.256847203337987" id="-39139">
		<tag k="name" v="Finnsulneset" />
		<tag k="natural" v="cape" />
		<tag k="ssr:stedsnr" v="504869" />
	</node>
	<node lat="70.18222222006762" lon="19.923677773872924" id="-39142">
		<tag k="name" v="Ørnsteinen" />
		<tag k="natural" v="cape" />
		<tag k="ssr:stedsnr" v="504916" />
	</node>
	<node lat="70.24175000225661" lon="20.227044422328646" id="-39143">
		<tag k="loc_name:se" v="Nuorta-Vuovlá;Hovli" />
		<tag k="name" v="Nordfugløya" />
		<tag k="name:no" v="Nordfugløya" />
		<tag k="place" v="island" />
		<tag k="ssr:stedsnr" v="504974" />
	</node>
	<node lat="70.2179527753007" lon="18.98966944481045" id="-39145">
		<tag k="name" v="Værholmbardan" />
		<tag k="natural" v="shoal" />
		<tag k="place" v="locality" />
		<tag k="ssr:stedsnr" v="505372" />
	</node>
	<node lat="70.19334166312497" lon="18.845083338696465" id="-39146">
		<tag k="fixme" v="consider seamark:type=rock or natural=shoal" />
		<tag k="name" v="Skarvestein" />
		<tag k="place" v="islet" />
		<tag k="ssr:stedsnr" v="505375" />
	</node>
	<node lat="70.07117777719213" lon="19.707758319650654" id="-39151">
		<tag k="name" v="Olavikneset" />
		<tag k="natural" v="cape" />
		<tag k="ssr:stedsnr" v="511191" />
	</node>
	<node lat="70.05101944617947" lon="19.922363873824754" id="-39156">
		<tag k="fixme" v="consider seamark:type=rock or natural=shoal" />
		<tag k="name" v="Blåsteinen" />
		<tag k="old_name" v="Båtstein" />
		<tag k="place" v="islet" />
		<tag k="ssr:stedsnr" v="686074" />
	</node>
	<node lat="70.15686111229392" lon="18.67771665286151" id="-39157">
		<tag k="alt_name" v="Medfjordskjeret, vestre;Vestre Medfjordskjeret" />
		<tag k="fixme" v="consider seamark:type=rock or natural=shoal" />
		<tag k="name" v="Nordre Medfjordskjæret" />
		<tag k="place" v="islet" />
		<tag k="ssr:stedsnr" v="686601" />
	</node>
	<node lat="70.25734166544365" lon="18.859044426625665" id="-39158">
		<tag k="name" v="Nordre Trommetaren" />
		<tag k="natural" v="shoal" />
		<tag k="place" v="locality" />
		<tag k="ssr:stedsnr" v="531512" />
	</node>
	<node lat="70.16938055447586" lon="18.809119433162568" id="-39159">
		<tag k="name" v="Nordre Sandvika" />
		<tag k="natural" v="bay" />
		<tag k="ssr:stedsnr" v="531517" />
	</node>
	<node lat="70.27943611195168" lon="19.804247213735326" id="-39160">
		<tag k="name" v="Seibåen" />
		<tag k="natural" v="shoal" />
		<tag k="place" v="locality" />
		<tag k="ssr:stedsnr" v="686335" />
	</node>
	<node lat="70.3170277788174" lon="20.154127770655403" id="-39162">
		<tag k="loc_name:se" v="Hovlegálbi" />
		<tag k="name" v="Fugløykalven" />
		<tag k="name:no" v="Fugløykalven" />
		<tag k="place" v="islet" />
		<tag k="ssr:stedsnr" v="686341" />
	</node>
	<node lat="70.30895833092464" lon="20.171883322857482" id="-39164">
		<tag k="loc_name:se" v="Skáhki" />
		<tag k="name" v="Fugløyskaga" />
		<tag k="name:no" v="Fugløyskaga" />
		<tag k="natural" v="cape" />
		<tag k="ssr:stedsnr" v="686345" />
	</node>
	<node lat="70.12957499804568" lon="18.423591673302774" id="-39165">
		<tag k="name" v="Furebaltskallen" />
		<tag k="natural" v="shoal" />
		<tag k="place" v="locality" />
		<tag k="ssr:stedsnr" v="686258" />
	</node>
	<node lat="70.13435277516515" lon="18.48331389400247" id="-39166">
		<tag k="name" v="Kolbein" />
		<tag k="natural" v="shoal" />
		<tag k="place" v="locality" />
		<tag k="ssr:stedsnr" v="686260" />
	</node>
	<node lat="69.85326944500756" lon="19.41231110829577" id="-39167">
		<tag k="name" v="Kabelneset" />
		<tag k="natural" v="cape" />
		<tag k="ssr:stedsnr" v="534012" />
	</node>
	<node lat="70.09358055939892" lon="18.526702787563586" id="-39171">
		<tag k="name" v="Småseitaren" />
		<tag k="natural" v="shoal" />
		<tag k="place" v="locality" />
		<tag k="ssr:stedsnr" v="686276" />
	</node>
	<node lat="70.08978333184733" lon="19.184050000962802" id="-39179">
		<tag k="name" v="Sasponnes" />
		<tag k="natural" v="cape" />
		<tag k="ssr:stedsnr" v="686532" />
	</node>
	<node lat="70.10110555492011" lon="19.04055276886754" id="-39180">
		<tag k="name" v="Naustneset" />
		<tag k="natural" v="cape" />
		<tag k="ssr:stedsnr" v="535673" />
	</node>
	<node lat="70.01070000163215" lon="19.05836110898812" id="-39184">
		<tag k="name" v="Sørkjosen" />
		<tag k="natural" v="bay" />
		<tag k="ssr:stedsnr" v="686648" />
	</node>
	<node lat="70.08954722006357" lon="18.8513499956277" id="-39185">
		<tag k="fixme" v="consider seamark:type=rock or natural=shoal" />
		<tag k="name" v="Straumskjæret" />
		<tag k="place" v="islet" />
		<tag k="ssr:stedsnr" v="536008" />
	</node>
	<node lat="70.10788888737409" lon="20.087869436550278" id="-39188">
		<tag k="name" v="Rødbergneset" />
		<tag k="natural" v="cape" />
		<tag k="ssr:stedsnr" v="536068" />
	</node>
	<node lat="69.94028055465482" lon="19.813586105129694" id="-39190">
		<tag k="fixme" v="consider seamark:type=rock or natural=shoal" />
		<tag k="name" v="Hestesteinen" />
		<tag k="place" v="islet" />
		<tag k="ssr:stedsnr" v="536084" />
	</node>
	<node lat="70.04406389355992" lon="18.909919428250355" id="-39192">
		<tag k="name" v="Skjettvika" />
		<tag k="natural" v="bay" />
		<tag k="ssr:stedsnr" v="536207" />
	</node>
	<node lat="70.02436111472441" lon="18.968027769493485" id="-39193">
		<tag k="name" v="Håkejordnes" />
		<tag k="natural" v="cape" />
		<tag k="ssr:stedsnr" v="536210" />
	</node>
	<node lat="70.09986388571829" lon="18.803652770798642" id="-39195">
		<tag k="name" v="Vedholman" />
		<tag k="place" v="islet" />
		<tag k="ssr:stedsnr" v="686552" />
	</node>
	<node lat="70.11903056047194" lon="20.01404442923251" id="-39197">
		<tag k="name" v="Sandvika" />
		<tag k="natural" v="bay" />
		<tag k="ssr:stedsnr" v="536116" />
	</node>
	<node lat="70.10074722543436" lon="18.977772230848075" id="-39203">
		<tag k="loc_name:se" v="Čorrobákluokta" />
		<tag k="name" v="Høgbergvika" />
		<tag k="name:no" v="Høgbergvika" />
		<tag k="natural" v="bay" />
		<tag k="ssr:stedsnr" v="686554" />
	</node>
	<node lat="69.92907222183459" lon="19.56488331855584" id="-39204">
		<tag k="alt_name" v="Olabukt" />
		<tag k="name" v="Olabukta" />
		<tag k="natural" v="bay" />
		<tag k="ssr:stedsnr" v="686561" />
	</node>
	<node lat="70.16206666552183" lon="19.802852776538163" id="-39206">
		<tag k="name" v="Leirbogen" />
		<tag k="natural" v="bay" />
		<tag k="ssr:stedsnr" v="536486" />
	</node>
	<node lat="70.09401388633333" lon="18.994805548173805" id="-39207">
		<tag k="name" v="Vågnes" />
		<tag k="natural" v="cape" />
		<tag k="ssr:stedsnr" v="536607" />
	</node>
	<node lat="70.2490416693272" lon="19.56246109335013" id="-39210">
		<tag k="name" v="Setervika" />
		<tag k="natural" v="bay" />
		<tag k="ssr:stedsnr" v="536372" />
	</node>
	<node lat="70.14720833668734" lon="19.65522220955045" id="-39213">
		<tag k="alt_name" v="Sæingsnesskjæran" />
		<tag k="fixme" v="consider seamark:type=rock or natural=shoal" />
		<tag k="name" v="Sengsnesskjæran" />
		<tag k="place" v="islet" />
		<tag k="ssr:stedsnr" v="536768" />
	</node>
	<node lat="70.1778166637441" lon="19.07170277508681" id="-39219">
		<tag k="bay" v="fjord" />
		<tag k="loc_name:se" v="Hearpmavuotna" />
		<tag k="name" v="Hermannsfjorden" />
		<tag k="name:no" v="Hermannsfjorden" />
		<tag k="natural" v="bay" />
		<tag k="ssr:stedsnr" v="686612" />
	</node>
	<node lat="70.17292500050411" lon="18.95343889270679" id="-39221">
		<tag k="name" v="Bukkhallaren" />
		<tag k="natural" v="cape" />
		<tag k="ssr:stedsnr" v="686624" />
	</node>
	<node lat="69.82840277510786" lon="19.42920832743948" id="-39224">
		<tag k="fixme" v="multiple name tags, choose one and add the other to alt_name" />
		<tag k="name" v="Sandholmen;Holmen" />
		<tag k="place" v="islet" />
		<tag k="ssr:stedsnr" v="686708" />
	</node>
	<node lat="70.1209555599507" lon="19.228949997799592" id="-39227">
		<tag k="name" v="Småseitaren" />
		<tag k="natural" v="shoal" />
		<tag k="place" v="locality" />
		<tag k="ssr:stedsnr" v="686779" />
	</node>
	<node lat="70.11356666411064" lon="19.318330556062385" id="-39228">
		<tag k="alt_name" v="Nebbeskjeran" />
		<tag k="fixme" v="consider seamark:type=rock or natural=shoal" />
		<tag k="name" v="Nebbeskjæran" />
		<tag k="place" v="islet" />
		<tag k="ssr:stedsnr" v="686786" />
	</node>
	<node lat="70.1625111077429" lon="20.18669442614193" id="-39229">
		<tag k="name" v="Kvitholmen" />
		<tag k="place" v="islet" />
		<tag k="ssr:stedsnr" v="686924" />
	</node>
	<node lat="70.45833333720853" lon="19.533333330859165" id="-39232">
		<tag k="name" v="Kolbeinhavet" />
		<tag k="natural" v="bay" />
		<tag k="ssr:stedsnr" v="541725" />
	</node>
	<node lat="70.48003889105614" lon="20.304780542255372" id="-39233">
		<tag k="name" v="Vannhaugskallan" />
		<tag k="natural" v="shoal" />
		<tag k="place" v="locality" />
		<tag k="ssr:stedsnr" v="541980" />
	</node>
	<node lat="70.24590555501575" lon="18.74314998170807" id="-39237">
		<tag k="name" v="Seibåen" />
		<tag k="natural" v="shoal" />
		<tag k="place" v="locality" />
		<tag k="ssr:stedsnr" v="687318" />
	</node>
	<node lat="70.24561666690745" lon="18.809586112972912" id="-39238">
		<tag k="name" v="Stortorsktaren" />
		<tag k="natural" v="shoal" />
		<tag k="place" v="locality" />
		<tag k="ssr:stedsnr" v="687320" />
	</node>
	<node lat="70.20967777322011" lon="18.824955556208984" id="-39241">
		<tag k="alt_name" v="Kjølgrunnan" />
		<tag k="name" v="Kjølgrunnen" />
		<tag k="natural" v="shoal" />
		<tag k="place" v="locality" />
		<tag k="ssr:stedsnr" v="687375" />
	</node>
	<node lat="70.28888611100318" lon="19.333663878445673" id="-39242">
		<tag k="name" v="Grøtøytaren" />
		<tag k="natural" v="shoal" />
		<tag k="place" v="locality" />
		<tag k="ssr:stedsnr" v="687418" />
	</node>
	<node lat="70.11270000041715" lon="18.963747215872054" id="-39248">
		<tag k="alt_name" v="Bernskogstranda" />
		<tag k="name" v="Bertskogstranda" />
		<tag k="natural" v="beach" />
		<tag k="ssr:stedsnr" v="687531" />
	</node>
	<node lat="70.10693611566046" lon="19.11123609408454" id="-39249">
		<tag k="name" v="Håkjerringholman" />
		<tag k="place" v="islet" />
		<tag k="ssr:stedsnr" v="687541" />
	</node>
	<node lat="70.10332777984163" lon="19.027094437503592" id="-39250">
		<tag k="name" v="Kobbevågen" />
		<tag k="natural" v="bay" />
		<tag k="ssr:stedsnr" v="687476" />
	</node>
	<node lat="70.11672499885651" lon="19.012086110255733" id="-39255">
		<tag k="name" v="Valen" />
		<tag k="natural" v="strait" />
		<tag k="ssr:stedsnr" v="687573" />
	</node>
	<node lat="70.11642222689076" lon="19.02041665845354" id="-39256">
		<tag k="name" v="Engholmen" />
		<tag k="place" v="islet" />
		<tag k="ssr:stedsnr" v="687577" />
	</node>
	<node lat="70.06497222419341" lon="19.334986113615937" id="-39261">
		<tag k="alt_name" v="Skarvskjeran" />
		<tag k="fixme" v="consider seamark:type=rock or natural=shoal" />
		<tag k="name" v="Skarveskjæran" />
		<tag k="place" v="islet" />
		<tag k="ssr:stedsnr" v="687780" />
	</node>
	<node lat="70.15515555205486" lon="19.22530000457084" id="-39266">
		<tag k="alt_name" v="Skjervika" />
		<tag k="name" v="Skjærvika" />
		<tag k="natural" v="bay" />
		<tag k="ssr:stedsnr" v="687831" />
	</node>
	<node lat="70.2191638859115" lon="19.30109998909659" id="-39269">
		<tag k="name" v="Kløftra" />
		<tag k="natural" v="shoal" />
		<tag k="place" v="locality" />
		<tag k="ssr:stedsnr" v="687860" />
	</node>
	<node lat="70.15033055991015" lon="19.957211093214806" id="-39272">
		<tag k="name" v="Tønsholman" />
		<tag k="place" v="islet" />
		<tag k="ssr:stedsnr" v="687926" />
	</node>
	<node lat="70.05973888806716" lon="19.346177759279872" id="-39273">
		<tag k="name" v="Langstranda" />
		<tag k="natural" v="beach" />
		<tag k="ssr:stedsnr" v="687985" />
	</node>
	<node lat="70.05296666701513" lon="19.489005539596263" id="-39274">
		<tag k="name" v="Avløysinga" />
		<tag k="natural" v="cape" />
		<tag k="ssr:stedsnr" v="687976" />
	</node>
	<node lat="69.8458805564608" lon="19.400563881291514" id="-39275">
		<tag k="name" v="Langsundtaren" />
		<tag k="natural" v="shoal" />
		<tag k="place" v="locality" />
		<tag k="ssr:stedsnr" v="692266" />
	</node>
	<node lat="70.0299305550192" lon="18.879105537743115" id="-39277">
		<tag k="name" v="Slettstrand" />
		<tag k="natural" v="beach" />
		<tag k="ssr:stedsnr" v="564666" />
	</node>
	<node lat="70.24072499690494" lon="19.095991652937023" id="-39281">
		<tag k="name" v="Storburet" />
		<tag k="natural" v="cape" />
		<tag k="ssr:stedsnr" v="565307" />
	</node>
	<node lat="70.13720000227505" lon="18.713986111470565" id="-39283">
		<tag k="alt_name" v="Gagnlausa" />
		<tag k="fixme" v="consider seamark:type=rock or natural=shoal" />
		<tag k="name" v="Gagnlausingen" />
		<tag k="place" v="islet" />
		<tag k="ssr:stedsnr" v="565606" />
	</node>
	<node lat="70.17121110970588" lon="19.043619435063746" id="-39284">
		<tag k="name" v="Tåga" />
		<tag k="natural" v="cape" />
		<tag k="ssr:stedsnr" v="565609" />
	</node>
	<node lat="70.30922777652793" lon="19.242819445574337" id="-39293">
		<tag k="name" v="Bottalgrunnen" />
		<tag k="natural" v="shoal" />
		<tag k="place" v="locality" />
		<tag k="ssr:stedsnr" v="692948" />
	</node>
	<node lat="70.2810194474917" lon="19.197733319022458" id="-39294">
		<tag k="name" v="Engholmen" />
		<tag k="place" v="islet" />
		<tag k="ssr:stedsnr" v="692958" />
	</node>
	<node lat="70.01542777674027" lon="19.83123333234975" id="-39295">
		<tag k="name" v="Skjågrunnen" />
		<tag k="natural" v="shoal" />
		<tag k="place" v="locality" />
		<tag k="ssr:stedsnr" v="693096" />
	</node>
	<node lat="70.00168611115508" lon="20.01461386711875" id="-39296">
		<tag k="name" v="Brosmebakkgrunnen" />
		<tag k="natural" v="shoal" />
		<tag k="place" v="locality" />
		<tag k="ssr:stedsnr" v="693196" />
	</node>
	<node lat="69.99085000125103" lon="19.55662778200069" id="-39297">
		<tag k="alt_name" v="Labukt" />
		<tag k="name" v="Labukta" />
		<tag k="natural" v="bay" />
		<tag k="ssr:stedsnr" v="693159" />
	</node>
	<node lat="69.98884444339565" lon="19.375972217401337" id="-39298">
		<tag k="name" v="Hornet" />
		<tag k="natural" v="cape" />
		<tag k="ssr:stedsnr" v="693160" />
	</node>
	<node lat="70.10085833397856" lon="20.125430548869062" id="-39299">
		<tag k="name" v="Tågneset" />
		<tag k="natural" v="cape" />
		<tag k="ssr:stedsnr" v="569900" />
	</node>
	<node lat="69.91535000387206" lon="19.489327758644848" id="-39300">
		<tag k="name" v="Gringnesgrunnen" />
		<tag k="natural" v="shoal" />
		<tag k="place" v="locality" />
		<tag k="ssr:stedsnr" v="570251" />
	</node>
	<node lat="69.8540611078137" lon="19.720458326094892" id="-39303">
		<tag k="name" v="Revsteinen" />
		<tag k="natural" v="shoal" />
		<tag k="place" v="locality" />
		<tag k="ssr:stedsnr" v="571166" />
	</node>
	<node lat="69.9050611164255" lon="19.895941646062212" id="-39304">
		<tag k="name" v="Yttergrunnen" />
		<tag k="natural" v="shoal" />
		<tag k="ssr:stedsnr" v="571503" />
	</node>
	<node lat="70.12703056028408" lon="20.023866653030396" id="-39306">
		<tag k="name" v="Lysgrunnen" />
		<tag k="natural" v="shoal" />
		<tag k="place" v="locality" />
		<tag k="ssr:stedsnr" v="693866" />
	</node>
	<node lat="70.05222221949185" lon="20.15833331484728" id="-39307">
		<tag k="name" v="Sørtilroren" />
		<tag k="natural" v="shoal" />
		<tag k="place" v="locality" />
		<tag k="ssr:stedsnr" v="577594" />
	</node>
	<node lat="70.29227500267343" lon="20.2662749906346" id="-39308">
		<tag k="name" v="Urklakken" />
		<tag k="natural" v="shoal" />
		<tag k="place" v="locality" />
		<tag k="ssr:stedsnr" v="697178" />
	</node>
	<node lat="70.22371944702064" lon="18.693988874503006" id="-39309">
		<tag k="name" v="Leibåan" />
		<tag k="natural" v="shoal" />
		<tag k="place" v="locality" />
		<tag k="ssr:stedsnr" v="592509" />
	</node>
	<node lat="70.20808610928492" lon="18.867969448415653" id="-39310">
		<tag k="name" v="Hans-Nilsataren" />
		<tag k="natural" v="shoal" />
		<tag k="place" v="locality" />
		<tag k="ssr:stedsnr" v="592514" />
	</node>
	<node lat="70.2183027761702" lon="18.733802771047674" id="-39311">
		<tag k="name" v="Ryggsbardtåga" />
		<tag k="natural" v="shoal" />
		<tag k="place" v="locality" />
		<tag k="ssr:stedsnr" v="592517" />
	</node>
	<node lat="69.85068333712258" lon="19.593413879780748" id="-39314">
		<tag k="name" v="Legdeneset" />
		<tag k="natural" v="cape" />
		<tag k="ssr:stedsnr" v="595999" />
	</node>
	<node lat="70.0954972248943" lon="20.102469441201197" id="-39317">
		<tag k="name" v="Myrneset" />
		<tag k="natural" v="cape" />
		<tag k="ssr:stedsnr" v="596067" />
	</node>
	<node lat="69.99085277942356" lon="19.366072206356385" id="-39330">
		<tag k="name" v="Dåfjordbotn" />
		<tag k="natural" v="bay" />
		<tag k="ssr:stedsnr" v="596751" />
	</node>
	<node lat="70.06486389101677" lon="19.04964722492125" id="-39332">
		<tag k="name" v="Båtnes" />
		<tag k="natural" v="cape" />
		<tag k="ssr:stedsnr" v="596766" />
	</node>
	<node lat="70.1803555597935" lon="18.57345554033039" id="-39343">
		<tag k="alt_name" v="Roskjerbakken" />
		<tag k="name" v="Roskjærbakken" />
		<tag k="natural" v="shoal" />
		<tag k="place" v="locality" />
		<tag k="ssr:stedsnr" v="625280" />
	</node>
	<node lat="70.09225832885203" lon="18.844711110529232" id="-39346">
		<tag k="name" v="Straumsneset" />
		<tag k="natural" v="cape" />
		<tag k="ssr:stedsnr" v="625512" />
	</node>
	<node lat="70.0897500022488" lon="18.850911110803292" id="-39347">
		<tag k="fixme" v="consider seamark:type=rock or natural=shoal" />
		<tag k="name" v="Godstrandholmen" />
		<tag k="place" v="islet" />
		<tag k="ssr:stedsnr" v="625513" />
	</node>
	<node lat="70.11670555350831" lon="19.349066665633725" id="-39349">
		<tag k="name" v="Kjerkevika" />
		<tag k="natural" v="bay" />
		<tag k="ssr:stedsnr" v="625805" />
	</node>
	<node lat="70.11973889143756" lon="19.33936389193847" id="-39354">
		<tag k="alt_name" v="Kvalnesholmen" />
		<tag k="name" v="Kvalsnesholmen" />
		<tag k="place" v="islet" />
		<tag k="ssr:stedsnr" v="625802" />
	</node>
	<node lat="70.17272777522876" lon="19.905038881360657" id="-39355">
		<tag k="name" v="Slettnesvika" />
		<tag k="natural" v="bay" />
		<tag k="ssr:stedsnr" v="625906" />
	</node>
	<node lat="70.20377777866061" lon="18.626975000033017" id="-39357">
		<tag k="name" v="Kvitskjæret" />
		<tag k="place" v="islet" />
		<tag k="ssr:stedsnr" v="626405" />
	</node>
	<node lat="70.25727222574226" lon="19.794299985614995" id="-39358">
		<tag k="name" v="Rebegrunnen" />
		<tag k="natural" v="shoal" />
		<tag k="place" v="locality" />
		<tag k="ssr:stedsnr" v="626415" />
	</node>
	<node lat="70.28245000231941" lon="19.191605544771615" id="-39359">
		<tag k="name" v="Sjursholman" />
		<tag k="place" v="islet" />
		<tag k="ssr:stedsnr" v="626454" />
	</node>
	<node lat="70.29931666528695" lon="19.19576111373356" id="-39360">
		<tag k="name" v="Indreseibåen" />
		<tag k="natural" v="shoal" />
		<tag k="place" v="locality" />
		<tag k="ssr:stedsnr" v="626456" />
	</node>
	<node lat="70.3003027797676" lon="19.20930832570469" id="-39361">
		<tag k="name" v="Sollbarden" />
		<tag k="place" v="islet" />
		<tag k="ssr:stedsnr" v="626457" />
	</node>
	<node lat="70.36681111083706" lon="19.55528054013303" id="-39362">
		<tag k="name" v="Tverrgrunnen" />
		<tag k="natural" v="shoal" />
		<tag k="place" v="locality" />
		<tag k="ssr:stedsnr" v="626500" />
	</node>
	<node lat="70.36327222007807" lon="19.448938879117847" id="-39363">
		<tag k="name" v="Godthaldsklakken" />
		<tag k="natural" v="shoal" />
		<tag k="place" v="locality" />
		<tag k="ssr:stedsnr" v="626501" />
	</node>
	<node lat="70.24823610931193" lon="18.753272210003555" id="-39367">
		<tag k="name" v="Nilstaren" />
		<tag k="natural" v="shoal" />
		<tag k="place" v="locality" />
		<tag k="ssr:stedsnr" v="626352" />
	</node>
	<node lat="70.2133499995257" lon="18.697830547868165" id="-39368">
		<tag k="alt_name" v="Flatskjeran" />
		<tag k="fixme" v="consider seamark:type=rock or natural=shoal" />
		<tag k="name" v="Flatskjæran" />
		<tag k="place" v="islet" />
		<tag k="ssr:stedsnr" v="626356" />
	</node>
	<node lat="70.12045278210836" lon="19.083222219738637" id="-39369">
		<tag k="alt_name" v="Mollvika" />
		<tag k="name" v="Molvika" />
		<tag k="natural" v="bay" />
		<tag k="ssr:stedsnr" v="626506" />
	</node>
	<node lat="70.22512498980687" lon="19.488392641275915" id="-39379">
		<tag k="alt_name" v="Øksenholmen, Indre;Indre Øksenholmen" />
		<tag k="name" v="Søndre Øksenholmen" />
		<tag k="place" v="islet" />
		<tag k="ssr:stedsnr" v="630731" />
	</node>
	<node lat="70.04580277470154" lon="20.080533323725508" id="-39381">
		<tag k="name" v="Bortre Olegga" />
		<tag k="natural" v="shoal" />
		<tag k="place" v="locality" />
		<tag k="ssr:stedsnr" v="632112" />
	</node>
	<node lat="69.85272499709853" lon="19.658977767801066" id="-39382">
		<tag k="name" v="Tjuven" />
		<tag k="natural" v="shoal" />
		<tag k="place" v="locality" />
		<tag k="ssr:stedsnr" v="632536" />
	</node>
	<node lat="70.29469999987413" lon="20.222074998560007" id="-39385">
		<tag k="name" v="Hundhollet" />
		<tag k="natural" v="bay" />
		<tag k="ssr:stedsnr" v="654041" />
	</node>
	<node lat="69.82720555863702" lon="19.353769432565148" id="-39388">
		<tag k="name" v="Overleggneset" />
		<tag k="natural" v="cape" />
		<tag k="ssr:stedsnr" v="655105" />
	</node>
	<node lat="69.92198611465876" lon="19.52988886993148" id="-39393">
		<tag k="name" v="Nordneset" />
		<tag k="natural" v="cape" />
		<tag k="ssr:stedsnr" v="656833" />
	</node>
	<node lat="70.06867222302921" lon="19.20316944039927" id="-39395">
		<tag k="name" v="Sakariasbukta" />
		<tag k="natural" v="bay" />
		<tag k="ssr:stedsnr" v="656881" />
	</node>
	<node lat="70.06126944196305" lon="19.00768887716961" id="-39404">
		<tag k="fixme" v="consider seamark:type=rock or natural=shoal" />
		<tag k="name" v="Småskjæran" />
		<tag k="place" v="islet" />
		<tag k="ssr:stedsnr" v="657206" />
	</node>
	<node lat="70.05156388993332" lon="19.028877762200302" id="-39405">
		<tag k="name" v="Hestevika" />
		<tag k="natural" v="bay" />
		<tag k="ssr:stedsnr" v="657207" />
	</node>
	<node lat="70.00526944296328" lon="19.796524991354584" id="-39410">
		<tag k="name" v="Lille Fauskenes" />
		<tag k="natural" v="cape" />
		<tag k="ssr:stedsnr" v="657331" />
	</node>
	<node lat="70.11157500191665" lon="18.502600006443263" id="-39424">
		<tag k="name" v="Knutskeilbåen" />
		<tag k="natural" v="shoal" />
		<tag k="place" v="locality" />
		<tag k="ssr:stedsnr" v="686244" />
	</node>
	<node lat="70.1020500002444" lon="18.427497225091724" id="-39425">
		<tag k="alt_name" v="Litlalkeskjeret" />
		<tag k="fixme" v="consider seamark:type=rock or natural=shoal" />
		<tag k="name" v="Litlalkeskjæret" />
		<tag k="place" v="islet" />
		<tag k="ssr:stedsnr" v="686246" />
	</node>
	<node lat="69.70469722489574" lon="19.72061387351002" id="-39426">
		<tag k="bay" v="fjord" />
		<tag k="fixme" v="multiple name tags, choose one and add the other to alt_name" />
		<tag k="name" v="Ullsfjorden - Olggosvuotna;Moskavuotna" />
		<tag k="name:no" v="Ullsfjorden" />
		<tag k="name:se" v="Olggosvuotna;Moskavuotna" />
		<tag k="natural" v="bay" />
		<tag k="ssr:stedsnr" v="686192" />
	</node>
	<node lat="70.02995555242916" lon="19.037272227261553" id="-39430">
		<tag k="name" v="Grindvika" />
		<tag k="natural" v="bay" />
		<tag k="ssr:stedsnr" v="686687" />
	</node>
	<node lat="70.11674166938259" lon="19.34426665468573" id="-39434">
		<tag k="fixme" v="consider seamark:type=rock or natural=shoal" />
		<tag k="name" v="Tørnskjæret" />
		<tag k="place" v="islet" />
		<tag k="ssr:stedsnr" v="686793" />
	</node>
	<node lat="70.02017500357861" lon="19.610308325998286" id="-39437">
		<tag k="alt_name" v="Kjerringvik" />
		<tag k="name" v="Kjerringvika" />
		<tag k="natural" v="bay" />
		<tag k="ssr:stedsnr" v="686945" />
	</node>
	<node lat="70.40090277856139" lon="19.982186112195336" id="-39438">
		<tag k="name" v="Sotnesgrunnen" />
		<tag k="natural" v="shoal" />
		<tag k="place" v="locality" />
		<tag k="ssr:stedsnr" v="687404" />
	</node>
	<node lat="70.26263610715544" lon="19.508302772550845" id="-39439">
		<tag k="fixme" v="consider seamark:type=rock or natural=shoal" />
		<tag k="name" v="Galten" />
		<tag k="place" v="islet" />
		<tag k="ssr:stedsnr" v="687386" />
	</node>
	<node lat="70.25852222061663" lon="19.663816659094728" id="-39440">
		<tag k="name" v="Stakkenga" />
		<tag k="natural" v="bay" />
		<tag k="ssr:stedsnr" v="687398" />
	</node>
	<node lat="70.25220000224725" lon="19.49571389280772" id="-39441">
		<tag k="alt_name" v="Skarveskjeran" />
		<tag k="fixme" v="consider seamark:type=rock or natural=shoal" />
		<tag k="name" v="Skarveskjæran" />
		<tag k="place" v="islet" />
		<tag k="ssr:stedsnr" v="687399" />
	</node>
	<node lat="70.2674861130834" lon="19.661008330473443" id="-39442">
		<tag k="name" v="Stakkengleia" />
		<tag k="natural" v="strait" />
		<tag k="ssr:stedsnr" v="687644" />
	</node>
	<node lat="70.13164444137482" lon="18.645249995066198" id="-39445">
		<tag k="alt_name" v="Eggeløysa" />
		<tag k="name" v="Eggløysa" />
		<tag k="place" v="islet" />
		<tag k="ssr:stedsnr" v="687595" />
	</node>
	<node lat="70.04632499607791" lon="19.870174987179734" id="-39448">
		<tag k="name" v="Lanesbåen" />
		<tag k="natural" v="shoal" />
		<tag k="place" v="locality" />
		<tag k="ssr:stedsnr" v="693087" />
	</node>
	<node lat="70.01147778153417" lon="19.935111094285496" id="-39449">
		<tag k="fixme" v="multiple name tags, choose one and add the other to alt_name" />
		<tag k="name" v="Lenninga;Årsandvika" />
		<tag k="natural" v="bay" />
		<tag k="ssr:stedsnr" v="693216" />
	</node>
	<node lat="70.18896388571771" lon="18.89597220729266" id="-39451">
		<tag k="name" v="Ormholmen" />
		<tag k="natural" v="cape" />
		<tag k="ssr:stedsnr" v="896462" />
	</node>
	<node lat="70.21253889064523" lon="18.852547221658675" id="-39452">
		<tag k="name" v="Jotaren" />
		<tag k="natural" v="shoal" />
		<tag k="place" v="locality" />
		<tag k="ssr:stedsnr" v="896499" />
	</node>
	<node lat="70.25309166242022" lon="18.745386107730027" id="-39455">
		<tag k="name" v="Tåga" />
		<tag k="natural" v="shoal" />
		<tag k="place" v="locality" />
		<tag k="ssr:stedsnr" v="713493" />
	</node>
	<node lat="70.00631666499181" lon="18.789108335657307" id="-39456">
		<tag k="name" v="Nordre Lysgrunnan" />
		<tag k="natural" v="shoal" />
		<tag k="place" v="locality" />
		<tag k="ssr:stedsnr" v="713582" />
	</node>
	<node lat="69.87458611457812" lon="19.41697777272823" id="-39459">
		<tag k="name" v="Sandneset" />
		<tag k="natural" v="cape" />
		<tag k="ssr:stedsnr" v="899016" />
	</node>
	<node lat="70.21801111090055" lon="19.23748609154375" id="-39461">
		<tag k="name" v="Naustneset" />
		<tag k="natural" v="cape" />
		<tag k="ssr:stedsnr" v="717225" />
	</node>
	<node lat="70.15553333174358" lon="19.224908335310765" id="-39462">
		<tag k="name" v="Molla" />
		<tag k="natural" v="bay" />
		<tag k="ssr:stedsnr" v="717226" />
	</node>
	<node lat="69.92524444348128" lon="19.54540553630369" id="-39467">
		<tag k="name" v="Olahaugneset" />
		<tag k="natural" v="cape" />
		<tag k="ssr:stedsnr" v="717177" />
	</node>
	<node lat="70.14423888796301" lon="19.228358325117142" id="-39471">
		<tag k="name" v="Vassurvika" />
		<tag k="natural" v="bay" />
		<tag k="ssr:stedsnr" v="899241" />
	</node>
	<node lat="70.24866110830338" lon="19.489819435446268" id="-39472">
		<tag k="fixme" v="consider seamark:type=rock or natural=shoal" />
		<tag k="name" v="Svartskjæret" />
		<tag k="place" v="islet" />
		<tag k="ssr:stedsnr" v="717813" />
	</node>
	<node lat="70.06675277623698" lon="19.35406109255835" id="-39474">
		<tag k="name" v="Vestersia" />
		<tag k="natural" v="cape" />
		<tag k="ssr:stedsnr" v="717875" />
	</node>
	<node lat="70.0815416630396" lon="19.22347222350549" id="-39475">
		<tag k="name" v="Havnes" />
		<tag k="natural" v="cape" />
		<tag k="ssr:stedsnr" v="717876" />
	</node>
</osm>
