<?xml version="1.0" encoding="UTF-8"?>
<osm generator="osmapis" version="0.6">
	<node id="-93055" lat="70.0365000012" lon="19.0963611104">
		<tag k="highway" v="path" />
		<tag k="name" v="Stien" />
		<tag k="ssr:stedsnr" v="415969" />
	</node>
	<node id="-90363" lat="70.1056055589" lon="20.1168055496">
		<tag k="man_made" v="tower" />
		<tag k="name" v="Fakken Deccamast" />
		<tag k="ssr:stedsnr" v="293068" />
		<tag k="tower:type" v="communications" />
	</node>
	<node id="-93686" lat="69.903952776" lon="19.4513583321">
		<tag k="highway" v="path" />
		<tag k="name" v="Linbanevegen" />
		<tag k="ssr:stedsnr" v="778862" />
	</node>
	<node id="-91893" lat="69.8417333363" lon="19.4394499991">
		<tag k="highway" v="path" />
		<tag k="name" v="Langlivegen" />
		<tag k="ssr:stedsnr" v="49009" />
	</node>
	<node id="-91246" lat="70.0019500005" lon="19.8873305462">
		<tag k="landuse" v="harbour" />
		<tag k="name" v="Værret" />
		<tag k="seamark:type" v="harbour" />
		<tag k="ssr:stedsnr" v="718440" />
	</node>
	<node id="-90463" lat="69.8464583302" lon="19.4343138902">
		<tag k="highway" v="path" />
		<tag k="name" v="Skriverhaugveien" />
		<tag k="ssr:stedsnr" v="231008" />
	</node>
	<node id="-91486" lat="70.1554666648" lon="19.2181027801">
		<tag k="highway" v="path" />
		<tag k="name" v="Kuveien" />
		<tag k="ssr:stedsnr" v="778226" />
	</node>
	<node id="-93021" lat="69.941344446" lon="19.6784638693">
		<tag k="highway" v="path" />
		<tag k="name" v="Mattisveien" />
		<tag k="ssr:stedsnr" v="415261" />
	</node>
	<node id="-94172" lat="70.2180083376" lon="19.5692861011">
		<tag k="highway" v="path" />
		<tag k="name" v="Fatveien" />
		<tag k="ssr:stedsnr" v="961785" />
	</node>
	<node id="-92120" lat="70.0028055539" lon="19.7640666547">
		<tag k="fixme" v="verify maritime location" />
		<tag k="mooring" v="yes" />
		<tag k="name" v="Støen" />
		<tag k="place" v="locality" />
		<tag k="ssr:stedsnr" v="111325" />
	</node>
	<node id="-94164" lat="70.2092861087" lon="19.6228027785">
		<tag k="highway" v="path" />
		<tag k="name" v="Steinveien" />
		<tag k="ssr:stedsnr" v="961691" />
	</node>
	<node id="-90392" lat="69.930238891" lon="19.625027774">
		<tag k="highway" v="path" />
		<tag k="name" v="Borkesteinveien" />
		<tag k="ssr:stedsnr" v="293271" />
	</node>
	<node id="-93904" lat="70.007666666" lon="19.5867638665">
		<tag k="highway" v="path" />
		<tag k="name" v="Mollveien" />
		<tag k="ssr:stedsnr" v="839017" />
	</node>
	<node id="-90063" lat="70.0527916632" lon="19.0490722193">
		<tag k="highway" v="path" />
		<tag k="name" v="Eidveien" />
		<tag k="ssr:stedsnr" v="232778" />
	</node>
	<node id="-90136" lat="70.2474194427" lon="19.5033833363">
		<tag k="fixme" v="verify maritime location" />
		<tag k="mooring" v="yes" />
		<tag k="name" v="Jørgenstøa" />
		<tag k="place" v="locality" />
		<tag k="ssr:stedsnr" v="50802" />
	</node>
	<node id="-92105" lat="69.9697722223" lon="19.4177249984">
		<tag k="junction" v="yes" />
		<tag k="name" v="Dåfjordkrysset" />
		<tag k="place" v="locality" />
		<tag k="ssr:stedsnr" v="111161" />
	</node>
	<node id="-93895" lat="69.8480777738" lon="19.5192361018">
		<tag k="highway" v="path" />
		<tag k="name" v="Sløkfjellveien" />
		<tag k="ssr:stedsnr" v="838066" />
	</node>
	<node id="-93637" lat="69.8470194414" lon="19.5095055491">
		<tag k="highway" v="path" />
		<tag k="name" v="Flatveien" />
		<tag k="ssr:stedsnr" v="777067" />
	</node>
	<node id="-93302" lat="70.0023222217" lon="19.5812555458">
		<tag k="highway" v="path" />
		<tag k="name" v="Langsundveien" />
		<tag k="ssr:stedsnr" v="596025" />
	</node>
	<node id="-90430" lat="69.9822611128" lon="19.1191638926">
		<tag k="highway" v="path" />
		<tag k="name" v="Tennvasslivegen" />
		<tag k="ssr:stedsnr" v="293903" />
	</node>
	<node id="-93117" lat="70.0119638853" lon="19.5914805459">
		<tag k="highway" v="path" />
		<tag k="name" v="Krokveien" />
		<tag k="ssr:stedsnr" v="536063" />
	</node>
	<node id="-90424" lat="69.9216222178" lon="19.4730527741">
		<tag k="highway" v="path" />
		<tag k="name" v="Tverrveien" />
		<tag k="ssr:stedsnr" v="293832" />
	</node>
	<node id="-90039" lat="70.0077194435" lon="19.5913222106">
		<tag k="highway" v="path" />
		<tag k="name" v="Nordgårdsveien" />
		<tag k="ssr:stedsnr" v="232019" />
	</node>
	<node id="-90672" lat="69.8910944456" lon="19.6960972237">
		<tag k="ford" v="yes" />
		<tag k="name" v="Vaet" />
		<tag k="place" v="locality" />
		<tag k="ssr:stedsnr" v="475019" />
	</node>
	<node id="-90537" lat="70.0768888889" lon="18.9828833235">
		<tag k="amenity" v="ferry_terminal" />
		<tag k="name" v="Bromnes" />
		<tag k="ssr:stedsnr" v="444746" />
	</node>
	<node id="-94107" lat="69.8502277747" lon="19.5294944433">
		<tag k="highway" v="path" />
		<tag k="name" v="Rødsandvegen" />
		<tag k="ssr:stedsnr" v="959064" />
	</node>
	<node id="-91160" lat="70.2390805528" lon="19.5015749949">
		<tag k="man_made" v="quay" />
		<tag k="name" v="Skarvbarden" />
		<tag k="place" v="locality" />
		<tag k="ssr:stedsnr" v="701336" />
	</node>
	<node id="-90641" lat="69.8404888904" lon="19.4521805516">
		<tag k="highway" v="path" />
		<tag k="name" v="Fevegen" />
		<tag k="ssr:stedsnr" v="473007" />
	</node>
	<node id="-94095" lat="70.2117361099" lon="18.7265777671">
		<tag k="name" v="Flatskjærleia" />
		<tag k="place" v="locality" />
		<tag k="ssr:stedsnr" v="956513" />
	</node>
	<node id="-94092" lat="69.925927777" lon="19.4697361099">
		<tag k="highway" v="path" />
		<tag k="name" v="Stakksteinveien" />
		<tag k="ssr:stedsnr" v="960167" />
	</node>
	<node id="-91654" lat="69.8497944441" lon="19.5143555517">
		<tag k="highway" v="path" />
		<tag k="name" v="Dallivegen" />
		<tag k="ssr:stedsnr" v="899069" />
	</node>
	<node id="-93061" lat="69.970258333" lon="19.1700750056">
		<tag k="highway" v="path" />
		<tag k="name" v="Storhaugglipa" />
		<tag k="ssr:stedsnr" v="415999" />
	</node>
	<node id="-93313" lat="69.926322223" lon="19.4439083253">
		<tag k="highway" v="path" />
		<tag k="name" v="Avskjellveien" />
		<tag k="ssr:stedsnr" v="596173" />
	</node>
</osm>
