<?xml version="1.0" encoding="UTF-8"?>
<osm version="0.6" generator="osmapis">
	<node lat="69.86396666343137" lon="19.477216664155396" id="-38148">
		<tag k="name" v="Storvassdalen" />
		<tag k="natural" v="valley" />
		<tag k="place" v="locality" />
		<tag k="ssr:stedsnr" v="231017" />
	</node>
	<node lat="69.84583610876314" lon="19.49499444519699" id="-38150">
		<tag k="name" v="Svarthammaren" />
		<tag k="natural" v="hill" />
		<tag k="place" v="locality" />
		<tag k="ssr:stedsnr" v="231064" />
	</node>
	<node lat="69.8957527768356" lon="19.679486090156587" id="-38151">
		<tag k="name" v="Finnperhaugen" />
		<tag k="natural" v="hill" />
		<tag k="place" v="locality" />
		<tag k="ssr:stedsnr" v="231980" />
	</node>
	<node lat="69.90600833034779" lon="19.76197221983252" id="-38152">
		<tag k="name" v="Kringlia" />
		<tag k="natural" v="slope" />
		<tag k="place" v="locality" />
		<tag k="ssr:stedsnr" v="232037" />
	</node>
	<node lat="69.8657777791316" lon="19.6555416627242" id="-38154">
		<tag k="name" v="Tepphaugan" />
		<tag k="natural" v="hill" />
		<tag k="place" v="locality" />
		<tag k="ssr:stedsnr" v="231984" />
	</node>
	<node lat="70.10661111411629" lon="20.05097777868925" id="-38158">
		<tag k="name" v="Skippervikdalen" />
		<tag k="natural" v="valley" />
		<tag k="place" v="locality" />
		<tag k="ssr:stedsnr" v="232045" />
	</node>
	<node lat="70.10750277465752" lon="20.082224978213688" id="-38159">
		<tag k="name" v="Rødbergan" />
		<tag k="natural" v="hill" />
		<tag k="place" v="locality" />
		<tag k="ssr:stedsnr" v="232046" />
	</node>
	<node lat="69.98019166742077" lon="19.653572205794713" id="-38160">
		<tag k="name" v="Stempelhaugen" />
		<tag k="natural" v="hill" />
		<tag k="place" v="locality" />
		<tag k="ssr:stedsnr" v="232048" />
	</node>
	<node lat="70.1613472201501" lon="20.000411098185772" id="-38162">
		<tag k="alt_name" v="Ytrehompen" />
		<tag k="name" v="Ytrehumpen" />
		<tag k="natural" v="hill" />
		<tag k="place" v="locality" />
		<tag k="ssr:stedsnr" v="232070" />
	</node>
	<node lat="70.18753611025957" lon="19.235247215481202" id="-38164">
		<tag k="name" v="Innerskaret" />
		<tag k="natural" v="valley" />
		<tag k="place" v="locality" />
		<tag k="ssr:stedsnr" v="232217" />
	</node>
	<node lat="69.972541669273" lon="19.409427778287004" id="-38166">
		<tag k="name" v="Grønnjota" />
		<tag k="natural" v="slope" />
		<tag k="place" v="locality" />
		<tag k="ssr:stedsnr" v="232161" />
	</node>
	<node lat="70.17816388998524" lon="19.243819450932776" id="-38170">
		<tag k="name" v="Ytterdalen" />
		<tag k="natural" v="valley" />
		<tag k="place" v="locality" />
		<tag k="ssr:stedsnr" v="232239" />
	</node>
	<node lat="70.16321666602585" lon="19.221580546923498" id="-38171">
		<tag k="name" v="Svartberget" />
		<tag k="natural" v="hill" />
		<tag k="place" v="locality" />
		<tag k="ssr:stedsnr" v="232240" />
	</node>
	<node lat="70.05542499995028" lon="19.81824165340102" id="-38172">
		<tag k="name" v="Kråkhaugen" />
		<tag k="natural" v="hill" />
		<tag k="place" v="locality" />
		<tag k="ssr:stedsnr" v="232246" />
	</node>
	<node lat="70.05798055563417" lon="19.819591653374427" id="-38173">
		<tag k="name" v="Øvre Kråkhaugen" />
		<tag k="natural" v="hill" />
		<tag k="place" v="locality" />
		<tag k="ssr:stedsnr" v="232247" />
	</node>
	<node lat="70.11883611144302" lon="19.711191648894054" id="-38174">
		<tag k="name" v="Stigen" />
		<tag k="natural" v="slope" />
		<tag k="place" v="locality" />
		<tag k="ssr:stedsnr" v="232265" />
	</node>
	<node lat="69.97255277694919" lon="19.845536092912347" id="-38176">
		<tag k="name" v="Mannen" />
		<tag k="natural" v="hill" />
		<tag k="place" v="locality" />
		<tag k="ssr:stedsnr" v="232354" />
	</node>
	<node lat="70.06307777887112" lon="19.046397226592035" id="-38179">
		<tag k="name" v="Båthaugen" />
		<tag k="natural" v="hill" />
		<tag k="place" v="locality" />
		<tag k="ssr:stedsnr" v="232751" />
	</node>
	<node lat="70.0536777778025" lon="19.233338877720715" id="-38183">
		<tag k="name" v="Knausan" />
		<tag k="natural" v="hill" />
		<tag k="place" v="locality" />
		<tag k="ssr:stedsnr" v="232868" />
	</node>
	<node lat="69.97116111552903" lon="19.36007498613869" id="-38189">
		<tag k="fixme" v="consider natural=peak for the most distinct mountains in the district" />
		<tag k="name" v="Uhcaváráš" />
		<tag k="name:se" v="Uhcaváráš" />
		<tag k="natural" v="hill" />
		<tag k="place" v="locality" />
		<tag k="ssr:stedsnr" v="233038" />
	</node>
	<node lat="70.10066111327212" lon="20.094927774426168" id="-38190">
		<tag k="fixme" v="consider natural=peak for the most distinct mountains in the district" />
		<tag k="name" v="Risdalsheia" />
		<tag k="natural" v="hill" />
		<tag k="place" v="locality" />
		<tag k="ssr:stedsnr" v="233052" />
	</node>
	<node lat="70.07435000384474" lon="19.152019445786404" id="-38191">
		<tag k="name" v="Kuholla" />
		<tag k="natural" v="valley" />
		<tag k="place" v="locality" />
		<tag k="ssr:stedsnr" v="233195" />
	</node>
	<node lat="70.019008332785" lon="19.103466654653296" id="-38194">
		<tag k="name" v="Lakshaugen" />
		<tag k="natural" v="hill" />
		<tag k="place" v="locality" />
		<tag k="ssr:stedsnr" v="233216" />
	</node>
	<node lat="69.92103611153236" lon="19.601952776111947" id="-38195">
		<tag k="name" v="Skuta" />
		<tag k="natural" v="slope" />
		<tag k="place" v="locality" />
		<tag k="ssr:stedsnr" v="233217" />
	</node>
	<node lat="70.03490555574034" lon="18.993594451656367" id="-38198">
		<tag k="name" v="Tisnesaksla" />
		<tag k="place" v="locality" />
		<tag k="ssr:stedsnr" v="233245" />
	</node>
	<node lat="70.0056249982592" lon="18.964555556696446" id="-38199">
		<tag k="name" v="Stakkemarka" />
		<tag k="natural" v="hill" />
		<tag k="place" v="locality" />
		<tag k="ssr:stedsnr" v="233251" />
	</node>
	<node lat="69.96561110932342" lon="19.61558609063853" id="-38200">
		<tag k="name" v="Nordlihaugen" />
		<tag k="natural" v="hill" />
		<tag k="place" v="locality" />
		<tag k="ssr:stedsnr" v="233263" />
	</node>
	<node lat="69.9798638869909" lon="19.538330536375287" id="-38202">
		<tag k="name" v="Grønbakken" />
		<tag k="natural" v="slope" />
		<tag k="place" v="locality" />
		<tag k="ssr:stedsnr" v="233227" />
	</node>
	<node lat="69.99923333449772" lon="19.90639165134256" id="-38204">
		<tag k="name" v="Gangvollen" />
		<tag k="place" v="locality" />
		<tag k="ssr:stedsnr" v="233452" />
	</node>
	<node lat="70.07159722393745" lon="19.91654721640387" id="-38205">
		<tag k="alt_name" v="Sørbotnen" />
		<tag k="name" v="Sørbotn" />
		<tag k="natural" v="valley" />
		<tag k="place" v="locality" />
		<tag k="ssr:stedsnr" v="19050" />
	</node>
	<node lat="70.0169583301397" lon="19.85692498253746" id="-38207">
		<tag k="name" v="Arvikhaugen" />
		<tag k="natural" v="hill" />
		<tag k="place" v="locality" />
		<tag k="ssr:stedsnr" v="233346" />
	</node>
	<node lat="69.91381388988422" lon="19.721874977652764" id="-38218">
		<tag k="fixme" v="consider natural=peak for the most distinct mountains in the district" />
		<tag k="name" v="Rundfjellet" />
		<tag k="natural" v="hill" />
		<tag k="place" v="locality" />
		<tag k="ssr:stedsnr" v="19508" />
	</node>
	<node lat="70.1861805589415" lon="19.657022217943506" id="-38225">
		<tag k="name" v="Kuhollet" />
		<tag k="natural" v="valley" />
		<tag k="place" v="locality" />
		<tag k="ssr:stedsnr" v="233389" />
	</node>
	<node lat="70.04818055780441" lon="19.193063878357073" id="-38229">
		<tag k="name" v="Veggefjorddalen" />
		<tag k="natural" v="valley" />
		<tag k="place" v="locality" />
		<tag k="ssr:stedsnr" v="19697" />
	</node>
	<node lat="70.2339055576529" lon="19.748941661054435" id="-38230">
		<tag k="fixme" v="consider natural=peak for the most distinct mountains in the district" />
		<tag k="name" v="Varden" />
		<tag k="natural" v="hill" />
		<tag k="place" v="locality" />
		<tag k="ssr:stedsnr" v="19841" />
	</node>
	<node lat="70.1631527827234" lon="19.86244720575162" id="-38241">
		<tag k="fixme" v="consider natural=peak for the most distinct mountains in the district" />
		<tag k="name" v="Laukvikfjellet" />
		<tag k="natural" v="hill" />
		<tag k="place" v="locality" />
		<tag k="ssr:stedsnr" v="19905" />
	</node>
	<node lat="70.200600003907" lon="19.62113333198118" id="-38244">
		<tag k="name" v="Storhaugen" />
		<tag k="natural" v="hill" />
		<tag k="place" v="locality" />
		<tag k="ssr:stedsnr" v="233393" />
	</node>
	<node lat="70.02514166853693" lon="19.224188875894026" id="-38246">
		<tag k="name" v="Steinnesdalen" />
		<tag k="natural" v="valley" />
		<tag k="place" v="locality" />
		<tag k="ssr:stedsnr" v="19994" />
	</node>
	<node lat="70.05232499631119" lon="19.91631666487717" id="-38250">
		<tag k="name" v="Sandbakken" />
		<tag k="natural" v="slope" />
		<tag k="place" v="locality" />
		<tag k="ssr:stedsnr" v="233465" />
	</node>
	<node lat="69.90488888942679" lon="19.142358322575785" id="-38251">
		<tag k="fixme" v="consider natural=peak for the most distinct mountains in the district" />
		<tag k="name" v="Lågryggen" />
		<tag k="natural" v="hill" />
		<tag k="place" v="locality" />
		<tag k="ssr:stedsnr" v="233648" />
	</node>
	<node lat="70.12948889331557" lon="18.960802761633424" id="-38252">
		<tag k="name" v="Stigan" />
		<tag k="natural" v="hill" />
		<tag k="place" v="locality" />
		<tag k="ssr:stedsnr" v="233664" />
	</node>
	<node lat="70.21187778130911" lon="19.61460833438074" id="-38253">
		<tag k="name" v="Senneberget" />
		<tag k="natural" v="hill" />
		<tag k="place" v="locality" />
		<tag k="ssr:stedsnr" v="233701" />
	</node>
	<node lat="69.95697222660661" lon="19.225741663748696" id="-38254">
		<tag k="name" v="Storhaugen" />
		<tag k="natural" v="hill" />
		<tag k="place" v="locality" />
		<tag k="ssr:stedsnr" v="233790" />
	</node>
	<node lat="70.2160055602142" lon="19.54884999298512" id="-38255">
		<tag k="name" v="Innerdalen" />
		<tag k="natural" v="valley" />
		<tag k="place" v="locality" />
		<tag k="ssr:stedsnr" v="233796" />
	</node>
	<node lat="70.2676138849842" lon="20.20014720996732" id="-38264">
		<tag k="loc_name:se" v="Oassanjunni" />
		<tag k="name" v="Ølkona" />
		<tag k="name:no" v="Ølkona" />
		<tag k="natural" v="hill" />
		<tag k="place" v="locality" />
		<tag k="ssr:stedsnr" v="30286" />
	</node>
	<node lat="69.89141388839977" lon="19.704027761705163" id="-38275">
		<tag k="name" v="Åkkelmyrhaugen" />
		<tag k="natural" v="hill" />
		<tag k="place" v="locality" />
		<tag k="ssr:stedsnr" v="49982" />
	</node>
	<node lat="69.972050001614" lon="19.870369433261168" id="-38281">
		<tag k="name" v="Svarthammaren" />
		<tag k="natural" v="hill" />
		<tag k="place" v="locality" />
		<tag k="ssr:stedsnr" v="50370" />
	</node>
	<node lat="69.98231944593519" lon="19.859422223934317" id="-38282">
		<tag k="name" v="Tyttebærhaugen" />
		<tag k="natural" v="hill" />
		<tag k="place" v="locality" />
		<tag k="ssr:stedsnr" v="50371" />
	</node>
	<node lat="69.9038361151059" lon="19.503408333741383" id="-38283">
		<tag k="name" v="Skoglia" />
		<tag k="natural" v="slope" />
		<tag k="place" v="locality" />
		<tag k="ssr:stedsnr" v="50770" />
	</node>
	<node lat="70.11623611084133" lon="19.576258330641707" id="-38287">
		<tag k="name" v="Mjønestoga" />
		<tag k="natural" v="hill" />
		<tag k="place" v="locality" />
		<tag k="ssr:stedsnr" v="50820" />
	</node>
	<node lat="70.07253333345159" lon="19.095241672987356" id="-38288">
		<tag k="name" v="Benkebakken" />
		<tag k="natural" v="slope" />
		<tag k="place" v="locality" />
		<tag k="ssr:stedsnr" v="51182" />
	</node>
	<node lat="69.92665833731098" lon="19.7257388921728" id="-38289">
		<tag k="name" v="Kjeftfloget" />
		<tag k="natural" v="hill" />
		<tag k="place" v="locality" />
		<tag k="ssr:stedsnr" v="51071" />
	</node>
	<node lat="69.91366944175057" lon="19.602913865852422" id="-38292">
		<tag k="name" v="Reinskardalen" />
		<tag k="natural" v="valley" />
		<tag k="place" v="locality" />
		<tag k="ssr:stedsnr" v="51209" />
	</node>
	<node lat="70.12044999943888" lon="19.377922214972468" id="-38294">
		<tag k="name" v="Vetten" />
		<tag k="natural" v="slope" />
		<tag k="place" v="locality" />
		<tag k="ssr:stedsnr" v="51223" />
	</node>
	<node lat="69.96045555117843" lon="19.57951944355138" id="-38296">
		<tag k="name" v="Loftbakken" />
		<tag k="natural" v="slope" />
		<tag k="place" v="locality" />
		<tag k="ssr:stedsnr" v="51272" />
	</node>
	<node lat="70.00265277940144" lon="19.77830553694264" id="-38301">
		<tag k="name" v="Fauskeneshaugen" />
		<tag k="natural" v="hill" />
		<tag k="place" v="locality" />
		<tag k="ssr:stedsnr" v="51369" />
	</node>
	<node lat="70.00144166884152" lon="19.76155276152302" id="-38302">
		<tag k="name" v="Støenbergan" />
		<tag k="natural" v="hill" />
		<tag k="place" v="locality" />
		<tag k="ssr:stedsnr" v="51370" />
	</node>
	<node lat="70.25673611045804" lon="19.77323331610655" id="-38305">
		<tag k="name" v="Ørnflogan" />
		<tag k="natural" v="hill" />
		<tag k="place" v="locality" />
		<tag k="ssr:stedsnr" v="51522" />
	</node>
	<node lat="70.00183610950594" lon="19.07724444659442" id="-38308">
		<tag k="name" v="Jensbakken" />
		<tag k="natural" v="slope" />
		<tag k="place" v="locality" />
		<tag k="ssr:stedsnr" v="51885" />
	</node>
	<node lat="70.1672833318303" lon="19.66062777361219" id="-38309">
		<tag k="name" v="Marenhellaren" />
		<tag k="natural" v="hill" />
		<tag k="place" v="locality" />
		<tag k="ssr:stedsnr" v="51776" />
	</node>
	<node lat="69.97808611086464" lon="19.17486109194013" id="-38311">
		<tag k="name" v="Jamnhollan" />
		<tag k="natural" v="valley" />
		<tag k="place" v="locality" />
		<tag k="ssr:stedsnr" v="51975" />
	</node>
	<node lat="69.97994444568947" lon="19.17074444971038" id="-38312">
		<tag k="name" v="Finngambakkene" />
		<tag k="natural" v="slope" />
		<tag k="place" v="locality" />
		<tag k="ssr:stedsnr" v="51976" />
	</node>
	<node lat="69.98115000278275" lon="19.164774994977392" id="-38313">
		<tag k="name" v="Revhaugen" />
		<tag k="natural" v="hill" />
		<tag k="place" v="locality" />
		<tag k="ssr:stedsnr" v="51978" />
	</node>
	<node lat="70.21189166303529" lon="19.14234443627365" id="-38315">
		<tag k="name" v="Ressmålskaret" />
		<tag k="natural" v="valley" />
		<tag k="place" v="locality" />
		<tag k="ssr:stedsnr" v="60719" />
	</node>
	<node lat="70.07917499995702" lon="18.87439166072033" id="-38326">
		<tag k="alt_name" v="Godstrandtind" />
		<tag k="fixme" v="consider natural=peak for the most distinct mountains in the district" />
		<tag k="name" v="Godstrandtinden" />
		<tag k="natural" v="hill" />
		<tag k="place" v="locality" />
		<tag k="ssr:stedsnr" v="80502" />
	</node>
	<node lat="69.90275000171688" lon="19.40591111529943" id="-38328">
		<tag k="alt_name" v="Gammneshumpan2" />
		<tag k="name" v="Gammneshumpan" />
		<tag k="natural" v="hill" />
		<tag k="place" v="locality" />
		<tag k="ssr:stedsnr" v="80499" />
	</node>
	<node lat="70.0836527793793" lon="18.918952771675574" id="-38329">
		<tag k="fixme" v="consider natural=peak for the most distinct mountains in the district" />
		<tag k="name" v="Toftefjordaksla" />
		<tag k="natural" v="hill" />
		<tag k="place" v="locality" />
		<tag k="ssr:stedsnr" v="80500" />
	</node>
	<node lat="69.97083888958528" lon="19.856280553394107" id="-38331">
		<tag k="fixme" v="consider natural=peak for the most distinct mountains in the district" />
		<tag k="name" v="Migarkollen" />
		<tag k="natural" v="hill" />
		<tag k="place" v="locality" />
		<tag k="ssr:stedsnr" v="80646" />
	</node>
	<node lat="69.94427222467591" lon="19.65272221455992" id="-38332">
		<tag k="name" v="Finnbyhaugen" />
		<tag k="natural" v="hill" />
		<tag k="place" v="locality" />
		<tag k="ssr:stedsnr" v="80590" />
	</node>
	<node lat="70.06646944883151" lon="19.254286095481994" id="-38336">
		<tag k="fixme" v="consider natural=peak for the most distinct mountains in the district" />
		<tag k="name" v="Karanesaksla" />
		<tag k="natural" v="hill" />
		<tag k="place" v="locality" />
		<tag k="ssr:stedsnr" v="80787" />
	</node>
	<node lat="70.15511944095172" lon="20.175852774747582" id="-38346">
		<tag k="name" v="Loshaugen" />
		<tag k="natural" v="hill" />
		<tag k="place" v="locality" />
		<tag k="ssr:stedsnr" v="90400" />
	</node>
	<node lat="69.84532777497216" lon="19.44326666021008" id="-38350">
		<tag k="fixme" v="consider natural=peak for the most distinct mountains in the district" />
		<tag k="name" v="Aksla" />
		<tag k="natural" v="hill" />
		<tag k="place" v="locality" />
		<tag k="ssr:stedsnr" v="110007" />
	</node>
	<node lat="69.85200555820859" lon="19.46140275979626" id="-38351">
		<tag k="name" v="Storvassbakken" />
		<tag k="natural" v="slope" />
		<tag k="place" v="locality" />
		<tag k="ssr:stedsnr" v="110013" />
	</node>
	<node lat="69.9702361108544" lon="19.575374991751282" id="-38357">
		<tag k="name" v="Steinbakken" />
		<tag k="natural" v="slope" />
		<tag k="place" v="locality" />
		<tag k="ssr:stedsnr" v="111004" />
	</node>
	<node lat="69.97179166458099" lon="19.610019442030897" id="-38358">
		<tag k="name" v="Dotten" />
		<tag k="natural" v="slope" />
		<tag k="place" v="locality" />
		<tag k="ssr:stedsnr" v="111006" />
	</node>
	<node lat="70.09344999865566" lon="20.08092498141578" id="-38360">
		<tag k="name" v="Kvitnesbakken" />
		<tag k="natural" v="slope" />
		<tag k="place" v="locality" />
		<tag k="ssr:stedsnr" v="111074" />
	</node>
	<node lat="69.99723889148852" lon="19.455547223551452" id="-38363">
		<tag k="fixme" v="consider natural=peak for the most distinct mountains in the district" />
		<tag k="name" v="Hårskolten" />
		<tag k="natural" v="hill" />
		<tag k="place" v="locality" />
		<tag k="ssr:stedsnr" v="111169" />
	</node>
	<node lat="69.94215555979258" lon="19.682699995893973" id="-38368">
		<tag k="name" v="Skaret" />
		<tag k="natural" v="valley" />
		<tag k="place" v="locality" />
		<tag k="ssr:stedsnr" v="111221" />
	</node>
	<node lat="70.21369999653434" lon="19.72258054288895" id="-38371">
		<tag k="fixme" v="consider natural=peak for the most distinct mountains in the district" />
		<tag k="name" v="Brattfjell" />
		<tag k="natural" v="hill" />
		<tag k="place" v="locality" />
		<tag k="ssr:stedsnr" v="111424" />
	</node>
	<node lat="69.974788886059" lon="19.136197222848057" id="-38376">
		<tag k="name" v="Høghaugen" />
		<tag k="natural" v="hill" />
		<tag k="place" v="locality" />
		<tag k="ssr:stedsnr" v="111982" />
	</node>
	<node lat="69.93927777848738" lon="19.79647775857568" id="-38380">
		<tag k="name" v="Blåurfloget" />
		<tag k="natural" v="hill" />
		<tag k="place" v="locality" />
		<tag k="ssr:stedsnr" v="112091" />
	</node>
	<node lat="70.01669444139851" lon="19.40962775816669" id="-38381">
		<tag k="name" v="Hesjemarka" />
		<tag k="place" v="locality" />
		<tag k="ssr:stedsnr" v="112219" />
	</node>
	<node lat="70.10813611375725" lon="19.008458335537618" id="-38388">
		<tag k="fixme" v="consider natural=peak for the most distinct mountains in the district" />
		<tag k="name" v="Nordaksla" />
		<tag k="natural" v="hill" />
		<tag k="place" v="locality" />
		<tag k="ssr:stedsnr" v="112620" />
	</node>
	<node lat="70.12152499681343" lon="18.99201110882768" id="-38389">
		<tag k="name" v="Rødberget" />
		<tag k="natural" v="hill" />
		<tag k="place" v="locality" />
		<tag k="ssr:stedsnr" v="112627" />
	</node>
	<node lat="70.17731110880676" lon="19.649961112668613" id="-38391">
		<tag k="name" v="Mollhaugen" />
		<tag k="natural" v="hill" />
		<tag k="place" v="locality" />
		<tag k="ssr:stedsnr" v="112777" />
	</node>
	<node lat="70.21034722628276" lon="19.14423611498603" id="-38394">
		<tag k="name" v="Ressmålkollen" />
		<tag k="natural" v="hill" />
		<tag k="place" v="locality" />
		<tag k="ssr:stedsnr" v="121408" />
	</node>
	<node lat="69.83815000105457" lon="19.360716658109528" id="-38405">
		<tag k="alt_name" v="Glimhaugen, l" />
		<tag k="name" v="Lille Glimhaugen" />
		<tag k="natural" v="hill" />
		<tag k="place" v="locality" />
		<tag k="ssr:stedsnr" v="140695" />
	</node>
	<node lat="69.98139166530567" lon="19.38401388051908" id="-38409">
		<tag k="name" v="Høgda" />
		<tag k="natural" v="hill" />
		<tag k="place" v="locality" />
		<tag k="ssr:stedsnr" v="140593" />
	</node>
	<node lat="70.07410277534255" lon="18.956533320782846" id="-38414">
		<tag k="alt_name" v="Torolfhaugen" />
		<tag k="name" v="Toralfhaugen" />
		<tag k="natural" v="hill" />
		<tag k="place" v="locality" />
		<tag k="ssr:stedsnr" v="140743" />
	</node>
	<node lat="70.12612222508929" lon="19.486319449733895" id="-38416">
		<tag k="alt_name" v="Raudnesskolten" />
		<tag k="fixme" v="consider natural=peak for the most distinct mountains in the district" />
		<tag k="name" v="Rødnesskolten" />
		<tag k="natural" v="hill" />
		<tag k="place" v="locality" />
		<tag k="ssr:stedsnr" v="140794" />
	</node>
	<node lat="70.1217916685125" lon="19.719363877686863" id="-38417">
		<tag k="name" v="Kollvikhaugen" />
		<tag k="natural" v="hill" />
		<tag k="place" v="locality" />
		<tag k="ssr:stedsnr" v="140798" />
	</node>
	<node lat="70.03161388958162" lon="19.43722777883596" id="-38421">
		<tag k="name" v="Håkabytinden" />
		<tag k="natural" v="hill" />
		<tag k="place" v="locality" />
		<tag k="ssr:stedsnr" v="140994" />
	</node>
	<node lat="70.15968611293894" lon="20.056463866106093" id="-38425">
		<tag k="name" v="Ramnberget" />
		<tag k="natural" v="hill" />
		<tag k="place" v="locality" />
		<tag k="ssr:stedsnr" v="146870" />
	</node>
	<node lat="70.24694721947708" lon="20.273538872648235" id="-38435">
		<tag k="name" v="Skipet" />
		<tag k="natural" v="hill" />
		<tag k="place" v="locality" />
		<tag k="ssr:stedsnr" v="169015" />
	</node>
	<node lat="69.84970278103214" lon="19.526952761062915" id="-38438">
		<tag k="name" v="Forsebakken" />
		<tag k="natural" v="slope" />
		<tag k="place" v="locality" />
		<tag k="ssr:stedsnr" v="170055" />
	</node>
	<node lat="69.97031943996434" lon="19.60300000139828" id="-38441">
		<tag k="name" v="Hestebakken" />
		<tag k="natural" v="slope" />
		<tag k="place" v="locality" />
		<tag k="ssr:stedsnr" v="171006" />
	</node>
	<node lat="70.10023611090539" lon="20.054561091103956" id="-38445">
		<tag k="alt_name" v="Middagshompen" />
		<tag k="name" v="Middagshumpen" />
		<tag k="natural" v="hill" />
		<tag k="place" v="locality" />
		<tag k="ssr:stedsnr" v="171057" />
	</node>
	<node lat="70.15655555943576" lon="20.031027770954193" id="-38447">
		<tag k="name" v="Ressmålskaret" />
		<tag k="natural" v="valley" />
		<tag k="place" v="locality" />
		<tag k="ssr:stedsnr" v="171073" />
	</node>
	<node lat="69.85871110896602" lon="19.668694437138754" id="-38448">
		<tag k="name" v="Røstet" />
		<tag k="natural" v="slope" />
		<tag k="place" v="locality" />
		<tag k="ssr:stedsnr" v="170969" />
	</node>
	<node lat="70.14148055369559" lon="19.20178609940857" id="-38450">
		<tag k="fixme" v="consider natural=peak for the most distinct mountains in the district" />
		<tag k="name" v="Stortua" />
		<tag k="natural" v="hill" />
		<tag k="place" v="locality" />
		<tag k="ssr:stedsnr" v="171210" />
	</node>
	<node lat="70.15744999861417" lon="20.1657555388448" id="-38452">
		<tag k="name" v="Elia" />
		<tag k="natural" v="slope" />
		<tag k="place" v="locality" />
		<tag k="ssr:stedsnr" v="171661" />
	</node>
	<node lat="70.17159166393179" lon="19.960022200089494" id="-38453">
		<tag k="name" v="Spira" />
		<tag k="natural" v="hill" />
		<tag k="place" v="locality" />
		<tag k="ssr:stedsnr" v="171662" />
	</node>
	<node lat="69.91158611614203" lon="19.511986098700447" id="-38455">
		<tag k="name" v="Berget" />
		<tag k="natural" v="hill" />
		<tag k="place" v="locality" />
		<tag k="ssr:stedsnr" v="171820" />
	</node>
	<node lat="69.9433788079062" lon="19.806161216211418" id="-38461">
		<tag k="name" v="Fjellia" />
		<tag k="natural" v="slope" />
		<tag k="place" v="locality" />
		<tag k="ssr:stedsnr" v="172057" />
	</node>
	<node lat="69.92744166969023" lon="19.76454444750235" id="-38462">
		<tag k="name" v="Løypemyrbakken" />
		<tag k="natural" v="slope" />
		<tag k="place" v="locality" />
		<tag k="ssr:stedsnr" v="172071" />
	</node>
	<node lat="70.13677500345085" lon="19.39276109830774" id="-38464">
		<tag k="name" v="Rekvikhalsen" />
		<tag k="natural" v="valley" />
		<tag k="place" v="locality" />
		<tag k="ssr:stedsnr" v="172203" />
	</node>
	<node lat="70.03694722531982" lon="19.425591654242965" id="-38467">
		<tag k="name" v="Håkabyskaret" />
		<tag k="natural" v="valley" />
		<tag k="place" v="locality" />
		<tag k="ssr:stedsnr" v="172216" />
	</node>
	<node lat="70.0321000016222" lon="19.526030560586207" id="-38468">
		<tag k="name" v="Småstøkkdalen" />
		<tag k="natural" v="valley" />
		<tag k="place" v="locality" />
		<tag k="ssr:stedsnr" v="172220" />
	</node>
	<node lat="69.88599166297843" lon="19.495738882558683" id="-38471">
		<tag k="alt_name" v="Middagshompen" />
		<tag k="fixme" v="consider natural=peak for the most distinct mountains in the district" />
		<tag k="name" v="Middagshumpen" />
		<tag k="natural" v="hill" />
		<tag k="place" v="locality" />
		<tag k="ssr:stedsnr" v="172125" />
	</node>
	<node lat="70.01556388574653" lon="19.078233316524994" id="-38474">
		<tag k="fixme" v="consider natural=peak for the most distinct mountains in the district" />
		<tag k="name" v="Ånestua" />
		<tag k="natural" v="hill" />
		<tag k="place" v="locality" />
		<tag k="ssr:stedsnr" v="172161" />
	</node>
	<node lat="70.02360833460028" lon="19.5305916516896" id="-38478">
		<tag k="name" v="Rishaugen" />
		<tag k="natural" v="hill" />
		<tag k="place" v="locality" />
		<tag k="ssr:stedsnr" v="172173" />
	</node>
	<node lat="70.06318333694774" lon="19.93086111201141" id="-38480">
		<tag k="name" v="Vannstudalen" />
		<tag k="natural" v="valley" />
		<tag k="place" v="locality" />
		<tag k="ssr:stedsnr" v="261066" />
	</node>
	<node lat="70.04998610828106" lon="19.88602221157656" id="-38483">
		<tag k="name" v="Nova" />
		<tag k="natural" v="slope" />
		<tag k="place" v="locality" />
		<tag k="ssr:stedsnr" v="172460" />
	</node>
	<node lat="70.20075833097555" lon="19.749097214257013" id="-38484">
		<tag k="name" v="Kuhammerflogan" />
		<tag k="natural" v="hill" />
		<tag k="place" v="locality" />
		<tag k="ssr:stedsnr" v="172463" />
	</node>
	<node lat="70.07903888994134" lon="19.971994431358635" id="-38489">
		<tag k="name" v="Vannhaugen" />
		<tag k="natural" v="hill" />
		<tag k="place" v="locality" />
		<tag k="ssr:stedsnr" v="261088" />
	</node>
	<node lat="69.99236388984244" lon="19.1570805533704" id="-38493">
		<tag k="name" v="Rødsteinelvdalen" />
		<tag k="natural" v="valley" />
		<tag k="place" v="locality" />
		<tag k="ssr:stedsnr" v="172906" />
	</node>
	<node lat="69.9838861115002" lon="19.100738874919692" id="-38495">
		<tag k="name" v="Dvesebakken" />
		<tag k="natural" v="slope" />
		<tag k="place" v="locality" />
		<tag k="ssr:stedsnr" v="172912" />
	</node>
	<node lat="69.97717777902761" lon="19.11017221090471" id="-38496">
		<tag k="fixme" v="consider natural=peak for the most distinct mountains in the district" />
		<tag k="name" v="Lassenakken" />
		<tag k="natural" v="hill" />
		<tag k="place" v="locality" />
		<tag k="ssr:stedsnr" v="172913" />
	</node>
	<node lat="70.02949444150984" lon="19.090702768793143" id="-38499">
		<tag k="name" v="Steinhaugen" />
		<tag k="natural" v="hill" />
		<tag k="place" v="locality" />
		<tag k="ssr:stedsnr" v="172969" />
	</node>
	<node lat="69.93927222086089" lon="19.736438890816046" id="-38504">
		<tag k="name" v="Storhaugen" />
		<tag k="natural" v="hill" />
		<tag k="place" v="locality" />
		<tag k="ssr:stedsnr" v="261545" />
	</node>
	<node lat="70.22291944210725" lon="20.226127769772575" id="-38507">
		<tag k="name" v="Tobakksskora" />
		<tag k="natural" v="valley" />
		<tag k="place" v="locality" />
		<tag k="ssr:stedsnr" v="261960" />
	</node>
	<node lat="69.99255555641271" lon="19.020433317340196" id="-38512">
		<tag k="fixme" v="consider natural=peak for the most distinct mountains in the district" />
		<tag k="name" v="Høgkollen" />
		<tag k="natural" v="hill" />
		<tag k="place" v="locality" />
		<tag k="ssr:stedsnr" v="262172" />
	</node>
	<node lat="69.91435833008977" lon="19.393108316736708" id="-38528">
		<tag k="fixme" v="consider natural=peak for the most distinct mountains in the district" />
		<tag k="name" v="Litletinden" />
		<tag k="natural" v="hill" />
		<tag k="place" v="locality" />
		<tag k="ssr:stedsnr" v="262533" />
	</node>
	<node lat="69.91257499906925" lon="19.34571387813873" id="-38529">
		<tag k="name" v="Stiene" />
		<tag k="natural" v="valley" />
		<tag k="place" v="locality" />
		<tag k="ssr:stedsnr" v="262535" />
	</node>
	<node lat="69.99633611259691" lon="19.78050833184375" id="-38531">
		<tag k="name" v="Kollen" />
		<tag k="natural" v="hill" />
		<tag k="place" v="locality" />
		<tag k="ssr:stedsnr" v="262604" />
	</node>
	<node lat="69.9248194441141" lon="19.549194422174548" id="-38533">
		<tag k="name" v="Olahaugen" />
		<tag k="natural" v="hill" />
		<tag k="place" v="locality" />
		<tag k="ssr:stedsnr" v="262565" />
	</node>
	<node lat="70.10411944654557" lon="18.734319427775294" id="-38536">
		<tag k="fixme" v="consider natural=peak for the most distinct mountains in the district" />
		<tag k="name" v="Nordarntuva" />
		<tag k="natural" v="hill" />
		<tag k="place" v="locality" />
		<tag k="ssr:stedsnr" v="262575" />
	</node>
	<node lat="69.9632861071125" lon="19.40291110104808" id="-38538">
		<tag k="fixme" v="consider natural=peak for the most distinct mountains in the district" />
		<tag k="name" v="Godsteinaksla" />
		<tag k="natural" v="hill" />
		<tag k="place" v="locality" />
		<tag k="ssr:stedsnr" v="262583" />
	</node>
	<node lat="70.13151388746638" lon="19.137602767203447" id="-38540">
		<tag k="alt_name" v="Sør-Alangen" />
		<tag k="fixme" v="multiple name tags, choose one and add the other to alt_name; consider natural=peak for the most distinct mountains in the district" />
		<tag k="name" v="Teisttinden;Søralangen" />
		<tag k="natural" v="hill" />
		<tag k="place" v="locality" />
		<tag k="ssr:stedsnr" v="262588" />
	</node>
	<node lat="70.00429999948234" lon="18.838244439459515" id="-38542">
		<tag k="fixme" v="consider natural=peak for the most distinct mountains in the district" />
		<tag k="name" v="Jøvikfjellet" />
		<tag k="natural" v="hill" />
		<tag k="place" v="locality" />
		<tag k="ssr:stedsnr" v="262657" />
	</node>
	<node lat="70.17687221941407" lon="19.219136091836734" id="-38546">
		<tag k="fixme" v="multiple name tags, choose one and add the other to alt_name; consider natural=peak for the most distinct mountains in the district" />
		<tag k="name" v="Finnsultinden;Tustern" />
		<tag k="natural" v="hill" />
		<tag k="place" v="locality" />
		<tag k="ssr:stedsnr" v="262609" />
	</node>
	<node lat="69.98003055291998" lon="19.324880559504557" id="-38547">
		<tag k="name" v="Rundvasshøgda" />
		<tag k="natural" v="hill" />
		<tag k="place" v="locality" />
		<tag k="ssr:stedsnr" v="262619" />
	</node>
	<node lat="69.87614928959478" lon="19.563348669541547" id="-38550">
		<tag k="fixme" v="multiple name tags, choose one and add the other to alt_name; consider natural=peak for the most distinct mountains in the district" />
		<tag k="name" v="Keipen;Reinskartinden" />
		<tag k="natural" v="hill" />
		<tag k="place" v="locality" />
		<tag k="ssr:stedsnr" v="262760" />
	</node>
	<node lat="70.07353332923833" lon="19.774188882865264" id="-38553">
		<tag k="fixme" v="consider natural=peak for the most distinct mountains in the district" />
		<tag k="name" v="Bøtnestuva" />
		<tag k="natural" v="hill" />
		<tag k="place" v="locality" />
		<tag k="ssr:stedsnr" v="262812" />
	</node>
	<node lat="70.05917221868894" lon="18.82701111096262" id="-38555">
		<tag k="fixme" v="consider natural=peak for the most distinct mountains in the district" />
		<tag k="name" v="Bukkenesaksla" />
		<tag k="natural" v="hill" />
		<tag k="place" v="locality" />
		<tag k="ssr:stedsnr" v="262775" />
	</node>
	<node lat="70.040827780334" lon="19.221222221439078" id="-38568">
		<tag k="fixme" v="consider natural=peak for the most distinct mountains in the district" />
		<tag k="name" v="Kjølen" />
		<tag k="natural" v="hill" />
		<tag k="place" v="locality" />
		<tag k="ssr:stedsnr" v="262982" />
	</node>
	<node lat="70.24694166308451" lon="19.603469425714877" id="-38583">
		<tag k="fixme" v="consider natural=peak for the most distinct mountains in the district" />
		<tag k="name" v="Næringen" />
		<tag k="natural" v="hill" />
		<tag k="place" v="locality" />
		<tag k="ssr:stedsnr" v="201607" />
	</node>
	<node lat="70.10436111468691" lon="20.113822199756523" id="-38588">
		<tag k="name" v="Fakken" />
		<tag k="natural" v="hill" />
		<tag k="place" v="locality" />
		<tag k="ssr:stedsnr" v="201903" />
	</node>
	<node lat="70.04800833382346" lon="18.818419438042763" id="-38589">
		<tag k="name" v="Elvedalen" />
		<tag k="natural" v="valley" />
		<tag k="place" v="locality" />
		<tag k="ssr:stedsnr" v="201693" />
	</node>
	<node lat="70.20545278062298" lon="19.228422204899324" id="-38592">
		<tag k="fixme" v="consider natural=peak for the most distinct mountains in the district" />
		<tag k="name" v="Skarkjerringa" />
		<tag k="natural" v="hill" />
		<tag k="place" v="locality" />
		<tag k="ssr:stedsnr" v="201850" />
	</node>
	<node lat="70.0529472240574" lon="19.963802766773664" id="-38600">
		<tag k="name" v="Kleiva" />
		<tag k="place" v="locality" />
		<tag k="ssr:stedsnr" v="207112" />
	</node>
	<node lat="69.83621666963647" lon="19.42545554115932" id="-38614">
		<tag k="name" v="Storbakken" />
		<tag k="natural" v="slope" />
		<tag k="place" v="locality" />
		<tag k="ssr:stedsnr" v="230122" />
	</node>
	<node lat="70.16179444717686" lon="20.164919431756484" id="-38619">
		<tag k="name" v="Fjøsen" />
		<tag k="natural" v="hill" />
		<tag k="place" v="locality" />
		<tag k="ssr:stedsnr" v="230684" />
	</node>
	<node lat="70.15452500369746" lon="20.1653972187535" id="-38620">
		<tag k="name" v="Sylneshaugen" />
		<tag k="natural" v="hill" />
		<tag k="place" v="locality" />
		<tag k="ssr:stedsnr" v="230694" />
	</node>
	<node lat="69.94280555274702" lon="19.46437500196258" id="-38629">
		<tag k="name" v="Nova" />
		<tag k="natural" v="slope" />
		<tag k="place" v="locality" />
		<tag k="ssr:stedsnr" v="232181" />
	</node>
	<node lat="70.1638972184013" lon="19.40951109957266" id="-38630">
		<tag k="alt_name" v="Gunnarskallhompen" />
		<tag k="fixme" v="consider natural=peak for the most distinct mountains in the district" />
		<tag k="name" v="Gunnarskallhumpen" />
		<tag k="natural" v="hill" />
		<tag k="place" v="locality" />
		<tag k="ssr:stedsnr" v="232193" />
	</node>
	<node lat="70.16853055486776" lon="19.832383311937757" id="-38631">
		<tag k="name" v="Klubban" />
		<tag k="natural" v="hill" />
		<tag k="place" v="locality" />
		<tag k="ssr:stedsnr" v="232435" />
	</node>
	<node lat="70.1501499999674" lon="19.710483321878314" id="-38632">
		<tag k="fixme" v="consider natural=peak for the most distinct mountains in the district" />
		<tag k="name" v="Hollfjellet" />
		<tag k="natural" v="hill" />
		<tag k="place" v="locality" />
		<tag k="ssr:stedsnr" v="232436" />
	</node>
	<node lat="70.06069444099408" lon="19.04667499952786" id="-38638">
		<tag k="name" v="Olamuren" />
		<tag k="place" v="locality" />
		<tag k="ssr:stedsnr" v="232745" />
	</node>
	<node lat="69.89110277694338" lon="19.427230554728954" id="-38644">
		<tag k="name" v="Bergan" />
		<tag k="natural" v="hill" />
		<tag k="place" v="locality" />
		<tag k="ssr:stedsnr" v="232830" />
	</node>
	<node lat="70.15694444794441" lon="19.982855558850513" id="-38649">
		<tag k="name" v="Nakkestigen" />
		<tag k="natural" v="slope" />
		<tag k="place" v="locality" />
		<tag k="ssr:stedsnr" v="233078" />
	</node>
	<node lat="69.93041110906324" lon="19.7735888805165" id="-38650">
		<tag k="name" v="Kulberget" />
		<tag k="natural" v="hill" />
		<tag k="place" v="locality" />
		<tag k="ssr:stedsnr" v="233088" />
	</node>
	<node lat="69.975819443963" lon="19.531938876833898" id="-38651">
		<tag k="name" v="Tverrbakken" />
		<tag k="natural" v="slope" />
		<tag k="place" v="locality" />
		<tag k="ssr:stedsnr" v="233229" />
	</node>
	<node lat="70.02980833139871" lon="18.884891667759604" id="-38654">
		<tag k="name" v="Nordsletta" />
		<tag k="place" v="locality" />
		<tag k="ssr:stedsnr" v="233272" />
	</node>
	<node lat="70.06467777489024" lon="19.84812499732817" id="-38658">
		<tag k="name" v="Lilleskjærelvdalen" />
		<tag k="natural" v="valley" />
		<tag k="place" v="locality" />
		<tag k="ssr:stedsnr" v="233311" />
	</node>
	<node lat="69.95550555769509" lon="19.198355552885463" id="-38662">
		<tag k="name" v="Lomstjønnbakken" />
		<tag k="natural" v="slope" />
		<tag k="place" v="locality" />
		<tag k="ssr:stedsnr" v="233946" />
	</node>
	<node lat="69.99393055167228" lon="19.638041652355344" id="-38677">
		<tag k="name" v="Klubbevassheia" />
		<tag k="natural" v="hill" />
		<tag k="place" v="locality" />
		<tag k="ssr:stedsnr" v="261604" />
	</node>
	<node lat="70.18455555296164" lon="19.15199165046875" id="-38678">
		<tag k="name" v="Vassdalen" />
		<tag k="natural" v="valley" />
		<tag k="place" v="locality" />
		<tag k="ssr:stedsnr" v="261606" />
	</node>
	<node lat="69.9971750027261" lon="19.45896665377276" id="-38679">
		<tag k="name" v="Riskjeppa" />
		<tag k="natural" v="hill" />
		<tag k="place" v="locality" />
		<tag k="ssr:stedsnr" v="261597" />
	</node>
	<node lat="69.8917944401101" lon="19.587533326786836" id="-38692">
		<tag k="name" v="Reinskardalen" />
		<tag k="natural" v="valley" />
		<tag k="place" v="locality" />
		<tag k="ssr:stedsnr" v="262544" />
	</node>
	<node lat="70.15163611271122" lon="19.035866672252606" id="-38700">
		<tag k="fixme" v="consider natural=peak for the most distinct mountains in the district" />
		<tag k="name" v="Måsnesaksla" />
		<tag k="natural" v="hill" />
		<tag k="place" v="locality" />
		<tag k="ssr:stedsnr" v="262593" />
	</node>
	<node lat="70.02664722433717" lon="19.46556943502347" id="-38707">
		<tag k="alt_name" v="Gammvikdalen" />
		<tag k="name" v="Gamvikdalen" />
		<tag k="natural" v="valley" />
		<tag k="place" v="locality" />
		<tag k="ssr:stedsnr" v="262997" />
	</node>
	<node lat="70.23060277554394" lon="19.50998332306769" id="-38728">
		<tag k="name" v="Tampeidstua" />
		<tag k="natural" v="hill" />
		<tag k="place" v="locality" />
		<tag k="ssr:stedsnr" v="292832" />
	</node>
	<node lat="69.98549722156245" lon="19.596094425408104" id="-38732">
		<tag k="fixme" v="consider natural=peak for the most distinct mountains in the district" />
		<tag k="name" v="Storheitua" />
		<tag k="natural" v="hill" />
		<tag k="place" v="locality" />
		<tag k="ssr:stedsnr" v="293007" />
	</node>
	<node lat="70.16363333034323" lon="19.885899998777845" id="-38734">
		<tag k="name" v="Sandmelen" />
		<tag k="natural" v="slope" />
		<tag k="place" v="locality" />
		<tag k="ssr:stedsnr" v="293125" />
	</node>
	<node lat="70.16945000231509" lon="19.871136096560004" id="-38735">
		<tag k="fixme" v="consider natural=peak for the most distinct mountains in the district" />
		<tag k="name" v="Skredkirka" />
		<tag k="natural" v="hill" />
		<tag k="place" v="locality" />
		<tag k="ssr:stedsnr" v="293128" />
	</node>
	<node lat="69.9492055521163" lon="19.32867221135338" id="-38738">
		<tag k="name" v="Rundhaughalsen" />
		<tag k="natural" v="slope" />
		<tag k="place" v="locality" />
		<tag k="ssr:stedsnr" v="293192" />
	</node>
	<node lat="70.00353055843827" lon="19.402952783118007" id="-38739">
		<tag k="fixme" v="consider natural=peak for the most distinct mountains in the district" />
		<tag k="name" v="Aksla" />
		<tag k="natural" v="hill" />
		<tag k="place" v="locality" />
		<tag k="ssr:stedsnr" v="293194" />
	</node>
	<node lat="70.06038332899664" lon="19.767872219693494" id="-38740">
		<tag k="fixme" v="consider natural=peak for the most distinct mountains in the district" />
		<tag k="name" v="Nattmålstua" />
		<tag k="natural" v="hill" />
		<tag k="place" v="locality" />
		<tag k="ssr:stedsnr" v="293311" />
	</node>
	<node lat="70.11634444506545" lon="19.739147207661567" id="-38741">
		<tag k="name" v="Rundhaugen" />
		<tag k="natural" v="hill" />
		<tag k="place" v="locality" />
		<tag k="ssr:stedsnr" v="293327" />
	</node>
	<node lat="70.05791110770406" lon="19.840774993353556" id="-38742">
		<tag k="name" v="Skjellhaugen" />
		<tag k="natural" v="hill" />
		<tag k="place" v="locality" />
		<tag k="ssr:stedsnr" v="293328" />
	</node>
	<node lat="70.01786944743849" lon="19.073247226167194" id="-38743">
		<tag k="name" v="Skognesdalen" />
		<tag k="natural" v="valley" />
		<tag k="place" v="locality" />
		<tag k="ssr:stedsnr" v="293228" />
	</node>
	<node lat="69.92268610828388" lon="19.60325275879432" id="-38745">
		<tag k="name" v="Finnhuen" />
		<tag k="natural" v="slope" />
		<tag k="place" v="locality" />
		<tag k="ssr:stedsnr" v="293237" />
	</node>
	<node lat="69.91340000240316" lon="19.613213869806945" id="-38746">
		<tag k="name" v="Hauan" />
		<tag k="natural" v="hill" />
		<tag k="place" v="locality" />
		<tag k="ssr:stedsnr" v="293239" />
	</node>
	<node lat="69.96205000076199" lon="19.69603887715469" id="-38750">
		<tag k="name" v="Kvitbergan" />
		<tag k="natural" v="hill" />
		<tag k="place" v="locality" />
		<tag k="ssr:stedsnr" v="293293" />
	</node>
	<node lat="70.18395555997148" lon="19.660419436572827" id="-38751">
		<tag k="name" v="Geitdalen" />
		<tag k="natural" v="valley" />
		<tag k="place" v="locality" />
		<tag k="ssr:stedsnr" v="293403" />
	</node>
	<node lat="70.24491944161613" lon="19.579027761344037" id="-38752">
		<tag k="name" v="Haugnesaksla" />
		<tag k="place" v="locality" />
		<tag k="ssr:stedsnr" v="293409" />
	</node>
	<node lat="70.05791944067525" lon="19.977163877766415" id="-38754">
		<tag k="fixme" v="consider natural=peak for the most distinct mountains in the district" />
		<tag k="name" v="Andersfjellkollen" />
		<tag k="natural" v="hill" />
		<tag k="place" v="locality" />
		<tag k="ssr:stedsnr" v="293425" />
	</node>
	<node lat="69.90409444802438" lon="19.184327782364786" id="-38756">
		<tag k="fixme" v="consider natural=peak for the most distinct mountains in the district" />
		<tag k="name" v="Breifjellet" />
		<tag k="natural" v="hill" />
		<tag k="place" v="locality" />
		<tag k="ssr:stedsnr" v="293610" />
	</node>
	<node lat="69.92044721964257" lon="19.47397497947042" id="-38758">
		<tag k="name" v="Stakkebakkan" />
		<tag k="natural" v="slope" />
		<tag k="place" v="locality" />
		<tag k="ssr:stedsnr" v="293826" />
	</node>
	<node lat="69.91736944827228" lon="19.526766650277974" id="-38759">
		<tag k="name" v="Storgjota" />
		<tag k="natural" v="slope" />
		<tag k="place" v="locality" />
		<tag k="ssr:stedsnr" v="293829" />
	</node>
	<node lat="69.9216333366278" lon="19.424049995669005" id="-38760">
		<tag k="name" v="Syrgrasbergdalen" />
		<tag k="natural" v="valley" />
		<tag k="place" v="locality" />
		<tag k="ssr:stedsnr" v="293880" />
	</node>
	<node lat="70.20964444039893" lon="19.6052277751274" id="-38761">
		<tag k="name" v="Breivalen" />
		<tag k="place" v="locality" />
		<tag k="ssr:stedsnr" v="293775" />
	</node>
	<node lat="69.93465000265924" lon="19.316569434429713" id="-38763">
		<tag k="fixme" v="consider natural=peak for the most distinct mountains in the district" />
		<tag k="name" v="Solttennjunni" />
		<tag k="name:se" v="Solttennjunni" />
		<tag k="natural" v="hill" />
		<tag k="place" v="locality" />
		<tag k="ssr:stedsnr" v="302274" />
	</node>
	<node lat="70.2185887153821" lon="19.195707701656488" id="-38765">
		<tag k="name" v="Vikhalsen" />
		<tag k="natural" v="hill" />
		<tag k="place" v="locality" />
		<tag k="ssr:stedsnr" v="303596" />
	</node>
	<node lat="70.1431749999823" lon="19.16625555022047" id="-38777">
		<tag k="name" v="Svartdalen" />
		<tag k="natural" v="valley" />
		<tag k="place" v="locality" />
		<tag k="ssr:stedsnr" v="322583" />
	</node>
	<node lat="69.90438333501493" lon="19.16698054886673" id="-38785">
		<tag k="alt_name:no" v="Inste Botndalen" />
		<tag k="name" v="Instebotndalen - Suorrevággi" />
		<tag k="name:no" v="Instebotndalen" />
		<tag k="name:se" v="Suorrevággi" />
		<tag k="natural" v="valley" />
		<tag k="place" v="locality" />
		<tag k="ssr:stedsnr" v="322781" />
	</node>
	<node lat="69.95999167013119" lon="19.451891662621197" id="-38797">
		<tag k="fixme" v="multiple name tags, choose one and add the other to alt_name" />
		<tag k="name" v="Norddalen;Hessfjorddalen" />
		<tag k="natural" v="valley" />
		<tag k="place" v="locality" />
		<tag k="ssr:stedsnr" v="323577" />
	</node>
	<node lat="69.87454999980167" lon="19.616213876519186" id="-38800">
		<tag k="fixme" v="consider natural=peak for the most distinct mountains in the district" />
		<tag k="name" v="Steinfjellet" />
		<tag k="natural" v="hill" />
		<tag k="place" v="locality" />
		<tag k="ssr:stedsnr" v="323740" />
	</node>
	<node lat="69.91418888819814" lon="19.147355551322722" id="-38802">
		<tag k="alt_name:no" v="Ytste Vassvotndalen;Vassbotndalen" />
		<tag k="name" v="Vestbotndalen - Geinnotvággi" />
		<tag k="name:no" v="Vestbotndalen" />
		<tag k="name:se" v="Geinnotvággi" />
		<tag k="natural" v="valley" />
		<tag k="place" v="locality" />
		<tag k="ssr:stedsnr" v="323807" />
	</node>
	<node lat="69.95239444654614" lon="19.83770831804921" id="-38805">
		<tag k="alt_name" v="Høystadesletta" />
		<tag k="name" v="Høystadsletta" />
		<tag k="natural" v="slope" />
		<tag k="place" v="locality" />
		<tag k="ssr:stedsnr" v="327491" />
	</node>
	<node lat="70.1007388882268" lon="18.84637222659243" id="-38811">
		<tag k="name" v="Holmesletta" />
		<tag k="place" v="locality" />
		<tag k="ssr:stedsnr" v="470258" />
	</node>
	<node lat="70.27724444594804" lon="20.198361107089674" id="-38820">
		<tag k="name" v="Åsen" />
		<tag k="natural" v="hill" />
		<tag k="place" v="locality" />
		<tag k="ssr:stedsnr" v="472044" />
	</node>
	<node lat="70.12331944146786" lon="19.951402771546668" id="-38822">
		<tag k="name" v="Storbakken" />
		<tag k="natural" v="slope" />
		<tag k="place" v="locality" />
		<tag k="ssr:stedsnr" v="472550" />
	</node>
	<node lat="70.2567805597802" lon="20.19833609121497" id="-38826">
		<tag k="name" v="Svarthellarn" />
		<tag k="place" v="locality" />
		<tag k="ssr:stedsnr" v="473030" />
	</node>
	<node lat="70.12941389004004" lon="19.18397776440806" id="-38836">
		<tag k="name" v="Storhaugen" />
		<tag k="natural" v="hill" />
		<tag k="place" v="locality" />
		<tag k="ssr:stedsnr" v="351007" />
	</node>
	<node lat="70.27375000313582" lon="20.22573608626447" id="-38838">
		<tag k="fixme" v="consider natural=peak for the most distinct mountains in the district" />
		<tag k="name" v="Fugltinden" />
		<tag k="natural" v="hill" />
		<tag k="place" v="locality" />
		<tag k="ssr:stedsnr" v="351061" />
	</node>
	<node lat="70.11292221949691" lon="19.47670831831377" id="-38839">
		<tag k="alt_name" v="Gullelvhompen" />
		<tag k="name" v="Gullelvhumpen" />
		<tag k="natural" v="hill" />
		<tag k="place" v="locality" />
		<tag k="ssr:stedsnr" v="474150" />
	</node>
	<node lat="69.85688055119073" lon="19.46182777744211" id="-38842">
		<tag k="name" v="Buktedotten" />
		<tag k="natural" v="hill" />
		<tag k="place" v="locality" />
		<tag k="ssr:stedsnr" v="352012" />
	</node>
	<node lat="70.15068611351168" lon="19.227277773121575" id="-38843">
		<tag k="name" v="Okselia" />
		<tag k="natural" v="slope" />
		<tag k="place" v="locality" />
		<tag k="ssr:stedsnr" v="474239" />
	</node>
	<node lat="69.97471111262357" lon="19.617363874954517" id="-38845">
		<tag k="name" v="Einhaugen" />
		<tag k="natural" v="hill" />
		<tag k="place" v="locality" />
		<tag k="ssr:stedsnr" v="353003" />
	</node>
	<node lat="69.85606666855571" lon="19.717733336268257" id="-38850">
		<tag k="name" v="Fyrbakken" />
		<tag k="natural" v="slope" />
		<tag k="place" v="locality" />
		<tag k="ssr:stedsnr" v="352955" />
	</node>
	<node lat="70.22405555910602" lon="19.519674988912328" id="-38855">
		<tag k="name" v="Dalheien" />
		<tag k="natural" v="hill" />
		<tag k="place" v="locality" />
		<tag k="ssr:stedsnr" v="353812" />
	</node>
	<node lat="70.06050833442627" lon="19.350980556460947" id="-38857">
		<tag k="fixme" v="consider natural=peak for the most distinct mountains in the district" />
		<tag k="name" v="Skarveskjærfjellet" />
		<tag k="natural" v="hill" />
		<tag k="place" v="locality" />
		<tag k="ssr:stedsnr" v="353863" />
	</node>
	<node lat="69.91456389250378" lon="19.574252779183237" id="-38859">
		<tag k="fixme" v="consider natural=peak for the most distinct mountains in the district" />
		<tag k="name" v="Arnebakktua" />
		<tag k="natural" v="hill" />
		<tag k="place" v="locality" />
		<tag k="ssr:stedsnr" v="354202" />
	</node>
	<node lat="70.03104722205029" lon="19.40866387280584" id="-38862">
		<tag k="name" v="Buktehøgda" />
		<tag k="natural" v="hill" />
		<tag k="place" v="locality" />
		<tag k="ssr:stedsnr" v="354223" />
	</node>
	<node lat="70.06629722360627" lon="19.025033315597074" id="-38863">
		<tag k="name" v="Torvhaugen" />
		<tag k="natural" v="hill" />
		<tag k="place" v="locality" />
		<tag k="ssr:stedsnr" v="354229" />
	</node>
	<node lat="69.94885278038291" lon="19.700652771901748" id="-38866">
		<tag k="alt_name" v="Nordhompen" />
		<tag k="name" v="Nordhumpen" />
		<tag k="natural" v="hill" />
		<tag k="place" v="locality" />
		<tag k="ssr:stedsnr" v="354239" />
	</node>
	<node lat="70.17054166616298" lon="19.951833327074514" id="-38868">
		<tag k="name" v="Kvannvollen" />
		<tag k="natural" v="slope" />
		<tag k="place" v="locality" />
		<tag k="ssr:stedsnr" v="354105" />
	</node>
	<node lat="70.08520555370225" lon="19.707808320176053" id="-38871">
		<tag k="name" v="Kvalen" />
		<tag k="natural" v="hill" />
		<tag k="place" v="locality" />
		<tag k="ssr:stedsnr" v="354334" />
	</node>
	<node lat="70.08982500260863" lon="20.031088870044304" id="-38875">
		<tag k="name" v="Stakkvannsheia" />
		<tag k="natural" v="hill" />
		<tag k="place" v="locality" />
		<tag k="ssr:stedsnr" v="354396" />
	</node>
	<node lat="70.15641666370993" lon="19.80159720210022" id="-38878">
		<tag k="name" v="Sandhaugen" />
		<tag k="natural" v="hill" />
		<tag k="place" v="locality" />
		<tag k="ssr:stedsnr" v="354504" />
	</node>
	<node lat="70.14691666465009" lon="19.709683332320758" id="-38879">
		<tag k="name" v="Bekkedalen" />
		<tag k="natural" v="valley" />
		<tag k="place" v="locality" />
		<tag k="ssr:stedsnr" v="354508" />
	</node>
	<node lat="69.97481666891373" lon="19.16648332297977" id="-38884">
		<tag k="name" v="Rødrevhaugen" />
		<tag k="natural" v="hill" />
		<tag k="place" v="locality" />
		<tag k="ssr:stedsnr" v="354975" />
	</node>
	<node lat="69.96848610830146" lon="19.14618054592505" id="-38887">
		<tag k="name" v="Steingrimsen" />
		<tag k="natural" v="slope" />
		<tag k="place" v="locality" />
		<tag k="ssr:stedsnr" v="354987" />
	</node>
	<node lat="69.98281111647898" lon="19.179841649514753" id="-38888">
		<tag k="name" v="Riskjeppa" />
		<tag k="natural" v="hill" />
		<tag k="place" v="locality" />
		<tag k="ssr:stedsnr" v="354991" />
	</node>
	<node lat="69.88233888918818" lon="19.414049993805087" id="-38890">
		<tag k="name" v="Skjellhaugen" />
		<tag k="natural" v="hill" />
		<tag k="place" v="locality" />
		<tag k="ssr:stedsnr" v="474828" />
	</node>
	<node lat="69.89928611265469" lon="19.44682775902399" id="-38891">
		<tag k="name" v="Aksla" />
		<tag k="place" v="locality" />
		<tag k="ssr:stedsnr" v="474832" />
	</node>
	<node lat="69.91227778157905" lon="19.453511095348208" id="-38897">
		<tag k="name" v="Bjørnhollet" />
		<tag k="natural" v="valley" />
		<tag k="place" v="locality" />
		<tag k="ssr:stedsnr" v="474857" />
	</node>
	<node lat="69.95846944185452" lon="19.349324991630386" id="-38901">
		<tag k="name" v="Aksla" />
		<tag k="place" v="locality" />
		<tag k="ssr:stedsnr" v="475030" />
	</node>
	<node lat="69.94347777851189" lon="19.700174992684154" id="-38903">
		<tag k="fixme" v="consider natural=peak for the most distinct mountains in the district" />
		<tag k="name" v="Småfjellan" />
		<tag k="natural" v="hill" />
		<tag k="place" v="locality" />
		<tag k="ssr:stedsnr" v="475035" />
	</node>
	<node lat="69.94448888672332" lon="19.679205556840692" id="-38904">
		<tag k="name" v="Storlia" />
		<tag k="natural" v="slope" />
		<tag k="place" v="locality" />
		<tag k="ssr:stedsnr" v="475036" />
	</node>
	<node lat="69.95207221978576" lon="19.72011109837453" id="-38905">
		<tag k="name" v="Stakkvikdalen" />
		<tag k="natural" v="valley" />
		<tag k="place" v="locality" />
		<tag k="ssr:stedsnr" v="475042" />
	</node>
	<node lat="70.15671388907057" lon="20.038727770638314" id="-38906">
		<tag k="fixme" v="consider natural=peak for the most distinct mountains in the district" />
		<tag k="name" v="Hammaren" />
		<tag k="natural" v="hill" />
		<tag k="place" v="locality" />
		<tag k="ssr:stedsnr" v="475050" />
	</node>
	<node lat="69.9563277741176" lon="19.46262220480369" id="-38908">
		<tag k="fixme" v="consider natural=peak for the most distinct mountains in the district" />
		<tag k="name" v="Bjørnlikollen" />
		<tag k="natural" v="hill" />
		<tag k="place" v="locality" />
		<tag k="ssr:stedsnr" v="475136" />
	</node>
	<node lat="70.05919721756443" lon="19.15993889013319" id="-38910">
		<tag k="fixme" v="consider natural=peak for the most distinct mountains in the district" />
		<tag k="name" v="Svartvarden" />
		<tag k="natural" v="hill" />
		<tag k="place" v="locality" />
		<tag k="ssr:stedsnr" v="475153" />
	</node>
	<node lat="70.1466777797623" lon="19.89522777988573" id="-38911">
		<tag k="alt_name" v="Svartvasshompen" />
		<tag k="name" v="Svartvasshumpen" />
		<tag k="natural" v="hill" />
		<tag k="place" v="locality" />
		<tag k="ssr:stedsnr" v="475095" />
	</node>
	<node lat="69.94081111506542" lon="19.641158336608207" id="-38912">
		<tag k="name" v="Nedre Reinskarhaugen" />
		<tag k="natural" v="hill" />
		<tag k="place" v="locality" />
		<tag k="ssr:stedsnr" v="475234" />
	</node>
	<node lat="70.0155638916059" lon="19.38954720973804" id="-38914">
		<tag k="name" v="Storhaugen" />
		<tag k="natural" v="hill" />
		<tag k="place" v="locality" />
		<tag k="ssr:stedsnr" v="475186" />
	</node>
	<node lat="70.01876111505696" lon="19.530355561218986" id="-38916">
		<tag k="name" v="Høglien" />
		<tag k="natural" v="slope" />
		<tag k="place" v="locality" />
		<tag k="ssr:stedsnr" v="475191" />
	</node>
	<node lat="70.04736110882284" lon="18.91100832628892" id="-38918">
		<tag k="alt_name" v="Hompen" />
		<tag k="name" v="Humpen" />
		<tag k="natural" v="hill" />
		<tag k="place" v="locality" />
		<tag k="ssr:stedsnr" v="475207" />
	</node>
	<node lat="70.05910277627258" lon="19.837449984281893" id="-38919">
		<tag k="name" v="Daureinhaugen" />
		<tag k="natural" v="hill" />
		<tag k="place" v="locality" />
		<tag k="ssr:stedsnr" v="475282" />
	</node>
	<node lat="70.01880278149973" lon="19.871902769394318" id="-38920">
		<tag k="name" v="Arvikdalen" />
		<tag k="natural" v="valley" />
		<tag k="place" v="locality" />
		<tag k="ssr:stedsnr" v="475296" />
	</node>
	<node lat="70.09647777815489" lon="19.71473888097487" id="-38921">
		<tag k="name" v="Sandhaugen" />
		<tag k="natural" v="hill" />
		<tag k="place" v="locality" />
		<tag k="ssr:stedsnr" v="475328" />
	</node>
	<node lat="69.99849999751477" lon="19.833411096811577" id="-38925">
		<tag k="name" v="Smihaugen" />
		<tag k="natural" v="hill" />
		<tag k="place" v="locality" />
		<tag k="ssr:stedsnr" v="475367" />
	</node>
	<node lat="70.2002527791094" lon="19.633300000237963" id="-38926">
		<tag k="name" v="Smålien" />
		<tag k="natural" v="slope" />
		<tag k="place" v="locality" />
		<tag k="ssr:stedsnr" v="475375" />
	</node>
	<node lat="70.2400583334867" lon="19.58559444740722" id="-38927">
		<tag k="name" v="Hestevollen" />
		<tag k="place" v="locality" />
		<tag k="ssr:stedsnr" v="475381" />
	</node>
	<node lat="70.05084722484098" lon="19.87623332773919" id="-38929">
		<tag k="name" v="Småvollan" />
		<tag k="place" v="locality" />
		<tag k="ssr:stedsnr" v="475442" />
	</node>
	<node lat="70.17188888875256" lon="19.851452766799724" id="-38930">
		<tag k="fixme" v="consider natural=peak for the most distinct mountains in the district" />
		<tag k="name" v="Røysmålstua" />
		<tag k="natural" v="hill" />
		<tag k="place" v="locality" />
		<tag k="ssr:stedsnr" v="475487" />
	</node>
	<node lat="70.27143333316498" lon="20.20047221921853" id="-38934">
		<tag k="loc_name:se" v="Davit Váccisbákti" />
		<tag k="name" v="Belteberget" />
		<tag k="name:no" v="Belteberget" />
		<tag k="natural" v="hill" />
		<tag k="place" v="locality" />
		<tag k="ssr:stedsnr" v="475626" />
	</node>
	<node lat="70.11561666484164" lon="19.16259999288568" id="-38937">
		<tag k="name" v="Kløyvan" />
		<tag k="natural" v="slope" />
		<tag k="place" v="locality" />
		<tag k="ssr:stedsnr" v="475668" />
	</node>
	<node lat="70.17441944641986" lon="19.66362499815798" id="-38940">
		<tag k="name" v="Kjerringbakkan" />
		<tag k="natural" v="slope" />
		<tag k="place" v="locality" />
		<tag k="ssr:stedsnr" v="475759" />
	</node>
	<node lat="70.02823055168074" lon="19.089033334215813" id="-38943">
		<tag k="name" v="Middagshaugen" />
		<tag k="natural" v="hill" />
		<tag k="place" v="locality" />
		<tag k="ssr:stedsnr" v="475792" />
	</node>
	<node lat="70.03878611094838" lon="19.101377780968125" id="-38944">
		<tag k="name" v="Lia" />
		<tag k="natural" v="slope" />
		<tag k="place" v="locality" />
		<tag k="ssr:stedsnr" v="475966" />
	</node>
	<node lat="70.04177499941696" lon="19.06063611259136" id="-38945">
		<tag k="name" v="Demmakollen" />
		<tag k="natural" v="hill" />
		<tag k="place" v="locality" />
		<tag k="ssr:stedsnr" v="475970" />
	</node>
	<node lat="70.29941944674727" lon="20.21155832754498" id="-38952">
		<tag k="name" v="Kvitberget" />
		<tag k="natural" v="hill" />
		<tag k="place" v="locality" />
		<tag k="ssr:stedsnr" v="383358" />
	</node>
	<node lat="70.29995833645339" lon="20.190150001093247" id="-38954">
		<tag k="name" v="Risdalen" />
		<tag k="natural" v="valley" />
		<tag k="place" v="locality" />
		<tag k="ssr:stedsnr" v="383365" />
	</node>
	<node lat="69.8917944425385" lon="19.24906944605749" id="-38956">
		<tag k="name" v="Midterelvdalen" />
		<tag k="natural" v="valley" />
		<tag k="place" v="locality" />
		<tag k="ssr:stedsnr" v="383553" />
	</node>
	<node lat="70.16166666937417" lon="18.85173610017234" id="-38961">
		<tag k="alt_name" v="Bukketinden, l" />
		<tag k="fixme" v="consider natural=peak for the most distinct mountains in the district" />
		<tag k="name" v="Lille Bukketinden" />
		<tag k="natural" v="hill" />
		<tag k="place" v="locality" />
		<tag k="ssr:stedsnr" v="383610" />
	</node>
	<node lat="70.09508333061565" lon="19.982938870129825" id="-38970">
		<tag k="name" v="Nord-Vannvågdalen" />
		<tag k="natural" v="valley" />
		<tag k="place" v="locality" />
		<tag k="ssr:stedsnr" v="383905" />
	</node>
	<node lat="69.82983889128103" lon="19.346597228176254" id="-38973">
		<tag k="alt_name" v="Glimhaugen, store" />
		<tag k="name" v="Store Glimhaugen" />
		<tag k="natural" v="hill" />
		<tag k="place" v="locality" />
		<tag k="ssr:stedsnr" v="383699" />
	</node>
	<node lat="70.29327499694301" lon="20.197361086145122" id="-38988">
		<tag k="fixme" v="consider natural=peak for the most distinct mountains in the district" />
		<tag k="name" v="Vatnfjellhaugen" />
		<tag k="natural" v="hill" />
		<tag k="place" v="locality" />
		<tag k="ssr:stedsnr" v="412045" />
	</node>
	<node lat="70.27984166545292" lon="20.205774978475393" id="-38989">
		<tag k="fixme" v="consider natural=peak for the most distinct mountains in the district" />
		<tag k="name" v="Heimfjellet" />
		<tag k="natural" v="hill" />
		<tag k="place" v="locality" />
		<tag k="ssr:stedsnr" v="412054" />
	</node>
	<node lat="69.86758333612454" lon="19.507969445109026" id="-38990">
		<tag k="fixme" v="consider natural=peak for the most distinct mountains in the district" />
		<tag k="name" v="Lemfjellet" />
		<tag k="natural" v="hill" />
		<tag k="place" v="locality" />
		<tag k="ssr:stedsnr" v="413005" />
	</node>
	<node lat="69.8582611100459" lon="19.594261108234363" id="-38992">
		<tag k="name" v="Legdeskaret" />
		<tag k="natural" v="valley" />
		<tag k="place" v="locality" />
		<tag k="ssr:stedsnr" v="413990" />
	</node>
	<node lat="70.1403833382462" lon="19.865361095870195" id="-38996">
		<tag k="fixme" v="consider natural=peak for the most distinct mountains in the district" />
		<tag k="name" v="Laukvikfjellet" />
		<tag k="natural" v="hill" />
		<tag k="place" v="locality" />
		<tag k="ssr:stedsnr" v="414275" />
	</node>
	<node lat="69.92179166479637" lon="19.480194429263403" id="-39000">
		<tag k="name" v="Svarthaugen" />
		<tag k="natural" v="hill" />
		<tag k="place" v="locality" />
		<tag k="ssr:stedsnr" v="414804" />
	</node>
	<node lat="69.92103333831412" lon="19.540555538579866" id="-39004">
		<tag k="name" v="Blombakken" />
		<tag k="natural" v="slope" />
		<tag k="place" v="locality" />
		<tag k="ssr:stedsnr" v="414798" />
	</node>
	<node lat="70.13586944117839" lon="19.701219437886618" id="-39006">
		<tag k="name" v="Varden" />
		<tag k="natural" v="hill" />
		<tag k="place" v="locality" />
		<tag k="ssr:stedsnr" v="414840" />
	</node>
	<node lat="70.03950555456903" lon="18.808116672427943" id="-39008">
		<tag k="name" v="Karihaugen" />
		<tag k="natural" v="hill" />
		<tag k="place" v="locality" />
		<tag k="ssr:stedsnr" v="415014" />
	</node>
	<node lat="70.0118750036508" lon="19.515372216343927" id="-39013">
		<tag k="name" v="Risdalen" />
		<tag k="natural" v="valley" />
		<tag k="place" v="locality" />
		<tag k="ssr:stedsnr" v="415187" />
	</node>
	<node lat="69.96225278038827" lon="19.564147217816803" id="-39018">
		<tag k="name" v="Kvitbergan" />
		<tag k="natural" v="hill" />
		<tag k="place" v="locality" />
		<tag k="ssr:stedsnr" v="415201" />
	</node>
	<node lat="70.09093611116126" lon="19.72274165807723" id="-39022">
		<tag k="name" v="Gabrielskaret" />
		<tag k="natural" v="valley" />
		<tag k="place" v="locality" />
		<tag k="ssr:stedsnr" v="415339" />
	</node>
	<node lat="70.20739166769874" lon="19.687188881535732" id="-39023">
		<tag k="name" v="Geitdalen" />
		<tag k="natural" v="valley" />
		<tag k="place" v="locality" />
		<tag k="ssr:stedsnr" v="415389" />
	</node>
	<node lat="70.03051944929848" lon="19.116199986015967" id="-39029">
		<tag k="name" v="Pikhaugen" />
		<tag k="natural" v="hill" />
		<tag k="place" v="locality" />
		<tag k="ssr:stedsnr" v="415829" />
	</node>
	<node lat="69.95495833550952" lon="19.217124985893687" id="-39030">
		<tag k="name" v="Fagerbakken" />
		<tag k="natural" v="slope" />
		<tag k="place" v="locality" />
		<tag k="ssr:stedsnr" v="415788" />
	</node>
	<node lat="70.21583055638273" lon="19.56729166707097" id="-39032">
		<tag k="name" v="Aksla" />
		<tag k="place" v="locality" />
		<tag k="ssr:stedsnr" v="415793" />
	</node>
	<node lat="70.2305694434094" lon="19.166119429182572" id="-39035">
		<tag k="fixme" v="multiple name tags, choose one and add the other to alt_name" />
		<tag k="name" v="Fuglbergvikdalen;Vikadalen" />
		<tag k="natural" v="valley" />
		<tag k="place" v="locality" />
		<tag k="ssr:stedsnr" v="424404" />
	</node>
	<node lat="70.09800555587123" lon="18.878941660114513" id="-39041">
		<tag k="name" v="Vassdalen" />
		<tag k="natural" v="valley" />
		<tag k="place" v="locality" />
		<tag k="ssr:stedsnr" v="444509" />
	</node>
	<node lat="70.16578055649981" lon="18.845402785586526" id="-39045">
		<tag k="alt_name" v="Bukketinden, store" />
		<tag k="fixme" v="consider natural=peak for the most distinct mountains in the district" />
		<tag k="name" v="Store Bukketinden" />
		<tag k="natural" v="hill" />
		<tag k="place" v="locality" />
		<tag k="ssr:stedsnr" v="444578" />
	</node>
	<node lat="70.15905278230953" lon="19.174158320989232" id="-39047">
		<tag k="fixme" v="consider natural=peak for the most distinct mountains in the district" />
		<tag k="name" v="Skjærviktinden" />
		<tag k="natural" v="hill" />
		<tag k="place" v="locality" />
		<tag k="ssr:stedsnr" v="444584" />
	</node>
	<node lat="70.17212777381012" lon="18.85430555064703" id="-39051">
		<tag k="name" v="Trolldalen" />
		<tag k="natural" v="valley" />
		<tag k="place" v="locality" />
		<tag k="ssr:stedsnr" v="444607" />
	</node>
	<node lat="70.24873610770707" lon="19.637374996974227" id="-39052">
		<tag k="fixme" v="consider natural=peak for the most distinct mountains in the district" />
		<tag k="name" v="Breivikkollen" />
		<tag k="natural" v="hill" />
		<tag k="place" v="locality" />
		<tag k="ssr:stedsnr" v="444631" />
	</node>
	<node lat="69.84238333696342" lon="19.448244437274987" id="-39057">
		<tag k="fixme" v="consider natural=peak for the most distinct mountains in the district" />
		<tag k="name" v="Akselkollen" />
		<tag k="natural" v="hill" />
		<tag k="place" v="locality" />
		<tag k="ssr:stedsnr" v="444690" />
	</node>
	<node lat="69.94753889270396" lon="19.132352784517625" id="-39060">
		<tag k="alt_name" v="Skognestua" />
		<tag k="fixme" v="consider natural=peak for the most distinct mountains in the district" />
		<tag k="name" v="Skognestuva" />
		<tag k="natural" v="hill" />
		<tag k="place" v="locality" />
		<tag k="ssr:stedsnr" v="444826" />
	</node>
	<node lat="70.13587778111477" lon="19.427416670811475" id="-39062">
		<tag k="fixme" v="consider natural=peak for the most distinct mountains in the district" />
		<tag k="name" v="Storheia" />
		<tag k="natural" v="hill" />
		<tag k="place" v="locality" />
		<tag k="ssr:stedsnr" v="444784" />
	</node>
	<node lat="70.02084444242887" lon="19.43960832353152" id="-39066">
		<tag k="fixme" v="consider natural=peak for the most distinct mountains in the district" />
		<tag k="name" v="Geitfjellet" />
		<tag k="natural" v="hill" />
		<tag k="place" v="locality" />
		<tag k="ssr:stedsnr" v="444984" />
	</node>
	<node lat="70.30948333597334" lon="20.180319431284587" id="-39085">
		<tag k="name" v="Krykkjefloget" />
		<tag k="natural" v="cliff" />
		<tag k="ssr:stedsnr" v="454151" />
	</node>
	<node lat="70.25381388771264" lon="20.28602775363541" id="-39093">
		<tag k="name" v="Rødbergan" />
		<tag k="natural" v="hill" />
		<tag k="place" v="locality" />
		<tag k="ssr:stedsnr" v="473018" />
	</node>
	<node lat="70.00172777851452" lon="19.42413331262641" id="-39094">
		<tag k="fixme" v="consider natural=peak for the most distinct mountains in the district" />
		<tag k="name" v="Kløfterskoltan" />
		<tag k="natural" v="hill" />
		<tag k="place" v="locality" />
		<tag k="ssr:stedsnr" v="474159" />
	</node>
	<node lat="69.92532222067346" lon="19.445602772923277" id="-39096">
		<tag k="name" v="Merkebakken" />
		<tag k="natural" v="slope" />
		<tag k="place" v="locality" />
		<tag k="ssr:stedsnr" v="474168" />
	</node>
	<node lat="69.9341638891649" lon="19.588172218589403" id="-39099">
		<tag k="name" v="Sandneshaugen" />
		<tag k="natural" v="hill" />
		<tag k="place" v="locality" />
		<tag k="ssr:stedsnr" v="474814" />
	</node>
	<node lat="70.01671666824014" lon="19.60521665674513" id="-39103">
		<tag k="name" v="Kjerringdalen" />
		<tag k="natural" v="valley" />
		<tag k="place" v="locality" />
		<tag k="ssr:stedsnr" v="475060" />
	</node>
	<node lat="70.10655833140795" lon="20.119608328620014" id="-39104">
		<tag k="name" v="Oterlia" />
		<tag k="natural" v="slope" />
		<tag k="place" v="locality" />
		<tag k="ssr:stedsnr" v="475062" />
	</node>
	<node lat="70.09755277817298" lon="20.10472221421549" id="-39105">
		<tag k="name" v="Hunden" />
		<tag k="natural" v="hill" />
		<tag k="place" v="locality" />
		<tag k="ssr:stedsnr" v="475070" />
	</node>
	<node lat="69.92957777619269" lon="19.77901664516774" id="-39106">
		<tag k="name" v="Kviteberg" />
		<tag k="natural" v="hill" />
		<tag k="place" v="locality" />
		<tag k="ssr:stedsnr" v="475072" />
	</node>
	<node lat="70.0579305536004" lon="19.757008318111794" id="-39107">
		<tag k="name" v="Hestkrybban" />
		<tag k="natural" v="slope" />
		<tag k="place" v="locality" />
		<tag k="ssr:stedsnr" v="475324" />
	</node>
	<node lat="70.07796666912584" lon="18.92421667306718" id="-39110">
		<tag k="name" v="Toftefjordaksla" />
		<tag k="place" v="locality" />
		<tag k="ssr:stedsnr" v="475209" />
	</node>
	<node lat="70.06062221907348" lon="19.940636097183948" id="-39114">
		<tag k="fixme" v="consider natural=peak for the most distinct mountains in the district" />
		<tag k="name" v="Toftelivassheia" />
		<tag k="natural" v="hill" />
		<tag k="place" v="locality" />
		<tag k="ssr:stedsnr" v="475406" />
	</node>
	<node lat="70.21100833779519" lon="19.590366648458073" id="-39117">
		<tag k="name" v="Fjellbakken" />
		<tag k="natural" v="slope" />
		<tag k="place" v="locality" />
		<tag k="ssr:stedsnr" v="475778" />
	</node>
	<node lat="69.99784166395658" lon="19.338272209342918" id="-39118">
		<tag k="name" v="Skjærhaugen" />
		<tag k="natural" v="hill" />
		<tag k="place" v="locality" />
		<tag k="ssr:stedsnr" v="475779" />
	</node>
	<node lat="70.0635472212831" lon="19.040988873268294" id="-39119">
		<tag k="name" v="Naustbakken" />
		<tag k="natural" v="slope" />
		<tag k="place" v="locality" />
		<tag k="ssr:stedsnr" v="475785" />
	</node>
	<node lat="70.01817777578914" lon="19.89448887096636" id="-39124">
		<tag k="alt_name" v="Djupviktuva" />
		<tag k="name" v="Jøviktuva" />
		<tag k="natural" v="hill" />
		<tag k="place" v="locality" />
		<tag k="ssr:stedsnr" v="504081" />
	</node>
	<node lat="69.92149722082192" lon="19.299238887224245" id="-39134">
		<tag k="name" v="Jakobdalen" />
		<tag k="natural" v="valley" />
		<tag k="place" v="locality" />
		<tag k="ssr:stedsnr" v="504569" />
	</node>
	<node lat="69.98876944933076" lon="19.179949991057047" id="-39152">
		<tag k="name" v="Gusmmorduottar" />
		<tag k="name:se" v="Gusmmorduottar" />
		<tag k="natural" v="plateau" />
		<tag k="ssr:stedsnr" v="516709" />
	</node>
	<node lat="69.934877775978" lon="19.316963890329614" id="-39153">
		<tag k="name" v="Solltindvasshøgda" />
		<tag k="natural" v="hill" />
		<tag k="place" v="locality" />
		<tag k="ssr:stedsnr" v="522264" />
	</node>
	<node lat="69.88539722596502" lon="19.208724991845575" id="-39155">
		<tag k="fixme" v="consider natural=peak for the most distinct mountains in the district" />
		<tag k="name" v="Breifjellkneet" />
		<tag k="natural" v="hill" />
		<tag k="place" v="locality" />
		<tag k="ssr:stedsnr" v="685760" />
	</node>
	<node lat="70.07202499722332" lon="18.691444437746334" id="-39173">
		<tag k="fixme" v="consider natural=peak for the most distinct mountains in the district" />
		<tag k="name" v="Bjørnnakken" />
		<tag k="natural" v="hill" />
		<tag k="place" v="locality" />
		<tag k="ssr:stedsnr" v="686516" />
	</node>
	<node lat="69.90391389237323" lon="19.6344472176136" id="-39174">
		<tag k="fixme" v="consider natural=peak for the most distinct mountains in the district" />
		<tag k="name" v="Hetta" />
		<tag k="natural" v="hill" />
		<tag k="place" v="locality" />
		<tag k="ssr:stedsnr" v="534974" />
	</node>
	<node lat="69.88497222217795" lon="19.667497218914352" id="-39176">
		<tag k="name" v="Nebben" />
		<tag k="natural" v="hill" />
		<tag k="place" v="locality" />
		<tag k="ssr:stedsnr" v="534981" />
	</node>
	<node lat="70.18084444238926" lon="19.82587220876663" id="-39177">
		<tag k="name" v="Kristenbakken" />
		<tag k="natural" v="slope" />
		<tag k="place" v="locality" />
		<tag k="ssr:stedsnr" v="535486" />
	</node>
	<node lat="70.06634999948557" lon="18.75901387493934" id="-39178">
		<tag k="name" v="Hestekjeften" />
		<tag k="natural" v="valley" />
		<tag k="place" v="locality" />
		<tag k="ssr:stedsnr" v="686524" />
	</node>
	<node lat="69.94291944665763" lon="19.813827763407193" id="-39189">
		<tag k="name" v="Åsbakken" />
		<tag k="natural" v="slope" />
		<tag k="place" v="locality" />
		<tag k="ssr:stedsnr" v="536083" />
	</node>
	<node lat="69.94430277746119" lon="19.808916661973498" id="-39191">
		<tag k="fixme" v="consider natural=peak for the most distinct mountains in the district" />
		<tag k="name" v="Åsen" />
		<tag k="natural" v="hill" />
		<tag k="place" v="locality" />
		<tag k="ssr:stedsnr" v="536085" />
	</node>
	<node lat="70.00933610629802" lon="18.942377782603057" id="-39194">
		<tag k="name" v="Gjertrudhaugen" />
		<tag k="natural" v="hill" />
		<tag k="place" v="locality" />
		<tag k="ssr:stedsnr" v="536211" />
	</node>
	<node lat="69.92077778032679" lon="19.60920276300621" id="-39199">
		<tag k="name" v="Stortindaksla" />
		<tag k="place" v="locality" />
		<tag k="ssr:stedsnr" v="536185" />
	</node>
	<node lat="69.96010000282932" lon="19.576299990939585" id="-39200">
		<tag k="name" v="Svartberget" />
		<tag k="natural" v="hill" />
		<tag k="place" v="locality" />
		<tag k="ssr:stedsnr" v="536188" />
	</node>
	<node lat="70.09490000003292" lon="19.712705547962226" id="-39202">
		<tag k="name" v="Rishaugen" />
		<tag k="natural" v="hill" />
		<tag k="place" v="locality" />
		<tag k="ssr:stedsnr" v="536319" />
	</node>
	<node lat="70.0396888917573" lon="19.06673888209368" id="-39216">
		<tag k="name" v="Vabergan" />
		<tag k="natural" v="hill" />
		<tag k="place" v="locality" />
		<tag k="ssr:stedsnr" v="536966" />
	</node>
	<node lat="69.99571389363108" lon="19.603188878009895" id="-39218">
		<tag k="name" v="Storheia" />
		<tag k="natural" v="hill" />
		<tag k="place" v="locality" />
		<tag k="ssr:stedsnr" v="686610" />
	</node>
	<node lat="70.14399444373511" lon="19.723161097929996" id="-39226">
		<tag k="name" v="Bruna" />
		<tag k="natural" v="hill" />
		<tag k="place" v="locality" />
		<tag k="ssr:stedsnr" v="686765" />
	</node>
	<node lat="70.19273055460998" lon="19.842649989116804" id="-39231">
		<tag k="alt_name" v="Maslikollen" />
		<tag k="fixme" v="consider natural=peak for the most distinct mountains in the district" />
		<tag k="name" v="Madslikollen" />
		<tag k="natural" v="hill" />
		<tag k="place" v="locality" />
		<tag k="ssr:stedsnr" v="686957" />
	</node>
	<node lat="70.22667499976032" lon="19.211219426920568" id="-39239">
		<tag k="fixme" v="consider natural=peak for the most distinct mountains in the district" />
		<tag k="name" v="Rossmålen" />
		<tag k="natural" v="hill" />
		<tag k="place" v="locality" />
		<tag k="ssr:stedsnr" v="687332" />
	</node>
	<node lat="70.18930555489158" lon="18.866113881226866" id="-39240">
		<tag k="fixme" v="consider natural=peak for the most distinct mountains in the district" />
		<tag k="name" v="Gamlegårdsaksla" />
		<tag k="natural" v="hill" />
		<tag k="place" v="locality" />
		<tag k="ssr:stedsnr" v="687354" />
	</node>
	<node lat="70.27915556011271" lon="19.626036099271282" id="-39243">
		<tag k="fixme" v="consider natural=peak for the most distinct mountains in the district" />
		<tag k="loc_name:se" v="Uhcanearigaš" />
		<tag k="name" v="Geisnæringen" />
		<tag k="name:no" v="Geisnæringen" />
		<tag k="natural" v="hill" />
		<tag k="place" v="locality" />
		<tag k="ssr:stedsnr" v="687428" />
	</node>
	<node lat="69.88968888809897" lon="19.35476665624864" id="-39244">
		<tag k="fixme" v="consider natural=peak for the most distinct mountains in the district" />
		<tag k="name" v="Åborsdalstinden" />
		<tag k="natural" v="hill" />
		<tag k="place" v="locality" />
		<tag k="ssr:stedsnr" v="687513" />
	</node>
	<node lat="69.89943610871387" lon="19.74128053446529" id="-39245">
		<tag k="name" v="Søreiddalen" />
		<tag k="natural" v="valley" />
		<tag k="place" v="locality" />
		<tag k="ssr:stedsnr" v="687516" />
	</node>
	<node lat="69.99198055537171" lon="19.659955545219333" id="-39251">
		<tag k="fixme" v="consider natural=peak for the most distinct mountains in the district" />
		<tag k="name" v="Langåsen" />
		<tag k="natural" v="hill" />
		<tag k="place" v="locality" />
		<tag k="ssr:stedsnr" v="687626" />
	</node>
	<node lat="70.18752222187777" lon="19.731549999688113" id="-39263">
		<tag k="fixme" v="consider natural=peak for the most distinct mountains in the district" />
		<tag k="name" v="Kvalkjeften" />
		<tag k="natural" v="hill" />
		<tag k="place" v="locality" />
		<tag k="ssr:stedsnr" v="687821" />
	</node>
	<node lat="70.19036389291375" lon="19.68246943362583" id="-39264">
		<tag k="alt_name" v="Geitdalen, s" />
		<tag k="name" v="Søre Geitdalen" />
		<tag k="natural" v="valley" />
		<tag k="place" v="locality" />
		<tag k="ssr:stedsnr" v="687825" />
	</node>
	<node lat="70.1724666707409" lon="19.68925833210029" id="-39265">
		<tag k="fixme" v="consider natural=peak for the most distinct mountains in the district" />
		<tag k="name" v="Gammeryggen" />
		<tag k="natural" v="hill" />
		<tag k="place" v="locality" />
		<tag k="ssr:stedsnr" v="687828" />
	</node>
	<node lat="70.15066389082082" lon="19.80865831984344" id="-39268">
		<tag k="alt_name" v="Skipfjorddalen" />
		<tag k="name" v="Skipsfjorddalen" />
		<tag k="natural" v="valley" />
		<tag k="place" v="locality" />
		<tag k="ssr:stedsnr" v="687850" />
	</node>
	<node lat="70.20011111512632" lon="19.73477220313792" id="-39270">
		<tag k="fixme" v="consider natural=peak for the most distinct mountains in the district" />
		<tag k="name" v="Geitdalsnuten" />
		<tag k="natural" v="hill" />
		<tag k="place" v="locality" />
		<tag k="ssr:stedsnr" v="687872" />
	</node>
	<node lat="70.2057805572223" lon="19.693908314617243" id="-39271">
		<tag k="alt_name" v="Geitdalen, in" />
		<tag k="name" v="Indre Geitdalen" />
		<tag k="natural" v="valley" />
		<tag k="place" v="locality" />
		<tag k="ssr:stedsnr" v="687873" />
	</node>
	<node lat="70.08797500459413" lon="18.71858887775122" id="-39276">
		<tag k="fixme" v="consider natural=peak for the most distinct mountains in the district" />
		<tag k="name" v="Slumpen" />
		<tag k="natural" v="hill" />
		<tag k="place" v="locality" />
		<tag k="ssr:stedsnr" v="564527" />
	</node>
	<node lat="70.06101388844324" lon="19.960088875168108" id="-39279">
		<tag k="name" v="Bukkheia" />
		<tag k="natural" v="hill" />
		<tag k="place" v="locality" />
		<tag k="ssr:stedsnr" v="565071" />
	</node>
	<node lat="70.04682499911209" lon="19.132802778976615" id="-39286">
		<tag k="fixme" v="consider natural=peak for the most distinct mountains in the district" />
		<tag k="name" v="Lavvassfjellet" />
		<tag k="natural" v="hill" />
		<tag k="place" v="locality" />
		<tag k="ssr:stedsnr" v="565709" />
	</node>
	<node lat="70.0441805533074" lon="18.79362222550378" id="-39289">
		<tag k="alt_name" v="Grønnlifjell" />
		<tag k="fixme" v="consider natural=peak for the most distinct mountains in the district" />
		<tag k="name" v="Grønlifjellet" />
		<tag k="natural" v="hill" />
		<tag k="place" v="locality" />
		<tag k="ssr:stedsnr" v="565722" />
	</node>
	<node lat="70.00785000206916" lon="19.86588333246174" id="-39302">
		<tag k="alt_name" v="Ramnbergan" />
		<tag k="name" v="Ramberget" />
		<tag k="place" v="locality" />
		<tag k="ssr:stedsnr" v="571132" />
	</node>
	<node lat="69.98274999925981" lon="19.66123609690951" id="-39305">
		<tag k="name" v="Grønnsletta" />
		<tag k="place" v="locality" />
		<tag k="ssr:stedsnr" v="572164" />
	</node>
	<node lat="69.85468610755004" lon="19.510341649621775" id="-39312">
		<tag k="name" v="Gamsletta" />
		<tag k="place" v="locality" />
		<tag k="ssr:stedsnr" v="595056" />
	</node>
	<node lat="69.92778610719597" lon="19.585624994353353" id="-39318">
		<tag k="name" v="Svarthaugen" />
		<tag k="natural" v="hill" />
		<tag k="place" v="locality" />
		<tag k="ssr:stedsnr" v="596223" />
	</node>
	<node lat="69.99965833550073" lon="19.398216666815397" id="-39319">
		<tag k="name" v="Geithaugen" />
		<tag k="natural" v="hill" />
		<tag k="place" v="locality" />
		<tag k="ssr:stedsnr" v="596160" />
	</node>
	<node lat="69.97813610774305" lon="19.87548608783324" id="-39320">
		<tag k="name" v="Storhaugen" />
		<tag k="natural" v="hill" />
		<tag k="place" v="locality" />
		<tag k="ssr:stedsnr" v="596356" />
	</node>
	<node lat="70.09647777783447" lon="20.03230553509726" id="-39321">
		<tag k="alt_name" v="Lille Jøvikvannhompen" />
		<tag k="name" v="Lille Jøvikvannhumpen" />
		<tag k="natural" v="hill" />
		<tag k="place" v="locality" />
		<tag k="ssr:stedsnr" v="596357" />
	</node>
	<node lat="70.0570555576166" lon="19.90542776066231" id="-39322">
		<tag k="fixme" v="consider natural=peak for the most distinct mountains in the district" />
		<tag k="name" v="Storfjellkollen" />
		<tag k="natural" v="hill" />
		<tag k="place" v="locality" />
		<tag k="ssr:stedsnr" v="596359" />
	</node>
	<node lat="70.12247778223653" lon="19.956188870551653" id="-39323">
		<tag k="name" v="Storbakken" />
		<tag k="natural" v="slope" />
		<tag k="place" v="locality" />
		<tag k="ssr:stedsnr" v="596366" />
	</node>
	<node lat="70.14396666736577" lon="19.714588873844264" id="-39328">
		<tag k="name" v="Fjellklauvhaugen" />
		<tag k="natural" v="hill" />
		<tag k="place" v="locality" />
		<tag k="ssr:stedsnr" v="596465" />
	</node>
	<node lat="70.02850833180632" lon="19.104938870722126" id="-39333">
		<tag k="name" v="Sjurreiret" />
		<tag k="natural" v="hill" />
		<tag k="place" v="locality" />
		<tag k="ssr:stedsnr" v="596768" />
	</node>
	<node lat="70.25091944161214" lon="19.519891669481172" id="-39334">
		<tag k="name" v="Jørnhollet" />
		<tag k="natural" v="valley" />
		<tag k="place" v="locality" />
		<tag k="ssr:stedsnr" v="596803" />
	</node>
	<node lat="69.97359722490597" lon="19.17533054665059" id="-39336">
		<tag k="name" v="Finngamgjoten" />
		<tag k="natural" v="slope" />
		<tag k="place" v="locality" />
		<tag k="ssr:stedsnr" v="596999" />
	</node>
	<node lat="70.00929166353346" lon="19.01506943585414" id="-39337">
		<tag k="name" v="Skoghaugen" />
		<tag k="natural" v="hill" />
		<tag k="place" v="locality" />
		<tag k="ssr:stedsnr" v="597253" />
	</node>
	<node lat="69.96079722514412" lon="19.586166661219877" id="-39339">
		<tag k="name" v="Liåsberget" />
		<tag k="natural" v="hill" />
		<tag k="place" v="locality" />
		<tag k="ssr:stedsnr" v="597260" />
	</node>
	<node lat="70.1228666672074" lon="19.536525002914022" id="-39350">
		<tag k="name" v="Skutvikdalen" />
		<tag k="natural" v="valley" />
		<tag k="place" v="locality" />
		<tag k="ssr:stedsnr" v="625808" />
	</node>
	<node lat="69.85433333690662" lon="19.697619435161446" id="-39351">
		<tag k="name" v="Rabben" />
		<tag k="natural" v="slope" />
		<tag k="place" v="locality" />
		<tag k="ssr:stedsnr" v="625703" />
	</node>
	<node lat="70.05764166392251" lon="18.709836107447117" id="-39352">
		<tag k="fixme" v="consider natural=peak for the most distinct mountains in the district" />
		<tag k="name" v="Helvetestinden" />
		<tag k="natural" v="hill" />
		<tag k="place" v="locality" />
		<tag k="ssr:stedsnr" v="625755" />
	</node>
	<node lat="70.15338333567543" lon="19.704633312468577" id="-39372">
		<tag k="alt_name" v="Stortua" />
		<tag k="fixme" v="consider natural=peak for the most distinct mountains in the district" />
		<tag k="name" v="Stortuva" />
		<tag k="natural" v="hill" />
		<tag k="place" v="locality" />
		<tag k="ssr:stedsnr" v="626853" />
	</node>
	<node lat="69.88078611082771" lon="19.650280558210984" id="-39374">
		<tag k="fixme" v="consider natural=peak for the most distinct mountains in the district" />
		<tag k="name" v="Sløkfjellet" />
		<tag k="natural" v="hill" />
		<tag k="place" v="locality" />
		<tag k="ssr:stedsnr" v="626748" />
	</node>
	<node lat="69.87228889049598" lon="19.31076664827351" id="-39375">
		<tag k="name" v="Bjørnskardalen" />
		<tag k="natural" v="valley" />
		<tag k="place" v="locality" />
		<tag k="ssr:stedsnr" v="626753" />
	</node>
	<node lat="69.86719166459415" lon="19.472763874038787" id="-39376">
		<tag k="name" v="Sennvasshaugen" />
		<tag k="natural" v="hill" />
		<tag k="place" v="locality" />
		<tag k="ssr:stedsnr" v="626755" />
	</node>
	<node lat="70.09525555592616" lon="20.067316658519292" id="-39378">
		<tag k="fixme" v="consider natural=peak for the most distinct mountains in the district" />
		<tag k="name" v="Kvitnesheia" />
		<tag k="natural" v="hill" />
		<tag k="place" v="locality" />
		<tag k="ssr:stedsnr" v="626909" />
	</node>
	<node lat="70.22777222438036" lon="19.553099986540815" id="-39380">
		<tag k="fixme" v="consider natural=peak for the most distinct mountains in the district" />
		<tag k="name" v="Torstinden" />
		<tag k="natural" v="hill" />
		<tag k="place" v="locality" />
		<tag k="ssr:stedsnr" v="631738" />
	</node>
	<node lat="70.23778055861447" lon="20.225841662723827" id="-39384">
		<tag k="loc_name:se" v="Lovkávággi" />
		<tag k="name" v="Laukvikdalen" />
		<tag k="name:no" v="Laukvikdalen" />
		<tag k="natural" v="valley" />
		<tag k="place" v="locality" />
		<tag k="ssr:stedsnr" v="654010" />
	</node>
	<node lat="70.27383888614148" lon="20.24216387636817" id="-39386">
		<tag k="name" v="Kvitbergan" />
		<tag k="natural" v="hill" />
		<tag k="place" v="locality" />
		<tag k="ssr:stedsnr" v="654043" />
	</node>
	<node lat="70.06181944585933" lon="19.800822222770094" id="-39390">
		<tag k="name" v="Vedrabben" />
		<tag k="natural" v="slope" />
		<tag k="place" v="locality" />
		<tag k="ssr:stedsnr" v="656229" />
	</node>
	<node lat="70.05529444195663" lon="19.797572206764148" id="-39391">
		<tag k="name" v="Storhaugen" />
		<tag k="natural" v="hill" />
		<tag k="place" v="locality" />
		<tag k="ssr:stedsnr" v="656232" />
	</node>
	<node lat="69.91121944225472" lon="19.539280553106604" id="-39392">
		<tag k="fixme" v="consider natural=peak for the most distinct mountains in the district" />
		<tag k="name" v="Vattenfjellet" />
		<tag k="natural" v="hill" />
		<tag k="place" v="locality" />
		<tag k="ssr:stedsnr" v="656831" />
	</node>
	<node lat="70.25205833471493" lon="19.520950002347934" id="-39394">
		<tag k="name" v="Bekkhollet" />
		<tag k="natural" v="valley" />
		<tag k="place" v="locality" />
		<tag k="ssr:stedsnr" v="656836" />
	</node>
	<node lat="70.07489444457694" lon="19.35838610341459" id="-39396">
		<tag k="name" v="Arvelia" />
		<tag k="natural" v="slope" />
		<tag k="place" v="locality" />
		<tag k="ssr:stedsnr" v="656888" />
	</node>
	<node lat="69.8972777783165" lon="19.493888877832184" id="-39402">
		<tag k="name" v="Nilslia" />
		<tag k="natural" v="slope" />
		<tag k="place" v="locality" />
		<tag k="ssr:stedsnr" v="657138" />
	</node>
	<node lat="70.05748055409968" lon="19.981913881281404" id="-39408">
		<tag k="fixme" v="consider natural=peak for the most distinct mountains in the district" />
		<tag k="name" v="Andersfjellet" />
		<tag k="natural" v="hill" />
		<tag k="place" v="locality" />
		<tag k="ssr:stedsnr" v="657406" />
	</node>
	<node lat="70.08897222279643" lon="19.70894164957767" id="-39409">
		<tag k="name" v="Storlien" />
		<tag k="natural" v="slope" />
		<tag k="place" v="locality" />
		<tag k="ssr:stedsnr" v="657318" />
	</node>
	<node lat="69.99162777560055" lon="19.769102754219393" id="-39411">
		<tag k="fixme" v="consider natural=peak for the most distinct mountains in the district" />
		<tag k="name" v="Urvannkollen" />
		<tag k="natural" v="hill" />
		<tag k="place" v="locality" />
		<tag k="ssr:stedsnr" v="657332" />
	</node>
	<node lat="70.09294167093158" lon="20.03536388671061" id="-39413">
		<tag k="name" v="Stakkvanndalen" />
		<tag k="natural" v="valley" />
		<tag k="place" v="locality" />
		<tag k="ssr:stedsnr" v="657397" />
	</node>
	<node lat="70.07055833804073" lon="19.94365276875725" id="-39414">
		<tag k="name" v="Pollen" />
		<tag k="natural" v="hill" />
		<tag k="place" v="locality" />
		<tag k="ssr:stedsnr" v="657398" />
	</node>
	<node lat="70.10336111237366" lon="18.99474444320712" id="-39417">
		<tag k="fixme" v="consider natural=peak for the most distinct mountains in the district" />
		<tag k="name" v="Søraksla" />
		<tag k="natural" v="hill" />
		<tag k="place" v="locality" />
		<tag k="ssr:stedsnr" v="657604" />
	</node>
	<node lat="70.2165222239353" lon="19.554002775252993" id="-39418">
		<tag k="name" v="Kuhammaran" />
		<tag k="natural" v="hill" />
		<tag k="place" v="locality" />
		<tag k="ssr:stedsnr" v="657714" />
	</node>
	<node lat="69.95546666692175" lon="19.25291109586676" id="-39419">
		<tag k="fixme" v="consider natural=peak for the most distinct mountains in the district" />
		<tag k="name" v="Vardetua" />
		<tag k="natural" v="hill" />
		<tag k="place" v="locality" />
		<tag k="ssr:stedsnr" v="657717" />
	</node>
	<node lat="70.02923333280266" lon="19.146758319503363" id="-39431">
		<tag k="fixme" v="consider natural=peak for the most distinct mountains in the district" />
		<tag k="name" v="Durmålsfjellet" />
		<tag k="natural" v="hill" />
		<tag k="place" v="locality" />
		<tag k="ssr:stedsnr" v="686688" />
	</node>
	<node lat="70.17001944567865" lon="19.85340554486602" id="-39435">
		<tag k="alt_name" v="Skredkollen" />
		<tag k="fixme" v="consider natural=peak for the most distinct mountains in the district" />
		<tag k="name" v="Skredkallen" />
		<tag k="natural" v="hill" />
		<tag k="place" v="locality" />
		<tag k="ssr:stedsnr" v="686904" />
	</node>
	<node lat="70.00767499920319" lon="19.38589998957605" id="-39436">
		<tag k="name" v="Kollen" />
		<tag k="natural" v="hill" />
		<tag k="place" v="locality" />
		<tag k="ssr:stedsnr" v="686941" />
	</node>
	<node lat="70.15940555718215" lon="19.72613054266642" id="-39447">
		<tag k="fixme" v="consider natural=peak for the most distinct mountains in the district" />
		<tag k="name" v="Måsheia" />
		<tag k="natural" v="hill" />
		<tag k="place" v="locality" />
		<tag k="ssr:stedsnr" v="687842" />
	</node>
	<node lat="70.27921389107053" lon="20.23888610855034" id="-39453">
		<tag k="name" v="Midterrevi" />
		<tag k="natural" v="valley" />
		<tag k="place" v="locality" />
		<tag k="ssr:stedsnr" v="897053" />
	</node>
	<node lat="70.27075555935397" lon="20.223869431774904" id="-39457">
		<tag k="name" v="Gamvikfloget" />
		<tag k="natural" v="hill" />
		<tag k="place" v="locality" />
		<tag k="ssr:stedsnr" v="715025" />
	</node>
	<node lat="70.14531388722553" lon="19.21989999183585" id="-39463">
		<tag k="name" v="Vassurnakken" />
		<tag k="place" v="locality" />
		<tag k="ssr:stedsnr" v="717227" />
	</node>
	<node lat="70.13871944274962" lon="19.856088868743157" id="-39465">
		<tag k="fixme" v="consider natural=peak for the most distinct mountains in the district" />
		<tag k="name" v="Neråsen" />
		<tag k="natural" v="hill" />
		<tag k="place" v="locality" />
		<tag k="ssr:stedsnr" v="717272" />
	</node>
	<node lat="70.13355278178928" lon="19.709513880174924" id="-39466">
		<tag k="name" v="Andershaugen" />
		<tag k="natural" v="hill" />
		<tag k="place" v="locality" />
		<tag k="ssr:stedsnr" v="717279" />
	</node>
	<node lat="70.14485832989142" lon="19.34668887209367" id="-39470">
		<tag k="name" v="Møllarlien" />
		<tag k="natural" v="slope" />
		<tag k="place" v="locality" />
		<tag k="ssr:stedsnr" v="899237" />
	</node>
	<node lat="69.91680833082272" lon="19.450461106504132" id="-39473">
		<tag k="name" v="Kista" />
		<tag k="natural" v="slope" />
		<tag k="place" v="locality" />
		<tag k="ssr:stedsnr" v="717871" />
	</node>
	<node lat="69.99361944590635" lon="19.58996665240782" id="-39477">
		<tag k="name" v="Vedhøggbakken" />
		<tag k="natural" v="slope" />
		<tag k="place" v="locality" />
		<tag k="ssr:stedsnr" v="718021" />
	</node>
</osm>
