<?xml version="1.0" encoding="UTF-8"?>
<osm version="0.6" generator="osmapis">
	<node lat="69.8579055527901" lon="19.65018888421389" id="-99973">
		<tag k="name" v="Vollstad" />
		<tag k="place" v="farm" />
		<tag k="ssr:stedsnr" v="231989" />
	</node>
	<node lat="69.8545916661658" lon="19.630702768971755" id="-99974">
		<tag k="name" v="Steinli" />
		<tag k="place" v="farm" />
		<tag k="ssr:stedsnr" v="231996" />
	</node>
	<node lat="70.09139722075264" lon="19.704422200114962" id="-100026">
		<tag k="name" v="Solvang" />
		<tag k="place" v="isolated_dwelling" />
		<tag k="ssr:stedsnr" v="233348" />
	</node>
	<node lat="69.9140777802109" lon="19.774524986055603" id="-100035">
		<tag k="name" v="Skogheim" />
		<tag k="place" v="farm" />
		<tag k="ssr:stedsnr" v="19506" />
	</node>
	<node lat="69.90876666327827" lon="19.507594446113682" id="-100037">
		<tag k="name" v="Blomli" />
		<tag k="place" v="farm" />
		<tag k="ssr:stedsnr" v="19510" />
	</node>
	<node lat="69.97111111089391" lon="19.63977498196412" id="-100041">
		<tag k="alt_name" v="Nordgård" />
		<tag k="name" v="Nordgard" />
		<tag k="place" v="farm" />
		<tag k="ssr:stedsnr" v="19541" />
	</node>
	<node lat="69.85778888544449" lon="19.723744429141064" id="-100046">
		<tag k="name" v="Nordberg" />
		<tag k="place" v="farm" />
		<tag k="ssr:stedsnr" v="19689" />
	</node>
	<node lat="70.22975086024694" lon="19.7407653026501" id="-100049">
		<tag k="alt_name" v="Burøy" />
		<tag k="name" v="Burøya" />
		<tag k="place" v="farm" />
		<tag k="ssr:stedsnr" v="19842" />
	</node>
	<node lat="70.21359372728712" lon="19.55815103662798" id="-100051">
		<tag k="name" v="Dalan" />
		<tag k="place" v="farm" />
		<tag k="ssr:stedsnr" v="19844" />
	</node>
	<node lat="69.85993889171407" lon="19.39207775871886" id="-100055">
		<tag k="alt_name" v="Bjørnskard, yt;Ytre Bjørnskard" />
		<tag k="name" v="Ytre Bjørnskar" />
		<tag k="place" v="farm" />
		<tag k="ssr:stedsnr" v="19741" />
	</node>
	<node lat="70.00533333024524" lon="19.791305547157485" id="-100080">
		<tag k="name" v="Fauskevollen" />
		<tag k="place" v="farm" />
		<tag k="ssr:stedsnr" v="25124" />
	</node>
	<node lat="69.96802222598524" lon="19.8733083136174" id="-100108">
		<tag k="name" v="Juliustuften" />
		<tag k="place" v="locality" />
		<tag k="ssr:stedsnr" v="51078" />
	</node>
	<node lat="70.08625833121337" lon="19.99882776984446" id="-100134">
		<tag k="name" v="Fredheim" />
		<tag k="place" v="farm" />
		<tag k="ssr:stedsnr" v="79094" />
	</node>
	<node lat="70.25416388713728" lon="19.55159720879172" id="-100138">
		<tag k="alt_name" v="Salstad" />
		<tag k="name" v="Solstad" />
		<tag k="place" v="isolated_dwelling" />
		<tag k="ssr:stedsnr" v="80404" />
	</node>
	<node lat="70.04483333261372" lon="19.52983055532565" id="-100163">
		<tag k="name" v="Brennes" />
		<tag k="place" v="farm" />
		<tag k="ssr:stedsnr" v="87521" />
	</node>
	<node lat="70.00312500292512" lon="19.912058334900937" id="-100185">
		<tag k="name" v="Bjørkely" />
		<tag k="place" v="isolated_dwelling" />
		<tag k="ssr:stedsnr" v="111387" />
	</node>
	<node lat="70.0444249993732" lon="18.874286095537247" id="-100230">
		<tag k="alt_name:no" v="Varvik" />
		<tag k="loc_name:se" v="Várluokta" />
		<tag k="name" v="Sørvardvika" />
		<tag k="name:no" v="Sørvardvika" />
		<tag k="place" v="farm" />
		<tag k="ssr:stedsnr" v="140702" />
	</node>
	<node lat="69.94465278021168" lon="19.64164164900931" id="-100241">
		<tag k="alt_name" v="Torvhatten" />
		<tag k="name" v="Torghatten" />
		<tag k="place" v="farm" />
		<tag k="ssr:stedsnr" v="145519" />
	</node>
	<node lat="70.09090243641238" lon="19.709509330800767" id="-100247">
		<tag k="alt_name" v="Hamre, indre" />
		<tag k="fixme" v="consider place=hamlet" />
		<tag k="name" v="Indre Hamre" />
		<tag k="place" v="farm" />
		<tag k="ssr:stedsnr" v="152205" />
	</node>
	<node lat="70.12414722177648" lon="19.70759443017568" id="-100269">
		<tag k="name" v="Nylund" />
		<tag k="place" v="farm" />
		<tag k="ssr:stedsnr" v="171257" />
	</node>
	<node lat="69.92109444259282" lon="19.52932498014887" id="-100274">
		<tag k="name" v="Lilleng" />
		<tag k="place" v="farm" />
		<tag k="ssr:stedsnr" v="171823" />
	</node>
	<node lat="70.21836111436097" lon="19.516561090978268" id="-100275">
		<tag k="name" v="Berstad" />
		<tag k="place" v="farm" />
		<tag k="ssr:stedsnr" v="171824" />
	</node>
	<node lat="70.04775555296145" lon="19.897602768663585" id="-100300">
		<tag k="name" v="Stakkevoll" />
		<tag k="place" v="isolated_dwelling" />
		<tag k="ssr:stedsnr" v="172455" />
	</node>
	<node lat="70.08600278190671" lon="20.03525276350059" id="-100305">
		<tag k="name" v="Nymoen" />
		<tag k="place" v="farm" />
		<tag k="ssr:stedsnr" v="261077" />
	</node>
	<node lat="70.02516666508325" lon="19.03915278130134" id="-100323">
		<tag k="alt_name" v="Vedhoggarnes" />
		<tag k="name" v="Stakkenes" />
		<tag k="place" v="farm" />
		<tag k="ssr:stedsnr" v="261664" />
	</node>
	<node lat="70.01564722122048" lon="19.578991663299792" id="-100326">
		<tag k="name" v="Vang" />
		<tag k="place" v="farm" />
		<tag k="ssr:stedsnr" v="261926" />
	</node>
	<node lat="70.01774843571194" lon="19.622443532886784" id="-100327">
		<tag k="name" v="Stakkenes" />
		<tag k="place" v="farm" />
		<tag k="ssr:stedsnr" v="261931" />
	</node>
	<node lat="70.01217777742946" lon="19.573677772932793" id="-100328">
		<tag k="name" v="Myre" />
		<tag k="place" v="farm" />
		<tag k="ssr:stedsnr" v="261933" />
	</node>
	<node lat="69.91233333267112" lon="19.481249984466732" id="-100344">
		<tag k="name" v="Sandmo" />
		<tag k="place" v="farm" />
		<tag k="ssr:stedsnr" v="262528" />
	</node>
	<node lat="69.91397136206656" lon="19.48370566732061" id="-100345">
		<tag k="alt_name" v="Elvemo" />
		<tag k="name" v="Elvemoen" />
		<tag k="place" v="farm" />
		<tag k="ssr:stedsnr" v="262530" />
	</node>
	<node lat="69.89433055779021" lon="19.442086097993236" id="-100348">
		<tag k="name" v="Nymoen" />
		<tag k="place" v="farm" />
		<tag k="ssr:stedsnr" v="262540" />
	</node>
	<node lat="70.02083610821808" lon="19.039011098783813" id="-100361">
		<tag k="alt_name" v="Nyvoll" />
		<tag k="name" v="Pålfinngård" />
		<tag k="place" v="farm" />
		<tag k="ssr:stedsnr" v="262680" />
	</node>
	<node lat="69.9916694471598" lon="19.40763611736359" id="-100363">
		<tag k="name" v="Utt" />
		<tag k="place" v="farm" />
		<tag k="ssr:stedsnr" v="262608" />
	</node>
	<node lat="70.1948388926104" lon="19.82733332752831" id="-100385">
		<tag k="name" v="Rotengen" />
		<tag k="place" v="locality" />
		<tag k="ssr:stedsnr" v="262970" />
	</node>
	<node lat="69.99980000477318" lon="19.831977764946686" id="-100400">
		<tag k="name" v="Storvollen" />
		<tag k="place" v="farm" />
		<tag k="ssr:stedsnr" v="201602" />
	</node>
	<node lat="69.97665766813766" lon="19.11408713204724" id="-100408">
		<tag k="name" v="Skoglund" />
		<tag k="place" v="farm" />
		<tag k="ssr:stedsnr" v="201844" />
	</node>
	<node lat="70.20169999706462" lon="19.60539997901415" id="-100409">
		<tag k="name" v="Vollstad" />
		<tag k="place" v="farm" />
		<tag k="ssr:stedsnr" v="201847" />
	</node>
	<node lat="70.10851944759247" lon="20.074363873460936" id="-100414">
		<tag k="alt_name" v="Djupvika" />
		<tag k="name" v="Jøvik" />
		<tag k="place" v="farm" />
		<tag k="ssr:stedsnr" v="201901" />
	</node>
	<node lat="70.11512682615928" lon="19.36293007625435" id="-100419">
		<tag k="fixme" v="consider place=hamlet" />
		<tag k="loc_name:se" v="Áilu" />
		<tag k="name" v="Helgøy" />
		<tag k="name:no" v="Helgøy" />
		<tag k="place" v="farm" />
		<tag k="ssr:stedsnr" v="207539" />
	</node>
	<node lat="70.1009888905991" lon="20.107691656963173" id="-100423">
		<tag k="name" v="Fakkekeila" />
		<tag k="place" v="hamlet" />
		<tag k="ssr:stedsnr" v="208513" />
	</node>
	<node lat="70.01231226504714" lon="18.83922285760467" id="-100430">
		<tag k="name" v="Bokkalar" />
		<tag k="place" v="isolated_dwelling" />
		<tag k="ssr:stedsnr" v="228609" />
	</node>
	<node lat="69.83491111387067" lon="19.436913882901646" id="-100435">
		<tag k="name" v="Nergården" />
		<tag k="place" v="farm" />
		<tag k="ssr:stedsnr" v="230133" />
	</node>
	<node lat="70.05365092068247" lon="19.79544907699138" id="-100477">
		<tag k="name" v="Kvalshausen" />
		<tag k="place" v="farm" />
		<tag k="ssr:stedsnr" v="233378" />
	</node>
	<node lat="69.92176111346487" lon="19.776783330993425" id="-100482">
		<tag k="name" v="Tjeldsand" />
		<tag k="place" v="farm" />
		<tag k="ssr:stedsnr" v="450144" />
	</node>
	<node lat="69.99735832971666" lon="19.540924983996486" id="-100495">
		<tag k="name" v="Solligård" />
		<tag k="place" v="farm" />
		<tag k="ssr:stedsnr" v="261602" />
	</node>
	<node lat="70.13279282057299" lon="19.69197464291734" id="-100499">
		<tag k="name" v="Strande" />
		<tag k="place" v="locality" />
		<tag k="ssr:stedsnr" v="261758" />
	</node>
	<node lat="70.13133452160628" lon="19.701967491771608" id="-100501">
		<tag k="alt_name" v="Gamlegården" />
		<tag k="name" v="Gammelgård" />
		<tag k="place" v="farm" />
		<tag k="ssr:stedsnr" v="261762" />
	</node>
	<node lat="69.9059634926521" lon="19.50417218902982" id="-100512">
		<tag k="alt_name" v="Sommerseth" />
		<tag k="name" v="Sommarset" />
		<tag k="place" v="farm" />
		<tag k="ssr:stedsnr" v="262546" />
	</node>
	<node lat="70.0713111114861" lon="19.29498055206331" id="-100514">
		<tag k="name" v="Karanes" />
		<tag k="place" v="farm" />
		<tag k="ssr:stedsnr" v="262805" />
	</node>
	<node lat="69.95862221904902" lon="19.685286106754983" id="-100520">
		<tag k="fixme" v="consider place=hamlet" />
		<tag k="name" v="Stakkvik" />
		<tag k="place" v="village" />
		<tag k="ssr:stedsnr" v="262596" />
	</node>
	<node lat="69.95317777426236" lon="19.667263888241166" id="-100521">
		<tag k="name" v="Solbakken" />
		<tag k="place" v="farm" />
		<tag k="ssr:stedsnr" v="262597" />
	</node>
	<node lat="70.0538861151476" lon="19.034999998731784" id="-100522">
		<tag k="name" v="Nyvoll" />
		<tag k="place" v="isolated_dwelling" />
		<tag k="ssr:stedsnr" v="262749" />
	</node>
	<node lat="70.12266666328766" lon="19.974036092736508" id="-100532">
		<tag k="fixme" v="consider place=hamlet" />
		<tag k="name" v="Vannavalen" />
		<tag k="place" v="village" />
		<tag k="ssr:stedsnr" v="266904" />
	</node>
	<node lat="69.9892694445941" lon="19.558858314382785" id="-100549">
		<tag k="name" v="Engheim" />
		<tag k="place" v="farm" />
		<tag k="ssr:stedsnr" v="293025" />
	</node>
	<node lat="69.91903055645847" lon="19.78016942406933" id="-100587">
		<tag k="name" v="Nordstrand" />
		<tag k="place" v="farm" />
		<tag k="ssr:stedsnr" v="322502" />
	</node>
	<node lat="69.91995407208518" lon="19.54195141602637" id="-100589">
		<tag k="name" v="Rakkenes" />
		<tag k="place" v="farm" />
		<tag k="ssr:stedsnr" v="322509" />
	</node>
	<node lat="69.9147500011136" lon="19.516147202117132" id="-100590">
		<tag k="name" v="Dyrstad" />
		<tag k="place" v="farm" />
		<tag k="ssr:stedsnr" v="322511" />
	</node>
	<node lat="69.91746944077339" lon="19.48408332667991" id="-100591">
		<tag k="name" v="Rismo" />
		<tag k="place" v="farm" />
		<tag k="ssr:stedsnr" v="322513" />
	</node>
	<node lat="69.93406832490273" lon="19.609685853321153" id="-100594">
		<tag k="name" v="Vollan" />
		<tag k="place" v="farm" />
		<tag k="ssr:stedsnr" v="322537" />
	</node>
	<node lat="69.99107222115654" lon="19.74076944561886" id="-100600">
		<tag k="name" v="Fjellstad" />
		<tag k="place" v="farm" />
		<tag k="ssr:stedsnr" v="322629" />
	</node>
	<node lat="69.84054722445732" lon="19.46809443548455" id="-100602">
		<tag k="alt_name" v="Gammelgard;Gammelgård" />
		<tag k="name" v="Gammelgården" />
		<tag k="place" v="farm" />
		<tag k="ssr:stedsnr" v="322693" />
	</node>
	<node lat="70.0594750000346" lon="19.377749992596737" id="-100606">
		<tag k="name" v="Sjøstrand" />
		<tag k="place" v="farm" />
		<tag k="ssr:stedsnr" v="322977" />
	</node>
	<node lat="69.96018682302075" lon="19.598478739037862" id="-100613">
		<tag k="alt_name" v="Grågard" />
		<tag k="name" v="Grågård" />
		<tag k="place" v="farm" />
		<tag k="ssr:stedsnr" v="323603" />
	</node>
	<node lat="69.97406944074959" lon="19.727452777722032" id="-100615">
		<tag k="name" v="Skog" />
		<tag k="place" v="farm" />
		<tag k="ssr:stedsnr" v="323574" />
	</node>
	<node lat="69.88025555221945" lon="19.753930532806237" id="-100617">
		<tag k="name" v="Skavberg" />
		<tag k="place" v="locality" />
		<tag k="ssr:stedsnr" v="323728" />
	</node>
	<node lat="69.87403333349178" lon="19.75044443580873" id="-100620">
		<tag k="name" v="Flathaug" />
		<tag k="place" v="isolated_dwelling" />
		<tag k="ssr:stedsnr" v="323741" />
	</node>
	<node lat="69.98045277921845" lon="19.866494443664234" id="-100629">
		<tag k="name" v="Elvevoll" />
		<tag k="place" v="farm" />
		<tag k="ssr:stedsnr" v="329472" />
	</node>
	<node lat="70.16968336383647" lon="19.010474524772622" id="-100634">
		<tag k="alt_name:no" v="Måsværet" />
		<tag k="fixme" v="consider place=hamlet" />
		<tag k="name" v="Måsvær - Muosát" />
		<tag k="name:no" v="Måsvær" />
		<tag k="name:se" v="Muosát" />
		<tag k="place" v="farm" />
		<tag k="ssr:stedsnr" v="330620" />
	</node>
	<node lat="70.24847766011091" lon="19.515240813922404" id="-100672">
		<tag k="name" v="Bergmo" />
		<tag k="place" v="farm" />
		<tag k="ssr:stedsnr" v="353802" />
	</node>
	<node lat="70.07978888891174" lon="19.70903886788277" id="-100689">
		<tag k="name" v="Flåten" />
		<tag k="place" v="locality" />
		<tag k="ssr:stedsnr" v="354325" />
	</node>
	<node lat="70.15960555522003" lon="19.802627769963394" id="-100696">
		<tag k="name" v="Sandmo" />
		<tag k="place" v="isolated_dwelling" />
		<tag k="ssr:stedsnr" v="354502" />
	</node>
	<node lat="70.1464916692377" lon="19.680944447975424" id="-100702">
		<tag k="name" v="Dalheim" />
		<tag k="place" v="farm" />
		<tag k="ssr:stedsnr" v="354771" />
	</node>
	<node lat="70.24556388907419" lon="19.49715555288447" id="-100714">
		<tag k="name" v="Myrberg" />
		<tag k="place" v="isolated_dwelling" />
		<tag k="ssr:stedsnr" v="474839" />
	</node>
	<node lat="69.85755405379147" lon="19.646187489544165" id="-100717">
		<tag k="name" v="Sandbakken" />
		<tag k="place" v="farm" />
		<tag k="ssr:stedsnr" v="474996" />
	</node>
	<node lat="70.15392842005585" lon="20.024377072304922" id="-100718">
		<tag k="fixme" v="consider place=hamlet" />
		<tag k="name" v="Skorøy" />
		<tag k="place" v="farm" />
		<tag k="ssr:stedsnr" v="475084" />
	</node>
	<node lat="70.21864999681802" lon="19.72494997989057" id="-100765">
		<tag k="name" v="Fredheim" />
		<tag k="place" v="farm" />
		<tag k="ssr:stedsnr" v="476434" />
	</node>
	<node lat="70.09997397322873" lon="19.03500149339417" id="-100768">
		<tag k="alt_name" v="Hersøy" />
		<tag k="fixme" v="consider place=hamlet" />
		<tag k="name" v="Hersøya" />
		<tag k="place" v="farm" />
		<tag k="ssr:stedsnr" v="382515" />
	</node>
	<node lat="69.96701111207591" lon="19.627516666528223" id="-100778">
		<tag k="name" v="Hansnes" />
		<tag k="place" v="village" />
		<tag k="ssr:stedsnr" v="383605" />
	</node>
	<node lat="69.96414443972652" lon="19.621855556659433" id="-100779">
		<tag k="name" v="Slettmo" />
		<tag k="place" v="farm" />
		<tag k="ssr:stedsnr" v="383606" />
	</node>
	<node lat="69.98737499715224" lon="19.37283054366396" id="-100781">
		<tag k="name" v="Strandeng" />
		<tag k="place" v="farm" />
		<tag k="ssr:stedsnr" v="383613" />
	</node>
	<node lat="69.96086389070295" lon="19.855569423131826" id="-100783">
		<tag k="name" v="Hytta" />
		<tag k="place" v="farm" />
		<tag k="ssr:stedsnr" v="383655" />
	</node>
	<node lat="69.98465278168506" lon="19.858338881402315" id="-100785">
		<tag k="name" v="Bakketun" />
		<tag k="place" v="farm" />
		<tag k="ssr:stedsnr" v="383659" />
	</node>
	<node lat="70.11889721903206" lon="20.019163862473786" id="-100793">
		<tag k="name" v="Sandvik" />
		<tag k="place" v="farm" />
		<tag k="ssr:stedsnr" v="383889" />
	</node>
	<node lat="70.0351305512047" lon="19.411011109701384" id="-100794">
		<tag k="name" v="Sakariasbukta" />
		<tag k="place" v="farm" />
		<tag k="ssr:stedsnr" v="383999" />
	</node>
	<node lat="69.8578777760473" lon="19.653469422047834" id="-100812">
		<tag k="name" v="Elveør" />
		<tag k="place" v="farm" />
		<tag k="ssr:stedsnr" v="413996" />
	</node>
	<node lat="70.13211944645957" lon="19.99911665513714" id="-100853">
		<tag k="name" v="Kristoffervalen" />
		<tag k="place" v="quarter" />
		<tag k="ssr:stedsnr" v="419889" />
	</node>
	<node lat="70.08889722030399" lon="18.985797209041902" id="-100862">
		<tag k="name" v="Haugland" />
		<tag k="place" v="isolated_dwelling" />
		<tag k="ssr:stedsnr" v="444513" />
	</node>
	<node lat="69.98841388798846" lon="19.385866648908944" id="-100865">
		<tag k="name" v="Mellomgard" />
		<tag k="place" v="farm" />
		<tag k="ssr:stedsnr" v="444582" />
	</node>
	<node lat="70.11460833460819" lon="19.57584166043521" id="-100878">
		<tag k="loc_name:se" v="Menášši" />
		<tag k="name" v="Mjønes" />
		<tag k="name:no" v="Mjønes" />
		<tag k="place" v="isolated_dwelling" />
		<tag k="ssr:stedsnr" v="444806" />
	</node>
	<node lat="70.04468055660222" lon="19.27649167299778" id="-100883">
		<tag k="name" v="Steinnes" />
		<tag k="place" v="farm" />
		<tag k="ssr:stedsnr" v="444977" />
	</node>
	<node lat="70.19058055877821" lon="19.622172210295908" id="-100886">
		<tag k="name" v="Korsnesberget" />
		<tag k="place" v="farm" />
		<tag k="ssr:stedsnr" v="444876" />
	</node>
	<node lat="70.15124722076342" lon="20.022936098937937" id="-100899">
		<tag k="name" v="Nygård" />
		<tag k="place" v="isolated_dwelling" />
		<tag k="ssr:stedsnr" v="450875" />
	</node>
	<node lat="69.83760277774336" lon="19.439080556327102" id="-100910">
		<tag k="name" v="Nordheim" />
		<tag k="place" v="isolated_dwelling" />
		<tag k="ssr:stedsnr" v="473010" />
	</node>
	<node lat="70.06284713964106" lon="19.043384200569527" id="-100931">
		<tag k="name" v="Mikkelvik" />
		<tag k="place" v="farm" />
		<tag k="ssr:stedsnr" v="475217" />
	</node>
	<node lat="70.04773823517165" lon="19.895476538082637" id="-100942">
		<tag k="name" v="Stranda" />
		<tag k="place" v="farm" />
		<tag k="ssr:stedsnr" v="504076" />
	</node>
	<node lat="70.17546944151799" lon="19.106780544123897" id="-100946">
		<tag k="alt_name" v="Rundsevoll" />
		<tag k="name" v="Runsevollen" />
		<tag k="place" v="locality" />
		<tag k="ssr:stedsnr" v="504604" />
	</node>
	<node lat="69.99260833459084" lon="19.40458331828427" id="-100947">
		<tag k="alt_name:no" v="Dåfjorden" />
		<tag k="fixme" v="consider place=hamlet" />
		<tag k="loc_name:se" v="Vuollevuotna" />
		<tag k="name" v="Dåfjord" />
		<tag k="name:no" v="Dåfjord" />
		<tag k="place" v="village" />
		<tag k="ssr:stedsnr" v="504605" />
	</node>
	<node lat="69.97861388623184" lon="19.661149977019882" id="-100949">
		<tag k="name" v="Skyttarbu" />
		<tag k="place" v="isolated_dwelling" />
		<tag k="ssr:stedsnr" v="504618" />
	</node>
	<node lat="70.0838749951825" lon="19.161286113594382" id="-100952">
		<tag k="name" v="Nordheim" />
		<tag k="place" v="locality" />
		<tag k="ssr:stedsnr" v="504517" />
	</node>
	<node lat="69.83502777659662" lon="19.35482776891233" id="-100955">
		<tag k="name" v="Glimbukta" />
		<tag k="place" v="farm" />
		<tag k="ssr:stedsnr" v="504708" />
	</node>
	<node lat="70.16163175806314" lon="19.22624401684882" id="-100957">
		<tag k="alt_name" v="Skjervik" />
		<tag k="loc_name" v="Skjærvika" />
		<tag k="name" v="Skjærvik" />
		<tag k="place" v="farm" />
		<tag k="ssr:stedsnr" v="504807" />
	</node>
	<node lat="69.98330910478818" lon="19.103164088237644" id="-100959">
		<tag k="name" v="Lassejorda" />
		<tag k="place" v="locality" />
		<tag k="ssr:stedsnr" v="504872" />
	</node>
	<node lat="70.19725555569188" lon="19.611344427677288" id="-100960">
		<tag k="name" v="Nyvoll" />
		<tag k="place" v="farm" />
		<tag k="ssr:stedsnr" v="504873" />
	</node>
	<node lat="70.11803393726179" lon="19.189820139397398" id="-100966">
		<tag k="fixme" v="consider place=hamlet" />
		<tag k="loc_name:se" v="Ráđigoahti" />
		<tag k="name" v="Rødgammen" />
		<tag k="name:no" v="Rødgammen" />
		<tag k="place" v="farm" />
		<tag k="ssr:stedsnr" v="505564" />
	</node>
	<node lat="69.97196667004584" lon="19.72535832713022" id="-100967">
		<tag k="name" v="Fjellheim" />
		<tag k="place" v="farm" />
		<tag k="ssr:stedsnr" v="505569" />
	</node>
	<node lat="70.03900278130776" lon="19.272577783908318" id="-100968">
		<tag k="name" v="Vassbotn" />
		<tag k="place" v="farm" />
		<tag k="ssr:stedsnr" v="505961" />
	</node>
	<node lat="70.05618889278094" lon="19.782811114332162" id="-100969">
		<tag k="name" v="Ørnnesbukt" />
		<tag k="place" v="farm" />
		<tag k="ssr:stedsnr" v="505968" />
	</node>
	<node lat="69.96606111464926" lon="19.15340276762066" id="-100973">
		<tag k="fixme" v="consider tourism=alpine_hut or tourism=chalet" />
		<tag k="name" v="Skogsfjordvatn Grendehus" />
		<tag k="ssr:stedsnr" v="525163" />
		<tag k="tourism" v="wilderness_hut" />
	</node>
	<node lat="69.84524459441145" lon="19.519415004726614" id="-100987">
		<tag k="alt_name" v="Rottenby" />
		<tag k="name" v="Rottenbyen" />
		<tag k="place" v="hamlet" />
		<tag k="ssr:stedsnr" v="534027" />
	</node>
	<node lat="70.08275000281819" lon="18.723863873159996" id="-101001">
		<tag k="name" v="Breivika" />
		<tag k="place" v="locality" />
		<tag k="ssr:stedsnr" v="686534" />
	</node>
	<node lat="69.99896666394271" lon="19.55999722057225" id="-101005">
		<tag k="name" v="Elvemo" />
		<tag k="place" v="farm" />
		<tag k="ssr:stedsnr" v="536016" />
	</node>
	<node lat="69.92781433230051" lon="19.763743316323023" id="-101027">
		<tag k="name" v="Dalheim" />
		<tag k="place" v="farm" />
		<tag k="ssr:stedsnr" v="686565" />
	</node>
	<node lat="70.02382500003205" lon="18.96825276015184" id="-101041">
		<tag k="name" v="Bakkejord" />
		<tag k="place" v="farm" />
		<tag k="ssr:stedsnr" v="686657" />
	</node>
	<node lat="70.15439612112601" lon="19.912083555741862" id="-101049">
		<tag k="alt_name" v="Svartberg" />
		<tag k="name" v="Svartbergan" />
		<tag k="place" v="farm" />
		<tag k="ssr:stedsnr" v="686927" />
	</node>
	<node lat="69.99124167066384" lon="19.0657499993176" id="-101054">
		<tag k="alt_name" v="Per-Nilsajordet" />
		<tag k="name" v="Pernilsajorda" />
		<tag k="old_name" v="Per Nilsajorda" />
		<tag k="place" v="isolated_dwelling" />
		<tag k="ssr:stedsnr" v="687170" />
	</node>
	<node lat="69.91113056014547" lon="19.772488878606854" id="-101065">
		<tag k="name" v="Bjerkåker" />
		<tag k="place" v="farm" />
		<tag k="ssr:stedsnr" v="687521" />
	</node>
	<node lat="69.90655721599411" lon="19.76719389265225" id="-101066">
		<tag k="fixme" v="consider place=hamlet" />
		<tag k="name" v="Søreidet" />
		<tag k="place" v="farm" />
		<tag k="ssr:stedsnr" v="687522" />
	</node>
	<node lat="69.9896888863716" lon="19.738397205652035" id="-101071">
		<tag k="name" v="Prestøra" />
		<tag k="place" v="farm" />
		<tag k="ssr:stedsnr" v="687627" />
	</node>
	<node lat="70.04475277849636" lon="18.879116670246404" id="-101076">
		<tag k="name" v="Elvevoll" />
		<tag k="place" v="farm" />
		<tag k="ssr:stedsnr" v="687717" />
	</node>
	<node lat="70.04093055497874" lon="18.81974999268909" id="-101077">
		<tag k="name" v="Nyheim" />
		<tag k="place" v="farm" />
		<tag k="ssr:stedsnr" v="687721" />
	</node>
	<node lat="69.95816944381103" lon="19.850202777479634" id="-101078">
		<tag k="name" v="Mellomvollen" />
		<tag k="place" v="farm" />
		<tag k="ssr:stedsnr" v="687660" />
	</node>
	<node lat="70.16198399984658" lon="19.6706429494353" id="-101086">
		<tag k="alt_name" v="Olkelva" />
		<tag k="name" v="Olkelv" />
		<tag k="place" v="farm" />
		<tag k="ssr:stedsnr" v="687847" />
	</node>
	<node lat="70.02548333494519" lon="19.08976944503934" id="-101097">
		<tag k="name" v="Fredheim" />
		<tag k="place" v="farm" />
		<tag k="ssr:stedsnr" v="564670" />
	</node>
	<node lat="70.04591666479563" lon="19.044638894556726" id="-101107">
		<tag k="name" v="Nyheim" />
		<tag k="place" v="farm" />
		<tag k="ssr:stedsnr" v="565714" />
	</node>
	<node lat="70.05635555477453" lon="19.03714720896506" id="-101109">
		<tag k="alt_name" v="Mariagård" />
		<tag k="name" v="Mariagården" />
		<tag k="place" v="farm" />
		<tag k="ssr:stedsnr" v="565730" />
	</node>
	<node lat="70.1129666686716" lon="19.363719448856877" id="-101110">
		<tag k="name" v="Kjerkevik" />
		<tag k="place" v="hamlet" />
		<tag k="ssr:stedsnr" v="565816" />
	</node>
	<node lat="70.16323332996984" lon="19.80194164745935" id="-101146">
		<tag k="name" v="Fuglevik" />
		<tag k="place" v="locality" />
		<tag k="ssr:stedsnr" v="596458" />
	</node>
	<node lat="70.09036281455921" lon="20.064312875898505" id="-101161">
		<tag k="name" v="Gjerdet" />
		<tag k="place" v="hamlet" />
		<tag k="ssr:stedsnr" v="625086" />
	</node>
	<node lat="70.08973055500289" lon="18.929763871933165" id="-101164">
		<tag k="loc_name:se" v="Duoktovuotna" />
		<tag k="name" v="Toftefjorden" />
		<tag k="name:no" v="Toftefjorden" />
		<tag k="place" v="farm" />
		<tag k="ssr:stedsnr" v="625509" />
	</node>
	<node lat="70.01843660645496" lon="18.961088261401386" id="-101167">
		<tag k="alt_name" v="Grunnfjord" />
		<tag k="fixme" v="consider place=hamlet" />
		<tag k="name" v="Sør-Grunnfjord" />
		<tag k="old_name" v="Sørgrunnfjord" />
		<tag k="place" v="farm" />
		<tag k="ssr:stedsnr" v="625655" />
	</node>
	<node lat="70.07731666496447" lon="19.15315000069651" id="-101172">
		<tag k="name" v="Engenes" />
		<tag k="place" v="farm" />
		<tag k="ssr:stedsnr" v="625760" />
	</node>
	<node lat="70.1608499977641" lon="19.89232498312647" id="-101175">
		<tag k="alt_name" v="Laukvika" />
		<tag k="name" v="Laukvik" />
		<tag k="place" v="locality" />
		<tag k="ssr:stedsnr" v="625907" />
	</node>
	<node lat="69.95835277706036" lon="19.591163866535553" id="-101185">
		<tag k="name" v="Futnes" />
		<tag k="place" v="farm" />
		<tag k="ssr:stedsnr" v="626610" />
	</node>
	<node lat="70.04974333948708" lon="18.918244533508943" id="-101189">
		<tag k="fixme" v="consider place=hamlet" />
		<tag k="loc_name:se" v="Ruobbánášši" />
		<tag k="name" v="Rebbenes" />
		<tag k="name:no" v="Rebbenes" />
		<tag k="place" v="farm" />
		<tag k="ssr:stedsnr" v="626512" />
	</node>
	<node lat="70.12356389362036" lon="19.97419443257146" id="-101192">
		<tag k="name" v="Storelva" />
		<tag k="place" v="farm" />
		<tag k="ssr:stedsnr" v="626900" />
	</node>
	<node lat="70.03586944171592" lon="19.07866944524073" id="-101202">
		<tag k="name" v="Sjåberg" />
		<tag k="place" v="isolated_dwelling" />
		<tag k="ssr:stedsnr" v="653221" />
	</node>
	<node lat="70.16347913446299" lon="19.226828534783778" id="-101208">
		<tag k="fixme" v="consider place=hamlet" />
		<tag k="loc_name:se" v="Finsivlu" />
		<tag k="name" v="Finnsula" />
		<tag k="name:no" v="Finnsula" />
		<tag k="place" v="farm" />
		<tag k="ssr:stedsnr" v="656224" />
	</node>
	<node lat="70.01955556010728" lon="19.861502764492215" id="-101242">
		<tag k="name" v="Arvik" />
		<tag k="place" v="farm" />
		<tag k="ssr:stedsnr" v="686101" />
	</node>
	<node lat="69.98282777646544" lon="19.537780550240228" id="-101306">
		<tag k="name" v="Uteng" />
		<tag k="place" v="farm" />
		<tag k="ssr:stedsnr" v="718206" />
	</node>
	<node lat="69.85318769657354" lon="19.624676320031384" id="-101347">
		<tag k="name" v="Bjørkeng" />
		<tag k="place" v="farm" />
		<tag k="ssr:stedsnr" v="899997" />
	</node>
	<node lat="70.24667500343793" lon="19.49786943590202" id="-101392">
		<tag k="name" v="Heimen" />
		<tag k="place" v="locality" />
		<tag k="ssr:stedsnr" v="900816" />
	</node>
	<node lat="70.06511388782708" lon="19.03895000458976" id="-101393">
		<tag k="name" v="Solberg" />
		<tag k="place" v="farm" />
		<tag k="ssr:stedsnr" v="900780" />
	</node>
	<node lat="70.00266389311147" lon="19.889427758817575" id="-101410">
		<tag k="fixme" v="consider place=hamlet" />
		<tag k="loc_name:no" v="Karlsøya" />
		<tag k="loc_name:se" v="Gálsá" />
		<tag k="name" v="Karlsøy" />
		<tag k="name:no" v="Karlsøy" />
		<tag k="place" v="village" />
		<tag k="ssr:stedsnr" v="747105" />
	</node>
	<node lat="69.9924333339526" lon="19.560566654929843" id="-101420">
		<tag k="alt_name" v="Grunnfjord" />
		<tag k="fixme" v="consider place=hamlet" />
		<tag k="name" v="Grunnfjorden" />
		<tag k="place" v="village" />
		<tag k="ssr:stedsnr" v="747609" />
	</node>
	<node lat="70.112341667439" lon="19.3851694443682" id="-101424">
		<tag k="name" v="Mølnnes" />
		<tag k="place" v="farm" />
		<tag k="ssr:stedsnr" v="747813" />
	</node>
	<node lat="69.9808111158667" lon="19.107888873124494" id="-101435">
		<tag k="name" v="Bakkevoll" />
		<tag k="place" v="farm" />
		<tag k="ssr:stedsnr" v="747872" />
	</node>
	<node lat="70.10114444701792" lon="19.570052761679108" id="-101445">
		<tag k="alt_name" v="Finnstøen" />
		<tag k="name" v="Finnstø" />
		<tag k="old_name" v="Finnstøa" />
		<tag k="place" v="farm" />
		<tag k="ssr:stedsnr" v="754555" />
	</node>
	<node lat="69.83501666375183" lon="19.427727777136845" id="-101454">
		<tag k="name" v="Utnes" />
		<tag k="place" v="farm" />
		<tag k="ssr:stedsnr" v="777120" />
	</node>
	<node lat="70.2192166647146" lon="19.51703055614743" id="-101484">
		<tag k="name" v="Solvik" />
		<tag k="place" v="farm" />
		<tag k="ssr:stedsnr" v="778808" />
	</node>
	<node lat="69.97390555660432" lon="19.120519434080816" id="-101502">
		<tag k="name" v="Myrvang" />
		<tag k="place" v="farm" />
		<tag k="ssr:stedsnr" v="779904" />
	</node>
	<node lat="69.93236944296143" lon="19.485858312738376" id="-101510">
		<tag k="name" v="Kjosvoll" />
		<tag k="place" v="farm" />
		<tag k="ssr:stedsnr" v="808520" />
	</node>
	<node lat="69.92755555464836" lon="19.791144444477897" id="-101517">
		<tag k="name" v="Toften" />
		<tag k="place" v="farm" />
		<tag k="ssr:stedsnr" v="808536" />
	</node>
	<node lat="70.11856388874429" lon="18.962597218335233" id="-101519">
		<tag k="name" v="Hersøygård" />
		<tag k="place" v="farm" />
		<tag k="ssr:stedsnr" v="808545" />
	</node>
	<node lat="70.24001389015449" lon="19.713194430343005" id="-101521">
		<tag k="name" v="Solheim" />
		<tag k="place" v="farm" />
		<tag k="ssr:stedsnr" v="808637" />
	</node>
	<node lat="69.9643166650242" lon="19.160180556349207" id="-101528">
		<tag k="alt_name" v="Småsletten" />
		<tag k="name" v="Småsletta" />
		<tag k="place" v="farm" />
		<tag k="ssr:stedsnr" v="808847" />
	</node>
	<node lat="70.22839869658257" lon="19.73043812341462" id="-101531">
		<tag k="alt_name" v="Bergland" />
		<tag k="name" v="Berglund" />
		<tag k="place" v="locality" />
		<tag k="ssr:stedsnr" v="808851" />
	</node>
	<node lat="69.96336388791471" lon="19.16439998190366" id="-101532">
		<tag k="name" v="Langbakkmoen" />
		<tag k="place" v="farm" />
		<tag k="ssr:stedsnr" v="808852" />
	</node>
	<node lat="69.9882833304191" lon="19.365538888632113" id="-101536">
		<tag k="name" v="Elva" />
		<tag k="place" v="farm" />
		<tag k="ssr:stedsnr" v="808593" />
	</node>
	<node lat="70.0453527795299" lon="18.892822211516716" id="-101538">
		<tag k="alt_name:no" v="Varvik" />
		<tag k="loc_name:se" v="Várluokta" />
		<tag k="name" v="Nordvardvika" />
		<tag k="name:no" v="Nordvardvika" />
		<tag k="place" v="farm" />
		<tag k="ssr:stedsnr" v="808704" />
	</node>
	<node lat="69.94567777434526" lon="19.468569433263664" id="-101549">
		<tag k="fixme" v="consider place=hamlet" />
		<tag k="name" v="Hessfjord" />
		<tag k="place" v="village" />
		<tag k="ssr:stedsnr" v="815880" />
	</node>
	<node lat="70.134358336725" lon="19.992702760461924" id="-101587">
		<tag k="name" v="Kristoffervalen" />
		<tag k="place" v="quarter" />
		<tag k="ssr:stedsnr" v="844906" />
	</node>
	<node lat="70.05419147625967" lon="19.863184219746323" id="-101595">
		<tag k="fixme" v="consider place=hamlet" />
		<tag k="name" v="Skåningen" />
		<tag k="place" v="farm" />
		<tag k="ssr:stedsnr" v="929065" />
	</node>
	<node lat="70.13301388082166" lon="19.698481468056425" id="-101602">
		<tag k="alt_name" v="Hamre, ytre" />
		<tag k="fixme" v="multiple name tags, choose one and add the other to alt_name; consider place=hamlet" />
		<tag k="name" v="Hamre;Ytre Hamre" />
		<tag k="place" v="farm" />
		<tag k="ssr:stedsnr" v="929782" />
	</node>
	<node lat="69.99192777474737" lon="19.40156110044785" id="-101621">
		<tag k="alt_name" v="Breidvollen" />
		<tag k="name" v="Breivold" />
		<tag k="place" v="farm" />
		<tag k="ssr:stedsnr" v="929577" />
	</node>
	<node lat="69.99798056011963" lon="19.38813332335317" id="-101622">
		<tag k="name" v="Nystrand" />
		<tag k="place" v="isolated_dwelling" />
		<tag k="ssr:stedsnr" v="929584" />
	</node>
	<node lat="69.98546666516516" lon="19.54456109313703" id="-101623">
		<tag k="alt_name" v="Grunnfjordbotn" />
		<tag k="name" v="Botn" />
		<tag k="place" v="farm" />
		<tag k="ssr:stedsnr" v="929597" />
	</node>
	<node lat="70.01384167017603" lon="19.063038891696976" id="-101625">
		<tag k="name" v="Bekkevoll" />
		<tag k="place" v="farm" />
		<tag k="ssr:stedsnr" v="929620" />
	</node>
	<node lat="70.02747222187352" lon="18.868725005428182" id="-101626">
		<tag k="alt_name" v="Futjorda" />
		<tag k="name" v="Futjord" />
		<tag k="place" v="isolated_dwelling" />
		<tag k="ssr:stedsnr" v="929661" />
	</node>
	<node lat="69.94570555450939" lon="19.645988891031017" id="-101629">
		<tag k="name" v="Skoglund" />
		<tag k="place" v="isolated_dwelling" />
		<tag k="ssr:stedsnr" v="929524" />
	</node>
	<node lat="69.92319444509148" lon="19.537274979674688" id="-101631">
		<tag k="name" v="Karielv" />
		<tag k="place" v="farm" />
		<tag k="ssr:stedsnr" v="929529" />
	</node>
	<node lat="69.92871111378217" lon="19.487338882087545" id="-101643">
		<tag k="name" v="Lanes" />
		<tag k="place" v="farm" />
		<tag k="ssr:stedsnr" v="868526" />
	</node>
	<node lat="70.25472500174165" lon="19.551249980483977" id="-101648">
		<tag k="name" v="Sandfjorden" />
		<tag k="place" v="isolated_dwelling" />
		<tag k="ssr:stedsnr" v="869438" />
	</node>
	<node lat="69.98315149146889" lon="19.8578996873781" id="-101651">
		<tag k="alt_name" v="Reinsvoll" />
		<tag k="fixme" v="consider place=hamlet" />
		<tag k="name" v="Reinsvollen" />
		<tag k="place" v="farm" />
		<tag k="ssr:stedsnr" v="869672" />
	</node>
	<node lat="70.18686111595309" lon="19.628016654787398" id="-101654">
		<tag k="name" v="Nordheim" />
		<tag k="place" v="farm" />
		<tag k="ssr:stedsnr" v="869839" />
	</node>
	<node lat="69.93208055973031" lon="19.793424982724012" id="-101657">
		<tag k="name" v="Bomstad" />
		<tag k="place" v="farm" />
		<tag k="ssr:stedsnr" v="869581" />
	</node>
	<node lat="70.11159444406856" lon="19.12899165894918" id="-101670">
		<tag k="name" v="Luneborg" />
		<tag k="place" v="farm" />
		<tag k="ssr:stedsnr" v="930573" />
	</node>
	<node lat="69.94909999555892" lon="19.496297219164678" id="-101674">
		<tag k="name" v="Skognes" />
		<tag k="place" v="farm" />
		<tag k="ssr:stedsnr" v="930614" />
	</node>
	<node lat="70.04179444701013" lon="18.823505556203887" id="-101685">
		<tag k="alt_name" v="Ribbenesbotn" />
		<tag k="name" v="Rebbenesbotn" />
		<tag k="place" v="farm" />
		<tag k="ssr:stedsnr" v="930738" />
	</node>
	<node lat="69.88019722252442" lon="19.45918332490592" id="-101686">
		<tag k="name" v="Skogli" />
		<tag k="place" v="isolated_dwelling" />
		<tag k="ssr:stedsnr" v="930758" />
	</node>
	<node lat="69.8647136930727" lon="19.44213036255032" id="-101689">
		<tag k="name" v="Ytregard" />
		<tag k="place" v="farm" />
		<tag k="ssr:stedsnr" v="930776" />
	</node>
	<node lat="70.2219378898287" lon="19.512430475923107" id="-101691">
		<tag k="alt_name" v="Klemmetsvik;Klemnesvik" />
		<tag k="name" v="Klemetsvik" />
		<tag k="place" v="farm" />
		<tag k="ssr:stedsnr" v="930856" />
	</node>
	<node lat="70.2183666682292" lon="19.23488331774541" id="-101692">
		<tag k="alt_name" v="Nordskard;Nordskardet" />
		<tag k="name" v="Nordskaret" />
		<tag k="place" v="farm" />
		<tag k="ssr:stedsnr" v="930864" />
	</node>
	<node lat="70.22763333662235" lon="19.729263879845007" id="-101693">
		<tag k="fixme" v="consider place=hamlet" />
		<tag k="loc_name:se" v="Burinuorri" />
		<tag k="name" v="Burøysund" />
		<tag k="name:no" v="Burøysund" />
		<tag k="place" v="village" />
		<tag k="ssr:stedsnr" v="930869" />
	</node>
	<node lat="70.1711194452709" lon="19.658925000930786" id="-101694">
		<tag k="name" v="Solstrand" />
		<tag k="place" v="locality" />
		<tag k="ssr:stedsnr" v="930836" />
	</node>
	<node lat="70.04083055942105" lon="19.427686108354358" id="-101695">
		<tag k="name" v="Håkaby" />
		<tag k="place" v="farm" />
		<tag k="ssr:stedsnr" v="930968" />
	</node>
	<node lat="69.89621389022525" lon="19.12823332860967" id="-101699">
		<tag k="fixme" v="consider tourism=alpine_hut or tourism=chalet" />
		<tag k="name" v="Ringvassbu" />
		<tag k="old_name" v="Ringvassbua" />
		<tag k="ssr:stedsnr" v="931446" />
		<tag k="tourism" v="wilderness_hut" />
	</node>
	<node lat="69.83521666582628" lon="19.424774995407496" id="-101708">
		<tag k="name" v="Fjellheim" />
		<tag k="place" v="farm" />
		<tag k="ssr:stedsnr" v="898114" />
	</node>
	<node lat="69.85905277401497" lon="19.437102772491247" id="-101709">
		<tag k="name" v="Engset" />
		<tag k="place" v="farm" />
		<tag k="ssr:stedsnr" v="899120" />
	</node>
	<node lat="69.84705469500597" lon="19.539159520136437" id="-101710">
		<tag k="name" v="Sætermoen" />
		<tag k="place" v="farm" />
		<tag k="ssr:stedsnr" v="899061" />
	</node>
	<node lat="70.00767777436585" lon="19.886894441073213" id="-101748">
		<tag k="name" v="Liland" />
		<tag k="place" v="farm" />
		<tag k="ssr:stedsnr" v="929110" />
	</node>
	<node lat="70.00373333496469" lon="19.88169999408395" id="-101749">
		<tag k="name" v="Hellenes" />
		<tag k="place" v="farm" />
		<tag k="ssr:stedsnr" v="929114" />
	</node>
	<node lat="69.89207499626181" lon="19.435908324226887" id="-101758">
		<tag k="name" v="Kopparelv" />
		<tag k="place" v="farm" />
		<tag k="ssr:stedsnr" v="929711" />
	</node>
	<node lat="69.96776388893197" lon="19.158491648389525" id="-101763">
		<tag k="name" v="Bjørkli" />
		<tag k="place" v="farm" />
		<tag k="ssr:stedsnr" v="929856" />
	</node>
	<node lat="70.01931944077046" lon="19.59017499976705" id="-101766">
		<tag k="loc_name:se" v="Ábivuotna" />
		<tag k="name" v="Grunnfjord" />
		<tag k="name:no" v="Grunnfjord" />
		<tag k="place" v="farm" />
		<tag k="ssr:stedsnr" v="929951" />
	</node>
	<node lat="70.22998333320648" lon="19.229602776203397" id="-101840">
		<tag k="name" v="Nordskaret" />
		<tag k="place" v="farm" />
		<tag k="ssr:stedsnr" v="970084" />
	</node>
	<node lat="70.00328898944433" lon="19.894776332973642" id="-101842">
		<tag k="alt_name:no" v="Kalsø Præstegård" />
		<tag k="fixme" v="consider place=hamlet" />
		<tag k="loc_name:no" v="Karlsøya prestegård" />
		<tag k="name" v="Karlsøy prestegård - Gálsá" />
		<tag k="name:no" v="Karlsøy prestegård" />
		<tag k="name:se" v="Gálsá" />
		<tag k="place" v="farm" />
		<tag k="ssr:stedsnr" v="984357" />
	</node>
	<node lat="69.99966667034234" lon="19.558641664984293" id="-101843">
		<tag k="name" v="Sandbakka" />
		<tag k="place" v="farm" />
		<tag k="ssr:stedsnr" v="18567" />
	</node>
	<node lat="70.00953888682011" lon="19.895024992114056" id="-101847">
		<tag k="name" v="Myrvang" />
		<tag k="place" v="farm" />
		<tag k="ssr:stedsnr" v="19109" />
	</node>
	<node lat="69.90573055143788" lon="19.475430557047662" id="-101871">
		<tag k="name" v="Blomlund" />
		<tag k="place" v="farm" />
		<tag k="ssr:stedsnr" v="19488" />
	</node>
	<node lat="69.9539166697016" lon="19.527974989262436" id="-101874">
		<tag k="alt_name" v="Lauvslett" />
		<tag k="name" v="Lauvsletta" />
		<tag k="place" v="farm" />
		<tag k="ssr:stedsnr" v="19555" />
	</node>
	<node lat="69.97961111540404" lon="19.877577775879377" id="-101881">
		<tag k="alt_name" v="Gammelgarden" />
		<tag k="name" v="Gammelgård" />
		<tag k="place" v="farm" />
		<tag k="ssr:stedsnr" v="19619" />
	</node>
	<node lat="70.04430555266089" lon="18.84910554741264" id="-101885">
		<tag k="name" v="Grønslett" />
		<tag k="place" v="farm" />
		<tag k="ssr:stedsnr" v="19707" />
	</node>
	<node lat="69.98494166467862" lon="19.669188877294786" id="-101891">
		<tag k="name" v="Brakke" />
		<tag k="place" v="isolated_dwelling" />
		<tag k="ssr:stedsnr" v="19588" />
	</node>
	<node lat="70.03476823739497" lon="19.094374229342854" id="-101894">
		<tag k="fixme" v="consider place=hamlet" />
		<tag k="name" v="Skogsfjord" />
		<tag k="place" v="farm" />
		<tag k="ssr:stedsnr" v="19672" />
	</node>
	<node lat="69.84886944703273" lon="19.371327764458012" id="-101896">
		<tag k="alt_name" v="Bjørnskard, in;Indre Bjørnskard" />
		<tag k="fixme" v="multiple name tags, choose one and add the other to alt_name" />
		<tag k="name" v="Bjørnskar;Indre Bjørnskar" />
		<tag k="old_name" v="Bjørnskard" />
		<tag k="place" v="farm" />
		<tag k="ssr:stedsnr" v="19675" />
	</node>
	<node lat="70.06561944032862" lon="19.079016670254475" id="-101899">
		<tag k="name" v="Finnenga" />
		<tag k="place" v="locality" />
		<tag k="ssr:stedsnr" v="19729" />
	</node>
	<node lat="70.15847499603697" lon="19.76340276507784" id="-101906">
		<tag k="name" v="Sandkroken" />
		<tag k="place" v="farm" />
		<tag k="ssr:stedsnr" v="19825" />
	</node>
	<node lat="70.1441108534906" lon="19.66861978287334" id="-101916">
		<tag k="name" v="Bekkestrand" />
		<tag k="place" v="farm" />
		<tag k="ssr:stedsnr" v="19781" />
	</node>
	<node lat="70.19864167021404" lon="19.60587220652898" id="-101921">
		<tag k="name" v="Kvilelva" />
		<tag k="place" v="farm" />
		<tag k="ssr:stedsnr" v="19867" />
	</node>
	<node lat="70.11736667033523" lon="20.038813874584694" id="-101924">
		<tag k="alt_name" v="Stuvik" />
		<tag k="name" v="Stuvika" />
		<tag k="place" v="farm" />
		<tag k="ssr:stedsnr" v="19872" />
	</node>
	<node lat="70.15312500142029" lon="20.020391665553504" id="-101926">
		<tag k="name" v="Været" />
		<tag k="place" v="locality" />
		<tag k="ssr:stedsnr" v="19929" />
	</node>
	<node lat="70.19643055354797" lon="19.868813882966723" id="-101927">
		<tag k="alt_name" v="Ystelad" />
		<tag k="name" v="Ystelade" />
		<tag k="place" v="farm" />
		<tag k="ssr:stedsnr" v="19948" />
	</node>
	<node lat="70.00207499711813" lon="19.38288333270096" id="-101928">
		<tag k="alt_name" v="Steinvoll" />
		<tag k="name" v="Steinvollen" />
		<tag k="place" v="farm" />
		<tag k="ssr:stedsnr" v="19954" />
	</node>
	<node lat="69.98008055565761" lon="19.869241660722043" id="-101945">
		<tag k="name" v="Lilleeng" />
		<tag k="place" v="farm" />
		<tag k="ssr:stedsnr" v="25457" />
	</node>
	<node lat="70.27258333630193" lon="20.248608319518947" id="-101947">
		<tag k="name" v="Ytre Gamvik" />
		<tag k="place" v="locality" />
		<tag k="ssr:stedsnr" v="29166" />
	</node>
	<node lat="69.85939166874603" lon="19.658030534314914" id="-101966">
		<tag k="name" v="Molund" />
		<tag k="place" v="isolated_dwelling" />
		<tag k="ssr:stedsnr" v="49994" />
	</node>
	<node lat="69.85817823687954" lon="19.658040667980796" id="-101967">
		<tag k="name" v="Elvelund" />
		<tag k="place" v="farm" />
		<tag k="ssr:stedsnr" v="49996" />
	</node>
	<node lat="69.99367222673997" lon="19.560886093665875" id="-101969">
		<tag k="name" v="Solvang" />
		<tag k="place" v="farm" />
		<tag k="ssr:stedsnr" v="50016" />
	</node>
	<node lat="70.09160555609962" lon="19.699538887630208" id="-101997">
		<tag k="name" v="Bergstad" />
		<tag k="place" v="locality" />
		<tag k="ssr:stedsnr" v="50825" />
	</node>
	<node lat="69.95456601291632" lon="19.84515219550808" id="-102049">
		<tag k="name" v="Bergland" />
		<tag k="place" v="farm" />
		<tag k="ssr:stedsnr" v="80652" />
	</node>
	<node lat="70.01578730174381" lon="19.04101421180655" id="-102050">
		<tag k="name" v="Vangberg" />
		<tag k="place" v="farm" />
		<tag k="ssr:stedsnr" v="80664" />
	</node>
	<node lat="70.16653611026953" lon="19.03886388501327" id="-102052">
		<tag k="name" v="Kopparnes" />
		<tag k="place" v="locality" />
		<tag k="ssr:stedsnr" v="80614" />
	</node>
	<node lat="70.1204527817105" lon="19.08968053993143" id="-102060">
		<tag k="name" v="Ytrevika" />
		<tag k="place" v="farm" />
		<tag k="ssr:stedsnr" v="80565" />
	</node>
	<node lat="70.12717778149265" lon="19.0754277794152" id="-102063">
		<tag k="name" v="Solstad" />
		<tag k="place" v="farm" />
		<tag k="ssr:stedsnr" v="80582" />
	</node>
	<node lat="69.95856111376784" lon="19.571358317267993" id="-102064">
		<tag k="alt_name" v="Steinvollen" />
		<tag k="name" v="Steinvoll" />
		<tag k="place" v="farm" />
		<tag k="ssr:stedsnr" v="80585" />
	</node>
	<node lat="70.08036604364887" lon="19.710720657721794" id="-102069">
		<tag k="fixme" v="consider place=hamlet" />
		<tag k="name" v="Kammen" />
		<tag k="place" v="farm" />
		<tag k="ssr:stedsnr" v="80779" />
	</node>
	<node lat="70.0788777779318" lon="19.710805537882333" id="-102070">
		<tag k="name" v="Fjellheim" />
		<tag k="place" v="isolated_dwelling" />
		<tag k="ssr:stedsnr" v="80783" />
	</node>
	<node lat="69.96976688782848" lon="19.139454660703542" id="-102088">
		<tag k="fixme" v="consider place=hamlet" />
		<tag k="name" v="Steinsund" />
		<tag k="place" v="farm" />
		<tag k="ssr:stedsnr" v="80867" />
	</node>
	<node lat="70.20259329757499" lon="19.606909275364522" id="-102092">
		<tag k="alt_name" v="Vannareid" />
		<tag k="fixme" v="consider place=hamlet" />
		<tag k="name" v="Vannareidet" />
		<tag k="place" v="farm" />
		<tag k="ssr:stedsnr" v="80881" />
	</node>
	<node lat="70.19129802342778" lon="18.87254663169977" id="-102109">
		<tag k="alt_name:no" v="Grøtøy nordre" />
		<tag k="loc_name:se" v="Nuorta Rifta" />
		<tag k="name" v="Nordgrøtøya" />
		<tag k="name:no" v="Nordgrøtøya" />
		<tag k="place" v="locality" />
		<tag k="ssr:stedsnr" v="87615" />
	</node>
	<node lat="70.1847638854274" lon="19.632447205681554" id="-102112">
		<tag k="name" v="Kokkevoll" />
		<tag k="place" v="hamlet" />
		<tag k="ssr:stedsnr" v="91848" />
	</node>
	<node lat="69.96105751520912" lon="19.597933651065432" id="-102185">
		<tag k="fixme" v="consider place=hamlet" />
		<tag k="name" v="Grågården" />
		<tag k="place" v="farm" />
		<tag k="ssr:stedsnr" v="112275" />
	</node>
	<node lat="70.02507778083867" lon="18.96997499667127" id="-102201">
		<tag k="name" v="Slettvoll" />
		<tag k="place" v="farm" />
		<tag k="ssr:stedsnr" v="140670" />
	</node>
	<node lat="70.09259357134786" lon="20.08441661300448" id="-102203">
		<tag k="fixme" v="consider place=hamlet" />
		<tag k="name" v="Kvitnes" />
		<tag k="place" v="farm" />
		<tag k="ssr:stedsnr" v="140077" />
	</node>
	<node lat="70.08476110986511" lon="20.016091647341064" id="-102204">
		<tag k="name" v="Myrset" />
		<tag k="place" v="farm" />
		<tag k="ssr:stedsnr" v="140081" />
	</node>
	<node lat="70.07896388650803" lon="19.996013866694206" id="-102206">
		<tag k="name" v="Munkevika" />
		<tag k="place" v="farm" />
		<tag k="ssr:stedsnr" v="140084" />
	</node>
	<node lat="69.9468750036443" lon="19.65008610139134" id="-102226">
		<tag k="name" v="Bakketun" />
		<tag k="place" v="farm" />
		<tag k="ssr:stedsnr" v="140517" />
	</node>
	<node lat="69.9288194442801" lon="19.791883327329778" id="-102227">
		<tag k="name" v="Berg" />
		<tag k="place" v="farm" />
		<tag k="ssr:stedsnr" v="140528" />
	</node>
	<node lat="69.96778333420012" lon="19.713116663407725" id="-102236">
		<tag k="name" v="Lyngmo" />
		<tag k="place" v="farm" />
		<tag k="ssr:stedsnr" v="140570" />
	</node>
	<node lat="70.1690138874356" lon="19.108630559064267" id="-102239">
		<tag k="loc_name:se" v="Hearpmavuotna" />
		<tag k="name" v="Hermannsfjorden" />
		<tag k="name:no" v="Hermannsfjorden" />
		<tag k="place" v="farm" />
		<tag k="ssr:stedsnr" v="140579" />
	</node>
	<node lat="70.22675555775966" lon="19.50893888751901" id="-102242">
		<tag k="name" v="Torbeinsund" />
		<tag k="place" v="locality" />
		<tag k="ssr:stedsnr" v="140615" />
	</node>
	<node lat="70.10541944829916" lon="19.71866388752009" id="-102255">
		<tag k="name" v="Kvalvåg" />
		<tag k="place" v="farm" />
		<tag k="ssr:stedsnr" v="140750" />
	</node>
	<node lat="70.100405552925" lon="19.707361099919357" id="-102257">
		<tag k="amenity" v="cafe" />
		<tag k="name" v="Slettmo" />
		<tag k="ssr:stedsnr" v="140757" />
	</node>
	<node lat="70.14643713799857" lon="19.677910100620117" id="-102261">
		<tag k="alt_name" v="Sædingsvollen;Sengsvoll;Sæingsvoll" />
		<tag k="name" v="Sengsvollen" />
		<tag k="place" v="farm" />
		<tag k="ssr:stedsnr" v="140780" />
	</node>
	<node lat="70.18305779232168" lon="19.641128302270413" id="-102262">
		<tag k="name" v="Vollan" />
		<tag k="place" v="farm" />
		<tag k="ssr:stedsnr" v="140813" />
	</node>
	<node lat="70.15835000492811" lon="19.673747205618305" id="-102265">
		<tag k="name" v="Myrvoll" />
		<tag k="place" v="farm" />
		<tag k="ssr:stedsnr" v="140832" />
	</node>
	<node lat="70.0045027783563" lon="19.56231386947042" id="-102275">
		<tag k="name" v="Langnes" />
		<tag k="place" v="farm" />
		<tag k="ssr:stedsnr" v="140946" />
	</node>
	<node lat="70.1613998730769" lon="19.814433925216797" id="-102276">
		<tag k="alt_name:no" v="Skipfjorden;Skipfjord" />
		<tag k="fixme" v="consider place=hamlet" />
		<tag k="loc_name:se" v="Skihččavuotna" />
		<tag k="name" v="Skipsfjord" />
		<tag k="name:no" v="Skipsfjord" />
		<tag k="place" v="farm" />
		<tag k="ssr:stedsnr" v="140959" />
	</node>
	<node lat="69.84094999917214" lon="19.47092498695798" id="-102303">
		<tag k="name" v="Solvang" />
		<tag k="place" v="isolated_dwelling" />
		<tag k="ssr:stedsnr" v="170050" />
	</node>
	<node lat="69.85988333307337" lon="19.435058334872014" id="-102304">
		<tag k="name" v="Bjørkli" />
		<tag k="place" v="locality" />
		<tag k="ssr:stedsnr" v="170125" />
	</node>
	<node lat="69.83556448608542" lon="19.43660781616513" id="-102307">
		<tag k="name" v="Øvergården" />
		<tag k="place" v="farm" />
		<tag k="ssr:stedsnr" v="170135" />
	</node>
	<node lat="70.05738611507289" lon="19.374169446233044" id="-102318">
		<tag k="name" v="Gammelheimen" />
		<tag k="place" v="locality" />
		<tag k="ssr:stedsnr" v="171184" />
	</node>
	<node lat="70.17651944164895" lon="19.822813866769003" id="-102330">
		<tag k="name" v="Rotenga" />
		<tag k="place" v="farm" />
		<tag k="ssr:stedsnr" v="171473" />
	</node>
	<node lat="70.24392777846242" lon="19.51395276529931" id="-102342">
		<tag k="name" v="Brattli" />
		<tag k="place" v="isolated_dwelling" />
		<tag k="ssr:stedsnr" v="171846" />
	</node>
	<node lat="69.96184722638685" lon="19.61057776186103" id="-102350">
		<tag k="name" v="Kardemommeby" />
		<tag k="place" v="quarter" />
		<tag k="ssr:stedsnr" v="172254" />
	</node>
	<node lat="70.0018250017763" lon="19.91652220157028" id="-102358">
		<tag k="name" v="Åsheim" />
		<tag k="place" v="isolated_dwelling" />
		<tag k="ssr:stedsnr" v="172440" />
	</node>
	<node lat="69.97002777862721" lon="19.13746111135138" id="-102363">
		<tag k="name" v="Solbakken" />
		<tag k="place" v="farm" />
		<tag k="ssr:stedsnr" v="172995" />
	</node>
	<node lat="70.05038333560765" lon="19.912922206794814" id="-102378">
		<tag k="name" v="Kjeglen" />
		<tag k="place" v="farm" />
		<tag k="ssr:stedsnr" v="201060" />
	</node>
	<node lat="70.0880333351763" lon="19.99492497888147" id="-102380">
		<tag k="name" v="Fjellstad" />
		<tag k="place" v="farm" />
		<tag k="ssr:stedsnr" v="201065" />
	</node>
	<node lat="70.2657555528173" lon="20.26596942835181" id="-102389">
		<tag k="name" v="Gamvik" />
		<tag k="place" v="locality" />
		<tag k="ssr:stedsnr" v="201343" />
	</node>
	<node lat="69.91341389186816" lon="19.51493889134569" id="-102393">
		<tag k="name" v="Bergan" />
		<tag k="place" v="farm" />
		<tag k="ssr:stedsnr" v="201477" />
	</node>
	<node lat="69.8899416655129" lon="19.430824986601905" id="-102398">
		<tag k="name" v="Strandmo" />
		<tag k="place" v="farm" />
		<tag k="ssr:stedsnr" v="201487" />
	</node>
	<node lat="69.96793333428772" lon="19.627244423667307" id="-102401">
		<tag k="name" v="Toften" />
		<tag k="place" v="farm" />
		<tag k="ssr:stedsnr" v="201538" />
	</node>
	<node lat="69.97252777563656" lon="19.64472500245518" id="-102402">
		<tag k="name" v="Nordby" />
		<tag k="place" v="farm" />
		<tag k="ssr:stedsnr" v="201540" />
	</node>
	<node lat="69.99236720587957" lon="19.560159216804568" id="-102406">
		<tag k="name" v="Labukta" />
		<tag k="place" v="farm" />
		<tag k="ssr:stedsnr" v="201583" />
	</node>
	<node lat="69.98815833451434" lon="19.55647500122718" id="-102407">
		<tag k="name" v="Rydningen" />
		<tag k="place" v="farm" />
		<tag k="ssr:stedsnr" v="201584" />
	</node>
	<node lat="69.84313024090623" lon="19.49536641788252" id="-102410">
		<tag k="name" v="Solheim" />
		<tag k="place" v="farm" />
		<tag k="ssr:stedsnr" v="201672" />
	</node>
	<node lat="70.10798610882507" lon="19.718558311210785" id="-102412">
		<tag k="name" v="Solbakken" />
		<tag k="place" v="farm" />
		<tag k="ssr:stedsnr" v="201743" />
	</node>
	<node lat="70.09937958291763" lon="19.5162595341336" id="-102413">
		<tag k="alt_name" v="Indreby" />
		<tag k="fixme" v="consider place=hamlet" />
		<tag k="name" v="Innerby" />
		<tag k="place" v="farm" />
		<tag k="ssr:stedsnr" v="201748" />
	</node>
	<node lat="70.05779999963023" lon="19.27841666470664" id="-102415">
		<tag k="name" v="Myrbukta" />
		<tag k="place" v="farm" />
		<tag k="ssr:stedsnr" v="201765" />
	</node>
	<node lat="70.05555555471928" lon="18.940424988443567" id="-102420">
		<tag k="name" v="Luneborg" />
		<tag k="place" v="farm" />
		<tag k="ssr:stedsnr" v="201707" />
	</node>
	<node lat="70.06104754209929" lon="19.038530981565998" id="-102428">
		<tag k="alt_name" v="Mikkelvik" />
		<tag k="fixme" v="consider place=hamlet" />
		<tag k="name" v="Mikkelvika" />
		<tag k="place" v="farm" />
		<tag k="ssr:stedsnr" v="201727" />
	</node>
	<node lat="70.12577222470365" lon="19.96059442437478" id="-102438">
		<tag k="alt_name" v="Valabotnen" />
		<tag k="name" v="Valabotn" />
		<tag k="place" v="farm" />
		<tag k="ssr:stedsnr" v="201882" />
	</node>
	<node lat="70.17611140805077" lon="19.989350868911288" id="-102442">
		<tag k="name" v="Ravika" />
		<tag k="place" v="locality" />
		<tag k="ssr:stedsnr" v="201920" />
	</node>
	<node lat="70.14624722449432" lon="19.924672219211967" id="-102444">
		<tag k="alt_name" v="Litlevika" />
		<tag k="name" v="Lillevik" />
		<tag k="old_name" v="Lillevika" />
		<tag k="place" v="farm" />
		<tag k="ssr:stedsnr" v="201927" />
	</node>
	<node lat="69.95646111592688" lon="19.1855888733655" id="-102445">
		<tag k="alt_name" v="Elvevollen" />
		<tag k="name" v="Elvevoll" />
		<tag k="place" v="farm" />
		<tag k="ssr:stedsnr" v="201817" />
	</node>
	<node lat="69.95781944225672" lon="19.18437221626221" id="-102446">
		<tag k="name" v="Elvebakken" />
		<tag k="place" v="farm" />
		<tag k="ssr:stedsnr" v="201818" />
	</node>
	<node lat="70.04724444376457" lon="19.472191663371433" id="-102450">
		<tag k="alt_name" v="Gammvikbukta;Gammvik" />
		<tag k="name" v="Gamvik" />
		<tag k="place" v="farm" />
		<tag k="ssr:stedsnr" v="201971" />
	</node>
	<node lat="70.1518722248194" lon="19.982049996376645" id="-102453">
		<tag k="name" v="Stranda" />
		<tag k="place" v="isolated_dwelling" />
		<tag k="ssr:stedsnr" v="201933" />
	</node>
	<node lat="70.0610861111276" lon="19.379727764730454" id="-102454">
		<tag k="name" v="Myrstad" />
		<tag k="place" v="farm" />
		<tag k="ssr:stedsnr" v="201985" />
	</node>
	<node lat="69.95009999613502" lon="19.657183326214987" id="-102465">
		<tag k="name" v="Finnby" />
		<tag k="place" v="farm" />
		<tag k="ssr:stedsnr" v="202617" />
	</node>
	<node lat="69.95638043670995" lon="19.848798822768295" id="-102466">
		<tag k="alt_name" v="Klokkarvoll" />
		<tag k="name" v="Klokkarvollen" />
		<tag k="place" v="farm" />
		<tag k="ssr:stedsnr" v="202677" />
	</node>
	<node lat="69.84482221921739" lon="19.519233314549933" id="-102493">
		<tag k="name" v="Rensby" />
		<tag k="place" v="isolated_dwelling" />
		<tag k="ssr:stedsnr" v="292049" />
	</node>
	<node lat="70.22827222218619" lon="19.73881943885583" id="-102525">
		<tag k="name" v="Solvang" />
		<tag k="place" v="locality" />
		<tag k="ssr:stedsnr" v="293448" />
	</node>
	<node lat="69.89292867610624" lon="19.43561101152005" id="-102544">
		<tag k="fixme" v="consider place=hamlet" />
		<tag k="name" v="Langsund" />
		<tag k="place" v="farm" />
		<tag k="ssr:stedsnr" v="293846" />
	</node>
	<node lat="69.96894722619636" lon="19.154224986145664" id="-102558">
		<tag k="name" v="Elveland" />
		<tag k="place" v="farm" />
		<tag k="ssr:stedsnr" v="322846" />
	</node>
	<node lat="70.20547754349559" lon="19.596570799572817" id="-102560">
		<tag k="name" v="Løvstad" />
		<tag k="place" v="farm" />
		<tag k="ssr:stedsnr" v="322856" />
	</node>
	<node lat="70.18777924990961" lon="19.62679561080989" id="-102561">
		<tag k="name" v="Fjellmo" />
		<tag k="place" v="farm" />
		<tag k="ssr:stedsnr" v="322861" />
	</node>
	<node lat="70.18900833545764" lon="19.623427762167076" id="-102562">
		<tag k="name" v="Steinhaug" />
		<tag k="place" v="farm" />
		<tag k="ssr:stedsnr" v="322862" />
	</node>
	<node lat="69.98728889227452" lon="19.13985554167867" id="-102563">
		<tag k="name" v="Tennvasslia" />
		<tag k="place" v="farm" />
		<tag k="ssr:stedsnr" v="322863" />
	</node>
	<node lat="69.92538978368088" lon="19.485151243101342" id="-102584">
		<tag k="fixme" v="consider place=hamlet" />
		<tag k="name" v="Lanes" />
		<tag k="place" v="farm" />
		<tag k="ssr:stedsnr" v="322545" />
	</node>
	<node lat="70.15623888630964" lon="19.00104443250192" id="-102585">
		<tag k="loc_name:se" v="Lávkeluokta" />
		<tag k="name" v="Laukvika" />
		<tag k="name:no" v="Laukvika" />
		<tag k="place" v="farm" />
		<tag k="ssr:stedsnr" v="322572" />
	</node>
	<node lat="70.24299604997837" lon="19.49622966942863" id="-102586">
		<tag k="name" v="Torsvåg" />
		<tag k="place" v="hamlet" />
		<tag k="ssr:stedsnr" v="322639" />
	</node>
	<node lat="70.01749444710087" lon="18.847613888996857" id="-102589">
		<tag k="name" v="Jøvika" />
		<tag k="place" v="farm" />
		<tag k="ssr:stedsnr" v="322666" />
	</node>
	<node lat="69.99484444832292" lon="19.559994430663263" id="-102594">
		<tag k="name" v="Solheim" />
		<tag k="place" v="farm" />
		<tag k="ssr:stedsnr" v="322609" />
	</node>
	<node lat="70.01356944114873" lon="19.38987776454794" id="-102609">
		<tag k="name" v="Rydningen" />
		<tag k="place" v="farm" />
		<tag k="ssr:stedsnr" v="322943" />
	</node>
	<node lat="70.17674303217461" lon="19.90317139222207" id="-102610">
		<tag k="fixme" v="consider place=hamlet" />
		<tag k="name" v="Slettnes" />
		<tag k="place" v="farm" />
		<tag k="ssr:stedsnr" v="322947" />
	</node>
	<node lat="69.99831389377422" lon="19.9053277626338" id="-102628">
		<tag k="name" v="Galgevollen" />
		<tag k="place" v="farm" />
		<tag k="ssr:stedsnr" v="323652" />
	</node>
	<node lat="70.04399166674244" lon="19.047663892290807" id="-102632">
		<tag k="name" v="Nygård" />
		<tag k="place" v="farm" />
		<tag k="ssr:stedsnr" v="323708" />
	</node>
	<node lat="70.03833333398369" lon="19.539213877070946" id="-102643">
		<tag k="name" v="Bergly" />
		<tag k="place" v="farm" />
		<tag k="ssr:stedsnr" v="323994" />
	</node>
	<node lat="70.00982777584443" lon="19.572769446055645" id="-102649">
		<tag k="name" v="Grøtvoll" />
		<tag k="place" v="farm" />
		<tag k="ssr:stedsnr" v="329142" />
	</node>
	<node lat="70.08396388581619" lon="19.999922201625743" id="-102733">
		<tag k="name" v="Nordre Vannvåg" />
		<tag k="place" v="quarter" />
		<tag k="ssr:stedsnr" v="358882" />
	</node>
	<node lat="69.99603333351045" lon="19.386622218415418" id="-102738">
		<tag k="name" v="Hamnneset" />
		<tag k="place" v="farm" />
		<tag k="ssr:stedsnr" v="382592" />
	</node>
	<node lat="70.11029569418137" lon="19.115385249991416" id="-102764">
		<tag k="name" v="Holmesletta" />
		<tag k="place" v="farm" />
		<tag k="ssr:stedsnr" v="383565" />
	</node>
	<node lat="70.13039722034074" lon="19.211266648766465" id="-102766">
		<tag k="alt_name" v="Breidvika;Breidvik" />
		<tag k="name" v="Breivik" />
		<tag k="place" v="farm" />
		<tag k="ssr:stedsnr" v="383575" />
	</node>
	<node lat="69.9268944435911" lon="19.487477778945298" id="-102770">
		<tag k="name" v="Engvik" />
		<tag k="place" v="farm" />
		<tag k="ssr:stedsnr" v="383587" />
	</node>
	<node lat="70.11848055898926" lon="19.094708319104008" id="-102771">
		<tag k="name" v="Storvika" />
		<tag k="place" v="farm" />
		<tag k="ssr:stedsnr" v="383590" />
	</node>
	<node lat="70.03511110982551" lon="19.082363892066233" id="-102779">
		<tag k="name" v="Solheim" />
		<tag k="place" v="farm" />
		<tag k="ssr:stedsnr" v="383689" />
	</node>
	<node lat="69.84454166524205" lon="19.51782222302215" id="-102783">
		<tag k="alt_name" v="Rotnby" />
		<tag k="name" v="Rottenby" />
		<tag k="place" v="farm" />
		<tag k="ssr:stedsnr" v="383701" />
	</node>
	<node lat="70.17046229152345" lon="19.658569615432707" id="-102789">
		<tag k="name" v="Einarstrand" />
		<tag k="place" v="farm" />
		<tag k="ssr:stedsnr" v="383849" />
	</node>
	<node lat="70.16460000034277" lon="19.803499995200873" id="-102791">
		<tag k="name" v="Nygård" />
		<tag k="place" v="isolated_dwelling" />
		<tag k="ssr:stedsnr" v="383855" />
	</node>
	<node lat="70.12660364598337" lon="19.708075089207114" id="-102795">
		<tag k="name" v="Elvevoll" />
		<tag k="place" v="farm" />
		<tag k="ssr:stedsnr" v="383821" />
	</node>
	<node lat="69.8390138923109" lon="19.464927769778697" id="-102836">
		<tag k="name" v="Lunde" />
		<tag k="place" v="isolated_dwelling" />
		<tag k="ssr:stedsnr" v="413001" />
	</node>
	<node lat="70.12153055542443" lon="19.00384721057603" id="-102885">
		<tag k="name" v="Skogheim" />
		<tag k="place" v="isolated_dwelling" />
		<tag k="ssr:stedsnr" v="415670" />
	</node>
	<node lat="69.96920555431785" lon="19.63080555455122" id="-102900">
		<tag k="name" v="Nyborgfeltet" />
		<tag k="place" v="quarter" />
		<tag k="ssr:stedsnr" v="419879" />
	</node>
	<node lat="70.20696607520335" lon="19.106754078353628" id="-102901">
		<tag k="loc_name:se" v="Vorešskárdi" />
		<tag k="name" v="Sørskaret" />
		<tag k="name:no" v="Sørskaret" />
		<tag k="place" v="locality" />
		<tag k="ssr:stedsnr" v="424361" />
	</node>
	<node lat="70.14476666630698" lon="19.990777765928694" id="-102909">
		<tag k="name" v="Nordsanden" />
		<tag k="place" v="isolated_dwelling" />
		<tag k="ssr:stedsnr" v="444932" />
	</node>
	<node lat="69.98791666582548" lon="19.40731388956875" id="-102930">
		<tag k="name" v="Nellevoll" />
		<tag k="place" v="farm" />
		<tag k="ssr:stedsnr" v="444598" />
	</node>
	<node lat="70.04248889106803" lon="18.84621944532568" id="-102932">
		<tag k="name" v="Solvik" />
		<tag k="place" v="farm" />
		<tag k="ssr:stedsnr" v="444701" />
	</node>
	<node lat="69.95430555671864" lon="19.673880535941425" id="-102938">
		<tag k="name" v="Bjørnes" />
		<tag k="place" v="farm" />
		<tag k="ssr:stedsnr" v="444570" />
	</node>
	<node lat="70.14386399039262" lon="19.02477581390692" id="-102939">
		<tag k="loc_name:se" v="Guohcaluokta" />
		<tag k="name" v="Rotvika" />
		<tag k="name:no" v="Rotvika" />
		<tag k="place" v="farm" />
		<tag k="ssr:stedsnr" v="444574" />
	</node>
	<node lat="70.01593610939872" lon="19.062894431465306" id="-102943">
		<tag k="name" v="Ånes" />
		<tag k="place" v="farm" />
		<tag k="ssr:stedsnr" v="444656" />
	</node>
	<node lat="70.0793291497624" lon="19.157685955461517" id="-102948">
		<tag k="fixme" v="consider place=hamlet" />
		<tag k="name" v="Fagerfjord" />
		<tag k="place" v="farm" />
		<tag k="ssr:stedsnr" v="444743" />
	</node>
	<node lat="70.19427707494272" lon="19.616763442504002" id="-102963">
		<tag k="name" v="Korsnes" />
		<tag k="place" v="farm" />
		<tag k="ssr:stedsnr" v="444883" />
	</node>
	<node lat="69.96706111048988" lon="19.148688879505418" id="-102967">
		<tag k="alt_name" v="Lavold" />
		<tag k="name" v="Lavollen" />
		<tag k="place" v="farm" />
		<tag k="ssr:stedsnr" v="444856" />
	</node>
	<node lat="70.20871944217211" lon="19.58215832311422" id="-102972">
		<tag k="name" v="Myra" />
		<tag k="place" v="farm" />
		<tag k="ssr:stedsnr" v="444871" />
	</node>
	<node lat="70.02832500046325" lon="19.398616663729683" id="-102976">
		<tag k="name" v="Langstrand" />
		<tag k="place" v="farm" />
		<tag k="ssr:stedsnr" v="444991" />
	</node>
	<node lat="70.16197777620677" lon="19.947527760252335" id="-102989">
		<tag k="alt_name" v="Skorøyneset" />
		<tag k="name" v="Skorøynes" />
		<tag k="place" v="isolated_dwelling" />
		<tag k="ssr:stedsnr" v="445515" />
	</node>
	<node lat="70.07265833359239" lon="19.982049984589406" id="-102992">
		<tag k="name" v="Vannvåg" />
		<tag k="place" v="village" />
		<tag k="ssr:stedsnr" v="504046" />
	</node>
	<node lat="70.09102778147582" lon="18.92895278143588" id="-103006">
		<tag k="name" v="Sædingsvika" />
		<tag k="place" v="isolated_dwelling" />
		<tag k="ssr:stedsnr" v="504528" />
	</node>
	<node lat="69.90233611482181" lon="19.47141944577682" id="-103007">
		<tag k="name" v="Heimly" />
		<tag k="place" v="farm" />
		<tag k="ssr:stedsnr" v="504529" />
	</node>
	<node lat="69.941616667474" lon="19.636074983915588" id="-103010">
		<tag k="name" v="Bjørklund" />
		<tag k="place" v="farm" />
		<tag k="ssr:stedsnr" v="504550" />
	</node>
	<node lat="69.94177777696785" lon="19.46868609156109" id="-103011">
		<tag k="name" v="Myrvang" />
		<tag k="place" v="farm" />
		<tag k="ssr:stedsnr" v="504551" />
	</node>
	<node lat="70.01925833700153" lon="18.960688889270756" id="-103023">
		<tag k="name" v="Solvoll" />
		<tag k="place" v="farm" />
		<tag k="ssr:stedsnr" v="504675" />
	</node>
	<node lat="69.96067012300823" lon="19.1770198017135" id="-103037">
		<tag k="fixme" v="consider place=hamlet" />
		<tag k="name" v="Rydningen" />
		<tag k="place" v="farm" />
		<tag k="ssr:stedsnr" v="504825" />
	</node>
	<node lat="70.00502222117294" lon="19.324330541903667" id="-103042">
		<tag k="name" v="Sætervik" />
		<tag k="place" v="farm" />
		<tag k="ssr:stedsnr" v="504954" />
	</node>
	<node lat="70.18707725371829" lon="18.88255200471071" id="-103049">
		<tag k="fixme" v="consider place=hamlet" />
		<tag k="name" v="Nordgrøtøya" />
		<tag k="place" v="farm" />
		<tag k="ssr:stedsnr" v="505358" />
	</node>
	<node lat="69.98122778195633" lon="19.666288889692925" id="-103060">
		<tag k="name" v="Sirivoll" />
		<tag k="place" v="farm" />
		<tag k="ssr:stedsnr" v="505585" />
	</node>
	<node lat="69.95053693246201" lon="19.467737260215394" id="-103062">
		<tag k="fixme" v="consider place=hamlet" />
		<tag k="name" v="Hessfjorden" />
		<tag k="place" v="farm" />
		<tag k="ssr:stedsnr" v="505592" />
	</node>
	<node lat="70.12142499646232" lon="19.00359443555205" id="-103067">
		<tag k="name" v="Skogheim" />
		<tag k="place" v="farm" />
		<tag k="ssr:stedsnr" v="505561" />
	</node>
	<node lat="70.23491666924404" lon="19.68956944246706" id="-103069">
		<tag k="name" v="Sandvik" />
		<tag k="place" v="isolated_dwelling" />
		<tag k="ssr:stedsnr" v="505645" />
	</node>
	<node lat="70.23425277468965" lon="19.73425553583607" id="-103070">
		<tag k="name" v="Storbukt" />
		<tag k="place" v="farm" />
		<tag k="ssr:stedsnr" v="505647" />
	</node>
	<node lat="70.23748333622719" lon="19.717024998807567" id="-103071">
		<tag k="name" v="Burøysletta" />
		<tag k="place" v="isolated_dwelling" />
		<tag k="ssr:stedsnr" v="505649" />
	</node>
	<node lat="69.99601388780067" lon="19.92576109125184" id="-103072">
		<tag k="alt_name" v="Huldreheimen" />
		<tag k="name" v="Hulderheim" />
		<tag k="place" v="isolated_dwelling" />
		<tag k="ssr:stedsnr" v="505653" />
	</node>
	<node lat="69.89153055471954" lon="19.478533312728366" id="-103077">
		<tag k="name" v="Hytta" />
		<tag k="place" v="farm" />
		<tag k="ssr:stedsnr" v="505738" />
	</node>
	<node lat="70.05875669951511" lon="18.9467360114552" id="-103079">
		<tag k="name" v="Steinli" />
		<tag k="place" v="farm" />
		<tag k="ssr:stedsnr" v="505741" />
	</node>
	<node lat="70.05034721792558" lon="18.928530554511468" id="-103080">
		<tag k="name" v="Toften" />
		<tag k="place" v="farm" />
		<tag k="ssr:stedsnr" v="505743" />
	</node>
	<node lat="69.87325833147159" lon="19.451408335000515" id="-103081">
		<tag k="name" v="Myrhaug" />
		<tag k="place" v="isolated_dwelling" />
		<tag k="ssr:stedsnr" v="505749" />
	</node>
	<node lat="70.15805761180268" lon="19.775507064022623" id="-103082">
		<tag k="alt_name" v="Røyrnes" />
		<tag k="name" v="Rørnes" />
		<tag k="place" v="locality" />
		<tag k="ssr:stedsnr" v="505834" />
	</node>
	<node lat="70.16307499884026" lon="19.801644442416684" id="-103083">
		<tag k="alt_name" v="Gammelgården" />
		<tag k="name" v="Gamlegård" />
		<tag k="place" v="farm" />
		<tag k="ssr:stedsnr" v="505836" />
	</node>
	<node lat="70.18063888689723" lon="18.991341648953163" id="-103102">
		<tag k="name" v="Sætra" />
		<tag k="place" v="locality" />
		<tag k="ssr:stedsnr" v="531472" />
	</node>
	<node lat="69.8559555584967" lon="19.638913888563234" id="-103113">
		<tag k="name" v="Nymo" />
		<tag k="place" v="farm" />
		<tag k="ssr:stedsnr" v="534996" />
	</node>
	<node lat="70.05638611636961" lon="19.782716646839017" id="-103157">
		<tag k="name" v="Kveldro" />
		<tag k="place" v="farm" />
		<tag k="ssr:stedsnr" v="536261" />
	</node>
	<node lat="69.97196388628053" lon="19.13202777750807" id="-103168">
		<tag k="name" v="Solli" />
		<tag k="place" v="farm" />
		<tag k="ssr:stedsnr" v="536988" />
	</node>
	<node lat="69.9596638893622" lon="19.176913879460795" id="-103173">
		<tag k="name" v="Solvang" />
		<tag k="place" v="farm" />
		<tag k="ssr:stedsnr" v="536935" />
	</node>
	<node lat="70.09084444825946" lon="19.990477776180256" id="-103178">
		<tag k="name" v="Skogeng" />
		<tag k="place" v="farm" />
		<tag k="ssr:stedsnr" v="564065" />
	</node>
	<node lat="69.93457499838073" lon="19.591488878254015" id="-103180">
		<tag k="name" v="Sandnes" />
		<tag k="place" v="farm" />
		<tag k="ssr:stedsnr" v="564545" />
	</node>
	<node lat="69.93672500168039" lon="19.47607778093468" id="-103181">
		<tag k="name" v="Myrlund" />
		<tag k="place" v="farm" />
		<tag k="ssr:stedsnr" v="564548" />
	</node>
	<node lat="69.94023055239091" lon="19.631947221667176" id="-103182">
		<tag k="alt_name" v="Reinskard" />
		<tag k="name" v="Reinskaret" />
		<tag k="place" v="farm" />
		<tag k="ssr:stedsnr" v="564550" />
	</node>
	<node lat="69.84887777970503" lon="19.53650831591439" id="-103184">
		<tag k="name" v="Sæterelv" />
		<tag k="place" v="farm" />
		<tag k="ssr:stedsnr" v="564682" />
	</node>
	<node lat="70.01627777572928" lon="19.294838880185125" id="-103189">
		<tag k="loc_name:se" v="Gáhceráigi" />
		<tag k="name" v="Vatnan" />
		<tag k="name:no" v="Vatnan" />
		<tag k="place" v="farm" />
		<tag k="ssr:stedsnr" v="564948" />
	</node>
	<node lat="70.01173333748764" lon="19.86242777830908" id="-103190">
		<tag k="name" v="Andersvik" />
		<tag k="place" v="farm" />
		<tag k="ssr:stedsnr" v="565101" />
	</node>
	<node lat="69.97328333044923" lon="19.6236610927346" id="-103219">
		<tag k="name" v="Bjørklund" />
		<tag k="place" v="farm" />
		<tag k="ssr:stedsnr" v="565584" />
	</node>
	<node lat="69.90189166808626" lon="19.49833055943277" id="-103224">
		<tag k="name" v="Lundheim" />
		<tag k="place" v="isolated_dwelling" />
		<tag k="ssr:stedsnr" v="565511" />
	</node>
	<node lat="69.90447191793521" lon="19.47277568171981" id="-103229">
		<tag k="alt_name" v="Gamnes" />
		<tag k="fixme" v="consider place=hamlet" />
		<tag k="name" v="Gammnes" />
		<tag k="place" v="farm" />
		<tag k="ssr:stedsnr" v="565530" />
	</node>
	<node lat="69.87510413116665" lon="19.45583336999619" id="-103240">
		<tag k="fixme" v="consider place=hamlet" />
		<tag k="name" v="Jamteby" />
		<tag k="place" v="farm" />
		<tag k="ssr:stedsnr" v="565742" />
	</node>
	<node lat="70.13944444920946" lon="19.994699979653532" id="-103253">
		<tag k="name" v="Sørsanden" />
		<tag k="place" v="farm" />
		<tag k="ssr:stedsnr" v="565887" />
	</node>
	<node lat="70.0968749959334" lon="20.10025276693775" id="-103255">
		<tag k="name" v="Myra" />
		<tag k="place" v="farm" />
		<tag k="ssr:stedsnr" v="565901" />
	</node>
	<node lat="70.2186777811369" lon="19.726324996282923" id="-103261">
		<tag k="name" v="Brattfjell" />
		<tag k="place" v="farm" />
		<tag k="ssr:stedsnr" v="565860" />
	</node>
	<node lat="70.18454444757387" lon="19.91157776510348" id="-103264">
		<tag k="name" v="Bogen" />
		<tag k="old_name" v="Bugen" />
		<tag k="place" v="farm" />
		<tag k="ssr:stedsnr" v="565956" />
	</node>
	<node lat="70.10122014032957" lon="18.847292936204525" id="-103288">
		<tag k="name" v="Holmsletta" />
		<tag k="place" v="locality" />
		<tag k="ssr:stedsnr" v="592300" />
	</node>
	<node lat="69.9092415672978" lon="19.48131182109065" id="-103358">
		<tag k="name" v="Gamnesøyra" />
		<tag k="place" v="farm" />
		<tag k="ssr:stedsnr" v="606558" />
	</node>
	<node lat="69.91074166525121" lon="19.50995831684374" id="-103374">
		<tag k="name" v="Molund" />
		<tag k="place" v="farm" />
		<tag k="ssr:stedsnr" v="625490" />
	</node>
	<node lat="69.92406666596962" lon="19.48766109451564" id="-103380">
		<tag k="alt_name" v="Lanes" />
		<tag k="name" v="Mellom-Lanes" />
		<tag k="place" v="farm" />
		<tag k="ssr:stedsnr" v="625541" />
	</node>
	<node lat="69.85835555867087" lon="19.65369444258218" id="-103387">
		<tag k="fixme" v="consider place=hamlet" />
		<tag k="name" v="Grøtnesdalen" />
		<tag k="place" v="village" />
		<tag k="ssr:stedsnr" v="625702" />
	</node>
	<node lat="70.00948055454639" lon="18.816300005720137" id="-103388">
		<tag k="name" v="Rydningen" />
		<tag k="place" v="farm" />
		<tag k="ssr:stedsnr" v="625651" />
	</node>
	<node lat="70.01151667056376" lon="18.839008320285018" id="-103389">
		<tag k="name" v="Solstrand" />
		<tag k="place" v="farm" />
		<tag k="ssr:stedsnr" v="625652" />
	</node>
	<node lat="70.09030167196201" lon="19.70437303508202" id="-103393">
		<tag k="alt_name" v="Mellomjord" />
		<tag k="name" v="Mellomjorda" />
		<tag k="place" v="farm" />
		<tag k="ssr:stedsnr" v="625782" />
	</node>
	<node lat="69.97532777987414" lon="19.125786115635957" id="-103395">
		<tag k="name" v="Luneng" />
		<tag k="place" v="farm" />
		<tag k="ssr:stedsnr" v="625865" />
	</node>
	<node lat="70.00874999574806" lon="19.563150001313975" id="-103399">
		<tag k="name" v="Langnesbukta" />
		<tag k="place" v="farm" />
		<tag k="ssr:stedsnr" v="625944" />
	</node>
	<node lat="70.01621667009486" lon="19.582616665754774" id="-103402">
		<tag k="name" v="Haug" />
		<tag k="place" v="farm" />
		<tag k="ssr:stedsnr" v="625949" />
	</node>
	<node lat="69.99113610883299" lon="19.066452768577655" id="-103404">
		<tag k="name" v="Fossheim" />
		<tag k="place" v="isolated_dwelling" />
		<tag k="ssr:stedsnr" v="626196" />
	</node>
	<node lat="69.88153055763274" lon="19.461925003597965" id="-103431">
		<tag k="name" v="Kveldro" />
		<tag k="place" v="farm" />
		<tag k="ssr:stedsnr" v="626746" />
	</node>
	<node lat="69.83522777702294" lon="19.429433336963353" id="-103448">
		<tag k="name" v="Gjertrudsletta" />
		<tag k="place" v="farm" />
		<tag k="ssr:stedsnr" v="631348" />
	</node>
	<node lat="69.99380833763433" lon="19.84548610543622" id="-103449">
		<tag k="name" v="Hamna" />
		<tag k="place" v="farm" />
		<tag k="ssr:stedsnr" v="632157" />
	</node>
	<node lat="70.01497222460543" lon="19.578480560795114" id="-103450">
		<tag k="name" v="Stakken" />
		<tag k="place" v="farm" />
		<tag k="ssr:stedsnr" v="632159" />
	</node>
	<node lat="70.07309444385977" lon="18.97474722791737" id="-103459">
		<tag k="name" v="Bromnes" />
		<tag k="place" v="farm" />
		<tag k="ssr:stedsnr" v="633631" />
	</node>
	<node lat="70.14885332323647" lon="18.79243864298388" id="-103460">
		<tag k="alt_name:no" v="Grøtøy søndre" />
		<tag k="loc_name:se" v="Voreš Rifta" />
		<tag k="name" v="Sørgrøtøya" />
		<tag k="name:no" v="Sørgrøtøya" />
		<tag k="place" v="locality" />
		<tag k="ssr:stedsnr" v="633644" />
	</node>
	<node lat="69.8937250011912" lon="19.441763871055983" id="-103487">
		<tag k="name" v="Kopparelv" />
		<tag k="place" v="farm" />
		<tag k="ssr:stedsnr" v="656856" />
	</node>
	<node lat="69.85445833866616" lon="19.71247220405584" id="-103491">
		<tag k="historic" v="shieling" />
		<tag k="name" v="Junkerstua" />
		<tag k="place" v="isolated_dwelling" />
		<tag k="ssr:stedsnr" v="656974" />
	</node>
	<node lat="70.22058889046426" lon="19.72523055953495" id="-103537">
		<tag k="name" v="Dalheim" />
		<tag k="place" v="farm" />
		<tag k="ssr:stedsnr" v="658442" />
	</node>
	<node lat="70.22345277323545" lon="19.510924997976986" id="-103564">
		<tag k="name" v="Kveldro" />
		<tag k="place" v="farm" />
		<tag k="ssr:stedsnr" v="717818" />
	</node>
	<node lat="69.93545277622536" lon="19.801216643293554" id="-103572">
		<tag k="name" v="Futgård" />
		<tag k="place" v="farm" />
		<tag k="ssr:stedsnr" v="718066" />
	</node>
	<node lat="69.96311666760094" lon="19.620936089313332" id="-103615">
		<tag k="name" v="Slettmobakken" />
		<tag k="place" v="quarter" />
		<tag k="ssr:stedsnr" v="723862" />
	</node>
	<node lat="70.04925555687504" lon="19.878411107602393" id="-103617">
		<tag k="loc_name:se" v="Láttunjárga" />
		<tag k="name" v="Lanes" />
		<tag k="name:no" v="Lanes" />
		<tag k="place" v="farm" />
		<tag k="ssr:stedsnr" v="747092" />
	</node>
	<node lat="70.00150256449662" lon="19.91782022636226" id="-103618">
		<tag k="name" v="Fredheim" />
		<tag k="place" v="isolated_dwelling" />
		<tag k="ssr:stedsnr" v="747098" />
	</node>
	<node lat="69.90909999938496" lon="19.480674978050853" id="-103621">
		<tag k="alt_name" v="Gammnes" />
		<tag k="fixme" v="consider place=hamlet" />
		<tag k="name" v="Gamnes" />
		<tag k="place" v="village" />
		<tag k="ssr:stedsnr" v="747520" />
	</node>
	<node lat="69.92265555370324" lon="19.7717610955" id="-103630">
		<tag k="name" v="Øvergard" />
		<tag k="place" v="farm" />
		<tag k="ssr:stedsnr" v="747488" />
	</node>
	<node lat="70.08100555675587" lon="19.157633323304136" id="-103632">
		<tag k="name" v="Kveldssol" />
		<tag k="place" v="farm" />
		<tag k="ssr:stedsnr" v="747493" />
	</node>
	<node lat="70.08256388572575" lon="19.158644425980505" id="-103633">
		<tag k="name" v="Slettvollen" />
		<tag k="place" v="locality" />
		<tag k="ssr:stedsnr" v="747494" />
	</node>
	<node lat="69.94986590234052" lon="19.481078810458854" id="-103644">
		<tag k="name" v="Djupvik" />
		<tag k="place" v="farm" />
		<tag k="ssr:stedsnr" v="747572" />
	</node>
	<node lat="70.15048755569916" lon="18.824640926811988" id="-103645">
		<tag k="alt_name" v="Søndre Grøtøy" />
		<tag k="fixme" v="consider place=hamlet" />
		<tag k="name" v="Sørgrøtøya" />
		<tag k="place" v="farm" />
		<tag k="ssr:stedsnr" v="747574" />
	</node>
	<node lat="69.97585000278086" lon="19.662186111373035" id="-103648">
		<tag k="name" v="Godthåp" />
		<tag k="place" v="farm" />
		<tag k="ssr:stedsnr" v="747602" />
	</node>
	<node lat="69.83582233850026" lon="19.434738822035172" id="-103649">
		<tag k="alt_name" v="Finnkrokan" />
		<tag k="fixme" v="consider place=hamlet" />
		<tag k="name" v="Finnkroken" />
		<tag k="place" v="farm" />
		<tag k="ssr:stedsnr" v="747696" />
	</node>
	<node lat="69.92104999885974" lon="19.485102766007955" id="-103650">
		<tag k="name" v="Solheim" />
		<tag k="place" v="farm" />
		<tag k="ssr:stedsnr" v="747548" />
	</node>
	<node lat="69.97729134364043" lon="19.663116449432533" id="-103654">
		<tag k="name" v="Solvang" />
		<tag k="place" v="farm" />
		<tag k="ssr:stedsnr" v="747564" />
	</node>
	<node lat="70.24837221830477" lon="19.50249165728169" id="-103658">
		<tag k="name" v="Sandborg" />
		<tag k="place" v="isolated_dwelling" />
		<tag k="ssr:stedsnr" v="747642" />
	</node>
	<node lat="70.05404167053078" lon="18.936527762668987" id="-103669">
		<tag k="name" v="Lyshaug" />
		<tag k="place" v="farm" />
		<tag k="ssr:stedsnr" v="747720" />
	</node>
	<node lat="70.06658333668872" lon="18.948563879221624" id="-103670">
		<tag k="name" v="Myrset" />
		<tag k="place" v="farm" />
		<tag k="ssr:stedsnr" v="747741" />
	</node>
	<node lat="69.85761666414962" lon="19.433402773332478" id="-103672">
		<tag k="name" v="Engstad" />
		<tag k="place" v="farm" />
		<tag k="ssr:stedsnr" v="747750" />
	</node>
	<node lat="69.95946111176748" lon="19.18196389148881" id="-103680">
		<tag k="name" v="Fosse" />
		<tag k="place" v="farm" />
		<tag k="ssr:stedsnr" v="747840" />
	</node>
	<node lat="70.15358889088542" lon="19.66320276409982" id="-103681">
		<tag k="alt_name" v="Sædingskroken" />
		<tag k="name" v="Sengskroken" />
		<tag k="place" v="farm" />
		<tag k="ssr:stedsnr" v="747845" />
	</node>
	<node lat="69.97186110774213" lon="19.12753054795824" id="-103684">
		<tag k="name" v="Heimly" />
		<tag k="place" v="farm" />
		<tag k="ssr:stedsnr" v="747862" />
	</node>
	<node lat="70.01236389303214" lon="19.633483325405095" id="-103687">
		<tag k="name" v="Lundberg" />
		<tag k="place" v="farm" />
		<tag k="ssr:stedsnr" v="747950" />
	</node>
	<node lat="70.16975000530141" lon="19.810544423939835" id="-103733">
		<tag k="name" v="Solstad" />
		<tag k="place" v="isolated_dwelling" />
		<tag k="ssr:stedsnr" v="778482" />
	</node>
	<node lat="69.98745555578263" lon="19.371391652777493" id="-103746">
		<tag k="name" v="Fossheim" />
		<tag k="place" v="farm" />
		<tag k="ssr:stedsnr" v="778758" />
	</node>
	<node lat="69.9586416692044" lon="19.18045556031179" id="-103783">
		<tag k="name" v="Reinsvoll" />
		<tag k="place" v="farm" />
		<tag k="ssr:stedsnr" v="779927" />
	</node>
	<node lat="69.92340278034408" lon="19.779508312357454" id="-103795">
		<tag k="fixme" v="consider place=hamlet" />
		<tag k="name" v="Nordeidet" />
		<tag k="place" v="village" />
		<tag k="ssr:stedsnr" v="808535" />
	</node>
	<node lat="70.18728055715431" lon="19.244580555615663" id="-103808">
		<tag k="alt_name" v="Lillevika" />
		<tag k="name" v="Litlevik" />
		<tag k="place" v="farm" />
		<tag k="ssr:stedsnr" v="808863" />
	</node>
	<node lat="69.91944444599919" lon="19.772552765554455" id="-103822">
		<tag k="name" v="Bjørkli" />
		<tag k="place" v="farm" />
		<tag k="ssr:stedsnr" v="808482" />
	</node>
	<node lat="69.93323055772949" lon="19.795241645621797" id="-103823">
		<tag k="name" v="Lundborg" />
		<tag k="place" v="farm" />
		<tag k="ssr:stedsnr" v="808552" />
	</node>
	<node lat="70.12815804506697" lon="19.072885515578765" id="-103827">
		<tag k="fixme" v="consider place=hamlet" />
		<tag k="name" v="Bårdset" />
		<tag k="place" v="farm" />
		<tag k="ssr:stedsnr" v="808566" />
	</node>
	<node lat="70.02423332882475" lon="19.08955555640364" id="-103835">
		<tag k="name" v="Nyvoll" />
		<tag k="place" v="farm" />
		<tag k="ssr:stedsnr" v="808665" />
	</node>
	<node lat="70.02095832885482" lon="19.090980560068925" id="-103836">
		<tag k="name" v="Moen" />
		<tag k="place" v="farm" />
		<tag k="ssr:stedsnr" v="808666" />
	</node>
	<node lat="70.24427815951131" lon="19.49786911772434" id="-103842">
		<tag k="fixme" v="consider place=hamlet" />
		<tag k="name" v="Torsvåg" />
		<tag k="place" v="farm" />
		<tag k="ssr:stedsnr" v="808632" />
	</node>
	<node lat="69.88241833378925" lon="19.473498649261845" id="-103844">
		<tag k="fixme" v="consider place=hamlet" />
		<tag k="name" v="Brattrein" />
		<tag k="place" v="farm" />
		<tag k="ssr:stedsnr" v="808715" />
	</node>
	<node lat="69.87606388836281" lon="19.45458888381396" id="-103846">
		<tag k="name" v="Lilleby" />
		<tag k="place" v="farm" />
		<tag k="ssr:stedsnr" v="808729" />
	</node>
	<node lat="70.0663833298077" lon="19.356452775598807" id="-103852">
		<tag k="name" v="Vestresidvåg" />
		<tag k="place" v="farm" />
		<tag k="ssr:stedsnr" v="808776" />
	</node>
	<node lat="70.17465277458015" lon="19.65409721259853" id="-103855">
		<tag k="name" v="Gammvik" />
		<tag k="place" v="farm" />
		<tag k="ssr:stedsnr" v="808811" />
	</node>
	<node lat="70.18161755031389" lon="19.641616613058293" id="-103856">
		<tag k="alt_name" v="Kokkevoll" />
		<tag k="name" v="Kokkvoll" />
		<tag k="place" v="isolated_dwelling" />
		<tag k="ssr:stedsnr" v="808813" />
	</node>
	<node lat="70.11627600138111" lon="20.0572594451654" id="-103861">
		<tag k="fixme" v="consider place=hamlet" />
		<tag k="name" v="Vikan" />
		<tag k="place" v="farm" />
		<tag k="ssr:stedsnr" v="808887" />
	</node>
	<node lat="70.13057777476304" lon="19.99162221081484" id="-103863">
		<tag k="fixme" v="consider place=hamlet" />
		<tag k="name" v="Kristoffervalen" />
		<tag k="place" v="village" />
		<tag k="ssr:stedsnr" v="808895" />
	</node>
	<node lat="70.20103333178878" lon="19.604783333994007" id="-103869">
		<tag k="alt_name" v="Vannareidet" />
		<tag k="fixme" v="consider place=hamlet" />
		<tag k="name" v="Vannareid" />
		<tag k="place" v="village" />
		<tag k="ssr:stedsnr" v="808868" />
	</node>
	<node lat="70.0549107068444" lon="19.812851180864374" id="-103875">
		<tag k="alt_name" v="Kvalshavsvik" />
		<tag k="name" v="Kvalshausvik" />
		<tag k="place" v="farm" />
		<tag k="ssr:stedsnr" v="808970" />
	</node>
	<node lat="70.05234444074014" lon="18.930583318139732" id="-103883">
		<tag k="fixme" v="consider place=hamlet" />
		<tag k="loc_name:se" v="Ruobbánášši" />
		<tag k="name" v="Rebbenes" />
		<tag k="name:no" v="Rebbenes" />
		<tag k="place" v="village" />
		<tag k="ssr:stedsnr" v="815557" />
	</node>
	<node lat="70.15767777411108" lon="19.989505536249396" id="-103888">
		<tag k="alt_name" v="Reinvika" />
		<tag k="name" v="Reinvik" />
		<tag k="place" v="farm" />
		<tag k="ssr:stedsnr" v="819996" />
	</node>
	<node lat="69.9894333348681" lon="19.559636098671987" id="-103905">
		<tag k="name" v="Engbakken" />
		<tag k="place" v="isolated_dwelling" />
		<tag k="ssr:stedsnr" v="839016" />
	</node>
	<node lat="69.92609184137831" lon="19.783987778592497" id="-103929">
		<tag k="fixme" v="consider place=hamlet" />
		<tag k="name" v="Nordeidet" />
		<tag k="place" v="farm" />
		<tag k="ssr:stedsnr" v="840099" />
	</node>
	<node lat="69.9235861093022" lon="19.777022217423685" id="-103950">
		<tag k="name" v="Blåstein" />
		<tag k="place" v="farm" />
		<tag k="ssr:stedsnr" v="840420" />
	</node>
	<node lat="70.20927222592336" lon="19.57633054661272" id="-103961">
		<tag k="name" v="Sletten" />
		<tag k="place" v="farm" />
		<tag k="ssr:stedsnr" v="840797" />
	</node>
	<node lat="69.97210555656986" lon="19.126858315132925" id="-103966">
		<tag k="name" v="Løvmo" />
		<tag k="place" v="farm" />
		<tag k="ssr:stedsnr" v="840987" />
	</node>
	<node lat="70.22045222431707" lon="19.19755466905791" id="-103969">
		<tag k="fixme" v="consider place=hamlet" />
		<tag k="name" v="Nordskaret" />
		<tag k="place" v="farm" />
		<tag k="ssr:stedsnr" v="849071" />
	</node>
	<node lat="70.08394444586733" lon="20.00057497708758" id="-103971">
		<tag k="name" v="Skogstrand" />
		<tag k="place" v="farm" />
		<tag k="ssr:stedsnr" v="868081" />
	</node>
	<node lat="70.089302779857" lon="18.862963888744165" id="-103975">
		<tag k="name" v="Godstrand" />
		<tag k="place" v="farm" />
		<tag k="ssr:stedsnr" v="868517" />
	</node>
	<node lat="69.9954249978146" lon="19.539230539994996" id="-103977">
		<tag k="name" v="Hamna" />
		<tag k="place" v="farm" />
		<tag k="ssr:stedsnr" v="868565" />
	</node>
	<node lat="70.02489999853215" lon="18.938838872477135" id="-103982">
		<tag k="name" v="Vestergard" />
		<tag k="place" v="farm" />
		<tag k="ssr:stedsnr" v="868638" />
	</node>
	<node lat="70.05278132667726" lon="19.93637629502805" id="-103986">
		<tag k="fixme" v="consider place=hamlet" />
		<tag k="name" v="Vannstua" />
		<tag k="place" v="farm" />
		<tag k="ssr:stedsnr" v="869086" />
	</node>
	<node lat="70.00683889207929" lon="19.88319165291859" id="-103992">
		<tag k="alt_name" v="Vetestad" />
		<tag k="name" v="Vettestad" />
		<tag k="place" v="farm" />
		<tag k="ssr:stedsnr" v="869124" />
	</node>
	<node lat="70.00211388759469" lon="19.909438880377152" id="-103994">
		<tag k="name" v="Sletta" />
		<tag k="place" v="farm" />
		<tag k="ssr:stedsnr" v="869135" />
	</node>
	<node lat="70.01836388518961" lon="19.064283335957843" id="-103995">
		<tag k="name" v="Skogsfjord" />
		<tag k="place" v="farm" />
		<tag k="ssr:stedsnr" v="869689" />
	</node>
	<node lat="70.1453055545813" lon="18.859666666220118" id="-104017">
		<tag k="name" v="Peragården" />
		<tag k="place" v="locality" />
		<tag k="ssr:stedsnr" v="869630" />
	</node>
	<node lat="69.98696388476235" lon="19.37734166606279" id="-104023">
		<tag k="name" v="Nytrøa" />
		<tag k="place" v="farm" />
		<tag k="ssr:stedsnr" v="869644" />
	</node>
	<node lat="69.98249722210682" lon="19.537883337038107" id="-104025">
		<tag k="name" v="Utheim" />
		<tag k="place" v="farm" />
		<tag k="ssr:stedsnr" v="869652" />
	</node>
	<node lat="69.98563055367123" lon="19.54800833472104" id="-104026">
		<tag k="name" v="Skog" />
		<tag k="place" v="farm" />
		<tag k="ssr:stedsnr" v="869655" />
	</node>
	<node lat="70.12396388871424" lon="19.08018056123866" id="-104031">
		<tag k="name" v="Tjuvvika" />
		<tag k="place" v="farm" />
		<tag k="ssr:stedsnr" v="869614" />
	</node>
	<node lat="70.05233888505778" lon="18.933900003486226" id="-104035">
		<tag k="name" v="Bakken" />
		<tag k="place" v="farm" />
		<tag k="ssr:stedsnr" v="869752" />
	</node>
	<node lat="70.0176861096617" lon="19.083436104253586" id="-104040">
		<tag k="name" v="Skogseng" />
		<tag k="place" v="farm" />
		<tag k="ssr:stedsnr" v="869691" />
	</node>
	<node lat="70.2078527787388" lon="19.58388611093297" id="-104046">
		<tag k="name" v="Solheim" />
		<tag k="place" v="farm" />
		<tag k="ssr:stedsnr" v="869878" />
	</node>
	<node lat="70.14330833277018" lon="19.93392497700158" id="-104051">
		<tag k="name" v="Jørenvik" />
		<tag k="place" v="farm" />
		<tag k="ssr:stedsnr" v="869924" />
	</node>
	<node lat="70.11165326875896" lon="18.90828292681616" id="-104068">
		<tag k="loc_name:se" v="Muorranjárga" />
		<tag k="name" v="Toftefjordneset" />
		<tag k="name:no" v="Toftefjordneset" />
		<tag k="place" v="farm" />
		<tag k="ssr:stedsnr" v="937650" />
	</node>
	<node lat="70.22164166574471" lon="19.517411095236533" id="-104113">
		<tag k="name" v="Dalmo" />
		<tag k="place" v="farm" />
		<tag k="ssr:stedsnr" v="960793" />
	</node>
	<node lat="70.15314694413075" lon="19.666426083169984" id="-104234">
		<tag k="name" v="Sengskroken" />
		<tag k="place" v="hamlet" />
		<tag k="ssr:stedsnr" v="1072363" />
	</node>
	<node lat="69.65483861708206" lon="18.954055597917613" id="-104244">
		<tag k="amenity" v="school" />
		<tag k="name" v="Ishavsbyen videregående skole" />
		<tag k="ssr:stedsnr" v="1075695" />
	</node>
	<node lat="70.07142571205385" lon="19.974172842371736" id="-104245">
		<tag k="fixme" v="consider place=hamlet" />
		<tag k="name" v="Vannvåg" />
		<tag k="place" v="farm" />
		<tag k="ssr:stedsnr" v="1077963" />
	</node>
	<node lat="70.15460825277826" lon="20.167975653272887" id="-104246">
		<tag k="fixme" v="consider place=hamlet" />
		<tag k="name" v="Spenna" />
		<tag k="place" v="farm" />
		<tag k="ssr:stedsnr" v="1077964" />
	</node>
	<node lat="70.2652675442164" lon="20.252572264843113" id="-104247">
		<tag k="name" v="Fugløya" />
		<tag k="place" v="locality" />
		<tag k="ssr:stedsnr" v="1077965" />
	</node>
	<node lat="70.22554687046214" lon="19.727469828744297" id="-104248">
		<tag k="fixme" v="consider place=hamlet" />
		<tag k="name" v="Burøysund" />
		<tag k="place" v="farm" />
		<tag k="ssr:stedsnr" v="1077970" />
	</node>
	<node lat="69.8573479081543" lon="19.71430909227401" id="-104249">
		<tag k="fixme" v="consider place=hamlet" />
		<tag k="name" v="Grøtnes" />
		<tag k="place" v="farm" />
		<tag k="ssr:stedsnr" v="1077971" />
	</node>
	<node lat="69.99248183246807" lon="19.56386790909426" id="-104250">
		<tag k="alt_name" v="Nordre Grunnfjord" />
		<tag k="fixme" v="consider place=hamlet" />
		<tag k="name" v="Nordre Grunnfjorden" />
		<tag k="place" v="farm" />
		<tag k="ssr:stedsnr" v="1077938" />
	</node>
	<node lat="69.99428971246806" lon="19.40478123894295" id="-104251">
		<tag k="fixme" v="consider place=hamlet" />
		<tag k="name" v="Dåfjord" />
		<tag k="place" v="farm" />
		<tag k="ssr:stedsnr" v="1077939" />
	</node>
	<node lat="70.06117200228412" lon="19.37625790350358" id="-104252">
		<tag k="alt_name" v="Dåvøy" />
		<tag k="fixme" v="consider place=hamlet" />
		<tag k="name" v="Dåvøya" />
		<tag k="place" v="farm" />
		<tag k="ssr:stedsnr" v="1077940" />
	</node>
	<node lat="70.06668372667109" lon="18.81923669986175" id="-104253">
		<tag k="name" v="Toftejord" />
		<tag k="place" v="locality" />
		<tag k="ssr:stedsnr" v="1077942" />
	</node>
	<node lat="70.0966519047446" lon="18.820828759647092" id="-104254">
		<tag k="name" v="Andammen" />
		<tag k="place" v="locality" />
		<tag k="ssr:stedsnr" v="1077943" />
	</node>
	<node lat="70.10100600154222" lon="18.506188844141263" id="-104255">
		<tag k="name" v="Hattøy" />
		<tag k="place" v="locality" />
		<tag k="ssr:stedsnr" v="1077944" />
	</node>
	<node lat="70.20604511211056" lon="19.155307706732177" id="-104256">
		<tag k="fixme" v="consider place=hamlet" />
		<tag k="name" v="Sørskaret" />
		<tag k="place" v="farm" />
		<tag k="ssr:stedsnr" v="1077947" />
	</node>
	<node lat="70.1491755686319" lon="19.01210193476861" id="-104257">
		<tag k="fixme" v="consider place=hamlet" />
		<tag k="name" v="Laukvik" />
		<tag k="place" v="farm" />
		<tag k="ssr:stedsnr" v="1077948" />
	</node>
	<node lat="70.25140074425724" lon="19.19120283634173" id="-104258">
		<tag k="alt_name" v="Steikarvik" />
		<tag k="name" v="Steikarvika" />
		<tag k="place" v="locality" />
		<tag k="ssr:stedsnr" v="1077949" />
	</node>
	<node lat="70.28178406111144" lon="19.18818202505058" id="-104259">
		<tag k="name" v="Flatvær" />
		<tag k="place" v="locality" />
		<tag k="ssr:stedsnr" v="1077950" />
	</node>
	<node lat="70.25481320647535" lon="19.29665093976235" id="-104260">
		<tag k="name" v="Lyngøy" />
		<tag k="place" v="locality" />
		<tag k="ssr:stedsnr" v="1077951" />
	</node>
	<node lat="69.96642890601284" lon="19.619128376825696" id="-104261">
		<tag k="fixme" v="consider place=hamlet" />
		<tag k="name" v="Hansnes" />
		<tag k="place" v="farm" />
		<tag k="ssr:stedsnr" v="1077959" />
	</node>
	<node lat="69.97765799522416" lon="19.66633832591595" id="-104262">
		<tag k="fixme" v="consider place=hamlet" />
		<tag k="name" v="Skattøra" />
		<tag k="place" v="farm" />
		<tag k="ssr:stedsnr" v="1077960" />
	</node>
	<node lat="70.05438990321959" lon="19.798815583708457" id="-104263">
		<tag k="fixme" v="consider place=hamlet" />
		<tag k="name" v="Kvalshausen" />
		<tag k="place" v="farm" />
		<tag k="ssr:stedsnr" v="1077962" />
	</node>
	<node lat="69.96915160918333" lon="19.13978637189021" id="-104269">
		<tag k="name" v="Steinsund" />
		<tag k="place" v="farm" />
		<tag k="ssr:stedsnr" v="1080598" />
	</node>
	<node lat="69.96892668443819" lon="19.14389933040693" id="-104270">
		<tag k="name" v="Rydningen" />
		<tag k="place" v="farm" />
		<tag k="ssr:stedsnr" v="1080600" />
	</node>
	<node lat="69.98545507300172" lon="19.55257464090938" id="-104272">
		<tag k="name" v="Ophaug" />
		<tag k="place" v="farm" />
		<tag k="ssr:stedsnr" v="1082078" />
	</node>
</osm>
