<?xml version="1.0" encoding="UTF-8"?>
<<<<<<< HEAD
<osm version="0.6" generator="osmapis">
	<node lat="58.97084721843633" lon="8.993347230618124" id="-22746">
		<tag k="name" v="Skarmyrskotet" />
		<tag k="place" v="locality" />
		<tag k="ssr:stedsnr" v="24905" />
	</node>
	<node lat="58.83420833116738" lon="9.009258326895996" id="-22763">
		<tag k="name" v="Nybu" />
		<tag k="place" v="locality" />
		<tag k="ssr:stedsnr" v="24978" />
	</node>
	<node lat="58.8012833341719" lon="9.000072218484489" id="-22832">
		<tag k="name" v="Lusgnaget" />
		<tag k="place" v="locality" />
		<tag k="ssr:stedsnr" v="85872" />
	</node>
	<node lat="58.984266664193946" lon="8.954083329012233" id="-22833">
		<tag k="name" v="Toten" />
		<tag k="place" v="locality" />
		<tag k="ssr:stedsnr" v="85880" />
	</node>
	<node lat="58.954497223472586" lon="8.971283333364893" id="-22842">
		<tag k="name" v="Bøttsett" />
		<tag k="place" v="locality" />
		<tag k="ssr:stedsnr" v="85899" />
	</node>
	<node lat="58.82195555407223" lon="8.977405556183923" id="-22852">
		<tag k="name" v="Oterstokken" />
		<tag k="place" v="locality" />
		<tag k="ssr:stedsnr" v="85916" />
	</node>
	<node lat="58.81314444818871" lon="9.080663880835464" id="-22853">
		<tag k="name" v="Toftene" />
		<tag k="place" v="locality" />
		<tag k="ssr:stedsnr" v="85929" />
	</node>
	<node lat="58.898008333081386" lon="8.95714999517614" id="-22856">
		<tag k="name" v="Monipen" />
		<tag k="place" v="locality" />
		<tag k="ssr:stedsnr" v="85988" />
	</node>
	<node lat="58.902827774557856" lon="8.973499993377153" id="-22859">
		<tag k="name" v="Klaven" />
		<tag k="place" v="locality" />
		<tag k="ssr:stedsnr" v="85991" />
	</node>
	<node lat="58.88220833243976" lon="9.018941667654344" id="-22861">
		<tag k="alt_name" v="Almuestaua" />
		<tag k="amenity" v="community_centre" />
		<tag k="name" v="Almuestua" />
		<tag k="ssr:stedsnr" v="100384" />
	</node>
	<node lat="58.92929166468208" lon="8.788694452262055" id="-22974">
		<tag k="name" v="Syne" />
		<tag k="ssr:stedsnr" v="206714" />
		<tag k="tourism" v="viewpoint" />
	</node>
	<node lat="58.883047222615076" lon="9.003172219838566" id="-23001">
		<tag k="name" v="Jensjordet" />
		<tag k="place" v="locality" />
		<tag k="ssr:stedsnr" v="449749" />
	</node>
	<node lat="58.79386389042964" lon="9.066300007835984" id="-23015">
		<tag k="name" v="Vollane" />
		<tag k="place" v="locality" />
		<tag k="ssr:stedsnr" v="449933" />
	</node>
	<node lat="58.86125833440875" lon="8.913066671301696" id="-23047">
		<tag k="name" v="Grankåsa" />
		<tag k="place" v="locality" />
		<tag k="ssr:stedsnr" v="266513" />
	</node>
	<node lat="58.88183888918924" lon="9.038683327602042" id="-23051">
		<tag k="name" v="Tonjesbråt" />
		<tag k="place" v="locality" />
		<tag k="ssr:stedsnr" v="266811" />
	</node>
	<node lat="58.963694443946565" lon="8.954983340236586" id="-23062">
		<tag k="name" v="Fjellrullet" />
		<tag k="place" v="locality" />
		<tag k="ssr:stedsnr" v="266924" />
	</node>
	<node lat="58.871038886659" lon="8.85349722474035" id="-23124">
		<tag k="name" v="Teinlaget" />
		<tag k="place" v="locality" />
		<tag k="ssr:stedsnr" v="327526" />
	</node>
	<node lat="58.90589166867843" lon="9.002188894059199" id="-23148">
		<tag k="name" v="Kjellaren" />
		<tag k="place" v="locality" />
		<tag k="ssr:stedsnr" v="327876" />
	</node>
	<node lat="58.8763611073197" lon="9.046469436247243" id="-23199">
		<tag k="name" v="Nilseshage" />
		<tag k="place" v="locality" />
		<tag k="ssr:stedsnr" v="387800" />
	</node>
	<node lat="58.79411110865872" lon="9.012938889785094" id="-23205">
		<tag k="name" v="Høgli" />
		<tag k="place" v="locality" />
		<tag k="ssr:stedsnr" v="387893" />
	</node>
	<node lat="58.877142347509604" lon="8.867051376422893" id="-23265">
		<tag k="name" v="Vegvisaren" />
		<tag k="place" v="locality" />
		<tag k="ssr:stedsnr" v="426206" />
	</node>
	<node lat="58.869224998771166" lon="8.905991671640477" id="-23282">
		<tag k="name" v="Kubbdekkane" />
		<tag k="place" v="locality" />
		<tag k="ssr:stedsnr" v="449489" />
	</node>
	<node lat="58.96760555384906" lon="8.948297229438841" id="-23299">
		<tag k="name" v="Sandrullet" />
		<tag k="place" v="locality" />
		<tag k="ssr:stedsnr" v="449891" />
	</node>
	<node lat="58.825502782221754" lon="9.156674996660886" id="-23384">
		<tag k="name" v="Eikstøa" />
		<tag k="place" v="locality" />
		<tag k="ssr:stedsnr" v="691772" />
	</node>
	<node lat="58.8449944405962" lon="9.083286117090125" id="-23451">
		<tag k="name" v="Skreme" />
		<tag k="place" v="locality" />
		<tag k="ssr:stedsnr" v="569971" />
	</node>
	<node lat="58.91815277947908" lon="8.860605547053147" id="-23496">
		<tag k="name" v="Troenskolbonn" />
		<tag k="place" v="locality" />
		<tag k="ssr:stedsnr" v="630502" />
	</node>
	<node lat="58.894416665188515" lon="8.983280551173062" id="-23526">
		<tag k="amenity" v="community_centre" />
		<tag k="name" v="Frikjørka" />
		<tag k="ssr:stedsnr" v="630987" />
	</node>
	<node lat="58.85893611456913" lon="8.920197222672927" id="-23570">
		<tag k="name" v="Hegna" />
		<tag k="place" v="locality" />
		<tag k="ssr:stedsnr" v="691492" />
	</node>
	<node lat="58.92380555188192" lon="8.915988882032302" id="-23637">
		<tag k="name" v="Vinterstø" />
		<tag k="place" v="locality" />
		<tag k="ssr:stedsnr" v="752523" />
	</node>
	<node lat="58.857168022283034" lon="9.159200662074143" id="-23643">
=======
<osm generator="osmapis" version="0.6">
	<node id="-520191" lat="58.8571944422" lon="9.15915833225">
>>>>>>> e1d4bc35ff8a6074a6f2e91616a996b547c36f15
		<tag k="name" v="Faulleiken" />
		<tag k="place" v="locality" />
		<tag k="ssr:stedsnr" v="752709" />
	</node>
<<<<<<< HEAD
	<node lat="58.85932484992882" lon="9.104587172845157" id="-23697">
		<tag k="name" v="Åkroken" />
		<tag k="place" v="locality" />
		<tag k="ssr:stedsnr" v="789160" />
	</node>
	<node lat="58.9302490059875" lon="8.90412635447612" id="-23705">
		<tag k="name" v="Venli" />
		<tag k="place" v="locality" />
		<tag k="ssr:stedsnr" v="789846" />
	</node>
	<node lat="58.9562527789941" lon="8.959058336553992" id="-23752">
		<tag k="name" v="Kasplassen" />
		<tag k="place" v="locality" />
		<tag k="ssr:stedsnr" v="813891" />
	</node>
	<node lat="58.8612416681409" lon="8.919027783937018" id="-23782">
=======
	<node id="-519166" lat="58.8612416681" lon="8.91902778394">
>>>>>>> e1d4bc35ff8a6074a6f2e91616a996b547c36f15
		<tag k="name" v="Bakken" />
		<tag k="place" v="locality" />
		<tag k="ssr:stedsnr" v="934467" />
	</node>
<<<<<<< HEAD
	<node lat="58.895805554722145" lon="9.026097224010336" id="-23788">
		<tag k="name" v="Hegnane" />
		<tag k="place" v="locality" />
		<tag k="ssr:stedsnr" v="934713" />
	</node>
	<node lat="58.89457778116342" lon="8.975649992991757" id="-23828">
		<tag k="name" v="Dure" />
=======
	<node id="-519803" lat="58.8213666683" lon="9.13303610638">
		<tag k="name" v="Bjørnstokken" />
		<tag k="place" v="locality" />
		<tag k="ssr:stedsnr" v="327744" />
	</node>
	<node id="-519674" lat="58.9292916647" lon="8.78869445226">
		<tag k="name" v="Syne" />
		<tag k="ssr:stedsnr" v="206714" />
		<tag k="tourism" v="viewpoint" />
	</node>
	<node id="-519032" lat="58.86989167" lon="9.03807222057">
		<tag k="name" v="Pigesenga" />
>>>>>>> e1d4bc35ff8a6074a6f2e91616a996b547c36f15
		<tag k="place" v="locality" />
		<tag k="ssr:stedsnr" v="934989" />
	</node>
<<<<<<< HEAD
	<node lat="58.82960833612407" lon="9.081672215818111" id="-23858">
=======
	<node id="-519286" lat="58.8296083361" lon="9.08167221582">
>>>>>>> e1d4bc35ff8a6074a6f2e91616a996b547c36f15
		<tag k="name" v="Helleren" />
		<tag k="place" v="locality" />
		<tag k="ssr:stedsnr" v="934735" />
	</node>
<<<<<<< HEAD
	<node lat="58.87455278134541" lon="8.80688334116901" id="-23932">
		<tag k="name" v="Byttestuven" />
=======
	<node id="-520053" lat="58.8286972233" lon="9.12021110701">
		<tag k="name" v="Lillplass" />
>>>>>>> e1d4bc35ff8a6074a6f2e91616a996b547c36f15
		<tag k="place" v="locality" />
		<tag k="ssr:stedsnr" v="24735" />
	</node>
<<<<<<< HEAD
	<node lat="58.89596944246608" lon="9.024266665230023" id="-23935">
		<tag k="name" v="Hausen" />
=======
	<node id="-518900" lat="58.8589361146" lon="8.92019722267">
		<tag k="name" v="Hegna" />
>>>>>>> e1d4bc35ff8a6074a6f2e91616a996b547c36f15
		<tag k="place" v="locality" />
		<tag k="ssr:stedsnr" v="24747" />
	</node>
<<<<<<< HEAD
	<node lat="58.92799166748479" lon="9.007688882129093" id="-23994">
		<tag k="name" v="Skjorperød" />
=======
	<node id="-519794" lat="58.9058916687" lon="9.00218889406">
		<tag k="name" v="Kjellaren" />
>>>>>>> e1d4bc35ff8a6074a6f2e91616a996b547c36f15
		<tag k="place" v="locality" />
		<tag k="ssr:stedsnr" v="84876" />
	</node>
<<<<<<< HEAD
	<node lat="58.851719446855114" lon="9.165161114417089" id="-24000">
		<tag k="name" v="Viliheftet" />
=======
	<node id="-518513" lat="58.8692249988" lon="8.90599167164">
		<tag k="name" v="Kubbdekkane" />
>>>>>>> e1d4bc35ff8a6074a6f2e91616a996b547c36f15
		<tag k="place" v="locality" />
		<tag k="ssr:stedsnr" v="85596" />
	</node>
<<<<<<< HEAD
	<node lat="58.85310833285735" lon="9.073347226995207" id="-24017">
		<tag k="name" v="Skomakervollen" />
=======
	<node id="-519280" lat="58.8958055547" lon="9.02609722401">
		<tag k="name" v="Hegnane" />
>>>>>>> e1d4bc35ff8a6074a6f2e91616a996b547c36f15
		<tag k="place" v="locality" />
		<tag k="ssr:stedsnr" v="85969" />
	</node>
<<<<<<< HEAD
	<node lat="58.83328888631675" lon="9.125458332486106" id="-24020">
		<tag k="name" v="Brattlirevet" />
=======
	<node id="-519407" lat="58.8342083312" lon="9.0092583269">
		<tag k="name" v="Nybu" />
>>>>>>> e1d4bc35ff8a6074a6f2e91616a996b547c36f15
		<tag k="place" v="locality" />
		<tag k="ssr:stedsnr" v="85726" />
	</node>
<<<<<<< HEAD
	<node lat="58.909813889143344" lon="8.93129723089496" id="-24056">
		<tag k="name" v="Stølen" />
=======
	<node id="-520174" lat="58.959752781" lon="8.89147499497">
		<tag k="name" v="Materialen" />
>>>>>>> e1d4bc35ff8a6074a6f2e91616a996b547c36f15
		<tag k="place" v="locality" />
		<tag k="ssr:stedsnr" v="145544" />
	</node>
<<<<<<< HEAD
	<node lat="58.94789166237624" lon="8.851383337816166" id="-24057">
		<tag k="name" v="Ospesneisa" />
=======
	<node id="-519660" lat="58.8830472215" lon="8.86316110753">
		<tag k="name" v="Kasplassen" />
>>>>>>> e1d4bc35ff8a6074a6f2e91616a996b547c36f15
		<tag k="place" v="locality" />
		<tag k="ssr:stedsnr" v="145553" />
	</node>
<<<<<<< HEAD
	<node lat="58.88982777809532" lon="8.866863888634308" id="-24061">
		<tag k="name" v="Halvtekka" />
=======
	<node id="-519915" lat="58.8284083371" lon="9.07409166297">
		<tag k="name" v="Skratreid" />
>>>>>>> e1d4bc35ff8a6074a6f2e91616a996b547c36f15
		<tag k="place" v="locality" />
		<tag k="ssr:stedsnr" v="145468" />
	</node>
<<<<<<< HEAD
	<node lat="58.91721389096766" lon="8.979805559517564" id="-24070">
		<tag k="name" v="Lunden" />
=======
	<node id="-520426" lat="58.8547694488" lon="8.88550000282">
		<tag k="name" v="Barlindbrikene" />
>>>>>>> e1d4bc35ff8a6074a6f2e91616a996b547c36f15
		<tag k="place" v="locality" />
		<tag k="ssr:stedsnr" v="145867" />
	</node>
<<<<<<< HEAD
	<node lat="58.9813722256902" lon="8.900258324907306" id="-24076">
		<tag k="name" v="Ørnedalshovet" />
		<tag k="place" v="locality" />
		<tag k="ssr:stedsnr" v="145593" />
	</node>
	<node lat="58.89096944656662" lon="9.004497219603255" id="-24095">
		<tag k="name" v="Nåvarshol" />
		<tag k="place" v="locality" />
		<tag k="ssr:stedsnr" v="145747" />
	</node>
	<node lat="58.89682778126197" lon="9.007708339438311" id="-24096">
		<tag k="name" v="Grosplass" />
		<tag k="place" v="locality" />
		<tag k="ssr:stedsnr" v="145749" />
	</node>
	<node lat="58.894161108034716" lon="8.978269440522675" id="-24115">
		<tag k="name" v="Jomfruland" />
=======
	<node id="-520169" lat="58.9238055519" lon="8.91598888203">
		<tag k="name" v="Vinterstø" />
		<tag k="place" v="locality" />
		<tag k="ssr:stedsnr" v="752523" />
	</node>
	<node id="-519569" lat="58.894161108" lon="8.97826944052">
		<tag k="name" v="Jomfruland" />
		<tag k="place" v="locality" />
		<tag k="ssr:stedsnr" v="145982" />
	</node>
	<node id="-519140" lat="58.8828972226" lon="9.02007777904">
		<tag k="alt_name" v="Gjerstad Kirke" />
		<tag k="amenity" v="place_of_worship" />
		<tag k="denomination" v="lutheran" />
		<tag k="name" v="Gjerstad" />
		<tag k="religion" v="christian" />
		<tag k="ssr:stedsnr" v="789228" />
	</node>
	<node id="-520032" lat="58.8488805561" lon="8.96702221616">
		<tag k="name" v="Kruseshus" />
>>>>>>> e1d4bc35ff8a6074a6f2e91616a996b547c36f15
		<tag k="place" v="locality" />
		<tag k="ssr:stedsnr" v="145982" />
	</node>
<<<<<<< HEAD
	<node lat="58.85797309061239" lon="8.93114336633356" id="-24141">
		<tag k="name" v="Myrkjerr" />
=======
	<node id="-519902" lat="58.8763611073" lon="9.04646943625">
		<tag k="name" v="Nilseshage" />
>>>>>>> e1d4bc35ff8a6074a6f2e91616a996b547c36f15
		<tag k="place" v="locality" />
		<tag k="ssr:stedsnr" v="183130" />
	</node>
<<<<<<< HEAD
	<node lat="58.88304722151172" lon="8.863161107526663" id="-24170">
		<tag k="name" v="Kasplassen" />
		<tag k="place" v="locality" />
		<tag k="ssr:stedsnr" v="206481" />
	</node>
	<node lat="58.88706389194406" lon="9.002605554105457" id="-24193">
		<tag k="name" v="Kolvedhogsten" />
		<tag k="place" v="locality" />
		<tag k="ssr:stedsnr" v="206764" />
	</node>
	<node lat="58.900808335446435" lon="9.063747227530946" id="-24205">
		<tag k="name" v="Fikstøl" />
		<tag k="place" v="locality" />
		<tag k="ssr:stedsnr" v="206802" />
	</node>
	<node lat="58.84918055632337" lon="9.062941672461822" id="-24223">
		<tag k="name" v="Tverrbråten" />
=======
	<node id="-520111" lat="58.9181527795" lon="8.86060554705">
		<tag k="name" v="Troenskolbonn" />
		<tag k="place" v="locality" />
		<tag k="ssr:stedsnr" v="630502" />
	</node>
	<node id="-518394" lat="58.8818388892" lon="9.0386833276">
		<tag k="name" v="Tonjesbråt" />
		<tag k="place" v="locality" />
		<tag k="ssr:stedsnr" v="266811" />
	</node>
	<node id="-519898" lat="58.7941111087" lon="9.01293888979">
		<tag k="name" v="Høgli" />
		<tag k="place" v="locality" />
		<tag k="ssr:stedsnr" v="387893" />
	</node>
	<node id="-519255" lat="58.9165972232" lon="8.97056389683">
		<tag k="name" v="Asken" />
>>>>>>> e1d4bc35ff8a6074a6f2e91616a996b547c36f15
		<tag k="place" v="locality" />
		<tag k="ssr:stedsnr" v="207984" />
	</node>
<<<<<<< HEAD
	<node lat="58.906019448570966" lon="8.920938891354341" id="-24259">
		<tag k="name" v="Heimienden" />
		<tag k="place" v="locality" />
		<tag k="ssr:stedsnr" v="327547" />
	</node>
	<node lat="58.82136666829578" lon="9.133036106382837" id="-24277">
		<tag k="name" v="Bjørnstokken" />
		<tag k="place" v="locality" />
		<tag k="ssr:stedsnr" v="327744" />
	</node>
	<node lat="58.910969442469394" lon="8.994272224870501" id="-24290">
=======
	<node id="-518358" lat="58.8012833342" lon="9.00007221848">
		<tag k="name" v="Lusgnaget" />
		<tag k="place" v="locality" />
		<tag k="ssr:stedsnr" v="85872" />
	</node>
	<node id="-520149" lat="58.8944166652" lon="8.98328055117">
		<tag k="amenity" v="community_centre" />
		<tag k="name" v="Frikjørka" />
		<tag k="ssr:stedsnr" v="630987" />
	</node>
	<node id="-519508" lat="58.8822083324" lon="9.01894166765">
		<tag k="alt_name" v="Almuestaua" />
		<tag k="amenity" v="community_centre" />
		<tag k="name" v="Almuestua" />
		<tag k="ssr:stedsnr" v="100384" />
	</node>
	<node id="-518611" lat="58.9109694425" lon="8.99427222487">
>>>>>>> e1d4bc35ff8a6074a6f2e91616a996b547c36f15
		<tag k="name" v="Hoskolldokk" />
		<tag k="place" v="locality" />
		<tag k="ssr:stedsnr" v="327826" />
	</node>
<<<<<<< HEAD
	<node lat="58.82840833708666" lon="9.074091662967053" id="-24371">
		<tag k="name" v="Skratreid" />
=======
	<node id="-518994" lat="58.8508638899" lon="9.04100278233">
		<tag k="name" v="Humlesekken" />
>>>>>>> e1d4bc35ff8a6074a6f2e91616a996b547c36f15
		<tag k="place" v="locality" />
		<tag k="ssr:stedsnr" v="388733" />
	</node>
<<<<<<< HEAD
	<node lat="58.895583334731334" lon="9.053602781813046" id="-24403">
		<tag k="name" v="Holmva" />
=======
	<node id="-520017" lat="58.8449944406" lon="9.08328611709">
		<tag k="name" v="Skreme" />
>>>>>>> e1d4bc35ff8a6074a6f2e91616a996b547c36f15
		<tag k="place" v="locality" />
		<tag k="ssr:stedsnr" v="509777" />
	</node>
<<<<<<< HEAD
	<node lat="58.94270555416247" lon="9.013227786415197" id="-24432">
		<tag k="name" v="Øygardsrød" />
=======
	<node id="-518352" lat="58.8332888863" lon="9.12545833249">
		<tag k="name" v="Brattlirevet" />
>>>>>>> e1d4bc35ff8a6074a6f2e91616a996b547c36f15
		<tag k="place" v="locality" />
		<tag k="ssr:stedsnr" v="509822" />
	</node>
<<<<<<< HEAD
	<node lat="58.861922219393946" lon="9.068247230230078" id="-24437">
		<tag k="name" v="Hesthagen" />
		<tag k="place" v="locality" />
		<tag k="ssr:stedsnr" v="509835" />
	</node>
	<node lat="58.82869722326979" lon="9.120211107011267" id="-24489">
		<tag k="name" v="Lillplass" />
=======
	<node id="-518733" lat="58.9427055542" lon="9.01322778642">
		<tag k="name" v="Øygardsrød" />
>>>>>>> e1d4bc35ff8a6074a6f2e91616a996b547c36f15
		<tag k="place" v="locality" />
		<tag k="ssr:stedsnr" v="570783" />
	</node>
<<<<<<< HEAD
	<node lat="58.848880556138994" lon="8.967022216160068" id="-24506">
		<tag k="name" v="Kruseshus" />
=======
	<node id="-519500" lat="58.8131444482" lon="9.08066388084">
		<tag k="name" v="Toftene" />
>>>>>>> e1d4bc35ff8a6074a6f2e91616a996b547c36f15
		<tag k="place" v="locality" />
		<tag k="ssr:stedsnr" v="570884" />
	</node>
<<<<<<< HEAD
	<node lat="58.850863889851716" lon="9.0410027823286" id="-24508">
		<tag k="name" v="Humlesekken" />
		<tag k="place" v="locality" />
		<tag k="ssr:stedsnr" v="570905" />
	</node>
	<node lat="58.84546244929326" lon="9.008025086549555" id="-24517">
		<tag k="name" v="Åsen" />
=======
	<node id="-519499" lat="58.8219555541" lon="8.97740555618">
		<tag k="name" v="Oterstokken" />
		<tag k="place" v="locality" />
		<tag k="ssr:stedsnr" v="85916" />
	</node>
	<node id="-519498" lat="58.9544972235" lon="8.97128333336">
		<tag k="name" v="Bøttsett" />
>>>>>>> e1d4bc35ff8a6074a6f2e91616a996b547c36f15
		<tag k="place" v="locality" />
		<tag k="ssr:stedsnr" v="607087" />
	</node>
<<<<<<< HEAD
	<node lat="58.869891670040325" lon="9.03807222057116" id="-24571">
		<tag k="name" v="Pigesenga" />
		<tag k="place" v="locality" />
		<tag k="ssr:stedsnr" v="630759" />
	</node>
	<node lat="58.87696389031475" lon="9.020225008081526" id="-24574">
		<tag k="amenity" v="community_centre" />
		<tag k="name" v="Egdehall" />
		<tag k="ssr:stedsnr" v="630773" />
	</node>
	<node lat="58.91385277869462" lon="9.024213886921205" id="-24582">
		<tag k="name" v="Trekkbenken" />
		<tag k="place" v="locality" />
		<tag k="ssr:stedsnr" v="630878" />
	</node>
	<node lat="58.878116666565134" lon="9.042427784435612" id="-24662">
		<tag k="name" v="Kveimhola" />
=======
	<node id="-520137" lat="58.9138527787" lon="9.02421388692">
		<tag k="name" v="Trekkbenken" />
		<tag k="place" v="locality" />
		<tag k="ssr:stedsnr" v="630878" />
	</node>
	<node id="-519368" lat="58.8745527813" lon="8.80688334117">
		<tag k="name" v="Byttestuven" />
		<tag k="place" v="locality" />
		<tag k="ssr:stedsnr" v="24735" />
	</node>
	<node id="-518598" lat="58.8710388867" lon="8.85349722474">
		<tag k="name" v="Teinlaget" />
>>>>>>> e1d4bc35ff8a6074a6f2e91616a996b547c36f15
		<tag k="place" v="locality" />
		<tag k="ssr:stedsnr" v="752796" />
	</node>
<<<<<<< HEAD
	<node lat="58.95975278102183" lon="8.891474994970276" id="-24667">
		<tag k="name" v="Materialen" />
=======
	<node id="-520261" lat="58.8958750033" lon="8.97832778304">
		<tag k="name" v="Leirdalen" />
>>>>>>> e1d4bc35ff8a6074a6f2e91616a996b547c36f15
		<tag k="place" v="locality" />
		<tag k="ssr:stedsnr" v="752552" />
	</node>
<<<<<<< HEAD
	<node lat="58.83436389153361" lon="9.107469438051666" id="-24677">
		<tag k="name" v="Solbakken" />
=======
	<node id="-519489" lat="58.9842666642" lon="8.95408332901">
		<tag k="name" v="Toten" />
>>>>>>> e1d4bc35ff8a6074a6f2e91616a996b547c36f15
		<tag k="place" v="locality" />
		<tag k="ssr:stedsnr" v="752746" />
	</node>
<<<<<<< HEAD
	<node lat="58.8958750033283" lon="8.97832778304382" id="-24694">
		<tag k="name" v="Leirdalen" />
=======
	<node id="-519487" lat="58.9028277746" lon="8.97349999338">
		<tag k="name" v="Klaven" />
>>>>>>> e1d4bc35ff8a6074a6f2e91616a996b547c36f15
		<tag k="place" v="locality" />
		<tag k="ssr:stedsnr" v="752984" />
	</node>
<<<<<<< HEAD
	<node lat="58.882869757091" lon="9.019917859727821" id="-24709">
		<tag k="alt_name" v="Gjerstad" />
		<tag k="amenity" v="place_of_worship" />
		<tag k="denomination" v="lutheran" />
		<tag k="name" v="Gjerstad kirke" />
		<tag k="religion" v="christian" />
		<tag k="ssr:stedsnr" v="789228" />
	</node>
	<node lat="58.86248333770105" lon="9.052450000506942" id="-24788">
		<tag k="name" v="Østernes" />
=======
	<node id="-518461" lat="58.917213891" lon="8.97980555952">
		<tag k="name" v="Lunden" />
>>>>>>> e1d4bc35ff8a6074a6f2e91616a996b547c36f15
		<tag k="place" v="locality" />
		<tag k="ssr:stedsnr" v="813835" />
	</node>
<<<<<<< HEAD
	<node lat="58.854769448761886" lon="8.88550000281505" id="-24834">
		<tag k="name" v="Barlindbrikene" />
=======
	<node id="-519484" lat="58.8980083331" lon="8.95714999518">
		<tag k="name" v="Monipen" />
>>>>>>> e1d4bc35ff8a6074a6f2e91616a996b547c36f15
		<tag k="place" v="locality" />
		<tag k="ssr:stedsnr" v="873485" />
	</node>
<<<<<<< HEAD
	<node lat="58.86710555297572" lon="9.077413889461768" id="-24879">
		<tag k="name" v="Vasane" />
=======
	<node id="-518714" lat="58.8955833347" lon="9.05360278181">
		<tag k="name" v="Holmva" />
>>>>>>> e1d4bc35ff8a6074a6f2e91616a996b547c36f15
		<tag k="place" v="locality" />
		<tag k="ssr:stedsnr" v="873848" />
	</node>
<<<<<<< HEAD
	<node lat="58.91659722318338" lon="8.970563896827526" id="-24881">
		<tag k="name" v="Asken" />
=======
	<node id="-519737" lat="58.8491805563" lon="9.06294167246">
		<tag k="name" v="Tverrbråten" />
>>>>>>> e1d4bc35ff8a6074a6f2e91616a996b547c36f15
		<tag k="place" v="locality" />
		<tag k="ssr:stedsnr" v="873855" />
	</node>
	<node id="-520117" lat="58.8769638903" lon="9.02022500808">
		<tag k="amenity" v="community_centre" />
		<tag k="name" v="Egdehall" />
		<tag k="ssr:stedsnr" v="630773" />
	</node>
	<node id="-518451" lat="58.9478916624" lon="8.85138333782">
		<tag k="name" v="Ospesneisa" />
		<tag k="place" v="locality" />
		<tag k="ssr:stedsnr" v="145553" />
	</node>
	<node id="-518368" lat="58.8612583344" lon="8.9130666713">
		<tag k="name" v="Grankåsa" />
		<tag k="place" v="locality" />
		<tag k="ssr:stedsnr" v="266513" />
	</node>
	<node id="-519471" lat="58.8517194469" lon="9.16516111442">
		<tag k="name" v="Viliheftet" />
		<tag k="place" v="locality" />
		<tag k="ssr:stedsnr" v="85596" />
	</node>
	<node id="-519371" lat="58.8959694425" lon="9.02426666523">
		<tag k="name" v="Hausen" />
		<tag k="place" v="locality" />
		<tag k="ssr:stedsnr" v="24747" />
	</node>
	<node id="-520359" lat="58.956252779" lon="8.95905833655">
		<tag k="name" v="Kasplassen" />
		<tag k="place" v="locality" />
		<tag k="ssr:stedsnr" v="813891" />
	</node>
	<node id="-519459" lat="58.9279916675" lon="9.00768888213">
		<tag k="name" v="Skjorperød" />
		<tag k="place" v="locality" />
		<tag k="ssr:stedsnr" v="84876" />
	</node>
	<node id="-519586" lat="58.8968277813" lon="9.00770833944">
		<tag k="name" v="Grosplass" />
		<tag k="place" v="locality" />
		<tag k="ssr:stedsnr" v="145749" />
	</node>
	<node id="-519585" lat="58.8909694466" lon="9.0044972196">
		<tag k="name" v="Nåvarshol" />
		<tag k="place" v="locality" />
		<tag k="ssr:stedsnr" v="145747" />
	</node>
	<node id="-520352" lat="58.8624833377" lon="9.05245000051">
		<tag k="name" v="Østernes" />
		<tag k="place" v="locality" />
		<tag k="ssr:stedsnr" v="813835" />
	</node>
	<node id="-518942" lat="58.8255027822" lon="9.15667499666">
		<tag k="name" v="Eikstøa" />
		<tag k="place" v="locality" />
		<tag k="ssr:stedsnr" v="691772" />
	</node>
	<node id="-518761" lat="58.8782250012" lon="8.87443055897">
		<tag k="name" v="Vegvisaren" />
		<tag k="place" v="locality" />
		<tag k="ssr:stedsnr" v="426206" />
	</node>
	<node id="-519200" lat="58.8945777812" lon="8.97564999299">
		<tag k="name" v="Dure" />
		<tag k="place" v="locality" />
		<tag k="ssr:stedsnr" v="934989" />
	</node>
	<node id="-518298" lat="58.9708472184" lon="8.99334723062">
		<tag k="name" v="Skarmyrskotet" />
		<tag k="place" v="locality" />
		<tag k="ssr:stedsnr" v="24905" />
	</node>
	<node id="-518447" lat="58.8898277781" lon="8.86686388863">
		<tag k="name" v="Halvtekka" />
		<tag k="place" v="locality" />
		<tag k="ssr:stedsnr" v="145468" />
	</node>
	<node id="-518549" lat="58.9676055538" lon="8.94829722944">
		<tag k="name" v="Sandrullet" />
		<tag k="place" v="locality" />
		<tag k="ssr:stedsnr" v="449891" />
	</node>
	<node id="-518603" lat="58.9060194486" lon="8.92093889135">
		<tag k="name" v="Heimienden" />
		<tag k="place" v="locality" />
		<tag k="ssr:stedsnr" v="327547" />
	</node>
	<node id="-520210" lat="58.8781166666" lon="9.04242778444">
		<tag k="name" v="Kveimhola" />
		<tag k="place" v="locality" />
		<tag k="ssr:stedsnr" v="752796" />
	</node>
	<node id="-518363" lat="58.8531083329" lon="9.073347227">
		<tag k="name" v="Skomakervollen" />
		<tag k="place" v="locality" />
		<tag k="ssr:stedsnr" v="85969" />
	</node>
	<node id="-519696" lat="58.9008083354" lon="9.06374722753">
		<tag k="name" v="Fikstøl" />
		<tag k="place" v="locality" />
		<tag k="ssr:stedsnr" v="206802" />
	</node>
	<node id="-520461" lat="58.867105553" lon="9.07741388946">
		<tag k="name" v="Vasane" />
		<tag k="place" v="locality" />
		<tag k="ssr:stedsnr" v="873848" />
	</node>
	<node id="-518412" lat="58.9636944439" lon="8.95498334024">
		<tag k="name" v="Fjellrullet" />
		<tag k="place" v="locality" />
		<tag k="ssr:stedsnr" v="266924" />
	</node>
	<node id="-518538" lat="58.7938638904" lon="9.06630000784">
		<tag k="name" v="Vollane" />
		<tag k="place" v="locality" />
		<tag k="ssr:stedsnr" v="449933" />
	</node>
	<node id="-518738" lat="58.8619222194" lon="9.06824723023">
		<tag k="name" v="Hesthagen" />
		<tag k="place" v="locality" />
		<tag k="ssr:stedsnr" v="509835" />
	</node>
	<node id="-520198" lat="58.8343638915" lon="9.10746943805">
		<tag k="name" v="Solbakken" />
		<tag k="place" v="locality" />
		<tag k="ssr:stedsnr" v="752746" />
	</node>
	<node id="-518529" lat="58.8830472226" lon="9.00317221984">
		<tag k="name" v="Jensjordet" />
		<tag k="place" v="locality" />
		<tag k="ssr:stedsnr" v="449749" />
	</node>
	<node id="-519684" lat="58.8870638919" lon="9.00260555411">
		<tag k="name" v="Kolvedhogsten" />
		<tag k="place" v="locality" />
		<tag k="ssr:stedsnr" v="206764" />
	</node>
	<node id="-519555" lat="58.9098138891" lon="8.93129723089">
		<tag k="name" v="Stølen" />
		<tag k="place" v="locality" />
		<tag k="ssr:stedsnr" v="145544" />
	</node>
	<node id="-519553" lat="58.9813722257" lon="8.90025832491">
		<tag k="name" v="Ørnedalshovet" />
		<tag k="place" v="locality" />
		<tag k="ssr:stedsnr" v="145593" />
	</node>
</osm>
