<?xml version="1.0" encoding="UTF-8"?>
<osm generator="osmapis" version="0.6">
	<node id="-503807" lat="58.8613305519" lon="8.91571388561">
		<tag k="name" v="Maurhola" />
		<tag k="natural" v="valley" />
		<tag k="place" v="locality" />
		<tag k="ssr:stedsnr" v="206467" />
	</node>
	<node id="-503805" lat="58.8602888914" lon="8.84559721722">
		<tag k="name" v="Kvenntjennliene" />
		<tag k="natural" v="slope" />
		<tag k="place" v="locality" />
		<tag k="ssr:stedsnr" v="206458" />
	</node>
	<node id="-502442" lat="58.887324996" lon="8.81367777308">
		<tag k="name" v="Stormyrdalen" />
		<tag k="natural" v="valley" />
		<tag k="place" v="locality" />
		<tag k="ssr:stedsnr" v="24639" />
	</node>
	<node id="-503799" lat="58.789294448" lon="9.06010833684">
		<tag k="fixme" v="consider natural=peak for the most distinct mountains in the district" />
		<tag k="name" v="Geitknatten" />
		<tag k="natural" v="hill" />
		<tag k="place" v="locality" />
		<tag k="ssr:stedsnr" v="184473" />
	</node>
	<node id="-503796" lat="58.9422166673" lon="8.9341833256">
		<tag k="alt_name" v="Vannlia" />
		<tag k="name" v="Vatnelia" />
		<tag k="natural" v="slope" />
		<tag k="place" v="locality" />
		<tag k="ssr:stedsnr" v="183832" />
	</node>
	<node id="-503794" lat="58.9140694468" lon="8.91143055289">
		<tag k="name" v="Øygardsdalen" />
		<tag k="natural" v="valley" />
		<tag k="place" v="locality" />
		<tag k="ssr:stedsnr" v="183773" />
	</node>
	<node id="-503793" lat="58.9156416623" lon="8.9503555577">
		<tag k="alt_name" v="Lundevassliene" />
		<tag k="name" v="Lundevassliane" />
		<tag k="natural" v="slope" />
		<tag k="place" v="locality" />
		<tag k="ssr:stedsnr" v="183771" />
	</node>
	<node id="-503792" lat="58.8827638881" lon="8.82602777591">
		<tag k="fixme" v="consider natural=peak for the most distinct mountains in the district" />
		<tag k="name" v="Kloven" />
		<tag k="natural" v="hill" />
		<tag k="place" v="locality" />
		<tag k="ssr:stedsnr" v="183722" />
	</node>
	<node id="-503789" lat="58.866194448" lon="9.16563054827">
		<tag k="fixme" v="consider natural=peak for the most distinct mountains in the district" />
		<tag k="name" v="Bærmyrfjellet" />
		<tag k="natural" v="hill" />
		<tag k="place" v="locality" />
		<tag k="ssr:stedsnr" v="183151" />
	</node>
	<node id="-502439" lat="58.8780249974" lon="9.12045555306">
		<tag k="fixme" v="consider natural=peak for the most distinct mountains in the district" />
		<tag k="name" v="Søndre Fjellmyråsen" />
		<tag k="natural" v="hill" />
		<tag k="place" v="locality" />
		<tag k="ssr:stedsnr" v="24622" />
	</node>
	<node id="-503780" lat="58.8359000012" lon="9.17696665887">
		<tag k="fixme" v="consider natural=peak for the most distinct mountains in the district" />
		<tag k="name" v="Øygardsheia" />
		<tag k="natural" v="hill" />
		<tag k="place" v="locality" />
		<tag k="ssr:stedsnr" v="183048" />
	</node>
	<node id="-503777" lat="58.8143638879" lon="9.13235000663">
		<tag k="fixme" v="consider natural=peak for the most distinct mountains in the district" />
		<tag k="name" v="Gruveheia" />
		<tag k="natural" v="hill" />
		<tag k="place" v="locality" />
		<tag k="ssr:stedsnr" v="183003" />
	</node>
	<node id="-503774" lat="58.9659527796" lon="8.87922221908">
		<tag k="fixme" v="consider natural=peak for the most distinct mountains in the district" />
		<tag k="name" v="Øktdagsknuten" />
		<tag k="natural" v="hill" />
		<tag k="place" v="locality" />
		<tag k="ssr:stedsnr" v="182876" />
	</node>
	<node id="-503768" lat="58.9300861071" lon="8.91725833431">
		<tag k="alt_name" v="Raudkollknuten, lille" />
		<tag k="fixme" v="consider natural=peak for the most distinct mountains in the district" />
		<tag k="name" v="Lille Raudkollknuten" />
		<tag k="natural" v="hill" />
		<tag k="place" v="locality" />
		<tag k="ssr:stedsnr" v="182809" />
	</node>
	<node id="-503767" lat="58.9466527745" lon="8.83338610896">
		<tag k="name" v="Risfjelldalen" />
		<tag k="natural" v="valley" />
		<tag k="place" v="locality" />
		<tag k="ssr:stedsnr" v="183376" />
	</node>
	<node id="-503761" lat="58.8831777761" lon="8.97143610511">
		<tag k="fixme" v="consider natural=peak for the most distinct mountains in the district" />
		<tag k="name" v="Myråsen" />
		<tag k="natural" v="hill" />
		<tag k="place" v="locality" />
		<tag k="ssr:stedsnr" v="182210" />
	</node>
	<node id="-503755" lat="58.8437027768" lon="8.96504721753">
		<tag k="fixme" v="consider natural=peak for the most distinct mountains in the district" />
		<tag k="name" v="Tormodsknuten" />
		<tag k="natural" v="hill" />
		<tag k="place" v="locality" />
		<tag k="ssr:stedsnr" v="182083" />
	</node>
	<node id="-503754" lat="58.8430972259" lon="9.16068611232">
		<tag k="fixme" v="consider natural=peak for the most distinct mountains in the district" />
		<tag k="name" v="Kollane" />
		<tag k="natural" v="hill" />
		<tag k="place" v="locality" />
		<tag k="ssr:stedsnr" v="182069" />
	</node>
	<node id="-503750" lat="58.8617388871" lon="9.09939444618">
		<tag k="name" v="Røgdalen" />
		<tag k="natural" v="valley" />
		<tag k="place" v="locality" />
		<tag k="ssr:stedsnr" v="145851" />
	</node>
	<node id="-503749" lat="58.864180559" lon="9.09756111896">
		<tag k="name" v="Djupmyrheia" />
		<tag k="natural" v="hill" />
		<tag k="place" v="locality" />
		<tag k="ssr:stedsnr" v="145850" />
	</node>
	<node id="-503748" lat="58.8911333378" lon="9.12550277568">
		<tag k="name" v="Nordre Trommedal" />
		<tag k="natural" v="valley" />
		<tag k="place" v="locality" />
		<tag k="ssr:stedsnr" v="145848" />
	</node>
	<node id="-503744" lat="58.9304527739" lon="8.94219444422">
		<tag k="fixme" v="consider natural=peak for the most distinct mountains in the district" />
		<tag k="name" v="Apalåsen" />
		<tag k="natural" v="hill" />
		<tag k="place" v="locality" />
		<tag k="ssr:stedsnr" v="145839" />
	</node>
	<node id="-503743" lat="58.8854444435" lon="9.0818222281">
		<tag k="name" v="Trettmyrliene" />
		<tag k="natural" v="slope" />
		<tag k="place" v="locality" />
		<tag k="ssr:stedsnr" v="145834" />
	</node>
	<node id="-503742" lat="58.8937944474" lon="9.09447777534">
		<tag k="name" v="Bukleiv" />
		<tag k="natural" v="slope" />
		<tag k="place" v="locality" />
		<tag k="ssr:stedsnr" v="145833" />
	</node>
	<node id="-503741" lat="58.9012333378" lon="9.07589722367">
		<tag k="fixme" v="consider natural=peak for the most distinct mountains in the district" />
		<tag k="name" v="Ålekaråsen" />
		<tag k="natural" v="hill" />
		<tag k="place" v="locality" />
		<tag k="ssr:stedsnr" v="145831" />
	</node>
	<node id="-503739" lat="58.8797055593" lon="9.00325832811">
		<tag k="name" v="Bråtankollen" />
		<tag k="natural" v="hill" />
		<tag k="place" v="locality" />
		<tag k="ssr:stedsnr" v="145828" />
	</node>
	<node id="-503738" lat="58.887925003" lon="9.11719166129">
		<tag k="fixme" v="consider natural=peak for the most distinct mountains in the district" />
		<tag k="name" v="Tereknuten" />
		<tag k="natural" v="hill" />
		<tag k="place" v="locality" />
		<tag k="ssr:stedsnr" v="145827" />
	</node>
	<node id="-503737" lat="58.8693972265" lon="9.01086667277">
		<tag k="name" v="Storheia" />
		<tag k="natural" v="hill" />
		<tag k="place" v="locality" />
		<tag k="ssr:stedsnr" v="145826" />
	</node>
	<node id="-503733" lat="58.8381666706" lon="9.0823750082">
		<tag k="fixme" v="consider natural=peak for the most distinct mountains in the district" />
		<tag k="name" v="Lauvåsen" />
		<tag k="natural" v="hill" />
		<tag k="place" v="locality" />
		<tag k="ssr:stedsnr" v="145744" />
	</node>
	<node id="-503730" lat="58.8229916689" lon="9.06520833787">
		<tag k="name" v="Hestliene" />
		<tag k="natural" v="slope" />
		<tag k="place" v="locality" />
		<tag k="ssr:stedsnr" v="145739" />
	</node>
	<node id="-503729" lat="58.9036222229" lon="9.00514444906">
		<tag k="name" v="Hasselholtheia" />
		<tag k="natural" v="hill" />
		<tag k="place" v="locality" />
		<tag k="ssr:stedsnr" v="145738" />
	</node>
	<node id="-503726" lat="58.8575805556" lon="9.14837499845">
		<tag k="name" v="Tufttjennmoen" />
		<tag k="place" v="locality" />
		<tag k="ssr:stedsnr" v="145729" />
	</node>
	<node id="-503723" lat="58.8487972254" lon="9.10808334071">
		<tag k="name" v="Høstfjøsdalen" />
		<tag k="natural" v="valley" />
		<tag k="place" v="locality" />
		<tag k="ssr:stedsnr" v="145993" />
	</node>
	<node id="-503722" lat="58.8509027809" lon="9.11395555812">
		<tag k="name" v="Vollanheia" />
		<tag k="natural" v="hill" />
		<tag k="place" v="locality" />
		<tag k="ssr:stedsnr" v="145991" />
	</node>
	<node id="-503717" lat="58.9769388923" lon="8.95256389031">
		<tag k="name" v="Bjørnsmyrdalen" />
		<tag k="natural" v="valley" />
		<tag k="place" v="locality" />
		<tag k="ssr:stedsnr" v="145900" />
	</node>
	<node id="-503715" lat="58.8186916708" lon="9.14605556302">
		<tag k="name" v="Brudalane" />
		<tag k="natural" v="valley" />
		<tag k="place" v="locality" />
		<tag k="ssr:stedsnr" v="145795" />
	</node>
	<node id="-503714" lat="58.8199277803" lon="9.14331110264">
		<tag k="name" v="Merrekjerrdalen" />
		<tag k="natural" v="valley" />
		<tag k="place" v="locality" />
		<tag k="ssr:stedsnr" v="145790" />
	</node>
	<node id="-503713" lat="58.8270083292" lon="9.1464861071">
		<tag k="name" v="Gunnarstjennheia" />
		<tag k="natural" v="hill" />
		<tag k="place" v="locality" />
		<tag k="ssr:stedsnr" v="145789" />
	</node>
	<node id="-503711" lat="58.8723388864" lon="8.95966111164">
		<tag k="fixme" v="consider natural=peak for the most distinct mountains in the district" />
		<tag k="name" v="Stavåsen" />
		<tag k="natural" v="hill" />
		<tag k="place" v="locality" />
		<tag k="ssr:stedsnr" v="145785" />
	</node>
	<node id="-503710" lat="58.8791777813" lon="8.98166111508">
		<tag k="name" v="Snorrdalen" />
		<tag k="natural" v="valley" />
		<tag k="place" v="locality" />
		<tag k="ssr:stedsnr" v="145782" />
	</node>
	<node id="-503708" lat="58.8265777739" lon="9.05504722245">
		<tag k="fixme" v="consider natural=peak for the most distinct mountains in the district" />
		<tag k="name" v="Husåsen" />
		<tag k="natural" v="hill" />
		<tag k="place" v="locality" />
		<tag k="ssr:stedsnr" v="145775" />
	</node>
	<node id="-503707" lat="58.92273056" lon="8.81016111267">
		<tag k="name" v="Hundefjelldalen" />
		<tag k="natural" v="valley" />
		<tag k="place" v="locality" />
		<tag k="ssr:stedsnr" v="145698" />
	</node>
	<node id="-503703" lat="58.9087972219" lon="8.85220000464">
		<tag k="name" v="Fellekleiv" />
		<tag k="natural" v="slope" />
		<tag k="place" v="locality" />
		<tag k="ssr:stedsnr" v="145534" />
	</node>
	<node id="-503701" lat="58.9780416688" lon="8.84692500119">
		<tag k="name" v="Jørundsmyrfjellet" />
		<tag k="natural" v="slope" />
		<tag k="place" v="locality" />
		<tag k="ssr:stedsnr" v="145582" />
	</node>
	<node id="-503694" lat="58.9562833354" lon="8.99017778627">
		<tag k="alt_name" v="Blomreishei" />
		<tag k="fixme" v="consider natural=peak for the most distinct mountains in the district" />
		<tag k="name" v="Blomreisheiknuten" />
		<tag k="natural" v="hill" />
		<tag k="place" v="locality" />
		<tag k="ssr:stedsnr" v="122877" />
	</node>
	<node id="-503693" lat="58.9586305516" lon="8.87215555917">
		<tag k="name" v="Navassliane" />
		<tag k="natural" v="slope" />
		<tag k="place" v="locality" />
		<tag k="ssr:stedsnr" v="122872" />
	</node>
	<node id="-503692" lat="58.9618750031" lon="8.99957778563">
		<tag k="name" v="Klosteret" />
		<tag k="place" v="locality" />
		<tag k="ssr:stedsnr" v="122866" />
	</node>
	<node id="-503677" lat="58.876919445" lon="8.87483333195">
		<tag k="fixme" v="consider natural=peak for the most distinct mountains in the district" />
		<tag k="name" v="Luttoppen" />
		<tag k="natural" v="hill" />
		<tag k="place" v="locality" />
		<tag k="ssr:stedsnr" v="122200" />
	</node>
	<node id="-503673" lat="58.8647861078" lon="8.94784444925">
		<tag k="name" v="Holmen" />
		<tag k="natural" v="hill" />
		<tag k="place" v="locality" />
		<tag k="ssr:stedsnr" v="122166" />
	</node>
	<node id="-503666" lat="58.8333472244" lon="8.96479722347">
		<tag k="alt_name" v="Venås, store" />
		<tag k="fixme" v="consider natural=peak for the most distinct mountains in the district" />
		<tag k="name" v="Store Venås" />
		<tag k="natural" v="hill" />
		<tag k="place" v="locality" />
		<tag k="ssr:stedsnr" v="122081" />
	</node>
	<node id="-503665" lat="58.8351972219" lon="9.13785000194">
		<tag k="fixme" v="consider natural=peak for the most distinct mountains in the district" />
		<tag k="name" v="Kvernheia" />
		<tag k="natural" v="hill" />
		<tag k="place" v="locality" />
		<tag k="ssr:stedsnr" v="122064" />
	</node>
	<node id="-503663" lat="58.8641055583" lon="9.1225166647">
		<tag k="fixme" v="consider natural=peak for the most distinct mountains in the district" />
		<tag k="name" v="Øygardsåsen" />
		<tag k="natural" v="hill" />
		<tag k="place" v="locality" />
		<tag k="ssr:stedsnr" v="122054" />
	</node>
	<node id="-503662" lat="58.8556083375" lon="9.02916944835">
		<tag k="fixme" v="consider natural=peak for the most distinct mountains in the district" />
		<tag k="name" v="Åsane" />
		<tag k="natural" v="hill" />
		<tag k="place" v="locality" />
		<tag k="ssr:stedsnr" v="122053" />
	</node>
	<node id="-503660" lat="58.9715805562" lon="8.99743888852">
		<tag k="alt_name" v="Hefte" />
		<tag k="name" v="Dalhefte" />
		<tag k="place" v="locality" />
		<tag k="ssr:stedsnr" v="121991" />
	</node>
	<node id="-503656" lat="58.7930972244" lon="9.08943055771">
		<tag k="fixme" v="consider natural=peak for the most distinct mountains in the district" />
		<tag k="name" v="Høgås" />
		<tag k="natural" v="hill" />
		<tag k="place" v="locality" />
		<tag k="ssr:stedsnr" v="85951" />
	</node>
	<node id="-503655" lat="58.8261055564" lon="9.02318055223">
		<tag k="name" v="Helvete" />
		<tag k="natural" v="valley" />
		<tag k="place" v="locality" />
		<tag k="ssr:stedsnr" v="85950" />
	</node>
	<node id="-503653" lat="58.8020305584" lon="9.11701389056">
		<tag k="name" v="Lomstjennheia" />
		<tag k="natural" v="hill" />
		<tag k="place" v="locality" />
		<tag k="ssr:stedsnr" v="85942" />
	</node>
	<node id="-503651" lat="58.8443722243" lon="9.01292499737">
		<tag k="fixme" v="consider natural=peak for the most distinct mountains in the district" />
		<tag k="name" v="Bjørnåsen" />
		<tag k="natural" v="hill" />
		<tag k="place" v="locality" />
		<tag k="ssr:stedsnr" v="85937" />
	</node>
	<node id="-503646" lat="58.8570444438" lon="9.01896389123">
		<tag k="name" v="Rossmyrheia" />
		<tag k="natural" v="hill" />
		<tag k="place" v="locality" />
		<tag k="ssr:stedsnr" v="85898" />
	</node>
	<node id="-503645" lat="58.9642166673" lon="8.97131110581">
		<tag k="name" v="Holmøygardheia" />
		<tag k="natural" v="hill" />
		<tag k="place" v="locality" />
		<tag k="ssr:stedsnr" v="85896" />
	</node>
	<node id="-503640" lat="58.9716277757" lon="8.97914999895">
		<tag k="name" v="Barlinddalen" />
		<tag k="natural" v="valley" />
		<tag k="place" v="locality" />
		<tag k="ssr:stedsnr" v="85885" />
	</node>
	<node id="-503637" lat="58.9012083322" lon="8.98685277431">
		<tag k="name" v="Grandalen" />
		<tag k="natural" v="valley" />
		<tag k="place" v="locality" />
		<tag k="ssr:stedsnr" v="85995" />
	</node>
	<node id="-503629" lat="58.8778805589" lon="8.95611389527">
		<tag k="name" v="Vegårsheia" />
		<tag k="natural" v="hill" />
		<tag k="place" v="locality" />
		<tag k="ssr:stedsnr" v="85744" />
	</node>
	<node id="-503628" lat="58.903366671" lon="9.08200000187">
		<tag k="name" v="Steinsvannshegna" />
		<tag k="natural" v="hill" />
		<tag k="place" v="locality" />
		<tag k="ssr:stedsnr" v="85795" />
	</node>
	<node id="-503627" lat="58.8879472222" lon="9.08750278609">
		<tag k="fixme" v="consider natural=peak for the most distinct mountains in the district" />
		<tag k="name" v="Ulveråsknuten" />
		<tag k="natural" v="hill" />
		<tag k="place" v="locality" />
		<tag k="ssr:stedsnr" v="85793" />
	</node>
	<node id="-503626" lat="58.8909333332" lon="9.12156667137">
		<tag k="fixme" v="consider natural=peak for the most distinct mountains in the district" />
		<tag k="name" v="Husåsene" />
		<tag k="natural" v="hill" />
		<tag k="place" v="locality" />
		<tag k="ssr:stedsnr" v="85788" />
	</node>
	<node id="-503625" lat="58.8662972221" lon="9.01469443917">
		<tag k="name" v="Grodalen" />
		<tag k="natural" v="valley" />
		<tag k="place" v="locality" />
		<tag k="ssr:stedsnr" v="85785" />
	</node>
	<node id="-503624" lat="58.8668388904" lon="9.01035555411">
		<tag k="fixme" v="consider natural=peak for the most distinct mountains in the district" />
		<tag k="name" v="Kjerringåsen" />
		<tag k="natural" v="hill" />
		<tag k="place" v="locality" />
		<tag k="ssr:stedsnr" v="85784" />
	</node>
	<node id="-503622" lat="58.8805944402" lon="9.01328611385">
		<tag k="name" v="Kattedalsheia" />
		<tag k="natural" v="hill" />
		<tag k="place" v="locality" />
		<tag k="ssr:stedsnr" v="85779" />
	</node>
	<node id="-503621" lat="58.897755555" lon="9.0544833359">
		<tag k="fixme" v="consider natural=peak for the most distinct mountains in the district" />
		<tag k="name" v="Tørrgranmyråsen" />
		<tag k="natural" v="hill" />
		<tag k="place" v="locality" />
		<tag k="ssr:stedsnr" v="85778" />
	</node>
	<node id="-503619" lat="58.9559361145" lon="8.90848055004">
		<tag k="name" v="Risfjellspranget" />
		<tag k="natural" v="slope" />
		<tag k="place" v="locality" />
		<tag k="ssr:stedsnr" v="85490" />
	</node>
	<node id="-503616" lat="58.8341972214" lon="9.12881666507">
		<tag k="name" v="Hellerheia" />
		<tag k="natural" v="hill" />
		<tag k="place" v="locality" />
		<tag k="ssr:stedsnr" v="85729" />
	</node>
	<node id="-503615" lat="58.8339694402" lon="9.1673805639">
		<tag k="name" v="Sjølvskotthalsen" />
		<tag k="natural" v="valley" />
		<tag k="place" v="locality" />
		<tag k="ssr:stedsnr" v="85615" />
	</node>
	<node id="-503614" lat="58.9119749985" lon="9.05389721779">
		<tag k="name" v="Rubbmyrlia" />
		<tag k="natural" v="slope" />
		<tag k="old_name" v="Rubbyrlia" />
		<tag k="place" v="locality" />
		<tag k="ssr:stedsnr" v="85529" />
	</node>
	<node id="-503609" lat="58.9367916652" lon="8.9999805586">
		<tag k="name" v="Trytesteindalen" />
		<tag k="natural" v="valley" />
		<tag k="place" v="locality" />
		<tag k="ssr:stedsnr" v="84879" />
	</node>
	<node id="-503607" lat="58.8767694483" lon="8.99996944021">
		<tag k="name" v="Svarthol" />
		<tag k="natural" v="valley" />
		<tag k="place" v="locality" />
		<tag k="ssr:stedsnr" v="84851" />
	</node>
	<node id="-503605" lat="58.8695666692" lon="8.80168889245">
		<tag k="name" v="Skjengstjennfjella" />
		<tag k="natural" v="hill" />
		<tag k="place" v="locality" />
		<tag k="ssr:stedsnr" v="84732" />
	</node>
	<node id="-503604" lat="58.8789305537" lon="8.92416111607">
		<tag k="name" v="Torskjerrlia" />
		<tag k="natural" v="slope" />
		<tag k="place" v="locality" />
		<tag k="ssr:stedsnr" v="84549" />
	</node>
	<node id="-503603" lat="58.856686114" lon="8.91187499402">
		<tag k="name" v="Holta" />
		<tag k="natural" v="plateau" />
		<tag k="ssr:stedsnr" v="84548" />
	</node>
	<node id="-503602" lat="58.8596222186" lon="8.93638611687">
		<tag k="name" v="Myrkjerrdalen" />
		<tag k="natural" v="valley" />
		<tag k="place" v="locality" />
		<tag k="ssr:stedsnr" v="84540" />
	</node>
	<node id="-503600" lat="58.9350333297" lon="8.85537499452">
		<tag k="name" v="Gunnarsdal" />
		<tag k="natural" v="valley" />
		<tag k="place" v="locality" />
		<tag k="ssr:stedsnr" v="84592" />
	</node>
	<node id="-503597" lat="58.9850916641" lon="8.98180278344">
		<tag k="name" v="Ormsrygg" />
		<tag k="natural" v="ridge" />
		<tag k="place" v="locality" />
		<tag k="ssr:stedsnr" v="62968" />
	</node>
	<node id="-503596" lat="58.9819083378" lon="8.97001110419">
		<tag k="alt_name" v="Bjørnstadfjell" />
		<tag k="fixme" v="consider natural=peak for the most distinct mountains in the district" />
		<tag k="name" v="Bjørnstadfjellet" />
		<tag k="natural" v="hill" />
		<tag k="place" v="locality" />
		<tag k="ssr:stedsnr" v="62967" />
	</node>
	<node id="-503595" lat="58.9178527798" lon="8.89606111011">
		<tag k="alt_name" v="Styggetjennheia" />
		<tag k="fixme" v="consider natural=peak for the most distinct mountains in the district" />
		<tag k="name" v="Styggetjernheia" />
		<tag k="natural" v="hill" />
		<tag k="place" v="locality" />
		<tag k="ssr:stedsnr" v="62856" />
	</node>
	<node id="-503594" lat="58.9355000005" lon="8.8874833307">
		<tag k="alt_name" v="Skarkliene" />
		<tag k="name" v="Skarkliane" />
		<tag k="natural" v="slope" />
		<tag k="place" v="locality" />
		<tag k="ssr:stedsnr" v="62828" />
	</node>
	<node id="-503591" lat="58.9048111088" lon="8.8743833309">
		<tag k="name" v="Solberga" />
		<tag k="natural" v="hill" />
		<tag k="place" v="locality" />
		<tag k="ssr:stedsnr" v="62782" />
	</node>
	<node id="-503590" lat="58.9036500022" lon="8.84826388996">
		<tag k="fixme" v="consider natural=peak for the most distinct mountains in the district" />
		<tag k="name" v="Hestheia" />
		<tag k="natural" v="hill" />
		<tag k="place" v="locality" />
		<tag k="ssr:stedsnr" v="62778" />
	</node>
	<node id="-503589" lat="58.7837944438" lon="9.0349138928">
		<tag k="fixme" v="consider natural=peak for the most distinct mountains in the district" />
		<tag k="name" v="Nærsbuåsen" />
		<tag k="natural" v="hill" />
		<tag k="place" v="locality" />
		<tag k="ssr:stedsnr" v="62461" />
	</node>
	<node id="-503588" lat="58.9592749995" lon="8.7698027768">
		<tag k="fixme" v="consider natural=peak for the most distinct mountains in the district" />
		<tag k="name" v="Solhomfjell" />
		<tag k="natural" v="hill" />
		<tag k="place" v="locality" />
		<tag k="ssr:stedsnr" v="62307" />
	</node>
	<node id="-503586" lat="58.8918305563" lon="9.11653889522">
		<tag k="alt_name" v="Heiknut" />
		<tag k="fixme" v="consider natural=peak for the most distinct mountains in the district" />
		<tag k="name" v="Heiknuten" />
		<tag k="natural" v="hill" />
		<tag k="place" v="locality" />
		<tag k="ssr:stedsnr" v="62232" />
	</node>
	<node id="-503585" lat="58.8880583378" lon="9.13170278433">
		<tag k="fixme" v="consider natural=peak for the most distinct mountains in the district" />
		<tag k="name" v="Tryggeråsen" />
		<tag k="natural" v="hill" />
		<tag k="place" v="locality" />
		<tag k="ssr:stedsnr" v="62219" />
	</node>
	<node id="-503583" lat="58.8546527752" lon="8.89961111285">
		<tag k="name" v="Barlinddalen" />
		<tag k="natural" v="valley" />
		<tag k="place" v="locality" />
		<tag k="ssr:stedsnr" v="62130" />
	</node>
	<node id="-503582" lat="58.8004111133" lon="9.03248888516">
		<tag k="fixme" v="consider natural=peak for the most distinct mountains in the district" />
		<tag k="name" v="Kvernheia" />
		<tag k="natural" v="hill" />
		<tag k="place" v="locality" />
		<tag k="ssr:stedsnr" v="62049" />
	</node>
	<node id="-503579" lat="58.9667638909" lon="8.98403056373">
		<tag k="name" v="Digerdalen" />
		<tag k="natural" v="valley" />
		<tag k="place" v="locality" />
		<tag k="ssr:stedsnr" v="61869" />
	</node>
	<node id="-503578" lat="58.9662416648" lon="8.92567500595">
		<tag k="fixme" v="consider natural=peak for the most distinct mountains in the district" />
		<tag k="name" v="Vindgaulen" />
		<tag k="natural" v="hill" />
		<tag k="place" v="locality" />
		<tag k="ssr:stedsnr" v="61865" />
	</node>
	<node id="-503577" lat="58.9707638848" lon="8.92807776963">
		<tag k="fixme" v="consider natural=peak for the most distinct mountains in the district" />
		<tag k="name" v="Moltekjerrknuten" />
		<tag k="natural" v="hill" />
		<tag k="place" v="locality" />
		<tag k="ssr:stedsnr" v="61864" />
	</node>
	<node id="-503575" lat="58.9341777807" lon="8.91207221962">
		<tag k="alt_name" v="Raudkollknuten, store" />
		<tag k="fixme" v="consider natural=peak for the most distinct mountains in the district" />
		<tag k="name" v="Store Raudkollknuten" />
		<tag k="natural" v="hill" />
		<tag k="place" v="locality" />
		<tag k="ssr:stedsnr" v="61821" />
	</node>
	<node id="-503572" lat="58.9327583297" lon="8.77371111079">
		<tag k="name" v="Samlogheia" />
		<tag k="natural" v="hill" />
		<tag k="place" v="locality" />
		<tag k="ssr:stedsnr" v="61394" />
	</node>
	<node id="-503571" lat="58.9733194454" lon="8.84160555825">
		<tag k="fixme" v="consider natural=peak for the most distinct mountains in the district" />
		<tag k="name" v="Napane" />
		<tag k="natural" v="hill" />
		<tag k="place" v="locality" />
		<tag k="ssr:stedsnr" v="61355" />
	</node>
	<node id="-503567" lat="58.8721638851" lon="9.15084721388">
		<tag k="fixme" v="consider natural=peak for the most distinct mountains in the district" />
		<tag k="name" v="Dansarfjell" />
		<tag k="natural" v="hill" />
		<tag k="place" v="locality" />
		<tag k="ssr:stedsnr" v="61198" />
	</node>
	<node id="-503566" lat="58.8726222233" lon="9.16630556021">
		<tag k="fixme" v="consider natural=peak for the most distinct mountains in the district" />
		<tag k="name" v="Knipeheia" />
		<tag k="natural" v="hill" />
		<tag k="place" v="locality" />
		<tag k="ssr:stedsnr" v="61188" />
	</node>
	<node id="-503565" lat="58.8649249999" lon="8.96278889251">
		<tag k="fixme" v="consider natural=peak for the most distinct mountains in the district" />
		<tag k="name" v="Egdefjell" />
		<tag k="natural" v="hill" />
		<tag k="place" v="locality" />
		<tag k="ssr:stedsnr" v="61183" />
	</node>
	<node id="-503559" lat="58.8554444462" lon="9.13779444648">
		<tag k="name" v="Brattliene" />
		<tag k="natural" v="slope" />
		<tag k="place" v="locality" />
		<tag k="ssr:stedsnr" v="24998" />
	</node>
	<node id="-503557" lat="58.8920916628" lon="9.04544722933">
		<tag k="fixme" v="consider natural=peak for the most distinct mountains in the district" />
		<tag k="name" v="Huståkefjell" />
		<tag k="natural" v="hill" />
		<tag k="place" v="locality" />
		<tag k="ssr:stedsnr" v="24994" />
	</node>
	<node id="-503555" lat="58.851755552" lon="9.07768610254">
		<tag k="name" v="Rulldalen" />
		<tag k="natural" v="valley" />
		<tag k="place" v="locality" />
		<tag k="ssr:stedsnr" v="24973" />
	</node>
	<node id="-503554" lat="58.8534333293" lon="9.09941111775">
		<tag k="fixme" v="consider natural=peak for the most distinct mountains in the district" />
		<tag k="name" v="Sundsfjell" />
		<tag k="natural" v="hill" />
		<tag k="place" v="locality" />
		<tag k="ssr:stedsnr" v="24966" />
	</node>
	<node id="-503550" lat="58.833030558" lon="9.02526944009">
		<tag k="name" v="Pøddetjennheia" />
		<tag k="natural" v="hill" />
		<tag k="place" v="locality" />
		<tag k="ssr:stedsnr" v="24954" />
	</node>
	<node id="-503547" lat="58.7977805577" lon="9.00504443654">
		<tag k="name" v="Smalmyrheia" />
		<tag k="natural" v="hill" />
		<tag k="place" v="locality" />
		<tag k="ssr:stedsnr" v="24892" />
	</node>
	<node id="-503546" lat="58.9118361099" lon="9.03173611719">
		<tag k="name" v="Jørnsliene" />
		<tag k="natural" v="slope" />
		<tag k="place" v="locality" />
		<tag k="ssr:stedsnr" v="24881" />
	</node>
	<node id="-503544" lat="58.7980083296" lon="9.04131389124">
		<tag k="name" v="Raudtanglia" />
		<tag k="natural" v="slope" />
		<tag k="place" v="locality" />
		<tag k="ssr:stedsnr" v="24877" />
	</node>
	<node id="-503541" lat="58.8636472258" lon="9.06669445098">
		<tag k="name" v="Moldkleivheia" />
		<tag k="natural" v="hill" />
		<tag k="place" v="locality" />
		<tag k="ssr:stedsnr" v="24867" />
	</node>
	<node id="-503540" lat="58.8665138892" lon="9.07815554846">
		<tag k="name" v="Kleivkjerrheia" />
		<tag k="natural" v="hill" />
		<tag k="place" v="locality" />
		<tag k="ssr:stedsnr" v="24866" />
	</node>
	<node id="-503539" lat="58.8742944426" lon="9.06970556087">
		<tag k="name" v="Stutdalen" />
		<tag k="natural" v="valley" />
		<tag k="place" v="locality" />
		<tag k="ssr:stedsnr" v="24863" />
	</node>
	<node id="-503537" lat="58.9329555574" lon="8.96565833528">
		<tag k="name" v="Bjørkedalsskotet" />
		<tag k="natural" v="cliff" />
		<tag k="ssr:stedsnr" v="24849" />
	</node>
	<node id="-503536" lat="58.8814249968" lon="9.10099166406">
		<tag k="name" v="Dallamyrhei" />
		<tag k="natural" v="hill" />
		<tag k="place" v="locality" />
		<tag k="ssr:stedsnr" v="24842" />
	</node>
	<node id="-503533" lat="58.8702944467" lon="9.00900277332">
		<tag k="name" v="Skrubbdalssletta" />
		<tag k="place" v="locality" />
		<tag k="ssr:stedsnr" v="24833" />
	</node>
	<node id="-503530" lat="58.8788416657" lon="9.01086111784">
		<tag k="name" v="Dråpetjennheia" />
		<tag k="natural" v="hill" />
		<tag k="place" v="locality" />
		<tag k="ssr:stedsnr" v="24826" />
	</node>
	<node id="-503529" lat="58.89029444" lon="9.09768055224">
		<tag k="fixme" v="consider natural=peak for the most distinct mountains in the district" />
		<tag k="name" v="Brannåsen" />
		<tag k="natural" v="hill" />
		<tag k="place" v="locality" />
		<tag k="ssr:stedsnr" v="24824" />
	</node>
	<node id="-503528" lat="58.8752861142" lon="9.04990833985">
		<tag k="name" v="Mosemyrdalen" />
		<tag k="natural" v="valley" />
		<tag k="place" v="locality" />
		<tag k="ssr:stedsnr" v="24808" />
	</node>
	<node id="-503526" lat="58.8811583324" lon="8.94753611446">
		<tag k="name" v="Gjestidalen" />
		<tag k="natural" v="valley" />
		<tag k="place" v="locality" />
		<tag k="ssr:stedsnr" v="24801" />
	</node>
	<node id="-503523" lat="58.8238194469" lon="9.05523334137">
		<tag k="name" v="Langtjennliene" />
		<tag k="natural" v="slope" />
		<tag k="place" v="locality" />
		<tag k="ssr:stedsnr" v="24784" />
	</node>
	<node id="-503521" lat="58.8844666649" lon="9.01341388971">
		<tag k="name" v="Geitkjerrdalen" />
		<tag k="natural" v="valley" />
		<tag k="place" v="locality" />
		<tag k="ssr:stedsnr" v="24758" />
	</node>
	<node id="-503518" lat="58.9012416666" lon="9.04876110998">
		<tag k="name" v="Terkelsbakkar" />
		<tag k="natural" v="slope" />
		<tag k="place" v="locality" />
		<tag k="ssr:stedsnr" v="24745" />
	</node>
	<node id="-503514" lat="58.8304861089" lon="9.17846110516">
		<tag k="fixme" v="consider natural=peak for the most distinct mountains in the district" />
		<tag k="name" v="Kvernhusåsen" />
		<tag k="natural" v="hill" />
		<tag k="place" v="locality" />
		<tag k="ssr:stedsnr" v="24663" />
	</node>
	<node id="-503512" lat="58.8487666703" lon="9.16157499622">
		<tag k="name" v="Skrubbknatten" />
		<tag k="natural" v="hill" />
		<tag k="place" v="locality" />
		<tag k="ssr:stedsnr" v="24654" />
	</node>
	<node id="-503511" lat="58.7994027773" lon="8.98928055666">
		<tag k="name" v="Kortmyrliene" />
		<tag k="natural" v="slope" />
		<tag k="place" v="locality" />
		<tag k="ssr:stedsnr" v="24585" />
	</node>
	<node id="-503506" lat="58.952236109" lon="8.99233888793">
		<tag k="name" v="Jerpedalsknuten" />
		<tag k="natural" v="hill" />
		<tag k="place" v="locality" />
		<tag k="ssr:stedsnr" v="24929" />
	</node>
	<node id="-503505" lat="58.8607222209" lon="8.91279723015">
		<tag k="name" v="Monen" />
		<tag k="place" v="locality" />
		<tag k="ssr:stedsnr" v="24495" />
	</node>
	<node id="-503504" lat="58.8589111104" lon="8.93118888024">
		<tag k="name" v="Brattli" />
		<tag k="natural" v="slope" />
		<tag k="place" v="locality" />
		<tag k="ssr:stedsnr" v="24490" />
	</node>
	<node id="-503501" lat="58.9380972227" lon="8.87134167394">
		<tag k="name" v="Bukkholene" />
		<tag k="natural" v="valley" />
		<tag k="place" v="locality" />
		<tag k="ssr:stedsnr" v="24568" />
	</node>
	<node id="-503489" lat="58.8884666687" lon="8.91427500691">
		<tag k="alt_name" v="Løkjefjell" />
		<tag k="fixme" v="consider natural=peak for the most distinct mountains in the district" />
		<tag k="name" v="Løkkjefjell" />
		<tag k="natural" v="hill" />
		<tag k="place" v="locality" />
		<tag k="ssr:stedsnr" v="1802" />
	</node>
	<node id="-503488" lat="58.8954083369" lon="9.03979721534">
		<tag k="alt_name" v="Eskelandsfjell" />
		<tag k="fixme" v="consider natural=peak for the most distinct mountains in the district" />
		<tag k="name" v="Eskelandsfjellet" />
		<tag k="natural" v="hill" />
		<tag k="place" v="locality" />
		<tag k="ssr:stedsnr" v="1791" />
	</node>
	<node id="-503485" lat="58.8771027812" lon="8.89220555848">
		<tag k="fixme" v="consider natural=peak for the most distinct mountains in the district" />
		<tag k="name" v="Almenningsheia" />
		<tag k="natural" v="hill" />
		<tag k="place" v="locality" />
		<tag k="ssr:stedsnr" v="1231" />
	</node>
	<node id="-503484" lat="58.874427775" lon="8.99710554835">
		<tag k="alt_name" v="Regnfjella" />
		<tag k="fixme" v="consider natural=peak for the most distinct mountains in the district" />
		<tag k="name" v="Regnfjell" />
		<tag k="natural" v="hill" />
		<tag k="place" v="locality" />
		<tag k="ssr:stedsnr" v="1209" />
	</node>
	<node id="-503480" lat="58.8084027771" lon="9.07104999839">
		<tag k="alt_name" v="Småtjennheiene" />
		<tag k="fixme" v="consider natural=peak for the most distinct mountains in the district" />
		<tag k="name" v="Småtjernheiane" />
		<tag k="natural" v="hill" />
		<tag k="place" v="locality" />
		<tag k="ssr:stedsnr" v="1031" />
	</node>
	<node id="-503479" lat="58.8141277802" lon="9.12130555386">
		<tag k="alt_name" v="Årbelstøåsen" />
		<tag k="fixme" v="consider natural=peak for the most distinct mountains in the district" />
		<tag k="name" v="Ørbrystelåsen" />
		<tag k="natural" v="hill" />
		<tag k="place" v="locality" />
		<tag k="ssr:stedsnr" v="1014" />
	</node>
	<node id="-503478" lat="58.9538166665" lon="9.01852222085">
		<tag k="fixme" v="consider natural=peak for the most distinct mountains in the district" />
		<tag k="name" v="Eskelandsåsen" />
		<tag k="natural" v="hill" />
		<tag k="place" v="locality" />
		<tag k="ssr:stedsnr" v="904" />
	</node>
	<node id="-503471" lat="58.836380553" lon="9.19966943846">
		<tag k="name" v="Øyfjelldalen" />
		<tag k="natural" v="valley" />
		<tag k="place" v="locality" />
		<tag k="ssr:stedsnr" v="1077" />
	</node>
	<node id="-503470" lat="58.8579833349" lon="8.97431667201">
		<tag k="alt_name" v="Brattås" />
		<tag k="fixme" v="consider natural=peak for the most distinct mountains in the district" />
		<tag k="name" v="Brattåsen" />
		<tag k="natural" v="hill" />
		<tag k="place" v="locality" />
		<tag k="ssr:stedsnr" v="1076" />
	</node>
	<node id="-503469" lat="58.8043611145" lon="9.11274999374">
		<tag k="fixme" v="consider natural=peak for the most distinct mountains in the district" />
		<tag k="name" v="Kollen" />
		<tag k="natural" v="hill" />
		<tag k="place" v="locality" />
		<tag k="ssr:stedsnr" v="1069" />
	</node>
	<node id="-503468" lat="58.8212694449" lon="9.11377778163">
		<tag k="fixme" v="consider natural=peak for the most distinct mountains in the district" />
		<tag k="name" v="Åslandsfjellet" />
		<tag k="natural" v="hill" />
		<tag k="place" v="locality" />
		<tag k="ssr:stedsnr" v="1063" />
	</node>
	<node id="-503466" lat="58.8230972264" lon="9.06168888955">
		<tag k="name" v="Hestlia" />
		<tag k="natural" v="slope" />
		<tag k="place" v="locality" />
		<tag k="ssr:stedsnr" v="1057" />
	</node>
	<node id="-503461" lat="58.8718166675" lon="8.98047777">
		<tag k="fixme" v="consider natural=peak for the most distinct mountains in the district" />
		<tag k="name" v="Hellåsen" />
		<tag k="natural" v="hill" />
		<tag k="place" v="locality" />
		<tag k="ssr:stedsnr" v="192" />
	</node>
	<node id="-503449" lat="58.7752999975" lon="9.03817499604">
		<tag k="fixme" v="consider natural=peak for the most distinct mountains in the district" />
		<tag k="name" v="Lille Buråsen" />
		<tag k="natural" v="hill" />
		<tag k="place" v="locality" />
		<tag k="ssr:stedsnr" v="934907" />
	</node>
	<node id="-503447" lat="58.8719861113" lon="9.06570833393">
		<tag k="name" v="Rossmyrlia" />
		<tag k="natural" v="slope" />
		<tag k="place" v="locality" />
		<tag k="ssr:stedsnr" v="934833" />
	</node>
	<node id="-503446" lat="58.8667861073" lon="9.09881388136">
		<tag k="name" v="Byttekleiv" />
		<tag k="natural" v="slope" />
		<tag k="place" v="locality" />
		<tag k="ssr:stedsnr" v="934832" />
	</node>
	<node id="-503439" lat="58.8191055524" lon="9.08122222859">
		<tag k="name" v="Lindvollheia" />
		<tag k="natural" v="hill" />
		<tag k="place" v="locality" />
		<tag k="ssr:stedsnr" v="934750" />
	</node>
	<node id="-503438" lat="58.8839916687" lon="9.00327777866">
		<tag k="name" v="Gråsteindalen" />
		<tag k="natural" v="valley" />
		<tag k="place" v="locality" />
		<tag k="ssr:stedsnr" v="934743" />
	</node>
	<node id="-503437" lat="58.875727775" lon="8.98832777583">
		<tag k="name" v="Huldheia" />
		<tag k="natural" v="hill" />
		<tag k="place" v="locality" />
		<tag k="ssr:stedsnr" v="934741" />
	</node>
	<node id="-503433" lat="58.902336107" lon="9.01986943749">
		<tag k="fixme" v="consider natural=peak for the most distinct mountains in the district" />
		<tag k="name" v="Haugåsen" />
		<tag k="natural" v="hill" />
		<tag k="place" v="locality" />
		<tag k="ssr:stedsnr" v="934730" />
	</node>
	<node id="-503431" lat="58.8881388879" lon="9.0348027724">
		<tag k="name" v="Hønsedalen" />
		<tag k="natural" v="valley" />
		<tag k="place" v="locality" />
		<tag k="ssr:stedsnr" v="934719" />
	</node>
	<node id="-503430" lat="58.892250002" lon="9.0224250019">
		<tag k="name" v="Ravneberget" />
		<tag k="natural" v="hill" />
		<tag k="place" v="locality" />
		<tag k="ssr:stedsnr" v="934715" />
	</node>
	<node id="-503425" lat="58.9236111091" lon="8.86358611812">
		<tag k="name" v="Manndalen" />
		<tag k="natural" v="valley" />
		<tag k="place" v="locality" />
		<tag k="ssr:stedsnr" v="934514" />
	</node>
	<node id="-503419" lat="58.888302777" lon="8.99603055395">
		<tag k="fixme" v="consider natural=peak for the most distinct mountains in the district" />
		<tag k="name" v="Tereknuten" />
		<tag k="natural" v="hill" />
		<tag k="place" v="locality" />
		<tag k="ssr:stedsnr" v="911231" />
	</node>
	<node id="-503418" lat="58.8774805574" lon="9.10633332874">
		<tag k="fixme" v="consider natural=peak for the most distinct mountains in the district" />
		<tag k="name" v="Brattåsen" />
		<tag k="natural" v="hill" />
		<tag k="place" v="locality" />
		<tag k="ssr:stedsnr" v="911211" />
	</node>
	<node id="-503415" lat="58.9637944464" lon="8.8584194531">
		<tag k="name" v="Bjorbekkdalen" />
		<tag k="natural" v="valley" />
		<tag k="place" v="locality" />
		<tag k="ssr:stedsnr" v="874610" />
	</node>
	<node id="-503414" lat="58.9638861112" lon="8.83815555612">
		<tag k="name" v="Det svarte holet" />
		<tag k="natural" v="valley" />
		<tag k="place" v="locality" />
		<tag k="ssr:stedsnr" v="874608" />
	</node>
	<node id="-503412" lat="58.9170194422" lon="9.03150555442">
		<tag k="name" v="Husmyrdalen" />
		<tag k="natural" v="valley" />
		<tag k="place" v="locality" />
		<tag k="ssr:stedsnr" v="873872" />
	</node>
	<node id="-503410" lat="58.9095444419" lon="8.97641110953">
		<tag k="fixme" v="consider natural=peak for the most distinct mountains in the district" />
		<tag k="name" v="Grosfjell" />
		<tag k="natural" v="hill" />
		<tag k="place" v="locality" />
		<tag k="ssr:stedsnr" v="873867" />
	</node>
	<node id="-503408" lat="58.9133777805" lon="8.96821111178">
		<tag k="name" v="Syltholdalen" />
		<tag k="natural" v="valley" />
		<tag k="place" v="locality" />
		<tag k="ssr:stedsnr" v="873862" />
	</node>
	<node id="-503407" lat="58.7994833372" lon="9.02028332753">
		<tag k="name" v="Mørketjennbråtene" />
		<tag k="natural" v="slope" />
		<tag k="place" v="locality" />
		<tag k="ssr:stedsnr" v="873860" />
	</node>
	<node id="-503402" lat="58.8943027746" lon="8.95443610557">
		<tag k="fixme" v="consider natural=peak for the most distinct mountains in the district" />
		<tag k="name" v="Kollen" />
		<tag k="natural" v="hill" />
		<tag k="place" v="locality" />
		<tag k="ssr:stedsnr" v="873979" />
	</node>
	<node id="-503401" lat="58.8557388887" lon="9.09432778329">
		<tag k="fixme" v="consider natural=peak for the most distinct mountains in the district" />
		<tag k="name" v="Tveitsfjell" />
		<tag k="natural" v="hill" />
		<tag k="place" v="locality" />
		<tag k="ssr:stedsnr" v="873975" />
	</node>
	<node id="-503399" lat="58.8156638897" lon="9.08980556236">
		<tag k="name" v="Dalane" />
		<tag k="natural" v="valley" />
		<tag k="place" v="locality" />
		<tag k="ssr:stedsnr" v="873928" />
	</node>
	<node id="-503394" lat="58.9538750005" lon="8.96133332512">
		<tag k="name" v="Stokkbrulia" />
		<tag k="natural" v="slope" />
		<tag k="place" v="locality" />
		<tag k="ssr:stedsnr" v="873903" />
	</node>
	<node id="-503393" lat="58.8837249959" lon="9.01132778154">
		<tag k="name" v="Gjærbakkane" />
		<tag k="natural" v="slope" />
		<tag k="place" v="locality" />
		<tag k="ssr:stedsnr" v="873716" />
	</node>
	<node id="-503392" lat="58.8986527816" lon="9.03314445222">
		<tag k="fixme" v="consider natural=peak for the most distinct mountains in the district" />
		<tag k="name" v="Lille Smidalsfjell" />
		<tag k="natural" v="hill" />
		<tag k="place" v="locality" />
		<tag k="ssr:stedsnr" v="873710" />
	</node>
	<node id="-503391" lat="58.9384638884" lon="8.8133444376">
		<tag k="name" v="Stemtjenndalen" />
		<tag k="natural" v="valley" />
		<tag k="place" v="locality" />
		<tag k="ssr:stedsnr" v="873672" />
	</node>
	<node id="-503388" lat="58.8785666701" lon="9.01338333403">
		<tag k="name" v="Hestpøttdalen" />
		<tag k="natural" v="valley" />
		<tag k="place" v="locality" />
		<tag k="ssr:stedsnr" v="873803" />
	</node>
	<node id="-503386" lat="58.9286361131" lon="8.89088054949">
		<tag k="name" v="Kråkemoen" />
		<tag k="place" v="locality" />
		<tag k="ssr:stedsnr" v="873554" />
	</node>
	<node id="-503385" lat="58.887611108" lon="8.89339444015">
		<tag k="name" v="Kleivvasslia" />
		<tag k="natural" v="slope" />
		<tag k="place" v="locality" />
		<tag k="ssr:stedsnr" v="873529" />
	</node>
	<node id="-503380" lat="58.7953333347" lon="9.0084777743">
		<tag k="name" v="Høgliknuten" />
		<tag k="natural" v="hill" />
		<tag k="place" v="locality" />
		<tag k="ssr:stedsnr" v="873505" />
	</node>
	<node id="-503378" lat="58.90848333" lon="8.90675000078">
		<tag k="alt_name" v="Vrangvassheia" />
		<tag k="fixme" v="consider natural=peak for the most distinct mountains in the district" />
		<tag k="name" v="Vrangevassheia" />
		<tag k="natural" v="hill" />
		<tag k="place" v="locality" />
		<tag k="ssr:stedsnr" v="851758" />
	</node>
	<node id="-503374" lat="58.892224999" lon="8.88629167448">
		<tag k="fixme" v="consider natural=peak for the most distinct mountains in the district" />
		<tag k="name" v="Dukheia" />
		<tag k="natural" v="hill" />
		<tag k="place" v="locality" />
		<tag k="ssr:stedsnr" v="851808" />
	</node>
	<node id="-503371" lat="58.9148944436" lon="8.82176389026">
		<tag k="alt_name" v="Matnappdalen" />
		<tag k="name" v="Matknappdalen" />
		<tag k="natural" v="valley" />
		<tag k="place" v="locality" />
		<tag k="ssr:stedsnr" v="851472" />
	</node>
	<node id="-503369" lat="58.8711888928" lon="9.17437777643">
		<tag k="fixme" v="consider natural=peak for the most distinct mountains in the district" />
		<tag k="name" v="Jonsmyråsen" />
		<tag k="natural" v="hill" />
		<tag k="place" v="locality" />
		<tag k="ssr:stedsnr" v="941984" />
	</node>
	<node id="-503365" lat="58.8517138872" lon="9.12987778427">
		<tag k="name" v="Brondalen" />
		<tag k="natural" v="valley" />
		<tag k="place" v="locality" />
		<tag k="ssr:stedsnr" v="935999" />
	</node>
	<node id="-503358" lat="58.9200972228" lon="9.01576388559">
		<tag k="name" v="Rondsa" />
		<tag k="natural" v="hill" />
		<tag k="place" v="locality" />
		<tag k="ssr:stedsnr" v="934876" />
	</node>
	<node id="-503356" lat="58.7874861118" lon="9.02192221704">
		<tag k="fixme" v="consider natural=peak for the most distinct mountains in the district" />
		<tag k="name" v="Sundåsen" />
		<tag k="natural" v="hill" />
		<tag k="place" v="locality" />
		<tag k="ssr:stedsnr" v="934864" />
	</node>
	<node id="-503353" lat="58.921388886" lon="8.99313332812">
		<tag k="fixme" v="consider natural=peak for the most distinct mountains in the district" />
		<tag k="name" v="Storrmyrfjell" />
		<tag k="natural" v="hill" />
		<tag k="place" v="locality" />
		<tag k="ssr:stedsnr" v="934855" />
	</node>
	<node id="-503352" lat="58.9208055547" lon="8.96854722854">
		<tag k="fixme" v="consider natural=peak for the most distinct mountains in the district" />
		<tag k="name" v="Urvassknuten" />
		<tag k="natural" v="hill" />
		<tag k="place" v="locality" />
		<tag k="ssr:stedsnr" v="934851" />
	</node>
	<node id="-503351" lat="58.939572218" lon="8.99860000203">
		<tag k="name" v="Fisketjennknatten" />
		<tag k="natural" v="hill" />
		<tag k="place" v="locality" />
		<tag k="ssr:stedsnr" v="934845" />
	</node>
	<node id="-503350" lat="58.9005777736" lon="8.98063889704">
		<tag k="name" v="Stormoen" />
		<tag k="place" v="locality" />
		<tag k="ssr:stedsnr" v="935000" />
	</node>
	<node id="-503348" lat="58.8296944425" lon="9.0127305515">
		<tag k="name" v="Vrangkleiv" />
		<tag k="natural" v="slope" />
		<tag k="place" v="locality" />
		<tag k="ssr:stedsnr" v="934985" />
	</node>
	<node id="-503347" lat="58.8935527771" lon="8.9507555592">
		<tag k="name" v="Stutlia" />
		<tag k="natural" v="slope" />
		<tag k="place" v="locality" />
		<tag k="ssr:stedsnr" v="934974" />
	</node>
	<node id="-503345" lat="58.8413555565" lon="9.09285832934">
		<tag k="fixme" v="consider natural=peak for the most distinct mountains in the district" />
		<tag k="name" v="Skarkfjell" />
		<tag k="natural" v="hill" />
		<tag k="place" v="locality" />
		<tag k="ssr:stedsnr" v="934970" />
	</node>
	<node id="-503344" lat="58.7877555599" lon="9.05249999469">
		<tag k="name" v="Lille Geiteknatten" />
		<tag k="natural" v="hill" />
		<tag k="place" v="locality" />
		<tag k="ssr:stedsnr" v="934967" />
	</node>
	<node id="-503343" lat="58.8287777764" lon="9.03781388905">
		<tag k="name" v="Heistadheia" />
		<tag k="natural" v="hill" />
		<tag k="place" v="locality" />
		<tag k="ssr:stedsnr" v="934966" />
	</node>
	<node id="-503342" lat="58.8265166624" lon="9.02507221979">
		<tag k="name" v="Stormyrheia" />
		<tag k="natural" v="hill" />
		<tag k="place" v="locality" />
		<tag k="ssr:stedsnr" v="934957" />
	</node>
	<node id="-503341" lat="58.8601111092" lon="9.00111389116">
		<tag k="fixme" v="consider natural=peak for the most distinct mountains in the district" />
		<tag k="name" v="Lille Kalvås" />
		<tag k="natural" v="hill" />
		<tag k="place" v="locality" />
		<tag k="ssr:stedsnr" v="934941" />
	</node>
	<node id="-503334" lat="58.873038888" lon="9.0413333271">
		<tag k="name" v="Geiteryggen" />
		<tag k="natural" v="ridge" />
		<tag k="place" v="locality" />
		<tag k="ssr:stedsnr" v="934780" />
	</node>
	<node id="-503330" lat="58.8738861151" lon="8.95569444644">
		<tag k="fixme" v="consider natural=peak for the most distinct mountains in the district" />
		<tag k="name" v="Sekkanåsen" />
		<tag k="natural" v="hill" />
		<tag k="place" v="locality" />
		<tag k="ssr:stedsnr" v="934762" />
	</node>
	<node id="-503329" lat="58.8707666699" lon="9.14694444032">
		<tag k="name" v="Venlifjella" />
		<tag k="natural" v="hill" />
		<tag k="place" v="locality" />
		<tag k="ssr:stedsnr" v="934591" />
	</node>
	<node id="-503328" lat="58.866127774" lon="9.13038333787">
		<tag k="name" v="Kleivene" />
		<tag k="natural" v="slope" />
		<tag k="place" v="locality" />
		<tag k="ssr:stedsnr" v="934588" />
	</node>
	<node id="-503327" lat="58.8688055574" lon="9.12510277899">
		<tag k="name" v="Lyngtangheia" />
		<tag k="natural" v="hill" />
		<tag k="place" v="locality" />
		<tag k="ssr:stedsnr" v="934585" />
	</node>
	<node id="-503319" lat="58.9274777745" lon="8.83695277489">
		<tag k="name" v="Bromdalen" />
		<tag k="natural" v="valley" />
		<tag k="place" v="locality" />
		<tag k="ssr:stedsnr" v="934527" />
	</node>
	<node id="-503317" lat="58.8720527769" lon="8.89281666496">
		<tag k="name" v="Almenningshovet" />
		<tag k="place" v="locality" />
		<tag k="ssr:stedsnr" v="934483" />
	</node>
	<node id="-503316" lat="58.8557583358" lon="8.9069527837">
		<tag k="name" v="Forbudalen" />
		<tag k="natural" v="valley" />
		<tag k="place" v="locality" />
		<tag k="ssr:stedsnr" v="934470" />
	</node>
	<node id="-503313" lat="58.8525138861" lon="8.90934166481">
		<tag k="fixme" v="consider natural=peak for the most distinct mountains in the district" />
		<tag k="name" v="Fjellet" />
		<tag k="natural" v="hill" />
		<tag k="place" v="locality" />
		<tag k="ssr:stedsnr" v="934461" />
	</node>
	<node id="-503307" lat="58.9056250008" lon="8.8520666629">
		<tag k="name" v="Hestheidalen" />
		<tag k="natural" v="valley" />
		<tag k="place" v="locality" />
		<tag k="ssr:stedsnr" v="790795" />
	</node>
	<node id="-503301" lat="58.9106083316" lon="8.98009999831">
		<tag k="fixme" v="consider natural=peak for the most distinct mountains in the district" />
		<tag k="name" v="Kongsfjell" />
		<tag k="natural" v="hill" />
		<tag k="place" v="locality" />
		<tag k="ssr:stedsnr" v="790781" />
	</node>
	<node id="-503299" lat="58.8992388933" lon="9.03711666778">
		<tag k="alt_name" v="Smidalsfjell" />
		<tag k="fixme" v="consider natural=peak for the most distinct mountains in the district" />
		<tag k="name" v="Smedalsfjell" />
		<tag k="natural" v="hill" />
		<tag k="place" v="locality" />
		<tag k="ssr:stedsnr" v="790817" />
	</node>
	<node id="-503295" lat="58.7979305515" lon="9.05269167464">
		<tag k="alt_name" v="Stålfall" />
		<tag k="fixme" v="consider natural=peak for the most distinct mountains in the district" />
		<tag k="name" v="Ståfall" />
		<tag k="natural" v="hill" />
		<tag k="place" v="locality" />
		<tag k="ssr:stedsnr" v="790512" />
	</node>
	<node id="-503281" lat="58.9165666677" lon="8.93380000614">
		<tag k="name" v="Svaldalen" />
		<tag k="natural" v="valley" />
		<tag k="place" v="locality" />
		<tag k="ssr:stedsnr" v="912872" />
	</node>
	<node id="-503278" lat="58.9042999991" lon="9.093674997">
		<tag k="fixme" v="consider natural=peak for the most distinct mountains in the district" />
		<tag k="name" v="Lyserkollen" />
		<tag k="natural" v="hill" />
		<tag k="place" v="locality" />
		<tag k="ssr:stedsnr" v="912795" />
	</node>
	<node id="-503277" lat="58.9076833348" lon="8.96471667224">
		<tag k="name" v="Vålemoen" />
		<tag k="place" v="locality" />
		<tag k="ssr:stedsnr" v="912774" />
	</node>
	<node id="-503276" lat="58.9745972183" lon="8.9703027864">
		<tag k="fixme" v="consider natural=peak for the most distinct mountains in the district" />
		<tag k="name" v="Bjørnstadknuten" />
		<tag k="natural" v="hill" />
		<tag k="place" v="locality" />
		<tag k="ssr:stedsnr" v="911994" />
	</node>
	<node id="-503268" lat="58.8942749963" lon="8.93140555516">
		<tag k="name" v="Sagdalen" />
		<tag k="natural" v="valley" />
		<tag k="place" v="locality" />
		<tag k="ssr:stedsnr" v="911812" />
	</node>
	<node id="-503265" lat="58.8053916682" lon="9.13302222004">
		<tag k="fixme" v="consider natural=peak for the most distinct mountains in the district" />
		<tag k="name" v="Røyvassheia" />
		<tag k="natural" v="hill" />
		<tag k="place" v="locality" />
		<tag k="ssr:stedsnr" v="911483" />
	</node>
	<node id="-503261" lat="58.8678277736" lon="8.8631944461">
		<tag k="fixme" v="consider natural=peak for the most distinct mountains in the district" />
		<tag k="name" v="Ramsåsen" />
		<tag k="natural" v="hill" />
		<tag k="place" v="locality" />
		<tag k="ssr:stedsnr" v="911175" />
	</node>
	<node id="-503258" lat="58.8506444482" lon="8.99791110765">
		<tag k="fixme" v="consider natural=peak for the most distinct mountains in the district" />
		<tag k="name" v="Fugleliåsen" />
		<tag k="natural" v="hill" />
		<tag k="place" v="locality" />
		<tag k="ssr:stedsnr" v="911123" />
	</node>
	<node id="-503257" lat="58.8380638882" lon="9.02718056275">
		<tag k="fixme" v="consider natural=peak for the most distinct mountains in the district" />
		<tag k="name" v="Skogeråsen" />
		<tag k="natural" v="hill" />
		<tag k="place" v="locality" />
		<tag k="ssr:stedsnr" v="911095" />
	</node>
	<node id="-504493" lat="58.8678000028" lon="9.02563055381">
		<tag k="name" v="Tollnesliene" />
		<tag k="natural" v="slope" />
		<tag k="place" v="locality" />
		<tag k="ssr:stedsnr" v="813811" />
	</node>
	<node id="-503234" lat="58.8993333353" lon="8.90966944294">
		<tag k="name" v="Øygardslia" />
		<tag k="natural" v="slope" />
		<tag k="place" v="locality" />
		<tag k="ssr:stedsnr" v="730802" />
	</node>
	<node id="-503233" lat="58.9042555586" lon="8.87853054919">
		<tag k="name" v="Klovdalen" />
		<tag k="natural" v="valley" />
		<tag k="place" v="locality" />
		<tag k="ssr:stedsnr" v="730801" />
	</node>
	<node id="-503230" lat="58.9795250032" lon="8.94231666166">
		<tag k="alt_name" v="Fisketjennknuten" />
		<tag k="fixme" v="consider natural=peak for the most distinct mountains in the district" />
		<tag k="name" v="Fisketjernknuten" />
		<tag k="natural" v="hill" />
		<tag k="place" v="locality" />
		<tag k="ssr:stedsnr" v="729974" />
	</node>
	<node id="-503229" lat="58.9362250015" lon="8.84450833246">
		<tag k="name" v="Krikli" />
		<tag k="natural" v="slope" />
		<tag k="place" v="locality" />
		<tag k="ssr:stedsnr" v="729929" />
	</node>
	<node id="-503225" lat="58.9214277767" lon="9.03311111407">
		<tag k="alt_name" v="Igletjennåsen" />
		<tag k="fixme" v="consider natural=peak for the most distinct mountains in the district" />
		<tag k="name" v="Igletjernåsen" />
		<tag k="natural" v="hill" />
		<tag k="place" v="locality" />
		<tag k="ssr:stedsnr" v="729864" />
	</node>
	<node id="-503224" lat="58.9365166622" lon="8.98245554867">
		<tag k="alt_name" v="Brannstadfjell" />
		<tag k="fixme" v="consider natural=peak for the most distinct mountains in the district" />
		<tag k="name" v="Brannstadfjellet" />
		<tag k="natural" v="hill" />
		<tag k="place" v="locality" />
		<tag k="ssr:stedsnr" v="729834" />
	</node>
	<node id="-503222" lat="58.8917749998" lon="9.01862777357">
		<tag k="alt_name" v="Fløyheia" />
		<tag k="fixme" v="consider natural=peak for the most distinct mountains in the district" />
		<tag k="name" v="Flyfjell" />
		<tag k="natural" v="hill" />
		<tag k="place" v="locality" />
		<tag k="ssr:stedsnr" v="729804" />
	</node>
	<node id="-503221" lat="58.7948583358" lon="9.00857500479">
		<tag k="alt_name" v="Høgliheiene" />
		<tag k="fixme" v="consider natural=peak for the most distinct mountains in the district" />
		<tag k="name" v="Høgliheia" />
		<tag k="natural" v="hill" />
		<tag k="place" v="locality" />
		<tag k="ssr:stedsnr" v="729491" />
	</node>
	<node id="-503220" lat="58.7989861109" lon="9.01950832772">
		<tag k="fixme" v="consider natural=peak for the most distinct mountains in the district" />
		<tag k="name" v="Kjerriheia" />
		<tag k="natural" v="hill" />
		<tag k="place" v="locality" />
		<tag k="ssr:stedsnr" v="729485" />
	</node>
	<node id="-503215" lat="58.8850000039" lon="8.84774166161">
		<tag k="name" v="Folhomlia" />
		<tag k="natural" v="slope" />
		<tag k="place" v="locality" />
		<tag k="ssr:stedsnr" v="729273" />
	</node>
	<node id="-503214" lat="58.8928861134" lon="9.07680833294">
		<tag k="fixme" v="consider natural=peak for the most distinct mountains in the district" />
		<tag k="name" v="Dalheia" />
		<tag k="natural" v="hill" />
		<tag k="place" v="locality" />
		<tag k="ssr:stedsnr" v="729269" />
	</node>
	<node id="-503209" lat="58.8485305513" lon="9.17975555354">
		<tag k="fixme" v="consider natural=peak for the most distinct mountains in the district" />
		<tag k="name" v="Trollvassheia" />
		<tag k="natural" v="hill" />
		<tag k="place" v="locality" />
		<tag k="ssr:stedsnr" v="729120" />
	</node>
	<node id="-503200" lat="58.8508611143" lon="9.11285555214">
		<tag k="name" v="Råbråtdalen" />
		<tag k="natural" v="valley" />
		<tag k="place" v="locality" />
		<tag k="ssr:stedsnr" v="631990" />
	</node>
	<node id="-503199" lat="58.8485138898" lon="9.10993333913">
		<tag k="fixme" v="consider natural=peak for the most distinct mountains in the district" />
		<tag k="name" v="Marisås" />
		<tag k="natural" v="hill" />
		<tag k="place" v="locality" />
		<tag k="ssr:stedsnr" v="631988" />
	</node>
	<node id="-503198" lat="58.8397388895" lon="9.10635834132">
		<tag k="fixme" v="consider natural=peak for the most distinct mountains in the district" />
		<tag k="name" v="Agnåsen" />
		<tag k="natural" v="hill" />
		<tag k="place" v="locality" />
		<tag k="ssr:stedsnr" v="631982" />
	</node>
	<node id="-503196" lat="58.7983194477" lon="9.01516111059">
		<tag k="name" v="Tokskjerrheia" />
		<tag k="natural" v="hill" />
		<tag k="place" v="locality" />
		<tag k="ssr:stedsnr" v="630869" />
	</node>
	<node id="-503195" lat="58.803438888" lon="9.00076667453">
		<tag k="name" v="Lusgnagkilen" />
		<tag k="natural" v="valley" />
		<tag k="place" v="locality" />
		<tag k="ssr:stedsnr" v="630865" />
	</node>
	<node id="-503192" lat="58.840311108" lon="9.06509722855">
		<tag k="name" v="Bråteliane" />
		<tag k="natural" v="slope" />
		<tag k="place" v="locality" />
		<tag k="ssr:stedsnr" v="630978" />
	</node>
	<node id="-503191" lat="58.8441833371" lon="9.07532222303">
		<tag k="fixme" v="consider natural=peak for the most distinct mountains in the district" />
		<tag k="name" v="Kvernåsen" />
		<tag k="natural" v="hill" />
		<tag k="place" v="locality" />
		<tag k="ssr:stedsnr" v="630973" />
	</node>
	<node id="-503187" lat="58.852780554" lon="8.98914444304">
		<tag k="name" v="Svåene" />
		<tag k="natural" v="slope" />
		<tag k="place" v="locality" />
		<tag k="ssr:stedsnr" v="630920" />
	</node>
	<node id="-503186" lat="58.963524998" lon="8.98384166978">
		<tag k="name" v="Jordskotet" />
		<tag k="natural" v="valley" />
		<tag k="place" v="locality" />
		<tag k="ssr:stedsnr" v="630918" />
	</node>
	<node id="-503184" lat="58.8411305523" lon="9.02229166212">
		<tag k="fixme" v="consider natural=peak for the most distinct mountains in the district" />
		<tag k="name" v="Gamledamsåsen" />
		<tag k="natural" v="hill" />
		<tag k="place" v="locality" />
		<tag k="ssr:stedsnr" v="630906" />
	</node>
	<node id="-503179" lat="58.8735972266" lon="8.8214611104">
		<tag k="name" v="Åsmyrdalen" />
		<tag k="natural" v="valley" />
		<tag k="place" v="locality" />
		<tag k="ssr:stedsnr" v="630679" />
	</node>
	<node id="-503177" lat="58.9433944441" lon="8.76141388065">
		<tag k="name" v="Heimellomdalen" />
		<tag k="natural" v="valley" />
		<tag k="place" v="locality" />
		<tag k="ssr:stedsnr" v="630676" />
	</node>
	<node id="-503176" lat="58.8723416694" lon="8.78562222984">
		<tag k="name" v="Trælvassporten" />
		<tag k="natural" v="valley" />
		<tag k="place" v="locality" />
		<tag k="ssr:stedsnr" v="630673" />
	</node>
	<node id="-503175" lat="58.9438916622" lon="8.77963610283">
		<tag k="name" v="Solhom" />
		<tag k="natural" v="plateau" />
		<tag k="ssr:stedsnr" v="630670" />
	</node>
	<node id="-503174" lat="58.9250972208" lon="8.81212499377">
		<tag k="name" v="Gaukliene" />
		<tag k="natural" v="slope" />
		<tag k="place" v="locality" />
		<tag k="ssr:stedsnr" v="630659" />
	</node>
	<node id="-503172" lat="58.8557416624" lon="8.92113332538">
		<tag k="name" v="Tyttebærholmen" />
		<tag k="natural" v="hill" />
		<tag k="place" v="locality" />
		<tag k="ssr:stedsnr" v="630457" />
	</node>
	<node id="-503171" lat="58.890952781" lon="8.84818055266">
		<tag k="name" v="Eikkleiv" />
		<tag k="natural" v="slope" />
		<tag k="place" v="locality" />
		<tag k="ssr:stedsnr" v="630454" />
	</node>
	<node id="-503170" lat="58.8307805569" lon="9.070186113">
		<tag k="name" v="Fagliene" />
		<tag k="natural" v="slope" />
		<tag k="place" v="locality" />
		<tag k="ssr:stedsnr" v="630712" />
	</node>
	<node id="-503168" lat="58.9082333311" lon="9.05921388985">
		<tag k="name" v="Nepebråten" />
		<tag k="natural" v="hill" />
		<tag k="place" v="locality" />
		<tag k="ssr:stedsnr" v="630571" />
	</node>
	<node id="-503166" lat="58.9417749976" lon="8.91026388886">
		<tag k="name" v="Tollkleiv" />
		<tag k="natural" v="slope" />
		<tag k="place" v="locality" />
		<tag k="ssr:stedsnr" v="630522" />
	</node>
	<node id="-503158" lat="58.8585416687" lon="8.87439444341">
		<tag k="fixme" v="consider natural=peak for the most distinct mountains in the district" />
		<tag k="name" v="Det brente fjellet" />
		<tag k="natural" v="hill" />
		<tag k="place" v="locality" />
		<tag k="ssr:stedsnr" v="607177" />
	</node>
	<node id="-503156" lat="58.8802527793" lon="8.89112500052">
		<tag k="alt_name" v="Vestre Kleivassknuten" />
		<tag k="fixme" v="consider natural=peak for the most distinct mountains in the district" />
		<tag k="name" v="Kleivvassknuten" />
		<tag k="natural" v="hill" />
		<tag k="place" v="locality" />
		<tag k="ssr:stedsnr" v="607224" />
	</node>
	<node id="-503155" lat="58.8140472203" lon="9.00193333752">
		<tag k="alt_name" v="Skrefjell" />
		<tag k="fixme" v="consider natural=peak for the most distinct mountains in the district" />
		<tag k="name" v="Skredfjell" />
		<tag k="natural" v="hill" />
		<tag k="place" v="locality" />
		<tag k="ssr:stedsnr" v="607018" />
	</node>
	<node id="-503147" lat="58.8819305566" lon="8.99897500162">
		<tag k="name" v="Sandkleivhuskane" />
		<tag k="natural" v="hill" />
		<tag k="place" v="locality" />
		<tag k="ssr:stedsnr" v="752820" />
	</node>
	<node id="-503140" lat="58.8527472244" lon="9.11617499371">
		<tag k="name" v="Småbråtane" />
		<tag k="natural" v="hill" />
		<tag k="place" v="locality" />
		<tag k="ssr:stedsnr" v="692995" />
	</node>
	<node id="-503138" lat="58.8455888918" lon="9.13555832851">
		<tag k="name" v="Klovtjennhogsten" />
		<tag k="natural" v="hill" />
		<tag k="place" v="locality" />
		<tag k="ssr:stedsnr" v="692736" />
	</node>
	<node id="-503137" lat="58.9648749986" lon="8.8968583409">
		<tag k="name" v="Fjosbumoen" />
		<tag k="place" v="locality" />
		<tag k="ssr:stedsnr" v="692549" />
	</node>
	<node id="-503136" lat="58.8996638893" lon="8.98996667173">
		<tag k="name" v="Vevstadheia" />
		<tag k="natural" v="valley" />
		<tag k="place" v="locality" />
		<tag k="ssr:stedsnr" v="692000" />
	</node>
	<node id="-503134" lat="58.8369638898" lon="9.01197222978">
		<tag k="fixme" v="consider natural=peak for the most distinct mountains in the district" />
		<tag k="name" v="Nybuåsen" />
		<tag k="natural" v="hill" />
		<tag k="place" v="locality" />
		<tag k="ssr:stedsnr" v="691988" />
	</node>
	<node id="-503132" lat="58.846463889" lon="9.07178055004">
		<tag k="fixme" v="consider natural=peak for the most distinct mountains in the district" />
		<tag k="name" v="Geitåsen" />
		<tag k="natural" v="hill" />
		<tag k="place" v="locality" />
		<tag k="ssr:stedsnr" v="691982" />
	</node>
	<node id="-503131" lat="58.8597888933" lon="9.07169444286">
		<tag k="name" v="Bersebakk" />
		<tag k="natural" v="hill" />
		<tag k="place" v="locality" />
		<tag k="ssr:stedsnr" v="691975" />
	</node>
	<node id="-503129" lat="58.7920694406" lon="9.05280277929">
		<tag k="name" v="Langtjennliene" />
		<tag k="natural" v="slope" />
		<tag k="place" v="locality" />
		<tag k="ssr:stedsnr" v="691960" />
	</node>
	<node id="-503128" lat="58.826191671" lon="9.02881666988">
		<tag k="name" v="Halvorshol" />
		<tag k="natural" v="valley" />
		<tag k="place" v="locality" />
		<tag k="ssr:stedsnr" v="691959" />
	</node>
	<node id="-503126" lat="58.8217111074" lon="9.02381944829">
		<tag k="name" v="Håvarshol" />
		<tag k="natural" v="valley" />
		<tag k="place" v="locality" />
		<tag k="ssr:stedsnr" v="691954" />
	</node>
	<node id="-503122" lat="58.807358336" lon="9.12097499737">
		<tag k="fixme" v="consider natural=peak for the most distinct mountains in the district" />
		<tag k="name" v="Gåstjennåsen" />
		<tag k="natural" v="hill" />
		<tag k="place" v="locality" />
		<tag k="ssr:stedsnr" v="691942" />
	</node>
	<node id="-503117" lat="58.9480805546" lon="8.9998638831">
		<tag k="name" v="Storrbakken" />
		<tag k="natural" v="slope" />
		<tag k="place" v="locality" />
		<tag k="ssr:stedsnr" v="691916" />
	</node>
	<node id="-503116" lat="58.8582305582" lon="9.03538055645">
		<tag k="name" v="Langkjerrdalen" />
		<tag k="natural" v="valley" />
		<tag k="place" v="locality" />
		<tag k="ssr:stedsnr" v="691914" />
	</node>
	<node id="-503114" lat="58.8570138875" lon="9.04368611698">
		<tag k="name" v="Nesknuten" />
		<tag k="natural" v="hill" />
		<tag k="place" v="locality" />
		<tag k="ssr:stedsnr" v="691912" />
	</node>
	<node id="-503113" lat="58.8594416703" lon="9.02395833031">
		<tag k="name" v="Torstjennknatten" />
		<tag k="natural" v="hill" />
		<tag k="place" v="locality" />
		<tag k="ssr:stedsnr" v="691907" />
	</node>
	<node id="-503110" lat="58.8069722256" lon="9.00987221946">
		<tag k="fixme" v="consider natural=peak for the most distinct mountains in the district" />
		<tag k="name" v="Store Grasåsen" />
		<tag k="natural" v="hill" />
		<tag k="place" v="locality" />
		<tag k="ssr:stedsnr" v="691884" />
	</node>
	<node id="-503109" lat="58.9067888869" lon="9.01653888602">
		<tag k="name" v="Brommdalen" />
		<tag k="natural" v="valley" />
		<tag k="place" v="locality" />
		<tag k="ssr:stedsnr" v="691882" />
	</node>
	<node id="-503098" lat="58.867222223" lon="9.00134722559">
		<tag k="name" v="Prestekleiva" />
		<tag k="natural" v="slope" />
		<tag k="place" v="locality" />
		<tag k="ssr:stedsnr" v="691819" />
	</node>
	<node id="-503097" lat="58.8660027813" lon="9.0159416753">
		<tag k="name" v="Grodalslia" />
		<tag k="natural" v="slope" />
		<tag k="place" v="locality" />
		<tag k="ssr:stedsnr" v="691810" />
	</node>
	<node id="-503096" lat="58.8622083365" lon="9.00309999635">
		<tag k="name" v="Vrangstad" />
		<tag k="natural" v="slope" />
		<tag k="place" v="locality" />
		<tag k="ssr:stedsnr" v="691809" />
	</node>
	<node id="-503093" lat="58.8801527819" lon="9.0397638916">
		<tag k="name" v="Lindeberga" />
		<tag k="natural" v="hill" />
		<tag k="place" v="locality" />
		<tag k="ssr:stedsnr" v="691791" />
	</node>
	<node id="-503088" lat="58.8692277747" lon="8.99137499629">
		<tag k="name" v="Halvorshei" />
		<tag k="natural" v="hill" />
		<tag k="place" v="locality" />
		<tag k="ssr:stedsnr" v="691755" />
	</node>
	<node id="-503080" lat="58.8850694408" lon="9.01910833246">
		<tag k="name" v="Einerkollen" />
		<tag k="natural" v="hill" />
		<tag k="place" v="locality" />
		<tag k="ssr:stedsnr" v="691713" />
	</node>
	<node id="-503078" lat="58.8762361108" lon="8.80165000277">
		<tag k="name" v="Tjøstelsmyrlia" />
		<tag k="natural" v="slope" />
		<tag k="place" v="locality" />
		<tag k="ssr:stedsnr" v="691711" />
	</node>
	<node id="-503077" lat="58.9586333378" lon="8.80603888583">
		<tag k="name" v="Karistjenndalen" />
		<tag k="natural" v="valley" />
		<tag k="place" v="locality" />
		<tag k="ssr:stedsnr" v="691695" />
	</node>
	<node id="-503076" lat="58.9594638867" lon="8.82271945063">
		<tag k="name" v="Heilandsheia" />
		<tag k="natural" v="hill" />
		<tag k="place" v="locality" />
		<tag k="ssr:stedsnr" v="691692" />
	</node>
	<node id="-503072" lat="58.8415249996" lon="9.16224999226">
		<tag k="name" v="Kortmyrliene" />
		<tag k="natural" v="slope" />
		<tag k="place" v="locality" />
		<tag k="ssr:stedsnr" v="691648" />
	</node>
	<node id="-503071" lat="58.8726222212" lon="9.15188333251">
		<tag k="name" v="Helvete" />
		<tag k="natural" v="gorge" />
		<tag k="ssr:stedsnr" v="691632" />
	</node>
	<node id="-503068" lat="58.8658166673" lon="9.13327222854">
		<tag k="name" v="Nils' kolle" />
		<tag k="natural" v="hill" />
		<tag k="place" v="locality" />
		<tag k="ssr:stedsnr" v="691625" />
	</node>
	<node id="-503065" lat="58.9861138884" lon="8.85443611665">
		<tag k="name" v="Jammerdalen" />
		<tag k="natural" v="valley" />
		<tag k="place" v="locality" />
		<tag k="ssr:stedsnr" v="691597" />
	</node>
	<node id="-503064" lat="58.9841972203" lon="8.85046111496">
		<tag k="name" v="Helvete" />
		<tag k="place" v="locality" />
		<tag k="ssr:stedsnr" v="691593" />
	</node>
	<node id="-503063" lat="58.9383805582" lon="8.88131388649">
		<tag k="name" v="Almdalen" />
		<tag k="natural" v="valley" />
		<tag k="place" v="locality" />
		<tag k="ssr:stedsnr" v="691563" />
	</node>
	<node id="-503062" lat="58.9306194438" lon="8.88187500592">
		<tag k="name" v="Ålkardalen" />
		<tag k="natural" v="valley" />
		<tag k="place" v="locality" />
		<tag k="ssr:stedsnr" v="691562" />
	</node>
	<node id="-503061" lat="58.9382944408" lon="8.86147778211">
		<tag k="fixme" v="consider natural=peak for the most distinct mountains in the district" />
		<tag k="name" v="Diplefjell" />
		<tag k="natural" v="hill" />
		<tag k="place" v="locality" />
		<tag k="ssr:stedsnr" v="691558" />
	</node>
	<node id="-503053" lat="58.8678999956" lon="8.8918055612">
		<tag k="name" v="Stormyrdalen" />
		<tag k="natural" v="valley" />
		<tag k="place" v="locality" />
		<tag k="ssr:stedsnr" v="691516" />
	</node>
	<node id="-503052" lat="58.8755083295" lon="8.92146667491">
		<tag k="name" v="Holmvassknatten" />
		<tag k="natural" v="hill" />
		<tag k="place" v="locality" />
		<tag k="ssr:stedsnr" v="691512" />
	</node>
	<node id="-503047" lat="58.8602416627" lon="8.89222500028">
		<tag k="name" v="Tjennheia" />
		<tag k="natural" v="hill" />
		<tag k="place" v="locality" />
		<tag k="ssr:stedsnr" v="691485" />
	</node>
	<node id="-503043" lat="58.9870666688" lon="8.97354167244">
		<tag k="name" v="Mørketjenndalen" />
		<tag k="natural" v="valley" />
		<tag k="place" v="locality" />
		<tag k="ssr:stedsnr" v="509881" />
	</node>
	<node id="-503042" lat="58.9196083309" lon="9.01063333395">
		<tag k="name" v="Raundalsknatten" />
		<tag k="natural" v="hill" />
		<tag k="place" v="locality" />
		<tag k="ssr:stedsnr" v="509871" />
	</node>
	<node id="-503040" lat="58.90542778" lon="9.03851388338">
		<tag k="name" v="Lille Tjovdal" />
		<tag k="natural" v="valley" />
		<tag k="place" v="locality" />
		<tag k="ssr:stedsnr" v="509862" />
	</node>
	<node id="-503039" lat="58.7770305515" lon="9.04742221731">
		<tag k="fixme" v="consider natural=peak for the most distinct mountains in the district" />
		<tag k="name" v="Haukåsen" />
		<tag k="natural" v="hill" />
		<tag k="place" v="locality" />
		<tag k="ssr:stedsnr" v="509860" />
	</node>
	<node id="-503034" lat="58.9509222196" lon="9.01513055475">
		<tag k="name" v="Byttingsdalen" />
		<tag k="natural" v="valley" />
		<tag k="place" v="locality" />
		<tag k="ssr:stedsnr" v="509904" />
	</node>
	<node id="-503033" lat="58.8371166658" lon="9.106047223">
		<tag k="fixme" v="consider natural=peak for the most distinct mountains in the district" />
		<tag k="name" v="Småkjerrfjella" />
		<tag k="natural" v="hill" />
		<tag k="place" v="locality" />
		<tag k="ssr:stedsnr" v="509734" />
	</node>
	<node id="-503031" lat="58.8365361114" lon="9.12746111869">
		<tag k="name" v="Brattlidalen" />
		<tag k="natural" v="valley" />
		<tag k="place" v="locality" />
		<tag k="ssr:stedsnr" v="509725" />
	</node>
	<node id="-503028" lat="58.8860333324" lon="8.996497227">
		<tag k="name" v="Slemdal" />
		<tag k="natural" v="valley" />
		<tag k="place" v="locality" />
		<tag k="ssr:stedsnr" v="509715" />
	</node>
	<node id="-503026" lat="58.945708335" lon="8.85056944088">
		<tag k="name" v="Hareholtsvoene" />
		<tag k="natural" v="slope" />
		<tag k="place" v="locality" />
		<tag k="ssr:stedsnr" v="509526" />
	</node>
	<node id="-503025" lat="58.9329416652" lon="8.83701389038">
		<tag k="name" v="Lihausane" />
		<tag k="natural" v="hill" />
		<tag k="place" v="locality" />
		<tag k="ssr:stedsnr" v="509524" />
	</node>
	<node id="-503024" lat="58.8989611107" lon="8.86702778262">
		<tag k="fixme" v="consider natural=peak for the most distinct mountains in the district" />
		<tag k="name" v="Drivheia" />
		<tag k="natural" v="hill" />
		<tag k="place" v="locality" />
		<tag k="ssr:stedsnr" v="486813" />
	</node>
	<node id="-503022" lat="58.8753055557" lon="8.80558333796">
		<tag k="alt_name" v="Bronheia" />
		<tag k="name" v="Brunheia" />
		<tag k="natural" v="hill" />
		<tag k="place" v="locality" />
		<tag k="ssr:stedsnr" v="486718" />
	</node>
	<node id="-503021" lat="58.8775833318" lon="8.95241388234">
		<tag k="fixme" v="consider natural=peak for the most distinct mountains in the district" />
		<tag k="name" v="Rossåsen" />
		<tag k="natural" v="hill" />
		<tag k="place" v="locality" />
		<tag k="ssr:stedsnr" v="486206" />
	</node>
	<node id="-503020" lat="58.8735055547" lon="8.94310555072">
		<tag k="alt_name" v="Store Steinsås" />
		<tag k="fixme" v="consider natural=peak for the most distinct mountains in the district" />
		<tag k="name" v="Store Steinsåsen" />
		<tag k="natural" v="hill" />
		<tag k="place" v="locality" />
		<tag k="ssr:stedsnr" v="486204" />
	</node>
	<node id="-503018" lat="58.8306222232" lon="8.96220833391">
		<tag k="alt_name" v="Venås, lille" />
		<tag k="fixme" v="consider natural=peak for the most distinct mountains in the district" />
		<tag k="name" v="Lille Venås" />
		<tag k="natural" v="hill" />
		<tag k="place" v="locality" />
		<tag k="ssr:stedsnr" v="486062" />
	</node>
	<node id="-503014" lat="58.9012944477" lon="8.86731666976">
		<tag k="name" v="Styggedal" />
		<tag k="natural" v="valley" />
		<tag k="place" v="locality" />
		<tag k="ssr:stedsnr" v="669773" />
	</node>
	<node id="-503008" lat="58.9501333375" lon="8.96630833399">
		<tag k="fixme" v="consider natural=peak for the most distinct mountains in the district" />
		<tag k="name" v="Spikedalsfjellet" />
		<tag k="natural" v="hill" />
		<tag k="place" v="locality" />
		<tag k="ssr:stedsnr" v="668908" />
	</node>
	<node id="-503007" lat="58.9671750011" lon="8.93111388638">
		<tag k="fixme" v="consider natural=peak for the most distinct mountains in the district" />
		<tag k="name" v="Fossbufjellet" />
		<tag k="natural" v="hill" />
		<tag k="place" v="locality" />
		<tag k="ssr:stedsnr" v="668874" />
	</node>
	<node id="-503004" lat="58.8956444456" lon="8.96466667514">
		<tag k="name" v="Trydal" />
		<tag k="natural" v="valley" />
		<tag k="place" v="locality" />
		<tag k="ssr:stedsnr" v="668816" />
	</node>
	<node id="-503001" lat="58.8851444401" lon="8.83186110488">
		<tag k="alt_name" v="Svarttjennknuten" />
		<tag k="fixme" v="consider natural=peak for the most distinct mountains in the district" />
		<tag k="name" v="Svarttjernknuten" />
		<tag k="natural" v="hill" />
		<tag k="place" v="locality" />
		<tag k="ssr:stedsnr" v="668737" />
	</node>
	<node id="-502998" lat="58.9384083293" lon="8.81496111191">
		<tag k="alt_name" v="Stemtjennåsen" />
		<tag k="fixme" v="consider natural=peak for the most distinct mountains in the district" />
		<tag k="name" v="Stemtjernåsen" />
		<tag k="natural" v="hill" />
		<tag k="place" v="locality" />
		<tag k="ssr:stedsnr" v="668440" />
	</node>
	<node id="-502995" lat="58.9227111145" lon="8.8375444407">
		<tag k="name" v="Høydalen" />
		<tag k="natural" v="valley" />
		<tag k="place" v="locality" />
		<tag k="ssr:stedsnr" v="668410" />
	</node>
	<node id="-502989" lat="58.8845194417" lon="9.11782500802">
		<tag k="fixme" v="consider natural=peak for the most distinct mountains in the district" />
		<tag k="name" v="Lifjell" />
		<tag k="natural" v="hill" />
		<tag k="place" v="locality" />
		<tag k="ssr:stedsnr" v="668250" />
	</node>
	<node id="-502985" lat="58.9233750017" lon="8.86172222936">
		<tag k="fixme" v="consider natural=peak for the most distinct mountains in the district" />
		<tag k="name" v="Kalvåsen" />
		<tag k="natural" v="hill" />
		<tag k="place" v="locality" />
		<tag k="ssr:stedsnr" v="668208" />
	</node>
	<node id="-502982" lat="58.865783332" lon="8.8870444379">
		<tag k="fixme" v="consider natural=peak for the most distinct mountains in the district" />
		<tag k="name" v="Eldstøheia" />
		<tag k="natural" v="hill" />
		<tag k="place" v="locality" />
		<tag k="ssr:stedsnr" v="668186" />
	</node>
	<node id="-502978" lat="58.8666083352" lon="9.05408334177">
		<tag k="alt_name" v="Stifjell" />
		<tag k="fixme" v="consider natural=peak for the most distinct mountains in the district" />
		<tag k="name" v="Stigfjell" />
		<tag k="natural" v="hill" />
		<tag k="place" v="locality" />
		<tag k="ssr:stedsnr" v="668163" />
	</node>
	<node id="-502975" lat="58.864480556" lon="9.0237777726">
		<tag k="fixme" v="consider natural=peak for the most distinct mountains in the district" />
		<tag k="name" v="Høghei" />
		<tag k="natural" v="hill" />
		<tag k="place" v="locality" />
		<tag k="ssr:stedsnr" v="668153" />
	</node>
	<node id="-502961" lat="58.7786833291" lon="9.04383334176">
		<tag k="fixme" v="consider natural=peak for the most distinct mountains in the district" />
		<tag k="name" v="Buråsen" />
		<tag k="natural" v="hill" />
		<tag k="place" v="locality" />
		<tag k="ssr:stedsnr" v="668059" />
	</node>
	<node id="-502959" lat="58.8244611092" lon="9.08552777383">
		<tag k="alt_name" v="Sorttjennheia" />
		<tag k="fixme" v="consider natural=peak for the most distinct mountains in the district" />
		<tag k="name" v="Surttjernheia" />
		<tag k="natural" v="hill" />
		<tag k="place" v="locality" />
		<tag k="ssr:stedsnr" v="668045" />
	</node>
	<node id="-502958" lat="58.812661109" lon="9.05535555071">
		<tag k="alt_name" v="Klavfjell" />
		<tag k="fixme" v="consider natural=peak for the most distinct mountains in the district" />
		<tag k="name" v="Klavfjellet" />
		<tag k="natural" v="hill" />
		<tag k="place" v="locality" />
		<tag k="ssr:stedsnr" v="668017" />
	</node>
	<node id="-502955" lat="58.8137194459" lon="9.03874721827">
		<tag k="name" v="Perstjenndalen" />
		<tag k="natural" v="valley" />
		<tag k="place" v="locality" />
		<tag k="ssr:stedsnr" v="449842" />
	</node>
	<node id="-502954" lat="58.9471944476" lon="9.00844999796">
		<tag k="fixme" v="consider natural=peak for the most distinct mountains in the district" />
		<tag k="name" v="Sandtjennåsen" />
		<tag k="natural" v="hill" />
		<tag k="place" v="locality" />
		<tag k="ssr:stedsnr" v="449826" />
	</node>
	<node id="-502953" lat="58.869305555" lon="9.11484999885">
		<tag k="name" v="Kringletjennknatten" />
		<tag k="natural" v="hill" />
		<tag k="place" v="locality" />
		<tag k="ssr:stedsnr" v="449824" />
	</node>
	<node id="-502951" lat="58.9424222207" lon="8.98583333513">
		<tag k="name" v="Svåmyrheia" />
		<tag k="natural" v="hill" />
		<tag k="place" v="locality" />
		<tag k="ssr:stedsnr" v="449816" />
	</node>
	<node id="-502950" lat="58.938850001" lon="8.9657277833">
		<tag k="name" v="Midtbuhommskotet" />
		<tag k="natural" v="cliff" />
		<tag k="ssr:stedsnr" v="449814" />
	</node>
	<node id="-502947" lat="58.8686166651" lon="9.09232500123">
		<tag k="name" v="Damheia" />
		<tag k="natural" v="hill" />
		<tag k="place" v="locality" />
		<tag k="ssr:stedsnr" v="449809" />
	</node>
	<node id="-502945" lat="58.8797361081" lon="9.09647777741">
		<tag k="name" v="Dallahei" />
		<tag k="natural" v="hill" />
		<tag k="place" v="locality" />
		<tag k="ssr:stedsnr" v="449807" />
	</node>
	<node id="-502944" lat="58.944266665" lon="8.95700554818">
		<tag k="name" v="Brannstadmoen" />
		<tag k="place" v="locality" />
		<tag k="ssr:stedsnr" v="449806" />
	</node>
	<node id="-502943" lat="58.848433331" lon="9.00381389055">
		<tag k="name" v="Stemtjenndalen" />
		<tag k="natural" v="valley" />
		<tag k="place" v="locality" />
		<tag k="ssr:stedsnr" v="449909" />
	</node>
	<node id="-502938" lat="58.8216194418" lon="9.06588055922">
		<tag k="name" v="Saurådalen" />
		<tag k="natural" v="valley" />
		<tag k="place" v="locality" />
		<tag k="ssr:stedsnr" v="449725" />
	</node>
	<node id="-502934" lat="58.8842277811" lon="9.02767500499">
		<tag k="name" v="Sagdalen" />
		<tag k="natural" v="valley" />
		<tag k="place" v="locality" />
		<tag k="ssr:stedsnr" v="449715" />
	</node>
	<node id="-502931" lat="58.8711888903" lon="8.7889527758">
		<tag k="name" v="Trælvasslia" />
		<tag k="natural" v="slope" />
		<tag k="place" v="locality" />
		<tag k="ssr:stedsnr" v="449702" />
	</node>
	<node id="-502930" lat="58.879291666" lon="9.14638055168">
		<tag k="fixme" v="consider natural=peak for the most distinct mountains in the district" />
		<tag k="name" v="Storsundåsen" />
		<tag k="natural" v="hill" />
		<tag k="place" v="locality" />
		<tag k="ssr:stedsnr" v="449620" />
	</node>
	<node id="-502929" lat="58.8740055595" lon="9.1538861179">
		<tag k="name" v="Skarmyrheia" />
		<tag k="natural" v="hill" />
		<tag k="place" v="locality" />
		<tag k="ssr:stedsnr" v="449617" />
	</node>
	<node id="-502928" lat="58.8798305561" lon="9.11903055955">
		<tag k="fixme" v="consider natural=peak for the most distinct mountains in the district" />
		<tag k="name" v="Nordre Fjellmyråsen" />
		<tag k="natural" v="hill" />
		<tag k="place" v="locality" />
		<tag k="ssr:stedsnr" v="449610" />
	</node>
	<node id="-502925" lat="58.8739472194" lon="8.84025833155">
		<tag k="name" v="Åskleivene" />
		<tag k="natural" v="slope" />
		<tag k="place" v="locality" />
		<tag k="ssr:stedsnr" v="449509" />
	</node>
	<node id="-502920" lat="58.8976361104" lon="8.97390833813">
		<tag k="fixme" v="consider natural=peak for the most distinct mountains in the district" />
		<tag k="name" v="Tollheia" />
		<tag k="natural" v="hill" />
		<tag k="place" v="locality" />
		<tag k="ssr:stedsnr" v="426805" />
	</node>
	<node id="-502919" lat="58.9486777793" lon="8.85196110667">
		<tag k="fixme" v="consider natural=peak for the most distinct mountains in the district" />
		<tag k="name" v="Risfjell" />
		<tag k="natural" v="hill" />
		<tag k="place" v="locality" />
		<tag k="ssr:stedsnr" v="426925" />
	</node>
	<node id="-502914" lat="58.8701999964" lon="8.82525832957">
		<tag k="alt_name" v="Nilsanshei" />
		<tag k="fixme" v="consider natural=peak for the most distinct mountains in the district" />
		<tag k="name" v="Langvassknuten" />
		<tag k="natural" v="hill" />
		<tag k="place" v="locality" />
		<tag k="ssr:stedsnr" v="426746" />
	</node>
	<node id="-502912" lat="58.8812888859" lon="8.88782499974">
		<tag k="name" v="Kleivvassdalen" />
		<tag k="natural" v="valley" />
		<tag k="place" v="locality" />
		<tag k="ssr:stedsnr" v="426216" />
	</node>
	<node id="-502911" lat="58.8783055576" lon="8.93140554793">
		<tag k="alt_name" v="Steinvasshei" />
		<tag k="fixme" v="consider natural=peak for the most distinct mountains in the district" />
		<tag k="name" v="Steinvassheia" />
		<tag k="natural" v="hill" />
		<tag k="place" v="locality" />
		<tag k="ssr:stedsnr" v="426213" />
	</node>
	<node id="-502908" lat="58.9339555553" lon="8.95101944127">
		<tag k="fixme" v="consider natural=peak for the most distinct mountains in the district" />
		<tag k="name" v="Meånsknuten" />
		<tag k="natural" v="hill" />
		<tag k="place" v="locality" />
		<tag k="ssr:stedsnr" v="425848" />
	</node>
	<node id="-502906" lat="58.8526166636" lon="9.05092777528">
		<tag k="fixme" v="consider natural=peak for the most distinct mountains in the district" />
		<tag k="name" v="Åsen" />
		<tag k="natural" v="hill" />
		<tag k="place" v="locality" />
		<tag k="ssr:stedsnr" v="510985" />
	</node>
	<node id="-502902" lat="58.9578027749" lon="8.9234972246">
		<tag k="name" v="Kattdalen" />
		<tag k="natural" v="valley" />
		<tag k="place" v="locality" />
		<tag k="ssr:stedsnr" v="510594" />
	</node>
	<node id="-502891" lat="58.8588083324" lon="8.99684166384">
		<tag k="name" v="Kalvåsliene" />
		<tag k="natural" v="slope" />
		<tag k="place" v="locality" />
		<tag k="ssr:stedsnr" v="509932" />
	</node>
	<node id="-502889" lat="58.9196638849" lon="8.98043332673">
		<tag k="name" v="Gunnarsmyrheia" />
		<tag k="natural" v="hill" />
		<tag k="place" v="locality" />
		<tag k="ssr:stedsnr" v="509838" />
	</node>
	<node id="-502883" lat="58.9417833336" lon="9.02241389425">
		<tag k="name" v="Mørketjennknatten" />
		<tag k="natural" v="hill" />
		<tag k="place" v="locality" />
		<tag k="ssr:stedsnr" v="509823" />
	</node>
	<node id="-502880" lat="58.9468222261" lon="8.96452222486">
		<tag k="name" v="Bassdalen" />
		<tag k="natural" v="valley" />
		<tag k="place" v="locality" />
		<tag k="ssr:stedsnr" v="509811" />
	</node>
	<node id="-502879" lat="58.9284277809" lon="8.94160277713">
		<tag k="name" v="Vannlidalen" />
		<tag k="natural" v="valley" />
		<tag k="place" v="locality" />
		<tag k="ssr:stedsnr" v="509804" />
	</node>
	<node id="-502873" lat="58.86814722" lon="9.14372500574">
		<tag k="name" v="Djupmyrheia" />
		<tag k="natural" v="hill" />
		<tag k="place" v="locality" />
		<tag k="ssr:stedsnr" v="509598" />
	</node>
	<node id="-502872" lat="58.8812916688" lon="9.11073889189">
		<tag k="name" v="Moldkleiv" />
		<tag k="natural" v="slope" />
		<tag k="place" v="locality" />
		<tag k="ssr:stedsnr" v="509586" />
	</node>
	<node id="-502871" lat="58.9818722239" lon="8.85811110765">
		<tag k="name" v="Olavsdal" />
		<tag k="natural" v="valley" />
		<tag k="place" v="locality" />
		<tag k="ssr:stedsnr" v="509563" />
	</node>
	<node id="-502870" lat="58.9842777744" lon="8.84034722759">
		<tag k="name" v="Legdeskotet" />
		<tag k="natural" v="cliff" />
		<tag k="ssr:stedsnr" v="509562" />
	</node>
	<node id="-502864" lat="58.8636833291" lon="9.02569165872">
		<tag k="name" v="Torstjennliene" />
		<tag k="natural" v="slope" />
		<tag k="place" v="locality" />
		<tag k="ssr:stedsnr" v="509780" />
	</node>
	<node id="-502862" lat="58.837461107" lon="9.15507499425">
		<tag k="name" v="Svartkjerrliene" />
		<tag k="natural" v="slope" />
		<tag k="place" v="locality" />
		<tag k="ssr:stedsnr" v="509774" />
	</node>
	<node id="-502856" lat="58.8818861074" lon="8.97357223076">
		<tag k="name" v="Lydarberga" />
		<tag k="natural" v="slope" />
		<tag k="place" v="locality" />
		<tag k="ssr:stedsnr" v="509754" />
	</node>
	<node id="-502855" lat="58.8241361124" lon="9.0517222154">
		<tag k="name" v="Bjørndalen" />
		<tag k="natural" v="valley" />
		<tag k="place" v="locality" />
		<tag k="ssr:stedsnr" v="509742" />
	</node>
	<node id="-502854" lat="58.8583277761" lon="9.14219722693">
		<tag k="name" v="Tjenndalen" />
		<tag k="natural" v="valley" />
		<tag k="place" v="locality" />
		<tag k="ssr:stedsnr" v="509700" />
	</node>
	<node id="-502853" lat="58.8847416629" lon="9.03611944077">
		<tag k="fixme" v="consider natural=peak for the most distinct mountains in the district" />
		<tag k="name" v="Sagåsen" />
		<tag k="natural" v="hill" />
		<tag k="place" v="locality" />
		<tag k="ssr:stedsnr" v="509695" />
	</node>
	<node id="-502852" lat="58.8962472205" lon="8.9242555525">
		<tag k="name" v="Usliskaret" />
		<tag k="natural" v="valley" />
		<tag k="place" v="locality" />
		<tag k="ssr:stedsnr" v="509445" />
	</node>
	<node id="-502851" lat="58.8671972209" lon="8.93815555474">
		<tag k="name" v="Øgndalen" />
		<tag k="natural" v="valley" />
		<tag k="place" v="locality" />
		<tag k="ssr:stedsnr" v="509481" />
	</node>
	<node id="-502850" lat="58.8243277737" lon="9.04409722555">
		<tag k="name" v="Kjeldelia" />
		<tag k="natural" v="slope" />
		<tag k="place" v="locality" />
		<tag k="ssr:stedsnr" v="388956" />
	</node>
	<node id="-502843" lat="58.8732388923" lon="9.00872221545">
		<tag k="name" v="Bringebærbråten" />
		<tag k="natural" v="slope" />
		<tag k="place" v="locality" />
		<tag k="ssr:stedsnr" v="388811" />
	</node>
	<node id="-502842" lat="58.8853444468" lon="9.1152138859">
		<tag k="name" v="Lifjelldalen" />
		<tag k="natural" v="valley" />
		<tag k="place" v="locality" />
		<tag k="ssr:stedsnr" v="388807" />
	</node>
	<node id="-502838" lat="58.8551833321" lon="9.02603888685">
		<tag k="name" v="Stutdalen" />
		<tag k="natural" v="valley" />
		<tag k="place" v="locality" />
		<tag k="ssr:stedsnr" v="388906" />
	</node>
	<node id="-502837" lat="58.8673999966" lon="8.99659444025">
		<tag k="name" v="Prestliane" />
		<tag k="natural" v="slope" />
		<tag k="old_name" v="Prestliene" />
		<tag k="place" v="locality" />
		<tag k="ssr:stedsnr" v="388776" />
	</node>
	<node id="-502835" lat="58.8193277759" lon="9.14066389462">
		<tag k="name" v="Merrekjerrheia" />
		<tag k="natural" v="hill" />
		<tag k="place" v="locality" />
		<tag k="ssr:stedsnr" v="388773" />
	</node>
	<node id="-502433" lat="58.872383334" lon="9.1487611195">
		<tag k="name" v="Kalvvasslia" />
		<tag k="natural" v="slope" />
		<tag k="place" v="locality" />
		<tag k="ssr:stedsnr" v="24608" />
	</node>
	<node id="-502829" lat="58.8273361093" lon="9.08950276983">
		<tag k="name" v="Hesteinheia" />
		<tag k="natural" v="hill" />
		<tag k="place" v="locality" />
		<tag k="ssr:stedsnr" v="388713" />
	</node>
	<node id="-502828" lat="58.9684416672" lon="8.89364166134">
		<tag k="name" v="Lortbekkdalen" />
		<tag k="natural" v="valley" />
		<tag k="place" v="locality" />
		<tag k="ssr:stedsnr" v="388556" />
	</node>
	<node id="-502824" lat="58.8622194424" lon="9.02916667039">
		<tag k="name" v="Torstjennheia" />
		<tag k="natural" v="hill" />
		<tag k="place" v="locality" />
		<tag k="ssr:stedsnr" v="387811" />
	</node>
	<node id="-502823" lat="58.8819472256" lon="9.02649721881">
		<tag k="fixme" v="consider natural=peak for the most distinct mountains in the district" />
		<tag k="name" v="Tillafjell" />
		<tag k="natural" v="hill" />
		<tag k="place" v="locality" />
		<tag k="ssr:stedsnr" v="387806" />
	</node>
	<node id="-502822" lat="58.7881805576" lon="9.06225277491">
		<tag k="name" v="Hasseldalen" />
		<tag k="natural" v="valley" />
		<tag k="place" v="locality" />
		<tag k="ssr:stedsnr" v="387969" />
	</node>
	<node id="-502821" lat="58.7917861092" lon="9.06193610845">
		<tag k="fixme" v="consider natural=peak for the most distinct mountains in the district" />
		<tag k="name" v="Erteråsen" />
		<tag k="natural" v="hill" />
		<tag k="place" v="locality" />
		<tag k="ssr:stedsnr" v="387968" />
	</node>
	<node id="-502818" lat="58.9453361086" lon="8.79296667243">
		<tag k="name" v="Fantedalen" />
		<tag k="natural" v="valley" />
		<tag k="place" v="locality" />
		<tag k="ssr:stedsnr" v="387702" />
	</node>
	<node id="-502817" lat="58.8783861089" lon="8.91595555852">
		<tag k="name" v="Holmvasslia" />
		<tag k="natural" v="slope" />
		<tag k="place" v="locality" />
		<tag k="ssr:stedsnr" v="387558" />
	</node>
	<node id="-502816" lat="58.8603250041" lon="8.91459443924">
		<tag k="name" v="Haugane" />
		<tag k="natural" v="hill" />
		<tag k="place" v="locality" />
		<tag k="ssr:stedsnr" v="387554" />
	</node>
	<node id="-502812" lat="58.8753666631" lon="9.09438055501">
		<tag k="name" v="Høydalen" />
		<tag k="natural" v="valley" />
		<tag k="place" v="locality" />
		<tag k="ssr:stedsnr" v="364209" />
	</node>
	<node id="-502811" lat="58.8718722235" lon="8.95102777201">
		<tag k="alt_name" v="Lille Steinsås" />
		<tag k="fixme" v="consider natural=peak for the most distinct mountains in the district" />
		<tag k="name" v="Lille Steinsåsen" />
		<tag k="natural" v="hill" />
		<tag k="place" v="locality" />
		<tag k="ssr:stedsnr" v="364206" />
	</node>
	<node id="-502807" lat="58.9088972257" lon="9.05458055464">
		<tag k="alt_name" v="Hessfjell, lille" />
		<tag k="fixme" v="consider natural=peak for the most distinct mountains in the district" />
		<tag k="name" v="Lille Hessfjell" />
		<tag k="natural" v="hill" />
		<tag k="place" v="locality" />
		<tag k="ssr:stedsnr" v="487777" />
	</node>
	<node id="-502800" lat="58.9282805518" lon="9.02173889602">
		<tag k="fixme" v="consider natural=peak for the most distinct mountains in the district" />
		<tag k="name" v="Øygardsåsen" />
		<tag k="natural" v="hill" />
		<tag k="place" v="locality" />
		<tag k="ssr:stedsnr" v="486835" />
	</node>
	<node id="-502799" lat="58.9420861092" lon="8.95209722379">
		<tag k="fixme" v="consider natural=peak for the most distinct mountains in the district" />
		<tag k="name" v="Brannstadåsen" />
		<tag k="natural" v="hill" />
		<tag k="place" v="locality" />
		<tag k="ssr:stedsnr" v="486827" />
	</node>
	<node id="-502798" lat="58.9439499995" lon="8.901761105">
		<tag k="fixme" v="consider natural=peak for the most distinct mountains in the district" />
		<tag k="name" v="Trollfjell" />
		<tag k="natural" v="hill" />
		<tag k="place" v="locality" />
		<tag k="ssr:stedsnr" v="486825" />
	</node>
	<node id="-502793" lat="58.8815805521" lon="8.87796665851">
		<tag k="fixme" v="consider natural=peak for the most distinct mountains in the district" />
		<tag k="name" v="Kattheia" />
		<tag k="natural" v="hill" />
		<tag k="place" v="locality" />
		<tag k="ssr:stedsnr" v="486197" />
	</node>
	<node id="-502787" lat="58.8589222191" lon="8.90649443757">
		<tag k="fixme" v="consider natural=peak for the most distinct mountains in the district" />
		<tag k="name" v="Tverrmyråsen" />
		<tag k="natural" v="hill" />
		<tag k="place" v="locality" />
		<tag k="ssr:stedsnr" v="486119" />
	</node>
	<node id="-502785" lat="58.8491583354" lon="9.13813055076">
		<tag k="fixme" v="consider natural=peak for the most distinct mountains in the district" />
		<tag k="name" v="Eikåsen" />
		<tag k="natural" v="hill" />
		<tag k="place" v="locality" />
		<tag k="ssr:stedsnr" v="486094" />
	</node>
	<node id="-502778" lat="58.8359305572" lon="9.03147499211">
		<tag k="name" v="Båsvassknuten" />
		<tag k="natural" v="hill" />
		<tag k="place" v="locality" />
		<tag k="ssr:stedsnr" v="327937" />
	</node>
	<node id="-502775" lat="58.8443249962" lon="9.04159722433">
		<tag k="fixme" v="consider natural=peak for the most distinct mountains in the district" />
		<tag k="name" v="Helleråsen" />
		<tag k="natural" v="hill" />
		<tag k="place" v="locality" />
		<tag k="ssr:stedsnr" v="327904" />
	</node>
	<node id="-502772" lat="58.88446389" lon="8.99716110721">
		<tag k="name" v="Melåshøgdene" />
		<tag k="natural" v="hill" />
		<tag k="place" v="locality" />
		<tag k="ssr:stedsnr" v="327722" />
	</node>
	<node id="-502771" lat="58.8315166708" lon="9.07737777199">
		<tag k="name" v="Åbøliene" />
		<tag k="natural" v="slope" />
		<tag k="place" v="locality" />
		<tag k="ssr:stedsnr" v="327721" />
	</node>
	<node id="-502769" lat="58.8975638916" lon="9.01393334197">
		<tag k="name" v="Eskelandsmoen" />
		<tag k="place" v="locality" />
		<tag k="ssr:stedsnr" v="327717" />
	</node>
	<node id="-502767" lat="58.9038388916" lon="9.03403056409">
		<tag k="name" v="Den ørje dalen" />
		<tag k="natural" v="valley" />
		<tag k="place" v="locality" />
		<tag k="ssr:stedsnr" v="327712" />
	</node>
	<node id="-502766" lat="58.843844445" lon="9.15725556229">
		<tag k="name" v="Stormyrdalen" />
		<tag k="natural" v="valley" />
		<tag k="place" v="locality" />
		<tag k="ssr:stedsnr" v="327707" />
	</node>
	<node id="-502764" lat="58.8196416643" lon="9.08804999884">
		<tag k="name" v="Tverrdalen" />
		<tag k="natural" v="valley" />
		<tag k="place" v="locality" />
		<tag k="ssr:stedsnr" v="327705" />
	</node>
	<node id="-502762" lat="58.7768888862" lon="9.0317277731">
		<tag k="name" v="Smalmyrlia" />
		<tag k="natural" v="slope" />
		<tag k="place" v="locality" />
		<tag k="ssr:stedsnr" v="327842" />
	</node>
	<node id="-502754" lat="58.8765527747" lon="9.06746110973">
		<tag k="name" v="Trollvassliene" />
		<tag k="natural" v="slope" />
		<tag k="place" v="locality" />
		<tag k="ssr:stedsnr" v="327803" />
	</node>
	<node id="-502751" lat="58.9078944403" lon="8.88564444664">
		<tag k="name" v="Foletjennheia" />
		<tag k="natural" v="hill" />
		<tag k="place" v="locality" />
		<tag k="ssr:stedsnr" v="327543" />
	</node>
	<node id="-502749" lat="58.9147361141" lon="8.85749722501">
		<tag k="name" v="Kvernhusdalen" />
		<tag k="natural" v="valley" />
		<tag k="place" v="locality" />
		<tag k="ssr:stedsnr" v="327533" />
	</node>
	<node id="-502748" lat="58.8821805557" lon="8.83448055814">
		<tag k="name" v="Klovspranget" />
		<tag k="natural" v="valley" />
		<tag k="place" v="locality" />
		<tag k="ssr:stedsnr" v="327528" />
	</node>
	<node id="-502745" lat="58.9001833324" lon="8.8941277788">
		<tag k="name" v="Styggdal" />
		<tag k="natural" v="valley" />
		<tag k="place" v="locality" />
		<tag k="ssr:stedsnr" v="327506" />
	</node>
	<node id="-502743" lat="58.9240472244" lon="8.92854443577">
		<tag k="name" v="Rundmyrdalen" />
		<tag k="natural" v="valley" />
		<tag k="place" v="locality" />
		<tag k="ssr:stedsnr" v="305856" />
	</node>
	<node id="-502735" lat="58.9268861108" lon="8.84107221724">
		<tag k="fixme" v="consider natural=peak for the most distinct mountains in the district" />
		<tag k="name" v="Bromdalsåsen" />
		<tag k="natural" v="hill" />
		<tag k="place" v="locality" />
		<tag k="ssr:stedsnr" v="304403" />
	</node>
	<node id="-502733" lat="58.8731666673" lon="9.05433889453">
		<tag k="fixme" v="consider natural=peak for the most distinct mountains in the district" />
		<tag k="name" v="Fjellmyråsen" />
		<tag k="natural" v="hill" />
		<tag k="place" v="locality" />
		<tag k="ssr:stedsnr" v="304171" />
	</node>
	<node id="-502724" lat="58.8338694428" lon="9.11753888397">
		<tag k="fixme" v="consider natural=peak for the most distinct mountains in the district" />
		<tag k="name" v="Brattli" />
		<tag k="natural" v="hill" />
		<tag k="place" v="locality" />
		<tag k="ssr:stedsnr" v="304065" />
	</node>
	<node id="-502718" lat="58.8326777807" lon="9.1125861168">
		<tag k="name" v="Rennli" />
		<tag k="natural" v="slope" />
		<tag k="place" v="locality" />
		<tag k="ssr:stedsnr" v="267756" />
	</node>
	<node id="-502716" lat="58.8462972247" lon="9.1427916621">
		<tag k="name" v="Grandalen" />
		<tag k="natural" v="valley" />
		<tag k="place" v="locality" />
		<tag k="ssr:stedsnr" v="267718" />
	</node>
	<node id="-502711" lat="58.8962944465" lon="9.0967777697">
		<tag k="name" v="Budalen" />
		<tag k="natural" v="valley" />
		<tag k="place" v="locality" />
		<tag k="ssr:stedsnr" v="267820" />
	</node>
	<node id="-502709" lat="58.8265583294" lon="9.16253611388">
		<tag k="name" v="Råneiddalen" />
		<tag k="natural" v="valley" />
		<tag k="place" v="locality" />
		<tag k="ssr:stedsnr" v="267659" />
	</node>
	<node id="-502708" lat="58.8865166623" lon="8.81893889016">
		<tag k="name" v="Stormyrheia" />
		<tag k="natural" v="hill" />
		<tag k="place" v="locality" />
		<tag k="ssr:stedsnr" v="267619" />
	</node>
	<node id="-502704" lat="58.8918333291" lon="8.97384722551">
		<tag k="fixme" v="consider natural=peak for the most distinct mountains in the district" />
		<tag k="name" v="Rønningsåsen" />
		<tag k="natural" v="hill" />
		<tag k="place" v="locality" />
		<tag k="ssr:stedsnr" v="449988" />
	</node>
	<node id="-502703" lat="58.8394805568" lon="9.11317222168">
		<tag k="name" v="Ulvekula" />
		<tag k="natural" v="hill" />
		<tag k="place" v="locality" />
		<tag k="ssr:stedsnr" v="449982" />
	</node>
	<node id="-502702" lat="58.8328722243" lon="9.02155833817">
		<tag k="name" v="Pøddetjenndalen" />
		<tag k="natural" v="valley" />
		<tag k="place" v="locality" />
		<tag k="ssr:stedsnr" v="449961" />
	</node>
	<node id="-502701" lat="58.8580611108" lon="9.07096667217">
		<tag k="name" v="Rapdalen" />
		<tag k="natural" v="valley" />
		<tag k="place" v="locality" />
		<tag k="ssr:stedsnr" v="449959" />
	</node>
	<node id="-502700" lat="58.8057472264" lon="9.08368332507">
		<tag k="fixme" v="consider natural=peak for the most distinct mountains in the district" />
		<tag k="name" v="Åsen" />
		<tag k="natural" v="hill" />
		<tag k="place" v="locality" />
		<tag k="ssr:stedsnr" v="449894" />
	</node>
	<node id="-502697" lat="58.949750004" lon="8.94777222241">
		<tag k="name" v="Diplemyrdalen" />
		<tag k="natural" v="valley" />
		<tag k="place" v="locality" />
		<tag k="ssr:stedsnr" v="449883" />
	</node>
	<node id="-502692" lat="58.8439000038" lon="8.95578056066">
		<tag k="name" v="Eikbulia" />
		<tag k="natural" v="slope" />
		<tag k="place" v="locality" />
		<tag k="ssr:stedsnr" v="449872" />
	</node>
	<node id="-502691" lat="58.912033336" lon="9.00800832938">
		<tag k="name" v="Nyklebutjennheia" />
		<tag k="natural" v="hill" />
		<tag k="place" v="locality" />
		<tag k="ssr:stedsnr" v="449866" />
	</node>
	<node id="-502689" lat="58.8242638858" lon="8.99654722066">
		<tag k="name" v="Dobbemyrknuten" />
		<tag k="natural" v="hill" />
		<tag k="place" v="locality" />
		<tag k="ssr:stedsnr" v="449940" />
	</node>
	<node id="-502688" lat="58.8462444414" lon="9.10550833546">
		<tag k="fixme" v="consider natural=peak for the most distinct mountains in the district" />
		<tag k="name" v="Lille Juvåsen" />
		<tag k="natural" v="hill" />
		<tag k="place" v="locality" />
		<tag k="ssr:stedsnr" v="449936" />
	</node>
	<node id="-502679" lat="58.8241444477" lon="9.14912778559">
		<tag k="name" v="Eikstøhaugane" />
		<tag k="natural" v="hill" />
		<tag k="place" v="locality" />
		<tag k="ssr:stedsnr" v="449762" />
	</node>
	<node id="-502677" lat="58.836522223" lon="9.09874999455">
		<tag k="fixme" v="consider natural=peak for the most distinct mountains in the district" />
		<tag k="name" v="Rogås" />
		<tag k="natural" v="hill" />
		<tag k="place" v="locality" />
		<tag k="ssr:stedsnr" v="449741" />
	</node>
	<node id="-502676" lat="58.8928833306" lon="9.00650554897">
		<tag k="fixme" v="consider natural=peak for the most distinct mountains in the district" />
		<tag k="name" v="Apalåsen" />
		<tag k="natural" v="hill" />
		<tag k="place" v="locality" />
		<tag k="ssr:stedsnr" v="449739" />
	</node>
	<node id="-502675" lat="58.834661111" lon="9.07934722593">
		<tag k="fixme" v="consider natural=peak for the most distinct mountains in the district" />
		<tag k="name" v="Knuten" />
		<tag k="natural" v="hill" />
		<tag k="place" v="locality" />
		<tag k="ssr:stedsnr" v="449737" />
	</node>
	<node id="-502674" lat="58.8629583298" lon="9.11391388097">
		<tag k="name" v="Ørnemyrdalen" />
		<tag k="natural" v="valley" />
		<tag k="place" v="locality" />
		<tag k="ssr:stedsnr" v="449597" />
	</node>
	<node id="-502671" lat="58.9626138882" lon="8.87865555382">
		<tag k="name" v="Maurbekkdalen" />
		<tag k="natural" v="valley" />
		<tag k="place" v="locality" />
		<tag k="ssr:stedsnr" v="449566" />
	</node>
	<node id="-502669" lat="58.9193833298" lon="9.02732499366">
		<tag k="name" v="Midtheia" />
		<tag k="natural" v="hill" />
		<tag k="place" v="locality" />
		<tag k="ssr:stedsnr" v="449851" />
	</node>
	<node id="-502666" lat="58.8653277747" lon="9.17771388839">
		<tag k="fixme" v="consider natural=peak for the most distinct mountains in the district" />
		<tag k="name" v="Ramslifjellet" />
		<tag k="natural" v="hill" />
		<tag k="place" v="locality" />
		<tag k="ssr:stedsnr" v="449659" />
	</node>
	<node id="-502664" lat="58.8902083318" lon="8.91737500447">
		<tag k="name" v="Løkjefjellknuten" />
		<tag k="natural" v="hill" />
		<tag k="place" v="locality" />
		<tag k="ssr:stedsnr" v="449500" />
	</node>
	<node id="-502663" lat="58.8835277807" lon="8.90989167138">
		<tag k="name" v="Kleivvassknuten" />
		<tag k="natural" v="hill" />
		<tag k="place" v="locality" />
		<tag k="ssr:stedsnr" v="449499" />
	</node>
	<node id="-502661" lat="58.8793861069" lon="8.86200277296">
		<tag k="name" v="Svindalen" />
		<tag k="natural" v="valley" />
		<tag k="place" v="locality" />
		<tag k="ssr:stedsnr" v="449484" />
	</node>
	<node id="-502660" lat="58.860761115" lon="8.90329166305">
		<tag k="name" v="Bjørkkjerrdalen" />
		<tag k="natural" v="valley" />
		<tag k="place" v="locality" />
		<tag k="ssr:stedsnr" v="449471" />
	</node>
	<node id="-502659" lat="58.860652779" lon="8.93414444702">
		<tag k="name" v="Skauliene" />
		<tag k="natural" v="valley" />
		<tag k="place" v="locality" />
		<tag k="ssr:stedsnr" v="449463" />
	</node>
	<node id="-502657" lat="58.9305638918" lon="8.87880000849">
		<tag k="fixme" v="consider natural=peak for the most distinct mountains in the district" />
		<tag k="name" v="Sandvadknatten" />
		<tag k="natural" v="hill" />
		<tag k="place" v="locality" />
		<tag k="ssr:stedsnr" v="449552" />
	</node>
	<node id="-502656" lat="58.9377777737" lon="8.87558055442">
		<tag k="name" v="Bromdalen" />
		<tag k="natural" v="valley" />
		<tag k="place" v="locality" />
		<tag k="ssr:stedsnr" v="449549" />
	</node>
	<node id="-502655" lat="58.9828638885" lon="8.95654444942">
		<tag k="alt_name" v="Budalsfjell" />
		<tag k="fixme" v="consider natural=peak for the most distinct mountains in the district" />
		<tag k="name" v="Budalsfjellet" />
		<tag k="natural" v="hill" />
		<tag k="place" v="locality" />
		<tag k="ssr:stedsnr" v="244973" />
	</node>
	<node id="-502654" lat="58.98079167" lon="8.84690000135">
		<tag k="name" v="Krossdalen" />
		<tag k="natural" v="valley" />
		<tag k="place" v="locality" />
		<tag k="ssr:stedsnr" v="244967" />
	</node>
	<node id="-502651" lat="58.895225003" lon="8.92520278377">
		<tag k="fixme" v="consider natural=peak for the most distinct mountains in the district" />
		<tag k="name" v="Sagdalsheia" />
		<tag k="natural" v="hill" />
		<tag k="place" v="locality" />
		<tag k="ssr:stedsnr" v="244825" />
	</node>
	<node id="-502633" lat="58.9090888855" lon="9.03516388282">
		<tag k="fixme" v="consider natural=peak for the most distinct mountains in the district" />
		<tag k="name" v="Varden" />
		<tag k="natural" v="hill" />
		<tag k="place" v="locality" />
		<tag k="ssr:stedsnr" v="183767" />
	</node>
	<node id="-502630" lat="58.8496972264" lon="9.1055944476">
		<tag k="fixme" v="consider natural=peak for the most distinct mountains in the district" />
		<tag k="name" v="Sundsåsen" />
		<tag k="natural" v="hill" />
		<tag k="place" v="locality" />
		<tag k="ssr:stedsnr" v="145967" />
	</node>
	<node id="-502625" lat="58.8444999957" lon="9.04845555711">
		<tag k="name" v="Helleråsdøla" />
		<tag k="natural" v="valley" />
		<tag k="place" v="locality" />
		<tag k="ssr:stedsnr" v="145920" />
	</node>
	<node id="-502624" lat="58.9674666698" lon="8.95351389247">
		<tag k="name" v="Kortmyrdalen" />
		<tag k="natural" v="valley" />
		<tag k="place" v="locality" />
		<tag k="ssr:stedsnr" v="145918" />
	</node>
	<node id="-502622" lat="58.9670333344" lon="8.96941943768">
		<tag k="name" v="Revdalssvåene" />
		<tag k="natural" v="slope" />
		<tag k="place" v="locality" />
		<tag k="ssr:stedsnr" v="145914" />
	</node>
	<node id="-502621" lat="58.9644388923" lon="8.96735834014">
		<tag k="name" v="Revdalene" />
		<tag k="natural" v="valley" />
		<tag k="place" v="locality" />
		<tag k="ssr:stedsnr" v="145912" />
	</node>
	<node id="-502620" lat="58.8602444405" lon="8.96713610519">
		<tag k="name" v="Svarvardalen" />
		<tag k="natural" v="valley" />
		<tag k="place" v="locality" />
		<tag k="ssr:stedsnr" v="145902" />
	</node>
	<node id="-502619" lat="58.8306166643" lon="9.11708333464">
		<tag k="name" v="Norddalen" />
		<tag k="natural" v="valley" />
		<tag k="place" v="locality" />
		<tag k="ssr:stedsnr" v="145759" />
	</node>
	<node id="-502613" lat="58.8082861144" lon="9.03506111744">
		<tag k="name" v="Vesterliheia" />
		<tag k="natural" v="hill" />
		<tag k="place" v="locality" />
		<tag k="ssr:stedsnr" v="145872" />
	</node>
	<node id="-502608" lat="58.9222083341" lon="8.94920554926">
		<tag k="name" v="Vallemoen" />
		<tag k="place" v="locality" />
		<tag k="ssr:stedsnr" v="145864" />
	</node>
	<node id="-502607" lat="58.932319442" lon="9.03210556044">
		<tag k="name" v="Skjeggfjelldalen" />
		<tag k="natural" v="valley" />
		<tag k="place" v="locality" />
		<tag k="ssr:stedsnr" v="145856" />
	</node>
	<node id="-502605" lat="58.8801138846" lon="9.04594444265">
		<tag k="name" v="Røymyrheia" />
		<tag k="natural" v="hill" />
		<tag k="place" v="locality" />
		<tag k="ssr:stedsnr" v="145808" />
	</node>
	<node id="-502604" lat="58.8706500041" lon="9.04231111545">
		<tag k="name" v="Sæten" />
		<tag k="natural" v="hill" />
		<tag k="place" v="locality" />
		<tag k="ssr:stedsnr" v="145802" />
	</node>
	<node id="-502598" lat="58.8800083304" lon="8.8389916656">
		<tag k="name" v="Klovhola" />
		<tag k="natural" v="valley" />
		<tag k="place" v="locality" />
		<tag k="ssr:stedsnr" v="145524" />
	</node>
	<node id="-502594" lat="58.8535111107" lon="9.13171389229">
		<tag k="name" v="Brondalsheia" />
		<tag k="natural" v="hill" />
		<tag k="place" v="locality" />
		<tag k="ssr:stedsnr" v="267997" />
	</node>
	<node id="-502593" lat="58.8539750035" lon="9.06623054895">
		<tag k="name" v="Tyskheia" />
		<tag k="natural" v="hill" />
		<tag k="place" v="locality" />
		<tag k="ssr:stedsnr" v="267987" />
	</node>
	<node id="-502592" lat="58.8896472239" lon="9.12885000269">
		<tag k="name" v="Søndre Trommedal" />
		<tag k="natural" v="valley" />
		<tag k="place" v="locality" />
		<tag k="ssr:stedsnr" v="267843" />
	</node>
	<node id="-502589" lat="58.8830944448" lon="9.07147499686">
		<tag k="fixme" v="consider natural=peak for the most distinct mountains in the district" />
		<tag k="name" v="Sandtjennåsen" />
		<tag k="natural" v="hill" />
		<tag k="place" v="locality" />
		<tag k="ssr:stedsnr" v="267795" />
	</node>
	<node id="-502588" lat="58.8878916699" lon="9.06607221636">
		<tag k="fixme" v="consider natural=peak for the most distinct mountains in the district" />
		<tag k="name" v="Bronåsen" />
		<tag k="natural" v="hill" />
		<tag k="place" v="locality" />
		<tag k="ssr:stedsnr" v="267790" />
	</node>
	<node id="-502587" lat="58.8792972219" lon="9.061069448">
		<tag k="name" v="Barlinddalen" />
		<tag k="natural" v="valley" />
		<tag k="place" v="locality" />
		<tag k="ssr:stedsnr" v="267855" />
	</node>
	<node id="-502586" lat="58.8345583323" lon="9.09669166473">
		<tag k="fixme" v="consider natural=peak for the most distinct mountains in the district" />
		<tag k="name" v="Kjerringåsen" />
		<tag k="natural" v="hill" />
		<tag k="place" v="locality" />
		<tag k="ssr:stedsnr" v="267749" />
	</node>
	<node id="-502585" lat="58.840008329" lon="9.16816667076">
		<tag k="name" v="Londalen" />
		<tag k="natural" v="valley" />
		<tag k="place" v="locality" />
		<tag k="ssr:stedsnr" v="267642" />
	</node>
	<node id="-502584" lat="58.8321361075" lon="9.08505000314">
		<tag k="fixme" v="consider natural=peak for the most distinct mountains in the district" />
		<tag k="name" v="Bjørkås" />
		<tag k="natural" v="hill" />
		<tag k="place" v="locality" />
		<tag k="ssr:stedsnr" v="267741" />
	</node>
	<node id="-504625" lat="58.8570277787" lon="9.12708055002">
		<tag k="fixme" v="consider natural=peak for the most distinct mountains in the district" />
		<tag k="name" v="Stemåsen" />
		<tag k="natural" v="hill" />
		<tag k="place" v="locality" />
		<tag k="ssr:stedsnr" v="874994" />
	</node>
	<node id="-504624" lat="58.9586000034" lon="8.91321944498">
		<tag k="name" v="Lisleslåttheia" />
		<tag k="natural" v="hill" />
		<tag k="place" v="locality" />
		<tag k="ssr:stedsnr" v="874576" />
	</node>
	<node id="-502573" lat="58.8563972181" lon="9.07780277102">
		<tag k="name" v="Sundsdalen" />
		<tag k="natural" v="valley" />
		<tag k="place" v="locality" />
		<tag k="ssr:stedsnr" v="266984" />
	</node>
	<node id="-502572" lat="58.8362805549" lon="9.006386111">
		<tag k="fixme" v="consider natural=peak for the most distinct mountains in the district" />
		<tag k="name" v="Folesteåsen" />
		<tag k="natural" v="hill" />
		<tag k="place" v="locality" />
		<tag k="ssr:stedsnr" v="266979" />
	</node>
	<node id="-502571" lat="58.8559527822" lon="9.08683889317">
		<tag k="fixme" v="consider natural=peak for the most distinct mountains in the district" />
		<tag k="name" v="Åsane" />
		<tag k="natural" v="hill" />
		<tag k="place" v="locality" />
		<tag k="ssr:stedsnr" v="266978" />
	</node>
	<node id="-504618" lat="58.9208083364" lon="9.01171111685">
		<tag k="name" v="Rondseknatten" />
		<tag k="natural" v="hill" />
		<tag k="place" v="locality" />
		<tag k="ssr:stedsnr" v="873883" />
	</node>
	<node id="-502569" lat="58.8298388848" lon="9.03335278216">
		<tag k="name" v="Svendshei" />
		<tag k="natural" v="hill" />
		<tag k="place" v="locality" />
		<tag k="ssr:stedsnr" v="266950" />
	</node>
	<node id="-502568" lat="58.794219444" lon="9.06215278063">
		<tag k="name" v="Kalvehagheia" />
		<tag k="natural" v="hill" />
		<tag k="place" v="locality" />
		<tag k="ssr:stedsnr" v="266948" />
	</node>
	<node id="-502567" lat="58.841974996" lon="9.01517222468">
		<tag k="fixme" v="consider natural=peak for the most distinct mountains in the district" />
		<tag k="name" v="Listølåsen" />
		<tag k="natural" v="hill" />
		<tag k="place" v="locality" />
		<tag k="ssr:stedsnr" v="266941" />
	</node>
	<node id="-502577" lat="58.8465000002" lon="9.18438888802">
		<tag k="name" v="Galteliene" />
		<tag k="natural" v="slope" />
		<tag k="place" v="locality" />
		<tag k="ssr:stedsnr" v="267590" />
	</node>
	<node id="-504612" lat="58.7992194483" lon="9.05431944304">
		<tag k="name" v="Neperoa" />
		<tag k="natural" v="valley" />
		<tag k="place" v="locality" />
		<tag k="ssr:stedsnr" v="873937" />
	</node>
	<node id="-504611" lat="58.8134083338" lon="9.02288888779">
		<tag k="name" v="Diplemyrliene" />
		<tag k="natural" v="slope" />
		<tag k="place" v="locality" />
		<tag k="ssr:stedsnr" v="873852" />
	</node>
	<node id="-502562" lat="58.9629027739" lon="8.95370000846">
		<tag k="name" v="Ildkleivmoen" />
		<tag k="place" v="locality" />
		<tag k="ssr:stedsnr" v="266926" />
	</node>
	<node id="-504608" lat="58.8732722222" lon="9.07866389098">
		<tag k="name" v="Rafstølheia" />
		<tag k="natural" v="hill" />
		<tag k="place" v="locality" />
		<tag k="ssr:stedsnr" v="873841" />
	</node>
	<node id="-504607" lat="58.9346361152" lon="9.00968055582">
		<tag k="name" v="Vondstiheia" />
		<tag k="natural" v="hill" />
		<tag k="place" v="locality" />
		<tag k="ssr:stedsnr" v="873839" />
	</node>
	<node id="-502558" lat="58.8038777782" lon="9.0102222139">
		<tag k="fixme" v="consider natural=peak for the most distinct mountains in the district" />
		<tag k="name" v="Lille Grasåsen" />
		<tag k="natural" v="hill" />
		<tag k="place" v="locality" />
		<tag k="ssr:stedsnr" v="266903" />
	</node>
	<node id="-504605" lat="58.9356416622" lon="8.95917221741">
		<tag k="name" v="Meånsmoen" />
		<tag k="place" v="locality" />
		<tag k="ssr:stedsnr" v="873826" />
	</node>
	<node id="-502555" lat="58.9205472206" lon="9.05060277729">
		<tag k="name" v="Kjerringholene" />
		<tag k="natural" v="valley" />
		<tag k="place" v="locality" />
		<tag k="ssr:stedsnr" v="266895" />
	</node>
	<node id="-504602" lat="58.8931805566" lon="9.05286666854">
		<tag k="name" v="Bråtanliene" />
		<tag k="natural" v="slope" />
		<tag k="place" v="locality" />
		<tag k="ssr:stedsnr" v="873802" />
	</node>
	<node id="-504601" lat="58.8660972257" lon="9.02321943817">
		<tag k="name" v="Høgheiliene" />
		<tag k="natural" v="slope" />
		<tag k="place" v="locality" />
		<tag k="ssr:stedsnr" v="873800" />
	</node>
	<node id="-502552" lat="58.9154250043" lon="8.99277222884">
		<tag k="name" v="Kortmyrdekkane" />
		<tag k="natural" v="slope" />
		<tag k="place" v="locality" />
		<tag k="ssr:stedsnr" v="266886" />
	</node>
	<node id="-504599" lat="58.8698166658" lon="9.04056944098">
		<tag k="name" v="Rambergskotet" />
		<tag k="natural" v="valley" />
		<tag k="place" v="locality" />
		<tag k="ssr:stedsnr" v="873789" />
	</node>
	<node id="-504597" lat="58.8959055601" lon="9.06559721989">
		<tag k="name" v="Skuggetjennbråta" />
		<tag k="natural" v="hill" />
		<tag k="place" v="locality" />
		<tag k="ssr:stedsnr" v="873787" />
	</node>
	<node id="-502548" lat="58.8728777777" lon="9.10113889531">
		<tag k="name" v="Brattåsdalen" />
		<tag k="natural" v="valley" />
		<tag k="place" v="locality" />
		<tag k="ssr:stedsnr" v="266846" />
	</node>
	<node id="-504595" lat="58.831197226" lon="9.12555277792">
		<tag k="name" v="Ribbliene" />
		<tag k="natural" v="slope" />
		<tag k="place" v="locality" />
		<tag k="ssr:stedsnr" v="873777" />
	</node>
	<node id="-504594" lat="58.8788333368" lon="8.99045834168">
		<tag k="fixme" v="consider natural=peak for the most distinct mountains in the district" />
		<tag k="name" v="Haukåsen" />
		<tag k="natural" v="hill" />
		<tag k="place" v="locality" />
		<tag k="ssr:stedsnr" v="873775" />
	</node>
	<node id="-504593" lat="58.8707249962" lon="8.96499167498">
		<tag k="fixme" v="consider natural=peak for the most distinct mountains in the district" />
		<tag k="name" v="Timmeråsen" />
		<tag k="natural" v="hill" />
		<tag k="place" v="locality" />
		<tag k="ssr:stedsnr" v="873766" />
	</node>
	<node id="-504592" lat="58.8296805536" lon="9.15703055462">
		<tag k="name" v="Nykktjennheia" />
		<tag k="natural" v="hill" />
		<tag k="place" v="locality" />
		<tag k="ssr:stedsnr" v="873763" />
	</node>
	<node id="-502540" lat="58.8822138885" lon="8.98049444547">
		<tag k="name" v="Båsberga" />
		<tag k="natural" v="hill" />
		<tag k="place" v="locality" />
		<tag k="ssr:stedsnr" v="266785" />
	</node>
	<node id="-502539" lat="58.8819555514" lon="8.98787500103">
		<tag k="fixme" v="consider natural=peak for the most distinct mountains in the district" />
		<tag k="name" v="Åsane" />
		<tag k="natural" v="hill" />
		<tag k="place" v="locality" />
		<tag k="ssr:stedsnr" v="266782" />
	</node>
	<node id="-504586" lat="58.8185527801" lon="9.09347222508">
		<tag k="fixme" v="consider natural=peak for the most distinct mountains in the district" />
		<tag k="name" v="Strandåsen" />
		<tag k="natural" v="hill" />
		<tag k="place" v="locality" />
		<tag k="ssr:stedsnr" v="873744" />
	</node>
	<node id="-504585" lat="58.8850333313" lon="9.00340555809">
		<tag k="fixme" v="consider natural=peak for the most distinct mountains in the district" />
		<tag k="name" v="Timmeråsen" />
		<tag k="natural" v="hill" />
		<tag k="place" v="locality" />
		<tag k="ssr:stedsnr" v="873739" />
	</node>
	<node id="-504584" lat="58.8629972194" lon="9.17737777764">
		<tag k="name" v="Ramslidalen" />
		<tag k="natural" v="valley" />
		<tag k="place" v="locality" />
		<tag k="ssr:stedsnr" v="873648" />
	</node>
	<node id="-504583" lat="58.8309638928" lon="9.16358889323">
		<tag k="fixme" v="consider natural=peak for the most distinct mountains in the district" />
		<tag k="name" v="Lillesvartåsen" />
		<tag k="natural" v="hill" />
		<tag k="place" v="locality" />
		<tag k="ssr:stedsnr" v="873635" />
	</node>
	<node id="-504581" lat="58.8363111114" lon="9.18774166301">
		<tag k="name" v="Stallheia" />
		<tag k="natural" v="hill" />
		<tag k="place" v="locality" />
		<tag k="ssr:stedsnr" v="873629" />
	</node>
	<node id="-502528" lat="58.9172722226" lon="8.93309999382">
		<tag k="fixme" v="consider natural=peak for the most distinct mountains in the district" />
		<tag k="name" v="Svaldalsknuten" />
		<tag k="natural" v="hill" />
		<tag k="place" v="locality" />
		<tag k="ssr:stedsnr" v="266598" />
	</node>
	<node id="-502526" lat="58.9305694463" lon="8.86448333731">
		<tag k="name" v="Tjærefjella" />
		<tag k="natural" v="slope" />
		<tag k="place" v="locality" />
		<tag k="ssr:stedsnr" v="266570" />
	</node>
	<node id="-504572" lat="58.911030557" lon="8.85246944137">
		<tag k="fixme" v="consider natural=peak for the most distinct mountains in the district" />
		<tag k="name" v="Marksetåsen" />
		<tag k="natural" v="hill" />
		<tag k="place" v="locality" />
		<tag k="ssr:stedsnr" v="851863" />
	</node>
	<node id="-504571" lat="58.9109944448" lon="8.94860277721">
		<tag k="fixme" v="consider natural=peak for the most distinct mountains in the district" />
		<tag k="name" v="Rakkedalsfjell" />
		<tag k="natural" v="hill" />
		<tag k="place" v="locality" />
		<tag k="ssr:stedsnr" v="851749" />
	</node>
	<node id="-502520" lat="58.8963194453" lon="8.90721111359">
		<tag k="fixme" v="consider natural=peak for the most distinct mountains in the district" />
		<tag k="name" v="Østre Kleivvassknuten" />
		<tag k="natural" v="hill" />
		<tag k="place" v="locality" />
		<tag k="ssr:stedsnr" v="266531" />
	</node>
	<node id="-504567" lat="58.8789750034" lon="8.9379027743">
		<tag k="fixme" v="consider natural=peak for the most distinct mountains in the district" />
		<tag k="name" v="Ulvskrin" />
		<tag k="natural" v="hill" />
		<tag k="place" v="locality" />
		<tag k="ssr:stedsnr" v="851196" />
	</node>
	<node id="-504562" lat="58.8132305565" lon="9.104697229">
		<tag k="fixme" v="consider natural=peak for the most distinct mountains in the district" />
		<tag k="name" v="Storefjell" />
		<tag k="natural" v="hill" />
		<tag k="place" v="locality" />
		<tag k="ssr:stedsnr" v="851026" />
	</node>
	<node id="-504561" lat="58.9591138931" lon="8.93248610736">
		<tag k="fixme" v="consider natural=peak for the most distinct mountains in the district" />
		<tag k="name" v="Fossbuheia" />
		<tag k="natural" v="hill" />
		<tag k="place" v="locality" />
		<tag k="ssr:stedsnr" v="850904" />
	</node>
	<node id="-502511" lat="58.8418472234" lon="9.08846943866">
		<tag k="fixme" v="consider natural=peak for the most distinct mountains in the district" />
		<tag k="name" v="Bråtanfjell" />
		<tag k="natural" v="hill" />
		<tag k="place" v="locality" />
		<tag k="ssr:stedsnr" v="85962" />
	</node>
	<node id="-504558" lat="58.9319861075" lon="8.93121111279">
		<tag k="alt_name" v="Vannliheia" />
		<tag k="fixme" v="consider natural=peak for the most distinct mountains in the district" />
		<tag k="name" v="Vatneliheia" />
		<tag k="natural" v="hill" />
		<tag k="place" v="locality" />
		<tag k="ssr:stedsnr" v="850830" />
	</node>
	<node id="-504554" lat="58.883752775" lon="9.05181111432">
		<tag k="alt_name" v="Aplandsåsen" />
		<tag k="fixme" v="consider natural=peak for the most distinct mountains in the district" />
		<tag k="name" v="Apelandsheia" />
		<tag k="natural" v="hill" />
		<tag k="place" v="locality" />
		<tag k="ssr:stedsnr" v="850233" />
	</node>
	<node id="-502502" lat="58.8682444484" lon="8.96797777827">
		<tag k="name" v="Maurliheia" />
		<tag k="natural" v="hill" />
		<tag k="place" v="locality" />
		<tag k="ssr:stedsnr" v="85752" />
	</node>
	<node id="-504548" lat="58.8642833324" lon="9.08669444177">
		<tag k="fixme" v="consider natural=peak for the most distinct mountains in the district" />
		<tag k="name" v="Buråsen" />
		<tag k="natural" v="hill" />
		<tag k="place" v="locality" />
		<tag k="ssr:stedsnr" v="850164" />
	</node>
	<node id="-504546" lat="58.8596027822" lon="9.01610834113">
		<tag k="alt_name" v="Spjøtåsen" />
		<tag k="fixme" v="consider natural=peak for the most distinct mountains in the district" />
		<tag k="name" v="Spjøtsåsen" />
		<tag k="natural" v="hill" />
		<tag k="place" v="locality" />
		<tag k="ssr:stedsnr" v="850155" />
	</node>
	<node id="-504544" lat="58.8552861144" lon="9.15065833462">
		<tag k="alt_name" v="Viliene" />
		<tag k="fixme" v="consider natural=peak for the most distinct mountains in the district" />
		<tag k="name" v="Viliane" />
		<tag k="natural" v="hill" />
		<tag k="place" v="locality" />
		<tag k="ssr:stedsnr" v="850134" />
	</node>
	<node id="-502495" lat="58.8973222185" lon="9.0192527806">
		<tag k="name" v="Tuvmoen" />
		<tag k="place" v="locality" />
		<tag k="ssr:stedsnr" v="85702" />
	</node>
	<node id="-502493" lat="58.8795555573" lon="9.11015278201">
		<tag k="name" v="Maurnesdalen" />
		<tag k="natural" v="valley" />
		<tag k="place" v="locality" />
		<tag k="ssr:stedsnr" v="85558" />
	</node>
	<node id="-504538" lat="58.8738527736" lon="9.06023888536">
		<tag k="fixme" v="consider natural=peak for the most distinct mountains in the district" />
		<tag k="name" v="Rossåsen" />
		<tag k="natural" v="hill" />
		<tag k="place" v="locality" />
		<tag k="ssr:stedsnr" v="850050" />
	</node>
	<node id="-502486" lat="58.9010083373" lon="8.89414167486">
		<tag k="name" v="Halvorsmyrhei" />
		<tag k="natural" v="hill" />
		<tag k="place" v="locality" />
		<tag k="ssr:stedsnr" v="84562" />
	</node>
	<node id="-502485" lat="58.8660000035" lon="8.9050527839">
		<tag k="name" v="Finnliheia" />
		<tag k="natural" v="hill" />
		<tag k="place" v="locality" />
		<tag k="ssr:stedsnr" v="84561" />
	</node>
	<node id="-504532" lat="58.8594888862" lon="9.06260833725">
		<tag k="name" v="Mosliene" />
		<tag k="natural" v="slope" />
		<tag k="place" v="locality" />
		<tag k="ssr:stedsnr" v="813987" />
	</node>
	<node id="-504531" lat="58.8514499956" lon="9.06208054931">
		<tag k="name" v="Rønningheia" />
		<tag k="natural" v="hill" />
		<tag k="place" v="locality" />
		<tag k="ssr:stedsnr" v="813985" />
	</node>
	<node id="-502482" lat="58.8916194444" lon="8.93523332956">
		<tag k="name" v="Steiklia" />
		<tag k="natural" v="slope" />
		<tag k="place" v="locality" />
		<tag k="ssr:stedsnr" v="84527" />
	</node>
	<node id="-502481" lat="58.900930554" lon="9.10498888525">
		<tag k="fixme" v="consider natural=peak for the most distinct mountains in the district" />
		<tag k="name" v="Frifjell" />
		<tag k="natural" v="hill" />
		<tag k="place" v="locality" />
		<tag k="ssr:stedsnr" v="244801" />
	</node>
	<node id="-504528" lat="58.8296833314" lon="9.0249361173">
		<tag k="name" v="Småkjerrheia" />
		<tag k="natural" v="hill" />
		<tag k="place" v="locality" />
		<tag k="ssr:stedsnr" v="813974" />
	</node>
	<node id="-504527" lat="58.8583083342" lon="9.07288888996">
		<tag k="fixme" v="consider natural=peak for the most distinct mountains in the district" />
		<tag k="name" v="Kalvåsen" />
		<tag k="natural" v="hill" />
		<tag k="place" v="locality" />
		<tag k="ssr:stedsnr" v="813973" />
	</node>
	<node id="-502478" lat="58.9383694409" lon="8.98756944291">
		<tag k="alt_name" v="Bjørnehei" />
		<tag k="fixme" v="consider natural=peak for the most distinct mountains in the district" />
		<tag k="name" v="Bjynehei" />
		<tag k="natural" v="hill" />
		<tag k="place" v="locality" />
		<tag k="ssr:stedsnr" v="244836" />
	</node>
	<node id="-504524" lat="58.824525001" lon="9.00118889552">
		<tag k="name" v="Lyngåsdalen" />
		<tag k="natural" v="valley" />
		<tag k="place" v="locality" />
		<tag k="ssr:stedsnr" v="813961" />
	</node>
	<node id="-502475" lat="58.7971749993" lon="9.08179722261">
		<tag k="fixme" v="consider natural=peak for the most distinct mountains in the district" />
		<tag k="name" v="Kjørkeliheia" />
		<tag k="natural" v="hill" />
		<tag k="place" v="locality" />
		<tag k="ssr:stedsnr" v="244522" />
	</node>
	<node id="-504522" lat="58.8362722235" lon="8.98120555308">
		<tag k="fixme" v="consider natural=peak for the most distinct mountains in the district" />
		<tag k="name" v="Kringlemyråsen" />
		<tag k="natural" v="hill" />
		<tag k="place" v="locality" />
		<tag k="ssr:stedsnr" v="813953" />
	</node>
	<node id="-504521" lat="58.8367388882" lon="8.99930278616">
		<tag k="name" v="Baunkjerrdalen" />
		<tag k="natural" v="valley" />
		<tag k="place" v="locality" />
		<tag k="ssr:stedsnr" v="813950" />
	</node>
	<node id="-504519" lat="58.8047805573" lon="9.12107222592">
		<tag k="name" v="Donkedalen" />
		<tag k="natural" v="valley" />
		<tag k="place" v="locality" />
		<tag k="ssr:stedsnr" v="813937" />
	</node>
	<node id="-504518" lat="58.8124416649" lon="9.12243055432">
		<tag k="name" v="Årbelstødalen" />
		<tag k="natural" v="valley" />
		<tag k="place" v="locality" />
		<tag k="ssr:stedsnr" v="813936" />
	</node>
	<node id="-504517" lat="58.8328222212" lon="8.95461110375">
		<tag k="name" v="Knutsbulia" />
		<tag k="natural" v="slope" />
		<tag k="place" v="locality" />
		<tag k="ssr:stedsnr" v="813934" />
	</node>
	<node id="-504516" lat="58.8249722212" lon="8.98354444666">
		<tag k="name" v="Hagekjerrbakken" />
		<tag k="natural" v="hill" />
		<tag k="place" v="locality" />
		<tag k="ssr:stedsnr" v="813928" />
	</node>
	<node id="-502467" lat="58.9791750044" lon="8.90249999865">
		<tag k="fixme" v="consider natural=peak for the most distinct mountains in the district" />
		<tag k="name" v="Ørnefjell" />
		<tag k="natural" v="hill" />
		<tag k="place" v="locality" />
		<tag k="ssr:stedsnr" v="243985" />
	</node>
	<node id="-504513" lat="58.8144611144" lon="9.09465555078">
		<tag k="name" v="Sagåsheia" />
		<tag k="natural" v="hill" />
		<tag k="place" v="locality" />
		<tag k="ssr:stedsnr" v="813920" />
	</node>
	<node id="-502464" lat="58.8621944457" lon="8.92698611098">
		<tag k="fixme" v="consider natural=peak for the most distinct mountains in the district" />
		<tag k="name" v="Vestølåsen" />
		<tag k="natural" v="hill" />
		<tag k="place" v="locality" />
		<tag k="ssr:stedsnr" v="243136" />
	</node>
	<node id="-502560" lat="58.7955722179" lon="9.03905833304">
		<tag k="name" v="Skjærtjennheia" />
		<tag k="natural" v="hill" />
		<tag k="place" v="locality" />
		<tag k="ssr:stedsnr" v="266916" />
	</node>
	<node id="-504509" lat="58.8534527743" lon="9.02096389514">
		<tag k="fixme" v="consider natural=peak for the most distinct mountains in the district" />
		<tag k="name" v="Rossåsen" />
		<tag k="natural" v="hill" />
		<tag k="place" v="locality" />
		<tag k="ssr:stedsnr" v="813898" />
	</node>
	<node id="-504507" lat="58.7937388867" lon="9.04480555968">
		<tag k="fixme" v="consider natural=peak for the most distinct mountains in the district" />
		<tag k="name" v="Lauvåsen (nord)" />
		<tag k="natural" v="hill" />
		<tag k="place" v="locality" />
		<tag k="ssr:stedsnr" v="813888" />
	</node>
	<node id="-504506" lat="58.9081222226" lon="9.00904444732">
		<tag k="name" v="Høgheia" />
		<tag k="natural" v="hill" />
		<tag k="place" v="locality" />
		<tag k="ssr:stedsnr" v="813872" />
	</node>
	<node id="-504504" lat="58.9095472187" lon="9.02873055928">
		<tag k="name" v="Vardlia" />
		<tag k="natural" v="slope" />
		<tag k="place" v="locality" />
		<tag k="ssr:stedsnr" v="813860" />
	</node>
	<node id="-504503" lat="58.8723972212" lon="9.07247222685">
		<tag k="fixme" v="consider natural=peak for the most distinct mountains in the district" />
		<tag k="name" v="Lyåsen" />
		<tag k="natural" v="hill" />
		<tag k="place" v="locality" />
		<tag k="ssr:stedsnr" v="813843" />
	</node>
	<node id="-502452" lat="58.8547361135" lon="9.04082222791">
		<tag k="name" v="Sponliheia" />
		<tag k="natural" v="hill" />
		<tag k="place" v="locality" />
		<tag k="ssr:stedsnr" v="24916" />
	</node>
	<node id="-502451" lat="58.9751500044" lon="9.0049138949">
		<tag k="name" v="Gruvlefossdalen" />
		<tag k="natural" v="valley" />
		<tag k="place" v="locality" />
		<tag k="ssr:stedsnr" v="24914" />
	</node>
	<node id="-504498" lat="58.8867472266" lon="9.13299445116">
		<tag k="name" v="Tryggeråsliene" />
		<tag k="natural" v="slope" />
		<tag k="place" v="locality" />
		<tag k="ssr:stedsnr" v="813826" />
	</node>
	<node id="-504497" lat="58.861983336" lon="9.08446111727">
		<tag k="name" v="Hagandalen" />
		<tag k="natural" v="valley" />
		<tag k="place" v="locality" />
		<tag k="ssr:stedsnr" v="813824" />
	</node>
	<node id="-504496" lat="58.8677305572" lon="9.00541944649">
		<tag k="name" v="Bjelkeberga" />
		<tag k="natural" v="hill" />
		<tag k="place" v="locality" />
		<tag k="ssr:stedsnr" v="813818" />
	</node>
	<node id="-504494" lat="58.8941611123" lon="9.10139445312">
		<tag k="name" v="Budalsheia" />
		<tag k="natural" v="hill" />
		<tag k="place" v="locality" />
		<tag k="ssr:stedsnr" v="813813" />
	</node>
	<node id="-502557" lat="58.8012527762" lon="9.00907778458">
		<tag k="name" v="Diplemyrheia" />
		<tag k="natural" v="hill" />
		<tag k="place" v="locality" />
		<tag k="ssr:stedsnr" v="266902" />
	</node>
	<node id="-502444" lat="58.8790833363" lon="8.84454166249">
		<tag k="name" v="Nordstelia" />
		<tag k="natural" v="slope" />
		<tag k="place" v="locality" />
		<tag k="ssr:stedsnr" v="24531" />
	</node>
	<node id="-504491" lat="58.9021222261" lon="9.06106388243">
		<tag k="fixme" v="consider natural=peak for the most distinct mountains in the district" />
		<tag k="name" v="Fikstølåsen" />
		<tag k="natural" v="hill" />
		<tag k="place" v="locality" />
		<tag k="ssr:stedsnr" v="813798" />
	</node>
	<node id="-504490" lat="58.8698722259" lon="8.95473888579">
		<tag k="name" v="Fantheia" />
		<tag k="natural" v="hill" />
		<tag k="place" v="locality" />
		<tag k="ssr:stedsnr" v="813787" />
	</node>
	<node id="-502441" lat="58.9655305554" lon="8.99459722632">
		<tag k="name" v="Klosterdalen" />
		<tag k="natural" v="valley" />
		<tag k="place" v="locality" />
		<tag k="ssr:stedsnr" v="24634" />
	</node>
	<node id="-504488" lat="58.8755361104" lon="8.97222777242">
		<tag k="fixme" v="consider natural=peak for the most distinct mountains in the district" />
		<tag k="name" v="Stølstjennåsen" />
		<tag k="natural" v="hill" />
		<tag k="place" v="locality" />
		<tag k="ssr:stedsnr" v="813781" />
	</node>
	<node id="-504487" lat="58.8684277754" lon="8.97831388831">
		<tag k="name" v="Kvernhaugane" />
		<tag k="natural" v="hill" />
		<tag k="place" v="locality" />
		<tag k="ssr:stedsnr" v="813768" />
	</node>
	<node id="-502438" lat="58.8706611092" lon="9.10882500042">
		<tag k="name" v="Ekornlia" />
		<tag k="natural" v="slope" />
		<tag k="place" v="locality" />
		<tag k="ssr:stedsnr" v="24620" />
	</node>
	<node id="-504481" lat="58.8494694488" lon="9.1561500025">
		<tag k="name" v="Småmyrheia" />
		<tag k="natural" v="hill" />
		<tag k="place" v="locality" />
		<tag k="ssr:stedsnr" v="813740" />
	</node>
	<node id="-502430" lat="58.8475388864" lon="9.16930277686">
		<tag k="fixme" v="consider natural=peak for the most distinct mountains in the district" />
		<tag k="name" v="Andersmyrheia" />
		<tag k="natural" v="hill" />
		<tag k="place" v="locality" />
		<tag k="ssr:stedsnr" v="1129" />
	</node>
	<node id="-502554" lat="58.9120888914" lon="9.04048611517">
		<tag k="name" v="Tjovdalen" />
		<tag k="natural" v="valley" />
		<tag k="place" v="locality" />
		<tag k="ssr:stedsnr" v="266894" />
	</node>
	<node id="-502426" lat="58.8313083332" lon="9.014763895">
		<tag k="fixme" v="consider natural=peak for the most distinct mountains in the district" />
		<tag k="name" v="Lonåsen" />
		<tag k="natural" v="hill" />
		<tag k="place" v="locality" />
		<tag k="ssr:stedsnr" v="71" />
	</node>
	<node id="-504473" lat="58.8805527752" lon="8.8084055573">
		<tag k="fixme" v="consider natural=peak for the most distinct mountains in the district" />
		<tag k="name" v="Grasåsen" />
		<tag k="natural" v="hill" />
		<tag k="place" v="locality" />
		<tag k="ssr:stedsnr" v="813670" />
	</node>
	<node id="-504471" lat="58.8693083344" lon="9.13734999738">
		<tag k="fixme" v="consider natural=peak for the most distinct mountains in the district" />
		<tag k="name" v="Dansarfjell" />
		<tag k="natural" v="hill" />
		<tag k="place" v="locality" />
		<tag k="ssr:stedsnr" v="813614" />
	</node>
	<node id="-504470" lat="58.907544445" lon="9.07429444766">
		<tag k="alt_name" v="Tryttjennhausene" />
		<tag k="name" v="Tryttjennhausane" />
		<tag k="natural" v="hill" />
		<tag k="place" v="locality" />
		<tag k="ssr:stedsnr" v="813604" />
	</node>
	<node id="-504468" lat="58.9073972225" lon="9.05343611313">
		<tag k="name" v="Hessfjelldalen" />
		<tag k="natural" v="valley" />
		<tag k="place" v="locality" />
		<tag k="ssr:stedsnr" v="813600" />
	</node>
	<node id="-504467" lat="58.8440250029" lon="9.18338611233">
		<tag k="name" v="Galtedalen" />
		<tag k="natural" v="valley" />
		<tag k="place" v="locality" />
		<tag k="ssr:stedsnr" v="813595" />
	</node>
	<node id="-504464" lat="58.9727722246" lon="8.92701389029">
		<tag k="name" v="Moltekjerrdalen" />
		<tag k="natural" v="valley" />
		<tag k="place" v="locality" />
		<tag k="ssr:stedsnr" v="813570" />
	</node>
	<node id="-504462" lat="58.7660861139" lon="9.03528610899">
		<tag k="name" v="Marfuheia" />
		<tag k="natural" v="hill" />
		<tag k="place" v="locality" />
		<tag k="ssr:stedsnr" v="813554" />
	</node>
	<node id="-504461" lat="58.9141694414" lon="8.82902777327">
		<tag k="alt_name" v="Matnapp" />
		<tag k="fixme" v="consider natural=peak for the most distinct mountains in the district" />
		<tag k="name" v="Matknapp" />
		<tag k="natural" v="hill" />
		<tag k="place" v="locality" />
		<tag k="ssr:stedsnr" v="813517" />
	</node>
	<node id="-504460" lat="58.9205944463" lon="8.84447222248">
		<tag k="name" v="Trettlondalen" />
		<tag k="natural" v="valley" />
		<tag k="place" v="locality" />
		<tag k="ssr:stedsnr" v="813507" />
	</node>
	<node id="-504459" lat="58.9455611107" lon="8.93925832634">
		<tag k="name" v="Fjellmellom" />
		<tag k="natural" v="valley" />
		<tag k="place" v="locality" />
		<tag k="ssr:stedsnr" v="813504" />
	</node>
	<node id="-504458" lat="58.899216666" lon="8.91965833129">
		<tag k="name" v="Småliane" />
		<tag k="natural" v="slope" />
		<tag k="place" v="locality" />
		<tag k="ssr:stedsnr" v="813480" />
	</node>
	<node id="-502551" lat="58.9126944484" lon="8.96631666297">
		<tag k="name" v="Fardalsmoen" />
		<tag k="place" v="locality" />
		<tag k="ssr:stedsnr" v="266882" />
	</node>
	<node id="-504450" lat="58.8931861151" lon="8.86822222519">
		<tag k="name" v="Svåene" />
		<tag k="natural" v="slope" />
		<tag k="place" v="locality" />
		<tag k="ssr:stedsnr" v="813419" />
	</node>
	<node id="-504438" lat="58.9592027762" lon="8.88957500861">
		<tag k="alt_name" v="Risfjelliene" />
		<tag k="name" v="Risfjelliane" />
		<tag k="natural" v="slope" />
		<tag k="place" v="locality" />
		<tag k="ssr:stedsnr" v="789910" />
	</node>
	<node id="-504436" lat="58.9664249987" lon="8.99768055808">
		<tag k="fixme" v="consider natural=peak for the most distinct mountains in the district" />
		<tag k="name" v="Fuglemyrheia" />
		<tag k="natural" v="hill" />
		<tag k="place" v="locality" />
		<tag k="ssr:stedsnr" v="789890" />
	</node>
	<node id="-504433" lat="58.8093638922" lon="9.02419999531">
		<tag k="alt_name" v="Urfjell" />
		<tag k="fixme" v="consider natural=peak for the most distinct mountains in the district" />
		<tag k="name" v="Urdfjellet" />
		<tag k="natural" v="hill" />
		<tag k="place" v="locality" />
		<tag k="ssr:stedsnr" v="789478" />
	</node>
	<node id="-504429" lat="58.8625138903" lon="9.16884167079">
		<tag k="fixme" v="consider natural=peak for the most distinct mountains in the district" />
		<tag k="name" v="Heiberget" />
		<tag k="natural" v="hill" />
		<tag k="place" v="locality" />
		<tag k="ssr:stedsnr" v="789127" />
	</node>
	<node id="-502546" lat="58.8745944477" lon="9.00728611096">
		<tag k="name" v="Egderøddalen" />
		<tag k="natural" v="valley" />
		<tag k="place" v="locality" />
		<tag k="ssr:stedsnr" v="266831" />
	</node>
	<node id="-504424" lat="58.8867805521" lon="8.86945277016">
		<tag k="alt_name" v="Nordre Skavlen" />
		<tag k="fixme" v="consider natural=peak for the most distinct mountains in the district" />
		<tag k="name" v="Indre Skavlen" />
		<tag k="natural" v="hill" />
		<tag k="place" v="locality" />
		<tag k="ssr:stedsnr" v="789253" />
	</node>
	<node id="-504421" lat="58.8265666679" lon="9.000205556">
		<tag k="fixme" v="consider natural=peak for the most distinct mountains in the district" />
		<tag k="name" v="Lyngåsknuten" />
		<tag k="natural" v="hill" />
		<tag k="place" v="locality" />
		<tag k="ssr:stedsnr" v="789044" />
	</node>
	<node id="-504420" lat="58.8252638897" lon="9.02027221544">
		<tag k="fixme" v="consider natural=peak for the most distinct mountains in the district" />
		<tag k="name" v="Roheia" />
		<tag k="natural" v="hill" />
		<tag k="place" v="locality" />
		<tag k="ssr:stedsnr" v="789036" />
	</node>
	<node id="-504413" lat="58.9035416699" lon="8.99224722398">
		<tag k="fixme" v="consider natural=peak for the most distinct mountains in the district" />
		<tag k="name" v="Hustjennåsen" />
		<tag k="natural" v="hill" />
		<tag k="place" v="locality" />
		<tag k="ssr:stedsnr" v="752994" />
	</node>
	<node id="-504406" lat="58.8946333301" lon="8.94231110733">
		<tag k="name" v="Morkedalen" />
		<tag k="natural" v="valley" />
		<tag k="place" v="locality" />
		<tag k="ssr:stedsnr" v="752971" />
	</node>
	<node id="-504402" lat="58.8323944482" lon="8.97569722384">
		<tag k="name" v="Steinsliheia" />
		<tag k="natural" v="hill" />
		<tag k="place" v="locality" />
		<tag k="ssr:stedsnr" v="752961" />
	</node>
	<node id="-504396" lat="58.8362972217" lon="8.96510832579">
		<tag k="name" v="Tverrdalen" />
		<tag k="natural" v="valley" />
		<tag k="place" v="locality" />
		<tag k="ssr:stedsnr" v="752927" />
	</node>
	<node id="-504395" lat="58.858966666" lon="9.03738333324">
		<tag k="fixme" v="consider natural=peak for the most distinct mountains in the district" />
		<tag k="name" v="Nepåsen" />
		<tag k="natural" v="hill" />
		<tag k="place" v="locality" />
		<tag k="ssr:stedsnr" v="752922" />
	</node>
	<node id="-504394" lat="58.8518027801" lon="9.03213333707">
		<tag k="name" v="Grandalsheia" />
		<tag k="natural" v="hill" />
		<tag k="place" v="locality" />
		<tag k="ssr:stedsnr" v="752919" />
	</node>
	<node id="-504392" lat="58.9792166632" lon="8.98930000212">
		<tag k="name" v="Styggedalsheia" />
		<tag k="natural" v="hill" />
		<tag k="place" v="locality" />
		<tag k="ssr:stedsnr" v="752913" />
	</node>
	<node id="-504390" lat="58.8524472217" lon="8.97503055387">
		<tag k="name" v="Lyngtjennliene" />
		<tag k="natural" v="slope" />
		<tag k="place" v="locality" />
		<tag k="ssr:stedsnr" v="752905" />
	</node>
	<node id="-504388" lat="58.8428638909" lon="8.98087221849">
		<tag k="fixme" v="consider natural=peak for the most distinct mountains in the district" />
		<tag k="name" v="Ramsåsen" />
		<tag k="natural" v="hill" />
		<tag k="place" v="locality" />
		<tag k="ssr:stedsnr" v="752899" />
	</node>
	<node id="-504387" lat="58.9174944466" lon="9.02781110663">
		<tag k="fixme" v="consider natural=peak for the most distinct mountains in the district" />
		<tag k="name" v="Åsane" />
		<tag k="natural" v="hill" />
		<tag k="place" v="locality" />
		<tag k="ssr:stedsnr" v="752894" />
	</node>
	<node id="-504386" lat="58.9114861153" lon="9.0107888948">
		<tag k="name" v="Raundalen" />
		<tag k="natural" v="valley" />
		<tag k="place" v="locality" />
		<tag k="ssr:stedsnr" v="752885" />
	</node>
	<node id="-504384" lat="58.9246638911" lon="9.03411944365">
		<tag k="name" v="Kilbulia" />
		<tag k="natural" v="slope" />
		<tag k="place" v="locality" />
		<tag k="ssr:stedsnr" v="752872" />
	</node>
	<node id="-504381" lat="58.8061749989" lon="9.03867222052">
		<tag k="name" v="Kvernheidalen" />
		<tag k="natural" v="valley" />
		<tag k="place" v="locality" />
		<tag k="ssr:stedsnr" v="752865" />
	</node>
	<node id="-504379" lat="58.9191222232" lon="8.96142777373">
		<tag k="name" v="Hausneshausene" />
		<tag k="natural" v="hill" />
		<tag k="place" v="locality" />
		<tag k="ssr:stedsnr" v="752858" />
	</node>
	<node id="-504378" lat="58.81147778" lon="9.03083055274">
		<tag k="name" v="Klova" />
		<tag k="natural" v="valley" />
		<tag k="place" v="locality" />
		<tag k="ssr:stedsnr" v="752857" />
	</node>
	<node id="-504377" lat="58.9056638907" lon="8.96724444793">
		<tag k="name" v="Borjevassholene" />
		<tag k="natural" v="valley" />
		<tag k="place" v="locality" />
		<tag k="ssr:stedsnr" v="752855" />
	</node>
	<node id="-504376" lat="58.8046666664" lon="9.02443889559">
		<tag k="name" v="Urvassliene" />
		<tag k="natural" v="slope" />
		<tag k="place" v="locality" />
		<tag k="ssr:stedsnr" v="752854" />
	</node>
	<node id="-504375" lat="58.9221861144" lon="8.94212500249">
		<tag k="name" v="Stordalane" />
		<tag k="natural" v="valley" />
		<tag k="place" v="locality" />
		<tag k="ssr:stedsnr" v="752850" />
	</node>
	<node id="-504373" lat="58.9449722197" lon="9.0245361156">
		<tag k="name" v="Mørketjenndalen" />
		<tag k="natural" v="valley" />
		<tag k="place" v="locality" />
		<tag k="ssr:stedsnr" v="752842" />
	</node>
	<node id="-504372" lat="58.8724194411" lon="9.10461388177">
		<tag k="fixme" v="consider natural=peak for the most distinct mountains in the district" />
		<tag k="name" v="Søndre Brattåsen" />
		<tag k="natural" v="hill" />
		<tag k="place" v="locality" />
		<tag k="ssr:stedsnr" v="752841" />
	</node>
	<node id="-504368" lat="58.8835277769" lon="9.14853056021">
		<tag k="name" v="Skiftingsmyrliene" />
		<tag k="natural" v="slope" />
		<tag k="old_name" v="Skifingsmyrliene" />
		<tag k="place" v="locality" />
		<tag k="ssr:stedsnr" v="752831" />
	</node>
	<node id="-504367" lat="58.884613885" lon="9.16029445173">
		<tag k="name" v="Steliene" />
		<tag k="natural" v="slope" />
		<tag k="place" v="locality" />
		<tag k="ssr:stedsnr" v="752830" />
	</node>
	<node id="-504366" lat="58.9335333302" lon="8.9614694452">
		<tag k="name" v="Bjørkedalen" />
		<tag k="natural" v="valley" />
		<tag k="place" v="locality" />
		<tag k="ssr:stedsnr" v="752828" />
	</node>
	<node id="-502535" lat="58.902102782" lon="9.00826945185">
		<tag k="fixme" v="consider natural=peak for the most distinct mountains in the district" />
		<tag k="name" v="Flatåsen" />
		<tag k="natural" v="hill" />
		<tag k="place" v="locality" />
		<tag k="ssr:stedsnr" v="266744" />
	</node>
	<node id="-504358" lat="58.8731749976" lon="9.03571110465">
		<tag k="name" v="Gampedalen" />
		<tag k="natural" v="valley" />
		<tag k="place" v="locality" />
		<tag k="ssr:stedsnr" v="752790" />
	</node>
	<node id="-504354" lat="58.8811166642" lon="8.96126667227">
		<tag k="name" v="Kjerstismyrfjella" />
		<tag k="natural" v="hill" />
		<tag k="place" v="locality" />
		<tag k="ssr:stedsnr" v="752772" />
	</node>
	<node id="-504352" lat="58.8270444469" lon="9.11214999671">
		<tag k="fixme" v="consider natural=peak for the most distinct mountains in the district" />
		<tag k="name" v="Smiberget" />
		<tag k="natural" v="hill" />
		<tag k="place" v="locality" />
		<tag k="ssr:stedsnr" v="752762" />
	</node>
	<node id="-504351" lat="58.8700722238" lon="8.98090555312">
		<tag k="fixme" v="consider natural=peak for the most distinct mountains in the district" />
		<tag k="name" v="Lille Hellås" />
		<tag k="natural" v="hill" />
		<tag k="place" v="locality" />
		<tag k="ssr:stedsnr" v="752760" />
	</node>
	<node id="-504350" lat="58.8779166696" lon="8.97819999935">
		<tag k="fixme" v="consider natural=peak for the most distinct mountains in the district" />
		<tag k="name" v="Igletjennåsen" />
		<tag k="natural" v="hill" />
		<tag k="place" v="locality" />
		<tag k="ssr:stedsnr" v="752755" />
	</node>
	<node id="-504348" lat="58.837222218" lon="9.11943332791">
		<tag k="name" v="Brennli" />
		<tag k="natural" v="slope" />
		<tag k="place" v="locality" />
		<tag k="ssr:stedsnr" v="752751" />
	</node>
	<node id="-504345" lat="58.8980611102" lon="9.00679722647">
		<tag k="name" v="Snipdalen" />
		<tag k="natural" v="valley" />
		<tag k="place" v="locality" />
		<tag k="ssr:stedsnr" v="752734" />
	</node>
	<node id="-504343" lat="58.8372277746" lon="9.07908334018">
		<tag k="fixme" v="consider natural=peak for the most distinct mountains in the district" />
		<tag k="name" v="Lønnåsen" />
		<tag k="natural" v="hill" />
		<tag k="place" v="locality" />
		<tag k="ssr:stedsnr" v="752731" />
	</node>
	<node id="-504341" lat="58.8412361117" lon="9.12414167334">
		<tag k="name" v="Lillknuten" />
		<tag k="natural" v="hill" />
		<tag k="place" v="locality" />
		<tag k="ssr:stedsnr" v="752719" />
	</node>
	<node id="-504339" lat="58.8934916657" lon="9.03881943835">
		<tag k="name" v="Bjørkelia" />
		<tag k="natural" v="slope" />
		<tag k="place" v="locality" />
		<tag k="ssr:stedsnr" v="752708" />
	</node>
	<node id="-504337" lat="58.9280944403" lon="8.80288054722">
		<tag k="name" v="Bjørndalen" />
		<tag k="natural" v="valley" />
		<tag k="place" v="locality" />
		<tag k="ssr:stedsnr" v="752690" />
	</node>
	<node id="-504335" lat="58.9546916626" lon="8.82755833659">
		<tag k="name" v="Øygardsdalen" />
		<tag k="natural" v="valley" />
		<tag k="place" v="locality" />
		<tag k="ssr:stedsnr" v="752675" />
	</node>
	<node id="-504334" lat="58.8200083346" lon="9.16109722879">
		<tag k="name" v="Svineryggen" />
		<tag k="natural" v="ridge" />
		<tag k="place" v="locality" />
		<tag k="ssr:stedsnr" v="752643" />
	</node>
	<node id="-504333" lat="58.8396666705" lon="9.18193611935">
		<tag k="name" v="Skarkdalen" />
		<tag k="natural" v="valley" />
		<tag k="place" v="locality" />
		<tag k="ssr:stedsnr" v="752641" />
	</node>
	<node id="-504330" lat="58.8839916639" lon="8.81928333553">
		<tag k="name" v="Søndremyrdalen" />
		<tag k="natural" v="valley" />
		<tag k="place" v="locality" />
		<tag k="ssr:stedsnr" v="752610" />
	</node>
	<node id="-504319" lat="58.9398666687" lon="8.84833056253">
		<tag k="fixme" v="consider natural=peak for the most distinct mountains in the district" />
		<tag k="name" v="Kriklifjellet" />
		<tag k="natural" v="hill" />
		<tag k="place" v="locality" />
		<tag k="ssr:stedsnr" v="752526" />
	</node>
	<node id="-504313" lat="58.8860694454" lon="8.91900555284">
		<tag k="name" v="Langkov" />
		<tag k="natural" v="valley" />
		<tag k="place" v="locality" />
		<tag k="ssr:stedsnr" v="752494" />
	</node>
	<node id="-504311" lat="58.8821666672" lon="8.8595083344">
		<tag k="name" v="Torbjørnsliheia" />
		<tag k="natural" v="hill" />
		<tag k="place" v="locality" />
		<tag k="ssr:stedsnr" v="752474" />
	</node>
	<node id="-504310" lat="58.8590194439" lon="8.92398889305">
		<tag k="name" v="Bessli" />
		<tag k="natural" v="slope" />
		<tag k="place" v="locality" />
		<tag k="ssr:stedsnr" v="752452" />
	</node>
	<node id="-504300" lat="58.9030749995" lon="8.96891110269">
		<tag k="fixme" v="consider natural=peak for the most distinct mountains in the district" />
		<tag k="name" v="Tenningsåsen" />
		<tag k="natural" v="hill" />
		<tag k="place" v="locality" />
		<tag k="ssr:stedsnr" v="630994" />
	</node>
	<node id="-504297" lat="58.7778250036" lon="9.02477222336">
		<tag k="fixme" v="consider natural=peak for the most distinct mountains in the district" />
		<tag k="name" v="Lomtjennknuten" />
		<tag k="natural" v="hill" />
		<tag k="place" v="locality" />
		<tag k="ssr:stedsnr" v="630852" />
	</node>
	<node id="-504296" lat="58.8199083326" lon="9.04315556093">
		<tag k="name" v="Småmyrheia" />
		<tag k="natural" v="hill" />
		<tag k="place" v="locality" />
		<tag k="ssr:stedsnr" v="630950" />
	</node>
	<node id="-504295" lat="58.8348833317" lon="9.04523888991">
		<tag k="name" v="Skeiliheia" />
		<tag k="natural" v="hill" />
		<tag k="place" v="locality" />
		<tag k="ssr:stedsnr" v="630946" />
	</node>
	<node id="-504294" lat="58.8105999975" lon="9.13115832852">
		<tag k="name" v="Ålkarheia" />
		<tag k="natural" v="hill" />
		<tag k="place" v="locality" />
		<tag k="ssr:stedsnr" v="630939" />
	</node>
	<node id="-504293" lat="58.8367916659" lon="8.95578888872">
		<tag k="fixme" v="consider natural=peak for the most distinct mountains in the district" />
		<tag k="name" v="Falkåsen" />
		<tag k="natural" v="hill" />
		<tag k="place" v="locality" />
		<tag k="ssr:stedsnr" v="630937" />
	</node>
	<node id="-504290" lat="58.7973111131" lon="9.06102222046">
		<tag k="fixme" v="consider natural=peak for the most distinct mountains in the district" />
		<tag k="name" v="Grindåsen" />
		<tag k="natural" v="hill" />
		<tag k="place" v="locality" />
		<tag k="ssr:stedsnr" v="630930" />
	</node>
	<node id="-504288" lat="58.8586361134" lon="8.9651083376">
		<tag k="name" v="Egdetjennliene" />
		<tag k="natural" v="slope" />
		<tag k="place" v="locality" />
		<tag k="ssr:stedsnr" v="630887" />
	</node>
	<node id="-504285" lat="58.8760444469" lon="8.97228888229">
		<tag k="name" v="Svintoksdalen" />
		<tag k="natural" v="valley" />
		<tag k="place" v="locality" />
		<tag k="ssr:stedsnr" v="630750" />
	</node>
	<node id="-504283" lat="58.8254944414" lon="9.05251110811">
		<tag k="fixme" v="consider natural=peak for the most distinct mountains in the district" />
		<tag k="name" v="Kollen" />
		<tag k="natural" v="hill" />
		<tag k="place" v="locality" />
		<tag k="ssr:stedsnr" v="630738" />
	</node>
	<node id="-504282" lat="58.8798611071" lon="8.99326110315">
		<tag k="fixme" v="consider natural=peak for the most distinct mountains in the district" />
		<tag k="name" v="Brattås" />
		<tag k="natural" v="hill" />
		<tag k="place" v="locality" />
		<tag k="ssr:stedsnr" v="630737" />
	</node>
	<node id="-504281" lat="58.907524999" lon="8.9804555518">
		<tag k="name" v="Klova" />
		<tag k="natural" v="valley" />
		<tag k="place" v="locality" />
		<tag k="ssr:stedsnr" v="630845" />
	</node>
	<node id="-504279" lat="58.9204805584" lon="8.97273889651">
		<tag k="name" v="Fardalen" />
		<tag k="natural" v="valley" />
		<tag k="place" v="locality" />
		<tag k="ssr:stedsnr" v="630825" />
	</node>
	<node id="-504277" lat="58.8678972256" lon="9.07056944651">
		<tag k="fixme" v="consider natural=peak for the most distinct mountains in the district" />
		<tag k="name" v="Salmyråsen" />
		<tag k="natural" v="hill" />
		<tag k="place" v="locality" />
		<tag k="ssr:stedsnr" v="630822" />
	</node>
	<node id="-504275" lat="58.8640749999" lon="9.10457500854">
		<tag k="name" v="Djupmyrdalen" />
		<tag k="natural" v="valley" />
		<tag k="place" v="locality" />
		<tag k="ssr:stedsnr" v="630810" />
	</node>
	<node id="-504270" lat="58.8731444474" lon="9.09371389502">
		<tag k="name" v="Stemtjennheia" />
		<tag k="natural" v="hill" />
		<tag k="place" v="locality" />
		<tag k="ssr:stedsnr" v="630794" />
	</node>
	<node id="-504267" lat="58.8628555517" lon="9.03106943944">
		<tag k="name" v="Stubbesterenna" />
		<tag k="natural" v="valley" />
		<tag k="place" v="locality" />
		<tag k="ssr:stedsnr" v="630774" />
	</node>
	<node id="-504261" lat="58.9718305579" lon="8.8453388974">
		<tag k="name" v="Napanknutane" />
		<tag k="natural" v="hill" />
		<tag k="place" v="locality" />
		<tag k="ssr:stedsnr" v="630543" />
	</node>
	<node id="-504256" lat="58.8379638856" lon="9.18194165989">
		<tag k="name" v="Pyttkjerrdalen" />
		<tag k="natural" v="valley" />
		<tag k="place" v="locality" />
		<tag k="ssr:stedsnr" v="630594" />
	</node>
	<node id="-504254" lat="58.917449998" lon="8.9029222245">
		<tag k="name" v="Besfetdalen" />
		<tag k="natural" v="valley" />
		<tag k="place" v="locality" />
		<tag k="ssr:stedsnr" v="608877" />
	</node>
	<node id="-504250" lat="58.797952782" lon="9.11405556399">
		<tag k="fixme" v="consider natural=peak for the most distinct mountains in the district" />
		<tag k="name" v="Blåbæråsen" />
		<tag k="natural" v="hill" />
		<tag k="place" v="locality" />
		<tag k="ssr:stedsnr" v="608461" />
	</node>
	<node id="-504246" lat="58.8972861155" lon="8.91265833386">
		<tag k="fixme" v="consider natural=peak for the most distinct mountains in the district" />
		<tag k="name" v="Baskotknuten" />
		<tag k="natural" v="hill" />
		<tag k="place" v="locality" />
		<tag k="ssr:stedsnr" v="607795" />
	</node>
	<node id="-504245" lat="58.9553249957" lon="8.79728055579">
		<tag k="alt_name" v="Marishei" />
		<tag k="name" v="Marisheia" />
		<tag k="natural" v="hill" />
		<tag k="place" v="locality" />
		<tag k="ssr:stedsnr" v="607334" />
	</node>
	<node id="-504243" lat="58.8029889256" lon="8.98964184157">
		<tag k="fixme" v="consider natural=peak for the most distinct mountains in the district" />
		<tag k="name" v="Kortmyrknatten" />
		<tag k="natural" v="hill" />
		<tag k="place" v="locality" />
		<tag k="ssr:stedsnr" v="607475" />
	</node>
	<node id="-504241" lat="58.9038444457" lon="8.81757500406">
		<tag k="name" v="Mosdalen" />
		<tag k="natural" v="valley" />
		<tag k="place" v="locality" />
		<tag k="ssr:stedsnr" v="607459" />
	</node>
	<node id="-504240" lat="58.8972000044" lon="8.82588611722">
		<tag k="name" v="Røykjerrkollane" />
		<tag k="natural" v="hill" />
		<tag k="place" v="locality" />
		<tag k="ssr:stedsnr" v="607448" />
	</node>
	<node id="-504238" lat="58.8430638848" lon="8.94805833949">
		<tag k="fixme" v="consider natural=peak for the most distinct mountains in the district" />
		<tag k="name" v="Øygardsheia" />
		<tag k="natural" v="hill" />
		<tag k="place" v="locality" />
		<tag k="ssr:stedsnr" v="607142" />
	</node>
	<node id="-504237" lat="58.8504833292" lon="9.02734165828">
		<tag k="alt_name" v="Kortmyrhaugane" />
		<tag k="fixme" v="consider natural=peak for the most distinct mountains in the district" />
		<tag k="name" v="Kartmyrhaugane" />
		<tag k="natural" v="hill" />
		<tag k="place" v="locality" />
		<tag k="ssr:stedsnr" v="607118" />
	</node>
	<node id="-502514" lat="58.8414277734" lon="9.05917499271">
		<tag k="name" v="Tiurleiken" />
		<tag k="natural" v="hill" />
		<tag k="place" v="locality" />
		<tag k="ssr:stedsnr" v="85974" />
	</node>
	<node id="-504229" lat="58.8420611155" lon="9.03838332807">
		<tag k="fixme" v="consider natural=peak for the most distinct mountains in the district" />
		<tag k="name" v="Spjøtåsen" />
		<tag k="natural" v="hill" />
		<tag k="place" v="locality" />
		<tag k="ssr:stedsnr" v="607086" />
	</node>
	<node id="-504224" lat="58.7910166695" lon="9.03880555204">
		<tag k="alt_name" v="Lauvåsen (sør)" />
		<tag k="fixme" v="consider natural=peak for the most distinct mountains in the district" />
		<tag k="name" v="Lauvåsen" />
		<tag k="natural" v="hill" />
		<tag k="place" v="locality" />
		<tag k="ssr:stedsnr" v="607053" />
	</node>
	<node id="-504219" lat="58.8890805573" lon="8.97409444163">
		<tag k="name" v="Sjellauslia" />
		<tag k="natural" v="slope" />
		<tag k="place" v="locality" />
		<tag k="ssr:stedsnr" v="607234" />
	</node>
	<node id="-504217" lat="58.8848361069" lon="9.01442777161">
		<tag k="fixme" v="consider natural=peak for the most distinct mountains in the district" />
		<tag k="name" v="Lundeåsen" />
		<tag k="natural" v="hill" />
		<tag k="place" v="locality" />
		<tag k="ssr:stedsnr" v="607231" />
	</node>
	<node id="-504216" lat="58.8731972211" lon="8.89943055213">
		<tag k="fixme" v="consider natural=peak for the most distinct mountains in the district" />
		<tag k="name" v="Høgkjerrheia" />
		<tag k="natural" v="hill" />
		<tag k="place" v="locality" />
		<tag k="ssr:stedsnr" v="607225" />
	</node>
	<node id="-504212" lat="58.8664916655" lon="9.11538889206">
		<tag k="name" v="Korstangheia" />
		<tag k="natural" v="hill" />
		<tag k="place" v="locality" />
		<tag k="ssr:stedsnr" v="570839" />
	</node>
	<node id="-504211" lat="58.8805305595" lon="9.08485278323">
		<tag k="name" v="Stølstjenndalen" />
		<tag k="natural" v="valley" />
		<tag k="place" v="locality" />
		<tag k="ssr:stedsnr" v="570834" />
	</node>
	<node id="-504210" lat="58.8661305562" lon="9.09396666538">
		<tag k="name" v="Byttekleivheia" />
		<tag k="natural" v="hill" />
		<tag k="place" v="locality" />
		<tag k="ssr:stedsnr" v="570824" />
	</node>
	<node id="-504209" lat="58.8626583359" lon="9.00560277005">
		<tag k="name" v="Vrangstadheia" />
		<tag k="natural" v="hill" />
		<tag k="place" v="locality" />
		<tag k="ssr:stedsnr" v="570817" />
	</node>
	<node id="-504207" lat="58.8994444482" lon="9.08148611149">
		<tag k="name" v="Nybutjennliene" />
		<tag k="natural" v="valley" />
		<tag k="place" v="locality" />
		<tag k="ssr:stedsnr" v="570815" />
	</node>
	<node id="-504198" lat="58.8747027744" lon="8.95326388737">
		<tag k="name" v="Geitryggen" />
		<tag k="natural" v="ridge" />
		<tag k="place" v="locality" />
		<tag k="ssr:stedsnr" v="570776" />
	</node>
	<node id="-504197" lat="58.8757472219" lon="8.95622778454">
		<tag k="name" v="Snokhaugane" />
		<tag k="natural" v="hill" />
		<tag k="place" v="locality" />
		<tag k="ssr:stedsnr" v="570770" />
	</node>
	<node id="-504196" lat="58.8728388914" lon="8.99095832706">
		<tag k="fixme" v="consider natural=peak for the most distinct mountains in the district" />
		<tag k="name" v="Knattmyråsen" />
		<tag k="natural" v="hill" />
		<tag k="place" v="locality" />
		<tag k="ssr:stedsnr" v="570750" />
	</node>
	<node id="-504195" lat="58.8376999996" lon="9.06358333397">
		<tag k="name" v="Langmyrdalen" />
		<tag k="natural" v="valley" />
		<tag k="place" v="locality" />
		<tag k="ssr:stedsnr" v="570743" />
	</node>
	<node id="-504194" lat="58.8300222235" lon="9.06140000728">
		<tag k="name" v="Bærbakkane" />
		<tag k="natural" v="hill" />
		<tag k="place" v="locality" />
		<tag k="ssr:stedsnr" v="570739" />
	</node>
	<node id="-504192" lat="58.8350138876" lon="9.07486667149">
		<tag k="name" v="Toreshei" />
		<tag k="natural" v="hill" />
		<tag k="place" v="locality" />
		<tag k="ssr:stedsnr" v="570735" />
	</node>
	<node id="-504190" lat="58.8980194477" lon="9.03081944259">
		<tag k="name" v="Fantekjørka" />
		<tag k="place" v="locality" />
		<tag k="ssr:stedsnr" v="570729" />
	</node>
	<node id="-504179" lat="58.8047972248" lon="9.0087861033">
		<tag k="name" v="Helvete" />
		<tag k="natural" v="gorge" />
		<tag k="ssr:stedsnr" v="570875" />
	</node>
	<node id="-504177" lat="58.9139361077" lon="8.9814722172">
		<tag k="name" v="Steinmyrheia" />
		<tag k="natural" v="hill" />
		<tag k="place" v="locality" />
		<tag k="ssr:stedsnr" v="570865" />
	</node>
	<node id="-504170" lat="58.9117916683" lon="9.06191388832">
		<tag k="name" v="Jernbulia" />
		<tag k="natural" v="slope" />
		<tag k="place" v="locality" />
		<tag k="ssr:stedsnr" v="570564" />
	</node>
	<node id="-504169" lat="58.9837527792" lon="8.93653333022">
		<tag k="name" v="Signesmyrdalen" />
		<tag k="natural" v="valley" />
		<tag k="place" v="locality" />
		<tag k="ssr:stedsnr" v="570561" />
	</node>
	<node id="-504164" lat="58.7911111149" lon="9.06485278412">
		<tag k="name" v="Heimerdal" />
		<tag k="natural" v="valley" />
		<tag k="place" v="locality" />
		<tag k="ssr:stedsnr" v="569957" />
	</node>
	<node id="-504163" lat="58.8001166676" lon="9.05396111449">
		<tag k="name" v="Bjorhøllia" />
		<tag k="natural" v="slope" />
		<tag k="place" v="locality" />
		<tag k="ssr:stedsnr" v="569929" />
	</node>
	<node id="-504157" lat="58.914791667" lon="9.01210000546">
		<tag k="name" v="Lille Raundalsknatten" />
		<tag k="natural" v="hill" />
		<tag k="place" v="locality" />
		<tag k="ssr:stedsnr" v="569866" />
	</node>
	<node id="-504153" lat="58.8653972198" lon="8.9960583342">
		<tag k="name" v="Kvernmoen" />
		<tag k="place" v="locality" />
		<tag k="ssr:stedsnr" v="569812" />
	</node>
	<node id="-504152" lat="58.8733583359" lon="8.78649999316">
		<tag k="name" v="Trælvassryggen" />
		<tag k="natural" v="ridge" />
		<tag k="place" v="locality" />
		<tag k="ssr:stedsnr" v="569703" />
	</node>
	<node id="-502500" lat="58.8362250042" lon="9.12341111218">
		<tag k="name" v="Klova" />
		<tag k="natural" v="valley" />
		<tag k="place" v="locality" />
		<tag k="ssr:stedsnr" v="85724" />
	</node>
	<node id="-504148" lat="58.9327194469" lon="8.88412777513">
		<tag k="fixme" v="consider natural=peak for the most distinct mountains in the district" />
		<tag k="name" v="Skorvknatten" />
		<tag k="natural" v="hill" />
		<tag k="place" v="locality" />
		<tag k="ssr:stedsnr" v="569572" />
	</node>
	<node id="-504147" lat="58.9340472207" lon="8.8711972286">
		<tag k="fixme" v="consider natural=peak for the most distinct mountains in the district" />
		<tag k="name" v="Kjellingtjennåsen" />
		<tag k="natural" v="hill" />
		<tag k="place" v="locality" />
		<tag k="ssr:stedsnr" v="569570" />
	</node>
	<node id="-504145" lat="58.8912972249" lon="8.90458888456">
		<tag k="fixme" v="consider natural=peak for the most distinct mountains in the district" />
		<tag k="name" v="Sortmyrknuten" />
		<tag k="natural" v="hill" />
		<tag k="place" v="locality" />
		<tag k="ssr:stedsnr" v="569543" />
	</node>
	<node id="-504140" lat="58.8885166665" lon="8.93261389616">
		<tag k="name" v="Haukebekkhausen" />
		<tag k="natural" v="hill" />
		<tag k="place" v="locality" />
		<tag k="ssr:stedsnr" v="569505" />
	</node>
	<node id="-504138" lat="58.8936722263" lon="8.87689444022">
		<tag k="name" v="Ormholene" />
		<tag k="natural" v="valley" />
		<tag k="place" v="locality" />
		<tag k="ssr:stedsnr" v="569502" />
	</node>
	<node id="-504134" lat="58.925644447" lon="8.9543499999">
		<tag k="alt_name" v="Urvassmoen" />
		<tag k="name" v="Urdvassmoen" />
		<tag k="place" v="locality" />
		<tag k="ssr:stedsnr" v="547890" />
	</node>
	<node id="-504131" lat="58.7902388925" lon="9.01780278541">
		<tag k="fixme" v="consider natural=peak for the most distinct mountains in the district" />
		<tag k="name" v="Brentebergheia" />
		<tag k="natural" v="hill" />
		<tag k="place" v="locality" />
		<tag k="ssr:stedsnr" v="547495" />
	</node>
	<node id="-504129" lat="58.7838333372" lon="9.05106943938">
		<tag k="fixme" v="consider natural=peak for the most distinct mountains in the district" />
		<tag k="name" v="Stormyrheia" />
		<tag k="natural" v="hill" />
		<tag k="place" v="locality" />
		<tag k="ssr:stedsnr" v="547492" />
	</node>
	<node id="-504124" lat="58.8503305565" lon="8.95139444877">
		<tag k="fixme" v="consider natural=peak for the most distinct mountains in the district" />
		<tag k="name" v="Toksheia" />
		<tag k="natural" v="hill" />
		<tag k="place" v="locality" />
		<tag k="ssr:stedsnr" v="547151" />
	</node>
	<node id="-504121" lat="58.855255559" lon="9.10212222214">
		<tag k="alt_name" v="Sundsåsen" />
		<tag k="fixme" v="consider natural=peak for the most distinct mountains in the district" />
		<tag k="name" v="Sundåsen" />
		<tag k="natural" v="hill" />
		<tag k="place" v="locality" />
		<tag k="ssr:stedsnr" v="547135" />
	</node>
	<node id="-504119" lat="58.9710611123" lon="8.90536389708">
		<tag k="fixme" v="consider natural=peak for the most distinct mountains in the district" />
		<tag k="name" v="Vardeheia" />
		<tag k="natural" v="hill" />
		<tag k="place" v="locality" />
		<tag k="ssr:stedsnr" v="546990" />
	</node>
	<node id="-504117" lat="58.9515055531" lon="8.9179972229">
		<tag k="name" v="Fossbrekka" />
		<tag k="natural" v="slope" />
		<tag k="place" v="locality" />
		<tag k="ssr:stedsnr" v="546893" />
	</node>
	<node id="-504114" lat="58.866755558" lon="8.93372778625">
		<tag k="fixme" v="consider natural=peak for the most distinct mountains in the district" />
		<tag k="name" v="Røykjerrheia" />
		<tag k="natural" v="hill" />
		<tag k="place" v="locality" />
		<tag k="ssr:stedsnr" v="546180" />
	</node>
	<node id="-504106" lat="58.8302888896" lon="9.11799999613">
		<tag k="fixme" v="consider natural=peak for the most distinct mountains in the district" />
		<tag k="name" v="Timmeråsen" />
		<tag k="natural" v="hill" />
		<tag k="place" v="locality" />
		<tag k="ssr:stedsnr" v="546069" />
	</node>
	<node id="-504102" lat="58.9096250025" lon="8.85823611708">
		<tag k="name" v="Markset" />
		<tag k="natural" v="hill" />
		<tag k="place" v="locality" />
		<tag k="ssr:stedsnr" v="426883" />
	</node>
	<node id="-504101" lat="58.8972333378" lon="8.89169721464">
		<tag k="alt_name" v="Otertjennheia" />
		<tag k="fixme" v="consider natural=peak for the most distinct mountains in the district" />
		<tag k="name" v="Otertjernheia" />
		<tag k="natural" v="hill" />
		<tag k="place" v="locality" />
		<tag k="ssr:stedsnr" v="426815" />
	</node>
	<node id="-504100" lat="58.9084277766" lon="8.93538889755">
		<tag k="fixme" v="consider natural=peak for the most distinct mountains in the district" />
		<tag k="name" v="Morkheia" />
		<tag k="natural" v="hill" />
		<tag k="place" v="locality" />
		<tag k="ssr:stedsnr" v="426769" />
	</node>
	<node id="-504099" lat="58.9099083323" lon="9.04669722169">
		<tag k="alt_name" v="Hessfjell, store" />
		<tag k="fixme" v="consider natural=peak for the most distinct mountains in the district" />
		<tag k="name" v="Store Hessfjell" />
		<tag k="natural" v="hill" />
		<tag k="place" v="locality" />
		<tag k="ssr:stedsnr" v="426767" />
	</node>
	<node id="-504097" lat="58.8662444459" lon="8.9749861145">
		<tag k="name" v="Ulvmyrheia" />
		<tag k="natural" v="hill" />
		<tag k="place" v="locality" />
		<tag k="ssr:stedsnr" v="426186" />
	</node>
	<node id="-504095" lat="58.8602027772" lon="9.09611666099">
		<tag k="fixme" v="consider natural=peak for the most distinct mountains in the district" />
		<tag k="name" v="Steinslia" />
		<tag k="natural" v="hill" />
		<tag k="place" v="locality" />
		<tag k="ssr:stedsnr" v="426162" />
	</node>
	<node id="-504092" lat="58.8329555584" lon="9.13002778071">
		<tag k="alt_name" v="Langtjennheia" />
		<tag k="fixme" v="consider natural=peak for the most distinct mountains in the district" />
		<tag k="name" v="Langtjernheia" />
		<tag k="natural" v="hill" />
		<tag k="place" v="locality" />
		<tag k="ssr:stedsnr" v="426065" />
	</node>
	<node id="-504083" lat="58.8374194486" lon="9.04381111675">
		<tag k="name" v="Kjørkeheia" />
		<tag k="natural" v="hill" />
		<tag k="place" v="locality" />
		<tag k="ssr:stedsnr" v="388945" />
	</node>
	<node id="-504081" lat="58.8387750035" lon="9.04121944037">
		<tag k="name" v="Porskjerrheia" />
		<tag k="natural" v="hill" />
		<tag k="place" v="locality" />
		<tag k="ssr:stedsnr" v="388940" />
	</node>
	<node id="-504079" lat="58.9025166637" lon="8.98254444703">
		<tag k="fixme" v="consider natural=peak for the most distinct mountains in the district" />
		<tag k="name" v="Espelifjellet" />
		<tag k="natural" v="hill" />
		<tag k="place" v="locality" />
		<tag k="ssr:stedsnr" v="388996" />
	</node>
	<node id="-504075" lat="58.8678361073" lon="9.0749777818">
		<tag k="name" v="Bråtdalen" />
		<tag k="natural" v="valley" />
		<tag k="place" v="locality" />
		<tag k="ssr:stedsnr" v="388848" />
	</node>
	<node id="-504074" lat="58.881480555" lon="9.05281667416">
		<tag k="fixme" v="consider natural=peak for the most distinct mountains in the district" />
		<tag k="name" v="Brattås" />
		<tag k="natural" v="hill" />
		<tag k="place" v="locality" />
		<tag k="ssr:stedsnr" v="388842" />
	</node>
	<node id="-504071" lat="58.875063887" lon="9.10376111458">
		<tag k="fixme" v="consider natural=peak for the most distinct mountains in the district" />
		<tag k="name" v="Nordre Brattåsen" />
		<tag k="natural" v="hill" />
		<tag k="place" v="locality" />
		<tag k="ssr:stedsnr" v="388832" />
	</node>
	<node id="-504070" lat="58.9024666709" lon="9.05730555253">
		<tag k="name" v="Fårkjerrdalen" />
		<tag k="natural" v="valley" />
		<tag k="place" v="locality" />
		<tag k="ssr:stedsnr" v="388797" />
	</node>
	<node id="-504069" lat="58.8830472223" lon="9.06923332547">
		<tag k="name" v="Folstedalen" />
		<tag k="natural" v="valley" />
		<tag k="place" v="locality" />
		<tag k="ssr:stedsnr" v="388792" />
	</node>
	<node id="-504068" lat="58.8858111148" lon="9.07733889411">
		<tag k="fixme" v="consider natural=peak for the most distinct mountains in the district" />
		<tag k="name" v="Langsteåsen" />
		<tag k="natural" v="hill" />
		<tag k="place" v="locality" />
		<tag k="ssr:stedsnr" v="388790" />
	</node>
	<node id="-504066" lat="58.8744000038" lon="8.98492499304">
		<tag k="name" v="Huldknatten" />
		<tag k="natural" v="hill" />
		<tag k="place" v="locality" />
		<tag k="ssr:stedsnr" v="388743" />
	</node>
	<node id="-504065" lat="58.8372527805" lon="9.09973332573">
		<tag k="name" v="Hovet" />
		<tag k="natural" v="hill" />
		<tag k="place" v="locality" />
		<tag k="ssr:stedsnr" v="388740" />
	</node>
	<node id="-504063" lat="58.8200805541" lon="9.13568888729">
		<tag k="name" v="Mjåvassliene" />
		<tag k="natural" v="slope" />
		<tag k="place" v="locality" />
		<tag k="ssr:stedsnr" v="388782" />
	</node>
	<node id="-504059" lat="58.8992527787" lon="8.81591666951">
		<tag k="fixme" v="consider natural=peak for the most distinct mountains in the district" />
		<tag k="name" v="Østre Vedlausfjell" />
		<tag k="natural" v="hill" />
		<tag k="place" v="locality" />
		<tag k="ssr:stedsnr" v="388624" />
	</node>
	<node id="-504057" lat="58.8657583328" lon="9.13847778419">
		<tag k="fixme" v="consider natural=peak for the most distinct mountains in the district" />
		<tag k="name" v="Breiøygardåsen" />
		<tag k="natural" v="hill" />
		<tag k="place" v="locality" />
		<tag k="ssr:stedsnr" v="388612" />
	</node>
	<node id="-502484" lat="58.8826305593" lon="8.89738333403">
		<tag k="name" v="Askjellsmyrknatten" />
		<tag k="natural" v="hill" />
		<tag k="place" v="locality" />
		<tag k="ssr:stedsnr" v="84558" />
	</node>
	<node id="-504053" lat="58.927233336" lon="8.96328333731">
		<tag k="name" v="Stogreistjennknuten" />
		<tag k="natural" v="hill" />
		<tag k="place" v="locality" />
		<tag k="ssr:stedsnr" v="387835" />
	</node>
	<node id="-504049" lat="58.8102250006" lon="9.09137222224">
		<tag k="fixme" v="consider natural=peak for the most distinct mountains in the district" />
		<tag k="name" v="Heggeråsen" />
		<tag k="natural" v="hill" />
		<tag k="place" v="locality" />
		<tag k="ssr:stedsnr" v="387943" />
	</node>
	<node id="-504042" lat="58.8299055559" lon="9.1911027848">
		<tag k="name" v="Øyfjellvarden" />
		<tag k="natural" v="hill" />
		<tag k="place" v="locality" />
		<tag k="ssr:stedsnr" v="387327" />
	</node>
	<node id="-504040" lat="58.9004805597" lon="9.05347222916">
		<tag k="fixme" v="consider natural=peak for the most distinct mountains in the district" />
		<tag k="name" v="Hovhaugen" />
		<tag k="natural" v="hill" />
		<tag k="place" v="locality" />
		<tag k="ssr:stedsnr" v="366776" />
	</node>
	<node id="-504039" lat="58.9069166678" lon="8.86060833676">
		<tag k="fixme" v="consider natural=peak for the most distinct mountains in the district" />
		<tag k="name" v="Kollen" />
		<tag k="natural" v="hill" />
		<tag k="place" v="locality" />
		<tag k="ssr:stedsnr" v="366766" />
	</node>
	<node id="-504036" lat="58.9500166694" lon="8.99121110366">
		<tag k="name" v="Jerpedalen" />
		<tag k="natural" v="valley" />
		<tag k="place" v="locality" />
		<tag k="ssr:stedsnr" v="365941" />
	</node>
	<node id="-504034" lat="58.9157472216" lon="8.869672229">
		<tag k="name" v="Felledalen" />
		<tag k="natural" v="valley" />
		<tag k="place" v="locality" />
		<tag k="ssr:stedsnr" v="365889" />
	</node>
	<node id="-504031" lat="58.943186113" lon="8.92566388854">
		<tag k="name" v="Solemsdalen" />
		<tag k="natural" v="valley" />
		<tag k="place" v="locality" />
		<tag k="ssr:stedsnr" v="365841" />
	</node>
	<node id="-504029" lat="58.8904416656" lon="8.94336110611">
		<tag k="name" v="Åsbølia" />
		<tag k="natural" v="slope" />
		<tag k="place" v="locality" />
		<tag k="ssr:stedsnr" v="365828" />
	</node>
	<node id="-504017" lat="58.8536388896" lon="8.92964721862">
		<tag k="fixme" v="consider natural=peak for the most distinct mountains in the district" />
		<tag k="name" v="Lonheia" />
		<tag k="natural" v="hill" />
		<tag k="place" v="locality" />
		<tag k="ssr:stedsnr" v="365145" />
	</node>
	<node id="-504016" lat="58.8518583298" lon="8.90190555335">
		<tag k="name" v="Kalvkjerrdalen" />
		<tag k="natural" v="valley" />
		<tag k="place" v="locality" />
		<tag k="ssr:stedsnr" v="365139" />
	</node>
	<node id="-504015" lat="58.8448916635" lon="9.00113055717">
		<tag k="alt_name" v="Fjellstølåsen" />
		<tag k="fixme" v="consider natural=peak for the most distinct mountains in the district" />
		<tag k="name" v="Åsen" />
		<tag k="natural" v="hill" />
		<tag k="place" v="locality" />
		<tag k="ssr:stedsnr" v="365131" />
	</node>
	<node id="-504014" lat="58.8257805583" lon="8.9677499989">
		<tag k="fixme" v="consider natural=peak for the most distinct mountains in the district" />
		<tag k="name" v="Langkjerråsen" />
		<tag k="natural" v="hill" />
		<tag k="place" v="locality" />
		<tag k="ssr:stedsnr" v="365060" />
	</node>
	<node id="-504013" lat="58.843700003" lon="9.05644999342">
		<tag k="alt_name" v="Tjennheia" />
		<tag k="fixme" v="consider natural=peak for the most distinct mountains in the district" />
		<tag k="name" v="Tjernheia" />
		<tag k="natural" v="hill" />
		<tag k="place" v="locality" />
		<tag k="ssr:stedsnr" v="365057" />
	</node>
	<node id="-504012" lat="58.8211499979" lon="8.99257777869">
		<tag k="alt_name" v="Dalheia" />
		<tag k="fixme" v="consider natural=peak for the most distinct mountains in the district" />
		<tag k="name" v="Dollheia" />
		<tag k="natural" v="hill" />
		<tag k="place" v="locality" />
		<tag k="ssr:stedsnr" v="365056" />
	</node>
	<node id="-504004" lat="58.974480554" lon="8.91648610773">
		<tag k="fixme" v="consider natural=peak for the most distinct mountains in the district" />
		<tag k="name" v="Nedre Fjosbufjellet" />
		<tag k="natural" v="hill" />
		<tag k="place" v="locality" />
		<tag k="ssr:stedsnr" v="364987" />
	</node>
	<node id="-503996" lat="58.8763888847" lon="8.84037500444">
		<tag k="name" v="Ørnereirdalen" />
		<tag k="natural" v="valley" />
		<tag k="place" v="locality" />
		<tag k="ssr:stedsnr" v="364706" />
	</node>
	<node id="-502474" lat="58.7984222182" lon="9.09980832794">
		<tag k="fixme" v="consider natural=peak for the most distinct mountains in the district" />
		<tag k="name" v="Huldreheia" />
		<tag k="natural" v="hill" />
		<tag k="place" v="locality" />
		<tag k="ssr:stedsnr" v="244521" />
	</node>
	<node id="-503993" lat="58.8427694423" lon="9.12508332716">
		<tag k="fixme" v="consider natural=peak for the most distinct mountains in the district" />
		<tag k="name" v="Rødsknuten" />
		<tag k="natural" v="hill" />
		<tag k="place" v="locality" />
		<tag k="ssr:stedsnr" v="364091" />
	</node>
	<node id="-503987" lat="58.8781111143" lon="9.16113610784">
		<tag k="fixme" v="consider natural=peak for the most distinct mountains in the district" />
		<tag k="name" v="Høgstliknuten" />
		<tag k="natural" v="hill" />
		<tag k="place" v="locality" />
		<tag k="ssr:stedsnr" v="364220" />
	</node>
	<node id="-503986" lat="58.8685722223" lon="9.1522638826">
		<tag k="fixme" v="consider natural=peak for the most distinct mountains in the district" />
		<tag k="name" v="Østerholtheia" />
		<tag k="natural" v="hill" />
		<tag k="place" v="locality" />
		<tag k="ssr:stedsnr" v="364190" />
	</node>
	<node id="-503983" lat="58.8530027819" lon="9.06794165952">
		<tag k="name" v="Tyskdalen" />
		<tag k="natural" v="valley" />
		<tag k="place" v="locality" />
		<tag k="ssr:stedsnr" v="328980" />
	</node>
	<node id="-503982" lat="58.9669916655" lon="8.84253055791">
		<tag k="name" v="Napanskota" />
		<tag k="natural" v="slope" />
		<tag k="place" v="locality" />
		<tag k="ssr:stedsnr" v="328595" />
	</node>
	<node id="-503977" lat="58.895383337" lon="9.04840000257">
		<tag k="name" v="Svinhølheia" />
		<tag k="natural" v="hill" />
		<tag k="place" v="locality" />
		<tag k="ssr:stedsnr" v="327996" />
	</node>
	<node id="-503976" lat="58.841338889" lon="9.07611944385">
		<tag k="name" v="Tegleverkheia" />
		<tag k="natural" v="hill" />
		<tag k="place" v="locality" />
		<tag k="ssr:stedsnr" v="327976" />
	</node>
	<node id="-503974" lat="58.8275361096" lon="9.04095277037">
		<tag k="fixme" v="consider natural=peak for the most distinct mountains in the district" />
		<tag k="name" v="Hageliåsen" />
		<tag k="natural" v="hill" />
		<tag k="place" v="locality" />
		<tag k="ssr:stedsnr" v="327950" />
	</node>
	<node id="-502471" lat="58.8501305595" lon="8.92016943822">
		<tag k="fixme" v="consider natural=peak for the most distinct mountains in the district" />
		<tag k="name" v="Sveiknuten" />
		<tag k="natural" v="hill" />
		<tag k="place" v="locality" />
		<tag k="ssr:stedsnr" v="244146" />
	</node>
	<node id="-503970" lat="58.9354999975" lon="8.98814167258">
		<tag k="name" v="Paldalen" />
		<tag k="natural" v="valley" />
		<tag k="place" v="locality" />
		<tag k="ssr:stedsnr" v="327800" />
	</node>
	<node id="-503969" lat="58.8620638877" lon="9.10289167504">
		<tag k="name" v="Åkrokheia" />
		<tag k="natural" v="hill" />
		<tag k="place" v="locality" />
		<tag k="ssr:stedsnr" v="327799" />
	</node>
	<node id="-503966" lat="58.8645500036" lon="8.99748889458">
		<tag k="name" v="Bjørnshei" />
		<tag k="natural" v="hill" />
		<tag k="place" v="locality" />
		<tag k="ssr:stedsnr" v="327787" />
	</node>
	<node id="-503964" lat="58.8903944485" lon="9.08494166322">
		<tag k="name" v="Lindkleiv" />
		<tag k="natural" v="slope" />
		<tag k="place" v="locality" />
		<tag k="ssr:stedsnr" v="327784" />
	</node>
	<node id="-503962" lat="58.8837000003" lon="9.12125833921">
		<tag k="name" v="Lidalen" />
		<tag k="natural" v="valley" />
		<tag k="place" v="locality" />
		<tag k="ssr:stedsnr" v="327778" />
	</node>
	<node id="-503961" lat="58.8634055552" lon="9.00963611294">
		<tag k="name" v="Taraldsbråt" />
		<tag k="natural" v="slope" />
		<tag k="place" v="locality" />
		<tag k="ssr:stedsnr" v="327777" />
	</node>
	<node id="-503959" lat="58.8951222248" lon="9.05603888105">
		<tag k="name" v="Tørrgranmyrheia" />
		<tag k="natural" v="hill" />
		<tag k="place" v="locality" />
		<tag k="ssr:stedsnr" v="327770" />
	</node>
	<node id="-503957" lat="58.8757361102" lon="9.03436110529">
		<tag k="name" v="Steinhola" />
		<tag k="natural" v="valley" />
		<tag k="place" v="locality" />
		<tag k="ssr:stedsnr" v="327765" />
	</node>
	<node id="-503955" lat="58.8706027741" lon="8.9527638809">
		<tag k="name" v="Kjotliene" />
		<tag k="natural" v="slope" />
		<tag k="place" v="locality" />
		<tag k="ssr:stedsnr" v="327752" />
	</node>
	<node id="-503948" lat="58.8405000032" lon="9.02785555602">
		<tag k="name" v="Bjørndalen" />
		<tag k="natural" v="valley" />
		<tag k="place" v="locality" />
		<tag k="ssr:stedsnr" v="327889" />
	</node>
	<node id="-503946" lat="58.8531222241" lon="8.94580833695">
		<tag k="name" v="Botnane" />
		<tag k="natural" v="valley" />
		<tag k="place" v="locality" />
		<tag k="ssr:stedsnr" v="327882" />
	</node>
	<node id="-503941" lat="58.8595472267" lon="8.95514722269">
		<tag k="name" v="Kjeldekjerrlia" />
		<tag k="natural" v="slope" />
		<tag k="place" v="locality" />
		<tag k="ssr:stedsnr" v="327873" />
	</node>
	<node id="-503940" lat="58.9076583326" lon="9.01436944292">
		<tag k="name" v="Brommdalsheia" />
		<tag k="natural" v="hill" />
		<tag k="place" v="locality" />
		<tag k="ssr:stedsnr" v="327864" />
	</node>
	<node id="-503937" lat="58.9111055598" lon="9.03663055907">
		<tag k="name" v="Svåene" />
		<tag k="natural" v="slope" />
		<tag k="place" v="locality" />
		<tag k="ssr:stedsnr" v="327848" />
	</node>
	<node id="-502538" lat="58.8815249967" lon="8.99112221978">
		<tag k="fixme" v="consider natural=peak for the most distinct mountains in the district" />
		<tag k="name" v="Bjellåsen" />
		<tag k="natural" v="hill" />
		<tag k="place" v="locality" />
		<tag k="ssr:stedsnr" v="266780" />
	</node>
	<node id="-503933" lat="58.9451916636" lon="8.80862778102">
		<tag k="name" v="Langmyrfjellet" />
		<tag k="natural" v="hill" />
		<tag k="place" v="locality" />
		<tag k="ssr:stedsnr" v="327688" />
	</node>
	<node id="-503930" lat="58.8547027756" lon="8.86796388993">
		<tag k="name" v="Viksdalen" />
		<tag k="natural" v="valley" />
		<tag k="place" v="locality" />
		<tag k="ssr:stedsnr" v="327674" />
	</node>
	<node id="-502463" lat="58.8564388854" lon="9.13653610757">
		<tag k="alt_name" v="Tjennheia" />
		<tag k="fixme" v="consider natural=peak for the most distinct mountains in the district" />
		<tag k="name" v="Tjernheia" />
		<tag k="natural" v="hill" />
		<tag k="place" v="locality" />
		<tag k="ssr:stedsnr" v="243120" />
	</node>
	<node id="-503926" lat="58.8331305551" lon="9.05148888029">
		<tag k="fixme" v="consider natural=peak for the most distinct mountains in the district" />
		<tag k="name" v="Grytingsåsen" />
		<tag k="natural" v="hill" />
		<tag k="place" v="locality" />
		<tag k="ssr:stedsnr" v="327734" />
	</node>
	<node id="-503923" lat="58.8747527776" lon="8.90491944382">
		<tag k="name" v="Bjortjennlia" />
		<tag k="natural" v="slope" />
		<tag k="place" v="locality" />
		<tag k="ssr:stedsnr" v="327501" />
	</node>
	<node id="-503920" lat="58.8583138884" lon="8.93866943595">
		<tag k="name" v="Myrkjerrheia" />
		<tag k="natural" v="hill" />
		<tag k="place" v="locality" />
		<tag k="ssr:stedsnr" v="327476" />
	</node>
	<node id="-503907" lat="58.9784722225" lon="8.8783166729">
		<tag k="alt_name" v="Navassfjellet" />
		<tag k="fixme" v="consider natural=peak for the most distinct mountains in the district" />
		<tag k="name" v="Navassfjell" />
		<tag k="natural" v="hill" />
		<tag k="place" v="locality" />
		<tag k="ssr:stedsnr" v="304986" />
	</node>
	<node id="-502537" lat="58.902044441" lon="8.99876944366">
		<tag k="name" v="Ambutjennknuten" />
		<tag k="natural" v="hill" />
		<tag k="place" v="locality" />
		<tag k="ssr:stedsnr" v="266773" />
	</node>
	<node id="-503903" lat="58.9271277822" lon="8.8794138876">
		<tag k="name" v="Ljådalsvasane" />
		<tag k="natural" v="valley" />
		<tag k="place" v="locality" />
		<tag k="ssr:stedsnr" v="304862" />
	</node>
	<node id="-503897" lat="58.8405000012" lon="8.975502785">
		<tag k="fixme" v="consider natural=peak for the most distinct mountains in the district" />
		<tag k="name" v="Ulvsåsen" />
		<tag k="natural" v="hill" />
		<tag k="place" v="locality" />
		<tag k="ssr:stedsnr" v="304088" />
	</node>
	<node id="-503896" lat="58.8858527767" lon="8.87179167013">
		<tag k="alt_name" v="Søndre Skavlen" />
		<tag k="fixme" v="consider natural=peak for the most distinct mountains in the district" />
		<tag k="name" v="Hitre Skavlen" />
		<tag k="natural" v="hill" />
		<tag k="place" v="locality" />
		<tag k="ssr:stedsnr" v="304232" />
	</node>
	<node id="-503895" lat="58.8587527797" lon="8.94842777268">
		<tag k="fixme" v="consider natural=peak for the most distinct mountains in the district" />
		<tag k="name" v="Kvernåsen" />
		<tag k="natural" v="hill" />
		<tag k="place" v="locality" />
		<tag k="ssr:stedsnr" v="304137" />
	</node>
	<node id="-503890" lat="58.8600583352" lon="9.13197777925">
		<tag k="name" v="Nybuliene" />
		<tag k="natural" v="slope" />
		<tag k="place" v="locality" />
		<tag k="ssr:stedsnr" v="207999" />
	</node>
	<node id="-503888" lat="58.8398861156" lon="9.12007499274">
		<tag k="name" v="Knutdalen" />
		<tag k="natural" v="valley" />
		<tag k="place" v="locality" />
		<tag k="ssr:stedsnr" v="207995" />
	</node>
	<node id="-503882" lat="58.8385666672" lon="8.99947778106">
		<tag k="fixme" v="consider natural=peak for the most distinct mountains in the district" />
		<tag k="name" v="Skarkås" />
		<tag k="natural" v="hill" />
		<tag k="place" v="locality" />
		<tag k="ssr:stedsnr" v="206979" />
	</node>
	<node id="-503878" lat="58.8221027752" lon="9.03464166651">
		<tag k="name" v="Blimyrheia" />
		<tag k="natural" v="hill" />
		<tag k="place" v="locality" />
		<tag k="ssr:stedsnr" v="206968" />
	</node>
	<node id="-503875" lat="58.8289277769" lon="9.03035556283">
		<tag k="name" v="Gruveheia" />
		<tag k="natural" v="hill" />
		<tag k="place" v="locality" />
		<tag k="ssr:stedsnr" v="206954" />
	</node>
	<node id="-503869" lat="58.9556916638" lon="9.00018888816">
		<tag k="name" v="Blomreisheiliene" />
		<tag k="natural" v="slope" />
		<tag k="place" v="locality" />
		<tag k="ssr:stedsnr" v="206921" />
	</node>
	<node id="-503868" lat="58.964008334" lon="8.94924444882">
		<tag k="name" v="Høgmyrlia" />
		<tag k="natural" v="slope" />
		<tag k="place" v="locality" />
		<tag k="ssr:stedsnr" v="206916" />
	</node>
	<node id="-503866" lat="58.9831861144" lon="8.98654167107">
		<tag k="name" v="Styggedal" />
		<tag k="natural" v="valley" />
		<tag k="place" v="locality" />
		<tag k="ssr:stedsnr" v="206900" />
	</node>
	<node id="-503862" lat="58.9049499992" lon="9.02678888748">
		<tag k="fixme" v="consider natural=peak for the most distinct mountains in the district" />
		<tag k="name" v="Kvernhusfjell" />
		<tag k="natural" v="hill" />
		<tag k="place" v="locality" />
		<tag k="ssr:stedsnr" v="206877" />
	</node>
	<node id="-503861" lat="58.9163027784" lon="8.98065277616">
		<tag k="name" v="Sjukkjerrdalane" />
		<tag k="natural" v="valley" />
		<tag k="place" v="locality" />
		<tag k="ssr:stedsnr" v="206869" />
	</node>
	<node id="-503860" lat="58.8137000004" lon="9.04096388301">
		<tag k="name" v="Barbuheia" />
		<tag k="natural" v="hill" />
		<tag k="place" v="locality" />
		<tag k="ssr:stedsnr" v="206868" />
	</node>
	<node id="-503856" lat="58.878852782" lon="9.07285277882">
		<tag k="fixme" v="consider natural=peak for the most distinct mountains in the district" />
		<tag k="name" v="Trollvassåsen" />
		<tag k="natural" v="hill" />
		<tag k="place" v="locality" />
		<tag k="ssr:stedsnr" v="206849" />
	</node>
	<node id="-503854" lat="58.9283138845" lon="9.00333888109">
		<tag k="name" v="Vondtjennheia" />
		<tag k="natural" v="hill" />
		<tag k="place" v="locality" />
		<tag k="ssr:stedsnr" v="206842" />
	</node>
	<node id="-503852" lat="58.9272194415" lon="8.99385000083">
		<tag k="name" v="Stykkjeheia" />
		<tag k="natural" v="hill" />
		<tag k="place" v="locality" />
		<tag k="ssr:stedsnr" v="206836" />
	</node>
	<node id="-503849" lat="58.8794083348" lon="8.99656944534">
		<tag k="name" v="Brattåsdalen" />
		<tag k="natural" v="valley" />
		<tag k="place" v="locality" />
		<tag k="ssr:stedsnr" v="206827" />
	</node>
	<node id="-503848" lat="58.8958111081" lon="9.0752916644">
		<tag k="name" v="Håva" />
		<tag k="natural" v="hill" />
		<tag k="place" v="locality" />
		<tag k="ssr:stedsnr" v="206826" />
	</node>
	<node id="-503846" lat="58.883624999" lon="9.06581944885">
		<tag k="fixme" v="consider natural=peak for the most distinct mountains in the district" />
		<tag k="name" v="Folsteåsen" />
		<tag k="natural" v="hill" />
		<tag k="place" v="locality" />
		<tag k="ssr:stedsnr" v="206809" />
	</node>
	<node id="-503841" lat="58.8819583353" lon="8.96625834013">
		<tag k="name" v="Sjølvskottdalen" />
		<tag k="natural" v="valley" />
		<tag k="place" v="locality" />
		<tag k="ssr:stedsnr" v="206786" />
	</node>
	<node id="-503840" lat="58.8742805514" lon="8.96089444039">
		<tag k="fixme" v="consider natural=peak for the most distinct mountains in the district" />
		<tag k="name" v="Holstølåsen" />
		<tag k="natural" v="hill" />
		<tag k="place" v="locality" />
		<tag k="ssr:stedsnr" v="206783" />
	</node>
	<node id="-503838" lat="58.8788916636" lon="8.9749805592">
		<tag k="fixme" v="consider natural=peak for the most distinct mountains in the district" />
		<tag k="name" v="Meselhaugen" />
		<tag k="natural" v="hill" />
		<tag k="place" v="locality" />
		<tag k="ssr:stedsnr" v="206780" />
	</node>
	<node id="-503837" lat="58.8817361129" lon="8.99363056152">
		<tag k="fixme" v="consider natural=peak for the most distinct mountains in the district" />
		<tag k="name" v="Høgås" />
		<tag k="natural" v="hill" />
		<tag k="place" v="locality" />
		<tag k="ssr:stedsnr" v="206778" />
	</node>
	<node id="-503836" lat="58.8366361123" lon="9.05875555796">
		<tag k="fixme" v="consider natural=peak for the most distinct mountains in the district" />
		<tag k="name" v="Vildrefjella" />
		<tag k="natural" v="hill" />
		<tag k="place" v="locality" />
		<tag k="ssr:stedsnr" v="206768" />
	</node>
	<node id="-503829" lat="58.8906749971" lon="9.01705554902">
		<tag k="name" v="Skarkdalen" />
		<tag k="natural" v="valley" />
		<tag k="place" v="locality" />
		<tag k="ssr:stedsnr" v="206748" />
	</node>
	<node id="-503827" lat="58.9028055557" lon="9.034227781">
		<tag k="fixme" v="consider natural=peak for the most distinct mountains in the district" />
		<tag k="name" v="Bjørnefjell" />
		<tag k="natural" v="hill" />
		<tag k="place" v="locality" />
		<tag k="ssr:stedsnr" v="206742" />
	</node>
	<node id="-503826" lat="58.9035111145" lon="9.04140833918">
		<tag k="name" v="Henrikshei" />
		<tag k="natural" v="hill" />
		<tag k="place" v="locality" />
		<tag k="ssr:stedsnr" v="206738" />
	</node>
	<node id="-503825" lat="58.8990833304" lon="9.04782777378">
		<tag k="name" v="Venliene" />
		<tag k="natural" v="slope" />
		<tag k="place" v="locality" />
		<tag k="ssr:stedsnr" v="206736" />
	</node>
	<node id="-503821" lat="58.9397944432" lon="8.80407500204">
		<tag k="name" v="Sjølvskottdalen" />
		<tag k="natural" v="valley" />
		<tag k="place" v="locality" />
		<tag k="ssr:stedsnr" v="206702" />
	</node>
	<node id="-503818" lat="58.8502166633" lon="9.16557221612">
		<tag k="name" v="Trangholtdalen" />
		<tag k="natural" v="valley" />
		<tag k="place" v="locality" />
		<tag k="ssr:stedsnr" v="206634" />
	</node>
	<node id="-503816" lat="58.8754194407" lon="9.1287861089">
		<tag k="name" v="Kalvvassliene" />
		<tag k="natural" v="slope" />
		<tag k="place" v="locality" />
		<tag k="ssr:stedsnr" v="206595" />
	</node>
	<node id="-503815" lat="58.9861000018" lon="8.93964999806">
		<tag k="fixme" v="consider natural=peak for the most distinct mountains in the district" />
		<tag k="name" v="Signesmyrknuten" />
		<tag k="natural" v="hill" />
		<tag k="place" v="locality" />
		<tag k="ssr:stedsnr" v="206565" />
	</node>
	<node id="-503811" lat="58.8644111127" lon="8.93753610928">
		<tag k="name" v="Spondalen" />
		<tag k="natural" v="valley" />
		<tag k="place" v="locality" />
		<tag k="ssr:stedsnr" v="206495" />
	</node>
</osm>
