<?xml version="1.0" encoding="UTF-8"?>
<osm version="0.6" generator="osmapis">
	<node lat="58.86830277398983" lon="8.964749997080128" id="-22711">
		<tag k="alt_name" v="Ormtjenn" />
		<tag k="name" v="Ormtjern" />
		<tag k="natural" v="water" />
		<tag k="ssr:stedsnr" v="197" />
	</node>
	<node lat="58.95717222136253" lon="8.875288891003859" id="-22713">
		<tag k="name" v="Maurbekken" />
		<tag k="ssr:stedsnr" v="898" />
		<tag k="waterway" v="stream" />
	</node>
	<node lat="58.82463333031887" lon="9.16571945002703" id="-22714">
		<tag k="name" v="Råna" />
		<tag k="natural" v="cape" />
		<tag k="ssr:stedsnr" v="1041" />
	</node>
	<node lat="58.82565000269081" lon="9.10215833196673" id="-22716">
		<tag k="alt_name" v="Holtfjorden" />
		<tag k="name" v="Holtefjorden" />
		<tag k="natural" v="water" />
		<tag k="ssr:stedsnr" v="1060" />
		<tag k="water" v="lake" />
	</node>
	<node lat="58.8779750036552" lon="9.00686389550979" id="-22717">
		<tag k="alt_name" v="Dråpetjenn" />
		<tag k="name" v="Dråpetjern" />
		<tag k="natural" v="water" />
		<tag k="ssr:stedsnr" v="1207" />
	</node>
	<node lat="58.9190388872972" lon="8.816694438376127" id="-22719">
		<tag k="name" v="Trettestebekken" />
		<tag k="ssr:stedsnr" v="1384" />
		<tag k="waterway" v="stream" />
	</node>
	<node lat="58.79571666764502" lon="9.042930555159026" id="-22720">
		<tag k="alt_name" v="Skjærtjenn" />
		<tag k="name" v="Skjertjerna" />
		<tag k="natural" v="water" />
		<tag k="ssr:stedsnr" v="1506" />
	</node>
	<node lat="58.89557777971381" lon="8.884724999803266" id="-22723">
		<tag k="alt_name" v="Otertjenn" />
		<tag k="name" v="Oterstjern" />
		<tag k="natural" v="water" />
		<tag k="ssr:stedsnr" v="1803" />
	</node>
	<node lat="58.94286666991308" lon="9.025652776488277" id="-22724">
		<tag k="alt_name" v="Mørketjenn" />
		<tag k="name" v="Mørttjern" />
		<tag k="natural" v="water" />
		<tag k="ssr:stedsnr" v="1831" />
	</node>
	<node lat="58.97803888699287" lon="9.007899996133856" id="-22749">
		<tag k="name" v="Gruvlefoss" />
		<tag k="natural" v="waterfall" />
		<tag k="ssr:stedsnr" v="24913" />
	</node>
	<node lat="58.81090555693502" lon="9.098538886302336" id="-22757">
		<tag k="name" v="Hjelløya" />
		<tag k="place" v="islet" />
		<tag k="ssr:stedsnr" v="24934" />
	</node>
	<node lat="58.81525278022067" lon="9.077794438335028" id="-22758">
		<tag k="name" v="Lindtjenn" />
		<tag k="natural" v="water" />
		<tag k="ssr:stedsnr" v="24936" />
	</node>
	<node lat="58.883130554782866" lon="8.815544440800783" id="-22780">
		<tag k="alt_name" v="Revtjenn" />
		<tag k="name" v="Revtjørna" />
		<tag k="natural" v="water" />
		<tag k="ssr:stedsnr" v="61701" />
	</node>
	<node lat="58.95463888902307" lon="8.992488890917388" id="-22782">
		<tag k="alt_name" v="Blomreisheitjenn" />
		<tag k="name" v="Blomreisheitjerna" />
		<tag k="natural" v="water" />
		<tag k="ssr:stedsnr" v="61889" />
	</node>
	<node lat="58.86498333744218" lon="8.920094448145298" id="-22792">
		<tag k="alt_name" v="Stemtjenn" />
		<tag k="name" v="Stemtjern" />
		<tag k="natural" v="water" />
		<tag k="ssr:stedsnr" v="243167" />
	</node>
	<node lat="58.841011110577995" lon="9.035058341415679" id="-22793">
		<tag k="name" v="Skogeråstjern" />
		<tag k="natural" v="water" />
		<tag k="ssr:stedsnr" v="243088" />
	</node>
	<node lat="58.84237777386736" lon="8.972297230340601" id="-22794">
		<tag k="name" v="Høylangen" />
		<tag k="place" v="locality" />
		<tag k="ssr:stedsnr" v="243094" />
	</node>
	<node lat="58.89024444868818" lon="9.116227772315387" id="-22797">
		<tag k="alt_name" v="Heiknuttjenn" />
		<tag k="name" v="Heiknuttjerna" />
		<tag k="natural" v="water" />
		<tag k="ssr:stedsnr" v="243214" />
	</node>
	<node lat="58.88812777680823" lon="8.881994446327933" id="-22798">
		<tag k="alt_name" v="Store Kleivvasstjenn" />
		<tag k="name" v="Store Kleivvasstjern" />
		<tag k="natural" v="water" />
		<tag k="ssr:stedsnr" v="243231" />
	</node>
	<node lat="58.93511389208483" lon="8.791080564191176" id="-22799">
		<tag k="alt_name" v="Timmerlitjenn" />
		<tag k="name" v="Timmerlitjørna" />
		<tag k="natural" v="water" />
		<tag k="ssr:stedsnr" v="243419" />
	</node>
	<node lat="58.96022777672274" lon="8.815066658138372" id="-22803">
		<tag k="alt_name" v="Store Karistjenn" />
		<tag k="name" v="Karistjørna" />
		<tag k="natural" v="water" />
		<tag k="ssr:stedsnr" v="244312" />
	</node>
	<node lat="58.79846666266915" lon="8.99266667125354" id="-22806">
		<tag k="name" v="Skredfjellbekken" />
		<tag k="ssr:stedsnr" v="244525" />
		<tag k="waterway" v="stream" />
	</node>
	<node lat="58.925436109230034" lon="8.875597229979816" id="-22811">
		<tag k="name" v="Kalvåselva" />
		<tag k="ssr:stedsnr" v="244861" />
		<tag k="waterway" v="stream" />
	</node>
	<node lat="58.85461110849846" lon="8.937594437660495" id="-22815">
		<tag k="name" v="Stittlonene" />
		<tag k="natural" v="water" />
		<tag k="ssr:stedsnr" v="84537" />
		<tag k="water" v="lake" />
	</node>
	<node lat="58.90882222491507" lon="8.966619437653788" id="-22823">
		<tag k="name" v="Plogen" />
		<tag k="place" v="islet" />
		<tag k="ssr:stedsnr" v="84889" />
	</node>
	<node lat="58.91332222539294" lon="8.9615916609083" id="-22824">
		<tag k="name" v="Dansarhølen" />
		<tag k="place" v="locality" />
		<tag k="ssr:stedsnr" v="84895" />
	</node>
	<node lat="58.922900002422836" lon="9.049877780089286" id="-22825">
		<tag k="name" v="Vintervegbukta" />
		<tag k="natural" v="bay" />
		<tag k="ssr:stedsnr" v="84900" />
	</node>
	<node lat="58.848180552013744" lon="8.940499999676607" id="-22836">
		<tag k="name" v="Hundane" />
		<tag k="place" v="islet" />
		<tag k="ssr:stedsnr" v="85889" />
	</node>
	<node lat="58.98651666886943" lon="8.998069448524216" id="-22839">
		<tag k="name" v="Kvernfoss" />
		<tag k="natural" v="waterfall" />
		<tag k="ssr:stedsnr" v="85895" />
	</node>
	<node lat="58.810863889168175" lon="9.003399999711704" id="-22868">
		<tag k="alt_name" v="Skrefjelltjenn" />
		<tag k="name" v="Skredfjelltjerna" />
		<tag k="natural" v="water" />
		<tag k="ssr:stedsnr" v="122019" />
	</node>
	<node lat="58.87501110830769" lon="8.89052499425323" id="-22870">
		<tag k="alt_name" v="Almenningsvannet" />
		<tag k="name" v="Almenningsvatnet" />
		<tag k="natural" v="water" />
		<tag k="ssr:stedsnr" v="122219" />
	</node>
	<node lat="58.79664166595041" lon="9.0176388916978" id="-22874">
		<tag k="alt_name" v="Mørketjenn" />
		<tag k="name" v="Mørktjerna" />
		<tag k="natural" v="water" />
		<tag k="ssr:stedsnr" v="122482" />
	</node>
	<node lat="58.90779999811236" lon="9.085630556332912" id="-22876">
		<tag k="alt_name" v="Steinsvannet;Steinvann" />
		<tag k="name" v="Steinsvatn" />
		<tag k="natural" v="water" />
		<tag k="ssr:stedsnr" v="123768" />
		<tag k="water" v="lake" />
	</node>
	<node lat="58.821647222448135" lon="9.146224998287437" id="-22897">
		<tag k="name" v="Mjåvassbekken" />
		<tag k="ssr:stedsnr" v="145787" />
		<tag k="waterway" v="stream" />
	</node>
	<node lat="58.863886110590535" lon="8.878519447233183" id="-22904">
		<tag k="alt_name" v="Eldstøtjenn" />
		<tag k="name" v="Eldstømyrtjerna" />
		<tag k="natural" v="water" />
		<tag k="ssr:stedsnr" v="182165" />
	</node>
	<node lat="58.807069441474646" lon="9.117094449688096" id="-22908">
		<tag k="alt_name" v="Pøddetjenn" />
		<tag k="name" v="Poddetjerna" />
		<tag k="natural" v="water" />
		<tag k="ssr:stedsnr" v="182470" />
	</node>
	<node lat="58.93265555440755" lon="8.919583330920702" id="-22910">
		<tag k="alt_name" v="Øvre Raukolltjenn" />
		<tag k="name" v="Øvre Raudkolltjern" />
		<tag k="natural" v="water" />
		<tag k="ssr:stedsnr" v="182813" />
	</node>
	<node lat="58.930476597678854" lon="8.97412496693162" id="-22912">
		<tag k="alt_name" v="Valletjenn" />
		<tag k="name" v="Valletjern" />
		<tag k="natural" v="water" />
		<tag k="ssr:stedsnr" v="182816" />
	</node>
	<node lat="58.93281944221186" lon="8.87837778254022" id="-22913">
		<tag k="alt_name" v="Finntjennene" />
		<tag k="name" v="Finntjørnane" />
		<tag k="natural" v="water" />
		<tag k="ssr:stedsnr" v="182824" />
		<tag k="water" v="lake" />
	</node>
	<node lat="58.874475002426976" lon="8.80513888998083" id="-22916">
		<tag k="name" v="Skomma" />
		<tag k="natural" v="water" />
		<tag k="ssr:stedsnr" v="183695" />
	</node>
	<node lat="58.890896015436475" lon="8.845972863240323" id="-22918">
		<tag k="alt_name" v="Skartjenn" />
		<tag k="name" v="Skardtjern" />
		<tag k="natural" v="water" />
		<tag k="ssr:stedsnr" v="183822" />
	</node>
	<node lat="58.936550002952465" lon="8.8265722224097" id="-22920">
		<tag k="name" v="Heilandstjenn" />
		<tag k="natural" v="water" />
		<tag k="ssr:stedsnr" v="266711" />
	</node>
	<node lat="58.93086110978739" lon="8.843041674538675" id="-22929">
		<tag k="name" v="Sønderkil" />
		<tag k="natural" v="bay" />
		<tag k="ssr:stedsnr" v="266564" />
	</node>
	<node lat="58.94134444746847" lon="8.862330548668405" id="-22930">
		<tag k="name" v="Sautjenn" />
		<tag k="natural" v="water" />
		<tag k="ssr:stedsnr" v="266567" />
		<tag k="water" v="pond" />
	</node>
	<node lat="58.92950277661619" lon="8.871138888368904" id="-22932">
		<tag k="name" v="Ljådalsdammen" />
		<tag k="ssr:stedsnr" v="266571" />
		<tag k="waterway" v="dam" />
	</node>
	<node lat="58.92470277575879" lon="9.006680555985483" id="-22947">
		<tag k="name" v="Sølvfokktjenn" />
		<tag k="natural" v="water" />
		<tag k="ssr:stedsnr" v="266897" />
	</node>
	<node lat="58.86922500317715" lon="9.111655555828687" id="-22948">
		<tag k="name" v="Kringletjenn" />
		<tag k="natural" v="water" />
		<tag k="ssr:stedsnr" v="266865" />
	</node>
	<node lat="58.850774996561135" lon="9.170208334851838" id="-22959">
		<tag k="name" v="Bjormyrbekken" />
		<tag k="ssr:stedsnr" v="267592" />
		<tag k="waterway" v="stream" />
	</node>
	<node lat="58.86925555959624" lon="9.129175001815211" id="-22961">
		<tag k="name" v="Lyngtangbukta" />
		<tag k="natural" v="bay" />
		<tag k="ssr:stedsnr" v="267598" />
	</node>
	<node lat="58.834127781167005" lon="9.163766668599248" id="-22970">
		<tag k="name" v="Storelona" />
		<tag k="natural" v="water" />
		<tag k="ssr:stedsnr" v="206643" />
		<tag k="water" v="lake" />
	</node>
	<node lat="58.88327777670336" lon="9.153905561700501" id="-22975">
		<tag k="name" v="Småtjennene" />
		<tag k="natural" v="water" />
		<tag k="ssr:stedsnr" v="206835" />
		<tag k="water" v="lake" />
	</node>
	<node lat="58.938608333612606" lon="8.985305556628326" id="-22977">
		<tag k="name" v="Paldalstjenn" />
		<tag k="natural" v="water" />
		<tag k="ssr:stedsnr" v="206838" />
	</node>
	<node lat="58.89837777911627" lon="8.838125005722942" id="-22989">
		<tag k="name" v="Sjølvskottjenn" />
		<tag k="natural" v="water" />
		<tag k="ssr:stedsnr" v="449444" />
	</node>
	<node lat="58.835827776724386" lon="9.164005557360628" id="-22998">
		<tag k="name" v="Lonelva" />
		<tag k="ssr:stedsnr" v="449646" />
		<tag k="waterway" v="stream" />
	</node>
	<node lat="58.81871666819939" lon="9.044680554790341" id="-23013">
		<tag k="name" v="Perstjenn" />
		<tag k="natural" v="water" />
		<tag k="ssr:stedsnr" v="449931" />
	</node>
	<node lat="58.782461113682764" lon="9.044877776095026" id="-23018">
		<tag k="name" v="Nærsbukarttjenn" />
		<tag k="natural" v="water" />
		<tag k="ssr:stedsnr" v="449882" />
	</node>
	<node lat="58.84906666335183" lon="8.99846388971469" id="-23035">
		<tag k="alt_name" v="Fuglelitjenn" />
		<tag k="name" v="Fuglelitjern" />
		<tag k="natural" v="water" />
		<tag k="ssr:stedsnr" v="244132" />
	</node>
	<node lat="58.84925277721872" lon="8.93982221932582" id="-23037">
		<tag k="alt_name" v="Hundsvannet" />
		<tag k="name" v="Hundsvatn" />
		<tag k="natural" v="water" />
		<tag k="ssr:stedsnr" v="244147" />
		<tag k="water" v="lake" />
	</node>
	<node lat="58.875574997690165" lon="8.93511945244755" id="-23038">
		<tag k="alt_name" v="Steinsvannet" />
		<tag k="name" v="Steinsvatn" />
		<tag k="natural" v="water" />
		<tag k="ssr:stedsnr" v="244218" />
	</node>
	<node lat="58.807563892557" lon="9.125258339633353" id="-23039">
		<tag k="alt_name" v="Gåstjenn" />
		<tag k="name" v="Gåstjerna" />
		<tag k="natural" v="water" />
		<tag k="ssr:stedsnr" v="244490" />
	</node>
	<node lat="58.91844444077851" lon="9.060911103627339" id="-23041">
		<tag k="name" v="Kilbuelva" />
		<tag k="ssr:stedsnr" v="244774" />
		<tag k="waterway" v="river" />
	</node>
	<node lat="58.90696110723046" lon="8.876394444633545" id="-23043">
		<tag k="alt_name" v="Blandingstjenn" />
		<tag k="name" v="Blandingstjern" />
		<tag k="natural" v="water" />
		<tag k="ssr:stedsnr" v="244791" />
	</node>
	<node lat="58.868630552241434" lon="9.031288881969763" id="-23052">
		<tag k="name" v="Tollnes" />
		<tag k="natural" v="cape" />
		<tag k="ssr:stedsnr" v="266814" />
	</node>
	<node lat="58.84186666253649" lon="9.028816672185346" id="-23065">
		<tag k="name" v="Listølhølen" />
		<tag k="place" v="locality" />
		<tag k="ssr:stedsnr" v="266928" />
	</node>
	<node lat="58.85102499576472" lon="8.98843055912602" id="-23066">
		<tag k="name" v="Vehustjenn" />
		<tag k="natural" v="water" />
		<tag k="ssr:stedsnr" v="266933" />
	</node>
	<node lat="58.85360555295566" lon="8.993225005757079" id="-23067">
		<tag k="name" v="Grønbergtjenn" />
		<tag k="natural" v="water" />
		<tag k="ssr:stedsnr" v="266936" />
	</node>
	<node lat="58.77065833026768" lon="9.027225006198755" id="-23075">
		<tag k="name" v="Lomtjenn" />
		<tag k="natural" v="water" />
		<tag k="ssr:stedsnr" v="267538" />
	</node>
	<node lat="58.84838055232384" lon="9.123350004178123" id="-23092">
		<tag k="name" v="Kjerrstembekken" />
		<tag k="ssr:stedsnr" v="267999" />
		<tag k="waterway" v="stream" />
	</node>
	<node lat="58.88264444688559" lon="9.076124994456803" id="-23100">
		<tag k="alt_name" v="Sandtjenn" />
		<tag k="name" v="Sandtjern" />
		<tag k="natural" v="water" />
		<tag k="ssr:stedsnr" v="304216" />
	</node>
	<node lat="58.939705555725126" lon="8.788800005081509" id="-23103">
		<tag k="alt_name" v="Krosslitjenn" />
		<tag k="name" v="Krosskleivtjørna" />
		<tag k="natural" v="water" />
		<tag k="ssr:stedsnr" v="304418" />
	</node>
	<node lat="58.85436110941138" lon="8.97760833719329" id="-23104">
		<tag k="alt_name" v="Heimre Lyngtjenn" />
		<tag k="name" v="Heimre Lyngtjern" />
		<tag k="natural" v="water" />
		<tag k="ssr:stedsnr" v="304128" />
	</node>
	<node lat="58.85525398459821" lon="8.89192356291256" id="-23105">
		<tag k="alt_name" v="Småtjennene" />
		<tag k="name" v="Småtjernane" />
		<tag k="natural" v="water" />
		<tag k="ssr:stedsnr" v="304131" />
		<tag k="water" v="lake" />
	</node>
	<node lat="58.880050000150064" lon="8.908011117664762" id="-23107">
		<tag k="alt_name" v="Grimstjenn" />
		<tag k="name" v="Grimstjern" />
		<tag k="natural" v="water" />
		<tag k="ssr:stedsnr" v="304199" />
	</node>
	<node lat="58.769913886039696" lon="9.048333327332996" id="-23108">
		<tag k="alt_name" v="Pinesund" />
		<tag k="name" v="Pinesundet" />
		<tag k="natural" v="strait" />
		<tag k="ssr:stedsnr" v="304380" />
	</node>
	<node lat="58.91043055115084" lon="9.007008330856486" id="-23113">
		<tag k="alt_name" v="Nyklebutjenn" />
		<tag k="name" v="Nyklebutjerna" />
		<tag k="natural" v="water" />
		<tag k="ssr:stedsnr" v="305759" />
	</node>
	<node lat="58.90409999729241" lon="9.001311116135438" id="-23115">
		<tag k="alt_name" v="Ambutjenn" />
		<tag k="name" v="Ambutjern" />
		<tag k="natural" v="water" />
		<tag k="ssr:stedsnr" v="305767" />
	</node>
	<node lat="58.88509722554001" lon="8.932944451353578" id="-23116">
		<tag k="name" v="Laugarhølen" />
		<tag k="natural" v="water" />
		<tag k="ssr:stedsnr" v="327467" />
		<tag k="water" v="pond" />
	</node>
	<node lat="58.887338888004756" lon="9.027449991552544" id="-23132">
		<tag k="name" v="Sandåkerhølen" />
		<tag k="place" v="locality" />
		<tag k="ssr:stedsnr" v="327713" />
	</node>
	<node lat="58.83258055905566" lon="9.064969448639642" id="-23134">
		<tag k="name" v="Igletjenn" />
		<tag k="natural" v="water" />
		<tag k="ssr:stedsnr" v="327718" />
	</node>
	<node lat="58.939763888715234" lon="9.022736114951066" id="-23139">
		<tag k="name" v="Pålsslåttjenn" />
		<tag k="natural" v="water" />
		<tag k="ssr:stedsnr" v="327806" />
	</node>
	<node lat="58.91977222611435" lon="8.953363893614197" id="-23141">
		<tag k="name" v="Buodden" />
		<tag k="natural" v="cape" />
		<tag k="ssr:stedsnr" v="327815" />
	</node>
	<node lat="58.828219443657616" lon="9.017855559585348" id="-23156">
		<tag k="name" v="Mørktjenn" />
		<tag k="natural" v="water" />
		<tag k="ssr:stedsnr" v="327974" />
	</node>
	<node lat="58.957963887336916" lon="8.918377774319108" id="-23160">
		<tag k="name" v="Bjørnvafossen" />
		<tag k="natural" v="waterfall" />
		<tag k="ssr:stedsnr" v="328565" />
	</node>
	<node lat="58.96480000066099" lon="8.87121110518367" id="-23169">
		<tag k="name" v="Sønderkil" />
		<tag k="place" v="locality" />
		<tag k="ssr:stedsnr" v="364898" />
	</node>
	<node lat="58.81571944665464" lon="9.152022214826447" id="-23170">
		<tag k="name" v="Svart" />
		<tag k="natural" v="water" />
		<tag k="ssr:stedsnr" v="365008" />
		<tag k="water" v="lake" />
	</node>
	<node lat="58.81898332983109" lon="9.073600003120356" id="-23171">
		<tag k="alt_name" v="Nybøtjenn" />
		<tag k="name" v="Nybøtjerna" />
		<tag k="natural" v="water" />
		<tag k="ssr:stedsnr" v="365049" />
	</node>
	<node lat="58.820627779658174" lon="9.082833332890617" id="-23172">
		<tag k="alt_name" v="Sorttjenn" />
		<tag k="name" v="Surttjern" />
		<tag k="natural" v="water" />
		<tag k="ssr:stedsnr" v="365050" />
	</node>
	<node lat="58.85112222212884" lon="8.962016663746494" id="-23180">
		<tag k="alt_name" v="Vestre Lyngtjenn" />
		<tag k="name" v="Vestre Lyngtjern" />
		<tag k="natural" v="water" />
		<tag k="ssr:stedsnr" v="365148" />
	</node>
	<node lat="58.85693333004742" lon="8.962769437874282" id="-23181">
		<tag k="alt_name" v="Egdetjenn" />
		<tag k="name" v="Egdetjern" />
		<tag k="natural" v="water" />
		<tag k="ssr:stedsnr" v="365152" />
	</node>
	<node lat="58.92169166447102" lon="8.986099992925826" id="-23187">
		<tag k="alt_name" v="Kroktjennene" />
		<tag k="name" v="Kroktjern" />
		<tag k="natural" v="water" />
		<tag k="ssr:stedsnr" v="365893" />
	</node>
	<node lat="58.94590277397647" lon="8.90170833715377" id="-23194">
		<tag k="name" v="Gunhildstjenn" />
		<tag k="natural" v="water" />
		<tag k="ssr:stedsnr" v="387594" />
	</node>
	<node lat="58.86784166235012" lon="8.785500001326342" id="-23196">
		<tag k="name" v="Trælvasstjenn" />
		<tag k="natural" v="water" />
		<tag k="ssr:stedsnr" v="387712" />
	</node>
	<node lat="58.972591669913655" lon="8.863177782538504" id="-23197">
		<tag k="name" v="Navassfossen" />
		<tag k="natural" v="waterfall" />
		<tag k="ssr:stedsnr" v="387611" />
	</node>
	<node lat="58.906327778747105" lon="9.022691670787651" id="-23206">
		<tag k="name" v="Brekkaelva" />
		<tag k="ssr:stedsnr" v="387899" />
		<tag k="waterway" v="stream" />
	</node>
	<node lat="58.89789722182003" lon="9.049749991568572" id="-23210">
		<tag k="name" v="Svinhølen" />
		<tag k="place" v="locality" />
		<tag k="ssr:stedsnr" v="388718" />
	</node>
	<node lat="58.93773333757457" lon="9.019658332323047" id="-23219">
		<tag k="name" v="Pålsslåttjenn" />
		<tag k="natural" v="water" />
		<tag k="ssr:stedsnr" v="388841" />
	</node>
	<node lat="58.86983610756978" lon="9.124611118561766" id="-23233">
		<tag k="alt_name" v="Kalvvatnet, vestre" />
		<tag k="name" v="Vestre Kalvvannet" />
		<tag k="natural" v="water" />
		<tag k="ssr:stedsnr" v="485163" />
		<tag k="water" v="lake" />
	</node>
	<node lat="58.83463055873966" lon="9.036199997658906" id="-23234">
		<tag k="alt_name" v="Båsvannet" />
		<tag k="name" v="Båsvatn" />
		<tag k="natural" v="water" />
		<tag k="ssr:stedsnr" v="486060" />
	</node>
	<node lat="58.83928055816767" lon="8.944577780193864" id="-23237">
		<tag k="alt_name" v="Sorttjenn" />
		<tag k="name" v="Surttjern" />
		<tag k="natural" v="water" />
		<tag k="ssr:stedsnr" v="486082" />
	</node>
	<node lat="58.86018055995454" lon="8.877958326989763" id="-23244">
		<tag k="name" v="Bjelkekjerr" />
		<tag k="place" v="locality" />
		<tag k="ssr:stedsnr" v="486150" />
	</node>
	<node lat="58.93310277388964" lon="8.831988896797771" id="-23246">
		<tag k="alt_name" v="Heilandsvannet" />
		<tag k="name" v="Heilandsvatnet" />
		<tag k="natural" v="water" />
		<tag k="ssr:stedsnr" v="486429" />
		<tag k="water" v="lake" />
	</node>
	<node lat="58.930288888771685" lon="8.795808329546476" id="-23247">
		<tag k="name" v="Vehuselva" />
		<tag k="ssr:stedsnr" v="486433" />
		<tag k="waterway" v="stream" />
	</node>
	<node lat="58.922866667641664" lon="8.870355559799249" id="-23251">
		<tag k="alt_name" v="Kalvåstjenn" />
		<tag k="name" v="Kalvåstjern" />
		<tag k="natural" v="water" />
		<tag k="ssr:stedsnr" v="486843" />
	</node>
	<node lat="58.91881666891212" lon="8.859438885309833" id="-23255">
		<tag k="name" v="Kvernkroelva" />
		<tag k="ssr:stedsnr" v="486844" />
		<tag k="waterway" v="stream" />
	</node>
	<node lat="58.93865832983707" lon="8.867172223573306" id="-23256">
		<tag k="name" v="Diplane" />
		<tag k="place" v="locality" />
		<tag k="ssr:stedsnr" v="486931" />
	</node>
	<node lat="58.926933334197045" lon="8.811855562378309" id="-23263">
		<tag k="alt_name" v="Svarttjenn" />
		<tag k="name" v="Svarttjern" />
		<tag k="natural" v="water" />
		<tag k="ssr:stedsnr" v="425401" />
	</node>
	<node lat="58.855016667465875" lon="8.92554166562644" id="-23268">
		<tag k="name" v="Lonene" />
		<tag k="place" v="locality" />
		<tag k="ssr:stedsnr" v="426154" />
	</node>
	<node lat="58.867516668135" lon="8.852813893589138" id="-23278">
		<tag k="name" v="Sautangen" />
		<tag k="natural" v="cape" />
		<tag k="ssr:stedsnr" v="449502" />
	</node>
	<node lat="58.91326389298947" lon="8.847669450266809" id="-23286">
		<tag k="name" v="Marksetdammen" />
		<tag k="ssr:stedsnr" v="449520" />
		<tag k="waterway" v="dam" />
	</node>
	<node lat="58.92865000217488" lon="8.957855553310486" id="-23292">
		<tag k="name" v="Prestefoss" />
		<tag k="natural" v="waterfall" />
		<tag k="ssr:stedsnr" v="449810" />
	</node>
	<node lat="58.80916944098751" lon="9.067125002912714" id="-23312">
		<tag k="name" v="Småtjenn" />
		<tag k="natural" v="water" />
		<tag k="ssr:stedsnr" v="449907" />
	</node>
	<node lat="58.88920278071419" lon="8.914791673942133" id="-23320">
		<tag k="name" v="Løkjefjelltjenn" />
		<tag k="natural" v="water" />
		<tag k="ssr:stedsnr" v="691530" />
	</node>
	<node lat="58.8773805575358" lon="9.080524996094066" id="-23321">
		<tag k="alt_name" v="Stølstjenn" />
		<tag k="name" v="Stølstjern" />
		<tag k="natural" v="water" />
		<tag k="ssr:stedsnr" v="485156" />
	</node>
	<node lat="58.85812500058608" lon="8.887050000938961" id="-23325">
		<tag k="alt_name" v="Tjennene" />
		<tag k="name" v="Tjernane" />
		<tag k="natural" v="water" />
		<tag k="ssr:stedsnr" v="486117" />
	</node>
	<node lat="58.86301667092725" lon="8.913783341151731" id="-23327">
		<tag k="name" v="Storren" />
		<tag k="place" v="locality" />
		<tag k="ssr:stedsnr" v="486120" />
	</node>
	<node lat="58.86281677944026" lon="8.974914610857889" id="-23328">
		<tag k="alt_name" v="Kringletjenn" />
		<tag k="name" v="Kringletjern" />
		<tag k="natural" v="water" />
		<tag k="ssr:stedsnr" v="486128" />
	</node>
	<node lat="58.85654047378012" lon="8.992685753286805" id="-23329">
		<tag k="alt_name" v="Kalvåstjenn" />
		<tag k="name" v="Kalvåstjern" />
		<tag k="natural" v="water" />
		<tag k="ssr:stedsnr" v="486130" />
	</node>
	<node lat="58.87642499605568" lon="8.849261108859954" id="-23330">
		<tag k="alt_name" v="Hekkentjenn" />
		<tag k="name" v="Hekkentjern" />
		<tag k="natural" v="water" />
		<tag k="ssr:stedsnr" v="486194" />
	</node>
	<node lat="58.8253111131915" lon="9.166902776901395" id="-23342">
		<tag k="name" v="Lillesvartsundet" />
		<tag k="natural" v="strait" />
		<tag k="ssr:stedsnr" v="509628" />
	</node>
	<node lat="58.87352777394183" lon="8.99264999919958" id="-23346">
		<tag k="name" v="Kvernbekken" />
		<tag k="ssr:stedsnr" v="509724" />
		<tag k="waterway" v="stream" />
	</node>
	<node lat="58.99136944047577" lon="8.984850004992342" id="-23349">
		<tag k="name" v="Skreddarlona" />
		<tag k="natural" v="water" />
		<tag k="ssr:stedsnr" v="509909" />
		<tag k="water" v="lake" />
	</node>
	<node lat="58.806569442740745" lon="9.066299995411883" id="-23352">
		<tag k="name" v="Småtjenn" />
		<tag k="natural" v="water" />
		<tag k="ssr:stedsnr" v="509919" />
	</node>
	<node lat="58.837616667077995" lon="9.019947219718349" id="-23356">
		<tag k="name" v="Lona" />
		<tag k="natural" v="water" />
		<tag k="ssr:stedsnr" v="509970" />
		<tag k="water" v="lake" />
	</node>
	<node lat="58.825280554384044" lon="9.014336103959332" id="-23358">
		<tag k="name" v="Skjertjenn" />
		<tag k="natural" v="water" />
		<tag k="ssr:stedsnr" v="509977" />
	</node>
	<node lat="58.92388333196259" lon="9.013605554643004" id="-23365">
		<tag k="name" v="Evjevasstjenn" />
		<tag k="natural" v="bay" />
		<tag k="ssr:stedsnr" v="752884" />
	</node>
	<node lat="58.92962777343002" lon="8.93405833421794" id="-23373">
		<tag k="alt_name" v="Rumpetjenn" />
		<tag k="name" v="Rumpetjern" />
		<tag k="natural" v="water" />
		<tag k="ssr:stedsnr" v="546812" />
	</node>
	<node lat="58.97073611169854" lon="8.86701110528816" id="-23375">
		<tag k="alt_name" v="Navannet" />
		<tag k="name" v="Navatn" />
		<tag k="natural" v="water" />
		<tag k="ssr:stedsnr" v="546981" />
	</node>
	<node lat="58.88361944543352" lon="9.134475003314188" id="-23377">
		<tag k="name" v="Graskjerra" />
		<tag k="place" v="locality" />
		<tag k="ssr:stedsnr" v="547228" />
	</node>
	<node lat="58.87750833590974" lon="8.905591672119904" id="-23378">
		<tag k="alt_name" v="Bjortjenn" />
		<tag k="name" v="Bjortjern" />
		<tag k="natural" v="water" />
		<tag k="ssr:stedsnr" v="547242" />
	</node>
	<node lat="58.90549166894751" lon="8.918941663835875" id="-23379">
		<tag k="alt_name" v="Mjåvannet" />
		<tag k="name" v="Mjåvatn" />
		<tag k="natural" v="water" />
		<tag k="ssr:stedsnr" v="548761" />
		<tag k="water" v="lake" />
	</node>
	<node lat="58.85049999956711" lon="8.90852500236984" id="-23385">
		<tag k="name" v="Lauvreistjenn" />
		<tag k="natural" v="water" />
		<tag k="ssr:stedsnr" v="691496" />
		<tag k="water" v="pond" />
	</node>
	<node lat="58.92110833130261" lon="9.055230552601232" id="-23391">
		<tag k="name" v="Snøkjerrhølen" />
		<tag k="place" v="locality" />
		<tag k="ssr:stedsnr" v="691607" />
	</node>
	<node lat="58.916811111194825" lon="9.058494440656935" id="-23392">
		<tag k="name" v="Rubbmyrbekken" />
		<tag k="ssr:stedsnr" v="691608" />
		<tag k="waterway" v="stream" />
	</node>
	<node lat="58.92756666706516" lon="8.90903333542362" id="-23393">
		<tag k="alt_name" v="Nedre Raudkolltjenn" />
		<tag k="name" v="Nedre Raudkolltjern" />
		<tag k="natural" v="water" />
		<tag k="ssr:stedsnr" v="691542" />
	</node>
	<node lat="58.92216111192177" lon="8.833258325568575" id="-23394">
		<tag k="name" v="Høydalsdammen" />
		<tag k="ssr:stedsnr" v="691550" />
		<tag k="waterway" v="dam" />
	</node>
	<node lat="58.92052777371108" lon="8.963625004989733" id="-23415">
		<tag k="name" v="Rekvik" />
		<tag k="natural" v="bay" />
		<tag k="ssr:stedsnr" v="691860" />
	</node>
	<node lat="58.79573333783493" lon="9.095544444629798" id="-23421">
		<tag k="name" v="Huldretjenn" />
		<tag k="natural" v="water" />
		<tag k="ssr:stedsnr" v="691948" />
	</node>
	<node lat="58.81280278035557" lon="9.132358324980997" id="-23422">
		<tag k="name" v="Gruvetjenn" />
		<tag k="natural" v="water" />
		<tag k="ssr:stedsnr" v="691951" />
	</node>
	<node lat="58.823422219385414" lon="9.00785554935403" id="-23427">
		<tag k="name" v="Øygardslitjenn" />
		<tag k="natural" v="water" />
		<tag k="ssr:stedsnr" v="691970" />
	</node>
	<node lat="58.773855558584266" lon="9.024888888621378" id="-23430">
		<tag k="name" v="Lomtjenn" />
		<tag k="natural" v="water" />
		<tag k="ssr:stedsnr" v="692558" />
	</node>
	<node lat="58.91102777423005" lon="9.071130559772918" id="-23462">
		<tag k="name" v="Skjenskjærafossen" />
		<tag k="natural" v="waterfall" />
		<tag k="ssr:stedsnr" v="570569" />
	</node>
	<node lat="58.88708333632182" lon="9.036819449806288" id="-23466">
		<tag k="name" v="Lierhølen" />
		<tag k="place" v="locality" />
		<tag k="ssr:stedsnr" v="570720" />
	</node>
	<node lat="58.85133156498773" lon="9.137005627511062" id="-23481">
		<tag k="alt_name" v="Fisketjenn" />
		<tag k="name" v="Fisketjerna" />
		<tag k="natural" v="water" />
		<tag k="ssr:stedsnr" v="607110" />
	</node>
	<node lat="58.84252500250339" lon="8.939661104103426" id="-23487">
		<tag k="alt_name" v="Øygardstjenn" />
		<tag k="name" v="Øygardstjern" />
		<tag k="natural" v="water" />
		<tag k="ssr:stedsnr" v="607099" />
	</node>
	<node lat="58.90078888575501" lon="8.9428277750233" id="-23494">
		<tag k="alt_name" v="Morketjern" />
		<tag k="name" v="Morketjenn" />
		<tag k="natural" v="water" />
		<tag k="ssr:stedsnr" v="608802" />
	</node>
	<node lat="58.89860277338123" lon="9.021838881025893" id="-23504">
		<tag k="name" v="Lillelva" />
		<tag k="ssr:stedsnr" v="630719" />
		<tag k="waterway" v="river" />
	</node>
	<node lat="58.926672226279614" lon="9.037005553307838" id="-23508">
		<tag k="name" v="Kilbutangen" />
		<tag k="natural" v="cape" />
		<tag k="ssr:stedsnr" v="630807" />
	</node>
	<node lat="58.92685277446574" lon="8.958999992762964" id="-23520">
		<tag k="name" v="Urvassfossen" />
		<tag k="natural" v="waterfall" />
		<tag k="ssr:stedsnr" v="630799" />
	</node>
	<node lat="58.853702774858434" lon="9.016072219296383" id="-23522">
		<tag k="name" v="Igletjenn" />
		<tag k="natural" v="water" />
		<tag k="ssr:stedsnr" v="630934" />
	</node>
	<node lat="58.96919721891745" lon="8.867452779239906" id="-23530">
		<tag k="name" v="Vomma" />
		<tag k="natural" v="cape" />
		<tag k="ssr:stedsnr" v="631606" />
	</node>
	<node lat="58.976169442198334" lon="8.93571388703054" id="-23531">
		<tag k="name" v="De brente dammane" />
		<tag k="ssr:stedsnr" v="631611" />
		<tag k="waterway" v="dam" />
	</node>
	<node lat="58.90774999963005" lon="8.971127770048522" id="-23535">
		<tag k="name" v="Storelva" />
		<tag k="ssr:stedsnr" v="634330" />
		<tag k="waterway" v="river" />
	</node>
	<node lat="58.85769444574804" lon="9.090441659722053" id="-23538">
		<tag k="alt_name" v="Tveittjenn" />
		<tag k="name" v="Tveitstjern" />
		<tag k="natural" v="water" />
		<tag k="ssr:stedsnr" v="729156" />
	</node>
	<node lat="58.87585832899707" lon="8.9837527804513" id="-23543">
		<tag k="alt_name" v="Igletjenn" />
		<tag k="name" v="Igletjern" />
		<tag k="natural" v="water" />
		<tag k="ssr:stedsnr" v="668209" />
	</node>
	<node lat="58.849545403929135" lon="8.965624666101" id="-23544">
		<tag k="name" v="Svarthøl" />
		<tag k="natural" v="water" />
		<tag k="ssr:stedsnr" v="668137" />
	</node>
	<node lat="58.85548055551589" lon="8.855969448908402" id="-23545">
		<tag k="alt_name" v="Vegårsvann;Vegårdsvatnet;Vegårsvannet" />
		<tag k="name" v="Vegårsvatnet" />
		<tag k="natural" v="water" />
		<tag k="ssr:stedsnr" v="668139" />
		<tag k="water" v="lake" />
	</node>
	<node lat="58.861716670322" lon="8.88828332603163" id="-23546">
		<tag k="alt_name" v="Tjennheitjenn" />
		<tag k="name" v="Tjernheitjern" />
		<tag k="natural" v="water" />
		<tag k="ssr:stedsnr" v="668140" />
	</node>
	<node lat="58.86306111315563" lon="9.000036112873213" id="-23549">
		<tag k="alt_name" v="Bjørnstjenn" />
		<tag k="name" v="Bjørnstjern" />
		<tag k="natural" v="water" />
		<tag k="ssr:stedsnr" v="668155" />
	</node>
	<node lat="58.93029999584802" lon="8.892880551513626" id="-23559">
		<tag k="alt_name" v="Solemtjenn" />
		<tag k="name" v="Solemtjern" />
		<tag k="natural" v="water" />
		<tag k="ssr:stedsnr" v="668845" />
	</node>
	<node lat="58.88806666535153" lon="8.84050832917893" id="-23560">
		<tag k="alt_name" v="Den Svarte Tjenna" />
		<tag k="name" v="Svarttjørna" />
		<tag k="natural" v="water" />
		<tag k="ssr:stedsnr" v="668736" />
	</node>
	<node lat="58.8729999984618" lon="9.113633337938918" id="-23572">
		<tag k="name" v="Galtevaet" />
		<tag k="natural" v="shoal" />
		<tag k="place" v="locality" />
		<tag k="ssr:stedsnr" v="691626" />
	</node>
	<node lat="58.89640555387523" lon="9.012758329255737" id="-23583">
		<tag k="name" v="Holmane" />
		<tag k="natural" v="cape" />
		<tag k="ssr:stedsnr" v="691737" />
	</node>
	<node lat="58.88984167072299" lon="9.052855552013652" id="-23587">
		<tag k="name" v="Gunnustadtjenn" />
		<tag k="natural" v="water" />
		<tag k="ssr:stedsnr" v="691798" />
	</node>
	<node lat="58.78007777897209" lon="9.024997217177939" id="-23600">
		<tag k="name" v="Steinsmyrtjenn" />
		<tag k="natural" v="water" />
		<tag k="ssr:stedsnr" v="691900" />
	</node>
	<node lat="58.84154166861312" lon="9.177322215868191" id="-23608">
		<tag k="alt_name" v="Tjovlitjenn" />
		<tag k="name" v="Tjovelitjerna" />
		<tag k="natural" v="water" />
		<tag k="ssr:stedsnr" v="729082" />
	</node>
	<node lat="58.85259722058101" lon="9.170361111859322" id="-23611">
		<tag k="alt_name" v="Vilitjenn" />
		<tag k="name" v="Vilitjerna" />
		<tag k="natural" v="water" />
		<tag k="ssr:stedsnr" v="729118" />
	</node>
	<node lat="58.864347218858526" lon="8.857077769727425" id="-23613">
		<tag k="name" v="Eldstøbukta" />
		<tag k="natural" v="bay" />
		<tag k="ssr:stedsnr" v="729171" />
	</node>
	<node lat="58.87544166725492" lon="8.915958328156078" id="-23614">
		<tag k="alt_name" v="Holmvannet" />
		<tag k="name" v="Holmvatn" />
		<tag k="natural" v="water" />
		<tag k="ssr:stedsnr" v="729218" />
	</node>
	<node lat="58.96410555192818" lon="8.953455560136922" id="-23626">
		<tag k="alt_name" v="Fisketjennelva" />
		<tag k="name" v="Fisketjernelva" />
		<tag k="ssr:stedsnr" v="729910" />
		<tag k="waterway" v="stream" />
	</node>
	<node lat="58.94815833491905" lon="8.88560556225951" id="-23627">
		<tag k="alt_name" v="Risfjellvannet" />
		<tag k="name" v="Risfjellvatn" />
		<tag k="natural" v="water" />
		<tag k="ssr:stedsnr" v="729914" />
	</node>
	<node lat="58.79113055256808" lon="9.09972222565675" id="-23630">
		<tag k="alt_name" v="Vasstøvann" />
		<tag k="name" v="Vasstøvannet" />
		<tag k="natural" v="water" />
		<tag k="ssr:stedsnr" v="730476" />
		<tag k="water" v="lake" />
	</node>
	<node lat="58.93283888831795" lon="8.9310861104408" id="-23633">
		<tag k="name" v="Bronfakstjenn" />
		<tag k="natural" v="water" />
		<tag k="ssr:stedsnr" v="752506" />
	</node>
	<node lat="58.91085833136054" lon="8.921683332220294" id="-23635">
		<tag k="name" v="Mjåvassdammen" />
		<tag k="ssr:stedsnr" v="752519" />
		<tag k="waterway" v="dam" />
	</node>
	<node lat="58.98042778185231" lon="8.842386109649182" id="-23641">
		<tag k="name" v="Den vonde fossen" />
		<tag k="natural" v="waterfall" />
		<tag k="ssr:stedsnr" v="752559" />
	</node>
	<node lat="58.8216722222243" lon="9.152797217015559" id="-23650">
		<tag k="name" v="Mjåvassodden" />
		<tag k="natural" v="cape" />
		<tag k="ssr:stedsnr" v="752770" />
	</node>
	<node lat="58.78970833076845" lon="9.033980558086377" id="-23656">
		<tag k="name" v="Steinsmyrpytten" />
		<tag k="natural" v="water" />
		<tag k="ssr:stedsnr" v="752909" />
		<tag k="water" v="pond" />
	</node>
	<node lat="58.86285556005971" lon="8.995699993032614" id="-23666">
		<tag k="name" v="Vaet" />
		<tag k="place" v="locality" />
		<tag k="ssr:stedsnr" v="752822" />
	</node>
	<node lat="58.915958333999214" lon="8.983463885337152" id="-23674">
		<tag k="name" v="Bokstjenn" />
		<tag k="natural" v="water" />
		<tag k="ssr:stedsnr" v="752867" />
	</node>
	<node lat="58.799874996265004" lon="9.043663885725959" id="-23675">
		<tag k="name" v="Storøy" />
		<tag k="place" v="island" />
		<tag k="ssr:stedsnr" v="752868" />
	</node>
	<node lat="58.79188611217587" lon="9.097783340974624" id="-23677">
		<tag k="name" v="Stifosstranda" />
		<tag k="natural" v="beach" />
		<tag k="ssr:stedsnr" v="752955" />
	</node>
	<node lat="58.834921813112935" lon="9.026221202946855" id="-23685">
		<tag k="alt_name" v="Pøddetjenn" />
		<tag k="name" v="Poddetjern" />
		<tag k="natural" v="water" />
		<tag k="ssr:stedsnr" v="911081" />
	</node>
	<node lat="58.863436113696075" lon="8.988766659806133" id="-23687">
		<tag k="name" v="Egdelva" />
		<tag k="ssr:stedsnr" v="911157" />
		<tag k="waterway" v="river" />
	</node>
	<node lat="58.8710916639262" lon="9.094955560705698" id="-23688">
		<tag k="alt_name" v="Stemtjenn" />
		<tag k="name" v="Stemtjern" />
		<tag k="natural" v="water" />
		<tag k="ssr:stedsnr" v="911161" />
	</node>
	<node lat="58.85478333261915" lon="9.0726500028156" id="-23691">
		<tag k="alt_name" v="Gjerstadvannet" />
		<tag k="name" v="Gjerstadvatnet" />
		<tag k="natural" v="water" />
		<tag k="ssr:stedsnr" v="911199" />
		<tag k="water" v="lake" />
	</node>
	<node lat="58.94296111464326" lon="8.784269444457983" id="-23703">
		<tag k="alt_name" v="Solhomtjenn" />
		<tag k="name" v="Solhomtjerna" />
		<tag k="natural" v="water" />
		<tag k="ssr:stedsnr" v="789425" />
	</node>
	<node lat="58.945330387166905" lon="8.999363940448951" id="-23707">
		<tag k="alt_name" v="Jerpedalstjenn" />
		<tag k="name" v="Jerpedalstjerna" />
		<tag k="natural" v="water" />
		<tag k="ssr:stedsnr" v="789914" />
	</node>
	<node lat="58.94439166918856" lon="8.972638886099878" id="-23708">
		<tag k="alt_name" v="Brannstadtjenn" />
		<tag k="name" v="Brannstadtjern" />
		<tag k="natural" v="water" />
		<tag k="ssr:stedsnr" v="789915" />
	</node>
	<node lat="58.945361113036" lon="8.93743611945202" id="-23709">
		<tag k="name" v="Kubbekjerrhølen" />
		<tag k="place" v="locality" />
		<tag k="ssr:stedsnr" v="789917" />
	</node>
	<node lat="58.85029167116139" lon="9.013357884626586" id="-23711">
		<tag k="alt_name" v="Stemtjenn" />
		<tag k="name" v="Stemtjern" />
		<tag k="natural" v="water" />
		<tag k="ssr:stedsnr" v="790099" />
	</node>
	<node lat="58.87695833395812" lon="9.06990555208441" id="-23713">
		<tag k="alt_name" v="Trollvannet" />
		<tag k="name" v="Trollvatn" />
		<tag k="natural" v="water" />
		<tag k="ssr:stedsnr" v="790158" />
	</node>
	<node lat="58.950588884450596" lon="8.828211109996804" id="-23714">
		<tag k="alt_name" v="Øygardstjenna" />
		<tag k="name" v="Øygardstjørna" />
		<tag k="natural" v="water" />
		<tag k="ssr:stedsnr" v="911435" />
	</node>
	<node lat="58.89948333029684" lon="9.066033330409518" id="-23720">
		<tag k="name" v="Sigder" />
		<tag k="place" v="locality" />
		<tag k="ssr:stedsnr" v="790816" />
	</node>
	<node lat="58.967161109596816" lon="8.888705559464652" id="-23723">
		<tag k="alt_name" v="Maurbekktjenn" />
		<tag k="name" v="Maurbekktjern" />
		<tag k="natural" v="water" />
		<tag k="ssr:stedsnr" v="911864" />
	</node>
	<node lat="58.98423610975587" lon="8.918169450627017" id="-23724">
		<tag k="name" v="Sandvassbekken" />
		<tag k="ssr:stedsnr" v="911962" />
		<tag k="waterway" v="stream" />
	</node>
	<node lat="58.94221110686179" lon="8.8521777731664" id="-23727">
		<tag k="name" v="Finnslåtten" />
		<tag k="place" v="locality" />
		<tag k="ssr:stedsnr" v="911922" />
	</node>
	<node lat="58.92513055717348" lon="9.044652777672068" id="-23729">
		<tag k="alt_name" v="Kilbuvannet" />
		<tag k="name" v="Kilbuvatnet" />
		<tag k="natural" v="water" />
		<tag k="ssr:stedsnr" v="912871" />
		<tag k="water" v="lake" />
	</node>
	<node lat="58.85525555844387" lon="8.86373610371728" id="-23736">
		<tag k="name" v="Vindodden" />
		<tag k="natural" v="cape" />
		<tag k="ssr:stedsnr" v="813705" />
	</node>
	<node lat="58.845080556031476" lon="9.030947215789663" id="-23737">
		<tag k="name" v="Daldammen" />
		<tag k="ssr:stedsnr" v="813905" />
		<tag k="waterway" v="dam" />
	</node>
	<node lat="58.82811666488348" lon="8.966680549449048" id="-23739">
		<tag k="name" v="Prestekonetjennene" />
		<tag k="natural" v="water" />
		<tag k="ssr:stedsnr" v="813918" />
		<tag k="water" v="lake" />
	</node>
	<node lat="58.812683335905355" lon="9.141255562865602" id="-23747">
		<tag k="name" v="Flatstøa" />
		<tag k="natural" v="beach" />
		<tag k="ssr:stedsnr" v="813942" />
	</node>
	<node lat="58.88774166529458" lon="8.89925555693995" id="-23761">
		<tag k="alt_name" v="Kleivvannet" />
		<tag k="name" v="Kleivvatn" />
		<tag k="natural" v="water" />
		<tag k="ssr:stedsnr" v="850193" />
		<tag k="water" v="lake" />
	</node>
	<node lat="58.93206389022031" lon="8.957286105689814" id="-23764">
		<tag k="name" v="Meåna" />
		<tag k="place" v="locality" />
		<tag k="ssr:stedsnr" v="850833" />
	</node>
	<node lat="58.82681482704011" lon="9.153793217772137" id="-23768">
		<tag k="alt_name" v="Timmertjenn" />
		<tag k="name" v="Timmertjerna" />
		<tag k="natural" v="water" />
		<tag k="ssr:stedsnr" v="851032" />
	</node>
	<node lat="58.91055277451778" lon="8.841613881888996" id="-23771">
		<tag k="alt_name" v="Marksettjenn" />
		<tag k="name" v="Marksettjørna" />
		<tag k="natural" v="water" />
		<tag k="ssr:stedsnr" v="851475" />
	</node>
	<node lat="58.90630555352966" lon="9.072988885961552" id="-23772">
		<tag k="alt_name" v="Tryttjenn" />
		<tag k="name" v="Tryttjern" />
		<tag k="natural" v="water" />
		<tag k="ssr:stedsnr" v="851787" />
	</node>
	<node lat="58.94043333602773" lon="9.006602781069057" id="-23776">
		<tag k="alt_name" v="Fisketjenn" />
		<tag k="name" v="Fisketjern" />
		<tag k="natural" v="water" />
		<tag k="ssr:stedsnr" v="851826" />
	</node>
	<node lat="58.850366662777155" lon="8.91536666755749" id="-23778">
		<tag k="name" v="Smørtjenn" />
		<tag k="natural" v="water" />
		<tag k="ssr:stedsnr" v="934450" />
	</node>
	<node lat="58.899708337186816" lon="9.013641663971452" id="-23791">
		<tag k="name" v="Ambutjennbekken" />
		<tag k="ssr:stedsnr" v="934723" />
		<tag k="waterway" v="stream" />
	</node>
	<node lat="58.79884722157319" lon="9.039677773514146" id="-23810">
		<tag k="name" v="Raudtangen" />
		<tag k="natural" v="cape" />
		<tag k="ssr:stedsnr" v="934859" />
	</node>
	<node lat="58.84422499751685" lon="9.084266673153186" id="-23822">
		<tag k="name" v="Sunda" />
		<tag k="natural" v="strait" />
		<tag k="ssr:stedsnr" v="934971" />
	</node>
	<node lat="58.82097500256589" lon="9.006986116558936" id="-23831">
		<tag k="alt_name" v="Daltjenn" />
		<tag k="name" v="Bjortjern" />
		<tag k="natural" v="water" />
		<tag k="ssr:stedsnr" v="911053" />
	</node>
	<node lat="58.831588886004724" lon="9.182558335796996" id="-23833">
		<tag k="alt_name" v="Strattjerna" />
		<tag k="name" v="Stratstjenn" />
		<tag k="natural" v="water" />
		<tag k="ssr:stedsnr" v="911064" />
	</node>
	<node lat="58.88448888955148" lon="8.877319442190746" id="-23835">
		<tag k="alt_name" v="Lille Kleivvasstjenn" />
		<tag k="fixme" v="multiple name tags, choose one and add the other to alt_name" />
		<tag k="name" v="Lille Kleivvasstjern;Kattheitj" />
		<tag k="natural" v="water" />
		<tag k="ssr:stedsnr" v="911263" />
	</node>
	<node lat="58.87035555290617" lon="8.792863883740381" id="-23837">
		<tag k="name" v="Grasåsbekken" />
		<tag k="ssr:stedsnr" v="911707" />
		<tag k="waterway" v="stream" />
	</node>
	<node lat="58.89149999981939" lon="8.871049998408516" id="-23840">
		<tag k="alt_name" v="Skåptjenn" />
		<tag k="name" v="Skåptjern" />
		<tag k="natural" v="water" />
		<tag k="ssr:stedsnr" v="911816" />
	</node>
	<node lat="58.942758334421086" lon="8.942766663040514" id="-23841">
		<tag k="name" v="Fjosbuelva" />
		<tag k="ssr:stedsnr" v="911824" />
		<tag k="waterway" v="stream" />
	</node>
	<node lat="58.93109444842092" lon="9.00661110787552" id="-23842">
		<tag k="alt_name" v="Evjevannet" />
		<tag k="name" v="Evjevatn" />
		<tag k="natural" v="water" />
		<tag k="ssr:stedsnr" v="911834" />
		<tag k="water" v="lake" />
	</node>
	<node lat="58.90832222430541" lon="9.022566669686718" id="-23844">
		<tag k="name" v="Brekka" />
		<tag k="place" v="locality" />
		<tag k="ssr:stedsnr" v="912803" />
	</node>
	<node lat="58.922594440767746" lon="8.916805561394336" id="-23847">
		<tag k="name" v="Vinterstødammen" />
		<tag k="ssr:stedsnr" v="934522" />
		<tag k="waterway" v="dam" />
	</node>
	<node lat="58.920063888289654" lon="8.928752783035378" id="-23849">
		<tag k="name" v="Solemfossen" />
		<tag k="natural" v="waterfall" />
		<tag k="ssr:stedsnr" v="934549" />
	</node>
	<node lat="58.876777774824625" lon="8.939763887392202" id="-23853">
		<tag k="name" v="Skjertjenn" />
		<tag k="natural" v="water" />
		<tag k="ssr:stedsnr" v="934493" />
	</node>
	<node lat="58.87045277817891" lon="8.806047228176844" id="-23857">
		<tag k="name" v="Korttjenn" />
		<tag k="natural" v="water" />
		<tag k="ssr:stedsnr" v="934706" />
	</node>
	<node lat="58.827830552087946" lon="9.112502785347786" id="-23863">
		<tag k="name" v="Åslandstjenn" />
		<tag k="natural" v="water" />
		<tag k="ssr:stedsnr" v="934751" />
	</node>
	<node lat="58.84076388643524" lon="9.050738890595445" id="-23889">
		<tag k="alt_name" v="Fonetjern" />
		<tag k="name" v="Fonstjenn" />
		<tag k="natural" v="water" />
		<tag k="ssr:stedsnr" v="94" />
	</node>
	<node lat="58.86497778086771" lon="9.116352784049939" id="-23890">
		<tag k="name" v="Kalvvassbekken" />
		<tag k="ssr:stedsnr" v="175" />
		<tag k="waterway" v="stream" />
	</node>
	<node lat="58.86375278225735" lon="8.851452784261166" id="-23891">
		<tag k="alt_name" v="Urodden" />
		<tag k="name" v="Urdodden" />
		<tag k="natural" v="cape" />
		<tag k="ssr:stedsnr" v="182" />
	</node>
	<node lat="58.80749444423234" lon="9.098383331714231" id="-23894">
		<tag k="name" v="Øya" />
		<tag k="place" v="islet" />
		<tag k="ssr:stedsnr" v="475" />
	</node>
	<node lat="58.88222801392792" lon="9.099255897154961" id="-23896">
		<tag k="alt_name" v="Langtjenn" />
		<tag k="name" v="Langtjern" />
		<tag k="natural" v="water" />
		<tag k="ssr:stedsnr" v="239" />
	</node>
	<node lat="58.93074444025424" lon="8.861644438494741" id="-23898">
		<tag k="name" v="Ljådalslonene" />
		<tag k="place" v="locality" />
		<tag k="ssr:stedsnr" v="836" />
	</node>
	<node lat="58.87892777827576" lon="8.803166674978032" id="-23899">
		<tag k="alt_name" v="Grasåstjenn" />
		<tag k="name" v="Grasåstjørna" />
		<tag k="natural" v="water" />
		<tag k="ssr:stedsnr" v="699" />
	</node>
	<node lat="58.97015832990166" lon="8.85950278356656" id="-23903">
		<tag k="alt_name" v="Navasstjenn" />
		<tag k="name" v="Navasstjern" />
		<tag k="natural" v="water" />
		<tag k="ssr:stedsnr" v="880" />
	</node>
	<node lat="58.82718611386176" lon="9.170155547373056" id="-23912">
		<tag k="name" v="Plassodden" />
		<tag k="natural" v="cape" />
		<tag k="ssr:stedsnr" v="1078" />
	</node>
	<node lat="58.921447221467666" lon="8.920974995204135" id="-23914">
		<tag k="alt_name" v="Solemselva" />
		<tag k="name" v="Solemelva" />
		<tag k="ssr:stedsnr" v="1854" />
		<tag k="waterway" v="stream" />
	</node>
	<node lat="58.94755981862392" lon="8.859028428198878" id="-23915">
		<tag k="alt_name" v="Veholttjenn" />
		<tag k="name" v="Veholttjern" />
		<tag k="natural" v="water" />
		<tag k="ssr:stedsnr" v="1914" />
	</node>
	<node lat="58.98436389110883" lon="8.84958333072826" id="-23916">
		<tag k="alt_name" v="Haglåsbekken" />
		<tag k="name" v="Hagelåsbekken" />
		<tag k="ssr:stedsnr" v="1964" />
		<tag k="waterway" v="stream" />
	</node>
	<node lat="58.98477777426395" lon="8.881827780789429" id="-23917">
		<tag k="alt_name" v="Bjørkebuvannet" />
		<tag k="name" v="Bjørkebuvatnet" />
		<tag k="natural" v="water" />
		<tag k="ssr:stedsnr" v="1967" />
	</node>
	<node lat="58.990272328435466" lon="8.974498591716197" id="-23918">
		<tag k="alt_name" v="Mørketjenn" />
		<tag k="name" v="Mørktjern" />
		<tag k="natural" v="water" />
		<tag k="ssr:stedsnr" v="1971" />
	</node>
	<node lat="58.9363138915601" lon="8.799602785339776" id="-23922">
		<tag k="name" v="Fosslonfossen" />
		<tag k="natural" v="waterfall" />
		<tag k="ssr:stedsnr" v="24715" />
	</node>
	<node lat="58.879994443979626" lon="8.94186389224729" id="-23924">
		<tag k="name" v="Luttjennmyra" />
		<tag k="natural" v="water" />
		<tag k="ssr:stedsnr" v="24799" />
	</node>
	<node lat="58.906047222860934" lon="8.8310222160756" id="-23938">
		<tag k="name" v="Kabrettstedammen" />
		<tag k="ssr:stedsnr" v="24549" />
		<tag k="waterway" v="dam" />
	</node>
	<node lat="58.93069444663876" lon="8.847427778040133" id="-23940">
		<tag k="name" v="Smalsund" />
		<tag k="natural" v="strait" />
		<tag k="ssr:stedsnr" v="24560" />
	</node>
	<node lat="58.7869083291765" lon="9.053125008123319" id="-23949">
		<tag k="name" v="Buksetjenn" />
		<tag k="natural" v="water" />
		<tag k="ssr:stedsnr" v="24965" />
	</node>
	<node lat="58.97471388450914" lon="8.967099992770327" id="-23958">
		<tag k="name" v="Mellomtjenn" />
		<tag k="natural" v="water" />
		<tag k="ssr:stedsnr" v="24899" />
	</node>
	<node lat="58.87097500304425" lon="9.080363897154252" id="-23961">
		<tag k="alt_name" v="Rafstøltjern" />
		<tag k="name" v="Rafstøltjenn" />
		<tag k="natural" v="water" />
		<tag k="ssr:stedsnr" v="61147" />
	</node>
	<node lat="58.965763890017804" lon="8.89520277052846" id="-23968">
		<tag k="alt_name" v="Fjosbutjenn" />
		<tag k="name" v="Fjosbutjern" />
		<tag k="natural" v="water" />
		<tag k="ssr:stedsnr" v="61861" />
	</node>
	<node lat="58.81529444317889" lon="9.050544450285607" id="-23971">
		<tag k="alt_name" v="Barbuvannet" />
		<tag k="name" v="Barbuvatnet" />
		<tag k="natural" v="water" />
		<tag k="ssr:stedsnr" v="62025" />
	</node>
	<node lat="58.89718888684553" lon="9.069569439927294" id="-23978">
		<tag k="alt_name" v="Skuggetjenn" />
		<tag k="name" v="Skuggetjern" />
		<tag k="natural" v="water" />
		<tag k="ssr:stedsnr" v="62233" />
	</node>
	<node lat="58.77686667041325" lon="9.053994453018635" id="-23983">
		<tag k="name" v="Svarthusbukta" />
		<tag k="natural" v="bay" />
		<tag k="ssr:stedsnr" v="84242" />
	</node>
	<node lat="58.89815277579549" lon="8.902786106323203" id="-23990">
		<tag k="name" v="Ormtjenn" />
		<tag k="natural" v="water" />
		<tag k="ssr:stedsnr" v="84564" />
	</node>
	<node lat="58.929963891950855" lon="8.79506944736974" id="-23997">
		<tag k="name" v="Vehuselva" />
		<tag k="ssr:stedsnr" v="84722" />
		<tag k="waterway" v="river" />
	</node>
	<node lat="58.79739167087345" lon="9.108663894715072" id="-24009">
		<tag k="name" v="Lilløy" />
		<tag k="place" v="island" />
		<tag k="ssr:stedsnr" v="85940" />
	</node>
	<node lat="58.86850555623037" lon="8.983461105158828" id="-24023">
		<tag k="name" v="Lona" />
		<tag k="ssr:stedsnr" v="85735" />
		<tag k="waterway" v="stream" />
	</node>
	<node lat="58.892847224208026" lon="9.05588056027506" id="-24027">
		<tag k="name" v="Gunnustadfossen" />
		<tag k="natural" v="waterfall" />
		<tag k="ssr:stedsnr" v="85769" />
	</node>
	<node lat="58.92991944246281" lon="8.994724991736183" id="-24028">
		<tag k="name" v="Fisketjenn" />
		<tag k="natural" v="water" />
		<tag k="ssr:stedsnr" v="85808" />
	</node>
	<node lat="58.885022259132946" lon="9.0877461978664" id="-24037">
		<tag k="alt_name" v="Ulvstjenn" />
		<tag k="name" v="Ulvstjern" />
		<tag k="natural" v="water" />
		<tag k="ssr:stedsnr" v="122234" />
	</node>
	<node lat="58.87503055396589" lon="9.145277769660362" id="-24042">
		<tag k="alt_name" v="Kalvvatnet, østre" />
		<tag k="name" v="Østre Kalvvannet" />
		<tag k="natural" v="water" />
		<tag k="ssr:stedsnr" v="122198" />
		<tag k="water" v="lake" />
	</node>
	<node lat="58.93979166539986" lon="8.932927772548897" id="-24044">
		<tag k="alt_name" v="Kubbetjenn" />
		<tag k="name" v="Kubbetjern" />
		<tag k="natural" v="water" />
		<tag k="ssr:stedsnr" v="122815" />
	</node>
	<node lat="58.935994444220256" lon="9.013900005929393" id="-24045">
		<tag k="alt_name" v="Vondstitjenn" />
		<tag k="name" v="Vondstigtjerna" />
		<tag k="natural" v="water" />
		<tag k="ssr:stedsnr" v="122820" />
	</node>
	<node lat="58.92741944764043" lon="8.981980547655334" id="-24046">
		<tag k="name" v="Tvilandstjenn" />
		<tag k="natural" v="water" />
		<tag k="old_name" v="Trilandstjerna" />
		<tag k="ssr:stedsnr" v="122822" />
	</node>
	<node lat="58.80240555324237" lon="9.120050005147531" id="-24047">
		<tag k="alt_name" v="Lomstjenn" />
		<tag k="name" v="Lomtjerna" />
		<tag k="natural" v="water" />
		<tag k="ssr:stedsnr" v="122453" />
	</node>
	<node lat="58.80349722202811" lon="9.028686116627926" id="-24048">
		<tag k="alt_name" v="Urvannet" />
		<tag k="name" v="Urdvatn" />
		<tag k="natural" v="water" />
		<tag k="ssr:stedsnr" v="122459" />
		<tag k="water" v="lake" />
	</node>
	<node lat="58.95103055393204" lon="9.006374993374795" id="-24054">
		<tag k="alt_name" v="Orretjenn" />
		<tag k="name" v="Store Orretjern" />
		<tag k="natural" v="water" />
		<tag k="ssr:stedsnr" v="122909" />
	</node>
	<node lat="58.950644445640506" lon="9.00188610290355" id="-24055">
		<tag k="alt_name" v="Lille Orretj" />
		<tag k="name" v="Lille Orretjern" />
		<tag k="natural" v="water" />
		<tag k="ssr:stedsnr" v="122910" />
	</node>
	<node lat="58.92130278074402" lon="8.957127780520057" id="-24069">
		<tag k="name" v="Råna" />
		<tag k="place" v="locality" />
		<tag k="ssr:stedsnr" v="145866" />
	</node>
	<node lat="58.92169166749373" lon="8.97454721815421" id="-24072">
		<tag k="name" v="Eldstedtjenn" />
		<tag k="natural" v="water" />
		<tag k="ssr:stedsnr" v="145870" />
	</node>
	<node lat="58.80604721854286" lon="9.04626111365978" id="-24075">
		<tag k="name" v="Sevreisbukta" />
		<tag k="natural" v="bay" />
		<tag k="ssr:stedsnr" v="145877" />
	</node>
	<node lat="58.869597220103934" lon="9.003380562914701" id="-24083">
		<tag k="name" v="Trollbekk" />
		<tag k="ssr:stedsnr" v="145829" />
		<tag k="waterway" v="stream" />
	</node>
	<node lat="58.93560277554078" lon="8.95494999199298" id="-24089">
		<tag k="name" v="Kjeppfossene" />
		<tag k="natural" v="waterfall" />
		<tag k="ssr:stedsnr" v="145842" />
	</node>
	<node lat="58.89661666254302" lon="9.000958326091075" id="-24098">
		<tag k="name" v="Vrangfoss" />
		<tag k="natural" v="waterfall" />
		<tag k="ssr:stedsnr" v="145752" />
	</node>
	<node lat="58.82859444222153" lon="9.103377783993087" id="-24099">
		<tag k="name" v="Kjeholmen" />
		<tag k="place" v="islet" />
		<tag k="ssr:stedsnr" v="145753" />
	</node>
	<node lat="58.860347224805025" lon="9.010933335261065" id="-24105">
		<tag k="name" v="Spjøstjenn" />
		<tag k="natural" v="water" />
		<tag k="ssr:stedsnr" v="145917" />
	</node>
	<node lat="58.859027779181254" lon="8.987408335252429" id="-24110">
		<tag k="name" v="Neverhøl" />
		<tag k="place" v="locality" />
		<tag k="ssr:stedsnr" v="145929" />
	</node>
	<node lat="58.80883055946106" lon="9.138408328484493" id="-24112">
		<tag k="name" v="Storodden" />
		<tag k="natural" v="cape" />
		<tag k="ssr:stedsnr" v="145954" />
	</node>
	<node lat="58.88730000246273" lon="9.041824994856004" id="-24116">
		<tag k="name" v="Auslandselva" />
		<tag k="ssr:stedsnr" v="145986" />
		<tag k="waterway" v="river" />
	</node>
	<node lat="58.83721388697186" lon="8.949136108492564" id="-24127">
		<tag k="name" v="Pråmbukta" />
		<tag k="place" v="locality" />
		<tag k="ssr:stedsnr" v="182088" />
	</node>
	<node lat="58.840483334492035" lon="8.953238888455681" id="-24128">
		<tag k="alt_name" v="Storfisktjenn" />
		<tag k="name" v="Storfisktjerna" />
		<tag k="natural" v="water" />
		<tag k="ssr:stedsnr" v="182089" />
	</node>
	<node lat="58.96921944092566" lon="8.881108329475865" id="-24129">
		<tag k="name" v="Navasselva" />
		<tag k="ssr:stedsnr" v="182875" />
		<tag k="waterway" v="stream" />
	</node>
	<node lat="58.97321166980686" lon="8.983351719221192" id="-24132">
		<tag k="alt_name" v="Styggetjenn" />
		<tag k="name" v="Styggetjern" />
		<tag k="natural" v="water" />
		<tag k="ssr:stedsnr" v="182985" />
	</node>
	<node lat="58.972627773846575" lon="8.96236389422325" id="-24133">
		<tag k="alt_name" v="Vesterholttjenn" />
		<tag k="name" v="Vesterholttjern" />
		<tag k="natural" v="water" />
		<tag k="ssr:stedsnr" v="182986" />
	</node>
	<node lat="58.833669443521096" lon="8.939691670702835" id="-24135">
		<tag k="alt_name" v="Holmvannet" />
		<tag k="name" v="Holmvann" />
		<tag k="natural" v="water" />
		<tag k="ssr:stedsnr" v="183079" />
		<tag k="water" v="lake" />
	</node>
	<node lat="58.819914407021216" lon="9.138036072787443" id="-24137">
		<tag k="alt_name" v="Mjåvannet" />
		<tag k="name" v="Mjåvatnet" />
		<tag k="natural" v="water" />
		<tag k="ssr:stedsnr" v="183036" />
	</node>
	<node lat="58.856252780592996" lon="9.171808341861626" id="-24138">
		<tag k="alt_name" v="Rundtjenn" />
		<tag k="name" v="Rundtjerna" />
		<tag k="natural" v="water" />
		<tag k="ssr:stedsnr" v="183114" />
	</node>
	<node lat="58.854727780414905" lon="8.940569436229978" id="-24140">
		<tag k="name" v="Vestølelva" />
		<tag k="ssr:stedsnr" v="183128" />
		<tag k="waterway" v="stream" />
	</node>
	<node lat="58.86375555973843" lon="8.947144445345383" id="-24142">
		<tag k="alt_name" v="Meseltjørnane" />
		<tag k="name" v="Meseltjennene" />
		<tag k="natural" v="water" />
		<tag k="ssr:stedsnr" v="183132" />
		<tag k="water" v="lake" />
	</node>
	<node lat="58.8624741650742" lon="9.0265020492105" id="-24143">
		<tag k="alt_name" v="Torstjenn" />
		<tag k="name" v="Terstjern" />
		<tag k="natural" v="water" />
		<tag k="ssr:stedsnr" v="183133" />
	</node>
	<node lat="58.922522224463485" lon="8.962694447021766" id="-24147">
		<tag k="alt_name" v="Urvannet" />
		<tag k="name" v="Urdvatn" />
		<tag k="natural" v="water" />
		<tag k="ssr:stedsnr" v="183874" />
	</node>
	<node lat="58.941865482112846" lon="8.852609996887606" id="-24148">
		<tag k="alt_name" v="Gullknapptjenn" />
		<tag k="name" v="Gullknapptjern" />
		<tag k="natural" v="water" />
		<tag k="ssr:stedsnr" v="183930" />
	</node>
	<node lat="58.902547222585824" lon="9.08420278233124" id="-24154">
		<tag k="loc_name" v="Lille Nybutjenn" />
		<tag k="name" v="Lille Nybutjern" />
		<tag k="natural" v="water" />
		<tag k="ssr:stedsnr" v="184776" />
	</node>
	<node lat="58.83071269038624" lon="9.018552548944236" id="-24163">
		<tag k="name" v="Lonåstjennene" />
		<tag k="natural" v="water" />
		<tag k="ssr:stedsnr" v="206984" />
		<tag k="water" v="lake" />
	</node>
	<node lat="58.89842222180938" lon="8.83436388108372" id="-24165">
		<tag k="name" v="Sundet" />
		<tag k="natural" v="strait" />
		<tag k="ssr:stedsnr" v="206447" />
	</node>
	<node lat="58.921950001130035" lon="9.008288887554443" id="-24175">
		<tag k="name" v="Ulvstjenn" />
		<tag k="natural" v="water" />
		<tag k="ssr:stedsnr" v="206897" />
	</node>
	<node lat="58.8709055594236" lon="8.975172217600447" id="-24195">
		<tag k="name" v="Blandtjenn" />
		<tag k="natural" v="water" />
		<tag k="ssr:stedsnr" v="206767" />
		<tag k="water" v="pond" />
	</node>
	<node lat="58.93847221922913" lon="8.951305563847717" id="-24210">
		<tag k="name" v="Kjeppdammen" />
		<tag k="ssr:stedsnr" v="206830" />
		<tag k="waterway" v="dam" />
	</node>
	<node lat="58.816180553488906" lon="9.155372228924968" id="-24213">
		<tag k="name" v="Østre Svartøya" />
		<tag k="place" v="island" />
		<tag k="ssr:stedsnr" v="206952" />
	</node>
	<node lat="58.830266666381064" lon="9.121777784349415" id="-24231">
		<tag k="name" v="Åslandselva" />
		<tag k="ssr:stedsnr" v="304060" />
		<tag k="waterway" v="stream" />
	</node>
	<node lat="58.830869445973086" lon="8.996263887089867" id="-24233">
		<tag k="alt_name" v="Lyngåstjenn" />
		<tag k="name" v="Lyngåstjern" />
		<tag k="natural" v="water" />
		<tag k="ssr:stedsnr" v="304066" />
	</node>
	<node lat="58.81215277690944" lon="9.126902775138673" id="-24235">
		<tag k="alt_name" v="Ståltjerna" />
		<tag k="name" v="Ståltjenn" />
		<tag k="natural" v="water" />
		<tag k="ssr:stedsnr" v="304011" />
	</node>
	<node lat="58.85829721799103" lon="8.924702771088485" id="-24236">
		<tag k="alt_name" v="Besstjenn" />
		<tag k="name" v="Besstjern" />
		<tag k="natural" v="water" />
		<tag k="ssr:stedsnr" v="304134" />
	</node>
	<node lat="58.950755554161724" lon="8.808966661866737" id="-24241">
		<tag k="alt_name" v="Storrtjennene" />
		<tag k="name" v="Storrtjørnane" />
		<tag k="natural" v="water" />
		<tag k="ssr:stedsnr" v="304419" />
		<tag k="water" v="lake" />
	</node>
	<node lat="58.89525833044449" lon="8.835258330010635" id="-24242">
		<tag k="alt_name" v="Tjærehjelltjenn" />
		<tag k="name" v="Tjærehjelltjørna" />
		<tag k="natural" v="water" />
		<tag k="ssr:stedsnr" v="304436" />
	</node>
	<node lat="58.787497226233285" lon="9.0385388837674" id="-24244">
		<tag k="alt_name" v="Djuptjenn" />
		<tag k="name" v="Djuptjerna" />
		<tag k="natural" v="water" />
		<tag k="ssr:stedsnr" v="305489" />
	</node>
	<node lat="58.900544442471755" lon="9.079113881575372" id="-24245">
		<tag k="alt_name" v="Store Nybutjenn" />
		<tag k="name" v="Store Nybutjern" />
		<tag k="natural" v="water" />
		<tag k="ssr:stedsnr" v="305791" />
	</node>
	<node lat="58.95639722051904" lon="8.847691668442051" id="-24247">
		<tag k="alt_name" v="Den svarte tjenna" />
		<tag k="name" v="Den svarte tjerna" />
		<tag k="natural" v="water" />
		<tag k="ssr:stedsnr" v="304896" />
	</node>
	<node lat="58.93329722386794" lon="8.84675278103963" id="-24249">
		<tag k="name" v="Langkil" />
		<tag k="place" v="locality" />
		<tag k="ssr:stedsnr" v="304854" />
	</node>
	<node lat="58.92756389241676" lon="8.897027779377272" id="-24251">
		<tag k="alt_name" v="Skuggetjenn" />
		<tag k="name" v="Skuggetjern" />
		<tag k="natural" v="water" />
		<tag k="ssr:stedsnr" v="304863" />
	</node>
	<node lat="58.92151389258658" lon="8.918411116360502" id="-24252">
		<tag k="name" v="Bomhølen" />
		<tag k="place" v="locality" />
		<tag k="ssr:stedsnr" v="305853" />
	</node>
	<node lat="58.921150000832824" lon="8.91493888364419" id="-24253">
		<tag k="alt_name" v="Kvalptjenn" />
		<tag k="name" v="Kvalptjern" />
		<tag k="natural" v="water" />
		<tag k="ssr:stedsnr" v="305855" />
	</node>
	<node lat="58.915099996572394" lon="8.886286108705317" id="-24255">
		<tag k="alt_name" v="Styggetjenn" />
		<tag k="name" v="Styggetjern" />
		<tag k="natural" v="water" />
		<tag k="ssr:stedsnr" v="305871" />
	</node>
	<node lat="58.92272499742238" lon="8.908472214182632" id="-24257">
		<tag k="name" v="Solemdammen" />
		<tag k="ssr:stedsnr" v="327539" />
		<tag k="waterway" v="dam" />
	</node>
	<node lat="58.88219768002789" lon="8.942344875060634" id="-24276">
		<tag k="name" v="Fåtjenn" />
		<tag k="natural" v="water" />
		<tag k="ssr:stedsnr" v="327743" />
	</node>
	<node lat="58.87914166441682" lon="8.945519446341603" id="-24281">
		<tag k="name" v="Luttjenn" />
		<tag k="natural" v="water" />
		<tag k="ssr:stedsnr" v="327753" />
	</node>
	<node lat="58.87881666539926" lon="8.88199722322319" id="-24287">
		<tag k="name" v="Lille Steinvorstjenn" />
		<tag k="natural" v="water" />
		<tag k="ssr:stedsnr" v="327494" />
	</node>
	<node lat="58.94295395947941" lon="8.823648135951668" id="-24316">
		<tag k="alt_name" v="Stogreistjenn" />
		<tag k="name" v="Stogreistjern" />
		<tag k="natural" v="water" />
		<tag k="ssr:stedsnr" v="364858" />
	</node>
	<node lat="58.93843947878903" lon="8.793887259753024" id="-24323">
		<tag k="alt_name" v="Revtjenn" />
		<tag k="name" v="Revtjørna" />
		<tag k="natural" v="water" />
		<tag k="ssr:stedsnr" v="364427" />
	</node>
	<node lat="58.86970277784656" lon="8.812602770265421" id="-24324">
		<tag k="name" v="Langvatn" />
		<tag k="natural" v="water" />
		<tag k="ssr:stedsnr" v="364750" />
	</node>
	<node lat="58.98060833487983" lon="8.849672221792808" id="-24326">
		<tag k="name" v="Uvdalselva" />
		<tag k="ssr:stedsnr" v="364988" />
		<tag k="waterway" v="stream" />
	</node>
	<node lat="58.819236853597275" lon="9.127700509856473" id="-24330">
		<tag k="alt_name" v="Ørbelstøtjenna" />
		<tag k="name" v="Ørbrysteltjerna" />
		<tag k="natural" v="water" />
		<tag k="ssr:stedsnr" v="365040" />
	</node>
	<node lat="58.954800002933524" lon="8.8179222233552" id="-24333">
		<tag k="alt_name" v="Karistjørna, lille;Lille Karistjenn" />
		<tag k="name" v="Lille Karistjørna" />
		<tag k="natural" v="water" />
		<tag k="ssr:stedsnr" v="365336" />
	</node>
	<node lat="58.912013892939186" lon="8.916969437405621" id="-24337">
		<tag k="alt_name" v="Øygardstjenn" />
		<tag k="name" v="Øygardstjern" />
		<tag k="natural" v="water" />
		<tag k="ssr:stedsnr" v="365783" />
	</node>
	<node lat="58.92015833143748" lon="8.853813880297277" id="-24338">
		<tag k="alt_name" v="Måreistjenn" />
		<tag k="name" v="Måreistjern" />
		<tag k="natural" v="water" />
		<tag k="ssr:stedsnr" v="365866" />
	</node>
	<node lat="58.920347222333035" lon="8.885213881037329" id="-24339">
		<tag k="alt_name" v="Bjørntjenn" />
		<tag k="name" v="Bjørntjern" />
		<tag k="natural" v="water" />
		<tag k="ssr:stedsnr" v="365872" />
	</node>
	<node lat="58.78057500253078" lon="9.033436105787954" id="-24341">
		<tag k="alt_name" v="Lindtjerna" />
		<tag k="name" v="Lindtjenn" />
		<tag k="natural" v="water" />
		<tag k="ssr:stedsnr" v="366424" />
	</node>
	<node lat="58.90168055669489" lon="8.993399994066277" id="-24342">
		<tag k="alt_name" v="Hustjenn" />
		<tag k="name" v="Hustjern" />
		<tag k="natural" v="water" />
		<tag k="ssr:stedsnr" v="366758" />
	</node>
	<node lat="58.94200277888185" lon="8.945177778408894" id="-24347">
		<tag k="name" v="Kjeppåna" />
		<tag k="ssr:stedsnr" v="387833" />
		<tag k="waterway" v="river" />
	</node>
	<node lat="58.92396111249629" lon="9.027005557400033" id="-24351">
		<tag k="name" v="Igletjenn" />
		<tag k="natural" v="water" />
		<tag k="ssr:stedsnr" v="387888" />
	</node>
	<node lat="58.83658611482882" lon="9.159908329046251" id="-24359">
		<tag k="name" v="Elvekroken" />
		<tag k="ssr:stedsnr" v="388765" />
		<tag k="waterway" v="stream" />
	</node>
	<node lat="58.87324999566376" lon="8.971274993671052" id="-24361">
		<tag k="name" v="Stølstjenn" />
		<tag k="natural" v="water" />
		<tag k="ssr:stedsnr" v="388769" />
		<tag k="water" v="pond" />
	</node>
	<node lat="58.80022221920204" lon="9.048127783572557" id="-24368">
		<tag k="loc_name" v="Damtjerna" />
		<tag k="name" v="Damtjenn" />
		<tag k="natural" v="water" />
		<tag k="ssr:stedsnr" v="388864" />
	</node>
	<node lat="58.866729763986825" lon="9.109803971729889" id="-24388">
		<tag k="alt_name" v="Langtjenn" />
		<tag k="name" v="Langtjerna" />
		<tag k="natural" v="water" />
		<tag k="ssr:stedsnr" v="426165" />
	</node>
	<node lat="58.90144444510131" lon="8.887752779974285" id="-24390">
		<tag k="alt_name" v="Fjæringstjenn" />
		<tag k="name" v="Fjedingstjern" />
		<tag k="natural" v="water" />
		<tag k="ssr:stedsnr" v="427735" />
	</node>
	<node lat="58.86421111381402" lon="8.836177784453408" id="-24392">
		<tag k="name" v="Lortbekk" />
		<tag k="ssr:stedsnr" v="426749" />
		<tag k="waterway" v="stream" />
	</node>
	<node lat="58.946186054790225" lon="8.897224779770262" id="-24395">
		<tag k="alt_name" v="Dobbeltjenn" />
		<tag k="name" v="Dobbeltjern" />
		<tag k="natural" v="water" />
		<tag k="ssr:stedsnr" v="426919" />
	</node>
	<node lat="58.8763749979786" lon="9.041516673410623" id="-24400">
		<tag k="name" v="Småmyrtjenn" />
		<tag k="natural" v="water" />
		<tag k="ssr:stedsnr" v="509770" />
	</node>
	<node lat="58.8205583352835" lon="9.162344436934069" id="-24409">
		<tag k="name" v="Holmane" />
		<tag k="place" v="islet" />
		<tag k="ssr:stedsnr" v="509632" />
	</node>
	<node lat="58.88769444706215" lon="8.903919444011388" id="-24415">
		<tag k="name" v="Rekvika" />
		<tag k="natural" v="bay" />
		<tag k="ssr:stedsnr" v="509488" />
	</node>
	<node lat="58.785324997142226" lon="9.020463880241106" id="-24420">
		<tag k="name" v="Vestre Skorstølvannet" />
		<tag k="natural" v="water" />
		<tag k="ssr:stedsnr" v="509859" />
		<tag k="water" v="lake" />
	</node>
	<node lat="58.809777781995294" lon="9.105280554247894" id="-24426">
		<tag k="name" v="Timmerøya" />
		<tag k="place" v="island" />
		<tag k="ssr:stedsnr" v="509936" />
	</node>
	<node lat="58.79401389254972" lon="9.101211106649234" id="-24427">
		<tag k="name" v="Persbukt" />
		<tag k="natural" v="bay" />
		<tag k="ssr:stedsnr" v="509941" />
	</node>
	<node lat="58.935363891102234" lon="9.005027784405272" id="-24434">
		<tag k="name" v="Roa" />
		<tag k="natural" v="bay" />
		<tag k="ssr:stedsnr" v="509825" />
	</node>
	<node lat="58.868044447480514" lon="9.082322218813719" id="-24435">
		<tag k="name" v="Sandbekk" />
		<tag k="ssr:stedsnr" v="509828" />
		<tag k="waterway" v="stream" />
	</node>
	<node lat="58.924608330756605" lon="8.983400005283105" id="-24438">
		<tag k="name" v="Skuggetjenn" />
		<tag k="natural" v="water" />
		<tag k="ssr:stedsnr" v="509836" />
	</node>
	<node lat="58.977608332472954" lon="8.933274992302994" id="-24444">
		<tag k="name" v="Fisketjenndammen" />
		<tag k="ssr:stedsnr" v="510629" />
		<tag k="waterway" v="dam" />
	</node>
	<node lat="58.89053055607172" lon="8.956108331437996" id="-24452">
		<tag k="alt_name" v="Lillelv" />
		<tag k="name" v="Lillelva" />
		<tag k="ssr:stedsnr" v="546214" />
		<tag k="waterway" v="river" />
	</node>
	<node lat="58.861580552150336" lon="8.867205559803544" id="-24453">
		<tag k="name" v="Viksbukta" />
		<tag k="natural" v="bay" />
		<tag k="ssr:stedsnr" v="546167" />
	</node>
	<node lat="58.8596222178621" lon="9.15394166096754" id="-24462">
		<tag k="alt_name" v="Tufttjenn" />
		<tag k="name" v="Tofttjerna" />
		<tag k="natural" v="water" />
		<tag k="ssr:stedsnr" v="547139" />
	</node>
	<node lat="58.860055551335364" lon="9.081938897499368" id="-24464">
		<tag k="alt_name" v="Igletjenn" />
		<tag k="name" v="Igletjern" />
		<tag k="natural" v="water" />
		<tag k="ssr:stedsnr" v="547162" />
	</node>
	<node lat="58.91109444043709" lon="9.068294445305927" id="-24467">
		<tag k="name" v="Rossva" />
		<tag k="ssr:stedsnr" v="547788" />
		<tag k="waterway" v="stream" />
	</node>
	<node lat="58.92178333116607" lon="8.953636109651917" id="-24469">
		<tag k="alt_name" v="Lundevannet" />
		<tag k="name" v="Lundvatn" />
		<tag k="natural" v="water" />
		<tag k="ssr:stedsnr" v="547891" />
	</node>
	<node lat="58.87987222447461" lon="8.882458328827001" id="-24476">
		<tag k="name" v="Steinvorstjenn" />
		<tag k="natural" v="water" />
		<tag k="ssr:stedsnr" v="569532" />
	</node>
	<node lat="58.86598610840372" lon="8.84283889157144" id="-24478">
		<tag k="name" v="Lortbekk" />
		<tag k="ssr:stedsnr" v="569549" />
		<tag k="waterway" v="stream" />
	</node>
	<node lat="58.822100000905884" lon="9.150541664102679" id="-24486">
		<tag k="name" v="Mjåvasskilen" />
		<tag k="natural" v="bay" />
		<tag k="ssr:stedsnr" v="570778" />
	</node>
	<node lat="58.867222220184516" lon="9.033033339703989" id="-24487">
		<tag k="name" v="Skuggevik" />
		<tag k="natural" v="bay" />
		<tag k="ssr:stedsnr" v="570781" />
	</node>
	<node lat="58.871605558847506" lon="8.958336106731162" id="-24490">
		<tag k="name" v="Sekkanbekken" />
		<tag k="ssr:stedsnr" v="570785" />
		<tag k="waterway" v="stream" />
	</node>
	<node lat="58.8881777806706" lon="9.029230561153396" id="-24494">
		<tag k="name" v="Sandåkerfossen" />
		<tag k="natural" v="waterfall" />
		<tag k="ssr:stedsnr" v="570732" />
	</node>
	<node lat="58.83449166630965" lon="9.06670832556795" id="-24496">
		<tag k="name" v="Tvielva" />
		<tag k="ssr:stedsnr" v="570737" />
		<tag k="waterway" v="stream" />
	</node>
	<node lat="58.91314722394426" lon="8.979708326592545" id="-24501">
		<tag k="name" v="Kropptjenn" />
		<tag k="natural" v="water" />
		<tag k="ssr:stedsnr" v="570863" />
	</node>
	<node lat="58.80385833326449" lon="8.996525000293836" id="-24503">
		<tag k="name" v="Skrefjellbekken" />
		<tag k="ssr:stedsnr" v="570873" />
		<tag k="waterway" v="stream" />
	</node>
	<node lat="58.84180555338102" lon="9.013127781821437" id="-24509">
		<tag k="name" v="Fjøstjenn" />
		<tag k="natural" v="water" />
		<tag k="ssr:stedsnr" v="570929" />
	</node>
	<node lat="58.82832499997013" lon="9.158569439852428" id="-24512">
		<tag k="alt_name" v="Nykktjenn" />
		<tag k="name" v="Nykktjerna" />
		<tag k="natural" v="water" />
		<tag k="ssr:stedsnr" v="607061" />
	</node>
	<node lat="58.832328710535606" lon="9.151531100379287" id="-24513">
		<tag k="alt_name" v="Nybutjennene" />
		<tag k="name" v="Nybutjørnane" />
		<tag k="natural" v="water" />
		<tag k="ssr:stedsnr" v="607062" />
		<tag k="water" v="lake" />
	</node>
	<node lat="58.83185833185331" lon="9.131477784729428" id="-24514">
		<tag k="alt_name" v="Langtjenn" />
		<tag k="name" v="Langtjerna" />
		<tag k="natural" v="water" />
		<tag k="ssr:stedsnr" v="607065" />
	</node>
	<node lat="58.842486896371526" lon="8.99773315127456" id="-24518">
		<tag k="alt_name" v="Stuptjenn" />
		<tag k="name" v="Stuptjern" />
		<tag k="natural" v="water" />
		<tag k="ssr:stedsnr" v="607089" />
	</node>
	<node lat="58.8886020800406" lon="9.121151829233696" id="-24528">
		<tag k="alt_name" v="Solemtjenn" />
		<tag k="name" v="Solemtjern" />
		<tag k="natural" v="water" />
		<tag k="ssr:stedsnr" v="607239" />
	</node>
	<node lat="58.94516388810456" lon="9.010202779834527" id="-24531">
		<tag k="alt_name" v="Sandtjenn" />
		<tag k="name" v="Sandtjern" />
		<tag k="natural" v="water" />
		<tag k="ssr:stedsnr" v="607921" />
	</node>
	<node lat="58.94299870135183" lon="8.874874795618101" id="-24533">
		<tag k="alt_name" v="Rumpetjenn" />
		<tag k="name" v="Rumpetjern" />
		<tag k="natural" v="water" />
		<tag k="ssr:stedsnr" v="607924" />
	</node>
	<node lat="58.809319441494424" lon="9.09928332925692" id="-24534">
		<tag k="alt_name" v="Midtvannet" />
		<tag k="name" v="Midtvatnet" />
		<tag k="natural" v="water" />
		<tag k="ssr:stedsnr" v="607472" />
	</node>
	<node lat="58.80709166839001" lon="9.037775006029127" id="-24536">
		<tag k="alt_name" v="Urvassbekken" />
		<tag k="name" v="Urdvassbekken" />
		<tag k="ssr:stedsnr" v="607479" />
		<tag k="waterway" v="stream" />
	</node>
	<node lat="58.93401666655489" lon="8.862013889196382" id="-24537">
		<tag k="alt_name" v="Kjellingtjenn" />
		<tag k="name" v="Kjellingtjern" />
		<tag k="natural" v="water" />
		<tag k="ssr:stedsnr" v="607831" />
	</node>
	<node lat="58.79136069637782" lon="9.057317817026664" id="-24540">
		<tag k="alt_name" v="Langtjenn" />
		<tag k="name" v="Langtjerna" />
		<tag k="natural" v="water" />
		<tag k="ssr:stedsnr" v="608527" />
	</node>
	<node lat="58.8000583289596" lon="9.063272227203795" id="-24541">
		<tag k="name" v="Haugelva" />
		<tag k="ssr:stedsnr" v="608533" />
		<tag k="waterway" v="stream" />
	</node>
	<node lat="58.79175611422488" lon="9.016659403972303" id="-24542">
		<tag k="alt_name" v="Høglitjennene" />
		<tag k="name" v="Høglitjørnane" />
		<tag k="natural" v="water" />
		<tag k="ssr:stedsnr" v="608537" />
		<tag k="water" v="lake" />
	</node>
	<node lat="58.87692777888312" lon="8.908563882106419" id="-24565">
		<tag k="name" v="Grautpytt" />
		<tag k="natural" v="water" />
		<tag k="ssr:stedsnr" v="630481" />
		<tag k="water" v="pond" />
	</node>
	<node lat="58.880494445541906" lon="9.032369440361327" id="-24573">
		<tag k="name" v="Holmane" />
		<tag k="place" v="islet" />
		<tag k="ssr:stedsnr" v="630769" />
	</node>
	<node lat="58.96008611464058" lon="8.913141666107919" id="-24589">
		<tag k="name" v="Svarthøldammen" />
		<tag k="ssr:stedsnr" v="631572" />
		<tag k="waterway" v="dam" />
	</node>
	<node lat="58.93513611069683" lon="8.802736114020334" id="-24599">
		<tag k="name" v="Fosslona" />
		<tag k="natural" v="water" />
		<tag k="ssr:stedsnr" v="668439" />
	</node>
	<node lat="58.8291805588913" lon="9.170372226564336" id="-24602">
		<tag k="name" v="Lillesvart" />
		<tag k="natural" v="water" />
		<tag k="ssr:stedsnr" v="668057" />
	</node>
	<node lat="58.82902222278043" lon="9.06387499311521" id="-24604">
		<tag k="alt_name" v="Grytingtjenn" />
		<tag k="name" v="Grytingtjern" />
		<tag k="natural" v="water" />
		<tag k="ssr:stedsnr" v="668064" />
	</node>
	<node lat="58.83825277575519" lon="9.169455552064408" id="-24606">
		<tag k="alt_name" v="Øygardstjenna" />
		<tag k="name" v="Øygardstjerna" />
		<tag k="natural" v="water" />
		<tag k="ssr:stedsnr" v="668076" />
	</node>
	<node lat="58.84148333563188" lon="9.136030561445084" id="-24607">
		<tag k="alt_name" v="Rødsøygardstjenn" />
		<tag k="name" v="Rødsøygardstjerna" />
		<tag k="natural" v="water" />
		<tag k="ssr:stedsnr" v="668078" />
	</node>
	<node lat="58.84519638489863" lon="9.130266628661103" id="-24610">
		<tag k="alt_name" v="Klovtjenn" />
		<tag k="name" v="Klovtjerna" />
		<tag k="natural" v="water" />
		<tag k="ssr:stedsnr" v="668108" />
	</node>
	<node lat="58.86390555454776" lon="9.151411107630622" id="-24611">
		<tag k="alt_name" v="Svarttjenn" />
		<tag k="name" v="Svarttjerna" />
		<tag k="natural" v="water" />
		<tag k="ssr:stedsnr" v="668172" />
	</node>
	<node lat="58.872324997391665" lon="8.924147215284428" id="-24615">
		<tag k="alt_name" v="Tegårsvannet" />
		<tag k="name" v="Tegardsvatn" />
		<tag k="natural" v="water" />
		<tag k="ssr:stedsnr" v="668227" />
	</node>
	<node lat="58.85996516332038" lon="9.136715665061892" id="-24618">
		<tag k="alt_name" v="Øygardstjennene;Øygardstjenn" />
		<tag k="name" v="Øygardstjørnane" />
		<tag k="natural" v="water" />
		<tag k="ssr:stedsnr" v="668120" />
		<tag k="water" v="lake" />
	</node>
	<node lat="58.98077499812998" lon="8.926455550681563" id="-24620">
		<tag k="alt_name" v="Fisketjenn" />
		<tag k="name" v="Fisketjern" />
		<tag k="natural" v="water" />
		<tag k="ssr:stedsnr" v="668967" />
	</node>
	<node lat="58.915372224964635" lon="9.01060555341938" id="-24624">
		<tag k="alt_name" v="Raundalstjenn" />
		<tag k="name" v="Raundalstjern" />
		<tag k="natural" v="water" />
		<tag k="ssr:stedsnr" v="669754" />
	</node>
	<node lat="58.862272225237234" lon="8.895197216570534" id="-24632">
		<tag k="alt_name" v="Plenttjenn" />
		<tag k="name" v="Plentetjern" />
		<tag k="natural" v="water" />
		<tag k="ssr:stedsnr" v="729139" />
	</node>
	<node lat="58.92588333139537" lon="8.823519443107507" id="-24641">
		<tag k="alt_name" v="Fisketjenn" />
		<tag k="name" v="Fisktjerna" />
		<tag k="natural" v="water" />
		<tag k="ssr:stedsnr" v="729390" />
	</node>
	<node lat="58.89143611217698" lon="8.839172215513297" id="-24642">
		<tag k="alt_name" v="Kverntjenn" />
		<tag k="name" v="Kverntjørna" />
		<tag k="natural" v="water" />
		<tag k="ssr:stedsnr" v="729446" />
	</node>
	<node lat="58.90132500029768" lon="8.829986104612823" id="-24647">
		<tag k="name" v="Roa" />
		<tag k="natural" v="bay" />
		<tag k="ssr:stedsnr" v="752449" />
	</node>
	<node lat="58.954136107932506" lon="8.919694443479695" id="-24649">
		<tag k="name" v="Fjosbufossen" />
		<tag k="natural" v="waterfall" />
		<tag k="ssr:stedsnr" v="752542" />
	</node>
	<node lat="58.94867222265131" lon="8.791150001117146" id="-24657">
		<tag k="name" v="Maristjenn" />
		<tag k="natural" v="water" />
		<tag k="ssr:stedsnr" v="752677" />
	</node>
	<node lat="58.884658336688325" lon="9.073302774373051" id="-24665">
		<tag k="name" v="Langstebekken" />
		<tag k="ssr:stedsnr" v="752799" />
		<tag k="waterway" v="stream" />
	</node>
	<node lat="58.8709138914591" lon="9.066583334132622" id="-24681">
		<tag k="name" v="Rosstjenn" />
		<tag k="natural" v="water" />
		<tag k="ssr:stedsnr" v="752838" />
	</node>
	<node lat="58.87967222396418" lon="9.067327778530546" id="-24682">
		<tag k="name" v="Trollfoss" />
		<tag k="natural" v="waterfall" />
		<tag k="ssr:stedsnr" v="752839" />
	</node>
	<node lat="58.83334722303773" lon="9.010027770659146" id="-24692">
		<tag k="name" v="Tverrlona" />
		<tag k="natural" v="water" />
		<tag k="ssr:stedsnr" v="752977" />
		<tag k="water" v="lake" />
	</node>
	<node lat="58.88954444465787" lon="9.05002777778378" id="-24696">
		<tag k="name" v="Katthølen" />
		<tag k="place" v="locality" />
		<tag k="ssr:stedsnr" v="752989" />
	</node>
	<node lat="58.83547499566558" lon="8.952986116631623" id="-24701">
		<tag k="name" v="Falkåstjenn" />
		<tag k="natural" v="water" />
		<tag k="ssr:stedsnr" v="752947" />
	</node>
	<node lat="58.79575555856717" lon="9.100588894090086" id="-24702">
		<tag k="name" v="Huldrebukta" />
		<tag k="natural" v="bay" />
		<tag k="ssr:stedsnr" v="752949" />
	</node>
	<node lat="58.8814861132485" lon="8.952066664310218" id="-24710">
		<tag k="alt_name" v="Koltjenn" />
		<tag k="name" v="Koltjern" />
		<tag k="natural" v="water" />
		<tag k="ssr:stedsnr" v="789233" />
	</node>
	<node lat="58.8822527779437" lon="8.878694442926149" id="-24711">
		<tag k="alt_name" v="Kattheitjenn" />
		<tag k="name" v="Kattheitjern" />
		<tag k="natural" v="water" />
		<tag k="ssr:stedsnr" v="789249" />
	</node>
	<node lat="58.82391389018342" lon="9.058733340259655" id="-24712">
		<tag k="alt_name" v="Langtjenn" />
		<tag k="name" v="Langtjern" />
		<tag k="natural" v="water" />
		<tag k="ssr:stedsnr" v="789033" />
	</node>
	<node lat="58.836866670792354" lon="8.998552781368804" id="-24716">
		<tag k="name" v="Baunkjerrbekken" />
		<tag k="ssr:stedsnr" v="789092" />
		<tag k="waterway" v="stream" />
	</node>
	<node lat="58.865386141636336" lon="9.065267522227725" id="-24718">
		<tag k="alt_name" v="Småtjern" />
		<tag k="name" v="Småtjennene" />
		<tag k="natural" v="water" />
		<tag k="ssr:stedsnr" v="789166" />
		<tag k="water" v="lake" />
	</node>
	<node lat="58.86076388915823" lon="8.857072220413805" id="-24719">
		<tag k="name" v="Sundodden" />
		<tag k="natural" v="cape" />
		<tag k="ssr:stedsnr" v="789179" />
	</node>
	<node lat="58.867702776622686" lon="8.918750004077431" id="-24720">
		<tag k="alt_name" v="Vrangtjenn" />
		<tag k="name" v="Vrangtjern" />
		<tag k="natural" v="water" />
		<tag k="ssr:stedsnr" v="789194" />
	</node>
	<node lat="58.9518888868373" lon="8.854849995034284" id="-24726">
		<tag k="alt_name" v="Storrtjenn" />
		<tag k="name" v="Storrtjern" />
		<tag k="natural" v="water" />
		<tag k="ssr:stedsnr" v="789924" />
	</node>
	<node lat="58.92419721859361" lon="9.00194166109508" id="-24730">
		<tag k="alt_name" v="Vondtjenn" />
		<tag k="name" v="Vondtjern" />
		<tag k="natural" v="water" />
		<tag k="ssr:stedsnr" v="790888" />
	</node>
	<node lat="58.98858520167278" lon="8.992260992557233" id="-24731">
		<tag k="name" v="Bjynnustadvannet" />
		<tag k="natural" v="water" />
		<tag k="ssr:stedsnr" v="790967" />
		<tag k="water" v="lake" />
	</node>
	<node lat="58.917433334192026" lon="8.916391662575478" id="-24733">
		<tag k="name" v="Mjåvassbekken" />
		<tag k="ssr:stedsnr" v="790782" />
		<tag k="waterway" v="stream" />
	</node>
	<node lat="58.911158337616676" lon="8.879322223817361" id="-24734">
		<tag k="alt_name" v="Gjøstjenn" />
		<tag k="name" v="Gjøstjern" />
		<tag k="natural" v="water" />
		<tag k="ssr:stedsnr" v="790783" />
	</node>
	<node lat="58.91399999778612" lon="8.925350000141105" id="-24735">
		<tag k="alt_name" v="Bråkolltjenn" />
		<tag k="name" v="Bråkåltjern" />
		<tag k="natural" v="water" />
		<tag k="ssr:stedsnr" v="790784" />
	</node>
	<node lat="58.90341389288826" lon="8.922741672566547" id="-24736">
		<tag k="alt_name" v="Stølstjenn" />
		<tag k="name" v="Stølstjern" />
		<tag k="natural" v="water" />
		<tag k="ssr:stedsnr" v="790788" />
	</node>
	<node lat="58.937411109796386" lon="8.920736117544001" id="-24737">
		<tag k="alt_name" v="Holtjenn" />
		<tag k="name" v="Holtjern" />
		<tag k="natural" v="water" />
		<tag k="ssr:stedsnr" v="790838" />
	</node>
	<node lat="58.943097226705525" lon="9.016819448361968" id="-24738">
		<tag k="alt_name" v="Øygardsrødtjenn" />
		<tag k="name" v="Øygardstjerna" />
		<tag k="natural" v="water" />
		<tag k="ssr:stedsnr" v="790839" />
	</node>
	<node lat="58.858825000955086" lon="8.846394447046459" id="-24744">
		<tag k="name" v="Sundbekk" />
		<tag k="ssr:stedsnr" v="813442" />
		<tag k="waterway" v="stream" />
	</node>
	<node lat="58.88257221955192" lon="8.935961110207545" id="-24745">
		<tag k="name" v="Myklandstjenn" />
		<tag k="natural" v="water" />
		<tag k="ssr:stedsnr" v="813460" />
	</node>
	<node lat="58.87802499995592" lon="8.858047220682884" id="-24747">
		<tag k="name" v="Grisbekk" />
		<tag k="ssr:stedsnr" v="813466" />
		<tag k="waterway" v="stream" />
	</node>
	<node lat="58.846283329001096" lon="9.085391669794772" id="-24754">
		<tag k="name" v="Sundsfoss" />
		<tag k="natural" v="waterfall" />
		<tag k="ssr:stedsnr" v="813968" />
	</node>
	<node lat="58.98413611258727" lon="8.916694445762818" id="-24761">
		<tag k="name" v="Sandtjennbekken" />
		<tag k="ssr:stedsnr" v="813573" />
		<tag k="waterway" v="stream" />
	</node>
	<node lat="58.98280833575489" lon="8.900574994057974" id="-24762">
		<tag k="name" v="Bjørkebuvassbekken" />
		<tag k="ssr:stedsnr" v="813574" />
		<tag k="waterway" v="stream" />
	</node>
	<node lat="58.921291670651435" lon="8.827394438349154" id="-24763">
		<tag k="name" v="Høydalsbekken" />
		<tag k="ssr:stedsnr" v="813716" />
		<tag k="waterway" v="stream" />
	</node>
	<node lat="58.87159721874987" lon="8.797333339394003" id="-24764">
		<tag k="name" v="Skjengstjenn" />
		<tag k="natural" v="water" />
		<tag k="ssr:stedsnr" v="813723" />
	</node>
	<node lat="58.88074722026966" lon="8.813602771705137" id="-24766">
		<tag k="name" v="Østre Grasåstjenn" />
		<tag k="natural" v="water" />
		<tag k="ssr:stedsnr" v="813734" />
	</node>
	<node lat="58.89089999723153" lon="9.031994442778048" id="-24772">
		<tag k="name" v="Auslandsbekken" />
		<tag k="ssr:stedsnr" v="813750" />
		<tag k="waterway" v="stream" />
	</node>
	<node lat="58.879325000409686" lon="9.078811118295445" id="-24789">
		<tag k="name" v="Svarttjenn" />
		<tag k="natural" v="water" />
		<tag k="ssr:stedsnr" v="813841" />
	</node>
	<node lat="58.94290683294996" lon="8.823466942902481" id="-24800">
		<tag k="alt_name" v="Stemtjenn" />
		<tag k="name" v="Stemtjerna" />
		<tag k="natural" v="water" />
		<tag k="ssr:stedsnr" v="850443" />
	</node>
	<node lat="58.828640969179126" lon="9.144451129994646" id="-24805">
		<tag k="alt_name" v="Gunnarstjenn" />
		<tag k="name" v="Gunnarstjerna" />
		<tag k="natural" v="water" />
		<tag k="ssr:stedsnr" v="850063" />
	</node>
	<node lat="58.86233333169789" lon="9.050669444264349" id="-24808">
		<tag k="name" v="Nessundet" />
		<tag k="natural" v="strait" />
		<tag k="ssr:stedsnr" v="850156" />
	</node>
	<node lat="58.80120277376448" lon="9.042311109503856" id="-24813">
		<tag k="alt_name" v="Østre Skorstølvannet" />
		<tag k="name" v="Skorstølvatnet" />
		<tag k="natural" v="water" />
		<tag k="ssr:stedsnr" v="850490" />
		<tag k="water" v="lake" />
	</node>
	<node lat="58.904325003908916" lon="8.83634444039967" id="-24814">
		<tag k="alt_name" v="Langtjenn" />
		<tag k="name" v="Langtjørna" />
		<tag k="natural" v="water" />
		<tag k="ssr:stedsnr" v="851426" />
	</node>
	<node lat="58.805463890940885" lon="9.127597230730604" id="-24815">
		<tag k="alt_name" v="Røyvannet" />
		<tag k="name" v="Røyvatnet" />
		<tag k="natural" v="water" />
		<tag k="ssr:stedsnr" v="851457" />
	</node>
	<node lat="58.910919441644296" lon="8.891830552368381" id="-24822">
		<tag k="alt_name" v="Foletjenn" />
		<tag k="name" v="Foletjern" />
		<tag k="natural" v="water" />
		<tag k="ssr:stedsnr" v="851754" />
	</node>
	<node lat="58.908880556781185" lon="8.895116662815392" id="-24823">
		<tag k="alt_name" v="Vrangvannet" />
		<tag k="name" v="Vrangvatn" />
		<tag k="natural" v="water" />
		<tag k="ssr:stedsnr" v="851755" />
	</node>
	<node lat="58.78483657626892" lon="9.016939153346616" id="-24831">
		<tag k="name" v="Brentebergtjenn" />
		<tag k="natural" v="water" />
		<tag k="ssr:stedsnr" v="873255" />
	</node>
	<node lat="58.86483055759338" lon="8.863022230585917" id="-24837">
		<tag k="name" v="Eldstøbekken" />
		<tag k="ssr:stedsnr" v="873523" />
		<tag k="waterway" v="stream" />
	</node>
	<node lat="58.90936944148524" lon="8.844936114153418" id="-24839">
		<tag k="name" v="Sautangen" />
		<tag k="natural" v="cape" />
		<tag k="ssr:stedsnr" v="873540" />
	</node>
	<node lat="58.934127780600136" lon="8.841466665455608" id="-24841">
		<tag k="name" v="Heilandsdammen" />
		<tag k="ssr:stedsnr" v="873545" />
		<tag k="waterway" v="dam" />
	</node>
	<node lat="58.97015555150824" lon="8.87455833771326" id="-24844">
		<tag k="name" v="Navassdammen" />
		<tag k="ssr:stedsnr" v="873572" />
		<tag k="waterway" v="dam" />
	</node>
	<node lat="58.85307221947121" lon="9.18791389708359" id="-24846">
		<tag k="alt_name" v="Trollvannet" />
		<tag k="name" v="Trollvann" />
		<tag k="natural" v="water" />
		<tag k="ssr:stedsnr" v="873597" />
		<tag k="water" v="lake" />
	</node>
	<node lat="58.92981666862072" lon="8.873272214066647" id="-24852">
		<tag k="name" v="Sandvadhølen" />
		<tag k="natural" v="water" />
		<tag k="ssr:stedsnr" v="873551" />
		<tag k="water" v="pond" />
	</node>
	<node lat="58.832911109270846" lon="9.164708334796092" id="-24857">
		<tag k="name" v="Damhølen" />
		<tag k="place" v="locality" />
		<tag k="ssr:stedsnr" v="873630" />
	</node>
	<node lat="58.93019722155197" lon="9.010611106822031" id="-24875">
		<tag k="name" v="Kreklingøya" />
		<tag k="place" v="islet" />
		<tag k="ssr:stedsnr" v="873837" />
	</node>
	<node lat="58.90736944130314" lon="8.968188889836009" id="-24883">
		<tag k="name" v="Sagfossen" />
		<tag k="natural" v="waterfall" />
		<tag k="ssr:stedsnr" v="873859" />
	</node>
	<node lat="58.805288892916174" lon="9.043694451240949" id="-24888">
		<tag k="name" v="Sevreisstranda" />
		<tag k="natural" v="beach" />
		<tag k="ssr:stedsnr" v="873868" />
	</node>
	<node lat="58.85849166462807" lon="8.969052779099007" id="-24893">
		<tag k="name" v="Kutangen" />
		<tag k="place" v="islet" />
		<tag k="ssr:stedsnr" v="873898" />
	</node>
	<node lat="58.803333335665634" lon="9.106011108676599" id="-24904">
		<tag k="name" v="Båtstø" />
		<tag k="natural" v="beach" />
		<tag k="ssr:stedsnr" v="873942" />
	</node>
	<node lat="58.79956666852558" lon="9.105991661371139" id="-24905">
		<tag k="name" v="Myrstø" />
		<tag k="natural" v="beach" />
		<tag k="ssr:stedsnr" v="873945" />
	</node>
	<node lat="58.8994472178947" lon="8.977838890976985" id="-24912">
		<tag k="name" v="Åsbaktjenn" />
		<tag k="natural" v="water" />
		<tag k="ssr:stedsnr" v="873999" />
	</node>
</osm>
