<?xml version="1.0" encoding="UTF-8"?>
<osm version="0.6" generator="osmapis">
	<node lat="58.82868888744555" lon="9.023447217611993" id="-28066">
		<tag k="name" v="Småkjerra" />
		<tag k="place" v="isolated_dwelling" />
		<tag k="ssr:stedsnr" v="72" />
	</node>
	<node lat="58.90154722590487" lon="9.012658325499169" id="-28081">
		<tag k="alt_name" v="Åsvang" />
		<tag k="name" v="Osvang" />
		<tag k="place" v="farm" />
		<tag k="ssr:stedsnr" v="2778" />
	</node>
	<node lat="58.85863333551621" lon="8.915591660818086" id="-28086">
		<tag k="name" v="Jørenshaug" />
		<tag k="place" v="farm" />
		<tag k="ssr:stedsnr" v="24486" />
	</node>
	<node lat="58.88166666913999" lon="9.011086117018316" id="-28099">
		<tag k="name" v="Stemkjær" />
		<tag k="place" v="farm" />
		<tag k="ssr:stedsnr" v="24829" />
	</node>
	<node lat="58.879813892539495" lon="9.021213881152908" id="-28100">
		<tag k="fixme" v="consider place=hamlet" />
		<tag k="name" v="Gjerstad prestegard" />
		<tag k="place" v="farm" />
		<tag k="ssr:stedsnr" v="24830" />
	</node>
	<node lat="58.95828333556633" lon="8.96121944094789" id="-28103">
		<tag k="name" v="Nediøygard" />
		<tag k="place" v="isolated_dwelling" />
		<tag k="ssr:stedsnr" v="24909" />
	</node>
	<node lat="58.80609444589179" lon="9.10733054896117" id="-28116">
		<tag k="name" v="Fossen" />
		<tag k="place" v="farm" />
		<tag k="ssr:stedsnr" v="24942" />
	</node>
	<node lat="58.81830277989293" lon="9.07007221462876" id="-28129">
		<tag k="alt_name" v="Nybø" />
		<tag k="name" v="Nybøen" />
		<tag k="place" v="farm" />
		<tag k="ssr:stedsnr" v="61031" />
	</node>
	<node lat="58.8880500019087" lon="9.018597230635374" id="-28130">
		<tag k="fixme" v="consider place=hamlet" />
		<tag k="name" v="Lunde" />
		<tag k="place" v="farm" />
		<tag k="ssr:stedsnr" v="61211" />
	</node>
	<node lat="58.88692499814472" lon="9.05895000290165" id="-28131">
		<tag k="name" v="Brubakken" />
		<tag k="place" v="farm" />
		<tag k="ssr:stedsnr" v="61230" />
	</node>
	<node lat="58.816127777610085" lon="9.145725002372977" id="-28139">
		<tag k="alt_name" v="Brudalsstøa" />
		<tag k="name" v="Brudalstøa" />
		<tag k="place" v="isolated_dwelling" />
		<tag k="ssr:stedsnr" v="62012" />
	</node>
	<node lat="58.89004803564393" lon="8.892013233966221" id="-28142">
		<tag k="name" v="Grøtåna" />
		<tag k="place" v="locality" />
		<tag k="ssr:stedsnr" v="62817" />
	</node>
	<node lat="58.88624166519538" lon="8.953088888701192" id="-28145">
		<tag k="name" v="Løyte" />
		<tag k="place" v="farm" />
		<tag k="ssr:stedsnr" v="242559" />
	</node>
	<node lat="58.88582777594368" lon="8.955294441415592" id="-28146">
		<tag k="name" v="Løyte" />
		<tag k="place" v="farm" />
		<tag k="ssr:stedsnr" v="242561" />
	</node>
	<node lat="58.89080404879099" lon="8.986668571140076" id="-28152">
		<tag k="name" v="Bråten" />
		<tag k="place" v="farm" />
		<tag k="ssr:stedsnr" v="243208" />
	</node>
	<node lat="58.847661107693206" lon="9.126769441426156" id="-28156">
		<tag k="name" v="Hegdesbråten" />
		<tag k="place" v="farm" />
		<tag k="ssr:stedsnr" v="244125" />
	</node>
	<node lat="58.854344448367456" lon="9.062555546909035" id="-28157">
		<tag k="fixme" v="consider place=hamlet" />
		<tag k="name" v="Byholt" />
		<tag k="place" v="farm" />
		<tag k="ssr:stedsnr" v="244129" />
	</node>
	<node lat="58.873186109373265" lon="8.964591658209336" id="-28158">
		<tag k="alt_name" v="Holstøl" />
		<tag k="name" v="Holstølen" />
		<tag k="place" v="locality" />
		<tag k="ssr:stedsnr" v="244200" />
	</node>
	<node lat="58.89705000188327" lon="8.963469448497158" id="-28164">
		<tag k="name" v="Holmen" />
		<tag k="place" v="farm" />
		<tag k="ssr:stedsnr" v="244817" />
	</node>
	<node lat="58.84336389288449" lon="9.004705558356447" id="-28210">
		<tag k="historic" v="shieling" />
		<tag k="name" v="Fjellstøl" />
		<tag k="place" v="isolated_dwelling" />
		<tag k="ssr:stedsnr" v="85931" />
	</node>
	<node lat="58.892594448328914" lon="8.96661666870262" id="-28213">
		<tag k="name" v="Nygård" />
		<tag k="place" v="locality" />
		<tag k="ssr:stedsnr" v="85989" />
	</node>
	<node lat="58.85851388485539" lon="9.110030560096932" id="-28214">
		<tag k="name" v="Isaks Øygard" />
		<tag k="place" v="farm" />
		<tag k="ssr:stedsnr" v="85990" />
	</node>
	<node lat="58.852100001845066" lon="9.0691222276983" id="-28221">
		<tag k="name" v="Hagane" />
		<tag k="place" v="farm" />
		<tag k="ssr:stedsnr" v="122112" />
	</node>
	<node lat="58.85940555457227" lon="9.115055552796639" id="-28222">
		<tag k="name" v="Vindfjell" />
		<tag k="place" v="isolated_dwelling" />
		<tag k="ssr:stedsnr" v="122115" />
	</node>
	<node lat="58.86147499650589" lon="9.154166674764483" id="-28223">
		<tag k="alt_name" v="Tufttjennøygard" />
		<tag k="name" v="Tufttjernøygard" />
		<tag k="place" v="farm" />
		<tag k="ssr:stedsnr" v="122116" />
	</node>
	<node lat="58.86459722500441" lon="8.901916675120082" id="-28228">
		<tag k="alt_name" v="Stormyr" />
		<tag k="name" v="Storemyr" />
		<tag k="place" v="farm" />
		<tag k="ssr:stedsnr" v="122171" />
	</node>
	<node lat="58.796461106873565" lon="9.068463895824411" id="-28229">
		<tag k="name" v="Haugen" />
		<tag k="place" v="farm" />
		<tag k="ssr:stedsnr" v="122473" />
	</node>
	<node lat="58.77956944817375" lon="9.020627775112413" id="-28231">
		<tag k="alt_name" v="Haugsetra" />
		<tag k="historic" v="shieling" />
		<tag k="name" v="Haugsætra" />
		<tag k="place" v="isolated_dwelling" />
		<tag k="ssr:stedsnr" v="123464" />
	</node>
	<node lat="58.89921944788546" lon="8.970988892641738" id="-28233">
		<tag k="name" v="Vekjen" />
		<tag k="place" v="farm" />
		<tag k="ssr:stedsnr" v="123779" />
	</node>
	<node lat="58.90303582477854" lon="9.007647062958156" id="-28246">
		<tag k="name" v="Kristisdal" />
		<tag k="place" v="farm" />
		<tag k="ssr:stedsnr" v="145737" />
	</node>
	<node lat="58.83244999815344" lon="9.05640000151757" id="-28250">
		<tag k="name" v="Bakken" />
		<tag k="place" v="farm" />
		<tag k="ssr:stedsnr" v="145778" />
	</node>
	<node lat="58.86915833370745" lon="8.85902777997614" id="-28262">
		<tag k="name" v="Nordbø" />
		<tag k="place" v="locality" />
		<tag k="ssr:stedsnr" v="182170" />
	</node>
	<node lat="58.805897217806624" lon="9.08984166485645" id="-28263">
		<tag k="name" v="Dalen" />
		<tag k="place" v="farm" />
		<tag k="ssr:stedsnr" v="182468" />
	</node>
	<node lat="58.8963527734503" lon="8.930494452508844" id="-28273">
		<tag k="name" v="Sletteberg" />
		<tag k="place" v="farm" />
		<tag k="ssr:stedsnr" v="183819" />
	</node>
	<node lat="58.89018055385986" lon="9.0147638911334" id="-28291">
		<tag k="name" v="Tuvestykket" />
		<tag k="place" v="farm" />
		<tag k="ssr:stedsnr" v="266745" />
	</node>
	<node lat="58.87624722265381" lon="9.013713890907313" id="-28295">
		<tag k="name" v="Egderød" />
		<tag k="place" v="farm" />
		<tag k="ssr:stedsnr" v="266822" />
	</node>
	<node lat="58.89474999720926" lon="8.977588892750516" id="-28307">
		<tag k="name" v="Eikvadsbråten" />
		<tag k="place" v="isolated_dwelling" />
		<tag k="ssr:stedsnr" v="266990" />
	</node>
	<node lat="58.88804999954728" lon="9.05653055706256" id="-28320">
		<tag k="name" v="Tjennstranda" />
		<tag k="place" v="farm" />
		<tag k="ssr:stedsnr" v="267800" />
	</node>
	<node lat="58.80463055772208" lon="9.078683336368572" id="-28339">
		<tag k="name" v="Cinderella" />
		<tag k="ssr:stedsnr" v="206936" />
		<tag k="tourism" v="guest_house" />
	</node>
	<node lat="58.93192500136946" lon="8.875466670917202" id="-28389">
		<tag k="name" v="Sandvad" />
		<tag k="place" v="isolated_dwelling" />
		<tag k="ssr:stedsnr" v="243837" />
	</node>
	<node lat="58.89886666751535" lon="9.025275000815322" id="-28396">
		<tag k="name" v="Stålerød" />
		<tag k="place" v="farm" />
		<tag k="ssr:stedsnr" v="244810" />
	</node>
	<node lat="58.90630555820709" lon="8.961355558014018" id="-28398">
		<tag k="name" v="Våle" />
		<tag k="place" v="farm" />
		<tag k="ssr:stedsnr" v="244784" />
	</node>
	<node lat="58.91402777573603" lon="8.8652333313407" id="-28400">
		<tag k="name" v="Bjørnåsen" />
		<tag k="place" v="isolated_dwelling" />
		<tag k="ssr:stedsnr" v="244877" />
	</node>
	<node lat="58.88222850430003" lon="9.036104556952147" id="-28406">
		<tag k="name" v="Rinnen" />
		<tag k="place" v="farm" />
		<tag k="ssr:stedsnr" v="266810" />
	</node>
	<node lat="58.95731667013003" lon="8.963536105835088" id="-28416">
		<tag k="name" v="Myrøygard" />
		<tag k="place" v="isolated_dwelling" />
		<tag k="ssr:stedsnr" v="266915" />
	</node>
	<node lat="58.82002499746422" lon="9.096180552927219" id="-28432">
		<tag k="name" v="Stranda" />
		<tag k="place" v="farm" />
		<tag k="ssr:stedsnr" v="267714" />
	</node>
	<node lat="58.814790065790895" lon="9.045321326466496" id="-28453">
		<tag k="name" v="Barbulia" />
		<tag k="place" v="farm" />
		<tag k="ssr:stedsnr" v="304024" />
	</node>
	<node lat="58.88654166402863" lon="8.952047230552948" id="-28454">
		<tag k="name" v="Haugen" />
		<tag k="place" v="farm" />
		<tag k="ssr:stedsnr" v="304204" />
	</node>
	<node lat="58.88651666708694" lon="9.0702722286364" id="-28455">
		<tag k="alt_name" v="Sandåkersetra" />
		<tag k="loc_name" v="Sandåker øygard" />
		<tag k="name" v="Sandåkersæter" />
		<tag k="place" v="isolated_dwelling" />
		<tag k="ssr:stedsnr" v="304213" />
	</node>
	<node lat="58.87614999830013" lon="9.165786104475593" id="-28462">
		<tag k="name" v="Høgstli" />
		<tag k="place" v="farm" />
		<tag k="ssr:stedsnr" v="304178" />
	</node>
	<node lat="58.78218332956105" lon="9.054111103051131" id="-28468">
		<tag k="name" v="Stormyr" />
		<tag k="place" v="farm" />
		<tag k="ssr:stedsnr" v="305437" />
	</node>
	<node lat="58.9021694486308" lon="8.95921388306765" id="-28470">
		<tag k="name" v="Moen" />
		<tag k="place" v="farm" />
		<tag k="ssr:stedsnr" v="305765" />
	</node>
	<node lat="58.8858361108135" lon="9.023141674046432" id="-28483">
		<tag k="name" v="Kongsnes" />
		<tag k="place" v="farm" />
		<tag k="ssr:stedsnr" v="327704" />
	</node>
	<node lat="58.818858329198676" lon="9.098166665788023" id="-28485">
		<tag k="name" v="Sagåsen" />
		<tag k="place" v="farm" />
		<tag k="ssr:stedsnr" v="327706" />
	</node>
	<node lat="58.892572218828924" lon="8.997311107642526" id="-28493">
		<tag k="name" v="Bakkane" />
		<tag k="place" v="isolated_dwelling" />
		<tag k="ssr:stedsnr" v="327725" />
	</node>
	<node lat="58.796822221566494" lon="9.091149991629234" id="-28511">
		<tag k="name" v="Heiland" />
		<tag k="place" v="farm" />
		<tag k="ssr:stedsnr" v="327905" />
	</node>
	<node lat="58.88093333189622" lon="9.017502770532957" id="-28515">
		<tag k="fixme" v="consider place=hamlet" />
		<tag k="name" v="Gjerstad" />
		<tag k="place" v="village" />
		<tag k="ssr:stedsnr" v="328363" />
	</node>
	<node lat="58.867866662872174" lon="9.03215833352731" id="-28517">
		<tag k="name" v="Skuggvik" />
		<tag k="place" v="isolated_dwelling" />
		<tag k="ssr:stedsnr" v="364174" />
	</node>
	<node lat="58.816413889784606" lon="9.030880554795491" id="-28529">
		<tag k="name" v="Venli" />
		<tag k="place" v="farm" />
		<tag k="ssr:stedsnr" v="365023" />
	</node>
	<node lat="58.812636115325624" lon="9.086711112544485" id="-28532">
		<tag k="alt_name" v="Brokland" />
		<tag k="fixme" v="consider place=hamlet" />
		<tag k="name" v="Brokeland" />
		<tag k="place" v="farm" />
		<tag k="ssr:stedsnr" v="365024" />
	</node>
	<node lat="58.874088885116976" lon="9.033466664581368" id="-28538">
		<tag k="name" v="Vestgård" />
		<tag k="place" v="farm" />
		<tag k="ssr:stedsnr" v="365191" />
	</node>
	<node lat="58.8952861150509" lon="9.02819166209331" id="-28540">
		<tag k="alt_name" v="Nordheim" />
		<tag k="name" v="Norheim" />
		<tag k="place" v="isolated_dwelling" />
		<tag k="ssr:stedsnr" v="365819" />
	</node>
	<node lat="58.90409492423144" lon="9.020482767389701" id="-28545">
		<tag k="name" v="Bråtane" />
		<tag k="place" v="farm" />
		<tag k="ssr:stedsnr" v="366780" />
	</node>
	<node lat="58.825808332911386" lon="9.170830552043066" id="-28571">
		<tag k="name" v="Plassen" />
		<tag k="place" v="locality" />
		<tag k="ssr:stedsnr" v="388651" />
	</node>
	<node lat="58.838019441324654" lon="9.031122220245912" id="-28585">
		<tag k="name" v="Venli" />
		<tag k="place" v="isolated_dwelling" />
		<tag k="ssr:stedsnr" v="388943" />
	</node>
	<node lat="58.82205748029253" lon="9.04014544026867" id="-28594">
		<tag k="name" v="Blimyr" />
		<tag k="place" v="locality" />
		<tag k="ssr:stedsnr" v="486036" />
	</node>
	<node lat="58.82392777945945" lon="9.011772221946526" id="-28595">
		<tag k="name" v="Myre" />
		<tag k="place" v="farm" />
		<tag k="ssr:stedsnr" v="486037" />
	</node>
	<node lat="58.822991663420346" lon="9.094544436707196" id="-28596">
		<tag k="name" v="Lia" />
		<tag k="place" v="isolated_dwelling" />
		<tag k="ssr:stedsnr" v="486038" />
	</node>
	<node lat="58.86477777566572" lon="9.001988889695923" id="-28599">
		<tag k="alt_name" v="Bjørns" />
		<tag k="name" v="Bjørn" />
		<tag k="place" v="isolated_dwelling" />
		<tag k="ssr:stedsnr" v="486142" />
	</node>
	<node lat="58.92614444635156" lon="8.829922225658896" id="-28601">
		<tag k="alt_name" v="Fisketjennlia" />
		<tag k="fixme" v="consider tourism=alpine_hut or tourism=chalet" />
		<tag k="name" v="Fisktjernlia" />
		<tag k="ssr:stedsnr" v="486427" />
		<tag k="tourism" v="wilderness_hut" />
	</node>
	<node lat="58.96663055489909" lon="8.896644447875337" id="-28605">
		<tag k="name" v="Fjosbu" />
		<tag k="place" v="isolated_dwelling" />
		<tag k="ssr:stedsnr" v="486885" />
	</node>
	<node lat="58.91150278101306" lon="8.93448888068701" id="-28615">
		<tag k="name" v="Morka" />
		<tag k="place" v="isolated_dwelling" />
		<tag k="ssr:stedsnr" v="487779" />
	</node>
	<node lat="58.91416944047395" lon="8.958163890972237" id="-28616">
		<tag k="alt_name" v="Rakkedalen" />
		<tag k="name" v="Rakkedal" />
		<tag k="place" v="farm" />
		<tag k="ssr:stedsnr" v="487780" />
	</node>
	<node lat="58.90168611174203" lon="8.965541671257906" id="-28617">
		<tag k="name" v="Myra" />
		<tag k="place" v="farm" />
		<tag k="ssr:stedsnr" v="487782" />
	</node>
	<node lat="58.80154444231015" lon="9.083874997959994" id="-28618">
		<tag k="name" v="Solås" />
		<tag k="place" v="farm" />
		<tag k="ssr:stedsnr" v="425462" />
	</node>
	<node lat="58.79542777914383" lon="9.09759722121666" id="-28625">
		<tag k="name" v="Bråtane" />
		<tag k="place" v="farm" />
		<tag k="ssr:stedsnr" v="426430" />
	</node>
	<node lat="58.795527779093376" lon="9.029255549521443" id="-28626">
		<tag k="fixme" v="consider place=hamlet" />
		<tag k="name" v="Skorstøl" />
		<tag k="place" v="farm" />
		<tag k="ssr:stedsnr" v="426477" />
	</node>
	<node lat="58.893202776882326" lon="8.993483337781564" id="-28628">
		<tag k="fixme" v="consider place=hamlet" />
		<tag k="name" v="Rød" />
		<tag k="place" v="farm" />
		<tag k="ssr:stedsnr" v="426807" />
	</node>
	<node lat="58.96185556005294" lon="8.969652776367454" id="-28632">
		<tag k="name" v="Bråtøygard" />
		<tag k="place" v="isolated_dwelling" />
		<tag k="ssr:stedsnr" v="426911" />
	</node>
	<node lat="58.880588892368834" lon="9.090669452767132" id="-28646">
		<tag k="name" v="Stormyr" />
		<tag k="place" v="farm" />
		<tag k="ssr:stedsnr" v="449808" />
	</node>
	<node lat="58.842072223090646" lon="9.13534443629002" id="-28658">
		<tag k="name" v="Rødsøygard" />
		<tag k="place" v="locality" />
		<tag k="ssr:stedsnr" v="449722" />
	</node>
	<node lat="58.8873638913861" lon="9.016511117092163" id="-28660">
		<tag k="name" v="Sletta" />
		<tag k="place" v="farm" />
		<tag k="ssr:stedsnr" v="449728" />
	</node>
	<node lat="58.90178333713385" lon="9.018050002346762" id="-28661">
		<tag k="name" v="Flåta" />
		<tag k="place" v="farm" />
		<tag k="ssr:stedsnr" v="449734" />
	</node>
	<node lat="58.83136388990476" lon="9.044738885210833" id="-28671">
		<tag k="name" v="Skeilidalen" />
		<tag k="place" v="farm" />
		<tag k="ssr:stedsnr" v="449923" />
	</node>
	<node lat="58.89181944580646" lon="9.060197219265469" id="-28680">
		<tag k="name" v="Gunnustad" />
		<tag k="place" v="farm" />
		<tag k="ssr:stedsnr" v="486244" />
	</node>
	<node lat="58.88218055329891" lon="8.996058333251984" id="-28703">
		<tag k="name" v="Trevoll" />
		<tag k="place" v="farm" />
		<tag k="ssr:stedsnr" v="509800" />
	</node>
	<node lat="58.83501368091938" lon="9.057659456726897" id="-28725">
		<tag k="name" v="Langmyrlia" />
		<tag k="place" v="farm" />
		<tag k="ssr:stedsnr" v="546077" />
	</node>
	<node lat="58.83814722470825" lon="9.087194451886376" id="-28726">
		<tag k="name" v="Sundebru" />
		<tag k="place" v="hamlet" />
		<tag k="ssr:stedsnr" v="546096" />
	</node>
	<node lat="58.86762222507255" lon="8.845133331526064" id="-28727">
		<tag k="name" v="Midtli" />
		<tag k="place" v="isolated_dwelling" />
		<tag k="ssr:stedsnr" v="546172" />
	</node>
	<node lat="58.931316663662614" lon="8.886591660506154" id="-28730">
		<tag k="name" v="Skorva" />
		<tag k="place" v="isolated_dwelling" />
		<tag k="ssr:stedsnr" v="546821" />
	</node>
	<node lat="58.87979444603246" lon="8.988180549244406" id="-28732">
		<tag k="alt_name" v="Osmunddalen" />
		<tag k="name" v="Åsmunddalen" />
		<tag k="place" v="locality" />
		<tag k="ssr:stedsnr" v="547204" />
	</node>
	<node lat="58.89840833473618" lon="9.001413883097873" id="-28736">
		<tag k="name" v="Solli" />
		<tag k="place" v="locality" />
		<tag k="ssr:stedsnr" v="691744" />
	</node>
	<node lat="58.88075278024193" lon="8.993886107197886" id="-28739">
		<tag k="name" v="Bjellås" />
		<tag k="place" v="farm" />
		<tag k="ssr:stedsnr" v="691766" />
	</node>
	<node lat="58.90989722531563" lon="8.934844440168378" id="-28751">
		<tag k="alt_name" v="Pær Reinertsens plass" />
		<tag k="loc_name" v="Pær Einertsens plass" />
		<tag k="name" v="Per Reinertsens plass" />
		<tag k="place" v="locality" />
		<tag k="ssr:stedsnr" v="691551" />
	</node>
	<node lat="58.883525003259734" lon="9.034919446679055" id="-28763">
		<tag k="name" v="Åsheim" />
		<tag k="place" v="farm" />
		<tag k="ssr:stedsnr" v="691715" />
	</node>
	<node lat="58.88460010061678" lon="9.034835196756342" id="-28764">
		<tag k="name" v="Saglia" />
		<tag k="place" v="farm" />
		<tag k="ssr:stedsnr" v="691717" />
	</node>
	<node lat="58.790905553445484" lon="9.090291665596279" id="-28780">
		<tag k="name" v="Stifoss" />
		<tag k="place" v="isolated_dwelling" />
		<tag k="ssr:stedsnr" v="691956" />
	</node>
	<node lat="58.84440000248784" lon="9.117841673611533" id="-28788">
		<tag k="name" v="Hagane" />
		<tag k="place" v="farm" />
		<tag k="ssr:stedsnr" v="692990" />
	</node>
	<node lat="58.961891671091955" lon="8.973627775777114" id="-28801">
		<tag k="name" v="Lundøygard" />
		<tag k="place" v="isolated_dwelling" />
		<tag k="ssr:stedsnr" v="569897" />
	</node>
	<node lat="58.842924995890904" lon="9.0439305531892" id="-28802">
		<tag k="name" v="Spjøtåsen" />
		<tag k="place" v="locality" />
		<tag k="ssr:stedsnr" v="569899" />
	</node>
	<node lat="58.84169721854517" lon="9.081830558191301" id="-28806">
		<tag k="name" v="Tegleverket" />
		<tag k="place" v="farm" />
		<tag k="ssr:stedsnr" v="569969" />
	</node>
	<node lat="58.87076944784284" lon="9.00088334076095" id="-28812">
		<tag k="name" v="Brattli" />
		<tag k="place" v="farm" />
		<tag k="ssr:stedsnr" v="570816" />
	</node>
	<node lat="58.887854435330766" lon="9.025860990460757" id="-28819">
		<tag k="name" v="Kleiva" />
		<tag k="place" v="farm" />
		<tag k="ssr:stedsnr" v="570708" />
	</node>
	<node lat="58.82364166694241" lon="9.094308336011304" id="-28820">
		<tag k="name" v="Bråten" />
		<tag k="place" v="farm" />
		<tag k="ssr:stedsnr" v="570712" />
	</node>
	<node lat="58.87844722284575" lon="8.86623888926493" id="-28834">
		<tag k="name" v="Løyte" />
		<tag k="place" v="farm" />
		<tag k="ssr:stedsnr" v="605604" />
	</node>
	<node lat="58.84920833362998" lon="9.122038896222987" id="-28838">
		<tag k="name" v="Elvebakken" />
		<tag k="place" v="farm" />
		<tag k="ssr:stedsnr" v="607111" />
	</node>
	<node lat="58.84916388933055" lon="9.078433340571793" id="-28839">
		<tag k="fixme" v="consider place=hamlet" />
		<tag k="name" v="Fone" />
		<tag k="place" v="farm" />
		<tag k="ssr:stedsnr" v="607116" />
	</node>
	<node lat="58.85323055988224" lon="8.95812778354423" id="-28841">
		<tag k="name" v="Lyngstøl" />
		<tag k="place" v="isolated_dwelling" />
		<tag k="ssr:stedsnr" v="607145" />
	</node>
	<node lat="58.875311108508434" lon="9.031736103367235" id="-28846">
		<tag k="name" v="Hallen" />
		<tag k="place" v="farm" />
		<tag k="ssr:stedsnr" v="607198" />
	</node>
	<node lat="58.832025003098174" lon="9.16880277570026" id="-28853">
		<tag k="name" v="Ålkarberget" />
		<tag k="place" v="isolated_dwelling" />
		<tag k="ssr:stedsnr" v="630609" />
	</node>
	<node lat="58.83845555140225" lon="9.099375007888002" id="-28861">
		<tag k="name" v="Bråtane" />
		<tag k="place" v="farm" />
		<tag k="ssr:stedsnr" v="630721" />
	</node>
	<node lat="58.897172222545755" lon="9.025522221689286" id="-28862">
		<tag k="name" v="Stien" />
		<tag k="place" v="farm" />
		<tag k="ssr:stedsnr" v="630696" />
	</node>
	<node lat="58.88103610972352" lon="9.003333335672789" id="-28897">
		<tag k="name" v="Bråtane" />
		<tag k="place" v="farm" />
		<tag k="ssr:stedsnr" v="668207" />
	</node>
	<node lat="58.86469444369595" lon="9.04092499216885" id="-28904">
		<tag k="name" v="Stranda" />
		<tag k="place" v="isolated_dwelling" />
		<tag k="ssr:stedsnr" v="668154" />
	</node>
	<node lat="58.87188888690219" lon="9.002913887412587" id="-28908">
		<tag k="alt_name" v="Prestehagen" />
		<tag k="name" v="Presthagen" />
		<tag k="old_name" v="Prestskog" />
		<tag k="place" v="farm" />
		<tag k="ssr:stedsnr" v="668196" />
	</node>
	<node lat="58.80214444171492" lon="9.096158329780511" id="-28910">
		<tag k="fixme" v="consider place=hamlet" />
		<tag k="name" v="Eikeland" />
		<tag k="place" v="farm" />
		<tag k="ssr:stedsnr" v="668490" />
	</node>
	<node lat="58.89228055756688" lon="9.031461115935372" id="-28911">
		<tag k="name" v="Eskeland" />
		<tag k="place" v="hamlet" />
		<tag k="ssr:stedsnr" v="668806" />
	</node>
	<node lat="58.89666666647194" lon="8.990541672406149" id="-28912">
		<tag k="fixme" v="consider place=hamlet" />
		<tag k="name" v="Vevstad" />
		<tag k="place" v="farm" />
		<tag k="ssr:stedsnr" v="668807" />
	</node>
	<node lat="58.88832499996072" lon="9.022872214566195" id="-28936">
		<tag k="name" v="Hegna" />
		<tag k="place" v="farm" />
		<tag k="ssr:stedsnr" v="691726" />
	</node>
	<node lat="58.87587499786865" lon="9.02529721963678" id="-28942">
		<tag k="name" v="Grantangen" />
		<tag k="place" v="farm" />
		<tag k="ssr:stedsnr" v="691797" />
	</node>
	<node lat="58.81043055145707" lon="9.094950000992743" id="-28950">
		<tag k="name" v="Bjordammen" />
		<tag k="place" v="farm" />
		<tag k="ssr:stedsnr" v="691926" />
	</node>
	<node lat="58.8421527777781" lon="9.071519445598748" id="-28959">
		<tag k="name" v="Plassen" />
		<tag k="place" v="locality" />
		<tag k="ssr:stedsnr" v="691985" />
	</node>
	<node lat="58.83170000286715" lon="9.005588887483768" id="-28963">
		<tag k="name" v="Lyngås" />
		<tag k="place" v="isolated_dwelling" />
		<tag k="ssr:stedsnr" v="729072" />
	</node>
	<node lat="58.84302222670118" lon="9.118677785710968" id="-28965">
		<tag k="name" v="Bjordammen" />
		<tag k="place" v="farm" />
		<tag k="ssr:stedsnr" v="729093" />
	</node>
	<node lat="58.846152775312945" lon="8.94336389371646" id="-28966">
		<tag k="alt_name" v="Øygarden" />
		<tag k="name" v="Øygard" />
		<tag k="place" v="isolated_dwelling" />
		<tag k="ssr:stedsnr" v="729104" />
	</node>
	<node lat="58.8773833359806" lon="8.962752778460418" id="-28971">
		<tag k="name" v="Kleivane" />
		<tag k="place" v="isolated_dwelling" />
		<tag k="ssr:stedsnr" v="729221" />
	</node>
	<node lat="58.889088890772705" lon="9.04387778361181" id="-28972">
		<tag k="name" v="Ausland" />
		<tag k="place" v="hamlet" />
		<tag k="ssr:stedsnr" v="729268" />
	</node>
	<node lat="58.937923109704876" lon="8.82797433826361" id="-28975">
		<tag k="name" v="Heiland" />
		<tag k="place" v="isolated_dwelling" />
		<tag k="ssr:stedsnr" v="729422" />
	</node>
	<node lat="58.804986109894045" lon="9.077902772451802" id="-28976">
		<tag k="name" v="Fiane" />
		<tag k="place" v="village" />
		<tag k="ssr:stedsnr" v="729472" />
	</node>
	<node lat="58.89634444794341" lon="8.968725005977129" id="-28979">
		<tag k="name" v="Lunden" />
		<tag k="place" v="farm" />
		<tag k="ssr:stedsnr" v="729808" />
	</node>
	<node lat="58.83518610754978" lon="9.084416661747914" id="-29001">
		<tag k="name" v="Bråten" />
		<tag k="place" v="farm" />
		<tag k="ssr:stedsnr" v="752730" />
	</node>
	<node lat="58.88031111408043" lon="9.030205563628156" id="-29017">
		<tag k="name" v="Klokkargarden" />
		<tag k="place" v="isolated_dwelling" />
		<tag k="ssr:stedsnr" v="752804" />
	</node>
	<node lat="58.87274166676651" lon="9.012658330914867" id="-29048">
		<tag k="name" v="Egddalen" />
		<tag k="place" v="hamlet" />
		<tag k="ssr:stedsnr" v="911204" />
	</node>
	<node lat="58.884841669257426" lon="8.953124994297923" id="-29051">
		<tag k="fixme" v="consider place=hamlet" />
		<tag k="name" v="Løyte" />
		<tag k="place" v="farm" />
		<tag k="ssr:stedsnr" v="911235" />
	</node>
	<node lat="58.82773055231371" lon="9.078302776953375" id="-29054">
		<tag k="name" v="Haugen" />
		<tag k="place" v="isolated_dwelling" />
		<tag k="ssr:stedsnr" v="789061" />
	</node>
	<node lat="58.83072500033913" lon="9.092363897300892" id="-29055">
		<tag k="name" v="Kals" />
		<tag k="place" v="farm" />
		<tag k="ssr:stedsnr" v="789064" />
	</node>
	<node lat="58.84034721954705" lon="9.102705556791069" id="-29056">
		<tag k="alt_name" v="Ivarshage" />
		<tag k="name" v="Ivarshagen" />
		<tag k="place" v="farm" />
		<tag k="ssr:stedsnr" v="789080" />
	</node>
	<node lat="58.92625555466957" lon="8.882816664901814" id="-29060">
		<tag k="name" v="Ljådal" />
		<tag k="place" v="isolated_dwelling" />
		<tag k="ssr:stedsnr" v="789844" />
	</node>
	<node lat="58.878833335047574" lon="9.037861105078155" id="-29068">
		<tag k="fixme" v="consider place=hamlet" />
		<tag k="name" v="Kveim" />
		<tag k="place" v="farm" />
		<tag k="ssr:stedsnr" v="790154" />
	</node>
	<node lat="58.7993888934019" lon="9.120088889853388" id="-29071">
		<tag k="name" v="Flaten" />
		<tag k="place" v="farm" />
		<tag k="ssr:stedsnr" v="790452" />
	</node>
	<node lat="58.90679709588631" lon="8.933361336791442" id="-29072">
		<tag k="name" v="Plassen" />
		<tag k="place" v="isolated_dwelling" />
		<tag k="ssr:stedsnr" v="790792" />
	</node>
	<node lat="58.89978646833722" lon="9.093056077607024" id="-29074">
		<tag k="name" v="Åsland" />
		<tag k="place" v="locality" />
		<tag k="ssr:stedsnr" v="790810" />
	</node>
	<node lat="58.90357222043607" lon="9.066469436506344" id="-29075">
		<tag k="alt_name" v="Hessmo" />
		<tag k="name" v="Hestmoen" />
		<tag k="place" v="isolated_dwelling" />
		<tag k="ssr:stedsnr" v="790814" />
	</node>
	<node lat="58.89069721949554" lon="9.02647500563544" id="-29078">
		<tag k="fixme" v="consider place=hamlet" />
		<tag k="name" v="Sandåker" />
		<tag k="place" v="farm" />
		<tag k="ssr:stedsnr" v="790823" />
	</node>
	<node lat="58.815638892541706" lon="9.101244442222404" id="-29097">
		<tag k="name" v="Hjellen" />
		<tag k="place" v="farm" />
		<tag k="ssr:stedsnr" v="813921" />
	</node>
	<node lat="58.826102775031075" lon="9.046077771836021" id="-29106">
		<tag k="name" v="Hagelia" />
		<tag k="place" v="farm" />
		<tag k="ssr:stedsnr" v="813954" />
	</node>
	<node lat="58.83598888472219" lon="9.109605547095974" id="-29111">
		<tag k="fixme" v="consider place=hamlet" />
		<tag k="name" v="Holte" />
		<tag k="place" v="farm" />
		<tag k="ssr:stedsnr" v="850085" />
	</node>
	<node lat="58.842638887478266" lon="9.106541674801045" id="-29112">
		<tag k="alt_name" v="Østerholt, lille" />
		<tag k="name" v="Lille Østerholt" />
		<tag k="place" v="farm" />
		<tag k="ssr:stedsnr" v="850087" />
	</node>
	<node lat="58.84486388942112" lon="9.122222229038117" id="-29113">
		<tag k="name" v="Rønningen" />
		<tag k="place" v="farm" />
		<tag k="ssr:stedsnr" v="850090" />
	</node>
	<node lat="58.866277779805266" lon="8.913333341139971" id="-29116">
		<tag k="name" v="Lia" />
		<tag k="place" v="farm" />
		<tag k="ssr:stedsnr" v="850187" />
	</node>
	<node lat="58.85168055632781" lon="9.090844444434936" id="-29122">
		<tag k="fixme" v="consider place=hamlet" />
		<tag k="name" v="Tveit" />
		<tag k="place" v="farm" />
		<tag k="ssr:stedsnr" v="851115" />
	</node>
	<node lat="58.80226388832654" lon="9.110569442894104" id="-29125">
		<tag k="alt_name" v="Eikelands Verk" />
		<tag k="building" v="industrial" />
		<tag k="industrial" v="factory" />
		<tag k="name" v="Eiklands verk" />
		<tag k="ssr:stedsnr" v="851446" />
	</node>
	<node lat="58.90241666504784" lon="9.024852770833595" id="-29129">
		<tag k="alt_name" v="Brendalsmoen" />
		<tag k="fixme" v="consider place=hamlet" />
		<tag k="name" v="Brenndalsmoen" />
		<tag k="place" v="farm" />
		<tag k="ssr:stedsnr" v="851793" />
	</node>
	<node lat="58.89204444233796" lon="8.963447225922186" id="-29130">
		<tag k="name" v="Øygarden" />
		<tag k="place" v="farm" />
		<tag k="ssr:stedsnr" v="851805" />
	</node>
	<node lat="58.88834721788608" lon="8.939363883900587" id="-29133">
		<tag k="name" v="Svarvaren" />
		<tag k="place" v="farm" />
		<tag k="ssr:stedsnr" v="934446" />
	</node>
	<node lat="58.86017499929896" lon="9.147716669370656" id="-29143">
		<tag k="name" v="Tufttjenndalen" />
		<tag k="place" v="locality" />
		<tag k="ssr:stedsnr" v="934712" />
	</node>
	<node lat="58.89082777570104" lon="8.998088890756648" id="-29149">
		<tag k="name" v="Brekka" />
		<tag k="place" v="farm" />
		<tag k="ssr:stedsnr" v="934733" />
	</node>
	<node lat="58.871019448438744" lon="9.084077770882908" id="-29161">
		<tag k="historic" v="shieling" />
		<tag k="name" v="Rafstøl" />
		<tag k="place" v="isolated_dwelling" />
		<tag k="ssr:stedsnr" v="934843" />
	</node>
	<node lat="58.81864786855297" lon="9.002835208866635" id="-29188">
		<tag k="alt_name" v="Bjortjenndalen" />
		<tag k="name" v="Bjortjerndalen" />
		<tag k="place" v="isolated_dwelling" />
		<tag k="ssr:stedsnr" v="911054" />
	</node>
	<node lat="58.89239176230951" lon="9.079531634971897" id="-29190">
		<tag k="name" v="Rafstøldalen" />
		<tag k="place" v="locality" />
		<tag k="ssr:stedsnr" v="911252" />
	</node>
	<node lat="58.89093055662795" lon="8.969558330573724" id="-29194">
		<tag k="name" v="Åsmundstøl" />
		<tag k="place" v="farm" />
		<tag k="ssr:stedsnr" v="911805" />
	</node>
	<node lat="58.83724444006026" lon="9.091694449129637" id="-29215">
		<tag k="name" v="Granli" />
		<tag k="place" v="farm" />
		<tag k="ssr:stedsnr" v="934737" />
	</node>
	<node lat="58.85170555251904" lon="9.121924992706216" id="-29229">
		<tag k="name" v="Gamleplass" />
		<tag k="place" v="locality" />
		<tag k="ssr:stedsnr" v="936000" />
	</node>
	<node lat="58.89361309274509" lon="9.030975092690667" id="-29233">
		<tag k="fixme" v="consider place=hamlet" />
		<tag k="name" v="Øvre Eskeland" />
		<tag k="place" v="farm" />
		<tag k="ssr:stedsnr" v="971329" />
	</node>
	<node lat="58.89229512084596" lon="9.032883056864296" id="-29234">
		<tag k="fixme" v="consider place=hamlet" />
		<tag k="name" v="Nedre Eskeland" />
		<tag k="place" v="farm" />
		<tag k="ssr:stedsnr" v="971330" />
	</node>
	<node lat="58.88822307469782" lon="9.037124555846074" id="-29235">
		<tag k="fixme" v="consider place=hamlet" />
		<tag k="name" v="Ausland" />
		<tag k="place" v="farm" />
		<tag k="ssr:stedsnr" v="971331" />
	</node>
	<node lat="58.7971832842757" lon="9.068187500723994" id="-29236">
		<tag k="fixme" v="consider place=hamlet" />
		<tag k="name" v="Ytre Haugen" />
		<tag k="place" v="farm" />
		<tag k="ssr:stedsnr" v="971322" />
	</node>
	<node lat="58.86093294209823" lon="9.046608389705074" id="-29237">
		<tag k="fixme" v="consider place=hamlet" />
		<tag k="name" v="Store Huggeto" />
		<tag k="place" v="farm" />
		<tag k="ssr:stedsnr" v="971323" />
	</node>
	<node lat="58.891150260908425" lon="8.98778308415747" id="-29238">
		<tag k="fixme" v="consider place=hamlet" />
		<tag k="name" v="Nordre Bråten" />
		<tag k="place" v="farm" />
		<tag k="ssr:stedsnr" v="971324" />
	</node>
	<node lat="58.874500254851874" lon="8.930258767543554" id="-29239">
		<tag k="fixme" v="consider place=hamlet" />
		<tag k="name" v="Øvre Haugen" />
		<tag k="place" v="farm" />
		<tag k="ssr:stedsnr" v="971325" />
	</node>
	<node lat="58.8960125746306" lon="8.974552038039862" id="-29240">
		<tag k="fixme" v="consider place=hamlet" />
		<tag k="name" v="Nordre Lunden" />
		<tag k="place" v="farm" />
		<tag k="ssr:stedsnr" v="971326" />
	</node>
	<node lat="58.896258374143606" lon="8.96890332223739" id="-29241">
		<tag k="fixme" v="consider place=hamlet" />
		<tag k="name" v="Søndre Lunden" />
		<tag k="place" v="farm" />
		<tag k="ssr:stedsnr" v="971327" />
	</node>
	<node lat="58.89515564899671" lon="8.963633853633397" id="-29242">
		<tag k="fixme" v="consider place=hamlet" />
		<tag k="name" v="Trydal" />
		<tag k="place" v="farm" />
		<tag k="ssr:stedsnr" v="971328" />
	</node>
	<node lat="58.83987778033024" lon="9.014416666676595" id="-29244">
		<tag k="name" v="Listøl" />
		<tag k="place" v="isolated_dwelling" />
		<tag k="ssr:stedsnr" v="91" />
	</node>
	<node lat="58.88890555831454" lon="9.007755555201614" id="-29251">
		<tag k="fixme" v="consider place=hamlet" />
		<tag k="name" v="Mostad" />
		<tag k="place" v="farm" />
		<tag k="ssr:stedsnr" v="226" />
	</node>
	<node lat="58.96205000235534" lon="8.964436117066182" id="-29257">
		<tag k="name" v="Vestiøygard" />
		<tag k="place" v="isolated_dwelling" />
		<tag k="ssr:stedsnr" v="876" />
	</node>
	<node lat="58.96331466488658" lon="8.974949945925246" id="-29258">
		<tag k="name" v="Holmøygard" />
		<tag k="place" v="isolated_dwelling" />
		<tag k="ssr:stedsnr" v="878" />
	</node>
	<node lat="58.847494446551664" lon="9.085658331260108" id="-29263">
		<tag k="name" v="Fossåsen" />
		<tag k="place" v="farm" />
		<tag k="ssr:stedsnr" v="1134" />
	</node>
	<node lat="58.85706388510327" lon="9.119013884254608" id="-29269">
		<tag k="alt_name" v="Øygarden, øvre" />
		<tag k="name" v="Øvre Øygarden" />
		<tag k="place" v="farm" />
		<tag k="ssr:stedsnr" v="1174" />
	</node>
	<node lat="58.85931388961418" lon="9.182244443296609" id="-29301">
		<tag k="historic" v="shieling" />
		<tag k="name" v="Trollvasseteren" />
		<tag k="place" v="isolated_dwelling" />
		<tag k="ssr:stedsnr" v="24660" />
	</node>
	<node lat="58.839549997548026" lon="9.095808332008362" id="-29303">
		<tag k="amenity" v="school" />
		<tag k="name" v="Sunde skule" />
		<tag k="ssr:stedsnr" v="24958" />
	</node>
	<node lat="58.897597223323665" lon="8.99942222526842" id="-29307">
		<tag k="name" v="Grunnsvoll" />
		<tag k="place" v="farm" />
		<tag k="ssr:stedsnr" v="24772" />
	</node>
	<node lat="58.86541388876933" lon="8.869716665685788" id="-29318">
		<tag k="name" v="Rønningen" />
		<tag k="place" v="locality" />
		<tag k="ssr:stedsnr" v="61170" />
	</node>
	<node lat="58.888930559147816" lon="8.930066662903632" id="-29319">
		<tag k="name" v="Haukedalen" />
		<tag k="place" v="isolated_dwelling" />
		<tag k="ssr:stedsnr" v="61237" />
	</node>
	<node lat="58.898463887194346" lon="8.939630560598966" id="-29338">
		<tag k="name" v="Morka" />
		<tag k="place" v="isolated_dwelling" />
		<tag k="ssr:stedsnr" v="62811" />
	</node>
	<node lat="58.89976944612548" lon="9.00474999742861" id="-29361">
		<tag k="name" v="Snipen" />
		<tag k="place" v="farm" />
		<tag k="ssr:stedsnr" v="85717" />
	</node>
	<node lat="58.83836111214848" lon="9.03396388480787" id="-29367">
		<tag k="name" v="Per-Alis" />
		<tag k="place" v="isolated_dwelling" />
		<tag k="ssr:stedsnr" v="85945" />
	</node>
	<node lat="58.82964722128897" lon="9.108144445715109" id="-29378">
		<tag k="historic" v="shieling" />
		<tag k="name" v="Libråten" />
		<tag k="place" v="isolated_dwelling" />
		<tag k="ssr:stedsnr" v="85733" />
	</node>
	<node lat="58.83795278227765" lon="8.985483339446125" id="-29385">
		<tag k="alt_name" v="Svarttjenn" />
		<tag k="loc_name" v="Svarttjernseter" />
		<tag k="name" v="Svarttjernsæter" />
		<tag k="place" v="isolated_dwelling" />
		<tag k="ssr:stedsnr" v="122097" />
	</node>
	<node lat="58.860558330605386" lon="9.045430549200288" id="-29390">
		<tag k="name" v="Haugeto" />
		<tag k="place" v="hamlet" />
		<tag k="ssr:stedsnr" v="122139" />
	</node>
	<node lat="58.86836110922031" lon="9.0450361193577" id="-29391">
		<tag k="fixme" v="consider place=hamlet" />
		<tag k="name" v="Vik" />
		<tag k="place" v="farm" />
		<tag k="ssr:stedsnr" v="122145" />
	</node>
	<node lat="58.883016664543014" lon="9.12394167279152" id="-29392">
		<tag k="name" v="Solem" />
		<tag k="old_name" v="Solemsæter" />
		<tag k="place" v="locality" />
		<tag k="ssr:stedsnr" v="122229" />
	</node>
	<node lat="58.891950003773346" lon="9.102180558540418" id="-29395">
		<tag k="name" v="Røysland" />
		<tag k="place" v="isolated_dwelling" />
		<tag k="ssr:stedsnr" v="122251" />
	</node>
	<node lat="58.884469440014335" lon="8.958200002732001" id="-29397">
		<tag k="name" v="Haugen" />
		<tag k="place" v="farm" />
		<tag k="ssr:stedsnr" v="122191" />
	</node>
	<node lat="58.89122222326621" lon="8.95132222650619" id="-29405">
		<tag k="name" v="Dalane" />
		<tag k="place" v="farm" />
		<tag k="ssr:stedsnr" v="122796" />
	</node>
	<node lat="58.9025867191239" lon="9.016243098370017" id="-29415">
		<tag k="name" v="Øygarden" />
		<tag k="place" v="farm" />
		<tag k="ssr:stedsnr" v="145743" />
	</node>
	<node lat="58.80178888546349" lon="9.020161105284823" id="-29427">
		<tag k="historic" v="shieling" />
		<tag k="name" v="Urfjelldalen" />
		<tag k="place" v="isolated_dwelling" />
		<tag k="ssr:stedsnr" v="145869" />
	</node>
	<node lat="58.89567222585334" lon="9.004105559491512" id="-29453">
		<tag k="name" v="Rognbråten" />
		<tag k="place" v="farm" />
		<tag k="ssr:stedsnr" v="145751" />
	</node>
	<node lat="58.953877778685225" lon="9.009850002407605" id="-29464">
		<tag k="name" v="Orremyrhytta" />
		<tag k="place" v="isolated_dwelling" />
		<tag k="ssr:stedsnr" v="145922" />
	</node>
	<node lat="58.8134472230978" lon="9.09934165966969" id="-29467">
		<tag k="name" v="Eidet" />
		<tag k="place" v="farm" />
		<tag k="ssr:stedsnr" v="145934" />
	</node>
	<node lat="58.84629721914417" lon="9.115355554605053" id="-29474">
		<tag k="name" v="Bråtane" />
		<tag k="place" v="farm" />
		<tag k="ssr:stedsnr" v="145988" />
	</node>
	<node lat="58.88429166356702" lon="8.95189444201872" id="-29478">
		<tag k="name" v="Løyte II" />
		<tag k="place" v="farm" />
		<tag k="ssr:stedsnr" v="181618" />
	</node>
	<node lat="58.88643611475928" lon="9.03123055336391" id="-29480">
		<tag k="name" v="Høstfet" />
		<tag k="place" v="farm" />
		<tag k="ssr:stedsnr" v="182220" />
	</node>
	<node lat="58.810722219285225" lon="9.110183337257375" id="-29487">
		<tag k="alt_name" v="Espevik" />
		<tag k="name" v="Espevika" />
		<tag k="place" v="farm" />
		<tag k="ssr:stedsnr" v="183015" />
	</node>
	<node lat="58.82961111417562" lon="8.970027777722915" id="-29490">
		<tag k="name" v="Espemyråsen" />
		<tag k="place" v="farm" />
		<tag k="ssr:stedsnr" v="183071" />
	</node>
	<node lat="58.903944440237375" lon="8.93006110572323" id="-29509">
		<tag k="name" v="Raundalen" />
		<tag k="place" v="isolated_dwelling" />
		<tag k="ssr:stedsnr" v="184753" />
	</node>
	<node lat="58.8646888888958" lon="8.904830549618696" id="-29527">
		<tag k="name" v="Stormyrkjerret" />
		<tag k="place" v="farm" />
		<tag k="ssr:stedsnr" v="206492" />
	</node>
	<node lat="58.89992221943705" lon="9.00244999322332" id="-29544">
		<tag k="name" v="Fjellstad" />
		<tag k="place" v="farm" />
		<tag k="ssr:stedsnr" v="206745" />
	</node>
	<node lat="58.89451278554158" lon="9.003228225960187" id="-29547">
		<tag k="name" v="Nordli" />
		<tag k="place" v="farm" />
		<tag k="ssr:stedsnr" v="206756" />
	</node>
	<node lat="58.83046666643185" lon="9.05520000746435" id="-29555">
		<tag k="name" v="Grytinggrend" />
		<tag k="place" v="hamlet" />
		<tag k="ssr:stedsnr" v="206781" />
	</node>
	<node lat="58.834780556302206" lon="9.143536115090436" id="-29558">
		<tag k="name" v="Heljesøygard" />
		<tag k="place" v="locality" />
		<tag k="ssr:stedsnr" v="206789" />
	</node>
	<node lat="58.861819447548235" lon="9.04352499650855" id="-29559">
		<tag k="name" v="Nordvoll" />
		<tag k="place" v="isolated_dwelling" />
		<tag k="ssr:stedsnr" v="206799" />
	</node>
	<node lat="58.84945277970551" lon="9.09677221638096" id="-29574">
		<tag k="name" v="Myrland" />
		<tag k="place" v="farm" />
		<tag k="ssr:stedsnr" v="206970" />
	</node>
	<node lat="58.85587778058133" lon="9.055508329328475" id="-29580">
		<tag k="name" v="Åsen" />
		<tag k="place" v="isolated_dwelling" />
		<tag k="ssr:stedsnr" v="207992" />
	</node>
	<node lat="58.86056388812276" lon="9.125872223280977" id="-29582">
		<tag k="name" v="Lille Sundsøygard" />
		<tag k="place" v="farm" />
		<tag k="ssr:stedsnr" v="207997" />
	</node>
	<node lat="58.8288777790772" lon="8.961069441073523" id="-29590">
		<tag k="name" v="Venås" />
		<tag k="place" v="farm" />
		<tag k="ssr:stedsnr" v="304071" />
	</node>
	<node lat="58.8638888855671" lon="8.909841669738684" id="-29594">
		<tag k="alt_name" v="Finnli" />
		<tag k="name" v="Finnlia" />
		<tag k="place" v="locality" />
		<tag k="ssr:stedsnr" v="304163" />
	</node>
	<node lat="58.86503055890509" lon="8.912855555999226" id="-29595">
		<tag k="name" v="Fjellheim" />
		<tag k="place" v="farm" />
		<tag k="ssr:stedsnr" v="304164" />
	</node>
	<node lat="58.88173888635449" lon="8.807452773197685" id="-29599">
		<tag k="name" v="Grasåsen" />
		<tag k="place" v="locality" />
		<tag k="ssr:stedsnr" v="304732" />
	</node>
	<node lat="58.90084999613968" lon="9.007577781517579" id="-29602">
		<tag k="name" v="Flaten" />
		<tag k="place" v="farm" />
		<tag k="ssr:stedsnr" v="305797" />
	</node>
	<node lat="58.87876388716363" lon="9.023175005638956" id="-29624">
		<tag k="amenity" v="nursing_home" />
		<tag k="name" v="Tanngarden" />
		<tag k="ssr:stedsnr" v="327772" />
	</node>
	<node lat="58.88305000414331" lon="8.940658338600821" id="-29634">
		<tag k="name" v="Varden" />
		<tag k="place" v="farm" />
		<tag k="ssr:stedsnr" v="327745" />
	</node>
	<node lat="58.833325004002" lon="9.14222222456108" id="-29635">
		<tag k="name" v="Lars Jensens Øygard" />
		<tag k="place" v="locality" />
		<tag k="ssr:stedsnr" v="327749" />
	</node>
	<node lat="58.81821666855665" lon="9.028305559305972" id="-29639">
		<tag k="name" v="Skogvang" />
		<tag k="place" v="farm" />
		<tag k="ssr:stedsnr" v="327941" />
	</node>
	<node lat="58.89446666731748" lon="8.97061944452363" id="-29667">
		<tag k="name" v="Rønningen" />
		<tag k="place" v="farm" />
		<tag k="ssr:stedsnr" v="327997" />
	</node>
	<node lat="58.83355277590815" lon="9.184133330390313" id="-29670">
		<tag k="name" v="Strat" />
		<tag k="place" v="farm" />
		<tag k="ssr:stedsnr" v="364051" />
	</node>
	<node lat="58.76596666419422" lon="9.039302779869256" id="-29674">
		<tag k="name" v="Espestø" />
		<tag k="place" v="isolated_dwelling" />
		<tag k="ssr:stedsnr" v="364389" />
	</node>
	<node lat="58.83998055950756" lon="9.114677769419231" id="-29675">
		<tag k="name" v="Rød" />
		<tag k="place" v="farm" />
		<tag k="ssr:stedsnr" v="364087" />
	</node>
	<node lat="58.90630418671858" lon="8.82926214950482" id="-29691">
		<tag k="name" v="Kabrettstea" />
		<tag k="place" v="isolated_dwelling" />
		<tag k="ssr:stedsnr" v="365475" />
	</node>
	<node lat="58.915411113694944" lon="8.99933889716707" id="-29692">
		<tag k="alt_name" v="Snipsetra" />
		<tag k="name" v="Snipsætra" />
		<tag k="place" v="locality" />
		<tag k="ssr:stedsnr" v="365775" />
	</node>
	<node lat="58.87577221935282" lon="9.141594448307435" id="-29712">
		<tag k="historic" v="shieling" />
		<tag k="name" v="Storsunds" />
		<tag k="place" v="isolated_dwelling" />
		<tag k="ssr:stedsnr" v="388616" />
	</node>
	<node lat="58.9248999965357" lon="9.014038885075221" id="-29725">
		<tag k="name" v="Evjebu" />
		<tag k="place" v="isolated_dwelling" />
		<tag k="ssr:stedsnr" v="388873" />
	</node>
	<node lat="58.89605365659081" lon="8.976419605408482" id="-29734">
		<tag k="name" v="Tollheimen" />
		<tag k="place" v="farm" />
		<tag k="ssr:stedsnr" v="388986" />
	</node>
	<node lat="58.86041666712695" lon="9.065388897335474" id="-29735">
		<tag k="name" v="Godmorshage" />
		<tag k="place" v="farm" />
		<tag k="ssr:stedsnr" v="388987" />
	</node>
	<node lat="58.8834916699459" lon="8.945894452598175" id="-29737">
		<tag k="name" v="Løyte" />
		<tag k="place" v="farm" />
		<tag k="ssr:stedsnr" v="424578" />
	</node>
	<node lat="58.88559444144216" lon="8.952049998882499" id="-29738">
		<tag k="name" v="Løytesbakken" />
		<tag k="place" v="farm" />
		<tag k="ssr:stedsnr" v="424590" />
	</node>
	<node lat="58.88208055244639" lon="9.11590277276529" id="-29739">
		<tag k="name" v="Lia" />
		<tag k="place" v="isolated_dwelling" />
		<tag k="ssr:stedsnr" v="425222" />
	</node>
	<node lat="58.84593610843889" lon="9.107352769614202" id="-29740">
		<tag k="fixme" v="consider place=hamlet" />
		<tag k="name" v="Østerholt" />
		<tag k="place" v="farm" />
		<tag k="ssr:stedsnr" v="426126" />
	</node>
	<node lat="58.835816671142204" lon="9.094580559720734" id="-29742">
		<tag k="name" v="Bjørndalen" />
		<tag k="place" v="farm" />
		<tag k="ssr:stedsnr" v="426069" />
	</node>
	<node lat="58.877991668181735" lon="9.028616666044476" id="-29757">
		<tag k="name" v="Tangen" />
		<tag k="place" v="farm" />
		<tag k="ssr:stedsnr" v="509771" />
	</node>
	<node lat="58.82359444655837" lon="9.167119443812277" id="-29766">
		<tag k="name" v="Hasseldalen" />
		<tag k="place" v="locality" />
		<tag k="ssr:stedsnr" v="509633" />
	</node>
	<node lat="58.88038610908079" lon="8.985674998057736" id="-29768">
		<tag k="name" v="Plassen" />
		<tag k="place" v="locality" />
		<tag k="ssr:stedsnr" v="509727" />
	</node>
	<node lat="58.88863889016401" lon="9.049963889417056" id="-29797">
		<tag k="name" v="Tjennbakken" />
		<tag k="place" v="farm" />
		<tag k="ssr:stedsnr" v="509986" />
	</node>
	<node lat="58.89083333205686" lon="9.050538886915998" id="-29798">
		<tag k="name" v="Bråtane" />
		<tag k="place" v="farm" />
		<tag k="ssr:stedsnr" v="509989" />
	</node>
	<node lat="58.841780558085134" lon="9.113797215177717" id="-29803">
		<tag k="name" v="Storøygard" />
		<tag k="place" v="farm" />
		<tag k="ssr:stedsnr" v="510989" />
	</node>
	<node lat="58.829825002771074" lon="9.054983331561006" id="-29806">
		<tag k="fixme" v="consider place=hamlet" />
		<tag k="name" v="Gryting" />
		<tag k="place" v="farm" />
		<tag k="ssr:stedsnr" v="546070" />
	</node>
	<node lat="58.86273332925932" lon="8.867699994596709" id="-29810">
		<tag k="name" v="Vik" />
		<tag k="place" v="locality" />
		<tag k="ssr:stedsnr" v="546168" />
	</node>
	<node lat="58.93678888620363" lon="8.87765277436387" id="-29822">
		<tag k="name" v="Finnen" />
		<tag k="place" v="locality" />
		<tag k="ssr:stedsnr" v="547841" />
	</node>
	<node lat="58.90349721903423" lon="9.014966660618853" id="-29826">
		<tag k="fixme" v="consider place=hamlet" />
		<tag k="name" v="Fossbrekk" />
		<tag k="place" v="farm" />
		<tag k="ssr:stedsnr" v="548786" />
	</node>
	<node lat="58.890236108832426" lon="9.047458326660422" id="-29831">
		<tag k="name" v="Flaten" />
		<tag k="place" v="farm" />
		<tag k="ssr:stedsnr" v="569988" />
	</node>
	<node lat="58.92246666490441" lon="8.958661104381745" id="-29837">
		<tag k="name" v="Tangvall" />
		<tag k="place" v="isolated_dwelling" />
		<tag k="ssr:stedsnr" v="569848" />
	</node>
	<node lat="58.86165278205796" lon="9.04918054870788" id="-29844">
		<tag k="name" v="Neset" />
		<tag k="place" v="farm" />
		<tag k="ssr:stedsnr" v="570782" />
	</node>
	<node lat="58.83116666664343" lon="9.078613886811741" id="-29871">
		<tag k="alt_name" v="Åbø" />
		<tag k="name" v="Åbu" />
		<tag k="place" v="farm" />
		<tag k="ssr:stedsnr" v="607066" />
	</node>
	<node lat="58.86262892602065" lon="9.057978040496113" id="-29875">
		<tag k="name" v="Kufjell" />
		<tag k="place" v="isolated_dwelling" />
		<tag k="ssr:stedsnr" v="607160" />
	</node>
	<node lat="58.825413888802785" lon="9.15413055435263" id="-29878">
		<tag k="alt_name" v="Eikstøkjerret" />
		<tag k="name" v="Eikestøkjerret" />
		<tag k="place" v="isolated_dwelling" />
		<tag k="ssr:stedsnr" v="607037" />
	</node>
	<node lat="58.88451389274983" lon="8.987366668523896" id="-29880">
		<tag k="fixme" v="consider place=hamlet" />
		<tag k="name" v="Landsverk" />
		<tag k="place" v="farm" />
		<tag k="ssr:stedsnr" v="607232" />
	</node>
	<node lat="58.88743055491562" lon="8.961494451091196" id="-29882">
		<tag k="fixme" v="consider place=hamlet" />
		<tag k="name" v="Åsbø" />
		<tag k="place" v="farm" />
		<tag k="ssr:stedsnr" v="607235" />
	</node>
	<node lat="58.882869446300965" lon="8.938113897008341" id="-29883">
		<tag k="name" v="Mykland" />
		<tag k="place" v="farm" />
		<tag k="ssr:stedsnr" v="607236" />
	</node>
	<node lat="58.932430558215806" lon="8.897069450921405" id="-29894">
		<tag k="name" v="Solem" />
		<tag k="place" v="isolated_dwelling" />
		<tag k="ssr:stedsnr" v="607835" />
	</node>
	<node lat="58.92367709323726" lon="8.94834753081406" id="-29905">
		<tag k="name" v="Valle" />
		<tag k="place" v="isolated_dwelling" />
		<tag k="ssr:stedsnr" v="630823" />
	</node>
	<node lat="58.826958336414236" lon="9.052861103174218" id="-29924">
		<tag k="name" v="Rønningen" />
		<tag k="place" v="farm" />
		<tag k="ssr:stedsnr" v="630742" />
	</node>
	<node lat="58.780916663183504" lon="9.05355555699789" id="-29940">
		<tag k="name" v="Nygård" />
		<tag k="place" v="farm" />
		<tag k="ssr:stedsnr" v="630956" />
	</node>
	<node lat="58.854652775241476" lon="9.116333332103187" id="-29946">
		<tag k="name" v="Øygarden" />
		<tag k="place" v="farm" />
		<tag k="ssr:stedsnr" v="631995" />
	</node>
	<node lat="58.8841166657195" lon="9.041908340422788" id="-29950">
		<tag k="alt_name" v="Apland" />
		<tag k="fixme" v="consider place=hamlet" />
		<tag k="name" v="Apeland" />
		<tag k="place" v="farm" />
		<tag k="ssr:stedsnr" v="668257" />
	</node>
	<node lat="58.881563890139105" lon="8.914191667733366" id="-29952">
		<tag k="name" v="Saghausen" />
		<tag k="place" v="isolated_dwelling" />
		<tag k="ssr:stedsnr" v="668267" />
	</node>
	<node lat="58.88292222242652" lon="8.93138055338827" id="-29953">
		<tag k="name" v="Hagen" />
		<tag k="place" v="farm" />
		<tag k="ssr:stedsnr" v="668270" />
	</node>
	<node lat="58.882133336908375" lon="8.855080562180241" id="-29954">
		<tag k="name" v="Torbjørnslia" />
		<tag k="place" v="isolated_dwelling" />
		<tag k="ssr:stedsnr" v="668274" />
	</node>
	<node lat="58.83213332887445" lon="9.093288888850788" id="-29961">
		<tag k="name" v="Harsund" />
		<tag k="place" v="isolated_dwelling" />
		<tag k="ssr:stedsnr" v="668068" />
	</node>
	<node lat="58.84451666579585" lon="9.096983329408452" id="-29964">
		<tag k="fixme" v="consider place=hamlet" />
		<tag k="name" v="Sunde" />
		<tag k="place" v="farm" />
		<tag k="ssr:stedsnr" v="668082" />
	</node>
	<node lat="58.864033337650326" lon="9.14112500062849" id="-29968">
		<tag k="alt_name" v="Breiøygard" />
		<tag k="name" v="Breidøygard" />
		<tag k="place" v="farm" />
		<tag k="ssr:stedsnr" v="668173" />
	</node>
	<node lat="58.870513887012955" lon="8.873930554606588" id="-29969">
		<tag k="alt_name" v="Stien" />
		<tag k="name" v="Stigen" />
		<tag k="place" v="locality" />
		<tag k="ssr:stedsnr" v="668183" />
	</node>
	<node lat="58.85618055664021" lon="9.119586118544836" id="-29973">
		<tag k="name" v="Sandnes" />
		<tag k="place" v="farm" />
		<tag k="ssr:stedsnr" v="668118" />
	</node>
	<node lat="58.933616663991664" lon="8.797480556402595" id="-29975">
		<tag k="name" v="Øygarden" />
		<tag k="place" v="farm" />
		<tag k="ssr:stedsnr" v="668428" />
	</node>
	<node lat="58.88272500389496" lon="8.922408330224231" id="-29983">
		<tag k="name" v="Løyte" />
		<tag k="place" v="farm" />
		<tag k="ssr:stedsnr" v="727600" />
	</node>
	<node lat="58.886475002576816" lon="8.93181944678825" id="-29984">
		<tag k="name" v="Løyte" />
		<tag k="place" v="farm" />
		<tag k="ssr:stedsnr" v="727603" />
	</node>
	<node lat="58.82716666937363" lon="9.033758338456542" id="-29985">
		<tag k="name" v="Stormyr" />
		<tag k="place" v="farm" />
		<tag k="ssr:stedsnr" v="729044" />
	</node>
	<node lat="58.82435278205452" lon="9.108127785368174" id="-29986">
		<tag k="name" v="Åsland" />
		<tag k="place" v="farm" />
		<tag k="ssr:stedsnr" v="729047" />
	</node>
	<node lat="58.84818610876756" lon="8.982836115691951" id="-29987">
		<tag k="alt_name" v="Vehusmyr" />
		<tag k="name" v="Vedhusmyra" />
		<tag k="place" v="isolated_dwelling" />
		<tag k="ssr:stedsnr" v="729135" />
	</node>
	<node lat="58.85635000020995" lon="9.009625000568871" id="-29989">
		<tag k="alt_name" v="Skaldrup" />
		<tag k="loc_name" v="Skalltorp" />
		<tag k="name" v="Skalldråp" />
		<tag k="place" v="locality" />
		<tag k="ssr:stedsnr" v="729149" />
	</node>
	<node lat="58.86142499842102" lon="9.076575002150157" id="-29990">
		<tag k="fixme" v="consider place=hamlet" />
		<tag k="name" v="Mo" />
		<tag k="place" v="farm" />
		<tag k="ssr:stedsnr" v="729153" />
	</node>
	<node lat="58.85378611134369" lon="9.08068056272229" id="-29991">
		<tag k="name" v="Tangen" />
		<tag k="place" v="isolated_dwelling" />
		<tag k="ssr:stedsnr" v="729155" />
	</node>
	<node lat="58.97907222183836" lon="8.9750888925107" id="-29992">
		<tag k="name" v="Bjynnustad" />
		<tag k="place" v="isolated_dwelling" />
		<tag k="ssr:stedsnr" v="728993" />
	</node>
	<node lat="58.838644443770875" lon="8.973361108897446" id="-29993">
		<tag k="alt_name" v="Vehus" />
		<tag k="name" v="Vedhus" />
		<tag k="place" v="farm" />
		<tag k="ssr:stedsnr" v="729097" />
	</node>
	<node lat="58.87703611009083" lon="9.13316111320543" id="-29995">
		<tag k="name" v="Rågeitlia" />
		<tag k="place" v="isolated_dwelling" />
		<tag k="ssr:stedsnr" v="729207" />
	</node>
	<node lat="58.88474166756737" lon="8.99423055515076" id="-29996">
		<tag k="fixme" v="consider place=hamlet" />
		<tag k="name" v="Melås" />
		<tag k="place" v="farm" />
		<tag k="ssr:stedsnr" v="729228" />
	</node>
	<node lat="58.83675000258361" lon="9.086519436224812" id="-30030">
		<tag k="name" v="Renstøl" />
		<tag k="place" v="farm" />
		<tag k="ssr:stedsnr" v="752732" />
	</node>
	<node lat="58.86878333664403" lon="9.078733329616476" id="-30042">
		<tag k="name" v="Bråtane" />
		<tag k="place" v="locality" />
		<tag k="ssr:stedsnr" v="752847" />
	</node>
	<node lat="58.89328888674098" lon="8.987994441637412" id="-30051">
		<tag k="name" v="Røa" />
		<tag k="place" v="isolated_dwelling" />
		<tag k="ssr:stedsnr" v="752988" />
	</node>
	<node lat="58.89584166848391" lon="8.981025002150519" id="-30054">
		<tag k="name" v="Moen" />
		<tag k="place" v="farm" />
		<tag k="ssr:stedsnr" v="753000" />
	</node>
	<node lat="58.83930277417138" lon="8.959866666213568" id="-30056">
		<tag k="name" v="Tormodsmyr" />
		<tag k="place" v="isolated_dwelling" />
		<tag k="ssr:stedsnr" v="752929" />
	</node>
	<node lat="58.87772500169806" lon="8.846191667527119" id="-30064">
		<tag k="name" v="Løyte" />
		<tag k="place" v="farm" />
		<tag k="ssr:stedsnr" v="788581" />
	</node>
	<node lat="58.86075000449196" lon="8.921786105104832" id="-30071">
		<tag k="fixme" v="consider place=hamlet" />
		<tag k="name" v="Vestøl" />
		<tag k="place" v="farm" />
		<tag k="ssr:stedsnr" v="789147" />
	</node>
	<node lat="58.86939999666529" lon="9.018686115533042" id="-30073">
		<tag k="fixme" v="consider place=hamlet" />
		<tag k="name" v="Ulltveit" />
		<tag k="place" v="farm" />
		<tag k="ssr:stedsnr" v="789164" />
	</node>
	<node lat="58.87000555948161" lon="8.960444440861142" id="-30077">
		<tag k="fixme" v="consider place=hamlet" />
		<tag k="name" v="Mesel" />
		<tag k="place" v="farm" />
		<tag k="ssr:stedsnr" v="789197" />
	</node>
	<node lat="58.80085278001935" lon="9.131300007841459" id="-30083">
		<tag k="name" v="Grønland" />
		<tag k="place" v="isolated_dwelling" />
		<tag k="ssr:stedsnr" v="790496" />
	</node>
	<node lat="58.850011112532194" lon="9.083066659846766" id="-30111">
		<tag k="name" v="Tveitstangen" />
		<tag k="place" v="farm" />
		<tag k="ssr:stedsnr" v="813971" />
	</node>
	<node lat="58.88336944313031" lon="9.023633326407797" id="-30123">
		<tag k="amenity" v="school" />
		<tag k="name" v="Gjerstad skule" />
		<tag k="ssr:stedsnr" v="813735" />
	</node>
	<node lat="58.82804722276725" lon="9.09161944958491" id="-30124">
		<tag k="name" v="Martesplass" />
		<tag k="place" v="locality" />
		<tag k="ssr:stedsnr" v="813736" />
	</node>
	<node lat="58.88874722335149" lon="9.025052774245028" id="-30127">
		<tag k="name" v="Danielsplass" />
		<tag k="place" v="isolated_dwelling" />
		<tag k="ssr:stedsnr" v="813743" />
	</node>
	<node lat="58.8871777741879" lon="8.998266659344049" id="-30129">
		<tag k="name" v="Melaaslia" />
		<tag k="place" v="farm" />
		<tag k="ssr:stedsnr" v="813755" />
	</node>
	<node lat="58.88601110851505" lon="9.005027785063453" id="-30130">
		<tag k="name" v="Høgbråt" />
		<tag k="place" v="farm" />
		<tag k="ssr:stedsnr" v="813763" />
	</node>
	<node lat="58.88383333264801" lon="8.952416661119287" id="-30157">
		<tag k="name" v="Løyte" />
		<tag k="place" v="farm" />
		<tag k="ssr:stedsnr" v="849636" />
	</node>
	<node lat="58.823758330678864" lon="8.984888881223254" id="-30158">
		<tag k="name" v="Maurlia" />
		<tag k="place" v="isolated_dwelling" />
		<tag k="ssr:stedsnr" v="850045" />
	</node>
	<node lat="58.82760278205494" lon="9.10628611268195" id="-30160">
		<tag k="name" v="Vika" />
		<tag k="place" v="farm" />
		<tag k="ssr:stedsnr" v="850057" />
	</node>
	<node lat="58.861211112822566" lon="8.939325005663589" id="-30162">
		<tag k="name" v="Liane" />
		<tag k="place" v="locality" />
		<tag k="ssr:stedsnr" v="850151" />
	</node>
	<node lat="58.86614722232097" lon="8.846641661649727" id="-30167">
		<tag k="alt_name" v="Ållstaua" />
		<tag k="name" v="Ållstua" />
		<tag k="place" v="isolated_dwelling" />
		<tag k="ssr:stedsnr" v="850174" />
	</node>
	<node lat="58.95761111384082" lon="8.963258340336544" id="-30172">
		<tag k="name" v="Digerdal" />
		<tag k="place" v="isolated_dwelling" />
		<tag k="ssr:stedsnr" v="850902" />
	</node>
	<node lat="58.87419999573495" lon="8.859505561013355" id="-30173">
		<tag k="name" v="Vefall" />
		<tag k="place" v="locality" />
		<tag k="ssr:stedsnr" v="851188" />
	</node>
	<node lat="58.87248055301491" lon="8.86532777030253" id="-30174">
		<tag k="name" v="Luten" />
		<tag k="place" v="isolated_dwelling" />
		<tag k="ssr:stedsnr" v="851191" />
	</node>
	<node lat="58.89364166630282" lon="9.001088888925302" id="-30182">
		<tag k="name" v="Dalen" />
		<tag k="place" v="farm" />
		<tag k="ssr:stedsnr" v="851799" />
	</node>
	<node lat="58.84385555451049" lon="8.93893611832942" id="-30189">
		<tag k="name" v="Hundsvassøygard" />
		<tag k="place" v="locality" />
		<tag k="ssr:stedsnr" v="873483" />
	</node>
	<node lat="58.87406666678756" lon="8.816455555078562" id="-30206">
		<tag k="name" v="Fjølmyrbua" />
		<tag k="place" v="locality" />
		<tag k="ssr:stedsnr" v="873689" />
	</node>
	<node lat="58.86347777541185" lon="9.04234166682812" id="-30222">
		<tag k="name" v="Bråten" />
		<tag k="place" v="farm" />
		<tag k="ssr:stedsnr" v="873788" />
	</node>
	<node lat="58.88137500025152" lon="9.007119452815104" id="-30228">
		<tag k="name" v="Ormekleiv" />
		<tag k="place" v="farm" />
		<tag k="ssr:stedsnr" v="873818" />
	</node>
	<node lat="58.810141669171365" lon="9.039422217481228" id="-30242">
		<tag k="name" v="Vesterli" />
		<tag k="place" v="isolated_dwelling" />
		<tag k="ssr:stedsnr" v="873863" />
	</node>
	<node lat="58.812683336240994" lon="9.09462776936753" id="-30256">
		<tag k="name" v="Sagåsen" />
		<tag k="place" v="farm" />
		<tag k="ssr:stedsnr" v="873926" />
	</node>
	<node lat="58.79533332957252" lon="9.074583330927675" id="-30264">
		<tag k="name" v="Haugemoen" />
		<tag k="place" v="farm" />
		<tag k="ssr:stedsnr" v="873957" />
	</node>
	<node lat="58.891725002018546" lon="8.947661106712888" id="-30267">
		<tag k="name" v="Åvåldsplass" />
		<tag k="place" v="locality" />
		<tag k="ssr:stedsnr" v="873980" />
	</node>
	<node lat="58.858380557666734" lon="9.054316662390029" id="-30272">
		<tag k="fixme" v="consider place=hamlet" />
		<tag k="name" v="Lille Haugeto" />
		<tag k="place" v="farm" />
		<tag k="ssr:stedsnr" v="874969" />
	</node>
	<node lat="58.97261944635516" lon="8.9401861038265" id="-30274">
		<tag k="name" v="Nybu" />
		<tag k="place" v="locality" />
		<tag k="ssr:stedsnr" v="935611" />
	</node>
	<node lat="58.884766670079074" lon="8.948927774279676" id="-30277">
		<tag k="name" v="Vestre Løyte" />
		<tag k="place" v="farm" />
		<tag k="ssr:stedsnr" v="970151" />
	</node>
	<node lat="58.822526743249355" lon="9.073427556529959" id="-30278">
		<tag k="name" v="Brokelandsheia" />
		<tag k="place" v="village" />
		<tag k="ssr:stedsnr" v="972952" />
	</node>
	<node lat="58.88675085045088" lon="9.009474530431985" id="-30282">
		<tag k="name" v="Enghola" />
		<tag k="place" v="farm" />
		<tag k="ssr:stedsnr" v="1077473" />
	</node>
	<node lat="58.98312477584012" lon="8.97512839919177" id="-30283">
		<tag k="name" v="Bjynnustadteigen" />
		<tag k="place" v="farm" />
		<tag k="ssr:stedsnr" v="1079844" />
	</node>
</osm>
