<?xml version="1.0" encoding="UTF-8"?>
<osm version="0.6" generator="osmapis">
	<node lat="58.884963893128145" lon="9.16050554751857" id="-54752">
		<tag k="historic" v="boundary_stone" />
		<tag k="man_made" v="cairn" />
		<tag k="name" v="Brøsjøhella" />
		<tag k="place" v="locality" />
		<tag k="ssr:stedsnr" v="637247" />
	</node>
	<node lat="58.972409016354824" lon="8.922003704854607" id="-55087">
		<tag k="fixme" v="consider boundary=protected_area and relevant protect_class if not nature reserve" />
		<tag k="leisure" v="nature_reserve" />
		<tag k="name" v="Fossbufjellet naturreservat" />
		<tag k="ssr:stedsnr" v="981729" />
	</node>
	<node lat="58.97881744761479" lon="8.96166038638338" id="-55088">
		<tag k="fixme" v="consider boundary=protected_area and relevant protect_class if not nature reserve" />
		<tag k="leisure" v="nature_reserve" />
		<tag k="name" v="Bjynnustad naturreservat" />
		<tag k="ssr:stedsnr" v="981732" />
	</node>
	<node lat="58.956817068398244" lon="8.686279773390002" id="-55089">
		<tag k="fixme" v="consider boundary=protected_area and relevant protect_class if not nature reserve" />
		<tag k="leisure" v="nature_reserve" />
		<tag k="name" v="Solhomfjell og Kvenntjønnane  naturreservat" />
		<tag k="ssr:stedsnr" v="982025" />
	</node>
</osm>
