<?xml version="1.0" encoding="UTF-8"?>
<osm generator="osmapis" version="0.6">
	<node id="-49152" lat="58.9424138923" lon="8.96177222387">
		<tag k="name" v="Midtbuhommen" />
		<tag k="place" v="locality" />
		<tag k="ssr:stedsnr" v="691835" />
	</node>
	<node id="-49151" lat="58.877969444" lon="9.09114721982">
		<tag k="name" v="Småmyrene" />
		<tag k="natural" v="wetland" />
		<tag k="ssr:stedsnr" v="691829" />
	</node>
	<node id="-49150" lat="58.8898222245" lon="9.08804722267">
		<tag k="name" v="Olskjerr" />
		<tag k="natural" v="wetland" />
		<tag k="ssr:stedsnr" v="691824" />
	</node>
	<node id="-49143" lat="58.8931833294" lon="9.07308056014">
		<tag k="name" v="Porskjerr" />
		<tag k="natural" v="wetland" />
		<tag k="ssr:stedsnr" v="691790" />
	</node>
	<node id="-49140" lat="58.827475003" lon="9.11702499246">
		<tag k="name" v="Damstea" />
		<tag k="natural" v="wetland" />
		<tag k="ssr:stedsnr" v="691762" />
	</node>
	<node id="-49136" lat="58.8271222234" lon="9.05955833692">
		<tag k="name" v="Tjennmyra" />
		<tag k="natural" v="wetland" />
		<tag k="ssr:stedsnr" v="691734" />
	</node>
	<node id="-49135" lat="58.8501916637" lon="9.14978611292">
		<tag k="name" v="Jonssteene" />
		<tag k="place" v="locality" />
		<tag k="ssr:stedsnr" v="691727" />
	</node>
	<node id="-49130" lat="58.8279583344" lon="9.09728611673">
		<tag k="name" v="Hesteinen" />
		<tag k="natural" v="stone" />
		<tag k="ssr:stedsnr" v="691712" />
	</node>
	<node id="-49126" lat="58.8596111107" lon="9.17064999466">
		<tag k="name" v="Myra i Åsen" />
		<tag k="natural" v="wetland" />
		<tag k="ssr:stedsnr" v="691656" />
	</node>
	<node id="-49125" lat="58.8546333311" lon="9.16324167356">
		<tag k="name" v="Tjærgravmyrene" />
		<tag k="natural" v="wetland" />
		<tag k="ssr:stedsnr" v="691654" />
	</node>
	<node id="-49124" lat="58.8578416672" lon="9.17108333241">
		<tag k="name" v="Langmyr" />
		<tag k="natural" v="wetland" />
		<tag k="ssr:stedsnr" v="691651" />
	</node>
	<node id="-49121" lat="58.8751500039" lon="9.11963056065">
		<tag k="name" v="Fjellmyrkjerra" />
		<tag k="natural" v="wetland" />
		<tag k="ssr:stedsnr" v="691627" />
	</node>
	<node id="-49111" lat="58.9050638888" lon="8.93493610926">
		<tag k="name" v="Kartmyr" />
		<tag k="natural" v="wetland" />
		<tag k="ssr:stedsnr" v="691553" />
	</node>
	<node id="-49106" lat="58.8950527811" lon="8.89465277363">
		<tag k="name" v="Tostreismyr" />
		<tag k="natural" v="wetland" />
		<tag k="ssr:stedsnr" v="691524" />
	</node>
	<node id="-49105" lat="58.8920999998" lon="8.888036119">
		<tag k="name" v="Dukane" />
		<tag k="natural" v="wetland" />
		<tag k="ssr:stedsnr" v="691523" />
	</node>
	<node id="-49102" lat="58.8536083331" lon="8.90579444831">
		<tag k="name" v="Djupkjerr" />
		<tag k="natural" v="wetland" />
		<tag k="ssr:stedsnr" v="691510" />
	</node>
	<node id="-49099" lat="58.8931722217" lon="8.84562777654">
		<tag k="name" v="Hommen" />
		<tag k="place" v="locality" />
		<tag k="ssr:stedsnr" v="691489" />
	</node>
	<node id="-49097" lat="58.9048805579" lon="8.87035278011">
		<tag k="name" v="Rossmyr" />
		<tag k="natural" v="wetland" />
		<tag k="ssr:stedsnr" v="691483" />
	</node>
	<node id="-49096" lat="58.9016444466" lon="8.85096667185">
		<tag k="name" v="Godfarsmyr" />
		<tag k="natural" v="wetland" />
		<tag k="ssr:stedsnr" v="691480" />
	</node>
	<node id="-49092" lat="58.798441666" lon="9.01366110453">
		<tag k="name" v="Tokskjerr" />
		<tag k="natural" v="wetland" />
		<tag k="ssr:stedsnr" v="509869" />
	</node>
	<node id="-49087" lat="58.8455499966" lon="8.98906389367">
		<tag k="name" v="Ljåmyr" />
		<tag k="natural" v="wetland" />
		<tag k="ssr:stedsnr" v="509911" />
	</node>
	<node id="-49080" lat="58.8339305537" lon="9.10212499719">
		<tag k="name" v="Kjerringmyra" />
		<tag k="natural" v="wetland" />
		<tag k="ssr:stedsnr" v="509719" />
	</node>
	<node id="-49078" lat="58.9508861109" lon="8.81844722699">
		<tag k="name" v="Grønlimyra" />
		<tag k="natural" v="wetland" />
		<tag k="ssr:stedsnr" v="509675" />
	</node>
	<node id="-49074" lat="58.8907222263" lon="8.90681388757">
		<tag k="alt_name" v="Sortmyr" />
		<tag k="name" v="Surtmyr" />
		<tag k="natural" v="wetland" />
		<tag k="ssr:stedsnr" v="486810" />
	</node>
	<node id="-49070" lat="58.841402782" lon="9.1524416692">
		<tag k="alt_name" v="Stormyr" />
		<tag k="name" v="Stormyra" />
		<tag k="natural" v="wetland" />
		<tag k="ssr:stedsnr" v="486068" />
	</node>
	<node id="-49063" lat="58.914952778" lon="9.03905278619">
		<tag k="name" v="Husmyr" />
		<tag k="natural" v="wetland" />
		<tag k="ssr:stedsnr" v="669751" />
	</node>
	<node id="-49061" lat="58.9799111123" lon="9.00062222354">
		<tag k="name" v="Eivindsstea" />
		<tag k="place" v="locality" />
		<tag k="ssr:stedsnr" v="668971" />
	</node>
	<node id="-49056" lat="58.9277555533" lon="8.90679166745">
		<tag k="alt_name" v="Solemsfetene" />
		<tag k="name" v="Solemsfetane" />
		<tag k="natural" v="wetland" />
		<tag k="ssr:stedsnr" v="668833" />
	</node>
	<node id="-49042" lat="58.8969027796" lon="9.10779999803">
		<tag k="name" v="Tranmyra" />
		<tag k="natural" v="wetland" />
		<tag k="ssr:stedsnr" v="668259" />
	</node>
	<node id="-49038" lat="58.8883916641" lon="9.14305834041">
		<tag k="name" v="Djupmyr" />
		<tag k="natural" v="wetland" />
		<tag k="ssr:stedsnr" v="668221" />
	</node>
	<node id="-49815" lat="58.8843972202" lon="8.84975277025">
		<tag k="name" v="Folhomstea" />
		<tag k="natural" v="wetland" />
		<tag k="ssr:stedsnr" v="182237" />
	</node>
	<node id="-49020" lat="58.8473111096" lon="9.02281389364">
		<tag k="alt_name" v="Kortmyra" />
		<tag k="name" v="Kartmyr" />
		<tag k="natural" v="wetland" />
		<tag k="ssr:stedsnr" v="668112" />
	</node>
	<node id="-49018" lat="58.8462444448" lon="9.15157221587">
		<tag k="alt_name" v="Urene" />
		<tag k="name" v="Urdene" />
		<tag k="natural" v="scree" />
		<tag k="ssr:stedsnr" v="668106" />
	</node>
	<node id="-49003" lat="58.9334805565" lon="9.01886389648">
		<tag k="name" v="Tverrkjerra" />
		<tag k="natural" v="wetland" />
		<tag k="ssr:stedsnr" v="449819" />
	</node>
	<node id="-49000" lat="58.9368916675" lon="8.95873055464">
		<tag k="name" v="Tverrmyrene" />
		<tag k="natural" v="wetland" />
		<tag k="ssr:stedsnr" v="449811" />
	</node>
	<node id="-48993" lat="58.8214111081" lon="8.98205832946">
		<tag k="name" v="Nordre Steene" />
		<tag k="natural" v="wetland" />
		<tag k="ssr:stedsnr" v="449908" />
	</node>
	<node id="-48987" lat="58.8435750045" lon="9.14862778144">
		<tag k="name" v="Persmyr" />
		<tag k="natural" v="wetland" />
		<tag k="ssr:stedsnr" v="449720" />
	</node>
	<node id="-48986" lat="58.8500444453" lon="9.16025277374">
		<tag k="name" v="Småmyrene" />
		<tag k="natural" v="wetland" />
		<tag k="ssr:stedsnr" v="449718" />
	</node>
	<node id="-48984" lat="58.8280305522" lon="9.08670556038">
		<tag k="name" v="Kalsmyra" />
		<tag k="natural" v="wetland" />
		<tag k="ssr:stedsnr" v="449712" />
	</node>
	<node id="-48983" lat="58.8796222227" lon="8.81273611261">
		<tag k="name" v="Grasåsmyrene" />
		<tag k="natural" v="wetland" />
		<tag k="ssr:stedsnr" v="449709" />
	</node>
	<node id="-48977" lat="58.9297416707" lon="8.92282777073">
		<tag k="name" v="Lundemyr" />
		<tag k="natural" v="wetland" />
		<tag k="ssr:stedsnr" v="449516" />
	</node>
	<node id="-48975" lat="58.8784222192" lon="8.85318055442">
		<tag k="name" v="Grisbekkstea" />
		<tag k="natural" v="wetland" />
		<tag k="ssr:stedsnr" v="449505" />
	</node>
	<node id="-48967" lat="58.9611638924" lon="8.90562777975">
		<tag k="alt_name" v="Fjosbusteene" />
		<tag k="name" v="Fjosbusteane" />
		<tag k="natural" v="wetland" />
		<tag k="ssr:stedsnr" v="426910" />
	</node>
	<node id="-48956" lat="58.843880553" lon="9.14512777784">
		<tag k="name" v="Persmyrholene" />
		<tag k="place" v="locality" />
		<tag k="ssr:stedsnr" v="510771" />
	</node>
	<node id="-48954" lat="58.7731694428" lon="9.04104445247">
		<tag k="name" v="Lille Bjørnebukkskjerr" />
		<tag k="natural" v="wetland" />
		<tag k="ssr:stedsnr" v="510605" />
	</node>
	<node id="-48952" lat="58.903561111" lon="8.98248054918">
		<tag k="name" v="Espelimyra" />
		<tag k="natural" v="wetland" />
		<tag k="ssr:stedsnr" v="509995" />
	</node>
	<node id="-48948" lat="58.8354388883" lon="9.01649166168">
		<tag k="name" v="Gudbrandsmyr" />
		<tag k="natural" v="wetland" />
		<tag k="ssr:stedsnr" v="509974" />
	</node>
	<node id="-48946" lat="58.8341388932" lon="8.99871945099">
		<tag k="name" v="Stormyr" />
		<tag k="natural" v="wetland" />
		<tag k="ssr:stedsnr" v="509960" />
	</node>
	<node id="-48945" lat="58.8250416655" lon="9.03480555127">
		<tag k="name" v="Stormyr" />
		<tag k="natural" v="wetland" />
		<tag k="ssr:stedsnr" v="509952" />
	</node>
	<node id="-48941" lat="58.8099194415" lon="9.05588055353">
		<tag k="name" v="Klafjellmyra" />
		<tag k="natural" v="wetland" />
		<tag k="ssr:stedsnr" v="509928" />
	</node>
	<node id="-48937" lat="58.9405611081" lon="8.99680278259">
		<tag k="name" v="Moltekjerr" />
		<tag k="natural" v="wetland" />
		<tag k="ssr:stedsnr" v="509831" />
	</node>
	<node id="-48932" lat="58.9321777802" lon="8.97814721534">
		<tag k="name" v="Sirisslåtte" />
		<tag k="natural" v="wetland" />
		<tag k="ssr:stedsnr" v="509813" />
	</node>
	<node id="-48926" lat="58.8398166681" lon="9.16504722665">
		<tag k="name" v="Brumyr" />
		<tag k="natural" v="wetland" />
		<tag k="ssr:stedsnr" v="509618" />
	</node>
	<node id="-48925" lat="58.8856083316" lon="8.8239777768">
		<tag k="name" v="Søndremyr" />
		<tag k="natural" v="wetland" />
		<tag k="ssr:stedsnr" v="509605" />
	</node>
	<node id="-48920" lat="58.9791166669" lon="8.85431388772">
		<tag k="name" v="Jørundsmyr" />
		<tag k="natural" v="wetland" />
		<tag k="ssr:stedsnr" v="509560" />
	</node>
	<node id="-48919" lat="58.9420277809" lon="8.90752500093">
		<tag k="name" v="Hankemyr" />
		<tag k="natural" v="wetland" />
		<tag k="ssr:stedsnr" v="509539" />
	</node>
	<node id="-48916" lat="58.8930361108" lon="9.0890722179">
		<tag k="name" v="Grokjerr" />
		<tag k="natural" v="wetland" />
		<tag k="ssr:stedsnr" v="509794" />
	</node>
	<node id="-48910" lat="58.8677111123" lon="8.94738055807">
		<tag k="name" v="Tonanmyra" />
		<tag k="place" v="locality" />
		<tag k="ssr:stedsnr" v="509766" />
	</node>
	<node id="-48909" lat="58.8206722209" lon="9.12564721424">
		<tag k="name" v="Faulkjerr" />
		<tag k="natural" v="wetland" />
		<tag k="ssr:stedsnr" v="509764" />
	</node>
	<node id="-48908" lat="58.8283666666" lon="9.13135555363">
		<tag k="name" v="Diplemyr" />
		<tag k="natural" v="wetland" />
		<tag k="ssr:stedsnr" v="509757" />
	</node>
	<node id="-48898" lat="58.9117666634" lon="8.98307221964">
		<tag k="name" v="Steinmyr" />
		<tag k="natural" v="wetland" />
		<tag k="ssr:stedsnr" v="388861" />
	</node>
	<node id="-48897" lat="58.8163222246" lon="9.02588332883">
		<tag k="name" v="Diplemyr" />
		<tag k="natural" v="wetland" />
		<tag k="ssr:stedsnr" v="388856" />
	</node>
	<node id="-48896" lat="58.8044527792" lon="9.01613888498">
		<tag k="name" v="Spøkekarten" />
		<tag k="natural" v="wetland" />
		<tag k="ssr:stedsnr" v="388852" />
	</node>
	<node id="-48895" lat="58.8695166686" lon="9.09007499393">
		<tag k="name" v="Damkjerr" />
		<tag k="natural" v="wetland" />
		<tag k="ssr:stedsnr" v="388826" />
	</node>
	<node id="-48892" lat="58.8951638901" lon="9.1002083418">
		<tag k="name" v="Starkkjerr" />
		<tag k="natural" v="wetland" />
		<tag k="ssr:stedsnr" v="388806" />
	</node>
	<node id="-48891" lat="58.8459916635" lon="8.97549166479">
		<tag k="name" v="Tverrkjerra" />
		<tag k="natural" v="wetland" />
		<tag k="ssr:stedsnr" v="388915" />
	</node>
	<node id="-48890" lat="58.9526333298" lon="8.98269444943">
		<tag k="name" v="Store Raunmyr" />
		<tag k="natural" v="wetland" />
		<tag k="ssr:stedsnr" v="388912" />
	</node>
	<node id="-48887" lat="58.827338891" lon="9.13298054784">
		<tag k="name" v="Faulkjerr" />
		<tag k="natural" v="wetland" />
		<tag k="ssr:stedsnr" v="388775" />
	</node>
	<node id="-48884" lat="58.8350138845" lon="9.15697222205">
		<tag k="name" v="Lynglona" />
		<tag k="natural" v="wetland" />
		<tag k="ssr:stedsnr" v="388767" />
	</node>
	<node id="-48882" lat="58.8666666654" lon="8.98202777246">
		<tag k="name" v="Ulvmyr" />
		<tag k="natural" v="wetland" />
		<tag k="ssr:stedsnr" v="388755" />
	</node>
	<node id="-48878" lat="58.919277782" lon="8.9568055621">
		<tag k="name" v="Hausnesmyra" />
		<tag k="natural" v="wetland" />
		<tag k="ssr:stedsnr" v="387869" />
	</node>
	<node id="-48877" lat="58.9371416668" lon="9.00982223068">
		<tag k="name" v="Kastslåttene" />
		<tag k="natural" v="wetland" />
		<tag k="ssr:stedsnr" v="387862" />
	</node>
	<node id="-48876" lat="58.9398333334" lon="9.01491943735">
		<tag k="name" v="Stormyr" />
		<tag k="natural" v="wetland" />
		<tag k="ssr:stedsnr" v="387853" />
	</node>
	<node id="-48871" lat="58.8044861103" lon="9.11498055364">
		<tag k="name" v="Gunhildsmyr" />
		<tag k="natural" v="wetland" />
		<tag k="ssr:stedsnr" v="387954" />
	</node>
	<node id="-48870" lat="58.96889444" lon="8.9571916726">
		<tag k="name" v="Kortmyr" />
		<tag k="natural" v="wetland" />
		<tag k="ssr:stedsnr" v="387921" />
	</node>
	<node id="-48866" lat="58.9015138924" lon="8.88160833142">
		<tag k="name" v="Bjørkkjerra" />
		<tag k="natural" v="wetland" />
		<tag k="ssr:stedsnr" v="387528" />
	</node>
	<node id="-48865" lat="58.869205557" lon="9.16919999341">
		<tag k="name" v="Småmyrene" />
		<tag k="natural" v="wetland" />
		<tag k="ssr:stedsnr" v="387673" />
	</node>
	<node id="-48857" lat="58.9157611112" lon="9.05548889243">
		<tag k="name" v="Rubbmyr" />
		<tag k="natural" v="wetland" />
		<tag k="ssr:stedsnr" v="487776" />
	</node>
	<node id="-48855" lat="58.950566671" lon="8.92378332601">
		<tag k="alt_name" v="Fossbusteene" />
		<tag k="name" v="Fossbusteane" />
		<tag k="natural" v="wetland" />
		<tag k="ssr:stedsnr" v="486915" />
	</node>
	<node id="-48833" lat="58.8557722195" lon="9.02174167328">
		<tag k="alt_name" v="Rossmyra" />
		<tag k="name" v="Rossmyr" />
		<tag k="natural" v="wetland" />
		<tag k="ssr:stedsnr" v="486045" />
	</node>
	<node id="-48828" lat="58.8277472201" lon="8.98385278373">
		<tag k="name" v="Takseråskjerra" />
		<tag k="natural" v="wetland" />
		<tag k="ssr:stedsnr" v="327919" />
	</node>
	<node id="-48825" lat="58.8728777753" lon="8.98824166207">
		<tag k="name" v="Knattmyr" />
		<tag k="natural" v="wetland" />
		<tag k="ssr:stedsnr" v="327727" />
	</node>
	<node id="-48812" lat="58.9200750017" lon="9.02519722243">
		<tag k="name" v="Rundthol" />
		<tag k="natural" v="wetland" />
		<tag k="ssr:stedsnr" v="327839" />
	</node>
	<node id="-48810" lat="58.7995388933" lon="9.02699999983">
		<tag k="name" v="Urvassmyra" />
		<tag k="natural" v="wetland" />
		<tag k="ssr:stedsnr" v="327820" />
	</node>
	<node id="-48809" lat="58.9226194465" lon="8.97794445261">
		<tag k="name" v="Eldstedmyra" />
		<tag k="natural" v="wetland" />
		<tag k="ssr:stedsnr" v="327816" />
	</node>
	<node id="-48807" lat="58.8654583358" lon="9.11537222413">
		<tag k="name" v="Skrubbestea" />
		<tag k="natural" v="wetland" />
		<tag k="ssr:stedsnr" v="327809" />
	</node>
	<node id="-48804" lat="58.8808194466" lon="9.14891388163">
		<tag k="name" v="Bjorkjerra" />
		<tag k="natural" v="wetland" />
		<tag k="ssr:stedsnr" v="327605" />
	</node>
	<node id="-48797" lat="58.8853055591" lon="8.92525834146">
		<tag k="name" v="Rundmyr" />
		<tag k="natural" v="wetland" />
		<tag k="ssr:stedsnr" v="327512" />
	</node>
	<node id="-48795" lat="58.8753916688" lon="8.91138333176">
		<tag k="name" v="Holmvassmyra" />
		<tag k="natural" v="wetland" />
		<tag k="ssr:stedsnr" v="327502" />
	</node>
	<node id="-48791" lat="58.9454194453" lon="8.87220555862">
		<tag k="name" v="Holmyr" />
		<tag k="natural" v="wetland" />
		<tag k="ssr:stedsnr" v="304913" />
	</node>
	<node id="-48790" lat="58.9479722207" lon="8.94703056106">
		<tag k="name" v="Diplemyr" />
		<tag k="natural" v="wetland" />
		<tag k="ssr:stedsnr" v="304912" />
	</node>
	<node id="-48771" lat="58.8373888926" lon="9.12183889143">
		<tag k="name" v="Stimyra" />
		<tag k="natural" v="wetland" />
		<tag k="ssr:stedsnr" v="267760" />
	</node>
	<node id="-48770" lat="58.8307138896" lon="9.10868055629">
		<tag k="name" v="Bjørnkjerr" />
		<tag k="place" v="locality" />
		<tag k="ssr:stedsnr" v="267758" />
	</node>
	<node id="-48768" lat="58.8477527765" lon="9.13883332596">
		<tag k="name" v="Eikåskjerra" />
		<tag k="natural" v="wetland" />
		<tag k="ssr:stedsnr" v="267725" />
	</node>
	<node id="-48766" lat="58.8491944412" lon="9.15838888217">
		<tag k="name" v="Lyngkorten" />
		<tag k="natural" v="wetland" />
		<tag k="ssr:stedsnr" v="267716" />
	</node>
	<node id="-48764" lat="58.7692999956" lon="9.02532499275">
		<tag k="name" v="Viermyr" />
		<tag k="natural" v="wetland" />
		<tag k="ssr:stedsnr" v="267553" />
	</node>
	<node id="-48763" lat="58.8969027795" lon="9.11389722408">
		<tag k="name" v="Gunnarsmyr" />
		<tag k="natural" v="wetland" />
		<tag k="ssr:stedsnr" v="267823" />
	</node>
	<node id="-48761" lat="58.8994944421" lon="9.0585722139">
		<tag k="name" v="Lisleslått" />
		<tag k="natural" v="wetland" />
		<tag k="ssr:stedsnr" v="267807" />
	</node>
	<node id="-48758" lat="58.8724472254" lon="9.14168611239">
		<tag k="name" v="Østre Kalvvassmyra" />
		<tag k="natural" v="wetland" />
		<tag k="ssr:stedsnr" v="267612" />
	</node>
	<node id="-48757" lat="58.8478416636" lon="9.12931110631">
		<tag k="name" v="Kjerrstem" />
		<tag k="natural" v="wetland" />
		<tag k="ssr:stedsnr" v="449996" />
	</node>
	<node id="-48756" lat="58.8495138854" lon="9.10990832883">
		<tag k="name" v="Fåmyr" />
		<tag k="natural" v="wetland" />
		<tag k="ssr:stedsnr" v="449989" />
	</node>
	<node id="-48750" lat="58.9605805527" lon="9.0126666692">
		<tag k="name" v="Brødsjøslåtta" />
		<tag k="natural" v="wetland" />
		<tag k="ssr:stedsnr" v="449892" />
	</node>
	<node id="-48746" lat="58.7793250027" lon="9.03786944776">
		<tag k="name" v="Smalmyrhalsen" />
		<tag k="natural" v="wetland" />
		<tag k="ssr:stedsnr" v="449880" />
	</node>
	<node id="-48745" lat="58.9867527818" lon="8.94533888909">
		<tag k="name" v="Signesmyrene" />
		<tag k="natural" v="wetland" />
		<tag k="ssr:stedsnr" v="449879" />
	</node>
	<node id="-48744" lat="58.8427777799" lon="8.96848889183">
		<tag k="name" v="Bjørnskjerrholta" />
		<tag k="place" v="locality" />
		<tag k="ssr:stedsnr" v="449874" />
	</node>
	<node id="-48741" lat="58.8967361125" lon="8.95348056148">
		<tag k="name" v="Hesthagen" />
		<tag k="place" v="locality" />
		<tag k="ssr:stedsnr" v="449954" />
	</node>
	<node id="-48737" lat="58.7907888894" lon="9.05883333409">
		<tag k="name" v="Tristikkelskjerr" />
		<tag k="natural" v="wetland" />
		<tag k="ssr:stedsnr" v="449932" />
	</node>
	<node id="-48735" lat="58.7869916691" lon="9.06022778558">
		<tag k="name" v="Vesterdalskjerret" />
		<tag k="natural" v="wetland" />
		<tag k="ssr:stedsnr" v="449926" />
	</node>
	<node id="-48733" lat="58.8732111087" lon="9.04551667334">
		<tag k="name" v="Mosemyr" />
		<tag k="natural" v="wetland" />
		<tag k="ssr:stedsnr" v="449782" />
	</node>
	<node id="-48732" lat="58.8671361135" lon="8.95819444322">
		<tag k="name" v="Hesthagmyra" />
		<tag k="natural" v="wetland" />
		<tag k="ssr:stedsnr" v="449774" />
	</node>
	<node id="-48731" lat="58.8354750015" lon="9.13496667154">
		<tag k="name" v="Østre Langtjennmyra" />
		<tag k="natural" v="wetland" />
		<tag k="ssr:stedsnr" v="449772" />
	</node>
	<node id="-48724" lat="58.9143944487" lon="9.06223055214">
		<tag k="name" v="Nilseskjerra" />
		<tag k="natural" v="wetland" />
		<tag k="ssr:stedsnr" v="449594" />
	</node>
	<node id="-48723" lat="58.9862694415" lon="8.87052221718">
		<tag k="name" v="Bjørkebudeilda" />
		<tag k="natural" v="stone" />
		<tag k="ssr:stedsnr" v="449583" />
	</node>
	<node id="-48721" lat="58.9288638907" lon="8.885811108">
		<tag k="name" v="Greinvasstea" />
		<tag k="natural" v="wetland" />
		<tag k="ssr:stedsnr" v="449557" />
	</node>
	<node id="-48719" lat="58.8013194468" lon="9.03707778497">
		<tag k="name" v="Moltemyra" />
		<tag k="natural" v="wetland" />
		<tag k="ssr:stedsnr" v="449848" />
	</node>
	<node id="-48718" lat="58.8645777736" lon="9.16787499874">
		<tag k="name" v="Store Bærmyra" />
		<tag k="natural" v="wetland" />
		<tag k="ssr:stedsnr" v="449660" />
	</node>
	<node id="-48680" lat="58.8187444455" lon="8.9985805476">
		<tag k="name" v="Diplemyr" />
		<tag k="natural" v="wetland" />
		<tag k="ssr:stedsnr" v="145966" />
	</node>
	<node id="-48678" lat="58.855791668" lon="9.0381194374">
		<tag k="name" v="Nessteane" />
		<tag k="place" v="locality" />
		<tag k="ssr:stedsnr" v="145926" />
	</node>
	<node id="-48665" lat="58.8075694483" lon="9.04333610889">
		<tag k="name" v="Sevreismyr" />
		<tag k="natural" v="wetland" />
		<tag k="ssr:stedsnr" v="145876" />
	</node>
	<node id="-48654" lat="58.9322166631" lon="8.8148611076">
		<tag k="name" v="Heilandsbjorstea" />
		<tag k="natural" v="wetland" />
		<tag k="ssr:stedsnr" v="145706" />
	</node>
	<node id="-48653" lat="58.9331500036" lon="8.80866110705">
		<tag k="name" v="Det hole kjerret" />
		<tag k="natural" v="wetland" />
		<tag k="ssr:stedsnr" v="145704" />
	</node>
	<node id="-48652" lat="58.7743805571" lon="9.04167500859">
		<tag k="name" v="Store Bjørnebukkskjerr" />
		<tag k="natural" v="wetland" />
		<tag k="ssr:stedsnr" v="145578" />
	</node>
	<node id="-48650" lat="58.866305557" lon="8.83290278548">
		<tag k="name" v="Midtlislåttene" />
		<tag k="natural" v="wetland" />
		<tag k="ssr:stedsnr" v="145526" />
	</node>
	<node id="-48648" lat="58.8871833298" lon="8.92558610777">
		<tag k="name" v="Hestmyr" />
		<tag k="natural" v="wetland" />
		<tag k="ssr:stedsnr" v="145517" />
	</node>
	<node id="-50694" lat="58.8280472227" lon="8.95782499801">
		<tag k="name" v="Byttingsmyr" />
		<tag k="natural" v="wetland" />
		<tag k="ssr:stedsnr" v="509915" />
	</node>
	<node id="-48642" lat="58.864919448" lon="9.0927944451">
		<tag k="name" v="Bjorkjerra" />
		<tag k="natural" v="wetland" />
		<tag k="ssr:stedsnr" v="267839" />
	</node>
	<node id="-48634" lat="58.8367277814" lon="9.07114722233">
		<tag k="name" v="Lillemyr" />
		<tag k="place" v="locality" />
		<tag k="ssr:stedsnr" v="267734" />
	</node>
	<node id="-48633" lat="58.8362555536" lon="9.06636389265">
		<tag k="name" v="Lillemyrhogsten" />
		<tag k="place" v="locality" />
		<tag k="ssr:stedsnr" v="267732" />
	</node>
	<node id="-48630" lat="58.9049527746" lon="9.06254166106">
		<tag k="name" v="Hessmyr" />
		<tag k="natural" v="wetland" />
		<tag k="ssr:stedsnr" v="267594" />
	</node>
	<node id="-48627" lat="58.9102277787" lon="9.06643055272">
		<tag k="name" v="Jernbuvollen" />
		<tag k="place" v="locality" />
		<tag k="ssr:stedsnr" v="267584" />
	</node>
	<node id="-48626" lat="58.8618361153" lon="9.16110277664">
		<tag k="name" v="Lille Bærmyra" />
		<tag k="natural" v="wetland" />
		<tag k="ssr:stedsnr" v="267580" />
	</node>
	<node id="-50673" lat="58.9496277808" lon="8.95909166541">
		<tag k="name" v="Lyngmyr" />
		<tag k="natural" v="wetland" />
		<tag k="ssr:stedsnr" v="873901" />
	</node>
	<node id="-50672" lat="58.8561750033" lon="8.97172500432">
		<tag k="name" v="Store Brattåskjerr" />
		<tag k="natural" v="wetland" />
		<tag k="ssr:stedsnr" v="873900" />
	</node>
	<node id="-50670" lat="58.9130444404" lon="9.01161666189">
		<tag k="name" v="Lille Raundalsmyra" />
		<tag k="natural" v="wetland" />
		<tag k="ssr:stedsnr" v="873886" />
	</node>
	<node id="-48621" lat="58.8339305586" lon="8.98281666107">
		<tag k="name" v="Kringlemyrkjerra" />
		<tag k="natural" v="wetland" />
		<tag k="ssr:stedsnr" v="266967" />
	</node>
	<node id="-50668" lat="58.8161694408" lon="9.11834165804">
		<tag k="name" v="Espevikmyra" />
		<tag k="natural" v="wetland" />
		<tag k="ssr:stedsnr" v="873952" />
	</node>
	<node id="-50667" lat="58.8337638918" lon="8.95154167351">
		<tag k="name" v="Holmvassmyra" />
		<tag k="natural" v="wetland" />
		<tag k="ssr:stedsnr" v="873951" />
	</node>
	<node id="-50664" lat="58.8254999965" lon="8.98145555262">
		<tag k="name" v="Hagekjerr" />
		<tag k="natural" v="wetland" />
		<tag k="ssr:stedsnr" v="873939" />
	</node>
	<node id="-48614" lat="58.9653055596" lon="8.96038611813">
		<tag k="name" v="Lille Bjørnsmyr" />
		<tag k="natural" v="wetland" />
		<tag k="ssr:stedsnr" v="266927" />
	</node>
	<node id="-50660" lat="58.8663722179" lon="9.07475278582">
		<tag k="name" v="Kortmyr" />
		<tag k="natural" v="wetland" />
		<tag k="ssr:stedsnr" v="873845" />
	</node>
	<node id="-50655" lat="58.8708805542" lon="9.08791944308">
		<tag k="name" v="Jørnskjerr" />
		<tag k="natural" v="wetland" />
		<tag k="ssr:stedsnr" v="873825" />
	</node>
	<node id="-48604" lat="58.8058416694" lon="9.00351111294">
		<tag k="name" v="Lyngkorten" />
		<tag k="natural" v="wetland" />
		<tag k="ssr:stedsnr" v="266893" />
	</node>
	<node id="-50651" lat="58.8769583303" lon="9.04296943877">
		<tag k="name" v="Småmyr" />
		<tag k="natural" v="wetland" />
		<tag k="ssr:stedsnr" v="873792" />
	</node>
	<node id="-48601" lat="58.7984250027" lon="9.03021943724">
		<tag k="name" v="Kringlemyr" />
		<tag k="natural" v="wetland" />
		<tag k="ssr:stedsnr" v="266879" />
	</node>
	<node id="-50647" lat="58.8930694468" lon="9.06271110778">
		<tag k="name" v="Spiklikjerr" />
		<tag k="natural" v="wetland" />
		<tag k="ssr:stedsnr" v="873785" />
	</node>
	<node id="-48598" lat="58.878869445" lon="9.10034165819">
		<tag k="name" v="Dallamyr" />
		<tag k="natural" v="wetland" />
		<tag k="ssr:stedsnr" v="266842" />
	</node>
	<node id="-50642" lat="58.8928888856" lon="9.0416694516">
		<tag k="name" v="Porskjerra" />
		<tag k="place" v="locality" />
		<tag k="ssr:stedsnr" v="873698" />
	</node>
	<node id="-48592" lat="58.8362916649" lon="9.14278055789">
		<tag k="name" v="Nordre Holteøygardsmyra" />
		<tag k="natural" v="wetland" />
		<tag k="ssr:stedsnr" v="266799" />
	</node>
	<node id="-50638" lat="58.9083638877" lon="9.06559166418">
		<tag k="name" v="Jernbuslåtta" />
		<tag k="place" v="locality" />
		<tag k="ssr:stedsnr" v="873587" />
	</node>
	<node id="-48585" lat="58.8219555562" lon="9.07003611971">
		<tag k="name" v="Nybøhogsten" />
		<tag k="place" v="locality" />
		<tag k="ssr:stedsnr" v="266743" />
	</node>
	<node id="-48583" lat="58.8573999971" lon="8.87905555119">
		<tag k="name" v="Tjennkjerret" />
		<tag k="natural" v="wetland" />
		<tag k="ssr:stedsnr" v="266697" />
	</node>
	<node id="-48582" lat="58.8609722195" lon="9.18246389396">
		<tag k="name" v="Abrahamsmyr" />
		<tag k="natural" v="wetland" />
		<tag k="ssr:stedsnr" v="266673" />
	</node>
	<node id="-48581" lat="58.8706027778" lon="9.16247499198">
		<tag k="name" v="Høgmyr" />
		<tag k="natural" v="wetland" />
		<tag k="ssr:stedsnr" v="266670" />
	</node>
	<node id="-50628" lat="58.9256111116" lon="8.83534166481">
		<tag k="name" v="Bromdalsmyra" />
		<tag k="natural" v="wetland" />
		<tag k="ssr:stedsnr" v="873541" />
	</node>
	<node id="-50624" lat="58.8978333362" lon="8.8774611059">
		<tag k="name" v="Styggedalsmyra" />
		<tag k="natural" v="wetland" />
		<tag k="ssr:stedsnr" v="873477" />
	</node>
	<node id="-48574" lat="58.921722226" lon="8.86814721774">
		<tag k="name" v="Ljådalsbjorstea" />
		<tag k="natural" v="wetland" />
		<tag k="ssr:stedsnr" v="266547" />
	</node>
	<node id="-48573" lat="58.9089166637" lon="8.86407777343">
		<tag k="name" v="Rossmyr" />
		<tag k="natural" v="wetland" />
		<tag k="ssr:stedsnr" v="266545" />
	</node>
	<node id="-48572" lat="58.8720055559" lon="8.83182221422">
		<tag k="name" v="Klavmyra" />
		<tag k="natural" v="wetland" />
		<tag k="ssr:stedsnr" v="266540" />
	</node>
	<node id="-50619" lat="58.8766138933" lon="8.88060832613">
		<tag k="alt_name" v="Almenningssteene" />
		<tag k="name" v="Almenningssteane" />
		<tag k="natural" v="wetland" />
		<tag k="ssr:stedsnr" v="851202" />
	</node>
	<node id="-48570" lat="58.8693527767" lon="8.92951389225">
		<tag k="name" v="Heimremyrene" />
		<tag k="natural" v="wetland" />
		<tag k="ssr:stedsnr" v="266526" />
	</node>
	<node id="-48569" lat="58.8695611104" lon="8.88786666167">
		<tag k="name" v="Lille Eldstømyr" />
		<tag k="natural" v="wetland" />
		<tag k="ssr:stedsnr" v="266520" />
	</node>
	<node id="-48567" lat="58.857794442" lon="8.90351666646">
		<tag k="name" v="Tverrmyr" />
		<tag k="natural" v="wetland" />
		<tag k="ssr:stedsnr" v="266510" />
	</node>
	<node id="-48566" lat="58.8858944463" lon="8.87055556397">
		<tag k="name" v="Vroldshol" />
		<tag k="natural" v="wetland" />
		<tag k="ssr:stedsnr" v="266497" />
	</node>
	<node id="-48564" lat="58.8386638887" lon="9.0133416632">
		<tag k="name" v="Fåmyr" />
		<tag k="natural" v="wetland" />
		<tag k="ssr:stedsnr" v="85970" />
	</node>
	<node id="-48561" lat="58.8348166648" lon="9.00441389561">
		<tag k="name" v="Folestea" />
		<tag k="natural" v="wetland" />
		<tag k="ssr:stedsnr" v="85961" />
	</node>
	<node id="-48560" lat="58.8598416704" lon="9.08811111246">
		<tag k="name" v="Svinsmyr" />
		<tag k="natural" v="wetland" />
		<tag k="ssr:stedsnr" v="85960" />
	</node>
	<node id="-48559" lat="58.8513694406" lon="9.04958333768">
		<tag k="name" v="Snøkjerr" />
		<tag k="natural" v="wetland" />
		<tag k="ssr:stedsnr" v="85908" />
	</node>
	<node id="-50606" lat="58.97060833" lon="8.83596944812">
		<tag k="name" v="Trydalsmyra" />
		<tag k="natural" v="wetland" />
		<tag k="ssr:stedsnr" v="850341" />
	</node>
	<node id="-48557" lat="58.8106416653" lon="9.0059000025">
		<tag k="name" v="Blautmyrstykket" />
		<tag k="place" v="locality" />
		<tag k="ssr:stedsnr" v="85869" />
	</node>
	<node id="-48555" lat="58.8669805534" lon="9.09357499408">
		<tag k="name" v="Gisles hogster" />
		<tag k="place" v="locality" />
		<tag k="ssr:stedsnr" v="85804" />
	</node>
	<node id="-50602" lat="58.8716333301" lon="8.87407778582">
		<tag k="alt_name" v="Stimyra" />
		<tag k="name" v="Stigmyra" />
		<tag k="natural" v="wetland" />
		<tag k="ssr:stedsnr" v="850179" />
	</node>
	<node id="-50600" lat="58.8704694453" lon="9.06585278536">
		<tag k="name" v="Rossmyr" />
		<tag k="natural" v="wetland" />
		<tag k="ssr:stedsnr" v="850165" />
	</node>
	<node id="-48550" lat="58.8388527816" lon="9.13143333339">
		<tag k="name" v="Knutsmyr" />
		<tag k="natural" v="wetland" />
		<tag k="ssr:stedsnr" v="85722" />
	</node>
	<node id="-48549" lat="58.870427775" lon="8.99012221818">
		<tag k="name" v="Ånonsmyr" />
		<tag k="natural" v="wetland" />
		<tag k="ssr:stedsnr" v="85721" />
	</node>
	<node id="-48547" lat="58.8965055565" lon="8.99853611183">
		<tag k="name" v="Rosskjerr" />
		<tag k="place" v="locality" />
		<tag k="ssr:stedsnr" v="85715" />
	</node>
	<node id="-48545" lat="58.8666166698" lon="9.15858888348">
		<tag k="name" v="Tjærhjellmyra" />
		<tag k="natural" v="wetland" />
		<tag k="ssr:stedsnr" v="85564" />
	</node>
	<node id="-48543" lat="58.9049583366" lon="9.03379167375">
		<tag k="name" v="Blesmyr" />
		<tag k="natural" v="wetland" />
		<tag k="ssr:stedsnr" v="84912" />
	</node>
	<node id="-48542" lat="58.9880805583" lon="8.83417500655">
		<tag k="name" v="Legdesteinen" />
		<tag k="natural" v="stone" />
		<tag k="ssr:stedsnr" v="84617" />
	</node>
	<node id="-48540" lat="58.8606166701" lon="8.84920554838">
		<tag k="name" v="Kjerstislåtta" />
		<tag k="natural" v="wetland" />
		<tag k="ssr:stedsnr" v="84716" />
	</node>
	<node id="-48539" lat="58.8604694405" lon="8.86941666375">
		<tag k="landuse" v="meadow" />
		<tag k="name" v="Viksvollen" />
		<tag k="ssr:stedsnr" v="84714" />
	</node>
	<node id="-48534" lat="58.8808249983" lon="8.8986194387">
		<tag k="name" v="Askjellsmyr" />
		<tag k="natural" v="wetland" />
		<tag k="ssr:stedsnr" v="84556" />
	</node>
	<node id="-50581" lat="58.8273916643" lon="9.01409722665">
		<tag k="name" v="Tåvassmyra" />
		<tag k="natural" v="wetland" />
		<tag k="ssr:stedsnr" v="813981" />
	</node>
	<node id="-50580" lat="58.8450416669" lon="9.0617805564">
		<tag k="name" v="Røykjerr" />
		<tag k="natural" v="wetland" />
		<tag k="ssr:stedsnr" v="813978" />
	</node>
	<node id="-50566" lat="58.8317666647" lon="8.95738611297">
		<tag k="name" v="Stemyra" />
		<tag k="natural" v="wetland" />
		<tag k="ssr:stedsnr" v="813922" />
	</node>
	<node id="-50562" lat="58.8439777817" lon="8.98169999375">
		<tag k="name" v="Kjeldekjerr" />
		<tag k="natural" v="wetland" />
		<tag k="ssr:stedsnr" v="813914" />
	</node>
	<node id="-50556" lat="58.7999777788" lon="9.00297777142">
		<tag k="name" v="Smalmyr" />
		<tag k="natural" v="wetland" />
		<tag k="ssr:stedsnr" v="813866" />
	</node>
	<node id="-48507" lat="58.9630944425" lon="8.9806749951">
		<tag k="name" v="Marismyr" />
		<tag k="natural" v="wetland" />
		<tag k="ssr:stedsnr" v="24926" />
	</node>
	<node id="-48506" lat="58.8455749973" lon="9.02663611919">
		<tag k="name" v="Dalamyra" />
		<tag k="natural" v="wetland" />
		<tag k="ssr:stedsnr" v="24920" />
	</node>
	<node id="-48504" lat="58.9613000017" lon="8.94857222558">
		<tag k="name" v="Store Høgmyr" />
		<tag k="natural" v="wetland" />
		<tag k="ssr:stedsnr" v="24917" />
	</node>
	<node id="-50551" lat="58.8727416661" lon="9.05755834013">
		<tag k="name" v="Snøkjerr" />
		<tag k="natural" v="wetland" />
		<tag k="ssr:stedsnr" v="813834" />
	</node>
	<node id="-50550" lat="58.9366555554" lon="9.03119721681">
		<tag k="name" v="Visdalsmyra" />
		<tag k="natural" v="wetland" />
		<tag k="ssr:stedsnr" v="813831" />
	</node>
	<node id="-48500" lat="58.9842722194" lon="8.94423610861">
		<tag k="name" v="Kufotkjerret" />
		<tag k="natural" v="wetland" />
		<tag k="ssr:stedsnr" v="24911" />
	</node>
	<node id="-48497" lat="58.8579638903" lon="8.97806388223">
		<tag k="name" v="Lille Brattåskjerr" />
		<tag k="natural" v="wetland" />
		<tag k="ssr:stedsnr" v="24903" />
	</node>
	<node id="-48496" lat="58.8770500024" lon="8.8349777726">
		<tag k="name" v="Ørnereirdalsstea" />
		<tag k="natural" v="wetland" />
		<tag k="ssr:stedsnr" v="24533" />
	</node>
	<node id="-50543" lat="58.8319111111" lon="9.15419166722">
		<tag k="name" v="Lonestykket" />
		<tag k="place" v="locality" />
		<tag k="ssr:stedsnr" v="813808" />
	</node>
	<node id="-48494" lat="58.8743777793" lon="8.86621666611">
		<tag k="name" v="Lutmyra" />
		<tag k="natural" v="wetland" />
		<tag k="ssr:stedsnr" v="24512" />
	</node>
	<node id="-50540" lat="58.8323388901" lon="9.1433944451">
		<tag k="name" v="Søndre Holteøygardsmyra" />
		<tag k="natural" v="wetland" />
		<tag k="ssr:stedsnr" v="813782" />
	</node>
	<node id="-48491" lat="58.880380558" lon="9.14047778062">
		<tag k="name" v="Diplemyr" />
		<tag k="natural" v="wetland" />
		<tag k="ssr:stedsnr" v="24630" />
	</node>
	<node id="-48488" lat="58.867311109" lon="9.12540000566">
		<tag k="name" v="Ørnemyr" />
		<tag k="natural" v="wetland" />
		<tag k="ssr:stedsnr" v="24618" />
	</node>
	<node id="-48487" lat="58.840366668" lon="9.19096389232">
		<tag k="name" v="Fivrillmyra" />
		<tag k="natural" v="wetland" />
		<tag k="ssr:stedsnr" v="24615" />
	</node>
	<node id="-48486" lat="58.8529611156" lon="9.17516388146">
		<tag k="name" v="Lortmyra" />
		<tag k="natural" v="wetland" />
		<tag k="ssr:stedsnr" v="24612" />
	</node>
	<node id="-50533" lat="58.8516555559" lon="9.141622226">
		<tag k="name" v="Vilimyra" />
		<tag k="natural" v="wetland" />
		<tag k="ssr:stedsnr" v="813741" />
	</node>
	<node id="-48483" lat="58.9129055529" lon="9.05865833331">
		<tag k="name" v="Heimre Rubbmyrkjerr" />
		<tag k="natural" v="wetland" />
		<tag k="ssr:stedsnr" v="24606" />
	</node>
	<node id="-50528" lat="58.8786527808" lon="8.82081667104">
		<tag k="name" v="Rundmyr" />
		<tag k="natural" v="wetland" />
		<tag k="ssr:stedsnr" v="813729" />
	</node>
	<node id="-50523" lat="58.8373111136" lon="9.18403056023">
		<tag k="name" v="Skarkkjerr" />
		<tag k="natural" v="wetland" />
		<tag k="ssr:stedsnr" v="813625" />
	</node>
	<node id="-50520" lat="58.9100944461" lon="9.05253610721">
		<tag k="name" v="Byttingskjerr" />
		<tag k="natural" v="wetland" />
		<tag k="ssr:stedsnr" v="813602" />
	</node>
	<node id="-50514" lat="58.7996861093" lon="8.99263888122">
		<tag k="name" v="Bjørkesteene" />
		<tag k="natural" v="wetland" />
		<tag k="ssr:stedsnr" v="813556" />
	</node>
	<node id="-50507" lat="58.865074997" lon="8.88014721904">
		<tag k="name" v="Eldstømyra" />
		<tag k="natural" v="wetland" />
		<tag k="ssr:stedsnr" v="813461" />
	</node>
	<node id="-50504" lat="58.8873388845" lon="8.93309167415">
		<tag k="name" v="Kvernkjerra" />
		<tag k="natural" v="wetland" />
		<tag k="ssr:stedsnr" v="813428" />
	</node>
	<node id="-50503" lat="58.895419445" lon="8.93577499922">
		<tag k="name" v="Saukjerret" />
		<tag k="natural" v="wetland" />
		<tag k="ssr:stedsnr" v="813427" />
	</node>
	<node id="-50502" lat="58.8581777749" lon="8.89030554795">
		<tag k="name" v="Tjennmyrene" />
		<tag k="natural" v="wetland" />
		<tag k="ssr:stedsnr" v="813424" />
	</node>
	<node id="-50499" lat="58.9140666688" lon="8.84898055505">
		<tag k="name" v="Kvernkroa" />
		<tag k="natural" v="wetland" />
		<tag k="ssr:stedsnr" v="790886" />
	</node>
	<node id="-50488" lat="58.9606305596" lon="9.0087249914">
		<tag k="alt_name" v="Orremyrene" />
		<tag k="name" v="Orremyrane" />
		<tag k="natural" v="wetland" />
		<tag k="ssr:stedsnr" v="789899" />
	</node>
	<node id="-50482" lat="58.76635556" lon="9.03000278038">
		<tag k="name" v="Langkoven" />
		<tag k="natural" v="wetland" />
		<tag k="ssr:stedsnr" v="789393" />
	</node>
	<node id="-50460" lat="58.8285027788" lon="9.00844721373">
		<tag k="name" v="Lyngåskjerret" />
		<tag k="natural" v="wetland" />
		<tag k="ssr:stedsnr" v="752982" />
	</node>
	<node id="-50458" lat="58.8507388909" lon="9.06987222712">
		<tag k="name" v="Hagane" />
		<tag k="place" v="locality" />
		<tag k="ssr:stedsnr" v="752974" />
	</node>
	<node id="-50456" lat="58.8378166639" lon="9.00382500691">
		<tag k="name" v="Skarkåsmyra" />
		<tag k="natural" v="wetland" />
		<tag k="ssr:stedsnr" v="752968" />
	</node>
	<node id="-50455" lat="58.8217305516" lon="9.04910277767">
		<tag k="name" v="Storkjerr" />
		<tag k="natural" v="wetland" />
		<tag k="ssr:stedsnr" v="752964" />
	</node>
	<node id="-50454" lat="58.8371083296" lon="8.98873055464">
		<tag k="name" v="Svarttjennkjerra" />
		<tag k="natural" v="wetland" />
		<tag k="ssr:stedsnr" v="752963" />
	</node>
	<node id="-50452" lat="58.7952583333" lon="9.05525833441">
		<tag k="name" v="Smalkjerrene" />
		<tag k="natural" v="wetland" />
		<tag k="ssr:stedsnr" v="752958" />
	</node>
	<node id="-50444" lat="58.9480388889" lon="8.97451111455">
		<tag k="name" v="Bjørkeste" />
		<tag k="place" v="locality" />
		<tag k="ssr:stedsnr" v="752917" />
	</node>
	<node id="-50440" lat="58.9143749974" lon="9.00136111051">
		<tag k="name" v="Eivindsmyrene" />
		<tag k="natural" v="wetland" />
		<tag k="ssr:stedsnr" v="752903" />
	</node>
	<node id="-50431" lat="58.813577779" lon="9.02627222959">
		<tag k="name" v="Urfjellmyra" />
		<tag k="natural" v="wetland" />
		<tag k="ssr:stedsnr" v="752859" />
	</node>
	<node id="-50422" lat="58.9387000028" lon="9.02159166241">
		<tag k="name" v="Pålsslått" />
		<tag k="natural" v="wetland" />
		<tag k="ssr:stedsnr" v="752840" />
	</node>
	<node id="-50416" lat="58.8805277774" lon="8.99701943786">
		<tag k="name" v="Hesthagen" />
		<tag k="place" v="locality" />
		<tag k="ssr:stedsnr" v="752818" />
	</node>
	<node id="-50415" lat="58.8844500036" lon="9.10062500867">
		<tag k="name" v="Knutsslåtter" />
		<tag k="natural" v="wetland" />
		<tag k="ssr:stedsnr" v="752809" />
	</node>
	<node id="-50412" lat="58.8860500001" lon="9.07120277302">
		<tag k="name" v="Gamle Øygardskjerr" />
		<tag k="natural" v="wetland" />
		<tag k="ssr:stedsnr" v="752798" />
	</node>
	<node id="-50411" lat="58.8921861071" lon="9.07110555171">
		<tag k="name" v="Øvre Husmyr" />
		<tag k="natural" v="wetland" />
		<tag k="ssr:stedsnr" v="752797" />
	</node>
	<node id="-50408" lat="58.8313416683" lon="9.12336945215">
		<tag k="name" v="Storestea" />
		<tag k="natural" v="wetland" />
		<tag k="ssr:stedsnr" v="752787" />
	</node>
	<node id="-50407" lat="58.8336194476" lon="9.15150555414">
		<tag k="name" v="Heftekjerr" />
		<tag k="natural" v="wetland" />
		<tag k="ssr:stedsnr" v="752774" />
	</node>
	<node id="-50406" lat="58.8256722201" lon="9.15046389028">
		<tag k="name" v="Inkjevetta" />
		<tag k="natural" v="wetland" />
		<tag k="ssr:stedsnr" v="752773" />
	</node>
	<node id="-50400" lat="58.8346861094" lon="9.11250833739">
		<tag k="name" v="Lijordet" />
		<tag k="place" v="locality" />
		<tag k="ssr:stedsnr" v="752753" />
	</node>
	<node id="-50397" lat="58.8324583341" lon="9.12255833089">
		<tag k="name" v="Dalanmyra" />
		<tag k="natural" v="wetland" />
		<tag k="ssr:stedsnr" v="752741" />
	</node>
	<node id="-50389" lat="58.8644833291" lon="8.79247221417">
		<tag k="name" v="Ovnen" />
		<tag k="natural" v="stone" />
		<tag k="ssr:stedsnr" v="752697" />
	</node>
	<node id="-50383" lat="58.8565972229" lon="9.16606666366">
		<tag k="name" v="Bjørkesteene" />
		<tag k="natural" v="wetland" />
		<tag k="ssr:stedsnr" v="752630" />
	</node>
	<node id="-50382" lat="58.8459027768" lon="9.16196944997">
		<tag k="name" v="Andersmyr" />
		<tag k="natural" v="wetland" />
		<tag k="ssr:stedsnr" v="752626" />
	</node>
	<node id="-50380" lat="58.8712611151" lon="9.12055832611">
		<tag k="name" v="Langemyr" />
		<tag k="natural" v="wetland" />
		<tag k="ssr:stedsnr" v="752596" />
	</node>
	<node id="-50379" lat="58.9053611128" lon="9.06678056167">
		<tag k="name" v="Diplemyr" />
		<tag k="natural" v="wetland" />
		<tag k="ssr:stedsnr" v="752582" />
	</node>
	<node id="-50378" lat="58.9835416644" lon="8.89875832716">
		<tag k="name" v="Bjørkevasstea" />
		<tag k="natural" v="wetland" />
		<tag k="ssr:stedsnr" v="752571" />
	</node>
	<node id="-50377" lat="58.9799333323" lon="8.9306111066">
		<tag k="name" v="Myrdammen" />
		<tag k="natural" v="wetland" />
		<tag k="ssr:stedsnr" v="752569" />
	</node>
	<node id="-50375" lat="58.7701527775" lon="9.03950277039">
		<tag k="name" v="Aslaksmyr" />
		<tag k="natural" v="wetland" />
		<tag k="ssr:stedsnr" v="752555" />
	</node>
	<node id="-50373" lat="58.9666555542" lon="8.89503333947">
		<tag k="name" v="Knutsmyr" />
		<tag k="natural" v="wetland" />
		<tag k="ssr:stedsnr" v="752549" />
	</node>
	<node id="-50372" lat="58.9559333367" lon="8.91875833428">
		<tag k="name" v="Fossbaren" />
		<tag k="natural" v="wetland" />
		<tag k="ssr:stedsnr" v="752543" />
	</node>
	<node id="-50368" lat="58.9185472232" lon="8.91463888136">
		<tag k="name" v="Besfet" />
		<tag k="natural" v="wetland" />
		<tag k="ssr:stedsnr" v="752522" />
	</node>
	<node id="-50365" lat="58.8692555513" lon="8.8655166646">
		<tag k="name" v="Ramsåsmyra" />
		<tag k="natural" v="wetland" />
		<tag k="ssr:stedsnr" v="752499" />
	</node>
	<node id="-50363" lat="58.9025694479" lon="8.89331945098">
		<tag k="name" v="Saltmyr" />
		<tag k="natural" v="wetland" />
		<tag k="ssr:stedsnr" v="752490" />
	</node>
	<node id="-50359" lat="58.8956805563" lon="8.92017500366">
		<tag k="name" v="Baskotmyra" />
		<tag k="natural" v="wetland" />
		<tag k="ssr:stedsnr" v="752444" />
	</node>
	<node id="-50352" lat="58.7658388885" lon="9.02610277408">
		<tag k="name" v="Grimsbumyrene" />
		<tag k="natural" v="wetland" />
		<tag k="ssr:stedsnr" v="631590" />
	</node>
	<node id="-50350" lat="58.8969694462" lon="9.04539723046">
		<tag k="name" v="Olabumyra" />
		<tag k="natural" v="wetland" />
		<tag k="ssr:stedsnr" v="630991" />
	</node>
	<node id="-50342" lat="58.8126555556" lon="9.0511388898">
		<tag k="name" v="Barbumyra" />
		<tag k="natural" v="wetland" />
		<tag k="ssr:stedsnr" v="630933" />
	</node>
	<node id="-50340" lat="58.9717694482" lon="8.99435833427">
		<tag k="name" v="Skarmyrene" />
		<tag k="natural" v="wetland" />
		<tag k="ssr:stedsnr" v="630889" />
	</node>
	<node id="-50338" lat="58.9787222207" lon="8.94740000868">
		<tag k="name" v="Bjørnsmyr" />
		<tag k="natural" v="wetland" />
		<tag k="ssr:stedsnr" v="630884" />
	</node>
	<node id="-50331" lat="58.9186361153" lon="8.98577778386">
		<tag k="name" v="Gunnarsmyr" />
		<tag k="natural" v="wetland" />
		<tag k="ssr:stedsnr" v="630835" />
	</node>
	<node id="-50327" lat="58.9359499956" lon="9.02253332544">
		<tag k="name" v="Nils Tverrkjerr" />
		<tag k="natural" v="wetland" />
		<tag k="ssr:stedsnr" v="630815" />
	</node>
	<node id="-50325" lat="58.8680499969" lon="9.10349723065">
		<tag k="name" v="Østebømyra" />
		<tag k="natural" v="wetland" />
		<tag k="ssr:stedsnr" v="630808" />
	</node>
	<node id="-50323" lat="58.9462055549" lon="8.96016667503">
		<tag k="name" v="Mofjellmyra" />
		<tag k="natural" v="wetland" />
		<tag k="ssr:stedsnr" v="630804" />
	</node>
	<node id="-50320" lat="58.8850638929" lon="9.11942221451">
		<tag k="name" v="Bøykholt" />
		<tag k="place" v="locality" />
		<tag k="ssr:stedsnr" v="630784" />
	</node>
	<node id="-50319" lat="58.8964194476" lon="9.05683888389">
		<tag k="name" v="Tørrgranmyra" />
		<tag k="natural" v="wetland" />
		<tag k="ssr:stedsnr" v="630775" />
	</node>
	<node id="-50313" lat="58.9202888904" lon="9.05328333934">
		<tag k="name" v="Snøkjerra" />
		<tag k="natural" v="wetland" />
		<tag k="ssr:stedsnr" v="630550" />
	</node>
	<node id="-50310" lat="58.9287944445" lon="8.89717500804">
		<tag k="name" v="Solemsteene" />
		<tag k="natural" v="wetland" />
		<tag k="ssr:stedsnr" v="630496" />
	</node>
	<node id="-50308" lat="58.8593166686" lon="8.89872777255">
		<tag k="name" v="Sjølvskottmyra" />
		<tag k="natural" v="wetland" />
		<tag k="ssr:stedsnr" v="630467" />
	</node>
	<node id="-50306" lat="58.8940472195" lon="8.81634445303">
		<tag k="name" v="Ljågrasmyra" />
		<tag k="natural" v="wetland" />
		<tag k="ssr:stedsnr" v="630591" />
	</node>
	<node id="-50299" lat="58.9413249998" lon="8.88346666307">
		<tag k="name" v="Skarkmyra" />
		<tag k="natural" v="wetland" />
		<tag k="ssr:stedsnr" v="607923" />
	</node>
	<node id="-50284" lat="58.8487500004" lon="9.17247500392">
		<tag k="name" v="Bjormyr" />
		<tag k="natural" v="wetland" />
		<tag k="ssr:stedsnr" v="607108" />
	</node>
	<node id="-50264" lat="58.8074999973" lon="9.02711666961">
		<tag k="name" v="Torjuskjerra" />
		<tag k="natural" v="wetland" />
		<tag k="ssr:stedsnr" v="570850" />
	</node>
	<node id="-50257" lat="58.8623999968" lon="9.01388888846">
		<tag k="name" v="Torgrimsmyr" />
		<tag k="natural" v="wetland" />
		<tag k="ssr:stedsnr" v="570812" />
	</node>
	<node id="-50256" lat="58.8240583337" lon="9.12635832962">
		<tag k="name" v="Kringlemyr" />
		<tag k="natural" v="wetland" />
		<tag k="ssr:stedsnr" v="570787" />
	</node>
	<node id="-50255" lat="58.8749111122" lon="8.94425000701">
		<tag k="name" v="Skråtjennmyra" />
		<tag k="natural" v="wetland" />
		<tag k="ssr:stedsnr" v="570786" />
	</node>
	<node id="-50240" lat="58.8956972228" lon="9.02043889422">
		<tag k="name" v="Fetholtet" />
		<tag k="place" v="locality" />
		<tag k="ssr:stedsnr" v="570728" />
	</node>
	<node id="-50239" lat="58.8543861112" lon="9.15760277151">
		<tag k="name" v="Valmyra" />
		<tag k="natural" v="wetland" />
		<tag k="ssr:stedsnr" v="570723" />
	</node>
	<node id="-50237" lat="58.8966472231" lon="9.03949166831">
		<tag k="name" v="Fjellmyr" />
		<tag k="natural" v="wetland" />
		<tag k="ssr:stedsnr" v="570719" />
	</node>
	<node id="-50234" lat="58.8402472179" lon="9.06664722666">
		<tag k="name" v="Bråten" />
		<tag k="place" v="locality" />
		<tag k="ssr:stedsnr" v="570972" />
	</node>
	<node id="-50233" lat="58.8497416651" lon="8.97751111489">
		<tag k="name" v="Moltekjerr" />
		<tag k="natural" v="wetland" />
		<tag k="ssr:stedsnr" v="570887" />
	</node>
	<node id="-50231" lat="58.8488583351" lon="8.9713416694">
		<tag k="name" v="Baldropkjerra" />
		<tag k="natural" v="wetland" />
		<tag k="ssr:stedsnr" v="570882" />
	</node>
	<node id="-50226" lat="58.840694447" lon="9.16253610889">
		<tag k="name" v="Kortmyr" />
		<tag k="natural" v="wetland" />
		<tag k="ssr:stedsnr" v="570617" />
	</node>
	<node id="-50225" lat="58.8702805582" lon="9.13182778625">
		<tag k="name" v="Ålekarsteene" />
		<tag k="natural" v="wetland" />
		<tag k="ssr:stedsnr" v="570585" />
	</node>
	<node id="-50224" lat="58.8648916646" lon="9.14838055378">
		<tag k="name" v="Smalmyr" />
		<tag k="natural" v="wetland" />
		<tag k="ssr:stedsnr" v="570580" />
	</node>
	<node id="-50222" lat="58.876336107" lon="9.1539138962">
		<tag k="name" v="Høgmyr" />
		<tag k="natural" v="wetland" />
		<tag k="ssr:stedsnr" v="570567" />
	</node>
	<node id="-50218" lat="58.8378638898" lon="9.00803332584">
		<tag k="name" v="Tverrmyr" />
		<tag k="natural" v="wetland" />
		<tag k="ssr:stedsnr" v="569977" />
	</node>
	<node id="-50213" lat="58.8280555515" lon="8.99246944154">
		<tag k="name" v="Skarkkjerr" />
		<tag k="natural" v="wetland" />
		<tag k="ssr:stedsnr" v="569920" />
	</node>
	<node id="-50212" lat="58.8398388895" lon="9.04694721852">
		<tag k="name" v="Porskjerr" />
		<tag k="natural" v="wetland" />
		<tag k="ssr:stedsnr" v="569914" />
	</node>
	<node id="-50209" lat="58.9806583369" lon="8.96216110295">
		<tag k="name" v="Varkholtmyrene" />
		<tag k="natural" v="wetland" />
		<tag k="ssr:stedsnr" v="569875" />
	</node>
	<node id="-50207" lat="58.9184944422" lon="9.03925555757">
		<tag k="name" v="Nordigards Husmyr" />
		<tag k="natural" v="wetland" />
		<tag k="ssr:stedsnr" v="569863" />
	</node>
	<node id="-50202" lat="58.917755553" lon="8.81430278054">
		<tag k="name" v="Trettesteinen" />
		<tag k="natural" v="stone" />
		<tag k="ssr:stedsnr" v="569699" />
	</node>
	<node id="-50201" lat="58.9723972256" lon="8.85856110463">
		<tag k="name" v="Buksene" />
		<tag k="natural" v="wetland" />
		<tag k="ssr:stedsnr" v="569601" />
	</node>
	<node id="-50200" lat="58.9389916669" lon="8.91359721448">
		<tag k="name" v="Solemdalskjerret" />
		<tag k="natural" v="wetland" />
		<tag k="ssr:stedsnr" v="569573" />
	</node>
	<node id="-50194" lat="58.8585999957" lon="8.8962361075">
		<tag k="name" v="Botilskjerr" />
		<tag k="natural" v="wetland" />
		<tag k="ssr:stedsnr" v="569525" />
	</node>
	<node id="-50193" lat="58.8615111154" lon="8.92535832975">
		<tag k="name" v="Revura" />
		<tag k="natural" v="scree" />
		<tag k="ssr:stedsnr" v="569511" />
	</node>
	<node id="-50192" lat="58.9012888854" lon="8.92908888783">
		<tag k="name" v="Langmyr" />
		<tag k="natural" v="wetland" />
		<tag k="ssr:stedsnr" v="569507" />
	</node>
	<node id="-50190" lat="58.8912805594" lon="8.86376944474">
		<tag k="name" v="Rauen" />
		<tag k="natural" v="stone" />
		<tag k="ssr:stedsnr" v="569503" />
	</node>
	<node id="-50181" lat="58.7836888892" lon="9.02685277642">
		<tag k="alt_name" v="Steinsmyrene" />
		<tag k="name" v="Steinsmyrane" />
		<tag k="natural" v="wetland" />
		<tag k="ssr:stedsnr" v="547494" />
	</node>
	<node id="-50173" lat="58.8477555524" lon="9.04014444492">
		<tag k="name" v="Vekselmyra" />
		<tag k="natural" v="wetland" />
		<tag k="ssr:stedsnr" v="547136" />
	</node>
	<node id="-50171" lat="58.8241416679" lon="9.13554167468">
		<tag k="alt_name" v="Torjusmyrene" />
		<tag k="name" v="Torjusmyrane" />
		<tag k="natural" v="wetland" />
		<tag k="ssr:stedsnr" v="547043" />
	</node>
	<node id="-50161" lat="58.8362194462" lon="8.96954167277">
		<tag k="name" v="Heimyr" />
		<tag k="natural" v="wetland" />
		<tag k="ssr:stedsnr" v="546101" />
	</node>
	<node id="-50131" lat="58.8593388873" lon="9.00570277732">
		<tag k="name" v="Brumyr" />
		<tag k="natural" v="wetland" />
		<tag k="ssr:stedsnr" v="388936" />
	</node>
	<node id="-50123" lat="58.9306861142" lon="9.02970000627">
		<tag k="name" v="Mesterkjerr" />
		<tag k="natural" v="wetland" />
		<tag k="ssr:stedsnr" v="388836" />
	</node>
	<node id="-50118" lat="58.7890861092" lon="9.04185000812">
		<tag k="name" v="Lille Lauvåsmyr" />
		<tag k="natural" v="wetland" />
		<tag k="ssr:stedsnr" v="388894" />
	</node>
	<node id="-50113" lat="58.8268138854" lon="9.12172499363">
		<tag k="name" v="Åslandsstykket" />
		<tag k="place" v="locality" />
		<tag k="ssr:stedsnr" v="388779" />
	</node>
	<node id="-50111" lat="58.8549805511" lon="9.17362222544">
		<tag k="name" v="Trættestykket" />
		<tag k="place" v="locality" />
		<tag k="ssr:stedsnr" v="388641" />
	</node>
	<node id="-50107" lat="58.8506472238" lon="9.17302222749">
		<tag k="name" v="Bjormyrhogsten" />
		<tag k="place" v="locality" />
		<tag k="ssr:stedsnr" v="388591" />
	</node>
	<node id="-50105" lat="58.9308499967" lon="8.95945554874">
		<tag k="name" v="Prestestea" />
		<tag k="natural" v="wetland" />
		<tag k="ssr:stedsnr" v="387840" />
	</node>
	<node id="-50101" lat="58.8022361135" lon="9.06003888614">
		<tag k="name" v="Nordiskau" />
		<tag k="place" v="locality" />
		<tag k="ssr:stedsnr" v="387946" />
	</node>
	<node id="-50094" lat="58.861447224" lon="8.8950499948">
		<tag k="name" v="Plenttjennslåtta" />
		<tag k="natural" v="wetland" />
		<tag k="ssr:stedsnr" v="387530" />
	</node>
	<node id="-50081" lat="58.8931305517" lon="8.87204999793">
		<tag k="name" v="Skåpmyra" />
		<tag k="natural" v="wetland" />
		<tag k="ssr:stedsnr" v="365834" />
	</node>
	<node id="-50075" lat="58.9009194459" lon="8.83354167278">
		<tag k="alt_name" v="Sundsmyrene" />
		<tag k="name" v="Sundsmyrane" />
		<tag k="natural" v="wetland" />
		<tag k="ssr:stedsnr" v="365474" />
	</node>
	<node id="-50073" lat="58.9543388906" lon="8.83373610775">
		<tag k="alt_name" v="Maurmyrene" />
		<tag k="name" v="Maurmyrane" />
		<tag k="natural" v="wetland" />
		<tag k="ssr:stedsnr" v="365335" />
	</node>
	<node id="-50053" lat="58.9623694487" lon="8.93093054711">
		<tag k="alt_name" v="Reinmyrene" />
		<tag k="name" v="Reinmyrane" />
		<tag k="natural" v="wetland" />
		<tag k="ssr:stedsnr" v="364892" />
	</node>
	<node id="-50051" lat="58.9335694472" lon="8.925219437">
		<tag k="alt_name" v="Holmmyrene" />
		<tag k="name" v="Holmmyrane" />
		<tag k="natural" v="wetland" />
		<tag k="ssr:stedsnr" v="364857" />
	</node>
	<node id="-50049" lat="58.8723333373" lon="8.81528333466">
		<tag k="name" v="Fjølmyra" />
		<tag k="natural" v="wetland" />
		<tag k="ssr:stedsnr" v="364708" />
	</node>
	<node id="-50048" lat="58.8751916642" lon="8.82391389449">
		<tag k="name" v="Åsmyra" />
		<tag k="natural" v="wetland" />
		<tag k="ssr:stedsnr" v="364707" />
	</node>
	<node id="-50041" lat="58.8877916702" lon="9.0794861148">
		<tag k="alt_name" v="Bjellemyra" />
		<tag k="name" v="Bjellemyr" />
		<tag k="natural" v="wetland" />
		<tag k="ssr:stedsnr" v="364252" />
	</node>
	<node id="-50040" lat="58.876641668" lon="9.11686944871">
		<tag k="name" v="Fjellmyr" />
		<tag k="natural" v="wetland" />
		<tag k="ssr:stedsnr" v="364227" />
	</node>
	<node id="-50039" lat="58.8804916649" lon="9.12570556187">
		<tag k="alt_name" v="Store Solemyr" />
		<tag k="name" v="Store Solemsmyra" />
		<tag k="natural" v="wetland" />
		<tag k="ssr:stedsnr" v="364225" />
	</node>
	<node id="-50032" lat="58.9768555581" lon="8.93053333216">
		<tag k="name" v="Moltekjerr" />
		<tag k="natural" v="wetland" />
		<tag k="ssr:stedsnr" v="328590" />
	</node>
	<node id="-50024" lat="58.8249861108" lon="9.02750554987">
		<tag k="name" v="Dansarkjerr" />
		<tag k="place" v="locality" />
		<tag k="ssr:stedsnr" v="327943" />
	</node>
	<node id="-50022" lat="58.8655694427" lon="9.10306110389">
		<tag k="name" v="Djupmyr" />
		<tag k="natural" v="wetland" />
		<tag k="ssr:stedsnr" v="327801" />
	</node>
	<node id="-50019" lat="58.9324916651" lon="8.99040832773">
		<tag k="name" v="Paldalsmyra" />
		<tag k="natural" v="wetland" />
		<tag k="ssr:stedsnr" v="327798" />
	</node>
	<node id="-50018" lat="58.8691138904" lon="9.09896110889">
		<tag k="name" v="Midtslåtta" />
		<tag k="natural" v="wetland" />
		<tag k="ssr:stedsnr" v="327789" />
	</node>
	<node id="-50016" lat="58.897225002" lon="9.07684443883">
		<tag k="name" v="Stauemyr" />
		<tag k="natural" v="wetland" />
		<tag k="ssr:stedsnr" v="327785" />
	</node>
	<node id="-50014" lat="58.8994611101" lon="9.10871388624">
		<tag k="name" v="Bjellmyra" />
		<tag k="natural" v="wetland" />
		<tag k="ssr:stedsnr" v="327780" />
	</node>
	<node id="-50009" lat="58.8372055558" lon="9.15654166878">
		<tag k="name" v="Svartkjerr" />
		<tag k="natural" v="wetland" />
		<tag k="ssr:stedsnr" v="327767" />
	</node>
	<node id="-50001" lat="58.8510611139" lon="9.01808889067">
		<tag k="name" v="Rolleivskjerr" />
		<tag k="natural" v="wetland" />
		<tag k="ssr:stedsnr" v="327892" />
	</node>
	<node id="-50000" lat="58.8432805537" lon="9.02466388893">
		<tag k="name" v="Husmyr" />
		<tag k="natural" v="wetland" />
		<tag k="ssr:stedsnr" v="327890" />
	</node>
	<node id="-49998" lat="58.7753000022" lon="9.03465833578">
		<tag k="name" v="Pinesund" />
		<tag k="natural" v="wetland" />
		<tag k="ssr:stedsnr" v="327886" />
	</node>
	<node id="-49996" lat="58.791988885" lon="9.04553334188">
		<tag k="name" v="Store Lauvåsmyr" />
		<tag k="natural" v="wetland" />
		<tag k="ssr:stedsnr" v="327881" />
	</node>
	<node id="-49995" lat="58.9512555521" lon="8.95456388676">
		<tag k="name" v="Stokkbrukjerret" />
		<tag k="natural" v="wetland" />
		<tag k="ssr:stedsnr" v="327880" />
	</node>
	<node id="-49993" lat="58.8601472194" lon="8.95751388641">
		<tag k="name" v="Røykjerr" />
		<tag k="natural" v="wetland" />
		<tag k="ssr:stedsnr" v="327875" />
	</node>
	<node id="-49990" lat="58.8006750015" lon="9.01160554795">
		<tag k="name" v="Diplemyr" />
		<tag k="natural" v="wetland" />
		<tag k="ssr:stedsnr" v="327858" />
	</node>
	<node id="-49989" lat="58.9134611094" lon="9.04186388299">
		<tag k="name" v="Moltekjerr" />
		<tag k="natural" v="wetland" />
		<tag k="ssr:stedsnr" v="327853" />
	</node>
	<node id="-49987" lat="58.8706166655" lon="8.82536667258">
		<tag k="name" v="Nilsansmyr" />
		<tag k="natural" v="wetland" />
		<tag k="ssr:stedsnr" v="327697" />
	</node>
	<node id="-49986" lat="58.8761222178" lon="8.81522500293">
		<tag k="name" v="Dalslåtta" />
		<tag k="natural" v="wetland" />
		<tag k="ssr:stedsnr" v="327695" />
	</node>
	<node id="-49985" lat="58.9330666704" lon="8.82177222488">
		<tag k="name" v="Mikkelste" />
		<tag k="natural" v="wetland" />
		<tag k="ssr:stedsnr" v="327692" />
	</node>
	<node id="-49983" lat="58.8665916625" lon="8.80058611965">
		<tag k="name" v="Ringslåtta" />
		<tag k="natural" v="wetland" />
		<tag k="ssr:stedsnr" v="327685" />
	</node>
	<node id="-49982" lat="58.8754222216" lon="8.79571666603">
		<tag k="name" v="Åbømyra" />
		<tag k="natural" v="wetland" />
		<tag k="ssr:stedsnr" v="327683" />
	</node>
	<node id="-49980" lat="58.9499638877" lon="8.82407221886">
		<tag k="name" v="Geitbekkstea" />
		<tag k="natural" v="wetland" />
		<tag k="ssr:stedsnr" v="327671" />
	</node>
	<node id="-49979" lat="58.8360694441" lon="9.05413610859">
		<tag k="name" v="Skeilikjerret" />
		<tag k="natural" v="wetland" />
		<tag k="ssr:stedsnr" v="327738" />
	</node>
	<node id="-49978" lat="58.862850003" lon="8.96736945165">
		<tag k="name" v="Røykjerr" />
		<tag k="natural" v="wetland" />
		<tag k="ssr:stedsnr" v="327736" />
	</node>
	<node id="-49976" lat="58.8775500018" lon="8.98518055984">
		<tag k="name" v="Kringlemyr" />
		<tag k="natural" v="wetland" />
		<tag k="ssr:stedsnr" v="327728" />
	</node>
	<node id="-49975" lat="58.9429138921" lon="8.91221944137">
		<tag k="name" v="Risfjellkjerret" />
		<tag k="natural" v="wetland" />
		<tag k="ssr:stedsnr" v="327558" />
	</node>
	<node id="-49972" lat="58.8715000013" lon="8.87957221994">
		<tag k="name" v="Djupkjerr" />
		<tag k="natural" v="wetland" />
		<tag k="ssr:stedsnr" v="327493" />
	</node>
	<node id="-49970" lat="58.8607111075" lon="8.83914721398">
		<tag k="name" v="Knutslåttene" />
		<tag k="natural" v="wetland" />
		<tag k="ssr:stedsnr" v="327474" />
	</node>
	<node id="-49969" lat="58.8552861108" lon="8.91492222174">
		<tag k="name" v="Steene" />
		<tag k="natural" v="wetland" />
		<tag k="ssr:stedsnr" v="327471" />
	</node>
	<node id="-49968" lat="58.8925472179" lon="8.83215556368">
		<tag k="name" v="Bjørkbustea" />
		<tag k="natural" v="wetland" />
		<tag k="ssr:stedsnr" v="327470" />
	</node>
	<node id="-49949" lat="58.8449833337" lon="8.9610972235">
		<tag k="name" v="Eikbumyra" />
		<tag k="natural" v="wetland" />
		<tag k="ssr:stedsnr" v="304089" />
	</node>
	<node id="-49936" lat="58.8482388889" lon="9.06771389166">
		<tag k="name" v="Husmyr" />
		<tag k="place" v="locality" />
		<tag k="ssr:stedsnr" v="207982" />
	</node>
	<node id="-49934" lat="58.8301388863" lon="9.01998056103">
		<tag k="name" v="Lonåsmyra" />
		<tag k="natural" v="wetland" />
		<tag k="ssr:stedsnr" v="206982" />
	</node>
	<node id="-49931" lat="58.8308305535" lon="9.00691389697">
		<tag k="name" v="Lyngåsmyra" />
		<tag k="natural" v="wetland" />
		<tag k="ssr:stedsnr" v="206972" />
	</node>
	<node id="-49928" lat="58.8470777742" lon="9.09654166733">
		<tag k="name" v="Sundsmyra" />
		<tag k="natural" v="wetland" />
		<tag k="ssr:stedsnr" v="206965" />
	</node>
	<node id="-49927" lat="58.7893638907" lon="9.05255278353">
		<tag k="name" v="Langtjennsteene" />
		<tag k="natural" v="wetland" />
		<tag k="ssr:stedsnr" v="206957" />
	</node>
	<node id="-49924" lat="58.8131944466" lon="9.09188332795">
		<tag k="name" v="Bjordamsmyra" />
		<tag k="place" v="locality" />
		<tag k="ssr:stedsnr" v="206941" />
	</node>
	<node id="-49922" lat="58.9507111135" lon="8.98848056028">
		<tag k="name" v="Lille Raunmyr" />
		<tag k="natural" v="wetland" />
		<tag k="ssr:stedsnr" v="206930" />
	</node>
	<node id="-49921" lat="58.954455553" lon="8.97729722295">
		<tag k="name" v="Tjærhjellkjerret" />
		<tag k="natural" v="wetland" />
		<tag k="ssr:stedsnr" v="206926" />
	</node>
	<node id="-49918" lat="58.7874444457" lon="9.04193610316">
		<tag k="name" v="Djuptjennmyr" />
		<tag k="natural" v="wetland" />
		<tag k="ssr:stedsnr" v="206909" />
	</node>
	<node id="-49915" lat="58.9703388919" lon="8.96320278167">
		<tag k="name" v="Rundthol" />
		<tag k="natural" v="wetland" />
		<tag k="ssr:stedsnr" v="206891" />
	</node>
	<node id="-49914" lat="58.8086027742" lon="9.00480555732">
		<tag k="name" v="Skrefjellmyra" />
		<tag k="natural" v="wetland" />
		<tag k="ssr:stedsnr" v="206881" />
	</node>
	<node id="-49910" lat="58.8100916657" lon="9.03448888778">
		<tag k="name" v="Sibilias myr" />
		<tag k="natural" v="wetland" />
		<tag k="ssr:stedsnr" v="206866" />
	</node>
	<node id="-49909" lat="58.8113972207" lon="9.02824166516">
		<tag k="name" v="Torjuskjerr" />
		<tag k="natural" v="wetland" />
		<tag k="ssr:stedsnr" v="206861" />
	</node>
	<node id="-49908" lat="58.8082083332" lon="9.01681111565">
		<tag k="name" v="Grasåsmyra" />
		<tag k="natural" v="wetland" />
		<tag k="ssr:stedsnr" v="206853" />
	</node>
	<node id="-49906" lat="58.8643638905" lon="9.07957500445">
		<tag k="name" v="Småbråtane" />
		<tag k="place" v="locality" />
		<tag k="ssr:stedsnr" v="206846" />
	</node>
	<node id="-49898" lat="58.9027805598" lon="9.09948055335">
		<tag k="name" v="Kalvepyttkjerret" />
		<tag k="natural" v="wetland" />
		<tag k="ssr:stedsnr" v="206822" />
	</node>
	<node id="-49895" lat="58.897894446" lon="9.06680833272">
		<tag k="name" v="Skuggekjerr" />
		<tag k="natural" v="wetland" />
		<tag k="ssr:stedsnr" v="206800" />
	</node>
	<node id="-50640" lat="58.8763999981" lon="9.1117777721">
		<tag k="name" v="Brattåskjerra" />
		<tag k="natural" v="wetland" />
		<tag k="ssr:stedsnr" v="873602" />
	</node>
	<node id="-49885" lat="58.8736833335" lon="8.98159167028">
		<tag k="name" v="Korsmyr" />
		<tag k="natural" v="wetland" />
		<tag k="ssr:stedsnr" v="206766" />
	</node>
	<node id="-49883" lat="58.8382972223" lon="9.12895833317">
		<tag k="name" v="Plankholta" />
		<tag k="place" v="locality" />
		<tag k="ssr:stedsnr" v="206760" />
	</node>
	<node id="-49881" lat="58.8315888892" lon="9.08809721888">
		<tag k="name" v="Eikebrødstølmyra" />
		<tag k="place" v="locality" />
		<tag k="ssr:stedsnr" v="206755" />
	</node>
	<node id="-49875" lat="58.8207111084" lon="9.09392777709">
		<tag k="name" v="Leirmondlen" />
		<tag k="place" v="locality" />
		<tag k="ssr:stedsnr" v="206733" />
	</node>
	<node id="-49873" lat="58.9293444406" lon="8.80620555119">
		<tag k="name" v="Brukjerra" />
		<tag k="natural" v="wetland" />
		<tag k="ssr:stedsnr" v="206708" />
	</node>
	<node id="-49871" lat="58.9634749965" lon="8.81118889189">
		<tag k="name" v="Bjørkholtmyra" />
		<tag k="natural" v="wetland" />
		<tag k="ssr:stedsnr" v="206699" />
	</node>
	<node id="-49868" lat="58.8698166661" lon="9.14250277326">
		<tag k="name" v="Djupmyr" />
		<tag k="natural" v="wetland" />
		<tag k="ssr:stedsnr" v="206603" />
	</node>
	<node id="-49865" lat="58.7736083356" lon="9.03728056011">
		<tag k="name" v="Geitkjerr" />
		<tag k="natural" v="wetland" />
		<tag k="ssr:stedsnr" v="206553" />
	</node>
	<node id="-49864" lat="58.9517666659" lon="8.89392778038">
		<tag k="name" v="Vallmyra" />
		<tag k="natural" v="wetland" />
		<tag k="ssr:stedsnr" v="206550" />
	</node>
	<node id="-49863" lat="58.8831472231" lon="8.83778055051">
		<tag k="name" v="Klovmyra" />
		<tag k="natural" v="wetland" />
		<tag k="ssr:stedsnr" v="206505" />
	</node>
	<node id="-49859" lat="58.8813638933" lon="8.92225000719">
		<tag k="name" v="Løkjemyra" />
		<tag k="natural" v="wetland" />
		<tag k="ssr:stedsnr" v="206478" />
	</node>
	<node id="-49857" lat="58.8508027763" lon="8.89966388239">
		<tag k="name" v="Kalvkjerr" />
		<tag k="natural" v="wetland" />
		<tag k="ssr:stedsnr" v="206462" />
	</node>
	<node id="-49854" lat="58.8990527777" lon="8.86535277799">
		<tag k="name" v="Åshildsmyr" />
		<tag k="natural" v="wetland" />
		<tag k="ssr:stedsnr" v="206436" />
	</node>
	<node id="-49853" lat="58.9012111106" lon="9.03840555981">
		<tag k="name" v="Eiklimyra" />
		<tag k="natural" v="wetland" />
		<tag k="ssr:stedsnr" v="184779" />
	</node>
	<node id="-49841" lat="58.8738972216" lon="8.85099444537">
		<tag k="name" v="Vefallmyra" />
		<tag k="natural" v="wetland" />
		<tag k="ssr:stedsnr" v="183188" />
	</node>
	<node id="-49835" lat="58.8524055562" lon="8.93592777463">
		<tag k="name" v="Sveimyra" />
		<tag k="natural" v="wetland" />
		<tag k="ssr:stedsnr" v="183118" />
	</node>
	<node id="-50631" lat="58.8594500029" lon="9.17757500704">
		<tag k="name" v="Ramslimyra" />
		<tag k="natural" v="wetland" />
		<tag k="ssr:stedsnr" v="873627" />
	</node>
	<node id="-49821" lat="58.9267944466" lon="8.95301111233">
		<tag k="alt_name" v="Tjovsmyrene" />
		<tag k="name" v="Tjovsmyrane" />
		<tag k="natural" v="wetland" />
		<tag k="ssr:stedsnr" v="182814" />
	</node>
	<node id="-48580" lat="58.9716722243" lon="8.86935834072">
		<tag k="name" v="Slåttholet" />
		<tag k="natural" v="wetland" />
		<tag k="ssr:stedsnr" v="266600" />
	</node>
	<node id="-49813" lat="58.8877750025" lon="9.0984944531">
		<tag k="name" v="Mortensmyr" />
		<tag k="natural" v="wetland" />
		<tag k="ssr:stedsnr" v="182217" />
	</node>
	<node id="-49810" lat="58.8719055538" lon="8.90848333058">
		<tag k="name" v="Diplemyr" />
		<tag k="natural" v="wetland" />
		<tag k="ssr:stedsnr" v="182167" />
	</node>
	<node id="-49798" lat="58.8689277796" lon="9.09526945079">
		<tag k="name" v="Gjøsmyr" />
		<tag k="natural" v="wetland" />
		<tag k="ssr:stedsnr" v="145843" />
	</node>
	<node id="-49796" lat="58.9415027797" lon="8.94351388889">
		<tag k="name" v="Kjeppmyrene" />
		<tag k="natural" v="wetland" />
		<tag k="ssr:stedsnr" v="145840" />
	</node>
	<node id="-49782" lat="58.8391444466" lon="9.06929444976">
		<tag k="name" v="Langmyra" />
		<tag k="place" v="locality" />
		<tag k="ssr:stedsnr" v="145742" />
	</node>
	<node id="-49778" lat="58.8433027736" lon="9.13979722448">
		<tag k="name" v="Søndre Øygardsmyra" />
		<tag k="natural" v="wetland" />
		<tag k="ssr:stedsnr" v="145733" />
	</node>
	<node id="-49776" lat="58.858108329" lon="9.1671500082">
		<tag k="name" v="Øygardskriken" />
		<tag k="natural" v="wetland" />
		<tag k="ssr:stedsnr" v="145650" />
	</node>
	<node id="-49775" lat="58.8965805579" lon="8.98319443846">
		<tag k="name" v="Bruholta" />
		<tag k="place" v="locality" />
		<tag k="ssr:stedsnr" v="145998" />
	</node>
	<node id="-49771" lat="58.846619448" lon="9.12054443902">
		<tag k="name" v="Haganstykket" />
		<tag k="place" v="locality" />
		<tag k="ssr:stedsnr" v="145987" />
	</node>
	<node id="-49767" lat="58.8660277813" lon="8.94764722925">
		<tag k="name" v="Trandlemyra" />
		<tag k="natural" v="wetland" />
		<tag k="ssr:stedsnr" v="145800" />
	</node>
	<node id="-49757" lat="58.8859583329" lon="8.80234721375">
		<tag k="name" v="Benken" />
		<tag k="natural" v="wetland" />
		<tag k="ssr:stedsnr" v="145635" />
	</node>
	<node id="-49756" lat="58.8731805597" lon="9.1271305571">
		<tag k="name" v="Vestre Kalvvassmyra" />
		<tag k="natural" v="wetland" />
		<tag k="ssr:stedsnr" v="145618" />
	</node>
	<node id="-49746" lat="58.9558972257" lon="8.91480556208">
		<tag k="alt_name" v="Hellersmyr" />
		<tag k="name" v="Hellesmyr" />
		<tag k="natural" v="wetland" />
		<tag k="ssr:stedsnr" v="122881" />
	</node>
	<node id="-49734" lat="58.9656361133" lon="8.8385388908">
		<tag k="alt_name" v="Berulfsmyr" />
		<tag k="name" v="Berulvsmyra" />
		<tag k="natural" v="wetland" />
		<tag k="ssr:stedsnr" v="122349" />
	</node>
	<node id="-49732" lat="58.8957638871" lon="9.08905556381">
		<tag k="name" v="Heftmyra" />
		<tag k="natural" v="wetland" />
		<tag k="ssr:stedsnr" v="122249" />
	</node>
	<node id="-49715" lat="58.8306138864" lon="9.10613332908">
		<tag k="name" v="Holtemyra" />
		<tag k="natural" v="wetland" />
		<tag k="ssr:stedsnr" v="122061" />
	</node>
	<node id="-49245" lat="58.7908027768" lon="9.00547778108">
		<tag k="name" v="Skillarkjerra" />
		<tag k="natural" v="wetland" />
		<tag k="ssr:stedsnr" v="630860" />
	</node>
	<node id="-49694" lat="58.7818499983" lon="9.04009723086">
		<tag k="name" v="Nærsbumyr" />
		<tag k="natural" v="wetland" />
		<tag k="ssr:stedsnr" v="85894" />
	</node>
	<node id="-49693" lat="58.9589527778" lon="8.95043611238">
		<tag k="name" v="Lille Høgmyr" />
		<tag k="natural" v="wetland" />
		<tag k="ssr:stedsnr" v="85891" />
	</node>
	<node id="-49690" lat="58.8456222191" lon="8.96737499676">
		<tag k="name" v="Lille Tormodsmyr" />
		<tag k="natural" v="wetland" />
		<tag k="ssr:stedsnr" v="85881" />
	</node>
	<node id="-49683" lat="58.8109611101" lon="9.04281945225">
		<tag k="name" v="Barbusteene" />
		<tag k="natural" v="wetland" />
		<tag k="ssr:stedsnr" v="85850" />
	</node>
	<node id="-49682" lat="58.8103333296" lon="9.02280834117">
		<tag k="name" v="Skrubbkjerr" />
		<tag k="natural" v="wetland" />
		<tag k="ssr:stedsnr" v="85835" />
	</node>
	<node id="-49681" lat="58.8796638855" lon="8.96271110958">
		<tag k="name" v="Åsbømyra" />
		<tag k="natural" v="wetland" />
		<tag k="ssr:stedsnr" v="85746" />
	</node>
	<node id="-49674" lat="58.8881749988" lon="9.10316945038">
		<tag k="name" v="Røyslandsmyr" />
		<tag k="natural" v="wetland" />
		<tag k="ssr:stedsnr" v="85780" />
	</node>
	<node id="-49664" lat="58.7672249985" lon="9.02224445031">
		<tag k="name" v="Kringlemyr" />
		<tag k="natural" v="wetland" />
		<tag k="ssr:stedsnr" v="85506" />
	</node>
	<node id="-49657" lat="58.8821972221" lon="8.81191110522">
		<tag k="name" v="Revmyra" />
		<tag k="natural" v="wetland" />
		<tag k="ssr:stedsnr" v="84736" />
	</node>
	<node id="-49650" lat="58.9310055559" lon="8.83912221797">
		<tag k="name" v="Vintermyrene" />
		<tag k="natural" v="wetland" />
		<tag k="ssr:stedsnr" v="84588" />
	</node>
	<node id="-49649" lat="58.9016361117" lon="8.93507777361">
		<tag k="name" v="Kortmyr" />
		<tag k="natural" v="wetland" />
		<tag k="ssr:stedsnr" v="84530" />
	</node>
	<node id="-49635" lat="58.8864222226" lon="9.15160277188">
		<tag k="name" v="Skiftingsmyr" />
		<tag k="natural" v="wetland" />
		<tag k="ssr:stedsnr" v="62197" />
	</node>
	<node id="-49631" lat="58.9637194469" lon="8.90491111024">
		<tag k="name" v="Fjosbumyra" />
		<tag k="natural" v="wetland" />
		<tag k="ssr:stedsnr" v="61872" />
	</node>
	<node id="-49624" lat="58.8920750044" lon="8.82182499283">
		<tag k="alt_name" v="Stormyr" />
		<tag k="name" v="Stormyra" />
		<tag k="natural" v="wetland" />
		<tag k="ssr:stedsnr" v="61436" />
	</node>
	<node id="-49611" lat="58.8403972178" lon="9.14667222643">
		<tag k="name" v="Smalmyr" />
		<tag k="natural" v="wetland" />
		<tag k="ssr:stedsnr" v="25761" />
	</node>
	<node id="-49609" lat="58.8975333359" lon="8.94994166096">
		<tag k="name" v="Rundmyr" />
		<tag k="natural" v="wetland" />
		<tag k="ssr:stedsnr" v="24996" />
	</node>
	<node id="-49603" lat="58.8192888881" lon="9.03964166084">
		<tag k="name" v="Småmyrene" />
		<tag k="place" v="locality" />
		<tag k="ssr:stedsnr" v="24962" />
	</node>
	<node id="-49599" lat="58.8061500006" lon="9.01323055512">
		<tag k="name" v="Kolbotnkjerra" />
		<tag k="natural" v="wetland" />
		<tag k="ssr:stedsnr" v="24894" />
	</node>
	<node id="-49596" lat="58.7969222253" lon="9.00365277944">
		<tag k="name" v="Morumkjerra" />
		<tag k="natural" v="wetland" />
		<tag k="ssr:stedsnr" v="24879" />
	</node>
	<node id="-49594" lat="58.9053027784" lon="8.98806111388">
		<tag k="name" v="Stuvkjerra" />
		<tag k="natural" v="wetland" />
		<tag k="ssr:stedsnr" v="24876" />
	</node>
	<node id="-49593" lat="58.9099472232" lon="8.98568333737">
		<tag k="name" v="Stormyr" />
		<tag k="natural" v="wetland" />
		<tag k="ssr:stedsnr" v="24874" />
	</node>
	<node id="-49589" lat="58.9311666686" lon="9.0243500034">
		<tag k="name" v="Øygardsmyra" />
		<tag k="natural" v="wetland" />
		<tag k="ssr:stedsnr" v="24853" />
	</node>
	<node id="-49586" lat="58.8972388897" lon="9.09253888303">
		<tag k="name" v="Åslandsmyr" />
		<tag k="natural" v="wetland" />
		<tag k="ssr:stedsnr" v="24838" />
	</node>
	<node id="-49585" lat="58.8962972239" lon="9.07980833535">
		<tag k="name" v="Svegankjerr" />
		<tag k="natural" v="wetland" />
		<tag k="ssr:stedsnr" v="24834" />
	</node>
	<node id="-49578" lat="58.8948222194" lon="9.07009167458">
		<tag k="name" v="Heiveikjerr" />
		<tag k="natural" v="wetland" />
		<tag k="ssr:stedsnr" v="24807" />
	</node>
	<node id="-49576" lat="58.8286527736" lon="9.13681110611">
		<tag k="name" v="Blautkjerr" />
		<tag k="natural" v="wetland" />
		<tag k="ssr:stedsnr" v="24800" />
	</node>
	<node id="-49570" lat="58.8576611139" lon="9.15257777961">
		<tag k="name" v="Spetkjerr" />
		<tag k="natural" v="wetland" />
		<tag k="ssr:stedsnr" v="24746" />
	</node>
	<node id="-49567" lat="58.8751277804" lon="8.8028916728">
		<tag k="name" v="Vomma" />
		<tag k="natural" v="wetland" />
		<tag k="ssr:stedsnr" v="24734" />
	</node>
	<node id="-49560" lat="58.819347223" lon="8.98603055136">
		<tag k="name" v="Steene" />
		<tag k="natural" v="wetland" />
		<tag k="ssr:stedsnr" v="24937" />
	</node>
	<node id="-49553" lat="58.8612333304" lon="8.89742500521">
		<tag k="name" v="Vedlagmyra" />
		<tag k="natural" v="wetland" />
		<tag k="ssr:stedsnr" v="24467" />
	</node>
	<node id="-49550" lat="58.8643388855" lon="8.89310000286">
		<tag k="name" v="Rundekjerret" />
		<tag k="natural" v="wetland" />
		<tag k="ssr:stedsnr" v="24555" />
	</node>
	<node id="-49215" lat="58.8640861117" lon="8.88913611656">
		<tag k="name" v="Eldstøkjerra" />
		<tag k="natural" v="wetland" />
		<tag k="ssr:stedsnr" v="630511" />
	</node>
	<node id="-49509" lat="58.8382444488" lon="8.95830277202">
		<tag k="name" v="Tormodsmyr" />
		<tag k="natural" v="wetland" />
		<tag k="ssr:stedsnr" v="98" />
	</node>
	<node id="-49501" lat="58.9680694418" lon="8.96182778362">
		<tag k="name" v="Rundthol" />
		<tag k="natural" v="wetland" />
		<tag k="ssr:stedsnr" v="934913" />
	</node>
	<node id="-49499" lat="58.8751361124" lon="9.05494444321">
		<tag k="name" v="Fjellmyr" />
		<tag k="natural" v="wetland" />
		<tag k="ssr:stedsnr" v="934836" />
	</node>
	<node id="-49496" lat="58.8853805555" lon="9.13530277047">
		<tag k="name" v="Svinsmyr" />
		<tag k="natural" v="wetland" />
		<tag k="ssr:stedsnr" v="934828" />
	</node>
	<node id="-49495" lat="58.8916972215" lon="9.13567778508">
		<tag k="name" v="Fjellmyr" />
		<tag k="natural" v="wetland" />
		<tag k="ssr:stedsnr" v="934823" />
	</node>
	<node id="-49494" lat="58.8888888866" lon="9.09255833687">
		<tag k="name" v="Lille Mortensmyr" />
		<tag k="natural" v="wetland" />
		<tag k="ssr:stedsnr" v="934812" />
	</node>
	<node id="-49493" lat="58.8947694433" lon="9.09436111705">
		<tag k="name" v="Blautmyr" />
		<tag k="natural" v="wetland" />
		<tag k="ssr:stedsnr" v="934808" />
	</node>
	<node id="-49492" lat="58.8649388889" lon="8.97755556113">
		<tag k="name" v="Ulvmyra" />
		<tag k="natural" v="wetland" />
		<tag k="ssr:stedsnr" v="934755" />
	</node>
	<node id="-49477" lat="58.9094916662" lon="8.88748055074">
		<tag k="name" v="Anderses myr" />
		<tag k="natural" v="wetland" />
		<tag k="ssr:stedsnr" v="934519" />
	</node>
	<node id="-49475" lat="58.9002416702" lon="8.82447222083">
		<tag k="name" v="Storrkjerra" />
		<tag k="natural" v="wetland" />
		<tag k="ssr:stedsnr" v="934609" />
	</node>
	<node id="-49474" lat="58.8872611149" lon="8.88663610848">
		<tag k="alt_name" v="Kleivvassmyrene" />
		<tag k="name" v="Kleivvassmyrane" />
		<tag k="natural" v="wetland" />
		<tag k="ssr:stedsnr" v="911264" />
	</node>
	<node id="-49464" lat="58.7900972223" lon="9.01201389222">
		<tag k="name" v="Ålkarmyra" />
		<tag k="natural" v="wetland" />
		<tag k="ssr:stedsnr" v="873873" />
	</node>
	<node id="-49456" lat="58.8065888904" lon="9.01946111898">
		<tag k="name" v="Urfjellmyra" />
		<tag k="natural" v="wetland" />
		<tag k="ssr:stedsnr" v="873856" />
	</node>
	<node id="-49448" lat="58.7818750013" lon="9.03497222727">
		<tag k="name" v="Nærsbumyrkjerra" />
		<tag k="natural" v="wetland" />
		<tag k="ssr:stedsnr" v="873911" />
	</node>
	<node id="-49447" lat="58.7961999997" lon="9.0483027787">
		<tag k="name" v="Timmermyr" />
		<tag k="natural" v="wetland" />
		<tag k="ssr:stedsnr" v="873906" />
	</node>
	<node id="-49446" lat="58.953805556" lon="8.95246944013">
		<tag k="name" v="Gunhildkjerra" />
		<tag k="natural" v="wetland" />
		<tag k="ssr:stedsnr" v="873904" />
	</node>
	<node id="-49441" lat="58.8376027817" lon="9.18990278485">
		<tag k="name" v="Glupsteinsmyr" />
		<tag k="natural" v="wetland" />
		<tag k="ssr:stedsnr" v="873615" />
	</node>
	<node id="-49440" lat="58.8713611104" lon="9.15621111326">
		<tag k="name" v="Skarmyr" />
		<tag k="natural" v="wetland" />
		<tag k="ssr:stedsnr" v="873608" />
	</node>
	<node id="-49434" lat="58.8700861091" lon="8.85628055069">
		<tag k="name" v="Nordbøholta" />
		<tag k="place" v="locality" />
		<tag k="ssr:stedsnr" v="873522" />
	</node>
	<node id="-49433" lat="58.8683444412" lon="8.90456388869">
		<tag k="name" v="Kubbekjerr" />
		<tag k="natural" v="wetland" />
		<tag k="ssr:stedsnr" v="873513" />
	</node>
	<node id="-49432" lat="58.8787222229" lon="8.86817777531">
		<tag k="name" v="Brannen" />
		<tag k="place" v="locality" />
		<tag k="ssr:stedsnr" v="873508" />
	</node>
	<node id="-49415" lat="58.8466999983" lon="9.14645832682">
		<tag k="name" v="Det runde kjerret" />
		<tag k="natural" v="wetland" />
		<tag k="ssr:stedsnr" v="935751" />
	</node>
	<node id="-49414" lat="58.7679472189" lon="9.03306388476">
		<tag k="name" v="Blåvomma" />
		<tag k="natural" v="wetland" />
		<tag k="ssr:stedsnr" v="935590" />
	</node>
	<node id="-49413" lat="58.8483250001" lon="8.97701389408">
		<tag k="name" v="Lille Vehusmyr" />
		<tag k="natural" v="wetland" />
		<tag k="ssr:stedsnr" v="934893" />
	</node>
	<node id="-49412" lat="58.8111305564" lon="9.01122222483">
		<tag k="name" v="Blautkjerr" />
		<tag k="natural" v="wetland" />
		<tag k="ssr:stedsnr" v="934890" />
	</node>
	<node id="-49411" lat="58.8169750024" lon="9.01876111665">
		<tag k="name" v="Søndremyrene" />
		<tag k="natural" v="wetland" />
		<tag k="ssr:stedsnr" v="934885" />
	</node>
	<node id="-49410" lat="58.81497778" lon="9.01509443592">
		<tag k="name" v="Tjennslåtta" />
		<tag k="natural" v="wetland" />
		<tag k="ssr:stedsnr" v="934884" />
	</node>
	<node id="-49408" lat="58.7989027781" lon="8.9969472172">
		<tag k="name" v="Hermanns-hogster" />
		<tag k="place" v="locality" />
		<tag k="ssr:stedsnr" v="934872" />
	</node>
	<node id="-49405" lat="58.9163055599" lon="8.98825278016">
		<tag k="name" v="Kortmyr" />
		<tag k="natural" v="wetland" />
		<tag k="ssr:stedsnr" v="934856" />
	</node>
	<node id="-49391" lat="58.8235444471" lon="8.98811945022">
		<tag k="name" v="Sauhagen" />
		<tag k="place" v="locality" />
		<tag k="ssr:stedsnr" v="934933" />
	</node>
	<node id="-49390" lat="58.8848888924" lon="9.11114444683">
		<tag k="name" v="Limyra" />
		<tag k="natural" v="wetland" />
		<tag k="ssr:stedsnr" v="934798" />
	</node>
	<node id="-49389" lat="58.8984527821" lon="9.08984722298">
		<tag k="name" v="Det lange kjerret" />
		<tag k="natural" v="wetland" />
		<tag k="ssr:stedsnr" v="934796" />
	</node>
	<node id="-49388" lat="58.902561114" lon="9.05185555604">
		<tag k="name" v="Tjovdalsmyr" />
		<tag k="natural" v="wetland" />
		<tag k="ssr:stedsnr" v="934789" />
	</node>
	<node id="-49387" lat="58.8673722191" lon="9.02121944553">
		<tag k="name" v="Myra" />
		<tag k="place" v="locality" />
		<tag k="ssr:stedsnr" v="934788" />
	</node>
	<node id="-49386" lat="58.8378749965" lon="9.14855278627">
		<tag k="name" v="Smalmyrhogsten" />
		<tag k="place" v="locality" />
		<tag k="ssr:stedsnr" v="934786" />
	</node>
	<node id="-49384" lat="58.8207277768" lon="9.12105000861">
		<tag k="name" v="Nordre Espevikmyra" />
		<tag k="natural" v="wetland" />
		<tag k="ssr:stedsnr" v="934779" />
	</node>
	<node id="-49383" lat="58.8793499986" lon="8.96867223076">
		<tag k="name" v="Myråsmyra" />
		<tag k="natural" v="wetland" />
		<tag k="ssr:stedsnr" v="934770" />
	</node>
	<node id="-49382" lat="58.8308972241" lon="9.1456805503">
		<tag k="name" v="Myllbakkhogsten" />
		<tag k="place" v="locality" />
		<tag k="ssr:stedsnr" v="934765" />
	</node>
	<node id="-49376" lat="58.9458777741" lon="8.99859722674">
		<tag k="name" v="Jerpedalsmyra" />
		<tag k="natural" v="wetland" />
		<tag k="ssr:stedsnr" v="934841" />
	</node>
	<node id="-49375" lat="58.9427333345" lon="8.75448055023">
		<tag k="name" v="Bjørnsteinen" />
		<tag k="natural" v="stone" />
		<tag k="ssr:stedsnr" v="934701" />
	</node>
	<node id="-49374" lat="58.9433416691" lon="8.81213611534">
		<tag k="name" v="Langmyr" />
		<tag k="natural" v="wetland" />
		<tag k="ssr:stedsnr" v="934697" />
	</node>
	<node id="-49372" lat="58.8470916677" lon="9.18821389465">
		<tag k="name" v="Galtemyra" />
		<tag k="natural" v="wetland" />
		<tag k="ssr:stedsnr" v="934572" />
	</node>
	<node id="-49365" lat="58.8567111114" lon="8.89951389297">
		<tag k="name" v="Tverrmyrholta" />
		<tag k="place" v="locality" />
		<tag k="ssr:stedsnr" v="934464" />
	</node>
	<node id="-49363" lat="58.8588416689" lon="8.91325278615">
		<tag k="name" v="Lijordet" />
		<tag k="place" v="locality" />
		<tag k="ssr:stedsnr" v="934453" />
	</node>
	<node id="-49343" lat="58.8163833316" lon="9.01063610579">
		<tag k="alt_name" v="Skrefjellmyra" />
		<tag k="name" v="Skredfjellmyra" />
		<tag k="natural" v="wetland" />
		<tag k="ssr:stedsnr" v="790014" />
	</node>
	<node id="-49326" lat="58.9707388847" lon="8.86351388416">
		<tag k="name" v="Navassvollen" />
		<tag k="place" v="locality" />
		<tag k="ssr:stedsnr" v="911985" />
	</node>
	<node id="-49313" lat="58.8698194438" lon="8.97241943719">
		<tag k="name" v="Hellåsmyra" />
		<tag k="natural" v="wetland" />
		<tag k="ssr:stedsnr" v="911196" />
	</node>
	<node id="-49299" lat="58.8769972225" lon="9.12704999826">
		<tag k="alt_name" v="Lille Solemyr" />
		<tag k="name" v="Lille Solemsmyra" />
		<tag k="natural" v="wetland" />
		<tag k="ssr:stedsnr" v="729205" />
	</node>
	<node id="-49283" lat="58.9094499974" lon="9.07468054883">
		<tag k="alt_name" v="Sortmyr" />
		<tag k="name" v="Surtmyr" />
		<tag k="natural" v="wetland" />
		<tag k="ssr:stedsnr" v="730792" />
	</node>
	<node id="-49277" lat="58.9630055566" lon="8.99968054692">
		<tag k="alt_name" v="Bjørkekjerra" />
		<tag k="name" v="Bjørkekjerr" />
		<tag k="natural" v="wetland" />
		<tag k="ssr:stedsnr" v="729887" />
	</node>
	<node id="-48485" lat="58.8448333332" lon="9.17850277684">
		<tag k="name" v="Barlindskjerr" />
		<tag k="natural" v="wetland" />
		<tag k="ssr:stedsnr" v="24610" />
	</node>
	<node id="-49244" lat="58.9078305545" lon="9.02971667435">
		<tag k="name" v="Diplemyr" />
		<tag k="natural" v="wetland" />
		<tag k="ssr:stedsnr" v="630857" />
	</node>
	<node id="-49241" lat="58.7882861124" lon="9.05630556315">
		<tag k="name" v="Knutskjerr" />
		<tag k="natural" v="wetland" />
		<tag k="ssr:stedsnr" v="630958" />
	</node>
	<node id="-49239" lat="58.9652611097" lon="8.98265833617">
		<tag k="name" v="Tørrgranmyra" />
		<tag k="natural" v="wetland" />
		<tag k="ssr:stedsnr" v="630923" />
	</node>
	<node id="-49233" lat="58.8188999986" lon="9.10802222823">
		<tag k="name" v="Åslandsurene" />
		<tag k="natural" v="scree" />
		<tag k="ssr:stedsnr" v="630766" />
	</node>
	<node id="-49231" lat="58.8903833299" lon="9.0694833319">
		<tag k="name" v="Husmyr" />
		<tag k="natural" v="wetland" />
		<tag k="ssr:stedsnr" v="630756" />
	</node>
	<node id="-49229" lat="58.8728472238" lon="8.82636944954">
		<tag k="name" v="Åsholet" />
		<tag k="natural" v="wetland" />
		<tag k="ssr:stedsnr" v="630678" />
	</node>
	<node id="-49220" lat="58.8342527735" lon="9.07160833487">
		<tag k="name" v="Langkjerra" />
		<tag k="natural" v="wetland" />
		<tag k="ssr:stedsnr" v="630708" />
	</node>
	<node id="-49218" lat="58.8507444437" lon="9.18013055608">
		<tag k="name" v="Trollvasskjerr" />
		<tag k="natural" v="wetland" />
		<tag k="ssr:stedsnr" v="630568" />
	</node>
	<node id="-49216" lat="58.9423138917" lon="8.85928333092">
		<tag k="name" v="Hellerslåtten" />
		<tag k="natural" v="wetland" />
		<tag k="ssr:stedsnr" v="630516" />
	</node>
	<node id="-48480" lat="58.8662111125" lon="8.79028610591">
		<tag k="name" v="Løytesmyra" />
		<tag k="natural" v="wetland" />
		<tag k="ssr:stedsnr" v="740" />
	</node>
	<node id="-49210" lat="58.8699416701" lon="8.89683333492">
		<tag k="name" v="Håmyr" />
		<tag k="natural" v="wetland" />
		<tag k="ssr:stedsnr" v="607182" />
	</node>
	<node id="-49199" lat="58.8860749969" lon="9.08056111255">
		<tag k="name" v="Trettmyr" />
		<tag k="natural" v="wetland" />
		<tag k="ssr:stedsnr" v="752821" />
	</node>
	<node id="-49197" lat="58.9085444434" lon="8.8491694456">
		<tag k="name" v="Felleste" />
		<tag k="natural" v="wetland" />
		<tag k="ssr:stedsnr" v="752514" />
	</node>
	<node id="-49196" lat="58.8550250031" lon="9.01137777276">
		<tag k="name" v="Skaldrupmyra" />
		<tag k="natural" v="wetland" />
		<tag k="ssr:stedsnr" v="570932" />
	</node>
	<node id="-49186" lat="58.8916333304" lon="8.9818333254">
		<tag k="name" v="Sekkmyr" />
		<tag k="natural" v="wetland" />
		<tag k="ssr:stedsnr" v="691993" />
	</node>
	<node id="-49174" lat="58.8596750039" lon="9.00266111847">
		<tag k="name" v="Kalvåsstea" />
		<tag k="place" v="locality" />
		<tag k="ssr:stedsnr" v="691946" />
	</node>
	<node id="-49172" lat="58.8486749994" lon="9.01583054881">
		<tag k="name" v="Åsmyra" />
		<tag k="natural" v="wetland" />
		<tag k="ssr:stedsnr" v="691939" />
	</node>
	<node id="-49171" lat="58.83052222" lon="8.97646388424">
		<tag k="name" v="Espemyra" />
		<tag k="natural" v="wetland" />
		<tag k="ssr:stedsnr" v="691932" />
	</node>
	<node id="-49169" lat="58.8342499994" lon="8.97274166562">
		<tag k="name" v="Venåskjerra" />
		<tag k="natural" v="wetland" />
		<tag k="ssr:stedsnr" v="691925" />
	</node>
	<node id="-49166" lat="58.9673611119" lon="9.00051110592">
		<tag k="name" v="Fuglemyr" />
		<tag k="natural" v="wetland" />
		<tag k="ssr:stedsnr" v="691913" />
	</node>
	<node id="-49162" lat="58.9218805565" lon="9.00378610542">
		<tag k="name" v="Blomrosmyr" />
		<tag k="natural" v="wetland" />
		<tag k="ssr:stedsnr" v="691889" />
	</node>
	<node id="-49159" lat="58.7771388931" lon="9.03624721445">
		<tag k="name" v="Smalmyr" />
		<tag k="natural" v="wetland" />
		<tag k="ssr:stedsnr" v="691874" />
	</node>
	<node id="-49158" lat="58.7761555574" lon="9.02680832843">
		<tag k="name" v="Lille Lomtjennmyr" />
		<tag k="natural" v="wetland" />
		<tag k="ssr:stedsnr" v="691873" />
	</node>
	<node id="-49157" lat="58.9182138927" lon="8.98986667356">
		<tag k="name" v="Storrmyr" />
		<tag k="natural" v="wetland" />
		<tag k="ssr:stedsnr" v="691865" />
	</node>
	<node id="-49155" lat="58.8116555596" lon="9.01818610599">
		<tag k="name" v="Lille Grasåsmyra" />
		<tag k="natural" v="wetland" />
		<tag k="ssr:stedsnr" v="691853" />
	</node>
	<node id="-49154" lat="58.9445833301" lon="9.0049861153">
		<tag k="name" v="Sandtjennmyra" />
		<tag k="natural" v="wetland" />
		<tag k="ssr:stedsnr" v="691848" />
	</node>
	<node id="-49153" lat="58.8811888911" lon="9.06526944495">
		<tag k="name" v="Folstea" />
		<tag k="natural" v="wetland" />
		<tag k="ssr:stedsnr" v="691845" />
	</node>
</osm>
