<?xml version="1.0" encoding="UTF-8"?>
<<<<<<< HEAD
<osm version="0.6" generator="osmapis">
	<node lat="58.85043332944701" lon="9.032902779697451" id="-22753">
		<tag k="bridge" v="yes" />
		<tag k="layer" v="1" />
		<tag k="name" v="Steinbrua" />
		<tag k="ssr:stedsnr" v="24919" />
	</node>
	<node lat="58.84114444608637" lon="9.083333325933088" id="-22862">
		<tag k="bridge" v="yes" />
		<tag k="layer" v="1" />
		<tag k="name" v="Teglverket" />
		<tag k="ssr:stedsnr" v="107026" />
	</node>
	<node lat="58.894919440310254" lon="8.985147220089008" id="-22863">
		<tag k="bridge" v="yes" />
		<tag k="layer" v="1" />
		<tag k="name" v="Vevstad" />
		<tag k="ssr:stedsnr" v="107028" />
	</node>
	<node lat="58.87832221895723" lon="9.019116666466461" id="-22885">
		<tag k="junction" v="yes" />
		<tag k="name" v="Korsen" />
		<tag k="place" v="locality" />
		<tag k="ssr:stedsnr" v="145815" />
	</node>
	<node lat="58.796194444982966" lon="9.077933339215452" id="-22901">
		<tag k="bridge" v="yes" />
		<tag k="layer" v="1" />
		<tag k="name" v="Haugelva" />
		<tag k="ssr:stedsnr" v="167013" />
	</node>
	<node lat="58.80562777973143" lon="9.105158334403937" id="-23093">
		<tag k="bridge" v="yes" />
		<tag k="layer" v="1" />
		<tag k="name" v="Fossen" />
		<tag k="ssr:stedsnr" v="288026" />
	</node>
	<node lat="58.830266663321495" lon="9.057361107221995" id="-23094">
		<tag k="bridge" v="yes" />
		<tag k="layer" v="1" />
		<tag k="name" v="Gryting o/jernbane" />
		<tag k="ssr:stedsnr" v="288030" />
	</node>
	<node lat="58.958730558623415" lon="8.916933324875746" id="-23109">
		<tag k="alt_name" v="Bjørnva" />
		<tag k="ford" v="yes" />
		<tag k="name" v="Bjørnvad" />
		<tag k="place" v="locality" />
		<tag k="ssr:stedsnr" v="304902" />
	</node>
	<node lat="58.8701250018376" lon="9.023072227419869" id="-23183">
		<tag k="name" v="Gjerstad" />
		<tag k="old_name" v="Gjerstad stasjon" />
		<tag k="railway" v="station" />
		<tag k="ssr:stedsnr" v="365192" />
		<tag k="train" v="yes" />
	</node>
	<node lat="58.8451055597233" lon="9.108852779939058" id="-23252">
		<tag k="bridge" v="yes" />
		<tag k="layer" v="1" />
		<tag k="name" v="Holte" />
		<tag k="ssr:stedsnr" v="410008" />
	</node>
	<node lat="58.833766668588204" lon="9.089319448477019" id="-23253">
		<tag k="bridge" v="yes" />
		<tag k="layer" v="1" />
		<tag k="name" v="Kals" />
		<tag k="ssr:stedsnr" v="410011" />
	</node>
	<node lat="58.78044999928265" lon="9.038455563340943" id="-23254">
		<tag k="bridge" v="yes" />
		<tag k="layer" v="1" />
		<tag k="name" v="Smalmyr" />
		<tag k="ssr:stedsnr" v="410014" />
	</node>
	<node lat="58.843077777626696" lon="9.111558334877941" id="-23317">
		<tag k="bridge" v="yes" />
		<tag k="layer" v="1" />
		<tag k="name" v="Kvernvegen" />
		<tag k="ssr:stedsnr" v="470015" />
	</node>
	<node lat="58.85201388592553" lon="9.12077500813255" id="-23318">
		<tag k="bridge" v="yes" />
		<tag k="layer" v="1" />
		<tag k="name" v="Oppigardsfoss" />
		<tag k="ssr:stedsnr" v="470023" />
	</node>
	<node lat="58.8405111104828" lon="9.100133331272545" id="-23319">
		<tag k="bridge" v="yes" />
		<tag k="layer" v="1" />
		<tag k="name" v="Skiløypa" />
		<tag k="ssr:stedsnr" v="471016" />
	</node>
	<node lat="58.85715277448888" lon="9.058558329020448" id="-23361">
		<tag k="bridge" v="yes" />
		<tag k="layer" v="1" />
		<tag k="name" v="Haugeto" />
		<tag k="ssr:stedsnr" v="531013" />
	</node>
	<node lat="58.88839721825588" lon="9.029386112275958" id="-23362">
		<tag k="bridge" v="yes" />
		<tag k="layer" v="1" />
		<tag k="name" v="Sandåker" />
		<tag k="ssr:stedsnr" v="532022" />
	</node>
	<node lat="58.85168889187738" lon="9.121716664067515" id="-23363">
		<tag k="bridge" v="yes" />
		<tag k="layer" v="1" />
		<tag k="name" v="Sandnes" />
		<tag k="ssr:stedsnr" v="532023" />
	</node>
	<node lat="58.799424999118486" lon="9.055072229345901" id="-23472">
		<tag k="bridge" v="yes" />
		<tag k="layer" v="1" />
		<tag k="name" v="Haugselva" />
		<tag k="ssr:stedsnr" v="591010" />
	</node>
	<node lat="58.90052499629614" lon="9.021824993961753" id="-23473">
		<tag k="bridge" v="yes" />
		<tag k="layer" v="1" />
		<tag k="name" v="Haugås" />
		<tag k="ssr:stedsnr" v="591011" />
	</node>
	<node lat="58.90091388850469" lon="9.005574993720156" id="-23474">
=======
<osm generator="osmapis" version="0.6">
	<node id="-519936" lat="58.8337666686" lon="9.08931944848">
		<tag k="bridge" v="yes" />
		<tag k="layer" v="1" />
		<tag k="name" v="Kals" />
		<tag k="ssr:stedsnr" v="410011" />
	</node>
	<node id="-519935" lat="58.8451055597" lon="9.10885277994">
		<tag k="bridge" v="yes" />
		<tag k="layer" v="1" />
		<tag k="name" v="Holte" />
		<tag k="ssr:stedsnr" v="410008" />
	</node>
	<node id="-518485" lat="58.8056277797" lon="9.1051583344">
		<tag k="bridge" v="yes" />
		<tag k="layer" v="1" />
		<tag k="name" v="Fossen" />
		<tag k="ssr:stedsnr" v="288026" />
	</node>
	<node id="-519036" lat="58.9529083293" lon="8.97223054832">
		<tag k="highway" v="path" />
		<tag k="name" v="Storkleiv" />
		<tag k="ssr:stedsnr" v="630908" />
	</node>
	<node id="-519929" lat="58.8503250009" lon="9.05369999208">
		<tag k="fixme" v="consider highway=path" />
		<tag k="highway" v="track" />
		<tag k="name" v="Breiveg" />
		<tag k="ssr:stedsnr" v="388988" />
	</node>
	<node id="-519160" lat="58.844213888" lon="9.08317222113">
		<tag k="bridge" v="yes" />
		<tag k="layer" v="1" />
		<tag k="name" v="Skreme" />
		<tag k="ssr:stedsnr" v="956021" />
	</node>
	<node id="-518895" lat="58.8571527745" lon="9.05855832902">
		<tag k="bridge" v="yes" />
		<tag k="layer" v="1" />
		<tag k="name" v="Haugeto" />
		<tag k="ssr:stedsnr" v="531013" />
	</node>
	<node id="-520158" lat="58.8058166655" lon="9.07790278216">
		<tag k="bridge" v="yes" />
		<tag k="layer" v="1" />
		<tag k="name" v="Cindrella" />
		<tag k="ssr:stedsnr" v="652009" />
	</node>
	<node id="-520157" lat="58.8952166697" lon="8.97552777744">
		<tag k="bridge" v="yes" />
		<tag k="layer" v="1" />
		<tag k="name" v="Lille" />
		<tag k="ssr:stedsnr" v="652008" />
	</node>
	<node id="-519003" lat="58.8827527799" lon="9.03232778411">
		<tag k="bridge" v="yes" />
		<tag k="layer" v="1" />
		<tag k="name" v="Prestfoss" />
		<tag k="ssr:stedsnr" v="592019" />
	</node>
	<node id="-519002" lat="58.9005249963" lon="9.02182499396">
		<tag k="bridge" v="yes" />
		<tag k="layer" v="1" />
		<tag k="name" v="Haugås" />
		<tag k="ssr:stedsnr" v="591011" />
	</node>
	<node id="-519001" lat="58.7994249991" lon="9.05507222935">
		<tag k="bridge" v="yes" />
		<tag k="layer" v="1" />
		<tag k="name" v="Haugselva" />
		<tag k="ssr:stedsnr" v="591010" />
	</node>
	<node id="-518488" lat="58.8729638933" lon="9.01251388462">
		<tag k="bridge" v="yes" />
		<tag k="layer" v="1" />
		<tag k="name" v="Egddalen" />
		<tag k="ssr:stedsnr" v="228013" />
	</node>
	<node id="-519510" lat="58.8949194403" lon="8.98514722009">
		<tag k="bridge" v="yes" />
		<tag k="layer" v="1" />
		<tag k="name" v="Vevstad" />
		<tag k="ssr:stedsnr" v="107028" />
	</node>
	<node id="-519509" lat="58.8411444461" lon="9.08333332593">
		<tag k="bridge" v="yes" />
		<tag k="layer" v="1" />
		<tag k="name" v="Teglverket" />
		<tag k="ssr:stedsnr" v="107026" />
	</node>
	<node id="-518482" lat="58.796194445" lon="9.07793333922">
		<tag k="bridge" v="yes" />
		<tag k="layer" v="1" />
		<tag k="name" v="Haugelva" />
		<tag k="ssr:stedsnr" v="167013" />
	</node>
	<node id="-518862" lat="58.8405111105" lon="9.10013333127">
		<tag k="bridge" v="yes" />
		<tag k="layer" v="1" />
		<tag k="name" v="Skiløypa" />
		<tag k="ssr:stedsnr" v="471016" />
	</node>
	<node id="-520269" lat="58.83438611" lon="9.09011667112">
		<tag k="bridge" v="yes" />
		<tag k="layer" v="1" />
		<tag k="name" v="Sunde" />
		<tag k="ssr:stedsnr" v="775989" />
	</node>
	<node id="-520268" lat="58.9193055567" lon="8.94657777796">
		<tag k="bridge" v="yes" />
		<tag k="layer" v="1" />
		<tag k="name" v="Valle" />
		<tag k="ssr:stedsnr" v="774027" />
	</node>
	<node id="-520267" lat="58.9328222259" lon="8.80218889432">
>>>>>>> e1d4bc35ff8a6074a6f2e91616a996b547c36f15
		<tag k="bridge" v="yes" />
		<tag k="layer" v="1" />
		<tag k="name" v="Fosslona" />
		<tag k="ssr:stedsnr" v="774014" />
	</node>
<<<<<<< HEAD
	<node lat="58.838016670903095" lon="9.073899999178007" id="-23475">
		<tag k="bridge" v="yes" />
		<tag k="layer" v="1" />
		<tag k="name" v="Lillemyr" />
		<tag k="ssr:stedsnr" v="591021" />
	</node>
	<node lat="58.88275277988951" lon="9.032327784114125" id="-23476">
		<tag k="bridge" v="yes" />
		<tag k="layer" v="1" />
		<tag k="name" v="Prestfoss" />
		<tag k="ssr:stedsnr" v="592019" />
	</node>
	<node lat="58.89521666966277" lon="8.975527777442144" id="-23536">
		<tag k="bridge" v="yes" />
		<tag k="layer" v="1" />
		<tag k="name" v="Lille" />
		<tag k="ssr:stedsnr" v="652008" />
	</node>
	<node lat="58.80581666553292" lon="9.077902782159365" id="-23537">
		<tag k="bridge" v="yes" />
		<tag k="layer" v="1" />
		<tag k="name" v="Cindrella" />
		<tag k="ssr:stedsnr" v="652009" />
	</node>
	<node lat="58.868583331100105" lon="9.152416659848049" id="-23606">
		<tag k="barrier" v="toll_booth" />
		<tag k="name" v="Østerholtheia" />
		<tag k="ssr:stedsnr" v="726010" />
	</node>
	<node lat="58.932822225922344" lon="8.802188894322342" id="-23683">
		<tag k="bridge" v="yes" />
		<tag k="layer" v="1" />
		<tag k="name" v="Fosslona" />
		<tag k="ssr:stedsnr" v="774014" />
	</node>
	<node lat="58.86772222430371" lon="9.15074445086366" id="-23830">
		<tag k="bridge" v="yes" />
		<tag k="layer" v="1" />
		<tag k="name" v="Kalvvann" />
		<tag k="ssr:stedsnr" v="895012" />
	</node>
	<node lat="58.93772499889502" lon="8.827977773789984" id="-23874">
		<tag k="bridge" v="yes" />
		<tag k="layer" v="1" />
		<tag k="name" v="Heiland" />
		<tag k="ssr:stedsnr" v="956010" />
	</node>
	<node lat="58.84421388800428" lon="9.083172221130567" id="-23875">
		<tag k="bridge" v="yes" />
		<tag k="layer" v="1" />
		<tag k="name" v="Skreme" />
		<tag k="ssr:stedsnr" v="956021" />
	</node>
	<node lat="58.79471388469738" lon="9.053850002213519" id="-23876">
		<tag k="bridge" v="yes" />
		<tag k="layer" v="1" />
		<tag k="name" v="Setervegen" />
		<tag k="ssr:stedsnr" v="956030" />
	</node>
	<node lat="58.7884870069144" lon="9.021248226373975" id="-23887">
		<tag k="name" v="Skorstøl holdeplass" />
		<tag k="railway" v="halt" />
		<tag k="ssr:stedsnr" v="989645" />
		<tag k="train" v="yes" />
	</node>
	<node lat="58.830441669744886" lon="9.09995278566906" id="-24100">
		<tag k="man_made" v="quay" />
		<tag k="name" v="Fergestaden" />
		<tag k="place" v="locality" />
		<tag k="ssr:stedsnr" v="145754" />
	</node>
	<node lat="58.888488891064306" lon="8.948138896474056" id="-24220">
		<tag k="bridge" v="yes" />
		<tag k="layer" v="1" />
		<tag k="name" v="Nautbrua" />
		<tag k="ssr:stedsnr" v="206973" />
	</node>
	<node lat="58.87296389334972" lon="9.01251388462493" id="-24228">
		<tag k="bridge" v="yes" />
		<tag k="layer" v="1" />
		<tag k="name" v="Egddalen" />
		<tag k="ssr:stedsnr" v="228013" />
	</node>
	<node lat="58.858083332375905" lon="9.133608337971397" id="-24229">
		<tag k="bridge" v="yes" />
		<tag k="layer" v="1" />
		<tag k="name" v="Stemåsen" />
		<tag k="ssr:stedsnr" v="228019" />
	</node>
	<node lat="58.80797777663033" lon="9.063458338260592" id="-24230">
		<tag k="bridge" v="yes" />
		<tag k="layer" v="1" />
		<tag k="name" v="Småtjenn" />
		<tag k="ssr:stedsnr" v="228021" />
	</node>
	<node lat="58.76983889298113" lon="9.045166659176884" id="-24313">
		<tag k="bridge" v="yes" />
		<tag k="layer" v="1" />
		<tag k="name" v="Pinesund" />
		<tag k="ssr:stedsnr" v="349028" />
	</node>
	<node lat="58.85032500090342" lon="9.053699992082114" id="-24380">
		<tag k="fixme" v="consider highway=path" />
		<tag k="highway" v="track" />
		<tag k="name" v="Breiveg" />
		<tag k="ssr:stedsnr" v="388988" />
	</node>
	<node lat="58.93414167026142" lon="8.957355548430645" id="-24480">
		<tag k="bridge" v="yes" />
		<tag k="layer" v="1" />
		<tag k="name" v="Meånsbrua" />
		<tag k="ssr:stedsnr" v="569823" />
	</node>
	<node lat="58.952908329286906" lon="8.97223054831624" id="-24552">
		<tag k="highway" v="path" />
		<tag k="name" v="Storkleiv" />
		<tag k="ssr:stedsnr" v="630908" />
	</node>
	<node lat="58.88900833475132" lon="9.048641662829244" id="-24625">
		<tag k="bridge" v="yes" />
		<tag k="layer" v="1" />
		<tag k="name" v="Ausland" />
		<tag k="ssr:stedsnr" v="713003" />
	</node>
	<node lat="58.843769442252245" lon="9.105450006671742" id="-24626">
		<tag k="bridge" v="yes" />
		<tag k="layer" v="1" />
		<tag k="name" v="Sundsmyra" />
		<tag k="ssr:stedsnr" v="714021" />
	</node>
	<node lat="58.77380000205958" lon="9.04205832702664" id="-24703">
		<tag k="bridge" v="yes" />
		<tag k="layer" v="1" />
		<tag k="name" v="Bjønnbokskjerr" />
		<tag k="ssr:stedsnr" v="774002" />
	</node>
	<node lat="58.91930555674241" lon="8.946577777955332" id="-24704">
=======
	<node id="-520266" lat="58.7738000021" lon="9.04205832703">
		<tag k="bridge" v="yes" />
		<tag k="layer" v="1" />
		<tag k="name" v="Bjønnbokskjerr" />
		<tag k="ssr:stedsnr" v="774002" />
	</node>
	<node id="-520005" lat="58.9341416703" lon="8.95735554843">
		<tag k="bridge" v="yes" />
		<tag k="layer" v="1" />
		<tag k="name" v="Meånsbrua" />
		<tag k="ssr:stedsnr" v="569823" />
	</node>
	<node id="-518469" lat="58.8304416697" lon="9.09995278567">
		<tag k="man_made" v="quay" />
		<tag k="name" v="Fergestaden" />
		<tag k="place" v="locality" />
		<tag k="ssr:stedsnr" v="145754" />
	</node>
	<node id="-519872" lat="58.8701250018" lon="9.02307222742">
		<tag k="name" v="Gjerstad" />
		<tag k="old_name" v="Gjerstad stasjon" />
		<tag k="railway" v="station" />
		<tag k="ssr:stedsnr" v="365192" />
		<tag k="train" v="yes" />
	</node>
	<node id="-518589" lat="58.9587305586" lon="8.91693332488">
		<tag k="alt_name" v="Bjørnva" />
		<tag k="ford" v="yes" />
		<tag k="name" v="Bjørnvad" />
		<tag k="place" v="locality" />
		<tag k="ssr:stedsnr" v="304902" />
	</node>
	<node id="-518457" lat="58.878322219" lon="9.01911666647">
		<tag k="junction" v="yes" />
		<tag k="name" v="Korsen" />
		<tag k="place" v="locality" />
		<tag k="ssr:stedsnr" v="145815" />
	</node>
	<node id="-518581" lat="58.8520138859" lon="9.12077500813">
		<tag k="bridge" v="yes" />
		<tag k="layer" v="1" />
		<tag k="name" v="Oppigardsfoss" />
		<tag k="ssr:stedsnr" v="470023" />
	</node>
	<node id="-519732" lat="58.8884888911" lon="8.94813889647">
		<tag k="bridge" v="yes" />
		<tag k="layer" v="1" />
		<tag k="name" v="Nautbrua" />
		<tag k="ssr:stedsnr" v="206973" />
	</node>
	<node id="-519219" lat="58.8442583377" lon="9.10473889592">
		<tag k="bridge" v="yes" />
		<tag k="layer" v="1" />
		<tag k="name" v="Sundsmyr" />
		<tag k="ssr:stedsnr" v="835020" />
	</node>
	<node id="-519218" lat="58.8381944484" lon="9.08736388325">
		<tag k="bridge" v="yes" />
		<tag k="layer" v="1" />
		<tag k="name" v="Sunde" />
		<tag k="ssr:stedsnr" v="835016" />
	</node>
	<node id="-519089" lat="58.8437694423" lon="9.10545000667">
		<tag k="bridge" v="yes" />
		<tag k="layer" v="1" />
		<tag k="name" v="Sundsmyra" />
		<tag k="ssr:stedsnr" v="714021" />
	</node>
	<node id="-519088" lat="58.8677222243" lon="9.15074445086">
		<tag k="bridge" v="yes" />
		<tag k="layer" v="1" />
		<tag k="name" v="Kalvvann" />
		<tag k="ssr:stedsnr" v="895012" />
	</node>
	<node id="-519087" lat="58.8890083348" lon="9.04864166283">
		<tag k="bridge" v="yes" />
		<tag k="layer" v="1" />
		<tag k="name" v="Ausland" />
		<tag k="ssr:stedsnr" v="713003" />
	</node>
	<node id="-518572" lat="58.8430777776" lon="9.11155833488">
		<tag k="bridge" v="yes" />
		<tag k="layer" v="1" />
		<tag k="name" v="Kvernvegen" />
		<tag k="ssr:stedsnr" v="470015" />
	</node>
	<node id="-519090" lat="58.8685833311" lon="9.15241665985">
		<tag k="barrier" v="toll_booth" />
		<tag k="name" v="Østerholtheia" />
		<tag k="ssr:stedsnr" v="726010" />
	</node>
	<node id="-520489" lat="58.8628106839" lon="9.05047924593">
		<tag k="bridge" v="yes" />
		<tag k="layer" v="1" />
		<tag k="name" v="Nesbrua" />
		<tag k="ssr:stedsnr" v="1073275" />
	</node>
	<node id="-520488" lat="58.7884870069" lon="9.02124822637">
		<tag k="name" v="Skorstøl holdeplass" />
		<tag k="railway" v="halt" />
		<tag k="ssr:stedsnr" v="989645" />
		<tag k="train" v="yes" />
	</node>
	<node id="-518305" lat="58.8504333294" lon="9.0329027797">
		<tag k="bridge" v="yes" />
		<tag k="layer" v="1" />
		<tag k="name" v="Steinbrua" />
		<tag k="ssr:stedsnr" v="24919" />
	</node>
	<node id="-520478" lat="58.7947138847" lon="9.05385000221">
		<tag k="bridge" v="yes" />
		<tag k="layer" v="1" />
		<tag k="name" v="Setervegen" />
		<tag k="ssr:stedsnr" v="956030" />
	</node>
	<node id="-520477" lat="58.9377249989" lon="8.82797777379">
		<tag k="bridge" v="yes" />
		<tag k="layer" v="1" />
		<tag k="name" v="Heiland" />
		<tag k="ssr:stedsnr" v="956010" />
	</node>
	<node id="-518490" lat="58.8079777766" lon="9.06345833826">
		<tag k="bridge" v="yes" />
		<tag k="layer" v="1" />
		<tag k="name" v="Småtjenn" />
		<tag k="ssr:stedsnr" v="228021" />
	</node>
	<node id="-519835" lat="58.769838893" lon="9.04516665918">
		<tag k="bridge" v="yes" />
		<tag k="layer" v="1" />
		<tag k="name" v="Pinesund" />
		<tag k="ssr:stedsnr" v="349028" />
	</node>
	<node id="-518489" lat="58.8580833324" lon="9.13360833797">
		<tag k="bridge" v="yes" />
		<tag k="layer" v="1" />
		<tag k="name" v="Stemåsen" />
		<tag k="ssr:stedsnr" v="228019" />
	</node>
	<node id="-519955" lat="58.8516888919" lon="9.12171666407">
		<tag k="bridge" v="yes" />
		<tag k="layer" v="1" />
		<tag k="name" v="Sandnes" />
		<tag k="ssr:stedsnr" v="532023" />
	</node>
	<node id="-519954" lat="58.8883972183" lon="9.02938611228">
>>>>>>> e1d4bc35ff8a6074a6f2e91616a996b547c36f15
		<tag k="bridge" v="yes" />
		<tag k="layer" v="1" />
		<tag k="name" v="Sandåker" />
		<tag k="ssr:stedsnr" v="532022" />
	</node>
<<<<<<< HEAD
	<node lat="58.83438611003497" lon="9.090116671115835" id="-24705">
		<tag k="bridge" v="yes" />
		<tag k="layer" v="1" />
		<tag k="name" v="Sunde" />
		<tag k="ssr:stedsnr" v="775989" />
	</node>
	<node lat="58.8381944484206" lon="9.087363883248972" id="-24798">
		<tag k="bridge" v="yes" />
		<tag k="layer" v="1" />
		<tag k="name" v="Sunde" />
		<tag k="ssr:stedsnr" v="835016" />
	</node>
	<node lat="58.844258337679776" lon="9.104738895920407" id="-24799">
		<tag k="bridge" v="yes" />
		<tag k="layer" v="1" />
		<tag k="name" v="Sundsmyr" />
		<tag k="ssr:stedsnr" v="835020" />
	</node>
	<node lat="58.86281068386944" lon="9.050479245932936" id="-24924">
		<tag k="bridge" v="yes" />
		<tag k="layer" v="1" />
		<tag k="name" v="Nesbrua" />
		<tag k="ssr:stedsnr" v="1073275" />
=======
	<node id="-520065" lat="58.9009138885" lon="9.00557499372">
		<tag k="bridge" v="yes" />
		<tag k="layer" v="1" />
		<tag k="name" v="Flaten" />
		<tag k="ssr:stedsnr" v="591013" />
	</node>
	<node id="-518486" lat="58.8302666633" lon="9.05736110722">
		<tag k="bridge" v="yes" />
		<tag k="layer" v="1" />
		<tag k="name" v="Gryting o/jernbane" />
		<tag k="ssr:stedsnr" v="288030" />
	</node>
	<node id="-520066" lat="58.8380166709" lon="9.07389999918">
		<tag k="bridge" v="yes" />
		<tag k="layer" v="1" />
		<tag k="name" v="Lillemyr" />
		<tag k="ssr:stedsnr" v="591021" />
	</node>
	<node id="-519937" lat="58.7804499993" lon="9.03845556334">
		<tag k="bridge" v="yes" />
		<tag k="layer" v="1" />
		<tag k="name" v="Smalmyr" />
		<tag k="ssr:stedsnr" v="410014" />
>>>>>>> e1d4bc35ff8a6074a6f2e91616a996b547c36f15
	</node>
</osm>
