<?xml version="1.0" encoding="UTF-8"?>
<osm version="0.6" generator="osmapis">
	<node id="85999008" lat="62.3928574" lon="6.5807235" version="7" timestamp="2022-08-13T16:36:33Z" changeset="124860199" uid="3497659" user="NKA">
		<tag k="name" v="Sykkylven" />
		<tag k="place" v="village" />
		<tag k="population" v="4332" />
		<tag k="population:date" v="2021-01-01" />
		<tag k="ref:ssb_tettsted" v="6133" />
		<tag k="source:population" v="SSB - befolkning i tettstedet" />
		<tag k="ssr:stedsnr" v="374114" />
	</node>
	<node id="85999009" lat="62.3847263" lon="6.5554555" version="7" timestamp="2022-08-13T16:36:33Z" changeset="124860199" uid="3497659" user="NKA">
		<tag k="name" v="Ikornnes" />
		<tag k="place" v="village" />
		<tag k="population" v="836" />
		<tag k="population:date" v="2021-01-01" />
		<tag k="ref:ssb_tettsted" v="6131" />
		<tag k="source:population" v="SSB - befolkning i tettstedet" />
		<tag k="ssr:stedsnr" v="678105" />
	</node>
	<node id="3718987212" lat="62.2890932" lon="6.676551" version="3" timestamp="2022-08-13T16:36:33Z" changeset="124860199" uid="3497659" user="NKA">
		<tag k="name" v="Brunstad" />
		<tag k="place" v="hamlet" />
		<tag k="ssr:stedsnr" v="254230" />
	</node>
	<node id="3718987213" lat="62.2709756" lon="6.6885929" version="2" timestamp="2022-08-13T16:36:33Z" changeset="124860199" uid="3497659" user="NKA">
		<tag k="historic" v="shieling" />
		<tag k="name" v="Brunstadsætra" />
		<tag k="place" v="isolated_dwelling" />
		<tag k="ssr:stedsnr" v="921281" />
	</node>
	<node id="3719024040" lat="62.3592568" lon="6.5622564" version="2" timestamp="2022-08-13T16:36:33Z" changeset="124860199" uid="3497659" user="NKA">
		<tag k="name" v="Erstad" />
		<tag k="place" v="hamlet" />
		<tag k="ssr:stedsnr" v="131384" />
	</node>
	<node id="5698670532" lat="62.3195283" lon="6.7509507" version="2" timestamp="2022-01-26T07:34:57Z" changeset="116611763" uid="3497659" user="NKA">
		<tag k="junction" v="yes" />
		<tag k="name" v="Fjellsætervegskiftet" />
		<tag k="ssr:stedsnr" v="339294" />
	</node>
	<node id="5867332598" lat="62.3750491" lon="6.4271219" version="5" timestamp="2022-08-13T16:36:33Z" changeset="124860199" uid="3497659" user="NKA">
		<tag k="name" v="Hundeidvik" />
		<tag k="place" v="village" />
		<tag k="population" v="286" />
		<tag k="population:date" v="2021-01-01" />
		<tag k="ref:ssb_tettsted" v="6134" />
		<tag k="source:population" v="SSB - befolkning i tettstedet" />
		<tag k="ssr:stedsnr" v="571796" />
	</node>
	<node id="6216715418" lat="62.3332047" lon="6.5936306" version="5" timestamp="2022-08-13T16:36:33Z" changeset="124860199" uid="3497659" user="NKA">
		<tag k="name" v="Straumgjerde" />
		<tag k="place" v="village" />
		<tag k="population" v="439" />
		<tag k="population:date" v="2021-01-01" />
		<tag k="ref:ssb_tettsted" v="6132" />
		<tag k="source:population" v="SSB - befolkning i tettstedet" />
		<tag k="ssr:stedsnr" v="861404" />
	</node>
	<node id="9951231704" lat="62.3540083" lon="6.5492613" version="1" timestamp="2022-08-13T16:36:33Z" changeset="124860199" uid="3497659" user="NKA">
		<tag k="historic" v="shieling" />
		<tag k="name" v="Erstadsætra" />
		<tag k="place" v="isolated_dwelling" />
		<tag k="ssr:stedsnr" v="435461" />
	</node>
	<node id="9951231705" lat="62.3873668" lon="6.5436744" version="1" timestamp="2022-08-13T16:36:33Z" changeset="124860199" uid="3497659" user="NKA">
		<tag k="name" v="Kjerane" />
		<tag k="place" v="farm" />
		<tag k="ssr:stedsnr" v="96252" />
	</node>
	<node id="9951231706" lat="62.3829778" lon="6.410239" version="1" timestamp="2022-08-13T16:36:33Z" changeset="124860199" uid="3497659" user="NKA">
		<tag k="name" v="Lilleneset" />
		<tag k="place" v="farm" />
		<tag k="ssr:stedsnr" v="96249" />
	</node>
	<node id="9951231707" lat="62.3827602" lon="6.4136222" version="1" timestamp="2022-08-13T16:36:33Z" changeset="124860199" uid="3497659" user="NKA">
		<tag k="name" v="Kurset" />
		<tag k="place" v="hamlet" />
		<tag k="ssr:stedsnr" v="436100" />
	</node>
	<node id="9951231708" lat="62.3662033" lon="6.4190899" version="1" timestamp="2022-08-13T16:36:33Z" changeset="124860199" uid="3497659" user="NKA">
		<tag k="alt_name" v="Hundeide" />
		<tag k="name" v="Hundeid" />
		<tag k="place" v="hamlet" />
		<tag k="ssr:stedsnr" v="314439" />
	</node>
	<node id="9951231709" lat="62.3978215" lon="6.4805103" version="1" timestamp="2022-08-13T16:36:33Z" changeset="124860199" uid="3497659" user="NKA">
		<tag k="name" v="Våtmyra" />
		<tag k="place" v="hamlet" />
		<tag k="ssr:stedsnr" v="71136" />
	</node>
	<node id="9951231710" lat="62.3842975" lon="6.4111788" version="1" timestamp="2022-08-13T16:36:33Z" changeset="124860199" uid="3497659" user="NKA">
		<tag k="name" v="Nedre Kurset" />
		<tag k="place" v="farm" />
		<tag k="ssr:stedsnr" v="885262" />
	</node>
	<node id="9951231711" lat="62.3422639" lon="6.485153" version="1" timestamp="2022-08-13T16:36:33Z" changeset="124860199" uid="3497659" user="NKA">
		<tag k="name" v="Hundeide-Gjævenessetra" />
		<tag k="place" v="isolated_dwelling" />
		<tag k="ssr:stedsnr" v="157319" />
	</node>
	<node id="9951231712" lat="62.3588861" lon="6.4508196" version="1" timestamp="2022-08-13T16:36:33Z" changeset="124860199" uid="3497659" user="NKA">
		<tag k="loc_name" v="Einehaugen" />
		<tag k="name" v="Stølane" />
		<tag k="place" v="locality" />
		<tag k="ssr:stedsnr" v="941507" />
	</node>
	<node id="9951231713" lat="62.3553528" lon="6.4400169" version="1" timestamp="2022-08-13T16:36:33Z" changeset="124860199" uid="3497659" user="NKA">
		<tag k="historic" v="shieling" />
		<tag k="loc_name" v="Ålsætra" />
		<tag k="name" v="Gamleålen" />
		<tag k="place" v="isolated_dwelling" />
		<tag k="ssr:stedsnr" v="880520" />
	</node>
	<node id="9951231714" lat="62.3749071" lon="6.4323294" version="1" timestamp="2022-08-13T16:36:33Z" changeset="124860199" uid="3497659" user="NKA">
		<tag k="name" v="Lerskogen" />
		<tag k="place" v="farm" />
		<tag k="ssr:stedsnr" v="642205" />
	</node>
	<node id="9951231715" lat="62.3713655" lon="6.5504681" version="1" timestamp="2022-08-13T16:36:33Z" changeset="124860199" uid="3497659" user="NKA">
		<tag k="name" v="Stave" />
		<tag k="place" v="hamlet" />
		<tag k="ssr:stedsnr" v="861364" />
	</node>
	<node id="9951231716" lat="62.3892527" lon="6.4259335" version="1" timestamp="2022-08-13T16:36:33Z" changeset="124860199" uid="3497659" user="NKA">
		<tag k="name" v="Kursetsetra" />
		<tag k="place" v="locality" />
		<tag k="ssr:stedsnr" v="885279" />
	</node>
	<node id="9951248317" lat="62.396514" lon="6.4635397" version="1" timestamp="2022-08-13T16:36:33Z" changeset="124860199" uid="3497659" user="NKA">
		<tag k="name" v="Nakken" />
		<tag k="place" v="farm" />
		<tag k="ssr:stedsnr" v="642204" />
	</node>
	<node id="9951248318" lat="62.3805602" lon="6.4165499" version="1" timestamp="2022-08-13T16:36:33Z" changeset="124860199" uid="3497659" user="NKA">
		<tag k="name" v="Kursetgjerdet" />
		<tag k="place" v="hamlet" />
		<tag k="ssr:stedsnr" v="861104" />
	</node>
	<node id="9951248319" lat="62.4097308" lon="6.5636334" version="1" timestamp="2022-08-13T16:36:33Z" changeset="124860199" uid="3497659" user="NKA">
		<tag k="name" v="Lassegjerdet" />
		<tag k="place" v="farm" />
		<tag k="ssr:stedsnr" v="860136" />
	</node>
	<node id="9951248320" lat="62.4087893" lon="6.5534816" version="1" timestamp="2022-08-13T16:36:33Z" changeset="124860199" uid="3497659" user="NKA">
		<tag k="name" v="Aursnes" />
		<tag k="place" v="quarter" />
		<tag k="ssr:stedsnr" v="278232" />
	</node>
	<node id="9951248321" lat="62.3916283" lon="6.5396788" version="1" timestamp="2022-08-13T16:36:33Z" changeset="124860199" uid="3497659" user="NKA">
		<tag k="name" v="Ytre Jarnes" />
		<tag k="place" v="farm" />
		<tag k="ssr:stedsnr" v="218219" />
	</node>
	<node id="9951248322" lat="62.3619111" lon="6.5586946" version="1" timestamp="2022-08-13T16:36:33Z" changeset="124860199" uid="3497659" user="NKA">
		<tag k="name" v="Gjerdsvollen" />
		<tag k="place" v="farm" />
		<tag k="ssr:stedsnr" v="642196" />
	</node>
	<node id="9951248323" lat="62.4388381" lon="6.6533629" version="1" timestamp="2022-08-13T16:36:33Z" changeset="124860199" uid="3497659" user="NKA">
		<tag k="name" v="Oppsal" />
		<tag k="place" v="farm" />
		<tag k="ssr:stedsnr" v="192092" />
	</node>
	<node id="9951248324" lat="62.3428794" lon="6.4876614" version="1" timestamp="2022-08-13T16:36:33Z" changeset="124860199" uid="3497659" user="NKA">
		<tag k="historic" v="shieling" />
		<tag k="name" v="Megardsstøylen" />
		<tag k="place" v="isolated_dwelling" />
		<tag k="ssr:stedsnr" v="739429" />
	</node>
	<node id="9951248325" lat="62.3692945" lon="6.4233891" version="1" timestamp="2022-08-13T16:36:33Z" changeset="124860199" uid="3497659" user="NKA">
		<tag k="name" v="Pålplassen" />
		<tag k="place" v="locality" />
		<tag k="ssr:stedsnr" v="157231" />
	</node>
	<node id="9951248326" lat="62.3787722" lon="6.5849113" version="1" timestamp="2022-08-13T16:36:33Z" changeset="124860199" uid="3497659" user="NKA">
		<tag k="name" v="Heimstelegene" />
		<tag k="place" v="locality" />
		<tag k="ssr:stedsnr" v="521019" />
	</node>
	<node id="9951248327" lat="62.3910846" lon="6.5449981" version="1" timestamp="2022-08-13T16:36:33Z" changeset="124860199" uid="3497659" user="NKA">
		<tag k="name" v="Jarnes" />
		<tag k="place" v="hamlet" />
		<tag k="ssr:stedsnr" v="253101" />
	</node>
	<node id="9951248328" lat="62.3684936" lon="6.5724374" version="1" timestamp="2022-08-13T16:36:33Z" changeset="124860199" uid="3497659" user="NKA">
		<tag k="name" v="Tjønes" />
		<tag k="place" v="hamlet" />
		<tag k="ssr:stedsnr" v="11399" />
	</node>
	<node id="9951248329" lat="62.352625" lon="6.4618418" version="1" timestamp="2022-08-13T16:36:33Z" changeset="124860199" uid="3497659" user="NKA">
		<tag k="name" v="Heimsetra" />
		<tag k="place" v="locality" />
		<tag k="ssr:stedsnr" v="399379" />
	</node>
	<node id="9951248330" lat="62.3803915" lon="6.5540538" version="1" timestamp="2022-08-13T16:36:33Z" changeset="124860199" uid="3497659" user="NKA">
		<tag k="name" v="Hella" />
		<tag k="place" v="hamlet" />
		<tag k="ssr:stedsnr" v="861354" />
	</node>
	<node id="9951248331" lat="62.3285503" lon="6.7762217" version="1" timestamp="2022-08-13T16:36:33Z" changeset="124860199" uid="3497659" user="NKA">
		<tag k="alt_name" v="Fetstølen" />
		<tag k="historic" v="shieling" />
		<tag k="name" v="Fitjastølen" />
		<tag k="place" v="hamlet" />
		<tag k="ssr:stedsnr" v="557506" />
	</node>
	<node id="9951248332" lat="62.3865581" lon="6.5397431" version="1" timestamp="2022-08-13T16:36:33Z" changeset="124860199" uid="3497659" user="NKA">
		<tag k="name" v="Åsen" />
		<tag k="place" v="farm" />
		<tag k="ssr:stedsnr" v="35267" />
	</node>
	<node id="9951248333" lat="62.3623567" lon="6.5567959" version="1" timestamp="2022-08-13T16:36:33Z" changeset="124860199" uid="3497659" user="NKA">
		<tag k="name" v="Reiten" />
		<tag k="place" v="farm" />
		<tag k="ssr:stedsnr" v="35248" />
	</node>
	<node id="9951248334" lat="62.3331334" lon="6.7598112" version="1" timestamp="2022-08-13T16:36:33Z" changeset="124860199" uid="3497659" user="NKA">
		<tag k="historic" v="shieling" />
		<tag k="name" v="Ladestølen" />
		<tag k="place" v="isolated_dwelling" />
		<tag k="ssr:stedsnr" v="739547" />
	</node>
	<node id="9951248335" lat="62.3418164" lon="6.5921588" version="1" timestamp="2022-08-13T16:36:33Z" changeset="124860199" uid="3497659" user="NKA">
		<tag k="alt_name" v="Tannstad, indre;Indre Tandstad" />
		<tag k="name" v="Indre Tannstad" />
		<tag k="place" v="farm" />
		<tag k="ssr:stedsnr" v="496475" />
	</node>
	<node id="9951248336" lat="62.4166908" lon="6.7907696" version="1" timestamp="2022-08-13T16:36:33Z" changeset="124860199" uid="3497659" user="NKA">
		<tag k="name" v="Svinnset" />
		<tag k="place" v="hamlet" />
		<tag k="ssr:stedsnr" v="860699" />
	</node>
	<node id="9951248337" lat="62.3290566" lon="6.5891139" version="1" timestamp="2022-08-13T16:36:33Z" changeset="124860199" uid="3497659" user="NKA">
		<tag k="name" v="Nymarka" />
		<tag k="place" v="farm" />
		<tag k="ssr:stedsnr" v="157180" />
	</node>
	<node id="9951248338" lat="62.3366332" lon="6.5805326" version="1" timestamp="2022-08-13T16:36:33Z" changeset="124860199" uid="3497659" user="NKA">
		<tag k="name" v="Straumsheim" />
		<tag k="place" v="hamlet" />
		<tag k="ssr:stedsnr" v="132428" />
	</node>
	<node id="9951248339" lat="62.3092389" lon="6.7515945" version="1" timestamp="2022-08-13T16:36:33Z" changeset="124860199" uid="3497659" user="NKA">
		<tag k="historic" v="shieling" />
		<tag k="name" v="Myrdalsætra" />
		<tag k="place" v="isolated_dwelling" />
		<tag k="ssr:stedsnr" v="861582" />
	</node>
	<node id="9951248340" lat="62.3872642" lon="6.6820097" version="1" timestamp="2022-08-13T16:36:33Z" changeset="124860199" uid="3497659" user="NKA">
		<tag k="alt_name" v="Aurdalsetra" />
		<tag k="historic" v="shieling" />
		<tag k="name" v="Aurdalssætra" />
		<tag k="place" v="isolated_dwelling" />
		<tag k="ssr:stedsnr" v="800371" />
	</node>
	<node id="9951248341" lat="62.3640666" lon="6.6187252" version="1" timestamp="2022-08-13T16:36:33Z" changeset="124860199" uid="3497659" user="NKA">
		<tag k="name" v="Gamlesetra" />
		<tag k="place" v="locality" />
		<tag k="ssr:stedsnr" v="581294" />
	</node>
	<node id="9951248342" lat="62.2934306" lon="6.6807018" version="1" timestamp="2022-08-13T16:36:33Z" changeset="124860199" uid="3497659" user="NKA">
		<tag k="name" v="Nakkeberget" />
		<tag k="place" v="farm" />
		<tag k="ssr:stedsnr" v="387768" />
	</node>
	<node id="9951248343" lat="62.2936361" lon="6.6380419" version="1" timestamp="2022-08-13T16:36:33Z" changeset="124860199" uid="3497659" user="NKA">
		<tag k="alt_name" v="Odde-Brauta" />
		<tag k="name" v="Brauta" />
		<tag k="place" v="farm" />
		<tag k="ssr:stedsnr" v="946205" />
	</node>
	<node id="9951248344" lat="62.4049556" lon="6.5710272" version="1" timestamp="2022-08-13T16:36:33Z" changeset="124860199" uid="3497659" user="NKA">
		<tag k="name" v="Fauske" />
		<tag k="place" v="quarter" />
		<tag k="ssr:stedsnr" v="374138" />
	</node>
	<node id="9951248345" lat="62.3955472" lon="6.7734945" version="1" timestamp="2022-08-13T16:36:33Z" changeset="124860199" uid="3497659" user="NKA">
		<tag k="historic" v="shieling" />
		<tag k="name" v="Løsetsætra" />
		<tag k="place" v="isolated_dwelling" />
		<tag k="ssr:stedsnr" v="496743" />
	</node>
	<node id="9951248346" lat="62.4221921" lon="6.7833618" version="1" timestamp="2022-08-13T16:36:33Z" changeset="124860199" uid="3497659" user="NKA">
		<tag k="name" v="Dalheim" />
		<tag k="place" v="farm" />
		<tag k="ssr:stedsnr" v="399249" />
	</node>
	<node id="9951248347" lat="62.4030463" lon="6.6406109" version="1" timestamp="2022-08-13T16:36:33Z" changeset="124860199" uid="3497659" user="NKA">
		<tag k="name" v="Lyshol" />
		<tag k="place" v="hamlet" />
		<tag k="ssr:stedsnr" v="132082" />
	</node>
	<node id="9951248348" lat="62.408379" lon="6.7728274" version="1" timestamp="2022-08-13T16:36:33Z" changeset="124860199" uid="3497659" user="NKA">
		<tag k="name" v="Løkedalen" />
		<tag k="place" v="farm" />
		<tag k="ssr:stedsnr" v="132644" />
	</node>
	<node id="9951248349" lat="62.3856389" lon="6.6567668" version="1" timestamp="2022-08-13T16:36:33Z" changeset="124860199" uid="3497659" user="NKA">
		<tag k="name" v="Gamlesætra" />
		<tag k="place" v="locality" />
		<tag k="ssr:stedsnr" v="217165" />
	</node>
	<node id="9951248350" lat="62.3834395" lon="6.6650029" version="1" timestamp="2022-08-13T16:36:33Z" changeset="124860199" uid="3497659" user="NKA">
		<tag k="historic" v="shieling" />
		<tag k="name" v="Grepstadstølen" />
		<tag k="place" v="hamlet" />
		<tag k="ssr:stedsnr" v="132362" />
	</node>
	<node id="9951248351" lat="62.4302417" lon="6.6340418" version="1" timestamp="2022-08-13T16:36:33Z" changeset="124860199" uid="3497659" user="NKA">
		<tag k="name" v="Gamlesetra" />
		<tag k="place" v="locality" />
		<tag k="ssr:stedsnr" v="96328" />
	</node>
	<node id="9951248352" lat="62.3582305" lon="6.6475945" version="1" timestamp="2022-08-13T16:36:33Z" changeset="124860199" uid="3497659" user="NKA">
		<tag k="alt_name" v="Gimsdalen" />
		<tag k="name" v="Gimsdalssætra" />
		<tag k="place" v="isolated_dwelling" />
		<tag k="ssr:stedsnr" v="131382" />
	</node>
	<node id="9951248353" lat="62.3745333" lon="6.5879669" version="1" timestamp="2022-08-13T16:36:33Z" changeset="124860199" uid="3497659" user="NKA">
		<tag k="name" v="Blindemfjøsane" />
		<tag k="place" v="locality" />
		<tag k="ssr:stedsnr" v="35390" />
	</node>
	<node id="9951248354" lat="62.4093083" lon="6.5701473" version="1" timestamp="2022-08-13T16:36:33Z" changeset="124860199" uid="3497659" user="NKA">
		<tag k="name" v="Stølane" />
		<tag k="place" v="farm" />
		<tag k="ssr:stedsnr" v="35250" />
	</node>
	<node id="9951248355" lat="62.3748306" lon="6.6000501" version="1" timestamp="2022-08-13T16:36:33Z" changeset="124860199" uid="3497659" user="NKA">
		<tag k="historic" v="shieling" />
		<tag k="name" v="Vikesætra" />
		<tag k="place" v="isolated_dwelling" />
		<tag k="ssr:stedsnr" v="72356" />
	</node>
	<node id="9951248356" lat="62.3425505" lon="6.5758067" version="1" timestamp="2022-08-13T16:36:33Z" changeset="124860199" uid="3497659" user="NKA">
		<tag k="alt_name" v="Riksheimgjerdet" />
		<tag k="name" v="Riksemgjerdet" />
		<tag k="place" v="hamlet" />
		<tag k="ssr:stedsnr" v="72409" />
	</node>
	<node id="9951248357" lat="62.4118778" lon="6.6309001" version="1" timestamp="2022-08-13T16:36:33Z" changeset="124860199" uid="3497659" user="NKA">
		<tag k="name" v="Lysholsætra" />
		<tag k="place" v="locality" />
		<tag k="ssr:stedsnr" v="800105" />
	</node>
	<node id="9951248358" lat="62.397375" lon="6.8003167" version="1" timestamp="2022-08-13T16:36:33Z" changeset="124860199" uid="3497659" user="NKA">
		<tag k="historic" v="shieling" />
		<tag k="name" v="Årsetsætra" />
		<tag k="place" v="isolated_dwelling" />
		<tag k="ssr:stedsnr" v="11743" />
	</node>
	<node id="9951248359" lat="62.3817135" lon="6.5796774" version="1" timestamp="2022-08-13T16:36:33Z" changeset="124860199" uid="3497659" user="NKA">
		<tag k="name" v="Vik" />
		<tag k="place" v="hamlet" />
		<tag k="ssr:stedsnr" v="11389" />
	</node>
	<node id="9951248360" lat="62.3544567" lon="6.8037343" version="1" timestamp="2022-08-13T16:36:33Z" changeset="124860199" uid="3497659" user="NKA">
		<tag k="name" v="Nysætra" />
		<tag k="place" v="hamlet" />
		<tag k="ssr:stedsnr" v="193569" />
	</node>
	<node id="9951248361" lat="62.3868763" lon="6.5848677" version="1" timestamp="2022-08-13T16:36:33Z" changeset="124860199" uid="3497659" user="NKA">
		<tag k="name" v="Nakkegjerdet" />
		<tag k="place" v="farm" />
		<tag k="ssr:stedsnr" v="861353" />
	</node>
	<node id="9951248362" lat="62.3527138" lon="6.6332029" version="1" timestamp="2022-08-13T16:36:33Z" changeset="124860199" uid="3497659" user="NKA">
		<tag k="historic" v="shieling" />
		<tag k="name" v="Skålholten" />
		<tag k="place" v="isolated_dwelling" />
		<tag k="ssr:stedsnr" v="799411" />
	</node>
	<node id="9951248363" lat="62.3462933" lon="6.588926" version="1" timestamp="2022-08-13T16:36:33Z" changeset="124860199" uid="3497659" user="NKA">
		<tag k="name" v="Tannstad" />
		<tag k="place" v="hamlet" />
		<tag k="ssr:stedsnr" v="1075893" />
	</node>
	<node id="9951248364" lat="62.4215255" lon="6.7113372" version="1" timestamp="2022-08-13T16:36:33Z" changeset="124860199" uid="3497659" user="NKA">
		<tag k="name" v="Løvollen" />
		<tag k="place" v="hamlet" />
		<tag k="ssr:stedsnr" v="860086" />
	</node>
	<node id="9951248365" lat="62.406775" lon="6.5987188" version="1" timestamp="2022-08-13T16:36:33Z" changeset="124860199" uid="3497659" user="NKA">
		<tag k="name" v="Høgreset" />
		<tag k="place" v="farm" />
		<tag k="ssr:stedsnr" v="278229" />
	</node>
	<node id="9951248366" lat="62.4179306" lon="6.726514" version="1" timestamp="2022-08-13T16:36:33Z" changeset="124860199" uid="3497659" user="NKA">
		<tag k="historic" v="shieling" />
		<tag k="name" v="Søviksætra" />
		<tag k="old_name" v="Søuiksætra" />
		<tag k="place" v="isolated_dwelling" />
		<tag k="ssr:stedsnr" v="192686" />
	</node>
	<node id="9951248367" lat="62.3553337" lon="6.5743702" version="1" timestamp="2022-08-13T16:36:33Z" changeset="124860199" uid="3497659" user="NKA">
		<tag k="alt_name" v="Riksheim;Rikseim" />
		<tag k="name" v="Riksem" />
		<tag k="place" v="hamlet" />
		<tag k="ssr:stedsnr" v="860474" />
	</node>
	<node id="9951248368" lat="62.4447797" lon="6.744667" version="1" timestamp="2022-08-13T16:36:33Z" changeset="124860199" uid="3497659" user="NKA">
		<tag k="name" v="Vindsnes" />
		<tag k="place" v="farm" />
		<tag k="ssr:stedsnr" v="800359" />
	</node>
	<node id="9951248369" lat="62.425171" lon="6.7110536" version="1" timestamp="2022-08-13T16:36:33Z" changeset="124860199" uid="3497659" user="NKA">
		<tag k="name" v="Løset" />
		<tag k="place" v="farm" />
		<tag k="ssr:stedsnr" v="799078" />
	</node>
	<node id="9951248370" lat="62.4223537" lon="6.7926508" version="1" timestamp="2022-08-13T16:36:33Z" changeset="124860199" uid="3497659" user="NKA">
		<tag k="name" v="Ramstad" />
		<tag k="place" v="hamlet" />
		<tag k="ssr:stedsnr" v="192704" />
	</node>
	<node id="9951248371" lat="62.3642113" lon="6.4122968" version="1" timestamp="2022-08-13T16:36:33Z" changeset="124860199" uid="3497659" user="NKA">
		<tag k="name" v="Giskeplassen" />
		<tag k="place" v="farm" />
		<tag k="ssr:stedsnr" v="460308" />
	</node>
	<node id="9951248372" lat="62.3713389" lon="6.5141224" version="1" timestamp="2022-08-13T16:36:33Z" changeset="124860199" uid="3497659" user="NKA">
		<tag k="alt_name" v="Kalddalssætra" />
		<tag k="historic" v="shieling" />
		<tag k="name" v="Kalddalsstølen" />
		<tag k="place" v="isolated_dwelling" />
		<tag k="ssr:stedsnr" v="557363" />
	</node>
	<node id="9951248373" lat="62.3804334" lon="6.4317723" version="1" timestamp="2022-08-13T16:36:33Z" changeset="124860199" uid="3497659" user="NKA">
		<tag k="name" v="Grønhaugen" />
		<tag k="place" v="farm" />
		<tag k="ssr:stedsnr" v="375087" />
	</node>
	<node id="9951248374" lat="62.3948102" lon="6.4456386" version="1" timestamp="2022-08-13T16:36:33Z" changeset="124860199" uid="3497659" user="NKA">
		<tag k="name" v="Svartebekk" />
		<tag k="place" v="hamlet" />
		<tag k="ssr:stedsnr" v="800088" />
	</node>
	<node id="9951248375" lat="62.3730638" lon="6.4285172" version="1" timestamp="2022-08-13T16:36:33Z" changeset="124860199" uid="3497659" user="NKA">
		<tag k="name" v="Utgård" />
		<tag k="place" v="hamlet" />
		<tag k="ssr:stedsnr" v="763226" />
	</node>
	<node id="9951248376" lat="62.3309695" lon="6.7631974" version="1" timestamp="2022-08-13T16:36:33Z" changeset="124860199" uid="3497659" user="NKA">
		<tag k="alt_name" v="Drabløsstølen" />
		<tag k="historic" v="shieling" />
		<tag k="name" v="Dravlausstølen" />
		<tag k="place" v="isolated_dwelling" />
		<tag k="ssr:stedsnr" v="557494" />
	</node>
	<node id="9951248377" lat="62.3771501" lon="6.5767714" version="1" timestamp="2022-08-13T16:36:33Z" changeset="124860199" uid="3497659" user="NKA">
		<tag k="alt_name" v="Blindem" />
		<tag k="name" v="Blindheim" />
		<tag k="place" v="quarter" />
		<tag k="ssr:stedsnr" v="253431" />
	</node>
	<node id="9951248378" lat="62.3489621" lon="6.5409864" version="1" timestamp="2022-08-13T16:36:33Z" changeset="124860199" uid="3497659" user="NKA">
		<tag k="name" v="Gamlestølen" />
		<tag k="place" v="isolated_dwelling" />
		<tag k="ssr:stedsnr" v="946310" />
	</node>
	<node id="9951248379" lat="62.3815241" lon="6.4241909" version="1" timestamp="2022-08-13T16:36:33Z" changeset="124860199" uid="3497659" user="NKA">
		<tag k="name" v="Hovden" />
		<tag k="place" v="hamlet" />
		<tag k="ssr:stedsnr" v="193100" />
	</node>
	<node id="9951248380" lat="62.3221746" lon="6.6037848" version="1" timestamp="2022-08-13T16:36:33Z" changeset="124860199" uid="3497659" user="NKA">
		<tag k="name" v="Grøtgarden" />
		<tag k="place" v="isolated_dwelling" />
		<tag k="ssr:stedsnr" v="934747" />
	</node>
	<node id="9951248381" lat="62.4087335" lon="6.6435787" version="1" timestamp="2022-08-13T16:36:33Z" changeset="124860199" uid="3497659" user="NKA">
		<tag k="name" v="Andestad" />
		<tag k="place" v="hamlet" />
		<tag k="ssr:stedsnr" v="921115" />
	</node>
	<node id="9951248382" lat="62.4315972" lon="6.6380001" version="1" timestamp="2022-08-13T16:36:33Z" changeset="124860199" uid="3497659" user="NKA">
		<tag k="name" v="Sandviksetra" />
		<tag k="place" v="locality" />
		<tag k="ssr:stedsnr" v="946192" />
	</node>
	<node id="9951248383" lat="62.3532176" lon="6.5663547" version="1" timestamp="2022-08-13T16:36:33Z" changeset="124860199" uid="3497659" user="NKA">
		<tag k="name" v="Grøngotta" />
		<tag k="place" v="farm" />
		<tag k="ssr:stedsnr" v="217171" />
	</node>
	<node id="9951248384" lat="62.4105643" lon="6.7888853" version="1" timestamp="2022-08-13T16:36:33Z" changeset="124860199" uid="3497659" user="NKA">
		<tag k="name" v="Kråka" />
		<tag k="place" v="farm" />
		<tag k="ssr:stedsnr" v="374623" />
	</node>
	<node id="9951248385" lat="62.335325" lon="6.5206946" version="1" timestamp="2022-08-13T16:36:33Z" changeset="124860199" uid="3497659" user="NKA">
		<tag k="alt_name" v="Framsetra" />
		<tag k="historic" v="shieling" />
		<tag k="name" v="Framsætra" />
		<tag k="place" v="isolated_dwelling" />
		<tag k="ssr:stedsnr" v="921461" />
	</node>
	<node id="9951248386" lat="62.3700389" lon="6.6095418" version="1" timestamp="2022-08-13T16:36:33Z" changeset="124860199" uid="3497659" user="NKA">
		<tag k="alt_name" v="Tynessetra" />
		<tag k="historic" v="shieling" />
		<tag k="name" v="Tjønessætra" />
		<tag k="place" v="isolated_dwelling" />
		<tag k="ssr:stedsnr" v="436371" />
	</node>
	<node id="9951248387" lat="62.3098814" lon="6.7169108" version="1" timestamp="2022-08-13T16:36:33Z" changeset="124860199" uid="3497659" user="NKA">
		<tag k="alt_name" v="La" />
		<tag k="name" v="Lade" />
		<tag k="place" v="hamlet" />
		<tag k="ssr:stedsnr" v="436449" />
	</node>
	<node id="9951248388" lat="62.399011" lon="6.4524327" version="1" timestamp="2022-08-13T16:36:33Z" changeset="124860199" uid="3497659" user="NKA">
		<tag k="alt_name" v="Norvik" />
		<tag k="name" v="Norvika" />
		<tag k="place" v="farm" />
		<tag k="ssr:stedsnr" v="691740" />
	</node>
	<node id="9951248389" lat="62.4002158" lon="6.4630932" version="1" timestamp="2022-08-13T16:36:33Z" changeset="124860199" uid="3497659" user="NKA">
		<tag k="name" v="Litlevik" />
		<tag k="place" v="hamlet" />
		<tag k="ssr:stedsnr" v="921120" />
	</node>
	<node id="9951248390" lat="62.35655" lon="6.4483723" version="1" timestamp="2022-08-13T16:36:33Z" changeset="124860199" uid="3497659" user="NKA">
		<tag k="historic" v="shieling" />
		<tag k="name" v="Ålen" />
		<tag k="place" v="isolated_dwelling" />
		<tag k="ssr:stedsnr" v="920379" />
	</node>
	<node id="9951248391" lat="62.3803269" lon="6.413355" version="1" timestamp="2022-08-13T16:36:33Z" changeset="124860199" uid="3497659" user="NKA">
		<tag k="name" v="Steinaplassen" />
		<tag k="place" v="farm" />
		<tag k="ssr:stedsnr" v="521238" />
	</node>
	<node id="9951248392" lat="62.4327937" lon="6.7424988" version="1" timestamp="2022-08-13T16:36:33Z" changeset="124860199" uid="3497659" user="NKA">
		<tag k="name" v="Øvre Søvik" />
		<tag k="place" v="farm" />
		<tag k="ssr:stedsnr" v="521201" />
	</node>
	<node id="9951248393" lat="62.3561509" lon="6.5684551" version="1" timestamp="2022-08-13T16:36:33Z" changeset="124860199" uid="3497659" user="NKA">
		<tag k="name" v="Høgebakkane" />
		<tag k="place" v="farm" />
		<tag k="ssr:stedsnr" v="946177" />
	</node>
	<node id="9951248394" lat="62.442775" lon="6.6961529" version="1" timestamp="2022-08-13T16:36:33Z" changeset="124860199" uid="3497659" user="NKA">
		<tag k="historic" v="shieling" />
		<tag k="name" v="Jogardsstølen" />
		<tag k="place" v="isolated_dwelling" />
		<tag k="ssr:stedsnr" v="799089" />
	</node>
	<node id="9951248395" lat="62.414551" lon="6.7802572" version="1" timestamp="2022-08-13T16:36:33Z" changeset="124860199" uid="3497659" user="NKA">
		<tag k="name" v="Melset" />
		<tag k="place" v="hamlet" />
		<tag k="ssr:stedsnr" v="799683" />
	</node>
	<node id="9951248396" lat="62.3646819" lon="6.8234354" version="1" timestamp="2022-08-13T16:36:33Z" changeset="124860199" uid="3497659" user="NKA">
		<tag k="historic" v="shieling" />
		<tag k="name" v="Furesætra" />
		<tag k="place" v="hamlet" />
		<tag k="ssr:stedsnr" v="71732" />
	</node>
	<node id="9951248397" lat="62.3540833" lon="6.8362251" version="1" timestamp="2022-08-13T16:36:33Z" changeset="124860199" uid="3497659" user="NKA">
		<tag k="name" v="Orreneset" />
		<tag k="place" v="isolated_dwelling" />
		<tag k="ssr:stedsnr" v="568932" />
	</node>
	<node id="9951248398" lat="62.3445495" lon="6.5886262" version="1" timestamp="2022-08-13T16:36:33Z" changeset="124860199" uid="3497659" user="NKA">
		<tag k="alt_name" v="Tannstad, midtre" />
		<tag k="name" v="Midtre Tannstad" />
		<tag k="place" v="farm" />
		<tag k="ssr:stedsnr" v="739421" />
	</node>
	<node id="9951248399" lat="62.374375" lon="6.4329002" version="1" timestamp="2022-08-13T16:36:33Z" changeset="124860199" uid="3497659" user="NKA">
		<tag k="name" v="Hoggaplassen" />
		<tag k="place" v="farm" />
		<tag k="ssr:stedsnr" v="703255" />
	</node>
	<node id="9951248400" lat="62.4357749" lon="6.6450753" version="1" timestamp="2022-08-13T16:36:33Z" changeset="124860199" uid="3497659" user="NKA">
		<tag k="name" v="Sandvika" />
		<tag k="place" v="farm" />
		<tag k="ssr:stedsnr" v="314078" />
	</node>
	<node id="9951248401" lat="62.4365973" lon="6.6729279" version="1" timestamp="2022-08-13T16:36:33Z" changeset="124860199" uid="3497659" user="NKA">
		<tag k="historic" v="shieling" />
		<tag k="name" v="Bjørnaviksætra" />
		<tag k="place" v="isolated_dwelling" />
		<tag k="ssr:stedsnr" v="314084" />
	</node>
	<node id="9951248402" lat="62.3337092" lon="6.7608628" version="1" timestamp="2022-08-13T16:36:33Z" changeset="124860199" uid="3497659" user="NKA">
		<tag k="historic" v="shieling" />
		<tag k="name" v="Lastølen" />
		<tag k="place" v="isolated_dwelling" />
		<tag k="ssr:stedsnr" v="641981" />
	</node>
	<node id="9951248403" lat="62.4304517" lon="6.7302267" version="1" timestamp="2022-08-13T16:36:33Z" changeset="124860199" uid="3497659" user="NKA">
		<tag k="alt_name" v="Almeskar" />
		<tag k="name" v="Almeskard" />
		<tag k="place" v="farm" />
		<tag k="ssr:stedsnr" v="617691" />
	</node>
	<node id="9951248404" lat="62.4342918" lon="6.7472733" version="1" timestamp="2022-08-13T16:36:33Z" changeset="124860199" uid="3497659" user="NKA">
		<tag k="name" v="Nedre Søvik" />
		<tag k="place" v="farm" />
		<tag k="ssr:stedsnr" v="521203" />
	</node>
	<node id="9951248405" lat="62.4356222" lon="6.7030584" version="1" timestamp="2022-08-13T16:36:33Z" changeset="124860199" uid="3497659" user="NKA">
		<tag k="historic" v="shieling" />
		<tag k="name" v="Løsetsætra" />
		<tag k="place" v="isolated_dwelling" />
		<tag k="ssr:stedsnr" v="192095" />
	</node>
	<node id="9951248406" lat="62.4227472" lon="6.6134334" version="1" timestamp="2022-08-13T16:36:33Z" changeset="124860199" uid="3497659" user="NKA">
		<tag k="alt_name" v="Vass-setra" />
		<tag k="historic" v="shieling" />
		<tag k="name" v="Vassætra" />
		<tag k="place" v="isolated_dwelling" />
		<tag k="ssr:stedsnr" v="566171" />
	</node>
	<node id="9951248407" lat="62.4221131" lon="6.7029839" version="1" timestamp="2022-08-13T16:36:33Z" changeset="124860199" uid="3497659" user="NKA">
		<tag k="name" v="Furneset" />
		<tag k="place" v="farm" />
		<tag k="ssr:stedsnr" v="556082" />
	</node>
	<node id="9951248408" lat="62.4300428" lon="6.6060447" version="1" timestamp="2022-08-13T16:36:33Z" changeset="124860199" uid="3497659" user="NKA">
		<tag k="name" v="Kyrkjesteinen" />
		<tag k="place" v="locality" />
		<tag k="ssr:stedsnr" v="10066" />
	</node>
	<node id="9951248409" lat="62.358467" lon="6.4051505" version="1" timestamp="2022-08-13T16:36:33Z" changeset="124860199" uid="3497659" user="NKA">
		<tag k="name" v="Gjevenes" />
		<tag k="place" v="hamlet" />
		<tag k="ssr:stedsnr" v="328177" />
	</node>
	<node id="9951248410" lat="62.4287861" lon="6.7116973" version="1" timestamp="2022-08-13T16:36:33Z" changeset="124860199" uid="3497659" user="NKA">
		<tag k="name" v="Løsetgjerdet" />
		<tag k="place" v="isolated_dwelling" />
		<tag k="ssr:stedsnr" v="339209" />
	</node>
	<node id="9951248411" lat="62.4517072" lon="6.7222954" version="1" timestamp="2022-08-13T16:36:33Z" changeset="124860199" uid="3497659" user="NKA">
		<tag k="alt_name" v="Rønes" />
		<tag k="name" v="Røneset" />
		<tag k="place" v="isolated_dwelling" />
		<tag k="ssr:stedsnr" v="132333" />
	</node>
	<node id="9951248412" lat="62.3772528" lon="6.4694557" version="1" timestamp="2022-08-13T16:36:33Z" changeset="124860199" uid="3497659" user="NKA">
		<tag k="alt_name" v="Myrsetsetra" />
		<tag k="name" v="Nysætra" />
		<tag k="place" v="isolated_dwelling" />
		<tag k="ssr:stedsnr" v="314417" />
	</node>
	<node id="9951248413" lat="62.366571" lon="6.4330381" version="1" timestamp="2022-08-13T16:36:33Z" changeset="124860199" uid="3497659" user="NKA">
		<tag k="name" v="Bakkane" />
		<tag k="place" v="farm" />
		<tag k="ssr:stedsnr" v="266751" />
	</node>
	<node id="9951248414" lat="62.4493328" lon="6.7016408" version="1" timestamp="2022-08-13T16:36:33Z" changeset="124860199" uid="3497659" user="NKA">
		<tag k="name" v="Furstranda" />
		<tag k="place" v="farm" />
		<tag k="ssr:stedsnr" v="11032" />
	</node>
	<node id="9951248415" lat="62.4417128" lon="6.6740286" version="1" timestamp="2022-08-13T16:36:33Z" changeset="124860199" uid="3497659" user="NKA">
		<tag k="name" v="Bjørnavika" />
		<tag k="place" v="farm" />
		<tag k="ssr:stedsnr" v="10088" />
	</node>
	<node id="9951248416" lat="62.3976779" lon="6.4705283" version="1" timestamp="2022-08-13T16:36:33Z" changeset="124860199" uid="3497659" user="NKA">
		<tag k="alt_name" v="Tusvik" />
		<tag k="name" v="Tusvika" />
		<tag k="place" v="hamlet" />
		<tag k="ssr:stedsnr" v="800108" />
	</node>
	<node id="9951248417" lat="62.3795361" lon="6.4875028" version="1" timestamp="2022-08-13T16:36:33Z" changeset="124860199" uid="3497659" user="NKA">
		<tag k="alt_name" v="Koldastølen" />
		<tag k="historic" v="shieling" />
		<tag k="name" v="Kaldastøylen" />
		<tag k="place" v="isolated_dwelling" />
		<tag k="ssr:stedsnr" v="193417" />
	</node>
	<node id="9951248418" lat="62.3951416" lon="6.449828" version="1" timestamp="2022-08-13T16:36:33Z" changeset="124860199" uid="3497659" user="NKA">
		<tag k="alt_name" v="Langholen" />
		<tag k="name" v="Langhol" />
		<tag k="place" v="farm" />
		<tag k="ssr:stedsnr" v="11098" />
	</node>
	<node id="9951248419" lat="62.3698609" lon="6.4270443" version="1" timestamp="2022-08-13T16:36:33Z" changeset="124860199" uid="3497659" user="NKA">
		<tag k="alt_name" v="Midgard;Midgarden" />
		<tag k="name" v="Megarden" />
		<tag k="place" v="hamlet" />
		<tag k="ssr:stedsnr" v="921410" />
	</node>
	<node id="9951248420" lat="62.3719528" lon="6.4294307" version="1" timestamp="2022-08-13T16:36:33Z" changeset="124860199" uid="3497659" user="NKA">
		<tag k="name" v="Joakimplassen" />
		<tag k="place" v="locality" />
		<tag k="ssr:stedsnr" v="339257" />
	</node>
	<node id="9951248421" lat="62.3985687" lon="6.5098552" version="1" timestamp="2022-08-13T16:36:33Z" changeset="124860199" uid="3497659" user="NKA">
		<tag k="name" v="Jogarden" />
		<tag k="place" v="farm" />
		<tag k="ssr:stedsnr" v="218217" />
	</node>
	<node id="9951248422" lat="62.3779944" lon="6.421253" version="1" timestamp="2022-08-13T16:36:33Z" changeset="124860199" uid="3497659" user="NKA">
		<tag k="name" v="Hagen" />
		<tag k="place" v="farm" />
		<tag k="ssr:stedsnr" v="521208" />
	</node>
	<node id="9951248423" lat="62.3805" lon="6.4976945" version="1" timestamp="2022-08-13T16:36:33Z" changeset="124860199" uid="3497659" user="NKA">
		<tag k="alt_name" v="Sæss-sætra" />
		<tag k="historic" v="shieling" />
		<tag k="name" v="Sætssætra" />
		<tag k="place" v="isolated_dwelling" />
		<tag k="ssr:stedsnr" v="72365" />
	</node>
	<node id="9951248424" lat="62.3049021" lon="6.6245628" version="1" timestamp="2022-08-13T16:36:33Z" changeset="124860199" uid="3497659" user="NKA">
		<tag k="name" v="Dravlaus" />
		<tag k="place" v="hamlet" />
		<tag k="ssr:stedsnr" v="922432" />
	</node>
	<node id="9951248425" lat="62.3988232" lon="6.5067924" version="1" timestamp="2022-08-13T16:36:33Z" changeset="124860199" uid="3497659" user="NKA">
		<tag k="name" v="Blakstad" />
		<tag k="place" v="hamlet" />
		<tag k="ssr:stedsnr" v="11102" />
	</node>
	<node id="9951248426" lat="62.3981605" lon="6.5167115" version="1" timestamp="2022-08-13T16:36:33Z" changeset="124860199" uid="3497659" user="NKA">
		<tag k="name" v="Ishuset" />
		<tag k="place" v="locality" />
		<tag k="ssr:stedsnr" v="824123" />
	</node>
	<node id="9951248427" lat="62.4254374" lon="6.7756728" version="1" timestamp="2022-08-13T16:36:33Z" changeset="124860199" uid="3497659" user="NKA">
		<tag k="name" v="Klokk" />
		<tag k="place" v="hamlet" />
		<tag k="ssr:stedsnr" v="556702" />
	</node>
	<node id="9951248428" lat="62.3927" lon="6.6004306" version="1" timestamp="2022-08-13T16:36:33Z" changeset="124860199" uid="3497659" user="NKA">
		<tag k="name" v="Nyborg" />
		<tag k="place" v="farm" />
		<tag k="ssr:stedsnr" v="824277" />
	</node>
	<node id="9951248429" lat="62.3990221" lon="6.6165329" version="1" timestamp="2022-08-13T16:36:33Z" changeset="124860199" uid="3497659" user="NKA">
		<tag k="loc_name" v="Eideim" />
		<tag k="name" v="Eidem" />
		<tag k="place" v="hamlet" />
		<tag k="ssr:stedsnr" v="921082" />
	</node>
	<node id="9951248430" lat="62.2842861" lon="6.6780584" version="1" timestamp="2022-08-13T16:36:33Z" changeset="124860199" uid="3497659" user="NKA">
		<tag k="name" v="Sommerfjøsane" />
		<tag k="place" v="locality" />
		<tag k="ssr:stedsnr" v="703264" />
	</node>
	<node id="9951248431" lat="62.2992284" lon="6.6278074" version="1" timestamp="2022-08-13T16:36:33Z" changeset="124860199" uid="3497659" user="NKA">
		<tag k="name" v="Velle" />
		<tag k="place" v="hamlet" />
		<tag k="ssr:stedsnr" v="679446" />
	</node>
	<node id="9951248432" lat="62.3863472" lon="6.411653" version="1" timestamp="2022-08-13T16:36:33Z" changeset="124860199" uid="3497659" user="NKA">
		<tag k="name" v="Toreplassen" />
		<tag k="place" v="locality" />
		<tag k="ssr:stedsnr" v="278285" />
	</node>
	<node id="9951248433" lat="62.3289574" lon="6.6491958" version="1" timestamp="2022-08-13T16:36:33Z" changeset="124860199" uid="3497659" user="NKA">
		<tag k="name" v="Langenessætra" />
		<tag k="place" v="isolated_dwelling" />
		<tag k="ssr:stedsnr" v="800437" />
	</node>
	<node id="9951248434" lat="62.3979256" lon="6.6029913" version="1" timestamp="2022-08-13T16:36:33Z" changeset="124860199" uid="3497659" user="NKA">
		<tag k="alt_name" v="Grefstad" />
		<tag k="name" v="Grepstad" />
		<tag k="place" v="farm" />
		<tag k="ssr:stedsnr" v="556111" />
	</node>
	<node id="9951248435" lat="62.3925637" lon="6.5882397" version="1" timestamp="2022-08-13T16:36:33Z" changeset="124860199" uid="3497659" user="NKA">
		<tag k="name" v="Aure" />
		<tag k="place" v="hamlet" />
		<tag k="ssr:stedsnr" v="496101" />
	</node>
	<node id="9951248436" lat="62.2995639" lon="6.7038517" version="1" timestamp="2022-08-13T16:36:33Z" changeset="124860199" uid="3497659" user="NKA">
		<tag k="name" v="Hole" />
		<tag k="place" v="hamlet" />
		<tag k="ssr:stedsnr" v="618479" />
	</node>
	<node id="9951248437" lat="62.3513948" lon="6.5842363" version="1" timestamp="2022-08-13T16:36:33Z" changeset="124860199" uid="3497659" user="NKA">
		<tag k="name" v="Øygarden" />
		<tag k="place" v="farm" />
		<tag k="ssr:stedsnr" v="598528" />
	</node>
	<node id="9951248438" lat="62.3082582" lon="6.7205309" version="1" timestamp="2022-08-13T16:36:33Z" changeset="124860199" uid="3497659" user="NKA">
		<tag k="name" v="Hole" />
		<tag k="place" v="farm" />
		<tag k="ssr:stedsnr" v="339215" />
	</node>
	<node id="9951248439" lat="62.362825" lon="6.6085224" version="1" timestamp="2022-08-13T16:36:33Z" changeset="124860199" uid="3497659" user="NKA">
		<tag k="name" v="Øvstestølen" />
		<tag k="place" v="locality" />
		<tag k="ssr:stedsnr" v="339015" />
	</node>
	<node id="9951248440" lat="62.3511794" lon="6.5875173" version="1" timestamp="2022-08-13T16:36:33Z" changeset="124860199" uid="3497659" user="NKA">
		<tag k="alt_name" v="Tannstad, ytre;Ytre Tandstad" />
		<tag k="name" v="Ytre Tannstad" />
		<tag k="place" v="farm" />
		<tag k="ssr:stedsnr" v="496463" />
	</node>
	<node id="9951248441" lat="62.2977834" lon="6.6835404" version="1" timestamp="2022-08-13T16:36:33Z" changeset="124860199" uid="3497659" user="NKA">
		<tag k="alt_name" v="Bruvoll" />
		<tag k="name" v="Brøvoll" />
		<tag k="place" v="hamlet" />
		<tag k="ssr:stedsnr" v="315473" />
	</node>
	<node id="9951248442" lat="62.3662973" lon="6.708551" version="1" timestamp="2022-08-13T16:36:33Z" changeset="124860199" uid="3497659" user="NKA">
		<tag k="alt_name" v="Auresetra" />
		<tag k="historic" v="shieling" />
		<tag k="name" v="Sunndalssætra" />
		<tag k="place" v="hamlet" />
		<tag k="ssr:stedsnr" v="314425" />
	</node>
	<node id="9951248443" lat="62.2888615" lon="6.6619562" version="1" timestamp="2022-08-13T16:36:33Z" changeset="124860199" uid="3497659" user="NKA">
		<tag k="name" v="Bjørnedalen" />
		<tag k="place" v="farm" />
		<tag k="ssr:stedsnr" v="326786" />
	</node>
	<node id="9951248444" lat="62.3821361" lon="6.6823584" version="1" timestamp="2022-08-13T16:36:33Z" changeset="124860199" uid="3497659" user="NKA">
		<tag k="historic" v="shieling" />
		<tag k="name" v="Haugsetstølen" />
		<tag k="place" v="isolated_dwelling" />
		<tag k="ssr:stedsnr" v="325899" />
	</node>
	<node id="9951248445" lat="62.3001695" lon="6.692462" version="1" timestamp="2022-08-13T16:36:33Z" changeset="124860199" uid="3497659" user="NKA">
		<tag k="name" v="Brøvollsgjerdet" />
		<tag k="place" v="farm" />
		<tag k="ssr:stedsnr" v="96237" />
	</node>
	<node id="9951248446" lat="62.4138833" lon="6.7139639" version="1" timestamp="2022-08-13T16:36:33Z" changeset="124860199" uid="3497659" user="NKA">
		<tag k="historic" v="shieling" />
		<tag k="name" v="Løvollsætra" />
		<tag k="place" v="isolated_dwelling" />
		<tag k="ssr:stedsnr" v="71130" />
	</node>
	<node id="9951248447" lat="62.4064694" lon="6.5927795" version="1" timestamp="2022-08-13T16:36:33Z" changeset="124860199" uid="3497659" user="NKA">
		<tag k="name" v="Hjellane" />
		<tag k="place" v="farm" />
		<tag k="ssr:stedsnr" v="132098" />
	</node>
	<node id="9951248448" lat="62.3927227" lon="6.6285939" version="1" timestamp="2022-08-13T16:36:33Z" changeset="124860199" uid="3497659" user="NKA">
		<tag k="name" v="Haugset" />
		<tag k="place" v="hamlet" />
		<tag k="ssr:stedsnr" v="860118" />
	</node>
	<node id="9951248449" lat="62.3290216" lon="6.5986237" version="1" timestamp="2022-08-13T16:36:33Z" changeset="124860199" uid="3497659" user="NKA">
		<tag k="name" v="Straume" />
		<tag k="place" v="hamlet" />
		<tag k="ssr:stedsnr" v="11436" />
	</node>
	<node id="9951248450" lat="62.3087441" lon="6.6160322" version="1" timestamp="2022-08-13T16:36:33Z" changeset="124860199" uid="3497659" user="NKA">
		<tag k="alt_name" v="Fit" />
		<tag k="name" v="Fet" />
		<tag k="place" v="hamlet" />
		<tag k="ssr:stedsnr" v="557451" />
	</node>
	<node id="9951248451" lat="62.3972083" lon="6.585564" version="1" timestamp="2022-08-13T16:36:33Z" changeset="124860199" uid="3497659" user="NKA">
		<tag k="name" v="Skjerva" />
		<tag k="place" v="farm" />
		<tag k="ssr:stedsnr" v="278227" />
	</node>
	<node id="9951248452" lat="62.40097" lon="6.5823353" version="1" timestamp="2022-08-13T16:36:33Z" changeset="124860199" uid="3497659" user="NKA">
		<tag k="name" v="Ullavika" />
		<tag k="place" v="quarter" />
		<tag k="ssr:stedsnr" v="193120" />
	</node>
	<node id="9951248453" lat="62.2679394" lon="6.6703505" version="1" timestamp="2022-08-13T16:36:33Z" changeset="124860199" uid="3497659" user="NKA">
		<tag k="historic" v="shieling" />
		<tag k="name" v="Vellesætra" />
		<tag k="place" v="isolated_dwelling" />
		<tag k="ssr:stedsnr" v="618237" />
	</node>
	<node id="9951248454" lat="62.4063257" lon="6.5845144" version="1" timestamp="2022-08-13T16:36:33Z" changeset="124860199" uid="3497659" user="NKA">
		<tag k="name" v="Åsen" />
		<tag k="place" v="hamlet" />
		<tag k="ssr:stedsnr" v="11104" />
	</node>
	<node id="9951248455" lat="62.3901911" lon="6.5764116" version="1" timestamp="2022-08-13T16:36:33Z" changeset="124860199" uid="3497659" user="NKA">
		<tag k="name" v="Myrane" />
		<tag k="place" v="farm" />
		<tag k="ssr:stedsnr" v="52575" />
	</node>
	<node id="9951248456" lat="62.4046051" lon="6.5870808" version="1" timestamp="2022-08-13T16:36:33Z" changeset="124860199" uid="3497659" user="NKA">
		<tag k="name" v="Hjellebru" />
		<tag k="place" v="isolated_dwelling" />
		<tag k="ssr:stedsnr" v="173574" />
	</node>
	<node id="9951248457" lat="62.2828416" lon="6.6303112" version="1" timestamp="2022-08-13T16:36:33Z" changeset="124860199" uid="3497659" user="NKA">
		<tag k="name" v="Gamlesetra" />
		<tag k="place" v="locality" />
		<tag k="ssr:stedsnr" v="35265" />
	</node>
	<node id="9951248458" lat="62.3700778" lon="6.8283613" version="1" timestamp="2022-08-13T16:36:33Z" changeset="124860199" uid="3497659" user="NKA">
		<tag k="name" v="Fausateigane" />
		<tag k="place" v="locality" />
		<tag k="ssr:stedsnr" v="678700" />
	</node>
	<node id="9951248459" lat="62.3333362" lon="6.5966251" version="1" timestamp="2022-08-13T16:36:33Z" changeset="124860199" uid="3497659" user="NKA">
		<tag k="name" v="Myrane" />
		<tag k="place" v="neighbourhood" />
		<tag k="ssr:stedsnr" v="339231" />
	</node>
	<node id="9951248460" lat="62.3458527" lon="6.6231751" version="1" timestamp="2022-08-13T16:36:33Z" changeset="124860199" uid="3497659" user="NKA">
		<tag k="name" v="Hindaholen" />
		<tag k="place" v="isolated_dwelling" />
		<tag k="ssr:stedsnr" v="436404" />
	</node>
	<node id="9951248461" lat="62.3428722" lon="6.5380584" version="1" timestamp="2022-08-13T16:36:33Z" changeset="124860199" uid="3497659" user="NKA">
		<tag k="alt_name" v="Riksheimsetra" />
		<tag k="historic" v="shieling" />
		<tag k="name" v="Riksemsætra" />
		<tag k="place" v="isolated_dwelling" />
		<tag k="ssr:stedsnr" v="436407" />
	</node>
	<node id="9951248462" lat="62.3881139" lon="6.8139251" version="1" timestamp="2022-08-13T16:36:33Z" changeset="124860199" uid="3497659" user="NKA">
		<tag k="name" v="Espeberg" />
		<tag k="place" v="farm" />
		<tag k="ssr:stedsnr" v="157171" />
	</node>
	<node id="9951248463" lat="62.3972194" lon="6.7623584" version="1" timestamp="2022-08-13T16:36:33Z" changeset="124860199" uid="3497659" user="NKA">
		<tag k="historic" v="shieling" />
		<tag k="name" v="Melsetsætra" />
		<tag k="place" v="isolated_dwelling" />
		<tag k="ssr:stedsnr" v="678737" />
	</node>
	<node id="9951248464" lat="62.3967281" lon="6.6498609" version="1" timestamp="2022-08-13T16:36:33Z" changeset="124860199" uid="3497659" user="NKA">
		<tag k="name" v="Aurdal" />
		<tag k="place" v="hamlet" />
		<tag k="ssr:stedsnr" v="436099" />
	</node>
	<node id="9951248465" lat="62.4077058" lon="6.7815122" version="1" timestamp="2022-08-13T16:36:33Z" changeset="124860199" uid="3497659" user="NKA">
		<tag k="name" v="Løset" />
		<tag k="place" v="hamlet" />
		<tag k="ssr:stedsnr" v="556656" />
	</node>
	<node id="9951248466" lat="62.329375" lon="6.5630307" version="1" timestamp="2022-08-13T16:36:33Z" changeset="124860199" uid="3497659" user="NKA">
		<tag k="alt_name" v="Straumsemsetra" />
		<tag k="historic" v="shieling" />
		<tag k="name" v="Straumsheimsætra" />
		<tag k="place" v="isolated_dwelling" />
		<tag k="ssr:stedsnr" v="739430" />
	</node>
	<node id="9951248467" lat="62.3801361" lon="6.6009195" version="1" timestamp="2022-08-13T16:36:33Z" changeset="124860199" uid="3497659" user="NKA">
		<tag k="name" v="Gamlesætra" />
		<tag k="place" v="locality" />
		<tag k="ssr:stedsnr" v="824350" />
	</node>
	<node id="9951248468" lat="62.4232722" lon="6.6162779" version="1" timestamp="2022-08-13T16:36:33Z" changeset="124860199" uid="3497659" user="NKA">
		<tag k="historic" v="shieling" />
		<tag k="name" v="Fauskesætra" />
		<tag k="place" v="isolated_dwelling" />
		<tag k="ssr:stedsnr" v="799069" />
	</node>
	<node id="9951248469" lat="62.4324036" lon="6.7465801" version="1" timestamp="2022-08-13T16:36:33Z" changeset="124860199" uid="3497659" user="NKA">
		<tag k="alt_name" v="Nedre Søvik" />
		<tag k="loc_name" v="Søvika" />
		<tag k="name" v="Søvik" />
		<tag k="place" v="hamlet" />
		<tag k="ssr:stedsnr" v="739671" />
	</node>
	<node id="9951248470" lat="62.3775805" lon="6.4672807" version="1" timestamp="2022-08-13T16:36:33Z" changeset="124860199" uid="3497659" user="NKA">
		<tag k="alt_name" v="Utgardsetra" />
		<tag k="historic" v="shieling" />
		<tag k="name" v="Utgardsætra" />
		<tag k="place" v="isolated_dwelling" />
		<tag k="ssr:stedsnr" v="921100" />
	</node>
	<node id="9951248471" lat="62.4197667" lon="6.7316419" version="1" timestamp="2022-08-13T16:36:33Z" changeset="124860199" uid="3497659" user="NKA">
		<tag k="historic" v="shieling" />
		<tag k="name" v="Klokkssætra" />
		<tag k="old_name" v="Klokksætra" />
		<tag k="place" v="isolated_dwelling" />
		<tag k="ssr:stedsnr" v="435701" />
	</node>
	<node id="9951248472" lat="62.4077965" lon="6.565099" version="1" timestamp="2022-08-13T16:36:33Z" changeset="124860199" uid="3497659" user="NKA">
		<tag k="name" v="Ytre Fauske" />
		<tag k="place" v="farm" />
		<tag k="ssr:stedsnr" v="460365" />
	</node>
	<node id="9951248473" lat="62.388869" lon="6.5780847" version="1" timestamp="2022-08-13T16:36:33Z" changeset="124860199" uid="3497659" user="NKA">
		<tag k="name" v="Klokkarhaugen" />
		<tag k="place" v="farm" />
		<tag k="ssr:stedsnr" v="983658" />
	</node>
	<node id="9951248474" lat="62.3975748" lon="6.6103849" version="1" timestamp="2022-08-13T16:36:33Z" changeset="124860199" uid="3497659" user="NKA">
		<tag k="loc_name" v="Grebstad" />
		<tag k="name" v="Grefstad" />
		<tag k="place" v="farm" />
		<tag k="ssr:stedsnr" v="576435" />
	</node>
	<node id="9951248475" lat="62.2764639" lon="6.675739" version="1" timestamp="2022-08-13T16:36:33Z" changeset="124860199" uid="3497659" user="NKA">
		<tag k="name" v="Kolbeinstøylen" />
		<tag k="place" v="locality" />
		<tag k="ssr:stedsnr" v="946197" />
	</node>
	<node id="9951248476" lat="62.2968028" lon="6.6368029" version="1" timestamp="2022-08-13T16:36:33Z" changeset="124860199" uid="3497659" user="NKA">
		<tag k="name" v="Heggebakkane" />
		<tag k="place" v="farm" />
		<tag k="ssr:stedsnr" v="946191" />
	</node>
	<node id="9951248477" lat="62.37585" lon="6.6317196" version="1" timestamp="2022-08-13T16:36:33Z" changeset="124860199" uid="3497659" user="NKA">
		<tag k="name" v="Åsætra" />
		<tag k="place" v="locality" />
		<tag k="ssr:stedsnr" v="946057" />
	</node>
	<node id="9951248478" lat="62.352445" lon="6.5733256" version="1" timestamp="2022-08-13T16:36:33Z" changeset="124860199" uid="3497659" user="NKA">
		<tag k="alt_name" v="Løkplassen" />
		<tag k="name" v="Løkane" />
		<tag k="place" v="farm" />
		<tag k="ssr:stedsnr" v="824254" />
	</node>
	<node id="9951248479" lat="62.3641278" lon="6.6145945" version="1" timestamp="2022-08-13T16:36:33Z" changeset="124860199" uid="3497659" user="NKA">
		<tag k="name" v="Pegjerdet" />
		<tag k="place" v="locality" />
		<tag k="ssr:stedsnr" v="946146" />
	</node>
	<node id="9951248480" lat="62.3989982" lon="6.5896609" version="1" timestamp="2022-08-13T16:36:33Z" changeset="124860199" uid="3497659" user="NKA">
		<tag k="name" v="Kagholen" />
		<tag k="place" v="farm" />
		<tag k="ssr:stedsnr" v="901627" />
	</node>
	<node id="9951248481" lat="62.4065025" lon="6.5687736" version="1" timestamp="2022-08-13T16:36:33Z" changeset="124860199" uid="3497659" user="NKA">
		<tag k="name" v="Indre Fauske" />
		<tag k="place" v="farm" />
		<tag k="ssr:stedsnr" v="763326" />
	</node>
	<node id="9951248482" lat="62.33245" lon="6.7570763" version="1" timestamp="2022-08-13T16:36:33Z" changeset="124860199" uid="3497659" user="NKA">
		<tag k="alt_name" v="Øygardsstølen" />
		<tag k="historic" v="shieling" />
		<tag k="name" v="Drotninghaugstølen" />
		<tag k="place" v="isolated_dwelling" />
		<tag k="ssr:stedsnr" v="679474" />
	</node>
	<node id="9951248483" lat="62.2909915" lon="6.6600429" version="1" timestamp="2022-08-13T16:36:33Z" changeset="124860199" uid="3497659" user="NKA">
		<tag k="name" v="Hjortdal" />
		<tag k="place" v="hamlet" />
		<tag k="ssr:stedsnr" v="581245" />
	</node>
	<node id="9951248484" lat="62.343585" lon="6.5722006" version="1" timestamp="2022-08-13T16:36:33Z" changeset="124860199" uid="3497659" user="NKA">
		<tag k="name" v="Stølen" />
		<tag k="place" v="farm" />
		<tag k="ssr:stedsnr" v="703253" />
	</node>
	<node id="9951248485" lat="62.375595" lon="6.54823" version="1" timestamp="2022-08-13T16:36:33Z" changeset="124860199" uid="3497659" user="NKA">
		<tag k="name" v="Sætre" />
		<tag k="place" v="hamlet" />
		<tag k="ssr:stedsnr" v="800367" />
	</node>
	<node id="9951248486" lat="62.3858833" lon="6.4135224" version="1" timestamp="2022-08-13T16:36:33Z" changeset="124860199" uid="3497659" user="NKA">
		<tag k="name" v="Berntplassen" />
		<tag k="place" v="locality" />
		<tag k="ssr:stedsnr" v="763272" />
	</node>
	<node id="9951248487" lat="62.3999753" lon="6.5006533" version="1" timestamp="2022-08-13T16:36:33Z" changeset="124860199" uid="3497659" user="NKA">
		<tag k="name" v="Ytreberg" />
		<tag k="place" v="farm" />
		<tag k="ssr:stedsnr" v="824263" />
	</node>
	<node id="9951248488" lat="62.3141111" lon="6.7380894" version="1" timestamp="2022-08-13T16:36:33Z" changeset="124860199" uid="3497659" user="NKA">
		<tag k="loc_name" v="Drotningshaug" />
		<tag k="name" v="Drotninghaug" />
		<tag k="place" v="hamlet" />
		<tag k="ssr:stedsnr" v="740478" />
	</node>
	<node id="9951248489" lat="62.3837861" lon="6.4864029" version="1" timestamp="2022-08-13T16:36:33Z" changeset="124860199" uid="3497659" user="NKA">
		<tag k="name" v="Hovdestølen" />
		<tag k="place" v="isolated_dwelling" />
		<tag k="ssr:stedsnr" v="824378" />
	</node>
	<node id="9951248490" lat="62.2805444" lon="6.623564" version="1" timestamp="2022-08-13T16:36:33Z" changeset="124860199" uid="3497659" user="NKA">
		<tag k="name" v="Regndalssetra" />
		<tag k="place" v="locality" />
		<tag k="ssr:stedsnr" v="824262" />
	</node>
	<node id="9951248491" lat="62.3723222" lon="6.6873945" version="1" timestamp="2022-08-13T16:36:33Z" changeset="124860199" uid="3497659" user="NKA">
		<tag k="alt_name" v="Eidemsetra" />
		<tag k="historic" v="shieling" />
		<tag k="name" v="Eideimsstølen" />
		<tag k="place" v="isolated_dwelling" />
		<tag k="ssr:stedsnr" v="557381" />
	</node>
	<node id="9951248492" lat="62.3770048" lon="6.433456" version="1" timestamp="2022-08-13T16:36:33Z" changeset="124860199" uid="3497659" user="NKA">
		<tag k="name" v="Myrset" />
		<tag k="place" v="hamlet" />
		<tag k="ssr:stedsnr" v="496416" />
	</node>
	<node id="9951248493" lat="62.3946981" lon="6.4661566" version="1" timestamp="2022-08-13T16:36:33Z" changeset="124860199" uid="3497659" user="NKA">
		<tag k="name" v="Tu" />
		<tag k="place" v="hamlet" />
		<tag k="ssr:stedsnr" v="800087" />
	</node>
	<node id="9951248494" lat="62.3991056" lon="6.6294447" version="1" timestamp="2022-08-13T16:36:33Z" changeset="124860199" uid="3497659" user="NKA">
		<tag k="name" v="Nygard" />
		<tag k="place" v="farm" />
		<tag k="ssr:stedsnr" v="739086" />
	</node>
	<node id="9951248495" lat="62.4073305" lon="6.5766167" version="1" timestamp="2022-08-13T16:36:33Z" changeset="124860199" uid="3497659" user="NKA">
		<tag k="alt_name" v="Kambane" />
		<tag k="name" v="Fauskekambane" />
		<tag k="place" v="farm" />
		<tag k="ssr:stedsnr" v="374127" />
	</node>
	<node id="9951248496" lat="62.3374408" lon="6.7693373" version="1" timestamp="2022-08-13T16:36:33Z" changeset="124860199" uid="3497659" user="NKA">
		<tag k="loc_name" v="Fjellsæter" />
		<tag k="name" v="Fjellsætra" />
		<tag k="place" v="village" />
		<tag k="ssr:stedsnr" v="956350" />
	</node>
	<node id="9951248497" lat="62.3977144" lon="6.6369193" version="1" timestamp="2022-08-13T16:36:33Z" changeset="124860199" uid="3497659" user="NKA">
		<tag k="name" v="Kjemphol" />
		<tag k="place" v="hamlet" />
		<tag k="ssr:stedsnr" v="496090" />
	</node>
	<node id="9951248498" lat="62.3896459" lon="6.4459068" version="1" timestamp="2022-08-13T16:36:33Z" changeset="124860199" uid="3497659" user="NKA">
		<tag k="alt_name" v="Hatlemark" />
		<tag k="name" v="Hatlemorka" />
		<tag k="place" v="hamlet" />
		<tag k="ssr:stedsnr" v="436089" />
	</node>
</osm>
