<?xml version="1.0" encoding="UTF-8"?>
<osm version="0.6" generator="osmapis">
	<node lat="58.00344051815546" lon="7.449410754082801" id="-26736">
		<tag k="name" v="Hattholmen fyr" />
		<tag k="ssr:date" v="2019-12-27" />
		<tag k="ssr:gruppe" v="navigasjon" />
		<tag k="ssr:hovedgruppe" v="infrastruktur" />
		<tag k="ssr:stedsnr" v="62" />
		<tag k="ssr:type" v="fyrstasjon" />
	</node>
	<node lat="57.97908923298883" lon="7.210863871752805" id="-27136">
		<tag k="name" v="Udvåre" />
		<tag k="ssr:date" v="2021-06-08" />
		<tag k="ssr:gruppe" v="navigasjon" />
		<tag k="ssr:hovedgruppe" v="infrastruktur" />
		<tag k="ssr:stedsnr" v="82305" />
		<tag k="ssr:type" v="fyrlykt" />
	</node>
	<node lat="57.97500168722909" lon="7.681741237540395" id="-27539">
		<tag k="name" v="Ballastskjeran" />
		<tag k="ssr:date" v="2021-06-08" />
		<tag k="ssr:gruppe" v="navigasjon" />
		<tag k="ssr:hovedgruppe" v="infrastruktur" />
		<tag k="ssr:stedsnr" v="146203" />
		<tag k="ssr:type" v="lanterne" />
	</node>
	<node lat="57.98326622017028" lon="7.561429120154497" id="-27566">
		<tag k="name" v="Vedeskjer" />
		<tag k="ssr:date" v="2021-06-08" />
		<tag k="ssr:gruppe" v="navigasjon" />
		<tag k="ssr:hovedgruppe" v="infrastruktur" />
		<tag k="ssr:stedsnr" v="165224" />
		<tag k="ssr:type" v="lanterne" />
	</node>
	<node lat="57.99127500054036" lon="7.552066664112837" id="-27588">
		<tag k="name" v="Rennespynten" />
		<tag k="ssr:date" v="2019-12-27" />
		<tag k="ssr:gruppe" v="navigasjon" />
		<tag k="ssr:hovedgruppe" v="infrastruktur" />
		<tag k="ssr:stedsnr" v="177056" />
		<tag k="ssr:type" v="lanterne" />
	</node>
	<node lat="58.00018888669076" lon="7.580911113906726" id="-27601">
		<tag k="name" v="Langøy" />
		<tag k="old_name" v="Langøya" />
		<tag k="ssr:date" v="2019-12-27" />
		<tag k="ssr:gruppe" v="navigasjon" />
		<tag k="ssr:hovedgruppe" v="infrastruktur" />
		<tag k="ssr:stedsnr" v="182074" />
		<tag k="ssr:type" v="fyrlykt" />
	</node>
	<node lat="57.992533335592455" lon="7.5039944508647265" id="-28077">
		<tag k="name" v="Dyrstadvågen østre molo" />
		<tag k="ssr:date" v="2021-06-08" />
		<tag k="ssr:gruppe" v="navigasjon" />
		<tag k="ssr:hovedgruppe" v="infrastruktur" />
		<tag k="ssr:stedsnr" v="226814" />
		<tag k="ssr:type" v="lanterne" />
	</node>
	<node lat="58.108408329857426" lon="7.49087500319374" id="-28086">
		<tag k="name" v="Slåttebrotet" />
		<tag k="ssr:date" v="2019-12-27" />
		<tag k="ssr:gruppe" v="veg" />
		<tag k="ssr:hovedgruppe" v="infrastruktur" />
		<tag k="ssr:stedsnr" v="449456" />
		<tag k="ssr:type" v="vegstrekning" />
	</node>
	<node lat="58.01056111012662" lon="7.567061115706527" id="-28460">
		<tag k="name" v="Tregde, Øvre" />
		<tag k="ssr:date" v="2019-12-27" />
		<tag k="ssr:gruppe" v="navigasjon" />
		<tag k="ssr:hovedgruppe" v="infrastruktur" />
		<tag k="ssr:stedsnr" v="298084" />
		<tag k="ssr:type" v="lanterne" />
	</node>
	<node lat="57.96017777400004" lon="7.567569443568326" id="-28537">
		<tag k="name" v="Odknuppen" />
		<tag k="ssr:date" v="2021-06-08" />
		<tag k="ssr:gruppe" v="navigasjon" />
		<tag k="ssr:hovedgruppe" v="infrastruktur" />
		<tag k="ssr:stedsnr" v="469239" />
		<tag k="ssr:type" v="lanterne" />
	</node>
	<node lat="58.020272226059575" lon="7.448349996283087" id="-29493">
		<tag k="name" v="Sjøsanden" />
		<tag k="ssr:date" v="2019-12-27" />
		<tag k="ssr:gruppe" v="navigasjon" />
		<tag k="ssr:hovedgruppe" v="infrastruktur" />
		<tag k="ssr:stedsnr" v="510202" />
		<tag k="ssr:type" v="fyrlykt" />
	</node>
	<node lat="57.99533645735604" lon="7.567915279772307" id="-29576">
		<tag k="name" v="Horsøy" />
		<tag k="ssr:date" v="2021-06-08" />
		<tag k="ssr:gruppe" v="navigasjon" />
		<tag k="ssr:hovedgruppe" v="infrastruktur" />
		<tag k="ssr:stedsnr" v="529222" />
		<tag k="ssr:type" v="lanterne" />
	</node>
	<node lat="57.982494440869225" lon="7.046674993398195" id="-29604">
		<tag k="alt_name" v="Lindesnes fyr" />
		<tag k="name" v="Lindesnes" />
		<tag k="old_name" v="Lindesnes Fyr" />
		<tag k="ssr:date" v="2019-12-27" />
		<tag k="ssr:gruppe" v="navigasjon" />
		<tag k="ssr:hovedgruppe" v="infrastruktur" />
		<tag k="ssr:stedsnr" v="546023" />
		<tag k="ssr:type" v="fyrstasjon" />
	</node>
	<node lat="57.99376944474458" lon="7.089155563278336" id="-30091">
		<tag k="name" v="Litlehavn, nedre" />
		<tag k="ssr:date" v="2021-06-08" />
		<tag k="ssr:gruppe" v="navigasjon" />
		<tag k="ssr:hovedgruppe" v="infrastruktur" />
		<tag k="ssr:stedsnr" v="586008" />
		<tag k="ssr:type" v="fyrlykt" />
	</node>
	<node lat="57.992561985537236" lon="7.100283950276197" id="-30388">
		<tag k="name" v="Svarte Hillegarn" />
		<tag k="ssr:date" v="2021-06-08" />
		<tag k="ssr:gruppe" v="navigasjon" />
		<tag k="ssr:hovedgruppe" v="infrastruktur" />
		<tag k="ssr:stedsnr" v="650210" />
		<tag k="ssr:type" v="lanterne" />
	</node>
	<node lat="58.02778611383966" lon="7.114655563513101" id="-30610">
		<tag k="alt_name" v="Småskjæra" />
		<tag k="name" v="Småskjeran" />
		<tag k="ssr:date" v="2019-12-27" />
		<tag k="ssr:gruppe" v="navigasjon" />
		<tag k="ssr:hovedgruppe" v="infrastruktur" />
		<tag k="ssr:stedsnr" v="894260" />
		<tag k="ssr:type" v="lanterne" />
	</node>
	<node lat="58.004377776250905" lon="7.507505550640895" id="-30934">
		<tag k="name" v="Skotholmen" />
		<tag k="ssr:date" v="2019-12-27" />
		<tag k="ssr:gruppe" v="navigasjon" />
		<tag k="ssr:hovedgruppe" v="infrastruktur" />
		<tag k="ssr:stedsnr" v="905073" />
		<tag k="ssr:type" v="lanterne" />
	</node>
	<node lat="58.00897222041301" lon="7.565602783243142" id="-30935">
		<tag k="name" v="Tregde, Nedre" />
		<tag k="ssr:date" v="2019-12-27" />
		<tag k="ssr:gruppe" v="navigasjon" />
		<tag k="ssr:hovedgruppe" v="infrastruktur" />
		<tag k="ssr:stedsnr" v="905075" />
		<tag k="ssr:type" v="lanterne" />
	</node>
	<node lat="58.02584327506525" lon="7.339184968341257" id="-31055">
		<tag k="alt_name" v="Vestre Gjallaråsholmen" />
		<tag k="name" v="Gjallaråsholmen" />
		<tag k="ssr:date" v="2019-12-27" />
		<tag k="ssr:gruppe" v="navigasjon" />
		<tag k="ssr:hovedgruppe" v="infrastruktur" />
		<tag k="ssr:stedsnr" v="788653" />
		<tag k="ssr:type" v="fyrlykt" />
	</node>
	<node lat="57.99376944474458" lon="7.089155563278336" id="-31268">
		<tag k="name" v="Litlehavn, øvre" />
		<tag k="ssr:date" v="2021-06-08" />
		<tag k="ssr:gruppe" v="navigasjon" />
		<tag k="ssr:hovedgruppe" v="infrastruktur" />
		<tag k="ssr:stedsnr" v="829020" />
		<tag k="ssr:type" v="fyrlykt" />
	</node>
	<node lat="58.03330305034851" lon="7.218899692996118" id="-31615">
		<tag k="name" v="Åvik" />
		<tag k="ssr:date" v="2021-06-08" />
		<tag k="ssr:gruppe" v="navigasjon" />
		<tag k="ssr:hovedgruppe" v="infrastruktur" />
		<tag k="ssr:stedsnr" v="935186" />
		<tag k="ssr:type" v="fyrlykt" />
	</node>
</osm>
