<?xml version="1.0" encoding="UTF-8"?>
<osm version="0.6" generator="osmapis">
	<node lat="63.217697224807445" lon="11.039377786398067" id="-87085">
		<tag k="name" v="Selbu kommune" />
		<tag k="ssr:date" v="2018-01-09" />
		<tag k="ssr:gruppe" v="administrativeIndelinger" />
		<tag k="ssr:hovedgruppe" v="offentligAdministrasjon" />
		<tag k="ssr:stedsnr" v="935904" />
		<tag k="ssr:type" v="kommune" />
	</node>
	<node lat="63.28303655393727" lon="10.676461733450955" id="-87156">
		<tag k="name" v="Aunåsen" />
		<tag k="ssr:date" v="2019-05-30" />
		<tag k="ssr:gruppe" v="veg" />
		<tag k="ssr:hovedgruppe" v="infrastruktur" />
		<tag k="ssr:stedsnr" v="982085" />
		<tag k="ssr:type" v="adressenavn" />
	</node>
	<node lat="63.281703080817294" lon="10.671312168502446" id="-87157">
		<tag k="name" v="Aunsvingen" />
		<tag k="ssr:date" v="2019-05-30" />
		<tag k="ssr:gruppe" v="veg" />
		<tag k="ssr:hovedgruppe" v="infrastruktur" />
		<tag k="ssr:stedsnr" v="982086" />
		<tag k="ssr:type" v="adressenavn" />
	</node>
	<node lat="63.25818927619531" lon="11.080395480866708" id="-87163">
		<tag k="name" v="Sirvegen" />
		<tag k="ssr:date" v="2019-05-30" />
		<tag k="ssr:gruppe" v="veg" />
		<tag k="ssr:hovedgruppe" v="infrastruktur" />
		<tag k="ssr:stedsnr" v="982092" />
		<tag k="ssr:type" v="adressenavn" />
	</node>
	<node lat="63.242214640384276" lon="11.100086586043219" id="-87164">
		<tag k="name" v="Skoghaugvegen" />
		<tag k="ssr:date" v="2019-05-30" />
		<tag k="ssr:gruppe" v="veg" />
		<tag k="ssr:hovedgruppe" v="infrastruktur" />
		<tag k="ssr:stedsnr" v="982093" />
		<tag k="ssr:type" v="adressenavn" />
	</node>
	<node lat="63.18833346274376" lon="11.113951343844418" id="-87165">
		<tag k="name" v="Uthusvegen" />
		<tag k="ssr:date" v="2019-05-30" />
		<tag k="ssr:gruppe" v="veg" />
		<tag k="ssr:hovedgruppe" v="infrastruktur" />
		<tag k="ssr:stedsnr" v="982094" />
		<tag k="ssr:type" v="adressenavn" />
	</node>
	<node lat="63.18707190630184" lon="11.186291941660187" id="-87167">
		<tag k="name" v="Myrmovegen" />
		<tag k="ssr:date" v="2019-05-30" />
		<tag k="ssr:gruppe" v="veg" />
		<tag k="ssr:hovedgruppe" v="infrastruktur" />
		<tag k="ssr:stedsnr" v="982096" />
		<tag k="ssr:type" v="adressenavn" />
	</node>
	<node lat="63.25756775468254" lon="11.106569374011762" id="-87169">
		<tag k="name" v="Øver Innbygdvegen" />
		<tag k="ssr:date" v="2019-05-30" />
		<tag k="ssr:gruppe" v="veg" />
		<tag k="ssr:hovedgruppe" v="infrastruktur" />
		<tag k="ssr:stedsnr" v="982103" />
		<tag k="ssr:type" v="adressenavn" />
	</node>
	<node lat="63.25352542817758" lon="11.090451748981696" id="-87170">
		<tag k="name" v="Ner Innbygdvegen" />
		<tag k="ssr:date" v="2019-05-30" />
		<tag k="ssr:gruppe" v="veg" />
		<tag k="ssr:hovedgruppe" v="infrastruktur" />
		<tag k="ssr:stedsnr" v="982104" />
		<tag k="ssr:type" v="adressenavn" />
	</node>
	<node lat="63.230694299464254" lon="11.043767255147174" id="-87172">
		<tag k="name" v="Botn" />
		<tag k="ssr:date" v="2019-05-30" />
		<tag k="ssr:gruppe" v="veg" />
		<tag k="ssr:hovedgruppe" v="infrastruktur" />
		<tag k="ssr:stedsnr" v="982106" />
		<tag k="ssr:type" v="adressenavn" />
	</node>
	<node lat="63.215658117488616" lon="10.985076808790227" id="-87173">
		<tag k="name" v="Voksmyra" />
		<tag k="ssr:date" v="2019-05-30" />
		<tag k="ssr:gruppe" v="veg" />
		<tag k="ssr:hovedgruppe" v="infrastruktur" />
		<tag k="ssr:stedsnr" v="982107" />
		<tag k="ssr:type" v="adressenavn" />
	</node>
	<node lat="63.30572775480282" lon="10.851113810827544" id="-87177">
		<tag k="name" v="Amdalsvegen" />
		<tag k="ssr:date" v="2019-05-30" />
		<tag k="ssr:gruppe" v="veg" />
		<tag k="ssr:hovedgruppe" v="infrastruktur" />
		<tag k="ssr:stedsnr" v="983606" />
		<tag k="ssr:type" v="adressenavn" />
	</node>
	<node lat="63.20429369950334" lon="11.033135194622686" id="-89478">
		<tag k="name" v="Engsetåsen" />
		<tag k="ssr:date" v="2019-05-30" />
		<tag k="ssr:gruppe" v="veg" />
		<tag k="ssr:hovedgruppe" v="infrastruktur" />
		<tag k="ssr:stedsnr" v="982112" />
		<tag k="ssr:type" v="adressenavn" />
	</node>
	<node lat="63.28116569613809" lon="11.007324929951569" id="-89579">
		<tag k="name" v="Damtjennvegen" />
		<tag k="ssr:date" v="2021-10-19" />
		<tag k="ssr:gruppe" v="veg" />
		<tag k="ssr:hovedgruppe" v="infrastruktur" />
		<tag k="ssr:stedsnr" v="1082625" />
		<tag k="ssr:type" v="adressenavn" />
	</node>
	<node lat="63.28245813138133" lon="11.165264860716936" id="-89580">
		<tag k="name" v="Børdalsvegen" />
		<tag k="ssr:date" v="2021-10-19" />
		<tag k="ssr:gruppe" v="veg" />
		<tag k="ssr:hovedgruppe" v="infrastruktur" />
		<tag k="ssr:stedsnr" v="1082623" />
		<tag k="ssr:type" v="adressenavn" />
	</node>
	<node lat="63.34088025790722" lon="11.143737707345565" id="-89581">
		<tag k="name" v="Bakkvollvegen" />
		<tag k="ssr:date" v="2021-11-05" />
		<tag k="ssr:gruppe" v="veg" />
		<tag k="ssr:hovedgruppe" v="infrastruktur" />
		<tag k="ssr:stedsnr" v="1082624" />
		<tag k="ssr:type" v="adressenavn" />
	</node>
	<node lat="63.278461397983854" lon="11.187051548380458" id="-89582">
		<tag k="name" v="Elvådalsvegen" />
		<tag k="ssr:date" v="2021-10-19" />
		<tag k="ssr:gruppe" v="veg" />
		<tag k="ssr:hovedgruppe" v="infrastruktur" />
		<tag k="ssr:stedsnr" v="1082628" />
		<tag k="ssr:type" v="adressenavn" />
	</node>
	<node lat="63.31017924510893" lon="11.198475727824741" id="-89583">
		<tag k="name" v="Børsjøvegen" />
		<tag k="ssr:date" v="2021-10-19" />
		<tag k="ssr:gruppe" v="veg" />
		<tag k="ssr:hovedgruppe" v="infrastruktur" />
		<tag k="ssr:stedsnr" v="1082632" />
		<tag k="ssr:type" v="adressenavn" />
	</node>
	<node lat="63.10697958589982" lon="10.97711362226913" id="-89584">
		<tag k="name" v="Aunlivegen" />
		<tag k="ssr:date" v="2021-10-19" />
		<tag k="ssr:gruppe" v="veg" />
		<tag k="ssr:hovedgruppe" v="infrastruktur" />
		<tag k="ssr:stedsnr" v="1082630" />
		<tag k="ssr:type" v="adressenavn" />
	</node>
	<node lat="63.10718828417786" lon="11.101136638657172" id="-89585">
		<tag k="name" v="Bursåsvegen" />
		<tag k="ssr:date" v="2021-10-19" />
		<tag k="ssr:gruppe" v="veg" />
		<tag k="ssr:hovedgruppe" v="infrastruktur" />
		<tag k="ssr:stedsnr" v="1082631" />
		<tag k="ssr:type" v="adressenavn" />
	</node>
	<node lat="63.218790690081754" lon="11.220842849051204" id="-89586">
		<tag k="name" v="Fossolabekkvegen" />
		<tag k="ssr:date" v="2021-10-19" />
		<tag k="ssr:gruppe" v="veg" />
		<tag k="ssr:hovedgruppe" v="infrastruktur" />
		<tag k="ssr:stedsnr" v="1082637" />
		<tag k="ssr:type" v="adressenavn" />
	</node>
	<node lat="63.103607933094764" lon="10.954317027113616" id="-89587">
		<tag k="name" v="Dissabekkvegen" />
		<tag k="ssr:date" v="2021-10-19" />
		<tag k="ssr:gruppe" v="veg" />
		<tag k="ssr:hovedgruppe" v="infrastruktur" />
		<tag k="ssr:stedsnr" v="1082633" />
		<tag k="ssr:type" v="adressenavn" />
	</node>
	<node lat="63.13129038945524" lon="10.902052562546261" id="-89588">
		<tag k="name" v="Djupåosvegen" />
		<tag k="ssr:date" v="2021-10-19" />
		<tag k="ssr:gruppe" v="veg" />
		<tag k="ssr:hovedgruppe" v="infrastruktur" />
		<tag k="ssr:stedsnr" v="1082634" />
		<tag k="ssr:type" v="adressenavn" />
	</node>
	<node lat="63.12498903021985" lon="10.911951508663217" id="-89589">
		<tag k="name" v="Djupåvegen" />
		<tag k="ssr:date" v="2021-10-19" />
		<tag k="ssr:gruppe" v="veg" />
		<tag k="ssr:hovedgruppe" v="infrastruktur" />
		<tag k="ssr:stedsnr" v="1082635" />
		<tag k="ssr:type" v="adressenavn" />
	</node>
	<node lat="63.102594800474265" lon="10.952142638919234" id="-89591">
		<tag k="name" v="Galliåsvegen" />
		<tag k="ssr:date" v="2021-10-19" />
		<tag k="ssr:gruppe" v="veg" />
		<tag k="ssr:hovedgruppe" v="infrastruktur" />
		<tag k="ssr:stedsnr" v="1082641" />
		<tag k="ssr:type" v="adressenavn" />
	</node>
	<node lat="63.2376457177932" lon="10.683520705203442" id="-89592">
		<tag k="name" v="Småvassvegen" />
		<tag k="ssr:date" v="2021-10-25" />
		<tag k="ssr:gruppe" v="veg" />
		<tag k="ssr:hovedgruppe" v="infrastruktur" />
		<tag k="ssr:stedsnr" v="1082711" />
		<tag k="ssr:type" v="adressenavn" />
	</node>
	<node lat="63.27260549562637" lon="11.0178000013211" id="-89595">
		<tag k="name" v="Stamnesgjardet" />
		<tag k="ssr:date" v="2021-10-25" />
		<tag k="ssr:gruppe" v="veg" />
		<tag k="ssr:hovedgruppe" v="infrastruktur" />
		<tag k="ssr:stedsnr" v="1082712" />
		<tag k="ssr:type" v="adressenavn" />
	</node>
	<node lat="63.14959017174667" lon="11.169278449610498" id="-89597">
		<tag k="name" v="Stokkfjellvegen" />
		<tag k="ssr:date" v="2021-10-13" />
		<tag k="ssr:gruppe" v="veg" />
		<tag k="ssr:hovedgruppe" v="infrastruktur" />
		<tag k="ssr:stedsnr" v="1082574" />
		<tag k="ssr:type" v="adressenavn" />
	</node>
	<node lat="63.09630536657343" lon="10.924971994278698" id="-89598">
		<tag k="name" v="Gammelvollvegen" />
		<tag k="ssr:date" v="2021-10-19" />
		<tag k="ssr:gruppe" v="veg" />
		<tag k="ssr:hovedgruppe" v="infrastruktur" />
		<tag k="ssr:stedsnr" v="1082638" />
		<tag k="ssr:type" v="adressenavn" />
	</node>
	<node lat="63.292026427157985" lon="10.86726623011312" id="-89601">
		<tag k="name" v="Halvfartjennvegen" />
		<tag k="ssr:date" v="2021-10-19" />
		<tag k="ssr:gruppe" v="veg" />
		<tag k="ssr:hovedgruppe" v="infrastruktur" />
		<tag k="ssr:stedsnr" v="1082643" />
		<tag k="ssr:type" v="adressenavn" />
	</node>
	<node lat="63.2110175189893" lon="11.18616171481213" id="-89602">
		<tag k="name" v="Gulltjennåsvegen" />
		<tag k="ssr:date" v="2021-10-19" />
		<tag k="ssr:gruppe" v="veg" />
		<tag k="ssr:hovedgruppe" v="infrastruktur" />
		<tag k="ssr:stedsnr" v="1082642" />
		<tag k="ssr:type" v="adressenavn" />
	</node>
	<node lat="63.1175691493309" lon="11.094639790891028" id="-89604">
		<tag k="name" v="Heggvegen" />
		<tag k="ssr:date" v="2021-10-19" />
		<tag k="ssr:gruppe" v="veg" />
		<tag k="ssr:hovedgruppe" v="infrastruktur" />
		<tag k="ssr:stedsnr" v="1082644" />
		<tag k="ssr:type" v="adressenavn" />
	</node>
	<node lat="63.220445698034126" lon="11.20895820169458" id="-89605">
		<tag k="name" v="Hersjøåsvegen" />
		<tag k="ssr:date" v="2021-10-19" />
		<tag k="ssr:gruppe" v="veg" />
		<tag k="ssr:hovedgruppe" v="infrastruktur" />
		<tag k="ssr:stedsnr" v="1082645" />
		<tag k="ssr:type" v="adressenavn" />
	</node>
	<node lat="63.30876216571117" lon="11.221400490010227" id="-89606">
		<tag k="name" v="Hovsvollvegen" />
		<tag k="ssr:date" v="2021-10-19" />
		<tag k="ssr:gruppe" v="veg" />
		<tag k="ssr:hovedgruppe" v="infrastruktur" />
		<tag k="ssr:stedsnr" v="1082646" />
		<tag k="ssr:type" v="adressenavn" />
	</node>
	<node lat="63.29768316362262" lon="11.034076655361332" id="-89607">
		<tag k="name" v="Hølbekkvegen" />
		<tag k="ssr:date" v="2021-10-19" />
		<tag k="ssr:gruppe" v="veg" />
		<tag k="ssr:hovedgruppe" v="infrastruktur" />
		<tag k="ssr:stedsnr" v="1082647" />
		<tag k="ssr:type" v="adressenavn" />
	</node>
	<node lat="63.17830797690552" lon="11.312442161764467" id="-89609">
		<tag k="name" v="Heståsvegen" />
		<tag k="ssr:date" v="2021-10-19" />
		<tag k="ssr:gruppe" v="veg" />
		<tag k="ssr:hovedgruppe" v="infrastruktur" />
		<tag k="ssr:stedsnr" v="1082651" />
		<tag k="ssr:type" v="adressenavn" />
	</node>
	<node lat="63.10531508030781" lon="11.26106592197086" id="-89611">
		<tag k="name" v="Kløftvollvegen" />
		<tag k="ssr:date" v="2021-10-19" />
		<tag k="ssr:gruppe" v="veg" />
		<tag k="ssr:hovedgruppe" v="infrastruktur" />
		<tag k="ssr:stedsnr" v="1082654" />
		<tag k="ssr:type" v="adressenavn" />
	</node>
	<node lat="63.28268706759714" lon="10.909088685204162" id="-89612">
		<tag k="name" v="Høgdvegen" />
		<tag k="ssr:date" v="2021-10-19" />
		<tag k="ssr:gruppe" v="veg" />
		<tag k="ssr:hovedgruppe" v="infrastruktur" />
		<tag k="ssr:stedsnr" v="1082652" />
		<tag k="ssr:type" v="adressenavn" />
	</node>
	<node lat="63.133483587015895" lon="10.953371975327537" id="-89613">
		<tag k="name" v="Julskardvegen" />
		<tag k="ssr:date" v="2021-10-19" />
		<tag k="ssr:gruppe" v="veg" />
		<tag k="ssr:hovedgruppe" v="infrastruktur" />
		<tag k="ssr:stedsnr" v="1082653" />
		<tag k="ssr:type" v="adressenavn" />
	</node>
	<node lat="63.23823424957871" lon="11.184978996667102" id="-89614">
		<tag k="name" v="Kyllorenvegen" />
		<tag k="ssr:date" v="2021-10-19" />
		<tag k="ssr:gruppe" v="veg" />
		<tag k="ssr:hovedgruppe" v="infrastruktur" />
		<tag k="ssr:stedsnr" v="1082655" />
		<tag k="ssr:type" v="adressenavn" />
	</node>
	<node lat="63.29637461889024" lon="11.22253165467501" id="-89616">
		<tag k="name" v="Langåsvegen" />
		<tag k="ssr:date" v="2021-10-19" />
		<tag k="ssr:gruppe" v="veg" />
		<tag k="ssr:hovedgruppe" v="infrastruktur" />
		<tag k="ssr:stedsnr" v="1082656" />
		<tag k="ssr:type" v="adressenavn" />
	</node>
	<node lat="63.23064254277818" lon="11.183703627701805" id="-89623">
		<tag k="name" v="Nordre Hersjøvegen" />
		<tag k="ssr:date" v="2021-10-20" />
		<tag k="ssr:gruppe" v="veg" />
		<tag k="ssr:hovedgruppe" v="infrastruktur" />
		<tag k="ssr:stedsnr" v="1082663" />
		<tag k="ssr:type" v="adressenavn" />
	</node>
	<node lat="63.16137340128593" lon="10.989715727254033" id="-89625">
		<tag k="name" v="Nåldalsvegen" />
		<tag k="ssr:date" v="2021-10-20" />
		<tag k="ssr:gruppe" v="veg" />
		<tag k="ssr:hovedgruppe" v="infrastruktur" />
		<tag k="ssr:stedsnr" v="1082665" />
		<tag k="ssr:type" v="adressenavn" />
	</node>
	<node lat="63.12984027524125" lon="10.899806530870297" id="-89628">
		<tag k="name" v="Setertjennbekkvegen" />
		<tag k="ssr:date" v="2021-10-20" />
		<tag k="ssr:gruppe" v="veg" />
		<tag k="ssr:hovedgruppe" v="infrastruktur" />
		<tag k="ssr:stedsnr" v="1082670" />
		<tag k="ssr:type" v="adressenavn" />
	</node>
	<node lat="63.096192932194086" lon="10.946491122969858" id="-89629">
		<tag k="name" v="Råvollvegen" />
		<tag k="ssr:date" v="2021-10-20" />
		<tag k="ssr:gruppe" v="veg" />
		<tag k="ssr:hovedgruppe" v="infrastruktur" />
		<tag k="ssr:stedsnr" v="1082669" />
		<tag k="ssr:type" v="adressenavn" />
	</node>
	<node lat="63.26342440712028" lon="11.074145309726823" id="-89634">
		<tag k="name" v="Sirhaugvegen" />
		<tag k="ssr:date" v="2021-10-20" />
		<tag k="ssr:gruppe" v="veg" />
		<tag k="ssr:hovedgruppe" v="infrastruktur" />
		<tag k="ssr:stedsnr" v="1082674" />
		<tag k="ssr:type" v="adressenavn" />
	</node>
	<node lat="63.1800174586969" lon="10.848424039242666" id="-89635">
		<tag k="name" v="Hallvardbjørgvegen" />
		<tag k="ssr:date" v="2021-10-20" />
		<tag k="ssr:gruppe" v="veg" />
		<tag k="ssr:hovedgruppe" v="infrastruktur" />
		<tag k="ssr:stedsnr" v="1082676" />
		<tag k="ssr:type" v="adressenavn" />
	</node>
	<node lat="63.215062531573444" lon="11.253523109176724" id="-89636">
		<tag k="name" v="Åtollvegen" />
		<tag k="ssr:date" v="2021-10-25" />
		<tag k="ssr:gruppe" v="veg" />
		<tag k="ssr:hovedgruppe" v="infrastruktur" />
		<tag k="ssr:stedsnr" v="1082743" />
		<tag k="ssr:type" v="adressenavn" />
	</node>
	<node lat="63.21297966557797" lon="11.186606128878966" id="-89637">
		<tag k="name" v="Kjølset" />
		<tag k="ssr:date" v="2021-10-25" />
		<tag k="ssr:gruppe" v="veg" />
		<tag k="ssr:hovedgruppe" v="infrastruktur" />
		<tag k="ssr:stedsnr" v="1082744" />
		<tag k="ssr:type" v="adressenavn" />
	</node>
	<node lat="63.306698125511495" lon="10.943686983006598" id="-89638">
		<tag k="name" v="Strandbyggfjellet" />
		<tag k="ssr:date" v="2021-11-03" />
		<tag k="ssr:gruppe" v="veg" />
		<tag k="ssr:hovedgruppe" v="infrastruktur" />
		<tag k="ssr:stedsnr" v="1082797" />
		<tag k="ssr:type" v="adressenavn" />
	</node>
	<node lat="63.28971978177012" lon="11.243453904457224" id="-89639">
		<tag k="name" v="Stråsjøen" />
		<tag k="ssr:date" v="2021-11-03" />
		<tag k="ssr:gruppe" v="veg" />
		<tag k="ssr:hovedgruppe" v="infrastruktur" />
		<tag k="ssr:stedsnr" v="1082798" />
		<tag k="ssr:type" v="adressenavn" />
	</node>
	<node lat="63.092850398124526" lon="10.961944875349888" id="-89641">
		<tag k="name" v="Storlia" />
		<tag k="ssr:date" v="2021-11-03" />
		<tag k="ssr:gruppe" v="veg" />
		<tag k="ssr:hovedgruppe" v="infrastruktur" />
		<tag k="ssr:stedsnr" v="1082800" />
		<tag k="ssr:type" v="adressenavn" />
	</node>
	<node lat="63.147247536391895" lon="10.877607774562692" id="-89643">
		<tag k="name" v="Storrvegen" />
		<tag k="ssr:date" v="2021-11-03" />
		<tag k="ssr:gruppe" v="veg" />
		<tag k="ssr:hovedgruppe" v="infrastruktur" />
		<tag k="ssr:stedsnr" v="1082802" />
		<tag k="ssr:type" v="adressenavn" />
	</node>
	<node lat="63.27452175646218" lon="11.22936558006696" id="-89645">
		<tag k="name" v="Puttvollbjørgvegen" />
		<tag k="ssr:date" v="2021-11-03" />
		<tag k="ssr:gruppe" v="veg" />
		<tag k="ssr:hovedgruppe" v="infrastruktur" />
		<tag k="ssr:stedsnr" v="1082804" />
		<tag k="ssr:type" v="adressenavn" />
	</node>
	<node lat="63.29976699769878" lon="10.935101654132987" id="-89646">
		<tag k="name" v="Vestre Svendalsvegen" />
		<tag k="ssr:date" v="2021-11-03" />
		<tag k="ssr:gruppe" v="veg" />
		<tag k="ssr:hovedgruppe" v="infrastruktur" />
		<tag k="ssr:stedsnr" v="1082805" />
		<tag k="ssr:type" v="adressenavn" />
	</node>
	<node lat="63.216276638363084" lon="11.207879535658645" id="-89647">
		<tag k="name" v="Pålåsen" />
		<tag k="ssr:date" v="2021-11-03" />
		<tag k="ssr:gruppe" v="veg" />
		<tag k="ssr:hovedgruppe" v="infrastruktur" />
		<tag k="ssr:stedsnr" v="1082806" />
		<tag k="ssr:type" v="adressenavn" />
	</node>
	<node lat="63.22007010453671" lon="11.17904494944922" id="-89650">
		<tag k="name" v="Vollanvegen" />
		<tag k="ssr:date" v="2021-11-05" />
		<tag k="ssr:gruppe" v="veg" />
		<tag k="ssr:hovedgruppe" v="infrastruktur" />
		<tag k="ssr:stedsnr" v="1082826" />
		<tag k="ssr:type" v="adressenavn" />
	</node>
	<node lat="63.114586771162806" lon="10.931757773420893" id="-89652">
		<tag k="name" v="Skjeftesosvegen" />
		<tag k="ssr:date" v="2021-10-25" />
		<tag k="ssr:gruppe" v="veg" />
		<tag k="ssr:hovedgruppe" v="infrastruktur" />
		<tag k="ssr:stedsnr" v="1082715" />
		<tag k="ssr:type" v="adressenavn" />
	</node>
	<node lat="63.19752551216431" lon="11.240402924420376" id="-89655">
		<tag k="name" v="Sternesvegen" />
		<tag k="ssr:date" v="2021-10-25" />
		<tag k="ssr:gruppe" v="veg" />
		<tag k="ssr:hovedgruppe" v="infrastruktur" />
		<tag k="ssr:stedsnr" v="1082718" />
		<tag k="ssr:type" v="adressenavn" />
	</node>
	<node lat="63.19109655471906" lon="10.861317718100452" id="-89657">
		<tag k="name" v="Stormyråsvegen" />
		<tag k="ssr:date" v="2021-10-25" />
		<tag k="ssr:gruppe" v="veg" />
		<tag k="ssr:hovedgruppe" v="infrastruktur" />
		<tag k="ssr:stedsnr" v="1082721" />
		<tag k="ssr:type" v="adressenavn" />
	</node>
	<node lat="63.28735340046902" lon="11.004952503215634" id="-89658">
		<tag k="name" v="Svartåsvegen" />
		<tag k="ssr:date" v="2021-10-25" />
		<tag k="ssr:gruppe" v="veg" />
		<tag k="ssr:hovedgruppe" v="infrastruktur" />
		<tag k="ssr:stedsnr" v="1082722" />
		<tag k="ssr:type" v="adressenavn" />
	</node>
	<node lat="63.1107996485681" lon="11.102805753908713" id="-89659">
		<tag k="name" v="Svartbekkvegen" />
		<tag k="ssr:date" v="2021-10-25" />
		<tag k="ssr:gruppe" v="veg" />
		<tag k="ssr:hovedgruppe" v="infrastruktur" />
		<tag k="ssr:stedsnr" v="1082723" />
		<tag k="ssr:type" v="adressenavn" />
	</node>
	<node lat="63.194876952376205" lon="11.274923516565556" id="-89660">
		<tag k="name" v="Svarttjenndalsvegen" />
		<tag k="ssr:date" v="2021-10-25" />
		<tag k="ssr:gruppe" v="veg" />
		<tag k="ssr:hovedgruppe" v="infrastruktur" />
		<tag k="ssr:stedsnr" v="1082725" />
		<tag k="ssr:type" v="adressenavn" />
	</node>
	<node lat="63.28081389412864" lon="10.999649978734746" id="-89661">
		<tag k="name" v="Svarttjenndalsvegen" />
		<tag k="ssr:date" v="2021-10-25" />
		<tag k="ssr:gruppe" v="veg" />
		<tag k="ssr:hovedgruppe" v="infrastruktur" />
		<tag k="ssr:stedsnr" v="1082724" />
		<tag k="ssr:type" v="adressenavn" />
	</node>
	<node lat="63.29299737849423" lon="10.932897084507985" id="-89663">
		<tag k="name" v="Svendalsvegen" />
		<tag k="ssr:date" v="2021-10-25" />
		<tag k="ssr:gruppe" v="veg" />
		<tag k="ssr:hovedgruppe" v="infrastruktur" />
		<tag k="ssr:stedsnr" v="1082726" />
		<tag k="ssr:type" v="adressenavn" />
	</node>
	<node lat="63.14857941090477" lon="10.96779566261755" id="-89665">
		<tag k="name" v="Sørungvegen" />
		<tag k="ssr:date" v="2021-10-25" />
		<tag k="ssr:gruppe" v="veg" />
		<tag k="ssr:hovedgruppe" v="infrastruktur" />
		<tag k="ssr:stedsnr" v="1082730" />
		<tag k="ssr:type" v="adressenavn" />
	</node>
	<node lat="63.20773983214557" lon="11.183780611051574" id="-89666">
		<tag k="name" v="Søndre Hersjøvegen" />
		<tag k="ssr:date" v="2021-10-25" />
		<tag k="ssr:gruppe" v="veg" />
		<tag k="ssr:hovedgruppe" v="infrastruktur" />
		<tag k="ssr:stedsnr" v="1082729" />
		<tag k="ssr:type" v="adressenavn" />
	</node>
	<node lat="63.32003681816419" lon="11.121129849194288" id="-89667">
		<tag k="name" v="Tømmerdalsvegen" />
		<tag k="ssr:date" v="2021-10-25" />
		<tag k="ssr:gruppe" v="veg" />
		<tag k="ssr:hovedgruppe" v="infrastruktur" />
		<tag k="ssr:stedsnr" v="1082731" />
		<tag k="ssr:type" v="adressenavn" />
	</node>
	<node lat="63.08428828541602" lon="11.302489706209755" id="-89669">
		<tag k="name" v="Usmevegen" />
		<tag k="ssr:date" v="2021-10-25" />
		<tag k="ssr:gruppe" v="veg" />
		<tag k="ssr:hovedgruppe" v="infrastruktur" />
		<tag k="ssr:stedsnr" v="1082732" />
		<tag k="ssr:type" v="adressenavn" />
	</node>
	<node lat="63.286594186071596" lon="10.789967037351424" id="-89670">
		<tag k="name" v="Vollbjørgvegen" />
		<tag k="ssr:date" v="2021-10-25" />
		<tag k="ssr:gruppe" v="veg" />
		<tag k="ssr:hovedgruppe" v="infrastruktur" />
		<tag k="ssr:stedsnr" v="1082733" />
		<tag k="ssr:type" v="adressenavn" />
	</node>
	<node lat="63.32571452760469" lon="11.239878721157622" id="-89671">
		<tag k="name" v="Varghaugvegen" />
		<tag k="ssr:date" v="2021-10-25" />
		<tag k="ssr:gruppe" v="veg" />
		<tag k="ssr:hovedgruppe" v="infrastruktur" />
		<tag k="ssr:stedsnr" v="1082734" />
		<tag k="ssr:type" v="adressenavn" />
	</node>
	<node lat="63.152522602897854" lon="11.107379542057963" id="-89673">
		<tag k="name" v="Østrungsvegen" />
		<tag k="ssr:date" v="2021-10-25" />
		<tag k="ssr:gruppe" v="veg" />
		<tag k="ssr:hovedgruppe" v="infrastruktur" />
		<tag k="ssr:stedsnr" v="1082737" />
		<tag k="ssr:type" v="adressenavn" />
	</node>
	<node lat="63.15073173465979" lon="10.856617371409966" id="-89675">
		<tag k="name" v="Ånbekkvegen" />
		<tag k="ssr:date" v="2021-10-25" />
		<tag k="ssr:gruppe" v="veg" />
		<tag k="ssr:hovedgruppe" v="infrastruktur" />
		<tag k="ssr:stedsnr" v="1082738" />
		<tag k="ssr:type" v="adressenavn" />
	</node>
	<node lat="63.215062531573444" lon="11.253523109176724" id="-89677">
		<tag k="name" v="Åtollvegen" />
		<tag k="ssr:date" v="2021-10-25" />
		<tag k="ssr:gruppe" v="veg" />
		<tag k="ssr:hovedgruppe" v="infrastruktur" />
		<tag k="ssr:stedsnr" v="1082742" />
		<tag k="ssr:type" v="adressenavn" />
	</node>
</osm>
