<?xml version="1.0" encoding="UTF-8"?>
<osm version="0.6" generator="osmapis">
	<node lat="63.1904194489403" lon="11.122552777194542" id="-44565">
		<tag k="building" v="industrial" />
		<tag k="industrial" v="factory" />
		<tag k="old_name" v="Mosletta sagbruk" />
		<tag k="ssr:date" v="2021-10-07" />
		<tag k="ssr:gruppe" v="næring" />
		<tag k="ssr:hovedgruppe" v="bebyggelse" />
		<tag k="ssr:stedsnr" v="462527" />
		<tag k="ssr:type" v="fabrikk" />
	</node>
	<node lat="63.276125000665544" lon="11.032900003376833" id="-44786">
		<tag k="loc_name" v="Mogrenda" />
		<tag k="place" v="hamlet" />
		<tag k="ssr:date" v="2018-01-09" />
		<tag k="ssr:gruppe" v="bebyggelsesområder" />
		<tag k="ssr:hovedgruppe" v="bebyggelse" />
		<tag k="ssr:stedsnr" v="450905" />
		<tag k="ssr:type" v="grend" />
	</node>
	<node lat="63.19843486420254" lon="11.140802738687995" id="-45323">
		<tag k="building" v="industrial" />
		<tag k="industrial" v="factory" />
		<tag k="old_name" v="Mølnå Bruk" />
		<tag k="ssr:date" v="2021-10-07" />
		<tag k="ssr:gruppe" v="næring" />
		<tag k="ssr:hovedgruppe" v="bebyggelse" />
		<tag k="ssr:stedsnr" v="702023" />
		<tag k="ssr:type" v="fabrikk" />
	</node>
	<node lat="63.18521111456901" lon="10.940800005365826" id="-47102">
		<tag k="natural" v="wetland" />
		<tag k="old_name" v="Veltamyra" />
		<tag k="ssr:date" v="2018-01-09" />
		<tag k="ssr:gruppe" v="våtmark" />
		<tag k="ssr:hovedgruppe" v="markslag" />
		<tag k="ssr:stedsnr" v="522498" />
		<tag k="ssr:type" v="myr" />
	</node>
	<node lat="63.18090278044554" lon="10.929327785073406" id="-47127">
		<tag k="natural" v="wetland" />
		<tag k="old_name" v="Avliåsmyra" />
		<tag k="ssr:date" v="2018-01-09" />
		<tag k="ssr:gruppe" v="våtmark" />
		<tag k="ssr:hovedgruppe" v="markslag" />
		<tag k="ssr:stedsnr" v="523292" />
		<tag k="ssr:type" v="myr" />
	</node>
	<node lat="63.21903055225605" lon="10.9294749925752" id="-47295">
		<tag k="old_name" v="Israelsodden" />
		<tag k="place" v="farm" />
		<tag k="ssr:date" v="2018-01-09" />
		<tag k="ssr:gruppe" v="gardsbebyggelse" />
		<tag k="ssr:hovedgruppe" v="bebyggelse" />
		<tag k="ssr:stedsnr" v="583017" />
		<tag k="ssr:type" v="bruk" />
	</node>
</osm>
