<?xml version="1.0" encoding="UTF-8"?>
<osm version="0.6" generator="osmapis">
	<node id="447967895" lat="61.1918639" lon="7.0227959" version="5" timestamp="2018-09-06T03:59:02Z" changeset="62329170" uid="715936" user="Gazer75">
		<tag k="name" v="Fardal" />
		<tag k="place" v="hamlet" />
		<tag k="ssr:stedsnr" v="252044" />
	</node>
	<node id="447967900" lat="61.1603697" lon="6.9871813" version="6" timestamp="2018-09-06T03:59:02Z" changeset="62329170" uid="715936" user="Gazer75">
		<tag k="name" v="Nornes" />
		<tag k="place" v="hamlet" />
		<tag k="ssr:stedsnr" v="390797" />
	</node>
	<node id="2394539471" lat="61.2193097" lon="6.5090441" version="3" timestamp="2018-09-12T11:51:58Z" changeset="62517957" uid="715936" user="Gazer75">
		<tag k="name" v="Bakkeviki" />
		<tag k="natural" v="bay" />
		<tag k="ssr:stedsnr" v="712901" />
	</node>
	<node id="5901702363" lat="61.1373215" lon="6.5269089" version="1" timestamp="2018-09-12T11:51:53Z" changeset="62517957" uid="715936" user="Gazer75">
		<tag k="name" v="Målsnes" />
		<tag k="place" v="farm" />
		<tag k="ssr:stedsnr" v="859635" />
	</node>
	<node id="5901702364" lat="61.1557945" lon="6.5374875" version="1" timestamp="2018-09-12T11:51:53Z" changeset="62517957" uid="715936" user="Gazer75">
		<tag k="alt_name" v="Hanevik" />
		<tag k="name" v="Hanaviki" />
		<tag k="place" v="farm" />
		<tag k="ssr:stedsnr" v="737645" />
	</node>
	<node id="5901702365" lat="61.1654409" lon="6.5406847" version="1" timestamp="2018-09-12T11:51:53Z" changeset="62517957" uid="715936" user="Gazer75">
		<tag k="name" v="Stokkabø" />
		<tag k="place" v="farm" />
		<tag k="ssr:stedsnr" v="313637" />
	</node>
	<node id="5901702366" lat="61.1713132" lon="6.5410066" version="1" timestamp="2018-09-12T11:51:53Z" changeset="62517957" uid="715936" user="Gazer75">
		<tag k="alt_name" v="Flesje" />
		<tag k="name" v="Flesjane" />
		<tag k="place" v="farm" />
		<tag k="ssr:stedsnr" v="798680" />
	</node>
	<node id="5901702367" lat="61.1805877" lon="6.533947" version="1" timestamp="2018-09-12T11:51:54Z" changeset="62517957" uid="715936" user="Gazer75">
		<tag k="alt_name" v="Thue" />
		<tag k="name" v="Tue" />
		<tag k="place" v="farm" />
		<tag k="ssr:stedsnr" v="798691" />
	</node>
	<node id="5901702368" lat="61.1885901" lon="6.523996" version="1" timestamp="2018-09-12T11:51:54Z" changeset="62517957" uid="715936" user="Gazer75">
		<tag k="name" v="Bruhjell" />
		<tag k="place" v="farm" />
		<tag k="ssr:stedsnr" v="676723" />
	</node>
	<node id="5901702486" lat="61.2155403" lon="6.55357" version="1" timestamp="2018-09-12T11:51:54Z" changeset="62517957" uid="715936" user="Gazer75">
		<tag k="name" v="Lunde" />
		<tag k="place" v="farm" />
		<tag k="ssr:stedsnr" v="798674" />
	</node>
	<node id="5901702487" lat="61.214941" lon="6.5459418" version="1" timestamp="2018-09-12T11:51:54Z" changeset="62517957" uid="715936" user="Gazer75">
		<tag k="name" v="Tjugum" />
		<tag k="place" v="farm" />
		<tag k="ssr:stedsnr" v="591884" />
	</node>
	<node id="5901702488" lat="61.2173846" lon="6.5323269" version="1" timestamp="2018-09-12T11:51:54Z" changeset="62517957" uid="715936" user="Gazer75">
		<tag k="name" v="Gjerde" />
		<tag k="place" v="farm" />
		<tag k="ssr:stedsnr" v="555660" />
	</node>
	<node id="5901702489" lat="61.2181491" lon="6.5240765" version="1" timestamp="2018-09-12T11:51:54Z" changeset="62517957" uid="715936" user="Gazer75">
		<tag k="name" v="Grøneng" />
		<tag k="place" v="farm" />
		<tag k="ssr:stedsnr" v="434665" />
	</node>
	<node id="5901702495" lat="61.2200293" lon="6.509673" version="1" timestamp="2018-09-12T11:51:54Z" changeset="62517957" uid="715936" user="Gazer75">
		<tag k="name" v="Bakken" />
		<tag k="place" v="farm" />
		<tag k="ssr:stedsnr" v="70701" />
	</node>
	<node id="5901702496" lat="61.2205459" lon="6.5036809" version="1" timestamp="2018-09-12T11:51:54Z" changeset="62517957" uid="715936" user="Gazer75">
		<tag k="name" v="Skrednes" />
		<tag k="place" v="farm" />
		<tag k="ssr:stedsnr" v="373714" />
	</node>
	<node id="5901702497" lat="61.2253802" lon="6.4902913" version="1" timestamp="2018-09-12T11:51:54Z" changeset="62517957" uid="715936" user="Gazer75">
		<tag k="alt_name" v="Hjelseng" />
		<tag k="name" v="Hjellsengi" />
		<tag k="place" v="farm" />
		<tag k="ssr:stedsnr" v="737682" />
	</node>
	<node id="5901702498" lat="61.2238566" lon="6.4935207" version="1" timestamp="2018-09-12T11:51:54Z" changeset="62517957" uid="715936" user="Gazer75">
		<tag k="alt_name" v="Kvalheim" />
		<tag k="name" v="Kvaleim" />
		<tag k="place" v="farm" />
		<tag k="ssr:stedsnr" v="70702" />
	</node>
	<node id="5901702502" lat="61.2294909" lon="6.4831138" version="1" timestamp="2018-09-12T11:51:54Z" changeset="62517957" uid="715936" user="Gazer75">
		<tag k="name" v="Esebotn" />
		<tag k="place" v="locality" />
		<tag k="ssr:stedsnr" v="555663" />
	</node>
	<node id="5901702503" lat="61.2156436" lon="6.4906454" version="1" timestamp="2018-09-12T11:51:54Z" changeset="62517957" uid="715936" user="Gazer75">
		<tag k="name" v="Indre Ese" />
		<tag k="place" v="farm" />
		<tag k="ssr:stedsnr" v="959679" />
	</node>
	<node id="5901702504" lat="61.2138819" lon="6.4940035" version="1" timestamp="2018-09-12T11:51:55Z" changeset="62517957" uid="715936" user="Gazer75">
		<tag k="name" v="Ytre Ese" />
		<tag k="place" v="farm" />
		<tag k="ssr:stedsnr" v="9686" />
	</node>
	<node id="9088871435" lat="61.1524704" lon="7.1614827" version="1" timestamp="2021-09-13T18:16:15Z" changeset="111159385" uid="435265" user="Ansgar G Grimsrud">
		<tag k="name" v="Viki" />
		<tag k="place" v="isolated_dwelling" />
		<tag k="ssr:date" v="2019-12-27" />
		<tag k="ssr:gruppe" v="bolighus" />
		<tag k="ssr:hovedgruppe" v="bebyggelse" />
		<tag k="ssr:stedsnr" v="419815" />
		<tag k="ssr:type" v="eneboligMindreBoligbygg" />
	</node>
	<node id="9088871453" lat="61.210442" lon="7.1732724" version="1" timestamp="2021-09-13T18:16:15Z" changeset="111159385" uid="435265" user="Ansgar G Grimsrud">
		<tag k="name" v="Kvernasvadet" />
		<tag k="place" v="isolated_dwelling" />
		<tag k="ssr:date" v="2019-12-27" />
		<tag k="ssr:gruppe" v="bolighus" />
		<tag k="ssr:hovedgruppe" v="bebyggelse" />
		<tag k="ssr:stedsnr" v="616256" />
		<tag k="ssr:type" v="eneboligMindreBoligbygg" />
	</node>
</osm>
