<?xml version="1.0" encoding="UTF-8"?>
<osm generator="osmapis" version="0.6">
	<node id="-200427" lat="59.563280555" lon="10.4085333314">
		<tag k="name" v="Kroksberget" />
		<tag k="ssr:date" v="2016-05-10" />
		<tag k="ssr:gruppe" v="navigasjon" />
		<tag k="ssr:hovedgruppe" v="infrastruktur" />
		<tag k="ssr:stedsnr" v="124635" />
		<tag k="ssr:type" v="fyrlykt" />
	</node>
	<node id="-200543" lat="59.596073018" lon="10.4221560251">
		<tag k="loc_name" v="Svelvikrenna søndre lykt" />
		<tag k="name" v="Søndre Svelvikrenna" />
		<tag k="ssr:date" v="2018-08-14" />
		<tag k="ssr:gruppe" v="navigasjon" />
		<tag k="ssr:hovedgruppe" v="infrastruktur" />
		<tag k="ssr:stedsnr" v="630188" />
		<tag k="ssr:type" v="fyrlykt" />
	</node>
	<node id="-200665" lat="60.5908609473" lon="9.63819281559">
		<tag k="fixme" v="multiple name tags, choose one and add the other to alt_name" />
		<tag k="name" v="Austlandet;Østlandet" />
		<tag k="ssr:date" v="2018-01-09" />
		<tag k="ssr:gruppe" v="administrativeIndelinger" />
		<tag k="ssr:hovedgruppe" v="offentligAdministrasjon" />
		<tag k="ssr:stedsnr" v="974775" />
		<tag k="ssr:type" v="annenAdministrativInndeling" />
	</node>
	<node id="-200534" lat="59.6063527821" lon="10.4121249987">
		<tag k="alt_name" v="Batteriøy" />
		<tag k="name" v="Batteriøya" />
		<tag k="ssr:date" v="2016-05-10" />
		<tag k="ssr:gruppe" v="navigasjon" />
		<tag k="ssr:hovedgruppe" v="infrastruktur" />
		<tag k="ssr:stedsnr" v="599009" />
		<tag k="ssr:type" v="fyrlykt" />
	</node>
	<node id="-200404" lat="59.6768916623" lon="10.3745861041">
		<tag k="name" v="Sandtangen" />
		<tag k="ssr:date" v="2016-05-10" />
		<tag k="ssr:gruppe" v="navigasjon" />
		<tag k="ssr:hovedgruppe" v="infrastruktur" />
		<tag k="ssr:stedsnr" v="3844" />
		<tag k="ssr:type" v="fyrlykt" />
	</node>
	<node id="-200403" lat="59.6833555592" lon="10.3627722201">
		<tag k="name" v="Steinsbråtan" />
		<tag k="ssr:date" v="2016-05-10" />
		<tag k="ssr:gruppe" v="navigasjon" />
		<tag k="ssr:hovedgruppe" v="infrastruktur" />
		<tag k="ssr:stedsnr" v="3748" />
		<tag k="ssr:type" v="fyrlykt" />
	</node>
	<node id="-200646" lat="59.623533012" lon="10.4128728633">
		<tag k="alt_name" v="Blindeskjæra" />
		<tag k="loc_name" v="Blindeskjær lykt" />
		<tag k="name" v="Blindeskjær" />
		<tag k="old_name" v="Blindeskjer" />
		<tag k="ssr:date" v="2018-08-14" />
		<tag k="ssr:gruppe" v="navigasjon" />
		<tag k="ssr:hovedgruppe" v="infrastruktur" />
		<tag k="ssr:stedsnr" v="913633" />
		<tag k="ssr:type" v="fyrlykt" />
	</node>
	<node id="-200512" lat="59.6125083374" lon="10.4091749997">
		<tag k="name" v="Svelvik" />
		<tag k="ssr:date" v="2016-05-10" />
		<tag k="ssr:gruppe" v="navigasjon" />
		<tag k="ssr:hovedgruppe" v="infrastruktur" />
		<tag k="ssr:stedsnr" v="539084" />
		<tag k="ssr:type" v="fyrlykt" />
	</node>
	<node id="-200351" lat="59.5974792174" lon="10.3828408422">
		<tag k="name" v="Kirkestuvollen" />
		<tag k="ssr:date" v="2019-05-31" />
		<tag k="ssr:gruppe" v="veg" />
		<tag k="ssr:hovedgruppe" v="infrastruktur" />
		<tag k="ssr:stedsnr" v="1043240" />
		<tag k="ssr:type" v="adressenavn" />
	</node>
	<node id="-200374" lat="59.6064138928" lon="10.4121472151">
		<tag k="name" v="Batteriøya, nedre" />
		<tag k="ssr:date" v="2016-05-10" />
		<tag k="ssr:gruppe" v="navigasjon" />
		<tag k="ssr:hovedgruppe" v="infrastruktur" />
		<tag k="ssr:stedsnr" v="367610" />
		<tag k="ssr:type" v="fyrlykt" />
	</node>
	<node id="-200629" lat="59.6147666664" lon="10.407233335">
		<tag k="name" v="Brenna" />
		<tag k="ssr:date" v="2016-05-11" />
		<tag k="ssr:gruppe" v="navigasjon" />
		<tag k="ssr:hovedgruppe" v="infrastruktur" />
		<tag k="ssr:stedsnr" v="875204" />
		<tag k="ssr:type" v="fyrlykt" />
	</node>
	<node id="-200335" lat="59.6681985566" lon="10.3159643128">
		<tag k="name" v="Søndre Øksnevann" />
		<tag k="ssr:date" v="2019-05-31" />
		<tag k="ssr:gruppe" v="veg" />
		<tag k="ssr:hovedgruppe" v="infrastruktur" />
		<tag k="ssr:stedsnr" v="1043217" />
		<tag k="ssr:type" v="adressenavn" />
	</node>
	<node id="-200359" lat="59.6391181615" lon="10.3527031201">
		<tag k="name" v="Bollstein" />
		<tag k="ssr:date" v="2019-05-31" />
		<tag k="ssr:gruppe" v="veg" />
		<tag k="ssr:hovedgruppe" v="infrastruktur" />
		<tag k="ssr:stedsnr" v="1043254" />
		<tag k="ssr:type" v="adressenavn" />
	</node>
	<node id="-200358" lat="59.5715599303" lon="10.3424301752">
		<tag k="name" v="Blindevann" />
		<tag k="ssr:date" v="2019-05-31" />
		<tag k="ssr:gruppe" v="veg" />
		<tag k="ssr:hovedgruppe" v="infrastruktur" />
		<tag k="ssr:stedsnr" v="1043253" />
		<tag k="ssr:type" v="adressenavn" />
	</node>
	<node id="-200357" lat="59.6266359136" lon="10.3736489108">
		<tag k="name" v="Ebbestadvannet" />
		<tag k="ssr:date" v="2019-05-31" />
		<tag k="ssr:gruppe" v="veg" />
		<tag k="ssr:hovedgruppe" v="infrastruktur" />
		<tag k="ssr:stedsnr" v="1043251" />
		<tag k="ssr:type" v="adressenavn" />
	</node>
	<node id="-200356" lat="59.614922625" lon="10.3617928551">
		<tag k="name" v="Damvann" />
		<tag k="ssr:date" v="2019-05-31" />
		<tag k="ssr:gruppe" v="veg" />
		<tag k="ssr:hovedgruppe" v="infrastruktur" />
		<tag k="ssr:stedsnr" v="1043250" />
		<tag k="ssr:type" v="adressenavn" />
	</node>
	<node id="-200355" lat="59.6019662537" lon="10.3418901499">
		<tag k="name" v="Furuholmen" />
		<tag k="ssr:date" v="2019-05-31" />
		<tag k="ssr:gruppe" v="veg" />
		<tag k="ssr:hovedgruppe" v="infrastruktur" />
		<tag k="ssr:stedsnr" v="1043247" />
		<tag k="ssr:type" v="adressenavn" />
	</node>
	<node id="-200354" lat="59.6218199864" lon="10.3450116452">
		<tag k="name" v="Fjellheim" />
		<tag k="ssr:date" v="2019-05-31" />
		<tag k="ssr:gruppe" v="veg" />
		<tag k="ssr:hovedgruppe" v="infrastruktur" />
		<tag k="ssr:stedsnr" v="1043245" />
		<tag k="ssr:type" v="adressenavn" />
	</node>
	<node id="-200353" lat="59.6118845501" lon="10.371504746">
		<tag k="name" v="Hellumvann" />
		<tag k="ssr:date" v="2019-05-31" />
		<tag k="ssr:gruppe" v="veg" />
		<tag k="ssr:hovedgruppe" v="infrastruktur" />
		<tag k="ssr:stedsnr" v="1043244" />
		<tag k="ssr:type" v="adressenavn" />
	</node>
	<node id="-200352" lat="59.6759312855" lon="10.3154968094">
		<tag k="name" v="Hansåsen" />
		<tag k="ssr:date" v="2019-05-31" />
		<tag k="ssr:gruppe" v="veg" />
		<tag k="ssr:hovedgruppe" v="infrastruktur" />
		<tag k="ssr:stedsnr" v="1043241" />
		<tag k="ssr:type" v="adressenavn" />
	</node>
	<node id="-200607" lat="59.6018138885" lon="10.4172861157">
		<tag k="name" v="Nordre Svelvikrenna" />
		<tag k="ssr:date" v="2016-05-11" />
		<tag k="ssr:gruppe" v="navigasjon" />
		<tag k="ssr:hovedgruppe" v="infrastruktur" />
		<tag k="ssr:stedsnr" v="813147" />
		<tag k="ssr:type" v="fyrlykt" />
	</node>
	<node id="-200350" lat="59.6016368486" lon="10.375818003">
		<tag k="name" v="Hellumåsen" />
		<tag k="ssr:date" v="2019-05-31" />
		<tag k="ssr:gruppe" v="veg" />
		<tag k="ssr:hovedgruppe" v="infrastruktur" />
		<tag k="ssr:stedsnr" v="1043239" />
		<tag k="ssr:type" v="adressenavn" />
	</node>
	<node id="-200349" lat="59.6797549683" lon="10.3116757167">
		<tag k="name" v="Mellomdammen" />
		<tag k="ssr:date" v="2019-05-31" />
		<tag k="ssr:gruppe" v="veg" />
		<tag k="ssr:hovedgruppe" v="infrastruktur" />
		<tag k="ssr:stedsnr" v="1043238" />
		<tag k="ssr:type" v="adressenavn" />
	</node>
	<node id="-200348" lat="59.6518072649" lon="10.3473919707">
		<tag k="name" v="Knektedammen" />
		<tag k="ssr:date" v="2019-05-31" />
		<tag k="ssr:gruppe" v="veg" />
		<tag k="ssr:hovedgruppe" v="infrastruktur" />
		<tag k="ssr:stedsnr" v="1043237" />
		<tag k="ssr:type" v="adressenavn" />
	</node>
	<node id="-200347" lat="59.5872462675" lon="10.3571546832">
		<tag k="name" v="Myrestulen" />
		<tag k="ssr:date" v="2019-05-31" />
		<tag k="ssr:gruppe" v="veg" />
		<tag k="ssr:hovedgruppe" v="infrastruktur" />
		<tag k="ssr:stedsnr" v="1043235" />
		<tag k="ssr:type" v="adressenavn" />
	</node>
	<node id="-200346" lat="59.6265712914" lon="10.3382190834">
		<tag k="name" v="Midtre Svanevann" />
		<tag k="ssr:date" v="2019-05-31" />
		<tag k="ssr:gruppe" v="veg" />
		<tag k="ssr:hovedgruppe" v="infrastruktur" />
		<tag k="ssr:stedsnr" v="1043234" />
		<tag k="ssr:type" v="adressenavn" />
	</node>
	<node id="-200345" lat="59.6521882867" lon="10.3381586629">
		<tag k="name" v="Nessetervann" />
		<tag k="ssr:date" v="2019-05-31" />
		<tag k="ssr:gruppe" v="veg" />
		<tag k="ssr:hovedgruppe" v="infrastruktur" />
		<tag k="ssr:stedsnr" v="1043232" />
		<tag k="ssr:type" v="adressenavn" />
	</node>
	<node id="-200344" lat="59.6816535513" lon="10.3122116942">
		<tag k="name" v="Nerdammen" />
		<tag k="ssr:date" v="2019-05-31" />
		<tag k="ssr:gruppe" v="veg" />
		<tag k="ssr:hovedgruppe" v="infrastruktur" />
		<tag k="ssr:stedsnr" v="1043231" />
		<tag k="ssr:type" v="adressenavn" />
	</node>
	<node id="-200343" lat="59.5993981877" lon="10.379204384">
		<tag k="name" v="Plassen" />
		<tag k="ssr:date" v="2019-05-31" />
		<tag k="ssr:gruppe" v="veg" />
		<tag k="ssr:hovedgruppe" v="infrastruktur" />
		<tag k="ssr:stedsnr" v="1043230" />
		<tag k="ssr:type" v="adressenavn" />
	</node>
	<node id="-200342" lat="59.6104682989" lon="10.3427058917">
		<tag k="name" v="Setermyrene" />
		<tag k="ssr:date" v="2019-05-31" />
		<tag k="ssr:gruppe" v="veg" />
		<tag k="ssr:hovedgruppe" v="infrastruktur" />
		<tag k="ssr:stedsnr" v="1043227" />
		<tag k="ssr:type" v="adressenavn" />
	</node>
	<node id="-200341" lat="59.5987104053" lon="10.3624498707">
		<tag k="name" v="Sagdalen" />
		<tag k="ssr:date" v="2019-05-31" />
		<tag k="ssr:gruppe" v="veg" />
		<tag k="ssr:hovedgruppe" v="infrastruktur" />
		<tag k="ssr:stedsnr" v="1043226" />
		<tag k="ssr:type" v="adressenavn" />
	</node>
	<node id="-200340" lat="59.616323744" lon="10.369026806">
		<tag k="name" v="Stølsåsen" />
		<tag k="ssr:date" v="2019-05-31" />
		<tag k="ssr:gruppe" v="veg" />
		<tag k="ssr:hovedgruppe" v="infrastruktur" />
		<tag k="ssr:stedsnr" v="1043225" />
		<tag k="ssr:type" v="adressenavn" />
	</node>
	<node id="-200339" lat="59.6255565879" lon="10.3443490057">
		<tag k="name" v="Stegaåsen" />
		<tag k="ssr:date" v="2019-05-31" />
		<tag k="ssr:gruppe" v="veg" />
		<tag k="ssr:hovedgruppe" v="infrastruktur" />
		<tag k="ssr:stedsnr" v="1043224" />
		<tag k="ssr:type" v="adressenavn" />
	</node>
	<node id="-200594" lat="59.605530554" lon="10.4100888906">
		<tag k="name" v="Nedre Tømmerås" />
		<tag k="ssr:date" v="2016-05-11" />
		<tag k="ssr:gruppe" v="navigasjon" />
		<tag k="ssr:hovedgruppe" v="infrastruktur" />
		<tag k="ssr:stedsnr" v="754253" />
		<tag k="ssr:type" v="fyrlykt" />
	</node>
	<node id="-200337" lat="59.637475576" lon="10.3398415205">
		<tag k="name" v="Svanevannsåsen" />
		<tag k="ssr:date" v="2019-05-31" />
		<tag k="ssr:gruppe" v="veg" />
		<tag k="ssr:hovedgruppe" v="infrastruktur" />
		<tag k="ssr:stedsnr" v="1043221" />
		<tag k="ssr:type" v="adressenavn" />
	</node>
	<node id="-200336" lat="59.6480494354" lon="10.3744993591">
		<tag k="name" v="Sønstebyåsen" />
		<tag k="ssr:date" v="2019-05-31" />
		<tag k="ssr:gruppe" v="veg" />
		<tag k="ssr:hovedgruppe" v="infrastruktur" />
		<tag k="ssr:stedsnr" v="1043219" />
		<tag k="ssr:type" v="adressenavn" />
	</node>
	<node id="-200591" lat="59.6067694487" lon="10.4022500077">
		<tag k="alt_name" v="Svelvik" />
		<tag k="name" v="Svelvik kommune" />
		<tag k="ssr:date" v="2016-05-11" />
		<tag k="ssr:gruppe" v="administrativeIndelinger" />
		<tag k="ssr:hovedgruppe" v="offentligAdministrasjon" />
		<tag k="ssr:stedsnr" v="752743" />
		<tag k="ssr:type" v="kommune" />
	</node>
	<node id="-200334" lat="59.6265343269" lon="10.3714283409">
		<tag k="name" v="Vassåsen" />
		<tag k="ssr:date" v="2019-05-31" />
		<tag k="ssr:gruppe" v="veg" />
		<tag k="ssr:hovedgruppe" v="infrastruktur" />
		<tag k="ssr:stedsnr" v="1043216" />
		<tag k="ssr:type" v="adressenavn" />
	</node>
	<node id="-200338" lat="59.6160973289" lon="10.3428188541">
		<tag k="name" v="Søndre Svanevann" />
		<tag k="ssr:date" v="2019-05-31" />
		<tag k="ssr:gruppe" v="veg" />
		<tag k="ssr:hovedgruppe" v="infrastruktur" />
		<tag k="ssr:stedsnr" v="1043222" />
		<tag k="ssr:type" v="adressenavn" />
	</node>
</osm>
