<?xml version="1.0" encoding="UTF-8"?>
<osm generator="osmapis" version="0.6">
	<node id="-509899" lat="61.0167694434" lon="6.38278332976">
		<tag k="name" v="Indreklummane" />
		<tag k="natural" v="cape" />
		<tag k="ssr:stedsnr" v="216117" />
	</node>
	<node id="-510463" lat="61.0993111127" lon="6.57250277791">
		<tag k="alt_name" v="Galden" />
		<tag k="name" v="Ytste Galden" />
		<tag k="natural" v="cape" />
		<tag k="ssr:stedsnr" v="675466" />
	</node>
	<node id="-510973" lat="61.1434000042" lon="6.80389167353">
		<tag k="name" v="Viki" />
		<tag k="natural" v="bay" />
		<tag k="ssr:stedsnr" v="944735" />
	</node>
	<node id="-510967" lat="61.0189027812" lon="6.38750277687">
		<tag k="name" v="Kalhaganeset" />
		<tag k="natural" v="cape" />
		<tag k="ssr:stedsnr" v="944158" />
	</node>
	<node id="-509430" lat="61.0854027796" lon="6.9000499958">
		<tag k="name" v="Vidhammarbukti" />
		<tag k="natural" v="bay" />
		<tag k="ssr:stedsnr" v="478511" />
	</node>
	<node id="-510453" lat="61.0414527735" lon="6.3996583268">
		<tag k="name" v="Krosshella" />
		<tag k="natural" v="cape" />
		<tag k="ssr:stedsnr" v="643529" />
	</node>
	<node id="-510449" lat="61.1514666705" lon="6.7453222132">
		<tag k="name" v="Hatlevik" />
		<tag k="natural" v="bay" />
		<tag k="ssr:stedsnr" v="643107" />
	</node>
	<node id="-509421" lat="61.0988944476" lon="6.28652221842">
		<tag k="name" v="Krossen" />
		<tag k="natural" v="cape" />
		<tag k="ssr:stedsnr" v="400932" />
	</node>
	<node id="-509415" lat="61.0506194405" lon="7.00914999959">
		<tag k="alt_name" v="Bordhus" />
		<tag k="name" v="Borhus" />
		<tag k="natural" v="cape" />
		<tag k="ssr:stedsnr" v="400834" />
	</node>
	<node id="-510949" lat="61.0746611115" lon="6.99039722429">
		<tag k="alt_name" v="Timbreviki" />
		<tag k="name" v="Timreviki" />
		<tag k="natural" v="bay" />
		<tag k="ssr:stedsnr" v="920423" />
	</node>
	<node id="-509411" lat="61.042074998" lon="6.30829722333">
		<tag k="name" v="Indretåa" />
		<tag k="natural" v="cape" />
		<tag k="ssr:stedsnr" v="400720" />
	</node>
	<node id="-509921" lat="61.1648972246" lon="6.66209167365">
		<tag k="name" v="Brokviki" />
		<tag k="natural" v="bay" />
		<tag k="ssr:stedsnr" v="218082" />
	</node>
	<node id="-509408" lat="61.0597750032" lon="6.30859167549">
		<tag k="alt_name" v="Nubbesteinneset" />
		<tag k="name" v="Nybbesteinneset" />
		<tag k="natural" v="cape" />
		<tag k="ssr:stedsnr" v="400693" />
	</node>
	<node id="-510341" lat="61.0524722213" lon="6.31598889589">
		<tag k="name" v="Grotneset" />
		<tag k="natural" v="cape" />
		<tag k="ssr:stedsnr" v="582726" />
	</node>
	<node id="-509404" lat="61.0503777824" lon="6.40491945098">
		<tag k="name" v="Notaberget" />
		<tag k="natural" v="cape" />
		<tag k="ssr:stedsnr" v="400551" />
	</node>
	<node id="-509402" lat="61.0389527733" lon="6.39783610528">
		<tag k="name" v="Vindbjørganes" />
		<tag k="natural" v="cape" />
		<tag k="ssr:stedsnr" v="400545" />
	</node>
	<node id="-510936" lat="61.1505749988" lon="6.72875555655">
		<tag k="alt_name" v="Hovestrandi" />
		<tag k="name" v="Håastrondi" />
		<tag k="natural" v="beach" />
		<tag k="place" v="locality" />
		<tag k="ssr:stedsnr" v="919823" />
	</node>
	<node id="-510931" lat="61.1467083314" lon="6.82856111459">
		<tag k="name" v="Klubben" />
		<tag k="natural" v="cape" />
		<tag k="ssr:stedsnr" v="919801" />
	</node>
	<node id="-510416" lat="61.0250916631" lon="6.38471944877">
		<tag k="name" v="Søreviki" />
		<tag k="natural" v="bay" />
		<tag k="ssr:stedsnr" v="640166" />
	</node>
	<node id="-510926" lat="61.0994999985" lon="6.28360832857">
		<tag k="alt_name" v="Bjørkevik" />
		<tag k="name" v="Bjørkviki" />
		<tag k="natural" v="bay" />
		<tag k="ssr:stedsnr" v="919659" />
	</node>
	<node id="-509900" lat="61.1463805524" lon="6.84484723094">
		<tag k="name" v="Kalvehagbukti" />
		<tag k="natural" v="bay" />
		<tag k="ssr:stedsnr" v="216226" />
	</node>
	<node id="-510411" lat="61.0330388868" lon="7.01524444752">
		<tag k="name" v="Fyssebukti" />
		<tag k="natural" v="bay" />
		<tag k="ssr:stedsnr" v="632168" />
	</node>
	<node id="-510410" lat="61.136683333" lon="6.86515832675">
		<tag k="alt_name" v="Kongalegene" />
		<tag k="name" v="Kongaleget" />
		<tag k="natural" v="bay" />
		<tag k="ssr:stedsnr" v="616885" />
	</node>
	<node id="-509943" lat="61.046466668" lon="6.31190554924">
		<tag k="name" v="Hestaneset" />
		<tag k="natural" v="cape" />
		<tag k="ssr:stedsnr" v="218706" />
	</node>
	<node id="-509383" lat="61.0980527748" lon="6.59647222124">
		<tag k="name" v="Strondi" />
		<tag k="natural" v="beach" />
		<tag k="place" v="locality" />
		<tag k="ssr:stedsnr" v="400049" />
	</node>
	<node id="-509382" lat="61.09436667" lon="6.59148054877">
		<tag k="alt_name" v="Saganes" />
		<tag k="name" v="Sagaflaten" />
		<tag k="natural" v="cape" />
		<tag k="ssr:stedsnr" v="400043" />
	</node>
	<node id="-510965" lat="61.035302776" lon="6.39320555898">
		<tag k="name" v="Plassane" />
		<tag k="natural" v="beach" />
		<tag k="place" v="locality" />
		<tag k="ssr:stedsnr" v="944116" />
	</node>
	<node id="-509364" lat="61.0339000016" lon="6.39117499221">
		<tag k="name" v="Joni" />
		<tag k="natural" v="cape" />
		<tag k="ssr:stedsnr" v="398113" />
	</node>
	<node id="-509870" lat="61.100977777" lon="6.53412777993">
		<tag k="name" v="Kolaviki" />
		<tag k="natural" v="bay" />
		<tag k="ssr:stedsnr" v="191576" />
	</node>
	<node id="-509869" lat="61.0276749977" lon="6.38342777261">
		<tag k="alt_name" v="Djupehavn" />
		<tag k="name" v="Djupehamnen" />
		<tag k="natural" v="bay" />
		<tag k="ssr:stedsnr" v="191556" />
	</node>
	<node id="-509350" lat="61.1020000034" lon="6.55782499523">
		<tag k="name" v="Hovsviki" />
		<tag k="natural" v="bay" />
		<tag k="ssr:stedsnr" v="373645" />
	</node>
	<node id="-510372" lat="61.084491669" lon="6.90391110624">
		<tag k="name" v="Lyngneset" />
		<tag k="natural" v="cape" />
		<tag k="ssr:stedsnr" v="615210" />
	</node>
	<node id="-510883" lat="61.06980556" lon="6.43456944047">
		<tag k="alt_name" v="Eitrneset" />
		<tag k="name" v="Eitreneset" />
		<tag k="natural" v="cape" />
		<tag k="ssr:stedsnr" v="918500" />
	</node>
	<node id="-510880" lat="61.0805305535" lon="6.93067222111">
		<tag k="name" v="Fresvikbukti" />
		<tag k="natural" v="bay" />
		<tag k="ssr:stedsnr" v="904470" />
	</node>
	<node id="-510867" lat="61.0867694424" lon="6.50930278283">
		<tag k="name" v="Vikaneset" />
		<tag k="natural" v="cape" />
		<tag k="ssr:stedsnr" v="859602" />
	</node>
	<node id="-510354" lat="61.1249472214" lon="6.60511943768">
		<tag k="name" v="Djupvikneset" />
		<tag k="natural" v="cape" />
		<tag k="ssr:stedsnr" v="600951" />
	</node>
	<node id="-509834" lat="61.1720916631" lon="6.65172222501">
		<tag k="name" v="Laberg" />
		<tag k="natural" v="cape" />
		<tag k="ssr:stedsnr" v="175981" />
	</node>
	<node id="-510857" lat="61.0676833349" lon="7.0050722226">
		<tag k="alt_name" v="Dyrastunes" />
		<tag k="name" v="Dyrastadneset" />
		<tag k="natural" v="cape" />
		<tag k="ssr:stedsnr" v="859408" />
	</node>
	<node id="-510343" lat="61.0424666708" lon="6.2964194525">
		<tag k="name" v="Russviki" />
		<tag k="natural" v="bay" />
		<tag k="ssr:stedsnr" v="582738" />
	</node>
	<node id="-510342" lat="61.0473005244" lon="6.30850551824">
		<tag k="name" v="Vetlestraumen" />
		<tag k="natural" v="strait" />
		<tag k="ssr:stedsnr" v="582739" />
	</node>
	<node id="-509829" lat="61.0569583367" lon="6.30649721871">
		<tag k="alt_name" v="Utgjengeneset" />
		<tag k="name" v="Utgjeingeneset" />
		<tag k="natural" v="cape" />
		<tag k="ssr:stedsnr" v="158683" />
	</node>
	<node id="-510338" lat="61.0285555529" lon="6.40699166057">
		<tag k="name" v="Gunnarviki" />
		<tag k="natural" v="bay" />
		<tag k="ssr:stedsnr" v="582695" />
	</node>
	<node id="-509313" lat="61.1451416706" lon="6.80994167368">
		<tag k="name" v="Lindebukti" />
		<tag k="natural" v="bay" />
		<tag k="ssr:stedsnr" v="358088" />
	</node>
	<node id="-509311" lat="61.0402388852" lon="6.28405834123">
		<tag k="name" v="Kråni" />
		<tag k="natural" v="bay" />
		<tag k="ssr:stedsnr" v="344907" />
	</node>
	<node id="-510328" lat="61.1324999975" lon="6.61126110581">
		<tag k="name" v="Djuvikoksen" />
		<tag k="natural" v="bay" />
		<tag k="ssr:stedsnr" v="582349" />
	</node>
	<node id="-509815" lat="61.0531361097" lon="6.31568054696">
		<tag k="name" v="Hatleviki" />
		<tag k="natural" v="bay" />
		<tag k="ssr:stedsnr" v="157689" />
	</node>
	<node id="-509814" lat="61.1562750035" lon="6.62635278645">
		<tag k="name" v="Frivik" />
		<tag k="natural" v="bay" />
		<tag k="ssr:stedsnr" v="157669" />
	</node>
	<node id="-509812" lat="61.0319166711" lon="6.41150556369">
		<tag k="name" v="Nedda" />
		<tag k="natural" v="cape" />
		<tag k="ssr:stedsnr" v="157648" />
	</node>
	<node id="-510822" lat="61.0930861143" lon="6.59033054786">
		<tag k="name" v="Vetlebukti" />
		<tag k="natural" v="bay" />
		<tag k="ssr:stedsnr" v="843933" />
	</node>
	<node id="-509284" lat="61.1393694449" lon="6.61698889207">
		<tag k="name" v="Gulemunken" />
		<tag k="natural" v="cape" />
		<tag k="ssr:stedsnr" v="339317" />
	</node>
	<node id="-509283" lat="61.1441305523" lon="6.62009721829">
		<tag k="name" v="Ystebøen" />
		<tag k="natural" v="cape" />
		<tag k="ssr:stedsnr" v="339313" />
	</node>
	<node id="-509792" lat="61.1721555583" lon="6.63102499956">
		<tag k="name" v="Monken" />
		<tag k="natural" v="cape" />
		<tag k="ssr:stedsnr" v="157080" />
	</node>
	<node id="-510297" lat="61.0389166647" lon="6.4218722184">
		<tag k="name" v="Stølaneset" />
		<tag k="natural" v="cape" />
		<tag k="ssr:stedsnr" v="573792" />
	</node>
	<node id="-510296" lat="61.1432138917" lon="6.85668887985">
		<tag k="alt_name" v="Lauganeset" />
		<tag k="name" v="Lauvaneset" />
		<tag k="natural" v="cape" />
		<tag k="ssr:stedsnr" v="555846" />
	</node>
	<node id="-509783" lat="61.1438249995" lon="6.78871388441">
		<tag k="name" v="Joneset" />
		<tag k="natural" v="cape" />
		<tag k="ssr:stedsnr" v="155599" />
	</node>
	<node id="-509779" lat="61.0095833324" lon="6.38892222407">
		<tag k="alt_name" v="Vaberget" />
		<tag k="name" v="Vabergane" />
		<tag k="natural" v="cape" />
		<tag k="ssr:stedsnr" v="155197" />
	</node>
	<node id="-510283" lat="61.0880999991" lon="6.30830000823">
		<tag k="name" v="Verpesviki" />
		<tag k="natural" v="bay" />
		<tag k="ssr:stedsnr" v="555642" />
	</node>
	<node id="-509409" lat="61.0502527787" lon="6.31223056447">
		<tag k="name" v="Tåa" />
		<tag k="natural" v="cape" />
		<tag k="ssr:stedsnr" v="400715" />
	</node>
	<node id="-510274" lat="61.0694999974" lon="6.37154167222">
		<tag k="name" v="Kvernhusviki" />
		<tag k="natural" v="bay" />
		<tag k="ssr:stedsnr" v="555517" />
	</node>
	<node id="-509757" lat="61.1360138869" lon="6.86763611501">
		<tag k="name" v="Kongalegbukti" />
		<tag k="natural" v="bay" />
		<tag k="ssr:stedsnr" v="130722" />
	</node>
	<node id="-509238" lat="61.1465944479" lon="6.83715277035">
		<tag k="alt_name" v="Langeneset" />
		<tag k="name" v="Langaneset" />
		<tag k="natural" v="cape" />
		<tag k="ssr:stedsnr" v="312797" />
	</node>
	<node id="-510773" lat="61.0968555558" lon="6.58844443833">
		<tag k="alt_name" v="Vikjabukti2" />
		<tag k="name" v="Vikjabukti" />
		<tag k="natural" v="bay" />
		<tag k="ssr:stedsnr" v="825029" />
	</node>
	<node id="-509150" lat="61.0698888879" lon="6.35967777506">
		<tag k="alt_name" v="Sopaviki" />
		<tag k="name" v="Supaviki" />
		<tag k="natural" v="bay" />
		<tag k="ssr:stedsnr" v="278706" />
	</node>
	<node id="-510255" lat="61.0951138923" lon="6.87912778456">
		<tag k="alt_name" v="Verpesneset" />
		<tag k="name" v="Verpeneset" />
		<tag k="natural" v="cape" />
		<tag k="ssr:stedsnr" v="554827" />
	</node>
	<node id="-509602" lat="61.1015444438" lon="6.2157888925">
		<tag k="name" v="Stavedalsbukta" />
		<tag k="natural" v="bay" />
		<tag k="ssr:stedsnr" v="56752" />
	</node>
	<node id="-509226" lat="61.0995777778" lon="6.53121389398">
		<tag k="alt_name" v="Kjerringaneset;Kjerringneset" />
		<tag k="name" v="Kjeringaneset" />
		<tag k="natural" v="cape" />
		<tag k="ssr:stedsnr" v="312605" />
	</node>
	<node id="-510761" lat="61.1459388905" lon="6.84970277483">
		<tag k="name" v="Løneset" />
		<tag k="natural" v="cape" />
		<tag k="ssr:stedsnr" v="823218" />
	</node>
	<node id="-509734" lat="61.0832055523" lon="6.94477500884">
		<tag k="alt_name" v="Øvste Mulaneset;Øvste Mulen" />
		<tag k="name" v="Øvstemulaneset" />
		<tag k="natural" v="cape" />
		<tag k="ssr:stedsnr" v="130197" />
	</node>
	<node id="-510755" lat="61.1480916676" lon="6.81872778104">
		<tag k="name" v="Bårlogneset" />
		<tag k="natural" v="cape" />
		<tag k="ssr:stedsnr" v="822729" />
	</node>
	<node id="-510749" lat="61.1467805543" lon="6.82517500106">
		<tag k="alt_name" v="Torbjørnbukti" />
		<tag k="name" v="Torbjørnsbukti" />
		<tag k="natural" v="bay" />
		<tag k="ssr:stedsnr" v="798779" />
	</node>
	<node id="-510236" lat="61.0079472186" lon="6.3703277721">
		<tag k="name" v="Ryneset" />
		<tag k="natural" v="cape" />
		<tag k="ssr:stedsnr" v="539690" />
	</node>
	<node id="-510235" lat="61.0774500026" lon="6.94240555709">
		<tag k="name" v="Hamnen" />
		<tag k="natural" v="bay" />
		<tag k="ssr:stedsnr" v="539414" />
	</node>
	<node id="-509465" lat="61.0706194451" lon="6.35338888264">
		<tag k="alt_name" v="Øykjastøi" />
		<tag k="name" v="Øykjastø" />
		<tag k="natural" v="beach" />
		<tag k="place" v="locality" />
		<tag k="ssr:stedsnr" v="886561" />
	</node>
	<node id="-510230" lat="61.0693750024" lon="6.39060556142">
		<tag k="name" v="Kaldegjelsneset" />
		<tag k="natural" v="cape" />
		<tag k="ssr:stedsnr" v="522581" />
	</node>
	<node id="-510737" lat="61.0743749971" lon="6.32385277826">
		<tag k="name" v="Eikeneset" />
		<tag k="natural" v="cape" />
		<tag k="ssr:stedsnr" v="798649" />
	</node>
	<node id="-510223" lat="61.1045749968" lon="6.59263610666">
		<tag k="alt_name" v="Inste Galden" />
		<tag k="name" v="Galden" />
		<tag k="natural" v="cape" />
		<tag k="ssr:stedsnr" v="522431" />
	</node>
	<node id="-509198" lat="61.0391555574" lon="6.3012472143">
		<tag k="name" v="Indrefudi" />
		<tag k="natural" v="cape" />
		<tag k="ssr:stedsnr" v="309929" />
	</node>
	<node id="-509196" lat="61.0900249995" lon="6.58837499605">
		<tag k="name" v="Vikhola" />
		<tag k="natural" v="bay" />
		<tag k="ssr:stedsnr" v="297946" />
	</node>
	<node id="-510731" lat="61.1232444428" lon="6.60589722978">
		<tag k="alt_name" v="Djupevik" />
		<tag k="name" v="Djupeviki" />
		<tag k="natural" v="bay" />
		<tag k="ssr:stedsnr" v="798807" />
	</node>
	<node id="-509194" lat="61.0751249964" lon="6.9413500015">
		<tag k="name" v="Hola" />
		<tag k="natural" v="bay" />
		<tag k="ssr:stedsnr" v="297430" />
	</node>
	<node id="-510217" lat="61.0533777815" lon="7.00986111591">
		<tag k="name" v="Vetleneset" />
		<tag k="natural" v="cape" />
		<tag k="ssr:stedsnr" v="521827" />
	</node>
	<node id="-509703" lat="61.0765916645" lon="6.94356389659">
		<tag k="name" v="Strondi" />
		<tag k="natural" v="beach" />
		<tag k="place" v="locality" />
		<tag k="ssr:stedsnr" v="97904" />
	</node>
	<node id="-510726" lat="61.0795861107" lon="6.98175832608">
		<tag k="name" v="Staven" />
		<tag k="natural" v="cape" />
		<tag k="ssr:stedsnr" v="798411" />
	</node>
	<node id="-510211" lat="61.1160361079" lon="6.18473610971">
		<tag k="name" v="Teisteberg" />
		<tag k="natural" v="cape" />
		<tag k="ssr:stedsnr" v="521475" />
	</node>
	<node id="-509698" lat="61.0972972187" lon="6.29148054903">
		<tag k="name" v="Naustneset" />
		<tag k="natural" v="cape" />
		<tag k="ssr:stedsnr" v="97656" />
	</node>
	<node id="-510721" lat="61.087658334" lon="6.95704167405">
		<tag k="alt_name" v="Saltkjelneset" />
		<tag k="name" v="Saltkjelnes" />
		<tag k="natural" v="cape" />
		<tag k="ssr:stedsnr" v="798211" />
	</node>
	<node id="-509696" lat="61.0699916636" lon="6.36986666472">
		<tag k="name" v="Skreneset" />
		<tag k="natural" v="cape" />
		<tag k="ssr:stedsnr" v="97577" />
	</node>
	<node id="-509225" lat="61.1035361092" lon="6.5419833413">
		<tag k="name" v="Lyktvorholmen" />
		<tag k="place" v="islet" />
		<tag k="ssr:stedsnr" v="312602" />
	</node>
	<node id="-509169" lat="61.1059666673" lon="6.21073056213">
		<tag k="name" v="Klubben" />
		<tag k="natural" v="cape" />
		<tag k="ssr:stedsnr" v="279509" />
	</node>
	<node id="-509165" lat="61.1129972254" lon="6.59825000706">
		<tag k="name" v="Bruasessen" />
		<tag k="natural" v="beach" />
		<tag k="place" v="locality" />
		<tag k="ssr:stedsnr" v="279430" />
	</node>
	<node id="-510187" lat="61.0233027821" lon="6.38686388586">
		<tag k="name" v="Klubben" />
		<tag k="natural" v="cape" />
		<tag k="ssr:stedsnr" v="519162" />
	</node>
	<node id="-509649" lat="61.1023499972" lon="6.55263611156">
		<tag k="name" v="Kabelviki" />
		<tag k="natural" v="bay" />
		<tag k="ssr:stedsnr" v="70608" />
	</node>
	<node id="-510686" lat="61.056752779" lon="6.41194166653">
		<tag k="alt_name" v="Kjorsteinsneset;Kjosteinneset" />
		<tag k="name" v="Tjosteinsneset" />
		<tag k="natural" v="cape" />
		<tag k="ssr:stedsnr" v="798539" />
	</node>
	<node id="-510683" lat="61.0470743122" lon="6.30770033306">
		<tag k="name" v="Nausttangen" />
		<tag k="natural" v="cape" />
		<tag k="ssr:stedsnr" v="769901" />
	</node>
	<node id="-509658" lat="61.1646249988" lon="6.66092222447">
		<tag k="name" v="Vikane" />
		<tag k="natural" v="bay" />
		<tag k="ssr:stedsnr" v="70915" />
	</node>
	<node id="-510678" lat="61.046877776" lon="7.00787222821">
		<tag k="name" v="Tjualøyphola" />
		<tag k="natural" v="bay" />
		<tag k="ssr:stedsnr" v="764855" />
	</node>
	<node id="-510674" lat="61.0348222256" lon="6.27343888815">
		<tag k="alt_name" v="Utfjøra" />
		<tag k="name" v="Utfjørene" />
		<tag k="natural" v="cape" />
		<tag k="ssr:stedsnr" v="764625" />
	</node>
	<node id="-510161" lat="61.1012444422" lon="6.25411666503">
		<tag k="alt_name" v="Lokkvinneset;Lokvinneset" />
		<tag k="name" v="Lokvina" />
		<tag k="natural" v="cape" />
		<tag k="ssr:stedsnr" v="494649" />
	</node>
	<node id="-509643" lat="61.0927500023" lon="6.30320554874">
		<tag k="name" v="Verpesneset" />
		<tag k="natural" v="cape" />
		<tag k="ssr:stedsnr" v="70680" />
	</node>
	<node id="-509388" lat="61.1340527804" lon="6.61345834172">
		<tag k="name" v="Kråkestein" />
		<tag k="natural" v="cape" />
		<tag k="ssr:stedsnr" v="400314" />
	</node>
	<node id="-509637" lat="61.0478333318" lon="6.41132221626">
		<tag k="bay" v="fjord" />
		<tag k="name" v="Arnafjorden" />
		<tag k="natural" v="bay" />
		<tag k="ssr:stedsnr" v="70565" />
	</node>
	<node id="-510667" lat="61.0482083347" lon="6.4040249971">
		<tag k="name" v="Viki" />
		<tag k="natural" v="bay" />
		<tag k="ssr:stedsnr" v="764540" />
	</node>
	<node id="-510655" lat="61.1491944468" lon="6.75424165819">
		<tag k="name" v="Dalestå" />
		<tag k="natural" v="beach" />
		<tag k="place" v="locality" />
		<tag k="ssr:stedsnr" v="764081" />
	</node>
	<node id="-510639" lat="61.0186416651" lon="6.40166667341">
		<tag k="alt_name" v="Bugnaneset" />
		<tag k="name" v="Bunganeset" />
		<tag k="natural" v="cape" />
		<tag k="ssr:stedsnr" v="762141" />
	</node>
	<node id="-510637" lat="61.0829333366" lon="6.48918332871">
		<tag k="name" v="Åneset" />
		<tag k="natural" v="cape" />
		<tag k="ssr:stedsnr" v="762041" />
	</node>
	<node id="-510634" lat="61.151000004" lon="6.74725555867">
		<tag k="alt_name" v="Hårvaldsnes;Håarneset" />
		<tag k="name" v="Håanes" />
		<tag k="natural" v="cape" />
		<tag k="ssr:stedsnr" v="737838" />
	</node>
	<node id="-509605" lat="61.0364833343" lon="6.29341667099">
		<tag k="name" v="Finnabotn" />
		<tag k="natural" v="bay" />
		<tag k="ssr:stedsnr" v="67927" />
	</node>
	<node id="-510115" lat="61.0490638933" lon="6.30926111762">
		<tag k="name" v="Holmen" />
		<tag k="natural" v="cape" />
		<tag k="ssr:stedsnr" v="461725" />
	</node>
	<node id="-510114" lat="61.0397444455" lon="6.30291388006">
		<tag k="name" v="Årenestangen" />
		<tag k="natural" v="beach" />
		<tag k="place" v="locality" />
		<tag k="ssr:stedsnr" v="461719" />
	</node>
	<node id="-509596" lat="61.0630861088" lon="6.3111472155">
		<tag k="name" v="Nateneset" />
		<tag k="natural" v="cape" />
		<tag k="ssr:stedsnr" v="36915" />
	</node>
	<node id="-510107" lat="61.0642194431" lon="6.33401388654">
		<tag k="name" v="Lindeneset" />
		<tag k="natural" v="cape" />
		<tag k="ssr:stedsnr" v="461580" />
	</node>
	<node id="-510105" lat="61.1009638874" lon="6.21473055252">
		<tag k="name" v="Gjelneset" />
		<tag k="natural" v="cape" />
		<tag k="ssr:stedsnr" v="461533" />
	</node>
	<node id="-509589" lat="61.0489444474" lon="6.31077778144">
		<tag k="name" v="Straumen" />
		<tag k="natural" v="strait" />
		<tag k="ssr:stedsnr" v="36699" />
	</node>
	<node id="-509573" lat="61.1605583358" lon="6.62945833583">
		<tag k="name" v="Kalvik" />
		<tag k="natural" v="bay" />
		<tag k="ssr:stedsnr" v="36312" />
	</node>
	<node id="-510083" lat="61.0066305557" lon="6.39987222677">
		<tag k="name" v="Kumretangen" />
		<tag k="natural" v="cape" />
		<tag k="ssr:stedsnr" v="459230" />
	</node>
	<node id="-510583" lat="61.1296027743" lon="6.87510834095">
		<tag k="name" v="Straumsneset" />
		<tag k="natural" v="cape" />
		<tag k="ssr:stedsnr" v="722794" />
	</node>
	<node id="-510582" lat="61.1216027805" lon="6.87757777181">
		<tag k="name" v="Jakobshammaren" />
		<tag k="natural" v="cape" />
		<tag k="ssr:stedsnr" v="722792" />
	</node>
	<node id="-510581" lat="61.144077779" lon="6.77880000464">
		<tag k="name" v="Salbuviki" />
		<tag k="natural" v="bay" />
		<tag k="ssr:stedsnr" v="722096" />
	</node>
	<node id="-510580" lat="61.1657833314" lon="6.63132778052">
		<tag k="name" v="Midtnes" />
		<tag k="natural" v="cape" />
		<tag k="ssr:stedsnr" v="721983" />
	</node>
	<node id="-510059" lat="61.0823527779" lon="6.49088332608">
		<tag k="name" v="Røyrvikbukti" />
		<tag k="natural" v="bay" />
		<tag k="ssr:stedsnr" v="434537" />
	</node>
	<node id="-510567" lat="61.0710611093" lon="6.34922499796">
		<tag k="name" v="Skjæret" />
		<tag k="natural" v="cape" />
		<tag k="ssr:stedsnr" v="704539" />
	</node>
	<node id="-509711" lat="61.0967499972" lon="6.52983889306">
		<tag k="name" v="Kvernhusviki" />
		<tag k="natural" v="bay" />
		<tag k="ssr:stedsnr" v="128427" />
	</node>
	<node id="-509522" lat="61.0854333353" lon="6.50888889244">
		<tag k="name" v="Svollsviki" />
		<tag k="natural" v="bay" />
		<tag k="ssr:stedsnr" v="9561" />
	</node>
	<node id="-509517" lat="61.0372472203" lon="7.01722499911">
		<tag k="name" v="Fysseneset" />
		<tag k="natural" v="cape" />
		<tag k="ssr:stedsnr" v="9392" />
	</node>
	<node id="-510022" lat="61.0099638922" lon="6.36475277843">
		<tag k="bay" v="fjord" />
		<tag k="name" v="Indrefjorden" />
		<tag k="natural" v="bay" />
		<tag k="ssr:stedsnr" v="434604" />
	</node>
	<node id="-510017" lat="61.1594666699" lon="6.67115834135">
		<tag k="name" v="Dåsen" />
		<tag k="natural" v="bay" />
		<tag k="ssr:stedsnr" v="418981" />
	</node>
	<node id="-510015" lat="61.0408111135" lon="6.42261945194">
		<tag k="name" v="Flåsteinen" />
		<tag k="natural" v="cape" />
		<tag k="ssr:stedsnr" v="479701" />
	</node>
	<node id="-509193" lat="61.0900361107" lon="6.88338332676">
		<tag k="name" v="Juvikbukti" />
		<tag k="natural" v="bay" />
		<tag k="ssr:stedsnr" v="297382" />
	</node>
	<node id="-509992" lat="61.1134044429" lon="6.19555785658">
		<tag k="name" v="Ålrekneset" />
		<tag k="natural" v="cape" />
		<tag k="ssr:stedsnr" v="252299" />
	</node>
	<node id="-510500" lat="61.0105194462" lon="6.40364166194">
		<tag k="bay" v="fjord" />
		<tag k="name" v="Framfjorden" />
		<tag k="natural" v="bay" />
		<tag k="ssr:stedsnr" v="677614" />
	</node>
	<node id="-509475" lat="61.0608999961" lon="6.3285027733">
		<tag k="name" v="Spelevollneset" />
		<tag k="natural" v="cape" />
		<tag k="ssr:stedsnr" v="886909" />
	</node>
	<node id="-509185" lat="61.100247224" lon="6.28291666204">
		<tag k="name" v="Hanekambneset" />
		<tag k="natural" v="cape" />
		<tag k="ssr:stedsnr" v="279922" />
	</node>
	<node id="-509466" lat="61.0690416695" lon="6.39503055133">
		<tag k="name" v="Åreneset" />
		<tag k="natural" v="cape" />
		<tag k="ssr:stedsnr" v="886587" />
	</node>
	<node id="-511001" lat="61.0552916709" lon="6.31930832406">
		<tag k="alt_name" v="Torskeneset" />
		<tag k="name" v="Torskaneset" />
		<tag k="natural" v="cape" />
		<tag k="ssr:stedsnr" v="947715" />
	</node>
	<node id="-511000" lat="61.0506305573" lon="6.30404999229">
		<tag k="name" v="Elvaneset" />
		<tag k="natural" v="cape" />
		<tag k="ssr:stedsnr" v="947696" />
	</node>
	<node id="-509458" lat="61.1251194461" lon="6.6076249915">
		<tag k="name" v="Vikane" />
		<tag k="natural" v="bay" />
		<tag k="ssr:stedsnr" v="886413" />
	</node>
	<node id="-509699" lat="61.0511222253" lon="6.31283055872">
		<tag k="name" v="Straumviki" />
		<tag k="natural" v="bay" />
		<tag k="ssr:stedsnr" v="97715" />
	</node>
	<node id="-510480" lat="61.0565555576" lon="6.31673889561">
		<tag k="bay" v="fjord" />
		<tag k="name" v="Finnafjorden" />
		<tag k="natural" v="bay" />
		<tag k="ssr:stedsnr" v="676570" />
	</node>
	<node id="-510469" lat="61.0866861113" lon="6.94862777831">
		<tag k="alt_name" v="Inste Mulaneset;Inste Mulen" />
		<tag k="name" v="Instemulaneset" />
		<tag k="natural" v="cape" />
		<tag k="ssr:stedsnr" v="676220" />
	</node>
	<node id="-509955" lat="61.0067916656" lon="6.40474722827">
		<tag k="name" v="Valsviki" />
		<tag k="natural" v="bay" />
		<tag k="ssr:stedsnr" v="236679" />
	</node>
</osm>
