<?xml version="1.0" encoding="UTF-8"?>
<osm generator="osmapis" version="0.6">
	<node id="-510873" lat="61.0773388927" lon="6.56890277828">
		<tag k="amenity" v="place_of_worship" />
		<tag k="denomination" v="lutheran" />
		<tag k="name" v="Hopperstad stavkyrkje" />
		<tag k="religion" v="christian" />
		<tag k="ssr:stedsnr" v="494469" />
	</node>
	<node id="-511122" lat="61.022338891" lon="6.38461667566">
		<tag k="alt_name" v="Arnafjord" />
		<tag k="amenity" v="place_of_worship" />
		<tag k="denomination" v="lutheran" />
		<tag k="name" v="Arnafjord kyrkje" />
		<tag k="religion" v="christian" />
		<tag k="ssr:stedsnr" v="616596" />
	</node>
	<node id="-511024" lat="61.0475277779" lon="6.63931388063">
		<tag k="name" v="Haugen" />
		<tag k="ssr:stedsnr" v="580343" />
		<tag k="tourism" v="attraction" />
	</node>
	<node id="-511631" lat="61.0798583372" lon="6.57812778272">
		<tag k="alt_name" v="Vik" />
		<tag k="amenity" v="place_of_worship" />
		<tag k="denomination" v="lutheran" />
		<tag k="name" v="Vik kyrkje" />
		<tag k="religion" v="christian" />
		<tag k="ssr:stedsnr" v="919498" />
	</node>
	<node id="-510893" lat="61.1698055591" lon="6.64151111666">
		<tag k="alt_name" v="Vangsnes" />
		<tag k="amenity" v="place_of_worship" />
		<tag k="denomination" v="lutheran" />
		<tag k="name" v="Vangsnes kyrkje" />
		<tag k="religion" v="christian" />
		<tag k="ssr:stedsnr" v="494921" />
	</node>
	<node id="-511346" lat="61.0716277737" lon="6.58398610603">
		<tag k="alt_name" v="Hove steinkyrkje;Hove steinkirke" />
		<tag k="amenity" v="place_of_worship" />
		<tag k="denomination" v="lutheran" />
		<tag k="name" v="Hove kyrkje" />
		<tag k="religion" v="christian" />
		<tag k="ssr:stedsnr" v="737497" />
	</node>
	<node id="-511242" lat="61.0773611148" lon="6.97769166227">
		<tag k="name" v="Stavasagi" />
		<tag k="place" v="locality" />
		<tag k="ssr:stedsnr" v="677427" />
	</node>
	<node id="-510887" lat="61.1491555581" lon="6.76006110965">
		<tag k="alt_name" v="Feios" />
		<tag k="amenity" v="place_of_worship" />
		<tag k="denomination" v="lutheran" />
		<tag k="name" v="Feios kyrkje" />
		<tag k="religion" v="christian" />
		<tag k="ssr:stedsnr" v="494819" />
	</node>
	<node id="-511623" lat="61.0733194456" lon="6.93961387968">
		<tag k="alt_name" v="Fresvik" />
		<tag k="amenity" v="place_of_worship" />
		<tag k="denomination" v="lutheran" />
		<tag k="name" v="Fresvik kyrkje" />
		<tag k="religion" v="christian" />
		<tag k="ssr:stedsnr" v="919178" />
	</node>
	<node id="-510917" lat="61.032613885" lon="6.55907778676">
		<tag k="name" v="StedjestÃ¸len" />
		<tag k="ssr:stedsnr" v="519540" />
		<tag k="tourism" v="attraction" />
	</node>
</osm>
