<?xml version="1.0" encoding="UTF-8"?>
<osm generator="osmapis" version="0.6">
	<node id="-509952" lat="61.0914361116" lon="6.77786111948">
		<tag k="name" v="Astridalen" />
		<tag k="natural" v="valley" />
		<tag k="place" v="locality" />
		<tag k="ssr:stedsnr" v="218961" />
	</node>
	<node id="-509951" lat="61.0920222254" lon="6.27993054862">
		<tag k="fixme" v="consider natural=peak for the most distinct mountains in the district" />
		<tag k="name" v="Husafjellet" />
		<tag k="natural" v="hill" />
		<tag k="place" v="locality" />
		<tag k="ssr:stedsnr" v="218932" />
	</node>
	<node id="-509950" lat="61.0644944451" lon="6.90003611729">
		<tag k="name" v="Tunga" />
		<tag k="natural" v="ridge" />
		<tag k="place" v="locality" />
		<tag k="ssr:stedsnr" v="218898" />
	</node>
	<node id="-509949" lat="61.0525888894" lon="6.92339722691">
		<tag k="name" v="Haugane" />
		<tag k="natural" v="hill" />
		<tag k="place" v="locality" />
		<tag k="ssr:stedsnr" v="218845" />
	</node>
	<node id="-509948" lat="61.0298166653" lon="6.97931389127">
		<tag k="name" v="Fyssedalen" />
		<tag k="natural" v="valley" />
		<tag k="place" v="locality" />
		<tag k="ssr:stedsnr" v="218831" />
	</node>
	<node id="-509947" lat="61.0367500004" lon="6.98658332798">
		<tag k="name" v="Storehaug" />
		<tag k="natural" v="hill" />
		<tag k="place" v="locality" />
		<tag k="ssr:stedsnr" v="218826" />
	</node>
	<node id="-509945" lat="61.0399694442" lon="6.27691388986">
		<tag k="fixme" v="consider natural=peak for the most distinct mountains in the district" />
		<tag k="name" v="Vetlehovden" />
		<tag k="natural" v="hill" />
		<tag k="place" v="locality" />
		<tag k="ssr:stedsnr" v="218745" />
	</node>
	<node id="-509944" lat="61.0405722229" lon="6.28589443525">
		<tag k="name" v="Killingkråskreda" />
		<tag k="natural" v="valley" />
		<tag k="place" v="locality" />
		<tag k="ssr:stedsnr" v="218740" />
	</node>
	<node id="-509942" lat="61.0506333301" lon="6.43302222531">
		<tag k="name" v="Svartasva" />
		<tag k="natural" v="hill" />
		<tag k="place" v="locality" />
		<tag k="ssr:stedsnr" v="218657" />
	</node>
	<node id="-509941" lat="61.0846249978" lon="6.30231943795">
		<tag k="name" v="Teigagjelet" />
		<tag k="natural" v="valley" />
		<tag k="place" v="locality" />
		<tag k="ssr:stedsnr" v="218622" />
	</node>
	<node id="-509940" lat="61.0688833356" lon="6.37170832888">
		<tag k="name" v="Tråna" />
		<tag k="natural" v="slope" />
		<tag k="place" v="locality" />
		<tag k="ssr:stedsnr" v="218557" />
	</node>
	<node id="-509939" lat="61.0636222237" lon="6.34513611472">
		<tag k="name" v="Dalen" />
		<tag k="natural" v="valley" />
		<tag k="place" v="locality" />
		<tag k="ssr:stedsnr" v="218531" />
	</node>
	<node id="-509938" lat="61.1137611071" lon="6.18029444599">
		<tag k="name" v="Sleipesva" />
		<tag k="natural" v="hill" />
		<tag k="place" v="locality" />
		<tag k="ssr:stedsnr" v="218484" />
	</node>
	<node id="-509934" lat="61.0672583378" lon="6.56790555473">
		<tag k="name" v="Stashaug" />
		<tag k="natural" v="hill" />
		<tag k="place" v="locality" />
		<tag k="ssr:stedsnr" v="218438" />
	</node>
	<node id="-509933" lat="61.0745777802" lon="6.5848444503">
		<tag k="name" v="Vangsøyane" />
		<tag k="place" v="locality" />
		<tag k="ssr:stedsnr" v="218423" />
	</node>
	<node id="-509932" lat="61.0790500039" lon="6.57749165969">
		<tag k="name" v="Plassen" />
		<tag k="place" v="locality" />
		<tag k="ssr:stedsnr" v="218421" />
	</node>
	<node id="-509931" lat="61.11941389" lon="6.6098999912">
		<tag k="name" v="Marsteinshaug" />
		<tag k="natural" v="hill" />
		<tag k="place" v="locality" />
		<tag k="ssr:stedsnr" v="218418" />
	</node>
	<node id="-509930" lat="61.1191833303" lon="6.60661110672">
		<tag k="name" v="Koren" />
		<tag k="natural" v="hill" />
		<tag k="place" v="locality" />
		<tag k="ssr:stedsnr" v="218416" />
	</node>
	<node id="-509929" lat="61.1128611118" lon="6.60568610264">
		<tag k="name" v="Fureskor" />
		<tag k="natural" v="hill" />
		<tag k="place" v="locality" />
		<tag k="ssr:stedsnr" v="218414" />
	</node>
	<node id="-509926" lat="61.0222166648" lon="6.51248888648">
		<tag k="name" v="Dalbotnflatene" />
		<tag k="place" v="locality" />
		<tag k="ssr:stedsnr" v="218253" />
	</node>
	<node id="-509922" lat="61.1507611151" lon="6.71368055699">
		<tag k="name" v="Steinagjelet" />
		<tag k="natural" v="valley" />
		<tag k="place" v="locality" />
		<tag k="ssr:stedsnr" v="218081" />
	</node>
	<node id="-509919" lat="61.1684277777" lon="6.64858889261">
		<tag k="name" v="Raudagjerdhaugen" />
		<tag k="natural" v="hill" />
		<tag k="place" v="locality" />
		<tag k="ssr:stedsnr" v="218078" />
	</node>
	<node id="-509917" lat="61.0554166689" lon="6.57802776881">
		<tag k="name" v="Middagshaugen" />
		<tag k="natural" v="hill" />
		<tag k="place" v="locality" />
		<tag k="ssr:stedsnr" v="218055" />
	</node>
	<node id="-509916" lat="61.0881972193" lon="6.61027777951">
		<tag k="name" v="Skorgedalen" />
		<tag k="natural" v="valley" />
		<tag k="place" v="locality" />
		<tag k="ssr:stedsnr" v="218028" />
	</node>
	<node id="-509912" lat="61.0433527797" lon="6.56472500805">
		<tag k="name" v="Gluvrene" />
		<tag k="natural" v="gorge" />
		<tag k="ssr:stedsnr" v="218116" />
	</node>
	<node id="-509910" lat="61.0724250021" lon="6.62015554676">
		<tag k="name" v="Heimstadli" />
		<tag k="natural" v="slope" />
		<tag k="place" v="locality" />
		<tag k="ssr:stedsnr" v="217012" />
	</node>
	<node id="-509909" lat="61.0713500045" lon="6.61993056336">
		<tag k="fixme" v="consider natural=peak for the most distinct mountains in the district" />
		<tag k="name" v="Veslehovden" />
		<tag k="natural" v="hill" />
		<tag k="place" v="locality" />
		<tag k="ssr:stedsnr" v="217010" />
	</node>
	<node id="-509908" lat="61.0750861134" lon="6.62344443707">
		<tag k="name" v="Glenne" />
		<tag k="natural" v="ridge" />
		<tag k="place" v="locality" />
		<tag k="ssr:stedsnr" v="217002" />
	</node>
	<node id="-509907" lat="61.0347888903" lon="6.56075834121">
		<tag k="name" v="Varmesteinen" />
		<tag k="natural" v="hill" />
		<tag k="place" v="locality" />
		<tag k="ssr:stedsnr" v="216501" />
	</node>
	<node id="-509905" lat="60.994552775" lon="6.42926943776">
		<tag k="name" v="Grindskorane" />
		<tag k="natural" v="valley" />
		<tag k="place" v="locality" />
		<tag k="ssr:stedsnr" v="216424" />
	</node>
	<node id="-509903" lat="61.0445611136" lon="6.62617222797">
		<tag k="name" v="Åshagen" />
		<tag k="place" v="locality" />
		<tag k="ssr:stedsnr" v="216364" />
	</node>
	<node id="-509902" lat="61.0543999982" lon="6.62507222942">
		<tag k="name" v="Orrahaugen" />
		<tag k="natural" v="hill" />
		<tag k="place" v="locality" />
		<tag k="ssr:stedsnr" v="216361" />
	</node>
	<node id="-509901" lat="61.0377888893" lon="6.59255833758">
		<tag k="name" v="Stedjeberget" />
		<tag k="natural" v="hill" />
		<tag k="place" v="locality" />
		<tag k="ssr:stedsnr" v="216292" />
	</node>
	<node id="-509898" lat="61.0221750033" lon="6.36214444151">
		<tag k="name" v="Illekleivhaugen" />
		<tag k="natural" v="hill" />
		<tag k="place" v="locality" />
		<tag k="ssr:stedsnr" v="216067" />
	</node>
	<node id="-509896" lat="61.024100002" lon="6.36073889082">
		<tag k="fixme" v="consider natural=peak for the most distinct mountains in the district" />
		<tag k="name" v="Vetlenipa" />
		<tag k="natural" v="hill" />
		<tag k="place" v="locality" />
		<tag k="ssr:stedsnr" v="215075" />
	</node>
	<node id="-509892" lat="61.0096472237" lon="6.61993611734">
		<tag k="fixme" v="consider natural=peak for the most distinct mountains in the district" />
		<tag k="name" v="Skjeldarkollen" />
		<tag k="natural" v="hill" />
		<tag k="place" v="locality" />
		<tag k="ssr:stedsnr" v="192152" />
	</node>
	<node id="-509891" lat="61.1406833309" lon="6.81078611578">
		<tag k="alt_name" v="Storefjellet" />
		<tag k="fixme" v="consider natural=peak for the most distinct mountains in the district" />
		<tag k="name" v="Storafjellet" />
		<tag k="natural" v="hill" />
		<tag k="place" v="locality" />
		<tag k="ssr:stedsnr" v="191826" />
	</node>
	<node id="-509886" lat="61.1475027817" lon="6.67062500895">
		<tag k="name" v="Kinnehaug" />
		<tag k="natural" v="hill" />
		<tag k="place" v="locality" />
		<tag k="ssr:stedsnr" v="191806" />
	</node>
	<node id="-509885" lat="61.1467439374" lon="6.7565627909">
		<tag k="name" v="Haugane" />
		<tag k="natural" v="hill" />
		<tag k="place" v="locality" />
		<tag k="ssr:stedsnr" v="191782" />
	</node>
	<node id="-509884" lat="61.0955666695" lon="6.84414722352">
		<tag k="name" v="Stølsdalen" />
		<tag k="natural" v="valley" />
		<tag k="place" v="locality" />
		<tag k="ssr:stedsnr" v="191759" />
	</node>
	<node id="-509883" lat="61.0916333304" lon="6.86170278052">
		<tag k="name" v="Nesali" />
		<tag k="natural" v="slope" />
		<tag k="place" v="locality" />
		<tag k="ssr:stedsnr" v="191757" />
	</node>
	<node id="-509881" lat="61.0946083352" lon="6.87489444298">
		<tag k="alt_name" v="Dingemoen" />
		<tag k="name" v="Bingemoen" />
		<tag k="place" v="locality" />
		<tag k="ssr:stedsnr" v="191747" />
	</node>
	<node id="-509878" lat="61.1278861127" lon="6.8541249934">
		<tag k="name" v="Tjørnahaugane" />
		<tag k="natural" v="hill" />
		<tag k="place" v="locality" />
		<tag k="ssr:stedsnr" v="191728" />
	</node>
	<node id="-509877" lat="61.1082444457" lon="6.60187221964">
		<tag k="alt_name" v="Turtedalen" />
		<tag k="name" v="Turtndalen" />
		<tag k="natural" v="valley" />
		<tag k="place" v="locality" />
		<tag k="ssr:stedsnr" v="191718" />
	</node>
	<node id="-509874" lat="60.9545500034" lon="6.57115000452">
		<tag k="fixme" v="consider natural=peak for the most distinct mountains in the district" />
		<tag k="name" v="Klantane" />
		<tag k="natural" v="hill" />
		<tag k="place" v="locality" />
		<tag k="ssr:stedsnr" v="191604" />
	</node>
	<node id="-509873" lat="60.9635388897" lon="6.57258889151">
		<tag k="fixme" v="consider natural=peak for the most distinct mountains in the district" />
		<tag k="name" v="Tirshaugen" />
		<tag k="natural" v="hill" />
		<tag k="place" v="locality" />
		<tag k="ssr:stedsnr" v="191599" />
	</node>
	<node id="-509872" lat="60.9628611084" lon="6.51523333552">
		<tag k="name" v="Johanneskleivi" />
		<tag k="natural" v="valley" />
		<tag k="place" v="locality" />
		<tag k="ssr:stedsnr" v="191597" />
	</node>
	<node id="-509864" lat="61.0681777739" lon="6.53625555772">
		<tag k="name" v="Bøadalen" />
		<tag k="natural" v="valley" />
		<tag k="place" v="locality" />
		<tag k="ssr:stedsnr" v="191475" />
	</node>
	<node id="-509862" lat="61.0286999971" lon="7.00144999765">
		<tag k="fixme" v="consider natural=peak for the most distinct mountains in the district" />
		<tag k="name" v="Fysseholten" />
		<tag k="natural" v="hill" />
		<tag k="place" v="locality" />
		<tag k="ssr:stedsnr" v="191370" />
	</node>
	<node id="-509861" lat="61.0902373264" lon="6.86932274184">
		<tag k="fixme" v="consider natural=peak for the most distinct mountains in the district" />
		<tag k="name" v="Kolåsen" />
		<tag k="natural" v="hill" />
		<tag k="place" v="locality" />
		<tag k="ssr:stedsnr" v="191195" />
	</node>
	<node id="-509859" lat="61.0748249974" lon="6.72981111489">
		<tag k="alt_name" v="Gullset - flatane" />
		<tag k="name" v="Gullseteflatane" />
		<tag k="place" v="locality" />
		<tag k="ssr:stedsnr" v="191184" />
	</node>
	<node id="-509858" lat="61.0761805518" lon="6.69264999238">
		<tag k="fixme" v="consider natural=peak for the most distinct mountains in the district" />
		<tag k="name" v="Rambera" />
		<tag k="natural" v="hill" />
		<tag k="place" v="locality" />
		<tag k="ssr:stedsnr" v="191183" />
	</node>
	<node id="-509853" lat="61.0667361066" lon="6.95021665857">
		<tag k="alt_name" v="Dragaskaret" />
		<tag k="name" v="Dragaskardet" />
		<tag k="natural" v="valley" />
		<tag k="place" v="locality" />
		<tag k="ssr:stedsnr" v="191158" />
	</node>
	<node id="-509850" lat="61.0450777745" lon="6.88111943734">
		<tag k="alt_name" v="Engaskreda" />
		<tag k="name" v="Engjaskreda" />
		<tag k="natural" v="cliff" />
		<tag k="ssr:stedsnr" v="191141" />
	</node>
	<node id="-509845" lat="61.037077781" lon="6.63126944721">
		<tag k="fixme" v="consider natural=peak for the most distinct mountains in the district" />
		<tag k="name" v="Øvstegalden" />
		<tag k="natural" v="hill" />
		<tag k="place" v="locality" />
		<tag k="ssr:stedsnr" v="191122" />
	</node>
	<node id="-509844" lat="61.0301305567" lon="6.86965834103">
		<tag k="fixme" v="consider natural=peak for the most distinct mountains in the district" />
		<tag k="name" v="Lauvhoggskallen" />
		<tag k="natural" v="hill" />
		<tag k="place" v="locality" />
		<tag k="ssr:stedsnr" v="191108" />
	</node>
	<node id="-509838" lat="60.9975166679" lon="6.1659444376">
		<tag k="fixme" v="consider natural=peak for the most distinct mountains in the district" />
		<tag k="name" v="Kvanngrødfjellet" />
		<tag k="natural" v="hill" />
		<tag k="place" v="locality" />
		<tag k="ssr:stedsnr" v="190002" />
	</node>
	<node id="-509837" lat="61.0341527806" lon="6.27624444744">
		<tag k="name" v="Storevinden" />
		<tag k="natural" v="valley" />
		<tag k="place" v="locality" />
		<tag k="ssr:stedsnr" v="188931" />
	</node>
	<node id="-509831" lat="61.1190249985" lon="6.81986110284">
		<tag k="fixme" v="consider natural=peak for the most distinct mountains in the district" />
		<tag k="name" v="Viasethovden" />
		<tag k="natural" v="hill" />
		<tag k="place" v="locality" />
		<tag k="ssr:stedsnr" v="162485" />
	</node>
	<node id="-509828" lat="61.064966667" lon="6.40235554643">
		<tag k="name" v="Kvilesteinen" />
		<tag k="natural" v="hill" />
		<tag k="place" v="locality" />
		<tag k="ssr:stedsnr" v="158622" />
	</node>
	<node id="-509827" lat="61.0697065879" lon="6.36641190911">
		<tag k="name" v="Sopehola" />
		<tag k="natural" v="gorge" />
		<tag k="ssr:stedsnr" v="158572" />
	</node>
	<node id="-509826" lat="61.0805861127" lon="6.30195277101">
		<tag k="fixme" v="consider natural=peak for the most distinct mountains in the district" />
		<tag k="name" v="Åsen" />
		<tag k="natural" v="hill" />
		<tag k="place" v="locality" />
		<tag k="ssr:stedsnr" v="158939" />
	</node>
	<node id="-509825" lat="61.0795722198" lon="6.29197778642">
		<tag k="name" v="Galdebotn" />
		<tag k="natural" v="valley" />
		<tag k="place" v="locality" />
		<tag k="ssr:stedsnr" v="158937" />
	</node>
	<node id="-509824" lat="61.0650750033" lon="6.3041111084">
		<tag k="name" v="Natenesgjelet" />
		<tag k="natural" v="valley" />
		<tag k="place" v="locality" />
		<tag k="ssr:stedsnr" v="158936" />
	</node>
	<node id="-509823" lat="61.0609388856" lon="6.29974443919">
		<tag k="name" v="Nybbesteinbotn" />
		<tag k="natural" v="valley" />
		<tag k="place" v="locality" />
		<tag k="ssr:stedsnr" v="158925" />
	</node>
	<node id="-509819" lat="61.0394388886" lon="6.25898056311">
		<tag k="name" v="Haugen" />
		<tag k="natural" v="hill" />
		<tag k="place" v="locality" />
		<tag k="ssr:stedsnr" v="157745" />
	</node>
	<node id="-509818" lat="61.0420583372" lon="6.27670833944">
		<tag k="name" v="Botnafuruskori" />
		<tag k="natural" v="valley" />
		<tag k="place" v="locality" />
		<tag k="ssr:stedsnr" v="157741" />
	</node>
	<node id="-509816" lat="61.0441638908" lon="6.31962222297">
		<tag k="fixme" v="consider natural=peak for the most distinct mountains in the district" />
		<tag k="name" v="Klevalemmen" />
		<tag k="natural" v="hill" />
		<tag k="place" v="locality" />
		<tag k="ssr:stedsnr" v="157692" />
	</node>
	<node id="-509811" lat="61.0431361116" lon="6.43441388323">
		<tag k="fixme" v="consider natural=peak for the most distinct mountains in the district" />
		<tag k="name" v="Hovden" />
		<tag k="natural" v="hill" />
		<tag k="place" v="locality" />
		<tag k="ssr:stedsnr" v="157633" />
	</node>
	<node id="-509810" lat="61.0363444412" lon="6.66599165787">
		<tag k="name" v="Blåberhaugen" />
		<tag k="natural" v="hill" />
		<tag k="place" v="locality" />
		<tag k="ssr:stedsnr" v="158203" />
	</node>
	<node id="-509809" lat="61.0958111082" lon="6.22393611534">
		<tag k="name" v="Svarthamrane" />
		<tag k="natural" v="hill" />
		<tag k="place" v="locality" />
		<tag k="ssr:stedsnr" v="157485" />
	</node>
	<node id="-509807" lat="61.1025555568" lon="6.21201110965">
		<tag k="name" v="Lindesva" />
		<tag k="natural" v="hill" />
		<tag k="place" v="locality" />
		<tag k="ssr:stedsnr" v="157464" />
	</node>
	<node id="-509806" lat="61.1110999993" lon="6.19539999611">
		<tag k="name" v="Svortegjelet" />
		<tag k="natural" v="valley" />
		<tag k="place" v="locality" />
		<tag k="ssr:stedsnr" v="157459" />
	</node>
	<node id="-509803" lat="61.0816472253" lon="6.54477222676">
		<tag k="name" v="Skjervasvoi" />
		<tag k="natural" v="hill" />
		<tag k="place" v="locality" />
		<tag k="ssr:stedsnr" v="157363" />
	</node>
	<node id="-509802" lat="61.0840861152" lon="6.56293334071">
		<tag k="name" v="Håsvoi" />
		<tag k="natural" v="hill" />
		<tag k="place" v="locality" />
		<tag k="ssr:stedsnr" v="157356" />
	</node>
	<node id="-509801" lat="61.0942194475" lon="6.56253889586">
		<tag k="name" v="Kroppedalen" />
		<tag k="natural" v="valley" />
		<tag k="place" v="locality" />
		<tag k="ssr:stedsnr" v="157342" />
	</node>
	<node id="-509800" lat="61.095677779" lon="6.57314999966">
		<tag k="name" v="Bjønnahiet" />
		<tag k="natural" v="slope" />
		<tag k="place" v="locality" />
		<tag k="ssr:stedsnr" v="157340" />
	</node>
	<node id="-509798" lat="61.1508972211" lon="6.63488888209">
		<tag k="alt_name" v="Flåten" />
		<tag k="name" v="Floten" />
		<tag k="natural" v="hill" />
		<tag k="place" v="locality" />
		<tag k="ssr:stedsnr" v="157315" />
	</node>
	<node id="-509797" lat="61.1603777796" lon="6.63415277135">
		<tag k="name" v="Storesva" />
		<tag k="natural" v="hill" />
		<tag k="place" v="locality" />
		<tag k="ssr:stedsnr" v="157313" />
	</node>
	<node id="-509796" lat="61.1328833303" lon="6.63125556077">
		<tag k="name" v="Hangsetli" />
		<tag k="natural" v="slope" />
		<tag k="place" v="locality" />
		<tag k="ssr:stedsnr" v="157282" />
	</node>
	<node id="-509795" lat="61.1387388893" lon="6.64316943908">
		<tag k="name" v="Benkjehola" />
		<tag k="natural" v="valley" />
		<tag k="place" v="locality" />
		<tag k="ssr:stedsnr" v="157278" />
	</node>
	<node id="-509794" lat="61.0348499962" lon="6.28979443905">
		<tag k="name" v="Vindskredene" />
		<tag k="natural" v="valley" />
		<tag k="place" v="locality" />
		<tag k="ssr:stedsnr" v="157266" />
	</node>
	<node id="-509793" lat="61.0367583354" lon="6.29631944739">
		<tag k="name" v="Håskredene" />
		<tag k="natural" v="valley" />
		<tag k="place" v="locality" />
		<tag k="ssr:stedsnr" v="157265" />
	</node>
	<node id="-509791" lat="61.1716166691" lon="6.63738888679">
		<tag k="name" v="Høgareina" />
		<tag k="natural" v="hill" />
		<tag k="place" v="locality" />
		<tag k="ssr:stedsnr" v="157081" />
	</node>
	<node id="-509790" lat="61.1685888873" lon="6.64474722819">
		<tag k="name" v="Kvina" />
		<tag k="place" v="locality" />
		<tag k="ssr:stedsnr" v="157078" />
	</node>
	<node id="-509789" lat="61.0531222249" lon="6.57945278252">
		<tag k="name" v="Berjehamar" />
		<tag k="natural" v="hill" />
		<tag k="place" v="locality" />
		<tag k="ssr:stedsnr" v="157053" />
	</node>
	<node id="-509788" lat="61.0138305553" lon="6.56373334182">
		<tag k="fixme" v="consider natural=peak for the most distinct mountains in the district" />
		<tag k="name" v="Kvålafjell" />
		<tag k="natural" v="hill" />
		<tag k="place" v="locality" />
		<tag k="ssr:stedsnr" v="157050" />
	</node>
	<node id="-509786" lat="61.0753444413" lon="6.60668332634">
		<tag k="name" v="Høyhjellene" />
		<tag k="place" v="locality" />
		<tag k="ssr:stedsnr" v="156045" />
	</node>
	<node id="-509785" lat="61.0572861087" lon="6.52843611171">
		<tag k="name" v="Kvihaugen" />
		<tag k="natural" v="hill" />
		<tag k="place" v="locality" />
		<tag k="ssr:stedsnr" v="156002" />
	</node>
	<node id="-509782" lat="61.0310055544" lon="6.56628610736">
		<tag k="name" v="Espehjellene" />
		<tag k="place" v="locality" />
		<tag k="ssr:stedsnr" v="155491" />
	</node>
	<node id="-509781" lat="61.0427444405" lon="6.63757778393">
		<tag k="name" v="Turvollsøygardane" />
		<tag k="place" v="locality" />
		<tag k="ssr:stedsnr" v="155402" />
	</node>
	<node id="-509780" lat="61.0285111152" lon="6.58491110419">
		<tag k="fixme" v="consider natural=peak for the most distinct mountains in the district" />
		<tag k="name" v="Holten" />
		<tag k="natural" v="hill" />
		<tag k="place" v="locality" />
		<tag k="ssr:stedsnr" v="155291" />
	</node>
	<node id="-509777" lat="61.0318444415" lon="6.3682500067">
		<tag k="name" v="Rauneli" />
		<tag k="natural" v="slope" />
		<tag k="place" v="locality" />
		<tag k="ssr:stedsnr" v="155137" />
	</node>
	<node id="-509776" lat="61.0201750002" lon="6.36930000752">
		<tag k="name" v="Storehaug" />
		<tag k="natural" v="hill" />
		<tag k="place" v="locality" />
		<tag k="ssr:stedsnr" v="155074" />
	</node>
	<node id="-509769" lat="61.130058334" lon="6.6809388978">
		<tag k="alt_name" v="Flatafjell" />
		<tag k="fixme" v="consider natural=peak for the most distinct mountains in the district" />
		<tag k="name" v="Flatafjellet" />
		<tag k="natural" v="hill" />
		<tag k="place" v="locality" />
		<tag k="ssr:stedsnr" v="130820" />
	</node>
	<node id="-509765" lat="61.1467500037" lon="6.70216110278">
		<tag k="fixme" v="consider natural=peak for the most distinct mountains in the district" />
		<tag k="name" v="Skredfjellet" />
		<tag k="natural" v="hill" />
		<tag k="place" v="locality" />
		<tag k="ssr:stedsnr" v="130776" />
	</node>
	<node id="-509764" lat="61.1485277736" lon="6.72189722862">
		<tag k="alt_name" v="Hoveli" />
		<tag k="name" v="Håali" />
		<tag k="natural" v="slope" />
		<tag k="place" v="locality" />
		<tag k="ssr:stedsnr" v="130774" />
	</node>
	<node id="-509759" lat="61.1180194409" lon="6.74505554926">
		<tag k="alt_name" v="Hellelandsskaret" />
		<tag k="name" v="Hellandsskardet" />
		<tag k="natural" v="valley" />
		<tag k="place" v="locality" />
		<tag k="ssr:stedsnr" v="130730" />
	</node>
	<node id="-509755" lat="61.1043972202" lon="6.60628332787">
		<tag k="fixme" v="consider natural=peak for the most distinct mountains in the district" />
		<tag k="name" v="Brandholten" />
		<tag k="natural" v="hill" />
		<tag k="place" v="locality" />
		<tag k="ssr:stedsnr" v="130711" />
	</node>
	<node id="-509754" lat="60.9947138918" lon="6.47945278423">
		<tag k="name" v="Grønelii" />
		<tag k="natural" v="slope" />
		<tag k="place" v="locality" />
		<tag k="ssr:stedsnr" v="130649" />
	</node>
	<node id="-509753" lat="60.9879138876" lon="6.27948054877">
		<tag k="fixme" v="consider natural=peak for the most distinct mountains in the district" />
		<tag k="name" v="Hestfjellet" />
		<tag k="natural" v="hill" />
		<tag k="place" v="locality" />
		<tag k="ssr:stedsnr" v="130647" />
	</node>
	<node id="-509752" lat="60.9714888859" lon="6.46863333806">
		<tag k="fixme" v="consider natural=peak for the most distinct mountains in the district" />
		<tag k="name" v="Ygnisdalsfjellet" />
		<tag k="natural" v="hill" />
		<tag k="place" v="locality" />
		<tag k="ssr:stedsnr" v="130606" />
	</node>
	<node id="-509751" lat="61.034177777" lon="6.35483611431">
		<tag k="fixme" v="consider natural=peak for the most distinct mountains in the district" />
		<tag k="name" v="Vardeheii" />
		<tag k="natural" v="hill" />
		<tag k="place" v="locality" />
		<tag k="ssr:stedsnr" v="130572" />
	</node>
	<node id="-509744" lat="61.0091555544" lon="6.55954999766">
		<tag k="name" v="Smørdalen" />
		<tag k="natural" v="valley" />
		<tag k="place" v="locality" />
		<tag k="ssr:stedsnr" v="130503" />
	</node>
	<node id="-509740" lat="61.0881472228" lon="6.1828666608">
		<tag k="name" v="Stillingadalen" />
		<tag k="natural" v="valley" />
		<tag k="place" v="locality" />
		<tag k="ssr:stedsnr" v="130249" />
	</node>
	<node id="-509739" lat="61.0723944442" lon="6.77874166602">
		<tag k="fixme" v="consider natural=peak for the most distinct mountains in the district" />
		<tag k="name" v="Gravfjellet" />
		<tag k="natural" v="hill" />
		<tag k="place" v="locality" />
		<tag k="ssr:stedsnr" v="130228" />
	</node>
	<node id="-509737" lat="61.0627388925" lon="6.61836111451">
		<tag k="fixme" v="consider natural=peak for the most distinct mountains in the district" />
		<tag k="name" v="Fossfjellet" />
		<tag k="natural" v="hill" />
		<tag k="place" v="locality" />
		<tag k="ssr:stedsnr" v="130212" />
	</node>
	<node id="-509736" lat="61.0854944427" lon="6.84889444344">
		<tag k="alt_name" v="Fossbotn" />
		<tag k="name" v="Fossbotnen" />
		<tag k="natural" v="valley" />
		<tag k="place" v="locality" />
		<tag k="ssr:stedsnr" v="130210" />
	</node>
	<node id="-509733" lat="61.0746472189" lon="6.70184721792">
		<tag k="fixme" v="consider natural=peak for the most distinct mountains in the district" />
		<tag k="name" v="Rambertinden" />
		<tag k="natural" v="hill" />
		<tag k="place" v="locality" />
		<tag k="ssr:stedsnr" v="130190" />
	</node>
	<node id="-509729" lat="61.0215138921" lon="6.81163888038">
		<tag k="alt_name" v="Sirynjefjellet" />
		<tag k="fixme" v="consider natural=peak for the most distinct mountains in the district" />
		<tag k="name" v="Syringefjellet" />
		<tag k="natural" v="hill" />
		<tag k="place" v="locality" />
		<tag k="ssr:stedsnr" v="130094" />
	</node>
	<node id="-509728" lat="60.9680166689" lon="6.19405555834">
		<tag k="name" v="Grøndalen" />
		<tag k="natural" v="valley" />
		<tag k="place" v="locality" />
		<tag k="ssr:stedsnr" v="130071" />
	</node>
	<node id="-509725" lat="61.0562888864" lon="6.89230278653">
		<tag k="alt_name" v="Idlebakkgjelet" />
		<tag k="name" v="Illebakkgilet" />
		<tag k="natural" v="cliff" />
		<tag k="ssr:stedsnr" v="130141" />
	</node>
	<node id="-509724" lat="61.0359166637" lon="6.88804723094">
		<tag k="fixme" v="consider natural=peak for the most distinct mountains in the district" />
		<tag k="name" v="Veslengholten" />
		<tag k="natural" v="hill" />
		<tag k="place" v="locality" />
		<tag k="ssr:stedsnr" v="130110" />
	</node>
	<node id="-509723" lat="60.9805500035" lon="6.17322499541">
		<tag k="fixme" v="consider natural=peak for the most distinct mountains in the district" />
		<tag k="name" v="Bjørndalseggane" />
		<tag k="natural" v="hill" />
		<tag k="place" v="locality" />
		<tag k="ssr:stedsnr" v="130016" />
	</node>
	<node id="-509722" lat="60.9806055534" lon="6.65719444428">
		<tag k="alt_name" v="Kamben, store" />
		<tag k="name" v="Store Kamben" />
		<tag k="natural" v="hill" />
		<tag k="place" v="locality" />
		<tag k="ssr:stedsnr" v="129923" />
	</node>
	<node id="-509721" lat="60.9807416665" lon="6.64236111575">
		<tag k="fixme" v="consider natural=peak for the most distinct mountains in the district" />
		<tag k="name" v="Kambane" />
		<tag k="natural" v="hill" />
		<tag k="place" v="locality" />
		<tag k="ssr:stedsnr" v="129924" />
	</node>
	<node id="-509718" lat="60.9611027797" lon="6.63546388793">
		<tag k="name" v="Tverrgavlane" />
		<tag k="natural" v="hill" />
		<tag k="place" v="locality" />
		<tag k="ssr:stedsnr" v="129904" />
	</node>
	<node id="-509717" lat="60.9532777759" lon="6.77404999195">
		<tag k="name" v="Vassetskaret" />
		<tag k="natural" v="valley" />
		<tag k="place" v="locality" />
		<tag k="ssr:stedsnr" v="129900" />
	</node>
	<node id="-509716" lat="60.9422222183" lon="6.7225000049">
		<tag k="name" v="Krokøyna" />
		<tag k="natural" v="valley" />
		<tag k="place" v="locality" />
		<tag k="ssr:stedsnr" v="129888" />
	</node>
	<node id="-509715" lat="60.9210666623" lon="6.29096111205">
		<tag k="name" v="Gryteberg" />
		<tag k="natural" v="hill" />
		<tag k="place" v="locality" />
		<tag k="ssr:stedsnr" v="129599" />
	</node>
	<node id="-509713" lat="60.9505277806" lon="6.16421388726">
		<tag k="name" v="Nabbanosi" />
		<tag k="natural" v="hill" />
		<tag k="place" v="locality" />
		<tag k="ssr:stedsnr" v="129133" />
	</node>
	<node id="-509705" lat="61.0789888844" lon="6.31218610768">
		<tag k="name" v="Stølsgrindi" />
		<tag k="natural" v="hill" />
		<tag k="place" v="locality" />
		<tag k="ssr:stedsnr" v="97931" />
	</node>
	<node id="-509704" lat="61.0771416661" lon="6.31623054723">
		<tag k="name" v="Fuglaleite" />
		<tag k="natural" v="slope" />
		<tag k="place" v="locality" />
		<tag k="ssr:stedsnr" v="97920" />
	</node>
	<node id="-509702" lat="61.0399916706" lon="6.8782888804">
		<tag k="name" v="Vesle- engi" />
		<tag k="place" v="locality" />
		<tag k="ssr:stedsnr" v="97876" />
	</node>
	<node id="-509701" lat="61.0499805538" lon="6.95331666733">
		<tag k="name" v="Nipesteinli" />
		<tag k="natural" v="slope" />
		<tag k="place" v="locality" />
		<tag k="ssr:stedsnr" v="97832" />
	</node>
	<node id="-509700" lat="61.0448888908" lon="6.29125555773">
		<tag k="name" v="Orreleithaugen" />
		<tag k="natural" v="hill" />
		<tag k="place" v="locality" />
		<tag k="ssr:stedsnr" v="97726" />
	</node>
	<node id="-509697" lat="61.0677055579" lon="6.37227222049">
		<tag k="fixme" v="consider natural=peak for the most distinct mountains in the district" />
		<tag k="name" v="Tråfjellet" />
		<tag k="natural" v="hill" />
		<tag k="place" v="locality" />
		<tag k="ssr:stedsnr" v="97594" />
	</node>
	<node id="-509695" lat="61.0673861106" lon="6.34243055902">
		<tag k="name" v="Telsbakkagjelet" />
		<tag k="natural" v="valley" />
		<tag k="place" v="locality" />
		<tag k="ssr:stedsnr" v="97572" />
	</node>
	<node id="-509694" lat="61.0653777814" lon="6.33748610971">
		<tag k="name" v="Lindenesbakkane" />
		<tag k="natural" v="slope" />
		<tag k="place" v="locality" />
		<tag k="ssr:stedsnr" v="97570" />
	</node>
	<node id="-509693" lat="61.099438885" lon="6.2282388903">
		<tag k="name" v="Legene" />
		<tag k="natural" v="slope" />
		<tag k="place" v="locality" />
		<tag k="ssr:stedsnr" v="97540" />
	</node>
	<node id="-509692" lat="61.0985416634" lon="6.2219305496">
		<tag k="name" v="Vedkastberget" />
		<tag k="natural" v="hill" />
		<tag k="place" v="locality" />
		<tag k="ssr:stedsnr" v="97541" />
	</node>
	<node id="-509691" lat="61.1044472177" lon="6.19887499381">
		<tag k="name" v="Kvanngrø" />
		<tag k="natural" v="ridge" />
		<tag k="place" v="locality" />
		<tag k="ssr:stedsnr" v="97502" />
	</node>
	<node id="-509690" lat="61.0799222188" lon="6.54582222816">
		<tag k="name" v="Skjervali" />
		<tag k="natural" v="slope" />
		<tag k="place" v="locality" />
		<tag k="ssr:stedsnr" v="97476" />
	</node>
	<node id="-509686" lat="61.0675749964" lon="6.55042777002">
		<tag k="name" v="Rjukandegjelet" />
		<tag k="natural" v="valley" />
		<tag k="place" v="locality" />
		<tag k="ssr:stedsnr" v="97447" />
	</node>
	<node id="-509685" lat="61.1204750042" lon="6.60654165861">
		<tag k="name" v="Heggehola" />
		<tag k="natural" v="gorge" />
		<tag k="ssr:stedsnr" v="97415" />
	</node>
	<node id="-509683" lat="61.0863888901" lon="6.56617777196">
		<tag k="name" v="Kulten" />
		<tag k="natural" v="hill" />
		<tag k="place" v="locality" />
		<tag k="ssr:stedsnr" v="97381" />
	</node>
	<node id="-509682" lat="61.0626861083" lon="6.51101665813">
		<tag k="name" v="Hovdastein" />
		<tag k="natural" v="hill" />
		<tag k="place" v="locality" />
		<tag k="ssr:stedsnr" v="97374" />
	</node>
	<node id="-509681" lat="61.1423666701" lon="6.62104999707">
		<tag k="name" v="Kleivi" />
		<tag k="natural" v="slope" />
		<tag k="place" v="locality" />
		<tag k="ssr:stedsnr" v="97335" />
	</node>
	<node id="-509680" lat="61.1400666695" lon="6.62600277336">
		<tag k="name" v="Nonshaugen" />
		<tag k="natural" v="hill" />
		<tag k="place" v="locality" />
		<tag k="ssr:stedsnr" v="97328" />
	</node>
	<node id="-509679" lat="61.1328805547" lon="6.62344166619">
		<tag k="name" v="Ingjegjerdet" />
		<tag k="natural" v="slope" />
		<tag k="place" v="locality" />
		<tag k="ssr:stedsnr" v="97325" />
	</node>
	<node id="-509678" lat="61.1357083344" lon="6.62525555574">
		<tag k="name" v="Telldalen" />
		<tag k="natural" v="valley" />
		<tag k="place" v="locality" />
		<tag k="ssr:stedsnr" v="97324" />
	</node>
	<node id="-509677" lat="61.0280333336" lon="6.51767777959">
		<tag k="name" v="Krekane" />
		<tag k="natural" v="slope" />
		<tag k="place" v="locality" />
		<tag k="ssr:stedsnr" v="97303" />
	</node>
	<node id="-509676" lat="61.1520222222" lon="6.66120833753">
		<tag k="name" v="Åsrangane" />
		<tag k="natural" v="hill" />
		<tag k="place" v="locality" />
		<tag k="ssr:stedsnr" v="97156" />
	</node>
	<node id="-509675" lat="61.0928833363" lon="6.59681111302">
		<tag k="name" v="Tuasvoi" />
		<tag k="natural" v="hill" />
		<tag k="place" v="locality" />
		<tag k="ssr:stedsnr" v="97047" />
	</node>
	<node id="-509674" lat="61.0910000032" lon="6.60332221333">
		<tag k="name" v="Kjoshola" />
		<tag k="natural" v="gorge" />
		<tag k="ssr:stedsnr" v="97046" />
	</node>
	<node id="-509673" lat="61.0926527819" lon="6.6221083381">
		<tag k="name" v="Midlangsbakkane" />
		<tag k="natural" v="slope" />
		<tag k="place" v="locality" />
		<tag k="ssr:stedsnr" v="97036" />
	</node>
	<node id="-509672" lat="61.0699027777" lon="6.405597227">
		<tag k="name" v="Kolmilehola" />
		<tag k="natural" v="gorge" />
		<tag k="ssr:stedsnr" v="97625" />
	</node>
	<node id="-509671" lat="61.099894441" lon="6.23734443731">
		<tag k="name" v="Dermallhagane" />
		<tag k="natural" v="slope" />
		<tag k="place" v="locality" />
		<tag k="ssr:stedsnr" v="96834" />
	</node>
	<node id="-509668" lat="61.0669888909" lon="6.61324166465">
		<tag k="name" v="Ystali" />
		<tag k="natural" v="slope" />
		<tag k="place" v="locality" />
		<tag k="ssr:stedsnr" v="96075" />
	</node>
	<node id="-509663" lat="61.0502277747" lon="6.6163527692">
		<tag k="name" v="Berget" />
		<tag k="natural" v="hill" />
		<tag k="place" v="locality" />
		<tag k="ssr:stedsnr" v="95289" />
	</node>
	<node id="-509660" lat="61.032536115" lon="6.62399722612">
		<tag k="name" v="Skarslii" />
		<tag k="natural" v="slope" />
		<tag k="place" v="locality" />
		<tag k="ssr:stedsnr" v="95259" />
	</node>
	<node id="-509659" lat="61.0135333305" lon="6.41605000693">
		<tag k="name" v="Holali" />
		<tag k="natural" v="slope" />
		<tag k="place" v="locality" />
		<tag k="ssr:stedsnr" v="95134" />
	</node>
	<node id="-509653" lat="61.099599999" lon="6.69606389008">
		<tag k="fixme" v="consider natural=peak for the most distinct mountains in the district" />
		<tag k="name" v="Klukseggi" />
		<tag k="natural" v="hill" />
		<tag k="place" v="locality" />
		<tag k="ssr:stedsnr" v="70790" />
	</node>
	<node id="-509650" lat="61.1249944466" lon="6.85237221462">
		<tag k="name" v="Jarvehaugen" />
		<tag k="natural" v="hill" />
		<tag k="place" v="locality" />
		<tag k="ssr:stedsnr" v="70754" />
	</node>
	<node id="-509647" lat="61.0132777784" lon="6.45023889726">
		<tag k="name" v="Turdalen" />
		<tag k="natural" v="valley" />
		<tag k="place" v="locality" />
		<tag k="ssr:stedsnr" v="70595" />
	</node>
	<node id="-509644" lat="61.0343833356" lon="6.22034444291">
		<tag k="fixme" v="consider natural=peak for the most distinct mountains in the district" />
		<tag k="name" v="Orren" />
		<tag k="natural" v="hill" />
		<tag k="place" v="locality" />
		<tag k="ssr:stedsnr" v="70569" />
	</node>
	<node id="-509641" lat="61.0403527766" lon="6.55662499751">
		<tag k="fixme" v="consider natural=peak for the most distinct mountains in the district" />
		<tag k="name" v="Ovriseggi" />
		<tag k="natural" v="hill" />
		<tag k="place" v="locality" />
		<tag k="ssr:stedsnr" v="70496" />
	</node>
	<node id="-509640" lat="61.0751805561" lon="6.52224999965">
		<tag k="fixme" v="consider natural=peak for the most distinct mountains in the district" />
		<tag k="name" v="Bøeggi" />
		<tag k="natural" v="hill" />
		<tag k="place" v="locality" />
		<tag k="ssr:stedsnr" v="70485" />
	</node>
	<node id="-509639" lat="61.0802916642" lon="6.53113889215">
		<tag k="name" v="Synshovden" />
		<tag k="natural" v="hill" />
		<tag k="place" v="locality" />
		<tag k="ssr:stedsnr" v="70483" />
	</node>
	<node id="-509636" lat="61.0587833322" lon="6.47603056114">
		<tag k="name" v="Vardhaugane" />
		<tag k="natural" v="hill" />
		<tag k="place" v="locality" />
		<tag k="ssr:stedsnr" v="70560" />
	</node>
	<node id="-509627" lat="61.0337666676" lon="6.60948055489">
		<tag k="name" v="Middagshaugen" />
		<tag k="natural" v="hill" />
		<tag k="place" v="locality" />
		<tag k="ssr:stedsnr" v="70137" />
	</node>
	<node id="-509626" lat="61.0265666632" lon="6.91169444518">
		<tag k="fixme" v="consider natural=peak for the most distinct mountains in the district" />
		<tag k="name" v="Nonhaugfjellet" />
		<tag k="natural" v="hill" />
		<tag k="place" v="locality" />
		<tag k="ssr:stedsnr" v="70116" />
	</node>
	<node id="-509625" lat="61.0816499973" lon="6.95818888761">
		<tag k="alt_name" v="Mulen" />
		<tag k="fixme" v="consider natural=peak for the most distinct mountains in the district" />
		<tag k="name" v="Mulakamben" />
		<tag k="natural" v="hill" />
		<tag k="place" v="locality" />
		<tag k="ssr:stedsnr" v="70229" />
	</node>
	<node id="-509621" lat="60.957297225" lon="6.74362499741">
		<tag k="fixme" v="consider natural=peak for the most distinct mountains in the district" />
		<tag k="name" v="Stovefjellet" />
		<tag k="natural" v="hill" />
		<tag k="place" v="locality" />
		<tag k="ssr:stedsnr" v="69915" />
	</node>
	<node id="-509618" lat="61.0902444488" lon="6.73341667182">
		<tag k="name" v="Gildregilet" />
		<tag k="natural" v="cliff" />
		<tag k="ssr:stedsnr" v="69807" />
	</node>
	<node id="-509617" lat="61.0886333318" lon="6.6362444458">
		<tag k="name" v="Veslavarden" />
		<tag k="natural" v="hill" />
		<tag k="place" v="locality" />
		<tag k="ssr:stedsnr" v="69804" />
	</node>
	<node id="-509616" lat="61.0090111137" lon="6.18631389469">
		<tag k="name" v="Veslebotnen" />
		<tag k="natural" v="valley" />
		<tag k="place" v="locality" />
		<tag k="ssr:stedsnr" v="69342" />
	</node>
	<node id="-509614" lat="61.0830583369" lon="6.77673333969">
		<tag k="name" v="Astridbotnen" />
		<tag k="natural" v="valley" />
		<tag k="place" v="locality" />
		<tag k="ssr:stedsnr" v="69238" />
	</node>
	<node id="-509612" lat="61.0403234339" lon="6.85318031151">
		<tag k="alt_name" v="Jarvaslette" />
		<tag k="name" v="Jarvaslættet" />
		<tag k="natural" v="slope" />
		<tag k="place" v="locality" />
		<tag k="ssr:stedsnr" v="69198" />
	</node>
	<node id="-509608" lat="60.9474388912" lon="6.21279166726">
		<tag k="fixme" v="consider natural=peak for the most distinct mountains in the district" />
		<tag k="name" v="Sandbakkane" />
		<tag k="natural" v="hill" />
		<tag k="place" v="locality" />
		<tag k="ssr:stedsnr" v="69119" />
	</node>
	<node id="-509607" lat="60.9611388878" lon="6.15066666209">
		<tag k="name" v="Vikesjurddalen" />
		<tag k="natural" v="valley" />
		<tag k="place" v="locality" />
		<tag k="ssr:stedsnr" v="69108" />
	</node>
	<node id="-509594" lat="61.0628249965" lon="6.98588610965">
		<tag k="name" v="Frudalsflatene" />
		<tag k="place" v="locality" />
		<tag k="ssr:stedsnr" v="36897" />
	</node>
	<node id="-509593" lat="61.0713916624" lon="6.97103889436">
		<tag k="fixme" v="consider natural=peak for the most distinct mountains in the district" />
		<tag k="name" v="Lindeskredknubben" />
		<tag k="natural" v="hill" />
		<tag k="place" v="locality" />
		<tag k="ssr:stedsnr" v="36894" />
	</node>
	<node id="-509592" lat="61.0292611092" lon="7.00882221527">
		<tag k="name" v="Fysseberget" />
		<tag k="natural" v="hill" />
		<tag k="place" v="locality" />
		<tag k="ssr:stedsnr" v="36876" />
	</node>
	<node id="-509591" lat="61.0567916628" lon="6.92458610969">
		<tag k="name" v="Breilibakken" />
		<tag k="natural" v="slope" />
		<tag k="place" v="locality" />
		<tag k="ssr:stedsnr" v="36843" />
	</node>
	<node id="-509590" lat="61.0815749959" lon="6.25256111483">
		<tag k="name" v="Bresten" />
		<tag k="place" v="locality" />
		<tag k="ssr:stedsnr" v="36802" />
	</node>
	<node id="-509588" lat="61.0476888933" lon="6.31585833308">
		<tag k="fixme" v="consider natural=peak for the most distinct mountains in the district" />
		<tag k="name" v="Kulten" />
		<tag k="natural" v="hill" />
		<tag k="place" v="locality" />
		<tag k="ssr:stedsnr" v="36680" />
	</node>
	<node id="-509587" lat="61.0531861093" lon="6.28872500007">
		<tag k="name" v="Storerinden" />
		<tag k="natural" v="ridge" />
		<tag k="place" v="locality" />
		<tag k="ssr:stedsnr" v="36667" />
	</node>
	<node id="-509584" lat="61.0353722264" lon="6.24820277061">
		<tag k="name" v="Botnadalen" />
		<tag k="natural" v="valley" />
		<tag k="place" v="locality" />
		<tag k="ssr:stedsnr" v="36587" />
	</node>
	<node id="-509582" lat="61.047397225" lon="6.29932499059">
		<tag k="alt_name" v="Stakstø" />
		<tag k="name" v="Stakkstø" />
		<tag k="place" v="locality" />
		<tag k="ssr:stedsnr" v="36501" />
	</node>
	<node id="-509579" lat="61.0762166692" lon="6.57916665976">
		<tag k="name" v="Moahaugane" />
		<tag k="natural" v="hill" />
		<tag k="place" v="locality" />
		<tag k="ssr:stedsnr" v="36396" />
	</node>
	<node id="-509578" lat="61.122497226" lon="6.60839444025">
		<tag k="alt_name" v="Svedene" />
		<tag k="name" v="Sveene" />
		<tag k="natural" v="hill" />
		<tag k="place" v="locality" />
		<tag k="ssr:stedsnr" v="36388" />
	</node>
	<node id="-509575" lat="61.0557305569" lon="6.52226666887">
		<tag k="name" v="Kviflaten" />
		<tag k="place" v="locality" />
		<tag k="ssr:stedsnr" v="36321" />
	</node>
	<node id="-509574" lat="61.059091666" lon="6.50480000416">
		<tag k="name" v="Kleivaldshamn" />
		<tag k="natural" v="slope" />
		<tag k="place" v="locality" />
		<tag k="ssr:stedsnr" v="36317" />
	</node>
	<node id="-509571" lat="61.156669447" lon="6.65745277851">
		<tag k="name" v="Vegaskil" />
		<tag k="natural" v="hill" />
		<tag k="place" v="locality" />
		<tag k="ssr:stedsnr" v="36139" />
	</node>
	<node id="-509567" lat="61.0431166704" lon="6.57911945175">
		<tag k="name" v="Halrynjohagen" />
		<tag k="natural" v="slope" />
		<tag k="place" v="locality" />
		<tag k="ssr:stedsnr" v="36063" />
	</node>
	<node id="-509566" lat="61.0909805518" lon="6.59440556238">
		<tag k="name" v="Knulteren" />
		<tag k="natural" v="hill" />
		<tag k="place" v="locality" />
		<tag k="ssr:stedsnr" v="36038" />
	</node>
	<node id="-509565" lat="61.0393805555" lon="6.54937777916">
		<tag k="name" v="Nipgjelet" />
		<tag k="natural" v="valley" />
		<tag k="place" v="locality" />
		<tag k="ssr:stedsnr" v="35113" />
	</node>
	<node id="-509564" lat="61.0242388899" lon="6.53480555406">
		<tag k="name" v="Kuldabotn" />
		<tag k="natural" v="valley" />
		<tag k="place" v="locality" />
		<tag k="ssr:stedsnr" v="34477" />
	</node>
	<node id="-509559" lat="60.9820000008" lon="6.44149722122">
		<tag k="name" v="Ramsli" />
		<tag k="natural" v="slope" />
		<tag k="place" v="locality" />
		<tag k="ssr:stedsnr" v="34406" />
	</node>
	<node id="-509558" lat="61.0762277736" lon="6.45442777588">
		<tag k="fixme" v="consider natural=peak for the most distinct mountains in the district" />
		<tag k="name" v="Rasmusholten" />
		<tag k="natural" v="hill" />
		<tag k="place" v="locality" />
		<tag k="ssr:stedsnr" v="34371" />
	</node>
	<node id="-509557" lat="61.0469694471" lon="6.59276944549">
		<tag k="name" v="Ekredalen" />
		<tag k="natural" v="valley" />
		<tag k="place" v="locality" />
		<tag k="ssr:stedsnr" v="34281" />
	</node>
	<node id="-509556" lat="61.0069055534" lon="6.42806388214">
		<tag k="name" v="Haveren" />
		<tag k="natural" v="hill" />
		<tag k="place" v="locality" />
		<tag k="ssr:stedsnr" v="34164" />
	</node>
	<node id="-509551" lat="61.1325833347" lon="6.76851666726">
		<tag k="fixme" v="consider natural=peak for the most distinct mountains in the district" />
		<tag k="name" v="Dregahovden" />
		<tag k="natural" v="hill" />
		<tag k="place" v="locality" />
		<tag k="ssr:stedsnr" v="9845" />
	</node>
	<node id="-509549" lat="61.1294250029" lon="6.6273277763">
		<tag k="fixme" v="consider natural=peak for the most distinct mountains in the district" />
		<tag k="name" v="Hovden" />
		<tag k="natural" v="hill" />
		<tag k="place" v="locality" />
		<tag k="ssr:stedsnr" v="9833" />
	</node>
	<node id="-509547" lat="61.1520583315" lon="6.68017778003">
		<tag k="alt_name" v="Steinagjelet" />
		<tag k="name" v="Steinagilet" />
		<tag k="natural" v="gorge" />
		<tag k="ssr:stedsnr" v="9819" />
	</node>
	<node id="-509543" lat="61.1041861109" lon="6.82162499276">
		<tag k="fixme" v="consider natural=peak for the most distinct mountains in the district" />
		<tag k="name" v="Kjeringafjellet" />
		<tag k="natural" v="hill" />
		<tag k="place" v="locality" />
		<tag k="ssr:stedsnr" v="9799" />
	</node>
	<node id="-509539" lat="61.1132722205" lon="6.61028888928">
		<tag k="alt_name" v="Svarthamar" />
		<tag k="fixme" v="consider natural=peak for the most distinct mountains in the district" />
		<tag k="name" v="Svarthammar" />
		<tag k="natural" v="hill" />
		<tag k="place" v="locality" />
		<tag k="ssr:stedsnr" v="9776" />
	</node>
	<node id="-509538" lat="61.1331777744" lon="6.8648555483">
		<tag k="alt_name" v="Skomakarnosi" />
		<tag k="fixme" v="consider natural=peak for the most distinct mountains in the district" />
		<tag k="name" v="Skomakarsnytta" />
		<tag k="natural" v="hill" />
		<tag k="place" v="locality" />
		<tag k="ssr:stedsnr" v="9768" />
	</node>
	<node id="-509537" lat="61.135271859" lon="6.86042036732">
		<tag k="fixme" v="consider natural=peak for the most distinct mountains in the district" />
		<tag k="name" v="Brandåsen" />
		<tag k="natural" v="hill" />
		<tag k="place" v="locality" />
		<tag k="ssr:stedsnr" v="9767" />
	</node>
	<node id="-509530" lat="60.9710944411" lon="6.53261110734">
		<tag k="fixme" v="consider natural=peak for the most distinct mountains in the district" />
		<tag k="name" v="Trollapresten" />
		<tag k="natural" v="hill" />
		<tag k="place" v="locality" />
		<tag k="ssr:stedsnr" v="9651" />
	</node>
	<node id="-509528" lat="60.9670027768" lon="6.35358054986">
		<tag k="name" v="Englandsøyskardet" />
		<tag k="natural" v="valley" />
		<tag k="place" v="locality" />
		<tag k="ssr:stedsnr" v="9627" />
	</node>
	<node id="-509525" lat="61.0287500021" lon="6.49584166342">
		<tag k="name" v="Liabakken" />
		<tag k="natural" v="slope" />
		<tag k="place" v="locality" />
		<tag k="ssr:stedsnr" v="9592" />
	</node>
	<node id="-509523" lat="61.0468749994" lon="6.34351665885">
		<tag k="fixme" v="consider natural=peak for the most distinct mountains in the district" />
		<tag k="name" v="Fagerdalsnipi" />
		<tag k="natural" v="hill" />
		<tag k="place" v="locality" />
		<tag k="ssr:stedsnr" v="9579" />
	</node>
	<node id="-509521" lat="61.0202944423" lon="6.5849305509">
		<tag k="name" v="Rislågnipa" />
		<tag k="natural" v="hill" />
		<tag k="place" v="locality" />
		<tag k="ssr:stedsnr" v="9529" />
	</node>
	<node id="-509518" lat="61.0773138849" lon="6.97081666586">
		<tag k="fixme" v="consider natural=peak for the most distinct mountains in the district" />
		<tag k="name" v="Kamben" />
		<tag k="natural" v="hill" />
		<tag k="place" v="locality" />
		<tag k="ssr:stedsnr" v="9438" />
	</node>
	<node id="-509516" lat="61.0621333372" lon="6.21064722954">
		<tag k="name" v="Vollevikskardet" />
		<tag k="natural" v="valley" />
		<tag k="place" v="locality" />
		<tag k="ssr:stedsnr" v="9311" />
	</node>
	<node id="-509515" lat="61.0924916693" lon="6.21602500143">
		<tag k="alt_name" v="Vetlenonhaugen" />
		<tag k="name" v="Nonhaugen" />
		<tag k="natural" v="hill" />
		<tag k="place" v="locality" />
		<tag k="ssr:stedsnr" v="9309" />
	</node>
	<node id="-509512" lat="61.0750249976" lon="6.91139722129">
		<tag k="alt_name" v="Skafjellet" />
		<tag k="fixme" v="consider natural=peak for the most distinct mountains in the district" />
		<tag k="name" v="Skadfjellet" />
		<tag k="natural" v="hill" />
		<tag k="place" v="locality" />
		<tag k="ssr:stedsnr" v="9201" />
	</node>
	<node id="-509510" lat="61.0874972234" lon="6.89167499487">
		<tag k="alt_name" v="Mosehammaren" />
		<tag k="name" v="Moshammaren" />
		<tag k="natural" v="hill" />
		<tag k="place" v="locality" />
		<tag k="ssr:stedsnr" v="9194" />
	</node>
	<node id="-509505" lat="61.0695805583" lon="6.88187499922">
		<tag k="fixme" v="consider natural=peak for the most distinct mountains in the district" />
		<tag k="name" v="Hovsfjellet" />
		<tag k="natural" v="hill" />
		<tag k="place" v="locality" />
		<tag k="ssr:stedsnr" v="9171" />
	</node>
	<node id="-509503" lat="61.0549361119" lon="6.8565611148">
		<tag k="fixme" v="consider natural=peak for the most distinct mountains in the district" />
		<tag k="name" v="Engjafjell" />
		<tag k="natural" v="hill" />
		<tag k="place" v="locality" />
		<tag k="ssr:stedsnr" v="9159" />
	</node>
	<node id="-509502" lat="61.0427805597" lon="6.8888111083">
		<tag k="name" v="Sandbakken" />
		<tag k="natural" v="slope" />
		<tag k="place" v="locality" />
		<tag k="ssr:stedsnr" v="9139" />
	</node>
	<node id="-509501" lat="61.0326500028" lon="6.65948611847">
		<tag k="alt_name" v="Røyrvikarindane" />
		<tag k="name" v="Røyrvikrindane" />
		<tag k="natural" v="ridge" />
		<tag k="place" v="locality" />
		<tag k="ssr:stedsnr" v="9109" />
	</node>
	<node id="-509500" lat="60.981052774" lon="6.15563055385">
		<tag k="name" v="Dyrabotnen" />
		<tag k="natural" v="valley" />
		<tag k="place" v="locality" />
		<tag k="ssr:stedsnr" v="9012" />
	</node>
	<node id="-509499" lat="60.9580361144" lon="6.61239722618">
		<tag k="name" v="Lofringahaugane" />
		<tag k="natural" v="hill" />
		<tag k="place" v="locality" />
		<tag k="ssr:stedsnr" v="8911" />
	</node>
	<node id="-509496" lat="60.9945194419" lon="6.31681388556">
		<tag k="name" v="Vetledalen" />
		<tag k="natural" v="valley" />
		<tag k="place" v="locality" />
		<tag k="ssr:stedsnr" v="8717" />
	</node>
	<node id="-509493" lat="60.989313887" lon="6.55159443836">
		<tag k="name" v="Trolldalen" />
		<tag k="natural" v="valley" />
		<tag k="place" v="locality" />
		<tag k="ssr:stedsnr" v="8653" />
	</node>
	<node id="-509492" lat="60.9920638925" lon="6.56882500376">
		<tag k="name" v="Endredalen" />
		<tag k="natural" v="valley" />
		<tag k="place" v="locality" />
		<tag k="ssr:stedsnr" v="8649" />
	</node>
	<node id="-509491" lat="60.8953305512" lon="6.28119444317">
		<tag k="fixme" v="consider natural=peak for the most distinct mountains in the district" />
		<tag k="name" v="Hundeggi" />
		<tag k="natural" v="hill" />
		<tag k="place" v="locality" />
		<tag k="ssr:stedsnr" v="8635" />
	</node>
	<node id="-509487" lat="60.9265861104" lon="6.58448610822">
		<tag k="fixme" v="consider natural=peak for the most distinct mountains in the district" />
		<tag k="name" v="Tverrfjellet" />
		<tag k="natural" v="hill" />
		<tag k="place" v="locality" />
		<tag k="ssr:stedsnr" v="8616" />
	</node>
	<node id="-509485" lat="60.901755557" lon="6.57846944014">
		<tag k="fixme" v="consider natural=peak for the most distinct mountains in the district" />
		<tag k="name" v="Solheimsfjellet" />
		<tag k="natural" v="hill" />
		<tag k="place" v="locality" />
		<tag k="ssr:stedsnr" v="8587" />
	</node>
	<node id="-509478" lat="61.0123166684" lon="6.84469443911">
		<tag k="name" v="Tundalbotn" />
		<tag k="natural" v="valley" />
		<tag k="place" v="locality" />
		<tag k="ssr:stedsnr" v="886999" />
	</node>
	<node id="-509477" lat="61.0879222264" lon="6.28523889001">
		<tag k="name" v="Sildakremaren" />
		<tag k="natural" v="valley" />
		<tag k="place" v="locality" />
		<tag k="ssr:stedsnr" v="886936" />
	</node>
	<node id="-509474" lat="61.0413111123" lon="6.84380556057">
		<tag k="name" v="Bjørkehaug" />
		<tag k="natural" v="hill" />
		<tag k="place" v="locality" />
		<tag k="ssr:stedsnr" v="886893" />
	</node>
	<node id="-509472" lat="61.0992833343" lon="6.26804166784">
		<tag k="name" v="Mjølkevollkvina" />
		<tag k="natural" v="hill" />
		<tag k="place" v="locality" />
		<tag k="ssr:stedsnr" v="886779" />
	</node>
	<node id="-509471" lat="61.0411166671" lon="6.26635555472">
		<tag k="alt_name" v="Ytreflåten" />
		<tag k="name" v="Ytrefloten" />
		<tag k="natural" v="hill" />
		<tag k="place" v="locality" />
		<tag k="ssr:stedsnr" v="886769" />
	</node>
	<node id="-509470" lat="61.0519999988" lon="6.28438610394">
		<tag k="name" v="Smågjelli" />
		<tag k="natural" v="slope" />
		<tag k="place" v="locality" />
		<tag k="ssr:stedsnr" v="886755" />
	</node>
	<node id="-509468" lat="61.0663388885" lon="6.39926111237">
		<tag k="name" v="Grindabakken" />
		<tag k="natural" v="slope" />
		<tag k="place" v="locality" />
		<tag k="ssr:stedsnr" v="886621" />
	</node>
	<node id="-509467" lat="61.0649694454" lon="6.36861389625">
		<tag k="name" v="Moldhaugarusti" />
		<tag k="natural" v="ridge" />
		<tag k="place" v="locality" />
		<tag k="ssr:stedsnr" v="886590" />
	</node>
	<node id="-509464" lat="61.0617555529" lon="6.35732221451">
		<tag k="name" v="Ytste Sopegjelet" />
		<tag k="natural" v="valley" />
		<tag k="place" v="locality" />
		<tag k="ssr:stedsnr" v="886549" />
	</node>
	<node id="-509463" lat="61.0523861069" lon="6.40521944395">
		<tag k="name" v="Torgjelet" />
		<tag k="natural" v="valley" />
		<tag k="place" v="locality" />
		<tag k="ssr:stedsnr" v="886535" />
	</node>
	<node id="-509462" lat="61.1084805582" lon="6.19494443901">
		<tag k="fixme" v="consider natural=peak for the most distinct mountains in the district" />
		<tag k="name" v="Høgåsen" />
		<tag k="natural" v="hill" />
		<tag k="place" v="locality" />
		<tag k="ssr:stedsnr" v="886484" />
	</node>
	<node id="-509461" lat="61.0718500021" lon="6.53934167554">
		<tag k="name" v="Bøabakkane" />
		<tag k="natural" v="slope" />
		<tag k="place" v="locality" />
		<tag k="ssr:stedsnr" v="886451" />
	</node>
	<node id="-509459" lat="61.08583056" lon="6.59863611179">
		<tag k="fixme" v="consider natural=peak for the most distinct mountains in the district" />
		<tag k="name" v="Hesten" />
		<tag k="natural" v="hill" />
		<tag k="place" v="locality" />
		<tag k="ssr:stedsnr" v="886421" />
	</node>
	<node id="-509455" lat="61.078997218" lon="6.51499444645">
		<tag k="name" v="Bjønnstigane" />
		<tag k="natural" v="hill" />
		<tag k="place" v="locality" />
		<tag k="ssr:stedsnr" v="886357" />
	</node>
	<node id="-509454" lat="61.0775055598" lon="6.51867777925">
		<tag k="name" v="Kvanndalen" />
		<tag k="natural" v="valley" />
		<tag k="place" v="locality" />
		<tag k="ssr:stedsnr" v="886355" />
	</node>
	<node id="-509452" lat="61.0590694473" lon="6.51944444522">
		<tag k="name" v="Storehaug" />
		<tag k="natural" v="hill" />
		<tag k="place" v="locality" />
		<tag k="ssr:stedsnr" v="886347" />
	</node>
	<node id="-509449" lat="61.0255472214" lon="6.52010277094">
		<tag k="name" v="Hovdalegdene" />
		<tag k="natural" v="hill" />
		<tag k="place" v="locality" />
		<tag k="ssr:stedsnr" v="886279" />
	</node>
	<node id="-509448" lat="61.0196277768" lon="6.64956389277">
		<tag k="name" v="Lægeresete" />
		<tag k="place" v="locality" />
		<tag k="ssr:stedsnr" v="886163" />
	</node>
	<node id="-509447" lat="61.1575083326" lon="6.67409166214">
		<tag k="name" v="Lomsgjelet" />
		<tag k="natural" v="valley" />
		<tag k="place" v="locality" />
		<tag k="ssr:stedsnr" v="886157" />
	</node>
	<node id="-509446" lat="61.1471416632" lon="6.64646387997">
		<tag k="name" v="Geiteryggen" />
		<tag k="natural" v="ridge" />
		<tag k="place" v="locality" />
		<tag k="ssr:stedsnr" v="886153" />
	</node>
	<node id="-509445" lat="61.1512694457" lon="6.64666943869">
		<tag k="name" v="Sjønarhaug" />
		<tag k="natural" v="hill" />
		<tag k="place" v="locality" />
		<tag k="ssr:stedsnr" v="886151" />
	</node>
	<node id="-509443" lat="61.1116805561" lon="6.17841389155">
		<tag k="fixme" v="consider natural=peak for the most distinct mountains in the district" />
		<tag k="name" v="Storhamaren" />
		<tag k="natural" v="hill" />
		<tag k="place" v="locality" />
		<tag k="ssr:stedsnr" v="885503" />
	</node>
	<node id="-509442" lat="61.0685194405" lon="6.61189722248">
		<tag k="name" v="Nipen" />
		<tag k="natural" v="hill" />
		<tag k="place" v="locality" />
		<tag k="ssr:stedsnr" v="885048" />
	</node>
	<node id="-509440" lat="61.020061109" lon="6.54576666576">
		<tag k="fixme" v="consider natural=peak for the most distinct mountains in the district" />
		<tag k="name" v="Klypeseggi" />
		<tag k="natural" v="hill" />
		<tag k="place" v="locality" />
		<tag k="ssr:stedsnr" v="884944" />
	</node>
	<node id="-509438" lat="61.0264000037" lon="6.56941111329">
		<tag k="name" v="Vårberg" />
		<tag k="natural" v="hill" />
		<tag k="place" v="locality" />
		<tag k="ssr:stedsnr" v="884444" />
	</node>
	<node id="-509437" lat="61.0405055522" lon="6.62595278449">
		<tag k="fixme" v="consider natural=peak for the most distinct mountains in the district" />
		<tag k="name" v="Hissen" />
		<tag k="natural" v="hill" />
		<tag k="place" v="locality" />
		<tag k="ssr:stedsnr" v="884308" />
	</node>
	<node id="-509436" lat="61.0259944429" lon="6.59026944609">
		<tag k="name" v="Meiavollen" />
		<tag k="natural" v="hill" />
		<tag k="place" v="locality" />
		<tag k="ssr:stedsnr" v="884254" />
	</node>
	<node id="-509434" lat="61.0053222232" lon="6.37024444248">
		<tag k="name" v="Åshagen" />
		<tag k="place" v="locality" />
		<tag k="ssr:stedsnr" v="884172" />
	</node>
	<node id="-509432" lat="60.9901138894" lon="6.36043055076">
		<tag k="name" v="Nonhaugen" />
		<tag k="natural" v="hill" />
		<tag k="place" v="locality" />
		<tag k="ssr:stedsnr" v="884083" />
	</node>
	<node id="-509423" lat="61.0848222258" lon="6.8647194387">
		<tag k="name" v="Buskreda" />
		<tag k="natural" v="valley" />
		<tag k="place" v="locality" />
		<tag k="ssr:stedsnr" v="400966" />
	</node>
	<node id="-509422" lat="61.0619944481" lon="6.92210000784">
		<tag k="name" v="Liareset" />
		<tag k="natural" v="hill" />
		<tag k="place" v="locality" />
		<tag k="ssr:stedsnr" v="400938" />
	</node>
	<node id="-509417" lat="61.0956194431" lon="6.25290832436">
		<tag k="fixme" v="consider natural=peak for the most distinct mountains in the district" />
		<tag k="name" v="Rabben" />
		<tag k="natural" v="hill" />
		<tag k="place" v="locality" />
		<tag k="ssr:stedsnr" v="400873" />
	</node>
	<node id="-509413" lat="61.0985944486" lon="6.2504444474">
		<tag k="name" v="Kroksholene" />
		<tag k="natural" v="gorge" />
		<tag k="ssr:stedsnr" v="400776" />
	</node>
	<node id="-509412" lat="61.0457305572" lon="6.2864138867">
		<tag k="fixme" v="consider natural=peak for the most distinct mountains in the district" />
		<tag k="name" v="Blånipi" />
		<tag k="natural" v="hill" />
		<tag k="place" v="locality" />
		<tag k="ssr:stedsnr" v="400745" />
	</node>
	<node id="-509410" lat="61.0460388896" lon="6.31993333847">
		<tag k="name" v="Hestanesdalen" />
		<tag k="natural" v="valley" />
		<tag k="place" v="locality" />
		<tag k="ssr:stedsnr" v="400716" />
	</node>
	<node id="-509406" lat="61.0615083368" lon="6.40046667423">
		<tag k="name" v="Kjerringabotn" />
		<tag k="natural" v="valley" />
		<tag k="place" v="locality" />
		<tag k="ssr:stedsnr" v="400615" />
	</node>
	<node id="-509405" lat="61.0611000022" lon="6.36094723079">
		<tag k="name" v="Midtre Sopegjelet" />
		<tag k="natural" v="valley" />
		<tag k="place" v="locality" />
		<tag k="ssr:stedsnr" v="400568" />
	</node>
	<node id="-509403" lat="61.042197224" lon="6.39592778674">
		<tag k="name" v="Perbrennene" />
		<tag k="natural" v="hill" />
		<tag k="place" v="locality" />
		<tag k="ssr:stedsnr" v="400549" />
	</node>
	<node id="-509401" lat="61.0390083351" lon="6.38206944035">
		<tag k="name" v="Johalsdrogi" />
		<tag k="natural" v="valley" />
		<tag k="place" v="locality" />
		<tag k="ssr:stedsnr" v="400541" />
	</node>
	<node id="-509400" lat="61.1106999995" lon="6.18325000325">
		<tag k="name" v="Furugjelrabben" />
		<tag k="natural" v="hill" />
		<tag k="place" v="locality" />
		<tag k="ssr:stedsnr" v="400495" />
	</node>
	<node id="-509399" lat="61.1141805516" lon="6.18417221794">
		<tag k="fixme" v="consider natural=peak for the most distinct mountains in the district" />
		<tag k="name" v="Nausteigfjellet" />
		<tag k="natural" v="hill" />
		<tag k="place" v="locality" />
		<tag k="ssr:stedsnr" v="400493" />
	</node>
	<node id="-509398" lat="61.067336115" lon="6.56351667463">
		<tag k="name" v="Smidjehaugen" />
		<tag k="natural" v="hill" />
		<tag k="place" v="locality" />
		<tag k="ssr:stedsnr" v="400454" />
	</node>
	<node id="-509397" lat="61.0624944469" lon="6.58121667462">
		<tag k="fixme" v="consider natural=peak for the most distinct mountains in the district" />
		<tag k="name" v="Øvreåsen" />
		<tag k="natural" v="hill" />
		<tag k="place" v="locality" />
		<tag k="ssr:stedsnr" v="400452" />
	</node>
	<node id="-509396" lat="61.0832333321" lon="6.59492221728">
		<tag k="name" v="Hatlen" />
		<tag k="natural" v="slope" />
		<tag k="place" v="locality" />
		<tag k="ssr:stedsnr" v="400444" />
	</node>
	<node id="-509395" lat="61.0844444445" lon="6.60178055404">
		<tag k="fixme" v="consider natural=peak for the most distinct mountains in the district" />
		<tag k="name" v="Varpet" />
		<tag k="natural" v="hill" />
		<tag k="place" v="locality" />
		<tag k="ssr:stedsnr" v="400441" />
	</node>
	<node id="-509392" lat="61.1264111114" lon="6.63395833563">
		<tag k="name" v="Dugurdmålsholene" />
		<tag k="natural" v="gorge" />
		<tag k="ssr:stedsnr" v="400421" />
	</node>
	<node id="-509390" lat="60.9895083318" lon="6.47536389143">
		<tag k="name" v="Fossberget" />
		<tag k="natural" v="ridge" />
		<tag k="place" v="locality" />
		<tag k="ssr:stedsnr" v="400337" />
	</node>
	<node id="-509389" lat="60.9919555577" lon="6.46818888076">
		<tag k="name" v="Indreli" />
		<tag k="natural" v="slope" />
		<tag k="place" v="locality" />
		<tag k="ssr:stedsnr" v="400338" />
	</node>
	<node id="-509387" lat="61.1567055575" lon="6.67106666623">
		<tag k="name" v="Kast" />
		<tag k="natural" v="hill" />
		<tag k="place" v="locality" />
		<tag k="ssr:stedsnr" v="400160" />
	</node>
	<node id="-509386" lat="61.0319583378" lon="6.67567777845">
		<tag k="name" v="Bjørkehaugen" />
		<tag k="natural" v="hill" />
		<tag k="place" v="locality" />
		<tag k="ssr:stedsnr" v="400114" />
	</node>
	<node id="-509384" lat="61.1431972221" lon="6.74401111396">
		<tag k="name" v="Hovbakkane" />
		<tag k="natural" v="slope" />
		<tag k="place" v="locality" />
		<tag k="ssr:stedsnr" v="400077" />
	</node>
	<node id="-509380" lat="61.0966138922" lon="6.6018444406">
		<tag k="name" v="Brunnen" />
		<tag k="natural" v="hill" />
		<tag k="place" v="locality" />
		<tag k="ssr:stedsnr" v="400040" />
	</node>
	<node id="-509379" lat="61.0661027747" lon="6.58822221448">
		<tag k="fixme" v="consider natural=peak for the most distinct mountains in the district" />
		<tag k="name" v="Hovsåsen" />
		<tag k="natural" v="hill" />
		<tag k="place" v="locality" />
		<tag k="ssr:stedsnr" v="400036" />
	</node>
	<node id="-509378" lat="61.0620999963" lon="6.59019166878">
		<tag k="fixme" v="consider natural=peak for the most distinct mountains in the district" />
		<tag k="name" v="Prilla" />
		<tag k="natural" v="hill" />
		<tag k="place" v="locality" />
		<tag k="ssr:stedsnr" v="400029" />
	</node>
	<node id="-509377" lat="61.0768027738" lon="6.60335556499">
		<tag k="name" v="Elvebakkane" />
		<tag k="natural" v="slope" />
		<tag k="place" v="locality" />
		<tag k="ssr:stedsnr" v="399044" />
	</node>
	<node id="-509376" lat="61.0771361133" lon="6.59852500429">
		<tag k="name" v="Stopledalen" />
		<tag k="natural" v="valley" />
		<tag k="place" v="locality" />
		<tag k="ssr:stedsnr" v="399041" />
	</node>
	<node id="-509374" lat="61.036749996" lon="6.55172222552">
		<tag k="name" v="Skari" />
		<tag k="natural" v="valley" />
		<tag k="place" v="locality" />
		<tag k="ssr:stedsnr" v="398467" />
	</node>
	<node id="-509373" lat="61.042333331" lon="6.66148055057">
		<tag k="name" v="Orrehaug" />
		<tag k="natural" v="hill" />
		<tag k="place" v="locality" />
		<tag k="ssr:stedsnr" v="398456" />
	</node>
	<node id="-509372" lat="61.0285555561" lon="6.57344166635">
		<tag k="name" v="Kolmilevollen" />
		<tag k="natural" v="hill" />
		<tag k="place" v="locality" />
		<tag k="ssr:stedsnr" v="398446" />
	</node>
	<node id="-509370" lat="61.0684638894" lon="6.44019721765">
		<tag k="fixme" v="consider natural=peak for the most distinct mountains in the district" />
		<tag k="name" v="Eiterkamben" />
		<tag k="natural" v="hill" />
		<tag k="place" v="locality" />
		<tag k="ssr:stedsnr" v="398380" />
	</node>
	<node id="-509369" lat="61.0743194433" lon="6.46251943767">
		<tag k="name" v="Fugleleitdalen" />
		<tag k="natural" v="valley" />
		<tag k="place" v="locality" />
		<tag k="ssr:stedsnr" v="398366" />
	</node>
	<node id="-509368" lat="61.0668638908" lon="6.4408277739">
		<tag k="name" v="Eiterbotn" />
		<tag k="natural" v="valley" />
		<tag k="place" v="locality" />
		<tag k="ssr:stedsnr" v="398359" />
	</node>
	<node id="-509363" lat="61.0345194408" lon="6.38711110772">
		<tag k="name" v="Klungresteggen" />
		<tag k="natural" v="hill" />
		<tag k="place" v="locality" />
		<tag k="ssr:stedsnr" v="398096" />
	</node>
	<node id="-509358" lat="61.1251777815" lon="6.71776667549">
		<tag k="alt_name" v="Kammane" />
		<tag k="name" v="Kambane" />
		<tag k="natural" v="slope" />
		<tag k="place" v="locality" />
		<tag k="ssr:stedsnr" v="373851" />
	</node>
	<node id="-509347" lat="61.0263999962" lon="6.43298610575">
		<tag k="fixme" v="consider natural=peak for the most distinct mountains in the district" />
		<tag k="name" v="Krokeggi" />
		<tag k="natural" v="hill" />
		<tag k="place" v="locality" />
		<tag k="ssr:stedsnr" v="373623" />
	</node>
	<node id="-509346" lat="61.0519833367" lon="6.49245000842">
		<tag k="name" v="Liahovden" />
		<tag k="natural" v="hill" />
		<tag k="place" v="locality" />
		<tag k="ssr:stedsnr" v="373603" />
	</node>
	<node id="-509345" lat="61.0615888892" lon="6.38572778476">
		<tag k="alt_name" v="Kaldegjelet" />
		<tag k="name" v="Kaldagilet" />
		<tag k="natural" v="valley" />
		<tag k="place" v="locality" />
		<tag k="ssr:stedsnr" v="373585" />
	</node>
	<node id="-509344" lat="61.0596166694" lon="6.25213055675">
		<tag k="name" v="Vardeggi" />
		<tag k="natural" v="ridge" />
		<tag k="place" v="locality" />
		<tag k="ssr:stedsnr" v="373580" />
	</node>
	<node id="-509343" lat="61.010627777" lon="6.58138888069">
		<tag k="fixme" v="consider natural=peak for the most distinct mountains in the district" />
		<tag k="name" v="Fyrjaeggi" />
		<tag k="natural" v="hill" />
		<tag k="place" v="locality" />
		<tag k="ssr:stedsnr" v="373542" />
	</node>
	<node id="-509341" lat="61.0179138889" lon="6.51091111108">
		<tag k="name" v="Dalbotnen" />
		<tag k="natural" v="valley" />
		<tag k="place" v="locality" />
		<tag k="ssr:stedsnr" v="373525" />
	</node>
	<node id="-509339" lat="61.078599999" lon="6.51858888743">
		<tag k="name" v="Grønlii" />
		<tag k="natural" v="slope" />
		<tag k="place" v="locality" />
		<tag k="ssr:stedsnr" v="373515" />
	</node>
	<node id="-509338" lat="61.0098472206" lon="6.20922500082">
		<tag k="name" v="Dyrendal" />
		<tag k="natural" v="valley" />
		<tag k="place" v="locality" />
		<tag k="ssr:stedsnr" v="373308" />
	</node>
	<node id="-509337" lat="61.0785861142" lon="6.89440000076">
		<tag k="alt_name" v="Vihammargjelet" />
		<tag k="name" v="Vidhammargilet" />
		<tag k="natural" v="gorge" />
		<tag k="ssr:stedsnr" v="373234" />
	</node>
	<node id="-509335" lat="61.0680694416" lon="6.67436945352">
		<tag k="name" v="Stuasetbotnen" />
		<tag k="natural" v="valley" />
		<tag k="place" v="locality" />
		<tag k="ssr:stedsnr" v="373225" />
	</node>
	<node id="-509333" lat="61.0613805598" lon="6.94459444931">
		<tag k="alt_name" v="Høgheimskredbotn" />
		<tag k="name" v="Høgeimsskredbotnen" />
		<tag k="natural" v="valley" />
		<tag k="place" v="locality" />
		<tag k="ssr:stedsnr" v="373200" />
	</node>
	<node id="-509332" lat="61.0628805515" lon="6.83435833804">
		<tag k="fixme" v="consider natural=peak for the most distinct mountains in the district" />
		<tag k="name" v="Tuftafjellet" />
		<tag k="natural" v="hill" />
		<tag k="place" v="locality" />
		<tag k="ssr:stedsnr" v="373184" />
	</node>
	<node id="-509328" lat="61.0400861072" lon="6.61022778319">
		<tag k="name" v="Rindalii" />
		<tag k="natural" v="slope" />
		<tag k="place" v="locality" />
		<tag k="ssr:stedsnr" v="373142" />
	</node>
	<node id="-509327" lat="61.0180111133" lon="6.8842777859">
		<tag k="name" v="Tangaskreda" />
		<tag k="natural" v="gorge" />
		<tag k="ssr:stedsnr" v="373138" />
	</node>
	<node id="-509321" lat="60.9984027745" lon="6.57390278346">
		<tag k="fixme" v="consider natural=peak for the most distinct mountains in the district" />
		<tag k="name" v="Fyrjaeggi" />
		<tag k="natural" v="hill" />
		<tag k="place" v="locality" />
		<tag k="ssr:stedsnr" v="372707" />
	</node>
	<node id="-509320" lat="60.9522277784" lon="6.48250277114">
		<tag k="fixme" v="consider natural=peak for the most distinct mountains in the district" />
		<tag k="name" v="Høgeggi" />
		<tag k="natural" v="hill" />
		<tag k="place" v="locality" />
		<tag k="ssr:stedsnr" v="372666" />
	</node>
	<node id="-509318" lat="60.9153888885" lon="6.58671666492">
		<tag k="name" v="Viksetskaret" />
		<tag k="natural" v="valley" />
		<tag k="place" v="locality" />
		<tag k="ssr:stedsnr" v="372635" />
	</node>
	<node id="-509316" lat="60.9258777791" lon="6.23654445245">
		<tag k="name" v="Grøndalseggjane" />
		<tag k="natural" v="ridge" />
		<tag k="place" v="locality" />
		<tag k="ssr:stedsnr" v="372601" />
	</node>
	<node id="-509309" lat="61.0601138916" lon="6.33982777436">
		<tag k="name" v="Spelevollbetnene" />
		<tag k="natural" v="hill" />
		<tag k="place" v="locality" />
		<tag k="ssr:stedsnr" v="340922" />
	</node>
	<node id="-509308" lat="61.0678916686" lon="6.40224165912">
		<tag k="name" v="Brennehaugen" />
		<tag k="natural" v="hill" />
		<tag k="place" v="locality" />
		<tag k="ssr:stedsnr" v="340630" />
	</node>
	<node id="-509307" lat="61.0338333345" lon="6.68551943676">
		<tag k="name" v="Krekane" />
		<tag k="natural" v="slope" />
		<tag k="place" v="locality" />
		<tag k="ssr:stedsnr" v="340135" />
	</node>
	<node id="-509305" lat="61.0668388876" lon="6.3017722152">
		<tag k="fixme" v="consider natural=peak for the most distinct mountains in the district" />
		<tag k="name" v="Fjellsenden" />
		<tag k="natural" v="hill" />
		<tag k="place" v="locality" />
		<tag k="ssr:stedsnr" v="339917" />
	</node>
	<node id="-509303" lat="61.070899999" lon="6.30919445363">
		<tag k="name" v="Lyplassane" />
		<tag k="place" v="locality" />
		<tag k="ssr:stedsnr" v="339903" />
	</node>
	<node id="-509302" lat="61.0424666675" lon="6.99935555559">
		<tag k="name" v="Branden" />
		<tag k="natural" v="hill" />
		<tag k="place" v="locality" />
		<tag k="ssr:stedsnr" v="339807" />
	</node>
	<node id="-509301" lat="61.043305556" lon="6.25446944866">
		<tag k="fixme" v="consider natural=peak for the most distinct mountains in the district" />
		<tag k="name" v="Bjørnehamaren" />
		<tag k="natural" v="hill" />
		<tag k="place" v="locality" />
		<tag k="ssr:stedsnr" v="339742" />
	</node>
	<node id="-509297" lat="61.0857222179" lon="6.29091110955">
		<tag k="fixme" v="consider natural=peak for the most distinct mountains in the district" />
		<tag k="name" v="Teigaholten" />
		<tag k="natural" v="hill" />
		<tag k="place" v="locality" />
		<tag k="ssr:stedsnr" v="339609" />
	</node>
	<node id="-509296" lat="61.0332861136" lon="6.26308610714">
		<tag k="name" v="Almeskori" />
		<tag k="natural" v="valley" />
		<tag k="place" v="locality" />
		<tag k="ssr:stedsnr" v="339603" />
	</node>
	<node id="-509295" lat="61.064852776" lon="6.37533611635">
		<tag k="name" v="Nonshaugen" />
		<tag k="natural" v="hill" />
		<tag k="place" v="locality" />
		<tag k="ssr:stedsnr" v="339558" />
	</node>
	<node id="-509293" lat="61.1099055596" lon="6.17870277058">
		<tag k="alt_name" v="Øykjeflåten" />
		<tag k="name" v="Øykjefloten" />
		<tag k="natural" v="slope" />
		<tag k="place" v="locality" />
		<tag k="ssr:stedsnr" v="339468" />
	</node>
	<node id="-509288" lat="61.0928833316" lon="6.56472500065">
		<tag k="fixme" v="consider natural=peak for the most distinct mountains in the district" />
		<tag k="name" v="Skaffarfjellet" />
		<tag k="natural" v="hill" />
		<tag k="place" v="locality" />
		<tag k="ssr:stedsnr" v="339374" />
	</node>
	<node id="-509287" lat="61.0667777772" lon="6.5195583336">
		<tag k="name" v="Siplhaug" />
		<tag k="natural" v="hill" />
		<tag k="place" v="locality" />
		<tag k="ssr:stedsnr" v="339363" />
	</node>
	<node id="-509286" lat="61.156002774" lon="6.64384445153">
		<tag k="name" v="Borfollene" />
		<tag k="natural" v="slope" />
		<tag k="place" v="locality" />
		<tag k="ssr:stedsnr" v="339341" />
	</node>
	<node id="-509285" lat="61.1567166649" lon="6.63226666838">
		<tag k="name" v="Kaklehaugen" />
		<tag k="natural" v="hill" />
		<tag k="place" v="locality" />
		<tag k="ssr:stedsnr" v="339339" />
	</node>
	<node id="-509282" lat="61.1225777809" lon="6.68055277913">
		<tag k="name" v="Heggedalskråna" />
		<tag k="natural" v="hill" />
		<tag k="place" v="locality" />
		<tag k="ssr:stedsnr" v="339193" />
	</node>
	<node id="-509281" lat="61.1489333343" lon="6.69470277999">
		<tag k="name" v="Bergjuv" />
		<tag k="natural" v="gorge" />
		<tag k="ssr:stedsnr" v="339184" />
	</node>
	<node id="-509280" lat="61.0990249981" lon="6.70773056371">
		<tag k="name" v="Øvstebotn" />
		<tag k="natural" v="valley" />
		<tag k="place" v="locality" />
		<tag k="ssr:stedsnr" v="339159" />
	</node>
	<node id="-509279" lat="61.1671777783" lon="6.6494583395">
		<tag k="name" v="Ryssedalen" />
		<tag k="natural" v="valley" />
		<tag k="place" v="locality" />
		<tag k="ssr:stedsnr" v="339095" />
	</node>
	<node id="-509275" lat="61.0783916636" lon="6.58959722103">
		<tag k="name" v="Oksavollen" />
		<tag k="place" v="locality" />
		<tag k="ssr:stedsnr" v="338054" />
	</node>
	<node id="-509274" lat="61.0680555555" lon="6.58905276903">
		<tag k="name" v="Skorane" />
		<tag k="natural" v="valley" />
		<tag k="place" v="locality" />
		<tag k="ssr:stedsnr" v="338041" />
	</node>
	<node id="-509273" lat="61.0368638899" lon="6.54789444488">
		<tag k="alt_name" v="Skreidi" />
		<tag k="name" v="Skreii" />
		<tag k="natural" v="hill" />
		<tag k="place" v="locality" />
		<tag k="ssr:stedsnr" v="337527" />
	</node>
	<node id="-509272" lat="61.0367583361" lon="6.55007499436">
		<tag k="name" v="Mydlo" />
		<tag k="natural" v="hill" />
		<tag k="place" v="locality" />
		<tag k="ssr:stedsnr" v="337524" />
	</node>
	<node id="-509271" lat="61.0260999996" lon="6.57530555214">
		<tag k="name" v="Løhaugane" />
		<tag k="natural" v="hill" />
		<tag k="place" v="locality" />
		<tag k="ssr:stedsnr" v="337512" />
	</node>
	<node id="-509270" lat="60.9877611117" lon="6.44493055827">
		<tag k="name" v="Slettebakken" />
		<tag k="natural" v="slope" />
		<tag k="place" v="locality" />
		<tag k="ssr:stedsnr" v="337491" />
	</node>
	<node id="-509268" lat="60.9907222189" lon="6.42549166181">
		<tag k="name" v="Kleberghaugen" />
		<tag k="natural" v="hill" />
		<tag k="place" v="locality" />
		<tag k="ssr:stedsnr" v="337459" />
	</node>
	<node id="-509267" lat="61.0441111079" lon="6.63258610638">
		<tag k="name" v="Rygg-garden" />
		<tag k="place" v="locality" />
		<tag k="ssr:stedsnr" v="337420" />
	</node>
	<node id="-509266" lat="61.0369472223" lon="6.38147499731">
		<tag k="name" v="Tungane" />
		<tag k="natural" v="slope" />
		<tag k="place" v="locality" />
		<tag k="ssr:stedsnr" v="337129" />
	</node>
	<node id="-509265" lat="61.0296666707" lon="6.36323333446">
		<tag k="name" v="Storeli" />
		<tag k="natural" v="slope" />
		<tag k="place" v="locality" />
		<tag k="ssr:stedsnr" v="337117" />
	</node>
	<node id="-509264" lat="61.0304027749" lon="6.38556944038">
		<tag k="name" v="Høgkleivi" />
		<tag k="natural" v="slope" />
		<tag k="place" v="locality" />
		<tag k="ssr:stedsnr" v="337114" />
	</node>
	<node id="-509263" lat="61.0178472241" lon="6.36382221998">
		<tag k="name" v="Djupegjelet" />
		<tag k="natural" v="gorge" />
		<tag k="ssr:stedsnr" v="337066" />
	</node>
	<node id="-509259" lat="61.1298472216" lon="6.64131666106">
		<tag k="alt_name" v="Bjønndalen" />
		<tag k="name" v="Bjørndalen" />
		<tag k="natural" v="valley" />
		<tag k="place" v="locality" />
		<tag k="ssr:stedsnr" v="313872" />
	</node>
	<node id="-509257" lat="61.1251861106" lon="6.61666944026">
		<tag k="alt_name" v="Kidlingaskori" />
		<tag k="name" v="Killingaskori" />
		<tag k="natural" v="valley" />
		<tag k="place" v="locality" />
		<tag k="ssr:stedsnr" v="313863" />
	</node>
	<node id="-509255" lat="61.102841667" lon="6.59964445272">
		<tag k="alt_name" v="Danemarkgjelet" />
		<tag k="name" v="Danmarkgilet" />
		<tag k="natural" v="gorge" />
		<tag k="ssr:stedsnr" v="313832" />
	</node>
	<node id="-509250" lat="61.121658337" lon="6.79298055751">
		<tag k="alt_name" v="Sætrehovden" />
		<tag k="fixme" v="consider natural=peak for the most distinct mountains in the district" />
		<tag k="name" v="Sætrahovden" />
		<tag k="natural" v="hill" />
		<tag k="place" v="locality" />
		<tag k="ssr:stedsnr" v="313769" />
	</node>
	<node id="-509246" lat="61.0486333314" lon="6.27412499407">
		<tag k="name" v="Bjørnaskori" />
		<tag k="natural" v="hill" />
		<tag k="place" v="locality" />
		<tag k="ssr:stedsnr" v="313583" />
	</node>
	<node id="-509245" lat="61.1098888904" lon="6.19236666731">
		<tag k="name" v="Botnen" />
		<tag k="natural" v="valley" />
		<tag k="place" v="locality" />
		<tag k="ssr:stedsnr" v="313322" />
	</node>
	<node id="-509241" lat="61.0162027787" lon="6.93852499736">
		<tag k="name" v="Jordalsskardet" />
		<tag k="natural" v="valley" />
		<tag k="place" v="locality" />
		<tag k="ssr:stedsnr" v="313180" />
	</node>
	<node id="-509240" lat="61.0079944424" lon="6.6148805571">
		<tag k="name" v="Steinbotnen" />
		<tag k="natural" v="valley" />
		<tag k="place" v="locality" />
		<tag k="ssr:stedsnr" v="313150" />
	</node>
	<node id="-509237" lat="60.9539833373" lon="6.41959444075">
		<tag k="fixme" v="consider natural=peak for the most distinct mountains in the district" />
		<tag k="name" v="Urdeggi" />
		<tag k="natural" v="hill" />
		<tag k="place" v="locality" />
		<tag k="ssr:stedsnr" v="312769" />
	</node>
	<node id="-509233" lat="61.092311113" lon="6.65353888716">
		<tag k="name" v="Veslaskardet" />
		<tag k="natural" v="valley" />
		<tag k="place" v="locality" />
		<tag k="ssr:stedsnr" v="312750" />
	</node>
	<node id="-509232" lat="61.0936444427" lon="6.64661110458">
		<tag k="fixme" v="consider natural=peak for the most distinct mountains in the district" />
		<tag k="name" v="Vokeskorane" />
		<tag k="natural" v="hill" />
		<tag k="place" v="locality" />
		<tag k="ssr:stedsnr" v="312747" />
	</node>
	<node id="-509231" lat="60.9941361138" lon="6.33097777061">
		<tag k="name" v="Skogøydalen" />
		<tag k="natural" v="valley" />
		<tag k="place" v="locality" />
		<tag k="ssr:stedsnr" v="312661" />
	</node>
	<node id="-509223" lat="61.0720361107" lon="6.49883610726">
		<tag k="name" v="Middagshaugen" />
		<tag k="natural" v="hill" />
		<tag k="place" v="locality" />
		<tag k="ssr:stedsnr" v="312572" />
	</node>
	<node id="-509220" lat="61.0480611085" lon="6.56966389271">
		<tag k="alt_name" v="Dugurdmålshaug" />
		<tag k="name" v="Daurmålshaugen" />
		<tag k="natural" v="hill" />
		<tag k="place" v="locality" />
		<tag k="ssr:stedsnr" v="312511" />
	</node>
	<node id="-509217" lat="61.0328388899" lon="7.01424166983">
		<tag k="name" v="Famn" />
		<tag k="place" v="locality" />
		<tag k="ssr:stedsnr" v="312408" />
	</node>
	<node id="-509216" lat="61.0097222232" lon="6.16187777255">
		<tag k="name" v="Vøvringadalen" />
		<tag k="natural" v="valley" />
		<tag k="place" v="locality" />
		<tag k="ssr:stedsnr" v="312339" />
	</node>
	<node id="-509215" lat="61.0724361088" lon="6.73194721846">
		<tag k="name" v="Sjonarhaug" />
		<tag k="natural" v="hill" />
		<tag k="place" v="locality" />
		<tag k="ssr:stedsnr" v="312236" />
	</node>
	<node id="-509214" lat="61.0805555515" lon="6.79102222567">
		<tag k="alt_name" v="Turidalen" />
		<tag k="name" v="Turiddalen" />
		<tag k="natural" v="valley" />
		<tag k="place" v="locality" />
		<tag k="ssr:stedsnr" v="312223" />
	</node>
	<node id="-509213" lat="61.0591333305" lon="6.95696943807">
		<tag k="fixme" v="consider natural=peak for the most distinct mountains in the district" />
		<tag k="name" v="Fresvikåsen" />
		<tag k="natural" v="hill" />
		<tag k="place" v="locality" />
		<tag k="ssr:stedsnr" v="312209" />
	</node>
	<node id="-509211" lat="61.0386250003" lon="6.84851389465">
		<tag k="name" v="Storedalen" />
		<tag k="natural" v="valley" />
		<tag k="place" v="locality" />
		<tag k="ssr:stedsnr" v="312170" />
	</node>
	<node id="-509209" lat="61.0238611145" lon="6.63097777181">
		<tag k="name" v="Sendedalsrindane" />
		<tag k="natural" v="ridge" />
		<tag k="place" v="locality" />
		<tag k="ssr:stedsnr" v="312163" />
	</node>
	<node id="-509205" lat="61.0238749994" lon="6.88930833964">
		<tag k="alt_name" v="Øystølskreda" />
		<tag k="name" v="Øystølsskreda" />
		<tag k="natural" v="gorge" />
		<tag k="ssr:stedsnr" v="312102" />
	</node>
	<node id="-509203" lat="60.9970388859" lon="6.69462221928">
		<tag k="name" v="Vassdalen" />
		<tag k="natural" v="valley" />
		<tag k="place" v="locality" />
		<tag k="ssr:stedsnr" v="311954" />
	</node>
	<node id="-509202" lat="60.9745194405" lon="6.77566944725">
		<tag k="fixme" v="consider natural=peak for the most distinct mountains in the district" />
		<tag k="name" v="Tverrbotnnuten" />
		<tag k="natural" v="hill" />
		<tag k="place" v="locality" />
		<tag k="ssr:stedsnr" v="311938" />
	</node>
	<node id="-509201" lat="60.941158332" lon="6.29829999171">
		<tag k="fixme" v="consider natural=peak for the most distinct mountains in the district" />
		<tag k="name" v="Grønebakktoppen" />
		<tag k="natural" v="hill" />
		<tag k="place" v="locality" />
		<tag k="ssr:stedsnr" v="311684" />
	</node>
	<node id="-509195" lat="61.1365777801" lon="6.86353056088">
		<tag k="name" v="Kongalege" />
		<tag k="natural" v="cliff" />
		<tag k="ssr:stedsnr" v="297769" />
	</node>
	<node id="-509189" lat="61.0745749974" lon="6.30701944888">
		<tag k="name" v="Leite" />
		<tag k="natural" v="slope" />
		<tag k="place" v="locality" />
		<tag k="ssr:stedsnr" v="279933" />
	</node>
	<node id="-509188" lat="61.090713885" lon="6.28501667616">
		<tag k="name" v="Kjosen" />
		<tag k="natural" v="slope" />
		<tag k="place" v="locality" />
		<tag k="ssr:stedsnr" v="279934" />
	</node>
	<node id="-509187" lat="61.0629055524" lon="6.92832778049">
		<tag k="name" v="Tråene" />
		<tag k="natural" v="slope" />
		<tag k="place" v="locality" />
		<tag k="ssr:stedsnr" v="279932" />
	</node>
	<node id="-509186" lat="61.0783388926" lon="6.30981111699">
		<tag k="alt_name" v="Teleflåten" />
		<tag k="name" v="Telefloten" />
		<tag k="natural" v="valley" />
		<tag k="place" v="locality" />
		<tag k="ssr:stedsnr" v="279931" />
	</node>
	<node id="-509184" lat="61.0436333312" lon="6.88632221408">
		<tag k="name" v="Engareset" />
		<tag k="natural" v="hill" />
		<tag k="place" v="locality" />
		<tag k="ssr:stedsnr" v="279921" />
	</node>
	<node id="-509183" lat="61.0608638902" lon="6.30570834182">
		<tag k="name" v="Nybbesteinbakken" />
		<tag k="natural" v="slope" />
		<tag k="place" v="locality" />
		<tag k="ssr:stedsnr" v="279916" />
	</node>
	<node id="-509182" lat="61.0803694452" lon="6.31731111246">
		<tag k="name" v="Haukedalen" />
		<tag k="natural" v="valley" />
		<tag k="place" v="locality" />
		<tag k="ssr:stedsnr" v="279913" />
	</node>
	<node id="-509180" lat="61.056875" lon="6.91718333593">
		<tag k="name" v="Kjerringbakken" />
		<tag k="natural" v="slope" />
		<tag k="place" v="locality" />
		<tag k="ssr:stedsnr" v="279832" />
	</node>
	<node id="-509178" lat="61.0424277768" lon="6.25392777387">
		<tag k="name" v="Stegen" />
		<tag k="natural" v="slope" />
		<tag k="place" v="locality" />
		<tag k="ssr:stedsnr" v="279755" />
	</node>
	<node id="-509176" lat="61.0451833376" lon="6.30215834037">
		<tag k="name" v="Haugen" />
		<tag k="natural" v="hill" />
		<tag k="place" v="locality" />
		<tag k="ssr:stedsnr" v="279718" />
	</node>
	<node id="-509175" lat="61.0534250012" lon="6.28950555524">
		<tag k="name" v="Styggagjelet" />
		<tag k="natural" v="valley" />
		<tag k="place" v="locality" />
		<tag k="ssr:stedsnr" v="279710" />
	</node>
	<node id="-509173" lat="61.0454305579" lon="6.43179444645">
		<tag k="name" v="Snøgjelet" />
		<tag k="natural" v="valley" />
		<tag k="place" v="locality" />
		<tag k="ssr:stedsnr" v="279687" />
	</node>
	<node id="-509172" lat="61.0687444458" lon="6.34601667567">
		<tag k="name" v="Lasseskori" />
		<tag k="natural" v="valley" />
		<tag k="place" v="locality" />
		<tag k="ssr:stedsnr" v="279577" />
	</node>
	<node id="-509171" lat="61.0618777733" lon="6.34219444145">
		<tag k="name" v="Spelevollglovra" />
		<tag k="natural" v="valley" />
		<tag k="place" v="locality" />
		<tag k="ssr:stedsnr" v="279571" />
	</node>
	<node id="-509168" lat="61.1060333325" lon="6.19059445027">
		<tag k="name" v="Middagshaugen" />
		<tag k="natural" v="hill" />
		<tag k="place" v="locality" />
		<tag k="ssr:stedsnr" v="279502" />
	</node>
	<node id="-509167" lat="61.1077361118" lon="6.17587500172">
		<tag k="fixme" v="consider natural=peak for the most distinct mountains in the district" />
		<tag k="name" v="Galdenovi" />
		<tag k="natural" v="hill" />
		<tag k="place" v="locality" />
		<tag k="ssr:stedsnr" v="279500" />
	</node>
	<node id="-509164" lat="61.1258611118" lon="6.61114444798">
		<tag k="name" v="Branden" />
		<tag k="natural" v="hill" />
		<tag k="place" v="locality" />
		<tag k="ssr:stedsnr" v="279426" />
	</node>
	<node id="-509163" lat="61.1287499987" lon="6.63854721555">
		<tag k="name" v="Bjønndalsgalden" />
		<tag k="natural" v="hill" />
		<tag k="place" v="locality" />
		<tag k="ssr:stedsnr" v="279423" />
	</node>
	<node id="-509162" lat="61.1241972258" lon="6.63306389389">
		<tag k="fixme" v="consider natural=peak for the most distinct mountains in the district" />
		<tag k="name" v="Revsurholten" />
		<tag k="natural" v="hill" />
		<tag k="place" v="locality" />
		<tag k="ssr:stedsnr" v="279421" />
	</node>
	<node id="-509161" lat="61.0947750036" lon="6.56006388051">
		<tag k="fixme" v="consider natural=peak for the most distinct mountains in the district" />
		<tag k="name" v="Flategalden" />
		<tag k="natural" v="hill" />
		<tag k="place" v="locality" />
		<tag k="ssr:stedsnr" v="279373" />
	</node>
	<node id="-509159" lat="61.1331611105" lon="6.61669167359">
		<tag k="name" v="Laurdagslette" />
		<tag k="natural" v="slope" />
		<tag k="place" v="locality" />
		<tag k="ssr:stedsnr" v="279328" />
	</node>
	<node id="-509158" lat="61.0735694436" lon="6.48156944981">
		<tag k="name" v="Turtneli" />
		<tag k="natural" v="slope" />
		<tag k="place" v="locality" />
		<tag k="ssr:stedsnr" v="279264" />
	</node>
	<node id="-509155" lat="61.1304583319" lon="6.73803611197">
		<tag k="name" v="Stengjerdbakkane" />
		<tag k="natural" v="slope" />
		<tag k="place" v="locality" />
		<tag k="ssr:stedsnr" v="279077" />
	</node>
	<node id="-509152" lat="61.0957472201" lon="6.23841389252">
		<tag k="fixme" v="consider natural=peak for the most distinct mountains in the district" />
		<tag k="name" v="Sponnipi" />
		<tag k="natural" v="hill" />
		<tag k="place" v="locality" />
		<tag k="ssr:stedsnr" v="278870" />
	</node>
	<node id="-509149" lat="61.0397055557" lon="6.53896389701">
		<tag k="name" v="Kålsetli" />
		<tag k="natural" v="slope" />
		<tag k="place" v="locality" />
		<tag k="ssr:stedsnr" v="278107" />
	</node>
	<node id="-509147" lat="61.0376111067" lon="6.67539999299">
		<tag k="name" v="Fagegjelet" />
		<tag k="natural" v="valley" />
		<tag k="place" v="locality" />
		<tag k="ssr:stedsnr" v="277569" />
	</node>
	<node id="-509145" lat="61.037100002" lon="6.57374722592">
		<tag k="name" v="Vassteigen" />
		<tag k="natural" v="slope" />
		<tag k="place" v="locality" />
		<tag k="ssr:stedsnr" v="277471" />
	</node>
	<node id="-509144" lat="61.0506666647" lon="6.64440556459">
		<tag k="fixme" v="consider natural=peak for the most distinct mountains in the district" />
		<tag k="name" v="Kluftafjellet" />
		<tag k="natural" v="hill" />
		<tag k="place" v="locality" />
		<tag k="ssr:stedsnr" v="277468" />
	</node>
	<node id="-509142" lat="61.006013887" lon="6.33647777625">
		<tag k="fixme" v="consider natural=peak for the most distinct mountains in the district" />
		<tag k="name" v="Byrkjåsen" />
		<tag k="natural" v="hill" />
		<tag k="place" v="locality" />
		<tag k="ssr:stedsnr" v="277203" />
	</node>
	<node id="-511017" lat="60.9076469701" lon="6.21830343565">
		<tag k="name" v="Askjelldalen" />
		<tag k="natural" v="valley" />
		<tag k="place" v="locality" />
		<tag k="ssr:stedsnr" v="979592" />
	</node>
	<node id="-511003" lat="61.0999249997" lon="6.27640832585">
		<tag k="name" v="Dimmedalen" />
		<tag k="natural" v="valley" />
		<tag k="place" v="locality" />
		<tag k="ssr:stedsnr" v="947937" />
	</node>
	<node id="-511002" lat="61.071019442" lon="6.29787777917">
		<tag k="name" v="Risebotn" />
		<tag k="natural" v="valley" />
		<tag k="place" v="locality" />
		<tag k="ssr:stedsnr" v="947923" />
	</node>
	<node id="-510999" lat="61.0545388892" lon="6.30428611931">
		<tag k="name" v="Restene" />
		<tag k="natural" v="hill" />
		<tag k="place" v="locality" />
		<tag k="ssr:stedsnr" v="947663" />
	</node>
	<node id="-510997" lat="61.0690416652" lon="6.3412777818">
		<tag k="name" v="Telsbakken" />
		<tag k="natural" v="slope" />
		<tag k="place" v="locality" />
		<tag k="ssr:stedsnr" v="947541" />
	</node>
	<node id="-510996" lat="61.0822916697" lon="6.59733332506">
		<tag k="name" v="Seglet" />
		<tag k="natural" v="slope" />
		<tag k="place" v="locality" />
		<tag k="ssr:stedsnr" v="947446" />
	</node>
	<node id="-510995" lat="61.0686666623" lon="6.51056667186">
		<tag k="name" v="Midlangseggi" />
		<tag k="natural" v="hill" />
		<tag k="place" v="locality" />
		<tag k="ssr:stedsnr" v="947363" />
	</node>
	<node id="-510993" lat="61.0367944402" lon="6.6675361051">
		<tag k="name" v="Innleigdi" />
		<tag k="natural" v="slope" />
		<tag k="place" v="locality" />
		<tag k="ssr:stedsnr" v="947182" />
	</node>
	<node id="-510992" lat="61.0223861088" lon="6.64678610792">
		<tag k="name" v="Tollakshaug" />
		<tag k="natural" v="hill" />
		<tag k="place" v="locality" />
		<tag k="ssr:stedsnr" v="947175" />
	</node>
	<node id="-510991" lat="61.0720611117" lon="6.93067500569">
		<tag k="name" v="Grandane" />
		<tag k="place" v="locality" />
		<tag k="ssr:stedsnr" v="946924" />
	</node>
	<node id="-510990" lat="61.0399693623" lon="6.85750991763">
		<tag k="name" v="Alltonan" />
		<tag k="natural" v="hill" />
		<tag k="place" v="locality" />
		<tag k="ssr:stedsnr" v="946892" />
	</node>
	<node id="-510989" lat="61.0461888923" lon="6.9697194357">
		<tag k="name" v="Krabben" />
		<tag k="natural" v="hill" />
		<tag k="place" v="locality" />
		<tag k="ssr:stedsnr" v="946828" />
	</node>
	<node id="-510988" lat="61.0349138867" lon="6.88540833886">
		<tag k="name" v="Kaldavatnskreda" />
		<tag k="natural" v="valley" />
		<tag k="place" v="locality" />
		<tag k="ssr:stedsnr" v="946815" />
	</node>
	<node id="-510983" lat="61.1092638921" lon="6.18164999906">
		<tag k="name" v="Nervahaug" />
		<tag k="natural" v="hill" />
		<tag k="place" v="locality" />
		<tag k="ssr:stedsnr" v="946456" />
	</node>
	<node id="-510979" lat="61.1379083366" lon="6.65423610388">
		<tag k="name" v="Jernegga" />
		<tag k="natural" v="hill" />
		<tag k="place" v="locality" />
		<tag k="ssr:stedsnr" v="946155" />
	</node>
	<node id="-510978" lat="61.1494638907" lon="6.68091666045">
		<tag k="name" v="Djupedalane" />
		<tag k="natural" v="valley" />
		<tag k="place" v="locality" />
		<tag k="ssr:stedsnr" v="946150" />
	</node>
	<node id="-510976" lat="61.0449055515" lon="6.56963610909">
		<tag k="name" v="Stakkstøholene" />
		<tag k="natural" v="valley" />
		<tag k="place" v="locality" />
		<tag k="ssr:stedsnr" v="946093" />
	</node>
	<node id="-510974" lat="61.068083337" lon="6.60690833401">
		<tag k="name" v="Bollingaberg" />
		<tag k="natural" v="hill" />
		<tag k="place" v="locality" />
		<tag k="ssr:stedsnr" v="946043" />
	</node>
	<node id="-510972" lat="61.0427833363" lon="6.64692499697">
		<tag k="name" v="Skreda" />
		<tag k="natural" v="slope" />
		<tag k="place" v="locality" />
		<tag k="ssr:stedsnr" v="944547" />
	</node>
	<node id="-510971" lat="60.9841194485" lon="6.45000277157">
		<tag k="name" v="Låg" />
		<tag k="natural" v="slope" />
		<tag k="place" v="locality" />
		<tag k="ssr:stedsnr" v="944520" />
	</node>
	<node id="-510970" lat="61.07390833" lon="6.44419167078">
		<tag k="name" v="Nyskredgjelet" />
		<tag k="natural" v="valley" />
		<tag k="place" v="locality" />
		<tag k="ssr:stedsnr" v="944482" />
	</node>
	<node id="-510968" lat="61.045908337" lon="6.61481388378">
		<tag k="name" v="Hesjagardane" />
		<tag k="place" v="locality" />
		<tag k="ssr:stedsnr" v="944392" />
	</node>
	<node id="-510964" lat="61.0195083318" lon="6.35536943841">
		<tag k="name" v="Ambarstegane" />
		<tag k="natural" v="hill" />
		<tag k="place" v="locality" />
		<tag k="ssr:stedsnr" v="944070" />
	</node>
	<node id="-510963" lat="61.0827138867" lon="6.49581388134">
		<tag k="name" v="Naustvollen" />
		<tag k="natural" v="hill" />
		<tag k="place" v="locality" />
		<tag k="ssr:stedsnr" v="944041" />
	</node>
	<node id="-510961" lat="60.9969555575" lon="6.36735277141">
		<tag k="name" v="Halsethagane" />
		<tag k="natural" v="slope" />
		<tag k="place" v="locality" />
		<tag k="ssr:stedsnr" v="944220" />
	</node>
	<node id="-510958" lat="61.104391669" lon="6.73466943518">
		<tag k="name" v="Storariset" />
		<tag k="natural" v="slope" />
		<tag k="place" v="locality" />
		<tag k="ssr:stedsnr" v="920813" />
	</node>
	<node id="-510957" lat="61.1149222258" lon="6.79853611223">
		<tag k="fixme" v="consider natural=peak for the most distinct mountains in the district" />
		<tag k="name" v="Liahovden" />
		<tag k="natural" v="hill" />
		<tag k="place" v="locality" />
		<tag k="ssr:stedsnr" v="920811" />
	</node>
	<node id="-510955" lat="61.1185305546" lon="6.82160277075">
		<tag k="fixme" v="consider natural=peak for the most distinct mountains in the district" />
		<tag k="name" v="Vidasethovden" />
		<tag k="natural" v="hill" />
		<tag k="place" v="locality" />
		<tag k="ssr:stedsnr" v="920746" />
	</node>
	<node id="-510954" lat="61.0392527753" lon="6.4971611205">
		<tag k="name" v="Liasethaugane" />
		<tag k="natural" v="hill" />
		<tag k="place" v="locality" />
		<tag k="ssr:stedsnr" v="920589" />
	</node>
	<node id="-510952" lat="61.0612388915" lon="6.50755000205">
		<tag k="fixme" v="multiple name tags, choose one and add the other to alt_name" />
		<tag k="name" v="Fjærestadhovden;Hovdahaugen" />
		<tag k="natural" v="hill" />
		<tag k="place" v="locality" />
		<tag k="ssr:stedsnr" v="920576" />
	</node>
	<node id="-510948" lat="61.080644443" lon="6.21346944727">
		<tag k="fixme" v="consider natural=peak for the most distinct mountains in the district" />
		<tag k="name" v="Blånipa" />
		<tag k="natural" v="hill" />
		<tag k="place" v="locality" />
		<tag k="ssr:stedsnr" v="920318" />
	</node>
	<node id="-510947" lat="61.0492444459" lon="6.80368611332">
		<tag k="fixme" v="consider natural=peak for the most distinct mountains in the district" />
		<tag k="name" v="Storøynefjellet" />
		<tag k="natural" v="hill" />
		<tag k="place" v="locality" />
		<tag k="ssr:stedsnr" v="920197" />
	</node>
	<node id="-510946" lat="61.0357416667" lon="6.80776944459">
		<tag k="alt_name" v="Huldabotn" />
		<tag k="name" v="Huldabotnen" />
		<tag k="natural" v="valley" />
		<tag k="place" v="locality" />
		<tag k="ssr:stedsnr" v="920171" />
	</node>
	<node id="-510943" lat="61.0099777804" lon="6.87883610762">
		<tag k="fixme" v="consider natural=peak for the most distinct mountains in the district" />
		<tag k="name" v="Storaleitet" />
		<tag k="natural" v="hill" />
		<tag k="place" v="locality" />
		<tag k="ssr:stedsnr" v="920147" />
	</node>
	<node id="-510940" lat="61.1361277784" lon="6.76729999771">
		<tag k="fixme" v="consider natural=peak for the most distinct mountains in the district" />
		<tag k="name" v="Klettane" />
		<tag k="natural" v="hill" />
		<tag k="place" v="locality" />
		<tag k="ssr:stedsnr" v="919857" />
	</node>
	<node id="-510938" lat="61.1643999989" lon="6.63144722497">
		<tag k="name" v="Gulemunken" />
		<tag k="place" v="locality" />
		<tag k="ssr:stedsnr" v="919840" />
	</node>
	<node id="-510935" lat="61.1502638927" lon="6.67233610979">
		<tag k="name" v="Styggehaugen" />
		<tag k="natural" v="hill" />
		<tag k="place" v="locality" />
		<tag k="ssr:stedsnr" v="919822" />
	</node>
	<node id="-510933" lat="61.1512833288" lon="6.65964166357">
		<tag k="fixme" v="consider natural=peak for the most distinct mountains in the district" />
		<tag k="name" v="Bashovden" />
		<tag k="natural" v="hill" />
		<tag k="place" v="locality" />
		<tag k="ssr:stedsnr" v="919812" />
	</node>
	<node id="-510932" lat="61.1556138899" lon="6.6674805519">
		<tag k="alt_name" v="Risjuvgjelet" />
		<tag k="name" v="Risjuvgilet" />
		<tag k="natural" v="gorge" />
		<tag k="ssr:stedsnr" v="919810" />
	</node>
	<node id="-510929" lat="61.0834333373" lon="6.60117222822">
		<tag k="fixme" v="consider natural=peak for the most distinct mountains in the district" />
		<tag k="name" v="Midtfjellet" />
		<tag k="natural" v="hill" />
		<tag k="place" v="locality" />
		<tag k="ssr:stedsnr" v="919760" />
	</node>
	<node id="-510924" lat="60.9813027811" lon="6.31761388117">
		<tag k="name" v="Jørendalen" />
		<tag k="natural" v="valley" />
		<tag k="place" v="locality" />
		<tag k="ssr:stedsnr" v="919648" />
	</node>
	<node id="-510922" lat="60.95769167" lon="6.29135555486">
		<tag k="name" v="Nonhaugen" />
		<tag k="natural" v="hill" />
		<tag k="place" v="locality" />
		<tag k="ssr:stedsnr" v="919631" />
	</node>
	<node id="-510918" lat="60.9737611102" lon="6.22581389523">
		<tag k="name" v="Åsebotnane" />
		<tag k="natural" v="valley" />
		<tag k="place" v="locality" />
		<tag k="ssr:stedsnr" v="919619" />
	</node>
	<node id="-510912" lat="61.0225083298" lon="6.57375000831">
		<tag k="name" v="Ovrisdalen" />
		<tag k="natural" v="valley" />
		<tag k="place" v="locality" />
		<tag k="ssr:stedsnr" v="919520" />
	</node>
	<node id="-510903" lat="61.0720777741" lon="6.71339722613">
		<tag k="fixme" v="consider natural=peak for the most distinct mountains in the district" />
		<tag k="name" v="Hestfjellet" />
		<tag k="natural" v="hill" />
		<tag k="place" v="locality" />
		<tag k="ssr:stedsnr" v="919205" />
	</node>
	<node id="-510900" lat="61.0472833356" lon="6.66538888786">
		<tag k="name" v="Øvstedalshaugen" />
		<tag k="natural" v="hill" />
		<tag k="place" v="locality" />
		<tag k="ssr:stedsnr" v="919188" />
	</node>
	<node id="-510898" lat="61.0445666688" lon="6.86472499083">
		<tag k="name" v="Løhaug" />
		<tag k="natural" v="hill" />
		<tag k="place" v="locality" />
		<tag k="ssr:stedsnr" v="919172" />
	</node>
	<node id="-510897" lat="61.0382666697" lon="6.92777777514">
		<tag k="alt_name" v="Svarthammaren" />
		<tag k="fixme" v="consider natural=peak for the most distinct mountains in the district" />
		<tag k="name" v="Svarthamrane" />
		<tag k="natural" v="hill" />
		<tag k="place" v="locality" />
		<tag k="ssr:stedsnr" v="919157" />
	</node>
	<node id="-510892" lat="60.9961138884" lon="6.2149611138">
		<tag k="name" v="Urdaskardet" />
		<tag k="natural" v="valley" />
		<tag k="place" v="locality" />
		<tag k="ssr:stedsnr" v="919007" />
	</node>
	<node id="-510891" lat="60.9651138851" lon="6.70022221862">
		<tag k="fixme" v="consider natural=peak for the most distinct mountains in the district" />
		<tag k="name" v="Prestnosi" />
		<tag k="natural" v="hill" />
		<tag k="place" v="locality" />
		<tag k="ssr:stedsnr" v="918932" />
	</node>
	<node id="-510890" lat="60.9516583315" lon="6.71746667602">
		<tag k="name" v="Skauvsvadet" />
		<tag k="natural" v="valley" />
		<tag k="place" v="locality" />
		<tag k="ssr:stedsnr" v="918915" />
	</node>
	<node id="-510886" lat="60.9253527775" lon="6.43505277961">
		<tag k="name" v="Vossadalen" />
		<tag k="natural" v="valley" />
		<tag k="place" v="locality" />
		<tag k="ssr:stedsnr" v="918665" />
	</node>
	<node id="-510885" lat="60.9449000015" lon="6.39385000442">
		<tag k="fixme" v="consider natural=peak for the most distinct mountains in the district" />
		<tag k="name" v="Skjelinganosi" />
		<tag k="natural" v="hill" />
		<tag k="place" v="locality" />
		<tag k="ssr:stedsnr" v="918664" />
	</node>
	<node id="-510884" lat="60.9400916673" lon="6.55652500323">
		<tag k="fixme" v="consider natural=peak for the most distinct mountains in the district" />
		<tag k="name" v="Fossfjellet" />
		<tag k="natural" v="hill" />
		<tag k="place" v="locality" />
		<tag k="ssr:stedsnr" v="918656" />
	</node>
	<node id="-510872" lat="61.1073777785" lon="6.79677777387">
		<tag k="alt_name" v="Grindedalshovden" />
		<tag k="fixme" v="consider natural=peak for the most distinct mountains in the district" />
		<tag k="name" v="Grinddalshovden" />
		<tag k="natural" v="hill" />
		<tag k="place" v="locality" />
		<tag k="ssr:stedsnr" v="859784" />
	</node>
	<node id="-510871" lat="61.1114388905" lon="6.8578222214">
		<tag k="fixme" v="consider natural=peak for the most distinct mountains in the district" />
		<tag k="name" v="Storesåta" />
		<tag k="natural" v="hill" />
		<tag k="place" v="locality" />
		<tag k="ssr:stedsnr" v="859778" />
	</node>
	<node id="-510868" lat="61.0825055593" lon="6.27762778604">
		<tag k="alt_name" v="Langafjellet" />
		<tag k="fixme" v="consider natural=peak for the most distinct mountains in the district" />
		<tag k="name" v="Langfjellet" />
		<tag k="natural" v="hill" />
		<tag k="place" v="locality" />
		<tag k="ssr:stedsnr" v="859649" />
	</node>
	<node id="-510866" lat="61.0922305589" lon="6.55599999239">
		<tag k="fixme" v="consider natural=peak for the most distinct mountains in the district" />
		<tag k="name" v="Eggjakleiv" />
		<tag k="natural" v="hill" />
		<tag k="place" v="locality" />
		<tag k="ssr:stedsnr" v="859601" />
	</node>
	<node id="-510861" lat="61.0267750038" lon="6.28340833642">
		<tag k="fixme" v="consider natural=peak for the most distinct mountains in the district" />
		<tag k="name" v="Nonnipi" />
		<tag k="natural" v="hill" />
		<tag k="place" v="locality" />
		<tag k="ssr:stedsnr" v="859565" />
	</node>
	<node id="-510860" lat="61.0414416639" lon="6.39770555626">
		<tag k="name" v="Johalsen" />
		<tag k="natural" v="valley" />
		<tag k="place" v="locality" />
		<tag k="ssr:stedsnr" v="859559" />
	</node>
	<node id="-510855" lat="61.0786805519" lon="6.18851111762">
		<tag k="fixme" v="consider natural=peak for the most distinct mountains in the district" />
		<tag k="name" v="Raudfjellet" />
		<tag k="natural" v="hill" />
		<tag k="place" v="locality" />
		<tag k="ssr:stedsnr" v="859250" />
	</node>
	<node id="-510851" lat="61.0397083333" lon="6.83486665775">
		<tag k="alt_name" v="Storøyni" />
		<tag k="name" v="Storøyna" />
		<tag k="natural" v="valley" />
		<tag k="place" v="locality" />
		<tag k="ssr:stedsnr" v="859159" />
	</node>
	<node id="-510845" lat="60.9802333324" lon="6.7359333296">
		<tag k="name" v="Leitet" />
		<tag k="place" v="locality" />
		<tag k="ssr:stedsnr" v="858922" />
	</node>
	<node id="-510843" lat="61.0849027797" lon="6.61159444503">
		<tag k="fixme" v="consider natural=peak for the most distinct mountains in the district" />
		<tag k="name" v="Seimsfjellet" />
		<tag k="natural" v="hill" />
		<tag k="place" v="locality" />
		<tag k="ssr:stedsnr" v="858815" />
	</node>
	<node id="-510842" lat="60.9882249978" lon="6.48079999186">
		<tag k="name" v="Mannsbanen" />
		<tag k="natural" v="cliff" />
		<tag k="ssr:stedsnr" v="858705" />
	</node>
	<node id="-510838" lat="60.9886333371" lon="6.56155832663">
		<tag k="fixme" v="consider natural=peak for the most distinct mountains in the district" />
		<tag k="name" v="Valanipa" />
		<tag k="natural" v="hill" />
		<tag k="place" v="locality" />
		<tag k="ssr:stedsnr" v="858660" />
	</node>
	<node id="-510837" lat="60.9928250042" lon="6.52143611316">
		<tag k="fixme" v="consider natural=peak for the most distinct mountains in the district" />
		<tag k="name" v="Krakjen" />
		<tag k="natural" v="hill" />
		<tag k="place" v="locality" />
		<tag k="ssr:stedsnr" v="858657" />
	</node>
	<node id="-510833" lat="60.9102805578" lon="6.31340554854">
		<tag k="name" v="Kjerringeggi" />
		<tag k="natural" v="hill" />
		<tag k="place" v="locality" />
		<tag k="ssr:stedsnr" v="858626" />
	</node>
	<node id="-510831" lat="60.92938056" lon="6.54551111464">
		<tag k="name" v="Dueskardfonni" />
		<tag k="natural" v="hill" />
		<tag k="place" v="locality" />
		<tag k="ssr:stedsnr" v="858618" />
	</node>
	<node id="-510830" lat="60.9288527786" lon="6.22159445284">
		<tag k="name" v="Geitdalen" />
		<tag k="natural" v="valley" />
		<tag k="place" v="locality" />
		<tag k="ssr:stedsnr" v="858606" />
	</node>
	<node id="-510828" lat="61.027277774" lon="6.59969444996">
		<tag k="name" v="Kinndalen" />
		<tag k="natural" v="valley" />
		<tag k="place" v="locality" />
		<tag k="ssr:stedsnr" v="858183" />
	</node>
	<node id="-510827" lat="61.0390611108" lon="6.90707777712">
		<tag k="fixme" v="consider natural=peak for the most distinct mountains in the district" />
		<tag k="name" v="Såtene" />
		<tag k="natural" v="hill" />
		<tag k="place" v="locality" />
		<tag k="ssr:stedsnr" v="858179" />
	</node>
	<node id="-510826" lat="61.0323888879" lon="6.83762499336">
		<tag k="alt_name" v="Sirynjene" />
		<tag k="fixme" v="consider natural=peak for the most distinct mountains in the district" />
		<tag k="name" v="Syringene" />
		<tag k="natural" v="hill" />
		<tag k="place" v="locality" />
		<tag k="ssr:stedsnr" v="858139" />
	</node>
	<node id="-510824" lat="60.9686833366" lon="6.2049777727">
		<tag k="fixme" v="consider natural=peak for the most distinct mountains in the district" />
		<tag k="name" v="Geitahornet" />
		<tag k="natural" v="hill" />
		<tag k="place" v="locality" />
		<tag k="ssr:stedsnr" v="858098" />
	</node>
	<node id="-510821" lat="61.0848277734" lon="6.9485833399">
		<tag k="name" v="Otrabråki" />
		<tag k="natural" v="valley" />
		<tag k="place" v="locality" />
		<tag k="ssr:stedsnr" v="843095" />
	</node>
	<node id="-510820" lat="61.0837558664" lon="6.96413094521">
		<tag k="name" v="Kyrkjeurdhola" />
		<tag k="natural" v="valley" />
		<tag k="place" v="locality" />
		<tag k="ssr:stedsnr" v="843094" />
	</node>
	<node id="-510816" lat="61.0592055561" lon="6.99155555342">
		<tag k="name" v="Krossveghola" />
		<tag k="natural" v="gorge" />
		<tag k="ssr:stedsnr" v="825901" />
	</node>
	<node id="-510815" lat="61.036788892" lon="6.86164443525">
		<tag k="name" v="Løhaug" />
		<tag k="natural" v="hill" />
		<tag k="place" v="locality" />
		<tag k="ssr:stedsnr" v="825887" />
	</node>
	<node id="-510814" lat="61.0669805578" lon="6.90721388064">
		<tag k="name" v="Orrehaug" />
		<tag k="natural" v="hill" />
		<tag k="place" v="locality" />
		<tag k="ssr:stedsnr" v="825877" />
	</node>
	<node id="-510813" lat="61.0656861131" lon="6.9118666733">
		<tag k="name" v="Halsen" />
		<tag k="natural" v="ridge" />
		<tag k="place" v="locality" />
		<tag k="ssr:stedsnr" v="825876" />
	</node>
	<node id="-510812" lat="61.0472722231" lon="6.95148054712">
		<tag k="name" v="Rotabakken" />
		<tag k="natural" v="slope" />
		<tag k="place" v="locality" />
		<tag k="ssr:stedsnr" v="825832" />
	</node>
	<node id="-510811" lat="61.0424722198" lon="6.9881749929">
		<tag k="name" v="Hyttehaugen" />
		<tag k="natural" v="hill" />
		<tag k="place" v="locality" />
		<tag k="ssr:stedsnr" v="825809" />
	</node>
	<node id="-510808" lat="61.0401055592" lon="6.28041389">
		<tag k="name" v="Kråna" />
		<tag k="natural" v="hill" />
		<tag k="place" v="locality" />
		<tag k="ssr:stedsnr" v="825728" />
	</node>
	<node id="-510807" lat="61.0523833309" lon="6.28011110229">
		<tag k="name" v="Fjelli" />
		<tag k="natural" v="slope" />
		<tag k="place" v="locality" />
		<tag k="ssr:stedsnr" v="825723" />
	</node>
	<node id="-510806" lat="61.0514194442" lon="6.30252222275">
		<tag k="name" v="Elvabakken" />
		<tag k="natural" v="slope" />
		<tag k="place" v="locality" />
		<tag k="ssr:stedsnr" v="825706" />
	</node>
	<node id="-510805" lat="61.0528888914" lon="6.30368054755">
		<tag k="name" v="Mekjelsva" />
		<tag k="natural" v="hill" />
		<tag k="place" v="locality" />
		<tag k="ssr:stedsnr" v="825705" />
	</node>
	<node id="-510804" lat="61.0498111122" lon="6.3138027784">
		<tag k="name" v="Kvillægje" />
		<tag k="place" v="locality" />
		<tag k="ssr:stedsnr" v="825693" />
	</node>
	<node id="-510803" lat="61.0505583372" lon="6.29246389673">
		<tag k="name" v="Rusti" />
		<tag k="natural" v="hill" />
		<tag k="place" v="locality" />
		<tag k="ssr:stedsnr" v="825685" />
	</node>
	<node id="-510802" lat="61.0428583361" lon="6.91117499704">
		<tag k="fixme" v="consider natural=peak for the most distinct mountains in the district" />
		<tag k="name" v="Veslesåta" />
		<tag k="natural" v="hill" />
		<tag k="place" v="locality" />
		<tag k="ssr:stedsnr" v="825670" />
	</node>
	<node id="-510801" lat="61.0827388917" lon="6.29326110393">
		<tag k="name" v="Svartaholet" />
		<tag k="natural" v="gorge" />
		<tag k="ssr:stedsnr" v="825619" />
	</node>
	<node id="-510800" lat="61.0284555581" lon="6.24616388271">
		<tag k="fixme" v="consider natural=peak for the most distinct mountains in the district" />
		<tag k="name" v="Gaulen" />
		<tag k="natural" v="hill" />
		<tag k="place" v="locality" />
		<tag k="ssr:stedsnr" v="825599" />
	</node>
	<node id="-510799" lat="61.064802776" lon="6.39220555185">
		<tag k="name" v="Bratteli" />
		<tag k="natural" v="slope" />
		<tag k="place" v="locality" />
		<tag k="ssr:stedsnr" v="825556" />
	</node>
	<node id="-510798" lat="61.0634777798" lon="6.38380277299">
		<tag k="name" v="Kaldegjelstunga" />
		<tag k="natural" v="ridge" />
		<tag k="place" v="locality" />
		<tag k="ssr:stedsnr" v="825541" />
	</node>
	<node id="-510797" lat="61.0617138856" lon="6.37811944091">
		<tag k="name" v="Vårstølgjelet" />
		<tag k="natural" v="valley" />
		<tag k="place" v="locality" />
		<tag k="ssr:stedsnr" v="825540" />
	</node>
	<node id="-510796" lat="61.0519277781" lon="6.39897499395">
		<tag k="name" v="Henje" />
		<tag k="natural" v="hill" />
		<tag k="place" v="locality" />
		<tag k="ssr:stedsnr" v="825500" />
	</node>
	<node id="-510794" lat="61.0940555566" lon="6.21311944929">
		<tag k="name" v="Nervaflatane" />
		<tag k="place" v="locality" />
		<tag k="ssr:stedsnr" v="825461" />
	</node>
	<node id="-510793" lat="61.0961972267" lon="6.21516944478">
		<tag k="name" v="Furukamben" />
		<tag k="natural" v="hill" />
		<tag k="place" v="locality" />
		<tag k="ssr:stedsnr" v="825458" />
	</node>
	<node id="-510792" lat="61.1015166663" lon="6.20316388823">
		<tag k="name" v="Helleren" />
		<tag k="place" v="locality" />
		<tag k="ssr:stedsnr" v="825455" />
	</node>
	<node id="-510791" lat="61.0904027766" lon="6.22149723002">
		<tag k="name" v="Rindane" />
		<tag k="natural" v="ridge" />
		<tag k="place" v="locality" />
		<tag k="ssr:stedsnr" v="825449" />
	</node>
	<node id="-510790" lat="61.1068833306" lon="6.19402778165">
		<tag k="name" v="Brandhaugen" />
		<tag k="natural" v="hill" />
		<tag k="place" v="locality" />
		<tag k="ssr:stedsnr" v="825439" />
	</node>
	<node id="-510787" lat="61.0882083361" lon="6.59241389339">
		<tag k="name" v="Vetleøyrbakkane" />
		<tag k="natural" v="slope" />
		<tag k="place" v="locality" />
		<tag k="ssr:stedsnr" v="825392" />
	</node>
	<node id="-510786" lat="61.0870944445" lon="6.59932499821">
		<tag k="fixme" v="consider natural=peak for the most distinct mountains in the district" />
		<tag k="name" v="Omnen" />
		<tag k="natural" v="hill" />
		<tag k="place" v="locality" />
		<tag k="ssr:stedsnr" v="825390" />
	</node>
	<node id="-510784" lat="61.0858305587" lon="6.57135833381">
		<tag k="name" v="Prestberget" />
		<tag k="natural" v="hill" />
		<tag k="place" v="locality" />
		<tag k="ssr:stedsnr" v="825333" />
	</node>
	<node id="-510783" lat="61.0491416702" lon="6.51737500896">
		<tag k="name" v="Løyningshaugane" />
		<tag k="natural" v="hill" />
		<tag k="place" v="locality" />
		<tag k="ssr:stedsnr" v="825317" />
	</node>
	<node id="-510781" lat="61.1639833354" lon="6.64332221946">
		<tag k="name" v="Bergamot" />
		<tag k="natural" v="hill" />
		<tag k="place" v="locality" />
		<tag k="ssr:stedsnr" v="825292" />
	</node>
	<node id="-510780" lat="61.1299194449" lon="6.61487221768">
		<tag k="name" v="Skjerpa" />
		<tag k="natural" v="hill" />
		<tag k="place" v="locality" />
		<tag k="ssr:stedsnr" v="825278" />
	</node>
	<node id="-510779" lat="61.1280138847" lon="6.61340832515">
		<tag k="name" v="Klanten" />
		<tag k="natural" v="hill" />
		<tag k="place" v="locality" />
		<tag k="ssr:stedsnr" v="825277" />
	</node>
	<node id="-510778" lat="61.1056750028" lon="6.87435833277">
		<tag k="name" v="Gullskredknubben" />
		<tag k="natural" v="hill" />
		<tag k="place" v="locality" />
		<tag k="ssr:stedsnr" v="825169" />
	</node>
	<node id="-510777" lat="61.112377779" lon="6.71360555459">
		<tag k="name" v="Langeli" />
		<tag k="natural" v="slope" />
		<tag k="place" v="locality" />
		<tag k="ssr:stedsnr" v="825120" />
	</node>
	<node id="-510776" lat="61.0323055559" lon="6.6895055628">
		<tag k="name" v="Botnanovi" />
		<tag k="natural" v="hill" />
		<tag k="place" v="locality" />
		<tag k="ssr:stedsnr" v="825080" />
	</node>
	<node id="-510774" lat="61.1674972235" lon="6.63355832665">
		<tag k="name" v="Kleivi" />
		<tag k="natural" v="slope" />
		<tag k="place" v="locality" />
		<tag k="ssr:stedsnr" v="825061" />
	</node>
	<node id="-510772" lat="61.0964277763" lon="6.59451665797">
		<tag k="name" v="Lahamar" />
		<tag k="natural" v="hill" />
		<tag k="place" v="locality" />
		<tag k="ssr:stedsnr" v="825027" />
	</node>
	<node id="-510771" lat="61.065233331" lon="6.59428332638">
		<tag k="name" v="Kringane" />
		<tag k="natural" v="hill" />
		<tag k="place" v="locality" />
		<tag k="ssr:stedsnr" v="825023" />
	</node>
	<node id="-510770" lat="61.0438944467" lon="6.54713333169">
		<tag k="name" v="Espesetli" />
		<tag k="natural" v="slope" />
		<tag k="place" v="locality" />
		<tag k="ssr:stedsnr" v="824111" />
	</node>
	<node id="-510768" lat="61.0195222264" lon="6.5582416704">
		<tag k="name" v="Stridsberg" />
		<tag k="natural" v="hill" />
		<tag k="place" v="locality" />
		<tag k="ssr:stedsnr" v="823502" />
	</node>
	<node id="-510767" lat="60.9853388927" lon="6.44756110475">
		<tag k="name" v="Skavhaugen" />
		<tag k="natural" v="hill" />
		<tag k="place" v="locality" />
		<tag k="ssr:stedsnr" v="823453" />
	</node>
	<node id="-510766" lat="60.9929888846" lon="6.42422500403">
		<tag k="name" v="Vetleli" />
		<tag k="natural" v="slope" />
		<tag k="place" v="locality" />
		<tag k="ssr:stedsnr" v="823424" />
	</node>
	<node id="-510765" lat="61.0484999998" lon="6.60706666407">
		<tag k="name" v="Vetleorvedal" />
		<tag k="natural" v="valley" />
		<tag k="place" v="locality" />
		<tag k="ssr:stedsnr" v="823299" />
	</node>
	<node id="-510764" lat="61.0375027823" lon="6.61446389654">
		<tag k="name" v="Strupen" />
		<tag k="natural" v="hill" />
		<tag k="place" v="locality" />
		<tag k="ssr:stedsnr" v="823285" />
	</node>
	<node id="-510763" lat="61.0214472259" lon="6.64188610745">
		<tag k="name" v="Husmann" />
		<tag k="natural" v="hill" />
		<tag k="place" v="locality" />
		<tag k="ssr:stedsnr" v="823271" />
	</node>
	<node id="-510760" lat="61.0014305522" lon="6.40190277653">
		<tag k="name" v="Krokane" />
		<tag k="natural" v="slope" />
		<tag k="place" v="locality" />
		<tag k="ssr:stedsnr" v="823208" />
	</node>
	<node id="-510758" lat="61.0296694477" lon="6.37766388823">
		<tag k="name" v="Rundhamar" />
		<tag k="natural" v="hill" />
		<tag k="place" v="locality" />
		<tag k="ssr:stedsnr" v="823101" />
	</node>
	<node id="-510757" lat="60.9929250031" lon="6.37087777175">
		<tag k="name" v="Grapallhaugen" />
		<tag k="natural" v="slope" />
		<tag k="place" v="locality" />
		<tag k="ssr:stedsnr" v="823089" />
	</node>
	<node id="-510756" lat="61.0859027747" lon="6.5195416679">
		<tag k="fixme" v="consider natural=peak for the most distinct mountains in the district" />
		<tag k="name" v="Vollaholten" />
		<tag k="natural" v="hill" />
		<tag k="place" v="locality" />
		<tag k="ssr:stedsnr" v="823036" />
	</node>
	<node id="-510753" lat="60.949891663" lon="6.75342499787">
		<tag k="name" v="Kolsetbotn" />
		<tag k="natural" v="valley" />
		<tag k="place" v="locality" />
		<tag k="ssr:stedsnr" v="809464" />
	</node>
	<node id="-510752" lat="61.0173305574" lon="6.85933888472">
		<tag k="name" v="Klepp" />
		<tag k="natural" v="slope" />
		<tag k="place" v="locality" />
		<tag k="ssr:stedsnr" v="799165" />
	</node>
	<node id="-510747" lat="61.1057555522" lon="6.84330277821">
		<tag k="fixme" v="consider natural=peak for the most distinct mountains in the district" />
		<tag k="name" v="Engjafjell" />
		<tag k="natural" v="hill" />
		<tag k="place" v="locality" />
		<tag k="ssr:stedsnr" v="798755" />
	</node>
	<node id="-510745" lat="61.0938777762" lon="6.81500556096">
		<tag k="name" v="Vigdalshalsane" />
		<tag k="natural" v="valley" />
		<tag k="place" v="locality" />
		<tag k="ssr:stedsnr" v="798745" />
	</node>
	<node id="-510744" lat="61.0874472258" lon="6.70338610554">
		<tag k="fixme" v="consider natural=peak for the most distinct mountains in the district" />
		<tag k="name" v="Reindalsfjellet" />
		<tag k="natural" v="hill" />
		<tag k="place" v="locality" />
		<tag k="ssr:stedsnr" v="798741" />
	</node>
	<node id="-510739" lat="61.0878750041" lon="6.26861388591">
		<tag k="fixme" v="consider natural=peak for the most distinct mountains in the district" />
		<tag k="name" v="Klimpen" />
		<tag k="natural" v="hill" />
		<tag k="place" v="locality" />
		<tag k="ssr:stedsnr" v="798653" />
	</node>
	<node id="-510736" lat="61.1596566307" lon="6.67117809497">
		<tag k="name" v="Risjuv" />
		<tag k="natural" v="gorge" />
		<tag k="ssr:stedsnr" v="798901" />
	</node>
	<node id="-510722" lat="61.0797222244" lon="6.87231389269">
		<tag k="alt_name" v="Djupagilet" />
		<tag k="name" v="Djupagjelet" />
		<tag k="natural" v="gorge" />
		<tag k="ssr:stedsnr" v="798228" />
	</node>
	<node id="-510720" lat="61.0439694429" lon="6.62477221678">
		<tag k="name" v="Blikkabakkane" />
		<tag k="natural" v="slope" />
		<tag k="place" v="locality" />
		<tag k="ssr:stedsnr" v="798201" />
	</node>
	<node id="-510719" lat="61.0494666645" lon="6.61767221462">
		<tag k="alt_name" v="Åsfjellet" />
		<tag k="fixme" v="consider natural=peak for the most distinct mountains in the district" />
		<tag k="name" v="Åsafjellet" />
		<tag k="natural" v="hill" />
		<tag k="place" v="locality" />
		<tag k="ssr:stedsnr" v="798199" />
	</node>
	<node id="-510718" lat="61.0496611133" lon="6.68820554763">
		<tag k="fixme" v="consider natural=peak for the most distinct mountains in the district" />
		<tag k="name" v="Nummestolane" />
		<tag k="natural" v="hill" />
		<tag k="place" v="locality" />
		<tag k="ssr:stedsnr" v="798195" />
	</node>
	<node id="-510717" lat="61.0608339309" lon="6.7196291671">
		<tag k="alt_name" v="Gullsetdalen" />
		<tag k="name" v="Gullsetedalen" />
		<tag k="natural" v="valley" />
		<tag k="place" v="locality" />
		<tag k="ssr:stedsnr" v="798191" />
	</node>
	<node id="-510714" lat="61.0399416691" lon="6.86925834048">
		<tag k="name" v="Bjørnbåsen" />
		<tag k="place" v="locality" />
		<tag k="ssr:stedsnr" v="798176" />
	</node>
	<node id="-510709" lat="60.9920805514" lon="6.69398333809">
		<tag k="fixme" v="consider natural=peak for the most distinct mountains in the district" />
		<tag k="name" v="Snarvegfjellet" />
		<tag k="natural" v="hill" />
		<tag k="place" v="locality" />
		<tag k="ssr:stedsnr" v="797921" />
	</node>
	<node id="-510708" lat="60.9783833298" lon="6.63033334237">
		<tag k="fixme" v="consider natural=peak for the most distinct mountains in the district" />
		<tag k="name" v="Vollafjellet" />
		<tag k="natural" v="hill" />
		<tag k="place" v="locality" />
		<tag k="ssr:stedsnr" v="797919" />
	</node>
	<node id="-510702" lat="60.9846777785" lon="6.38003333371">
		<tag k="fixme" v="consider natural=peak for the most distinct mountains in the district" />
		<tag k="name" v="Bråsslieggi" />
		<tag k="natural" v="hill" />
		<tag k="place" v="locality" />
		<tag k="ssr:stedsnr" v="797686" />
	</node>
	<node id="-510701" lat="60.9530333327" lon="6.27904166662">
		<tag k="name" v="Dyrebotn" />
		<tag k="natural" v="valley" />
		<tag k="place" v="locality" />
		<tag k="ssr:stedsnr" v="797652" />
	</node>
	<node id="-510700" lat="60.9726666704" lon="6.33919165745">
		<tag k="name" v="Langedalen" />
		<tag k="natural" v="valley" />
		<tag k="place" v="locality" />
		<tag k="ssr:stedsnr" v="797645" />
	</node>
	<node id="-510694" lat="60.9588694439" lon="6.17900834068">
		<tag k="name" v="Sundagsbeiti" />
		<tag k="natural" v="valley" />
		<tag k="place" v="locality" />
		<tag k="ssr:stedsnr" v="797112" />
	</node>
	<node id="-510693" lat="60.9201416665" lon="6.20221944704">
		<tag k="alt_name" v="Holskardbotnen" />
		<tag k="name" v="Holabotnen" />
		<tag k="natural" v="valley" />
		<tag k="place" v="locality" />
		<tag k="ssr:stedsnr" v="797071" />
	</node>
	<node id="-510690" lat="61.0331999966" lon="6.25417499785">
		<tag k="name" v="Botnanonnipi" />
		<tag k="natural" v="hill" />
		<tag k="place" v="locality" />
		<tag k="ssr:stedsnr" v="798555" />
	</node>
	<node id="-510689" lat="61.0458583325" lon="6.4717250002">
		<tag k="name" v="Jambueggi" />
		<tag k="natural" v="hill" />
		<tag k="place" v="locality" />
		<tag k="ssr:stedsnr" v="798552" />
	</node>
	<node id="-510682" lat="61.0790444407" lon="6.96888888265">
		<tag k="name" v="Stavbruni" />
		<tag k="place" v="locality" />
		<tag k="ssr:stedsnr" v="764995" />
	</node>
	<node id="-510681" lat="61.0849861138" lon="6.28067778051">
		<tag k="name" v="Tungebakkane" />
		<tag k="natural" v="hill" />
		<tag k="place" v="locality" />
		<tag k="ssr:stedsnr" v="764938" />
	</node>
	<node id="-510680" lat="61.0496833374" lon="6.89621666232">
		<tag k="name" v="Kvilebakkane" />
		<tag k="natural" v="slope" />
		<tag k="place" v="locality" />
		<tag k="ssr:stedsnr" v="764928" />
	</node>
	<node id="-510679" lat="61.101041666" lon="6.24474722652">
		<tag k="name" v="Kvina" />
		<tag k="natural" v="hill" />
		<tag k="place" v="locality" />
		<tag k="ssr:stedsnr" v="764872" />
	</node>
	<node id="-510677" lat="61.0824194485" lon="6.24589721824">
		<tag k="name" v="Vedaplassane" />
		<tag k="natural" v="slope" />
		<tag k="place" v="locality" />
		<tag k="ssr:stedsnr" v="764831" />
	</node>
	<node id="-510676" lat="61.0552555522" lon="6.29098056032">
		<tag k="name" v="Midtrindshamrane" />
		<tag k="natural" v="hill" />
		<tag k="place" v="locality" />
		<tag k="ssr:stedsnr" v="764685" />
	</node>
	<node id="-510675" lat="61.0380972185" lon="6.26331943608">
		<tag k="alt_name" v="Vetleflåten" />
		<tag k="name" v="Vetlefloten" />
		<tag k="natural" v="hill" />
		<tag k="place" v="locality" />
		<tag k="ssr:stedsnr" v="764628" />
	</node>
	<node id="-510673" lat="61.0341888911" lon="6.28242499226">
		<tag k="name" v="Hengsleberget" />
		<tag k="natural" v="hill" />
		<tag k="place" v="locality" />
		<tag k="ssr:stedsnr" v="764623" />
	</node>
	<node id="-510672" lat="61.0693638891" lon="6.38482776902">
		<tag k="name" v="Tåhaugen" />
		<tag k="natural" v="hill" />
		<tag k="place" v="locality" />
		<tag k="ssr:stedsnr" v="764578" />
	</node>
	<node id="-510670" lat="61.0612222247" lon="6.38113055025">
		<tag k="name" v="Kvanngrøskori" />
		<tag k="natural" v="valley" />
		<tag k="place" v="locality" />
		<tag k="ssr:stedsnr" v="764576" />
	</node>
	<node id="-510668" lat="61.0648000021" lon="6.36016665905">
		<tag k="name" v="Myrkjeskredbotn" />
		<tag k="natural" v="valley" />
		<tag k="place" v="locality" />
		<tag k="ssr:stedsnr" v="764549" />
	</node>
	<node id="-510666" lat="61.076461107" lon="6.53228056016">
		<tag k="name" v="Bøasvoi" />
		<tag k="natural" v="hill" />
		<tag k="place" v="locality" />
		<tag k="ssr:stedsnr" v="764476" />
	</node>
	<node id="-510663" lat="61.0606333319" lon="6.56587221836">
		<tag k="name" v="Fræhaugane" />
		<tag k="natural" v="hill" />
		<tag k="place" v="locality" />
		<tag k="ssr:stedsnr" v="764446" />
	</node>
	<node id="-510662" lat="61.1027583367" lon="6.59375277446">
		<tag k="name" v="Svartasvoi" />
		<tag k="natural" v="hill" />
		<tag k="place" v="locality" />
		<tag k="ssr:stedsnr" v="764431" />
	</node>
	<node id="-510659" lat="61.0590333322" lon="6.51642778299">
		<tag k="name" v="Oksli" />
		<tag k="natural" v="slope" />
		<tag k="place" v="locality" />
		<tag k="ssr:stedsnr" v="764344" />
	</node>
	<node id="-510656" lat="61.1415722202" lon="6.62430277768">
		<tag k="name" v="Gruvlet" />
		<tag k="natural" v="gorge" />
		<tag k="ssr:stedsnr" v="764301" />
	</node>
	<node id="-510653" lat="61.0158277791" lon="6.56236111668">
		<tag k="name" v="Kvålene" />
		<tag k="natural" v="hill" />
		<tag k="place" v="locality" />
		<tag k="ssr:stedsnr" v="764064" />
	</node>
	<node id="-510652" lat="61.0154888914" lon="6.5497638927">
		<tag k="name" v="Fledna" />
		<tag k="natural" v="hill" />
		<tag k="place" v="locality" />
		<tag k="ssr:stedsnr" v="764063" />
	</node>
	<node id="-510650" lat="61.0788527751" lon="6.60413056144">
		<tag k="name" v="Pilagalden" />
		<tag k="natural" v="hill" />
		<tag k="place" v="locality" />
		<tag k="ssr:stedsnr" v="763050" />
	</node>
	<node id="-510648" lat="61.1360222184" lon="6.81533611524">
		<tag k="name" v="Nonhaugli" />
		<tag k="natural" v="slope" />
		<tag k="place" v="locality" />
		<tag k="ssr:stedsnr" v="762692" />
	</node>
	<node id="-510647" lat="61.0400722248" lon="6.66956111792">
		<tag k="name" v="Holten" />
		<tag k="natural" v="hill" />
		<tag k="place" v="locality" />
		<tag k="ssr:stedsnr" v="762565" />
	</node>
	<node id="-510646" lat="61.0275555563" lon="6.54604721515">
		<tag k="name" v="Botnasva" />
		<tag k="natural" v="hill" />
		<tag k="place" v="locality" />
		<tag k="ssr:stedsnr" v="762469" />
	</node>
	<node id="-510645" lat="61.0370999988" lon="6.56845555858">
		<tag k="name" v="Buvollen" />
		<tag k="natural" v="hill" />
		<tag k="place" v="locality" />
		<tag k="ssr:stedsnr" v="762466" />
	</node>
	<node id="-510644" lat="61.0442888866" lon="6.65348611726">
		<tag k="name" v="Øvstedalssvadi" />
		<tag k="natural" v="hill" />
		<tag k="place" v="locality" />
		<tag k="ssr:stedsnr" v="762465" />
	</node>
	<node id="-510643" lat="61.0428055595" lon="6.59031111206">
		<tag k="name" v="Øygarden" />
		<tag k="place" v="locality" />
		<tag k="ssr:stedsnr" v="762300" />
	</node>
	<node id="-510642" lat="61.0005694421" lon="6.34835000745">
		<tag k="name" v="Beitelen" />
		<tag k="place" v="locality" />
		<tag k="ssr:stedsnr" v="762202" />
	</node>
	<node id="-510640" lat="61.026247219" lon="6.37873889033">
		<tag k="fixme" v="consider natural=peak for the most distinct mountains in the district" />
		<tag k="name" v="Skredhovden" />
		<tag k="natural" v="hill" />
		<tag k="place" v="locality" />
		<tag k="ssr:stedsnr" v="762147" />
	</node>
	<node id="-510638" lat="60.985147224" lon="6.40283333475">
		<tag k="name" v="Bråsli" />
		<tag k="natural" v="slope" />
		<tag k="place" v="locality" />
		<tag k="ssr:stedsnr" v="762072" />
	</node>
	<node id="-510636" lat="61.0276388876" lon="6.37133610526">
		<tag k="name" v="Tuftene" />
		<tag k="place" v="locality" />
		<tag k="ssr:stedsnr" v="761136" />
	</node>
	<node id="-510635" lat="61.1312777779" lon="6.82241389335">
		<tag k="alt_name" v="Storegjelet" />
		<tag k="name" v="Storagilet" />
		<tag k="natural" v="gorge" />
		<tag k="ssr:stedsnr" v="737858" />
	</node>
	<node id="-510630" lat="61.0997861122" lon="6.60145554648">
		<tag k="alt_name" v="Trolldalen" />
		<tag k="name" v="Trolledalen" />
		<tag k="natural" v="valley" />
		<tag k="place" v="locality" />
		<tag k="ssr:stedsnr" v="737806" />
	</node>
	<node id="-510629" lat="61.1120249995" lon="6.79105277322">
		<tag k="alt_name" v="Melsgjelet" />
		<tag k="name" v="Melsgilet" />
		<tag k="natural" v="gorge" />
		<tag k="ssr:stedsnr" v="737801" />
	</node>
	<node id="-510620" lat="61.05381667" lon="6.19166111633">
		<tag k="name" v="Kvervet" />
		<tag k="natural" v="valley" />
		<tag k="place" v="locality" />
		<tag k="ssr:stedsnr" v="737321" />
	</node>
	<node id="-510616" lat="61.074452777" lon="6.73875555364">
		<tag k="name" v="Knuldrehaug" />
		<tag k="natural" v="hill" />
		<tag k="place" v="locality" />
		<tag k="ssr:stedsnr" v="737225" />
	</node>
	<node id="-510613" lat="61.067722226" lon="6.87332500734">
		<tag k="name" v="Steindalsskardet" />
		<tag k="natural" v="valley" />
		<tag k="place" v="locality" />
		<tag k="ssr:stedsnr" v="737190" />
	</node>
	<node id="-510611" lat="61.0528944443" lon="6.831633342">
		<tag k="name" v="Gråsteinsgilet" />
		<tag k="natural" v="cliff" />
		<tag k="ssr:stedsnr" v="737176" />
	</node>
	<node id="-510608" lat="61.0361333309" lon="6.89738332426">
		<tag k="fixme" v="consider natural=peak for the most distinct mountains in the district" />
		<tag k="name" v="Nonhaug" />
		<tag k="natural" v="hill" />
		<tag k="place" v="locality" />
		<tag k="ssr:stedsnr" v="737127" />
	</node>
	<node id="-510607" lat="61.030952782" lon="6.66423889164">
		<tag k="alt_name" v="Middagsgjelet" />
		<tag k="name" v="Middagsgilet" />
		<tag k="natural" v="gorge" />
		<tag k="ssr:stedsnr" v="737119" />
	</node>
	<node id="-510606" lat="61.0244833309" lon="6.69798055994">
		<tag k="fixme" v="consider natural=peak for the most distinct mountains in the district" />
		<tag k="name" v="Daurmålsnipa" />
		<tag k="natural" v="hill" />
		<tag k="place" v="locality" />
		<tag k="ssr:stedsnr" v="737116" />
	</node>
	<node id="-510605" lat="61.0239888864" lon="6.87088332955">
		<tag k="fixme" v="consider natural=peak for the most distinct mountains in the district" />
		<tag k="name" v="Tundalsnipa" />
		<tag k="natural" v="hill" />
		<tag k="place" v="locality" />
		<tag k="ssr:stedsnr" v="737113" />
	</node>
	<node id="-510603" lat="60.9916361084" lon="6.65389722632">
		<tag k="fixme" v="consider natural=peak for the most distinct mountains in the district" />
		<tag k="name" v="Svinadalsholtane" />
		<tag k="natural" v="hill" />
		<tag k="place" v="locality" />
		<tag k="ssr:stedsnr" v="736931" />
	</node>
	<node id="-510602" lat="60.9986972248" lon="6.79872500202">
		<tag k="fixme" v="consider natural=peak for the most distinct mountains in the district" />
		<tag k="name" v="Langafjellet" />
		<tag k="natural" v="hill" />
		<tag k="place" v="locality" />
		<tag k="ssr:stedsnr" v="736921" />
	</node>
	<node id="-510601" lat="60.9456527748" lon="6.59790556039">
		<tag k="fixme" v="consider natural=peak for the most distinct mountains in the district" />
		<tag k="name" v="Kvanndalseggi" />
		<tag k="natural" v="hill" />
		<tag k="place" v="locality" />
		<tag k="ssr:stedsnr" v="736900" />
	</node>
	<node id="-510599" lat="60.9504888918" lon="6.61381110423">
		<tag k="fixme" v="consider natural=peak for the most distinct mountains in the district" />
		<tag k="name" v="Kvannfjellet" />
		<tag k="natural" v="hill" />
		<tag k="place" v="locality" />
		<tag k="ssr:stedsnr" v="736891" />
	</node>
	<node id="-510597" lat="60.9608166632" lon="6.47105277056">
		<tag k="name" v="Vassbakkane" />
		<tag k="natural" v="slope" />
		<tag k="place" v="locality" />
		<tag k="ssr:stedsnr" v="737639" />
	</node>
	<node id="-510596" lat="60.971630556" lon="6.36042500791">
		<tag k="fixme" v="consider natural=peak for the most distinct mountains in the district" />
		<tag k="name" v="Fagermyrtoppane" />
		<tag k="natural" v="hill" />
		<tag k="place" v="locality" />
		<tag k="ssr:stedsnr" v="737631" />
	</node>
	<node id="-510593" lat="60.9969111067" lon="6.44863333433">
		<tag k="fixme" v="consider natural=peak for the most distinct mountains in the district" />
		<tag k="name" v="Havren" />
		<tag k="natural" v="hill" />
		<tag k="place" v="locality" />
		<tag k="ssr:stedsnr" v="736709" />
	</node>
	<node id="-510590" lat="60.9834750026" lon="6.29848056397">
		<tag k="fixme" v="consider natural=peak for the most distinct mountains in the district" />
		<tag k="name" v="Halvfar" />
		<tag k="natural" v="hill" />
		<tag k="place" v="locality" />
		<tag k="ssr:stedsnr" v="736691" />
	</node>
	<node id="-510585" lat="60.985016671" lon="6.49713888688">
		<tag k="name" v="Høgalii" />
		<tag k="natural" v="hill" />
		<tag k="place" v="locality" />
		<tag k="ssr:stedsnr" v="736623" />
	</node>
	<node id="-510576" lat="61.0959416646" lon="6.2814777769">
		<tag k="name" v="Kalvadauen" />
		<tag k="natural" v="slope" />
		<tag k="place" v="locality" />
		<tag k="ssr:stedsnr" v="704928" />
	</node>
	<node id="-510574" lat="61.0629583319" lon="6.30326110517">
		<tag k="fixme" v="consider natural=peak for the most distinct mountains in the district" />
		<tag k="name" v="Stavafjellet" />
		<tag k="natural" v="hill" />
		<tag k="place" v="locality" />
		<tag k="ssr:stedsnr" v="704901" />
	</node>
	<node id="-510572" lat="61.0599222204" lon="6.32789999809">
		<tag k="name" v="Spelevollen" />
		<tag k="place" v="locality" />
		<tag k="ssr:stedsnr" v="704894" />
	</node>
	<node id="-510571" lat="61.0845083327" lon="6.27031388211">
		<tag k="name" v="Blomhola" />
		<tag k="natural" v="gorge" />
		<tag k="ssr:stedsnr" v="704775" />
	</node>
	<node id="-510570" lat="61.0450388844" lon="6.29756943639">
		<tag k="name" v="Blokkbærhaugen" />
		<tag k="natural" v="hill" />
		<tag k="place" v="locality" />
		<tag k="ssr:stedsnr" v="704687" />
	</node>
	<node id="-510569" lat="61.0666527768" lon="6.36955556446">
		<tag k="name" v="Kvernhusbotn" />
		<tag k="natural" v="valley" />
		<tag k="place" v="locality" />
		<tag k="ssr:stedsnr" v="704558" />
	</node>
	<node id="-510568" lat="61.0675083338" lon="6.37956666427">
		<tag k="name" v="Botnareset" />
		<tag k="natural" v="hill" />
		<tag k="place" v="locality" />
		<tag k="ssr:stedsnr" v="704541" />
	</node>
	<node id="-510564" lat="61.0825055577" lon="6.6023416692">
		<tag k="name" v="Ospeskori" />
		<tag k="natural" v="valley" />
		<tag k="place" v="locality" />
		<tag k="ssr:stedsnr" v="704423" />
	</node>
	<node id="-510563" lat="61.0849388852" lon="6.59750832645">
		<tag k="name" v="Lammeskori" />
		<tag k="natural" v="valley" />
		<tag k="place" v="locality" />
		<tag k="ssr:stedsnr" v="704419" />
	</node>
	<node id="-510562" lat="61.0749166687" lon="6.57883054789">
		<tag k="name" v="Moane" />
		<tag k="place" v="locality" />
		<tag k="ssr:stedsnr" v="704409" />
	</node>
	<node id="-510561" lat="61.0884722204" lon="6.54652778112">
		<tag k="name" v="Igdarhaug" />
		<tag k="natural" v="hill" />
		<tag k="place" v="locality" />
		<tag k="ssr:stedsnr" v="704381" />
	</node>
	<node id="-510560" lat="61.0491999981" lon="6.94064999943">
		<tag k="name" v="Breielvaflatene" />
		<tag k="place" v="locality" />
		<tag k="ssr:stedsnr" v="703846" />
	</node>
	<node id="-510559" lat="61.0914027767" lon="6.29111943551">
		<tag k="name" v="Kalvaskori" />
		<tag k="natural" v="valley" />
		<tag k="place" v="locality" />
		<tag k="ssr:stedsnr" v="703650" />
	</node>
	<node id="-510558" lat="61.1307416665" lon="6.62859999938">
		<tag k="name" v="Hangsetsvoi" />
		<tag k="natural" v="hill" />
		<tag k="place" v="locality" />
		<tag k="ssr:stedsnr" v="703445" />
	</node>
	<node id="-510557" lat="61.1289194403" lon="6.62016111708">
		<tag k="name" v="Orholene" />
		<tag k="natural" v="gorge" />
		<tag k="ssr:stedsnr" v="703353" />
	</node>
	<node id="-510556" lat="61.0180638878" lon="6.33442221381">
		<tag k="name" v="Stygghillerbakkane" />
		<tag k="natural" v="slope" />
		<tag k="place" v="locality" />
		<tag k="ssr:stedsnr" v="703343" />
	</node>
	<node id="-510555" lat="61.0317305532" lon="6.51714167569">
		<tag k="name" v="Grungavadet" />
		<tag k="place" v="locality" />
		<tag k="ssr:stedsnr" v="703318" />
	</node>
	<node id="-510554" lat="61.0742583309" lon="6.50460832476">
		<tag k="name" v="Prestteiggjelet" />
		<tag k="natural" v="valley" />
		<tag k="place" v="locality" />
		<tag k="ssr:stedsnr" v="703300" />
	</node>
	<node id="-510553" lat="61.1220194474" lon="6.75249167004">
		<tag k="name" v="Smedjehjellen" />
		<tag k="place" v="locality" />
		<tag k="ssr:stedsnr" v="703198" />
	</node>
	<node id="-510552" lat="61.0751527765" lon="6.7348972198">
		<tag k="name" v="Knuldrehaugsgjelet" />
		<tag k="natural" v="valley" />
		<tag k="place" v="locality" />
		<tag k="ssr:stedsnr" v="703157" />
	</node>
	<node id="-510551" lat="61.0691583316" lon="6.58697777001">
		<tag k="name" v="Hjellene" />
		<tag k="place" v="locality" />
		<tag k="ssr:stedsnr" v="703040" />
	</node>
	<node id="-510549" lat="61.0991972239" lon="6.21444166846">
		<tag k="name" v="Ospehaugen" />
		<tag k="natural" v="hill" />
		<tag k="place" v="locality" />
		<tag k="ssr:stedsnr" v="703545" />
	</node>
	<node id="-510548" lat="61.0914888898" lon="6.19838888964">
		<tag k="name" v="Tuftene" />
		<tag k="natural" v="slope" />
		<tag k="place" v="locality" />
		<tag k="ssr:stedsnr" v="703540" />
	</node>
	<node id="-510547" lat="61.1365638885" lon="6.7889722187">
		<tag k="name" v="Hjellen" />
		<tag k="natural" v="hill" />
		<tag k="place" v="locality" />
		<tag k="ssr:stedsnr" v="702636" />
	</node>
	<node id="-510546" lat="61.0401351348" lon="6.67480222059">
		<tag k="fixme" v="consider natural=peak for the most distinct mountains in the district" />
		<tag k="name" v="Oksefjell" />
		<tag k="natural" v="hill" />
		<tag k="place" v="locality" />
		<tag k="ssr:stedsnr" v="702556" />
	</node>
	<node id="-510545" lat="60.9934916681" lon="6.43360000283">
		<tag k="name" v="Slåtta" />
		<tag k="natural" v="slope" />
		<tag k="place" v="locality" />
		<tag k="ssr:stedsnr" v="702425" />
	</node>
	<node id="-510544" lat="61.0264444412" lon="6.55792499979">
		<tag k="name" v="Vesleøygarden" />
		<tag k="natural" v="slope" />
		<tag k="place" v="locality" />
		<tag k="ssr:stedsnr" v="701571" />
	</node>
	<node id="-510542" lat="61.0698527754" lon="6.44323333084">
		<tag k="name" v="Rinden" />
		<tag k="natural" v="hill" />
		<tag k="place" v="locality" />
		<tag k="ssr:stedsnr" v="701500" />
	</node>
	<node id="-510541" lat="61.0387083322" lon="6.61753611128">
		<tag k="name" v="Sluppen" />
		<tag k="natural" v="hill" />
		<tag k="place" v="locality" />
		<tag k="ssr:stedsnr" v="701426" />
	</node>
	<node id="-510540" lat="61.0536166684" lon="6.60625000212">
		<tag k="name" v="Klyv" />
		<tag k="natural" v="slope" />
		<tag k="place" v="locality" />
		<tag k="ssr:stedsnr" v="701419" />
	</node>
	<node id="-510539" lat="61.0441027774" lon="6.61132222503">
		<tag k="name" v="Gjelet" />
		<tag k="natural" v="valley" />
		<tag k="place" v="locality" />
		<tag k="ssr:stedsnr" v="701397" />
	</node>
	<node id="-510538" lat="61.0461833325" lon="6.59579166408">
		<tag k="name" v="Ovrisuri" />
		<tag k="natural" v="hill" />
		<tag k="place" v="locality" />
		<tag k="ssr:stedsnr" v="701390" />
	</node>
	<node id="-510531" lat="61.1392222222" lon="6.77802499231">
		<tag k="fixme" v="consider natural=peak for the most distinct mountains in the district" />
		<tag k="name" v="Gråberg" />
		<tag k="natural" v="hill" />
		<tag k="place" v="locality" />
		<tag k="ssr:stedsnr" v="677869" />
	</node>
	<node id="-510527" lat="61.0864388923" lon="6.62138333836">
		<tag k="name" v="Furehaug" />
		<tag k="natural" v="hill" />
		<tag k="place" v="locality" />
		<tag k="ssr:stedsnr" v="677795" />
	</node>
	<node id="-510525" lat="61.1214111154" lon="6.64879722829">
		<tag k="fixme" v="consider natural=peak for the most distinct mountains in the district" />
		<tag k="name" v="Kongshaug" />
		<tag k="natural" v="hill" />
		<tag k="place" v="locality" />
		<tag k="ssr:stedsnr" v="677788" />
	</node>
	<node id="-510515" lat="61.0647083317" lon="6.21095832482">
		<tag k="fixme" v="consider natural=peak for the most distinct mountains in the district" />
		<tag k="name" v="Kleivfjellet" />
		<tag k="natural" v="hill" />
		<tag k="place" v="locality" />
		<tag k="ssr:stedsnr" v="677308" />
	</node>
	<node id="-510513" lat="61.0642749984" lon="6.18483888614">
		<tag k="name" v="Grønebakkane" />
		<tag k="natural" v="slope" />
		<tag k="place" v="locality" />
		<tag k="ssr:stedsnr" v="677238" />
	</node>
	<node id="-510512" lat="61.0569055525" lon="6.94151389185">
		<tag k="name" v="Middagshaugen" />
		<tag k="natural" v="hill" />
		<tag k="place" v="locality" />
		<tag k="ssr:stedsnr" v="677201" />
	</node>
	<node id="-510508" lat="61.0494305591" lon="6.86391667199">
		<tag k="fixme" v="consider natural=peak for the most distinct mountains in the district" />
		<tag k="name" v="Engjanipa" />
		<tag k="natural" v="hill" />
		<tag k="place" v="locality" />
		<tag k="ssr:stedsnr" v="677191" />
	</node>
	<node id="-510505" lat="61.0391833357" lon="6.64578055171">
		<tag k="alt_name" v="Seljedalen" />
		<tag k="name" v="Seljadalen" />
		<tag k="natural" v="valley" />
		<tag k="place" v="locality" />
		<tag k="ssr:stedsnr" v="677157" />
	</node>
	<node id="-510503" lat="61.0387055589" lon="6.62875832726">
		<tag k="alt_name" v="Nestegalden" />
		<tag k="fixme" v="consider natural=peak for the most distinct mountains in the district" />
		<tag k="name" v="Nedstegalden" />
		<tag k="natural" v="hill" />
		<tag k="place" v="locality" />
		<tag k="ssr:stedsnr" v="677154" />
	</node>
	<node id="-510501" lat="61.0155555575" lon="6.65628332895">
		<tag k="name" v="Skinbotnen" />
		<tag k="natural" v="valley" />
		<tag k="place" v="locality" />
		<tag k="ssr:stedsnr" v="677132" />
	</node>
	<node id="-510498" lat="61.0222777766" lon="6.27786943775">
		<tag k="fixme" v="consider natural=peak for the most distinct mountains in the district" />
		<tag k="name" v="Einebærfjellet" />
		<tag k="natural" v="hill" />
		<tag k="place" v="locality" />
		<tag k="ssr:stedsnr" v="677605" />
	</node>
	<node id="-510497" lat="60.9689555515" lon="6.75647222622">
		<tag k="name" v="Smørbotn" />
		<tag k="natural" v="valley" />
		<tag k="place" v="locality" />
		<tag k="ssr:stedsnr" v="676901" />
	</node>
	<node id="-510496" lat="60.9613611088" lon="6.71189166965">
		<tag k="name" v="Fresvikjordalen" />
		<tag k="natural" v="valley" />
		<tag k="place" v="locality" />
		<tag k="ssr:stedsnr" v="676898" />
	</node>
	<node id="-510494" lat="60.995088892" lon="6.50690833868">
		<tag k="name" v="Pyttebakkane" />
		<tag k="natural" v="slope" />
		<tag k="place" v="locality" />
		<tag k="ssr:stedsnr" v="676672" />
	</node>
	<node id="-510493" lat="60.994544447" lon="6.5451083269">
		<tag k="name" v="Vassdalane" />
		<tag k="natural" v="valley" />
		<tag k="place" v="locality" />
		<tag k="ssr:stedsnr" v="676667" />
	</node>
	<node id="-510492" lat="61.0917055591" lon="6.24392500689">
		<tag k="name" v="Vindhalsen" />
		<tag k="natural" v="valley" />
		<tag k="place" v="locality" />
		<tag k="ssr:stedsnr" v="676663" />
	</node>
	<node id="-510490" lat="60.9874472251" lon="6.46587777152">
		<tag k="alt_name" v="Heiteli" />
		<tag k="name" v="Heitelii" />
		<tag k="natural" v="slope" />
		<tag k="place" v="locality" />
		<tag k="ssr:stedsnr" v="676661" />
	</node>
	<node id="-510489" lat="61.0827944481" lon="6.26526944025">
		<tag k="name" v="Sylvarnesdalen" />
		<tag k="natural" v="valley" />
		<tag k="place" v="locality" />
		<tag k="ssr:stedsnr" v="676659" />
	</node>
	<node id="-510488" lat="60.9607166671" lon="6.28370555324">
		<tag k="fixme" v="consider natural=peak for the most distinct mountains in the district" />
		<tag k="name" v="Killingdalseggi" />
		<tag k="natural" v="hill" />
		<tag k="place" v="locality" />
		<tag k="ssr:stedsnr" v="676640" />
	</node>
	<node id="-510487" lat="60.9721666628" lon="6.5848305501">
		<tag k="name" v="Idlebakken" />
		<tag k="natural" v="slope" />
		<tag k="place" v="locality" />
		<tag k="ssr:stedsnr" v="676639" />
	</node>
	<node id="-510486" lat="60.9778694439" lon="6.29770000592">
		<tag k="fixme" v="consider natural=peak for the most distinct mountains in the district" />
		<tag k="name" v="Jørendalseggi" />
		<tag k="natural" v="hill" />
		<tag k="place" v="locality" />
		<tag k="ssr:stedsnr" v="676634" />
	</node>
	<node id="-510482" lat="61.0527277805" lon="6.22909443632">
		<tag k="name" v="Bakeggi" />
		<tag k="natural" v="hill" />
		<tag k="place" v="locality" />
		<tag k="ssr:stedsnr" v="676576" />
	</node>
	<node id="-510479" lat="60.8879666641" lon="6.28753888214">
		<tag k="name" v="Kvanndalsleitet" />
		<tag k="natural" v="hill" />
		<tag k="place" v="locality" />
		<tag k="ssr:stedsnr" v="676568" />
	</node>
	<node id="-510478" lat="61.022444446" lon="6.52475278421">
		<tag k="name" v="Hovden" />
		<tag k="natural" v="hill" />
		<tag k="place" v="locality" />
		<tag k="ssr:stedsnr" v="676537" />
	</node>
	<node id="-510473" lat="61.0441805524" lon="6.99351111123">
		<tag k="alt_name" v="Bordhaug" />
		<tag k="name" v="Bordhaugane" />
		<tag k="natural" v="hill" />
		<tag k="place" v="locality" />
		<tag k="ssr:stedsnr" v="676421" />
	</node>
	<node id="-510470" lat="61.079850002" lon="6.62150833459">
		<tag k="alt_name" v="Tenolsli" />
		<tag k="name" v="Tenålslii" />
		<tag k="natural" v="slope" />
		<tag k="place" v="locality" />
		<tag k="ssr:stedsnr" v="676225" />
	</node>
	<node id="-510466" lat="60.9953416705" lon="6.67787777272">
		<tag k="name" v="Steinbotn" />
		<tag k="natural" v="valley" />
		<tag k="place" v="locality" />
		<tag k="ssr:stedsnr" v="675946" />
	</node>
	<node id="-510465" lat="60.9138694447" lon="6.34716110708">
		<tag k="name" v="Katladalen" />
		<tag k="natural" v="valley" />
		<tag k="place" v="locality" />
		<tag k="ssr:stedsnr" v="675634" />
	</node>
	<node id="-510464" lat="60.9076416645" lon="6.29514444108">
		<tag k="name" v="Valsvikdalen" />
		<tag k="natural" v="valley" />
		<tag k="place" v="locality" />
		<tag k="ssr:stedsnr" v="675628" />
	</node>
	<node id="-510457" lat="61.1047138904" lon="6.82808610587">
		<tag k="fixme" v="consider natural=peak for the most distinct mountains in the district" />
		<tag k="name" v="Kjerringafjellet" />
		<tag k="natural" v="hill" />
		<tag k="place" v="locality" />
		<tag k="ssr:stedsnr" v="647473" />
	</node>
	<node id="-510456" lat="61.0481250024" lon="6.31234443803">
		<tag k="name" v="Leirhola" />
		<tag k="natural" v="gorge" />
		<tag k="ssr:stedsnr" v="643697" />
	</node>
	<node id="-510455" lat="61.0604305534" lon="6.36714444204">
		<tag k="name" v="Inste Sopegjelet" />
		<tag k="natural" v="valley" />
		<tag k="place" v="locality" />
		<tag k="ssr:stedsnr" v="643587" />
	</node>
	<node id="-510452" lat="61.0354416682" lon="6.64891666621">
		<tag k="name" v="Rindane" />
		<tag k="natural" v="hill" />
		<tag k="place" v="locality" />
		<tag k="ssr:stedsnr" v="643199" />
	</node>
	<node id="-510451" lat="61.0317333311" lon="6.65594999722">
		<tag k="name" v="Storeskor" />
		<tag k="natural" v="hill" />
		<tag k="place" v="locality" />
		<tag k="ssr:stedsnr" v="643197" />
	</node>
	<node id="-510450" lat="61.0312638866" lon="6.67988056251">
		<tag k="name" v="Fjæra" />
		<tag k="natural" v="slope" />
		<tag k="place" v="locality" />
		<tag k="ssr:stedsnr" v="643195" />
	</node>
	<node id="-510448" lat="61.1014749966" lon="6.60685833101">
		<tag k="name" v="Trolldalsstrupen" />
		<tag k="natural" v="hill" />
		<tag k="place" v="locality" />
		<tag k="ssr:stedsnr" v="643061" />
	</node>
	<node id="-510447" lat="61.0387805554" lon="6.88859999102">
		<tag k="name" v="Villomdalen" />
		<tag k="natural" v="valley" />
		<tag k="place" v="locality" />
		<tag k="ssr:stedsnr" v="642903" />
	</node>
	<node id="-510445" lat="61.0463861147" lon="6.95665833945">
		<tag k="name" v="Leitet" />
		<tag k="natural" v="hill" />
		<tag k="place" v="locality" />
		<tag k="ssr:stedsnr" v="642811" />
	</node>
	<node id="-510444" lat="61.0632555513" lon="7.00543611011">
		<tag k="name" v="Frudalen" />
		<tag k="natural" v="valley" />
		<tag k="place" v="locality" />
		<tag k="ssr:stedsnr" v="642804" />
	</node>
	<node id="-510442" lat="61.0898888847" lon="6.29453888045">
		<tag k="alt_name" v="Troflåten" />
		<tag k="name" v="Trofloten" />
		<tag k="natural" v="hill" />
		<tag k="place" v="locality" />
		<tag k="ssr:stedsnr" v="642634" />
	</node>
	<node id="-510439" lat="61.0507861116" lon="6.52141665924">
		<tag k="name" v="Løyningsflaten" />
		<tag k="place" v="locality" />
		<tag k="ssr:stedsnr" v="642334" />
	</node>
	<node id="-510438" lat="61.0391527779" lon="6.51482500553">
		<tag k="name" v="Nyastølli" />
		<tag k="natural" v="slope" />
		<tag k="place" v="locality" />
		<tag k="ssr:stedsnr" v="642331" />
	</node>
	<node id="-510437" lat="61.1547888929" lon="6.63798888658">
		<tag k="name" v="Stegane" />
		<tag k="natural" v="slope" />
		<tag k="place" v="locality" />
		<tag k="ssr:stedsnr" v="642315" />
	</node>
	<node id="-510435" lat="61.0652861129" lon="6.50403610177">
		<tag k="name" v="Grønli" />
		<tag k="natural" v="slope" />
		<tag k="place" v="locality" />
		<tag k="ssr:stedsnr" v="642232" />
	</node>
	<node id="-510434" lat="61.1154361073" lon="6.66423611197">
		<tag k="fixme" v="consider natural=peak for the most distinct mountains in the district" />
		<tag k="name" v="Dagshovden" />
		<tag k="natural" v="hill" />
		<tag k="place" v="locality" />
		<tag k="ssr:stedsnr" v="642168" />
	</node>
	<node id="-510433" lat="61.0417555581" lon="6.57204722592">
		<tag k="name" v="Tjønnhamrane" />
		<tag k="natural" v="hill" />
		<tag k="place" v="locality" />
		<tag k="ssr:stedsnr" v="642097" />
	</node>
	<node id="-510432" lat="61.092463889" lon="6.61170833826">
		<tag k="name" v="Lyhaug" />
		<tag k="natural" v="hill" />
		<tag k="place" v="locality" />
		<tag k="ssr:stedsnr" v="642040" />
	</node>
	<node id="-510429" lat="61.0197249976" lon="6.53988054732">
		<tag k="name" v="Klypestigen" />
		<tag k="natural" v="gorge" />
		<tag k="ssr:stedsnr" v="640951" />
	</node>
	<node id="-510428" lat="61.1437194485" lon="6.7966388895">
		<tag k="name" v="Sletten" />
		<tag k="place" v="locality" />
		<tag k="ssr:stedsnr" v="640643" />
	</node>
	<node id="-510427" lat="61.1385611094" lon="6.77596666273">
		<tag k="name" v="Samsonjytta" />
		<tag k="natural" v="gorge" />
		<tag k="ssr:stedsnr" v="640594" />
	</node>
	<node id="-510426" lat="61.0292083376" lon="6.55523056091">
		<tag k="name" v="Lægene" />
		<tag k="place" v="locality" />
		<tag k="ssr:stedsnr" v="640542" />
	</node>
	<node id="-510424" lat="60.9869166661" lon="6.44854167051">
		<tag k="name" v="Smågli" />
		<tag k="natural" v="slope" />
		<tag k="place" v="locality" />
		<tag k="ssr:stedsnr" v="640504" />
	</node>
	<node id="-510422" lat="61.0406194409" lon="6.63494722873">
		<tag k="name" v="Turvollhamrane" />
		<tag k="natural" v="hill" />
		<tag k="place" v="locality" />
		<tag k="ssr:stedsnr" v="640432" />
	</node>
	<node id="-510421" lat="61.0675249967" lon="6.40944167113">
		<tag k="fixme" v="consider natural=peak for the most distinct mountains in the district" />
		<tag k="name" v="Kjosen" />
		<tag k="natural" v="hill" />
		<tag k="place" v="locality" />
		<tag k="ssr:stedsnr" v="640428" />
	</node>
	<node id="-510420" lat="61.0449972252" lon="6.63343610738">
		<tag k="name" v="Skuten" />
		<tag k="natural" v="hill" />
		<tag k="place" v="locality" />
		<tag k="ssr:stedsnr" v="640416" />
	</node>
	<node id="-510419" lat="61.0424638873" lon="6.59458054963">
		<tag k="name" v="Flætene" />
		<tag k="place" v="locality" />
		<tag k="ssr:stedsnr" v="640339" />
	</node>
	<node id="-510418" lat="61.0123722186" lon="6.41446667453">
		<tag k="name" v="Liagarden" />
		<tag k="place" v="locality" />
		<tag k="ssr:stedsnr" v="640189" />
	</node>
	<node id="-510417" lat="61.0002722231" lon="6.40824723127">
		<tag k="name" v="Nongjelet" />
		<tag k="natural" v="valley" />
		<tag k="place" v="locality" />
		<tag k="ssr:stedsnr" v="640180" />
	</node>
	<node id="-510415" lat="61.0262555592" lon="6.36741944215">
		<tag k="name" v="Rauneberg" />
		<tag k="natural" v="hill" />
		<tag k="place" v="locality" />
		<tag k="ssr:stedsnr" v="640124" />
	</node>
	<node id="-510414" lat="61.03301667" lon="6.38474721987">
		<tag k="name" v="Midtstegen" />
		<tag k="natural" v="hill" />
		<tag k="place" v="locality" />
		<tag k="ssr:stedsnr" v="640115" />
	</node>
	<node id="-510413" lat="61.0321388925" lon="6.3876416669">
		<tag k="name" v="Båthilleren" />
		<tag k="natural" v="hill" />
		<tag k="place" v="locality" />
		<tag k="ssr:stedsnr" v="640112" />
	</node>
	<node id="-510406" lat="61.1384666649" lon="6.62466110426">
		<tag k="fixme" v="consider natural=peak for the most distinct mountains in the district" />
		<tag k="name" v="Kyrkjenibba" />
		<tag k="natural" v="hill" />
		<tag k="place" v="locality" />
		<tag k="ssr:stedsnr" v="616845" />
	</node>
	<node id="-510405" lat="61.1426361127" lon="6.67386388616">
		<tag k="fixme" v="consider natural=peak for the most distinct mountains in the district" />
		<tag k="name" v="Kvitenjuk" />
		<tag k="natural" v="hill" />
		<tag k="place" v="locality" />
		<tag k="ssr:stedsnr" v="616835" />
	</node>
	<node id="-510404" lat="61.1030722186" lon="6.71605833679">
		<tag k="name" v="Nyasetdalen" />
		<tag k="natural" v="valley" />
		<tag k="place" v="locality" />
		<tag k="ssr:stedsnr" v="616830" />
	</node>
	<node id="-510403" lat="61.1009277757" lon="6.7118138808">
		<tag k="alt_name" v="Nedstebotn" />
		<tag k="name" v="Nedstebotnen" />
		<tag k="natural" v="valley" />
		<tag k="place" v="locality" />
		<tag k="ssr:stedsnr" v="616828" />
	</node>
	<node id="-510400" lat="61.1050361117" lon="6.87100277115">
		<tag k="name" v="Gullskreda" />
		<tag k="natural" v="cliff" />
		<tag k="ssr:stedsnr" v="616800" />
	</node>
	<node id="-510396" lat="61.0653777768" lon="6.97919721995">
		<tag k="name" v="Høgehaug" />
		<tag k="natural" v="hill" />
		<tag k="place" v="locality" />
		<tag k="ssr:stedsnr" v="616422" />
	</node>
	<node id="-510393" lat="60.9639861118" lon="6.77369167405">
		<tag k="fixme" v="consider natural=peak for the most distinct mountains in the district" />
		<tag k="name" v="Smørbotnnuten" />
		<tag k="natural" v="hill" />
		<tag k="place" v="locality" />
		<tag k="ssr:stedsnr" v="615905" />
	</node>
	<node id="-510392" lat="60.9560666627" lon="6.61267221646">
		<tag k="name" v="Skaret" />
		<tag k="natural" v="valley" />
		<tag k="place" v="locality" />
		<tag k="ssr:stedsnr" v="615893" />
	</node>
	<node id="-510391" lat="61.0860194441" lon="6.7575527778">
		<tag k="name" v="Haugasetdalen" />
		<tag k="natural" v="valley" />
		<tag k="place" v="locality" />
		<tag k="ssr:stedsnr" v="615773" />
	</node>
	<node id="-510390" lat="61.0895055554" lon="6.67253611004">
		<tag k="name" v="Krossfonni" />
		<tag k="natural" v="slope" />
		<tag k="place" v="locality" />
		<tag k="ssr:stedsnr" v="615760" />
	</node>
	<node id="-510387" lat="60.9798527757" lon="6.33546667488">
		<tag k="alt_name" v="Hedledalen" />
		<tag k="name" v="Helledalen" />
		<tag k="natural" v="valley" />
		<tag k="place" v="locality" />
		<tag k="ssr:stedsnr" v="615648" />
	</node>
	<node id="-510380" lat="61.0663138894" lon="6.46326944177">
		<tag k="name" v="Tjonahaug" />
		<tag k="natural" v="hill" />
		<tag k="place" v="locality" />
		<tag k="ssr:stedsnr" v="615565" />
	</node>
	<node id="-510378" lat="61.0084499995" lon="6.51925554951">
		<tag k="fixme" v="consider natural=peak for the most distinct mountains in the district" />
		<tag k="name" v="Sopandefjellet" />
		<tag k="natural" v="hill" />
		<tag k="place" v="locality" />
		<tag k="ssr:stedsnr" v="615518" />
	</node>
	<node id="-510376" lat="61.0175749959" lon="6.20019722168">
		<tag k="name" v="Rundehaug" />
		<tag k="natural" v="hill" />
		<tag k="place" v="locality" />
		<tag k="ssr:stedsnr" v="615298" />
	</node>
	<node id="-510375" lat="61.0729249999" lon="6.87017499913">
		<tag k="name" v="Steindalen" />
		<tag k="natural" v="valley" />
		<tag k="place" v="locality" />
		<tag k="ssr:stedsnr" v="615225" />
	</node>
	<node id="-510374" lat="61.0804027743" lon="6.95007221789">
		<tag k="alt_name" v="Hamnaskreda" />
		<tag k="name" v="Hamnaskredene" />
		<tag k="natural" v="cliff" />
		<tag k="ssr:stedsnr" v="615223" />
	</node>
	<node id="-510369" lat="61.0762777736" lon="6.72377500658">
		<tag k="name" v="Hestbakkane" />
		<tag k="natural" v="slope" />
		<tag k="place" v="locality" />
		<tag k="ssr:stedsnr" v="615201" />
	</node>
	<node id="-510368" lat="61.0792250021" lon="6.71644165775">
		<tag k="name" v="Steinbotnen" />
		<tag k="natural" v="valley" />
		<tag k="place" v="locality" />
		<tag k="ssr:stedsnr" v="615200" />
	</node>
	<node id="-510367" lat="61.0304277769" lon="6.62993333206">
		<tag k="alt_name" v="Storehaug" />
		<tag k="name" v="Storehaugen" />
		<tag k="natural" v="hill" />
		<tag k="place" v="locality" />
		<tag k="ssr:stedsnr" v="615157" />
	</node>
	<node id="-510366" lat="61.0225500037" lon="6.60355000162">
		<tag k="fixme" v="consider natural=peak for the most distinct mountains in the district" />
		<tag k="name" v="Haukabergfjellet" />
		<tag k="natural" v="hill" />
		<tag k="place" v="locality" />
		<tag k="ssr:stedsnr" v="615126" />
	</node>
	<node id="-510365" lat="61.0216472245" lon="6.88751388685">
		<tag k="name" v="Djupeskreda" />
		<tag k="natural" v="gorge" />
		<tag k="ssr:stedsnr" v="615118" />
	</node>
	<node id="-510359" lat="60.9747638878" lon="6.6458138847">
		<tag k="alt_name" v="Kamben, vle" />
		<tag k="name" v="Vetle Kamben" />
		<tag k="natural" v="hill" />
		<tag k="place" v="locality" />
		<tag k="ssr:stedsnr" v="614914" />
	</node>
	<node id="-510358" lat="60.924336108" lon="6.53094999731">
		<tag k="fixme" v="consider natural=peak for the most distinct mountains in the district" />
		<tag k="name" v="Grungafjellet" />
		<tag k="natural" v="hill" />
		<tag k="place" v="locality" />
		<tag k="ssr:stedsnr" v="614615" />
	</node>
	<node id="-510348" lat="61.0537000024" lon="6.90802500777">
		<tag k="name" v="Langeirikvollen" />
		<tag k="natural" v="hill" />
		<tag k="place" v="locality" />
		<tag k="ssr:stedsnr" v="582915" />
	</node>
	<node id="-510347" lat="61.0473388901" lon="6.99962777707">
		<tag k="name" v="Tjualøypholten" />
		<tag k="natural" v="hill" />
		<tag k="place" v="locality" />
		<tag k="ssr:stedsnr" v="582823" />
	</node>
	<node id="-510346" lat="61.0968416635" lon="6.26997221973">
		<tag k="name" v="Hjorta" />
		<tag k="natural" v="hill" />
		<tag k="place" v="locality" />
		<tag k="ssr:stedsnr" v="582780" />
	</node>
	<node id="-510340" lat="61.0517333347" lon="6.33040277807">
		<tag k="name" v="Torskanesgluvra" />
		<tag k="natural" v="gorge" />
		<tag k="ssr:stedsnr" v="582727" />
	</node>
	<node id="-510339" lat="61.0562249965" lon="6.30037500212">
		<tag k="fixme" v="consider natural=peak for the most distinct mountains in the district" />
		<tag k="name" v="Rundeholten" />
		<tag k="natural" v="hill" />
		<tag k="place" v="locality" />
		<tag k="ssr:stedsnr" v="582706" />
	</node>
	<node id="-510336" lat="61.083530557" lon="6.30742499945">
		<tag k="name" v="Svartasva" />
		<tag k="natural" v="hill" />
		<tag k="place" v="locality" />
		<tag k="ssr:stedsnr" v="582660" />
	</node>
	<node id="-510335" lat="61.0661555517" lon="6.35512500003">
		<tag k="name" v="Krokane" />
		<tag k="natural" v="valley" />
		<tag k="place" v="locality" />
		<tag k="ssr:stedsnr" v="582555" />
	</node>
	<node id="-510331" lat="61.0779222223" lon="6.50918056189">
		<tag k="fixme" v="consider natural=peak for the most distinct mountains in the district" />
		<tag k="name" v="Bjønnstigfjellet" />
		<tag k="natural" v="hill" />
		<tag k="place" v="locality" />
		<tag k="ssr:stedsnr" v="582381" />
	</node>
	<node id="-510330" lat="61.0464527781" lon="6.51393055851">
		<tag k="name" v="Rosheimsli" />
		<tag k="natural" v="slope" />
		<tag k="place" v="locality" />
		<tag k="ssr:stedsnr" v="582373" />
	</node>
	<node id="-510329" lat="61.1345666694" lon="6.61946389116">
		<tag k="name" v="Sodle" />
		<tag k="natural" v="slope" />
		<tag k="place" v="locality" />
		<tag k="ssr:stedsnr" v="582351" />
	</node>
	<node id="-510327" lat="61.1397138892" lon="6.6246972284">
		<tag k="name" v="Rustaflaten" />
		<tag k="place" v="locality" />
		<tag k="ssr:stedsnr" v="582341" />
	</node>
	<node id="-510326" lat="61.1381277819" lon="6.63701388451">
		<tag k="name" v="Lyferhaugen" />
		<tag k="natural" v="hill" />
		<tag k="place" v="locality" />
		<tag k="ssr:stedsnr" v="582331" />
	</node>
	<node id="-510325" lat="61.0351361118" lon="6.66165832754">
		<tag k="name" v="Seljalii" />
		<tag k="natural" v="slope" />
		<tag k="place" v="locality" />
		<tag k="ssr:stedsnr" v="582193" />
	</node>
	<node id="-510323" lat="61.0209249961" lon="6.65043889799">
		<tag k="name" v="Liasete" />
		<tag k="natural" v="slope" />
		<tag k="place" v="locality" />
		<tag k="ssr:stedsnr" v="582185" />
	</node>
	<node id="-510322" lat="61.1123833308" lon="6.71976388268">
		<tag k="name" v="Svortjernli" />
		<tag k="natural" v="slope" />
		<tag k="place" v="locality" />
		<tag k="ssr:stedsnr" v="582182" />
	</node>
	<node id="-510321" lat="61.1507472197" lon="6.70014444815">
		<tag k="name" v="Novi" />
		<tag k="natural" v="hill" />
		<tag k="place" v="locality" />
		<tag k="ssr:stedsnr" v="582179" />
	</node>
	<node id="-510320" lat="61.1465194405" lon="6.64933056302">
		<tag k="name" v="Haugansete" />
		<tag k="place" v="locality" />
		<tag k="ssr:stedsnr" v="582169" />
	</node>
	<node id="-510316" lat="61.1744194433" lon="6.64119445076">
		<tag k="name" v="Steigelhaugen" />
		<tag k="natural" v="hill" />
		<tag k="place" v="locality" />
		<tag k="ssr:stedsnr" v="582084" />
	</node>
	<node id="-510315" lat="61.0573472193" lon="6.56824721919">
		<tag k="name" v="Langhamrane" />
		<tag k="natural" v="hill" />
		<tag k="place" v="locality" />
		<tag k="ssr:stedsnr" v="582064" />
	</node>
	<node id="-510314" lat="61.0369805561" lon="6.3020583393">
		<tag k="name" v="Indrekulten" />
		<tag k="natural" v="hill" />
		<tag k="place" v="locality" />
		<tag k="ssr:stedsnr" v="581332" />
	</node>
	<node id="-510313" lat="61.0454305576" lon="6.5336833253">
		<tag k="name" v="Danseflaten" />
		<tag k="place" v="locality" />
		<tag k="ssr:stedsnr" v="581122" />
	</node>
	<node id="-510312" lat="61.0391777785" lon="6.52585277878">
		<tag k="alt_name" v="Smøreskredene" />
		<tag k="name" v="Smørekrene" />
		<tag k="natural" v="valley" />
		<tag k="place" v="locality" />
		<tag k="ssr:stedsnr" v="581116" />
	</node>
	<node id="-510311" lat="61.0651777784" lon="6.60391388344">
		<tag k="name" v="Hesjesletta" />
		<tag k="place" v="locality" />
		<tag k="ssr:stedsnr" v="581065" />
	</node>
	<node id="-510310" lat="61.0788527813" lon="6.61774999871">
		<tag k="name" v="Ystali" />
		<tag k="natural" v="slope" />
		<tag k="place" v="locality" />
		<tag k="ssr:stedsnr" v="581018" />
	</node>
	<node id="-510308" lat="61.0582000046" lon="6.52691389182">
		<tag k="name" v="Prestteighaugen" />
		<tag k="natural" v="hill" />
		<tag k="place" v="locality" />
		<tag k="ssr:stedsnr" v="581001" />
	</node>
	<node id="-510307" lat="61.0174888871" lon="6.54047500444">
		<tag k="name" v="Klype" />
		<tag k="natural" v="gorge" />
		<tag k="ssr:stedsnr" v="580946" />
	</node>
	<node id="-510306" lat="61.0399230389" lon="6.67325446369">
		<tag k="name" v="Raudberggjela" />
		<tag k="natural" v="valley" />
		<tag k="place" v="locality" />
		<tag k="ssr:stedsnr" v="580560" />
	</node>
	<node id="-510305" lat="61.0246027773" lon="6.57948055546">
		<tag k="name" v="Dalabakkane" />
		<tag k="natural" v="slope" />
		<tag k="place" v="locality" />
		<tag k="ssr:stedsnr" v="580456" />
	</node>
	<node id="-510304" lat="61.0326166697" lon="6.58179721931">
		<tag k="name" v="Jermarvollen" />
		<tag k="natural" v="hill" />
		<tag k="place" v="locality" />
		<tag k="ssr:stedsnr" v="580454" />
	</node>
	<node id="-510303" lat="61.0297333294" lon="6.57065000506">
		<tag k="name" v="Einen" />
		<tag k="natural" v="slope" />
		<tag k="place" v="locality" />
		<tag k="ssr:stedsnr" v="580442" />
	</node>
	<node id="-510302" lat="61.0273555526" lon="6.57098056239">
		<tag k="name" v="Guriteigen" />
		<tag k="natural" v="slope" />
		<tag k="place" v="locality" />
		<tag k="ssr:stedsnr" v="580443" />
	</node>
	<node id="-510292" lat="61.0989527753" lon="6.63681111705">
		<tag k="alt_name" v="Bollingberg" />
		<tag k="name" v="Bollingaberg" />
		<tag k="natural" v="hill" />
		<tag k="place" v="locality" />
		<tag k="ssr:stedsnr" v="555792" />
	</node>
	<node id="-510285" lat="61.1203972181" lon="6.84224999413">
		<tag k="alt_name" v="Heljedalen" />
		<tag k="name" v="Helgedalen" />
		<tag k="natural" v="valley" />
		<tag k="place" v="locality" />
		<tag k="ssr:stedsnr" v="555720" />
	</node>
	<node id="-510282" lat="60.9999694458" lon="6.31444999085">
		<tag k="fixme" v="consider natural=peak for the most distinct mountains in the district" />
		<tag k="name" v="Hestfjellet" />
		<tag k="natural" v="hill" />
		<tag k="place" v="locality" />
		<tag k="ssr:stedsnr" v="555573" />
	</node>
	<node id="-510279" lat="61.0201194448" lon="6.25465556362">
		<tag k="alt_name" v="Tolleknivsbotn" />
		<tag k="name" v="Tolleknivbotnen" />
		<tag k="natural" v="valley" />
		<tag k="place" v="locality" />
		<tag k="ssr:stedsnr" v="555552" />
	</node>
	<node id="-510277" lat="61.0413750028" lon="6.28962500063">
		<tag k="name" v="Storehovden" />
		<tag k="natural" v="hill" />
		<tag k="place" v="locality" />
		<tag k="ssr:stedsnr" v="555543" />
	</node>
	<node id="-510276" lat="61.0623305595" lon="6.44450000078">
		<tag k="name" v="Karihaugen" />
		<tag k="natural" v="hill" />
		<tag k="place" v="locality" />
		<tag k="ssr:stedsnr" v="555531" />
	</node>
	<node id="-510270" lat="61.0593166638" lon="6.19436110617">
		<tag k="fixme" v="consider natural=peak for the most distinct mountains in the district" />
		<tag k="name" v="Storekleivfjellet" />
		<tag k="natural" v="hill" />
		<tag k="place" v="locality" />
		<tag k="ssr:stedsnr" v="555276" />
	</node>
	<node id="-510269" lat="61.0796666625" lon="6.81424443702">
		<tag k="fixme" v="consider natural=peak for the most distinct mountains in the district" />
		<tag k="name" v="Moldbakkefjellet" />
		<tag k="natural" v="hill" />
		<tag k="place" v="locality" />
		<tag k="ssr:stedsnr" v="555208" />
	</node>
	<node id="-510268" lat="61.0673944439" lon="6.63033888664">
		<tag k="name" v="Tuftahaugen" />
		<tag k="natural" v="hill" />
		<tag k="place" v="locality" />
		<tag k="ssr:stedsnr" v="555195" />
	</node>
	<node id="-510266" lat="61.0663027765" lon="6.70751110946">
		<tag k="name" v="Sjurddalen" />
		<tag k="natural" v="valley" />
		<tag k="place" v="locality" />
		<tag k="ssr:stedsnr" v="555158" />
	</node>
	<node id="-510262" lat="61.0378000032" lon="6.6795500002">
		<tag k="alt_name" v="Svartegjela" />
		<tag k="name" v="Svartagilet" />
		<tag k="natural" v="gorge" />
		<tag k="ssr:stedsnr" v="555134" />
	</node>
	<node id="-510259" lat="61.0127472214" lon="6.8204583415">
		<tag k="name" v="Bakkane" />
		<tag k="natural" v="slope" />
		<tag k="place" v="locality" />
		<tag k="ssr:stedsnr" v="555109" />
	</node>
	<node id="-510258" lat="61.0101250019" lon="6.8037999996">
		<tag k="fixme" v="consider natural=peak for the most distinct mountains in the district" />
		<tag k="name" v="Rjupeskard" />
		<tag k="natural" v="hill" />
		<tag k="place" v="locality" />
		<tag k="ssr:stedsnr" v="555108" />
	</node>
	<node id="-510246" lat="61.0390750007" lon="6.18177777241">
		<tag k="name" v="Hanekambdalen" />
		<tag k="natural" v="valley" />
		<tag k="place" v="locality" />
		<tag k="ssr:stedsnr" v="554359" />
	</node>
	<node id="-510245" lat="61.0899833314" lon="6.85609999924">
		<tag k="name" v="Nonhaugen" />
		<tag k="natural" v="hill" />
		<tag k="place" v="locality" />
		<tag k="ssr:stedsnr" v="554256" />
	</node>
	<node id="-510244" lat="61.0811194415" lon="6.85899999212">
		<tag k="alt_name" v="Tuftedalen" />
		<tag k="name" v="Tuftadalen" />
		<tag k="natural" v="valley" />
		<tag k="place" v="locality" />
		<tag k="ssr:stedsnr" v="554251" />
	</node>
	<node id="-510243" lat="61.041858329" lon="6.86663056383">
		<tag k="name" v="Oksli" />
		<tag k="natural" v="slope" />
		<tag k="place" v="locality" />
		<tag k="ssr:stedsnr" v="554194" />
	</node>
	<node id="-510242" lat="61.0313111134" lon="6.8563222244">
		<tag k="fixme" v="consider natural=peak for the most distinct mountains in the district" />
		<tag k="name" v="Skomakarnipen" />
		<tag k="natural" v="hill" />
		<tag k="place" v="locality" />
		<tag k="ssr:stedsnr" v="554136" />
	</node>
	<node id="-510239" lat="61.0575861155" lon="6.81296666809">
		<tag k="name" v="Helgedalen" />
		<tag k="natural" v="valley" />
		<tag k="place" v="locality" />
		<tag k="ssr:stedsnr" v="553433" />
	</node>
	<node id="-510234" lat="61.0788972203" lon="6.32193055953">
		<tag k="name" v="Kladden" />
		<tag k="natural" v="hill" />
		<tag k="place" v="locality" />
		<tag k="ssr:stedsnr" v="522909" />
	</node>
	<node id="-510233" lat="61.0713388928" lon="6.31347778313">
		<tag k="name" v="Mortelægjstrupen" />
		<tag k="natural" v="valley" />
		<tag k="place" v="locality" />
		<tag k="ssr:stedsnr" v="522904" />
	</node>
	<node id="-510231" lat="61.0499249972" lon="6.32450277356">
		<tag k="fixme" v="consider natural=peak for the most distinct mountains in the district" />
		<tag k="name" v="Straumvikholten" />
		<tag k="natural" v="hill" />
		<tag k="place" v="locality" />
		<tag k="ssr:stedsnr" v="522700" />
	</node>
	<node id="-510229" lat="61.0695055598" lon="6.35024722627">
		<tag k="name" v="Øykjestøhaugen" />
		<tag k="natural" v="hill" />
		<tag k="place" v="locality" />
		<tag k="ssr:stedsnr" v="522563" />
	</node>
	<node id="-510227" lat="61.0670305518" lon="6.55662221445">
		<tag k="name" v="Augerhaug" />
		<tag k="natural" v="hill" />
		<tag k="place" v="locality" />
		<tag k="ssr:stedsnr" v="522482" />
	</node>
	<node id="-510226" lat="61.0690111088" lon="6.57408333918">
		<tag k="name" v="Steigen" />
		<tag k="natural" v="slope" />
		<tag k="place" v="locality" />
		<tag k="ssr:stedsnr" v="522465" />
	</node>
	<node id="-510221" lat="61.097855556" lon="6.60586944561">
		<tag k="name" v="Ospekinni" />
		<tag k="natural" v="slope" />
		<tag k="place" v="locality" />
		<tag k="ssr:stedsnr" v="522061" />
	</node>
	<node id="-510220" lat="61.0775333335" lon="6.91564999259">
		<tag k="name" v="Lindebakkane" />
		<tag k="natural" v="slope" />
		<tag k="place" v="locality" />
		<tag k="ssr:stedsnr" v="521937" />
	</node>
	<node id="-510219" lat="61.0566555549" lon="6.89186665816">
		<tag k="fixme" v="consider natural=peak for the most distinct mountains in the district" />
		<tag k="name" v="Rauneholten" />
		<tag k="natural" v="hill" />
		<tag k="place" v="locality" />
		<tag k="ssr:stedsnr" v="521917" />
	</node>
	<node id="-510216" lat="61.0547638897" lon="6.43553332911">
		<tag k="name" v="Ragnhildagjelet" />
		<tag k="natural" v="valley" />
		<tag k="place" v="locality" />
		<tag k="ssr:stedsnr" v="521668" />
	</node>
	<node id="-510215" lat="61.087497219" lon="6.29683610723">
		<tag k="name" v="Løynebotn" />
		<tag k="natural" v="valley" />
		<tag k="place" v="locality" />
		<tag k="ssr:stedsnr" v="521638" />
	</node>
	<node id="-510213" lat="61.0290222248" lon="6.26346388282">
		<tag k="fixme" v="consider natural=peak for the most distinct mountains in the district" />
		<tag k="name" v="Gråsåtå" />
		<tag k="natural" v="hill" />
		<tag k="place" v="locality" />
		<tag k="ssr:stedsnr" v="521627" />
	</node>
	<node id="-510212" lat="61.1079527738" lon="6.18344166752">
		<tag k="name" v="Blombakkane" />
		<tag k="natural" v="slope" />
		<tag k="place" v="locality" />
		<tag k="ssr:stedsnr" v="521481" />
	</node>
	<node id="-510203" lat="61.1440333336" lon="6.65919722378">
		<tag k="name" v="Kleivadalen" />
		<tag k="natural" v="valley" />
		<tag k="place" v="locality" />
		<tag k="ssr:stedsnr" v="521170" />
	</node>
	<node id="-510202" lat="61.1199722228" lon="6.68493333482">
		<tag k="name" v="Sjonarhaug" />
		<tag k="natural" v="hill" />
		<tag k="place" v="locality" />
		<tag k="ssr:stedsnr" v="521168" />
	</node>
	<node id="-510198" lat="61.0669277749" lon="6.61716665916">
		<tag k="name" v="Illeskorane" />
		<tag k="natural" v="valley" />
		<tag k="place" v="locality" />
		<tag k="ssr:stedsnr" v="521043" />
	</node>
	<node id="-510196" lat="61.1423944476" lon="6.83873333122">
		<tag k="name" v="Flatgjelet" />
		<tag k="natural" v="valley" />
		<tag k="place" v="locality" />
		<tag k="ssr:stedsnr" v="519700" />
	</node>
	<node id="-510195" lat="61.1386888866" lon="6.76748611584">
		<tag k="name" v="Klettajytta" />
		<tag k="natural" v="gorge" />
		<tag k="ssr:stedsnr" v="519604" />
	</node>
	<node id="-510194" lat="61.0356194483" lon="6.52916944958">
		<tag k="name" v="Leitet" />
		<tag k="natural" v="slope" />
		<tag k="place" v="locality" />
		<tag k="ssr:stedsnr" v="519568" />
	</node>
	<node id="-510192" lat="60.9923083342" lon="6.4398666662">
		<tag k="name" v="Øvsteberget" />
		<tag k="natural" v="hill" />
		<tag k="place" v="locality" />
		<tag k="ssr:stedsnr" v="519488" />
	</node>
	<node id="-510191" lat="60.9874111156" lon="6.43893889076">
		<tag k="name" v="Ståene" />
		<tag k="natural" v="slope" />
		<tag k="place" v="locality" />
		<tag k="ssr:stedsnr" v="519476" />
	</node>
	<node id="-510190" lat="61.064505557" lon="6.4074638904">
		<tag k="name" v="Skrikagjelet" />
		<tag k="natural" v="valley" />
		<tag k="place" v="locality" />
		<tag k="ssr:stedsnr" v="519433" />
	</node>
	<node id="-510186" lat="61.0267611077" lon="6.40319721809">
		<tag k="name" v="Naustvollen" />
		<tag k="natural" v="hill" />
		<tag k="place" v="locality" />
		<tag k="ssr:stedsnr" v="519150" />
	</node>
	<node id="-510184" lat="61.0316749973" lon="6.38264166561">
		<tag k="name" v="Svartestegen" />
		<tag k="natural" v="hill" />
		<tag k="place" v="locality" />
		<tag k="ssr:stedsnr" v="519107" />
	</node>
	<node id="-510180" lat="61.099444441" lon="6.73630276997">
		<tag k="name" v="Reindalen" />
		<tag k="natural" v="valley" />
		<tag k="place" v="locality" />
		<tag k="ssr:stedsnr" v="495825" />
	</node>
	<node id="-510176" lat="61.1193638876" lon="6.76109444915">
		<tag k="fixme" v="consider natural=peak for the most distinct mountains in the district" />
		<tag k="name" v="Svarthamrane" />
		<tag k="natural" v="hill" />
		<tag k="place" v="locality" />
		<tag k="ssr:stedsnr" v="495767" />
	</node>
	<node id="-510173" lat="61.0527444473" lon="6.87649444868">
		<tag k="alt_name" v="Engagjelet" />
		<tag k="name" v="Engjagilet" />
		<tag k="natural" v="gorge" />
		<tag k="ssr:stedsnr" v="495216" />
	</node>
	<node id="-510171" lat="61.0139333348" lon="6.85070555396">
		<tag k="name" v="Tundalen" />
		<tag k="natural" v="valley" />
		<tag k="place" v="locality" />
		<tag k="ssr:stedsnr" v="495173" />
	</node>
	<node id="-510168" lat="61.1351916682" lon="6.79833054952">
		<tag k="alt_name" v="Kvangregjelet" />
		<tag k="name" v="Kvanngrøgilet" />
		<tag k="natural" v="gorge" />
		<tag k="ssr:stedsnr" v="494860" />
	</node>
	<node id="-510167" lat="61.1389388894" lon="6.78915278509">
		<tag k="fixme" v="consider natural=peak for the most distinct mountains in the district" />
		<tag k="name" v="Strandafjellet" />
		<tag k="natural" v="hill" />
		<tag k="place" v="locality" />
		<tag k="ssr:stedsnr" v="494859" />
	</node>
	<node id="-510164" lat="61.1500222255" lon="6.63932776966">
		<tag k="alt_name" v="Gildhushelleren" />
		<tag k="name" v="Gilhushilleren" />
		<tag k="place" v="locality" />
		<tag k="ssr:stedsnr" v="494831" />
	</node>
	<node id="-510162" lat="61.1303750008" lon="6.85360277406">
		<tag k="alt_name" v="Hjorthaug" />
		<tag k="name" v="Hjorthaugen" />
		<tag k="natural" v="hill" />
		<tag k="place" v="locality" />
		<tag k="ssr:stedsnr" v="494750" />
	</node>
	<node id="-510159" lat="60.9894194473" lon="6.39750555439">
		<tag k="fixme" v="consider natural=peak for the most distinct mountains in the district" />
		<tag k="name" v="Kvannholten" />
		<tag k="natural" v="hill" />
		<tag k="place" v="locality" />
		<tag k="ssr:stedsnr" v="494637" />
	</node>
	<node id="-510156" lat="60.958177774" lon="6.43881945392">
		<tag k="fixme" v="consider natural=peak for the most distinct mountains in the district" />
		<tag k="name" v="Ramslifjell" />
		<tag k="natural" v="hill" />
		<tag k="place" v="locality" />
		<tag k="ssr:stedsnr" v="494612" />
	</node>
	<node id="-510154" lat="61.0052741523" lon="6.42858337542">
		<tag k="name" v="Kleberstein" />
		<tag k="place" v="locality" />
		<tag k="ssr:stedsnr" v="494579" />
	</node>
	<node id="-510148" lat="61.0741722225" lon="6.87176111274">
		<tag k="alt_name" v="Kvangrefjellet" />
		<tag k="fixme" v="consider natural=peak for the most distinct mountains in the district" />
		<tag k="name" v="Kvanngrøfjellet" />
		<tag k="natural" v="hill" />
		<tag k="place" v="locality" />
		<tag k="ssr:stedsnr" v="494225" />
	</node>
	<node id="-510147" lat="61.0680611122" lon="6.64432223106">
		<tag k="fixme" v="consider natural=peak for the most distinct mountains in the district" />
		<tag k="name" v="Hjorthaugrana" />
		<tag k="natural" v="hill" />
		<tag k="place" v="locality" />
		<tag k="ssr:stedsnr" v="494217" />
	</node>
	<node id="-510145" lat="61.0820583299" lon="6.8650749926">
		<tag k="fixme" v="consider natural=peak for the most distinct mountains in the district" />
		<tag k="name" v="Storeryggen" />
		<tag k="natural" v="hill" />
		<tag k="place" v="locality" />
		<tag k="ssr:stedsnr" v="494205" />
	</node>
	<node id="-510143" lat="61.0714305527" lon="6.90444166296">
		<tag k="fixme" v="consider natural=peak for the most distinct mountains in the district" />
		<tag k="name" v="Midtfjellet" />
		<tag k="natural" v="hill" />
		<tag k="place" v="locality" />
		<tag k="ssr:stedsnr" v="494176" />
	</node>
	<node id="-510138" lat="61.0184499984" lon="6.61898054921">
		<tag k="name" v="Fonn" />
		<tag k="natural" v="slope" />
		<tag k="place" v="locality" />
		<tag k="ssr:stedsnr" v="494123" />
	</node>
	<node id="-510137" lat="60.9688999976" lon="6.17734444355">
		<tag k="name" v="Bjørndalen" />
		<tag k="natural" v="valley" />
		<tag k="place" v="locality" />
		<tag k="ssr:stedsnr" v="494026" />
	</node>
	<node id="-510136" lat="60.9928444469" lon="6.1987500074">
		<tag k="name" v="Urdanipa" />
		<tag k="natural" v="hill" />
		<tag k="place" v="locality" />
		<tag k="ssr:stedsnr" v="494016" />
	</node>
	<node id="-510135" lat="60.9896527814" lon="6.61035555524">
		<tag k="fixme" v="consider natural=peak for the most distinct mountains in the district" />
		<tag k="name" v="Gravbotnfjellet" />
		<tag k="natural" v="hill" />
		<tag k="place" v="locality" />
		<tag k="ssr:stedsnr" v="493944" />
	</node>
	<node id="-510133" lat="60.9922611135" lon="6.73694721737">
		<tag k="name" v="Jashaugen" />
		<tag k="natural" v="hill" />
		<tag k="place" v="locality" />
		<tag k="ssr:stedsnr" v="493939" />
	</node>
	<node id="-510131" lat="60.9299555564" lon="6.40326666963">
		<tag k="name" v="Snjodalen" />
		<tag k="natural" v="valley" />
		<tag k="place" v="locality" />
		<tag k="ssr:stedsnr" v="493607" />
	</node>
	<node id="-510125" lat="61.0894194472" lon="6.87762500617">
		<tag k="name" v="Tunga" />
		<tag k="natural" v="slope" />
		<tag k="place" v="locality" />
		<tag k="ssr:stedsnr" v="461946" />
	</node>
	<node id="-510124" lat="61.0829416653" lon="6.28507221921">
		<tag k="name" v="Galdebotn" />
		<tag k="natural" v="valley" />
		<tag k="place" v="locality" />
		<tag k="ssr:stedsnr" v="461935" />
	</node>
	<node id="-510123" lat="61.0614972194" lon="6.93386388521">
		<tag k="name" v="Solali" />
		<tag k="natural" v="slope" />
		<tag k="place" v="locality" />
		<tag k="ssr:stedsnr" v="461928" />
	</node>
	<node id="-510121" lat="61.0914833314" lon="6.24481944425">
		<tag k="name" v="Måseggi" />
		<tag k="natural" v="hill" />
		<tag k="place" v="locality" />
		<tag k="ssr:stedsnr" v="461857" />
	</node>
	<node id="-510120" lat="61.0911194447" lon="6.23015554753">
		<tag k="name" v="Krokane" />
		<tag k="natural" v="valley" />
		<tag k="place" v="locality" />
		<tag k="ssr:stedsnr" v="461853" />
	</node>
	<node id="-510118" lat="61.038049997" lon="6.96817222718">
		<tag k="name" v="Veda" />
		<tag k="natural" v="slope" />
		<tag k="place" v="locality" />
		<tag k="ssr:stedsnr" v="461836" />
	</node>
	<node id="-510117" lat="61.0492833295" lon="6.98985833189">
		<tag k="name" v="Simlenesdalen" />
		<tag k="natural" v="valley" />
		<tag k="place" v="locality" />
		<tag k="ssr:stedsnr" v="461821" />
	</node>
	<node id="-510113" lat="61.0557444469" lon="6.39383332852">
		<tag k="name" v="Rotteskard" />
		<tag k="natural" v="valley" />
		<tag k="place" v="locality" />
		<tag k="ssr:stedsnr" v="461706" />
	</node>
	<node id="-510112" lat="61.091966663" lon="6.29681389108">
		<tag k="name" v="Hjelleholene" />
		<tag k="natural" v="gorge" />
		<tag k="ssr:stedsnr" v="461670" />
	</node>
	<node id="-510111" lat="61.0882277751" lon="6.29068888446">
		<tag k="fixme" v="consider natural=peak for the most distinct mountains in the district" />
		<tag k="name" v="Middagshaugen" />
		<tag k="natural" v="hill" />
		<tag k="place" v="locality" />
		<tag k="ssr:stedsnr" v="461668" />
	</node>
	<node id="-510109" lat="61.0629388884" lon="6.39198333859">
		<tag k="name" v="Holten" />
		<tag k="natural" v="hill" />
		<tag k="place" v="locality" />
		<tag k="ssr:stedsnr" v="461633" />
	</node>
	<node id="-510108" lat="61.0617166691" lon="6.37371111721">
		<tag k="name" v="Vårstølstunga" />
		<tag k="natural" v="ridge" />
		<tag k="place" v="locality" />
		<tag k="ssr:stedsnr" v="461620" />
	</node>
	<node id="-510106" lat="61.0948555559" lon="6.20476389794">
		<tag k="name" v="Tungene" />
		<tag k="natural" v="ridge" />
		<tag k="place" v="locality" />
		<tag k="ssr:stedsnr" v="461537" />
	</node>
	<node id="-510102" lat="61.0982666678" lon="6.19643610478">
		<tag k="name" v="Sjonarhaug" />
		<tag k="natural" v="hill" />
		<tag k="place" v="locality" />
		<tag k="ssr:stedsnr" v="461527" />
	</node>
	<node id="-510100" lat="61.0753027799" lon="6.54525000256">
		<tag k="name" v="Trytisbakkane" />
		<tag k="natural" v="slope" />
		<tag k="place" v="locality" />
		<tag k="ssr:stedsnr" v="461471" />
	</node>
	<node id="-510097" lat="61.0403416641" lon="6.58238611413">
		<tag k="name" v="Skori" />
		<tag k="natural" v="valley" />
		<tag k="place" v="locality" />
		<tag k="ssr:stedsnr" v="461076" />
	</node>
	<node id="-510096" lat="61.0608277812" lon="6.58761666286">
		<tag k="alt_name" v="Rugdeflåten" />
		<tag k="name" v="Rugdefloten" />
		<tag k="natural" v="hill" />
		<tag k="place" v="locality" />
		<tag k="ssr:stedsnr" v="461025" />
	</node>
	<node id="-510095" lat="61.098869443" lon="6.25823055929">
		<tag k="name" v="Fessene" />
		<tag k="natural" v="slope" />
		<tag k="place" v="locality" />
		<tag k="ssr:stedsnr" v="460798" />
	</node>
	<node id="-510093" lat="61.0758638871" lon="6.59985554653">
		<tag k="name" v="Badnadalen" />
		<tag k="natural" v="valley" />
		<tag k="place" v="locality" />
		<tag k="ssr:stedsnr" v="460070" />
	</node>
	<node id="-510090" lat="61.0280138922" lon="6.53569445277">
		<tag k="name" v="Torhjellene" />
		<tag k="place" v="locality" />
		<tag k="ssr:stedsnr" v="459494" />
	</node>
	<node id="-510089" lat="61.0359472189" lon="6.53305833544">
		<tag k="name" v="Tytlingahaugane" />
		<tag k="natural" v="hill" />
		<tag k="place" v="locality" />
		<tag k="ssr:stedsnr" v="459466" />
	</node>
	<node id="-510088" lat="61.035705554" lon="6.57907223001">
		<tag k="name" v="Brunnane" />
		<tag k="natural" v="hill" />
		<tag k="place" v="locality" />
		<tag k="ssr:stedsnr" v="459461" />
	</node>
	<node id="-510086" lat="60.980805557" lon="6.45151389059">
		<tag k="name" v="Siskar" />
		<tag k="natural" v="valley" />
		<tag k="place" v="locality" />
		<tag k="ssr:stedsnr" v="459402" />
	</node>
	<node id="-510085" lat="60.9870944472" lon="6.42990278471">
		<tag k="fixme" v="consider natural=peak for the most distinct mountains in the district" />
		<tag k="name" v="Vestrafjell" />
		<tag k="natural" v="hill" />
		<tag k="place" v="locality" />
		<tag k="ssr:stedsnr" v="459391" />
	</node>
	<node id="-510084" lat="61.0278166649" lon="6.59263055568">
		<tag k="name" v="Hovdabakkane" />
		<tag k="natural" v="slope" />
		<tag k="place" v="locality" />
		<tag k="ssr:stedsnr" v="459285" />
	</node>
	<node id="-510082" lat="61.007950004" lon="6.34289167061">
		<tag k="name" v="Brufloten" />
		<tag k="natural" v="hill" />
		<tag k="place" v="locality" />
		<tag k="ssr:stedsnr" v="459219" />
	</node>
	<node id="-510080" lat="61.0239722232" lon="6.37327778366">
		<tag k="name" v="Vollekrene" />
		<tag k="place" v="locality" />
		<tag k="ssr:stedsnr" v="458127" />
	</node>
	<node id="-510079" lat="61.0535972192" lon="6.51362777659">
		<tag k="name" v="Fjærestadli" />
		<tag k="natural" v="slope" />
		<tag k="place" v="locality" />
		<tag k="ssr:stedsnr" v="461350" />
	</node>
	<node id="-510078" lat="60.9371916682" lon="6.52589723056">
		<tag k="name" v="Vikafjell" />
		<tag k="natural" v="mountain_range" />
		<tag k="ssr:stedsnr" v="449641" />
	</node>
	<node id="-510074" lat="61.1463277758" lon="6.64635000269">
		<tag k="name" v="Kristidalen" />
		<tag k="natural" v="valley" />
		<tag k="place" v="locality" />
		<tag k="ssr:stedsnr" v="434800" />
	</node>
	<node id="-510073" lat="61.1515555546" lon="6.68547500703">
		<tag k="alt_name" v="Kaldagjelet" />
		<tag k="name" v="Kaldagilet" />
		<tag k="natural" v="gorge" />
		<tag k="ssr:stedsnr" v="434791" />
	</node>
	<node id="-510072" lat="61.1470777781" lon="6.73183333516">
		<tag k="alt_name" v="Vakelshaug" />
		<tag k="name" v="Vokeldshaugen" />
		<tag k="natural" v="hill" />
		<tag k="place" v="locality" />
		<tag k="ssr:stedsnr" v="434766" />
	</node>
	<node id="-510071" lat="61.112897221" lon="6.87059167272">
		<tag k="name" v="Snytteli" />
		<tag k="natural" v="slope" />
		<tag k="place" v="locality" />
		<tag k="ssr:stedsnr" v="434758" />
	</node>
	<node id="-510070" lat="61.1031750035" lon="6.86630278259">
		<tag k="name" v="Trettetungene" />
		<tag k="natural" v="gorge" />
		<tag k="ssr:stedsnr" v="434746" />
	</node>
	<node id="-510068" lat="61.1201722196" lon="6.87456943593">
		<tag k="alt_name" v="Prestheller" />
		<tag k="name" v="Presthiller" />
		<tag k="place" v="locality" />
		<tag k="ssr:stedsnr" v="434718" />
	</node>
	<node id="-510067" lat="61.1056555577" lon="6.62662222138">
		<tag k="name" v="Storehaug" />
		<tag k="natural" v="hill" />
		<tag k="place" v="locality" />
		<tag k="ssr:stedsnr" v="434713" />
	</node>
	<node id="-510066" lat="61.1356888871" lon="6.67928055384">
		<tag k="fixme" v="consider natural=peak for the most distinct mountains in the district" />
		<tag k="name" v="Kråkeggi" />
		<tag k="natural" v="hill" />
		<tag k="place" v="locality" />
		<tag k="ssr:stedsnr" v="434823" />
	</node>
	<node id="-510064" lat="61.0204277797" lon="6.24507499423">
		<tag k="fixme" v="consider natural=peak for the most distinct mountains in the district" />
		<tag k="name" v="Skrivareggi" />
		<tag k="natural" v="hill" />
		<tag k="place" v="locality" />
		<tag k="ssr:stedsnr" v="434579" />
	</node>
	<node id="-510063" lat="61.0325583338" lon="6.24352500568">
		<tag k="name" v="Botnadalen" />
		<tag k="natural" v="valley" />
		<tag k="place" v="locality" />
		<tag k="ssr:stedsnr" v="434568" />
	</node>
	<node id="-510062" lat="61.0527249965" lon="6.45140556001">
		<tag k="name" v="Oksli" />
		<tag k="natural" v="hill" />
		<tag k="place" v="locality" />
		<tag k="ssr:stedsnr" v="434567" />
	</node>
	<node id="-510053" lat="61.0412361089" lon="6.21189165828">
		<tag k="fixme" v="consider natural=peak for the most distinct mountains in the district" />
		<tag k="name" v="Åkrevikfjellet" />
		<tag k="natural" v="hill" />
		<tag k="place" v="locality" />
		<tag k="ssr:stedsnr" v="434275" />
	</node>
	<node id="-510051" lat="61.0757499975" lon="6.83931945092">
		<tag k="name" v="Storebotnen" />
		<tag k="natural" v="valley" />
		<tag k="place" v="locality" />
		<tag k="ssr:stedsnr" v="434226" />
	</node>
	<node id="-510046" lat="61.06706944" lon="6.91089999242">
		<tag k="alt_name" v="Øybøgjelet" />
		<tag k="name" v="Øybøgilet" />
		<tag k="natural" v="gorge" />
		<tag k="ssr:stedsnr" v="434182" />
	</node>
	<node id="-510045" lat="61.0325972232" lon="6.64458332758">
		<tag k="alt_name" v="Endebakken" />
		<tag k="name" v="Ennebakken" />
		<tag k="natural" v="ridge" />
		<tag k="place" v="locality" />
		<tag k="ssr:stedsnr" v="434167" />
	</node>
	<node id="-510043" lat="61.0394250043" lon="6.64468888906">
		<tag k="name" v="Kjelhaugen" />
		<tag k="natural" v="hill" />
		<tag k="place" v="locality" />
		<tag k="ssr:stedsnr" v="434141" />
	</node>
	<node id="-510042" lat="61.0292944471" lon="6.79908611705">
		<tag k="fixme" v="consider natural=peak for the most distinct mountains in the district" />
		<tag k="name" v="Huldakyrkja" />
		<tag k="natural" v="hill" />
		<tag k="place" v="locality" />
		<tag k="ssr:stedsnr" v="434116" />
	</node>
	<node id="-510040" lat="61.0212666627" lon="6.68273888488">
		<tag k="fixme" v="consider natural=peak for the most distinct mountains in the district" />
		<tag k="name" v="Ennebakkfjellet" />
		<tag k="natural" v="hill" />
		<tag k="place" v="locality" />
		<tag k="ssr:stedsnr" v="434108" />
	</node>
	<node id="-510039" lat="60.9982194447" lon="6.45721944368">
		<tag k="fixme" v="consider natural=peak for the most distinct mountains in the district" />
		<tag k="name" v="Nobb" />
		<tag k="natural" v="hill" />
		<tag k="place" v="locality" />
		<tag k="ssr:stedsnr" v="433688" />
	</node>
	<node id="-510034" lat="60.9499333301" lon="6.26661667128">
		<tag k="name" v="Dyredalen" />
		<tag k="natural" v="valley" />
		<tag k="place" v="locality" />
		<tag k="ssr:stedsnr" v="433627" />
	</node>
	<node id="-510033" lat="60.9933499979" lon="6.58594444588">
		<tag k="name" v="Gravbotn" />
		<tag k="natural" v="valley" />
		<tag k="place" v="locality" />
		<tag k="ssr:stedsnr" v="433621" />
	</node>
	<node id="-510032" lat="60.9826750005" lon="6.55925833718">
		<tag k="fixme" v="consider natural=peak for the most distinct mountains in the district" />
		<tag k="name" v="Vetlefjellet" />
		<tag k="natural" v="hill" />
		<tag k="place" v="locality" />
		<tag k="ssr:stedsnr" v="433610" />
	</node>
	<node id="-510030" lat="60.980305557" lon="6.37412499938">
		<tag k="fixme" v="consider natural=peak for the most distinct mountains in the district" />
		<tag k="name" v="Klebberg" />
		<tag k="natural" v="hill" />
		<tag k="place" v="locality" />
		<tag k="ssr:stedsnr" v="433607" />
	</node>
	<node id="-510026" lat="60.933725003" lon="6.29256111325">
		<tag k="fixme" v="consider natural=peak for the most distinct mountains in the district" />
		<tag k="name" v="Raudberg" />
		<tag k="natural" v="hill" />
		<tag k="place" v="locality" />
		<tag k="ssr:stedsnr" v="433575" />
	</node>
	<node id="-510020" lat="61.0850416631" lon="6.73006111919">
		<tag k="name" v="Reindalen" />
		<tag k="natural" v="valley" />
		<tag k="place" v="locality" />
		<tag k="ssr:stedsnr" v="432417" />
	</node>
	<node id="-510014" lat="61.1638305576" lon="6.64872778404">
		<tag k="fixme" v="consider natural=peak for the most distinct mountains in the district" />
		<tag k="name" v="Veslehovden" />
		<tag k="natural" v="hill" />
		<tag k="place" v="locality" />
		<tag k="ssr:stedsnr" v="252895" />
	</node>
	<node id="-510010" lat="61.1339805553" lon="6.81288611861">
		<tag k="name" v="Nonhaug" />
		<tag k="natural" v="hill" />
		<tag k="place" v="locality" />
		<tag k="ssr:stedsnr" v="252833" />
	</node>
	<node id="-510009" lat="61.1421388905" lon="6.64355832926">
		<tag k="alt_name" v="Dalabotn" />
		<tag k="name" v="Dalabotnen" />
		<tag k="natural" v="valley" />
		<tag k="place" v="locality" />
		<tag k="ssr:stedsnr" v="252815" />
	</node>
	<node id="-510004" lat="61.1007805545" lon="6.65255834064">
		<tag k="name" v="Vetahaug" />
		<tag k="natural" v="hill" />
		<tag k="place" v="locality" />
		<tag k="ssr:stedsnr" v="252788" />
	</node>
	<node id="-510003" lat="61.1161388857" lon="6.61610555184">
		<tag k="alt_name" v="Kammen" />
		<tag k="name" v="Kamben" />
		<tag k="place" v="locality" />
		<tag k="ssr:stedsnr" v="252764" />
	</node>
	<node id="-509996" lat="61.0065500015" lon="6.23234445113">
		<tag k="name" v="Trollabotnen" />
		<tag k="natural" v="valley" />
		<tag k="place" v="locality" />
		<tag k="ssr:stedsnr" v="252564" />
	</node>
	<node id="-509994" lat="61.0615694488" lon="6.28402499262">
		<tag k="name" v="Skjemmedalsnipa" />
		<tag k="natural" v="hill" />
		<tag k="place" v="locality" />
		<tag k="ssr:stedsnr" v="252517" />
	</node>
	<node id="-509988" lat="61.0668972223" lon="6.89982777739">
		<tag k="alt_name" v="Klanten" />
		<tag k="fixme" v="consider natural=peak for the most distinct mountains in the district" />
		<tag k="name" v="Sauaklanten" />
		<tag k="natural" v="hill" />
		<tag k="place" v="locality" />
		<tag k="ssr:stedsnr" v="252169" />
	</node>
	<node id="-509987" lat="61.0732499987" lon="6.94983054868">
		<tag k="alt_name" v="Jukelen" />
		<tag k="name" v="Jukulen" />
		<tag k="natural" v="cliff" />
		<tag k="ssr:stedsnr" v="252161" />
	</node>
	<node id="-509985" lat="61.0364583346" lon="6.68459444744">
		<tag k="name" v="Botnen" />
		<tag k="natural" v="valley" />
		<tag k="place" v="locality" />
		<tag k="ssr:stedsnr" v="252143" />
	</node>
	<node id="-509984" lat="61.0484555598" lon="6.92101666797">
		<tag k="alt_name" v="Seltuftehaugen" />
		<tag k="name" v="Seltufthaugen" />
		<tag k="natural" v="hill" />
		<tag k="place" v="locality" />
		<tag k="ssr:stedsnr" v="252130" />
	</node>
	<node id="-509982" lat="60.9915527752" lon="6.62988888137">
		<tag k="fixme" v="consider natural=peak for the most distinct mountains in the district" />
		<tag k="name" v="Helgahaugen" />
		<tag k="natural" v="hill" />
		<tag k="place" v="locality" />
		<tag k="ssr:stedsnr" v="251956" />
	</node>
	<node id="-509981" lat="60.9841944419" lon="6.69407500785">
		<tag k="name" v="Lægdene" />
		<tag k="place" v="locality" />
		<tag k="ssr:stedsnr" v="251948" />
	</node>
	<node id="-509979" lat="61.0979749983" lon="6.75045278596">
		<tag k="alt_name" v="Rækefjellet" />
		<tag k="fixme" v="consider natural=peak for the most distinct mountains in the district" />
		<tag k="name" v="Rekefjellet" />
		<tag k="natural" v="hill" />
		<tag k="place" v="locality" />
		<tag k="ssr:stedsnr" v="251812" />
	</node>
	<node id="-509976" lat="60.9976138878" lon="6.23519443636">
		<tag k="fixme" v="consider natural=peak for the most distinct mountains in the district" />
		<tag k="name" v="Urdeggi" />
		<tag k="natural" v="hill" />
		<tag k="place" v="locality" />
		<tag k="ssr:stedsnr" v="251689" />
	</node>
	<node id="-509975" lat="60.9566111126" lon="6.26194166508">
		<tag k="fixme" v="consider natural=peak for the most distinct mountains in the district" />
		<tag k="name" v="Geitdalseggi" />
		<tag k="natural" v="hill" />
		<tag k="place" v="locality" />
		<tag k="ssr:stedsnr" v="251680" />
	</node>
	<node id="-509972" lat="60.9693666675" lon="6.26548333636">
		<tag k="fixme" v="consider natural=peak for the most distinct mountains in the district" />
		<tag k="name" v="Tindafarangen" />
		<tag k="natural" v="hill" />
		<tag k="place" v="locality" />
		<tag k="ssr:stedsnr" v="251658" />
	</node>
	<node id="-509970" lat="60.9255527796" lon="6.31173055739">
		<tag k="name" v="Bjørnshaugen" />
		<tag k="natural" v="hill" />
		<tag k="place" v="locality" />
		<tag k="ssr:stedsnr" v="251631" />
	</node>
	<node id="-509969" lat="60.9104444459" lon="6.22327499808">
		<tag k="name" v="Askjelldalsleitet" />
		<tag k="natural" v="hill" />
		<tag k="place" v="locality" />
		<tag k="ssr:stedsnr" v="251628" />
	</node>
	<node id="-509968" lat="60.93666667" lon="6.42249166009">
		<tag k="name" v="Skjelingahaugen" />
		<tag k="natural" v="hill" />
		<tag k="place" v="locality" />
		<tag k="ssr:stedsnr" v="251625" />
	</node>
	<node id="-509967" lat="60.9440249999" lon="6.32267499498">
		<tag k="fixme" v="consider natural=peak for the most distinct mountains in the district" />
		<tag k="name" v="Nipane" />
		<tag k="natural" v="hill" />
		<tag k="place" v="locality" />
		<tag k="ssr:stedsnr" v="251624" />
	</node>
	<node id="-509964" lat="61.0352916659" lon="6.91782499987">
		<tag k="alt_name" v="Breiskreda" />
		<tag k="name" v="Breidskreda" />
		<tag k="natural" v="valley" />
		<tag k="place" v="locality" />
		<tag k="ssr:stedsnr" v="251174" />
	</node>
	<node id="-509963" lat="61.0161916648" lon="6.6995611114">
		<tag k="fixme" v="consider natural=peak for the most distinct mountains in the district" />
		<tag k="name" v="Vassdalsknausane" />
		<tag k="natural" v="hill" />
		<tag k="place" v="locality" />
		<tag k="ssr:stedsnr" v="251139" />
	</node>
	<node id="-509962" lat="60.9495527799" lon="6.18668888871">
		<tag k="name" v="Holskardet" />
		<tag k="natural" v="valley" />
		<tag k="place" v="locality" />
		<tag k="ssr:stedsnr" v="251131" />
	</node>
	<node id="-509961" lat="60.9655944449" lon="6.16041389598">
		<tag k="name" v="Stordalen" />
		<tag k="natural" v="valley" />
		<tag k="place" v="locality" />
		<tag k="ssr:stedsnr" v="251028" />
	</node>
	<node id="-509960" lat="61.1135527753" lon="6.71112500899">
		<tag k="fixme" v="consider natural=peak for the most distinct mountains in the district" />
		<tag k="name" v="Skredfjellet" />
		<tag k="natural" v="hill" />
		<tag k="place" v="locality" />
		<tag k="ssr:stedsnr" v="250432" />
	</node>
	<node id="-509956" lat="61.0312861137" lon="7.01171110949">
		<tag k="name" v="Famneberget" />
		<tag k="natural" v="hill" />
		<tag k="place" v="locality" />
		<tag k="ssr:stedsnr" v="236741" />
	</node>
	<node id="-509953" lat="61.0794444445" lon="6.91329444266">
		<tag k="name" v="Askeholskreda" />
		<tag k="natural" v="valley" />
		<tag k="place" v="locality" />
		<tag k="ssr:stedsnr" v="218988" />
	</node>
</osm>
