<?xml version="1.0" encoding="UTF-8"?>
<osm generator="osmapis" version="0.6">
	<node id="-701823" lat="68.1692138893" lon="13.3228638797">
		<tag k="name" v="Hornneset" />
		<tag k="ssr:date" v="2016-05-10" />
		<tag k="ssr:gruppe" v="navigasjon" />
		<tag k="ssr:hovedgruppe" v="infrastruktur" />
		<tag k="ssr:stedsnr" v="502890" />
		<tag k="ssr:type" v="fyrlykt" />
	</node>
	<node id="-701733" lat="68.1101833363" lon="13.1698916554">
		<tag k="name" v="Leiholmen" />
		<tag k="ssr:date" v="2016-05-10" />
		<tag k="ssr:gruppe" v="navigasjon" />
		<tag k="ssr:hovedgruppe" v="infrastruktur" />
		<tag k="ssr:stedsnr" v="259200" />
		<tag k="ssr:type" v="fyrlykt" />
	</node>
	<node id="-701531" lat="68.0592000012" lon="13.1689888877">
		<tag k="name" v="Krystad" />
		<tag k="ssr:date" v="2016-05-10" />
		<tag k="ssr:gruppe" v="navigasjon" />
		<tag k="ssr:hovedgruppe" v="infrastruktur" />
		<tag k="ssr:stedsnr" v="78008" />
		<tag k="ssr:type" v="fyrlykt" />
	</node>
	<node id="-701232" lat="68.1195805593" lon="13.1240472243">
		<tag k="name" v="Moholmen" />
		<tag k="ssr:date" v="2016-05-10" />
		<tag k="ssr:gruppe" v="navigasjon" />
		<tag k="ssr:hovedgruppe" v="infrastruktur" />
		<tag k="ssr:stedsnr" v="320236" />
		<tag k="ssr:type" v="fyrlykt" />
	</node>
	<node id="-701784" lat="68.1393972253" lon="13.4603888818">
		<tag k="name" v="Napp" />
		<tag k="old_name" v="Nappholmen" />
		<tag k="ssr:date" v="2016-05-10" />
		<tag k="ssr:gruppe" v="navigasjon" />
		<tag k="ssr:hovedgruppe" v="infrastruktur" />
		<tag k="ssr:stedsnr" v="442814" />
		<tag k="ssr:type" v="fyrlykt" />
	</node>
	<node id="-701303" lat="68.0789750016" lon="13.1913416742">
		<tag k="name" v="Kubholmen" />
		<tag k="old_name" v="Kubbholmen" />
		<tag k="ssr:date" v="2016-05-10" />
		<tag k="ssr:gruppe" v="navigasjon" />
		<tag k="ssr:hovedgruppe" v="infrastruktur" />
		<tag k="ssr:stedsnr" v="380242" />
		<tag k="ssr:type" v="fyrlykt" />
	</node>
	<node id="-702102" lat="68.0929111075" lon="13.2331055503">
		<tag k="name" v="Flakstad kommune" />
		<tag k="ssr:date" v="2016-05-11" />
		<tag k="ssr:gruppe" v="administrativeIndelinger" />
		<tag k="ssr:hovedgruppe" v="offentligAdministrasjon" />
		<tag k="ssr:stedsnr" v="751928" />
		<tag k="ssr:type" v="kommune" />
	</node>
	<node id="-701748" lat="68.0296277815" lon="13.2374249974">
		<tag k="name" v="Skjelfjorden" />
		<tag k="old_name" v="Skjelfjord" />
		<tag k="ssr:date" v="2016-05-10" />
		<tag k="ssr:gruppe" v="navigasjon" />
		<tag k="ssr:hovedgruppe" v="infrastruktur" />
		<tag k="ssr:stedsnr" v="260579" />
		<tag k="ssr:type" v="fyrlykt" />
	</node>
	<node id="-702256" lat="68.1616083376" lon="13.4407166752">
		<tag k="name" v="Hundholmen" />
		<tag k="ssr:date" v="2016-05-11" />
		<tag k="ssr:gruppe" v="navigasjon" />
		<tag k="ssr:hovedgruppe" v="infrastruktur" />
		<tag k="ssr:stedsnr" v="866995" />
		<tag k="ssr:type" v="fyrlykt" />
	</node>
	<node id="-701967" lat="68.0880749961" lon="13.200374999">
		<tag k="name" v="Ramberg" />
		<tag k="ssr:date" v="2016-05-10" />
		<tag k="ssr:gruppe" v="navigasjon" />
		<tag k="ssr:hovedgruppe" v="infrastruktur" />
		<tag k="ssr:stedsnr" v="654998" />
		<tag k="ssr:type" v="fyrlykt" />
	</node>
	<node id="-701398" lat="68.1790027742" lon="13.1532166648">
		<tag k="name" v="Skarvskjær" />
		<tag k="ssr:date" v="2016-05-11" />
		<tag k="ssr:gruppe" v="navigasjon" />
		<tag k="ssr:hovedgruppe" v="infrastruktur" />
		<tag k="ssr:stedsnr" v="894028" />
		<tag k="ssr:type" v="fyrlykt" />
	</node>
	<node id="-701236" lat="67.9987249961" lon="13.2034055592">
		<tag k="name" v="Sund" />
		<tag k="ssr:date" v="2016-05-10" />
		<tag k="ssr:gruppe" v="navigasjon" />
		<tag k="ssr:hovedgruppe" v="infrastruktur" />
		<tag k="ssr:stedsnr" v="320304" />
		<tag k="ssr:type" v="fyrlykt" />
	</node>
	<node id="-701400" lat="68.0188527787" lon="13.1815249998">
		<tag k="name" v="Kåkern" />
		<tag k="ssr:date" v="2016-05-11" />
		<tag k="ssr:gruppe" v="navigasjon" />
		<tag k="ssr:hovedgruppe" v="infrastruktur" />
		<tag k="ssr:stedsnr" v="897510" />
		<tag k="ssr:type" v="fyrlykt" />
	</node>
	<node id="-701544" lat="68.109105556" lon="13.2281250098">
		<tag k="name" v="Jusholmen" />
		<tag k="old_name" v="Justholmen" />
		<tag k="ssr:date" v="2016-05-10" />
		<tag k="ssr:gruppe" v="navigasjon" />
		<tag k="ssr:hovedgruppe" v="infrastruktur" />
		<tag k="ssr:stedsnr" v="78871" />
		<tag k="ssr:type" v="fyrlykt" />
	</node>
	<node id="-702151" lat="68.0290361111" lon="13.3565861119">
		<tag k="name" v="Nusfjord" />
		<tag k="ssr:date" v="2016-05-11" />
		<tag k="ssr:gruppe" v="navigasjon" />
		<tag k="ssr:hovedgruppe" v="infrastruktur" />
		<tag k="ssr:stedsnr" v="805562" />
		<tag k="ssr:type" v="fyrlykt" />
	</node>
	<node id="-702373" lat="68.4849327361" lon="16.2297866207">
		<tag k="fixme" v="multiple name tags, choose one and add the other to alt_name" />
		<tag k="name" v="Nord-Noreg;Nord-Norge" />
		<tag k="ssr:date" v="2017-05-18" />
		<tag k="ssr:gruppe" v="administrativeIndelinger" />
		<tag k="ssr:hovedgruppe" v="offentligAdministrasjon" />
		<tag k="ssr:stedsnr" v="976106" />
		<tag k="ssr:type" v="annenAdministrativInndeling" />
	</node>
	<node id="-701462" lat="68.0453361108" lon="13.3823500115">
		<tag k="name" v="Lofoten" />
		<tag k="ssr:date" v="2016-05-10" />
		<tag k="ssr:gruppe" v="terrengområder" />
		<tag k="ssr:hovedgruppe" v="terreng" />
		<tag k="ssr:stedsnr" v="26064" />
		<tag k="ssr:type" v="landskapsområde" />
	</node>
</osm>
