<?xml version="1.0" encoding="UTF-8"?>
<<<<<<< HEAD
<osm version="0.6" generator="osmapis">
	<node lat="59.68245764729301" lon="5.8010595963923395" id="-41462">
		<tag k="alt_name" v="Sandvika, øvre;Sandvik (øvre)" />
		<tag k="fixme" v="consider place=hamlet" />
		<tag k="name" v="Øvre Sandvik" />
=======
<osm generator="osmapis" version="0.6">
	<node id="-598007" lat="59.7377638902" lon="6.11442500351">
		<tag k="name" v="Grøtle" />
		<tag k="place" v="farm" />
		<tag k="ssr:stedsnr" v="287901" />
	</node>
	<node id="-598006" lat="59.7340660238" lon="6.04443201064">
		<tag k="fixme" v="consider place=hamlet" />
		<tag k="name" v="Vatnedalstveito" />
		<tag k="place" v="farm" />
		<tag k="ssr:stedsnr" v="287881" />
	</node>
	<node id="-598002" lat="59.7469222237" lon="6.19601667342">
		<tag k="name" v="Halleland" />
		<tag k="place" v="farm" />
		<tag k="ssr:stedsnr" v="281004" />
	</node>
	<node id="-597999" lat="59.8763611134" lon="6.39837499938">
		<tag k="name" v="Fossheim" />
		<tag k="place" v="farm" />
		<tag k="ssr:stedsnr" v="280787" />
	</node>
	<node id="-597969" lat="59.7386611145" lon="5.94355555069">
		<tag k="name" v="Træet" />
		<tag k="place" v="farm" />
		<tag k="ssr:stedsnr" v="165924" />
	</node>
	<node id="-597968" lat="59.7612416646" lon="5.94396944407">
		<tag k="fixme" v="consider place=hamlet" />
		<tag k="name" v="Midtra Vannes" />
		<tag k="place" v="farm" />
		<tag k="ssr:stedsnr" v="165922" />
	</node>
	<node id="-597950" lat="59.770980555" lon="6.17737221811">
		<tag k="historic" v="shieling" />
		<tag k="name" v="Øyskarstølen" />
		<tag k="place" v="locality" />
		<tag k="ssr:stedsnr" v="280111" />
	</node>
	<node id="-597940" lat="59.7267027783" lon="6.16188056232">
		<tag k="name" v="Frette" />
>>>>>>> e1d4bc35ff8a6074a6f2e91616a996b547c36f15
		<tag k="place" v="farm" />
		<tag k="ssr:stedsnr" v="3014" />
	</node>
<<<<<<< HEAD
	<node lat="59.817083329625675" lon="6.2266166733876185" id="-41463">
		<tag k="alt_name" v="Flåtene" />
		<tag k="name" v="Floten" />
=======
	<node id="-597931" lat="59.6905166669" lon="6.01270833295">
		<tag k="fixme" v="consider place=hamlet" />
		<tag k="name" v="Skjeldal" />
>>>>>>> e1d4bc35ff8a6074a6f2e91616a996b547c36f15
		<tag k="place" v="farm" />
		<tag k="ssr:stedsnr" v="3039" />
	</node>
<<<<<<< HEAD
	<node lat="59.74135833732018" lon="6.005433337814815" id="-41468">
		<tag k="alt_name" v="Sjølyst" />
		<tag k="name" v="Skjela" />
		<tag k="place" v="farm" />
		<tag k="ssr:stedsnr" v="3624" />
	</node>
	<node lat="59.69672669049942" lon="6.0983997447640546" id="-41471">
=======
	<node id="-597924" lat="59.8544444413" lon="6.33661111282">
		<tag k="alt_name" v="Mosnes ytre" />
		<tag k="name" v="Ytre Mosnes" />
		<tag k="place" v="farm" />
		<tag k="ssr:stedsnr" v="159209" />
	</node>
	<node id="-597920" lat="59.7483833358" lon="6.18253610937">
		<tag k="historic" v="shieling" />
		<tag k="name" v="Skjoldalstølen" />
		<tag k="place" v="locality" />
		<tag k="ssr:stedsnr" v="159006" />
	</node>
	<node id="-597896" lat="59.7186611117" lon="6.08306388481">
		<tag k="historic" v="shieling" />
		<tag k="name" v="Håvastøl" />
		<tag k="place" v="locality" />
		<tag k="ssr:stedsnr" v="98321" />
	</node>
	<node id="-597891" lat="59.6925916669" lon="6.0003749988">
		<tag k="historic" v="shieling" />
		<tag k="name" v="Hovlandstøl" />
		<tag k="place" v="locality" />
		<tag k="ssr:stedsnr" v="98225" />
	</node>
	<node id="-597878" lat="59.8494472226" lon="6.22718888657">
		<tag k="historic" v="shieling" />
		<tag k="name" v="Gamlestølen" />
		<tag k="place" v="locality" />
		<tag k="ssr:stedsnr" v="247007" />
	</node>
	<node id="-597877" lat="59.6508103775" lon="5.92198286658">
>>>>>>> e1d4bc35ff8a6074a6f2e91616a996b547c36f15
		<tag k="fixme" v="consider place=hamlet" />
		<tag k="name" v="Flokatveit" />
		<tag k="place" v="farm" />
		<tag k="ssr:stedsnr" v="3675" />
	</node>
<<<<<<< HEAD
	<node lat="59.706108789096575" lon="6.077682445543944" id="-41472">
		<tag k="alt_name" v="Neset" />
=======
	<node id="-597876" lat="59.6575058284" lon="5.9607815749">
		<tag k="alt_name" v="Gralsete" />
>>>>>>> e1d4bc35ff8a6074a6f2e91616a996b547c36f15
		<tag k="fixme" v="consider place=hamlet" />
		<tag k="name" v="Nernes" />
		<tag k="place" v="farm" />
		<tag k="ssr:stedsnr" v="3686" />
	</node>
<<<<<<< HEAD
	<node lat="59.676611119304425" lon="5.9501905414208665" id="-41474">
=======
	<node id="-597871" lat="59.7267568551" lon="6.16370781648">
>>>>>>> e1d4bc35ff8a6074a6f2e91616a996b547c36f15
		<tag k="fixme" v="consider place=hamlet" />
		<tag k="name" v="Silda" />
		<tag k="place" v="farm" />
		<tag k="ssr:stedsnr" v="3705" />
	</node>
<<<<<<< HEAD
	<node lat="59.69060159108759" lon="6.008591100233454" id="-41475">
		<tag k="alt_name" v="Hovland indre" />
		<tag k="fixme" v="consider place=hamlet" />
		<tag k="name" v="Hovland" />
=======
	<node id="-597870" lat="59.7289975725" lon="6.16016600243">
		<tag k="fixme" v="consider place=hamlet" />
		<tag k="name" v="Vinja" />
		<tag k="place" v="farm" />
		<tag k="ssr:stedsnr" v="246644" />
	</node>
	<node id="-597865" lat="59.6442944441" lon="5.92245000109">
		<tag k="name" v="Gjerdsvik" />
>>>>>>> e1d4bc35ff8a6074a6f2e91616a996b547c36f15
		<tag k="place" v="farm" />
		<tag k="ssr:stedsnr" v="3714" />
	</node>
<<<<<<< HEAD
	<node lat="59.66528332926311" lon="5.9370833309519915" id="-41476">
		<tag k="name" v="Etne" />
		<tag k="place" v="village" />
		<tag k="ssr:stedsnr" v="3732" />
	</node>
	<node lat="59.734403741960236" lon="6.000156515940223" id="-41485">
		<tag k="alt_name" v="Tungesvik" />
=======
	<node id="-597864" lat="59.6590333293" lon="6.0534305559">
		<tag k="name" v="Halsnes" />
		<tag k="place" v="farm" />
		<tag k="ssr:stedsnr" v="246470" />
	</node>
	<node id="-597862" lat="59.6670511454" lon="5.79364240373">
>>>>>>> e1d4bc35ff8a6074a6f2e91616a996b547c36f15
		<tag k="fixme" v="consider place=hamlet" />
		<tag k="name" v="Ytre Tungesvik" />
		<tag k="place" v="farm" />
<<<<<<< HEAD
		<tag k="ssr:stedsnr" v="24001" />
	</node>
	<node lat="59.74536944703842" lon="5.956291669551299" id="-41487">
		<tag k="name" v="Tjellflot" />
=======
		<tag k="ssr:stedsnr" v="246460" />
	</node>
	<node id="-597861" lat="59.8901222252" lon="6.37673611624">
		<tag k="alt_name" v="Nystøl" />
		<tag k="historic" v="shieling" />
		<tag k="name" v="Nystølen" />
		<tag k="place" v="locality" />
		<tag k="ssr:stedsnr" v="246459" />
	</node>
	<node id="-597858" lat="59.7603916705" lon="6.24551389443">
		<tag k="historic" v="shieling" />
		<tag k="name" v="Røssedalen" />
		<tag k="place" v="locality" />
		<tag k="ssr:stedsnr" v="246124" />
	</node>
	<node id="-597857" lat="59.8240260376" lon="6.24740133443">
		<tag k="alt_name" v="Miljateig øvre" />
		<tag k="fixme" v="consider place=hamlet" />
		<tag k="name" v="Miljateigen" />
>>>>>>> e1d4bc35ff8a6074a6f2e91616a996b547c36f15
		<tag k="place" v="farm" />
		<tag k="ssr:stedsnr" v="31106" />
	</node>
<<<<<<< HEAD
	<node lat="59.70559583245113" lon="5.944018733146407" id="-41492">
		<tag k="alt_name" v="Miljaseter" />
		<tag k="historic" v="shieling" />
		<tag k="name" v="Miljasæter" />
		<tag k="place" v="isolated_dwelling" />
		<tag k="ssr:stedsnr" v="37277" />
	</node>
	<node lat="59.725758331798005" lon="5.8633611151814256" id="-41505">
		<tag k="fixme" v="consider place=hamlet" />
		<tag k="name" v="Mortveit" />
=======
	<node id="-597856" lat="59.818450001" lon="6.22901110765">
		<tag k="name" v="Markhus" />
		<tag k="place" v="hamlet" />
		<tag k="ssr:stedsnr" v="246047" />
	</node>
	<node id="-597855" lat="59.8176944675" lon="6.22963073575">
		<tag k="alt_name" v="Hetleflåt" />
		<tag k="fixme" v="consider place=hamlet" />
		<tag k="name" v="Hetleflota" />
		<tag k="place" v="farm" />
		<tag k="ssr:stedsnr" v="246043" />
	</node>
	<node id="-597854" lat="59.6854305545" lon="5.79189999643">
		<tag k="name" v="Husavika" />
>>>>>>> e1d4bc35ff8a6074a6f2e91616a996b547c36f15
		<tag k="place" v="farm" />
		<tag k="ssr:stedsnr" v="37707" />
	</node>
<<<<<<< HEAD
	<node lat="59.701050003913615" lon="5.827297213495853" id="-41507">
		<tag k="name" v="Sør-Ebna" />
=======
	<node id="-597845" lat="59.6485499979" lon="5.91559999382">
		<tag k="name" v="Eiriksvik" />
>>>>>>> e1d4bc35ff8a6074a6f2e91616a996b547c36f15
		<tag k="place" v="farm" />
		<tag k="ssr:stedsnr" v="37720" />
	</node>
<<<<<<< HEAD
	<node lat="59.73492499715972" lon="5.942900008665105" id="-41520">
		<tag k="name" v="Stølen" />
=======
	<node id="-597836" lat="59.6751861078" lon="5.95260556401">
		<tag k="name" v="Silla" />
>>>>>>> e1d4bc35ff8a6074a6f2e91616a996b547c36f15
		<tag k="place" v="farm" />
		<tag k="ssr:stedsnr" v="44906" />
	</node>
<<<<<<< HEAD
	<node lat="59.69289999694601" lon="5.811324991832074" id="-41524">
		<tag k="name" v="Vikane" />
		<tag k="place" v="isolated_dwelling" />
		<tag k="ssr:stedsnr" v="63069" />
	</node>
	<node lat="59.73459571841168" lon="5.911756902505544" id="-41525">
=======
	<node id="-597824" lat="59.7206388927" lon="6.20224444616">
		<tag k="name" v="Hellaug" />
		<tag k="place" v="farm" />
		<tag k="ssr:stedsnr" v="37517" />
	</node>
	<node id="-597809" lat="59.734403742" lon="6.00015651594">
		<tag k="alt_name" v="Tungesvik" />
>>>>>>> e1d4bc35ff8a6074a6f2e91616a996b547c36f15
		<tag k="fixme" v="consider place=hamlet" />
		<tag k="name" v="Leknes" />
		<tag k="place" v="farm" />
		<tag k="ssr:stedsnr" v="63671" />
	</node>
<<<<<<< HEAD
	<node lat="59.67528055658349" lon="6.009861108005111" id="-41526">
		<tag k="name" v="Vassenden" />
=======
	<node id="-597797" lat="59.7163861145" lon="6.08961944425">
		<tag k="alt_name" v="Håland ytre" />
		<tag k="name" v="Ytre Håland" />
>>>>>>> e1d4bc35ff8a6074a6f2e91616a996b547c36f15
		<tag k="place" v="farm" />
		<tag k="ssr:stedsnr" v="63709" />
	</node>
<<<<<<< HEAD
	<node lat="59.69475782769244" lon="6.068144718918308" id="-41527">
		<tag k="alt_name" v="Ekreim" />
		<tag k="fixme" v="consider place=hamlet" />
		<tag k="name" v="Ekrheim" />
=======
	<node id="-597794" lat="59.687941666" lon="6.00586388112">
		<tag k="alt_name" v="Hovland ytre" />
		<tag k="name" v="Ytre Hovland" />
>>>>>>> e1d4bc35ff8a6074a6f2e91616a996b547c36f15
		<tag k="place" v="farm" />
		<tag k="ssr:stedsnr" v="63714" />
	</node>
<<<<<<< HEAD
	<node lat="59.8230500021896" lon="6.245497218763175" id="-41532">
		<tag k="alt_name" v="Miljateigen, nedre;Miljateig nedre;Nedre Miljateig" />
		<tag k="name" v="Nedre Miljateigen" />
=======
	<node id="-597792" lat="59.8199472238" lon="6.1821916722">
		<tag k="historic" v="shieling" />
		<tag k="name" v="Hamarlandstøl" />
>>>>>>> e1d4bc35ff8a6074a6f2e91616a996b547c36f15
		<tag k="place" v="locality" />
		<tag k="ssr:stedsnr" v="64043" />
	</node>
<<<<<<< HEAD
	<node lat="59.70492499671501" lon="5.8241027856592025" id="-41535">
		<tag k="name" v="Ørevik" />
=======
	<node id="-597761" lat="59.7314916682" lon="6.16779167345">
		<tag k="name" v="Tveito" />
>>>>>>> e1d4bc35ff8a6074a6f2e91616a996b547c36f15
		<tag k="place" v="farm" />
		<tag k="ssr:stedsnr" v="64069" />
	</node>
<<<<<<< HEAD
	<node lat="59.806730756607756" lon="6.218938208202058" id="-41537">
=======
	<node id="-597759" lat="59.7061087891" lon="6.07768244554">
		<tag k="alt_name" v="Neset" />
>>>>>>> e1d4bc35ff8a6074a6f2e91616a996b547c36f15
		<tag k="fixme" v="consider place=hamlet" />
		<tag k="name" v="Teigland" />
		<tag k="place" v="farm" />
		<tag k="ssr:stedsnr" v="64077" />
	</node>
<<<<<<< HEAD
	<node lat="59.648549997907296" lon="5.915599993819056" id="-41538">
		<tag k="name" v="Eiriksvik" />
		<tag k="place" v="farm" />
		<tag k="ssr:stedsnr" v="64502" />
	</node>
	<node lat="59.67000555521997" lon="5.9393833373023694" id="-41544">
		<tag k="alt_name" v="Øyno" />
		<tag k="name" v="Øyna" />
=======
	<node id="-597758" lat="59.6967266905" lon="6.09839974476">
		<tag k="fixme" v="consider place=hamlet" />
		<tag k="name" v="Flokatveit" />
		<tag k="place" v="farm" />
		<tag k="ssr:stedsnr" v="3675" />
	</node>
	<node id="-597756" lat="59.6652833293" lon="5.93708333095">
		<tag k="name" v="Etne" />
		<tag k="place" v="village" />
		<tag k="ssr:stedsnr" v="3732" />
	</node>
	<node id="-597755" lat="59.6906015911" lon="6.00859110023">
		<tag k="alt_name" v="Hovland indre" />
		<tag k="fixme" v="consider place=hamlet" />
		<tag k="name" v="Hovland" />
>>>>>>> e1d4bc35ff8a6074a6f2e91616a996b547c36f15
		<tag k="place" v="farm" />
		<tag k="ssr:stedsnr" v="64753" />
	</node>
<<<<<<< HEAD
	<node lat="59.81769446747327" lon="6.2296307357543395" id="-41550">
		<tag k="alt_name" v="Hetleflåt" />
=======
	<node id="-597754" lat="59.6766111193" lon="5.95019054142">
>>>>>>> e1d4bc35ff8a6074a6f2e91616a996b547c36f15
		<tag k="fixme" v="consider place=hamlet" />
		<tag k="name" v="Hetleflota" />
		<tag k="place" v="farm" />
		<tag k="ssr:stedsnr" v="246043" />
	</node>
<<<<<<< HEAD
	<node lat="59.81845000095863" lon="6.229011107646181" id="-41551">
		<tag k="name" v="Markhus" />
		<tag k="place" v="hamlet" />
		<tag k="ssr:stedsnr" v="246047" />
	</node>
	<node lat="59.82381768908759" lon="6.246783865609887" id="-41552">
		<tag k="alt_name" v="Miljateig" />
=======
	<node id="-599728" lat="59.7058772549" lon="5.93823683025">
		<tag k="historic" v="shieling" />
		<tag k="name" v="Tjelleselet" />
		<tag k="place" v="locality" />
		<tag k="ssr:stedsnr" v="1072933" />
	</node>
	<node id="-599726" lat="59.71904379" lon="5.84395893904">
>>>>>>> e1d4bc35ff8a6074a6f2e91616a996b547c36f15
		<tag k="fixme" v="consider place=hamlet" />
		<tag k="name" v="Miljateigen" />
		<tag k="place" v="farm" />
		<tag k="ssr:stedsnr" v="246049" />
	</node>
<<<<<<< HEAD
	<node lat="59.65903332931708" lon="6.053430555901867" id="-41557">
		<tag k="name" v="Halsnes" />
=======
	<node id="-599725" lat="59.7408900925" lon="6.06693748017">
		<tag k="fixme" v="consider place=hamlet" />
		<tag k="name" v="Søhus" />
>>>>>>> e1d4bc35ff8a6074a6f2e91616a996b547c36f15
		<tag k="place" v="farm" />
		<tag k="ssr:stedsnr" v="246470" />
	</node>
<<<<<<< HEAD
	<node lat="59.89012222523144" lon="6.376736116240392" id="-41559">
		<tag k="alt_name" v="Nystøl" />
		<tag k="historic" v="shieling" />
		<tag k="name" v="Nystølen" />
		<tag k="place" v="isolated_dwelling" />
		<tag k="ssr:stedsnr" v="246459" />
	</node>
	<node lat="59.66705114537862" lon="5.7936424037335446" id="-41560">
=======
	<node id="-599724" lat="59.8313766326" lon="6.27074170949">
		<tag k="fixme" v="consider place=hamlet" />
		<tag k="name" v="Glymje" />
		<tag k="place" v="farm" />
		<tag k="ssr:stedsnr" v="990199" />
	</node>
	<node id="-599723" lat="59.8760285696" lon="6.40090440905">
>>>>>>> e1d4bc35ff8a6074a6f2e91616a996b547c36f15
		<tag k="fixme" v="consider place=hamlet" />
		<tag k="name" v="Tveit" />
		<tag k="place" v="farm" />
		<tag k="ssr:stedsnr" v="246460" />
	</node>
<<<<<<< HEAD
	<node lat="59.644294444074006" lon="5.922450001092244" id="-41561">
		<tag k="name" v="Gjerdsvik" />
=======
	<node id="-599722" lat="59.6912804531" lon="6.05321615898">
		<tag k="fixme" v="consider place=hamlet" />
		<tag k="name" v="Åsbø" />
>>>>>>> e1d4bc35ff8a6074a6f2e91616a996b547c36f15
		<tag k="place" v="farm" />
		<tag k="ssr:stedsnr" v="246480" />
	</node>
<<<<<<< HEAD
	<node lat="59.72899757250689" lon="6.160166002434598" id="-41563">
=======
	<node id="-599721" lat="59.7044523254" lon="6.10429228672">
>>>>>>> e1d4bc35ff8a6074a6f2e91616a996b547c36f15
		<tag k="fixme" v="consider place=hamlet" />
		<tag k="name" v="Vinja" />
		<tag k="place" v="farm" />
		<tag k="ssr:stedsnr" v="246644" />
	</node>
<<<<<<< HEAD
	<node lat="59.72675685510855" lon="6.163707816480512" id="-41564">
=======
	<node id="-599720" lat="59.716240598" lon="6.14965095732">
>>>>>>> e1d4bc35ff8a6074a6f2e91616a996b547c36f15
		<tag k="fixme" v="consider place=hamlet" />
		<tag k="name" v="Frette" />
		<tag k="place" v="farm" />
		<tag k="ssr:stedsnr" v="246645" />
	</node>
<<<<<<< HEAD
	<node lat="59.84944722263826" lon="6.227188886566433" id="-41569">
		<tag k="historic" v="shieling" />
		<tag k="name" v="Gamlestølen" />
		<tag k="place" v="isolated_dwelling" />
		<tag k="ssr:stedsnr" v="247007" />
	</node>
	<node lat="59.655725002811835" lon="5.998838889341538" id="-41597">
		<tag k="name" v="Rygg" />
=======
	<node id="-599719" lat="59.7297069553" lon="6.15416574541">
		<tag k="fixme" v="consider place=hamlet" />
		<tag k="name" v="Bjørk" />
		<tag k="place" v="farm" />
		<tag k="ssr:stedsnr" v="990138" />
	</node>
	<node id="-599718" lat="59.6913534246" lon="6.0161728986">
		<tag k="fixme" v="consider place=hamlet" />
		<tag k="name" v="Kallestadbakken" />
>>>>>>> e1d4bc35ff8a6074a6f2e91616a996b547c36f15
		<tag k="place" v="farm" />
		<tag k="ssr:stedsnr" v="98676" />
	</node>
<<<<<<< HEAD
	<node lat="59.74801944109622" lon="5.962141670614551" id="-41609">
		<tag k="name" v="Eikenes" />
=======
	<node id="-599707" lat="59.644396374" lon="5.88020629486">
		<tag k="name" v="Havnen" />
>>>>>>> e1d4bc35ff8a6074a6f2e91616a996b547c36f15
		<tag k="place" v="farm" />
		<tag k="ssr:stedsnr" v="124571" />
	</node>
<<<<<<< HEAD
	<node lat="59.84111666819519" lon="6.21940278381775" id="-41617">
		<tag k="historic" v="shieling" />
		<tag k="name" v="Gjuvsstølen" />
		<tag k="place" v="isolated_dwelling" />
		<tag k="ssr:stedsnr" v="125003" />
	</node>
	<node lat="59.87679721883279" lon="6.406558340431507" id="-41619">
		<tag k="name" v="Flota" />
=======
	<node id="-599706" lat="59.7292831309" lon="5.87905089571">
		<tag k="name" v="Skoglund" />
>>>>>>> e1d4bc35ff8a6074a6f2e91616a996b547c36f15
		<tag k="place" v="farm" />
		<tag k="ssr:stedsnr" v="125024" />
	</node>
<<<<<<< HEAD
	<node lat="59.76988055814304" lon="6.248061115558741" id="-41622">
=======
	<node id="-599703" lat="59.9604638874" lon="6.4332527703">
>>>>>>> e1d4bc35ff8a6074a6f2e91616a996b547c36f15
		<tag k="fixme" v="consider tourism=alpine_hut or tourism=chalet" />
		<tag k="name" v="Blomstølen" />
		<tag k="ssr:stedsnr" v="125070" />
		<tag k="tourism" v="wilderness_hut" />
	</node>
<<<<<<< HEAD
	<node lat="59.76193797463723" lon="6.127592448208961" id="-41629">
		<tag k="fixme" v="consider place=hamlet" />
		<tag k="name" v="Blodteigen" />
=======
	<node id="-599699" lat="59.727696082" lon="5.88926393226">
		<tag k="fixme" v="consider place=hamlet" />
		<tag k="name" v="Tenndalen" />
		<tag k="place" v="farm" />
		<tag k="ssr:stedsnr" v="954921" />
	</node>
	<node id="-599693" lat="59.9074111079" lon="6.34326111162">
		<tag k="historic" v="shieling" />
		<tag k="name" v="Blomstølen" />
		<tag k="place" v="locality" />
		<tag k="ssr:stedsnr" v="854450" />
	</node>
	<node id="-599688" lat="59.815225" lon="6.19251111837">
		<tag k="alt_name" v="Strand" />
		<tag k="name" v="Strond" />
>>>>>>> e1d4bc35ff8a6074a6f2e91616a996b547c36f15
		<tag k="place" v="farm" />
		<tag k="ssr:stedsnr" v="125415" />
	</node>
<<<<<<< HEAD
	<node lat="59.74838333578582" lon="6.182536109367924" id="-41637">
=======
	<node id="-599686" lat="59.8452305526" lon="6.38276944184">
>>>>>>> e1d4bc35ff8a6074a6f2e91616a996b547c36f15
		<tag k="historic" v="shieling" />
		<tag k="name" v="Skjoldalstølen" />
		<tag k="place" v="isolated_dwelling" />
		<tag k="ssr:stedsnr" v="159006" />
	</node>
<<<<<<< HEAD
	<node lat="59.74762222385025" lon="6.2011305523685225" id="-41638">
		<tag k="name" v="Volme" />
=======
	<node id="-599683" lat="59.8620527879" lon="6.31176115738">
		<tag k="fixme" v="consider place=hamlet" />
		<tag k="name" v="Glåmo" />
>>>>>>> e1d4bc35ff8a6074a6f2e91616a996b547c36f15
		<tag k="place" v="farm" />
		<tag k="ssr:stedsnr" v="159009" />
	</node>
<<<<<<< HEAD
	<node lat="59.690516666888776" lon="6.0127083329549755" id="-41647">
=======
	<node id="-599678" lat="59.6878568967" lon="6.02368885033">
>>>>>>> e1d4bc35ff8a6074a6f2e91616a996b547c36f15
		<tag k="fixme" v="consider place=hamlet" />
		<tag k="name" v="Skjeldal" />
		<tag k="place" v="farm" />
		<tag k="ssr:stedsnr" v="159316" />
	</node>
<<<<<<< HEAD
	<node lat="59.72670277826485" lon="6.161880562321997" id="-41654">
		<tag k="name" v="Frette" />
=======
	<node id="-599674" lat="59.6756280079" lon="5.90328839825">
		<tag k="fixme" v="consider place=hamlet" />
		<tag k="name" v="Øvstebø" />
>>>>>>> e1d4bc35ff8a6074a6f2e91616a996b547c36f15
		<tag k="place" v="farm" />
		<tag k="ssr:stedsnr" v="159516" />
	</node>
<<<<<<< HEAD
	<node lat="59.76124166458829" lon="5.943969444065325" id="-41659">
=======
	<node id="-599673" lat="59.6978262385" lon="6.10143818881">
		<tag k="alt_name" v="Kvamen" />
>>>>>>> e1d4bc35ff8a6074a6f2e91616a996b547c36f15
		<tag k="fixme" v="consider place=hamlet" />
		<tag k="name" v="Midtra Vannes" />
		<tag k="place" v="farm" />
		<tag k="ssr:stedsnr" v="165922" />
	</node>
<<<<<<< HEAD
	<node lat="59.738661114494015" lon="5.94355555068776" id="-41660">
		<tag k="name" v="Træet" />
=======
	<node id="-599670" lat="59.6583996794" lon="5.98084087834">
		<tag k="fixme" v="consider place=hamlet" />
		<tag k="name" v="Steine" />
>>>>>>> e1d4bc35ff8a6074a6f2e91616a996b547c36f15
		<tag k="place" v="farm" />
		<tag k="ssr:stedsnr" v="165924" />
	</node>
<<<<<<< HEAD
	<node lat="59.65546110848398" lon="5.793825003508901" id="-41661">
		<tag k="alt_name" v="Skare" />
		<tag k="name" v="Skarde" />
=======
	<node id="-599662" lat="59.7346930318" lon="5.92372681837">
		<tag k="fixme" v="consider place=hamlet" />
		<tag k="name" v="Skålnes" />
>>>>>>> e1d4bc35ff8a6074a6f2e91616a996b547c36f15
		<tag k="place" v="farm" />
		<tag k="ssr:stedsnr" v="185435" />
	</node>
<<<<<<< HEAD
	<node lat="59.59856111524954" lon="6.134911116496083" id="-41664">
		<tag k="alt_name" v="Bjørndalen, nordre" />
		<tag k="historic" v="shieling" />
		<tag k="name" v="Nordre Bjørndalen" />
		<tag k="place" v="isolated_dwelling" />
		<tag k="ssr:stedsnr" v="185511" />
	</node>
	<node lat="59.6916055581053" lon="6.1659583330057925" id="-41668">
		<tag k="alt_name" v="Håeimstølen" />
		<tag k="historic" v="shieling" />
		<tag k="name" v="Håheimstølen" />
		<tag k="place" v="isolated_dwelling" />
		<tag k="ssr:stedsnr" v="185705" />
	</node>
	<node lat="59.67019167060453" lon="6.110713893988564" id="-41669">
		<tag k="historic" v="shieling" />
		<tag k="name" v="Undsteinsstølen" />
		<tag k="place" v="isolated_dwelling" />
		<tag k="ssr:stedsnr" v="185711" />
	</node>
	<node lat="59.849855557381474" lon="6.232905552794002" id="-41672">
		<tag k="name" v="Bakkaløa" />
		<tag k="place" v="locality" />
		<tag k="ssr:stedsnr" v="186014" />
	</node>
	<node lat="59.687941666009095" lon="6.005863881115482" id="-41699">
		<tag k="alt_name" v="Hovland ytre" />
		<tag k="name" v="Ytre Hovland" />
=======
	<node id="-599661" lat="59.7488888916" lon="5.95622499213">
		<tag k="name" v="Breidvik" />
		<tag k="place" v="farm" />
		<tag k="ssr:stedsnr" v="852624" />
	</node>
	<node id="-599659" lat="59.6590756879" lon="5.92229044465">
		<tag k="fixme" v="consider place=hamlet" />
		<tag k="name" v="Matskår" />
		<tag k="place" v="farm" />
		<tag k="ssr:stedsnr" v="849281" />
	</node>
	<node id="-599656" lat="59.7322916635" lon="5.94248333247">
		<tag k="name" v="Stykket" />
		<tag k="place" v="farm" />
		<tag k="ssr:stedsnr" v="833945" />
	</node>
	<node id="-599655" lat="59.7481194449" lon="5.9496194417">
		<tag k="name" v="Breidvik" />
		<tag k="place" v="farm" />
		<tag k="ssr:stedsnr" v="833944" />
	</node>
	<node id="-599654" lat="59.7399305544" lon="6.11687222816">
		<tag k="name" v="Nylende" />
>>>>>>> e1d4bc35ff8a6074a6f2e91616a996b547c36f15
		<tag k="place" v="farm" />
		<tag k="ssr:stedsnr" v="220313" />
	</node>
<<<<<<< HEAD
	<node lat="59.71638611454444" lon="6.089619444245889" id="-41702">
		<tag k="alt_name" v="Håland ytre" />
		<tag k="name" v="Ytre Håland" />
=======
	<node id="-599628" lat="59.8373166705" lon="6.30153333604">
		<tag k="name" v="Rotalsviknes" />
>>>>>>> e1d4bc35ff8a6074a6f2e91616a996b547c36f15
		<tag k="place" v="farm" />
		<tag k="ssr:stedsnr" v="220373" />
	</node>
<<<<<<< HEAD
	<node lat="59.74660000223601" lon="6.196388883656598" id="-41716">
		<tag k="name" v="Volme" />
=======
	<node id="-599624" lat="59.8369166685" lon="6.22911110228">
		<tag k="name" v="Djuve" />
>>>>>>> e1d4bc35ff8a6074a6f2e91616a996b547c36f15
		<tag k="place" v="farm" />
		<tag k="ssr:stedsnr" v="245632" />
	</node>
<<<<<<< HEAD
	<node lat="59.685430554528196" lon="5.791899996433855" id="-41718">
		<tag k="name" v="Husavika" />
=======
	<node id="-599606" lat="59.6745194475" lon="5.90628055921">
		<tag k="name" v="Fjøsna (yttre)" />
>>>>>>> e1d4bc35ff8a6074a6f2e91616a996b547c36f15
		<tag k="place" v="farm" />
		<tag k="ssr:stedsnr" v="246016" />
	</node>
<<<<<<< HEAD
	<node lat="59.76039167051347" lon="6.245513894428549" id="-41719">
		<tag k="historic" v="shieling" />
		<tag k="name" v="Røssedalen" />
		<tag k="place" v="isolated_dwelling" />
		<tag k="ssr:stedsnr" v="246124" />
	</node>
	<node lat="59.65750582843844" lon="5.9607815749008255" id="-41723">
		<tag k="alt_name" v="Gralsete" />
=======
	<node id="-599605" lat="59.6387999971" lon="5.89026110795">
		<tag k="name" v="Åsen" />
		<tag k="place" v="farm" />
		<tag k="ssr:stedsnr" v="826519" />
	</node>
	<node id="-599584" lat="59.8346560969" lon="6.28851519002">
		<tag k="alt_name" v="Visskjær" />
>>>>>>> e1d4bc35ff8a6074a6f2e91616a996b547c36f15
		<tag k="fixme" v="consider place=hamlet" />
		<tag k="name" v="Grallsete" />
		<tag k="place" v="farm" />
		<tag k="ssr:stedsnr" v="246708" />
	</node>
<<<<<<< HEAD
	<node lat="59.650810377472254" lon="5.921982866577302" id="-41724">
=======
	<node id="-599583" lat="59.8366571806" lon="6.23103733556">
		<tag k="alt_name" v="Djuve" />
>>>>>>> e1d4bc35ff8a6074a6f2e91616a996b547c36f15
		<tag k="fixme" v="consider place=hamlet" />
		<tag k="name" v="Vågen" />
		<tag k="place" v="farm" />
		<tag k="ssr:stedsnr" v="246709" />
	</node>
<<<<<<< HEAD
	<node lat="59.77098055498395" lon="6.17737221811331" id="-41727">
		<tag k="historic" v="shieling" />
		<tag k="name" v="Øyskarstølen" />
		<tag k="place" v="isolated_dwelling" />
		<tag k="ssr:stedsnr" v="280111" />
	</node>
	<node lat="59.74692222374966" lon="6.196016673417408" id="-41743">
		<tag k="name" v="Halleland" />
=======
	<node id="-599582" lat="59.8210194445" lon="6.23870555783">
		<tag k="alt_name" v="Bråte" />
		<tag k="name" v="Brotet" />
		<tag k="place" v="farm" />
		<tag k="ssr:stedsnr" v="793036" />
	</node>
	<node id="-599580" lat="59.6654450251" lon="5.96624193651">
		<tag k="alt_name" v="Søreim" />
		<tag k="fixme" v="consider place=hamlet" />
		<tag k="name" v="Sørheim" />
>>>>>>> e1d4bc35ff8a6074a6f2e91616a996b547c36f15
		<tag k="place" v="farm" />
		<tag k="ssr:stedsnr" v="281004" />
	</node>
<<<<<<< HEAD
	<node lat="59.73406602377067" lon="6.044432010643006" id="-41744">
=======
	<node id="-599579" lat="59.6694302613" lon="5.98448055158">
		<tag k="alt_name" v="Austreim" />
>>>>>>> e1d4bc35ff8a6074a6f2e91616a996b547c36f15
		<tag k="fixme" v="consider place=hamlet" />
		<tag k="name" v="Vatnedalstveito" />
		<tag k="place" v="farm" />
		<tag k="ssr:stedsnr" v="287881" />
	</node>
<<<<<<< HEAD
	<node lat="59.844347223562494" lon="6.215213882169494" id="-41748">
		<tag k="historic" v="shieling" />
		<tag k="name" v="Selborga" />
		<tag k="place" v="isolated_dwelling" />
		<tag k="ssr:stedsnr" v="462131" />
	</node>
	<node lat="59.725727775251485" lon="6.167608340264393" id="-41760">
		<tag k="name" v="Solberget" />
=======
	<node id="-599573" lat="59.7291428255" lon="6.06219097511">
		<tag k="alt_name" v="Vatndal" />
		<tag k="fixme" v="consider place=hamlet" />
		<tag k="name" v="Vatnedalen" />
>>>>>>> e1d4bc35ff8a6074a6f2e91616a996b547c36f15
		<tag k="place" v="farm" />
		<tag k="ssr:stedsnr" v="462437" />
	</node>
<<<<<<< HEAD
	<node lat="59.650152776999654" lon="5.9100027779300754" id="-41766">
		<tag k="name" v="Osnes" />
=======
	<node id="-599571" lat="59.7221739016" lon="5.86351384696">
		<tag k="fixme" v="consider place=hamlet" />
		<tag k="name" v="Molnes" />
>>>>>>> e1d4bc35ff8a6074a6f2e91616a996b547c36f15
		<tag k="place" v="farm" />
		<tag k="ssr:stedsnr" v="462516" />
	</node>
<<<<<<< HEAD
	<node lat="59.715961112515885" lon="5.916294437079875" id="-41773">
		<tag k="historic" v="shieling" />
		<tag k="name" v="Leknesstølen" />
		<tag k="place" v="isolated_dwelling" />
		<tag k="ssr:stedsnr" v="462549" />
	</node>
	<node lat="59.5975222211564" lon="5.991569442170581" id="-41775">
		<tag k="historic" v="shieling" />
		<tag k="name" v="Borgnystølen" />
		<tag k="place" v="isolated_dwelling" />
		<tag k="ssr:stedsnr" v="462650" />
	</node>
	<node lat="59.60910000319685" lon="6.012608335405187" id="-41784">
		<tag k="historic" v="shieling" />
		<tag k="name" v="Kattastølen" />
		<tag k="place" v="isolated_dwelling" />
		<tag k="ssr:stedsnr" v="306522" />
	</node>
	<node lat="59.74280969220573" lon="6.115018482875334" id="-41787">
		<tag k="name" v="Sævareid" />
		<tag k="place" v="hamlet" />
		<tag k="ssr:stedsnr" v="306614" />
	</node>
	<node lat="59.74209911806329" lon="6.194511320349655" id="-41788">
=======
	<node id="-599568" lat="59.6539225819" lon="5.96889014353">
		<tag k="alt_name" v="Fossa ytre" />
		<tag k="name" v="Fossa" />
		<tag k="place" v="hamlet" />
		<tag k="ssr:stedsnr" v="792498" />
	</node>
	<node id="-599565" lat="59.6589888879" lon="5.79511389547">
		<tag k="alt_name" v="Skjervik" />
		<tag k="name" v="Skjersvika" />
		<tag k="place" v="farm" />
		<tag k="ssr:stedsnr" v="792460" />
	</node>
	<node id="-599560" lat="59.7863792745" lon="6.1761335975">
		<tag k="alt_name" v="Rafdal, nedre;Rafdal;Rafdal nedre" />
		<tag k="fixme" v="consider place=hamlet" />
		<tag k="name" v="Nedre Rafdal" />
		<tag k="place" v="farm" />
		<tag k="ssr:stedsnr" v="792334" />
	</node>
	<node id="-599559" lat="59.7844924954" lon="6.17312978316">
		<tag k="alt_name" v="Rafdal, øvre;Rafdal;Rafdal øvre" />
>>>>>>> e1d4bc35ff8a6074a6f2e91616a996b547c36f15
		<tag k="fixme" v="consider place=hamlet" />
		<tag k="name" v="Skjold" />
		<tag k="place" v="farm" />
		<tag k="ssr:stedsnr" v="306621" />
	</node>
<<<<<<< HEAD
	<node lat="59.745361113814866" lon="6.177375006280015" id="-41789">
=======
	<node id="-599556" lat="59.8236166677" lon="6.30010556169">
>>>>>>> e1d4bc35ff8a6074a6f2e91616a996b547c36f15
		<tag k="historic" v="shieling" />
		<tag k="name" v="Tveitastølen" />
		<tag k="place" v="isolated_dwelling" />
		<tag k="ssr:stedsnr" v="306622" />
	</node>
<<<<<<< HEAD
	<node lat="59.69684977152496" lon="6.166547402019678" id="-41790">
		<tag k="historic" v="shieling" />
		<tag k="name" v="Flåtestølen" />
		<tag k="place" v="isolated_dwelling" />
		<tag k="ssr:stedsnr" v="306682" />
	</node>
	<node lat="59.83663101024241" lon="6.2426765659840475" id="-41793">
		<tag k="alt_name" v="Tysseteigen" />
=======
	<node id="-599552" lat="59.6647315528" lon="5.87308572586">
		<tag k="alt_name" v="Rivås" />
>>>>>>> e1d4bc35ff8a6074a6f2e91616a996b547c36f15
		<tag k="fixme" v="consider place=hamlet" />
		<tag k="name" v="Teigen" />
		<tag k="place" v="farm" />
		<tag k="ssr:stedsnr" v="307052" />
	</node>
<<<<<<< HEAD
	<node lat="59.83091694208032" lon="6.2541847410287215" id="-41794">
=======
	<node id="-599551" lat="59.6725378093" lon="5.9680461672">
		<tag k="alt_name" v="Støle" />
>>>>>>> e1d4bc35ff8a6074a6f2e91616a996b547c36f15
		<tag k="fixme" v="consider place=hamlet" />
		<tag k="name" v="Skålnes" />
		<tag k="place" v="farm" />
		<tag k="ssr:stedsnr" v="307054" />
	</node>
<<<<<<< HEAD
	<node lat="59.83775833377772" lon="6.348280554962259" id="-41795">
		<tag k="historic" v="shieling" />
		<tag k="name" v="Langfosstølen" />
		<tag k="place" v="isolated_dwelling" />
		<tag k="ssr:stedsnr" v="307057" />
	</node>
	<node lat="59.844638606107424" lon="6.269759713062897" id="-41796">
		<tag k="alt_name" v="Tøsse" />
=======
	<node id="-599550" lat="59.7360444448" lon="6.02538055851">
		<tag k="alt_name" v="Tungesvika, in" />
>>>>>>> e1d4bc35ff8a6074a6f2e91616a996b547c36f15
		<tag k="fixme" v="consider place=hamlet" />
		<tag k="name" v="Tysse" />
		<tag k="place" v="farm" />
		<tag k="ssr:stedsnr" v="307061" />
	</node>
<<<<<<< HEAD
	<node lat="59.87269444170417" lon="6.2616722252411785" id="-41800">
		<tag k="historic" v="shieling" />
		<tag k="name" v="Vetrhus" />
		<tag k="place" v="isolated_dwelling" />
		<tag k="ssr:stedsnr" v="307512" />
	</node>
	<node lat="59.70663055380986" lon="5.828233336518686" id="-41804">
		<tag k="name" v="Årvik" />
=======
	<node id="-599541" lat="59.6785666698" lon="5.9529805511">
		<tag k="name" v="Støle" />
>>>>>>> e1d4bc35ff8a6074a6f2e91616a996b547c36f15
		<tag k="place" v="farm" />
		<tag k="ssr:stedsnr" v="468960" />
	</node>
<<<<<<< HEAD
	<node lat="59.73450000050499" lon="5.908158342044322" id="-41805">
		<tag k="name" v="Leknes" />
		<tag k="place" v="farm" />
		<tag k="ssr:stedsnr" v="324478" />
	</node>
	<node lat="59.84968888671183" lon="6.233947217649752" id="-41814">
		<tag k="historic" v="shieling" />
		<tag k="name" v="Selborga" />
		<tag k="place" v="isolated_dwelling" />
		<tag k="ssr:stedsnr" v="341117" />
	</node>
	<node lat="59.66626389222207" lon="6.078963896530873" id="-41822">
		<tag k="name" v="Viveli" />
=======
	<node id="-599539" lat="59.6595194476" lon="6.01297500059">
		<tag k="name" v="Berge" />
		<tag k="place" v="hamlet" />
		<tag k="ssr:stedsnr" v="766693" />
	</node>
	<node id="-599538" lat="59.6538499972" lon="6.019186118">
		<tag k="amenity" v="school" />
		<tag k="name" v="Etne jordbruksskule" />
		<tag k="ssr:stedsnr" v="766688" />
	</node>
	<node id="-599529" lat="59.8761305536" lon="6.4065333254">
		<tag k="name" v="Austarheim" />
>>>>>>> e1d4bc35ff8a6074a6f2e91616a996b547c36f15
		<tag k="place" v="farm" />
		<tag k="ssr:stedsnr" v="341406" />
	</node>
<<<<<<< HEAD
	<node lat="59.819508337659954" lon="6.283505560700761" id="-41835">
		<tag k="historic" v="shieling" />
		<tag k="name" v="Skålnesstølen" />
		<tag k="place" v="isolated_dwelling" />
		<tag k="ssr:stedsnr" v="367076" />
	</node>
	<node lat="59.66090000167667" lon="6.012777770506724" id="-41837">
		<tag k="name" v="Nedraberge" />
=======
	<node id="-599517" lat="59.6632472253" lon="5.93732221802">
		<tag k="name" v="Gjerde" />
		<tag k="place" v="farm" />
		<tag k="ssr:stedsnr" v="765576" />
	</node>
	<node id="-599499" lat="59.6384611146" lon="5.88454444427">
		<tag k="name" v="Ve" />
>>>>>>> e1d4bc35ff8a6074a6f2e91616a996b547c36f15
		<tag k="place" v="farm" />
		<tag k="ssr:stedsnr" v="367433" />
	</node>
<<<<<<< HEAD
	<node lat="59.66935032686735" lon="6.071076335229836" id="-41843">
		<tag k="alt_name" v="Onstein" />
=======
	<node id="-599483" lat="59.668288916" lon="6.00532419335">
		<tag k="alt_name" v="Grindeim" />
>>>>>>> e1d4bc35ff8a6074a6f2e91616a996b547c36f15
		<tag k="fixme" v="consider place=hamlet" />
		<tag k="name" v="Undstein" />
		<tag k="place" v="farm" />
		<tag k="ssr:stedsnr" v="367720" />
	</node>
<<<<<<< HEAD
	<node lat="59.667043749744714" lon="6.0661755757039995" id="-41844">
		<tag k="fixme" v="consider place=hamlet" />
		<tag k="name" v="Gunnegjerd" />
=======
	<node id="-599479" lat="59.7037638857" lon="5.82210834058">
		<tag k="name" v="Teigane" />
>>>>>>> e1d4bc35ff8a6074a6f2e91616a996b547c36f15
		<tag k="place" v="farm" />
		<tag k="ssr:stedsnr" v="367722" />
	</node>
<<<<<<< HEAD
	<node lat="59.82841667062165" lon="6.189402773007185" id="-41850">
		<tag k="alt_name" v="Bjellandstølen" />
=======
	<node id="-599474" lat="59.73796111" lon="6.1511888912">
>>>>>>> e1d4bc35ff8a6074a6f2e91616a996b547c36f15
		<tag k="historic" v="shieling" />
		<tag k="name" v="Bjellandsstøl" />
		<tag k="place" v="isolated_dwelling" />
		<tag k="ssr:stedsnr" v="368226" />
	</node>
<<<<<<< HEAD
	<node lat="59.63905000124651" lon="5.9135805545304745" id="-41854">
		<tag k="name" v="Osvåg" />
=======
	<node id="-599472" lat="59.7443104169" lon="6.10991075073">
		<tag k="alt_name" v="Sævareid nedre" />
		<tag k="fixme" v="consider place=hamlet" />
		<tag k="name" v="Nedre Sævareid" />
>>>>>>> e1d4bc35ff8a6074a6f2e91616a996b547c36f15
		<tag k="place" v="farm" />
		<tag k="ssr:stedsnr" v="388706" />
	</node>
<<<<<<< HEAD
	<node lat="59.66913981537001" lon="5.792300205369561" id="-41883">
		<tag k="alt_name" v="Nervik" />
		<tag k="fixme" v="consider place=hamlet" />
		<tag k="name" v="Nervika" />
=======
	<node id="-599468" lat="59.6603833315" lon="6.05682777327">
		<tag k="name" v="Halsnes" />
>>>>>>> e1d4bc35ff8a6074a6f2e91616a996b547c36f15
		<tag k="place" v="farm" />
		<tag k="ssr:stedsnr" v="488027" />
	</node>
<<<<<<< HEAD
	<node lat="59.6459141115125" lon="5.851941071329592" id="-41887">
		<tag k="fixme" v="consider place=hamlet" />
		<tag k="name" v="Veste" />
		<tag k="place" v="farm" />
		<tag k="ssr:stedsnr" v="488486" />
	</node>
	<node lat="59.712513890932996" lon="6.098650000013488" id="-41891">
		<tag k="name" v="Bjørndalen" />
=======
	<node id="-599467" lat="59.7146638894" lon="6.10500277356">
		<tag k="name" v="Øvernes" />
		<tag k="place" v="farm" />
		<tag k="ssr:stedsnr" v="644317" />
	</node>
	<node id="-599464" lat="59.7257" lon="5.98173056387">
		<tag k="historic" v="shieling" />
		<tag k="name" v="Nystøl" />
		<tag k="place" v="locality" />
		<tag k="ssr:stedsnr" v="644277" />
	</node>
	<node id="-599433" lat="59.7622553836" lon="6.20509426722">
		<tag k="alt_name" v="Gloppa" />
		<tag k="historic" v="shieling" />
		<tag k="name" v="Gloppo" />
		<tag k="place" v="locality" />
		<tag k="ssr:stedsnr" v="610434" />
	</node>
	<node id="-599430" lat="59.7656555561" lon="5.93928333369">
		<tag k="name" v="Ytravannes" />
>>>>>>> e1d4bc35ff8a6074a6f2e91616a996b547c36f15
		<tag k="place" v="farm" />
		<tag k="ssr:stedsnr" v="488672" />
	</node>
<<<<<<< HEAD
	<node lat="59.695683576901445" lon="6.073028499367509" id="-41892">
=======
	<node id="-599417" lat="59.6518139417" lon="5.99323020455">
>>>>>>> e1d4bc35ff8a6074a6f2e91616a996b547c36f15
		<tag k="fixme" v="consider place=hamlet" />
		<tag k="name" v="Sande" />
		<tag k="place" v="farm" />
		<tag k="ssr:stedsnr" v="488688" />
	</node>
<<<<<<< HEAD
	<node lat="59.8495527822273" lon="6.470122219877095" id="-41897">
		<tag k="historic" v="shieling" />
		<tag k="name" v="Nystølen" />
		<tag k="place" v="isolated_dwelling" />
		<tag k="ssr:stedsnr" v="489072" />
	</node>
	<node lat="59.639283021024745" lon="5.88455109171556" id="-41904">
=======
	<node id="-599416" lat="59.6328527812" lon="5.96084999692">
		<tag k="historic" v="shieling" />
		<tag k="name" v="Mostølen" />
		<tag k="place" v="locality" />
		<tag k="ssr:stedsnr" v="609484" />
	</node>
	<node id="-599415" lat="59.6619138854" lon="5.97952778487">
		<tag k="name" v="Steinshagen" />
		<tag k="place" v="farm" />
		<tag k="ssr:stedsnr" v="609473" />
	</node>
	<node id="-599413" lat="59.6614370126" lon="5.92750586926">
>>>>>>> e1d4bc35ff8a6074a6f2e91616a996b547c36f15
		<tag k="fixme" v="consider place=hamlet" />
		<tag k="name" v="Ve" />
		<tag k="place" v="farm" />
		<tag k="ssr:stedsnr" v="424497" />
	</node>
<<<<<<< HEAD
	<node lat="59.64113001314221" lon="5.9043042220722946" id="-41909">
=======
	<node id="-599412" lat="59.6635638438" lon="6.0928231854">
>>>>>>> e1d4bc35ff8a6074a6f2e91616a996b547c36f15
		<tag k="fixme" v="consider place=hamlet" />
		<tag k="name" v="Eikanes" />
		<tag k="place" v="farm" />
		<tag k="ssr:stedsnr" v="428472" />
	</node>
<<<<<<< HEAD
	<node lat="59.71620876495938" lon="6.095425345226046" id="-41910">
		<tag k="alt_name" v="Håland indre" />
		<tag k="name" v="Håland" />
		<tag k="place" v="hamlet" />
		<tag k="ssr:stedsnr" v="428681" />
	</node>
	<node lat="59.85749166715629" lon="6.46432222167312" id="-41916">
		<tag k="alt_name" v="Mjølkestølen" />
		<tag k="historic" v="shieling" />
		<tag k="name" v="Mjelkestølen" />
		<tag k="place" v="isolated_dwelling" />
		<tag k="ssr:stedsnr" v="429006" />
	</node>
	<node lat="59.811847136468984" lon="6.172218658895033" id="-41917">
=======
	<node id="-599406" lat="59.7393583332" lon="6.06747499377">
		<tag k="name" v="Osphaug" />
		<tag k="place" v="locality" />
		<tag k="ssr:stedsnr" v="590866" />
	</node>
	<node id="-599405" lat="59.6417749982" lon="5.92096111398">
>>>>>>> e1d4bc35ff8a6074a6f2e91616a996b547c36f15
		<tag k="fixme" v="consider place=hamlet" />
		<tag k="name" v="Kvanndal" />
		<tag k="place" v="farm" />
		<tag k="ssr:stedsnr" v="429187" />
	</node>
<<<<<<< HEAD
	<node lat="59.83929999582488" lon="6.20932499489328" id="-41918">
		<tag k="alt_name" v="Intveitstølen" />
=======
	<node id="-599399" lat="59.8820666684" lon="6.4933916617">
		<tag k="alt_name" v="Skrommestølen øvre" />
>>>>>>> e1d4bc35ff8a6074a6f2e91616a996b547c36f15
		<tag k="historic" v="shieling" />
		<tag k="name" v="Eintveitstølen" />
		<tag k="place" v="isolated_dwelling" />
		<tag k="ssr:stedsnr" v="429191" />
	</node>
<<<<<<< HEAD
	<node lat="59.804066663892144" lon="6.23871943866162" id="-41922">
		<tag k="alt_name" v="Hetleflåtstølen" />
=======
	<node id="-599395" lat="59.6175777812" lon="5.90174722874">
>>>>>>> e1d4bc35ff8a6074a6f2e91616a996b547c36f15
		<tag k="historic" v="shieling" />
		<tag k="name" v="Hetleflotstølen" />
		<tag k="place" v="isolated_dwelling" />
		<tag k="ssr:stedsnr" v="671080" />
	</node>
<<<<<<< HEAD
	<node lat="59.8117194440922" lon="6.219819448314412" id="-41924">
		<tag k="alt_name" v="Inntveita" />
		<tag k="name" v="Vesle Eintveit" />
=======
	<node id="-599383" lat="59.6420063033" lon="5.91579277154">
		<tag k="fixme" v="consider place=hamlet" />
		<tag k="name" v="Osvåg" />
>>>>>>> e1d4bc35ff8a6074a6f2e91616a996b547c36f15
		<tag k="place" v="farm" />
		<tag k="ssr:stedsnr" v="671095" />
	</node>
<<<<<<< HEAD
	<node lat="59.79303888964622" lon="6.206950006333403" id="-41927">
=======
	<node id="-599369" lat="59.6861000031" lon="6.1276750014">
>>>>>>> e1d4bc35ff8a6074a6f2e91616a996b547c36f15
		<tag k="historic" v="shieling" />
		<tag k="name" v="Ripelen" />
		<tag k="place" v="isolated_dwelling" />
		<tag k="ssr:stedsnr" v="671334" />
	</node>
<<<<<<< HEAD
	<node lat="59.75942499913437" lon="6.1940861125373425" id="-41929">
=======
	<node id="-599363" lat="59.7466472189" lon="6.15873333042">
>>>>>>> e1d4bc35ff8a6074a6f2e91616a996b547c36f15
		<tag k="historic" v="shieling" />
		<tag k="name" v="Gamlestølen" />
		<tag k="place" v="isolated_dwelling" />
		<tag k="ssr:stedsnr" v="671393" />
	</node>
<<<<<<< HEAD
	<node lat="59.7523640104338" lon="6.204078989771289" id="-41930">
		<tag k="alt_name" v="Øyno" />
=======
	<node id="-599359" lat="59.8814345618" lon="6.46471896189">
		<tag k="alt_name" v="Skromme" />
>>>>>>> e1d4bc35ff8a6074a6f2e91616a996b547c36f15
		<tag k="fixme" v="consider place=hamlet" />
		<tag k="name" v="Øyna" />
		<tag k="place" v="farm" />
		<tag k="ssr:stedsnr" v="671399" />
	</node>
<<<<<<< HEAD
	<node lat="59.9258361088841" lon="6.37960555544216" id="-41933">
		<tag k="historic" v="shieling" />
		<tag k="name" v="Sandvikestølen" />
		<tag k="place" v="isolated_dwelling" />
		<tag k="ssr:stedsnr" v="671455" />
	</node>
	<node lat="59.88942260224475" lon="6.320904117665857" id="-41935">
		<tag k="loc_name" v="Londalen" />
		<tag k="name" v="Lunddalen" />
		<tag k="place" v="locality" />
		<tag k="ssr:stedsnr" v="671479" />
	</node>
	<node lat="59.65462499919253" lon="5.833925005314234" id="-41936">
		<tag k="name" v="Holmaseid" />
		<tag k="place" v="farm" />
		<tag k="ssr:stedsnr" v="671481" />
	</node>
	<node lat="59.62480278164681" lon="5.93090556008554" id="-41951">
=======
	<node id="-599356" lat="59.9053725939" lon="6.49369148632">
		<tag k="alt_name" v="Bergstød" />
		<tag k="fixme" v="consider place=hamlet" />
		<tag k="name" v="Bergstø" />
		<tag k="place" v="farm" />
		<tag k="ssr:stedsnr" v="550467" />
	</node>
	<node id="-599350" lat="59.766102796" lon="5.93821695565">
		<tag k="alt_name" v="Vannes aust;Indra Vannes" />
		<tag k="fixme" v="consider place=hamlet" />
		<tag k="name" v="Vannes" />
		<tag k="place" v="farm" />
		<tag k="ssr:stedsnr" v="550370" />
	</node>
	<node id="-599339" lat="59.8463305594" lon="6.45679444113">
		<tag k="fixme" v="consider tourism=alpine_hut or tourism=chalet" />
		<tag k="name" v="Simlebu" />
		<tag k="ssr:stedsnr" v="550067" />
		<tag k="tourism" v="wilderness_hut" />
	</node>
	<node id="-599334" lat="59.8649833289" lon="6.39883332534">
>>>>>>> e1d4bc35ff8a6074a6f2e91616a996b547c36f15
		<tag k="historic" v="shieling" />
		<tag k="name" v="Engelsgjerdstølen" />
		<tag k="place" v="isolated_dwelling" />
		<tag k="ssr:stedsnr" v="462610" />
	</node>
<<<<<<< HEAD
	<node lat="59.637058337155665" lon="5.889086108735437" id="-41952">
		<tag k="name" v="Åsen" />
=======
	<node id="-599330" lat="59.65924075" lon="5.92153265689">
		<tag k="name" v="Matskår" />
>>>>>>> e1d4bc35ff8a6074a6f2e91616a996b547c36f15
		<tag k="place" v="farm" />
		<tag k="ssr:stedsnr" v="462611" />
	</node>
<<<<<<< HEAD
	<node lat="59.62745278196645" lon="5.9103222244141485" id="-41953">
=======
	<node id="-599329" lat="59.6903000018" lon="6.12835278328">
>>>>>>> e1d4bc35ff8a6074a6f2e91616a996b547c36f15
		<tag k="historic" v="shieling" />
		<tag k="name" v="Eikanesstølen" />
		<tag k="place" v="isolated_dwelling" />
		<tag k="ssr:stedsnr" v="462619" />
	</node>
<<<<<<< HEAD
	<node lat="59.628805552282905" lon="5.920461109320752" id="-41954">
		<tag k="historic" v="shieling" />
		<tag k="name" v="Gamlestølen" />
		<tag k="place" v="isolated_dwelling" />
		<tag k="ssr:stedsnr" v="462621" />
	</node>
	<node lat="59.59412500389064" lon="6.000208324922461" id="-41957">
		<tag k="historic" v="shieling" />
		<tag k="name" v="Nystølen" />
		<tag k="place" v="isolated_dwelling" />
		<tag k="ssr:stedsnr" v="462724" />
	</node>
	<node lat="59.730880555544566" lon="5.935469443755108" id="-41958">
=======
	<node id="-599327" lat="59.6746096797" lon="5.93230241914">
		<tag k="alt_name" v="Fitje" />
		<tag k="fixme" v="consider place=hamlet" />
		<tag k="name" v="Fitja" />
		<tag k="place" v="farm" />
		<tag k="ssr:stedsnr" v="549703" />
	</node>
	<node id="-599317" lat="59.7214173326" lon="5.96989772551">
>>>>>>> e1d4bc35ff8a6074a6f2e91616a996b547c36f15
		<tag k="fixme" v="consider place=hamlet" />
		<tag k="name" v="Milja" />
		<tag k="place" v="farm" />
		<tag k="ssr:stedsnr" v="462731" />
	</node>
<<<<<<< HEAD
	<node lat="59.73096389039222" lon="5.911905561045103" id="-41963">
		<tag k="name" v="Leite" />
		<tag k="place" v="isolated_dwelling" />
		<tag k="ssr:stedsnr" v="468909" />
	</node>
	<node lat="59.681796937189375" lon="6.0162447186268615" id="-41973">
		<tag k="alt_name" v="Ramsvik" />
		<tag k="fixme" v="consider place=hamlet" />
		<tag k="name" v="Ramsvika" />
=======
	<node id="-599308" lat="59.6528638913" lon="6.02150000334">
		<tag k="name" v="Etne" />
>>>>>>> e1d4bc35ff8a6074a6f2e91616a996b547c36f15
		<tag k="place" v="farm" />
		<tag k="ssr:stedsnr" v="488722" />
	</node>
<<<<<<< HEAD
	<node lat="59.85431285542708" lon="6.336720665831232" id="-41978">
=======
	<node id="-599307" lat="59.6390574774" lon="5.90045315102">
>>>>>>> e1d4bc35ff8a6074a6f2e91616a996b547c36f15
		<tag k="fixme" v="consider place=hamlet" />
		<tag k="name" v="Mosnes" />
		<tag k="place" v="farm" />
		<tag k="ssr:stedsnr" v="489008" />
	</node>
<<<<<<< HEAD
	<node lat="59.81317939472181" lon="6.187673368030073" id="-41984">
		<tag k="alt_name" v="Hamarsland" />
=======
	<node id="-599297" lat="59.6719177165" lon="5.95119875789">
>>>>>>> e1d4bc35ff8a6074a6f2e91616a996b547c36f15
		<tag k="fixme" v="consider place=hamlet" />
		<tag k="name" v="Hammarsland" />
		<tag k="place" v="farm" />
		<tag k="ssr:stedsnr" v="489220" />
	</node>
<<<<<<< HEAD
	<node lat="59.90591944462306" lon="6.339713887924703" id="-41995">
		<tag k="historic" v="shieling" />
		<tag k="name" v="Lona" />
=======
	<node id="-599296" lat="59.7405916681" lon="6.11880833902">
		<tag k="name" v="Tono" />
>>>>>>> e1d4bc35ff8a6074a6f2e91616a996b547c36f15
		<tag k="place" v="isolated_dwelling" />
		<tag k="ssr:stedsnr" v="489491" />
	</node>
	<node lat="59.795024997669344" lon="6.237625001278157" id="-41997">
		<tag k="historic" v="shieling" />
		<tag k="name" v="Nystøl" />
		<tag k="place" v="isolated_dwelling" />
		<tag k="ssr:stedsnr" v="523173" />
	</node>
	<node lat="59.79774722337896" lon="6.2443583392624005" id="-41999">
		<tag k="historic" v="shieling" />
		<tag k="name" v="Kleppstølen" />
		<tag k="place" v="isolated_dwelling" />
		<tag k="ssr:stedsnr" v="523178" />
	</node>
	<node lat="59.67596363711376" lon="5.829643071399922" id="-42011">
		<tag k="historic" v="shieling" />
		<tag k="name" v="Sandvikstølen" />
		<tag k="place" v="isolated_dwelling" />
		<tag k="ssr:stedsnr" v="523683" />
	</node>
<<<<<<< HEAD
	<node lat="59.66008055453788" lon="6.1157111058762075" id="-42015">
=======
	<node id="-599295" lat="59.6600805545" lon="6.11571110588">
>>>>>>> e1d4bc35ff8a6074a6f2e91616a996b547c36f15
		<tag k="fixme" v="consider tourism=alpine_hut or tourism=chalet" />
		<tag k="name" v="Løkjelsvatnhytta" />
		<tag k="old_name" v="Lykilsvatnhytta turisthytte;Løkjelsvatnbrakka;Lykilsvatnhytta" />
		<tag k="ssr:stedsnr" v="526510" />
		<tag k="tourism" v="wilderness_hut" />
	</node>
<<<<<<< HEAD
	<node lat="59.740591668102645" lon="6.118808339023114" id="-42016">
		<tag k="name" v="Tono" />
		<tag k="place" v="isolated_dwelling" />
		<tag k="ssr:stedsnr" v="529921" />
	</node>
	<node lat="59.7043000035936" lon="5.834500002981512" id="-42020">
		<tag k="name" v="Tveitavollen" />
		<tag k="place" v="farm" />
		<tag k="ssr:stedsnr" v="549053" />
	</node>
	<node lat="59.67460967968228" lon="5.932302419140672" id="-42031">
		<tag k="alt_name" v="Fitje" />
=======
	<node id="-599289" lat="59.6611972258" lon="5.94483055105">
		<tag k="fixme" v="consider place=hamlet" />
		<tag k="name" v="Skjensvoll" />
		<tag k="place" v="farm" />
		<tag k="ssr:stedsnr" v="523721" />
	</node>
	<node id="-599281" lat="59.6759636371" lon="5.8296430714">
		<tag k="historic" v="shieling" />
		<tag k="name" v="Sandvikstølen" />
		<tag k="place" v="locality" />
		<tag k="ssr:stedsnr" v="523683" />
	</node>
	<node id="-599276" lat="59.660391671" lon="5.93487777771">
>>>>>>> e1d4bc35ff8a6074a6f2e91616a996b547c36f15
		<tag k="fixme" v="consider place=hamlet" />
		<tag k="name" v="Fitja" />
		<tag k="place" v="farm" />
<<<<<<< HEAD
		<tag k="ssr:stedsnr" v="549703" />
	</node>
	<node lat="59.72141733260705" lon="5.969897725512754" id="-42032">
=======
		<tag k="ssr:stedsnr" v="523593" />
	</node>
	<node id="-599242" lat="59.8392999958" lon="6.20932499489">
		<tag k="alt_name" v="Intveitstølen" />
		<tag k="historic" v="shieling" />
		<tag k="name" v="Eintveitstølen" />
		<tag k="place" v="locality" />
		<tag k="ssr:stedsnr" v="429191" />
	</node>
	<node id="-599241" lat="59.8118471365" lon="6.1722186589">
>>>>>>> e1d4bc35ff8a6074a6f2e91616a996b547c36f15
		<tag k="fixme" v="consider place=hamlet" />
		<tag k="name" v="Valdra" />
		<tag k="place" v="farm" />
<<<<<<< HEAD
		<tag k="ssr:stedsnr" v="549655" />
	</node>
	<node lat="59.6903000018418" lon="6.1283527832767675" id="-42035">
=======
		<tag k="ssr:stedsnr" v="429187" />
	</node>
	<node id="-599240" lat="59.8574833342" lon="6.36910833775">
		<tag k="historic" v="shieling" />
		<tag k="name" v="Skrøyva" />
		<tag k="place" v="locality" />
		<tag k="ssr:stedsnr" v="429001" />
	</node>
	<node id="-599237" lat="59.8444722247" lon="6.2910944412">
>>>>>>> e1d4bc35ff8a6074a6f2e91616a996b547c36f15
		<tag k="historic" v="shieling" />
		<tag k="name" v="Kvamsstølen" />
		<tag k="place" v="isolated_dwelling" />
		<tag k="ssr:stedsnr" v="549711" />
	</node>
<<<<<<< HEAD
	<node lat="59.86498332885922" lon="6.398833325342507" id="-42040">
=======
	<node id="-599228" lat="59.708180553" lon="6.18265833092">
>>>>>>> e1d4bc35ff8a6074a6f2e91616a996b547c36f15
		<tag k="historic" v="shieling" />
		<tag k="name" v="Løyningsstølen" />
		<tag k="place" v="isolated_dwelling" />
		<tag k="ssr:stedsnr" v="550023" />
	</node>
	<node lat="59.846330559372504" lon="6.456794441125112" id="-42044">
		<tag k="fixme" v="consider tourism=alpine_hut or tourism=chalet" />
		<tag k="name" v="Simlebu" />
		<tag k="ssr:stedsnr" v="550067" />
		<tag k="tourism" v="wilderness_hut" />
	</node>
	<node lat="59.73330277815681" lon="5.991783331209719" id="-42058">
		<tag k="name" v="Vikjo" />
		<tag k="place" v="farm" />
		<tag k="ssr:stedsnr" v="583257" />
	</node>
	<node lat="59.617577781171235" lon="5.901747228736535" id="-42071">
		<tag k="historic" v="shieling" />
		<tag k="name" v="Bjødnastølen" />
		<tag k="place" v="isolated_dwelling" />
		<tag k="ssr:stedsnr" v="583609" />
	</node>
	<node lat="59.70236110714718" lon="5.829172225344202" id="-42076">
		<tag k="name" v="Haugen" />
		<tag k="place" v="farm" />
		<tag k="ssr:stedsnr" v="583706" />
	</node>
	<node lat="59.739358333187596" lon="6.06747499376848" id="-42085">
		<tag k="name" v="Osphaug" />
		<tag k="place" v="locality" />
		<tag k="ssr:stedsnr" v="590866" />
	</node>
<<<<<<< HEAD
	<node lat="59.63285278123672" lon="5.960849996919544" id="-42088">
		<tag k="historic" v="shieling" />
		<tag k="name" v="Mostølen" />
		<tag k="place" v="isolated_dwelling" />
		<tag k="ssr:stedsnr" v="609484" />
	</node>
	<node lat="59.65181394173307" lon="5.993230204553433" id="-42089">
		<tag k="fixme" v="consider place=hamlet" />
		<tag k="name" v="Eikeland" />
		<tag k="place" v="farm" />
		<tag k="ssr:stedsnr" v="609489" />
	</node>
	<node lat="59.66143701262974" lon="5.927505869259855" id="-42091">
=======
	<node id="-599225" lat="59.716208765" lon="6.09542534523">
		<tag k="alt_name" v="Håland indre" />
		<tag k="name" v="Håland" />
		<tag k="place" v="hamlet" />
		<tag k="ssr:stedsnr" v="428681" />
	</node>
	<node id="-599224" lat="59.7328805532" lon="5.93762500091">
		<tag k="name" v="Skånevik" />
		<tag k="place" v="village" />
		<tag k="ssr:stedsnr" v="428643" />
	</node>
	<node id="-599221" lat="59.6411300131" lon="5.90430422207">
>>>>>>> e1d4bc35ff8a6074a6f2e91616a996b547c36f15
		<tag k="fixme" v="consider place=hamlet" />
		<tag k="name" v="Sæbø" />
		<tag k="place" v="farm" />
		<tag k="ssr:stedsnr" v="609702" />
	</node>
<<<<<<< HEAD
	<node lat="59.7414833321206" lon="5.9631805485158145" id="-42094">
		<tag k="fixme" v="consider place=hamlet" />
		<tag k="name" v="Flesjo" />
=======
	<node id="-599218" lat="59.6774166657" lon="5.93760833715">
		<tag k="name" v="Skomdal" />
>>>>>>> e1d4bc35ff8a6074a6f2e91616a996b547c36f15
		<tag k="place" v="farm" />
		<tag k="ssr:stedsnr" v="609642" />
	</node>
<<<<<<< HEAD
	<node lat="59.66356384383526" lon="6.092823185403689" id="-42096">
=======
	<node id="-599217" lat="59.639283021" lon="5.88455109172">
>>>>>>> e1d4bc35ff8a6074a6f2e91616a996b547c36f15
		<tag k="fixme" v="consider place=hamlet" />
		<tag k="name" v="Hårland" />
		<tag k="place" v="farm" />
		<tag k="ssr:stedsnr" v="609698" />
	</node>
	<node lat="59.81936111518442" lon="6.235044445153462" id="-42098">
		<tag k="fixme" v="multiple name tags, choose one and add the other to alt_name" />
		<tag k="name" v="Klokkaren;Hagen" />
		<tag k="place" v="farm" />
		<tag k="ssr:stedsnr" v="610037" />
	</node>
<<<<<<< HEAD
	<node lat="59.76225538358813" lon="6.2050942672231475" id="-42105">
		<tag k="alt_name" v="Gloppa" />
=======
	<node id="-599195" lat="59.7360888881" lon="5.91307777019">
>>>>>>> e1d4bc35ff8a6074a6f2e91616a996b547c36f15
		<tag k="historic" v="shieling" />
		<tag k="name" v="Gloppo" />
		<tag k="place" v="isolated_dwelling" />
		<tag k="ssr:stedsnr" v="610434" />
	</node>
<<<<<<< HEAD
	<node lat="59.699411107919" lon="6.0148527785929256" id="-42123">
		<tag k="historic" v="shieling" />
		<tag k="name" v="Fjellstølen" />
		<tag k="place" v="isolated_dwelling" />
		<tag k="ssr:stedsnr" v="705325" />
	</node>
	<node lat="59.68861944418274" lon="6.081463897773205" id="-42132">
		<tag k="name" v="Klepp" />
=======
	<node id="-599194" lat="59.7316944446" lon="5.93584722161">
		<tag k="name" v="Berge" />
		<tag k="place" v="farm" />
		<tag k="ssr:stedsnr" v="401733" />
	</node>
	<node id="-599191" lat="59.6713777791" lon="5.89303055976">
		<tag k="name" v="Brøllom" />
>>>>>>> e1d4bc35ff8a6074a6f2e91616a996b547c36f15
		<tag k="place" v="farm" />
		<tag k="ssr:stedsnr" v="705491" />
	</node>
<<<<<<< HEAD
	<node lat="59.72840833073908" lon="5.8693388979637815" id="-42143">
		<tag k="name" v="Mortveit" />
=======
	<node id="-599178" lat="59.6987025865" lon="6.11174676364">
		<tag k="alt_name" v="Håeim" />
		<tag k="fixme" v="consider place=hamlet" />
		<tag k="name" v="Håheim" />
>>>>>>> e1d4bc35ff8a6074a6f2e91616a996b547c36f15
		<tag k="place" v="farm" />
		<tag k="ssr:stedsnr" v="705761" />
	</node>
<<<<<<< HEAD
	<node lat="59.67031830538062" lon="6.00179303451295" id="-42149">
		<tag k="name" v="Håfoss" />
=======
	<node id="-599175" lat="59.7438611089" lon="6.11559443848">
		<tag k="name" v="Varden" />
>>>>>>> e1d4bc35ff8a6074a6f2e91616a996b547c36f15
		<tag k="place" v="farm" />
		<tag k="ssr:stedsnr" v="705706" />
	</node>
<<<<<<< HEAD
	<node lat="59.725699999956525" lon="5.9817305638731515" id="-42166">
		<tag k="historic" v="shieling" />
		<tag k="name" v="Nystøl" />
		<tag k="place" v="isolated_dwelling" />
		<tag k="ssr:stedsnr" v="644277" />
	</node>
	<node lat="59.63846111458874" lon="5.88454444427463" id="-42179">
		<tag k="name" v="Ve" />
=======
	<node id="-599156" lat="59.6558083331" lon="5.94672222129">
		<tag k="name" v="Gjerde" />
		<tag k="place" v="farm" />
		<tag k="ssr:stedsnr" v="402732" />
	</node>
	<node id="-599155" lat="59.7377083376" lon="6.11959445259">
		<tag k="name" v="Tjelmeland" />
>>>>>>> e1d4bc35ff8a6074a6f2e91616a996b547c36f15
		<tag k="place" v="farm" />
		<tag k="ssr:stedsnr" v="650996" />
	</node>
<<<<<<< HEAD
	<node lat="59.648633820249" lon="6.034141322123064" id="-42182">
		<tag k="alt_name" v="Kaldeim" />
		<tag k="fixme" v="consider place=hamlet" />
		<tag k="name" v="Kaldheim" />
=======
	<node id="-599154" lat="59.7359805553" lon="5.91000554816">
		<tag k="name" v="Leknes" />
>>>>>>> e1d4bc35ff8a6074a6f2e91616a996b547c36f15
		<tag k="place" v="farm" />
		<tag k="ssr:stedsnr" v="670475" />
	</node>
<<<<<<< HEAD
	<node lat="59.63962499830432" lon="5.882858329565013" id="-42183">
		<tag k="alt_name" v="Sørstrandi" />
		<tag k="fixme" v="consider place=hamlet" />
		<tag k="name" v="Sørstranda" />
		<tag k="place" v="village" />
		<tag k="ssr:stedsnr" v="670477" />
	</node>
	<node lat="59.63164166675589" lon="6.057750004370192" id="-42186">
=======
	<node id="-599143" lat="59.8584805513" lon="6.47089167422">
		<tag k="alt_name" v="Bordalen" />
>>>>>>> e1d4bc35ff8a6074a6f2e91616a996b547c36f15
		<tag k="historic" v="shieling" />
		<tag k="name" v="Heimrestølen" />
		<tag k="place" v="isolated_dwelling" />
		<tag k="ssr:stedsnr" v="670491" />
	</node>
<<<<<<< HEAD
	<node lat="59.668807322445545" lon="5.890504775298504" id="-42189">
		<tag k="alt_name" v="Bryllåm" />
=======
	<node id="-599142" lat="59.8433812054" lon="6.26771898587">
>>>>>>> e1d4bc35ff8a6074a6f2e91616a996b547c36f15
		<tag k="fixme" v="consider place=hamlet" />
		<tag k="name" v="Brenneland" />
		<tag k="place" v="farm" />
		<tag k="ssr:stedsnr" v="670709" />
	</node>
<<<<<<< HEAD
	<node lat="59.67596490438627" lon="5.910039550883639" id="-42190">
		<tag k="alt_name" v="Fjøsna (indre)" />
=======
	<node id="-599138" lat="59.6670437497" lon="6.0661755757">
>>>>>>> e1d4bc35ff8a6074a6f2e91616a996b547c36f15
		<tag k="fixme" v="consider place=hamlet" />
		<tag k="name" v="Fjøsna" />
		<tag k="place" v="farm" />
		<tag k="ssr:stedsnr" v="670711" />
	</node>
<<<<<<< HEAD
	<node lat="59.6757004287858" lon="5.999807000808184" id="-42191">
=======
	<node id="-599137" lat="59.6693503269" lon="6.07107633523">
		<tag k="alt_name" v="Onstein" />
>>>>>>> e1d4bc35ff8a6074a6f2e91616a996b547c36f15
		<tag k="fixme" v="consider place=hamlet" />
		<tag k="name" v="Vad" />
		<tag k="place" v="farm" />
		<tag k="ssr:stedsnr" v="670713" />
	</node>
<<<<<<< HEAD
	<node lat="59.85736666702581" lon="6.254716664408567" id="-42193">
		<tag k="historic" v="shieling" />
		<tag k="name" v="Bakkastølen" />
		<tag k="place" v="isolated_dwelling" />
		<tag k="ssr:stedsnr" v="671020" />
	</node>
	<node lat="59.772091662610244" lon="6.1537583350617515" id="-42197">
		<tag k="historic" v="shieling" />
		<tag k="name" v="Bergastølen" />
		<tag k="place" v="isolated_dwelling" />
		<tag k="ssr:stedsnr" v="671366" />
	</node>
	<node lat="59.73684999870275" lon="6.014422229976869" id="-42198">
		<tag k="name" v="Fredheim" />
=======
	<node id="-599132" lat="59.6973007595" lon="6.03780814185">
		<tag k="alt_name" v="Noreim" />
		<tag k="fixme" v="consider place=hamlet" />
		<tag k="name" v="Norheim" />
>>>>>>> e1d4bc35ff8a6074a6f2e91616a996b547c36f15
		<tag k="place" v="farm" />
		<tag k="ssr:stedsnr" v="893928" />
	</node>
<<<<<<< HEAD
	<node lat="59.74959444535274" lon="6.121558325306448" id="-42199">
=======
	<node id="-599129" lat="59.7203249955" lon="6.20349999315">
>>>>>>> e1d4bc35ff8a6074a6f2e91616a996b547c36f15
		<tag k="historic" v="shieling" />
		<tag k="name" v="Mikkjelstræet" />
		<tag k="place" v="isolated_dwelling" />
		<tag k="ssr:stedsnr" v="893887" />
	</node>
<<<<<<< HEAD
	<node lat="59.665763890224746" lon="6.070111115098413" id="-42209">
		<tag k="name" v="Kvio" />
=======
	<node id="-599128" lat="59.7132349244" lon="6.14314340524">
		<tag k="fixme" v="consider place=hamlet" />
		<tag k="name" v="Flåte" />
>>>>>>> e1d4bc35ff8a6074a6f2e91616a996b547c36f15
		<tag k="place" v="farm" />
		<tag k="ssr:stedsnr" v="705422" />
	</node>
<<<<<<< HEAD
	<node lat="59.72349166620862" lon="6.127836114230137" id="-42216">
		<tag k="name" v="Ljusnes" />
=======
	<node id="-599124" lat="59.73408889" lon="5.99280833094">
		<tag k="alt_name" v="Ytra Tungesvik" />
		<tag k="name" v="Tungesvikstranda" />
>>>>>>> e1d4bc35ff8a6074a6f2e91616a996b547c36f15
		<tag k="place" v="farm" />
		<tag k="ssr:stedsnr" v="705375" />
	</node>
<<<<<<< HEAD
	<node lat="59.673691662482334" lon="5.9418555638999155" id="-42226">
		<tag k="name" v="Øvre Fitja" />
=======
	<node id="-599117" lat="59.6609000017" lon="6.01277777051">
		<tag k="name" v="Nedraberge" />
>>>>>>> e1d4bc35ff8a6074a6f2e91616a996b547c36f15
		<tag k="place" v="farm" />
		<tag k="ssr:stedsnr" v="705717" />
	</node>
<<<<<<< HEAD
	<node lat="59.67222222650235" lon="5.954438886766254" id="-42227">
		<tag k="name" v="Revhaug" />
		<tag k="place" v="farm" />
		<tag k="ssr:stedsnr" v="705721" />
	</node>
	<node lat="59.62592777351561" lon="5.999866664763898" id="-42237">
=======
	<node id="-599113" lat="59.8195083377" lon="6.2835055607">
		<tag k="historic" v="shieling" />
		<tag k="name" v="Skålnesstølen" />
		<tag k="place" v="locality" />
		<tag k="ssr:stedsnr" v="367076" />
	</node>
	<node id="-599111" lat="59.8053833326" lon="6.25096943735">
>>>>>>> e1d4bc35ff8a6074a6f2e91616a996b547c36f15
		<tag k="historic" v="shieling" />
		<tag k="name" v="Rus" />
		<tag k="place" v="isolated_dwelling" />
		<tag k="ssr:stedsnr" v="731503" />
	</node>
<<<<<<< HEAD
	<node lat="59.72667409161733" lon="5.879597144077124" id="-42241">
		<tag k="fixme" v="consider place=hamlet" />
		<tag k="name" v="Skoga" />
		<tag k="place" v="farm" />
		<tag k="ssr:stedsnr" v="731612" />
	</node>
	<node lat="59.67539152540968" lon="5.955777548393746" id="-42245">
		<tag k="fixme" v="consider place=hamlet" />
		<tag k="name" v="Kambe" />
		<tag k="place" v="farm" />
		<tag k="ssr:stedsnr" v="731705" />
	</node>
	<node lat="59.86399422855851" lon="6.32850992348632" id="-42250">
		<tag k="alt_name" v="Masdal" />
=======
	<node id="-599099" lat="59.7876666664" lon="6.17801111012">
		<tag k="name" v="Nygard" />
		<tag k="place" v="farm" />
		<tag k="ssr:stedsnr" v="347029" />
	</node>
	<node id="-599098" lat="59.8248055535" lon="6.23740556058">
		<tag k="name" v="Haugane" />
		<tag k="place" v="isolated_dwelling" />
		<tag k="ssr:stedsnr" v="347026" />
	</node>
	<node id="-599097" lat="59.8384166641" lon="6.23141111389">
		<tag k="name" v="Eikehaug" />
		<tag k="place" v="locality" />
		<tag k="ssr:stedsnr" v="347025" />
	</node>
	<node id="-599093" lat="59.6484416628" lon="6.00935000313">
>>>>>>> e1d4bc35ff8a6074a6f2e91616a996b547c36f15
		<tag k="fixme" v="consider place=hamlet" />
		<tag k="name" v="Mosdalen" />
		<tag k="place" v="farm" />
		<tag k="ssr:stedsnr" v="732016" />
	</node>
<<<<<<< HEAD
	<node lat="59.87642500225169" lon="6.399994450128629" id="-42254">
		<tag k="name" v="Austerheim" />
=======
	<node id="-599088" lat="59.6662638922" lon="6.07896389653">
		<tag k="name" v="Viveli" />
>>>>>>> e1d4bc35ff8a6074a6f2e91616a996b547c36f15
		<tag k="place" v="farm" />
		<tag k="ssr:stedsnr" v="732026" />
	</node>
<<<<<<< HEAD
	<node lat="59.83747439784469" lon="6.3106129918014355" id="-42255">
		<tag k="alt_name" v="Bjørkestrand" />
		<tag k="fixme" v="consider place=hamlet" />
		<tag k="name" v="Bjørkestronda" />
		<tag k="place" v="farm" />
		<tag k="ssr:stedsnr" v="732061" />
	</node>
	<node lat="59.72136944773974" lon="6.1110694482874" id="-42273">
=======
	<node id="-599073" lat="59.8496888867" lon="6.23394721765">
>>>>>>> e1d4bc35ff8a6074a6f2e91616a996b547c36f15
		<tag k="historic" v="shieling" />
		<tag k="name" v="Gamlestølen" />
		<tag k="place" v="isolated_dwelling" />
		<tag k="ssr:stedsnr" v="765305" />
	</node>
<<<<<<< HEAD
	<node lat="59.66237500024478" lon="6.016016661823462" id="-42293">
=======
	<node id="-599069" lat="59.7479361121" lon="6.13771111925">
>>>>>>> e1d4bc35ff8a6074a6f2e91616a996b547c36f15
		<tag k="historic" v="shieling" />
		<tag k="name" v="Bergsstølane" />
		<tag k="place" v="isolated_dwelling" />
		<tag k="ssr:stedsnr" v="766709" />
	</node>
<<<<<<< HEAD
	<node lat="59.65384999716152" lon="6.019186118003516" id="-42294">
		<tag k="amenity" v="school" />
		<tag k="name" v="Etne jordbruksskule" />
		<tag k="ssr:stedsnr" v="766688" />
	</node>
	<node lat="59.659519447608176" lon="6.01297500059226" id="-42295">
		<tag k="name" v="Berge" />
		<tag k="place" v="hamlet" />
		<tag k="ssr:stedsnr" v="766693" />
	</node>
	<node lat="59.67253780929735" lon="5.968046167199765" id="-42299">
		<tag k="alt_name" v="Støle" />
		<tag k="fixme" v="consider place=hamlet" />
		<tag k="name" v="Stødle" />
=======
	<node id="-599049" lat="59.7345000005" lon="5.90815834204">
		<tag k="name" v="Leknes" />
>>>>>>> e1d4bc35ff8a6074a6f2e91616a996b547c36f15
		<tag k="place" v="farm" />
		<tag k="ssr:stedsnr" v="791713" />
	</node>
<<<<<<< HEAD
	<node lat="59.66473155275937" lon="5.873085725858471" id="-42300">
		<tag k="alt_name" v="Rivås" />
		<tag k="fixme" v="consider place=hamlet" />
		<tag k="name" v="Rivåsen" />
		<tag k="place" v="farm" />
		<tag k="ssr:stedsnr" v="791734" />
	</node>
	<node lat="59.78449249542841" lon="6.173129783162186" id="-42306">
		<tag k="alt_name" v="Rafdal, øvre;Rafdal øvre" />
=======
	<node id="-599047" lat="59.8726944417" lon="6.26167222524">
		<tag k="historic" v="shieling" />
		<tag k="name" v="Vetrhus" />
		<tag k="place" v="locality" />
		<tag k="ssr:stedsnr" v="307512" />
	</node>
	<node id="-599045" lat="59.6540231974" lon="5.79706029152">
		<tag k="alt_name" v="Bjørkjenes" />
>>>>>>> e1d4bc35ff8a6074a6f2e91616a996b547c36f15
		<tag k="fixme" v="consider place=hamlet" />
		<tag k="name" v="Øvre Rafdal" />
		<tag k="place" v="farm" />
		<tag k="ssr:stedsnr" v="792326" />
	</node>
<<<<<<< HEAD
	<node lat="59.786379274475564" lon="6.1761335975047835" id="-42307">
		<tag k="alt_name" v="Rafdal, nedre;Rafdal;Rafdal nedre" />
		<tag k="fixme" v="consider place=hamlet" />
		<tag k="name" v="Nedre Rafdal" />
=======
	<node id="-599044" lat="59.6524166624" lon="5.80495832831">
		<tag k="name" v="Vaulen" />
>>>>>>> e1d4bc35ff8a6074a6f2e91616a996b547c36f15
		<tag k="place" v="farm" />
		<tag k="ssr:stedsnr" v="792334" />
	</node>
<<<<<<< HEAD
	<node lat="59.669430261309486" lon="5.984480551582999" id="-42315">
		<tag k="alt_name" v="Austreim" />
		<tag k="fixme" v="consider place=hamlet" />
		<tag k="name" v="Austrheim" />
=======
	<node id="-599038" lat="59.7598805524" lon="5.94686943675">
		<tag k="name" v="Indravannes" />
>>>>>>> e1d4bc35ff8a6074a6f2e91616a996b547c36f15
		<tag k="place" v="farm" />
		<tag k="ssr:stedsnr" v="792737" />
	</node>
<<<<<<< HEAD
	<node lat="59.665445025107786" lon="5.966241936513178" id="-42316">
		<tag k="alt_name" v="Søreim" />
		<tag k="fixme" v="consider place=hamlet" />
		<tag k="name" v="Sørheim" />
		<tag k="place" v="farm" />
		<tag k="ssr:stedsnr" v="792739" />
	</node>
	<node lat="59.867955557021695" lon="6.4609166722278975" id="-42318">
=======
	<node id="-599034" lat="59.7851277751" lon="6.19197778159">
		<tag k="alt_name" v="Rafdalsstøl, nedre" />
		<tag k="historic" v="shieling" />
		<tag k="name" v="Nedre Rafdalsstøl" />
		<tag k="place" v="locality" />
		<tag k="ssr:stedsnr" v="307348" />
	</node>
	<node id="-599033" lat="59.8386750032" lon="6.15044444714">
>>>>>>> e1d4bc35ff8a6074a6f2e91616a996b547c36f15
		<tag k="historic" v="shieling" />
		<tag k="name" v="Bjørnastølen" />
		<tag k="place" v="isolated_dwelling" />
		<tag k="ssr:stedsnr" v="793009" />
	</node>
<<<<<<< HEAD
	<node lat="59.82101944454557" lon="6.23870555782781" id="-42324">
		<tag k="alt_name" v="Bråte" />
		<tag k="name" v="Brotet" />
		<tag k="place" v="farm" />
		<tag k="ssr:stedsnr" v="793036" />
	</node>
	<node lat="59.836657180630375" lon="6.2310373355591935" id="-42325">
		<tag k="alt_name" v="Djuve" />
=======
	<node id="-599030" lat="59.8083972206" lon="6.27272778493">
		<tag k="historic" v="shieling" />
		<tag k="name" v="Møssegro" />
		<tag k="place" v="locality" />
		<tag k="ssr:stedsnr" v="307085" />
	</node>
	<node id="-599027" lat="59.8446386061" lon="6.26975971306">
		<tag k="alt_name" v="Tøsse" />
>>>>>>> e1d4bc35ff8a6074a6f2e91616a996b547c36f15
		<tag k="fixme" v="consider place=hamlet" />
		<tag k="name" v="Gjuve" />
		<tag k="place" v="farm" />
		<tag k="ssr:stedsnr" v="793041" />
	</node>
<<<<<<< HEAD
	<node lat="59.834656096874866" lon="6.28851519001897" id="-42326">
		<tag k="alt_name" v="Visskjær" />
		<tag k="fixme" v="consider place=hamlet" />
		<tag k="name" v="Viskjer" />
		<tag k="place" v="farm" />
		<tag k="ssr:stedsnr" v="793046" />
	</node>
	<node lat="59.8241086187078" lon="6.207744560366341" id="-42327">
		<tag k="fixme" v="consider place=hamlet" />
		<tag k="name" v="Bjelland" />
		<tag k="place" v="farm" />
		<tag k="ssr:stedsnr" v="793207" />
	</node>
	<node lat="59.69921388767081" lon="5.824411115907023" id="-42331">
		<tag k="name" v="Gardvik" />
=======
	<node id="-599026" lat="59.8377583338" lon="6.34828055496">
		<tag k="historic" v="shieling" />
		<tag k="name" v="Langfosstølen" />
		<tag k="place" v="locality" />
		<tag k="ssr:stedsnr" v="307057" />
	</node>
	<node id="-599025" lat="59.8309169421" lon="6.25418474103">
		<tag k="fixme" v="consider place=hamlet" />
		<tag k="name" v="Skålnes" />
>>>>>>> e1d4bc35ff8a6074a6f2e91616a996b547c36f15
		<tag k="place" v="farm" />
		<tag k="ssr:stedsnr" v="913040" />
	</node>
<<<<<<< HEAD
	<node lat="59.663874510227664" lon="6.067439329085175" id="-42334">
=======
	<node id="-599024" lat="59.8366310102" lon="6.24267656598">
		<tag k="alt_name" v="Tysseteigen" />
>>>>>>> e1d4bc35ff8a6074a6f2e91616a996b547c36f15
		<tag k="fixme" v="consider place=hamlet" />
		<tag k="name" v="Litledalen" />
		<tag k="place" v="farm" />
		<tag k="ssr:stedsnr" v="913470" />
	</node>
<<<<<<< HEAD
	<node lat="59.65866027989426" lon="5.966267694967013" id="-42335">
=======
	<node id="-599023" lat="59.8197988832" lon="6.23967056142">
>>>>>>> e1d4bc35ff8a6074a6f2e91616a996b547c36f15
		<tag k="fixme" v="consider place=hamlet" />
		<tag k="name" v="Mo" />
		<tag k="place" v="farm" />
		<tag k="ssr:stedsnr" v="913473" />
	</node>
<<<<<<< HEAD
	<node lat="59.7091242759119" lon="5.85846498460186" id="-42341">
=======
	<node id="-599021" lat="59.659322135" lon="5.92982065532">
>>>>>>> e1d4bc35ff8a6074a6f2e91616a996b547c36f15
		<tag k="fixme" v="consider place=hamlet" />
		<tag k="name" v="Aksland" />
		<tag k="place" v="farm" />
		<tag k="ssr:stedsnr" v="913670" />
	</node>
<<<<<<< HEAD
	<node lat="59.66009252892476" lon="5.940915867750631" id="-42342">
		<tag k="alt_name" v="Flota;Floti" />
		<tag k="fixme" v="consider place=hamlet" />
		<tag k="name" v="Flåto" />
		<tag k="place" v="farm" />
		<tag k="ssr:stedsnr" v="913716" />
	</node>
	<node lat="59.662082049822565" lon="5.854985705136237" id="-42343">
		<tag k="fixme" v="consider place=hamlet" />
		<tag k="name" v="Aksdal" />
		<tag k="place" v="farm" />
		<tag k="ssr:stedsnr" v="913720" />
	</node>
	<node lat="59.85927721282984" lon="6.355711646237793" id="-42346">
		<tag k="alt_name" v="Eljarvik" />
=======
	<node id="-599019" lat="59.6724611118" lon="5.97669999672">
		<tag k="name" v="Hetlebrekk" />
		<tag k="place" v="farm" />
		<tag k="ssr:stedsnr" v="306701" />
	</node>
	<node id="-599014" lat="59.6968497715" lon="6.16654740202">
		<tag k="historic" v="shieling" />
		<tag k="name" v="Flåtestølen" />
		<tag k="place" v="locality" />
		<tag k="ssr:stedsnr" v="306682" />
	</node>
	<node id="-599013" lat="59.7311888886" lon="6.05953610292">
		<tag k="name" v="Miljateigen" />
		<tag k="place" v="farm" />
		<tag k="ssr:stedsnr" v="306653" />
	</node>
	<node id="-599009" lat="59.7453611138" lon="6.17737500628">
		<tag k="historic" v="shieling" />
		<tag k="name" v="Tveitastølen" />
		<tag k="place" v="locality" />
		<tag k="ssr:stedsnr" v="306622" />
	</node>
	<node id="-599008" lat="59.7420991181" lon="6.19451132035">
>>>>>>> e1d4bc35ff8a6074a6f2e91616a996b547c36f15
		<tag k="fixme" v="consider place=hamlet" />
		<tag k="name" v="Eljarvika" />
		<tag k="place" v="farm" />
<<<<<<< HEAD
		<tag k="ssr:stedsnr" v="914002" />
	</node>
	<node lat="59.87347222104367" lon="6.3925222160860224" id="-42347">
		<tag k="name" v="Fossheim" />
		<tag k="place" v="farm" />
		<tag k="ssr:stedsnr" v="914024" />
	</node>
	<node lat="59.8463388886691" lon="6.3712194481199775" id="-42349">
=======
		<tag k="ssr:stedsnr" v="306621" />
	</node>
	<node id="-599007" lat="59.7428096922" lon="6.11501848288">
		<tag k="name" v="Sævareid" />
		<tag k="place" v="hamlet" />
		<tag k="ssr:stedsnr" v="306614" />
	</node>
	<node id="-599004" lat="59.6091000032" lon="6.01260833541">
		<tag k="historic" v="shieling" />
		<tag k="name" v="Kattastølen" />
		<tag k="place" v="locality" />
		<tag k="ssr:stedsnr" v="306522" />
	</node>
	<node id="-598994" lat="59.9202638859" lon="6.48272222589">
		<tag k="alt_name" v="Bergstødstølen" />
>>>>>>> e1d4bc35ff8a6074a6f2e91616a996b547c36f15
		<tag k="historic" v="shieling" />
		<tag k="name" v="Fitastølen" />
		<tag k="place" v="isolated_dwelling" />
		<tag k="ssr:stedsnr" v="914063" />
	</node>
<<<<<<< HEAD
	<node lat="59.70961111493232" lon="5.840325007851855" id="-42353">
		<tag k="alt_name" v="Lauvvika" />
		<tag k="name" v="Lauvvik" />
		<tag k="place" v="farm" />
		<tag k="ssr:stedsnr" v="914099" />
	</node>
	<node lat="59.80959647155285" lon="6.165802508887463" id="-42354">
		<tag k="alt_name" v="Kaldvik;Kalvik" />
		<tag k="fixme" v="consider place=hamlet" />
		<tag k="name" v="Kallvika" />
		<tag k="place" v="farm" />
		<tag k="ssr:stedsnr" v="914218" />
	</node>
	<node lat="59.80791666961244" lon="6.149525006521068" id="-42355">
		<tag k="alt_name" v="Kalvikstøl" />
=======
	<node id="-598991" lat="59.7587361129" lon="5.94503055102">
		<tag k="name" v="Kalvadalen" />
		<tag k="place" v="farm" />
		<tag k="ssr:stedsnr" v="186412" />
	</node>
	<node id="-598979" lat="59.8498555574" lon="6.23290555279">
		<tag k="name" v="Bakkaløa" />
		<tag k="place" v="locality" />
		<tag k="ssr:stedsnr" v="186014" />
	</node>
	<node id="-598976" lat="59.6701916706" lon="6.11071389399">
		<tag k="historic" v="shieling" />
		<tag k="name" v="Undsteinsstølen" />
		<tag k="place" v="locality" />
		<tag k="ssr:stedsnr" v="185711" />
	</node>
	<node id="-598975" lat="59.6916055581" lon="6.16595833301">
		<tag k="alt_name" v="Håeimstølen" />
>>>>>>> e1d4bc35ff8a6074a6f2e91616a996b547c36f15
		<tag k="historic" v="shieling" />
		<tag k="name" v="Kallviksstøl" />
		<tag k="place" v="isolated_dwelling" />
		<tag k="ssr:stedsnr" v="914221" />
	</node>
<<<<<<< HEAD
	<node lat="59.63879999705922" lon="5.890261107953212" id="-42365">
		<tag k="name" v="Åsen" />
=======
	<node id="-598973" lat="59.7058999996" lon="6.11563611849">
		<tag k="name" v="Langeland" />
>>>>>>> e1d4bc35ff8a6074a6f2e91616a996b547c36f15
		<tag k="place" v="farm" />
		<tag k="ssr:stedsnr" v="826519" />
	</node>
<<<<<<< HEAD
	<node lat="59.67451944749605" lon="5.906280559211864" id="-42366">
		<tag k="name" v="Fjøsna (yttre)" />
=======
	<node id="-598972" lat="59.7077638891" lon="6.13146388937">
		<tag k="alt_name" v="Øygarden" />
		<tag k="name" v="Øydgarden" />
>>>>>>> e1d4bc35ff8a6074a6f2e91616a996b547c36f15
		<tag k="place" v="farm" />
		<tag k="ssr:stedsnr" v="826523" />
	</node>
<<<<<<< HEAD
	<node lat="59.83691666851987" lon="6.229111102278111" id="-42371">
		<tag k="name" v="Djuve" />
		<tag k="place" v="farm" />
		<tag k="ssr:stedsnr" v="827121" />
	</node>
	<node lat="59.83731667053029" lon="6.301533336039291" id="-42376">
		<tag k="name" v="Rotalsviknes" />
=======
	<node id="-598968" lat="59.742711112" lon="6.11157499176">
		<tag k="name" v="Kyrping" />
		<tag k="place" v="farm" />
		<tag k="ssr:stedsnr" v="185623" />
	</node>
	<node id="-598964" lat="59.5985611152" lon="6.1349111165">
		<tag k="alt_name" v="Bjørndalen, nordre" />
		<tag k="historic" v="shieling" />
		<tag k="name" v="Nordre Bjørndalen" />
		<tag k="place" v="locality" />
		<tag k="ssr:stedsnr" v="185511" />
	</node>
	<node id="-598962" lat="59.6236611083" lon="6.05564443782">
		<tag k="historic" v="shieling" />
		<tag k="name" v="Auastadstølen" />
		<tag k="place" v="locality" />
		<tag k="ssr:stedsnr" v="185489" />
	</node>
	<node id="-598959" lat="59.6497002758" lon="5.90662290352">
		<tag k="fixme" v="consider place=hamlet" />
		<tag k="name" v="Osnes" />
>>>>>>> e1d4bc35ff8a6074a6f2e91616a996b547c36f15
		<tag k="place" v="farm" />
		<tag k="ssr:stedsnr" v="827228" />
	</node>
<<<<<<< HEAD
	<node lat="59.659075687869866" lon="5.922290444646899" id="-42386">
		<tag k="fixme" v="consider place=hamlet" />
		<tag k="name" v="Matskår" />
		<tag k="place" v="farm" />
		<tag k="ssr:stedsnr" v="849281" />
	</node>
	<node lat="59.74888889157392" lon="5.956224992131921" id="-42388">
		<tag k="name" v="Breidvik" />
=======
	<node id="-598958" lat="59.6591870229" lon="6.02444670122">
		<tag k="alt_name" v="Halland" />
		<tag k="fixme" v="consider place=hamlet" />
		<tag k="name" v="Hallaland" />
		<tag k="place" v="farm" />
		<tag k="ssr:stedsnr" v="185461" />
	</node>
	<node id="-598957" lat="59.6554611085" lon="5.79382500351">
		<tag k="alt_name" v="Skare" />
		<tag k="name" v="Skarde" />
		<tag k="place" v="farm" />
		<tag k="ssr:stedsnr" v="185435" />
	</node>
	<node id="-598955" lat="59.7018787436" lon="5.82904921684">
		<tag k="alt_name" v="Midt-Ebna" />
		<tag k="name" v="Ebna" />
		<tag k="place" v="hamlet" />
		<tag k="ssr:stedsnr" v="185044" />
	</node>
	<node id="-598945" lat="59.6535249964" lon="5.79886389762">
		<tag k="name" v="Børjenes" />
>>>>>>> e1d4bc35ff8a6074a6f2e91616a996b547c36f15
		<tag k="place" v="farm" />
		<tag k="ssr:stedsnr" v="852624" />
	</node>
<<<<<<< HEAD
	<node lat="59.67562800794575" lon="5.9032883982512985" id="-42391">
		<tag k="fixme" v="consider place=hamlet" />
		<tag k="name" v="Øvstebø" />
=======
	<node id="-598942" lat="59.6527583344" lon="5.97241666264">
		<tag k="alt_name" v="Fossa indre" />
		<tag k="name" v="Indre Fossa" />
>>>>>>> e1d4bc35ff8a6074a6f2e91616a996b547c36f15
		<tag k="place" v="farm" />
		<tag k="ssr:stedsnr" v="853710" />
	</node>
<<<<<<< HEAD
	<node lat="59.68785689671001" lon="6.023688850332903" id="-42393">
		<tag k="fixme" v="consider place=hamlet" />
		<tag k="name" v="Rame" />
		<tag k="place" v="farm" />
		<tag k="ssr:stedsnr" v="853723" />
	</node>
	<node lat="59.72958333176128" lon="6.150927783040116" id="-42395">
		<tag k="fixme" v="consider place=hamlet" />
		<tag k="name" v="Lunda" />
=======
	<node id="-598939" lat="59.6629861106" lon="5.93930555274">
		<tag k="name" v="Gjerde" />
		<tag k="place" v="farm" />
		<tag k="ssr:stedsnr" v="159693" />
	</node>
	<node id="-598928" lat="59.7355444426" lon="5.95900000604">
		<tag k="historic" v="shieling" />
		<tag k="name" v="Hordastølen" />
		<tag k="place" v="locality" />
		<tag k="ssr:stedsnr" v="159290" />
	</node>
	<node id="-598922" lat="59.7476222239" lon="6.20113055237">
		<tag k="name" v="Volme" />
>>>>>>> e1d4bc35ff8a6074a6f2e91616a996b547c36f15
		<tag k="place" v="farm" />
		<tag k="ssr:stedsnr" v="853656" />
	</node>
<<<<<<< HEAD
	<node lat="59.71627499801622" lon="5.866525007097867" id="-42396">
		<tag k="fixme" v="consider place=hamlet" />
		<tag k="name" v="Gjelmarvika" />
=======
	<node id="-598918" lat="59.7345305532" lon="5.99575276913">
		<tag k="name" v="Ytre Tungesvik" />
>>>>>>> e1d4bc35ff8a6074a6f2e91616a996b547c36f15
		<tag k="place" v="farm" />
		<tag k="ssr:stedsnr" v="853664" />
	</node>
<<<<<<< HEAD
	<node lat="59.713587241004355" lon="6.10968871096931" id="-42398">
		<tag k="alt_name" v="Øvrenes" />
		<tag k="fixme" v="consider place=hamlet" />
		<tag k="name" v="Øvernes" />
=======
	<node id="-598915" lat="59.6582662037" lon="5.92117127306">
		<tag k="loc_name" v="Matskår" />
		<tag k="name" v="Matskor" />
>>>>>>> e1d4bc35ff8a6074a6f2e91616a996b547c36f15
		<tag k="place" v="farm" />
		<tag k="ssr:stedsnr" v="853670" />
	</node>
<<<<<<< HEAD
	<node lat="59.86205278786485" lon="6.311761157384444" id="-42403">
=======
	<node id="-598909" lat="59.7619379746" lon="6.12759244821">
>>>>>>> e1d4bc35ff8a6074a6f2e91616a996b547c36f15
		<tag k="fixme" v="consider place=hamlet" />
		<tag k="name" v="Glåmo" />
		<tag k="place" v="farm" />
		<tag k="ssr:stedsnr" v="854013" />
	</node>
<<<<<<< HEAD
	<node lat="59.90741110788558" lon="6.343261111620154" id="-42406">
		<tag k="historic" v="shieling" />
=======
	<node id="-598900" lat="59.7698805581" lon="6.24806111556">
		<tag k="fixme" v="consider tourism=alpine_hut or tourism=chalet" />
>>>>>>> e1d4bc35ff8a6074a6f2e91616a996b547c36f15
		<tag k="name" v="Blomstølen" />
		<tag k="place" v="isolated_dwelling" />
		<tag k="ssr:stedsnr" v="854450" />
	</node>
<<<<<<< HEAD
	<node lat="59.652547220176864" lon="6.103694446068989" id="-42410">
		<tag k="historic" v="shieling" />
		<tag k="name" v="Skarstøl" />
		<tag k="place" v="isolated_dwelling" />
		<tag k="ssr:stedsnr" v="887011" />
	</node>
	<node lat="59.74553610750149" lon="6.151722221039764" id="-42416">
=======
	<node id="-598897" lat="59.8767972188" lon="6.40655834043">
		<tag k="name" v="Flota" />
		<tag k="place" v="farm" />
		<tag k="ssr:stedsnr" v="125024" />
	</node>
	<node id="-598895" lat="59.8411166682" lon="6.21940278382">
>>>>>>> e1d4bc35ff8a6074a6f2e91616a996b547c36f15
		<tag k="historic" v="shieling" />
		<tag k="name" v="Tjelmelandstølen" />
		<tag k="place" v="isolated_dwelling" />
		<tag k="ssr:stedsnr" v="887499" />
	</node>
<<<<<<< HEAD
	<node lat="59.676291669079845" lon="5.905680559437096" id="-42417">
		<tag k="name" v="Haugapadl" />
=======
	<node id="-598888" lat="59.713569581" lon="6.08486352842">
		<tag k="alt_name" v="Hustuft" />
		<tag k="fixme" v="consider place=hamlet" />
		<tag k="name" v="Hustufta" />
>>>>>>> e1d4bc35ff8a6074a6f2e91616a996b547c36f15
		<tag k="place" v="farm" />
		<tag k="ssr:stedsnr" v="887616" />
	</node>
<<<<<<< HEAD
	<node lat="59.626569442643245" lon="5.889391661631075" id="-42420">
		<tag k="name" v="Fikse" />
=======
	<node id="-598882" lat="59.7283116112" lon="5.94850793285">
		<tag k="alt_name" v="Åseim" />
		<tag k="fixme" v="consider place=hamlet" />
		<tag k="name" v="Åsheim" />
>>>>>>> e1d4bc35ff8a6074a6f2e91616a996b547c36f15
		<tag k="place" v="farm" />
		<tag k="ssr:stedsnr" v="887624" />
	</node>
<<<<<<< HEAD
	<node lat="59.65798333482723" lon="5.94986110747594" id="-42423">
		<tag k="alt_name" v="Enerhaug" />
		<tag k="name" v="Einerhaug" />
=======
	<node id="-598881" lat="59.7480194411" lon="5.96214167061">
		<tag k="name" v="Eikenes" />
>>>>>>> e1d4bc35ff8a6074a6f2e91616a996b547c36f15
		<tag k="place" v="farm" />
		<tag k="ssr:stedsnr" v="887706" />
	</node>
<<<<<<< HEAD
	<node lat="59.65987777624505" lon="5.940986108834508" id="-42425">
		<tag k="name" v="Flåto" />
=======
	<node id="-598875" lat="59.6450498866" lon="5.86225698895">
		<tag k="fixme" v="consider place=hamlet" />
		<tag k="name" v="Utstono" />
>>>>>>> e1d4bc35ff8a6074a6f2e91616a996b547c36f15
		<tag k="place" v="farm" />
		<tag k="ssr:stedsnr" v="887698" />
	</node>
<<<<<<< HEAD
	<node lat="59.713427773950755" lon="5.865800009176175" id="-42426">
		<tag k="name" v="Gjelmarvik" />
=======
	<node id="-598874" lat="59.6557694407" lon="6.02393889385">
		<tag k="fixme" v="consider place=hamlet" />
		<tag k="name" v="Tessdal" />
>>>>>>> e1d4bc35ff8a6074a6f2e91616a996b547c36f15
		<tag k="place" v="farm" />
		<tag k="ssr:stedsnr" v="887824" />
	</node>
<<<<<<< HEAD
	<node lat="59.74262360619033" lon="6.118581711540526" id="-42430">
		<tag k="alt_name" v="Sævareid øvre" />
=======
	<node id="-598873" lat="59.6645541404" lon="6.05410268985">
>>>>>>> e1d4bc35ff8a6074a6f2e91616a996b547c36f15
		<tag k="fixme" v="consider place=hamlet" />
		<tag k="name" v="Øvre Sævareid" />
		<tag k="place" v="farm" />
		<tag k="ssr:stedsnr" v="910593" />
	</node>
<<<<<<< HEAD
	<node lat="59.62658288976038" lon="5.9004731953216245" id="-42433">
		<tag k="fixme" v="consider place=hamlet" />
		<tag k="name" v="Kvammen" />
=======
	<node id="-598870" lat="59.8253833324" lon="6.24030832483">
		<tag k="name" v="Saghaugen" />
>>>>>>> e1d4bc35ff8a6074a6f2e91616a996b547c36f15
		<tag k="place" v="farm" />
		<tag k="ssr:stedsnr" v="913493" />
	</node>
<<<<<<< HEAD
	<node lat="59.637127777994785" lon="6.119400003041599" id="-42434">
		<tag k="alt_name" v="Grindeimsstølen" />
		<tag k="historic" v="shieling" />
		<tag k="name" v="Grindheimsstølen" />
		<tag k="place" v="isolated_dwelling" />
		<tag k="ssr:stedsnr" v="913496" />
	</node>
	<node lat="59.745784117099674" lon="5.953060876885151" id="-42435">
=======
	<node id="-598868" lat="59.7034250008" lon="5.82212777392">
		<tag k="name" v="Haugen" />
		<tag k="place" v="farm" />
		<tag k="ssr:stedsnr" v="124044" />
	</node>
	<node id="-598865" lat="59.8779376805" lon="6.42696413085">
>>>>>>> e1d4bc35ff8a6074a6f2e91616a996b547c36f15
		<tag k="fixme" v="consider place=hamlet" />
		<tag k="name" v="Tjellflot" />
		<tag k="place" v="farm" />
		<tag k="ssr:stedsnr" v="913610" />
	</node>
<<<<<<< HEAD
	<node lat="59.724936112042585" lon="5.864169448267101" id="-42436">
		<tag k="fixme" v="consider place=hamlet" />
		<tag k="name" v="Mortveit" />
		<tag k="place" v="village" />
		<tag k="ssr:stedsnr" v="913628" />
	</node>
	<node lat="59.753819448820586" lon="6.187755557615225" id="-42444">
		<tag k="alt_name" v="Hallelandstølen" />
=======
	<node id="-598849" lat="59.6557250028" lon="5.99883888934">
		<tag k="name" v="Rygg" />
		<tag k="place" v="farm" />
		<tag k="ssr:stedsnr" v="98676" />
	</node>
	<node id="-598831" lat="59.7142527732" lon="6.06341665923">
>>>>>>> e1d4bc35ff8a6074a6f2e91616a996b547c36f15
		<tag k="historic" v="shieling" />
		<tag k="name" v="Hallalandsstølen" />
		<tag k="place" v="isolated_dwelling" />
		<tag k="ssr:stedsnr" v="914406" />
	</node>
	<node lat="59.87417221907002" lon="6.38196111741851" id="-42452">
		<tag k="alt_name" v="Åkrabotn" />
		<tag k="fixme" v="consider place=hamlet" />
		<tag k="name" v="Fjæra" />
		<tag k="place" v="village" />
		<tag k="ssr:stedsnr" v="914515" />
	</node>
<<<<<<< HEAD
	<node lat="59.749983333206224" lon="5.9564444496424365" id="-42457">
=======
	<node id="-598814" lat="59.7485083347" lon="5.95409999651">
>>>>>>> e1d4bc35ff8a6074a6f2e91616a996b547c36f15
		<tag k="alt_name" v="Ness indre" />
		<tag k="fixme" v="consider place=hamlet" />
		<tag k="name" v="Indre Ness" />
		<tag k="place" v="farm" />
		<tag k="ssr:stedsnr" v="947052" />
	</node>
<<<<<<< HEAD
	<node lat="59.66064444333825" lon="5.942450005534661" id="-42475">
		<tag k="fixme" v="consider place=hamlet" />
		<tag k="name" v="Dyngjebakken" />
=======
	<node id="-598812" lat="59.7286749969" lon="5.91892500264">
		<tag k="name" v="Leknes" />
>>>>>>> e1d4bc35ff8a6074a6f2e91616a996b547c36f15
		<tag k="place" v="farm" />
		<tag k="ssr:stedsnr" v="948710" />
	</node>
<<<<<<< HEAD
	<node lat="59.960463887357655" lon="6.433252770303299" id="-42479">
		<tag k="fixme" v="consider tourism=alpine_hut or tourism=chalet" />
		<tag k="name" v="Sauabrehytta" />
		<tag k="ssr:stedsnr" v="962848" />
		<tag k="tourism" v="wilderness_hut" />
	</node>
	<node lat="59.6443963739722" lon="5.880206294857383" id="-42481">
		<tag k="name" v="Havnen" />
=======
	<node id="-598811" lat="59.6562289859" lon="5.92326715558">
		<tag k="loc_name" v="Matskår" />
		<tag k="name" v="Matskor" />
>>>>>>> e1d4bc35ff8a6074a6f2e91616a996b547c36f15
		<tag k="place" v="farm" />
		<tag k="ssr:stedsnr" v="974347" />
	</node>
<<<<<<< HEAD
	<node lat="59.72970695531959" lon="6.154165745410678" id="-42485">
		<tag k="fixme" v="consider place=hamlet" />
		<tag k="name" v="Bjørk" />
=======
	<node id="-598810" lat="59.7358361151" lon="5.90637499938">
		<tag k="name" v="Leknes" />
>>>>>>> e1d4bc35ff8a6074a6f2e91616a996b547c36f15
		<tag k="place" v="farm" />
		<tag k="ssr:stedsnr" v="990138" />
	</node>
<<<<<<< HEAD
	<node lat="59.71624059803189" lon="6.149650957321074" id="-42486">
		<tag k="fixme" v="consider place=hamlet" />
		<tag k="name" v="Rugtveit" />
=======
	<node id="-598801" lat="59.6700055552" lon="5.9393833373">
		<tag k="alt_name" v="Øyno" />
		<tag k="name" v="Øyna" />
>>>>>>> e1d4bc35ff8a6074a6f2e91616a996b547c36f15
		<tag k="place" v="farm" />
		<tag k="ssr:stedsnr" v="990140" />
	</node>
<<<<<<< HEAD
	<node lat="59.70445232543962" lon="6.104292286716293" id="-42487">
=======
	<node id="-598799" lat="59.7350528785" lon="6.12343699549">
>>>>>>> e1d4bc35ff8a6074a6f2e91616a996b547c36f15
		<tag k="fixme" v="consider place=hamlet" />
		<tag k="name" v="Håheimsnes" />
		<tag k="place" v="farm" />
		<tag k="ssr:stedsnr" v="990141" />
	</node>
<<<<<<< HEAD
	<node lat="59.69128045310071" lon="6.053216158979275" id="-42488">
=======
	<node id="-598797" lat="59.7224543368" lon="6.12151320465">
>>>>>>> e1d4bc35ff8a6074a6f2e91616a996b547c36f15
		<tag k="fixme" v="consider place=hamlet" />
		<tag k="name" v="Åsbø" />
		<tag k="place" v="farm" />
		<tag k="ssr:stedsnr" v="990142" />
	</node>
<<<<<<< HEAD
	<node lat="59.65264166565828" lon="5.981647227556909" id="-42491">
		<tag k="fixme" v="consider place=hamlet" />
		<tag k="name" v="Sørbygda" />
		<tag k="place" v="village" />
		<tag k="ssr:stedsnr" v="3458" />
	</node>
	<node lat="59.63152500267486" lon="5.983494444204211" id="-42492">
=======
	<node id="-598796" lat="59.591661113" lon="5.97832500037">
		<tag k="alt_name" v="Forvasstøl" />
>>>>>>> e1d4bc35ff8a6074a6f2e91616a996b547c36f15
		<tag k="historic" v="shieling" />
		<tag k="name" v="Fossastølen" />
		<tag k="place" v="isolated_dwelling" />
		<tag k="ssr:stedsnr" v="3473" />
	</node>
<<<<<<< HEAD
	<node lat="59.859724620025354" lon="6.28005267764694" id="-42501">
=======
	<node id="-598793" lat="59.6518943879" lon="6.01287931138">
>>>>>>> e1d4bc35ff8a6074a6f2e91616a996b547c36f15
		<tag k="fixme" v="consider place=hamlet" />
		<tag k="name" v="Eikemo" />
		<tag k="place" v="farm" />
		<tag k="ssr:stedsnr" v="4014" />
	</node>
<<<<<<< HEAD
	<node lat="59.74340555272188" lon="6.105841673691758" id="-42524">
		<tag k="name" v="Kyrping" />
		<tag k="place" v="farm" />
		<tag k="ssr:stedsnr" v="37397" />
	</node>
	<node lat="59.72063889272371" lon="6.202244446156517" id="-42538">
		<tag k="name" v="Hellaug" />
=======
	<node id="-598791" lat="59.8868722195" lon="6.48562500601">
		<tag k="alt_name" v="Skrommestølen nedre" />
		<tag k="historic" v="shieling" />
		<tag k="name" v="Skrumsstølen" />
		<tag k="place" v="locality" />
		<tag k="ssr:stedsnr" v="64489" />
	</node>
	<node id="-598786" lat="59.8067307566" lon="6.2189382082">
		<tag k="fixme" v="consider place=hamlet" />
		<tag k="name" v="Teigland" />
>>>>>>> e1d4bc35ff8a6074a6f2e91616a996b547c36f15
		<tag k="place" v="farm" />
		<tag k="ssr:stedsnr" v="37517" />
	</node>
<<<<<<< HEAD
	<node lat="59.6751861078149" lon="5.952605564010644" id="-42550">
		<tag k="name" v="Silla" />
=======
	<node id="-598784" lat="59.7049249967" lon="5.82410278566">
		<tag k="name" v="Ørevik" />
>>>>>>> e1d4bc35ff8a6074a6f2e91616a996b547c36f15
		<tag k="place" v="farm" />
		<tag k="ssr:stedsnr" v="38664" />
	</node>
<<<<<<< HEAD
	<node lat="59.88687221947682" lon="6.4856250060095775" id="-42557">
		<tag k="alt_name" v="Skrommestølen nedre" />
		<tag k="historic" v="shieling" />
		<tag k="name" v="Skrumsstølen" />
		<tag k="place" v="isolated_dwelling" />
		<tag k="ssr:stedsnr" v="64489" />
	</node>
	<node lat="59.651894387890145" lon="6.012879311383523" id="-42559">
=======
	<node id="-598779" lat="59.8230500022" lon="6.24549721876">
		<tag k="alt_name" v="Miljateigen, nedre" />
		<tag k="name" v="Nedre Miljateigen" />
		<tag k="place" v="locality" />
		<tag k="ssr:stedsnr" v="64043" />
	</node>
	<node id="-598777" lat="59.6947578277" lon="6.06814471892">
		<tag k="alt_name" v="Ekreim" />
>>>>>>> e1d4bc35ff8a6074a6f2e91616a996b547c36f15
		<tag k="fixme" v="consider place=hamlet" />
		<tag k="name" v="Auastad" />
		<tag k="place" v="farm" />
		<tag k="ssr:stedsnr" v="64498" />
	</node>
<<<<<<< HEAD
	<node lat="59.59166111300175" lon="5.978325000370243" id="-42560">
		<tag k="alt_name" v="Forvasstøl" />
		<tag k="historic" v="shieling" />
		<tag k="name" v="Furevasstølen" />
		<tag k="place" v="isolated_dwelling" />
		<tag k="ssr:stedsnr" v="64563" />
	</node>
	<node lat="59.64512999431619" lon="5.832333620417502" id="-42561">
=======
	<node id="-598776" lat="59.6752805566" lon="6.00986110801">
		<tag k="name" v="Vassenden" />
		<tag k="place" v="farm" />
		<tag k="ssr:stedsnr" v="63709" />
	</node>
	<node id="-598775" lat="59.6451299943" lon="5.83233362042">
>>>>>>> e1d4bc35ff8a6074a6f2e91616a996b547c36f15
		<tag k="alt_name" v="Bjørgo" />
		<tag k="fixme" v="consider place=hamlet" />
		<tag k="name" v="Bjørgjo" />
		<tag k="place" v="farm" />
		<tag k="ssr:stedsnr" v="63492" />
	</node>
<<<<<<< HEAD
	<node lat="59.72245433678962" lon="6.121513204650358" id="-42569">
		<tag k="fixme" v="consider place=hamlet" />
		<tag k="name" v="Lauareid" />
		<tag k="place" v="farm" />
		<tag k="ssr:stedsnr" v="64669" />
	</node>
	<node lat="59.73505287850937" lon="6.123436995488246" id="-42571">
=======
	<node id="-598774" lat="59.6928999969" lon="5.81132499183">
		<tag k="name" v="Vikane" />
		<tag k="place" v="isolated_dwelling" />
		<tag k="ssr:stedsnr" v="63069" />
	</node>
	<node id="-598771" lat="59.7345957184" lon="5.91175690251">
>>>>>>> e1d4bc35ff8a6074a6f2e91616a996b547c36f15
		<tag k="fixme" v="consider place=hamlet" />
		<tag k="name" v="Tjelmeland" />
		<tag k="place" v="farm" />
		<tag k="ssr:stedsnr" v="64687" />
	</node>
	<node lat="59.73583611507085" lon="5.906374999383951" id="-42580">
		<tag k="name" v="Leknes" />
		<tag k="place" v="farm" />
		<tag k="ssr:stedsnr" v="81485" />
	</node>
<<<<<<< HEAD
	<node lat="59.6562289858682" lon="5.923267155579679" id="-42581">
		<tag k="loc_name" v="Matskår" />
		<tag k="name" v="Matskor" />
=======
	<node id="-598766" lat="59.7349249972" lon="5.94290000867">
		<tag k="name" v="Stølen" />
>>>>>>> e1d4bc35ff8a6074a6f2e91616a996b547c36f15
		<tag k="place" v="farm" />
		<tag k="ssr:stedsnr" v="81493" />
	</node>
<<<<<<< HEAD
	<node lat="59.72867499688235" lon="5.918925002641109" id="-42582">
		<tag k="name" v="Leknes" />
=======
	<node id="-598753" lat="59.7010500039" lon="5.8272972135">
		<tag k="name" v="Sør-Ebna" />
>>>>>>> e1d4bc35ff8a6074a6f2e91616a996b547c36f15
		<tag k="place" v="farm" />
		<tag k="ssr:stedsnr" v="81494" />
	</node>
<<<<<<< HEAD
	<node lat="59.74850833466847" lon="5.95409999650507" id="-42585">
		<tag k="alt_name" v="Ness indre" />
		<tag k="name" v="Indre Ness" />
=======
	<node id="-598732" lat="59.7434055527" lon="6.10584167369">
		<tag k="name" v="Kyrping" />
>>>>>>> e1d4bc35ff8a6074a6f2e91616a996b547c36f15
		<tag k="place" v="farm" />
		<tag k="ssr:stedsnr" v="98046" />
	</node>
<<<<<<< HEAD
	<node lat="59.692591666855215" lon="6.000374998800821" id="-42587">
=======
	<node id="-598723" lat="59.7055958325" lon="5.94401873315">
		<tag k="alt_name" v="Miljaseter" />
>>>>>>> e1d4bc35ff8a6074a6f2e91616a996b547c36f15
		<tag k="historic" v="shieling" />
		<tag k="name" v="Hovlandstøl" />
		<tag k="place" v="isolated_dwelling" />
		<tag k="ssr:stedsnr" v="98225" />
	</node>
<<<<<<< HEAD
	<node lat="59.7142527732166" lon="6.063416659226556" id="-42593">
		<tag k="historic" v="shieling" />
		<tag k="name" v="Nernesstølen" />
		<tag k="place" v="isolated_dwelling" />
		<tag k="ssr:stedsnr" v="98290" />
	</node>
	<node lat="59.71866111170829" lon="6.083063884811353" id="-42605">
		<tag k="historic" v="shieling" />
		<tag k="name" v="Håvastøl" />
		<tag k="place" v="isolated_dwelling" />
		<tag k="ssr:stedsnr" v="98321" />
	</node>
	<node lat="59.72831161118919" lon="5.948507932849371" id="-42638">
		<tag k="alt_name" v="Åseim" />
=======
	<node id="-598717" lat="59.7257583318" lon="5.86336111518">
		<tag k="fixme" v="consider place=hamlet" />
		<tag k="name" v="Mortveit" />
		<tag k="place" v="farm" />
		<tag k="ssr:stedsnr" v="37707" />
	</node>
	<node id="-598715" lat="59.745369447" lon="5.95629166955">
		<tag k="name" v="Tjellflot" />
		<tag k="place" v="farm" />
		<tag k="ssr:stedsnr" v="31106" />
	</node>
	<node id="-598695" lat="59.85972462" lon="6.28005267765">
>>>>>>> e1d4bc35ff8a6074a6f2e91616a996b547c36f15
		<tag k="fixme" v="consider place=hamlet" />
		<tag k="name" v="Åsheim" />
		<tag k="place" v="farm" />
		<tag k="ssr:stedsnr" v="124598" />
	</node>
<<<<<<< HEAD
	<node lat="59.703425000834685" lon="5.822127773915436" id="-42639">
		<tag k="name" v="Haugen" />
		<tag k="place" v="farm" />
		<tag k="ssr:stedsnr" v="124044" />
	</node>
	<node lat="59.82538333239755" lon="6.24030832483099" id="-42641">
		<tag k="name" v="Saghaugen" />
=======
	<node id="-598689" lat="59.7413583373" lon="6.00543333781">
		<tag k="alt_name" v="Sjølyst" />
		<tag k="name" v="Skjela" />
		<tag k="place" v="farm" />
		<tag k="ssr:stedsnr" v="3624" />
	</node>
	<node id="-598685" lat="59.6315250027" lon="5.9834944442">
		<tag k="historic" v="shieling" />
		<tag k="name" v="Fossastølen" />
		<tag k="place" v="locality" />
		<tag k="ssr:stedsnr" v="3473" />
	</node>
	<node id="-598684" lat="59.6526416657" lon="5.98164722756">
		<tag k="fixme" v="consider place=hamlet" />
		<tag k="name" v="Sørbygda" />
		<tag k="place" v="village" />
		<tag k="ssr:stedsnr" v="3458" />
	</node>
	<node id="-598677" lat="59.8170833296" lon="6.22661667339">
		<tag k="alt_name" v="Flåtene" />
		<tag k="name" v="Floten" />
>>>>>>> e1d4bc35ff8a6074a6f2e91616a996b547c36f15
		<tag k="place" v="farm" />
		<tag k="ssr:stedsnr" v="124052" />
	</node>
<<<<<<< HEAD
	<node lat="59.64504988657685" lon="5.862256988954792" id="-42642">
=======
	<node id="-598676" lat="59.6824576473" lon="5.80105959639">
		<tag k="alt_name" v="Sandvika, øvre;Sandvik (øvre)" />
>>>>>>> e1d4bc35ff8a6074a6f2e91616a996b547c36f15
		<tag k="fixme" v="consider place=hamlet" />
		<tag k="name" v="Utstono" />
		<tag k="place" v="farm" />
		<tag k="ssr:stedsnr" v="124454" />
	</node>
<<<<<<< HEAD
	<node lat="59.66455414035674" lon="6.0541026898451" id="-42648">
=======
	<node id="-598663" lat="59.6606444433" lon="5.94245000553">
>>>>>>> e1d4bc35ff8a6074a6f2e91616a996b547c36f15
		<tag k="fixme" v="consider place=hamlet" />
		<tag k="name" v="Aukland" />
		<tag k="place" v="farm" />
<<<<<<< HEAD
		<tag k="ssr:stedsnr" v="124440" />
	</node>
	<node lat="59.6557694406919" lon="6.023938893846175" id="-42649">
=======
		<tag k="ssr:stedsnr" v="948710" />
	</node>
	<node id="-598660" lat="59.708824999" lon="6.18138333334">
		<tag k="historic" v="shieling" />
		<tag k="name" v="Frettestølen" />
		<tag k="place" v="locality" />
		<tag k="ssr:stedsnr" v="948565" />
	</node>
	<node id="-598655" lat="59.6865333352" lon="6.00543055292">
>>>>>>> e1d4bc35ff8a6074a6f2e91616a996b547c36f15
		<tag k="fixme" v="consider place=hamlet" />
		<tag k="name" v="Tessdal" />
		<tag k="place" v="farm" />
		<tag k="ssr:stedsnr" v="124444" />
	</node>
<<<<<<< HEAD
	<node lat="59.71356958099084" lon="6.0848635284240835" id="-42651">
		<tag k="alt_name" v="Hustuft" />
		<tag k="fixme" v="consider place=hamlet" />
		<tag k="name" v="Hustufta" />
=======
	<node id="-598648" lat="59.7023472206" lon="6.04098056387">
		<tag k="name" v="Norheimsstranda" />
>>>>>>> e1d4bc35ff8a6074a6f2e91616a996b547c36f15
		<tag k="place" v="farm" />
		<tag k="ssr:stedsnr" v="124648" />
	</node>
<<<<<<< HEAD
	<node lat="59.87793768054289" lon="6.426964130849663" id="-42658">
		<tag k="fixme" v="consider place=hamlet" />
		<tag k="name" v="Rullestad" />
=======
	<node id="-598641" lat="59.7604833356" lon="5.94703610467">
		<tag k="name" v="Vannes aust" />
>>>>>>> e1d4bc35ff8a6074a6f2e91616a996b547c36f15
		<tag k="place" v="farm" />
		<tag k="ssr:stedsnr" v="125513" />
	</node>
<<<<<<< HEAD
	<node lat="59.65826620366424" lon="5.921171273056359" id="-42659">
		<tag k="loc_name" v="Matskår" />
		<tag k="name" v="Matskor" />
=======
	<node id="-598637" lat="59.7368499987" lon="6.01442222998">
		<tag k="name" v="Fredheim" />
>>>>>>> e1d4bc35ff8a6074a6f2e91616a996b547c36f15
		<tag k="place" v="farm" />
		<tag k="ssr:stedsnr" v="141475" />
	</node>
<<<<<<< HEAD
	<node lat="59.73554444259969" lon="5.959000006043807" id="-42662">
		<tag k="historic" v="shieling" />
		<tag k="name" v="Hordastølen" />
		<tag k="place" v="isolated_dwelling" />
		<tag k="ssr:stedsnr" v="159290" />
	</node>
	<node lat="59.854444441302604" lon="6.336611112816256" id="-42670">
		<tag k="alt_name" v="Mosnes ytre" />
		<tag k="name" v="Ytre Mosnes" />
=======
	<node id="-598635" lat="59.6265694426" lon="5.88939166163">
		<tag k="name" v="Fikse" />
		<tag k="place" v="farm" />
		<tag k="ssr:stedsnr" v="887624" />
	</node>
	<node id="-598632" lat="59.6762916691" lon="5.90568055944">
		<tag k="name" v="Haugapadl" />
>>>>>>> e1d4bc35ff8a6074a6f2e91616a996b547c36f15
		<tag k="place" v="farm" />
		<tag k="ssr:stedsnr" v="159209" />
	</node>
<<<<<<< HEAD
	<node lat="59.734530553197104" lon="5.995752769131628" id="-42678">
		<tag k="name" v="Ytre Tungesvik" />
		<tag k="place" v="farm" />
		<tag k="ssr:stedsnr" v="159380" />
	</node>
	<node lat="59.65352499642868" lon="5.798863897623064" id="-42689">
		<tag k="name" v="Børjenes" />
=======
	<node id="-598628" lat="59.6579833348" lon="5.94986110748">
		<tag k="alt_name" v="Enerhaug" />
		<tag k="name" v="Einerhaug" />
		<tag k="place" v="farm" />
		<tag k="ssr:stedsnr" v="887706" />
	</node>
	<node id="-598618" lat="59.7499555534" lon="6.18385833137">
		<tag k="historic" v="shieling" />
		<tag k="name" v="Sommarflot" />
		<tag k="place" v="locality" />
		<tag k="ssr:stedsnr" v="887021" />
	</node>
	<node id="-598616" lat="59.6525472202" lon="6.10369444607">
		<tag k="historic" v="shieling" />
		<tag k="name" v="Skarstøl" />
		<tag k="place" v="locality" />
		<tag k="ssr:stedsnr" v="887011" />
	</node>
	<node id="-598613" lat="59.6253194446" lon="5.99553054935">
		<tag k="historic" v="shieling" />
		<tag k="name" v="Rus-stølen" />
		<tag k="place" v="locality" />
		<tag k="ssr:stedsnr" v="948797" />
	</node>
	<node id="-598612" lat="59.657252775" lon="5.99044444162">
		<tag k="fixme" v="consider place=hamlet" />
		<tag k="name" v="Rygg" />
>>>>>>> e1d4bc35ff8a6074a6f2e91616a996b547c36f15
		<tag k="place" v="farm" />
		<tag k="ssr:stedsnr" v="159645" />
	</node>
<<<<<<< HEAD
	<node lat="59.66298611062833" lon="5.939305552738361" id="-42691">
		<tag k="name" v="Gjerde" />
=======
	<node id="-598597" lat="59.7305361072" lon="6.1465416702">
		<tag k="name" v="Lunda" />
>>>>>>> e1d4bc35ff8a6074a6f2e91616a996b547c36f15
		<tag k="place" v="farm" />
		<tag k="ssr:stedsnr" v="159693" />
	</node>
<<<<<<< HEAD
	<node lat="59.652758334363234" lon="5.97241666263745" id="-42694">
		<tag k="alt_name" v="Fossa indre" />
		<tag k="name" v="Indre Fossa" />
=======
	<node id="-598584" lat="59.8524777768" lon="6.2695805529">
		<tag k="name" v="Fitjaneset" />
>>>>>>> e1d4bc35ff8a6074a6f2e91616a996b547c36f15
		<tag k="place" v="farm" />
		<tag k="ssr:stedsnr" v="159727" />
	</node>
<<<<<<< HEAD
	<node lat="59.62366110828914" lon="6.05564443781617" id="-42704">
		<tag k="historic" v="shieling" />
		<tag k="name" v="Auastadstølen" />
		<tag k="place" v="isolated_dwelling" />
		<tag k="ssr:stedsnr" v="185489" />
	</node>
	<node lat="59.701878743553465" lon="5.829049216843492" id="-42707">
		<tag k="alt_name" v="Midt-Ebna" />
		<tag k="name" v="Ebna" />
		<tag k="place" v="hamlet" />
		<tag k="ssr:stedsnr" v="185044" />
	</node>
	<node lat="59.742711111953255" lon="6.111574991756856" id="-42709">
		<tag k="name" v="Kyrping" />
=======
	<node id="-598577" lat="59.7499833332" lon="5.95644444964">
		<tag k="alt_name" v="Ness indre" />
		<tag k="fixme" v="consider place=hamlet" />
		<tag k="name" v="Indre Ness" />
		<tag k="place" v="farm" />
		<tag k="ssr:stedsnr" v="947052" />
	</node>
	<node id="-598575" lat="59.8968666667" lon="6.47743054849">
		<tag k="name" v="Langebu" />
>>>>>>> e1d4bc35ff8a6074a6f2e91616a996b547c36f15
		<tag k="place" v="farm" />
		<tag k="ssr:stedsnr" v="185623" />
	</node>
<<<<<<< HEAD
	<node lat="59.659187022912825" lon="6.0244467012152505" id="-42711">
		<tag k="alt_name" v="Halland" />
=======
	<node id="-598571" lat="59.713587241" lon="6.10968871097">
		<tag k="alt_name" v="Øvrenes" />
>>>>>>> e1d4bc35ff8a6074a6f2e91616a996b547c36f15
		<tag k="fixme" v="consider place=hamlet" />
		<tag k="name" v="Hallaland" />
		<tag k="place" v="farm" />
		<tag k="ssr:stedsnr" v="185461" />
	</node>
<<<<<<< HEAD
	<node lat="59.649700275831364" lon="5.906622903523108" id="-42712">
=======
	<node id="-598569" lat="59.716274998" lon="5.8665250071">
>>>>>>> e1d4bc35ff8a6074a6f2e91616a996b547c36f15
		<tag k="fixme" v="consider place=hamlet" />
		<tag k="name" v="Osnes" />
		<tag k="place" v="farm" />
		<tag k="ssr:stedsnr" v="185465" />
	</node>
<<<<<<< HEAD
	<node lat="59.70776388906041" lon="6.131463889365549" id="-42717">
		<tag k="alt_name" v="Øygarden" />
		<tag k="name" v="Øydgarden" />
=======
	<node id="-598568" lat="59.7295833318" lon="6.15092778304">
		<tag k="fixme" v="consider place=hamlet" />
		<tag k="name" v="Lunda" />
>>>>>>> e1d4bc35ff8a6074a6f2e91616a996b547c36f15
		<tag k="place" v="farm" />
		<tag k="ssr:stedsnr" v="185680" />
	</node>
<<<<<<< HEAD
	<node lat="59.70589999960121" lon="6.11563611849017" id="-42718">
		<tag k="name" v="Langeland" />
=======
	<node id="-598560" lat="59.6604222265" lon="6.01416110478">
		<tag k="name" v="Berge" />
>>>>>>> e1d4bc35ff8a6074a6f2e91616a996b547c36f15
		<tag k="place" v="farm" />
		<tag k="ssr:stedsnr" v="185681" />
	</node>
<<<<<<< HEAD
	<node lat="59.75873611287159" lon="5.945030551022494" id="-42724">
		<tag k="name" v="Kalvadalen" />
=======
	<node id="-598556" lat="59.8241086187" lon="6.20774456037">
		<tag k="fixme" v="consider place=hamlet" />
		<tag k="name" v="Bjelland" />
>>>>>>> e1d4bc35ff8a6074a6f2e91616a996b547c36f15
		<tag k="place" v="farm" />
		<tag k="ssr:stedsnr" v="186412" />
	</node>
<<<<<<< HEAD
	<node lat="59.920263885926445" lon="6.482722225890136" id="-42726">
		<tag k="alt_name" v="Bergstødstølen" />
		<tag k="historic" v="shieling" />
		<tag k="name" v="Bergstøstølen" />
		<tag k="place" v="isolated_dwelling" />
		<tag k="ssr:stedsnr" v="186521" />
	</node>
	<node lat="59.731491668161915" lon="6.167791673445259" id="-42728">
		<tag k="name" v="Tveito" />
		<tag k="place" v="farm" />
		<tag k="ssr:stedsnr" v="219499" />
	</node>
	<node lat="59.819947223835605" lon="6.182191672203796" id="-42755">
=======
	<node id="-598551" lat="59.867955557" lon="6.46091667223">
		<tag k="historic" v="shieling" />
		<tag k="name" v="Bjørnastølen" />
		<tag k="place" v="locality" />
		<tag k="ssr:stedsnr" v="793009" />
	</node>
	<node id="-598544" lat="59.8741722191" lon="6.38196111742">
		<tag k="alt_name" v="Åkrabotn" />
		<tag k="fixme" v="consider place=hamlet" />
		<tag k="name" v="Fjæra" />
		<tag k="place" v="village" />
		<tag k="ssr:stedsnr" v="914515" />
	</node>
	<node id="-598535" lat="59.7538194488" lon="6.18775555762">
		<tag k="alt_name" v="Hallelandstølen" />
		<tag k="historic" v="shieling" />
		<tag k="name" v="Hallalandsstølen" />
		<tag k="place" v="locality" />
		<tag k="ssr:stedsnr" v="914406" />
	</node>
	<node id="-598526" lat="59.8079166696" lon="6.14952500652">
		<tag k="alt_name" v="Kalvikstøl" />
>>>>>>> e1d4bc35ff8a6074a6f2e91616a996b547c36f15
		<tag k="historic" v="shieling" />
		<tag k="name" v="Hamarlandstøl" />
		<tag k="place" v="isolated_dwelling" />
		<tag k="ssr:stedsnr" v="220299" />
	</node>
<<<<<<< HEAD
	<node lat="59.87636111344736" lon="6.398374999377801" id="-42798">
		<tag k="name" v="Fossheim" />
=======
	<node id="-598525" lat="59.8095964716" lon="6.16580250889">
		<tag k="alt_name" v="Kaldvik;Kalvik" />
		<tag k="fixme" v="consider place=hamlet" />
		<tag k="name" v="Kallvika" />
>>>>>>> e1d4bc35ff8a6074a6f2e91616a996b547c36f15
		<tag k="place" v="farm" />
		<tag k="ssr:stedsnr" v="280787" />
	</node>
<<<<<<< HEAD
	<node lat="59.7377638902193" lon="6.11442500350729" id="-42810">
		<tag k="name" v="Grøtle" />
=======
	<node id="-598522" lat="59.7096111149" lon="5.84032500785">
		<tag k="alt_name" v="Lauvvika" />
		<tag k="name" v="Lauvvik" />
>>>>>>> e1d4bc35ff8a6074a6f2e91616a996b547c36f15
		<tag k="place" v="farm" />
		<tag k="ssr:stedsnr" v="287901" />
	</node>
<<<<<<< HEAD
	<node lat="59.672461111778915" lon="5.976699996718645" id="-42822">
		<tag k="name" v="Hetlebrekk" />
		<tag k="place" v="farm" />
		<tag k="ssr:stedsnr" v="306701" />
	</node>
	<node lat="59.73118888864614" lon="6.059536102919774" id="-42826">
		<tag k="name" v="Miljateigen" />
=======
	<node id="-598518" lat="59.8463388887" lon="6.37121944812">
		<tag k="historic" v="shieling" />
		<tag k="name" v="Fitastølen" />
		<tag k="place" v="locality" />
		<tag k="ssr:stedsnr" v="914063" />
	</node>
	<node id="-598513" lat="59.873472221" lon="6.39252221609">
		<tag k="name" v="Fossheim" />
>>>>>>> e1d4bc35ff8a6074a6f2e91616a996b547c36f15
		<tag k="place" v="farm" />
		<tag k="ssr:stedsnr" v="306653" />
	</node>
<<<<<<< HEAD
	<node lat="59.659322135032184" lon="5.92982065532102" id="-42828">
=======
	<node id="-598511" lat="59.8592772128" lon="6.35571164624">
		<tag k="alt_name" v="Eljarvik" />
>>>>>>> e1d4bc35ff8a6074a6f2e91616a996b547c36f15
		<tag k="fixme" v="consider place=hamlet" />
		<tag k="name" v="Gjerde" />
		<tag k="place" v="farm" />
		<tag k="ssr:stedsnr" v="306716" />
	</node>
<<<<<<< HEAD
	<node lat="59.8083972206455" lon="6.272727784933906" id="-42830">
=======
	<node id="-598510" lat="59.6623750002" lon="6.01601666182">
>>>>>>> e1d4bc35ff8a6074a6f2e91616a996b547c36f15
		<tag k="historic" v="shieling" />
		<tag k="name" v="Møssegro" />
		<tag k="place" v="isolated_dwelling" />
		<tag k="ssr:stedsnr" v="307085" />
	</node>
<<<<<<< HEAD
	<node lat="59.81979888320007" lon="6.239670561420091" id="-42834">
=======
	<node id="-598504" lat="59.6620820498" lon="5.85498570514">
>>>>>>> e1d4bc35ff8a6074a6f2e91616a996b547c36f15
		<tag k="fixme" v="consider place=hamlet" />
		<tag k="name" v="Markhus" />
		<tag k="place" v="farm" />
		<tag k="ssr:stedsnr" v="307042" />
	</node>
<<<<<<< HEAD
	<node lat="59.83867500321331" lon="6.150444447139205" id="-42835">
		<tag k="historic" v="shieling" />
		<tag k="name" v="Kvanndalsstølen" />
		<tag k="place" v="isolated_dwelling" />
		<tag k="ssr:stedsnr" v="307238" />
	</node>
	<node lat="59.78512777507339" lon="6.19197778158945" id="-42836">
		<tag k="alt_name" v="Rafdalsstøl, nedre" />
		<tag k="historic" v="shieling" />
		<tag k="name" v="Nedre Rafdalsstøl" />
		<tag k="place" v="isolated_dwelling" />
		<tag k="ssr:stedsnr" v="307348" />
	</node>
	<node lat="59.65241666242837" lon="5.804958328309512" id="-42841">
		<tag k="name" v="Vaulen" />
=======
	<node id="-598503" lat="59.6600925289" lon="5.94091586775">
		<tag k="alt_name" v="Flota;Floti" />
		<tag k="fixme" v="consider place=hamlet" />
		<tag k="name" v="Flåto" />
>>>>>>> e1d4bc35ff8a6074a6f2e91616a996b547c36f15
		<tag k="place" v="farm" />
		<tag k="ssr:stedsnr" v="307495" />
	</node>
<<<<<<< HEAD
	<node lat="59.654023197429936" lon="5.79706029152328" id="-42842">
		<tag k="alt_name" v="Bjørkjenes" />
=======
	<node id="-598501" lat="59.7091242759" lon="5.8584649846">
>>>>>>> e1d4bc35ff8a6074a6f2e91616a996b547c36f15
		<tag k="fixme" v="consider place=hamlet" />
		<tag k="name" v="Børkjenes" />
		<tag k="place" v="farm" />
		<tag k="ssr:stedsnr" v="307496" />
	</node>
<<<<<<< HEAD
	<node lat="59.76029890810713" lon="5.946709798019001" id="-42845">
		<tag k="alt_name" v="Indravannes;Vannes aust" />
		<tag k="name" v="Indra Vannes" />
		<tag k="place" v="farm" />
		<tag k="ssr:stedsnr" v="307389" />
	</node>
	<node lat="59.74793611212774" lon="6.137711119249588" id="-42862">
		<tag k="historic" v="shieling" />
		<tag k="name" v="Sævareidstølen" />
		<tag k="place" v="isolated_dwelling" />
		<tag k="ssr:stedsnr" v="341030" />
	</node>
	<node lat="59.64844166275384" lon="6.009350003126017" id="-42875">
=======
	<node id="-598494" lat="59.724936112" lon="5.86416944827">
		<tag k="fixme" v="consider place=hamlet" />
		<tag k="name" v="Mortveit" />
		<tag k="place" v="village" />
		<tag k="ssr:stedsnr" v="913628" />
	</node>
	<node id="-598493" lat="59.7457841171" lon="5.95306087689">
>>>>>>> e1d4bc35ff8a6074a6f2e91616a996b547c36f15
		<tag k="fixme" v="consider place=hamlet" />
		<tag k="name" v="Høyland" />
		<tag k="place" v="farm" />
		<tag k="ssr:stedsnr" v="341739" />
	</node>
<<<<<<< HEAD
	<node lat="59.838416664120864" lon="6.2314111138887" id="-42878">
		<tag k="name" v="Eikehaug" />
=======
	<node id="-598487" lat="59.637127778" lon="6.11940000304">
		<tag k="alt_name" v="Grindeimsstølen" />
		<tag k="historic" v="shieling" />
		<tag k="name" v="Grindheimsstølen" />
>>>>>>> e1d4bc35ff8a6074a6f2e91616a996b547c36f15
		<tag k="place" v="locality" />
		<tag k="ssr:stedsnr" v="347025" />
	</node>
<<<<<<< HEAD
	<node lat="59.82480555352091" lon="6.237405560576911" id="-42879">
		<tag k="name" v="Haugane" />
		<tag k="place" v="isolated_dwelling" />
		<tag k="ssr:stedsnr" v="347026" />
	</node>
	<node lat="59.787666666438334" lon="6.178011110116313" id="-42880">
		<tag k="name" v="Nygard" />
=======
	<node id="-598486" lat="59.6265828898" lon="5.90047319532">
		<tag k="fixme" v="consider place=hamlet" />
		<tag k="name" v="Kvammen" />
>>>>>>> e1d4bc35ff8a6074a6f2e91616a996b547c36f15
		<tag k="place" v="farm" />
		<tag k="ssr:stedsnr" v="347029" />
	</node>
<<<<<<< HEAD
	<node lat="59.805383332594936" lon="6.250969437346179" id="-42890">
=======
	<node id="-598481" lat="59.7213694477" lon="6.11106944829">
>>>>>>> e1d4bc35ff8a6074a6f2e91616a996b547c36f15
		<tag k="historic" v="shieling" />
		<tag k="name" v="Markhusstølen" />
		<tag k="place" v="isolated_dwelling" />
		<tag k="ssr:stedsnr" v="367070" />
	</node>
<<<<<<< HEAD
	<node lat="59.84338120539296" lon="6.267718985874134" id="-42894">
=======
	<node id="-598478" lat="59.6586602799" lon="5.96626769497">
>>>>>>> e1d4bc35ff8a6074a6f2e91616a996b547c36f15
		<tag k="fixme" v="consider place=hamlet" />
		<tag k="name" v="Bakka" />
		<tag k="place" v="farm" />
		<tag k="ssr:stedsnr" v="368004" />
	</node>
	<node lat="59.85848055131712" lon="6.470891674219934" id="-42895">
		<tag k="alt_name" v="Bordalen" />
		<tag k="historic" v="shieling" />
		<tag k="name" v="Borddalen" />
		<tag k="place" v="isolated_dwelling" />
		<tag k="ssr:stedsnr" v="368008" />
	</node>
<<<<<<< HEAD
	<node lat="59.697300759452745" lon="6.037808141845832" id="-42900">
		<tag k="alt_name" v="Noreim" />
=======
	<node id="-598477" lat="59.6638745102" lon="6.06743932909">
>>>>>>> e1d4bc35ff8a6074a6f2e91616a996b547c36f15
		<tag k="fixme" v="consider place=hamlet" />
		<tag k="name" v="Norheim" />
		<tag k="place" v="farm" />
		<tag k="ssr:stedsnr" v="367688" />
	</node>
<<<<<<< HEAD
	<node lat="59.73408888995415" lon="5.992808330940003" id="-42905">
		<tag k="alt_name" v="Ytra Tungesvik" />
		<tag k="name" v="Tungesvikstranda" />
=======
	<node id="-598475" lat="59.6992138877" lon="5.82441111591">
		<tag k="name" v="Gardvik" />
>>>>>>> e1d4bc35ff8a6074a6f2e91616a996b547c36f15
		<tag k="place" v="farm" />
		<tag k="ssr:stedsnr" v="367653" />
	</node>
<<<<<<< HEAD
	<node lat="59.713234924415396" lon="6.143143405237951" id="-42909">
=======
	<node id="-598473" lat="59.7426236062" lon="6.11858171154">
		<tag k="alt_name" v="Sævareid øvre" />
>>>>>>> e1d4bc35ff8a6074a6f2e91616a996b547c36f15
		<tag k="fixme" v="consider place=hamlet" />
		<tag k="name" v="Flåte" />
		<tag k="place" v="farm" />
		<tag k="ssr:stedsnr" v="367667" />
	</node>
<<<<<<< HEAD
	<node lat="59.720324995486656" lon="6.203499993146274" id="-42910">
		<tag k="historic" v="shieling" />
		<tag k="name" v="Hellaug" />
		<tag k="place" v="isolated_dwelling" />
		<tag k="ssr:stedsnr" v="367669" />
	</node>
	<node lat="59.73598055533936" lon="5.910005548162679" id="-42917">
		<tag k="name" v="Leknes" />
=======
	<node id="-598466" lat="59.8764250023" lon="6.39999445013">
		<tag k="name" v="Austerheim" />
>>>>>>> e1d4bc35ff8a6074a6f2e91616a996b547c36f15
		<tag k="place" v="farm" />
		<tag k="ssr:stedsnr" v="384466" />
	</node>
<<<<<<< HEAD
	<node lat="59.73770833758702" lon="6.1195944525863695" id="-42918">
		<tag k="name" v="Tjelmeland" />
=======
	<node id="-598462" lat="59.8639942286" lon="6.32850992349">
		<tag k="alt_name" v="Masdal" />
		<tag k="fixme" v="consider place=hamlet" />
		<tag k="name" v="Mosdalen" />
>>>>>>> e1d4bc35ff8a6074a6f2e91616a996b547c36f15
		<tag k="place" v="farm" />
		<tag k="ssr:stedsnr" v="395141" />
	</node>
<<<<<<< HEAD
	<node lat="59.69870258649336" lon="6.111746763638798" id="-42928">
		<tag k="alt_name" v="Håeim" />
=======
	<node id="-598459" lat="59.7266740916" lon="5.87959714408">
>>>>>>> e1d4bc35ff8a6074a6f2e91616a996b547c36f15
		<tag k="fixme" v="consider place=hamlet" />
		<tag k="name" v="Håheim" />
		<tag k="place" v="farm" />
		<tag k="ssr:stedsnr" v="401439" />
	</node>
<<<<<<< HEAD
	<node lat="59.743861108885675" lon="6.115594438475592" id="-42936">
		<tag k="name" v="Varden" />
=======
	<node id="-598455" lat="59.6753915254" lon="5.95577754839">
		<tag k="fixme" v="consider place=hamlet" />
		<tag k="name" v="Kambe" />
>>>>>>> e1d4bc35ff8a6074a6f2e91616a996b547c36f15
		<tag k="place" v="farm" />
		<tag k="ssr:stedsnr" v="401396" />
	</node>
<<<<<<< HEAD
	<node lat="59.6713777791051" lon="5.893030559762976" id="-42939">
		<tag k="name" v="Brøllom" />
		<tag k="place" v="farm" />
		<tag k="ssr:stedsnr" v="401601" />
	</node>
	<node lat="59.73169444455298" lon="5.935847221613692" id="-42943">
		<tag k="name" v="Berge" />
=======
	<node id="-598447" lat="59.7495944454" lon="6.12155832531">
		<tag k="historic" v="shieling" />
		<tag k="name" v="Mikkjelstræet" />
		<tag k="place" v="locality" />
		<tag k="ssr:stedsnr" v="893887" />
	</node>
	<node id="-598445" lat="59.6657638902" lon="6.0701111151">
		<tag k="name" v="Kvio" />
>>>>>>> e1d4bc35ff8a6074a6f2e91616a996b547c36f15
		<tag k="place" v="farm" />
		<tag k="ssr:stedsnr" v="401733" />
	</node>
<<<<<<< HEAD
	<node lat="59.73608888809429" lon="5.91307777019008" id="-42944">
=======
	<node id="-598438" lat="59.6994111079" lon="6.01485277859">
>>>>>>> e1d4bc35ff8a6074a6f2e91616a996b547c36f15
		<tag k="historic" v="shieling" />
		<tag k="name" v="Havnastøl" />
		<tag k="place" v="isolated_dwelling" />
		<tag k="ssr:stedsnr" v="401735" />
	</node>
<<<<<<< HEAD
	<node lat="59.655808333140754" lon="5.946722221294757" id="-42952">
		<tag k="name" v="Gjerde" />
=======
	<node id="-598434" lat="59.6598777762" lon="5.94098610883">
		<tag k="name" v="Flåto" />
>>>>>>> e1d4bc35ff8a6074a6f2e91616a996b547c36f15
		<tag k="place" v="farm" />
		<tag k="ssr:stedsnr" v="402732" />
	</node>
<<<<<<< HEAD
	<node lat="59.65525832893893" lon="6.03014999447089" id="-42954">
		<tag k="name" v="Myro" />
=======
	<node id="-598432" lat="59.713427774" lon="5.86580000918">
		<tag k="name" v="Gjelmarvik" />
>>>>>>> e1d4bc35ff8a6074a6f2e91616a996b547c36f15
		<tag k="place" v="farm" />
		<tag k="ssr:stedsnr" v="402707" />
	</node>
<<<<<<< HEAD
	<node lat="59.65286388756951" lon="6.02589166781499" id="-42955">
		<tag k="name" v="Tesdal" />
		<tag k="place" v="farm" />
		<tag k="ssr:stedsnr" v="402708" />
	</node>
	<node lat="59.67741666566619" lon="5.937608337151238" id="-42959">
		<tag k="name" v="Skomdal" />
		<tag k="place" v="farm" />
		<tag k="ssr:stedsnr" v="424687" />
	</node>
	<node lat="59.73288055316313" lon="5.937625000909136" id="-42965">
		<tag k="name" v="Skånevik" />
		<tag k="place" v="village" />
		<tag k="ssr:stedsnr" v="428643" />
	</node>
	<node lat="59.67174155358519" lon="5.9971400276562665" id="-42967">
		<tag k="name" v="Håfoss" />
		<tag k="place" v="village" />
		<tag k="ssr:stedsnr" v="428734" />
	</node>
	<node lat="59.708180552960286" lon="6.1826583309203365" id="-42970">
		<tag k="historic" v="shieling" />
		<tag k="name" v="Hovdastølen" />
		<tag k="place" v="isolated_dwelling" />
		<tag k="ssr:stedsnr" v="428699" />
	</node>
	<node lat="59.857483334195145" lon="6.3691083377500854" id="-42972">
=======
	<node id="-598420" lat="59.7455361075" lon="6.15172222104">
		<tag k="historic" v="shieling" />
		<tag k="name" v="Tjelmelandstølen" />
		<tag k="place" v="locality" />
		<tag k="ssr:stedsnr" v="887499" />
	</node>
	<node id="-598414" lat="59.6836500033" lon="6.13095555621">
		<tag k="historic" v="shieling" />
		<tag k="name" v="Sønnereistølen" />
		<tag k="place" v="locality" />
		<tag k="ssr:stedsnr" v="887378" />
	</node>
	<node id="-598401" lat="59.7930388896" lon="6.20695000633">
		<tag k="historic" v="shieling" />
		<tag k="name" v="Ripelen" />
		<tag k="place" v="locality" />
		<tag k="ssr:stedsnr" v="671334" />
	</node>
	<node id="-598398" lat="59.7394194429" lon="6.06456667227">
		<tag k="name" v="Bakken" />
		<tag k="place" v="locality" />
		<tag k="ssr:stedsnr" v="650876" />
	</node>
	<node id="-598385" lat="59.7753972239" lon="6.18794167046">
		<tag k="alt_name" v="Rafdalsstøl, øvre" />
>>>>>>> e1d4bc35ff8a6074a6f2e91616a996b547c36f15
		<tag k="historic" v="shieling" />
		<tag k="name" v="Skrøyva" />
		<tag k="place" v="isolated_dwelling" />
		<tag k="ssr:stedsnr" v="429001" />
	</node>
<<<<<<< HEAD
	<node lat="59.84454386742512" lon="6.2917081514786055" id="-42978">
		<tag k="fixme" v="consider place=hamlet" />
		<tag k="name" v="Bråskot" />
		<tag k="place" v="farm" />
		<tag k="ssr:stedsnr" v="429049" />
	</node>
	<node lat="59.724934784609246" lon="5.932474713092217" id="-42986">
=======
	<node id="-598384" lat="59.8047500002" lon="6.21536389106">
		<tag k="name" v="Krokstød" />
		<tag k="place" v="farm" />
		<tag k="ssr:stedsnr" v="732336" />
	</node>
	<node id="-598382" lat="59.821550004" lon="6.17446110621">
		<tag k="historic" v="shieling" />
		<tag k="name" v="Hammarslandsstøl" />
		<tag k="place" v="locality" />
		<tag k="ssr:stedsnr" v="732227" />
	</node>
	<node id="-598370" lat="59.7231694413" lon="6.13247499657">
>>>>>>> e1d4bc35ff8a6074a6f2e91616a996b547c36f15
		<tag k="fixme" v="consider place=hamlet" />
		<tag k="name" v="Tjelle" />
		<tag k="place" v="farm" />
		<tag k="ssr:stedsnr" v="670647" />
	</node>
<<<<<<< HEAD
	<node lat="59.79091389304949" lon="6.307927774162195" id="-42988">
		<tag k="fixme" v="consider tourism=alpine_hut or tourism=chalet" />
		<tag k="name" v="Sandvasshytta" />
		<tag k="ssr:stedsnr" v="510931" />
		<tag k="tourism" v="wilderness_hut" />
	</node>
	<node lat="59.60602222626896" lon="5.976663886685241" id="-42989">
=======
	<node id="-598367" lat="59.6032944428" lon="5.9641583416">
		<tag k="alt_name" v="Staurskarstølen" />
		<tag k="historic" v="shieling" />
		<tag k="name" v="Staurskorsstølen" />
		<tag k="place" v="locality" />
		<tag k="ssr:stedsnr" v="731519" />
	</node>
	<node id="-598366" lat="59.6259277735" lon="5.99986666476">
>>>>>>> e1d4bc35ff8a6074a6f2e91616a996b547c36f15
		<tag k="historic" v="shieling" />
		<tag k="name" v="Fossastølen" />
		<tag k="place" v="isolated_dwelling" />
		<tag k="ssr:stedsnr" v="513096" />
	</node>
	<node lat="59.6611972258043" lon="5.944830551048871" id="-42990">
		<tag k="fixme" v="consider place=hamlet" />
		<tag k="name" v="Skjensvoll" />
		<tag k="place" v="farm" />
		<tag k="ssr:stedsnr" v="523721" />
	</node>
<<<<<<< HEAD
	<node lat="59.774888893144166" lon="6.1736305527007245" id="-42998">
=======
	<node id="-598362" lat="59.6251555543" lon="5.94247500598">
>>>>>>> e1d4bc35ff8a6074a6f2e91616a996b547c36f15
		<tag k="historic" v="shieling" />
		<tag k="name" v="Slåttestølen" />
		<tag k="place" v="isolated_dwelling" />
		<tag k="ssr:stedsnr" v="523156" />
	</node>
<<<<<<< HEAD
	<node lat="59.74546389031637" lon="6.20026389134982" id="-43015">
		<tag k="name" v="Volme" />
=======
	<node id="-598361" lat="59.8374743978" lon="6.3106129918">
		<tag k="alt_name" v="Bjørkestrand" />
		<tag k="fixme" v="consider place=hamlet" />
		<tag k="name" v="Bjørkestronda" />
>>>>>>> e1d4bc35ff8a6074a6f2e91616a996b547c36f15
		<tag k="place" v="farm" />
		<tag k="ssr:stedsnr" v="523574" />
	</node>
<<<<<<< HEAD
	<node lat="59.66039167104221" lon="5.934877777705293" id="-43018">
=======
	<node id="-598358" lat="59.6862674829" lon="5.79841118546">
		<tag k="alt_name" v="Sandvika;Sandvik (nedre)" />
>>>>>>> e1d4bc35ff8a6074a6f2e91616a996b547c36f15
		<tag k="fixme" v="consider place=hamlet" />
		<tag k="name" v="Haugen" />
		<tag k="place" v="farm" />
		<tag k="ssr:stedsnr" v="523593" />
	</node>
<<<<<<< HEAD
	<node lat="59.6719177165212" lon="5.9511987578942" id="-43036">
=======
	<node id="-598352" lat="59.8264583344" lon="6.211097228">
		<tag k="alt_name" v="Intveit" />
>>>>>>> e1d4bc35ff8a6074a6f2e91616a996b547c36f15
		<tag k="fixme" v="consider place=hamlet" />
		<tag k="name" v="Enge" />
		<tag k="place" v="farm" />
		<tag k="ssr:stedsnr" v="529968" />
	</node>
<<<<<<< HEAD
	<node lat="59.639057477398715" lon="5.900453151020911" id="-43051">
		<tag k="fixme" v="consider place=hamlet" />
		<tag k="name" v="Meland" />
=======
	<node id="-598348" lat="59.8193611152" lon="6.23504444515">
		<tag k="fixme" v="multiple name tags, choose one and add the other to alt_name" />
		<tag k="name" v="Hagen;Klokkaren" />
>>>>>>> e1d4bc35ff8a6074a6f2e91616a996b547c36f15
		<tag k="place" v="farm" />
		<tag k="ssr:stedsnr" v="549489" />
	</node>
<<<<<<< HEAD
	<node lat="59.65286389129418" lon="6.021500003344907" id="-43052">
		<tag k="name" v="Etne" />
=======
	<node id="-598345" lat="59.7414833321" lon="5.96318054852">
		<tag k="fixme" v="consider place=hamlet" />
		<tag k="name" v="Flesjo" />
>>>>>>> e1d4bc35ff8a6074a6f2e91616a996b547c36f15
		<tag k="place" v="farm" />
		<tag k="ssr:stedsnr" v="549495" />
	</node>
<<<<<<< HEAD
	<node lat="59.65924075001473" lon="5.921532656888141" id="-43053">
		<tag k="name" v="Matskår" />
		<tag k="place" v="farm" />
		<tag k="ssr:stedsnr" v="549721" />
	</node>
	<node lat="59.90537259394973" lon="6.493691486316245" id="-43060">
		<tag k="alt_name" v="Bergstød" />
		<tag k="fixme" v="consider place=hamlet" />
		<tag k="name" v="Bergstø" />
=======
	<node id="-598335" lat="59.6732638886" lon="5.78729167403">
		<tag k="name" v="Stølane" />
		<tag k="place" v="locality" />
		<tag k="ssr:stedsnr" v="711947" />
	</node>
	<node id="-598330" lat="59.7023611071" lon="5.82917222534">
		<tag k="name" v="Haugen" />
>>>>>>> e1d4bc35ff8a6074a6f2e91616a996b547c36f15
		<tag k="place" v="farm" />
		<tag k="ssr:stedsnr" v="550467" />
	</node>
<<<<<<< HEAD
	<node lat="59.88143456175482" lon="6.464718961888577" id="-43063">
		<tag k="alt_name" v="Skromme" />
		<tag k="fixme" v="consider place=hamlet" />
		<tag k="name" v="Skrumme" />
=======
	<node id="-598327" lat="59.7259250008" lon="6.13880555653">
		<tag k="name" v="Trongjo" />
>>>>>>> e1d4bc35ff8a6074a6f2e91616a996b547c36f15
		<tag k="place" v="farm" />
		<tag k="ssr:stedsnr" v="550482" />
	</node>
	<node lat="59.76181501405892" lon="5.937917020244089" id="-43065">
		<tag k="alt_name" v="Vannes aust;Indra Vannes" />
		<tag k="name" v="Vannes" />
		<tag k="place" v="hamlet" />
		<tag k="ssr:stedsnr" v="550370" />
	</node>
	<node lat="59.74664721891707" lon="6.158733330415664" id="-43070">
		<tag k="historic" v="shieling" />
		<tag k="name" v="Verdalen" />
		<tag k="place" v="isolated_dwelling" />
		<tag k="ssr:stedsnr" v="583027" />
	</node>
	<node lat="59.68610000311998" lon="6.1276750013971375" id="-43084">
		<tag k="historic" v="shieling" />
		<tag k="name" v="Flokatveitstølen" />
		<tag k="place" v="isolated_dwelling" />
		<tag k="ssr:stedsnr" v="583375" />
	</node>
<<<<<<< HEAD
	<node lat="59.72825000164796" lon="6.145088893414914" id="-43088">
=======
	<node id="-598326" lat="59.7282500016" lon="6.14508889341">
>>>>>>> e1d4bc35ff8a6074a6f2e91616a996b547c36f15
		<tag k="name" v="Lundavågen" />
		<tag k="place" v="farm" />
		<tag k="ssr:stedsnr" v="583485" />
	</node>
<<<<<<< HEAD
	<node lat="59.72592500076068" lon="6.138805556532939" id="-43089">
		<tag k="name" v="Trongjo" />
=======
	<node id="-598323" lat="59.7333027782" lon="5.99178333121">
		<tag k="name" v="Vikjo" />
>>>>>>> e1d4bc35ff8a6074a6f2e91616a996b547c36f15
		<tag k="place" v="farm" />
		<tag k="ssr:stedsnr" v="583486" />
	</node>
<<<<<<< HEAD
	<node lat="59.64200630326973" lon="5.915792771541819" id="-43092">
		<tag k="fixme" v="consider place=hamlet" />
		<tag k="name" v="Osvåg" />
=======
	<node id="-598304" lat="59.7284083307" lon="5.86933889796">
		<tag k="name" v="Mortveit" />
>>>>>>> e1d4bc35ff8a6074a6f2e91616a996b547c36f15
		<tag k="place" v="farm" />
		<tag k="ssr:stedsnr" v="583528" />
	</node>
<<<<<<< HEAD
	<node lat="59.88206666835571" lon="6.4933916616995555" id="-43100">
		<tag k="alt_name" v="Skrommestølen øvre" />
		<tag k="historic" v="shieling" />
		<tag k="name" v="Øvre Skrommestølen" />
		<tag k="place" v="isolated_dwelling" />
		<tag k="ssr:stedsnr" v="583781" />
	</node>
	<node lat="59.64177499824324" lon="5.920961113984179" id="-43101">
		<tag k="fixme" v="consider place=hamlet" />
		<tag k="name" v="Ingelsgjerd" />
=======
	<node id="-598301" lat="59.6722222265" lon="5.95443888677">
		<tag k="name" v="Revhaug" />
		<tag k="place" v="farm" />
		<tag k="ssr:stedsnr" v="705721" />
	</node>
	<node id="-598300" lat="59.6736916625" lon="5.9418555639">
		<tag k="name" v="Øvre Fitja" />
>>>>>>> e1d4bc35ff8a6074a6f2e91616a996b547c36f15
		<tag k="place" v="farm" />
		<tag k="ssr:stedsnr" v="590000" />
	</node>
<<<<<<< HEAD
	<node lat="59.66191388540371" lon="5.979527784874374" id="-43104">
		<tag k="name" v="Steinshagen" />
=======
	<node id="-598299" lat="59.6703183054" lon="6.00179303451">
		<tag k="name" v="Håfoss" />
>>>>>>> e1d4bc35ff8a6074a6f2e91616a996b547c36f15
		<tag k="place" v="farm" />
		<tag k="ssr:stedsnr" v="609473" />
	</node>
<<<<<<< HEAD
	<node lat="59.76552192367569" lon="5.939401981966607" id="-43117">
		<tag k="alt_name" v="Ytravannes" />
		<tag k="fixme" v="consider place=hamlet" />
		<tag k="name" v="Ytra Vannes" />
=======
	<node id="-598284" lat="59.6886194442" lon="6.08146389777">
		<tag k="name" v="Klepp" />
>>>>>>> e1d4bc35ff8a6074a6f2e91616a996b547c36f15
		<tag k="place" v="farm" />
		<tag k="ssr:stedsnr" v="610400" />
	</node>
<<<<<<< HEAD
	<node lat="59.71466388942902" lon="6.105002773558041" id="-43133">
		<tag k="name" v="Øvernes" />
=======
	<node id="-598280" lat="59.7234916662" lon="6.12783611423">
		<tag k="name" v="Ljusnes" />
>>>>>>> e1d4bc35ff8a6074a6f2e91616a996b547c36f15
		<tag k="place" v="farm" />
		<tag k="ssr:stedsnr" v="644317" />
	</node>
<<<<<<< HEAD
	<node lat="59.73796110999927" lon="6.1511888912017225" id="-43135">
		<tag k="historic" v="shieling" />
		<tag k="name" v="Bjørkestølen" />
		<tag k="place" v="isolated_dwelling" />
		<tag k="ssr:stedsnr" v="644431" />
	</node>
	<node lat="59.660383331471685" lon="6.056827773274647" id="-43139">
		<tag k="name" v="Halsnes" />
=======
	<node id="-598274" lat="59.8447416675" lon="6.29108610438">
		<tag k="fixme" v="consider place=hamlet" />
		<tag k="name" v="Bråskot" />
		<tag k="place" v="farm" />
		<tag k="ssr:stedsnr" v="705256" />
	</node>
	<node id="-598272" lat="59.8233083355" lon="6.24600554668">
		<tag k="alt_name" v="Miljateig nedre;Miljateig" />
		<tag k="name" v="Nedre Miljateig" />
>>>>>>> e1d4bc35ff8a6074a6f2e91616a996b547c36f15
		<tag k="place" v="farm" />
		<tag k="ssr:stedsnr" v="644381" />
	</node>
<<<<<<< HEAD
	<node lat="59.7443104168749" lon="6.109910750732476" id="-43142">
		<tag k="alt_name" v="Sævareid nedre" />
		<tag k="fixme" v="consider place=hamlet" />
		<tag k="name" v="Nedre Sævareid" />
=======
	<node id="-598253" lat="59.7043000036" lon="5.83450000298">
		<tag k="name" v="Tveitavollen" />
>>>>>>> e1d4bc35ff8a6074a6f2e91616a996b547c36f15
		<tag k="place" v="farm" />
		<tag k="ssr:stedsnr" v="644421" />
	</node>
<<<<<<< HEAD
	<node lat="59.703763885731576" lon="5.822108340584482" id="-43143">
		<tag k="name" v="Teigane" />
=======
	<node id="-598247" lat="59.7454638903" lon="6.20026389135">
		<tag k="name" v="Volme" />
>>>>>>> e1d4bc35ff8a6074a6f2e91616a996b547c36f15
		<tag k="place" v="farm" />
		<tag k="ssr:stedsnr" v="644618" />
	</node>
<<<<<<< HEAD
	<node lat="59.668288915964204" lon="6.005324193352238" id="-43144">
		<tag k="alt_name" v="Grindeim" />
		<tag k="fixme" v="consider place=hamlet" />
		<tag k="name" v="Grindheim" />
		<tag k="place" v="farm" />
		<tag k="ssr:stedsnr" v="644676" />
	</node>
	<node lat="59.739419442911405" lon="6.064566672272251" id="-43154">
		<tag k="name" v="Bakken" />
=======
	<node id="-598237" lat="59.7977472234" lon="6.24435833926">
		<tag k="historic" v="shieling" />
		<tag k="name" v="Kleppstølen" />
		<tag k="place" v="locality" />
		<tag k="ssr:stedsnr" v="523178" />
	</node>
	<node id="-598235" lat="59.7950249977" lon="6.23762500128">
		<tag k="historic" v="shieling" />
		<tag k="name" v="Nystøl" />
>>>>>>> e1d4bc35ff8a6074a6f2e91616a996b547c36f15
		<tag k="place" v="locality" />
		<tag k="ssr:stedsnr" v="650876" />
	</node>
<<<<<<< HEAD
	<node lat="59.663215886400714" lon="5.799308727604492" id="-43161">
		<tag k="fixme" v="consider place=hamlet" />
		<tag k="name" v="Helleland" />
		<tag k="place" v="farm" />
		<tag k="ssr:stedsnr" v="670461" />
	</node>
	<node lat="59.59893055976352" lon="5.983341666626654" id="-43166">
		<tag k="alt_name" v="Gralsetestølen" />
		<tag k="historic" v="shieling" />
		<tag k="name" v="Grallsetstølen" />
		<tag k="place" v="isolated_dwelling" />
		<tag k="ssr:stedsnr" v="670530" />
	</node>
	<node lat="59.73088500282592" lon="6.172495271440387" id="-43168">
=======
	<node id="-598234" lat="59.7748888931" lon="6.1736305527">
		<tag k="historic" v="shieling" />
		<tag k="name" v="Slåttestølen" />
		<tag k="place" v="locality" />
		<tag k="ssr:stedsnr" v="523156" />
	</node>
	<node id="-598229" lat="59.6060222263" lon="5.97666388669">
		<tag k="historic" v="shieling" />
		<tag k="name" v="Fossastølen" />
		<tag k="place" v="locality" />
		<tag k="ssr:stedsnr" v="513096" />
	</node>
	<node id="-598228" lat="59.790913893" lon="6.30792777416">
		<tag k="fixme" v="consider tourism=alpine_hut or tourism=chalet" />
		<tag k="name" v="Sandvasshytta" />
		<tag k="ssr:stedsnr" v="510931" />
		<tag k="tourism" v="wilderness_hut" />
	</node>
	<node id="-598220" lat="59.8131793947" lon="6.18767336803">
		<tag k="alt_name" v="Hamarsland" />
>>>>>>> e1d4bc35ff8a6074a6f2e91616a996b547c36f15
		<tag k="fixme" v="consider place=hamlet" />
		<tag k="name" v="Tveito" />
		<tag k="place" v="farm" />
		<tag k="ssr:stedsnr" v="670669" />
	</node>
<<<<<<< HEAD
	<node lat="59.70758182656357" lon="5.852124506103856" id="-43169">
		<tag k="fixme" v="consider place=hamlet" />
		<tag k="name" v="Lauvvika" />
		<tag k="place" v="farm" />
		<tag k="ssr:stedsnr" v="670678" />
	</node>
	<node lat="59.67326388861207" lon="5.787291674026407" id="-43171">
		<tag k="name" v="Stølane" />
=======
	<node id="-598215" lat="59.6691398154" lon="5.79230020537">
		<tag k="alt_name" v="Nervik" />
		<tag k="fixme" v="consider place=hamlet" />
		<tag k="name" v="Nervika" />
		<tag k="place" v="farm" />
		<tag k="ssr:stedsnr" v="488027" />
	</node>
	<node id="-598212" lat="59.6546249992" lon="5.83392500531">
		<tag k="name" v="Holmaseid" />
		<tag k="place" v="farm" />
		<tag k="ssr:stedsnr" v="671481" />
	</node>
	<node id="-598211" lat="59.8894226022" lon="6.32090411767">
		<tag k="historic" v="shieling" />
		<tag k="name" v="Lunddalen" />
		<tag k="place" v="locality" />
		<tag k="ssr:stedsnr" v="671479" />
	</node>
	<node id="-598209" lat="59.9258361089" lon="6.37960555544">
		<tag k="historic" v="shieling" />
		<tag k="name" v="Sandvikestølen" />
>>>>>>> e1d4bc35ff8a6074a6f2e91616a996b547c36f15
		<tag k="place" v="locality" />
		<tag k="ssr:stedsnr" v="711947" />
	</node>
<<<<<<< HEAD
	<node lat="59.82645833438656" lon="6.211097228003174" id="-43175">
		<tag k="alt_name" v="Intveit" />
=======
	<node id="-598207" lat="59.7523640104" lon="6.20407898977">
		<tag k="alt_name" v="Øyno" />
>>>>>>> e1d4bc35ff8a6074a6f2e91616a996b547c36f15
		<tag k="fixme" v="consider place=hamlet" />
		<tag k="name" v="Eintveit" />
		<tag k="place" v="farm" />
<<<<<<< HEAD
		<tag k="ssr:stedsnr" v="721178" />
	</node>
	<node lat="59.60329444280998" lon="5.964158341599076" id="-43176">
		<tag k="alt_name" v="Staurskarstølen" />
=======
		<tag k="ssr:stedsnr" v="671399" />
	</node>
	<node id="-598206" lat="59.7594249991" lon="6.19408611254">
		<tag k="historic" v="shieling" />
		<tag k="name" v="Gamlestølen" />
		<tag k="place" v="locality" />
		<tag k="ssr:stedsnr" v="671393" />
	</node>
	<node id="-598204" lat="59.7720916626" lon="6.15375833506">
>>>>>>> e1d4bc35ff8a6074a6f2e91616a996b547c36f15
		<tag k="historic" v="shieling" />
		<tag k="name" v="Staurskorsstølen" />
		<tag k="place" v="isolated_dwelling" />
		<tag k="ssr:stedsnr" v="731519" />
	</node>
<<<<<<< HEAD
	<node lat="59.68626748286322" lon="5.798411185460237" id="-43180">
		<tag k="alt_name" v="Sandvika;Sandvik (nedre)" />
		<tag k="fixme" v="consider place=hamlet" />
		<tag k="name" v="Nedre Sandvik" />
		<tag k="place" v="farm" />
		<tag k="ssr:stedsnr" v="731050" />
	</node>
	<node lat="59.62515555433821" lon="5.942475005976509" id="-43184">
=======
	<node id="-598201" lat="59.8117194441" lon="6.21981944831">
		<tag k="alt_name" v="Inntveita" />
		<tag k="name" v="Vesle Eintveit" />
		<tag k="place" v="farm" />
		<tag k="ssr:stedsnr" v="671095" />
	</node>
	<node id="-598199" lat="59.8040666639" lon="6.23871943866">
		<tag k="alt_name" v="Hetleflåtstølen" />
		<tag k="historic" v="shieling" />
		<tag k="name" v="Hetleflotstølen" />
		<tag k="place" v="locality" />
		<tag k="ssr:stedsnr" v="671080" />
	</node>
	<node id="-598195" lat="59.857366667" lon="6.25471666441">
>>>>>>> e1d4bc35ff8a6074a6f2e91616a996b547c36f15
		<tag k="historic" v="shieling" />
		<tag k="name" v="Hamrestølen" />
		<tag k="place" v="isolated_dwelling" />
		<tag k="ssr:stedsnr" v="731496" />
	</node>
<<<<<<< HEAD
	<node lat="59.72316944129625" lon="6.132474996572058" id="-43190">
=======
	<node id="-598193" lat="59.6757004288" lon="5.99980700081">
>>>>>>> e1d4bc35ff8a6074a6f2e91616a996b547c36f15
		<tag k="fixme" v="consider place=hamlet" />
		<tag k="name" v="Lussnes" />
		<tag k="place" v="farm" />
		<tag k="ssr:stedsnr" v="731636" />
	</node>
<<<<<<< HEAD
	<node lat="59.82155000398026" lon="6.174461106211306" id="-43196">
		<tag k="historic" v="shieling" />
		<tag k="name" v="Hammarslandsstøl" />
		<tag k="place" v="isolated_dwelling" />
		<tag k="ssr:stedsnr" v="732227" />
	</node>
	<node lat="59.80475000015081" lon="6.215363891064385" id="-43198">
		<tag k="name" v="Krokstød" />
=======
	<node id="-598192" lat="59.6759649044" lon="5.91003955088">
		<tag k="alt_name" v="Fjøsna (indre)" />
		<tag k="fixme" v="consider place=hamlet" />
		<tag k="name" v="Fjøsna" />
>>>>>>> e1d4bc35ff8a6074a6f2e91616a996b547c36f15
		<tag k="place" v="farm" />
		<tag k="ssr:stedsnr" v="732336" />
	</node>
<<<<<<< HEAD
	<node lat="59.77539722386945" lon="6.187941670460018" id="-43199">
		<tag k="alt_name" v="Rafdalsstøl, øvre" />
		<tag k="historic" v="shieling" />
		<tag k="name" v="Øvre Rafdalsstøl" />
		<tag k="place" v="isolated_dwelling" />
		<tag k="ssr:stedsnr" v="732343" />
	</node>
	<node lat="59.66324722529031" lon="5.937322218015701" id="-43221">
		<tag k="name" v="Gjerde" />
=======
	<node id="-598191" lat="59.6688073224" lon="5.8905047753">
		<tag k="alt_name" v="Bryllåm" />
		<tag k="fixme" v="consider place=hamlet" />
		<tag k="name" v="Brenneland" />
>>>>>>> e1d4bc35ff8a6074a6f2e91616a996b547c36f15
		<tag k="place" v="farm" />
		<tag k="ssr:stedsnr" v="765576" />
	</node>
<<<<<<< HEAD
	<node lat="59.876130553628805" lon="6.4065333253988275" id="-43228">
		<tag k="name" v="Austarheim" />
=======
	<node id="-598188" lat="59.7075818266" lon="5.8521245061">
		<tag k="fixme" v="consider place=hamlet" />
		<tag k="name" v="Lauvvika" />
>>>>>>> e1d4bc35ff8a6074a6f2e91616a996b547c36f15
		<tag k="place" v="farm" />
		<tag k="ssr:stedsnr" v="765776" />
	</node>
<<<<<<< HEAD
	<node lat="59.67856666982816" lon="5.9529805510999285" id="-43235">
		<tag k="name" v="Støle" />
=======
	<node id="-598187" lat="59.7308850028" lon="6.17249527144">
		<tag k="fixme" v="consider place=hamlet" />
		<tag k="name" v="Tveito" />
>>>>>>> e1d4bc35ff8a6074a6f2e91616a996b547c36f15
		<tag k="place" v="farm" />
		<tag k="ssr:stedsnr" v="771937" />
	</node>
<<<<<<< HEAD
	<node lat="59.736044444796" lon="6.025380558512904" id="-43244">
		<tag k="alt_name" v="Tungesvika, in" />
=======
	<node id="-598185" lat="59.7249347846" lon="5.93247471309">
>>>>>>> e1d4bc35ff8a6074a6f2e91616a996b547c36f15
		<tag k="fixme" v="consider place=hamlet" />
		<tag k="name" v="Indra Tungesvik" />
		<tag k="place" v="farm" />
		<tag k="ssr:stedsnr" v="791657" />
	</node>
<<<<<<< HEAD
	<node lat="59.65898888791508" lon="5.795113895466254" id="-43248">
		<tag k="alt_name" v="Skjervik" />
		<tag k="name" v="Skjersvika" />
		<tag k="place" v="farm" />
		<tag k="ssr:stedsnr" v="792460" />
	</node>
	<node lat="59.8236166676661" lon="6.3001055616938535" id="-43250">
		<tag k="historic" v="shieling" />
		<tag k="name" v="Viskjerstølen" />
		<tag k="place" v="isolated_dwelling" />
		<tag k="ssr:stedsnr" v="792058" />
	</node>
	<node lat="59.722173901623364" lon="5.863513846961174" id="-43252">
=======
	<node id="-598182" lat="59.5989305598" lon="5.98334166663">
		<tag k="alt_name" v="Gralsetestølen" />
		<tag k="historic" v="shieling" />
		<tag k="name" v="Grallsetstølen" />
		<tag k="place" v="locality" />
		<tag k="ssr:stedsnr" v="670530" />
	</node>
	<node id="-598176" lat="59.6316416668" lon="6.05775000437">
		<tag k="historic" v="shieling" />
		<tag k="name" v="Heimrestølen" />
		<tag k="place" v="locality" />
		<tag k="ssr:stedsnr" v="670491" />
	</node>
	<node id="-598173" lat="59.6396249983" lon="5.88285832957">
		<tag k="alt_name" v="Sørstrandi" />
		<tag k="fixme" v="consider place=hamlet" />
		<tag k="name" v="Sørstranda" />
		<tag k="place" v="village" />
		<tag k="ssr:stedsnr" v="670477" />
	</node>
	<node id="-598172" lat="59.6486338202" lon="6.03414132212">
		<tag k="alt_name" v="Kaldeim" />
>>>>>>> e1d4bc35ff8a6074a6f2e91616a996b547c36f15
		<tag k="fixme" v="consider place=hamlet" />
		<tag k="name" v="Molnes" />
		<tag k="place" v="farm" />
		<tag k="ssr:stedsnr" v="792654" />
	</node>
<<<<<<< HEAD
	<node lat="59.72914282552115" lon="6.062190975113739" id="-43254">
		<tag k="alt_name" v="Vatndal" />
=======
	<node id="-598169" lat="59.6632158864" lon="5.7993087276">
>>>>>>> e1d4bc35ff8a6074a6f2e91616a996b547c36f15
		<tag k="fixme" v="consider place=hamlet" />
		<tag k="name" v="Vatnedalen" />
		<tag k="place" v="farm" />
<<<<<<< HEAD
		<tag k="ssr:stedsnr" v="792664" />
	</node>
	<node lat="59.65392258187228" lon="5.968890143525826" id="-43257">
		<tag k="alt_name" v="Fossa ytre" />
		<tag k="name" v="Fossa" />
		<tag k="place" v="hamlet" />
		<tag k="ssr:stedsnr" v="792498" />
	</node>
	<node lat="59.66042222648818" lon="6.014161104784769" id="-43303">
		<tag k="name" v="Berge" />
=======
		<tag k="ssr:stedsnr" v="670461" />
	</node>
	<node id="-598166" lat="59.8574916672" lon="6.46432222167">
		<tag k="alt_name" v="Mjølkestølen" />
		<tag k="historic" v="shieling" />
		<tag k="name" v="Mjelkestølen" />
		<tag k="place" v="locality" />
		<tag k="ssr:stedsnr" v="429006" />
	</node>
	<node id="-598165" lat="59.6717415536" lon="5.99714002766">
		<tag k="name" v="Håfoss" />
		<tag k="place" v="village" />
		<tag k="ssr:stedsnr" v="428734" />
	</node>
	<node id="-598157" lat="59.6528638876" lon="6.02589166781">
		<tag k="name" v="Tesdal" />
>>>>>>> e1d4bc35ff8a6074a6f2e91616a996b547c36f15
		<tag k="place" v="farm" />
		<tag k="ssr:stedsnr" v="827730" />
	</node>
<<<<<<< HEAD
	<node lat="59.73993055436525" lon="6.116872228155243" id="-43308">
		<tag k="name" v="Nylende" />
=======
	<node id="-598156" lat="59.6552583289" lon="6.03014999447">
		<tag k="name" v="Myro" />
>>>>>>> e1d4bc35ff8a6074a6f2e91616a996b547c36f15
		<tag k="place" v="farm" />
		<tag k="ssr:stedsnr" v="833902" />
	</node>
<<<<<<< HEAD
	<node lat="59.7481194448663" lon="5.949619441702478" id="-43309">
		<tag k="name" v="Breidvik" />
		<tag k="place" v="farm" />
		<tag k="ssr:stedsnr" v="833944" />
	</node>
	<node lat="59.73229166346699" lon="5.9424833324687345" id="-43310">
		<tag k="name" v="Stykket" />
		<tag k="place" v="farm" />
		<tag k="ssr:stedsnr" v="833945" />
	</node>
	<node lat="59.84523055262173" lon="6.382769441844767" id="-43314">
=======
	<node id="-598153" lat="59.6390500012" lon="5.91358055453">
		<tag k="name" v="Osvåg" />
		<tag k="place" v="farm" />
		<tag k="ssr:stedsnr" v="388706" />
	</node>
	<node id="-598150" lat="59.8284166706" lon="6.18940277301">
		<tag k="alt_name" v="Bjellandstølen" />
		<tag k="historic" v="shieling" />
		<tag k="name" v="Bjellandsstøl" />
		<tag k="place" v="locality" />
		<tag k="ssr:stedsnr" v="368226" />
	</node>
	<node id="-598147" lat="59.9059194446" lon="6.33971388792">
		<tag k="historic" v="shieling" />
		<tag k="name" v="Lona" />
		<tag k="place" v="locality" />
		<tag k="ssr:stedsnr" v="489491" />
	</node>
	<node id="-598135" lat="59.8495527822" lon="6.47012221988">
>>>>>>> e1d4bc35ff8a6074a6f2e91616a996b547c36f15
		<tag k="historic" v="shieling" />
		<tag k="name" v="Saltedalen" />
		<tag k="place" v="isolated_dwelling" />
		<tag k="ssr:stedsnr" v="854040" />
	</node>
<<<<<<< HEAD
	<node lat="59.73469303181544" lon="5.923726818372533" id="-43315">
=======
	<node id="-598129" lat="59.8543128554" lon="6.33672066583">
>>>>>>> e1d4bc35ff8a6074a6f2e91616a996b547c36f15
		<tag k="fixme" v="consider place=hamlet" />
		<tag k="name" v="Skålnes" />
		<tag k="place" v="farm" />
		<tag k="ssr:stedsnr" v="852649" />
	</node>
<<<<<<< HEAD
	<node lat="59.65839967938099" lon="5.980840878336717" id="-43327">
=======
	<node id="-598124" lat="59.6817969372" lon="6.01624471863">
		<tag k="alt_name" v="Ramsvik" />
>>>>>>> e1d4bc35ff8a6074a6f2e91616a996b547c36f15
		<tag k="fixme" v="consider place=hamlet" />
		<tag k="name" v="Steine" />
		<tag k="place" v="farm" />
		<tag k="ssr:stedsnr" v="853486" />
	</node>
<<<<<<< HEAD
	<node lat="59.69782623846961" lon="6.101438188807113" id="-43330">
		<tag k="alt_name" v="Kvamen" />
=======
	<node id="-598121" lat="59.6956835769" lon="6.07302849937">
>>>>>>> e1d4bc35ff8a6074a6f2e91616a996b547c36f15
		<tag k="fixme" v="consider place=hamlet" />
		<tag k="name" v="Kvammen" />
		<tag k="place" v="farm" />
		<tag k="ssr:stedsnr" v="853698" />
	</node>
<<<<<<< HEAD
	<node lat="59.815224999963974" lon="6.1925111183674035" id="-43331">
		<tag k="alt_name" v="Strand" />
		<tag k="name" v="Strond" />
=======
	<node id="-598120" lat="59.7125138909" lon="6.09865000001">
		<tag k="name" v="Bjørndalen" />
>>>>>>> e1d4bc35ff8a6074a6f2e91616a996b547c36f15
		<tag k="place" v="farm" />
		<tag k="ssr:stedsnr" v="854185" />
	</node>
<<<<<<< HEAD
	<node lat="59.89686666673219" lon="6.477430548494356" id="-43338">
		<tag k="name" v="Langebu" />
=======
	<node id="-598113" lat="59.6459141115" lon="5.85194107133">
		<tag k="fixme" v="consider place=hamlet" />
		<tag k="name" v="Veste" />
>>>>>>> e1d4bc35ff8a6074a6f2e91616a996b547c36f15
		<tag k="place" v="farm" />
		<tag k="ssr:stedsnr" v="854471" />
	</node>
<<<<<<< HEAD
	<node lat="59.683650003259594" lon="6.13095555620567" id="-43341">
		<tag k="historic" v="shieling" />
		<tag k="name" v="Sønnereistølen" />
		<tag k="place" v="isolated_dwelling" />
		<tag k="ssr:stedsnr" v="887378" />
	</node>
	<node lat="59.749955553416235" lon="6.183858331374616" id="-43350">
		<tag k="historic" v="shieling" />
		<tag k="name" v="Sommarflot" />
=======
	<node id="-598094" lat="59.7066305538" lon="5.82823333652">
		<tag k="name" v="Årvik" />
		<tag k="place" v="farm" />
		<tag k="ssr:stedsnr" v="468960" />
	</node>
	<node id="-598092" lat="59.7309638904" lon="5.91190556105">
		<tag k="name" v="Leite" />
>>>>>>> e1d4bc35ff8a6074a6f2e91616a996b547c36f15
		<tag k="place" v="isolated_dwelling" />
		<tag k="ssr:stedsnr" v="887021" />
	</node>
<<<<<<< HEAD
	<node lat="59.70234722058557" lon="6.040980563874583" id="-43378">
		<tag k="name" v="Norheimsstranda" />
=======
	<node id="-598081" lat="59.7308805555" lon="5.93546944376">
		<tag k="fixme" v="consider place=hamlet" />
		<tag k="name" v="Milja" />
>>>>>>> e1d4bc35ff8a6074a6f2e91616a996b547c36f15
		<tag k="place" v="farm" />
		<tag k="ssr:stedsnr" v="948315" />
	</node>
<<<<<<< HEAD
	<node lat="59.73053610718957" lon="6.146541670200107" id="-43379">
		<tag k="name" v="Lunda" />
		<tag k="place" v="farm" />
		<tag k="ssr:stedsnr" v="948447" />
	</node>
	<node lat="59.85247777676166" lon="6.26958055289829" id="-43385">
		<tag k="name" v="Fitjaneset" />
		<tag k="place" v="farm" />
		<tag k="ssr:stedsnr" v="948145" />
	</node>
	<node lat="59.68653333515203" lon="6.00543055291759" id="-43388">
		<tag k="fixme" v="consider place=hamlet" />
		<tag k="name" v="Grønstad" />
		<tag k="place" v="farm" />
		<tag k="ssr:stedsnr" v="948272" />
	</node>
	<node lat="59.708824998966115" lon="6.1813833333419765" id="-43397">
=======
	<node id="-598080" lat="59.5941250039" lon="6.00020832492">
		<tag k="historic" v="shieling" />
		<tag k="name" v="Nystølen" />
		<tag k="place" v="locality" />
		<tag k="ssr:stedsnr" v="462724" />
	</node>
	<node id="-598077" lat="59.5975222212" lon="5.99156944217">
		<tag k="historic" v="shieling" />
		<tag k="name" v="Borgnystølen" />
		<tag k="place" v="locality" />
		<tag k="ssr:stedsnr" v="462650" />
	</node>
	<node id="-598076" lat="59.6288055523" lon="5.92046110932">
		<tag k="historic" v="shieling" />
		<tag k="name" v="Gamlestølen" />
		<tag k="place" v="locality" />
		<tag k="ssr:stedsnr" v="462621" />
	</node>
	<node id="-598075" lat="59.627452782" lon="5.91032222441">
>>>>>>> e1d4bc35ff8a6074a6f2e91616a996b547c36f15
		<tag k="historic" v="shieling" />
		<tag k="name" v="Frettestølen" />
		<tag k="place" v="isolated_dwelling" />
		<tag k="ssr:stedsnr" v="948565" />
	</node>
<<<<<<< HEAD
	<node lat="59.65725277495163" lon="5.990444441622472" id="-43409">
		<tag k="fixme" v="consider place=hamlet" />
		<tag k="name" v="Rygg" />
		<tag k="place" v="farm" />
		<tag k="ssr:stedsnr" v="948763" />
	</node>
	<node lat="59.625319444646486" lon="5.995530549345253" id="-43410">
=======
	<node id="-598074" lat="59.6370583372" lon="5.88908610874">
		<tag k="name" v="Åsen" />
		<tag k="place" v="farm" />
		<tag k="ssr:stedsnr" v="462611" />
	</node>
	<node id="-598073" lat="59.6248027816" lon="5.93090556009">
		<tag k="historic" v="shieling" />
		<tag k="name" v="Engelsgjerdstølen" />
		<tag k="place" v="locality" />
		<tag k="ssr:stedsnr" v="462610" />
	</node>
	<node id="-598066" lat="59.7159611125" lon="5.91629443708">
>>>>>>> e1d4bc35ff8a6074a6f2e91616a996b547c36f15
		<tag k="historic" v="shieling" />
		<tag k="name" v="Rus-stølen" />
		<tag k="place" v="isolated_dwelling" />
		<tag k="ssr:stedsnr" v="948797" />
	</node>
<<<<<<< HEAD
	<node lat="59.727696082020564" lon="5.889263932258363" id="-43420">
		<tag k="fixme" v="consider place=hamlet" />
		<tag k="name" v="Tenndalen" />
=======
	<node id="-598064" lat="59.650152777" lon="5.91000277793">
		<tag k="name" v="Osnes" />
>>>>>>> e1d4bc35ff8a6074a6f2e91616a996b547c36f15
		<tag k="place" v="farm" />
		<tag k="ssr:stedsnr" v="954921" />
	</node>
<<<<<<< HEAD
	<node lat="59.729283130922575" lon="5.87905089571434" id="-43426">
		<tag k="name" v="Skoglund" />
=======
	<node id="-598053" lat="59.7257277753" lon="6.16760834026">
		<tag k="name" v="Solberget" />
>>>>>>> e1d4bc35ff8a6074a6f2e91616a996b547c36f15
		<tag k="place" v="farm" />
		<tag k="ssr:stedsnr" v="974120" />
	</node>
<<<<<<< HEAD
	<node lat="59.69135342463019" lon="6.016172898601076" id="-43438">
		<tag k="fixme" v="consider place=hamlet" />
		<tag k="name" v="Kallestadbakken" />
		<tag k="place" v="farm" />
		<tag k="ssr:stedsnr" v="990124" />
	</node>
	<node lat="59.876028569634975" lon="6.40090440905412" id="-43439">
		<tag k="fixme" v="consider place=hamlet" />
		<tag k="name" v="Fjæra" />
=======
	<node id="-598035" lat="59.8443472236" lon="6.21521388217">
		<tag k="historic" v="shieling" />
		<tag k="name" v="Selborga" />
		<tag k="place" v="locality" />
		<tag k="ssr:stedsnr" v="462131" />
	</node>
	<node id="-598023" lat="59.7466000022" lon="6.19638888366">
		<tag k="name" v="Volme" />
>>>>>>> e1d4bc35ff8a6074a6f2e91616a996b547c36f15
		<tag k="place" v="farm" />
		<tag k="ssr:stedsnr" v="990198" />
	</node>
<<<<<<< HEAD
	<node lat="59.83137663255292" lon="6.270741709486307" id="-43440">
		<tag k="fixme" v="consider place=hamlet" />
		<tag k="name" v="Glymje" />
		<tag k="place" v="farm" />
		<tag k="ssr:stedsnr" v="990199" />
	</node>
	<node lat="59.74089009246844" lon="6.066937480167729" id="-43441">
		<tag k="fixme" v="consider place=hamlet" />
		<tag k="name" v="Søhus" />
		<tag k="place" v="farm" />
		<tag k="ssr:stedsnr" v="990202" />
	</node>
	<node lat="59.71904379000688" lon="5.843958939039663" id="-43442">
		<tag k="fixme" v="consider place=hamlet" />
		<tag k="name" v="Taraldsøya" />
		<tag k="place" v="farm" />
		<tag k="ssr:stedsnr" v="990204" />
	</node>
	<node lat="59.705877254888364" lon="5.938236830251924" id="-43444">
		<tag k="historic" v="shieling" />
		<tag k="name" v="Tjelleselet" />
		<tag k="place" v="isolated_dwelling" />
		<tag k="ssr:stedsnr" v="1072933" />
	</node>
	<node lat="59.82443090984513" lon="6.24783658810319" id="-43450">
		<tag k="alt_name" v="Miljateig øvre" />
		<tag k="name" v="Øvre Miljateigen" />
		<tag k="place" v="farm" />
		<tag k="ssr:stedsnr" v="1078049" />
	</node>
	<node lat="59.78558401520129" lon="6.174514027109751" id="-43451">
		<tag k="name" v="Rafdal" />
		<tag k="place" v="hamlet" />
		<tag k="ssr:stedsnr" v="1080319" />
	</node>
	<node lat="59.66928551267712" lon="5.931795558496282" id="-43452">
		<tag k="name" v="Tongane" />
		<tag k="place" v="quarter" />
		<tag k="ssr:stedsnr" v="1081197" />
	</node>
=======
>>>>>>> e1d4bc35ff8a6074a6f2e91616a996b547c36f15
</osm>
