<?xml version="1.0" encoding="UTF-8"?>
<<<<<<< HEAD
<osm version="0.6" generator="osmapis">
	<node lat="59.76635680042747" lon="6.130187411685606" id="-41819">
=======
<osm generator="osmapis" version="0.6">
	<node id="-599294" lat="60.0208749982" lon="6.30709165878">
		<tag k="fixme" v="consider boundary=protected_area and relevant protect_class if not nature reserve" />
		<tag k="leisure" v="nature_reserve" />
		<tag k="name" v="Folgefonna nasjonalpark" />
		<tag k="ssr:stedsnr" v="524270" />
	</node>
	<node id="-598668" lat="59.9001027799" lon="6.46858888444">
		<tag k="fixme" v="consider boundary=protected_area and relevant protect_class if not nature reserve" />
		<tag k="leisure" v="nature_reserve" />
		<tag k="name" v="Langebudalen naturreservat" />
		<tag k="ssr:stedsnr" v="948862" />
	</node>
	<node id="-599070" lat="59.7663568004" lon="6.13018741169">
>>>>>>> e1d4bc35ff8a6074a6f2e91616a996b547c36f15
		<tag k="fixme" v="consider boundary=protected_area and relevant protect_class if not nature reserve" />
		<tag k="leisure" v="nature_reserve" />
		<tag k="name" v="Sævareidberget landskapsvernområde" />
		<tag k="ssr:stedsnr" v="341053" />
	</node>
<<<<<<< HEAD
	<node lat="60.02087499816288" lon="6.307091658778263" id="-43035">
		<tag k="fixme" v="consider boundary=protected_area and relevant protect_class if not nature reserve" />
		<tag k="leisure" v="nature_reserve" />
		<tag k="name" v="Folgefonna nasjonalpark" />
		<tag k="ssr:stedsnr" v="524270" />
	</node>
	<node lat="59.900102779893174" lon="6.468588884444477" id="-43414">
		<tag k="fixme" v="consider boundary=protected_area and relevant protect_class if not nature reserve" />
		<tag k="leisure" v="nature_reserve" />
		<tag k="name" v="Langebudalen naturreservat" />
		<tag k="ssr:stedsnr" v="948862" />
	</node>
=======
>>>>>>> e1d4bc35ff8a6074a6f2e91616a996b547c36f15
</osm>
