<?xml version="1.0" encoding="UTF-8"?>
<osm version="0.6" generator="osmapis">
	<node lat="59.64351666985543" lon="6.08092222862057" id="-41512">
		<tag k="ford" v="yes" />
		<tag k="name" v="Andersvad" />
		<tag k="place" v="locality" />
		<tag k="ssr:stedsnr" v="38118" />
	</node>
	<node lat="59.70817499595343" lon="6.061063892421199" id="-41521">
		<tag k="bridge" v="yes" />
		<tag k="layer" v="1" />
		<tag k="name" v="Vikajuv" />
		<tag k="ssr:stedsnr" v="47924" />
	</node>
	<node lat="59.73297777643479" lon="5.935299998112895" id="-41522">
		<tag k="bridge" v="yes" />
		<tag k="layer" v="1" />
		<tag k="name" v="Berge" />
		<tag k="ssr:stedsnr" v="47874" />
	</node>
	<node lat="59.70834444489378" lon="6.071944452557061" id="-41600">
		<tag k="bridge" v="yes" />
		<tag k="layer" v="1" />
		<tag k="name" v="Bakka" />
		<tag k="ssr:stedsnr" v="108871" />
	</node>
	<node lat="59.67173611375316" lon="5.9441555546881295" id="-41601">
		<tag k="bridge" v="yes" />
		<tag k="layer" v="1" />
		<tag k="name" v="Fitja" />
		<tag k="ssr:stedsnr" v="108876" />
	</node>
	<node lat="59.84699444036609" lon="6.342022226453298" id="-41713">
		<tag k="bridge" v="yes" />
		<tag k="layer" v="1" />
		<tag k="name" v="Sagjuv" />
		<tag k="ssr:stedsnr" v="229931" />
	</node>
	<node lat="59.6590333331373" lon="5.963677783142582" id="-41745">
		<tag k="bridge" v="yes" />
		<tag k="layer" v="1" />
		<tag k="name" v="Moe" />
		<tag k="ssr:stedsnr" v="290927" />
	</node>
	<node lat="59.705963888741024" lon="6.045033335845244" id="-41827">
		<tag k="bridge" v="yes" />
		<tag k="layer" v="1" />
		<tag k="name" v="To" />
		<tag k="ssr:stedsnr" v="472925" />
	</node>
	<node lat="59.87918055365889" lon="6.432808333959262" id="-41828">
		<tag k="bridge" v="yes" />
		<tag k="layer" v="1" />
		<tag k="name" v="Rullestad" />
		<tag k="ssr:stedsnr" v="472929" />
	</node>
	<node lat="59.69409722098676" lon="6.025402778306758" id="-41830">
		<tag k="bridge" v="yes" />
		<tag k="layer" v="1" />
		<tag k="name" v="Vikatre" />
		<tag k="ssr:stedsnr" v="350917" />
	</node>
	<node lat="59.87466666382614" lon="6.407341665659655" id="-41831">
		<tag k="bridge" v="yes" />
		<tag k="layer" v="1" />
		<tag k="name" v="Vass" />
		<tag k="ssr:stedsnr" v="350918" />
	</node>
	<node lat="59.73261944885551" lon="6.098672227806124" id="-41867">
		<tag k="highway" v="path" />
		<tag k="name" v="Gaupestigen" />
		<tag k="ssr:stedsnr" v="401389" />
	</node>
	<node lat="59.73232222556598" lon="6.042597226111071" id="-41878">
		<tag k="bridge" v="yes" />
		<tag k="layer" v="1" />
		<tag k="name" v="Vatndal" />
		<tag k="ssr:stedsnr" v="411925" />
	</node>
	<node lat="59.73119166589435" lon="5.8897416602717225" id="-41879">
		<tag k="bridge" v="yes" />
		<tag k="layer" v="1" />
		<tag k="name" v="Tendal" />
		<tag k="ssr:stedsnr" v="411929" />
	</node>
	<node lat="59.67179444680348" lon="5.998638881620013" id="-41880">
		<tag k="bridge" v="yes" />
		<tag k="layer" v="1" />
		<tag k="name" v="Håfoss (Sidespenn)" />
		<tag k="ssr:stedsnr" v="411888" />
	</node>
	<node lat="59.64958055757449" lon="6.017633334857593" id="-41881">
		<tag k="bridge" v="yes" />
		<tag k="layer" v="1" />
		<tag k="name" v="Auastad" />
		<tag k="ssr:stedsnr" v="411893" />
	</node>
	<node lat="59.64796944204584" lon="6.006733339907399" id="-41964">
		<tag k="bridge" v="yes" />
		<tag k="layer" v="1" />
		<tag k="name" v="Høyland" />
		<tag k="ssr:stedsnr" v="472874" />
	</node>
	<node lat="59.702841667484286" lon="5.833297213999816" id="-41965">
		<tag k="bridge" v="yes" />
		<tag k="layer" v="1" />
		<tag k="name" v="Ebna" />
		<tag k="ssr:stedsnr" v="472880" />
	</node>
	<node lat="59.80608332980994" lon="6.214780564753826" id="-42000">
		<tag k="name" v="Krokstø" />
		<tag k="place" v="locality" />
		<tag k="ssr:stedsnr" v="523202" />
	</node>
	<node lat="59.79507222279601" lon="6.189841674316538" id="-42018">
		<tag k="bridge" v="yes" />
		<tag k="layer" v="1" />
		<tag k="name" v="Kviteberg" />
		<tag k="ssr:stedsnr" v="532871" />
	</node>
	<node lat="59.705172220079135" lon="6.04234722811987" id="-42019">
		<tag k="bridge" v="yes" />
		<tag k="layer" v="1" />
		<tag k="name" v="Glops" />
		<tag k="ssr:stedsnr" v="532873" />
	</node>
	<node lat="59.874411111826944" lon="6.445755557422942" id="-42228">
		<tag k="bridge" v="yes" />
		<tag k="layer" v="1" />
		<tag k="name" v="Juv" />
		<tag k="ssr:stedsnr" v="897847" />
	</node>
	<node lat="59.653350002673506" lon="5.965755547406168" id="-42229">
		<tag k="bridge" v="yes" />
		<tag k="layer" v="1" />
		<tag k="name" v="Mo" />
		<tag k="ssr:stedsnr" v="897849" />
	</node>
	<node lat="59.66517222261059" lon="6.06551667380119" id="-42230">
		<tag k="bridge" v="yes" />
		<tag k="layer" v="1" />
		<tag k="name" v="Litledalen" />
		<tag k="ssr:stedsnr" v="897850" />
	</node>
	<node lat="59.804094445466646" lon="6.215430558534922" id="-42231">
		<tag k="bridge" v="yes" />
		<tag k="layer" v="1" />
		<tag k="name" v="Træet" />
		<tag k="ssr:stedsnr" v="897907" />
	</node>
	<node lat="59.71003611245994" lon="5.859286102395272" id="-42232">
		<tag k="bridge" v="yes" />
		<tag k="layer" v="1" />
		<tag k="name" v="Aksland" />
		<tag k="ssr:stedsnr" v="897858" />
	</node>
	<node lat="59.78956666917198" lon="6.179747217887162" id="-42297">
		<tag k="layer" v="-1" />
		<tag k="name" v="Rafdal I" />
		<tag k="ssr:stedsnr" v="772374" />
		<tag k="tunnel" v="yes" />
	</node>
	<node lat="59.78551389283371" lon="6.1586944421975405" id="-42384">
		<tag k="bridge" v="yes" />
		<tag k="layer" v="1" />
		<tag k="name" v="Trolljuv" />
		<tag k="ssr:stedsnr" v="836933" />
	</node>
	<node lat="59.6717194475192" lon="5.998622213540822" id="-42385">
		<tag k="bridge" v="yes" />
		<tag k="layer" v="1" />
		<tag k="name" v="Håfoss (Hovedspenn)" />
		<tag k="ssr:stedsnr" v="836888" />
	</node>
	<node lat="59.78886388794003" lon="6.179502773216793" id="-42428">
		<tag k="layer" v="-1" />
		<tag k="name" v="Rafdal II" />
		<tag k="ssr:stedsnr" v="894414" />
		<tag k="tunnel" v="yes" />
	</node>
	<node lat="59.74727334968585" lon="5.960752788360817" id="-42515">
		<tag k="landuse" v="harbour" />
		<tag k="name" v="Jektahamn" />
		<tag k="seamark:type" v="harbour" />
		<tag k="ssr:stedsnr" v="37048" />
	</node>
	<node lat="59.653180559639964" lon="5.924633335759146" id="-42554">
		<tag k="bridge" v="yes" />
		<tag k="layer" v="1" />
		<tag k="name" v="Kvedna" />
		<tag k="ssr:stedsnr" v="47864" />
	</node>
	<node lat="59.73260277695879" lon="6.107950004615988" id="-42595">
		<tag k="highway" v="path" />
		<tag k="name" v="Fjellstigen" />
		<tag k="ssr:stedsnr" v="98394" />
	</node>
	<node lat="59.679572224826366" lon="5.800883329356176" id="-42596">
		<tag k="ford" v="yes" />
		<tag k="name" v="Gamlesteinsvad" />
		<tag k="place" v="locality" />
		<tag k="ssr:stedsnr" v="98494" />
	</node>
	<node lat="59.79939444130502" lon="6.198102779491395" id="-42632">
		<tag k="bridge" v="yes" />
		<tag k="layer" v="1" />
		<tag k="name" v="Knudsjuv" />
		<tag k="ssr:stedsnr" v="108858" />
	</node>
	<node lat="59.73301111482331" lon="5.936277777866965" id="-42633">
		<tag k="bridge" v="yes" />
		<tag k="layer" v="1" />
		<tag k="name" v="Milje" />
		<tag k="ssr:stedsnr" v="108860" />
	</node>
	<node lat="59.71740833520174" lon="6.081886104174342" id="-42634">
		<tag k="bridge" v="yes" />
		<tag k="layer" v="1" />
		<tag k="name" v="Hålelva" />
		<tag k="ssr:stedsnr" v="108863" />
	</node>
	<node lat="59.85395277745599" lon="6.357111115313606" id="-42635">
		<tag k="bridge" v="yes" />
		<tag k="layer" v="1" />
		<tag k="name" v="Saltåna" />
		<tag k="ssr:stedsnr" v="108933" />
	</node>
	<node lat="59.68256388891029" lon="5.798991667262182" id="-42702">
		<tag k="bridge" v="yes" />
		<tag k="layer" v="1" />
		<tag k="name" v="Sandvik" />
		<tag k="ssr:stedsnr" v="168940" />
	</node>
	<node lat="59.63938055506807" lon="5.918769437423666" id="-42703">
		<tag k="bridge" v="yes" />
		<tag k="layer" v="1" />
		<tag k="name" v="Osvågelv" />
		<tag k="ssr:stedsnr" v="168941" />
	</node>
	<node lat="59.64964444329926" lon="6.001961111309802" id="-42812">
		<tag k="bridge" v="yes" />
		<tag k="layer" v="1" />
		<tag k="name" v="Sveljan" />
		<tag k="ssr:stedsnr" v="290920" />
	</node>
	<node lat="59.68680000045099" lon="6.0097333322456485" id="-42958">
		<tag k="bridge" v="yes" />
		<tag k="layer" v="1" />
		<tag k="name" v="Grønstad" />
		<tag k="ssr:stedsnr" v="411885" />
	</node>
	<node lat="59.87732778034221" lon="6.4262833243279776" id="-43102">
		<tag k="bridge" v="yes" />
		<tag k="layer" v="1" />
		<tag k="name" v="Smibekken" />
		<tag k="ssr:stedsnr" v="593908" />
	</node>
	<node lat="59.74901944205714" lon="6.127172228720376" id="-43103">
		<tag k="bridge" v="yes" />
		<tag k="layer" v="1" />
		<tag k="name" v="Storehaugen" />
		<tag k="ssr:stedsnr" v="593909" />
	</node>
	<node lat="59.82523739329533" lon="6.236465934964627" id="-43119">
		<tag k="fixme" v="verify maritime location" />
		<tag k="mooring" v="yes" />
		<tag k="name" v="Knutsstød" />
		<tag k="place" v="locality" />
		<tag k="ssr:stedsnr" v="611050" />
	</node>
	<node lat="59.7278055527047" lon="6.160241670000295" id="-43156">
		<tag k="bridge" v="yes" />
		<tag k="layer" v="1" />
		<tag k="name" v="Vinja" />
		<tag k="ssr:stedsnr" v="654943" />
	</node>
	<node lat="59.78524166419971" lon="6.157494443659053" id="-43172">
		<tag k="layer" v="-1" />
		<tag k="name" v="Trolljuv II" />
		<tag k="ssr:stedsnr" v="711673" />
		<tag k="tunnel" v="yes" />
	</node>
	<node lat="59.84018889243831" lon="6.321136109468899" id="-43173">
		<tag k="bridge" v="yes" />
		<tag k="layer" v="1" />
		<tag k="name" v="Kroklielv" />
		<tag k="ssr:stedsnr" v="715882" />
	</node>
	<node lat="59.66020555509759" lon="5.9545222195515315" id="-43174">
		<tag k="bridge" v="yes" />
		<tag k="layer" v="1" />
		<tag k="name" v="Auen" />
		<tag k="ssr:stedsnr" v="715890" />
	</node>
	<node lat="59.73717718314491" lon="5.941196853399067" id="-43214">
		<tag k="alt_name" v="Flåtehavn" />
		<tag k="landuse" v="harbour" />
		<tag k="name" v="Flotahamn" />
		<tag k="seamark:type" v="harbour" />
		<tag k="ssr:stedsnr" v="765245" />
	</node>
	<node lat="59.87393610756789" lon="6.459061107699319" id="-43238">
		<tag k="bridge" v="yes" />
		<tag k="layer" v="1" />
		<tag k="name" v="Bordal" />
		<tag k="ssr:stedsnr" v="775877" />
	</node>
	<node lat="59.8764694446355" lon="6.424494439848491" id="-43239">
		<tag k="bridge" v="yes" />
		<tag k="layer" v="1" />
		<tag k="name" v="Flombekk" />
		<tag k="ssr:stedsnr" v="775879" />
	</node>
	<node lat="59.70357222325688" lon="6.039686115347842" id="-43240">
		<tag k="bridge" v="yes" />
		<tag k="layer" v="1" />
		<tag k="name" v="Tvilling" />
		<tag k="ssr:stedsnr" v="775931" />
	</node>
	<node lat="59.792722219722926" lon="6.186074995677904" id="-43241">
		<tag k="bridge" v="yes" />
		<tag k="layer" v="1" />
		<tag k="name" v="Tretteteig" />
		<tag k="ssr:stedsnr" v="775933" />
	</node>
	<node lat="59.78589167083063" lon="6.160402775626687" id="-43307">
		<tag k="layer" v="-1" />
		<tag k="name" v="Trolljuv I" />
		<tag k="ssr:stedsnr" v="833684" />
		<tag k="tunnel" v="yes" />
	</node>
	<node lat="59.64567499583588" lon="5.9253194474442425" id="-43421">
		<tag k="bridge" v="yes" />
		<tag k="layer" v="1" />
		<tag k="name" v="Grytåno" />
		<tag k="ssr:stedsnr" v="957880" />
	</node>
	<node lat="59.772616664290915" lon="6.140241664243831" id="-43422">
		<tag k="bridge" v="yes" />
		<tag k="layer" v="1" />
		<tag k="name" v="Folkaberget" />
		<tag k="ssr:stedsnr" v="957882" />
	</node>
	<node lat="59.78707222447714" lon="6.169316664998907" id="-43423">
		<tag k="bridge" v="yes" />
		<tag k="layer" v="1" />
		<tag k="name" v="Ørvik" />
		<tag k="ssr:stedsnr" v="957919" />
	</node>
	<node lat="59.73339807961436" lon="5.932679411288459" id="-43436">
		<tag k="amenity" v="ferry_terminal" />
		<tag k="name" v="Skånevik ferjekai" />
		<tag k="ssr:stedsnr" v="978614" />
	</node>
</osm>
