<?xml version="1.0" encoding="UTF-8"?>
<<<<<<< HEAD
<osm version="0.6" generator="osmapis">
	<node lat="59.707725000392315" lon="5.829386112060656" id="-41464">
		<tag k="alt_name" v="Årvik" />
		<tag k="name" v="Årvika" />
		<tag k="natural" v="bay" />
		<tag k="ssr:stedsnr" v="3074" />
	</node>
	<node lat="59.64913888644132" lon="5.795522230643864" id="-41465">
		<tag k="alt_name" v="Bjørkjenesklubben;Klubben" />
		<tag k="name" v="Børkjenesklubben" />
		<tag k="natural" v="cape" />
		<tag k="ssr:stedsnr" v="3426" />
	</node>
	<node lat="59.67287777671585" lon="5.912991669965525" id="-41473">
		<tag k="alt_name" v="Fjøsnanes" />
		<tag k="name" v="Fjøsnaneset" />
		<tag k="natural" v="cape" />
		<tag k="ssr:stedsnr" v="3702" />
	</node>
	<node lat="59.74324444054059" lon="5.988783330641355" id="-41489">
		<tag k="alt_name" v="Oterstokk" />
		<tag k="name" v="Osterstakken" />
		<tag k="natural" v="cape" />
		<tag k="ssr:stedsnr" v="37259" />
	</node>
	<node lat="59.73940555703539" lon="6.021758339405626" id="-41499">
=======
<osm generator="osmapis" version="0.6">
	<node id="-598016" lat="59.7269972251" lon="5.85866389446">
		<tag k="name" v="Mortveitvik" />
		<tag k="natural" v="bay" />
		<tag k="ssr:stedsnr" v="219715" />
	</node>
	<node id="-598015" lat="59.7409472267" lon="5.9346583321">
		<tag k="name" v="Håleholmen" />
		<tag k="place" v="islet" />
		<tag k="ssr:stedsnr" v="219711" />
	</node>
	<node id="-598014" lat="59.7351388849" lon="5.89306389354">
		<tag k="name" v="Vikanes" />
		<tag k="natural" v="cape" />
		<tag k="ssr:stedsnr" v="219708" />
	</node>
	<node id="-598357" lat="59.6914555533" lon="5.80610834024">
		<tag k="alt_name" v="Ørevik" />
		<tag k="name" v="Ørevika" />
		<tag k="natural" v="bay" />
		<tag k="ssr:stedsnr" v="731048" />
	</node>
	<node id="-599545" lat="59.8025333335" lon="6.16205833284">
		<tag k="name" v="Kvernaneset" />
		<tag k="natural" v="cape" />
		<tag k="ssr:stedsnr" v="772889" />
	</node>
	<node id="-598519" lat="59.7178638878" lon="5.84175555504">
		<tag k="alt_name" v="Taraldsøy" />
		<tag k="name" v="Taraldsøya" />
		<tag k="place" v="island" />
		<tag k="ssr:stedsnr" v="914070" />
	</node>
	<node id="-599542" lat="59.8356777766" lon="6.23072778213">
		<tag k="name" v="Gjuvsneset" />
		<tag k="natural" v="cape" />
		<tag k="ssr:stedsnr" v="772028" />
	</node>
	<node id="-598005" lat="59.6887750018" lon="5.79411666576">
		<tag k="alt_name" v="Notanes" />
		<tag k="name" v="Notaneset" />
		<tag k="natural" v="cape" />
		<tag k="ssr:stedsnr" v="185058" />
	</node>
	<node id="-598004" lat="59.6798305534" lon="5.78424444542">
		<tag k="alt_name" v="Skottevikneset" />
		<tag k="name" v="Skotavikneset" />
		<tag k="natural" v="cape" />
		<tag k="ssr:stedsnr" v="286951" />
	</node>
	<node id="-599020" lat="59.6579749977" lon="5.90579999935">
		<tag k="alt_name" v="Honsvika" />
		<tag k="name" v="Hundsvika" />
		<tag k="natural" v="bay" />
		<tag k="ssr:stedsnr" v="306714" />
	</node>
	<node id="-597995" lat="59.7329361133" lon="5.88453611942">
		<tag k="alt_name" v="Tenndalsvik" />
		<tag k="name" v="Ytre Tendalsvik" />
		<tag k="natural" v="bay" />
		<tag k="ssr:stedsnr" v="280761" />
	</node>
	<node id="-598950" lat="59.7352527734" lon="5.89903333349">
		<tag k="name" v="Storholmen" />
		<tag k="place" v="islet" />
		<tag k="ssr:stedsnr" v="165940" />
	</node>
	<node id="-598497" lat="59.7375916634" lon="5.92761111398">
		<tag k="name" v="Skåno" />
		<tag k="place" v="islet" />
		<tag k="ssr:stedsnr" v="913643" />
	</node>
	<node id="-598496" lat="59.7393027737" lon="5.90892500532">
		<tag k="alt_name" v="Leiknestangen" />
		<tag k="name" v="Leknestangen" />
		<tag k="natural" v="cape" />
		<tag k="ssr:stedsnr" v="913641" />
	</node>
	<node id="-598495" lat="59.8749027814" lon="6.36790277993">
		<tag k="name" v="Lindevik" />
		<tag k="natural" v="bay" />
		<tag k="ssr:stedsnr" v="765812" />
	</node>
	<node id="-597981" lat="59.7136583317" lon="5.84307778655">
		<tag k="name" v="Brakanes" />
		<tag k="natural" v="cape" />
		<tag k="ssr:stedsnr" v="280572" />
	</node>
	<node id="-597980" lat="59.6468083329" lon="5.92149443867">
		<tag k="name" v="Grytestranda" />
		<tag k="natural" v="beach" />
		<tag k="place" v="locality" />
		<tag k="ssr:stedsnr" v="280570" />
	</node>
	<node id="-598999" lat="59.6440777792" lon="5.88855000764">
		<tag k="name" v="Kråkenes" />
		<tag k="natural" v="cape" />
		<tag k="ssr:stedsnr" v="306485" />
	</node>
	<node id="-598998" lat="59.6605499985" lon="5.7939527734">
		<tag k="name" v="Skjersvika" />
		<tag k="natural" v="bay" />
		<tag k="ssr:stedsnr" v="306456" />
	</node>
	<node id="-599509" lat="59.7413388856" lon="6.09937500343">
		<tag k="name" v="Slåttedalsnes" />
		<tag k="natural" v="cape" />
		<tag k="ssr:stedsnr" v="765367" />
	</node>
	<node id="-599508" lat="59.714241668" lon="5.84583334007">
		<tag k="fixme" v="consider seamark:type=rock or natural=shoal" />
		<tag k="name" v="Nautaskjer" />
		<tag k="place" v="islet" />
		<tag k="ssr:stedsnr" v="765528" />
	</node>
	<node id="-599507" lat="59.6443111132" lon="5.90222222648">
>>>>>>> e1d4bc35ff8a6074a6f2e91616a996b547c36f15
		<tag k="fixme" v="consider seamark:type=rock or natural=shoal" />
		<tag k="loc_name" v="Terneskjeret" />
		<tag k="name" v="Terneskjær" />
		<tag k="place" v="islet" />
<<<<<<< HEAD
		<tag k="ssr:stedsnr" v="37361" />
	</node>
	<node lat="59.64344999585018" lon="5.8966861066258" id="-41504">
		<tag k="name" v="Sanes" />
		<tag k="natural" v="cape" />
		<tag k="ssr:stedsnr" v="37575" />
	</node>
	<node lat="59.855263888340936" lon="6.340772230673869" id="-41509">
		<tag k="name" v="Lyngnesvika" />
=======
		<tag k="ssr:stedsnr" v="765520" />
	</node>
	<node id="-599506" lat="59.6637277765" lon="5.92003333708">
		<tag k="name" v="Bekkjavika" />
		<tag k="natural" v="bay" />
		<tag k="ssr:stedsnr" v="765497" />
	</node>
	<node id="-598479" lat="59.6486611105" lon="5.89725000022">
		<tag k="name" v="Brakanes" />
		<tag k="natural" v="cape" />
		<tag k="ssr:stedsnr" v="913477" />
	</node>
	<node id="-598989" lat="59.7636779031" lon="5.93856159999">
		<tag k="name" v="Midtvika" />
		<tag k="natural" v="bay" />
		<tag k="ssr:stedsnr" v="186386" />
	</node>
	<node id="-598988" lat="59.801691667" lon="6.20689999157">
		<tag k="name" v="Sandvika" />
>>>>>>> e1d4bc35ff8a6074a6f2e91616a996b547c36f15
		<tag k="natural" v="bay" />
		<tag k="ssr:stedsnr" v="37766" />
	</node>
<<<<<<< HEAD
	<node lat="59.735516666704285" lon="5.827008330907744" id="-41518">
		<tag k="name" v="Fjordflua" />
=======
	<node id="-599498" lat="59.6895833351" lon="5.77417222676">
		<tag k="name" v="Skallen" />
>>>>>>> e1d4bc35ff8a6074a6f2e91616a996b547c36f15
		<tag k="natural" v="shoal" />
		<tag k="place" v="locality" />
		<tag k="ssr:stedsnr" v="43976" />
	</node>
<<<<<<< HEAD
	<node lat="59.870033332306484" lon="6.370063884956565" id="-41530">
		<tag k="alt_name" v="Ømbesvik" />
		<tag k="name" v="Ømbesvika" />
		<tag k="natural" v="bay" />
		<tag k="ssr:stedsnr" v="64022" />
	</node>
	<node lat="59.81915555503754" lon="6.226888896216113" id="-41531">
		<tag k="alt_name" v="Hetleflåtvika" />
		<tag k="name" v="Hetleflotvika" />
		<tag k="natural" v="bay" />
		<tag k="ssr:stedsnr" v="64031" />
	</node>
	<node lat="59.71775555397242" lon="5.809422220041793" id="-41533">
		<tag k="alt_name" v="Skåneviksfjorden" />
		<tag k="bay" v="fjord" />
		<tag k="name" v="Skånevikfjorden" />
=======
	<node id="-599543" lat="59.8083933863" lon="6.17057666034">
		<tag k="loc_name" v="Kvanndalsnes" />
		<tag k="name" v="Kvanndalsneset" />
		<tag k="natural" v="cape" />
		<tag k="ssr:stedsnr" v="772038" />
	</node>
	<node id="-599496" lat="59.843002774" lon="6.28691388443">
		<tag k="name" v="Bråskotneset" />
		<tag k="natural" v="cape" />
		<tag k="ssr:stedsnr" v="650016" />
	</node>
	<node id="-598983" lat="59.840274998" lon="6.26067499511">
		<tag k="alt_name" v="Piksadrogsvika" />
		<tag k="name" v="Piksadragsvika" />
>>>>>>> e1d4bc35ff8a6074a6f2e91616a996b547c36f15
		<tag k="natural" v="bay" />
		<tag k="ssr:stedsnr" v="64058" />
	</node>
<<<<<<< HEAD
	<node lat="59.84933333614598" lon="6.346663880302422" id="-41545">
		<tag k="alt_name" v="Mjelkevika" />
		<tag k="name" v="Melkevik" />
		<tag k="natural" v="bay" />
		<tag k="ssr:stedsnr" v="65002" />
	</node>
	<node lat="59.73766111553077" lon="5.993741674966411" id="-41579">
		<tag k="name" v="Jostø" />
		<tag k="natural" v="bay" />
		<tag k="ssr:stedsnr" v="98214" />
	</node>
	<node lat="59.80280833201211" lon="6.207069445550368" id="-41581">
		<tag k="alt_name" v="Indra Sandvik" />
		<tag k="name" v="Sandvika indre" />
		<tag k="natural" v="bay" />
		<tag k="ssr:stedsnr" v="98171" />
	</node>
	<node lat="59.6470527794017" lon="5.823211102783668" id="-41606">
		<tag k="bay" v="fjord" />
		<tag k="name" v="Etnefjorden" />
=======
	<node id="-599494" lat="59.7281972201" lon="5.85939999406">
		<tag k="fixme" v="consider seamark:type=rock or natural=shoal" />
		<tag k="name" v="Mortveitskjeret" />
		<tag k="place" v="islet" />
		<tag k="ssr:stedsnr" v="644846" />
	</node>
	<node id="-598091" lat="59.7797916692" lon="6.1399694499">
		<tag k="name" v="Holanesvik" />
		<tag k="natural" v="bay" />
		<tag k="ssr:stedsnr" v="468890" />
	</node>
	<node id="-598463" lat="59.8662722196" lon="6.35360277342">
		<tag k="alt_name" v="Kjeavika" />
		<tag k="name" v="Kjevika" />
>>>>>>> e1d4bc35ff8a6074a6f2e91616a996b547c36f15
		<tag k="natural" v="bay" />
		<tag k="ssr:stedsnr" v="124404" />
	</node>
<<<<<<< HEAD
	<node lat="59.64988889045368" lon="5.807808332321475" id="-41607">
		<tag k="alt_name" v="Vikeholmen" />
		<tag k="name" v="Vikaholmen" />
		<tag k="place" v="islet" />
		<tag k="ssr:stedsnr" v="124406" />
	</node>
	<node lat="59.85978333521176" lon="6.353475004615697" id="-41618">
		<tag k="alt_name" v="Eljarviknes" />
		<tag k="name" v="Eljarvikneset" />
=======
	<node id="-597949" lat="59.7524249994" lon="6.11804444089">
		<tag k="name" v="Lyngnes" />
		<tag k="natural" v="cape" />
		<tag k="ssr:stedsnr" v="280033" />
	</node>
	<node id="-597948" lat="59.7392805529" lon="5.91517777749">
		<tag k="name" v="Hamnaklubben" />
>>>>>>> e1d4bc35ff8a6074a6f2e91616a996b547c36f15
		<tag k="natural" v="cape" />
		<tag k="ssr:stedsnr" v="125019" />
	</node>
<<<<<<< HEAD
	<node lat="59.8741222239915" lon="6.366400005220372" id="-41620">
		<tag k="alt_name" v="Lindenes" />
		<tag k="name" v="Lindeneset" />
		<tag k="natural" v="cape" />
		<tag k="ssr:stedsnr" v="125025" />
	</node>
	<node lat="59.75328611064841" lon="5.949391666161819" id="-41628">
		<tag k="name" v="Klungerneset" />
=======
	<node id="-598090" lat="59.8104083338" lon="6.179349997">
		<tag k="name" v="Langaneset" />
		<tag k="natural" v="cape" />
		<tag k="ssr:stedsnr" v="468039" />
	</node>
	<node id="-598260" lat="59.7476833365" lon="6.11041111966">
		<tag k="alt_name" v="Laksanes" />
		<tag k="name" v="Laksaneset" />
		<tag k="natural" v="cape" />
		<tag k="ssr:stedsnr" v="705041" />
	</node>
	<node id="-598966" lat="59.7485194413" lon="5.96510554925">
		<tag k="name" v="Nes" />
		<tag k="natural" v="cape" />
		<tag k="ssr:stedsnr" v="185593" />
	</node>
	<node id="-598872" lat="59.6498888905" lon="5.80780833232">
		<tag k="alt_name" v="Vikeholmen" />
		<tag k="name" v="Vikaholmen" />
		<tag k="place" v="islet" />
		<tag k="ssr:stedsnr" v="124406" />
	</node>
	<node id="-598448" lat="59.7257777769" lon="5.8565111095">
		<tag k="alt_name" v="Skrånes" />
		<tag k="name" v="Skråanes" />
>>>>>>> e1d4bc35ff8a6074a6f2e91616a996b547c36f15
		<tag k="natural" v="cape" />
		<tag k="ssr:stedsnr" v="125404" />
	</node>
<<<<<<< HEAD
	<node lat="59.735813885397334" lon="5.918844442569048" id="-41635">
		<tag k="name" v="Hagavik" />
		<tag k="natural" v="bay" />
		<tag k="ssr:stedsnr" v="158758" />
	</node>
	<node lat="59.75963888784804" lon="5.932055561850499" id="-41640">
		<tag k="name" v="Laksavågneset" />
		<tag k="natural" v="cape" />
		<tag k="ssr:stedsnr" v="159053" />
	</node>
	<node lat="59.83857221935999" lon="6.251766658349161" id="-41642">
=======
	<node id="-598258" lat="59.7561249987" lon="5.94236389034">
		<tag k="name" v="Midtdalsneset" />
		<tag k="natural" v="cape" />
		<tag k="ssr:stedsnr" v="704043" />
	</node>
	<node id="-598954" lat="59.6760641548" lon="5.78685908577">
		<tag k="alt_name" v="Tømbervik;Timbervika" />
		<tag k="name" v="Tømbervika" />
		<tag k="natural" v="bay" />
		<tag k="ssr:stedsnr" v="185020" />
	</node>
	<node id="-598087" lat="59.7446083322" lon="6.04361945072">
		<tag k="name" v="Susodden" />
		<tag k="natural" v="cape" />
		<tag k="ssr:stedsnr" v="287669" />
	</node>
	<node id="-597928" lat="59.8385722194" lon="6.25176665835">
>>>>>>> e1d4bc35ff8a6074a6f2e91616a996b547c36f15
		<tag k="alt_name" v="Ørevika indre" />
		<tag k="name" v="Indra Orevika" />
		<tag k="natural" v="bay" />
		<tag k="ssr:stedsnr" v="159258" />
	</node>
<<<<<<< HEAD
	<node lat="59.748519441295166" lon="5.96510554924503" id="-41666">
		<tag k="name" v="Nes" />
		<tag k="natural" v="cape" />
		<tag k="ssr:stedsnr" v="185593" />
	</node>
	<node lat="59.80169166699462" lon="6.206899991573681" id="-41680">
		<tag k="name" v="Sandvika" />
		<tag k="natural" v="bay" />
		<tag k="ssr:stedsnr" v="186204" />
	</node>
	<node lat="59.65239444168128" lon="5.898863883840123" id="-41687">
		<tag k="name" v="Beinstøvik" />
		<tag k="natural" v="bay" />
		<tag k="ssr:stedsnr" v="219527" />
	</node>
	<node lat="59.734480551539015" lon="5.984808328313652" id="-41698">
		<tag k="name" v="Sildekvervnes" />
		<tag k="natural" v="cape" />
		<tag k="ssr:stedsnr" v="220306" />
	</node>
	<node lat="59.73961111465535" lon="5.938713892878702" id="-41700">
		<tag k="name" v="Stabbastøneset" />
=======
	<node id="-599462" lat="59.7346916659" lon="5.98686110657">
		<tag k="name" v="Notatangen" />
		<tag k="natural" v="cape" />
		<tag k="ssr:stedsnr" v="644263" />
	</node>
	<node id="-598949" lat="59.7159749963" lon="5.85134722445">
		<tag k="name" v="Tusso" />
		<tag k="place" v="locality" />
		<tag k="seamark:type" v="rock" />
		<tag k="ssr:stedsnr" v="165966" />
	</node>
	<node id="-598948" lat="59.645591663" lon="5.89107222356">
		<tag k="name" v="Melandsholmen" />
		<tag k="place" v="islet" />
		<tag k="ssr:stedsnr" v="159841" />
	</node>
	<node id="-597922" lat="59.7596388878" lon="5.93205556185">
		<tag k="name" v="Laksavågneset" />
>>>>>>> e1d4bc35ff8a6074a6f2e91616a996b547c36f15
		<tag k="natural" v="cape" />
		<tag k="ssr:stedsnr" v="220323" />
	</node>
<<<<<<< HEAD
	<node lat="59.8747305585637" lon="6.379808326204958" id="-41710">
		<tag k="name" v="Piravik" />
=======
	<node id="-599457" lat="59.8029611097" lon="6.20964166412">
		<tag k="name" v="Askehola" />
>>>>>>> e1d4bc35ff8a6074a6f2e91616a996b547c36f15
		<tag k="natural" v="bay" />
		<tag k="ssr:stedsnr" v="226014" />
	</node>
<<<<<<< HEAD
	<node lat="59.72591111438141" lon="5.847849994656892" id="-41711">
		<tag k="name" v="Brattholmen" />
		<tag k="place" v="islet" />
		<tag k="ssr:stedsnr" v="225912" />
	</node>
	<node lat="59.64518611094561" lon="5.918466659493498" id="-41712">
		<tag k="name" v="Ingelsgjerdflua" />
		<tag k="place" v="locality" />
		<tag k="seamark:type" v="rock" />
		<tag k="ssr:stedsnr" v="225999" />
	</node>
	<node lat="59.74497500390402" lon="5.9344111128185375" id="-41715">
		<tag k="alt_name" v="Trønskenes" />
		<tag k="name" v="Trønskeneset" />
		<tag k="natural" v="cape" />
		<tag k="ssr:stedsnr" v="245625" />
	</node>
	<node lat="59.73406389038411" lon="5.903658339706778" id="-41717">
		<tag k="alt_name" v="Leknesvik;Leiknesvika" />
		<tag k="name" v="Leknesvika" />
		<tag k="natural" v="bay" />
		<tag k="ssr:stedsnr" v="245649" />
	</node>
	<node lat="59.646808332940864" lon="5.921494438670063" id="-41739">
		<tag k="name" v="Grytestranda" />
		<tag k="natural" v="beach" />
		<tag k="ssr:stedsnr" v="280570" />
	</node>
	<node lat="59.713658331742515" lon="5.843077786549786" id="-41740">
		<tag k="name" v="Brakanes" />
		<tag k="natural" v="cape" />
		<tag k="ssr:stedsnr" v="280572" />
	</node>
	<node lat="59.65121388819225" lon="5.799588896736083" id="-41769">
		<tag k="alt_name" v="Bjørkenesvika" />
		<tag k="name" v="Børkjenesvik" />
=======
	<node id="-598944" lat="59.695361115" lon="5.81111944609">
		<tag k="alt_name" v="Djupevik" />
		<tag k="name" v="Djupavik" />
		<tag k="natural" v="bay" />
		<tag k="ssr:stedsnr" v="159640" />
	</node>
	<node id="-598943" lat="59.6971583296" lon="5.81286388783">
		<tag k="name" v="Brandvik" />
		<tag k="natural" v="bay" />
		<tag k="ssr:stedsnr" v="159639" />
	</node>
	<node id="-597918" lat="59.7358138854" lon="5.91884444257">
		<tag k="name" v="Hagavik" />
		<tag k="natural" v="bay" />
		<tag k="ssr:stedsnr" v="158758" />
	</node>
	<node id="-597914" lat="59.8221764178" lon="6.20937707306">
		<tag k="loc_name" v="Bjellandsnes" />
		<tag k="name" v="Bjellandsneset" />
		<tag k="natural" v="cape" />
		<tag k="ssr:stedsnr" v="104028" />
	</node>
	<node id="-599450" lat="59.7641873717" lon="5.93884551069">
		<tag k="name" v="Tråsavika" />
		<tag k="natural" v="bay" />
		<tag k="ssr:stedsnr" v="644046" />
	</node>
	<node id="-598936" lat="59.6483944443" lon="5.91392499604">
		<tag k="name" v="Eriksvik" />
		<tag k="natural" v="bay" />
		<tag k="ssr:stedsnr" v="159576" />
	</node>
	<node id="-597911" lat="59.7381250006" lon="5.91478610882">
		<tag k="name" v="Hamn" />
		<tag k="natural" v="bay" />
		<tag k="ssr:stedsnr" v="98707" />
	</node>
	<node id="-599444" lat="59.7306277763" lon="5.86985277155">
		<tag k="name" v="Kvalsvik" />
>>>>>>> e1d4bc35ff8a6074a6f2e91616a996b547c36f15
		<tag k="natural" v="bay" />
		<tag k="ssr:stedsnr" v="462572" />
	</node>
<<<<<<< HEAD
	<node lat="59.65629166660232" lon="5.787702785543702" id="-41770">
		<tag k="name" v="Slåttevikneset" />
		<tag k="natural" v="cape" />
		<tag k="ssr:stedsnr" v="462573" />
	</node>
	<node lat="59.65026667054821" lon="5.821636111394287" id="-41771">
		<tag k="name" v="Seldalsnes" />
		<tag k="natural" v="cape" />
		<tag k="ssr:stedsnr" v="462576" />
	</node>
	<node lat="59.66054999852958" lon="5.793952773398561" id="-41786">
		<tag k="name" v="Skjersvika" />
=======
	<node id="-599443" lat="59.7193374133" lon="5.85104933781">
		<tag k="name" v="Øyahavn" />
		<tag k="natural" v="bay" />
		<tag k="ssr:stedsnr" v="643531" />
	</node>
	<node id="-597904" lat="59.6550027763" lon="5.83595277153">
		<tag k="name" v="Holmaseidvik" />
>>>>>>> e1d4bc35ff8a6074a6f2e91616a996b547c36f15
		<tag k="natural" v="bay" />
		<tag k="ssr:stedsnr" v="306456" />
	</node>
<<<<<<< HEAD
	<node lat="59.810408333770376" lon="6.17934999700152" id="-41801">
		<tag k="name" v="Langaneset" />
		<tag k="natural" v="cape" />
		<tag k="ssr:stedsnr" v="468039" />
	</node>
	<node lat="59.77979166924792" lon="6.139969449903947" id="-41802">
		<tag k="name" v="Holanesvik" />
=======
	<node id="-598415" lat="59.7446861092" lon="6.10469166829">
		<tag k="alt_name" v="Krogstøneset" />
		<tag k="name" v="Krokastønes" />
		<tag k="natural" v="cape" />
		<tag k="ssr:stedsnr" v="887383" />
	</node>
	<node id="-599436" lat="59.838194818" lon="6.25124310016">
		<tag k="name" v="Orevika" />
>>>>>>> e1d4bc35ff8a6074a6f2e91616a996b547c36f15
		<tag k="natural" v="bay" />
		<tag k="ssr:stedsnr" v="468890" />
	</node>
<<<<<<< HEAD
	<node lat="59.67100555521657" lon="5.930719439213462" id="-41806">
		<tag k="name" v="Tongane" />
=======
	<node id="-599106" lat="59.6836805576" lon="5.78290833426">
		<tag k="alt_name" v="Kjølbergsnes" />
		<tag k="name" v="Kjølbergneset" />
		<tag k="natural" v="cape" />
		<tag k="ssr:stedsnr" v="367012" />
	</node>
	<node id="-598921" lat="59.7880305517" lon="6.17136110287">
		<tag k="name" v="Klubben" />
>>>>>>> e1d4bc35ff8a6074a6f2e91616a996b547c36f15
		<tag k="natural" v="cape" />
		<tag k="ssr:stedsnr" v="340520" />
	</node>
<<<<<<< HEAD
	<node lat="59.66790278105588" lon="5.930188894116598" id="-41808">
		<tag k="name" v="Lusholmen" />
		<tag k="place" v="islet" />
		<tag k="ssr:stedsnr" v="340522" />
	</node>
	<node lat="59.71719166415452" lon="5.865325002050301" id="-41809">
		<tag k="name" v="Selvik" />
		<tag k="natural" v="bay" />
		<tag k="ssr:stedsnr" v="340551" />
	</node>
	<node lat="59.73663333688425" lon="5.985302782438438" id="-41829">
		<tag k="alt_name" v="Ytra Tungesvikbukt" />
		<tag k="name" v="Ytra Tungesvik" />
=======
	<node id="-599432" lat="59.7515250002" lon="5.94978333866">
		<tag k="alt_name" v="Breivika" />
		<tag k="name" v="Breidvika" />
		<tag k="natural" v="bay" />
		<tag k="ssr:stedsnr" v="610416" />
	</node>
	<node id="-598919" lat="59.6607055517" lon="5.85867221796">
		<tag k="name" v="Salbuvik" />
		<tag k="natural" v="bay" />
		<tag k="ssr:stedsnr" v="158591" />
	</node>
	<node id="-598406" lat="59.7917583314" lon="6.1808305631">
		<tag k="name" v="Biskusnakken" />
		<tag k="natural" v="cape" />
		<tag k="ssr:stedsnr" v="887184" />
	</node>
	<node id="-598593" lat="59.6448527765" lon="5.88887499352">
		<tag k="fixme" v="consider seamark:type=rock or natural=shoal" />
		<tag k="name" v="Kuskjer" />
		<tag k="place" v="islet" />
		<tag k="ssr:stedsnr" v="948591" />
	</node>
	<node id="-598916" lat="59.7508861073" lon="5.94781388307">
		<tag k="name" v="Naustvika" />
>>>>>>> e1d4bc35ff8a6074a6f2e91616a996b547c36f15
		<tag k="natural" v="bay" />
		<tag k="ssr:stedsnr" v="347921" />
	</node>
<<<<<<< HEAD
	<node lat="59.745652777796806" lon="5.959630556262143" id="-41840">
		<tag k="alt_name" v="Nesvåg" />
		<tag k="name" v="Nesvågen" />
		<tag k="natural" v="bay" />
		<tag k="ssr:stedsnr" v="367614" />
	</node>
	<node lat="59.6571694445294" lon="5.900633330296426" id="-41845">
		<tag k="alt_name" v="Tåno" />
		<tag k="fixme" v="multiple name tags, choose one and add the other to alt_name" />
		<tag k="name" v="Tåna;Hundsviktåa" />
=======
	<node id="-597890" lat="59.7376611155" lon="5.99374167497">
		<tag k="name" v="Jostø" />
		<tag k="natural" v="bay" />
		<tag k="ssr:stedsnr" v="98214" />
	</node>
	<node id="-599424" lat="59.7082500015" lon="5.82755555468">
		<tag k="alt_name" v="Årvikneset" />
		<tag k="name" v="Årvikeneset" />
>>>>>>> e1d4bc35ff8a6074a6f2e91616a996b547c36f15
		<tag k="natural" v="cape" />
		<tag k="ssr:stedsnr" v="367727" />
	</node>
<<<<<<< HEAD
	<node lat="59.845894446624065" lon="6.33606389078642" id="-41846">
		<tag k="name" v="Langfossnes" />
=======
	<node id="-598908" lat="59.7532861106" lon="5.94939166616">
		<tag k="name" v="Klungerneset" />
>>>>>>> e1d4bc35ff8a6074a6f2e91616a996b547c36f15
		<tag k="natural" v="cape" />
		<tag k="ssr:stedsnr" v="368069" />
	</node>
<<<<<<< HEAD
	<node lat="59.836913891085125" lon="6.303319442689037" id="-41859">
		<tag k="alt_name" v="Rotdalsvik" />
		<tag k="name" v="Rotalsvikane" />
		<tag k="natural" v="bay" />
		<tag k="ssr:stedsnr" v="401210" />
	</node>
	<node lat="59.821083428625265" lon="6.229861187189396" id="-41860">
		<tag k="name" v="Hamnaholmen" />
		<tag k="place" v="islet" />
		<tag k="ssr:stedsnr" v="401233" />
	</node>
	<node lat="59.73671110908763" lon="5.922130556319685" id="-41871">
		<tag k="name" v="Skålnestangen" />
=======
	<node id="-598391" lat="59.7566111114" lon="5.94281945188">
		<tag k="alt_name" v="Djupavik" />
		<tag k="name" v="Djupevik" />
		<tag k="natural" v="bay" />
		<tag k="ssr:stedsnr" v="732398" />
	</node>
	<node id="-599414" lat="59.6599111154" lon="5.86470277874">
		<tag k="alt_name" v="Dysjanes" />
		<tag k="name" v="Dysjaneset" />
>>>>>>> e1d4bc35ff8a6074a6f2e91616a996b547c36f15
		<tag k="natural" v="cape" />
		<tag k="ssr:stedsnr" v="401797" />
	</node>
<<<<<<< HEAD
	<node lat="59.747019443196244" lon="6.112002771689883" id="-41875">
		<tag k="alt_name" v="Sævareidvikjo" />
		<tag k="name" v="Sævareidsvik" />
		<tag k="natural" v="bay" />
		<tag k="ssr:stedsnr" v="402034" />
	</node>
	<node lat="59.69240833472778" lon="5.805394447548544" id="-41882">
		<tag k="alt_name" v="Øreviknes" />
		<tag k="name" v="Ørevikneset" />
		<tag k="natural" v="cape" />
		<tag k="ssr:stedsnr" v="488064" />
	</node>
	<node lat="59.74132499684047" lon="6.06888055868332" id="-41888">
		<tag k="name" v="Skatehaugnes" />
		<tag k="natural" v="cape" />
		<tag k="ssr:stedsnr" v="488634" />
	</node>
	<node lat="59.80545078078183" lon="6.164087335519718" id="-41900">
		<tag k="alt_name" v="Kalvika" />
		<tag k="name" v="Kallvika" />
=======
	<node id="-598846" lat="59.690769442" lon="5.80157221608">
		<tag k="name" v="Skjellsvikeneset" />
		<tag k="natural" v="cape" />
		<tag k="ssr:stedsnr" v="98588" />
	</node>
	<node id="-598898" lat="59.874122224" lon="6.36640000522">
		<tag k="alt_name" v="Lindenes" />
		<tag k="name" v="Lindeneset" />
		<tag k="natural" v="cape" />
		<tag k="ssr:stedsnr" v="125025" />
	</node>
	<node id="-599408" lat="59.6474749974" lon="5.7963249973">
		<tag k="alt_name" v="Etnesund" />
		<tag k="name" v="Etnesundet" />
		<tag k="natural" v="strait" />
		<tag k="ssr:stedsnr" v="609441" />
	</node>
	<node id="-599101" lat="59.6523250012" lon="5.87846389636">
		<tag k="name" v="Vedagrunnen" />
		<tag k="natural" v="shoal" />
		<tag k="place" v="locality" />
		<tag k="ssr:stedsnr" v="347998" />
	</node>
	<node id="-599404" lat="59.7134388932" lon="5.86122777438">
		<tag k="name" v="Holmen" />
		<tag k="place" v="islet" />
		<tag k="ssr:stedsnr" v="583842" />
	</node>
	<node id="-599185" lat="59.6463611085" lon="5.90783055628">
		<tag k="name" v="Hidlesnes" />
		<tag k="natural" v="cape" />
		<tag k="ssr:stedsnr" v="401538" />
	</node>
	<node id="-598369" lat="59.747597222" lon="5.99829165797">
		<tag k="bay" v="fjord" />
		<tag k="name" v="Åkrafjorden" />
>>>>>>> e1d4bc35ff8a6074a6f2e91616a996b547c36f15
		<tag k="natural" v="bay" />
		<tag k="ssr:stedsnr" v="489224" />
	</node>
<<<<<<< HEAD
	<node lat="59.71210000423056" lon="5.842436105169154" id="-41923">
		<tag k="alt_name" v="Lauvviksund;Lauvviksundet" />
		<tag k="name" v="Lauvvikesundet" />
		<tag k="natural" v="strait" />
		<tag k="ssr:stedsnr" v="671090" />
	</node>
	<node lat="59.75312500165711" lon="5.962441670991498" id="-41928">
		<tag k="name" v="Bekkjarvika" />
=======
	<node id="-599390" lat="59.7443416656" lon="5.92634166941">
		<tag k="name" v="Trønskenesfluno" />
		<tag k="natural" v="shoal" />
		<tag k="place" v="locality" />
		<tag k="ssr:stedsnr" v="583689" />
	</node>
	<node id="-598069" lat="59.6512138882" lon="5.79958889674">
		<tag k="alt_name" v="Bjørkenesvika" />
		<tag k="name" v="Børkjenesvik" />
		<tag k="natural" v="bay" />
		<tag k="ssr:stedsnr" v="462572" />
	</node>
	<node id="-597851" lat="59.7340638904" lon="5.90365833971">
		<tag k="alt_name" v="Leknesvik;Leiknesvika" />
		<tag k="name" v="Leknesvika" />
>>>>>>> e1d4bc35ff8a6074a6f2e91616a996b547c36f15
		<tag k="natural" v="bay" />
		<tag k="ssr:stedsnr" v="671383" />
	</node>
<<<<<<< HEAD
	<node lat="59.79136110686663" lon="6.18253888733149" id="-41931">
		<tag k="name" v="Biskusvika" />
		<tag k="natural" v="bay" />
		<tag k="ssr:stedsnr" v="671344" />
	</node>
	<node lat="59.72743610733873" lon="6.153899996094194" id="-41948">
		<tag k="name" v="Vinjavågen" />
=======
	<node id="-599439" lat="59.7619249963" lon="5.94198888777">
		<tag k="name" v="Høybergstangen" />
		<tag k="natural" v="cape" />
		<tag k="ssr:stedsnr" v="643085" />
	</node>
	<node id="-599384" lat="59.6482777737" lon="5.89911388638">
		<tag k="name" v="Naustvik" />
		<tag k="natural" v="bay" />
		<tag k="ssr:stedsnr" v="583535" />
	</node>
	<node id="-598871" lat="59.6470527794" lon="5.82321110278">
		<tag k="bay" v="fjord" />
		<tag k="name" v="Etnefjorden" />
>>>>>>> e1d4bc35ff8a6074a6f2e91616a996b547c36f15
		<tag k="natural" v="bay" />
		<tag k="ssr:stedsnr" v="462477" />
	</node>
<<<<<<< HEAD
	<node lat="59.72311389181141" lon="5.856877768711128" id="-41955">
		<tag k="name" v="Djupavik" />
		<tag k="natural" v="bay" />
		<tag k="ssr:stedsnr" v="462556" />
	</node>
	<node lat="59.715636107345844" lon="5.846908325113237" id="-41956">
		<tag k="name" v="Øyavikja" />
=======
	<node id="-598869" lat="59.6999361092" lon="5.8138000021">
		<tag k="alt_name" v="Håleneset" />
		<tag k="name" v="Holeneset" />
		<tag k="natural" v="cape" />
		<tag k="ssr:stedsnr" v="124048" />
	</node>
	<node id="-598356" lat="59.7014749965" lon="5.81664165885">
		<tag k="alt_name" v="Gardvik" />
		<tag k="name" v="Gardvika" />
>>>>>>> e1d4bc35ff8a6074a6f2e91616a996b547c36f15
		<tag k="natural" v="bay" />
		<tag k="ssr:stedsnr" v="462558" />
	</node>
<<<<<<< HEAD
	<node lat="59.73320277894446" lon="5.903219440376991" id="-41959">
		<tag k="name" v="Møllesvik" />
=======
	<node id="-597843" lat="59.819155555" lon="6.22688889622">
		<tag k="alt_name" v="Hetleflåtvika" />
		<tag k="name" v="Hetleflotvika" />
>>>>>>> e1d4bc35ff8a6074a6f2e91616a996b547c36f15
		<tag k="natural" v="bay" />
		<tag k="ssr:stedsnr" v="462739" />
	</node>
<<<<<<< HEAD
	<node lat="59.66619999678194" lon="5.791374995398971" id="-41966">
		<tag k="alt_name" v="Sørevågen;Søra Nervikvåg" />
		<tag k="name" v="Nervikvågen" />
=======
	<node id="-597842" lat="59.8700333323" lon="6.37006388496">
		<tag k="alt_name" v="Ømbesvik" />
		<tag k="name" v="Ømbesvika" />
>>>>>>> e1d4bc35ff8a6074a6f2e91616a996b547c36f15
		<tag k="natural" v="bay" />
		<tag k="ssr:stedsnr" v="488459" />
	</node>
<<<<<<< HEAD
	<node lat="59.856613885281526" lon="6.342813895888112" id="-41977">
		<tag k="alt_name" v="Lyngnes" />
		<tag k="name" v="Lyngneset" />
=======
	<node id="-599375" lat="59.7374888927" lon="5.99089444862">
		<tag k="name" v="Skjeparviknestet" />
>>>>>>> e1d4bc35ff8a6074a6f2e91616a996b547c36f15
		<tag k="natural" v="cape" />
		<tag k="ssr:stedsnr" v="489006" />
	</node>
<<<<<<< HEAD
	<node lat="59.83483812016934" lon="6.228506129597511" id="-41982">
		<tag k="name" v="Sjøbuvika" />
		<tag k="natural" v="bay" />
		<tag k="ssr:stedsnr" v="489055" />
	</node>
	<node lat="59.78328611088154" lon="6.142800004434625" id="-41985">
		<tag k="alt_name" v="Skarvanes" />
		<tag k="fixme" v="multiple name tags, choose one and add the other to alt_name" />
		<tag k="name" v="Storatåna;Skarvatåna" />
		<tag k="natural" v="cape" />
		<tag k="ssr:stedsnr" v="489346" />
	</node>
	<node lat="59.756683958613706" lon="5.934921786655891" id="-41990">
		<tag k="alt_name" v="Flatanes" />
		<tag k="name" v="Flotanes" />
		<tag k="natural" v="cape" />
		<tag k="ssr:stedsnr" v="489391" />
	</node>
	<node lat="59.758599995479884" lon="5.953324992314842" id="-41991">
		<tag k="alt_name" v="Kvitahella, yt;Kvithedla ytre" />
		<tag k="name" v="Ytre Kvitahella" />
		<tag k="natural" v="cape" />
		<tag k="ssr:stedsnr" v="489395" />
	</node>
	<node lat="59.645305559107804" lon="5.868836103863019" id="-42008">
		<tag k="name" v="Utstuholmen" />
		<tag k="place" v="islet" />
		<tag k="ssr:stedsnr" v="523608" />
	</node>
	<node lat="59.72228888926499" lon="5.854574997581437" id="-42010">
		<tag k="name" v="Molnessund" />
		<tag k="natural" v="strait" />
		<tag k="ssr:stedsnr" v="523621" />
	</node>
	<node lat="59.73777499805693" lon="5.977919449772919" id="-42017">
		<tag k="name" v="Strandaflua" />
		<tag k="place" v="locality" />
		<tag k="seamark:type" v="rock" />
		<tag k="ssr:stedsnr" v="530895" />
	</node>
	<node lat="59.84328333725335" lon="6.274480562438056" id="-42042">
		<tag k="alt_name" v="Tøsseholmen" />
		<tag k="name" v="Tysseholmen" />
=======
	<node id="-597838" lat="59.8169972234" lon="6.22423332433">
		<tag k="name" v="Fivelandsneset" />
		<tag k="natural" v="cape" />
		<tag k="ssr:stedsnr" v="44022" />
	</node>
	<node id="-599373" lat="59.8231527802" lon="6.23040832714">
		<tag k="name" v="Fjølaneset" />
		<tag k="natural" v="cape" />
		<tag k="ssr:stedsnr" v="583205" />
	</node>
	<node id="-599351" lat="59.7575555579" lon="5.95790833826">
		<tag k="alt_name" v="Kvitahella, in;Kvithello;Kvithedla indre" />
		<tag k="name" v="Indre Kvitahella" />
		<tag k="natural" v="cape" />
		<tag k="ssr:stedsnr" v="550377" />
	</node>
	<node id="-597832" lat="59.8552638883" lon="6.34077223067">
		<tag k="name" v="Lyngnesvika" />
		<tag k="natural" v="bay" />
		<tag k="ssr:stedsnr" v="37766" />
	</node>
	<node id="-598852" lat="59.7342722221" lon="5.89701388715">
		<tag k="name" v="Tømmervika" />
		<tag k="natural" v="bay" />
		<tag k="ssr:stedsnr" v="98700" />
	</node>
	<node id="-598667" lat="59.7404194427" lon="6.01417500842">
		<tag k="alt_name" v="Indra Tungesvikbukt" />
		<tag k="name" v="Indra Tungesvik" />
		<tag k="natural" v="bay" />
		<tag k="ssr:stedsnr" v="948860" />
	</node>
	<node id="-598336" lat="59.7613222182" lon="5.92967499682">
		<tag k="alt_name" v="Ølferskjæret" />
		<tag k="fixme" v="consider seamark:type=rock or natural=shoal" />
		<tag k="name" v="Ølferskjeret" />
		<tag k="place" v="islet" />
		<tag k="ssr:stedsnr" v="590909" />
	</node>
	<node id="-597822" lat="59.739405557" lon="6.02175833941">
		<tag k="fixme" v="consider seamark:type=rock or natural=shoal" />
		<tag k="loc_name" v="Terneskjeret" />
		<tag k="name" v="Terneskjær" />
		<tag k="place" v="islet" />
		<tag k="ssr:stedsnr" v="37361" />
	</node>
	<node id="-598325" lat="59.6783916653" lon="5.78316666686">
		<tag k="name" v="Kjølbergsvik" />
		<tag k="natural" v="bay" />
		<tag k="ssr:stedsnr" v="583466" />
	</node>
	<node id="-598844" lat="59.7372111074" lon="5.90527500259">
		<tag k="name" v="Apalvik" />
		<tag k="natural" v="bay" />
		<tag k="ssr:stedsnr" v="98828" />
	</node>
	<node id="-598154" lat="59.8369138911" lon="6.30331944269">
		<tag k="alt_name" v="Rotdalsvik" />
		<tag k="name" v="Rotalsvikane" />
		<tag k="natural" v="bay" />
		<tag k="ssr:stedsnr" v="401210" />
	</node>
	<node id="-597818" lat="59.7432444405" lon="5.98878333064">
		<tag k="alt_name" v="Oterstokk" />
		<tag k="name" v="Osterstakken" />
		<tag k="natural" v="cape" />
		<tag k="ssr:stedsnr" v="37259" />
	</node>
	<node id="-597816" lat="59.8513527766" lon="6.35014999712">
		<tag k="fixme" v="consider seamark:type=rock or natural=shoal" />
		<tag k="name" v="Stikkskjer" />
>>>>>>> e1d4bc35ff8a6074a6f2e91616a996b547c36f15
		<tag k="place" v="islet" />
		<tag k="ssr:stedsnr" v="550060" />
	</node>
<<<<<<< HEAD
	<node lat="59.800841416935455" lon="6.1618506572723275" id="-42045">
=======
	<node id="-597815" lat="59.8428722243" lon="6.2816833272">
>>>>>>> e1d4bc35ff8a6074a6f2e91616a996b547c36f15
		<tag k="name" v="Djupavika" />
		<tag k="natural" v="bay" />
		<tag k="ssr:stedsnr" v="550203" />
	</node>
<<<<<<< HEAD
	<node lat="59.852488890114316" lon="6.329077784702654" id="-42055">
		<tag k="name" v="Hatlevika" />
=======
	<node id="-598837" lat="59.6756805562" lon="5.91677499381">
		<tag k="name" v="Basvik" />
>>>>>>> e1d4bc35ff8a6074a6f2e91616a996b547c36f15
		<tag k="natural" v="bay" />
		<tag k="ssr:stedsnr" v="583204" />
	</node>
<<<<<<< HEAD
	<node lat="59.82315278018858" lon="6.23040832714237" id="-42056">
		<tag k="name" v="Fjølaneset" />
		<tag k="natural" v="cape" />
		<tag k="ssr:stedsnr" v="583205" />
	</node>
	<node lat="59.74434166555894" lon="5.926341669406282" id="-42081">
		<tag k="name" v="Trønskenesfluno" />
		<tag k="natural" v="shoal" />
		<tag k="place" v="locality" />
		<tag k="ssr:stedsnr" v="583689" />
	</node>
	<node lat="59.71343889315883" lon="5.861227774378661" id="-42083">
		<tag k="name" v="Holmen" />
=======
	<node id="-598836" lat="59.6455305524" lon="5.88458055797">
		<tag k="alt_name" v="Vedaholmen" />
		<tag k="name" v="Veaholmen" />
>>>>>>> e1d4bc35ff8a6074a6f2e91616a996b547c36f15
		<tag k="place" v="islet" />
		<tag k="ssr:stedsnr" v="583842" />
	</node>
<<<<<<< HEAD
	<node lat="59.76132221822126" lon="5.929674996824881" id="-42084">
		<tag k="alt_name" v="Ølferskjæret" />
		<tag k="fixme" v="consider seamark:type=rock or natural=shoal" />
		<tag k="name" v="Ølferskjeret" />
		<tag k="place" v="islet" />
		<tag k="ssr:stedsnr" v="590909" />
	</node>
	<node lat="59.647474997402014" lon="5.796324997304851" id="-42087">
		<tag k="alt_name" v="Etnesund" />
		<tag k="name" v="Etnesundet" />
		<tag k="natural" v="strait" />
		<tag k="ssr:stedsnr" v="609441" />
	</node>
	<node lat="59.65991111541865" lon="5.864702778741394" id="-42092">
		<tag k="alt_name" v="Dysjanes" />
		<tag k="name" v="Dysjaneset" />
		<tag k="natural" v="cape" />
		<tag k="ssr:stedsnr" v="609704" />
	</node>
	<node lat="59.70825000150123" lon="5.8275555546823" id="-42100">
		<tag k="alt_name" v="Årvikneset" />
		<tag k="name" v="Årvikeneset" />
		<tag k="natural" v="cape" />
		<tag k="ssr:stedsnr" v="610091" />
	</node>
	<node lat="59.74667778103025" lon="5.960724991190577" id="-42110">
		<tag k="name" v="Snekkevika" />
		<tag k="natural" v="bay" />
		<tag k="ssr:stedsnr" v="704042" />
	</node>
	<node lat="59.756124998657484" lon="5.942363890339326" id="-42111">
		<tag k="name" v="Midtdalsneset" />
		<tag k="natural" v="cape" />
		<tag k="ssr:stedsnr" v="704043" />
	</node>
	<node lat="59.74768333653028" lon="6.110411119663553" id="-42113">
		<tag k="alt_name" v="Laksanes" />
		<tag k="name" v="Laksaneset" />
		<tag k="natural" v="cape" />
		<tag k="ssr:stedsnr" v="705041" />
	</node>
	<node lat="59.7651083378151" lon="5.93997777739213" id="-42115">
		<tag k="name" v="Hamnaklubben" />
		<tag k="natural" v="cape" />
		<tag k="ssr:stedsnr" v="705076" />
	</node>
	<node lat="59.74142499886048" lon="6.007361109258661" id="-42121">
		<tag k="alt_name" v="Klubben" />
		<tag k="name" v="Klubbane" />
		<tag k="natural" v="cape" />
		<tag k="ssr:stedsnr" v="705297" />
	</node>
	<node lat="59.71063055565951" lon="5.837661112811437" id="-42137">
		<tag k="name" v="Lambavikneset" />
		<tag k="natural" v="cape" />
		<tag k="ssr:stedsnr" v="705643" />
	</node>
	<node lat="59.76192499628588" lon="5.941988887765046" id="-42151">
		<tag k="name" v="Høybergstangen" />
=======
	<node id="-597811" lat="59.8747305586" lon="6.3798083262">
		<tag k="name" v="Piravik" />
		<tag k="natural" v="bay" />
		<tag k="ssr:stedsnr" v="226014" />
	</node>
	<node id="-597810" lat="59.6451861109" lon="5.91846665949">
		<tag k="name" v="Ingelsgjerdflua" />
		<tag k="place" v="locality" />
		<tag k="seamark:type" v="rock" />
		<tag k="ssr:stedsnr" v="225999" />
	</node>
	<node id="-598317" lat="59.8524888901" lon="6.3290777847">
		<tag k="name" v="Hatlevika" />
		<tag k="natural" v="bay" />
		<tag k="ssr:stedsnr" v="583204" />
	</node>
	<node id="-599346" lat="59.8008414169" lon="6.16185065727">
		<tag k="name" v="Djupavika" />
		<tag k="natural" v="bay" />
		<tag k="ssr:stedsnr" v="550203" />
	</node>
	<node id="-598314" lat="59.7667888867" lon="5.93997222122">
		<tag k="name" v="Fureneset" />
		<tag k="natural" v="cape" />
		<tag k="ssr:stedsnr" v="583065" />
	</node>
	<node id="-599337" lat="59.8432833373" lon="6.27448056244">
		<tag k="alt_name" v="Tøsseholmen" />
		<tag k="name" v="Tysseholmen" />
		<tag k="place" v="islet" />
		<tag k="ssr:stedsnr" v="550060" />
	</node>
	<node id="-598819" lat="59.7339888849" lon="5.93851667116">
		<tag k="name" v="Prestevågen" />
		<tag k="natural" v="bay" />
		<tag k="ssr:stedsnr" v="98239" />
	</node>
	<node id="-598818" lat="59.7450222235" lon="6.04151945142">
		<tag k="name" v="Holmane" />
		<tag k="place" v="islet" />
		<tag k="ssr:stedsnr" v="98233" />
	</node>
	<node id="-597793" lat="59.7344805515" lon="5.98480832831">
		<tag k="name" v="Sildekvervnes" />
>>>>>>> e1d4bc35ff8a6074a6f2e91616a996b547c36f15
		<tag k="natural" v="cape" />
		<tag k="ssr:stedsnr" v="643085" />
	</node>
<<<<<<< HEAD
	<node lat="59.71933741328134" lon="5.8510493378054145" id="-42154">
		<tag k="name" v="Øyahavn" />
=======
	<node id="-598816" lat="59.802808332" lon="6.20706944555">
		<tag k="alt_name" v="Indra Sandvik" />
		<tag k="name" v="Sandvika indre" />
>>>>>>> e1d4bc35ff8a6074a6f2e91616a996b547c36f15
		<tag k="natural" v="bay" />
		<tag k="ssr:stedsnr" v="643531" />
	</node>
<<<<<<< HEAD
	<node lat="59.73062777633771" lon="5.86985277154743" id="-42158">
		<tag k="name" v="Kvalsvik" />
		<tag k="natural" v="bay" />
		<tag k="ssr:stedsnr" v="643691" />
	</node>
	<node lat="59.73469166591053" lon="5.986861106565228" id="-42164">
		<tag k="name" v="Notatangen" />
=======
	<node id="-598296" lat="59.7106305557" lon="5.83766111281">
		<tag k="name" v="Lambavikneset" />
>>>>>>> e1d4bc35ff8a6074a6f2e91616a996b547c36f15
		<tag k="natural" v="cape" />
		<tag k="ssr:stedsnr" v="644263" />
	</node>
<<<<<<< HEAD
	<node lat="59.8029611097205" lon="6.209641664121427" id="-42168">
		<tag k="name" v="Askehola" />
=======
	<node id="-598807" lat="59.7513749973" lon="6.11839165881">
		<tag k="alt_name" v="Helvikjo" />
		<tag k="name" v="Helvika" />
>>>>>>> e1d4bc35ff8a6074a6f2e91616a996b547c36f15
		<tag k="natural" v="bay" />
		<tag k="ssr:stedsnr" v="644184" />
	</node>
<<<<<<< HEAD
	<node lat="59.72577777692766" lon="5.856511109496829" id="-42200">
		<tag k="alt_name" v="Skrånes" />
		<tag k="name" v="Skråanes" />
		<tag k="natural" v="cape" />
		<tag k="ssr:stedsnr" v="893957" />
	</node>
	<node lat="59.74242499914135" lon="5.933599994943144" id="-42201">
		<tag k="name" v="Møllesvik" />
		<tag k="natural" v="bay" />
		<tag k="ssr:stedsnr" v="704659" />
	</node>
	<node lat="59.709072221846995" lon="5.854319440360167" id="-42220">
		<tag k="name" v="Akslandsvågen" />
=======
	<node id="-597780" lat="59.7478722241" lon="6.11202777052">
		<tag k="name" v="Tedneholmen" />
		<tag k="place" v="islet" />
		<tag k="ssr:stedsnr" v="220045" />
	</node>
	<node id="-598402" lat="59.7913611069" lon="6.18253888733">
		<tag k="name" v="Biskusvika" />
>>>>>>> e1d4bc35ff8a6074a6f2e91616a996b547c36f15
		<tag k="natural" v="bay" />
		<tag k="ssr:stedsnr" v="671344" />
	</node>
<<<<<<< HEAD
	<node lat="59.818205424865894" lon="6.201282615242364" id="-42233">
		<tag k="loc_name" v="Røytenes" />
		<tag k="name" v="Røyteneset" />
		<tag k="natural" v="cape" />
		<tag k="ssr:stedsnr" v="711033" />
	</node>
	<node lat="59.64923611198494" lon="5.858247223003037" id="-42238">
		<tag k="name" v="Vesteneset" />
		<tag k="natural" v="cape" />
		<tag k="ssr:stedsnr" v="731478" />
	</node>
	<node lat="59.866272219634574" lon="6.353602773419101" id="-42251">
		<tag k="alt_name" v="Kjeavika" />
		<tag k="name" v="Kjevika" />
		<tag k="natural" v="bay" />
		<tag k="ssr:stedsnr" v="732017" />
	</node>
	<node lat="59.809199285951145" lon="6.174019416513512" id="-42258">
		<tag k="name" v="Kvanndalsvika" />
		<tag k="natural" v="bay" />
		<tag k="ssr:stedsnr" v="732211" />
	</node>
	<node lat="59.75661111144031" lon="5.942819451883324" id="-42263">
		<tag k="alt_name" v="Djupavik" />
		<tag k="name" v="Djupevik" />
=======
	<node id="-598528" lat="59.7883750019" lon="6.17724999998">
		<tag k="alt_name" v="Nygardsvik;Nigardsvika" />
		<tag k="name" v="Nedigardsvika" />
		<tag k="natural" v="bay" />
		<tag k="ssr:stedsnr" v="914336" />
	</node>
	<node id="-597769" lat="59.7226944466" lon="5.84396665826">
		<tag k="name" v="Djupavågen" />
>>>>>>> e1d4bc35ff8a6074a6f2e91616a996b547c36f15
		<tag k="natural" v="bay" />
		<tag k="ssr:stedsnr" v="732398" />
	</node>
<<<<<<< HEAD
	<node lat="59.741338885639635" lon="6.099375003425162" id="-42277">
		<tag k="name" v="Slåttedalsnes" />
		<tag k="natural" v="cape" />
		<tag k="ssr:stedsnr" v="765367" />
	</node>
	<node lat="59.66372777650245" lon="5.920033337076913" id="-42285">
		<tag k="name" v="Bekkjavika" />
		<tag k="natural" v="bay" />
		<tag k="ssr:stedsnr" v="765497" />
	</node>
	<node lat="59.835677776634085" lon="6.230727782131688" id="-42296">
		<tag k="name" v="Gjuvsneset" />
		<tag k="natural" v="cape" />
		<tag k="ssr:stedsnr" v="772028" />
	</node>
	<node lat="59.76142499807113" lon="5.944408332897378" id="-42310">
		<tag k="name" v="Kråketangen" />
=======
	<node id="-597768" lat="59.6471694469" lon="5.91262222529">
		<tag k="name" v="Sponanes" />
		<tag k="natural" v="cape" />
		<tag k="ssr:stedsnr" v="219556" />
	</node>
	<node id="-597767" lat="59.645008329" lon="5.86564167178">
		<tag k="name" v="Utstuvika" />
		<tag k="natural" v="bay" />
		<tag k="ssr:stedsnr" v="219541" />
	</node>
	<node id="-597766" lat="59.6530583356" lon="5.83460277727">
		<tag k="name" v="Litleholmen" />
		<tag k="place" v="islet" />
		<tag k="ssr:stedsnr" v="219539" />
	</node>
	<node id="-597765" lat="59.6523944417" lon="5.89886388384">
		<tag k="name" v="Beinstøvik" />
		<tag k="natural" v="bay" />
		<tag k="ssr:stedsnr" v="219527" />
	</node>
	<node id="-598275" lat="59.7414249989" lon="6.00736110926">
		<tag k="alt_name" v="Klubben" />
		<tag k="name" v="Klubbane" />
>>>>>>> e1d4bc35ff8a6074a6f2e91616a996b547c36f15
		<tag k="natural" v="cape" />
		<tag k="ssr:stedsnr" v="792356" />
	</node>
<<<<<<< HEAD
	<node lat="59.869955552757595" lon="6.366891665458657" id="-42322">
		<tag k="alt_name" v="Ømbesnes" />
		<tag k="name" v="Ømbesneset" />
		<tag k="natural" v="cape" />
		<tag k="ssr:stedsnr" v="793016" />
	</node>
	<node lat="59.6875666669584" lon="5.791813884593156" id="-42333">
		<tag k="alt_name" v="Husavik" />
		<tag k="name" v="Husavika" />
=======
	<node id="-599298" lat="59.7377749981" lon="5.97791944977">
		<tag k="name" v="Strandaflua" />
		<tag k="place" v="locality" />
		<tag k="seamark:type" v="rock" />
		<tag k="ssr:stedsnr" v="530895" />
	</node>
	<node id="-598315" lat="59.7623777782" lon="5.93995833434">
		<tag k="name" v="Torskavika" />
		<tag k="natural" v="bay" />
		<tag k="ssr:stedsnr" v="583066" />
	</node>
	<node id="-598782" lat="59.717755554" lon="5.80942222004">
		<tag k="alt_name" v="Skåneviksfjorden" />
		<tag k="bay" v="fjord" />
		<tag k="name" v="Skånevikfjorden" />
>>>>>>> e1d4bc35ff8a6074a6f2e91616a996b547c36f15
		<tag k="natural" v="bay" />
		<tag k="ssr:stedsnr" v="913062" />
	</node>
<<<<<<< HEAD
	<node lat="59.648661110517025" lon="5.897250000219922" id="-42336">
		<tag k="name" v="Brakanes" />
=======
	<node id="-597753" lat="59.6728777767" lon="5.91299166997">
		<tag k="alt_name" v="Fjøsnanes" />
		<tag k="name" v="Fjøsnaneset" />
>>>>>>> e1d4bc35ff8a6074a6f2e91616a996b547c36f15
		<tag k="natural" v="cape" />
		<tag k="ssr:stedsnr" v="913477" />
	</node>
<<<<<<< HEAD
	<node lat="59.7178638878109" lon="5.841755555043425" id="-42350">
		<tag k="alt_name" v="Taraldsøy" />
		<tag k="name" v="Taraldsøya" />
		<tag k="place" v="island" />
		<tag k="ssr:stedsnr" v="914070" />
	</node>
	<node lat="59.69172777829501" lon="5.807669445712486" id="-42352">
		<tag k="name" v="Skånevikstranda" />
		<tag k="natural" v="beach" />
		<tag k="ssr:stedsnr" v="914097" />
	</node>
	<node lat="59.788375001861716" lon="6.177249999979348" id="-42358">
		<tag k="alt_name" v="Nygardsvik;Nedigardsvika" />
		<tag k="name" v="Nigardsvika" />
=======
	<node id="-598262" lat="59.7651083378" lon="5.93997777739">
		<tag k="name" v="Hamnaklubben" />
		<tag k="natural" v="cape" />
		<tag k="ssr:stedsnr" v="705076" />
	</node>
	<node id="-598773" lat="59.6988388856" lon="5.81337499762">
		<tag k="alt_name" v="Båtavik" />
		<tag k="name" v="Båtvika" />
		<tag k="natural" v="bay" />
		<tag k="ssr:stedsnr" v="63053" />
	</node>
	<node id="-598772" lat="59.6972416667" lon="5.81356389712">
		<tag k="name" v="Brannvika" />
>>>>>>> e1d4bc35ff8a6074a6f2e91616a996b547c36f15
		<tag k="natural" v="bay" />
		<tag k="ssr:stedsnr" v="914336" />
	</node>
<<<<<<< HEAD
	<node lat="59.83637594316261" lon="6.233743004270787" id="-42370">
		<tag k="loc_name" v="Djuvslandet" />
		<tag k="name" v="Djuveland" />
		<tag k="natural" v="beach" />
		<tag k="ssr:stedsnr" v="827120" />
	</node>
	<node lat="59.73908611031502" lon="5.988186105103276" id="-42372">
		<tag k="name" v="Holmen" />
		<tag k="place" v="islet" />
		<tag k="ssr:stedsnr" v="827304" />
	</node>
	<node lat="59.83687145617697" lon="6.2456957159255335" id="-42377">
		<tag k="name" v="Porsvika" />
		<tag k="natural" v="bay" />
		<tag k="ssr:stedsnr" v="827274" />
	</node>
	<node lat="59.68946944864416" lon="5.800616660474699" id="-42382">
		<tag k="name" v="Kviesanden" />
=======
	<node id="-598259" lat="59.7424249991" lon="5.93359999494">
		<tag k="name" v="Møllesvik" />
		<tag k="natural" v="bay" />
		<tag k="ssr:stedsnr" v="704659" />
	</node>
	<node id="-598770" lat="59.743636107" lon="5.9957583315">
		<tag k="alt_name" v="Tungesviknes" />
		<tag k="name" v="Tungesvikneset" />
		<tag k="natural" v="cape" />
		<tag k="ssr:stedsnr" v="63644" />
	</node>
	<node id="-598257" lat="59.746677781" lon="5.96072499119">
		<tag k="name" v="Snekkevika" />
		<tag k="natural" v="bay" />
		<tag k="ssr:stedsnr" v="704042" />
	</node>
	<node id="-598255" lat="59.8182054249" lon="6.20128261524">
		<tag k="loc_name" v="Røytenes" />
		<tag k="name" v="Røyteneset" />
		<tag k="natural" v="cape" />
		<tag k="ssr:stedsnr" v="711033" />
	</node>
	<node id="-599278" lat="59.7141333363" lon="5.86271389279">
		<tag k="name" v="Norevågen" />
>>>>>>> e1d4bc35ff8a6074a6f2e91616a996b547c36f15
		<tag k="natural" v="bay" />
		<tag k="old_name" v="Kvitesanden" />
		<tag k="ssr:stedsnr" v="832931" />
	</node>
<<<<<<< HEAD
	<node lat="59.735096355904666" lon="5.89887448459061" id="-42387">
		<tag k="alt_name" v="Leiknesholmane" />
		<tag k="name" v="Leknesholmane" />
		<tag k="place" v="islet" />
		<tag k="ssr:stedsnr" v="852620" />
	</node>
	<node lat="59.67038889278771" lon="5.787630553804451" id="-42389">
		<tag k="alt_name" v="Norevågen;Nordra Nervikvåg" />
		<tag k="name" v="Nordrevågen" />
		<tag k="natural" v="bay" />
		<tag k="ssr:stedsnr" v="853025" />
	</node>
	<node lat="59.87277777631082" lon="6.376066674121851" id="-42404">
		<tag k="alt_name" v="Havernes;Havurnes" />
		<tag k="name" v="Haverneset" />
		<tag k="natural" v="cape" />
		<tag k="ssr:stedsnr" v="854018" />
	</node>
	<node lat="59.73930277373954" lon="5.908925005321117" id="-42437">
		<tag k="alt_name" v="Leiknestangen" />
		<tag k="name" v="Leknestangen" />
=======
	<node id="-598763" lat="59.7355166667" lon="5.82700833091">
		<tag k="name" v="Fjordflua" />
		<tag k="natural" v="shoal" />
		<tag k="place" v="locality" />
		<tag k="ssr:stedsnr" v="43976" />
	</node>
	<node id="-598758" lat="59.8024277747" lon="6.2055111034">
		<tag k="alt_name" v="Ytra Sandvik" />
		<tag k="name" v="Sandvika ytre" />
		<tag k="natural" v="bay" />
		<tag k="ssr:stedsnr" v="38189" />
	</node>
	<node id="-598225" lat="59.7832861109" lon="6.14280000443">
		<tag k="alt_name" v="Skarvanes" />
		<tag k="fixme" v="multiple name tags, choose one and add the other to alt_name" />
		<tag k="name" v="Skarvatåna;Storatåna" />
		<tag k="natural" v="cape" />
		<tag k="ssr:stedsnr" v="489346" />
	</node>
	<node id="-598242" lat="59.7084722255" lon="5.83085277777">
		<tag k="name" v="Hestaviknes" />
		<tag k="natural" v="cape" />
		<tag k="ssr:stedsnr" v="523647" />
	</node>
	<node id="-598241" lat="59.7111333379" lon="5.84043334067">
		<tag k="name" v="Skyttaneset" />
		<tag k="natural" v="cape" />
		<tag k="ssr:stedsnr" v="523643" />
	</node>
	<node id="-598240" lat="59.7222888893" lon="5.85457499758">
		<tag k="name" v="Molnessund" />
		<tag k="natural" v="strait" />
		<tag k="ssr:stedsnr" v="523621" />
	</node>
	<node id="-599263" lat="59.7367111144" lon="5.97631111384">
		<tag k="name" v="Laukhammar" />
>>>>>>> e1d4bc35ff8a6074a6f2e91616a996b547c36f15
		<tag k="natural" v="cape" />
		<tag k="ssr:stedsnr" v="913641" />
	</node>
<<<<<<< HEAD
	<node lat="59.73759166335889" lon="5.927611113976378" id="-42438">
		<tag k="name" v="Skåno" />
		<tag k="place" v="islet" />
		<tag k="ssr:stedsnr" v="913643" />
	</node>
	<node lat="59.767441670467385" lon="6.128211112620001" id="-42447">
		<tag k="name" v="Klungerstødnes" />
		<tag k="natural" v="cape" />
		<tag k="ssr:stedsnr" v="914374" />
	</node>
	<node lat="59.76121115728933" lon="6.1263941700934454" id="-42451">
		<tag k="alt_name" v="Blodteigvikjo" />
		<tag k="name" v="Blodteigvika" />
=======
	<node id="-598238" lat="59.6453055591" lon="5.86883610386">
		<tag k="name" v="Utstuholmen" />
		<tag k="place" v="islet" />
		<tag k="ssr:stedsnr" v="523608" />
	</node>
	<node id="-598749" lat="59.7359361106" lon="5.93157777265">
		<tag k="name" v="Skånevik" />
		<tag k="natural" v="bay" />
		<tag k="ssr:stedsnr" v="37697" />
	</node>
	<node id="-598748" lat="59.6635472252" lon="5.92718610276">
		<tag k="name" v="Sæbøvika" />
		<tag k="natural" v="bay" />
		<tag k="ssr:stedsnr" v="37549" />
	</node>
	<node id="-598746" lat="59.6557638908" lon="5.89979443683">
		<tag k="name" v="Plomapalvika" />
>>>>>>> e1d4bc35ff8a6074a6f2e91616a996b547c36f15
		<tag k="natural" v="bay" />
		<tag k="ssr:stedsnr" v="914397" />
	</node>
<<<<<<< HEAD
	<node lat="59.747830552350536" lon="5.938030550079323" id="-42456">
		<tag k="alt_name" v="Gjeitadalsneset" />
		<tag k="name" v="Geitadalsneset" />
		<tag k="natural" v="cape" />
		<tag k="ssr:stedsnr" v="947051" />
	</node>
	<node lat="59.64485277652286" lon="5.888874993522682" id="-42473">
		<tag k="fixme" v="consider seamark:type=rock or natural=shoal" />
		<tag k="name" v="Kuskjer" />
		<tag k="place" v="islet" />
		<tag k="ssr:stedsnr" v="948591" />
	</node>
	<node lat="59.66157500159666" lon="5.793111115016962" id="-42490">
		<tag k="name" v="Haganes" />
		<tag k="natural" v="cape" />
		<tag k="ssr:stedsnr" v="3440" />
	</node>
	<node lat="59.731369440535374" lon="5.877461112062164" id="-42496">
		<tag k="name" v="Skogavik" />
		<tag k="natural" v="bay" />
		<tag k="ssr:stedsnr" v="3617" />
	</node>
	<node lat="59.83964702966241" lon="6.255548414522959" id="-42500">
		<tag k="alt_name" v="Tyssavika;Tussvik" />
		<tag k="name" v="Tyssevika" />
		<tag k="natural" v="bay" />
		<tag k="ssr:stedsnr" v="4053" />
	</node>
	<node lat="59.77353055694801" lon="6.135061106269418" id="-42503">
		<tag k="alt_name" v="Øysteinsnes" />
		<tag k="name" v="Øysteinnes" />
=======
	<node id="-599254" lat="59.7335694463" lon="5.9300972211">
		<tag k="name" v="Peparen" />
		<tag k="place" v="islet" />
		<tag k="ssr:stedsnr" v="522674" />
	</node>
	<node id="-598738" lat="59.6434499959" lon="5.89668610663">
		<tag k="name" v="Sanes" />
>>>>>>> e1d4bc35ff8a6074a6f2e91616a996b547c36f15
		<tag k="natural" v="cape" />
		<tag k="ssr:stedsnr" v="4343" />
	</node>
<<<<<<< HEAD
	<node lat="59.77008055887397" lon="5.930219436365005" id="-42504">
		<tag k="name" v="Vannes" />
		<tag k="natural" v="cape" />
		<tag k="ssr:stedsnr" v="4357" />
	</node>
	<node lat="59.84287222429176" lon="6.28168332720381" id="-42516">
		<tag k="name" v="Djupavika" />
=======
	<node id="-597795" lat="59.7396111147" lon="5.93871389288">
		<tag k="name" v="Stabbastøneset" />
		<tag k="natural" v="cape" />
		<tag k="ssr:stedsnr" v="220323" />
	</node>
	<node id="-599248" lat="59.7715111132" lon="6.13372500536">
		<tag k="name" v="Grønavika" />
		<tag k="natural" v="bay" />
		<tag k="ssr:stedsnr" v="429335" />
	</node>
	<node id="-598168" lat="59.6510000043" lon="5.82247499884">
		<tag k="alt_name" v="Seldalsvik" />
		<tag k="name" v="Seldalsvika" />
		<tag k="natural" v="bay" />
		<tag k="ssr:stedsnr" v="670443" />
	</node>
	<node id="-598221" lat="59.8054507808" lon="6.16408733552">
		<tag k="alt_name" v="Kalvika" />
		<tag k="name" v="Kallvika" />
>>>>>>> e1d4bc35ff8a6074a6f2e91616a996b547c36f15
		<tag k="natural" v="bay" />
		<tag k="ssr:stedsnr" v="37212" />
	</node>
<<<<<<< HEAD
	<node lat="59.74410000396001" lon="6.105738881847438" id="-42521">
		<tag k="name" v="Kyrpingsvik" />
=======
	<node id="-598731" lat="59.7428500042" lon="6.10299444553">
		<tag k="name" v="Kollevik" />
>>>>>>> e1d4bc35ff8a6074a6f2e91616a996b547c36f15
		<tag k="natural" v="bay" />
		<tag k="ssr:stedsnr" v="37391" />
	</node>
<<<<<<< HEAD
	<node lat="59.735838891866216" lon="6.088294439478668" id="-42522">
=======
	<node id="-598730" lat="59.7358388919" lon="6.08829443948">
>>>>>>> e1d4bc35ff8a6074a6f2e91616a996b547c36f15
		<tag k="name" v="Skorsvik" />
		<tag k="natural" v="bay" />
		<tag k="ssr:stedsnr" v="37392" />
	</node>
<<<<<<< HEAD
	<node lat="59.74285000421231" lon="6.102994445531416" id="-42523">
		<tag k="name" v="Kollevik" />
=======
	<node id="-598729" lat="59.744100004" lon="6.10573888185">
		<tag k="name" v="Kyrpingsvik" />
>>>>>>> e1d4bc35ff8a6074a6f2e91616a996b547c36f15
		<tag k="natural" v="bay" />
		<tag k="ssr:stedsnr" v="37393" />
	</node>
	<node lat="59.851352776567545" lon="6.350149997120164" id="-42525">
		<tag k="fixme" v="consider seamark:type=rock or natural=shoal" />
		<tag k="name" v="Stikkskjer" />
		<tag k="place" v="islet" />
		<tag k="ssr:stedsnr" v="37219" />
	</node>
<<<<<<< HEAD
	<node lat="59.735002782230204" lon="5.989894445012274" id="-42527">
=======
	<node id="-598476" lat="59.687566667" lon="5.79181388459">
		<tag k="alt_name" v="Husavik" />
		<tag k="name" v="Husavika" />
		<tag k="natural" v="bay" />
		<tag k="ssr:stedsnr" v="913062" />
	</node>
	<node id="-598721" lat="59.7350027822" lon="5.98989444501">
>>>>>>> e1d4bc35ff8a6074a6f2e91616a996b547c36f15
		<tag k="name" v="Vikatangen" />
		<tag k="natural" v="cape" />
		<tag k="ssr:stedsnr" v="37244" />
	</node>
<<<<<<< HEAD
	<node lat="59.73593611057442" lon="5.93157777265451" id="-42535">
		<tag k="name" v="Skånevik" />
		<tag k="natural" v="bay" />
		<tag k="ssr:stedsnr" v="37697" />
	</node>
	<node lat="59.65576389082991" lon="5.899794436832098" id="-42541">
		<tag k="name" v="Plomapalvika" />
		<tag k="natural" v="bay" />
		<tag k="ssr:stedsnr" v="37541" />
	</node>
	<node lat="59.66354722523336" lon="5.927186102764225" id="-42543">
		<tag k="name" v="Sæbøvika" />
		<tag k="natural" v="bay" />
		<tag k="ssr:stedsnr" v="37549" />
	</node>
	<node lat="59.80242777470487" lon="6.205511103397175" id="-42549">
		<tag k="alt_name" v="Ytra Sandvik" />
		<tag k="name" v="Sandvika ytre" />
		<tag k="natural" v="bay" />
		<tag k="ssr:stedsnr" v="38189" />
	</node>
	<node lat="59.81699722339677" lon="6.224233324331999" id="-42553">
		<tag k="name" v="Fivelandsneset" />
=======
	<node id="-598205" lat="59.7531250017" lon="5.96244167099">
		<tag k="name" v="Bekkjarvika" />
		<tag k="natural" v="bay" />
		<tag k="ssr:stedsnr" v="671383" />
	</node>
	<node id="-597962" lat="59.7377027785" lon="6.01859444654">
		<tag k="name" v="Buanes" />
		<tag k="natural" v="cape" />
		<tag k="ssr:stedsnr" v="280331" />
	</node>
	<node id="-598200" lat="59.7121000042" lon="5.84243610517">
		<tag k="alt_name" v="Lauvviksund;Lauvviksundet" />
		<tag k="name" v="Lauvvikesundet" />
		<tag k="natural" v="strait" />
		<tag k="ssr:stedsnr" v="671090" />
	</node>
	<node id="-599223" lat="59.7373583333" lon="6.0896999977">
		<tag k="name" v="Skardsvika" />
		<tag k="natural" v="bay" />
		<tag k="ssr:stedsnr" v="428641" />
	</node>
	<node id="-599497" lat="59.8319805601" lon="6.22366389225">
		<tag k="name" v="Lyngnes" />
		<tag k="natural" v="cape" />
		<tag k="ssr:stedsnr" v="650018" />
	</node>
	<node id="-598133" lat="59.8348381202" lon="6.2285061296">
		<tag k="name" v="Sjøbuvika" />
		<tag k="natural" v="bay" />
		<tag k="ssr:stedsnr" v="489055" />
	</node>
	<node id="-598704" lat="59.7700805589" lon="5.93021943637">
		<tag k="name" v="Vannes" />
		<tag k="natural" v="cape" />
		<tag k="ssr:stedsnr" v="4357" />
	</node>
	<node id="-598703" lat="59.7735305569" lon="6.13506110627">
		<tag k="alt_name" v="Øysteinsnes" />
		<tag k="name" v="Øysteinnes" />
>>>>>>> e1d4bc35ff8a6074a6f2e91616a996b547c36f15
		<tag k="natural" v="cape" />
		<tag k="ssr:stedsnr" v="44022" />
	</node>
<<<<<<< HEAD
	<node lat="59.74363610695329" lon="5.995758331500268" id="-42562">
		<tag k="alt_name" v="Tungesviknes" />
		<tag k="name" v="Tungesvikneset" />
		<tag k="natural" v="cape" />
		<tag k="ssr:stedsnr" v="63644" />
	</node>
	<node lat="59.69724166666248" lon="5.813563897121725" id="-42563">
		<tag k="name" v="Brannvika" />
		<tag k="natural" v="bay" />
		<tag k="ssr:stedsnr" v="63050" />
	</node>
	<node lat="59.698838885569565" lon="5.813374997621669" id="-42564">
		<tag k="alt_name" v="Båtavik" />
		<tag k="name" v="Båtvika" />
=======
	<node id="-598386" lat="59.7810138918" lon="6.1399500024">
		<tag k="alt_name" v="Holanes" />
		<tag k="name" v="Holaneset" />
		<tag k="natural" v="cape" />
		<tag k="ssr:stedsnr" v="732346" />
	</node>
	<node id="-598698" lat="59.8396470297" lon="6.25554841452">
		<tag k="alt_name" v="Tyssavika;Tussvik" />
		<tag k="name" v="Tyssevika" />
		<tag k="natural" v="bay" />
		<tag k="ssr:stedsnr" v="4053" />
	</node>
	<node id="-599304" lat="59.8012638882" lon="6.20163889465">
		<tag k="name" v="Krossnes" />
		<tag k="natural" v="cape" />
		<tag k="ssr:stedsnr" v="549344" />
	</node>
	<node id="-599202" lat="59.7470194432" lon="6.11200277169">
		<tag k="alt_name" v="Sævareidvikjo" />
		<tag k="name" v="Sævareidsvik" />
>>>>>>> e1d4bc35ff8a6074a6f2e91616a996b547c36f15
		<tag k="natural" v="bay" />
		<tag k="ssr:stedsnr" v="63053" />
	</node>
<<<<<<< HEAD
	<node lat="59.75137499729497" lon="6.118391658807753" id="-42577">
		<tag k="alt_name" v="Helvikjo" />
		<tag k="name" v="Helvika" />
		<tag k="natural" v="bay" />
		<tag k="ssr:stedsnr" v="65391" />
	</node>
	<node lat="59.745022223458456" lon="6.041519451415523" id="-42583">
		<tag k="name" v="Holmane" />
		<tag k="place" v="islet" />
		<tag k="ssr:stedsnr" v="98233" />
	</node>
	<node lat="59.69076944199232" lon="5.801572216079598" id="-42597">
		<tag k="name" v="Skjellsvikeneset" />
=======
	<node id="-598688" lat="59.7313694405" lon="5.87746111206">
		<tag k="name" v="Skogavik" />
		<tag k="natural" v="bay" />
		<tag k="ssr:stedsnr" v="3617" />
	</node>
	<node id="-598896" lat="59.8597833352" lon="6.35347500462">
		<tag k="alt_name" v="Eljarviknes" />
		<tag k="name" v="Eljarvikneset" />
		<tag k="natural" v="cape" />
		<tag k="ssr:stedsnr" v="125019" />
	</node>
	<node id="-599198" lat="59.7367111091" lon="5.92213055632">
		<tag k="name" v="Skålnestangen" />
		<tag k="natural" v="cape" />
		<tag k="ssr:stedsnr" v="401797" />
	</node>
	<node id="-598683" lat="59.6615750016" lon="5.79311111502">
		<tag k="name" v="Haganes" />
		<tag k="natural" v="cape" />
		<tag k="ssr:stedsnr" v="3440" />
	</node>
	<node id="-598681" lat="59.6491388864" lon="5.79552223064">
		<tag k="alt_name" v="Bjørkjenesklubben;Klubben" />
		<tag k="name" v="Børkjenesklubben" />
>>>>>>> e1d4bc35ff8a6074a6f2e91616a996b547c36f15
		<tag k="natural" v="cape" />
		<tag k="ssr:stedsnr" v="98588" />
	</node>
<<<<<<< HEAD
	<node lat="59.73398888488491" lon="5.938516671163083" id="-42602">
		<tag k="name" v="Prestevågen" />
		<tag k="natural" v="bay" />
		<tag k="ssr:stedsnr" v="98239" />
	</node>
	<node lat="59.64553055242645" lon="5.884580557967107" id="-42611">
		<tag k="alt_name" v="Vedaholmen" />
		<tag k="name" v="Veaholmen" />
		<tag k="place" v="islet" />
		<tag k="ssr:stedsnr" v="98547" />
	</node>
	<node lat="59.655002776319165" lon="5.835952771532359" id="-42612">
		<tag k="name" v="Holmaseidvik" />
		<tag k="natural" v="bay" />
		<tag k="ssr:stedsnr" v="98555" />
	</node>
	<node lat="59.67568055621574" lon="5.916774993807691" id="-42615">
		<tag k="name" v="Basvik" />
		<tag k="natural" v="bay" />
		<tag k="ssr:stedsnr" v="98618" />
	</node>
	<node lat="59.73427222206391" lon="5.897013887147782" id="-42622">
		<tag k="name" v="Tømmervika" />
		<tag k="natural" v="bay" />
		<tag k="ssr:stedsnr" v="98700" />
	</node>
	<node lat="59.73812500055721" lon="5.914786108815869" id="-42623">
		<tag k="name" v="Hamn" />
		<tag k="natural" v="bay" />
		<tag k="ssr:stedsnr" v="98707" />
	</node>
	<node lat="59.73721110740698" lon="5.905275002592995" id="-42628">
		<tag k="name" v="Apalvik" />
=======
	<node id="-599704" lat="59.8380187898" lon="6.25023648573">
		<tag k="alt_name" v="Ørevika ytre" />
		<tag k="name" v="Ytra Orevika" />
		<tag k="natural" v="bay" />
		<tag k="ssr:stedsnr" v="970370" />
	</node>
	<node id="-598167" lat="59.8645972252" lon="6.36048889288">
		<tag k="name" v="Vindhammar" />
		<tag k="natural" v="cape" />
		<tag k="ssr:stedsnr" v="429018" />
	</node>
	<node id="-598678" lat="59.7077250004" lon="5.82938611206">
		<tag k="alt_name" v="Årvik" />
		<tag k="name" v="Årvika" />
		<tag k="natural" v="bay" />
		<tag k="ssr:stedsnr" v="3074" />
	</node>
	<node id="-599189" lat="59.7126055541" lon="5.86025554822">
		<tag k="name" v="Storevågen" />
		<tag k="natural" v="bay" />
		<tag k="ssr:stedsnr" v="401549" />
	</node>
	<node id="-599188" lat="59.7142694456" lon="5.8601500019">
		<tag k="fixme" v="consider seamark:type=rock or natural=shoal" />
		<tag k="name" v="Storaskjer" />
		<tag k="place" v="islet" />
		<tag k="ssr:stedsnr" v="401547" />
	</node>
	<node id="-599187" lat="59.7155277741" lon="5.85453610395">
		<tag k="name" v="Gjelmarvik" />
		<tag k="natural" v="bay" />
		<tag k="ssr:stedsnr" v="401544" />
	</node>
	<node id="-599698" lat="59.8106249959" lon="6.21771943736">
		<tag k="alt_name" v="Eintveitskjæret" />
		<tag k="fixme" v="consider seamark:type=rock or natural=shoal" />
		<tag k="name" v="Eintveitskjeret" />
		<tag k="place" v="islet" />
		<tag k="ssr:stedsnr" v="954030" />
	</node>
	<node id="-599697" lat="59.8358644226" lon="6.2412601268">
		<tag k="loc_name" v="Teiganes" />
		<tag k="name" v="Teiganeset" />
		<tag k="natural" v="cape" />
		<tag k="ssr:stedsnr" v="954027" />
	</node>
	<node id="-599696" lat="59.7108500021" lon="5.85645278244">
		<tag k="name" v="Brotaflua" />
		<tag k="place" v="locality" />
		<tag k="seamark:type" v="rock" />
		<tag k="ssr:stedsnr" v="953962" />
	</node>
	<node id="-598159" lat="59.6682555515" lon="5.78602500641">
		<tag k="name" v="Grønevik" />
>>>>>>> e1d4bc35ff8a6074a6f2e91616a996b547c36f15
		<tag k="natural" v="bay" />
		<tag k="ssr:stedsnr" v="98828" />
	</node>
<<<<<<< HEAD
	<node lat="59.82217641780877" lon="6.209377073061775" id="-42630">
		<tag k="loc_name" v="Bjellandsnes" />
		<tag k="name" v="Bjellandsneset" />
=======
	<node id="-598670" lat="59.84260278" lon="6.26971667197">
		<tag k="name" v="Bakkahamaren" />
>>>>>>> e1d4bc35ff8a6074a6f2e91616a996b547c36f15
		<tag k="natural" v="cape" />
		<tag k="ssr:stedsnr" v="104028" />
	</node>
<<<<<<< HEAD
	<node lat="59.6999361092281" lon="5.813800002098516" id="-42640">
		<tag k="alt_name" v="Håleneset" />
		<tag k="name" v="Holeneset" />
		<tag k="natural" v="cape" />
		<tag k="ssr:stedsnr" v="124048" />
	</node>
	<node lat="59.75088610725476" lon="5.947813883071821" id="-42660">
		<tag k="name" v="Naustvika" />
		<tag k="natural" v="bay" />
		<tag k="ssr:stedsnr" v="158063" />
	</node>
	<node lat="59.660705551695244" lon="5.858672217961031" id="-42663">
		<tag k="name" v="Salbuvik" />
=======
	<node id="-599691" lat="59.7501638902" lon="5.94346110362">
		<tag k="name" v="Giljeneset" />
		<tag k="natural" v="cape" />
		<tag k="ssr:stedsnr" v="854377" />
	</node>
	<node id="-599690" lat="59.7600027791" lon="5.93230277487">
		<tag k="alt_name" v="Laksavåg" />
		<tag k="name" v="Laksvåg" />
>>>>>>> e1d4bc35ff8a6074a6f2e91616a996b547c36f15
		<tag k="natural" v="bay" />
		<tag k="ssr:stedsnr" v="158591" />
	</node>
<<<<<<< HEAD
	<node lat="59.78803055170479" lon="6.1713611028702235" id="-42674">
		<tag k="name" v="Klubben" />
		<tag k="natural" v="cape" />
		<tag k="ssr:stedsnr" v="159172" />
	</node>
	<node lat="59.64839444426039" lon="5.913924996043245" id="-42686">
		<tag k="name" v="Eriksvik" />
		<tag k="natural" v="bay" />
		<tag k="ssr:stedsnr" v="159576" />
	</node>
	<node lat="59.6971583295591" lon="5.8128638878295575" id="-42687">
		<tag k="name" v="Brandvik" />
		<tag k="natural" v="bay" />
		<tag k="ssr:stedsnr" v="159639" />
	</node>
	<node lat="59.69536111499966" lon="5.811119446087631" id="-42688">
		<tag k="alt_name" v="Djupevik" />
		<tag k="name" v="Djupavik" />
		<tag k="natural" v="bay" />
		<tag k="ssr:stedsnr" v="159640" />
	</node>
	<node lat="59.73928055292181" lon="5.915177777485388" id="-42695">
		<tag k="name" v="Hamnaklubben" />
=======
	<node id="-598295" lat="59.7090722218" lon="5.85431944036">
		<tag k="name" v="Akslandsvågen" />
		<tag k="natural" v="bay" />
		<tag k="ssr:stedsnr" v="705618" />
	</node>
	<node id="-598380" lat="59.809199286" lon="6.17401941651">
		<tag k="name" v="Kvanndalsvika" />
		<tag k="natural" v="bay" />
		<tag k="ssr:stedsnr" v="732211" />
	</node>
	<node id="-599684" lat="59.8727777763" lon="6.37606667412">
		<tag k="alt_name" v="Havernes;Havurnes" />
		<tag k="name" v="Haverneset" />
		<tag k="natural" v="cape" />
		<tag k="ssr:stedsnr" v="854018" />
	</node>
	<node id="-598144" lat="59.7585999955" lon="5.95332499231">
		<tag k="alt_name" v="Kvitahella, yt;Kvithedla ytre" />
		<tag k="name" v="Ytre Kvitahella" />
		<tag k="natural" v="cape" />
		<tag k="ssr:stedsnr" v="489395" />
	</node>
	<node id="-598143" lat="59.7566839586" lon="5.93492178666">
		<tag k="alt_name" v="Flatanes" />
		<tag k="name" v="Flotanes" />
>>>>>>> e1d4bc35ff8a6074a6f2e91616a996b547c36f15
		<tag k="natural" v="cape" />
		<tag k="ssr:stedsnr" v="159856" />
	</node>
<<<<<<< HEAD
	<node lat="59.645591662964385" lon="5.891072223563568" id="-42699">
		<tag k="name" v="Melandsholmen" />
=======
	<node id="-598654" lat="59.7452750026" lon="5.95854722911">
		<tag k="name" v="Nesvåghomane" />
>>>>>>> e1d4bc35ff8a6074a6f2e91616a996b547c36f15
		<tag k="place" v="islet" />
		<tag k="ssr:stedsnr" v="159841" />
	</node>
<<<<<<< HEAD
	<node lat="59.73525277341393" lon="5.89903333349361" id="-42700">
		<tag k="name" v="Storholmen" />
=======
	<node id="-599650" lat="59.8323833362" lon="6.27944166678">
		<tag k="name" v="Sølbergvik" />
		<tag k="natural" v="bay" />
		<tag k="ssr:stedsnr" v="833017" />
	</node>
	<node id="-599164" lat="59.7391222181" lon="5.94075278282">
		<tag k="name" v="Kaninholmen" />
>>>>>>> e1d4bc35ff8a6074a6f2e91616a996b547c36f15
		<tag k="place" v="islet" />
		<tag k="ssr:stedsnr" v="165940" />
	</node>
	<node lat="59.71597499626472" lon="5.851347224448287" id="-42701">
		<tag k="name" v="Tusso" />
		<tag k="place" v="locality" />
		<tag k="seamark:type" v="rock" />
		<tag k="ssr:stedsnr" v="165966" />
	</node>
	<node lat="59.67606415475467" lon="5.786859085766281" id="-42706">
		<tag k="alt_name" v="Tømbervik;Timbervika" />
		<tag k="name" v="Tømbervika" />
		<tag k="natural" v="bay" />
		<tag k="ssr:stedsnr" v="185020" />
	</node>
	<node lat="59.68877500175556" lon="5.79411666576043" id="-42708">
		<tag k="alt_name" v="Notanes" />
		<tag k="name" v="Notaneset" />
		<tag k="natural" v="cape" />
		<tag k="ssr:stedsnr" v="185058" />
	</node>
	<node lat="59.84027499805" lon="6.260674995111006" id="-42719">
		<tag k="alt_name" v="Piksadrogsvika" />
		<tag k="name" v="Piksadragsvika" />
		<tag k="natural" v="bay" />
		<tag k="ssr:stedsnr" v="186052" />
	</node>
<<<<<<< HEAD
	<node lat="59.76279214935228" lon="5.939101612690503" id="-42722">
		<tag k="name" v="Midtvika" />
		<tag k="natural" v="bay" />
		<tag k="ssr:stedsnr" v="186386" />
	</node>
	<node lat="59.735138884945385" lon="5.893063893539077" id="-42731">
		<tag k="name" v="Vikanes" />
		<tag k="natural" v="cape" />
		<tag k="ssr:stedsnr" v="219708" />
	</node>
	<node lat="59.74094722666742" lon="5.9346583321030755" id="-42732">
		<tag k="name" v="Håleholmen" />
=======
	<node id="-599161" lat="59.8210834286" lon="6.22986118719">
		<tag k="name" v="Hamnaholmen" />
>>>>>>> e1d4bc35ff8a6074a6f2e91616a996b547c36f15
		<tag k="place" v="islet" />
		<tag k="ssr:stedsnr" v="219711" />
	</node>
<<<<<<< HEAD
	<node lat="59.72699722505854" lon="5.85866389446073" id="-42733">
		<tag k="name" v="Mortveitvik" />
		<tag k="natural" v="bay" />
		<tag k="ssr:stedsnr" v="219715" />
	</node>
	<node lat="59.65305833558514" lon="5.834602777265665" id="-42742">
		<tag k="name" v="Litleholmen" />
		<tag k="place" v="islet" />
		<tag k="ssr:stedsnr" v="219539" />
	</node>
	<node lat="59.64500832900977" lon="5.865641671777362" id="-42743">
		<tag k="name" v="Utstuvika" />
		<tag k="natural" v="bay" />
		<tag k="ssr:stedsnr" v="219541" />
	</node>
	<node lat="59.64716944693487" lon="5.912622225290892" id="-42744">
		<tag k="name" v="Sponanes" />
=======
	<node id="-599065" lat="59.7366305546" lon="5.9195555566">
		<tag k="name" v="Hagaviktangen" />
		<tag k="natural" v="cape" />
		<tag k="ssr:stedsnr" v="340682" />
	</node>
	<node id="-599157" lat="59.7619638887" lon="5.93041666576">
		<tag k="name" v="Bjødnaurnes" />
>>>>>>> e1d4bc35ff8a6074a6f2e91616a996b547c36f15
		<tag k="natural" v="cape" />
		<tag k="ssr:stedsnr" v="219556" />
	</node>
<<<<<<< HEAD
	<node lat="59.72269444660983" lon="5.843966658255147" id="-42745">
		<tag k="name" v="Djupavågen" />
=======
	<node id="-599668" lat="59.6703888928" lon="5.7876305538">
		<tag k="alt_name" v="Norevågen;Nordra Nervikvåg" />
		<tag k="name" v="Nordrevågen" />
>>>>>>> e1d4bc35ff8a6074a6f2e91616a996b547c36f15
		<tag k="natural" v="bay" />
		<tag k="ssr:stedsnr" v="219561" />
	</node>
<<<<<<< HEAD
	<node lat="59.747872224083025" lon="6.1120277705227135" id="-42756">
		<tag k="name" v="Tedneholmen" />
		<tag k="place" v="islet" />
		<tag k="ssr:stedsnr" v="220045" />
	</node>
	<node lat="59.75242499935101" lon="6.118044440889704" id="-42778">
		<tag k="name" v="Lyngnes" />
=======
	<node id="-598128" lat="59.8566138853" lon="6.34281389589">
		<tag k="alt_name" v="Lyngnes" />
		<tag k="name" v="Lyngneset" />
>>>>>>> e1d4bc35ff8a6074a6f2e91616a996b547c36f15
		<tag k="natural" v="cape" />
		<tag k="ssr:stedsnr" v="280033" />
	</node>
<<<<<<< HEAD
	<node lat="59.73770277846474" lon="6.018594446541182" id="-42787">
		<tag k="name" v="Buanes" />
		<tag k="natural" v="cape" />
		<tag k="ssr:stedsnr" v="280331" />
	</node>
	<node lat="59.644772221466276" lon="5.87773611607194" id="-42789">
		<tag k="name" v="Grønevik" />
		<tag k="natural" v="bay" />
		<tag k="ssr:stedsnr" v="280557" />
	</node>
	<node lat="59.73293611329499" lon="5.884536119415298" id="-42806">
		<tag k="alt_name" v="Tenndalsvik" />
		<tag k="name" v="Ytre Tendalsvik" />
		<tag k="natural" v="bay" />
		<tag k="ssr:stedsnr" v="280761" />
	</node>
	<node lat="59.679830553416366" lon="5.78424444541782" id="-42808">
		<tag k="alt_name" v="Skottevikneset" />
		<tag k="name" v="Skotavikneset" />
=======
	<node id="-599660" lat="59.7350963559" lon="5.89887448459">
		<tag k="alt_name" v="Leiknesholmane" />
		<tag k="name" v="Leknesholmane" />
		<tag k="place" v="islet" />
		<tag k="ssr:stedsnr" v="852620" />
	</node>
	<node id="-599145" lat="59.8458944466" lon="6.33606389079">
		<tag k="name" v="Langfossnes" />
>>>>>>> e1d4bc35ff8a6074a6f2e91616a996b547c36f15
		<tag k="natural" v="cape" />
		<tag k="ssr:stedsnr" v="286951" />
	</node>
<<<<<<< HEAD
	<node lat="59.74460833224896" lon="6.043619450718262" id="-42809">
		<tag k="name" v="Susodden" />
		<tag k="natural" v="cape" />
		<tag k="ssr:stedsnr" v="287669" />
	</node>
	<node lat="59.748952781204245" lon="5.964605563630829" id="-42811">
		<tag k="name" v="Eikeneset" />
		<tag k="natural" v="cape" />
		<tag k="ssr:stedsnr" v="287908" />
	</node>
	<node lat="59.66563714530124" lon="5.786349672381568" id="-42815">
		<tag k="fixme" v="multiple name tags, choose one and add the other to alt_name" />
		<tag k="name" v="Nervikklubben;Klubben" />
		<tag k="natural" v="cape" />
		<tag k="ssr:stedsnr" v="306454" />
	</node>
	<node lat="59.64407777924045" lon="5.888550007636267" id="-42817">
		<tag k="name" v="Kråkenes" />
		<tag k="natural" v="cape" />
		<tag k="ssr:stedsnr" v="306485" />
	</node>
	<node lat="59.65797499765004" lon="5.905799999349932" id="-42827">
		<tag k="alt_name" v="Honsvika" />
		<tag k="name" v="Hundsvika" />
=======
	<node id="-598631" lat="59.6793916665" lon="5.78208055648">
		<tag k="alt_name" v="Skotasker" />
		<tag k="fixme" v="consider seamark:type=rock or natural=shoal" />
		<tag k="name" v="Skotaskjer" />
		<tag k="place" v="islet" />
		<tag k="ssr:stedsnr" v="887478" />
	</node>
	<node id="-599140" lat="59.658349997" lon="5.84717778012">
		<tag k="name" v="Aksdalsneset" />
		<tag k="natural" v="cape" />
		<tag k="ssr:stedsnr" v="367730" />
	</node>
	<node id="-599139" lat="59.6571694445" lon="5.9006333303">
		<tag k="alt_name" v="Tåno" />
		<tag k="fixme" v="multiple name tags, choose one and add the other to alt_name" />
		<tag k="name" v="Hundsviktåa;Tåna" />
		<tag k="natural" v="cape" />
		<tag k="ssr:stedsnr" v="367727" />
	</node>
	<node id="-598626" lat="59.6469111072" lon="5.89760278276">
		<tag k="name" v="Lambanes" />
		<tag k="natural" v="cape" />
		<tag k="ssr:stedsnr" v="887568" />
	</node>
	<node id="-599649" lat="59.6894694486" lon="5.80061666047">
		<tag k="name" v="Kviesanden" />
>>>>>>> e1d4bc35ff8a6074a6f2e91616a996b547c36f15
		<tag k="natural" v="bay" />
		<tag k="ssr:stedsnr" v="306714" />
	</node>
<<<<<<< HEAD
	<node lat="59.7146500036999" lon="5.842266659121351" id="-42831">
		<tag k="alt_name" v="Steinavik" />
		<tag k="name" v="Steinavika" />
=======
	<node id="-598111" lat="59.6661999968" lon="5.7913749954">
		<tag k="alt_name" v="Sørevågen;Søra Nervikvåg" />
		<tag k="name" v="Nervikvågen" />
>>>>>>> e1d4bc35ff8a6074a6f2e91616a996b547c36f15
		<tag k="natural" v="bay" />
		<tag k="ssr:stedsnr" v="307087" />
	</node>
<<<<<<< HEAD
	<node lat="59.657383331545674" lon="5.790136119980549" id="-42840">
		<tag k="alt_name" v="Skaraneset" />
		<tag k="fixme" v="multiple name tags, choose one and add the other to alt_name" />
		<tag k="name" v="Skardaneset;Ørnaskorneset" />
		<tag k="natural" v="cape" />
		<tag k="ssr:stedsnr" v="307493" />
	</node>
	<node lat="59.737483331643084" lon="5.973575003772383" id="-42847">
		<tag k="name" v="Øspenes" />
=======
	<node id="-598110" lat="59.6924083347" lon="5.80539444755">
		<tag k="alt_name" v="Øreviknes" />
		<tag k="name" v="Ørevikneset" />
		<tag k="natural" v="cape" />
		<tag k="ssr:stedsnr" v="488064" />
	</node>
	<node id="-598109" lat="59.7366333369" lon="5.98530278244">
		<tag k="alt_name" v="Ytra Tungesvikbukt" />
		<tag k="name" v="Ytra Tungesvik" />
		<tag k="natural" v="bay" />
		<tag k="ssr:stedsnr" v="347921" />
	</node>
	<node id="-598619" lat="59.7419805546" lon="5.9879027696">
		<tag k="name" v="Meterstangen" />
>>>>>>> e1d4bc35ff8a6074a6f2e91616a996b547c36f15
		<tag k="natural" v="cape" />
		<tag k="ssr:stedsnr" v="341272" />
	</node>
<<<<<<< HEAD
	<node lat="59.736630554551404" lon="5.919555556598133" id="-42861">
		<tag k="name" v="Hagaviktangen" />
		<tag k="natural" v="cape" />
		<tag k="ssr:stedsnr" v="340682" />
	</node>
	<node lat="59.73725555440578" lon="5.938347230252245" id="-42865">
		<tag k="name" v="Revaholmen" />
		<tag k="place" v="islet" />
		<tag k="ssr:stedsnr" v="341298" />
	</node>
	<node lat="59.7386888867753" lon="6.00742778647396" id="-42871">
		<tag k="name" v="Hallestranda" />
		<tag k="natural" v="beach" />
		<tag k="ssr:stedsnr" v="341384" />
	</node>
	<node lat="59.66803610749439" lon="5.906605561476749" id="-42881">
		<tag k="name" v="Etnepollen" />
=======
	<node id="-598164" lat="59.6646777745" lon="5.91565834142">
		<tag k="name" v="Røynesnes" />
		<tag k="natural" v="cape" />
		<tag k="ssr:stedsnr" v="428729" />
	</node>
	<node id="-599636" lat="59.7390861103" lon="5.9881861051">
		<tag k="name" v="Holmen" />
		<tag k="place" v="islet" />
		<tag k="ssr:stedsnr" v="827304" />
	</node>
	<node id="-598030" lat="59.6447722215" lon="5.87773611607">
		<tag k="name" v="Grønevik" />
		<tag k="natural" v="bay" />
		<tag k="ssr:stedsnr" v="280557" />
	</node>
	<node id="-599122" lat="59.7456527778" lon="5.95963055626">
		<tag k="alt_name" v="Nesvåg" />
		<tag k="name" v="Nesvågen" />
		<tag k="natural" v="bay" />
		<tag k="ssr:stedsnr" v="367614" />
	</node>
	<node id="-598627" lat="59.7195472223" lon="5.83704443988">
		<tag k="fixme" v="consider seamark:type=rock or natural=shoal" />
		<tag k="name" v="Arhaugskjer" />
		<tag k="place" v="islet" />
		<tag k="ssr:stedsnr" v="887570" />
	</node>
	<node id="-599632" lat="59.8368714562" lon="6.24569571593">
		<tag k="name" v="Porsvika" />
		<tag k="natural" v="bay" />
		<tag k="ssr:stedsnr" v="827274" />
	</node>
	<node id="-599630" lat="59.8522833354" lon="6.35296666909">
		<tag k="name" v="Pineskår" />
>>>>>>> e1d4bc35ff8a6074a6f2e91616a996b547c36f15
		<tag k="natural" v="bay" />
		<tag k="ssr:stedsnr" v="347993" />
	</node>
<<<<<<< HEAD
	<node lat="59.65232500121628" lon="5.878463896357856" id="-42882">
		<tag k="name" v="Vedagrunnen" />
		<tag k="natural" v="shoal" />
		<tag k="place" v="locality" />
		<tag k="ssr:stedsnr" v="347998" />
	</node>
	<node lat="59.68102500014059" lon="5.783163886425181" id="-42886">
		<tag k="alt_name" v="Skotavik" />
		<tag k="name" v="Skotavika" />
		<tag k="natural" v="bay" />
		<tag k="ssr:stedsnr" v="367011" />
	</node>
	<node lat="59.68368055759618" lon="5.7829083342607905" id="-42887">
		<tag k="alt_name" v="Kjølbergsnes" />
		<tag k="name" v="Kjølbergneset" />
		<tag k="natural" v="cape" />
		<tag k="ssr:stedsnr" v="367012" />
	</node>
	<node lat="59.720483332165735" lon="5.841074991471507" id="-42889">
=======
	<node id="-599115" lat="59.7878777793" lon="6.16725278262">
		<tag k="alt_name" v="Ottaneset" />
		<tag k="name" v="Otraneset" />
		<tag k="natural" v="cape" />
		<tag k="ssr:stedsnr" v="367285" />
	</node>
	<node id="-598602" lat="59.7097166638" lon="5.837283329">
		<tag k="name" v="Lauvvik" />
		<tag k="natural" v="bay" />
		<tag k="ssr:stedsnr" v="948636" />
	</node>
	<node id="-599374" lat="59.7397888853" lon="5.96868055286">
		<tag k="alt_name" v="Gudleburneset" />
		<tag k="name" v="Gudlebergnes" />
		<tag k="natural" v="cape" />
		<tag k="ssr:stedsnr" v="583224" />
	</node>
	<node id="-598088" lat="59.7489527812" lon="5.96460556363">
		<tag k="name" v="Eikeneset" />
		<tag k="natural" v="cape" />
		<tag k="ssr:stedsnr" v="287908" />
	</node>
	<node id="-599623" lat="59.8363759432" lon="6.23374300427">
		<tag k="loc_name" v="Djuvslandet" />
		<tag k="name" v="Djuveland" />
		<tag k="natural" v="beach" />
		<tag k="place" v="locality" />
		<tag k="ssr:stedsnr" v="827120" />
	</node>
	<node id="-599110" lat="59.7204833322" lon="5.84107499147">
>>>>>>> e1d4bc35ff8a6074a6f2e91616a996b547c36f15
		<tag k="alt_name" v="Makrellevågen" />
		<tag k="name" v="Makrellvågen" />
		<tag k="natural" v="bay" />
		<tag k="ssr:stedsnr" v="367068" />
	</node>
<<<<<<< HEAD
	<node lat="59.78787777926091" lon="6.167252782623083" id="-42892">
		<tag k="alt_name" v="Ottaneset" />
		<tag k="name" v="Otraneset" />
		<tag k="natural" v="cape" />
		<tag k="ssr:stedsnr" v="367285" />
	</node>
	<node lat="59.65834999698152" lon="5.8471777801171045" id="-42911">
		<tag k="name" v="Aksdalsneset" />
=======
	<node id="-598082" lat="59.7332027789" lon="5.90321944038">
		<tag k="name" v="Møllesvik" />
		<tag k="natural" v="bay" />
		<tag k="ssr:stedsnr" v="462739" />
	</node>
	<node id="-599105" lat="59.6810250001" lon="5.78316388643">
		<tag k="alt_name" v="Skotavik" />
		<tag k="name" v="Skotavika" />
		<tag k="natural" v="bay" />
		<tag k="ssr:stedsnr" v="367011" />
	</node>
	<node id="-599616" lat="59.7295111138" lon="5.86395276994">
		<tag k="name" v="Klubben" />
>>>>>>> e1d4bc35ff8a6074a6f2e91616a996b547c36f15
		<tag k="natural" v="cape" />
		<tag k="ssr:stedsnr" v="367730" />
	</node>
<<<<<<< HEAD
	<node lat="59.761963888731806" lon="5.930416665757924" id="-42921">
		<tag k="name" v="Bjødnaurnes" />
		<tag k="natural" v="cape" />
		<tag k="ssr:stedsnr" v="401060" />
	</node>
	<node lat="59.73912221805967" lon="5.940752782818521" id="-42925">
		<tag k="name" v="Kaninholmen" />
		<tag k="place" v="islet" />
		<tag k="ssr:stedsnr" v="401252" />
	</node>
	<node lat="59.64636110851445" lon="5.907830556283253" id="-42931">
		<tag k="name" v="Hidlesnes" />
=======
	<node id="-599614" lat="59.734866665" lon="5.88725277619">
		<tag k="name" v="Skarpanes" />
		<tag k="natural" v="cape" />
		<tag k="ssr:stedsnr" v="826691" />
	</node>
	<node id="-599613" lat="59.7450555515" lon="5.93186389413">
		<tag k="name" v="Grønavik" />
		<tag k="natural" v="bay" />
		<tag k="ssr:stedsnr" v="826687" />
	</node>
	<node id="-599100" lat="59.6680361075" lon="5.90660556148">
		<tag k="name" v="Etnepollen" />
		<tag k="natural" v="bay" />
		<tag k="ssr:stedsnr" v="347993" />
	</node>
	<node id="-597770" lat="59.6886444439" lon="5.79540277373">
		<tag k="name" v="Notaholo" />
		<tag k="place" v="locality" />
		<tag k="ssr:stedsnr" v="219586" />
	</node>
	<node id="-598521" lat="59.6917277783" lon="5.80766944571">
		<tag k="name" v="Skånevikstranda" />
		<tag k="natural" v="beach" />
		<tag k="place" v="locality" />
		<tag k="ssr:stedsnr" v="914097" />
	</node>
	<node id="-598071" lat="59.6502666705" lon="5.82163611139">
		<tag k="name" v="Seldalsnes" />
>>>>>>> e1d4bc35ff8a6074a6f2e91616a996b547c36f15
		<tag k="natural" v="cape" />
		<tag k="ssr:stedsnr" v="401538" />
	</node>
<<<<<<< HEAD
	<node lat="59.715527774145556" lon="5.8545361039467485" id="-42932">
		<tag k="name" v="Gjelmarvik" />
		<tag k="natural" v="bay" />
		<tag k="ssr:stedsnr" v="401544" />
	</node>
	<node lat="59.714269445634756" lon="5.860150001901705" id="-42933">
		<tag k="fixme" v="consider seamark:type=rock or natural=shoal" />
		<tag k="name" v="Storaskjer" />
		<tag k="place" v="islet" />
		<tag k="ssr:stedsnr" v="401547" />
	</node>
	<node lat="59.71260555408257" lon="5.860255548222894" id="-42934">
		<tag k="name" v="Storevågen" />
		<tag k="natural" v="bay" />
		<tag k="ssr:stedsnr" v="401549" />
	</node>
	<node lat="59.78979722273607" lon="6.1793444482114" id="-42957">
		<tag k="name" v="Rafdalsneset" />
		<tag k="natural" v="cape" />
		<tag k="ssr:stedsnr" v="408027" />
	</node>
	<node lat="59.66825555148004" lon="5.786025006411892" id="-42960">
		<tag k="name" v="Grønevik" />
=======
	<node id="-598070" lat="59.6562916666" lon="5.78770278554">
		<tag k="name" v="Slåttevikneset" />
		<tag k="natural" v="cape" />
		<tag k="ssr:stedsnr" v="462573" />
	</node>
	<node id="-598594" lat="59.6447777791" lon="5.87474445049">
		<tag k="name" v="Årvik" />
		<tag k="natural" v="bay" />
		<tag k="ssr:stedsnr" v="948602" />
	</node>
	<node id="-598068" lat="59.7156361073" lon="5.84690832511">
		<tag k="name" v="Øyavikja" />
>>>>>>> e1d4bc35ff8a6074a6f2e91616a996b547c36f15
		<tag k="natural" v="bay" />
		<tag k="ssr:stedsnr" v="428025" />
	</node>
<<<<<<< HEAD
	<node lat="59.737358333272624" lon="6.08969999770411" id="-42964">
		<tag k="name" v="Skardsvika" />
=======
	<node id="-598067" lat="59.7231138918" lon="5.85687776871">
		<tag k="name" v="Djupavik" />
>>>>>>> e1d4bc35ff8a6074a6f2e91616a996b547c36f15
		<tag k="natural" v="bay" />
		<tag k="ssr:stedsnr" v="428641" />
	</node>
<<<<<<< HEAD
	<node lat="59.6646777744809" lon="5.9156583414189585" id="-42966">
		<tag k="name" v="Røynesnes" />
		<tag k="natural" v="cape" />
		<tag k="ssr:stedsnr" v="428729" />
	</node>
	<node lat="59.86459722515355" lon="6.360488892877824" id="-42973">
		<tag k="name" v="Vindhammar" />
		<tag k="natural" v="cape" />
		<tag k="ssr:stedsnr" v="429018" />
	</node>
	<node lat="59.771511113231504" lon="6.133725005359988" id="-42981">
		<tag k="name" v="Grønavika" />
=======
	<node id="-598578" lat="59.7319166657" lon="5.87800555642">
		<tag k="name" v="Jektehavnsneset" />
		<tag k="natural" v="cape" />
		<tag k="ssr:stedsnr" v="947675" />
	</node>
	<node id="-598576" lat="59.7478305524" lon="5.93803055008">
		<tag k="alt_name" v="Gjeitadalsneset" />
		<tag k="name" v="Geitadalsneset" />
		<tag k="natural" v="cape" />
		<tag k="ssr:stedsnr" v="947051" />
	</node>
	<node id="-599087" lat="59.7386888868" lon="6.00742778647">
		<tag k="name" v="Hallestranda" />
		<tag k="natural" v="beach" />
		<tag k="place" v="locality" />
		<tag k="ssr:stedsnr" v="341384" />
	</node>
	<node id="-598059" lat="59.7274361073" lon="6.15389999609">
		<tag k="name" v="Vinjavågen" />
>>>>>>> e1d4bc35ff8a6074a6f2e91616a996b547c36f15
		<tag k="natural" v="bay" />
		<tag k="ssr:stedsnr" v="429335" />
	</node>
<<<<<<< HEAD
	<node lat="59.733569446256745" lon="5.930097221096137" id="-42993">
		<tag k="name" v="Peparen" />
=======
	<node id="-599080" lat="59.7372555544" lon="5.93834723025">
		<tag k="name" v="Revaholmen" />
>>>>>>> e1d4bc35ff8a6074a6f2e91616a996b547c36f15
		<tag k="place" v="islet" />
		<tag k="ssr:stedsnr" v="522674" />
	</node>
<<<<<<< HEAD
	<node lat="59.736711114394254" lon="5.976311113839532" id="-43004">
		<tag k="name" v="Laukhammar" />
=======
	<node id="-599078" lat="59.7374833316" lon="5.97357500377">
		<tag k="name" v="Øspenes" />
>>>>>>> e1d4bc35ff8a6074a6f2e91616a996b547c36f15
		<tag k="natural" v="cape" />
		<tag k="ssr:stedsnr" v="523267" />
	</node>
<<<<<<< HEAD
	<node lat="59.71113333787983" lon="5.840433340666989" id="-43022">
		<tag k="name" v="Skyttaneset" />
=======
	<node id="-598565" lat="59.770283332" lon="5.93576111441">
		<tag k="alt_name" v="Straumnes" />
		<tag k="name" v="Straumneset" />
>>>>>>> e1d4bc35ff8a6074a6f2e91616a996b547c36f15
		<tag k="natural" v="cape" />
		<tag k="ssr:stedsnr" v="523643" />
	</node>
<<<<<<< HEAD
	<node lat="59.70847222550589" lon="5.83085277777233" id="-43023">
		<tag k="name" v="Hestaviknes" />
		<tag k="natural" v="cape" />
		<tag k="ssr:stedsnr" v="523647" />
	</node>
	<node lat="59.71413333632331" lon="5.862713892785184" id="-43024">
		<tag k="name" v="Norevågen" />
		<tag k="natural" v="bay" />
		<tag k="ssr:stedsnr" v="523653" />
	</node>
	<node lat="59.801263888167846" lon="6.201638894654947" id="-43041">
		<tag k="name" v="Krossnes" />
		<tag k="natural" v="cape" />
		<tag k="ssr:stedsnr" v="549344" />
	</node>
	<node lat="59.7579093176744" lon="5.956524731756245" id="-43066">
		<tag k="alt_name" v="Kvitahella, in;Kvithello;Kvithedla indre" />
		<tag k="name" v="Indre Kvitahella" />
=======
	<node id="-598022" lat="59.7449750039" lon="5.93441111282">
		<tag k="alt_name" v="Trønskenes" />
		<tag k="name" v="Trønskeneset" />
		<tag k="natural" v="cape" />
		<tag k="ssr:stedsnr" v="245625" />
	</node>
	<node id="-598555" lat="59.8699555528" lon="6.36689166546">
		<tag k="alt_name" v="Ømbesnes" />
		<tag k="name" v="Ømbesneset" />
>>>>>>> e1d4bc35ff8a6074a6f2e91616a996b547c36f15
		<tag k="natural" v="cape" />
		<tag k="ssr:stedsnr" v="550377" />
	</node>
<<<<<<< HEAD
	<node lat="59.76678888670416" lon="5.939972221217682" id="-43068">
		<tag k="name" v="Fureneset" />
		<tag k="natural" v="cape" />
		<tag k="ssr:stedsnr" v="583065" />
	</node>
	<node lat="59.762377778201845" lon="5.939958334336424" id="-43069">
		<tag k="name" v="Torskavika" />
		<tag k="natural" v="bay" />
		<tag k="ssr:stedsnr" v="583066" />
	</node>
	<node lat="59.73978888530961" lon="5.968680552863542" id="-43072">
		<tag k="alt_name" v="Gudleburneset" />
		<tag k="name" v="Gudlebergnes" />
		<tag k="natural" v="cape" />
		<tag k="ssr:stedsnr" v="583224" />
	</node>
	<node lat="59.73748889266265" lon="5.990894448617586" id="-43073">
		<tag k="name" v="Skjeparviknestet" />
		<tag k="natural" v="cape" />
		<tag k="ssr:stedsnr" v="583226" />
	</node>
	<node lat="59.67839166533766" lon="5.783166666855618" id="-43087">
		<tag k="name" v="Kjølbergsvik" />
		<tag k="natural" v="bay" />
		<tag k="ssr:stedsnr" v="583466" />
	</node>
	<node lat="59.64827777365982" lon="5.899113886380406" id="-43093">
		<tag k="name" v="Naustvik" />
		<tag k="natural" v="bay" />
		<tag k="ssr:stedsnr" v="583535" />
	</node>
	<node lat="59.75152500022891" lon="5.949783338661768" id="-43118">
		<tag k="alt_name" v="Breivika" />
		<tag k="name" v="Breidvika" />
		<tag k="natural" v="bay" />
		<tag k="ssr:stedsnr" v="610416" />
	</node>
	<node lat="59.83819481795013" lon="6.251243100163764" id="-43120">
		<tag k="name" v="Orevika" />
		<tag k="natural" v="bay" />
		<tag k="ssr:stedsnr" v="611052" />
	</node>
	<node lat="59.72819722006644" lon="5.859399994059576" id="-43124">
		<tag k="fixme" v="consider seamark:type=rock or natural=shoal" />
		<tag k="name" v="Mortveitskjeret" />
		<tag k="place" v="islet" />
		<tag k="ssr:stedsnr" v="644846" />
	</node>
	<node lat="59.763759544473785" lon="5.938786559641267" id="-43126">
		<tag k="name" v="Tråsavika" />
=======
	<node id="-598096" lat="59.6656371453" lon="5.78634967238">
		<tag k="fixme" v="multiple name tags, choose one and add the other to alt_name" />
		<tag k="name" v="Klubben;Nervikklubben" />
		<tag k="natural" v="cape" />
		<tag k="ssr:stedsnr" v="306454" />
	</node>
	<node id="-599062" lat="59.7171916642" lon="5.86532500205">
		<tag k="name" v="Selvik" />
		<tag k="natural" v="bay" />
		<tag k="ssr:stedsnr" v="340551" />
	</node>
	<node id="-599060" lat="59.6679027811" lon="5.93018889412">
		<tag k="name" v="Lusholmen" />
		<tag k="place" v="islet" />
		<tag k="ssr:stedsnr" v="340522" />
	</node>
	<node id="-598547" lat="59.7614249981" lon="5.9444083329">
		<tag k="name" v="Kråketangen" />
		<tag k="natural" v="cape" />
		<tag k="ssr:stedsnr" v="792356" />
	</node>
	<node id="-599058" lat="59.6710055552" lon="5.93071943921">
		<tag k="name" v="Tongane" />
		<tag k="natural" v="cape" />
		<tag k="ssr:stedsnr" v="340520" />
	</node>
	<node id="-599569" lat="59.645155556" lon="5.90339444955">
		<tag k="fixme" v="multiple name tags, choose one and add the other to alt_name" />
		<tag k="name" v="Osvåg;Vågen" />
>>>>>>> e1d4bc35ff8a6074a6f2e91616a996b547c36f15
		<tag k="natural" v="bay" />
		<tag k="ssr:stedsnr" v="644046" />
	</node>
	<node lat="59.84300277403035" lon="6.2869138844326296" id="-43152">
		<tag k="name" v="Bråskotneset" />
		<tag k="natural" v="cape" />
		<tag k="ssr:stedsnr" v="650016" />
	</node>
	<node lat="59.83198056010854" lon="6.223663892254424" id="-43153">
		<tag k="name" v="Lyngnes" />
		<tag k="natural" v="cape" />
		<tag k="ssr:stedsnr" v="650018" />
	</node>
	<node lat="59.68958333505499" lon="5.774172226758742" id="-43155">
		<tag k="name" v="Skallen" />
		<tag k="natural" v="shoal" />
		<tag k="place" v="locality" />
		<tag k="ssr:stedsnr" v="650961" />
	</node>
<<<<<<< HEAD
	<node lat="59.65100000428097" lon="5.822474998838011" id="-43160">
		<tag k="alt_name" v="Seldalsvik" />
		<tag k="name" v="Seldalsvika" />
=======
	<node id="-597848" lat="59.8493333361" lon="6.3466638803">
		<tag k="alt_name" v="Mjelkevika" />
		<tag k="name" v="Melkevik" />
>>>>>>> e1d4bc35ff8a6074a6f2e91616a996b547c36f15
		<tag k="natural" v="bay" />
		<tag k="ssr:stedsnr" v="65002" />
	</node>
<<<<<<< HEAD
	<node lat="59.70147499648752" lon="5.816641658851248" id="-43178">
		<tag k="alt_name" v="Gardvik" />
		<tag k="name" v="Gardvika" />
		<tag k="natural" v="bay" />
		<tag k="ssr:stedsnr" v="731036" />
	</node>
	<node lat="59.69145555327629" lon="5.806108340244768" id="-43179">
		<tag k="alt_name" v="Ørevik" />
		<tag k="name" v="Ørevika" />
=======
	<node id="-599566" lat="59.6519305583" lon="5.8356750058">
		<tag k="name" v="Holmaseidholmen" />
		<tag k="place" v="islet" />
		<tag k="ssr:stedsnr" v="792465" />
	</node>
	<node id="-599031" lat="59.7146500037" lon="5.84226665912">
		<tag k="alt_name" v="Steinavik" />
		<tag k="name" v="Steinavika" />
>>>>>>> e1d4bc35ff8a6074a6f2e91616a996b547c36f15
		<tag k="natural" v="bay" />
		<tag k="ssr:stedsnr" v="307087" />
	</node>
<<<<<<< HEAD
	<node lat="59.74759722197207" lon="5.998291657969017" id="-43188">
		<tag k="bay" v="fjord" />
		<tag k="name" v="Åkrafjorden" />
		<tag k="natural" v="bay" />
		<tag k="ssr:stedsnr" v="731596" />
	</node>
	<node lat="59.7810138917551" lon="6.1399500024036575" id="-43200">
		<tag k="alt_name" v="Holanes" />
		<tag k="name" v="Holaneset" />
		<tag k="natural" v="cape" />
		<tag k="ssr:stedsnr" v="732346" />
	</node>
	<node lat="59.87490278143817" lon="6.367902779925684" id="-43208">
		<tag k="name" v="Lindevik" />
=======
	<node id="-598115" lat="59.7413249968" lon="6.06888055868">
		<tag k="name" v="Skatehaugnes" />
		<tag k="natural" v="cape" />
		<tag k="ssr:stedsnr" v="488634" />
	</node>
	<node id="-598359" lat="59.649236112" lon="5.858247223">
		<tag k="name" v="Vesteneset" />
		<tag k="natural" v="cape" />
		<tag k="ssr:stedsnr" v="731478" />
	</node>
	<node id="-598534" lat="59.7612111573" lon="6.12639417009">
		<tag k="alt_name" v="Blodteigvikjo" />
		<tag k="name" v="Blodteigvika" />
>>>>>>> e1d4bc35ff8a6074a6f2e91616a996b547c36f15
		<tag k="natural" v="bay" />
		<tag k="ssr:stedsnr" v="765812" />
	</node>
<<<<<<< HEAD
	<node lat="59.64431111320047" lon="5.902222226483787" id="-43222">
		<tag k="fixme" v="consider seamark:type=rock or natural=shoal" />
		<tag k="name" v="Helgaskjer" />
=======
	<node id="-598021" lat="59.7259111144" lon="5.84784999466">
		<tag k="name" v="Brattholmen" />
>>>>>>> e1d4bc35ff8a6074a6f2e91616a996b547c36f15
		<tag k="place" v="islet" />
		<tag k="ssr:stedsnr" v="765520" />
	</node>
<<<<<<< HEAD
	<node lat="59.71424166802038" lon="5.845833340072537" id="-43223">
		<tag k="fixme" v="consider seamark:type=rock or natural=shoal" />
		<tag k="name" v="Nautaskjer" />
		<tag k="place" v="islet" />
		<tag k="ssr:stedsnr" v="765528" />
	</node>
	<node lat="59.8083933863342" lon="6.170576660342395" id="-43236">
		<tag k="loc_name" v="Kvanndalsnes" />
		<tag k="name" v="Kvanndalsneset" />
		<tag k="natural" v="cape" />
		<tag k="ssr:stedsnr" v="772038" />
	</node>
	<node lat="59.80253333352154" lon="6.162058332843133" id="-43237">
		<tag k="name" v="Kvernaneset" />
		<tag k="natural" v="cape" />
		<tag k="ssr:stedsnr" v="772889" />
	</node>
	<node lat="59.65193055825895" lon="5.835675005796633" id="-43249">
		<tag k="name" v="Holmaseidholmen" />
		<tag k="place" v="islet" />
		<tag k="ssr:stedsnr" v="792465" />
	</node>
	<node lat="59.645155555955384" lon="5.903394449546295" id="-43258">
=======
	<node id="-599043" lat="59.6573833315" lon="5.79013611998">
		<tag k="alt_name" v="Skaraneset" />
>>>>>>> e1d4bc35ff8a6074a6f2e91616a996b547c36f15
		<tag k="fixme" v="multiple name tags, choose one and add the other to alt_name" />
		<tag k="name" v="Vågen;Osvåg" />
		<tag k="natural" v="bay" />
		<tag k="ssr:stedsnr" v="792502" />
	</node>
	<node lat="59.745055551543246" lon="5.93186389412742" id="-43283">
		<tag k="name" v="Grønavik" />
		<tag k="natural" v="bay" />
		<tag k="ssr:stedsnr" v="826687" />
	</node>
	<node lat="59.73486666498748" lon="5.887252776185847" id="-43284">
		<tag k="name" v="Skarpanes" />
		<tag k="natural" v="cape" />
		<tag k="ssr:stedsnr" v="826691" />
	</node>
<<<<<<< HEAD
	<node lat="59.72951111383621" lon="5.863952769944286" id="-43286">
		<tag k="name" v="Klubben" />
=======
	<node id="-598530" lat="59.7674416705" lon="6.12821111262">
		<tag k="name" v="Klungerstødnes" />
>>>>>>> e1d4bc35ff8a6074a6f2e91616a996b547c36f15
		<tag k="natural" v="cape" />
		<tag k="ssr:stedsnr" v="826696" />
	</node>
<<<<<<< HEAD
	<node lat="59.852283335374366" lon="6.352966669087721" id="-43291">
		<tag k="name" v="Pineskår" />
		<tag k="natural" v="bay" />
		<tag k="ssr:stedsnr" v="827246" />
	</node>
	<node lat="59.83238333616751" lon="6.279441666778553" id="-43305">
		<tag k="name" v="Sølbergvik" />
		<tag k="natural" v="bay" />
		<tag k="ssr:stedsnr" v="833017" />
	</node>
	<node lat="59.770283332043974" lon="5.935761114405319" id="-43324">
		<tag k="alt_name" v="Straumnes" />
		<tag k="name" v="Straumneset" />
		<tag k="natural" v="cape" />
		<tag k="ssr:stedsnr" v="853373" />
	</node>
	<node lat="59.76000277911844" lon="5.932302774867184" id="-43334">
		<tag k="alt_name" v="Laksavåg" />
		<tag k="name" v="Laksvåg" />
		<tag k="natural" v="bay" />
		<tag k="ssr:stedsnr" v="854369" />
	</node>
	<node lat="59.75016389021848" lon="5.943461103621092" id="-43335">
		<tag k="name" v="Giljeneset" />
		<tag k="natural" v="cape" />
		<tag k="ssr:stedsnr" v="854377" />
	</node>
	<node lat="59.744686109176705" lon="6.1046916682905055" id="-43342">
		<tag k="alt_name" v="Krogstøneset" />
		<tag k="name" v="Krokastønes" />
		<tag k="natural" v="cape" />
		<tag k="ssr:stedsnr" v="887383" />
	</node>
	<node lat="59.67939166651214" lon="5.782080556476526" id="-43343">
		<tag k="alt_name" v="Skotasker" />
		<tag k="fixme" v="consider seamark:type=rock or natural=shoal" />
		<tag k="name" v="Skotaskjer" />
		<tag k="place" v="islet" />
		<tag k="ssr:stedsnr" v="887478" />
	</node>
	<node lat="59.79175833137491" lon="6.180830563103271" id="-43356">
		<tag k="name" v="Biskusnakken" />
		<tag k="natural" v="cape" />
		<tag k="ssr:stedsnr" v="887184" />
	</node>
	<node lat="59.74198055460396" lon="5.987902769595127" id="-43360">
		<tag k="name" v="Meterstangen" />
		<tag k="natural" v="cape" />
		<tag k="ssr:stedsnr" v="887269" />
	</node>
	<node lat="59.64691110720257" lon="5.897602782756345" id="-43366">
		<tag k="name" v="Lambanes" />
		<tag k="natural" v="cape" />
		<tag k="ssr:stedsnr" v="887568" />
	</node>
	<node lat="59.71954722232632" lon="5.837044439876267" id="-43367">
		<tag k="fixme" v="consider seamark:type=rock or natural=shoal" />
		<tag k="name" v="Arhaugskjer" />
		<tag k="place" v="islet" />
		<tag k="ssr:stedsnr" v="887570" />
	</node>
	<node lat="59.73191666570098" lon="5.8780055564243465" id="-43380">
		<tag k="name" v="Jektehavnsneset" />
		<tag k="natural" v="cape" />
		<tag k="ssr:stedsnr" v="947675" />
	</node>
	<node lat="59.74527500258559" lon="5.958547229114856" id="-43387">
		<tag k="name" v="Nesvåghomane" />
		<tag k="place" v="islet" />
		<tag k="ssr:stedsnr" v="948267" />
	</node>
	<node lat="59.64477777912666" lon="5.874744450489844" id="-43391">
		<tag k="name" v="Årvik" />
		<tag k="natural" v="bay" />
		<tag k="ssr:stedsnr" v="948602" />
	</node>
	<node lat="59.70971666375439" lon="5.837283328995767" id="-43400">
		<tag k="name" v="Lauvvik" />
		<tag k="natural" v="bay" />
		<tag k="ssr:stedsnr" v="948636" />
	</node>
	<node lat="59.740419442722704" lon="6.014175008419355" id="-43413">
		<tag k="alt_name" v="Indra Tungesvikbukt" />
		<tag k="name" v="Indra Tungesvik" />
		<tag k="natural" v="bay" />
		<tag k="ssr:stedsnr" v="948860" />
	</node>
	<node lat="59.710850002113595" lon="5.856452782437538" id="-43416">
		<tag k="name" v="Brotaflua" />
		<tag k="place" v="locality" />
		<tag k="seamark:type" v="rock" />
		<tag k="ssr:stedsnr" v="953962" />
	</node>
	<node lat="59.84260277999193" lon="6.2697166719713175" id="-43417">
		<tag k="name" v="Bakkahamaren" />
		<tag k="natural" v="cape" />
		<tag k="ssr:stedsnr" v="954025" />
	</node>
	<node lat="59.83586442264316" lon="6.241260126804531" id="-43418">
		<tag k="loc_name" v="Teiganes" />
		<tag k="name" v="Teiganeset" />
		<tag k="natural" v="cape" />
		<tag k="ssr:stedsnr" v="954027" />
	</node>
	<node lat="59.81062499592988" lon="6.217719437357161" id="-43419">
		<tag k="alt_name" v="Eintveitskjæret" />
		<tag k="fixme" v="consider seamark:type=rock or natural=shoal" />
		<tag k="name" v="Eintveitskjeret" />
		<tag k="place" v="islet" />
		<tag k="ssr:stedsnr" v="954030" />
	</node>
	<node lat="59.83801878978247" lon="6.2502364857288635" id="-43425">
		<tag k="alt_name" v="Ørevika ytre" />
		<tag k="name" v="Ytra Orevika" />
		<tag k="natural" v="bay" />
		<tag k="ssr:stedsnr" v="970370" />
=======
	<node id="-599211" lat="59.7897972227" lon="6.17934444821">
		<tag k="name" v="Rafdalsneset" />
		<tag k="natural" v="cape" />
		<tag k="ssr:stedsnr" v="408027" />
>>>>>>> e1d4bc35ff8a6074a6f2e91616a996b547c36f15
	</node>
</osm>
