<?xml version="1.0" encoding="UTF-8"?>
<<<<<<< HEAD
<osm version="0.6" generator="osmapis">
	<node lat="59.735891666334105" lon="6.139833328115895" id="-41496">
		<tag k="historic" v="shieling" />
		<tag k="name" v="Lundestølen" />
=======
<osm generator="osmapis" version="0.6">
	<node id="-598271" lat="59.8762361081" lon="6.37085277936">
		<tag k="name" v="Storura" />
		<tag k="natural" v="scree" />
		<tag k="ssr:stedsnr" v="705221" />
	</node>
	<node id="-598269" lat="59.8063000001" lon="6.2580638811">
		<tag k="name" v="Storesteinane" />
		<tag k="natural" v="stone" />
		<tag k="ssr:stedsnr" v="705168" />
	</node>
	<node id="-598650" lat="59.8451777809" lon="6.29884722201">
		<tag k="name" v="Gullur" />
		<tag k="natural" v="scree" />
		<tag k="ssr:stedsnr" v="948219" />
	</node>
	<node id="-599287" lat="59.8629416674" lon="6.36060277458">
		<tag k="name" v="Slumreura" />
		<tag k="natural" v="scree" />
		<tag k="ssr:stedsnr" v="523812" />
	</node>
	<node id="-598256" lat="59.8044111099" lon="6.21279721485">
		<tag k="name" v="Øyri" />
		<tag k="place" v="locality" />
		<tag k="ssr:stedsnr" v="711036" />
	</node>
	<node id="-599534" lat="59.6557972241" lon="6.10074444415">
		<tag k="name" v="Tussurene" />
		<tag k="natural" v="scree" />
		<tag k="ssr:stedsnr" v="766003" />
	</node>
	<node id="-598311" lat="59.8711333349" lon="6.4548083313">
		<tag k="name" v="Kjelkasteinen" />
		<tag k="natural" v="stone" />
		<tag k="ssr:stedsnr" v="705826" />
	</node>
	<node id="-598246" lat="59.7401416676" lon="6.19927500466">
		<tag k="name" v="Langekjer" />
		<tag k="place" v="locality" />
		<tag k="ssr:stedsnr" v="523572" />
	</node>
	<node id="-598755" lat="59.6361583292" lon="5.94316110795">
		<tag k="name" v="Maisteinen" />
		<tag k="natural" v="stone" />
		<tag k="ssr:stedsnr" v="37739" />
	</node>
	<node id="-599518" lat="59.6359111131" lon="5.89444167265">
		<tag k="name" v="Gamlatræ" />
>>>>>>> e1d4bc35ff8a6074a6f2e91616a996b547c36f15
		<tag k="place" v="locality" />
		<tag k="ssr:stedsnr" v="37417" />
	</node>
<<<<<<< HEAD
	<node lat="59.657513890745754" lon="5.972188883814639" id="-41514">
		<tag k="landuse" v="quarry" />
		<tag k="name" v="Sandsilo" />
		<tag k="ssr:stedsnr" v="38004" />
	</node>
	<node lat="59.82965555888472" lon="6.248702777366744" id="-41578">
		<tag k="name" v="Revur" />
		<tag k="natural" v="scree" />
		<tag k="ssr:stedsnr" v="98205" />
	</node>
	<node lat="59.75266388834599" lon="6.143833327034954" id="-41639">
		<tag k="landuse" v="meadow" />
		<tag k="name" v="Sirisengane" />
		<tag k="ssr:stedsnr" v="159023" />
	</node>
	<node lat="59.671236111492874" lon="5.853277770561574" id="-41692">
		<tag k="name" v="Stølsmarka" />
		<tag k="place" v="locality" />
		<tag k="ssr:stedsnr" v="219613" />
	</node>
	<node lat="59.87936666698841" lon="6.466819436919687" id="-41709">
		<tag k="name" v="Hagen" />
		<tag k="place" v="locality" />
		<tag k="ssr:stedsnr" v="220829" />
	</node>
	<node lat="59.68699167028016" lon="6.044063880811113" id="-41728">
		<tag k="name" v="Hondurane" />
=======
	<node id="-598233" lat="59.8547777816" lon="6.30157500122">
		<tag k="name" v="Klovsteinane" />
		<tag k="natural" v="stone" />
		<tag k="ssr:stedsnr" v="523211" />
	</node>
	<node id="-598741" lat="59.7358916663" lon="6.13983332812">
		<tag k="historic" v="shieling" />
		<tag k="name" v="Lundestølen" />
		<tag k="place" v="locality" />
		<tag k="ssr:stedsnr" v="37417" />
	</node>
	<node id="-599504" lat="59.8361750007" lon="6.29535000666">
		<tag k="name" v="Gråur" />
>>>>>>> e1d4bc35ff8a6074a6f2e91616a996b547c36f15
		<tag k="natural" v="scree" />
		<tag k="ssr:stedsnr" v="280196" />
	</node>
<<<<<<< HEAD
	<node lat="59.70914853245411" lon="5.8795951124629235" id="-41772">
		<tag k="alt_name" v="Kjørkjesteinen" />
		<tag k="name" v="Kyrkjesteinen" />
		<tag k="natural" v="stone" />
		<tag k="ssr:stedsnr" v="462545" />
	</node>
	<node lat="59.70880555513091" lon="5.82343888052412" id="-41803">
		<tag k="name" v="Ebnehanen" />
=======
	<node id="-598733" lat="59.7259500015" lon="6.21379445295">
		<tag k="name" v="Skrubburene" />
		<tag k="natural" v="scree" />
		<tag k="ssr:stedsnr" v="37473" />
	</node>
	<node id="-599627" lat="59.8765250037" lon="6.37391388578">
		<tag k="name" v="Kobbesteinen" />
>>>>>>> e1d4bc35ff8a6074a6f2e91616a996b547c36f15
		<tag k="natural" v="stone" />
		<tag k="ssr:stedsnr" v="468931" />
	</node>
<<<<<<< HEAD
	<node lat="59.854777781648664" lon="6.301575001222342" id="-42002">
		<tag k="name" v="Klovsteinane" />
		<tag k="natural" v="stone" />
		<tag k="ssr:stedsnr" v="523211" />
	</node>
	<node lat="59.74014166757275" lon="6.199275004664575" id="-42007">
		<tag k="name" v="Langekjer" />
=======
	<node id="-598856" lat="59.6481972234" lon="5.92086944676">
		<tag k="name" v="Vågsøyri" />
>>>>>>> e1d4bc35ff8a6074a6f2e91616a996b547c36f15
		<tag k="place" v="locality" />
		<tag k="ssr:stedsnr" v="523572" />
	</node>
<<<<<<< HEAD
	<node lat="59.86294166739928" lon="6.360602774583035" id="-42012">
		<tag k="name" v="Slumreura" />
		<tag k="natural" v="scree" />
		<tag k="ssr:stedsnr" v="523812" />
	</node>
	<node lat="59.72381667044256" lon="6.221211111109931" id="-42036">
		<tag k="alt_name" v="Fita, øvra" />
		<tag k="name" v="Øvra Fita" />
		<tag k="place" v="locality" />
		<tag k="ssr:stedsnr" v="549916" />
	</node>
	<node lat="59.766211106888626" lon="6.136827778940978" id="-42053">
=======
	<node id="-598855" lat="59.8742361088" lon="6.40136388483">
		<tag k="landuse" v="quarry" />
		<tag k="name" v="Gantaland" />
		<tag k="ssr:stedsnr" v="98797" />
	</node>
	<node id="-597829" lat="59.6575138907" lon="5.97218888381">
		<tag k="landuse" v="quarry" />
		<tag k="name" v="Sandsilo" />
		<tag k="ssr:stedsnr" v="38004" />
	</node>
	<node id="-599364" lat="59.7662111069" lon="6.13682777894">
>>>>>>> e1d4bc35ff8a6074a6f2e91616a996b547c36f15
		<tag k="name" v="Vidjeurene" />
		<tag k="natural" v="scree" />
		<tag k="ssr:stedsnr" v="583049" />
	</node>
<<<<<<< HEAD
	<node lat="59.73103333791063" lon="6.029027785705058" id="-42065">
		<tag k="name" v="Træo" />
		<tag k="place" v="locality" />
		<tag k="ssr:stedsnr" v="583341" />
	</node>
	<node lat="59.73575833735077" lon="6.082361116973066" id="-42093">
=======
	<node id="-597955" lat="59.6869916703" lon="6.04406388081">
		<tag k="name" v="Hondurane" />
		<tag k="natural" v="scree" />
		<tag k="ssr:stedsnr" v="280196" />
	</node>
	<node id="-598588" lat="59.697099998" lon="6.02530277624">
		<tag k="name" v="Norheimsurane" />
		<tag k="natural" v="scree" />
		<tag k="ssr:stedsnr" v="948281" />
	</node>
	<node id="-598321" lat="59.7310333379" lon="6.02902778571">
		<tag k="name" v="Træo" />
		<tag k="place" v="locality" />
		<tag k="ssr:stedsnr" v="583341" />
	</node>
	<node id="-598344" lat="59.7357583374" lon="6.08236111697">
>>>>>>> e1d4bc35ff8a6074a6f2e91616a996b547c36f15
		<tag k="alt_name" v="Turkhusurene" />
		<tag k="name" v="Turkhusurdene" />
		<tag k="natural" v="scree" />
		<tag k="ssr:stedsnr" v="609632" />
	</node>
<<<<<<< HEAD
	<node lat="59.738302781933086" lon="6.183580552393536" id="-42134">
		<tag k="name" v="Tveitaurene" />
		<tag k="natural" v="scree" />
		<tag k="ssr:stedsnr" v="705571" />
	</node>
	<node lat="59.58475833045143" lon="5.990044444008396" id="-42157">
		<tag k="name" v="Forevassmyrane" />
		<tag k="natural" v="wetland" />
		<tag k="ssr:stedsnr" v="643733" />
	</node>
	<node lat="59.8063000001074" lon="6.258063881096255" id="-42206">
		<tag k="name" v="Storesteinane" />
		<tag k="natural" v="stone" />
		<tag k="ssr:stedsnr" v="705168" />
	</node>
	<node lat="59.876236108105864" lon="6.370852779363778" id="-42207">
		<tag k="name" v="Storura" />
		<tag k="natural" v="scree" />
		<tag k="ssr:stedsnr" v="705221" />
	</node>
	<node lat="59.8711333348973" lon="6.454808331298756" id="-42224">
		<tag k="name" v="Kjelkasteinen" />
		<tag k="natural" v="stone" />
		<tag k="ssr:stedsnr" v="705826" />
	</node>
	<node lat="59.804411109853525" lon="6.212797214853124" id="-42234">
		<tag k="name" v="Øyri" />
=======
	<node id="-597806" lat="59.879366667" lon="6.46681943692">
		<tag k="name" v="Hagen" />
		<tag k="place" v="locality" />
		<tag k="ssr:stedsnr" v="220829" />
	</node>
	<node id="-599208" lat="59.6714861094" lon="6.01484445035">
		<tag k="name" v="Rosshagen" />
>>>>>>> e1d4bc35ff8a6074a6f2e91616a996b547c36f15
		<tag k="place" v="locality" />
		<tag k="ssr:stedsnr" v="711036" />
	</node>
<<<<<<< HEAD
	<node lat="59.836175000684236" lon="6.2953500066576495" id="-42272">
		<tag k="name" v="Gråur" />
		<tag k="natural" v="scree" />
		<tag k="ssr:stedsnr" v="765193" />
	</node>
	<node lat="59.63591111310102" lon="5.8944416726508315" id="-42279">
		<tag k="name" v="Gamlatræ" />
=======
	<node id="-599079" lat="59.7272972182" lon="5.9602555572">
		<tag k="historic" v="shieling" />
		<tag k="name" v="Melkeflåto" />
>>>>>>> e1d4bc35ff8a6074a6f2e91616a996b547c36f15
		<tag k="place" v="locality" />
		<tag k="ssr:stedsnr" v="765591" />
	</node>
<<<<<<< HEAD
	<node lat="59.65579722413051" lon="6.100744444145555" id="-42288">
		<tag k="name" v="Tussurene" />
		<tag k="natural" v="scree" />
		<tag k="ssr:stedsnr" v="766003" />
	</node>
	<node lat="59.757494445138576" lon="5.9327972206180455" id="-42361">
=======
	<node id="-599590" lat="59.7574944451" lon="5.93279722062">
>>>>>>> e1d4bc35ff8a6074a6f2e91616a996b547c36f15
		<tag k="name" v="Lybergsteinen" />
		<tag k="natural" v="stone" />
		<tag k="ssr:stedsnr" v="826076" />
	</node>
<<<<<<< HEAD
	<node lat="59.87652500373821" lon="6.373913885779831" id="-42375">
		<tag k="name" v="Kobbesteinen" />
		<tag k="natural" v="stone" />
		<tag k="ssr:stedsnr" v="827214" />
	</node>
	<node lat="59.84517778085144" lon="6.2988472220056835" id="-42461">
		<tag k="name" v="Gullur" />
=======
	<node id="-598065" lat="59.7091485325" lon="5.87959511246">
		<tag k="alt_name" v="Kjørkjesteinen" />
		<tag k="name" v="Kyrkjesteinen" />
		<tag k="natural" v="stone" />
		<tag k="ssr:stedsnr" v="462545" />
	</node>
	<node id="-599332" lat="59.7238166704" lon="6.22121111111">
		<tag k="alt_name" v="Fita, øvra" />
		<tag k="name" v="Øvra Fita" />
		<tag k="place" v="locality" />
		<tag k="ssr:stedsnr" v="549916" />
	</node>
	<node id="-599448" lat="59.5847583305" lon="5.99004444401">
		<tag k="name" v="Forevassmyrane" />
		<tag k="natural" v="wetland" />
		<tag k="ssr:stedsnr" v="643733" />
	</node>
	<node id="-598997" lat="59.6844500033" lon="5.81376111764">
		<tag k="alt_name" v="Sandvikemarka" />
		<tag k="name" v="Sandvikmarka" />
		<tag k="place" v="locality" />
		<tag k="ssr:stedsnr" v="306007" />
	</node>
	<node id="-598290" lat="59.7383027819" lon="6.18358055239">
		<tag k="name" v="Tveitaurene" />
>>>>>>> e1d4bc35ff8a6074a6f2e91616a996b547c36f15
		<tag k="natural" v="scree" />
		<tag k="ssr:stedsnr" v="948219" />
	</node>
<<<<<<< HEAD
	<node lat="59.69709999801888" lon="6.02530277623525" id="-42468">
		<tag k="name" v="Norheimsurane" />
		<tag k="natural" v="scree" />
		<tag k="ssr:stedsnr" v="948281" />
	</node>
	<node lat="59.67085832908497" lon="5.96408610533763" id="-42476">
=======
	<node id="-599055" lat="59.7627527744" lon="5.93307778184">
		<tag k="name" v="Bjødnaur" />
		<tag k="natural" v="scree" />
		<tag k="ssr:stedsnr" v="340459" />
	</node>
	<node id="-597772" lat="59.6712361115" lon="5.85327777056">
		<tag k="name" v="Stølsmarka" />
		<tag k="place" v="locality" />
		<tag k="ssr:stedsnr" v="219613" />
	</node>
	<node id="-598923" lat="59.7526638883" lon="6.14383332703">
		<tag k="landuse" v="meadow" />
		<tag k="name" v="Sirisengane" />
		<tag k="ssr:stedsnr" v="159023" />
	</node>
	<node id="-598664" lat="59.6708583291" lon="5.96408610534">
>>>>>>> e1d4bc35ff8a6074a6f2e91616a996b547c36f15
		<tag k="landuse" v="quarry" />
		<tag k="name" v="Garabrotet" />
		<tag k="ssr:stedsnr" v="948712" />
	</node>
<<<<<<< HEAD
	<node lat="59.72595000149963" lon="6.213794452953227" id="-42532">
		<tag k="name" v="Skrubburene" />
		<tag k="natural" v="scree" />
		<tag k="ssr:stedsnr" v="37473" />
	</node>
	<node lat="59.636158329200924" lon="5.943161107948417" id="-42546">
		<tag k="name" v="Maisteinen" />
		<tag k="natural" v="stone" />
		<tag k="ssr:stedsnr" v="37739" />
	</node>
	<node lat="59.87423610883582" lon="6.401363884829375" id="-42626">
		<tag k="landuse" v="quarry" />
		<tag k="name" v="Gantaland" />
		<tag k="ssr:stedsnr" v="98797" />
	</node>
	<node lat="59.64819722344968" lon="5.9208694467574245" id="-42631">
		<tag k="name" v="Vågsøyri" />
		<tag k="place" v="locality" />
		<tag k="ssr:stedsnr" v="105000" />
	</node>
	<node lat="59.68445000331889" lon="5.813761117644368" id="-42814">
		<tag k="alt_name" v="Sandvikemarka" />
		<tag k="name" v="Sandvikmarka" />
		<tag k="place" v="locality" />
		<tag k="ssr:stedsnr" v="306007" />
	</node>
	<node lat="60.02087499816288" lon="6.307091658778263" id="-42838">
		<tag k="name" v="Folgefonna" />
		<tag k="natural" v="glacier" />
		<tag k="ssr:stedsnr" v="307423" />
	</node>
	<node lat="59.76275277436605" lon="5.933077781838308" id="-42853">
		<tag k="name" v="Bjødnaur" />
=======
	<node id="-597889" lat="59.8296555589" lon="6.24870277737">
		<tag k="name" v="Revur" />
>>>>>>> e1d4bc35ff8a6074a6f2e91616a996b547c36f15
		<tag k="natural" v="scree" />
		<tag k="ssr:stedsnr" v="340459" />
	</node>
<<<<<<< HEAD
	<node lat="59.72729721819349" lon="5.960255557200104" id="-42868">
		<tag k="historic" v="shieling" />
		<tag k="name" v="Melkeflåto" />
		<tag k="place" v="locality" />
		<tag k="ssr:stedsnr" v="341287" />
	</node>
	<node lat="59.67148610938466" lon="6.014844450348109" id="-42951">
		<tag k="name" v="Rosshagen" />
		<tag k="place" v="locality" />
		<tag k="ssr:stedsnr" v="402669" />
=======
	<node id="-598093" lat="59.7088055551" lon="5.82343888052">
		<tag k="name" v="Ebnehanen" />
		<tag k="natural" v="stone" />
		<tag k="ssr:stedsnr" v="468931" />
	</node>
	<node id="-599041" lat="60.0208749982" lon="6.30709165878">
		<tag k="name" v="Folgefonna" />
		<tag k="natural" v="glacier" />
		<tag k="ssr:stedsnr" v="307423" />
>>>>>>> e1d4bc35ff8a6074a6f2e91616a996b547c36f15
	</node>
</osm>
