<?xml version="1.0" encoding="UTF-8"?>
<osm generator="osmapis" version="0.6">
	<node id="-518144" lat="59.8677861108" lon="6.46474721403">
		<tag k="name" v="Farteinshaugen" />
		<tag k="natural" v="hill" />
		<tag k="place" v="locality" />
		<tag k="ssr:stedsnr" v="705831" />
	</node>
	<node id="-518142" lat="59.8861833376" lon="6.42425555025">
		<tag k="name" v="Barlindskår" />
		<tag k="place" v="locality" />
		<tag k="ssr:stedsnr" v="705824" />
	</node>
	<node id="-518141" lat="59.8666527741" lon="6.43701110344">
		<tag k="name" v="Raudbekkskåra" />
		<tag k="place" v="locality" />
		<tag k="ssr:stedsnr" v="705813" />
	</node>
	<node id="-518139" lat="59.7051305597" lon="5.89240833416">
		<tag k="fixme" v="consider natural=peak for the most distinct mountains in the district" />
		<tag k="name" v="Bofjellet" />
		<tag k="natural" v="hill" />
		<tag k="place" v="locality" />
		<tag k="ssr:stedsnr" v="705774" />
	</node>
	<node id="-518137" lat="59.6903833367" lon="5.84572778166">
		<tag k="name" v="Øykjalia" />
		<tag k="natural" v="slope" />
		<tag k="place" v="locality" />
		<tag k="ssr:stedsnr" v="705765" />
	</node>
	<node id="-518135" lat="59.6990750015" lon="5.8970888811">
		<tag k="name" v="Longeli" />
		<tag k="natural" v="slope" />
		<tag k="place" v="locality" />
		<tag k="ssr:stedsnr" v="705758" />
	</node>
	<node id="-518134" lat="59.6463472259" lon="5.99517778626">
		<tag k="name" v="Rygjalia" />
		<tag k="natural" v="slope" />
		<tag k="place" v="locality" />
		<tag k="ssr:stedsnr" v="705736" />
	</node>
	<node id="-518130" lat="59.672150002" lon="5.87208889694">
		<tag k="name" v="Rivåsskår" />
		<tag k="place" v="locality" />
		<tag k="ssr:stedsnr" v="705684" />
	</node>
	<node id="-518125" lat="59.6396194481" lon="5.84195832905">
		<tag k="fixme" v="consider natural=peak for the most distinct mountains in the district" />
		<tag k="name" v="Geitåsen" />
		<tag k="natural" v="hill" />
		<tag k="place" v="locality" />
		<tag k="ssr:stedsnr" v="705607" />
	</node>
	<node id="-518124" lat="59.6496777782" lon="5.93309722733">
		<tag k="name" v="Svartaberg" />
		<tag k="natural" v="hill" />
		<tag k="place" v="locality" />
		<tag k="ssr:stedsnr" v="705585" />
	</node>
	<node id="-518123" lat="59.7370194453" lon="6.17295834047">
		<tag k="name" v="Påskeafto" />
		<tag k="place" v="locality" />
		<tag k="ssr:stedsnr" v="705573" />
	</node>
	<node id="-518121" lat="59.7320111083" lon="6.17969722674">
		<tag k="name" v="Karmahaugane" />
		<tag k="natural" v="hill" />
		<tag k="place" v="locality" />
		<tag k="ssr:stedsnr" v="705570" />
	</node>
	<node id="-518120" lat="59.7146472222" lon="6.20573054804">
		<tag k="name" v="Svaleberga" />
		<tag k="natural" v="hill" />
		<tag k="place" v="locality" />
		<tag k="ssr:stedsnr" v="705556" />
	</node>
	<node id="-518119" lat="59.6700111098" lon="5.78580833463">
		<tag k="name" v="Varhaug" />
		<tag k="natural" v="hill" />
		<tag k="place" v="locality" />
		<tag k="ssr:stedsnr" v="705534" />
	</node>
	<node id="-518118" lat="59.7402944419" lon="6.1817166588">
		<tag k="name" v="Bjørnastigdalen" />
		<tag k="natural" v="valley" />
		<tag k="place" v="locality" />
		<tag k="ssr:stedsnr" v="705527" />
	</node>
	<node id="-518117" lat="59.6890694471" lon="6.12296944249">
		<tag k="name" v="Varpet" />
		<tag k="natural" v="valley" />
		<tag k="place" v="locality" />
		<tag k="ssr:stedsnr" v="705505" />
	</node>
	<node id="-518115" lat="59.7049472203" lon="6.15875277891">
		<tag k="name" v="Flåteskar" />
		<tag k="natural" v="valley" />
		<tag k="place" v="locality" />
		<tag k="ssr:stedsnr" v="705480" />
	</node>
	<node id="-518114" lat="59.7346694421" lon="6.15934722765">
		<tag k="name" v="Askestølslida" />
		<tag k="natural" v="slope" />
		<tag k="place" v="locality" />
		<tag k="ssr:stedsnr" v="705472" />
	</node>
	<node id="-518113" lat="59.7258666702" lon="6.0803194491">
		<tag k="name" v="Hagaskar" />
		<tag k="natural" v="valley" />
		<tag k="place" v="locality" />
		<tag k="ssr:stedsnr" v="705455" />
	</node>
	<node id="-518111" lat="59.719358329" lon="6.15474165826">
		<tag k="name" v="Ilaren" />
		<tag k="place" v="locality" />
		<tag k="ssr:stedsnr" v="705373" />
	</node>
	<node id="-518109" lat="59.7082916656" lon="6.1457805581">
		<tag k="name" v="Midthagen" />
		<tag k="place" v="locality" />
		<tag k="ssr:stedsnr" v="705369" />
	</node>
	<node id="-518108" lat="59.70855556" lon="6.14169444183">
		<tag k="name" v="Kolaklakken" />
		<tag k="natural" v="ridge" />
		<tag k="place" v="locality" />
		<tag k="ssr:stedsnr" v="705366" />
	</node>
	<node id="-518105" lat="59.8248833364" lon="6.23840555883">
		<tag k="name" v="Drågadalen" />
		<tag k="natural" v="valley" />
		<tag k="place" v="locality" />
		<tag k="ssr:stedsnr" v="705251" />
	</node>
	<node id="-518102" lat="59.8034555513" lon="6.21900278353">
		<tag k="name" v="Bjørnaberget" />
		<tag k="natural" v="hill" />
		<tag k="place" v="locality" />
		<tag k="ssr:stedsnr" v="705207" />
	</node>
	<node id="-518100" lat="59.7915277823" lon="6.19907778263">
		<tag k="name" v="Ørnaberget" />
		<tag k="natural" v="hill" />
		<tag k="place" v="locality" />
		<tag k="ssr:stedsnr" v="705162" />
	</node>
	<node id="-518099" lat="59.6519305545" lon="6.09756943998">
		<tag k="name" v="Kritlalia" />
		<tag k="natural" v="slope" />
		<tag k="place" v="locality" />
		<tag k="ssr:stedsnr" v="705135" />
	</node>
	<node id="-518098" lat="59.8545749976" lon="6.47036944169">
		<tag k="name" v="Tunga" />
		<tag k="natural" v="ridge" />
		<tag k="place" v="locality" />
		<tag k="ssr:stedsnr" v="705109" />
	</node>
	<node id="-518096" lat="59.9096861142" lon="6.49347500163">
		<tag k="name" v="Bergstødalen" />
		<tag k="natural" v="valley" />
		<tag k="place" v="locality" />
		<tag k="ssr:stedsnr" v="705092" />
	</node>
	<node id="-518095" lat="59.7719888888" lon="6.13599444815">
		<tag k="name" v="Folkaberget" />
		<tag k="natural" v="hill" />
		<tag k="place" v="locality" />
		<tag k="ssr:stedsnr" v="705085" />
	</node>
	<node id="-518086" lat="59.8153305556" lon="6.25450000075">
		<tag k="name" v="Storhaugen" />
		<tag k="natural" v="hill" />
		<tag k="place" v="locality" />
		<tag k="ssr:stedsnr" v="549054" />
	</node>
	<node id="-518083" lat="59.6265444456" lon="6.04954166643">
		<tag k="name" v="Langelid" />
		<tag k="natural" v="slope" />
		<tag k="place" v="locality" />
		<tag k="ssr:stedsnr" v="523787" />
	</node>
	<node id="-518082" lat="59.682519446" lon="5.88708332812">
		<tag k="name" v="Håvareheia" />
		<tag k="natural" v="hill" />
		<tag k="place" v="locality" />
		<tag k="ssr:stedsnr" v="523764" />
	</node>
	<node id="-518081" lat="59.6689138858" lon="6.02790834209">
		<tag k="name" v="Nutarindo" />
		<tag k="natural" v="ridge" />
		<tag k="place" v="locality" />
		<tag k="ssr:stedsnr" v="523754" />
	</node>
	<node id="-518080" lat="59.6417819867" lon="5.9764883048">
		<tag k="alt_name" v="Kroheio" />
		<tag k="name" v="Kroheia" />
		<tag k="natural" v="hill" />
		<tag k="place" v="locality" />
		<tag k="ssr:stedsnr" v="523752" />
	</node>
	<node id="-518077" lat="59.7231861124" lon="6.20795277327">
		<tag k="fixme" v="consider natural=peak for the most distinct mountains in the district" />
		<tag k="name" v="Kvitefjella" />
		<tag k="natural" v="hill" />
		<tag k="place" v="locality" />
		<tag k="ssr:stedsnr" v="523567" />
	</node>
	<node id="-518076" lat="59.7329500024" lon="6.02056389071">
		<tag k="fixme" v="consider natural=peak for the most distinct mountains in the district" />
		<tag k="name" v="Storåsen" />
		<tag k="natural" v="hill" />
		<tag k="place" v="locality" />
		<tag k="ssr:stedsnr" v="523392" />
	</node>
	<node id="-518075" lat="59.7165249968" lon="6.08680832906">
		<tag k="name" v="Badstovedalen" />
		<tag k="natural" v="valley" />
		<tag k="place" v="locality" />
		<tag k="ssr:stedsnr" v="523378" />
	</node>
	<node id="-518071" lat="59.7151638907" lon="5.87433611737">
		<tag k="name" v="Tømmerhaug" />
		<tag k="natural" v="hill" />
		<tag k="place" v="locality" />
		<tag k="ssr:stedsnr" v="523616" />
	</node>
	<node id="-518068" lat="59.7913861101" lon="6.26452500766">
		<tag k="name" v="Fagerskar" />
		<tag k="natural" v="valley" />
		<tag k="place" v="locality" />
		<tag k="ssr:stedsnr" v="523176" />
	</node>
	<node id="-518064" lat="59.8734305564" lon="6.31117500142">
		<tag k="fixme" v="consider natural=peak for the most distinct mountains in the district" />
		<tag k="name" v="Skidalsnuten" />
		<tag k="natural" v="hill" />
		<tag k="ssr:stedsnr" v="523210" />
	</node>
	<node id="-518059" lat="59.7827749981" lon="6.16034999924">
		<tag k="name" v="Trollagjuvet" />
		<tag k="natural" v="valley" />
		<tag k="place" v="locality" />
		<tag k="ssr:stedsnr" v="489353" />
	</node>
	<node id="-518058" lat="59.7851555568" lon="6.16542221722">
		<tag k="alt_name" v="Jordahammaren" />
		<tag k="name" v="Jordahammmaren" />
		<tag k="natural" v="ridge" />
		<tag k="place" v="locality" />
		<tag k="ssr:stedsnr" v="489348" />
	</node>
	<node id="-518056" lat="59.8034055527" lon="6.15400833096">
		<tag k="name" v="Gadden" />
		<tag k="natural" v="hill" />
		<tag k="place" v="locality" />
		<tag k="ssr:stedsnr" v="489246" />
	</node>
	<node id="-518055" lat="59.831925004" lon="6.17051111946">
		<tag k="fixme" v="consider natural=peak for the most distinct mountains in the district" />
		<tag k="name" v="Bikkjenuten" />
		<tag k="natural" v="hill" />
		<tag k="place" v="locality" />
		<tag k="ssr:stedsnr" v="489236" />
	</node>
	<node id="-518051" lat="59.6330416638" lon="6.13752500124">
		<tag k="fixme" v="consider natural=peak for the most distinct mountains in the district" />
		<tag k="name" v="Bordfjellet" />
		<tag k="natural" v="hill" />
		<tag k="place" v="locality" />
		<tag k="ssr:stedsnr" v="488523" />
	</node>
	<node id="-518049" lat="59.646144442" lon="6.15825832701">
		<tag k="name" v="Fiskedalen" />
		<tag k="natural" v="valley" />
		<tag k="place" v="locality" />
		<tag k="ssr:stedsnr" v="488507" />
	</node>
	<node id="-518048" lat="59.626494441" lon="5.96328610382">
		<tag k="fixme" v="consider natural=peak for the most distinct mountains in the district" />
		<tag k="name" v="Litlehest" />
		<tag k="natural" v="hill" />
		<tag k="place" v="locality" />
		<tag k="ssr:stedsnr" v="488503" />
	</node>
	<node id="-518046" lat="59.8741666711" lon="6.36053333035">
		<tag k="alt_name" v="Øyersbakkane" />
		<tag k="name" v="Øyjordsbakkane" />
		<tag k="natural" v="slope" />
		<tag k="place" v="locality" />
		<tag k="ssr:stedsnr" v="671499" />
	</node>
	<node id="-518045" lat="59.9018250015" lon="6.34703611985">
		<tag k="fixme" v="consider natural=peak for the most distinct mountains in the district" />
		<tag k="name" v="Almnuten" />
		<tag k="natural" v="hill" />
		<tag k="place" v="locality" />
		<tag k="ssr:stedsnr" v="671486" />
	</node>
	<node id="-518040" lat="59.9503666637" lon="6.45036944754">
		<tag k="fixme" v="consider natural=peak for the most distinct mountains in the district" />
		<tag k="name" v="Skjeggesnuten" />
		<tag k="natural" v="hill" />
		<tag k="place" v="locality" />
		<tag k="ssr:stedsnr" v="671424" />
	</node>
	<node id="-518034" lat="59.5874694488" lon="5.99951944877">
		<tag k="name" v="Grasdalen" />
		<tag k="natural" v="valley" />
		<tag k="place" v="locality" />
		<tag k="ssr:stedsnr" v="671100" />
	</node>
	<node id="-518028" lat="59.8440111146" lon="6.36265555716">
		<tag k="name" v="Lusaskardet" />
		<tag k="natural" v="valley" />
		<tag k="place" v="locality" />
		<tag k="ssr:stedsnr" v="671062" />
	</node>
	<node id="-518021" lat="59.6951861088" lon="6.13561389258">
		<tag k="alt_name" v="Kvams-Grønnut" />
		<tag k="fixme" v="consider natural=peak for the most distinct mountains in the district" />
		<tag k="name" v="Kvamsgrønnuten" />
		<tag k="natural" v="hill" />
		<tag k="place" v="locality" />
		<tag k="ssr:stedsnr" v="670692" />
	</node>
	<node id="-518018" lat="59.720794445" lon="6.0103166665">
		<tag k="name" v="Middagsskard" />
		<tag k="natural" v="valley" />
		<tag k="place" v="locality" />
		<tag k="ssr:stedsnr" v="670666" />
	</node>
	<node id="-518015" lat="59.5977861106" lon="6.09318333046">
		<tag k="fixme" v="consider natural=peak for the most distinct mountains in the district" />
		<tag k="name" v="Fagerlinuten" />
		<tag k="natural" v="hill" />
		<tag k="place" v="locality" />
		<tag k="ssr:stedsnr" v="670535" />
	</node>
	<node id="-518011" lat="59.6162138919" lon="6.14589167141">
		<tag k="fixme" v="consider natural=peak for the most distinct mountains in the district" />
		<tag k="name" v="Kvannenuten" />
		<tag k="natural" v="hill" />
		<tag k="place" v="locality" />
		<tag k="ssr:stedsnr" v="670508" />
	</node>
	<node id="-518007" lat="59.6422944424" lon="6.03956389235">
		<tag k="alt_name" v="Kaldeimshovda" />
		<tag k="fixme" v="consider natural=peak for the most distinct mountains in the district" />
		<tag k="name" v="Kaldheimshovda" />
		<tag k="natural" v="hill" />
		<tag k="place" v="locality" />
		<tag k="ssr:stedsnr" v="670485" />
	</node>
	<node id="-518003" lat="59.6497416643" lon="5.93739444513">
		<tag k="alt_name" v="Eggjene" />
		<tag k="fixme" v="consider natural=peak for the most distinct mountains in the district" />
		<tag k="name" v="Egga" />
		<tag k="natural" v="hill" />
		<tag k="place" v="locality" />
		<tag k="ssr:stedsnr" v="670469" />
	</node>
	<node id="-517995" lat="59.668350004" lon="6.1904611176">
		<tag k="name" v="Åborebotn" />
		<tag k="natural" v="valley" />
		<tag k="place" v="locality" />
		<tag k="ssr:stedsnr" v="428720" />
	</node>
	<node id="-517994" lat="59.6837916633" lon="6.06689167475">
		<tag k="alt_name" v="Solheims-Grønnut" />
		<tag k="fixme" v="consider natural=peak for the most distinct mountains in the district" />
		<tag k="name" v="Soleimsgrønnuten" />
		<tag k="natural" v="hill" />
		<tag k="place" v="locality" />
		<tag k="ssr:stedsnr" v="428713" />
	</node>
	<node id="-517993" lat="59.6876027822" lon="6.08498889735">
		<tag k="fixme" v="consider natural=peak for the most distinct mountains in the district" />
		<tag k="name" v="Klepp" />
		<tag k="natural" v="hill" />
		<tag k="place" v="locality" />
		<tag k="ssr:stedsnr" v="428712" />
	</node>
	<node id="-517992" lat="59.6829861083" lon="5.88726388725">
		<tag k="fixme" v="consider natural=peak for the most distinct mountains in the district" />
		<tag k="name" v="Håfjellet" />
		<tag k="natural" v="hill" />
		<tag k="place" v="locality" />
		<tag k="ssr:stedsnr" v="428709" />
	</node>
	<node id="-517990" lat="59.6451833293" lon="5.97151943682">
		<tag k="name" v="Ravnaberg" />
		<tag k="natural" v="hill" />
		<tag k="place" v="locality" />
		<tag k="ssr:stedsnr" v="402715" />
	</node>
	<node id="-517987" lat="59.8455527813" lon="6.35847500158">
		<tag k="fixme" v="consider natural=peak for the most distinct mountains in the district" />
		<tag k="name" v="Svenuten" />
		<tag k="natural" v="hill" />
		<tag k="ssr:stedsnr" v="401216" />
	</node>
	<node id="-517984" lat="59.8055861097" lon="6.14725833105">
		<tag k="name" v="Smådalane" />
		<tag k="natural" v="valley" />
		<tag k="place" v="locality" />
		<tag k="ssr:stedsnr" v="368231" />
	</node>
	<node id="-517983" lat="59.8233750003" lon="6.19214999674">
		<tag k="alt_name" v="Intveitsåta" />
		<tag k="loc_name" v="Skorafjellet" />
		<tag k="name" v="Eintveitsåta" />
		<tag k="natural" v="hill" />
		<tag k="place" v="locality" />
		<tag k="ssr:stedsnr" v="368228" />
	</node>
	<node id="-517981" lat="59.8339638898" lon="6.19544999579">
		<tag k="name" v="Furetinden" />
		<tag k="natural" v="hill" />
		<tag k="place" v="locality" />
		<tag k="ssr:stedsnr" v="368222" />
	</node>
	<node id="-517978" lat="59.9334861126" lon="6.47373611519">
		<tag k="name" v="Skjeggeshøset" />
		<tag k="natural" v="valley" />
		<tag k="place" v="locality" />
		<tag k="ssr:stedsnr" v="489467" />
	</node>
	<node id="-517974" lat="59.7682999958" lon="6.19241112">
		<tag k="name" v="Haraheia" />
		<tag k="natural" v="hill" />
		<tag k="place" v="locality" />
		<tag k="ssr:stedsnr" v="489390" />
	</node>
	<node id="-517973" lat="59.7727861138" lon="6.16176944936">
		<tag k="name" v="Slettedalen" />
		<tag k="natural" v="valley" />
		<tag k="place" v="locality" />
		<tag k="ssr:stedsnr" v="489389" />
	</node>
	<node id="-517972" lat="59.7746166657" lon="6.14418888233">
		<tag k="name" v="Perahaugen" />
		<tag k="natural" v="hill" />
		<tag k="place" v="locality" />
		<tag k="ssr:stedsnr" v="489384" />
	</node>
	<node id="-517970" lat="59.8115805553" lon="6.30908888505">
		<tag k="fixme" v="consider natural=peak for the most distinct mountains in the district" />
		<tag k="name" v="Vierdalshorga" />
		<tag k="natural" v="hill" />
		<tag k="place" v="locality" />
		<tag k="ssr:stedsnr" v="489105" />
	</node>
	<node id="-517969" lat="59.8139555536" lon="6.39218055906">
		<tag k="fixme" v="consider natural=peak for the most distinct mountains in the district" />
		<tag k="name" v="Botnanuten" />
		<tag k="natural" v="hill" />
		<tag k="place" v="locality" />
		<tag k="ssr:stedsnr" v="489100" />
	</node>
	<node id="-517968" lat="59.8447222262" lon="6.50791110373">
		<tag k="fixme" v="consider natural=peak for the most distinct mountains in the district" />
		<tag k="name" v="Borddalsnuten" />
		<tag k="natural" v="hill" />
		<tag k="place" v="locality" />
		<tag k="ssr:stedsnr" v="489075" />
	</node>
	<node id="-517963" lat="59.8543555511" lon="6.24612222052">
		<tag k="fixme" v="consider natural=peak for the most distinct mountains in the district" />
		<tag k="name" v="Skrednuten" />
		<tag k="natural" v="hill" />
		<tag k="place" v="locality" />
		<tag k="ssr:stedsnr" v="489019" />
	</node>
	<node id="-517962" lat="59.8489749956" lon="6.26728332558">
		<tag k="alt_name" v="Tøsseåsen" />
		<tag k="fixme" v="consider natural=peak for the most distinct mountains in the district" />
		<tag k="name" v="Tysseåsen" />
		<tag k="natural" v="hill" />
		<tag k="place" v="locality" />
		<tag k="ssr:stedsnr" v="489016" />
	</node>
	<node id="-517959" lat="59.8580861097" lon="6.38274166728">
		<tag k="alt_name" v="Rammenuten" />
		<tag k="fixme" v="consider natural=peak for the most distinct mountains in the district" />
		<tag k="name" v="Ramnanuten" />
		<tag k="natural" v="hill" />
		<tag k="place" v="locality" />
		<tag k="ssr:stedsnr" v="489001" />
	</node>
	<node id="-517954" lat="59.7078250044" lon="6.21474999896">
		<tag k="alt_name" v="Storanobbo" />
		<tag k="name" v="Storanobba" />
		<tag k="natural" v="hill" />
		<tag k="place" v="locality" />
		<tag k="ssr:stedsnr" v="488710" />
	</node>
	<node id="-517951" lat="59.7188277756" lon="6.02822778093">
		<tag k="fixme" v="consider natural=peak for the most distinct mountains in the district" />
		<tag k="name" v="Håfjellet" />
		<tag k="natural" v="hill" />
		<tag k="place" v="locality" />
		<tag k="ssr:stedsnr" v="488645" />
	</node>
	<node id="-517939" lat="59.70138611" lon="6.13921667205">
		<tag k="fixme" v="consider natural=peak for the most distinct mountains in the district" />
		<tag k="name" v="Brollomsnuten" />
		<tag k="natural" v="hill" />
		<tag k="ssr:stedsnr" v="341463" />
	</node>
	<node id="-517937" lat="59.7196777751" lon="5.93529166237">
		<tag k="name" v="Nedra Tjellelia" />
		<tag k="natural" v="slope" />
		<tag k="place" v="locality" />
		<tag k="ssr:stedsnr" v="484774" />
	</node>
	<node id="-517935" lat="59.6710583374" lon="5.79567221394">
		<tag k="fixme" v="consider natural=peak for the most distinct mountains in the district" />
		<tag k="name" v="Bufjellet" />
		<tag k="natural" v="hill" />
		<tag k="place" v="locality" />
		<tag k="ssr:stedsnr" v="340454" />
	</node>
	<node id="-517930" lat="59.8705250035" lon="6.5041555543">
		<tag k="fixme" v="consider natural=peak for the most distinct mountains in the district" />
		<tag k="name" v="Skrumsnuten" />
		<tag k="natural" v="hill" />
		<tag k="place" v="locality" />
		<tag k="ssr:stedsnr" v="307012" />
	</node>
	<node id="-517921" lat="59.8606333346" lon="6.33768889339">
		<tag k="loc_name" v="Terneryggen" />
		<tag k="name" v="Tenneryggen" />
		<tag k="natural" v="ridge" />
		<tag k="place" v="locality" />
		<tag k="ssr:stedsnr" v="468021" />
	</node>
	<node id="-517918" lat="59.6225027771" lon="6.18494167128">
		<tag k="name" v="Bjønndalskleiva" />
		<tag k="natural" v="slope" />
		<tag k="place" v="locality" />
		<tag k="ssr:stedsnr" v="462813" />
	</node>
	<node id="-517917" lat="59.8607666626" lon="6.48050555817">
		<tag k="name" v="Stølshaugen" />
		<tag k="natural" v="hill" />
		<tag k="place" v="locality" />
		<tag k="ssr:stedsnr" v="462789" />
	</node>
	<node id="-517916" lat="59.8819388891" lon="6.47863888115">
		<tag k="name" v="Stølsbakken" />
		<tag k="natural" v="slope" />
		<tag k="place" v="locality" />
		<tag k="ssr:stedsnr" v="462770" />
	</node>
	<node id="-517915" lat="59.8846777768" lon="6.42747499169">
		<tag k="name" v="Berga" />
		<tag k="natural" v="hill" />
		<tag k="place" v="locality" />
		<tag k="ssr:stedsnr" v="462740" />
	</node>
	<node id="-517911" lat="59.6429944455" lon="5.97644445075">
		<tag k="name" v="Bjørkeli" />
		<tag k="natural" v="slope" />
		<tag k="place" v="locality" />
		<tag k="ssr:stedsnr" v="462669" />
	</node>
	<node id="-517910" lat="59.6534388926" lon="6.01142221417">
		<tag k="name" v="Auastadleitet" />
		<tag k="natural" v="hill" />
		<tag k="place" v="locality" />
		<tag k="ssr:stedsnr" v="462660" />
	</node>
	<node id="-517904" lat="59.6272333331" lon="5.88741110337">
		<tag k="name" v="Silkeshovda" />
		<tag k="natural" v="hill" />
		<tag k="place" v="locality" />
		<tag k="ssr:stedsnr" v="462606" />
	</node>
	<node id="-517895" lat="59.7396972184" lon="6.18027778153">
		<tag k="name" v="Tveitaskar" />
		<tag k="natural" v="valley" />
		<tag k="place" v="locality" />
		<tag k="ssr:stedsnr" v="462508" />
	</node>
	<node id="-517894" lat="59.7204583302" lon="6.21241388396">
		<tag k="name" v="Brurastigen" />
		<tag k="natural" v="slope" />
		<tag k="place" v="locality" />
		<tag k="ssr:stedsnr" v="462487" />
	</node>
	<node id="-517893" lat="59.7262749976" lon="6.11448056015">
		<tag k="fixme" v="consider natural=peak for the most distinct mountains in the district" />
		<tag k="name" v="Litla Dygro" />
		<tag k="natural" v="hill" />
		<tag k="place" v="locality" />
		<tag k="ssr:stedsnr" v="462483" />
	</node>
	<node id="-517890" lat="59.7667444407" lon="5.93238888603">
		<tag k="alt_name" v="Ramseid austre" />
		<tag k="name" v="Ramseid" />
		<tag k="place" v="locality" />
		<tag k="ssr:stedsnr" v="462460" />
	</node>
	<node id="-517889" lat="59.6651444423" lon="5.81341389135">
		<tag k="name" v="Sveo" />
		<tag k="place" v="locality" />
		<tag k="ssr:stedsnr" v="462453" />
	</node>
	<node id="-517888" lat="59.6654888845" lon="5.78574166686">
		<tag k="name" v="Storehaugen" />
		<tag k="natural" v="hill" />
		<tag k="place" v="locality" />
		<tag k="ssr:stedsnr" v="462451" />
	</node>
	<node id="-517887" lat="59.6778861134" lon="5.79333333168">
		<tag k="name" v="Fjellskarshaugen" />
		<tag k="natural" v="hill" />
		<tag k="place" v="locality" />
		<tag k="ssr:stedsnr" v="462440" />
	</node>
	<node id="-517886" lat="59.7270250022" lon="6.18590833683">
		<tag k="fixme" v="consider natural=peak for the most distinct mountains in the district" />
		<tag k="name" v="Såto" />
		<tag k="natural" v="hill" />
		<tag k="ssr:stedsnr" v="462438" />
	</node>
	<node id="-517884" lat="59.6868805601" lon="6.13172222564">
		<tag k="name" v="Kvelven" />
		<tag k="natural" v="ridge" />
		<tag k="place" v="locality" />
		<tag k="ssr:stedsnr" v="462428" />
	</node>
	<node id="-517883" lat="59.7388194429" lon="6.03616666648">
		<tag k="name" v="Lendershaugane" />
		<tag k="natural" v="hill" />
		<tag k="place" v="locality" />
		<tag k="ssr:stedsnr" v="462338" />
	</node>
	<node id="-517879" lat="59.7241388909" lon="6.1061138811">
		<tag k="name" v="Pikhovda" />
		<tag k="natural" v="hill" />
		<tag k="place" v="locality" />
		<tag k="ssr:stedsnr" v="462298" />
	</node>
	<node id="-517878" lat="59.7205250035" lon="6.08918610399">
		<tag k="name" v="Skorvane" />
		<tag k="natural" v="hill" />
		<tag k="place" v="locality" />
		<tag k="ssr:stedsnr" v="462293" />
	</node>
	<node id="-517877" lat="59.7151750006" lon="6.09096665788">
		<tag k="name" v="Budalen" />
		<tag k="natural" v="valley" />
		<tag k="place" v="locality" />
		<tag k="ssr:stedsnr" v="462290" />
	</node>
	<node id="-517876" lat="59.7099027821" lon="6.08385000713">
		<tag k="name" v="Bleshammar" />
		<tag k="natural" v="ridge" />
		<tag k="place" v="locality" />
		<tag k="ssr:stedsnr" v="462285" />
	</node>
	<node id="-517875" lat="59.7077722247" lon="6.07801666241">
		<tag k="name" v="Kidlingehaug" />
		<tag k="natural" v="hill" />
		<tag k="place" v="locality" />
		<tag k="ssr:stedsnr" v="462283" />
	</node>
	<node id="-517873" lat="59.7200166624" lon="5.95808054789">
		<tag k="fixme" v="consider natural=peak for the most distinct mountains in the district" />
		<tag k="name" v="Oddane" />
		<tag k="natural" v="hill" />
		<tag k="ssr:stedsnr" v="462249" />
	</node>
	<node id="-517872" lat="59.7109833331" lon="5.96515833536">
		<tag k="name" v="Måsahaugen" />
		<tag k="natural" v="hill" />
		<tag k="place" v="locality" />
		<tag k="ssr:stedsnr" v="462243" />
	</node>
	<node id="-517871" lat="59.7050361143" lon="5.98758055193">
		<tag k="name" v="Måsarindane" />
		<tag k="natural" v="ridge" />
		<tag k="place" v="locality" />
		<tag k="ssr:stedsnr" v="462242" />
	</node>
	<node id="-517870" lat="59.7256237895" lon="5.95112435444">
		<tag k="name" v="Niphaugen" />
		<tag k="natural" v="hill" />
		<tag k="place" v="locality" />
		<tag k="ssr:stedsnr" v="462212" />
	</node>
	<node id="-517869" lat="59.8668555558" lon="6.28322223034">
		<tag k="name" v="Skinstø" />
		<tag k="place" v="locality" />
		<tag k="ssr:stedsnr" v="462164" />
	</node>
	<node id="-517868" lat="59.7796583341" lon="6.14672222825">
		<tag k="name" v="Skredene" />
		<tag k="place" v="locality" />
		<tag k="ssr:stedsnr" v="462148" />
	</node>
	<node id="-517866" lat="59.8377611082" lon="6.19283055285">
		<tag k="name" v="Legdene" />
		<tag k="natural" v="hill" />
		<tag k="place" v="locality" />
		<tag k="ssr:stedsnr" v="462130" />
	</node>
	<node id="-517864" lat="59.7677905781" lon="6.12869148656">
		<tag k="name" v="Kyrkjehelleren" />
		<tag k="natural" v="hill" />
		<tag k="place" v="locality" />
		<tag k="ssr:stedsnr" v="462069" />
	</node>
	<node id="-517863" lat="59.7623138894" lon="5.94070555573">
		<tag k="name" v="Blekjeberget" />
		<tag k="natural" v="hill" />
		<tag k="place" v="locality" />
		<tag k="ssr:stedsnr" v="462065" />
	</node>
	<node id="-517860" lat="59.7317472191" lon="6.14253055746">
		<tag k="name" v="Storadjuvet" />
		<tag k="natural" v="gorge" />
		<tag k="ssr:stedsnr" v="280515" />
	</node>
	<node id="-517859" lat="59.7384833371" lon="6.14260556358">
		<tag k="name" v="Røynekleiv" />
		<tag k="natural" v="slope" />
		<tag k="place" v="locality" />
		<tag k="ssr:stedsnr" v="280512" />
	</node>
	<node id="-517858" lat="59.7280416677" lon="6.02781943632">
		<tag k="name" v="Inntveito" />
		<tag k="place" v="locality" />
		<tag k="ssr:stedsnr" v="280307" />
	</node>
	<node id="-517857" lat="59.7217111097" lon="6.25162777476">
		<tag k="alt_name" v="Sauanuten, heimre" />
		<tag k="fixme" v="consider natural=peak for the most distinct mountains in the district" />
		<tag k="name" v="Heimre Sauanuten" />
		<tag k="natural" v="hill" />
		<tag k="place" v="locality" />
		<tag k="ssr:stedsnr" v="246905" />
	</node>
	<node id="-517852" lat="59.6417694482" lon="6.09177777057">
		<tag k="name" v="Haugalia" />
		<tag k="natural" v="slope" />
		<tag k="place" v="locality" />
		<tag k="ssr:stedsnr" v="220136" />
	</node>
	<node id="-517850" lat="59.694544444" lon="5.84771388732">
		<tag k="name" v="Nordbrekka" />
		<tag k="natural" v="slope" />
		<tag k="place" v="locality" />
		<tag k="ssr:stedsnr" v="219728" />
	</node>
	<node id="-517849" lat="59.6972083345" lon="5.93438333723">
		<tag k="name" v="Varleitet" />
		<tag k="natural" v="slope" />
		<tag k="place" v="locality" />
		<tag k="ssr:stedsnr" v="219718" />
	</node>
	<node id="-517845" lat="59.6841694488" lon="6.08317777925">
		<tag k="name" v="Sandstono" />
		<tag k="natural" v="hill" />
		<tag k="place" v="locality" />
		<tag k="ssr:stedsnr" v="219414" />
	</node>
	<node id="-517844" lat="59.6949277748" lon="6.1308111186">
		<tag k="name" v="Djupadal" />
		<tag k="natural" v="valley" />
		<tag k="place" v="locality" />
		<tag k="ssr:stedsnr" v="219370" />
	</node>
	<node id="-517835" lat="59.7543305519" lon="6.2135277856">
		<tag k="name" v="Rotlia" />
		<tag k="natural" v="slope" />
		<tag k="place" v="locality" />
		<tag k="ssr:stedsnr" v="281015" />
	</node>
	<node id="-517833" lat="59.866755558" lon="6.42542777925">
		<tag k="name" v="Sagryggen" />
		<tag k="natural" v="ridge" />
		<tag k="place" v="locality" />
		<tag k="ssr:stedsnr" v="280802" />
	</node>
	<node id="-517832" lat="59.8737638928" lon="6.46250832465">
		<tag k="name" v="Oysteinsjuvet" />
		<tag k="natural" v="gorge" />
		<tag k="ssr:stedsnr" v="280791" />
	</node>
	<node id="-517830" lat="59.8755416646" lon="6.4493333327">
		<tag k="name" v="Jettegrytene" />
		<tag k="natural" v="gorge" />
		<tag k="ssr:stedsnr" v="280784" />
	</node>
	<node id="-517829" lat="59.8792194414" lon="6.48498054809">
		<tag k="name" v="Tverrlia" />
		<tag k="natural" v="slope" />
		<tag k="place" v="locality" />
		<tag k="ssr:stedsnr" v="280782" />
	</node>
	<node id="-517828" lat="59.8811166632" lon="6.50280555067">
		<tag k="fixme" v="consider natural=peak for the most distinct mountains in the district" />
		<tag k="name" v="Skromsnuten" />
		<tag k="natural" v="hill" />
		<tag k="ssr:stedsnr" v="280777" />
	</node>
	<node id="-517826" lat="59.6343416655" lon="6.04781666207">
		<tag k="name" v="Strype" />
		<tag k="place" v="locality" />
		<tag k="ssr:stedsnr" v="280743" />
	</node>
	<node id="-517825" lat="59.7099055587" lon="5.91736110925">
		<tag k="name" v="Vatnaskarshaugen" />
		<tag k="natural" v="hill" />
		<tag k="place" v="locality" />
		<tag k="ssr:stedsnr" v="280742" />
	</node>
	<node id="-517824" lat="59.6851250032" lon="5.85232222372">
		<tag k="name" v="Kudalen" />
		<tag k="natural" v="valley" />
		<tag k="place" v="locality" />
		<tag k="ssr:stedsnr" v="280735" />
	</node>
	<node id="-517823" lat="59.6413916626" lon="5.98540278029">
		<tag k="name" v="Torarind" />
		<tag k="natural" v="ridge" />
		<tag k="place" v="locality" />
		<tag k="ssr:stedsnr" v="280687" />
	</node>
	<node id="-517822" lat="59.6472972247" lon="5.99238889284">
		<tag k="name" v="Rus" />
		<tag k="place" v="locality" />
		<tag k="ssr:stedsnr" v="280683" />
	</node>
	<node id="-517821" lat="59.6740916678" lon="5.95940000865">
		<tag k="name" v="Askedalen" />
		<tag k="natural" v="valley" />
		<tag k="place" v="locality" />
		<tag k="ssr:stedsnr" v="280648" />
	</node>
	<node id="-517820" lat="59.6657916681" lon="5.97088888787">
		<tag k="name" v="Sørheimsbrotet" />
		<tag k="place" v="locality" />
		<tag k="ssr:stedsnr" v="280636" />
	</node>
	<node id="-517819" lat="59.619483333" lon="5.90665555366">
		<tag k="name" v="Slåtteberga" />
		<tag k="natural" v="hill" />
		<tag k="place" v="locality" />
		<tag k="ssr:stedsnr" v="280635" />
	</node>
	<node id="-517818" lat="59.6776777806" lon="5.82510278024">
		<tag k="name" v="Galtajuvet" />
		<tag k="natural" v="gorge" />
		<tag k="ssr:stedsnr" v="280601" />
	</node>
	<node id="-517817" lat="59.6488499961" lon="5.79154723103">
		<tag k="name" v="Monsaberg" />
		<tag k="natural" v="hill" />
		<tag k="place" v="locality" />
		<tag k="ssr:stedsnr" v="280599" />
	</node>
	<node id="-517816" lat="59.6531472185" lon="5.82046667127">
		<tag k="name" v="Seldal" />
		<tag k="natural" v="valley" />
		<tag k="place" v="locality" />
		<tag k="ssr:stedsnr" v="280598" />
	</node>
	<node id="-517815" lat="59.6168861077" lon="6.1819250029">
		<tag k="name" v="Raua Bergjet" />
		<tag k="natural" v="hill" />
		<tag k="place" v="locality" />
		<tag k="ssr:stedsnr" v="280596" />
	</node>
	<node id="-517814" lat="59.637327775" lon="5.87241666707">
		<tag k="name" v="Småhaug" />
		<tag k="natural" v="hill" />
		<tag k="place" v="locality" />
		<tag k="ssr:stedsnr" v="280588" />
	</node>
	<node id="-517810" lat="59.6749250024" lon="5.81459167467">
		<tag k="name" v="Tømmerskår" />
		<tag k="place" v="locality" />
		<tag k="ssr:stedsnr" v="280491" />
	</node>
	<node id="-517809" lat="59.6771083365" lon="5.82177500739">
		<tag k="name" v="Stølsdjuvet" />
		<tag k="natural" v="gorge" />
		<tag k="ssr:stedsnr" v="280482" />
	</node>
	<node id="-517808" lat="59.7285000004" lon="6.19510832703">
		<tag k="name" v="Løyning" />
		<tag k="place" v="locality" />
		<tag k="ssr:stedsnr" v="280466" />
	</node>
	<node id="-517807" lat="59.6796555573" lon="5.7864972206">
		<tag k="fixme" v="consider natural=peak for the most distinct mountains in the district" />
		<tag k="name" v="Kjølbergsåsen" />
		<tag k="natural" v="hill" />
		<tag k="place" v="locality" />
		<tag k="ssr:stedsnr" v="280461" />
	</node>
	<node id="-517806" lat="59.7415694447" lon="6.17392222794">
		<tag k="name" v="Nonskar" />
		<tag k="natural" v="valley" />
		<tag k="place" v="locality" />
		<tag k="ssr:stedsnr" v="280447" />
	</node>
	<node id="-517805" lat="59.6952250002" lon="6.10501667457">
		<tag k="name" v="Austmannalia" />
		<tag k="natural" v="slope" />
		<tag k="place" v="locality" />
		<tag k="ssr:stedsnr" v="280426" />
	</node>
	<node id="-517804" lat="59.6829111136" lon="6.07526389594">
		<tag k="name" v="Sandsskar" />
		<tag k="natural" v="valley" />
		<tag k="place" v="locality" />
		<tag k="ssr:stedsnr" v="280424" />
	</node>
	<node id="-517803" lat="59.6900861116" lon="6.05593610961">
		<tag k="name" v="Skiftesdalen" />
		<tag k="natural" v="valley" />
		<tag k="place" v="locality" />
		<tag k="ssr:stedsnr" v="280414" />
	</node>
	<node id="-517802" lat="59.6977472249" lon="6.06241943793">
		<tag k="name" v="Nordlia" />
		<tag k="natural" v="slope" />
		<tag k="place" v="locality" />
		<tag k="ssr:stedsnr" v="280412" />
	</node>
	<node id="-517799" lat="59.7046194426" lon="6.13816111118">
		<tag k="name" v="Tverrgardsdjuvet" />
		<tag k="natural" v="gorge" />
		<tag k="ssr:stedsnr" v="280402" />
	</node>
	<node id="-517798" lat="59.7420361106" lon="6.13781110524">
		<tag k="name" v="Ulvalibotn" />
		<tag k="natural" v="valley" />
		<tag k="place" v="locality" />
		<tag k="ssr:stedsnr" v="280392" />
	</node>
	<node id="-517797" lat="59.7441694421" lon="6.14264722039">
		<tag k="name" v="Ulvalio" />
		<tag k="natural" v="slope" />
		<tag k="place" v="locality" />
		<tag k="ssr:stedsnr" v="280388" />
	</node>
	<node id="-517796" lat="59.7374083335" lon="6.10316666522">
		<tag k="name" v="Hilleren" />
		<tag k="place" v="locality" />
		<tag k="ssr:stedsnr" v="280375" />
	</node>
	<node id="-517795" lat="59.7202888854" lon="6.05236944929">
		<tag k="fixme" v="consider natural=peak for the most distinct mountains in the district" />
		<tag k="name" v="Heglenuten" />
		<tag k="natural" v="hill" />
		<tag k="ssr:stedsnr" v="280337" />
	</node>
	<node id="-517793" lat="59.739097222" lon="6.04468054968">
		<tag k="name" v="Nedste Lågahaugen" />
		<tag k="natural" v="hill" />
		<tag k="place" v="locality" />
		<tag k="ssr:stedsnr" v="280329" />
	</node>
	<node id="-517792" lat="59.7207972197" lon="6.1107583287">
		<tag k="name" v="Pikhaug" />
		<tag k="natural" v="hill" />
		<tag k="place" v="locality" />
		<tag k="ssr:stedsnr" v="280297" />
	</node>
	<node id="-517791" lat="59.7123527754" lon="6.0892583318">
		<tag k="name" v="Branahaug" />
		<tag k="natural" v="hill" />
		<tag k="place" v="locality" />
		<tag k="ssr:stedsnr" v="280262" />
	</node>
	<node id="-517790" lat="59.7124194414" lon="6.08633888777">
		<tag k="name" v="Kuhaug" />
		<tag k="natural" v="hill" />
		<tag k="place" v="locality" />
		<tag k="ssr:stedsnr" v="280261" />
	</node>
	<node id="-517789" lat="59.7057972239" lon="5.94562777196">
		<tag k="name" v="Stølshaugen" />
		<tag k="natural" v="hill" />
		<tag k="place" v="locality" />
		<tag k="ssr:stedsnr" v="280222" />
	</node>
	<node id="-517788" lat="59.6835888884" lon="6.02424166607">
		<tag k="name" v="Rusto" />
		<tag k="natural" v="ridge" />
		<tag k="place" v="locality" />
		<tag k="ssr:stedsnr" v="280198" />
	</node>
	<node id="-517786" lat="59.8469888914" lon="6.25271110847">
		<tag k="name" v="Djuveskard" />
		<tag k="natural" v="valley" />
		<tag k="place" v="locality" />
		<tag k="ssr:stedsnr" v="280172" />
	</node>
	<node id="-517785" lat="59.8273249993" lon="6.29987777292">
		<tag k="fixme" v="consider natural=peak for the most distinct mountains in the district" />
		<tag k="name" v="Geitanuten" />
		<tag k="natural" v="hill" />
		<tag k="ssr:stedsnr" v="280152" />
	</node>
	<node id="-517784" lat="59.87803611" lon="6.37153888915">
		<tag k="name" v="Husamønet" />
		<tag k="place" v="locality" />
		<tag k="ssr:stedsnr" v="280136" />
	</node>
	<node id="-517783" lat="59.8763500013" lon="6.36524166729">
		<tag k="name" v="Skogskårane" />
		<tag k="place" v="locality" />
		<tag k="ssr:stedsnr" v="280133" />
	</node>
	<node id="-517779" lat="59.8544583376" lon="6.36331111626">
		<tag k="name" v="Stokklia" />
		<tag k="natural" v="slope" />
		<tag k="place" v="locality" />
		<tag k="ssr:stedsnr" v="159807" />
	</node>
	<node id="-517777" lat="59.6550857478" lon="5.91715462981">
		<tag k="fixme" v="consider natural=peak for the most distinct mountains in the district" />
		<tag k="name" v="Sauåsen" />
		<tag k="natural" v="hill" />
		<tag k="place" v="locality" />
		<tag k="ssr:stedsnr" v="159562" />
	</node>
	<node id="-517775" lat="59.7026055555" lon="6.10920000845">
		<tag k="name" v="Askelia" />
		<tag k="natural" v="slope" />
		<tag k="place" v="locality" />
		<tag k="ssr:stedsnr" v="159470" />
	</node>
	<node id="-517774" lat="59.7257222245" lon="6.11016667312">
		<tag k="fixme" v="consider natural=peak for the most distinct mountains in the district" />
		<tag k="name" v="Stora Dygro" />
		<tag k="natural" v="hill" />
		<tag k="place" v="locality" />
		<tag k="ssr:stedsnr" v="159524" />
	</node>
	<node id="-517773" lat="59.726497219" lon="6.1226083265">
		<tag k="name" v="Tjørnarehaugen" />
		<tag k="natural" v="hill" />
		<tag k="place" v="locality" />
		<tag k="ssr:stedsnr" v="159522" />
	</node>
	<node id="-517771" lat="59.6664111133" lon="5.80139722403">
		<tag k="name" v="Øygardsbakkane" />
		<tag k="natural" v="slope" />
		<tag k="place" v="locality" />
		<tag k="ssr:stedsnr" v="159509" />
	</node>
	<node id="-517770" lat="59.735483334" lon="6.03593333354">
		<tag k="name" v="Danseberga" />
		<tag k="natural" v="hill" />
		<tag k="place" v="locality" />
		<tag k="ssr:stedsnr" v="159376" />
	</node>
	<node id="-517769" lat="59.7282861109" lon="6.01816666096">
		<tag k="name" v="Bjønnbærflatane" />
		<tag k="place" v="locality" />
		<tag k="ssr:stedsnr" v="159373" />
	</node>
	<node id="-517768" lat="59.7373027749" lon="6.00895833065">
		<tag k="name" v="Oksedalen" />
		<tag k="natural" v="valley" />
		<tag k="place" v="locality" />
		<tag k="ssr:stedsnr" v="159370" />
	</node>
	<node id="-517767" lat="59.7334777765" lon="6.00620277148">
		<tag k="name" v="Kjelen" />
		<tag k="place" v="locality" />
		<tag k="ssr:stedsnr" v="159368" />
	</node>
	<node id="-517766" lat="59.7275694472" lon="6.0347000034">
		<tag k="name" v="Fongsdalen" />
		<tag k="natural" v="valley" />
		<tag k="place" v="locality" />
		<tag k="ssr:stedsnr" v="159359" />
	</node>
	<node id="-517765" lat="59.7106861118" lon="6.09169722421">
		<tag k="name" v="Tvenhetteflåto" />
		<tag k="place" v="locality" />
		<tag k="ssr:stedsnr" v="159356" />
	</node>
	<node id="-517764" lat="59.6874999967" lon="5.96822222728">
		<tag k="fixme" v="consider natural=peak for the most distinct mountains in the district" />
		<tag k="name" v="Ramsfjellet" />
		<tag k="natural" v="hill" />
		<tag k="place" v="locality" />
		<tag k="ssr:stedsnr" v="159322" />
	</node>
	<node id="-517761" lat="59.7103999976" lon="5.94207222435">
		<tag k="alt_name" v="Stølsleite" />
		<tag k="fixme" v="consider natural=peak for the most distinct mountains in the district" />
		<tag k="name" v="Stølsleitet" />
		<tag k="natural" v="hill" />
		<tag k="ssr:stedsnr" v="159306" />
	</node>
	<node id="-517759" lat="59.8317638906" lon="6.27284444562">
		<tag k="name" v="Glymjehammaren" />
		<tag k="place" v="locality" />
		<tag k="ssr:stedsnr" v="159253" />
	</node>
	<node id="-517758" lat="59.8249666692" lon="6.28762778312">
		<tag k="name" v="Viskjerslåtto" />
		<tag k="place" v="locality" />
		<tag k="ssr:stedsnr" v="159224" />
	</node>
	<node id="-517757" lat="59.8399027762" lon="6.34291111057">
		<tag k="name" v="Bruhaugen" />
		<tag k="natural" v="hill" />
		<tag k="place" v="locality" />
		<tag k="ssr:stedsnr" v="159218" />
	</node>
	<node id="-517755" lat="59.8776583375" lon="6.38704444821">
		<tag k="name" v="Gaupeskår" />
		<tag k="place" v="locality" />
		<tag k="ssr:stedsnr" v="159207" />
	</node>
	<node id="-517753" lat="59.795349998" lon="6.2183305557">
		<tag k="name" v="Kjelahola" />
		<tag k="natural" v="valley" />
		<tag k="place" v="locality" />
		<tag k="ssr:stedsnr" v="159159" />
	</node>
	<node id="-517751" lat="59.650580556" lon="6.10558611868">
		<tag k="name" v="Olahola" />
		<tag k="natural" v="valley" />
		<tag k="place" v="locality" />
		<tag k="ssr:stedsnr" v="159003" />
	</node>
	<node id="-517748" lat="59.8420555568" lon="6.2451944472">
		<tag k="name" v="Teigahovda" />
		<tag k="natural" v="hill" />
		<tag k="place" v="locality" />
		<tag k="ssr:stedsnr" v="114409" />
	</node>
	<node id="-517745" lat="59.86643333" lon="6.31785000509">
		<tag k="fixme" v="consider natural=peak for the most distinct mountains in the district" />
		<tag k="name" v="Brendenuten" />
		<tag k="natural" v="hill" />
		<tag k="ssr:stedsnr" v="98767" />
	</node>
	<node id="-517744" lat="59.6897277763" lon="5.93413333518">
		<tag k="name" v="Sillalia" />
		<tag k="natural" v="slope" />
		<tag k="place" v="locality" />
		<tag k="ssr:stedsnr" v="98719" />
	</node>
	<node id="-517742" lat="59.7149444441" lon="5.94681111795">
		<tag k="alt_name" v="Tverhovda" />
		<tag k="name" v="Tverrhovda" />
		<tag k="natural" v="hill" />
		<tag k="place" v="locality" />
		<tag k="ssr:stedsnr" v="98667" />
	</node>
	<node id="-517740" lat="59.8664083363" lon="6.40989723012">
		<tag k="name" v="Tungene" />
		<tag k="natural" v="ridge" />
		<tag k="place" v="locality" />
		<tag k="ssr:stedsnr" v="98802" />
	</node>
	<node id="-517739" lat="59.7053000043" lon="5.87439999452">
		<tag k="name" v="Akslandsdjuvet" />
		<tag k="natural" v="gorge" />
		<tag k="ssr:stedsnr" v="98567" />
	</node>
	<node id="-517738" lat="59.7238222189" lon="5.90935276996">
		<tag k="name" v="Rindane" />
		<tag k="natural" v="ridge" />
		<tag k="place" v="locality" />
		<tag k="ssr:stedsnr" v="98565" />
	</node>
	<node id="-517737" lat="59.6420999983" lon="5.84921110967">
		<tag k="name" v="Kvitageito" />
		<tag k="place" v="locality" />
		<tag k="ssr:stedsnr" v="98559" />
	</node>
	<node id="-517735" lat="59.6785805528" lon="5.92774444906">
		<tag k="name" v="Fitjalia" />
		<tag k="natural" v="slope" />
		<tag k="place" v="locality" />
		<tag k="ssr:stedsnr" v="98617" />
	</node>
	<node id="-517734" lat="59.6740694459" lon="5.88495556241">
		<tag k="name" v="Brøllomslia" />
		<tag k="natural" v="slope" />
		<tag k="place" v="locality" />
		<tag k="ssr:stedsnr" v="98615" />
	</node>
	<node id="-517733" lat="59.6974138876" lon="6.05558888616">
		<tag k="name" v="Skrivarehaugen" />
		<tag k="natural" v="hill" />
		<tag k="place" v="locality" />
		<tag k="ssr:stedsnr" v="98426" />
	</node>
	<node id="-517732" lat="59.7299916684" lon="6.12672500463">
		<tag k="fixme" v="consider natural=peak for the most distinct mountains in the district" />
		<tag k="name" v="Drevåsen" />
		<tag k="natural" v="hill" />
		<tag k="place" v="locality" />
		<tag k="ssr:stedsnr" v="98416" />
	</node>
	<node id="-517731" lat="59.7441777755" lon="6.14811388264">
		<tag k="name" v="Blomtjørnhaugen" />
		<tag k="natural" v="hill" />
		<tag k="place" v="locality" />
		<tag k="ssr:stedsnr" v="98406" />
	</node>
	<node id="-517730" lat="59.7446805566" lon="6.12908054967">
		<tag k="name" v="Skarhaugane" />
		<tag k="natural" v="hill" />
		<tag k="place" v="locality" />
		<tag k="ssr:stedsnr" v="98404" />
	</node>
	<node id="-517729" lat="59.6936499999" lon="6.14368888591">
		<tag k="name" v="Bjørnalia" />
		<tag k="natural" v="slope" />
		<tag k="place" v="locality" />
		<tag k="ssr:stedsnr" v="98371" />
	</node>
	<node id="-517727" lat="59.7192722201" lon="6.07183055612">
		<tag k="name" v="Fossdjuvet" />
		<tag k="natural" v="gorge" />
		<tag k="ssr:stedsnr" v="98317" />
	</node>
	<node id="-517726" lat="59.7130833369" lon="6.16158333861">
		<tag k="fixme" v="consider natural=peak for the most distinct mountains in the district" />
		<tag k="name" v="Rugtveitnuten" />
		<tag k="natural" v="hill" />
		<tag k="ssr:stedsnr" v="98305" />
	</node>
	<node id="-517725" lat="59.7258833494" lon="5.94520902857">
		<tag k="name" v="Svehaugen" />
		<tag k="natural" v="hill" />
		<tag k="place" v="locality" />
		<tag k="ssr:stedsnr" v="98229" />
	</node>
	<node id="-517720" lat="59.7638611121" lon="6.20615277133">
		<tag k="name" v="Bratthei" />
		<tag k="natural" v="hill" />
		<tag k="place" v="locality" />
		<tag k="ssr:stedsnr" v="98018" />
	</node>
	<node id="-517719" lat="59.747752779" lon="6.2081500064">
		<tag k="name" v="Høgahaug" />
		<tag k="natural" v="hill" />
		<tag k="place" v="locality" />
		<tag k="ssr:stedsnr" v="98007" />
	</node>
	<node id="-517717" lat="59.9024888856" lon="6.29740277599">
		<tag k="fixme" v="consider natural=peak for the most distinct mountains in the district" />
		<tag k="name" v="Borga" />
		<tag k="natural" v="hill" />
		<tag k="place" v="locality" />
		<tag k="ssr:stedsnr" v="247444" />
	</node>
	<node id="-517716" lat="59.7560416657" lon="6.15020554838">
		<tag k="fixme" v="consider natural=peak for the most distinct mountains in the district" />
		<tag k="name" v="Skredkollen" />
		<tag k="natural" v="hill" />
		<tag k="place" v="locality" />
		<tag k="ssr:stedsnr" v="247394" />
	</node>
	<node id="-517715" lat="59.7539166697" lon="6.13056665801">
		<tag k="fixme" v="consider natural=peak for the most distinct mountains in the district" />
		<tag k="name" v="Brattåsen" />
		<tag k="natural" v="hill" />
		<tag k="place" v="locality" />
		<tag k="ssr:stedsnr" v="247392" />
	</node>
	<node id="-517714" lat="59.7724305581" lon="6.20747499407">
		<tag k="fixme" v="consider natural=peak for the most distinct mountains in the district" />
		<tag k="name" v="Reinsnuten" />
		<tag k="natural" v="hill" />
		<tag k="place" v="locality" />
		<tag k="ssr:stedsnr" v="247365" />
	</node>
	<node id="-517712" lat="59.8442111103" lon="6.21580556191">
		<tag k="name" v="Selborga" />
		<tag k="natural" v="slope" />
		<tag k="place" v="locality" />
		<tag k="ssr:stedsnr" v="247194" />
	</node>
	<node id="-517711" lat="59.8455305543" lon="6.34473333167">
		<tag k="alt_name" v="Sagjuvet" />
		<tag k="name" v="Saggjuvet" />
		<tag k="natural" v="valley" />
		<tag k="place" v="locality" />
		<tag k="ssr:stedsnr" v="247049" />
	</node>
	<node id="-517705" lat="59.6981027784" lon="5.95237499588">
		<tag k="alt_name" v="Stølehetta" />
		<tag k="fixme" v="consider natural=peak for the most distinct mountains in the district" />
		<tag k="name" v="Stødlehetta" />
		<tag k="natural" v="hill" />
		<tag k="ssr:stedsnr" v="246671" />
	</node>
	<node id="-517704" lat="59.7059333338" lon="5.98763610528">
		<tag k="fixme" v="consider natural=peak for the most distinct mountains in the district" />
		<tag k="name" v="Hovlandsskuten" />
		<tag k="natural" v="hill" />
		<tag k="place" v="locality" />
		<tag k="ssr:stedsnr" v="246660" />
	</node>
	<node id="-517701" lat="59.5953805517" lon="6.18622499423">
		<tag k="fixme" v="consider natural=peak for the most distinct mountains in the district" />
		<tag k="name" v="Grånuten" />
		<tag k="natural" v="hill" />
		<tag k="place" v="locality" />
		<tag k="ssr:stedsnr" v="246540" />
	</node>
	<node id="-517700" lat="59.6082083308" lon="6.11761666875">
		<tag k="fixme" v="consider natural=peak for the most distinct mountains in the district" />
		<tag k="name" v="Bjørndalsvida" />
		<tag k="natural" v="hill" />
		<tag k="place" v="locality" />
		<tag k="ssr:stedsnr" v="246528" />
	</node>
	<node id="-517699" lat="59.6080833376" lon="5.95828333642">
		<tag k="alt_name" v="Staurskarnibbene" />
		<tag k="fixme" v="consider natural=peak for the most distinct mountains in the district" />
		<tag k="name" v="Staurskorsnibbene" />
		<tag k="natural" v="hill" />
		<tag k="place" v="locality" />
		<tag k="ssr:stedsnr" v="246522" />
	</node>
	<node id="-517698" lat="59.6100305531" lon="5.95360276924">
		<tag k="alt_name" v="Steinfjell" />
		<tag k="fixme" v="consider natural=peak for the most distinct mountains in the district" />
		<tag k="name" v="Steinfjellet" />
		<tag k="natural" v="hill" />
		<tag k="place" v="locality" />
		<tag k="ssr:stedsnr" v="246521" />
	</node>
	<node id="-517692" lat="59.8790749989" lon="6.2240416713">
		<tag k="name" v="Skreddalen" />
		<tag k="natural" v="valley" />
		<tag k="place" v="locality" />
		<tag k="ssr:stedsnr" v="246457" />
	</node>
	<node id="-517691" lat="59.780105553" lon="6.17607500152">
		<tag k="alt_name" v="Dyrshaug" />
		<tag k="name" v="Dyrshaugen" />
		<tag k="natural" v="hill" />
		<tag k="place" v="locality" />
		<tag k="ssr:stedsnr" v="246341" />
	</node>
	<node id="-517681" lat="59.8337388858" lon="6.19123888495">
		<tag k="alt_name" v="Barlindejuvet" />
		<tag k="name" v="Barlindegjuvet" />
		<tag k="natural" v="valley" />
		<tag k="place" v="locality" />
		<tag k="ssr:stedsnr" v="65204" />
	</node>
	<node id="-517679" lat="59.632088888" lon="5.93224443834">
		<tag k="name" v="Sandalia" />
		<tag k="natural" v="slope" />
		<tag k="place" v="locality" />
		<tag k="ssr:stedsnr" v="64517" />
	</node>
	<node id="-517676" lat="59.9559666709" lon="6.38809999314">
		<tag k="fixme" v="consider natural=peak for the most distinct mountains in the district" />
		<tag k="name" v="Skorfestenuten" />
		<tag k="natural" v="hill" />
		<tag k="place" v="locality" />
		<tag k="ssr:stedsnr" v="64427" />
	</node>
	<node id="-517669" lat="59.7204916658" lon="5.94894722">
		<tag k="name" v="Tverrhovdebakken" />
		<tag k="natural" v="slope" />
		<tag k="place" v="locality" />
		<tag k="ssr:stedsnr" v="38673" />
	</node>
	<node id="-517667" lat="59.8083166646" lon="6.24607221368">
		<tag k="name" v="Rindo" />
		<tag k="natural" v="ridge" />
		<tag k="place" v="locality" />
		<tag k="ssr:stedsnr" v="38163" />
	</node>
	<node id="-517666" lat="59.8674527788" lon="6.34954722733">
		<tag k="name" v="Bastaskår" />
		<tag k="place" v="locality" />
		<tag k="ssr:stedsnr" v="37775" />
	</node>
	<node id="-517665" lat="59.8678333351" lon="6.35706944102">
		<tag k="alt_name" v="Raudnabb" />
		<tag k="name" v="Raudnabben" />
		<tag k="natural" v="hill" />
		<tag k="place" v="locality" />
		<tag k="ssr:stedsnr" v="37772" />
	</node>
	<node id="-517663" lat="59.7343305568" lon="5.91405555994">
		<tag k="name" v="Tolleivshaugane" />
		<tag k="natural" v="hill" />
		<tag k="place" v="locality" />
		<tag k="ssr:stedsnr" v="37759" />
	</node>
	<node id="-517662" lat="59.7551694404" lon="6.17345832928">
		<tag k="name" v="Skredalen" />
		<tag k="natural" v="valley" />
		<tag k="place" v="locality" />
		<tag k="ssr:stedsnr" v="38007" />
	</node>
	<node id="-517660" lat="59.7181222266" lon="5.94036111016">
		<tag k="name" v="Brattebrekka" />
		<tag k="natural" v="slope" />
		<tag k="place" v="locality" />
		<tag k="ssr:stedsnr" v="37669" />
	</node>
	<node id="-517659" lat="59.6672527785" lon="5.8265944487">
		<tag k="name" v="Nutabråtane" />
		<tag k="natural" v="slope" />
		<tag k="place" v="locality" />
		<tag k="ssr:stedsnr" v="37622" />
	</node>
	<node id="-517657" lat="59.7220194418" lon="6.21431110566">
		<tag k="name" v="Nedste Geitskar" />
		<tag k="natural" v="valley" />
		<tag k="place" v="locality" />
		<tag k="ssr:stedsnr" v="37522" />
	</node>
	<node id="-517655" lat="59.6683861072" lon="5.81904722424">
		<tag k="name" v="Nutabråto" />
		<tag k="natural" v="ridge" />
		<tag k="place" v="locality" />
		<tag k="ssr:stedsnr" v="37505" />
	</node>
	<node id="-517653" lat="59.7372833322" lon="6.04588611127">
		<tag k="name" v="Øvste Lågahaugen" />
		<tag k="natural" v="hill" />
		<tag k="place" v="locality" />
		<tag k="ssr:stedsnr" v="37355" />
	</node>
	<node id="-517652" lat="59.7343527811" lon="6.00751111779">
		<tag k="name" v="Tjodnahaugen" />
		<tag k="natural" v="hill" />
		<tag k="place" v="locality" />
		<tag k="ssr:stedsnr" v="37352" />
	</node>
	<node id="-517651" lat="59.7331416696" lon="5.96346667297">
		<tag k="fixme" v="consider natural=peak for the most distinct mountains in the district" />
		<tag k="name" v="Nutane" />
		<tag k="natural" v="hill" />
		<tag k="ssr:stedsnr" v="37269" />
	</node>
	<node id="-517649" lat="59.7414305543" lon="5.95938610656">
		<tag k="name" v="Vågadalen" />
		<tag k="natural" v="valley" />
		<tag k="place" v="locality" />
		<tag k="ssr:stedsnr" v="37257" />
	</node>
	<node id="-517646" lat="59.8263277758" lon="6.29456666552">
		<tag k="fixme" v="consider natural=peak for the most distinct mountains in the district" />
		<tag k="name" v="Middagsnuten" />
		<tag k="natural" v="hill" />
		<tag k="ssr:stedsnr" v="37202" />
	</node>
	<node id="-517644" lat="59.7910111084" lon="6.18813888789">
		<tag k="name" v="Trettegjuvet" />
		<tag k="natural" v="gorge" />
		<tag k="ssr:stedsnr" v="226025" />
	</node>
	<node id="-517640" lat="59.6169361137" lon="5.90888333919">
		<tag k="fixme" v="consider natural=peak for the most distinct mountains in the district" />
		<tag k="name" v="Keisarholla" />
		<tag k="natural" v="hill" />
		<tag k="place" v="locality" />
		<tag k="ssr:stedsnr" v="306505" />
	</node>
	<node id="-517639" lat="59.8795638852" lon="6.40031667401">
		<tag k="name" v="Øysteinskåra" />
		<tag k="place" v="locality" />
		<tag k="ssr:stedsnr" v="220834" />
	</node>
	<node id="-517637" lat="59.8810333375" lon="6.43579721586">
		<tag k="name" v="Kleivane" />
		<tag k="natural" v="slope" />
		<tag k="place" v="locality" />
		<tag k="ssr:stedsnr" v="220820" />
	</node>
	<node id="-517635" lat="59.6647527755" lon="6.02066388824">
		<tag k="name" v="Bergslio" />
		<tag k="natural" v="slope" />
		<tag k="place" v="locality" />
		<tag k="ssr:stedsnr" v="220750" />
	</node>
	<node id="-517634" lat="59.696938886" lon="6.06377777834">
		<tag k="name" v="Nordlihaugen" />
		<tag k="natural" v="hill" />
		<tag k="place" v="locality" />
		<tag k="ssr:stedsnr" v="220471" />
	</node>
	<node id="-517632" lat="59.7089166651" lon="6.1603472216">
		<tag k="name" v="Takskorane" />
		<tag k="natural" v="ridge" />
		<tag k="place" v="locality" />
		<tag k="ssr:stedsnr" v="220458" />
	</node>
	<node id="-517631" lat="59.7424361146" lon="6.04510000048">
		<tag k="name" v="Siseladalen" />
		<tag k="natural" v="valley" />
		<tag k="place" v="locality" />
		<tag k="ssr:stedsnr" v="220403" />
	</node>
	<node id="-517630" lat="59.7267944447" lon="6.00014166909">
		<tag k="alt_name" v="Gjeitstølsdjuvet" />
		<tag k="name" v="Geitstølsdjuvet" />
		<tag k="natural" v="gorge" />
		<tag k="ssr:stedsnr" v="220394" />
	</node>
	<node id="-517623" lat="59.8211666672" lon="6.25527499823">
		<tag k="name" v="Holmalia" />
		<tag k="natural" v="slope" />
		<tag k="place" v="locality" />
		<tag k="ssr:stedsnr" v="220270" />
	</node>
	<node id="-517621" lat="59.8568222252" lon="6.31119443848">
		<tag k="name" v="Benken" />
		<tag k="place" v="locality" />
		<tag k="ssr:stedsnr" v="220246" />
	</node>
	<node id="-517620" lat="59.8671194443" lon="6.30092500501">
		<tag k="name" v="Skidal" />
		<tag k="natural" v="valley" />
		<tag k="place" v="locality" />
		<tag k="ssr:stedsnr" v="220244" />
	</node>
	<node id="-517619" lat="59.8768916709" lon="6.38964166236">
		<tag k="name" v="Revaskår" />
		<tag k="place" v="locality" />
		<tag k="ssr:stedsnr" v="220237" />
	</node>
	<node id="-517618" lat="59.8770999964" lon="6.38210833123">
		<tag k="name" v="Lynghaug" />
		<tag k="natural" v="hill" />
		<tag k="place" v="locality" />
		<tag k="ssr:stedsnr" v="220233" />
	</node>
	<node id="-517617" lat="59.8089000008" lon="6.26149166712">
		<tag k="fixme" v="consider natural=peak for the most distinct mountains in the district" />
		<tag k="name" v="Såto" />
		<tag k="natural" v="hill" />
		<tag k="ssr:stedsnr" v="220199" />
	</node>
	<node id="-517616" lat="59.7973611082" lon="6.25232499673">
		<tag k="name" v="Rundehaugen" />
		<tag k="natural" v="hill" />
		<tag k="place" v="locality" />
		<tag k="ssr:stedsnr" v="220193" />
	</node>
	<node id="-517615" lat="59.7919000038" lon="6.2151222166">
		<tag k="name" v="Stordalen" />
		<tag k="natural" v="valley" />
		<tag k="place" v="locality" />
		<tag k="ssr:stedsnr" v="220183" />
	</node>
	<node id="-517614" lat="59.8526750024" lon="6.26334167058">
		<tag k="name" v="Skifteshaugen" />
		<tag k="natural" v="hill" />
		<tag k="place" v="locality" />
		<tag k="ssr:stedsnr" v="220149" />
	</node>
	<node id="-517613" lat="59.8495638927" lon="6.20280555526">
		<tag k="name" v="Vetlakvangen" />
		<tag k="place" v="locality" />
		<tag k="ssr:stedsnr" v="220148" />
	</node>
	<node id="-517610" lat="59.6573666693" lon="6.06383332786">
		<tag k="name" v="Halsneslia" />
		<tag k="natural" v="slope" />
		<tag k="place" v="locality" />
		<tag k="ssr:stedsnr" v="220002" />
	</node>
	<node id="-517609" lat="59.7162444402" lon="5.91929444276">
		<tag k="name" v="Teen" />
		<tag k="natural" v="hill" />
		<tag k="place" v="locality" />
		<tag k="ssr:stedsnr" v="219735" />
	</node>
	<node id="-517608" lat="59.7784555513" lon="6.14101944788">
		<tag k="name" v="Røssland" />
		<tag k="place" v="locality" />
		<tag k="ssr:stedsnr" v="220080" />
	</node>
	<node id="-517607" lat="59.7703055562" lon="6.1481388835">
		<tag k="name" v="Litle Skredalen" />
		<tag k="natural" v="valley" />
		<tag k="place" v="locality" />
		<tag k="ssr:stedsnr" v="220077" />
	</node>
	<node id="-517606" lat="59.6292777742" lon="5.8660805512">
		<tag k="name" v="Tjuahaugen" />
		<tag k="natural" v="hill" />
		<tag k="place" v="locality" />
		<tag k="ssr:stedsnr" v="219642" />
	</node>
	<node id="-517605" lat="59.6804222182" lon="5.93081944411">
		<tag k="name" v="Brakhaugrindo" />
		<tag k="natural" v="ridge" />
		<tag k="place" v="locality" />
		<tag k="ssr:stedsnr" v="219625" />
	</node>
	<node id="-517603" lat="59.6617527783" lon="5.8293944375">
		<tag k="name" v="Storli" />
		<tag k="natural" v="slope" />
		<tag k="place" v="locality" />
		<tag k="ssr:stedsnr" v="219611" />
	</node>
	<node id="-517596" lat="59.6510861106" lon="5.90616110573">
		<tag k="name" v="Galthaug" />
		<tag k="natural" v="hill" />
		<tag k="place" v="locality" />
		<tag k="ssr:stedsnr" v="219519" />
	</node>
	<node id="-517595" lat="59.6574611069" lon="5.9128694519">
		<tag k="fixme" v="consider natural=peak for the most distinct mountains in the district" />
		<tag k="name" v="Borgåsen" />
		<tag k="natural" v="hill" />
		<tag k="place" v="locality" />
		<tag k="ssr:stedsnr" v="219513" />
	</node>
	<node id="-517584" lat="59.7253805598" lon="6.12101944043">
		<tag k="name" v="Husaleitet" />
		<tag k="natural" v="slope" />
		<tag k="place" v="locality" />
		<tag k="ssr:stedsnr" v="219473" />
	</node>
	<node id="-517583" lat="59.6720944434" lon="5.79293889263">
		<tag k="name" v="Buhilder" />
		<tag k="place" v="locality" />
		<tag k="ssr:stedsnr" v="219450" />
	</node>
	<node id="-517582" lat="59.695697221" lon="6.133583333">
		<tag k="name" v="Søteskarsheia" />
		<tag k="natural" v="hill" />
		<tag k="place" v="locality" />
		<tag k="ssr:stedsnr" v="219432" />
	</node>
	<node id="-517581" lat="59.6934972245" lon="6.12100000843">
		<tag k="fixme" v="consider natural=peak for the most distinct mountains in the district" />
		<tag k="name" v="Kvamsnuten" />
		<tag k="natural" v="hill" />
		<tag k="ssr:stedsnr" v="219427" />
	</node>
	<node id="-517580" lat="59.6998166625" lon="6.13535833363">
		<tag k="fixme" v="consider natural=peak for the most distinct mountains in the district" />
		<tag k="name" v="Styggenuten" />
		<tag k="natural" v="hill" />
		<tag k="ssr:stedsnr" v="219425" />
	</node>
	<node id="-517579" lat="59.7553888923" lon="5.95332777489">
		<tag k="name" v="Krommedalshaugen" />
		<tag k="natural" v="hill" />
		<tag k="place" v="locality" />
		<tag k="ssr:stedsnr" v="219050" />
	</node>
	<node id="-517578" lat="59.759466668" lon="5.94121666873">
		<tag k="name" v="Krossberghaugen" />
		<tag k="natural" v="hill" />
		<tag k="place" v="locality" />
		<tag k="ssr:stedsnr" v="219045" />
	</node>
	<node id="-517577" lat="59.7572472256" lon="5.95108332973">
		<tag k="name" v="Krommedalen" />
		<tag k="natural" v="valley" />
		<tag k="place" v="locality" />
		<tag k="ssr:stedsnr" v="219039" />
	</node>
	<node id="-519537" lat="59.6958479737" lon="6.19735676078">
		<tag k="fixme" v="consider natural=peak for the most distinct mountains in the district" />
		<tag k="name" v="Sørnuten" />
		<tag k="natural" v="hill" />
		<tag k="ssr:stedsnr" v="971211" />
	</node>
	<node id="-519526" lat="59.9094527812" lon="6.38426111204">
		<tag k="name" v="Botnane" />
		<tag k="natural" v="valley" />
		<tag k="place" v="locality" />
		<tag k="ssr:stedsnr" v="854451" />
	</node>
	<node id="-519521" lat="59.8252250011" lon="6.13233611">
		<tag k="name" v="Småvatnedalen" />
		<tag k="natural" v="valley" />
		<tag k="place" v="locality" />
		<tag k="ssr:stedsnr" v="854191" />
	</node>
	<node id="-519517" lat="59.8385972211" lon="6.37175833506">
		<tag k="name" v="Langeli" />
		<tag k="natural" v="slope" />
		<tag k="place" v="locality" />
		<tag k="ssr:stedsnr" v="854037" />
	</node>
	<node id="-519514" lat="59.8559222196" lon="6.30968610603">
		<tag k="fixme" v="consider natural=peak for the most distinct mountains in the district" />
		<tag k="name" v="Heia" />
		<tag k="natural" v="hill" />
		<tag k="place" v="locality" />
		<tag k="ssr:stedsnr" v="854009" />
	</node>
	<node id="-519513" lat="59.8500194433" lon="6.29173333993">
		<tag k="fixme" v="consider natural=peak for the most distinct mountains in the district" />
		<tag k="name" v="Bråskotheia" />
		<tag k="natural" v="hill" />
		<tag k="place" v="locality" />
		<tag k="ssr:stedsnr" v="854008" />
	</node>
	<node id="-519512" lat="59.8535500044" lon="6.36516944131">
		<tag k="name" v="Skrøyvebotnen" />
		<tag k="natural" v="valley" />
		<tag k="place" v="locality" />
		<tag k="ssr:stedsnr" v="854001" />
	</node>
	<node id="-519508" lat="59.7024916688" lon="6.24491943588">
		<tag k="alt_name" v="Holsnanuten, søndre;Søndre Holsnanuten;Søre Halsnånuten" />
		<tag k="fixme" v="consider natural=peak for the most distinct mountains in the district" />
		<tag k="name" v="Søre Holsnanuten" />
		<tag k="natural" v="hill" />
		<tag k="place" v="locality" />
		<tag k="ssr:stedsnr" v="853963" />
	</node>
	<node id="-519503" lat="59.6421444434" lon="5.95581944712">
		<tag k="fixme" v="consider natural=peak for the most distinct mountains in the district" />
		<tag k="name" v="Grallsetehaugen" />
		<tag k="natural" v="hill" />
		<tag k="place" v="locality" />
		<tag k="ssr:stedsnr" v="853496" />
	</node>
	<node id="-519501" lat="59.9215388901" lon="6.34576388002">
		<tag k="fixme" v="consider natural=peak for the most distinct mountains in the district" />
		<tag k="name" v="Blomstølsskardnuten" />
		<tag k="natural" v="hill" />
		<tag k="place" v="locality" />
		<tag k="ssr:stedsnr" v="853449" />
	</node>
	<node id="-519499" lat="59.7970666704" lon="6.21297499465">
		<tag k="alt_name" v="Ripelsjuvet" />
		<tag k="name" v="Ripelsgjuvet" />
		<tag k="natural" v="valley" />
		<tag k="place" v="locality" />
		<tag k="ssr:stedsnr" v="853336" />
	</node>
	<node id="-519498" lat="59.7995000045" lon="6.20793889254">
		<tag k="alt_name" v="Klokkadalen" />
		<tag k="name" v="Klokkdalen" />
		<tag k="natural" v="valley" />
		<tag k="place" v="locality" />
		<tag k="ssr:stedsnr" v="853331" />
	</node>
	<node id="-519496" lat="59.8580527778" lon="6.12847499936">
		<tag k="name" v="Stordalen" />
		<tag k="natural" v="valley" />
		<tag k="place" v="locality" />
		<tag k="ssr:stedsnr" v="853133" />
	</node>
	<node id="-519480" lat="59.7384416675" lon="5.91196666397">
		<tag k="name" v="Hagahaug" />
		<tag k="natural" v="hill" />
		<tag k="place" v="locality" />
		<tag k="ssr:stedsnr" v="827863" />
	</node>
	<node id="-519479" lat="59.8576611077" lon="6.47849167541">
		<tag k="name" v="Stabbaheia" />
		<tag k="natural" v="hill" />
		<tag k="place" v="locality" />
		<tag k="ssr:stedsnr" v="827828" />
	</node>
	<node id="-519478" lat="59.8758750042" lon="6.41114444531">
		<tag k="name" v="Furuhaugen" />
		<tag k="natural" v="hill" />
		<tag k="place" v="locality" />
		<tag k="ssr:stedsnr" v="827826" />
	</node>
	<node id="-519477" lat="59.6310277813" lon="5.9763527797">
		<tag k="name" v="Legdene" />
		<tag k="place" v="locality" />
		<tag k="ssr:stedsnr" v="827786" />
	</node>
	<node id="-519476" lat="59.6515499973" lon="6.01761945128">
		<tag k="name" v="Grovadalen" />
		<tag k="natural" v="valley" />
		<tag k="place" v="locality" />
		<tag k="ssr:stedsnr" v="827701" />
	</node>
	<node id="-519475" lat="59.7227305561" lon="6.07086945193">
		<tag k="name" v="Stølsdalen" />
		<tag k="natural" v="valley" />
		<tag k="place" v="locality" />
		<tag k="ssr:stedsnr" v="827364" />
	</node>
	<node id="-519474" lat="59.7216833306" lon="6.10440277776">
		<tag k="name" v="Steingardshaug" />
		<tag k="natural" v="hill" />
		<tag k="place" v="locality" />
		<tag k="ssr:stedsnr" v="827351" />
	</node>
	<node id="-519471" lat="59.6965416691" lon="5.96224166704">
		<tag k="name" v="Stikksdalen" />
		<tag k="natural" v="valley" />
		<tag k="place" v="locality" />
		<tag k="ssr:stedsnr" v="827335" />
	</node>
	<node id="-519470" lat="59.6994916668" lon="5.97666944283">
		<tag k="name" v="Grønstadskute" />
		<tag k="place" v="locality" />
		<tag k="ssr:stedsnr" v="827334" />
	</node>
	<node id="-519469" lat="59.7190694423" lon="6.00702500349">
		<tag k="name" v="Middagskar" />
		<tag k="natural" v="valley" />
		<tag k="place" v="locality" />
		<tag k="ssr:stedsnr" v="827315" />
	</node>
	<node id="-519467" lat="59.6847222179" lon="6.03870556075">
		<tag k="name" v="Ramslia" />
		<tag k="natural" v="slope" />
		<tag k="place" v="locality" />
		<tag k="ssr:stedsnr" v="827294" />
	</node>
	<node id="-519466" lat="59.6816444419" lon="6.03144445078">
		<tag k="name" v="Ravnaklonkjen" />
		<tag k="place" v="locality" />
		<tag k="ssr:stedsnr" v="827288" />
	</node>
	<node id="-519463" lat="59.840377777" lon="6.32474722014">
		<tag k="name" v="Krolia" />
		<tag k="natural" v="slope" />
		<tag k="place" v="locality" />
		<tag k="ssr:stedsnr" v="827257" />
	</node>
	<node id="-519461" lat="59.8506277737" lon="6.29123888243">
		<tag k="fixme" v="consider natural=peak for the most distinct mountains in the district" />
		<tag k="name" v="Haukvamsnuten" />
		<tag k="natural" v="hill" />
		<tag k="ssr:stedsnr" v="827230" />
	</node>
	<node id="-519457" lat="59.7975805549" lon="6.20082223038">
		<tag k="name" v="Knussjuvet" />
		<tag k="natural" v="gorge" />
		<tag k="ssr:stedsnr" v="827202" />
	</node>
	<node id="-519454" lat="59.7499527818" lon="6.12454166556">
		<tag k="name" v="Storehaugen" />
		<tag k="natural" v="hill" />
		<tag k="place" v="locality" />
		<tag k="ssr:stedsnr" v="827036" />
	</node>
	<node id="-519453" lat="59.7515245331" lon="6.17948548921">
		<tag k="name" v="Viberhaugen" />
		<tag k="natural" v="hill" />
		<tag k="place" v="locality" />
		<tag k="ssr:stedsnr" v="827017" />
	</node>
	<node id="-519452" lat="59.8794305561" lon="6.49387500794">
		<tag k="name" v="Skår" />
		<tag k="place" v="locality" />
		<tag k="ssr:stedsnr" v="826773" />
	</node>
	<node id="-519451" lat="59.8713944459" lon="6.43571111888">
		<tag k="name" v="Storhaugen" />
		<tag k="natural" v="hill" />
		<tag k="place" v="locality" />
		<tag k="ssr:stedsnr" v="826771" />
	</node>
	<node id="-519450" lat="59.7038555513" lon="5.93388889212">
		<tag k="alt_name" v="Harahompane" />
		<tag k="name" v="Harahumpane" />
		<tag k="natural" v="hill" />
		<tag k="place" v="locality" />
		<tag k="ssr:stedsnr" v="826719" />
	</node>
	<node id="-519449" lat="59.6896111102" lon="5.91111110579">
		<tag k="name" v="Kop" />
		<tag k="place" v="locality" />
		<tag k="ssr:stedsnr" v="826703" />
	</node>
	<node id="-519447" lat="59.7274444456" lon="5.87427778338">
		<tag k="name" v="Øvraneset" />
		<tag k="natural" v="ridge" />
		<tag k="place" v="locality" />
		<tag k="ssr:stedsnr" v="826693" />
	</node>
	<node id="-519444" lat="59.6300111103" lon="5.91936111253">
		<tag k="name" v="Baso" />
		<tag k="place" v="locality" />
		<tag k="ssr:stedsnr" v="826628" />
	</node>
	<node id="-519443" lat="59.6645277811" lon="5.86784443602">
		<tag k="name" v="Rivåslia" />
		<tag k="natural" v="slope" />
		<tag k="place" v="locality" />
		<tag k="ssr:stedsnr" v="826593" />
	</node>
	<node id="-519442" lat="59.6627861084" lon="5.87349165917">
		<tag k="name" v="Dalsberget" />
		<tag k="natural" v="hill" />
		<tag k="place" v="locality" />
		<tag k="ssr:stedsnr" v="826589" />
	</node>
	<node id="-519441" lat="59.713975001" lon="5.93246943869">
		<tag k="name" v="Øvra Tjellelia" />
		<tag k="natural" v="slope" />
		<tag k="place" v="locality" />
		<tag k="ssr:stedsnr" v="826543" />
	</node>
	<node id="-519440" lat="59.7051527796" lon="5.84618611847">
		<tag k="name" v="Øredalen" />
		<tag k="natural" v="valley" />
		<tag k="place" v="locality" />
		<tag k="ssr:stedsnr" v="826536" />
	</node>
	<node id="-519439" lat="59.7199472191" lon="5.84654166465">
		<tag k="name" v="Longhaug" />
		<tag k="natural" v="hill" />
		<tag k="place" v="locality" />
		<tag k="ssr:stedsnr" v="826533" />
	</node>
	<node id="-519436" lat="59.6509222223" lon="5.93529721843">
		<tag k="name" v="Gaukskyrkja" />
		<tag k="place" v="locality" />
		<tag k="ssr:stedsnr" v="826517" />
	</node>
	<node id="-519435" lat="59.639844445" lon="5.86554721962">
		<tag k="name" v="Utstuskar" />
		<tag k="natural" v="valley" />
		<tag k="place" v="locality" />
		<tag k="ssr:stedsnr" v="826512" />
	</node>
	<node id="-519433" lat="59.7240444428" lon="6.18074166727">
		<tag k="name" v="Brakastigen" />
		<tag k="natural" v="slope" />
		<tag k="place" v="locality" />
		<tag k="ssr:stedsnr" v="826498" />
	</node>
	<node id="-519432" lat="59.7186277751" lon="6.18819444822">
		<tag k="name" v="Mulahaugen" />
		<tag k="natural" v="hill" />
		<tag k="place" v="locality" />
		<tag k="ssr:stedsnr" v="826491" />
	</node>
	<node id="-519431" lat="59.6761444398" lon="5.79780554858">
		<tag k="name" v="Dalshovda" />
		<tag k="natural" v="hill" />
		<tag k="place" v="locality" />
		<tag k="ssr:stedsnr" v="826464" />
	</node>
	<node id="-519430" lat="59.7009999969" lon="6.11544166418">
		<tag k="name" v="Hardingehaugen" />
		<tag k="natural" v="hill" />
		<tag k="place" v="locality" />
		<tag k="ssr:stedsnr" v="826444" />
	</node>
	<node id="-519429" lat="59.7014388929" lon="6.1010111132">
		<tag k="name" v="Klubbane" />
		<tag k="natural" v="ridge" />
		<tag k="place" v="locality" />
		<tag k="ssr:stedsnr" v="826438" />
	</node>
	<node id="-519428" lat="59.7043944406" lon="6.13376388248">
		<tag k="name" v="Øygardslia" />
		<tag k="natural" v="slope" />
		<tag k="place" v="locality" />
		<tag k="ssr:stedsnr" v="826423" />
	</node>
	<node id="-519427" lat="59.7366305594" lon="6.15667499472">
		<tag k="name" v="Musastegane" />
		<tag k="natural" v="hill" />
		<tag k="place" v="locality" />
		<tag k="ssr:stedsnr" v="826413" />
	</node>
	<node id="-519426" lat="59.7332111111" lon="6.06015000019">
		<tag k="name" v="Mariberget" />
		<tag k="natural" v="hill" />
		<tag k="place" v="locality" />
		<tag k="ssr:stedsnr" v="826395" />
	</node>
	<node id="-519425" lat="59.7390916684" lon="6.07662500624">
		<tag k="name" v="Turkhus" />
		<tag k="place" v="locality" />
		<tag k="ssr:stedsnr" v="826391" />
	</node>
	<node id="-519423" lat="59.7083421312" lon="6.15350342239">
		<tag k="name" v="Jarnflot" />
		<tag k="place" v="locality" />
		<tag k="ssr:stedsnr" v="826342" />
	</node>
	<node id="-519421" lat="59.9135166664" lon="6.31388056148">
		<tag k="fixme" v="consider natural=peak for the most distinct mountains in the district" />
		<tag k="name" v="Kvannbakkenuten" />
		<tag k="natural" v="hill" />
		<tag k="place" v="locality" />
		<tag k="ssr:stedsnr" v="793502" />
	</node>
	<node id="-519420" lat="59.7584888861" lon="6.1806833403">
		<tag k="name" v="Bjørnadalane" />
		<tag k="natural" v="valley" />
		<tag k="place" v="locality" />
		<tag k="ssr:stedsnr" v="793424" />
	</node>
	<node id="-519419" lat="59.7689499971" lon="6.21257777478">
		<tag k="fixme" v="consider natural=peak for the most distinct mountains in the district" />
		<tag k="name" v="Lassalifjellet" />
		<tag k="natural" v="hill" />
		<tag k="place" v="locality" />
		<tag k="ssr:stedsnr" v="793400" />
	</node>
	<node id="-519418" lat="59.7678000004" lon="6.1473166736">
		<tag k="alt_name" v="Ravnaheia" />
		<tag k="name" v="Ramnaheia" />
		<tag k="natural" v="hill" />
		<tag k="place" v="locality" />
		<tag k="ssr:stedsnr" v="793394" />
	</node>
	<node id="-519417" lat="59.7967027758" lon="6.41977222012">
		<tag k="fixme" v="consider natural=peak for the most distinct mountains in the district" />
		<tag k="name" v="Svartenut" />
		<tag k="natural" v="hill" />
		<tag k="place" v="locality" />
		<tag k="ssr:stedsnr" v="793069" />
	</node>
	<node id="-519413" lat="59.8372888882" lon="6.38817778161">
		<tag k="name" v="Blomstølsskard" />
		<tag k="natural" v="valley" />
		<tag k="place" v="locality" />
		<tag k="ssr:stedsnr" v="793029" />
	</node>
	<node id="-519402" lat="59.7238111104" lon="6.1027777717">
		<tag k="alt_name" v="Litlahovda" />
		<tag k="fixme" v="consider natural=peak for the most distinct mountains in the district" />
		<tag k="name" v="Litlehovda" />
		<tag k="natural" v="hill" />
		<tag k="place" v="locality" />
		<tag k="ssr:stedsnr" v="792650" />
	</node>
	<node id="-519394" lat="59.7799666663" lon="6.18836943851">
		<tag k="alt_name" v="Dømmersnuten" />
		<tag k="name" v="Daurmålsnuten" />
		<tag k="natural" v="hill" />
		<tag k="place" v="locality" />
		<tag k="ssr:stedsnr" v="792340" />
	</node>
	<node id="-519393" lat="59.7826277746" lon="6.20875000574">
		<tag k="name" v="Solrinda" />
		<tag k="natural" v="hill" />
		<tag k="place" v="locality" />
		<tag k="ssr:stedsnr" v="792337" />
	</node>
	<node id="-519389" lat="59.8222694422" lon="6.34655000322">
		<tag k="name" v="Vaulaheia" />
		<tag k="natural" v="hill" />
		<tag k="place" v="locality" />
		<tag k="ssr:stedsnr" v="792097" />
	</node>
	<node id="-519387" lat="59.8303166704" lon="6.3441250076">
		<tag k="name" v="Langfossdalen" />
		<tag k="natural" v="valley" />
		<tag k="place" v="locality" />
		<tag k="ssr:stedsnr" v="792047" />
	</node>
	<node id="-519385" lat="59.6719861096" lon="5.79731110486">
		<tag k="name" v="Dalsberga" />
		<tag k="natural" v="hill" />
		<tag k="place" v="locality" />
		<tag k="ssr:stedsnr" v="792036" />
	</node>
	<node id="-519372" lat="59.6749055557" lon="6.01368054709">
		<tag k="name" v="Lindeberg" />
		<tag k="natural" v="hill" />
		<tag k="place" v="locality" />
		<tag k="ssr:stedsnr" v="766651" />
	</node>
	<node id="-519369" lat="59.7051194421" lon="5.98150833352">
		<tag k="name" v="Takhaug" />
		<tag k="natural" v="hill" />
		<tag k="place" v="locality" />
		<tag k="ssr:stedsnr" v="766288" />
	</node>
	<node id="-519368" lat="59.7091749967" lon="6.04796666925">
		<tag k="name" v="Havrastigen" />
		<tag k="natural" v="hill" />
		<tag k="place" v="locality" />
		<tag k="ssr:stedsnr" v="766280" />
	</node>
	<node id="-519364" lat="59.8433444436" lon="6.20841666074">
		<tag k="fixme" v="consider natural=peak for the most distinct mountains in the district" />
		<tag k="name" v="Krossbygda" />
		<tag k="natural" v="hill" />
		<tag k="place" v="locality" />
		<tag k="ssr:stedsnr" v="766138" />
	</node>
	<node id="-519362" lat="59.8648777787" lon="6.41956945306">
		<tag k="name" v="Tretteteigen" />
		<tag k="place" v="locality" />
		<tag k="ssr:stedsnr" v="765794" />
	</node>
	<node id="-519360" lat="59.871766667" lon="6.449074998">
		<tag k="name" v="Klokken" />
		<tag k="place" v="locality" />
		<tag k="ssr:stedsnr" v="765768" />
	</node>
	<node id="-519359" lat="59.862161115" lon="6.36648054994">
		<tag k="name" v="Ømbeshaugen" />
		<tag k="natural" v="hill" />
		<tag k="place" v="locality" />
		<tag k="ssr:stedsnr" v="765760" />
	</node>
	<node id="-519358" lat="59.8753694486" lon="6.44398055019">
		<tag k="name" v="Storenakken" />
		<tag k="natural" v="ridge" />
		<tag k="place" v="locality" />
		<tag k="ssr:stedsnr" v="765754" />
	</node>
	<node id="-519357" lat="59.724772226" lon="5.88440832444">
		<tag k="name" v="Dauadalen" />
		<tag k="natural" v="valley" />
		<tag k="place" v="locality" />
		<tag k="ssr:stedsnr" v="765744" />
	</node>
	<node id="-519355" lat="59.5933972247" lon="5.9721805553">
		<tag k="name" v="Skarhaugen" />
		<tag k="natural" v="hill" />
		<tag k="place" v="locality" />
		<tag k="ssr:stedsnr" v="765738" />
	</node>
	<node id="-519354" lat="59.708724996" lon="5.92950277451">
		<tag k="name" v="Trasdalane" />
		<tag k="natural" v="valley" />
		<tag k="place" v="locality" />
		<tag k="ssr:stedsnr" v="765711" />
	</node>
	<node id="-519353" lat="59.6879249992" lon="5.87568889157">
		<tag k="name" v="Plomlia" />
		<tag k="natural" v="slope" />
		<tag k="place" v="locality" />
		<tag k="ssr:stedsnr" v="765705" />
	</node>
	<node id="-519352" lat="59.6993749965" lon="5.92315555219">
		<tag k="name" v="Ulveskar" />
		<tag k="natural" v="valley" />
		<tag k="place" v="locality" />
		<tag k="ssr:stedsnr" v="765691" />
	</node>
	<node id="-519351" lat="59.7247888874" lon="5.87663055544">
		<tag k="fixme" v="consider natural=peak for the most distinct mountains in the district" />
		<tag k="name" v="Vassåsen" />
		<tag k="natural" v="hill" />
		<tag k="place" v="locality" />
		<tag k="ssr:stedsnr" v="765684" />
	</node>
	<node id="-519348" lat="59.6730305585" lon="5.87583888474">
		<tag k="name" v="Litle-Hovda" />
		<tag k="natural" v="hill" />
		<tag k="place" v="locality" />
		<tag k="ssr:stedsnr" v="765573" />
	</node>
	<node id="-519347" lat="59.6633333339" lon="5.81596666365">
		<tag k="name" v="Hetto" />
		<tag k="place" v="locality" />
		<tag k="ssr:stedsnr" v="765444" />
	</node>
	<node id="-519346" lat="59.6842111132" lon="6.13634721511">
		<tag k="name" v="Varabrekko" />
		<tag k="natural" v="slope" />
		<tag k="place" v="locality" />
		<tag k="ssr:stedsnr" v="765428" />
	</node>
	<node id="-519345" lat="59.6844472182" lon="6.15958610734">
		<tag k="name" v="Olshaug" />
		<tag k="natural" v="hill" />
		<tag k="place" v="locality" />
		<tag k="ssr:stedsnr" v="765426" />
	</node>
	<node id="-519343" lat="59.7341500012" lon="6.13587777845">
		<tag k="name" v="Kagahaugen" />
		<tag k="natural" v="hill" />
		<tag k="place" v="locality" />
		<tag k="ssr:stedsnr" v="765393" />
	</node>
	<node id="-519342" lat="59.7350138846" lon="6.1373277785">
		<tag k="name" v="Myssmørkleiv" />
		<tag k="natural" v="slope" />
		<tag k="place" v="locality" />
		<tag k="ssr:stedsnr" v="765389" />
	</node>
	<node id="-519335" lat="59.852841663" lon="6.31677221866">
		<tag k="fixme" v="consider natural=peak for the most distinct mountains in the district" />
		<tag k="name" v="Ullanuten" />
		<tag k="natural" v="hill" />
		<tag k="ssr:stedsnr" v="765189" />
	</node>
	<node id="-519334" lat="59.8430527792" lon="6.3567666693">
		<tag k="name" v="Geitajuvet" />
		<tag k="natural" v="gorge" />
		<tag k="ssr:stedsnr" v="765188" />
	</node>
	<node id="-519327" lat="59.7450138923" lon="5.94764999259">
		<tag k="fixme" v="consider natural=peak for the most distinct mountains in the district" />
		<tag k="name" v="Åsen" />
		<tag k="natural" v="hill" />
		<tag k="place" v="locality" />
		<tag k="ssr:stedsnr" v="644847" />
	</node>
	<node id="-519325" lat="59.7162833332" lon="6.10202221754">
		<tag k="name" v="Kukkeli" />
		<tag k="natural" v="slope" />
		<tag k="place" v="locality" />
		<tag k="ssr:stedsnr" v="644844" />
	</node>
	<node id="-519324" lat="59.867813889" lon="6.4756555615">
		<tag k="name" v="Bjørnabakkane" />
		<tag k="natural" v="slope" />
		<tag k="place" v="locality" />
		<tag k="ssr:stedsnr" v="644818" />
	</node>
	<node id="-519323" lat="59.8613194425" lon="6.47169721469">
		<tag k="name" v="Tjørnhaug" />
		<tag k="natural" v="hill" />
		<tag k="place" v="locality" />
		<tag k="ssr:stedsnr" v="644816" />
	</node>
	<node id="-519322" lat="59.8820861122" lon="6.40906667442">
		<tag k="fixme" v="consider natural=peak for the most distinct mountains in the district" />
		<tag k="name" v="Svenut" />
		<tag k="natural" v="hill" />
		<tag k="ssr:stedsnr" v="644809" />
	</node>
	<node id="-519321" lat="59.8627583296" lon="6.34701667072">
		<tag k="name" v="Terneberga" />
		<tag k="natural" v="hill" />
		<tag k="place" v="locality" />
		<tag k="ssr:stedsnr" v="644795" />
	</node>
	<node id="-519320" lat="59.8592861077" lon="6.34125277815">
		<tag k="name" v="Heia" />
		<tag k="natural" v="hill" />
		<tag k="place" v="locality" />
		<tag k="ssr:stedsnr" v="644792" />
	</node>
	<node id="-519319" lat="59.6340861097" lon="6.0166777831">
		<tag k="name" v="Auastadlia" />
		<tag k="natural" v="slope" />
		<tag k="place" v="locality" />
		<tag k="ssr:stedsnr" v="644754" />
	</node>
	<node id="-519317" lat="59.6769694443" lon="6.02819444816">
		<tag k="name" v="Ugleskard" />
		<tag k="natural" v="valley" />
		<tag k="place" v="locality" />
		<tag k="ssr:stedsnr" v="644717" />
	</node>
	<node id="-519316" lat="59.6569444406" lon="5.97753888429">
		<tag k="alt_name" v="Steinsheio" />
		<tag k="name" v="Steinsheia" />
		<tag k="natural" v="hill" />
		<tag k="place" v="locality" />
		<tag k="ssr:stedsnr" v="644708" />
	</node>
	<node id="-519314" lat="59.6340555539" lon="5.85330277184">
		<tag k="name" v="Stølshaugen" />
		<tag k="natural" v="hill" />
		<tag k="place" v="locality" />
		<tag k="ssr:stedsnr" v="644664" />
	</node>
	<node id="-519313" lat="59.6778138846" lon="5.92029721695">
		<tag k="name" v="Barmen" />
		<tag k="place" v="locality" />
		<tag k="ssr:stedsnr" v="644653" />
	</node>
	<node id="-519310" lat="59.7233444476" lon="6.17665833644">
		<tag k="name" v="Brekko" />
		<tag k="natural" v="slope" />
		<tag k="place" v="locality" />
		<tag k="ssr:stedsnr" v="644527" />
	</node>
	<node id="-519309" lat="59.6742194401" lon="5.78516111063">
		<tag k="name" v="Leggen" />
		<tag k="place" v="locality" />
		<tag k="ssr:stedsnr" v="644486" />
	</node>
	<node id="-519308" lat="59.7358472222" lon="6.20583055122">
		<tag k="name" v="Samastad" />
		<tag k="place" v="locality" />
		<tag k="ssr:stedsnr" v="644473" />
	</node>
	<node id="-519307" lat="59.7312305579" lon="6.19993610338">
		<tag k="name" v="Låven" />
		<tag k="place" v="locality" />
		<tag k="ssr:stedsnr" v="644472" />
	</node>
	<node id="-519305" lat="59.744252776" lon="6.13682221468">
		<tag k="name" v="Elshovd" />
		<tag k="natural" v="hill" />
		<tag k="place" v="locality" />
		<tag k="ssr:stedsnr" v="644425" />
	</node>
	<node id="-519303" lat="59.7365194413" lon="6.10701111939">
		<tag k="loc_name" v="Furehaugen" />
		<tag k="name" v="Furuhaug" />
		<tag k="natural" v="hill" />
		<tag k="place" v="locality" />
		<tag k="ssr:stedsnr" v="644403" />
	</node>
	<node id="-519302" lat="59.7322361156" lon="6.06965556375">
		<tag k="fixme" v="consider natural=peak for the most distinct mountains in the district" />
		<tag k="name" v="Trollåsen" />
		<tag k="natural" v="hill" />
		<tag k="place" v="locality" />
		<tag k="ssr:stedsnr" v="644402" />
	</node>
	<node id="-519301" lat="59.7028361092" lon="6.1217583419">
		<tag k="name" v="Trettetungo" />
		<tag k="natural" v="ridge" />
		<tag k="place" v="locality" />
		<tag k="ssr:stedsnr" v="644395" />
	</node>
	<node id="-519298" lat="59.7035472196" lon="5.96918055357">
		<tag k="name" v="Skjeldalsskar" />
		<tag k="natural" v="valley" />
		<tag k="place" v="locality" />
		<tag k="ssr:stedsnr" v="644292" />
	</node>
	<node id="-519297" lat="59.7128222253" lon="6.02588611043">
		<tag k="name" v="Varadalen" />
		<tag k="natural" v="valley" />
		<tag k="place" v="locality" />
		<tag k="ssr:stedsnr" v="644285" />
	</node>
	<node id="-519295" lat="59.6856361088" lon="5.99586944764">
		<tag k="fixme" v="consider natural=peak for the most distinct mountains in the district" />
		<tag k="name" v="Åsane" />
		<tag k="natural" v="hill" />
		<tag k="place" v="locality" />
		<tag k="ssr:stedsnr" v="644264" />
	</node>
	<node id="-519293" lat="59.8432777805" lon="6.26504444895">
		<tag k="name" v="Såto" />
		<tag k="natural" v="hill" />
		<tag k="place" v="locality" />
		<tag k="ssr:stedsnr" v="644251" />
	</node>
	<node id="-519292" lat="59.827116668" lon="6.28278888391">
		<tag k="name" v="Gaupeskår" />
		<tag k="place" v="locality" />
		<tag k="ssr:stedsnr" v="644218" />
	</node>
	<node id="-519291" lat="59.8321583341" lon="6.32202499459">
		<tag k="name" v="Furokamben" />
		<tag k="place" v="locality" />
		<tag k="ssr:stedsnr" v="644211" />
	</node>
	<node id="-519290" lat="59.876775004" lon="6.37765278195">
		<tag k="name" v="Verapollen" />
		<tag k="place" v="locality" />
		<tag k="ssr:stedsnr" v="644192" />
	</node>
	<node id="-519288" lat="59.7957722258" lon="6.2596527747">
		<tag k="name" v="Fagerskarheia" />
		<tag k="natural" v="hill" />
		<tag k="place" v="locality" />
		<tag k="ssr:stedsnr" v="644156" />
	</node>
	<node id="-519286" lat="59.7138694461" lon="5.96261111682">
		<tag k="loc_name" v="Søre Furehaugen" />
		<tag k="name" v="Furuhaug søndre" />
		<tag k="natural" v="hill" />
		<tag k="place" v="locality" />
		<tag k="ssr:stedsnr" v="644092" />
	</node>
	<node id="-519285" lat="59.654269443" lon="6.08528610703">
		<tag k="name" v="Mårdalen" />
		<tag k="natural" v="valley" />
		<tag k="place" v="locality" />
		<tag k="ssr:stedsnr" v="644080" />
	</node>
	<node id="-519284" lat="59.9064388852" lon="6.49837499224">
		<tag k="name" v="Mjølkehagen" />
		<tag k="place" v="locality" />
		<tag k="ssr:stedsnr" v="644068" />
	</node>
	<node id="-519283" lat="59.7688166698" lon="6.1398499919">
		<tag k="name" v="Dyrshaugane" />
		<tag k="natural" v="hill" />
		<tag k="place" v="locality" />
		<tag k="ssr:stedsnr" v="644049" />
	</node>
	<node id="-519281" lat="59.7466111068" lon="6.12835555039">
		<tag k="name" v="Halvgjenge" />
		<tag k="place" v="locality" />
		<tag k="ssr:stedsnr" v="644027" />
	</node>
	<node id="-519279" lat="59.634586113" lon="5.98502500337">
		<tag k="name" v="Kro" />
		<tag k="place" v="locality" />
		<tag k="ssr:stedsnr" v="643729" />
	</node>
	<node id="-519278" lat="59.7148055533" lon="5.9205666696">
		<tag k="name" v="Kjerringedommen" />
		<tag k="place" v="locality" />
		<tag k="ssr:stedsnr" v="643703" />
	</node>
	<node id="-519277" lat="59.682908331" lon="5.84540000675">
		<tag k="name" v="Sønnferlia" />
		<tag k="natural" v="slope" />
		<tag k="place" v="locality" />
		<tag k="ssr:stedsnr" v="643695" />
	</node>
	<node id="-519274" lat="59.710702781" lon="5.91104443672">
		<tag k="name" v="Fakset" />
		<tag k="place" v="locality" />
		<tag k="ssr:stedsnr" v="643526" />
	</node>
	<node id="-519273" lat="59.7175194401" lon="5.87516388867">
		<tag k="name" v="Varhaug" />
		<tag k="natural" v="hill" />
		<tag k="place" v="locality" />
		<tag k="ssr:stedsnr" v="643519" />
	</node>
	<node id="-519272" lat="59.6789888933" lon="5.79470555506">
		<tag k="name" v="Mauratuhaugen" />
		<tag k="natural" v="hill" />
		<tag k="place" v="locality" />
		<tag k="ssr:stedsnr" v="643432" />
	</node>
	<node id="-519270" lat="59.7530194441" lon="5.95508888728">
		<tag k="name" v="Hetlelia" />
		<tag k="natural" v="slope" />
		<tag k="place" v="locality" />
		<tag k="ssr:stedsnr" v="643074" />
	</node>
	<node id="-519269" lat="59.7589055591" lon="6.12905276911">
		<tag k="name" v="Lemhaugen" />
		<tag k="natural" v="hill" />
		<tag k="place" v="locality" />
		<tag k="ssr:stedsnr" v="643040" />
	</node>
	<node id="-519263" lat="59.765725001" lon="6.13478610716">
		<tag k="name" v="Vidjehaugen" />
		<tag k="natural" v="hill" />
		<tag k="place" v="locality" />
		<tag k="ssr:stedsnr" v="610406" />
	</node>
	<node id="-519261" lat="59.7619055584" lon="6.28202499768">
		<tag k="fixme" v="consider natural=peak for the most distinct mountains in the district" />
		<tag k="name" v="Den gråa horga" />
		<tag k="natural" v="hill" />
		<tag k="place" v="locality" />
		<tag k="ssr:stedsnr" v="610143" />
	</node>
	<node id="-519258" lat="59.8397583321" lon="6.13787499892">
		<tag k="name" v="Skavheia" />
		<tag k="natural" v="hill" />
		<tag k="place" v="locality" />
		<tag k="ssr:stedsnr" v="610229" />
	</node>
	<node id="-519257" lat="59.853800002" lon="6.17803055021">
		<tag k="fixme" v="consider natural=peak for the most distinct mountains in the district" />
		<tag k="name" v="Bjellandsnuten" />
		<tag k="natural" v="hill" />
		<tag k="place" v="locality" />
		<tag k="ssr:stedsnr" v="610195" />
	</node>
	<node id="-519255" lat="59.806413886" lon="6.44188333533">
		<tag k="alt_name" v="Kvannurnuten" />
		<tag k="fixme" v="consider natural=peak for the most distinct mountains in the district" />
		<tag k="name" v="Kvannurdenuten" />
		<tag k="natural" v="hill" />
		<tag k="place" v="locality" />
		<tag k="ssr:stedsnr" v="610089" />
	</node>
	<node id="-519253" lat="59.7924777762" lon="6.41972222292">
		<tag k="fixme" v="consider natural=peak for the most distinct mountains in the district" />
		<tag k="name" v="Helgedalsnuten" />
		<tag k="natural" v="hill" />
		<tag k="place" v="locality" />
		<tag k="ssr:stedsnr" v="610074" />
	</node>
	<node id="-519242" lat="59.6983583323" lon="6.01596389348">
		<tag k="name" v="Vindhovda" />
		<tag k="natural" v="hill" />
		<tag k="place" v="locality" />
		<tag k="ssr:stedsnr" v="609668" />
	</node>
	<node id="-519235" lat="59.6628333343" lon="6.08233610786">
		<tag k="name" v="Sulia" />
		<tag k="natural" v="slope" />
		<tag k="place" v="locality" />
		<tag k="ssr:stedsnr" v="583836" />
	</node>
	<node id="-519234" lat="59.8824583366" lon="6.42713333567">
		<tag k="name" v="Furutein" />
		<tag k="place" v="locality" />
		<tag k="ssr:stedsnr" v="583811" />
	</node>
	<node id="-519232" lat="59.8631944489" lon="6.40543055912">
		<tag k="name" v="Geitarusta" />
		<tag k="natural" v="hill" />
		<tag k="place" v="locality" />
		<tag k="ssr:stedsnr" v="583794" />
	</node>
	<node id="-519230" lat="59.6427555579" lon="6.02321110347">
		<tag k="name" v="Kaldheimsdjuvet" />
		<tag k="natural" v="gorge" />
		<tag k="ssr:stedsnr" v="583650" />
	</node>
	<node id="-519229" lat="59.6608472216" lon="5.97747222118">
		<tag k="name" v="Steinshagen" />
		<tag k="place" v="locality" />
		<tag k="ssr:stedsnr" v="583614" />
	</node>
	<node id="-519228" lat="59.6710750019" lon="5.989880555">
		<tag k="name" v="Lonsdalen" />
		<tag k="natural" v="valley" />
		<tag k="place" v="locality" />
		<tag k="ssr:stedsnr" v="583613" />
	</node>
	<node id="-519226" lat="59.6294277788" lon="5.86864722725">
		<tag k="name" v="Rådalen" />
		<tag k="natural" v="valley" />
		<tag k="place" v="locality" />
		<tag k="ssr:stedsnr" v="583605" />
	</node>
	<node id="-519225" lat="59.666108335" lon="5.86239722746">
		<tag k="name" v="Hovda" />
		<tag k="natural" v="hill" />
		<tag k="place" v="locality" />
		<tag k="ssr:stedsnr" v="583591" />
	</node>
	<node id="-519224" lat="59.8633694463" lon="6.3411361154">
		<tag k="name" v="Lyraholet" />
		<tag k="natural" v="valley" />
		<tag k="place" v="locality" />
		<tag k="ssr:stedsnr" v="583755" />
	</node>
	<node id="-519223" lat="59.6974472247" lon="5.89355278367">
		<tag k="name" v="Halvgjenge" />
		<tag k="natural" v="hill" />
		<tag k="place" v="locality" />
		<tag k="ssr:stedsnr" v="583692" />
	</node>
	<node id="-519221" lat="59.6969527775" lon="6.12208055604">
		<tag k="name" v="Rusto" />
		<tag k="natural" v="ridge" />
		<tag k="place" v="locality" />
		<tag k="ssr:stedsnr" v="583440" />
	</node>
	<node id="-519220" lat="59.6872222193" lon="6.06359166326">
		<tag k="name" v="Kolalia" />
		<tag k="natural" v="slope" />
		<tag k="place" v="locality" />
		<tag k="ssr:stedsnr" v="583433" />
	</node>
	<node id="-519219" lat="59.7290750028" lon="6.12873611813">
		<tag k="name" v="Tryglakleiv" />
		<tag k="natural" v="slope" />
		<tag k="place" v="locality" />
		<tag k="ssr:stedsnr" v="583412" />
	</node>
	<node id="-519218" lat="59.7211833328" lon="5.91180832594">
		<tag k="name" v="Sadalen" />
		<tag k="natural" v="valley" />
		<tag k="place" v="locality" />
		<tag k="ssr:stedsnr" v="583549" />
	</node>
	<node id="-519217" lat="59.654166668" lon="5.82754444441">
		<tag k="name" v="Sønndalen" />
		<tag k="natural" v="valley" />
		<tag k="place" v="locality" />
		<tag k="ssr:stedsnr" v="583544" />
	</node>
	<node id="-519214" lat="59.6395388904" lon="5.8946083297">
		<tag k="name" v="Beinhaug" />
		<tag k="natural" v="hill" />
		<tag k="place" v="locality" />
		<tag k="ssr:stedsnr" v="583526" />
	</node>
	<node id="-519213" lat="59.6444833291" lon="5.93194444271">
		<tag k="name" v="Grepshaug" />
		<tag k="natural" v="hill" />
		<tag k="place" v="locality" />
		<tag k="ssr:stedsnr" v="583525" />
	</node>
	<node id="-519212" lat="59.7297694447" lon="5.98485554779">
		<tag k="name" v="Madladjuvet" />
		<tag k="natural" v="gorge" />
		<tag k="ssr:stedsnr" v="583242" />
	</node>
	<node id="-519211" lat="59.7421750035" lon="5.94807778135">
		<tag k="name" v="Vedladalen" />
		<tag k="natural" v="valley" />
		<tag k="place" v="locality" />
		<tag k="ssr:stedsnr" v="583236" />
	</node>
	<node id="-519210" lat="59.7259196703" lon="5.94034098483">
		<tag k="alt_name" v="Porkehaugen" />
		<tag k="name" v="Purkehaugen" />
		<tag k="natural" v="hill" />
		<tag k="place" v="locality" />
		<tag k="ssr:stedsnr" v="583234" />
	</node>
	<node id="-519208" lat="59.6846388935" lon="5.99946389647">
		<tag k="name" v="Øktarehaug" />
		<tag k="natural" v="hill" />
		<tag k="place" v="locality" />
		<tag k="ssr:stedsnr" v="583228" />
	</node>
	<node id="-519204" lat="59.8282944423" lon="6.25164723011">
		<tag k="name" v="Skarvhaugane" />
		<tag k="natural" v="hill" />
		<tag k="place" v="locality" />
		<tag k="ssr:stedsnr" v="583200" />
	</node>
	<node id="-519202" lat="59.7359805592" lon="6.09656111296">
		<tag k="name" v="Kviteberglia" />
		<tag k="natural" v="slope" />
		<tag k="place" v="locality" />
		<tag k="ssr:stedsnr" v="583382" />
	</node>
	<node id="-519200" lat="59.6991861139" lon="5.96075000201">
		<tag k="name" v="Kåpeskar" />
		<tag k="natural" v="valley" />
		<tag k="place" v="locality" />
		<tag k="ssr:stedsnr" v="583292" />
	</node>
	<node id="-519197" lat="59.7097888917" lon="5.95458888636">
		<tag k="name" v="Olahaugen" />
		<tag k="natural" v="hill" />
		<tag k="place" v="locality" />
		<tag k="ssr:stedsnr" v="583268" />
	</node>
	<node id="-519194" lat="59.8417305515" lon="6.20302499704">
		<tag k="name" v="Tono" />
		<tag k="natural" v="hill" />
		<tag k="place" v="locality" />
		<tag k="ssr:stedsnr" v="583146" />
	</node>
	<node id="-519190" lat="59.8695361098" lon="6.2766194431">
		<tag k="fixme" v="consider natural=peak for the most distinct mountains in the district" />
		<tag k="name" v="Stakkstødfjellet" />
		<tag k="natural" v="hill" />
		<tag k="place" v="locality" />
		<tag k="ssr:stedsnr" v="550479" />
	</node>
	<node id="-519189" lat="59.8825083297" lon="6.3163305513">
		<tag k="name" v="Storahallet" />
		<tag k="natural" v="slope" />
		<tag k="place" v="locality" />
		<tag k="ssr:stedsnr" v="550470" />
	</node>
	<node id="-519187" lat="59.8986777736" lon="6.49739444258">
		<tag k="fixme" v="consider natural=peak for the most distinct mountains in the district" />
		<tag k="name" v="Middagsnuten" />
		<tag k="natural" v="hill" />
		<tag k="place" v="locality" />
		<tag k="ssr:stedsnr" v="550466" />
	</node>
	<node id="-519184" lat="59.7564388901" lon="6.19337777539">
		<tag k="name" v="Sjurukenuten" />
		<tag k="natural" v="hill" />
		<tag k="place" v="locality" />
		<tag k="ssr:stedsnr" v="550393" />
	</node>
	<node id="-519181" lat="59.7794083342" lon="6.20222499584">
		<tag k="name" v="Krolihaugen" />
		<tag k="natural" v="hill" />
		<tag k="place" v="locality" />
		<tag k="ssr:stedsnr" v="550330" />
	</node>
	<node id="-519180" lat="59.8220305584" lon="6.15233056061">
		<tag k="fixme" v="consider natural=peak for the most distinct mountains in the district" />
		<tag k="name" v="Kvanndalstungene" />
		<tag k="natural" v="hill" />
		<tag k="place" v="locality" />
		<tag k="ssr:stedsnr" v="550210" />
	</node>
	<node id="-519177" lat="59.846016671" lon="6.21175833355">
		<tag k="name" v="Grånut" />
		<tag k="natural" v="hill" />
		<tag k="place" v="locality" />
		<tag k="ssr:stedsnr" v="550198" />
	</node>
	<node id="-519176" lat="59.7727749976" lon="6.27545832981">
		<tag k="fixme" v="consider natural=peak for the most distinct mountains in the district" />
		<tag k="name" v="Høgenuten" />
		<tag k="natural" v="hill" />
		<tag k="place" v="locality" />
		<tag k="ssr:stedsnr" v="550131" />
	</node>
	<node id="-519174" lat="59.8001499958" lon="6.41688333">
		<tag k="name" v="Svartabotnen" />
		<tag k="natural" v="valley" />
		<tag k="place" v="locality" />
		<tag k="ssr:stedsnr" v="550085" />
	</node>
	<node id="-519173" lat="59.7919222233" lon="6.32404166416">
		<tag k="name" v="Vinjakvelvane" />
		<tag k="natural" v="valley" />
		<tag k="place" v="locality" />
		<tag k="ssr:stedsnr" v="550080" />
	</node>
	<node id="-519172" lat="59.7848499976" lon="6.33228889769">
		<tag k="fixme" v="consider natural=peak for the most distinct mountains in the district" />
		<tag k="name" v="Vinjakvelvnuten" />
		<tag k="natural" v="hill" />
		<tag k="place" v="locality" />
		<tag k="ssr:stedsnr" v="550072" />
	</node>
	<node id="-519170" lat="59.8480111084" lon="6.36269722961">
		<tag k="fixme" v="consider natural=peak for the most distinct mountains in the district" />
		<tag k="name" v="Middagsnuten" />
		<tag k="natural" v="hill" />
		<tag k="place" v="locality" />
		<tag k="ssr:stedsnr" v="550063" />
	</node>
	<node id="-519168" lat="59.8214944438" lon="6.23392221764">
		<tag k="name" v="Kopadal" />
		<tag k="natural" v="valley" />
		<tag k="place" v="locality" />
		<tag k="ssr:stedsnr" v="550045" />
	</node>
	<node id="-519165" lat="59.855125002" lon="6.36166945079">
		<tag k="name" v="Skrukkalia" />
		<tag k="natural" v="slope" />
		<tag k="place" v="locality" />
		<tag k="ssr:stedsnr" v="550003" />
	</node>
	<node id="-519160" lat="59.6756805567" lon="6.03933611904">
		<tag k="alt_name" v="Smøsnut" />
		<tag k="fixme" v="consider natural=peak for the most distinct mountains in the district" />
		<tag k="name" v="Smørnut" />
		<tag k="natural" v="hill" />
		<tag k="place" v="locality" />
		<tag k="ssr:stedsnr" v="549706" />
	</node>
	<node id="-519157" lat="59.6978999999" lon="6.1483611109">
		<tag k="fixme" v="consider natural=peak for the most distinct mountains in the district" />
		<tag k="name" v="Nordfjellet" />
		<tag k="natural" v="hill" />
		<tag k="place" v="locality" />
		<tag k="ssr:stedsnr" v="549692" />
	</node>
	<node id="-519156" lat="59.7291643069" lon="6.18990697853">
		<tag k="name" v="Skuggen" />
		<tag k="natural" v="hill" />
		<tag k="place" v="locality" />
		<tag k="ssr:stedsnr" v="549681" />
	</node>
	<node id="-519154" lat="59.7021250016" lon="5.89044999334">
		<tag k="name" v="Langlidalen" />
		<tag k="natural" v="valley" />
		<tag k="place" v="locality" />
		<tag k="ssr:stedsnr" v="549676" />
	</node>
	<node id="-519153" lat="59.7011527801" lon="6.0226111038">
		<tag k="name" v="Noreimskollen" />
		<tag k="natural" v="hill" />
		<tag k="place" v="locality" />
		<tag k="ssr:stedsnr" v="549675" />
	</node>
	<node id="-519152" lat="59.7293805555" lon="6.1326361028">
		<tag k="alt_name" v="Ljusneshovda" />
		<tag k="fixme" v="consider natural=peak for the most distinct mountains in the district" />
		<tag k="name" v="Lussneshovda" />
		<tag k="natural" v="hill" />
		<tag k="place" v="locality" />
		<tag k="ssr:stedsnr" v="549667" />
	</node>
	<node id="-519151" lat="59.7343555516" lon="6.05890278408">
		<tag k="alt_name" v="Svenskelidås" />
		<tag k="fixme" v="consider natural=peak for the most distinct mountains in the district" />
		<tag k="name" v="Svenskeliåsen" />
		<tag k="natural" v="hill" />
		<tag k="place" v="locality" />
		<tag k="ssr:stedsnr" v="549664" />
	</node>
	<node id="-519150" lat="59.7179745585" lon="5.93214288558">
		<tag k="name" v="Tjellelia" />
		<tag k="natural" v="slope" />
		<tag k="place" v="locality" />
		<tag k="ssr:stedsnr" v="549658" />
	</node>
	<node id="-519148" lat="59.7393083335" lon="6.15773610705">
		<tag k="name" v="Vinjahovda" />
		<tag k="natural" v="hill" />
		<tag k="place" v="locality" />
		<tag k="ssr:stedsnr" v="549643" />
	</node>
	<node id="-519141" lat="59.6489388905" lon="6.10774999965">
		<tag k="fixme" v="consider natural=peak for the most distinct mountains in the district" />
		<tag k="name" v="Nordfjellet" />
		<tag k="natural" v="hill" />
		<tag k="place" v="locality" />
		<tag k="ssr:stedsnr" v="549502" />
	</node>
	<node id="-519138" lat="59.6525638855" lon="5.9433000084">
		<tag k="name" v="Grallsetelia" />
		<tag k="natural" v="hill" />
		<tag k="place" v="locality" />
		<tag k="ssr:stedsnr" v="549475" />
	</node>
	<node id="-519137" lat="59.6652749973" lon="5.82053888814">
		<tag k="alt_name" v="Bjørkenesnuten;Bjørkjenesnuten" />
		<tag k="fixme" v="consider natural=peak for the most distinct mountains in the district" />
		<tag k="name" v="Børkjenesnuten" />
		<tag k="natural" v="hill" />
		<tag k="place" v="locality" />
		<tag k="ssr:stedsnr" v="549458" />
	</node>
	<node id="-519135" lat="59.8177249992" lon="6.41329444344">
		<tag k="fixme" v="consider natural=peak for the most distinct mountains in the district" />
		<tag k="name" v="Kjeringa" />
		<tag k="natural" v="hill" />
		<tag k="place" v="locality" />
		<tag k="ssr:stedsnr" v="549089" />
	</node>
	<node id="-519125" lat="59.64976667" lon="5.97304166327">
		<tag k="name" v="Fossalia" />
		<tag k="natural" v="slope" />
		<tag k="place" v="locality" />
		<tag k="ssr:stedsnr" v="523748" />
	</node>
	<node id="-519124" lat="59.6094472268" lon="5.97518889645">
		<tag k="name" v="Litle Holmavasshaugen" />
		<tag k="natural" v="hill" />
		<tag k="place" v="locality" />
		<tag k="ssr:stedsnr" v="523730" />
	</node>
	<node id="-519122" lat="59.6787888878" lon="5.97654722562">
		<tag k="fixme" v="consider natural=peak for the most distinct mountains in the district" />
		<tag k="name" v="Stakksåto" />
		<tag k="natural" v="hill" />
		<tag k="ssr:stedsnr" v="523728" />
	</node>
	<node id="-519120" lat="59.8738972188" lon="6.44212778665">
		<tag k="name" v="Perbruhaugen" />
		<tag k="natural" v="hill" />
		<tag k="place" v="locality" />
		<tag k="ssr:stedsnr" v="523815" />
	</node>
	<node id="-519118" lat="59.7246305596" lon="6.20503333403">
		<tag k="name" v="Gunnarshiller" />
		<tag k="place" v="locality" />
		<tag k="ssr:stedsnr" v="523507" />
	</node>
	<node id="-519117" lat="59.6972472214" lon="6.1275638843">
		<tag k="name" v="Kryp" />
		<tag k="place" v="locality" />
		<tag k="ssr:stedsnr" v="523501" />
	</node>
	<node id="-519115" lat="59.6891527768" lon="6.06600000831">
		<tag k="name" v="Gaupedalen" />
		<tag k="natural" v="valley" />
		<tag k="place" v="locality" />
		<tag k="ssr:stedsnr" v="523484" />
	</node>
	<node id="-519114" lat="59.6352111128" lon="5.88682222991">
		<tag k="name" v="Åsheia" />
		<tag k="natural" v="hill" />
		<tag k="place" v="locality" />
		<tag k="ssr:stedsnr" v="523701" />
	</node>
	<node id="-519112" lat="59.6545722205" lon="5.79063333557">
		<tag k="name" v="Kråkerøysa" />
		<tag k="place" v="locality" />
		<tag k="ssr:stedsnr" v="523658" />
	</node>
	<node id="-519111" lat="59.681519449" lon="5.78573611191">
		<tag k="fixme" v="consider natural=peak for the most distinct mountains in the district" />
		<tag k="name" v="Kjølbergsåsen" />
		<tag k="natural" v="hill" />
		<tag k="place" v="locality" />
		<tag k="ssr:stedsnr" v="523657" />
	</node>
	<node id="-519109" lat="59.6610666644" lon="5.91751111365">
		<tag k="name" v="Sæbølia" />
		<tag k="natural" v="slope" />
		<tag k="place" v="locality" />
		<tag k="ssr:stedsnr" v="523594" />
	</node>
	<node id="-519107" lat="59.6542305553" lon="5.92973888286">
		<tag k="name" v="Eihaldshaug" />
		<tag k="natural" v="hill" />
		<tag k="place" v="locality" />
		<tag k="ssr:stedsnr" v="523579" />
	</node>
	<node id="-519105" lat="59.6981694418" lon="5.9478305511">
		<tag k="name" v="Nautaskar" />
		<tag k="natural" v="valley" />
		<tag k="place" v="locality" />
		<tag k="ssr:stedsnr" v="523336" />
	</node>
	<node id="-519104" lat="59.6988444487" lon="5.98782778256">
		<tag k="name" v="Hovlandslia" />
		<tag k="natural" v="slope" />
		<tag k="place" v="locality" />
		<tag k="ssr:stedsnr" v="523332" />
	</node>
	<node id="-519103" lat="59.6890666687" lon="5.9546055579">
		<tag k="name" v="Hamrane" />
		<tag k="natural" v="ridge" />
		<tag k="place" v="locality" />
		<tag k="ssr:stedsnr" v="523331" />
	</node>
	<node id="-519100" lat="59.7133249972" lon="6.03213610952">
		<tag k="fixme" v="consider natural=peak for the most distinct mountains in the district" />
		<tag k="name" v="Skukkane" />
		<tag k="natural" v="hill" />
		<tag k="ssr:stedsnr" v="523305" />
	</node>
	<node id="-519099" lat="59.7325722195" lon="5.96694999658">
		<tag k="name" v="Lauvbakkehaugen" />
		<tag k="natural" v="hill" />
		<tag k="place" v="locality" />
		<tag k="ssr:stedsnr" v="523295" />
	</node>
	<node id="-519098" lat="59.7382166652" lon="5.95715834053">
		<tag k="name" v="Rindane" />
		<tag k="natural" v="ridge" />
		<tag k="place" v="locality" />
		<tag k="ssr:stedsnr" v="523290" />
	</node>
	<node id="-519097" lat="59.7433805582" lon="6.0020138813">
		<tag k="name" v="Krossen" />
		<tag k="natural" v="hill" />
		<tag k="place" v="locality" />
		<tag k="ssr:stedsnr" v="523284" />
	</node>
	<node id="-519096" lat="59.7250888912" lon="5.98146389569">
		<tag k="name" v="Laughammar" />
		<tag k="natural" v="hill" />
		<tag k="place" v="locality" />
		<tag k="ssr:stedsnr" v="523278" />
	</node>
	<node id="-519093" lat="59.8509666693" lon="6.31879444653">
		<tag k="name" v="Skiftesjuvet" />
		<tag k="natural" v="gorge" />
		<tag k="ssr:stedsnr" v="523227" />
	</node>
	<node id="-519092" lat="59.8402027762" lon="6.3484722253">
		<tag k="name" v="Johålene" />
		<tag k="natural" v="valley" />
		<tag k="place" v="locality" />
		<tag k="ssr:stedsnr" v="523224" />
	</node>
	<node id="-519091" lat="59.6437361092" lon="6.10134999375">
		<tag k="name" v="Hjørnåslemene" />
		<tag k="place" v="locality" />
		<tag k="ssr:stedsnr" v="523133" />
	</node>
	<node id="-519090" lat="59.8971972235" lon="6.48311665793">
		<tag k="name" v="Øykjedalen" />
		<tag k="natural" v="valley" />
		<tag k="place" v="locality" />
		<tag k="ssr:stedsnr" v="523090" />
	</node>
	<node id="-519088" lat="59.7552888881" lon="6.21914444113">
		<tag k="name" v="Brekko" />
		<tag k="natural" v="slope" />
		<tag k="place" v="locality" />
		<tag k="ssr:stedsnr" v="523029" />
	</node>
	<node id="-519087" lat="59.7282805572" lon="5.8967333244">
		<tag k="name" v="Storheimsdalen" />
		<tag k="natural" v="valley" />
		<tag k="place" v="locality" />
		<tag k="ssr:stedsnr" v="522728" />
	</node>
	<node id="-519085" lat="59.756449999" lon="5.94854721407">
		<tag k="name" v="Furehaugen" />
		<tag k="natural" v="hill" />
		<tag k="place" v="locality" />
		<tag k="ssr:stedsnr" v="522068" />
	</node>
	<node id="-519084" lat="59.7585138864" lon="5.94392221506">
		<tag k="name" v="Kalvadalen" />
		<tag k="natural" v="valley" />
		<tag k="place" v="locality" />
		<tag k="ssr:stedsnr" v="522067" />
	</node>
	<node id="-519083" lat="59.8300000015" lon="6.29332500571">
		<tag k="name" v="Svartsihola" />
		<tag k="place" v="locality" />
		<tag k="ssr:stedsnr" v="523231" />
	</node>
	<node id="-519082" lat="59.8866055528" lon="6.46136945093">
		<tag k="name" v="Sørdalen" />
		<tag k="natural" v="valley" />
		<tag k="place" v="locality" />
		<tag k="ssr:stedsnr" v="429475" />
	</node>
	<node id="-519081" lat="59.769711111" lon="6.17567499383">
		<tag k="name" v="Botnane" />
		<tag k="natural" v="valley" />
		<tag k="place" v="locality" />
		<tag k="ssr:stedsnr" v="429363" />
	</node>
	<node id="-519079" lat="59.8744722231" lon="6.29335278427">
		<tag k="alt_name" v="Futestølsdalen" />
		<tag k="name" v="Futstølsdalen" />
		<tag k="natural" v="valley" />
		<tag k="place" v="locality" />
		<tag k="ssr:stedsnr" v="429466" />
	</node>
	<node id="-519078" lat="59.8773222249" lon="6.32464722965">
		<tag k="fixme" v="consider natural=peak for the most distinct mountains in the district" />
		<tag k="name" v="Renndalsnuten" />
		<tag k="natural" v="hill" />
		<tag k="place" v="locality" />
		<tag k="ssr:stedsnr" v="429464" />
	</node>
	<node id="-519076" lat="59.8125749992" lon="6.1619861187">
		<tag k="fixme" v="consider natural=peak for the most distinct mountains in the district" />
		<tag k="name" v="Åsen" />
		<tag k="natural" v="hill" />
		<tag k="place" v="locality" />
		<tag k="ssr:stedsnr" v="429201" />
	</node>
	<node id="-519068" lat="59.8386444431" lon="6.35972499431">
		<tag k="fixme" v="consider natural=peak for the most distinct mountains in the district" />
		<tag k="name" v="Øykjaskardnuten" />
		<tag k="natural" v="hill" />
		<tag k="place" v="locality" />
		<tag k="ssr:stedsnr" v="429045" />
	</node>
	<node id="-519067" lat="59.8374527751" lon="6.48612500361">
		<tag k="name" v="Såtekvelven" />
		<tag k="natural" v="valley" />
		<tag k="place" v="locality" />
		<tag k="ssr:stedsnr" v="429033" />
	</node>
	<node id="-519066" lat="59.8288527819" lon="6.39676110311">
		<tag k="name" v="Buhillerdalen" />
		<tag k="natural" v="valley" />
		<tag k="place" v="locality" />
		<tag k="ssr:stedsnr" v="429031" />
	</node>
	<node id="-519065" lat="59.8779893742" lon="6.43928958312">
		<tag k="alt_name" v="Håvardshaug" />
		<tag k="name" v="Håvardehaug" />
		<tag k="natural" v="hill" />
		<tag k="place" v="locality" />
		<tag k="ssr:stedsnr" v="429023" />
	</node>
	<node id="-519063" lat="59.6173999974" lon="5.96169999679">
		<tag k="name" v="Storehest" />
		<tag k="natural" v="hill" />
		<tag k="place" v="locality" />
		<tag k="ssr:stedsnr" v="428508" />
	</node>
	<node id="-519062" lat="59.6318555521" lon="6.1764638843">
		<tag k="fixme" v="consider natural=peak for the most distinct mountains in the district" />
		<tag k="name" v="Krokavassnuten" />
		<tag k="natural" v="hill" />
		<tag k="place" v="locality" />
		<tag k="ssr:stedsnr" v="428504" />
	</node>
	<node id="-519054" lat="59.6386555517" lon="5.84920278543">
		<tag k="fixme" v="consider natural=peak for the most distinct mountains in the district" />
		<tag k="name" v="Dyråsen" />
		<tag k="natural" v="hill" />
		<tag k="place" v="locality" />
		<tag k="ssr:stedsnr" v="428477" />
	</node>
	<node id="-519052" lat="59.6457138877" lon="5.98038333073">
		<tag k="fixme" v="consider natural=peak for the most distinct mountains in the district" />
		<tag k="name" v="Fosshovda" />
		<tag k="natural" v="hill" />
		<tag k="place" v="locality" />
		<tag k="ssr:stedsnr" v="428465" />
	</node>
	<node id="-519042" lat="59.6079833346" lon="5.96296666856">
		<tag k="fixme" v="consider natural=peak for the most distinct mountains in the district" />
		<tag k="name" v="Trodlanibba" />
		<tag k="natural" v="hill" />
		<tag k="ssr:stedsnr" v="402697" />
	</node>
	<node id="-519041" lat="59.6095777802" lon="6.0165555623">
		<tag k="name" v="Kattaskar" />
		<tag k="natural" v="valley" />
		<tag k="place" v="locality" />
		<tag k="ssr:stedsnr" v="402682" />
	</node>
	<node id="-519039" lat="59.69545833" lon="5.96869721923">
		<tag k="name" v="Tverrdalane" />
		<tag k="natural" v="valley" />
		<tag k="place" v="locality" />
		<tag k="ssr:stedsnr" v="402329" />
	</node>
	<node id="-519038" lat="59.6387194473" lon="6.09793888854">
		<tag k="name" v="Nalthaug" />
		<tag k="natural" v="hill" />
		<tag k="place" v="locality" />
		<tag k="ssr:stedsnr" v="402102" />
	</node>
	<node id="-519037" lat="59.7362749983" lon="6.18550278571">
		<tag k="name" v="Fretsdalen" />
		<tag k="natural" v="valley" />
		<tag k="place" v="locality" />
		<tag k="ssr:stedsnr" v="402080" />
	</node>
	<node id="-519036" lat="59.907141671" lon="6.45310832904">
		<tag k="name" v="Langebuskår" />
		<tag k="place" v="locality" />
		<tag k="ssr:stedsnr" v="402069" />
	</node>
	<node id="-519035" lat="59.9147027762" lon="6.45778611058">
		<tag k="fixme" v="consider natural=peak for the most distinct mountains in the district" />
		<tag k="name" v="Keidalsnuten" />
		<tag k="natural" v="hill" />
		<tag k="ssr:stedsnr" v="402065" />
	</node>
	<node id="-519032" lat="59.7585888869" lon="6.19595278271">
		<tag k="name" v="Halvgjenge" />
		<tag k="place" v="locality" />
		<tag k="ssr:stedsnr" v="402011" />
	</node>
	<node id="-519031" lat="59.7485222213" lon="6.20682222167">
		<tag k="name" v="Midthaug" />
		<tag k="natural" v="hill" />
		<tag k="place" v="locality" />
		<tag k="ssr:stedsnr" v="402006" />
	</node>
	<node id="-519029" lat="59.6002777813" lon="6.18659166888">
		<tag k="name" v="Storavasskaret" />
		<tag k="natural" v="valley" />
		<tag k="place" v="locality" />
		<tag k="ssr:stedsnr" v="401783" />
	</node>
	<node id="-519028" lat="59.8699805515" lon="6.44303332507">
		<tag k="name" v="Kvamen" />
		<tag k="place" v="locality" />
		<tag k="ssr:stedsnr" v="401747" />
	</node>
	<node id="-519025" lat="59.7078405325" lon="5.92347897409">
		<tag k="fixme" v="consider natural=peak for the most distinct mountains in the district" />
		<tag k="name" v="Tjellenipa" />
		<tag k="natural" v="hill" />
		<tag k="ssr:stedsnr" v="401717" />
	</node>
	<node id="-519022" lat="59.6843277786" lon="5.79524166284">
		<tag k="name" v="Høgehaugen" />
		<tag k="natural" v="hill" />
		<tag k="place" v="locality" />
		<tag k="ssr:stedsnr" v="401550" />
	</node>
	<node id="-519018" lat="59.8649583293" lon="6.36059166116">
		<tag k="name" v="Vindhammar" />
		<tag k="natural" v="hill" />
		<tag k="place" v="locality" />
		<tag k="ssr:stedsnr" v="401741" />
	</node>
	<node id="-519016" lat="59.7106805563" lon="5.91591666095">
		<tag k="name" v="Vatnaskar" />
		<tag k="natural" v="valley" />
		<tag k="place" v="locality" />
		<tag k="ssr:stedsnr" v="401529" />
	</node>
	<node id="-519015" lat="59.6431833317" lon="5.83640555441">
		<tag k="name" v="Askedalen" />
		<tag k="natural" v="valley" />
		<tag k="place" v="locality" />
		<tag k="ssr:stedsnr" v="401524" />
	</node>
	<node id="-519014" lat="59.6538551768" lon="5.9163198353">
		<tag k="fixme" v="consider natural=peak for the most distinct mountains in the district" />
		<tag k="name" v="Lauvåsen" />
		<tag k="natural" v="hill" />
		<tag k="place" v="locality" />
		<tag k="ssr:stedsnr" v="401505" />
	</node>
	<node id="-519013" lat="59.7113166704" lon="6.18450554888">
		<tag k="name" v="Fretteskar" />
		<tag k="natural" v="valley" />
		<tag k="place" v="locality" />
		<tag k="ssr:stedsnr" v="401496" />
	</node>
	<node id="-519012" lat="59.7302555551" lon="6.19704165883">
		<tag k="name" v="Gjuvro" />
		<tag k="place" v="locality" />
		<tag k="ssr:stedsnr" v="401455" />
	</node>
	<node id="-519009" lat="59.6956694481" lon="6.06257222576">
		<tag k="name" v="Orrahaugen" />
		<tag k="natural" v="hill" />
		<tag k="place" v="locality" />
		<tag k="ssr:stedsnr" v="401429" />
	</node>
	<node id="-519008" lat="59.735627779" lon="6.11429999414">
		<tag k="name" v="Tømberleitet" />
		<tag k="natural" v="slope" />
		<tag k="place" v="locality" />
		<tag k="ssr:stedsnr" v="401408" />
	</node>
	<node id="-519006" lat="59.7308694443" lon="6.10507222916">
		<tag k="name" v="Skogkrossen" />
		<tag k="place" v="locality" />
		<tag k="ssr:stedsnr" v="401392" />
	</node>
	<node id="-519004" lat="59.7265694444" lon="6.06518888437">
		<tag k="name" v="Kistehaug" />
		<tag k="natural" v="hill" />
		<tag k="place" v="locality" />
		<tag k="ssr:stedsnr" v="401387" />
	</node>
	<node id="-519003" lat="59.7280249988" lon="6.08527778633">
		<tag k="name" v="Olavstræ" />
		<tag k="place" v="locality" />
		<tag k="ssr:stedsnr" v="401385" />
	</node>
	<node id="-519002" lat="59.6646722254" lon="6.08239444456">
		<tag k="name" v="Svartaberglia" />
		<tag k="natural" v="slope" />
		<tag k="place" v="locality" />
		<tag k="ssr:stedsnr" v="401359" />
	</node>
	<node id="-519000" lat="59.7194388868" lon="6.08636110388">
		<tag k="fixme" v="consider natural=peak for the most distinct mountains in the district" />
		<tag k="name" v="Nuten" />
		<tag k="natural" v="hill" />
		<tag k="ssr:stedsnr" v="401307" />
	</node>
	<node id="-518999" lat="59.7240916642" lon="6.06735000244">
		<tag k="name" v="Gamlestølshaugen" />
		<tag k="natural" v="hill" />
		<tag k="place" v="locality" />
		<tag k="ssr:stedsnr" v="401304" />
	</node>
	<node id="-518998" lat="59.7108166679" lon="6.08276667048">
		<tag k="name" v="Øvste Bleshammar" />
		<tag k="natural" v="ridge" />
		<tag k="place" v="locality" />
		<tag k="ssr:stedsnr" v="401296" />
	</node>
	<node id="-518994" lat="59.6827999965" lon="6.00370833604">
		<tag k="name" v="Lurdal" />
		<tag k="natural" v="valley" />
		<tag k="place" v="locality" />
		<tag k="ssr:stedsnr" v="401237" />
	</node>
	<node id="-518992" lat="59.8714055532" lon="6.31483610905">
		<tag k="name" v="Skidalsskard" />
		<tag k="natural" v="valley" />
		<tag k="place" v="locality" />
		<tag k="ssr:stedsnr" v="401201" />
	</node>
	<node id="-518991" lat="59.892947222" lon="6.38029166186">
		<tag k="name" v="Tverrdalen" />
		<tag k="natural" v="valley" />
		<tag k="place" v="locality" />
		<tag k="ssr:stedsnr" v="401192" />
	</node>
	<node id="-518990" lat="59.7610972183" lon="5.93222222356">
		<tag k="name" v="Skiftesdjuvet" />
		<tag k="natural" v="gorge" />
		<tag k="ssr:stedsnr" v="401062" />
	</node>
	<node id="-518985" lat="59.7635027784" lon="6.19411389434">
		<tag k="alt_name" v="Stølshaugane" />
		<tag k="name" v="Stølshaugen" />
		<tag k="natural" v="hill" />
		<tag k="place" v="locality" />
		<tag k="ssr:stedsnr" v="368638" />
	</node>
	<node id="-518984" lat="59.8690833336" lon="6.34099722443">
		<tag k="name" v="Gulaberga" />
		<tag k="natural" v="hill" />
		<tag k="place" v="locality" />
		<tag k="ssr:stedsnr" v="368526" />
	</node>
	<node id="-518983" lat="59.8816722202" lon="6.37522222806">
		<tag k="fixme" v="consider natural=peak for the most distinct mountains in the district" />
		<tag k="name" v="Fjæratoppen" />
		<tag k="natural" v="hill" />
		<tag k="place" v="locality" />
		<tag k="ssr:stedsnr" v="368520" />
	</node>
	<node id="-518982" lat="59.9041472181" lon="6.45192777861">
		<tag k="fixme" v="consider natural=peak for the most distinct mountains in the district" />
		<tag k="name" v="Keidalsnuten" />
		<tag k="natural" v="hill" />
		<tag k="place" v="locality" />
		<tag k="ssr:stedsnr" v="368517" />
	</node>
	<node id="-518981" lat="59.7666361077" lon="6.212433333">
		<tag k="alt_name" v="Austmannedjuvet" />
		<tag k="name" v="Austmannagjuvet" />
		<tag k="natural" v="valley" />
		<tag k="place" v="locality" />
		<tag k="ssr:stedsnr" v="368432" />
	</node>
	<node id="-518980" lat="59.7963611088" lon="6.29983055833">
		<tag k="name" v="Jordene" />
		<tag k="natural" v="slope" />
		<tag k="place" v="locality" />
		<tag k="ssr:stedsnr" v="368098" />
	</node>
	<node id="-518967" lat="59.7131805546" lon="6.1698055513">
		<tag k="fixme" v="consider natural=peak for the most distinct mountains in the district" />
		<tag k="name" v="Grønskornuten" />
		<tag k="natural" v="hill" />
		<tag k="place" v="locality" />
		<tag k="ssr:stedsnr" v="367709" />
	</node>
	<node id="-518965" lat="59.6945027798" lon="6.0512194447">
		<tag k="alt_name" v="Åsen" />
		<tag k="fixme" v="consider natural=peak for the most distinct mountains in the district" />
		<tag k="name" v="Åsbøåsen" />
		<tag k="natural" v="hill" />
		<tag k="place" v="locality" />
		<tag k="ssr:stedsnr" v="367698" />
	</node>
	<node id="-518963" lat="59.7224777815" lon="6.18439167035">
		<tag k="alt_name" v="Furuberget" />
		<tag k="name" v="Fureberget" />
		<tag k="natural" v="hill" />
		<tag k="place" v="locality" />
		<tag k="ssr:stedsnr" v="367681" />
	</node>
	<node id="-518962" lat="59.7078388844" lon="5.88644999692">
		<tag k="fixme" v="consider natural=peak for the most distinct mountains in the district" />
		<tag k="name" v="Snauafjellet" />
		<tag k="natural" v="hill" />
		<tag k="place" v="locality" />
		<tag k="ssr:stedsnr" v="367679" />
	</node>
	<node id="-518959" lat="59.7293749961" lon="5.9702944472">
		<tag k="fixme" v="consider natural=peak for the most distinct mountains in the district" />
		<tag k="name" v="Prestafjellet" />
		<tag k="natural" v="hill" />
		<tag k="place" v="locality" />
		<tag k="ssr:stedsnr" v="367665" />
	</node>
	<node id="-518958" lat="59.7206555564" lon="6.00150555642">
		<tag k="fixme" v="consider natural=peak for the most distinct mountains in the district" />
		<tag k="name" v="Litlafjellet" />
		<tag k="natural" v="hill" />
		<tag k="place" v="locality" />
		<tag k="ssr:stedsnr" v="367659" />
	</node>
	<node id="-518955" lat="59.7387305557" lon="6.0008805543">
		<tag k="name" v="Hovda" />
		<tag k="natural" v="hill" />
		<tag k="place" v="locality" />
		<tag k="ssr:stedsnr" v="367643" />
	</node>
	<node id="-518952" lat="59.6133500044" lon="5.9884861084">
		<tag k="alt_name" v="Urdahaugen, l;Litle Urahaugen" />
		<tag k="fixme" v="consider natural=peak for the most distinct mountains in the district" />
		<tag k="name" v="Litle Urdahaugen" />
		<tag k="natural" v="hill" />
		<tag k="place" v="locality" />
		<tag k="ssr:stedsnr" v="367490" />
	</node>
	<node id="-518951" lat="59.6303777761" lon="5.98353611629">
		<tag k="alt_name" v="Skrubbahaugen" />
		<tag k="name" v="Skrubbhaugen" />
		<tag k="natural" v="hill" />
		<tag k="place" v="locality" />
		<tag k="ssr:stedsnr" v="367468" />
	</node>
	<node id="-518950" lat="59.6594250036" lon="6.20809999345">
		<tag k="alt_name" v="Åborenuten" />
		<tag k="fixme" v="consider natural=peak for the most distinct mountains in the district" />
		<tag k="name" v="Åboren" />
		<tag k="natural" v="hill" />
		<tag k="place" v="locality" />
		<tag k="ssr:stedsnr" v="367445" />
	</node>
	<node id="-518948" lat="59.6566638851" lon="5.81510277009">
		<tag k="fixme" v="consider natural=peak for the most distinct mountains in the district" />
		<tag k="name" v="Seldalsåsen" />
		<tag k="natural" v="hill" />
		<tag k="place" v="locality" />
		<tag k="ssr:stedsnr" v="367406" />
	</node>
	<node id="-518944" lat="59.820930554" lon="6.37559721794">
		<tag k="fixme" v="consider natural=peak for the most distinct mountains in the district" />
		<tag k="name" v="Storalægda" />
		<tag k="natural" v="hill" />
		<tag k="place" v="locality" />
		<tag k="ssr:stedsnr" v="367074" />
	</node>
	<node id="-518941" lat="59.8111027737" lon="6.37119722915">
		<tag k="name" v="Skardhiller" />
		<tag k="place" v="locality" />
		<tag k="ssr:stedsnr" v="367064" />
	</node>
	<node id="-518940" lat="59.8271444422" lon="6.32026943595">
		<tag k="fixme" v="consider natural=peak for the most distinct mountains in the district" />
		<tag k="loc_name" v="Bekkjedalsheiane" />
		<tag k="name" v="Bekkjadalsheiane" />
		<tag k="natural" v="hill" />
		<tag k="place" v="locality" />
		<tag k="ssr:stedsnr" v="367024" />
	</node>
	<node id="-518939" lat="59.6757388924" lon="5.8220499912">
		<tag k="alt_name" v="Ravnafjell" />
		<tag k="fixme" v="consider natural=peak for the most distinct mountains in the district" />
		<tag k="name" v="Ravnafjellet" />
		<tag k="natural" v="hill" />
		<tag k="place" v="locality" />
		<tag k="ssr:stedsnr" v="367023" />
	</node>
	<node id="-518934" lat="59.6550972239" lon="5.82548610596">
		<tag k="name" v="Svindal" />
		<tag k="natural" v="valley" />
		<tag k="place" v="locality" />
		<tag k="ssr:stedsnr" v="347999" />
	</node>
	<node id="-518928" lat="59.8516361116" lon="6.31706944885">
		<tag k="name" v="Otraskor" />
		<tag k="natural" v="hill" />
		<tag k="place" v="locality" />
		<tag k="ssr:stedsnr" v="347021" />
	</node>
	<node id="-518927" lat="59.8612694467" lon="6.42276666475">
		<tag k="name" v="Rauneskår" />
		<tag k="place" v="locality" />
		<tag k="ssr:stedsnr" v="341819" />
	</node>
	<node id="-518926" lat="59.665763885" lon="6.01395277517">
		<tag k="name" v="Buhilleren" />
		<tag k="place" v="locality" />
		<tag k="ssr:stedsnr" v="341757" />
	</node>
	<node id="-518924" lat="59.5985222207" lon="5.9695888935">
		<tag k="fixme" v="consider natural=peak for the most distinct mountains in the district" />
		<tag k="name" v="Brudnaklampane" />
		<tag k="natural" v="hill" />
		<tag k="ssr:stedsnr" v="341725" />
	</node>
	<node id="-518923" lat="59.6771111126" lon="6.04829721864">
		<tag k="fixme" v="consider natural=peak for the most distinct mountains in the district" />
		<tag k="name" v="Grønnut" />
		<tag k="natural" v="hill" />
		<tag k="ssr:stedsnr" v="341703" />
	</node>
	<node id="-518922" lat="59.6576277747" lon="5.80693889355">
		<tag k="name" v="Smådalen" />
		<tag k="natural" v="valley" />
		<tag k="place" v="locality" />
		<tag k="ssr:stedsnr" v="341646" />
	</node>
	<node id="-518921" lat="59.7359111074" lon="6.14545000778">
		<tag k="name" v="Dikane" />
		<tag k="place" v="locality" />
		<tag k="ssr:stedsnr" v="341442" />
	</node>
	<node id="-518918" lat="59.742791668" lon="6.03334444521">
		<tag k="name" v="Lebruskår" />
		<tag k="place" v="locality" />
		<tag k="ssr:stedsnr" v="341367" />
	</node>
	<node id="-518917" lat="59.7305333348" lon="6.03921388047">
		<tag k="name" v="Ugledalen" />
		<tag k="natural" v="valley" />
		<tag k="place" v="locality" />
		<tag k="ssr:stedsnr" v="341365" />
	</node>
	<node id="-518916" lat="59.7174722202" lon="6.06008056415">
		<tag k="alt_name" v="Heglenutheio" />
		<tag k="name" v="Heglenutheia" />
		<tag k="natural" v="hill" />
		<tag k="place" v="locality" />
		<tag k="ssr:stedsnr" v="341347" />
	</node>
	<node id="-518915" lat="59.6875250014" lon="5.98676110583">
		<tag k="fixme" v="consider natural=peak for the most distinct mountains in the district" />
		<tag k="name" v="Torekamb" />
		<tag k="natural" v="hill" />
		<tag k="ssr:stedsnr" v="341335" />
	</node>
	<node id="-518914" lat="59.690922221" lon="6.02858888955">
		<tag k="name" v="Romshaugane" />
		<tag k="natural" v="hill" />
		<tag k="place" v="locality" />
		<tag k="ssr:stedsnr" v="341324" />
	</node>
	<node id="-518913" lat="59.7131555593" lon="6.04627499402">
		<tag k="name" v="Bromstallen" />
		<tag k="natural" v="hill" />
		<tag k="place" v="locality" />
		<tag k="ssr:stedsnr" v="341303" />
	</node>
	<node id="-518909" lat="59.8205750041" lon="6.26296666419">
		<tag k="name" v="Bjørkelia" />
		<tag k="natural" v="slope" />
		<tag k="place" v="locality" />
		<tag k="ssr:stedsnr" v="341236" />
	</node>
	<node id="-518908" lat="59.8431583314" lon="6.34375834005">
		<tag k="name" v="Tømmerskår" />
		<tag k="place" v="locality" />
		<tag k="ssr:stedsnr" v="341212" />
	</node>
	<node id="-518907" lat="59.877397225" lon="6.38905000858">
		<tag k="name" v="Våskår" />
		<tag k="place" v="locality" />
		<tag k="ssr:stedsnr" v="341200" />
	</node>
	<node id="-518906" lat="59.8022722211" lon="6.25467499752">
		<tag k="name" v="Brakahaugen" />
		<tag k="natural" v="hill" />
		<tag k="place" v="locality" />
		<tag k="ssr:stedsnr" v="341161" />
	</node>
	<node id="-518903" lat="59.7854250003" lon="6.16370278292">
		<tag k="name" v="Furehaugen" />
		<tag k="natural" v="hill" />
		<tag k="place" v="locality" />
		<tag k="ssr:stedsnr" v="341060" />
	</node>
	<node id="-518900" lat="59.6265083362" lon="5.95054166516">
		<tag k="fixme" v="consider natural=peak for the most distinct mountains in the district" />
		<tag k="name" v="Svartafjellet" />
		<tag k="natural" v="hill" />
		<tag k="place" v="locality" />
		<tag k="ssr:stedsnr" v="340731" />
	</node>
	<node id="-518899" lat="59.6227861087" lon="5.94141389687">
		<tag k="name" v="Storaskard" />
		<tag k="natural" v="valley" />
		<tag k="place" v="locality" />
		<tag k="ssr:stedsnr" v="340729" />
	</node>
	<node id="-518898" lat="59.7268249986" lon="5.86860276993">
		<tag k="name" v="Tuftene" />
		<tag k="place" v="locality" />
		<tag k="ssr:stedsnr" v="340696" />
	</node>
	<node id="-518896" lat="59.6258555564" lon="5.89078333576">
		<tag k="name" v="Trodlaskard" />
		<tag k="natural" v="valley" />
		<tag k="place" v="locality" />
		<tag k="ssr:stedsnr" v="340632" />
	</node>
	<node id="-518895" lat="59.6246277807" lon="5.89560833969">
		<tag k="name" v="Rennedalen" />
		<tag k="natural" v="valley" />
		<tag k="place" v="locality" />
		<tag k="ssr:stedsnr" v="340631" />
	</node>
	<node id="-518893" lat="59.7206361078" lon="5.90465555631">
		<tag k="name" v="Bjødnareset" />
		<tag k="natural" v="ridge" />
		<tag k="place" v="locality" />
		<tag k="ssr:stedsnr" v="340536" />
	</node>
	<node id="-518889" lat="59.7300527803" lon="6.18044444987">
		<tag k="name" v="Telgahogget" />
		<tag k="place" v="locality" />
		<tag k="ssr:stedsnr" v="340493" />
	</node>
	<node id="-518888" lat="59.7149388884" lon="6.2140638828">
		<tag k="name" v="Langedalen" />
		<tag k="natural" v="valley" />
		<tag k="place" v="locality" />
		<tag k="ssr:stedsnr" v="340479" />
	</node>
	<node id="-518884" lat="59.7414194427" lon="6.10265000489">
		<tag k="name" v="Slåttedalen" />
		<tag k="natural" v="valley" />
		<tag k="place" v="locality" />
		<tag k="ssr:stedsnr" v="340382" />
	</node>
	<node id="-518883" lat="59.7395750013" lon="6.10021944008">
		<tag k="alt_name" v="Rausgård" />
		<tag k="name" v="Raudskor" />
		<tag k="place" v="locality" />
		<tag k="ssr:stedsnr" v="340381" />
	</node>
	<node id="-518882" lat="59.7353777817" lon="6.08810278292">
		<tag k="name" v="Skotet" />
		<tag k="place" v="locality" />
		<tag k="ssr:stedsnr" v="340375" />
	</node>
	<node id="-518874" lat="59.9150277771" lon="6.25079444007">
		<tag k="name" v="Kjeringebotnen" />
		<tag k="natural" v="valley" />
		<tag k="place" v="locality" />
		<tag k="ssr:stedsnr" v="307483" />
	</node>
	<node id="-518872" lat="59.763375" lon="6.18638055542">
		<tag k="alt_name" v="Øyskar" />
		<tag k="name" v="Øyskard" />
		<tag k="natural" v="valley" />
		<tag k="place" v="locality" />
		<tag k="ssr:stedsnr" v="307404" />
	</node>
	<node id="-518871" lat="59.7587027745" lon="6.14542221551">
		<tag k="alt_name" v="Skredkollen, litle" />
		<tag k="name" v="Litle Skredkollen" />
		<tag k="natural" v="hill" />
		<tag k="place" v="locality" />
		<tag k="ssr:stedsnr" v="307401" />
	</node>
	<node id="-518868" lat="59.7656416701" lon="6.13046943835">
		<tag k="alt_name" v="Lindehaugen" />
		<tag k="name" v="Lindehaug" />
		<tag k="natural" v="hill" />
		<tag k="place" v="locality" />
		<tag k="ssr:stedsnr" v="307378" />
	</node>
	<node id="-518867" lat="59.7828500004" lon="6.19315000602">
		<tag k="name" v="Sjonarhaugen" />
		<tag k="natural" v="hill" />
		<tag k="place" v="locality" />
		<tag k="ssr:stedsnr" v="307351" />
	</node>
	<node id="-518861" lat="59.8012111107" lon="6.34431944258">
		<tag k="fixme" v="consider natural=peak for the most distinct mountains in the district" />
		<tag k="name" v="Torvenuten" />
		<tag k="natural" v="hill" />
		<tag k="place" v="locality" />
		<tag k="ssr:stedsnr" v="307080" />
	</node>
	<node id="-518860" lat="59.8476750032" lon="6.35306389461">
		<tag k="name" v="Gaupegjuvet" />
		<tag k="natural" v="valley" />
		<tag k="place" v="locality" />
		<tag k="ssr:stedsnr" v="307065" />
	</node>
	<node id="-518850" lat="59.6742333298" lon="5.8559888849">
		<tag k="fixme" v="consider natural=peak for the most distinct mountains in the district" />
		<tag k="name" v="Gaddanuten" />
		<tag k="natural" v="hill" />
		<tag k="place" v="locality" />
		<tag k="ssr:stedsnr" v="306698" />
	</node>
	<node id="-518849" lat="59.6963888888" lon="5.84907500822">
		<tag k="alt_name" v="Norefjell" />
		<tag k="fixme" v="consider natural=peak for the most distinct mountains in the district" />
		<tag k="name" v="Nordfjell" />
		<tag k="natural" v="hill" />
		<tag k="place" v="locality" />
		<tag k="ssr:stedsnr" v="306695" />
	</node>
	<node id="-518844" lat="59.7226138918" lon="5.91192500308">
		<tag k="alt_name" v="Dudalsskarshaugen" />
		<tag k="name" v="Dudalsskardshaugen" />
		<tag k="natural" v="hill" />
		<tag k="place" v="locality" />
		<tag k="ssr:stedsnr" v="306649" />
	</node>
	<node id="-518838" lat="59.5854333312" lon="6.14428610593">
		<tag k="alt_name" v="Bjønndalsnuten" />
		<tag k="fixme" v="consider natural=peak for the most distinct mountains in the district" />
		<tag k="name" v="Bjørndalsnuten" />
		<tag k="natural" v="hill" />
		<tag k="place" v="locality" />
		<tag k="ssr:stedsnr" v="306543" />
	</node>
	<node id="-518835" lat="59.6145527779" lon="5.97926110655">
		<tag k="alt_name" v="Urdahaugen, store;Store Urahaugen" />
		<tag k="fixme" v="consider natural=peak for the most distinct mountains in the district" />
		<tag k="name" v="Store Urdahaugen" />
		<tag k="natural" v="hill" />
		<tag k="place" v="locality" />
		<tag k="ssr:stedsnr" v="306519" />
	</node>
	<node id="-518834" lat="59.6205361129" lon="6.01407500735">
		<tag k="fixme" v="consider natural=peak for the most distinct mountains in the district" />
		<tag k="name" v="Bjørgane" />
		<tag k="natural" v="hill" />
		<tag k="place" v="locality" />
		<tag k="ssr:stedsnr" v="306516" />
	</node>
	<node id="-518833" lat="59.6121666641" lon="5.898683336">
		<tag k="name" v="Grasdalen" />
		<tag k="natural" v="valley" />
		<tag k="place" v="locality" />
		<tag k="ssr:stedsnr" v="306515" />
	</node>
	<node id="-518828" lat="59.8855249992" lon="6.4482611076">
		<tag k="name" v="Gamleselsnuten" />
		<tag k="natural" v="hill" />
		<tag k="place" v="locality" />
		<tag k="ssr:stedsnr" v="186552" />
	</node>
	<node id="-518824" lat="59.9423472257" lon="6.42283610901">
		<tag k="name" v="Fagnabotnen" />
		<tag k="natural" v="valley" />
		<tag k="place" v="locality" />
		<tag k="ssr:stedsnr" v="186487" />
	</node>
	<node id="-518822" lat="59.7725388853" lon="6.14065555051">
		<tag k="alt_name" v="Seljekleivdjuvet" />
		<tag k="name" v="Seljekleivgjuvet" />
		<tag k="natural" v="valley" />
		<tag k="place" v="locality" />
		<tag k="ssr:stedsnr" v="186394" />
	</node>
	<node id="-518819" lat="59.8255938658" lon="6.14811334707">
		<tag k="fixme" v="consider natural=peak for the most distinct mountains in the district" />
		<tag k="name" v="Tungenuten" />
		<tag k="natural" v="hill" />
		<tag k="ssr:stedsnr" v="186197" />
	</node>
	<node id="-518817" lat="59.8080166664" lon="6.23047221539">
		<tag k="alt_name" v="Hengefjellet" />
		<tag k="fixme" v="consider natural=peak for the most distinct mountains in the district" />
		<tag k="name" v="Hengjefjell" />
		<tag k="natural" v="hill" />
		<tag k="place" v="locality" />
		<tag k="ssr:stedsnr" v="186081" />
	</node>
	<node id="-518816" lat="59.7845083339" lon="6.2384111042">
		<tag k="fixme" v="consider natural=peak for the most distinct mountains in the district" />
		<tag k="name" v="Hestaskardnuten" />
		<tag k="natural" v="hill" />
		<tag k="place" v="locality" />
		<tag k="ssr:stedsnr" v="186067" />
	</node>
	<node id="-518813" lat="59.8324388922" lon="6.49633610533">
		<tag k="alt_name" v="Rudlestadsåta" />
		<tag k="fixme" v="consider natural=peak for the most distinct mountains in the district" />
		<tag k="name" v="Rullestadsåta" />
		<tag k="natural" v="hill" />
		<tag k="place" v="locality" />
		<tag k="ssr:stedsnr" v="186030" />
	</node>
	<node id="-518809" lat="59.6591014428" lon="5.91339831499">
		<tag k="name" v="Matskårhaugane" />
		<tag k="natural" v="hill" />
		<tag k="place" v="locality" />
		<tag k="ssr:stedsnr" v="185712" />
	</node>
	<node id="-518803" lat="59.7136999994" lon="6.06528889653">
		<tag k="fixme" v="consider natural=peak for the most distinct mountains in the district" />
		<tag k="name" v="Nordleitet" />
		<tag k="natural" v="hill" />
		<tag k="place" v="locality" />
		<tag k="ssr:stedsnr" v="185667" />
	</node>
	<node id="-518801" lat="59.7317472192" lon="6.21228333984">
		<tag k="fixme" v="consider natural=peak for the most distinct mountains in the district" />
		<tag k="name" v="Dalafjellet" />
		<tag k="natural" v="hill" />
		<tag k="place" v="locality" />
		<tag k="ssr:stedsnr" v="185640" />
	</node>
	<node id="-518792" lat="59.6418166633" lon="6.00231667171">
		<tag k="fixme" v="consider natural=peak for the most distinct mountains in the district" />
		<tag k="name" v="Høylandshovda" />
		<tag k="natural" v="hill" />
		<tag k="place" v="locality" />
		<tag k="ssr:stedsnr" v="185469" />
	</node>
	<node id="-518788" lat="59.7971999976" lon="6.20083889773">
		<tag k="name" v="Knutsgjuvet" />
		<tag k="natural" v="valley" />
		<tag k="place" v="locality" />
		<tag k="ssr:stedsnr" v="185319" />
	</node>
	<node id="-518779" lat="59.8806249957" lon="6.42719444087">
		<tag k="name" v="Askehaug" />
		<tag k="natural" v="hill" />
		<tag k="place" v="locality" />
		<tag k="ssr:stedsnr" v="159829" />
	</node>
	<node id="-518778" lat="59.8773888934" lon="6.4613500047">
		<tag k="name" v="Tømmerdalen" />
		<tag k="natural" v="valley" />
		<tag k="place" v="locality" />
		<tag k="ssr:stedsnr" v="159819" />
	</node>
	<node id="-518773" lat="59.674013885" lon="5.96537777809">
		<tag k="name" v="Bogahaugen" />
		<tag k="natural" v="hill" />
		<tag k="place" v="locality" />
		<tag k="ssr:stedsnr" v="159699" />
	</node>
	<node id="-518772" lat="59.6719111072" lon="5.96518334084">
		<tag k="name" v="Stødlebrotet" />
		<tag k="place" v="locality" />
		<tag k="ssr:stedsnr" v="159696" />
	</node>
	<node id="-518770" lat="59.6077888908" lon="5.93615556384">
		<tag k="name" v="Ongelsdalen" />
		<tag k="natural" v="valley" />
		<tag k="place" v="locality" />
		<tag k="ssr:stedsnr" v="159681" />
	</node>
	<node id="-518769" lat="59.7334361093" lon="6.19951944336">
		<tag k="name" v="Bjørnaskorane" />
		<tag k="place" v="locality" />
		<tag k="ssr:stedsnr" v="159551" />
	</node>
	<node id="-518767" lat="59.7402916709" lon="6.02399999728">
		<tag k="name" v="Veafarmen" />
		<tag k="place" v="locality" />
		<tag k="ssr:stedsnr" v="159384" />
	</node>
	<node id="-518766" lat="59.7331444469" lon="6.01385278642">
		<tag k="fixme" v="consider natural=peak for the most distinct mountains in the district" />
		<tag k="name" v="Svenåsen" />
		<tag k="natural" v="hill" />
		<tag k="place" v="locality" />
		<tag k="ssr:stedsnr" v="159383" />
	</node>
	<node id="-518765" lat="59.7176777763" lon="6.18985277573">
		<tag k="name" v="Holkadjuvet" />
		<tag k="natural" v="gorge" />
		<tag k="ssr:stedsnr" v="159531" />
	</node>
	<node id="-518764" lat="59.7252305528" lon="6.18733332583">
		<tag k="name" v="Fretteberget" />
		<tag k="natural" v="hill" />
		<tag k="place" v="locality" />
		<tag k="ssr:stedsnr" v="159490" />
	</node>
	<node id="-518763" lat="59.7271944435" lon="6.16913055637">
		<tag k="name" v="Skjenarebakkane" />
		<tag k="natural" v="slope" />
		<tag k="place" v="locality" />
		<tag k="ssr:stedsnr" v="159486" />
	</node>
	<node id="-518762" lat="59.7276555567" lon="6.17581944028">
		<tag k="name" v="Hetlelio" />
		<tag k="natural" v="slope" />
		<tag k="place" v="locality" />
		<tag k="ssr:stedsnr" v="159484" />
	</node>
	<node id="-518761" lat="59.703755558" lon="5.95355000399">
		<tag k="name" v="Kåpedjuv" />
		<tag k="natural" v="gorge" />
		<tag k="ssr:stedsnr" v="159301" />
	</node>
	<node id="-518759" lat="59.6987611128" lon="6.13675833602">
		<tag k="name" v="Søteskarsdalen" />
		<tag k="natural" v="valley" />
		<tag k="place" v="locality" />
		<tag k="ssr:stedsnr" v="159097" />
	</node>
	<node id="-518752" lat="59.8096027817" lon="6.24063888787">
		<tag k="name" v="Bjørnehaugane" />
		<tag k="natural" v="hill" />
		<tag k="place" v="locality" />
		<tag k="ssr:stedsnr" v="159164" />
	</node>
	<node id="-518749" lat="59.7563527745" lon="5.95086667545">
		<tag k="name" v="Krommedalsskar" />
		<tag k="natural" v="valley" />
		<tag k="place" v="locality" />
		<tag k="ssr:stedsnr" v="158071" />
	</node>
	<node id="-518746" lat="59.8866166704" lon="6.33459166857">
		<tag k="fixme" v="consider natural=peak for the most distinct mountains in the district" />
		<tag k="name" v="Kikalonsnuten" />
		<tag k="natural" v="hill" />
		<tag k="place" v="locality" />
		<tag k="ssr:stedsnr" v="125501" />
	</node>
	<node id="-518745" lat="59.9413999957" lon="6.45365277388">
		<tag k="name" v="Solbakkane" />
		<tag k="natural" v="slope" />
		<tag k="place" v="locality" />
		<tag k="ssr:stedsnr" v="125469" />
	</node>
	<node id="-518744" lat="59.7553361103" lon="6.14097222515">
		<tag k="alt_name" v="Store Klakken" />
		<tag k="name" v="Storeklakken" />
		<tag k="natural" v="slope" />
		<tag k="old_name" v="Store klakken" />
		<tag k="place" v="locality" />
		<tag k="ssr:stedsnr" v="125426" />
	</node>
	<node id="-518743" lat="59.7599888856" lon="6.19968610286">
		<tag k="name" v="Gloppenuten" />
		<tag k="natural" v="hill" />
		<tag k="place" v="locality" />
		<tag k="ssr:stedsnr" v="125421" />
	</node>
	<node id="-518742" lat="59.7576499978" lon="6.16203611114">
		<tag k="name" v="Skreddalen" />
		<tag k="natural" v="valley" />
		<tag k="place" v="locality" />
		<tag k="ssr:stedsnr" v="125419" />
	</node>
	<node id="-518739" lat="59.7637111128" lon="5.9354749943">
		<tag k="name" v="Otradalen" />
		<tag k="natural" v="valley" />
		<tag k="place" v="locality" />
		<tag k="ssr:stedsnr" v="125386" />
	</node>
	<node id="-518738" lat="59.7892749986" lon="6.20327500725">
		<tag k="name" v="Ripelsdalen" />
		<tag k="natural" v="valley" />
		<tag k="place" v="locality" />
		<tag k="ssr:stedsnr" v="125360" />
	</node>
	<node id="-518736" lat="59.8438249958" lon="6.20033610953">
		<tag k="name" v="Sauabakkane" />
		<tag k="natural" v="slope" />
		<tag k="place" v="locality" />
		<tag k="ssr:stedsnr" v="125215" />
	</node>
	<node id="-518734" lat="59.7974638935" lon="6.3239888971">
		<tag k="name" v="Austmannadalen" />
		<tag k="natural" v="valley" />
		<tag k="place" v="locality" />
		<tag k="ssr:stedsnr" v="125085" />
	</node>
	<node id="-518725" lat="59.7421500032" lon="6.2590250018">
		<tag k="fixme" v="consider natural=peak for the most distinct mountains in the district" />
		<tag k="name" v="Ingebjørgsnuten" />
		<tag k="natural" v="hill" />
		<tag k="place" v="locality" />
		<tag k="ssr:stedsnr" v="124921" />
	</node>
	<node id="-518724" lat="59.7464666694" lon="6.27946388118">
		<tag k="fixme" v="consider natural=peak for the most distinct mountains in the district" />
		<tag k="name" v="Grønaheinuten" />
		<tag k="natural" v="hill" />
		<tag k="place" v="locality" />
		<tag k="ssr:stedsnr" v="124920" />
	</node>
	<node id="-518723" lat="59.7169833323" lon="6.24182500751">
		<tag k="alt_name" v="Holsnanuten, nordre" />
		<tag k="fixme" v="consider natural=peak for the most distinct mountains in the district" />
		<tag k="name" v="Nordre Holsnanuten" />
		<tag k="natural" v="hill" />
		<tag k="place" v="locality" />
		<tag k="ssr:stedsnr" v="124899" />
	</node>
	<node id="-518722" lat="59.6872749997" lon="5.92045833116">
		<tag k="fixme" v="consider natural=peak for the most distinct mountains in the district" />
		<tag k="name" v="Veten" />
		<tag k="natural" v="hill" />
		<tag k="ssr:stedsnr" v="124655" />
	</node>
	<node id="-518721" lat="59.7133277813" lon="5.90993333599">
		<tag k="alt_name" v="Leiknesnibba;Leiknesnepa" />
		<tag k="name" v="Leknesnepa" />
		<tag k="natural" v="hill" />
		<tag k="place" v="locality" />
		<tag k="ssr:stedsnr" v="124650" />
	</node>
	<node id="-518719" lat="59.7099638881" lon="6.0169027805">
		<tag k="fixme" v="consider natural=peak for the most distinct mountains in the district" />
		<tag k="name" v="Tjellenuten" />
		<tag k="natural" v="hill" />
		<tag k="ssr:stedsnr" v="124644" />
	</node>
	<node id="-518718" lat="59.7250888859" lon="6.20146388091">
		<tag k="name" v="Rapen" />
		<tag k="natural" v="slope" />
		<tag k="place" v="locality" />
		<tag k="ssr:stedsnr" v="124642" />
	</node>
	<node id="-518712" lat="59.5960666638" lon="6.16525278574">
		<tag k="name" v="Vardanuten" />
		<tag k="natural" v="hill" />
		<tag k="place" v="locality" />
		<tag k="ssr:stedsnr" v="124503" />
	</node>
	<node id="-518711" lat="59.6043750021" lon="6.14686110886">
		<tag k="name" v="Bjørndalen" />
		<tag k="natural" v="valley" />
		<tag k="place" v="locality" />
		<tag k="ssr:stedsnr" v="124497" />
	</node>
	<node id="-518709" lat="59.6309138889" lon="5.8636499958">
		<tag k="alt_name" v="Håvåsen" />
		<tag k="fixme" v="consider natural=peak for the most distinct mountains in the district" />
		<tag k="name" v="Havåsen" />
		<tag k="natural" v="hill" />
		<tag k="place" v="locality" />
		<tag k="ssr:stedsnr" v="124466" />
	</node>
	<node id="-518699" lat="59.6790000016" lon="5.83642500751">
		<tag k="fixme" v="consider natural=peak for the most distinct mountains in the district" />
		<tag k="name" v="Sauanuten" />
		<tag k="natural" v="hill" />
		<tag k="place" v="locality" />
		<tag k="ssr:stedsnr" v="124014" />
	</node>
	<node id="-518698" lat="59.6789750001" lon="5.8424166701">
		<tag k="alt_name" v="Aksdalsskar" />
		<tag k="name" v="Aksdalsskardet" />
		<tag k="natural" v="valley" />
		<tag k="place" v="locality" />
		<tag k="ssr:stedsnr" v="124012" />
	</node>
	<node id="-518686" lat="59.8747250012" lon="6.39872221788">
		<tag k="name" v="Ingadalen" />
		<tag k="natural" v="valley" />
		<tag k="place" v="locality" />
		<tag k="ssr:stedsnr" v="98795" />
	</node>
	<node id="-518685" lat="59.8685555567" lon="6.47047500783">
		<tag k="name" v="Mehagen" />
		<tag k="place" v="locality" />
		<tag k="ssr:stedsnr" v="98792" />
	</node>
	<node id="-518680" lat="59.7311666706" lon="6.11570555113">
		<tag k="name" v="Varpet" />
		<tag k="place" v="locality" />
		<tag k="ssr:stedsnr" v="98601" />
	</node>
	<node id="-518679" lat="59.6536861116" lon="5.80124999293">
		<tag k="name" v="Vaulahaugen" />
		<tag k="natural" v="hill" />
		<tag k="place" v="locality" />
		<tag k="ssr:stedsnr" v="98599" />
	</node>
	<node id="-518677" lat="59.6860888898" lon="5.78925277522">
		<tag k="name" v="Kråkehaugen" />
		<tag k="natural" v="hill" />
		<tag k="place" v="locality" />
		<tag k="ssr:stedsnr" v="98836" />
	</node>
	<node id="-518675" lat="59.7277555539" lon="5.89890277112">
		<tag k="name" v="Bjørnebærskarshaugen" />
		<tag k="natural" v="hill" />
		<tag k="place" v="locality" />
		<tag k="ssr:stedsnr" v="98745" />
	</node>
	<node id="-518674" lat="59.6206222245" lon="5.99614444764">
		<tag k="name" v="Røynekleiv" />
		<tag k="natural" v="slope" />
		<tag k="place" v="locality" />
		<tag k="ssr:stedsnr" v="98738" />
	</node>
	<node id="-518672" lat="59.6797638861" lon="5.9470500006">
		<tag k="name" v="Sillalia" />
		<tag k="natural" v="slope" />
		<tag k="place" v="locality" />
		<tag k="ssr:stedsnr" v="98651" />
	</node>
	<node id="-518671" lat="59.6118555538" lon="6.01651943753">
		<tag k="fixme" v="consider natural=peak for the most distinct mountains in the district" />
		<tag k="name" v="Kattanibba" />
		<tag k="natural" v="hill" />
		<tag k="ssr:stedsnr" v="98649" />
	</node>
	<node id="-518670" lat="59.6372222186" lon="5.91651944316">
		<tag k="name" v="Osvåglia" />
		<tag k="natural" v="slope" />
		<tag k="place" v="locality" />
		<tag k="ssr:stedsnr" v="98622" />
	</node>
	<node id="-518666" lat="59.6782777809" lon="5.8036833251">
		<tag k="name" v="Ormahaugane" />
		<tag k="natural" v="hill" />
		<tag k="place" v="locality" />
		<tag k="ssr:stedsnr" v="98479" />
	</node>
	<node id="-518662" lat="59.70730278" lon="6.0770027794">
		<tag k="name" v="Hushaug" />
		<tag k="natural" v="hill" />
		<tag k="place" v="locality" />
		<tag k="ssr:stedsnr" v="98287" />
	</node>
	<node id="-518660" lat="59.815352782" lon="6.24007500337">
		<tag k="name" v="Markhuslia" />
		<tag k="natural" v="slope" />
		<tag k="place" v="locality" />
		<tag k="ssr:stedsnr" v="98197" />
	</node>
	<node id="-518659" lat="59.7163361147" lon="6.18384721599">
		<tag k="fixme" v="consider natural=peak for the most distinct mountains in the district" />
		<tag k="name" v="Storlieggene" />
		<tag k="natural" v="hill" />
		<tag k="ssr:stedsnr" v="98519" />
	</node>
	<node id="-518658" lat="59.6832944476" lon="6.10514444611">
		<tag k="fixme" v="consider natural=peak for the most distinct mountains in the district" />
		<tag k="name" v="Solnut" />
		<tag k="natural" v="hill" />
		<tag k="ssr:stedsnr" v="98449" />
	</node>
	<node id="-518657" lat="59.6857750044" lon="6.10586943974">
		<tag k="fixme" v="consider natural=peak for the most distinct mountains in the district" />
		<tag k="name" v="Ravnanuten" />
		<tag k="natural" v="hill" />
		<tag k="ssr:stedsnr" v="98441" />
	</node>
	<node id="-518655" lat="59.7337666632" lon="6.03220833087">
		<tag k="name" v="Ekornhaugane" />
		<tag k="natural" v="hill" />
		<tag k="place" v="locality" />
		<tag k="ssr:stedsnr" v="98342" />
	</node>
	<node id="-518654" lat="59.7255333346" lon="6.03832222386">
		<tag k="fixme" v="consider natural=peak for the most distinct mountains in the district" />
		<tag k="name" v="Fongsdalsåsen" />
		<tag k="natural" v="hill" />
		<tag k="place" v="locality" />
		<tag k="ssr:stedsnr" v="98332" />
	</node>
	<node id="-518653" lat="59.7202249978" lon="6.04352221988">
		<tag k="name" v="Kuskar" />
		<tag k="natural" v="valley" />
		<tag k="place" v="locality" />
		<tag k="ssr:stedsnr" v="98251" />
	</node>
	<node id="-518652" lat="59.7293277747" lon="5.96639999284">
		<tag k="name" v="Strandhaugane" />
		<tag k="natural" v="hill" />
		<tag k="place" v="locality" />
		<tag k="ssr:stedsnr" v="98244" />
	</node>
	<node id="-518649" lat="59.799994445" lon="6.25030278253">
		<tag k="fixme" v="consider natural=peak for the most distinct mountains in the district" />
		<tag k="name" v="Vetlafjellet" />
		<tag k="natural" v="hill" />
		<tag k="place" v="locality" />
		<tag k="ssr:stedsnr" v="98151" />
	</node>
	<node id="-518647" lat="59.7847138925" lon="6.15350555488">
		<tag k="name" v="Tøket" />
		<tag k="natural" v="ridge" />
		<tag k="place" v="locality" />
		<tag k="ssr:stedsnr" v="98164" />
	</node>
	<node id="-518645" lat="59.7487916677" lon="5.94445555256">
		<tag k="name" v="Øsphaug" />
		<tag k="natural" v="hill" />
		<tag k="place" v="locality" />
		<tag k="ssr:stedsnr" v="98041" />
	</node>
	<node id="-518638" lat="59.7638416628" lon="6.18019444101">
		<tag k="alt_name" v="Geitskarnuten" />
		<tag k="fixme" v="consider natural=peak for the most distinct mountains in the district" />
		<tag k="name" v="Geitskardnuten" />
		<tag k="natural" v="hill" />
		<tag k="place" v="locality" />
		<tag k="ssr:stedsnr" v="65383" />
	</node>
	<node id="-518637" lat="59.7621499966" lon="6.15821389094">
		<tag k="name" v="Knultane" />
		<tag k="natural" v="hill" />
		<tag k="place" v="locality" />
		<tag k="ssr:stedsnr" v="65381" />
	</node>
	<node id="-518635" lat="59.7528194474" lon="6.27321944607">
		<tag k="fixme" v="consider natural=peak for the most distinct mountains in the district" />
		<tag k="name" v="Drivanes" />
		<tag k="natural" v="hill" />
		<tag k="place" v="locality" />
		<tag k="ssr:stedsnr" v="65091" />
	</node>
	<node id="-518634" lat="59.8346694446" lon="6.35286388907">
		<tag k="name" v="Øykjaskard" />
		<tag k="natural" v="valley" />
		<tag k="place" v="locality" />
		<tag k="ssr:stedsnr" v="65044" />
	</node>
	<node id="-518630" lat="59.7177555558" lon="5.87522777805">
		<tag k="name" v="Osphaugen" />
		<tag k="natural" v="hill" />
		<tag k="place" v="locality" />
		<tag k="ssr:stedsnr" v="64686" />
	</node>
	<node id="-518627" lat="59.6073388859" lon="6.07632777339">
		<tag k="name" v="Kaldeimshovda" />
		<tag k="natural" v="hill" />
		<tag k="place" v="locality" />
		<tag k="ssr:stedsnr" v="64548" />
	</node>
	<node id="-518621" lat="59.8907861105" lon="6.44485278481">
		<tag k="alt_name" v="Nyestølsnuten" />
		<tag k="name" v="Nystølsnuten" />
		<tag k="natural" v="hill" />
		<tag k="place" v="locality" />
		<tag k="ssr:stedsnr" v="64484" />
	</node>
	<node id="-518620" lat="59.8731250034" lon="6.3463027738">
		<tag k="fixme" v="consider natural=peak for the most distinct mountains in the district" />
		<tag k="name" v="Endafjellet" />
		<tag k="natural" v="hill" />
		<tag k="place" v="locality" />
		<tag k="ssr:stedsnr" v="64475" />
	</node>
	<node id="-518619" lat="59.9274916694" lon="6.30097221678">
		<tag k="alt_name" v="Botnane, insta" />
		<tag k="name" v="Inste Botnane" />
		<tag k="natural" v="valley" />
		<tag k="place" v="locality" />
		<tag k="ssr:stedsnr" v="64444" />
	</node>
	<node id="-518612" lat="59.8550888862" lon="6.19721111911">
		<tag k="alt_name" v="Intveithorga;Eintveithorgi" />
		<tag k="fixme" v="consider natural=peak for the most distinct mountains in the district" />
		<tag k="name" v="Eintveithorga" />
		<tag k="natural" v="hill" />
		<tag k="place" v="locality" />
		<tag k="ssr:stedsnr" v="64152" />
	</node>
	<node id="-518610" lat="59.6857083332" lon="6.11318055526">
		<tag k="fixme" v="consider natural=peak for the most distinct mountains in the district" />
		<tag k="name" v="Flokatveitnuten" />
		<tag k="natural" v="hill" />
		<tag k="place" v="locality" />
		<tag k="ssr:stedsnr" v="63718" />
	</node>
	<node id="-518594" lat="59.6299944432" lon="6.03614166278">
		<tag k="name" v="Hodlo" />
		<tag k="natural" v="ridge" />
		<tag k="place" v="locality" />
		<tag k="ssr:stedsnr" v="38762" />
	</node>
	<node id="-518593" lat="59.6412055587" lon="6.02107221759">
		<tag k="name" v="Ikodnekleiv" />
		<tag k="natural" v="slope" />
		<tag k="place" v="locality" />
		<tag k="ssr:stedsnr" v="38688" />
	</node>
	<node id="-518591" lat="59.7643861084" lon="6.1287055596">
		<tag k="name" v="Sævareidberget" />
		<tag k="natural" v="hill" />
		<tag k="place" v="locality" />
		<tag k="ssr:stedsnr" v="38026" />
	</node>
	<node id="-518589" lat="59.6032944462" lon="6.18854999386">
		<tag k="alt_name" v="Regnfossbrotene" />
		<tag k="name" v="Reinsfossbrotene" />
		<tag k="natural" v="hill" />
		<tag k="place" v="locality" />
		<tag k="ssr:stedsnr" v="38074" />
	</node>
	<node id="-518588" lat="59.7480638846" lon="6.14711667234">
		<tag k="fixme" v="consider natural=peak for the most distinct mountains in the district" />
		<tag k="name" v="Brattvegnuten" />
		<tag k="natural" v="hill" />
		<tag k="ssr:stedsnr" v="38023" />
	</node>
	<node id="-518586" lat="59.6242888863" lon="5.94588610289">
		<tag k="name" v="Pålskard" />
		<tag k="natural" v="valley" />
		<tag k="place" v="locality" />
		<tag k="ssr:stedsnr" v="37735" />
	</node>
	<node id="-518584" lat="59.6984083324" lon="5.82698889712">
		<tag k="name" v="Nonsdal" />
		<tag k="natural" v="valley" />
		<tag k="place" v="locality" />
		<tag k="ssr:stedsnr" v="37719" />
	</node>
	<node id="-518583" lat="59.8576555543" lon="6.45989721436">
		<tag k="name" v="Bortnalia" />
		<tag k="natural" v="slope" />
		<tag k="place" v="locality" />
		<tag k="ssr:stedsnr" v="37796" />
	</node>
	<node id="-518579" lat="59.6616972188" lon="5.93021389634">
		<tag k="name" v="Oldboyshaug" />
		<tag k="natural" v="hill" />
		<tag k="place" v="locality" />
		<tag k="ssr:stedsnr" v="37546" />
	</node>
	<node id="-518577" lat="59.6507861124" lon="5.90375278355">
		<tag k="name" v="Varhaug" />
		<tag k="natural" v="hill" />
		<tag k="place" v="locality" />
		<tag k="ssr:stedsnr" v="37538" />
	</node>
	<node id="-518576" lat="59.7134944441" lon="6.14596388706">
		<tag k="name" v="Tveito" />
		<tag k="place" v="locality" />
		<tag k="ssr:stedsnr" v="37429" />
	</node>
	<node id="-518575" lat="59.7088472261" lon="6.14067778248">
		<tag k="name" v="Kaldufs" />
		<tag k="place" v="locality" />
		<tag k="ssr:stedsnr" v="37424" />
	</node>
	<node id="-518572" lat="59.7441722234" lon="6.15453611453">
		<tag k="name" v="Storaleitet" />
		<tag k="natural" v="slope" />
		<tag k="place" v="locality" />
		<tag k="ssr:stedsnr" v="37411" />
	</node>
	<node id="-518571" lat="59.7311055585" lon="6.01586111015">
		<tag k="name" v="Treshaugane" />
		<tag k="natural" v="hill" />
		<tag k="place" v="locality" />
		<tag k="ssr:stedsnr" v="37350" />
	</node>
	<node id="-518569" lat="59.7133944464" lon="5.90041388472">
		<tag k="name" v="Martinshaug" />
		<tag k="natural" v="hill" />
		<tag k="place" v="locality" />
		<tag k="ssr:stedsnr" v="37574" />
	</node>
	<node id="-518568" lat="59.7133055531" lon="5.92631667545">
		<tag k="name" v="Bjelkhaug" />
		<tag k="natural" v="hill" />
		<tag k="place" v="locality" />
		<tag k="ssr:stedsnr" v="37573" />
	</node>
	<node id="-518567" lat="59.7199500021" lon="5.87208888617">
		<tag k="name" v="Bershovda" />
		<tag k="natural" v="hill" />
		<tag k="place" v="locality" />
		<tag k="ssr:stedsnr" v="37561" />
	</node>
	<node id="-518566" lat="59.7659833309" lon="5.92992500258">
		<tag k="alt_name" v="Ramseid vestre" />
		<tag k="name" v="Vestre Ramseid" />
		<tag k="place" v="locality" />
		<tag k="ssr:stedsnr" v="37496" />
	</node>
	<node id="-518560" lat="59.6826138861" lon="6.13846111316">
		<tag k="name" v="Djupaheiane" />
		<tag k="natural" v="hill" />
		<tag k="place" v="locality" />
		<tag k="ssr:stedsnr" v="37386" />
	</node>
	<node id="-518559" lat="59.6618722265" lon="6.06973611092">
		<tag k="name" v="Litledalslia" />
		<tag k="natural" v="slope" />
		<tag k="place" v="locality" />
		<tag k="ssr:stedsnr" v="37380" />
	</node>
	<node id="-518558" lat="59.6851888872" lon="5.98712221448">
		<tag k="name" v="Djupadalen" />
		<tag k="natural" v="valley" />
		<tag k="place" v="locality" />
		<tag k="ssr:stedsnr" v="37296" />
	</node>
	<node id="-518557" lat="59.6962888899" lon="6.03044444635">
		<tag k="name" v="Urahaugen" />
		<tag k="natural" v="hill" />
		<tag k="place" v="locality" />
		<tag k="ssr:stedsnr" v="37283" />
	</node>
	<node id="-518556" lat="59.7154999978" lon="5.97418888555">
		<tag k="fixme" v="consider natural=peak for the most distinct mountains in the district" />
		<tag k="name" v="Oddane" />
		<tag k="natural" v="hill" />
		<tag k="ssr:stedsnr" v="37278" />
	</node>
	<node id="-518554" lat="59.7113960418" lon="5.94578624121">
		<tag k="name" v="Skjodnarehaugen" />
		<tag k="natural" v="hill" />
		<tag k="place" v="locality" />
		<tag k="ssr:stedsnr" v="37276" />
	</node>
	<node id="-518552" lat="59.848708333" lon="6.27392778334">
		<tag k="name" v="Rauneskar" />
		<tag k="natural" v="valley" />
		<tag k="place" v="locality" />
		<tag k="ssr:stedsnr" v="37232" />
	</node>
	<node id="-518550" lat="59.7587833343" lon="6.14556111005">
		<tag k="name" v="Litle Skredkollen" />
		<tag k="natural" v="hill" />
		<tag k="place" v="locality" />
		<tag k="ssr:stedsnr" v="37040" />
	</node>
	<node id="-518548" lat="59.7216166662" lon="5.9516888847">
		<tag k="loc_name" v="Tunga" />
		<tag k="name" v="Tongo" />
		<tag k="natural" v="ridge" />
		<tag k="place" v="locality" />
		<tag k="ssr:stedsnr" v="37281" />
	</node>
	<node id="-518546" lat="59.7610027737" lon="5.93511111035">
		<tag k="fixme" v="consider natural=peak for the most distinct mountains in the district" />
		<tag k="name" v="Åsen" />
		<tag k="natural" v="hill" />
		<tag k="place" v="locality" />
		<tag k="ssr:stedsnr" v="4595" />
	</node>
	<node id="-518545" lat="59.8274055516" lon="6.38763054896">
		<tag k="fixme" v="consider natural=peak for the most distinct mountains in the district" />
		<tag k="name" v="Sauanuten" />
		<tag k="natural" v="hill" />
		<tag k="place" v="locality" />
		<tag k="ssr:stedsnr" v="4593" />
	</node>
	<node id="-518544" lat="59.8650277786" lon="6.22633889304">
		<tag k="fixme" v="consider natural=peak for the most distinct mountains in the district" />
		<tag k="name" v="Alvaldsnuten" />
		<tag k="natural" v="hill" />
		<tag k="place" v="locality" />
		<tag k="ssr:stedsnr" v="4486" />
	</node>
	<node id="-518543" lat="59.8889388878" lon="6.37464723053">
		<tag k="alt_name" v="Hjortedalsbrekko" />
		<tag k="name" v="Hjortedalsbrekka" />
		<tag k="natural" v="slope" />
		<tag k="place" v="locality" />
		<tag k="ssr:stedsnr" v="4485" />
	</node>
	<node id="-518542" lat="59.9046027782" lon="6.42492222133">
		<tag k="fixme" v="consider natural=peak for the most distinct mountains in the district" />
		<tag k="name" v="Svartenut" />
		<tag k="natural" v="hill" />
		<tag k="place" v="locality" />
		<tag k="ssr:stedsnr" v="4477" />
	</node>
	<node id="-518541" lat="59.9051749959" lon="6.36258055124">
		<tag k="fixme" v="consider natural=peak for the most distinct mountains in the district" />
		<tag k="name" v="Grønenuten" />
		<tag k="natural" v="hill" />
		<tag k="place" v="locality" />
		<tag k="ssr:stedsnr" v="4459" />
	</node>
	<node id="-518539" lat="59.9438888844" lon="6.4365055536">
		<tag k="fixme" v="consider natural=peak for the most distinct mountains in the district" />
		<tag k="name" v="Fagnabotnhorga" />
		<tag k="natural" v="hill" />
		<tag k="place" v="locality" />
		<tag k="ssr:stedsnr" v="4436" />
	</node>
	<node id="-518538" lat="59.9497833376" lon="6.40529722525">
		<tag k="fixme" v="consider natural=peak for the most distinct mountains in the district" />
		<tag k="name" v="Springborgheia" />
		<tag k="natural" v="hill" />
		<tag k="place" v="locality" />
		<tag k="ssr:stedsnr" v="4432" />
	</node>
	<node id="-518534" lat="59.7702749982" lon="6.13203054773">
		<tag k="name" v="Kyrkjehillaren" />
		<tag k="place" v="locality" />
		<tag k="ssr:stedsnr" v="4340" />
	</node>
	<node id="-518532" lat="59.7991472221" lon="6.27375277294">
		<tag k="fixme" v="consider natural=peak for the most distinct mountains in the district" />
		<tag k="name" v="Møssegronuten" />
		<tag k="natural" v="hill" />
		<tag k="place" v="locality" />
		<tag k="ssr:stedsnr" v="4088" />
	</node>
	<node id="-518531" lat="59.7801166634" lon="6.22316388819">
		<tag k="fixme" v="consider natural=peak for the most distinct mountains in the district" />
		<tag k="name" v="Urdaheia" />
		<tag k="natural" v="hill" />
		<tag k="place" v="locality" />
		<tag k="ssr:stedsnr" v="4071" />
	</node>
	<node id="-518529" lat="59.8360166691" lon="6.47864722868">
		<tag k="name" v="Sæterdalsbotnen" />
		<tag k="natural" v="valley" />
		<tag k="place" v="locality" />
		<tag k="ssr:stedsnr" v="4041" />
	</node>
	<node id="-518528" lat="59.8617805595" lon="6.36708888194">
		<tag k="alt_name" v="Furuhaugen" />
		<tag k="name" v="Furehaugen" />
		<tag k="natural" v="hill" />
		<tag k="place" v="locality" />
		<tag k="ssr:stedsnr" v="4019" />
	</node>
	<node id="-518525" lat="59.7406500029" lon="6.22647500318">
		<tag k="fixme" v="consider natural=peak for the most distinct mountains in the district" />
		<tag k="name" v="Naglane" />
		<tag k="natural" v="hill" />
		<tag k="place" v="locality" />
		<tag k="ssr:stedsnr" v="3932" />
	</node>
	<node id="-518524" lat="59.7305333298" lon="6.26885832904">
		<tag k="alt_name" v="Sauanuten, in" />
		<tag k="fixme" v="consider natural=peak for the most distinct mountains in the district" />
		<tag k="name" v="Indre Sauanuten" />
		<tag k="natural" v="hill" />
		<tag k="place" v="locality" />
		<tag k="ssr:stedsnr" v="3916" />
	</node>
	<node id="-518523" lat="59.7207861096" lon="6.05010000013">
		<tag k="fixme" v="consider natural=peak for the most distinct mountains in the district" />
		<tag k="name" v="Dalanuten" />
		<tag k="natural" v="hill" />
		<tag k="place" v="locality" />
		<tag k="ssr:stedsnr" v="3634" />
	</node>
	<node id="-518514" lat="59.6593861099" lon="5.80964443711">
		<tag k="alt_name" v="Hedlandsåsen" />
		<tag k="fixme" v="consider natural=peak for the most distinct mountains in the district" />
		<tag k="name" v="Hellandsåsen" />
		<tag k="natural" v="hill" />
		<tag k="place" v="locality" />
		<tag k="ssr:stedsnr" v="3430" />
	</node>
	<node id="-518512" lat="59.7863777746" lon="6.19238888259">
		<tag k="name" v="Stølshaugen" />
		<tag k="natural" v="hill" />
		<tag k="place" v="locality" />
		<tag k="ssr:stedsnr" v="3302" />
	</node>
	<node id="-518504" lat="59.8289672681" lon="6.13574780607">
		<tag k="fixme" v="consider natural=peak for the most distinct mountains in the district" />
		<tag k="name" v="Kvanndalsnuten" />
		<tag k="natural" v="hill" />
		<tag k="ssr:stedsnr" v="976448" />
	</node>
	<node id="-518501" lat="59.7457361127" lon="6.11742778043">
		<tag k="name" v="Tostølshaugen" />
		<tag k="natural" v="hill" />
		<tag k="place" v="locality" />
		<tag k="ssr:stedsnr" v="948865" />
	</node>
	<node id="-518498" lat="59.8532999958" lon="6.48694444958">
		<tag k="fixme" v="consider natural=peak for the most distinct mountains in the district" />
		<tag k="name" v="Storenuten" />
		<tag k="natural" v="hill" />
		<tag k="ssr:stedsnr" v="948854" />
	</node>
	<node id="-518497" lat="59.6073583359" lon="5.97294721783">
		<tag k="name" v="Store Holmavasshaugen" />
		<tag k="natural" v="hill" />
		<tag k="place" v="locality" />
		<tag k="ssr:stedsnr" v="948725" />
	</node>
	<node id="-518494" lat="59.6708777751" lon="5.96777221969">
		<tag k="name" v="Sørheimsmoen" />
		<tag k="place" v="locality" />
		<tag k="ssr:stedsnr" v="948705" />
	</node>
	<node id="-518493" lat="59.7363999963" lon="6.19103332746">
		<tag k="name" v="Storflotbotn" />
		<tag k="natural" v="valley" />
		<tag k="place" v="locality" />
		<tag k="ssr:stedsnr" v="948572" />
	</node>
	<node id="-518490" lat="59.7013222234" lon="6.10358610518">
		<tag k="name" v="Bjørnahaugen" />
		<tag k="natural" v="hill" />
		<tag k="place" v="locality" />
		<tag k="ssr:stedsnr" v="948458" />
	</node>
	<node id="-518484" lat="59.8260444481" lon="6.2915916677">
		<tag k="name" v="Rundekulten" />
		<tag k="natural" v="hill" />
		<tag k="place" v="locality" />
		<tag k="ssr:stedsnr" v="948226" />
	</node>
	<node id="-518483" lat="59.8479666631" lon="6.30550554729">
		<tag k="name" v="Løberg" />
		<tag k="natural" v="hill" />
		<tag k="place" v="locality" />
		<tag k="ssr:stedsnr" v="948224" />
	</node>
	<node id="-518481" lat="59.7119944464" lon="6.07371944324">
		<tag k="name" v="Høgsete" />
		<tag k="place" v="locality" />
		<tag k="ssr:stedsnr" v="948359" />
	</node>
	<node id="-518479" lat="59.7077132044" lon="6.01721286884">
		<tag k="name" v="Norheimskar" />
		<tag k="natural" v="valley" />
		<tag k="place" v="locality" />
		<tag k="ssr:stedsnr" v="948304" />
	</node>
	<node id="-518476" lat="59.6538111148" lon="6.06256665943">
		<tag k="name" v="Takhiller" />
		<tag k="place" v="locality" />
		<tag k="ssr:stedsnr" v="948013" />
	</node>
	<node id="-518475" lat="59.7521888866" lon="5.96066110314">
		<tag k="name" v="Askedalen" />
		<tag k="natural" v="valley" />
		<tag k="place" v="locality" />
		<tag k="ssr:stedsnr" v="947070" />
	</node>
	<node id="-518474" lat="59.7569000025" lon="5.94458611183">
		<tag k="name" v="Midtdalen" />
		<tag k="natural" v="valley" />
		<tag k="place" v="locality" />
		<tag k="ssr:stedsnr" v="947063" />
	</node>
	<node id="-518466" lat="59.6319722202" lon="5.89303611382">
		<tag k="name" v="Fiksebakkane" />
		<tag k="natural" v="slope" />
		<tag k="place" v="locality" />
		<tag k="ssr:stedsnr" v="887623" />
	</node>
	<node id="-518465" lat="59.6183416634" lon="5.91206388406">
		<tag k="fixme" v="consider natural=peak for the most distinct mountains in the district" />
		<tag k="name" v="Gudmundstølsnuten" />
		<tag k="natural" v="hill" />
		<tag k="ssr:stedsnr" v="887622" />
	</node>
	<node id="-518456" lat="59.7234722265" lon="5.91479722606">
		<tag k="name" v="Kvednadjuvet" />
		<tag k="natural" v="gorge" />
		<tag k="ssr:stedsnr" v="887555" />
	</node>
	<node id="-518455" lat="59.7237388928" lon="6.19828889186">
		<tag k="name" v="Hellauglia" />
		<tag k="natural" v="slope" />
		<tag k="place" v="locality" />
		<tag k="ssr:stedsnr" v="887512" />
	</node>
	<node id="-518454" lat="59.6831416706" lon="6.10896943572">
		<tag k="fixme" v="consider natural=peak for the most distinct mountains in the district" />
		<tag k="name" v="Vierenuten" />
		<tag k="natural" v="hill" />
		<tag k="ssr:stedsnr" v="887377" />
	</node>
	<node id="-518453" lat="59.7152472191" lon="6.08368333487">
		<tag k="name" v="Øsparehaugen" />
		<tag k="natural" v="hill" />
		<tag k="place" v="locality" />
		<tag k="ssr:stedsnr" v="887316" />
	</node>
	<node id="-518452" lat="59.7059416676" lon="6.01103332696">
		<tag k="fixme" v="consider natural=peak for the most distinct mountains in the district" />
		<tag k="name" v="Steinfjellet" />
		<tag k="natural" v="hill" />
		<tag k="place" v="locality" />
		<tag k="ssr:stedsnr" v="887276" />
	</node>
	<node id="-518449" lat="59.6505666667" lon="6.085433341">
		<tag k="name" v="Kritlahovda" />
		<tag k="natural" v="hill" />
		<tag k="place" v="locality" />
		<tag k="ssr:stedsnr" v="887012" />
	</node>
	<node id="-518447" lat="59.6471166654" lon="6.06799166224">
		<tag k="name" v="Strype" />
		<tag k="natural" v="valley" />
		<tag k="place" v="locality" />
		<tag k="ssr:stedsnr" v="887007" />
	</node>
	<node id="-518446" lat="59.7936611119" lon="6.19444444018">
		<tag k="name" v="Kvitaberglia" />
		<tag k="natural" v="slope" />
		<tag k="place" v="locality" />
		<tag k="ssr:stedsnr" v="887166" />
	</node>
	<node id="-518443" lat="59.8905666638" lon="6.45444722704">
		<tag k="name" v="Heia" />
		<tag k="natural" v="hill" />
		<tag k="place" v="locality" />
		<tag k="ssr:stedsnr" v="948843" />
	</node>
	<node id="-518442" lat="59.8742805588" lon="6.43436667484">
		<tag k="name" v="Øynarhaugane" />
		<tag k="natural" v="hill" />
		<tag k="place" v="locality" />
		<tag k="ssr:stedsnr" v="948839" />
	</node>
	<node id="-518441" lat="59.64507778" lon="5.99091110687">
		<tag k="name" v="Stupali" />
		<tag k="natural" v="slope" />
		<tag k="place" v="locality" />
		<tag k="ssr:stedsnr" v="948750" />
	</node>
	<node id="-518440" lat="59.6430694487" lon="6.03044444702">
		<tag k="name" v="Ravnaberg" />
		<tag k="natural" v="hill" />
		<tag k="place" v="locality" />
		<tag k="ssr:stedsnr" v="948748" />
	</node>
	<node id="-518439" lat="59.6451861134" lon="6.03139167088">
		<tag k="name" v="Kaldheimslia" />
		<tag k="natural" v="slope" />
		<tag k="place" v="locality" />
		<tag k="ssr:stedsnr" v="948747" />
	</node>
	<node id="-518438" lat="59.71894444" lon="5.96265833549">
		<tag k="name" v="Einstabbeflåto" />
		<tag k="place" v="locality" />
		<tag k="ssr:stedsnr" v="948740" />
	</node>
	<node id="-518437" lat="59.6386777747" lon="6.02233056378">
		<tag k="name" v="Sjonarekleiv" />
		<tag k="natural" v="slope" />
		<tag k="place" v="locality" />
		<tag k="ssr:stedsnr" v="948736" />
	</node>
	<node id="-518436" lat="59.6413611081" lon="6.04441389369">
		<tag k="fixme" v="consider natural=peak for the most distinct mountains in the district" />
		<tag k="name" v="Gaddafjellet" />
		<tag k="natural" v="hill" />
		<tag k="place" v="locality" />
		<tag k="ssr:stedsnr" v="948735" />
	</node>
	<node id="-518435" lat="59.6819944458" lon="5.80419443976">
		<tag k="name" v="Håvarehaugen" />
		<tag k="natural" v="hill" />
		<tag k="place" v="locality" />
		<tag k="ssr:stedsnr" v="948641" />
	</node>
	<node id="-518433" lat="59.6555944474" lon="5.9079999999">
		<tag k="name" v="Honsvikdalen" />
		<tag k="natural" v="valley" />
		<tag k="place" v="locality" />
		<tag k="ssr:stedsnr" v="948632" />
	</node>
	<node id="-518431" lat="59.7166388892" lon="6.21692500783">
		<tag k="name" v="Olehaugen" />
		<tag k="natural" v="hill" />
		<tag k="place" v="locality" />
		<tag k="ssr:stedsnr" v="948550" />
	</node>
	<node id="-518430" lat="59.7261333305" lon="6.13799443728">
		<tag k="name" v="Brurastigberget" />
		<tag k="natural" v="hill" />
		<tag k="place" v="locality" />
		<tag k="ssr:stedsnr" v="948541" />
	</node>
	<node id="-518427" lat="59.6359722244" lon="5.86045832891">
		<tag k="name" v="Utstuskard" />
		<tag k="natural" v="valley" />
		<tag k="place" v="locality" />
		<tag k="ssr:stedsnr" v="948693" />
	</node>
	<node id="-518423" lat="59.7018111142" lon="6.14181666512">
		<tag k="name" v="Brøllomsdjuvet" />
		<tag k="natural" v="gorge" />
		<tag k="ssr:stedsnr" v="948410" />
	</node>
	<node id="-518422" lat="59.732519443" lon="5.9554916684">
		<tag k="name" v="Ravnaberg" />
		<tag k="natural" v="hill" />
		<tag k="place" v="locality" />
		<tag k="ssr:stedsnr" v="948296" />
	</node>
	<node id="-518421" lat="59.7422444467" lon="5.954597227">
		<tag k="name" v="Storhaug" />
		<tag k="natural" v="hill" />
		<tag k="place" v="locality" />
		<tag k="ssr:stedsnr" v="948292" />
	</node>
	<node id="-518419" lat="59.7836138902" lon="6.15919999436">
		<tag k="name" v="Storadjuvet" />
		<tag k="natural" v="gorge" />
		<tag k="ssr:stedsnr" v="948194" />
	</node>
	<node id="-518415" lat="59.7144083289" lon="5.9667444434">
		<tag k="loc_name" v="Austre Furehaugen" />
		<tag k="name" v="Furuhaug østre" />
		<tag k="natural" v="hill" />
		<tag k="place" v="locality" />
		<tag k="ssr:stedsnr" v="948126" />
	</node>
	<node id="-518413" lat="59.7481916694" lon="6.13526110836">
		<tag k="name" v="Arshovda" />
		<tag k="natural" v="hill" />
		<tag k="place" v="locality" />
		<tag k="ssr:stedsnr" v="948034" />
	</node>
	<node id="-518412" lat="59.7494833326" lon="6.14972777541">
		<tag k="name" v="Fagerskar" />
		<tag k="natural" v="valley" />
		<tag k="place" v="locality" />
		<tag k="ssr:stedsnr" v="948033" />
	</node>
	<node id="-518411" lat="59.7257083377" lon="5.88312777877">
		<tag k="fixme" v="consider natural=peak for the most distinct mountains in the district" />
		<tag k="name" v="Veavikåsen" />
		<tag k="natural" v="hill" />
		<tag k="place" v="locality" />
		<tag k="ssr:stedsnr" v="947727" />
	</node>
	<node id="-518406" lat="59.9059972216" lon="6.4648444464">
		<tag k="name" v="Langebudalen" />
		<tag k="natural" v="valley" />
		<tag k="place" v="locality" />
		<tag k="ssr:stedsnr" v="854466" />
	</node>
	<node id="-518405" lat="59.8277888886" lon="6.63702499157">
		<tag k="fixme" v="consider natural=peak for the most distinct mountains in the district" />
		<tag k="name" v="Sandvassheia" />
		<tag k="natural" v="hill" />
		<tag k="place" v="locality" />
		<tag k="ssr:stedsnr" v="854226" />
	</node>
	<node id="-518402" lat="59.7277388864" lon="6.10236666923">
		<tag k="fixme" v="consider natural=peak for the most distinct mountains in the district" />
		<tag k="name" v="Hålandshovda" />
		<tag k="natural" v="hill" />
		<tag k="place" v="locality" />
		<tag k="ssr:stedsnr" v="853666" />
	</node>
	<node id="-518399" lat="59.6654249981" lon="5.83240556115">
		<tag k="alt_name" v="Litlekulten" />
		<tag k="fixme" v="consider natural=peak for the most distinct mountains in the district" />
		<tag k="name" v="Litlenuten" />
		<tag k="natural" v="hill" />
		<tag k="place" v="locality" />
		<tag k="ssr:stedsnr" v="853476" />
	</node>
	<node id="-518398" lat="59.7850888862" lon="6.20164722079">
		<tag k="name" v="Ormalia" />
		<tag k="natural" v="slope" />
		<tag k="place" v="locality" />
		<tag k="ssr:stedsnr" v="853374" />
	</node>
	<node id="-518393" lat="59.80054722" lon="6.15659166539">
		<tag k="name" v="Høgehaugen" />
		<tag k="natural" v="hill" />
		<tag k="place" v="locality" />
		<tag k="ssr:stedsnr" v="833914" />
	</node>
	<node id="-518391" lat="59.6714999981" lon="6.02723334155">
		<tag k="name" v="Storsteinsholo" />
		<tag k="natural" v="valley" />
		<tag k="place" v="locality" />
		<tag k="ssr:stedsnr" v="827729" />
	</node>
	<node id="-518390" lat="59.6482388872" lon="6.10458889032">
		<tag k="fixme" v="consider natural=peak for the most distinct mountains in the district" />
		<tag k="name" v="Moltenut" />
		<tag k="natural" v="hill" />
		<tag k="ssr:stedsnr" v="827004" />
	</node>
	<node id="-518389" lat="59.7506749996" lon="5.95769999398">
		<tag k="alt_name" v="Kastenut" />
		<tag k="fixme" v="consider natural=peak for the most distinct mountains in the district" />
		<tag k="name" v="Kastet" />
		<tag k="natural" v="hill" />
		<tag k="place" v="locality" />
		<tag k="ssr:stedsnr" v="793410" />
	</node>
	<node id="-518386" lat="59.8582055592" lon="6.25711110527">
		<tag k="fixme" v="consider natural=peak for the most distinct mountains in the district" />
		<tag k="name" v="Hesjedalsnuten" />
		<tag k="natural" v="hill" />
		<tag k="place" v="locality" />
		<tag k="ssr:stedsnr" v="793013" />
	</node>
	<node id="-518382" lat="59.8509916693" lon="6.4524055529">
		<tag k="alt_name" v="Simenuten" />
		<tag k="fixme" v="consider natural=peak for the most distinct mountains in the district" />
		<tag k="name" v="Simlenuten" />
		<tag k="natural" v="hill" />
		<tag k="place" v="locality" />
		<tag k="ssr:stedsnr" v="793007" />
	</node>
	<node id="-518375" lat="59.8881611081" lon="6.24804445055">
		<tag k="fixme" v="consider natural=peak for the most distinct mountains in the district" />
		<tag k="name" v="Bjørnbærheia" />
		<tag k="natural" v="hill" />
		<tag k="place" v="locality" />
		<tag k="ssr:stedsnr" v="914502" />
	</node>
	<node id="-518373" lat="59.9012555571" lon="6.262555552">
		<tag k="fixme" v="consider natural=peak for the most distinct mountains in the district" />
		<tag k="loc_name" v="Bjørnebærnuten" />
		<tag k="name" v="Bjørnbærnuten" />
		<tag k="natural" v="hill" />
		<tag k="place" v="locality" />
		<tag k="ssr:stedsnr" v="914494" />
	</node>
	<node id="-518371" lat="59.9319972237" lon="6.47766388403">
		<tag k="fixme" v="consider natural=peak for the most distinct mountains in the district" />
		<tag k="name" v="Lægdanuten" />
		<tag k="natural" v="hill" />
		<tag k="place" v="locality" />
		<tag k="ssr:stedsnr" v="914477" />
	</node>
	<node id="-518370" lat="59.929458329" lon="6.3901499973">
		<tag k="name" v="Sandvikedalen" />
		<tag k="natural" v="valley" />
		<tag k="place" v="locality" />
		<tag k="ssr:stedsnr" v="914475" />
	</node>
	<node id="-518369" lat="59.7573861119" lon="6.20504999275">
		<tag k="alt_name" v="Øspeberget" />
		<tag k="name" v="Ospeberget" />
		<tag k="natural" v="hill" />
		<tag k="place" v="locality" />
		<tag k="ssr:stedsnr" v="914412" />
	</node>
	<node id="-518368" lat="59.7510166661" lon="6.16744166364">
		<tag k="name" v="Løhaugen" />
		<tag k="natural" v="hill" />
		<tag k="place" v="locality" />
		<tag k="ssr:stedsnr" v="914408" />
	</node>
	<node id="-518365" lat="59.7572232617" lon="5.94891623044">
		<tag k="name" v="Timpeltut" />
		<tag k="natural" v="hill" />
		<tag k="place" v="locality" />
		<tag k="ssr:stedsnr" v="914385" />
	</node>
	<node id="-518364" lat="59.7685027785" lon="6.15717500238">
		<tag k="name" v="Bergaheia" />
		<tag k="natural" v="hill" />
		<tag k="place" v="locality" />
		<tag k="ssr:stedsnr" v="914379" />
	</node>
	<node id="-518363" lat="59.7729249994" lon="6.16651111973">
		<tag k="name" v="Smådalsheia" />
		<tag k="natural" v="hill" />
		<tag k="place" v="locality" />
		<tag k="ssr:stedsnr" v="914377" />
	</node>
	<node id="-518361" lat="59.7756611097" lon="6.17021388514">
		<tag k="name" v="Nonsnut" />
		<tag k="natural" v="hill" />
		<tag k="place" v="locality" />
		<tag k="ssr:stedsnr" v="914341" />
	</node>
	<node id="-518359" lat="59.7921555555" lon="6.20345832862">
		<tag k="name" v="Akslahaugane" />
		<tag k="natural" v="hill" />
		<tag k="place" v="locality" />
		<tag k="ssr:stedsnr" v="914332" />
	</node>
	<node id="-518356" lat="59.840455553" lon="6.17048332542">
		<tag k="fixme" v="consider natural=peak for the most distinct mountains in the district" />
		<tag k="loc_name" v="Kvangernut" />
		<tag k="name" v="Kvanndalsnuten" />
		<tag k="natural" v="hill" />
		<tag k="place" v="locality" />
		<tag k="ssr:stedsnr" v="914199" />
	</node>
	<node id="-518355" lat="59.8550250007" lon="6.13919999305">
		<tag k="fixme" v="consider natural=peak for the most distinct mountains in the district" />
		<tag k="name" v="Frankrikheia" />
		<tag k="natural" v="hill" />
		<tag k="place" v="locality" />
		<tag k="ssr:stedsnr" v="914173" />
	</node>
	<node id="-518349" lat="59.8230388865" lon="6.28002499999">
		<tag k="fixme" v="consider natural=peak for the most distinct mountains in the district" />
		<tag k="name" v="Glymjenuten" />
		<tag k="natural" v="hill" />
		<tag k="place" v="locality" />
		<tag k="ssr:stedsnr" v="914048" />
	</node>
	<node id="-518344" lat="59.8457444427" lon="6.25365832556">
		<tag k="fixme" v="consider natural=peak for the most distinct mountains in the district" />
		<tag k="name" v="Bakkanuten" />
		<tag k="natural" v="hill" />
		<tag k="place" v="locality" />
		<tag k="ssr:stedsnr" v="914005" />
	</node>
	<node id="-518341" lat="59.781088891" lon="6.19574999588">
		<tag k="name" v="Sjonarerinda" />
		<tag k="natural" v="ridge" />
		<tag k="place" v="locality" />
		<tag k="ssr:stedsnr" v="766127" />
	</node>
	<node id="-518339" lat="59.648633329" lon="6.10041943734">
		<tag k="name" v="Skarstølskar" />
		<tag k="natural" v="valley" />
		<tag k="place" v="locality" />
		<tag k="ssr:stedsnr" v="766098" />
	</node>
	<node id="-518338" lat="59.7132916695" lon="6.06944166554">
		<tag k="name" v="Bakkadjuvet" />
		<tag k="natural" v="gorge" />
		<tag k="ssr:stedsnr" v="766083" />
	</node>
	<node id="-518337" lat="59.6577305541" lon="6.21217777473">
		<tag k="name" v="Kjerringdalen" />
		<tag k="natural" v="valley" />
		<tag k="place" v="locality" />
		<tag k="ssr:stedsnr" v="766062" />
	</node>
	<node id="-518334" lat="59.687530554" lon="6.09884167055">
		<tag k="fixme" v="consider natural=peak for the most distinct mountains in the district" />
		<tag k="name" v="Smalaberga" />
		<tag k="natural" v="hill" />
		<tag k="place" v="locality" />
		<tag k="ssr:stedsnr" v="913712" />
	</node>
	<node id="-518332" lat="59.7032944484" lon="5.91048611419">
		<tag k="fixme" v="consider natural=peak for the most distinct mountains in the district" />
		<tag k="name" v="Bordfjellet" />
		<tag k="natural" v="hill" />
		<tag k="place" v="locality" />
		<tag k="ssr:stedsnr" v="913667" />
	</node>
	<node id="-518330" lat="59.7185694482" lon="5.98183888116">
		<tag k="name" v="Rodalen" />
		<tag k="natural" v="valley" />
		<tag k="place" v="locality" />
		<tag k="ssr:stedsnr" v="913648" />
	</node>
	<node id="-518324" lat="59.7392305526" lon="6.16949165963">
		<tag k="name" v="Storhovda" />
		<tag k="natural" v="hill" />
		<tag k="place" v="locality" />
		<tag k="ssr:stedsnr" v="765481" />
	</node>
	<node id="-518322" lat="59.7122972214" lon="6.20687778628">
		<tag k="name" v="Svaleholene" />
		<tag k="natural" v="ridge" />
		<tag k="place" v="locality" />
		<tag k="ssr:stedsnr" v="765475" />
	</node>
	<node id="-518321" lat="59.739394442" lon="6.15285554833">
		<tag k="name" v="Skarstølsdalen" />
		<tag k="natural" v="valley" />
		<tag k="place" v="locality" />
		<tag k="ssr:stedsnr" v="765461" />
	</node>
	<node id="-518320" lat="59.7337499959" lon="5.94770554737">
		<tag k="name" v="Oppheim" />
		<tag k="place" v="locality" />
		<tag k="ssr:stedsnr" v="765260" />
	</node>
	<node id="-518316" lat="59.7386888906" lon="6.05047499723">
		<tag k="name" v="Djuvet" />
		<tag k="natural" v="gorge" />
		<tag k="ssr:stedsnr" v="765319" />
	</node>
	<node id="-518315" lat="59.714025004" lon="6.0731222233">
		<tag k="name" v="Neseskar" />
		<tag k="natural" v="valley" />
		<tag k="place" v="locality" />
		<tag k="ssr:stedsnr" v="765311" />
	</node>
	<node id="-518312" lat="59.6273666686" lon="5.92557776979">
		<tag k="fixme" v="consider natural=peak for the most distinct mountains in the district" />
		<tag k="name" v="Svelten" />
		<tag k="natural" v="hill" />
		<tag k="place" v="locality" />
		<tag k="ssr:stedsnr" v="913488" />
	</node>
	<node id="-518302" lat="59.8924222243" lon="6.35070000824">
		<tag k="alt_name" v="Hjortedal" />
		<tag k="name" v="Hjortedalen" />
		<tag k="natural" v="valley" />
		<tag k="place" v="locality" />
		<tag k="ssr:stedsnr" v="732506" />
	</node>
	<node id="-518301" lat="59.8303722226" lon="6.41049166753">
		<tag k="fixme" v="consider natural=peak for the most distinct mountains in the district" />
		<tag k="name" v="Buhillernuten" />
		<tag k="natural" v="hill" />
		<tag k="place" v="locality" />
		<tag k="ssr:stedsnr" v="732037" />
	</node>
	<node id="-518299" lat="59.877311112" lon="6.49725000364">
		<tag k="name" v="Fjellbotnane" />
		<tag k="natural" v="valley" />
		<tag k="place" v="locality" />
		<tag k="ssr:stedsnr" v="732029" />
	</node>
	<node id="-518297" lat="59.8667472182" lon="6.3737166664">
		<tag k="name" v="Almskor" />
		<tag k="natural" v="valley" />
		<tag k="place" v="locality" />
		<tag k="ssr:stedsnr" v="732024" />
	</node>
	<node id="-518296" lat="59.8666916678" lon="6.36866667344">
		<tag k="name" v="Ømbesdal" />
		<tag k="natural" v="valley" />
		<tag k="place" v="locality" />
		<tag k="ssr:stedsnr" v="732022" />
	</node>
	<node id="-518293" lat="59.868497224" lon="6.46101944932">
		<tag k="name" v="Borddalen" />
		<tag k="natural" v="valley" />
		<tag k="place" v="locality" />
		<tag k="ssr:stedsnr" v="732011" />
	</node>
	<node id="-518290" lat="59.6714083309" lon="6.03246389329">
		<tag k="alt_name" v="Hådlestadnut" />
		<tag k="fixme" v="consider natural=peak for the most distinct mountains in the district" />
		<tag k="name" v="Hollestadnuten" />
		<tag k="natural" v="hill" />
		<tag k="place" v="locality" />
		<tag k="ssr:stedsnr" v="731731" />
	</node>
	<node id="-518286" lat="59.8741972215" lon="6.45348611108">
		<tag k="alt_name" v="Rullestadgjuvet" />
		<tag k="name" v="Rullestadjuvet" />
		<tag k="natural" v="valley" />
		<tag k="place" v="locality" />
		<tag k="ssr:stedsnr" v="900039" />
	</node>
	<node id="-518276" lat="59.6711000037" lon="6.09799999192">
		<tag k="name" v="Høidalen" />
		<tag k="natural" v="valley" />
		<tag k="place" v="locality" />
		<tag k="ssr:stedsnr" v="705414" />
	</node>
	<node id="-518273" lat="59.6968916688" lon="6.05022778189">
		<tag k="name" v="Gangdalen" />
		<tag k="natural" v="valley" />
		<tag k="place" v="locality" />
		<tag k="ssr:stedsnr" v="705330" />
	</node>
	<node id="-518271" lat="59.6941444476" lon="5.9827416728">
		<tag k="name" v="Grønstadlia" />
		<tag k="natural" v="slope" />
		<tag k="place" v="locality" />
		<tag k="ssr:stedsnr" v="705326" />
	</node>
	<node id="-518269" lat="59.7094111147" lon="5.97406944606">
		<tag k="fixme" v="consider natural=peak for the most distinct mountains in the district" />
		<tag k="name" v="Oddane" />
		<tag k="natural" v="hill" />
		<tag k="ssr:stedsnr" v="705317" />
	</node>
	<node id="-518268" lat="59.7325972211" lon="5.91818333387">
		<tag k="name" v="Messelibakkane" />
		<tag k="natural" v="slope" />
		<tag k="place" v="locality" />
		<tag k="ssr:stedsnr" v="704731" />
	</node>
	<node id="-518267" lat="59.5887000024" lon="6.00198610646">
		<tag k="name" v="Nystølsberga" />
		<tag k="natural" v="hill" />
		<tag k="place" v="locality" />
		<tag k="ssr:stedsnr" v="704715" />
	</node>
	<node id="-518263" lat="59.7294694468" lon="5.9233333323">
		<tag k="name" v="Hokkelshaug" />
		<tag k="natural" v="hill" />
		<tag k="place" v="locality" />
		<tag k="ssr:stedsnr" v="887745" />
	</node>
	<node id="-518261" lat="59.6243222238" lon="6.0454305638">
		<tag k="name" v="Sletteskard" />
		<tag k="natural" v="valley" />
		<tag k="place" v="locality" />
		<tag k="ssr:stedsnr" v="887732" />
	</node>
	<node id="-518260" lat="59.612680556" lon="5.93886944882">
		<tag k="fixme" v="consider natural=peak for the most distinct mountains in the district" />
		<tag k="name" v="Baklåsane" />
		<tag k="natural" v="hill" />
		<tag k="place" v="locality" />
		<tag k="ssr:stedsnr" v="887731" />
	</node>
	<node id="-518259" lat="59.6740250036" lon="5.9834499918">
		<tag k="name" v="Austrheimslia" />
		<tag k="natural" v="slope" />
		<tag k="place" v="locality" />
		<tag k="ssr:stedsnr" v="887641" />
	</node>
	<node id="-518257" lat="59.6408944447" lon="5.93350000064">
		<tag k="fixme" v="consider natural=peak for the most distinct mountains in the district" />
		<tag k="name" v="Håvåsen" />
		<tag k="natural" v="hill" />
		<tag k="place" v="locality" />
		<tag k="ssr:stedsnr" v="887535" />
	</node>
	<node id="-518256" lat="59.651347224" lon="5.92631389307">
		<tag k="name" v="Hovda" />
		<tag k="natural" v="hill" />
		<tag k="place" v="locality" />
		<tag k="ssr:stedsnr" v="887533" />
	</node>
	<node id="-518255" lat="59.6957416682" lon="6.05695833927">
		<tag k="name" v="Meiarehillerhaugen" />
		<tag k="natural" v="hill" />
		<tag k="place" v="locality" />
		<tag k="ssr:stedsnr" v="887422" />
	</node>
	<node id="-518251" lat="59.6612027763" lon="5.80771111979">
		<tag k="name" v="Hedlandsdalen" />
		<tag k="natural" v="valley" />
		<tag k="place" v="locality" />
		<tag k="ssr:stedsnr" v="887497" />
	</node>
	<node id="-518250" lat="59.6725722198" lon="5.79902778429">
		<tag k="name" v="Bufjellsdalen" />
		<tag k="natural" v="valley" />
		<tag k="place" v="locality" />
		<tag k="ssr:stedsnr" v="887494" />
	</node>
	<node id="-518249" lat="59.7652500037" lon="5.9339527757">
		<tag k="name" v="Ørelia" />
		<tag k="natural" v="slope" />
		<tag k="place" v="locality" />
		<tag k="ssr:stedsnr" v="887489" />
	</node>
	<node id="-518248" lat="59.6660916638" lon="5.7880916623">
		<tag k="name" v="Høgehaugen" />
		<tag k="natural" v="hill" />
		<tag k="place" v="locality" />
		<tag k="ssr:stedsnr" v="887485" />
	</node>
	<node id="-518244" lat="59.7056611068" lon="6.00051388278">
		<tag k="name" v="Hovlandsskute" />
		<tag k="place" v="locality" />
		<tag k="ssr:stedsnr" v="887282" />
	</node>
	<node id="-518243" lat="59.8475972197" lon="6.34758055347">
		<tag k="name" v="Gangejuvet" />
		<tag k="natural" v="gorge" />
		<tag k="ssr:stedsnr" v="887194" />
	</node>
	<node id="-518240" lat="59.7507611095" lon="6.12728889599">
		<tag k="name" v="Nystølshaugen" />
		<tag k="natural" v="hill" />
		<tag k="place" v="locality" />
		<tag k="ssr:stedsnr" v="887046" />
	</node>
	<node id="-518239" lat="59.891919445" lon="6.38818055523">
		<tag k="name" v="Norddalsbakkane" />
		<tag k="natural" v="slope" />
		<tag k="place" v="locality" />
		<tag k="ssr:stedsnr" v="887188" />
	</node>
	<node id="-518229" lat="59.7550416645" lon="6.18420833084">
		<tag k="name" v="Grolte" />
		<tag k="place" v="locality" />
		<tag k="ssr:stedsnr" v="644007" />
	</node>
	<node id="-518228" lat="59.909608329" lon="6.47755554747">
		<tag k="alt_name" v="Juvvassnuten" />
		<tag k="fixme" v="consider natural=peak for the most distinct mountains in the district" />
		<tag k="name" v="Gjuvanuten" />
		<tag k="natural" v="hill" />
		<tag k="place" v="locality" />
		<tag k="ssr:stedsnr" v="732502" />
	</node>
	<node id="-518227" lat="59.9598222197" lon="6.42470277582">
		<tag k="name" v="Sandvikekjeften" />
		<tag k="natural" v="valley" />
		<tag k="place" v="locality" />
		<tag k="ssr:stedsnr" v="732446" />
	</node>
	<node id="-518226" lat="59.7544000026" lon="6.12249444758">
		<tag k="name" v="Skoaren" />
		<tag k="natural" v="slope" />
		<tag k="place" v="locality" />
		<tag k="ssr:stedsnr" v="732425" />
	</node>
	<node id="-518224" lat="59.7615750014" lon="6.13947499127">
		<tag k="alt_name" v="Skredkollsroso" />
		<tag k="name" v="Skredkollsråsa" />
		<tag k="natural" v="slope" />
		<tag k="place" v="locality" />
		<tag k="ssr:stedsnr" v="732419" />
	</node>
	<node id="-518222" lat="59.7718999956" lon="6.18526943886">
		<tag k="alt_name" v="Middagsnut" />
		<tag k="name" v="Middagsnuten" />
		<tag k="natural" v="hill" />
		<tag k="place" v="locality" />
		<tag k="ssr:stedsnr" v="732395" />
	</node>
	<node id="-518221" lat="59.768099997" lon="6.13927500121">
		<tag k="alt_name" v="Grønavikdjuvet" />
		<tag k="name" v="Grønavikgjuvet" />
		<tag k="natural" v="valley" />
		<tag k="place" v="locality" />
		<tag k="ssr:stedsnr" v="732378" />
	</node>
	<node id="-518220" lat="59.7660111103" lon="5.93486945064">
		<tag k="alt_name" v="Skjøljenibba" />
		<tag k="name" v="Søljenibba" />
		<tag k="natural" v="hill" />
		<tag k="place" v="locality" />
		<tag k="ssr:stedsnr" v="732376" />
	</node>
	<node id="-518219" lat="59.780150004" lon="6.15390277098">
		<tag k="name" v="Pølsehaugane" />
		<tag k="natural" v="hill" />
		<tag k="place" v="locality" />
		<tag k="ssr:stedsnr" v="732348" />
	</node>
	<node id="-518215" lat="59.8167638903" lon="6.14064999763">
		<tag k="alt_name" v="Kalviknut;Kaldviknut" />
		<tag k="fixme" v="consider natural=peak for the most distinct mountains in the district" />
		<tag k="name" v="Kallviknut" />
		<tag k="natural" v="hill" />
		<tag k="place" v="locality" />
		<tag k="ssr:stedsnr" v="732231" />
	</node>
	<node id="-518213" lat="59.8204555558" lon="6.15098334136">
		<tag k="alt_name" v="Tungedjuvet" />
		<tag k="name" v="Tungegjuvet" />
		<tag k="natural" v="valley" />
		<tag k="place" v="locality" />
		<tag k="ssr:stedsnr" v="732216" />
	</node>
	<node id="-518209" lat="59.6895555529" lon="6.22364443897">
		<tag k="name" v="Rauddalen" />
		<tag k="natural" v="valley" />
		<tag k="place" v="locality" />
		<tag k="ssr:stedsnr" v="731965" />
	</node>
	<node id="-518208" lat="59.6686249985" lon="5.84804166327">
		<tag k="alt_name" v="Askedalen" />
		<tag k="name" v="Aksdalen" />
		<tag k="natural" v="valley" />
		<tag k="place" v="locality" />
		<tag k="ssr:stedsnr" v="731697" />
	</node>
	<node id="-518205" lat="59.6994805574" lon="5.93101943991">
		<tag k="alt_name" v="Helgelihaugen" />
		<tag k="fixme" v="consider natural=peak for the most distinct mountains in the district" />
		<tag k="name" v="Hegelihaugen" />
		<tag k="natural" v="hill" />
		<tag k="place" v="locality" />
		<tag k="ssr:stedsnr" v="731664" />
	</node>
	<node id="-518203" lat="59.714644444" lon="6.17067777996">
		<tag k="alt_name" v="Fretshovda" />
		<tag k="fixme" v="consider natural=peak for the most distinct mountains in the district" />
		<tag k="name" v="Frettshovda" />
		<tag k="natural" v="hill" />
		<tag k="place" v="locality" />
		<tag k="ssr:stedsnr" v="731652" />
	</node>
	<node id="-518196" lat="59.6240805588" lon="6.0233416674">
		<tag k="fixme" v="consider natural=peak for the most distinct mountains in the district" />
		<tag k="name" v="Høylandsnuten" />
		<tag k="natural" v="hill" />
		<tag k="place" v="locality" />
		<tag k="ssr:stedsnr" v="731501" />
	</node>
	<node id="-518192" lat="59.6507000023" lon="6.07543055282">
		<tag k="fixme" v="consider natural=peak for the most distinct mountains in the district" />
		<tag k="name" v="Strypeheiane" />
		<tag k="natural" v="hill" />
		<tag k="place" v="locality" />
		<tag k="ssr:stedsnr" v="731486" />
	</node>
	<node id="-518187" lat="59.7024583368" lon="5.84071389105">
		<tag k="fixme" v="consider natural=peak for the most distinct mountains in the district" />
		<tag k="name" v="Lauvåsen" />
		<tag k="natural" v="hill" />
		<tag k="place" v="locality" />
		<tag k="ssr:stedsnr" v="731034" />
	</node>
	<node id="-518186" lat="59.876794448" lon="6.36311388797">
		<tag k="name" v="Bjørneskår" />
		<tag k="place" v="locality" />
		<tag k="ssr:stedsnr" v="765178" />
	</node>
	<node id="-518182" lat="59.793811112" lon="6.19117499201">
		<tag k="alt_name" v="Kvitabergjuvet" />
		<tag k="fixme" v="multiple name tags, choose one and add the other to alt_name" />
		<tag k="name" v="Ørnaberggjuvet;Kvitaberggjuvet" />
		<tag k="natural" v="gorge" />
		<tag k="ssr:stedsnr" v="610380" />
	</node>
	<node id="-518175" lat="59.7376916679" lon="6.04705833025">
		<tag k="name" v="Susheia" />
		<tag k="natural" v="hill" />
		<tag k="place" v="locality" />
		<tag k="ssr:stedsnr" v="609630" />
	</node>
	<node id="-518173" lat="59.738733334" lon="6.18191943712">
		<tag k="name" v="Litlahovda" />
		<tag k="natural" v="hill" />
		<tag k="place" v="locality" />
		<tag k="ssr:stedsnr" v="609619" />
	</node>
	<node id="-518165" lat="59.727788889" lon="5.89280556247">
		<tag k="name" v="Klaraskar" />
		<tag k="natural" v="valley" />
		<tag k="place" v="locality" />
		<tag k="ssr:stedsnr" v="583732" />
	</node>
	<node id="-518164" lat="59.623283332" lon="5.99893888791">
		<tag k="name" v="Bjørgane" />
		<tag k="place" v="locality" />
		<tag k="ssr:stedsnr" v="583714" />
	</node>
	<node id="-518163" lat="59.7146027813" lon="5.93002499757">
		<tag k="name" v="Bjelkahaugdalen" />
		<tag k="natural" v="valley" />
		<tag k="place" v="locality" />
		<tag k="ssr:stedsnr" v="583710" />
	</node>
	<node id="-518160" lat="59.7234638909" lon="6.21667778197">
		<tag k="name" v="Øvste Geitskar" />
		<tag k="natural" v="valley" />
		<tag k="place" v="locality" />
		<tag k="ssr:stedsnr" v="583496" />
	</node>
	<node id="-518156" lat="59.7308666689" lon="6.21725832949">
		<tag k="name" v="Dalafjellskor" />
		<tag k="place" v="locality" />
		<tag k="ssr:stedsnr" v="583456" />
	</node>
	<node id="-518154" lat="59.7296916694" lon="5.99758054899">
		<tag k="alt_name" v="Gjeitshaug" />
		<tag k="name" v="Geitshaug" />
		<tag k="natural" v="hill" />
		<tag k="place" v="locality" />
		<tag k="ssr:stedsnr" v="583345" />
	</node>
	<node id="-518152" lat="59.7040111092" lon="6.14976389666">
		<tag k="fixme" v="consider natural=peak for the most distinct mountains in the district" />
		<tag k="name" v="Flåtehetta" />
		<tag k="natural" v="hill" />
		<tag k="ssr:stedsnr" v="583311" />
	</node>
	<node id="-518151" lat="59.7184805511" lon="6.07247499171">
		<tag k="name" v="Skarhaugen" />
		<tag k="natural" v="hill" />
		<tag k="place" v="locality" />
		<tag k="ssr:stedsnr" v="583309" />
	</node>
	<node id="-518150" lat="59.7151749999" lon="6.05205554715">
		<tag k="name" v="Sjølvkostehaugen" />
		<tag k="natural" v="hill" />
		<tag k="place" v="locality" />
		<tag k="ssr:stedsnr" v="583304" />
	</node>
	<node id="-518145" lat="59.8724999978" lon="6.40439166985">
		<tag k="name" v="Skårvene" />
		<tag k="place" v="locality" />
		<tag k="ssr:stedsnr" v="705838" />
	</node>
</osm>
