<?xml version="1.0" encoding="UTF-8"?>
<osm generator="osmapis" version="0.6">
	<node changeset="66853759" id="6253544448" lat="59.0935611" lon="10.8635528" timestamp="2019-02-02T11:34:38Z" uid="633013" user="Honning" version="1">
		<tag k="name" v="Røa" />
		<tag k="place" v="farm" />
		<tag k="ssr:stedsnr" v="418897" />
	</node>
	<node changeset="66853759" id="6253544449" lat="59.067675" lon="11.0427917" timestamp="2019-02-02T11:34:38Z" uid="633013" user="Honning" version="1">
		<tag k="name" v="Båtebakken" />
		<tag k="place" v="isolated_dwelling" />
		<tag k="ssr:stedsnr" v="418919" />
	</node>
	<node changeset="66853759" id="6253544450" lat="59.102075" lon="10.9154417" timestamp="2019-02-02T11:34:38Z" uid="633013" user="Honning" version="1">
		<tag k="name" v="Knektemoen" />
		<tag k="place" v="farm" />
		<tag k="ssr:stedsnr" v="297073" />
	</node>
	<node changeset="66853759" id="6253544451" lat="59.0679444" lon="11.0854861" timestamp="2019-02-02T11:34:38Z" uid="633013" user="Honning" version="1">
		<tag k="name" v="Skattenborg" />
		<tag k="place" v="farm" />
		<tag k="ssr:stedsnr" v="750323" />
	</node>
	<node changeset="66853759" id="356056068" lat="59.0256702" lon="11.0371884" timestamp="2019-02-02T11:34:49Z" uid="633013" user="Honning" version="6">
		<tag k="name" v="Skjærhalden" />
		<tag k="place" v="village" />
		<tag k="population" v="881" />
		<tag k="population:date" v="2017-01-01" />
		<tag k="ssr:stedsnr" v="851551" />
	</node>
	<node changeset="66853759" id="6253544453" lat="59.0863211" lon="10.8530998" timestamp="2019-02-02T11:34:38Z" uid="633013" user="Honning" version="1">
		<tag k="name" v="Dyrefjell" />
		<tag k="place" v="neighbourhood" />
		<tag k="ssr:stedsnr" v="981866" />
	</node>
	<node changeset="66853759" id="6253544454" lat="59.0803417" lon="11.062925" timestamp="2019-02-02T11:34:38Z" uid="633013" user="Honning" version="1">
		<tag k="name" v="Vadbukta" />
		<tag k="place" v="locality" />
		<tag k="ssr:stedsnr" v="750370" />
	</node>
	<node changeset="66853759" id="6253544455" lat="59.0493" lon="11.10215" timestamp="2019-02-02T11:34:38Z" uid="633013" user="Honning" version="1">
		<tag k="alt_name" v="Apalvika" />
		<tag k="name" v="Apalvik" />
		<tag k="place" v="isolated_dwelling" />
		<tag k="ssr:stedsnr" v="1220" />
	</node>
	<node changeset="66853759" id="6253544456" lat="59.0969694" lon="10.8724861" timestamp="2019-02-02T11:34:38Z" uid="633013" user="Honning" version="1">
		<tag k="name" v="Løkkeberg" />
		<tag k="place" v="farm" />
		<tag k="ssr:stedsnr" v="660893" />
	</node>
	<node changeset="66853759" id="6253544457" lat="59.0580611" lon="11.0333083" timestamp="2019-02-02T11:34:38Z" uid="633013" user="Honning" version="1">
		<tag k="name" v="Bakken" />
		<tag k="place" v="farm" />
		<tag k="ssr:stedsnr" v="964795" />
	</node>
	<node changeset="66853759" id="6253544458" lat="59.0827583" lon="10.9027417" timestamp="2019-02-02T11:34:38Z" uid="633013" user="Honning" version="1">
		<tag k="name" v="Nygård" />
		<tag k="place" v="isolated_dwelling" />
		<tag k="ssr:stedsnr" v="1557" />
	</node>
	<node changeset="66853759" id="6253544459" lat="59.076125" lon="10.9421472" timestamp="2019-02-02T11:34:38Z" uid="633013" user="Honning" version="1">
		<tag k="name" v="Rød" />
		<tag k="place" v="farm" />
		<tag k="ssr:stedsnr" v="1558" />
	</node>
	<node changeset="66853759" id="6253544460" lat="59.0517333" lon="11.0092889" timestamp="2019-02-02T11:34:38Z" uid="633013" user="Honning" version="1">
		<tag k="name" v="Stakallen" />
		<tag k="place" v="farm" />
		<tag k="ssr:stedsnr" v="419870" />
	</node>
	<node changeset="66853759" id="6253544461" lat="59.0509389" lon="11.03995" timestamp="2019-02-02T11:34:38Z" uid="633013" user="Honning" version="1">
		<tag k="alt_name" v="Bartelund" />
		<tag k="name" v="Bartslund" />
		<tag k="place" v="farm" />
		<tag k="ssr:stedsnr" v="419997" />
	</node>
	<node changeset="66853759" id="6253544462" lat="59.050075" lon="11.0275" timestamp="2019-02-02T11:34:38Z" uid="633013" user="Honning" version="1">
		<tag k="name" v="Lekvollen" />
		<tag k="place" v="farm" />
		<tag k="ssr:stedsnr" v="420000" />
	</node>
	<node changeset="66853759" id="6253544463" lat="59.05445" lon="11.059525" timestamp="2019-02-02T11:34:39Z" uid="633013" user="Honning" version="1">
		<tag k="alt_name" v="Kjenvik" />
		<tag k="loc_name" v="Tjennvik" />
		<tag k="name" v="Kjennvik" />
		<tag k="place" v="farm" />
		<tag k="ssr:stedsnr" v="1619" />
	</node>
	<node changeset="66853759" id="6253544464" lat="59.0402139" lon="11.0417194" timestamp="2019-02-02T11:34:39Z" uid="633013" user="Honning" version="1">
		<tag k="name" v="Koltorp" />
		<tag k="place" v="farm" />
		<tag k="ssr:stedsnr" v="2630" />
	</node>
	<node changeset="66853759" id="6253544465" lat="59.0484139" lon="11.0043361" timestamp="2019-02-02T11:34:39Z" uid="633013" user="Honning" version="1">
		<tag k="name" v="Engene" />
		<tag k="place" v="farm" />
		<tag k="ssr:stedsnr" v="6888" />
	</node>
	<node changeset="66853759" id="6253544466" lat="59.0492333" lon="11.041" timestamp="2019-02-02T11:34:39Z" uid="633013" user="Honning" version="1">
		<tag k="name" v="Holte" />
		<tag k="place" v="farm" />
		<tag k="ssr:stedsnr" v="912626" />
	</node>
	<node changeset="66853759" id="6253544467" lat="59.0611056" lon="10.9567972" timestamp="2019-02-02T11:34:39Z" uid="633013" user="Honning" version="1">
		<tag k="name" v="Skipstadsand" />
		<tag k="place" v="hamlet" />
		<tag k="ssr:stedsnr" v="851500" />
	</node>
	<node changeset="66853759" id="6253544468" lat="59.0798889" lon="10.87475" timestamp="2019-02-02T11:34:39Z" uid="633013" user="Honning" version="1">
		<tag k="name" v="Utgård" />
		<tag k="place" v="hamlet" />
		<tag k="ssr:stedsnr" v="426539" />
	</node>
	<node changeset="66853759" id="6253544469" lat="59.0862944" lon="10.9060278" timestamp="2019-02-02T11:34:39Z" uid="633013" user="Honning" version="1">
		<tag k="name" v="Alsvik" />
		<tag k="place" v="farm" />
		<tag k="ssr:stedsnr" v="426544" />
	</node>
	<node changeset="66853759" id="6253544470" lat="59.0674389" lon="11.0808417" timestamp="2019-02-02T11:34:39Z" uid="633013" user="Honning" version="1">
		<tag k="alt_name" v="Myra" />
		<tag k="name" v="Kilemyra" />
		<tag k="place" v="farm" />
		<tag k="ssr:stedsnr" v="22338" />
	</node>
	<node changeset="66853759" id="6253544471" lat="59.0047472" lon="11.0503" timestamp="2019-02-02T11:34:39Z" uid="633013" user="Honning" version="1">
		<tag k="name" v="Skjelleren" />
		<tag k="place" v="farm" />
		<tag k="ssr:stedsnr" v="778399" />
	</node>
	<node changeset="66853759" id="6253544472" lat="59.05905" lon="11.0569778" timestamp="2019-02-02T11:34:39Z" uid="633013" user="Honning" version="1">
		<tag k="name" v="Høkeli" />
		<tag k="place" v="farm" />
		<tag k="ssr:stedsnr" v="22349" />
	</node>
	<node changeset="66853759" id="6253544452" lat="59.1008322" lon="10.9453597" timestamp="2019-02-02T11:34:38Z" uid="633013" user="Honning" version="1">
		<tag k="name" v="Torbjørnsmyr" />
		<tag k="place" v="neighbourhood" />
		<tag k="ssr:stedsnr" v="981865" />
	</node>
	<node changeset="66853759" id="6253544474" lat="59.088775" lon="10.856725" timestamp="2019-02-02T11:34:39Z" uid="633013" user="Honning" version="1">
		<tag k="alt_name" v="Botn" />
		<tag k="name" v="Botten" />
		<tag k="place" v="farm" />
		<tag k="ssr:stedsnr" v="851512" />
	</node>
	<node changeset="66853759" id="6253544475" lat="59.0656917" lon="11.0064083" timestamp="2019-02-02T11:34:39Z" uid="633013" user="Honning" version="1">
		<tag k="name" v="Korsmo" />
		<tag k="place" v="farm" />
		<tag k="ssr:stedsnr" v="782408" />
	</node>
	<node changeset="66853759" id="6253544476" lat="59.0636083" lon="11.0063889" timestamp="2019-02-02T11:34:39Z" uid="633013" user="Honning" version="1">
		<tag k="name" v="Løkka" />
		<tag k="place" v="farm" />
		<tag k="ssr:stedsnr" v="782463" />
	</node>
	<node changeset="66853759" id="6253544477" lat="59.0772167" lon="11.0059444" timestamp="2019-02-02T11:34:39Z" uid="633013" user="Honning" version="1">
		<tag k="name" v="Kroken" />
		<tag k="place" v="farm" />
		<tag k="ssr:stedsnr" v="722393" />
	</node>
	<node changeset="66853759" id="6253544478" lat="59.0624417" lon="11.0743194" timestamp="2019-02-02T11:34:39Z" uid="633013" user="Honning" version="1">
		<tag k="name" v="Kilebryggkasene" />
		<tag k="place" v="locality" />
		<tag k="ssr:stedsnr" v="447326" />
	</node>
	<node changeset="66853759" id="6253544479" lat="59.05435" lon="11.0822861" timestamp="2019-02-02T11:34:39Z" uid="633013" user="Honning" version="1">
		<tag k="name" v="Storsand" />
		<tag k="place" v="isolated_dwelling" />
		<tag k="ssr:stedsnr" v="447345" />
	</node>
	<node changeset="66853759" id="6253544480" lat="59.0364611" lon="10.9476056" timestamp="2019-02-02T11:34:40Z" uid="633013" user="Honning" version="1">
		<tag k="name" v="Tauløs" />
		<tag k="place" v="isolated_dwelling" />
		<tag k="ssr:stedsnr" v="297432" />
	</node>
	<node changeset="66853759" id="6253544481" lat="59.0381472" lon="11.0059861" timestamp="2019-02-02T11:34:40Z" uid="633013" user="Honning" version="1">
		<tag k="name" v="Søndre Bøbakke" />
		<tag k="place" v="farm" />
		<tag k="ssr:stedsnr" v="782584" />
	</node>
	<node changeset="66853759" id="6253544482" lat="59.075275" lon="11.0778972" timestamp="2019-02-02T11:34:40Z" uid="633013" user="Honning" version="1">
		<tag k="name" v="Strand" />
		<tag k="place" v="farm" />
		<tag k="ssr:stedsnr" v="62505" />
	</node>
	<node changeset="66853759" id="6253544483" lat="59.0504222" lon="11.0453583" timestamp="2019-02-02T11:34:40Z" uid="633013" user="Honning" version="1">
		<tag k="name" v="Holtekasene" />
		<tag k="place" v="farm" />
		<tag k="ssr:stedsnr" v="297543" />
	</node>
	<node changeset="66853759" id="6253544484" lat="59.0392472" lon="10.9557806" timestamp="2019-02-02T11:34:40Z" uid="633013" user="Honning" version="1">
		<tag k="name" v="Støet" />
		<tag k="place" v="farm" />
		<tag k="ssr:stedsnr" v="54479" />
	</node>
	<node changeset="66853759" id="6253544856" lat="59.0381889" lon="11.00855" timestamp="2019-02-02T11:34:44Z" uid="633013" user="Honning" version="1">
		<tag k="name" v="Tangen" />
		<tag k="place" v="farm" />
		<tag k="ssr:stedsnr" v="115691" />
	</node>
	<node changeset="66853759" id="746630247" lat="59.106825" lon="11.130575" timestamp="2019-02-02T11:34:49Z" uid="633013" user="Honning" version="3">
		<tag k="alt_name" v="Singlø" />
		<tag k="name" v="Singløy" />
		<tag k="place" v="farm" />
		<tag k="ssr:stedsnr" v="244855" />
	</node>
	<node changeset="66853759" id="6253542547" lat="59.0420417" lon="11.0317167" timestamp="2019-02-02T11:34:32Z" uid="633013" user="Honning" version="1">
		<tag k="name" v="Brekke" />
		<tag k="place" v="farm" />
		<tag k="ssr:stedsnr" v="184622" />
	</node>
	<node changeset="66853759" id="6253542548" lat="59.0441472" lon="10.999625" timestamp="2019-02-02T11:34:32Z" uid="633013" user="Honning" version="1">
		<tag k="name" v="Store Rød" />
		<tag k="place" v="farm" />
		<tag k="ssr:stedsnr" v="964567" />
	</node>
	<node changeset="66853759" id="6253542549" lat="59.0790667" lon="10.9398805" timestamp="2019-02-02T11:34:32Z" uid="633013" user="Honning" version="1">
		<tag k="building" v="commercial" />
		<tag k="name" v="Nordre Rød" />
		<tag k="ssr:stedsnr" v="478980" />
	</node>
	<node changeset="66853759" id="6253542550" lat="59.1010972" lon="10.9257056" timestamp="2019-02-02T11:34:32Z" uid="633013" user="Honning" version="1">
		<tag k="name" v="Tredalen" />
		<tag k="place" v="isolated_dwelling" />
		<tag k="ssr:stedsnr" v="184702" />
	</node>
	<node changeset="66853759" id="6253542551" lat="59.0714583" lon="10.9065111" timestamp="2019-02-02T11:34:33Z" uid="633013" user="Honning" version="1">
		<tag k="name" v="Spjær" />
		<tag k="place" v="hamlet" />
		<tag k="ssr:stedsnr" v="305551" />
	</node>
	<node changeset="66853759" id="6253542552" lat="59.0311056" lon="11.1049583" timestamp="2019-02-02T11:34:33Z" uid="633013" user="Honning" version="1">
		<tag k="name" v="Annas lund" />
		<tag k="place" v="locality" />
		<tag k="ssr:stedsnr" v="204264" />
	</node>
	<node changeset="66853759" id="6253542553" lat="59.0630694" lon="11.0231389" timestamp="2019-02-02T11:34:33Z" uid="633013" user="Honning" version="1">
		<tag k="name" v="Ramsholt" />
		<tag k="place" v="farm" />
		<tag k="ssr:stedsnr" v="305587" />
	</node>
	<node changeset="66853759" id="6253542554" lat="59.0973278" lon="10.9103056" timestamp="2019-02-02T11:34:33Z" uid="633013" user="Honning" version="1">
		<tag k="name" v="Skjelsbu" />
		<tag k="place" v="hamlet" />
		<tag k="ssr:stedsnr" v="305598" />
	</node>
	<node changeset="66853759" id="6253542555" lat="59.0176972" lon="11.0655667" timestamp="2019-02-02T11:34:33Z" uid="633013" user="Honning" version="1">
		<tag k="name" v="Hval" />
		<tag k="place" v="locality" />
		<tag k="ssr:stedsnr" v="204275" />
	</node>
	<node changeset="66853759" id="6253542556" lat="59.0612639" lon="11.0781389" timestamp="2019-02-02T11:34:33Z" uid="633013" user="Honning" version="1">
		<tag k="name" v="Sørenskas" />
		<tag k="place" v="isolated_dwelling" />
		<tag k="ssr:stedsnr" v="204314" />
	</node>
	<node changeset="66853759" id="6253542557" lat="59.10125" lon="10.892025" timestamp="2019-02-02T11:34:33Z" uid="633013" user="Honning" version="1">
		<tag k="name" v="Bankerød" />
		<tag k="place" v="farm" />
		<tag k="ssr:stedsnr" v="305719" />
	</node>
	<node changeset="66853759" id="6253542558" lat="59.0673278" lon="11.0000306" timestamp="2019-02-02T11:34:33Z" uid="633013" user="Honning" version="1">
		<tag k="name" v="Verpet" />
		<tag k="place" v="isolated_dwelling" />
		<tag k="ssr:stedsnr" v="964443" />
	</node>
	<node changeset="66853759" id="6253542559" lat="59.0809583" lon="10.9042833" timestamp="2019-02-02T11:34:33Z" uid="633013" user="Honning" version="1">
		<tag k="name" v="Lindemyra" />
		<tag k="place" v="farm" />
		<tag k="ssr:stedsnr" v="285915" />
	</node>
	<node changeset="66853759" id="6253542560" lat="59.0523833" lon="10.9526055" timestamp="2019-02-02T11:34:33Z" uid="633013" user="Honning" version="1">
		<tag k="name" v="Attjuka" />
		<tag k="place" v="farm" />
		<tag k="ssr:stedsnr" v="309601" />
	</node>
	<node changeset="66853759" id="6253542561" lat="59.0771" lon="11.0087472" timestamp="2019-02-02T11:34:33Z" uid="633013" user="Honning" version="1">
		<tag k="name" v="Bakken" />
		<tag k="place" v="isolated_dwelling" />
		<tag k="ssr:stedsnr" v="661366" />
	</node>
	<node changeset="66853759" id="6253542562" lat="59.0508333" lon="11.0623167" timestamp="2019-02-02T11:34:33Z" uid="633013" user="Honning" version="1">
		<tag k="name" v="Solli" />
		<tag k="place" v="farm" />
		<tag k="ssr:stedsnr" v="325374" />
	</node>
	<node changeset="66853759" id="6253542563" lat="59.0228083" lon="11.0998722" timestamp="2019-02-02T11:34:33Z" uid="633013" user="Honning" version="1">
		<tag k="name" v="Torbal" />
		<tag k="old_name" v="Torbøl" />
		<tag k="place" v="farm" />
		<tag k="ssr:stedsnr" v="325324" />
	</node>
	<node changeset="66853759" id="6253542564" lat="59.066" lon="11.0407917" timestamp="2019-02-02T11:34:33Z" uid="633013" user="Honning" version="1">
		<tag k="name" v="Vik" />
		<tag k="place" v="farm" />
		<tag k="ssr:stedsnr" v="224935" />
	</node>
	<node changeset="66853759" id="6253542565" lat="59.0493694" lon="11.0288889" timestamp="2019-02-02T11:34:33Z" uid="633013" user="Honning" version="1">
		<tag k="alt_name" v="Tuten" />
		<tag k="name" v="Vestre Gjurød" />
		<tag k="place" v="farm" />
		<tag k="ssr:stedsnr" v="964847" />
	</node>
	<node changeset="66853759" id="6253542566" lat="59.0780444" lon="10.8712639" timestamp="2019-02-02T11:34:33Z" uid="633013" user="Honning" version="1">
		<tag k="name" v="Bekkeviktangen" />
		<tag k="place" v="farm" />
		<tag k="ssr:stedsnr" v="661830" />
	</node>
	<node changeset="66853759" id="6253542567" lat="59.0538083" lon="11.0688528" timestamp="2019-02-02T11:34:33Z" uid="633013" user="Honning" version="1">
		<tag k="name" v="Brattli" />
		<tag k="place" v="farm" />
		<tag k="ssr:stedsnr" v="325376" />
	</node>
	<node changeset="66853759" id="6253542568" lat="59.0832111" lon="11.0865917" timestamp="2019-02-02T11:34:33Z" uid="633013" user="Honning" version="1">
		<tag k="name" v="Kornmo" />
		<tag k="place" v="isolated_dwelling" />
		<tag k="ssr:stedsnr" v="325392" />
	</node>
	<node changeset="66853759" id="6253542569" lat="59.0838056" lon="11.0166806" timestamp="2019-02-02T11:34:33Z" uid="633013" user="Honning" version="1">
		<tag k="name" v="Saltvik" />
		<tag k="place" v="farm" />
		<tag k="ssr:stedsnr" v="904024" />
	</node>
	<node changeset="66853759" id="6253542570" lat="59.0320139" lon="11.0231611" timestamp="2019-02-02T11:34:34Z" uid="633013" user="Honning" version="1">
		<tag k="name" v="Brimnes" />
		<tag k="place" v="farm" />
		<tag k="ssr:stedsnr" v="236086" />
	</node>
	<node changeset="66853759" id="6253542571" lat="59.0978333" lon="10.8638028" timestamp="2019-02-02T11:34:34Z" uid="633013" user="Honning" version="1">
		<tag k="name" v="Løkkevika" />
		<tag k="place" v="farm" />
		<tag k="ssr:stedsnr" v="964887" />
	</node>
	<node changeset="66853759" id="6253542572" lat="59.0831139" lon="11.0726" timestamp="2019-02-02T11:34:34Z" uid="633013" user="Honning" version="1">
		<tag k="alt_name" v="Brevik" />
		<tag k="name" v="Bredvik" />
		<tag k="place" v="isolated_dwelling" />
		<tag k="ssr:stedsnr" v="143353" />
	</node>
	<node changeset="66853759" id="6253542573" lat="59.1024472" lon="10.8664805" timestamp="2019-02-02T11:34:34Z" uid="633013" user="Honning" version="1">
		<tag k="name" v="Båsvika" />
		<tag k="place" v="farm" />
		<tag k="ssr:stedsnr" v="236641" />
	</node>
	<node changeset="66853759" id="6253542574" lat="59.0674806" lon="10.9355278" timestamp="2019-02-02T11:34:34Z" uid="633013" user="Honning" version="1">
		<tag k="name" v="Brente" />
		<tag k="place" v="farm" />
		<tag k="ssr:stedsnr" v="236643" />
	</node>
	<node changeset="66853759" id="6253542575" lat="59.0465306" lon="11.0376139" timestamp="2019-02-02T11:34:34Z" uid="633013" user="Honning" version="1">
		<tag k="name" v="Lønne" />
		<tag k="place" v="farm" />
		<tag k="ssr:stedsnr" v="965119" />
	</node>
	<node changeset="66853759" id="6253542576" lat="59.1096861" lon="10.9067667" timestamp="2019-02-02T11:34:34Z" uid="633013" user="Honning" version="1">
		<tag k="name" v="Storeklov" />
		<tag k="place" v="farm" />
		<tag k="ssr:stedsnr" v="964078" />
	</node>
	<node changeset="66853759" id="6253542577" lat="59.0652833" lon="11.0367361" timestamp="2019-02-02T11:34:34Z" uid="633013" user="Honning" version="1">
		<tag k="name" v="Strandbakken" />
		<tag k="place" v="farm" />
		<tag k="ssr:stedsnr" v="236423" />
	</node>
	<node changeset="66853759" id="6253542578" lat="59.0062833" lon="11.0494806" timestamp="2019-02-02T11:34:34Z" uid="633013" user="Honning" version="1">
		<tag k="name" v="Snøtten" />
		<tag k="place" v="farm" />
		<tag k="ssr:stedsnr" v="353408" />
	</node>
	<node changeset="66853759" id="6253542579" lat="59.0044306" lon="11.0515861" timestamp="2019-02-02T11:34:34Z" uid="633013" user="Honning" version="1">
		<tag k="name" v="Moa" />
		<tag k="place" v="farm" />
		<tag k="ssr:stedsnr" v="353409" />
	</node>
	<node changeset="66853759" id="6253542580" lat="59.0622972" lon="11.0087556" timestamp="2019-02-02T11:34:34Z" uid="633013" user="Honning" version="1">
		<tag k="name" v="Engedal" />
		<tag k="place" v="farm" />
		<tag k="ssr:stedsnr" v="236465" />
	</node>
	<node changeset="66853759" id="6253542581" lat="59.0965789" lon="10.938229" timestamp="2019-02-02T11:34:34Z" uid="633013" user="Honning" version="1">
		<tag k="loc_name" v="Vesta" />
		<tag k="name" v="Vestad" />
		<tag k="place" v="farm" />
		<tag k="ssr:stedsnr" v="976272" />
	</node>
	<node changeset="66853759" id="6253542582" lat="59.0958474" lon="10.9388088" timestamp="2019-02-02T11:34:34Z" uid="633013" user="Honning" version="1">
		<tag k="alt_name" v="Sydenga" />
		<tag k="loc_name" v="Sørenga" />
		<tag k="name" v="Sydengen" />
		<tag k="place" v="farm" />
		<tag k="ssr:stedsnr" v="976273" />
	</node>
	<node changeset="66853759" id="6253542583" lat="59.0370306" lon="11.0446333" timestamp="2019-02-02T11:34:34Z" uid="633013" user="Honning" version="1">
		<tag k="name" v="Dapa" />
		<tag k="place" v="farm" />
		<tag k="ssr:stedsnr" v="236565" />
	</node>
	<node changeset="66853759" id="6253542584" lat="59.064725" lon="10.9085639" timestamp="2019-02-02T11:34:34Z" uid="633013" user="Honning" version="1">
		<tag k="name" v="Spjærholmen" />
		<tag k="place" v="farm" />
		<tag k="ssr:stedsnr" v="357266" />
	</node>
	<node changeset="66853759" id="6253544473" lat="59.0465389" lon="10.9642333" timestamp="2019-02-02T11:34:39Z" uid="633013" user="Honning" version="1">
		<tag k="name" v="Håbu" />
		<tag k="place" v="farm" />
		<tag k="ssr:stedsnr" v="426625" />
	</node>
	<node changeset="66853759" id="6253544420" lat="59.0645417" lon="11.0540445" timestamp="2019-02-02T11:34:36Z" uid="633013" user="Honning" version="1">
		<tag k="name" v="Kileløkkene" />
		<tag k="place" v="locality" />
		<tag k="ssr:stedsnr" v="265383" />
	</node>
	<node changeset="66853759" id="6253545185" lat="59.0605083" lon="10.9564667" timestamp="2019-02-02T11:34:46Z" uid="633013" user="Honning" version="1">
		<tag k="name" v="Skipstadhavn" />
		<tag k="place" v="farm" />
		<tag k="ssr:stedsnr" v="296175" />
	</node>
	<node changeset="66853759" id="6253545186" lat="59.0879444" lon="10.88175" timestamp="2019-02-02T11:34:46Z" uid="633013" user="Honning" version="1">
		<tag k="name" v="Nedre Utgård" />
		<tag k="place" v="farm" />
		<tag k="ssr:stedsnr" v="600867" />
	</node>
	<node changeset="66853759" id="6253545187" lat="59.1147972" lon="10.8596056" timestamp="2019-02-02T11:34:46Z" uid="633013" user="Honning" version="1">
		<tag k="name" v="Papper" />
		<tag k="place" v="hamlet" />
		<tag k="ssr:stedsnr" v="145167" />
	</node>
	<node changeset="66853759" id="6253545188" lat="59.0028306" lon="11.054375" timestamp="2019-02-02T11:34:46Z" uid="633013" user="Honning" version="1">
		<tag k="name" v="Herføl" />
		<tag k="place" v="farm" />
		<tag k="ssr:stedsnr" v="296564" />
	</node>
	<node changeset="66853759" id="6253545189" lat="59.0569083" lon="11.0046556" timestamp="2019-02-02T11:34:46Z" uid="633013" user="Honning" version="1">
		<tag k="name" v="Brunsvik" />
		<tag k="place" v="farm" />
		<tag k="ssr:stedsnr" v="904820" />
	</node>
	<node changeset="66853759" id="6253545190" lat="59.0904222" lon="10.9161695" timestamp="2019-02-02T11:34:46Z" uid="633013" user="Honning" version="1">
		<tag k="alt_name" v="Djupedal" />
		<tag k="name" v="Dypedal" />
		<tag k="place" v="hamlet" />
		<tag k="ssr:stedsnr" v="162600" />
	</node>
	<node changeset="66853759" id="6253545191" lat="59.044125" lon="10.952275" timestamp="2019-02-02T11:34:46Z" uid="633013" user="Honning" version="1">
		<tag k="name" v="Øvre Viker" />
		<tag k="place" v="farm" />
		<tag k="ssr:stedsnr" v="296670" />
	</node>
	<node changeset="66853759" id="6253545193" lat="59.0496889" lon="11.0137028" timestamp="2019-02-02T11:34:46Z" uid="633013" user="Honning" version="1">
		<tag k="name" v="Grønnvoll" />
		<tag k="place" v="farm" />
		<tag k="ssr:stedsnr" v="782859" />
	</node>
	<node changeset="66853759" id="6253545194" lat="59.0707778" lon="11.0413889" timestamp="2019-02-02T11:34:46Z" uid="633013" user="Honning" version="1">
		<tag k="name" v="Storbukta" />
		<tag k="place" v="farm" />
		<tag k="ssr:stedsnr" v="904940" />
	</node>
	<node changeset="66853759" id="6253545195" lat="59.1130444" lon="10.8969611" timestamp="2019-02-02T11:34:46Z" uid="633013" user="Honning" version="1">
		<tag k="name" v="Belleville" />
		<tag k="place" v="farm" />
		<tag k="ssr:stedsnr" v="297047" />
	</node>
	<node changeset="66853759" id="6253545196" lat="59.0303111" lon="11.0401722" timestamp="2019-02-02T11:34:46Z" uid="633013" user="Honning" version="1">
		<tag k="name" v="Skogen" />
		<tag k="place" v="farm" />
		<tag k="ssr:stedsnr" v="175084" />
	</node>
	<node changeset="66853759" id="6253545197" lat="59.080275" lon="10.8547806" timestamp="2019-02-02T11:34:46Z" uid="633013" user="Honning" version="1">
		<tag k="name" v="Barm" />
		<tag k="place" v="hamlet" />
		<tag k="ssr:stedsnr" v="607547" />
	</node>
	<node changeset="66853759" id="6253545198" lat="59.0526667" lon="10.9942083" timestamp="2019-02-02T11:34:46Z" uid="633013" user="Honning" version="1">
		<tag k="name" v="Kvernskau" />
		<tag k="place" v="farm" />
		<tag k="ssr:stedsnr" v="175191" />
	</node>
	<node changeset="66853759" id="6253545199" lat="59.1093361" lon="10.9096639" timestamp="2019-02-02T11:34:46Z" uid="633013" user="Honning" version="1">
		<tag k="name" v="Ødegården" />
		<tag k="place" v="hamlet" />
		<tag k="ssr:stedsnr" v="297085" />
	</node>
	<node changeset="66853759" id="6253545200" lat="59.105825" lon="10.8565722" timestamp="2019-02-02T11:34:46Z" uid="633013" user="Honning" version="1">
		<tag k="name" v="Skottet" />
		<tag k="place" v="farm" />
		<tag k="ssr:stedsnr" v="607706" />
	</node>
	<node changeset="66853759" id="6253545201" lat="59.0853944" lon="10.8544972" timestamp="2019-02-02T11:34:46Z" uid="633013" user="Honning" version="1">
		<tag k="name" v="Lanterna" />
		<tag k="place" v="isolated_dwelling" />
		<tag k="ssr:stedsnr" v="908025" />
	</node>
	<node changeset="66853759" id="6253545202" lat="59.0660889" lon="11.0051556" timestamp="2019-02-02T11:34:46Z" uid="633013" user="Honning" version="1">
		<tag k="name" v="Bjerkelia" />
		<tag k="place" v="farm" />
		<tag k="ssr:stedsnr" v="175443" />
	</node>
	<node changeset="66853759" id="6253545203" lat="59.0687194" lon="11.0800472" timestamp="2019-02-02T11:34:47Z" uid="633013" user="Honning" version="1">
		<tag k="name" v="Ødegården" />
		<tag k="place" v="farm" />
		<tag k="ssr:stedsnr" v="908704" />
	</node>
	<node changeset="66853759" id="6253545204" lat="59.0731444" lon="11.0649778" timestamp="2019-02-02T11:34:47Z" uid="633013" user="Honning" version="1">
		<tag k="alt_name" v="Stafseng;Stavseng;Stafsengen" />
		<tag k="name" v="Stafsenga" />
		<tag k="old_name" v="Stabseng" />
		<tag k="place" v="farm" />
		<tag k="ssr:stedsnr" v="908714" />
	</node>
	<node changeset="66853759" id="6253545205" lat="59.0723861" lon="11.0074083" timestamp="2019-02-02T11:34:47Z" uid="633013" user="Honning" version="1">
		<tag k="name" v="Østgård" />
		<tag k="place" v="farm" />
		<tag k="ssr:stedsnr" v="297424" />
	</node>
	<node changeset="66853759" id="6253545206" lat="59.0442333" lon="10.9964389" timestamp="2019-02-02T11:34:47Z" uid="633013" user="Honning" version="1">
		<tag k="name" v="Store Rød" />
		<tag k="place" v="farm" />
		<tag k="ssr:stedsnr" v="175578" />
	</node>
	<node changeset="66853759" id="6253545207" lat="59.0679472" lon="11.07055" timestamp="2019-02-02T11:34:47Z" uid="633013" user="Honning" version="1">
		<tag k="name" v="Øgården" />
		<tag k="place" v="farm" />
		<tag k="ssr:stedsnr" v="608572" />
	</node>
	<node changeset="66853759" id="6253545208" lat="59.0643667" lon="11.0841278" timestamp="2019-02-02T11:34:47Z" uid="633013" user="Honning" version="1">
		<tag k="name" v="Kilebrygga" />
		<tag k="place" v="farm" />
		<tag k="ssr:stedsnr" v="608574" />
	</node>
	<node changeset="66853759" id="6253545209" lat="59.0800083" lon="10.9028861" timestamp="2019-02-02T11:34:47Z" uid="633013" user="Honning" version="1">
		<tag k="name" v="Ødegård" />
		<tag k="place" v="isolated_dwelling" />
		<tag k="ssr:stedsnr" v="175696" />
	</node>
	<node changeset="66853759" id="6253545210" lat="59.0523028" lon="10.946025" timestamp="2019-02-02T11:34:47Z" uid="633013" user="Honning" version="1">
		<tag k="name" v="Skipstad" />
		<tag k="place" v="farm" />
		<tag k="ssr:stedsnr" v="608640" />
	</node>
	<node changeset="66853759" id="6253545211" lat="59.0306361" lon="11.0032306" timestamp="2019-02-02T11:34:47Z" uid="633013" user="Honning" version="1">
		<tag k="name" v="Hogget" />
		<tag k="place" v="farm" />
		<tag k="ssr:stedsnr" v="608648" />
	</node>
	<node changeset="66853759" id="6253545212" lat="59.0383389" lon="10.9486889" timestamp="2019-02-02T11:34:47Z" uid="633013" user="Honning" version="1">
		<tag k="name" v="Viker" />
		<tag k="place" v="hamlet" />
		<tag k="ssr:stedsnr" v="608657" />
	</node>
	<node changeset="66853759" id="6253545213" lat="59.0399972" lon="11.0399639" timestamp="2019-02-02T11:34:47Z" uid="633013" user="Honning" version="1">
		<tag k="name" v="Kjølholt" />
		<tag k="place" v="farm" />
		<tag k="ssr:stedsnr" v="608656" />
	</node>
	<node changeset="66853759" id="6253545214" lat="59.0897556" lon="10.9350722" timestamp="2019-02-02T11:34:47Z" uid="633013" user="Honning" version="1">
		<tag k="alt_name" v="Bast;Bastø" />
		<tag k="name" v="Basto" />
		<tag k="place" v="farm" />
		<tag k="ssr:stedsnr" v="175987" />
	</node>
	<node changeset="66853759" id="6253545215" lat="59.06965" lon="11.0342889" timestamp="2019-02-02T11:34:47Z" uid="633013" user="Honning" version="1">
		<tag k="name" v="Brenne" />
		<tag k="place" v="farm" />
		<tag k="ssr:stedsnr" v="912557" />
	</node>
	<node changeset="66853759" id="6253545216" lat="59.0562444" lon="11.0224417" timestamp="2019-02-02T11:34:47Z" uid="633013" user="Honning" version="1">
		<tag k="name" v="Rønningen" />
		<tag k="place" v="locality" />
		<tag k="ssr:stedsnr" v="612878" />
	</node>
	<node changeset="66853759" id="6253545217" lat="59.0540722" lon="11.0228889" timestamp="2019-02-02T11:34:47Z" uid="633013" user="Honning" version="1">
		<tag k="leisure" v="pitch" />
		<tag k="name" v="Hvaler Golfbane" />
		<tag k="ssr:stedsnr" v="612879" />
	</node>
	<node changeset="66853759" id="6253545218" lat="59.0901056" lon="11.0198611" timestamp="2019-02-02T11:34:47Z" uid="633013" user="Honning" version="1">
		<tag k="name" v="Utengen" />
		<tag k="place" v="farm" />
		<tag k="ssr:stedsnr" v="912577" />
	</node>
	<node changeset="66853759" id="6253545219" lat="59.0614444" lon="10.9432639" timestamp="2019-02-02T11:34:47Z" uid="633013" user="Honning" version="1">
		<tag k="name" v="Kasene" />
		<tag k="place" v="farm" />
		<tag k="ssr:stedsnr" v="297919" />
	</node>
	<node changeset="66853759" id="6253545220" lat="59.0049556" lon="11.0754833" timestamp="2019-02-02T11:34:48Z" uid="633013" user="Honning" version="1">
		<tag k="name" v="Havna" />
		<tag k="place" v="farm" />
		<tag k="ssr:stedsnr" v="628323" />
	</node>
	<node changeset="66853759" id="6253545221" lat="59.0768667" lon="11.0569528" timestamp="2019-02-02T11:34:48Z" uid="633013" user="Honning" version="1">
		<tag k="name" v="Halsen" />
		<tag k="place" v="isolated_dwelling" />
		<tag k="ssr:stedsnr" v="628333" />
	</node>
	<node changeset="66853759" id="6253545222" lat="59.105925" lon="10.887375" timestamp="2019-02-02T11:34:48Z" uid="633013" user="Honning" version="1">
		<tag k="name" v="Langekil" />
		<tag k="place" v="farm" />
		<tag k="ssr:stedsnr" v="912713" />
	</node>
	<node changeset="66853759" id="6253545223" lat="59.061225" lon="11.0656667" timestamp="2019-02-02T11:34:48Z" uid="633013" user="Honning" version="1">
		<tag k="name" v="Stinteren" />
		<tag k="place" v="locality" />
		<tag k="ssr:stedsnr" v="628342" />
	</node>
	<node changeset="66853759" id="6253545224" lat="59.0216" lon="11.0904194" timestamp="2019-02-02T11:34:48Z" uid="633013" user="Honning" version="1">
		<tag k="name" v="Dypsand" />
		<tag k="place" v="farm" />
		<tag k="ssr:stedsnr" v="932302" />
	</node>
	<node changeset="66853759" id="6253545225" lat="59.0823111" lon="11.0709944" timestamp="2019-02-02T11:34:48Z" uid="633013" user="Honning" version="1">
		<tag k="name" v="Strandli" />
		<tag k="place" v="isolated_dwelling" />
		<tag k="ssr:stedsnr" v="629404" />
	</node>
	<node changeset="66853759" id="6253545226" lat="59.0070083" lon="11.070175" timestamp="2019-02-02T11:34:48Z" uid="633013" user="Honning" version="1">
		<tag k="name" v="Tranget" />
		<tag k="place" v="locality" />
		<tag k="ssr:stedsnr" v="932314" />
	</node>
	<node changeset="66853759" id="6253545227" lat="59.07085" lon="11.0837972" timestamp="2019-02-02T11:34:48Z" uid="633013" user="Honning" version="1">
		<tag k="alt_name" v="Røtet" />
		<tag k="name" v="Røte" />
		<tag k="place" v="isolated_dwelling" />
		<tag k="ssr:stedsnr" v="183479" />
	</node>
	<node changeset="66853759" id="6253545228" lat="59.1007194" lon="10.9360222" timestamp="2019-02-02T11:34:48Z" uid="633013" user="Honning" version="1">
		<tag k="alt_name" v="Dypedal;Norsted" />
		<tag k="loc_name" v="Nordsted" />
		<tag k="name" v="Djupedal" />
		<tag k="old_name" v="Dybedal" />
		<tag k="place" v="farm" />
		<tag k="ssr:stedsnr" v="647074" />
	</node>
	<node changeset="66853759" id="6253545229" lat="59.0761972" lon="10.923025" timestamp="2019-02-02T11:34:48Z" uid="633013" user="Honning" version="1">
		<tag k="name" v="Langeli" />
		<tag k="place" v="farm" />
		<tag k="ssr:stedsnr" v="304560" />
	</node>
	<node changeset="66853759" id="6253545230" lat="59.0847806" lon="10.9283528" timestamp="2019-02-02T11:34:48Z" uid="633013" user="Honning" version="1">
		<tag k="name" v="Sand" />
		<tag k="place" v="hamlet" />
		<tag k="ssr:stedsnr" v="304564" />
	</node>
	<node changeset="66853759" id="6253545231" lat="59.0452028" lon="11.1099194" timestamp="2019-02-02T11:34:48Z" uid="633013" user="Honning" version="1">
		<tag k="alt_name" v="Makøy" />
		<tag k="name" v="Makø" />
		<tag k="place" v="farm" />
		<tag k="ssr:stedsnr" v="184224" />
	</node>
	<node changeset="66853759" id="6253545232" lat="59.1162639" lon="10.8948694" timestamp="2019-02-02T11:34:48Z" uid="633013" user="Honning" version="1">
		<tag k="name" v="Sildevika" />
		<tag k="place" v="isolated_dwelling" />
		<tag k="ssr:stedsnr" v="660072" />
	</node>
	<node changeset="66853759" id="6253545233" lat="59.0513694" lon="11.0372195" timestamp="2019-02-02T11:34:48Z" uid="633013" user="Honning" version="1">
		<tag k="alt_name" v="Gjurød" />
		<tag k="name" v="Gjuerød" />
		<tag k="place" v="farm" />
		<tag k="ssr:stedsnr" v="184606" />
	</node>
	<node changeset="66853759" id="6253545234" lat="59.0342806" lon="10.9454944" timestamp="2019-02-02T11:34:48Z" uid="633013" user="Honning" version="1">
		<tag k="name" v="Halsen" />
		<tag k="place" v="isolated_dwelling" />
		<tag k="ssr:stedsnr" v="660265" />
	</node>
	<node changeset="66853759" id="6253545235" lat="59.0955444" lon="10.9413889" timestamp="2019-02-02T11:34:48Z" uid="633013" user="Honning" version="1">
		<tag k="alt_name" v="Østa" />
		<tag k="name" v="Østad" />
		<tag k="place" v="hamlet" />
		<tag k="ssr:stedsnr" v="184546" />
	</node>
	<node changeset="66853759" id="6253545236" lat="59.0780444" lon="10.8958667" timestamp="2019-02-02T11:34:48Z" uid="633013" user="Honning" version="1">
		<tag k="name" v="Markento" />
		<tag k="place" v="isolated_dwelling" />
		<tag k="ssr:stedsnr" v="660308" />
	</node>
	<node changeset="66853759" id="6253544857" lat="59.0207917" lon="11.0784083" timestamp="2019-02-02T11:34:44Z" uid="633013" user="Honning" version="1">
		<tag k="name" v="Bakkevik" />
		<tag k="place" v="farm" />
		<tag k="ssr:stedsnr" v="851549" />
	</node>
	<node changeset="66853759" id="6253544785" lat="59.0599361" lon="10.9317917" timestamp="2019-02-02T11:34:40Z" uid="633013" user="Honning" version="1">
		<tag k="name" v="Gravningen" />
		<tag k="place" v="farm" />
		<tag k="ssr:stedsnr" v="175684" />
	</node>
	<node changeset="66853759" id="6253544786" lat="59.0320944" lon="11.0935306" timestamp="2019-02-02T11:34:40Z" uid="633013" user="Honning" version="1">
		<tag k="name" v="Sanne" />
		<tag k="place" v="farm" />
		<tag k="ssr:stedsnr" v="750275" />
	</node>
	<node changeset="66853759" id="6253544787" lat="59.0671389" lon="10.9977333" timestamp="2019-02-02T11:34:40Z" uid="633013" user="Honning" version="1">
		<tag k="name" v="Riberg" />
		<tag k="place" v="isolated_dwelling" />
		<tag k="ssr:stedsnr" v="54443" />
	</node>
	<node changeset="66853759" id="6253544788" lat="59.0692722" lon="11.0002833" timestamp="2019-02-02T11:34:40Z" uid="633013" user="Honning" version="1">
		<tag k="name" v="Vestgård" />
		<tag k="place" v="farm" />
		<tag k="ssr:stedsnr" v="54445" />
	</node>
	<node changeset="66853759" id="6253544789" lat="59.0374028" lon="11.0421611" timestamp="2019-02-02T11:34:40Z" uid="633013" user="Honning" version="1">
		<tag k="name" v="Myra" />
		<tag k="place" v="farm" />
		<tag k="ssr:stedsnr" v="54530" />
	</node>
	<node changeset="66853759" id="6253544790" lat="59.0885972" lon="10.9108139" timestamp="2019-02-02T11:34:40Z" uid="633013" user="Honning" version="1">
		<tag k="name" v="Hobekk" />
		<tag k="place" v="farm" />
		<tag k="ssr:stedsnr" v="54539" />
	</node>
	<node changeset="66853759" id="6253544791" lat="59.1057861" lon="10.9171667" timestamp="2019-02-02T11:34:40Z" uid="633013" user="Honning" version="1">
		<tag k="name" v="Norderhaug" />
		<tag k="place" v="farm" />
		<tag k="ssr:stedsnr" v="782043" />
	</node>
	<node changeset="66853759" id="6253544792" lat="59.0265361" lon="11.0859806" timestamp="2019-02-02T11:34:40Z" uid="633013" user="Honning" version="1">
		<tag k="name" v="Tussehytta" />
		<tag k="place" v="isolated_dwelling" />
		<tag k="ssr:stedsnr" v="787021" />
	</node>
	<node changeset="66853759" id="6253544793" lat="59.0779083" lon="10.9015139" timestamp="2019-02-02T11:34:40Z" uid="633013" user="Honning" version="1">
		<tag k="alt_name" v="Hamna" />
		<tag k="name" v="Havna" />
		<tag k="place" v="farm" />
		<tag k="ssr:stedsnr" v="668563" />
	</node>
	<node changeset="66853759" id="6253544794" lat="59.1100222" lon="10.8831361" timestamp="2019-02-02T11:34:40Z" uid="633013" user="Honning" version="1">
		<tag k="name" v="Duekasa" />
		<tag k="place" v="isolated_dwelling" />
		<tag k="ssr:stedsnr" v="54722" />
	</node>
	<node changeset="66853759" id="6253544795" lat="59.07125" lon="10.938475" timestamp="2019-02-02T11:34:40Z" uid="633013" user="Honning" version="1">
		<tag k="name" v="Brente" />
		<tag k="place" v="isolated_dwelling" />
		<tag k="ssr:stedsnr" v="790531" />
	</node>
	<node changeset="66853759" id="6253544796" lat="59.0886083" lon="10.8866583" timestamp="2019-02-02T11:34:40Z" uid="633013" user="Honning" version="1">
		<tag k="name" v="Nedre Utgård" />
		<tag k="place" v="farm" />
		<tag k="ssr:stedsnr" v="54890" />
	</node>
	<node changeset="66853759" id="6253544797" lat="59.0764139" lon="10.9483" timestamp="2019-02-02T11:34:40Z" uid="633013" user="Honning" version="1">
		<tag k="name" v="Li" />
		<tag k="place" v="farm" />
		<tag k="ssr:stedsnr" v="486560" />
	</node>
	<node changeset="66853759" id="6253544798" lat="59.0469667" lon="11.0067444" timestamp="2019-02-02T11:34:41Z" uid="633013" user="Honning" version="1">
		<tag k="name" v="Ekeli" />
		<tag k="place" v="farm" />
		<tag k="ssr:stedsnr" v="54893" />
	</node>
	<node changeset="66853759" id="6253544799" lat="59.0940639" lon="10.9207222" timestamp="2019-02-02T11:34:41Z" uid="633013" user="Honning" version="1">
		<tag k="alt_name" v="Nordgard;Nordgarden" />
		<tag k="name" v="Nordgården" />
		<tag k="place" v="farm" />
		<tag k="ssr:stedsnr" v="790565" />
	</node>
	<node changeset="66853759" id="6253544800" lat="59.107175" lon="11.123625" timestamp="2019-02-02T11:34:41Z" uid="633013" user="Honning" version="1">
		<tag k="name" v="Kverndalen" />
		<tag k="place" v="isolated_dwelling" />
		<tag k="ssr:stedsnr" v="486842" />
	</node>
	<node changeset="66853759" id="6253544801" lat="59.0362972" lon="11.0461222" timestamp="2019-02-02T11:34:41Z" uid="633013" user="Honning" version="1">
		<tag k="name" v="Kasa" />
		<tag k="place" v="farm" />
		<tag k="ssr:stedsnr" v="790660" />
	</node>
	<node changeset="66853759" id="6253544802" lat="59.055275" lon="11.0125472" timestamp="2019-02-02T11:34:41Z" uid="633013" user="Honning" version="1">
		<tag k="name" v="Putten" />
		<tag k="place" v="farm" />
		<tag k="ssr:stedsnr" v="730555" />
	</node>
	<node changeset="66853759" id="6253544803" lat="59.0931083" lon="10.8543472" timestamp="2019-02-02T11:34:41Z" uid="633013" user="Honning" version="1">
		<tag k="name" v="Vauer" />
		<tag k="place" v="hamlet" />
		<tag k="ssr:stedsnr" v="790751" />
	</node>
	<node changeset="66853759" id="6253544804" lat="59.1018667" lon="10.9051806" timestamp="2019-02-02T11:34:41Z" uid="633013" user="Honning" version="1">
		<tag k="name" v="Langero" />
		<tag k="place" v="farm" />
		<tag k="ssr:stedsnr" v="366556" />
	</node>
	<node changeset="66853759" id="6253544805" lat="59.1148722" lon="10.9045917" timestamp="2019-02-02T11:34:41Z" uid="633013" user="Honning" version="1">
		<tag k="alt_name" v="Lærdalen" />
		<tag k="name" v="Lerdalen" />
		<tag k="place" v="farm" />
		<tag k="ssr:stedsnr" v="911722" />
	</node>
	<node changeset="66853759" id="6253544806" lat="59.0215111" lon="11.0956667" timestamp="2019-02-02T11:34:41Z" uid="633013" user="Honning" version="1">
		<tag k="name" v="Gravningen" />
		<tag k="place" v="farm" />
		<tag k="ssr:stedsnr" v="811292" />
	</node>
	<node changeset="66853759" id="6253544807" lat="59.0209833" lon="11.0880305" timestamp="2019-02-02T11:34:41Z" uid="633013" user="Honning" version="1">
		<tag k="name" v="Skjellsand" />
		<tag k="place" v="locality" />
		<tag k="ssr:stedsnr" v="811295" />
	</node>
	<node changeset="66853759" id="6253544808" lat="59.0763722" lon="11.0540917" timestamp="2019-02-02T11:34:41Z" uid="633013" user="Honning" version="1">
		<tag k="name" v="Havna" />
		<tag k="place" v="isolated_dwelling" />
		<tag k="ssr:stedsnr" v="507326" />
	</node>
	<node changeset="66853759" id="6253544809" lat="59.0642306" lon="11.0321917" timestamp="2019-02-02T11:34:41Z" uid="633013" user="Honning" version="1">
		<tag k="name" v="Botne" />
		<tag k="place" v="hamlet" />
		<tag k="ssr:stedsnr" v="62519" />
	</node>
	<node changeset="66853759" id="6253544810" lat="59.0979056" lon="10.9337" timestamp="2019-02-02T11:34:41Z" uid="633013" user="Honning" version="1">
		<tag k="name" v="Oppdal" />
		<tag k="place" v="farm" />
		<tag k="ssr:stedsnr" v="62534" />
	</node>
	<node changeset="66853759" id="6253544811" lat="59.0576944" lon="11.0747472" timestamp="2019-02-02T11:34:41Z" uid="633013" user="Honning" version="1">
		<tag k="name" v="Sundsvik" />
		<tag k="place" v="farm" />
		<tag k="ssr:stedsnr" v="811335" />
	</node>
	<node changeset="66853759" id="6253544812" lat="59.1106056" lon="10.853125" timestamp="2019-02-02T11:34:41Z" uid="633013" user="Honning" version="1">
		<tag k="name" v="Langero" />
		<tag k="place" v="farm" />
		<tag k="ssr:stedsnr" v="175975" />
	</node>
	<node changeset="66853759" id="6253544813" lat="59.0875056" lon="11.012725" timestamp="2019-02-02T11:34:41Z" uid="633013" user="Honning" version="1">
		<tag k="name" v="Saltvik" />
		<tag k="place" v="farm" />
		<tag k="ssr:stedsnr" v="62557" />
	</node>
	<node changeset="66853759" id="6253544814" lat="59.0854194" lon="11.0335139" timestamp="2019-02-02T11:34:41Z" uid="633013" user="Honning" version="1">
		<tag k="name" v="Urdal" />
		<tag k="place" v="hamlet" />
		<tag k="ssr:stedsnr" v="62558" />
	</node>
	<node changeset="66853759" id="6253544815" lat="59.1099278" lon="10.8608806" timestamp="2019-02-02T11:34:41Z" uid="633013" user="Honning" version="1">
		<tag k="alt_name" v="Ladenga" />
		<tag k="name" v="Laenga" />
		<tag k="place" v="neighbourhood" />
		<tag k="ssr:stedsnr" v="62713" />
	</node>
	<node changeset="66853759" id="6253544816" lat="59.0999389" lon="10.8490417" timestamp="2019-02-02T11:34:42Z" uid="633013" user="Honning" version="1">
		<tag k="name" v="Løkker" />
		<tag k="place" v="farm" />
		<tag k="ssr:stedsnr" v="62718" />
	</node>
	<node changeset="66853759" id="6253544817" lat="59.0322111" lon="11.0244083" timestamp="2019-02-02T11:34:42Z" uid="633013" user="Honning" version="1">
		<tag k="name" v="Hvaler prestebolig" />
		<tag k="place" v="farm" />
		<tag k="ssr:stedsnr" v="539073" />
	</node>
	<node changeset="66853759" id="6253544818" lat="59.0314361" lon="11.0008917" timestamp="2019-02-02T11:34:42Z" uid="633013" user="Honning" version="1">
		<tag k="name" v="Tobakksbukta" />
		<tag k="place" v="farm" />
		<tag k="ssr:stedsnr" v="539079" />
	</node>
	<node changeset="66853759" id="6253544819" lat="59.0794028" lon="10.9485889" timestamp="2019-02-02T11:34:42Z" uid="633013" user="Honning" version="1">
		<tag k="name" v="Li" />
		<tag k="place" v="farm" />
		<tag k="ssr:stedsnr" v="539358" />
	</node>
	<node changeset="66853759" id="6253544820" lat="59.0923972" lon="10.909525" timestamp="2019-02-02T11:34:42Z" uid="633013" user="Honning" version="1">
		<tag k="alt_name" v="Bråten nordre" />
		<tag k="name" v="Nordre Bråten" />
		<tag k="place" v="farm" />
		<tag k="ssr:stedsnr" v="539490" />
	</node>
	<node changeset="66853759" id="6253544821" lat="59.0905194" lon="10.90825" timestamp="2019-02-02T11:34:42Z" uid="633013" user="Honning" version="1">
		<tag k="alt_name" v="Bråten søndre" />
		<tag k="loc_name" v="Bråten" />
		<tag k="name" v="Søndre Bråten" />
		<tag k="place" v="farm" />
		<tag k="ssr:stedsnr" v="539494" />
	</node>
	<node changeset="66853759" id="6253544822" lat="59.0362056" lon="11.0365833" timestamp="2019-02-02T11:34:42Z" uid="633013" user="Honning" version="1">
		<tag k="name" v="Rove" />
		<tag k="place" v="farm" />
		<tag k="ssr:stedsnr" v="539510" />
	</node>
	<node changeset="66853759" id="6253544823" lat="59.0306333" lon="11.0555611" timestamp="2019-02-02T11:34:42Z" uid="633013" user="Honning" version="1">
		<tag k="name" v="Skårsnes" />
		<tag k="place" v="farm" />
		<tag k="ssr:stedsnr" v="83303" />
	</node>
	<node changeset="66853759" id="6253544824" lat="59.0292222" lon="11.0943083" timestamp="2019-02-02T11:34:42Z" uid="633013" user="Honning" version="1">
		<tag k="name" v="Sanne" />
		<tag k="place" v="isolated_dwelling" />
		<tag k="ssr:stedsnr" v="83311" />
	</node>
	<node changeset="66853759" id="6253544825" lat="59.0837694" lon="10.9969556" timestamp="2019-02-02T11:34:42Z" uid="633013" user="Honning" version="1">
		<tag k="name" v="Pulservik" />
		<tag k="place" v="neighbourhood" />
		<tag k="ssr:stedsnr" v="304566" />
	</node>
	<node changeset="66853759" id="6253544826" lat="59.1187389" lon="10.8723472" timestamp="2019-02-02T11:34:42Z" uid="633013" user="Honning" version="1">
		<tag k="name" v="Nordstrand" />
		<tag k="place" v="farm" />
		<tag k="ssr:stedsnr" v="539674" />
	</node>
	<node changeset="66853759" id="6253544827" lat="59.0726083" lon="10.9367583" timestamp="2019-02-02T11:34:42Z" uid="633013" user="Honning" version="1">
		<tag k="name" v="Søndre Rød" />
		<tag k="place" v="farm" />
		<tag k="ssr:stedsnr" v="63335" />
	</node>
	<node changeset="66853759" id="6253544828" lat="59.0695861" lon="11.0297861" timestamp="2019-02-02T11:34:42Z" uid="633013" user="Honning" version="1">
		<tag k="name" v="Rev" />
		<tag k="old_name" v="Ræf;Reff;Ref" />
		<tag k="place" v="farm" />
		<tag k="ssr:stedsnr" v="912561" />
	</node>
	<node changeset="66853759" id="6253544829" lat="59.0609417" lon="10.9836139" timestamp="2019-02-02T11:34:42Z" uid="633013" user="Honning" version="1">
		<tag k="name" v="Styvehavn" />
		<tag k="place" v="farm" />
		<tag k="ssr:stedsnr" v="539785" />
	</node>
	<node changeset="66853759" id="6253544830" lat="59.0549972" lon="10.9334667" timestamp="2019-02-02T11:34:42Z" uid="633013" user="Honning" version="1">
		<tag k="alt_name" v="Huser søndre" />
		<tag k="name" v="Søndre Huser" />
		<tag k="place" v="farm" />
		<tag k="ssr:stedsnr" v="539866" />
	</node>
	<node changeset="66853759" id="6253544831" lat="59.002575" lon="11.0692639" timestamp="2019-02-02T11:34:42Z" uid="633013" user="Honning" version="1">
		<tag k="alt_name" v="Venderen;Vennern" />
		<tag k="name" v="Venneren" />
		<tag k="place" v="locality" />
		<tag k="ssr:stedsnr" v="668576" />
	</node>
	<node changeset="66853759" id="6253544832" lat="59.0883944" lon="10.9050944" timestamp="2019-02-02T11:34:42Z" uid="633013" user="Honning" version="1">
		<tag k="name" v="Stranda" />
		<tag k="place" v="isolated_dwelling" />
		<tag k="ssr:stedsnr" v="843526" />
	</node>
	<node changeset="66853759" id="6253544833" lat="59.0897583" lon="11.0345917" timestamp="2019-02-02T11:34:43Z" uid="633013" user="Honning" version="1">
		<tag k="name" v="Langkasa" />
		<tag k="place" v="farm" />
		<tag k="ssr:stedsnr" v="540038" />
	</node>
	<node changeset="66853759" id="6253544834" lat="59.0706083" lon="11.0426" timestamp="2019-02-02T11:34:43Z" uid="633013" user="Honning" version="1">
		<tag k="name" v="Storbukta" />
		<tag k="place" v="farm" />
		<tag k="ssr:stedsnr" v="540381" />
	</node>
	<node changeset="66853759" id="6253544835" lat="59.0669861" lon="11.0494667" timestamp="2019-02-02T11:34:43Z" uid="633013" user="Honning" version="1">
		<tag k="name" v="Fjellholt" />
		<tag k="place" v="farm" />
		<tag k="ssr:stedsnr" v="540433" />
	</node>
	<node changeset="66853759" id="6253544836" lat="59.0745806" lon="11.0085139" timestamp="2019-02-02T11:34:43Z" uid="633013" user="Honning" version="1">
		<tag k="alt_name" v="Øvre Granhøy" />
		<tag k="name" v="Granli" />
		<tag k="place" v="farm" />
		<tag k="ssr:stedsnr" v="540451" />
	</node>
	<node changeset="66853759" id="6253544837" lat="59.0730611" lon="10.95275" timestamp="2019-02-02T11:34:43Z" uid="633013" user="Honning" version="1">
		<tag k="name" v="Brekkerød" />
		<tag k="place" v="farm" />
		<tag k="ssr:stedsnr" v="540917" />
	</node>
	<node changeset="66853759" id="6253544838" lat="59.0791722" lon="10.9896722" timestamp="2019-02-02T11:34:43Z" uid="633013" user="Honning" version="1">
		<tag k="alt_name" v="Alkestein" />
		<tag k="name" v="Alkesten" />
		<tag k="place" v="farm" />
		<tag k="ssr:stedsnr" v="486518" />
	</node>
	<node changeset="66853759" id="6253544839" lat="59.0881472" lon="11.03425" timestamp="2019-02-02T11:34:43Z" uid="633013" user="Honning" version="1">
		<tag k="name" v="Brønnløkka" />
		<tag k="place" v="farm" />
		<tag k="ssr:stedsnr" v="844029" />
	</node>
	<node changeset="66853759" id="6253544840" lat="59.0824333" lon="11.0326556" timestamp="2019-02-02T11:34:43Z" uid="633013" user="Honning" version="1">
		<tag k="name" v="Berget" />
		<tag k="place" v="locality" />
		<tag k="ssr:stedsnr" v="115001" />
	</node>
	<node changeset="66853759" id="6253544841" lat="59.0617139" lon="11.0420694" timestamp="2019-02-02T11:34:43Z" uid="633013" user="Honning" version="1">
		<tag k="name" v="Løkkebakken" />
		<tag k="place" v="farm" />
		<tag k="ssr:stedsnr" v="844810" />
	</node>
	<node changeset="66853759" id="6253544842" lat="59.0588389" lon="11.0363889" timestamp="2019-02-02T11:34:43Z" uid="633013" user="Honning" version="1">
		<tag k="name" v="Snekotta" />
		<tag k="place" v="farm" />
		<tag k="ssr:stedsnr" v="844812" />
	</node>
	<node changeset="66853759" id="6253544843" lat="59.0548833" lon="11.0007028" timestamp="2019-02-02T11:34:43Z" uid="633013" user="Honning" version="1">
		<tag k="name" v="Haslevika" />
		<tag k="place" v="farm" />
		<tag k="ssr:stedsnr" v="844903" />
	</node>
	<node changeset="66853759" id="6253544844" lat="59.1112833" lon="10.8865056" timestamp="2019-02-02T11:34:43Z" uid="633013" user="Honning" version="1">
		<tag k="name" v="Sandvika" />
		<tag k="place" v="isolated_dwelling" />
		<tag k="ssr:stedsnr" v="115066" />
	</node>
	<node changeset="66853759" id="6253544845" lat="59.0780722" lon="10.8656111" timestamp="2019-02-02T11:34:43Z" uid="633013" user="Honning" version="1">
		<tag k="name" v="Tangen" />
		<tag k="place" v="farm" />
		<tag k="ssr:stedsnr" v="115092" />
	</node>
	<node changeset="66853759" id="6253544846" lat="59.0721722" lon="11.0062972" timestamp="2019-02-02T11:34:43Z" uid="633013" user="Honning" version="1">
		<tag k="name" v="Korshavn" />
		<tag k="place" v="hamlet" />
		<tag k="ssr:stedsnr" v="547551" />
	</node>
	<node changeset="66853759" id="6253544847" lat="59.0999611" lon="10.9422139" timestamp="2019-02-02T11:34:43Z" uid="633013" user="Honning" version="1">
		<tag k="name" v="Nordsted" />
		<tag k="place" v="isolated_dwelling" />
		<tag k="ssr:stedsnr" v="53637" />
	</node>
	<node changeset="66853759" id="6253544848" lat="59.0516306" lon="11.0193444" timestamp="2019-02-02T11:34:43Z" uid="633013" user="Honning" version="1">
		<tag k="name" v="Ørdal" />
		<tag k="place" v="farm" />
		<tag k="ssr:stedsnr" v="547646" />
	</node>
	<node changeset="66853759" id="6253544849" lat="59.0486306" lon="11.0083583" timestamp="2019-02-02T11:34:43Z" uid="633013" user="Honning" version="1">
		<tag k="name" v="Holm" />
		<tag k="place" v="farm" />
		<tag k="ssr:stedsnr" v="547648" />
	</node>
	<node changeset="66853759" id="6253544850" lat="59.0275972" lon="11.0138583" timestamp="2019-02-02T11:34:43Z" uid="633013" user="Honning" version="1">
		<tag k="name" v="Vadholmen" />
		<tag k="place" v="farm" />
		<tag k="ssr:stedsnr" v="661087" />
	</node>
	<node changeset="66853759" id="6253544851" lat="59.1030611" lon="10.8649944" timestamp="2019-02-02T11:34:44Z" uid="633013" user="Honning" version="1">
		<tag k="name" v="Saltvik" />
		<tag k="place" v="farm" />
		<tag k="ssr:stedsnr" v="115646" />
	</node>
	<node changeset="66853759" id="6253544852" lat="59.0342917" lon="10.9454778" timestamp="2019-02-02T11:34:44Z" uid="633013" user="Honning" version="1">
		<tag k="name" v="Halsen" />
		<tag k="place" v="isolated_dwelling" />
		<tag k="ssr:stedsnr" v="115647" />
	</node>
	<node changeset="66853759" id="6253544853" lat="59.0364611" lon="10.9476222" timestamp="2019-02-02T11:34:44Z" uid="633013" user="Honning" version="1">
		<tag k="name" v="Tauløs" />
		<tag k="place" v="isolated_dwelling" />
		<tag k="ssr:stedsnr" v="115648" />
	</node>
	<node changeset="66853759" id="6253544854" lat="59.0355583" lon="11.0383056" timestamp="2019-02-02T11:34:44Z" uid="633013" user="Honning" version="1">
		<tag k="name" v="Rove" />
		<tag k="place" v="farm" />
		<tag k="ssr:stedsnr" v="782570" />
	</node>
	<node changeset="58107984" id="5554394007" lat="59.042101" lon="11.031707" timestamp="2018-04-15T11:29:54Z" uid="3095942" user="Øystein Bjørndal_import" version="1" />
	<node changeset="58107984" id="5554394008" lat="59.0420195" lon="11.0318224" timestamp="2018-04-15T11:29:54Z" uid="3095942" user="Øystein Bjørndal_import" version="1" />
	<node changeset="58107984" id="5554394009" lat="59.0419648" lon="11.0316762" timestamp="2018-04-15T11:29:54Z" uid="3095942" user="Øystein Bjørndal_import" version="1" />
	<node changeset="66853759" id="6253544858" lat="59.0588056" lon="11.009075" timestamp="2019-02-02T11:34:44Z" uid="633013" user="Honning" version="1">
		<tag k="name" v="Sandvad" />
		<tag k="place" v="farm" />
		<tag k="ssr:stedsnr" v="115792" />
	</node>
	<node changeset="66853759" id="6253544859" lat="59.0355306" lon="11.0542695" timestamp="2019-02-02T11:34:44Z" uid="633013" user="Honning" version="1">
		<tag k="name" v="Nygård" />
		<tag k="place" v="isolated_dwelling" />
		<tag k="ssr:stedsnr" v="851604" />
	</node>
	<node changeset="66853759" id="6253544860" lat="59.043625" lon="10.997" timestamp="2019-02-02T11:34:44Z" uid="633013" user="Honning" version="1">
		<tag k="name" v="Rød" />
		<tag k="place" v="hamlet" />
		<tag k="ssr:stedsnr" v="851622" />
	</node>
	<node changeset="66853759" id="6253544861" lat="59.0730972" lon="11.0680111" timestamp="2019-02-02T11:34:44Z" uid="633013" user="Honning" version="1">
		<tag k="alt_name" v="Stavseng;Stafseng;Stafsengen" />
		<tag k="loc_name" v="Stavsenga" />
		<tag k="name" v="Stavsengen" />
		<tag k="place" v="farm" />
		<tag k="ssr:stedsnr" v="119689" />
	</node>
	<node changeset="66853759" id="6253544862" lat="59.0976556" lon="10.9043361" timestamp="2019-02-02T11:34:44Z" uid="633013" user="Honning" version="1">
		<tag k="name" v="Lia" />
		<tag k="place" v="farm" />
		<tag k="ssr:stedsnr" v="122512" />
	</node>
	<node changeset="66853759" id="6253544863" lat="59.002175" lon="11.0780667" timestamp="2019-02-02T11:34:44Z" uid="633013" user="Honning" version="1">
		<tag k="alt_name" v="Stuevik;Stuvika" />
		<tag k="name" v="Stuevika" />
		<tag k="old_name" v="Stueviken" />
		<tag k="place" v="farm" />
		<tag k="ssr:stedsnr" v="122579" />
	</node>
	<node changeset="66853759" id="6253544864" lat="58.9956861" lon="11.0576722" timestamp="2019-02-02T11:34:44Z" uid="633013" user="Honning" version="1">
		<tag k="name" v="Tøfte" />
		<tag k="place" v="isolated_dwelling" />
		<tag k="ssr:stedsnr" v="872369" />
	</node>
	<node changeset="66853759" id="6253544865" lat="59.0754639" lon="10.9343556" timestamp="2019-02-02T11:34:44Z" uid="633013" user="Honning" version="1">
		<tag k="name" v="Strandbakken" />
		<tag k="place" v="farm" />
		<tag k="ssr:stedsnr" v="599158" />
	</node>
	<node changeset="66853759" id="6253544866" lat="59.0740639" lon="11.0638667" timestamp="2019-02-02T11:34:44Z" uid="633013" user="Honning" version="1">
		<tag k="name" v="Kviet" />
		<tag k="place" v="locality" />
		<tag k="ssr:stedsnr" v="872376" />
	</node>
	<node changeset="66853759" id="6253544867" lat="59.0608167" lon="11.0764583" timestamp="2019-02-02T11:34:44Z" uid="633013" user="Honning" version="1">
		<tag k="alt_name" v="Østli" />
		<tag k="name" v="Skottet" />
		<tag k="place" v="isolated_dwelling" />
		<tag k="ssr:stedsnr" v="872384" />
	</node>
	<node changeset="66853759" id="6253544868" lat="59.06485" lon="11.0489" timestamp="2019-02-02T11:34:45Z" uid="633013" user="Honning" version="1">
		<tag k="name" v="Kasa" />
		<tag k="place" v="farm" />
		<tag k="ssr:stedsnr" v="669537" />
	</node>
	<node changeset="66853759" id="6253544869" lat="59.0561944" lon="11.0708139" timestamp="2019-02-02T11:34:45Z" uid="633013" user="Honning" version="1">
		<tag k="name" v="Vesle Kjennvik" />
		<tag k="place" v="isolated_dwelling" />
		<tag k="ssr:stedsnr" v="872392" />
	</node>
	<node changeset="66853759" id="6253544870" lat="59.0642306" lon="10.9395139" timestamp="2019-02-02T11:34:45Z" uid="633013" user="Honning" version="1">
		<tag k="name" v="Allerød" />
		<tag k="place" v="farm" />
		<tag k="ssr:stedsnr" v="599692" />
	</node>
	<node changeset="66853759" id="6253544871" lat="59.101975" lon="11.1327" timestamp="2019-02-02T11:34:45Z" uid="633013" user="Honning" version="1">
		<tag k="alt_name" v="Skjærje" />
		<tag k="name" v="Skjerje" />
		<tag k="place" v="isolated_dwelling" />
		<tag k="ssr:stedsnr" v="122818" />
	</node>
	<node changeset="66853759" id="6253544872" lat="59.0750972" lon="11.0586194" timestamp="2019-02-02T11:34:45Z" uid="633013" user="Honning" version="1">
		<tag k="name" v="Kasene" />
		<tag k="place" v="locality" />
		<tag k="ssr:stedsnr" v="872374" />
	</node>
	<node changeset="66853759" id="6253544873" lat="59.0153778" lon="11.0669333" timestamp="2019-02-02T11:34:45Z" uid="633013" user="Honning" version="1">
		<tag k="alt_name" v="Negården" />
		<tag k="name" v="Nedgården" />
		<tag k="place" v="farm" />
		<tag k="ssr:stedsnr" v="304576" />
	</node>
	<node changeset="66853759" id="6253544874" lat="59.0818694" lon="10.940475" timestamp="2019-02-02T11:34:45Z" uid="633013" user="Honning" version="1">
		<tag k="name" v="Kålvika" />
		<tag k="place" v="farm" />
		<tag k="ssr:stedsnr" v="599978" />
	</node>
	<node changeset="66853759" id="6253544875" lat="59.1155611" lon="10.9010833" timestamp="2019-02-02T11:34:45Z" uid="633013" user="Honning" version="1">
		<tag k="name" v="Latangen" />
		<tag k="place" v="farm" />
		<tag k="ssr:stedsnr" v="600027" />
	</node>
	<node changeset="66853759" id="6253544876" lat="59.0970297" lon="10.9375978" timestamp="2019-02-02T11:34:45Z" uid="633013" user="Honning" version="1">
		<tag k="alt_name" v="Sydenga" />
		<tag k="name" v="Sydengen" />
		<tag k="place" v="neighbourhood" />
		<tag k="ssr:stedsnr" v="123582" />
	</node>
	<node changeset="66853759" id="6253544877" lat="59.0421083" lon="11.0095111" timestamp="2019-02-02T11:34:45Z" uid="633013" user="Honning" version="1">
		<tag k="name" v="Kitterød" />
		<tag k="place" v="farm" />
		<tag k="ssr:stedsnr" v="903593" />
	</node>
	<node changeset="66853759" id="6253544878" lat="59.0363611" lon="11.0116694" timestamp="2019-02-02T11:34:45Z" uid="633013" user="Honning" version="1">
		<tag k="name" v="Lammenes" />
		<tag k="place" v="farm" />
		<tag k="ssr:stedsnr" v="903715" />
	</node>
	<node changeset="66853759" id="6253544879" lat="59.1132944" lon="10.8921556" timestamp="2019-02-02T11:34:45Z" uid="633013" user="Honning" version="1">
		<tag k="name" v="Sandberg" />
		<tag k="place" v="isolated_dwelling" />
		<tag k="ssr:stedsnr" v="600392" />
	</node>
	<node changeset="66853759" id="6253544880" lat="59.0703528" lon="11.0474" timestamp="2019-02-02T11:34:45Z" uid="633013" user="Honning" version="1">
		<tag k="name" v="Kollekasene" />
		<tag k="place" v="farm" />
		<tag k="ssr:stedsnr" v="600419" />
	</node>
	<node changeset="66853759" id="6253544881" lat="59.0239889" lon="11.1007111" timestamp="2019-02-02T11:34:45Z" uid="633013" user="Honning" version="1">
		<tag k="name" v="Buvika" />
		<tag k="place" v="hamlet" />
		<tag k="ssr:stedsnr" v="244231" />
	</node>
	<node changeset="66853759" id="6253544882" lat="59.003325" lon="11.0833417" timestamp="2019-02-02T11:34:45Z" uid="633013" user="Honning" version="1">
		<tag k="alt_name" v="Kasa (Apelvik)" />
		<tag k="name" v="Kasa" />
		<tag k="place" v="isolated_dwelling" />
		<tag k="ssr:stedsnr" v="932322" />
	</node>
	<node changeset="66853759" id="6253544883" lat="59.1074159" lon="10.8563003" timestamp="2019-02-02T11:34:45Z" uid="633013" user="Honning" version="1">
		<tag k="alt_name" v="Tuten" />
		<tag k="name" v="Graffstua" />
		<tag k="place" v="farm" />
		<tag k="ssr:stedsnr" v="600655" />
	</node>
	<node changeset="66853759" id="6253544884" lat="59.0584806" lon="11.0647667" timestamp="2019-02-02T11:34:45Z" uid="633013" user="Honning" version="1">
		<tag k="name" v="Myra" />
		<tag k="place" v="farm" />
		<tag k="ssr:stedsnr" v="143331" />
	</node>
	<node changeset="58107984" id="5554394010" lat="59.0420462" lon="11.0315609" timestamp="2018-04-15T11:29:54Z" uid="3095942" user="Øystein Bjørndal_import" version="1" />
	<node changeset="66853759" id="6253544385" lat="59.0383444" lon="11.0290417" timestamp="2019-02-02T11:34:34Z" uid="633013" user="Honning" version="1">
		<tag k="loc_name" v="Grina" />
		<tag k="name" v="Grinda" />
		<tag k="place" v="farm" />
		<tag k="ssr:stedsnr" v="236574" />
	</node>
	<node changeset="66853759" id="6253544386" lat="59.0358194" lon="11.0095111" timestamp="2019-02-02T11:34:34Z" uid="633013" user="Honning" version="1">
		<tag k="name" v="Tangen" />
		<tag k="place" v="isolated_dwelling" />
		<tag k="ssr:stedsnr" v="236578" />
	</node>
	<node changeset="66853759" id="6253544387" lat="59.1174" lon="11.127025" timestamp="2019-02-02T11:34:34Z" uid="633013" user="Honning" version="1">
		<tag k="name" v="Løkka" />
		<tag k="place" v="isolated_dwelling" />
		<tag k="ssr:stedsnr" v="669851" />
	</node>
	<node changeset="66853759" id="6253544388" lat="59.0824139" lon="10.8968944" timestamp="2019-02-02T11:34:35Z" uid="633013" user="Honning" version="1">
		<tag k="name" v="Sekkevika" />
		<tag k="place" v="isolated_dwelling" />
		<tag k="ssr:stedsnr" v="660860" />
	</node>
	<node changeset="66853759" id="6253544389" lat="59.07325" lon="11.08775" timestamp="2019-02-02T11:34:35Z" uid="633013" user="Honning" version="1">
		<tag k="name" v="Ed" />
		<tag k="place" v="hamlet" />
		<tag k="ssr:stedsnr" v="669527" />
	</node>
	<node changeset="66853759" id="6253544390" lat="59.0571972" lon="10.9355972" timestamp="2019-02-02T11:34:35Z" uid="633013" user="Honning" version="1">
		<tag k="name" v="Huser" />
		<tag k="place" v="hamlet" />
		<tag k="ssr:stedsnr" v="669531" />
	</node>
	<node changeset="66853759" id="6253544391" lat="59.1144056" lon="10.8574889" timestamp="2019-02-02T11:34:35Z" uid="633013" user="Honning" version="1">
		<tag k="name" v="Husdalen" />
		<tag k="place" v="farm" />
		<tag k="ssr:stedsnr" v="357691" />
	</node>
	<node changeset="66853759" id="6253544392" lat="59.0804944" lon="11.0255778" timestamp="2019-02-02T11:34:35Z" uid="633013" user="Honning" version="1">
		<tag k="name" v="Dammyr" />
		<tag k="place" v="farm" />
		<tag k="ssr:stedsnr" v="486519" />
	</node>
	<node changeset="66853759" id="6253544393" lat="59.0736472" lon="11.080375" timestamp="2019-02-02T11:34:35Z" uid="633013" user="Honning" version="1">
		<tag k="name" v="Kolvika" />
		<tag k="place" v="farm" />
		<tag k="ssr:stedsnr" v="790540" />
	</node>
	<node changeset="66853759" id="6253544394" lat="59.1049972" lon="10.9049167" timestamp="2019-02-02T11:34:35Z" uid="633013" user="Honning" version="1">
		<tag k="alt_name" v="Ødegården" />
		<tag k="name" v="Øgarden" />
		<tag k="place" v="hamlet" />
		<tag k="ssr:stedsnr" v="669698" />
	</node>
	<node changeset="66853759" id="6253544395" lat="59.0578778" lon="10.9475278" timestamp="2019-02-02T11:34:35Z" uid="633013" user="Honning" version="1">
		<tag k="name" v="Nedre Skipstad" />
		<tag k="place" v="farm" />
		<tag k="ssr:stedsnr" v="296178" />
	</node>
	<node changeset="66853759" id="6253544396" lat="59.0092417" lon="11.0128194" timestamp="2019-02-02T11:34:35Z" uid="633013" user="Honning" version="1">
		<tag k="name" v="Sildebauen" />
		<tag k="place" v="isolated_dwelling" />
		<tag k="ssr:stedsnr" v="357939" />
	</node>
	<node changeset="66853759" id="6253544397" lat="59.0864667" lon="10.9004333" timestamp="2019-02-02T11:34:35Z" uid="633013" user="Honning" version="1">
		<tag k="name" v="Almvika" />
		<tag k="place" v="farm" />
		<tag k="ssr:stedsnr" v="357973" />
	</node>
	<node changeset="66853759" id="6253544398" lat="59.0815083" lon="11.0112583" timestamp="2019-02-02T11:34:35Z" uid="633013" user="Honning" version="1">
		<tag k="name" v="Brantemyr" />
		<tag k="place" v="farm" />
		<tag k="ssr:stedsnr" v="358001" />
	</node>
	<node changeset="66853759" id="6253544399" lat="59.0821472" lon="11.0847611" timestamp="2019-02-02T11:34:35Z" uid="633013" user="Honning" version="1">
		<tag k="name" v="Trøkkmot" />
		<tag k="place" v="isolated_dwelling" />
		<tag k="ssr:stedsnr" v="750369" />
	</node>
	<node changeset="66853759" id="6253544400" lat="59.0446778" lon="11.0349222" timestamp="2019-02-02T11:34:35Z" uid="633013" user="Honning" version="1">
		<tag k="name" v="Svanholm" />
		<tag k="place" v="farm" />
		<tag k="ssr:stedsnr" v="358531" />
	</node>
	<node changeset="66853759" id="6253544401" lat="59.0811056" lon="10.9554583" timestamp="2019-02-02T11:34:35Z" uid="633013" user="Honning" version="1">
		<tag k="name" v="Lineset" />
		<tag k="place" v="farm" />
		<tag k="ssr:stedsnr" v="479406" />
	</node>
	<node changeset="66853759" id="6253544402" lat="59.0687417" lon="11.0228806" timestamp="2019-02-02T11:34:35Z" uid="633013" user="Honning" version="1">
		<tag k="name" v="Oppegård" />
		<tag k="place" v="farm" />
		<tag k="ssr:stedsnr" v="479434" />
	</node>
	<node changeset="66853759" id="6253544403" lat="59.0173639" lon="11.105375" timestamp="2019-02-02T11:34:35Z" uid="633013" user="Honning" version="1">
		<tag k="name" v="Gjøkvika" />
		<tag k="place" v="isolated_dwelling" />
		<tag k="ssr:stedsnr" v="669204" />
	</node>
	<node changeset="66853759" id="6253544404" lat="59.066175" lon="11.0687528" timestamp="2019-02-02T11:34:35Z" uid="633013" user="Honning" version="1">
		<tag k="name" v="Kile" />
		<tag k="place" v="farm" />
		<tag k="ssr:stedsnr" v="690406" />
	</node>
	<node changeset="66853759" id="6253544405" lat="59.10225" lon="10.933875" timestamp="2019-02-02T11:34:35Z" uid="633013" user="Honning" version="1">
		<tag k="name" v="Myrvoll" />
		<tag k="place" v="isolated_dwelling" />
		<tag k="ssr:stedsnr" v="305717" />
	</node>
	<node changeset="66853759" id="6253544406" lat="59.0874972" lon="10.8847" timestamp="2019-02-02T11:34:35Z" uid="633013" user="Honning" version="1">
		<tag k="name" v="Nedre Utgård" />
		<tag k="old_name" v="Nedre Ultgård" />
		<tag k="place" v="farm" />
		<tag k="ssr:stedsnr" v="244579" />
	</node>
	<node changeset="66853759" id="6253544407" lat="59.0786889" lon="10.9971833" timestamp="2019-02-02T11:34:36Z" uid="633013" user="Honning" version="1">
		<tag k="name" v="Myra" />
		<tag k="place" v="farm" />
		<tag k="ssr:stedsnr" v="964427" />
	</node>
	<node changeset="66853759" id="6253544408" lat="59.0328972" lon="11.0378333" timestamp="2019-02-02T11:34:36Z" uid="633013" user="Honning" version="1">
		<tag k="name" v="Tjernet" />
		<tag k="place" v="farm" />
		<tag k="ssr:stedsnr" v="244651" />
	</node>
	<node changeset="66853759" id="6253544409" lat="59.0847306" lon="10.9443556" timestamp="2019-02-02T11:34:36Z" uid="633013" user="Honning" version="1">
		<tag k="name" v="Nordenga" />
		<tag k="place" v="farm" />
		<tag k="ssr:stedsnr" v="365563" />
	</node>
	<node changeset="66853759" id="6253544410" lat="59.0875444" lon="10.9236389" timestamp="2019-02-02T11:34:36Z" uid="633013" user="Honning" version="1">
		<tag k="name" v="Kasa" />
		<tag k="place" v="farm" />
		<tag k="ssr:stedsnr" v="660992" />
	</node>
	<node changeset="66853759" id="6253544411" lat="59.0455611" lon="11.0317667" timestamp="2019-02-02T11:34:36Z" uid="633013" user="Honning" version="1">
		<tag k="name" v="Svanekil" />
		<tag k="place" v="hamlet" />
		<tag k="ssr:stedsnr" v="184604" />
	</node>
	<node changeset="66853759" id="6253544412" lat="59.0212472" lon="11.0908222" timestamp="2019-02-02T11:34:36Z" uid="633013" user="Honning" version="1">
		<tag k="name" v="Gravningsund" />
		<tag k="place" v="farm" />
		<tag k="ssr:stedsnr" v="721539" />
	</node>
	<node changeset="66853759" id="6253544413" lat="59.0335083" lon="11.1063972" timestamp="2019-02-02T11:34:36Z" uid="633013" user="Honning" version="1">
		<tag k="alt_name" v="Kjerringklova" />
		<tag k="name" v="Klova" />
		<tag k="place" v="isolated_dwelling" />
		<tag k="ssr:stedsnr" v="366222" />
	</node>
	<node changeset="66853759" id="6253544414" lat="59.0500194" lon="11.0619361" timestamp="2019-02-02T11:34:36Z" uid="633013" user="Honning" version="1">
		<tag k="name" v="Stangeberget" />
		<tag k="place" v="isolated_dwelling" />
		<tag k="ssr:stedsnr" v="83380" />
	</node>
	<node changeset="66853759" id="6253544415" lat="59.0566444" lon="10.9362972" timestamp="2019-02-02T11:34:36Z" uid="633013" user="Honning" version="1">
		<tag k="alt_name" v="Huser nordre" />
		<tag k="name" v="Nordre Huser" />
		<tag k="place" v="farm" />
		<tag k="ssr:stedsnr" v="721875" />
	</node>
	<node changeset="66853759" id="6253544416" lat="59.0294028" lon="11.1007778" timestamp="2019-02-02T11:34:36Z" uid="633013" user="Honning" version="1">
		<tag k="name" v="Dalsberg" />
		<tag k="place" v="isolated_dwelling" />
		<tag k="ssr:stedsnr" v="669206" />
	</node>
	<node changeset="66853759" id="6253544417" lat="59.0915472" lon="10.8754194" timestamp="2019-02-02T11:34:36Z" uid="633013" user="Honning" version="1">
		<tag k="name" v="Gåsebakke" />
		<tag k="place" v="isolated_dwelling" />
		<tag k="ssr:stedsnr" v="904873" />
	</node>
	<node changeset="66853759" id="6253544418" lat="59.0689083" lon="11.0528611" timestamp="2019-02-02T11:34:36Z" uid="633013" user="Honning" version="1">
		<tag k="name" v="Limilen" />
		<tag k="place" v="farm" />
		<tag k="ssr:stedsnr" v="851503" />
	</node>
	<node changeset="66853759" id="6253544419" lat="58.9923944" lon="11.0531611" timestamp="2019-02-02T11:34:36Z" uid="633013" user="Honning" version="1">
		<tag k="name" v="Langrøset" />
		<tag k="place" v="locality" />
		<tag k="ssr:stedsnr" v="265362" />
	</node>
	<node changeset="66853759" id="6253544855" lat="59.0736639" lon="11.0470722" timestamp="2019-02-02T11:34:44Z" uid="633013" user="Honning" version="1">
		<tag k="alt_name" v="Øgårdene" />
		<tag k="name" v="Ødegårdene" />
		<tag k="place" v="farm" />
		<tag k="ssr:stedsnr" v="729504" />
	</node>
	<node changeset="66853759" id="6253544421" lat="59.0052889" lon="11.0725028" timestamp="2019-02-02T11:34:36Z" uid="633013" user="Honning" version="1">
		<tag k="name" v="Sandø-Rød" />
		<tag k="place" v="farm" />
		<tag k="ssr:stedsnr" v="386321" />
	</node>
	<node changeset="66853759" id="6253544422" lat="59.0639944" lon="11.0058194" timestamp="2019-02-02T11:34:36Z" uid="633013" user="Honning" version="1">
		<tag k="name" v="Berget" />
		<tag k="place" v="isolated_dwelling" />
		<tag k="ssr:stedsnr" v="722411" />
	</node>
	<node changeset="66853759" id="6253544423" lat="59.0588639" lon="11.0769861" timestamp="2019-02-02T11:34:36Z" uid="633013" user="Honning" version="1">
		<tag k="name" v="Stensvik" />
		<tag k="place" v="farm" />
		<tag k="ssr:stedsnr" v="386357" />
	</node>
	<node changeset="66853759" id="6253544424" lat="58.991825" lon="11.0533528" timestamp="2019-02-02T11:34:36Z" uid="633013" user="Honning" version="1">
		<tag k="name" v="Tårnebakken" />
		<tag k="place" v="locality" />
		<tag k="ssr:stedsnr" v="386877" />
	</node>
	<node changeset="66853759" id="6253544425" lat="59.0360833" lon="11.0574583" timestamp="2019-02-02T11:34:37Z" uid="633013" user="Honning" version="1">
		<tag k="name" v="Havna" />
		<tag k="place" v="farm" />
		<tag k="ssr:stedsnr" v="387395" />
	</node>
	<node changeset="66853759" id="6253544426" lat="59.0523972" lon="11.0282833" timestamp="2019-02-02T11:34:37Z" uid="633013" user="Honning" version="1">
		<tag k="name" v="Sandbrekke" />
		<tag k="place" v="farm" />
		<tag k="ssr:stedsnr" v="722997" />
	</node>
	<node changeset="66853759" id="6253544427" lat="58.9816889" lon="10.9571639" timestamp="2019-02-02T11:34:37Z" uid="633013" user="Honning" version="1">
		<tag k="name" v="Enga" />
		<tag k="place" v="isolated_dwelling" />
		<tag k="ssr:stedsnr" v="357089" />
	</node>
	<node changeset="66853759" id="6253544428" lat="59.0107167" lon="11.0708583" timestamp="2019-02-02T11:34:37Z" uid="633013" user="Honning" version="1">
		<tag k="name" v="Skjelleren" />
		<tag k="place" v="isolated_dwelling" />
		<tag k="ssr:stedsnr" v="668580" />
	</node>
	<node changeset="66853759" id="6253544429" lat="59.0819444" lon="10.8735694" timestamp="2019-02-02T11:34:37Z" uid="633013" user="Honning" version="1">
		<tag k="name" v="Bekkevika" />
		<tag k="place" v="isolated_dwelling" />
		<tag k="ssr:stedsnr" v="843860" />
	</node>
	<node changeset="66853759" id="6253544430" lat="59.052375" lon="10.947025" timestamp="2019-02-02T11:34:37Z" uid="633013" user="Honning" version="1">
		<tag k="name" v="Øvre Skipstad" />
		<tag k="place" v="farm" />
		<tag k="ssr:stedsnr" v="478191" />
	</node>
	<node changeset="66853759" id="6253544431" lat="59.0842194" lon="10.8783889" timestamp="2019-02-02T11:34:37Z" uid="633013" user="Honning" version="1">
		<tag k="name" v="Øvre Utgård" />
		<tag k="old_name" v="Øvre Ultgård" />
		<tag k="place" v="hamlet" />
		<tag k="ssr:stedsnr" v="729534" />
	</node>
	<node changeset="66853759" id="6253544432" lat="59.0137778" lon="11.0726722" timestamp="2019-02-02T11:34:37Z" uid="633013" user="Honning" version="1">
		<tag k="name" v="Løkkeberg" />
		<tag k="place" v="farm" />
		<tag k="ssr:stedsnr" v="729564" />
	</node>
	<node changeset="66853759" id="6253544433" lat="59.112125" lon="10.8568" timestamp="2019-02-02T11:34:37Z" uid="633013" user="Honning" version="1">
		<tag k="name" v="Løkkeberg" />
		<tag k="place" v="farm" />
		<tag k="ssr:stedsnr" v="729712" />
	</node>
	<node changeset="66853759" id="6253544434" lat="59.1099111" lon="10.893225" timestamp="2019-02-02T11:34:37Z" uid="633013" user="Honning" version="1">
		<tag k="name" v="Nordenga" />
		<tag k="place" v="farm" />
		<tag k="ssr:stedsnr" v="729727" />
	</node>
	<node changeset="66853759" id="6253544435" lat="59.0947917" lon="10.9328083" timestamp="2019-02-02T11:34:37Z" uid="633013" user="Honning" version="1">
		<tag k="name" v="Nepegravningen" />
		<tag k="place" v="farm" />
		<tag k="ssr:stedsnr" v="236525" />
	</node>
	<node changeset="66853759" id="6253544436" lat="59.0413" lon="11.0065722" timestamp="2019-02-02T11:34:37Z" uid="633013" user="Honning" version="1">
		<tag k="name" v="Nordre Bøbakke" />
		<tag k="place" v="farm" />
		<tag k="ssr:stedsnr" v="478630" />
	</node>
	<node changeset="66853759" id="6253544437" lat="59.0882444" lon="10.9146" timestamp="2019-02-02T11:34:37Z" uid="633013" user="Honning" version="1">
		<tag k="name" v="Gunnersenga" />
		<tag k="place" v="farm" />
		<tag k="ssr:stedsnr" v="418499" />
	</node>
	<node changeset="66853759" id="6253544438" lat="59.0419583" lon="10.9649139" timestamp="2019-02-02T11:34:37Z" uid="633013" user="Honning" version="1">
		<tag k="alt_name" v="Vassgarden" />
		<tag k="name" v="Vassgaren" />
		<tag k="place" v="farm" />
		<tag k="ssr:stedsnr" v="418554" />
	</node>
	<node changeset="66853759" id="6253544439" lat="59.0293389" lon="10.9923861" timestamp="2019-02-02T11:34:37Z" uid="633013" user="Honning" version="1">
		<tag k="name" v="Rødshuet" />
		<tag k="place" v="farm" />
		<tag k="ssr:stedsnr" v="478740" />
	</node>
	<node changeset="66853759" id="6253544440" lat="59.0819028" lon="10.9489944" timestamp="2019-02-02T11:34:37Z" uid="633013" user="Honning" version="1">
		<tag k="name" v="Neset" />
		<tag k="place" v="isolated_dwelling" />
		<tag k="ssr:stedsnr" v="478864" />
	</node>
	<node changeset="66853759" id="6253544441" lat="59.077725" lon="10.8603" timestamp="2019-02-02T11:34:37Z" uid="633013" user="Honning" version="1">
		<tag k="name" v="Kasa" />
		<tag k="place" v="farm" />
		<tag k="ssr:stedsnr" v="183511" />
	</node>
	<node changeset="66853759" id="6253544442" lat="59.1065889" lon="10.8788972" timestamp="2019-02-02T11:34:37Z" uid="633013" user="Honning" version="1">
		<tag k="name" v="Neset" />
		<tag k="place" v="isolated_dwelling" />
		<tag k="ssr:stedsnr" v="418647" />
	</node>
	<node changeset="66853759" id="6253544443" lat="59.0832944" lon="10.9401028" timestamp="2019-02-02T11:34:37Z" uid="633013" user="Honning" version="1">
		<tag k="name" v="Kalveklova" />
		<tag k="place" v="farm" />
		<tag k="ssr:stedsnr" v="478995" />
	</node>
	<node changeset="66853759" id="6253544444" lat="59.1142472" lon="10.8542139" timestamp="2019-02-02T11:34:38Z" uid="633013" user="Honning" version="1">
		<tag k="name" v="Bukta" />
		<tag k="place" v="isolated_dwelling" />
		<tag k="ssr:stedsnr" v="418667" />
	</node>
	<node changeset="66853759" id="6253544445" lat="59.1068417" lon="10.8449417" timestamp="2019-02-02T11:34:38Z" uid="633013" user="Honning" version="1">
		<tag k="name" v="Finskjærbukta" />
		<tag k="place" v="isolated_dwelling" />
		<tag k="ssr:stedsnr" v="600650" />
	</node>
	<node changeset="66853759" id="6253544446" lat="59.1041472" lon="10.8755972" timestamp="2019-02-02T11:34:38Z" uid="633013" user="Honning" version="1">
		<tag k="name" v="Haugeli" />
		<tag k="place" v="farm" />
		<tag k="ssr:stedsnr" v="730747" />
	</node>
	<node changeset="66853759" id="6253544447" lat="58.995875" lon="11.0437222" timestamp="2019-02-02T11:34:38Z" uid="633013" user="Honning" version="1">
		<tag k="name" v="Rognhavn" />
		<tag k="place" v="farm" />
		<tag k="ssr:stedsnr" v="418895" />
	</node>
	<way changeset="58107984" id="580130411" timestamp="2018-04-15T11:29:54Z" uid="3095942" user="Øystein Bjørndal_import" version="1">
		<tag k="building" v="house" />
		<tag k="name" v="Brekke" />
		<tag k="ssr:stedsnr" v="184622" />
		<nd ref="5554394010" />
		<nd ref="5554394009" />
		<nd ref="5554394008" />
		<nd ref="5554394007" />
		<nd ref="5554394010" />
	</way>
</osm>
