<?xml version="1.0" encoding="UTF-8"?>
<osm version="0.6" generator="osmapis">
	<node lat="59.28852222575559" lon="9.205069445353676" id="-51539">
		<tag k="amenity" v="nursing_home" />
		<tag k="name" v="Dagsrudheimen" />
		<tag k="ssr:stedsnr" v="2129" />
	</node>
	<node lat="59.32896388998547" lon="9.08343610469814" id="-51540">
		<tag k="fixme" v="consider place=hamlet" />
		<tag k="name" v="Østerholt" />
		<tag k="place" v="farm" />
		<tag k="ssr:stedsnr" v="2204" />
	</node>
	<node lat="59.31914722606761" lon="9.034122229403449" id="-51541">
		<tag k="name" v="Brattekås" />
		<tag k="place" v="farm" />
		<tag k="ssr:stedsnr" v="2211" />
	</node>
	<node lat="59.27501388955018" lon="9.338280564040668" id="-51544">
		<tag k="alt_name" v="Kåsa, nedre" />
		<tag k="name" v="Nedre Kåsa" />
		<tag k="place" v="farm" />
		<tag k="ssr:stedsnr" v="2709" />
	</node>
	<node lat="59.26588055276269" lon="9.359980547824906" id="-51545">
		<tag k="alt_name" v="Bø, store;Storebø;Bø" />
		<tag k="fixme" v="consider place=hamlet" />
		<tag k="name" v="Store Bø" />
		<tag k="place" v="farm" />
		<tag k="ssr:stedsnr" v="2716" />
	</node>
	<node lat="59.27080000288061" lon="9.259463887675626" id="-51546">
		<tag k="name" v="Kås" />
		<tag k="place" v="farm" />
		<tag k="ssr:stedsnr" v="2720" />
	</node>
	<node lat="59.265091667401315" lon="9.290844449972715" id="-51547">
		<tag k="alt_name" v="Vipeto, midtre;Vibeto mellom" />
		<tag k="fixme" v="consider place=hamlet" />
		<tag k="name" v="Mellom Vibeto" />
		<tag k="place" v="farm" />
		<tag k="ssr:stedsnr" v="2723" />
	</node>
	<node lat="59.29868888844003" lon="9.269877770590792" id="-51548">
		<tag k="fixme" v="consider place=hamlet" />
		<tag k="name" v="Romnes" />
		<tag k="place" v="farm" />
		<tag k="ssr:stedsnr" v="2780" />
	</node>
	<node lat="59.207733333748784" lon="9.2880527760134" id="-51549">
		<tag k="name" v="Stuverud" />
		<tag k="place" v="isolated_dwelling" />
		<tag k="ssr:stedsnr" v="2912" />
	</node>
	<node lat="59.25783356193072" lon="9.353531369890899" id="-51561">
		<tag k="name" v="Jakopskås" />
		<tag k="place" v="farm" />
		<tag k="ssr:stedsnr" v="25276" />
	</node>
	<node lat="59.25889444787807" lon="9.393908328930502" id="-51563">
		<tag k="name" v="Olsbryggstua" />
		<tag k="place" v="isolated_dwelling" />
		<tag k="ssr:stedsnr" v="25282" />
	</node>
	<node lat="59.230477778163056" lon="9.394091669663403" id="-51565">
		<tag k="name" v="Hagen" />
		<tag k="place" v="farm" />
		<tag k="ssr:stedsnr" v="25426" />
	</node>
	<node lat="59.227133329095345" lon="9.353144447002117" id="-51567">
		<tag k="name" v="Tjønnekåsa" />
		<tag k="place" v="locality" />
		<tag k="ssr:stedsnr" v="25475" />
	</node>
	<node lat="59.362313890937074" lon="9.078313885914838" id="-51569">
		<tag k="name" v="Kåsine" />
		<tag k="place" v="isolated_dwelling" />
		<tag k="ssr:stedsnr" v="25585" />
	</node>
	<node lat="59.33519444431847" lon="9.078413897613641" id="-51570">
		<tag k="name" v="Haug" />
		<tag k="place" v="farm" />
		<tag k="ssr:stedsnr" v="25709" />
	</node>
	<node lat="59.35009722360167" lon="9.091158339218019" id="-51578">
		<tag k="fixme" v="consider place=hamlet" />
		<tag k="name" v="Søndre Norem" />
		<tag k="place" v="farm" />
		<tag k="ssr:stedsnr" v="37172" />
	</node>
	<node lat="59.28989149582854" lon="9.062158068541397" id="-51597">
		<tag k="name" v="Kleppe" />
		<tag k="place" v="farm" />
		<tag k="ssr:stedsnr" v="55423" />
	</node>
	<node lat="59.276947225530655" lon="9.256938896007105" id="-51607">
		<tag k="name" v="Haugjordet" />
		<tag k="place" v="quarter" />
		<tag k="ssr:stedsnr" v="56919" />
	</node>
	<node lat="59.222197225733055" lon="9.179772227690139" id="-51611">
		<tag k="alt_name" v="Hegland" />
		<tag k="name" v="Heggland" />
		<tag k="place" v="farm" />
		<tag k="ssr:stedsnr" v="62416" />
	</node>
	<node lat="59.26849168611571" lon="9.132160069126908" id="-51613">
		<tag k="name" v="Tyri" />
		<tag k="place" v="farm" />
		<tag k="ssr:stedsnr" v="63115" />
	</node>
	<node lat="59.35113332944417" lon="9.085480559153222" id="-51616">
		<tag k="name" v="Norem" />
		<tag k="place" v="hamlet" />
		<tag k="ssr:stedsnr" v="63286" />
	</node>
	<node lat="59.297261115026295" lon="9.082500000361502" id="-51617">
		<tag k="alt_name" v="Kåsene" />
		<tag k="name" v="Kåsine" />
		<tag k="place" v="farm" />
		<tag k="ssr:stedsnr" v="63165" />
	</node>
	<node lat="59.30617499665209" lon="9.16892777392904" id="-51619">
		<tag k="name" v="Apalnes" />
		<tag k="place" v="farm" />
		<tag k="ssr:stedsnr" v="63173" />
	</node>
	<node lat="59.30414166383061" lon="9.213155552431722" id="-51621">
		<tag k="name" v="Kåsa" />
		<tag k="place" v="farm" />
		<tag k="ssr:stedsnr" v="63176" />
	</node>
	<node lat="59.26752499613732" lon="9.250177779236296" id="-51622">
		<tag k="alt_name" v="Espevollen, øvre" />
		<tag k="fixme" v="multiple name tags, choose one and add the other to alt_name" />
		<tag k="name" v="Espevalen;Øvre Espevollen" />
		<tag k="place" v="farm" />
		<tag k="ssr:stedsnr" v="63715" />
	</node>
	<node lat="59.26810277824455" lon="9.326711114649259" id="-51623">
		<tag k="alt_name" v="Namnlaus;Søndre Namløs" />
		<tag k="fixme" v="consider place=hamlet" />
		<tag k="name" v="Namløs" />
		<tag k="place" v="farm" />
		<tag k="ssr:stedsnr" v="63721" />
	</node>
	<node lat="59.21621666286585" lon="9.091455552809327" id="-51624">
		<tag k="name" v="Vinterholet" />
		<tag k="place" v="isolated_dwelling" />
		<tag k="ssr:stedsnr" v="244416" />
	</node>
	<node lat="59.28847818244583" lon="9.180433076406405" id="-51625">
		<tag k="name" v="Storhaug" />
		<tag k="place" v="farm" />
		<tag k="ssr:stedsnr" v="245131" />
	</node>
	<node lat="59.22714444061331" lon="9.408463881546423" id="-51627">
		<tag k="fixme" v="consider place=hamlet" />
		<tag k="name" v="Skjørholt" />
		<tag k="place" v="farm" />
		<tag k="ssr:stedsnr" v="244935" />
	</node>
	<node lat="59.29402499979011" lon="9.120341669758304" id="-51635">
		<tag k="name" v="Bjervamoen" />
		<tag k="place" v="farm" />
		<tag k="ssr:stedsnr" v="245139" />
	</node>
	<node lat="59.303769444470234" lon="9.177491668860512" id="-51638">
		<tag k="name" v="Kåsa" />
		<tag k="place" v="farm" />
		<tag k="ssr:stedsnr" v="245159" />
	</node>
	<node lat="59.31601666920654" lon="8.966486107102398" id="-51642">
		<tag k="name" v="Kårstein" />
		<tag k="place" v="farm" />
		<tag k="ssr:stedsnr" v="245189" />
	</node>
	<node lat="59.329669448579374" lon="9.11048889509448" id="-51645">
		<tag k="alt_name" v="Øvre Helgetveit" />
		<tag k="fixme" v="consider place=hamlet" />
		<tag k="name" v="Helgetveit" />
		<tag k="place" v="farm" />
		<tag k="ssr:stedsnr" v="245218" />
	</node>
	<node lat="59.3262000020139" lon="8.951288893488044" id="-51653">
		<tag k="name" v="Haugland" />
		<tag k="place" v="locality" />
		<tag k="ssr:stedsnr" v="85035" />
	</node>
	<node lat="59.35138333727694" lon="9.101155556196217" id="-51657">
		<tag k="name" v="Brekka" />
		<tag k="place" v="isolated_dwelling" />
		<tag k="ssr:stedsnr" v="85623" />
	</node>
	<node lat="59.342072222696956" lon="9.058974993788292" id="-51661">
		<tag k="name" v="Suvdal" />
		<tag k="place" v="farm" />
		<tag k="ssr:stedsnr" v="245264" />
	</node>
	<node lat="59.25885000216258" lon="9.392505550516889" id="-51664">
		<tag k="name" v="Olsbrygge" />
		<tag k="place" v="farm" />
		<tag k="ssr:stedsnr" v="86289" />
	</node>
	<node lat="59.24589444863182" lon="9.373986105032207" id="-51665">
		<tag k="fixme" v="consider place=hamlet" />
		<tag k="name" v="Værstad" />
		<tag k="place" v="farm" />
		<tag k="ssr:stedsnr" v="86423" />
	</node>
	<node lat="59.32975833180011" lon="9.091147220070908" id="-51666">
		<tag k="name" v="Svenseid" />
		<tag k="place" v="farm" />
		<tag k="ssr:stedsnr" v="86771" />
	</node>
	<node lat="59.279208334208334" lon="9.296524994223622" id="-51667">
		<tag k="name" v="Skippervoll" />
		<tag k="place" v="farm" />
		<tag k="ssr:stedsnr" v="245668" />
	</node>
	<node lat="59.27651111117428" lon="9.323755563711055" id="-51668">
		<tag k="name" v="Namnlaushagen" />
		<tag k="place" v="farm" />
		<tag k="ssr:stedsnr" v="245670" />
	</node>
	<node lat="59.3270416660922" lon="9.252022219025143" id="-51670">
		<tag k="name" v="Sandnes" />
		<tag k="place" v="farm" />
		<tag k="ssr:stedsnr" v="87716" />
	</node>
	<node lat="59.290706312411935" lon="9.257042533322357" id="-51671">
		<tag k="name" v="Kastet" />
		<tag k="place" v="farm" />
		<tag k="ssr:stedsnr" v="245684" />
	</node>
	<node lat="59.27336666407414" lon="9.331297225359576" id="-51672">
		<tag k="name" v="Febakke" />
		<tag k="place" v="farm" />
		<tag k="ssr:stedsnr" v="245688" />
	</node>
	<node lat="59.27484722009045" lon="9.361769452707717" id="-51673">
		<tag k="name" v="Grønstein" />
		<tag k="place" v="farm" />
		<tag k="ssr:stedsnr" v="245699" />
	</node>
	<node lat="59.276047221581045" lon="9.292288881757857" id="-51677">
		<tag k="name" v="Søveborgen" />
		<tag k="place" v="farm" />
		<tag k="ssr:stedsnr" v="101162" />
	</node>
	<node lat="59.27692222000222" lon="9.102150003133453" id="-51687">
		<tag k="name" v="Holte" />
		<tag k="place" v="farm" />
		<tag k="ssr:stedsnr" v="116379" />
	</node>
	<node lat="59.28393055850317" lon="9.253722215934252" id="-51691">
		<tag k="building" v="commercial" />
		<tag k="name" v="Sagene" />
		<tag k="ssr:stedsnr" v="117122" />
	</node>
	<node lat="59.27481388575499" lon="9.238266659345772" id="-51692">
		<tag k="name" v="Heimdal" />
		<tag k="place" v="farm" />
		<tag k="ssr:stedsnr" v="117905" />
	</node>
	<node lat="59.270563887097694" lon="9.264452771211042" id="-51693">
		<tag k="name" v="Lindgrenhaugen" />
		<tag k="place" v="quarter" />
		<tag k="ssr:stedsnr" v="117906" />
	</node>
	<node lat="59.244058329809455" lon="9.13002777848602" id="-51694">
		<tag k="name" v="England" />
		<tag k="place" v="isolated_dwelling" />
		<tag k="ssr:stedsnr" v="122406" />
	</node>
	<node lat="59.31256388722303" lon="9.079183336568935" id="-51696">
		<tag k="name" v="Bleka" />
		<tag k="place" v="farm" />
		<tag k="ssr:stedsnr" v="123212" />
	</node>
	<node lat="59.314974999353765" lon="8.972544444911009" id="-51697">
		<tag k="alt_name" v="Ullsnes" />
		<tag k="name" v="Ulsnes" />
		<tag k="place" v="farm" />
		<tag k="ssr:stedsnr" v="123225" />
	</node>
	<node lat="59.27478806785196" lon="9.12068654794168" id="-51702">
		<tag k="name" v="Lia" />
		<tag k="place" v="farm" />
		<tag k="ssr:stedsnr" v="123107" />
	</node>
	<node lat="59.30594722122355" lon="9.103594449395207" id="-51706">
		<tag k="building" v="industrial" />
		<tag k="industrial" v="factory" />
		<tag k="name" v="Brustad" />
		<tag k="ssr:stedsnr" v="123188" />
	</node>
	<node lat="59.21738055741264" lon="9.26491667536216" id="-51709">
		<tag k="alt_name" v="Røyrbekk" />
		<tag k="name" v="Røybekk" />
		<tag k="place" v="farm" />
		<tag k="ssr:stedsnr" v="123926" />
	</node>
	<node lat="59.29530796231126" lon="9.110510306114186" id="-51710">
		<tag k="fixme" v="consider place=hamlet" />
		<tag k="name" v="Bjerva" />
		<tag k="place" v="farm" />
		<tag k="ssr:stedsnr" v="124118" />
	</node>
	<node lat="59.29066997211314" lon="9.124044519860892" id="-51711">
		<tag k="name" v="Åsen" />
		<tag k="place" v="farm" />
		<tag k="ssr:stedsnr" v="124119" />
	</node>
	<node lat="59.26492500032024" lon="9.345124998311181" id="-51712">
		<tag k="fixme" v="consider place=hamlet" />
		<tag k="name" v="Hvala" />
		<tag k="place" v="farm" />
		<tag k="ssr:stedsnr" v="124563" />
	</node>
	<node lat="59.275833333530905" lon="9.292530557832885" id="-51713">
		<tag k="name" v="Borgen" />
		<tag k="place" v="farm" />
		<tag k="ssr:stedsnr" v="124633" />
	</node>
	<node lat="59.29642001665681" lon="8.84545201763294" id="-51715">
		<tag k="name" v="Grimnes" />
		<tag k="place" v="locality" />
		<tag k="ssr:stedsnr" v="252642" />
	</node>
	<node lat="59.32534722577552" lon="9.004691668230022" id="-51716">
		<tag k="name" v="Solheim" />
		<tag k="place" v="farm" />
		<tag k="ssr:stedsnr" v="144359" />
	</node>
	<node lat="59.32493611130764" lon="9.111197219640484" id="-51724">
		<tag k="name" v="Leikvoll" />
		<tag k="place" v="farm" />
		<tag k="ssr:stedsnr" v="145767" />
	</node>
	<node lat="59.32251667002351" lon="9.118469450909515" id="-51726">
		<tag k="name" v="Lunden" />
		<tag k="place" v="isolated_dwelling" />
		<tag k="ssr:stedsnr" v="146084" />
	</node>
	<node lat="59.371008334570526" lon="9.117255562294517" id="-51731">
		<tag k="name" v="Brånastul" />
		<tag k="place" v="locality" />
		<tag k="ssr:stedsnr" v="146818" />
	</node>
	<node lat="59.27583888636527" lon="9.347869448211215" id="-51732">
		<tag k="name" v="Halverstå" />
		<tag k="place" v="farm" />
		<tag k="ssr:stedsnr" v="148702" />
	</node>
	<node lat="59.31041666359499" lon="9.207250002192234" id="-51734">
		<tag k="name" v="Lauvbukta" />
		<tag k="place" v="farm" />
		<tag k="ssr:stedsnr" v="148722" />
	</node>
	<node lat="59.29493055267346" lon="9.209019440766202" id="-51736">
		<tag k="name" v="Eie østre" />
		<tag k="place" v="farm" />
		<tag k="ssr:stedsnr" v="148775" />
	</node>
	<node lat="59.2754833293379" lon="9.337705561548908" id="-51737">
		<tag k="name" v="Nedre Kåsa" />
		<tag k="place" v="farm" />
		<tag k="ssr:stedsnr" v="162123" />
	</node>
	<node lat="59.276819447490574" lon="9.337883327019895" id="-51738">
		<tag k="name" v="Kollekovan" />
		<tag k="place" v="farm" />
		<tag k="ssr:stedsnr" v="162124" />
	</node>
	<node lat="59.28546666588232" lon="9.115644445891014" id="-51744">
		<tag k="name" v="Skogheim" />
		<tag k="place" v="farm" />
		<tag k="ssr:stedsnr" v="177471" />
	</node>
	<node lat="59.24573611476753" lon="9.11419444472729" id="-51750">
		<tag k="fixme" v="multiple name tags, choose one and add the other to alt_name" />
		<tag k="name" v="Smørbu;Smørbustua" />
		<tag k="place" v="isolated_dwelling" />
		<tag k="ssr:stedsnr" v="183352" />
	</node>
	<node lat="59.32187777744899" lon="9.013411111261467" id="-51757">
		<tag k="alt_name" v="Sundbø;Sundbø nedre" />
		<tag k="name" v="Nedre Sundbø" />
		<tag k="place" v="farm" />
		<tag k="ssr:stedsnr" v="184216" />
	</node>
	<node lat="59.32478611202404" lon="8.98065277508517" id="-51758">
		<tag k="alt_name" v="Flåm;Flom søndre" />
		<tag k="name" v="Søndre Flom" />
		<tag k="place" v="farm" />
		<tag k="ssr:stedsnr" v="184219" />
	</node>
	<node lat="59.30189444217058" lon="9.117772219564811" id="-51763">
		<tag k="name" v="Lundefaret" />
		<tag k="place" v="farm" />
		<tag k="ssr:stedsnr" v="184142" />
	</node>
	<node lat="59.299925000553806" lon="9.16998332595597" id="-51765">
		<tag k="name" v="Fossheim" />
		<tag k="place" v="farm" />
		<tag k="ssr:stedsnr" v="184148" />
	</node>
	<node lat="59.31766111390618" lon="9.12465277855676" id="-51768">
		<tag k="name" v="Hellestad" />
		<tag k="place" v="farm" />
		<tag k="ssr:stedsnr" v="184199" />
	</node>
	<node lat="59.319455559197586" lon="9.128133325715858" id="-51769">
		<tag k="name" v="Bjørndalen" />
		<tag k="place" v="farm" />
		<tag k="ssr:stedsnr" v="184201" />
	</node>
	<node lat="59.276622224527685" lon="9.27007777060152" id="-51771">
		<tag k="name" v="Kåsene" />
		<tag k="place" v="farm" />
		<tag k="ssr:stedsnr" v="184689" />
	</node>
	<node lat="59.25645555636944" lon="9.372061109247246" id="-51773">
		<tag k="fixme" v="consider place=hamlet" />
		<tag k="name" v="Ytterbø" />
		<tag k="place" v="farm" />
		<tag k="ssr:stedsnr" v="191626" />
	</node>
	<node lat="59.37505833166712" lon="9.054811108703932" id="-51776">
		<tag k="building" v="industrial" />
		<tag k="industrial" v="factory" />
		<tag k="name" v="Tjønnås torvstrøfabrikk" />
		<tag k="ssr:stedsnr" v="267378" />
	</node>
	<node lat="59.29838610775813" lon="9.105697218580474" id="-51780">
		<tag k="fixme" v="consider place=suburb, village or hamlet" />
		<tag k="name" v="Bjervamoen" />
		<tag k="place" v="quarter" />
		<tag k="ssr:stedsnr" v="267064" />
	</node>
	<node lat="59.2651944469809" lon="9.32272222799148" id="-51783">
		<tag k="name" v="Namløs" />
		<tag k="place" v="farm" />
		<tag k="ssr:stedsnr" v="267190" />
	</node>
	<node lat="59.29935555112735" lon="9.056647226999377" id="-51784">
		<tag k="fixme" v="consider place=hamlet" />
		<tag k="name" v="Verpe" />
		<tag k="place" v="farm" />
		<tag k="ssr:stedsnr" v="267195" />
	</node>
	<node lat="59.357308335500875" lon="9.062347224973804" id="-51786">
		<tag k="building" v="commercial" />
		<tag k="name" v="Astro" />
		<tag k="ssr:stedsnr" v="267550" />
	</node>
	<node lat="59.3272777805214" lon="9.112722227327032" id="-51787">
		<tag k="name" v="Leikvoll" />
		<tag k="place" v="farm" />
		<tag k="ssr:stedsnr" v="267757" />
	</node>
	<node lat="59.32116388522892" lon="9.109886117169253" id="-51788">
		<tag k="name" v="Slåttahaugen" />
		<tag k="place" v="farm" />
		<tag k="ssr:stedsnr" v="267764" />
	</node>
	<node lat="59.258488891762745" lon="9.348855551354273" id="-51793">
		<tag k="name" v="Kleivsgate" />
		<tag k="place" v="farm" />
		<tag k="ssr:stedsnr" v="268259" />
	</node>
	<node lat="59.323455559914436" lon="9.000391671033311" id="-51795">
		<tag k="name" v="Tangen" />
		<tag k="place" v="farm" />
		<tag k="ssr:stedsnr" v="206077" />
	</node>
	<node lat="59.34899722494692" lon="9.056644440937283" id="-51800">
		<tag k="name" v="Dalen" />
		<tag k="place" v="farm" />
		<tag k="ssr:stedsnr" v="206345" />
	</node>
	<node lat="59.268058331718514" lon="9.362261112567825" id="-51803">
		<tag k="name" v="Omtvedt" />
		<tag k="place" v="farm" />
		<tag k="ssr:stedsnr" v="207244" />
	</node>
	<node lat="59.25562777515565" lon="9.359311102941712" id="-51804">
		<tag k="amenity" v="school" />
		<tag k="name" v="Helgen skole" />
		<tag k="ssr:stedsnr" v="207283" />
	</node>
	<node lat="59.329327777216214" lon="9.099061104138636" id="-51806">
		<tag k="name" v="Huset" />
		<tag k="place" v="farm" />
		<tag k="ssr:stedsnr" v="268764" />
	</node>
	<node lat="59.23224999793625" lon="9.388941660662795" id="-51807">
		<tag k="name" v="Tinholt" />
		<tag k="place" v="farm" />
		<tag k="ssr:stedsnr" v="207396" />
	</node>
	<node lat="59.34403332973895" lon="9.077205555137285" id="-51808">
		<tag k="name" v="Skogheim" />
		<tag k="place" v="farm" />
		<tag k="ssr:stedsnr" v="207623" />
	</node>
	<node lat="59.33723333575174" lon="9.08488889383536" id="-51809">
		<tag k="building" v="industrial" />
		<tag k="name" v="Svenseid bruk" />
		<tag k="ssr:stedsnr" v="207688" />
	</node>
	<node lat="59.29639722087708" lon="9.259602782438078" id="-51813">
		<tag k="name" v="Hammerstad" />
		<tag k="place" v="locality" />
		<tag k="ssr:stedsnr" v="209747" />
	</node>
	<node lat="59.27042500073863" lon="9.343211110374398" id="-51814">
		<tag k="fixme" v="consider place=hamlet" />
		<tag k="name" v="Kolstad" />
		<tag k="place" v="farm" />
		<tag k="ssr:stedsnr" v="209688" />
	</node>
	<node lat="59.32037777947644" lon="9.176102781372315" id="-51816">
		<tag k="name" v="Laug" />
		<tag k="place" v="farm" />
		<tag k="ssr:stedsnr" v="269561" />
	</node>
	<node lat="59.349427780054214" lon="9.078913887474863" id="-51828">
		<tag k="name" v="Storkås" />
		<tag k="place" v="farm" />
		<tag k="ssr:stedsnr" v="449648" />
	</node>
	<node lat="59.31566666887657" lon="9.143541667280353" id="-51833">
		<tag k="name" v="Bjørndalskåsene" />
		<tag k="place" v="farm" />
		<tag k="ssr:stedsnr" v="450092" />
	</node>
	<node lat="59.25538611183795" lon="9.359080557289706" id="-51834">
		<tag k="name" v="Helgja" />
		<tag k="place" v="hamlet" />
		<tag k="ssr:stedsnr" v="450277" />
	</node>
	<node lat="59.23671944860398" lon="9.39623889395401" id="-51835">
		<tag k="fixme" v="consider place=hamlet" />
		<tag k="name" v="Langeland" />
		<tag k="place" v="farm" />
		<tag k="ssr:stedsnr" v="450283" />
	</node>
	<node lat="59.28841666620197" lon="9.081438895697001" id="-51843">
		<tag k="leisure" v="pitch" />
		<tag k="name" v="Skades skibakke" />
		<tag k="ssr:stedsnr" v="237505" />
	</node>
	<node lat="59.267261109420026" lon="8.869702769258419" id="-51851">
		<tag k="name" v="Mørkvasshytta" />
		<tag k="place" v="isolated_dwelling" />
		<tag k="ssr:stedsnr" v="450546" />
	</node>
	<node lat="59.278083920799844" lon="9.25828947542668" id="-51854">
		<tag k="name" v="Furustul" />
		<tag k="place" v="locality" />
		<tag k="ssr:stedsnr" v="238091" />
	</node>
	<node lat="59.27583333234643" lon="9.259305564205276" id="-51855">
		<tag k="name" v="Øvre Dreier" />
		<tag k="place" v="farm" />
		<tag k="ssr:stedsnr" v="238093" />
	</node>
	<node lat="59.2704638904328" lon="9.349963885091233" id="-51856">
		<tag k="name" v="Kolstad" />
		<tag k="place" v="farm" />
		<tag k="ssr:stedsnr" v="450659" />
	</node>
	<node lat="59.27293888705393" lon="9.258136111656837" id="-51857">
		<tag k="name" v="Berget" />
		<tag k="place" v="quarter" />
		<tag k="ssr:stedsnr" v="238910" />
	</node>
	<node lat="59.22140833710283" lon="9.334505548089364" id="-51858">
		<tag k="name" v="Gudmundsbekk" />
		<tag k="place" v="locality" />
		<tag k="ssr:stedsnr" v="450753" />
	</node>
	<node lat="59.30098333347875" lon="9.263652778329208" id="-51861">
		<tag k="name" v="Romnes" />
		<tag k="place" v="farm" />
		<tag k="ssr:stedsnr" v="451780" />
	</node>
	<node lat="59.264913884682" lon="9.347686108378578" id="-51864">
		<tag k="name" v="Hvala" />
		<tag k="place" v="farm" />
		<tag k="ssr:stedsnr" v="451381" />
	</node>
	<node lat="59.30143611032822" lon="9.190672216303472" id="-51865">
		<tag k="name" v="Toreskås" />
		<tag k="place" v="farm" />
		<tag k="ssr:stedsnr" v="451728" />
	</node>
	<node lat="59.24206110855611" lon="9.388141663355242" id="-51867">
		<tag k="alt_name" v="Hjelset" />
		<tag k="name" v="Øvre Hjelseth" />
		<tag k="place" v="farm" />
		<tag k="ssr:stedsnr" v="244045" />
	</node>
	<node lat="59.243463891340575" lon="9.163930555015508" id="-51869">
		<tag k="name" v="Grini" />
		<tag k="place" v="farm" />
		<tag k="ssr:stedsnr" v="244412" />
	</node>
	<node lat="59.2543666678656" lon="9.149066658940463" id="-51873">
		<tag k="name" v="Kåsa" />
		<tag k="place" v="farm" />
		<tag k="ssr:stedsnr" v="245077" />
	</node>
	<node lat="59.27223588563663" lon="9.125667827479168" id="-51875">
		<tag k="name" v="Dammen" />
		<tag k="place" v="isolated_dwelling" />
		<tag k="ssr:stedsnr" v="245089" />
	</node>
	<node lat="59.27026666970953" lon="9.117574998214113" id="-51876">
		<tag k="name" v="Haugland" />
		<tag k="place" v="farm" />
		<tag k="ssr:stedsnr" v="245091" />
	</node>
	<node lat="59.27178055977435" lon="9.121791668517362" id="-51877">
		<tag k="name" v="Saga" />
		<tag k="place" v="farm" />
		<tag k="ssr:stedsnr" v="245093" />
	</node>
	<node lat="59.317908336941194" lon="9.187883336263107" id="-51878">
		<tag k="name" v="Fjellet" />
		<tag k="place" v="farm" />
		<tag k="ssr:stedsnr" v="245203" />
	</node>
	<node lat="59.26769166736203" lon="9.060397219225514" id="-51882">
		<tag k="name" v="Maurdalen" />
		<tag k="place" v="isolated_dwelling" />
		<tag k="ssr:stedsnr" v="245112" />
	</node>
	<node lat="59.31626111000292" lon="9.251819450870586" id="-51885">
		<tag k="alt_name" v="Sandnes, øvre" />
		<tag k="fixme" v="consider place=hamlet" />
		<tag k="name" v="Øvre Sandnes" />
		<tag k="place" v="farm" />
		<tag k="ssr:stedsnr" v="245728" />
	</node>
	<node lat="59.29824166784191" lon="9.040547227537974" id="-51888">
		<tag k="name" v="Skogmo" />
		<tag k="place" v="farm" />
		<tag k="ssr:stedsnr" v="267209" />
	</node>
	<node lat="59.29181389338791" lon="9.054952779865147" id="-51889">
		<tag k="name" v="Kjellemo" />
		<tag k="place" v="farm" />
		<tag k="ssr:stedsnr" v="267228" />
	</node>
	<node lat="59.29031389084603" lon="9.0570138913812" id="-51890">
		<tag k="name" v="Pershaug" />
		<tag k="place" v="farm" />
		<tag k="ssr:stedsnr" v="267132" />
	</node>
	<node lat="59.24380555736206" lon="9.3913277762134" id="-51895">
		<tag k="alt_name" v="Hjelset" />
		<tag k="fixme" v="consider place=hamlet" />
		<tag k="name" v="Nedre Hjelseth" />
		<tag k="place" v="farm" />
		<tag k="ssr:stedsnr" v="268409" />
	</node>
	<node lat="59.24315277429542" lon="9.371944451030702" id="-51898">
		<tag k="name" v="Kolbjørnskås" />
		<tag k="place" v="farm" />
		<tag k="ssr:stedsnr" v="269477" />
	</node>
	<node lat="59.271522222466174" lon="9.349027774198161" id="-51899">
		<tag k="name" v="Kolstad" />
		<tag k="place" v="farm" />
		<tag k="ssr:stedsnr" v="270680" />
	</node>
	<node lat="59.26932499721554" lon="9.335199998211772" id="-51901">
		<tag k="fixme" v="consider place=hamlet" />
		<tag k="name" v="Kolle" />
		<tag k="place" v="farm" />
		<tag k="ssr:stedsnr" v="283108" />
	</node>
	<node lat="59.35136388660662" lon="9.10116666497406" id="-51903">
		<tag k="name" v="Søndre Norem" />
		<tag k="place" v="farm" />
		<tag k="ssr:stedsnr" v="461186" />
	</node>
	<node lat="59.351491665887345" lon="9.085094442374084" id="-51906">
		<tag k="fixme" v="consider place=hamlet" />
		<tag k="name" v="Nordre Norem" />
		<tag k="place" v="farm" />
		<tag k="ssr:stedsnr" v="462143" />
	</node>
	<node lat="59.25178888567169" lon="9.114594436997773" id="-51909">
		<tag k="name" v="Heimdalen" />
		<tag k="place" v="locality" />
		<tag k="ssr:stedsnr" v="298589" />
	</node>
	<node lat="59.19345277544713" lon="9.27985833833903" id="-51913">
		<tag k="name" v="Loftsdalen" />
		<tag k="place" v="locality" />
		<tag k="ssr:stedsnr" v="298771" />
	</node>
	<node lat="59.22680833482906" lon="9.24700832837127" id="-51915">
		<tag k="name" v="Jaktstue-Brennebu" />
		<tag k="place" v="isolated_dwelling" />
		<tag k="ssr:stedsnr" v="298948" />
	</node>
	<node lat="59.266874997185184" lon="8.986555553309808" id="-51916">
		<tag k="name" v="Linfjellhytta" />
		<tag k="place" v="isolated_dwelling" />
		<tag k="ssr:stedsnr" v="305102" />
	</node>
	<node lat="59.2784166684242" lon="9.213061115022265" id="-51919">
		<tag k="name" v="Skedsmo" />
		<tag k="place" v="isolated_dwelling" />
		<tag k="ssr:stedsnr" v="305122" />
	</node>
	<node lat="59.36869999665956" lon="9.06339166446507" id="-51922">
		<tag k="alt_name" v="Øvre Børte" />
		<tag k="fixme" v="consider place=hamlet" />
		<tag k="name" v="Børte" />
		<tag k="place" v="farm" />
		<tag k="ssr:stedsnr" v="305304" />
	</node>
	<node lat="59.2954194444592" lon="9.247274996558613" id="-51927">
		<tag k="name" v="Sannerholt" />
		<tag k="place" v="farm" />
		<tag k="ssr:stedsnr" v="305804" />
	</node>
	<node lat="59.21192778152851" lon="9.25432499849111" id="-51928">
		<tag k="alt_name" v="Rønjomstua" />
		<tag k="name" v="Rønjumstua" />
		<tag k="place" v="isolated_dwelling" />
		<tag k="ssr:stedsnr" v="305903" />
	</node>
	<node lat="59.25866445929986" lon="9.201609392900078" id="-51929">
		<tag k="name" v="Stallane" />
		<tag k="place" v="locality" />
		<tag k="ssr:stedsnr" v="306078" />
	</node>
	<node lat="59.27494166639615" lon="9.331708340524651" id="-51933">
		<tag k="name" v="Dale" />
		<tag k="place" v="farm" />
		<tag k="ssr:stedsnr" v="465135" />
	</node>
	<node lat="59.30226389247302" lon="8.926194452475904" id="-51935">
		<tag k="name" v="Teigen" />
		<tag k="place" v="isolated_dwelling" />
		<tag k="ssr:stedsnr" v="306158" />
	</node>
	<node lat="59.32206110892756" lon="9.23110000868809" id="-51937">
		<tag k="name" v="Gravningen" />
		<tag k="place" v="farm" />
		<tag k="ssr:stedsnr" v="306867" />
	</node>
	<node lat="59.230166667650956" lon="9.39849722581271" id="-51945">
		<tag k="name" v="Holtanhagen" />
		<tag k="place" v="locality" />
		<tag k="ssr:stedsnr" v="328403" />
	</node>
	<node lat="59.268800003067454" lon="9.298969451822574" id="-51946">
		<tag k="name" v="Fen" />
		<tag k="place" v="farm" />
		<tag k="ssr:stedsnr" v="328166" />
	</node>
	<node lat="59.26762500260566" lon="9.374244451943676" id="-51949">
		<tag k="name" v="Nibb" />
		<tag k="place" v="locality" />
		<tag k="ssr:stedsnr" v="329272" />
	</node>
	<node lat="59.32151110932328" lon="9.199030558765903" id="-51950">
		<tag k="name" v="Gåserud" />
		<tag k="place" v="farm" />
		<tag k="ssr:stedsnr" v="330605" />
	</node>
	<node lat="59.300028803457025" lon="9.261893462018284" id="-51951">
		<tag k="name" v="Kåsa" />
		<tag k="place" v="farm" />
		<tag k="ssr:stedsnr" v="330802" />
	</node>
	<node lat="59.346619448138604" lon="9.093152771386993" id="-51954">
		<tag k="name" v="Søndre Norem" />
		<tag k="place" v="farm" />
		<tag k="ssr:stedsnr" v="340149" />
	</node>
	<node lat="59.22118888994595" lon="9.256549992553492" id="-51956">
		<tag k="name" v="Busekåsa" />
		<tag k="place" v="locality" />
		<tag k="ssr:stedsnr" v="344882" />
	</node>
	<node lat="59.299463887676694" lon="9.116483334183377" id="-51957">
		<tag k="name" v="Kise" />
		<tag k="place" v="quarter" />
		<tag k="ssr:stedsnr" v="344769" />
	</node>
	<node lat="59.24208888497087" lon="9.371563895843355" id="-51968">
		<tag k="name" v="Hegna" />
		<tag k="place" v="farm" />
		<tag k="ssr:stedsnr" v="365045" />
	</node>
	<node lat="59.231425003580455" lon="9.16813055582326" id="-51973">
		<tag k="name" v="Plassen" />
		<tag k="place" v="farm" />
		<tag k="ssr:stedsnr" v="365395" />
	</node>
	<node lat="59.31953888976635" lon="8.967897227389132" id="-51974">
		<tag k="name" v="Nordnes" />
		<tag k="place" v="farm" />
		<tag k="ssr:stedsnr" v="366202" />
	</node>
	<node lat="59.31385277961665" lon="9.131224992510562" id="-51976">
		<tag k="name" v="Slåtta" />
		<tag k="place" v="farm" />
		<tag k="ssr:stedsnr" v="366197" />
	</node>
	<node lat="59.36751944033914" lon="9.075458334889207" id="-51977">
		<tag k="name" v="Myre" />
		<tag k="place" v="farm" />
		<tag k="ssr:stedsnr" v="366293" />
	</node>
	<node lat="59.27842007877775" lon="9.312621603860824" id="-51982">
		<tag k="name" v="Lysnes" />
		<tag k="place" v="farm" />
		<tag k="ssr:stedsnr" v="366695" />
	</node>
	<node lat="59.325119444467695" lon="9.246880551856865" id="-51983">
		<tag k="alt_name" v="Sandnes, nedre" />
		<tag k="fixme" v="consider place=hamlet" />
		<tag k="name" v="Nedre Sandnes" />
		<tag k="place" v="farm" />
		<tag k="ssr:stedsnr" v="366844" />
	</node>
	<node lat="59.26715833673506" lon="9.260980551637376" id="-51985">
		<tag k="name" v="Nyland" />
		<tag k="place" v="farm" />
		<tag k="ssr:stedsnr" v="480078" />
	</node>
	<node lat="59.28380277505308" lon="9.236472220524606" id="-51987">
		<tag k="amenity" v="nursing_home" />
		<tag k="name" v="Hygea" />
		<tag k="ssr:stedsnr" v="480099" />
	</node>
	<node lat="59.27570832897844" lon="9.104158341476978" id="-51991">
		<tag k="name" v="Norstrand" />
		<tag k="place" v="farm" />
		<tag k="ssr:stedsnr" v="480389" />
	</node>
	<node lat="59.28836388740424" lon="9.062769436130962" id="-51993">
		<tag k="name" v="Kleppe" />
		<tag k="place" v="farm" />
		<tag k="ssr:stedsnr" v="480499" />
	</node>
	<node lat="59.31923857895234" lon="8.985919983221759" id="-52004">
		<tag k="name" v="Straumjordet" />
		<tag k="place" v="farm" />
		<tag k="ssr:stedsnr" v="388047" />
	</node>
	<node lat="59.318694442753774" lon="9.020272216552991" id="-52005">
		<tag k="building" v="industrial" />
		<tag k="name" v="Røymål sag" />
		<tag k="ssr:stedsnr" v="388297" />
	</node>
	<node lat="59.275102773500926" lon="8.863200003936777" id="-52006">
		<tag k="name" v="Furustul" />
		<tag k="place" v="locality" />
		<tag k="ssr:stedsnr" v="388412" />
	</node>
	<node lat="59.32164444690919" lon="9.096022228179343" id="-52009">
		<tag k="name" v="Øygarden" />
		<tag k="place" v="farm" />
		<tag k="ssr:stedsnr" v="388746" />
	</node>
	<node lat="59.314572222022115" lon="9.164783326128262" id="-52010">
		<tag k="name" v="Grindrud" />
		<tag k="place" v="farm" />
		<tag k="ssr:stedsnr" v="389054" />
	</node>
	<node lat="59.326763890415734" lon="9.118155554041545" id="-52011">
		<tag k="name" v="Helgetveit nedre" />
		<tag k="place" v="farm" />
		<tag k="ssr:stedsnr" v="389096" />
	</node>
	<node lat="59.233066663532256" lon="9.33861110995066" id="-52012">
		<tag k="historic" v="shieling" />
		<tag k="name" v="Huseseter" />
		<tag k="place" v="isolated_dwelling" />
		<tag k="ssr:stedsnr" v="389503" />
	</node>
	<node lat="59.2517611076233" lon="9.344494438145619" id="-52013">
		<tag k="name" v="Vasskås" />
		<tag k="place" v="isolated_dwelling" />
		<tag k="ssr:stedsnr" v="389301" />
	</node>
	<node lat="59.33688055324689" lon="9.16036943760536" id="-52016">
		<tag k="name" v="Stiklemyrhaugen" />
		<tag k="place" v="isolated_dwelling" />
		<tag k="ssr:stedsnr" v="389855" />
	</node>
	<node lat="59.31641389226762" lon="9.20312499396347" id="-52020">
		<tag k="name" v="Prestkleiv" />
		<tag k="place" v="locality" />
		<tag k="ssr:stedsnr" v="390509" />
	</node>
	<node lat="59.27648333462189" lon="9.295669450569667" id="-52023">
		<tag k="name" v="Øygarden" />
		<tag k="place" v="farm" />
		<tag k="ssr:stedsnr" v="405184" />
	</node>
	<node lat="59.250233329218055" lon="9.367397219019374" id="-52024">
		<tag k="fixme" v="consider place=hamlet" />
		<tag k="name" v="Bjerva" />
		<tag k="place" v="farm" />
		<tag k="ssr:stedsnr" v="486026" />
	</node>
	<node lat="59.290625004191426" lon="9.21027778105618" id="-52027">
		<tag k="name" v="Nyhus" />
		<tag k="place" v="quarter" />
		<tag k="ssr:stedsnr" v="405943" />
	</node>
	<node lat="59.287858337584346" lon="9.226975007577135" id="-52028">
		<tag k="name" v="Solhaug" />
		<tag k="place" v="farm" />
		<tag k="ssr:stedsnr" v="405944" />
	</node>
	<node lat="59.21315555470221" lon="9.184719450183596" id="-52036">
		<tag k="name" v="Lille Rønningen" />
		<tag k="place" v="farm" />
		<tag k="ssr:stedsnr" v="405993" />
	</node>
	<node lat="59.338577779731985" lon="9.095441660391975" id="-52039">
		<tag k="name" v="Haugen" />
		<tag k="place" v="farm" />
		<tag k="ssr:stedsnr" v="487281" />
	</node>
	<node lat="59.297886114938926" lon="9.16193332608909" id="-52048">
		<tag k="name" v="Straume" />
		<tag k="place" v="farm" />
		<tag k="ssr:stedsnr" v="487149" />
	</node>
	<node lat="59.341047224995485" lon="9.068322227639351" id="-52050">
		<tag k="fixme" v="consider place=hamlet" />
		<tag k="name" v="Ytterbø" />
		<tag k="place" v="farm" />
		<tag k="ssr:stedsnr" v="487283" />
	</node>
	<node lat="59.21394166929843" lon="9.187680556431642" id="-52052">
		<tag k="name" v="Rønningen" />
		<tag k="place" v="farm" />
		<tag k="ssr:stedsnr" v="487444" />
	</node>
	<node lat="59.28700277456275" lon="9.226083335333437" id="-52053">
		<tag k="name" v="Haugen" />
		<tag k="place" v="farm" />
		<tag k="ssr:stedsnr" v="487745" />
	</node>
	<node lat="59.263630553293126" lon="9.33683055278273" id="-52054">
		<tag k="alt_name" v="Kolle, s" />
		<tag k="name" v="Kolle" />
		<tag k="place" v="farm" />
		<tag k="ssr:stedsnr" v="487750" />
	</node>
	<node lat="59.269211112148724" lon="9.361644451084453" id="-52055">
		<tag k="alt_name" v="Omtvedt" />
		<tag k="fixme" v="consider place=hamlet" />
		<tag k="name" v="Åmtveit" />
		<tag k="place" v="farm" />
		<tag k="ssr:stedsnr" v="487752" />
	</node>
	<node lat="59.30827141515427" lon="9.246982096674955" id="-52056">
		<tag k="name" v="Øygarden" />
		<tag k="old_name" v="Storedal" />
		<tag k="place" v="farm" />
		<tag k="ssr:stedsnr" v="487798" />
	</node>
	<node lat="59.28782777352803" lon="9.07410556372405" id="-52058">
		<tag k="name" v="Smukkestad" />
		<tag k="place" v="farm" />
		<tag k="ssr:stedsnr" v="488132" />
	</node>
	<node lat="59.28046388910986" lon="9.289002784588947" id="-52062">
		<tag k="name" v="Søve" />
		<tag k="place" v="farm" />
		<tag k="ssr:stedsnr" v="488676" />
	</node>
	<node lat="59.279941668105124" lon="9.263577774667482" id="-52064">
		<tag k="amenity" v="school" />
		<tag k="name" v="Ulefoss skole" />
		<tag k="ssr:stedsnr" v="420085" />
	</node>
	<node lat="59.27933055473072" lon="9.283483332784282" id="-52065">
		<tag k="amenity" v="school" />
		<tag k="name" v="Søve-Telemark landbruksskule" />
		<tag k="ssr:stedsnr" v="420088" />
	</node>
	<node lat="59.28971388520629" lon="9.25620276902977" id="-52066">
		<tag k="name" v="Strandkåsa" />
		<tag k="place" v="farm" />
		<tag k="ssr:stedsnr" v="420091" />
	</node>
	<node lat="59.28140833607691" lon="9.25255278365176" id="-52067">
		<tag k="building" v="industrial" />
		<tag k="industrial" v="factory" />
		<tag k="name" v="Aall-Ulefoss brug" />
		<tag k="ssr:stedsnr" v="420093" />
	</node>
	<node lat="59.29186666459302" lon="9.064811105752955" id="-52074">
		<tag k="name" v="Haugen" />
		<tag k="place" v="quarter" />
		<tag k="ssr:stedsnr" v="420507" />
	</node>
	<node lat="59.199786111708534" lon="9.206108328375919" id="-52079">
		<tag k="name" v="Teigen" />
		<tag k="place" v="farm" />
		<tag k="ssr:stedsnr" v="426316" />
	</node>
	<node lat="59.31876388729231" lon="9.173958324728332" id="-52085">
		<tag k="name" v="Laug" />
		<tag k="place" v="farm" />
		<tag k="ssr:stedsnr" v="427208" />
	</node>
	<node lat="59.29614444451897" lon="9.056002772271734" id="-52088">
		<tag k="name" v="Verpe" />
		<tag k="place" v="farm" />
		<tag k="ssr:stedsnr" v="427173" />
	</node>
	<node lat="59.30865832889747" lon="9.197147224709365" id="-52089">
		<tag k="name" v="Steinhaug" />
		<tag k="place" v="farm" />
		<tag k="ssr:stedsnr" v="427177" />
	</node>
	<node lat="59.3051907959595" lon="9.087707084468978" id="-52090">
		<tag k="fixme" v="consider place=hamlet" />
		<tag k="name" v="Ajer" />
		<tag k="place" v="farm" />
		<tag k="ssr:stedsnr" v="427190" />
	</node>
	<node lat="59.2616999970468" lon="9.363499994929517" id="-52091">
		<tag k="alt_name" v="Prestgrav, øvre" />
		<tag k="name" v="Øvre Prestgrav" />
		<tag k="place" v="farm" />
		<tag k="ssr:stedsnr" v="427625" />
	</node>
	<node lat="59.271327780489145" lon="9.251297218445831" id="-52092">
		<tag k="alt_name" v="Espevollen, nedre" />
		<tag k="name" v="Nedre Espevollen" />
		<tag k="place" v="farm" />
		<tag k="ssr:stedsnr" v="427702" />
	</node>
	<node lat="59.26820832954996" lon="9.287344452921678" id="-52093">
		<tag k="alt_name" v="Vipeto, nedre;Vibeto nedre" />
		<tag k="fixme" v="consider place=hamlet" />
		<tag k="name" v="Nedre Vibeto" />
		<tag k="place" v="farm" />
		<tag k="ssr:stedsnr" v="427704" />
	</node>
	<node lat="59.27519444044809" lon="9.357288891835413" id="-52094">
		<tag k="alt_name" v="Skipsnes" />
		<tag k="name" v="Skiftnes" />
		<tag k="place" v="farm" />
		<tag k="ssr:stedsnr" v="427713" />
	</node>
	<node lat="59.25359444623679" lon="9.35643055014771" id="-52103">
		<tag k="name" v="Plassen" />
		<tag k="place" v="isolated_dwelling" />
		<tag k="ssr:stedsnr" v="450269" />
	</node>
	<node lat="59.31096388805369" lon="9.190124999318229" id="-52108">
		<tag k="name" v="Steinhaug" />
		<tag k="place" v="farm" />
		<tag k="ssr:stedsnr" v="451711" />
	</node>
	<node lat="59.275277774098555" lon="9.286708331460177" id="-52113">
		<tag k="name" v="Stua" />
		<tag k="place" v="farm" />
		<tag k="ssr:stedsnr" v="465179" />
	</node>
	<node lat="59.309724998356806" lon="9.098850008715637" id="-52114">
		<tag k="alt_name" v="Nordre Tempelen" />
		<tag k="name" v="Templen" />
		<tag k="place" v="farm" />
		<tag k="ssr:stedsnr" v="465703" />
	</node>
	<node lat="59.25579999631024" lon="9.132438892427091" id="-52133">
		<tag k="name" v="Lauvvik" />
		<tag k="place" v="locality" />
		<tag k="ssr:stedsnr" v="480618" />
	</node>
	<node lat="59.31026944671614" lon="9.10185277124466" id="-52139">
		<tag k="name" v="Lunde" />
		<tag k="place" v="farm" />
		<tag k="ssr:stedsnr" v="487168" />
	</node>
	<node lat="59.30862222366759" lon="9.12680554760329" id="-52141">
		<tag k="name" v="Flatland" />
		<tag k="place" v="farm" />
		<tag k="ssr:stedsnr" v="487173" />
	</node>
	<node lat="59.35762777544759" lon="8.963344447195421" id="-52143">
		<tag k="name" v="Rugbølet" />
		<tag k="place" v="isolated_dwelling" />
		<tag k="ssr:stedsnr" v="487325" />
	</node>
	<node lat="59.31623055387637" lon="9.03727223067322" id="-52145">
		<tag k="alt_name" v="Eivindkås" />
		<tag k="name" v="Eivindskås" />
		<tag k="place" v="farm" />
		<tag k="ssr:stedsnr" v="487219" />
	</node>
	<node lat="59.213277779948" lon="9.270080550118863" id="-52149">
		<tag k="name" v="Svartufs" />
		<tag k="place" v="isolated_dwelling" />
		<tag k="ssr:stedsnr" v="487920" />
	</node>
	<node lat="59.286930552959824" lon="9.16934165834526" id="-52150">
		<tag k="alt_name" v="Skårdal" />
		<tag k="fixme" v="consider place=hamlet" />
		<tag k="name" v="Skordal" />
		<tag k="place" v="farm" />
		<tag k="ssr:stedsnr" v="488124" />
	</node>
	<node lat="59.264022220489274" lon="9.371322216380642" id="-52151">
		<tag k="alt_name" v="Prestgrav, nedre;Prestgrav" />
		<tag k="fixme" v="consider place=hamlet" />
		<tag k="name" v="Nedre Prestgrav" />
		<tag k="place" v="farm" />
		<tag k="ssr:stedsnr" v="488608" />
	</node>
	<node lat="59.3251222252543" lon="9.021886118885686" id="-52152">
		<tag k="name" v="Sollid" />
		<tag k="place" v="farm" />
		<tag k="ssr:stedsnr" v="508330" />
	</node>
	<node lat="59.352749999291554" lon="9.072299991811196" id="-52158">
		<tag k="name" v="Steinsrud" />
		<tag k="place" v="farm" />
		<tag k="ssr:stedsnr" v="509577" />
	</node>
	<node lat="59.25812222134949" lon="9.39367778053645" id="-52160">
		<tag k="name" v="Lillestrand" />
		<tag k="place" v="farm" />
		<tag k="ssr:stedsnr" v="510257" />
	</node>
	<node lat="59.29335555392857" lon="9.037627780027119" id="-52161">
		<tag k="name" v="Kjeldal" />
		<tag k="place" v="farm" />
		<tag k="ssr:stedsnr" v="510263" />
	</node>
	<node lat="59.237000003561874" lon="9.391163888790597" id="-52164">
		<tag k="name" v="Skotte" />
		<tag k="place" v="isolated_dwelling" />
		<tag k="ssr:stedsnr" v="510465" />
	</node>
	<node lat="59.31813055714846" lon="9.094755552448536" id="-52165">
		<tag k="name" v="Enggrav" />
		<tag k="place" v="farm" />
		<tag k="ssr:stedsnr" v="510803" />
	</node>
	<node lat="59.250472224780474" lon="9.363408324884091" id="-52167">
		<tag k="name" v="Roa" />
		<tag k="place" v="farm" />
		<tag k="ssr:stedsnr" v="511291" />
	</node>
	<node lat="59.32850000113022" lon="9.111166667375027" id="-52169">
		<tag k="name" v="Helgetveit" />
		<tag k="place" v="farm" />
		<tag k="ssr:stedsnr" v="511755" />
	</node>
	<node lat="59.30241944332263" lon="9.265425005320195" id="-52171">
		<tag k="name" v="Romnes" />
		<tag k="place" v="farm" />
		<tag k="ssr:stedsnr" v="512784" />
	</node>
	<node lat="59.299305557968026" lon="9.090619445582066" id="-52174">
		<tag k="name" v="Plassen" />
		<tag k="place" v="quarter" />
		<tag k="ssr:stedsnr" v="526716" />
	</node>
	<node lat="59.29303888444239" lon="9.085125001865949" id="-52175">
		<tag k="name" v="Brukåsa" />
		<tag k="place" v="quarter" />
		<tag k="ssr:stedsnr" v="526719" />
	</node>
	<node lat="59.28268611515649" lon="9.25193611906301" id="-52179">
		<tag k="building" v="commercial" />
		<tag k="name" v="Lille Ulefoss" />
		<tag k="ssr:stedsnr" v="541107" />
	</node>
	<node lat="59.28081111501588" lon="9.239608333583412" id="-52180">
		<tag k="name" v="Åheim" />
		<tag k="ssr:stedsnr" v="541109" />
		<tag k="tourism" v="guest_house" />
	</node>
	<node lat="59.287152779907935" lon="9.22908055557463" id="-52181">
		<tag k="name" v="Åsheim" />
		<tag k="place" v="farm" />
		<tag k="ssr:stedsnr" v="541113" />
	</node>
	<node lat="59.163075587104636" lon="9.192533087610073" id="-52192">
		<tag k="alt_name" v="Bømark" />
		<tag k="name" v="Bømarka" />
		<tag k="place" v="locality" />
		<tag k="ssr:stedsnr" v="547304" />
	</node>
	<node lat="59.28053333328765" lon="9.104430551192277" id="-52194">
		<tag k="alt_name" v="Settendal øvre" />
		<tag k="name" v="Settendal" />
		<tag k="place" v="farm" />
		<tag k="ssr:stedsnr" v="548109" />
	</node>
	<node lat="59.31381944320233" lon="9.083533329545201" id="-52198">
		<tag k="fixme" v="consider place=hamlet" />
		<tag k="name" v="Lundtveit" />
		<tag k="place" v="farm" />
		<tag k="ssr:stedsnr" v="548206" />
	</node>
	<node lat="59.356189914526205" lon="9.077273800618286" id="-52201">
		<tag k="alt_name" v="Strond;Stronda" />
		<tag k="name" v="Stranna" />
		<tag k="place" v="farm" />
		<tag k="ssr:stedsnr" v="548272" />
	</node>
	<node lat="59.35261389070172" lon="9.042913887076619" id="-52202">
		<tag k="alt_name" v="Lona, nedre" />
		<tag k="loc_name" v="Lona" />
		<tag k="name" v="Nedre Lona" />
		<tag k="place" v="farm" />
		<tag k="ssr:stedsnr" v="548276" />
	</node>
	<node lat="59.31726666356938" lon="9.143225008167603" id="-52203">
		<tag k="name" v="Bjørndalen" />
		<tag k="place" v="farm" />
		<tag k="ssr:stedsnr" v="548194" />
	</node>
	<node lat="59.314991662967834" lon="9.190447219872135" id="-52204">
		<tag k="alt_name" v="Fonnemork" />
		<tag k="name" v="Funnemark" />
		<tag k="place" v="farm" />
		<tag k="ssr:stedsnr" v="548199" />
	</node>
	<node lat="59.361357890770655" lon="9.067241653265802" id="-52208">
		<tag k="fixme" v="multiple name tags, choose one and add the other to alt_name" />
		<tag k="name" v="Børte;Sprove" />
		<tag k="place" v="farm" />
		<tag k="ssr:stedsnr" v="548331" />
	</node>
	<node lat="59.27256944534757" lon="9.303813893922992" id="-52209">
		<tag k="alt_name" v="Nedre Fen" />
		<tag k="fixme" v="consider place=hamlet" />
		<tag k="name" v="Fen" />
		<tag k="place" v="farm" />
		<tag k="ssr:stedsnr" v="548716" />
	</node>
	<node lat="59.29016023695112" lon="9.21683059332233" id="-52211">
		<tag k="name" v="Eie" />
		<tag k="place" v="hamlet" />
		<tag k="ssr:stedsnr" v="689924" />
	</node>
	<node lat="59.35630277898053" lon="9.065738892653535" id="-52213">
		<tag k="name" v="Hegna" />
		<tag k="place" v="farm" />
		<tag k="ssr:stedsnr" v="692586" />
	</node>
	<node lat="59.345766664144165" lon="9.063636112821817" id="-52214">
		<tag k="name" v="Plassen" />
		<tag k="place" v="isolated_dwelling" />
		<tag k="ssr:stedsnr" v="692588" />
	</node>
	<node lat="59.326374997187735" lon="8.958161108816192" id="-52216">
		<tag k="name" v="Dompedal" />
		<tag k="place" v="locality" />
		<tag k="ssr:stedsnr" v="692048" />
	</node>
	<node lat="59.32607777639487" lon="8.974808328435007" id="-52217">
		<tag k="fixme" v="consider place=hamlet" />
		<tag k="name" v="Flom" />
		<tag k="place" v="farm" />
		<tag k="ssr:stedsnr" v="692049" />
	</node>
	<node lat="59.34995278118377" lon="9.059616670877475" id="-52227">
		<tag k="name" v="Myrland" />
		<tag k="place" v="farm" />
		<tag k="ssr:stedsnr" v="692343" />
	</node>
	<node lat="59.26397222614073" lon="9.3415916685747" id="-52228">
		<tag k="name" v="Hvala" />
		<tag k="place" v="farm" />
		<tag k="ssr:stedsnr" v="693389" />
	</node>
	<node lat="59.31811111551316" lon="9.00117222862034" id="-52232">
		<tag k="name" v="Røymål" />
		<tag k="place" v="farm" />
		<tag k="ssr:stedsnr" v="570025" />
	</node>
	<node lat="59.321694440778884" lon="8.973433335282266" id="-52233">
		<tag k="name" v="Nes" />
		<tag k="place" v="farm" />
		<tag k="ssr:stedsnr" v="570026" />
	</node>
	<node lat="59.325238890735875" lon="9.003127786437934" id="-52234">
		<tag k="name" v="Haugen" />
		<tag k="place" v="farm" />
		<tag k="ssr:stedsnr" v="570062" />
	</node>
	<node lat="59.254136109752075" lon="9.337424997543266" id="-52235">
		<tag k="name" v="Bergmannskås" />
		<tag k="place" v="locality" />
		<tag k="ssr:stedsnr" v="570102" />
	</node>
	<node lat="59.297005558413716" lon="9.040136112890002" id="-52237">
		<tag k="name" v="Kjeldal østre" />
		<tag k="place" v="farm" />
		<tag k="ssr:stedsnr" v="570207" />
	</node>
	<node lat="59.319858335032144" lon="9.112213886865463" id="-52242">
		<tag k="name" v="Midtbø" />
		<tag k="place" v="farm" />
		<tag k="ssr:stedsnr" v="570761" />
	</node>
	<node lat="59.31866388469606" lon="9.109202775071255" id="-52243">
		<tag k="name" v="Savanshaugen" />
		<tag k="place" v="farm" />
		<tag k="ssr:stedsnr" v="570762" />
	</node>
	<node lat="59.31853610878876" lon="9.101013890460766" id="-52244">
		<tag k="name" v="Enggrav" />
		<tag k="place" v="farm" />
		<tag k="ssr:stedsnr" v="570765" />
	</node>
	<node lat="59.265627781063365" lon="8.902486102962575" id="-52245">
		<tag k="name" v="Øvrestul" />
		<tag k="place" v="locality" />
		<tag k="ssr:stedsnr" v="571507" />
	</node>
	<node lat="59.26203611048998" lon="9.289388889204124" id="-52249">
		<tag k="name" v="Juve" />
		<tag k="place" v="farm" />
		<tag k="ssr:stedsnr" v="572262" />
	</node>
	<node lat="59.29309999764683" lon="9.194530551076692" id="-52252">
		<tag k="amenity" v="school" />
		<tag k="name" v="Eidsbygda skole" />
		<tag k="ssr:stedsnr" v="694737" />
	</node>
	<node lat="59.291516663294516" lon="9.184649994401504" id="-52253">
		<tag k="name" v="Baksås" />
		<tag k="place" v="farm" />
		<tag k="ssr:stedsnr" v="694741" />
	</node>
	<node lat="59.35772777868462" lon="9.115133327340361" id="-52254">
		<tag k="name" v="Søndre Norem" />
		<tag k="place" v="farm" />
		<tag k="ssr:stedsnr" v="582189" />
	</node>
	<node lat="59.280708333971575" lon="9.289536113629618" id="-52256">
		<tag k="name" v="Søvestranda" />
		<tag k="place" v="farm" />
		<tag k="ssr:stedsnr" v="586152" />
	</node>
	<node lat="59.29575555893717" lon="9.094033340373121" id="-52258">
		<tag k="name" v="Skoemyrane" />
		<tag k="place" v="quarter" />
		<tag k="ssr:stedsnr" v="586708" />
	</node>
	<node lat="59.30537778010523" lon="9.10064443994505" id="-52259">
		<tag k="name" v="Solhaug" />
		<tag k="place" v="quarter" />
		<tag k="ssr:stedsnr" v="586721" />
	</node>
	<node lat="59.293383337349155" lon="9.09312222337199" id="-52265">
		<tag k="fixme" v="consider place=hamlet" />
		<tag k="name" v="Skoe" />
		<tag k="place" v="farm" />
		<tag k="ssr:stedsnr" v="601351" />
	</node>
	<node lat="59.18351666896491" lon="9.255788894969147" id="-52267">
		<tag k="name" v="Kveldro" />
		<tag k="place" v="locality" />
		<tag k="ssr:stedsnr" v="601809" />
	</node>
	<node lat="59.23002222412817" lon="9.169911119085935" id="-52280">
		<tag k="name" v="Holte" />
		<tag k="place" v="farm" />
		<tag k="ssr:stedsnr" v="608445" />
	</node>
	<node lat="59.23101666814335" lon="9.21402500238908" id="-52281">
		<tag k="name" v="Brønndalen" />
		<tag k="place" v="farm" />
		<tag k="ssr:stedsnr" v="608448" />
	</node>
	<node lat="59.20534999568051" lon="9.202061106440347" id="-52282">
		<tag k="name" v="Lauvbukta" />
		<tag k="place" v="farm" />
		<tag k="ssr:stedsnr" v="608342" />
	</node>
	<node lat="59.2567861097237" lon="9.39144443767106" id="-52284">
		<tag k="alt_name" v="Steinstad, nedre;Stenstad" />
		<tag k="name" v="Nedre Steinstad" />
		<tag k="place" v="farm" />
		<tag k="ssr:stedsnr" v="608699" />
	</node>
	<node lat="59.269125001900704" lon="9.334502770407232" id="-52286">
		<tag k="alt_name" v="Kolle, nordre" />
		<tag k="name" v="Nordre Kolle" />
		<tag k="place" v="farm" />
		<tag k="ssr:stedsnr" v="608742" />
	</node>
	<node lat="59.26798610680201" lon="9.340124993151491" id="-52287">
		<tag k="name" v="Flatgrav" />
		<tag k="place" v="farm" />
		<tag k="ssr:stedsnr" v="608743" />
	</node>
	<node lat="59.22030039485406" lon="9.330504495430713" id="-52288">
		<tag k="name" v="Gudmundsbekk" />
		<tag k="place" v="locality" />
		<tag k="ssr:stedsnr" v="608932" />
	</node>
	<node lat="59.28827222376825" lon="9.116530560869096" id="-52291">
		<tag k="name" v="Eikvang" />
		<tag k="place" v="farm" />
		<tag k="ssr:stedsnr" v="609135" />
	</node>
	<node lat="59.29027500210257" lon="9.052047230902105" id="-52295">
		<tag k="alt_name" v="Kjelddal, austre;Kjeldal østre" />
		<tag k="name" v="Østre Kjeldal" />
		<tag k="place" v="farm" />
		<tag k="ssr:stedsnr" v="609149" />
	</node>
	<node lat="59.34061666894121" lon="9.106380557653184" id="-52297">
		<tag k="name" v="Skottet" />
		<tag k="place" v="farm" />
		<tag k="ssr:stedsnr" v="630611" />
	</node>
	<node lat="59.35766944444173" lon="8.988400002297688" id="-52302">
		<tag k="name" v="Holtemyrkneiken" />
		<tag k="place" v="isolated_dwelling" />
		<tag k="ssr:stedsnr" v="631197" />
	</node>
	<node lat="59.320394442273255" lon="8.996838890483993" id="-52303">
		<tag k="name" v="Strengen" />
		<tag k="place" v="hamlet" />
		<tag k="ssr:stedsnr" v="631333" />
	</node>
	<node lat="59.23103888945213" lon="9.391236119858323" id="-52305">
		<tag k="name" v="Tinholt" />
		<tag k="place" v="farm" />
		<tag k="ssr:stedsnr" v="632449" />
	</node>
	<node lat="59.25955555352089" lon="9.357583329548923" id="-52307">
		<tag k="name" v="Sverdstein" />
		<tag k="place" v="farm" />
		<tag k="ssr:stedsnr" v="632303" />
	</node>
	<node lat="59.25673888963423" lon="9.36444444087119" id="-52308">
		<tag k="alt_name" v="Store Helgen" />
		<tag k="fixme" v="consider place=hamlet" />
		<tag k="name" v="Helgen" />
		<tag k="place" v="farm" />
		<tag k="ssr:stedsnr" v="632307" />
	</node>
	<node lat="59.24978055948974" lon="9.395324991775182" id="-52309">
		<tag k="name" v="Bjerkeli" />
		<tag k="place" v="locality" />
		<tag k="ssr:stedsnr" v="632332" />
	</node>
	<node lat="59.2740138881706" lon="9.365288895136938" id="-52311">
		<tag k="name" v="Grønstein" />
		<tag k="place" v="farm" />
		<tag k="ssr:stedsnr" v="633682" />
	</node>
	<node lat="59.27870833102508" lon="9.284186112175357" id="-52314">
		<tag k="amenity" v="school" />
		<tag k="name" v="Telemark landbruksskule Søve" />
		<tag k="ssr:stedsnr" v="647188" />
	</node>
	<node lat="59.27753888761811" lon="9.327638883582205" id="-52323">
		<tag k="name" v="Namløshagen" />
		<tag k="place" v="farm" />
		<tag k="ssr:stedsnr" v="708168" />
	</node>
	<node lat="59.26865277946195" lon="9.30121389079522" id="-52326">
		<tag k="fixme" v="consider place=suburb, village or hamlet" />
		<tag k="name" v="Fen" />
		<tag k="place" v="quarter" />
		<tag k="ssr:stedsnr" v="708188" />
	</node>
	<node lat="59.285269448502376" lon="9.196366662217672" id="-52329">
		<tag k="name" v="Trettekåsa" />
		<tag k="place" v="locality" />
		<tag k="ssr:stedsnr" v="708911" />
	</node>
	<node lat="59.27506388596499" lon="9.267075002180752" id="-52333">
		<tag k="name" v="Tarje" />
		<tag k="place" v="farm" />
		<tag k="ssr:stedsnr" v="662082" />
	</node>
	<node lat="59.28089444421921" lon="9.266102783810306" id="-52334">
		<tag k="name" v="Heggen pensjonat" />
		<tag k="ssr:stedsnr" v="662091" />
		<tag k="tourism" v="guest_house" />
	</node>
	<node lat="59.291744448464264" lon="9.072341672439276" id="-52340">
		<tag k="name" v="Stavsholt" />
		<tag k="place" v="quarter" />
		<tag k="ssr:stedsnr" v="662505" />
	</node>
	<node lat="59.28791666431895" lon="9.254997215782593" id="-52345">
		<tag k="name" v="Groplihaugen" />
		<tag k="place" v="farm" />
		<tag k="ssr:stedsnr" v="663112" />
	</node>
	<node lat="59.28643333207311" lon="9.252574994684093" id="-52346">
		<tag k="name" v="Linddalen" />
		<tag k="place" v="locality" />
		<tag k="ssr:stedsnr" v="663116" />
	</node>
	<node lat="59.27118332989484" lon="9.260555564272638" id="-52348">
		<tag k="name" v="Kåsa" />
		<tag k="place" v="farm" />
		<tag k="ssr:stedsnr" v="663083" />
	</node>
	<node lat="59.38290555357986" lon="9.0597861090106" id="-52355">
		<tag k="name" v="Myre" />
		<tag k="place" v="farm" />
		<tag k="ssr:stedsnr" v="669321" />
	</node>
	<node lat="59.247313884731135" lon="9.158622216524318" id="-52356">
		<tag k="name" v="Øygarden" />
		<tag k="place" v="farm" />
		<tag k="ssr:stedsnr" v="669407" />
	</node>
	<node lat="59.23946388787651" lon="9.160861114317806" id="-52359">
		<tag k="name" v="Hagan" />
		<tag k="place" v="farm" />
		<tag k="ssr:stedsnr" v="669376" />
	</node>
	<node lat="59.27353611509831" lon="9.343769450624483" id="-52360">
		<tag k="alt_name" v="Kåsa, øvre" />
		<tag k="name" v="Øvre Kåsa" />
		<tag k="old_name" v="Ovre Kåsa" />
		<tag k="place" v="farm" />
		<tag k="ssr:stedsnr" v="669708" />
	</node>
	<node lat="59.272477775098416" lon="9.356808331027201" id="-52361">
		<tag k="name" v="Velkom" />
		<tag k="place" v="farm" />
		<tag k="ssr:stedsnr" v="669711" />
	</node>
	<node lat="59.26659999701955" lon="9.35665833762321" id="-52362">
		<tag k="alt_name" v="Lillebø" />
		<tag k="name" v="Bø, l" />
		<tag k="place" v="farm" />
		<tag k="ssr:stedsnr" v="669713" />
	</node>
	<node lat="59.27288889058704" lon="9.243180560195867" id="-52363">
		<tag k="name" v="Bergkåsa" />
		<tag k="place" v="farm" />
		<tag k="ssr:stedsnr" v="669717" />
	</node>
	<node lat="59.271830555831684" lon="9.317016660827363" id="-52364">
		<tag k="name" v="Megarden" />
		<tag k="place" v="farm" />
		<tag k="ssr:stedsnr" v="669724" />
	</node>
	<node lat="59.23021110678682" lon="9.229599998957712" id="-52366">
		<tag k="alt_name" v="Hollasæter" />
		<tag k="name" v="Hollaseter" />
		<tag k="place" v="farm" />
		<tag k="ssr:stedsnr" v="669927" />
	</node>
	<node lat="59.30927778000981" lon="9.208802770154303" id="-52371">
		<tag k="alt_name" v="Gravom" />
		<tag k="name" v="Grovum" />
		<tag k="place" v="farm" />
		<tag k="ssr:stedsnr" v="670179" />
	</node>
	<node lat="59.30669166458682" lon="9.134419439642095" id="-52373">
		<tag k="name" v="Åse" />
		<tag k="place" v="farm" />
		<tag k="ssr:stedsnr" v="670188" />
	</node>
	<node lat="59.257199999425836" lon="9.366263886106857" id="-52374">
		<tag k="alt_name" v="Helgja, austre;Helgen" />
		<tag k="name" v="Austre Helgja" />
		<tag k="place" v="farm" />
		<tag k="ssr:stedsnr" v="670605" />
	</node>
	<node lat="59.25869779969629" lon="9.339525812828592" id="-52375">
		<tag k="alt_name" v="Jøntvedt;Søndre Jøntvedt" />
		<tag k="fixme" v="consider place=hamlet" />
		<tag k="name" v="Hjøntveit, s" />
		<tag k="place" v="farm" />
		<tag k="ssr:stedsnr" v="670616" />
	</node>
	<node lat="59.27547222513378" lon="9.333108337546475" id="-52378">
		<tag k="name" v="Fjeldstad" />
		<tag k="place" v="farm" />
		<tag k="ssr:stedsnr" v="890136" />
	</node>
	<node lat="59.27641388907797" lon="9.325783339197773" id="-52379">
		<tag k="name" v="Namløshagen" />
		<tag k="place" v="farm" />
		<tag k="ssr:stedsnr" v="890142" />
	</node>
	<node lat="59.2394166671996" lon="9.160222221134088" id="-52382">
		<tag k="name" v="Grinihagen" />
		<tag k="place" v="farm" />
		<tag k="ssr:stedsnr" v="890287" />
	</node>
	<node lat="59.31293610989184" lon="9.09747777355361" id="-52391">
		<tag k="name" v="Lia" />
		<tag k="place" v="farm" />
		<tag k="ssr:stedsnr" v="890732" />
	</node>
	<node lat="59.29610000154906" lon="9.098355561909209" id="-52392">
		<tag k="building" v="industrial" />
		<tag k="industrial" v="factory" />
		<tag k="name" v="A/S Brattsberg teglverk" />
		<tag k="ssr:stedsnr" v="890734" />
	</node>
	<node lat="59.308786397987475" lon="9.112697147387209" id="-52394">
		<tag k="fixme" v="consider place=hamlet" />
		<tag k="name" v="Nedre Lunde" />
		<tag k="place" v="farm" />
		<tag k="ssr:stedsnr" v="890753" />
	</node>
	<node lat="59.2926833291483" lon="9.133086108761246" id="-52395">
		<tag k="name" v="Løkslid" />
		<tag k="place" v="farm" />
		<tag k="ssr:stedsnr" v="890763" />
	</node>
	<node lat="59.323222218730145" lon="9.00433888970857" id="-52398">
		<tag k="name" v="Hegna" />
		<tag k="place" v="farm" />
		<tag k="ssr:stedsnr" v="691337" />
	</node>
	<node lat="59.31993055360825" lon="9.11711389411237" id="-52402">
		<tag k="name" v="Bergland" />
		<tag k="place" v="farm" />
		<tag k="ssr:stedsnr" v="692084" />
	</node>
	<node lat="59.263444441801674" lon="9.325358330682308" id="-52404">
		<tag k="name" v="Namløs" />
		<tag k="place" v="farm" />
		<tag k="ssr:stedsnr" v="692204" />
	</node>
	<node lat="59.233869440460516" lon="9.38150555680455" id="-52406">
		<tag k="name" v="Gråten" />
		<tag k="place" v="farm" />
		<tag k="ssr:stedsnr" v="692182" />
	</node>
	<node lat="59.26491110959113" lon="9.329622221283046" id="-52408">
		<tag k="name" v="Fossheim" />
		<tag k="place" v="farm" />
		<tag k="ssr:stedsnr" v="692194" />
	</node>
	<node lat="59.31969444117988" lon="9.110855552688133" id="-52411">
		<tag k="name" v="Mjaugedal" />
		<tag k="place" v="farm" />
		<tag k="ssr:stedsnr" v="692773" />
	</node>
	<node lat="59.32743055660195" lon="9.084636106077035" id="-52413">
		<tag k="name" v="Østerholt" />
		<tag k="place" v="farm" />
		<tag k="ssr:stedsnr" v="692779" />
	</node>
	<node lat="59.24499444774813" lon="9.38132222622085" id="-52414">
		<tag k="name" v="Huset" />
		<tag k="place" v="farm" />
		<tag k="ssr:stedsnr" v="693474" />
	</node>
	<node lat="59.35317777731693" lon="9.110827772722365" id="-52419">
		<tag k="name" v="Søndre Norem" />
		<tag k="place" v="farm" />
		<tag k="ssr:stedsnr" v="704170" />
	</node>
	<node lat="59.36036388780471" lon="9.110658342000821" id="-52420">
		<tag k="name" v="Søndre Norem" />
		<tag k="place" v="farm" />
		<tag k="ssr:stedsnr" v="704175" />
	</node>
	<node lat="59.29586666707364" lon="9.088647228913159" id="-52423">
		<tag k="building" v="industrial" />
		<tag k="industrial" v="factory" />
		<tag k="name" v="Golten industri A/S" />
		<tag k="ssr:stedsnr" v="708703" />
	</node>
	<node lat="59.29499999609078" lon="9.084258341691935" id="-52424">
		<tag k="building" v="industrial" />
		<tag k="name" v="Verpe sagbruk" />
		<tag k="ssr:stedsnr" v="708708" />
	</node>
	<node lat="59.2792027785952" lon="9.261358336660455" id="-52432">
		<tag k="amenity" v="school" />
		<tag k="name" v="Holla ungdomsskole" />
		<tag k="ssr:stedsnr" v="723105" />
	</node>
	<node lat="59.27341389211177" lon="9.258647215939025" id="-52441">
		<tag k="amenity" v="school" />
		<tag k="name" v="Berget skole" />
		<tag k="ssr:stedsnr" v="723880" />
	</node>
	<node lat="59.27208611379865" lon="9.251511109127355" id="-52442">
		<tag k="name" v="Espevalen" />
		<tag k="place" v="farm" />
		<tag k="ssr:stedsnr" v="723882" />
	</node>
	<node lat="59.32811388582904" lon="8.998788888878051" id="-52449">
		<tag k="name" v="Berge" />
		<tag k="place" v="farm" />
		<tag k="ssr:stedsnr" v="730217" />
	</node>
	<node lat="59.28693333767594" lon="9.10216667134202" id="-52459">
		<tag k="name" v="Svenskerud" />
		<tag k="place" v="farm" />
		<tag k="ssr:stedsnr" v="905354" />
	</node>
	<node lat="59.325655554575334" lon="8.999561105398488" id="-52461">
		<tag k="name" v="Roheim" />
		<tag k="place" v="quarter" />
		<tag k="ssr:stedsnr" v="752060" />
	</node>
	<node lat="59.29774999885239" lon="9.054508329541424" id="-52462">
		<tag k="name" v="Verpe" />
		<tag k="place" v="farm" />
		<tag k="ssr:stedsnr" v="752210" />
	</node>
	<node lat="59.30282499601138" lon="9.046566673437471" id="-52463">
		<tag k="name" v="Turidskås" />
		<tag k="place" v="farm" />
		<tag k="ssr:stedsnr" v="752222" />
	</node>
	<node lat="59.31826666897384" lon="9.120749997921465" id="-52467">
		<tag k="name" v="Granheim" />
		<tag k="place" v="farm" />
		<tag k="ssr:stedsnr" v="753055" />
	</node>
	<node lat="59.261047218402894" lon="8.854888889681089" id="-52471">
		<tag k="name" v="Fjellstul" />
		<tag k="place" v="locality" />
		<tag k="ssr:stedsnr" v="753470" />
	</node>
	<node lat="59.36009167067383" lon="9.072588895996919" id="-52472">
		<tag k="name" v="Slåttun" />
		<tag k="place" v="farm" />
		<tag k="ssr:stedsnr" v="753604" />
	</node>
	<node lat="59.23373610731705" lon="9.383902781035987" id="-52473">
		<tag k="name" v="Lille Klovdal" />
		<tag k="place" v="farm" />
		<tag k="ssr:stedsnr" v="753368" />
	</node>
	<node lat="59.240875004411215" lon="9.309091662827976" id="-52478">
		<tag k="name" v="Jøntvedtseter" />
		<tag k="place" v="locality" />
		<tag k="ssr:stedsnr" v="753867" />
	</node>
	<node lat="59.30865832889747" lon="9.197147224709365" id="-52483">
		<tag k="name" v="Goti" />
		<tag k="place" v="farm" />
		<tag k="ssr:stedsnr" v="755702" />
	</node>
	<node lat="59.312911114262604" lon="9.189213894323023" id="-52488">
		<tag k="name" v="Funnemark" />
		<tag k="place" v="farm" />
		<tag k="ssr:stedsnr" v="905537" />
	</node>
	<node lat="59.182822222702114" lon="9.190188882555976" id="-52496">
		<tag k="name" v="Auretjønnstua" />
		<tag k="place" v="locality" />
		<tag k="ssr:stedsnr" v="905845" />
	</node>
	<node lat="59.279330553370166" lon="9.270569436906715" id="-52501">
		<tag k="amenity" v="nursing_home" />
		<tag k="name" v="Holla trygdeheim" />
		<tag k="ssr:stedsnr" v="906088" />
	</node>
	<node lat="59.27662777793703" lon="9.324738889476476" id="-52502">
		<tag k="name" v="Hagen" />
		<tag k="place" v="farm" />
		<tag k="ssr:stedsnr" v="769132" />
	</node>
	<node lat="59.274049998321225" lon="9.332402771348498" id="-52503">
		<tag k="name" v="Kasin" />
		<tag k="place" v="farm" />
		<tag k="ssr:stedsnr" v="769135" />
	</node>
	<node lat="59.30032777360733" lon="9.103691675179512" id="-52504">
		<tag k="amenity" v="school" />
		<tag k="name" v="Lunde videregående skole" />
		<tag k="ssr:stedsnr" v="769708" />
	</node>
	<node lat="59.165222219466386" lon="9.189513896884074" id="-52516">
		<tag k="name" v="Cappelens skoger" />
		<tag k="place" v="locality" />
		<tag k="ssr:stedsnr" v="783861" />
	</node>
	<node lat="59.28605833078309" lon="9.257969446509414" id="-52518">
		<tag k="building" v="industrial" />
		<tag k="industrial" v="factory" />
		<tag k="name" v="Aall-Ulefoss brug" />
		<tag k="ssr:stedsnr" v="784115" />
	</node>
	<node lat="59.27118610686011" lon="9.260222214855585" id="-52520">
		<tag k="name" v="Kåsa" />
		<tag k="place" v="farm" />
		<tag k="ssr:stedsnr" v="784917" />
	</node>
	<node lat="59.216666663462135" lon="9.184155557138364" id="-52522">
		<tag k="name" v="Røysland" />
		<tag k="place" v="farm" />
		<tag k="ssr:stedsnr" v="790412" />
	</node>
	<node lat="59.22351447670705" lon="9.313650142425155" id="-52524">
		<tag k="alt_name" v="Tinnholtstølen" />
		<tag k="historic" v="shieling" />
		<tag k="name" v="Tønnestulen" />
		<tag k="place" v="isolated_dwelling" />
		<tag k="ssr:stedsnr" v="790940" />
	</node>
	<node lat="59.289844447706834" lon="9.079691660786745" id="-52527">
		<tag k="alt_name" v="Stavsholt" />
		<tag k="name" v="Stavshol" />
		<tag k="place" v="farm" />
		<tag k="ssr:stedsnr" v="791139" />
	</node>
	<node lat="59.256105552161515" lon="9.150827780677623" id="-52528">
		<tag k="name" v="Glenna" />
		<tag k="place" v="farm" />
		<tag k="ssr:stedsnr" v="791093" />
	</node>
	<node lat="59.19399023291459" lon="9.222556453987131" id="-52532">
		<tag k="name" v="Himingen" />
		<tag k="place" v="locality" />
		<tag k="ssr:stedsnr" v="911876" />
	</node>
	<node lat="59.292297220155284" lon="9.266061109750236" id="-52533">
		<tag k="name" v="Kvernodden" />
		<tag k="place" v="farm" />
		<tag k="ssr:stedsnr" v="791706" />
	</node>
	<node lat="59.237286107048334" lon="9.400844449391528" id="-52535">
		<tag k="name" v="Langeland" />
		<tag k="place" v="farm" />
		<tag k="ssr:stedsnr" v="912041" />
	</node>
	<node lat="59.312922222585726" lon="9.02906944130857" id="-52537">
		<tag k="name" v="Moen" />
		<tag k="place" v="farm" />
		<tag k="ssr:stedsnr" v="912193" />
	</node>
	<node lat="59.2272933381209" lon="9.313195024781747" id="-52541">
		<tag k="alt_name" v="Kolstadsætra" />
		<tag k="historic" v="shieling" />
		<tag k="name" v="Kolstadseter" />
		<tag k="place" v="isolated_dwelling" />
		<tag k="ssr:stedsnr" v="912934" />
	</node>
	<node lat="59.25245555922187" lon="9.154897217495451" id="-52542">
		<tag k="name" v="Holtet" />
		<tag k="place" v="farm" />
		<tag k="ssr:stedsnr" v="913071" />
	</node>
	<node lat="59.30916111464573" lon="9.133761104249942" id="-52544">
		<tag k="name" v="Evju" />
		<tag k="place" v="farm" />
		<tag k="ssr:stedsnr" v="913171" />
	</node>
	<node lat="59.33905833576359" lon="8.898113891327016" id="-52545">
		<tag k="alt_name" v="Stulen, austre" />
		<tag k="name" v="Østre Stulen" />
		<tag k="place" v="isolated_dwelling" />
		<tag k="ssr:stedsnr" v="913257" />
	</node>
	<node lat="59.346419445217236" lon="9.051866662012715" id="-52547">
		<tag k="name" v="Orekåsa" />
		<tag k="place" v="farm" />
		<tag k="ssr:stedsnr" v="913264" />
	</node>
	<node lat="59.345133330591025" lon="9.057483332633163" id="-52548">
		<tag k="alt_name" v="Kåsine" />
		<tag k="name" v="Kåsene" />
		<tag k="place" v="farm" />
		<tag k="ssr:stedsnr" v="913267" />
	</node>
	<node lat="59.26615000409772" lon="9.292150008092426" id="-52549">
		<tag k="alt_name" v="Vipeto, øvre;Vibeto øvre" />
		<tag k="fixme" v="consider place=hamlet" />
		<tag k="name" v="Øvre Vibeto" />
		<tag k="place" v="farm" />
		<tag k="ssr:stedsnr" v="913601" />
	</node>
	<node lat="59.31523610879419" lon="9.028041663558934" id="-52552">
		<tag k="name" v="Kåsa" />
		<tag k="place" v="farm" />
		<tag k="ssr:stedsnr" v="813290" />
	</node>
	<node lat="59.26828333237339" lon="9.296130564085143" id="-52557">
		<tag k="name" v="Rauhaug" />
		<tag k="place" v="farm" />
		<tag k="ssr:stedsnr" v="814214" />
	</node>
	<node lat="59.25688889282838" lon="9.35158055476341" id="-52559">
		<tag k="name" v="Stigen" />
		<tag k="place" v="locality" />
		<tag k="ssr:stedsnr" v="814313" />
	</node>
	<node lat="59.25260833513222" lon="9.384836116314995" id="-52561">
		<tag k="fixme" v="consider place=hamlet" />
		<tag k="name" v="Stenstadvalen" />
		<tag k="place" v="farm" />
		<tag k="ssr:stedsnr" v="814326" />
	</node>
	<node lat="59.23095555192453" lon="9.388288882334553" id="-52563">
		<tag k="name" v="Tinholt" />
		<tag k="place" v="farm" />
		<tag k="ssr:stedsnr" v="814455" />
	</node>
	<node lat="59.31053055131373" lon="9.199105560551573" id="-52568">
		<tag k="name" v="Goti" />
		<tag k="place" v="farm" />
		<tag k="ssr:stedsnr" v="815681" />
	</node>
	<node lat="59.299766663847564" lon="9.076141667323082" id="-52570">
		<tag k="name" v="Standeren" />
		<tag k="place" v="farm" />
		<tag k="ssr:stedsnr" v="830728" />
	</node>
	<node lat="59.214472222400865" lon="9.184958336265309" id="-52576">
		<tag k="name" v="Røyslandkåsa" />
		<tag k="place" v="farm" />
		<tag k="ssr:stedsnr" v="830990" />
	</node>
	<node lat="59.21236111483139" lon="9.08336388966597" id="-52578">
		<tag k="name" v="Roholt" />
		<tag k="place" v="locality" />
		<tag k="ssr:stedsnr" v="844314" />
	</node>
	<node lat="59.29089444767718" lon="9.10671111882441" id="-52581">
		<tag k="name" v="Vassås" />
		<tag k="place" v="quarter" />
		<tag k="ssr:stedsnr" v="844379" />
	</node>
	<node lat="59.28756666690072" lon="9.074052778067015" id="-52583">
		<tag k="name" v="Hantomyra" />
		<tag k="place" v="farm" />
		<tag k="ssr:stedsnr" v="844489" />
	</node>
	<node lat="59.26712778127582" lon="9.264188887601051" id="-52593">
		<tag k="name" v="Holla hagen" />
		<tag k="place" v="farm" />
		<tag k="ssr:stedsnr" v="845093" />
	</node>
	<node lat="59.26729444781731" lon="9.25524722682703" id="-52594">
		<tag k="name" v="Utheim" />
		<tag k="place" v="farm" />
		<tag k="ssr:stedsnr" v="845095" />
	</node>
	<node lat="59.278308331823034" lon="9.099283337487499" id="-52599">
		<tag k="name" v="Moland" />
		<tag k="place" v="farm" />
		<tag k="ssr:stedsnr" v="852115" />
	</node>
	<node lat="59.306205552829695" lon="9.186347228064772" id="-52601">
		<tag k="fixme" v="consider place=hamlet" />
		<tag k="name" v="Fosse" />
		<tag k="place" v="farm" />
		<tag k="ssr:stedsnr" v="852165" />
	</node>
	<node lat="59.25583333642705" lon="9.055413883291466" id="-52602">
		<tag k="alt_name" v="Gånge" />
		<tag k="name" v="Gonge" />
		<tag k="place" v="isolated_dwelling" />
		<tag k="ssr:stedsnr" v="852084" />
	</node>
	<node lat="59.31996388520767" lon="8.976774994191882" id="-52603">
		<tag k="fixme" v="consider place=hamlet" />
		<tag k="name" v="Nes" />
		<tag k="place" v="farm" />
		<tag k="ssr:stedsnr" v="852209" />
	</node>
	<node lat="59.320886110313666" lon="9.193974995650196" id="-52604">
		<tag k="name" v="Gåserud" />
		<tag k="place" v="farm" />
		<tag k="ssr:stedsnr" v="852215" />
	</node>
	<node lat="59.328633331437196" lon="9.121094445880779" id="-52605">
		<tag k="name" v="Lindtveit" />
		<tag k="place" v="farm" />
		<tag k="ssr:stedsnr" v="852222" />
	</node>
	<node lat="59.31810277635555" lon="9.0381944417576" id="-52606">
		<tag k="name" v="Fjellstad" />
		<tag k="place" v="farm" />
		<tag k="ssr:stedsnr" v="852225" />
	</node>
	<node lat="59.204702606775214" lon="9.243027867296115" id="-52613">
		<tag k="historic" v="shieling" />
		<tag k="name" v="Viftingen" />
		<tag k="place" v="isolated_dwelling" />
		<tag k="ssr:stedsnr" v="870903" />
	</node>
	<node lat="59.29225555928709" lon="9.201563882963516" id="-52616">
		<tag k="name" v="Perskås" />
		<tag k="place" v="quarter" />
		<tag k="ssr:stedsnr" v="876763" />
	</node>
	<node lat="59.35126111543124" lon="9.05487777049868" id="-52619">
		<tag k="name" v="Smådalene" />
		<tag k="place" v="farm" />
		<tag k="ssr:stedsnr" v="934331" />
	</node>
	<node lat="59.24189999557725" lon="9.331355550215267" id="-52622">
		<tag k="historic" v="shieling" />
		<tag k="name" v="Helgjaseter" />
		<tag k="place" v="isolated_dwelling" />
		<tag k="ssr:stedsnr" v="934889" />
	</node>
	<node lat="59.26753889251222" lon="9.296847225145267" id="-52624">
		<tag k="name" v="Klokkerhavna" />
		<tag k="place" v="quarter" />
		<tag k="ssr:stedsnr" v="935160" />
	</node>
	<node lat="59.26486944008827" lon="9.300283340211527" id="-52625">
		<tag k="name" v="Fen" />
		<tag k="place" v="farm" />
		<tag k="ssr:stedsnr" v="935209" />
	</node>
	<node lat="59.27319721932399" lon="9.332222222414485" id="-52627">
		<tag k="name" v="Febakke" />
		<tag k="place" v="farm" />
		<tag k="ssr:stedsnr" v="890148" />
	</node>
	<node lat="59.21593610893829" lon="9.18514999297124" id="-52632">
		<tag k="name" v="Røysland nedre" />
		<tag k="place" v="farm" />
		<tag k="ssr:stedsnr" v="890917" />
	</node>
	<node lat="59.217242599098455" lon="9.24747185519648" id="-52633">
		<tag k="name" v="Teksle" />
		<tag k="place" v="locality" />
		<tag k="ssr:stedsnr" v="890899" />
	</node>
	<node lat="59.16183888992761" lon="9.248491661681095" id="-52643">
		<tag k="name" v="Neverstå" />
		<tag k="place" v="farm" />
		<tag k="ssr:stedsnr" v="905771" />
	</node>
	<node lat="59.359283330985264" lon="9.082541660827095" id="-52663">
		<tag k="name" v="Rønningen" />
		<tag k="place" v="farm" />
		<tag k="ssr:stedsnr" v="912325" />
	</node>
	<node lat="59.23661388465573" lon="9.163266674544806" id="-52665">
		<tag k="name" v="Hovland" />
		<tag k="place" v="farm" />
		<tag k="ssr:stedsnr" v="912399" />
	</node>
	<node lat="59.26706111194816" lon="9.304991659824166" id="-52667">
		<tag k="alt_name" v="Øvre Fen" />
		<tag k="fixme" v="consider place=hamlet" />
		<tag k="name" v="Fen" />
		<tag k="place" v="farm" />
		<tag k="ssr:stedsnr" v="912736" />
	</node>
	<node lat="59.25487777443793" lon="9.386077780630654" id="-52669">
		<tag k="alt_name" v="Steinstad, øvre;Stenstad" />
		<tag k="name" v="Øvre Steinstad" />
		<tag k="place" v="farm" />
		<tag k="ssr:stedsnr" v="912687" />
	</node>
	<node lat="59.33360833396499" lon="9.098044449157022" id="-52672">
		<tag k="name" v="Berge" />
		<tag k="place" v="farm" />
		<tag k="ssr:stedsnr" v="913216" />
	</node>
	<node lat="59.2605000028012" lon="9.273188884945021" id="-52674">
		<tag k="alt_name" v="Melteig" />
		<tag k="name" v="Mjølteig" />
		<tag k="place" v="farm" />
		<tag k="ssr:stedsnr" v="913604" />
	</node>
	<node lat="59.31765277869162" lon="9.138841662454036" id="-52680">
		<tag k="name" v="Solheim" />
		<tag k="place" v="farm" />
		<tag k="ssr:stedsnr" v="935073" />
	</node>
	<node lat="59.315616662312266" lon="9.032455558010735" id="-52682">
		<tag k="name" v="Saltevje" />
		<tag k="place" v="farm" />
		<tag k="ssr:stedsnr" v="935332" />
	</node>
	<node lat="59.245155552410985" lon="9.363641674167841" id="-52683">
		<tag k="name" v="Brøsdal" />
		<tag k="place" v="locality" />
		<tag k="ssr:stedsnr" v="936454" />
	</node>
	<node lat="59.274283335382826" lon="9.355613881823034" id="-52684">
		<tag k="name" v="Halverstå" />
		<tag k="place" v="farm" />
		<tag k="ssr:stedsnr" v="937708" />
	</node>
	<node lat="59.216488884830895" lon="9.184094450198614" id="-52686">
		<tag k="name" v="Røysland øvre" />
		<tag k="place" v="farm" />
		<tag k="ssr:stedsnr" v="951905" />
	</node>
	<node lat="59.22492500429141" lon="9.175972220455938" id="-52687">
		<tag k="name" v="Holtehagen" />
		<tag k="place" v="farm" />
		<tag k="ssr:stedsnr" v="951906" />
	</node>
	<node lat="59.28732500235637" lon="9.189116664748006" id="-52688">
		<tag k="name" v="Baksås" />
		<tag k="place" v="farm" />
		<tag k="ssr:stedsnr" v="951920" />
	</node>
	<node lat="59.28947222633612" lon="9.065386111365383" id="-52696">
		<tag k="name" v="Slåtta" />
		<tag k="place" v="farm" />
		<tag k="ssr:stedsnr" v="965499" />
	</node>
	<node lat="59.26464167115178" lon="9.254761103767644" id="-52703">
		<tag k="name" v="Nygårdsvold" />
		<tag k="place" v="farm" />
		<tag k="ssr:stedsnr" v="966087" />
	</node>
	<node lat="59.27650833345683" lon="9.24584722936698" id="-52704">
		<tag k="name" v="Tvara" />
		<tag k="place" v="quarter" />
		<tag k="ssr:stedsnr" v="966910" />
	</node>
	<node lat="59.270278386350114" lon="9.125840595856035" id="-52705">
		<tag k="fixme" v="consider place=hamlet" />
		<tag k="name" v="Østre Tyri" />
		<tag k="place" v="farm" />
		<tag k="ssr:stedsnr" v="982797" />
	</node>
	<node lat="59.288051596994734" lon="9.18174786133704" id="-52706">
		<tag k="fixme" v="consider place=hamlet" />
		<tag k="name" v="Bakke-Susås" />
		<tag k="place" v="farm" />
		<tag k="ssr:stedsnr" v="982801" />
	</node>
	<node lat="59.29450741254597" lon="9.212614832173493" id="-52707">
		<tag k="fixme" v="consider place=hamlet" />
		<tag k="name" v="Øvre Eie" />
		<tag k="place" v="farm" />
		<tag k="ssr:stedsnr" v="982802" />
	</node>
	<node lat="59.2868079261605" lon="9.223546149304818" id="-52708">
		<tag k="fixme" v="consider place=hamlet" />
		<tag k="name" v="Nedre Eie" />
		<tag k="place" v="farm" />
		<tag k="ssr:stedsnr" v="982803" />
	</node>
	<node lat="59.278506840206965" lon="9.229610175595218" id="-52709">
		<tag k="fixme" v="consider place=hamlet" />
		<tag k="name" v="Østre Heisholt" />
		<tag k="place" v="farm" />
		<tag k="ssr:stedsnr" v="982804" />
	</node>
	<node lat="59.27430399247783" lon="9.231980295106622" id="-52710">
		<tag k="fixme" v="consider place=hamlet" />
		<tag k="name" v="Vestre Heisholt" />
		<tag k="place" v="farm" />
		<tag k="ssr:stedsnr" v="982805" />
	</node>
	<node lat="59.275623098731195" lon="9.230529313193546" id="-52711">
		<tag k="name" v="Heisholt" />
		<tag k="place" v="hamlet" />
		<tag k="ssr:stedsnr" v="982806" />
	</node>
	<node lat="59.2845686036093" lon="9.264994685298475" id="-52712">
		<tag k="fixme" v="consider place=hamlet" />
		<tag k="name" v="Holla jernverks grunn" />
		<tag k="place" v="farm" />
		<tag k="ssr:stedsnr" v="982807" />
	</node>
	<node lat="59.21717924069898" lon="9.247241390771658" id="-52713">
		<tag k="fixme" v="consider place=hamlet" />
		<tag k="name" v="Teksle" />
		<tag k="place" v="farm" />
		<tag k="ssr:stedsnr" v="982811" />
	</node>
	<node lat="59.22405747144706" lon="9.313100447320627" id="-52714">
		<tag k="fixme" v="consider place=hamlet" />
		<tag k="name" v="Tønnestulen" />
		<tag k="place" v="farm" />
		<tag k="ssr:stedsnr" v="982924" />
	</node>
	<node lat="59.367299379995806" lon="9.06248538060188" id="-52715">
		<tag k="name" v="Børte" />
		<tag k="place" v="hamlet" />
		<tag k="ssr:stedsnr" v="982939" />
	</node>
	<node lat="59.26308978111646" lon="9.277370622006902" id="-52716">
		<tag k="name" v="Håtveit" />
		<tag k="place" v="hamlet" />
		<tag k="ssr:stedsnr" v="982815" />
	</node>
	<node lat="59.27431361774409" lon="9.361752933214024" id="-52717">
		<tag k="fixme" v="consider place=hamlet" />
		<tag k="name" v="Lille Kolstad" />
		<tag k="place" v="farm" />
		<tag k="ssr:stedsnr" v="982838" />
	</node>
	<node lat="59.31791391444526" lon="9.00486734262441" id="-52723">
		<tag k="fixme" v="consider place=hamlet" />
		<tag k="name" v="Røymål" />
		<tag k="place" v="farm" />
		<tag k="ssr:stedsnr" v="2193" />
	</node>
	<node lat="59.17851388453925" lon="9.2288805622565" id="-52727">
		<tag k="alt_name" v="Sanna" />
		<tag k="fixme" v="consider place=hamlet" />
		<tag k="name" v="Sanda" />
		<tag k="place" v="farm" />
		<tag k="ssr:stedsnr" v="1999" />
	</node>
	<node lat="59.28585277487136" lon="9.08543888916996" id="-52728">
		<tag k="fixme" v="consider place=hamlet" />
		<tag k="name" v="Hanto" />
		<tag k="place" v="farm" />
		<tag k="ssr:stedsnr" v="2118" />
	</node>
	<node lat="59.288399995638926" lon="9.002761117125306" id="-52730">
		<tag k="alt_name" v="Bjørnemyra" />
		<tag k="name" v="Bjørnemyr" />
		<tag k="place" v="isolated_dwelling" />
		<tag k="ssr:stedsnr" v="2143" />
	</node>
	<node lat="59.30083333020441" lon="9.146336113363645" id="-52731">
		<tag k="name" v="Lia" />
		<tag k="place" v="farm" />
		<tag k="ssr:stedsnr" v="2148" />
	</node>
	<node lat="59.295383335979054" lon="9.191041661877643" id="-52732">
		<tag k="name" v="Rønningen" />
		<tag k="place" v="farm" />
		<tag k="ssr:stedsnr" v="2149" />
	</node>
	<node lat="59.25925833129316" lon="9.373247215751064" id="-52737">
		<tag k="name" v="Ytterbø" />
		<tag k="place" v="farm" />
		<tag k="ssr:stedsnr" v="2641" />
	</node>
	<node lat="59.26215555227887" lon="9.333388886910734" id="-52738">
		<tag k="alt_name" v="Hjøntveit, nordre;Jøntvedt;Nordre Jøntvedt" />
		<tag k="fixme" v="consider place=hamlet" />
		<tag k="name" v="Nordre Hjøntveit" />
		<tag k="place" v="farm" />
		<tag k="ssr:stedsnr" v="2645" />
	</node>
	<node lat="59.26003888753035" lon="9.335766663231128" id="-52739">
		<tag k="alt_name" v="Hjøntveit, midtre;Jøntvedt;Mellom Jøntvedt" />
		<tag k="fixme" v="consider place=hamlet" />
		<tag k="name" v="Midtre Hjøntveit" />
		<tag k="place" v="farm" />
		<tag k="ssr:stedsnr" v="2647" />
	</node>
	<node lat="59.258113889460496" lon="9.258402784243806" id="-52740">
		<tag k="name" v="Steinsrud" />
		<tag k="place" v="farm" />
		<tag k="ssr:stedsnr" v="2648" />
	</node>
	<node lat="59.27696388629373" lon="9.232372221652748" id="-52741">
		<tag k="name" v="Heisholt" />
		<tag k="place" v="hamlet" />
		<tag k="ssr:stedsnr" v="2688" />
	</node>
	<node lat="59.32750833627228" lon="9.08902777123453" id="-52752">
		<tag k="name" v="Svenseid søndre" />
		<tag k="place" v="farm" />
		<tag k="ssr:stedsnr" v="24777" />
	</node>
	<node lat="59.268211112200355" lon="9.34637500081495" id="-52754">
		<tag k="name" v="Kolstad" />
		<tag k="place" v="farm" />
		<tag k="ssr:stedsnr" v="25343" />
	</node>
	<node lat="59.267455552873294" lon="9.327905552302687" id="-52756">
		<tag k="name" v="Namløs" />
		<tag k="place" v="farm" />
		<tag k="ssr:stedsnr" v="25237" />
	</node>
	<node lat="59.2687277806721" lon="9.304508325508987" id="-52757">
		<tag k="name" v="Fen" />
		<tag k="place" v="farm" />
		<tag k="ssr:stedsnr" v="25241" />
	</node>
	<node lat="59.3152972260357" lon="9.251269443246333" id="-52762">
		<tag k="name" v="Sandnes" />
		<tag k="place" v="hamlet" />
		<tag k="ssr:stedsnr" v="27742" />
	</node>
	<node lat="59.27734444364109" lon="9.317266662192964" id="-52765">
		<tag k="name" v="Teigen" />
		<tag k="place" v="farm" />
		<tag k="ssr:stedsnr" v="40198" />
	</node>
	<node lat="59.278974998893645" lon="9.296225000493067" id="-52768">
		<tag k="name" v="Skippervold" />
		<tag k="place" v="farm" />
		<tag k="ssr:stedsnr" v="41139" />
	</node>
	<node lat="59.269222222141025" lon="9.32220277059651" id="-52769">
		<tag k="alt_name" v="Midtgård Namløs" />
		<tag k="fixme" v="consider place=hamlet" />
		<tag k="name" v="Namløs" />
		<tag k="place" v="farm" />
		<tag k="ssr:stedsnr" v="41147" />
	</node>
	<node lat="59.27090589153791" lon="9.123628957316223" id="-52772">
		<tag k="name" v="Tyri østre" />
		<tag k="place" v="farm" />
		<tag k="ssr:stedsnr" v="41624" />
	</node>
	<node lat="59.3104262379217" lon="9.113414410630494" id="-52776">
		<tag k="fixme" v="consider place=hamlet" />
		<tag k="name" v="Øvre Lunde" />
		<tag k="place" v="farm" />
		<tag k="ssr:stedsnr" v="41732" />
	</node>
	<node lat="59.311113885568304" lon="9.162283329845925" id="-52777">
		<tag k="name" v="Dalen" />
		<tag k="place" v="farm" />
		<tag k="ssr:stedsnr" v="41762" />
	</node>
	<node lat="59.30568055800353" lon="9.147569442135461" id="-52778">
		<tag k="alt_name" v="Barlaug hvilehjem" />
		<tag k="amenity" v="nursing_home" />
		<tag k="name" v="Barlaug" />
		<tag k="ssr:stedsnr" v="41763" />
	</node>
	<node lat="59.23648889236048" lon="9.218919451951198" id="-52789">
		<tag k="name" v="Grønnli" />
		<tag k="place" v="locality" />
		<tag k="ssr:stedsnr" v="55787" />
	</node>
	<node lat="59.189150000127256" lon="9.276158326120179" id="-52790">
		<tag k="name" v="Stallane" />
		<tag k="place" v="locality" />
		<tag k="ssr:stedsnr" v="55800" />
	</node>
	<node lat="59.26907778154604" lon="9.257388887899058" id="-52804">
		<tag k="name" v="Herregårdshavna" />
		<tag k="place" v="hamlet" />
		<tag k="ssr:stedsnr" v="56073" />
	</node>
	<node lat="59.26243889161349" lon="9.256738882113156" id="-52805">
		<tag k="name" v="Reine" />
		<tag k="place" v="farm" />
		<tag k="ssr:stedsnr" v="56075" />
	</node>
	<node lat="59.27365555244634" lon="9.269197216052321" id="-52806">
		<tag k="fixme" v="consider place=hamlet" />
		<tag k="name" v="Holla prestegård" />
		<tag k="place" v="farm" />
		<tag k="ssr:stedsnr" v="56084" />
	</node>
	<node lat="59.26954444395051" lon="9.26938889404857" id="-52807">
		<tag k="name" v="Holla gård" />
		<tag k="place" v="farm" />
		<tag k="ssr:stedsnr" v="56085" />
	</node>
	<node lat="59.31130555463605" lon="9.203161119329357" id="-52810">
		<tag k="name" v="Bergland" />
		<tag k="place" v="farm" />
		<tag k="ssr:stedsnr" v="63188" />
	</node>
	<node lat="59.31341667092257" lon="9.133622219176049" id="-52812">
		<tag k="name" v="Solli" />
		<tag k="place" v="farm" />
		<tag k="ssr:stedsnr" v="63197" />
	</node>
	<node lat="59.24612499916947" lon="9.374202773194568" id="-52814">
		<tag k="alt_name" v="Verstad" />
		<tag k="name" v="Værstad" />
		<tag k="place" v="farm" />
		<tag k="ssr:stedsnr" v="62037" />
	</node>
	<node lat="59.234475000331415" lon="9.378494440318592" id="-52816">
		<tag k="fixme" v="consider place=hamlet" />
		<tag k="name" v="Klovdal" />
		<tag k="place" v="farm" />
		<tag k="ssr:stedsnr" v="62050" />
	</node>
	<node lat="59.23873055992857" lon="9.091797216244878" id="-52819">
		<tag k="alt_name" v="Fekjane" />
		<tag k="name" v="Fitjane" />
		<tag k="place" v="isolated_dwelling" />
		<tag k="ssr:stedsnr" v="62386" />
	</node>
	<node lat="59.24051389176078" lon="9.152525000846675" id="-52820">
		<tag k="alt_name" v="Glettungstå" />
		<tag k="name" v="Galtungstå" />
		<tag k="place" v="farm" />
		<tag k="ssr:stedsnr" v="62407" />
	</node>
	<node lat="59.26392500128688" lon="9.302994439096723" id="-52823">
		<tag k="name" v="Bjørndalen" />
		<tag k="place" v="farm" />
		<tag k="ssr:stedsnr" v="63638" />
	</node>
	<node lat="59.265799998977336" lon="9.253849995637577" id="-52824">
		<tag k="name" v="Kåsa" />
		<tag k="place" v="farm" />
		<tag k="ssr:stedsnr" v="63640" />
	</node>
	<node lat="59.261027777795555" lon="9.25204166825951" id="-52825">
		<tag k="name" v="Moen" />
		<tag k="place" v="farm" />
		<tag k="ssr:stedsnr" v="63643" />
	</node>
	<node lat="59.29096000409838" lon="9.186088610470392" id="-52826">
		<tag k="alt_name" v="Bakås" />
		<tag k="name" v="Baksås" />
		<tag k="place" v="farm" />
		<tag k="ssr:stedsnr" v="63134" />
	</node>
	<node lat="59.28631944109018" lon="8.846616669096145" id="-52828">
		<tag k="alt_name" v="Nordvadet" />
		<tag k="name" v="Liane" />
		<tag k="place" v="isolated_dwelling" />
		<tag k="ssr:stedsnr" v="63157" />
	</node>
	<node lat="59.32638333680486" lon="9.017447228645619" id="-52831">
		<tag k="alt_name" v="Sundbø;Sundbø nordre" />
		<tag k="fixme" v="consider place=hamlet" />
		<tag k="name" v="Nordre Sundbø" />
		<tag k="place" v="farm" />
		<tag k="ssr:stedsnr" v="63230" />
	</node>
	<node lat="59.335916662677405" lon="9.088994451663227" id="-52833">
		<tag k="name" v="Svenseid" />
		<tag k="place" v="hamlet" />
		<tag k="ssr:stedsnr" v="63242" />
	</node>
	<node lat="59.26973888883689" lon="9.348400007251971" id="-52839">
		<tag k="name" v="Kolstad" />
		<tag k="place" v="farm" />
		<tag k="ssr:stedsnr" v="63707" />
	</node>
	<node lat="59.298780558509826" lon="9.260291659084281" id="-52840">
		<tag k="name" v="Mastebakke" />
		<tag k="place" v="farm" />
		<tag k="ssr:stedsnr" v="63795" />
	</node>
	<node lat="59.32134722474215" lon="9.235947221031017" id="-52842">
		<tag k="name" v="Ullevik" />
		<tag k="place" v="farm" />
		<tag k="ssr:stedsnr" v="63863" />
	</node>
	<node lat="59.36918611510528" lon="9.126452784887865" id="-52850">
		<tag k="name" v="Gamlestul" />
		<tag k="place" v="locality" />
		<tag k="ssr:stedsnr" v="85844" />
	</node>
	<node lat="59.227563886552076" lon="9.342191664493065" id="-52864">
		<tag k="name" v="Tollefstua" />
		<tag k="place" v="locality" />
		<tag k="ssr:stedsnr" v="86498" />
	</node>
	<node lat="59.33350555450852" lon="9.086797226523245" id="-52867">
		<tag k="name" v="Svenseid" />
		<tag k="place" v="farm" />
		<tag k="ssr:stedsnr" v="86765" />
	</node>
	<node lat="59.299158331958566" lon="9.261569440291053" id="-52873">
		<tag k="name" v="Romnes" />
		<tag k="place" v="farm" />
		<tag k="ssr:stedsnr" v="87740" />
	</node>
	<node lat="59.26542222207245" lon="9.126669442481559" id="-52875">
		<tag k="fixme" v="consider place=hamlet" />
		<tag k="name" v="Tyri vestre" />
		<tag k="place" v="farm" />
		<tag k="ssr:stedsnr" v="101623" />
	</node>
	<node lat="59.296622138380414" lon="9.10929848174048" id="-52882">
		<tag k="name" v="Bjervaåsen" />
		<tag k="place" v="quarter" />
		<tag k="ssr:stedsnr" v="101715" />
	</node>
	<node lat="59.281369442189806" lon="9.230991668993209" id="-52902">
		<tag k="name" v="Høgvoll" />
		<tag k="place" v="farm" />
		<tag k="ssr:stedsnr" v="117126" />
	</node>
	<node lat="59.273930554735536" lon="9.260486117343694" id="-52903">
		<tag k="name" v="Helgeroa" />
		<tag k="place" v="farm" />
		<tag k="ssr:stedsnr" v="117101" />
	</node>
	<node lat="59.26330293579883" lon="9.146536325938753" id="-52911">
		<tag k="name" v="Lauvodden" />
		<tag k="place" v="farm" />
		<tag k="ssr:stedsnr" v="123098" />
	</node>
	<node lat="59.309630558977425" lon="9.155927770618154" id="-52912">
		<tag k="fixme" v="consider place=hamlet" />
		<tag k="name" v="Tveitan" />
		<tag k="place" v="farm" />
		<tag k="ssr:stedsnr" v="123194" />
	</node>
	<node lat="59.35609444748262" lon="9.050297226151269" id="-52915">
		<tag k="name" v="Skigardkåsa" />
		<tag k="place" v="farm" />
		<tag k="ssr:stedsnr" v="123281" />
	</node>
	<node lat="59.31693676043986" lon="8.981888835773661" id="-52916">
		<tag k="name" v="Strengen" />
		<tag k="place" v="farm" />
		<tag k="ssr:stedsnr" v="123228" />
	</node>
	<node lat="59.32545278125632" lon="9.105322226828266" id="-52918">
		<tag k="name" v="Bøen" />
		<tag k="place" v="farm" />
		<tag k="ssr:stedsnr" v="123237" />
	</node>
	<node lat="59.3230444470061" lon="9.112508328485658" id="-52919">
		<tag k="name" v="Leikvoll" />
		<tag k="place" v="farm" />
		<tag k="ssr:stedsnr" v="123239" />
	</node>
	<node lat="59.36120278086115" lon="9.057341669676196" id="-52921">
		<tag k="name" v="Kleppe" />
		<tag k="place" v="farm" />
		<tag k="ssr:stedsnr" v="123336" />
	</node>
	<node lat="59.26726666362895" lon="9.316797226287909" id="-52925">
		<tag k="name" v="Einarhaugen" />
		<tag k="place" v="farm" />
		<tag k="ssr:stedsnr" v="123754" />
	</node>
	<node lat="59.281480553141094" lon="9.230100006976826" id="-52927">
		<tag k="alt_name" v="Kringlefett" />
		<tag k="name" v="Kringlefet" />
		<tag k="place" v="farm" />
		<tag k="ssr:stedsnr" v="124647" />
	</node>
	<node lat="59.29328889032706" lon="9.057772216235975" id="-52937">
		<tag k="name" v="Kåsene" />
		<tag k="place" v="farm" />
		<tag k="ssr:stedsnr" v="145268" />
	</node>
	<node lat="59.31445833103682" lon="9.170469448856927" id="-52942">
		<tag k="name" v="Grindrud" />
		<tag k="place" v="farm" />
		<tag k="ssr:stedsnr" v="146058" />
	</node>
	<node lat="59.26865000031207" lon="9.301297229176566" id="-52944">
		<tag k="name" v="Fen" />
		<tag k="place" v="farm" />
		<tag k="ssr:stedsnr" v="146156" />
	</node>
	<node lat="59.35825556006701" lon="9.076719452706103" id="-52947">
		<tag k="name" v="Stranna" />
		<tag k="place" v="farm" />
		<tag k="ssr:stedsnr" v="146558" />
	</node>
	<node lat="59.337106395440976" lon="9.101401056270365" id="-52949">
		<tag k="name" v="Kåsa" />
		<tag k="place" v="farm" />
		<tag k="ssr:stedsnr" v="146691" />
	</node>
	<node lat="59.30846666913277" lon="9.174316666356965" id="-52953">
		<tag k="fixme" v="consider place=hamlet" />
		<tag k="name" v="Apalnes" />
		<tag k="place" v="farm" />
		<tag k="ssr:stedsnr" v="148727" />
	</node>
	<node lat="59.322319446056746" lon="9.23553332516107" id="-52956">
		<tag k="name" v="Ullevika" />
		<tag k="place" v="farm" />
		<tag k="ssr:stedsnr" v="148736" />
	</node>
	<node lat="59.287549953414704" lon="9.207877083428317" id="-52958">
		<tag k="fixme" v="consider place=hamlet" />
		<tag k="name" v="Dagsrud" />
		<tag k="place" v="farm" />
		<tag k="ssr:stedsnr" v="148644" />
	</node>
	<node lat="59.29921666620698" lon="9.270363893216864" id="-52959">
		<tag k="name" v="Romnes" />
		<tag k="place" v="farm" />
		<tag k="ssr:stedsnr" v="148782" />
	</node>
	<node lat="59.35047499757" lon="9.089700008261174" id="-52960">
		<tag k="name" v="Søndre Norem" />
		<tag k="place" v="farm" />
		<tag k="ssr:stedsnr" v="158174" />
	</node>
	<node lat="59.35048055824008" lon="9.10575554879375" id="-52961">
		<tag k="name" v="Søndre Norem" />
		<tag k="place" v="farm" />
		<tag k="ssr:stedsnr" v="158177" />
	</node>
	<node lat="59.36146111194686" lon="9.084205553124297" id="-52962">
		<tag k="name" v="Norem vannverk" />
		<tag k="place" v="farm" />
		<tag k="ssr:stedsnr" v="158186" />
	</node>
	<node lat="59.301180558687214" lon="9.113274998952807" id="-52966">
		<tag k="name" v="Bua" />
		<tag k="place" v="quarter" />
		<tag k="ssr:stedsnr" v="162750" />
	</node>
	<node lat="59.26077221910741" lon="9.260291666709318" id="-52975">
		<tag k="name" v="Lommerud" />
		<tag k="place" v="farm" />
		<tag k="ssr:stedsnr" v="177074" />
	</node>
	<node lat="59.2879472263749" lon="9.257425003563467" id="-52977">
		<tag k="name" v="Strømodden" />
		<tag k="place" v="quarter" />
		<tag k="ssr:stedsnr" v="177101" />
	</node>
	<node lat="59.229883329775085" lon="9.082538887180574" id="-52995">
		<tag k="name" v="Åsland" />
		<tag k="place" v="isolated_dwelling" />
		<tag k="ssr:stedsnr" v="183380" />
	</node>
	<node lat="59.29451111492931" lon="9.083458339719813" id="-52996">
		<tag k="alt_name" v="Fiskodde" />
		<tag k="building" v="industrial" />
		<tag k="industrial" v="factory" />
		<tag k="name" v="Fiskeodden" />
		<tag k="ssr:stedsnr" v="184132" />
	</node>
	<node lat="59.192158334829145" lon="9.26425833461247" id="-52998">
		<tag k="name" v="Kverndalen" />
		<tag k="place" v="isolated_dwelling" />
		<tag k="ssr:stedsnr" v="183886" />
	</node>
	<node lat="59.21841666367027" lon="9.250500001014537" id="-53000">
		<tag k="name" v="Teksle" />
		<tag k="place" v="farm" />
		<tag k="ssr:stedsnr" v="183925" />
	</node>
	<node lat="59.29811111283312" lon="9.07418056001404" id="-53001">
		<tag k="name" v="Moen" />
		<tag k="place" v="isolated_dwelling" />
		<tag k="ssr:stedsnr" v="184162" />
	</node>
	<node lat="59.30173888608061" lon="9.07186944536592" id="-53002">
		<tag k="name" v="Stokken" />
		<tag k="place" v="farm" />
		<tag k="ssr:stedsnr" v="184168" />
	</node>
	<node lat="59.36850278043755" lon="9.04679166567796" id="-53006">
		<tag k="name" v="Nordskog" />
		<tag k="place" v="farm" />
		<tag k="ssr:stedsnr" v="184287" />
	</node>
	<node lat="59.3114722263576" lon="8.91620834210241" id="-53007">
		<tag k="alt_name" v="Åmnes" />
		<tag k="fixme" v="consider place=hamlet" />
		<tag k="name" v="Omnes" />
		<tag k="place" v="farm" />
		<tag k="ssr:stedsnr" v="184182" />
	</node>
	<node lat="59.27237499974892" lon="9.256233328065335" id="-53010">
		<tag k="name" v="Herregården" />
		<tag k="place" v="farm" />
		<tag k="ssr:stedsnr" v="184720" />
	</node>
	<node lat="59.226516670092565" lon="9.115055560477424" id="-53014">
		<tag k="name" v="Vomstulstua" />
		<tag k="place" v="locality" />
		<tag k="ssr:stedsnr" v="193420" />
	</node>
	<node lat="59.290077777540255" lon="9.043233331190839" id="-53016">
		<tag k="name" v="Haugane" />
		<tag k="place" v="locality" />
		<tag k="ssr:stedsnr" v="205214" />
	</node>
	<node lat="59.35344166310083" lon="9.038816671228822" id="-53022">
		<tag k="name" v="Lona" />
		<tag k="place" v="farm" />
		<tag k="ssr:stedsnr" v="206328" />
	</node>
	<node lat="59.3646944474052" lon="9.054086119385556" id="-53024">
		<tag k="fixme" v="consider place=hamlet" />
		<tag k="name" v="Kleppe øvre" />
		<tag k="place" v="farm" />
		<tag k="ssr:stedsnr" v="206428" />
	</node>
	<node lat="59.35154444812281" lon="9.060772214458726" id="-53026">
		<tag k="name" v="Kåsene" />
		<tag k="place" v="farm" />
		<tag k="ssr:stedsnr" v="206581" />
	</node>
	<node lat="59.32389444133873" lon="9.12731667038671" id="-53027">
		<tag k="name" v="Bjørndalen" />
		<tag k="place" v="farm" />
		<tag k="ssr:stedsnr" v="207054" />
	</node>
	<node lat="59.24631111500206" lon="9.389772216766465" id="-53030">
		<tag k="name" v="Bjørkholt" />
		<tag k="place" v="locality" />
		<tag k="ssr:stedsnr" v="207436" />
	</node>
	<node lat="59.32698610761836" lon="9.095588893327239" id="-53032">
		<tag k="name" v="Bergekåsa" />
		<tag k="place" v="farm" />
		<tag k="ssr:stedsnr" v="207769" />
	</node>
	<node lat="59.246250002251934" lon="9.381427775651492" id="-53036">
		<tag k="name" v="Værstad" />
		<tag k="place" v="farm" />
		<tag k="ssr:stedsnr" v="208462" />
	</node>
	<node lat="59.29067221782713" lon="9.210225006609464" id="-53039">
		<tag k="name" v="Nyhus" />
		<tag k="place" v="quarter" />
		<tag k="ssr:stedsnr" v="209760" />
	</node>
	<node lat="59.31051388821564" lon="9.265494448149921" id="-53040">
		<tag k="name" v="Deila" />
		<tag k="place" v="farm" />
		<tag k="ssr:stedsnr" v="209766" />
	</node>
	<node lat="59.30250000151352" lon="9.254438896170813" id="-53041">
		<tag k="name" v="Deilsbakke" />
		<tag k="old_name" v="Deisbakke" />
		<tag k="place" v="locality" />
		<tag k="ssr:stedsnr" v="209767" />
	</node>
	<node lat="59.300219442585664" lon="9.261138892615786" id="-53044">
		<tag k="name" v="Romnes" />
		<tag k="place" v="farm" />
		<tag k="ssr:stedsnr" v="209773" />
	</node>
	<node lat="59.288427781356695" lon="9.19247499899444" id="-53047">
		<tag k="name" v="Baksås" />
		<tag k="place" v="farm" />
		<tag k="ssr:stedsnr" v="223939" />
	</node>
	<node lat="59.303750000270355" lon="9.074677773220214" id="-53050">
		<tag k="name" v="Bjørndalen" />
		<tag k="place" v="farm" />
		<tag k="ssr:stedsnr" v="223753" />
	</node>
	<node lat="59.288686107536066" lon="9.225836117937085" id="-53058">
		<tag k="name" v="Stoa" />
		<tag k="place" v="quarter" />
		<tag k="ssr:stedsnr" v="283938" />
	</node>
	<node lat="59.290350003420365" lon="9.224650004820154" id="-53059">
		<tag k="name" v="Striken" />
		<tag k="place" v="farm" />
		<tag k="ssr:stedsnr" v="283939" />
	</node>
	<node lat="59.308397223517474" lon="9.118397217243567" id="-53062">
		<tag k="name" v="Lunde" />
		<tag k="place" v="farm" />
		<tag k="ssr:stedsnr" v="284661" />
	</node>
	<node lat="59.312988892574666" lon="9.130122226045101" id="-53063">
		<tag k="name" v="Kåsa" />
		<tag k="place" v="farm" />
		<tag k="ssr:stedsnr" v="284664" />
	</node>
	<node lat="59.301852774021675" lon="9.080572228912988" id="-53065">
		<tag k="name" v="Grotevju" />
		<tag k="place" v="farm" />
		<tag k="ssr:stedsnr" v="284757" />
	</node>
	<node lat="59.309797223173824" lon="9.2423861093065" id="-53091">
		<tag k="name" v="Kåsene" />
		<tag k="place" v="farm" />
		<tag k="ssr:stedsnr" v="305789" />
	</node>
	<node lat="59.24818055185967" lon="9.402569440808271" id="-53092">
		<tag k="name" v="Nesodden" />
		<tag k="place" v="farm" />
		<tag k="ssr:stedsnr" v="305034" />
	</node>
	<node lat="59.229919445121546" lon="9.403833326665076" id="-53093">
		<tag k="fixme" v="consider place=hamlet" />
		<tag k="name" v="Holtan" />
		<tag k="place" v="farm" />
		<tag k="ssr:stedsnr" v="305043" />
	</node>
	<node lat="59.31600000023896" lon="8.97820000697699" id="-53103">
		<tag k="alt_name" v="Ovastrøm" />
		<tag k="fixme" v="consider place=hamlet" />
		<tag k="name" v="Ovastraum" />
		<tag k="place" v="farm" />
		<tag k="ssr:stedsnr" v="305198" />
	</node>
	<node lat="59.32340555902975" lon="9.106983328042446" id="-53104">
		<tag k="name" v="Slåtta" />
		<tag k="place" v="farm" />
		<tag k="ssr:stedsnr" v="305208" />
	</node>
	<node lat="59.35293610664989" lon="9.055527780653156" id="-53105">
		<tag k="name" v="Dalen" />
		<tag k="place" v="farm" />
		<tag k="ssr:stedsnr" v="305271" />
	</node>
	<node lat="59.34266666965321" lon="9.099655562472783" id="-53111">
		<tag k="alt_name" v="Strand" />
		<tag k="name" v="Strond" />
		<tag k="place" v="farm" />
		<tag k="ssr:stedsnr" v="306228" />
	</node>
	<node lat="59.29291666719977" lon="8.841350000451763" id="-53113">
		<tag k="name" v="Grimnes" />
		<tag k="place" v="isolated_dwelling" />
		<tag k="ssr:stedsnr" v="305716" />
	</node>
	<node lat="59.22284444822391" lon="9.28780000372475" id="-53114">
		<tag k="alt_name" v="Håtveitsætra" />
		<tag k="historic" v="shieling" />
		<tag k="name" v="Håtveitseter" />
		<tag k="place" v="isolated_dwelling" />
		<tag k="ssr:stedsnr" v="305942" />
	</node>
	<node lat="59.29253333141729" lon="9.129694443894586" id="-53116">
		<tag k="alt_name" v="Skjellag" />
		<tag k="fixme" v="consider place=hamlet" />
		<tag k="name" v="Skjellaug" />
		<tag k="place" v="farm" />
		<tag k="ssr:stedsnr" v="306126" />
	</node>
	<node lat="59.34468610822491" lon="9.081383326460339" id="-53118">
		<tag k="alt_name" v="Kvåla" />
		<tag k="loc_name" v="Gvåla" />
		<tag k="name" v="Valen" />
		<tag k="place" v="farm" />
		<tag k="ssr:stedsnr" v="306259" />
	</node>
	<node lat="59.27925555930305" lon="9.282905551071137" id="-53121">
		<tag k="amenity" v="school" />
		<tag k="name" v="Søve videregående skole" />
		<tag k="ssr:stedsnr" v="306658" />
	</node>
	<node lat="59.28676388654724" lon="9.246955560576401" id="-53122">
		<tag k="fixme" v="consider place=hamlet" />
		<tag k="name" v="Ulefoss" />
		<tag k="place" v="farm" />
		<tag k="ssr:stedsnr" v="306659" />
	</node>
	<node lat="59.277144445381296" lon="9.292944436791588" id="-53123">
		<tag k="name" v="Fen" />
		<tag k="place" v="farm" />
		<tag k="ssr:stedsnr" v="306664" />
	</node>
	<node lat="59.316011108908455" lon="8.957161105041001" id="-53126">
		<tag k="name" v="Kittilskås" />
		<tag k="place" v="farm" />
		<tag k="ssr:stedsnr" v="327037" />
	</node>
	<node lat="59.35525000188264" lon="9.071208337831996" id="-53127">
		<tag k="name" v="Tjønnås" />
		<tag k="place" v="farm" />
		<tag k="ssr:stedsnr" v="327585" />
	</node>
	<node lat="59.319255558096984" lon="9.028416673255773" id="-53131">
		<tag k="name" v="Haugen" />
		<tag k="place" v="farm" />
		<tag k="ssr:stedsnr" v="328320" />
	</node>
	<node lat="59.316619442224734" lon="9.025802780004044" id="-53133">
		<tag k="name" v="Hegna" />
		<tag k="place" v="farm" />
		<tag k="ssr:stedsnr" v="328301" />
	</node>
	<node lat="59.34615278228859" lon="9.121858333058196" id="-53140">
		<tag k="name" v="Gamlestul" />
		<tag k="place" v="locality" />
		<tag k="ssr:stedsnr" v="328943" />
	</node>
	<node lat="59.33305000143421" lon="9.10641388656685" id="-53147">
		<tag k="name" v="Hegna" />
		<tag k="place" v="farm" />
		<tag k="ssr:stedsnr" v="329738" />
	</node>
	<node lat="59.327902781608486" lon="9.11521110522631" id="-53148">
		<tag k="fixme" v="consider place=hamlet" />
		<tag k="name" v="Helgetveit nedre" />
		<tag k="place" v="farm" />
		<tag k="ssr:stedsnr" v="329748" />
	</node>
	<node lat="59.30520833571018" lon="9.183108325217988" id="-53149">
		<tag k="name" v="Langjordet" />
		<tag k="place" v="farm" />
		<tag k="ssr:stedsnr" v="330746" />
	</node>
	<node lat="59.30192500171949" lon="9.182522220290778" id="-53150">
		<tag k="name" v="Kornkåsa" />
		<tag k="place" v="farm" />
		<tag k="ssr:stedsnr" v="330751" />
	</node>
	<node lat="59.27564999805577" lon="9.332008339705833" id="-53151">
		<tag k="name" v="Febakke" />
		<tag k="place" v="farm" />
		<tag k="ssr:stedsnr" v="344126" />
	</node>
	<node lat="59.276450001663314" lon="9.33448611034635" id="-53152">
		<tag k="name" v="Huset" />
		<tag k="place" v="farm" />
		<tag k="ssr:stedsnr" v="344132" />
	</node>
	<node lat="59.27350833435229" lon="9.307499992810172" id="-53153">
		<tag k="name" v="Grubehaugen" />
		<tag k="place" v="farm" />
		<tag k="ssr:stedsnr" v="344137" />
	</node>
	<node lat="59.27167778179533" lon="9.314011118559034" id="-53154">
		<tag k="name" v="Lillejordet" />
		<tag k="place" v="farm" />
		<tag k="ssr:stedsnr" v="344139" />
	</node>
	<node lat="59.30010277435927" lon="9.093472216426822" id="-53158">
		<tag k="leisure" v="pitch" />
		<tag k="name" v="Lunde idrettspark" />
		<tag k="ssr:stedsnr" v="344729" />
	</node>
	<node lat="59.29074520470113" lon="9.204810694621985" id="-53168">
		<tag k="name" v="Hestekåsbakke" />
		<tag k="place" v="quarter" />
		<tag k="ssr:stedsnr" v="344929" />
	</node>
	<node lat="59.28696110944591" lon="9.247552776918937" id="-53170">
		<tag k="name" v="Ulefoss gård" />
		<tag k="place" v="farm" />
		<tag k="ssr:stedsnr" v="359099" />
	</node>
	<node lat="59.279188890275215" lon="9.27190554846761" id="-53171">
		<tag k="name" v="Kamperhaug" />
		<tag k="place" v="quarter" />
		<tag k="ssr:stedsnr" v="359090" />
	</node>
	<node lat="59.20491044952922" lon="9.19439069829384" id="-53188">
		<tag k="name" v="Ugge" />
		<tag k="place" v="farm" />
		<tag k="ssr:stedsnr" v="365343" />
	</node>
	<node lat="59.30728888717587" lon="9.07102222434017" id="-53199">
		<tag k="name" v="Kittilsrud" />
		<tag k="place" v="farm" />
		<tag k="ssr:stedsnr" v="366171" />
	</node>
	<node lat="59.26184999578623" lon="9.37097223057109" id="-53203">
		<tag k="name" v="Hagen" />
		<tag k="place" v="farm" />
		<tag k="ssr:stedsnr" v="366637" />
	</node>
	<node lat="59.25117499629845" lon="9.388949994998569" id="-53204">
		<tag k="alt_name" v="Næset" />
		<tag k="name" v="Neset" />
		<tag k="place" v="farm" />
		<tag k="ssr:stedsnr" v="366674" />
	</node>
	<node lat="59.29252499864419" lon="9.043858333676637" id="-53214">
		<tag k="name" v="Kjeldal" />
		<tag k="place" v="farm" />
		<tag k="ssr:stedsnr" v="388242" />
	</node>
	<node lat="59.28900833738917" lon="9.056075006516442" id="-53220">
		<tag k="fixme" v="consider place=hamlet" />
		<tag k="name" v="Kleppe" />
		<tag k="place" v="farm" />
		<tag k="ssr:stedsnr" v="388151" />
	</node>
	<node lat="59.26320833601965" lon="9.331733333709316" id="-53222">
		<tag k="name" v="Jøntvedt" />
		<tag k="place" v="farm" />
		<tag k="ssr:stedsnr" v="388184" />
	</node>
	<node lat="59.319572221107464" lon="9.116808334492445" id="-53223">
		<tag k="name" v="Kåsene" />
		<tag k="place" v="farm" />
		<tag k="ssr:stedsnr" v="389071" />
	</node>
	<node lat="59.34874166385792" lon="9.054266674827383" id="-53224">
		<tag k="name" v="Orekåsa" />
		<tag k="place" v="farm" />
		<tag k="ssr:stedsnr" v="388337" />
	</node>
	<node lat="59.25178055601692" lon="9.403377775232908" id="-53228">
		<tag k="name" v="Sigurdsodden" />
		<tag k="place" v="locality" />
		<tag k="ssr:stedsnr" v="389316" />
	</node>
	<node lat="59.334541670032955" lon="9.103019438854234" id="-53233">
		<tag k="name" v="Jore" />
		<tag k="place" v="farm" />
		<tag k="ssr:stedsnr" v="389758" />
	</node>
	<node lat="59.33693610731839" lon="9.158561118795115" id="-53236">
		<tag k="name" v="Stiklemyr" />
		<tag k="place" v="locality" />
		<tag k="ssr:stedsnr" v="389884" />
	</node>
	<node lat="59.29470153292401" lon="9.172915309561201" id="-53238">
		<tag k="name" v="Oterkjær" />
		<tag k="place" v="farm" />
		<tag k="ssr:stedsnr" v="390689" />
	</node>
	<node lat="59.311186111977584" lon="9.178663891327652" id="-53239">
		<tag k="name" v="Kåsene" />
		<tag k="place" v="isolated_dwelling" />
		<tag k="ssr:stedsnr" v="390707" />
	</node>
	<node lat="59.294144448792615" lon="9.266161112289742" id="-53246">
		<tag k="name" v="Kvernodden" />
		<tag k="place" v="farm" />
		<tag k="ssr:stedsnr" v="391776" />
	</node>
	<node lat="59.359533332968866" lon="9.113416658246887" id="-53248">
		<tag k="name" v="Søndre Norem" />
		<tag k="place" v="farm" />
		<tag k="ssr:stedsnr" v="400167" />
	</node>
	<node lat="59.349019440461404" lon="9.087797217515583" id="-53249">
		<tag k="name" v="Søndre Norem" />
		<tag k="place" v="farm" />
		<tag k="ssr:stedsnr" v="401159" />
	</node>
	<node lat="59.272311113790444" lon="9.303063895867526" id="-53253">
		<tag k="amenity" v="school" />
		<tag k="name" v="Fen skole" />
		<tag k="ssr:stedsnr" v="405178" />
	</node>
	<node lat="59.28787499831243" lon="9.22734444151183" id="-53266">
		<tag k="name" v="Solhaug" />
		<tag k="place" v="farm" />
		<tag k="ssr:stedsnr" v="420109" />
	</node>
	<node lat="59.283063890931444" lon="9.23248888230376" id="-53267">
		<tag k="name" v="Solli" />
		<tag k="place" v="farm" />
		<tag k="ssr:stedsnr" v="420112" />
	</node>
	<node lat="59.270852780241334" lon="9.28135000030548" id="-53271">
		<tag k="name" v="Tuftehavna" />
		<tag k="place" v="quarter" />
		<tag k="ssr:stedsnr" v="420079" />
	</node>
	<node lat="59.27374166397524" lon="9.276441664934914" id="-53272">
		<tag k="name" v="Skjørholt" />
		<tag k="place" v="farm" />
		<tag k="ssr:stedsnr" v="420081" />
	</node>
	<node lat="59.27263610828255" lon="9.279361115658235" id="-53273">
		<tag k="name" v="Granheim" />
		<tag k="place" v="farm" />
		<tag k="ssr:stedsnr" v="420082" />
	</node>
	<node lat="59.28905277806541" lon="9.100175006220868" id="-53275">
		<tag k="name" v="Åse" />
		<tag k="place" v="farm" />
		<tag k="ssr:stedsnr" v="420373" />
	</node>
	<node lat="59.28981666495977" lon="9.09180278050275" id="-53277">
		<tag k="name" v="Haugane vestre" />
		<tag k="place" v="farm" />
		<tag k="ssr:stedsnr" v="420378" />
	</node>
	<node lat="59.20457500313471" lon="9.243911117690159" id="-53288">
		<tag k="name" v="Viftingen" />
		<tag k="place" v="locality" />
		<tag k="ssr:stedsnr" v="420866" />
	</node>
	<node lat="59.236597219253085" lon="9.42887778056187" id="-53293">
		<tag k="name" v="Munken" />
		<tag k="place" v="farm" />
		<tag k="ssr:stedsnr" v="426055" />
	</node>
	<node lat="59.28047777525147" lon="9.095744450715463" id="-53299">
		<tag k="name" v="Myre" />
		<tag k="place" v="farm" />
		<tag k="ssr:stedsnr" v="427120" />
	</node>
	<node lat="59.363147221229525" lon="9.081811115968973" id="-53300">
		<tag k="name" v="Tingstad" />
		<tag k="place" v="farm" />
		<tag k="ssr:stedsnr" v="427281" />
	</node>
	<node lat="59.269038886098635" lon="8.941927780481297" id="-53303">
		<tag k="alt_name" v="Ulvhildstul" />
		<tag k="name" v="Uvilstul" />
		<tag k="place" v="isolated_dwelling" />
		<tag k="ssr:stedsnr" v="427130" />
	</node>
	<node lat="59.28891666496768" lon="9.097102774401247" id="-53304">
		<tag k="name" v="Bø" />
		<tag k="place" v="farm" />
		<tag k="ssr:stedsnr" v="427139" />
	</node>
	<node lat="59.29493055267346" lon="9.209019440766202" id="-53306">
		<tag k="alt_name" v="Eidet" />
		<tag k="name" v="Eie vestre" />
		<tag k="place" v="farm" />
		<tag k="ssr:stedsnr" v="427157" />
	</node>
	<node lat="59.29854167034787" lon="9.19566111093213" id="-53307">
		<tag k="fixme" v="consider place=hamlet" />
		<tag k="name" v="Susås" />
		<tag k="place" v="farm" />
		<tag k="ssr:stedsnr" v="427160" />
	</node>
	<node lat="59.28832222269537" lon="8.888283330548825" id="-53308">
		<tag k="name" v="Ervingsdalen" />
		<tag k="place" v="isolated_dwelling" />
		<tag k="ssr:stedsnr" v="427163" />
	</node>
	<node lat="59.30242777571485" lon="8.955652782774129" id="-53309">
		<tag k="name" v="Venheim" />
		<tag k="place" v="isolated_dwelling" />
		<tag k="ssr:stedsnr" v="427166" />
	</node>
	<node lat="59.33336389150333" lon="9.112919444162577" id="-53313">
		<tag k="name" v="Lindem" />
		<tag k="place" v="farm" />
		<tag k="ssr:stedsnr" v="427254" />
	</node>
	<node lat="59.266080558264214" lon="9.335566669461137" id="-53319">
		<tag k="alt_name" v="Kolle, midtre;Kolle" />
		<tag k="name" v="Midtre Kolle" />
		<tag k="place" v="farm" />
		<tag k="ssr:stedsnr" v="427695" />
	</node>
	<node lat="59.25469999915809" lon="9.390419445754606" id="-53320">
		<tag k="alt_name" v="Eikestå" />
		<tag k="fixme" v="consider place=hamlet" />
		<tag k="name" v="Stenstad" />
		<tag k="place" v="farm" />
		<tag k="ssr:stedsnr" v="427659" />
	</node>
	<node lat="59.314905557662584" lon="9.088786102393842" id="-53327">
		<tag k="name" v="Lundtveit" />
		<tag k="place" v="farm" />
		<tag k="ssr:stedsnr" v="510837" />
	</node>
	<node lat="59.28996944579599" lon="8.925297225586174" id="-53331">
		<tag k="name" v="Røysa" />
		<tag k="place" v="locality" />
		<tag k="ssr:stedsnr" v="509301" />
	</node>
	<node lat="59.229930558821465" lon="9.35973889001002" id="-53334">
		<tag k="name" v="Nabben" />
		<tag k="place" v="isolated_dwelling" />
		<tag k="ssr:stedsnr" v="510474" />
	</node>
	<node lat="59.31839444187483" lon="9.240000002121626" id="-53336">
		<tag k="name" v="Sandnes" />
		<tag k="place" v="hamlet" />
		<tag k="ssr:stedsnr" v="510093" />
	</node>
	<node lat="59.256858331170854" lon="9.344636118175105" id="-53347">
		<tag k="name" v="Kåsa" />
		<tag k="place" v="isolated_dwelling" />
		<tag k="ssr:stedsnr" v="511280" />
	</node>
	<node lat="59.35081666846834" lon="9.086166666890897" id="-53352">
		<tag k="name" v="Norem" />
		<tag k="place" v="farm" />
		<tag k="ssr:stedsnr" v="522167" />
	</node>
	<node lat="59.30910555120792" lon="9.113724996382" id="-53354">
		<tag k="name" v="Lunde prestegård" />
		<tag k="place" v="farm" />
		<tag k="ssr:stedsnr" v="526742" />
	</node>
	<node lat="59.27745000272306" lon="9.316497214962949" id="-53355">
		<tag k="name" v="Kåsa" />
		<tag k="place" v="farm" />
		<tag k="ssr:stedsnr" v="526182" />
	</node>
	<node lat="59.27176944131664" lon="9.322500008622672" id="-53356">
		<tag k="name" v="Rognkås" />
		<tag k="place" v="farm" />
		<tag k="ssr:stedsnr" v="526137" />
	</node>
	<node lat="59.26833888811978" lon="9.254819441557053" id="-53366">
		<tag k="name" v="Vang" />
		<tag k="place" v="farm" />
		<tag k="ssr:stedsnr" v="541081" />
	</node>
	<node lat="59.28292222295578" lon="9.260855550041162" id="-53367">
		<tag k="name" v="Holden" />
		<tag k="ssr:stedsnr" v="541098" />
		<tag k="tourism" v="guest_house" />
	</node>
	<node lat="59.270702779785644" lon="9.255825000759364" id="-53382">
		<tag k="name" v="Herregårdshavna" />
		<tag k="place" v="hamlet" />
		<tag k="ssr:stedsnr" v="541922" />
	</node>
	<node lat="59.289316665425645" lon="9.180300001605104" id="-53383">
		<tag k="name" v="Nome" />
		<tag k="place" v="farm" />
		<tag k="ssr:stedsnr" v="541928" />
	</node>
	<node lat="59.292383332220545" lon="9.095688883611563" id="-53390">
		<tag k="name" v="Skoe" />
		<tag k="place" v="farm" />
		<tag k="ssr:stedsnr" v="548146" />
	</node>
	<node lat="59.296380553205466" lon="9.127883325505485" id="-53391">
		<tag k="fixme" v="consider place=hamlet" />
		<tag k="name" v="Ova" />
		<tag k="place" v="farm" />
		<tag k="ssr:stedsnr" v="548151" />
	</node>
	<node lat="59.26476110813415" lon="9.030916669409391" id="-53395">
		<tag k="historic" v="shieling" />
		<tag k="name" v="Eivindstul" />
		<tag k="place" v="isolated_dwelling" />
		<tag k="ssr:stedsnr" v="548096" />
	</node>
	<node lat="59.30361944446983" lon="9.209316672602494" id="-53397">
		<tag k="name" v="Moen" />
		<tag k="place" v="farm" />
		<tag k="ssr:stedsnr" v="548163" />
	</node>
	<node lat="59.32427222623776" lon="9.161102772329075" id="-53399">
		<tag k="name" v="Moen" />
		<tag k="place" v="isolated_dwelling" />
		<tag k="ssr:stedsnr" v="548222" />
	</node>
	<node lat="59.314980557994424" lon="9.035816659798757" id="-53400">
		<tag k="name" v="Elvestad" />
		<tag k="place" v="isolated_dwelling" />
		<tag k="ssr:stedsnr" v="548226" />
	</node>
	<node lat="59.27795278147732" lon="8.831297228501395" id="-53403">
		<tag k="alt_name" v="Knarrestulen" />
		<tag k="name" v="Knarrstul" />
		<tag k="place" v="isolated_dwelling" />
		<tag k="ssr:stedsnr" v="548533" />
	</node>
	<node lat="59.26158055689306" lon="9.350555558304574" id="-53404">
		<tag k="alt_name" v="Grønvold" />
		<tag k="name" v="Grønvoll" />
		<tag k="place" v="farm" />
		<tag k="ssr:stedsnr" v="548636" />
	</node>
	<node lat="59.26248055259257" lon="9.274222222195585" id="-53405">
		<tag k="alt_name" v="Lille Håtveit" />
		<tag k="fixme" v="consider place=hamlet" />
		<tag k="name" v="Håtveit" />
		<tag k="place" v="farm" />
		<tag k="ssr:stedsnr" v="548647" />
	</node>
	<node lat="59.32076944718758" lon="9.255902773985314" id="-53411">
		<tag k="name" v="Sandnes" />
		<tag k="place" v="farm" />
		<tag k="ssr:stedsnr" v="548858" />
	</node>
	<node lat="59.30064166623662" lon="9.203597221717525" id="-53414">
		<tag k="name" v="Vrangfoss" />
		<tag k="place" v="quarter" />
		<tag k="ssr:stedsnr" v="570084" />
	</node>
	<node lat="59.32210833251293" lon="9.127261111624533" id="-53416">
		<tag k="name" v="Bjørndalen" />
		<tag k="place" v="farm" />
		<tag k="ssr:stedsnr" v="570087" />
	</node>
	<node lat="59.311688886145724" lon="9.17068610928992" id="-53417">
		<tag k="name" v="Bakkane" />
		<tag k="place" v="farm" />
		<tag k="ssr:stedsnr" v="570091" />
	</node>
	<node lat="59.359141662224495" lon="9.063736110395663" id="-53424">
		<tag k="alt_name" v="Nedre Kleppe" />
		<tag k="fixme" v="consider place=hamlet" />
		<tag k="name" v="Kleppe" />
		<tag k="place" v="farm" />
		<tag k="ssr:stedsnr" v="570532" />
	</node>
	<node lat="59.37945278212554" lon="9.095011107708961" id="-53428">
		<tag k="name" v="Sveinungsbu" />
		<tag k="place" v="isolated_dwelling" />
		<tag k="ssr:stedsnr" v="570496" />
	</node>
	<node lat="59.27021944857874" lon="9.359866660703483" id="-53429">
		<tag k="name" v="Omtvedt" />
		<tag k="place" v="farm" />
		<tag k="ssr:stedsnr" v="570581" />
	</node>
	<node lat="59.34151944761983" lon="9.061863895421943" id="-53431">
		<tag k="fixme" v="consider place=hamlet" />
		<tag k="name" v="Suvdal" />
		<tag k="place" v="farm" />
		<tag k="ssr:stedsnr" v="570590" />
	</node>
	<node lat="59.22470278049041" lon="9.289200003421001" id="-53432">
		<tag k="name" v="Bergitsplass" />
		<tag k="place" v="locality" />
		<tag k="ssr:stedsnr" v="570733" />
	</node>
	<node lat="59.315238892916085" lon="9.127691664996888" id="-53433">
		<tag k="name" v="Hellestad" />
		<tag k="place" v="farm" />
		<tag k="ssr:stedsnr" v="571074" />
	</node>
	<node lat="59.25385555789208" lon="9.356227781714873" id="-53434">
		<tag k="name" v="Grinda" />
		<tag k="place" v="farm" />
		<tag k="ssr:stedsnr" v="571269" />
	</node>
	<node lat="59.23048610796204" lon="9.40712499205121" id="-53435">
		<tag k="name" v="Standjordet" />
		<tag k="place" v="locality" />
		<tag k="ssr:stedsnr" v="571441" />
	</node>
	<node lat="59.33417222440166" lon="9.089938890298363" id="-53436">
		<tag k="fixme" v="consider place=hamlet" />
		<tag k="name" v="Svenseid" />
		<tag k="place" v="farm" />
		<tag k="ssr:stedsnr" v="571737" />
	</node>
	<node lat="59.161072219100284" lon="9.248838896312385" id="-53438">
		<tag k="name" v="Neverstå" />
		<tag k="place" v="locality" />
		<tag k="ssr:stedsnr" v="574219" />
	</node>
	<node lat="59.349358335231564" lon="9.092333340070828" id="-53441">
		<tag k="name" v="Søndre Norem" />
		<tag k="place" v="farm" />
		<tag k="ssr:stedsnr" v="582137" />
	</node>
	<node lat="59.35444444599801" lon="9.087019446801618" id="-53442">
		<tag k="fixme" v="consider place=hamlet" />
		<tag k="name" v="Nordre Norem" />
		<tag k="place" v="farm" />
		<tag k="ssr:stedsnr" v="583138" />
	</node>
	<node lat="59.2748472239666" lon="9.290661115402749" id="-53444">
		<tag k="name" v="Nordheim" />
		<tag k="place" v="farm" />
		<tag k="ssr:stedsnr" v="586175" />
	</node>
	<node lat="59.30683333284675" lon="9.100758328130613" id="-53445">
		<tag k="amenity" v="school" />
		<tag k="name" v="Lunde skole" />
		<tag k="ssr:stedsnr" v="586723" />
	</node>
	<node lat="59.307838886393476" lon="9.108344451194679" id="-53446">
		<tag k="name" v="Bergstå" />
		<tag k="place" v="quarter" />
		<tag k="ssr:stedsnr" v="586729" />
	</node>
	<node lat="59.30648611146671" lon="9.13536944000028" id="-53447">
		<tag k="name" v="Vesleevju" />
		<tag k="place" v="farm" />
		<tag k="ssr:stedsnr" v="586650" />
	</node>
	<node lat="59.213591668971866" lon="9.264902770589991" id="-53449">
		<tag k="name" v="Vibeto-Svartufs" />
		<tag k="place" v="isolated_dwelling" />
		<tag k="ssr:stedsnr" v="586879" />
	</node>
	<node lat="59.23951944671964" lon="9.230591665185344" id="-53456">
		<tag k="name" v="Speiderhytta" />
		<tag k="place" v="isolated_dwelling" />
		<tag k="ssr:stedsnr" v="586991" />
	</node>
	<node lat="59.244427776068385" lon="9.38261943721103" id="-53468">
		<tag k="alt_name" v="Sørhuset" />
		<tag k="name" v="Sørhus" />
		<tag k="place" v="farm" />
		<tag k="ssr:stedsnr" v="608032" />
	</node>
	<node lat="59.26627499726786" lon="8.915263881838627" id="-53470">
		<tag k="name" v="Tveitstul" />
		<tag k="place" v="isolated_dwelling" />
		<tag k="ssr:stedsnr" v="608098" />
	</node>
	<node lat="59.30619444510634" lon="9.068719436972073" id="-53475">
		<tag k="name" v="Hegna" />
		<tag k="place" v="farm" />
		<tag k="ssr:stedsnr" v="608167" />
	</node>
	<node lat="59.317861114449855" lon="9.098261117664263" id="-53476">
		<tag k="fixme" v="consider place=hamlet" />
		<tag k="name" v="Enggrav" />
		<tag k="place" v="farm" />
		<tag k="ssr:stedsnr" v="608182" />
	</node>
	<node lat="59.27164721862365" lon="9.290891665483555" id="-53480">
		<tag k="name" v="Tufte" />
		<tag k="place" v="farm" />
		<tag k="ssr:stedsnr" v="608755" />
	</node>
	<node lat="59.22690555853391" lon="9.030858328560349" id="-53483">
		<tag k="alt_name" v="Sverdalstøl, nye" />
		<tag k="name" v="Nye Sverdalstøl" />
		<tag k="place" v="locality" />
		<tag k="ssr:stedsnr" v="608431" />
	</node>
	<node lat="59.287533330287275" lon="9.057905550232542" id="-53489">
		<tag k="name" v="Kleppe" />
		<tag k="place" v="farm" />
		<tag k="ssr:stedsnr" v="609150" />
	</node>
	<node lat="59.29832499619774" lon="9.102677777563999" id="-53491">
		<tag k="name" v="Lunde" />
		<tag k="place" v="village" />
		<tag k="ssr:stedsnr" v="609164" />
	</node>
	<node lat="59.34627777858384" lon="8.992330556953975" id="-53495">
		<tag k="name" v="Nystrand" />
		<tag k="place" v="isolated_dwelling" />
		<tag k="ssr:stedsnr" v="609267" />
	</node>
	<node lat="59.26250833075831" lon="9.256016671322206" id="-53497">
		<tag k="name" v="Gunnerud" />
		<tag k="place" v="farm" />
		<tag k="ssr:stedsnr" v="609599" />
	</node>
	<node lat="59.31836944673837" lon="9.242794445045755" id="-53498">
		<tag k="name" v="Sandnesmoen" />
		<tag k="place" v="farm" />
		<tag k="ssr:stedsnr" v="609716" />
	</node>
	<node lat="59.34545277595161" lon="8.965966674261331" id="-53499">
		<tag k="name" v="Kleiva" />
		<tag k="place" v="isolated_dwelling" />
		<tag k="ssr:stedsnr" v="630113" />
	</node>
	<node lat="59.35612777519209" lon="9.061444446980962" id="-53502">
		<tag k="name" v="Damtjønnhaugen" />
		<tag k="place" v="farm" />
		<tag k="ssr:stedsnr" v="630560" />
	</node>
	<node lat="59.334763893035024" lon="8.918905563850448" id="-53505">
		<tag k="name" v="Veungen" />
		<tag k="place" v="isolated_dwelling" />
		<tag k="ssr:stedsnr" v="631125" />
	</node>
	<node lat="59.31744167027346" lon="9.03203333562262" id="-53508">
		<tag k="name" v="Opheim" />
		<tag k="place" v="farm" />
		<tag k="ssr:stedsnr" v="631320" />
	</node>
	<node lat="59.32088888799718" lon="9.0267083315334" id="-53509">
		<tag k="name" v="Hegna" />
		<tag k="place" v="farm" />
		<tag k="ssr:stedsnr" v="631328" />
	</node>
	<node lat="59.313163888769864" lon="9.164591670644496" id="-53510">
		<tag k="name" v="Grindrud" />
		<tag k="place" v="farm" />
		<tag k="ssr:stedsnr" v="631066" />
	</node>
	<node lat="59.31922222159785" lon="9.12140277618719" id="-53511">
		<tag k="name" v="Gran" />
		<tag k="place" v="farm" />
		<tag k="ssr:stedsnr" v="631078" />
	</node>
	<node lat="59.33987499969917" lon="9.099211102718225" id="-53516">
		<tag k="fixme" v="consider natural=beach + surface=sand" />
		<tag k="leisure" v="swimming_area" />
		<tag k="name" v="Tjønnebotten" />
		<tag k="place" v="locality" />
		<tag k="ssr:stedsnr" v="631651" />
	</node>
	<node lat="59.24754444776378" lon="9.36926666429771" id="-53522">
		<tag k="name" v="Bjerva" />
		<tag k="place" v="farm" />
		<tag k="ssr:stedsnr" v="632323" />
	</node>
	<node lat="59.316163887070026" lon="9.24907778492243" id="-53524">
		<tag k="name" v="Sandnes" />
		<tag k="place" v="farm" />
		<tag k="ssr:stedsnr" v="633744" />
	</node>
	<node lat="59.292600000619075" lon="9.251397223447874" id="-53525">
		<tag k="name" v="Sannerholt" />
		<tag k="place" v="farm" />
		<tag k="ssr:stedsnr" v="634761" />
	</node>
	<node lat="59.29073934394059" lon="9.255173330406809" id="-53526">
		<tag k="name" v="Kastekåsa" />
		<tag k="place" v="farm" />
		<tag k="ssr:stedsnr" v="634762" />
	</node>
	<node lat="59.276691668141105" lon="9.332055554986793" id="-53529">
		<tag k="name" v="Fossberg" />
		<tag k="place" v="isolated_dwelling" />
		<tag k="ssr:stedsnr" v="647164" />
	</node>
	<node lat="59.20510555793498" lon="9.201633328160588" id="-53540">
		<tag k="name" v="Lauvbukta" />
		<tag k="place" v="farm" />
		<tag k="ssr:stedsnr" v="647984" />
	</node>
	<node lat="59.28804999807393" lon="9.230694440057711" id="-53554">
		<tag k="name" v="Odden" />
		<tag k="place" v="quarter" />
		<tag k="ssr:stedsnr" v="663121" />
	</node>
	<node lat="59.284744440493775" lon="9.233724991418729" id="-53555">
		<tag k="amenity" v="school" />
		<tag k="name" v="Heisholt skole" />
		<tag k="ssr:stedsnr" v="663122" />
	</node>
	<node lat="59.27261666629434" lon="9.259558339187294" id="-53557">
		<tag k="name" v="Berget" />
		<tag k="place" v="farm" />
		<tag k="ssr:stedsnr" v="663913" />
	</node>
	<node lat="59.25549999983831" lon="9.360727771114245" id="-53562">
		<tag k="alt_name" v="Helgja, vestre;Helgen;Vestre Helgen" />
		<tag k="fixme" v="consider place=hamlet" />
		<tag k="name" v="Vestre Helgja" />
		<tag k="place" v="farm" />
		<tag k="ssr:stedsnr" v="669664" />
	</node>
	<node lat="59.304263891782966" lon="8.985388895311672" id="-53565">
		<tag k="name" v="Stulslia" />
		<tag k="place" v="isolated_dwelling" />
		<tag k="ssr:stedsnr" v="669162" />
	</node>
	<node lat="59.31401388509219" lon="9.09581110852721" id="-53566">
		<tag k="name" v="Lia" />
		<tag k="place" v="farm" />
		<tag k="ssr:stedsnr" v="669168" />
	</node>
	<node lat="59.22651666334109" lon="9.11548888914118" id="-53569">
		<tag k="name" v="Vomstølen" />
		<tag k="place" v="isolated_dwelling" />
		<tag k="ssr:stedsnr" v="669442" />
	</node>
	<node lat="59.28874166762676" lon="9.177863892070036" id="-53571">
		<tag k="name" v="Evja" />
		<tag k="place" v="farm" />
		<tag k="ssr:stedsnr" v="670138" />
	</node>
	<node lat="59.30060833167861" lon="9.05347500420336" id="-53572">
		<tag k="name" v="Flåta" />
		<tag k="place" v="farm" />
		<tag k="ssr:stedsnr" v="670169" />
	</node>
	<node lat="59.34671666574874" lon="9.094366657985379" id="-53578">
		<tag k="name" v="Søndre Norem" />
		<tag k="place" v="farm" />
		<tag k="ssr:stedsnr" v="715127" />
	</node>
	<node lat="59.259702773799766" lon="9.264208339642433" id="-53579">
		<tag k="name" v="Briskemyr" />
		<tag k="place" v="isolated_dwelling" />
		<tag k="ssr:stedsnr" v="723088" />
	</node>
	<node lat="59.27688889024974" lon="9.259772229476878" id="-53580">
		<tag k="name" v="Nedre Dreier" />
		<tag k="place" v="farm" />
		<tag k="ssr:stedsnr" v="723099" />
	</node>
	<node lat="59.232047223839025" lon="9.221316665145748" id="-53586">
		<tag k="name" v="Cappelens skoger" />
		<tag k="place" v="locality" />
		<tag k="ssr:stedsnr" v="723769" />
	</node>
	<node lat="59.23017221849961" lon="9.222636104360832" id="-53587">
		<tag k="name" v="Nedre Brønndalen" />
		<tag k="place" v="locality" />
		<tag k="ssr:stedsnr" v="723774" />
	</node>
	<node lat="59.23102777793312" lon="9.213986117614635" id="-53588">
		<tag k="name" v="Øvre Brønndalen" />
		<tag k="place" v="farm" />
		<tag k="ssr:stedsnr" v="723775" />
	</node>
	<node lat="59.23234721925725" lon="9.38810278281363" id="-53593">
		<tag k="fixme" v="consider place=hamlet" />
		<tag k="name" v="Tinholt" />
		<tag k="place" v="farm" />
		<tag k="ssr:stedsnr" v="729051" />
	</node>
	<node lat="59.31910555633228" lon="9.087311119657224" id="-53596">
		<tag k="name" v="Bergan" />
		<tag k="place" v="farm" />
		<tag k="ssr:stedsnr" v="730200" />
	</node>
	<node lat="59.35413333527036" lon="9.051241666476779" id="-53597">
		<tag k="name" v="Lia" />
		<tag k="place" v="farm" />
		<tag k="ssr:stedsnr" v="730267" />
	</node>
	<node lat="59.284177777046295" lon="8.983699993481496" id="-53599">
		<tag k="name" v="Vårbu" />
		<tag k="place" v="isolated_dwelling" />
		<tag k="ssr:stedsnr" v="730123" />
	</node>
	<node lat="59.23260000021584" lon="9.162072224262815" id="-53603">
		<tag k="name" v="Sandstå" />
		<tag k="place" v="farm" />
		<tag k="ssr:stedsnr" v="730396" />
	</node>
	<node lat="59.27595637118311" lon="9.247651462555481" id="-53605">
		<tag k="fixme" v="consider place=hamlet" />
		<tag k="name" v="Tvara" />
		<tag k="place" v="farm" />
		<tag k="ssr:stedsnr" v="730769" />
	</node>
	<node lat="59.269275004008335" lon="9.269663893546268" id="-53606">
		<tag k="name" v="Holla" />
		<tag k="place" v="farm" />
		<tag k="ssr:stedsnr" v="730771" />
	</node>
	<node lat="59.283825000307736" lon="9.264583332814118" id="-53610">
		<tag k="name" v="Ulefoss" />
		<tag k="place" v="village" />
		<tag k="ssr:stedsnr" v="730757" />
	</node>
	<node lat="59.263304375763795" lon="9.3756513328235" id="-53617">
		<tag k="name" v="Nordstå" />
		<tag k="place" v="farm" />
		<tag k="ssr:stedsnr" v="731582" />
	</node>
	<node lat="59.26616944782309" lon="9.314347219413698" id="-53618">
		<tag k="name" v="Teigen" />
		<tag k="place" v="farm" />
		<tag k="ssr:stedsnr" v="731592" />
	</node>
	<node lat="59.248594447044205" lon="9.369524998022023" id="-53620">
		<tag k="name" v="Bjerva" />
		<tag k="place" v="farm" />
		<tag k="ssr:stedsnr" v="737667" />
	</node>
	<node lat="59.345419441436206" lon="8.989783341874467" id="-53623">
		<tag k="name" v="Solbu" />
		<tag k="place" v="isolated_dwelling" />
		<tag k="ssr:stedsnr" v="752095" />
	</node>
	<node lat="59.26726666362895" lon="9.316797226287909" id="-53631">
		<tag k="name" v="Einarhaugen" />
		<tag k="place" v="farm" />
		<tag k="ssr:stedsnr" v="753191" />
	</node>
	<node lat="59.33603333658582" lon="9.095916670078935" id="-53638">
		<tag k="amenity" v="school" />
		<tag k="name" v="Svenseid skole" />
		<tag k="ssr:stedsnr" v="753670" />
	</node>
	<node lat="59.31400277564946" lon="9.245722224388985" id="-53645">
		<tag k="name" v="Sandnes" />
		<tag k="place" v="farm" />
		<tag k="ssr:stedsnr" v="755734" />
	</node>
	<node lat="59.300386113781954" lon="9.275380562864981" id="-53647">
		<tag k="name" v="Romnes" />
		<tag k="place" v="farm" />
		<tag k="ssr:stedsnr" v="755771" />
	</node>
	<node lat="59.352113890856316" lon="9.082950007469833" id="-53648">
		<tag k="name" v="Nordre Norem" />
		<tag k="place" v="farm" />
		<tag k="ssr:stedsnr" v="765161" />
	</node>
	<node lat="59.35175833702715" lon="9.088155557340285" id="-53649">
		<tag k="name" v="Nordre Norem" />
		<tag k="place" v="farm" />
		<tag k="ssr:stedsnr" v="765164" />
	</node>
	<node lat="59.27317500199389" lon="9.302755549062288" id="-53651">
		<tag k="name" v="Fen" />
		<tag k="place" v="farm" />
		<tag k="ssr:stedsnr" v="769170" />
	</node>
	<node lat="59.27037777632675" lon="9.29068333691298" id="-53652">
		<tag k="fixme" v="consider place=hamlet" />
		<tag k="name" v="Tufte" />
		<tag k="place" v="farm" />
		<tag k="ssr:stedsnr" v="769173" />
	</node>
	<node lat="59.27752992163681" lon="9.293436754452426" id="-53653">
		<tag k="name" v="Roligheten" />
		<tag k="place" v="farm" />
		<tag k="ssr:stedsnr" v="769174" />
	</node>
	<node lat="59.20775833672298" lon="9.240191661953453" id="-53659">
		<tag k="name" v="Håvet" />
		<tag k="place" v="locality" />
		<tag k="ssr:stedsnr" v="769881" />
	</node>
	<node lat="59.21485833133228" lon="9.189624991397116" id="-53660">
		<tag k="name" v="Rønningen øvre" />
		<tag k="place" v="farm" />
		<tag k="ssr:stedsnr" v="769894" />
	</node>
	<node lat="59.27843056000846" lon="9.213324995967334" id="-53663">
		<tag k="name" v="Skedsmoen" />
		<tag k="place" v="farm" />
		<tag k="ssr:stedsnr" v="769928" />
	</node>
	<node lat="59.26699166330465" lon="9.259149998508706" id="-53685">
		<tag k="name" v="Myra" />
		<tag k="place" v="farm" />
		<tag k="ssr:stedsnr" v="784082" />
	</node>
	<node lat="59.28330833698396" lon="9.242074992134974" id="-53686">
		<tag k="name" v="Fiskestigen" />
		<tag k="place" v="locality" />
		<tag k="ssr:stedsnr" v="784123" />
	</node>
	<node lat="59.246883330841456" lon="9.364147221126546" id="-53687">
		<tag k="name" v="Rønningen" />
		<tag k="place" v="farm" />
		<tag k="ssr:stedsnr" v="790034" />
	</node>
	<node lat="59.250747221634946" lon="9.156133341185226" id="-53699">
		<tag k="name" v="Buverud" />
		<tag k="place" v="farm" />
		<tag k="ssr:stedsnr" v="791070" />
	</node>
	<node lat="59.2577138881534" lon="9.215036119194774" id="-53700">
		<tag k="alt_name" v="Setervang" />
		<tag k="name" v="Sætervang" />
		<tag k="place" v="isolated_dwelling" />
		<tag k="ssr:stedsnr" v="791073" />
	</node>
	<node lat="59.29309166490784" lon="9.034902769415584" id="-53703">
		<tag k="alt_name" v="Kjelddal" />
		<tag k="fixme" v="consider place=hamlet" />
		<tag k="name" v="Kjeldal" />
		<tag k="place" v="farm" />
		<tag k="ssr:stedsnr" v="791153" />
	</node>
	<node lat="59.29777222525253" lon="8.948836107313594" id="-53704">
		<tag k="alt_name" v="Venheim, vle" />
		<tag k="name" v="Vesle Venheim" />
		<tag k="place" v="isolated_dwelling" />
		<tag k="ssr:stedsnr" v="791166" />
	</node>
	<node lat="59.30690277451315" lon="9.085069438709846" id="-53706">
		<tag k="name" v="Odden" />
		<tag k="place" v="farm" />
		<tag k="ssr:stedsnr" v="791172" />
	</node>
	<node lat="59.318033334479864" lon="8.95080278545691" id="-53711">
		<tag k="alt_name" v="Roligheten" />
		<tag k="name" v="Roligheta" />
		<tag k="place" v="farm" />
		<tag k="ssr:stedsnr" v="791196" />
	</node>
	<node lat="59.31505277518754" lon="8.948838889400548" id="-53712">
		<tag k="name" v="Rekanes" />
		<tag k="place" v="farm" />
		<tag k="ssr:stedsnr" v="791202" />
	</node>
	<node lat="59.25443055112528" lon="9.376527784680952" id="-53715">
		<tag k="alt_name" v="Hagen" />
		<tag k="name" v="Ytterbø" />
		<tag k="place" v="farm" />
		<tag k="ssr:stedsnr" v="791667" />
	</node>
	<node lat="59.30523055860398" lon="9.253069452204352" id="-53717">
		<tag k="name" v="Skogen" />
		<tag k="place" v="farm" />
		<tag k="ssr:stedsnr" v="791787" />
	</node>
	<node lat="59.25918611468796" lon="9.36954722762968" id="-53718">
		<tag k="alt_name" v="Holen" />
		<tag k="name" v="Ytterbø" />
		<tag k="place" v="farm" />
		<tag k="ssr:stedsnr" v="791621" />
	</node>
	<node lat="59.32425000110558" lon="9.007361113224341" id="-53723">
		<tag k="fixme" v="consider place=hamlet" />
		<tag k="name" v="Gisholt" />
		<tag k="place" v="farm" />
		<tag k="ssr:stedsnr" v="812319" />
	</node>
	<node lat="59.33631606721841" lon="8.965407480361035" id="-53731">
		<tag k="name" v="Haugane" />
		<tag k="place" v="locality" />
		<tag k="ssr:stedsnr" v="813068" />
	</node>
	<node lat="59.35278611221263" lon="9.053308326953141" id="-53735">
		<tag k="name" v="Kåsa" />
		<tag k="place" v="farm" />
		<tag k="ssr:stedsnr" v="813323" />
	</node>
	<node lat="59.201044441638246" lon="9.281786104325882" id="-53741">
		<tag k="name" v="Stuverud" />
		<tag k="place" v="locality" />
		<tag k="ssr:stedsnr" v="813593" />
	</node>
	<node lat="59.316605559663934" lon="9.086416666286153" id="-53743">
		<tag k="name" v="Lundtveit" />
		<tag k="place" v="farm" />
		<tag k="ssr:stedsnr" v="813802" />
	</node>
	<node lat="59.36674444134949" lon="9.072277770234058" id="-53749">
		<tag k="name" v="Tjønnås" />
		<tag k="place" v="farm" />
		<tag k="ssr:stedsnr" v="814620" />
	</node>
	<node lat="59.3628611071137" lon="9.080100001116223" id="-53750">
		<tag k="name" v="Øygarden" />
		<tag k="place" v="farm" />
		<tag k="ssr:stedsnr" v="814621" />
	</node>
	<node lat="59.24066111257122" lon="9.37514999324571" id="-53754">
		<tag k="name" v="Hegnakåsa" />
		<tag k="place" v="locality" />
		<tag k="ssr:stedsnr" v="815452" />
	</node>
	<node lat="59.32225833315318" lon="9.198802770881668" id="-53755">
		<tag k="fixme" v="consider place=hamlet" />
		<tag k="name" v="Gåserud" />
		<tag k="place" v="farm" />
		<tag k="ssr:stedsnr" v="815518" />
	</node>
	<node lat="59.2715833295366" lon="9.318127772599986" id="-53758">
		<tag k="name" v="Røkstua" />
		<tag k="place" v="farm" />
		<tag k="ssr:stedsnr" v="830127" />
	</node>
	<node lat="59.31188333750362" lon="9.088377781281018" id="-53761">
		<tag k="name" v="Lundtveit" />
		<tag k="place" v="farm" />
		<tag k="ssr:stedsnr" v="830744" />
	</node>
	<node lat="59.29110297106324" lon="9.257561073996197" id="-53769">
		<tag k="name" v="Kaste" />
		<tag k="place" v="quarter" />
		<tag k="ssr:stedsnr" v="845117" />
	</node>
	<node lat="59.28412222037428" lon="9.258763883883592" id="-53770">
		<tag k="building" v="industrial" />
		<tag k="industrial" v="factory" />
		<tag k="name" v="Ulefoss Jernværk" />
		<tag k="ssr:stedsnr" v="845120" />
	</node>
	<node lat="59.26825555144489" lon="9.136638888449927" id="-53771">
		<tag k="amenity" v="school" />
		<tag k="name" v="Tyri skole" />
		<tag k="ssr:stedsnr" v="844628" />
	</node>
	<node lat="59.226986108937545" lon="9.245700003102987" id="-53787">
		<tag k="alt_name" v="Brennebu" />
		<tag k="name" v="Brennbu" />
		<tag k="place" v="farm" />
		<tag k="ssr:stedsnr" v="851948" />
	</node>
	<node lat="59.28721666938878" lon="9.11370277673629" id="-53788">
		<tag k="name" v="Dorholt" />
		<tag k="place" v="farm" />
		<tag k="ssr:stedsnr" v="852138" />
	</node>
	<node lat="59.29203611463071" lon="9.141874999509735" id="-53789">
		<tag k="alt_name" v="Søndre Hjamdal" />
		<tag k="fixme" v="consider place=hamlet" />
		<tag k="name" v="Hjamdal" />
		<tag k="place" v="farm" />
		<tag k="ssr:stedsnr" v="852141" />
	</node>
	<node lat="59.296297219018925" lon="9.191483335434606" id="-53790">
		<tag k="name" v="Brekke" />
		<tag k="place" v="farm" />
		<tag k="ssr:stedsnr" v="852157" />
	</node>
	<node lat="59.3261555539839" lon="8.989616669931133" id="-53792">
		<tag k="name" v="Tveit" />
		<tag k="place" v="farm" />
		<tag k="ssr:stedsnr" v="852235" />
	</node>
	<node lat="59.33599166798654" lon="9.105297223721612" id="-53793">
		<tag k="name" v="Lia" />
		<tag k="place" v="farm" />
		<tag k="ssr:stedsnr" v="852246" />
	</node>
	<node lat="59.294161108304266" lon="9.26361666931973" id="-53796">
		<tag k="name" v="Kverndokka" />
		<tag k="place" v="farm" />
		<tag k="ssr:stedsnr" v="852683" />
	</node>
	<node lat="59.2499916653924" lon="9.362516663501776" id="-53797">
		<tag k="name" v="Roa" />
		<tag k="place" v="farm" />
		<tag k="ssr:stedsnr" v="852647" />
	</node>
	<node lat="59.29228611442289" lon="9.046852778802082" id="-53799">
		<tag k="name" v="Kjeldal" />
		<tag k="place" v="hamlet" />
		<tag k="ssr:stedsnr" v="874110" />
	</node>
	<node lat="59.25881498185477" lon="9.339815911622447" id="-53800">
		<tag k="name" v="Haugjordet" />
		<tag k="place" v="farm" />
		<tag k="ssr:stedsnr" v="874131" />
	</node>
	<node lat="59.32449166632231" lon="8.89470000461864" id="-53801">
		<tag k="name" v="Heimare Omnesstul" />
		<tag k="place" v="locality" />
		<tag k="ssr:stedsnr" v="874153" />
	</node>
	<node lat="59.32293055325968" lon="9.020458333273556" id="-53804">
		<tag k="alt_name" v="Søndre Sundbø" />
		<tag k="fixme" v="consider place=hamlet" />
		<tag k="name" v="Sundbø" />
		<tag k="place" v="farm" />
		<tag k="ssr:stedsnr" v="873318" />
	</node>
	<node lat="59.32083332987871" lon="9.002397230064114" id="-53806">
		<tag k="name" v="Landstad" />
		<tag k="place" v="farm" />
		<tag k="ssr:stedsnr" v="874041" />
	</node>
	<node lat="59.31962777911055" lon="8.963894452069432" id="-53807">
		<tag k="name" v="Øygarden" />
		<tag k="place" v="farm" />
		<tag k="ssr:stedsnr" v="874073" />
	</node>
	<node lat="59.326602776119586" lon="8.985638888868602" id="-53809">
		<tag k="fixme" v="consider place=hamlet" />
		<tag k="name" v="Tveit" />
		<tag k="place" v="farm" />
		<tag k="ssr:stedsnr" v="874089" />
	</node>
	<node lat="59.3019972193986" lon="9.04718332945088" id="-53811">
		<tag k="name" v="Hogga" />
		<tag k="place" v="farm" />
		<tag k="ssr:stedsnr" v="874259" />
	</node>
	<node lat="59.2926777767698" lon="8.843841672366045" id="-53813">
		<tag k="name" v="Grimnes" />
		<tag k="place" v="isolated_dwelling" />
		<tag k="ssr:stedsnr" v="874282" />
	</node>
	<node lat="59.35575277350615" lon="9.057463892735235" id="-53816">
		<tag k="name" v="Haugane" />
		<tag k="place" v="farm" />
		<tag k="ssr:stedsnr" v="874370" />
	</node>
	<node lat="59.36732222002856" lon="9.059697223552828" id="-53819">
		<tag k="fixme" v="consider place=hamlet" />
		<tag k="name" v="Børte nedre" />
		<tag k="place" v="farm" />
		<tag k="ssr:stedsnr" v="874443" />
	</node>
	<node lat="59.353297222192005" lon="9.075580548954406" id="-53826">
		<tag k="name" v="Vilen" />
		<tag k="place" v="farm" />
		<tag k="ssr:stedsnr" v="874615" />
	</node>
	<node lat="59.229494445811696" lon="9.412002781239323" id="-53835">
		<tag k="name" v="Svea" />
		<tag k="place" v="locality" />
		<tag k="ssr:stedsnr" v="875441" />
	</node>
	<node lat="59.24075000030291" lon="9.319147229856107" id="-53836">
		<tag k="name" v="Gamleseter" />
		<tag k="place" v="locality" />
		<tag k="ssr:stedsnr" v="875863" />
	</node>
	<node lat="59.320441665928" lon="9.190488891957097" id="-53837">
		<tag k="name" v="Kåsa" />
		<tag k="place" v="isolated_dwelling" />
		<tag k="ssr:stedsnr" v="876577" />
	</node>
	<node lat="59.30656944774491" lon="9.251225005879038" id="-53838">
		<tag k="name" v="Skogen" />
		<tag k="place" v="farm" />
		<tag k="ssr:stedsnr" v="876778" />
	</node>
	<node lat="59.27407777798657" lon="9.36618610406267" id="-53839">
		<tag k="name" v="Grønstein brygge" />
		<tag k="place" v="farm" />
		<tag k="ssr:stedsnr" v="877690" />
	</node>
	<node lat="59.33184722657283" lon="9.101486110910393" id="-53842">
		<tag k="name" v="Langkås" />
		<tag k="place" v="farm" />
		<tag k="ssr:stedsnr" v="936754" />
	</node>
	<node lat="59.328369447701974" lon="9.10236110610983" id="-53843">
		<tag k="name" v="Rønningen" />
		<tag k="place" v="farm" />
		<tag k="ssr:stedsnr" v="936757" />
	</node>
	<node lat="59.340008335959276" lon="9.162566661400481" id="-53845">
		<tag k="name" v="Rønningen" />
		<tag k="place" v="isolated_dwelling" />
		<tag k="ssr:stedsnr" v="935916" />
	</node>
	<node lat="59.24709999662916" lon="9.401591669644239" id="-53847">
		<tag k="name" v="Hytte" />
		<tag k="place" v="isolated_dwelling" />
		<tag k="ssr:stedsnr" v="936276" />
	</node>
	<node lat="59.314119448854754" lon="9.185124996110396" id="-53853">
		<tag k="fixme" v="consider place=hamlet" />
		<tag k="name" v="Funnemark" />
		<tag k="place" v="farm" />
		<tag k="ssr:stedsnr" v="937587" />
	</node>
	<node lat="59.3044805595519" lon="9.157619443793628" id="-53860">
		<tag k="name" v="Øygarden" />
		<tag k="place" v="farm" />
		<tag k="ssr:stedsnr" v="951782" />
	</node>
	<node lat="59.27349444797891" lon="9.312199998273755" id="-53861">
		<tag k="name" v="Gruben" />
		<tag k="place" v="farm" />
		<tag k="ssr:stedsnr" v="951148" />
	</node>
	<node lat="59.335916662677405" lon="9.088994451663227" id="-53863">
		<tag k="name" v="Tollehotten" />
		<tag k="place" v="quarter" />
		<tag k="ssr:stedsnr" v="951731" />
	</node>
	<node lat="59.22585000250257" lon="9.229063882482542" id="-53864">
		<tag k="name" v="Hegna" />
		<tag k="place" v="isolated_dwelling" />
		<tag k="ssr:stedsnr" v="951936" />
	</node>
	<node lat="59.21375278207796" lon="9.270494438860304" id="-53867">
		<tag k="name" v="Omtvedt-Svartufs" />
		<tag k="place" v="locality" />
		<tag k="ssr:stedsnr" v="951884" />
	</node>
	<node lat="59.28140000355051" lon="9.237166671851522" id="-53870">
		<tag k="name" v="Hegna" />
		<tag k="place" v="farm" />
		<tag k="ssr:stedsnr" v="966115" />
	</node>
	<node lat="59.25559722319821" lon="9.27677777418814" id="-53886">
		<tag k="name" v="Kåsamyra" />
		<tag k="place" v="locality" />
		<tag k="ssr:stedsnr" v="966076" />
	</node>
	<node lat="59.36211242225389" lon="9.05671023443057" id="-53889">
		<tag k="name" v="Kleppe" />
		<tag k="place" v="hamlet" />
		<tag k="ssr:stedsnr" v="982940" />
	</node>
	<node lat="59.34330393153529" lon="9.079288645886455" id="-53890">
		<tag k="fixme" v="consider place=hamlet" />
		<tag k="name" v="Nedre Hvåla" />
		<tag k="place" v="farm" />
		<tag k="ssr:stedsnr" v="982942" />
	</node>
	<node lat="59.345367318859765" lon="9.083131354963962" id="-53891">
		<tag k="fixme" v="consider place=hamlet" />
		<tag k="name" v="Øvre Hvåla" />
		<tag k="place" v="farm" />
		<tag k="ssr:stedsnr" v="982943" />
	</node>
	<node lat="59.35088206700546" lon="9.089256955306618" id="-53892">
		<tag k="name" v="Norem" />
		<tag k="place" v="hamlet" />
		<tag k="ssr:stedsnr" v="982944" />
	</node>
	<node lat="59.32756719735349" lon="9.11710934224608" id="-53893">
		<tag k="name" v="Helgetveit" />
		<tag k="place" v="hamlet" />
		<tag k="ssr:stedsnr" v="982969" />
	</node>
	<node lat="59.30439734383728" lon="9.095651744337387" id="-53894">
		<tag k="fixme" v="consider place=hamlet" />
		<tag k="name" v="Store Ajer" />
		<tag k="place" v="farm" />
		<tag k="ssr:stedsnr" v="982971" />
	</node>
	<node lat="59.30515237257132" lon="9.094149994573588" id="-53895">
		<tag k="fixme" v="consider place=hamlet" />
		<tag k="name" v="Ajer" />
		<tag k="place" v="farm" />
		<tag k="ssr:stedsnr" v="982973" />
	</node>
	<node lat="59.26123743047417" lon="9.28135287133121" id="-53896">
		<tag k="fixme" v="consider place=hamlet" />
		<tag k="name" v="Store Håtveit" />
		<tag k="place" v="farm" />
		<tag k="ssr:stedsnr" v="982813" />
	</node>
	<node lat="59.279376894749234" lon="9.282366458875407" id="-53897">
		<tag k="fixme" v="consider place=hamlet" />
		<tag k="name" v="Søve" />
		<tag k="place" v="farm" />
		<tag k="ssr:stedsnr" v="982820" />
	</node>
	<node lat="59.26603966090046" lon="9.291361333949991" id="-53898">
		<tag k="name" v="Vipeto" />
		<tag k="place" v="hamlet" />
		<tag k="ssr:stedsnr" v="982821" />
	</node>
	<node lat="59.26995912623111" lon="9.302021945058797" id="-53899">
		<tag k="name" v="Fen" />
		<tag k="place" v="hamlet" />
		<tag k="ssr:stedsnr" v="982824" />
	</node>
	<node lat="59.271137063328084" lon="9.314414583628743" id="-53900">
		<tag k="fixme" v="consider place=hamlet" />
		<tag k="name" v="Nordre Namløs" />
		<tag k="place" v="farm" />
		<tag k="ssr:stedsnr" v="982825" />
	</node>
	<node lat="59.27039266409745" lon="9.321170960936083" id="-53901">
		<tag k="fixme" v="consider place=hamlet" />
		<tag k="name" v="Nedre Namløs" />
		<tag k="place" v="farm" />
		<tag k="ssr:stedsnr" v="982826" />
	</node>
	<node lat="59.26103790052348" lon="9.337315206246563" id="-53902">
		<tag k="name" v="Jøntvedt" />
		<tag k="place" v="hamlet" />
		<tag k="ssr:stedsnr" v="982835" />
	</node>
	<node lat="59.30641936071626" lon="9.144347581332287" id="-53903">
		<tag k="fixme" v="consider place=hamlet" />
		<tag k="name" v="Barlaug" />
		<tag k="place" v="farm" />
		<tag k="ssr:stedsnr" v="982998" />
	</node>
	<node lat="59.28757671279675" lon="9.162054022118904" id="-53904">
		<tag k="fixme" v="consider place=hamlet" />
		<tag k="name" v="Skårdal" />
		<tag k="place" v="farm" />
		<tag k="ssr:stedsnr" v="982999" />
	</node>
	<node lat="59.29195956581831" lon="9.137035842280078" id="-53905">
		<tag k="fixme" v="consider place=hamlet" />
		<tag k="name" v="Nordre Hjamdal" />
		<tag k="place" v="farm" />
		<tag k="ssr:stedsnr" v="983000" />
	</node>
	<node lat="59.29128058753241" lon="9.257217965160121" id="-54203">
		<tag k="alt_name" v="Lunderud" />
		<tag k="name" v="Lundsrud" />
		<tag k="place" v="farm" />
		<tag k="ssr:stedsnr" v="1076029" />
	</node>
	<node lat="59.30844806908037" lon="9.156512039629048" id="-54206">
		<tag k="name" v="Tveitankroken" />
		<tag k="place" v="hamlet" />
		<tag k="ssr:stedsnr" v="1079528" />
	</node>
</osm>
