<?xml version="1.0" encoding="UTF-8"?>
<<<<<<< HEAD
<osm version="0.6" generator="osmapis">
	<node lat="59.308669446522785" lon="8.951000001934807" id="-21156">
		<tag k="highway" v="path" />
		<tag k="name" v="Venheimskottet" />
		<tag k="ssr:stedsnr" v="24019" />
	</node>
	<node lat="59.29222777630579" lon="9.051452772494724" id="-21224">
		<tag k="alt_name" v="Kjelddal sluse" />
		<tag k="name" v="Kjeldal sluse" />
		<tag k="ssr:stedsnr" v="63167" />
		<tag k="waterway" v="lock_gate" />
	</node>
	<node lat="59.301655556920814" lon="9.203072223511121" id="-21242">
		<tag k="name" v="Vrangfoss" />
		<tag k="ssr:stedsnr" v="245150" />
		<tag k="waterway" v="lock_gate" />
	</node>
	<node lat="59.25687777650754" lon="9.378247227503278" id="-21269">
		<tag k="name" v="Steinsgrind" />
		<tag k="place" v="locality" />
		<tag k="ssr:stedsnr" v="86286" />
	</node>
	<node lat="59.29263055726668" lon="9.046536104896434" id="-21287">
=======
<osm generator="osmapis" version="0.6">
	<node id="-444542" lat="59.3205250018" lon="9.01011111611">
		<tag k="bridge" v="yes" />
		<tag k="layer" v="1" />
		<tag k="name" v="Øvre Røymål" />
		<tag k="ssr:stedsnr" v="957284" />
	</node>
	<node id="-443389" lat="59.2942805541" lon="9.0869222159">
>>>>>>> e1d4bc35ff8a6074a6f2e91616a996b547c36f15
		<tag k="bridge" v="yes" />
		<tag k="layer" v="1" />
		<tag k="name" v="Øvre Kjeldal" />
		<tag k="ssr:stedsnr" v="107276" />
	</node>
<<<<<<< HEAD
	<node lat="59.30313610830778" lon="9.043388888031162" id="-21372">
		<tag k="name" v="Hogga sluse" />
		<tag k="ssr:stedsnr" v="184186" />
		<tag k="waterway" v="lock_gate" />
	</node>
	<node lat="59.34733055187393" lon="9.044008330899057" id="-21381">
		<tag k="highway" v="path" />
		<tag k="name" v="Gunnulfsskott" />
		<tag k="ssr:stedsnr" v="267365" />
	</node>
	<node lat="59.32058888787032" lon="9.00115000086066" id="-21431">
=======
	<node id="-443388" lat="59.3228749968" lon="8.97662777062">
>>>>>>> e1d4bc35ff8a6074a6f2e91616a996b547c36f15
		<tag k="bridge" v="yes" />
		<tag k="layer" v="1" />
		<tag k="name" v="Lanstad" />
		<tag k="ssr:stedsnr" v="228303" />
	</node>
<<<<<<< HEAD
	<node lat="59.27968610830514" lon="9.249038891092836" id="-21432">
		<tag k="bridge" v="yes" />
		<tag k="layer" v="1" />
		<tag k="name" v="Tvara nedre" />
		<tag k="ssr:stedsnr" v="228309" />
	</node>
	<node lat="59.351571199750516" lon="8.88175943229043" id="-21443">
		<tag k="man_made" v="cairn" />
		<tag k="name" v="Grånåfjellvarden" />
=======
	<node id="-443114" lat="59.1988694437" lon="9.17175000635">
		<tag k="bridge" v="yes" />
		<tag k="layer" v="1" />
		<tag k="name" v="Huskebru" />
		<tag k="ssr:stedsnr" v="905833" />
	</node>
	<node id="-443894" lat="59.2978916681" lon="9.28020832589">
		<tag k="man_made" v="quay" />
		<tag k="name" v="Romnesbrygga" />
>>>>>>> e1d4bc35ff8a6074a6f2e91616a996b547c36f15
		<tag k="place" v="locality" />
		<tag k="ssr:stedsnr" v="450432" />
	</node>
<<<<<<< HEAD
	<node lat="59.27791388684325" lon="9.330369452965208" id="-21560">
=======
	<node id="-444021" lat="59.3277916686" lon="9.25534443726">
>>>>>>> e1d4bc35ff8a6074a6f2e91616a996b547c36f15
		<tag k="man_made" v="quay" />
		<tag k="name" v="Febakke brygge" />
		<tag k="place" v="locality" />
		<tag k="ssr:stedsnr" v="344119" />
	</node>
<<<<<<< HEAD
	<node lat="59.28098611423599" lon="9.210772229943892" id="-21563">
		<tag k="bridge" v="yes" />
		<tag k="layer" v="1" />
		<tag k="name" v="Bånebru" />
		<tag k="ssr:stedsnr" v="344922" />
	</node>
	<node lat="59.25760555215554" lon="9.395730555752811" id="-21584">
=======
	<node id="-443636" lat="59.3566499973" lon="9.06214722101">
		<tag k="bridge" v="yes" />
		<tag k="layer" v="1" />
		<tag k="name" v="Kleppe" />
		<tag k="ssr:stedsnr" v="168288" />
	</node>
	<node id="-444019" lat="59.2776805562" lon="9.3307777839">
		<tag k="man_made" v="quay" />
		<tag k="name" v="Febakke brygge" />
		<tag k="place" v="locality" />
		<tag k="ssr:stedsnr" v="427678" />
	</node>
	<node id="-444274" lat="59.2525388883" lon="9.39019999572">
		<tag k="name" v="Maurgrind" />
		<tag k="place" v="locality" />
		<tag k="ssr:stedsnr" v="753229" />
	</node>
	<node id="-443888" lat="59.2576055522" lon="9.39573055575">
>>>>>>> e1d4bc35ff8a6074a6f2e91616a996b547c36f15
		<tag k="alt_name" v="Olsbrygge" />
		<tag k="man_made" v="quay" />
		<tag k="name" v="Olsbrygga" />
		<tag k="place" v="locality" />
		<tag k="ssr:stedsnr" v="366632" />
	</node>
<<<<<<< HEAD
	<node lat="59.29789166811314" lon="9.28020832589109" id="-21589">
=======
	<node id="-443503" lat="59.2558666673" lon="9.30251667409">
		<tag k="highway" v="path" />
		<tag k="name" v="Drittlinskottet" />
		<tag k="ssr:stedsnr" v="87146" />
	</node>
	<node id="-442734" lat="59.2504000026" lon="9.28074444453">
		<tag k="highway" v="path" />
		<tag k="name" v="Vrestebakke" />
		<tag k="ssr:stedsnr" v="663077" />
	</node>
	<node id="-443117" lat="59.2308027788" lon="9.2754333295">
		<tag k="fixme" v="consider highway=path" />
		<tag k="highway" v="track" />
		<tag k="name" v="Dammannssvingen" />
		<tag k="ssr:stedsnr" v="905944" />
	</node>
	<node id="-443244" lat="59.2624055587" lon="9.37844166529">
		<tag k="name" v="Nordståkastet" />
		<tag k="place" v="locality" />
		<tag k="ssr:stedsnr" v="875269" />
	</node>
	<node id="-444394" lat="59.322741663" lon="8.99570555448">
>>>>>>> e1d4bc35ff8a6074a6f2e91616a996b547c36f15
		<tag k="man_made" v="quay" />
		<tag k="name" v="Romnesbrygga" />
		<tag k="place" v="locality" />
<<<<<<< HEAD
		<tag k="ssr:stedsnr" v="366784" />
	</node>
	<node lat="59.38444999612234" lon="9.102049998898552" id="-21711">
		<tag k="man_made" v="cairn" />
		<tag k="name" v="Røysdeilda" />
=======
		<tag k="ssr:stedsnr" v="813062" />
	</node>
	<node id="-442855" lat="59.2720944462" lon="9.36732222873">
		<tag k="name" v="Lundeberget" />
		<tag k="place" v="locality" />
		<tag k="ssr:stedsnr" v="692612" />
	</node>
	<node id="-443495" lat="59.2568777765" lon="9.3782472275">
		<tag k="name" v="Steinsgrind" />
>>>>>>> e1d4bc35ff8a6074a6f2e91616a996b547c36f15
		<tag k="place" v="locality" />
		<tag k="ssr:stedsnr" v="450583" />
	</node>
<<<<<<< HEAD
	<node lat="59.28023055858216" lon="9.242402785290974" id="-21728">
		<tag k="bridge" v="yes" />
		<tag k="layer" v="1" />
		<tag k="name" v="Heisholtevje" />
		<tag k="ssr:stedsnr" v="471270" />
	</node>
	<node lat="59.28672500144095" lon="9.232347223997568" id="-21729">
		<tag k="bridge" v="yes" />
		<tag k="layer" v="1" />
		<tag k="name" v="Deilevje" />
		<tag k="ssr:stedsnr" v="471271" />
	</node>
	<node lat="59.28408610984642" lon="9.005561112094686" id="-21758">
		<tag k="ford" v="yes" />
		<tag k="name" v="Ringsvadet" />
		<tag k="place" v="locality" />
		<tag k="ssr:stedsnr" v="509202" />
	</node>
	<node lat="59.285019441001005" lon="9.267402776761953" id="-21781">
		<tag k="bridge" v="yes" />
		<tag k="layer" v="1" />
		<tag k="name" v="Ulefoss" />
		<tag k="ssr:stedsnr" v="532274" />
	</node>
	<node lat="59.27209444622844" lon="9.36732222872756" id="-21819">
		<tag k="name" v="Lundeberget" />
		<tag k="place" v="locality" />
		<tag k="ssr:stedsnr" v="692612" />
	</node>
	<node lat="59.32011944255112" lon="9.022127781429692" id="-21828">
=======
	<node id="-442722" lat="59.2109833345" lon="9.16378055087">
		<tag k="fixme" v="consider highway=path" />
		<tag k="highway" v="track" />
		<tag k="name" v="Brokeskotta" />
		<tag k="ssr:stedsnr" v="662413" />
	</node>
	<node id="-443105" lat="59.2743444459" lon="9.1201777723">
		<tag k="bridge" v="yes" />
		<tag k="layer" v="1" />
		<tag k="name" v="Lia bru" />
		<tag k="ssr:stedsnr" v="905486" />
	</node>
	<node id="-442848" lat="59.3201194426" lon="9.02212778143">
>>>>>>> e1d4bc35ff8a6074a6f2e91616a996b547c36f15
		<tag k="fixme" v="verify maritime location" />
		<tag k="mooring" v="yes" />
		<tag k="name" v="Sundstå" />
		<tag k="place" v="locality" />
		<tag k="ssr:stedsnr" v="692259" />
	</node>
<<<<<<< HEAD
	<node lat="59.308308330439964" lon="9.176650001945537" id="-21855">
		<tag k="man_made" v="quay" />
		<tag k="name" v="Apalnes brygge" />
		<tag k="place" v="locality" />
		<tag k="ssr:stedsnr" v="694702" />
	</node>
	<node lat="59.29892778195132" lon="9.10094721569203" id="-21916">
=======
	<node id="-442335" lat="59.2391999965" lon="9.39482222942">
		<tag k="name" v="Langelandstranda" />
		<tag k="place" v="locality" />
		<tag k="ssr:stedsnr" v="86315" />
	</node>
	<node id="-442405" lat="59.3025611075" lon="9.0991055514">
		<tag k="bridge" v="yes" />
		<tag k="fixme" v="multiple name tags, choose one and add the other to alt_name" />
		<tag k="layer" v="1" />
		<tag k="name" v="Lunde bru;Lundefaret" />
		<tag k="ssr:stedsnr" v="283254" />
	</node>
	<node id="-442328" lat="59.2774777766" lon="8.96862223032">
		<tag k="ford" v="yes" />
		<tag k="name" v="Vårbuvadet" />
		<tag k="place" v="locality" />
		<tag k="ssr:stedsnr" v="85056" />
	</node>
	<node id="-443684" lat="59.3031361083" lon="9.04338888803">
		<tag k="name" v="Hogga sluse" />
		<tag k="ssr:stedsnr" v="184186" />
		<tag k="waterway" v="lock_gate" />
	</node>
	<node id="-443833" lat="59.3019249997" lon="9.11478611762">
		<tag k="man_made" v="quay" />
		<tag k="name" v="Bua brygge" />
		<tag k="place" v="locality" />
		<tag k="ssr:stedsnr" v="344753" />
	</node>
	<node id="-442729" lat="59.2635916626" lon="9.08372222166">
		<tag k="fixme" v="consider highway=path" />
		<tag k="highway" v="track" />
		<tag k="name" v="Oppkjørsla" />
		<tag k="ssr:stedsnr" v="662607" />
	</node>
	<node id="-443472" lat="59.2970777812" lon="9.22035278373">
		<tag k="name" v="Eidsfoss sluse" />
		<tag k="ssr:stedsnr" v="63796" />
		<tag k="waterway" v="lock_gate" />
	</node>
	<node id="-443818" lat="59.2423500011" lon="9.34963055548">
		<tag k="highway" v="path" />
		<tag k="name" v="Skottbund" />
		<tag k="ssr:stedsnr" v="329446" />
	</node>
	<node id="-444237" lat="59.298927782" lon="9.10094721569">
>>>>>>> e1d4bc35ff8a6074a6f2e91616a996b547c36f15
		<tag k="name" v="Lunde" />
		<tag k="railway" v="station" />
		<tag k="ssr:stedsnr" v="634997" />
		<tag k="train" v="yes" />
	</node>
<<<<<<< HEAD
	<node lat="59.289630556472446" lon="9.181905552789873" id="-21935">
		<tag k="junction" v="yes" />
		<tag k="name" v="Skottet" />
		<tag k="place" v="locality" />
		<tag k="ssr:stedsnr" v="708915" />
	</node>
	<node lat="59.210983334474406" lon="9.163780550866251" id="-21942">
		<tag k="fixme" v="consider highway=path" />
		<tag k="highway" v="track" />
		<tag k="name" v="Brokeskotta" />
		<tag k="ssr:stedsnr" v="662413" />
	</node>
	<node lat="59.263591662649326" lon="9.083722221664978" id="-21943">
		<tag k="fixme" v="consider highway=path" />
		<tag k="highway" v="track" />
		<tag k="name" v="Oppkjørsla" />
		<tag k="ssr:stedsnr" v="662607" />
	</node>
	<node lat="59.30720277644363" lon="9.13201943925495" id="-22022">
=======
	<node id="-443010" lat="59.2820194411" lon="9.27311388674">
		<tag k="bridge" v="yes" />
		<tag k="layer" v="1" />
		<tag k="name" v="Øra kulvert" />
		<tag k="ssr:stedsnr" v="653262" />
	</node>
	<node id="-443338" lat="59.3086694465" lon="8.95100000193">
		<tag k="highway" v="path" />
		<tag k="name" v="Venheimskottet" />
		<tag k="ssr:stedsnr" v="24019" />
	</node>
	<node id="-442310" lat="59.3016555569" lon="9.20307222351">
		<tag k="name" v="Vrangfoss" />
		<tag k="ssr:stedsnr" v="245150" />
		<tag k="waterway" v="lock_gate" />
	</node>
	<node id="-442593" lat="59.2809861142" lon="9.21077222994">
		<tag k="bridge" v="yes" />
		<tag k="layer" v="1" />
		<tag k="name" v="Bånebru" />
		<tag k="ssr:stedsnr" v="344922" />
	</node>
	<node id="-442692" lat="59.2698861113" lon="9.07348610498">
		<tag k="highway" v="path" />
		<tag k="name" v="Stegaen" />
		<tag k="ssr:stedsnr" v="420634" />
	</node>
	<node id="-443069" lat="59.3072027764" lon="9.13201943925">
>>>>>>> e1d4bc35ff8a6074a6f2e91616a996b547c36f15
		<tag k="bridge" v="yes" />
		<tag k="layer" v="1" />
		<tag k="name" v="Barlaug" />
		<tag k="ssr:stedsnr" v="896284" />
	</node>
<<<<<<< HEAD
	<node lat="59.30735277818985" lon="9.10410278519258" id="-22030">
		<tag k="bridge" v="yes" />
		<tag k="layer" v="1" />
		<tag k="name" v="Østerå bru" />
		<tag k="ssr:stedsnr" v="708724" />
	</node>
	<node lat="59.27434444592608" lon="9.120177772298742" id="-22091">
=======
	<node id="-444347" lat="59.290788889" lon="9.2389805606">
		<tag k="fixme" v="consider highway=path" />
		<tag k="highway" v="track" />
		<tag k="name" v="Skaravegen" />
		<tag k="ssr:stedsnr" v="784116" />
	</node>
	<node id="-444345" lat="59.2853833364" lon="9.26739165958">
		<tag k="man_made" v="quay" />
		<tag k="name" v="Ulefoss brygge" />
		<tag k="place" v="locality" />
		<tag k="ssr:stedsnr" v="784110" />
	</node>
	<node id="-443448" lat="59.2922277763" lon="9.05145277249">
		<tag k="alt_name" v="Kjelddal sluse" />
		<tag k="name" v="Kjeldal sluse" />
		<tag k="ssr:stedsnr" v="63167" />
		<tag k="waterway" v="lock_gate" />
	</node>
	<node id="-442370" lat="59.3473305519" lon="9.0440083309">
		<tag k="highway" v="path" />
		<tag k="name" v="Gunnulfsskott" />
		<tag k="ssr:stedsnr" v="267365" />
	</node>
	<node id="-443187" lat="59.3177249999" lon="8.98158333315">
		<tag k="man_made" v="quay" />
		<tag k="name" v="Strengen brygge" />
		<tag k="place" v="locality" />
		<tag k="ssr:stedsnr" v="934036" />
	</node>
	<node id="-443954" lat="59.3008861072" lon="9.20408610877">
>>>>>>> e1d4bc35ff8a6074a6f2e91616a996b547c36f15
		<tag k="bridge" v="yes" />
		<tag k="layer" v="1" />
		<tag k="name" v="Lia bru" />
		<tag k="ssr:stedsnr" v="905486" />
	</node>
<<<<<<< HEAD
	<node lat="59.19886944374728" lon="9.171750006353594" id="-22097">
		<tag k="bridge" v="yes" />
		<tag k="layer" v="1" />
		<tag k="name" v="Huskebru" />
		<tag k="ssr:stedsnr" v="905833" />
	</node>
	<node lat="59.23080277876882" lon="9.275433329499965" id="-22101">
		<tag k="fixme" v="consider highway=path" />
		<tag k="highway" v="track" />
		<tag k="name" v="Dammannssvingen" />
		<tag k="ssr:stedsnr" v="905944" />
	</node>
	<node lat="59.28501666717774" lon="9.234624998426966" id="-22111">
		<tag k="bridge" v="yes" />
		<tag k="layer" v="1" />
		<tag k="name" v="Kringlefedt" />
		<tag k="ssr:stedsnr" v="775262" />
	</node>
	<node lat="59.285383336403086" lon="9.267391659575296" id="-22121">
		<tag k="man_made" v="quay" />
		<tag k="name" v="Ulefoss brygge" />
		<tag k="place" v="locality" />
		<tag k="ssr:stedsnr" v="784110" />
	</node>
	<node lat="59.2907888890318" lon="9.23898056059874" id="-22123">
		<tag k="fixme" v="consider highway=path" />
		<tag k="highway" v="track" />
		<tag k="name" v="Skaravegen" />
		<tag k="ssr:stedsnr" v="784116" />
	</node>
	<node lat="59.317724999937354" lon="8.981583333147723" id="-22283">
		<tag k="man_made" v="quay" />
		<tag k="name" v="Strengen brygge" />
=======
	<node id="-443825" lat="59.2779138868" lon="9.33036945297">
		<tag k="man_made" v="quay" />
		<tag k="name" v="Febakke brygge" />
		<tag k="place" v="locality" />
		<tag k="ssr:stedsnr" v="344119" />
	</node>
	<node id="-442672" lat="59.3794111152" lon="9.07430278283">
		<tag k="man_made" v="cairn" />
		<tag k="name" v="Skrubbesteinen" />
		<tag k="place" v="locality" />
		<tag k="ssr:stedsnr" v="510585" />
	</node>
	<node id="-442538" lat="59.2867250014" lon="9.232347224">
		<tag k="bridge" v="yes" />
		<tag k="layer" v="1" />
		<tag k="name" v="Deilevje" />
		<tag k="ssr:stedsnr" v="471271" />
	</node>
	<node id="-442537" lat="59.2802305586" lon="9.24240278529">
		<tag k="bridge" v="yes" />
		<tag k="layer" v="1" />
		<tag k="name" v="Heisholtevje" />
		<tag k="ssr:stedsnr" v="471270" />
	</node>
	<node id="-442621" lat="59.2957972243" lon="9.04455278012">
		<tag k="name" v="Samsøyr" />
		<tag k="place" v="locality" />
		<tag k="ssr:stedsnr" v="388206" />
	</node>
	<node id="-444583" lat="58.9440068917" lon="9.63791772882">
		<tag k="name" v="Tonerhavn" />
>>>>>>> e1d4bc35ff8a6074a6f2e91616a996b547c36f15
		<tag k="place" v="locality" />
		<tag k="ssr:stedsnr" v="934036" />
	</node>
<<<<<<< HEAD
	<node lat="59.23646388471024" lon="9.2258750053077" id="-22305">
		<tag k="bridge" v="yes" />
		<tag k="layer" v="1" />
		<tag k="name" v="Kroktjønnbrua" />
		<tag k="ssr:stedsnr" v="965804" />
	</node>
	<node lat="59.322874996774125" lon="8.97662777062001" id="-22381">
=======
	<node id="-443953" lat="59.3387583297" lon="9.08720554883">
		<tag k="bridge" v="yes" />
		<tag k="layer" v="1" />
		<tag k="name" v="Valen" />
		<tag k="ssr:stedsnr" v="410297" />
	</node>
	<node id="-444580" lat="59.2825828212" lon="9.25541394363">
		<tag k="name" v="Ulefoss -sluse" />
		<tag k="ssr:stedsnr" v="989713" />
		<tag k="waterway" v="lock_gate" />
	</node>
	<node id="-443939" lat="59.3006250006" lon="9.08844443762">
		<tag k="name" v="Lunde sluse" />
		<tag k="ssr:stedsnr" v="405733" />
		<tag k="waterway" v="lock_gate" />
	</node>
	<node id="-443170" lat="59.2850166672" lon="9.23462499843">
>>>>>>> e1d4bc35ff8a6074a6f2e91616a996b547c36f15
		<tag k="bridge" v="yes" />
		<tag k="layer" v="1" />
		<tag k="name" v="Nes" />
		<tag k="ssr:stedsnr" v="46298" />
	</node>
<<<<<<< HEAD
	<node lat="59.29428055411825" lon="9.086922215899047" id="-22382">
=======
	<node id="-443937" lat="59.2726055535" lon="9.30824722701">
>>>>>>> e1d4bc35ff8a6074a6f2e91616a996b547c36f15
		<tag k="bridge" v="yes" />
		<tag k="layer" v="1" />
		<tag k="name" v="Skoe" />
		<tag k="ssr:stedsnr" v="46299" />
	</node>
<<<<<<< HEAD
	<node lat="59.2970777811544" lon="9.220352783729124" id="-22443">
		<tag k="name" v="Eidsfoss sluse" />
		<tag k="ssr:stedsnr" v="63796" />
		<tag k="waterway" v="lock_gate" />
	</node>
	<node lat="59.27747777662405" lon="8.968622230324543" id="-22449">
		<tag k="ford" v="yes" />
		<tag k="name" v="Vårbuvadet" />
		<tag k="place" v="locality" />
		<tag k="ssr:stedsnr" v="85056" />
	</node>
	<node lat="59.2391999964513" lon="9.394822229417258" id="-22464">
		<tag k="name" v="Langelandstranda" />
=======
	<node id="-442656" lat="59.2840861098" lon="9.00556111209">
		<tag k="ford" v="yes" />
		<tag k="name" v="Ringsvadet" />
		<tag k="place" v="locality" />
		<tag k="ssr:stedsnr" v="509202" />
	</node>
	<node id="-442906" lat="59.2896305565" lon="9.18190555279">
		<tag k="junction" v="yes" />
		<tag k="name" v="Skottet" />
>>>>>>> e1d4bc35ff8a6074a6f2e91616a996b547c36f15
		<tag k="place" v="locality" />
		<tag k="ssr:stedsnr" v="86315" />
	</node>
	<node lat="59.255866667259376" lon="9.30251667409433" id="-22473">
		<tag k="highway" v="path" />
		<tag k="name" v="Drittlinskottet" />
		<tag k="ssr:stedsnr" v="87146" />
	</node>
<<<<<<< HEAD
	<node lat="59.35664999727636" lon="9.062147221013806" id="-22573">
=======
	<node id="-442649" lat="59.2592805539" lon="9.12373055488">
>>>>>>> e1d4bc35ff8a6074a6f2e91616a996b547c36f15
		<tag k="bridge" v="yes" />
		<tag k="layer" v="1" />
		<tag k="name" v="Kleppe" />
		<tag k="ssr:stedsnr" v="168288" />
	</node>
	<node lat="59.191494446689326" lon="9.253349997219456" id="-22586">
		<tag k="fixme" v="consider highway=path" />
		<tag k="highway" v="track" />
		<tag k="name" v="Bjørkelivegen" />
		<tag k="ssr:stedsnr" v="177827" />
	</node>
<<<<<<< HEAD
	<node lat="59.30256110754525" lon="9.09910555140282" id="-22654">
=======
	<node id="-443287" lat="59.2364638847" lon="9.22587500531">
>>>>>>> e1d4bc35ff8a6074a6f2e91616a996b547c36f15
		<tag k="bridge" v="yes" />
		<tag k="fixme" v="multiple name tags, choose one and add the other to alt_name" />
		<tag k="layer" v="1" />
		<tag k="name" v="Lunde bru;Lundefaret" />
		<tag k="ssr:stedsnr" v="283254" />
	</node>
<<<<<<< HEAD
	<node lat="59.276997220285345" lon="9.265247216472197" id="-22686">
		<tag k="fixme" v="consider highway=path" />
		<tag k="highway" v="track" />
		<tag k="name" v="Kåsene" />
		<tag k="ssr:stedsnr" v="299082" />
	</node>
	<node lat="59.25214166656874" lon="9.27807222700736" id="-22689">
=======
	<node id="-443286" lat="59.2590555552" lon="9.22479722468">
		<tag k="ford" v="yes" />
		<tag k="name" v="Haukelivaet" />
		<tag k="place" v="locality" />
		<tag k="ssr:stedsnr" v="966058" />
	</node>
	<node id="-442645" lat="59.2521416666" lon="9.27807222701">
>>>>>>> e1d4bc35ff8a6074a6f2e91616a996b547c36f15
		<tag k="highway" v="path" />
		<tag k="name" v="Melteigskottet" />
		<tag k="ssr:stedsnr" v="299071" />
	</node>
<<<<<<< HEAD
	<node lat="59.242350001132806" lon="9.349630555484124" id="-22746">
		<tag k="highway" v="path" />
		<tag k="name" v="Skottbund" />
		<tag k="ssr:stedsnr" v="329446" />
	</node>
	<node lat="59.3019249997148" lon="9.114786117622213" id="-22761">
		<tag k="man_made" v="quay" />
		<tag k="name" v="Bua brygge" />
		<tag k="place" v="locality" />
		<tag k="ssr:stedsnr" v="344753" />
	</node>
	<node lat="59.29579722431489" lon="9.044552780119927" id="-22810">
		<tag k="name" v="Samsøyr" />
		<tag k="place" v="locality" />
		<tag k="ssr:stedsnr" v="388206" />
	</node>
	<node lat="59.272605553505926" lon="9.308247227006776" id="-22853">
=======
	<node id="-442900" lat="59.3073527782" lon="9.10410278519">
		<tag k="bridge" v="yes" />
		<tag k="layer" v="1" />
		<tag k="name" v="Østerå bru" />
		<tag k="ssr:stedsnr" v="708724" />
	</node>
	<node id="-442252" lat="59.2796861083" lon="9.24903889109">
>>>>>>> e1d4bc35ff8a6074a6f2e91616a996b547c36f15
		<tag k="bridge" v="yes" />
		<tag k="layer" v="1" />
		<tag k="name" v="Løksbrua" />
		<tag k="ssr:stedsnr" v="405127" />
	</node>
<<<<<<< HEAD
	<node lat="59.259280553932406" lon="9.123730554882144" id="-22856">
=======
	<node id="-442251" lat="59.3205888879" lon="9.00115000086">
>>>>>>> e1d4bc35ff8a6074a6f2e91616a996b547c36f15
		<tag k="bridge" v="yes" />
		<tag k="layer" v="1" />
		<tag k="name" v="Velendbrua" />
		<tag k="ssr:stedsnr" v="405652" />
	</node>
<<<<<<< HEAD
	<node lat="59.300625000601826" lon="9.088444437621026" id="-22859">
		<tag k="name" v="Lunde sluse" />
		<tag k="ssr:stedsnr" v="405733" />
		<tag k="waterway" v="lock_gate" />
	</node>
	<node lat="59.33875832968934" lon="9.08720554882715" id="-22865">
		<tag k="bridge" v="yes" />
		<tag k="layer" v="1" />
		<tag k="name" v="Valen" />
		<tag k="ssr:stedsnr" v="410297" />
	</node>
	<node lat="59.3008861071928" lon="9.204086108767314" id="-22866">
		<tag k="bridge" v="yes" />
		<tag k="layer" v="1" />
		<tag k="name" v="Vrangfoss" />
		<tag k="ssr:stedsnr" v="410298" />
	</node>
	<node lat="59.26988611127011" lon="9.073486104977876" id="-22880">
		<tag k="highway" v="path" />
		<tag k="name" v="Stegaen" />
		<tag k="ssr:stedsnr" v="420634" />
	</node>
	<node lat="59.27768055615434" lon="9.330777783904413" id="-22919">
		<tag k="man_made" v="quay" />
		<tag k="name" v="Febakke brygge" />
		<tag k="place" v="locality" />
		<tag k="ssr:stedsnr" v="427678" />
	</node>
	<node lat="59.32779166856531" lon="9.255344437261337" id="-22924">
		<tag k="man_made" v="quay" />
		<tag k="name" v="Sandnesbrygga" />
		<tag k="place" v="locality" />
		<tag k="ssr:stedsnr" v="427837" />
	</node>
	<node lat="59.379411115207894" lon="9.074302782833255" id="-22945">
		<tag k="man_made" v="cairn" />
		<tag k="name" v="Skrubbesteinen" />
		<tag k="place" v="locality" />
		<tag k="ssr:stedsnr" v="510585" />
	</node>
	<node lat="59.28201944111497" lon="9.273113886743944" id="-23143">
		<tag k="bridge" v="yes" />
		<tag k="layer" v="1" />
		<tag k="name" v="Øra kulvert" />
		<tag k="ssr:stedsnr" v="653262" />
	</node>
	<node lat="59.25040000258369" lon="9.280744444526098" id="-23154">
		<tag k="highway" v="path" />
		<tag k="name" v="Vrestebakke" />
		<tag k="ssr:stedsnr" v="663077" />
	</node>
	<node lat="59.25253888830706" lon="9.39019999571791" id="-23233">
		<tag k="name" v="Maurgrind" />
		<tag k="place" v="locality" />
		<tag k="ssr:stedsnr" v="753229" />
	</node>
	<node lat="59.322741662975055" lon="8.995705554477563" id="-23330">
		<tag k="man_made" v="quay" />
		<tag k="name" v="Tveit brygge" />
		<tag k="place" v="locality" />
		<tag k="ssr:stedsnr" v="813062" />
	</node>
	<node lat="59.26944166553111" lon="8.849652773220201" id="-23345">
		<tag k="ford" v="yes" />
		<tag k="name" v="Mellomvadet" />
		<tag k="place" v="locality" />
		<tag k="ssr:stedsnr" v="814557" />
	</node>
	<node lat="59.26240555865749" lon="9.37844166529434" id="-23435">
		<tag k="name" v="Nordståkastet" />
		<tag k="place" v="locality" />
		<tag k="ssr:stedsnr" v="875269" />
	</node>
	<node lat="59.320525001767194" lon="9.010111116114087" id="-23470">
		<tag k="bridge" v="yes" />
		<tag k="layer" v="1" />
		<tag k="name" v="Øvre Røymål" />
		<tag k="ssr:stedsnr" v="957284" />
	</node>
=======
	<node id="-444040" lat="59.285019441" lon="9.26740277676">
		<tag k="bridge" v="yes" />
		<tag k="layer" v="1" />
		<tag k="name" v="Ulefoss" />
		<tag k="ssr:stedsnr" v="532274" />
	</node>
	<node id="-444423" lat="59.2694416655" lon="8.84965277322">
		<tag k="ford" v="yes" />
		<tag k="name" v="Mellomvadet" />
		<tag k="place" v="locality" />
		<tag k="ssr:stedsnr" v="814557" />
	</node>
	<node id="-442867" lat="59.3083083304" lon="9.17665000195">
		<tag k="man_made" v="quay" />
		<tag k="name" v="Apalnes brygge" />
		<tag k="place" v="locality" />
		<tag k="ssr:stedsnr" v="694702" />
	</node>
	<node id="-442646" lat="59.2769972203" lon="9.26524721647">
		<tag k="fixme" v="consider highway=path" />
		<tag k="highway" v="track" />
		<tag k="name" v="Kåsene" />
		<tag k="ssr:stedsnr" v="299082" />
	</node>
	<node id="-443650" lat="59.1914944467" lon="9.25334999722">
		<tag k="fixme" v="consider highway=path" />
		<tag k="highway" v="track" />
		<tag k="name" v="Bjørkelivegen" />
		<tag k="ssr:stedsnr" v="177827" />
	</node>
	<node id="-443521" lat="59.2926305573" lon="9.0465361049">
		<tag k="bridge" v="yes" />
		<tag k="layer" v="1" />
		<tag k="name" v="Øvre Kjeldal" />
		<tag k="ssr:stedsnr" v="107276" />
	</node>
>>>>>>> e1d4bc35ff8a6074a6f2e91616a996b547c36f15
</osm>
