<?xml version="1.0" encoding="UTF-8"?>
<<<<<<< HEAD
<osm version="0.6" generator="osmapis">
	<node lat="59.23347778174779" lon="9.43057778324665" id="-21142">
		<tag k="alt_name" v="Munken, l" />
		<tag k="name" v="Lille Munken" />
		<tag k="place" v="islet" />
		<tag k="ssr:stedsnr" v="1046" />
	</node>
	<node lat="59.230388885641965" lon="9.141719444604105" id="-21144">
		<tag k="alt_name" v="Minnesjøen, store;Minnesjø" />
		<tag k="name" v="Store Minnesjøen" />
		<tag k="natural" v="water" />
		<tag k="ssr:stedsnr" v="1385" />
		<tag k="water" v="lake" />
	</node>
	<node lat="59.319266665833524" lon="9.026324993674407" id="-21160">
		<tag k="name" v="Hegnaevja" />
		<tag k="natural" v="bay" />
		<tag k="ssr:stedsnr" v="24335" />
	</node>
	<node lat="59.24409722585729" lon="9.398802775112177" id="-21165">
		<tag k="name" v="Lauvodde" />
		<tag k="natural" v="cape" />
		<tag k="old_name" v="Lauodde" />
		<tag k="ssr:stedsnr" v="25304" />
	</node>
	<node lat="59.22748333108791" lon="9.360738881661016" id="-21172">
		<tag k="name" v="Damtjønn" />
		<tag k="natural" v="water" />
		<tag k="old_name" v="Dammtjenn" />
		<tag k="ssr:stedsnr" v="25472" />
	</node>
	<node lat="59.2048611137879" lon="9.228777781266208" id="-21185">
		<tag k="name" v="Store Ormtjønn" />
		<tag k="natural" v="water" />
		<tag k="ssr:stedsnr" v="40919" />
	</node>
	<node lat="59.242013893295244" lon="9.055999996402464" id="-21187">
		<tag k="name" v="Tomasbekk" />
		<tag k="ssr:stedsnr" v="237146" />
		<tag k="waterway" v="stream" />
	</node>
	<node lat="59.22600555756169" lon="9.10357222178928" id="-21192">
		<tag k="name" v="Åslandselva" />
		<tag k="ssr:stedsnr" v="237318" />
		<tag k="waterway" v="river" />
	</node>
	<node lat="59.25069272225051" lon="9.116386544171908" id="-21194">
		<tag k="name" v="Heimdalsvann" />
		<tag k="natural" v="water" />
		<tag k="ssr:stedsnr" v="237624" />
		<tag k="water" v="lake" />
	</node>
	<node lat="59.25204722113213" lon="9.132602780311545" id="-21195">
		<tag k="name" v="Langen" />
		<tag k="natural" v="water" />
		<tag k="ssr:stedsnr" v="237625" />
		<tag k="water" v="lake" />
	</node>
	<node lat="59.19991666686864" lon="9.266758332107939" id="-21197">
		<tag k="name" v="Syltretjønn" />
		<tag k="natural" v="water" />
		<tag k="ssr:stedsnr" v="237844" />
	</node>
	<node lat="59.22791666516988" lon="9.257336108395625" id="-21199">
		<tag k="name" v="Øvre Stavsjø" />
		<tag k="natural" v="water" />
		<tag k="ssr:stedsnr" v="237951" />
		<tag k="water" v="lake" />
	</node>
	<node lat="59.27070555510546" lon="9.08670832609582" id="-21204">
		<tag k="name" v="Dalatjønn" />
		<tag k="natural" v="water" />
		<tag k="ssr:stedsnr" v="55366" />
	</node>
	<node lat="59.181719440707276" lon="9.221455554425745" id="-21208">
		<tag k="name" v="Sandavatn" />
		<tag k="natural" v="water" />
		<tag k="ssr:stedsnr" v="55824" />
		<tag k="water" v="lake" />
	</node>
	<node lat="59.19655000373095" lon="9.193202780232184" id="-21214">
		<tag k="fixme" v="multiple name tags, choose one and add the other to alt_name" />
		<tag k="name" v="Trelleborgtjørna;Trellbotjønn" />
		<tag k="natural" v="water" />
		<tag k="ssr:stedsnr" v="62305" />
	</node>
	<node lat="59.197380553382196" lon="9.167366663267902" id="-21215">
		<tag k="alt_name" v="Broke" />
		<tag k="name" v="Brokevatnet" />
		<tag k="natural" v="water" />
		<tag k="ssr:stedsnr" v="62309" />
	</node>
	<node lat="59.24102778227799" lon="9.064913886193072" id="-21216">
		<tag k="alt_name" v="Gongeelva" />
		<tag k="name" v="Gångeelva" />
		<tag k="ssr:stedsnr" v="62403" />
		<tag k="waterway" v="stream" />
	</node>
	<node lat="59.26321111168989" lon="9.076822219196693" id="-21236">
		<tag k="alt_name" v="Rekatjørn" />
		<tag k="name" v="Rekatjønn" />
		<tag k="natural" v="water" />
		<tag k="ssr:stedsnr" v="245070" />
	</node>
	<node lat="59.27243888987594" lon="8.871694443227318" id="-21238">
		<tag k="alt_name" v="Kletjørn" />
		<tag k="name" v="Kletjønn" />
		<tag k="natural" v="water" />
		<tag k="ssr:stedsnr" v="245119" />
	</node>
	<node lat="59.31964166732768" lon="9.181705558073443" id="-21239">
		<tag k="alt_name" v="Laugtjørna" />
		<tag k="name" v="Laugtjønna" />
		<tag k="natural" v="water" />
		<tag k="ssr:stedsnr" v="245179" />
	</node>
	<node lat="59.3302611095766" lon="8.88148610943465" id="-21246">
		<tag k="alt_name" v="Svarteputt" />
		<tag k="name" v="Svartputt" />
		<tag k="natural" v="water" />
		<tag k="ssr:stedsnr" v="245224" />
	</node>
	<node lat="59.321413886260494" lon="8.993888885631485" id="-21250">
		<tag k="name" v="Straumen" />
		<tag k="ssr:stedsnr" v="245210" />
		<tag k="waterway" v="river" />
	</node>
	<node lat="59.27986667013172" lon="9.047652786069815" id="-21253">
		<tag k="name" v="Midtre Trytetjønn" />
		<tag k="natural" v="water" />
		<tag k="old_name" v="Mitre Trytetjønn" />
		<tag k="ssr:stedsnr" v="85173" />
	</node>
	<node lat="59.35066666443441" lon="8.95957222220567" id="-21257">
		<tag k="alt_name" v="Limtjørna" />
		<tag k="name" v="Limtjønn" />
		<tag k="natural" v="water" />
		<tag k="ssr:stedsnr" v="245243" />
	</node>
	<node lat="59.34046944614209" lon="8.924197227637146" id="-21265">
		<tag k="alt_name" v="Svartputt" />
		<tag k="name" v="Svarteputt" />
		<tag k="natural" v="water" />
		<tag k="ssr:stedsnr" v="245256" />
	</node>
	<node lat="59.28154722175411" lon="9.299050005556055" id="-21275">
		<tag k="name" v="Torsnesodden" />
		<tag k="natural" v="cape" />
		<tag k="ssr:stedsnr" v="245671" />
	</node>
	<node lat="59.2096861127058" lon="9.050450004216312" id="-21289">
		<tag k="name" v="Sverdalselva" />
		<tag k="ssr:stedsnr" v="116219" />
		<tag k="waterway" v="river" />
	</node>
	<node lat="59.33822221895044" lon="8.90036944266979" id="-21304">
		<tag k="alt_name" v="Åmnestjørna, austre" />
		<tag k="name" v="Østre Omnestjønn" />
		<tag k="natural" v="water" />
		<tag k="ssr:stedsnr" v="123269" />
	</node>
	<node lat="59.156999998328075" lon="9.19546389530358" id="-21305">
		<tag k="alt_name" v="Åstjønn" />
		<tag k="loc_name" v="Steinsrudtjønna" />
		<tag k="name" v="Åstjern" />
		<tag k="natural" v="water" />
		<tag k="ssr:stedsnr" v="123274" />
	</node>
	<node lat="59.1510861135954" lon="9.183838884377936" id="-21306">
		<tag k="alt_name" v="Svarttjønn" />
		<tag k="name" v="Svarttjern" />
		<tag k="natural" v="water" />
		<tag k="ssr:stedsnr" v="123275" />
	</node>
	<node lat="59.294222218951575" lon="8.975858341507719" id="-21311">
		<tag k="alt_name" v="Bytingstjørna" />
		<tag k="name" v="Byttingstjønn" />
		<tag k="natural" v="water" />
		<tag k="ssr:stedsnr" v="123170" />
	</node>
	<node lat="59.214401557138274" lon="9.21152630804864" id="-21313">
		<tag k="alt_name" v="Tekstetjønn" />
		<tag k="name" v="Teksletjørn" />
		<tag k="natural" v="water" />
		<tag k="ssr:stedsnr" v="123463" />
	</node>
	<node lat="59.20340277467916" lon="9.230255556472963" id="-21314">
		<tag k="alt_name" v="Ormetjønn" />
		<tag k="name" v="Ormtjern" />
		<tag k="natural" v="water" />
		<tag k="ssr:stedsnr" v="123919" />
	</node>
	<node lat="59.25432777409005" lon="9.309644447742427" id="-21325">
		<tag k="name" v="Svarttjønn" />
		<tag k="natural" v="water" />
		<tag k="ssr:stedsnr" v="145136" />
		<tag k="water" v="pond" />
	</node>
	<node lat="59.30867221797844" lon="8.91541111551452" id="-21327">
		<tag k="name" v="Omnesodden" />
		<tag k="natural" v="cape" />
		<tag k="ssr:stedsnr" v="145286" />
	</node>
	<node lat="59.34348610939698" lon="9.022474998047512" id="-21329">
		<tag k="name" v="Trytetjønnbekken" />
		<tag k="ssr:stedsnr" v="145389" />
		<tag k="waterway" v="stream" />
	</node>
	<node lat="59.379891662332085" lon="9.103324995543435" id="-21333">
		<tag k="name" v="Skrotteputt" />
		<tag k="natural" v="water" />
		<tag k="ssr:stedsnr" v="146524" />
		<tag k="water" v="pond" />
	</node>
	<node lat="59.21991110755253" lon="9.266397221573072" id="-21346">
		<tag k="name" v="Brenteøya" />
		<tag k="place" v="islet" />
		<tag k="ssr:stedsnr" v="162904" />
	</node>
	<node lat="59.27076667112983" lon="9.113086115417547" id="-21349">
		<tag k="name" v="Hauglandstoa" />
		<tag k="natural" v="bay" />
		<tag k="ssr:stedsnr" v="177403" />
	</node>
	<node lat="59.16669444733389" lon="9.197030564221029" id="-21354">
		<tag k="name" v="Vitnesjøbekken" />
		<tag k="ssr:stedsnr" v="177861" />
		<tag k="waterway" v="stream" />
	</node>
	<node lat="59.2639444404406" lon="8.88216389496027" id="-21358">
		<tag k="alt_name" v="Mørkvatnet" />
		<tag k="name" v="Mørkvatn" />
		<tag k="natural" v="water" />
		<tag k="ssr:stedsnr" v="184089" />
		<tag k="water" v="lake" />
	</node>
	<node lat="59.33204166912604" lon="8.934213892180866" id="-21365">
		<tag k="alt_name" v="Stivtjørn" />
		<tag k="name" v="Stivtjønn" />
		<tag k="natural" v="water" />
		<tag k="ssr:stedsnr" v="184233" />
	</node>
	<node lat="59.269908966354784" lon="9.007951522739509" id="-21367">
		<tag k="name" v="Brennmyrputten" />
		<tag k="natural" v="water" />
		<tag k="ssr:stedsnr" v="184107" />
	</node>
	<node lat="59.31478055866519" lon="8.967466664482279" id="-21383">
		<tag k="name" v="Kårsteinsundet" />
		<tag k="natural" v="strait" />
		<tag k="ssr:stedsnr" v="267020" />
	</node>
	<node lat="59.32639450353826" lon="9.148344982875837" id="-21385">
		<tag k="name" v="Langetjønn" />
		<tag k="natural" v="water" />
		<tag k="ssr:stedsnr" v="267061" />
	</node>
	<node lat="59.249372218260376" lon="9.40614443660934" id="-21411">
		<tag k="name" v="Nesodden" />
		<tag k="natural" v="cape" />
		<tag k="ssr:stedsnr" v="207288" />
	</node>
	<node lat="59.262274998243946" lon="9.329147226054467" id="-21421">
		<tag k="name" v="Jøntvedtbekken" />
		<tag k="ssr:stedsnr" v="269253" />
		<tag k="waterway" v="stream" />
	</node>
	<node lat="59.22366666869011" lon="9.255352782347478" id="-21429">
		<tag k="name" v="Vestervatn" />
		<tag k="natural" v="water" />
		<tag k="ssr:stedsnr" v="223903" />
		<tag k="water" v="lake" />
	</node>
	<node lat="59.224530555476626" lon="9.275027778541329" id="-21430">
		<tag k="name" v="Dammansbekken" />
		<tag k="ssr:stedsnr" v="223909" />
		<tag k="waterway" v="stream" />
	</node>
	<node lat="59.35580555247595" lon="9.111427771208582" id="-21435">
		<tag k="name" v="Tverrbekken" />
		<tag k="ssr:stedsnr" v="449652" />
		<tag k="waterway" v="stream" />
	</node>
	<node lat="59.319566663308585" lon="9.024263894800132" id="-21442">
		<tag k="name" v="Lognevja" />
		<tag k="natural" v="bay" />
		<tag k="ssr:stedsnr" v="236104" />
	</node>
	<node lat="59.21801111557948" lon="9.156672228813562" id="-21444">
		<tag k="name" v="Lille Minnesjø" />
		<tag k="natural" v="water" />
		<tag k="ssr:stedsnr" v="237411" />
		<tag k="water" v="lake" />
	</node>
	<node lat="59.22948333235486" lon="9.327913880864957" id="-21465">
		<tag k="name" v="Buratjønn" />
		<tag k="natural" v="water" />
		<tag k="ssr:stedsnr" v="450760" />
		<tag k="water" v="pond" />
	</node>
	<node lat="59.24619166868843" lon="9.290708339047763" id="-21466">
		<tag k="name" v="Igletjønnane" />
		<tag k="natural" v="water" />
		<tag k="ssr:stedsnr" v="450927" />
	</node>
	<node lat="59.160155553683275" lon="9.243641669092547" id="-21485">
		<tag k="alt_name" v="Børten, store" />
		<tag k="name" v="Børten" />
		<tag k="natural" v="water" />
		<tag k="ssr:stedsnr" v="244986" />
		<tag k="water" v="lake" />
	</node>
	<node lat="59.258058337145876" lon="9.29976110617818" id="-21490">
		<tag k="alt_name" v="Damtjørn" />
		<tag k="name" v="Damtjønn" />
		<tag k="natural" v="water" />
		<tag k="ssr:stedsnr" v="245618" />
	</node>
	<node lat="59.21856666403928" lon="9.319033342053801" id="-21498">
		<tag k="name" v="Tangen" />
		<tag k="place" v="island" />
		<tag k="ssr:stedsnr" v="267838" />
	</node>
	<node lat="59.27470555485316" lon="9.334772215410444" id="-21505">
		<tag k="name" v="Febakkebekken" />
		<tag k="ssr:stedsnr" v="283106" />
		<tag k="waterway" v="stream" />
	</node>
	<node lat="59.20768333567386" lon="9.091844444416134" id="-21513">
		<tag k="name" v="Langoddtjønn" />
		<tag k="natural" v="water" />
		<tag k="ssr:stedsnr" v="298312" />
	</node>
	<node lat="59.179455556215125" lon="9.204941660536909" id="-21515">
		<tag k="name" v="Serktjønn" />
		<tag k="natural" v="water" />
		<tag k="ssr:stedsnr" v="298806" />
	</node>
	<node lat="59.325511108307275" lon="9.166983328522342" id="-21526">
		<tag k="alt_name" v="Igletjørn" />
		<tag k="name" v="Igletjønn" />
		<tag k="natural" v="water" />
		<tag k="ssr:stedsnr" v="305204" />
	</node>
	<node lat="59.24543055736006" lon="9.14897222256613" id="-21529">
		<tag k="alt_name" v="Grinitjønn" />
		<tag k="name" v="Grinitjørn" />
		<tag k="natural" v="water" />
		<tag k="ssr:stedsnr" v="305427" />
	</node>
	<node lat="59.22252830044567" lon="9.02197516183772" id="-21530">
		<tag k="alt_name" v="Svarttjønnbekken" />
		<tag k="name" v="Svarttjernbekken" />
		<tag k="ssr:stedsnr" v="305429" />
		<tag k="waterway" v="stream" />
	</node>
	<node lat="59.32462221843275" lon="8.889755562210981" id="-21536">
		<tag k="name" v="Kilheitjørna" />
		<tag k="natural" v="water" />
		<tag k="ssr:stedsnr" v="306212" />
	</node>
	<node lat="59.3282527774062" lon="8.906122229670617" id="-21537">
		<tag k="alt_name" v="Åmnestjørna, heimre" />
		<tag k="name" v="Heimare Omnestjønn" />
		<tag k="natural" v="water" />
		<tag k="ssr:stedsnr" v="306214" />
	</node>
	<node lat="59.331208337829196" lon="9.248966671953847" id="-21541">
		<tag k="name" v="Petvikodden" />
		<tag k="natural" v="cape" />
		<tag k="ssr:stedsnr" v="306852" />
	</node>
	<node lat="59.37338611457597" lon="9.12583333384854" id="-21546">
		<tag k="alt_name" v="Svarttjørn" />
		<tag k="name" v="Svarttjønn" />
		<tag k="natural" v="water" />
		<tag k="ssr:stedsnr" v="313681" />
	</node>
	<node lat="59.343127776025646" lon="8.960022217538366" id="-21547">
		<tag k="name" v="Flomtjønnbærnuta" />
		<tag k="natural" v="water" />
		<tag k="ssr:stedsnr" v="327107" />
	</node>
	<node lat="59.2595861114376" lon="9.02068610758744" id="-21548">
		<tag k="name" v="Røytjønn" />
		<tag k="natural" v="water" />
		<tag k="ssr:stedsnr" v="327157" />
	</node>
	<node lat="59.25934444451169" lon="9.235797230805751" id="-21565">
		<tag k="name" v="Nukebekken" />
		<tag k="ssr:stedsnr" v="358105" />
		<tag k="waterway" v="stream" />
	</node>
	<node lat="59.1919583289299" lon="9.279083339613575" id="-21568">
		<tag k="name" v="Svarttjønn" />
		<tag k="natural" v="water" />
		<tag k="ssr:stedsnr" v="358808" />
	</node>
	<node lat="59.290227778758286" lon="9.175444438704051" id="-21571">
		<tag k="name" v="Nomevatn" />
		<tag k="natural" v="water" />
		<tag k="ssr:stedsnr" v="359908" />
		<tag k="water" v="lake" />
	</node>
	<node lat="59.22770833004095" lon="9.236994451772386" id="-21572">
		<tag k="name" v="Kupinn" />
		<tag k="place" v="islet" />
		<tag k="ssr:stedsnr" v="359959" />
	</node>
	<node lat="59.375425001251905" lon="9.084566664915338" id="-21583">
		<tag k="name" v="Fiskebekken" />
		<tag k="ssr:stedsnr" v="366294" />
		<tag k="waterway" v="stream" />
	</node>
	<node lat="59.20268055768458" lon="9.191563892006679" id="-21603">
		<tag k="name" v="Askebekk" />
		<tag k="ssr:stedsnr" v="480837" />
		<tag k="waterway" v="stream" />
	</node>
	<node lat="59.17566666250292" lon="9.187536112115609" id="-21605">
		<tag k="name" v="Vitnesjø" />
		<tag k="natural" v="water" />
		<tag k="ssr:stedsnr" v="480854" />
		<tag k="water" v="lake" />
	</node>
	<node lat="59.28914444262277" lon="9.023194441744117" id="-21608">
		<tag k="name" v="Løken" />
		<tag k="natural" v="water" />
		<tag k="ssr:stedsnr" v="387221" />
		<tag k="water" v="lake" />
	</node>
	<node lat="59.28834444665048" lon="8.879563884247963" id="-21612">
		<tag k="name" v="Kjøya" />
		<tag k="natural" v="water" />
		<tag k="ssr:stedsnr" v="388413" />
		<tag k="water" v="pond" />
	</node>
	<node lat="59.25127862050565" lon="9.052778633622955" id="-21642">
		<tag k="alt_name" v="Gångevatnet" />
		<tag k="name" v="Gongevatn" />
		<tag k="natural" v="water" />
		<tag k="ssr:stedsnr" v="486424" />
		<tag k="water" v="lake" />
	</node>
	<node lat="59.33831388604051" lon="8.9674972191571" id="-21643">
		<tag k="alt_name" v="Flåmtjørn" />
		<tag k="name" v="Flomtjønn" />
		<tag k="natural" v="water" />
		<tag k="old_name" v="Flomtjonn" />
		<tag k="ssr:stedsnr" v="487280" />
	</node>
	<node lat="59.25455000118833" lon="9.108488880522188" id="-21645">
		<tag k="alt_name" v="Svarttjønn" />
		<tag k="name" v="Svarttjørn" />
		<tag k="natural" v="water" />
		<tag k="ssr:stedsnr" v="487078" />
	</node>
	<node lat="59.263236108935445" lon="8.935172217499687" id="-21648">
		<tag k="alt_name" v="Vardetjørn" />
		<tag k="name" v="Vardetjønn" />
		<tag k="natural" v="water" />
		<tag k="ssr:stedsnr" v="487097" />
	</node>
	<node lat="59.303947224390015" lon="8.973372224284253" id="-21649">
		<tag k="alt_name" v="Lomtjørn" />
		<tag k="name" v="Lomtjønn" />
		<tag k="natural" v="water" />
		<tag k="ssr:stedsnr" v="487181" />
		<tag k="water" v="lake" />
	</node>
	<node lat="59.276063885848075" lon="8.971625000332462" id="-21652">
		<tag k="alt_name" v="Vårbutjørna, nedre" />
		<tag k="name" v="Nedre Vårbutjønn" />
		<tag k="natural" v="water" />
		<tag k="ssr:stedsnr" v="487122" />
	</node>
	<node lat="59.36692778071194" lon="9.068463882160529" id="-21654">
		<tag k="alt_name" v="Børtetjørna" />
		<tag k="name" v="Børtetjønna" />
		<tag k="natural" v="water" />
		<tag k="ssr:stedsnr" v="487330" />
	</node>
	<node lat="59.21348055779966" lon="9.087297226976178" id="-21656">
		<tag k="alt_name" v="Klingretjønn" />
		<tag k="name" v="Klingretjørn" />
		<tag k="natural" v="water" />
		<tag k="ssr:stedsnr" v="487438" />
	</node>
	<node lat="59.31440833318785" lon="9.23338610975282" id="-21668">
		<tag k="alt_name" v="Svarttjern" />
		<tag k="name" v="Svarttjønn" />
		<tag k="natural" v="water" />
		<tag k="ssr:stedsnr" v="488768" />
	</node>
	<node lat="59.22413055537593" lon="9.101483337655376" id="-21676">
		<tag k="name" v="Bukkehølen" />
		<tag k="place" v="locality" />
		<tag k="ssr:stedsnr" v="420316" />
	</node>
	<node lat="59.199508330542116" lon="9.209647219258795" id="-21683">
		<tag k="name" v="Sannervannet" />
		<tag k="natural" v="water" />
		<tag k="ssr:stedsnr" v="426314" />
		<tag k="water" v="lake" />
	</node>
	<node lat="59.22363888860702" lon="9.018644441382671" id="-21685">
		<tag k="name" v="Svarttjørna" />
		<tag k="natural" v="water" />
		<tag k="ssr:stedsnr" v="426405" />
	</node>
	<node lat="59.22165833521782" lon="9.157222224054069" id="-21686">
		<tag k="alt_name" v="Huldretjønn" />
		<tag k="name" v="Huldretjørn" />
		<tag k="natural" v="water" />
		<tag k="ssr:stedsnr" v="426383" />
	</node>
	<node lat="59.272547222892726" lon="9.065230560655063" id="-21687">
		<tag k="alt_name" v="Nekatjørna" />
		<tag k="name" v="Nekatjønn" />
		<tag k="natural" v="water" />
		<tag k="ssr:stedsnr" v="427111" />
	</node>
	<node lat="59.34203610797185" lon="9.16581111707293" id="-21692">
		<tag k="name" v="Gangsjå" />
		<tag k="natural" v="water" />
		<tag k="ssr:stedsnr" v="427274" />
		<tag k="water" v="lake" />
	</node>
	<node lat="59.34444722163763" lon="9.0372222301902" id="-21705">
		<tag k="name" v="Stordalstjønnbekken" />
		<tag k="ssr:stedsnr" v="449380" />
		<tag k="waterway" v="stream" />
	</node>
	<node lat="59.35726389299397" lon="8.962405554741409" id="-21707">
		<tag k="name" v="Øvre Rugbøletjønn" />
		<tag k="natural" v="water" />
		<tag k="ssr:stedsnr" v="450211" />
	</node>
	<node lat="59.358283331384435" lon="9.064791659537502" id="-21710">
		<tag k="name" v="Gryteåa" />
		<tag k="ssr:stedsnr" v="450610" />
		<tag k="waterway" v="stream" />
	</node>
	<node lat="59.28118611052933" lon="9.298319444534451" id="-21717">
		<tag k="name" v="Lillesand" />
		<tag k="natural" v="bay" />
		<tag k="ssr:stedsnr" v="465122" />
	</node>
	<node lat="59.16141944053122" lon="9.19613611343308" id="-21720">
		<tag k="name" v="Grunnvatnselva" />
		<tag k="ssr:stedsnr" v="465658" />
		<tag k="waterway" v="river" />
	</node>
	<node lat="59.240472222882715" lon="9.046244439695807" id="-21730">
		<tag k="name" v="Vestbekken" />
		<tag k="ssr:stedsnr" v="480116" />
		<tag k="waterway" v="stream" />
	</node>
	<node lat="59.2515694416428" lon="9.210438897264664" id="-21748">
		<tag k="alt_name" v="Igletjønn" />
		<tag k="name" v="Igletjørn" />
		<tag k="natural" v="water" />
		<tag k="ssr:stedsnr" v="487058" />
	</node>
	<node lat="59.34296388730375" lon="8.920194441927983" id="-21751">
		<tag k="alt_name" v="Igletjørn" />
		<tag k="name" v="Igletjønn" />
		<tag k="natural" v="water" />
		<tag k="ssr:stedsnr" v="487273" />
	</node>
	<node lat="59.30930277540638" lon="9.218222214870107" id="-21752">
		<tag k="name" v="Kåsatjørn" />
		<tag k="natural" v="water" />
		<tag k="ssr:stedsnr" v="487801" />
	</node>
	<node lat="59.2725972229782" lon="8.917027783586928" id="-21759">
		<tag k="name" v="Grisbekktjønnane" />
		<tag k="natural" v="water" />
		<tag k="ssr:stedsnr" v="509283" />
	</node>
	<node lat="59.31353888598898" lon="8.945847229876597" id="-21761">
		<tag k="name" v="Buktaodden" />
		<tag k="natural" v="cape" />
		<tag k="ssr:stedsnr" v="509293" />
	</node>
	<node lat="59.2790388918551" lon="8.968980561830252" id="-21763">
		<tag k="name" v="Vårbubekken" />
		<tag k="ssr:stedsnr" v="510077" />
		<tag k="waterway" v="stream" />
	</node>
	<node lat="59.24119444853127" lon="9.398000006610589" id="-21766">
		<tag k="name" v="Fantodde" />
		<tag k="natural" v="cape" />
		<tag k="ssr:stedsnr" v="510272" />
	</node>
	<node lat="59.2443944459621" lon="9.289766674234471" id="-21774">
		<tag k="name" v="Kukleivtjønn" />
		<tag k="natural" v="water" />
		<tag k="ssr:stedsnr" v="511911" />
	</node>
	<node lat="59.24319166460348" lon="9.063925004193747" id="-21776">
		<tag k="name" v="Kattehølen" />
		<tag k="place" v="locality" />
		<tag k="ssr:stedsnr" v="526302" />
	</node>
	<node lat="59.161674997323566" lon="9.199866665711864" id="-21777">
		<tag k="name" v="Grunnvatnsosen" />
		<tag k="natural" v="bay" />
		<tag k="ssr:stedsnr" v="526665" />
	</node>
	<node lat="59.288213891542334" lon="9.195033325959113" id="-21780">
		<tag k="name" v="Yttingbekken" />
		<tag k="ssr:stedsnr" v="526925" />
		<tag k="waterway" v="stream" />
	</node>
	<node lat="59.25694999596945" lon="9.135794439395953" id="-21788">
		<tag k="name" v="Lauvåa" />
		<tag k="ssr:stedsnr" v="541622" />
		<tag k="waterway" v="river" />
	</node>
	<node lat="59.279947225160164" lon="9.042975004593591" id="-21799">
		<tag k="alt_name" v="Øvre Trytetjønn" />
		<tag k="name" v="Trytetjørnane" />
		<tag k="natural" v="water" />
		<tag k="ssr:stedsnr" v="548110" />
	</node>
	<node lat="59.253005551764446" lon="9.02811945137588" id="-21801">
		<tag k="name" v="Finnvollbekken" />
		<tag k="ssr:stedsnr" v="548080" />
		<tag k="waterway" v="stream" />
	</node>
	<node lat="59.35056110668452" lon="8.943324994603485" id="-21803">
		<tag k="alt_name" v="Åstjørn" />
		<tag k="name" v="Åstjønn" />
		<tag k="natural" v="water" />
		<tag k="ssr:stedsnr" v="548259" />
	</node>
	<node lat="59.36176110959152" lon="8.966788893666827" id="-21810">
		<tag k="alt_name" v="Fagerlitjørna" />
		<tag k="name" v="Fagerlitjønna" />
		<tag k="natural" v="water" />
		<tag k="ssr:stedsnr" v="548324" />
	</node>
	<node lat="59.27284444447962" lon="8.835705560892068" id="-21814">
		<tag k="alt_name" v="Igletjørn" />
		<tag k="name" v="Igletjønn" />
		<tag k="natural" v="water" />
		<tag k="ssr:stedsnr" v="549652" />
	</node>
	<node lat="59.30163889281438" lon="9.027411112826888" id="-21842">
		<tag k="name" v="Hjerpedalsbekken" />
		<tag k="ssr:stedsnr" v="570211" />
		<tag k="waterway" v="stream" />
	</node>
	<node lat="59.1636916667687" lon="9.199075007617376" id="-21873">
		<tag k="name" v="Bøvatn" />
		<tag k="natural" v="water" />
		<tag k="ssr:stedsnr" v="601825" />
		<tag k="water" v="lake" />
	</node>
	<node lat="59.322911110777504" lon="9.165724999499092" id="-21882">
		<tag k="alt_name" v="Kroktjørnbekken" />
		<tag k="name" v="Kroktjønnbekken" />
		<tag k="ssr:stedsnr" v="608199" />
		<tag k="waterway" v="stream" />
	</node>
	<node lat="59.22806962477266" lon="9.23955596687441" id="-21893">
		<tag k="name" v="Venomvann" />
		<tag k="natural" v="water" />
		<tag k="ssr:stedsnr" v="608954" />
	</node>
	<node lat="59.28910555285274" lon="9.017341664411846" id="-21898">
		<tag k="alt_name" v="Kjelddalselva" />
		<tag k="name" v="Kjeldalelva" />
		<tag k="ssr:stedsnr" v="609146" />
		<tag k="waterway" v="river" />
	</node>
	<node lat="59.24169722178733" lon="9.350416670841563" id="-21910">
		<tag k="name" v="Harpetjønn" />
		<tag k="natural" v="water" />
		<tag k="ssr:stedsnr" v="632461" />
	</node>
	<node lat="59.3202722234651" lon="9.213386107643544" id="-21914">
		<tag k="name" v="Damtjønn" />
		<tag k="natural" v="water" />
		<tag k="old_name" v="Dammtjønn" />
		<tag k="ssr:stedsnr" v="633586" />
		<tag k="water" v="pond" />
	</node>
	<node lat="59.15620278074107" lon="9.265586109339589" id="-21917">
		<tag k="name" v="Svarttjenn" />
		<tag k="natural" v="water" />
		<tag k="ssr:stedsnr" v="635177" />
	</node>
	<node lat="59.26103611221821" lon="9.119333339390668" id="-21919">
		<tag k="name" v="Hauglandstjønna" />
		<tag k="natural" v="water" />
		<tag k="ssr:stedsnr" v="647639" />
	</node>
	<node lat="59.158816667456406" lon="9.178733341731743" id="-21920">
		<tag k="name" v="Grunnvatnsbekken" />
		<tag k="ssr:stedsnr" v="647687" />
		<tag k="waterway" v="stream" />
	</node>
	<node lat="59.22060277823014" lon="9.270180564079071" id="-21923">
		<tag k="name" v="Stavøy" />
		<tag k="place" v="islet" />
		<tag k="ssr:stedsnr" v="647906" />
	</node>
	<node lat="59.205786108020874" lon="9.19603054892784" id="-21925">
		<tag k="name" v="Ugge-elva" />
		<tag k="ssr:stedsnr" v="647987" />
		<tag k="waterway" v="river" />
	</node>
	<node lat="59.282172221589576" lon="9.299941673481326" id="-21928">
		<tag k="name" v="Torsnesodden" />
		<tag k="natural" v="cape" />
		<tag k="ssr:stedsnr" v="708174" />
	</node>
	<node lat="59.22920277753295" lon="9.136694440808972" id="-21931">
		<tag k="name" v="Moellbukta" />
		<tag k="natural" v="bay" />
		<tag k="ssr:stedsnr" v="708293" />
	</node>
	<node lat="59.2232027801101" lon="9.269422220923152" id="-21933">
		<tag k="name" v="Grønnøya" />
		<tag k="place" v="islet" />
		<tag k="ssr:stedsnr" v="708879" />
	</node>
	<node lat="59.25118333203996" lon="9.131444449975174" id="-21944">
		<tag k="name" v="Halvorståøy" />
		<tag k="place" v="islet" />
		<tag k="ssr:stedsnr" v="662617" />
	</node>
	<node lat="59.27972499766563" lon="9.242299991322938" id="-21952">
		<tag k="name" v="Heisholtevja" />
		<tag k="natural" v="water" />
		<tag k="ssr:stedsnr" v="663120" />
		<tag k="water" v="lake" />
	</node>
	<node lat="59.265458329131185" lon="8.945533328806318" id="-21955">
		<tag k="name" v="Steinbutjørna" />
		<tag k="natural" v="water" />
		<tag k="ssr:stedsnr" v="669089" />
	</node>
	<node lat="59.24522222095782" lon="9.119988893213424" id="-21962">
		<tag k="name" v="Heimdalsvatnet" />
		<tag k="natural" v="water" />
		<tag k="ssr:stedsnr" v="669410" />
		<tag k="water" v="lake" />
	</node>
	<node lat="59.21799166648825" lon="9.16701388200569" id="-21963">
		<tag k="alt_name" v="Bjorvik" />
		<tag k="name" v="Bjorvika" />
		<tag k="natural" v="bay" />
		<tag k="ssr:stedsnr" v="669423" />
	</node>
	<node lat="59.30748055398843" lon="9.165808330854796" id="-21975">
		<tag k="name" v="Tveitanevja" />
		<tag k="place" v="locality" />
		<tag k="ssr:stedsnr" v="670173" />
	</node>
	<node lat="59.26452222030048" lon="9.236508332739783" id="-21981">
		<tag k="alt_name" v="Tvaratjenn" />
		<tag k="name" v="Tvaratjørn" />
		<tag k="natural" v="water" />
		<tag k="ssr:stedsnr" v="670622" />
	</node>
	<node lat="59.27914166467548" lon="9.31071944015376" id="-21982">
		<tag k="name" v="Lysnesodden" />
		<tag k="natural" v="cape" />
		<tag k="ssr:stedsnr" v="890131" />
	</node>
	<node lat="59.24212777828513" lon="9.124816670449555" id="-21985">
		<tag k="name" v="Fiskodde" />
		<tag k="natural" v="cape" />
		<tag k="ssr:stedsnr" v="890283" />
	</node>
	<node lat="59.24424999635542" lon="9.15388056211995" id="-21989">
		<tag k="name" v="Kjerkebekken" />
		<tag k="ssr:stedsnr" v="890292" />
		<tag k="waterway" v="stream" />
	</node>
	<node lat="59.266563886613774" lon="9.132691671914776" id="-21992">
		<tag k="name" v="Bennyøy" />
		<tag k="place" v="islet" />
		<tag k="ssr:stedsnr" v="890640" />
	</node>
	<node lat="59.14573888794236" lon="9.181088887107329" id="-21993">
		<tag k="alt_name" v="Blanktjern" />
		<tag k="name" v="Blomtjønn" />
		<tag k="natural" v="water" />
		<tag k="ssr:stedsnr" v="890678" />
	</node>
	<node lat="59.32068888455938" lon="8.985219436708752" id="-22004">
		<tag k="name" v="Flomevja" />
		<tag k="natural" v="bay" />
		<tag k="ssr:stedsnr" v="692031" />
	</node>
	<node lat="59.34774166527738" lon="8.96623611739137" id="-22007">
		<tag k="name" v="Svarteputt" />
		<tag k="natural" v="water" />
		<tag k="ssr:stedsnr" v="692093" />
		<tag k="water" v="pond" />
	</node>
	<node lat="59.35899444482669" lon="8.967005550999378" id="-22011">
		<tag k="name" v="Nedre Rugbøletjønn" />
		<tag k="natural" v="water" />
		<tag k="ssr:stedsnr" v="692191" />
	</node>
	<node lat="59.31759722645066" lon="9.2576138873186" id="-22021">
		<tag k="name" v="Brattebergbukta" />
		<tag k="natural" v="bay" />
		<tag k="ssr:stedsnr" v="694707" />
	</node>
	<node lat="59.3486722218047" lon="9.084577773498564" id="-22025">
		<tag k="name" v="Noremstjønnane" />
		<tag k="natural" v="water" />
		<tag k="ssr:stedsnr" v="897130" />
		<tag k="water" v="lake" />
	</node>
	<node lat="59.30393888888555" lon="9.109527780279107" id="-22031">
		<tag k="name" v="Ajertangen" />
		<tag k="natural" v="cape" />
		<tag k="ssr:stedsnr" v="708726" />
	</node>
	<node lat="59.344169444168436" lon="9.091705555719345" id="-22033">
		<tag k="name" v="Noremstjønna" />
		<tag k="natural" v="water" />
		<tag k="ssr:stedsnr" v="715123" />
		<tag k="water" v="lake" />
	</node>
	<node lat="59.174455556026814" lon="9.213480554357982" id="-22040">
		<tag k="name" v="Småtjønnane" />
		<tag k="natural" v="water" />
		<tag k="ssr:stedsnr" v="723807" />
	</node>
	<node lat="59.164975002032364" lon="9.203163889758446" id="-22042">
		<tag k="name" v="Prestvatnsbekken" />
		<tag k="ssr:stedsnr" v="723811" />
		<tag k="waterway" v="stream" />
	</node>
	<node lat="59.203836113830164" lon="9.219511114511787" id="-22043">
		<tag k="name" v="Ormetjønnbekken" />
		<tag k="ssr:stedsnr" v="723673" />
		<tag k="waterway" v="stream" />
	</node>
	<node lat="59.26736388767839" lon="9.107741667790178" id="-22050">
		<tag k="alt_name" v="Hauglandstjønna" />
		<tag k="name" v="Hauglandstjørna" />
		<tag k="natural" v="water" />
		<tag k="ssr:stedsnr" v="730075" />
	</node>
	<node lat="59.31863611228208" lon="8.894730549716352" id="-22051">
		<tag k="alt_name" v="Kvernåa" />
		<tag k="name" v="Kvennåa" />
		<tag k="ssr:stedsnr" v="730205" />
		<tag k="waterway" v="stream" />
	</node>
	<node lat="59.357963889897746" lon="8.956333338181379" id="-22057">
		<tag k="alt_name" v="Grøntjørn" />
		<tag k="name" v="Grøntjønn" />
		<tag k="natural" v="water" />
		<tag k="ssr:stedsnr" v="730303" />
	</node>
	<node lat="59.24094999709881" lon="9.098341665379882" id="-22058">
		<tag k="alt_name" v="Skardetjønn" />
		<tag k="name" v="Skardtjørna" />
		<tag k="natural" v="water" />
		<tag k="ssr:stedsnr" v="730413" />
	</node>
	<node lat="59.21565555219748" lon="9.097358336169973" id="-22060">
		<tag k="alt_name" v="Svanetjørn" />
		<tag k="name" v="Svanetjønn" />
		<tag k="natural" v="water" />
		<tag k="ssr:stedsnr" v="730423" />
	</node>
	<node lat="59.28870555830754" lon="9.09208054760791" id="-22062">
		<tag k="name" v="Skoeelva" />
		<tag k="ssr:stedsnr" v="731111" />
		<tag k="waterway" v="stream" />
	</node>
	<node lat="59.33238333698486" lon="9.158686118487323" id="-22073">
		<tag k="name" v="Nedre Kroktjønn" />
		<tag k="natural" v="water" />
		<tag k="ssr:stedsnr" v="753070" />
	</node>
	<node lat="59.21937222209754" lon="9.329563893092839" id="-22080">
		<tag k="name" v="Gudmundsbekken" />
		<tag k="ssr:stedsnr" v="753814" />
		<tag k="waterway" v="stream" />
	</node>
	<node lat="59.22443889129556" lon="9.313747223451736" id="-22081">
		<tag k="name" v="Skiftetjønnbekken" />
		<tag k="ssr:stedsnr" v="753817" />
		<tag k="waterway" v="rapids" />
	</node>
	<node lat="59.29332777517241" lon="9.086575000450964" id="-22089">
		<tag k="name" v="Skoeelva" />
		<tag k="ssr:stedsnr" v="905363" />
		<tag k="waterway" v="river" />
	</node>
	<node lat="59.253680551957494" lon="9.132636110047931" id="-22093">
		<tag k="name" v="Snikodden" />
=======
<osm generator="osmapis" version="0.6">
	<node id="-442359" lat="59.3263945035" lon="9.14834498288">
		<tag k="name" v="Langetjønn" />
		<tag k="natural" v="water" />
		<tag k="ssr:stedsnr" v="267061" />
	</node>
	<node id="-442357" lat="59.3147805587" lon="8.96746666448">
		<tag k="name" v="Kårsteinsundet" />
		<tag k="natural" v="strait" />
		<tag k="ssr:stedsnr" v="267020" />
	</node>
	<node id="-442356" lat="59.2649916629" lon="8.85255000565">
		<tag k="alt_name" v="Igletjørn" />
		<tag k="name" v="Gardtjønn" />
		<tag k="natural" v="water" />
		<tag k="ssr:stedsnr" v="130639" />
	</node>
	<node id="-442355" lat="59.338222219" lon="8.90036944267">
		<tag k="alt_name" v="Åmnestjørna, austre" />
		<tag k="name" v="Østre Omnestjønn" />
		<tag k="natural" v="water" />
		<tag k="ssr:stedsnr" v="123269" />
	</node>
	<node id="-444400" lat="59.3424944432" lon="8.90275277149">
		<tag k="name" v="Bokketjønn" />
		<tag k="natural" v="water" />
		<tag k="ssr:stedsnr" v="813196" />
		<tag k="water" v="pond" />
	</node>
	<node id="-444395" lat="59.2862861096" lon="8.99938888639">
		<tag k="name" v="Igletjønnbekken" />
		<tag k="ssr:stedsnr" v="813066" />
		<tag k="waterway" v="stream" />
	</node>
	<node id="-442344" lat="59.2096861127" lon="9.05045000422">
		<tag k="name" v="Sverdalselva" />
		<tag k="ssr:stedsnr" v="116219" />
		<tag k="waterway" v="river" />
	</node>
	<node id="-444391" lat="59.2992361126" lon="8.98117222391">
		<tag k="name" v="Småtjønnane" />
		<tag k="natural" v="water" />
		<tag k="ssr:stedsnr" v="813001" />
	</node>
	<node id="-444388" lat="59.2775805554" lon="9.35263611594">
		<tag k="name" v="Nordbukta" />
		<tag k="natural" v="bay" />
		<tag k="ssr:stedsnr" v="791737" />
	</node>
	<node id="-444386" lat="59.2819780933" lon="9.29584300525">
		<tag k="name" v="Torsnes" />
		<tag k="natural" v="cape" />
		<tag k="ssr:stedsnr" v="791689" />
	</node>
	<node id="-444385" lat="59.2512194401" lon="9.34116944313">
		<tag k="alt_name" v="Hjøntveittjørn;Hjøntveittjern" />
		<tag k="name" v="Jøntvedttjønna" />
		<tag k="natural" v="water" />
		<tag k="ssr:stedsnr" v="791674" />
	</node>
	<node id="-442334" lat="59.2492277785" lon="9.38170554873">
		<tag k="name" v="Helgjevikbekken" />
		<tag k="ssr:stedsnr" v="86308" />
		<tag k="waterway" v="stream" />
	</node>
	<node id="-444379" lat="59.3363416643" lon="9.04723055326">
		<tag k="alt_name" v="Stordalstjørna" />
		<tag k="name" v="Stordalstjønn" />
		<tag k="natural" v="water" />
		<tag k="ssr:stedsnr" v="791273" />
	</node>
	<node id="-442330" lat="59.2813222246" lon="9.03322499799">
		<tag k="name" v="Nonsfjelltjønn" />
		<tag k="natural" v="water" />
		<tag k="ssr:stedsnr" v="85170" />
		<tag k="water" v="pond" />
	</node>
	<node id="-444372" lat="59.2687777759" lon="8.98865832534">
		<tag k="name" v="Sauåselva" />
		<tag k="ssr:stedsnr" v="791120" />
		<tag k="waterway" v="river" />
	</node>
	<node id="-444371" lat="59.2563750003" lon="8.95496666283">
		<tag k="name" v="Gusstulvannet" />
		<tag k="natural" v="water" />
		<tag k="ssr:stedsnr" v="791112" />
		<tag k="water" v="lake" />
	</node>
	<node id="-442319" lat="59.3506666644" lon="8.95957222221">
		<tag k="alt_name" v="Limtjørna" />
		<tag k="name" v="Limtjønn" />
		<tag k="natural" v="water" />
		<tag k="ssr:stedsnr" v="245243" />
	</node>
	<node id="-442315" lat="59.3196416673" lon="9.18170555807">
		<tag k="alt_name" v="Laugtjørna" />
		<tag k="name" v="Laugtjønna" />
		<tag k="natural" v="water" />
		<tag k="ssr:stedsnr" v="245179" />
	</node>
	<node id="-444362" lat="59.2151749971" lon="9.31787777735">
		<tag k="alt_name" v="Stavsjø, nedre" />
		<tag k="name" v="Nedre Stavsjø" />
		<tag k="natural" v="water" />
		<tag k="ssr:stedsnr" v="790931" />
		<tag k="water" v="lake" />
	</node>
	<node id="-444407" lat="59.3576111092" lon="9.04879722128">
		<tag k="name" v="Kjøltjønn" />
		<tag k="natural" v="water" />
		<tag k="ssr:stedsnr" v="813402" />
	</node>
	<node id="-444359" lat="59.3156499995" lon="9.15569166804">
		<tag k="alt_name" v="Lintjørn" />
		<tag k="name" v="Lintjønn" />
		<tag k="natural" v="water" />
		<tag k="ssr:stedsnr" v="791189" />
	</node>
	<node id="-444354" lat="59.2000166647" lon="9.07661666273">
		<tag k="name" v="Sætreelva" />
		<tag k="ssr:stedsnr" v="790308" />
		<tag k="waterway" v="river" />
	</node>
	<node id="-444353" lat="59.223066664" lon="9.10578888649">
		<tag k="alt_name" v="Tranetjønn" />
		<tag k="name" v="Tranetjørn" />
		<tag k="natural" v="water" />
		<tag k="ssr:stedsnr" v="790435" />
	</node>
	<node id="-442304" lat="59.2632111117" lon="9.0768222192">
		<tag k="alt_name" v="Rekatjørn" />
		<tag k="name" v="Rekatjønn" />
		<tag k="natural" v="water" />
		<tag k="ssr:stedsnr" v="245070" />
	</node>
	<node id="-442303" lat="59.1601555537" lon="9.24364166909">
		<tag k="alt_name" v="Børten, store" />
		<tag k="name" v="Børten" />
		<tag k="natural" v="water" />
		<tag k="ssr:stedsnr" v="244986" />
		<tag k="water" v="lake" />
	</node>
	<node id="-442295" lat="59.2382305557" lon="9.42455555476">
		<tag k="alt_name" v="Munken, store;Store Munken" />
		<tag k="name" v="Munken" />
		<tag k="place" v="island" />
		<tag k="ssr:stedsnr" v="62040" />
	</node>
	<node id="-444340" lat="59.1998361153" lon="9.2641305641">
		<tag k="name" v="Husebekk" />
		<tag k="ssr:stedsnr" v="783854" />
		<tag k="waterway" v="stream" />
	</node>
	<node id="-444403" lat="59.3426527752" lon="9.00504166066">
		<tag k="name" v="Svarttjønn" />
		<tag k="natural" v="water" />
		<tag k="ssr:stedsnr" v="813365" />
	</node>
	<node id="-442287" lat="59.2279166652" lon="9.2573361084">
		<tag k="name" v="Øvre Stavsjø" />
		<tag k="natural" v="water" />
		<tag k="ssr:stedsnr" v="237951" />
		<tag k="water" v="lake" />
	</node>
	<node id="-442286" lat="59.1999166669" lon="9.26675833211">
		<tag k="name" v="Syltretjønn" />
		<tag k="natural" v="water" />
		<tag k="ssr:stedsnr" v="237844" />
	</node>
	<node id="-444330" lat="59.1928305558" lon="9.17874999297">
		<tag k="name" v="Masttjønn" />
		<tag k="natural" v="water" />
		<tag k="ssr:stedsnr" v="783674" />
	</node>
	<node id="-444327" lat="59.2548194479" lon="9.11881388191">
		<tag k="name" v="Jutultjønn" />
		<tag k="natural" v="water" />
		<tag k="ssr:stedsnr" v="783604" />
	</node>
	<node id="-444325" lat="59.2133055567" lon="9.10116944334">
		<tag k="name" v="Krabbestultjønn" />
		<tag k="natural" v="water" />
		<tag k="ssr:stedsnr" v="783304" />
	</node>
	<node id="-442276" lat="59.2520472211" lon="9.13260278031">
		<tag k="name" v="Langen" />
		<tag k="natural" v="water" />
		<tag k="ssr:stedsnr" v="237625" />
		<tag k="water" v="lake" />
	</node>
	<node id="-442275" lat="59.2506927223" lon="9.11638654417">
		<tag k="name" v="Heimdalsvann" />
		<tag k="natural" v="water" />
		<tag k="ssr:stedsnr" v="237624" />
		<tag k="water" v="lake" />
	</node>
	<node id="-442272" lat="59.2690472201" lon="9.06377222082">
		<tag k="name" v="Maurdalsputten" />
		<tag k="natural" v="water" />
		<tag k="ssr:stedsnr" v="55561" />
		<tag k="water" v="pond" />
	</node>
	<node id="-444318" lat="59.2071472201" lon="9.19100277549">
		<tag k="name" v="Kåsatangen" />
		<tag k="natural" v="cape" />
		<tag k="ssr:stedsnr" v="769983" />
	</node>
	<node id="-442269" lat="59.2707055551" lon="9.0867083261">
		<tag k="name" v="Dalatjønn" />
		<tag k="natural" v="water" />
		<tag k="ssr:stedsnr" v="55366" />
	</node>
	<node id="-442267" lat="59.2180111156" lon="9.15667222881">
		<tag k="name" v="Lille Minnesjø" />
		<tag k="natural" v="water" />
		<tag k="ssr:stedsnr" v="237411" />
		<tag k="water" v="lake" />
	</node>
	<node id="-442266" lat="59.2260055576" lon="9.10357222179">
		<tag k="name" v="Åslandselva" />
		<tag k="ssr:stedsnr" v="237318" />
		<tag k="waterway" v="river" />
	</node>
	<node id="-442261" lat="59.2420138933" lon="9.0559999964">
		<tag k="name" v="Tomasbekk" />
		<tag k="ssr:stedsnr" v="237146" />
		<tag k="waterway" v="stream" />
	</node>
	<node id="-442257" lat="59.3028250001" lon="9.1066249949">
		<tag k="name" v="Straumen" />
		<tag k="ssr:stedsnr" v="41728" />
		<tag k="waterway" v="river" />
	</node>
	<node id="-442256" lat="59.1462472216" lon="9.21196111218">
		<tag k="name" v="Serktjønn" />
		<tag k="natural" v="water" />
		<tag k="ssr:stedsnr" v="41670" />
	</node>
	<node id="-442255" lat="59.1548805532" lon="9.1997944378">
		<tag k="name" v="Kutjønn" />
		<tag k="natural" v="water" />
		<tag k="ssr:stedsnr" v="41653" />
	</node>
	<node id="-442254" lat="59.2048611138" lon="9.22877778127">
		<tag k="name" v="Store Ormtjønn" />
		<tag k="natural" v="water" />
		<tag k="ssr:stedsnr" v="40919" />
	</node>
	<node id="-442247" lat="59.2440972259" lon="9.39880277511">
		<tag k="name" v="Lauvodde" />
		<tag k="natural" v="cape" />
		<tag k="old_name" v="Lauodde" />
		<tag k="ssr:stedsnr" v="25304" />
	</node>
	<node id="-444294" lat="59.3299416634" lon="9.18298055746">
		<tag k="name" v="Gangsjåbekken" />
		<tag k="ssr:stedsnr" v="755531" />
		<tag k="waterway" v="stream" />
	</node>
	<node id="-444291" lat="59.2376055524" lon="9.35280833308">
		<tag k="name" v="Russtjønn" />
		<tag k="natural" v="water" />
		<tag k="ssr:stedsnr" v="754484" />
	</node>
	<node id="-444290" lat="59.3370138888" lon="9.14823055967">
		<tag k="name" v="Linnadalsbekken" />
		<tag k="ssr:stedsnr" v="753885" />
		<tag k="waterway" v="stream" />
	</node>
	<node id="-442241" lat="59.2111055584" lon="9.1765472202">
		<tag k="name" v="Langen" />
		<tag k="natural" v="water" />
		<tag k="ssr:stedsnr" v="223994" />
		<tag k="water" v="lake" />
	</node>
	<node id="-442240" lat="59.2872916708" lon="9.18306110457">
		<tag k="name" v="Nukebekken" />
		<tag k="ssr:stedsnr" v="223947" />
		<tag k="waterway" v="stream" />
	</node>
	<node id="-444287" lat="59.2193722221" lon="9.32956389309">
		<tag k="name" v="Gudmundsbekken" />
		<tag k="ssr:stedsnr" v="753814" />
		<tag k="waterway" v="stream" />
	</node>
	<node id="-442238" lat="59.2245305555" lon="9.27502777854">
		<tag k="name" v="Dammansbekken" />
		<tag k="ssr:stedsnr" v="223909" />
		<tag k="waterway" v="stream" />
	</node>
	<node id="-442237" lat="59.2236666687" lon="9.25535278235">
		<tag k="name" v="Vestervatn" />
		<tag k="natural" v="water" />
		<tag k="ssr:stedsnr" v="223903" />
		<tag k="water" v="lake" />
	</node>
	<node id="-442230" lat="59.2821027795" lon="9.29811388418">
		<tag k="name" v="Labukta" />
		<tag k="natural" v="bay" />
		<tag k="ssr:stedsnr" v="223163" />
	</node>
	<node id="-444277" lat="59.2520638878" lon="9.40070278049">
		<tag k="name" v="Svarthol" />
		<tag k="natural" v="bay" />
		<tag k="ssr:stedsnr" v="753248" />
	</node>
	<node id="-444271" lat="59.332383337" lon="9.15868611849">
		<tag k="name" v="Nedre Kroktjønn" />
		<tag k="natural" v="water" />
		<tag k="ssr:stedsnr" v="753070" />
	</node>
	<node id="-444254" lat="59.205786108" lon="9.19603054893">
		<tag k="name" v="Ugge-elva" />
		<tag k="ssr:stedsnr" v="647987" />
		<tag k="waterway" v="river" />
	</node>
	<node id="-444245" lat="59.2610361122" lon="9.11933333939">
		<tag k="name" v="Hauglandstjønna" />
		<tag k="natural" v="water" />
		<tag k="ssr:stedsnr" v="647639" />
	</node>
	<node id="-444243" lat="59.1588166675" lon="9.17873334173">
		<tag k="name" v="Grunnvatnsbekken" />
		<tag k="ssr:stedsnr" v="647687" />
		<tag k="waterway" v="stream" />
	</node>
	<node id="-444238" lat="59.1562027807" lon="9.26558610934">
		<tag k="name" v="Svarttjenn" />
		<tag k="natural" v="water" />
		<tag k="ssr:stedsnr" v="635177" />
	</node>
	<node id="-444236" lat="59.3202722235" lon="9.21338610764">
		<tag k="name" v="Damtjønn" />
		<tag k="natural" v="water" />
		<tag k="old_name" v="Dammtjønn" />
		<tag k="ssr:stedsnr" v="633586" />
		<tag k="water" v="pond" />
	</node>
	<node id="-444230" lat="59.2178805595" lon="9.31190556102">
		<tag k="name" v="Brentøya" />
		<tag k="place" v="island" />
		<tag k="ssr:stedsnr" v="631849" />
	</node>
	<node id="-444227" lat="59.2218583376" lon="9.31066388228">
		<tag k="name" v="Åletjønn" />
		<tag k="natural" v="water" />
		<tag k="ssr:stedsnr" v="631857" />
		<tag k="water" v="pond" />
	</node>
	<node id="-444288" lat="59.2244388913" lon="9.31374722345">
		<tag k="name" v="Skiftetjønnbekken" />
		<tag k="ssr:stedsnr" v="753817" />
		<tag k="waterway" v="rapids" />
	</node>
	<node id="-444210" lat="59.281500004" lon="9.27530554686">
		<tag k="name" v="Ringsevja" />
		<tag k="natural" v="bay" />
		<tag k="ssr:stedsnr" v="609653" />
	</node>
	<node id="-444208" lat="59.3742333348" lon="9.00721666221">
		<tag k="alt_name" v="Eikaelva" />
		<tag k="name" v="Eikjaelva" />
		<tag k="ssr:stedsnr" v="609327" />
		<tag k="waterway" v="river" />
	</node>
	<node id="-444206" lat="59.3412111128" lon="9.01404999319">
		<tag k="alt_name" v="Trytetjørnane" />
		<tag k="name" v="Trytetjønnane" />
		<tag k="natural" v="water" />
		<tag k="ssr:stedsnr" v="609264" />
	</node>
	<node id="-444205" lat="59.3528611122" lon="9.09701944693">
		<tag k="alt_name" v="Løkedalsbekken" />
		<tag k="name" v="Løkjedalsbekken" />
		<tag k="ssr:stedsnr" v="609252" />
		<tag k="waterway" v="stream" />
	</node>
	<node id="-444202" lat="59.2891055529" lon="9.01734166441">
		<tag k="alt_name" v="Kjelddalselva" />
		<tag k="name" v="Kjeldalelva" />
		<tag k="ssr:stedsnr" v="609146" />
		<tag k="waterway" v="river" />
	</node>
	<node id="-444192" lat="59.2568416706" lon="9.29298054746">
		<tag k="alt_name" v="Håtveittjørn" />
		<tag k="name" v="Håtveittjønn" />
		<tag k="natural" v="water" />
		<tag k="ssr:stedsnr" v="608707" />
	</node>
	<node id="-444378" lat="59.2949372316" lon="9.00236738904">
		<tag k="alt_name" v="Fristjørn" />
		<tag k="name" v="Fristjønn" />
		<tag k="natural" v="water" />
		<tag k="ssr:stedsnr" v="791151" />
	</node>
	<node id="-444180" lat="59.2636944473" lon="8.8574166637">
		<tag k="alt_name" v="Furuvatnet, yt" />
		<tag k="name" v="Ytre Furuvatn" />
		<tag k="natural" v="water" />
		<tag k="ssr:stedsnr" v="608088" />
	</node>
	<node id="-444174" lat="59.3229111108" lon="9.1657249995">
		<tag k="alt_name" v="Kroktjørnbekken" />
		<tag k="name" v="Kroktjønnbekken" />
		<tag k="ssr:stedsnr" v="608199" />
		<tag k="waterway" v="stream" />
	</node>
	<node id="-444170" lat="59.2290833297" lon="9.26296944711">
		<tag k="name" v="Eikeståbukta" />
		<tag k="natural" v="bay" />
		<tag k="ssr:stedsnr" v="601944" />
	</node>
	<node id="-444169" lat="59.2463555518" lon="9.27213888144">
		<tag k="name" v="Langåstjønn" />
		<tag k="natural" v="water" />
		<tag k="ssr:stedsnr" v="601927" />
	</node>
	<node id="-444153" lat="59.2086583359" lon="9.18879722547">
		<tag k="name" v="Sanddokka" />
		<tag k="natural" v="bay" />
		<tag k="ssr:stedsnr" v="586986" />
	</node>
	<node id="-444129" lat="59.15485556" lon="9.28313611666">
		<tag k="name" v="Bjortjønn" />
		<tag k="natural" v="water" />
		<tag k="ssr:stedsnr" v="570582" />
	</node>
	<node id="-444125" lat="59.3418288072" lon="8.87889122072">
		<tag k="name" v="Vesle Sandtjønn" />
		<tag k="natural" v="water" />
		<tag k="ssr:stedsnr" v="570396" />
	</node>
	<node id="-444121" lat="59.3016388928" lon="9.02741111283">
		<tag k="name" v="Hjerpedalsbekken" />
		<tag k="ssr:stedsnr" v="570211" />
		<tag k="waterway" v="stream" />
	</node>
	<node id="-444114" lat="59.2201861123" lon="9.11705834091">
		<tag k="name" v="Sandalsbekken" />
		<tag k="ssr:stedsnr" v="557379" />
		<tag k="waterway" v="stream" />
	</node>
	<node id="-444113" lat="59.2728444445" lon="8.83570556089">
		<tag k="alt_name" v="Igletjørn" />
		<tag k="name" v="Igletjønn" />
		<tag k="natural" v="water" />
		<tag k="ssr:stedsnr" v="549652" />
	</node>
	<node id="-444110" lat="59.2951027744" lon="9.27083888438">
		<tag k="alt_name" v="Romnesvika" />
		<tag k="name" v="Romnesbukta" />
		<tag k="natural" v="bay" />
		<tag k="ssr:stedsnr" v="548791" />
	</node>
	<node id="-444109" lat="59.301347225" lon="9.2843166754">
		<tag k="name" v="Tjonodden" />
		<tag k="natural" v="cape" />
		<tag k="ssr:stedsnr" v="548790" />
	</node>
	<node id="-444098" lat="59.3617611096" lon="8.96678889367">
		<tag k="alt_name" v="Fagerlitjørna" />
		<tag k="name" v="Fagerlitjønna" />
		<tag k="natural" v="water" />
		<tag k="ssr:stedsnr" v="548324" />
	</node>
	<node id="-444093" lat="59.3505611067" lon="8.9433249946">
		<tag k="alt_name" v="Åstjørn" />
		<tag k="name" v="Åstjønn" />
		<tag k="natural" v="water" />
		<tag k="ssr:stedsnr" v="548259" />
	</node>
	<node id="-444082" lat="59.2893750009" lon="8.98283055388">
		<tag k="alt_name" v="Svarttjørn" />
		<tag k="name" v="Svarttjønn" />
		<tag k="natural" v="water" />
		<tag k="ssr:stedsnr" v="548139" />
	</node>
	<node id="-444081" lat="59.2866166662" lon="8.98964166595">
		<tag k="alt_name" v="Igletjørn" />
		<tag k="name" v="Igletjønn" />
		<tag k="natural" v="water" />
		<tag k="ssr:stedsnr" v="548138" />
	</node>
	<node id="-444080" lat="59.2745472201" lon="8.93016666159">
		<tag k="alt_name" v="Ulvhildvatnet" />
		<tag k="name" v="Uvilvatn" />
		<tag k="natural" v="water" />
		<tag k="ssr:stedsnr" v="548129" />
		<tag k="water" v="lake" />
	</node>
	<node id="-444078" lat="59.2799472252" lon="9.04297500459">
		<tag k="alt_name" v="Øvre Trytetjønn" />
		<tag k="name" v="Trytetjørnane" />
		<tag k="natural" v="water" />
		<tag k="ssr:stedsnr" v="548110" />
	</node>
	<node id="-444075" lat="59.2530055518" lon="9.02811945138">
		<tag k="name" v="Finnvollbekken" />
		<tag k="ssr:stedsnr" v="548080" />
		<tag k="waterway" v="stream" />
	</node>
	<node id="-444071" lat="59.2176000016" lon="9.05097778366">
		<tag k="alt_name" v="Dangletjønn" />
		<tag k="name" v="Dangletjern" />
		<tag k="natural" v="water" />
		<tag k="ssr:stedsnr" v="547436" />
	</node>
	<node id="-444070" lat="59.1966611139" lon="9.18215555313">
		<tag k="alt_name" v="Svarttjønn" />
		<tag k="name" v="Svarttjørn" />
		<tag k="natural" v="water" />
		<tag k="ssr:stedsnr" v="547353" />
	</node>
	<node id="-444061" lat="59.1929361128" lon="9.21793333358">
		<tag k="name" v="Himingbukta" />
		<tag k="natural" v="bay" />
		<tag k="ssr:stedsnr" v="541848" />
	</node>
	<node id="-444058" lat="59.1969250029" lon="9.27347222353">
		<tag k="name" v="Stuverudputten" />
		<tag k="natural" v="water" />
		<tag k="ssr:stedsnr" v="541837" />
	</node>
	<node id="-444055" lat="59.2700388845" lon="9.11156389078">
		<tag k="name" v="Hauglandstoa" />
		<tag k="natural" v="bay" />
		<tag k="ssr:stedsnr" v="541597" />
	</node>
	<node id="-444054" lat="59.2539166664" lon="9.09192222922">
		<tag k="name" v="Øvre Meheitjønn" />
		<tag k="natural" v="water" />
		<tag k="ssr:stedsnr" v="541594" />
	</node>
	<node id="-444038" lat="59.2882138915" lon="9.19503332596">
		<tag k="name" v="Yttingbekken" />
		<tag k="ssr:stedsnr" v="526925" />
		<tag k="waterway" v="stream" />
	</node>
	<node id="-444033" lat="59.1616749973" lon="9.19986666571">
		<tag k="name" v="Grunnvatnsosen" />
		<tag k="natural" v="bay" />
		<tag k="ssr:stedsnr" v="526665" />
	</node>
	<node id="-444032" lat="59.3053555596" lon="9.1336416731">
		<tag k="name" v="Barlaugevja" />
		<tag k="natural" v="water" />
		<tag k="ssr:stedsnr" v="526660" />
		<tag k="water" v="lake" />
	</node>
	<node id="-444026" lat="59.2431916646" lon="9.06392500419">
		<tag k="name" v="Kattehølen" />
		<tag k="place" v="locality" />
		<tag k="ssr:stedsnr" v="526302" />
	</node>
	<node id="-444020" lat="59.29047778" lon="8.82198056357">
		<tag k="name" v="Flogåi" />
		<tag k="ssr:stedsnr" v="427686" />
		<tag k="waterway" v="stream" />
	</node>
	<node id="-444005" lat="59.342036108" lon="9.16581111707">
		<tag k="name" v="Gangsjå" />
		<tag k="natural" v="water" />
		<tag k="ssr:stedsnr" v="427274" />
		<tag k="water" v="lake" />
	</node>
	<node id="-444001" lat="59.3309888882" lon="9.14994167046">
		<tag k="alt_name" v="Kringletjørn" />
		<tag k="name" v="Kringletjønn" />
		<tag k="natural" v="water" />
		<tag k="ssr:stedsnr" v="427246" />
	</node>
	<node id="-443999" lat="59.2936444438" lon="8.96074444083">
		<tag k="alt_name" v="Venheimtjørna" />
		<tag k="name" v="Venheimtjønn" />
		<tag k="natural" v="water" />
		<tag k="ssr:stedsnr" v="427145" />
	</node>
	<node id="-443994" lat="59.2216583352" lon="9.15722222405">
		<tag k="alt_name" v="Huldretjønn" />
		<tag k="name" v="Huldretjørn" />
		<tag k="natural" v="water" />
		<tag k="ssr:stedsnr" v="426383" />
	</node>
	<node id="-443993" lat="59.2441472253" lon="9.00212500397">
		<tag k="alt_name" v="Offersteintjønn" />
		<tag k="name" v="Offersteintjerna" />
		<tag k="natural" v="water" />
		<tag k="ssr:stedsnr" v="426374" />
	</node>
	<node id="-443989" lat="59.1995083305" lon="9.20964721926">
		<tag k="name" v="Sannervannet" />
		<tag k="natural" v="water" />
		<tag k="ssr:stedsnr" v="426314" />
		<tag k="water" v="lake" />
	</node>
	<node id="-443988" lat="59.1769472187" lon="9.19295277459">
		<tag k="alt_name" v="Rundetjønn" />
		<tag k="name" v="Rundtjørn" />
		<tag k="natural" v="water" />
		<tag k="ssr:stedsnr" v="426272" />
	</node>
	<node id="-443983" lat="59.1737472267" lon="9.24102500401">
		<tag k="name" v="Bjørktjønn" />
		<tag k="natural" v="water" />
		<tag k="ssr:stedsnr" v="420792" />
	</node>
	<node id="-443978" lat="59.1993749955" lon="9.26035556338">
		<tag k="name" v="Øvre Hommevatn" />
		<tag k="natural" v="water" />
		<tag k="ssr:stedsnr" v="420870" />
		<tag k="water" v="lake" />
	</node>
	<node id="-443975" lat="59.1771472263" lon="9.20787776912">
		<tag k="name" v="Hosebandtjønn" />
		<tag k="natural" v="water" />
		<tag k="ssr:stedsnr" v="420865" />
	</node>
	<node id="-443971" lat="59.2800555551" lon="9.09389999248">
		<tag k="name" v="Lintjønn" />
		<tag k="natural" v="water" />
		<tag k="ssr:stedsnr" v="420374" />
	</node>
	<node id="-443969" lat="59.2342722188" lon="9.09388334199">
		<tag k="name" v="Klevjadalstjønn" />
		<tag k="natural" v="water" />
		<tag k="ssr:stedsnr" v="420182" />
	</node>
	<node id="-443966" lat="59.24401111" lon="9.00022499664">
		<tag k="name" v="Hestfjelltjønn" />
		<tag k="natural" v="water" />
		<tag k="ssr:stedsnr" v="420131" />
	</node>
	<node id="-443952" lat="59.2399722215" lon="9.22746667084">
		<tag k="name" v="Kroktjønnbekken" />
		<tag k="ssr:stedsnr" v="405995" />
		<tag k="waterway" v="stream" />
	</node>
	<node id="-443945" lat="59.2116888879" lon="9.26084443982">
		<tag k="name" v="Svarttjønn" />
		<tag k="natural" v="water" />
		<tag k="ssr:stedsnr" v="405894" />
	</node>
	<node id="-443921" lat="59.2167833347" lon="9.31590556361">
		<tag k="name" v="Storøya" />
		<tag k="place" v="island" />
		<tag k="ssr:stedsnr" v="389827" />
	</node>
	<node id="-443896" lat="59.1962583375" lon="9.26248888433">
		<tag k="name" v="Hommevannet" />
		<tag k="natural" v="water" />
		<tag k="ssr:stedsnr" v="366870" />
	</node>
	<node id="-443884" lat="59.3053638854" lon="8.88275833338">
		<tag k="alt_name" v="Gråhelle" />
		<tag k="name" v="Gråhellodden" />
		<tag k="natural" v="cape" />
		<tag k="ssr:stedsnr" v="366176" />
	</node>
	<node id="-443882" lat="59.2860222182" lon="8.96670277896">
		<tag k="alt_name" v="Høgvatnet" />
		<tag k="name" v="Høgsvatn" />
		<tag k="natural" v="water" />
		<tag k="ssr:stedsnr" v="366139" />
		<tag k="water" v="lake" />
	</node>
	<node id="-443881" lat="59.2867805546" lon="8.95559165927">
		<tag k="alt_name" v="Fiskelaustjørn" />
		<tag k="name" v="Fiskelaustjønn" />
		<tag k="natural" v="water" />
		<tag k="ssr:stedsnr" v="366133" />
	</node>
	<node id="-443877" lat="59.262347224" lon="8.9186499943">
		<tag k="alt_name" v="Tveitstulvatnet" />
		<tag k="name" v="Tveitstulvatn" />
		<tag k="natural" v="water" />
		<tag k="ssr:stedsnr" v="366097" />
	</node>
	<node id="-443874" lat="59.2542055516" lon="9.07450554897">
		<tag k="alt_name" v="Sandtjønn" />
		<tag k="name" v="Sandtjørn" />
		<tag k="natural" v="water" />
		<tag k="ssr:stedsnr" v="366078" />
	</node>
	<node id="-443872" lat="59.2249500019" lon="9.45911666929">
		<tag k="name" v="Norsjø" />
		<tag k="natural" v="water" />
		<tag k="ssr:stedsnr" v="365936" />
		<tag k="water" v="lake" />
	</node>
	<node id="-443863" lat="59.2424805532" lon="9.25439166946">
		<tag k="name" v="Steinbekken" />
		<tag k="ssr:stedsnr" v="359994" />
		<tag k="waterway" v="stream" />
	</node>
	<node id="-443850" lat="59.2221555532" lon="9.14946389726">
		<tag k="name" v="Minnesjøøyane" />
		<tag k="place" v="island" />
		<tag k="ssr:stedsnr" v="359441" />
	</node>
	<node id="-443847" lat="59.2833305534" lon="9.27248055681">
		<tag k="name" v="Øra" />
		<tag k="natural" v="cape" />
		<tag k="ssr:stedsnr" v="359092" />
	</node>
	<node id="-443843" lat="59.2123305546" lon="9.18020000719">
		<tag k="name" v="Gnagopptangen" />
		<tag k="natural" v="cape" />
		<tag k="ssr:stedsnr" v="344995" />
	</node>
	<node id="-443838" lat="59.2210777791" lon="9.27190832517">
		<tag k="name" v="Langøya" />
		<tag k="place" v="islet" />
		<tag k="ssr:stedsnr" v="344892" />
	</node>
	<node id="-443837" lat="59.2228527741" lon="9.27860833856">
		<tag k="name" v="Lauvbukta" />
		<tag k="natural" v="bay" />
		<tag k="ssr:stedsnr" v="344889" />
	</node>
	<node id="-443832" lat="59.1465111066" lon="9.21874723043">
		<tag k="name" v="Pondalskilen" />
		<tag k="natural" v="bay" />
		<tag k="ssr:stedsnr" v="344673" />
	</node>
	<node id="-443831" lat="59.3105777823" lon="9.08554166049">
		<tag k="name" v="Oddeevja" />
		<tag k="natural" v="bay" />
		<tag k="ssr:stedsnr" v="344747" />
	</node>
	<node id="-443810" lat="59.3434749977" lon="9.06754444273">
		<tag k="name" v="Suvdaltjønn" />
		<tag k="natural" v="water" />
		<tag k="ssr:stedsnr" v="328642" />
	</node>
	<node id="-443809" lat="59.269908334" lon="8.85458610961">
		<tag k="name" v="Mellomvasstjønn" />
		<tag k="natural" v="water" />
		<tag k="ssr:stedsnr" v="328483" />
	</node>
	<node id="-443807" lat="59.3251962747" lon="9.14479891547">
		<tag k="name" v="Fiskelausbekken" />
		<tag k="ssr:stedsnr" v="328088" />
		<tag k="waterway" v="stream" />
	</node>
	<node id="-443801" lat="59.350241663" lon="9.02328610517">
		<tag k="name" v="Horstjønnbekken" />
		<tag k="ssr:stedsnr" v="327332" />
		<tag k="waterway" v="stream" />
	</node>
	<node id="-443800" lat="59.2595861114" lon="9.02068610759">
		<tag k="name" v="Røytjønn" />
		<tag k="natural" v="water" />
		<tag k="ssr:stedsnr" v="327157" />
	</node>
	<node id="-443799" lat="59.3733861146" lon="9.12583333385">
		<tag k="alt_name" v="Svarttjørn" />
		<tag k="name" v="Svarttjønn" />
		<tag k="natural" v="water" />
		<tag k="ssr:stedsnr" v="313681" />
	</node>
	<node id="-443797" lat="59.3312083378" lon="9.24896667195">
		<tag k="name" v="Petvikodden" />
>>>>>>> e1d4bc35ff8a6074a6f2e91616a996b547c36f15
		<tag k="natural" v="cape" />
		<tag k="ssr:stedsnr" v="306852" />
	</node>
<<<<<<< HEAD
	<node lat="59.21330555671194" lon="9.101169443340412" id="-22113">
		<tag k="name" v="Krabbestultjønn" />
		<tag k="natural" v="water" />
		<tag k="ssr:stedsnr" v="783304" />
	</node>
	<node lat="59.25481944790441" lon="9.11881388190586" id="-22114">
		<tag k="name" v="Jutultjønn" />
		<tag k="natural" v="water" />
		<tag k="ssr:stedsnr" v="783604" />
	</node>
	<node lat="59.19983611525077" lon="9.26413056410369" id="-22119">
		<tag k="name" v="Husebekk" />
		<tag k="ssr:stedsnr" v="783854" />
		<tag k="waterway" v="stream" />
	</node>
	<node lat="59.1526333348003" lon="9.278497228801239" id="-22130">
		<tag k="alt_name" v="Blanketjern" />
		<tag k="name" v="Blanktjenn" />
		<tag k="natural" v="water" />
		<tag k="ssr:stedsnr" v="790957" />
	</node>
	<node lat="59.277580555372175" lon="9.352636115937566" id="-22138">
		<tag k="name" v="Nordbukta" />
		<tag k="natural" v="bay" />
		<tag k="ssr:stedsnr" v="791737" />
	</node>
	<node lat="59.23630000349417" lon="9.298483337541196" id="-22140">
		<tag k="alt_name" v="Skiftestjern, nedre" />
		<tag k="name" v="Skiftetjønnane" />
		<tag k="natural" v="water" />
		<tag k="old_name" v="Skiftsetjerna, nedre" />
		<tag k="ssr:stedsnr" v="912046" />
	</node>
	<node lat="59.22276111431954" lon="9.096711114247483" id="-22143">
		<tag k="name" v="Paddetjørn" />
		<tag k="natural" v="water" />
		<tag k="ssr:stedsnr" v="912443" />
	</node>
	<node lat="59.14462222540258" lon="9.227597217786856" id="-22144">
		<tag k="name" v="Svarthøl" />
		<tag k="natural" v="water" />
		<tag k="ssr:stedsnr" v="912951" />
	</node>
	<node lat="59.34249444324088" lon="8.902752771492844" id="-22155">
		<tag k="name" v="Bokketjønn" />
		<tag k="natural" v="water" />
		<tag k="ssr:stedsnr" v="813196" />
		<tag k="water" v="pond" />
	</node>
	<node lat="59.29323055542408" lon="9.086344446314072" id="-22173">
		<tag k="name" v="Skoeelva" />
		<tag k="ssr:stedsnr" v="830723" />
		<tag k="waterway" v="river" />
	</node>
	<node lat="59.15927499662701" lon="9.217483327093671" id="-22175">
		<tag k="name" v="Cappelenbukta" />
		<tag k="natural" v="bay" />
		<tag k="ssr:stedsnr" v="830673" />
	</node>
	<node lat="59.211550004017816" lon="9.172425003709696" id="-22179">
		<tag k="name" v="Jutulbrua" />
		<tag k="natural" v="cape" />
		<tag k="ssr:stedsnr" v="830985" />
	</node>
	<node lat="59.2075833360441" lon="9.088849994484919" id="-22183">
		<tag k="name" v="Runde Langoddetjønn" />
		<tag k="natural" v="water" />
		<tag k="ssr:stedsnr" v="844316" />
	</node>
	<node lat="59.20706944674714" lon="9.090783327831339" id="-22184">
		<tag k="name" v="Langodde" />
		<tag k="natural" v="cape" />
		<tag k="ssr:stedsnr" v="844318" />
	</node>
	<node lat="59.282286114328905" lon="9.237522230540613" id="-22193">
		<tag k="name" v="Lanna" />
		<tag k="natural" v="beach" />
		<tag k="ssr:stedsnr" v="845124" />
	</node>
	<node lat="59.345486115593495" lon="9.031880560082502" id="-22211">
		<tag k="alt_name" v="Horstjørn" />
		<tag k="name" v="Horstjønn" />
		<tag k="natural" v="water" />
		<tag k="ssr:stedsnr" v="852263" />
	</node>
	<node lat="59.27870555135269" lon="9.356077785660798" id="-22213">
		<tag k="alt_name" v="Skipsnesodden" />
		<tag k="name" v="Skiftenesodden" />
		<tag k="natural" v="cape" />
		<tag k="ssr:stedsnr" v="852707" />
	</node>
	<node lat="59.304533337716215" lon="9.276733326772375" id="-22214">
		<tag k="name" v="Steinholtbukta" />
		<tag k="natural" v="bay" />
		<tag k="ssr:stedsnr" v="852759" />
	</node>
	<node lat="59.32507222263444" lon="9.240449994698924" id="-22216">
		<tag k="name" v="Ullevikbogen" />
		<tag k="natural" v="bay" />
		<tag k="ssr:stedsnr" v="852858" />
	</node>
	<node lat="59.230811111998236" lon="9.316722230584343" id="-22227">
		<tag k="name" v="Bærvannsbekken" />
		<tag k="ssr:stedsnr" v="934987" />
		<tag k="waterway" v="stream" />
	</node>
	<node lat="59.169000002142994" lon="9.244911104417326" id="-22246">
		<tag k="name" v="Lomtjønn" />
		<tag k="natural" v="water" />
		<tag k="ssr:stedsnr" v="905770" />
	</node>
	<node lat="59.201627778493" lon="9.26183055211165" id="-22252">
		<tag k="name" v="Svartetjønn" />
		<tag k="natural" v="water" />
		<tag k="ssr:stedsnr" v="905862" />
	</node>
	<node lat="59.25957777491956" lon="8.9803388838359" id="-22258">
		<tag k="alt_name" v="Linfjelltjørn" />
		<tag k="name" v="Linfjelltjønn" />
		<tag k="natural" v="water" />
		<tag k="ssr:stedsnr" v="912105" />
	</node>
	<node lat="59.27223611259345" lon="8.843994441419774" id="-22261">
		<tag k="alt_name" v="Furuvatn, nedre" />
		<tag k="name" v="Nedre Furuvatn" />
		<tag k="natural" v="water" />
		<tag k="ssr:stedsnr" v="912130" />
		<tag k="water" v="lake" />
	</node>
	<node lat="59.31272777485697" lon="8.933472230147824" id="-22263">
		<tag k="name" v="Holmane" />
		<tag k="place" v="islet" />
		<tag k="ssr:stedsnr" v="912204" />
	</node>
	<node lat="59.3209444474771" lon="9.063672224394333" id="-22265">
		<tag k="alt_name" v="Lundtveitvatnet" />
		<tag k="name" v="Lundtveitvatn" />
		<tag k="natural" v="water" />
		<tag k="ssr:stedsnr" v="912223" />
	</node>
	<node lat="59.24307900767503" lon="9.063959414029563" id="-22270">
		<tag k="name" v="Katthol" />
		<tag k="natural" v="water" />
		<tag k="ssr:stedsnr" v="912423" />
	</node>
	<node lat="59.33506944666311" lon="9.158658339611355" id="-22275">
		<tag k="alt_name" v="Kroktjørn" />
		<tag k="name" v="Kroktjønn" />
		<tag k="natural" v="water" />
		<tag k="ssr:stedsnr" v="913215" />
	</node>
	<node lat="59.25872221916101" lon="9.232947219162067" id="-22279">
		<tag k="name" v="Nukebekken" />
		<tag k="ssr:stedsnr" v="913608" />
		<tag k="waterway" v="stream" />
	</node>
	<node lat="59.30038055282923" lon="9.140347219437297" id="-22280">
		<tag k="name" v="Straumen" />
		<tag k="ssr:stedsnr" v="919654" />
		<tag k="waterway" v="river" />
	</node>
	<node lat="59.26316110701061" lon="9.116730551650102" id="-22293">
		<tag k="name" v="Sautjønn" />
		<tag k="natural" v="water" />
		<tag k="ssr:stedsnr" v="951637" />
	</node>
	<node lat="59.257677778574894" lon="9.124361109404926" id="-22294">
		<tag k="name" v="Røsstjønn" />
		<tag k="natural" v="water" />
		<tag k="ssr:stedsnr" v="951643" />
	</node>
	<node lat="59.27144166517279" lon="9.104508336813758" id="-22298">
		<tag k="name" v="Hauglandtjønna" />
		<tag k="natural" v="water" />
		<tag k="ssr:stedsnr" v="965401" />
	</node>
	<node lat="59.28907778131878" lon="9.134497224614222" id="-22299">
		<tag k="name" v="Øygardsbekken" />
		<tag k="ssr:stedsnr" v="965437" />
		<tag k="waterway" v="stream" />
	</node>
	<node lat="59.28738055989872" lon="9.276041674592806" id="-22306">
		<tag k="name" v="Torva" />
		<tag k="place" v="islet" />
		<tag k="ssr:stedsnr" v="966107" />
	</node>
	<node lat="59.32262500402793" lon="9.154144437242847" id="-22327">
		<tag k="alt_name" v="Høgmyrbekken" />
		<tag k="name" v="Høymyrbekken" />
		<tag k="ssr:stedsnr" v="2200" />
		<tag k="waterway" v="stream" />
	</node>
	<node lat="59.31408611250522" lon="9.257894438055203" id="-22328">
		<tag k="name" v="Sandnesevja" />
		<tag k="natural" v="bay" />
		<tag k="ssr:stedsnr" v="2752" />
	</node>
	<node lat="59.29325000413499" lon="9.15002499483344" id="-22331">
		<tag k="alt_name" v="Nome" />
		<tag k="name" v="Nomevatn" />
		<tag k="natural" v="water" />
		<tag k="ssr:stedsnr" v="2137" />
		<tag k="water" v="lake" />
	</node>
	<node lat="59.29668610825964" lon="8.8414888885003" id="-22344">
		<tag k="name" v="Grimnesodden" />
		<tag k="natural" v="cape" />
		<tag k="ssr:stedsnr" v="2695" />
	</node>
	<node lat="59.30500555556554" lon="8.798255556827385" id="-22345">
		<tag k="name" v="Flåvatn" />
		<tag k="natural" v="water" />
		<tag k="ssr:stedsnr" v="2699" />
		<tag k="water" v="lake" />
	</node>
	<node lat="59.32248333306959" lon="9.008855560817153" id="-22348">
		<tag k="name" v="Gisholtevja" />
		<tag k="natural" v="bay" />
		<tag k="ssr:stedsnr" v="23356" />
	</node>
	<node lat="59.30716944738773" lon="9.17944999765889" id="-22363">
		<tag k="name" v="Straumen" />
		<tag k="natural" v="bay" />
		<tag k="ssr:stedsnr" v="27733" />
	</node>
	<node lat="59.295652781934415" lon="9.271588882423261" id="-22365">
		<tag k="name" v="Kirkestranda" />
		<tag k="natural" v="beach" />
		<tag k="ssr:stedsnr" v="27758" />
	</node>
	<node lat="59.221233336661456" lon="9.261947216437997" id="-22368">
		<tag k="name" v="Kåvan" />
		<tag k="natural" v="bay" />
		<tag k="ssr:stedsnr" v="40896" />
	</node>
	<node lat="59.23560555463876" lon="9.131894441450344" id="-22373">
		<tag k="name" v="Løken" />
		<tag k="natural" v="strait" />
		<tag k="ssr:stedsnr" v="41299" />
	</node>
	<node lat="59.154880553192854" lon="9.199794437797712" id="-22375">
		<tag k="name" v="Kutjønn" />
		<tag k="natural" v="water" />
		<tag k="ssr:stedsnr" v="41653" />
	</node>
	<node lat="59.14624722163378" lon="9.211961112179067" id="-22376">
		<tag k="name" v="Serktjønn" />
		<tag k="natural" v="water" />
		<tag k="ssr:stedsnr" v="41670" />
	</node>
	<node lat="59.302825000077796" lon="9.106624994897752" id="-22377">
		<tag k="name" v="Straumen" />
		<tag k="ssr:stedsnr" v="41728" />
		<tag k="waterway" v="river" />
	</node>
	<node lat="59.25661944329802" lon="9.086544442588798" id="-22386">
		<tag k="name" v="Meheibekken" />
		<tag k="ssr:stedsnr" v="55537" />
		<tag k="waterway" v="stream" />
	</node>
	<node lat="59.25647222116629" lon="9.072375008720085" id="-22387">
		<tag k="name" v="Hantokulpen" />
		<tag k="natural" v="water" />
		<tag k="ssr:stedsnr" v="55541" />
		<tag k="water" v="pond" />
	</node>
	<node lat="59.269047220053366" lon="9.063772220820024" id="-22388">
		<tag k="name" v="Maurdalsputten" />
		<tag k="natural" v="water" />
		<tag k="ssr:stedsnr" v="55561" />
		<tag k="water" v="pond" />
	</node>
	<node lat="59.239463885420186" lon="9.21991945173143" id="-22390">
		<tag k="name" v="Åleputten" />
		<tag k="natural" v="water" />
		<tag k="ssr:stedsnr" v="55786" />
	</node>
	<node lat="59.190122224595015" lon="9.218827781601737" id="-22393">
		<tag k="name" v="Langodde" />
		<tag k="natural" v="cape" />
		<tag k="ssr:stedsnr" v="55643" />
	</node>
	<node lat="59.18687777936522" lon="9.217925005391267" id="-22394">
		<tag k="name" v="Storeøya" />
		<tag k="place" v="islet" />
		<tag k="ssr:stedsnr" v="55659" />
	</node>
	<node lat="59.17431389240389" lon="9.228219445729682" id="-22395">
		<tag k="name" v="Sannaelva" />
		<tag k="ssr:stedsnr" v="55722" />
		<tag k="waterway" v="river" />
	</node>
	<node lat="59.24648610834335" lon="9.223858327268644" id="-22398">
		<tag k="name" v="Stutøye" />
		<tag k="natural" v="water" />
		<tag k="ssr:stedsnr" v="55756" />
	</node>
	<node lat="59.182336108193" lon="9.18770834069801" id="-22400">
		<tag k="name" v="Blankvatn" />
		<tag k="natural" v="water" />
		<tag k="ssr:stedsnr" v="55832" />
	</node>
	<node lat="59.15815832939176" lon="9.24014721813344" id="-22410">
		<tag k="name" v="Buttelbekk" />
		<tag k="ssr:stedsnr" v="56692" />
		<tag k="waterway" v="stream" />
	</node>
	<node lat="59.23823055568063" lon="9.42455555475684" id="-22417">
		<tag k="alt_name" v="Munken, store;Store Munken" />
		<tag k="name" v="Munken" />
		<tag k="place" v="island" />
		<tag k="ssr:stedsnr" v="62040" />
	</node>
	<node lat="59.229824999623524" lon="9.066538894352227" id="-22420">
		<tag k="name" v="Storlibekken" />
		<tag k="ssr:stedsnr" v="62384" />
		<tag k="waterway" v="stream" />
	</node>
	<node lat="59.18163333486002" lon="9.192838882134035" id="-22423">
		<tag k="alt_name" v="Auretjønn" />
		<tag k="name" v="Auretjørn" />
		<tag k="natural" v="water" />
		<tag k="ssr:stedsnr" v="62351" />
	</node>
	<node lat="59.23172500275303" lon="9.155311109575397" id="-22424">
		<tag k="name" v="Langen" />
		<tag k="natural" v="water" />
		<tag k="ssr:stedsnr" v="62437" />
		<tag k="water" v="lake" />
	</node>
	<node lat="59.277841667321375" lon="8.979099992828246" id="-22429">
		<tag k="alt_name" v="Vårbutjørna, øvre" />
		<tag k="name" v="Øvre Vårbutjønn" />
		<tag k="natural" v="water" />
		<tag k="ssr:stedsnr" v="63137" />
	</node>
	<node lat="59.333330558198455" lon="9.084997216710672" id="-22436">
		<tag k="alt_name" v="Østerå" />
		<tag k="name" v="Østeråa" />
		<tag k="ssr:stedsnr" v="63246" />
		<tag k="waterway" v="river" />
	</node>
	<node lat="59.28758055764968" lon="9.233899999212754" id="-22440">
		<tag k="name" v="Eidselva" />
		<tag k="ssr:stedsnr" v="63703" />
		<tag k="waterway" v="river" />
	</node>
	<node lat="59.27086827068896" lon="8.891609095112091" id="-22453">
		<tag k="name" v="Solomtjønnane" />
		<tag k="natural" v="water" />
		<tag k="ssr:stedsnr" v="85198" />
	</node>
	<node lat="59.28132222455698" lon="9.03322499798684" id="-22457">
		<tag k="name" v="Nonsfjelltjønn" />
		<tag k="natural" v="water" />
		<tag k="ssr:stedsnr" v="85170" />
		<tag k="water" v="pond" />
	</node>
	<node lat="59.27357778083989" lon="8.925497221223166" id="-22458">
		<tag k="name" v="Svarttjønn" />
		<tag k="natural" v="water" />
		<tag k="ssr:stedsnr" v="85233" />
	</node>
	<node lat="59.30775277382986" lon="8.901000002546581" id="-22459">
		<tag k="name" v="Høgefjellodden" />
		<tag k="natural" v="cape" />
		<tag k="ssr:stedsnr" v="85241" />
	</node>
	<node lat="59.28592777672568" lon="8.860911109203688" id="-22460">
		<tag k="name" v="Mørkvasselva" />
		<tag k="ssr:stedsnr" v="85364" />
		<tag k="waterway" v="river" />
	</node>
	<node lat="59.249227778533694" lon="9.38170554873022" id="-22463">
		<tag k="name" v="Helgjevikbekken" />
		<tag k="ssr:stedsnr" v="86308" />
		<tag k="waterway" v="stream" />
	</node>
	<node lat="59.265811112225784" lon="8.914536111821407" id="-22467">
		<tag k="name" v="Tveitstulbekken" />
		<tag k="ssr:stedsnr" v="86501" />
		<tag k="waterway" v="stream" />
	</node>
	<node lat="59.23725555714874" lon="9.147961102791363" id="-22480">
		<tag k="name" v="Øyane" />
		<tag k="place" v="islet" />
		<tag k="ssr:stedsnr" v="101250" />
	</node>
	<node lat="59.158911110417996" lon="9.20981944001158" id="-22482">
		<tag k="name" v="Høybukta" />
		<tag k="natural" v="bay" />
		<tag k="ssr:stedsnr" v="101651" />
	</node>
	<node lat="59.15483610899435" lon="9.21674722033218" id="-22483">
		<tag k="name" v="Lomøya" />
		<tag k="place" v="islet" />
		<tag k="ssr:stedsnr" v="101654" />
	</node>
	<node lat="59.26549444032805" lon="9.065102782227367" id="-22489">
		<tag k="name" v="Vestbekken" />
		<tag k="ssr:stedsnr" v="116598" />
		<tag k="waterway" v="stream" />
	</node>
	<node lat="59.17614444341838" lon="9.228527785988017" id="-22493">
		<tag k="name" v="Tyslandshølen" />
		<tag k="natural" v="water" />
		<tag k="ssr:stedsnr" v="116744" />
		<tag k="water" v="lake" />
	</node>
	<node lat="59.23409166361968" lon="9.26709166752678" id="-22499">
		<tag k="name" v="Lille Setertjønn" />
		<tag k="natural" v="water" />
		<tag k="ssr:stedsnr" v="116946" />
	</node>
	<node lat="59.25273332896712" lon="9.259541660158611" id="-22503">
		<tag k="name" v="Tveitdammen" />
		<tag k="natural" v="water" />
		<tag k="ssr:stedsnr" v="117070" />
		<tag k="water" v="pond" />
	</node>
	<node lat="59.19405278205597" lon="9.211836103169528" id="-22509">
		<tag k="name" v="Vasskleivodden" />
		<tag k="natural" v="cape" />
		<tag k="ssr:stedsnr" v="117852" />
	</node>
	<node lat="59.24326111174151" lon="9.188630552911423" id="-22510">
		<tag k="alt_name" v="Hovlandstjønn" />
		<tag k="name" v="Hovlandstjørna" />
		<tag k="natural" v="water" />
		<tag k="ssr:stedsnr" v="122377" />
	</node>
	<node lat="59.15860277881757" lon="9.276000007632419" id="-22512">
		<tag k="alt_name" v="Kaslebutjern" />
		<tag k="name" v="Kaslebutjenn" />
		<tag k="natural" v="water" />
		<tag k="ssr:stedsnr" v="122975" />
	</node>
	<node lat="59.35383333619313" lon="9.02147222990489" id="-22516">
		<tag k="alt_name" v="Sveigetjørn" />
		<tag k="name" v="Sveigstjønn" />
		<tag k="natural" v="water" />
		<tag k="ssr:stedsnr" v="123279" />
	</node>
	<node lat="59.3138166642234" lon="8.928869449578977" id="-22519">
		<tag k="name" v="Kvernbukta" />
		<tag k="natural" v="bay" />
		<tag k="ssr:stedsnr" v="123233" />
	</node>
	<node lat="59.32846388909418" lon="9.138183327720407" id="-22522">
		<tag k="alt_name" v="Fisklaustjørna" />
		<tag k="name" v="Fiskelaustjønn" />
		<tag k="natural" v="water" />
		<tag k="ssr:stedsnr" v="123240" />
	</node>
	<node lat="59.20432221931439" lon="9.085836107296826" id="-22524">
		<tag k="fixme" v="multiple name tags, choose one and add the other to alt_name" />
		<tag k="name" v="Langoddtjørna;Damtjenn" />
		<tag k="natural" v="water" />
		<tag k="ssr:stedsnr" v="123370" />
	</node>
	<node lat="59.32533333489383" lon="9.261958325456094" id="-22530">
		<tag k="name" v="Kalvodden" />
		<tag k="natural" v="cape" />
		<tag k="ssr:stedsnr" v="124845" />
	</node>
	<node lat="59.264991662914355" lon="8.852550005647478" id="-22531">
		<tag k="alt_name" v="Igletjørn" />
		<tag k="name" v="Gardtjønn" />
		<tag k="natural" v="water" />
		<tag k="ssr:stedsnr" v="130639" />
	</node>
	<node lat="59.23455833562244" lon="9.33339722492751" id="-22542">
		<tag k="name" v="Sauetjønn" />
		<tag k="natural" v="water" />
		<tag k="ssr:stedsnr" v="146993" />
		<tag k="water" v="pond" />
	</node>
	<node lat="59.25905555168397" lon="9.051866668534892" id="-22545">
		<tag k="name" v="Gongebekk" />
		<tag k="ssr:stedsnr" v="146145" />
		<tag k="waterway" v="stream" />
	</node>
	<node lat="59.24769722456377" lon="9.383486103029433" id="-22547">
		<tag k="name" v="Husfossen" />
		<tag k="natural" v="waterfall" />
		<tag k="ssr:stedsnr" v="146263" />
	</node>
	<node lat="59.341444441955815" lon="9.072952782541666" id="-22550">
		<tag k="name" v="Valatjønnane" />
		<tag k="natural" v="water" />
		<tag k="ssr:stedsnr" v="146639" />
	</node>
	<node lat="59.291722217799595" lon="9.179108327504789" id="-22556">
		<tag k="name" v="Nomestrand" />
		<tag k="natural" v="beach" />
		<tag k="ssr:stedsnr" v="148733" />
	</node>
	<node lat="59.33027499758808" lon="9.247763888705695" id="-22557">
		<tag k="name" v="Petvik" />
		<tag k="natural" v="bay" />
		<tag k="ssr:stedsnr" v="148735" />
	</node>
	<node lat="59.27685555146963" lon="9.358527770474938" id="-22559">
		<tag k="name" v="Glyttenberg" />
		<tag k="natural" v="bay" />
		<tag k="ssr:stedsnr" v="148685" />
	</node>
	<node lat="59.272816666108824" lon="9.307516672121343" id="-22565">
		<tag k="name" v="Løken" />
		<tag k="ssr:stedsnr" v="162132" />
		<tag k="waterway" v="stream" />
	</node>
	<node lat="59.23302777360247" lon="9.104683324795037" id="-22580">
		<tag k="name" v="Åslandselva" />
		<tag k="ssr:stedsnr" v="177194" />
		<tag k="waterway" v="river" />
	</node>
	<node lat="59.214633332490926" lon="9.15679166992724" id="-22581">
		<tag k="name" v="Kolbjørnsbekk" />
		<tag k="ssr:stedsnr" v="177428" />
		<tag k="waterway" v="stream" />
	</node>
	<node lat="59.22491666587134" lon="9.145513890759233" id="-22582">
		<tag k="name" v="Store Minnesjø" />
		<tag k="natural" v="water" />
		<tag k="ssr:stedsnr" v="177432" />
		<tag k="water" v="lake" />
	</node>
	<node lat="59.268616665690544" lon="9.070899998884455" id="-22583">
		<tag k="name" v="Maurdalsbekken" />
		<tag k="ssr:stedsnr" v="177627" />
		<tag k="waterway" v="stream" />
	</node>
	<node lat="59.16656666698389" lon="9.23411389359854" id="-22585">
		<tag k="name" v="Børten" />
		<tag k="natural" v="water" />
		<tag k="ssr:stedsnr" v="177794" />
		<tag k="water" v="lake" />
	</node>
	<node lat="59.23805833208643" lon="9.295291664426173" id="-22594">
		<tag k="alt_name" v="Skiftestjern, øvre" />
		<tag k="name" v="Skiftetjønnane" />
		<tag k="natural" v="water" />
		<tag k="old_name" v="Skiftsetjerna, øvre" />
		<tag k="ssr:stedsnr" v="183057" />
	</node>
	<node lat="59.23870833385823" lon="9.223288885373709" id="-22595">
		<tag k="alt_name" v="Kroktjønn" />
		<tag k="name" v="Kroktjern" />
		<tag k="natural" v="water" />
		<tag k="ssr:stedsnr" v="183061" />
	</node>
	<node lat="59.22866666581321" lon="9.358150005492917" id="-22600">
		<tag k="alt_name" v="Klovdalstjørn" />
		<tag k="name" v="Klovdalstjønna" />
		<tag k="natural" v="water" />
		<tag k="ssr:stedsnr" v="183923" />
	</node>
	<node lat="59.25497222375685" lon="9.095005561956668" id="-22604">
		<tag k="name" v="Meheitjørna" />
		<tag k="natural" v="water" />
		<tag k="ssr:stedsnr" v="184068" />
	</node>
	<node lat="59.26527222394758" lon="9.050147219944959" id="-22606">
		<tag k="alt_name" v="Bjortjørn" />
		<tag k="name" v="Bjortjønn" />
		<tag k="natural" v="water" />
		<tag k="ssr:stedsnr" v="184080" />
	</node>
	<node lat="59.353883333052146" lon="9.06405000534426" id="-22609">
		<tag k="alt_name" v="Damtjørn" />
		<tag k="name" v="Damtjønn" />
		<tag k="natural" v="water" />
		<tag k="ssr:stedsnr" v="184257" />
	</node>
	<node lat="59.15890000417239" lon="9.196836119727147" id="-22610">
		<tag k="alt_name" v="Butjønn" />
		<tag k="name" v="Butjern" />
		<tag k="natural" v="water" />
		<tag k="ssr:stedsnr" v="184263" />
	</node>
	<node lat="59.2506527749434" lon="9.328949993337378" id="-22613">
		<tag k="name" v="Storbekken" />
		<tag k="ssr:stedsnr" v="184673" />
		<tag k="waterway" v="stream" />
	</node>
	<node lat="59.26584721976688" lon="9.296505558240534" id="-22629">
		<tag k="name" v="Vibetobekken" />
		<tag k="ssr:stedsnr" v="207162" />
		<tag k="waterway" v="stream" />
	</node>
	<node lat="59.22448333052344" lon="9.319125004765594" id="-22634">
		<tag k="name" v="Kvennhusfallet" />
		<tag k="ssr:stedsnr" v="207833" />
		<tag k="waterway" v="rapids" />
	</node>
	<node lat="59.29701666496617" lon="9.23667776918574" id="-22639">
		<tag k="name" v="Dammane" />
		<tag k="natural" v="water" />
		<tag k="ssr:stedsnr" v="209743" />
		<tag k="water" v="pond" />
	</node>
	<node lat="59.29500833055892" lon="9.279008336485667" id="-22643">
		<tag k="name" v="Oddefjellet" />
		<tag k="natural" v="cape" />
		<tag k="ssr:stedsnr" v="209771" />
	</node>
	<node lat="59.326324996431545" lon="9.255886105271097" id="-22644">
		<tag k="name" v="Bleikedokka" />
		<tag k="natural" v="bay" />
		<tag k="ssr:stedsnr" v="209718" />
	</node>
	<node lat="59.28210277952343" lon="9.298113884176669" id="-22647">
		<tag k="name" v="Labukta" />
		<tag k="natural" v="bay" />
		<tag k="ssr:stedsnr" v="223163" />
	</node>
	<node lat="59.28729167082398" lon="9.183061104573063" id="-22649">
		<tag k="name" v="Nukebekken" />
		<tag k="ssr:stedsnr" v="223947" />
		<tag k="waterway" v="stream" />
	</node>
	<node lat="59.211105558417785" lon="9.176547220199097" id="-22652">
		<tag k="name" v="Langen" />
		<tag k="natural" v="water" />
		<tag k="ssr:stedsnr" v="223994" />
		<tag k="water" v="lake" />
	</node>
	<node lat="59.2225805524486" lon="9.264783341113652" id="-22655">
		<tag k="name" v="Eldhusstranna" />
		<tag k="natural" v="beach" />
		<tag k="ssr:stedsnr" v="283884" />
	</node>
	<node lat="59.22180555884626" lon="9.273100002801085" id="-22656">
		<tag k="name" v="Torgrim" />
		<tag k="place" v="islet" />
		<tag k="ssr:stedsnr" v="283887" />
	</node>
	<node lat="59.220336113209754" lon="9.268472215148703" id="-22657">
		<tag k="name" v="Lensmannsøya" />
		<tag k="place" v="islet" />
		<tag k="ssr:stedsnr" v="283895" />
	</node>
	<node lat="59.154708336324" lon="9.21398333429891" id="-22665">
		<tag k="name" v="Brenteodden" />
		<tag k="natural" v="cape" />
		<tag k="ssr:stedsnr" v="284668" />
	</node>
	<node lat="59.2994694449332" lon="9.165580546816614" id="-22667">
		<tag k="name" v="Steinfoss" />
		<tag k="ssr:stedsnr" v="284774" />
		<tag k="waterway" v="rapids" />
	</node>
	<node lat="59.31770555648503" lon="9.029708338447122" id="-22669">
		<tag k="name" v="Saltevja" />
		<tag k="natural" v="bay" />
		<tag k="ssr:stedsnr" v="297137" />
	</node>
	<node lat="59.22711944530586" lon="9.036599995192239" id="-22670">
		<tag k="name" v="Sverdaltjønn" />
		<tag k="natural" v="water" />
		<tag k="ssr:stedsnr" v="298217" />
	</node>
	<node lat="59.28605278174936" lon="9.165013890252341" id="-22672">
		<tag k="name" v="Skårdalsbekken" />
		<tag k="ssr:stedsnr" v="298398" />
		<tag k="waterway" v="stream" />
	</node>
	<node lat="59.2549222186948" lon="9.095377772512187" id="-22675">
		<tag k="name" v="Nedre Meheitjønn" />
		<tag k="natural" v="water" />
		<tag k="ssr:stedsnr" v="298554" />
	</node>
	<node lat="59.18808055753426" lon="9.18173888113093" id="-22676">
		<tag k="name" v="Trytetjønnbekken" />
		<tag k="ssr:stedsnr" v="298656" />
		<tag k="waterway" v="stream" />
	</node>
	<node lat="59.20472222321612" lon="9.219933324836452" id="-22677">
		<tag k="name" v="Svebekk" />
		<tag k="ssr:stedsnr" v="298663" />
		<tag k="waterway" v="stream" />
	</node>
	<node lat="59.19506389272805" lon="9.267475001955278" id="-22685">
		<tag k="name" v="Nedre Hommevatn" />
=======
	<node id="-443793" lat="59.2616000011" lon="9.23990833533">
		<tag k="alt_name" v="Damtjenn" />
		<tag k="name" v="Damtjørn" />
		<tag k="natural" v="water" />
		<tag k="ssr:stedsnr" v="306592" />
	</node>
	<node id="-443789" lat="59.3282527774" lon="8.90612222967">
		<tag k="alt_name" v="Åmnestjørna, heimre" />
		<tag k="name" v="Heimare Omnestjønn" />
		<tag k="natural" v="water" />
		<tag k="ssr:stedsnr" v="306214" />
	</node>
	<node id="-443788" lat="59.3246222184" lon="8.88975556221">
		<tag k="name" v="Kilheitjørna" />
		<tag k="natural" v="water" />
		<tag k="ssr:stedsnr" v="306212" />
	</node>
	<node id="-443781" lat="59.2239805586" lon="9.26377499208">
		<tag k="alt_name" v="Stavsjø, øvre" />
		<tag k="name" v="Øvre Stavsjø" />
		<tag k="natural" v="water" />
		<tag k="ssr:stedsnr" v="305944" />
		<tag k="water" v="lake" />
	</node>
	<node id="-443775" lat="59.2454305574" lon="9.14897222257">
		<tag k="alt_name" v="Grinitjønn" />
		<tag k="name" v="Grinitjørn" />
		<tag k="natural" v="water" />
		<tag k="ssr:stedsnr" v="305427" />
	</node>
	<node id="-443773" lat="59.1863083368" lon="9.18278333028">
		<tag k="alt_name" v="Trytetjønn" />
		<tag k="name" v="Tryttjern" />
		<tag k="natural" v="water" />
		<tag k="ssr:stedsnr" v="305382" />
	</node>
	<node id="-443772" lat="59.1833000009" lon="9.1870555623">
		<tag k="name" v="Blankvatnet" />
		<tag k="natural" v="water" />
		<tag k="ssr:stedsnr" v="305371" />
	</node>
	<node id="-443770" lat="59.1715972262" lon="9.19815277077">
		<tag k="alt_name" v="Langtjønn" />
		<tag k="name" v="Langtjern" />
		<tag k="natural" v="water" />
		<tag k="ssr:stedsnr" v="305284" />
	</node>
	<node id="-443769" lat="59.1670749992" lon="9.20930277538">
		<tag k="alt_name" v="Prestevatn" />
		<tag k="name" v="Prestevatnet" />
		<tag k="natural" v="water" />
		<tag k="ssr:stedsnr" v="305280" />
	</node>
	<node id="-443765" lat="59.3152555586" lon="9.12059445055">
		<tag k="name" v="Barlaugelva" />
		<tag k="ssr:stedsnr" v="305172" />
		<tag k="waterway" v="stream" />
	</node>
	<node id="-443758" lat="59.2698777741" lon="9.08774999182">
		<tag k="alt_name" v="Dalatjønn" />
		<tag k="name" v="Dalatjørna" />
		<tag k="natural" v="water" />
		<tag k="ssr:stedsnr" v="305098" />
	</node>
	<node id="-443757" lat="59.2600777752" lon="9.14168888037">
		<tag k="alt_name" v="Tyri" />
		<tag k="name" v="Tyrivatn" />
		<tag k="natural" v="water" />
		<tag k="ssr:stedsnr" v="305082" />
		<tag k="water" v="lake" />
	</node>
	<node id="-443755" lat="59.2567305572" lon="8.86198056269">
		<tag k="alt_name" v="Sandtjørn" />
		<tag k="name" v="Sandtjønn" />
		<tag k="natural" v="water" />
		<tag k="ssr:stedsnr" v="305074" />
	</node>
	<node id="-443754" lat="59.2339527803" lon="9.27323888148">
		<tag k="alt_name" v="Store Setertjønn" />
		<tag k="name" v="Sætertjern" />
		<tag k="natural" v="water" />
		<tag k="ssr:stedsnr" v="305051" />
	</node>
	<node id="-443747" lat="59.3255111083" lon="9.16698332852">
		<tag k="alt_name" v="Igletjørn" />
		<tag k="name" v="Igletjønn" />
		<tag k="natural" v="water" />
		<tag k="ssr:stedsnr" v="305204" />
	</node>
	<node id="-443746" lat="59.2440861156" lon="9.21868054694">
		<tag k="alt_name" v="Siljutjønn" />
		<tag k="name" v="Siljutjern" />
		<tag k="natural" v="water" />
		<tag k="ssr:stedsnr" v="304050" />
	</node>
	<node id="-443742" lat="59.2950083306" lon="9.27900833649">
		<tag k="name" v="Oddefjellet" />
		<tag k="natural" v="cape" />
		<tag k="ssr:stedsnr" v="209771" />
	</node>
	<node id="-443737" lat="59.297016665" lon="9.23667776919">
		<tag k="name" v="Dammane" />
		<tag k="natural" v="water" />
		<tag k="ssr:stedsnr" v="209743" />
		<tag k="water" v="pond" />
	</node>
	<node id="-443733" lat="59.2244833305" lon="9.31912500477">
		<tag k="name" v="Kvennhusfallet" />
		<tag k="ssr:stedsnr" v="207833" />
		<tag k="waterway" v="rapids" />
	</node>
	<node id="-443725" lat="59.2493722183" lon="9.40614443661">
		<tag k="name" v="Nesodden" />
		<tag k="natural" v="cape" />
		<tag k="ssr:stedsnr" v="207288" />
	</node>
	<node id="-443721" lat="59.2658472198" lon="9.29650555824">
		<tag k="name" v="Vibetobekken" />
		<tag k="ssr:stedsnr" v="207162" />
		<tag k="waterway" v="stream" />
	</node>
	<node id="-443697" lat="59.2506527749" lon="9.32894999334">
		<tag k="name" v="Storbekken" />
		<tag k="ssr:stedsnr" v="184673" />
		<tag k="waterway" v="stream" />
	</node>
	<node id="-443693" lat="59.1589000042" lon="9.19683611973">
		<tag k="alt_name" v="Butjønn" />
		<tag k="name" v="Butjern" />
		<tag k="natural" v="water" />
		<tag k="ssr:stedsnr" v="184263" />
	</node>
	<node id="-443692" lat="59.3538833331" lon="9.06405000534">
		<tag k="alt_name" v="Damtjørn" />
		<tag k="name" v="Damtjønn" />
		<tag k="natural" v="water" />
		<tag k="ssr:stedsnr" v="184257" />
	</node>
	<node id="-443691" lat="59.3320416691" lon="8.93421389218">
		<tag k="alt_name" v="Stivtjørn" />
		<tag k="name" v="Stivtjønn" />
		<tag k="natural" v="water" />
		<tag k="ssr:stedsnr" v="184233" />
	</node>
	<node id="-443675" lat="59.2699089664" lon="9.00795152274">
		<tag k="name" v="Brennmyrputten" />
		<tag k="natural" v="water" />
		<tag k="ssr:stedsnr" v="184107" />
	</node>
	<node id="-443670" lat="59.2639444404" lon="8.88216389496">
		<tag k="alt_name" v="Mørkvatnet" />
		<tag k="name" v="Mørkvatn" />
		<tag k="natural" v="water" />
		<tag k="ssr:stedsnr" v="184089" />
		<tag k="water" v="lake" />
	</node>
	<node id="-443669" lat="59.2652722239" lon="9.05014721994">
		<tag k="alt_name" v="Bjortjørn" />
		<tag k="name" v="Bjortjønn" />
		<tag k="natural" v="water" />
		<tag k="ssr:stedsnr" v="184080" />
	</node>
	<node id="-443667" lat="59.2549722238" lon="9.09500556196">
		<tag k="name" v="Meheitjørna" />
		<tag k="natural" v="water" />
		<tag k="ssr:stedsnr" v="184068" />
	</node>
	<node id="-443665" lat="59.2286666658" lon="9.35815000549">
		<tag k="alt_name" v="Klovdalstjørn" />
		<tag k="name" v="Klovdalstjønna" />
		<tag k="natural" v="water" />
		<tag k="ssr:stedsnr" v="183923" />
	</node>
	<node id="-443662" lat="59.2387083339" lon="9.22328888537">
		<tag k="alt_name" v="Kroktjønn" />
		<tag k="name" v="Kroktjern" />
		<tag k="natural" v="water" />
		<tag k="ssr:stedsnr" v="183061" />
	</node>
	<node id="-443661" lat="59.2380583321" lon="9.29529166443">
		<tag k="alt_name" v="Skiftestjern, øvre" />
		<tag k="name" v="Skiftetjønnane" />
		<tag k="natural" v="water" />
		<tag k="old_name" v="Skiftsetjerna, øvre" />
		<tag k="ssr:stedsnr" v="183057" />
	</node>
	<node id="-443649" lat="59.166566667" lon="9.2341138936">
		<tag k="name" v="Børten" />
		<tag k="natural" v="water" />
		<tag k="ssr:stedsnr" v="177794" />
		<tag k="water" v="lake" />
	</node>
	<node id="-443647" lat="59.2686166657" lon="9.07089999888">
		<tag k="name" v="Maurdalsbekken" />
		<tag k="ssr:stedsnr" v="177627" />
		<tag k="waterway" v="stream" />
	</node>
	<node id="-443644" lat="59.2249166659" lon="9.14551389076">
		<tag k="name" v="Store Minnesjø" />
		<tag k="natural" v="water" />
		<tag k="ssr:stedsnr" v="177432" />
		<tag k="water" v="lake" />
	</node>
	<node id="-443643" lat="59.2146333325" lon="9.15679166993">
		<tag k="name" v="Kolbjørnsbekk" />
		<tag k="ssr:stedsnr" v="177428" />
		<tag k="waterway" v="stream" />
	</node>
	<node id="-443642" lat="59.2330277736" lon="9.1046833248">
		<tag k="name" v="Åslandselva" />
		<tag k="ssr:stedsnr" v="177194" />
		<tag k="waterway" v="river" />
	</node>
	<node id="-443629" lat="59.2728166661" lon="9.30751667212">
		<tag k="name" v="Løken" />
		<tag k="ssr:stedsnr" v="162132" />
		<tag k="waterway" v="stream" />
	</node>
	<node id="-443622" lat="59.2768555515" lon="9.35852777047">
		<tag k="name" v="Glyttenberg" />
		<tag k="natural" v="bay" />
		<tag k="ssr:stedsnr" v="148685" />
	</node>
	<node id="-443620" lat="59.3302749976" lon="9.24776388871">
		<tag k="name" v="Petvik" />
		<tag k="natural" v="bay" />
		<tag k="ssr:stedsnr" v="148735" />
	</node>
	<node id="-443613" lat="59.2345583356" lon="9.33339722493">
		<tag k="name" v="Sauetjønn" />
		<tag k="natural" v="water" />
		<tag k="ssr:stedsnr" v="146993" />
		<tag k="water" v="pond" />
	</node>
	<node id="-443611" lat="59.341444442" lon="9.07295278254">
		<tag k="name" v="Valatjønnane" />
		<tag k="natural" v="water" />
		<tag k="ssr:stedsnr" v="146639" />
	</node>
	<node id="-443609" lat="59.3798916623" lon="9.10332499554">
		<tag k="name" v="Skrotteputt" />
		<tag k="natural" v="water" />
		<tag k="ssr:stedsnr" v="146524" />
		<tag k="water" v="pond" />
	</node>
	<node id="-443606" lat="59.2590555517" lon="9.05186666853">
		<tag k="name" v="Gongebekk" />
		<tag k="ssr:stedsnr" v="146145" />
		<tag k="waterway" v="stream" />
	</node>
	<node id="-443603" lat="59.3434861094" lon="9.02247499805">
		<tag k="name" v="Trytetjønnbekken" />
		<tag k="ssr:stedsnr" v="145389" />
		<tag k="waterway" v="stream" />
	</node>
	<node id="-443599" lat="59.308672218" lon="8.91541111551">
		<tag k="name" v="Omnesodden" />
		<tag k="natural" v="cape" />
		<tag k="ssr:stedsnr" v="145286" />
	</node>
	<node id="-443591" lat="59.2543277741" lon="9.30964444774">
		<tag k="name" v="Svarttjønn" />
		<tag k="natural" v="water" />
		<tag k="ssr:stedsnr" v="145136" />
		<tag k="water" v="pond" />
	</node>
	<node id="-443585" lat="59.3253333349" lon="9.26195832546">
		<tag k="name" v="Kalvodden" />
		<tag k="natural" v="cape" />
		<tag k="ssr:stedsnr" v="124845" />
	</node>
	<node id="-443577" lat="59.2034027747" lon="9.23025555647">
		<tag k="alt_name" v="Ormetjønn" />
		<tag k="name" v="Ormtjern" />
		<tag k="natural" v="water" />
		<tag k="ssr:stedsnr" v="123919" />
	</node>
	<node id="-443574" lat="59.2144015571" lon="9.21152630805">
		<tag k="alt_name" v="Tekstetjønn" />
		<tag k="name" v="Teksletjørn" />
		<tag k="natural" v="water" />
		<tag k="ssr:stedsnr" v="123463" />
	</node>
	<node id="-443572" lat="59.2043222193" lon="9.0858361073">
		<tag k="fixme" v="multiple name tags, choose one and add the other to alt_name" />
		<tag k="name" v="Damtjenn;Langoddtjørna" />
		<tag k="natural" v="water" />
		<tag k="ssr:stedsnr" v="123370" />
	</node>
	<node id="-443570" lat="59.3538333362" lon="9.0214722299">
		<tag k="alt_name" v="Sveigetjørn" />
		<tag k="name" v="Sveigstjønn" />
		<tag k="natural" v="water" />
		<tag k="ssr:stedsnr" v="123279" />
	</node>
	<node id="-443568" lat="59.3284638891" lon="9.13818332772">
		<tag k="alt_name" v="Fisklaustjørna" />
		<tag k="name" v="Fiskelaustjønn" />
		<tag k="natural" v="water" />
		<tag k="ssr:stedsnr" v="123240" />
	</node>
	<node id="-443565" lat="59.3138166642" lon="8.92886944958">
		<tag k="name" v="Kvernbukta" />
		<tag k="natural" v="bay" />
		<tag k="ssr:stedsnr" v="123233" />
	</node>
	<node id="-443558" lat="59.294222219" lon="8.97585834151">
		<tag k="alt_name" v="Bytingstjørna" />
		<tag k="name" v="Byttingstjønn" />
		<tag k="natural" v="water" />
		<tag k="ssr:stedsnr" v="123170" />
	</node>
	<node id="-443552" lat="59.1586027788" lon="9.27600000763">
		<tag k="alt_name" v="Kaslebutjern" />
		<tag k="name" v="Kaslebutjenn" />
		<tag k="natural" v="water" />
		<tag k="ssr:stedsnr" v="122975" />
	</node>
	<node id="-443549" lat="59.2432611117" lon="9.18863055291">
		<tag k="alt_name" v="Hovlandstjønn" />
		<tag k="name" v="Hovlandstjørna" />
		<tag k="natural" v="water" />
		<tag k="ssr:stedsnr" v="122377" />
	</node>
	<node id="-443548" lat="59.1510861136" lon="9.18383888438">
		<tag k="alt_name" v="Svarttjønn" />
		<tag k="name" v="Svarttjern" />
		<tag k="natural" v="water" />
		<tag k="ssr:stedsnr" v="123275" />
	</node>
	<node id="-443547" lat="59.1569999983" lon="9.1954638953">
		<tag k="alt_name" v="Åstjønn" />
		<tag k="loc_name" v="Steinsrudtjønna" />
		<tag k="name" v="Åstjern" />
		<tag k="natural" v="water" />
		<tag k="ssr:stedsnr" v="123274" />
	</node>
	<node id="-443546" lat="59.1940527821" lon="9.21183610317">
		<tag k="name" v="Vasskleivodden" />
		<tag k="natural" v="cape" />
		<tag k="ssr:stedsnr" v="117852" />
	</node>
	<node id="-443540" lat="59.252733329" lon="9.25954166016">
		<tag k="name" v="Tveitdammen" />
		<tag k="natural" v="water" />
		<tag k="ssr:stedsnr" v="117070" />
		<tag k="water" v="pond" />
	</node>
	<node id="-443531" lat="59.2340916636" lon="9.26709166753">
		<tag k="name" v="Lille Setertjønn" />
		<tag k="natural" v="water" />
		<tag k="ssr:stedsnr" v="116946" />
	</node>
	<node id="-443527" lat="59.1761444434" lon="9.22852778599">
		<tag k="name" v="Tyslandshølen" />
		<tag k="natural" v="water" />
		<tag k="ssr:stedsnr" v="116744" />
		<tag k="water" v="lake" />
	</node>
	<node id="-443526" lat="59.2654944403" lon="9.06510278223">
		<tag k="name" v="Vestbekken" />
		<tag k="ssr:stedsnr" v="116598" />
		<tag k="waterway" v="stream" />
	</node>
	<node id="-443515" lat="59.154836109" lon="9.21674722033">
		<tag k="name" v="Lomøya" />
		<tag k="place" v="islet" />
		<tag k="ssr:stedsnr" v="101654" />
	</node>
	<node id="-443514" lat="59.1589111104" lon="9.20981944001">
		<tag k="name" v="Høybukta" />
		<tag k="natural" v="bay" />
		<tag k="ssr:stedsnr" v="101651" />
	</node>
	<node id="-443511" lat="59.2372555571" lon="9.14796110279">
		<tag k="name" v="Øyane" />
		<tag k="place" v="islet" />
		<tag k="ssr:stedsnr" v="101250" />
	</node>
	<node id="-443499" lat="59.2658111122" lon="8.91453611182">
		<tag k="name" v="Tveitstulbekken" />
		<tag k="ssr:stedsnr" v="86501" />
		<tag k="waterway" v="stream" />
	</node>
	<node id="-443487" lat="59.2859277767" lon="8.8609111092">
		<tag k="name" v="Mørkvasselva" />
		<tag k="ssr:stedsnr" v="85364" />
		<tag k="waterway" v="river" />
	</node>
	<node id="-443486" lat="59.2708682707" lon="8.89160909511">
		<tag k="name" v="Solomtjønnane" />
		<tag k="natural" v="water" />
		<tag k="ssr:stedsnr" v="85198" />
	</node>
	<node id="-443484" lat="59.2799527757" lon="8.92086111624">
		<tag k="name" v="Uvildam" />
		<tag k="ssr:stedsnr" v="85187" />
		<tag k="waterway" v="dam" />
	</node>
	<node id="-443483" lat="59.3077527738" lon="8.90100000255">
		<tag k="name" v="Høgefjellodden" />
		<tag k="natural" v="cape" />
		<tag k="ssr:stedsnr" v="85241" />
	</node>
	<node id="-443482" lat="59.2735777808" lon="8.92549722122">
		<tag k="name" v="Svarttjønn" />
		<tag k="natural" v="water" />
		<tag k="ssr:stedsnr" v="85233" />
	</node>
	<node id="-443478" lat="59.2798666701" lon="9.04765278607">
		<tag k="name" v="Midtre Trytetjønn" />
		<tag k="natural" v="water" />
		<tag k="old_name" v="Mitre Trytetjønn" />
		<tag k="ssr:stedsnr" v="85173" />
	</node>
	<node id="-443466" lat="59.2875805576" lon="9.23389999921">
		<tag k="name" v="Eidselva" />
		<tag k="ssr:stedsnr" v="63703" />
		<tag k="waterway" v="river" />
	</node>
	<node id="-443460" lat="59.3333305582" lon="9.08499721671">
		<tag k="alt_name" v="Østerå" />
		<tag k="name" v="Østeråa" />
		<tag k="ssr:stedsnr" v="63246" />
		<tag k="waterway" v="river" />
	</node>
	<node id="-443444" lat="59.2778416673" lon="8.97909999283">
		<tag k="alt_name" v="Vårbutjørna, øvre" />
		<tag k="name" v="Øvre Vårbutjønn" />
		<tag k="natural" v="water" />
		<tag k="ssr:stedsnr" v="63137" />
	</node>
	<node id="-443438" lat="59.2317250028" lon="9.15531110958">
		<tag k="name" v="Langen" />
		<tag k="natural" v="water" />
		<tag k="ssr:stedsnr" v="62437" />
		<tag k="water" v="lake" />
	</node>
	<node id="-443435" lat="59.2410277823" lon="9.06491388619">
		<tag k="alt_name" v="Gongeelva" />
		<tag k="name" v="Gångeelva" />
		<tag k="ssr:stedsnr" v="62403" />
		<tag k="waterway" v="stream" />
	</node>
	<node id="-443433" lat="59.2298249996" lon="9.06653889435">
		<tag k="name" v="Storlibekken" />
		<tag k="ssr:stedsnr" v="62384" />
		<tag k="waterway" v="stream" />
	</node>
	<node id="-443432" lat="59.1816333349" lon="9.19283888213">
		<tag k="alt_name" v="Auretjønn" />
		<tag k="name" v="Auretjørn" />
		<tag k="natural" v="water" />
		<tag k="ssr:stedsnr" v="62351" />
	</node>
	<node id="-443431" lat="59.1973805534" lon="9.16736666327">
		<tag k="alt_name" v="Broke" />
		<tag k="name" v="Brokevatnet" />
		<tag k="natural" v="water" />
		<tag k="ssr:stedsnr" v="62309" />
	</node>
	<node id="-443430" lat="59.1965500037" lon="9.19320278023">
		<tag k="fixme" v="multiple name tags, choose one and add the other to alt_name" />
		<tag k="name" v="Trellbotjønn;Trelleborgtjørna" />
		<tag k="natural" v="water" />
		<tag k="ssr:stedsnr" v="62305" />
	</node>
	<node id="-443423" lat="59.1581583294" lon="9.24014721813">
		<tag k="name" v="Buttelbekk" />
		<tag k="ssr:stedsnr" v="56692" />
		<tag k="waterway" v="stream" />
	</node>
	<node id="-443411" lat="59.1823361082" lon="9.1877083407">
		<tag k="name" v="Blankvatn" />
		<tag k="natural" v="water" />
		<tag k="ssr:stedsnr" v="55832" />
	</node>
	<node id="-443409" lat="59.1817194407" lon="9.22145555443">
		<tag k="name" v="Sandavatn" />
		<tag k="natural" v="water" />
		<tag k="ssr:stedsnr" v="55824" />
		<tag k="water" v="lake" />
	</node>
	<node id="-443405" lat="59.2394638854" lon="9.21991945173">
		<tag k="name" v="Åleputten" />
		<tag k="natural" v="water" />
		<tag k="ssr:stedsnr" v="55786" />
	</node>
	<node id="-443402" lat="59.2464861083" lon="9.22385832727">
		<tag k="name" v="Stutøye" />
		<tag k="natural" v="water" />
		<tag k="ssr:stedsnr" v="55756" />
	</node>
	<node id="-443399" lat="59.1743138924" lon="9.22821944573">
		<tag k="name" v="Sannaelva" />
		<tag k="ssr:stedsnr" v="55722" />
		<tag k="waterway" v="river" />
	</node>
	<node id="-443398" lat="59.1868777794" lon="9.21792500539">
		<tag k="name" v="Storeøya" />
		<tag k="place" v="islet" />
		<tag k="ssr:stedsnr" v="55659" />
	</node>
	<node id="-443397" lat="59.1901222246" lon="9.2188277816">
		<tag k="name" v="Langodde" />
		<tag k="natural" v="cape" />
		<tag k="ssr:stedsnr" v="55643" />
	</node>
	<node id="-443396" lat="59.2564722212" lon="9.07237500872">
		<tag k="name" v="Hantokulpen" />
		<tag k="natural" v="water" />
		<tag k="ssr:stedsnr" v="55541" />
		<tag k="water" v="pond" />
	</node>
	<node id="-443395" lat="59.2566194433" lon="9.08654444259">
		<tag k="name" v="Meheibekken" />
		<tag k="ssr:stedsnr" v="55537" />
		<tag k="waterway" v="stream" />
	</node>
	<node id="-443382" lat="59.2356055546" lon="9.13189444145">
		<tag k="name" v="Løken" />
		<tag k="natural" v="strait" />
		<tag k="ssr:stedsnr" v="41299" />
	</node>
	<node id="-443377" lat="59.2212333367" lon="9.26194721644">
		<tag k="name" v="Kåvan" />
		<tag k="natural" v="bay" />
		<tag k="ssr:stedsnr" v="40896" />
	</node>
	<node id="-443373" lat="59.2956527819" lon="9.27158888242">
		<tag k="name" v="Kirkestranda" />
		<tag k="natural" v="beach" />
		<tag k="ssr:stedsnr" v="27758" />
	</node>
	<node id="-443371" lat="59.3071694474" lon="9.17944999766">
		<tag k="name" v="Straumen" />
		<tag k="natural" v="bay" />
		<tag k="ssr:stedsnr" v="27733" />
	</node>
	<node id="-443360" lat="59.2274833311" lon="9.36073888166">
		<tag k="name" v="Damtjønn" />
		<tag k="natural" v="water" />
		<tag k="old_name" v="Dammtjenn" />
		<tag k="ssr:stedsnr" v="25472" />
	</node>
	<node id="-443343" lat="59.3192666658" lon="9.02632499367">
		<tag k="name" v="Hegnaevja" />
		<tag k="natural" v="bay" />
		<tag k="ssr:stedsnr" v="24335" />
	</node>
	<node id="-443335" lat="59.3224833331" lon="9.00885556082">
		<tag k="name" v="Gisholtevja" />
		<tag k="natural" v="bay" />
		<tag k="ssr:stedsnr" v="23356" />
	</node>
	<node id="-443332" lat="59.3140861125" lon="9.25789443806">
		<tag k="name" v="Sandnesevja" />
		<tag k="natural" v="bay" />
		<tag k="ssr:stedsnr" v="2752" />
	</node>
	<node id="-443327" lat="59.3050055556" lon="8.79825555683">
		<tag k="name" v="Flåvatn" />
		<tag k="natural" v="water" />
		<tag k="ssr:stedsnr" v="2699" />
		<tag k="water" v="lake" />
	</node>
	<node id="-443326" lat="59.2966861083" lon="8.8414888885">
		<tag k="name" v="Grimnesodden" />
		<tag k="natural" v="cape" />
		<tag k="ssr:stedsnr" v="2695" />
	</node>
	<node id="-443315" lat="59.2932500041" lon="9.15002499483">
		<tag k="alt_name" v="Nome" />
		<tag k="name" v="Nomevatn" />
		<tag k="natural" v="water" />
		<tag k="ssr:stedsnr" v="2137" />
		<tag k="water" v="lake" />
	</node>
	<node id="-443310" lat="59.2303888856" lon="9.1417194446">
		<tag k="alt_name" v="Minnesjøen, store;Minnesjø" />
		<tag k="name" v="Store Minnesjøen" />
		<tag k="natural" v="water" />
		<tag k="ssr:stedsnr" v="1385" />
		<tag k="water" v="lake" />
	</node>
	<node id="-443308" lat="59.322625004" lon="9.15414443724">
		<tag k="alt_name" v="Høgmyrbekken" />
		<tag k="name" v="Høymyrbekken" />
		<tag k="ssr:stedsnr" v="2200" />
		<tag k="waterway" v="stream" />
	</node>
	<node id="-443305" lat="59.2334777817" lon="9.43057778325">
		<tag k="alt_name" v="Munken, l" />
		<tag k="name" v="Lille Munken" />
		<tag k="place" v="islet" />
		<tag k="ssr:stedsnr" v="1046" />
	</node>
	<node id="-443291" lat="59.2873805599" lon="9.27604167459">
		<tag k="name" v="Torva" />
		<tag k="place" v="islet" />
		<tag k="ssr:stedsnr" v="966107" />
	</node>
	<node id="-443282" lat="59.2237694486" lon="9.01842777827">
		<tag k="name" v="Svarttjønn" />
		<tag k="natural" v="water" />
		<tag k="ssr:stedsnr" v="965256" />
	</node>
	<node id="-443277" lat="59.1515250001" lon="9.21369722007">
		<tag k="name" v="Vinterstranda" />
		<tag k="natural" v="beach" />
		<tag k="ssr:stedsnr" v="951669" />
	</node>
	<node id="-443274" lat="59.2817249971" lon="9.2945611059">
		<tag k="name" v="Gruteknabb" />
		<tag k="natural" v="bay" />
		<tag k="ssr:stedsnr" v="951159" />
	</node>
	<node id="-443264" lat="59.3003805528" lon="9.14034721944">
		<tag k="name" v="Straumen" />
		<tag k="ssr:stedsnr" v="919654" />
		<tag k="waterway" v="river" />
	</node>
	<node id="-443263" lat="59.3209444475" lon="9.06367222439">
		<tag k="alt_name" v="Lundtveitvatnet" />
		<tag k="name" v="Lundtveitvatn" />
		<tag k="natural" v="water" />
		<tag k="ssr:stedsnr" v="912223" />
	</node>
	<node id="-443261" lat="59.3127277749" lon="8.93347223015">
		<tag k="name" v="Holmane" />
		<tag k="place" v="islet" />
		<tag k="ssr:stedsnr" v="912204" />
	</node>
	<node id="-443255" lat="59.2016277785" lon="9.26183055211">
		<tag k="name" v="Svartetjønn" />
		<tag k="natural" v="water" />
		<tag k="ssr:stedsnr" v="905862" />
	</node>
	<node id="-443251" lat="59.1690000021" lon="9.24491110442">
		<tag k="name" v="Lomtjønn" />
		<tag k="natural" v="water" />
		<tag k="ssr:stedsnr" v="905770" />
	</node>
	<node id="-443249" lat="59.2933277752" lon="9.08657500045">
		<tag k="name" v="Skoeelva" />
		<tag k="ssr:stedsnr" v="905363" />
		<tag k="waterway" v="river" />
	</node>
	<node id="-443243" lat="59.3529972232" lon="9.04346666159">
		<tag k="name" v="Gryteåa" />
		<tag k="ssr:stedsnr" v="874373" />
		<tag k="waterway" v="river" />
	</node>
	<node id="-443227" lat="59.3045333377" lon="9.27673332677">
		<tag k="name" v="Steinholtbukta" />
		<tag k="natural" v="bay" />
		<tag k="ssr:stedsnr" v="852759" />
	</node>
	<node id="-443226" lat="59.3250722226" lon="9.2404499947">
		<tag k="name" v="Ullevikbogen" />
		<tag k="natural" v="bay" />
		<tag k="ssr:stedsnr" v="852858" />
	</node>
	<node id="-443225" lat="59.2787055514" lon="9.35607778566">
		<tag k="alt_name" v="Skipsnesodden" />
		<tag k="name" v="Skiftenesodden" />
		<tag k="natural" v="cape" />
		<tag k="ssr:stedsnr" v="852707" />
	</node>
	<node id="-443216" lat="59.2070694467" lon="9.09078332783">
		<tag k="name" v="Langodde" />
		<tag k="natural" v="cape" />
		<tag k="ssr:stedsnr" v="844318" />
	</node>
	<node id="-443215" lat="59.207583336" lon="9.08884999448">
		<tag k="name" v="Runde Langoddetjønn" />
		<tag k="natural" v="water" />
		<tag k="ssr:stedsnr" v="844316" />
	</node>
	<node id="-443212" lat="59.1652249979" lon="9.26315833884">
		<tag k="alt_name" v="Lomtjønn" />
		<tag k="name" v="Lomtjenn" />
		<tag k="natural" v="water" />
		<tag k="ssr:stedsnr" v="939046" />
	</node>
	<node id="-443211" lat="59.2923638933" lon="9.26253611947">
		<tag k="name" v="Kastebukta" />
		<tag k="natural" v="bay" />
		<tag k="ssr:stedsnr" v="938747" />
	</node>
	<node id="-443206" lat="59.2633888849" lon="9.28707499593">
		<tag k="name" v="Håtveitbekken" />
		<tag k="ssr:stedsnr" v="937185" />
		<tag k="waterway" v="stream" />
	</node>
	<node id="-443202" lat="59.2472166659" lon="9.39719444143">
		<tag k="name" v="Helgjevik" />
		<tag k="natural" v="bay" />
		<tag k="ssr:stedsnr" v="936277" />
	</node>
	<node id="-443198" lat="59.2228416636" lon="9.33859167011">
		<tag k="name" v="Lønntjenn" />
>>>>>>> e1d4bc35ff8a6074a6f2e91616a996b547c36f15
		<tag k="natural" v="water" />
		<tag k="ssr:stedsnr" v="935672" />
	</node>
<<<<<<< HEAD
	<node lat="59.28585277880461" lon="9.27898333475216" id="-22687">
		<tag k="name" v="Norsjø" />
		<tag k="natural" v="water" />
		<tag k="ssr:stedsnr" v="299096" />
		<tag k="water" v="lake" />
	</node>
	<node lat="59.244086115584224" lon="9.218680546939616" id="-22690">
		<tag k="alt_name" v="Siljutjønn" />
		<tag k="name" v="Siljutjern" />
		<tag k="natural" v="water" />
		<tag k="ssr:stedsnr" v="304050" />
	</node>
	<node lat="59.233952780320244" lon="9.273238881481833" id="-22695">
		<tag k="alt_name" v="Store Setertjønn" />
		<tag k="name" v="Sætertjern" />
		<tag k="natural" v="water" />
		<tag k="ssr:stedsnr" v="305051" />
	</node>
	<node lat="59.2567305572492" lon="8.861980562691024" id="-22696">
		<tag k="alt_name" v="Sandtjørn" />
		<tag k="name" v="Sandtjønn" />
		<tag k="natural" v="water" />
		<tag k="ssr:stedsnr" v="305074" />
	</node>
	<node lat="59.26007777524303" lon="9.141688880369616" id="-22698">
		<tag k="alt_name" v="Tyri" />
		<tag k="name" v="Tyrivatn" />
		<tag k="natural" v="water" />
		<tag k="ssr:stedsnr" v="305082" />
		<tag k="water" v="lake" />
	</node>
	<node lat="59.26987777405795" lon="9.087749991815096" id="-22699">
		<tag k="alt_name" v="Dalatjønn" />
		<tag k="name" v="Dalatjørna" />
		<tag k="natural" v="water" />
		<tag k="ssr:stedsnr" v="305098" />
	</node>
	<node lat="59.31525555861322" lon="9.120594450550238" id="-22702">
		<tag k="name" v="Barlaugelva" />
		<tag k="ssr:stedsnr" v="305172" />
		<tag k="waterway" v="stream" />
	</node>
	<node lat="59.16707499917525" lon="9.209302775383065" id="-22707">
		<tag k="alt_name" v="Prestevatn" />
		<tag k="name" v="Prestevatnet" />
		<tag k="natural" v="water" />
		<tag k="ssr:stedsnr" v="305280" />
	</node>
	<node lat="59.17159722621073" lon="9.198152770773074" id="-22708">
		<tag k="alt_name" v="Langtjønn" />
		<tag k="name" v="Langtjern" />
		<tag k="natural" v="water" />
		<tag k="ssr:stedsnr" v="305284" />
	</node>
	<node lat="59.18330000091515" lon="9.187055562302106" id="-22710">
		<tag k="name" v="Blankvatnet" />
		<tag k="natural" v="water" />
		<tag k="ssr:stedsnr" v="305371" />
	</node>
	<node lat="59.18630833679044" lon="9.182783330278633" id="-22711">
		<tag k="alt_name" v="Trytetjønn" />
		<tag k="name" v="Tryttjern" />
		<tag k="natural" v="water" />
		<tag k="ssr:stedsnr" v="305382" />
	</node>
	<node lat="59.22398055860277" lon="9.26377499208188" id="-22716">
		<tag k="alt_name" v="Stavsjø, øvre" />
		<tag k="name" v="Øvre Stavsjø" />
		<tag k="natural" v="water" />
		<tag k="ssr:stedsnr" v="305944" />
		<tag k="water" v="lake" />
	</node>
	<node lat="59.26160000109949" lon="9.239908335326469" id="-22721">
		<tag k="alt_name" v="Damtjenn" />
		<tag k="name" v="Damtjørn" />
		<tag k="natural" v="water" />
		<tag k="ssr:stedsnr" v="306592" />
	</node>
	<node lat="59.35024166300537" lon="9.023286105169465" id="-22726">
		<tag k="name" v="Horstjønnbekken" />
		<tag k="ssr:stedsnr" v="327332" />
		<tag k="waterway" v="stream" />
	</node>
	<node lat="59.32519627473194" lon="9.144798915474066" id="-22731">
		<tag k="name" v="Fiskelausbekken" />
		<tag k="ssr:stedsnr" v="328088" />
		<tag k="waterway" v="stream" />
	</node>
	<node lat="59.269908334022446" lon="8.854586109609457" id="-22738">
		<tag k="name" v="Mellomvasstjønn" />
		<tag k="natural" v="water" />
		<tag k="ssr:stedsnr" v="328483" />
	</node>
	<node lat="59.343474997705485" lon="9.067544442730785" id="-22739">
		<tag k="name" v="Suvdaltjønn" />
		<tag k="natural" v="water" />
		<tag k="ssr:stedsnr" v="328642" />
	</node>
	<node lat="59.14651110663912" lon="9.218747230429322" id="-22758">
		<tag k="name" v="Pondalskilen" />
		<tag k="natural" v="bay" />
		<tag k="ssr:stedsnr" v="344673" />
	</node>
	<node lat="59.31057778225967" lon="9.085541660494146" id="-22760">
		<tag k="name" v="Oddeevja" />
		<tag k="natural" v="bay" />
		<tag k="ssr:stedsnr" v="344747" />
	</node>
	<node lat="59.22285277405384" lon="9.278608338564993" id="-22763">
		<tag k="name" v="Lauvbukta" />
		<tag k="natural" v="bay" />
		<tag k="ssr:stedsnr" v="344889" />
	</node>
	<node lat="59.22107777910122" lon="9.271908325174994" id="-22764">
		<tag k="name" v="Langøya" />
		<tag k="place" v="islet" />
		<tag k="ssr:stedsnr" v="344892" />
	</node>
	<node lat="59.212330554578955" lon="9.180200007194134" id="-22768">
		<tag k="name" v="Gnagopptangen" />
		<tag k="natural" v="cape" />
		<tag k="ssr:stedsnr" v="344995" />
	</node>
	<node lat="59.2833305534481" lon="9.272480556813736" id="-22773">
		<tag k="name" v="Øra" />
		<tag k="natural" v="cape" />
		<tag k="ssr:stedsnr" v="359092" />
	</node>
	<node lat="59.22215555318672" lon="9.149463897261635" id="-22774">
		<tag k="name" v="Minnesjøøyane" />
		<tag k="place" v="island" />
		<tag k="ssr:stedsnr" v="359441" />
	</node>
	<node lat="59.242480553173856" lon="9.254391669455067" id="-22787">
		<tag k="name" v="Steinbekken" />
		<tag k="ssr:stedsnr" v="359994" />
		<tag k="waterway" v="stream" />
	</node>
	<node lat="59.22495000190169" lon="9.459116669293284" id="-22790">
		<tag k="name" v="Norsjø" />
		<tag k="natural" v="water" />
		<tag k="ssr:stedsnr" v="365936" />
		<tag k="water" v="lake" />
	</node>
	<node lat="59.26234722396019" lon="8.918649994301367" id="-22794">
		<tag k="alt_name" v="Tveitstulvatnet" />
		<tag k="name" v="Tveitstulvatn" />
		<tag k="natural" v="water" />
		<tag k="ssr:stedsnr" v="366097" />
	</node>
	<node lat="59.25420555160068" lon="9.074505548970512" id="-22797">
		<tag k="alt_name" v="Sandtjønn" />
		<tag k="name" v="Sandtjørn" />
		<tag k="natural" v="water" />
		<tag k="ssr:stedsnr" v="366078" />
	</node>
	<node lat="59.286780554637176" lon="8.955591659265457" id="-22799">
		<tag k="alt_name" v="Fiskelaustjørn" />
		<tag k="name" v="Fiskelaustjønn" />
		<tag k="natural" v="water" />
		<tag k="ssr:stedsnr" v="366133" />
	</node>
	<node lat="59.286022218179575" lon="8.96670277896129" id="-22800">
		<tag k="alt_name" v="Høgvatnet" />
		<tag k="name" v="Høgsvatn" />
		<tag k="natural" v="water" />
		<tag k="ssr:stedsnr" v="366139" />
		<tag k="water" v="lake" />
	</node>
	<node lat="59.305363885429884" lon="8.8827583333827" id="-22802">
		<tag k="alt_name" v="Gråhelle" />
		<tag k="name" v="Gråhellodden" />
		<tag k="natural" v="cape" />
		<tag k="ssr:stedsnr" v="366176" />
	</node>
	<node lat="59.346516668815944" lon="8.996536115186016" id="-22803">
		<tag k="name" v="Langåa" />
		<tag k="ssr:stedsnr" v="366257" />
		<tag k="waterway" v="stream" />
	</node>
	<node lat="59.350466664432716" lon="8.984611112780115" id="-22804">
		<tag k="alt_name" v="Langetjørn" />
		<tag k="name" v="Langetjønn" />
		<tag k="natural" v="water" />
		<tag k="ssr:stedsnr" v="366259" />
		<tag k="water" v="lake" />
	</node>
	<node lat="59.196258337546865" lon="9.262488884331647" id="-22807">
		<tag k="name" v="Hommevannet" />
		<tag k="natural" v="water" />
		<tag k="ssr:stedsnr" v="366870" />
	</node>
	<node lat="59.29003055161228" lon="8.90833055994628" id="-22811">
		<tag k="name" v="Jungtjønn" />
		<tag k="natural" v="water" />
		<tag k="ssr:stedsnr" v="388207" />
	</node>
	<node lat="59.30421388682971" lon="8.99340832620744" id="-22815">
		<tag k="name" v="Gangetjønn" />
		<tag k="natural" v="water" />
		<tag k="ssr:stedsnr" v="388005" />
	</node>
	<node lat="59.26552222336122" lon="8.945147219999068" id="-22833">
		<tag k="name" v="Steinbutjønn" />
		<tag k="natural" v="water" />
		<tag k="ssr:stedsnr" v="389519" />
	</node>
	<node lat="59.26784642731393" lon="8.8914070124634" id="-22834">
		<tag k="name" v="Solomtjønnane" />
		<tag k="natural" v="water" />
		<tag k="ssr:stedsnr" v="389524" />
	</node>
	<node lat="59.2167833347325" lon="9.315905563612613" id="-22836">
		<tag k="name" v="Storøya" />
		<tag k="place" v="island" />
		<tag k="ssr:stedsnr" v="389827" />
	</node>
	<node lat="59.21168888791992" lon="9.260844439822476" id="-22862">
		<tag k="name" v="Svarttjønn" />
		<tag k="natural" v="water" />
		<tag k="ssr:stedsnr" v="405894" />
	</node>
	<node lat="59.239972221502526" lon="9.22746667083599" id="-22864">
		<tag k="name" v="Kroktjønnbekken" />
		<tag k="ssr:stedsnr" v="405995" />
		<tag k="waterway" v="stream" />
	</node>
	<node lat="59.24401111002218" lon="9.000224996635911" id="-22870">
		<tag k="name" v="Hestfjelltjønn" />
		<tag k="natural" v="water" />
		<tag k="ssr:stedsnr" v="420131" />
	</node>
	<node lat="59.23427221875373" lon="9.093883341989429" id="-22876">
		<tag k="name" v="Klevjadalstjønn" />
		<tag k="natural" v="water" />
		<tag k="ssr:stedsnr" v="420182" />
	</node>
	<node lat="59.28005555513937" lon="9.093899992479846" id="-22878">
		<tag k="name" v="Lintjønn" />
		<tag k="natural" v="water" />
		<tag k="ssr:stedsnr" v="420374" />
	</node>
	<node lat="59.173747226659806" lon="9.241025004011844" id="-22884">
		<tag k="name" v="Bjørktjønn" />
		<tag k="natural" v="water" />
		<tag k="ssr:stedsnr" v="420792" />
	</node>
	<node lat="59.17714722632311" lon="9.20787776911733" id="-22889">
		<tag k="name" v="Hosebandtjønn" />
		<tag k="natural" v="water" />
		<tag k="ssr:stedsnr" v="420865" />
	</node>
	<node lat="59.19937499554944" lon="9.260355563379429" id="-22892">
		<tag k="name" v="Øvre Hommevatn" />
		<tag k="natural" v="water" />
		<tag k="ssr:stedsnr" v="420870" />
		<tag k="water" v="lake" />
	</node>
	<node lat="59.176947218699596" lon="9.19295277459391" id="-22897">
		<tag k="alt_name" v="Rundetjønn" />
		<tag k="name" v="Rundtjørn" />
		<tag k="natural" v="water" />
		<tag k="ssr:stedsnr" v="426272" />
	</node>
	<node lat="59.24414722532075" lon="9.002125003965514" id="-22900">
		<tag k="alt_name" v="Offersteintjønn" />
		<tag k="name" v="Offersteintjerna" />
		<tag k="natural" v="water" />
		<tag k="ssr:stedsnr" v="426374" />
	</node>
	<node lat="59.29364444379452" lon="8.960744440825549" id="-22907">
		<tag k="alt_name" v="Venheimtjørna" />
		<tag k="name" v="Venheimtjønn" />
		<tag k="natural" v="water" />
		<tag k="ssr:stedsnr" v="427145" />
	</node>
	<node lat="59.330988888156305" lon="9.149941670464054" id="-22914">
		<tag k="alt_name" v="Kringletjørn" />
		<tag k="name" v="Kringletjønn" />
		<tag k="natural" v="water" />
		<tag k="ssr:stedsnr" v="427246" />
	</node>
	<node lat="59.3573999957486" lon="8.990519438010265" id="-22917">
		<tag k="alt_name" v="Sandtjørn" />
		<tag k="loc_name" v="Lomtjønn" />
		<tag k="name" v="Sandtjønn" />
		<tag k="natural" v="water" />
		<tag k="ssr:stedsnr" v="427338" />
	</node>
	<node lat="59.37862499612753" lon="9.12335278393674" id="-22918">
		<tag k="alt_name" v="Ljosvatn" />
		<tag k="name" v="Store Ljosvatn" />
		<tag k="natural" v="water" />
		<tag k="old_name" v="Ljostjørna, store;Store Ljostjørna" />
		<tag k="ssr:stedsnr" v="427365" />
	</node>
	<node lat="59.290477780017774" lon="8.821980563572533" id="-22920">
		<tag k="name" v="Flogåi" />
		<tag k="ssr:stedsnr" v="427686" />
		<tag k="waterway" v="stream" />
	</node>
	<node lat="59.15322499830241" lon="9.216794449092639" id="-22930">
		<tag k="name" v="Bøvann" />
		<tag k="natural" v="water" />
		<tag k="ssr:stedsnr" v="506755" />
		<tag k="water" v="lake" />
	</node>
	<node lat="59.23899999701678" lon="9.327527775683174" id="-22937">
		<tag k="name" v="Diplane" />
		<tag k="natural" v="water" />
		<tag k="ssr:stedsnr" v="509863" />
		<tag k="water" v="pond" />
	</node>
	<node lat="59.3443611105557" lon="8.896436107106268" id="-22940">
		<tag k="name" v="Stroktjønnputt" />
		<tag k="natural" v="water" />
		<tag k="ssr:stedsnr" v="510223" />
		<tag k="water" v="pond" />
	</node>
	<node lat="59.26226944256887" lon="9.378577770841815" id="-22941">
		<tag k="name" v="Nordståstranda" />
		<tag k="natural" v="beach" />
		<tag k="ssr:stedsnr" v="510234" />
	</node>
	<node lat="59.28811666968352" lon="8.843730549484023" id="-22942">
		<tag k="name" v="Furuvasselva" />
		<tag k="ssr:stedsnr" v="510447" />
		<tag k="waterway" v="river" />
	</node>
	<node lat="59.221611109175974" lon="9.316227774491718" id="-22946">
		<tag k="name" v="Tjønnestultjønna" />
		<tag k="natural" v="bay" />
		<tag k="ssr:stedsnr" v="510867" />
	</node>
	<node lat="59.31666111010558" lon="9.187888893239435" id="-22953">
		<tag k="name" v="Gåserudbekken" />
		<tag k="ssr:stedsnr" v="512590" />
		<tag k="waterway" v="stream" />
	</node>
	<node lat="59.30535555961669" lon="9.133641673096637" id="-22961">
		<tag k="name" v="Barlaugevja" />
		<tag k="natural" v="water" />
		<tag k="ssr:stedsnr" v="526660" />
		<tag k="water" v="lake" />
	</node>
	<node lat="59.25391666635008" lon="9.09192222921976" id="-22975">
		<tag k="name" v="Øvre Meheitjønn" />
		<tag k="natural" v="water" />
		<tag k="ssr:stedsnr" v="541594" />
	</node>
	<node lat="59.27003888450077" lon="9.111563890777965" id="-22976">
		<tag k="name" v="Hauglandstoa" />
		<tag k="natural" v="bay" />
		<tag k="ssr:stedsnr" v="541597" />
	</node>
	<node lat="59.196925002921596" lon="9.273472223528152" id="-22979">
		<tag k="name" v="Stuverudputten" />
		<tag k="natural" v="water" />
		<tag k="ssr:stedsnr" v="541837" />
	</node>
	<node lat="59.19293611282573" lon="9.217933333580628" id="-22982">
		<tag k="name" v="Himingbukta" />
		<tag k="natural" v="bay" />
		<tag k="ssr:stedsnr" v="541848" />
	</node>
	<node lat="59.196661113885355" lon="9.182155553134121" id="-22987">
		<tag k="alt_name" v="Svarttjønn" />
		<tag k="name" v="Svarttjørn" />
		<tag k="natural" v="water" />
		<tag k="ssr:stedsnr" v="547353" />
	</node>
	<node lat="59.27454722008121" lon="8.930166661592596" id="-22988">
		<tag k="alt_name" v="Ulvhildvatnet" />
		<tag k="name" v="Uvilvatn" />
		<tag k="natural" v="water" />
		<tag k="ssr:stedsnr" v="548129" />
		<tag k="water" v="lake" />
	</node>
	<node lat="59.28661666617082" lon="8.989641665952394" id="-22989">
		<tag k="alt_name" v="Igletjørn" />
		<tag k="name" v="Igletjønn" />
		<tag k="natural" v="water" />
		<tag k="ssr:stedsnr" v="548138" />
	</node>
	<node lat="59.289375000916955" lon="8.982830553878811" id="-22990">
		<tag k="alt_name" v="Svarttjørn" />
		<tag k="name" v="Svarttjønn" />
		<tag k="natural" v="water" />
		<tag k="ssr:stedsnr" v="548139" />
	</node>
	<node lat="59.21760000162928" lon="9.05097778365773" id="-22993">
		<tag k="alt_name" v="Dangletjønn" />
		<tag k="name" v="Dangletjern" />
		<tag k="natural" v="water" />
		<tag k="ssr:stedsnr" v="547436" />
	</node>
	<node lat="59.301347224954945" lon="9.28431667540154" id="-23009">
		<tag k="name" v="Tjonodden" />
		<tag k="natural" v="cape" />
		<tag k="ssr:stedsnr" v="548790" />
	</node>
	<node lat="59.29510277437312" lon="9.27083888438054" id="-23010">
		<tag k="alt_name" v="Romnesvika" />
		<tag k="name" v="Romnesbukta" />
		<tag k="natural" v="bay" />
		<tag k="ssr:stedsnr" v="548791" />
	</node>
	<node lat="59.22018611234539" lon="9.117058340914612" id="-23013">
		<tag k="name" v="Sandalsbekken" />
		<tag k="ssr:stedsnr" v="557379" />
		<tag k="waterway" v="stream" />
	</node>
	<node lat="59.27198889141294" lon="8.950955550286034" id="-23014">
		<tag k="name" v="Presttjønn" />
		<tag k="natural" v="water" />
		<tag k="ssr:stedsnr" v="570076" />
	</node>
	<node lat="59.34827777614691" lon="8.948050006411782" id="-23016">
		<tag k="name" v="Stavattjønn" />
		<tag k="natural" v="water" />
		<tag k="ssr:stedsnr" v="570085" />
	</node>
	<node lat="59.34182880721144" lon="8.878891220724759" id="-23023">
		<tag k="name" v="Vesle Sandtjønn" />
		<tag k="natural" v="water" />
		<tag k="ssr:stedsnr" v="570396" />
	</node>
	<node lat="59.154855559980795" lon="9.283136116663119" id="-23031">
		<tag k="name" v="Bjortjønn" />
		<tag k="natural" v="water" />
		<tag k="ssr:stedsnr" v="570582" />
	</node>
	<node lat="59.22328611491228" lon="9.259686109705976" id="-23049">
		<tag k="name" v="Storøya" />
		<tag k="place" v="island" />
		<tag k="ssr:stedsnr" v="586874" />
	</node>
	<node lat="59.20865833593004" lon="9.188797225472904" id="-23056">
		<tag k="name" v="Sanddokka" />
		<tag k="natural" v="bay" />
		<tag k="ssr:stedsnr" v="586986" />
	</node>
	<node lat="59.25510555474844" lon="9.134613880466693" id="-23064">
		<tag k="name" v="Lauvåsdammen" />
		<tag k="ssr:stedsnr" v="601585" />
		<tag k="waterway" v="dam" />
	</node>
	<node lat="59.24635555175567" lon="9.272138881442062" id="-23065">
		<tag k="name" v="Langåstjønn" />
		<tag k="natural" v="water" />
		<tag k="ssr:stedsnr" v="601927" />
	</node>
	<node lat="59.22908332971835" lon="9.262969447109024" id="-23066">
		<tag k="name" v="Eikeståbukta" />
		<tag k="natural" v="bay" />
		<tag k="ssr:stedsnr" v="601944" />
	</node>
	<node lat="59.26369444730869" lon="8.857416663704834" id="-23075">
		<tag k="alt_name" v="Furuvatnet, yt" />
		<tag k="name" v="Ytre Furuvatn" />
		<tag k="natural" v="water" />
		<tag k="ssr:stedsnr" v="608088" />
	</node>
	<node lat="59.348983329605296" lon="8.972655559955887" id="-23079">
		<tag k="alt_name" v="Svartetjørn" />
		<tag k="name" v="Svartetjønn" />
		<tag k="natural" v="water" />
		<tag k="ssr:stedsnr" v="608248" />
	</node>
	<node lat="59.256841670575646" lon="9.292980547458756" id="-23086">
		<tag k="alt_name" v="Håtveittjørn" />
		<tag k="name" v="Håtveittjønn" />
		<tag k="natural" v="water" />
		<tag k="ssr:stedsnr" v="608707" />
	</node>
	<node lat="59.33091110939477" lon="8.951436105665346" id="-23087">
		<tag k="alt_name" v="Flåmelva" />
		<tag k="name" v="Flomelva" />
		<tag k="ssr:stedsnr" v="609222" />
		<tag k="waterway" v="stream" />
	</node>
	<node lat="59.37423333479375" lon="9.007216662205511" id="-23088">
		<tag k="alt_name" v="Eikaelva" />
		<tag k="name" v="Eikjaelva" />
		<tag k="ssr:stedsnr" v="609327" />
		<tag k="waterway" v="river" />
	</node>
	<node lat="59.30009722052838" lon="8.948505549529747" id="-23091">
		<tag k="alt_name" v="Teigselva" />
		<tag k="name" v="Teigeelva" />
		<tag k="ssr:stedsnr" v="609161" />
		<tag k="waterway" v="stream" />
	</node>
	<node lat="59.35286111215665" lon="9.097019446928044" id="-23094">
		<tag k="alt_name" v="Løkedalsbekken" />
		<tag k="name" v="Løkjedalsbekken" />
		<tag k="ssr:stedsnr" v="609252" />
		<tag k="waterway" v="stream" />
	</node>
	<node lat="59.34121111279904" lon="9.01404999319273" id="-23095">
		<tag k="alt_name" v="Trytetjørnane" />
		<tag k="name" v="Trytetjønnane" />
		<tag k="natural" v="water" />
		<tag k="ssr:stedsnr" v="609264" />
	</node>
	<node lat="59.28150000403549" lon="9.27530554685545" id="-23097">
		<tag k="name" v="Ringsevja" />
		<tag k="natural" v="bay" />
		<tag k="ssr:stedsnr" v="609653" />
	</node>
	<node lat="59.34718055751501" lon="8.956855561189805" id="-23101">
		<tag k="name" v="Limtjønnbærnuta" />
		<tag k="natural" v="water" />
		<tag k="ssr:stedsnr" v="630119" />
		<tag k="water" v="pond" />
	</node>
	<node lat="59.229672226596946" lon="9.28204167228696" id="-23104">
		<tag k="name" v="Dammannstjønn" />
		<tag k="natural" v="water" />
		<tag k="ssr:stedsnr" v="630979" />
	</node>
	<node lat="59.29315833208013" lon="8.911905552846582" id="-23116">
		<tag k="name" v="Vesle Jungetjønn" />
		<tag k="natural" v="water" />
		<tag k="ssr:stedsnr" v="631259" />
		<tag k="water" v="pond" />
	</node>
	<node lat="59.217880559499854" lon="9.31190556102125" id="-23119">
		<tag k="name" v="Brentøya" />
		<tag k="place" v="island" />
		<tag k="ssr:stedsnr" v="631849" />
	</node>
	<node lat="59.22185833756764" lon="9.310663882283311" id="-23120">
		<tag k="name" v="Åletjønn" />
		<tag k="natural" v="water" />
		<tag k="ssr:stedsnr" v="631857" />
		<tag k="water" v="pond" />
	</node>
	<node lat="59.14652500403626" lon="9.209119443257945" id="-23134">
		<tag k="name" v="Forkletjønn" />
		<tag k="natural" v="water" />
		<tag k="ssr:stedsnr" v="647666" />
	</node>
	<node lat="59.14679722122407" lon="9.221394448860623" id="-23136">
		<tag k="name" v="Bøvatnsdammen" />
		<tag k="ssr:stedsnr" v="647672" />
		<tag k="waterway" v="dam" />
	</node>
	<node lat="59.2050611089136" lon="9.232825004424217" id="-23142">
		<tag k="name" v="Lille Ormtjønn" />
		<tag k="natural" v="water" />
		<tag k="ssr:stedsnr" v="647922" />
	</node>
	<node lat="59.15081667099962" lon="9.237047220321232" id="-23157">
		<tag k="name" v="Taraldstjønn" />
		<tag k="natural" v="water" />
		<tag k="ssr:stedsnr" v="663660" />
	</node>
	<node lat="59.242174998223916" lon="9.234147218174947" id="-23159">
		<tag k="alt_name" v="Hollatjønn" />
		<tag k="name" v="Hollatjørn" />
		<tag k="natural" v="water" />
		<tag k="ssr:stedsnr" v="668041" />
	</node>
	<node lat="59.18526388448374" lon="9.272011116304355" id="-23160">
		<tag k="alt_name" v="Trolldalstjønn" />
		<tag k="name" v="Trolldalstjern" />
		<tag k="natural" v="water" />
		<tag k="ssr:stedsnr" v="668997" />
	</node>
	<node lat="59.27404444295771" lon="8.838316659608672" id="-23162">
		<tag k="name" v="Furuvatnet, nordre" />
		<tag k="natural" v="water" />
		<tag k="ssr:stedsnr" v="669539" />
	</node>
	<node lat="59.25122222663044" lon="9.009330556672966" id="-23164">
		<tag k="alt_name" v="Hestefjelltjørna" />
		<tag k="name" v="Hestefjelltjønn" />
		<tag k="natural" v="water" />
		<tag k="ssr:stedsnr" v="669076" />
	</node>
	<node lat="59.35746111307612" lon="9.072463890007803" id="-23175">
		<tag k="name" v="Noremstjønna" />
		<tag k="natural" v="water" />
		<tag k="ssr:stedsnr" v="670239" />
		<tag k="water" v="lake" />
	</node>
	<node lat="59.344361110860184" lon="8.949997226393576" id="-23176">
		<tag k="alt_name" v="Høytjørn" />
		<tag k="name" v="Høytjønn" />
		<tag k="natural" v="water" />
		<tag k="ssr:stedsnr" v="670260" />
	</node>
	<node lat="59.194658329375" lon="9.276827780977417" id="-23191">
		<tag k="name" v="Grunntjønn" />
		<tag k="natural" v="water" />
		<tag k="ssr:stedsnr" v="723788" />
	</node>
	<node lat="59.183777777854694" lon="9.186536103779002" id="-23192">
		<tag k="name" v="Blankvatn" />
		<tag k="natural" v="water" />
		<tag k="ssr:stedsnr" v="723680" />
		<tag k="water" v="lake" />
	</node>
	<node lat="59.183522221771725" lon="9.220294448846925" id="-23193">
		<tag k="name" v="Lilleøya" />
		<tag k="place" v="islet" />
		<tag k="ssr:stedsnr" v="723683" />
	</node>
	<node lat="59.22881928997332" lon="9.130395005143978" id="-23201">
		<tag k="alt_name" v="Lintjønn" />
		<tag k="name" v="Lintjørn" />
		<tag k="natural" v="water" />
		<tag k="ssr:stedsnr" v="730441" />
	</node>
	<node lat="59.28238055962946" lon="8.825302781668872" id="-23208">
		<tag k="alt_name" v="Igletjørn" />
		<tag k="name" v="Igletjønn" />
		<tag k="natural" v="water" />
		<tag k="ssr:stedsnr" v="730772" />
	</node>
	<node lat="59.31574444202428" lon="9.262308335094541" id="-23210">
		<tag k="alt_name" v="Bukkøya" />
		<tag k="name" v="Sandnesøya" />
		<tag k="place" v="island" />
		<tag k="ssr:stedsnr" v="730795" />
	</node>
	<node lat="59.289838892128586" lon="8.868838889106927" id="-23212">
		<tag k="name" v="Ervingsdalselva" />
		<tag k="ssr:stedsnr" v="731128" />
		<tag k="waterway" v="river" />
	</node>
	<node lat="59.32637777522519" lon="8.876219438512889" id="-23213">
		<tag k="alt_name" v="Damtjørn" />
		<tag k="name" v="Damtjønn" />
		<tag k="natural" v="water" />
		<tag k="ssr:stedsnr" v="731175" />
	</node>
	<node lat="59.25206388784029" lon="9.400702780491866" id="-23236">
		<tag k="name" v="Svarthol" />
		<tag k="natural" v="bay" />
		<tag k="ssr:stedsnr" v="753248" />
	</node>
	<node lat="59.337013888762684" lon="9.148230559666992" id="-23242">
		<tag k="name" v="Linnadalsbekken" />
		<tag k="ssr:stedsnr" v="753885" />
		<tag k="waterway" v="stream" />
	</node>
	<node lat="59.237605552418586" lon="9.352808333081473" id="-23243">
		<tag k="name" v="Russtjønn" />
		<tag k="natural" v="water" />
		<tag k="ssr:stedsnr" v="754484" />
	</node>
	<node lat="59.3299416633817" lon="9.182980557458523" id="-23245">
		<tag k="name" v="Gangsjåbekken" />
		<tag k="ssr:stedsnr" v="755531" />
		<tag k="waterway" v="stream" />
	</node>
	<node lat="59.20714722009859" lon="9.191002775489537" id="-23268">
		<tag k="name" v="Kåsatangen" />
		<tag k="natural" v="cape" />
		<tag k="ssr:stedsnr" v="769983" />
	</node>
	<node lat="59.192830555795204" lon="9.178749992971664" id="-23280">
		<tag k="name" v="Masttjønn" />
		<tag k="natural" v="water" />
		<tag k="ssr:stedsnr" v="783674" />
	</node>
	<node lat="59.20001666468762" lon="9.07661666272778" id="-23289">
		<tag k="name" v="Sætreelva" />
		<tag k="ssr:stedsnr" v="790308" />
		<tag k="waterway" v="river" />
	</node>
	<node lat="59.223066664044595" lon="9.105788886493679" id="-23291">
		<tag k="alt_name" v="Tranetjønn" />
		<tag k="name" v="Tranetjørn" />
		<tag k="natural" v="water" />
		<tag k="ssr:stedsnr" v="790435" />
	</node>
	<node lat="59.25637500026715" lon="8.954966662829424" id="-23294">
		<tag k="name" v="Gusstulvannet" />
		<tag k="natural" v="water" />
		<tag k="ssr:stedsnr" v="791112" />
		<tag k="water" v="lake" />
	</node>
	<node lat="59.26877777585134" lon="8.988658325343128" id="-23295">
		<tag k="name" v="Sauåselva" />
		<tag k="ssr:stedsnr" v="791120" />
		<tag k="waterway" v="river" />
	</node>
	<node lat="59.21517499706909" lon="9.317877777352875" id="-23299">
		<tag k="alt_name" v="Stavsjø, nedre" />
		<tag k="name" v="Nedre Stavsjø" />
		<tag k="natural" v="water" />
		<tag k="ssr:stedsnr" v="790931" />
		<tag k="water" v="lake" />
	</node>
	<node lat="59.29493723155225" lon="9.00236738903833" id="-23303">
		<tag k="alt_name" v="Fristjørn" />
		<tag k="name" v="Fristjønn" />
		<tag k="natural" v="water" />
		<tag k="ssr:stedsnr" v="791151" />
	</node>
	<node lat="59.31564999952152" lon="9.15569166803801" id="-23311">
		<tag k="alt_name" v="Lintjørn" />
		<tag k="name" v="Lintjønn" />
		<tag k="natural" v="water" />
		<tag k="ssr:stedsnr" v="791189" />
	</node>
	<node lat="59.33634166427649" lon="9.04723055326063" id="-23314">
		<tag k="alt_name" v="Stordalstjørna" />
		<tag k="name" v="Stordalstjønn" />
		<tag k="natural" v="water" />
		<tag k="ssr:stedsnr" v="791273" />
	</node>
	<node lat="59.251219440074536" lon="9.341169443127665" id="-23317">
		<tag k="alt_name" v="Hjøntveittjørn;Hjøntveittjern" />
		<tag k="name" v="Jøntvedttjønna" />
		<tag k="natural" v="water" />
		<tag k="ssr:stedsnr" v="791674" />
	</node>
	<node lat="59.28197809332102" lon="9.295843005250578" id="-23321">
		<tag k="name" v="Torsnes" />
		<tag k="natural" v="cape" />
		<tag k="ssr:stedsnr" v="791689" />
	</node>
	<node lat="59.310288888660814" lon="9.271375004608405" id="-23322">
		<tag k="alt_name" v="Kammerherrebåsen" />
		<tag k="name" v="Båsen" />
		<tag k="natural" v="bay" />
		<tag k="ssr:stedsnr" v="791757" />
	</node>
	<node lat="59.3117027819038" lon="9.271738882984344" id="-23323">
		<tag k="alt_name" v="Langodden" />
		<tag k="name" v="Langodde" />
		<tag k="natural" v="cape" />
		<tag k="ssr:stedsnr" v="791759" />
	</node>
	<node lat="59.299236112623184" lon="8.981172223910423" id="-23325">
		<tag k="name" v="Småtjønnane" />
		<tag k="natural" v="water" />
		<tag k="ssr:stedsnr" v="813001" />
	</node>
	<node lat="59.3426527752196" lon="9.00504166065787" id="-23328">
		<tag k="name" v="Svarttjønn" />
		<tag k="natural" v="water" />
		<tag k="ssr:stedsnr" v="813365" />
	</node>
	<node lat="59.28628610961246" lon="8.999388886385104" id="-23331">
		<tag k="name" v="Igletjønnbekken" />
		<tag k="ssr:stedsnr" v="813066" />
		<tag k="waterway" v="stream" />
	</node>
	<node lat="59.35761110917834" lon="9.048797221278136" id="-23340">
		<tag k="name" v="Kjøltjønn" />
		<tag k="natural" v="water" />
		<tag k="ssr:stedsnr" v="813402" />
	</node>
	<node lat="59.374805552056145" lon="9.073999996533894" id="-23349">
		<tag k="name" v="Sagbekken" />
		<tag k="ssr:stedsnr" v="814611" />
		<tag k="waterway" v="stream" />
	</node>
	<node lat="59.215855553497306" lon="9.265941660074246" id="-23354">
		<tag k="name" v="Røybekk" />
		<tag k="ssr:stedsnr" v="815375" />
		<tag k="waterway" v="stream" />
	</node>
	<node lat="59.26466388741885" lon="8.985430549972488" id="-23357">
		<tag k="name" v="Linfjellbekken" />
		<tag k="ssr:stedsnr" v="815731" />
		<tag k="waterway" v="stream" />
	</node>
	<node lat="59.294133336368816" lon="9.22428611309284" id="-23358">
		<tag k="name" v="Eidselva" />
		<tag k="ssr:stedsnr" v="815740" />
		<tag k="waterway" v="river" />
	</node>
	<node lat="59.144830560054665" lon="9.170811104723278" id="-23361">
		<tag k="name" v="Venetjønn" />
		<tag k="natural" v="water" />
		<tag k="ssr:stedsnr" v="830647" />
	</node>
	<node lat="59.24879166775485" lon="9.11118333909064" id="-23365">
		<tag k="name" v="Smørbubekken" />
		<tag k="ssr:stedsnr" v="844569" />
		<tag k="waterway" v="stream" />
	</node>
	<node lat="59.234008332982754" lon="9.27898610637608" id="-23376">
		<tag k="name" v="Murefjelltjønnane" />
		<tag k="natural" v="water" />
		<tag k="ssr:stedsnr" v="844946" />
	</node>
	<node lat="59.22801944092153" lon="9.237858331099105" id="-23378">
		<tag k="name" v="Tørkenholm" />
		<tag k="place" v="islet" />
		<tag k="ssr:stedsnr" v="844966" />
	</node>
	<node lat="59.23684721963555" lon="9.313311117440351" id="-23381">
		<tag k="name" v="Bærevann" />
		<tag k="natural" v="water" />
		<tag k="ssr:stedsnr" v="851052" />
	</node>
	<node lat="59.152663889546" lon="9.203863890827556" id="-23383">
		<tag k="alt_name" v="Kroktjønn" />
		<tag k="name" v="Kroktjern" />
		<tag k="natural" v="water" />
		<tag k="ssr:stedsnr" v="851250" />
	</node>
	<node lat="59.36862499925969" lon="9.094886109144438" id="-23386">
		<tag k="name" v="Deilsbekken" />
		<tag k="ssr:stedsnr" v="852297" />
		<tag k="waterway" v="stream" />
	</node>
	<node lat="59.28793888679867" lon="9.263144436117088" id="-23396">
		<tag k="name" v="Strømodden" />
		<tag k="natural" v="cape" />
		<tag k="ssr:stedsnr" v="852682" />
	</node>
	<node lat="59.272274997284995" lon="9.016044451378278" id="-23403">
		<tag k="name" v="Eivindstulelva" />
		<tag k="ssr:stedsnr" v="873144" />
		<tag k="waterway" v="river" />
	</node>
	<node lat="59.28208611449874" lon="9.049219442296236" id="-23404">
		<tag k="name" v="Nedre Trytetjønn" />
		<tag k="natural" v="water" />
		<tag k="ssr:stedsnr" v="873230" />
	</node>
	<node lat="59.31254999600459" lon="8.924774995212163" id="-23415">
		<tag k="name" v="Tullodden" />
		<tag k="natural" v="cape" />
		<tag k="ssr:stedsnr" v="874301" />
	</node>
	<node lat="59.352997223156805" lon="9.043466661588102" id="-23418">
		<tag k="name" v="Gryteåa" />
		<tag k="ssr:stedsnr" v="874373" />
		<tag k="waterway" v="river" />
	</node>
	<node lat="59.2228416636054" lon="9.338591670107991" id="-23441">
		<tag k="name" v="Lønntjenn" />
		<tag k="natural" v="water" />
		<tag k="ssr:stedsnr" v="935672" />
	</node>
	<node lat="59.247216665875634" lon="9.39719444142909" id="-23449">
		<tag k="name" v="Helgjevik" />
		<tag k="natural" v="bay" />
		<tag k="ssr:stedsnr" v="936277" />
	</node>
	<node lat="59.26338888489861" lon="9.287074995926478" id="-23450">
		<tag k="name" v="Håtveitbekken" />
		<tag k="ssr:stedsnr" v="937185" />
		<tag k="waterway" v="stream" />
	</node>
	<node lat="59.29236389327823" lon="9.262536119474053" id="-23455">
		<tag k="name" v="Kastebukta" />
		<tag k="natural" v="bay" />
		<tag k="ssr:stedsnr" v="938747" />
	</node>
	<node lat="59.16522499792186" lon="9.263158338844132" id="-23457">
		<tag k="alt_name" v="Lomtjønn" />
		<tag k="name" v="Lomtjenn" />
		<tag k="natural" v="water" />
		<tag k="ssr:stedsnr" v="939046" />
	</node>
	<node lat="59.151525000051265" lon="9.213697220074257" id="-23460">
		<tag k="name" v="Vinterstranda" />
		<tag k="natural" v="beach" />
		<tag k="ssr:stedsnr" v="951669" />
	</node>
	<node lat="59.281724997141566" lon="9.294561105895234" id="-23463">
		<tag k="name" v="Gruteknabb" />
		<tag k="natural" v="bay" />
		<tag k="ssr:stedsnr" v="951159" />
	</node>
	<node lat="59.223769448633035" lon="9.018427778269063" id="-23473">
		<tag k="name" v="Svarttjønn" />
		<tag k="natural" v="water" />
		<tag k="ssr:stedsnr" v="965256" />
=======
	<node id="-443191" lat="59.230811112" lon="9.31672223058">
		<tag k="name" v="Bærvannsbekken" />
		<tag k="ssr:stedsnr" v="934987" />
		<tag k="waterway" v="stream" />
	</node>
	<node id="-443180" lat="59.3117027819" lon="9.27173888298">
		<tag k="alt_name" v="Langodden" />
		<tag k="name" v="Langodde" />
		<tag k="natural" v="cape" />
		<tag k="ssr:stedsnr" v="791759" />
	</node>
	<node id="-443179" lat="59.3102888887" lon="9.27137500461">
		<tag k="alt_name" v="Kammerherrebåsen" />
		<tag k="name" v="Båsen" />
		<tag k="natural" v="bay" />
		<tag k="ssr:stedsnr" v="791757" />
	</node>
	<node id="-443174" lat="59.1526333348" lon="9.2784972288">
		<tag k="alt_name" v="Blanketjern" />
		<tag k="name" v="Blanktjenn" />
		<tag k="natural" v="water" />
		<tag k="ssr:stedsnr" v="790957" />
	</node>
	<node id="-443163" lat="59.2587222192" lon="9.23294721916">
		<tag k="name" v="Nukebekken" />
		<tag k="ssr:stedsnr" v="913608" />
		<tag k="waterway" v="stream" />
	</node>
	<node id="-443154" lat="59.3350694467" lon="9.15865833961">
		<tag k="alt_name" v="Kroktjørn" />
		<tag k="name" v="Kroktjønn" />
		<tag k="natural" v="water" />
		<tag k="ssr:stedsnr" v="913215" />
	</node>
	<node id="-443149" lat="59.1446222254" lon="9.22759721779">
		<tag k="name" v="Svarthøl" />
		<tag k="natural" v="water" />
		<tag k="ssr:stedsnr" v="912951" />
	</node>
	<node id="-443144" lat="59.2227611143" lon="9.09671111425">
		<tag k="name" v="Paddetjørn" />
		<tag k="natural" v="water" />
		<tag k="ssr:stedsnr" v="912443" />
	</node>
	<node id="-443143" lat="59.2430790077" lon="9.06395941403">
		<tag k="name" v="Katthol" />
		<tag k="natural" v="water" />
		<tag k="ssr:stedsnr" v="912423" />
	</node>
	<node id="-443136" lat="59.2722361126" lon="8.84399444142">
		<tag k="alt_name" v="Furuvatn, nedre" />
		<tag k="name" v="Nedre Furuvatn" />
		<tag k="natural" v="water" />
		<tag k="ssr:stedsnr" v="912130" />
		<tag k="water" v="lake" />
	</node>
	<node id="-443133" lat="59.2595777749" lon="8.98033888384">
		<tag k="alt_name" v="Linfjelltjørn" />
		<tag k="name" v="Linfjelltjønn" />
		<tag k="natural" v="water" />
		<tag k="ssr:stedsnr" v="912105" />
	</node>
	<node id="-443131" lat="59.2363000035" lon="9.29848333754">
		<tag k="alt_name" v="Skiftestjern, nedre" />
		<tag k="name" v="Skiftetjønnane" />
		<tag k="natural" v="water" />
		<tag k="old_name" v="Skiftsetjerna, nedre" />
		<tag k="ssr:stedsnr" v="912046" />
	</node>
	<node id="-443107" lat="59.253680552" lon="9.13263611005">
		<tag k="name" v="Snikodden" />
		<tag k="natural" v="cape" />
		<tag k="ssr:stedsnr" v="905632" />
	</node>
	<node id="-443097" lat="59.2898388921" lon="8.86883888911">
		<tag k="name" v="Ervingsdalselva" />
		<tag k="ssr:stedsnr" v="731128" />
		<tag k="waterway" v="river" />
	</node>
	<node id="-443096" lat="59.2887055583" lon="9.09208054761">
		<tag k="name" v="Skoeelva" />
		<tag k="ssr:stedsnr" v="731111" />
		<tag k="waterway" v="stream" />
	</node>
	<node id="-443094" lat="59.2823805596" lon="8.82530278167">
		<tag k="alt_name" v="Igletjørn" />
		<tag k="name" v="Igletjønn" />
		<tag k="natural" v="water" />
		<tag k="ssr:stedsnr" v="730772" />
	</node>
	<node id="-443090" lat="59.22881929" lon="9.13039500514">
		<tag k="alt_name" v="Lintjønn" />
		<tag k="name" v="Lintjørn" />
		<tag k="natural" v="water" />
		<tag k="ssr:stedsnr" v="730441" />
	</node>
	<node id="-443089" lat="59.2156555522" lon="9.09735833617">
		<tag k="alt_name" v="Svanetjørn" />
		<tag k="name" v="Svanetjønn" />
		<tag k="natural" v="water" />
		<tag k="ssr:stedsnr" v="730423" />
	</node>
	<node id="-443087" lat="59.2409499971" lon="9.09834166538">
		<tag k="alt_name" v="Skardetjønn" />
		<tag k="name" v="Skardtjørna" />
		<tag k="natural" v="water" />
		<tag k="ssr:stedsnr" v="730413" />
	</node>
	<node id="-443085" lat="59.3186361123" lon="8.89473054972">
		<tag k="alt_name" v="Kvernåa" />
		<tag k="name" v="Kvennåa" />
		<tag k="ssr:stedsnr" v="730205" />
		<tag k="waterway" v="stream" />
	</node>
	<node id="-443084" lat="59.2673638877" lon="9.10774166779">
		<tag k="alt_name" v="Hauglandstjønna" />
		<tag k="name" v="Hauglandstjørna" />
		<tag k="natural" v="water" />
		<tag k="ssr:stedsnr" v="730075" />
	</node>
	<node id="-443080" lat="59.164975002" lon="9.20316388976">
		<tag k="name" v="Prestvatnsbekken" />
		<tag k="ssr:stedsnr" v="723811" />
		<tag k="waterway" v="stream" />
	</node>
	<node id="-443078" lat="59.174455556" lon="9.21348055436">
		<tag k="name" v="Småtjønnane" />
		<tag k="natural" v="water" />
		<tag k="ssr:stedsnr" v="723807" />
	</node>
	<node id="-443070" lat="59.3486722218" lon="9.0845777735">
		<tag k="name" v="Noremstjønnane" />
		<tag k="natural" v="water" />
		<tag k="ssr:stedsnr" v="897130" />
		<tag k="water" v="lake" />
	</node>
	<node id="-443053" lat="59.1457388879" lon="9.18108888711">
		<tag k="alt_name" v="Blanktjern" />
		<tag k="name" v="Blomtjønn" />
		<tag k="natural" v="water" />
		<tag k="ssr:stedsnr" v="890678" />
	</node>
	<node id="-443052" lat="59.2665638866" lon="9.13269167191">
		<tag k="name" v="Bennyøy" />
		<tag k="place" v="islet" />
		<tag k="ssr:stedsnr" v="890640" />
	</node>
	<node id="-443049" lat="59.2442499964" lon="9.15388056212">
		<tag k="name" v="Kjerkebekken" />
		<tag k="ssr:stedsnr" v="890292" />
		<tag k="waterway" v="stream" />
	</node>
	<node id="-443045" lat="59.2421277783" lon="9.12481667045">
		<tag k="name" v="Fiskodde" />
		<tag k="natural" v="cape" />
		<tag k="ssr:stedsnr" v="890283" />
	</node>
	<node id="-443039" lat="59.2791416647" lon="9.31071944015">
		<tag k="name" v="Lysnesodden" />
		<tag k="natural" v="cape" />
		<tag k="ssr:stedsnr" v="890131" />
	</node>
	<node id="-443038" lat="59.3175972265" lon="9.25761388732">
		<tag k="name" v="Brattebergbukta" />
		<tag k="natural" v="bay" />
		<tag k="ssr:stedsnr" v="694707" />
	</node>
	<node id="-443030" lat="59.2179916665" lon="9.16701388201">
		<tag k="alt_name" v="Bjorvik" />
		<tag k="name" v="Bjorvika" />
		<tag k="natural" v="bay" />
		<tag k="ssr:stedsnr" v="669423" />
	</node>
	<node id="-443029" lat="59.245222221" lon="9.11998889321">
		<tag k="name" v="Heimdalsvatnet" />
		<tag k="natural" v="water" />
		<tag k="ssr:stedsnr" v="669410" />
		<tag k="water" v="lake" />
	</node>
	<node id="-443026" lat="59.150816671" lon="9.23704722032">
		<tag k="name" v="Taraldstjønn" />
		<tag k="natural" v="water" />
		<tag k="ssr:stedsnr" v="663660" />
	</node>
	<node id="-443023" lat="59.2797249977" lon="9.24229999132">
		<tag k="name" v="Heisholtevja" />
		<tag k="natural" v="water" />
		<tag k="ssr:stedsnr" v="663120" />
		<tag k="water" v="lake" />
	</node>
	<node id="-443008" lat="59.1467972212" lon="9.22139444886">
		<tag k="name" v="Bøvatnsdammen" />
		<tag k="ssr:stedsnr" v="647672" />
		<tag k="waterway" v="dam" />
	</node>
	<node id="-443006" lat="59.146525004" lon="9.20911944326">
		<tag k="name" v="Forkletjønn" />
		<tag k="natural" v="water" />
		<tag k="ssr:stedsnr" v="647666" />
	</node>
	<node id="-443005" lat="59.2050611089" lon="9.23282500442">
		<tag k="name" v="Lille Ormtjønn" />
		<tag k="natural" v="water" />
		<tag k="ssr:stedsnr" v="647922" />
	</node>
	<node id="-443003" lat="59.2206027782" lon="9.27018056408">
		<tag k="name" v="Stavøy" />
		<tag k="place" v="islet" />
		<tag k="ssr:stedsnr" v="647906" />
	</node>
	<node id="-442996" lat="59.3263777752" lon="8.87621943851">
		<tag k="alt_name" v="Damtjørn" />
		<tag k="name" v="Damtjønn" />
		<tag k="natural" v="water" />
		<tag k="ssr:stedsnr" v="731175" />
	</node>
	<node id="-442995" lat="59.315744442" lon="9.26230833509">
		<tag k="alt_name" v="Bukkøya" />
		<tag k="name" v="Sandnesøya" />
		<tag k="place" v="island" />
		<tag k="ssr:stedsnr" v="730795" />
	</node>
	<node id="-442993" lat="59.3579638899" lon="8.95633333818">
		<tag k="alt_name" v="Grøntjørn" />
		<tag k="name" v="Grøntjønn" />
		<tag k="natural" v="water" />
		<tag k="ssr:stedsnr" v="730303" />
	</node>
	<node id="-442976" lat="59.2416972218" lon="9.35041667084">
		<tag k="name" v="Harpetjønn" />
		<tag k="natural" v="water" />
		<tag k="ssr:stedsnr" v="632461" />
	</node>
	<node id="-442971" lat="59.2931583321" lon="8.91190555285">
		<tag k="name" v="Vesle Jungetjønn" />
		<tag k="natural" v="water" />
		<tag k="ssr:stedsnr" v="631259" />
		<tag k="water" v="pond" />
	</node>
	<node id="-442964" lat="59.2296722266" lon="9.28204167229">
		<tag k="name" v="Dammannstjønn" />
		<tag k="natural" v="water" />
		<tag k="ssr:stedsnr" v="630979" />
	</node>
	<node id="-442961" lat="59.3471805575" lon="8.95685556119">
		<tag k="name" v="Limtjønnbærnuta" />
		<tag k="natural" v="water" />
		<tag k="ssr:stedsnr" v="630119" />
		<tag k="water" v="pond" />
	</node>
	<node id="-442956" lat="59.1946583294" lon="9.27682778098">
		<tag k="name" v="Grunntjønn" />
		<tag k="natural" v="water" />
		<tag k="ssr:stedsnr" v="723788" />
	</node>
	<node id="-442953" lat="59.1835222218" lon="9.22029444885">
		<tag k="name" v="Lilleøya" />
		<tag k="place" v="islet" />
		<tag k="ssr:stedsnr" v="723683" />
	</node>
	<node id="-442952" lat="59.1837777779" lon="9.18653610378">
		<tag k="name" v="Blankvatn" />
		<tag k="natural" v="water" />
		<tag k="ssr:stedsnr" v="723680" />
		<tag k="water" v="lake" />
	</node>
	<node id="-442951" lat="59.2038361138" lon="9.21951111451">
		<tag k="name" v="Ormetjønnbekken" />
		<tag k="ssr:stedsnr" v="723673" />
		<tag k="waterway" v="stream" />
	</node>
	<node id="-442940" lat="59.3000972205" lon="8.94850554953">
		<tag k="alt_name" v="Teigselva" />
		<tag k="name" v="Teigeelva" />
		<tag k="ssr:stedsnr" v="609161" />
		<tag k="waterway" v="stream" />
	</node>
	<node id="-442939" lat="59.3309111094" lon="8.95143610567">
		<tag k="alt_name" v="Flåmelva" />
		<tag k="name" v="Flomelva" />
		<tag k="ssr:stedsnr" v="609222" />
		<tag k="waterway" v="stream" />
	</node>
	<node id="-442937" lat="59.2280696248" lon="9.23955596687">
		<tag k="name" v="Venomvann" />
		<tag k="natural" v="water" />
		<tag k="ssr:stedsnr" v="608954" />
	</node>
	<node id="-442931" lat="59.3489833296" lon="8.97265555996">
		<tag k="alt_name" v="Svartetjørn" />
		<tag k="name" v="Svartetjønn" />
		<tag k="natural" v="water" />
		<tag k="ssr:stedsnr" v="608248" />
	</node>
	<node id="-442928" lat="59.1636916668" lon="9.19907500762">
		<tag k="name" v="Bøvatn" />
		<tag k="natural" v="water" />
		<tag k="ssr:stedsnr" v="601825" />
		<tag k="water" v="lake" />
	</node>
	<node id="-442924" lat="59.2551055547" lon="9.13461388047">
		<tag k="name" v="Lauvåsdammen" />
		<tag k="ssr:stedsnr" v="601585" />
		<tag k="waterway" v="dam" />
	</node>
	<node id="-442916" lat="59.3441694442" lon="9.09170555572">
		<tag k="name" v="Noremstjønna" />
		<tag k="natural" v="water" />
		<tag k="ssr:stedsnr" v="715123" />
		<tag k="water" v="lake" />
	</node>
	<node id="-442910" lat="59.2232861149" lon="9.25968610971">
		<tag k="name" v="Storøya" />
		<tag k="place" v="island" />
		<tag k="ssr:stedsnr" v="586874" />
	</node>
	<node id="-442904" lat="59.2232027801" lon="9.26942222092">
		<tag k="name" v="Grønnøya" />
		<tag k="place" v="islet" />
		<tag k="ssr:stedsnr" v="708879" />
	</node>
	<node id="-442901" lat="59.3039388889" lon="9.10952778028">
		<tag k="name" v="Ajertangen" />
		<tag k="natural" v="cape" />
		<tag k="ssr:stedsnr" v="708726" />
	</node>
	<node id="-442895" lat="59.2292027775" lon="9.13669444081">
		<tag k="name" v="Moellbukta" />
		<tag k="natural" v="bay" />
		<tag k="ssr:stedsnr" v="708293" />
	</node>
	<node id="-442892" lat="59.2821722216" lon="9.29994167348">
		<tag k="name" v="Torsnesodden" />
		<tag k="natural" v="cape" />
		<tag k="ssr:stedsnr" v="708174" />
	</node>
	<node id="-442876" lat="59.3482777761" lon="8.94805000641">
		<tag k="name" v="Stavattjønn" />
		<tag k="natural" v="water" />
		<tag k="ssr:stedsnr" v="570085" />
	</node>
	<node id="-442874" lat="59.2719888914" lon="8.95095555029">
		<tag k="name" v="Presttjønn" />
		<tag k="natural" v="water" />
		<tag k="ssr:stedsnr" v="570076" />
	</node>
	<node id="-442857" lat="59.256949996" lon="9.1357944394">
		<tag k="name" v="Lauvåa" />
		<tag k="ssr:stedsnr" v="541622" />
		<tag k="waterway" v="river" />
	</node>
	<node id="-442844" lat="59.3589944448" lon="8.967005551">
		<tag k="name" v="Nedre Rugbøletjønn" />
		<tag k="natural" v="water" />
		<tag k="ssr:stedsnr" v="692191" />
	</node>
	<node id="-442838" lat="59.3477416653" lon="8.96623611739">
		<tag k="name" v="Svarteputt" />
		<tag k="natural" v="water" />
		<tag k="ssr:stedsnr" v="692093" />
		<tag k="water" v="pond" />
	</node>
	<node id="-442833" lat="59.3206888846" lon="8.98521943671">
		<tag k="name" v="Flomevja" />
		<tag k="natural" v="bay" />
		<tag k="ssr:stedsnr" v="692031" />
	</node>
	<node id="-442825" lat="59.2411944485" lon="9.39800000661">
		<tag k="name" v="Fantodde" />
		<tag k="natural" v="cape" />
		<tag k="ssr:stedsnr" v="510272" />
	</node>
	<node id="-442822" lat="59.238999997" lon="9.32752777568">
		<tag k="name" v="Diplane" />
		<tag k="natural" v="water" />
		<tag k="ssr:stedsnr" v="509863" />
		<tag k="water" v="pond" />
	</node>
	<node id="-442820" lat="59.313538886" lon="8.94584722988">
		<tag k="name" v="Buktaodden" />
		<tag k="natural" v="cape" />
		<tag k="ssr:stedsnr" v="509293" />
	</node>
	<node id="-442818" lat="59.272597223" lon="8.91702778359">
		<tag k="name" v="Grisbekktjønnane" />
		<tag k="natural" v="water" />
		<tag k="ssr:stedsnr" v="509283" />
	</node>
	<node id="-442813" lat="59.2134805578" lon="9.08729722698">
		<tag k="alt_name" v="Klingretjønn" />
		<tag k="name" v="Klingretjørn" />
		<tag k="natural" v="water" />
		<tag k="ssr:stedsnr" v="487438" />
	</node>
	<node id="-442811" lat="59.2760638858" lon="8.97162500033">
		<tag k="alt_name" v="Vårbutjørna, nedre" />
		<tag k="name" v="Nedre Vårbutjønn" />
		<tag k="natural" v="water" />
		<tag k="ssr:stedsnr" v="487122" />
	</node>
	<node id="-442807" lat="59.1756666625" lon="9.18753611212">
		<tag k="name" v="Vitnesjø" />
		<tag k="natural" v="water" />
		<tag k="ssr:stedsnr" v="480854" />
		<tag k="water" v="lake" />
	</node>
	<node id="-442794" lat="59.2404722229" lon="9.0462444397">
		<tag k="name" v="Vestbekken" />
		<tag k="ssr:stedsnr" v="480116" />
		<tag k="waterway" v="stream" />
	</node>
	<node id="-442790" lat="59.2645222203" lon="9.23650833274">
		<tag k="alt_name" v="Tvaratjenn" />
		<tag k="name" v="Tvaratjørn" />
		<tag k="natural" v="water" />
		<tag k="ssr:stedsnr" v="670622" />
	</node>
	<node id="-442438" lat="59.2076833357" lon="9.09184444442">
		<tag k="name" v="Langoddtjønn" />
		<tag k="natural" v="water" />
		<tag k="ssr:stedsnr" v="298312" />
	</node>
	<node id="-442784" lat="59.307480554" lon="9.16580833085">
		<tag k="name" v="Tveitanevja" />
		<tag k="place" v="locality" />
		<tag k="ssr:stedsnr" v="670173" />
	</node>
	<node id="-442437" lat="59.2271194453" lon="9.03659999519">
		<tag k="name" v="Sverdaltjønn" />
		<tag k="natural" v="water" />
		<tag k="ssr:stedsnr" v="298217" />
	</node>
	<node id="-442773" lat="59.274044443" lon="8.83831665961">
		<tag k="name" v="Furuvatnet, nordre" />
		<tag k="natural" v="water" />
		<tag k="ssr:stedsnr" v="669539" />
	</node>
	<node id="-442758" lat="59.2654583291" lon="8.94553332881">
		<tag k="name" v="Steinbutjørna" />
		<tag k="natural" v="water" />
		<tag k="ssr:stedsnr" v="669089" />
	</node>
	<node id="-442757" lat="59.2512222266" lon="9.00933055667">
		<tag k="alt_name" v="Hestefjelltjørna" />
		<tag k="name" v="Hestefjelltjønn" />
		<tag k="natural" v="water" />
		<tag k="ssr:stedsnr" v="669076" />
	</node>
	<node id="-442756" lat="59.1852638845" lon="9.2720111163">
		<tag k="alt_name" v="Trolldalstjønn" />
		<tag k="name" v="Trolldalstjern" />
		<tag k="natural" v="water" />
		<tag k="ssr:stedsnr" v="668997" />
	</node>
	<node id="-442755" lat="59.2421749982" lon="9.23414721817">
		<tag k="alt_name" v="Hollatjønn" />
		<tag k="name" v="Hollatjørn" />
		<tag k="natural" v="water" />
		<tag k="ssr:stedsnr" v="668041" />
	</node>
	<node id="-442747" lat="59.2811861105" lon="9.29831944453">
		<tag k="name" v="Lillesand" />
		<tag k="natural" v="bay" />
		<tag k="ssr:stedsnr" v="465122" />
	</node>
	<node id="-442743" lat="59.3443611109" lon="8.94999722639">
		<tag k="alt_name" v="Høytjørn" />
		<tag k="name" v="Høytjønn" />
		<tag k="natural" v="water" />
		<tag k="ssr:stedsnr" v="670260" />
	</node>
	<node id="-442742" lat="59.3574611131" lon="9.07246389001">
		<tag k="name" v="Noremstjønna" />
		<tag k="natural" v="water" />
		<tag k="ssr:stedsnr" v="670239" />
		<tag k="water" v="lake" />
	</node>
	<node id="-442730" lat="59.251183332" lon="9.13144444998">
		<tag k="name" v="Halvorståøy" />
		<tag k="place" v="islet" />
		<tag k="ssr:stedsnr" v="662617" />
	</node>
	<node id="-442721" lat="59.2361388879" lon="9.10245278358">
		<tag k="name" v="Springskott" />
		<tag k="ssr:stedsnr" v="662181" />
		<tag k="waterway" v="dam" />
	</node>
	<node id="-442715" lat="59.2461916687" lon="9.29070833905">
		<tag k="name" v="Igletjønnane" />
		<tag k="natural" v="water" />
		<tag k="ssr:stedsnr" v="450927" />
	</node>
	<node id="-442714" lat="59.3582833314" lon="9.06479165954">
		<tag k="name" v="Gryteåa" />
		<tag k="ssr:stedsnr" v="450610" />
		<tag k="waterway" v="stream" />
	</node>
	<node id="-442713" lat="59.357263893" lon="8.96240555474">
		<tag k="name" v="Øvre Rugbøletjønn" />
		<tag k="natural" v="water" />
		<tag k="ssr:stedsnr" v="450211" />
	</node>
	<node id="-442702" lat="59.3573999957" lon="8.99051943801">
		<tag k="alt_name" v="Sandtjørn" />
		<tag k="name" v="Sandtjønn" />
		<tag k="natural" v="water" />
		<tag k="ssr:stedsnr" v="427338" />
	</node>
	<node id="-442699" lat="59.2725472229" lon="9.06523056066">
		<tag k="alt_name" v="Nekatjørna" />
		<tag k="name" v="Nekatjønn" />
		<tag k="natural" v="water" />
		<tag k="ssr:stedsnr" v="427111" />
	</node>
	<node id="-442698" lat="59.2236388886" lon="9.01864444138">
		<tag k="name" v="Svarttjørna" />
		<tag k="natural" v="water" />
		<tag k="ssr:stedsnr" v="426405" />
	</node>
	<node id="-442422" lat="59.2994694449" lon="9.16558054682">
		<tag k="name" v="Steinfoss" />
		<tag k="ssr:stedsnr" v="284774" />
		<tag k="waterway" v="rapids" />
	</node>
	<node id="-442689" lat="59.2241305554" lon="9.10148333766">
		<tag k="name" v="Bukkehølen" />
		<tag k="place" v="locality" />
		<tag k="ssr:stedsnr" v="420316" />
	</node>
	<node id="-442683" lat="59.3166611101" lon="9.18788889324">
		<tag k="name" v="Gåserudbekken" />
		<tag k="ssr:stedsnr" v="512590" />
		<tag k="waterway" v="stream" />
	</node>
	<node id="-442682" lat="59.244394446" lon="9.28976667423">
		<tag k="name" v="Kukleivtjønn" />
		<tag k="natural" v="water" />
		<tag k="ssr:stedsnr" v="511911" />
	</node>
	<node id="-442670" lat="59.2216111092" lon="9.31622777449">
		<tag k="name" v="Tjønnestultjønna" />
		<tag k="natural" v="bay" />
		<tag k="ssr:stedsnr" v="510867" />
	</node>
	<node id="-442668" lat="59.2881166697" lon="8.84373054948">
		<tag k="name" v="Furuvasselva" />
		<tag k="ssr:stedsnr" v="510447" />
		<tag k="waterway" v="river" />
	</node>
	<node id="-442663" lat="59.2622694426" lon="9.37857777084">
		<tag k="name" v="Nordståstranda" />
		<tag k="natural" v="beach" />
		<tag k="ssr:stedsnr" v="510234" />
	</node>
	<node id="-442662" lat="59.3443611106" lon="8.89643610711">
		<tag k="name" v="Stroktjønnputt" />
		<tag k="natural" v="water" />
		<tag k="ssr:stedsnr" v="510223" />
		<tag k="water" v="pond" />
	</node>
	<node id="-442659" lat="59.2790388919" lon="8.96898056183">
		<tag k="name" v="Vårbubekken" />
		<tag k="ssr:stedsnr" v="510077" />
		<tag k="waterway" v="stream" />
	</node>
	<node id="-442647" lat="59.2858527788" lon="9.27898333475">
		<tag k="name" v="Norsjø" />
		<tag k="natural" v="water" />
		<tag k="ssr:stedsnr" v="299096" />
		<tag k="water" v="lake" />
	</node>
	<node id="-442642" lat="59.1532249983" lon="9.21679444909">
		<tag k="name" v="Bøvann" />
		<tag k="natural" v="water" />
		<tag k="ssr:stedsnr" v="506755" />
		<tag k="water" v="lake" />
	</node>
	<node id="-442634" lat="59.2678464273" lon="8.89140701246">
		<tag k="name" v="Solomtjønnane" />
		<tag k="natural" v="water" />
		<tag k="ssr:stedsnr" v="389524" />
	</node>
	<node id="-442633" lat="59.2655222234" lon="8.94514722">
		<tag k="name" v="Steinbutjønn" />
		<tag k="natural" v="water" />
		<tag k="ssr:stedsnr" v="389519" />
	</node>
	<node id="-442626" lat="59.2883444467" lon="8.87956388425">
		<tag k="name" v="Kjøya" />
		<tag k="natural" v="water" />
		<tag k="ssr:stedsnr" v="388413" />
		<tag k="water" v="pond" />
	</node>
	<node id="-442622" lat="59.2900305516" lon="8.90833055995">
		<tag k="name" v="Jungtjønn" />
		<tag k="natural" v="water" />
		<tag k="ssr:stedsnr" v="388207" />
	</node>
	<node id="-442619" lat="59.3042138868" lon="8.99340832621">
		<tag k="name" v="Gangetjønn" />
		<tag k="natural" v="water" />
		<tag k="ssr:stedsnr" v="388005" />
	</node>
	<node id="-442618" lat="59.2891444426" lon="9.02319444174">
		<tag k="name" v="Løken" />
		<tag k="natural" v="water" />
		<tag k="ssr:stedsnr" v="387221" />
		<tag k="water" v="lake" />
	</node>
	<node id="-442617" lat="59.3754250013" lon="9.08456666492">
		<tag k="name" v="Fiskebekken" />
		<tag k="ssr:stedsnr" v="366294" />
		<tag k="waterway" v="stream" />
	</node>
	<node id="-442615" lat="59.3504666644" lon="8.98461111278">
		<tag k="alt_name" v="Langetjørn" />
		<tag k="name" v="Langetjønn" />
		<tag k="natural" v="water" />
		<tag k="ssr:stedsnr" v="366259" />
		<tag k="water" v="lake" />
	</node>
	<node id="-442614" lat="59.3465166688" lon="8.99653611519">
		<tag k="name" v="Langåa" />
		<tag k="ssr:stedsnr" v="366257" />
		<tag k="waterway" v="stream" />
	</node>
	<node id="-442613" lat="59.22770833" lon="9.23699445177">
		<tag k="name" v="Kupinn" />
		<tag k="place" v="islet" />
		<tag k="ssr:stedsnr" v="359959" />
	</node>
	<node id="-442612" lat="59.2902277788" lon="9.1754444387">
		<tag k="name" v="Nomevatn" />
		<tag k="natural" v="water" />
		<tag k="ssr:stedsnr" v="359908" />
		<tag k="water" v="lake" />
	</node>
	<node id="-442609" lat="59.1919583289" lon="9.27908333961">
		<tag k="name" v="Svarttjønn" />
		<tag k="natural" v="water" />
		<tag k="ssr:stedsnr" v="358808" />
	</node>
	<node id="-442608" lat="59.2593444445" lon="9.23579723081">
		<tag k="name" v="Nukebekken" />
		<tag k="ssr:stedsnr" v="358105" />
		<tag k="waterway" v="stream" />
	</node>
	<node id="-442607" lat="59.3144083332" lon="9.23338610975">
		<tag k="alt_name" v="Svarttjern" />
		<tag k="name" v="Svarttjønn" />
		<tag k="natural" v="water" />
		<tag k="ssr:stedsnr" v="488768" />
	</node>
	<node id="-442599" lat="59.3093027754" lon="9.21822221487">
		<tag k="name" v="Kåsatjørn" />
		<tag k="natural" v="water" />
		<tag k="ssr:stedsnr" v="487801" />
	</node>
	<node id="-442592" lat="59.3669277807" lon="9.06846388216">
		<tag k="alt_name" v="Børtetjørna" />
		<tag k="name" v="Børtetjønna" />
		<tag k="natural" v="water" />
		<tag k="ssr:stedsnr" v="487330" />
	</node>
	<node id="-442587" lat="59.338313886" lon="8.96749721916">
		<tag k="alt_name" v="Flåmtjørn" />
		<tag k="name" v="Flomtjønn" />
		<tag k="natural" v="water" />
		<tag k="old_name" v="Flomtjonn" />
		<tag k="ssr:stedsnr" v="487280" />
	</node>
	<node id="-442586" lat="59.3429638873" lon="8.92019444193">
		<tag k="alt_name" v="Igletjørn" />
		<tag k="name" v="Igletjønn" />
		<tag k="natural" v="water" />
		<tag k="ssr:stedsnr" v="487273" />
	</node>
	<node id="-442580" lat="59.3039472244" lon="8.97337222428">
		<tag k="alt_name" v="Lomtjørn" />
		<tag k="name" v="Lomtjønn" />
		<tag k="natural" v="water" />
		<tag k="ssr:stedsnr" v="487181" />
		<tag k="water" v="lake" />
	</node>
	<node id="-442403" lat="59.2747055549" lon="9.33477221541">
		<tag k="name" v="Febakkebekken" />
		<tag k="ssr:stedsnr" v="283106" />
		<tag k="waterway" v="stream" />
	</node>
	<node id="-442576" lat="59.2632361089" lon="8.9351722175">
		<tag k="alt_name" v="Vardetjørn" />
		<tag k="name" v="Vardetjønn" />
		<tag k="natural" v="water" />
		<tag k="ssr:stedsnr" v="487097" />
	</node>
	<node id="-442573" lat="59.2545500012" lon="9.10848888052">
		<tag k="alt_name" v="Svarttjønn" />
		<tag k="name" v="Svarttjørn" />
		<tag k="natural" v="water" />
		<tag k="ssr:stedsnr" v="487078" />
	</node>
	<node id="-442572" lat="59.2515694416" lon="9.21043889726">
		<tag k="alt_name" v="Igletjønn" />
		<tag k="name" v="Igletjørn" />
		<tag k="natural" v="water" />
		<tag k="ssr:stedsnr" v="487058" />
	</node>
	<node id="-442571" lat="59.2512786205" lon="9.05277863362">
		<tag k="alt_name" v="Gångevatnet" />
		<tag k="name" v="Gongevatn" />
		<tag k="natural" v="water" />
		<tag k="ssr:stedsnr" v="486424" />
		<tag k="water" v="lake" />
	</node>
	<node id="-442565" lat="59.2026805577" lon="9.19156389201">
		<tag k="name" v="Askebekk" />
		<tag k="ssr:stedsnr" v="480837" />
		<tag k="waterway" v="stream" />
	</node>
	<node id="-442541" lat="59.343127776" lon="8.96002221754">
		<tag k="name" v="Flomtjønnbærnuta" />
		<tag k="natural" v="water" />
		<tag k="ssr:stedsnr" v="327107" />
	</node>
	<node id="-444588" lat="59.3786249961" lon="9.12335278394">
		<tag k="alt_name" v="Ljosvatn" />
		<tag k="name" v="Store Ljosvatn" />
		<tag k="natural" v="water" />
		<tag k="old_name" v="Ljostjørna, store;Store Ljostjørna" />
		<tag k="ssr:stedsnr" v="427365" />
	</node>
	<node id="-444587" lat="59.2225283004" lon="9.02197516184">
		<tag k="alt_name" v="Svarttjønnbekken" />
		<tag k="name" v="Svarttjernbekken" />
		<tag k="ssr:stedsnr" v="305429" />
		<tag k="waterway" v="stream" />
	</node>
	<node id="-444585" lat="59.2994439597" lon="9.20567329319">
		<tag k="name" v="Eiebekken" />
		<tag k="ssr:stedsnr" v="1076138" />
		<tag k="waterway" v="stream" />
	</node>
	<node id="-442530" lat="59.1614194405" lon="9.19613611343">
		<tag k="name" v="Grunnvatnselva" />
		<tag k="ssr:stedsnr" v="465658" />
		<tag k="waterway" v="river" />
	</node>
	<node id="-442395" lat="59.2917222178" lon="9.1791083275">
		<tag k="name" v="Nomestrand" />
		<tag k="natural" v="beach" />
		<tag k="ssr:stedsnr" v="148733" />
	</node>
	<node id="-442524" lat="59.2622749982" lon="9.32914722605">
		<tag k="name" v="Jøntvedtbekken" />
		<tag k="ssr:stedsnr" v="269253" />
		<tag k="waterway" v="stream" />
	</node>
	<node id="-442505" lat="59.2294833324" lon="9.32791388086">
		<tag k="name" v="Buratjønn" />
		<tag k="natural" v="water" />
		<tag k="ssr:stedsnr" v="450760" />
		<tag k="water" v="pond" />
	</node>
	<node id="-444547" lat="59.2890777813" lon="9.13449722461">
		<tag k="name" v="Øygardsbekken" />
		<tag k="ssr:stedsnr" v="965437" />
		<tag k="waterway" v="stream" />
	</node>
	<node id="-444545" lat="59.2714416652" lon="9.10450833681">
		<tag k="name" v="Hauglandtjønna" />
		<tag k="natural" v="water" />
		<tag k="ssr:stedsnr" v="965401" />
	</node>
	<node id="-442491" lat="59.3558055525" lon="9.11142777121">
		<tag k="name" v="Tverrbekken" />
		<tag k="ssr:stedsnr" v="449652" />
		<tag k="waterway" v="stream" />
	</node>
	<node id="-442489" lat="59.3444472216" lon="9.03722223019">
		<tag k="name" v="Stordalstjønnbekken" />
		<tag k="ssr:stedsnr" v="449380" />
		<tag k="waterway" v="stream" />
	</node>
	<node id="-442388" lat="59.2476972246" lon="9.38348610303">
		<tag k="name" v="Husfossen" />
		<tag k="natural" v="waterfall" />
		<tag k="ssr:stedsnr" v="146263" />
	</node>
	<node id="-444532" lat="59.2576777786" lon="9.1243611094">
		<tag k="name" v="Røsstjønn" />
		<tag k="natural" v="water" />
		<tag k="ssr:stedsnr" v="951643" />
	</node>
	<node id="-444531" lat="59.263161107" lon="9.11673055165">
		<tag k="name" v="Sautjønn" />
		<tag k="natural" v="water" />
		<tag k="ssr:stedsnr" v="951637" />
	</node>
	<node id="-442482" lat="59.2815472218" lon="9.29905000556">
		<tag k="name" v="Torsnesodden" />
		<tag k="natural" v="cape" />
		<tag k="ssr:stedsnr" v="245671" />
	</node>
	<node id="-442479" lat="59.2580583371" lon="9.29976110618">
		<tag k="alt_name" v="Damtjørn" />
		<tag k="name" v="Damtjønn" />
		<tag k="natural" v="water" />
		<tag k="ssr:stedsnr" v="245618" />
	</node>
	<node id="-442476" lat="59.3404694461" lon="8.92419722764">
		<tag k="alt_name" v="Svartputt" />
		<tag k="name" v="Svarteputt" />
		<tag k="natural" v="water" />
		<tag k="ssr:stedsnr" v="245256" />
	</node>
	<node id="-442475" lat="59.3302611096" lon="8.88148610943">
		<tag k="alt_name" v="Svarteputt" />
		<tag k="name" v="Svartputt" />
		<tag k="natural" v="water" />
		<tag k="ssr:stedsnr" v="245224" />
	</node>
	<node id="-442473" lat="59.3214138863" lon="8.99388888563">
		<tag k="name" v="Straumen" />
		<tag k="ssr:stedsnr" v="245210" />
		<tag k="waterway" v="river" />
	</node>
	<node id="-444518" lat="59.312549996" lon="8.92477499521">
		<tag k="name" v="Tullodden" />
		<tag k="natural" v="cape" />
		<tag k="ssr:stedsnr" v="874301" />
	</node>
	<node id="-442468" lat="59.2724388899" lon="8.87169444323">
		<tag k="alt_name" v="Kletjørn" />
		<tag k="name" v="Kletjønn" />
		<tag k="natural" v="water" />
		<tag k="ssr:stedsnr" v="245119" />
	</node>
	<node id="-444509" lat="59.2820861145" lon="9.0492194423">
		<tag k="name" v="Nedre Trytetjønn" />
		<tag k="natural" v="water" />
		<tag k="ssr:stedsnr" v="873230" />
	</node>
	<node id="-444508" lat="59.2722749973" lon="9.01604445138">
		<tag k="name" v="Eivindstulelva" />
		<tag k="ssr:stedsnr" v="873144" />
		<tag k="waterway" v="river" />
	</node>
	<node id="-442459" lat="59.3195666633" lon="9.0242638948">
		<tag k="name" v="Lognevja" />
		<tag k="natural" v="bay" />
		<tag k="ssr:stedsnr" v="236104" />
	</node>
	<node id="-444506" lat="59.2879388868" lon="9.26314443612">
		<tag k="name" v="Strømodden" />
		<tag k="natural" v="cape" />
		<tag k="ssr:stedsnr" v="852682" />
	</node>
	<node id="-442457" lat="59.1950638927" lon="9.26747500196">
		<tag k="name" v="Nedre Hommevatn" />
		<tag k="natural" v="water" />
		<tag k="ssr:stedsnr" v="298815" />
		<tag k="water" v="lake" />
	</node>
	<node id="-444503" lat="59.3686249993" lon="9.09488610914">
		<tag k="alt_name" v="Deilbekk" />
		<tag k="name" v="Deildbekken" />
		<tag k="ssr:stedsnr" v="852297" />
		<tag k="waterway" v="stream" />
	</node>
	<node id="-442454" lat="59.1794555562" lon="9.20494166054">
		<tag k="name" v="Serktjønn" />
		<tag k="natural" v="water" />
		<tag k="ssr:stedsnr" v="298806" />
	</node>
	<node id="-444499" lat="59.3454861156" lon="9.03188056008">
		<tag k="alt_name" v="Horstjørn" />
		<tag k="name" v="Horstjønn" />
		<tag k="natural" v="water" />
		<tag k="ssr:stedsnr" v="852263" />
	</node>
	<node id="-442445" lat="59.2047222232" lon="9.21993332484">
		<tag k="name" v="Svebekk" />
		<tag k="ssr:stedsnr" v="298663" />
		<tag k="waterway" v="stream" />
	</node>
	<node id="-442444" lat="59.1880805575" lon="9.18173888113">
		<tag k="name" v="Trytetjønnbekken" />
		<tag k="ssr:stedsnr" v="298656" />
		<tag k="waterway" v="stream" />
	</node>
	<node id="-442442" lat="59.2549222187" lon="9.09537777251">
		<tag k="name" v="Nedre Meheitjønn" />
		<tag k="natural" v="water" />
		<tag k="ssr:stedsnr" v="298554" />
	</node>
	<node id="-442440" lat="59.2860527817" lon="9.16501389025">
		<tag k="name" v="Skårdalsbekken" />
		<tag k="ssr:stedsnr" v="298398" />
		<tag k="waterway" v="stream" />
	</node>
	<node id="-444486" lat="59.1526638895" lon="9.20386389083">
		<tag k="alt_name" v="Kroktjønn" />
		<tag k="name" v="Kroktjern" />
		<tag k="natural" v="water" />
		<tag k="ssr:stedsnr" v="851250" />
	</node>
	<node id="-444485" lat="59.2368472196" lon="9.31331111744">
		<tag k="name" v="Bærevann" />
		<tag k="natural" v="water" />
		<tag k="ssr:stedsnr" v="851052" />
	</node>
	<node id="-442434" lat="59.3263249964" lon="9.25588610527">
		<tag k="name" v="Bleikedokka" />
		<tag k="natural" v="bay" />
		<tag k="ssr:stedsnr" v="209718" />
	</node>
	<node id="-442432" lat="59.3177055565" lon="9.02970833845">
		<tag k="name" v="Saltevja" />
		<tag k="natural" v="bay" />
		<tag k="ssr:stedsnr" v="297137" />
	</node>
	<node id="-444478" lat="59.2822861143" lon="9.23752223054">
		<tag k="name" v="Lanna" />
		<tag k="natural" v="beach" />
		<tag k="ssr:stedsnr" v="845124" />
	</node>
	<node id="-442426" lat="59.1666944473" lon="9.19703056422">
		<tag k="name" v="Vitnesjøbekken" />
		<tag k="ssr:stedsnr" v="177861" />
		<tag k="waterway" v="stream" />
	</node>
	<node id="-444472" lat="59.2280194409" lon="9.2378583311">
		<tag k="name" v="Tørkenholm" />
		<tag k="place" v="islet" />
		<tag k="ssr:stedsnr" v="844966" />
	</node>
	<node id="-442423" lat="59.2707666711" lon="9.11308611542">
		<tag k="name" v="Hauglandstoa" />
		<tag k="natural" v="bay" />
		<tag k="ssr:stedsnr" v="177403" />
	</node>
	<node id="-444470" lat="59.234008333" lon="9.27898610638">
		<tag k="name" v="Murefjelltjønnane" />
		<tag k="natural" v="water" />
		<tag k="ssr:stedsnr" v="844946" />
	</node>
	<node id="-442417" lat="59.1547083363" lon="9.2139833343">
		<tag k="name" v="Brenteodden" />
		<tag k="natural" v="cape" />
		<tag k="ssr:stedsnr" v="284668" />
	</node>
	<node id="-444458" lat="59.2487916678" lon="9.11118333909">
		<tag k="name" v="Smørbubekken" />
		<tag k="ssr:stedsnr" v="844569" />
		<tag k="waterway" v="stream" />
	</node>
	<node id="-442409" lat="59.2203361132" lon="9.26847221515">
		<tag k="name" v="Lensmannsøya" />
		<tag k="place" v="islet" />
		<tag k="ssr:stedsnr" v="283895" />
	</node>
	<node id="-442408" lat="59.2218055588" lon="9.2731000028">
		<tag k="name" v="Torgrim" />
		<tag k="place" v="islet" />
		<tag k="ssr:stedsnr" v="283887" />
	</node>
	<node id="-442407" lat="59.2225805524" lon="9.26478334111">
		<tag k="name" v="Eldhusstranna" />
		<tag k="natural" v="beach" />
		<tag k="ssr:stedsnr" v="283884" />
	</node>
	<node id="-444451" lat="59.211550004" lon="9.17242500371">
		<tag k="name" v="Jutulbrua" />
		<tag k="natural" v="cape" />
		<tag k="ssr:stedsnr" v="830985" />
	</node>
	<node id="-442400" lat="59.2199111076" lon="9.26639722157">
		<tag k="name" v="Brenteøya" />
		<tag k="place" v="islet" />
		<tag k="ssr:stedsnr" v="162904" />
	</node>
	<node id="-444443" lat="59.2932305554" lon="9.08634444631">
		<tag k="name" v="Skoeelva" />
		<tag k="ssr:stedsnr" v="830723" />
		<tag k="waterway" v="river" />
	</node>
	<node id="-444442" lat="59.1592749966" lon="9.21748332709">
		<tag k="name" v="Cappelenbukta" />
		<tag k="natural" v="bay" />
		<tag k="ssr:stedsnr" v="830673" />
	</node>
	<node id="-444441" lat="59.1448305601" lon="9.17081110472">
		<tag k="name" v="Venetjønn" />
		<tag k="natural" v="water" />
		<tag k="ssr:stedsnr" v="830647" />
	</node>
	<node id="-444437" lat="59.2941333364" lon="9.22428611309">
		<tag k="name" v="Eidselva" />
		<tag k="ssr:stedsnr" v="815740" />
		<tag k="waterway" v="river" />
	</node>
	<node id="-444436" lat="59.2646638874" lon="8.98543054997">
		<tag k="name" v="Linfjellbekken" />
		<tag k="ssr:stedsnr" v="815731" />
		<tag k="waterway" v="stream" />
	</node>
	<node id="-444433" lat="59.2158555535" lon="9.26594166007">
		<tag k="name" v="Røybekk" />
		<tag k="ssr:stedsnr" v="815375" />
		<tag k="waterway" v="stream" />
	</node>
	<node id="-444427" lat="59.3748055521" lon="9.07399999653">
		<tag k="name" v="Sagbekken" />
		<tag k="ssr:stedsnr" v="814611" />
		<tag k="waterway" v="stream" />
	</node>
	<node id="-442375" lat="59.218566664" lon="9.31903334205">
		<tag k="name" v="Tangen" />
		<tag k="place" v="island" />
		<tag k="ssr:stedsnr" v="267838" />
	</node>
	<node id="-442374" lat="59.2218083296" lon="9.28975277379">
		<tag k="name" v="Håtveitdammen" />
		<tag k="ssr:stedsnr" v="267859" />
		<tag k="waterway" v="dam" />
>>>>>>> e1d4bc35ff8a6074a6f2e91616a996b547c36f15
	</node>
</osm>
