<?xml version="1.0" encoding="UTF-8"?>
<<<<<<< HEAD
<osm version="0.6" generator="osmapis">
	<node lat="59.184947225677135" lon="9.22373888692113" id="-21196">
		<tag k="name" v="Sandstå" />
=======
<osm generator="osmapis" version="0.6">
	<node id="-443771" lat="59.2120377695" lon="9.17117650333">
		<tag k="alt_name" v="Roligheten" />
		<tag k="name" v="Roligheta" />
		<tag k="place" v="locality" />
		<tag k="ssr:stedsnr" v="305348" />
	</node>
	<node id="-443509" lat="59.2693527792" lon="9.2996722284">
		<tag k="amenity" v="place_of_worship" />
		<tag k="denomination" v="lutheran" />
		<tag k="name" v="Frikirke" />
		<tag k="religion" v="christian" />
		<tag k="ssr:stedsnr" v="101159" />
	</node>
	<node id="-444275" lat="59.2552111155" lon="9.35503889717">
		<tag k="name" v="Vannbasseng" />
		<tag k="place" v="locality" />
		<tag k="ssr:stedsnr" v="753235" />
	</node>
	<node id="-443120" lat="59.2760722216" lon="9.26094444997">
		<tag k="cemetery" v="grave" />
		<tag k="name" v="Kronborg kirkegård" />
>>>>>>> e1d4bc35ff8a6074a6f2e91616a996b547c36f15
		<tag k="place" v="locality" />
		<tag k="ssr:stedsnr" v="237694" />
	</node>
<<<<<<< HEAD
	<node lat="59.28481388734858" lon="9.235533340197922" id="-21201">
=======
	<node id="-443887" lat="59.3258444461" lon="9.00664167175">
>>>>>>> e1d4bc35ff8a6074a6f2e91616a996b547c36f15
		<tag k="amenity" v="community_centre" />
		<tag k="name" v="Arbeideren" />
		<tag k="ssr:stedsnr" v="238111" />
	</node>
<<<<<<< HEAD
	<node lat="59.27995277567717" lon="8.920861116235287" id="-21255">
		<tag k="name" v="Uvildam" />
=======
	<node id="-444142" lat="59.2929277749" lon="9.26030277561">
		<tag k="name" v="Rugskottet" />
>>>>>>> e1d4bc35ff8a6074a6f2e91616a996b547c36f15
		<tag k="place" v="locality" />
		<tag k="ssr:stedsnr" v="85187" />
	</node>
<<<<<<< HEAD
	<node lat="59.24704444797857" lon="9.104049991352253" id="-21288">
		<tag k="name" v="Kaldbekk" />
=======
	<node id="-443111" lat="59.1921222204" lon="9.19462221774">
		<tag k="name" v="Teigestulen" />
>>>>>>> e1d4bc35ff8a6074a6f2e91616a996b547c36f15
		<tag k="place" v="locality" />
		<tag k="ssr:stedsnr" v="116206" />
	</node>
<<<<<<< HEAD
	<node lat="59.28049540760387" lon="9.262904320748357" id="-21378">
		<tag k="alt_name" v="Holla" />
=======
	<node id="-442343" lat="59.247044448" lon="9.10404999135">
		<tag k="name" v="Kaldbekk" />
		<tag k="place" v="locality" />
		<tag k="ssr:stedsnr" v="116206" />
	</node>
	<node id="-443891" lat="59.2539416693" lon="9.35903611673">
		<tag k="alt_name" v="Helgen kirke" />
		<tag k="amenity" v="place_of_worship" />
		<tag k="denomination" v="lutheran" />
		<tag k="name" v="Helgen" />
		<tag k="religion" v="christian" />
		<tag k="ssr:stedsnr" v="366675" />
	</node>
	<node id="-442582" lat="59.3202111078" lon="8.9857555556">
		<tag k="alt_name" v="Flåbygd, yt;Flåbygd" />
>>>>>>> e1d4bc35ff8a6074a6f2e91616a996b547c36f15
		<tag k="amenity" v="place_of_worship" />
		<tag k="denomination" v="lutheran" />
		<tag k="name" v="Holla kirke" />
		<tag k="religion" v="christian" />
		<tag k="ssr:stedsnr" v="184691" />
	</node>
<<<<<<< HEAD
	<node lat="59.22180832959985" lon="9.289752773787418" id="-21397">
		<tag k="name" v="Håtveitdammen" />
		<tag k="place" v="locality" />
		<tag k="ssr:stedsnr" v="267859" />
	</node>
	<node lat="59.3258444460968" lon="9.006641671751291" id="-21580">
=======
	<node id="-444242" lat="59.2746944416" lon="9.31640555405">
		<tag k="name" v="Bergmesteren" />
		<tag k="ssr:stedsnr" v="647202" />
		<tag k="tourism" v="viewpoint" />
	</node>
	<node id="-443601" lat="59.3185277768" lon="9.01573888811">
>>>>>>> e1d4bc35ff8a6074a6f2e91616a996b547c36f15
		<tag k="amenity" v="community_centre" />
		<tag k="name" v="Haugen" />
		<tag k="ssr:stedsnr" v="366214" />
	</node>
<<<<<<< HEAD
	<node lat="59.253942705298606" lon="9.358986082189555" id="-21585">
		<tag k="alt_name" v="Helgen" />
=======
	<node id="-443088" lat="59.2461750038" lon="9.16185833452">
		<tag k="alt_name" v="Landsmarka kapell" />
>>>>>>> e1d4bc35ff8a6074a6f2e91616a996b547c36f15
		<tag k="amenity" v="place_of_worship" />
		<tag k="denomination" v="lutheran" />
		<tag k="name" v="Helgen kirke" />
		<tag k="religion" v="christian" />
		<tag k="ssr:stedsnr" v="366675" />
	</node>
<<<<<<< HEAD
	<node lat="59.27095277892564" lon="9.27354722501082" id="-21591">
=======
	<node id="-444111" lat="59.2975583294" lon="9.27511389275">
>>>>>>> e1d4bc35ff8a6074a6f2e91616a996b547c36f15
		<tag k="amenity" v="place_of_worship" />
		<tag k="denomination" v="lutheran" />
		<tag k="name" v="Holla gamle kirke" />
		<tag k="religion" v="christian" />
<<<<<<< HEAD
		<tag k="ssr:stedsnr" v="480089" />
	</node>
	<node lat="59.26913055259248" lon="9.124750003922786" id="-21635">
		<tag k="name" v="Tyri jernbanestasjon" />
=======
		<tag k="ssr:stedsnr" v="548793" />
	</node>
	<node id="-443852" lat="59.2674416686" lon="9.13763611921">
		<tag k="amenity" v="place_of_worship" />
		<tag k="fixme" v="specify religion=*, denomination=*, building=* etc" />
		<tag k="name" v="Tyri bedehus" />
		<tag k="ssr:stedsnr" v="359628" />
	</node>
	<node id="-444233" lat="59.2439805573" lon="9.31546667409">
		<tag k="name" v="Megardsbonn" />
>>>>>>> e1d4bc35ff8a6074a6f2e91616a996b547c36f15
		<tag k="place" v="locality" />
		<tag k="ssr:stedsnr" v="405643" />
	</node>
<<<<<<< HEAD
	<node lat="59.32021110783187" lon="8.985755555597983" id="-21651">
		<tag k="alt_name" v="Flåbygd, yt;Flåbygd kyrkje" />
=======
	<node id="-442558" lat="59.2709527789" lon="9.27354722501">
>>>>>>> e1d4bc35ff8a6074a6f2e91616a996b547c36f15
		<tag k="amenity" v="place_of_worship" />
		<tag k="denomination" v="lutheran" />
		<tag k="name" v="Flåbygd kirke" />
		<tag k="religion" v="christian" />
		<tag k="ssr:stedsnr" v="487191" />
	</node>
<<<<<<< HEAD
	<node lat="59.26440277664076" lon="9.267836105770192" id="-21782">
		<tag k="name" v="Tveitlåven" />
=======
	<node id="-443581" lat="59.2888166652" lon="9.01304999414">
		<tag k="name" v="Løkeslåtta" />
>>>>>>> e1d4bc35ff8a6074a6f2e91616a996b547c36f15
		<tag k="place" v="locality" />
		<tag k="ssr:stedsnr" v="541070" />
	</node>
<<<<<<< HEAD
	<node lat="59.18346944121407" lon="9.260250001113524" id="-21870">
		<tag k="name" v="Lusasken" />
		<tag k="place" v="locality" />
		<tag k="ssr:stedsnr" v="601802" />
	</node>
	<node lat="59.21452500005412" lon="9.245947220979149" id="-21936">
		<tag k="name" v="Tekslestulen" />
		<tag k="place" v="locality" />
		<tag k="ssr:stedsnr" v="708869" />
	</node>
	<node lat="59.23613888792221" lon="9.102452783579622" id="-21941">
		<tag k="name" v="Springskott" />
		<tag k="place" v="locality" />
		<tag k="ssr:stedsnr" v="662181" />
	</node>
	<node lat="59.27144722227402" lon="9.29828888305695" id="-21991">
=======
	<node id="-442292" lat="59.2848138873" lon="9.2355333402">
>>>>>>> e1d4bc35ff8a6074a6f2e91616a996b547c36f15
		<tag k="amenity" v="community_centre" />
		<tag k="name" v="Vårheim" />
		<tag k="ssr:stedsnr" v="890190" />
	</node>
<<<<<<< HEAD
	<node lat="59.222788891704205" lon="9.067183336465376" id="-22039">
		<tag k="name" v="Tiurleikstua" />
		<tag k="place" v="locality" />
		<tag k="ssr:stedsnr" v="723426" />
	</node>
	<node lat="59.24606533424251" lon="9.16081668277565" id="-22059">
		<tag k="alt_name" v="Landsmarka" />
=======
	<node id="-443699" lat="59.2805500012" lon="9.2620833352">
		<tag k="alt_name" v="Holla kirke" />
>>>>>>> e1d4bc35ff8a6074a6f2e91616a996b547c36f15
		<tag k="amenity" v="place_of_worship" />
		<tag k="denomination" v="lutheran" />
		<tag k="name" v="Landsmarka kapell" />
		<tag k="religion" v="christian" />
		<tag k="ssr:stedsnr" v="730417" />
	</node>
	<node lat="59.27495833721485" lon="9.263913892633688" id="-22103">
		<tag k="amenity" v="place_of_worship" />
		<tag k="fixme" v="specify religion=*, denomination=*, building=* etc" />
		<tag k="name" v="Kronborg gravkapell" />
		<tag k="ssr:stedsnr" v="906079" />
	</node>
	<node lat="59.27607222163701" lon="9.260944449968594" id="-22104">
		<tag k="cemetery" v="grave" />
		<tag k="name" v="Kronborg kirkegård" />
		<tag k="place" v="locality" />
		<tag k="ssr:stedsnr" v="906082" />
	</node>
<<<<<<< HEAD
	<node lat="59.33855555319799" lon="9.086144440618767" id="-22169">
		<tag k="amenity" v="community_centre" />
		<tag k="name" v="Elvang" />
		<tag k="ssr:stedsnr" v="814721" />
	</node>
	<node lat="59.31114444555438" lon="9.172130555682257" id="-22171">
=======
	<node id="-443185" lat="59.3111444456" lon="9.17213055568">
>>>>>>> e1d4bc35ff8a6074a6f2e91616a996b547c36f15
		<tag k="amenity" v="community_centre" />
		<tag k="name" v="Roheim" />
		<tag k="ssr:stedsnr" v="815678" />
	</node>
<<<<<<< HEAD
	<node lat="59.259322222664636" lon="9.279538890040735" id="-22196">
		<tag k="name" v="Håtveit pelsdyrgård" />
=======
	<node id="-442925" lat="59.1834694412" lon="9.26025000111">
		<tag k="name" v="Lusasken" />
>>>>>>> e1d4bc35ff8a6074a6f2e91616a996b547c36f15
		<tag k="place" v="locality" />
		<tag k="ssr:stedsnr" v="845087" />
	</node>
<<<<<<< HEAD
	<node lat="59.22477499888999" lon="9.059691664512314" id="-22242">
		<tag k="name" v="Storlistulen" />
=======
	<node id="-443815" lat="59.2472611136" lon="9.35323888542">
		<tag k="name" v="Bjørkholt" />
>>>>>>> e1d4bc35ff8a6074a6f2e91616a996b547c36f15
		<tag k="place" v="locality" />
		<tag k="ssr:stedsnr" v="905402" />
	</node>
<<<<<<< HEAD
	<node lat="59.19212222042238" lon="9.194622217740068" id="-22244">
		<tag k="name" v="Teigestulen" />
=======
	<node id="-442278" lat="59.1849472257" lon="9.22373888692">
		<tag k="name" v="Sandstå" />
>>>>>>> e1d4bc35ff8a6074a6f2e91616a996b547c36f15
		<tag k="place" v="locality" />
		<tag k="ssr:stedsnr" v="905710" />
	</node>
<<<<<<< HEAD
	<node lat="59.269352779203786" lon="9.299672228403688" id="-22479">
=======
	<node id="-444197" lat="59.3059388909" lon="9.11364166786">
		<tag k="alt_name" v="Lunde kyrkje" />
>>>>>>> e1d4bc35ff8a6074a6f2e91616a996b547c36f15
		<tag k="amenity" v="place_of_worship" />
		<tag k="denomination" v="lutheran" />
		<tag k="name" v="Frikirke" />
		<tag k="religion" v="christian" />
		<tag k="ssr:stedsnr" v="101159" />
	</node>
<<<<<<< HEAD
	<node lat="59.28881240873929" lon="9.013047903704647" id="-22528">
		<tag k="name" v="Løkeslåtta" />
		<tag k="place" v="locality" />
		<tag k="ssr:stedsnr" v="124130" />
	</node>
	<node lat="59.31852777684052" lon="9.015738888112804" id="-22540">
		<tag k="amenity" v="community_centre" />
		<tag k="name" v="Skyttarhuset" />
		<tag k="ssr:stedsnr" v="145310" />
	</node>
	<node lat="59.212037769485434" lon="9.171176503332145" id="-22709">
		<tag k="alt_name" v="Roligheten" />
		<tag k="name" v="Roligheta" />
=======
	<node id="-443044" lat="59.2714472223" lon="9.29828888306">
		<tag k="amenity" v="community_centre" />
		<tag k="name" v="Vårheim" />
		<tag k="ssr:stedsnr" v="890190" />
	</node>
	<node id="-443938" lat="59.2691305526" lon="9.12475000392">
		<tag k="name" v="Tyri jernbanestasjon" />
>>>>>>> e1d4bc35ff8a6074a6f2e91616a996b547c36f15
		<tag k="place" v="locality" />
		<tag k="ssr:stedsnr" v="305348" />
	</node>
<<<<<<< HEAD
	<node lat="59.24726111362762" lon="9.353238885422503" id="-22743">
		<tag k="name" v="Bjørkholt" />
		<tag k="place" v="locality" />
		<tag k="ssr:stedsnr" v="329295" />
	</node>
	<node lat="59.26744166862173" lon="9.137636119206567" id="-22775">
		<tag k="amenity" v="place_of_worship" />
		<tag k="fixme" v="specify religion=*, denomination=*, building=* etc" />
		<tag k="name" v="Tyri bedehus" />
		<tag k="ssr:stedsnr" v="359628" />
	</node>
	<node lat="59.29162777590316" lon="9.052563886204437" id="-22813">
=======
	<node id="-443119" lat="59.2749583372" lon="9.26391389263">
		<tag k="amenity" v="place_of_worship" />
		<tag k="fixme" v="specify religion=*, denomination=*, building=* etc" />
		<tag k="name" v="Kronborg gravkapell" />
		<tag k="ssr:stedsnr" v="906079" />
	</node>
	<node id="-444431" lat="59.3385555532" lon="9.08614444062">
>>>>>>> e1d4bc35ff8a6074a6f2e91616a996b547c36f15
		<tag k="amenity" v="community_centre" />
		<tag k="name" v="Kjeldal skole" />
		<tag k="ssr:stedsnr" v="388232" />
	</node>
<<<<<<< HEAD
	<node lat="59.297571370248654" lon="9.275057884032643" id="-23011">
		<tag k="amenity" v="place_of_worship" />
		<tag k="denomination" v="lutheran" />
		<tag k="name" v="Romnes kirke" />
		<tag k="religion" v="christian" />
		<tag k="ssr:stedsnr" v="548793" />
	</node>
	<node lat="59.29292777486077" lon="9.260302775610395" id="-23041">
		<tag k="name" v="Rugskottet" />
=======
	<node id="-444045" lat="59.2644027766" lon="9.26783610577">
		<tag k="name" v="Tveitlåven" />
>>>>>>> e1d4bc35ff8a6074a6f2e91616a996b547c36f15
		<tag k="place" v="locality" />
		<tag k="ssr:stedsnr" v="573740" />
	</node>
<<<<<<< HEAD
	<node lat="59.2876194431834" lon="9.25130556077888" id="-23068">
=======
	<node id="-444172" lat="59.2876194432" lon="9.25130556078">
>>>>>>> e1d4bc35ff8a6074a6f2e91616a996b547c36f15
		<tag k="name" v="Pindus" />
		<tag k="ssr:stedsnr" v="602112" />
		<tag k="tourism" v="viewpoint" />
	</node>
<<<<<<< HEAD
	<node lat="59.30590848373078" lon="9.113898969473556" id="-23093">
		<tag k="alt_name" v="Lunde kyrkje" />
		<tag k="amenity" v="place_of_worship" />
		<tag k="denomination" v="lutheran" />
		<tag k="name" v="Lunde kirke" />
		<tag k="religion" v="christian" />
		<tag k="ssr:stedsnr" v="609176" />
	</node>
	<node lat="59.246870082680296" lon="9.320008942407533" id="-23124">
		<tag k="name" v="Megardsbonn" />
		<tag k="place" v="locality" />
		<tag k="ssr:stedsnr" v="632901" />
	</node>
	<node lat="59.27469444164395" lon="9.316405554054302" id="-23131">
		<tag k="name" v="Bergmesteren" />
		<tag k="ssr:stedsnr" v="647202" />
		<tag k="tourism" v="viewpoint" />
	</node>
	<node lat="59.25521111547314" lon="9.355038897173594" id="-23234">
		<tag k="name" v="Vannbasseng" />
		<tag k="place" v="locality" />
		<tag k="ssr:stedsnr" v="753235" />
=======
	<node id="-443907" lat="59.2916277759" lon="9.0525638862">
		<tag k="amenity" v="community_centre" />
		<tag k="name" v="Kjeldal skole" />
		<tag k="ssr:stedsnr" v="388232" />
>>>>>>> e1d4bc35ff8a6074a6f2e91616a996b547c36f15
	</node>
</osm>
