<?xml version="1.0" encoding="UTF-8"?>
<<<<<<< HEAD
<osm version="0.6" generator="osmapis">
	<node lat="59.252749999539226" lon="9.311705561882114" id="-21158">
		<tag k="name" v="Storemyr" />
=======
<osm generator="osmapis" version="0.6">
	<node id="-442880" lat="59.2678111125" lon="9.00749167504">
		<tag k="name" v="Mastemyrane" />
		<tag k="natural" v="wetland" />
		<tag k="ssr:stedsnr" v="570112" />
	</node>
	<node id="-442367" lat="59.2854000043" lon="8.90983888084">
		<tag k="name" v="Krossmyr" />
		<tag k="natural" v="wetland" />
		<tag k="ssr:stedsnr" v="267202" />
	</node>
	<node id="-444414" lat="59.3147611101" lon="9.11833888476">
		<tag k="name" v="Lundekåsene" />
		<tag k="place" v="locality" />
		<tag k="ssr:stedsnr" v="814083" />
	</node>
	<node id="-442364" lat="59.3438444457" lon="8.94163332542">
		<tag k="name" v="Holtemyrane" />
		<tag k="natural" v="wetland" />
		<tag k="ssr:stedsnr" v="267187" />
	</node>
	<node id="-442363" lat="59.3583055535" lon="8.98871110742">
		<tag k="name" v="Holtemyr" />
		<tag k="natural" v="wetland" />
		<tag k="ssr:stedsnr" v="267181" />
	</node>
	<node id="-444415" lat="59.3167027773" lon="9.15554165967">
		<tag k="name" v="Lintjønnmyra" />
		<tag k="natural" v="wetland" />
		<tag k="ssr:stedsnr" v="814092" />
	</node>
	<node id="-444408" lat="59.3788861109" lon="9.08182222825">
		<tag k="name" v="Flatine" />
		<tag k="place" v="locality" />
		<tag k="ssr:stedsnr" v="813526" />
	</node>
	<node id="-443381" lat="59.2474972191" lon="9.14948611688">
		<tag k="name" v="Sortemyr" />
		<tag k="natural" v="wetland" />
		<tag k="ssr:stedsnr" v="41292" />
	</node>
	<node id="-442863" lat="59.162372218" lon="9.26829722569">
		<tag k="name" v="Lektemyr" />
		<tag k="natural" v="wetland" />
		<tag k="ssr:stedsnr" v="541779" />
	</node>
	<node id="-442350" lat="59.1623138925" lon="9.2306694474">
		<tag k="name" v="Middagsmyra" />
		<tag k="natural" v="wetland" />
		<tag k="ssr:stedsnr" v="116845" />
	</node>
	<node id="-444397" lat="59.2807666646" lon="8.9859388874">
		<tag k="name" v="Diplane" />
		<tag k="natural" v="wetland" />
		<tag k="ssr:stedsnr" v="813070" />
	</node>
	<node id="-442859" lat="59.2321916647" lon="9.17966111356">
		<tag k="name" v="Kudalsmyra" />
		<tag k="natural" v="wetland" />
		<tag k="ssr:stedsnr" v="541806" />
	</node>
	<node id="-442345" lat="59.2117166647" lon="9.08804166672">
		<tag k="name" v="Langoddemyr" />
		<tag k="natural" v="wetland" />
		<tag k="ssr:stedsnr" v="116310" />
	</node>
	<node id="-442856" lat="59.3737833341" lon="9.06856110371">
		<tag k="name" v="Hestemyr" />
		<tag k="natural" v="wetland" />
		<tag k="ssr:stedsnr" v="692542" />
	</node>
	<node id="-443366" lat="59.2534611141" lon="9.29598333815">
		<tag k="name" v="Kloppamyra" />
		<tag k="natural" v="wetland" />
		<tag k="ssr:stedsnr" v="26203" />
	</node>
	<node id="-442852" lat="59.2250666708" lon="9.09970000008">
		<tag k="name" v="Tranetjønnmyr" />
		<tag k="natural" v="wetland" />
		<tag k="ssr:stedsnr" v="541337" />
	</node>
	<node id="-443387" lat="59.2231083375" lon="9.19848889629">
		<tag k="name" v="Langskottmyr" />
		<tag k="natural" v="wetland" />
		<tag k="ssr:stedsnr" v="41977" />
	</node>
	<node id="-442847" lat="59.285511113" lon="8.92257777103">
		<tag k="name" v="Beinstigmyrane" />
		<tag k="natural" v="wetland" />
		<tag k="ssr:stedsnr" v="692215" />
	</node>
	<node id="-442333" lat="59.360599999" lon="9.10664167225">
		<tag k="name" v="Hellekåsmyra" />
		<tag k="natural" v="wetland" />
		<tag k="ssr:stedsnr" v="85556" />
	</node>
	<node id="-442840" lat="59.2696222249" lon="9.03344166457">
		<tag k="name" v="Skreddarholet" />
		<tag k="place" v="locality" />
		<tag k="ssr:stedsnr" v="692141" />
	</node>
	<node id="-444409" lat="59.3482805523" lon="9.06505833887">
		<tag k="name" v="Valakåsene" />
		<tag k="place" v="locality" />
		<tag k="ssr:stedsnr" v="813590" />
	</node>
	<node id="-443348" lat="59.3770416685" lon="9.07223332878">
		<tag k="name" v="Åsmyr" />
		<tag k="natural" v="wetland" />
		<tag k="ssr:stedsnr" v="24593" />
	</node>
	<node id="-443856" lat="59.1665305533" lon="9.2756250017">
		<tag k="name" v="Morgedalsmyra" />
		<tag k="natural" v="wetland" />
		<tag k="ssr:stedsnr" v="359771" />
	</node>
	<node id="-443128" lat="59.2490361085" lon="9.24875000401">
		<tag k="alt_name" v="Stormyr" />
		<tag k="name" v="Stormyra" />
		<tag k="natural" v="wetland" />
		<tag k="ssr:stedsnr" v="911057" />
	</node>
	<node id="-443342" lat="59.2891611135" lon="9.00114167363">
		<tag k="name" v="Bjørnemyr" />
		<tag k="natural" v="wetland" />
		<tag k="ssr:stedsnr" v="24094" />
	</node>
	<node id="-443853" lat="59.1614527821" lon="9.2319416728">
		<tag k="name" v="Middagsmyra" />
		<tag k="natural" v="wetland" />
		<tag k="ssr:stedsnr" v="359678" />
	</node>
	<node id="-443337" lat="59.3203277781" lon="8.93478610642">
		<tag k="name" v="Grasfjellmyra" />
		<tag k="natural" v="wetland" />
		<tag k="ssr:stedsnr" v="24143" />
	</node>
	<node id="-444352" lat="59.2344166626" lon="9.24332778634">
		<tag k="alt_name" v="Tveitstulmyr" />
		<tag k="name" v="Tveitstulmyra" />
		<tag k="natural" v="wetland" />
		<tag k="ssr:stedsnr" v="790052" />
	</node>
	<node id="-443324" lat="59.2510249958" lon="9.2417805594">
		<tag k="alt_name" v="Vindsåsmyr" />
		<tag k="name" v="Vindsåsmyra" />
		<tag k="natural" v="wetland" />
		<tag k="ssr:stedsnr" v="2682" />
	</node>
	<node id="-444343" lat="59.2462055549" lon="9.24893055705">
		<tag k="name" v="Knefallet" />
		<tag k="natural" v="stone" />
		<tag k="ssr:stedsnr" v="783993" />
	</node>
	<node id="-444337" lat="59.1882666644" lon="9.23934166107">
		<tag k="name" v="Dåsamyr" />
		<tag k="natural" v="wetland" />
		<tag k="ssr:stedsnr" v="783833" />
	</node>
	<node id="-442288" lat="59.2346472187" lon="9.2564888935">
		<tag k="name" v="Snømyr" />
		<tag k="natural" v="wetland" />
		<tag k="ssr:stedsnr" v="237954" />
	</node>
	<node id="-444335" lat="59.2279722198" lon="9.19436389254">
		<tag k="name" v="Moltemyr" />
		<tag k="natural" v="wetland" />
		<tag k="ssr:stedsnr" v="783806" />
	</node>
	<node id="-442450" lat="59.1670500029" lon="9.24236389469">
		<tag k="name" v="Langmyr" />
		<tag k="natural" v="wetland" />
		<tag k="ssr:stedsnr" v="298732" />
	</node>
	<node id="-443819" lat="59.2457861116" lon="9.34758888686">
		<tag k="name" v="Skytterbanemyra" />
		<tag k="natural" v="wetland" />
		<tag k="ssr:stedsnr" v="329450" />
	</node>
	<node id="-443817" lat="59.2372138854" lon="9.35823055936">
		<tag k="name" v="Moltemyr" />
		<tag k="natural" v="wetland" />
		<tag k="ssr:stedsnr" v="329438" />
	</node>
	<node id="-442792" lat="59.2619694489" lon="9.1750027832">
		<tag k="name" v="Mannemyr" />
		<tag k="natural" v="wetland" />
		<tag k="ssr:stedsnr" v="480070" />
	</node>
	<node id="-442791" lat="59.2524083374" lon="9.18542221528">
		<tag k="name" v="Oremyr" />
		<tag k="natural" v="wetland" />
		<tag k="ssr:stedsnr" v="480057" />
	</node>
	<node id="-444326" lat="59.2262777755" lon="9.12538611902">
		<tag k="name" v="Storemyr" />
		<tag k="natural" v="wetland" />
		<tag k="ssr:stedsnr" v="783378" />
	</node>
	<node id="-444324" lat="59.2259722213" lon="9.10966665801">
		<tag k="name" v="Vomstul" />
		<tag k="place" v="locality" />
		<tag k="ssr:stedsnr" v="783297" />
	</node>
	<node id="-444323" lat="59.2255083316" lon="9.09457778299">
		<tag k="historic" v="shieling" />
		<tag k="name" v="Kleivstul" />
		<tag k="place" v="locality" />
		<tag k="ssr:stedsnr" v="783288" />
	</node>
	<node id="-443290" lat="59.2343611068" lon="9.24397222503">
		<tag k="name" v="Hollastulsmyr" />
		<tag k="natural" v="wetland" />
		<tag k="ssr:stedsnr" v="965956" />
	</node>
	<node id="-442265" lat="59.2202666627" lon="9.09751667186">
		<tag k="name" v="Kostmyr" />
		<tag k="natural" v="wetland" />
		<tag k="ssr:stedsnr" v="237308" />
	</node>
	<node id="-443285" lat="59.2560166703" lon="9.20447499743">
		<tag k="name" v="Tverrmyr" />
		<tag k="natural" v="wetland" />
		<tag k="ssr:stedsnr" v="966057" />
	</node>
	<node id="-442260" lat="59.2902861141" lon="9.196361116">
		<tag k="name" v="Yttingane" />
		<tag k="place" v="locality" />
		<tag k="ssr:stedsnr" v="41911" />
	</node>
	<node id="-442862" lat="59.1623083341" lon="9.26565555202">
		<tag k="name" v="Gjeldsmyr" />
		<tag k="natural" v="wetland" />
		<tag k="ssr:stedsnr" v="541776" />
	</node>
	<node id="-443268" lat="59.3478388875" lon="9.08081388743">
		<tag k="name" v="Geitemyr" />
		<tag k="natural" v="wetland" />
		<tag k="ssr:stedsnr" v="934631" />
	</node>
	<node id="-442766" lat="59.3757333375" lon="9.05724444878">
		<tag k="alt_name" v="Drigelsmyrane" />
		<tag k="name" v="Dregilsmyrane" />
		<tag k="natural" v="wetland" />
		<tag k="ssr:stedsnr" v="669318" />
	</node>
	<node id="-442349" lat="59.1775638882" lon="9.21443055832">
		<tag k="name" v="Stulsmyr" />
		<tag k="natural" v="wetland" />
		<tag k="ssr:stedsnr" v="116834" />
	</node>
	<node id="-442250" lat="59.1544111099" lon="9.25568055767">
		<tag k="name" v="Rabalsheia" />
		<tag k="place" v="locality" />
		<tag k="ssr:stedsnr" v="29201" />
	</node>
	<node id="-442244" lat="59.2527499995" lon="9.31170556188">
		<tag k="name" v="Storemyr" />
		<tag k="natural" v="wetland" />
		<tag k="ssr:stedsnr" v="24113" />
	</node>
	<node id="-443266" lat="59.3024027772" lon="8.95900555612">
		<tag k="name" v="Søledike" />
		<tag k="natural" v="wetland" />
		<tag k="ssr:stedsnr" v="934017" />
	</node>
	<node id="-442752" lat="59.2247861126" lon="9.18833332747">
		<tag k="name" v="Heiveimyr" />
		<tag k="natural" v="wetland" />
		<tag k="ssr:stedsnr" v="465970" />
	</node>
	<node id="-443200" lat="59.2500305583" lon="9.35503333543">
		<tag k="name" v="Roamyr" />
		<tag k="place" v="locality" />
		<tag k="ssr:stedsnr" v="936266" />
	</node>
	<node id="-444283" lat="59.3601694457" lon="9.08635833509">
		<tag k="name" v="Myrajordet" />
		<tag k="place" v="locality" />
		<tag k="ssr:stedsnr" v="753599" />
	</node>
	<node id="-443258" lat="59.1951000004" lon="9.24173332699">
		<tag k="name" v="Milene" />
		<tag k="place" v="locality" />
		<tag k="ssr:stedsnr" v="905873" />
	</node>
	<node id="-444223" lat="59.2526138855" lon="9.04585000091">
		<tag k="name" v="Gongemyrane" />
		<tag k="natural" v="wetland" />
		<tag k="ssr:stedsnr" v="631152" />
	</node>
	<node id="-442232" lat="59.1440499988" lon="9.18844167308">
		<tag k="name" v="Villheimyra" />
		<tag k="natural" v="wetland" />
		<tag k="ssr:stedsnr" v="223706" />
	</node>
	<node id="-444276" lat="59.2477666664" lon="9.35779167457">
		<tag k="name" v="Svenskemyr" />
		<tag k="place" v="locality" />
		<tag k="ssr:stedsnr" v="753239" />
	</node>
	<node id="-442737" lat="59.2431416697" lon="9.26155833306">
		<tag k="name" v="Halvfarmyr" />
>>>>>>> e1d4bc35ff8a6074a6f2e91616a996b547c36f15
		<tag k="natural" v="wetland" />
		<tag k="ssr:stedsnr" v="24113" />
	</node>
<<<<<<< HEAD
	<node lat="59.377041668480615" lon="9.072233328784629" id="-21164">
		<tag k="name" v="Åsmyr" />
=======
	<node id="-442736" lat="59.2456666641" lon="9.27823611767">
		<tag k="name" v="Grasmyr" />
>>>>>>> e1d4bc35ff8a6074a6f2e91616a996b547c36f15
		<tag k="natural" v="wetland" />
		<tag k="ssr:stedsnr" v="24593" />
	</node>
<<<<<<< HEAD
	<node lat="59.25346111407118" lon="9.295983338148195" id="-21177">
		<tag k="name" v="Kloppamyra" />
		<tag k="natural" v="wetland" />
		<tag k="ssr:stedsnr" v="26203" />
	</node>
	<node lat="59.15441110992049" lon="9.255680557674772" id="-21183">
		<tag k="name" v="Rabalsheia" />
		<tag k="place" v="locality" />
		<tag k="ssr:stedsnr" v="29201" />
	</node>
	<node lat="59.290286114097995" lon="9.196361115997723" id="-21190">
		<tag k="name" v="Yttingane" />
=======
	<node id="-444270" lat="59.3168972218" lon="9.17119166336">
		<tag k="name" v="Grindrudmyra" />
		<tag k="natural" v="wetland" />
		<tag k="ssr:stedsnr" v="753059" />
	</node>
	<node id="-443197" lat="59.280122221" lon="8.82967777211">
		<tag k="name" v="Vintereidet" />
		<tag k="natural" v="wetland" />
		<tag k="ssr:stedsnr" v="935397" />
	</node>
	<node id="-444267" lat="59.2916472185" lon="8.85567500043">
		<tag k="name" v="Trolldalen" />
		<tag k="place" v="locality" />
		<tag k="ssr:stedsnr" v="752415" />
	</node>
	<node id="-442728" lat="59.2627722231" lon="9.10413333045">
		<tag k="name" v="Pollen" />
>>>>>>> e1d4bc35ff8a6074a6f2e91616a996b547c36f15
		<tag k="place" v="locality" />
		<tag k="ssr:stedsnr" v="41911" />
	</node>
<<<<<<< HEAD
	<node lat="59.22310833750841" lon="9.198488896287076" id="-21193">
		<tag k="name" v="Langskottmyr" />
=======
	<node id="-444262" lat="59.3255416685" lon="8.90868054839">
		<tag k="name" v="Trengslemyr" />
>>>>>>> e1d4bc35ff8a6074a6f2e91616a996b547c36f15
		<tag k="natural" v="wetland" />
		<tag k="ssr:stedsnr" v="41977" />
	</node>
<<<<<<< HEAD
	<node lat="59.2346472187165" lon="9.256488893504791" id="-21200">
		<tag k="name" v="Snømyr" />
=======
	<node id="-443237" lat="59.2886111095" lon="8.87349443984">
		<tag k="name" v="Dammyrane" />
>>>>>>> e1d4bc35ff8a6074a6f2e91616a996b547c36f15
		<tag k="natural" v="wetland" />
		<tag k="ssr:stedsnr" v="237954" />
	</node>
<<<<<<< HEAD
	<node lat="59.246474997930235" lon="9.179324999253982" id="-21209">
		<tag k="historic" v="shieling" />
		<tag k="name" v="Gamlestul" />
=======
	<node id="-443236" lat="59.2860111113" lon="8.87000278251">
		<tag k="name" v="Barlindhaugane" />
>>>>>>> e1d4bc35ff8a6074a6f2e91616a996b547c36f15
		<tag k="place" v="locality" />
		<tag k="ssr:stedsnr" v="55770" />
	</node>
<<<<<<< HEAD
	<node lat="59.259149999724066" lon="9.025552783975405" id="-21220">
		<tag k="alt_name" v="Røytjørnmyrane" />
		<tag k="name" v="Røytjønnmyrane" />
		<tag k="natural" v="wetland" />
		<tag k="ssr:stedsnr" v="63120" />
	</node>
	<node lat="59.16345833447126" lon="9.18160277885614" id="-21282">
		<tag k="name" v="Skrubbedalen" />
		<tag k="place" v="locality" />
		<tag k="ssr:stedsnr" v="100603" />
	</node>
	<node lat="59.267275003738604" lon="9.078327778498366" id="-21294">
		<tag k="name" v="Moltemyrane" />
		<tag k="natural" v="wetland" />
		<tag k="ssr:stedsnr" v="116585" />
	</node>
	<node lat="59.17365278132218" lon="9.248402775995462" id="-21295">
		<tag k="name" v="Porsmyr" />
=======
	<node id="-443233" lat="59.3026055599" lon="9.03690833789">
		<tag k="landuse" v="quarry" />
		<tag k="name" v="Storemo sandtak" />
		<tag k="ssr:stedsnr" v="874274" />
	</node>
	<node id="-444249" lat="59.298111109" lon="9.12916667244">
		<tag k="name" v="Fekjane" />
>>>>>>> e1d4bc35ff8a6074a6f2e91616a996b547c36f15
		<tag k="natural" v="wetland" />
		<tag k="ssr:stedsnr" v="116771" />
	</node>
<<<<<<< HEAD
	<node lat="59.32459722373838" lon="9.15343334177297" id="-21331">
		<tag k="name" v="Høymyr" />
=======
	<node id="-444248" lat="59.2264805529" lon="9.20184444037">
		<tag k="name" v="Bjørkemyr" />
>>>>>>> e1d4bc35ff8a6074a6f2e91616a996b547c36f15
		<tag k="natural" v="wetland" />
		<tag k="ssr:stedsnr" v="146076" />
	</node>
<<<<<<< HEAD
	<node lat="59.350244447039486" lon="9.123563881994903" id="-21335">
		<tag k="name" v="Saumyr" />
=======
	<node id="-444247" lat="59.2209638863" lon="9.19080277418">
		<tag k="name" v="Moltemyra" />
>>>>>>> e1d4bc35ff8a6074a6f2e91616a996b547c36f15
		<tag k="natural" v="wetland" />
		<tag k="ssr:stedsnr" v="146934" />
	</node>
<<<<<<< HEAD
	<node lat="59.30985833244955" lon="9.249411111927332" id="-21341">
		<tag k="name" v="Grindekåsa" />
		<tag k="place" v="locality" />
		<tag k="ssr:stedsnr" v="148769" />
	</node>
	<node lat="59.273091668993466" lon="8.993627773746816" id="-21368">
		<tag k="alt_name" v="Skinholta" />
		<tag k="name" v="Skjenholta" />
		<tag k="place" v="locality" />
		<tag k="ssr:stedsnr" v="184114" />
	</node>
	<node lat="59.34384444568907" lon="8.941633325419621" id="-21388">
		<tag k="name" v="Holtemyrane" />
=======
	<node id="-444246" lat="59.2696833341" lon="9.2025027799">
		<tag k="name" v="Pølsemyr" />
		<tag k="natural" v="wetland" />
		<tag k="ssr:stedsnr" v="647946" />
	</node>
	<node id="-442509" lat="59.2401499999" lon="9.35468610564">
		<tag k="name" v="Langmyrane" />
		<tag k="natural" v="wetland" />
		<tag k="ssr:stedsnr" v="451467" />
	</node>
	<node id="-443209" lat="59.3151888882" lon="9.21510833705">
		<tag k="name" v="Storemyr" />
		<tag k="natural" v="wetland" />
		<tag k="ssr:stedsnr" v="937584" />
	</node>
	<node id="-443719" lat="59.2467444416" lon="9.3292111185">
		<tag k="name" v="Stiklemyr" />
>>>>>>> e1d4bc35ff8a6074a6f2e91616a996b547c36f15
		<tag k="natural" v="wetland" />
		<tag k="ssr:stedsnr" v="267187" />
	</node>
<<<<<<< HEAD
	<node lat="59.286977777872096" lon="8.917319453217889" id="-21402">
		<tag k="name" v="Sverige" />
=======
	<node id="-443715" lat="59.2889444454" lon="8.85318055026">
		<tag k="name" v="Dagsbeitet" />
>>>>>>> e1d4bc35ff8a6074a6f2e91616a996b547c36f15
		<tag k="place" v="locality" />
		<tag k="ssr:stedsnr" v="206234" />
	</node>
<<<<<<< HEAD
	<node lat="59.35470555985598" lon="9.044750002632865" id="-21404">
=======
	<node id="-442413" lat="59.2075083372" lon="9.07943056332">
		<tag k="name" v="Einstabbkjerret" />
		<tag k="natural" v="wetland" />
		<tag k="ssr:stedsnr" v="284364" />
	</node>
	<node id="-443712" lat="59.3547055599" lon="9.04475000263">
>>>>>>> e1d4bc35ff8a6074a6f2e91616a996b547c36f15
		<tag k="name" v="Tegjemyr" />
		<tag k="natural" v="wetland" />
		<tag k="ssr:stedsnr" v="206337" />
	</node>
<<<<<<< HEAD
	<node lat="59.24674444155089" lon="9.329211118501469" id="-21407">
		<tag k="name" v="Stiklemyr" />
		<tag k="natural" v="wetland" />
		<tag k="ssr:stedsnr" v="206892" />
	</node>
	<node lat="59.14404999882656" lon="9.188441673084794" id="-21425">
		<tag k="name" v="Villheimyra" />
=======
	<node id="-443199" lat="59.2406555543" lon="9.28246666846">
		<tag k="alt_name" v="Laukarmyra" />
		<tag k="name" v="Lauvkarmyra" />
		<tag k="natural" v="wetland" />
		<tag k="ssr:stedsnr" v="935874" />
	</node>
	<node id="-443709" lat="59.2832888909" lon="8.90103333365">
		<tag k="name" v="Røssmyrane" />
>>>>>>> e1d4bc35ff8a6074a6f2e91616a996b547c36f15
		<tag k="natural" v="wetland" />
		<tag k="ssr:stedsnr" v="223706" />
	</node>
<<<<<<< HEAD
	<node lat="59.31966944638415" lon="9.100863893663131" id="-21436">
		<tag k="name" v="Enggravskåsene" />
=======
	<node id="-443707" lat="59.2869777779" lon="8.91731945322">
		<tag k="name" v="Sverige" />
>>>>>>> e1d4bc35ff8a6074a6f2e91616a996b547c36f15
		<tag k="place" v="locality" />
		<tag k="ssr:stedsnr" v="449751" />
	</node>
<<<<<<< HEAD
	<node lat="59.23116389290589" lon="9.333655557826825" id="-21438">
		<tag k="name" v="Huseskogen" />
=======
	<node id="-443103" lat="59.236983334" lon="9.02221110907">
		<tag k="name" v="Stakemyr" />
		<tag k="natural" v="wetland" />
		<tag k="ssr:stedsnr" v="905142" />
	</node>
	<node id="-444216" lat="59.2779777783" lon="8.95457777413">
		<tag k="historic" v="shieling" />
		<tag k="name" v="Kleivstul" />
>>>>>>> e1d4bc35ff8a6074a6f2e91616a996b547c36f15
		<tag k="place" v="locality" />
		<tag k="ssr:stedsnr" v="449976" />
	</node>
<<<<<<< HEAD
	<node lat="59.22026666272041" lon="9.097516671863316" id="-21448">
		<tag k="name" v="Kostmyr" />
=======
	<node id="-443703" lat="59.3103222255" lon="8.99067223">
		<tag k="name" v="Dalamyra" />
>>>>>>> e1d4bc35ff8a6074a6f2e91616a996b547c36f15
		<tag k="natural" v="wetland" />
		<tag k="ssr:stedsnr" v="237308" />
	</node>
<<<<<<< HEAD
	<node lat="59.191911110975525" lon="9.183733327968268" id="-21455">
		<tag k="name" v="Langemyrane" />
		<tag k="natural" v="wetland" />
		<tag k="ssr:stedsnr" v="237705" />
	</node>
	<node lat="59.26196944889274" lon="9.175002783195259" id="-21472">
		<tag k="name" v="Mannemyr" />
=======
	<node id="-444214" lat="59.3734138879" lon="9.11380833693">
		<tag k="name" v="Hestemyr" />
		<tag k="natural" v="wetland" />
		<tag k="ssr:stedsnr" v="630548" />
	</node>
	<node id="-444213" lat="59.2651222224" lon="9.01775555858">
		<tag k="name" v="Brennemyr" />
>>>>>>> e1d4bc35ff8a6074a6f2e91616a996b547c36f15
		<tag k="natural" v="wetland" />
		<tag k="ssr:stedsnr" v="480070" />
	</node>
<<<<<<< HEAD
	<node lat="59.15674444293206" lon="9.25598610500544" id="-21492">
		<tag k="name" v="Skræpemyr" />
=======
	<node id="-442675" lat="59.2368944405" lon="9.33074722529">
		<tag k="name" v="Hestemyr" />
>>>>>>> e1d4bc35ff8a6074a6f2e91616a996b547c36f15
		<tag k="natural" v="wetland" />
		<tag k="ssr:stedsnr" v="454193" />
	</node>
<<<<<<< HEAD
	<node lat="59.28540000434164" lon="8.909838880838404" id="-21493">
		<tag k="name" v="Krossmyr" />
		<tag k="natural" v="wetland" />
		<tag k="ssr:stedsnr" v="267202" />
	</node>
	<node lat="59.35830555354427" lon="8.988711107417506" id="-21497">
		<tag k="name" v="Holtemyr" />
		<tag k="natural" v="wetland" />
		<tag k="ssr:stedsnr" v="267181" />
	</node>
	<node lat="59.224786112635705" lon="9.188333327467582" id="-21545">
		<tag k="name" v="Heiveimyr" />
=======
	<node id="-443442" lat="59.2591499997" lon="9.02555278398">
		<tag k="alt_name" v="Røytjørnmyrane" />
		<tag k="name" v="Røytjønnmyrane" />
		<tag k="natural" v="wetland" />
		<tag k="ssr:stedsnr" v="63120" />
	</node>
	<node id="-444201" lat="59.2886583341" lon="8.92331111055">
		<tag k="alt_name" v="Tjuruhjellbakkane" />
		<tag k="name" v="Tjyrujellbakkane" />
		<tag k="place" v="locality" />
		<tag k="ssr:stedsnr" v="609139" />
	</node>
	<node id="-442661" lat="59.2515611098" lon="9.28902776902">
		<tag k="name" v="Stiklemyr" />
>>>>>>> e1d4bc35ff8a6074a6f2e91616a996b547c36f15
		<tag k="natural" v="wetland" />
		<tag k="ssr:stedsnr" v="465970" />
	</node>
<<<<<<< HEAD
	<node lat="59.19220555336743" lon="9.249063883344965" id="-21601">
		<tag k="name" v="Hestemyr" />
		<tag k="natural" v="wetland" />
		<tag k="ssr:stedsnr" v="480826" />
	</node>
	<node lat="59.201138889239644" lon="9.181094439174002" id="-21604">
		<tag k="name" v="Grønnemyr" />
		<tag k="natural" v="wetland" />
		<tag k="ssr:stedsnr" v="480845" />
	</node>
	<node lat="59.241083330396144" lon="9.277538888024107" id="-21606">
		<tag k="name" v="Molta" />
		<tag k="natural" v="stone" />
		<tag k="ssr:stedsnr" v="480939" />
	</node>
	<node lat="59.33670833600119" lon="9.120388889749501" id="-21619">
=======
	<node id="-443168" lat="59.2972111129" lon="9.08890277816">
		<tag k="name" v="Skoekåsane" />
		<tag k="place" v="locality" />
		<tag k="ssr:stedsnr" v="769715" />
	</node>
	<node id="-443676" lat="59.273091669" lon="8.99362777375">
		<tag k="alt_name" v="Skinholta" />
		<tag k="name" v="Skjenholta" />
		<tag k="place" v="locality" />
		<tag k="ssr:stedsnr" v="184114" />
	</node>
	<node id="-443588" lat="59.3339192043" lon="8.98324174515">
		<tag k="name" v="Husefjellmyr" />
		<tag k="natural" v="wetland" />
		<tag k="ssr:stedsnr" v="145057" />
	</node>
	<node id="-444292" lat="59.2462055555" lon="9.35892222947">
		<tag k="name" v="Rugkåsmyra" />
		<tag k="natural" v="wetland" />
		<tag k="ssr:stedsnr" v="754485" />
	</node>
	<node id="-442414" lat="59.3117305544" lon="9.12070000617">
		<tag k="name" v="Karlshaug" />
		<tag k="place" v="locality" />
		<tag k="ssr:stedsnr" v="284658" />
	</node>
	<node id="-442637" lat="59.336708336" lon="9.12038888975">
>>>>>>> e1d4bc35ff8a6074a6f2e91616a996b547c36f15
		<tag k="name" v="Johansputtmyr" />
		<tag k="natural" v="wetland" />
		<tag k="ssr:stedsnr" v="389910" />
	</node>
<<<<<<< HEAD
	<node lat="59.15811111236566" lon="9.268991672223866" id="-21626">
		<tag k="name" v="Gjeldsmyr" />
		<tag k="natural" v="wetland" />
		<tag k="ssr:stedsnr" v="272185" />
	</node>
	<node lat="59.24088333359428" lon="9.168894436945962" id="-21627">
		<tag k="name" v="Kåsene" />
=======
	<node id="-443607" lat="59.25621667" lon="9.34777499498">
		<tag k="name" v="Vegmyr" />
		<tag k="natural" v="wetland" />
		<tag k="ssr:stedsnr" v="146244" />
	</node>
	<node id="-443655" lat="59.1963666635" lon="9.20793611088">
		<tag k="name" v="Søndre Teigemoen" />
		<tag k="place" v="locality" />
		<tag k="ssr:stedsnr" v="177851" />
	</node>
	<node id="-443654" lat="59.2016333344" lon="9.20121666995">
		<tag k="name" v="Teigemoen" />
>>>>>>> e1d4bc35ff8a6074a6f2e91616a996b547c36f15
		<tag k="place" v="locality" />
		<tag k="ssr:stedsnr" v="405291" />
	</node>
<<<<<<< HEAD
	<node lat="59.205052780813446" lon="9.239425003907451" id="-21630">
		<tag k="name" v="Viftingmyra" />
=======
	<node id="-444162" lat="59.2125666644" lon="9.095377784">
		<tag k="name" v="Svantjønnmyr" />
>>>>>>> e1d4bc35ff8a6074a6f2e91616a996b547c36f15
		<tag k="natural" v="wetland" />
		<tag k="ssr:stedsnr" v="405904" />
	</node>
<<<<<<< HEAD
	<node lat="59.281422226481844" lon="9.287605560760644" id="-21666">
		<tag k="landuse" v="quarry" />
		<tag k="name" v="Søvitt gruve" />
		<tag k="ssr:stedsnr" v="488669" />
	</node>
	<node lat="59.246591666537434" lon="9.25411111058926" id="-21682">
		<tag k="name" v="Lunnemyr" />
=======
	<node id="-444161" lat="59.2474055563" lon="9.0494277797">
		<tag k="name" v="Gongemyra" />
		<tag k="natural" v="wetland" />
		<tag k="ssr:stedsnr" v="601124" />
	</node>
	<node id="-443648" lat="59.1797999974" lon="9.2281611038">
		<tag k="name" v="Stuemyr" />
>>>>>>> e1d4bc35ff8a6074a6f2e91616a996b547c36f15
		<tag k="natural" v="wetland" />
		<tag k="ssr:stedsnr" v="420998" />
	</node>
<<<<<<< HEAD
	<node lat="59.27989721966327" lon="9.01401110981288" id="-21701">
		<tag k="name" v="Hjasemyr" />
=======
	<node id="-443605" lat="59.3245972237" lon="9.15343334177">
		<tag k="name" v="Høymyr" />
		<tag k="natural" v="wetland" />
		<tag k="ssr:stedsnr" v="146076" />
	</node>
	<node id="-442620" lat="59.3512444462" lon="9.04037500568">
		<tag k="name" v="Londalsmyra" />
>>>>>>> e1d4bc35ff8a6074a6f2e91616a996b547c36f15
		<tag k="natural" v="wetland" />
		<tag k="ssr:stedsnr" v="449225" />
	</node>
<<<<<<< HEAD
	<node lat="59.35801111296462" lon="8.97801388193106" id="-21706">
		<tag k="name" v="Langetjønnholet" />
		<tag k="place" v="locality" />
		<tag k="ssr:stedsnr" v="450210" />
	</node>
	<node lat="59.24186944386137" lon="9.318247217347187" id="-21712">
		<tag k="name" v="Tiurholet" />
=======
	<node id="-443289" lat="59.1921194438" lon="9.22639999209">
		<tag k="name" v="Sannamyra" />
		<tag k="natural" v="wetland" />
		<tag k="ssr:stedsnr" v="965827" />
	</node>
	<node id="-442751" lat="59.2195555596" lon="9.18933332984">
		<tag k="name" v="Blindmyr" />
		<tag k="natural" v="wetland" />
		<tag k="ssr:stedsnr" v="465909" />
	</node>
	<node id="-443640" lat="59.2310361096" lon="9.03387222386">
		<tag k="name" v="Paradismyrane" />
		<tag k="natural" v="wetland" />
		<tag k="ssr:stedsnr" v="177131" />
	</node>
	<node id="-442836" lat="59.2814138861" lon="8.96170555945">
		<tag k="name" v="Kaupeskogen" />
		<tag k="place" v="locality" />
		<tag k="ssr:stedsnr" v="692079" />
	</node>
	<node id="-443126" lat="59.2508916701" lon="9.29521388979">
		<tag k="name" v="Stiklemyr" />
>>>>>>> e1d4bc35ff8a6074a6f2e91616a996b547c36f15
		<tag k="natural" v="wetland" />
		<tag k="ssr:stedsnr" v="450878" />
	</node>
<<<<<<< HEAD
	<node lat="59.24014999993939" lon="9.354686105636125" id="-21714">
		<tag k="name" v="Langmyrane" />
=======
	<node id="-444149" lat="59.2395666703" lon="9.06555277964">
		<tag k="name" v="Mastekjerr" />
>>>>>>> e1d4bc35ff8a6074a6f2e91616a996b547c36f15
		<tag k="natural" v="wetland" />
		<tag k="ssr:stedsnr" v="451467" />
	</node>
<<<<<<< HEAD
	<node lat="59.21955555958371" lon="9.189333329836092" id="-21723">
		<tag k="name" v="Blindmyr" />
		<tag k="natural" v="wetland" />
		<tag k="ssr:stedsnr" v="465909" />
	</node>
	<node lat="59.25240833741666" lon="9.185422215283404" id="-21733">
		<tag k="name" v="Oremyr" />
		<tag k="natural" v="wetland" />
		<tag k="ssr:stedsnr" v="480057" />
	</node>
	<node lat="59.232713885180445" lon="9.073283339678152" id="-21787">
		<tag k="name" v="Åslandsmyr" />
=======
	<node id="-442494" lat="59.2311638929" lon="9.33365555783">
		<tag k="name" v="Huseskogen" />
		<tag k="place" v="locality" />
		<tag k="ssr:stedsnr" v="449976" />
	</node>
	<node id="-442279" lat="59.191911111" lon="9.18373332797">
		<tag k="name" v="Langemyrane" />
		<tag k="natural" v="wetland" />
		<tag k="ssr:stedsnr" v="237705" />
	</node>
	<node id="-442605" lat="59.2814222265" lon="9.28760556076">
		<tag k="landuse" v="quarry" />
		<tag k="name" v="Søvitt gruve" />
		<tag k="ssr:stedsnr" v="488669" />
	</node>
	<node id="-444140" lat="59.3657305575" lon="9.12196111336">
		<tag k="name" v="Gamlestulmyra" />
		<tag k="natural" v="wetland" />
		<tag k="ssr:stedsnr" v="571806" />
	</node>
	<node id="-443623" lat="59.3098583324" lon="9.24941111193">
		<tag k="name" v="Grindekåsa" />
		<tag k="place" v="locality" />
		<tag k="ssr:stedsnr" v="148769" />
	</node>
	<node id="-443501" lat="59.3410388908" lon="9.13236388148">
		<tag k="name" v="Husemyra" />
		<tag k="natural" v="wetland" />
		<tag k="ssr:stedsnr" v="86937" />
	</node>
	<node id="-443617" lat="59.2637749993" lon="9.29632778113">
		<tag k="name" v="Kåsahavna" />
		<tag k="place" v="locality" />
		<tag k="ssr:stedsnr" v="148234" />
	</node>
	<node id="-444127" lat="59.3772611088" lon="9.10986110551">
		<tag k="name" v="Nystulmyra" />
>>>>>>> e1d4bc35ff8a6074a6f2e91616a996b547c36f15
		<tag k="natural" v="wetland" />
		<tag k="ssr:stedsnr" v="541181" />
	</node>
<<<<<<< HEAD
	<node lat="59.23219166468956" lon="9.179661113563775" id="-21789">
		<tag k="name" v="Kudalsmyra" />
=======
	<node id="-443614" lat="59.350244447" lon="9.12356388199">
		<tag k="name" v="Saumyr" />
>>>>>>> e1d4bc35ff8a6074a6f2e91616a996b547c36f15
		<tag k="natural" v="wetland" />
		<tag k="ssr:stedsnr" v="541806" />
	</node>
<<<<<<< HEAD
	<node lat="59.16230833414619" lon="9.26565555201728" id="-21792">
		<tag k="name" v="Gjeldsmyr" />
=======
	<node id="-444124" lat="59.2749138918" lon="8.84321944311">
		<tag k="name" v="Nordvadet" />
>>>>>>> e1d4bc35ff8a6074a6f2e91616a996b547c36f15
		<tag k="natural" v="wetland" />
		<tag k="ssr:stedsnr" v="541776" />
	</node>
<<<<<<< HEAD
	<node lat="59.16237221802216" lon="9.268297225694853" id="-21793">
		<tag k="name" v="Lektemyr" />
=======
	<node id="-443099" lat="59.2294194441" lon="9.07638889324">
		<tag k="name" v="Linmyr" />
>>>>>>> e1d4bc35ff8a6074a6f2e91616a996b547c36f15
		<tag k="natural" v="wetland" />
		<tag k="ssr:stedsnr" v="541779" />
	</node>
<<<<<<< HEAD
	<node lat="59.27373055781005" lon="9.252797230386589" id="-21794">
		<tag k="landuse" v="meadow" />
		<tag k="name" v="Kåsa" />
		<tag k="ssr:stedsnr" v="541916" />
	</node>
	<node lat="59.350957417269136" lon="9.003256587645433" id="-21804">
		<tag k="historic" v="shieling" />
		<tag k="name" v="Gamlestul" />
		<tag k="place" v="locality" />
		<tag k="ssr:stedsnr" v="548270" />
	</node>
	<node lat="59.370738891730284" lon="9.118797227887049" id="-21809">
		<tag k="alt_name" v="Raudmyrane" />
		<tag k="name" v="Raumyrane" />
		<tag k="natural" v="wetland" />
		<tag k="ssr:stedsnr" v="548315" />
	</node>
	<node lat="59.285511113043455" lon="8.922577771031738" id="-21824">
		<tag k="name" v="Beinstigmyrane" />
=======
	<node id="-444122" lat="59.2961888865" lon="9.05065277371">
		<tag k="name" v="Verpekåsene" />
		<tag k="place" v="locality" />
		<tag k="ssr:stedsnr" v="570240" />
	</node>
	<node id="-444119" lat="59.268274998" lon="9.30988055626">
		<tag k="name" v="Fensmyra" />
		<tag k="place" v="locality" />
		<tag k="ssr:stedsnr" v="570195" />
	</node>
	<node id="-444118" lat="59.2803583322" lon="9.01901388073">
		<tag k="name" v="Hestemyr" />
		<tag k="natural" v="wetland" />
		<tag k="ssr:stedsnr" v="570182" />
	</node>
	<node id="-444281" lat="59.3644416631" lon="9.09657499807">
		<tag k="name" v="Slåttehaugane" />
		<tag k="place" v="locality" />
		<tag k="ssr:stedsnr" v="753551" />
	</node>
	<node id="-443595" lat="59.3461583322" lon="8.94451945082">
		<tag k="name" v="Stakamyr" />
>>>>>>> e1d4bc35ff8a6074a6f2e91616a996b547c36f15
		<tag k="natural" v="wetland" />
		<tag k="ssr:stedsnr" v="692215" />
	</node>
<<<<<<< HEAD
	<node lat="59.269622224909305" lon="9.033441664572626" id="-21825">
		<tag k="name" v="Skreddarholet" />
		<tag k="place" v="locality" />
		<tag k="ssr:stedsnr" v="692141" />
	</node>
	<node lat="59.373783334050685" lon="9.06856110371471" id="-21833">
		<tag k="name" v="Hestemyr" />
		<tag k="natural" v="wetland" />
		<tag k="ssr:stedsnr" v="692542" />
	</node>
	<node lat="59.267811112478036" lon="9.00749167504111" id="-21840">
		<tag k="name" v="Mastemyrane" />
=======
	<node id="-443594" lat="59.2868722254" lon="9.01596389324">
		<tag k="name" v="Bjorliskåta" />
		<tag k="place" v="locality" />
		<tag k="ssr:stedsnr" v="145200" />
	</node>
	<node id="-442567" lat="59.2410833304" lon="9.27753888802">
		<tag k="name" v="Molta" />
		<tag k="natural" v="stone" />
		<tag k="ssr:stedsnr" v="480939" />
	</node>
	<node id="-442566" lat="59.2011388892" lon="9.18109443917">
		<tag k="name" v="Grønnemyr" />
		<tag k="natural" v="wetland" />
		<tag k="ssr:stedsnr" v="480845" />
	</node>
	<node id="-443076" lat="59.243611108" lon="9.17666666757">
		<tag k="name" v="Puttemyrane" />
		<tag k="natural" v="wetland" />
		<tag k="ssr:stedsnr" v="723764" />
	</node>
	<node id="-443074" lat="59.2168083343" lon="9.05878055236">
		<tag k="name" v="Rolighetsmyra" />
>>>>>>> e1d4bc35ff8a6074a6f2e91616a996b547c36f15
		<tag k="natural" v="wetland" />
		<tag k="ssr:stedsnr" v="570112" />
	</node>
<<<<<<< HEAD
	<node lat="59.36573055749352" lon="9.12196111335846" id="-21852">
		<tag k="name" v="Gamlestulmyra" />
		<tag k="natural" v="wetland" />
		<tag k="ssr:stedsnr" v="571806" />
	</node>
	<node lat="59.28865833411866" lon="8.923311110547456" id="-21897">
		<tag k="alt_name" v="Tjuruhjellbakkane" />
		<tag k="name" v="Tjyrujellbakkane" />
		<tag k="place" v="locality" />
		<tag k="ssr:stedsnr" v="609139" />
	</node>
	<node lat="59.37341388794418" lon="9.113808336928074" id="-21902">
		<tag k="name" v="Hestemyr" />
=======
	<node id="-444097" lat="59.3707388917" lon="9.11879722789">
		<tag k="alt_name" v="Raudmyrane" />
		<tag k="name" v="Raumyrane" />
		<tag k="natural" v="wetland" />
		<tag k="ssr:stedsnr" v="548315" />
	</node>
	<node id="-444094" lat="59.3509574173" lon="9.00325658765">
		<tag k="historic" v="shieling" />
		<tag k="name" v="Gamlestul" />
		<tag k="place" v="locality" />
		<tag k="ssr:stedsnr" v="548270" />
	</node>
	<node id="-443067" lat="59.2903999999" lon="9.21538610351">
		<tag k="name" v="Danmark" />
		<tag k="place" v="locality" />
		<tag k="ssr:stedsnr" v="890936" />
	</node>
	<node id="-442399" lat="59.147724998" lon="9.17325277355">
		<tag k="name" v="Ragnhildmyr" />
		<tag k="natural" v="wetland" />
		<tag k="ssr:stedsnr" v="162664" />
	</node>
	<node id="-443064" lat="59.2062527755" lon="9.26982777167">
		<tag k="name" v="Dåpan" />
>>>>>>> e1d4bc35ff8a6074a6f2e91616a996b547c36f15
		<tag k="natural" v="wetland" />
		<tag k="ssr:stedsnr" v="630548" />
	</node>
<<<<<<< HEAD
	<node lat="59.27797777831831" lon="8.95457777412673" id="-21905">
		<tag k="historic" v="shieling" />
		<tag k="name" v="Kleivstul" />
		<tag k="place" v="locality" />
		<tag k="ssr:stedsnr" v="631082" />
	</node>
	<node lat="59.269683334062" lon="9.202502779903387" id="-21924">
		<tag k="name" v="Pølsemyr" />
		<tag k="natural" v="wetland" />
		<tag k="ssr:stedsnr" v="647946" />
	</node>
	<node lat="59.24566666409216" lon="9.278236117674004" id="-21949">
		<tag k="name" v="Grasmyr" />
=======
	<node id="-443055" lat="59.159636109" lon="9.19284443937">
		<tag k="name" v="Åstjønnslåtta" />
		<tag k="natural" v="wetland" />
		<tag k="ssr:stedsnr" v="890692" />
	</node>
	<node id="-443051" lat="59.2347777778" lon="9.13865555834">
		<tag k="name" v="Grønne myra" />
>>>>>>> e1d4bc35ff8a6074a6f2e91616a996b547c36f15
		<tag k="natural" v="wetland" />
		<tag k="ssr:stedsnr" v="662930" />
	</node>
<<<<<<< HEAD
	<node lat="59.37573333754318" lon="9.057244448781447" id="-21959">
		<tag k="alt_name" v="Drigelsmyrane" />
		<tag k="name" v="Dregilsmyrane" />
=======
	<node id="-443050" lat="59.2480527807" lon="9.15268611096">
		<tag k="name" v="Grinimyrane" />
>>>>>>> e1d4bc35ff8a6074a6f2e91616a996b547c36f15
		<tag k="natural" v="wetland" />
		<tag k="ssr:stedsnr" v="669318" />
	</node>
<<<<<<< HEAD
	<node lat="59.26832778174492" lon="9.310394453199304" id="-21990">
=======
	<node id="-442652" lat="59.2050527808" lon="9.23942500391">
		<tag k="name" v="Viftingmyra" />
		<tag k="natural" v="wetland" />
		<tag k="ssr:stedsnr" v="405904" />
	</node>
	<node id="-443043" lat="59.2683277817" lon="9.3103944532">
>>>>>>> e1d4bc35ff8a6074a6f2e91616a996b547c36f15
		<tag k="name" v="Fensmyra" />
		<tag k="natural" v="wetland" />
		<tag k="ssr:stedsnr" v="890158" />
	</node>
<<<<<<< HEAD
	<node lat="59.159636109009014" lon="9.192844439368193" id="-21995">
		<tag k="name" v="Åstjønnslåtta" />
=======
	<node id="-444064" lat="59.2737305578" lon="9.25279723039">
		<tag k="landuse" v="meadow" />
		<tag k="name" v="Kåsa" />
		<tag k="ssr:stedsnr" v="541916" />
	</node>
	<node id="-442992" lat="59.3461416661" lon="9.0136138905">
		<tag k="name" v="Flotine" />
		<tag k="place" v="locality" />
		<tag k="ssr:stedsnr" v="730272" />
	</node>
	<node id="-444057" lat="59.1912944424" lon="9.24697499148">
		<tag k="name" v="Kinnemyr" />
>>>>>>> e1d4bc35ff8a6074a6f2e91616a996b547c36f15
		<tag k="natural" v="wetland" />
		<tag k="ssr:stedsnr" v="890692" />
	</node>
<<<<<<< HEAD
	<node lat="59.29039999992675" lon="9.215386103507534" id="-22002">
		<tag k="name" v="Danmark" />
		<tag k="place" v="locality" />
		<tag k="ssr:stedsnr" v="890936" />
	</node>
	<node lat="59.28141388606538" lon="8.961705559447134" id="-22005">
		<tag k="name" v="Kaupeskogen" />
		<tag k="place" v="locality" />
		<tag k="ssr:stedsnr" v="692079" />
	</node>
	<node lat="59.29164721853841" lon="8.855675000433026" id="-22070">
		<tag k="name" v="Trolldalen" />
		<tag k="place" v="locality" />
		<tag k="ssr:stedsnr" v="752415" />
	</node>
	<node lat="59.31689722175357" lon="9.171191663362782" id="-22072">
		<tag k="name" v="Grindrudmyra" />
=======
	<node id="-442564" lat="59.1922055534" lon="9.24906388334">
		<tag k="name" v="Hestemyr" />
		<tag k="natural" v="wetland" />
		<tag k="ssr:stedsnr" v="480826" />
	</node>
	<node id="-442512" lat="59.1567444429" lon="9.25598610501">
		<tag k="name" v="Skræpemyr" />
		<tag k="natural" v="wetland" />
		<tag k="ssr:stedsnr" v="454193" />
	</node>
	<node id="-443533" lat="59.2033472196" lon="9.20729722199">
		<tag k="name" v="Ormegården" />
		<tag k="place" v="locality" />
		<tag k="ssr:stedsnr" v="116686" />
	</node>
	<node id="-443532" lat="59.2014027823" lon="9.22085000305">
		<tag k="name" v="Bordmyr" />
>>>>>>> e1d4bc35ff8a6074a6f2e91616a996b547c36f15
		<tag k="natural" v="wetland" />
		<tag k="ssr:stedsnr" v="753059" />
	</node>
<<<<<<< HEAD
	<node lat="59.250891670094845" lon="9.295213889787972" id="-22074">
		<tag k="name" v="Stiklemyr" />
=======
	<node id="-444043" lat="59.2359333304" lon="9.07518888395">
		<tag k="name" v="Kloppmyr" />
>>>>>>> e1d4bc35ff8a6074a6f2e91616a996b547c36f15
		<tag k="natural" v="wetland" />
		<tag k="ssr:stedsnr" v="753123" />
	</node>
<<<<<<< HEAD
	<node lat="59.236983334037944" lon="9.022211109074444" id="-22084">
		<tag k="name" v="Stakemyr" />
=======
	<node id="-444042" lat="59.2327138852" lon="9.07328333968">
		<tag k="name" v="Åslandsmyr" />
>>>>>>> e1d4bc35ff8a6074a6f2e91616a996b547c36f15
		<tag k="natural" v="wetland" />
		<tag k="ssr:stedsnr" v="905142" />
	</node>
<<<<<<< HEAD
	<node lat="59.2294194440653" lon="9.076388893243736" id="-22085">
		<tag k="name" v="Linmyr" />
=======
	<node id="-443529" lat="59.1736527813" lon="9.248402776">
		<tag k="name" v="Porsmyr" />
>>>>>>> e1d4bc35ff8a6074a6f2e91616a996b547c36f15
		<tag k="natural" v="wetland" />
		<tag k="ssr:stedsnr" v="905183" />
	</node>
<<<<<<< HEAD
	<node lat="59.19510000037" lon="9.241733326992597" id="-22099">
		<tag k="name" v="Milene" />
		<tag k="place" v="locality" />
		<tag k="ssr:stedsnr" v="905873" />
	</node>
	<node lat="59.29721111292706" lon="9.088902778163295" id="-22109">
		<tag k="name" v="Skoekåsane" />
		<tag k="place" v="locality" />
		<tag k="ssr:stedsnr" v="769715" />
	</node>
	<node lat="59.22797221978059" lon="9.19436389253617" id="-22117">
		<tag k="name" v="Moltemyr" />
=======
	<node id="-442503" lat="59.2418694439" lon="9.31824721735">
		<tag k="name" v="Tiurholet" />
		<tag k="natural" v="wetland" />
		<tag k="ssr:stedsnr" v="450878" />
	</node>
	<node id="-444550" lat="59.1872555514" lon="9.20211944848">
		<tag k="name" v="Gryta" />
		<tag k="natural" v="wetland" />
		<tag k="ssr:stedsnr" v="965688" />
	</node>
	<node id="-443525" lat="59.2672750037" lon="9.0783277785">
		<tag k="name" v="Moltemyrane" />
>>>>>>> e1d4bc35ff8a6074a6f2e91616a996b547c36f15
		<tag k="natural" v="wetland" />
		<tag k="ssr:stedsnr" v="783806" />
	</node>
<<<<<<< HEAD
	<node lat="59.234416662575974" lon="9.243327786338916" id="-22125">
		<tag k="alt_name" v="Tveitstulmyr" />
		<tag k="name" v="Tveitstulmyra" />
		<tag k="natural" v="wetland" />
		<tag k="ssr:stedsnr" v="790052" />
	</node>
	<node lat="59.37888611090805" lon="9.081822228245557" id="-22157">
		<tag k="name" v="Flatine" />
		<tag k="place" v="locality" />
		<tag k="ssr:stedsnr" v="813526" />
	</node>
	<node lat="59.31476111008458" lon="9.11833888475735" id="-22158">
		<tag k="name" v="Lundekåsene" />
		<tag k="place" v="locality" />
		<tag k="ssr:stedsnr" v="814083" />
	</node>
	<node lat="59.316702777312145" lon="9.155541659665742" id="-22159">
		<tag k="name" v="Lintjønnmyra" />
		<tag k="natural" v="wetland" />
		<tag k="ssr:stedsnr" v="814092" />
	</node>
	<node lat="59.25455833384625" lon="9.3497805589936" id="-22166">
		<tag k="name" v="Helgjaskogen" />
		<tag k="place" v="locality" />
		<tag k="ssr:stedsnr" v="814328" />
	</node>
	<node lat="59.3368638891412" lon="9.110077784264371" id="-22168">
		<tag k="name" v="Liaåsen" />
		<tag k="place" v="locality" />
		<tag k="ssr:stedsnr" v="814717" />
	</node>
	<node lat="59.17195833380026" lon="9.231625000682607" id="-22188">
		<tag k="name" v="Børtekåsa" />
		<tag k="place" v="locality" />
		<tag k="ssr:stedsnr" v="844787" />
	</node>
	<node lat="59.22804444560021" lon="9.191055559338475" id="-22189">
		<tag k="name" v="Bordmyr" />
		<tag k="natural" v="wetland" />
		<tag k="ssr:stedsnr" v="844795" />
	</node>
	<node lat="59.28122222518715" lon="9.286452772312016" id="-22192">
		<tag k="landuse" v="quarry" />
		<tag k="name" v="Norsk bergverk" />
		<tag k="ssr:stedsnr" v="845113" />
	</node>
	<node lat="59.34783888746493" lon="9.080813887434902" id="-22225">
		<tag k="name" v="Geitemyr" />
=======
	<node id="-442731" lat="59.2507611136" lon="9.15178332711">
		<tag k="name" v="Buverudmyrane" />
		<tag k="natural" v="wetland" />
		<tag k="ssr:stedsnr" v="662627" />
	</node>
	<node id="-443259" lat="59.2561583308" lon="9.21312222013">
		<tag k="name" v="Setermyr" />
		<tag k="natural" v="wetland" />
		<tag k="ssr:stedsnr" v="906054" />
	</node>
	<node id="-444030" lat="59.2410916626" lon="9.24422777907">
		<tag k="name" v="Valsteinmyra" />
		<tag k="natural" v="wetland" />
		<tag k="ssr:stedsnr" v="526997" />
	</node>
	<node id="-444028" lat="59.2246999957" lon="9.19938334052">
		<tag k="name" v="Bergmyr" />
		<tag k="natural" v="wetland" />
		<tag k="ssr:stedsnr" v="526980" />
	</node>
	<node id="-443512" lat="59.2403722238" lon="9.0764166619">
		<tag k="name" v="Stormyr" />
		<tag k="natural" v="wetland" />
		<tag k="ssr:stedsnr" v="101287" />
	</node>
	<node id="-443507" lat="59.1634583345" lon="9.18160277886">
		<tag k="name" v="Skrubbedalen" />
		<tag k="place" v="locality" />
		<tag k="ssr:stedsnr" v="100603" />
	</node>
	<node id="-444018" lat="59.2567055515" lon="9.31102499372">
		<tag k="name" v="Sigurdsmyrane" />
>>>>>>> e1d4bc35ff8a6074a6f2e91616a996b547c36f15
		<tag k="natural" v="wetland" />
		<tag k="ssr:stedsnr" v="934631" />
	</node>
<<<<<<< HEAD
	<node lat="59.28012222103685" lon="8.829677772110706" id="-22230">
		<tag k="name" v="Vintereidet" />
=======
	<node id="-443504" lat="59.2393916707" lon="9.35650278006">
		<tag k="name" v="Bekamyr" />
>>>>>>> e1d4bc35ff8a6074a6f2e91616a996b547c36f15
		<tag k="natural" v="wetland" />
		<tag k="ssr:stedsnr" v="935397" />
	</node>
<<<<<<< HEAD
	<node lat="59.234777777759525" lon="9.138655558340245" id="-22232">
		<tag k="name" v="Grønne myra" />
=======
	<node id="-444527" lat="59.3649861141" lon="9.12191111899">
		<tag k="name" v="Trandlemyr" />
>>>>>>> e1d4bc35ff8a6074a6f2e91616a996b547c36f15
		<tag k="natural" v="wetland" />
		<tag k="ssr:stedsnr" v="890304" />
	</node>
<<<<<<< HEAD
	<node lat="59.2480527806617" lon="9.152686110955429" id="-22233">
		<tag k="name" v="Grinimyrane" />
=======
	<node id="-444525" lat="59.350063888" lon="9.11266110476">
		<tag k="name" v="Saumyr" />
>>>>>>> e1d4bc35ff8a6074a6f2e91616a996b547c36f15
		<tag k="natural" v="wetland" />
		<tag k="ssr:stedsnr" v="890295" />
	</node>
<<<<<<< HEAD
	<node lat="59.20625277550952" lon="9.26982777166502" id="-22235">
		<tag k="name" v="Dåpan" />
		<tag k="natural" v="wetland" />
		<tag k="ssr:stedsnr" v="890911" />
	</node>
	<node lat="59.19491666940831" lon="9.225522214325581" id="-22254">
		<tag k="name" v="Himingmyra" />
=======
	<node id="-444522" lat="59.2041027737" lon="9.29628888202">
		<tag k="name" v="Struvannsmyr" />
>>>>>>> e1d4bc35ff8a6074a6f2e91616a996b547c36f15
		<tag k="natural" v="wetland" />
		<tag k="ssr:stedsnr" v="905872" />
	</node>
<<<<<<< HEAD
	<node lat="59.25615833078412" lon="9.2131222201288" id="-22255">
		<tag k="name" v="Setermyr" />
		<tag k="natural" v="wetland" />
		<tag k="ssr:stedsnr" v="906054" />
	</node>
	<node lat="59.24903610848339" lon="9.24875000401436" id="-22257">
		<tag k="alt_name" v="Stormyr" />
		<tag k="name" v="Stormyra" />
=======
	<node id="-443489" lat="59.3461888863" lon="9.07195832481">
		<tag k="name" v="Sandbekk-kåsa" />
		<tag k="place" v="locality" />
		<tag k="ssr:stedsnr" v="85616" />
	</node>
	<node id="-442725" lat="59.2412333332" lon="9.18814166721">
		<tag k="historic" v="shieling" />
		<tag k="name" v="Hovlandsstulen" />
		<tag k="place" v="locality" />
		<tag k="ssr:stedsnr" v="662784" />
	</node>
	<node id="-442678" lat="59.2490416627" lon="9.29639167503">
		<tag k="name" v="Moltemyr" />
>>>>>>> e1d4bc35ff8a6074a6f2e91616a996b547c36f15
		<tag k="natural" v="wetland" />
		<tag k="ssr:stedsnr" v="511176" />
	</node>
<<<<<<< HEAD
	<node lat="59.30240277720088" lon="8.959005556117875" id="-22282">
		<tag k="name" v="Søledike" />
=======
	<node id="-443991" lat="59.2356027773" lon="9.09722499891">
		<tag k="alt_name" v="Langemyr" />
		<tag k="name" v="Langmyra" />
>>>>>>> e1d4bc35ff8a6074a6f2e91616a996b547c36f15
		<tag k="natural" v="wetland" />
		<tag k="ssr:stedsnr" v="934017" />
	</node>
<<<<<<< HEAD
	<node lat="59.18725555142007" lon="9.202119448481616" id="-22303">
		<tag k="name" v="Gryta" />
=======
	<node id="-443475" lat="59.3459722197" lon="8.96822500649">
		<tag k="name" v="Kudalsmyra" />
>>>>>>> e1d4bc35ff8a6074a6f2e91616a996b547c36f15
		<tag k="natural" v="wetland" />
		<tag k="ssr:stedsnr" v="965688" />
	</node>
<<<<<<< HEAD
	<node lat="59.25102499582935" lon="9.24178055940308" id="-22338">
		<tag k="alt_name" v="Vindsåsmyr" />
		<tag k="name" v="Vindsåsmyra" />
=======
	<node id="-443474" lat="59.2780833376" lon="9.10335000593">
		<tag k="name" v="Torvmyr" />
>>>>>>> e1d4bc35ff8a6074a6f2e91616a996b547c36f15
		<tag k="natural" v="wetland" />
		<tag k="ssr:stedsnr" v="2682" />
	</node>
<<<<<<< HEAD
	<node lat="59.28916111349241" lon="9.001141673625387" id="-22350">
		<tag k="name" v="Bjørnemyr" />
=======
	<node id="-443985" lat="59.2465916665" lon="9.25411111059">
		<tag k="name" v="Lunnemyr" />
>>>>>>> e1d4bc35ff8a6074a6f2e91616a996b547c36f15
		<tag k="natural" v="wetland" />
		<tag k="ssr:stedsnr" v="24094" />
	</node>
<<<<<<< HEAD
	<node lat="59.32032777808761" lon="8.934786106422466" id="-22353">
		<tag k="name" v="Grasfjellmyra" />
=======
	<node id="-442492" lat="59.3196694464" lon="9.10086389366">
		<tag k="name" v="Enggravskåsene" />
		<tag k="place" v="locality" />
		<tag k="ssr:stedsnr" v="449751" />
	</node>
	<node id="-442955" lat="59.1886055565" lon="9.24893610977">
		<tag k="name" v="Kirkemyr" />
>>>>>>> e1d4bc35ff8a6074a6f2e91616a996b547c36f15
		<tag k="natural" v="wetland" />
		<tag k="ssr:stedsnr" v="24143" />
	</node>
<<<<<<< HEAD
	<node lat="59.24749721911172" lon="9.149486116875378" id="-22372">
		<tag k="name" v="Sortemyr" />
		<tag k="natural" v="wetland" />
		<tag k="ssr:stedsnr" v="41292" />
	</node>
	<node lat="59.278083337608926" lon="9.103350005934963" id="-22446">
		<tag k="name" v="Torvmyr" />
=======
	<node id="-443977" lat="59.1987638846" lon="9.26711388963">
		<tag k="name" v="Hestehaugen" />
		<tag k="place" v="locality" />
		<tag k="ssr:stedsnr" v="420869" />
	</node>
	<node id="-443257" lat="59.1949166694" lon="9.22552221433">
		<tag k="name" v="Himingmyra" />
		<tag k="natural" v="wetland" />
		<tag k="ssr:stedsnr" v="905872" />
	</node>
	<node id="-444483" lat="59.1526222187" lon="9.23571111827">
		<tag k="name" v="Starrhullmyr" />
>>>>>>> e1d4bc35ff8a6074a6f2e91616a996b547c36f15
		<tag k="natural" v="wetland" />
		<tag k="ssr:stedsnr" v="72376" />
	</node>
<<<<<<< HEAD
	<node lat="59.3459722197336" lon="8.96822500649036" id="-22451">
		<tag k="name" v="Kudalsmyra" />
=======
	<node id="-442430" lat="59.2241472257" lon="9.12595277676">
		<tag k="name" v="Sandalsmyra" />
>>>>>>> e1d4bc35ff8a6074a6f2e91616a996b547c36f15
		<tag k="natural" v="wetland" />
		<tag k="ssr:stedsnr" v="85075" />
	</node>
<<<<<<< HEAD
	<node lat="59.346188886330374" lon="9.071958324813586" id="-22456">
		<tag k="name" v="Sandbekk-kåsa" />
		<tag k="place" v="locality" />
		<tag k="ssr:stedsnr" v="85616" />
	</node>
	<node lat="59.360599999045874" lon="9.106641672251627" id="-22462">
		<tag k="name" v="Hellekåsmyra" />
		<tag k="natural" v="wetland" />
		<tag k="ssr:stedsnr" v="85556" />
	</node>
	<node lat="59.34103889078281" lon="9.132363881481506" id="-22471">
		<tag k="name" v="Husemyra" />
=======
	<node id="-442428" lat="59.2723749982" lon="9.20423333275">
		<tag k="name" v="Svemyra" />
		<tag k="natural" v="wetland" />
		<tag k="ssr:stedsnr" v="284953" />
	</node>
	<node id="-444475" lat="59.2812222252" lon="9.28645277231">
		<tag k="landuse" v="quarry" />
		<tag k="name" v="Norsk bergverk" />
		<tag k="ssr:stedsnr" v="845113" />
	</node>
	<node id="-444471" lat="59.2286888895" lon="9.27853332873">
		<tag k="name" v="Dammannsmyra" />
>>>>>>> e1d4bc35ff8a6074a6f2e91616a996b547c36f15
		<tag k="natural" v="wetland" />
		<tag k="ssr:stedsnr" v="86937" />
	</node>
<<<<<<< HEAD
	<node lat="59.2393916706812" lon="9.356502780063929" id="-22472">
		<tag k="name" v="Bekamyr" />
=======
	<node id="-442421" lat="59.227755553" lon="9.07194166216">
		<tag k="name" v="Bikkjemyr" />
>>>>>>> e1d4bc35ff8a6074a6f2e91616a996b547c36f15
		<tag k="natural" v="wetland" />
		<tag k="ssr:stedsnr" v="87449" />
	</node>
<<<<<<< HEAD
	<node lat="59.240372223770784" lon="9.07641666189602" id="-22481">
		<tag k="name" v="Stormyr" />
		<tag k="natural" v="wetland" />
		<tag k="ssr:stedsnr" v="101287" />
	</node>
	<node lat="59.2117166646792" lon="9.088041666724886" id="-22488">
		<tag k="name" v="Langoddemyr" />
=======
	<node id="-444468" lat="59.1689194403" lon="9.18706388034">
		<tag k="name" v="Eikestubbane" />
		<tag k="place" v="locality" />
		<tag k="ssr:stedsnr" v="844861" />
	</node>
	<node id="-444466" lat="59.233108332" lon="9.21415833821">
		<tag k="name" v="Grønnlimyra" />
>>>>>>> e1d4bc35ff8a6074a6f2e91616a996b547c36f15
		<tag k="natural" v="wetland" />
		<tag k="ssr:stedsnr" v="116310" />
	</node>
<<<<<<< HEAD
	<node lat="59.20140278225834" lon="9.22085000304905" id="-22490">
=======
	<node id="-444464" lat="59.2280444456" lon="9.19105555934">
>>>>>>> e1d4bc35ff8a6074a6f2e91616a996b547c36f15
		<tag k="name" v="Bordmyr" />
		<tag k="natural" v="wetland" />
		<tag k="ssr:stedsnr" v="116684" />
	</node>
<<<<<<< HEAD
	<node lat="59.203347219620355" lon="9.207297221985074" id="-22491">
		<tag k="name" v="Ormegården" />
=======
	<node id="-444463" lat="59.1719583338" lon="9.23162500068">
		<tag k="name" v="Børtekåsa" />
>>>>>>> e1d4bc35ff8a6074a6f2e91616a996b547c36f15
		<tag k="place" v="locality" />
		<tag k="ssr:stedsnr" v="116686" />
	</node>
<<<<<<< HEAD
	<node lat="59.17756388821437" lon="9.21443055832472" id="-22495">
		<tag k="name" v="Stulsmyr" />
=======
	<node id="-444462" lat="59.1784583378" lon="9.23299165915">
		<tag k="name" v="Timlandmyr" />
>>>>>>> e1d4bc35ff8a6074a6f2e91616a996b547c36f15
		<tag k="natural" v="wetland" />
		<tag k="ssr:stedsnr" v="116834" />
	</node>
<<<<<<< HEAD
	<node lat="59.16231389250046" lon="9.230669447398185" id="-22496">
		<tag k="name" v="Middagsmyra" />
		<tag k="natural" v="wetland" />
		<tag k="ssr:stedsnr" v="116845" />
	</node>
	<node lat="59.3339192043235" lon="8.983241745149721" id="-22532">
		<tag k="name" v="Husefjellmyr" />
		<tag k="natural" v="wetland" />
		<tag k="ssr:stedsnr" v="145057" />
	</node>
	<node lat="59.286872225385885" lon="9.015963893242924" id="-22536">
		<tag k="name" v="Bjorliskåta" />
=======
	<node id="-444461" lat="59.1966444466" lon="9.21930000631">
		<tag k="name" v="Brannbukkmyra" />
		<tag k="natural" v="wetland" />
		<tag k="ssr:stedsnr" v="844700" />
	</node>
	<node id="-443946" lat="59.2822722239" lon="9.20615554813">
		<tag k="name" v="Skedsmosletta" />
		<tag k="place" v="locality" />
		<tag k="ssr:stedsnr" v="405932" />
	</node>
	<node id="-443944" lat="59.2165555539" lon="9.23372222435">
		<tag k="name" v="Søndre myra" />
		<tag k="natural" v="wetland" />
		<tag k="ssr:stedsnr" v="405891" />
	</node>
	<node id="-442913" lat="59.2777861067" lon="9.22436110553">
		<tag k="name" v="Almankåsa" />
		<tag k="place" v="locality" />
		<tag k="ssr:stedsnr" v="586917" />
	</node>
	<node id="-443936" lat="59.2408833336" lon="9.16889443695">
		<tag k="name" v="Kåsene" />
		<tag k="place" v="locality" />
		<tag k="ssr:stedsnr" v="405291" />
	</node>
	<node id="-444447" lat="59.2105194431" lon="9.24383333726">
		<tag k="name" v="Bjørnen" />
>>>>>>> e1d4bc35ff8a6074a6f2e91616a996b547c36f15
		<tag k="place" v="locality" />
		<tag k="ssr:stedsnr" v="145200" />
	</node>
<<<<<<< HEAD
	<node lat="59.34615833219059" lon="8.944519450817603" id="-22537">
		<tag k="name" v="Stakamyr" />
=======
	<node id="-444446" lat="59.2145444424" lon="9.25830832736">
		<tag k="name" v="Røymyr" />
>>>>>>> e1d4bc35ff8a6074a6f2e91616a996b547c36f15
		<tag k="natural" v="wetland" />
		<tag k="ssr:stedsnr" v="145218" />
	</node>
<<<<<<< HEAD
	<node lat="59.256216670011376" lon="9.34777499498178" id="-22548">
		<tag k="name" v="Vegmyr" />
		<tag k="natural" v="wetland" />
		<tag k="ssr:stedsnr" v="146244" />
	</node>
	<node lat="59.26377499931391" lon="9.296327781126143" id="-22554">
		<tag k="name" v="Kåsahavna" />
=======
	<node id="-443932" lat="59.1601305599" lon="9.25713889544">
		<tag k="name" v="Tiurleiken" />
>>>>>>> e1d4bc35ff8a6074a6f2e91616a996b547c36f15
		<tag k="place" v="locality" />
		<tag k="ssr:stedsnr" v="148234" />
	</node>
<<<<<<< HEAD
	<node lat="59.14772499804405" lon="9.173252773550317" id="-22569">
		<tag k="name" v="Ragnhildmyr" />
		<tag k="natural" v="wetland" />
		<tag k="ssr:stedsnr" v="162664" />
	</node>
	<node lat="59.231036109596374" lon="9.033872223856573" id="-22574">
		<tag k="name" v="Paradismyrane" />
		<tag k="natural" v="wetland" />
		<tag k="ssr:stedsnr" v="177131" />
	</node>
	<node lat="59.22775555298148" lon="9.071941662161667" id="-22579">
		<tag k="name" v="Bikkjemyr" />
=======
	<node id="-442710" lat="59.2798972197" lon="9.01401110981">
		<tag k="name" v="Hjasemyr" />
		<tag k="natural" v="wetland" />
		<tag k="ssr:stedsnr" v="449225" />
	</node>
	<node id="-443928" lat="59.3263027815" lon="9.18612777806">
		<tag k="name" v="Bråtemyra" />
		<tag k="natural" v="wetland" />
		<tag k="ssr:stedsnr" v="390473" />
	</node>
	<node id="-442384" lat="59.1581111124" lon="9.26899167222">
		<tag k="name" v="Gjeldsmyr" />
>>>>>>> e1d4bc35ff8a6074a6f2e91616a996b547c36f15
		<tag k="natural" v="wetland" />
		<tag k="ssr:stedsnr" v="177176" />
	</node>
<<<<<<< HEAD
	<node lat="59.17979999740718" lon="9.228161103795717" id="-22584">
		<tag k="name" v="Stuemyr" />
		<tag k="natural" v="wetland" />
		<tag k="ssr:stedsnr" v="177785" />
	</node>
	<node lat="59.201633334357304" lon="9.201216669948224" id="-22590">
		<tag k="name" v="Teigemoen" />
=======
	<node id="-442712" lat="59.358011113" lon="8.97801388193">
		<tag k="name" v="Langetjønnholet" />
		<tag k="place" v="locality" />
		<tag k="ssr:stedsnr" v="450210" />
	</node>
	<node id="-444430" lat="59.3368638891" lon="9.11007778426">
		<tag k="name" v="Liaåsen" />
>>>>>>> e1d4bc35ff8a6074a6f2e91616a996b547c36f15
		<tag k="place" v="locality" />
		<tag k="ssr:stedsnr" v="177847" />
	</node>
<<<<<<< HEAD
	<node lat="59.19636666347167" lon="9.207936110877212" id="-22591">
		<tag k="name" v="Søndre Teigemoen" />
=======
	<node id="-443403" lat="59.2464749979" lon="9.17932499925">
		<tag k="historic" v="shieling" />
		<tag k="name" v="Gamlestul" />
>>>>>>> e1d4bc35ff8a6074a6f2e91616a996b547c36f15
		<tag k="place" v="locality" />
		<tag k="ssr:stedsnr" v="177851" />
	</node>
<<<<<<< HEAD
	<node lat="59.22414722567026" lon="9.12595277675823" id="-22616">
		<tag k="name" v="Sandalsmyra" />
=======
	<node id="-444425" lat="59.2584027774" lon="8.86671944147">
		<tag k="name" v="Velsignamyr" />
>>>>>>> e1d4bc35ff8a6074a6f2e91616a996b547c36f15
		<tag k="natural" v="wetland" />
		<tag k="ssr:stedsnr" v="193421" />
	</node>
<<<<<<< HEAD
	<node lat="59.31032222549853" lon="8.990672229997593" id="-22618">
		<tag k="name" v="Dalamyra" />
		<tag k="natural" v="wetland" />
		<tag k="ssr:stedsnr" v="206034" />
	</node>
	<node lat="59.28328889086171" lon="8.901033333653764" id="-22622">
		<tag k="name" v="Røssmyrane" />
		<tag k="natural" v="wetland" />
		<tag k="ssr:stedsnr" v="206279" />
	</node>
	<node lat="59.288944445370234" lon="8.853180550263275" id="-22624">
		<tag k="name" v="Dagsbeitet" />
=======
	<node id="-442888" lat="59.2392333317" lon="9.28701944117">
		<tag k="name" v="Lauvkaret" />
		<tag k="place" v="locality" />
		<tag k="ssr:stedsnr" v="571860" />
	</node>
	<node id="-444421" lat="59.2545583338" lon="9.34978055899">
		<tag k="name" v="Helgjaskogen" />
>>>>>>> e1d4bc35ff8a6074a6f2e91616a996b547c36f15
		<tag k="place" v="locality" />
		<tag k="ssr:stedsnr" v="206415" />
	</node>
<<<<<<< HEAD
	<node lat="59.241805556071974" lon="9.308222217422937" id="-22635">
		<tag k="name" v="Spennilsmyr" />
		<tag k="natural" v="wetland" />
		<tag k="ssr:stedsnr" v="207871" />
	</node>
	<node lat="59.20750833721011" lon="9.079430563317546" id="-22661">
		<tag k="name" v="Einstabbkjerret" />
		<tag k="natural" v="wetland" />
		<tag k="ssr:stedsnr" v="284364" />
	</node>
	<node lat="59.31173055444505" lon="9.120700006168297" id="-22662">
		<tag k="name" v="Karlshaug" />
=======
	<node id="-442884" lat="59.3691555593" lon="9.0981333263">
		<tag k="name" v="Rugkåsa" />
>>>>>>> e1d4bc35ff8a6074a6f2e91616a996b547c36f15
		<tag k="place" v="locality" />
		<tag k="ssr:stedsnr" v="284658" />
	</node>
<<<<<<< HEAD
	<node lat="59.27237499823664" lon="9.204233332753681" id="-22668">
		<tag k="name" v="Svemyra" />
		<tag k="natural" v="wetland" />
		<tag k="ssr:stedsnr" v="284953" />
	</node>
	<node lat="59.16705000288985" lon="9.242363894691024" id="-22679">
		<tag k="name" v="Langmyr" />
		<tag k="natural" v="wetland" />
		<tag k="ssr:stedsnr" v="298732" />
	</node>
	<node lat="59.23721388541494" lon="9.358230559362168" id="-22745">
		<tag k="name" v="Moltemyr" />
		<tag k="natural" v="wetland" />
		<tag k="ssr:stedsnr" v="329438" />
	</node>
	<node lat="59.24578611159762" lon="9.347588886855547" id="-22747">
		<tag k="name" v="Skytterbanemyra" />
		<tag k="natural" v="wetland" />
		<tag k="ssr:stedsnr" v="329450" />
	</node>
	<node lat="59.16145278213476" lon="9.231941672796024" id="-22777">
		<tag k="name" v="Middagsmyra" />
		<tag k="natural" v="wetland" />
		<tag k="ssr:stedsnr" v="359678" />
	</node>
	<node lat="59.16653055330588" lon="9.275625001699998" id="-22780">
		<tag k="name" v="Morgedalsmyra" />
		<tag k="natural" v="wetland" />
		<tag k="ssr:stedsnr" v="359771" />
	</node>
	<node lat="59.351244446201626" lon="9.040375005682762" id="-22814">
		<tag k="name" v="Londalsmyra" />
		<tag k="natural" v="wetland" />
		<tag k="ssr:stedsnr" v="388326" />
	</node>
	<node lat="59.326302781545294" lon="9.186127778056443" id="-22844">
		<tag k="name" v="Bråtemyra" />
		<tag k="natural" v="wetland" />
		<tag k="ssr:stedsnr" v="390473" />
	</node>
	<node lat="59.16013055993284" lon="9.257138895440875" id="-22849">
		<tag k="name" v="Tiurleiken" />
		<tag k="place" v="locality" />
		<tag k="ssr:stedsnr" v="393190" />
	</node>
	<node lat="59.21655555386245" lon="9.23372222435372" id="-22861">
		<tag k="name" v="Søndre myra" />
		<tag k="natural" v="wetland" />
		<tag k="ssr:stedsnr" v="405891" />
	</node>
	<node lat="59.282272223949306" lon="9.206155548132475" id="-22863">
		<tag k="name" v="Skedsmosletta" />
		<tag k="place" v="locality" />
		<tag k="ssr:stedsnr" v="405932" />
	</node>
	<node lat="59.19876388457049" lon="9.267113889633897" id="-22891">
		<tag k="name" v="Hestehaugen" />
		<tag k="place" v="locality" />
		<tag k="ssr:stedsnr" v="420869" />
	</node>
	<node lat="59.235602777297075" lon="9.097224998905928" id="-22898">
		<tag k="alt_name" v="Langemyr" />
		<tag k="name" v="Langmyra" />
		<tag k="natural" v="wetland" />
		<tag k="ssr:stedsnr" v="426362" />
	</node>
	<node lat="59.25670555153939" lon="9.311024993719993" id="-22923">
		<tag k="name" v="Sigurdsmyrane" />
		<tag k="natural" v="wetland" />
		<tag k="ssr:stedsnr" v="427661" />
	</node>
	<node lat="59.25156110980839" lon="9.28902776902312" id="-22939">
		<tag k="name" v="Stiklemyr" />
		<tag k="natural" v="wetland" />
		<tag k="ssr:stedsnr" v="510149" />
	</node>
	<node lat="59.2368944404733" lon="9.330747225286713" id="-22947">
		<tag k="name" v="Hestemyr" />
		<tag k="natural" v="wetland" />
		<tag k="ssr:stedsnr" v="510993" />
	</node>
	<node lat="59.249041662748986" lon="9.296391675027198" id="-22948">
		<tag k="name" v="Moltemyr" />
		<tag k="natural" v="wetland" />
		<tag k="ssr:stedsnr" v="511176" />
	</node>
	<node lat="59.22469999574615" lon="9.199383340523397" id="-22962">
		<tag k="name" v="Bergmyr" />
		<tag k="natural" v="wetland" />
		<tag k="ssr:stedsnr" v="526980" />
	</node>
	<node lat="59.24109166257934" lon="9.244227779068797" id="-22964">
		<tag k="name" v="Valsteinmyra" />
		<tag k="natural" v="wetland" />
		<tag k="ssr:stedsnr" v="526997" />
	</node>
	<node lat="59.280352782248485" lon="9.218652772338784" id="-22965">
		<tag k="name" v="Haraposten" />
		<tag k="place" v="locality" />
		<tag k="ssr:stedsnr" v="526935" />
	</node>
	<node lat="59.23593333038136" lon="9.075188883953233" id="-22970">
		<tag k="name" v="Kloppmyr" />
		<tag k="natural" v="wetland" />
		<tag k="ssr:stedsnr" v="541188" />
	</node>
	<node lat="59.22506667079421" lon="9.099700000081059" id="-22972">
		<tag k="name" v="Tranetjønnmyr" />
		<tag k="natural" v="wetland" />
		<tag k="ssr:stedsnr" v="541337" />
	</node>
	<node lat="59.19129444242277" lon="9.246974991481503" id="-22978">
		<tag k="name" v="Kinnemyr" />
		<tag k="natural" v="wetland" />
		<tag k="ssr:stedsnr" v="541829" />
	</node>
	<node lat="59.280358332163864" lon="9.019013880733352" id="-23019">
		<tag k="name" v="Hestemyr" />
		<tag k="natural" v="wetland" />
		<tag k="ssr:stedsnr" v="570182" />
	</node>
	<node lat="59.268274998045726" lon="9.309880556263627" id="-23020">
		<tag k="name" v="Fensmyra" />
		<tag k="place" v="locality" />
		<tag k="ssr:stedsnr" v="570195" />
	</node>
	<node lat="59.296188886477935" lon="9.050652773709919" id="-23021">
		<tag k="name" v="Verpekåsene" />
		<tag k="place" v="locality" />
		<tag k="ssr:stedsnr" v="570240" />
	</node>
	<node lat="59.27491389176339" lon="8.843219443112789" id="-23022">
		<tag k="name" v="Nordvadet" />
		<tag k="natural" v="wetland" />
		<tag k="ssr:stedsnr" v="570389" />
	</node>
	<node lat="59.36915555931896" lon="9.098133326302648" id="-23026">
		<tag k="name" v="Rugkåsa" />
		<tag k="place" v="locality" />
		<tag k="ssr:stedsnr" v="570536" />
	</node>
	<node lat="59.377261108766426" lon="9.109861105511431" id="-23027">
		<tag k="name" v="Nystulmyra" />
		<tag k="natural" v="wetland" />
		<tag k="ssr:stedsnr" v="570542" />
	</node>
	<node lat="59.239233331747805" lon="9.28701944116952" id="-23038">
		<tag k="name" v="Lauvkaret" />
		<tag k="place" v="locality" />
		<tag k="ssr:stedsnr" v="571860" />
	</node>
	<node lat="59.23956667033694" lon="9.065552779635956" id="-23044">
		<tag k="name" v="Mastekjerr" />
		<tag k="natural" v="wetland" />
		<tag k="ssr:stedsnr" v="586321" />
	</node>
	<node lat="59.27778610672093" lon="9.224361105534452" id="-23051">
		<tag k="name" v="Almankåsa" />
		<tag k="place" v="locality" />
		<tag k="ssr:stedsnr" v="586917" />
	</node>
	<node lat="59.21256666443208" lon="9.095377784004873" id="-23059">
		<tag k="name" v="Svantjønnmyr" />
		<tag k="natural" v="wetland" />
		<tag k="ssr:stedsnr" v="601292" />
	</node>
	<node lat="59.24740555630353" lon="9.049427779702459" id="-23061">
		<tag k="name" v="Gongemyra" />
		<tag k="natural" v="wetland" />
		<tag k="ssr:stedsnr" v="601124" />
	</node>
	<node lat="59.26512222240983" lon="9.017755558582671" id="-23102">
		<tag k="name" v="Brennemyr" />
		<tag k="natural" v="wetland" />
		<tag k="ssr:stedsnr" v="630149" />
	</node>
	<node lat="59.25261388545697" lon="9.045850000911877" id="-23113">
		<tag k="name" v="Gongemyrane" />
		<tag k="natural" v="wetland" />
		<tag k="ssr:stedsnr" v="631152" />
	</node>
	<node lat="59.29811110895958" lon="9.129166672441771" id="-23128">
		<tag k="name" v="Fekjane" />
		<tag k="natural" v="wetland" />
		<tag k="ssr:stedsnr" v="647758" />
	</node>
	<node lat="59.22096388629017" lon="9.190802774175744" id="-23137">
		<tag k="name" v="Moltemyra" />
		<tag k="natural" v="wetland" />
		<tag k="ssr:stedsnr" v="647974" />
	</node>
	<node lat="59.22648055294064" lon="9.201844440374511" id="-23138">
		<tag k="name" v="Bjørkemyr" />
		<tag k="natural" v="wetland" />
		<tag k="ssr:stedsnr" v="647977" />
	</node>
	<node lat="59.241233333213195" lon="9.188141667213392" id="-23145">
		<tag k="historic" v="shieling" />
		<tag k="name" v="Hovlandsstulen" />
=======
	<node id="-443734" lat="59.2418055561" lon="9.30822221742">
		<tag k="name" v="Spennilsmyr" />
		<tag k="natural" v="wetland" />
		<tag k="ssr:stedsnr" v="207871" />
	</node>
	<node id="-444039" lat="59.2803527822" lon="9.21865277234">
		<tag k="name" v="Haraposten" />
>>>>>>> e1d4bc35ff8a6074a6f2e91616a996b547c36f15
		<tag k="place" v="locality" />
		<tag k="ssr:stedsnr" v="662784" />
	</node>
<<<<<<< HEAD
	<node lat="59.26277222306998" lon="9.104133330445944" id="-23147">
		<tag k="name" v="Pollen" />
		<tag k="place" v="locality" />
		<tag k="ssr:stedsnr" v="662592" />
	</node>
	<node lat="59.25076111362035" lon="9.151783327114813" id="-23150">
		<tag k="name" v="Buverudmyrane" />
		<tag k="natural" v="wetland" />
		<tag k="ssr:stedsnr" v="662627" />
	</node>
	<node lat="59.24314166969073" lon="9.261558333063558" id="-23153">
		<tag k="name" v="Halvfarmyr" />
		<tag k="natural" v="wetland" />
		<tag k="ssr:stedsnr" v="663000" />
	</node>
	<node lat="59.21680833429745" lon="9.058780552362967" id="-23183">
		<tag k="name" v="Rolighetsmyra" />
		<tag k="natural" v="wetland" />
		<tag k="ssr:stedsnr" v="723441" />
	</node>
	<node lat="59.243611107997026" lon="9.176666667567005" id="-23185">
		<tag k="name" v="Puttemyrane" />
		<tag k="natural" v="wetland" />
		<tag k="ssr:stedsnr" v="723764" />
	</node>
	<node lat="59.18860555648006" lon="9.24893610976626" id="-23190">
		<tag k="name" v="Kirkemyr" />
		<tag k="natural" v="wetland" />
		<tag k="ssr:stedsnr" v="723783" />
	</node>
	<node lat="59.34614166606897" lon="9.013613890498423" id="-23202">
		<tag k="name" v="Flotine" />
		<tag k="place" v="locality" />
		<tag k="ssr:stedsnr" v="730272" />
	</node>
	<node lat="59.32554166849129" lon="8.908680548394909" id="-23225">
		<tag k="name" v="Trengslemyr" />
		<tag k="natural" v="wetland" />
		<tag k="ssr:stedsnr" v="752157" />
	</node>
	<node lat="59.247766666370275" lon="9.357791674570178" id="-23235">
		<tag k="name" v="Svenskemyr" />
		<tag k="place" v="locality" />
		<tag k="ssr:stedsnr" v="753239" />
	</node>
	<node lat="59.36016944573427" lon="9.08635833509166" id="-23238">
		<tag k="name" v="Myrajordet" />
		<tag k="place" v="locality" />
		<tag k="ssr:stedsnr" v="753599" />
	</node>
	<node lat="59.36444166309049" lon="9.096574998073267" id="-23240">
		<tag k="name" v="Slåttehaugane" />
		<tag k="place" v="locality" />
		<tag k="ssr:stedsnr" v="753551" />
	</node>
	<node lat="59.24620555553483" lon="9.35892222947285" id="-23244">
		<tag k="name" v="Rugkåsmyra" />
		<tag k="natural" v="wetland" />
		<tag k="ssr:stedsnr" v="754485" />
	</node>
	<node lat="59.22597222126066" lon="9.109666658013897" id="-23270">
		<tag k="name" v="Vomstul" />
		<tag k="place" v="locality" />
		<tag k="ssr:stedsnr" v="783297" />
	</node>
	<node lat="59.18826666440267" lon="9.239341661066812" id="-23273">
		<tag k="name" v="Dåsamyr" />
		<tag k="natural" v="wetland" />
		<tag k="ssr:stedsnr" v="783833" />
	</node>
	<node lat="59.22550833159115" lon="9.094577782989168" id="-23277">
		<tag k="historic" v="shieling" />
		<tag k="name" v="Kleivstul" />
		<tag k="place" v="locality" />
		<tag k="ssr:stedsnr" v="783288" />
	</node>
	<node lat="59.226277775457845" lon="9.12538611901783" id="-23278">
		<tag k="name" v="Storemyr" />
		<tag k="natural" v="wetland" />
		<tag k="ssr:stedsnr" v="783378" />
	</node>
	<node lat="59.24620555494212" lon="9.248930557054448" id="-23285">
		<tag k="name" v="Knefallet" />
		<tag k="natural" v="stone" />
		<tag k="ssr:stedsnr" v="783993" />
	</node>
	<node lat="59.28076666463326" lon="8.985938887403425" id="-23333">
		<tag k="name" v="Diplane" />
		<tag k="natural" v="wetland" />
		<tag k="ssr:stedsnr" v="813070" />
	</node>
	<node lat="59.348280552330905" lon="9.065058338874145" id="-23341">
		<tag k="name" v="Valakåsene" />
		<tag k="place" v="locality" />
		<tag k="ssr:stedsnr" v="813590" />
	</node>
	<node lat="59.258402777447515" lon="8.86671944147206" id="-23347">
		<tag k="name" v="Velsignamyr" />
		<tag k="natural" v="wetland" />
		<tag k="ssr:stedsnr" v="814562" />
	</node>
	<node lat="59.214544442409164" lon="9.258308327360478" id="-23363">
		<tag k="name" v="Røymyr" />
		<tag k="natural" v="wetland" />
		<tag k="ssr:stedsnr" v="830887" />
	</node>
	<node lat="59.21051944308616" lon="9.243833337263732" id="-23364">
		<tag k="name" v="Bjørnen" />
		<tag k="place" v="locality" />
		<tag k="ssr:stedsnr" v="830900" />
	</node>
	<node lat="59.196644446577515" lon="9.21930000631325" id="-23367">
		<tag k="name" v="Brannbukkmyra" />
		<tag k="natural" v="wetland" />
		<tag k="ssr:stedsnr" v="844700" />
	</node>
	<node lat="59.23310833198168" lon="9.214158338211485" id="-23368">
		<tag k="name" v="Grønnlimyra" />
		<tag k="natural" v="wetland" />
		<tag k="ssr:stedsnr" v="844800" />
	</node>
	<node lat="59.17845833780281" lon="9.23299165914956" id="-23373">
		<tag k="name" v="Timlandmyr" />
		<tag k="natural" v="wetland" />
		<tag k="ssr:stedsnr" v="844764" />
	</node>
	<node lat="59.16891944031036" lon="9.187063880342762" id="-23374">
		<tag k="name" v="Eikestubbane" />
		<tag k="place" v="locality" />
		<tag k="ssr:stedsnr" v="844861" />
	</node>
	<node lat="59.228688889488524" lon="9.278533328732106" id="-23377">
		<tag k="name" v="Dammannsmyra" />
		<tag k="natural" v="wetland" />
		<tag k="ssr:stedsnr" v="844948" />
	</node>
	<node lat="59.15262221870828" lon="9.23571111827027" id="-23380">
		<tag k="name" v="Starrhullmyr" />
		<tag k="natural" v="wetland" />
		<tag k="ssr:stedsnr" v="845712" />
	</node>
	<node lat="59.302605559899284" lon="9.036908337890202" id="-23413">
		<tag k="landuse" v="quarry" />
		<tag k="name" v="Storemo sandtak" />
		<tag k="ssr:stedsnr" v="874274" />
	</node>
	<node lat="59.286011111316235" lon="8.870002782509811" id="-23422">
		<tag k="name" v="Barlindhaugane" />
		<tag k="place" v="locality" />
		<tag k="ssr:stedsnr" v="874464" />
	</node>
	<node lat="59.2886111095043" lon="8.873494439839085" id="-23423">
		<tag k="name" v="Dammyrane" />
		<tag k="natural" v="wetland" />
		<tag k="ssr:stedsnr" v="874465" />
	</node>
	<node lat="59.20410277368908" lon="9.296288882017656" id="-23429">
		<tag k="name" v="Struvannsmyr" />
		<tag k="natural" v="wetland" />
		<tag k="ssr:stedsnr" v="874632" />
	</node>
	<node lat="59.36498611412377" lon="9.121911118993173" id="-23431">
		<tag k="name" v="Trandlemyr" />
		<tag k="natural" v="wetland" />
		<tag k="ssr:stedsnr" v="874834" />
	</node>
	<node lat="59.350063888030455" lon="9.112661104764479" id="-23433">
		<tag k="name" v="Saumyr" />
		<tag k="natural" v="wetland" />
		<tag k="ssr:stedsnr" v="874687" />
	</node>
	<node lat="59.24065555432836" lon="9.282466668462456" id="-23445">
		<tag k="alt_name" v="Laukarmyra" />
		<tag k="name" v="Lauvkarmyra" />
		<tag k="natural" v="wetland" />
		<tag k="ssr:stedsnr" v="935874" />
	</node>
	<node lat="59.25003055833798" lon="9.355033335432724" id="-23447">
		<tag k="name" v="Roamyr" />
		<tag k="place" v="locality" />
		<tag k="ssr:stedsnr" v="936266" />
	</node>
	<node lat="59.315188888224455" lon="9.21510833704542" id="-23453">
		<tag k="name" v="Storemyr" />
		<tag k="natural" v="wetland" />
		<tag k="ssr:stedsnr" v="937584" />
	</node>
	<node lat="59.22682500250893" lon="9.030411116984629" id="-23472">
		<tag k="historic" v="shieling" />
		<tag k="name" v="Nye Sverdalsstul" />
		<tag k="place" v="locality" />
		<tag k="ssr:stedsnr" v="965252" />
	</node>
	<node lat="59.19211944383679" lon="9.226399992091812" id="-23478">
		<tag k="name" v="Sannamyra" />
		<tag k="natural" v="wetland" />
		<tag k="ssr:stedsnr" v="965827" />
	</node>
=======
>>>>>>> e1d4bc35ff8a6074a6f2e91616a996b547c36f15
</osm>
