<?xml version="1.0" encoding="UTF-8"?>
<osm version="0.6" generator="osmapis">
	<node lat="59.30106111477395" lon="9.239797214936603" id="-21557">
		<tag k="historic" v="boundary_stone" />
		<tag k="man_made" v="cairn" />
		<tag k="name" v="Stanga" />
		<tag k="place" v="locality" />
		<tag k="ssr:stedsnr" v="330805" />
	</node>
	<node lat="59.18513333612869" lon="9.274344438722036" id="-21859">
		<tag k="historic" v="boundary_stone" />
		<tag k="man_made" v="cairn" />
		<tag k="name" v="Hunden" />
		<tag k="place" v="locality" />
		<tag k="ssr:stedsnr" v="696092" />
	</node>
	<node lat="59.209683328906365" lon="9.23411389399564" id="-21864">
		<tag k="historic" v="boundary_stone" />
		<tag k="man_made" v="cairn" />
		<tag k="name" v="Eiklunddelet" />
		<tag k="place" v="locality" />
		<tag k="ssr:stedsnr" v="586902" />
	</node>
	<node lat="59.19961111332745" lon="9.308599997166503" id="-21954">
		<tag k="fixme" v="consider boundary=protected_area and relevant protect_class if not nature reserve" />
		<tag k="leisure" v="nature_reserve" />
		<tag k="name" v="Eikelifjellet naturreservat" />
		<tag k="ssr:stedsnr" v="667891" />
	</node>
	<node lat="59.230841669012854" lon="9.20779721959297" id="-22248">
		<tag k="historic" v="boundary_stone" />
		<tag k="man_made" v="cairn" />
		<tag k="name" v="Skriverstein" />
		<tag k="old_name" v="Skiverstein" />
		<tag k="place" v="locality" />
		<tag k="ssr:stedsnr" v="905801" />
	</node>
	<node lat="59.282013885654685" lon="9.296622218348181" id="-22478">
		<tag k="name" v="Torsnes" />
		<tag k="place" v="locality" />
		<tag k="ssr:stedsnr" v="101141" />
	</node>
	<node lat="59.25962777349165" lon="9.301388881548144" id="-22837">
		<tag k="fixme" v="consider boundary=protected_area and relevant protect_class if not nature reserve" />
		<tag k="leisure" v="nature_reserve" />
		<tag k="name" v="Naturvernområde" />
		<tag k="ssr:stedsnr" v="390236" />
	</node>
	<node lat="59.23442500380895" lon="9.038402784624068" id="-22967">
		<tag k="historic" v="boundary_stone" />
		<tag k="man_made" v="cairn" />
		<tag k="name" v="Hovsdelet" />
		<tag k="place" v="locality" />
		<tag k="ssr:stedsnr" v="541136" />
	</node>
	<node lat="59.22223888537476" lon="9.153813897373954" id="-23195">
		<tag k="fixme" v="consider boundary=protected_area and relevant protect_class if not nature reserve" />
		<tag k="leisure" v="nature_reserve" />
		<tag k="name" v="Minnesjø naturreservat" />
		<tag k="ssr:stedsnr" v="728899" />
	</node>
	<node lat="59.2445249994758" lon="9.217186115573538" id="-23282">
		<tag k="historic" v="boundary_stone" />
		<tag k="man_made" v="cairn" />
		<tag k="name" v="Urnesteinen" />
		<tag k="place" v="locality" />
		<tag k="ssr:stedsnr" v="783788" />
	</node>
	<node lat="59.31970832972906" lon="8.953691659253273" id="-23329">
		<tag k="fixme" v="specify shooting=range, clay_pigeon etc" />
		<tag k="leisure" v="pitch" />
		<tag k="name" v="Skytebane" />
		<tag k="sport" v="shooting" />
		<tag k="ssr:stedsnr" v="813052" />
	</node>
</osm>
