<?xml version="1.0" encoding="UTF-8"?>
<osm generator="osmapis" version="0.6">
	<node id="-440320" lat="59.3316333362" lon="9.18045555398">
		<tag k="name" v="Gangsjådalen" />
		<tag k="natural" v="valley" />
		<tag k="place" v="locality" />
		<tag k="ssr:stedsnr" v="390469" />
	</node>
	<node id="-440319" lat="59.2415611119" lon="9.35549721539">
		<tag k="fixme" v="consider natural=peak for the most distinct mountains in the district" />
		<tag k="name" v="Brøsdalåsen" />
		<tag k="natural" v="hill" />
		<tag k="place" v="locality" />
		<tag k="ssr:stedsnr" v="390431" />
	</node>
	<node id="-440318" lat="59.234675004" lon="9.30840000324">
		<tag k="fixme" v="consider natural=peak for the most distinct mountains in the district" />
		<tag k="name" v="Brønnmyrfjellet" />
		<tag k="natural" v="hill" />
		<tag k="place" v="locality" />
		<tag k="ssr:stedsnr" v="389998" />
	</node>
	<node id="-440316" lat="59.3382083351" lon="9.14361667108">
		<tag k="name" v="Linnadalen" />
		<tag k="natural" v="valley" />
		<tag k="place" v="locality" />
		<tag k="ssr:stedsnr" v="389892" />
	</node>
	<node id="-440314" lat="59.2656750027" lon="8.86348888159">
		<tag k="name" v="Nybudalen" />
		<tag k="natural" v="valley" />
		<tag k="place" v="locality" />
		<tag k="ssr:stedsnr" v="389549" />
	</node>
	<node id="-440313" lat="59.3594083306" lon="9.12052500111">
		<tag k="name" v="Svarvardokka" />
		<tag k="natural" v="valley" />
		<tag k="place" v="locality" />
		<tag k="ssr:stedsnr" v="389809" />
	</node>
	<node id="-440309" lat="59.2331055512" lon="9.29782777727">
		<tag k="name" v="Småkollane" />
		<tag k="natural" v="hill" />
		<tag k="place" v="locality" />
		<tag k="ssr:stedsnr" v="388979" />
	</node>
	<node id="-440306" lat="59.3367861132" lon="9.00801110593">
		<tag k="name" v="Trytetjønndalen" />
		<tag k="natural" v="valley" />
		<tag k="place" v="locality" />
		<tag k="ssr:stedsnr" v="388373" />
	</node>
	<node id="-440305" lat="59.2718027739" lon="8.90045832561">
		<tag k="fixme" v="consider natural=peak for the most distinct mountains in the district" />
		<tag k="name" v="Solomhotten" />
		<tag k="natural" v="hill" />
		<tag k="place" v="locality" />
		<tag k="ssr:stedsnr" v="388246" />
	</node>
	<node id="-440299" lat="59.250711107" lon="9.02204722898">
		<tag k="name" v="Badstudalen" />
		<tag k="natural" v="gorge" />
		<tag k="ssr:stedsnr" v="388146" />
	</node>
	<node id="-440298" lat="59.2514833296" lon="9.28604444154">
		<tag k="fixme" v="consider natural=peak for the most distinct mountains in the district" />
		<tag k="name" v="Stiklemyråsane" />
		<tag k="natural" v="hill" />
		<tag k="place" v="locality" />
		<tag k="ssr:stedsnr" v="388142" />
	</node>
	<node id="-440297" lat="59.2589611127" lon="9.00901666182">
		<tag k="name" v="Kvernes" />
		<tag k="natural" v="slope" />
		<tag k="place" v="locality" />
		<tag k="ssr:stedsnr" v="388140" />
	</node>
	<node id="-440296" lat="59.2668249996" lon="9.05225834144">
		<tag k="fixme" v="consider natural=peak for the most distinct mountains in the district" />
		<tag k="name" v="Nordheia" />
		<tag k="natural" v="hill" />
		<tag k="place" v="locality" />
		<tag k="ssr:stedsnr" v="388119" />
	</node>
	<node id="-440295" lat="59.2794361114" lon="9.02773333232">
		<tag k="name" v="Nonsdalen" />
		<tag k="natural" v="valley" />
		<tag k="place" v="locality" />
		<tag k="ssr:stedsnr" v="388179" />
	</node>
	<node id="-440293" lat="59.1966083335" lon="9.25295000423">
		<tag k="alt_name" v="Jonsokfjell" />
		<tag k="fixme" v="consider natural=peak for the most distinct mountains in the district" />
		<tag k="name" v="Jensokkfjellet" />
		<tag k="natural" v="hill" />
		<tag k="place" v="locality" />
		<tag k="ssr:stedsnr" v="366889" />
	</node>
	<node id="-440288" lat="59.2499111107" lon="9.23095554775">
		<tag k="fixme" v="consider natural=peak for the most distinct mountains in the district" />
		<tag k="name" v="Vindås" />
		<tag k="natural" v="hill" />
		<tag k="place" v="locality" />
		<tag k="ssr:stedsnr" v="366683" />
	</node>
	<node id="-440275" lat="59.2832166647" lon="9.02920833187">
		<tag k="alt_name" v="Nonsfjellet" />
		<tag k="fixme" v="consider natural=peak for the most distinct mountains in the district" />
		<tag k="name" v="Nonsfjell" />
		<tag k="natural" v="hill" />
		<tag k="place" v="locality" />
		<tag k="ssr:stedsnr" v="366126" />
	</node>
	<node id="-440274" lat="59.283547222" lon="8.97439166062">
		<tag k="fixme" v="consider natural=peak for the most distinct mountains in the district" />
		<tag k="name" v="Vårbuåsen" />
		<tag k="natural" v="hill" />
		<tag k="place" v="locality" />
		<tag k="ssr:stedsnr" v="366122" />
	</node>
	<node id="-440272" lat="59.2641305523" lon="8.9961388972">
		<tag k="fixme" v="consider natural=peak for the most distinct mountains in the district" />
		<tag k="name" v="Hestefjellrompa" />
		<tag k="natural" v="hill" />
		<tag k="place" v="locality" />
		<tag k="ssr:stedsnr" v="366091" />
	</node>
	<node id="-440271" lat="59.2706499961" lon="9.13820833489">
		<tag k="name" v="Barlindholten" />
		<tag k="natural" v="slope" />
		<tag k="place" v="locality" />
		<tag k="ssr:stedsnr" v="366084" />
	</node>
	<node id="-440269" lat="59.1700527752" lon="9.24932500726">
		<tag k="fixme" v="consider natural=peak for the most distinct mountains in the district" />
		<tag k="name" v="Langstulen" />
		<tag k="natural" v="hill" />
		<tag k="place" v="locality" />
		<tag k="ssr:stedsnr" v="365994" />
	</node>
	<node id="-440267" lat="59.2255138896" lon="9.13160555134">
		<tag k="fixme" v="consider natural=peak for the most distinct mountains in the district" />
		<tag k="name" v="Elkollen" />
		<tag k="natural" v="hill" />
		<tag k="place" v="locality" />
		<tag k="ssr:stedsnr" v="365443" />
	</node>
	<node id="-440266" lat="59.2481083309" lon="9.06991110695">
		<tag k="fixme" v="consider natural=peak for the most distinct mountains in the district" />
		<tag k="name" v="Meheia" />
		<tag k="natural" v="hill" />
		<tag k="place" v="locality" />
		<tag k="ssr:stedsnr" v="365418" />
	</node>
	<node id="-440265" lat="59.2424472242" lon="9.08710832659">
		<tag k="fixme" v="consider natural=peak for the most distinct mountains in the district" />
		<tag k="name" v="Hestmyråsen" />
		<tag k="natural" v="hill" />
		<tag k="place" v="locality" />
		<tag k="ssr:stedsnr" v="365416" />
	</node>
	<node id="-440264" lat="59.2419527778" lon="8.99945834031">
		<tag k="fixme" v="consider natural=peak for the most distinct mountains in the district" />
		<tag k="name" v="Hestheia" />
		<tag k="natural" v="hill" />
		<tag k="place" v="locality" />
		<tag k="ssr:stedsnr" v="365413" />
	</node>
	<node id="-440261" lat="59.2372249987" lon="9.26317500576">
		<tag k="fixme" v="consider natural=peak for the most distinct mountains in the district" />
		<tag k="name" v="Snømyrfjellet" />
		<tag k="natural" v="hill" />
		<tag k="place" v="locality" />
		<tag k="ssr:stedsnr" v="365070" />
	</node>
	<node id="-440258" lat="59.2347916655" lon="9.21773888909">
		<tag k="name" v="Brennevinsbakken" />
		<tag k="natural" v="slope" />
		<tag k="place" v="locality" />
		<tag k="ssr:stedsnr" v="359799" />
	</node>
	<node id="-440257" lat="59.2364972244" lon="9.18899445078">
		<tag k="name" v="Tjuvhelleren" />
		<tag k="place" v="locality" />
		<tag k="ssr:stedsnr" v="359797" />
	</node>
	<node id="-440256" lat="59.1652250012" lon="9.22743610731">
		<tag k="name" v="Skremmerud" />
		<tag k="natural" v="hill" />
		<tag k="place" v="locality" />
		<tag k="ssr:stedsnr" v="359848" />
	</node>
	<node id="-440255" lat="59.1707222254" lon="9.18726388551">
		<tag k="name" v="Vitnesjøliane" />
		<tag k="natural" v="slope" />
		<tag k="place" v="locality" />
		<tag k="ssr:stedsnr" v="359844" />
	</node>
	<node id="-440254" lat="59.162961108" lon="9.20809722488">
		<tag k="name" v="Bøvatnseidet" />
		<tag k="natural" v="valley" />
		<tag k="place" v="locality" />
		<tag k="ssr:stedsnr" v="359843" />
	</node>
	<node id="-440253" lat="59.1818250011" lon="9.25742500434">
		<tag k="name" v="Veungslia" />
		<tag k="natural" v="slope" />
		<tag k="place" v="locality" />
		<tag k="ssr:stedsnr" v="359778" />
	</node>
	<node id="-440251" lat="59.2006888924" lon="9.21295832947">
		<tag k="name" v="Bordstå" />
		<tag k="place" v="locality" />
		<tag k="ssr:stedsnr" v="359697" />
	</node>
	<node id="-440250" lat="59.1618388878" lon="9.23356111645">
		<tag k="fixme" v="consider natural=peak for the most distinct mountains in the district" />
		<tag k="name" v="Østre Middagskollen" />
		<tag k="natural" v="hill" />
		<tag k="place" v="locality" />
		<tag k="ssr:stedsnr" v="359679" />
	</node>
	<node id="-440247" lat="59.2186027794" lon="9.0949249936">
		<tag k="fixme" v="consider natural=peak for the most distinct mountains in the district" />
		<tag k="name" v="Svanetjønnåsen" />
		<tag k="natural" v="hill" />
		<tag k="place" v="locality" />
		<tag k="ssr:stedsnr" v="359449" />
	</node>
	<node id="-440245" lat="59.235600003" lon="9.08720000112">
		<tag k="name" v="Fekjandalen" />
		<tag k="natural" v="valley" />
		<tag k="place" v="locality" />
		<tag k="ssr:stedsnr" v="359179" />
	</node>
	<node id="-440241" lat="59.1892277746" lon="9.19411666954">
		<tag k="name" v="Søndre Teigefjell" />
		<tag k="natural" v="hill" />
		<tag k="place" v="locality" />
		<tag k="ssr:stedsnr" v="358699" />
	</node>
	<node id="-440240" lat="59.2164000005" lon="9.06674166401">
		<tag k="name" v="Veneli" />
		<tag k="natural" v="slope" />
		<tag k="place" v="locality" />
		<tag k="ssr:stedsnr" v="358399" />
	</node>
	<node id="-440237" lat="59.2216583366" lon="9.21740277412">
		<tag k="name" v="Heggebekk" />
		<tag k="natural" v="valley" />
		<tag k="place" v="locality" />
		<tag k="ssr:stedsnr" v="344983" />
	</node>
	<node id="-440236" lat="59.2092333324" lon="9.26565000526">
		<tag k="name" v="Flisebotn" />
		<tag k="natural" v="valley" />
		<tag k="place" v="locality" />
		<tag k="ssr:stedsnr" v="344901" />
	</node>
	<node id="-440235" lat="59.2075416627" lon="9.27567222362">
		<tag k="name" v="Grandokka" />
		<tag k="natural" v="valley" />
		<tag k="place" v="locality" />
		<tag k="ssr:stedsnr" v="344900" />
	</node>
	<node id="-440231" lat="59.3125333306" lon="9.15439444161">
		<tag k="name" v="Trångedal" />
		<tag k="natural" v="valley" />
		<tag k="place" v="locality" />
		<tag k="ssr:stedsnr" v="344784" />
	</node>
	<node id="-440219" lat="59.2488333371" lon="9.16630555415">
		<tag k="name" v="Tjondalen" />
		<tag k="natural" v="valley" />
		<tag k="place" v="locality" />
		<tag k="ssr:stedsnr" v="344288" />
	</node>
	<node id="-440218" lat="59.2469972193" lon="9.12583334049">
		<tag k="name" v="Englandsfjellet" />
		<tag k="natural" v="hill" />
		<tag k="place" v="locality" />
		<tag k="ssr:stedsnr" v="344283" />
	</node>
	<node id="-440212" lat="59.2479305533" lon="9.33914721939">
		<tag k="name" v="Helgjaliane" />
		<tag k="natural" v="slope" />
		<tag k="place" v="locality" />
		<tag k="ssr:stedsnr" v="329296" />
	</node>
	<node id="-440209" lat="59.3399638862" lon="9.14585277545">
		<tag k="name" v="Skjenåsliane" />
		<tag k="natural" v="slope" />
		<tag k="place" v="locality" />
		<tag k="ssr:stedsnr" v="328893" />
	</node>
	<node id="-440208" lat="59.2236194464" lon="9.28351388267">
		<tag k="name" v="Pipesteindalen" />
		<tag k="natural" v="valley" />
		<tag k="place" v="locality" />
		<tag k="ssr:stedsnr" v="328864" />
	</node>
	<node id="-440207" lat="59.2257083333" lon="9.28272778252">
		<tag k="name" v="Skrubbsultberga" />
		<tag k="natural" v="hill" />
		<tag k="place" v="locality" />
		<tag k="ssr:stedsnr" v="328862" />
	</node>
	<node id="-440201" lat="59.2541222234" lon="9.03497777834">
		<tag k="name" v="Finnvollen" />
		<tag k="place" v="locality" />
		<tag k="ssr:stedsnr" v="328153" />
	</node>
	<node id="-440200" lat="59.3241555568" lon="8.90054444865">
		<tag k="name" v="Helvetesdalen" />
		<tag k="natural" v="valley" />
		<tag k="place" v="locality" />
		<tag k="ssr:stedsnr" v="328131" />
	</node>
	<node id="-440198" lat="59.3709583314" lon="9.08009445234">
		<tag k="name" v="Dei vene berga" />
		<tag k="natural" v="hill" />
		<tag k="place" v="locality" />
		<tag k="ssr:stedsnr" v="327566" />
	</node>
	<node id="-440188" lat="59.2611916642" lon="9.34374166321">
		<tag k="fixme" v="consider natural=peak for the most distinct mountains in the district" />
		<tag k="name" v="Evås" />
		<tag k="natural" v="hill" />
		<tag k="place" v="locality" />
		<tag k="ssr:stedsnr" v="306581" />
	</node>
	<node id="-440183" lat="59.3235194404" lon="8.91592221375">
		<tag k="fixme" v="consider natural=peak for the most distinct mountains in the district" />
		<tag k="name" v="Trengsleknatten" />
		<tag k="natural" v="hill" />
		<tag k="place" v="locality" />
		<tag k="ssr:stedsnr" v="306211" />
	</node>
	<node id="-440181" lat="59.283716663" lon="9.0170416739">
		<tag k="alt_name" v="Helleskleiv" />
		<tag k="name" v="Helleskleivjuvet" />
		<tag k="natural" v="valley" />
		<tag k="place" v="locality" />
		<tag k="ssr:stedsnr" v="306136" />
	</node>
	<node id="-440179" lat="59.282269552" lon="8.88978495956">
		<tag k="alt_name" v="Hitåsen" />
		<tag k="fixme" v="consider natural=peak for the most distinct mountains in the district" />
		<tag k="name" v="Hittås" />
		<tag k="natural" v="hill" />
		<tag k="place" v="locality" />
		<tag k="ssr:stedsnr" v="306118" />
	</node>
	<node id="-440173" lat="59.2701638857" lon="8.83568611848">
		<tag k="alt_name" v="Knarren, l" />
		<tag k="fixme" v="consider natural=peak for the most distinct mountains in the district" />
		<tag k="name" v="Beinbrottåsen" />
		<tag k="natural" v="hill" />
		<tag k="place" v="locality" />
		<tag k="ssr:stedsnr" v="305586" />
	</node>
	<node id="-440172" lat="59.2218638883" lon="9.04458888142">
		<tag k="fixme" v="consider natural=peak for the most distinct mountains in the district" />
		<tag k="name" v="Dangletjernknuten" />
		<tag k="natural" v="hill" />
		<tag k="place" v="locality" />
		<tag k="ssr:stedsnr" v="305452" />
	</node>
	<node id="-440170" lat="59.2421388863" lon="9.05580000293">
		<tag k="alt_name" v="Styggedal" />
		<tag k="name" v="Styggdalen" />
		<tag k="natural" v="valley" />
		<tag k="place" v="locality" />
		<tag k="ssr:stedsnr" v="305417" />
	</node>
	<node id="-440162" lat="59.309644445" lon="9.00612777852">
		<tag k="alt_name" v="Skårafjellet" />
		<tag k="fixme" v="consider natural=peak for the most distinct mountains in the district" />
		<tag k="name" v="Skårafjell" />
		<tag k="natural" v="hill" />
		<tag k="place" v="locality" />
		<tag k="ssr:stedsnr" v="305183" />
	</node>
	<node id="-440160" lat="59.2729222213" lon="9.02201666632">
		<tag k="fixme" v="consider natural=peak for the most distinct mountains in the district" />
		<tag k="name" v="Klovdalsåsen" />
		<tag k="natural" v="hill" />
		<tag k="place" v="locality" />
		<tag k="ssr:stedsnr" v="305132" />
	</node>
	<node id="-440158" lat="59.2669805538" lon="8.97333611854">
		<tag k="name" v="Kaupmyrdalen" />
		<tag k="natural" v="valley" />
		<tag k="place" v="locality" />
		<tag k="ssr:stedsnr" v="305114" />
	</node>
	<node id="-440157" lat="59.2840972231" lon="9.185349996">
		<tag k="fixme" v="consider natural=peak for the most distinct mountains in the district" />
		<tag k="name" v="Tomaskåsåsen" />
		<tag k="natural" v="hill" />
		<tag k="place" v="locality" />
		<tag k="ssr:stedsnr" v="305109" />
	</node>
	<node id="-440155" lat="59.2620611069" lon="9.04039167075">
		<tag k="alt_name" v="Gångefjell" />
		<tag k="fixme" v="consider natural=peak for the most distinct mountains in the district" />
		<tag k="name" v="Gongefjell" />
		<tag k="natural" v="hill" />
		<tag k="place" v="locality" />
		<tag k="ssr:stedsnr" v="305100" />
	</node>
	<node id="-440152" lat="59.2589722239" lon="9.09243889204">
		<tag k="fixme" v="consider natural=peak for the most distinct mountains in the district" />
		<tag k="name" v="Husefjell" />
		<tag k="natural" v="hill" />
		<tag k="place" v="locality" />
		<tag k="ssr:stedsnr" v="305078" />
	</node>
	<node id="-440147" lat="59.2459833362" lon="9.31381944165">
		<tag k="alt_name" v="Nipe, store" />
		<tag k="fixme" v="consider natural=peak for the most distinct mountains in the district" />
		<tag k="name" v="Store Nipe" />
		<tag k="natural" v="hill" />
		<tag k="place" v="locality" />
		<tag k="ssr:stedsnr" v="305031" />
	</node>
	<node id="-440145" lat="59.3533333352" lon="8.87188332847">
		<tag k="alt_name" v="Grånåfjellet" />
		<tag k="fixme" v="consider natural=peak for the most distinct mountains in the district" />
		<tag k="name" v="Grånåfjell" />
		<tag k="natural" v="hill" />
		<tag k="place" v="locality" />
		<tag k="ssr:stedsnr" v="305263" />
	</node>
	<node id="-440141" lat="59.1689333322" lon="9.27607223025">
		<tag k="fixme" v="consider natural=peak for the most distinct mountains in the district" />
		<tag k="name" v="Oterkilåsen" />
		<tag k="natural" v="hill" />
		<tag k="place" v="locality" />
		<tag k="ssr:stedsnr" v="211036" />
	</node>
	<node id="-440132" lat="59.2622833318" lon="9.30430000527">
		<tag k="name" v="Fenslia" />
		<tag k="natural" v="slope" />
		<tag k="place" v="locality" />
		<tag k="ssr:stedsnr" v="209242" />
	</node>
	<node id="-440131" lat="59.3377249995" lon="9.12468054828">
		<tag k="name" v="Almedalen" />
		<tag k="natural" v="valley" />
		<tag k="place" v="locality" />
		<tag k="ssr:stedsnr" v="207910" />
	</node>
	<node id="-440125" lat="59.2340750021" lon="9.3564416634">
		<tag k="name" v="Spondalen" />
		<tag k="natural" v="valley" />
		<tag k="place" v="locality" />
		<tag k="ssr:stedsnr" v="207445" />
	</node>
	<node id="-440122" lat="59.238555558" lon="9.37433610918">
		<tag k="name" v="Klovdalsdalen" />
		<tag k="natural" v="valley" />
		<tag k="place" v="locality" />
		<tag k="ssr:stedsnr" v="207353" />
	</node>
	<node id="-440118" lat="59.2648472216" lon="9.31087500345">
		<tag k="name" v="Brillekåsahaugen" />
		<tag k="natural" v="hill" />
		<tag k="place" v="locality" />
		<tag k="ssr:stedsnr" v="207231" />
	</node>
	<node id="-440113" lat="59.3563250031" lon="9.06851666524">
		<tag k="fixme" v="consider natural=peak for the most distinct mountains in the district" />
		<tag k="name" v="Tjønnåsen" />
		<tag k="natural" v="hill" />
		<tag k="place" v="locality" />
		<tag k="ssr:stedsnr" v="206580" />
	</node>
	<node id="-440717" lat="59.2366277782" lon="9.06978888877">
		<tag k="fixme" v="consider natural=peak for the most distinct mountains in the district" />
		<tag k="name" v="Kloppmyråsen" />
		<tag k="natural" v="hill" />
		<tag k="place" v="locality" />
		<tag k="ssr:stedsnr" v="783167" />
	</node>
	<node id="-440109" lat="59.2970777776" lon="8.87516111661">
		<tag k="fixme" v="consider natural=peak for the most distinct mountains in the district" />
		<tag k="name" v="Ståfjell" />
		<tag k="natural" v="hill" />
		<tag k="place" v="locality" />
		<tag k="ssr:stedsnr" v="206342" />
	</node>
	<node id="-440107" lat="59.3333166694" lon="8.87315">
		<tag k="name" v="Gryteholun" />
		<tag k="natural" v="valley" />
		<tag k="place" v="locality" />
		<tag k="ssr:stedsnr" v="206333" />
	</node>
	<node id="-440104" lat="59.2879222238" lon="8.9029638962">
		<tag k="name" v="Jungtjønndalen" />
		<tag k="natural" v="valley" />
		<tag k="place" v="locality" />
		<tag k="ssr:stedsnr" v="206238" />
	</node>
	<node id="-440101" lat="59.3223055595" lon="8.94871111491">
		<tag k="name" v="Briskedalen" />
		<tag k="natural" v="valley" />
		<tag k="place" v="locality" />
		<tag k="ssr:stedsnr" v="206057" />
	</node>
	<node id="-440100" lat="59.3128666646" lon="8.9818500024">
		<tag k="fixme" v="consider natural=peak for the most distinct mountains in the district" />
		<tag k="name" v="Linåsen" />
		<tag k="natural" v="hill" />
		<tag k="place" v="locality" />
		<tag k="ssr:stedsnr" v="206035" />
	</node>
	<node id="-440097" lat="59.3198222194" lon="9.2246333343">
		<tag k="name" v="Svea" />
		<tag k="natural" v="hill" />
		<tag k="place" v="locality" />
		<tag k="ssr:stedsnr" v="184748" />
	</node>
	<node id="-440092" lat="59.2524111153" lon="9.31776388852">
		<tag k="alt_name" v="Nipe, l" />
		<tag k="fixme" v="consider natural=peak for the most distinct mountains in the district" />
		<tag k="name" v="Namløsnipe" />
		<tag k="natural" v="hill" />
		<tag k="place" v="locality" />
		<tag k="ssr:stedsnr" v="184670" />
	</node>
	<node id="-440091" lat="59.380772225" lon="9.0782027835">
		<tag k="name" v="Ormedalen" />
		<tag k="natural" v="valley" />
		<tag k="place" v="locality" />
		<tag k="ssr:stedsnr" v="184339" />
	</node>
	<node id="-440084" lat="59.3155694412" lon="9.01863610445">
		<tag k="fixme" v="consider natural=peak for the most distinct mountains in the district" />
		<tag k="name" v="Skrubbåsen" />
		<tag k="natural" v="hill" />
		<tag k="place" v="locality" />
		<tag k="ssr:stedsnr" v="184203" />
	</node>
	<node id="-440081" lat="59.3162888929" lon="9.17512500108">
		<tag k="fixme" v="consider natural=peak for the most distinct mountains in the district" />
		<tag k="name" v="Grindrudåsen" />
		<tag k="natural" v="hill" />
		<tag k="place" v="locality" />
		<tag k="ssr:stedsnr" v="184196" />
	</node>
	<node id="-440075" lat="59.2964305592" lon="9.18143054998">
		<tag k="alt_name" v="Harpåsen" />
		<tag k="fixme" v="consider natural=peak for the most distinct mountains in the district" />
		<tag k="name" v="Harpås" />
		<tag k="natural" v="hill" />
		<tag k="place" v="locality" />
		<tag k="ssr:stedsnr" v="184146" />
	</node>
	<node id="-440070" lat="59.2801277745" lon="9.07938888209">
		<tag k="alt_name" v="Hantofjell" />
		<tag k="fixme" v="consider natural=peak for the most distinct mountains in the district" />
		<tag k="name" v="Hantofjellet" />
		<tag k="natural" v="hill" />
		<tag k="place" v="locality" />
		<tag k="ssr:stedsnr" v="184106" />
	</node>
	<node id="-440069" lat="59.2786555591" lon="9.13302777315">
		<tag k="alt_name" v="Skjellaugfjellet" />
		<tag k="fixme" v="consider natural=peak for the most distinct mountains in the district" />
		<tag k="name" v="Skjellafjellet" />
		<tag k="natural" v="hill" />
		<tag k="place" v="locality" />
		<tag k="ssr:stedsnr" v="184097" />
	</node>
	<node id="-440068" lat="59.2796166706" lon="9.17858611148">
		<tag k="alt_name" v="Svartefjell" />
		<tag k="fixme" v="consider natural=peak for the most distinct mountains in the district" />
		<tag k="name" v="Svartefjellet" />
		<tag k="natural" v="hill" />
		<tag k="place" v="locality" />
		<tag k="ssr:stedsnr" v="184091" />
	</node>
	<node id="-440067" lat="59.2709222203" lon="9.15099722174">
		<tag k="alt_name" v="Skårdalen" />
		<tag k="name" v="Skordalen" />
		<tag k="natural" v="valley" />
		<tag k="place" v="locality" />
		<tag k="ssr:stedsnr" v="184090" />
	</node>
	<node id="-440064" lat="59.2524694481" lon="8.94015277438">
		<tag k="fixme" v="consider natural=peak for the most distinct mountains in the district" />
		<tag k="name" v="Gusstulfjellet" />
		<tag k="natural" v="hill" />
		<tag k="place" v="locality" />
		<tag k="ssr:stedsnr" v="184071" />
	</node>
	<node id="-440059" lat="59.1868888852" lon="9.23506111252">
		<tag k="alt_name" v="Godalsfjellet" />
		<tag k="fixme" v="consider natural=peak for the most distinct mountains in the district" />
		<tag k="name" v="Goddalsfjellet" />
		<tag k="natural" v="hill" />
		<tag k="place" v="locality" />
		<tag k="ssr:stedsnr" v="183884" />
	</node>
	<node id="-440055" lat="59.2389805588" lon="9.0830333331">
		<tag k="fixme" v="consider natural=peak for the most distinct mountains in the district" />
		<tag k="name" v="Kvernåsen" />
		<tag k="natural" v="hill" />
		<tag k="place" v="locality" />
		<tag k="ssr:stedsnr" v="183354" />
	</node>
	<node id="-440053" lat="59.2410277781" lon="9.27548888233">
		<tag k="name" v="Grasfjell" />
		<tag k="natural" v="hill" />
		<tag k="place" v="locality" />
		<tag k="ssr:stedsnr" v="178000" />
	</node>
	<node id="-440052" lat="59.235802774" lon="9.2791361106">
		<tag k="name" v="Muren" />
		<tag k="natural" v="cliff" />
		<tag k="ssr:stedsnr" v="177944" />
	</node>
	<node id="-440049" lat="59.2036999957" lon="9.18225834053">
		<tag k="name" v="Brånafjell" />
		<tag k="natural" v="hill" />
		<tag k="place" v="locality" />
		<tag k="ssr:stedsnr" v="177844" />
	</node>
	<node id="-440048" lat="59.2036972258" lon="9.26531667474">
		<tag k="name" v="Syltretjønndalen" />
		<tag k="natural" v="valley" />
		<tag k="place" v="locality" />
		<tag k="ssr:stedsnr" v="177835" />
	</node>
	<node id="-440047" lat="59.1862444413" lon="9.24483611068">
		<tag k="name" v="Blautedal" />
		<tag k="natural" v="valley" />
		<tag k="place" v="locality" />
		<tag k="ssr:stedsnr" v="177831" />
	</node>
	<node id="-440042" lat="59.2687944417" lon="9.09787499294">
		<tag k="name" v="Vardefjell" />
		<tag k="natural" v="hill" />
		<tag k="place" v="locality" />
		<tag k="ssr:stedsnr" v="177620" />
	</node>
	<node id="-440041" lat="59.2627499979" lon="9.09175278546">
		<tag k="name" v="Gravsdalen" />
		<tag k="natural" v="valley" />
		<tag k="place" v="locality" />
		<tag k="ssr:stedsnr" v="177615" />
	</node>
	<node id="-440037" lat="59.2433833357" lon="9.01707222422">
		<tag k="name" v="Lubergholet" />
		<tag k="natural" v="valley" />
		<tag k="place" v="locality" />
		<tag k="ssr:stedsnr" v="177138" />
	</node>
	<node id="-440034" lat="59.2629472254" lon="9.23797222869">
		<tag k="fixme" v="consider natural=peak for the most distinct mountains in the district" />
		<tag k="name" v="Tjennimellom" />
		<tag k="natural" v="hill" />
		<tag k="place" v="locality" />
		<tag k="ssr:stedsnr" v="177083" />
	</node>
	<node id="-438907" lat="59.160380554" lon="9.25983611061">
		<tag k="name" v="Langbrudalen" />
		<tag k="natural" v="valley" />
		<tag k="place" v="locality" />
		<tag k="ssr:stedsnr" v="454180" />
	</node>
	<node id="-440031" lat="59.2161305517" lon="9.17056944042">
		<tag k="name" v="Kollbånn" />
		<tag k="natural" v="valley" />
		<tag k="place" v="locality" />
		<tag k="ssr:stedsnr" v="162992" />
	</node>
	<node id="-440030" lat="59.2721861148" lon="9.17185278187">
		<tag k="fixme" v="consider natural=peak for the most distinct mountains in the district" />
		<tag k="name" v="Seterfjellet" />
		<tag k="natural" v="hill" />
		<tag k="place" v="locality" />
		<tag k="ssr:stedsnr" v="162949" />
	</node>
	<node id="-440028" lat="59.2092611154" lon="9.06721110261">
		<tag k="name" v="Storbumellom" />
		<tag k="natural" v="slope" />
		<tag k="place" v="locality" />
		<tag k="ssr:stedsnr" v="162385" />
	</node>
	<node id="-440027" lat="59.2960194432" lon="9.06628888187">
		<tag k="name" v="Nedre Verpemoen" />
		<tag k="place" v="locality" />
		<tag k="ssr:stedsnr" v="162738" />
	</node>
	<node id="-440026" lat="59.1542333365" lon="9.18818888485">
		<tag k="fixme" v="consider natural=peak for the most distinct mountains in the district" />
		<tag k="name" v="Lugerknatten" />
		<tag k="natural" v="hill" />
		<tag k="place" v="locality" />
		<tag k="ssr:stedsnr" v="162701" />
	</node>
	<node id="-438904" lat="59.2598222239" lon="9.30681389044">
		<tag k="name" v="Fenshøgdene" />
		<tag k="natural" v="hill" />
		<tag k="place" v="locality" />
		<tag k="ssr:stedsnr" v="451253" />
	</node>
	<node id="-440012" lat="59.2395861135" lon="9.33456943868">
		<tag k="name" v="Askedalen" />
		<tag k="natural" v="valley" />
		<tag k="place" v="locality" />
		<tag k="ssr:stedsnr" v="147450" />
	</node>
	<node id="-440011" lat="59.2536527785" lon="9.29299167182">
		<tag k="fixme" v="consider natural=peak for the most distinct mountains in the district" />
		<tag k="name" v="Kloppafjellet" />
		<tag k="natural" v="hill" />
		<tag k="place" v="locality" />
		<tag k="ssr:stedsnr" v="147153" />
	</node>
	<node id="-438903" lat="59.2623472265" lon="9.2935361176">
		<tag k="name" v="Kollen" />
		<tag k="natural" v="hill" />
		<tag k="place" v="locality" />
		<tag k="ssr:stedsnr" v="451250" />
	</node>
	<node id="-440000" lat="59.2297222261" lon="9.29027500421">
		<tag k="fixme" v="consider natural=peak for the most distinct mountains in the district" />
		<tag k="name" v="Gunnildsfjell" />
		<tag k="natural" v="hill" />
		<tag k="place" v="locality" />
		<tag k="ssr:stedsnr" v="145977" />
	</node>
	<node id="-439998" lat="59.2910166685" lon="8.82779999886">
		<tag k="name" v="Grimnesliane" />
		<tag k="natural" v="slope" />
		<tag k="place" v="locality" />
		<tag k="ssr:stedsnr" v="145371" />
	</node>
	<node id="-439996" lat="59.3279638873" lon="9.00748055258">
		<tag k="fixme" v="consider natural=peak for the most distinct mountains in the district" />
		<tag k="name" v="Gisholtknatten" />
		<tag k="natural" v="hill" />
		<tag k="place" v="locality" />
		<tag k="ssr:stedsnr" v="145301" />
	</node>
	<node id="-439993" lat="59.2965638879" lon="9.03305555894">
		<tag k="name" v="Fjosmo" />
		<tag k="place" v="locality" />
		<tag k="ssr:stedsnr" v="145241" />
	</node>
	<node id="-439992" lat="59.2861999983" lon="8.91423611499">
		<tag k="fixme" v="consider natural=peak for the most distinct mountains in the district" />
		<tag k="name" v="Sverigehova" />
		<tag k="natural" v="hill" />
		<tag k="place" v="locality" />
		<tag k="ssr:stedsnr" v="145234" />
	</node>
	<node id="-439989" lat="59.3161499985" lon="8.92685277998">
		<tag k="name" v="Kvennabuktliane" />
		<tag k="natural" v="slope" />
		<tag k="place" v="locality" />
		<tag k="ssr:stedsnr" v="145173" />
	</node>
	<node id="-439988" lat="59.249502781" lon="9.01222500654">
		<tag k="name" v="Lubergholet" />
		<tag k="natural" v="valley" />
		<tag k="place" v="locality" />
		<tag k="ssr:stedsnr" v="145169" />
	</node>
	<node id="-439986" lat="59.3504972209" lon="8.99379445311">
		<tag k="fixme" v="consider natural=peak for the most distinct mountains in the district" />
		<tag k="name" v="Svarvaråsen" />
		<tag k="natural" v="hill" />
		<tag k="place" v="locality" />
		<tag k="ssr:stedsnr" v="145122" />
	</node>
	<node id="-439985" lat="59.2781472217" lon="8.99708611988">
		<tag k="name" v="Sauåsskorra" />
		<tag k="natural" v="valley" />
		<tag k="place" v="locality" />
		<tag k="ssr:stedsnr" v="145082" />
	</node>
	<node id="-439982" lat="59.3709611073" lon="9.11435277609">
		<tag k="fixme" v="consider natural=peak for the most distinct mountains in the district" />
		<tag k="name" v="Skrubbedalsfjellet" />
		<tag k="natural" v="hill" />
		<tag k="place" v="locality" />
		<tag k="ssr:stedsnr" v="145594" />
	</node>
	<node id="-439971" lat="59.2279000032" lon="9.07158056423">
		<tag k="fixme" v="consider natural=peak for the most distinct mountains in the district" />
		<tag k="name" v="Kjerrgjelkåsa" />
		<tag k="natural" v="hill" />
		<tag k="place" v="locality" />
		<tag k="ssr:stedsnr" v="123475" />
	</node>
	<node id="-439969" lat="59.1826722226" lon="9.20610833005">
		<tag k="fixme" v="consider natural=peak for the most distinct mountains in the district" />
		<tag k="name" v="Barlindkollen" />
		<tag k="natural" v="hill" />
		<tag k="place" v="locality" />
		<tag k="ssr:stedsnr" v="123385" />
	</node>
	<node id="-438896" lat="59.2271972224" lon="9.3855361168">
		<tag k="fixme" v="consider natural=peak for the most distinct mountains in the district" />
		<tag k="name" v="Giverstolen" />
		<tag k="natural" v="hill" />
		<tag k="place" v="locality" />
		<tag k="ssr:stedsnr" v="450475" />
	</node>
	<node id="-439965" lat="59.3588777766" lon="9.11293611733">
		<tag k="name" v="Gamlestuldalen" />
		<tag k="natural" v="valley" />
		<tag k="place" v="locality" />
		<tag k="ssr:stedsnr" v="123276" />
	</node>
	<node id="-439957" lat="59.3134472245" lon="9.14893611403">
		<tag k="name" v="Trangedal" />
		<tag k="natural" v="valley" />
		<tag k="place" v="locality" />
		<tag k="ssr:stedsnr" v="123202" />
	</node>
	<node id="-439953" lat="59.2923833301" lon="8.90371111059">
		<tag k="fixme" v="consider natural=peak for the most distinct mountains in the district" />
		<tag k="name" v="Ervingsdalsfjellet" />
		<tag k="natural" v="hill" />
		<tag k="place" v="locality" />
		<tag k="ssr:stedsnr" v="123165" />
	</node>
	<node id="-439952" lat="59.2727916631" lon="9.09216110716">
		<tag k="alt_name" v="Vardefjell" />
		<tag k="fixme" v="consider natural=peak for the most distinct mountains in the district" />
		<tag k="name" v="Vardefjellet" />
		<tag k="natural" v="hill" />
		<tag k="place" v="locality" />
		<tag k="ssr:stedsnr" v="123111" />
	</node>
	<node id="-439950" lat="59.2723444471" lon="9.19700555541">
		<tag k="alt_name" v="Nuke, l" />
		<tag k="fixme" v="consider natural=peak for the most distinct mountains in the district" />
		<tag k="name" v="Lille Nuke" />
		<tag k="natural" v="hill" />
		<tag k="place" v="locality" />
		<tag k="ssr:stedsnr" v="123104" />
	</node>
	<node id="-439946" lat="59.2311000028" lon="9.17929165966">
		<tag k="fixme" v="consider natural=peak for the most distinct mountains in the district" />
		<tag k="name" v="Holtekollen" />
		<tag k="natural" v="hill" />
		<tag k="place" v="locality" />
		<tag k="ssr:stedsnr" v="122391" />
	</node>
	<node id="-439941" lat="59.1964749961" lon="9.19787499183">
		<tag k="name" v="Midtkleiv" />
		<tag k="natural" v="slope" />
		<tag k="place" v="locality" />
		<tag k="ssr:stedsnr" v="117850" />
	</node>
	<node id="-439940" lat="59.15735" lon="9.23068889727">
		<tag k="name" v="Skremmerud" />
		<tag k="natural" v="hill" />
		<tag k="place" v="locality" />
		<tag k="ssr:stedsnr" v="117666" />
	</node>
	<node id="-439939" lat="59.1525694433" lon="9.24378333401">
		<tag k="name" v="Korpfjell" />
		<tag k="natural" v="hill" />
		<tag k="place" v="locality" />
		<tag k="ssr:stedsnr" v="117665" />
	</node>
	<node id="-439935" lat="59.2657555569" lon="9.22592499839">
		<tag k="fixme" v="consider natural=peak for the most distinct mountains in the district" />
		<tag k="name" v="Nonsås" />
		<tag k="natural" v="hill" />
		<tag k="place" v="locality" />
		<tag k="ssr:stedsnr" v="117064" />
	</node>
	<node id="-439934" lat="59.2533805573" lon="9.18343056402">
		<tag k="name" v="Breisteinsveene" />
		<tag k="natural" v="hill" />
		<tag k="place" v="locality" />
		<tag k="ssr:stedsnr" v="117061" />
	</node>
	<node id="-439933" lat="59.2578166679" lon="9.18500555354">
		<tag k="name" v="Grinistulen" />
		<tag k="natural" v="slope" />
		<tag k="place" v="locality" />
		<tag k="ssr:stedsnr" v="117058" />
	</node>
	<node id="-439932" lat="59.1668000003" lon="9.18689165821">
		<tag k="name" v="Bøfjellnesa" />
		<tag k="natural" v="ridge" />
		<tag k="place" v="locality" />
		<tag k="ssr:stedsnr" v="116853" />
	</node>
	<node id="-439931" lat="59.2011250002" lon="9.25378610443">
		<tag k="name" v="Trangen" />
		<tag k="natural" v="valley" />
		<tag k="place" v="locality" />
		<tag k="ssr:stedsnr" v="116849" />
	</node>
	<node id="-439930" lat="59.1877277771" lon="9.19677500577">
		<tag k="fixme" v="consider natural=peak for the most distinct mountains in the district" />
		<tag k="name" v="Rådyrkollen" />
		<tag k="natural" v="hill" />
		<tag k="place" v="locality" />
		<tag k="ssr:stedsnr" v="116690" />
	</node>
	<node id="-439926" lat="59.2376111091" lon="9.18882778201">
		<tag k="name" v="Sølvringfjell" />
		<tag k="natural" v="hill" />
		<tag k="place" v="locality" />
		<tag k="ssr:stedsnr" v="116777" />
	</node>
	<node id="-438889" lat="59.2311388929" lon="9.32580555564">
		<tag k="name" v="Spirdalen" />
		<tag k="natural" v="valley" />
		<tag k="place" v="locality" />
		<tag k="ssr:stedsnr" v="449973" />
	</node>
	<node id="-439924" lat="59.182505553" lon="9.23611944316">
		<tag k="name" v="Sviverhaugane" />
		<tag k="natural" v="hill" />
		<tag k="place" v="locality" />
		<tag k="ssr:stedsnr" v="116746" />
	</node>
	<node id="-439919" lat="59.2269027793" lon="9.04211388101">
		<tag k="name" v="Sverdalskaret" />
		<tag k="natural" v="valley" />
		<tag k="place" v="locality" />
		<tag k="ssr:stedsnr" v="116229" />
	</node>
	<node id="-439918" lat="59.2291111076" lon="9.09220000724">
		<tag k="fixme" v="consider natural=peak for the most distinct mountains in the district" />
		<tag k="name" v="Kleivstulknatten" />
		<tag k="natural" v="hill" />
		<tag k="place" v="locality" />
		<tag k="ssr:stedsnr" v="116192" />
	</node>
	<node id="-439916" lat="59.214163893" lon="9.20296944201">
		<tag k="fixme" v="consider natural=peak for the most distinct mountains in the district" />
		<tag k="name" v="Gaudokknatten" />
		<tag k="natural" v="hill" />
		<tag k="place" v="locality" />
		<tag k="ssr:stedsnr" v="101985" />
	</node>
	<node id="-439915" lat="59.2054111084" lon="9.21324722762">
		<tag k="name" v="Junkerkleiv" />
		<tag k="natural" v="slope" />
		<tag k="place" v="locality" />
		<tag k="ssr:stedsnr" v="101980" />
	</node>
	<node id="-439914" lat="59.2203361097" lon="9.22378055051">
		<tag k="fixme" v="consider natural=peak for the most distinct mountains in the district" />
		<tag k="name" v="Bjørnhiåsen" />
		<tag k="natural" v="hill" />
		<tag k="place" v="locality" />
		<tag k="ssr:stedsnr" v="101976" />
	</node>
	<node id="-439913" lat="59.224288888" lon="9.23697778645">
		<tag k="name" v="Flisebånn" />
		<tag k="natural" v="valley" />
		<tag k="place" v="locality" />
		<tag k="ssr:stedsnr" v="101937" />
	</node>
	<node id="-439902" lat="59.1696583315" lon="9.27143889015">
		<tag k="name" v="Morgedalen" />
		<tag k="natural" v="valley" />
		<tag k="place" v="locality" />
		<tag k="ssr:stedsnr" v="89071" />
	</node>
	<node id="-439901" lat="59.3082722257" lon="9.23272499245">
		<tag k="name" v="Fjelldalen" />
		<tag k="natural" v="valley" />
		<tag k="place" v="locality" />
		<tag k="ssr:stedsnr" v="87758" />
	</node>
	<node id="-439898" lat="59.2347777748" lon="9.32816388395">
		<tag k="fixme" v="consider natural=peak for the most distinct mountains in the district" />
		<tag k="name" v="Bærvannskollen" />
		<tag k="natural" v="hill" />
		<tag k="place" v="locality" />
		<tag k="ssr:stedsnr" v="86997" />
	</node>
	<node id="-439896" lat="59.2278083333" lon="9.29304444053">
		<tag k="name" v="Vaksdal" />
		<tag k="natural" v="valley" />
		<tag k="place" v="locality" />
		<tag k="ssr:stedsnr" v="86751" />
	</node>
	<node id="-438884" lat="59.3192527819" lon="9.04122778162">
		<tag k="name" v="Bjørnestigfjellet" />
		<tag k="place" v="locality" />
		<tag k="ssr:stedsnr" v="449326" />
	</node>
	<node id="-439890" lat="59.2321055569" lon="9.39487499782">
		<tag k="fixme" v="consider natural=peak for the most distinct mountains in the district" />
		<tag k="name" v="Kråkåsen" />
		<tag k="natural" v="hill" />
		<tag k="place" v="locality" />
		<tag k="ssr:stedsnr" v="86317" />
	</node>
	<node id="-439888" lat="59.3564972222" lon="9.12441944355">
		<tag k="name" v="Spirskott" />
		<tag k="natural" v="slope" />
		<tag k="place" v="locality" />
		<tag k="ssr:stedsnr" v="85782" />
	</node>
	<node id="-439887" lat="59.350972221" lon="9.09582221481">
		<tag k="name" v="Grindåsen" />
		<tag k="natural" v="hill" />
		<tag k="place" v="locality" />
		<tag k="ssr:stedsnr" v="85626" />
	</node>
	<node id="-439884" lat="59.2715527742" lon="8.85148888225">
		<tag k="fixme" v="consider natural=peak for the most distinct mountains in the district" />
		<tag k="name" v="Mellomvassknatten" />
		<tag k="natural" v="hill" />
		<tag k="place" v="locality" />
		<tag k="ssr:stedsnr" v="85367" />
	</node>
	<node id="-439881" lat="59.2836499964" lon="8.92949722137">
		<tag k="fixme" v="consider natural=peak for the most distinct mountains in the district" />
		<tag k="name" v="Gostander" />
		<tag k="natural" v="hill" />
		<tag k="place" v="locality" />
		<tag k="ssr:stedsnr" v="85189" />
	</node>
	<node id="-439876" lat="59.3165388867" lon="8.99208333804">
		<tag k="fixme" v="consider natural=peak for the most distinct mountains in the district" />
		<tag k="name" v="Kåsinåsane" />
		<tag k="natural" v="hill" />
		<tag k="place" v="locality" />
		<tag k="ssr:stedsnr" v="85033" />
	</node>
	<node id="-439875" lat="59.2856916707" lon="9.0443611136">
		<tag k="name" v="Langeskotta" />
		<tag k="natural" v="slope" />
		<tag k="place" v="locality" />
		<tag k="ssr:stedsnr" v="85175" />
	</node>
	<node id="-439873" lat="59.2479111078" lon="9.32558055172">
		<tag k="name" v="Jøntvedtliane" />
		<tag k="natural" v="slope" />
		<tag k="place" v="locality" />
		<tag k="ssr:stedsnr" v="85092" />
	</node>
	<node id="-439872" lat="59.3467083346" lon="8.95219166468">
		<tag k="fixme" v="consider natural=peak for the most distinct mountains in the district" />
		<tag k="name" v="Jæren" />
		<tag k="natural" v="hill" />
		<tag k="place" v="locality" />
		<tag k="ssr:stedsnr" v="85080" />
	</node>
	<node id="-439869" lat="59.2267638901" lon="9.11763611174">
		<tag k="name" v="Vomstul" />
		<tag k="natural" v="slope" />
		<tag k="place" v="locality" />
		<tag k="ssr:stedsnr" v="72368" />
	</node>
	<node id="-439861" lat="59.3398611078" lon="8.97638889152">
		<tag k="alt_name" v="Skurufjellet" />
		<tag k="fixme" v="consider natural=peak for the most distinct mountains in the district" />
		<tag k="name" v="Skurufjell" />
		<tag k="natural" v="hill" />
		<tag k="place" v="locality" />
		<tag k="ssr:stedsnr" v="63300" />
	</node>
	<node id="-439860" lat="59.3500277781" lon="9.05174166961">
		<tag k="alt_name" v="Sandkleivkollen" />
		<tag k="fixme" v="consider natural=peak for the most distinct mountains in the district" />
		<tag k="name" v="Sandklekollen" />
		<tag k="natural" v="hill" />
		<tag k="place" v="locality" />
		<tag k="ssr:stedsnr" v="63288" />
	</node>
	<node id="-439858" lat="59.3348138897" lon="9.03380556118">
		<tag k="alt_name" v="Orebotnen" />
		<tag k="name" v="Orebotten" />
		<tag k="natural" v="valley" />
		<tag k="place" v="locality" />
		<tag k="ssr:stedsnr" v="63248" />
	</node>
	<node id="-439857" lat="59.3292583299" lon="9.07021388183">
		<tag k="alt_name" v="Østerholtnatten" />
		<tag k="fixme" v="consider natural=peak for the most distinct mountains in the district" />
		<tag k="name" v="Østerholtknatten" />
		<tag k="natural" v="hill" />
		<tag k="place" v="locality" />
		<tag k="ssr:stedsnr" v="63247" />
	</node>
	<node id="-439854" lat="59.3217916625" lon="8.89018610757">
		<tag k="fixme" v="consider natural=peak for the most distinct mountains in the district" />
		<tag k="name" v="Kåsaknattane" />
		<tag k="natural" v="hill" />
		<tag k="place" v="locality" />
		<tag k="ssr:stedsnr" v="63235" />
	</node>
	<node id="-439852" lat="59.3295583369" lon="9.03245834079">
		<tag k="fixme" v="consider natural=peak for the most distinct mountains in the district" />
		<tag k="name" v="Sundbøfjellet" />
		<tag k="natural" v="hill" />
		<tag k="place" v="locality" />
		<tag k="ssr:stedsnr" v="63225" />
	</node>
	<node id="-439851" lat="59.3188777735" lon="8.95856111305">
		<tag k="name" v="Nesmoen" />
		<tag k="place" v="locality" />
		<tag k="ssr:stedsnr" v="63205" />
	</node>
	<node id="-439849" lat="59.3057583318" lon="8.997527771">
		<tag k="alt_name" v="Tjurudalsfjellet" />
		<tag k="fixme" v="consider natural=peak for the most distinct mountains in the district" />
		<tag k="name" v="Tjurrudalsfjell" />
		<tag k="natural" v="hill" />
		<tag k="place" v="locality" />
		<tag k="ssr:stedsnr" v="63192" />
	</node>
	<node id="-439846" lat="59.2962138905" lon="8.89259444803">
		<tag k="name" v="Ospelunddalen" />
		<tag k="natural" v="valley" />
		<tag k="place" v="locality" />
		<tag k="ssr:stedsnr" v="63174" />
	</node>
	<node id="-439842" lat="59.2921555564" lon="8.87854722201">
		<tag k="fixme" v="consider natural=peak for the most distinct mountains in the district" />
		<tag k="name" v="Diplefjell" />
		<tag k="natural" v="hill" />
		<tag k="place" v="locality" />
		<tag k="ssr:stedsnr" v="63160" />
	</node>
	<node id="-439836" lat="59.2687416668" lon="9.17105832861">
		<tag k="fixme" v="consider natural=peak for the most distinct mountains in the district" />
		<tag k="name" v="Sæterfjellet" />
		<tag k="natural" v="hill" />
		<tag k="place" v="locality" />
		<tag k="ssr:stedsnr" v="63113" />
	</node>
	<node id="-439835" lat="59.1965083297" lon="9.29654722441">
		<tag k="fixme" v="consider natural=peak for the most distinct mountains in the district" />
		<tag k="name" v="Vasslausfjellet" />
		<tag k="natural" v="hill" />
		<tag k="place" v="locality" />
		<tag k="ssr:stedsnr" v="62892" />
	</node>
	<node id="-439825" lat="59.2348027756" lon="9.36853333207">
		<tag k="fixme" v="consider natural=peak for the most distinct mountains in the district" />
		<tag k="name" v="Klovdalsfjellet" />
		<tag k="natural" v="hill" />
		<tag k="place" v="locality" />
		<tag k="ssr:stedsnr" v="62051" />
	</node>
	<node id="-439818" lat="59.161424998" lon="9.22800833689">
		<tag k="fixme" v="consider natural=peak for the most distinct mountains in the district" />
		<tag k="name" v="Vestre Middagskollen" />
		<tag k="natural" v="hill" />
		<tag k="place" v="locality" />
		<tag k="ssr:stedsnr" v="56690" />
	</node>
	<node id="-439817" lat="59.1529861149" lon="9.2253722271">
		<tag k="name" v="Bøvannsliane" />
		<tag k="natural" v="slope" />
		<tag k="place" v="locality" />
		<tag k="ssr:stedsnr" v="56686" />
	</node>
	<node id="-438754" lat="59.3550166653" lon="8.95901110415">
		<tag k="fixme" v="consider natural=peak for the most distinct mountains in the district" />
		<tag k="name" v="Bjørnhusk" />
		<tag k="natural" v="hill" />
		<tag k="place" v="locality" />
		<tag k="ssr:stedsnr" v="267060" />
	</node>
	<node id="-439812" lat="59.2373388867" lon="9.26447777597">
		<tag k="fixme" v="consider natural=peak for the most distinct mountains in the district" />
		<tag k="name" v="Halvfaråsane" />
		<tag k="natural" v="hill" />
		<tag k="place" v="locality" />
		<tag k="ssr:stedsnr" v="56000" />
	</node>
	<node id="-439811" lat="59.1980972204" lon="9.22686111554">
		<tag k="name" v="Ormen" />
		<tag k="natural" v="hill" />
		<tag k="place" v="locality" />
		<tag k="ssr:stedsnr" v="55848" />
	</node>
	<node id="-439810" lat="59.1943833332" lon="9.25798888243">
		<tag k="name" v="Gopledalen" />
		<tag k="natural" v="valley" />
		<tag k="place" v="locality" />
		<tag k="ssr:stedsnr" v="55842" />
	</node>
	<node id="-439809" lat="59.2021388921" lon="9.24852500525">
		<tag k="name" v="Hommevatnsdalen" />
		<tag k="natural" v="valley" />
		<tag k="place" v="locality" />
		<tag k="ssr:stedsnr" v="55838" />
	</node>
	<node id="-439808" lat="59.1782500021" lon="9.21112222538">
		<tag k="name" v="Mælastulen" />
		<tag k="natural" v="slope" />
		<tag k="place" v="locality" />
		<tag k="ssr:stedsnr" v="55837" />
	</node>
	<node id="-439806" lat="59.1752861131" lon="9.19810833256">
		<tag k="fixme" v="consider natural=peak for the most distinct mountains in the district" />
		<tag k="name" v="Prestevatnskollane" />
		<tag k="natural" v="hill" />
		<tag k="place" v="locality" />
		<tag k="ssr:stedsnr" v="55831" />
	</node>
	<node id="-439804" lat="59.1758916692" lon="9.21494721593">
		<tag k="fixme" v="consider natural=peak for the most distinct mountains in the district" />
		<tag k="name" v="Småtjønnåsane" />
		<tag k="natural" v="hill" />
		<tag k="place" v="locality" />
		<tag k="ssr:stedsnr" v="55821" />
	</node>
	<node id="-439800" lat="59.231902779" lon="9.2115916634">
		<tag k="name" v="Bybakke" />
		<tag k="natural" v="slope" />
		<tag k="place" v="locality" />
		<tag k="ssr:stedsnr" v="55785" />
	</node>
	<node id="-439797" lat="59.2424749967" lon="9.20233054922">
		<tag k="name" v="Sagbukken" />
		<tag k="place" v="locality" />
		<tag k="ssr:stedsnr" v="55754" />
	</node>
	<node id="-439796" lat="59.1828361113" lon="9.24203888055">
		<tag k="name" v="Dåsamyrdalen" />
		<tag k="natural" v="valley" />
		<tag k="place" v="locality" />
		<tag k="ssr:stedsnr" v="55725" />
	</node>
	<node id="-438867" lat="59.3078666653" lon="8.96819167234">
		<tag k="alt_name" v="Vardefjellet" />
		<tag k="fixme" v="consider natural=peak for the most distinct mountains in the district" />
		<tag k="name" v="Vardefjell" />
		<tag k="natural" v="hill" />
		<tag k="place" v="locality" />
		<tag k="ssr:stedsnr" v="245169" />
	</node>
	<node id="-439789" lat="59.2162083353" lon="9.08604999807">
		<tag k="name" v="Svantjønnlia" />
		<tag k="natural" v="slope" />
		<tag k="place" v="locality" />
		<tag k="ssr:stedsnr" v="55390" />
	</node>
	<node id="-439788" lat="59.2233444411" lon="9.15933333596">
		<tag k="fixme" v="consider natural=peak for the most distinct mountains in the district" />
		<tag k="name" v="Snauås" />
		<tag k="natural" v="hill" />
		<tag k="place" v="locality" />
		<tag k="ssr:stedsnr" v="55384" />
	</node>
	<node id="-439787" lat="59.2274749968" lon="9.06740000164">
		<tag k="fixme" v="consider natural=peak for the most distinct mountains in the district" />
		<tag k="name" v="Bikkjemyråsen" />
		<tag k="natural" v="hill" />
		<tag k="place" v="locality" />
		<tag k="ssr:stedsnr" v="55179" />
	</node>
	<node id="-439786" lat="59.2584749993" lon="9.22848332754">
		<tag k="name" v="Nukedal" />
		<tag k="natural" v="valley" />
		<tag k="place" v="locality" />
		<tag k="ssr:stedsnr" v="55091" />
	</node>
	<node id="-439782" lat="59.2745138903" lon="9.20658334168">
		<tag k="fixme" v="consider natural=peak for the most distinct mountains in the district" />
		<tag k="name" v="Kasteinåsane" />
		<tag k="natural" v="hill" />
		<tag k="place" v="locality" />
		<tag k="ssr:stedsnr" v="41930" />
	</node>
	<node id="-439779" lat="59.2132777774" lon="9.07140555084">
		<tag k="name" v="Kolskottet" />
		<tag k="natural" v="slope" />
		<tag k="place" v="locality" />
		<tag k="ssr:stedsnr" v="41376" />
	</node>
	<node id="-439775" lat="59.2132277809" lon="9.20918055133">
		<tag k="fixme" v="consider natural=peak for the most distinct mountains in the district" />
		<tag k="name" v="Storlidalsfjellet" />
		<tag k="natural" v="hill" />
		<tag k="place" v="locality" />
		<tag k="ssr:stedsnr" v="40979" />
	</node>
	<node id="-439770" lat="59.1798861132" lon="9.25898611882">
		<tag k="name" v="Kroktjennhovet" />
		<tag k="natural" v="valley" />
		<tag k="place" v="locality" />
		<tag k="ssr:stedsnr" v="29027" />
	</node>
	<node id="-438863" lat="59.2671666629" lon="8.93139166114">
		<tag k="fixme" v="consider natural=peak for the most distinct mountains in the district" />
		<tag k="name" v="Tveitstulvarden" />
		<tag k="natural" v="hill" />
		<tag k="place" v="locality" />
		<tag k="ssr:stedsnr" v="245117" />
	</node>
	<node id="-439766" lat="59.3137083342" lon="9.19905833467">
		<tag k="fixme" v="consider natural=peak for the most distinct mountains in the district" />
		<tag k="name" v="Gotiåsen" />
		<tag k="natural" v="hill" />
		<tag k="place" v="locality" />
		<tag k="ssr:stedsnr" v="27577" />
	</node>
	<node id="-439765" lat="59.2605972179" lon="9.31018333335">
		<tag k="fixme" v="consider natural=peak for the most distinct mountains in the district" />
		<tag k="name" v="Gramshaug" />
		<tag k="natural" v="hill" />
		<tag k="place" v="locality" />
		<tag k="ssr:stedsnr" v="27229" />
	</node>
	<node id="-439764" lat="59.2546833291" lon="9.29836389475">
		<tag k="name" v="Spiredalen" />
		<tag k="natural" v="valley" />
		<tag k="place" v="locality" />
		<tag k="ssr:stedsnr" v="27136" />
	</node>
	<node id="-439763" lat="59.2449027735" lon="9.34178054972">
		<tag k="name" v="Helgjaliane" />
		<tag k="natural" v="slope" />
		<tag k="place" v="locality" />
		<tag k="ssr:stedsnr" v="26471" />
	</node>
	<node id="-439761" lat="59.2287777768" lon="9.30207500033">
		<tag k="fixme" v="consider natural=peak for the most distinct mountains in the district" />
		<tag k="name" v="Matbordfjellet" />
		<tag k="natural" v="hill" />
		<tag k="place" v="locality" />
		<tag k="ssr:stedsnr" v="25765" />
	</node>
	<node id="-439760" lat="59.3576722195" lon="9.09673332582">
		<tag k="name" v="Olsbekkdalen" />
		<tag k="natural" v="valley" />
		<tag k="place" v="locality" />
		<tag k="ssr:stedsnr" v="25647" />
	</node>
	<node id="-439758" lat="59.2685470928" lon="8.89789675277">
		<tag k="name" v="Solomdalen" />
		<tag k="natural" v="valley" />
		<tag k="place" v="locality" />
		<tag k="ssr:stedsnr" v="25493" />
	</node>
	<node id="-439753" lat="59.2525999967" lon="9.36457222263">
		<tag k="fixme" v="consider natural=peak for the most distinct mountains in the district" />
		<tag k="name" v="Kattlia" />
		<tag k="natural" v="hill" />
		<tag k="place" v="locality" />
		<tag k="ssr:stedsnr" v="25284" />
	</node>
	<node id="-439751" lat="59.2580388894" lon="9.37903333097">
		<tag k="fixme" v="consider natural=peak for the most distinct mountains in the district" />
		<tag k="name" v="Strandåsen" />
		<tag k="natural" v="hill" />
		<tag k="place" v="locality" />
		<tag k="ssr:stedsnr" v="25277" />
	</node>
	<node id="-439749" lat="59.2461527814" lon="9.36822777729">
		<tag k="name" v="Korphaug" />
		<tag k="natural" v="hill" />
		<tag k="place" v="locality" />
		<tag k="ssr:stedsnr" v="25373" />
	</node>
	<node id="-438723" lat="59.304125004" lon="8.95768332982">
		<tag k="name" v="Bjørkelia" />
		<tag k="natural" v="slope" />
		<tag k="place" v="locality" />
		<tag k="ssr:stedsnr" v="85002" />
	</node>
	<node id="-439747" lat="59.2480083304" lon="9.30805555909">
		<tag k="fixme" v="consider natural=peak for the most distinct mountains in the district" />
		<tag k="name" v="Vibetonipe" />
		<tag k="natural" v="hill" />
		<tag k="place" v="locality" />
		<tag k="ssr:stedsnr" v="25160" />
	</node>
	<node id="-439745" lat="59.3439916672" lon="9.10806667468">
		<tag k="name" v="Stranddalen" />
		<tag k="natural" v="valley" />
		<tag k="place" v="locality" />
		<tag k="ssr:stedsnr" v="24666" />
	</node>
	<node id="-439743" lat="59.3768444431" lon="9.11382778272">
		<tag k="fixme" v="consider natural=peak for the most distinct mountains in the district" />
		<tag k="name" v="Nystulfjellet" />
		<tag k="natural" v="hill" />
		<tag k="place" v="locality" />
		<tag k="ssr:stedsnr" v="24590" />
	</node>
	<node id="-439742" lat="59.2867472192" lon="8.85529166097">
		<tag k="name" v="Mørkvassliane" />
		<tag k="natural" v="slope" />
		<tag k="place" v="locality" />
		<tag k="ssr:stedsnr" v="24440" />
	</node>
	<node id="-439741" lat="59.2820833351" lon="9.00919167066">
		<tag k="name" v="Ringsdalen" />
		<tag k="natural" v="valley" />
		<tag k="place" v="locality" />
		<tag k="ssr:stedsnr" v="24196" />
	</node>
	<node id="-439740" lat="59.3328888906" lon="9.04007500555">
		<tag k="name" v="Huskedalen" />
		<tag k="natural" v="valley" />
		<tag k="place" v="locality" />
		<tag k="ssr:stedsnr" v="24383" />
	</node>
	<node id="-439737" lat="59.343952782" lon="8.97061666227">
		<tag k="name" v="Kudalen" />
		<tag k="natural" v="valley" />
		<tag k="place" v="locality" />
		<tag k="ssr:stedsnr" v="24087" />
	</node>
	<node id="-439736" lat="59.2742277775" lon="8.95435832574">
		<tag k="name" v="Kleivstulliane" />
		<tag k="natural" v="slope" />
		<tag k="place" v="locality" />
		<tag k="ssr:stedsnr" v="24076" />
	</node>
	<node id="-439735" lat="59.2891916675" lon="8.98682500675">
		<tag k="name" v="Skalkedalane" />
		<tag k="natural" v="valley" />
		<tag k="place" v="locality" />
		<tag k="ssr:stedsnr" v="24060" />
	</node>
	<node id="-440729" lat="59.2383694409" lon="9.17775556216">
		<tag k="name" v="Kveldhaugane" />
		<tag k="natural" v="hill" />
		<tag k="place" v="locality" />
		<tag k="ssr:stedsnr" v="783790" />
	</node>
	<node id="-439732" lat="59.2832138876" lon="9.01143889413">
		<tag k="fixme" v="consider natural=peak for the most distinct mountains in the district" />
		<tag k="name" v="Helleskleivåsane" />
		<tag k="natural" v="hill" />
		<tag k="place" v="locality" />
		<tag k="ssr:stedsnr" v="23266" />
	</node>
	<node id="-439730" lat="59.309827782" lon="8.89909444764">
		<tag k="name" v="Høgefjelldalen" />
		<tag k="natural" v="valley" />
		<tag k="place" v="locality" />
		<tag k="ssr:stedsnr" v="9675" />
	</node>
	<node id="-439719" lat="59.2533583347" lon="9.32723611043">
		<tag k="fixme" v="consider natural=peak for the most distinct mountains in the district" />
		<tag k="name" v="Simensås" />
		<tag k="natural" v="hill" />
		<tag k="place" v="locality" />
		<tag k="ssr:stedsnr" v="2679" />
	</node>
	<node id="-439707" lat="59.2203055539" lon="9.14043055171">
		<tag k="alt_name" v="Berntsdal" />
		<tag k="name" v="Berntsdalen" />
		<tag k="natural" v="valley" />
		<tag k="place" v="locality" />
		<tag k="ssr:stedsnr" v="1411" />
	</node>
	<node id="-439705" lat="59.1982972233" lon="9.19470000205">
		<tag k="fixme" v="consider natural=peak for the most distinct mountains in the district" />
		<tag k="name" v="Teigefjellet" />
		<tag k="natural" v="hill" />
		<tag k="place" v="locality" />
		<tag k="ssr:stedsnr" v="1328" />
	</node>
	<node id="-439703" lat="59.3305083334" lon="9.17380555155">
		<tag k="fixme" v="consider natural=peak for the most distinct mountains in the district" />
		<tag k="name" v="Langkåsåsen" />
		<tag k="natural" v="hill" />
		<tag k="place" v="locality" />
		<tag k="ssr:stedsnr" v="2199" />
	</node>
	<node id="-439700" lat="59.2302944445" lon="9.34324722291">
		<tag k="alt_name" v="Verstadfjellet" />
		<tag k="fixme" v="consider natural=peak for the most distinct mountains in the district" />
		<tag k="name" v="Værstadfjellet" />
		<tag k="natural" v="hill" />
		<tag k="place" v="locality" />
		<tag k="ssr:stedsnr" v="1071" />
	</node>
	<node id="-438849" lat="59.1864472189" lon="9.22925277513">
		<tag k="name" v="Sandståliane" />
		<tag k="natural" v="slope" />
		<tag k="place" v="locality" />
		<tag k="ssr:stedsnr" v="298782" />
	</node>
	<node id="-439684" lat="59.1907555557" lon="9.26608611411">
		<tag k="name" v="Åshildsli" />
		<tag k="natural" v="slope" />
		<tag k="place" v="locality" />
		<tag k="ssr:stedsnr" v="965819" />
	</node>
	<node id="-439680" lat="59.253475002" lon="9.20446666674">
		<tag k="name" v="Bustlyngåsen" />
		<tag k="natural" v="ridge" />
		<tag k="place" v="locality" />
		<tag k="ssr:stedsnr" v="966054" />
	</node>
	<node id="-439679" lat="59.2526305533" lon="9.12004722501">
		<tag k="name" v="Bukkefjell" />
		<tag k="natural" v="hill" />
		<tag k="place" v="locality" />
		<tag k="ssr:stedsnr" v="965616" />
	</node>
	<node id="-439677" lat="59.2534888896" lon="9.10101110371">
		<tag k="name" v="Svarttjønnkollen" />
		<tag k="natural" v="hill" />
		<tag k="place" v="locality" />
		<tag k="ssr:stedsnr" v="965576" />
	</node>
	<node id="-440727" lat="59.1840416661" lon="9.19640833178">
		<tag k="fixme" v="consider natural=peak for the most distinct mountains in the district" />
		<tag k="name" v="Auretjønnkollen" />
		<tag k="natural" v="hill" />
		<tag k="place" v="locality" />
		<tag k="ssr:stedsnr" v="783678" />
	</node>
	<node id="-439672" lat="59.1479083342" lon="9.18168055083">
		<tag k="name" v="Blomtjønnheia" />
		<tag k="natural" v="hill" />
		<tag k="place" v="locality" />
		<tag k="ssr:stedsnr" v="951660" />
	</node>
	<node id="-439671" lat="59.2261305586" lon="9.1325277842">
		<tag k="name" v="Moelkollen" />
		<tag k="natural" v="hill" />
		<tag k="place" v="locality" />
		<tag k="ssr:stedsnr" v="951405" />
	</node>
	<node id="-439669" lat="59.296083333" lon="9.2715111129">
		<tag k="name" v="Brattestad" />
		<tag k="natural" v="slope" />
		<tag k="place" v="locality" />
		<tag k="ssr:stedsnr" v="938753" />
	</node>
	<node id="-439666" lat="59.2685416657" lon="8.84034721789">
		<tag k="name" v="Beinbrottdalen" />
		<tag k="natural" v="valley" />
		<tag k="place" v="locality" />
		<tag k="ssr:stedsnr" v="935524" />
	</node>
	<node id="-439661" lat="59.3056027743" lon="8.97276944537">
		<tag k="name" v="Stulsliane" />
		<tag k="natural" v="slope" />
		<tag k="place" v="locality" />
		<tag k="ssr:stedsnr" v="934004" />
	</node>
	<node id="-439658" lat="59.3258055556" lon="9.05515833538">
		<tag k="fixme" v="consider natural=peak for the most distinct mountains in the district" />
		<tag k="name" v="Lundtveitfjellet" />
		<tag k="natural" v="hill" />
		<tag k="place" v="locality" />
		<tag k="ssr:stedsnr" v="912222" />
	</node>
	<node id="-439656" lat="59.1971361071" lon="9.21404445159">
		<tag k="name" v="Buferdsholet" />
		<tag k="natural" v="cliff" />
		<tag k="ssr:stedsnr" v="906708" />
	</node>
	<node id="-438844" lat="59.1803166687" lon="9.23723611494">
		<tag k="name" v="Grubbedalen" />
		<tag k="natural" v="valley" />
		<tag k="place" v="locality" />
		<tag k="ssr:stedsnr" v="298720" />
	</node>
	<node id="-439652" lat="59.1642916668" lon="9.18735833398">
		<tag k="name" v="Bøfjell-liane" />
		<tag k="natural" v="slope" />
		<tag k="place" v="locality" />
		<tag k="ssr:stedsnr" v="905866" />
	</node>
	<node id="-439650" lat="59.1856111106" lon="9.2671444526">
		<tag k="name" v="Trolldalsbråtta" />
		<tag k="natural" v="cliff" />
		<tag k="ssr:stedsnr" v="905819" />
	</node>
	<node id="-439649" lat="59.1893527783" lon="9.24491389475">
		<tag k="fixme" v="consider natural=peak for the most distinct mountains in the district" />
		<tag k="name" v="Kinnemyrfjellet" />
		<tag k="natural" v="hill" />
		<tag k="place" v="locality" />
		<tag k="ssr:stedsnr" v="905816" />
	</node>
	<node id="-439646" lat="59.2305638933" lon="9.17839722055">
		<tag k="name" v="Holteknatten" />
		<tag k="natural" v="hill" />
		<tag k="place" v="locality" />
		<tag k="ssr:stedsnr" v="905767" />
	</node>
	<node id="-439643" lat="59.2512777814" lon="9.14147222164">
		<tag k="fixme" v="consider natural=peak for the most distinct mountains in the district" />
		<tag k="name" v="Sølvbergåsen" />
		<tag k="natural" v="hill" />
		<tag k="place" v="locality" />
		<tag k="ssr:stedsnr" v="905617" />
	</node>
	<node id="-439642" lat="59.2081833294" lon="9.04798611671">
		<tag k="fixme" v="consider natural=peak for the most distinct mountains in the district" />
		<tag k="name" v="Vesle Rupåsen" />
		<tag k="natural" v="hill" />
		<tag k="place" v="locality" />
		<tag k="ssr:stedsnr" v="905221" />
	</node>
	<node id="-439641" lat="59.3589250029" lon="9.08418889433">
		<tag k="name" v="Rønningåsen" />
		<tag k="natural" v="hill" />
		<tag k="place" v="locality" />
		<tag k="ssr:stedsnr" v="875612" />
	</node>
	<node id="-439637" lat="59.3517000033" lon="9.02085277356">
		<tag k="name" v="Rundtom" />
		<tag k="place" v="locality" />
		<tag k="ssr:stedsnr" v="874368" />
	</node>
	<node id="-439636" lat="59.3282250025" lon="9.02269999913">
		<tag k="name" v="Nordigardsfjellet" />
		<tag k="place" v="locality" />
		<tag k="ssr:stedsnr" v="874321" />
	</node>
	<node id="-439634" lat="59.2346361125" lon="9.35945276974">
		<tag k="name" v="Brånan" />
		<tag k="natural" v="hill" />
		<tag k="place" v="locality" />
		<tag k="ssr:stedsnr" v="874477" />
	</node>
	<node id="-439631" lat="59.2836999976" lon="8.84398610442">
		<tag k="name" v="Furuvassjuvet" />
		<tag k="natural" v="gorge" />
		<tag k="ssr:stedsnr" v="874459" />
	</node>
	<node id="-439630" lat="59.331447224" lon="9.00603333637">
		<tag k="name" v="Kjellaren" />
		<tag k="natural" v="valley" />
		<tag k="place" v="locality" />
		<tag k="ssr:stedsnr" v="874408" />
	</node>
	<node id="-439617" lat="59.2744027811" lon="9.13811666835">
		<tag k="fixme" v="consider natural=peak for the most distinct mountains in the district" />
		<tag k="name" v="Knarren" />
		<tag k="natural" v="hill" />
		<tag k="place" v="locality" />
		<tag k="ssr:stedsnr" v="852114" />
	</node>
	<node id="-438837" lat="59.2539027766" lon="9.10734722283">
		<tag k="name" v="Svarttjønnfjell" />
		<tag k="natural" v="cliff" />
		<tag k="ssr:stedsnr" v="298551" />
	</node>
	<node id="-439609" lat="59.1595222235" lon="9.2778555562">
		<tag k="name" v="Kaslebuåsen" />
		<tag k="natural" v="hill" />
		<tag k="place" v="locality" />
		<tag k="ssr:stedsnr" v="939192" />
	</node>
	<node id="-439604" lat="59.2560999981" lon="9.28320277815">
		<tag k="name" v="Torndalen" />
		<tag k="natural" v="valley" />
		<tag k="place" v="locality" />
		<tag k="ssr:stedsnr" v="937190" />
	</node>
	<node id="-439603" lat="59.2595805522" lon="9.28473055991">
		<tag k="name" v="Håtveitlia" />
		<tag k="natural" v="slope" />
		<tag k="place" v="locality" />
		<tag k="ssr:stedsnr" v="937187" />
	</node>
	<node id="-438835" lat="59.2046333329" lon="9.15836944582">
		<tag k="name" v="Brokefjell" />
		<tag k="natural" v="hill" />
		<tag k="place" v="locality" />
		<tag k="ssr:stedsnr" v="298369" />
	</node>
	<node id="-439588" lat="59.2493638849" lon="9.29419166989">
		<tag k="fixme" v="consider natural=peak for the most distinct mountains in the district" />
		<tag k="name" v="Moltemyråsen" />
		<tag k="natural" v="hill" />
		<tag k="place" v="locality" />
		<tag k="ssr:stedsnr" v="935146" />
	</node>
	<node id="-439586" lat="59.3469083295" lon="9.04732221979">
		<tag k="fixme" v="consider natural=peak for the most distinct mountains in the district" />
		<tag k="name" v="Vesle Lonfjell" />
		<tag k="natural" v="hill" />
		<tag k="place" v="locality" />
		<tag k="ssr:stedsnr" v="934364" />
	</node>
	<node id="-439585" lat="59.3513972241" lon="8.9877444358">
		<tag k="fixme" v="consider natural=peak for the most distinct mountains in the district" />
		<tag k="name" v="Langetjønnåsen" />
		<tag k="natural" v="hill" />
		<tag k="place" v="locality" />
		<tag k="ssr:stedsnr" v="934096" />
	</node>
	<node id="-439584" lat="59.3496388932" lon="8.97964443884">
		<tag k="name" v="Brokaliane" />
		<tag k="natural" v="slope" />
		<tag k="place" v="locality" />
		<tag k="ssr:stedsnr" v="934093" />
	</node>
	<node id="-438832" lat="59.2459777751" lon="9.09238888743">
		<tag k="name" v="Suggedalen" />
		<tag k="natural" v="valley" />
		<tag k="place" v="locality" />
		<tag k="ssr:stedsnr" v="298193" />
	</node>
	<node id="-439580" lat="59.2569888924" lon="9.28832778121">
		<tag k="name" v="Håtveitkollen" />
		<tag k="natural" v="hill" />
		<tag k="place" v="locality" />
		<tag k="ssr:stedsnr" v="815162" />
	</node>
	<node id="-439579" lat="59.2859611137" lon="8.82541944407">
		<tag k="fixme" v="consider natural=peak for the most distinct mountains in the district" />
		<tag k="name" v="Brannen" />
		<tag k="natural" v="hill" />
		<tag k="place" v="locality" />
		<tag k="ssr:stedsnr" v="813343" />
	</node>
	<node id="-439573" lat="59.2965583371" lon="8.9148305503">
		<tag k="fixme" v="consider natural=peak for the most distinct mountains in the district" />
		<tag k="name" v="Teigefjellet" />
		<tag k="natural" v="hill" />
		<tag k="place" v="locality" />
		<tag k="ssr:stedsnr" v="791168" />
	</node>
	<node id="-439569" lat="59.1556777749" lon="9.27025833929">
		<tag k="fixme" v="consider natural=peak for the most distinct mountains in the district" />
		<tag k="name" v="Gjeldsheia" />
		<tag k="natural" v="hill" />
		<tag k="place" v="locality" />
		<tag k="ssr:stedsnr" v="790953" />
	</node>
	<node id="-439568" lat="59.2420500007" lon="9.14578054951">
		<tag k="alt_name" v="Hestås" />
		<tag k="fixme" v="consider natural=peak for the most distinct mountains in the district" />
		<tag k="name" v="Heståsen" />
		<tag k="natural" v="hill" />
		<tag k="place" v="locality" />
		<tag k="ssr:stedsnr" v="790400" />
	</node>
	<node id="-439565" lat="59.2176277786" lon="9.25863332492">
		<tag k="name" v="Haraldsdalen" />
		<tag k="natural" v="valley" />
		<tag k="place" v="locality" />
		<tag k="ssr:stedsnr" v="769865" />
	</node>
	<node id="-439562" lat="59.1607972216" lon="9.18516110442">
		<tag k="name" v="Grunnvatnsdalen" />
		<tag k="natural" v="valley" />
		<tag k="place" v="locality" />
		<tag k="ssr:stedsnr" v="769685" />
	</node>
	<node id="-439561" lat="59.2480194453" lon="9.12403055657">
		<tag k="name" v="Bukkefjell" />
		<tag k="natural" v="hill" />
		<tag k="place" v="locality" />
		<tag k="ssr:stedsnr" v="769276" />
	</node>
	<node id="-439560" lat="59.2417222247" lon="9.12790833361">
		<tag k="fixme" v="consider natural=peak for the most distinct mountains in the district" />
		<tag k="name" v="Englandsåsen" />
		<tag k="natural" v="hill" />
		<tag k="place" v="locality" />
		<tag k="ssr:stedsnr" v="769271" />
	</node>
	<node id="-439554" lat="59.3462777747" lon="9.03989445052">
		<tag k="alt_name" v="Lonefjellet" />
		<tag k="fixme" v="consider natural=peak for the most distinct mountains in the district" />
		<tag k="name" v="Lonfjell" />
		<tag k="natural" v="hill" />
		<tag k="place" v="locality" />
		<tag k="ssr:stedsnr" v="913261" />
	</node>
	<node id="-439552" lat="59.3400694457" lon="9.15383333645">
		<tag k="alt_name" v="Brentåsen" />
		<tag k="fixme" v="consider natural=peak for the most distinct mountains in the district" />
		<tag k="name" v="Brentås" />
		<tag k="natural" v="hill" />
		<tag k="place" v="locality" />
		<tag k="ssr:stedsnr" v="913235" />
	</node>
	<node id="-439548" lat="59.3024777813" lon="9.00809443857">
		<tag k="alt_name" v="Husefjellet" />
		<tag k="fixme" v="consider natural=peak for the most distinct mountains in the district" />
		<tag k="name" v="Husefjell" />
		<tag k="natural" v="hill" />
		<tag k="place" v="locality" />
		<tag k="ssr:stedsnr" v="913156" />
	</node>
	<node id="-439547" lat="59.2904750023" lon="8.96941944707">
		<tag k="alt_name" v="Høgsvatnsåsen" />
		<tag k="fixme" v="consider natural=peak for the most distinct mountains in the district" />
		<tag k="name" v="Høgvassåsen" />
		<tag k="natural" v="hill" />
		<tag k="place" v="locality" />
		<tag k="ssr:stedsnr" v="913142" />
	</node>
	<node id="-439543" lat="59.2681833365" lon="9.22832499842">
		<tag k="alt_name" v="Nunsås" />
		<tag k="fixme" v="consider natural=peak for the most distinct mountains in the district" />
		<tag k="name" v="Nonsås" />
		<tag k="natural" v="hill" />
		<tag k="place" v="locality" />
		<tag k="ssr:stedsnr" v="912744" />
	</node>
	<node id="-439537" lat="59.3597944416" lon="9.05214443597">
		<tag k="fixme" v="consider natural=peak for the most distinct mountains in the district" />
		<tag k="name" v="Kollås" />
		<tag k="natural" v="hill" />
		<tag k="place" v="locality" />
		<tag k="ssr:stedsnr" v="912326" />
	</node>
	<node id="-439535" lat="59.3633833371" lon="9.10828333141">
		<tag k="fixme" v="consider natural=peak for the most distinct mountains in the district" />
		<tag k="name" v="Hellekåsfjellet" />
		<tag k="natural" v="hill" />
		<tag k="place" v="locality" />
		<tag k="ssr:stedsnr" v="912263" />
	</node>
	<node id="-439533" lat="59.2804611145" lon="9.00488056309">
		<tag k="alt_name" v="Sauåsgjuvet" />
		<tag k="name" v="Sauåsjuvet" />
		<tag k="natural" v="gorge" />
		<tag k="ssr:stedsnr" v="912135" />
	</node>
	<node id="-439531" lat="59.2789027745" lon="9.05703610597">
		<tag k="fixme" v="consider natural=peak for the most distinct mountains in the district" />
		<tag k="name" v="Stasnibb" />
		<tag k="natural" v="hill" />
		<tag k="place" v="locality" />
		<tag k="ssr:stedsnr" v="912118" />
	</node>
	<node id="-439530" lat="59.2795194445" lon="9.14994722218">
		<tag k="fixme" v="consider natural=peak for the most distinct mountains in the district" />
		<tag k="name" v="Øygardsfjellet" />
		<tag k="natural" v="hill" />
		<tag k="place" v="locality" />
		<tag k="ssr:stedsnr" v="912116" />
	</node>
	<node id="-439528" lat="59.2599111145" lon="8.8784527766">
		<tag k="fixme" v="consider natural=peak for the most distinct mountains in the district" />
		<tag k="name" v="Fuglestadheia" />
		<tag k="natural" v="hill" />
		<tag k="place" v="locality" />
		<tag k="ssr:stedsnr" v="912093" />
	</node>
	<node id="-439523" lat="59.2454194418" lon="9.30363889128">
		<tag k="name" v="Askedalen" />
		<tag k="natural" v="valley" />
		<tag k="place" v="locality" />
		<tag k="ssr:stedsnr" v="753906" />
	</node>
	<node id="-439521" lat="59.3229361104" lon="9.03538889202">
		<tag k="name" v="Kvitflog" />
		<tag k="place" v="locality" />
		<tag k="ssr:stedsnr" v="752315" />
	</node>
	<node id="-439520" lat="59.2925250034" lon="8.88069444853">
		<tag k="name" v="Kvasskleiv" />
		<tag k="natural" v="valley" />
		<tag k="place" v="locality" />
		<tag k="ssr:stedsnr" v="752241" />
	</node>
	<node id="-439514" lat="59.2383999963" lon="9.25749722039">
		<tag k="fixme" v="consider natural=peak for the most distinct mountains in the district" />
		<tag k="name" v="Snømyråsen" />
		<tag k="natural" v="hill" />
		<tag k="place" v="locality" />
		<tag k="ssr:stedsnr" v="905997" />
	</node>
	<node id="-439512" lat="59.1790611086" lon="9.20899166334">
		<tag k="fixme" v="consider natural=peak for the most distinct mountains in the district" />
		<tag k="name" v="Mælastulknatten" />
		<tag k="natural" v="hill" />
		<tag k="place" v="locality" />
		<tag k="ssr:stedsnr" v="905849" />
	</node>
	<node id="-439509" lat="59.2040944415" lon="9.17339166489">
		<tag k="name" v="Brentefjell" />
		<tag k="natural" v="hill" />
		<tag k="place" v="locality" />
		<tag k="ssr:stedsnr" v="905832" />
	</node>
	<node id="-439506" lat="59.2378583367" lon="9.18198333213">
		<tag k="name" v="Bukkedalsknatten" />
		<tag k="natural" v="hill" />
		<tag k="place" v="locality" />
		<tag k="ssr:stedsnr" v="905788" />
	</node>
	<node id="-439505" lat="59.1804305528" lon="9.25801944295">
		<tag k="name" v="Kroktjønnhovet" />
		<tag k="natural" v="hill" />
		<tag k="place" v="locality" />
		<tag k="ssr:stedsnr" v="905779" />
	</node>
	<node id="-439504" lat="59.2545277814" lon="9.16613610642">
		<tag k="name" v="Kjettingen" />
		<tag k="place" v="locality" />
		<tag k="ssr:stedsnr" v="905645" />
	</node>
	<node id="-439500" lat="59.2219805523" lon="9.09914445284">
		<tag k="fixme" v="consider natural=peak for the most distinct mountains in the district" />
		<tag k="name" v="Tranetjønnåsen" />
		<tag k="natural" v="hill" />
		<tag k="place" v="locality" />
		<tag k="ssr:stedsnr" v="905307" />
	</node>
	<node id="-439497" lat="59.2238277737" lon="9.04145832911">
		<tag k="name" v="Dangletjønnheia" />
		<tag k="natural" v="hill" />
		<tag k="place" v="locality" />
		<tag k="ssr:stedsnr" v="905230" />
	</node>
	<node id="-439496" lat="59.2422055521" lon="9.1057527791">
		<tag k="name" v="Skardefjell" />
		<tag k="natural" v="hill" />
		<tag k="place" v="locality" />
		<tag k="ssr:stedsnr" v="905193" />
	</node>
	<node id="-439494" lat="59.3157916687" lon="9.23725000237">
		<tag k="fixme" v="consider natural=peak for the most distinct mountains in the district" />
		<tag k="name" v="Slåttekåsfjellet" />
		<tag k="natural" v="hill" />
		<tag k="place" v="locality" />
		<tag k="ssr:stedsnr" v="731738" />
	</node>
	<node id="-439491" lat="59.2780416695" lon="8.91503333068">
		<tag k="fixme" v="consider natural=peak for the most distinct mountains in the district" />
		<tag k="name" v="Grisbekkhaugane" />
		<tag k="natural" v="hill" />
		<tag k="place" v="locality" />
		<tag k="ssr:stedsnr" v="731108" />
	</node>
	<node id="-439482" lat="59.3226861112" lon="8.91100832952">
		<tag k="name" v="Trengslet" />
		<tag k="natural" v="valley" />
		<tag k="place" v="locality" />
		<tag k="ssr:stedsnr" v="730207" />
	</node>
	<node id="-438815" lat="59.1484694443" lon="9.23097500591">
		<tag k="name" v="Granhaug" />
		<tag k="natural" v="hill" />
		<tag k="place" v="locality" />
		<tag k="ssr:stedsnr" v="284703" />
	</node>
	<node id="-439479" lat="59.2528805571" lon="9.1430277734">
		<tag k="fixme" v="consider natural=peak for the most distinct mountains in the district" />
		<tag k="name" v="Lauvåsen" />
		<tag k="natural" v="hill" />
		<tag k="place" v="locality" />
		<tag k="ssr:stedsnr" v="730058" />
	</node>
	<node id="-439475" lat="59.1703722267" lon="9.21875000514">
		<tag k="name" v="Prestvatnseide" />
		<tag k="natural" v="valley" />
		<tag k="place" v="locality" />
		<tag k="ssr:stedsnr" v="723808" />
	</node>
	<node id="-439473" lat="59.2313444466" lon="9.18761110718">
		<tag k="fixme" v="consider natural=peak for the most distinct mountains in the district" />
		<tag k="name" v="Målbakken" />
		<tag k="natural" v="hill" />
		<tag k="place" v="locality" />
		<tag k="ssr:stedsnr" v="723765" />
	</node>
	<node id="-439471" lat="59.244508335" lon="9.19995832465">
		<tag k="name" v="Svartedal" />
		<tag k="natural" v="valley" />
		<tag k="place" v="locality" />
		<tag k="ssr:stedsnr" v="723761" />
	</node>
	<node id="-439468" lat="59.2261638894" lon="9.07059445058">
		<tag k="name" v="Bikkjemyrdalen" />
		<tag k="natural" v="valley" />
		<tag k="place" v="locality" />
		<tag k="ssr:stedsnr" v="723425" />
	</node>
	<node id="-439467" lat="59.243788886" lon="9.10222776991">
		<tag k="name" v="Skardegrind" />
		<tag k="natural" v="valley" />
		<tag k="place" v="locality" />
		<tag k="ssr:stedsnr" v="723205" />
	</node>
	<node id="-439464" lat="59.143027775" lon="9.16937222397">
		<tag k="name" v="Åstaknatten" />
		<tag k="natural" v="hill" />
		<tag k="place" v="locality" />
		<tag k="ssr:stedsnr" v="891658" />
	</node>
	<node id="-439462" lat="59.2795361123" lon="9.22014166464">
		<tag k="name" v="Heisholt" />
		<tag k="natural" v="slope" />
		<tag k="place" v="locality" />
		<tag k="ssr:stedsnr" v="890933" />
	</node>
	<node id="-439459" lat="59.2065583324" lon="9.26421666776">
		<tag k="name" v="Syltretjønndalen" />
		<tag k="natural" v="valley" />
		<tag k="place" v="locality" />
		<tag k="ssr:stedsnr" v="890910" />
	</node>
	<node id="-439458" lat="59.2258611137" lon="9.26551389271">
		<tag k="name" v="Svarteberg" />
		<tag k="natural" v="cliff" />
		<tag k="ssr:stedsnr" v="890901" />
	</node>
	<node id="-439454" lat="59.3129249982" lon="9.06764445304">
		<tag k="name" v="Blekadalen" />
		<tag k="natural" v="valley" />
		<tag k="place" v="locality" />
		<tag k="ssr:stedsnr" v="890745" />
	</node>
	<node id="-439450" lat="59.1581305539" lon="9.21371667087">
		<tag k="name" v="Bøvatnseidet" />
		<tag k="natural" v="valley" />
		<tag k="place" v="locality" />
		<tag k="ssr:stedsnr" v="890686" />
	</node>
	<node id="-439444" lat="59.2392194489" lon="9.16345832805">
		<tag k="name" v="Deilhaug" />
		<tag k="natural" v="ridge" />
		<tag k="place" v="locality" />
		<tag k="ssr:stedsnr" v="890290" />
	</node>
	<node id="-439442" lat="59.2469277746" lon="9.16744167516">
		<tag k="name" v="Grinifjellet" />
		<tag k="natural" v="cliff" />
		<tag k="ssr:stedsnr" v="890286" />
	</node>
	<node id="-439433" lat="59.2439805573" lon="9.31546667409">
		<tag k="name" v="Ganglia" />
		<tag k="place" v="locality" />
		<tag k="ssr:stedsnr" v="693908" />
	</node>
	<node id="-439431" lat="59.2430250012" lon="9.34710833252">
		<tag k="name" v="Haradekkane" />
		<tag k="place" v="locality" />
		<tag k="ssr:stedsnr" v="693468" />
	</node>
	<node id="-439430" lat="59.3321027757" lon="9.08256944631">
		<tag k="name" v="Haugåsen" />
		<tag k="natural" v="hill" />
		<tag k="place" v="locality" />
		<tag k="ssr:stedsnr" v="692778" />
	</node>
	<node id="-439428" lat="59.3803555584" lon="9.06526110442">
		<tag k="name" v="Kyrkjekleiva" />
		<tag k="natural" v="slope" />
		<tag k="place" v="locality" />
		<tag k="ssr:stedsnr" v="692520" />
	</node>
	<node id="-439427" lat="59.3492472243" lon="9.05012777035">
		<tag k="name" v="Orekåsholet" />
		<tag k="natural" v="valley" />
		<tag k="place" v="locality" />
		<tag k="ssr:stedsnr" v="692387" />
	</node>
	<node id="-439415" lat="59.2202444417" lon="9.10481944474">
		<tag k="name" v="Åsland Sandvahaug" />
		<tag k="natural" v="hill" />
		<tag k="place" v="locality" />
		<tag k="ssr:stedsnr" v="662297" />
	</node>
	<node id="-439413" lat="59.2689638876" lon="9.19106944878">
		<tag k="name" v="Østre Nuke" />
		<tag k="natural" v="hill" />
		<tag k="place" v="locality" />
		<tag k="ssr:stedsnr" v="662062" />
	</node>
	<node id="-439412" lat="59.2561194445" lon="9.22219999783">
		<tag k="name" v="Haukelidalen" />
		<tag k="natural" v="valley" />
		<tag k="place" v="locality" />
		<tag k="ssr:stedsnr" v="662056" />
	</node>
	<node id="-439407" lat="59.3157805564" lon="9.20082776908">
		<tag k="name" v="Funnemarkkåsene" />
		<tag k="natural" v="valley" />
		<tag k="place" v="locality" />
		<tag k="ssr:stedsnr" v="876564" />
	</node>
	<node id="-439405" lat="59.2162861136" lon="9.24842500815">
		<tag k="name" v="Sigurdskås" />
		<tag k="place" v="locality" />
		<tag k="ssr:stedsnr" v="647896" />
	</node>
	<node id="-439403" lat="59.1468999983" lon="9.19972777832">
		<tag k="name" v="Barlinddalen" />
		<tag k="natural" v="valley" />
		<tag k="place" v="locality" />
		<tag k="ssr:stedsnr" v="647669" />
	</node>
	<node id="-439400" lat="59.2183444459" lon="9.18751944861">
		<tag k="fixme" v="consider natural=peak for the most distinct mountains in the district" />
		<tag k="name" v="Skrubbeknatten" />
		<tag k="natural" v="hill" />
		<tag k="place" v="locality" />
		<tag k="ssr:stedsnr" v="647916" />
	</node>
	<node id="-439396" lat="59.3318055581" lon="8.88851945315">
		<tag k="name" v="Smøygedalane" />
		<tag k="natural" v="valley" />
		<tag k="place" v="locality" />
		<tag k="ssr:stedsnr" v="731187" />
	</node>
	<node id="-439395" lat="59.3385194447" lon="8.92539443795">
		<tag k="alt_name" v="Stivtjørndalen" />
		<tag k="name" v="Stivtjønndalen" />
		<tag k="natural" v="valley" />
		<tag k="place" v="locality" />
		<tag k="ssr:stedsnr" v="731185" />
	</node>
	<node id="-439394" lat="59.3326083357" lon="9.01097499311">
		<tag k="fixme" v="consider natural=peak for the most distinct mountains in the district" />
		<tag k="name" v="Livlaus" />
		<tag k="natural" v="hill" />
		<tag k="place" v="locality" />
		<tag k="ssr:stedsnr" v="731182" />
	</node>
	<node id="-439393" lat="59.3360083313" lon="9.16866943817">
		<tag k="fixme" v="consider natural=peak for the most distinct mountains in the district" />
		<tag k="name" v="Stulskåsåsen" />
		<tag k="natural" v="hill" />
		<tag k="place" v="locality" />
		<tag k="ssr:stedsnr" v="731177" />
	</node>
	<node id="-439390" lat="59.2914722207" lon="8.82294444206">
		<tag k="name" v="Flogstaulholet" />
		<tag k="natural" v="gorge" />
		<tag k="ssr:stedsnr" v="730784" />
	</node>
	<node id="-439385" lat="59.2330333306" lon="9.14481388678">
		<tag k="alt_name" v="Korpefjell" />
		<tag k="fixme" v="consider natural=peak for the most distinct mountains in the district" />
		<tag k="name" v="Korpefjellet" />
		<tag k="natural" v="hill" />
		<tag k="place" v="locality" />
		<tag k="ssr:stedsnr" v="730398" />
	</node>
	<node id="-439383" lat="59.2340999991" lon="9.03468611814">
		<tag k="alt_name" v="Storlifjell" />
		<tag k="fixme" v="consider natural=peak for the most distinct mountains in the district" />
		<tag k="name" v="Storlifjellet" />
		<tag k="natural" v="hill" />
		<tag k="place" v="locality" />
		<tag k="ssr:stedsnr" v="730391" />
	</node>
	<node id="-439381" lat="59.2779777812" lon="8.85310832995">
		<tag k="name" v="Furustulheia" />
		<tag k="natural" v="hill" />
		<tag k="place" v="locality" />
		<tag k="ssr:stedsnr" v="730111" />
	</node>
	<node id="-439380" lat="59.2774694422" lon="9.17866388609">
		<tag k="fixme" v="consider natural=peak for the most distinct mountains in the district" />
		<tag k="name" v="Middagskollen" />
		<tag k="natural" v="hill" />
		<tag k="place" v="locality" />
		<tag k="ssr:stedsnr" v="730103" />
	</node>
	<node id="-439379" lat="59.1612527806" lon="9.22800278413">
		<tag k="fixme" v="consider natural=peak for the most distinct mountains in the district" />
		<tag k="name" v="Middagskollen" />
		<tag k="natural" v="hill" />
		<tag k="place" v="locality" />
		<tag k="ssr:stedsnr" v="729976" />
	</node>
	<node id="-439377" lat="59.3023222247" lon="8.94267777237">
		<tag k="fixme" v="consider natural=peak for the most distinct mountains in the district" />
		<tag k="name" v="Haukåsen" />
		<tag k="natural" v="hill" />
		<tag k="place" v="locality" />
		<tag k="ssr:stedsnr" v="730180" />
	</node>
	<node id="-439376" lat="59.24743333" lon="9.04301111686">
		<tag k="name" v="Halvtekkmoen" />
		<tag k="place" v="locality" />
		<tag k="ssr:stedsnr" v="729398" />
	</node>
	<node id="-438797" lat="59.2192305545" lon="9.18380833619">
		<tag k="fixme" v="consider natural=peak for the most distinct mountains in the district" />
		<tag k="name" v="Røyslandknatten" />
		<tag k="natural" v="hill" />
		<tag k="place" v="locality" />
		<tag k="ssr:stedsnr" v="162912" />
	</node>
	<node id="-439368" lat="59.3393000025" lon="9.09628332992">
		<tag k="name" v="Fanteholet" />
		<tag k="natural" v="hill" />
		<tag k="place" v="locality" />
		<tag k="ssr:stedsnr" v="631661" />
	</node>
	<node id="-439364" lat="59.2657166692" lon="9.30107778081">
		<tag k="fixme" v="consider natural=peak for the most distinct mountains in the district" />
		<tag k="name" v="Rullekoll" />
		<tag k="natural" v="hill" />
		<tag k="place" v="locality" />
		<tag k="ssr:stedsnr" v="631160" />
	</node>
	<node id="-439363" lat="59.2560666667" lon="9.00400277692">
		<tag k="name" v="Linfjelldalen" />
		<tag k="natural" v="valley" />
		<tag k="place" v="locality" />
		<tag k="ssr:stedsnr" v="631156" />
	</node>
	<node id="-439361" lat="59.2951805557" lon="8.98456111501">
		<tag k="name" v="Skrukkedalen" />
		<tag k="natural" v="valley" />
		<tag k="place" v="locality" />
		<tag k="ssr:stedsnr" v="631014" />
	</node>
	<node id="-439353" lat="59.2696249989" lon="9.22998333354">
		<tag k="fixme" v="consider natural=peak for the most distinct mountains in the district" />
		<tag k="name" v="Nunsås" />
		<tag k="natural" v="hill" />
		<tag k="place" v="locality" />
		<tag k="ssr:stedsnr" v="723874" />
	</node>
	<node id="-439350" lat="59.2409194449" lon="9.26491944907">
		<tag k="name" v="Halvfardalen" />
		<tag k="natural" v="valley" />
		<tag k="place" v="locality" />
		<tag k="ssr:stedsnr" v="723996" />
	</node>
	<node id="-439343" lat="59.2127361154" lon="9.08050000212">
		<tag k="name" v="Roholtlia" />
		<tag k="natural" v="slope" />
		<tag k="place" v="locality" />
		<tag k="ssr:stedsnr" v="723347" />
	</node>
	<node id="-439339" lat="59.2678749987" lon="9.19881389703">
		<tag k="name" v="Barlinddalen" />
		<tag k="natural" v="valley" />
		<tag k="place" v="locality" />
		<tag k="ssr:stedsnr" v="723074" />
	</node>
	<node id="-439338" lat="59.2625833298" lon="9.22069167196">
		<tag k="name" v="Kloppedalen" />
		<tag k="natural" v="valley" />
		<tag k="place" v="locality" />
		<tag k="ssr:stedsnr" v="723073" />
	</node>
	<node id="-439334" lat="59.322019448" lon="8.93131945239">
		<tag k="fixme" v="consider natural=peak for the most distinct mountains in the district" />
		<tag k="name" v="Grasfjellet" />
		<tag k="natural" v="hill" />
		<tag k="place" v="locality" />
		<tag k="ssr:stedsnr" v="609207" />
	</node>
	<node id="-439330" lat="59.3115027816" lon="8.99402777344">
		<tag k="fixme" v="consider natural=peak for the most distinct mountains in the district" />
		<tag k="name" v="Kåsaåsen" />
		<tag k="natural" v="hill" />
		<tag k="place" v="locality" />
		<tag k="ssr:stedsnr" v="608187" />
	</node>
	<node id="-439326" lat="59.2277333294" lon="9.17908611387">
		<tag k="name" v="Holtedalen" />
		<tag k="natural" v="valley" />
		<tag k="place" v="locality" />
		<tag k="ssr:stedsnr" v="601754" />
	</node>
	<node id="-439325" lat="59.2358388877" lon="9.17186111461">
		<tag k="name" v="Liaåsen" />
		<tag k="natural" v="hill" />
		<tag k="place" v="locality" />
		<tag k="ssr:stedsnr" v="601752" />
	</node>
	<node id="-439323" lat="59.1902194427" lon="9.2331416684">
		<tag k="name" v="Godalen" />
		<tag k="natural" v="valley" />
		<tag k="place" v="locality" />
		<tag k="ssr:stedsnr" v="601820" />
	</node>
	<node id="-439319" lat="59.2547722227" lon="9.13958611866">
		<tag k="fixme" v="consider natural=peak for the most distinct mountains in the district" />
		<tag k="name" v="Lauvåshaugane" />
		<tag k="natural" v="hill" />
		<tag k="place" v="locality" />
		<tag k="ssr:stedsnr" v="601583" />
	</node>
	<node id="-439318" lat="59.2604722258" lon="9.158313897">
		<tag k="name" v="Nukedal" />
		<tag k="natural" v="valley" />
		<tag k="place" v="locality" />
		<tag k="ssr:stedsnr" v="601602" />
	</node>
	<node id="-439317" lat="59.2697111101" lon="9.07588610299">
		<tag k="fixme" v="consider natural=peak for the most distinct mountains in the district" />
		<tag k="name" v="Stegafjell" />
		<tag k="natural" v="hill" />
		<tag k="place" v="locality" />
		<tag k="ssr:stedsnr" v="601377" />
	</node>
	<node id="-439316" lat="59.2891638881" lon="9.16690833087">
		<tag k="name" v="Katthammar" />
		<tag k="natural" v="ridge" />
		<tag k="place" v="locality" />
		<tag k="ssr:stedsnr" v="601427" />
	</node>
	<node id="-439315" lat="59.2212861104" lon="9.06638333646">
		<tag k="name" v="Tiurleikskottet" />
		<tag k="natural" v="slope" />
		<tag k="place" v="locality" />
		<tag k="ssr:stedsnr" v="601410" />
	</node>
	<node id="-439314" lat="59.2174555529" lon="9.077477777">
		<tag k="name" v="Klingretjønnknatten" />
		<tag k="natural" v="ridge" />
		<tag k="place" v="locality" />
		<tag k="ssr:stedsnr" v="601407" />
	</node>
	<node id="-439311" lat="59.2147388914" lon="9.2326972309">
		<tag k="name" v="Busebånn" />
		<tag k="natural" v="valley" />
		<tag k="place" v="locality" />
		<tag k="ssr:stedsnr" v="586926" />
	</node>
	<node id="-439310" lat="59.2779388915" lon="9.20998055894">
		<tag k="fixme" v="consider natural=peak for the most distinct mountains in the district" />
		<tag k="name" v="Fjøsåsen" />
		<tag k="natural" v="hill" />
		<tag k="place" v="locality" />
		<tag k="ssr:stedsnr" v="586920" />
	</node>
	<node id="-439304" lat="59.2107833373" lon="9.19080833828">
		<tag k="name" v="Kinnefjell" />
		<tag k="natural" v="hill" />
		<tag k="place" v="locality" />
		<tag k="ssr:stedsnr" v="708984" />
	</node>
	<node id="-439303" lat="59.2733361143" lon="9.2010999968">
		<tag k="name" v="Tjærehell-lia" />
		<tag k="natural" v="slope" />
		<tag k="place" v="locality" />
		<tag k="ssr:stedsnr" v="708931" />
	</node>
	<node id="-439295" lat="59.3100527752" lon="9.06059999645">
		<tag k="name" v="Skavdalsfjell" />
		<tag k="natural" v="hill" />
		<tag k="place" v="locality" />
		<tag k="ssr:stedsnr" v="708712" />
	</node>
	<node id="-439292" lat="59.1493666674" lon="9.18984165886">
		<tag k="name" v="Blomtjønnkleiva" />
		<tag k="natural" v="slope" />
		<tag k="place" v="locality" />
		<tag k="ssr:stedsnr" v="708652" />
	</node>
	<node id="-439290" lat="59.2463388886" lon="9.13096945113">
		<tag k="name" v="Englandsdalen" />
		<tag k="natural" v="valley" />
		<tag k="place" v="locality" />
		<tag k="ssr:stedsnr" v="708280" />
	</node>
	<node id="-439286" lat="59.3098888922" lon="9.21587499181">
		<tag k="fixme" v="consider natural=peak for the most distinct mountains in the district" />
		<tag k="name" v="Tjuvås" />
		<tag k="natural" v="hill" />
		<tag k="place" v="locality" />
		<tag k="ssr:stedsnr" v="572704" />
	</node>
	<node id="-439278" lat="59.3727249971" lon="9.08236667301">
		<tag k="name" v="Rugkåsmoen" />
		<tag k="place" v="locality" />
		<tag k="ssr:stedsnr" v="570527" />
	</node>
	<node id="-439277" lat="59.2949194476" lon="8.85930000455">
		<tag k="name" v="Trolldalsskottet" />
		<tag k="natural" v="gorge" />
		<tag k="ssr:stedsnr" v="570315" />
	</node>
	<node id="-439262" lat="59.2450833374" lon="9.30681944219">
		<tag k="name" v="Goddalen" />
		<tag k="natural" v="valley" />
		<tag k="place" v="locality" />
		<tag k="ssr:stedsnr" v="693922" />
	</node>
	<node id="-439257" lat="59.2327638908" lon="9.17250832623">
		<tag k="name" v="Plassedalen" />
		<tag k="natural" v="valley" />
		<tag k="place" v="locality" />
		<tag k="ssr:stedsnr" v="541771" />
	</node>
	<node id="-439256" lat="59.2420750021" lon="9.2229638886">
		<tag k="fixme" v="consider natural=peak for the most distinct mountains in the district" />
		<tag k="name" v="Siljutjønnåsen" />
		<tag k="natural" v="hill" />
		<tag k="place" v="locality" />
		<tag k="ssr:stedsnr" v="541820" />
	</node>
	<node id="-439246" lat="59.293369445" lon="8.90597777109">
		<tag k="name" v="Jungetjønnhova" />
		<tag k="natural" v="valley" />
		<tag k="place" v="locality" />
		<tag k="ssr:stedsnr" v="692262" />
	</node>
	<node id="-439245" lat="59.3071916646" lon="8.93935277421">
		<tag k="name" v="Lomannsklovet" />
		<tag k="natural" v="gorge" />
		<tag k="ssr:stedsnr" v="692261" />
	</node>
	<node id="-439238" lat="59.2566888871" lon="9.03309722241">
		<tag k="name" v="Gongekleiv" />
		<tag k="natural" v="slope" />
		<tag k="place" v="locality" />
		<tag k="ssr:stedsnr" v="692150" />
	</node>
	<node id="-439237" lat="59.2621583333" lon="9.04895834187">
		<tag k="name" v="Gongedalen" />
		<tag k="natural" v="valley" />
		<tag k="place" v="locality" />
		<tag k="ssr:stedsnr" v="692149" />
	</node>
	<node id="-439235" lat="59.3396138845" lon="8.89321945196">
		<tag k="name" v="Stulsdalen" />
		<tag k="natural" v="valley" />
		<tag k="place" v="locality" />
		<tag k="ssr:stedsnr" v="692127" />
	</node>
	<node id="-439228" lat="59.3113111146" lon="8.9645972254">
		<tag k="name" v="Vardefjellia" />
		<tag k="natural" v="slope" />
		<tag k="place" v="locality" />
		<tag k="ssr:stedsnr" v="692020" />
	</node>
	<node id="-439227" lat="59.3077749992" lon="8.94819167305">
		<tag k="name" v="Mastelia" />
		<tag k="natural" v="slope" />
		<tag k="place" v="locality" />
		<tag k="ssr:stedsnr" v="692017" />
	</node>
	<node id="-439225" lat="59.277297219" lon="9.02108054839">
		<tag k="name" v="Klovdalen" />
		<tag k="natural" v="valley" />
		<tag k="place" v="locality" />
		<tag k="ssr:stedsnr" v="691166" />
	</node>
	<node id="-438772" lat="59.2420694401" lon="9.32142499623">
		<tag k="name" v="Seterhovet" />
		<tag k="place" v="locality" />
		<tag k="ssr:stedsnr" v="267887" />
	</node>
	<node id="-439222" lat="59.2476583377" lon="9.30059721646">
		<tag k="fixme" v="consider natural=peak for the most distinct mountains in the district" />
		<tag k="name" v="Lauvåsen" />
		<tag k="natural" v="hill" />
		<tag k="place" v="locality" />
		<tag k="ssr:stedsnr" v="510907" />
	</node>
	<node id="-439215" lat="59.2997333302" lon="8.94549722491">
		<tag k="name" v="Sekja" />
		<tag k="natural" v="valley" />
		<tag k="place" v="locality" />
		<tag k="ssr:stedsnr" v="509292" />
	</node>
	<node id="-439213" lat="59.3328527761" lon="8.97139444305">
		<tag k="name" v="Flomdalen" />
		<tag k="natural" v="valley" />
		<tag k="place" v="locality" />
		<tag k="ssr:stedsnr" v="509057" />
	</node>
	<node id="-438802" lat="59.1754111074" lon="9.1837694367">
		<tag k="name" v="Revehiet" />
		<tag k="place" v="locality" />
		<tag k="ssr:stedsnr" v="283623" />
	</node>
	<node id="-439206" lat="59.2707361126" lon="9.03148888393">
		<tag k="fixme" v="consider natural=peak for the most distinct mountains in the district" />
		<tag k="name" v="Damliåsen" />
		<tag k="natural" v="hill" />
		<tag k="place" v="locality" />
		<tag k="ssr:stedsnr" v="487106" />
	</node>
	<node id="-439205" lat="59.2287583315" lon="9.22576388754">
		<tag k="name" v="Brønndalen" />
		<tag k="natural" v="valley" />
		<tag k="place" v="locality" />
		<tag k="ssr:stedsnr" v="486052" />
	</node>
	<node id="-439204" lat="59.228408334" lon="9.24955278533">
		<tag k="name" v="Hansekås" />
		<tag k="place" v="locality" />
		<tag k="ssr:stedsnr" v="480958" />
	</node>
	<node id="-439202" lat="59.174699996" lon="9.24370833469">
		<tag k="name" v="Bjørnhi" />
		<tag k="place" v="locality" />
		<tag k="ssr:stedsnr" v="480784" />
	</node>
	<node id="-439201" lat="59.1660305541" lon="9.26877500148">
		<tag k="name" v="Sandbakken" />
		<tag k="natural" v="slope" />
		<tag k="place" v="locality" />
		<tag k="ssr:stedsnr" v="480780" />
	</node>
	<node id="-439200" lat="59.236886111" lon="9.17510832936">
		<tag k="name" v="Geiteberget" />
		<tag k="natural" v="cliff" />
		<tag k="ssr:stedsnr" v="480773" />
	</node>
	<node id="-439199" lat="59.2326750036" lon="9.18576943856">
		<tag k="name" v="Kudalen" />
		<tag k="natural" v="valley" />
		<tag k="place" v="locality" />
		<tag k="ssr:stedsnr" v="480804" />
	</node>
	<node id="-439198" lat="59.2498444465" lon="9.11104722222">
		<tag k="fixme" v="consider natural=peak for the most distinct mountains in the district" />
		<tag k="name" v="Smørbuåsane" />
		<tag k="natural" v="hill" />
		<tag k="place" v="locality" />
		<tag k="ssr:stedsnr" v="480577" />
	</node>
	<node id="-439197" lat="59.2566138896" lon="9.16828889521">
		<tag k="name" v="Stuthola" />
		<tag k="natural" v="valley" />
		<tag k="place" v="locality" />
		<tag k="ssr:stedsnr" v="480628" />
	</node>
	<node id="-439196" lat="59.2604361142" lon="9.15187777024">
		<tag k="name" v="Grotli" />
		<tag k="natural" v="slope" />
		<tag k="place" v="locality" />
		<tag k="ssr:stedsnr" v="480624" />
	</node>
	<node id="-439195" lat="59.2676444473" lon="9.14623333497">
		<tag k="name" v="Skårdalen" />
		<tag k="natural" v="valley" />
		<tag k="place" v="locality" />
		<tag k="ssr:stedsnr" v="480621" />
	</node>
	<node id="-439193" lat="59.2226777785" lon="9.14620000538">
		<tag k="name" v="Teinelaget" />
		<tag k="place" v="locality" />
		<tag k="ssr:stedsnr" v="480417" />
	</node>
	<node id="-439192" lat="59.2382500005" lon="9.09732777412">
		<tag k="fixme" v="consider natural=peak for the most distinct mountains in the district" />
		<tag k="name" v="Skardtjønnåsen" />
		<tag k="natural" v="hill" />
		<tag k="place" v="locality" />
		<tag k="ssr:stedsnr" v="480169" />
	</node>
	<node id="-439191" lat="59.2328361116" lon="9.09038333465">
		<tag k="name" v="Klevjadalen" />
		<tag k="natural" v="valley" />
		<tag k="place" v="locality" />
		<tag k="ssr:stedsnr" v="480158" />
	</node>
	<node id="-439189" lat="59.2164194407" lon="9.05576110828">
		<tag k="name" v="Rolighetsdalen" />
		<tag k="natural" v="valley" />
		<tag k="place" v="locality" />
		<tag k="ssr:stedsnr" v="480202" />
	</node>
	<node id="-439182" lat="59.2945916626" lon="8.87010278326">
		<tag k="fixme" v="consider natural=peak for the most distinct mountains in the district" />
		<tag k="name" v="Trolldalsåsane" />
		<tag k="natural" v="hill" />
		<tag k="place" v="locality" />
		<tag k="ssr:stedsnr" v="670180" />
	</node>
	<node id="-439176" lat="59.3024472242" lon="9.23512777685">
		<tag k="alt_name" v="Stangfjellet" />
		<tag k="fixme" v="consider natural=peak for the most distinct mountains in the district" />
		<tag k="name" v="Stangefjell" />
		<tag k="natural" v="hill" />
		<tag k="place" v="locality" />
		<tag k="ssr:stedsnr" v="669783" />
	</node>
	<node id="-439168" lat="59.2229527798" lon="9.19083055356">
		<tag k="fixme" v="consider natural=peak for the most distinct mountains in the district" />
		<tag k="name" v="Suggeåsen" />
		<tag k="natural" v="hill" />
		<tag k="place" v="locality" />
		<tag k="ssr:stedsnr" v="669443" />
	</node>
	<node id="-439166" lat="59.2419111086" lon="9.03779721744">
		<tag k="name" v="Vestliane" />
		<tag k="natural" v="slope" />
		<tag k="place" v="locality" />
		<tag k="ssr:stedsnr" v="669396" />
	</node>
	<node id="-439164" lat="59.234188892" lon="9.0338805541">
		<tag k="alt_name" v="Luberg, l" />
		<tag k="name" v="Lille Luberg" />
		<tag k="natural" v="hill" />
		<tag k="place" v="locality" />
		<tag k="ssr:stedsnr" v="669370" />
	</node>
	<node id="-439161" lat="59.1512361105" lon="9.18569166331">
		<tag k="alt_name" v="Ågotsfjell" />
		<tag k="fixme" v="consider natural=peak for the most distinct mountains in the district" />
		<tag k="name" v="Ågotsfjellet" />
		<tag k="natural" v="hill" />
		<tag k="place" v="locality" />
		<tag k="ssr:stedsnr" v="669234" />
	</node>
	<node id="-439160" lat="59.3223249965" lon="9.13769722905">
		<tag k="fixme" v="consider natural=peak for the most distinct mountains in the district" />
		<tag k="name" v="Dugurdsmålknatten" />
		<tag k="natural" v="hill" />
		<tag k="place" v="locality" />
		<tag k="ssr:stedsnr" v="669192" />
	</node>
	<node id="-439159" lat="59.3191833312" lon="8.88639999428">
		<tag k="name" v="Høgefjelldalen" />
		<tag k="natural" v="valley" />
		<tag k="place" v="locality" />
		<tag k="ssr:stedsnr" v="669180" />
	</node>
	<node id="-439156" lat="59.3052500003" lon="9.05503610661">
		<tag k="fixme" v="consider natural=peak for the most distinct mountains in the district" />
		<tag k="name" v="Verpeåsen" />
		<tag k="natural" v="hill" />
		<tag k="place" v="locality" />
		<tag k="ssr:stedsnr" v="669152" />
	</node>
	<node id="-439155" lat="59.2753888875" lon="8.94522222648">
		<tag k="fixme" v="consider natural=peak for the most distinct mountains in the district" />
		<tag k="name" v="Føykåsen" />
		<tag k="natural" v="hill" />
		<tag k="place" v="locality" />
		<tag k="ssr:stedsnr" v="669109" />
	</node>
	<node id="-439149" lat="59.2194694447" lon="9.22172777612">
		<tag k="name" v="Hegna" />
		<tag k="natural" v="slope" />
		<tag k="place" v="locality" />
		<tag k="ssr:stedsnr" v="465975" />
	</node>
	<node id="-439146" lat="59.2074027814" lon="9.27087221399">
		<tag k="name" v="Kollen" />
		<tag k="natural" v="hill" />
		<tag k="place" v="locality" />
		<tag k="ssr:stedsnr" v="465907" />
	</node>
	<node id="-439145" lat="59.2057916651" lon="9.25953889434">
		<tag k="name" v="Lusefjell" />
		<tag k="natural" v="hill" />
		<tag k="place" v="locality" />
		<tag k="ssr:stedsnr" v="465906" />
	</node>
	<node id="-439142" lat="59.2459361142" lon="9.16590555476">
		<tag k="name" v="Svartufsliane" />
		<tag k="natural" v="slope" />
		<tag k="place" v="locality" />
		<tag k="ssr:stedsnr" v="465265" />
	</node>
	<node id="-439141" lat="59.3408444427" lon="8.96088333948">
		<tag k="fixme" v="consider natural=peak for the most distinct mountains in the district" />
		<tag k="name" v="Rindeåsane" />
		<tag k="natural" v="hill" />
		<tag k="place" v="locality" />
		<tag k="ssr:stedsnr" v="670269" />
	</node>
	<node id="-439140" lat="59.339738891" lon="9.02688610335">
		<tag k="fixme" v="consider natural=peak for the most distinct mountains in the district" />
		<tag k="name" v="Eikhaugane" />
		<tag k="natural" v="hill" />
		<tag k="place" v="locality" />
		<tag k="ssr:stedsnr" v="670264" />
	</node>
	<node id="-439137" lat="59.3396814544" lon="8.88499758451">
		<tag k="alt_name" v="Stulsdalen, austre" />
		<tag k="name" v="Østre Stulsdalen" />
		<tag k="natural" v="valley" />
		<tag k="place" v="locality" />
		<tag k="ssr:stedsnr" v="670233" />
	</node>
	<node id="-439136" lat="59.335980556" lon="8.98259722577">
		<tag k="alt_name" v="Husefjell" />
		<tag k="fixme" v="consider natural=peak for the most distinct mountains in the district" />
		<tag k="name" v="Husefjellet" />
		<tag k="natural" v="hill" />
		<tag k="place" v="locality" />
		<tag k="ssr:stedsnr" v="670227" />
	</node>
	<node id="-439135" lat="59.3356861147" lon="9.00465554877">
		<tag k="fixme" v="consider natural=peak for the most distinct mountains in the district" />
		<tag k="name" v="Heståsane" />
		<tag k="natural" v="hill" />
		<tag k="place" v="locality" />
		<tag k="ssr:stedsnr" v="670226" />
	</node>
	<node id="-439134" lat="59.3385527734" lon="9.12619444705">
		<tag k="fixme" v="consider natural=peak for the most distinct mountains in the district" />
		<tag k="name" v="Liaåsen" />
		<tag k="natural" v="hill" />
		<tag k="place" v="locality" />
		<tag k="ssr:stedsnr" v="670223" />
	</node>
	<node id="-439129" lat="59.2018166711" lon="9.25378610518">
		<tag k="fixme" v="consider natural=peak for the most distinct mountains in the district" />
		<tag k="name" v="Sagåsen" />
		<tag k="natural" v="hill" />
		<tag k="place" v="locality" />
		<tag k="ssr:stedsnr" v="662843" />
	</node>
	<node id="-439128" lat="59.2553055589" lon="9.12969166508">
		<tag k="fixme" v="consider natural=peak for the most distinct mountains in the district" />
		<tag k="name" v="Snikåsane" />
		<tag k="natural" v="hill" />
		<tag k="place" v="locality" />
		<tag k="ssr:stedsnr" v="662630" />
	</node>
	<node id="-439123" lat="59.2028444428" lon="9.17660277691">
		<tag k="name" v="Beinstigdalen" />
		<tag k="natural" v="valley" />
		<tag k="place" v="locality" />
		<tag k="ssr:stedsnr" v="662826" />
	</node>
	<node id="-439122" lat="59.1884416654" lon="9.2577333293">
		<tag k="name" v="Pissbekk-kleiva" />
		<tag k="natural" v="slope" />
		<tag k="place" v="locality" />
		<tag k="ssr:stedsnr" v="662805" />
	</node>
	<node id="-439120" lat="59.2367305511" lon="9.18437500158">
		<tag k="name" v="Murrasa" />
		<tag k="natural" v="ridge" />
		<tag k="place" v="locality" />
		<tag k="ssr:stedsnr" v="662782" />
	</node>
	<node id="-439119" lat="59.1955722254" lon="9.22266944514">
		<tag k="name" v="Lysliane" />
		<tag k="natural" v="slope" />
		<tag k="place" v="locality" />
		<tag k="ssr:stedsnr" v="662699" />
	</node>
	<node id="-439116" lat="59.2384361094" lon="9.0076055557">
		<tag k="name" v="Sverdalen sameie" />
		<tag k="natural" v="hill" />
		<tag k="place" v="locality" />
		<tag k="ssr:stedsnr" v="662135" />
	</node>
	<node id="-439115" lat="59.1773638917" lon="9.25491665939">
		<tag k="name" v="Fjellmellomdal" />
		<tag k="natural" v="valley" />
		<tag k="place" v="locality" />
		<tag k="ssr:stedsnr" v="454003" />
	</node>
	<node id="-439107" lat="59.3482444466" lon="8.93919167442">
		<tag k="fixme" v="consider natural=peak for the most distinct mountains in the district" />
		<tag k="name" v="Steinsrudfjellet" />
		<tag k="natural" v="hill" />
		<tag k="place" v="locality" />
		<tag k="ssr:stedsnr" v="449226" />
	</node>
	<node id="-439104" lat="59.3392333294" lon="8.9934694509">
		<tag k="name" v="Mynndalen" />
		<tag k="natural" v="valley" />
		<tag k="place" v="locality" />
		<tag k="ssr:stedsnr" v="449108" />
	</node>
	<node id="-439103" lat="59.3584749998" lon="9.03921389384">
		<tag k="fixme" v="consider natural=peak for the most distinct mountains in the district" />
		<tag k="name" v="Kittilsnutane" />
		<tag k="natural" v="hill" />
		<tag k="place" v="locality" />
		<tag k="ssr:stedsnr" v="448531" />
	</node>
	<node id="-439096" lat="59.3169916689" lon="9.19532499563">
		<tag k="fixme" v="consider natural=peak for the most distinct mountains in the district" />
		<tag k="name" v="Trollås" />
		<tag k="natural" v="hill" />
		<tag k="place" v="locality" />
		<tag k="ssr:stedsnr" v="427204" />
	</node>
	<node id="-439093" lat="59.22758333" lon="9.1873138834">
		<tag k="name" v="Steinkleiva" />
		<tag k="natural" v="slope" />
		<tag k="place" v="locality" />
		<tag k="ssr:stedsnr" v="420810" />
	</node>
	<node id="-439092" lat="59.1853750026" lon="9.21288611005">
		<tag k="name" v="Grinnasdalen" />
		<tag k="natural" v="valley" />
		<tag k="place" v="locality" />
		<tag k="ssr:stedsnr" v="420719" />
	</node>
	<node id="-439091" lat="59.1920416641" lon="9.20604721452">
		<tag k="name" v="Vasskleiv" />
		<tag k="natural" v="slope" />
		<tag k="place" v="locality" />
		<tag k="ssr:stedsnr" v="420715" />
	</node>
	<node id="-439090" lat="59.2023333376" lon="9.21445000539">
		<tag k="fixme" v="consider natural=peak for the most distinct mountains in the district" />
		<tag k="name" v="Huskerhaugane" />
		<tag k="natural" v="hill" />
		<tag k="place" v="locality" />
		<tag k="ssr:stedsnr" v="420711" />
	</node>
	<node id="-439089" lat="59.2537722184" lon="9.1540250045">
		<tag k="name" v="Moen" />
		<tag k="place" v="locality" />
		<tag k="ssr:stedsnr" v="420648" />
	</node>
	<node id="-439087" lat="59.2854083332" lon="9.06830556231">
		<tag k="name" v="Kleppefjell" />
		<tag k="natural" v="hill" />
		<tag k="place" v="locality" />
		<tag k="ssr:stedsnr" v="420538" />
	</node>
	<node id="-439084" lat="59.220141665" lon="9.0332444389">
		<tag k="name" v="Storbekkmoen" />
		<tag k="place" v="locality" />
		<tag k="ssr:stedsnr" v="420241" />
	</node>
	<node id="-439083" lat="59.2611749958" lon="9.20938610407">
		<tag k="name" v="Lille Barlinddalen" />
		<tag k="natural" v="valley" />
		<tag k="place" v="locality" />
		<tag k="ssr:stedsnr" v="420048" />
	</node>
	<node id="-439081" lat="59.2630888917" lon="9.31603610245">
		<tag k="name" v="Namløsliane" />
		<tag k="natural" v="slope" />
		<tag k="place" v="locality" />
		<tag k="ssr:stedsnr" v="512238" />
	</node>
	<node id="-439080" lat="59.2576694432" lon="9.30288055016">
		<tag k="name" v="Damtjønndalen" />
		<tag k="natural" v="valley" />
		<tag k="place" v="locality" />
		<tag k="ssr:stedsnr" v="512165" />
	</node>
	<node id="-439076" lat="59.2697527746" lon="8.91240555155">
		<tag k="name" v="Tveitstuldalen" />
		<tag k="natural" v="valley" />
		<tag k="place" v="locality" />
		<tag k="ssr:stedsnr" v="511487" />
	</node>
	<node id="-439075" lat="59.2374749972" lon="9.34234443928">
		<tag k="name" v="Hyttliknatten" />
		<tag k="natural" v="hill" />
		<tag k="place" v="locality" />
		<tag k="ssr:stedsnr" v="511442" />
	</node>
	<node id="-439067" lat="59.3824444421" lon="9.08441111901">
		<tag k="name" v="Liane" />
		<tag k="natural" v="slope" />
		<tag k="place" v="locality" />
		<tag k="ssr:stedsnr" v="510582" />
	</node>
	<node id="-439065" lat="59.2820361104" lon="8.84684166677">
		<tag k="name" v="Høgspurven" />
		<tag k="place" v="locality" />
		<tag k="ssr:stedsnr" v="510449" />
	</node>
	<node id="-439062" lat="59.2365777733" lon="9.34112778415">
		<tag k="name" v="Tjuveskuta" />
		<tag k="place" v="locality" />
		<tag k="ssr:stedsnr" v="510473" />
	</node>
	<node id="-439060" lat="59.3432303797" lon="8.88299272399">
		<tag k="name" v="Sandtjønndalen" />
		<tag k="natural" v="valley" />
		<tag k="place" v="locality" />
		<tag k="ssr:stedsnr" v="510464" />
	</node>
	<node id="-439053" lat="59.3712333291" lon="9.07558054755">
		<tag k="name" v="Fiskebekkdalen" />
		<tag k="natural" v="valley" />
		<tag k="place" v="locality" />
		<tag k="ssr:stedsnr" v="509545" />
	</node>
	<node id="-439051" lat="59.3090750033" lon="8.95646665913">
		<tag k="name" v="Skrubbeskreia" />
		<tag k="natural" v="slope" />
		<tag k="place" v="locality" />
		<tag k="ssr:stedsnr" v="509019" />
	</node>
	<node id="-439050" lat="59.3547666658" lon="8.97502221643">
		<tag k="fixme" v="consider natural=peak for the most distinct mountains in the district" />
		<tag k="name" v="Brokåsen" />
		<tag k="natural" v="hill" />
		<tag k="place" v="locality" />
		<tag k="ssr:stedsnr" v="509085" />
	</node>
	<node id="-439049" lat="59.20954444" lon="9.2485361192">
		<tag k="name" v="Røybekkdalen" />
		<tag k="natural" v="valley" />
		<tag k="place" v="locality" />
		<tag k="ssr:stedsnr" v="405907" />
	</node>
	<node id="-439047" lat="59.1558555586" lon="9.20448333949">
		<tag k="fixme" v="consider natural=peak for the most distinct mountains in the district" />
		<tag k="name" v="Bøvatnsåsane" />
		<tag k="natural" v="hill" />
		<tag k="place" v="locality" />
		<tag k="ssr:stedsnr" v="405674" />
	</node>
	<node id="-439046" lat="59.1456111082" lon="9.17266388383">
		<tag k="fixme" v="consider natural=peak for the most distinct mountains in the district" />
		<tag k="name" v="Veneheia" />
		<tag k="natural" v="hill" />
		<tag k="place" v="locality" />
		<tag k="ssr:stedsnr" v="405664" />
	</node>
	<node id="-439044" lat="59.277169442" lon="9.30531665932">
		<tag k="name" v="Fensgruvene" />
		<tag k="place" v="locality" />
		<tag k="ssr:stedsnr" v="405177" />
	</node>
	<node id="-439040" lat="59.2541222183" lon="9.24355555619">
		<tag k="fixme" v="consider natural=peak for the most distinct mountains in the district" />
		<tag k="name" v="Bjørndalsåsen" />
		<tag k="natural" v="hill" />
		<tag k="place" v="locality" />
		<tag k="ssr:stedsnr" v="299069" />
	</node>
	<node id="-439036" lat="59.2950222198" lon="9.24228056203">
		<tag k="fixme" v="consider natural=peak for the most distinct mountains in the district" />
		<tag k="name" v="Jonsfjell" />
		<tag k="natural" v="hill" />
		<tag k="place" v="locality" />
		<tag k="ssr:stedsnr" v="391769" />
	</node>
	<node id="-439034" lat="59.25679722" lon="9.29670278381">
		<tag k="fixme" v="consider natural=peak for the most distinct mountains in the district" />
		<tag k="name" v="Lyarberget" />
		<tag k="natural" v="hill" />
		<tag k="place" v="locality" />
		<tag k="ssr:stedsnr" v="390159" />
	</node>
	<node id="-438728" lat="59.35483889" lon="9.09270277562">
		<tag k="fixme" v="consider natural=peak for the most distinct mountains in the district" />
		<tag k="name" v="Hesthegnaåsen" />
		<tag k="natural" v="hill" />
		<tag k="place" v="locality" />
		<tag k="ssr:stedsnr" v="85614" />
	</node>
	<node id="-439026" lat="59.2483361084" lon="9.31267500844">
		<tag k="fixme" v="consider natural=peak for the most distinct mountains in the district" />
		<tag k="name" v="Sjåli" />
		<tag k="natural" v="hill" />
		<tag k="place" v="locality" />
		<tag k="ssr:stedsnr" v="389166" />
	</node>
	<node id="-439024" lat="59.3680055562" lon="9.10996389659">
		<tag k="name" v="Skrubbedalen" />
		<tag k="natural" v="valley" />
		<tag k="place" v="locality" />
		<tag k="ssr:stedsnr" v="388563" />
	</node>
	<node id="-439023" lat="59.3440901887" lon="8.87999110312">
		<tag k="fixme" v="consider natural=peak for the most distinct mountains in the district" />
		<tag k="name" v="Sandtjønnfjellet" />
		<tag k="natural" v="hill" />
		<tag k="place" v="locality" />
		<tag k="ssr:stedsnr" v="388416" />
	</node>
	<node id="-439020" lat="59.3043388881" lon="8.93486389664">
		<tag k="name" v="Liabakkane" />
		<tag k="natural" v="slope" />
		<tag k="place" v="locality" />
		<tag k="ssr:stedsnr" v="388257" />
	</node>
	<node id="-439019" lat="59.3075194467" lon="9.01039166472">
		<tag k="name" v="Hjerpedalen" />
		<tag k="natural" v="valley" />
		<tag k="place" v="locality" />
		<tag k="ssr:stedsnr" v="388218" />
	</node>
	<node id="-438737" lat="59.3200444443" lon="8.87504721936">
		<tag k="fixme" v="consider natural=peak for the most distinct mountains in the district" />
		<tag k="name" v="Høgefjell" />
		<tag k="natural" v="hill" />
		<tag k="place" v="locality" />
		<tag k="ssr:stedsnr" v="252640" />
	</node>
	<node id="-439007" lat="59.1975138933" lon="9.23757499894">
		<tag k="name" v="Bjørkeliane" />
		<tag k="natural" v="slope" />
		<tag k="place" v="locality" />
		<tag k="ssr:stedsnr" v="359872" />
	</node>
	<node id="-439006" lat="59.2129777738" lon="9.05653611387">
		<tag k="name" v="Åsland Storbufjell" />
		<tag k="natural" v="hill" />
		<tag k="place" v="locality" />
		<tag k="ssr:stedsnr" v="359221" />
	</node>
	<node id="-439000" lat="59.3377249978" lon="8.89173334195">
		<tag k="fixme" v="consider natural=peak for the most distinct mountains in the district" />
		<tag k="name" v="Stulsrompa" />
		<tag k="natural" v="hill" />
		<tag k="place" v="locality" />
		<tag k="ssr:stedsnr" v="488206" />
	</node>
	<node id="-438999" lat="59.3332166652" lon="9.16534722283">
		<tag k="alt_name" v="Igletjørnfjellet" />
		<tag k="fixme" v="consider natural=peak for the most distinct mountains in the district" />
		<tag k="name" v="Igletjønnfjell" />
		<tag k="natural" v="hill" />
		<tag k="place" v="locality" />
		<tag k="ssr:stedsnr" v="488193" />
	</node>
	<node id="-438996" lat="59.2195666694" lon="9.23698611465">
		<tag k="alt_name" v="Bukoll" />
		<tag k="fixme" v="consider natural=peak for the most distinct mountains in the district" />
		<tag k="name" v="Bukollen" />
		<tag k="natural" v="hill" />
		<tag k="place" v="locality" />
		<tag k="ssr:stedsnr" v="487931" />
	</node>
	<node id="-438990" lat="59.2713944433" lon="9.21855834052">
		<tag k="fixme" v="consider natural=peak for the most distinct mountains in the district" />
		<tag k="name" v="Småmyråsen" />
		<tag k="natural" v="hill" />
		<tag k="place" v="locality" />
		<tag k="ssr:stedsnr" v="344926" />
	</node>
	<node id="-438986" lat="59.3686222226" lon="9.12325554847">
		<tag k="alt_name" v="Raudmyrkollen" />
		<tag k="name" v="Raumyrkollen" />
		<tag k="natural" v="hill" />
		<tag k="place" v="locality" />
		<tag k="ssr:stedsnr" v="487305" />
	</node>
	<node id="-438981" lat="59.3535833289" lon="9.14262222747">
		<tag k="alt_name" v="Løkedalen" />
		<tag k="name" v="Løkjedalen" />
		<tag k="natural" v="valley" />
		<tag k="place" v="locality" />
		<tag k="ssr:stedsnr" v="487271" />
	</node>
	<node id="-438977" lat="59.3136777763" lon="9.10435554781">
		<tag k="fixme" v="consider natural=peak for the most distinct mountains in the district" />
		<tag k="name" v="Lundeåsen" />
		<tag k="natural" v="hill" />
		<tag k="place" v="locality" />
		<tag k="ssr:stedsnr" v="487186" />
	</node>
	<node id="-438974" lat="59.3119944438" lon="9.14091388343">
		<tag k="alt_name" v="Kristiåsen" />
		<tag k="fixme" v="consider natural=peak for the most distinct mountains in the district" />
		<tag k="name" v="Kristiås" />
		<tag k="natural" v="hill" />
		<tag k="place" v="locality" />
		<tag k="ssr:stedsnr" v="487171" />
	</node>
	<node id="-438971" lat="59.269819442" lon="9.19216667442">
		<tag k="alt_name" v="Nuke, austre;Østre Nuke" />
		<tag k="fixme" v="consider natural=peak for the most distinct mountains in the district" />
		<tag k="name" v="Austre Nuke" />
		<tag k="natural" v="hill" />
		<tag k="place" v="locality" />
		<tag k="ssr:stedsnr" v="487085" />
	</node>
	<node id="-438970" lat="59.2529472202" lon="9.10129443732">
		<tag k="fixme" v="consider natural=peak for the most distinct mountains in the district" />
		<tag k="name" v="Åslandskåpet" />
		<tag k="natural" v="hill" />
		<tag k="place" v="locality" />
		<tag k="ssr:stedsnr" v="487080" />
	</node>
	<node id="-438966" lat="59.2365499968" lon="9.11610000775">
		<tag k="alt_name" v="Skardfjell" />
		<tag k="fixme" v="consider natural=peak for the most distinct mountains in the district" />
		<tag k="name" v="Skardfjellet" />
		<tag k="natural" v="hill" />
		<tag k="place" v="locality" />
		<tag k="ssr:stedsnr" v="486405" />
	</node>
	<node id="-438964" lat="59.2370138915" lon="9.270180551">
		<tag k="fixme" v="consider natural=peak for the most distinct mountains in the district" />
		<tag k="name" v="Tjærebrenneråsen" />
		<tag k="natural" v="hill" />
		<tag k="place" v="locality" />
		<tag k="ssr:stedsnr" v="480950" />
	</node>
	<node id="-438959" lat="59.1929166703" lon="9.25574722536">
		<tag k="fixme" v="consider natural=peak for the most distinct mountains in the district" />
		<tag k="name" v="Stueåsen" />
		<tag k="natural" v="hill" />
		<tag k="place" v="locality" />
		<tag k="ssr:stedsnr" v="480823" />
	</node>
	<node id="-438957" lat="59.2801472198" lon="9.0614833281">
		<tag k="fixme" v="consider natural=peak for the most distinct mountains in the district" />
		<tag k="name" v="Stasnibb" />
		<tag k="natural" v="hill" />
		<tag k="place" v="locality" />
		<tag k="ssr:stedsnr" v="480495" />
	</node>
	<node id="-438945" lat="59.2027444459" lon="9.28512222405">
		<tag k="name" v="Stuverudliane" />
		<tag k="natural" v="slope" />
		<tag k="place" v="locality" />
		<tag k="ssr:stedsnr" v="328848" />
	</node>
	<node id="-438944" lat="59.3652583375" lon="9.04873056381">
		<tag k="fixme" v="consider natural=peak for the most distinct mountains in the district" />
		<tag k="name" v="Smedskollen" />
		<tag k="natural" v="hill" />
		<tag k="place" v="locality" />
		<tag k="ssr:stedsnr" v="328440" />
	</node>
	<node id="-438943" lat="59.2382583336" lon="9.39090276939">
		<tag k="name" v="Norddalen" />
		<tag k="natural" v="valley" />
		<tag k="place" v="locality" />
		<tag k="ssr:stedsnr" v="328435" />
	</node>
	<node id="-438942" lat="59.2306750012" lon="9.3741972292">
		<tag k="name" v="Håvet" />
		<tag k="place" v="locality" />
		<tag k="ssr:stedsnr" v="328432" />
	</node>
	<node id="-438725" lat="59.3349472227" lon="8.99808332598">
		<tag k="name" v="Skreia" />
		<tag k="natural" v="cliff" />
		<tag k="ssr:stedsnr" v="85062" />
	</node>
	<node id="-438939" lat="59.3263444413" lon="8.89360276922">
		<tag k="name" v="Jammerdalen" />
		<tag k="natural" v="valley" />
		<tag k="place" v="locality" />
		<tag k="ssr:stedsnr" v="328128" />
	</node>
	<node id="-438938" lat="59.2619833321" lon="9.05311111882">
		<tag k="fixme" v="consider natural=peak for the most distinct mountains in the district" />
		<tag k="name" v="Meheifjellet" />
		<tag k="natural" v="hill" />
		<tag k="place" v="locality" />
		<tag k="ssr:stedsnr" v="327151" />
	</node>
	<node id="-438930" lat="59.2414194447" lon="9.23812222155">
		<tag k="name" v="Kukleivbakken" />
		<tag k="natural" v="slope" />
		<tag k="place" v="locality" />
		<tag k="ssr:stedsnr" v="465991" />
	</node>
	<node id="-438929" lat="59.2130166645" lon="9.19835555174">
		<tag k="name" v="Brudalen" />
		<tag k="natural" v="valley" />
		<tag k="place" v="locality" />
		<tag k="ssr:stedsnr" v="465983" />
	</node>
	<node id="-438928" lat="59.2065305595" lon="9.21197777597">
		<tag k="fixme" v="consider natural=peak for the most distinct mountains in the district" />
		<tag k="name" v="Bomåsen" />
		<tag k="natural" v="hill" />
		<tag k="place" v="locality" />
		<tag k="ssr:stedsnr" v="465981" />
	</node>
	<node id="-438927" lat="59.2774166689" lon="9.2161777705">
		<tag k="name" v="Tinndølingsdalen" />
		<tag k="natural" v="valley" />
		<tag k="place" v="locality" />
		<tag k="ssr:stedsnr" v="465930" />
	</node>
	<node id="-438722" lat="59.3260611076" lon="8.9243222158">
		<tag k="name" v="Juva" />
		<tag k="natural" v="valley" />
		<tag k="place" v="locality" />
		<tag k="ssr:stedsnr" v="85110" />
	</node>
	<node id="-438919" lat="59.2421805541" lon="9.31103611374">
		<tag k="name" v="Nipelia" />
		<tag k="natural" v="slope" />
		<tag k="place" v="locality" />
		<tag k="ssr:stedsnr" v="268874" />
	</node>
	<node id="-438721" lat="59.255611111" lon="9.30953889437">
		<tag k="fixme" v="consider natural=peak for the most distinct mountains in the district" />
		<tag k="name" v="Skurvåsen" />
		<tag k="natural" v="hill" />
		<tag k="place" v="locality" />
		<tag k="ssr:stedsnr" v="85107" />
	</node>
	<node id="-438915" lat="59.2440083317" lon="9.36578333029">
		<tag k="name" v="Kåsadalen" />
		<tag k="natural" v="valley" />
		<tag k="place" v="locality" />
		<tag k="ssr:stedsnr" v="268204" />
	</node>
	<node id="-438914" lat="59.2225305533" lon="9.30180278607">
		<tag k="name" v="Deilsdokka" />
		<tag k="natural" v="valley" />
		<tag k="place" v="locality" />
		<tag k="ssr:stedsnr" v="267854" />
	</node>
	<node id="-438913" lat="59.2476833304" lon="9.31213055574">
		<tag k="name" v="Traudalen" />
		<tag k="natural" v="valley" />
		<tag k="place" v="locality" />
		<tag k="ssr:stedsnr" v="268170" />
	</node>
	<node id="-438912" lat="59.3194916705" lon="9.06673332664">
		<tag k="fixme" v="consider natural=peak for the most distinct mountains in the district" />
		<tag k="name" v="Lundtveitfjellet" />
		<tag k="natural" v="hill" />
		<tag k="place" v="locality" />
		<tag k="ssr:stedsnr" v="267772" />
	</node>
	<node id="-438909" lat="59.3501166705" lon="9.04478333663">
		<tag k="fixme" v="consider natural=peak for the most distinct mountains in the district" />
		<tag k="name" v="Askedalsåsane" />
		<tag k="natural" v="hill" />
		<tag k="place" v="locality" />
		<tag k="ssr:stedsnr" v="267361" />
	</node>
	<node id="-440955" lat="59.2380555571" lon="9.02539999704">
		<tag k="name" v="Lubergmellom" />
		<tag k="place" v="locality" />
		<tag k="ssr:stedsnr" v="966139" />
	</node>
	<node id="-440952" lat="59.2561305546" lon="9.26288888581">
		<tag k="name" v="Suggedalen" />
		<tag k="natural" v="valley" />
		<tag k="place" v="locality" />
		<tag k="ssr:stedsnr" v="966074" />
	</node>
	<node id="-440951" lat="59.2564694422" lon="9.24987221965">
		<tag k="fixme" v="consider natural=peak for the most distinct mountains in the district" />
		<tag k="name" v="Bjoremyråsen" />
		<tag k="natural" v="hill" />
		<tag k="place" v="locality" />
		<tag k="ssr:stedsnr" v="966072" />
	</node>
	<node id="-440950" lat="59.1830472208" lon="9.21342499968">
		<tag k="name" v="Grasdalsstoa" />
		<tag k="natural" v="valley" />
		<tag k="place" v="locality" />
		<tag k="ssr:stedsnr" v="965845" />
	</node>
	<node id="-440949" lat="59.1626250039" lon="9.21604445273">
		<tag k="name" v="Prestvatnsdalen" />
		<tag k="natural" v="valley" />
		<tag k="place" v="locality" />
		<tag k="ssr:stedsnr" v="965835" />
	</node>
	<node id="-440948" lat="59.192727775" lon="9.23635278205">
		<tag k="name" v="Dulphola" />
		<tag k="natural" v="valley" />
		<tag k="place" v="locality" />
		<tag k="ssr:stedsnr" v="965831" />
	</node>
	<node id="-440947" lat="59.2585666647" lon="9.07869444278">
		<tag k="name" v="Meheiliane" />
		<tag k="natural" v="slope" />
		<tag k="place" v="locality" />
		<tag k="ssr:stedsnr" v="965597" />
	</node>
	<node id="-438898" lat="59.2005611142" lon="9.29693332876">
		<tag k="name" v="Goddalen" />
		<tag k="natural" v="valley" />
		<tag k="place" v="locality" />
		<tag k="ssr:stedsnr" v="450684" />
	</node>
	<node id="-440944" lat="59.2601666707" lon="9.10491944274">
		<tag k="name" v="Svarttjønndalen" />
		<tag k="natural" v="valley" />
		<tag k="place" v="locality" />
		<tag k="ssr:stedsnr" v="965583" />
	</node>
	<node id="-440942" lat="59.217305556" lon="9.063116659">
		<tag k="fixme" v="consider natural=peak for the most distinct mountains in the district" />
		<tag k="name" v="Veneliknatten" />
		<tag k="natural" v="hill" />
		<tag k="place" v="locality" />
		<tag k="ssr:stedsnr" v="965431" />
	</node>
	<node id="-440939" lat="59.2601472243" lon="9.18255277957">
		<tag k="name" v="Sigrids renne" />
		<tag k="natural" v="valley" />
		<tag k="place" v="locality" />
		<tag k="ssr:stedsnr" v="965083" />
	</node>
	<node id="-440937" lat="59.2231444429" lon="9.21377777945">
		<tag k="name" v="Askedalen" />
		<tag k="natural" v="valley" />
		<tag k="place" v="locality" />
		<tag k="ssr:stedsnr" v="951974" />
	</node>
	<node id="-440936" lat="59.2077166695" lon="9.2627583341">
		<tag k="name" v="Lusefjellaksla" />
		<tag k="natural" v="ridge" />
		<tag k="place" v="locality" />
		<tag k="ssr:stedsnr" v="951896" />
	</node>
	<node id="-440935" lat="59.2125583335" lon="9.24370834134">
		<tag k="name" v="Håvbakken" />
		<tag k="natural" v="slope" />
		<tag k="place" v="locality" />
		<tag k="ssr:stedsnr" v="951892" />
	</node>
	<node id="-440933" lat="59.2165722201" lon="9.2377861041">
		<tag k="name" v="Paddedalen" />
		<tag k="natural" v="valley" />
		<tag k="place" v="locality" />
		<tag k="ssr:stedsnr" v="951881" />
	</node>
	<node id="-440932" lat="59.2181888912" lon="9.256861106">
		<tag k="fixme" v="consider natural=peak for the most distinct mountains in the district" />
		<tag k="name" v="Flatås" />
		<tag k="natural" v="hill" />
		<tag k="place" v="locality" />
		<tag k="ssr:stedsnr" v="951880" />
	</node>
	<node id="-438883" lat="59.2544055573" lon="9.01571666569">
		<tag k="name" v="Styggedal" />
		<tag k="natural" v="valley" />
		<tag k="place" v="locality" />
		<tag k="ssr:stedsnr" v="449155" />
	</node>
	<node id="-438882" lat="59.3562916636" lon="8.95273611084">
		<tag k="fixme" v="consider natural=peak for the most distinct mountains in the district" />
		<tag k="name" v="Bjørnhuskkollen" />
		<tag k="natural" v="hill" />
		<tag k="place" v="locality" />
		<tag k="ssr:stedsnr" v="449083" />
	</node>
	<node id="-438881" lat="59.29516389" lon="9.02576388902">
		<tag k="name" v="Smiuskaret" />
		<tag k="natural" v="valley" />
		<tag k="place" v="locality" />
		<tag k="ssr:stedsnr" v="449250" />
	</node>
	<node id="-438880" lat="59.2931499997" lon="9.02479444384">
		<tag k="fixme" v="consider natural=peak for the most distinct mountains in the district" />
		<tag k="name" v="Skorafjell" />
		<tag k="natural" v="hill" />
		<tag k="place" v="locality" />
		<tag k="ssr:stedsnr" v="449248" />
	</node>
	<node id="-438879" lat="59.3219833365" lon="9.24864444928">
		<tag k="fixme" v="consider natural=peak for the most distinct mountains in the district" />
		<tag k="name" v="Sandnesåsen" />
		<tag k="natural" v="hill" />
		<tag k="place" v="locality" />
		<tag k="ssr:stedsnr" v="245863" />
	</node>
	<node id="-440924" lat="59.2535388933" lon="9.30431389568">
		<tag k="name" v="Nipehåvet" />
		<tag k="place" v="locality" />
		<tag k="ssr:stedsnr" v="875187" />
	</node>
	<node id="-440922" lat="59.3658416664" lon="9.11776110474">
		<tag k="fixme" v="consider natural=peak for the most distinct mountains in the district" />
		<tag k="name" v="Brentåsane" />
		<tag k="natural" v="hill" />
		<tag k="place" v="locality" />
		<tag k="ssr:stedsnr" v="874827" />
	</node>
	<node id="-438873" lat="59.3388388919" lon="9.08042873635">
		<tag k="fixme" v="consider natural=peak for the most distinct mountains in the district" />
		<tag k="loc_name" v="Gvålaåsen" />
		<tag k="name" v="Valaåsen" />
		<tag k="natural" v="hill" />
		<tag k="place" v="locality" />
		<tag k="ssr:stedsnr" v="245263" />
	</node>
	<node id="-440920" lat="59.3465777789" lon="9.08154444432">
		<tag k="name" v="Geitås" />
		<tag k="natural" v="hill" />
		<tag k="place" v="locality" />
		<tag k="ssr:stedsnr" v="874682" />
	</node>
	<node id="-440919" lat="59.3671777748" lon="9.10057222229">
		<tag k="name" v="Almedalen" />
		<tag k="natural" v="valley" />
		<tag k="place" v="locality" />
		<tag k="ssr:stedsnr" v="874592" />
	</node>
	<node id="-440917" lat="59.2017249969" lon="9.30137499134">
		<tag k="name" v="Plankedalen" />
		<tag k="natural" v="valley" />
		<tag k="place" v="locality" />
		<tag k="ssr:stedsnr" v="874631" />
	</node>
	<node id="-440915" lat="59.2366722265" lon="9.33675000672">
		<tag k="fixme" v="consider natural=peak for the most distinct mountains in the district" />
		<tag k="name" v="Husefjell" />
		<tag k="natural" v="hill" />
		<tag k="place" v="locality" />
		<tag k="ssr:stedsnr" v="874481" />
	</node>
	<node id="-438865" lat="59.3030888909" lon="9.15126388907">
		<tag k="fixme" v="consider natural=peak for the most distinct mountains in the district" />
		<tag k="name" v="Bardåsen" />
		<tag k="natural" v="hill" />
		<tag k="place" v="locality" />
		<tag k="ssr:stedsnr" v="245156" />
	</node>
	<node id="-440911" lat="59.3358284054" lon="8.96717033688">
		<tag k="name" v="Steindalen" />
		<tag k="natural" v="valley" />
		<tag k="place" v="locality" />
		<tag k="ssr:stedsnr" v="874095" />
	</node>
	<node id="-438862" lat="59.2718722184" lon="8.96510555446">
		<tag k="fixme" v="consider natural=peak for the most distinct mountains in the district" />
		<tag k="name" v="Lauvbuhovda" />
		<tag k="natural" v="hill" />
		<tag k="place" v="locality" />
		<tag k="ssr:stedsnr" v="245113" />
	</node>
	<node id="-440909" lat="59.3366775153" lon="8.97114872686">
		<tag k="name" v="Lauvroskås" />
		<tag k="natural" v="slope" />
		<tag k="place" v="locality" />
		<tag k="ssr:stedsnr" v="874085" />
	</node>
	<node id="-438860" lat="59.2808694463" lon="9.05329444766">
		<tag k="alt_name" v="Kleppefjellet" />
		<tag k="fixme" v="consider natural=peak for the most distinct mountains in the district" />
		<tag k="name" v="Kleppefjell" />
		<tag k="natural" v="hill" />
		<tag k="place" v="locality" />
		<tag k="ssr:stedsnr" v="245109" />
	</node>
	<node id="-438859" lat="59.2791361099" lon="9.12146667434">
		<tag k="fixme" v="consider natural=peak for the most distinct mountains in the district" />
		<tag k="name" v="Brennåsen" />
		<tag k="natural" v="hill" />
		<tag k="place" v="locality" />
		<tag k="ssr:stedsnr" v="245105" />
	</node>
	<node id="-440906" lat="59.3095305569" lon="8.95336667506">
		<tag k="name" v="Lauvholet" />
		<tag k="natural" v="slope" />
		<tag k="old_name" v="Lauholet" />
		<tag k="place" v="locality" />
		<tag k="ssr:stedsnr" v="874034" />
	</node>
	<node id="-438857" lat="59.212874999" lon="9.05813334062">
		<tag k="alt_name" v="Åsland Storbufjell" />
		<tag k="fixme" v="consider natural=peak for the most distinct mountains in the district" />
		<tag k="name" v="Åslandstorrbufjellet" />
		<tag k="natural" v="hill" />
		<tag k="place" v="locality" />
		<tag k="ssr:stedsnr" v="244415" />
	</node>
	<node id="-438854" lat="59.1981777759" lon="9.23094166408">
		<tag k="name" v="Tiurleiken" />
		<tag k="natural" v="slope" />
		<tag k="place" v="locality" />
		<tag k="ssr:stedsnr" v="298828" />
	</node>
	<node id="-438852" lat="59.1934833331" lon="9.2486222236">
		<tag k="fixme" v="consider natural=peak for the most distinct mountains in the district" />
		<tag k="name" v="Hestmyrknatten" />
		<tag k="natural" v="hill" />
		<tag k="place" v="locality" />
		<tag k="ssr:stedsnr" v="298812" />
	</node>
	<node id="-438851" lat="59.1813305552" lon="9.21207222916">
		<tag k="name" v="Vrestebakken" />
		<tag k="natural" v="slope" />
		<tag k="place" v="locality" />
		<tag k="ssr:stedsnr" v="298807" />
	</node>
	<node id="-440898" lat="59.3548611074" lon="9.10685833827">
		<tag k="fixme" v="consider natural=peak for the most distinct mountains in the district" />
		<tag k="name" v="Vestkleivåsen" />
		<tag k="natural" v="hill" />
		<tag k="place" v="locality" />
		<tag k="ssr:stedsnr" v="852275" />
	</node>
	<node id="-440897" lat="59.3335305592" lon="8.87013055357">
		<tag k="alt_name" v="Stulsfjellet, austre" />
		<tag k="fixme" v="consider natural=peak for the most distinct mountains in the district" />
		<tag k="name" v="Østre Stulsfjellet" />
		<tag k="natural" v="hill" />
		<tag k="place" v="locality" />
		<tag k="ssr:stedsnr" v="852252" />
	</node>
	<node id="-438848" lat="59.1992472191" lon="9.27680555763">
		<tag k="name" v="Stuverudkollen" />
		<tag k="natural" v="hill" />
		<tag k="place" v="locality" />
		<tag k="ssr:stedsnr" v="298774" />
	</node>
	<node id="-438845" lat="59.167377774" lon="9.22798056115">
		<tag k="name" v="Vaholliane" />
		<tag k="natural" v="slope" />
		<tag k="place" v="locality" />
		<tag k="ssr:stedsnr" v="298729" />
	</node>
	<node id="-440892" lat="59.2673361118" lon="8.88550277883">
		<tag k="alt_name" v="Solomheia" />
		<tag k="fixme" v="consider natural=peak for the most distinct mountains in the district" />
		<tag k="name" v="Solumheia" />
		<tag k="natural" v="hill" />
		<tag k="old_name" v="Solum-heia" />
		<tag k="place" v="locality" />
		<tag k="ssr:stedsnr" v="852121" />
	</node>
	<node id="-438843" lat="59.1820277735" lon="9.23080555089">
		<tag k="name" v="Hestedalane" />
		<tag k="natural" v="valley" />
		<tag k="place" v="locality" />
		<tag k="ssr:stedsnr" v="298719" />
	</node>
	<node id="-438842" lat="59.1864305514" lon="9.19889721827">
		<tag k="name" v="Barlinddalen" />
		<tag k="natural" v="valley" />
		<tag k="place" v="locality" />
		<tag k="ssr:stedsnr" v="298671" />
	</node>
	<node id="-440889" lat="59.2253555591" lon="9.30462778201">
		<tag k="alt_name" v="Tinnstulfjellet" />
		<tag k="fixme" v="consider natural=peak for the most distinct mountains in the district" />
		<tag k="name" v="Tønnestulfjellet" />
		<tag k="natural" v="hill" />
		<tag k="place" v="locality" />
		<tag k="ssr:stedsnr" v="851944" />
	</node>
	<node id="-440887" lat="59.3266277747" lon="8.93900000354">
		<tag k="fixme" v="consider natural=peak for the most distinct mountains in the district" />
		<tag k="name" v="Røysåsen" />
		<tag k="natural" v="hill" />
		<tag k="place" v="locality" />
		<tag k="ssr:stedsnr" v="852233" />
	</node>
	<node id="-440886" lat="59.307897225" lon="9.03640555737">
		<tag k="alt_name" v="Storemo" />
		<tag k="name" v="Stormo" />
		<tag k="place" v="locality" />
		<tag k="ssr:stedsnr" v="852191" />
	</node>
	<node id="-440885" lat="59.2211111156" lon="9.07745277692">
		<tag k="fixme" v="consider natural=peak for the most distinct mountains in the district" />
		<tag k="name" v="Åslandsfjellet" />
		<tag k="natural" v="hill" />
		<tag k="place" v="locality" />
		<tag k="ssr:stedsnr" v="851398" />
	</node>
	<node id="-440884" lat="59.2474249985" lon="9.19316388638">
		<tag k="alt_name" v="Hestefjell" />
		<tag k="fixme" v="consider natural=peak for the most distinct mountains in the district" />
		<tag k="name" v="Hestefjellet" />
		<tag k="natural" v="hill" />
		<tag k="place" v="locality" />
		<tag k="ssr:stedsnr" v="851355" />
	</node>
	<node id="-440883" lat="59.2121555592" lon="9.04753610894">
		<tag k="alt_name" v="Sverdalen" />
		<tag k="name" v="Svædalen" />
		<tag k="natural" v="valley" />
		<tag k="place" v="locality" />
		<tag k="ssr:stedsnr" v="851322" />
	</node>
	<node id="-440880" lat="59.2441777804" lon="9.28453889717">
		<tag k="alt_name" v="Igletjernfjellet" />
		<tag k="fixme" v="consider natural=peak for the most distinct mountains in the district" />
		<tag k="name" v="Igletjønnfjellet" />
		<tag k="natural" v="hill" />
		<tag k="place" v="locality" />
		<tag k="ssr:stedsnr" v="851034" />
	</node>
	<node id="-438831" lat="59.2354555594" lon="9.01715277096">
		<tag k="fixme" v="consider natural=peak for the most distinct mountains in the district" />
		<tag k="name" v="Vriåsen" />
		<tag k="natural" v="hill" />
		<tag k="place" v="locality" />
		<tag k="ssr:stedsnr" v="298146" />
	</node>
	<node id="-440878" lat="59.2304861099" lon="9.1052250078">
		<tag k="fixme" v="consider natural=peak for the most distinct mountains in the district" />
		<tag k="name" v="Lille Langmyråsen" />
		<tag k="natural" v="hill" />
		<tag k="place" v="locality" />
		<tag k="ssr:stedsnr" v="845207" />
	</node>
	<node id="-440877" lat="59.234558333" lon="9.06009444697">
		<tag k="name" v="Storlifjell" />
		<tag k="natural" v="hill" />
		<tag k="place" v="locality" />
		<tag k="ssr:stedsnr" v="845196" />
	</node>
	<node id="-440876" lat="59.2275388907" lon="9.08582500491">
		<tag k="name" v="Åslandsfjell" />
		<tag k="natural" v="hill" />
		<tag k="place" v="locality" />
		<tag k="ssr:stedsnr" v="845193" />
	</node>
	<node id="-440875" lat="59.23911667" lon="9.00055833587">
		<tag k="name" v="Granstander" />
		<tag k="natural" v="slope" />
		<tag k="place" v="locality" />
		<tag k="ssr:stedsnr" v="845147" />
	</node>
	<node id="-438823" lat="59.177147224" lon="9.1994305618">
		<tag k="name" v="Midthola" />
		<tag k="natural" v="valley" />
		<tag k="place" v="locality" />
		<tag k="ssr:stedsnr" v="177865" />
	</node>
	<node id="-438821" lat="59.1996166671" lon="9.22208611028">
		<tag k="name" v="Ormen" />
		<tag k="natural" v="hill" />
		<tag k="place" v="locality" />
		<tag k="ssr:stedsnr" v="177717" />
	</node>
	<node id="-440865" lat="59.2009388926" lon="9.23006389546">
		<tag k="name" v="Kittilsbonnhol" />
		<tag k="natural" v="valley" />
		<tag k="place" v="locality" />
		<tag k="ssr:stedsnr" v="844868" />
	</node>
	<node id="-440863" lat="59.2284388922" lon="9.1985277738">
		<tag k="name" v="Siljekleiv" />
		<tag k="natural" v="slope" />
		<tag k="place" v="locality" />
		<tag k="ssr:stedsnr" v="844801" />
	</node>
	<node id="-438814" lat="59.1571388913" lon="9.22139999645">
		<tag k="name" v="Bøvatnsliane" />
		<tag k="natural" v="slope" />
		<tag k="place" v="locality" />
		<tag k="ssr:stedsnr" v="284680" />
	</node>
	<node id="-440861" lat="59.2336638906" lon="9.22151389678">
		<tag k="fixme" v="consider natural=peak for the most distinct mountains in the district" />
		<tag k="name" v="Brønndalsåsane" />
		<tag k="natural" v="hill" />
		<tag k="place" v="locality" />
		<tag k="ssr:stedsnr" v="844796" />
	</node>
	<node id="-440856" lat="59.1912444487" lon="9.22277499473">
		<tag k="fixme" v="consider natural=peak for the most distinct mountains in the district" />
		<tag k="name" v="Rådyrkollen" />
		<tag k="natural" v="hill" />
		<tag k="place" v="locality" />
		<tag k="ssr:stedsnr" v="844696" />
	</node>
	<node id="-438806" lat="59.2883500025" lon="9.22038889531">
		<tag k="name" v="Stoadalen" />
		<tag k="natural" v="valley" />
		<tag k="place" v="locality" />
		<tag k="ssr:stedsnr" v="283936" />
	</node>
	<node id="-440852" lat="59.2061861114" lon="9.16713889119">
		<tag k="name" v="Brentefjell" />
		<tag k="natural" v="hill" />
		<tag k="place" v="locality" />
		<tag k="ssr:stedsnr" v="844389" />
	</node>
	<node id="-440850" lat="59.2770888914" lon="9.09483888649">
		<tag k="name" v="Sarasdal" />
		<tag k="natural" v="valley" />
		<tag k="place" v="locality" />
		<tag k="ssr:stedsnr" v="844370" />
	</node>
	<node id="-440849" lat="59.2450111134" lon="9.23808888559">
		<tag k="name" v="Hollatjønndalen" />
		<tag k="natural" v="valley" />
		<tag k="place" v="locality" />
		<tag k="ssr:stedsnr" v="830994" />
	</node>
	<node id="-440846" lat="59.2085305596" lon="9.19789722157">
		<tag k="name" v="Solli" />
		<tag k="natural" v="slope" />
		<tag k="place" v="locality" />
		<tag k="ssr:stedsnr" v="830980" />
	</node>
	<node id="-440845" lat="59.2146916643" lon="9.23694999869">
		<tag k="fixme" v="consider natural=peak for the most distinct mountains in the district" />
		<tag k="name" v="Seteråsen" />
		<tag k="natural" v="hill" />
		<tag k="place" v="locality" />
		<tag k="ssr:stedsnr" v="830931" />
	</node>
	<node id="-440844" lat="59.205366667" lon="9.22548056214">
		<tag k="fixme" v="consider natural=peak for the most distinct mountains in the district" />
		<tag k="name" v="Flatås" />
		<tag k="natural" v="hill" />
		<tag k="place" v="locality" />
		<tag k="ssr:stedsnr" v="830908" />
	</node>
	<node id="-438794" lat="59.2397083345" lon="9.07289722162">
		<tag k="fixme" v="consider natural=peak for the most distinct mountains in the district" />
		<tag k="name" v="Stormyråsane" />
		<tag k="natural" v="hill" />
		<tag k="place" v="locality" />
		<tag k="ssr:stedsnr" v="162308" />
	</node>
	<node id="-438789" lat="59.3112250034" lon="9.18273889469">
		<tag k="name" v="Vindberg" />
		<tag k="natural" v="hill" />
		<tag k="place" v="locality" />
		<tag k="ssr:stedsnr" v="148719" />
	</node>
	<node id="-440836" lat="59.2394611119" lon="9.1498333333">
		<tag k="name" v="Maryshol" />
		<tag k="natural" v="valley" />
		<tag k="place" v="locality" />
		<tag k="ssr:stedsnr" v="830261" />
	</node>
	<node id="-438787" lat="59.2203027783" lon="9.31591110644">
		<tag k="name" v="Øyfjell" />
		<tag k="natural" v="hill" />
		<tag k="place" v="locality" />
		<tag k="ssr:stedsnr" v="146813" />
	</node>
	<node id="-438786" lat="59.3631666702" lon="9.06650832978">
		<tag k="fixme" v="consider natural=peak for the most distinct mountains in the district" />
		<tag k="name" v="Sproveåsen" />
		<tag k="natural" v="hill" />
		<tag k="place" v="locality" />
		<tag k="ssr:stedsnr" v="146562" />
	</node>
	<node id="-440828" lat="59.2357027817" lon="9.31923611813">
		<tag k="name" v="Bærvannslia" />
		<tag k="natural" v="slope" />
		<tag k="place" v="locality" />
		<tag k="ssr:stedsnr" v="814997" />
	</node>
	<node id="-438778" lat="59.3259805563" lon="9.19783888371">
		<tag k="fixme" v="consider natural=peak for the most distinct mountains in the district" />
		<tag k="name" v="Vardefjell" />
		<tag k="natural" v="hill" />
		<tag k="place" v="locality" />
		<tag k="ssr:stedsnr" v="269504" />
	</node>
	<node id="-438776" lat="59.2582722228" lon="9.29639167151">
		<tag k="fixme" v="consider natural=peak for the most distinct mountains in the district" />
		<tag k="name" v="Damtjønnfjellet" />
		<tag k="natural" v="hill" />
		<tag k="place" v="locality" />
		<tag k="ssr:stedsnr" v="269162" />
	</node>
	<node id="-438775" lat="59.3451138917" lon="9.11800277806">
		<tag k="name" v="Gamlestuldalen" />
		<tag k="natural" v="valley" />
		<tag k="place" v="locality" />
		<tag k="ssr:stedsnr" v="268928" />
	</node>
	<node id="-440822" lat="59.3720027815" lon="9.06785555737">
		<tag k="name" v="Flatin" />
		<tag k="place" v="locality" />
		<tag k="ssr:stedsnr" v="814606" />
	</node>
	<node id="-438773" lat="59.2584888918" lon="9.34885555135">
		<tag k="fixme" v="consider natural=peak for the most distinct mountains in the district" />
		<tag k="name" v="Blåbæråsen" />
		<tag k="natural" v="hill" />
		<tag k="place" v="locality" />
		<tag k="ssr:stedsnr" v="268264" />
	</node>
	<node id="-440820" lat="59.26710833" lon="8.88118611776">
		<tag k="name" v="Vabakkane" />
		<tag k="natural" v="slope" />
		<tag k="place" v="locality" />
		<tag k="ssr:stedsnr" v="814559" />
	</node>
	<node id="-438768" lat="59.3823527744" lon="9.06584722703">
		<tag k="name" v="Dalen" />
		<tag k="natural" v="valley" />
		<tag k="place" v="locality" />
		<tag k="ssr:stedsnr" v="267524" />
	</node>
	<node id="-440815" lat="59.2523250005" lon="9.37453889129">
		<tag k="name" v="Ytterbødalen" />
		<tag k="natural" v="valley" />
		<tag k="place" v="locality" />
		<tag k="ssr:stedsnr" v="814324" />
	</node>
	<node id="-440812" lat="59.2484694469" lon="9.3039138822">
		<tag k="name" v="Godalen" />
		<tag k="natural" v="valley" />
		<tag k="place" v="locality" />
		<tag k="ssr:stedsnr" v="814204" />
	</node>
	<node id="-440809" lat="59.231438891" lon="9.28461110379">
		<tag k="name" v="Nekastad" />
		<tag k="place" v="locality" />
		<tag k="ssr:stedsnr" v="813976" />
	</node>
	<node id="-440807" lat="59.3414055547" lon="9.1036888918">
		<tag k="name" v="Strandåsen" />
		<tag k="natural" v="hill" />
		<tag k="place" v="locality" />
		<tag k="ssr:stedsnr" v="813663" />
	</node>
	<node id="-438757" lat="59.3270868112" lon="9.14443766608">
		<tag k="fixme" v="consider natural=peak for the most distinct mountains in the district" />
		<tag k="name" v="Langetjønnåsen" />
		<tag k="natural" v="hill" />
		<tag k="place" v="locality" />
		<tag k="ssr:stedsnr" v="267068" />
	</node>
	<node id="-440802" lat="59.2796500011" lon="8.86919166075">
		<tag k="name" v="Mørkvassjuvet" />
		<tag k="natural" v="gorge" />
		<tag k="ssr:stedsnr" v="813399" />
	</node>
	<node id="-440801" lat="59.2817250043" lon="8.84131110792">
		<tag k="name" v="Juvhottane" />
		<tag k="natural" v="slope" />
		<tag k="place" v="locality" />
		<tag k="ssr:stedsnr" v="813398" />
	</node>
	<node id="-440800" lat="59.2765833331" lon="8.84852222483">
		<tag k="fixme" v="consider natural=peak for the most distinct mountains in the district" />
		<tag k="name" v="Nordvadhausen" />
		<tag k="natural" v="hill" />
		<tag k="place" v="locality" />
		<tag k="ssr:stedsnr" v="813396" />
	</node>
	<node id="-440400" lat="59.3427083294" lon="9.13990277424">
		<tag k="alt_name" v="Skinås" />
		<tag k="fixme" v="consider natural=peak for the most distinct mountains in the district" />
		<tag k="name" v="Skjenås" />
		<tag k="natural" v="hill" />
		<tag k="place" v="locality" />
		<tag k="ssr:stedsnr" v="427273" />
	</node>
	<node id="-440797" lat="59.3246694423" lon="8.92454721906">
		<tag k="name" v="Ørjusdalen" />
		<tag k="natural" v="valley" />
		<tag k="place" v="locality" />
		<tag k="ssr:stedsnr" v="813266" />
	</node>
	<node id="-440795" lat="59.2695805584" lon="9.02549722935">
		<tag k="fixme" v="consider natural=peak for the most distinct mountains in the district" />
		<tag k="name" v="Damliåsen" />
		<tag k="natural" v="hill" />
		<tag k="place" v="locality" />
		<tag k="ssr:stedsnr" v="813110" />
	</node>
	<node id="-440794" lat="59.2788583302" lon="8.99857222039">
		<tag k="fixme" v="consider natural=peak for the most distinct mountains in the district" />
		<tag k="name" v="Suggeås" />
		<tag k="natural" v="hill" />
		<tag k="place" v="locality" />
		<tag k="ssr:stedsnr" v="813071" />
	</node>
	<node id="-438744" lat="59.2688944404" lon="9.07253611869">
		<tag k="name" v="Bufeholet" />
		<tag k="natural" v="valley" />
		<tag k="place" v="locality" />
		<tag k="ssr:stedsnr" v="116602" />
	</node>
	<node id="-438743" lat="59.2256972198" lon="9.05837778035">
		<tag k="name" v="Hurum" />
		<tag k="natural" v="hill" />
		<tag k="place" v="locality" />
		<tag k="ssr:stedsnr" v="116432" />
	</node>
	<node id="-438742" lat="59.2250749996" lon="9.0676999984">
		<tag k="fixme" v="consider natural=peak for the most distinct mountains in the district" />
		<tag k="name" v="Bikkjemyråsen" />
		<tag k="natural" v="hill" />
		<tag k="place" v="locality" />
		<tag k="ssr:stedsnr" v="116420" />
	</node>
	<node id="-440788" lat="59.2965611112" lon="8.9948861174">
		<tag k="name" v="Bratthammar" />
		<tag k="place" v="locality" />
		<tag k="ssr:stedsnr" v="813013" />
	</node>
	<node id="-440785" lat="59.3337722221" lon="9.10085833618">
		<tag k="name" v="Bergeåsen" />
		<tag k="natural" v="hill" />
		<tag k="place" v="locality" />
		<tag k="ssr:stedsnr" v="814776" />
	</node>
	<node id="-438735" lat="59.2643250035" lon="8.95887500601">
		<tag k="fixme" v="consider natural=peak for the most distinct mountains in the district" />
		<tag k="name" v="Føykåsen" />
		<tag k="natural" v="hill" />
		<tag k="place" v="locality" />
		<tag k="ssr:stedsnr" v="87731" />
	</node>
	<node id="-440779" lat="59.2598055517" lon="9.31549165865">
		<tag k="alt_name" v="Høgkoll" />
		<tag k="fixme" v="consider natural=peak for the most distinct mountains in the district" />
		<tag k="name" v="Høgkollen" />
		<tag k="natural" v="hill" />
		<tag k="place" v="locality" />
		<tag k="ssr:stedsnr" v="791625" />
	</node>
	<node id="-440777" lat="59.3648666691" lon="8.98319721665">
		<tag k="fixme" v="consider natural=peak for the most distinct mountains in the district" />
		<tag k="name" v="Gygrestolfjellet" />
		<tag k="natural" v="hill" />
		<tag k="place" v="locality" />
		<tag k="ssr:stedsnr" v="791294" />
	</node>
	<node id="-440776" lat="59.3625166684" lon="9.03609722613">
		<tag k="alt_name" v="Steinkyrkjefjellet" />
		<tag k="fixme" v="consider natural=peak for the most distinct mountains in the district" />
		<tag k="name" v="Steinkjørkefjellet" />
		<tag k="natural" v="hill" />
		<tag k="place" v="locality" />
		<tag k="ssr:stedsnr" v="791285" />
	</node>
	<node id="-438727" lat="59.3542722244" lon="9.08163055073">
		<tag k="name" v="Brånan" />
		<tag k="natural" v="hill" />
		<tag k="place" v="locality" />
		<tag k="ssr:stedsnr" v="85610" />
	</node>
	<node id="-440773" lat="59.30004444" lon="8.98670000719">
		<tag k="fixme" v="consider natural=peak for the most distinct mountains in the district" />
		<tag k="name" v="Stulsfjellet" />
		<tag k="natural" v="hill" />
		<tag k="place" v="locality" />
		<tag k="ssr:stedsnr" v="791150" />
	</node>
	<node id="-440771" lat="59.2739833307" lon="9.006508334">
		<tag k="fixme" v="consider natural=peak for the most distinct mountains in the district" />
		<tag k="name" v="Ringsåsane" />
		<tag k="natural" v="hill" />
		<tag k="place" v="locality" />
		<tag k="ssr:stedsnr" v="791132" />
	</node>
	<node id="-440770" lat="59.2768999986" lon="8.9907472243">
		<tag k="alt_name" v="Sauåsen" />
		<tag k="fixme" v="consider natural=peak for the most distinct mountains in the district" />
		<tag k="name" v="Sauås" />
		<tag k="natural" v="hill" />
		<tag k="place" v="locality" />
		<tag k="ssr:stedsnr" v="791131" />
	</node>
	<node id="-440769" lat="59.2813333361" lon="8.95109166671">
		<tag k="fixme" v="consider natural=peak for the most distinct mountains in the district" />
		<tag k="name" v="Kleivstulknatten" />
		<tag k="natural" v="hill" />
		<tag k="place" v="locality" />
		<tag k="ssr:stedsnr" v="791127" />
	</node>
	<node id="-440766" lat="59.2622722215" lon="8.98000276943">
		<tag k="alt_name" v="Prestefjellet" />
		<tag k="fixme" v="consider natural=peak for the most distinct mountains in the district" />
		<tag k="name" v="Prestefjell" />
		<tag k="natural" v="hill" />
		<tag k="place" v="locality" />
		<tag k="ssr:stedsnr" v="791110" />
	</node>
	<node id="-440765" lat="59.2692111119" lon="9.07603056182">
		<tag k="alt_name" v="Stegafjell" />
		<tag k="fixme" v="consider natural=peak for the most distinct mountains in the district" />
		<tag k="name" v="Stegafjellet" />
		<tag k="natural" v="hill" />
		<tag k="place" v="locality" />
		<tag k="ssr:stedsnr" v="791104" />
	</node>
	<node id="-440764" lat="59.2747638887" lon="9.21035554997">
		<tag k="name" v="Kloppedalen" />
		<tag k="natural" v="valley" />
		<tag k="place" v="locality" />
		<tag k="ssr:stedsnr" v="791098" />
	</node>
	<node id="-440763" lat="59.2501416627" lon="8.99277500515">
		<tag k="alt_name" v="Linfjellet" />
		<tag k="fixme" v="consider natural=peak for the most distinct mountains in the district" />
		<tag k="name" v="Linfjell" />
		<tag k="natural" v="hill" />
		<tag k="place" v="locality" />
		<tag k="ssr:stedsnr" v="791095" />
	</node>
	<node id="-438714" lat="59.3152583306" lon="8.90513888807">
		<tag k="fixme" v="consider natural=peak for the most distinct mountains in the district" />
		<tag k="name" v="Fjellmåna" />
		<tag k="natural" v="hill" />
		<tag k="place" v="locality" />
		<tag k="ssr:stedsnr" v="245194" />
	</node>
	<node id="-438712" lat="59.3157361144" lon="9.05366388286">
		<tag k="name" v="Blekadalen" />
		<tag k="natural" v="valley" />
		<tag k="place" v="locality" />
		<tag k="ssr:stedsnr" v="245187" />
	</node>
	<node id="-438707" lat="59.2528888927" lon="9.00964167063">
		<tag k="alt_name" v="Hestefjellet" />
		<tag k="fixme" v="consider natural=peak for the most distinct mountains in the district" />
		<tag k="name" v="Hestefjell" />
		<tag k="natural" v="hill" />
		<tag k="place" v="locality" />
		<tag k="ssr:stedsnr" v="245081" />
	</node>
	<node id="-440754" lat="59.3187416684" lon="9.15815000825">
		<tag k="alt_name" v="Lintjørnfjellet" />
		<tag k="fixme" v="consider natural=peak for the most distinct mountains in the district" />
		<tag k="name" v="Lintjønnfjell" />
		<tag k="natural" v="hill" />
		<tag k="place" v="locality" />
		<tag k="ssr:stedsnr" v="791188" />
	</node>
	<node id="-440753" lat="59.3119944405" lon="9.05279999506">
		<tag k="alt_name" v="Skavdalsfjell" />
		<tag k="fixme" v="consider natural=peak for the most distinct mountains in the district" />
		<tag k="name" v="Skavdalsfjellet" />
		<tag k="natural" v="hill" />
		<tag k="place" v="locality" />
		<tag k="ssr:stedsnr" v="791184" />
	</node>
	<node id="-440752" lat="59.3138277784" lon="9.22301111034">
		<tag k="alt_name" v="Stulsfjell" />
		<tag k="fixme" v="consider natural=peak for the most distinct mountains in the district" />
		<tag k="name" v="Stulsfjellet" />
		<tag k="natural" v="hill" />
		<tag k="place" v="locality" />
		<tag k="ssr:stedsnr" v="791182" />
	</node>
	<node id="-440751" lat="59.2053749972" lon="9.16816111112">
		<tag k="fixme" v="consider natural=peak for the most distinct mountains in the district" />
		<tag k="name" v="Brentefjellet" />
		<tag k="natural" v="hill" />
		<tag k="place" v="locality" />
		<tag k="ssr:stedsnr" v="790319" />
	</node>
	<node id="-438701" lat="59.2502805598" lon="9.12257222522">
		<tag k="fixme" v="consider natural=peak for the most distinct mountains in the district" />
		<tag k="name" v="Heimdalsfjellet" />
		<tag k="natural" v="hill" />
		<tag k="place" v="locality" />
		<tag k="ssr:stedsnr" v="245076" />
	</node>
	<node id="-438698" lat="59.2292250039" lon="9.27141389758">
		<tag k="fixme" v="consider natural=peak for the most distinct mountains in the district" />
		<tag k="name" v="Tjuvefjell" />
		<tag k="natural" v="hill" />
		<tag k="place" v="locality" />
		<tag k="ssr:stedsnr" v="244946" />
	</node>
	<node id="-440745" lat="59.1531388888" lon="9.22932499229">
		<tag k="name" v="Bøvannshelleren" />
		<tag k="place" v="locality" />
		<tag k="ssr:stedsnr" v="784687" />
	</node>
	<node id="-438696" lat="59.2107361068" lon="9.22400832512">
		<tag k="alt_name" v="Tekstefjell" />
		<tag k="fixme" v="consider natural=peak for the most distinct mountains in the district" />
		<tag k="name" v="Tekslefjellet" />
		<tag k="natural" v="hill" />
		<tag k="place" v="locality" />
		<tag k="ssr:stedsnr" v="244914" />
	</node>
	<node id="-438695" lat="59.2043833332" lon="9.25834721507">
		<tag k="alt_name" v="Lusefjell" />
		<tag k="fixme" v="consider natural=peak for the most distinct mountains in the district" />
		<tag k="name" v="Lusefjellet" />
		<tag k="natural" v="hill" />
		<tag k="place" v="locality" />
		<tag k="ssr:stedsnr" v="244911" />
	</node>
	<node id="-438694" lat="59.2433416631" lon="9.02130277606">
		<tag k="fixme" v="consider natural=peak for the most distinct mountains in the district" />
		<tag k="name" v="Luberg" />
		<tag k="natural" v="hill" />
		<tag k="place" v="locality" />
		<tag k="ssr:stedsnr" v="244399" />
	</node>
	<node id="-438693" lat="59.1464750039" lon="9.20213332479">
		<tag k="fixme" v="consider natural=peak for the most distinct mountains in the district" />
		<tag k="name" v="Barlindknatten" />
		<tag k="natural" v="hill" />
		<tag k="place" v="locality" />
		<tag k="ssr:stedsnr" v="244298" />
	</node>
	<node id="-440738" lat="59.2453333326" lon="9.26380554764">
		<tag k="name" v="Flatås" />
		<tag k="natural" v="hill" />
		<tag k="place" v="locality" />
		<tag k="ssr:stedsnr" v="783931" />
	</node>
	<node id="-440735" lat="59.1786444439" lon="9.22087499246">
		<tag k="name" v="Oslia" />
		<tag k="natural" v="slope" />
		<tag k="place" v="locality" />
		<tag k="ssr:stedsnr" v="783840" />
	</node>
	<node id="-440734" lat="59.1963250021" lon="9.17834167098">
		<tag k="name" v="Svarttjønnliane" />
		<tag k="natural" v="slope" />
		<tag k="place" v="locality" />
		<tag k="ssr:stedsnr" v="783836" />
	</node>
	<node id="-438685" lat="59.25714167" lon="9.24610277566">
		<tag k="name" v="Bjørndalen" />
		<tag k="natural" v="valley" />
		<tag k="place" v="locality" />
		<tag k="ssr:stedsnr" v="238076" />
	</node>
	<node id="-440732" lat="59.1871027758" lon="9.25930833713">
		<tag k="name" v="Barlinhola" />
		<tag k="natural" v="valley" />
		<tag k="place" v="locality" />
		<tag k="ssr:stedsnr" v="783815" />
	</node>
	<node id="-440730" lat="59.2351388893" lon="9.19796666667">
		<tag k="name" v="Eikeli" />
		<tag k="natural" v="slope" />
		<tag k="place" v="locality" />
		<tag k="ssr:stedsnr" v="783801" />
	</node>
	<node id="-438681" lat="59.1676333293" lon="9.21864721364">
		<tag k="name" v="Prestvatnsliene" />
		<tag k="natural" v="slope" />
		<tag k="place" v="locality" />
		<tag k="ssr:stedsnr" v="237826" />
	</node>
	<node id="-438680" lat="59.19988611" lon="9.18194165985">
		<tag k="name" v="Saltmyrskåra" />
		<tag k="natural" v="valley" />
		<tag k="place" v="locality" />
		<tag k="ssr:stedsnr" v="237825" />
	</node>
	<node id="-438798" lat="59.2085305533" lon="9.22765833069">
		<tag k="name" v="Ormtjønnliane" />
		<tag k="natural" v="slope" />
		<tag k="place" v="locality" />
		<tag k="ssr:stedsnr" v="162915" />
	</node>
	<node id="-438678" lat="59.194125004" lon="9.2719833249">
		<tag k="fixme" v="consider natural=peak for the most distinct mountains in the district" />
		<tag k="name" v="Grunntjønnåsane" />
		<tag k="natural" v="hill" />
		<tag k="place" v="locality" />
		<tag k="ssr:stedsnr" v="237803" />
	</node>
	<node id="-438677" lat="59.1854555529" lon="9.25422778458">
		<tag k="name" v="Kirkesteinlia" />
		<tag k="natural" v="slope" />
		<tag k="place" v="locality" />
		<tag k="ssr:stedsnr" v="237802" />
	</node>
	<node id="-438676" lat="59.242361115" lon="9.18266666165">
		<tag k="name" v="Stulsknatten" />
		<tag k="natural" v="hill" />
		<tag k="place" v="locality" />
		<tag k="ssr:stedsnr" v="237779" />
	</node>
	<node id="-438673" lat="59.2575944425" lon="9.19884999957">
		<tag k="name" v="Trangen" />
		<tag k="natural" v="valley" />
		<tag k="place" v="locality" />
		<tag k="ssr:stedsnr" v="56052" />
	</node>
	<node id="-438716" lat="59.3610527822" lon="9.03083611841">
		<tag k="fixme" v="consider natural=peak for the most distinct mountains in the district" />
		<tag k="name" v="Bråtadalsåsane" />
		<tag k="natural" v="hill" />
		<tag k="place" v="locality" />
		<tag k="ssr:stedsnr" v="245298" />
	</node>
	<node id="-440718" lat="59.214836114" lon="9.04058611084">
		<tag k="name" v="Hestekjerheia" />
		<tag k="natural" v="hill" />
		<tag k="place" v="locality" />
		<tag k="ssr:stedsnr" v="783211" />
	</node>
	<node id="-438669" lat="59.2696638886" lon="9.1415611135">
		<tag k="fixme" v="consider natural=peak for the most distinct mountains in the district" />
		<tag k="name" v="Barlindhotten" />
		<tag k="natural" v="hill" />
		<tag k="place" v="locality" />
		<tag k="ssr:stedsnr" v="55578" />
	</node>
	<node id="-440716" lat="59.2459055547" lon="9.00390278181">
		<tag k="name" v="Hestheia" />
		<tag k="natural" v="hill" />
		<tag k="place" v="locality" />
		<tag k="ssr:stedsnr" v="783133" />
	</node>
	<node id="-440715" lat="59.242813886" lon="9.24711110938">
		<tag k="fixme" v="consider natural=peak for the most distinct mountains in the district" />
		<tag k="name" v="Nilses åser" />
		<tag k="natural" v="hill" />
		<tag k="place" v="locality" />
		<tag k="ssr:stedsnr" v="769994" />
	</node>
	<node id="-438679" lat="59.2003777793" lon="9.27671389495">
		<tag k="name" v="Stuverudliane" />
		<tag k="natural" v="slope" />
		<tag k="place" v="locality" />
		<tag k="ssr:stedsnr" v="237804" />
	</node>
	<node id="-440712" lat="59.276955557" lon="9.20962500623">
		<tag k="name" v="Damstulbonndalen" />
		<tag k="natural" v="valley" />
		<tag k="place" v="locality" />
		<tag k="ssr:stedsnr" v="769940" />
	</node>
	<node id="-440711" lat="59.284166667" lon="9.21909443979">
		<tag k="name" v="Deilsdalen" />
		<tag k="natural" v="valley" />
		<tag k="place" v="locality" />
		<tag k="ssr:stedsnr" v="769932" />
	</node>
	<node id="-440709" lat="59.2260388911" lon="9.18170832707">
		<tag k="name" v="Hafslund" />
		<tag k="natural" v="valley" />
		<tag k="place" v="locality" />
		<tag k="ssr:stedsnr" v="769897" />
	</node>
	<node id="-440708" lat="59.2181166633" lon="9.17952778446">
		<tag k="name" v="Kåsene" />
		<tag k="natural" v="slope" />
		<tag k="place" v="locality" />
		<tag k="ssr:stedsnr" v="769896" />
	</node>
	<node id="-438659" lat="59.2299861116" lon="9.07293055747">
		<tag k="fixme" v="consider natural=peak for the most distinct mountains in the district" />
		<tag k="name" v="Linmyråsen" />
		<tag k="natural" v="hill" />
		<tag k="place" v="locality" />
		<tag k="ssr:stedsnr" v="237183" />
	</node>
	<node id="-438658" lat="59.2402166662" lon="9.01282499631">
		<tag k="name" v="Offersteinen" />
		<tag k="natural" v="hill" />
		<tag k="place" v="locality" />
		<tag k="ssr:stedsnr" v="237149" />
	</node>
	<node id="-440705" lat="59.2585111075" lon="9.12778055256">
		<tag k="fixme" v="consider natural=peak for the most distinct mountains in the district" />
		<tag k="name" v="Røssfjell" />
		<tag k="natural" v="hill" />
		<tag k="place" v="locality" />
		<tag k="ssr:stedsnr" v="769626" />
	</node>
	<node id="-440704" lat="59.2644416707" lon="9.12030000851">
		<tag k="name" v="Sautjønnåsen" />
		<tag k="natural" v="hill" />
		<tag k="place" v="locality" />
		<tag k="ssr:stedsnr" v="769619" />
	</node>
	<node id="-440725" lat="59.204400002" lon="9.2111916614">
		<tag k="name" v="Junkerkleiv" />
		<tag k="natural" v="hill" />
		<tag k="place" v="locality" />
		<tag k="ssr:stedsnr" v="783671" />
	</node>
	<node id="-440700" lat="59.2749333364" lon="9.30406388591">
		<tag k="name" v="Bolladalen" />
		<tag k="natural" v="valley" />
		<tag k="place" v="locality" />
		<tag k="ssr:stedsnr" v="769167" />
	</node>
	<node id="-438649" lat="59.2254888881" lon="9.25942777296">
		<tag k="name" v="Skottbakken" />
		<tag k="natural" v="slope" />
		<tag k="place" v="locality" />
		<tag k="ssr:stedsnr" v="40907" />
	</node>
	<node id="-440724" lat="59.2520944406" lon="9.16757221602">
		<tag k="name" v="Hestefjell" />
		<tag k="natural" v="hill" />
		<tag k="place" v="locality" />
		<tag k="ssr:stedsnr" v="783613" />
	</node>
	<node id="-440693" lat="59.2929305598" lon="9.23936667298">
		<tag k="fixme" v="consider natural=peak for the most distinct mountains in the district" />
		<tag k="name" v="Skaragrindsåsen" />
		<tag k="natural" v="hill" />
		<tag k="place" v="locality" />
		<tag k="ssr:stedsnr" v="755746" />
	</node>
	<node id="-440689" lat="59.2663333304" lon="8.94896666071">
		<tag k="fixme" v="consider natural=peak for the most distinct mountains in the district" />
		<tag k="name" v="Steinbutjønnåsen" />
		<tag k="natural" v="hill" />
		<tag k="place" v="locality" />
		<tag k="ssr:stedsnr" v="754724" />
	</node>
	<node id="-438639" lat="59.2543805525" lon="9.31488888087">
		<tag k="fixme" v="consider natural=peak for the most distinct mountains in the district" />
		<tag k="name" v="Veadalsåsane" />
		<tag k="natural" v="hill" />
		<tag k="place" v="locality" />
		<tag k="ssr:stedsnr" v="24105" />
	</node>
	<node id="-438638" lat="59.2110972216" lon="9.18370833486">
		<tag k="name" v="Eliashaug" />
		<tag k="natural" v="slope" />
		<tag k="place" v="locality" />
		<tag k="ssr:stedsnr" v="223995" />
	</node>
	<node id="-440682" lat="59.2221888892" lon="9.3296249987">
		<tag k="fixme" v="consider natural=peak for the most distinct mountains in the district" />
		<tag k="name" v="Gudmundsbekkåsen" />
		<tag k="natural" v="hill" />
		<tag k="place" v="locality" />
		<tag k="ssr:stedsnr" v="753730" />
	</node>
	<node id="-438631" lat="59.3004166658" lon="9.06130555125">
		<tag k="name" v="Øvre Verpemoen" />
		<tag k="place" v="locality" />
		<tag k="ssr:stedsnr" v="223746" />
	</node>
	<node id="-438630" lat="59.3122555553" lon="9.10708610428">
		<tag k="name" v="Lundåsen" />
		<tag k="natural" v="hill" />
		<tag k="place" v="locality" />
		<tag k="ssr:stedsnr" v="223731" />
	</node>
	<node id="-438629" lat="59.1585638923" lon="9.1875222192">
		<tag k="fixme" v="consider natural=peak for the most distinct mountains in the district" />
		<tag k="name" v="Lyeråsen" />
		<tag k="natural" v="hill" />
		<tag k="place" v="locality" />
		<tag k="ssr:stedsnr" v="223713" />
	</node>
	<node id="-440676" lat="59.2776194436" lon="8.82888888729">
		<tag k="fixme" v="consider natural=peak for the most distinct mountains in the district" />
		<tag k="name" v="Stulsåsen" />
		<tag k="natural" v="hill" />
		<tag k="place" v="locality" />
		<tag k="ssr:stedsnr" v="753515" />
	</node>
	<node id="-438627" lat="59.1437861086" lon="9.19491666307">
		<tag k="name" v="Augustknuten" />
		<tag k="natural" v="hill" />
		<tag k="place" v="locality" />
		<tag k="ssr:stedsnr" v="223699" />
	</node>
	<node id="-438624" lat="59.3319722219" lon="8.97736943709">
		<tag k="alt_name" v="Lugufjellet" />
		<tag k="fixme" v="consider natural=peak for the most distinct mountains in the district" />
		<tag k="name" v="Lugufjell" />
		<tag k="natural" v="hill" />
		<tag k="place" v="locality" />
		<tag k="ssr:stedsnr" v="2243" />
	</node>
	<node id="-438623" lat="59.3231027736" lon="8.92527778158">
		<tag k="alt_name" v="Åmnesåsen" />
		<tag k="fixme" v="consider natural=peak for the most distinct mountains in the district" />
		<tag k="name" v="Omnesåsen" />
		<tag k="natural" v="hill" />
		<tag k="place" v="locality" />
		<tag k="ssr:stedsnr" v="2225" />
	</node>
	<node id="-438622" lat="59.3284194451" lon="8.91641944096">
		<tag k="fixme" v="consider natural=peak for the most distinct mountains in the district" />
		<tag k="name" v="Middagsknatten" />
		<tag k="natural" v="hill" />
		<tag k="place" v="locality" />
		<tag k="ssr:stedsnr" v="2223" />
	</node>
	<node id="-440668" lat="59.2480833305" lon="9.31666388684">
		<tag k="name" v="Styggedal" />
		<tag k="natural" v="valley" />
		<tag k="place" v="locality" />
		<tag k="ssr:stedsnr" v="753097" />
	</node>
	<node id="-438619" lat="59.3038527736" lon="9.08337776903">
		<tag k="alt_name" v="Gunnbjørgsås" />
		<tag k="fixme" v="consider natural=peak for the most distinct mountains in the district" />
		<tag k="name" v="Gunbjørgsåsen" />
		<tag k="natural" v="hill" />
		<tag k="place" v="locality" />
		<tag k="ssr:stedsnr" v="2177" />
	</node>
	<node id="-438618" lat="59.2996749977" lon="8.8980000069">
		<tag k="alt_name" v="Pålskottet" />
		<tag k="name" v="Pålskotet" />
		<tag k="place" v="locality" />
		<tag k="ssr:stedsnr" v="2173" />
	</node>
	<node id="-440664" lat="59.232424997" lon="9.28862777718">
		<tag k="name" v="Steinskottet" />
		<tag k="place" v="locality" />
		<tag k="ssr:stedsnr" v="752979" />
	</node>
	<node id="-440662" lat="59.3284527814" lon="9.03484166252">
		<tag k="name" v="Vellarhaugen" />
		<tag k="natural" v="hill" />
		<tag k="place" v="locality" />
		<tag k="ssr:stedsnr" v="752365" />
	</node>
	<node id="-440661" lat="59.2905333295" lon="8.93213333772">
		<tag k="name" v="Onusdalen" />
		<tag k="natural" v="valley" />
		<tag k="place" v="locality" />
		<tag k="ssr:stedsnr" v="752286" />
	</node>
	<node id="-440660" lat="59.3371499998" lon="8.90344444262">
		<tag k="name" v="Moltemyrdalen" />
		<tag k="natural" v="valley" />
		<tag k="place" v="locality" />
		<tag k="ssr:stedsnr" v="752201" />
	</node>
	<node id="-438670" lat="59.2518888892" lon="9.16139722019">
		<tag k="name" v="Buverudliene" />
		<tag k="natural" v="slope" />
		<tag k="place" v="locality" />
		<tag k="ssr:stedsnr" v="55579" />
	</node>
	<node id="-440657" lat="59.2504888846" lon="9.03105277897">
		<tag k="name" v="Vestliane" />
		<tag k="natural" v="slope" />
		<tag k="place" v="locality" />
		<tag k="ssr:stedsnr" v="752145" />
	</node>
	<node id="-440655" lat="59.3517611074" lon="8.96275277772">
		<tag k="name" v="Limtjønnlia" />
		<tag k="natural" v="slope" />
		<tag k="place" v="locality" />
		<tag k="ssr:stedsnr" v="752081" />
	</node>
	<node id="-440653" lat="59.2930916657" lon="8.99579165912">
		<tag k="name" v="Bryggedalen" />
		<tag k="natural" v="valley" />
		<tag k="place" v="locality" />
		<tag k="ssr:stedsnr" v="752017" />
	</node>
	<node id="-440648" lat="59.2072277808" lon="9.21243334111">
		<tag k="name" v="Huskerhaugskaret" />
		<tag k="natural" v="valley" />
		<tag k="place" v="locality" />
		<tag k="ssr:stedsnr" v="647983" />
	</node>
	<node id="-440647" lat="59.210430557" lon="9.21448888372">
		<tag k="name" v="Storlidalen" />
		<tag k="natural" v="valley" />
		<tag k="place" v="locality" />
		<tag k="ssr:stedsnr" v="647982" />
	</node>
	<node id="-440646" lat="59.3029944486" lon="9.15242499538">
		<tag k="name" v="Barlås" />
		<tag k="natural" v="hill" />
		<tag k="place" v="locality" />
		<tag k="ssr:stedsnr" v="647769" />
	</node>
	<node id="-438667" lat="59.2874250014" lon="9.0787861195">
		<tag k="fixme" v="consider natural=peak for the most distinct mountains in the district" />
		<tag k="name" v="Apalås" />
		<tag k="natural" v="hill" />
		<tag k="place" v="locality" />
		<tag k="ssr:stedsnr" v="237508" />
	</node>
	<node id="-440640" lat="59.1613750012" lon="9.18143333473">
		<tag k="name" v="Smørhola" />
		<tag k="natural" v="valley" />
		<tag k="place" v="locality" />
		<tag k="ssr:stedsnr" v="647690" />
	</node>
	<node id="-440636" lat="59.2403805538" lon="9.08477499518">
		<tag k="name" v="Tømmerdalen" />
		<tag k="natural" v="valley" />
		<tag k="place" v="locality" />
		<tag k="ssr:stedsnr" v="647349" />
	</node>
	<node id="-440713" lat="59.273324998" lon="9.1958194359">
		<tag k="name" v="Nukestoa" />
		<tag k="natural" v="valley" />
		<tag k="place" v="locality" />
		<tag k="ssr:stedsnr" v="769941" />
	</node>
	<node id="-440625" lat="59.2386555533" lon="9.31698610651">
		<tag k="name" v="Buferdsholet" />
		<tag k="place" v="locality" />
		<tag k="ssr:stedsnr" v="631897" />
	</node>
	<node id="-440624" lat="59.241413893" lon="9.28977777964">
		<tag k="fixme" v="consider natural=peak for the most distinct mountains in the district" />
		<tag k="name" v="Skjellarlitoppen" />
		<tag k="natural" v="hill" />
		<tag k="ssr:stedsnr" v="631883" />
	</node>
	<node id="-438664" lat="59.2140277737" lon="9.14816110343">
		<tag k="name" v="Sortefjell" />
		<tag k="natural" v="hill" />
		<tag k="place" v="locality" />
		<tag k="ssr:stedsnr" v="237412" />
	</node>
	<node id="-440621" lat="59.3571638875" lon="9.06596667187">
		<tag k="name" v="Hegnaberga" />
		<tag k="natural" v="hill" />
		<tag k="place" v="locality" />
		<tag k="ssr:stedsnr" v="631582" />
	</node>
	<node id="-440617" lat="59.263116664" lon="9.35776944839">
		<tag k="name" v="Djupedal" />
		<tag k="natural" v="valley" />
		<tag k="place" v="locality" />
		<tag k="ssr:stedsnr" v="631223" />
	</node>
	<node id="-440616" lat="59.3433583369" lon="8.90469999388">
		<tag k="name" v="Tykjesdal" />
		<tag k="natural" v="valley" />
		<tag k="place" v="locality" />
		<tag k="ssr:stedsnr" v="631212" />
	</node>
	<node id="-440614" lat="59.2948750033" lon="8.95231389205">
		<tag k="fixme" v="consider natural=peak for the most distinct mountains in the district" />
		<tag k="name" v="Vesle Venheimsåsen" />
		<tag k="natural" v="hill" />
		<tag k="place" v="locality" />
		<tag k="ssr:stedsnr" v="631002" />
	</node>
	<node id="-440613" lat="59.2322999984" lon="9.30413054818">
		<tag k="name" v="Skiftetjønndalen" />
		<tag k="natural" v="valley" />
		<tag k="place" v="locality" />
		<tag k="ssr:stedsnr" v="630980" />
	</node>
	<node id="-440608" lat="59.32460556" lon="9.22931943676">
		<tag k="name" v="Ullevikhovet" />
		<tag k="natural" v="hill" />
		<tag k="place" v="locality" />
		<tag k="ssr:stedsnr" v="609844" />
	</node>
	<node id="-438660" lat="59.2351055529" lon="9.09095554755">
		<tag k="fixme" v="consider natural=peak for the most distinct mountains in the district" />
		<tag k="name" v="Fekjanåsen" />
		<tag k="natural" v="hill" />
		<tag k="place" v="locality" />
		<tag k="ssr:stedsnr" v="237187" />
	</node>
	<node id="-440596" lat="59.2893250025" lon="9.1345805597">
		<tag k="name" v="Øygardsdalen" />
		<tag k="natural" v="valley" />
		<tag k="place" v="locality" />
		<tag k="ssr:stedsnr" v="609137" />
	</node>
	<node id="-440594" lat="59.2790666622" lon="8.90557222025">
		<tag k="name" v="Tveitstuldalen" />
		<tag k="natural" v="valley" />
		<tag k="place" v="locality" />
		<tag k="ssr:stedsnr" v="609127" />
	</node>
	<node id="-440589" lat="59.2739087882" lon="9.31558042275">
		<tag k="fixme" v="consider natural=peak for the most distinct mountains in the district" />
		<tag k="name" v="Gruveåsen" />
		<tag k="natural" v="hill" />
		<tag k="place" v="locality" />
		<tag k="ssr:stedsnr" v="608739" />
	</node>
	<node id="-440584" lat="59.2108055536" lon="9.07520555985">
		<tag k="fixme" v="consider natural=peak for the most distinct mountains in the district" />
		<tag k="name" v="Halvtekkheia" />
		<tag k="natural" v="hill" />
		<tag k="place" v="locality" />
		<tag k="ssr:stedsnr" v="608346" />
	</node>
	<node id="-440582" lat="59.3572638863" lon="9.01146110538">
		<tag k="alt_name" v="Spannslokfjellet" />
		<tag k="fixme" v="consider natural=peak for the most distinct mountains in the district" />
		<tag k="name" v="Spannslokfjell" />
		<tag k="natural" v="hill" />
		<tag k="place" v="locality" />
		<tag k="ssr:stedsnr" v="608313" />
	</node>
	<node id="-440581" lat="59.1440499982" lon="9.18151111887">
		<tag k="fixme" v="consider natural=peak for the most distinct mountains in the district" />
		<tag k="name" v="Villheia" />
		<tag k="natural" v="hill" />
		<tag k="place" v="locality" />
		<tag k="ssr:stedsnr" v="608307" />
	</node>
	<node id="-440579" lat="59.1853222256" lon="9.20115554871">
		<tag k="fixme" v="consider natural=peak for the most distinct mountains in the district" />
		<tag k="name" v="Rundkollen" />
		<tag k="natural" v="hill" />
		<tag k="place" v="locality" />
		<tag k="ssr:stedsnr" v="608367" />
	</node>
	<node id="-440577" lat="59.2627944445" lon="9.06442221776">
		<tag k="fixme" v="consider natural=peak for the most distinct mountains in the district" />
		<tag k="name" v="Tiurleikåsen" />
		<tag k="natural" v="hill" />
		<tag k="place" v="locality" />
		<tag k="ssr:stedsnr" v="608092" />
	</node>
	<node id="-440575" lat="59.2585805534" lon="9.18847221844">
		<tag k="name" v="Nukedalen" />
		<tag k="natural" v="valley" />
		<tag k="place" v="locality" />
		<tag k="ssr:stedsnr" v="608083" />
	</node>
	<node id="-440574" lat="59.2572249962" lon="9.11018055675">
		<tag k="fixme" v="consider natural=peak for the most distinct mountains in the district" />
		<tag k="name" v="Bukkefjellet" />
		<tag k="natural" v="hill" />
		<tag k="place" v="locality" />
		<tag k="ssr:stedsnr" v="608081" />
	</node>
	<node id="-440573" lat="59.2641305556" lon="9.21188610441">
		<tag k="fixme" v="consider natural=peak for the most distinct mountains in the district" />
		<tag k="name" v="Knatten" />
		<tag k="natural" v="hill" />
		<tag k="place" v="locality" />
		<tag k="ssr:stedsnr" v="608073" />
	</node>
	<node id="-440572" lat="59.2427527771" lon="9.32519444877">
		<tag k="alt_name" v="Sæterhovåsen" />
		<tag k="fixme" v="consider natural=peak for the most distinct mountains in the district" />
		<tag k="name" v="Fjellmyråsane" />
		<tag k="natural" v="hill" />
		<tag k="place" v="locality" />
		<tag k="ssr:stedsnr" v="608033" />
	</node>
	<node id="-440569" lat="59.1771638888" lon="9.25136111281">
		<tag k="fixme" v="consider natural=peak for the most distinct mountains in the district" />
		<tag k="name" v="Einarsknatten" />
		<tag k="natural" v="hill" />
		<tag k="place" v="locality" />
		<tag k="ssr:stedsnr" v="607997" />
	</node>
	<node id="-440564" lat="59.2444416627" lon="9.27501666563">
		<tag k="name" v="Langåstjønndalen" />
		<tag k="natural" v="valley" />
		<tag k="place" v="locality" />
		<tag k="ssr:stedsnr" v="601922" />
	</node>
	<node id="-440563" lat="59.1834749995" lon="9.25797499718">
		<tag k="name" v="Grubedalen" />
		<tag k="natural" v="valley" />
		<tag k="place" v="locality" />
		<tag k="ssr:stedsnr" v="601800" />
	</node>
	<node id="-440562" lat="59.2373611113" lon="9.20155832803">
		<tag k="name" v="Grønnlifjell" />
		<tag k="natural" v="hill" />
		<tag k="place" v="locality" />
		<tag k="ssr:stedsnr" v="601764" />
	</node>
	<node id="-440561" lat="59.1714166711" lon="9.22816666137">
		<tag k="name" v="Vahola" />
		<tag k="natural" v="valley" />
		<tag k="place" v="locality" />
		<tag k="ssr:stedsnr" v="601756" />
	</node>
	<node id="-440560" lat="59.2302166689" lon="9.17944166486">
		<tag k="name" v="Bestefarshøl" />
		<tag k="place" v="locality" />
		<tag k="ssr:stedsnr" v="601755" />
	</node>
	<node id="-440556" lat="59.2340638879" lon="9.0334916594">
		<tag k="name" v="Vestre Luberg" />
		<tag k="natural" v="hill" />
		<tag k="place" v="locality" />
		<tag k="ssr:stedsnr" v="601122" />
	</node>
	<node id="-440555" lat="59.2130083319" lon="9.09813611195">
		<tag k="fixme" v="consider natural=peak for the most distinct mountains in the district" />
		<tag k="name" v="Ekornmyråsen" />
		<tag k="natural" v="hill" />
		<tag k="place" v="locality" />
		<tag k="ssr:stedsnr" v="601287" />
	</node>
	<node id="-440548" lat="59.2055888861" lon="9.17873055809">
		<tag k="name" v="Beinstridalen" />
		<tag k="natural" v="valley" />
		<tag k="place" v="locality" />
		<tag k="ssr:stedsnr" v="586984" />
	</node>
	<node id="-440547" lat="59.2077500041" lon="9.21953610903">
		<tag k="name" v="Ormetjønnliane" />
		<tag k="natural" v="slope" />
		<tag k="place" v="locality" />
		<tag k="ssr:stedsnr" v="586981" />
	</node>
	<node id="-440544" lat="59.2334666706" lon="9.12888610668">
		<tag k="name" v="Moelldalen" />
		<tag k="natural" v="valley" />
		<tag k="place" v="locality" />
		<tag k="ssr:stedsnr" v="586299" />
	</node>
	<node id="-440537" lat="59.2936694437" lon="9.24319443841">
		<tag k="name" v="Bjørndalen" />
		<tag k="natural" v="valley" />
		<tag k="place" v="locality" />
		<tag k="ssr:stedsnr" v="573732" />
	</node>
	<node id="-440535" lat="59.204666666" lon="9.29910833838">
		<tag k="name" v="Loftsdalen" />
		<tag k="natural" v="valley" />
		<tag k="place" v="locality" />
		<tag k="ssr:stedsnr" v="571803" />
	</node>
	<node id="-440534" lat="59.2606583332" lon="8.99749166446">
		<tag k="name" v="Bukkedekkane" />
		<tag k="natural" v="valley" />
		<tag k="place" v="locality" />
		<tag k="ssr:stedsnr" v="571687" />
	</node>
	<node id="-440527" lat="59.3472555512" lon="9.07591665894">
		<tag k="fixme" v="consider natural=peak for the most distinct mountains in the district" />
		<tag k="name" v="Storkåsåsen" />
		<tag k="natural" v="hill" />
		<tag k="place" v="locality" />
		<tag k="ssr:stedsnr" v="570630" />
	</node>
	<node id="-440695" lat="59.1760805518" lon="9.25203334104">
		<tag k="fixme" v="consider natural=peak for the most distinct mountains in the district" />
		<tag k="name" v="Veungknatten" />
		<tag k="natural" v="hill" />
		<tag k="place" v="locality" />
		<tag k="ssr:stedsnr" v="757009" />
	</node>
	<node id="-440519" lat="59.371041663" lon="9.05561943866">
		<tag k="fixme" v="consider natural=peak for the most distinct mountains in the district" />
		<tag k="name" v="Snauås" />
		<tag k="natural" v="hill" />
		<tag k="place" v="locality" />
		<tag k="ssr:stedsnr" v="570371" />
	</node>
	<node id="-440511" lat="59.3056027743" lon="8.97276944537">
		<tag k="name" v="Lomtjønnlia" />
		<tag k="natural" v="slope" />
		<tag k="place" v="locality" />
		<tag k="ssr:stedsnr" v="570007" />
	</node>
	<node id="-438645" lat="59.2625777782" lon="8.98420278348">
		<tag k="name" v="Linfjelldalen" />
		<tag k="natural" v="valley" />
		<tag k="place" v="locality" />
		<tag k="ssr:stedsnr" v="26709" />
	</node>
	<node id="-440504" lat="59.3064722193" lon="9.25794444121">
		<tag k="alt_name" v="Brånaråsen" />
		<tag k="fixme" v="consider natural=peak for the most distinct mountains in the district" />
		<tag k="name" v="Brånaåsen" />
		<tag k="natural" v="hill" />
		<tag k="place" v="locality" />
		<tag k="ssr:stedsnr" v="548776" />
	</node>
	<node id="-440502" lat="59.2538499965" lon="9.27100000582">
		<tag k="name" v="Høghaug" />
		<tag k="natural" v="hill" />
		<tag k="place" v="locality" />
		<tag k="ssr:stedsnr" v="548684" />
	</node>
	<node id="-440501" lat="59.250913889" lon="9.29200832939">
		<tag k="alt_name" v="Håtveitåsen" />
		<tag k="fixme" v="consider natural=peak for the most distinct mountains in the district" />
		<tag k="name" v="Ristilåsen" />
		<tag k="natural" v="hill" />
		<tag k="place" v="locality" />
		<tag k="ssr:stedsnr" v="548680" />
	</node>
	<node id="-440497" lat="59.3728305529" lon="9.10902777623">
		<tag k="alt_name" v="Breidsås" />
		<tag k="fixme" v="consider natural=peak for the most distinct mountains in the district" />
		<tag k="name" v="Breisås" />
		<tag k="natural" v="hill" />
		<tag k="place" v="locality" />
		<tag k="ssr:stedsnr" v="548390" />
	</node>
	<node id="-440495" lat="59.3602277767" lon="9.02438611653">
		<tag k="alt_name" v="Sveigefjellet" />
		<tag k="fixme" v="consider natural=peak for the most distinct mountains in the district" />
		<tag k="name" v="Sveigefjell" />
		<tag k="natural" v="hill" />
		<tag k="place" v="locality" />
		<tag k="ssr:stedsnr" v="548327" />
	</node>
	<node id="-440483" lat="59.3055638876" lon="9.02315555021">
		<tag k="alt_name" v="Hjerpåsen" />
		<tag k="fixme" v="consider natural=peak for the most distinct mountains in the district" />
		<tag k="name" v="Hjerpedalsåsen" />
		<tag k="natural" v="hill" />
		<tag k="place" v="locality" />
		<tag k="ssr:stedsnr" v="548191" />
	</node>
	<node id="-440481" lat="59.2948083335" lon="9.06808056191">
		<tag k="name" v="Verpemoen" />
		<tag k="place" v="locality" />
		<tag k="ssr:stedsnr" v="548160" />
	</node>
	<node id="-440475" lat="59.2700444434" lon="9.04162778399">
		<tag k="fixme" v="consider natural=peak for the most distinct mountains in the district" />
		<tag k="name" v="Stulsfjellet" />
		<tag k="natural" v="hill" />
		<tag k="place" v="locality" />
		<tag k="ssr:stedsnr" v="548115" />
	</node>
	<node id="-440470" lat="59.1681750045" lon="9.26891944133">
		<tag k="fixme" v="consider natural=peak for the most distinct mountains in the district" />
		<tag k="name" v="Morgedalsfjellet" />
		<tag k="natural" v="hill" />
		<tag k="place" v="locality" />
		<tag k="ssr:stedsnr" v="547991" />
	</node>
	<node id="-440469" lat="59.1872166639" lon="9.28188333385">
		<tag k="fixme" v="consider natural=peak for the most distinct mountains in the district" />
		<tag k="name" v="Trolldalsfjellet" />
		<tag k="natural" v="hill" />
		<tag k="place" v="locality" />
		<tag k="ssr:stedsnr" v="547905" />
	</node>
	<node id="-440468" lat="59.2254333352" lon="9.20699999205">
		<tag k="alt_name" v="Langskottfjellet" />
		<tag k="fixme" v="consider natural=peak for the most distinct mountains in the district" />
		<tag k="name" v="Langskottfjell" />
		<tag k="natural" v="hill" />
		<tag k="place" v="locality" />
		<tag k="ssr:stedsnr" v="547462" />
	</node>
	<node id="-440465" lat="59.1430416663" lon="9.1691666601">
		<tag k="fixme" v="consider natural=peak for the most distinct mountains in the district" />
		<tag k="name" v="Åsteknatten" />
		<tag k="natural" v="hill" />
		<tag k="place" v="locality" />
		<tag k="ssr:stedsnr" v="547330" />
	</node>
	<node id="-440463" lat="59.2464916651" lon="9.26269443847">
		<tag k="name" v="Kvernmyreidet" />
		<tag k="natural" v="valley" />
		<tag k="place" v="locality" />
		<tag k="ssr:stedsnr" v="541943" />
	</node>
	<node id="-440459" lat="59.2014944447" lon="9.26828611125">
		<tag k="fixme" v="consider natural=peak for the most distinct mountains in the district" />
		<tag k="name" v="Syltretjønnåsen" />
		<tag k="natural" v="hill" />
		<tag k="place" v="locality" />
		<tag k="ssr:stedsnr" v="541880" />
	</node>
	<node id="-440458" lat="59.2013305578" lon="9.24731389111">
		<tag k="fixme" v="consider natural=peak for the most distinct mountains in the district" />
		<tag k="name" v="Seteråsen" />
		<tag k="natural" v="hill" />
		<tag k="place" v="locality" />
		<tag k="ssr:stedsnr" v="541871" />
	</node>
	<node id="-440456" lat="59.2015388921" lon="9.18327499726">
		<tag k="name" v="Boels benk" />
		<tag k="place" v="locality" />
		<tag k="ssr:stedsnr" v="541847" />
	</node>
	<node id="-440455" lat="59.2039611109" lon="9.27804721413">
		<tag k="name" v="Brannen" />
		<tag k="natural" v="slope" />
		<tag k="place" v="locality" />
		<tag k="ssr:stedsnr" v="541838" />
	</node>
	<node id="-440452" lat="59.2785277794" lon="9.11868888557">
		<tag k="name" v="Brulia" />
		<tag k="natural" v="slope" />
		<tag k="place" v="locality" />
		<tag k="ssr:stedsnr" v="541493" />
	</node>
	<node id="-440449" lat="59.2559666692" lon="9.10588332951">
		<tag k="fixme" v="consider natural=peak for the most distinct mountains in the district" />
		<tag k="name" v="Gampen" />
		<tag k="natural" v="hill" />
		<tag k="place" v="locality" />
		<tag k="ssr:stedsnr" v="541589" />
	</node>
	<node id="-440447" lat="59.2297805583" lon="9.02824165932">
		<tag k="name" v="Sverdalen" />
		<tag k="natural" v="valley" />
		<tag k="place" v="locality" />
		<tag k="ssr:stedsnr" v="541130" />
	</node>
	<node id="-440440" lat="59.22958611" lon="9.09909444595">
		<tag k="fixme" v="consider natural=peak for the most distinct mountains in the district" />
		<tag k="name" v="Store Langmyråsen" />
		<tag k="natural" v="hill" />
		<tag k="place" v="locality" />
		<tag k="ssr:stedsnr" v="541192" />
	</node>
	<node id="-440437" lat="59.2299166712" lon="9.06715000192">
		<tag k="name" v="Snertedalen" />
		<tag k="natural" v="valley" />
		<tag k="place" v="locality" />
		<tag k="ssr:stedsnr" v="541179" />
	</node>
	<node id="-440432" lat="59.3036583353" lon="9.0613333342">
		<tag k="fixme" v="consider natural=peak for the most distinct mountains in the district" />
		<tag k="name" v="Verpeåsen" />
		<tag k="natural" v="hill" />
		<tag k="place" v="locality" />
		<tag k="ssr:stedsnr" v="526731" />
	</node>
	<node id="-440427" lat="59.2622805564" lon="9.12823055205">
		<tag k="fixme" v="consider natural=peak for the most distinct mountains in the district" />
		<tag k="name" v="Jonsåsen" />
		<tag k="natural" v="hill" />
		<tag k="place" v="locality" />
		<tag k="ssr:stedsnr" v="526643" />
	</node>
	<node id="-440425" lat="59.2098444427" lon="9.1859194359">
		<tag k="name" v="Høna" />
		<tag k="natural" v="slope" />
		<tag k="place" v="locality" />
		<tag k="ssr:stedsnr" v="526986" />
	</node>
	<node id="-440423" lat="59.2113083368" lon="9.07047499217">
		<tag k="alt_name" v="Årkjerrdalen" />
		<tag k="name" v="Orkjerrdalen" />
		<tag k="natural" v="valley" />
		<tag k="place" v="locality" />
		<tag k="ssr:stedsnr" v="526351" />
	</node>
	<node id="-440419" lat="59.2591138932" lon="9.2299888881">
		<tag k="name" v="Nukedalen" />
		<tag k="natural" v="valley" />
		<tag k="place" v="locality" />
		<tag k="ssr:stedsnr" v="434659" />
	</node>
	<node id="-438774" lat="59.2457472202" lon="9.30431388895">
		<tag k="name" v="Mauråsen" />
		<tag k="natural" v="hill" />
		<tag k="place" v="locality" />
		<tag k="ssr:stedsnr" v="268919" />
	</node>
	<node id="-440409" lat="59.298422221" lon="8.9645194366">
		<tag k="fixme" v="consider natural=peak for the most distinct mountains in the district" />
		<tag k="name" v="Knattåsen" />
		<tag k="natural" v="hill" />
		<tag k="place" v="locality" />
		<tag k="ssr:stedsnr" v="427168" />
	</node>
	<node id="-440404" lat="59.343202778" lon="8.90346110806">
		<tag k="fixme" v="consider natural=peak for the most distinct mountains in the district" />
		<tag k="name" v="Veungsfjellet" />
		<tag k="natural" v="hill" />
		<tag k="place" v="locality" />
		<tag k="ssr:stedsnr" v="427297" />
	</node>
	<node id="-440403" lat="59.3467250028" lon="8.92245000669">
		<tag k="alt_name" v="Bjønnefjell" />
		<tag k="fixme" v="consider natural=peak for the most distinct mountains in the district" />
		<tag k="name" v="Bjørnefjell" />
		<tag k="natural" v="hill" />
		<tag k="place" v="locality" />
		<tag k="ssr:stedsnr" v="427282" />
	</node>
	<node id="-440678" lat="59.1957527812" lon="9.28639444203">
		<tag k="name" v="Loftsdalen" />
		<tag k="natural" v="valley" />
		<tag k="place" v="locality" />
		<tag k="ssr:stedsnr" v="753580" />
	</node>
	<node id="-440399" lat="59.3323694435" lon="8.96846943859">
		<tag k="alt_name" v="Flåmfjellet" />
		<tag k="fixme" v="consider natural=peak for the most distinct mountains in the district" />
		<tag k="name" v="Flomfjell" />
		<tag k="natural" v="hill" />
		<tag k="place" v="locality" />
		<tag k="ssr:stedsnr" v="427260" />
	</node>
	<node id="-440396" lat="59.3222527819" lon="8.95681110794">
		<tag k="fixme" v="consider natural=peak for the most distinct mountains in the district" />
		<tag k="name" v="Brennås" />
		<tag k="natural" v="hill" />
		<tag k="place" v="locality" />
		<tag k="ssr:stedsnr" v="427235" />
	</node>
	<node id="-440391" lat="59.2648472229" lon="9.1691444508">
		<tag k="alt_name" v="Nuke, vestre" />
		<tag k="fixme" v="consider natural=peak for the most distinct mountains in the district" />
		<tag k="name" v="Vestre Nuke" />
		<tag k="natural" v="hill" />
		<tag k="place" v="locality" />
		<tag k="ssr:stedsnr" v="427094" />
	</node>
	<node id="-440388" lat="59.2366333356" lon="9.20067500824">
		<tag k="fixme" v="consider natural=peak for the most distinct mountains in the district" />
		<tag k="name" v="Grønliknuten" />
		<tag k="natural" v="hill" />
		<tag k="place" v="locality" />
		<tag k="ssr:stedsnr" v="426366" />
	</node>
	<node id="-440383" lat="59.2353777815" lon="9.28625278186">
		<tag k="alt_name" v="Murfjellet" />
		<tag k="fixme" v="consider natural=peak for the most distinct mountains in the district" />
		<tag k="name" v="Murefjell" />
		<tag k="natural" v="hill" />
		<tag k="place" v="locality" />
		<tag k="ssr:stedsnr" v="426060" />
	</node>
	<node id="-440380" lat="59.2311888933" lon="9.26200833263">
		<tag k="name" v="Stavsjøbakkane" />
		<tag k="natural" v="slope" />
		<tag k="place" v="locality" />
		<tag k="ssr:stedsnr" v="420956" />
	</node>
	<node id="-440378" lat="59.1653527801" lon="9.23401388293">
		<tag k="name" v="Hyttene" />
		<tag k="natural" v="slope" />
		<tag k="place" v="locality" />
		<tag k="ssr:stedsnr" v="420782" />
	</node>
	<node id="-440377" lat="59.17985278" lon="9.23272777169">
		<tag k="name" v="Grubbedalslåtta" />
		<tag k="place" v="locality" />
		<tag k="ssr:stedsnr" v="420767" />
	</node>
	<node id="-440376" lat="59.1793527806" lon="9.23905000599">
		<tag k="name" v="Grubbedalsliane" />
		<tag k="natural" v="slope" />
		<tag k="place" v="locality" />
		<tag k="ssr:stedsnr" v="420765" />
	</node>
	<node id="-440375" lat="59.1969222245" lon="9.24716944978">
		<tag k="name" v="Gampelege" />
		<tag k="natural" v="valley" />
		<tag k="place" v="locality" />
		<tag k="ssr:stedsnr" v="420883" />
	</node>
	<node id="-440370" lat="59.1849166676" lon="9.24079723095">
		<tag k="name" v="Dåsamyrdalen" />
		<tag k="natural" v="valley" />
		<tag k="place" v="locality" />
		<tag k="ssr:stedsnr" v="420834" />
	</node>
	<node id="-440369" lat="59.2236722185" lon="9.1431055628">
		<tag k="name" v="Raset" />
		<tag k="natural" v="cliff" />
		<tag k="ssr:stedsnr" v="420455" />
	</node>
	<node id="-440364" lat="59.2466277759" lon="9.03986111736">
		<tag k="name" v="Sveune" />
		<tag k="natural" v="cliff" />
		<tag k="ssr:stedsnr" v="420143" />
	</node>
	<node id="-440363" lat="59.2471722253" lon="9.02967222144">
		<tag k="name" v="Lubergskorra" />
		<tag k="place" v="locality" />
		<tag k="ssr:stedsnr" v="420142" />
	</node>
	<node id="-438704" lat="59.2854361099" lon="8.94243889107">
		<tag k="alt_name" v="Sulukoll" />
		<tag k="fixme" v="consider natural=peak for the most distinct mountains in the district" />
		<tag k="name" v="Sulukollen" />
		<tag k="natural" v="hill" />
		<tag k="place" v="locality" />
		<tag k="ssr:stedsnr" v="245136" />
	</node>
	<node id="-440359" lat="59.2102166657" lon="9.07973055714">
		<tag k="name" v="Fjerdingskleiv" />
		<tag k="natural" v="slope" />
		<tag k="place" v="locality" />
		<tag k="ssr:stedsnr" v="420352" />
	</node>
	<node id="-440351" lat="59.251602781" lon="9.23192500693">
		<tag k="fixme" v="consider natural=peak for the most distinct mountains in the district" />
		<tag k="name" v="Vindsås" />
		<tag k="natural" v="hill" />
		<tag k="place" v="locality" />
		<tag k="ssr:stedsnr" v="420054" />
	</node>
	<node id="-440346" lat="59.2054916638" lon="9.18443610788">
		<tag k="name" v="Bråtastålia" />
		<tag k="natural" v="slope" />
		<tag k="place" v="locality" />
		<tag k="ssr:stedsnr" v="405990" />
	</node>
	<node id="-440345" lat="59.2151805524" lon="9.2309555634">
		<tag k="name" v="Middagsgrandalen" />
		<tag k="natural" v="valley" />
		<tag k="place" v="locality" />
		<tag k="ssr:stedsnr" v="405950" />
	</node>
	<node id="-440339" lat="59.2222111126" lon="9.25953611094">
		<tag k="name" v="Piperud" />
		<tag k="natural" v="ridge" />
		<tag k="place" v="locality" />
		<tag k="ssr:stedsnr" v="405887" />
	</node>
	<node id="-440338" lat="59.1561499997" lon="9.18164445105">
		<tag k="name" v="Grunnvatnsliane" />
		<tag k="natural" v="slope" />
		<tag k="place" v="locality" />
		<tag k="ssr:stedsnr" v="405700" />
	</node>
	<node id="-440337" lat="59.1438972267" lon="9.19133888341">
		<tag k="name" v="Villheiknutane" />
		<tag k="natural" v="hill" />
		<tag k="place" v="locality" />
		<tag k="ssr:stedsnr" v="405691" />
	</node>
	<node id="-440336" lat="59.1602027805" lon="9.21967499757">
		<tag k="name" v="Hyttedalane" />
		<tag k="natural" v="valley" />
		<tag k="place" v="locality" />
		<tag k="ssr:stedsnr" v="405687" />
	</node>
	<node id="-440327" lat="59.2703944461" lon="8.96641389743">
		<tag k="fixme" v="consider natural=peak for the most distinct mountains in the district" />
		<tag k="name" v="Kleivstulknatten" />
		<tag k="natural" v="hill" />
		<tag k="place" v="locality" />
		<tag k="ssr:stedsnr" v="390715" />
	</node>
	<node id="-440323" lat="59.2411277796" lon="9.35229443576">
		<tag k="fixme" v="consider natural=peak for the most distinct mountains in the district" />
		<tag k="name" v="Harpetjønnåsen" />
		<tag k="natural" v="hill" />
		<tag k="place" v="locality" />
		<tag k="ssr:stedsnr" v="390429" />
	</node>
	<node id="-440322" lat="59.2612722261" lon="9.29838332504">
		<tag k="name" v="Brånan" />
		<tag k="place" v="locality" />
		<tag k="ssr:stedsnr" v="390237" />
	</node>
</osm>
