<?xml version="1.0" encoding="UTF-8"?>
<osm generator="osmapis" version="0.6">
	<node id="-233344" lat="59.3202111078" lon="8.9857555556">
		<tag k="alt_name" v="Flåbygd, yt;Flåbygd" />
		<tag k="amenity" v="place_of_worship" />
		<tag k="denomination" v="lutheran" />
		<tag k="name" v="Flåbygd kyrkje" />
		<tag k="religion" v="christian" />
		<tag k="ssr:stedsnr" v="487191" />
	</node>
	<node id="-232319" lat="59.3258444461" lon="9.00664167175">
		<tag k="amenity" v="community_centre" />
		<tag k="name" v="Haugen" />
		<tag k="ssr:stedsnr" v="366214" />
	</node>
	<node id="-232825" lat="59.2888166652" lon="9.01304999414">
		<tag k="name" v="Løkeslåtta" />
		<tag k="place" v="locality" />
		<tag k="ssr:stedsnr" v="124130" />
	</node>
	<node id="-232430" lat="59.2714472223" lon="9.29828888306">
		<tag k="amenity" v="community_centre" />
		<tag k="name" v="Vårheim" />
		<tag k="ssr:stedsnr" v="890190" />
	</node>
	<node id="-232402" lat="59.2691305526" lon="9.12475000392">
		<tag k="name" v="Tyri jernbanestasjon" />
		<tag k="place" v="locality" />
		<tag k="ssr:stedsnr" v="405643" />
	</node>
	<node id="-233962" lat="59.2552111155" lon="9.35503889717">
		<tag k="name" v="Vannbasseng" />
		<tag k="place" v="locality" />
		<tag k="ssr:stedsnr" v="753235" />
	</node>
	<node id="-233701" lat="59.2746944416" lon="9.31640555405">
		<tag k="name" v="Bergmesteren" />
		<tag k="ssr:stedsnr" v="647202" />
		<tag k="tourism" v="viewpoint" />
	</node>
	<node id="-233059" lat="59.2848138873" lon="9.2355333402">
		<tag k="amenity" v="community_centre" />
		<tag k="name" v="Arbeideren" />
		<tag k="ssr:stedsnr" v="238111" />
	</node>
	<node id="-233691" lat="59.2439805573" lon="9.31546667409">
		<tag k="name" v="Megardsbonn" />
		<tag k="place" v="locality" />
		<tag k="ssr:stedsnr" v="632901" />
	</node>
	<node id="-232281" lat="59.2674416686" lon="9.13763611921">
		<tag k="amenity" v="place_of_worship" />
		<tag k="fixme" v="specify religion=*, denomination=*, building=* etc" />
		<tag k="name" v="Tyri bedehus" />
		<tag k="ssr:stedsnr" v="359628" />
	</node>
	<node id="-233045" lat="59.1849472257" lon="9.22373888692">
		<tag k="name" v="Sandstå" />
		<tag k="place" v="locality" />
		<tag k="ssr:stedsnr" v="237694" />
	</node>
	<node id="-233554" lat="59.2929277749" lon="9.26030277561">
		<tag k="name" v="Rugskottet" />
		<tag k="place" v="locality" />
		<tag k="ssr:stedsnr" v="573740" />
	</node>
	<node id="-234311" lat="59.2760722216" lon="9.26094444997">
		<tag k="cemetery" v="grave" />
		<tag k="name" v="Kronborg kirkegård" />
		<tag k="place" v="locality" />
		<tag k="ssr:stedsnr" v="906082" />
	</node>
	<node id="-234310" lat="59.2749583372" lon="9.26391389263">
		<tag k="amenity" v="place_of_worship" />
		<tag k="fixme" v="specify religion=*, denomination=*, building=* etc" />
		<tag k="name" v="Kronborg gravkapell" />
		<tag k="ssr:stedsnr" v="906079" />
	</node>
	<node id="-233920" lat="59.2461750038" lon="9.16185833452">
		<tag k="alt_name" v="Landsmarka kapell" />
		<tag k="amenity" v="place_of_worship" />
		<tag k="denomination" v="lutheran" />
		<tag k="name" v="Landsmarka" />
		<tag k="religion" v="christian" />
		<tag k="ssr:stedsnr" v="730417" />
	</node>
	<node id="-233151" lat="59.2709527789" lon="9.27354722501">
		<tag k="amenity" v="place_of_worship" />
		<tag k="denomination" v="lutheran" />
		<tag k="name" v="Holla gamle kirke" />
		<tag k="religion" v="christian" />
		<tag k="ssr:stedsnr" v="480089" />
	</node>
	<node id="-234290" lat="59.1921222204" lon="9.19462221774">
		<tag k="name" v="Teigestulen" />
		<tag k="place" v="locality" />
		<tag k="ssr:stedsnr" v="905710" />
	</node>
	<node id="-233644" lat="59.3059388909" lon="9.11364166786">
		<tag k="alt_name" v="Lunde kyrkje" />
		<tag k="amenity" v="place_of_worship" />
		<tag k="denomination" v="lutheran" />
		<tag k="name" v="Lunde" />
		<tag k="religion" v="christian" />
		<tag k="ssr:stedsnr" v="609176" />
	</node>
	<node id="-232740" lat="59.2693527792" lon="9.2996722284">
		<tag k="amenity" v="place_of_worship" />
		<tag k="denomination" v="lutheran" />
		<tag k="name" v="Frikirke" />
		<tag k="religion" v="christian" />
		<tag k="ssr:stedsnr" v="101159" />
	</node>
	<node id="-233506" lat="59.2975583294" lon="9.27511389275">
		<tag k="amenity" v="place_of_worship" />
		<tag k="denomination" v="lutheran" />
		<tag k="name" v="Romnes" />
		<tag k="religion" v="christian" />
		<tag k="ssr:stedsnr" v="548793" />
	</node>
	<node id="-234142" lat="59.3111444456" lon="9.17213055568">
		<tag k="amenity" v="community_centre" />
		<tag k="name" v="Roheim" />
		<tag k="ssr:stedsnr" v="815678" />
	</node>
	<node id="-232349" lat="59.2916277759" lon="9.0525638862">
		<tag k="amenity" v="community_centre" />
		<tag k="name" v="Kjeldal skole" />
		<tag k="ssr:stedsnr" v="388232" />
	</node>
	<node id="-234135" lat="59.3385555532" lon="9.08614444062">
		<tag k="amenity" v="community_centre" />
		<tag k="name" v="Elvang" />
		<tag k="ssr:stedsnr" v="814721" />
	</node>
	<node id="-232845" lat="59.3185277768" lon="9.01573888811">
		<tag k="amenity" v="community_centre" />
		<tag k="name" v="Skyttarhuset" />
		<tag k="ssr:stedsnr" v="145310" />
	</node>
	<node id="-232969" lat="59.2805500012" lon="9.2620833352">
		<tag k="alt_name" v="Holla kirke" />
		<tag k="amenity" v="place_of_worship" />
		<tag k="denomination" v="lutheran" />
		<tag k="name" v="Holla" />
		<tag k="religion" v="christian" />
		<tag k="ssr:stedsnr" v="184691" />
	</node>
	<node id="-232327" lat="59.2539416693" lon="9.35903611673">
		<tag k="alt_name" v="Helgen kirke" />
		<tag k="amenity" v="place_of_worship" />
		<tag k="denomination" v="lutheran" />
		<tag k="name" v="Helgen" />
		<tag k="religion" v="christian" />
		<tag k="ssr:stedsnr" v="366675" />
	</node>
	<node id="-233604" lat="59.2876194432" lon="9.25130556078">
		<tag k="name" v="Pindus" />
		<tag k="ssr:stedsnr" v="602112" />
		<tag k="tourism" v="viewpoint" />
	</node>
</osm>
