<?xml version="1.0" encoding="UTF-8"?>
<osm generator="osmapis" version="0.6">
	<node id="-233471" lat="59.2530055518" lon="9.02811945138">
		<tag k="name" v="Finnvollbekken" />
		<tag k="ssr:stedsnr" v="548080" />
		<tag k="waterway" v="stream" />
	</node>
	<node id="-233468" lat="59.2176000016" lon="9.05097778366">
		<tag k="alt_name" v="Dangletjønn" />
		<tag k="name" v="Dangletjern" />
		<tag k="natural" v="water" />
		<tag k="ssr:stedsnr" v="547436" />
	</node>
	<node id="-233467" lat="59.1966611139" lon="9.18215555313">
		<tag k="alt_name" v="Svarttjønn" />
		<tag k="name" v="Svarttjørn" />
		<tag k="natural" v="water" />
		<tag k="ssr:stedsnr" v="547353" />
	</node>
	<node id="-233459" lat="59.1929361128" lon="9.21793333358">
		<tag k="name" v="Himingbukta" />
		<tag k="natural" v="bay" />
		<tag k="ssr:stedsnr" v="541848" />
	</node>
	<node id="-233456" lat="59.1969250029" lon="9.27347222353">
		<tag k="name" v="Stuverudputten" />
		<tag k="natural" v="water" />
		<tag k="ssr:stedsnr" v="541837" />
	</node>
	<node id="-233449" lat="59.256949996" lon="9.1357944394">
		<tag k="name" v="Lauvåa" />
		<tag k="ssr:stedsnr" v="541622" />
		<tag k="waterway" v="river" />
	</node>
	<node id="-233448" lat="59.2700388845" lon="9.11156389078">
		<tag k="name" v="Hauglandstoa" />
		<tag k="natural" v="bay" />
		<tag k="ssr:stedsnr" v="541597" />
	</node>
	<node id="-233447" lat="59.2539166664" lon="9.09192222922">
		<tag k="name" v="Øvre Meheitjønn" />
		<tag k="natural" v="water" />
		<tag k="ssr:stedsnr" v="541594" />
	</node>
	<node id="-233425" lat="59.2882138915" lon="9.19503332596">
		<tag k="name" v="Yttingbekken" />
		<tag k="ssr:stedsnr" v="526925" />
		<tag k="waterway" v="stream" />
	</node>
	<node id="-233420" lat="59.1616749973" lon="9.19986666571">
		<tag k="name" v="Grunnvatnsosen" />
		<tag k="natural" v="bay" />
		<tag k="ssr:stedsnr" v="526665" />
	</node>
	<node id="-233419" lat="59.3053555596" lon="9.1336416731">
		<tag k="name" v="Barlaugevja" />
		<tag k="natural" v="water" />
		<tag k="ssr:stedsnr" v="526660" />
		<tag k="water" v="lake" />
	</node>
	<node id="-233416" lat="59.2431916646" lon="9.06392500419">
		<tag k="name" v="Kattehølen" />
		<tag k="place" v="locality" />
		<tag k="ssr:stedsnr" v="526302" />
	</node>
	<node id="-232097" lat="59.2622749982" lon="9.32914722605">
		<tag k="name" v="Jøntvedtbekken" />
		<tag k="ssr:stedsnr" v="269253" />
		<tag k="waterway" v="stream" />
	</node>
	<node id="-233411" lat="59.3166611101" lon="9.18788889324">
		<tag k="name" v="Gåserudbekken" />
		<tag k="ssr:stedsnr" v="512590" />
		<tag k="waterway" v="stream" />
	</node>
	<node id="-233408" lat="59.244394446" lon="9.28976667423">
		<tag k="name" v="Kukleivtjønn" />
		<tag k="natural" v="water" />
		<tag k="ssr:stedsnr" v="511911" />
	</node>
	<node id="-233399" lat="59.2216111092" lon="9.31622777449">
		<tag k="name" v="Tjønnestultjønna" />
		<tag k="natural" v="bay" />
		<tag k="ssr:stedsnr" v="510867" />
	</node>
	<node id="-233390" lat="59.2881166697" lon="8.84373054948">
		<tag k="name" v="Furuvasselva" />
		<tag k="ssr:stedsnr" v="510447" />
		<tag k="waterway" v="river" />
	</node>
	<node id="-233389" lat="59.2411944485" lon="9.39800000661">
		<tag k="name" v="Fantodde" />
		<tag k="natural" v="cape" />
		<tag k="ssr:stedsnr" v="510272" />
	</node>
	<node id="-233386" lat="59.2622694426" lon="9.37857777084">
		<tag k="name" v="Nordståstranda" />
		<tag k="natural" v="beach" />
		<tag k="ssr:stedsnr" v="510234" />
	</node>
	<node id="-233385" lat="59.3443611106" lon="8.89643610711">
		<tag k="name" v="Stroktjønnputt" />
		<tag k="natural" v="water" />
		<tag k="ssr:stedsnr" v="510223" />
		<tag k="water" v="pond" />
	</node>
	<node id="-233382" lat="59.2790388919" lon="8.96898056183">
		<tag k="name" v="Vårbubekken" />
		<tag k="ssr:stedsnr" v="510077" />
		<tag k="waterway" v="stream" />
	</node>
	<node id="-233381" lat="59.238999997" lon="9.32752777568">
		<tag k="name" v="Diplane" />
		<tag k="natural" v="water" />
		<tag k="ssr:stedsnr" v="509863" />
		<tag k="water" v="pond" />
	</node>
	<node id="-233377" lat="59.313538886" lon="8.94584722988">
		<tag k="name" v="Buktaodden" />
		<tag k="natural" v="cape" />
		<tag k="ssr:stedsnr" v="509293" />
	</node>
	<node id="-233375" lat="59.272597223" lon="8.91702778359">
		<tag k="name" v="Grisbekktjønnane" />
		<tag k="natural" v="water" />
		<tag k="ssr:stedsnr" v="509283" />
	</node>
	<node id="-233369" lat="59.1532249983" lon="9.21679444909">
		<tag k="name" v="Bøvann" />
		<tag k="natural" v="water" />
		<tag k="ssr:stedsnr" v="506755" />
		<tag k="water" v="lake" />
	</node>
	<node id="-233368" lat="59.3144083332" lon="9.23338610975">
		<tag k="alt_name" v="Svarttjern" />
		<tag k="name" v="Svarttjønn" />
		<tag k="natural" v="water" />
		<tag k="ssr:stedsnr" v="488768" />
	</node>
	<node id="-233359" lat="59.3093027754" lon="9.21822221487">
		<tag k="name" v="Kåsatjørn" />
		<tag k="natural" v="water" />
		<tag k="ssr:stedsnr" v="487801" />
	</node>
	<node id="-233353" lat="59.2134805578" lon="9.08729722698">
		<tag k="alt_name" v="Klingretjønn" />
		<tag k="name" v="Klingretjørn" />
		<tag k="natural" v="water" />
		<tag k="ssr:stedsnr" v="487438" />
	</node>
	<node id="-233352" lat="59.3669277807" lon="9.06846388216">
		<tag k="alt_name" v="Børtetjørna" />
		<tag k="name" v="Børtetjønna" />
		<tag k="natural" v="water" />
		<tag k="ssr:stedsnr" v="487330" />
	</node>
	<node id="-233347" lat="59.338313886" lon="8.96749721916">
		<tag k="alt_name" v="Flåmtjørn" />
		<tag k="name" v="Flomtjønn" />
		<tag k="natural" v="water" />
		<tag k="old_name" v="Flomtjonn" />
		<tag k="ssr:stedsnr" v="487280" />
	</node>
	<node id="-233346" lat="59.3429638873" lon="8.92019444193">
		<tag k="alt_name" v="Igletjørn" />
		<tag k="name" v="Igletjønn" />
		<tag k="natural" v="water" />
		<tag k="ssr:stedsnr" v="487273" />
	</node>
	<node id="-233342" lat="59.3039472244" lon="8.97337222428">
		<tag k="alt_name" v="Lomtjørn" />
		<tag k="name" v="Lomtjønn" />
		<tag k="natural" v="water" />
		<tag k="ssr:stedsnr" v="487181" />
		<tag k="water" v="lake" />
	</node>
	<node id="-233337" lat="59.2760638858" lon="8.97162500033">
		<tag k="alt_name" v="Vårbutjørna, nedre" />
		<tag k="name" v="Nedre Vårbutjønn" />
		<tag k="natural" v="water" />
		<tag k="ssr:stedsnr" v="487122" />
	</node>
	<node id="-233335" lat="59.2632361089" lon="8.9351722175">
		<tag k="alt_name" v="Vardetjørn" />
		<tag k="name" v="Vardetjønn" />
		<tag k="natural" v="water" />
		<tag k="ssr:stedsnr" v="487097" />
	</node>
	<node id="-233332" lat="59.2545500012" lon="9.10848888052">
		<tag k="alt_name" v="Svarttjønn" />
		<tag k="name" v="Svarttjørn" />
		<tag k="natural" v="water" />
		<tag k="ssr:stedsnr" v="487078" />
	</node>
	<node id="-233331" lat="59.2515694416" lon="9.21043889726">
		<tag k="alt_name" v="Igletjønn" />
		<tag k="name" v="Igletjørn" />
		<tag k="natural" v="water" />
		<tag k="ssr:stedsnr" v="487058" />
	</node>
	<node id="-233329" lat="59.2462750035" lon="9.05503334126">
		<tag k="alt_name" v="Gångevatnet" />
		<tag k="name" v="Gongevatn" />
		<tag k="natural" v="water" />
		<tag k="ssr:stedsnr" v="486424" />
		<tag k="water" v="lake" />
	</node>
	<node id="-233322" lat="59.1756666625" lon="9.18753611212">
		<tag k="name" v="Vitnesjø" />
		<tag k="natural" v="water" />
		<tag k="ssr:stedsnr" v="480854" />
		<tag k="water" v="lake" />
	</node>
	<node id="-233320" lat="59.2026805577" lon="9.19156389201">
		<tag k="name" v="Askebekk" />
		<tag k="ssr:stedsnr" v="480837" />
		<tag k="waterway" v="stream" />
	</node>
	<node id="-233291" lat="59.1614194405" lon="9.19613611343">
		<tag k="name" v="Grunnvatnselva" />
		<tag k="ssr:stedsnr" v="465658" />
		<tag k="waterway" v="river" />
	</node>
	<node id="-233287" lat="59.2811861105" lon="9.29831944453">
		<tag k="name" v="Lillesand" />
		<tag k="natural" v="bay" />
		<tag k="ssr:stedsnr" v="465122" />
	</node>
	<node id="-233274" lat="59.2461916687" lon="9.29070833905">
		<tag k="name" v="Igletjønnane" />
		<tag k="natural" v="water" />
		<tag k="ssr:stedsnr" v="450927" />
	</node>
	<node id="-233272" lat="59.2294833324" lon="9.32791388086">
		<tag k="name" v="Buratjønn" />
		<tag k="natural" v="water" />
		<tag k="ssr:stedsnr" v="450760" />
		<tag k="water" v="pond" />
	</node>
	<node id="-233269" lat="59.3582833314" lon="9.06479165954">
		<tag k="name" v="Gryteåa" />
		<tag k="ssr:stedsnr" v="450610" />
		<tag k="waterway" v="stream" />
	</node>
	<node id="-233262" lat="59.357263893" lon="8.96240555474">
		<tag k="name" v="Øvre Rugbøletjønn" />
		<tag k="natural" v="water" />
		<tag k="ssr:stedsnr" v="450211" />
	</node>
	<node id="-233256" lat="59.3558055525" lon="9.11142777121">
		<tag k="name" v="Tverrbekken" />
		<tag k="ssr:stedsnr" v="449652" />
		<tag k="waterway" v="stream" />
	</node>
	<node id="-233253" lat="59.3444472216" lon="9.03722223019">
		<tag k="name" v="Stordalstjønnbekken" />
		<tag k="ssr:stedsnr" v="449380" />
		<tag k="waterway" v="stream" />
	</node>
	<node id="-233240" lat="59.2404722229" lon="9.0462444397">
		<tag k="name" v="Vestbekken" />
		<tag k="ssr:stedsnr" v="480116" />
		<tag k="waterway" v="stream" />
	</node>
	<node id="-233233" lat="59.29047778" lon="8.82198056357">
		<tag k="name" v="Flogåi" />
		<tag k="ssr:stedsnr" v="427686" />
		<tag k="waterway" v="stream" />
	</node>
	<node id="-233228" lat="59.3573999957" lon="8.99051943801">
		<tag k="alt_name" v="Sandtjørn" />
		<tag k="name" v="Sandtjønn" />
		<tag k="natural" v="water" />
		<tag k="ssr:stedsnr" v="427338" />
	</node>
	<node id="-233224" lat="59.342036108" lon="9.16581111707">
		<tag k="name" v="Gangsjå" />
		<tag k="natural" v="water" />
		<tag k="ssr:stedsnr" v="427274" />
		<tag k="water" v="lake" />
	</node>
	<node id="-233222" lat="59.3309888882" lon="9.14994167046">
		<tag k="alt_name" v="Kringletjørn" />
		<tag k="name" v="Kringletjønn" />
		<tag k="natural" v="water" />
		<tag k="ssr:stedsnr" v="427246" />
	</node>
	<node id="-233210" lat="59.2936444438" lon="8.96074444083">
		<tag k="alt_name" v="Venheimtjørna" />
		<tag k="name" v="Venheimtjønn" />
		<tag k="natural" v="water" />
		<tag k="ssr:stedsnr" v="427145" />
	</node>
	<node id="-233206" lat="59.2725472229" lon="9.06523056066">
		<tag k="alt_name" v="Nekatjørna" />
		<tag k="name" v="Nekatjønn" />
		<tag k="natural" v="water" />
		<tag k="ssr:stedsnr" v="427111" />
	</node>
	<node id="-233203" lat="59.2216583352" lon="9.15722222405">
		<tag k="alt_name" v="Huldretjønn" />
		<tag k="name" v="Huldretjørn" />
		<tag k="natural" v="water" />
		<tag k="ssr:stedsnr" v="426383" />
	</node>
	<node id="-233202" lat="59.2441472253" lon="9.00212500397">
		<tag k="alt_name" v="Offersteintjønn" />
		<tag k="name" v="Offersteintjerna" />
		<tag k="natural" v="water" />
		<tag k="ssr:stedsnr" v="426374" />
	</node>
	<node id="-233198" lat="59.1995083305" lon="9.20964721926">
		<tag k="name" v="Sannervannet" />
		<tag k="natural" v="water" />
		<tag k="ssr:stedsnr" v="426314" />
		<tag k="water" v="lake" />
	</node>
	<node id="-233197" lat="59.1769472187" lon="9.19295277459">
		<tag k="alt_name" v="Rundetjønn" />
		<tag k="name" v="Rundtjørn" />
		<tag k="natural" v="water" />
		<tag k="ssr:stedsnr" v="426272" />
	</node>
	<node id="-233191" lat="59.1993749955" lon="9.26035556338">
		<tag k="name" v="Øvre Hommevatn" />
		<tag k="natural" v="water" />
		<tag k="ssr:stedsnr" v="420870" />
		<tag k="water" v="lake" />
	</node>
	<node id="-233188" lat="59.1771472263" lon="9.20787776912">
		<tag k="name" v="Hosebandtjønn" />
		<tag k="natural" v="water" />
		<tag k="ssr:stedsnr" v="420865" />
	</node>
	<node id="-233185" lat="59.1737472267" lon="9.24102500401">
		<tag k="name" v="Bjørktjønn" />
		<tag k="natural" v="water" />
		<tag k="ssr:stedsnr" v="420792" />
	</node>
	<node id="-233172" lat="59.2800555551" lon="9.09389999248">
		<tag k="name" v="Lintjønn" />
		<tag k="natural" v="water" />
		<tag k="ssr:stedsnr" v="420374" />
	</node>
	<node id="-233169" lat="59.2241305554" lon="9.10148333766">
		<tag k="name" v="Bukkehølen" />
		<tag k="place" v="locality" />
		<tag k="ssr:stedsnr" v="420316" />
	</node>
	<node id="-233167" lat="59.2342722188" lon="9.09388334199">
		<tag k="name" v="Klevjadalstjønn" />
		<tag k="natural" v="water" />
		<tag k="ssr:stedsnr" v="420182" />
	</node>
	<node id="-233164" lat="59.24401111" lon="9.00022499664">
		<tag k="name" v="Hestfjelltjønn" />
		<tag k="natural" v="water" />
		<tag k="ssr:stedsnr" v="420131" />
	</node>
	<node id="-233138" lat="59.3713027791" lon="9.12853889137">
		<tag k="name" v="Kringletjønn" />
		<tag k="natural" v="water" />
		<tag k="ssr:stedsnr" v="267889" />
	</node>
	<node id="-233135" lat="59.218566664" lon="9.31903334205">
		<tag k="name" v="Tangen" />
		<tag k="place" v="island" />
		<tag k="ssr:stedsnr" v="267838" />
	</node>
	<node id="-233117" lat="59.3263945035" lon="9.14834498288">
		<tag k="name" v="Langetjønn" />
		<tag k="natural" v="water" />
		<tag k="ssr:stedsnr" v="267061" />
	</node>
	<node id="-233116" lat="59.3147805587" lon="8.96746666448">
		<tag k="name" v="Kårsteinsundet" />
		<tag k="natural" v="strait" />
		<tag k="ssr:stedsnr" v="267020" />
	</node>
	<node id="-233109" lat="59.2815472218" lon="9.29905000556">
		<tag k="name" v="Torsnesodden" />
		<tag k="natural" v="cape" />
		<tag k="ssr:stedsnr" v="245671" />
	</node>
	<node id="-233106" lat="59.2580583371" lon="9.29976110618">
		<tag k="alt_name" v="Damtjørn" />
		<tag k="name" v="Damtjønn" />
		<tag k="natural" v="water" />
		<tag k="ssr:stedsnr" v="245618" />
	</node>
	<node id="-233102" lat="59.3404694461" lon="8.92419722764">
		<tag k="alt_name" v="Svartputt" />
		<tag k="name" v="Svarteputt" />
		<tag k="natural" v="water" />
		<tag k="ssr:stedsnr" v="245256" />
	</node>
	<node id="-233101" lat="59.3506666644" lon="8.95957222221">
		<tag k="alt_name" v="Limtjørna" />
		<tag k="name" v="Limtjønn" />
		<tag k="natural" v="water" />
		<tag k="ssr:stedsnr" v="245243" />
	</node>
	<node id="-233100" lat="59.3302611096" lon="8.88148610943">
		<tag k="alt_name" v="Svarteputt" />
		<tag k="name" v="Svartputt" />
		<tag k="natural" v="water" />
		<tag k="ssr:stedsnr" v="245224" />
	</node>
	<node id="-233098" lat="59.3214138863" lon="8.99388888563">
		<tag k="name" v="Straumen" />
		<tag k="ssr:stedsnr" v="245210" />
		<tag k="waterway" v="river" />
	</node>
	<node id="-233093" lat="59.3196416673" lon="9.18170555807">
		<tag k="alt_name" v="Laugtjørna" />
		<tag k="name" v="Laugtjønna" />
		<tag k="natural" v="water" />
		<tag k="ssr:stedsnr" v="245179" />
	</node>
	<node id="-233085" lat="59.2724388899" lon="8.87169444323">
		<tag k="alt_name" v="Kletjørn" />
		<tag k="name" v="Kletjønn" />
		<tag k="natural" v="water" />
		<tag k="ssr:stedsnr" v="245119" />
	</node>
	<node id="-233073" lat="59.2632111117" lon="9.0768222192">
		<tag k="alt_name" v="Rekatjørn" />
		<tag k="name" v="Rekatjønn" />
		<tag k="natural" v="water" />
		<tag k="ssr:stedsnr" v="245070" />
	</node>
	<node id="-233072" lat="59.1601555537" lon="9.24364166909">
		<tag k="alt_name" v="Børten, store" />
		<tag k="name" v="Børten" />
		<tag k="natural" v="water" />
		<tag k="ssr:stedsnr" v="244986" />
		<tag k="water" v="lake" />
	</node>
	<node id="-233063" lat="59.2124388878" lon="9.10111388284">
		<tag k="name" v="Tjernane" />
		<tag k="natural" v="water" />
		<tag k="ssr:stedsnr" v="244342" />
	</node>
	<node id="-233054" lat="59.2279166652" lon="9.2573361084">
		<tag k="name" v="Øvre Stavsjø" />
		<tag k="natural" v="water" />
		<tag k="ssr:stedsnr" v="237951" />
		<tag k="water" v="lake" />
	</node>
	<node id="-233053" lat="59.1999166669" lon="9.26675833211">
		<tag k="name" v="Syltretjønn" />
		<tag k="natural" v="water" />
		<tag k="ssr:stedsnr" v="237844" />
	</node>
	<node id="-233044" lat="59.2520472211" lon="9.13260278031">
		<tag k="name" v="Langen" />
		<tag k="natural" v="water" />
		<tag k="ssr:stedsnr" v="237625" />
		<tag k="water" v="lake" />
	</node>
	<node id="-233043" lat="59.2510444408" lon="9.11628056037">
		<tag k="name" v="Heimdalsvann" />
		<tag k="natural" v="water" />
		<tag k="ssr:stedsnr" v="237624" />
		<tag k="water" v="lake" />
	</node>
	<node id="-233042" lat="59.2260055576" lon="9.10357222179">
		<tag k="name" v="Åslandselva" />
		<tag k="ssr:stedsnr" v="237318" />
		<tag k="waterway" v="river" />
	</node>
	<node id="-233037" lat="59.2420138933" lon="9.0559999964">
		<tag k="name" v="Tomasbekk" />
		<tag k="ssr:stedsnr" v="237146" />
		<tag k="waterway" v="stream" />
	</node>
	<node id="-233036" lat="59.3195666633" lon="9.0242638948">
		<tag k="name" v="Lognevja" />
		<tag k="natural" v="bay" />
		<tag k="ssr:stedsnr" v="236104" />
	</node>
	<node id="-233033" lat="59.2111055584" lon="9.1765472202">
		<tag k="name" v="Langen" />
		<tag k="natural" v="water" />
		<tag k="ssr:stedsnr" v="223994" />
		<tag k="water" v="lake" />
	</node>
	<node id="-233031" lat="59.2872916708" lon="9.18306110457">
		<tag k="name" v="Nukebekken" />
		<tag k="ssr:stedsnr" v="223947" />
		<tag k="waterway" v="stream" />
	</node>
	<node id="-233029" lat="59.2245305555" lon="9.27502777854">
		<tag k="name" v="Dammansbekken" />
		<tag k="ssr:stedsnr" v="223909" />
		<tag k="waterway" v="stream" />
	</node>
	<node id="-233028" lat="59.2236666687" lon="9.25535278235">
		<tag k="name" v="Vestervatn" />
		<tag k="natural" v="water" />
		<tag k="ssr:stedsnr" v="223903" />
		<tag k="water" v="lake" />
	</node>
	<node id="-233021" lat="59.2821027795" lon="9.29811388418">
		<tag k="name" v="Labukta" />
		<tag k="natural" v="bay" />
		<tag k="ssr:stedsnr" v="223163" />
	</node>
	<node id="-233018" lat="59.2950083306" lon="9.27900833649">
		<tag k="name" v="Oddefjellet" />
		<tag k="natural" v="cape" />
		<tag k="ssr:stedsnr" v="209771" />
	</node>
	<node id="-233013" lat="59.297016665" lon="9.23667776919">
		<tag k="name" v="Dammane" />
		<tag k="natural" v="water" />
		<tag k="ssr:stedsnr" v="209743" />
		<tag k="water" v="pond" />
	</node>
	<node id="-233012" lat="59.3263249964" lon="9.25588610527">
		<tag k="name" v="Bleikedokka" />
		<tag k="natural" v="bay" />
		<tag k="ssr:stedsnr" v="209718" />
	</node>
	<node id="-233006" lat="59.2244833305" lon="9.31912500477">
		<tag k="name" v="Kvennhusfallet" />
		<tag k="ssr:stedsnr" v="207833" />
		<tag k="waterway" v="rapids" />
	</node>
	<node id="-232998" lat="59.2493722183" lon="9.40614443661">
		<tag k="name" v="Nesodden" />
		<tag k="natural" v="cape" />
		<tag k="ssr:stedsnr" v="207288" />
	</node>
	<node id="-232994" lat="59.2658472198" lon="9.29650555824">
		<tag k="name" v="Vibetobekken" />
		<tag k="ssr:stedsnr" v="207162" />
		<tag k="waterway" v="stream" />
	</node>
	<node id="-232967" lat="59.2506527749" lon="9.32894999334">
		<tag k="name" v="Storbekken" />
		<tag k="ssr:stedsnr" v="184673" />
		<tag k="waterway" v="stream" />
	</node>
	<node id="-232964" lat="59.3320416691" lon="8.93421389218">
		<tag k="alt_name" v="Stivtjørn" />
		<tag k="name" v="Stivtjønn" />
		<tag k="natural" v="water" />
		<tag k="ssr:stedsnr" v="184233" />
	</node>
	<node id="-232955" lat="59.1589000042" lon="9.19683611973">
		<tag k="alt_name" v="Butjønn" />
		<tag k="name" v="Butjern" />
		<tag k="natural" v="water" />
		<tag k="ssr:stedsnr" v="184263" />
	</node>
	<node id="-232954" lat="59.3538833331" lon="9.06405000534">
		<tag k="alt_name" v="Damtjørn" />
		<tag k="name" v="Damtjønn" />
		<tag k="natural" v="water" />
		<tag k="ssr:stedsnr" v="184257" />
	</node>
	<node id="-232950" lat="59.2639444404" lon="8.88216389496">
		<tag k="alt_name" v="Mørkvatnet" />
		<tag k="name" v="Mørkvatn" />
		<tag k="natural" v="water" />
		<tag k="ssr:stedsnr" v="184089" />
		<tag k="water" v="lake" />
	</node>
	<node id="-232949" lat="59.2652722239" lon="9.05014721994">
		<tag k="alt_name" v="Bjortjørn" />
		<tag k="name" v="Bjortjønn" />
		<tag k="natural" v="water" />
		<tag k="ssr:stedsnr" v="184080" />
	</node>
	<node id="-232939" lat="59.2702111128" lon="9.00756111243">
		<tag k="name" v="Brennmyrputten" />
		<tag k="natural" v="water" />
		<tag k="ssr:stedsnr" v="184107" />
	</node>
	<node id="-232937" lat="59.2549722238" lon="9.09500556196">
		<tag k="name" v="Meheitjørna" />
		<tag k="natural" v="water" />
		<tag k="ssr:stedsnr" v="184068" />
	</node>
	<node id="-232935" lat="59.2286666658" lon="9.35815000549">
		<tag k="alt_name" v="Klovdalstjørn" />
		<tag k="name" v="Klovdalstjønna" />
		<tag k="natural" v="water" />
		<tag k="ssr:stedsnr" v="183923" />
	</node>
	<node id="-232928" lat="59.2387083339" lon="9.22328888537">
		<tag k="alt_name" v="Kroktjønn" />
		<tag k="name" v="Kroktjern" />
		<tag k="natural" v="water" />
		<tag k="ssr:stedsnr" v="183061" />
	</node>
	<node id="-232927" lat="59.2380583321" lon="9.29529166443">
		<tag k="alt_name" v="Skiftestjern, øvre" />
		<tag k="name" v="Skiftetjønnane" />
		<tag k="natural" v="water" />
		<tag k="old_name" v="Skiftsetjerna, øvre" />
		<tag k="ssr:stedsnr" v="183057" />
	</node>
	<node id="-232923" lat="59.1666944473" lon="9.19703056422">
		<tag k="name" v="Vitnesjøbekken" />
		<tag k="ssr:stedsnr" v="177861" />
		<tag k="waterway" v="stream" />
	</node>
	<node id="-232916" lat="59.166566667" lon="9.2341138936">
		<tag k="name" v="Børten" />
		<tag k="natural" v="water" />
		<tag k="ssr:stedsnr" v="177794" />
		<tag k="water" v="lake" />
	</node>
	<node id="-232914" lat="59.2686166657" lon="9.07089999888">
		<tag k="name" v="Maurdalsbekken" />
		<tag k="ssr:stedsnr" v="177627" />
		<tag k="waterway" v="stream" />
	</node>
	<node id="-232910" lat="59.2249166659" lon="9.14551389076">
		<tag k="name" v="Store Minnesjø" />
		<tag k="natural" v="water" />
		<tag k="ssr:stedsnr" v="177432" />
		<tag k="water" v="lake" />
	</node>
	<node id="-232909" lat="59.2146333325" lon="9.15679166993">
		<tag k="name" v="Kolbjørnsbekk" />
		<tag k="ssr:stedsnr" v="177428" />
		<tag k="waterway" v="stream" />
	</node>
	<node id="-232908" lat="59.2707666711" lon="9.11308611542">
		<tag k="name" v="Hauglandstoa" />
		<tag k="natural" v="bay" />
		<tag k="ssr:stedsnr" v="177403" />
	</node>
	<node id="-232907" lat="59.2330277736" lon="9.1046833248">
		<tag k="name" v="Åslandselva" />
		<tag k="ssr:stedsnr" v="177194" />
		<tag k="waterway" v="river" />
	</node>
	<node id="-232894" lat="59.2199111076" lon="9.26639722157">
		<tag k="name" v="Brenteøya" />
		<tag k="place" v="islet" />
		<tag k="ssr:stedsnr" v="162904" />
	</node>
	<node id="-232887" lat="59.2728166661" lon="9.30751667212">
		<tag k="name" v="Løken" />
		<tag k="ssr:stedsnr" v="162132" />
		<tag k="waterway" v="stream" />
	</node>
	<node id="-232877" lat="59.3302749976" lon="9.24776388871">
		<tag k="name" v="Petvik" />
		<tag k="natural" v="bay" />
		<tag k="ssr:stedsnr" v="148735" />
	</node>
	<node id="-232876" lat="59.2917222178" lon="9.1791083275">
		<tag k="name" v="Nomestrand" />
		<tag k="natural" v="beach" />
		<tag k="ssr:stedsnr" v="148733" />
	</node>
	<node id="-232871" lat="59.2768555515" lon="9.35852777047">
		<tag k="name" v="Glyttenberg" />
		<tag k="natural" v="bay" />
		<tag k="ssr:stedsnr" v="148685" />
	</node>
	<node id="-232866" lat="59.2345583356" lon="9.33339722493">
		<tag k="name" v="Sauetjønn" />
		<tag k="natural" v="water" />
		<tag k="ssr:stedsnr" v="146993" />
		<tag k="water" v="pond" />
	</node>
	<node id="-232861" lat="59.341444442" lon="9.07295278254">
		<tag k="name" v="Valatjønnane" />
		<tag k="natural" v="water" />
		<tag k="ssr:stedsnr" v="146639" />
	</node>
	<node id="-232858" lat="59.3798916623" lon="9.10332499554">
		<tag k="name" v="Skrotteputt" />
		<tag k="natural" v="water" />
		<tag k="ssr:stedsnr" v="146524" />
		<tag k="water" v="pond" />
	</node>
	<node id="-232857" lat="59.2476972246" lon="9.38348610303">
		<tag k="name" v="Husfossen" />
		<tag k="natural" v="waterfall" />
		<tag k="ssr:stedsnr" v="146263" />
	</node>
	<node id="-232854" lat="59.2590555517" lon="9.05186666853">
		<tag k="name" v="Gongebekk" />
		<tag k="ssr:stedsnr" v="146145" />
		<tag k="waterway" v="stream" />
	</node>
	<node id="-232847" lat="59.3434861094" lon="9.02247499805">
		<tag k="name" v="Trytetjønnbekken" />
		<tag k="ssr:stedsnr" v="145389" />
		<tag k="waterway" v="stream" />
	</node>
	<node id="-232843" lat="59.308672218" lon="8.91541111551">
		<tag k="name" v="Omnesodden" />
		<tag k="natural" v="cape" />
		<tag k="ssr:stedsnr" v="145286" />
	</node>
	<node id="-232835" lat="59.2543277741" lon="9.30964444774">
		<tag k="name" v="Svarttjønn" />
		<tag k="natural" v="water" />
		<tag k="ssr:stedsnr" v="145136" />
		<tag k="water" v="pond" />
	</node>
	<node id="-232830" lat="59.2649916629" lon="8.85255000565">
		<tag k="alt_name" v="Igletjørn" />
		<tag k="name" v="Gardtjønn" />
		<tag k="natural" v="water" />
		<tag k="ssr:stedsnr" v="130639" />
	</node>
	<node id="-232829" lat="59.3253333349" lon="9.26195832546">
		<tag k="name" v="Kalvodden" />
		<tag k="natural" v="cape" />
		<tag k="ssr:stedsnr" v="124845" />
	</node>
	<node id="-232821" lat="59.2034027747" lon="9.23025555647">
		<tag k="alt_name" v="Ormetjønn" />
		<tag k="name" v="Ormtjern" />
		<tag k="natural" v="water" />
		<tag k="ssr:stedsnr" v="123919" />
	</node>
	<node id="-232818" lat="59.2145888902" lon="9.20966666638">
		<tag k="alt_name" v="Tekstetjønn" />
		<tag k="name" v="Teksletjørn" />
		<tag k="natural" v="water" />
		<tag k="ssr:stedsnr" v="123463" />
	</node>
	<node id="-232817" lat="59.2174583357" lon="9.11235833898">
		<tag k="name" v="Sanddalsbekken" />
		<tag k="ssr:stedsnr" v="123461" />
		<tag k="waterway" v="stream" />
	</node>
	<node id="-232813" lat="59.3538333362" lon="9.0214722299">
		<tag k="alt_name" v="Sveigetjørn" />
		<tag k="name" v="Sveigstjønn" />
		<tag k="natural" v="water" />
		<tag k="ssr:stedsnr" v="123279" />
	</node>
	<node id="-232811" lat="59.1510861136" lon="9.18383888438">
		<tag k="alt_name" v="Svarttjønn" />
		<tag k="name" v="Svarttjern" />
		<tag k="natural" v="water" />
		<tag k="ssr:stedsnr" v="123275" />
	</node>
	<node id="-232810" lat="59.1569999983" lon="9.1954638953">
		<tag k="alt_name" v="Åstjønn" />
		<tag k="loc_name" v="Steinsrudtjønna" />
		<tag k="name" v="Åstjern" />
		<tag k="natural" v="water" />
		<tag k="ssr:stedsnr" v="123274" />
	</node>
	<node id="-232809" lat="59.338222219" lon="8.90036944267">
		<tag k="alt_name" v="Åmnestjørna, austre" />
		<tag k="name" v="Østre Omnestjønn" />
		<tag k="natural" v="water" />
		<tag k="ssr:stedsnr" v="123269" />
	</node>
	<node id="-232808" lat="59.3284638891" lon="9.13818332772">
		<tag k="alt_name" v="Fisklaustjørna" />
		<tag k="name" v="Fiskelaustjønn" />
		<tag k="natural" v="water" />
		<tag k="ssr:stedsnr" v="123240" />
	</node>
	<node id="-232805" lat="59.3138166642" lon="8.92886944958">
		<tag k="name" v="Kvernbukta" />
		<tag k="natural" v="bay" />
		<tag k="ssr:stedsnr" v="123233" />
	</node>
	<node id="-232798" lat="59.294222219" lon="8.97585834151">
		<tag k="alt_name" v="Bytingstjørna" />
		<tag k="name" v="Byttingstjønn" />
		<tag k="natural" v="water" />
		<tag k="ssr:stedsnr" v="123170" />
	</node>
	<node id="-232792" lat="59.1586027788" lon="9.27600000763">
		<tag k="alt_name" v="Kaslebutjern" />
		<tag k="name" v="Kaslebutjenn" />
		<tag k="natural" v="water" />
		<tag k="ssr:stedsnr" v="122975" />
	</node>
	<node id="-232789" lat="59.2432611117" lon="9.18863055291">
		<tag k="alt_name" v="Hovlandstjønn" />
		<tag k="name" v="Hovlandstjørna" />
		<tag k="natural" v="water" />
		<tag k="ssr:stedsnr" v="122377" />
	</node>
	<node id="-232786" lat="59.1940527821" lon="9.21183610317">
		<tag k="name" v="Vasskleivodden" />
		<tag k="natural" v="cape" />
		<tag k="ssr:stedsnr" v="117852" />
	</node>
	<node id="-232779" lat="59.252733329" lon="9.25954166016">
		<tag k="name" v="Tveitdammen" />
		<tag k="natural" v="water" />
		<tag k="ssr:stedsnr" v="117070" />
		<tag k="water" v="pond" />
	</node>
	<node id="-232768" lat="59.1761444434" lon="9.22852778599">
		<tag k="name" v="Tyslandshølen" />
		<tag k="natural" v="water" />
		<tag k="ssr:stedsnr" v="116744" />
		<tag k="water" v="lake" />
	</node>
	<node id="-232763" lat="59.2654944403" lon="9.06510278223">
		<tag k="name" v="Vestbekken" />
		<tag k="ssr:stedsnr" v="116598" />
		<tag k="waterway" v="stream" />
	</node>
	<node id="-232756" lat="59.2096861127" lon="9.05045000422">
		<tag k="name" v="Sverdalselva" />
		<tag k="ssr:stedsnr" v="116219" />
		<tag k="waterway" v="river" />
	</node>
	<node id="-232753" lat="59.2340916636" lon="9.26709166753">
		<tag k="name" v="Lille Setertjønn" />
		<tag k="natural" v="water" />
		<tag k="ssr:stedsnr" v="116946" />
	</node>
	<node id="-232746" lat="59.154836109" lon="9.21674722033">
		<tag k="name" v="Lomøya" />
		<tag k="place" v="islet" />
		<tag k="ssr:stedsnr" v="101654" />
	</node>
	<node id="-232745" lat="59.1589111104" lon="9.20981944001">
		<tag k="name" v="Høybukta" />
		<tag k="natural" v="bay" />
		<tag k="ssr:stedsnr" v="101651" />
	</node>
	<node id="-232742" lat="59.2372555571" lon="9.14796110279">
		<tag k="name" v="Øyane" />
		<tag k="place" v="islet" />
		<tag k="ssr:stedsnr" v="101250" />
	</node>
	<node id="-232725" lat="59.2658111122" lon="8.91453611182">
		<tag k="name" v="Tveitstulbekken" />
		<tag k="ssr:stedsnr" v="86501" />
		<tag k="waterway" v="stream" />
	</node>
	<node id="-232721" lat="59.2492277785" lon="9.38170554873">
		<tag k="name" v="Helgjevikbekken" />
		<tag k="ssr:stedsnr" v="86308" />
		<tag k="waterway" v="stream" />
	</node>
	<node id="-232709" lat="59.2859277767" lon="8.8609111092">
		<tag k="name" v="Mørkvasselva" />
		<tag k="ssr:stedsnr" v="85364" />
		<tag k="waterway" v="river" />
	</node>
	<node id="-232707" lat="59.3077527738" lon="8.90100000255">
		<tag k="name" v="Høgefjellodden" />
		<tag k="natural" v="cape" />
		<tag k="ssr:stedsnr" v="85241" />
	</node>
	<node id="-232706" lat="59.2735777808" lon="8.92549722122">
		<tag k="name" v="Svarttjønn" />
		<tag k="natural" v="water" />
		<tag k="ssr:stedsnr" v="85233" />
	</node>
	<node id="-232705" lat="59.2708682707" lon="8.89160909511">
		<tag k="name" v="Solomtjønnane" />
		<tag k="natural" v="water" />
		<tag k="ssr:stedsnr" v="85198" />
	</node>
	<node id="-232703" lat="59.2799527757" lon="8.92086111624">
		<tag k="name" v="Uvildam" />
		<tag k="ssr:stedsnr" v="85187" />
		<tag k="waterway" v="dam" />
	</node>
	<node id="-232701" lat="59.2798666701" lon="9.04765278607">
		<tag k="name" v="Midtre Trytetjønn" />
		<tag k="natural" v="water" />
		<tag k="old_name" v="Mitre Trytetjønn" />
		<tag k="ssr:stedsnr" v="85173" />
	</node>
	<node id="-232700" lat="59.2813222246" lon="9.03322499799">
		<tag k="name" v="Nonsfjelltjønn" />
		<tag k="natural" v="water" />
		<tag k="ssr:stedsnr" v="85170" />
		<tag k="water" v="pond" />
	</node>
	<node id="-232681" lat="59.2875805576" lon="9.23389999921">
		<tag k="name" v="Eidselva" />
		<tag k="ssr:stedsnr" v="63703" />
		<tag k="waterway" v="river" />
	</node>
	<node id="-232677" lat="59.3810027746" lon="9.11342222405">
		<tag k="alt_name" v="Holmtjørn" />
		<tag k="name" v="Holmtjønn" />
		<tag k="natural" v="water" />
		<tag k="ssr:stedsnr" v="63363" />
	</node>
	<node id="-232671" lat="59.3333305582" lon="9.08499721671">
		<tag k="alt_name" v="Østerå" />
		<tag k="name" v="Østeråa" />
		<tag k="ssr:stedsnr" v="63246" />
		<tag k="waterway" v="river" />
	</node>
	<node id="-232314" lat="59.2860222182" lon="8.96670277896">
		<tag k="alt_name" v="Høgvatnet" />
		<tag k="name" v="Høgsvatn" />
		<tag k="natural" v="water" />
		<tag k="ssr:stedsnr" v="366139" />
		<tag k="water" v="lake" />
	</node>
	<node id="-232655" lat="59.2778416673" lon="8.97909999283">
		<tag k="alt_name" v="Vårbutjørna, øvre" />
		<tag k="name" v="Øvre Vårbutjønn" />
		<tag k="natural" v="water" />
		<tag k="ssr:stedsnr" v="63137" />
	</node>
	<node id="-232649" lat="59.2317250028" lon="9.15531110958">
		<tag k="name" v="Langen" />
		<tag k="natural" v="water" />
		<tag k="ssr:stedsnr" v="62437" />
		<tag k="water" v="lake" />
	</node>
	<node id="-232646" lat="59.2410277823" lon="9.06491388619">
		<tag k="alt_name" v="Gongeelva" />
		<tag k="name" v="Gångeelva" />
		<tag k="ssr:stedsnr" v="62403" />
		<tag k="waterway" v="stream" />
	</node>
	<node id="-232644" lat="59.2298249996" lon="9.06653889435">
		<tag k="name" v="Storlibekken" />
		<tag k="ssr:stedsnr" v="62384" />
		<tag k="waterway" v="stream" />
	</node>
	<node id="-232643" lat="59.1816333349" lon="9.19283888213">
		<tag k="alt_name" v="Auretjønn" />
		<tag k="name" v="Auretjørn" />
		<tag k="natural" v="water" />
		<tag k="ssr:stedsnr" v="62351" />
	</node>
	<node id="-232642" lat="59.1965500037" lon="9.19320278023">
		<tag k="fixme" v="multiple name tags, choose one and add the other to alt_name" />
		<tag k="name" v="Trellbotjønn;Trelleborgtjørna" />
		<tag k="natural" v="water" />
		<tag k="ssr:stedsnr" v="62305" />
	</node>
	<node id="-232639" lat="59.2382305557" lon="9.42455555476">
		<tag k="alt_name" v="Munken, store;Store Munken" />
		<tag k="name" v="Munken" />
		<tag k="place" v="island" />
		<tag k="ssr:stedsnr" v="62040" />
	</node>
	<node id="-232637" lat="59.1581583294" lon="9.24014721813">
		<tag k="name" v="Buttelbekk" />
		<tag k="ssr:stedsnr" v="56692" />
		<tag k="waterway" v="stream" />
	</node>
	<node id="-232623" lat="59.1823361082" lon="9.1877083407">
		<tag k="name" v="Blankvatn" />
		<tag k="natural" v="water" />
		<tag k="ssr:stedsnr" v="55832" />
	</node>
	<node id="-232621" lat="59.1817194407" lon="9.22145555443">
		<tag k="name" v="Sandavatn" />
		<tag k="natural" v="water" />
		<tag k="ssr:stedsnr" v="55824" />
		<tag k="water" v="lake" />
	</node>
	<node id="-232617" lat="59.2394638854" lon="9.21991945173">
		<tag k="name" v="Åleputten" />
		<tag k="natural" v="water" />
		<tag k="ssr:stedsnr" v="55786" />
	</node>
	<node id="-232614" lat="59.2464861083" lon="9.22385832727">
		<tag k="name" v="Stutøye" />
		<tag k="natural" v="water" />
		<tag k="ssr:stedsnr" v="55756" />
	</node>
	<node id="-232612" lat="59.1868777794" lon="9.21792500539">
		<tag k="name" v="Storeøya" />
		<tag k="place" v="islet" />
		<tag k="ssr:stedsnr" v="55659" />
	</node>
	<node id="-232611" lat="59.1901222246" lon="9.2188277816">
		<tag k="name" v="Langodde" />
		<tag k="natural" v="cape" />
		<tag k="ssr:stedsnr" v="55643" />
	</node>
	<node id="-232609" lat="59.1743138924" lon="9.22821944573">
		<tag k="name" v="Sannaelva" />
		<tag k="ssr:stedsnr" v="55722" />
		<tag k="waterway" v="river" />
	</node>
	<node id="-232605" lat="59.2707055551" lon="9.0867083261">
		<tag k="name" v="Dalatjønn" />
		<tag k="natural" v="water" />
		<tag k="ssr:stedsnr" v="55366" />
	</node>
	<node id="-232602" lat="59.2690472201" lon="9.06377222082">
		<tag k="name" v="Maurdalsputten" />
		<tag k="natural" v="water" />
		<tag k="ssr:stedsnr" v="55561" />
		<tag k="water" v="pond" />
	</node>
	<node id="-232601" lat="59.2564722212" lon="9.07237500872">
		<tag k="name" v="Hantokulpen" />
		<tag k="natural" v="water" />
		<tag k="ssr:stedsnr" v="55541" />
		<tag k="water" v="pond" />
	</node>
	<node id="-232600" lat="59.2566194433" lon="9.08654444259">
		<tag k="name" v="Meheibekken" />
		<tag k="ssr:stedsnr" v="55537" />
		<tag k="waterway" v="stream" />
	</node>
	<node id="-232590" lat="59.1462472216" lon="9.21196111218">
		<tag k="name" v="Serktjønn" />
		<tag k="natural" v="water" />
		<tag k="ssr:stedsnr" v="41670" />
	</node>
	<node id="-232589" lat="59.1548805532" lon="9.1997944378">
		<tag k="name" v="Kutjønn" />
		<tag k="natural" v="water" />
		<tag k="ssr:stedsnr" v="41653" />
	</node>
	<node id="-232587" lat="59.3028250001" lon="9.1066249949">
		<tag k="name" v="Straumen" />
		<tag k="ssr:stedsnr" v="41728" />
		<tag k="waterway" v="river" />
	</node>
	<node id="-232584" lat="59.2356055546" lon="9.13189444145">
		<tag k="name" v="Løken" />
		<tag k="natural" v="strait" />
		<tag k="ssr:stedsnr" v="41299" />
	</node>
	<node id="-232580" lat="59.2212333367" lon="9.26194721644">
		<tag k="name" v="Kåvan" />
		<tag k="natural" v="bay" />
		<tag k="ssr:stedsnr" v="40896" />
	</node>
	<node id="-232578" lat="59.2048611138" lon="9.22877778127">
		<tag k="name" v="Store Ormtjønn" />
		<tag k="natural" v="water" />
		<tag k="ssr:stedsnr" v="40919" />
	</node>
	<node id="-232572" lat="59.2956527819" lon="9.27158888242">
		<tag k="name" v="Kirkestranda" />
		<tag k="natural" v="beach" />
		<tag k="ssr:stedsnr" v="27758" />
	</node>
	<node id="-232570" lat="59.3071694474" lon="9.17944999766">
		<tag k="name" v="Straumen" />
		<tag k="natural" v="bay" />
		<tag k="ssr:stedsnr" v="27733" />
	</node>
	<node id="-232557" lat="59.2440972259" lon="9.39880277511">
		<tag k="name" v="Lauvodde" />
		<tag k="natural" v="cape" />
		<tag k="old_name" v="Lauodde" />
		<tag k="ssr:stedsnr" v="25304" />
	</node>
	<node id="-232294" lat="59.22770833" lon="9.23699445177">
		<tag k="name" v="Kupinn" />
		<tag k="place" v="islet" />
		<tag k="ssr:stedsnr" v="359959" />
	</node>
	<node id="-232542" lat="59.3192666658" lon="9.02632499367">
		<tag k="name" v="Hegnaevja" />
		<tag k="natural" v="bay" />
		<tag k="ssr:stedsnr" v="24335" />
	</node>
	<node id="-232532" lat="59.3224833331" lon="9.00885556082">
		<tag k="name" v="Gisholtevja" />
		<tag k="natural" v="bay" />
		<tag k="ssr:stedsnr" v="23356" />
	</node>
	<node id="-232526" lat="59.3140861125" lon="9.25789443806">
		<tag k="name" v="Sandnesevja" />
		<tag k="natural" v="bay" />
		<tag k="ssr:stedsnr" v="2752" />
	</node>
	<node id="-232521" lat="59.2966861083" lon="8.8414888885">
		<tag k="name" v="Grimnesodden" />
		<tag k="natural" v="cape" />
		<tag k="ssr:stedsnr" v="2695" />
	</node>
	<node id="-232508" lat="59.322625004" lon="9.15414443724">
		<tag k="alt_name" v="Høgmyrbekken" />
		<tag k="name" v="Høymyrbekken" />
		<tag k="ssr:stedsnr" v="2200" />
		<tag k="waterway" v="stream" />
	</node>
	<node id="-232500" lat="59.2932500041" lon="9.15002499483">
		<tag k="alt_name" v="Nome" />
		<tag k="name" v="Nomevatn" />
		<tag k="natural" v="water" />
		<tag k="ssr:stedsnr" v="2137" />
		<tag k="water" v="lake" />
	</node>
	<node id="-232495" lat="59.2303888856" lon="9.1417194446">
		<tag k="alt_name" v="Minnesjøen, store;Minnesjø" />
		<tag k="name" v="Store Minnesjøen" />
		<tag k="natural" v="water" />
		<tag k="ssr:stedsnr" v="1385" />
		<tag k="water" v="lake" />
	</node>
	<node id="-232492" lat="59.2334777817" lon="9.43057778325">
		<tag k="alt_name" v="Munken, l" />
		<tag k="name" v="Lille Munken" />
		<tag k="place" v="islet" />
		<tag k="ssr:stedsnr" v="1046" />
	</node>
	<node id="-232488" lat="59.3786249961" lon="9.12335278394">
		<tag k="alt_name" v="Ljosvatn" />
		<tag k="name" v="Store Ljosvatn" />
		<tag k="natural" v="water" />
		<tag k="old_name" v="Ljostjørna, store;Store Ljostjørna" />
		<tag k="ssr:stedsnr" v="427365" />
	</node>
	<node id="-232473" lat="59.2225283004" lon="9.02197516184">
		<tag k="alt_name" v="Svarttjønnbekken" />
		<tag k="name" v="Svarttjernbekken" />
		<tag k="ssr:stedsnr" v="305429" />
		<tag k="waterway" v="stream" />
	</node>
	<node id="-232456" lat="59.3486722218" lon="9.0845777735">
		<tag k="name" v="Noremstjønnane" />
		<tag k="natural" v="water" />
		<tag k="ssr:stedsnr" v="897130" />
		<tag k="water" v="lake" />
	</node>
	<node id="-232439" lat="59.1457388879" lon="9.18108888711">
		<tag k="alt_name" v="Blanktjern" />
		<tag k="name" v="Blomtjønn" />
		<tag k="natural" v="water" />
		<tag k="ssr:stedsnr" v="890678" />
	</node>
	<node id="-232438" lat="59.2665638866" lon="9.13269167191">
		<tag k="name" v="Bennyøy" />
		<tag k="place" v="islet" />
		<tag k="ssr:stedsnr" v="890640" />
	</node>
	<node id="-232435" lat="59.2442499964" lon="9.15388056212">
		<tag k="name" v="Kjerkebekken" />
		<tag k="ssr:stedsnr" v="890292" />
		<tag k="waterway" v="stream" />
	</node>
	<node id="-232431" lat="59.2421277783" lon="9.12481667045">
		<tag k="name" v="Fiskodde" />
		<tag k="natural" v="cape" />
		<tag k="ssr:stedsnr" v="890283" />
	</node>
	<node id="-232425" lat="59.2791416647" lon="9.31071944015">
		<tag k="name" v="Lysnesodden" />
		<tag k="natural" v="cape" />
		<tag k="ssr:stedsnr" v="890131" />
	</node>
	<node id="-232421" lat="59.2399722215" lon="9.22746667084">
		<tag k="name" v="Kroktjønnbekken" />
		<tag k="ssr:stedsnr" v="405995" />
		<tag k="waterway" v="stream" />
	</node>
	<node id="-232412" lat="59.2116888879" lon="9.26084443982">
		<tag k="name" v="Svarttjønn" />
		<tag k="natural" v="water" />
		<tag k="ssr:stedsnr" v="405894" />
	</node>
	<node id="-232395" lat="59.2180111156" lon="9.15667222881">
		<tag k="name" v="Lille Minnesjø" />
		<tag k="natural" v="water" />
		<tag k="ssr:stedsnr" v="237411" />
		<tag k="water" v="lake" />
	</node>
	<node id="-234433" lat="59.2873805599" lon="9.27604167459">
		<tag k="name" v="Torva" />
		<tag k="place" v="islet" />
		<tag k="ssr:stedsnr" v="966107" />
	</node>
	<node id="-232373" lat="59.2167833347" lon="9.31590556361">
		<tag k="name" v="Storøya" />
		<tag k="place" v="island" />
		<tag k="ssr:stedsnr" v="389827" />
	</node>
	<node id="-232369" lat="59.2678464273" lon="8.89140701246">
		<tag k="name" v="Solomtjønnane" />
		<tag k="natural" v="water" />
		<tag k="ssr:stedsnr" v="389524" />
	</node>
	<node id="-232368" lat="59.2655222234" lon="8.94514722">
		<tag k="name" v="Steinbutjønn" />
		<tag k="natural" v="water" />
		<tag k="ssr:stedsnr" v="389519" />
	</node>
	<node id="-234412" lat="59.2890777813" lon="9.13449722461">
		<tag k="name" v="Øygardsbekken" />
		<tag k="ssr:stedsnr" v="965437" />
		<tag k="waterway" v="stream" />
	</node>
	<node id="-234410" lat="59.2714416652" lon="9.10450833681">
		<tag k="name" v="Hauglandtjønna" />
		<tag k="natural" v="water" />
		<tag k="ssr:stedsnr" v="965401" />
	</node>
	<node id="-234409" lat="59.2237694486" lon="9.01842777827">
		<tag k="name" v="Svarttjønn" />
		<tag k="natural" v="water" />
		<tag k="ssr:stedsnr" v="965256" />
	</node>
	<node id="-232357" lat="59.2883444467" lon="8.87956388425">
		<tag k="name" v="Kjøya" />
		<tag k="natural" v="water" />
		<tag k="ssr:stedsnr" v="388413" />
		<tag k="water" v="pond" />
	</node>
	<node id="-232346" lat="59.2900305516" lon="8.90833055995">
		<tag k="name" v="Jungtjønn" />
		<tag k="natural" v="water" />
		<tag k="ssr:stedsnr" v="388207" />
	</node>
	<node id="-234393" lat="59.1515250001" lon="9.21369722007">
		<tag k="name" v="Vinterstranda" />
		<tag k="natural" v="beach" />
		<tag k="ssr:stedsnr" v="951669" />
	</node>
	<node id="-234391" lat="59.2576777786" lon="9.1243611094">
		<tag k="name" v="Røsstjønn" />
		<tag k="natural" v="water" />
		<tag k="ssr:stedsnr" v="951643" />
	</node>
	<node id="-234390" lat="59.263161107" lon="9.11673055165">
		<tag k="name" v="Sautjønn" />
		<tag k="natural" v="water" />
		<tag k="ssr:stedsnr" v="951637" />
	</node>
	<node id="-234388" lat="59.2817249971" lon="9.2945611059">
		<tag k="name" v="Gruteknabb" />
		<tag k="natural" v="bay" />
		<tag k="ssr:stedsnr" v="951159" />
	</node>
	<node id="-232337" lat="59.3042138868" lon="8.99340832621">
		<tag k="name" v="Gangetjønn" />
		<tag k="natural" v="water" />
		<tag k="ssr:stedsnr" v="388005" />
	</node>
	<node id="-234384" lat="59.2923638933" lon="9.26253611947">
		<tag k="name" v="Kastebukta" />
		<tag k="natural" v="bay" />
		<tag k="ssr:stedsnr" v="938747" />
	</node>
	<node id="-232335" lat="59.2891444426" lon="9.02319444174">
		<tag k="name" v="Løken" />
		<tag k="natural" v="water" />
		<tag k="ssr:stedsnr" v="387221" />
		<tag k="water" v="lake" />
	</node>
	<node id="-232332" lat="59.1962583375" lon="9.26248888433">
		<tag k="name" v="Hommevannet" />
		<tag k="natural" v="water" />
		<tag k="ssr:stedsnr" v="366870" />
	</node>
	<node id="-234378" lat="59.2633888849" lon="9.28707499593">
		<tag k="name" v="Håtveitbekken" />
		<tag k="ssr:stedsnr" v="937185" />
		<tag k="waterway" v="stream" />
	</node>
	<node id="-234374" lat="59.2472166659" lon="9.39719444143">
		<tag k="name" v="Helgjevik" />
		<tag k="natural" v="bay" />
		<tag k="ssr:stedsnr" v="936277" />
	</node>
	<node id="-232323" lat="59.3754250013" lon="9.08456666492">
		<tag k="name" v="Fiskebekken" />
		<tag k="ssr:stedsnr" v="366294" />
		<tag k="waterway" v="stream" />
	</node>
	<node id="-232321" lat="59.3504666644" lon="8.98461111278">
		<tag k="alt_name" v="Langetjørn" />
		<tag k="name" v="Langetjønn" />
		<tag k="natural" v="water" />
		<tag k="ssr:stedsnr" v="366259" />
		<tag k="water" v="lake" />
	</node>
	<node id="-232320" lat="59.3465166688" lon="8.99653611519">
		<tag k="name" v="Langåa" />
		<tag k="ssr:stedsnr" v="366257" />
		<tag k="waterway" v="stream" />
	</node>
	<node id="-232316" lat="59.3053638854" lon="8.88275833338">
		<tag k="alt_name" v="Gråhelle" />
		<tag k="name" v="Gråhellodden" />
		<tag k="natural" v="cape" />
		<tag k="ssr:stedsnr" v="366176" />
	</node>
	<node id="-234362" lat="59.230811112" lon="9.31672223058">
		<tag k="name" v="Bærvannsbekken" />
		<tag k="ssr:stedsnr" v="934987" />
		<tag k="waterway" v="stream" />
	</node>
	<node id="-232313" lat="59.2867805546" lon="8.95559165927">
		<tag k="alt_name" v="Fiskelaustjørn" />
		<tag k="name" v="Fiskelaustjønn" />
		<tag k="natural" v="water" />
		<tag k="ssr:stedsnr" v="366133" />
	</node>
	<node id="-232307" lat="59.2542055516" lon="9.07450554897">
		<tag k="alt_name" v="Sandtjønn" />
		<tag k="name" v="Sandtjørn" />
		<tag k="natural" v="water" />
		<tag k="ssr:stedsnr" v="366078" />
	</node>
	<node id="-234352" lat="59.3003805528" lon="9.14034721944">
		<tag k="name" v="Straumen" />
		<tag k="ssr:stedsnr" v="919654" />
		<tag k="waterway" v="river" />
	</node>
	<node id="-234351" lat="59.2587222192" lon="9.23294721916">
		<tag k="name" v="Nukebekken" />
		<tag k="ssr:stedsnr" v="913608" />
		<tag k="waterway" v="stream" />
	</node>
	<node id="-232295" lat="59.2424805532" lon="9.25439166946">
		<tag k="name" v="Steinbekken" />
		<tag k="ssr:stedsnr" v="359994" />
		<tag k="waterway" v="stream" />
	</node>
	<node id="-234342" lat="59.3350694467" lon="9.15865833961">
		<tag k="alt_name" v="Kroktjørn" />
		<tag k="name" v="Kroktjønn" />
		<tag k="natural" v="water" />
		<tag k="ssr:stedsnr" v="913215" />
	</node>
	<node id="-232293" lat="59.2902277788" lon="9.1754444387">
		<tag k="name" v="Nomevatn" />
		<tag k="natural" v="water" />
		<tag k="ssr:stedsnr" v="359908" />
		<tag k="water" v="lake" />
	</node>
	<node id="-234333" lat="59.2227611143" lon="9.09671111425">
		<tag k="name" v="Paddetjørn" />
		<tag k="natural" v="water" />
		<tag k="ssr:stedsnr" v="912443" />
	</node>
	<node id="-234332" lat="59.2432277769" lon="9.0643027806">
		<tag k="name" v="Katthol" />
		<tag k="natural" v="water" />
		<tag k="ssr:stedsnr" v="912423" />
	</node>
	<node id="-232279" lat="59.2221555532" lon="9.14946389726">
		<tag k="name" v="Minnesjøøyane" />
		<tag k="place" v="island" />
		<tag k="ssr:stedsnr" v="359441" />
	</node>
	<node id="-234326" lat="59.3209444475" lon="9.06367222439">
		<tag k="alt_name" v="Lundtveitvatnet" />
		<tag k="name" v="Lundtveitvatn" />
		<tag k="natural" v="water" />
		<tag k="ssr:stedsnr" v="912223" />
	</node>
	<node id="-234325" lat="59.3127277749" lon="8.93347223015">
		<tag k="name" v="Holmane" />
		<tag k="place" v="islet" />
		<tag k="ssr:stedsnr" v="912204" />
	</node>
	<node id="-232275" lat="59.2833305534" lon="9.27248055681">
		<tag k="name" v="Øra" />
		<tag k="natural" v="cape" />
		<tag k="ssr:stedsnr" v="359092" />
	</node>
	<node id="-234322" lat="59.2722361126" lon="8.84399444142">
		<tag k="alt_name" v="Furuvatn, nedre" />
		<tag k="name" v="Nedre Furuvatn" />
		<tag k="natural" v="water" />
		<tag k="ssr:stedsnr" v="912130" />
		<tag k="water" v="lake" />
	</node>
	<node id="-232273" lat="59.1919583289" lon="9.27908333961">
		<tag k="name" v="Svarttjønn" />
		<tag k="natural" v="water" />
		<tag k="ssr:stedsnr" v="358808" />
	</node>
	<node id="-234319" lat="59.2595777749" lon="8.98033888384">
		<tag k="alt_name" v="Linfjelltjørn" />
		<tag k="name" v="Linfjelltjønn" />
		<tag k="natural" v="water" />
		<tag k="ssr:stedsnr" v="912105" />
	</node>
	<node id="-232270" lat="59.2593444445" lon="9.23579723081">
		<tag k="name" v="Nukebekken" />
		<tag k="ssr:stedsnr" v="358105" />
		<tag k="waterway" v="stream" />
	</node>
	<node id="-234317" lat="59.2363000035" lon="9.29848333754">
		<tag k="alt_name" v="Skiftestjern, nedre" />
		<tag k="name" v="Skiftetjønnane" />
		<tag k="natural" v="water" />
		<tag k="old_name" v="Skiftsetjerna, nedre" />
		<tag k="ssr:stedsnr" v="912046" />
	</node>
	<node id="-232267" lat="59.2210777791" lon="9.27190832517">
		<tag k="name" v="Langøya" />
		<tag k="place" v="islet" />
		<tag k="ssr:stedsnr" v="344892" />
	</node>
	<node id="-232266" lat="59.2228527741" lon="9.27860833856">
		<tag k="name" v="Lauvbukta" />
		<tag k="natural" v="bay" />
		<tag k="ssr:stedsnr" v="344889" />
	</node>
	<node id="-232261" lat="59.3105777823" lon="9.08554166049">
		<tag k="name" v="Oddeevja" />
		<tag k="natural" v="bay" />
		<tag k="ssr:stedsnr" v="344747" />
	</node>
	<node id="-232259" lat="59.1465111066" lon="9.21874723043">
		<tag k="name" v="Pondalskilen" />
		<tag k="natural" v="bay" />
		<tag k="ssr:stedsnr" v="344673" />
	</node>
	<node id="-234303" lat="59.2016277785" lon="9.26183055211">
		<tag k="name" v="Svartetjønn" />
		<tag k="natural" v="water" />
		<tag k="ssr:stedsnr" v="905862" />
	</node>
	<node id="-232251" lat="59.2123305546" lon="9.18020000719">
		<tag k="name" v="Gnagopptangen" />
		<tag k="natural" v="cape" />
		<tag k="ssr:stedsnr" v="344995" />
	</node>
	<node id="-234293" lat="59.1690000021" lon="9.24491110442">
		<tag k="name" v="Lomtjønn" />
		<tag k="natural" v="water" />
		<tag k="ssr:stedsnr" v="905770" />
	</node>
	<node id="-234288" lat="59.253680552" lon="9.13263611005">
		<tag k="name" v="Snikodden" />
		<tag k="natural" v="cape" />
		<tag k="ssr:stedsnr" v="905632" />
	</node>
	<node id="-234283" lat="59.2933277752" lon="9.08657500045">
		<tag k="name" v="Skoeelva" />
		<tag k="ssr:stedsnr" v="905363" />
		<tag k="waterway" v="river" />
	</node>
	<node id="-232226" lat="59.3434749977" lon="9.06754444273">
		<tag k="name" v="Suvdaltjønn" />
		<tag k="natural" v="water" />
		<tag k="ssr:stedsnr" v="328642" />
	</node>
	<node id="-232225" lat="59.269908334" lon="8.85458610961">
		<tag k="name" v="Mellomvasstjønn" />
		<tag k="natural" v="water" />
		<tag k="ssr:stedsnr" v="328483" />
	</node>
	<node id="-232214" lat="59.3251962747" lon="9.14479891547">
		<tag k="name" v="Fiskelausbekken" />
		<tag k="ssr:stedsnr" v="328088" />
		<tag k="waterway" v="stream" />
	</node>
	<node id="-232211" lat="59.350241663" lon="9.02328610517">
		<tag k="name" v="Horstjønnbekken" />
		<tag k="ssr:stedsnr" v="327332" />
		<tag k="waterway" v="stream" />
	</node>
	<node id="-232210" lat="59.2595861114" lon="9.02068610759">
		<tag k="name" v="Røytjønn" />
		<tag k="natural" v="water" />
		<tag k="ssr:stedsnr" v="327157" />
	</node>
	<node id="-232208" lat="59.343127776" lon="8.96002221754">
		<tag k="name" v="Flomtjønnbærnuta" />
		<tag k="natural" v="water" />
		<tag k="ssr:stedsnr" v="327107" />
	</node>
	<node id="-232206" lat="59.3733861146" lon="9.12583333385">
		<tag k="alt_name" v="Svarttjørn" />
		<tag k="name" v="Svarttjønn" />
		<tag k="natural" v="water" />
		<tag k="ssr:stedsnr" v="313681" />
	</node>
	<node id="-232204" lat="59.3312083378" lon="9.24896667195">
		<tag k="name" v="Petvikodden" />
		<tag k="natural" v="cape" />
		<tag k="ssr:stedsnr" v="306852" />
	</node>
	<node id="-234250" lat="59.3529972232" lon="9.04346666159">
		<tag k="name" v="Gryteåa" />
		<tag k="ssr:stedsnr" v="874373" />
		<tag k="waterway" v="river" />
	</node>
	<node id="-232200" lat="59.2616000011" lon="9.23990833533">
		<tag k="alt_name" v="Damtjenn" />
		<tag k="name" v="Damtjørn" />
		<tag k="natural" v="water" />
		<tag k="ssr:stedsnr" v="306592" />
	</node>
	<node id="-234246" lat="59.312549996" lon="8.92477499521">
		<tag k="name" v="Tullodden" />
		<tag k="natural" v="cape" />
		<tag k="ssr:stedsnr" v="874301" />
	</node>
	<node id="-232196" lat="59.3282527774" lon="8.90612222967">
		<tag k="alt_name" v="Åmnestjørna, heimre" />
		<tag k="name" v="Heimare Omnestjønn" />
		<tag k="natural" v="water" />
		<tag k="ssr:stedsnr" v="306214" />
	</node>
	<node id="-232195" lat="59.3246222184" lon="8.88975556221">
		<tag k="name" v="Kilheitjørna" />
		<tag k="natural" v="water" />
		<tag k="ssr:stedsnr" v="306212" />
	</node>
	<node id="-232188" lat="59.2239805586" lon="9.26377499208">
		<tag k="alt_name" v="Stavsjø, øvre" />
		<tag k="name" v="Øvre Stavsjø" />
		<tag k="natural" v="water" />
		<tag k="ssr:stedsnr" v="305944" />
		<tag k="water" v="lake" />
	</node>
	<node id="-234232" lat="59.2820861145" lon="9.0492194423">
		<tag k="name" v="Nedre Trytetjønn" />
		<tag k="natural" v="water" />
		<tag k="ssr:stedsnr" v="873230" />
	</node>
	<node id="-234231" lat="59.2722749973" lon="9.01604445138">
		<tag k="name" v="Eivindstulelva" />
		<tag k="ssr:stedsnr" v="873144" />
		<tag k="waterway" v="river" />
	</node>
	<node id="-234229" lat="59.3250722226" lon="9.2404499947">
		<tag k="name" v="Ullevikbogen" />
		<tag k="natural" v="bay" />
		<tag k="ssr:stedsnr" v="852858" />
	</node>
	<node id="-232180" lat="59.2454305574" lon="9.14897222257">
		<tag k="alt_name" v="Grinitjønn" />
		<tag k="name" v="Grinitjørn" />
		<tag k="natural" v="water" />
		<tag k="ssr:stedsnr" v="305427" />
	</node>
	<node id="-234227" lat="59.3045333377" lon="9.27673332677">
		<tag k="name" v="Steinholtbukta" />
		<tag k="natural" v="bay" />
		<tag k="ssr:stedsnr" v="852759" />
	</node>
	<node id="-234226" lat="59.2787055514" lon="9.35607778566">
		<tag k="alt_name" v="Skipsnesodden" />
		<tag k="name" v="Skiftenesodden" />
		<tag k="natural" v="cape" />
		<tag k="ssr:stedsnr" v="852707" />
	</node>
	<node id="-232177" lat="59.1833000009" lon="9.1870555623">
		<tag k="name" v="Blankvatnet" />
		<tag k="natural" v="water" />
		<tag k="ssr:stedsnr" v="305371" />
	</node>
	<node id="-234224" lat="59.2879388868" lon="9.26314443612">
		<tag k="name" v="Strømodden" />
		<tag k="natural" v="cape" />
		<tag k="ssr:stedsnr" v="852682" />
	</node>
	<node id="-234222" lat="59.3686249993" lon="9.09488610914">
		<tag k="alt_name" v="Deilbekk" />
		<tag k="name" v="Deildbekken" />
		<tag k="ssr:stedsnr" v="852297" />
		<tag k="waterway" v="stream" />
	</node>
	<node id="-232173" lat="59.1670749992" lon="9.20930277538">
		<tag k="alt_name" v="Prestevatn" />
		<tag k="name" v="Prestevatnet" />
		<tag k="natural" v="water" />
		<tag k="ssr:stedsnr" v="305280" />
	</node>
	<node id="-234220" lat="59.3454861156" lon="9.03188056008">
		<tag k="alt_name" v="Horstjørn" />
		<tag k="name" v="Horstjønn" />
		<tag k="natural" v="water" />
		<tag k="ssr:stedsnr" v="852263" />
	</node>
	<node id="-232170" lat="59.3255111083" lon="9.16698332852">
		<tag k="alt_name" v="Igletjørn" />
		<tag k="name" v="Igletjønn" />
		<tag k="natural" v="water" />
		<tag k="ssr:stedsnr" v="305204" />
	</node>
	<node id="-232167" lat="59.3152555586" lon="9.12059445055">
		<tag k="name" v="Barlaugelva" />
		<tag k="ssr:stedsnr" v="305172" />
		<tag k="waterway" v="stream" />
	</node>
	<node id="-232160" lat="59.2698777741" lon="9.08774999182">
		<tag k="alt_name" v="Dalatjønn" />
		<tag k="name" v="Dalatjørna" />
		<tag k="natural" v="water" />
		<tag k="ssr:stedsnr" v="305098" />
	</node>
	<node id="-232159" lat="59.2600777752" lon="9.14168888037">
		<tag k="alt_name" v="Tyri" />
		<tag k="name" v="Tyrivatn" />
		<tag k="natural" v="water" />
		<tag k="ssr:stedsnr" v="305082" />
		<tag k="water" v="lake" />
	</node>
	<node id="-232157" lat="59.2339527803" lon="9.27323888148">
		<tag k="alt_name" v="Store Setertjønn" />
		<tag k="name" v="Sætertjern" />
		<tag k="natural" v="water" />
		<tag k="ssr:stedsnr" v="305051" />
	</node>
	<node id="-232153" lat="59.2440861156" lon="9.21868054694">
		<tag k="alt_name" v="Siljutjønn" />
		<tag k="name" v="Siljutjern" />
		<tag k="natural" v="water" />
		<tag k="ssr:stedsnr" v="304050" />
	</node>
	<node id="-232152" lat="59.2858527788" lon="9.27898333475">
		<tag k="name" v="Norsjø" />
		<tag k="natural" v="water" />
		<tag k="ssr:stedsnr" v="299096" />
		<tag k="water" v="lake" />
	</node>
	<node id="-234197" lat="59.1526638895" lon="9.20386389083">
		<tag k="alt_name" v="Kroktjønn" />
		<tag k="name" v="Kroktjern" />
		<tag k="natural" v="water" />
		<tag k="ssr:stedsnr" v="851250" />
	</node>
	<node id="-234196" lat="59.2368472196" lon="9.31331111744">
		<tag k="name" v="Bærevann" />
		<tag k="natural" v="water" />
		<tag k="ssr:stedsnr" v="851052" />
	</node>
	<node id="-232146" lat="59.1950638927" lon="9.26747500196">
		<tag k="name" v="Nedre Hommevatn" />
		<tag k="natural" v="water" />
		<tag k="ssr:stedsnr" v="298815" />
		<tag k="water" v="lake" />
	</node>
	<node id="-232144" lat="59.1794555562" lon="9.20494166054">
		<tag k="name" v="Serktjønn" />
		<tag k="natural" v="water" />
		<tag k="ssr:stedsnr" v="298806" />
	</node>
	<node id="-234189" lat="59.2822861143" lon="9.23752223054">
		<tag k="name" v="Lanna" />
		<tag k="natural" v="beach" />
		<tag k="ssr:stedsnr" v="845124" />
	</node>
	<node id="-234182" lat="59.2280194409" lon="9.2378583311">
		<tag k="name" v="Tørkenholm" />
		<tag k="place" v="islet" />
		<tag k="ssr:stedsnr" v="844966" />
	</node>
	<node id="-232133" lat="59.1880805575" lon="9.18173888113">
		<tag k="name" v="Trytetjønnbekken" />
		<tag k="ssr:stedsnr" v="298656" />
		<tag k="waterway" v="stream" />
	</node>
	<node id="-234180" lat="59.234008333" lon="9.27898610638">
		<tag k="name" v="Murefjelltjønnane" />
		<tag k="natural" v="water" />
		<tag k="ssr:stedsnr" v="844946" />
	</node>
	<node id="-232131" lat="59.2549222187" lon="9.09537777251">
		<tag k="name" v="Nedre Meheitjønn" />
		<tag k="natural" v="water" />
		<tag k="ssr:stedsnr" v="298554" />
	</node>
	<node id="-232129" lat="59.2860527817" lon="9.16501389025">
		<tag k="name" v="Skårdalsbekken" />
		<tag k="ssr:stedsnr" v="298398" />
		<tag k="waterway" v="stream" />
	</node>
	<node id="-232127" lat="59.2076833357" lon="9.09184444442">
		<tag k="name" v="Langoddtjønn" />
		<tag k="natural" v="water" />
		<tag k="ssr:stedsnr" v="298312" />
	</node>
	<node id="-232126" lat="59.2271194453" lon="9.03659999519">
		<tag k="name" v="Sverdaltjønn" />
		<tag k="natural" v="water" />
		<tag k="ssr:stedsnr" v="298217" />
	</node>
	<node id="-232123" lat="59.3177055565" lon="9.02970833845">
		<tag k="name" v="Saltevja" />
		<tag k="natural" v="bay" />
		<tag k="ssr:stedsnr" v="297137" />
	</node>
	<node id="-232121" lat="59.2994694449" lon="9.16558054682">
		<tag k="name" v="Steinfoss" />
		<tag k="ssr:stedsnr" v="284774" />
		<tag k="waterway" v="rapids" />
	</node>
	<node id="-234168" lat="59.2487916678" lon="9.11118333909">
		<tag k="name" v="Smørbubekken" />
		<tag k="ssr:stedsnr" v="844569" />
		<tag k="waterway" v="stream" />
	</node>
	<node id="-232117" lat="59.1547083363" lon="9.2139833343">
		<tag k="name" v="Brenteodden" />
		<tag k="natural" v="cape" />
		<tag k="ssr:stedsnr" v="284668" />
	</node>
	<node id="-234163" lat="59.2070694467" lon="9.09078332783">
		<tag k="name" v="Langodde" />
		<tag k="natural" v="cape" />
		<tag k="ssr:stedsnr" v="844318" />
	</node>
	<node id="-234162" lat="59.207583336" lon="9.08884999448">
		<tag k="name" v="Runde Langoddetjønn" />
		<tag k="natural" v="water" />
		<tag k="ssr:stedsnr" v="844316" />
	</node>
	<node id="-234158" lat="59.211550004" lon="9.17242500371">
		<tag k="name" v="Jutulbrua" />
		<tag k="natural" v="cape" />
		<tag k="ssr:stedsnr" v="830985" />
	</node>
	<node id="-232109" lat="59.2203361132" lon="9.26847221515">
		<tag k="name" v="Lensmannsøya" />
		<tag k="place" v="islet" />
		<tag k="ssr:stedsnr" v="283895" />
	</node>
	<node id="-232108" lat="59.2218055588" lon="9.2731000028">
		<tag k="name" v="Torgrim" />
		<tag k="place" v="islet" />
		<tag k="ssr:stedsnr" v="283887" />
	</node>
	<node id="-232107" lat="59.2225805524" lon="9.26478334111">
		<tag k="name" v="Eldhusstranna" />
		<tag k="natural" v="beach" />
		<tag k="ssr:stedsnr" v="283884" />
	</node>
	<node id="-232103" lat="59.2747055549" lon="9.33477221541">
		<tag k="name" v="Febakkebekken" />
		<tag k="ssr:stedsnr" v="283106" />
		<tag k="waterway" v="stream" />
	</node>
	<node id="-234150" lat="59.2932305554" lon="9.08634444631">
		<tag k="name" v="Skoeelva" />
		<tag k="ssr:stedsnr" v="830723" />
		<tag k="waterway" v="river" />
	</node>
	<node id="-234149" lat="59.1592749966" lon="9.21748332709">
		<tag k="name" v="Cappelenbukta" />
		<tag k="natural" v="bay" />
		<tag k="ssr:stedsnr" v="830673" />
	</node>
	<node id="-234148" lat="59.1448305601" lon="9.17081110472">
		<tag k="name" v="Venetjønn" />
		<tag k="natural" v="water" />
		<tag k="ssr:stedsnr" v="830647" />
	</node>
	<node id="-234145" lat="59.2941333364" lon="9.22428611309">
		<tag k="name" v="Eidselva" />
		<tag k="ssr:stedsnr" v="815740" />
		<tag k="waterway" v="river" />
	</node>
	<node id="-234144" lat="59.2646638874" lon="8.98543054997">
		<tag k="name" v="Linfjellbekken" />
		<tag k="ssr:stedsnr" v="815731" />
		<tag k="waterway" v="stream" />
	</node>
	<node id="-234139" lat="59.2158555535" lon="9.26594166007">
		<tag k="name" v="Røybekk" />
		<tag k="ssr:stedsnr" v="815375" />
		<tag k="waterway" v="stream" />
	</node>
	<node id="-234131" lat="59.3748055521" lon="9.07399999653">
		<tag k="name" v="Sagbekken" />
		<tag k="ssr:stedsnr" v="814611" />
		<tag k="waterway" v="stream" />
	</node>
	<node id="-234111" lat="59.3576111092" lon="9.04879722128">
		<tag k="name" v="Kjøltjønn" />
		<tag k="natural" v="water" />
		<tag k="ssr:stedsnr" v="813402" />
	</node>
	<node id="-234107" lat="59.3426527752" lon="9.00504166066">
		<tag k="name" v="Svarttjønn" />
		<tag k="natural" v="water" />
		<tag k="ssr:stedsnr" v="813365" />
	</node>
	<node id="-234102" lat="59.3424944432" lon="8.90275277149">
		<tag k="name" v="Bokketjønn" />
		<tag k="natural" v="water" />
		<tag k="ssr:stedsnr" v="813196" />
		<tag k="water" v="pond" />
	</node>
	<node id="-234097" lat="59.2862861096" lon="8.99938888639">
		<tag k="name" v="Igletjønnbekken" />
		<tag k="ssr:stedsnr" v="813066" />
		<tag k="waterway" v="stream" />
	</node>
	<node id="-234093" lat="59.2992361126" lon="8.98117222391">
		<tag k="name" v="Småtjønnane" />
		<tag k="natural" v="water" />
		<tag k="ssr:stedsnr" v="813001" />
	</node>
	<node id="-234090" lat="59.3117027819" lon="9.27173888298">
		<tag k="alt_name" v="Langodden" />
		<tag k="name" v="Langodde" />
		<tag k="natural" v="cape" />
		<tag k="ssr:stedsnr" v="791759" />
	</node>
	<node id="-234089" lat="59.3102888887" lon="9.27137500461">
		<tag k="alt_name" v="Kammerherrebåsen" />
		<tag k="name" v="Båsen" />
		<tag k="natural" v="bay" />
		<tag k="ssr:stedsnr" v="791757" />
	</node>
	<node id="-234088" lat="59.2775805554" lon="9.35263611594">
		<tag k="name" v="Nordbukta" />
		<tag k="natural" v="bay" />
		<tag k="ssr:stedsnr" v="791737" />
	</node>
	<node id="-234086" lat="59.2819780933" lon="9.29584300525">
		<tag k="name" v="Torsnes" />
		<tag k="natural" v="cape" />
		<tag k="ssr:stedsnr" v="791689" />
	</node>
	<node id="-234085" lat="59.2512194401" lon="9.34116944313">
		<tag k="alt_name" v="Hjøntveittjørn;Hjøntveittjern" />
		<tag k="name" v="Jøntvedttjønna" />
		<tag k="natural" v="water" />
		<tag k="ssr:stedsnr" v="791674" />
	</node>
	<node id="-234079" lat="59.3363416643" lon="9.04723055326">
		<tag k="alt_name" v="Stordalstjørna" />
		<tag k="name" v="Stordalstjønn" />
		<tag k="natural" v="water" />
		<tag k="ssr:stedsnr" v="791273" />
	</node>
	<node id="-234076" lat="59.3156499995" lon="9.15569166804">
		<tag k="alt_name" v="Lintjørn" />
		<tag k="name" v="Lintjønn" />
		<tag k="natural" v="water" />
		<tag k="ssr:stedsnr" v="791189" />
	</node>
	<node id="-234068" lat="59.2967111148" lon="9.0009972215">
		<tag k="alt_name" v="Fristjørn" />
		<tag k="name" v="Fristjønn" />
		<tag k="natural" v="water" />
		<tag k="ssr:stedsnr" v="791151" />
	</node>
	<node id="-234062" lat="59.2687777759" lon="8.98865832534">
		<tag k="name" v="Sauåselva" />
		<tag k="ssr:stedsnr" v="791120" />
		<tag k="waterway" v="river" />
	</node>
	<node id="-234054" lat="59.1526333348" lon="9.2784972288">
		<tag k="alt_name" v="Blanketjern" />
		<tag k="name" v="Blanktjenn" />
		<tag k="natural" v="water" />
		<tag k="ssr:stedsnr" v="790957" />
	</node>
	<node id="-234051" lat="59.223066664" lon="9.10578888649">
		<tag k="alt_name" v="Tranetjønn" />
		<tag k="name" v="Tranetjørn" />
		<tag k="natural" v="water" />
		<tag k="ssr:stedsnr" v="790435" />
	</node>
	<node id="-234035" lat="59.1998361153" lon="9.2641305641">
		<tag k="name" v="Husebekk" />
		<tag k="ssr:stedsnr" v="783854" />
		<tag k="waterway" v="stream" />
	</node>
	<node id="-234025" lat="59.1928305558" lon="9.17874999297">
		<tag k="name" v="Masttjønn" />
		<tag k="natural" v="water" />
		<tag k="ssr:stedsnr" v="783674" />
	</node>
	<node id="-234022" lat="59.2548194479" lon="9.11881388191">
		<tag k="name" v="Jutultjønn" />
		<tag k="natural" v="water" />
		<tag k="ssr:stedsnr" v="783604" />
	</node>
	<node id="-234020" lat="59.2133055567" lon="9.10116944334">
		<tag k="name" v="Krabbestultjønn" />
		<tag k="natural" v="water" />
		<tag k="ssr:stedsnr" v="783304" />
	</node>
	<node id="-234012" lat="59.2071472201" lon="9.19100277549">
		<tag k="name" v="Kåsatangen" />
		<tag k="natural" v="cape" />
		<tag k="ssr:stedsnr" v="769983" />
	</node>
	<node id="-233981" lat="59.3299416634" lon="9.18298055746">
		<tag k="name" v="Gangsjåbekken" />
		<tag k="ssr:stedsnr" v="755531" />
		<tag k="waterway" v="stream" />
	</node>
	<node id="-233979" lat="59.2376055524" lon="9.35280833308">
		<tag k="name" v="Russtjønn" />
		<tag k="natural" v="water" />
		<tag k="ssr:stedsnr" v="754484" />
	</node>
	<node id="-233976" lat="59.3370138888" lon="9.14823055967">
		<tag k="name" v="Linnadalsbekken" />
		<tag k="ssr:stedsnr" v="753885" />
		<tag k="waterway" v="stream" />
	</node>
	<node id="-233974" lat="59.2244388913" lon="9.31374722345">
		<tag k="name" v="Skiftetjønnbekken" />
		<tag k="ssr:stedsnr" v="753817" />
		<tag k="waterway" v="rapids" />
	</node>
	<node id="-233964" lat="59.2520638878" lon="9.40070278049">
		<tag k="name" v="Svarthol" />
		<tag k="natural" v="bay" />
		<tag k="ssr:stedsnr" v="753248" />
	</node>
	<node id="-233957" lat="59.332383337" lon="9.15868611849">
		<tag k="name" v="Nedre Kroktjønn" />
		<tag k="natural" v="water" />
		<tag k="ssr:stedsnr" v="753070" />
	</node>
	<node id="-233932" lat="59.3263777752" lon="8.87621943851">
		<tag k="alt_name" v="Damtjørn" />
		<tag k="name" v="Damtjønn" />
		<tag k="natural" v="water" />
		<tag k="ssr:stedsnr" v="731175" />
	</node>
	<node id="-233931" lat="59.2898388921" lon="8.86883888911">
		<tag k="name" v="Ervingsdalselva" />
		<tag k="ssr:stedsnr" v="731128" />
		<tag k="waterway" v="river" />
	</node>
	<node id="-233930" lat="59.2887055583" lon="9.09208054761">
		<tag k="name" v="Skoeelva" />
		<tag k="ssr:stedsnr" v="731111" />
		<tag k="waterway" v="stream" />
	</node>
	<node id="-233928" lat="59.315744442" lon="9.26230833509">
		<tag k="alt_name" v="Bukkøya" />
		<tag k="name" v="Sandnesøya" />
		<tag k="place" v="island" />
		<tag k="ssr:stedsnr" v="730795" />
	</node>
	<node id="-233926" lat="59.2823805596" lon="8.82530278167">
		<tag k="alt_name" v="Igletjørn" />
		<tag k="name" v="Igletjønn" />
		<tag k="natural" v="water" />
		<tag k="ssr:stedsnr" v="730772" />
	</node>
	<node id="-233922" lat="59.2284250006" lon="9.13101943762">
		<tag k="alt_name" v="Lintjønn" />
		<tag k="name" v="Lintjørn" />
		<tag k="natural" v="water" />
		<tag k="ssr:stedsnr" v="730441" />
	</node>
	<node id="-233921" lat="59.2156555522" lon="9.09735833617">
		<tag k="alt_name" v="Svanetjørn" />
		<tag k="name" v="Svanetjønn" />
		<tag k="natural" v="water" />
		<tag k="ssr:stedsnr" v="730423" />
	</node>
	<node id="-233919" lat="59.2409499971" lon="9.09834166538">
		<tag k="alt_name" v="Skardetjønn" />
		<tag k="name" v="Skardtjørna" />
		<tag k="natural" v="water" />
		<tag k="ssr:stedsnr" v="730413" />
	</node>
	<node id="-233911" lat="59.3186361123" lon="8.89473054972">
		<tag k="alt_name" v="Kvernåa" />
		<tag k="name" v="Kvennåa" />
		<tag k="ssr:stedsnr" v="730205" />
		<tag k="waterway" v="stream" />
	</node>
	<node id="-233905" lat="59.2673638877" lon="9.10774166779">
		<tag k="alt_name" v="Hauglandstjønna" />
		<tag k="name" v="Hauglandstjørna" />
		<tag k="natural" v="water" />
		<tag k="ssr:stedsnr" v="730075" />
	</node>
	<node id="-232178" lat="59.1863083368" lon="9.18278333028">
		<tag k="alt_name" v="Trytetjønn" />
		<tag k="name" v="Tryttjern" />
		<tag k="natural" v="water" />
		<tag k="ssr:stedsnr" v="305382" />
	</node>
	<node id="-233895" lat="59.164975002" lon="9.20316388976">
		<tag k="name" v="Prestvatnsbekken" />
		<tag k="ssr:stedsnr" v="723811" />
		<tag k="waterway" v="stream" />
	</node>
	<node id="-233893" lat="59.174455556" lon="9.21348055436">
		<tag k="name" v="Småtjønnane" />
		<tag k="natural" v="water" />
		<tag k="ssr:stedsnr" v="723807" />
	</node>
	<node id="-233892" lat="59.1946583294" lon="9.27682778098">
		<tag k="name" v="Grunntjønn" />
		<tag k="natural" v="water" />
		<tag k="ssr:stedsnr" v="723788" />
	</node>
	<node id="-233884" lat="59.1835222218" lon="9.22029444885">
		<tag k="name" v="Lilleøya" />
		<tag k="place" v="islet" />
		<tag k="ssr:stedsnr" v="723683" />
	</node>
	<node id="-233883" lat="59.1837777779" lon="9.18653610378">
		<tag k="name" v="Blankvatn" />
		<tag k="natural" v="water" />
		<tag k="ssr:stedsnr" v="723680" />
		<tag k="water" v="lake" />
	</node>
	<node id="-233882" lat="59.2038361138" lon="9.21951111451">
		<tag k="name" v="Ormetjønnbekken" />
		<tag k="ssr:stedsnr" v="723673" />
		<tag k="waterway" v="stream" />
	</node>
	<node id="-232174" lat="59.1715972262" lon="9.19815277077">
		<tag k="alt_name" v="Langtjønn" />
		<tag k="name" v="Langtjern" />
		<tag k="natural" v="water" />
		<tag k="ssr:stedsnr" v="305284" />
	</node>
	<node id="-233869" lat="59.3441694442" lon="9.09170555572">
		<tag k="name" v="Noremstjønna" />
		<tag k="natural" v="water" />
		<tag k="ssr:stedsnr" v="715123" />
		<tag k="water" v="lake" />
	</node>
	<node id="-233864" lat="59.2232027801" lon="9.26942222092">
		<tag k="name" v="Grønnøya" />
		<tag k="place" v="islet" />
		<tag k="ssr:stedsnr" v="708879" />
	</node>
	<node id="-233861" lat="59.3039388889" lon="9.10952778028">
		<tag k="name" v="Ajertangen" />
		<tag k="natural" v="cape" />
		<tag k="ssr:stedsnr" v="708726" />
	</node>
	<node id="-233855" lat="59.2292027775" lon="9.13669444081">
		<tag k="name" v="Moellbukta" />
		<tag k="natural" v="bay" />
		<tag k="ssr:stedsnr" v="708293" />
	</node>
	<node id="-233852" lat="59.2821722216" lon="9.29994167348">
		<tag k="name" v="Torsnesodden" />
		<tag k="natural" v="cape" />
		<tag k="ssr:stedsnr" v="708174" />
	</node>
	<node id="-233845" lat="59.3175972265" lon="9.25761388732">
		<tag k="name" v="Brattebergbukta" />
		<tag k="natural" v="bay" />
		<tag k="ssr:stedsnr" v="694707" />
	</node>
	<node id="-233821" lat="59.3589944448" lon="8.967005551">
		<tag k="name" v="Nedre Rugbøletjønn" />
		<tag k="natural" v="water" />
		<tag k="ssr:stedsnr" v="692191" />
	</node>
	<node id="-233815" lat="59.3477416653" lon="8.96623611739">
		<tag k="name" v="Svarteputt" />
		<tag k="natural" v="water" />
		<tag k="ssr:stedsnr" v="692093" />
		<tag k="water" v="pond" />
	</node>
	<node id="-233810" lat="59.3206888846" lon="8.98521943671">
		<tag k="name" v="Flomevja" />
		<tag k="natural" v="bay" />
		<tag k="ssr:stedsnr" v="692031" />
	</node>
	<node id="-233801" lat="59.2645222203" lon="9.23650833274">
		<tag k="alt_name" v="Tvaratjenn" />
		<tag k="name" v="Tvaratjørn" />
		<tag k="natural" v="water" />
		<tag k="ssr:stedsnr" v="670622" />
	</node>
	<node id="-233796" lat="59.3443611109" lon="8.94999722639">
		<tag k="alt_name" v="Høytjørn" />
		<tag k="name" v="Høytjønn" />
		<tag k="natural" v="water" />
		<tag k="ssr:stedsnr" v="670260" />
	</node>
	<node id="-233795" lat="59.3574611131" lon="9.07246389001">
		<tag k="name" v="Noremstjønna" />
		<tag k="natural" v="water" />
		<tag k="ssr:stedsnr" v="670239" />
		<tag k="water" v="lake" />
	</node>
	<node id="-233788" lat="59.307480554" lon="9.16580833085">
		<tag k="name" v="Tveitanevja" />
		<tag k="place" v="locality" />
		<tag k="ssr:stedsnr" v="670173" />
	</node>
	<node id="-233777" lat="59.274044443" lon="8.83831665961">
		<tag k="name" v="Furuvatnet, nordre" />
		<tag k="natural" v="water" />
		<tag k="ssr:stedsnr" v="669539" />
	</node>
	<node id="-233774" lat="59.2179916665" lon="9.16701388201">
		<tag k="alt_name" v="Bjorvik" />
		<tag k="name" v="Bjorvika" />
		<tag k="natural" v="bay" />
		<tag k="ssr:stedsnr" v="669423" />
	</node>
	<node id="-233773" lat="59.245222221" lon="9.11998889321">
		<tag k="name" v="Heimdalsvatnet" />
		<tag k="natural" v="water" />
		<tag k="ssr:stedsnr" v="669410" />
		<tag k="water" v="lake" />
	</node>
	<node id="-233760" lat="59.2654583291" lon="8.94553332881">
		<tag k="name" v="Steinbutjørna" />
		<tag k="natural" v="water" />
		<tag k="ssr:stedsnr" v="669089" />
	</node>
	<node id="-233759" lat="59.2512222266" lon="9.00933055667">
		<tag k="alt_name" v="Hestefjelltjørna" />
		<tag k="name" v="Hestefjelltjønn" />
		<tag k="natural" v="water" />
		<tag k="ssr:stedsnr" v="669076" />
	</node>
	<node id="-233758" lat="59.1852638845" lon="9.2720111163">
		<tag k="alt_name" v="Trolldalstjønn" />
		<tag k="name" v="Trolldalstjern" />
		<tag k="natural" v="water" />
		<tag k="ssr:stedsnr" v="668997" />
	</node>
	<node id="-233757" lat="59.2421749982" lon="9.23414721817">
		<tag k="alt_name" v="Hollatjønn" />
		<tag k="name" v="Hollatjørn" />
		<tag k="natural" v="water" />
		<tag k="ssr:stedsnr" v="668041" />
	</node>
	<node id="-233754" lat="59.150816671" lon="9.23704722032">
		<tag k="name" v="Taraldstjønn" />
		<tag k="natural" v="water" />
		<tag k="ssr:stedsnr" v="663660" />
	</node>
	<node id="-233751" lat="59.2797249977" lon="9.24229999132">
		<tag k="name" v="Heisholtevja" />
		<tag k="natural" v="water" />
		<tag k="ssr:stedsnr" v="663120" />
		<tag k="water" v="lake" />
	</node>
	<node id="-233736" lat="59.251183332" lon="9.13144444998">
		<tag k="name" v="Halvorståøy" />
		<tag k="place" v="islet" />
		<tag k="ssr:stedsnr" v="662617" />
	</node>
	<node id="-233729" lat="59.2361388879" lon="9.10245278358">
		<tag k="name" v="Springskott" />
		<tag k="ssr:stedsnr" v="662181" />
		<tag k="waterway" v="dam" />
	</node>
	<node id="-233721" lat="59.205786108" lon="9.19603054893">
		<tag k="name" v="Ugge-elva" />
		<tag k="ssr:stedsnr" v="647987" />
		<tag k="waterway" v="river" />
	</node>
	<node id="-233714" lat="59.2050611089" lon="9.23282500442">
		<tag k="name" v="Lille Ormtjønn" />
		<tag k="natural" v="water" />
		<tag k="ssr:stedsnr" v="647922" />
	</node>
	<node id="-233712" lat="59.2206027782" lon="9.27018056408">
		<tag k="name" v="Stavøy" />
		<tag k="place" v="islet" />
		<tag k="ssr:stedsnr" v="647906" />
	</node>
	<node id="-233707" lat="59.1588166675" lon="9.17873334173">
		<tag k="name" v="Grunnvatnsbekken" />
		<tag k="ssr:stedsnr" v="647687" />
		<tag k="waterway" v="stream" />
	</node>
	<node id="-233706" lat="59.1467972212" lon="9.22139444886">
		<tag k="name" v="Bøvatnsdammen" />
		<tag k="ssr:stedsnr" v="647672" />
		<tag k="waterway" v="dam" />
	</node>
	<node id="-233704" lat="59.146525004" lon="9.20911944326">
		<tag k="name" v="Forkletjønn" />
		<tag k="natural" v="water" />
		<tag k="ssr:stedsnr" v="647666" />
	</node>
	<node id="-233703" lat="59.2610361122" lon="9.11933333939">
		<tag k="name" v="Hauglandstjønna" />
		<tag k="natural" v="water" />
		<tag k="ssr:stedsnr" v="647639" />
	</node>
	<node id="-233698" lat="59.1562027807" lon="9.26558610934">
		<tag k="name" v="Svarttjenn" />
		<tag k="natural" v="water" />
		<tag k="ssr:stedsnr" v="635177" />
	</node>
	<node id="-233692" lat="59.3202722235" lon="9.21338610764">
		<tag k="name" v="Damtjønn" />
		<tag k="natural" v="water" />
		<tag k="old_name" v="Dammtjønn" />
		<tag k="ssr:stedsnr" v="633586" />
		<tag k="water" v="pond" />
	</node>
	<node id="-233690" lat="59.2416972218" lon="9.35041667084">
		<tag k="name" v="Harpetjønn" />
		<tag k="natural" v="water" />
		<tag k="ssr:stedsnr" v="632461" />
	</node>
	<node id="-233682" lat="59.2218583376" lon="9.31066388228">
		<tag k="name" v="Åletjønn" />
		<tag k="natural" v="water" />
		<tag k="ssr:stedsnr" v="631857" />
		<tag k="water" v="pond" />
	</node>
	<node id="-233681" lat="59.2178805595" lon="9.31190556102">
		<tag k="name" v="Brentøya" />
		<tag k="place" v="island" />
		<tag k="ssr:stedsnr" v="631849" />
	</node>
	<node id="-233674" lat="59.2931583321" lon="8.91190555285">
		<tag k="name" v="Vesle Jungetjønn" />
		<tag k="natural" v="water" />
		<tag k="ssr:stedsnr" v="631259" />
		<tag k="water" v="pond" />
	</node>
	<node id="-233660" lat="59.2296722266" lon="9.28204167229">
		<tag k="name" v="Dammannstjønn" />
		<tag k="natural" v="water" />
		<tag k="ssr:stedsnr" v="630979" />
	</node>
	<node id="-233655" lat="59.3471805575" lon="8.95685556119">
		<tag k="name" v="Limtjønnbærnuta" />
		<tag k="natural" v="water" />
		<tag k="ssr:stedsnr" v="630119" />
		<tag k="water" v="pond" />
	</node>
	<node id="-233651" lat="59.281500004" lon="9.27530554686">
		<tag k="name" v="Ringsevja" />
		<tag k="natural" v="bay" />
		<tag k="ssr:stedsnr" v="609653" />
	</node>
	<node id="-233648" lat="59.3412111128" lon="9.01404999319">
		<tag k="alt_name" v="Trytetjørnane" />
		<tag k="name" v="Trytetjønnane" />
		<tag k="natural" v="water" />
		<tag k="ssr:stedsnr" v="609264" />
	</node>
	<node id="-233647" lat="59.3528611122" lon="9.09701944693">
		<tag k="alt_name" v="Løkedalsbekken" />
		<tag k="name" v="Løkjedalsbekken" />
		<tag k="ssr:stedsnr" v="609252" />
		<tag k="waterway" v="stream" />
	</node>
	<node id="-233646" lat="59.3309111094" lon="8.95143610567">
		<tag k="alt_name" v="Flåmelva" />
		<tag k="name" v="Flomelva" />
		<tag k="ssr:stedsnr" v="609222" />
		<tag k="waterway" v="stream" />
	</node>
	<node id="-233642" lat="59.3000972205" lon="8.94850554953">
		<tag k="alt_name" v="Teigselva" />
		<tag k="name" v="Teigeelva" />
		<tag k="ssr:stedsnr" v="609161" />
		<tag k="waterway" v="stream" />
	</node>
	<node id="-233639" lat="59.2891055529" lon="9.01734166441">
		<tag k="alt_name" v="Kjelddalselva" />
		<tag k="name" v="Kjeldalelva" />
		<tag k="ssr:stedsnr" v="609146" />
		<tag k="waterway" v="river" />
	</node>
	<node id="-232134" lat="59.2047222232" lon="9.21993332484">
		<tag k="name" v="Svebekk" />
		<tag k="ssr:stedsnr" v="298663" />
		<tag k="waterway" v="stream" />
	</node>
	<node id="-233634" lat="59.2280696248" lon="9.23955596687">
		<tag k="name" v="Venomvann" />
		<tag k="natural" v="water" />
		<tag k="ssr:stedsnr" v="608954" />
	</node>
	<node id="-233627" lat="59.2568416706" lon="9.29298054746">
		<tag k="alt_name" v="Håtveittjørn" />
		<tag k="name" v="Håtveittjønn" />
		<tag k="natural" v="water" />
		<tag k="ssr:stedsnr" v="608707" />
	</node>
	<node id="-233618" lat="59.3489833296" lon="8.97265555996">
		<tag k="alt_name" v="Svartetjørn" />
		<tag k="name" v="Svartetjønn" />
		<tag k="natural" v="water" />
		<tag k="ssr:stedsnr" v="608248" />
	</node>
	<node id="-233617" lat="59.3229111108" lon="9.1657249995">
		<tag k="alt_name" v="Kroktjørnbekken" />
		<tag k="name" v="Kroktjønnbekken" />
		<tag k="ssr:stedsnr" v="608199" />
		<tag k="waterway" v="stream" />
	</node>
	<node id="-233611" lat="59.2636944473" lon="8.8574166637">
		<tag k="alt_name" v="Furuvatnet, yt" />
		<tag k="name" v="Ytre Furuvatn" />
		<tag k="natural" v="water" />
		<tag k="ssr:stedsnr" v="608088" />
	</node>
	<node id="-233602" lat="59.2290833297" lon="9.26296944711">
		<tag k="name" v="Eikeståbukta" />
		<tag k="natural" v="bay" />
		<tag k="ssr:stedsnr" v="601944" />
	</node>
	<node id="-233601" lat="59.2463555518" lon="9.27213888144">
		<tag k="name" v="Langåstjønn" />
		<tag k="natural" v="water" />
		<tag k="ssr:stedsnr" v="601927" />
	</node>
	<node id="-233599" lat="59.1636916668" lon="9.19907500762">
		<tag k="name" v="Bøvatn" />
		<tag k="natural" v="water" />
		<tag k="ssr:stedsnr" v="601825" />
		<tag k="water" v="lake" />
	</node>
	<node id="-233588" lat="59.2551055547" lon="9.13461388047">
		<tag k="name" v="Lauvåsdammen" />
		<tag k="ssr:stedsnr" v="601585" />
		<tag k="waterway" v="dam" />
	</node>
	<node id="-233576" lat="59.2086583359" lon="9.18879722547">
		<tag k="name" v="Sanddokka" />
		<tag k="natural" v="bay" />
		<tag k="ssr:stedsnr" v="586986" />
	</node>
	<node id="-233568" lat="59.2232861149" lon="9.25968610971">
		<tag k="name" v="Storøya" />
		<tag k="place" v="island" />
		<tag k="ssr:stedsnr" v="586874" />
	</node>
	<node id="-233534" lat="59.15485556" lon="9.28313611666">
		<tag k="name" v="Bjortjønn" />
		<tag k="natural" v="water" />
		<tag k="ssr:stedsnr" v="570582" />
	</node>
	<node id="-233524" lat="59.3016388928" lon="9.02741111283">
		<tag k="name" v="Hjerpedalsbekken" />
		<tag k="ssr:stedsnr" v="570211" />
		<tag k="waterway" v="stream" />
	</node>
	<node id="-233516" lat="59.3482777761" lon="8.94805000641">
		<tag k="name" v="Stavattjønn" />
		<tag k="natural" v="water" />
		<tag k="ssr:stedsnr" v="570085" />
	</node>
	<node id="-233514" lat="59.2719888914" lon="8.95095555029">
		<tag k="name" v="Presttjønn" />
		<tag k="natural" v="water" />
		<tag k="ssr:stedsnr" v="570076" />
	</node>
	<node id="-233509" lat="59.2201861123" lon="9.11705834091">
		<tag k="name" v="Sandalsbekken" />
		<tag k="ssr:stedsnr" v="557379" />
		<tag k="waterway" v="stream" />
	</node>
	<node id="-233508" lat="59.2728444445" lon="8.83570556089">
		<tag k="alt_name" v="Igletjørn" />
		<tag k="name" v="Igletjønn" />
		<tag k="natural" v="water" />
		<tag k="ssr:stedsnr" v="549652" />
	</node>
	<node id="-233505" lat="59.301347225" lon="9.2843166754">
		<tag k="name" v="Tjonodden" />
		<tag k="natural" v="cape" />
		<tag k="ssr:stedsnr" v="548790" />
	</node>
	<node id="-233504" lat="59.2951027744" lon="9.27083888438">
		<tag k="alt_name" v="Romnesvika" />
		<tag k="name" v="Romnesbukta" />
		<tag k="natural" v="bay" />
		<tag k="ssr:stedsnr" v="548791" />
	</node>
	<node id="-233489" lat="59.3505611067" lon="8.9433249946">
		<tag k="alt_name" v="Åstjørn" />
		<tag k="name" v="Åstjønn" />
		<tag k="natural" v="water" />
		<tag k="ssr:stedsnr" v="548259" />
	</node>
	<node id="-233478" lat="59.2866166662" lon="8.98964166595">
		<tag k="alt_name" v="Igletjørn" />
		<tag k="name" v="Igletjønn" />
		<tag k="natural" v="water" />
		<tag k="ssr:stedsnr" v="548138" />
	</node>
	<node id="-233477" lat="59.2893750009" lon="8.98283055388">
		<tag k="alt_name" v="Svarttjørn" />
		<tag k="name" v="Svarttjønn" />
		<tag k="natural" v="water" />
		<tag k="ssr:stedsnr" v="548139" />
	</node>
	<node id="-233476" lat="59.2745472201" lon="8.93016666159">
		<tag k="alt_name" v="Ulvhildvatnet" />
		<tag k="name" v="Uvilvatn" />
		<tag k="natural" v="water" />
		<tag k="ssr:stedsnr" v="548129" />
		<tag k="water" v="lake" />
	</node>
	<node id="-233474" lat="59.2799472252" lon="9.04297500459">
		<tag k="alt_name" v="Øvre Trytetjønn" />
		<tag k="name" v="Trytetjørnane" />
		<tag k="natural" v="water" />
		<tag k="ssr:stedsnr" v="548110" />
	</node>
</osm>
