<?xml version="1.0" encoding="UTF-8"?>
<osm version="0.6" generator="osmapis">
	<node id="9099808556" lat="61.0990077" lon="9.352434" version="1" timestamp="2021-09-17T05:56:14Z" changeset="111319609" uid="435265" user="Ansgar G Grimsrud">
		<tag k="name" v="Kvedne" />
		<tag k="place" v="isolated_dwelling" />
		<tag k="ssr:date" v="2019-12-27" />
		<tag k="ssr:gruppe" v="bolighus" />
		<tag k="ssr:hovedgruppe" v="bebyggelse" />
		<tag k="ssr:stedsnr" v="722100" />
		<tag k="ssr:type" v="eneboligMindreBoligbygg" />
	</node>
	<node id="9099808567" lat="61.1507726" lon="9.3891924" version="1" timestamp="2021-09-17T05:56:14Z" changeset="111319609" uid="435265" user="Ansgar G Grimsrud">
		<tag k="name" v="Markatrøe" />
		<tag k="place" v="isolated_dwelling" />
		<tag k="ssr:date" v="2019-12-27" />
		<tag k="ssr:gruppe" v="bolighus" />
		<tag k="ssr:hovedgruppe" v="bebyggelse" />
		<tag k="ssr:stedsnr" v="722821" />
		<tag k="ssr:type" v="fritidsbolig" />
	</node>
	<node id="9099808574" lat="61.09972" lon="9.3533702" version="1" timestamp="2021-09-17T05:56:14Z" changeset="111319609" uid="435265" user="Ansgar G Grimsrud">
		<tag k="name" v="Skogtun" />
		<tag k="place" v="isolated_dwelling" />
		<tag k="ssr:date" v="2019-12-27" />
		<tag k="ssr:gruppe" v="bolighus" />
		<tag k="ssr:hovedgruppe" v="bebyggelse" />
		<tag k="ssr:stedsnr" v="843086" />
		<tag k="ssr:type" v="eneboligMindreBoligbygg" />
	</node>
	<node id="9099808576" lat="61.1023004" lon="9.3302396" version="1" timestamp="2021-09-17T05:56:14Z" changeset="111319609" uid="435265" user="Ansgar G Grimsrud">
		<tag k="name" v="Sjåheim" />
		<tag k="place" v="isolated_dwelling" />
		<tag k="ssr:date" v="2019-12-27" />
		<tag k="ssr:gruppe" v="bolighus" />
		<tag k="ssr:hovedgruppe" v="bebyggelse" />
		<tag k="ssr:stedsnr" v="964128" />
		<tag k="ssr:type" v="fritidsbolig" />
	</node>
	<node id="9099808604" lat="61.152333" lon="9.3890507" version="1" timestamp="2021-09-17T05:56:14Z" changeset="111319609" uid="435265" user="Ansgar G Grimsrud">
		<tag k="name" v="Skogsjå" />
		<tag k="place" v="isolated_dwelling" />
		<tag k="ssr:date" v="2019-12-27" />
		<tag k="ssr:gruppe" v="bolighus" />
		<tag k="ssr:hovedgruppe" v="bebyggelse" />
		<tag k="ssr:stedsnr" v="479806" />
		<tag k="ssr:type" v="fritidsbolig" />
	</node>
	<node id="9099808611" lat="61.099684" lon="9.3510952" version="1" timestamp="2021-09-17T05:56:14Z" changeset="111319609" uid="435265" user="Ansgar G Grimsrud">
		<tag k="name" v="Hulderhaugen" />
		<tag k="place" v="isolated_dwelling" />
		<tag k="ssr:date" v="2019-12-27" />
		<tag k="ssr:gruppe" v="bolighus" />
		<tag k="ssr:hovedgruppe" v="bebyggelse" />
		<tag k="ssr:stedsnr" v="419093" />
		<tag k="ssr:type" v="fritidsbolig" />
	</node>
	<node id="9099808616" lat="61.1289131" lon="9.2578146" version="1" timestamp="2021-09-17T05:56:14Z" changeset="111319609" uid="435265" user="Ansgar G Grimsrud">
		<tag k="name" v="Nordeng" />
		<tag k="place" v="isolated_dwelling" />
		<tag k="ssr:date" v="2019-12-27" />
		<tag k="ssr:gruppe" v="bolighus" />
		<tag k="ssr:hovedgruppe" v="bebyggelse" />
		<tag k="ssr:stedsnr" v="616910" />
		<tag k="ssr:type" v="fritidsbolig" />
	</node>
	<node id="9099886417" lat="61.1153518" lon="9.3893479" version="1" timestamp="2021-09-17T05:56:14Z" changeset="111319609" uid="435265" user="Ansgar G Grimsrud">
		<tag k="name" v="Hjørdisbu" />
		<tag k="place" v="isolated_dwelling" />
		<tag k="ssr:date" v="2019-12-27" />
		<tag k="ssr:gruppe" v="bolighus" />
		<tag k="ssr:hovedgruppe" v="bebyggelse" />
		<tag k="ssr:stedsnr" v="479151" />
		<tag k="ssr:type" v="fritidsbolig" />
	</node>
	<node id="9099886427" lat="61.1144399" lon="9.3979424" version="1" timestamp="2021-09-17T05:56:14Z" changeset="111319609" uid="435265" user="Ansgar G Grimsrud">
		<tag k="name" v="Mattebu" />
		<tag k="place" v="isolated_dwelling" />
		<tag k="ssr:date" v="2019-12-27" />
		<tag k="ssr:gruppe" v="bolighus" />
		<tag k="ssr:hovedgruppe" v="bebyggelse" />
		<tag k="ssr:stedsnr" v="55143" />
		<tag k="ssr:type" v="fritidsbolig" />
	</node>
	<node id="9099886467" lat="61.1519228" lon="9.3523229" version="1" timestamp="2021-09-17T05:56:14Z" changeset="111319609" uid="435265" user="Ansgar G Grimsrud">
		<tag k="name" v="Finnslegret" />
		<tag k="place" v="isolated_dwelling" />
		<tag k="ssr:date" v="2019-12-27" />
		<tag k="ssr:gruppe" v="bolighus" />
		<tag k="ssr:hovedgruppe" v="bebyggelse" />
		<tag k="ssr:stedsnr" v="418505" />
		<tag k="ssr:type" v="fritidsbolig" />
	</node>
</osm>
