<?xml version="1.0" encoding="UTF-8"?>
<osm version="0.6" generator="osmapis">
	<node lat="61.26516944567396" lon="7.3303277806965115" id="-77715">
		<tag k="alt_name" v="Skophammerneset;Skophammerneset lykt" />
		<tag k="name" v="Skophamarneset lykt" />
		<tag k="ssr:date" v="2019-12-27" />
		<tag k="ssr:gruppe" v="navigasjon" />
		<tag k="ssr:hovedgruppe" v="infrastruktur" />
		<tag k="ssr:stedsnr" v="236527" />
		<tag k="ssr:type" v="fyrlykt" />
	</node>
	<node lat="61.68938156861957" lon="7.65083558682754" id="-78952">
		<tag k="name" v="Breheimen" />
		<tag k="ssr:date" v="2021-05-05" />
		<tag k="ssr:gruppe" v="terrengområder" />
		<tag k="ssr:hovedgruppe" v="terreng" />
		<tag k="ssr:stedsnr" v="572299" />
		<tag k="ssr:type" v="landskapsområde" />
	</node>
	<node lat="61.37883610680036" lon="7.363816668861661" id="-80055">
		<tag k="alt_name" v="Nes" />
		<tag k="name" v="Nes lykt" />
		<tag k="ssr:date" v="2019-12-27" />
		<tag k="ssr:gruppe" v="navigasjon" />
		<tag k="ssr:hovedgruppe" v="infrastruktur" />
		<tag k="ssr:stedsnr" v="115573" />
		<tag k="ssr:type" v="fyrlykt" />
	</node>
	<node lat="61.457919444458916" lon="7.523572218981025" id="-80705">
		<tag k="alt_name" v="Havhella" />
		<tag k="name" v="Havhella lykt" />
		<tag k="ssr:date" v="2019-12-27" />
		<tag k="ssr:gruppe" v="navigasjon" />
		<tag k="ssr:hovedgruppe" v="infrastruktur" />
		<tag k="ssr:stedsnr" v="419553" />
		<tag k="ssr:type" v="fyrlykt" />
	</node>
	<node lat="61.40312221881735" lon="7.297924994324735" id="-81440">
		<tag k="alt_name" v="Luster" />
		<tag k="name" v="Luster kommune" />
		<tag k="ssr:date" v="2019-12-27" />
		<tag k="ssr:gruppe" v="administrativeIndelinger" />
		<tag k="ssr:hovedgruppe" v="offentligAdministrasjon" />
		<tag k="ssr:stedsnr" v="815265" />
		<tag k="ssr:type" v="kommune" />
	</node>
	<node lat="61.40561025077685" lon="7.299096938266822" id="-81739">
		<tag k="name" v="Tandla" />
		<tag k="old_name" v="Tandle" />
		<tag k="ssr:date" v="2019-12-27" />
		<tag k="ssr:gruppe" v="veg" />
		<tag k="ssr:hovedgruppe" v="infrastruktur" />
		<tag k="ssr:stedsnr" v="1052317" />
		<tag k="ssr:type" v="adressenavn" />
	</node>
	<node lat="61.31640532280999" lon="7.172669367761955" id="-81797">
		<tag k="name" v="Tvangsvegen" />
		<tag k="old_name" v="Hagavegen" />
		<tag k="ssr:date" v="2020-07-09" />
		<tag k="ssr:gruppe" v="veg" />
		<tag k="ssr:hovedgruppe" v="infrastruktur" />
		<tag k="ssr:stedsnr" v="1052894" />
		<tag k="ssr:type" v="adressenavn" />
	</node>
	<node lat="61.33019364063184" lon="7.212067740244654" id="-81803">
		<tag k="name" v="Modvavegen" />
		<tag k="old_name" v="Modvovegen" />
		<tag k="ssr:date" v="2019-12-27" />
		<tag k="ssr:gruppe" v="veg" />
		<tag k="ssr:hovedgruppe" v="infrastruktur" />
		<tag k="ssr:stedsnr" v="1052902" />
		<tag k="ssr:type" v="adressenavn" />
	</node>
	<node lat="61.31988661662675" lon="7.1545315280854735" id="-81805">
		<tag k="name" v="Vetlestølsvegen" />
		<tag k="old_name" v="Vetlestølen" />
		<tag k="ssr:date" v="2020-07-09" />
		<tag k="ssr:gruppe" v="veg" />
		<tag k="ssr:hovedgruppe" v="infrastruktur" />
		<tag k="ssr:stedsnr" v="1052908" />
		<tag k="ssr:type" v="adressenavn" />
	</node>
	<node lat="61.668707172973214" lon="7.32261220577619" id="-81811">
		<tag k="name" v="Styggevassvegen" />
		<tag k="old_name" v="Stordalen" />
		<tag k="ssr:date" v="2020-07-09" />
		<tag k="ssr:gruppe" v="veg" />
		<tag k="ssr:hovedgruppe" v="infrastruktur" />
		<tag k="ssr:stedsnr" v="1052914" />
		<tag k="ssr:type" v="adressenavn" />
	</node>
	<node lat="61.542198506102764" lon="7.7355420893095195" id="-81865">
		<tag k="name" v="Ormeli" />
		<tag k="old_name" v="Ormelid" />
		<tag k="ssr:date" v="2019-12-27" />
		<tag k="ssr:gruppe" v="veg" />
		<tag k="ssr:hovedgruppe" v="infrastruktur" />
		<tag k="ssr:stedsnr" v="1053198" />
		<tag k="ssr:type" v="adressenavn" />
	</node>
	<node lat="61.64148057996547" lon="7.786399948521962" id="-81866">
		<tag k="name" v="Fivlemyrane" />
		<tag k="old_name" v="Fivlemyr" />
		<tag k="ssr:date" v="2019-12-27" />
		<tag k="ssr:gruppe" v="veg" />
		<tag k="ssr:hovedgruppe" v="infrastruktur" />
		<tag k="ssr:stedsnr" v="1053200" />
		<tag k="ssr:type" v="adressenavn" />
	</node>
	<node lat="61.44376740292377" lon="7.430685351140506" id="-81881">
		<tag k="name" v="Røssesete" />
		<tag k="old_name" v="Røsseset" />
		<tag k="ssr:date" v="2019-12-27" />
		<tag k="ssr:gruppe" v="veg" />
		<tag k="ssr:hovedgruppe" v="infrastruktur" />
		<tag k="ssr:stedsnr" v="1053075" />
		<tag k="ssr:type" v="adressenavn" />
	</node>
	<node lat="61.315909222604205" lon="7.1973223059775355" id="-81885">
		<tag k="name" v="Beimssvingen" />
		<tag k="old_name" v="Bakkingasvingen" />
		<tag k="ssr:date" v="2020-07-09" />
		<tag k="ssr:gruppe" v="veg" />
		<tag k="ssr:hovedgruppe" v="infrastruktur" />
		<tag k="ssr:stedsnr" v="1053406" />
		<tag k="ssr:type" v="adressenavn" />
	</node>
	<node lat="61.31539052063812" lon="7.192445198872619" id="-81887">
		<tag k="name" v="Beimsbakkane" />
		<tag k="old_name" v="Beim" />
		<tag k="ssr:date" v="2020-07-09" />
		<tag k="ssr:gruppe" v="veg" />
		<tag k="ssr:hovedgruppe" v="infrastruktur" />
		<tag k="ssr:stedsnr" v="1053419" />
		<tag k="ssr:type" v="adressenavn" />
	</node>
	<node lat="61.49992079832819" lon="7.7302750426189215" id="-81897">
		<tag k="name" v="Nausane" />
		<tag k="old_name" v="Nausadn" />
		<tag k="ssr:date" v="2019-12-27" />
		<tag k="ssr:gruppe" v="veg" />
		<tag k="ssr:hovedgruppe" v="infrastruktur" />
		<tag k="ssr:stedsnr" v="1053480" />
		<tag k="ssr:type" v="adressenavn" />
	</node>
	<node lat="61.770085884030664" lon="7.488426062464804" id="-81903">
		<tag k="name" v="Styggevasshytta" />
		<tag k="ssr:date" v="2020-07-16" />
		<tag k="ssr:gruppe" v="veg" />
		<tag k="ssr:hovedgruppe" v="infrastruktur" />
		<tag k="ssr:stedsnr" v="1077646" />
		<tag k="ssr:type" v="adressenavn" />
	</node>
</osm>
