<?xml version="1.0" encoding="UTF-8"?>
<osm generator="osmapis" version="0.6">
	<node id="-901119" lat="70.6883666837" lon="28.7129547322">
		<tag k="name" v="Čuonjejávri" />
		<tag k="name:se" v="Čuonjejávri" />
		<tag k="natural" v="water" />
		<tag k="old_name:se" v="Čuonjejavri" />
		<tag k="ssr:stedsnr" v="930367" />
	</node>
	<node id="-901115" lat="70.7314361323" lon="29.0586740529">
		<tag k="name" v="Áldojohka" />
		<tag k="name:se" v="Áldojohka" />
		<tag k="old_name:se" v="Aldujåkka" />
		<tag k="ssr:stedsnr" v="930425" />
		<tag k="waterway" v="stream" />
	</node>
	<node id="-901113" lat="70.615800029" lon="29.2848739483">
		<tag k="name" v="Sæterdalsvatna" />
		<tag k="natural" v="water" />
		<tag k="ssr:stedsnr" v="930405" />
		<tag k="water" v="lake" />
	</node>
	<node id="-901108" lat="70.6522778041" lon="29.2129295406">
		<tag k="name" v="Grønnbakken" />
		<tag k="place" v="locality" />
		<tag k="ssr:stedsnr" v="774917" />
	</node>
	<node id="-901103" lat="70.776466684" lon="28.6744964283">
		<tag k="name" v="Haleelva - Seaibejohka" />
		<tag k="name:no" v="Haleelva" />
		<tag k="name:se" v="Seaibejohka" />
		<tag k="old_name:se" v="Sæibejåkka" />
		<tag k="ssr:stedsnr" v="748958" />
		<tag k="waterway" v="stream" />
	</node>
	<node id="-901101" lat="70.7139972425" lon="29.2054990155">
		<tag k="name" v="Langvannet - Guhkesjávri" />
		<tag k="name:no" v="Langvannet" />
		<tag k="name:se" v="Guhkesjávri" />
		<tag k="natural" v="water" />
		<tag k="old_name:se" v="Gukkesjavri" />
		<tag k="ssr:stedsnr" v="748417" />
	</node>
	<node id="-900946" lat="70.6085666936" lon="29.0796601342">
		<tag k="alt_name:no" v="Buetjern" />
		<tag k="name" v="Buetjernet - Dávgeluoppal" />
		<tag k="name:no" v="Buetjernet" />
		<tag k="name:se" v="Dávgeluoppal" />
		<tag k="natural" v="water" />
		<tag k="old_name:se" v="Davgeluobbal" />
		<tag k="ssr:stedsnr" v="263409" />
		<tag k="water" v="lake" />
	</node>
	<node id="-901095" lat="70.8684111319" lon="28.9246491437">
		<tag k="name" v="Jørnslåttelva" />
		<tag k="ssr:stedsnr" v="713576" />
		<tag k="waterway" v="stream" />
	</node>
	<node id="-901094" lat="70.87488335" lon="28.9489852464">
		<tag k="name" v="Hanelva" />
		<tag k="ssr:stedsnr" v="713575" />
		<tag k="waterway" v="stream" />
	</node>
	<node id="-901089" lat="70.8686583529" lon="29.0624296603">
		<tag k="name" v="Nikolaivannet" />
		<tag k="natural" v="water" />
		<tag k="ssr:stedsnr" v="882272" />
	</node>
	<node id="-901087" lat="70.8717472402" lon="29.0693407677">
		<tag k="name" v="Kål-vannet" />
		<tag k="natural" v="water" />
		<tag k="ssr:stedsnr" v="881284" />
	</node>
	<node id="-901084" lat="70.6677194669" lon="29.1911240052">
		<tag k="name" v="Vesterdalsvannet" />
		<tag k="natural" v="water" />
		<tag k="ssr:stedsnr" v="651899" />
	</node>
	<node id="-900943" lat="70.7906722404" lon="28.7540936188">
		<tag k="name" v="Stuorrajohka" />
		<tag k="name:se" v="Stuorrajohka" />
		<tag k="old_name:se" v="Stuorrajåkka" />
		<tag k="ssr:stedsnr" v="262523" />
		<tag k="waterway" v="river" />
	</node>
	<node id="-901070" lat="70.6240722522" lon="29.1618406702">
		<tag k="name" v="Ørretvasselva" />
		<tag k="ssr:stedsnr" v="712894" />
		<tag k="waterway" v="stream" />
	</node>
	<node id="-901064" lat="70.6661972513" lon="29.3921572661">
		<tag k="name" v="Straumsvatna" />
		<tag k="natural" v="water" />
		<tag k="ssr:stedsnr" v="566411" />
		<tag k="water" v="lake" />
	</node>
	<node id="-901054" lat="70.7800750249" lon="29.3454017593">
		<tag k="name" v="Kvalvikeidet" />
		<tag k="natural" v="strait" />
		<tag k="ssr:stedsnr" v="688994" />
	</node>
	<node id="-901051" lat="70.7926472395" lon="28.7824825013">
		<tag k="name" v="Johkamohkki" />
		<tag k="name:se" v="Johkamohkki" />
		<tag k="old_name:se" v="Jåkkamåkki" />
		<tag k="place" v="locality" />
		<tag k="ssr:stedsnr" v="688961" />
	</node>
	<node id="-901047" lat="70.474894473" lon="29.2241294905">
		<tag k="loc_name:fkv" v="Ortojärvi" />
		<tag k="name" v="Oarddojávri" />
		<tag k="name:se" v="Oarddojávri" />
		<tag k="natural" v="water" />
		<tag k="old_name:se" v="Oardujavri" />
		<tag k="ssr:stedsnr" v="687952" />
		<tag k="water" v="lake" />
	</node>
	<node id="-901046" lat="70.59317781" lon="29.3954711191">
		<tag k="name" v="Álosjohka" />
		<tag k="name:se" v="Álosjohka" />
		<tag k="old_name:se" v="Alusjåkka" />
		<tag k="ssr:stedsnr" v="687486" />
		<tag k="waterway" v="river" />
	</node>
	<node id="-901045" lat="70.7041889129" lon="29.1654267928">
		<tag k="name" v="Øster-Risfjordelva - Loamejohka" />
		<tag k="name:no" v="Øster-Risfjordelva" />
		<tag k="name:se" v="Loamejohka" />
		<tag k="old_name:se" v="Loamejåkka" />
		<tag k="ssr:stedsnr" v="687416" />
		<tag k="waterway" v="river" />
	</node>
	<node id="-901042" lat="70.7039722439" lon="29.2135545642">
		<tag k="alt_name" v="Holmvatnan" />
		<tag k="name" v="Holmvatna" />
		<tag k="natural" v="water" />
		<tag k="ssr:stedsnr" v="687396" />
		<tag k="water" v="lake" />
	</node>
	<node id="-901041" lat="70.6590416899" lon="29.0058990731">
		<tag k="name" v="Kjerkehaugvatna" />
		<tag k="natural" v="water" />
		<tag k="ssr:stedsnr" v="687387" />
		<tag k="water" v="lake" />
	</node>
	<node id="-901040" lat="70.7418277954" lon="28.5864881182">
		<tag k="name" v="Fuglevikelva - Sieiddeluovttjohka" />
		<tag k="name:no" v="Fuglevikelva" />
		<tag k="name:se" v="Sieiddeluovttjohka" />
		<tag k="old_name:se" v="Sieideluovtjåkka" />
		<tag k="ssr:stedsnr" v="687363" />
		<tag k="waterway" v="river" />
	</node>
	<node id="-901035" lat="70.6145722506" lon="29.2389156216">
		<tag k="alt_name:se" v="Stuorgorsa" />
		<tag k="name" v="Bryggarielva - Doaresjohka" />
		<tag k="name:no" v="Bryggarielva" />
		<tag k="name:se" v="Doaresjohka" />
		<tag k="old_name:se" v="Doaresjåkka" />
		<tag k="ssr:stedsnr" v="506106" />
		<tag k="waterway" v="river" />
	</node>
	<node id="-901028" lat="70.6724722483" lon="29.0556407195">
		<tag k="name" v="Risfjordkrysset" />
		<tag k="natural" v="bay" />
		<tag k="ssr:stedsnr" v="445418" />
	</node>
	<node id="-901027" lat="70.6117139164" lon="29.1695740072">
		<tag k="name" v="Ørretvannet" />
		<tag k="natural" v="water" />
		<tag k="ssr:stedsnr" v="445404" />
		<tag k="water" v="lake" />
	</node>
	<node id="-901017" lat="70.8446861303" lon="29.1367990569">
		<tag k="name" v="Vargvikbekken" />
		<tag k="ssr:stedsnr" v="505970" />
		<tag k="waterway" v="stream" />
	</node>
	<node id="-901010" lat="70.6160111337" lon="29.1242490068">
		<tag k="alt_name" v="Fossvatnet" />
		<tag k="name" v="Fossvatna" />
		<tag k="natural" v="water" />
		<tag k="ssr:stedsnr" v="505390" />
	</node>
	<node id="-901008" lat="70.6180583637" lon="29.4474850064">
		<tag k="name" v="Stuorraleakši" />
		<tag k="name:se" v="Stuorraleakši" />
		<tag k="old_name:se" v="Stuorralæksi;Stuoraleaksi" />
		<tag k="ssr:stedsnr" v="505490" />
		<tag k="waterway" v="river" />
	</node>
	<node id="-901005" lat="70.6620805771" lon="28.6687130691">
		<tag k="name" v="Sørelva - Mádjejohka" />
		<tag k="name:no" v="Sørelva" />
		<tag k="name:se" v="Mádjejohka" />
		<tag k="old_name:se" v="Maddjejåkka" />
		<tag k="ssr:stedsnr" v="384360" />
		<tag k="waterway" v="river" />
	</node>
	<node id="-900995" lat="70.6551805804" lon="29.2021267736">
		<tag k="name" v="Nedre Svaberget" />
		<tag k="place" v="locality" />
		<tag k="ssr:stedsnr" v="471894" />
	</node>
	<node id="-900987" lat="70.6412472494" lon="29.1894045655">
		<tag k="name" v="Bryggarivatnan" />
		<tag k="natural" v="water" />
		<tag k="ssr:stedsnr" v="287876" />
		<tag k="water" v="lake" />
	</node>
	<node id="-900985" lat="70.8328833507" lon="29.2057046044">
		<tag k="name" v="Vester-Styrelva" />
		<tag k="ssr:stedsnr" v="269207" />
		<tag k="waterway" v="river" />
	</node>
	<node id="-900979" lat="70.7634750162" lon="28.615046448">
		<tag k="name" v="Muohtagahččanjohka" />
		<tag k="name:se" v="Muohtagahččanjohka" />
		<tag k="old_name:se" v="Muottagaččanjåkka" />
		<tag k="ssr:stedsnr" v="445966" />
		<tag k="waterway" v="stream" />
	</node>
	<node id="-900973" lat="70.6969027988" lon="28.7285047146">
		<tag k="name" v="Jorbajávri" />
		<tag k="name:se" v="Jorbajávri" />
		<tag k="natural" v="water" />
		<tag k="old_name:se" v="Jårbajavri" />
		<tag k="ssr:stedsnr" v="445367" />
		<tag k="water" v="lake" />
	</node>
	<node id="-900972" lat="70.6482694628" lon="28.6619241883">
		<tag k="name" v="Goikejohka" />
		<tag k="name:se" v="Goikejohka" />
		<tag k="old_name:se" v="Gåikejåkka" />
		<tag k="ssr:stedsnr" v="445345" />
		<tag k="waterway" v="stream" />
	</node>
	<node id="-900968" lat="70.60394725" lon="29.0995406974">
		<tag k="name" v="Kokfiskholla" />
		<tag k="natural" v="water" />
		<tag k="ssr:stedsnr" v="228905" />
		<tag k="water" v="lake" />
	</node>
	<node id="-900961" lat="70.8177000228" lon="28.865646392">
		<tag k="name" v="Eidelva - Suohpášjohka" />
		<tag k="name:no" v="Eidelva" />
		<tag k="name:se" v="Suohpášjohka" />
		<tag k="old_name:se" v="Suoppašjåkka" />
		<tag k="ssr:stedsnr" v="263990" />
		<tag k="waterway" v="stream" />
	</node>
	<node id="-901462" lat="70.6468166945" lon="29.1676656625">
		<tag k="name" v="Lensmannsholla" />
		<tag k="place" v="locality" />
		<tag k="ssr:stedsnr" v="955882" />
	</node>
	<node id="-901461" lat="70.651594475" lon="29.2690545254">
		<tag k="name" v="Seterdalselva" />
		<tag k="ssr:stedsnr" v="952993" />
		<tag k="waterway" v="stream" />
	</node>
	<node id="-901460" lat="70.7708250229" lon="29.3494406359">
		<tag k="name" v="Daudmannselva - Njoammeljohka" />
		<tag k="name:no" v="Daudmannselva" />
		<tag k="name:se" v="Njoammeljohka" />
		<tag k="old_name:se" v="Njoammeljåkka" />
		<tag k="ssr:stedsnr" v="870998" />
		<tag k="waterway" v="stream" />
	</node>
	<node id="-901458" lat="70.8224972387" lon="29.0747990961">
		<tag k="name" v="Ruovdaskáidi" />
		<tag k="name:se" v="Ruovdaskáidi" />
		<tag k="natural" v="cape" />
		<tag k="old_name:se" v="Ruovdaskaidi" />
		<tag k="ssr:stedsnr" v="870982" />
	</node>
	<node id="-900945" lat="70.8381028012" lon="29.0085463406">
		<tag k="name" v="Storelva - Rákkojohka" />
		<tag k="name:no" v="Storelva" />
		<tag k="name:se" v="Rákkojohka" />
		<tag k="old_name:se" v="Raggujåkka" />
		<tag k="ssr:stedsnr" v="263113" />
		<tag k="waterway" v="river" />
	</node>
	<node id="-901455" lat="70.7666833575" lon="28.7342714114">
		<tag k="name" v="Stivlejávri" />
		<tag k="name:se" v="Stivlejávri" />
		<tag k="natural" v="water" />
		<tag k="old_name:se" v="Stivlejavri" />
		<tag k="ssr:stedsnr" v="870951" />
	</node>
	<node id="-900942" lat="70.711275028" lon="29.2441462146">
		<tag k="name" v="Hergevannet - Heargejávri" />
		<tag k="name:no" v="Hergevannet" />
		<tag k="name:se" v="Heargejávri" />
		<tag k="natural" v="water" />
		<tag k="old_name:se" v="Hærgejavri" />
		<tag k="ssr:stedsnr" v="262434" />
		<tag k="water" v="lake" />
	</node>
	<node id="-901453" lat="70.7503361339" lon="29.2255573597">
		<tag k="name" v="Økseelva - Meresjohka" />
		<tag k="name:no" v="Økseelva" />
		<tag k="name:se" v="Meresjohka" />
		<tag k="old_name:se" v="Meresjåkka" />
		<tag k="ssr:stedsnr" v="870529" />
		<tag k="waterway" v="river" />
	</node>
	<node id="-901451" lat="70.5791111383" lon="29.1534989903">
		<tag k="name" v="Toppvannet" />
		<tag k="natural" v="water" />
		<tag k="ssr:stedsnr" v="870490" />
		<tag k="water" v="lake" />
	</node>
	<node id="-901450" lat="70.6837278036" lon="29.4432488948">
		<tag k="name" v="Bjørnvikvannet" />
		<tag k="natural" v="water" />
		<tag k="ssr:stedsnr" v="870486" />
	</node>
	<node id="-901448" lat="70.72703336" lon="29.0504268526">
		<tag k="name" v="Andsjøen - Goalsejávri" />
		<tag k="name:no" v="Andsjøen" />
		<tag k="name:se" v="Goalsejávri" />
		<tag k="natural" v="water" />
		<tag k="old_name:se" v="Goalsejavri" />
		<tag k="ssr:stedsnr" v="869458" />
	</node>
	<node id="-901447" lat="70.6682972463" lon="29.1774517922">
		<tag k="name" v="Vesterdalselva" />
		<tag k="ssr:stedsnr" v="869450" />
		<tag k="waterway" v="river" />
	</node>
	<node id="-900934" lat="70.7599861315" lon="28.8804685908">
		<tag k="name" v="Midt-Raggobekken" />
		<tag k="ssr:stedsnr" v="87183" />
		<tag k="waterway" v="stream" />
	</node>
	<node id="-901443" lat="70.6884194638" lon="28.6619130882">
		<tag k="name" v="Čuonjejohka" />
		<tag k="name:se" v="Čuonjejohka" />
		<tag k="old_name:se" v="Čuonjejåkka" />
		<tag k="ssr:stedsnr" v="869383" />
		<tag k="waterway" v="river" />
	</node>
	<node id="-901442" lat="70.6804250248" lon="28.7288769387">
		<tag k="name" v="Roapmejohka" />
		<tag k="name:se" v="Roapmejohka" />
		<tag k="old_name:se" v="Roabmejåkka" />
		<tag k="ssr:stedsnr" v="869377" />
		<tag k="waterway" v="river" />
	</node>
	<node id="-900926" lat="70.6971444649" lon="28.699010304">
		<tag k="name" v="Guhkesjávri" />
		<tag k="name:se" v="Guhkesjávri" />
		<tag k="natural" v="water" />
		<tag k="old_name:se" v="Gukkesjavri" />
		<tag k="ssr:stedsnr" v="59788" />
		<tag k="water" v="lake" />
	</node>
	<node id="-900925" lat="70.8392583532" lon="29.2239740408">
		<tag k="name" v="Styrvannet" />
		<tag k="natural" v="water" />
		<tag k="ssr:stedsnr" v="32219" />
		<tag k="water" v="lake" />
	</node>
	<node id="-901427" lat="70.8463111316" lon="29.1800129549">
		<tag k="name" v="Vargvikelva" />
		<tag k="ssr:stedsnr" v="809987" />
		<tag k="waterway" v="river" />
	</node>
	<node id="-901421" lat="70.5304583553" lon="28.8394018726">
		<tag k="name" v="Hanglevatna - Hakŋalanjávrrit" />
		<tag k="name:no" v="Hanglevatna" />
		<tag k="name:se" v="Hakŋalanjávrrit" />
		<tag k="natural" v="water" />
		<tag k="old_name:se" v="Hagŋalanjavrit" />
		<tag k="ssr:stedsnr" v="809528" />
		<tag k="water" v="lake" />
	</node>
	<node id="-901418" lat="70.6062333542" lon="29.0403879354">
		<tag k="name" v="Buevasselva" />
		<tag k="ssr:stedsnr" v="809510" />
		<tag k="waterway" v="river" />
	</node>
	<node id="-901414" lat="70.6460305845" lon="29.3033156188">
		<tag k="name" v="Sæterdalselva" />
		<tag k="ssr:stedsnr" v="809409" />
		<tag k="waterway" v="river" />
	</node>
	<node id="-901413" lat="70.6390444746" lon="29.3324794907">
		<tag k="name" v="Hundelva - Beatnatjohka" />
		<tag k="name:no" v="Hundelva" />
		<tag k="name:se" v="Beatnatjohka" />
		<tag k="old_name:se" v="Bædnatjåkka" />
		<tag k="ssr:stedsnr" v="809408" />
		<tag k="waterway" v="stream" />
	</node>
	<node id="-901405" lat="70.8396416905" lon="29.0651851987">
		<tag k="name" v="Veddalsneset" />
		<tag k="natural" v="cape" />
		<tag k="ssr:stedsnr" v="760296" />
	</node>
	<node id="-901403" lat="70.8472472372" lon="28.76440197">
		<tag k="name" v="Kvitneselva" />
		<tag k="ssr:stedsnr" v="755190" />
		<tag k="waterway" v="river" />
	</node>
	<node id="-901401" lat="70.7540555734" lon="28.8452324776">
		<tag k="name" v="Øver-Raggobekken" />
		<tag k="ssr:stedsnr" v="754226" />
		<tag k="waterway" v="stream" />
	</node>
	<node id="-901399" lat="70.8519722448" lon="28.8271241822">
		<tag k="name" v="Svanelva" />
		<tag k="ssr:stedsnr" v="748971" />
		<tag k="waterway" v="river" />
	</node>
	<node id="-901398" lat="70.858155575" lon="29.0519102079">
		<tag k="alt_name" v="Grønnlivatnet" />
		<tag k="name" v="Grønlivatnet" />
		<tag k="natural" v="water" />
		<tag k="ssr:stedsnr" v="748970" />
	</node>
	<node id="-901395" lat="70.6789028054" lon="29.1046601568">
		<tag k="name" v="Lomtoppvatna" />
		<tag k="natural" v="water" />
		<tag k="ssr:stedsnr" v="748391" />
		<tag k="water" v="lake" />
	</node>
	<node id="-901392" lat="70.699636139" lon="29.2774656377">
		<tag k="name" v="Kobbkrokvannet - Goađášjávri" />
		<tag k="name:no" v="Kobbkrokvannet" />
		<tag k="name:se" v="Goađášjávri" />
		<tag k="natural" v="water" />
		<tag k="old_name:se" v="Goađašjavri" />
		<tag k="ssr:stedsnr" v="748384" />
		<tag k="water" v="lake" />
	</node>
	<node id="-901391" lat="70.6106694744" lon="29.2277906266">
		<tag k="name" v="Røyevannet" />
		<tag k="natural" v="water" />
		<tag k="ssr:stedsnr" v="748375" />
	</node>
	<node id="-901379" lat="70.5854083642" lon="29.1226212169">
		<tag k="name" v="Emissærvannet" />
		<tag k="natural" v="water" />
		<tag k="ssr:stedsnr" v="626528" />
		<tag k="water" v="lake" />
	</node>
	<node id="-901377" lat="70.5681750291" lon="28.9987101634">
		<tag k="name" v="Store Buevannet - Stuorra Dávgejávri" />
		<tag k="name:no" v="Store Buevannet" />
		<tag k="name:se" v="Stuorra Dávgejávri" />
		<tag k="natural" v="water" />
		<tag k="old_name:se" v="Davgejavri stuorra" />
		<tag k="ssr:stedsnr" v="626519" />
		<tag k="water" v="lake" />
	</node>
	<node id="-901375" lat="70.7224722475" lon="29.2773573293">
		<tag k="name" v="Hergeelva - Heargejohka" />
		<tag k="name:no" v="Hergeelva" />
		<tag k="name:se" v="Heargejohka" />
		<tag k="old_name:se" v="Hærgejåkka" />
		<tag k="ssr:stedsnr" v="626449" />
		<tag k="waterway" v="stream" />
	</node>
	<node id="-901372" lat="70.6935472463" lon="28.7151575078">
		<tag k="name" v="Gåsvatnan" />
		<tag k="natural" v="water" />
		<tag k="ssr:stedsnr" v="626387" />
		<tag k="water" v="lake" />
	</node>
	<node id="-901359" lat="70.669886137" lon="29.3780044915">
		<tag k="name" v="Øyeelva" />
		<tag k="ssr:stedsnr" v="571537" />
		<tag k="waterway" v="stream" />
	</node>
	<node id="-901358" lat="70.7627305757" lon="29.2049684698">
		<tag k="name" v="Meresjávri" />
		<tag k="name:se" v="Meresjávri" />
		<tag k="natural" v="water" />
		<tag k="old_name:se" v="Meresjavri" />
		<tag k="ssr:stedsnr" v="566999" />
	</node>
	<node id="-901356" lat="70.8247555741" lon="29.2304629194">
		<tag k="name" v="Øster-Styrelva" />
		<tag k="ssr:stedsnr" v="566978" />
		<tag k="waterway" v="river" />
	</node>
	<node id="-901355" lat="70.835069462" lon="29.0686463174">
		<tag k="name" v="Veddalselva - Ákkeljohka" />
		<tag k="name:no" v="Veddalselva" />
		<tag k="name:se" v="Ákkeljohka" />
		<tag k="old_name:se" v="Aggeljåkka" />
		<tag k="ssr:stedsnr" v="566975" />
		<tag k="waterway" v="river" />
	</node>
	<node id="-901350" lat="70.5460555825" lon="29.1508795219">
		<tag k="alt_name" v="Magistervatnet, l" />
		<tag k="name" v="Lille Magistervatnet" />
		<tag k="natural" v="water" />
		<tag k="ssr:stedsnr" v="566495" />
	</node>
	<node id="-901349" lat="70.6893278068" lon="29.4562239012">
		<tag k="name" v="Bjørnvikelva" />
		<tag k="ssr:stedsnr" v="566489" />
		<tag k="waterway" v="stream" />
	</node>
	<node id="-901347" lat="70.6986333602" lon="29.3020961967">
		<tag k="alt_name" v="Småvatnan" />
		<tag k="name" v="Småtjerna" />
		<tag k="natural" v="water" />
		<tag k="ssr:stedsnr" v="566397" />
		<tag k="water" v="lake" />
	</node>
	<node id="-901345" lat="70.6499278056" lon="29.0864712546">
		<tag k="alt_name:no" v="Kløftvatnet, store" />
		<tag k="name" v="Store Kløftvatnet - Stuorra Loapmejávri" />
		<tag k="name:no" v="Store Kløftvatnet" />
		<tag k="name:se" v="Stuorra Loapmejávri" />
		<tag k="natural" v="water" />
		<tag k="old_name:se" v="Loabmejavri stuorra" />
		<tag k="ssr:stedsnr" v="566385" />
		<tag k="water" v="lake" />
	</node>
	<node id="-901344" lat="70.5984778045" lon="29.1520878779">
		<tag k="name" v="Magerdalselva - Silesjohka" />
		<tag k="name:no" v="Magerdalselva" />
		<tag k="name:se" v="Silesjohka" />
		<tag k="old_name:se" v="Silesjåkka" />
		<tag k="ssr:stedsnr" v="566103" />
		<tag k="waterway" v="river" />
	</node>
	<node id="-901343" lat="70.4791250309" lon="29.1787656195">
		<tag k="name" v="Njoaskejávri" />
		<tag k="name:se" v="Njoaskejávri" />
		<tag k="natural" v="water" />
		<tag k="old_name:se" v="Njoaskejavri" />
		<tag k="ssr:stedsnr" v="565950" />
	</node>
	<node id="-901331" lat="70.6268833585" lon="29.1553878895">
		<tag k="name" v="Olavholla" />
		<tag k="place" v="locality" />
		<tag k="ssr:stedsnr" v="530879" />
	</node>
	<node id="-901319" lat="70.7948111354" lon="29.1075879519">
		<tag k="name" v="Løkvikdalselva - Ruovdajohka" />
		<tag k="name:no" v="Løkvikdalselva" />
		<tag k="name:se" v="Ruovdajohka" />
		<tag k="old_name:se" v="Ruovdajåkka" />
		<tag k="ssr:stedsnr" v="384993" />
		<tag k="waterway" v="river" />
	</node>
	<node id="-901315" lat="70.837322238" lon="28.8778352751">
		<tag k="alt_name:no" v="Skonsvikelva" />
		<tag k="name" v="Skånsvikelva - Spoatnajohka" />
		<tag k="name:no" v="Skånsvikelva" />
		<tag k="name:se" v="Spoatnajohka" />
		<tag k="old_name:se" v="Spoadnajåkka" />
		<tag k="ssr:stedsnr" v="384972" />
		<tag k="waterway" v="river" />
	</node>
	<node id="-901313" lat="70.5846444704" lon="28.8083435567">
		<tag k="name" v="Vuođavuonjohka" />
		<tag k="name:se" v="Vuođavuonjohka" />
		<tag k="old_name:se" v="Vuođavuonjåkka" />
		<tag k="ssr:stedsnr" v="384344" />
		<tag k="waterway" v="river" />
	</node>
	<node id="-901312" lat="70.6465083611" lon="29.3766294651">
		<tag k="name" v="Straumsvatna" />
		<tag k="natural" v="water" />
		<tag k="ssr:stedsnr" v="384129" />
		<tag k="water" v="lake" />
	</node>
	<node id="-901311" lat="70.7870361372" lon="29.2302490289">
		<tag k="name" v="Sandfjordelva" />
		<tag k="ssr:stedsnr" v="383528" />
		<tag k="waterway" v="river" />
	</node>
	<node id="-901308" lat="70.7362194697" lon="29.1980045825">
		<tag k="name" v="Vester-Risfjordelva" />
		<tag k="ssr:stedsnr" v="383429" />
		<tag k="waterway" v="river" />
	</node>
	<node id="-901307" lat="70.7045139136" lon="28.6069242069">
		<tag k="name" v="Baikajohka" />
		<tag k="name:se" v="Baikajohka" />
		<tag k="old_name:se" v="Baikajåkka" />
		<tag k="ssr:stedsnr" v="383371" />
		<tag k="waterway" v="stream" />
	</node>
	<node id="-901280" lat="70.5926750301" lon="29.0906073416">
		<tag k="name" v="Grasdamman" />
		<tag k="place" v="locality" />
		<tag k="ssr:stedsnr" v="323498" />
	</node>
	<node id="-901279" lat="70.5696028041" lon="29.1900795294">
		<tag k="name" v="Magerdalsvatna - Silesjávrrit" />
		<tag k="name:no" v="Magerdalsvatna" />
		<tag k="name:se" v="Silesjávrrit" />
		<tag k="natural" v="water" />
		<tag k="old_name:se" v="Silesjavrit" />
		<tag k="ssr:stedsnr" v="323495" />
		<tag k="water" v="lake" />
	</node>
	<node id="-901276" lat="70.7221361301" lon="29.0869601695">
		<tag k="name" v="Goalsejohka" />
		<tag k="name:se" v="Goalsejohka" />
		<tag k="old_name:se" v="Goalsejåkka" />
		<tag k="ssr:stedsnr" v="323417" />
		<tag k="waterway" v="stream" />
	</node>
	<node id="-901273" lat="70.681102804" lon="29.2604573044">
		<tag k="name" v="Nikko-Per-vannet - Nihkopierjávri" />
		<tag k="name:no" v="Nikko-Per-vannet" />
		<tag k="name:se" v="Nihkopierjávri" />
		<tag k="natural" v="water" />
		<tag k="old_name:se" v="Nikkupierjavri" />
		<tag k="ssr:stedsnr" v="323402" />
	</node>
	<node id="-901272" lat="70.6196528005" lon="29.0914851381">
		<tag k="name" v="Vidartjernet" />
		<tag k="natural" v="water" />
		<tag k="ssr:stedsnr" v="323388" />
	</node>
	<node id="-901271" lat="70.6564111409" lon="29.1499712325">
		<tag k="name" v="Botnelva" />
		<tag k="ssr:stedsnr" v="323379" />
		<tag k="waterway" v="stream" />
	</node>
	<node id="-901268" lat="70.6710166875" lon="28.6270242072">
		<tag k="name" v="Gállojávri" />
		<tag k="name:se" v="Gállojávri" />
		<tag k="natural" v="water" />
		<tag k="old_name:se" v="Gallujavri" />
		<tag k="ssr:stedsnr" v="323332" />
	</node>
	<node id="-901267" lat="70.5629778035" lon="28.7532491192">
		<tag k="alt_name:no" v="Leirpollvatnet, l" />
		<tag k="name" v="Lille Leirpollvatnet - Reakčavuongeažejávri" />
		<tag k="name:no" v="Lille Leirpollvatnet" />
		<tag k="name:se" v="Reakčavuongeažejávri" />
		<tag k="natural" v="water" />
		<tag k="old_name:se" v="Rækčavuongæžejavri" />
		<tag k="ssr:stedsnr" v="323311" />
		<tag k="water" v="lake" />
	</node>
	<node id="-901262" lat="70.6769055801" lon="29.2106573284">
		<tag k="name" v="Nikko-Per-elva" />
		<tag k="ssr:stedsnr" v="208179" />
		<tag k="waterway" v="river" />
	</node>
	<node id="-901257" lat="70.7776277965" lon="28.6970991865">
		<tag k="name" v="Jeretjohka" />
		<tag k="name:se" v="Jeretjohka" />
		<tag k="old_name:se" v="Jeretjåkka" />
		<tag k="ssr:stedsnr" v="202963" />
		<tag k="waterway" v="stream" />
	</node>
	<node id="-901256" lat="70.8043194668" lon="28.7968491748">
		<tag k="name" v="Sullojohka" />
		<tag k="name:se" v="Sullojohka" />
		<tag k="old_name:se" v="Sullujåkka" />
		<tag k="ssr:stedsnr" v="202952" />
		<tag k="waterway" v="stream" />
	</node>
	<node id="-901255" lat="70.540658364" lon="29.212998956">
		<tag k="name" v="O-vannet" />
		<tag k="natural" v="water" />
		<tag k="ssr:stedsnr" v="202507" />
		<tag k="water" v="lake" />
	</node>
	<node id="-901251" lat="70.6894111371" lon="29.2837128523">
		<tag k="name" v="Rundvannet" />
		<tag k="natural" v="water" />
		<tag k="ssr:stedsnr" v="202400" />
	</node>
	<node id="-901250" lat="70.6163416917" lon="28.9904990626">
		<tag k="name" v="Seltersvannet" />
		<tag k="natural" v="water" />
		<tag k="ssr:stedsnr" v="202392" />
	</node>
	<node id="-901249" lat="70.6186611345" lon="29.0306184884">
		<tag k="name" v="Dagenvannet - Goikemuorjávri" />
		<tag k="name:no" v="Dagenvannet" />
		<tag k="name:se" v="Goikemuorjávri" />
		<tag k="natural" v="water" />
		<tag k="old_name:se" v="Gåikemuorjavri" />
		<tag k="ssr:stedsnr" v="202391" />
		<tag k="water" v="lake" />
	</node>
	<node id="-901248" lat="70.6258000263" lon="29.1492267781">
		<tag k="alt_name:se" v="Getnjejohka" />
		<tag k="name" v="Kongsfjordelva - Geatnja" />
		<tag k="name:no" v="Kongsfjordelva" />
		<tag k="name:se" v="Geatnja" />
		<tag k="old_name:se" v="Gædnja;Gednjejåkka" />
		<tag k="ssr:stedsnr" v="202389" />
		<tag k="waterway" v="river" />
	</node>
	<node id="-901246" lat="70.6962555737" lon="28.6132797494">
		<tag k="name" v="Baikajoksuorgi" />
		<tag k="name:se" v="Baikajoksuorgi" />
		<tag k="old_name:se" v="Baikajåksuorgi" />
		<tag k="ssr:stedsnr" v="202352" />
		<tag k="waterway" v="stream" />
	</node>
	<node id="-901243" lat="70.7200250301" lon="29.7014127051">
		<tag k="name" v="Vesterelva" />
		<tag k="ssr:stedsnr" v="202103" />
		<tag k="waterway" v="river" />
	</node>
	<node id="-901242" lat="70.8705833558" lon="28.9681713524">
		<tag k="name" v="Skonsvikvatnan" />
		<tag k="natural" v="water" />
		<tag k="ssr:stedsnr" v="198697" />
		<tag k="water" v="lake" />
	</node>
	<node id="-901240" lat="70.6575361388" lon="29.2055517737">
		<tag k="name" v="Svartvannet" />
		<tag k="natural" v="water" />
		<tag k="ssr:stedsnr" v="166882" />
	</node>
	<node id="-901232" lat="70.7606444657" lon="28.9036518949">
		<tag k="name" v="Ner-Raggobekken" />
		<tag k="ssr:stedsnr" v="147190" />
		<tag k="waterway" v="stream" />
	</node>
	<node id="-901222" lat="70.7748750228" lon="28.801346382">
		<tag k="name" v="Moalkejávri" />
		<tag k="name:se" v="Moalkejávri" />
		<tag k="natural" v="water" />
		<tag k="old_name:se" v="Moalkejavri" />
		<tag k="ssr:stedsnr" v="141946" />
	</node>
	<node id="-901437" lat="70.6196833571" lon="29.1374629006">
		<tag k="name" v="Kongsfjordfossen" />
		<tag k="natural" v="waterfall" />
		<tag k="ssr:stedsnr" v="834881" />
	</node>
	<node id="-901212" lat="70.648441691" lon="29.1191712516">
		<tag k="name" v="Botnvannet" />
		<tag k="natural" v="water" />
		<tag k="ssr:stedsnr" v="141398" />
		<tag k="water" v="lake" />
	</node>
	<node id="-901211" lat="70.6416833599" lon="28.7037658247">
		<tag k="name" v="Ávgajohka" />
		<tag k="name:se" v="Ávgajohka" />
		<tag k="old_name:se" v="Avgajåkka" />
		<tag k="ssr:stedsnr" v="141343" />
		<tag k="waterway" v="river" />
	</node>
	<node id="-901207" lat="70.7217889165" lon="29.3363378583">
		<tag k="name" v="Veinesvannet" />
		<tag k="natural" v="water" />
		<tag k="ssr:stedsnr" v="108923" />
	</node>
	<node id="-901205" lat="70.8601916884" lon="29.0686324338">
		<tag k="name" v="Karivatna" />
		<tag k="natural" v="water" />
		<tag k="ssr:stedsnr" v="92291" />
	</node>
	<node id="-901196" lat="70.8628333568" lon="28.9855407981">
		<tag k="name" v="Kuelva" />
		<tag k="ssr:stedsnr" v="81968" />
		<tag k="waterway" v="stream" />
	</node>
	<node id="-901193" lat="70.5453972477" lon="29.0228712568">
		<tag k="name" v="Lille Buevannet - Uhca Dávgejávri" />
		<tag k="name:no" v="Lille Buevannet" />
		<tag k="name:se" v="Uhca Dávgejávri" />
		<tag k="natural" v="water" />
		<tag k="old_name:se" v="Davgejavri ucca" />
		<tag k="ssr:stedsnr" v="81508" />
		<tag k="water" v="lake" />
	</node>
	<node id="-901192" lat="70.6826166969" lon="29.5646571992">
		<tag k="name" v="Rubbedalsvatna" />
		<tag k="natural" v="water" />
		<tag k="ssr:stedsnr" v="81506" />
		<tag k="water" v="lake" />
	</node>
	<node id="-901189" lat="70.6857139118" lon="29.059774056">
		<tag k="name" v="Vidjebekken - Sieđgajohka" />
		<tag k="name:no" v="Vidjebekken" />
		<tag k="name:se" v="Sieđgajohka" />
		<tag k="old_name:se" v="Sieđgajåkka" />
		<tag k="ssr:stedsnr" v="81416" />
		<tag k="waterway" v="stream" />
	</node>
	<node id="-901180" lat="70.6524889192" lon="29.174337891">
		<tag k="name" v="Øvre Svaberget" />
		<tag k="place" v="locality" />
		<tag k="ssr:stedsnr" v="46915" />
	</node>
	<node id="-901178" lat="70.8383194665" lon="29.0735963299">
		<tag k="name" v="Veddalsholmen" />
		<tag k="place" v="islet" />
		<tag k="ssr:stedsnr" v="32251" />
	</node>
	<node id="-901169" lat="70.7998805774" lon="28.7354797507">
		<tag k="name" v="Áljasfasjohka" />
		<tag k="name:se" v="Áljasfasjohka" />
		<tag k="old_name:se" v="Alljasfasjåkka" />
		<tag k="ssr:stedsnr" v="20955" />
		<tag k="waterway" v="river" />
	</node>
	<node id="-901166" lat="70.7129139109" lon="28.997007414">
		<tag k="name" v="Rundtjernet - Jorbaláttu" />
		<tag k="name:no" v="Rundtjernet" />
		<tag k="name:se" v="Jorbaláttu" />
		<tag k="natural" v="water" />
		<tag k="old_name:se" v="Jårbaladdo" />
		<tag k="ssr:stedsnr" v="20419" />
	</node>
	<node id="-901162" lat="70.6893555782" lon="29.2410128741">
		<tag k="alt_name" v="Kløftvatnet, nordre" />
		<tag k="fixme" v="multiple name tags, choose one and add the other to alt_name" />
		<tag k="name" v="Nedre Kløft-vatnet;Nordre Kløftvatnet" />
		<tag k="natural" v="water" />
		<tag k="ssr:stedsnr" v="20402" />
	</node>
	<node id="-901161" lat="70.6839722449" lon="29.1944462223">
		<tag k="name" v="Davidsenvannet" />
		<tag k="natural" v="water" />
		<tag k="ssr:stedsnr" v="20399" />
	</node>
	<node id="-901159" lat="70.6239805783" lon="29.0609629104">
		<tag k="alt_name" v="Dagenvasselva" />
		<tag k="name" v="Dagenelva" />
		<tag k="ssr:stedsnr" v="20385" />
		<tag k="waterway" v="river" />
	</node>
	<node id="-901156" lat="70.6434083619" lon="29.2333600883">
		<tag k="name" v="Huldabekken" />
		<tag k="ssr:stedsnr" v="20376" />
		<tag k="waterway" v="stream" />
	</node>
	<node id="-901155" lat="70.7385611363" lon="28.7324352872">
		<tag k="name" v="Skierrevárjohka" />
		<tag k="name:se" v="Skierrevárjohka" />
		<tag k="old_name:se" v="Skierrevarjåkka;Skierrevarjohka" />
		<tag k="ssr:stedsnr" v="20353" />
		<tag k="waterway" v="river" />
	</node>
	<node id="-901151" lat="70.6748528004" lon="28.6561741822">
		<tag k="name" v="Trollfjordelva - Stuorrajohka" />
		<tag k="name:no" v="Trollfjordelva" />
		<tag k="name:se" v="Stuorrajohka" />
		<tag k="old_name:se" v="Stuorrajåkka" />
		<tag k="ssr:stedsnr" v="931108" />
		<tag k="waterway" v="river" />
	</node>
	<node id="-901150" lat="70.7152361339" lon="29.2707767667">
		<tag k="name" v="Lomvannet" />
		<tag k="natural" v="water" />
		<tag k="ssr:stedsnr" v="896957" />
	</node>
	<node id="-901149" lat="70.7161944681" lon="29.2794906387">
		<tag k="name" v="Skarvannet" />
		<tag k="natural" v="water" />
		<tag k="ssr:stedsnr" v="896955" />
	</node>
	<node id="-901148" lat="70.8620889086" lon="28.9099158111">
		<tag k="name" v="Bukkedalselva" />
		<tag k="ssr:stedsnr" v="896755" />
		<tag k="waterway" v="river" />
	</node>
	<node id="-901145" lat="70.631436139" lon="29.0937990236">
		<tag k="name" v="Firkantvannet" />
		<tag k="natural" v="water" />
		<tag k="ssr:stedsnr" v="870403" />
		<tag k="water" v="lake" />
	</node>
	<node id="-901143" lat="70.5279500273" lon="29.1841739702">
		<tag k="name" v="Magistervannet - Mágisttarjávri" />
		<tag k="name:no" v="Magistervannet" />
		<tag k="name:se" v="Mágisttarjávri" />
		<tag k="natural" v="water" />
		<tag k="old_name:se" v="Magistarjavri" />
		<tag k="ssr:stedsnr" v="870507" />
		<tag k="water" v="lake" />
	</node>
	<node id="-901142" lat="70.4946194754" lon="29.1160767481">
		<tag k="name" v="Geatnjajávri" />
		<tag k="name:se" v="Geatnjajávri" />
		<tag k="natural" v="water" />
		<tag k="old_name:se" v="Gædnjajavri" />
		<tag k="ssr:stedsnr" v="869955" />
		<tag k="water" v="lake" />
	</node>
	<node id="-901140" lat="70.8346611315" lon="29.0382657772">
		<tag k="name" v="Ruotkoskáidi" />
		<tag k="name:se" v="Ruotkoskáidi" />
		<tag k="natural" v="cape" />
		<tag k="old_name:se" v="Ruotkuskaidi" />
		<tag k="ssr:stedsnr" v="939821" />
	</node>
	<node id="-901136" lat="70.7685555802" lon="29.2613295748">
		<tag k="name" v="Hamnelvvannet" />
		<tag k="natural" v="water" />
		<tag k="ssr:stedsnr" v="932000" />
	</node>
	<node id="-901130" lat="70.8593694679" lon="28.9458880361">
		<tag k="name" v="Rundvannet" />
		<tag k="natural" v="water" />
		<tag k="ssr:stedsnr" v="930972" />
	</node>
	<node id="-901125" lat="70.638494469" lon="29.0680490364">
		<tag k="alt_name:no" v="Kløftvatnet, l" />
		<tag k="name" v="Lille Kløftvatnet - Uhca Loapmejávri" />
		<tag k="name:no" v="Lille Kløftvatnet" />
		<tag k="name:se" v="Uhca Loapmejávri" />
		<tag k="natural" v="water" />
		<tag k="old_name:se" v="Loabmejavri ucca" />
		<tag k="ssr:stedsnr" v="930402" />
	</node>
	<node id="-901122" lat="70.6469916948" lon="29.2590739777">
		<tag k="name" v="Guohcagopjohka" />
		<tag k="name:se" v="Guohcagopjohka" />
		<tag k="old_name:se" v="Guoccagåpjåkka" />
		<tag k="ssr:stedsnr" v="930394" />
		<tag k="waterway" v="stream" />
	</node>
</osm>
