<?xml version="1.0" encoding="UTF-8"?>
<<<<<<< HEAD
<osm version="0.6" generator="osmapis">
	<node lat="70.70260280406313" lon="29.366660064820994" id="-40370">
=======
<osm generator="osmapis" version="0.6">
	<node id="-914394" lat="70.7657028006" lon="29.340362853">
		<tag k="name" v="Konjakkbakken" />
		<tag k="place" v="locality" />
		<tag k="ssr:stedsnr" v="299446" />
	</node>
	<node id="-914516" lat="70.7026028041" lon="29.3666600648">
>>>>>>> e1d4bc35ff8a6074a6f2e91616a996b547c36f15
		<tag k="fixme" v="verify maritime location" />
		<tag k="mooring" v="yes" />
		<tag k="name" v="Kristofferstøa" />
		<tag k="place" v="locality" />
		<tag k="ssr:stedsnr" v="47901" />
	</node>
<<<<<<< HEAD
	<node lat="70.85900835101226" lon="29.101071309997128" id="-40387">
		<tag k="man_made" v="breakwater" />
		<tag k="name" v="Vardnesmoloen" />
		<tag k="place" v="locality" />
		<tag k="ssr:stedsnr" v="152309" />
	</node>
	<node lat="70.85833891046137" lon="29.0928518812429" id="-40389">
		<tag k="landuse" v="harbour" />
		<tag k="name" v="Indre havn" />
		<tag k="seamark:type" v="harbour" />
		<tag k="ssr:stedsnr" v="152313" />
	</node>
	<node lat="70.87159723876918" lon="29.034990778208094" id="-40540">
=======
	<node id="-914510" lat="70.8728416877" lon="29.0797157753">
		<tag k="man_made" v="tower" />
		<tag k="name" v="Berlevåg Radio" />
		<tag k="ssr:stedsnr" v="31296" />
		<tag k="tower:type" v="communications" />
	</node>
	<node id="-914737" lat="70.8715972388" lon="29.0349907782">
>>>>>>> e1d4bc35ff8a6074a6f2e91616a996b547c36f15
		<tag k="aeroway" v="aerodrome" />
		<tag k="alt_name:no" v="Berlevåg" />
		<tag k="loc_name:se" v="Bearalvági girdihámman" />
		<tag k="name" v="Berlevåg lufthavn" />
		<tag k="name:no" v="Berlevåg lufthavn" />
		<tag k="ssr:stedsnr" v="755317" />
	</node>
<<<<<<< HEAD
	<node lat="70.8640389066472" lon="29.110818522061653" id="-40551">
=======
	<node id="-914766" lat="70.8640389066" lon="29.1108185221">
>>>>>>> e1d4bc35ff8a6074a6f2e91616a996b547c36f15
		<tag k="man_made" v="breakwater" />
		<tag k="name" v="Vestermoloen" />
		<tag k="place" v="locality" />
		<tag k="ssr:stedsnr" v="820288" />
	</node>
<<<<<<< HEAD
	<node lat="70.85953613575083" lon="29.117010194203107" id="-40616">
=======
	<node id="-914509" lat="70.8595361358" lon="29.1170101942">
>>>>>>> e1d4bc35ff8a6074a6f2e91616a996b547c36f15
		<tag k="man_made" v="breakwater" />
		<tag k="name" v="Østermoloen" />
		<tag k="place" v="locality" />
		<tag k="ssr:stedsnr" v="31292" />
	</node>
<<<<<<< HEAD
	<node lat="70.87284168771913" lon="29.07971577532042" id="-40617">
		<tag k="man_made" v="tower" />
		<tag k="name" v="Berlevåg Radio" />
		<tag k="ssr:stedsnr" v="31296" />
		<tag k="tower:type" v="communications" />
	</node>
	<node lat="70.76570280062903" lon="29.340362853024256" id="-40691">
		<tag k="name" v="Konjakkbakken" />
=======
	<node id="-914571" lat="70.8583389105" lon="29.0928518812">
		<tag k="landuse" v="harbour" />
		<tag k="name" v="Indre havn" />
		<tag k="seamark:type" v="harbour" />
		<tag k="ssr:stedsnr" v="152313" />
	</node>
	<node id="-914569" lat="70.859008351" lon="29.10107131">
		<tag k="man_made" v="breakwater" />
		<tag k="name" v="Vardnesmoloen" />
>>>>>>> e1d4bc35ff8a6074a6f2e91616a996b547c36f15
		<tag k="place" v="locality" />
		<tag k="ssr:stedsnr" v="299446" />
	</node>
<<<<<<< HEAD
	<node lat="70.86287779493983" lon="29.076349106945912" id="-40721">
=======
	<node id="-914632" lat="70.8628777949" lon="29.0763491069">
>>>>>>> e1d4bc35ff8a6074a6f2e91616a996b547c36f15
		<tag k="man_made" v="tower" />
		<tag k="name" v="Radiolinken" />
		<tag k="ssr:stedsnr" v="334280" />
		<tag k="tower:type" v="communications" />
	</node>
</osm>
