<?xml version="1.0" encoding="UTF-8"?>
<osm version="0.6" generator="osmapis">
	<node lat="70.76660835936906" lon="29.34902676305163" id="-58812">
		<tag k="name" v="Nordmannset - Struhppu" />
		<tag k="name:no" v="Nordmannset" />
		<tag k="name:se" v="Struhppu" />
		<tag k="old_name:se" v="Struppo" />
		<tag k="place" v="hamlet" />
		<tag k="ssr:stedsnr" v="141998" />
	</node>
	<node lat="70.86070601643881" lon="29.092760438571514" id="-58814">
		<tag k="leisure" v="park" />
		<tag k="name" v="Parken" />
		<tag k="ssr:stedsnr" v="152311" />
	</node>
	<node lat="70.88386668747552" lon="28.95550191690137" id="-58831">
		<tag k="name" v="Russehamna" />
		<tag k="place" v="isolated_dwelling" />
		<tag k="ssr:stedsnr" v="263962" />
	</node>
	<node lat="70.8684639055487" lon="29.019793574715365" id="-58833">
		<tag k="name" v="Storsletta" />
		<tag k="place" v="farm" />
		<tag k="ssr:stedsnr" v="263966" />
	</node>
	<node lat="70.68059168755548" lon="28.631218642579633" id="-58836">
		<tag k="fixme" v="multiple name tags, choose one and add the other to alt_name; consider place=hamlet" />
		<tag k="name" v="Gulgofjorden;Trollfjorden" />
		<tag k="place" v="village" />
		<tag k="ssr:stedsnr" v="202343" />
	</node>
	<node lat="70.86420279406754" lon="28.79942974556112" id="-58845">
		<tag k="name" v="Bukkekeila" />
		<tag k="place" v="locality" />
		<tag k="ssr:stedsnr" v="208506" />
	</node>
	<node lat="70.86671112666849" lon="28.802418634356883" id="-58847">
		<tag k="name" v="Skipsnes" />
		<tag k="place" v="locality" />
		<tag k="ssr:stedsnr" v="269500" />
	</node>
	<node lat="70.85279446759598" lon="29.084207436163283" id="-58854">
		<tag k="leisure" v="pitch" />
		<tag k="name" v="Berlevåg Stadion" />
		<tag k="ssr:stedsnr" v="457256" />
	</node>
	<node lat="70.79986391134727" lon="28.916160254022916" id="-58933">
		<tag k="name" v="Bastholmslåtta" />
		<tag k="place" v="locality" />
		<tag k="ssr:stedsnr" v="627995" />
	</node>
	<node lat="70.72426669005017" lon="29.35282951919999" id="-59052">
		<tag k="name" v="Veidnes" />
		<tag k="old_name" v="Veines" />
		<tag k="place" v="hamlet" />
		<tag k="ssr:stedsnr" v="80415" />
	</node>
	<node lat="70.72053335958523" lon="29.319085071865285" id="-59053">
		<tag k="name" v="Kongsfjord" />
		<tag k="place" v="village" />
		<tag k="ssr:stedsnr" v="80420" />
	</node>
	<node lat="70.78733057431555" lon="28.670699218989345" id="-59060">
		<tag k="fixme" v="consider place=hamlet" />
		<tag k="name" v="Store Molvik" />
		<tag k="old_name" v="Molvik, store" />
		<tag k="place" v="village" />
		<tag k="ssr:stedsnr" v="81946" />
	</node>
	<node lat="70.67492502274794" lon="29.239946195426157" id="-59083">
		<tag k="name" v="Myrvoll" />
		<tag k="place" v="isolated_dwelling" />
		<tag k="ssr:stedsnr" v="141424" />
	</node>
	<node lat="70.6528250291734" lon="29.26792675228406" id="-59140">
		<tag k="name" v="Sætran" />
		<tag k="place" v="locality" />
		<tag k="ssr:stedsnr" v="329542" />
	</node>
	<node lat="70.8577916914398" lon="29.08593242300923" id="-59248">
		<tag k="loc_name:se" v="Bearalváhki" />
		<tag k="name" v="Berlevåg" />
		<tag k="name:no" v="Berlevåg" />
		<tag k="place" v="village" />
		<tag k="ssr:stedsnr" v="627977" />
	</node>
	<node lat="70.83212780183946" lon="28.89754637383082" id="-59252">
		<tag k="name" v="Rikardslåtta" />
		<tag k="place" v="locality" />
		<tag k="ssr:stedsnr" v="627989" />
	</node>
	<node lat="70.85509446155842" lon="29.118671305072173" id="-59255">
		<tag k="name" v="Revenes" />
		<tag k="place" v="farm" />
		<tag k="ssr:stedsnr" v="632941" />
	</node>
	<node lat="69.65483861708206" lon="18.954055597917613" id="-59338">
		<tag k="amenity" v="school" />
		<tag k="name" v="Ishavsbyen videregående skole" />
		<tag k="ssr:stedsnr" v="1075695" />
	</node>
</osm>
