<?xml version="1.0" encoding="UTF-8"?>
<osm version="0.6" generator="osmapis">
	<node lat="70.62167780739988" lon="29.22284619121694" id="-40800">
		<tag k="name" v="Bryggaridalen" />
		<tag k="natural" v="valley" />
		<tag k="place" v="locality" />
		<tag k="ssr:stedsnr" v="20392" />
	</node>
	<node lat="70.5871944738906" lon="29.40485444504144" id="-40803">
		<tag k="fixme" v="consider natural=peak for the most distinct mountains in the district" />
		<tag k="name" v="Álosoaivi" />
		<tag k="name:se" v="Álosoaivi" />
		<tag k="natural" v="hill" />
		<tag k="old_name:se" v="Alusoaivi" />
		<tag k="place" v="locality" />
		<tag k="ssr:stedsnr" v="20486" />
	</node>
	<node lat="70.72331113447692" lon="29.31305174928188" id="-40805">
		<tag k="name" v="Plogvikhøgda" />
		<tag k="natural" v="hill" />
		<tag k="place" v="locality" />
		<tag k="ssr:stedsnr" v="47920" />
	</node>
	<node lat="70.60524169053015" lon="28.94061019651739" id="-40808">
		<tag k="fixme" v="consider natural=peak for the most distinct mountains in the district" />
		<tag k="name" v="Buefjell - Dávgečearru" />
		<tag k="name:no" v="Buefjell" />
		<tag k="name:se" v="Dávgečearru" />
		<tag k="natural" v="hill" />
		<tag k="old_name:se" v="Davgečearru;Davgečærro" />
		<tag k="place" v="locality" />
		<tag k="ssr:stedsnr" v="86484" />
	</node>
	<node lat="70.6637500252525" lon="29.18863234411065" id="-40809">
		<tag k="name" v="Vesterdalshaugen" />
		<tag k="natural" v="hill" />
		<tag k="place" v="locality" />
		<tag k="ssr:stedsnr" v="105906" />
	</node>
	<node lat="70.74857779743967" lon="28.555015894877254" id="-40811">
		<tag k="name" v="Fugleberget - Loddebákti" />
		<tag k="name:no" v="Fugleberget" />
		<tag k="name:se" v="Loddebákti" />
		<tag k="natural" v="hill" />
		<tag k="old_name:se" v="Låddebakti" />
		<tag k="place" v="locality" />
		<tag k="ssr:stedsnr" v="140376" />
	</node>
	<node lat="70.61526391326426" lon="29.322026715090864" id="-40814">
		<tag k="fixme" v="consider natural=peak for the most distinct mountains in the district" />
		<tag k="name" v="Sæterdalstoppen" />
		<tag k="natural" v="hill" />
		<tag k="place" v="locality" />
		<tag k="ssr:stedsnr" v="141409" />
	</node>
	<node lat="70.7848805788879" lon="29.348368432136557" id="-40818">
		<tag k="fixme" v="consider natural=peak for the most distinct mountains in the district" />
		<tag k="name" v="Nålnesaksla" />
		<tag k="natural" v="hill" />
		<tag k="place" v="locality" />
		<tag k="ssr:stedsnr" v="141987" />
	</node>
	<node lat="70.77098057493416" lon="28.84630747200484" id="-40819">
		<tag k="fixme" v="consider natural=peak for the most distinct mountains in the district" />
		<tag k="name" v="Njálačohkat" />
		<tag k="name:se" v="Njálačohkat" />
		<tag k="natural" v="hill" />
		<tag k="old_name:se" v="Njalačåkkat" />
		<tag k="place" v="locality" />
		<tag k="ssr:stedsnr" v="141992" />
	</node>
	<node lat="70.83619446035907" lon="28.981924129964845" id="-40824">
		<tag k="name" v="Langlia" />
		<tag k="natural" v="slope" />
		<tag k="place" v="locality" />
		<tag k="ssr:stedsnr" v="259677" />
	</node>
	<node lat="70.7222194643195" lon="28.64859363468231" id="-40829">
		<tag k="name" v="Baikačearru" />
		<tag k="name:se" v="Baikačearru" />
		<tag k="natural" v="plateau" />
		<tag k="old_name:se" v="Baikačærro" />
		<tag k="ssr:stedsnr" v="262357" />
	</node>
	<node lat="70.77137501579755" lon="28.645313102546037" id="-40837">
		<tag k="name" v="Beantabákti" />
		<tag k="name:se" v="Beantabákti" />
		<tag k="natural" v="hill" />
		<tag k="old_name:se" v="Bæntabakti" />
		<tag k="place" v="locality" />
		<tag k="ssr:stedsnr" v="263954" />
	</node>
	<node lat="70.78188890916016" lon="28.766249188708493" id="-40838">
		<tag k="name" v="Stuorrajokgorsa" />
		<tag k="name:se" v="Stuorrajokgorsa" />
		<tag k="natural" v="valley" />
		<tag k="old_name:se" v="Stuorrajåkgårsa" />
		<tag k="place" v="locality" />
		<tag k="ssr:stedsnr" v="263955" />
	</node>
	<node lat="70.5616972548402" lon="29.393318343919706" id="-40850">
		<tag k="name" v="Basečearru" />
		<tag k="name:se" v="Basečearru" />
		<tag k="natural" v="plateau" />
		<tag k="old_name:se" v="Basečærro" />
		<tag k="ssr:stedsnr" v="202506" />
	</node>
	<node lat="70.8684027963587" lon="29.049765786601004" id="-40861">
		<tag k="name" v="Torvbergan" />
		<tag k="natural" v="hill" />
		<tag k="place" v="locality" />
		<tag k="ssr:stedsnr" v="457285" />
	</node>
	<node lat="70.69336947125215" lon="29.49346554648263" id="-40867">
		<tag k="fixme" v="consider natural=peak for the most distinct mountains in the district" />
		<tag k="name" v="Bjørnviktoppen" />
		<tag k="natural" v="hill" />
		<tag k="place" v="locality" />
		<tag k="ssr:stedsnr" v="263499" />
	</node>
	<node lat="70.84419446463211" lon="28.967038014147384" id="-40869">
		<tag k="fixme" v="consider natural=peak for the most distinct mountains in the district" />
		<tag k="name" v="Lillevarden" />
		<tag k="natural" v="hill" />
		<tag k="place" v="locality" />
		<tag k="ssr:stedsnr" v="263981" />
	</node>
	<node lat="70.67864724568717" lon="29.247148983897926" id="-40872">
		<tag k="name" v="Nikko-Per-haugen" />
		<tag k="natural" v="hill" />
		<tag k="place" v="locality" />
		<tag k="ssr:stedsnr" v="269208" />
	</node>
	<node lat="70.62469447013319" lon="29.106918457568085" id="-40874">
		<tag k="name" v="Gednjehaugen" />
		<tag k="natural" v="hill" />
		<tag k="place" v="locality" />
		<tag k="ssr:stedsnr" v="287885" />
	</node>
	<node lat="70.72497224854553" lon="29.15872404416501" id="-40879">
		<tag k="fixme" v="consider natural=peak for the most distinct mountains in the district" />
		<tag k="name" v="Vester-Risfjordfjellet" />
		<tag k="natural" v="hill" />
		<tag k="place" v="locality" />
		<tag k="ssr:stedsnr" v="323413" />
	</node>
	<node lat="70.72590836113913" lon="29.074126831619406" id="-40880">
		<tag k="fixme" v="consider natural=peak for the most distinct mountains in the district" />
		<tag k="name" v="Goalsečohkka" />
		<tag k="name:se" v="Goalsečohkka" />
		<tag k="natural" v="hill" />
		<tag k="old_name:se" v="Goalsečåkka" />
		<tag k="place" v="locality" />
		<tag k="ssr:stedsnr" v="323416" />
	</node>
	<node lat="70.71920002319413" lon="29.247243429196676" id="-40882">
		<tag k="fixme" v="consider natural=peak for the most distinct mountains in the district" />
		<tag k="name" v="Hergevasstoppen - Heargevárri" />
		<tag k="name:no" v="Hergevasstoppen" />
		<tag k="name:se" v="Heargevárri" />
		<tag k="natural" v="hill" />
		<tag k="old_name:se" v="Hærgevarri" />
		<tag k="place" v="locality" />
		<tag k="ssr:stedsnr" v="323421" />
	</node>
	<node lat="70.6557139179992" lon="29.210710106189712" id="-40886">
		<tag k="name" v="Svarthaugen" />
		<tag k="natural" v="hill" />
		<tag k="place" v="locality" />
		<tag k="ssr:stedsnr" v="469898" />
	</node>
	<node lat="70.8579166873235" lon="28.91430194107886" id="-40887">
		<tag k="name" v="Skonsvikdalen" />
		<tag k="natural" v="valley" />
		<tag k="place" v="locality" />
		<tag k="ssr:stedsnr" v="470557" />
	</node>
	<node lat="70.84673890741946" lon="29.02119634435957" id="-40888">
		<tag k="name" v="Grønnlihøgda" />
		<tag k="natural" v="hill" />
		<tag k="place" v="locality" />
		<tag k="ssr:stedsnr" v="471703" />
	</node>
	<node lat="70.59959447349307" lon="29.085649019607985" id="-40891">
		<tag k="name" v="Kongsfjorddalen - Getnjeleahki" />
		<tag k="name:no" v="Kongsfjorddalen" />
		<tag k="name:se" v="Getnjeleahki" />
		<tag k="natural" v="valley" />
		<tag k="place" v="locality" />
		<tag k="ssr:stedsnr" v="349921" />
	</node>
	<node lat="70.77753890828478" lon="29.30373232724074" id="-40896">
		<tag k="fixme" v="consider natural=peak for the most distinct mountains in the district" />
		<tag k="name" v="Middagsfjellet" />
		<tag k="natural" v="hill" />
		<tag k="place" v="locality" />
		<tag k="ssr:stedsnr" v="384996" />
	</node>
	<node lat="70.83436113587595" lon="29.217965698147" id="-40897">
		<tag k="name" v="Vester-Styrelvdalen" />
		<tag k="natural" v="valley" />
		<tag k="place" v="locality" />
		<tag k="ssr:stedsnr" v="390211" />
	</node>
	<node lat="70.84839168582835" lon="29.141185194784672" id="-40899">
		<tag k="name" v="Strupen" />
		<tag k="natural" v="valley" />
		<tag k="place" v="locality" />
		<tag k="ssr:stedsnr" v="396214" />
	</node>
	<node lat="70.65603613932299" lon="29.141271244626825" id="-40900">
		<tag k="name" v="Botnelvdalen" />
		<tag k="natural" v="valley" />
		<tag k="place" v="locality" />
		<tag k="ssr:stedsnr" v="410904" />
	</node>
	<node lat="70.70829724906095" lon="29.28966564330915" id="-40901">
		<tag k="fixme" v="consider natural=peak for the most distinct mountains in the district" />
		<tag k="name" v="Båsan" />
		<tag k="natural" v="hill" />
		<tag k="place" v="locality" />
		<tag k="ssr:stedsnr" v="410941" />
	</node>
	<node lat="70.85306113027868" lon="28.766038075788344" id="-40906">
		<tag k="fixme" v="consider natural=peak for the most distinct mountains in the district" />
		<tag k="name" v="Kvitnesaksla" />
		<tag k="natural" v="hill" />
		<tag k="place" v="locality" />
		<tag k="ssr:stedsnr" v="451511" />
	</node>
	<node lat="70.64669725132607" lon="29.19732954593837" id="-40911">
		<tag k="name" v="Østerhaugen" />
		<tag k="natural" v="hill" />
		<tag k="place" v="locality" />
		<tag k="ssr:stedsnr" v="530881" />
	</node>
	<node lat="70.71718612847275" lon="28.54648810812654" id="-40914">
		<tag k="name" v="Vákkáš" />
		<tag k="name:se" v="Vákkáš" />
		<tag k="natural" v="valley" />
		<tag k="old_name:se" v="Vaggaš" />
		<tag k="place" v="locality" />
		<tag k="ssr:stedsnr" v="687360" />
	</node>
	<node lat="70.70540001984155" lon="28.555774217820936" id="-40915">
		<tag k="name" v="Vitnjalasvággi" />
		<tag k="name:se" v="Vitnjalasvággi" />
		<tag k="natural" v="valley" />
		<tag k="old_name:se" v="Vidnjalasvaggi" />
		<tag k="place" v="locality" />
		<tag k="ssr:stedsnr" v="687362" />
	</node>
	<node lat="70.70802780910182" lon="29.63065995054269" id="-40919">
		<tag k="name" v="Vestre Rubbedalen" />
		<tag k="natural" v="valley" />
		<tag k="old_name" v="Rubbedalen, vestre" />
		<tag k="place" v="locality" />
		<tag k="ssr:stedsnr" v="688484" />
	</node>
	<node lat="70.78207780023632" lon="28.687985306358456" id="-40920">
		<tag k="name" v="Bárši" />
		<tag k="name:se" v="Bárši" />
		<tag k="natural" v="hill" />
		<tag k="old_name:se" v="Barši" />
		<tag k="place" v="locality" />
		<tag k="ssr:stedsnr" v="688956" />
	</node>
	<node lat="70.83765557615774" lon="29.168079615332893" id="-40929">
		<tag k="name" v="Vargvikdalen" />
		<tag k="natural" v="valley" />
		<tag k="place" v="locality" />
		<tag k="ssr:stedsnr" v="566973" />
	</node>
	<node lat="70.73816391099457" lon="29.246985112981076" id="-40933">
		<tag k="name" v="Vestre Risfjordbotn" />
		<tag k="place" v="locality" />
		<tag k="ssr:stedsnr" v="693949" />
	</node>
	<node lat="70.85890002377113" lon="29.08126577686188" id="-40938">
		<tag k="name" v="Sankthanshaugen" />
		<tag k="natural" v="hill" />
		<tag k="place" v="locality" />
		<tag k="ssr:stedsnr" v="577297" />
	</node>
	<node lat="70.75920835899316" lon="29.29264622370266" id="-40942">
		<tag k="name" v="Nordmannsetdalen" />
		<tag k="natural" v="valley" />
		<tag k="place" v="locality" />
		<tag k="ssr:stedsnr" v="627999" />
	</node>
	<node lat="70.85675279813717" lon="29.064118538452995" id="-40943">
		<tag k="name" v="Grønnlia" />
		<tag k="natural" v="slope" />
		<tag k="place" v="locality" />
		<tag k="ssr:stedsnr" v="637325" />
	</node>
	<node lat="70.86217779600425" lon="28.902818602328683" id="-40946">
		<tag k="name" v="Bukkedalen" />
		<tag k="natural" v="valley" />
		<tag k="place" v="locality" />
		<tag k="ssr:stedsnr" v="652705" />
	</node>
	<node lat="70.651563917315" lon="29.287660064647937" id="-40948">
		<tag k="name" v="Hundelvdalen" />
		<tag k="natural" v="valley" />
		<tag k="place" v="locality" />
		<tag k="ssr:stedsnr" v="709991" />
	</node>
	<node lat="70.66762780108637" lon="28.986910176085175" id="-40949">
		<tag k="name" v="Kjerkehaugen" />
		<tag k="natural" v="hill" />
		<tag k="place" v="locality" />
		<tag k="ssr:stedsnr" v="687403" />
	</node>
	<node lat="70.65466391551605" lon="28.69577416656752" id="-40951">
		<tag k="name" v="Sørdalen" />
		<tag k="natural" v="valley" />
		<tag k="place" v="locality" />
		<tag k="ssr:stedsnr" v="687345" />
	</node>
	<node lat="70.68490002477407" lon="29.154971252374935" id="-40965">
		<tag k="fixme" v="consider natural=peak for the most distinct mountains in the district" />
		<tag k="name" v="Nikko-Per-top" />
		<tag k="natural" v="hill" />
		<tag k="place" v="locality" />
		<tag k="ssr:stedsnr" v="744076" />
	</node>
	<node lat="70.8596361321129" lon="28.972449133668658" id="-40966">
		<tag k="fixme" v="consider natural=peak for the most distinct mountains in the district" />
		<tag k="name" v="Blomsterfjellet" />
		<tag k="natural" v="hill" />
		<tag k="place" v="locality" />
		<tag k="ssr:stedsnr" v="744690" />
	</node>
	<node lat="70.70275279986676" lon="29.245435090494066" id="-40973">
		<tag k="name" v="Holmhaugen" />
		<tag k="natural" v="hill" />
		<tag k="place" v="locality" />
		<tag k="ssr:stedsnr" v="228943" />
	</node>
	<node lat="70.84191946388812" lon="28.8464852859613" id="-40975">
		<tag k="fixme" v="consider natural=peak for the most distinct mountains in the district" />
		<tag k="name" v="Svanefjellet" />
		<tag k="natural" v="hill" />
		<tag k="place" v="locality" />
		<tag k="ssr:stedsnr" v="774603" />
	</node>
	<node lat="70.58652225243893" lon="29.149254545116115" id="-40980">
		<tag k="fixme" v="consider natural=peak for the most distinct mountains in the district" />
		<tag k="name" v="Magertoppen - Silesčohkka" />
		<tag k="name:no" v="Magertoppen" />
		<tag k="name:se" v="Silesčohkka" />
		<tag k="natural" v="hill" />
		<tag k="old_name:se" v="Silesčåkka" />
		<tag k="place" v="locality" />
		<tag k="ssr:stedsnr" v="809515" />
	</node>
	<node lat="70.85834168695034" lon="28.801540869081514" id="-40981">
		<tag k="fixme" v="consider natural=peak for the most distinct mountains in the district" />
		<tag k="name" v="Bukkekeilfjellet" />
		<tag k="natural" v="hill" />
		<tag k="place" v="locality" />
		<tag k="ssr:stedsnr" v="809931" />
	</node>
	<node lat="70.71948891632822" lon="29.33650452980424" id="-40990">
		<tag k="name" v="Skansen" />
		<tag k="place" v="locality" />
		<tag k="ssr:stedsnr" v="836926" />
	</node>
	<node lat="70.69445836097385" lon="29.24689343001526" id="-40991">
		<tag k="alt_name" v="Falkedalen" />
		<tag k="name" v="Falkdalen" />
		<tag k="natural" v="valley" />
		<tag k="place" v="locality" />
		<tag k="ssr:stedsnr" v="869434" />
	</node>
	<node lat="70.6767278063487" lon="29.1731267805786" id="-40992">
		<tag k="name" v="Nikko-Per-dalen - Nihkopierleahki" />
		<tag k="name:no" v="Nikko-Per-dalen" />
		<tag k="name:se" v="Nihkopierleahki" />
		<tag k="natural" v="valley" />
		<tag k="old_name:se" v="Nikkupierlækki" />
		<tag k="place" v="locality" />
		<tag k="ssr:stedsnr" v="869444" />
	</node>
	<node lat="70.51033614022624" lon="29.011615681992335" id="-40995">
		<tag k="fixme" v="consider natural=peak for the most distinct mountains in the district" />
		<tag k="name" v="Skužučohkka" />
		<tag k="name:se" v="Skužučohkka" />
		<tag k="natural" v="hill" />
		<tag k="old_name:se" v="Skužočåkka" />
		<tag k="place" v="locality" />
		<tag k="ssr:stedsnr" v="870508" />
	</node>
	<node lat="70.6796361392316" lon="29.36215449122901" id="-41002">
		<tag k="name" v="Storneshaugen" />
		<tag k="natural" v="hill" />
		<tag k="place" v="locality" />
		<tag k="ssr:stedsnr" v="930409" />
	</node>
	<node lat="70.70823057649596" lon="28.930979672761165" id="-41005">
		<tag k="name" v="Rákkočearru" />
		<tag k="name:se" v="Rákkočearru" />
		<tag k="natural" v="plateau" />
		<tag k="old_name:se" v="Raggučærro" />
		<tag k="ssr:stedsnr" v="930437" />
	</node>
	<node lat="70.75521390795902" lon="28.730824174213414" id="-41006">
		<tag k="fixme" v="consider natural=peak for the most distinct mountains in the district" />
		<tag k="name" v="Stivlečohkka" />
		<tag k="name:se" v="Stivlečohkka" />
		<tag k="natural" v="hill" />
		<tag k="old_name:se" v="Stivlečåkka" />
		<tag k="place" v="locality" />
		<tag k="ssr:stedsnr" v="930962" />
	</node>
	<node lat="70.84926113238083" lon="29.21234905706257" id="-41009">
		<tag k="fixme" v="consider natural=peak for the most distinct mountains in the district" />
		<tag k="name" v="Kjølnesaksla" />
		<tag k="natural" v="hill" />
		<tag k="place" v="locality" />
		<tag k="ssr:stedsnr" v="930974" />
	</node>
	<node lat="70.8374083559267" lon="28.811182526008334" id="-41010">
		<tag k="name" v="Svandalen" />
		<tag k="natural" v="valley" />
		<tag k="place" v="locality" />
		<tag k="ssr:stedsnr" v="930934" />
	</node>
	<node lat="70.62838891337364" lon="28.60443530640854" id="-41015">
		<tag k="fixme" v="consider natural=peak for the most distinct mountains in the district" />
		<tag k="name" v="Dáhkočearru - Slipsteinfjellet" />
		<tag k="name:no" v="Slipsteinfjellet" />
		<tag k="name:se" v="Dáhkočearru" />
		<tag k="natural" v="hill" />
		<tag k="old_name:se" v="Dakkučærro;Dahkočearru" />
		<tag k="place" v="locality" />
		<tag k="ssr:stedsnr" v="930352" />
	</node>
	<node lat="70.61936113689998" lon="28.766651911624646" id="-41016">
		<tag k="name" v="Báktegorsa" />
		<tag k="name:se" v="Báktegorsa" />
		<tag k="natural" v="valley" />
		<tag k="old_name:se" v="Baktegårsa" />
		<tag k="place" v="locality" />
		<tag k="ssr:stedsnr" v="930353" />
	</node>
	<node lat="70.65136946432817" lon="28.914643548155073" id="-41020">
		<tag k="fixme" v="consider natural=peak for the most distinct mountains in the district" />
		<tag k="name" v="Divgačearru" />
		<tag k="name:se" v="Divgačearru" />
		<tag k="natural" v="hill" />
		<tag k="old_name:se" v="Divgačærro" />
		<tag k="place" v="locality" />
		<tag k="ssr:stedsnr" v="930398" />
	</node>
	<node lat="70.80209724824945" lon="29.22223237014897" id="-41025">
		<tag k="fixme" v="consider natural=peak for the most distinct mountains in the district" />
		<tag k="name" v="Sandfjordfjellet" />
		<tag k="natural" v="hill" />
		<tag k="place" v="locality" />
		<tag k="ssr:stedsnr" v="931990" />
	</node>
	<node lat="70.79918613782019" lon="29.2289962443053" id="-41026">
		<tag k="name" v="Sandfjordskardet" />
		<tag k="natural" v="valley" />
		<tag k="place" v="locality" />
		<tag k="ssr:stedsnr" v="931992" />
	</node>
	<node lat="70.76590557866018" lon="29.28084621075287" id="-41027">
		<tag k="name" v="Kvalvikhøgda" />
		<tag k="natural" v="hill" />
		<tag k="place" v="locality" />
		<tag k="ssr:stedsnr" v="931999" />
	</node>
	<node lat="70.8680527989502" lon="28.95006582548733" id="-41028">
		<tag k="name" v="Dalbakken" />
		<tag k="natural" v="slope" />
		<tag k="place" v="locality" />
		<tag k="ssr:stedsnr" v="956600" />
	</node>
	<node lat="70.67414169067207" lon="29.089190716016432" id="-41029">
		<tag k="fixme" v="consider natural=peak for the most distinct mountains in the district" />
		<tag k="name" v="Lomtoppen" />
		<tag k="natural" v="hill" />
		<tag k="place" v="locality" />
		<tag k="ssr:stedsnr" v="20404" />
	</node>
	<node lat="70.6749361305278" lon="28.554907553069828" id="-41033">
		<tag k="name" v="Kråkeberget" />
		<tag k="natural" v="hill" />
		<tag k="place" v="locality" />
		<tag k="ssr:stedsnr" v="20335" />
	</node>
	<node lat="70.6497250251926" lon="29.319435051789572" id="-41036">
		<tag k="fixme" v="consider natural=peak for the most distinct mountains in the district" />
		<tag k="name" v="Sæterdalsfjella" />
		<tag k="natural" v="hill" />
		<tag k="place" v="locality" />
		<tag k="ssr:stedsnr" v="20382" />
	</node>
	<node lat="70.61472502486578" lon="29.152754556113795" id="-41037">
		<tag k="name" v="Ørretvasshøgda" />
		<tag k="natural" v="hill" />
		<tag k="place" v="locality" />
		<tag k="ssr:stedsnr" v="20384" />
	</node>
	<node lat="70.6765750327097" lon="29.624965498368834" id="-41039">
		<tag k="fixme" v="consider natural=peak for the most distinct mountains in the district" />
		<tag k="name" v="Rubbedalshøgda" />
		<tag k="natural" v="hill" />
		<tag k="place" v="locality" />
		<tag k="ssr:stedsnr" v="20479" />
	</node>
	<node lat="70.76952224210578" lon="28.77478251531511" id="-41041">
		<tag k="name" v="Guhkesgorsa" />
		<tag k="name:se" v="Guhkesgorsa" />
		<tag k="natural" v="valley" />
		<tag k="old_name:se" v="Gukkesgårsa" />
		<tag k="place" v="locality" />
		<tag k="ssr:stedsnr" v="20968" />
	</node>
	<node lat="70.75294724569812" lon="28.682929759970662" id="-41042">
		<tag k="name" v="Suorgeleahki" />
		<tag k="name:se" v="Suorgeleahki" />
		<tag k="natural" v="valley" />
		<tag k="old_name:se" v="Suorgelækki" />
		<tag k="place" v="locality" />
		<tag k="ssr:stedsnr" v="20969" />
	</node>
	<node lat="70.87768057562765" lon="28.9034658249168" id="-41043">
		<tag k="name" v="Stuorrabákti" />
		<tag k="name:se" v="Stuorrabákti" />
		<tag k="natural" v="hill" />
		<tag k="old_name:se" v="Stuorrabakti" />
		<tag k="place" v="locality" />
		<tag k="ssr:stedsnr" v="20972" />
	</node>
	<node lat="70.83093057818152" lon="28.746338096014284" id="-41045">
		<tag k="fixme" v="multiple name tags, choose one and add the other to alt_name; consider natural=peak for the most distinct mountains in the district" />
		<tag k="name" v="Kvitnesfjellet;Molvikfjellet - Goahtu" />
		<tag k="name:no" v="Kvitnesfjellet;Molvikfjellet" />
		<tag k="name:se" v="Goahtu" />
		<tag k="natural" v="hill" />
		<tag k="old_name:se" v="Goatto" />
		<tag k="place" v="locality" />
		<tag k="ssr:stedsnr" v="25919" />
	</node>
	<node lat="70.59812779943682" lon="29.132776782395872" id="-41055">
		<tag k="name" v="Magerdalshøgda" />
		<tag k="natural" v="hill" />
		<tag k="place" v="locality" />
		<tag k="ssr:stedsnr" v="46909" />
	</node>
	<node lat="70.70745558506466" lon="29.269196200005517" id="-41062">
		<tag k="fixme" v="multiple name tags, choose one and add the other to alt_name" />
		<tag k="name" v="Kongsfjordfjell;Kobbkrokhøgda - Goađáščohkka" />
		<tag k="name:no" v="Kongsfjordfjell;Kobbkrokhøgda" />
		<tag k="name:se" v="Goađáščohkka" />
		<tag k="natural" v="hill" />
		<tag k="old_name:se" v="Goađaščåkka" />
		<tag k="place" v="locality" />
		<tag k="ssr:stedsnr" v="80422" />
	</node>
	<node lat="70.74051668789272" lon="29.089824048900674" id="-41063">
		<tag k="fixme" v="consider natural=peak for the most distinct mountains in the district" />
		<tag k="name" v="Meresvárri" />
		<tag k="name:se" v="Meresvárri" />
		<tag k="natural" v="hill" />
		<tag k="old_name:se" v="Meresvarri" />
		<tag k="place" v="locality" />
		<tag k="ssr:stedsnr" v="80430" />
	</node>
	<node lat="70.68197502824879" lon="29.39672947661493" id="-41066">
		<tag k="name" v="Sandbuktdalen" />
		<tag k="natural" v="valley" />
		<tag k="place" v="locality" />
		<tag k="ssr:stedsnr" v="81423" />
	</node>
	<node lat="70.66815279839082" lon="28.930771313088677" id="-41067">
		<tag k="name" v="Langdalen" />
		<tag k="natural" v="valley" />
		<tag k="place" v="locality" />
		<tag k="ssr:stedsnr" v="81429" />
	</node>
	<node lat="70.79581668212474" lon="28.754790862044317" id="-41069">
		<tag k="fixme" v="consider natural=peak for the most distinct mountains in the district" />
		<tag k="name" v="Vihttalohvárri" />
		<tag k="name:se" v="Vihttalohvárri" />
		<tag k="natural" v="hill" />
		<tag k="old_name:se" v="Vittalåkvarri" />
		<tag k="place" v="locality" />
		<tag k="ssr:stedsnr" v="81947" />
	</node>
	<node lat="70.53370835679085" lon="29.154996204814378" id="-41073">
		<tag k="fixme" v="consider natural=peak for the most distinct mountains in the district" />
		<tag k="name" v="Magistertoppen - Mágisttarčohkka" />
		<tag k="name:no" v="Magistertoppen" />
		<tag k="name:se" v="Mágisttarčohkka" />
		<tag k="natural" v="hill" />
		<tag k="old_name:se" v="Magistarčåkka" />
		<tag k="place" v="locality" />
		<tag k="ssr:stedsnr" v="81522" />
	</node>
	<node lat="70.79885279485708" lon="28.68757420172772" id="-41074">
		<tag k="name" v="Oamegurra" />
		<tag k="name:se" v="Oamegurra" />
		<tag k="natural" v="valley" />
		<tag k="place" v="locality" />
		<tag k="ssr:stedsnr" v="81949" />
	</node>
	<node lat="70.8245555762244" lon="28.924757484395666" id="-41078">
		<tag k="fixme" v="consider natural=peak for the most distinct mountains in the district" />
		<tag k="name" v="Midtfjellet - Ilis" />
		<tag k="name:no" v="Midtfjellet" />
		<tag k="name:se" v="Ilis" />
		<tag k="natural" v="hill" />
		<tag k="place" v="locality" />
		<tag k="ssr:stedsnr" v="81981" />
	</node>
	<node lat="70.853888912732" lon="29.06272966283994" id="-41085">
		<tag k="name" v="Ryplia" />
		<tag k="natural" v="slope" />
		<tag k="place" v="locality" />
		<tag k="ssr:stedsnr" v="93238" />
	</node>
	<node lat="70.69994168984925" lon="29.152651808533733" id="-41090">
		<tag k="name" v="Øster-Risfjorddalen" />
		<tag k="natural" v="valley" />
		<tag k="place" v="locality" />
		<tag k="ssr:stedsnr" v="141437" />
	</node>
	<node lat="70.49180558668438" lon="29.16912395938762" id="-41093">
		<tag k="fixme" v="consider natural=peak for the most distinct mountains in the district" />
		<tag k="name" v="Davit Njoaskoaivi" />
		<tag k="name:se" v="Davit Njoaskoaivi" />
		<tag k="natural" v="hill" />
		<tag k="old_name:se" v="Njoaskoaivi, davit" />
		<tag k="place" v="locality" />
		<tag k="ssr:stedsnr" v="141945" />
	</node>
	<node lat="70.75230835215265" lon="28.649090865264952" id="-41095">
		<tag k="name" v="Sletta" />
		<tag k="natural" v="plateau" />
		<tag k="ssr:stedsnr" v="141948" />
	</node>
	<node lat="70.8752389105848" lon="28.840263064143873" id="-41097">
		<tag k="fixme" v="consider natural=peak for the most distinct mountains in the district" />
		<tag k="name" v="Tanahorn - Hoartnavárri" />
		<tag k="name:no" v="Tanahorn" />
		<tag k="name:se" v="Hoartnavárri" />
		<tag k="natural" v="hill" />
		<tag k="old_name:se" v="Hoardnavarri" />
		<tag k="place" v="locality" />
		<tag k="ssr:stedsnr" v="141956" />
	</node>
	<node lat="70.87573890437105" lon="28.899426939535633" id="-41099">
		<tag k="alt_name" v="Dikkevikfjellet" />
		<tag k="fixme" v="consider natural=peak for the most distinct mountains in the district" />
		<tag k="name" v="Dikkavikfjellet" />
		<tag k="natural" v="hill" />
		<tag k="place" v="locality" />
		<tag k="ssr:stedsnr" v="141960" />
	</node>
	<node lat="70.82897224107673" lon="29.027082430872316" id="-41102">
		<tag k="fixme" v="consider natural=peak for the most distinct mountains in the district" />
		<tag k="name" v="Stortuva" />
		<tag k="natural" v="hill" />
		<tag k="place" v="locality" />
		<tag k="ssr:stedsnr" v="148980" />
	</node>
	<node lat="70.70833891058574" lon="28.547868679874465" id="-41107">
		<tag k="name" v="Lássávággi" />
		<tag k="name:se" v="Lássávággi" />
		<tag k="natural" v="valley" />
		<tag k="old_name:se" v="Lassavaggi" />
		<tag k="place" v="locality" />
		<tag k="ssr:stedsnr" v="202357" />
	</node>
	<node lat="70.72548613170511" lon="29.13851292474953" id="-41110">
		<tag k="name" v="Vester-Risfjorddalen" />
		<tag k="natural" v="valley" />
		<tag k="place" v="locality" />
		<tag k="ssr:stedsnr" v="202417" />
	</node>
	<node lat="70.84088057592912" lon="29.1476685202414" id="-41120">
		<tag k="fixme" v="consider natural=peak for the most distinct mountains in the district" />
		<tag k="name" v="Vargvikfjellet" />
		<tag k="natural" v="hill" />
		<tag k="place" v="locality" />
		<tag k="ssr:stedsnr" v="274237" />
	</node>
	<node lat="70.86363613364374" lon="29.024826909732745" id="-41127">
		<tag k="name" v="Breidalen" />
		<tag k="natural" v="valley" />
		<tag k="place" v="locality" />
		<tag k="ssr:stedsnr" v="319708" />
	</node>
	<node lat="70.72590557515376" lon="28.567738106883237" id="-41131">
		<tag k="fixme" v="consider natural=peak for the most distinct mountains in the district" />
		<tag k="name" v="Guođggotvárri" />
		<tag k="name:se" v="Guođggotvárri" />
		<tag k="natural" v="hill" />
		<tag k="old_name:se" v="Guođgutvarri;Gouđggotvárri" />
		<tag k="place" v="locality" />
		<tag k="ssr:stedsnr" v="323353" />
	</node>
	<node lat="70.74342502488273" lon="29.226185122962736" id="-41133">
		<tag k="fixme" v="consider natural=peak for the most distinct mountains in the district" />
		<tag k="name" v="Risfjordfjellet" />
		<tag k="natural" v="hill" />
		<tag k="place" v="locality" />
		<tag k="ssr:stedsnr" v="323440" />
	</node>
	<node lat="70.80851390797142" lon="28.704104749950083" id="-41136">
		<tag k="fixme" v="consider natural=peak for the most distinct mountains in the district" />
		<tag k="name" v="Muorjegárčohkka" />
		<tag k="name:se" v="Muorjegárčohkka" />
		<tag k="natural" v="hill" />
		<tag k="old_name:se" v="Muorjegarčåkka" />
		<tag k="place" v="locality" />
		<tag k="ssr:stedsnr" v="323939" />
	</node>
	<node lat="70.80263334975292" lon="28.793132504491616" id="-41138">
		<tag k="name" v="Sørdalen" />
		<tag k="natural" v="valley" />
		<tag k="place" v="locality" />
		<tag k="ssr:stedsnr" v="323950" />
	</node>
	<node lat="70.7837722415481" lon="28.78416028751768" id="-41139">
		<tag k="name" v="Rássegorsa" />
		<tag k="name:se" v="Rássegorsa" />
		<tag k="natural" v="valley" />
		<tag k="old_name:se" v="Rassegårsa" />
		<tag k="place" v="locality" />
		<tag k="ssr:stedsnr" v="323957" />
	</node>
	<node lat="70.78369446435126" lon="28.714604764396306" id="-41140">
		<tag k="fixme" v="consider natural=peak for the most distinct mountains in the district" />
		<tag k="name" v="Stuorračohkka" />
		<tag k="name:se" v="Stuorračohkka" />
		<tag k="natural" v="hill" />
		<tag k="old_name:se" v="Stuorračåkka" />
		<tag k="place" v="locality" />
		<tag k="ssr:stedsnr" v="323958" />
	</node>
	<node lat="70.76180279741011" lon="28.60008257391301" id="-41141">
		<tag k="fixme" v="consider natural=peak for the most distinct mountains in the district" />
		<tag k="name" v="Gaksevikfjellet - Gákšovárri" />
		<tag k="name:no" v="Gaksevikfjellet" />
		<tag k="name:se" v="Gákšovárri" />
		<tag k="natural" v="hill" />
		<tag k="old_name:se" v="Gakšuvarri" />
		<tag k="place" v="locality" />
		<tag k="ssr:stedsnr" v="323960" />
	</node>
	<node lat="70.79278336168113" lon="29.267637893735763" id="-41144">
		<tag k="name" v="Heimberget" />
		<tag k="natural" v="hill" />
		<tag k="place" v="locality" />
		<tag k="ssr:stedsnr" v="323996" />
	</node>
	<node lat="70.78324446428309" lon="28.828618598006077" id="-41145">
		<tag k="fixme" v="consider natural=peak for the most distinct mountains in the district" />
		<tag k="name" v="Sløketoppen" />
		<tag k="natural" v="hill" />
		<tag k="place" v="locality" />
		<tag k="ssr:stedsnr" v="323997" />
	</node>
	<node lat="70.84152502613605" lon="29.200979607541903" id="-41147">
		<tag k="name" v="Styrdalen" />
		<tag k="natural" v="valley" />
		<tag k="place" v="locality" />
		<tag k="ssr:stedsnr" v="329189" />
	</node>
	<node lat="70.72713891686652" lon="29.257212873521908" id="-41150">
		<tag k="name" v="Østre Risfjordbotn" />
		<tag k="place" v="locality" />
		<tag k="ssr:stedsnr" v="329946" />
	</node>
	<node lat="70.85293335028832" lon="29.116171309196144" id="-41151">
		<tag k="name" v="Storelvberget" />
		<tag k="natural" v="hill" />
		<tag k="place" v="locality" />
		<tag k="ssr:stedsnr" v="329955" />
	</node>
	<node lat="70.70530835000297" lon="28.544546460795015" id="-41152">
		<tag k="name" v="Svartnakken" />
		<tag k="natural" v="ridge" />
		<tag k="place" v="locality" />
		<tag k="ssr:stedsnr" v="330296" />
	</node>
	<node lat="70.8782750156582" lon="28.964365806046345" id="-41159">
		<tag k="name" v="Ramberget" />
		<tag k="natural" v="hill" />
		<tag k="place" v="locality" />
		<tag k="ssr:stedsnr" v="349982" />
	</node>
	<node lat="70.65064724849893" lon="29.30661838256861" id="-41160">
		<tag k="fixme" v="consider natural=peak for the most distinct mountains in the district" />
		<tag k="name" v="Hundelvfjellet" />
		<tag k="natural" v="hill" />
		<tag k="place" v="locality" />
		<tag k="ssr:stedsnr" v="349950" />
	</node>
	<node lat="70.70836947707006" lon="29.714118249094277" id="-41169">
		<tag k="fixme" v="consider natural=peak for the most distinct mountains in the district" />
		<tag k="name" v="Båtsnæringen" />
		<tag k="natural" v="hill" />
		<tag k="place" v="locality" />
		<tag k="ssr:stedsnr" v="384474" />
	</node>
	<node lat="70.7824916844556" lon="28.709515854736658" id="-41170">
		<tag k="name" v="Uhcavággi" />
		<tag k="name:se" v="Uhcavággi" />
		<tag k="natural" v="valley" />
		<tag k="old_name:se" v="Uccavaggi" />
		<tag k="place" v="locality" />
		<tag k="ssr:stedsnr" v="384935" />
	</node>
	<node lat="70.82182502314521" lon="28.961557452469307" id="-41173">
		<tag k="name" v="Storelvdalen" />
		<tag k="natural" v="valley" />
		<tag k="place" v="locality" />
		<tag k="ssr:stedsnr" v="384981" />
	</node>
	<node lat="70.81591391417483" lon="29.040007432279648" id="-41174">
		<tag k="name" v="Veddalen" />
		<tag k="natural" v="valley" />
		<tag k="place" v="locality" />
		<tag k="ssr:stedsnr" v="384988" />
	</node>
	<node lat="70.80530002521456" lon="29.164054614304867" id="-41175">
		<tag k="fixme" v="consider natural=peak for the most distinct mountains in the district" />
		<tag k="name" v="Løkvikdalsfjellet" />
		<tag k="natural" v="hill" />
		<tag k="place" v="locality" />
		<tag k="ssr:stedsnr" v="384989" />
	</node>
	<node lat="70.86682501562784" lon="28.905863051371764" id="-41177">
		<tag k="fixme" v="consider natural=peak for the most distinct mountains in the district" />
		<tag k="name" v="Bukkedalsfjellet" />
		<tag k="natural" v="hill" />
		<tag k="place" v="locality" />
		<tag k="ssr:stedsnr" v="410559" />
	</node>
	<node lat="70.66403891443488" lon="29.359651705849686" id="-41180">
		<tag k="fixme" v="consider natural=peak for the most distinct mountains in the district" />
		<tag k="name" v="Strømstinden" />
		<tag k="natural" v="hill" />
		<tag k="place" v="locality" />
		<tag k="ssr:stedsnr" v="445397" />
	</node>
	<node lat="70.6392833585528" lon="28.758226916519273" id="-41184">
		<tag k="name" v="Stuorrajokgorsa" />
		<tag k="name:se" v="Stuorrajokgorsa" />
		<tag k="natural" v="valley" />
		<tag k="old_name:se" v="Stuorrajåkgårsa" />
		<tag k="place" v="locality" />
		<tag k="ssr:stedsnr" v="445343" />
	</node>
	<node lat="70.7972083503412" lon="28.675374211430725" id="-41187">
		<tag k="fixme" v="consider natural=peak for the most distinct mountains in the district" />
		<tag k="name" v="Stigen - Stiiga" />
		<tag k="name:no" v="Stigen" />
		<tag k="name:se" v="Stiiga" />
		<tag k="natural" v="hill" />
		<tag k="place" v="locality" />
		<tag k="ssr:stedsnr" v="445953" />
	</node>
	<node lat="70.86246113403632" lon="28.983446352673976" id="-41190">
		<tag k="name" v="Kuelvdalen" />
		<tag k="natural" v="valley" />
		<tag k="place" v="locality" />
		<tag k="ssr:stedsnr" v="501687" />
	</node>
	<node lat="70.82003057988378" lon="29.117535188667915" id="-41191">
		<tag k="name" v="Løkvikdalen" />
		<tag k="natural" v="valley" />
		<tag k="place" v="locality" />
		<tag k="ssr:stedsnr" v="505978" />
	</node>
	<node lat="70.6309611420909" lon="29.37096003125802" id="-41194">
		<tag k="fixme" v="consider natural=peak for the most distinct mountains in the district" />
		<tag k="name" v="Hundtoppen - Beatnatčohkat" />
		<tag k="name:no" v="Hundtoppen" />
		<tag k="name:se" v="Beatnatčohkat" />
		<tag k="natural" v="hill" />
		<tag k="old_name:se" v="Bædnatčåkkat" />
		<tag k="place" v="locality" />
		<tag k="ssr:stedsnr" v="505394" />
	</node>
	<node lat="70.86217780090666" lon="29.002054680675705" id="-41204">
		<tag k="name" v="Svartneshaugen" />
		<tag k="natural" v="hill" />
		<tag k="place" v="locality" />
		<tag k="ssr:stedsnr" v="505959" />
	</node>
	<node lat="70.80732502004277" lon="28.966274107607628" id="-41206">
		<tag k="fixme" v="consider natural=peak for the most distinct mountains in the district" />
		<tag k="name" v="Mordartoppen" />
		<tag k="natural" v="hill" />
		<tag k="place" v="locality" />
		<tag k="ssr:stedsnr" v="506983" />
	</node>
	<node lat="70.72881947612154" lon="29.672796052915995" id="-41208">
		<tag k="name" v="Staurene" />
		<tag k="natural" v="hill" />
		<tag k="place" v="locality" />
		<tag k="ssr:stedsnr" v="511530" />
	</node>
	<node lat="70.61211668807233" lon="29.103876799545205" id="-41211">
		<tag k="fixme" v="consider natural=peak for the most distinct mountains in the district" />
		<tag k="name" v="Sukkertoppen" />
		<tag k="natural" v="hill" />
		<tag k="place" v="locality" />
		<tag k="ssr:stedsnr" v="531910" />
	</node>
	<node lat="70.6507166891006" lon="29.136618470968514" id="-41212">
		<tag k="name" v="Hanshaugen" />
		<tag k="natural" v="hill" />
		<tag k="place" v="locality" />
		<tag k="ssr:stedsnr" v="531914" />
	</node>
	<node lat="70.68194446411495" lon="28.638785295634037" id="-41217">
		<tag k="name" v="Klippen - Bákti" />
		<tag k="name:no" v="Klippen" />
		<tag k="name:se" v="Bákti" />
		<tag k="natural" v="hill" />
		<tag k="old_name:se" v="Bakti" />
		<tag k="place" v="locality" />
		<tag k="ssr:stedsnr" v="565332" />
	</node>
	<node lat="70.68491668755603" lon="28.689824190884615" id="-41218">
		<tag k="fixme" v="consider natural=peak for the most distinct mountains in the district" />
		<tag k="name" v="Gåsfjellet" />
		<tag k="natural" v="hill" />
		<tag k="place" v="locality" />
		<tag k="ssr:stedsnr" v="565334" />
	</node>
	<node lat="70.72486113625575" lon="28.77119638087094" id="-41219">
		<tag k="name" v="Rákkojalggáš" />
		<tag k="name:se" v="Rákkojalggáš" />
		<tag k="old_name:se" v="Raggujalgaš" />
		<tag k="place" v="locality" />
		<tag k="ssr:stedsnr" v="565349" />
	</node>
	<node lat="70.66398891721165" lon="29.032099060665008" id="-41223">
		<tag k="name" v="Sauedalen" />
		<tag k="natural" v="valley" />
		<tag k="place" v="locality" />
		<tag k="ssr:stedsnr" v="566415" />
	</node>
	<node lat="70.60667780153716" lon="29.108268449719954" id="-41225">
		<tag k="name" v="Tranga" />
		<tag k="natural" v="gorge" />
		<tag k="ssr:stedsnr" v="566394" />
	</node>
	<node lat="70.68490002477407" lon="29.154971252374935" id="-41227">
		<tag k="fixme" v="consider natural=peak for the most distinct mountains in the district" />
		<tag k="name" v="Nikko-Per-fjellet" />
		<tag k="natural" v="hill" />
		<tag k="place" v="locality" />
		<tag k="ssr:stedsnr" v="566404" />
	</node>
	<node lat="70.72889169786909" lon="29.680248816377294" id="-41231">
		<tag k="fixme" v="consider natural=peak for the most distinct mountains in the district" />
		<tag k="name" v="Tindan" />
		<tag k="natural" v="hill" />
		<tag k="place" v="locality" />
		<tag k="ssr:stedsnr" v="566500" />
	</node>
	<node lat="70.68560280051989" lon="29.25240731112843" id="-41239">
		<tag k="name" v="Nikko-Per-høgda" />
		<tag k="natural" v="hill" />
		<tag k="place" v="locality" />
		<tag k="ssr:stedsnr" v="572223" />
	</node>
	<node lat="70.85539446297884" lon="28.0911799349927" id="-41240">
		<tag k="fixme" v="consider natural=peak for the most distinct mountains in the district" />
		<tag k="name" v="Storvarden" />
		<tag k="natural" v="hill" />
		<tag k="place" v="locality" />
		<tag k="ssr:stedsnr" v="572228" />
	</node>
	<node lat="70.85297224031085" lon="29.0563213106373" id="-41243">
		<tag k="name" v="Breidalen" />
		<tag k="natural" v="valley" />
		<tag k="place" v="locality" />
		<tag k="ssr:stedsnr" v="578255" />
	</node>
	<node lat="70.83340001886204" lon="29.018804656888864" id="-41244">
		<tag k="fixme" v="consider natural=peak for the most distinct mountains in the district" />
		<tag k="name" v="Stortufjellet" />
		<tag k="natural" v="hill" />
		<tag k="place" v="locality" />
		<tag k="ssr:stedsnr" v="592746" />
	</node>
	<node lat="70.57242224546212" lon="29.229301738455852" id="-41247">
		<tag k="fixme" v="consider natural=peak for the most distinct mountains in the district" />
		<tag k="name" v="Magerfjellet - Silesvárri" />
		<tag k="name:no" v="Magerfjellet" />
		<tag k="name:se" v="Silesvárri" />
		<tag k="natural" v="hill" />
		<tag k="old_name:se" v="Silesvarri" />
		<tag k="place" v="locality" />
		<tag k="ssr:stedsnr" v="626518" />
	</node>
</osm>
