<?xml version="1.0" encoding="UTF-8"?>
<<<<<<< HEAD
<osm version="0.6" generator="osmapis">
	<node lat="70.64163891774513" lon="29.192043428467805" id="-40391">
		<tag k="name" v="Bryggarimyra" />
=======
<osm generator="osmapis" version="0.6">
	<node id="-914480" lat="70.7689750175" lon="28.754924183">
		<tag k="name" v="Stivlejeaggi" />
		<tag k="name:se" v="Stivlejeaggi" />
		<tag k="natural" v="wetland" />
		<tag k="old_name:se" v="Stivlejæggi" />
		<tag k="ssr:stedsnr" v="870953" />
	</node>
	<node id="-914302" lat="70.5982250288" lon="29.0932267946">
		<tag k="name" v="Sandmomyra" />
>>>>>>> e1d4bc35ff8a6074a6f2e91616a996b547c36f15
		<tag k="natural" v="wetland" />
		<tag k="ssr:stedsnr" v="166881" />
	</node>
<<<<<<< HEAD
	<node lat="70.81433890988713" lon="28.68621311344883" id="-40401">
		<tag k="name" v="Muorjegárggu" />
		<tag k="name:se" v="Muorjegárggu" />
		<tag k="old_name:se" v="Muorjegargo" />
		<tag k="place" v="locality" />
		<tag k="ssr:stedsnr" v="263948" />
	</node>
	<node lat="70.83387223714293" lon="28.863118611643372" id="-40422">
=======
	<node id="-914365" lat="70.8221194617" lon="28.7660714102">
		<tag k="name" v="Muorjegárjeaggi" />
		<tag k="name:se" v="Muorjegárjeaggi" />
		<tag k="natural" v="wetland" />
		<tag k="old_name:se" v="Muorjegarjæggi" />
		<tag k="ssr:stedsnr" v="505917" />
	</node>
	<node id="-914300" lat="70.8338722371" lon="28.8631186116">
>>>>>>> e1d4bc35ff8a6074a6f2e91616a996b547c36f15
		<tag k="name" v="Milstein" />
		<tag k="natural" v="stone" />
		<tag k="ssr:stedsnr" v="228607" />
	</node>
<<<<<<< HEAD
	<node lat="70.59822502877022" lon="29.093226794607823" id="-40424">
		<tag k="name" v="Sandmomyra" />
=======
	<node id="-914330" lat="70.855836132" lon="28.9048825033">
		<tag k="name" v="Marenmyra" />
		<tag k="natural" v="wetland" />
		<tag k="ssr:stedsnr" v="319703" />
	</node>
	<node id="-914426" lat="70.8653611302" lon="28.9327074831">
		<tag k="name" v="Jørnslåtta" />
		<tag k="place" v="locality" />
		<tag k="ssr:stedsnr" v="713574" />
	</node>
	<node id="-914456" lat="70.6603083582" lon="29.2315461921">
		<tag k="name" v="Stormyra" />
>>>>>>> e1d4bc35ff8a6074a6f2e91616a996b547c36f15
		<tag k="natural" v="wetland" />
		<tag k="ssr:stedsnr" v="228907" />
	</node>
<<<<<<< HEAD
	<node lat="70.6546222450664" lon="29.190318430663357" id="-40510">
		<tag k="name" v="Svabergmyra" />
=======
	<node id="-914615" lat="70.8077944643" lon="28.7725491773">
		<tag k="name" v="Stormyra" />
>>>>>>> e1d4bc35ff8a6074a6f2e91616a996b547c36f15
		<tag k="natural" v="wetland" />
		<tag k="ssr:stedsnr" v="651898" />
	</node>
<<<<<<< HEAD
	<node lat="70.86536113017078" lon="28.932707483134205" id="-40527">
		<tag k="name" v="Jørnslåtta" />
		<tag k="place" v="locality" />
		<tag k="ssr:stedsnr" v="713574" />
	</node>
	<node lat="70.84501946368768" lon="29.106835201873878" id="-40552">
		<tag k="landuse" v="quarry" />
		<tag k="name" v="Fangenbruddet" />
		<tag k="ssr:stedsnr" v="821280" />
	</node>
	<node lat="70.86389446598253" lon="28.934213026022256" id="-40553">
		<tag k="name" v="Skonsvikraan" />
		<tag k="place" v="locality" />
		<tag k="ssr:stedsnr" v="835580" />
	</node>
	<node lat="70.66030835823334" lon="29.231546192058826" id="-40585">
		<tag k="name" v="Stormyra" />
		<tag k="natural" v="wetland" />
		<tag k="ssr:stedsnr" v="930396" />
	</node>
	<node lat="70.67328613773715" lon="29.230901781250246" id="-40623">
		<tag k="name" v="Myrvold" />
		<tag k="natural" v="wetland" />
		<tag k="ssr:stedsnr" v="47893" />
	</node>
	<node lat="70.85583613204739" lon="28.904882503288924" id="-40692">
		<tag k="name" v="Marenmyra" />
		<tag k="natural" v="wetland" />
		<tag k="ssr:stedsnr" v="319703" />
	</node>
	<node lat="70.80779446426821" lon="28.77254917725179" id="-40703">
		<tag k="name" v="Stormyra" />
		<tag k="natural" v="wetland" />
		<tag k="ssr:stedsnr" v="323942" />
	</node>
	<node lat="70.82211946174361" lon="28.766071410235675" id="-40767">
		<tag k="name" v="Muorjegárjeaggi" />
		<tag k="name:se" v="Muorjegárjeaggi" />
		<tag k="natural" v="wetland" />
		<tag k="old_name:se" v="Muorjegarjæggi" />
		<tag k="ssr:stedsnr" v="505917" />
=======
	<node id="-914771" lat="70.863894466" lon="28.934213026">
		<tag k="name" v="Skonsvikraan" />
		<tag k="place" v="locality" />
		<tag k="ssr:stedsnr" v="835580" />
	</node>
	<node id="-914515" lat="70.6732861377" lon="29.2309017813">
		<tag k="name" v="Myrvold" />
		<tag k="natural" v="wetland" />
		<tag k="ssr:stedsnr" v="47893" />
	</node>
	<node id="-914416" lat="70.6546222451" lon="29.1903184307">
		<tag k="name" v="Svabergmyra" />
		<tag k="natural" v="wetland" />
		<tag k="ssr:stedsnr" v="651898" />
	</node>
	<node id="-914572" lat="70.6416389177" lon="29.1920434285">
		<tag k="name" v="Bryggarimyra" />
		<tag k="natural" v="wetland" />
		<tag k="ssr:stedsnr" v="166881" />
	</node>
	<node id="-914284" lat="70.8143389099" lon="28.6862131134">
		<tag k="name" v="Muorjegárggu" />
		<tag k="name:se" v="Muorjegárggu" />
		<tag k="old_name:se" v="Muorjegargo" />
		<tag k="place" v="locality" />
		<tag k="ssr:stedsnr" v="263948" />
	</node>
	<node id="-914768" lat="70.8450194637" lon="29.1068352019">
		<tag k="landuse" v="quarry" />
		<tag k="name" v="Fangenbruddet" />
		<tag k="ssr:stedsnr" v="821280" />
	</node>
	<node id="-914465" lat="70.853202802" lon="29.0710213242">
		<tag k="name" v="Svartvassmyra" />
		<tag k="natural" v="wetland" />
		<tag k="ssr:stedsnr" v="821263" />
>>>>>>> e1d4bc35ff8a6074a6f2e91616a996b547c36f15
	</node>
</osm>
