<?xml version="1.0" encoding="UTF-8"?>
<osm version="0.6" generator="osmapis">
	<node lat="70.68228335762176" lon="28.55164088071525" id="-49771">
		<tag k="bay" v="fjord" />
		<tag k="name" v="Gulgofjorden - Vuođavuotna" />
		<tag k="name:no" v="Gulgofjorden" />
		<tag k="name:se" v="Vuođavuotna" />
		<tag k="natural" v="bay" />
		<tag k="old_name:se" v="Vuođavuodna" />
		<tag k="ssr:stedsnr" v="80346" />
	</node>
	<node lat="70.6660639173721" lon="29.284473960770807" id="-49772">
		<tag k="name" v="Grønneset - Sarvvesnjárga" />
		<tag k="name:no" v="Grønneset" />
		<tag k="name:se" v="Sarvvesnjárga" />
		<tag k="natural" v="cape" />
		<tag k="old_name:se" v="Sarvesnjarga" />
		<tag k="ssr:stedsnr" v="81403" />
	</node>
	<node lat="70.72738335640317" lon="28.51833535855262" id="-49775">
		<tag k="name" v="Gulgoodden - Guođggotgeahči" />
		<tag k="name:no" v="Gulgoodden" />
		<tag k="name:se" v="Guođggotgeahči" />
		<tag k="natural" v="cape" />
		<tag k="old_name:se" v="Guođgutgæčči" />
		<tag k="ssr:stedsnr" v="140373" />
	</node>
	<node lat="70.68522502610885" lon="29.33712673157301" id="-49780">
		<tag k="bay" v="fjord" />
		<tag k="name" v="Strømmen - Rivdnji" />
		<tag k="name:no" v="Strømmen" />
		<tag k="name:se" v="Rivdnji" />
		<tag k="natural" v="bay" />
		<tag k="ssr:stedsnr" v="141412" />
	</node>
	<node lat="70.794661133566" lon="28.661501986881927" id="-49781">
		<tag k="name" v="Stigeneset - Gálbbenjunni" />
		<tag k="name:no" v="Stigeneset" />
		<tag k="name:se" v="Gálbbenjunni" />
		<tag k="natural" v="cape" />
		<tag k="old_name:se" v="Galbenjunni" />
		<tag k="ssr:stedsnr" v="141935" />
	</node>
	<node lat="70.79181113100132" lon="29.3154101047848" id="-49782">
		<tag k="name" v="Tarevika" />
		<tag k="natural" v="bay" />
		<tag k="ssr:stedsnr" v="141986" />
	</node>
	<node lat="70.73531391513013" lon="29.40176838192024" id="-49792">
		<tag k="name" v="Hattholmen - Háhttasuolu" />
		<tag k="name:no" v="Hattholmen" />
		<tag k="name:se" v="Háhttasuolu" />
		<tag k="old_name:se" v="Hattasuolo" />
		<tag k="place" v="islet" />
		<tag k="ssr:stedsnr" v="262422" />
	</node>
	<node lat="70.72240835918359" lon="29.391540592946395" id="-49793">
		<tag k="name" v="Kua" />
		<tag k="natural" v="shoal" />
		<tag k="place" v="locality" />
		<tag k="ssr:stedsnr" v="262428" />
	</node>
	<node lat="70.80057502234408" lon="29.28190733009909" id="-49797">
		<tag k="alt_name:no" v="Sandfjordbukta" />
		<tag k="loc_name:se" v="Sáttuvuonna" />
		<tag k="name" v="Sandfjorden" />
		<tag k="name:no" v="Sandfjorden" />
		<tag k="natural" v="bay" />
		<tag k="ssr:stedsnr" v="262525" />
	</node>
	<node lat="70.82255835198285" lon="28.701899221341314" id="-49799">
		<tag k="name" v="Gjerdeneset - Várregoađenjárga" />
		<tag k="name:no" v="Gjerdeneset" />
		<tag k="name:se" v="Várregoađenjárga" />
		<tag k="natural" v="cape" />
		<tag k="old_name:se" v="Varregoađenjarga" />
		<tag k="ssr:stedsnr" v="263941" />
	</node>
	<node lat="70.78336390996935" lon="28.64681589969697" id="-49801">
		<tag k="name" v="Molvikbukta - Guolleveaigohppi" />
		<tag k="name:no" v="Molvikbukta" />
		<tag k="name:se" v="Guolleveaigohppi" />
		<tag k="natural" v="bay" />
		<tag k="old_name:se" v="Guollevæjgåppi" />
		<tag k="ssr:stedsnr" v="263952" />
	</node>
	<node lat="70.88283057579915" lon="28.930274146550822" id="-49805">
		<tag k="name" v="Ordinneset - Oardanjárga" />
		<tag k="name:no" v="Ordinneset" />
		<tag k="name:se" v="Oardanjárga" />
		<tag k="natural" v="cape" />
		<tag k="old_name:se" v="Oardanjarga" />
		<tag k="ssr:stedsnr" v="263965" />
	</node>
	<node lat="70.86735280056186" lon="29.11365463940064" id="-49807">
		<tag k="fixme" v="consider seamark:type=rock or natural=shoal" />
		<tag k="name" v="Svartoksen" />
		<tag k="place" v="islet" />
		<tag k="ssr:stedsnr" v="263967" />
	</node>
	<node lat="70.87223890494816" lon="29.08494910216996" id="-49808">
		<tag k="name" v="Valen" />
		<tag k="natural" v="cape" />
		<tag k="ssr:stedsnr" v="263969" />
	</node>
	<node lat="70.68931669164995" lon="28.510685343304143" id="-49810">
		<tag k="fixme" v="consider seamark:type=rock or natural=shoal" />
		<tag k="name" v="Cohkolatlásis" />
		<tag k="name:se" v="Cohkolatlásis" />
		<tag k="old_name:se" v="Cåkkulatlasis" />
		<tag k="place" v="islet" />
		<tag k="ssr:stedsnr" v="202347" />
	</node>
	<node lat="70.78383891409507" lon="29.38583229039632" id="-49816">
		<tag k="name" v="Nålnesvika" />
		<tag k="natural" v="bay" />
		<tag k="ssr:stedsnr" v="202995" />
	</node>
	<node lat="70.73972224326141" lon="29.31005453966888" id="-49817">
		<tag k="name" v="Grønøygrunnen" />
		<tag k="natural" v="shoal" />
		<tag k="place" v="locality" />
		<tag k="ssr:stedsnr" v="268539" />
	</node>
	<node lat="70.8720555747343" lon="29.12886018933491" id="-49819">
		<tag k="name" v="Kirkegrunnen" />
		<tag k="natural" v="shoal" />
		<tag k="place" v="locality" />
		<tag k="ssr:stedsnr" v="208946" />
	</node>
	<node lat="70.7356416961662" lon="29.416137828027306" id="-49824">
		<tag k="name" v="Gullhatten" />
		<tag k="place" v="islet" />
		<tag k="ssr:stedsnr" v="450557" />
	</node>
	<node lat="70.68515558555954" lon="29.31632672668972" id="-49825">
		<tag k="alt_name" v="Tørrfallneset" />
		<tag k="name" v="Storkjosneset" />
		<tag k="natural" v="cape" />
		<tag k="ssr:stedsnr" v="450560" />
	</node>
	<node lat="70.70136391771884" lon="29.320937846352685" id="-49828">
		<tag k="alt_name:no" v="Storsteinbukt" />
		<tag k="name" v="Storsteinbukta - Moššoluokta" />
		<tag k="name:no" v="Storsteinbukta" />
		<tag k="name:se" v="Moššoluokta" />
		<tag k="natural" v="bay" />
		<tag k="old_name:se" v="Måššuluokta" />
		<tag k="ssr:stedsnr" v="262403" />
	</node>
	<node lat="70.72961391100736" lon="29.322123970317694" id="-49829">
		<tag k="name" v="Hergevika" />
		<tag k="natural" v="bay" />
		<tag k="ssr:stedsnr" v="262418" />
	</node>
	<node lat="70.70139169222396" lon="29.476915575358284" id="-49831">
		<tag k="name" v="Bjørnvika" />
		<tag k="natural" v="bay" />
		<tag k="ssr:stedsnr" v="263496" />
	</node>
	<node lat="70.72548613815668" lon="29.455710028959665" id="-49833">
		<tag k="name" v="Helløya" />
		<tag k="place" v="island" />
		<tag k="ssr:stedsnr" v="263504" />
	</node>
	<node lat="70.66463058290104" lon="29.29768786060441" id="-49840">
		<tag k="name" v="Østre Grønneset" />
		<tag k="natural" v="cape" />
		<tag k="ssr:stedsnr" v="290905" />
	</node>
	<node lat="70.68698614106982" lon="29.319248963633008" id="-49841">
		<tag k="name" v="Storkjosen" />
		<tag k="natural" v="bay" />
		<tag k="ssr:stedsnr" v="290888" />
	</node>
	<node lat="70.85456391404033" lon="29.206057393070566" id="-49848">
		<tag k="loc_name:se" v="Gonagasváhki" />
		<tag k="name" v="Kongshamn" />
		<tag k="name:no" v="Kongshamn" />
		<tag k="natural" v="cape" />
		<tag k="ssr:stedsnr" v="323976" />
	</node>
	<node lat="70.84644168524463" lon="29.24257402932057" id="-49849">
		<tag k="alt_name" v="Mellomneset;Mellanneset" />
		<tag k="name" v="Mellanes" />
		<tag k="natural" v="cape" />
		<tag k="ssr:stedsnr" v="323979" />
	</node>
	<node lat="70.6685555839592" lon="29.281346200054113" id="-49855">
		<tag k="name" v="Govika" />
		<tag k="natural" v="bay" />
		<tag k="ssr:stedsnr" v="472899" />
	</node>
	<node lat="70.6659916946934" lon="29.297032288372705" id="-49857">
		<tag k="name" v="Grønnesbukta" />
		<tag k="natural" v="bay" />
		<tag k="ssr:stedsnr" v="350906" />
	</node>
	<node lat="70.74083058124036" lon="29.264274008064238" id="-49858">
		<tag k="bay" v="fjord" />
		<tag k="name" v="Vester-Risfjorden" />
		<tag k="natural" v="bay" />
		<tag k="ssr:stedsnr" v="383453" />
	</node>
	<node lat="70.87306668681045" lon="28.999999118897644" id="-49859">
		<tag k="alt_name:no" v="Svartnes" />
		<tag k="loc_name:se" v="Čáhppesnjárga" />
		<tag k="name" v="Svartneset" />
		<tag k="name:no" v="Svartneset" />
		<tag k="natural" v="cape" />
		<tag k="ssr:stedsnr" v="384950" />
	</node>
	<node lat="70.85034724706318" lon="29.132704627361097" id="-49860">
		<tag k="alt_name" v="Storsanden" />
		<tag k="name" v="Storsand" />
		<tag k="natural" v="beach" />
		<tag k="ssr:stedsnr" v="384957" />
	</node>
	<node lat="70.85601946383105" lon="29.12787129378641" id="-49863">
		<tag k="loc_name:se" v="Rievannjárga" />
		<tag k="name" v="Revneset" />
		<tag k="name:no" v="Revneset" />
		<tag k="natural" v="cape" />
		<tag k="ssr:stedsnr" v="395302" />
	</node>
	<node lat="70.71769447006209" lon="29.32880172802926" id="-49867">
		<tag k="name" v="Storvika" />
		<tag k="natural" v="bay" />
		<tag k="ssr:stedsnr" v="411924" />
	</node>
	<node lat="70.71684169468577" lon="29.460360012899717" id="-49868">
		<tag k="name" v="Kongsøya" />
		<tag k="place" v="island" />
		<tag k="ssr:stedsnr" v="445496" />
	</node>
	<node lat="70.71779446803575" lon="29.31306564123283" id="-49869">
		<tag k="name" v="Indre Havn" />
		<tag k="natural" v="bay" />
		<tag k="ssr:stedsnr" v="450978" />
	</node>
	<node lat="70.67629446867694" lon="28.57297698606576" id="-49870">
		<tag k="name" v="Libobukta" />
		<tag k="natural" v="bay" />
		<tag k="ssr:stedsnr" v="451333" />
	</node>
	<node lat="70.69557780455246" lon="29.351362842791698" id="-49874">
		<tag k="name" v="Kjosen" />
		<tag k="natural" v="bay" />
		<tag k="ssr:stedsnr" v="510719" />
	</node>
	<node lat="70.85380279950836" lon="29.240962941535606" id="-49877">
		<tag k="loc_name:se" v="Čievla" />
		<tag k="name" v="Kjølneset" />
		<tag k="name:no" v="Kjølneset" />
		<tag k="natural" v="cape" />
		<tag k="ssr:stedsnr" v="531984" />
	</node>
	<node lat="70.69325001490562" lon="28.554799230788948" id="-49878">
		<tag k="fixme" v="consider seamark:type=rock or natural=shoal" />
		<tag k="name" v="Litleskjeret - Uhcalásis" />
		<tag k="name:no" v="Litleskjeret" />
		<tag k="name:se" v="Uhcalásis" />
		<tag k="old_name:se" v="Uccalasis" />
		<tag k="place" v="islet" />
		<tag k="ssr:stedsnr" v="687355" />
	</node>
	<node lat="70.71546669547315" lon="29.515846117727808" id="-49887">
		<tag k="name" v="Skarholmen" />
		<tag k="place" v="islet" />
		<tag k="ssr:stedsnr" v="688481" />
	</node>
	<node lat="70.75186668297167" lon="28.565993668569643" id="-49889">
		<tag k="name" v="Fuglevika - Sieiddeluokta" />
		<tag k="name:no" v="Fuglevika" />
		<tag k="name:se" v="Sieiddeluokta" />
		<tag k="natural" v="bay" />
		<tag k="old_name:se" v="Sieideluokta" />
		<tag k="ssr:stedsnr" v="688968" />
	</node>
	<node lat="70.68205002939882" lon="29.347148951294468" id="-49891">
		<tag k="name" v="Storneset" />
		<tag k="natural" v="cape" />
		<tag k="ssr:stedsnr" v="566409" />
	</node>
	<node lat="70.70207780496018" lon="29.512512774945538" id="-49893">
		<tag k="alt_name" v="Bjørnvika, store" />
		<tag k="name" v="Store Bjørnvika" />
		<tag k="natural" v="bay" />
		<tag k="ssr:stedsnr" v="566476" />
	</node>
	<node lat="70.88170002201028" lon="28.89754083005394" id="-49896">
		<tag k="name" v="Mortensneset" />
		<tag k="natural" v="cape" />
		<tag k="ssr:stedsnr" v="693498" />
	</node>
	<node lat="70.71917780651975" lon="29.63145163163671" id="-49897">
		<tag k="name" v="Tømmervika" />
		<tag k="natural" v="bay" />
		<tag k="ssr:stedsnr" v="571554" />
	</node>
	<node lat="70.87560279905911" lon="28.982815796815657" id="-49899">
		<tag k="alt_name" v="Bangneset" />
		<tag k="name" v="Bangeneset" />
		<tag k="natural" v="cape" />
		<tag k="ssr:stedsnr" v="693952" />
	</node>
	<node lat="70.85839168664732" lon="29.227946260666858" id="-49900">
		<tag k="name" v="Rødsetgrunnan" />
		<tag k="natural" v="shoal" />
		<tag k="place" v="locality" />
		<tag k="ssr:stedsnr" v="693957" />
	</node>
	<node lat="70.86944446628826" lon="29.105554638528886" id="-49902">
		<tag k="loc_name" v="Lagmannsvika" />
		<tag k="name" v="Lagmannsbukta" />
		<tag k="natural" v="bay" />
		<tag k="ssr:stedsnr" v="694151" />
	</node>
	<node lat="70.7168555779685" lon="29.312115633848418" id="-49904">
		<tag k="name" v="Kobbkroken" />
		<tag k="natural" v="bay" />
		<tag k="ssr:stedsnr" v="592953" />
	</node>
	<node lat="70.66698892026763" lon="29.294762847534184" id="-49912">
		<tag k="name" v="Vestre Grønneset" />
		<tag k="natural" v="cape" />
		<tag k="ssr:stedsnr" v="654935" />
	</node>
	<node lat="70.73056391050471" lon="29.302387863798863" id="-49915">
		<tag k="alt_name:no" v="Hergeneset" />
		<tag k="name" v="Hergenæringen - Heargevárnjárga" />
		<tag k="name:no" v="Hergenæringen" />
		<tag k="name:se" v="Heargevárnjárga" />
		<tag k="natural" v="cape" />
		<tag k="old_name:se" v="Hærgevarnjarga" />
		<tag k="ssr:stedsnr" v="687405" />
	</node>
	<node lat="70.85235279778304" lon="29.155376835398204" id="-49920">
		<tag k="name" v="Vargvikholmen" />
		<tag k="place" v="islet" />
		<tag k="ssr:stedsnr" v="688983" />
	</node>
	<node lat="70.73081114128185" lon="29.379773948396647" id="-49922">
		<tag k="name" v="Fastlandsholmen" />
		<tag k="natural" v="cape" />
		<tag k="ssr:stedsnr" v="896941" />
	</node>
	<node lat="70.73117502708935" lon="29.36843227841465" id="-49923">
		<tag k="fixme" v="consider seamark:type=rock or natural=shoal" />
		<tag k="name" v="Storvikskjæret" />
		<tag k="place" v="islet" />
		<tag k="ssr:stedsnr" v="896943" />
	</node>
	<node lat="70.67779447557484" lon="29.297515622938345" id="-49924">
		<tag k="name" v="Gressholmen" />
		<tag k="place" v="islet" />
		<tag k="ssr:stedsnr" v="897873" />
	</node>
	<node lat="70.69401669065526" lon="29.38457671986046" id="-49925">
		<tag k="name" v="Strømsbukta" />
		<tag k="natural" v="bay" />
		<tag k="ssr:stedsnr" v="897875" />
	</node>
	<node lat="70.8835666908801" lon="28.972085242228186" id="-49929">
		<tag k="name" v="Fuglenesbukta" />
		<tag k="natural" v="bay" />
		<tag k="ssr:stedsnr" v="713980" />
	</node>
	<node lat="70.9207639055339" lon="29.10317688629026" id="-49934">
		<tag k="alt_name" v="Skallen, yt" />
		<tag k="name" v="Ytre Skallen" />
		<tag k="natural" v="shoal" />
		<tag k="place" v="locality" />
		<tag k="ssr:stedsnr" v="748960" />
	</node>
	<node lat="70.88005002145358" lon="28.877104737704148" id="-49935">
		<tag k="alt_name:no" v="Dikkeviken" />
		<tag k="name" v="Dikkevika - Dihkkaviika" />
		<tag k="name:no" v="Dikkevika" />
		<tag k="name:se" v="Dihkkaviika" />
		<tag k="natural" v="bay" />
		<tag k="old_name:se" v="Dikkaviika" />
		<tag k="ssr:stedsnr" v="748964" />
	</node>
	<node lat="70.87188612869676" lon="29.090557440465055" id="-49947">
		<tag k="alt_name" v="Tollesneset" />
		<tag k="name" v="Tollefsneset" />
		<tag k="natural" v="cape" />
		<tag k="ssr:stedsnr" v="814948" />
	</node>
	<node lat="70.74190835577839" lon="29.337435088817216" id="-49949">
		<tag k="alt_name" v="Grønnøya" />
		<tag k="name" v="Grønøya" />
		<tag k="place" v="island" />
		<tag k="ssr:stedsnr" v="815422" />
	</node>
	<node lat="70.68511113664957" lon="29.357932283425484" id="-49953">
		<tag k="name" v="Varneset" />
		<tag k="natural" v="cape" />
		<tag k="ssr:stedsnr" v="836909" />
	</node>
	<node lat="70.7208028022759" lon="29.33611563016138" id="-49954">
		<tag k="name" v="Kobbkroken" />
		<tag k="natural" v="cape" />
		<tag k="ssr:stedsnr" v="836925" />
	</node>
	<node lat="70.8714833513829" lon="28.81462974646972" id="-49963">
		<tag k="name" v="Tarevika - Stárraluokta" />
		<tag k="name:no" v="Tarevika" />
		<tag k="name:se" v="Stárraluokta" />
		<tag k="natural" v="bay" />
		<tag k="old_name:se" v="Starraluokta" />
		<tag k="ssr:stedsnr" v="870920" />
	</node>
	<node lat="70.6769833553634" lon="28.581163091360803" id="-49964">
		<tag k="name" v="Liboklubben - Liibu" />
		<tag k="name:no" v="Liboklubben" />
		<tag k="name:se" v="Liibu" />
		<tag k="natural" v="cape" />
		<tag k="old_name:se" v="Liibo" />
		<tag k="ssr:stedsnr" v="930364" />
	</node>
	<node lat="70.68347223967518" lon="28.509068668663954" id="-49966">
		<tag k="name" v="Gulgoneset - Vuođavuonnjárga" />
		<tag k="name:no" v="Gulgoneset" />
		<tag k="name:se" v="Vuođavuonnjárga" />
		<tag k="natural" v="cape" />
		<tag k="old_name:se" v="Vuođavuonnjarga" />
		<tag k="ssr:stedsnr" v="930371" />
	</node>
	<node lat="70.881800021911" lon="28.97739081041459" id="-49972">
		<tag k="alt_name" v="Fugleneset" />
		<tag k="name" v="Fuglenes" />
		<tag k="natural" v="cape" />
		<tag k="ssr:stedsnr" v="930965" />
	</node>
	<node lat="70.65313058325144" lon="29.272579516558356" id="-49982">
		<tag k="name" v="Sæterbukta" />
		<tag k="natural" v="bay" />
		<tag k="ssr:stedsnr" v="930393" />
	</node>
	<node lat="70.76305002514627" lon="29.35809896917247" id="-49989">
		<tag k="loc_name:se" v="Struhpponjárga" />
		<tag k="name" v="Nordmannsetneset" />
		<tag k="name:no" v="Nordmannsetneset" />
		<tag k="natural" v="cape" />
		<tag k="ssr:stedsnr" v="931546" />
	</node>
	<node lat="70.67633613387358" lon="29.287107300716663" id="-49995">
		<tag k="alt_name" v="Laukholmen;Vesterøya" />
		<tag k="name" v="Løkholmen" />
		<tag k="place" v="islet" />
		<tag k="ssr:stedsnr" v="20407" />
	</node>
	<node lat="70.72810002293865" lon="29.347090633814094" id="-49996">
		<tag k="name" v="Riššačilagohppi" />
		<tag k="name:se" v="Riššačilagohppi" />
		<tag k="natural" v="bay" />
		<tag k="old_name:se" v="Riššačilagåppi" />
		<tag k="ssr:stedsnr" v="20412" />
	</node>
	<node lat="70.87060835128023" lon="28.980729695528396" id="-50009">
		<tag k="alt_name" v="Skonsvika" />
		<tag k="fixme" v="multiple name tags, choose one and add the other to alt_name" />
		<tag k="name" v="Spoadnavika;Skånsvika" />
		<tag k="natural" v="bay" />
		<tag k="ssr:stedsnr" v="20975" />
	</node>
	<node lat="70.7535305821228" lon="29.32514064312004" id="-50011">
		<tag k="name" v="Storkeila" />
		<tag k="natural" v="bay" />
		<tag k="ssr:stedsnr" v="25928" />
	</node>
	<node lat="70.72812224312887" lon="29.332837858902014" id="-50012">
		<tag k="name" v="Plogneset" />
		<tag k="natural" v="cape" />
		<tag k="ssr:stedsnr" v="25935" />
	</node>
	<node lat="70.8673500198405" lon="29.124051870937837" id="-50013">
		<tag k="name" v="Svartoksfallet" />
		<tag k="natural" v="shoal" />
		<tag k="place" v="locality" />
		<tag k="ssr:stedsnr" v="25949" />
	</node>
	<node lat="70.7066750257192" lon="29.29742952549336" id="-50014">
		<tag k="name" v="Hans Jensen bukta" />
		<tag k="natural" v="bay" />
		<tag k="ssr:stedsnr" v="28239" />
	</node>
	<node lat="70.72849169111983" lon="29.33399617443207" id="-50019">
		<tag k="name" v="Vestre Plogvikneset" />
		<tag k="natural" v="cape" />
		<tag k="ssr:stedsnr" v="46936" />
	</node>
	<node lat="70.80439724300413" lon="29.26962122271279" id="-50024">
		<tag k="loc_name:se" v="Sáttuvuonklubbu" />
		<tag k="name" v="Sandfjordklubben" />
		<tag k="name:no" v="Sandfjordklubben" />
		<tag k="natural" v="cape" />
		<tag k="ssr:stedsnr" v="81988" />
	</node>
	<node lat="70.69712502656884" lon="29.386926714265535" id="-50029">
		<tag k="name" v="Straumsnesa" />
		<tag k="natural" v="cape" />
		<tag k="ssr:stedsnr" v="81415" />
	</node>
	<node lat="70.76892501492452" lon="28.60700756978694" id="-50040">
		<tag k="name" v="Gaksevikneset - Gákšonjárga" />
		<tag k="name:no" v="Gaksevikneset" />
		<tag k="name:se" v="Gákšonjárga" />
		<tag k="natural" v="cape" />
		<tag k="old_name:se" v="Gakšunjarga" />
		<tag k="ssr:stedsnr" v="81950" />
	</node>
	<node lat="70.8554389088534" lon="29.10752963388401" id="-50042">
		<tag k="name" v="Revnesbukta" />
		<tag k="natural" v="bay" />
		<tag k="ssr:stedsnr" v="81972" />
	</node>
	<node lat="70.71727502509042" lon="29.322779531129164" id="-50044">
		<tag k="name" v="Framnes" />
		<tag k="natural" v="cape" />
		<tag k="ssr:stedsnr" v="86547" />
	</node>
	<node lat="70.83580002038991" lon="28.723715865632613" id="-50047">
		<tag k="name" v="Storvika" />
		<tag k="natural" v="bay" />
		<tag k="ssr:stedsnr" v="87238" />
	</node>
	<node lat="70.68931112870638" lon="28.51068534425239" id="-50048">
		<tag k="fixme" v="consider seamark:type=rock or natural=shoal" />
		<tag k="name" v="Trollfjordskjeret" />
		<tag k="place" v="islet" />
		<tag k="ssr:stedsnr" v="87352" />
	</node>
	<node lat="70.67575002912113" lon="29.29243229928319" id="-50051">
		<tag k="name" v="Humpen" />
		<tag k="place" v="islet" />
		<tag k="ssr:stedsnr" v="108898" />
	</node>
	<node lat="70.85497779234849" lon="28.757221422211817" id="-50053">
		<tag k="name" v="Njuorenjárga" />
		<tag k="name:se" v="Njuorenjárga" />
		<tag k="natural" v="cape" />
		<tag k="old_name:se" v="Njuorenjarga" />
		<tag k="ssr:stedsnr" v="141917" />
	</node>
	<node lat="70.83036946228212" lon="28.715065863000206" id="-50054">
		<tag k="name" v="Ruohtasnjárga" />
		<tag k="name:se" v="Ruohtasnjárga" />
		<tag k="natural" v="cape" />
		<tag k="old_name:se" v="Ruottasnjarga" />
		<tag k="ssr:stedsnr" v="141927" />
	</node>
	<node lat="70.73040002126974" lon="29.27827398369836" id="-50057">
		<tag k="bay" v="fjord" />
		<tag k="name" v="Øster-Risfjorden" />
		<tag k="natural" v="bay" />
		<tag k="ssr:stedsnr" v="141426" />
	</node>
	<node lat="70.87714724003862" lon="28.849826963787173" id="-50061">
		<tag k="name" v="Hornvika - Hoartnasieiddeluokta" />
		<tag k="name:no" v="Hornvika" />
		<tag k="name:se" v="Hoartnasieiddeluokta" />
		<tag k="natural" v="bay" />
		<tag k="old_name:se" v="Hoardnasieideluokta" />
		<tag k="ssr:stedsnr" v="141953" />
	</node>
	<node lat="70.8760000186607" lon="28.830454746931274" id="-50063">
		<tag k="name" v="Bergvika - Stábbeluokta" />
		<tag k="name:no" v="Bergvika" />
		<tag k="name:se" v="Stábbeluokta" />
		<tag k="natural" v="bay" />
		<tag k="old_name:se" v="Stabbeluokta" />
		<tag k="ssr:stedsnr" v="141959" />
	</node>
	<node lat="70.87253057454603" lon="28.81722419701528" id="-50066">
		<tag k="name" v="Kråkeneset" />
		<tag k="natural" v="cape" />
		<tag k="ssr:stedsnr" v="147467" />
	</node>
	<node lat="70.74150002073762" lon="29.27269344335098" id="-50068">
		<tag k="fixme" v="consider seamark:type=rock or natural=shoal" />
		<tag k="name" v="Vestre Risfjordskjeret" />
		<tag k="place" v="islet" />
		<tag k="ssr:stedsnr" v="149224" />
	</node>
	<node lat="70.7278611335083" lon="29.334954514376875" id="-50069">
		<tag k="name" v="Østre Plogvikneset" />
		<tag k="natural" v="cape" />
		<tag k="ssr:stedsnr" v="167949" />
	</node>
	<node lat="70.7020250270167" lon="29.453176679695826" id="-50074">
		<tag k="fixme" v="multiple name tags, choose one and add the other to alt_name" />
		<tag k="name" v="Bjørnvikklubben;Klubbeneset" />
		<tag k="natural" v="cape" />
		<tag k="ssr:stedsnr" v="202474" />
	</node>
	<node lat="70.73338613518598" lon="29.333071199870645" id="-50079">
		<tag k="name" v="Hergevikgrunnen" />
		<tag k="natural" v="shoal" />
		<tag k="place" v="locality" />
		<tag k="ssr:stedsnr" v="207499" />
	</node>
	<node lat="70.71028336054951" lon="29.315973970808212" id="-50080">
		<tag k="name" v="Haraldbåen" />
		<tag k="natural" v="shoal" />
		<tag k="place" v="locality" />
		<tag k="ssr:stedsnr" v="207501" />
	</node>
	<node lat="70.884605575297" lon="28.966749149906704" id="-50081">
		<tag k="name" v="Skarveneset" />
		<tag k="natural" v="cape" />
		<tag k="ssr:stedsnr" v="208158" />
	</node>
	<node lat="70.73585557870787" lon="29.300232299966552" id="-50083">
		<tag k="alt_name" v="Østre Risfjordholmen" />
		<tag k="fixme" v="consider seamark:type=rock or natural=shoal" />
		<tag k="name" v="Østre Risfjordskjeret" />
		<tag k="place" v="islet" />
		<tag k="ssr:stedsnr" v="211257" />
	</node>
	<node lat="70.73052502988723" lon="29.377673940923277" id="-50086">
		<tag k="name" v="Kvalvika" />
		<tag k="natural" v="bay" />
		<tag k="ssr:stedsnr" v="289958" />
	</node>
	<node lat="70.72620558085995" lon="29.38006838507934" id="-50087">
		<tag k="name" v="Kuvika" />
		<tag k="natural" v="bay" />
		<tag k="ssr:stedsnr" v="289966" />
	</node>
	<node lat="70.72430280170491" lon="29.349423958335827" id="-50088">
		<tag k="name" v="Veineshalsen" />
		<tag k="place" v="locality" />
		<tag k="ssr:stedsnr" v="290908" />
	</node>
	<node lat="70.73159526222427" lon="29.418970312423788" id="-50089">
		<tag k="name" v="Veineshestan" />
		<tag k="natural" v="cape" />
		<tag k="ssr:stedsnr" v="290911" />
	</node>
	<node lat="70.78001668027397" lon="28.45049094779977" id="-50097">
		<tag k="bay" v="fjord" />
		<tag k="name" v="Tanafjorden - Deanuvuotna" />
		<tag k="name:no" v="Tanafjorden" />
		<tag k="name:se" v="Deanuvuotna" />
		<tag k="natural" v="bay" />
		<tag k="ssr:stedsnr" v="323368" />
	</node>
	<node lat="70.8202861344534" lon="29.262121230214937" id="-50108">
		<tag k="loc_name:se" v="Stuorrageađggiluokta" />
		<tag k="name" v="Storsteinbukta" />
		<tag k="name:no" v="Storsteinbukta" />
		<tag k="natural" v="bay" />
		<tag k="ssr:stedsnr" v="323988" />
	</node>
	<node lat="70.72619724986505" lon="29.351385065434364" id="-50111">
		<tag k="name" v="Sebulonbukta" />
		<tag k="natural" v="bay" />
		<tag k="ssr:stedsnr" v="329163" />
	</node>
	<node lat="70.7582444730663" lon="29.52419056621335" id="-50118">
		<tag k="name" v="Makkaurgrunnen" />
		<tag k="natural" v="shoal" />
		<tag k="place" v="locality" />
		<tag k="ssr:stedsnr" v="332209" />
	</node>
	<node lat="70.8697472424739" lon="29.092412972176643" id="-50121">
		<tag k="name" v="Kilbotnstøa" />
		<tag k="natural" v="bay" />
		<tag k="ssr:stedsnr" v="334283" />
	</node>
	<node lat="70.7330944728295" lon="29.36347117613325" id="-50122">
		<tag k="fixme" v="consider seamark:type=rock or natural=shoal" />
		<tag k="name" v="Storvikskjæran" />
		<tag k="place" v="islet" />
		<tag k="ssr:stedsnr" v="349960" />
	</node>
	<node lat="70.73264724755674" lon="29.31630175596789" id="-50123">
		<tag k="name" v="Hergeodden" />
		<tag k="natural" v="cape" />
		<tag k="ssr:stedsnr" v="349962" />
	</node>
	<node lat="70.69841669129504" lon="29.363535055837286" id="-50126">
		<tag k="name" v="Bryggerikjosen" />
		<tag k="natural" v="bay" />
		<tag k="ssr:stedsnr" v="350887" />
	</node>
	<node lat="70.73526669700688" lon="29.389760052446835" id="-50129">
		<tag k="alt_name" v="Langskjera" />
		<tag k="fixme" v="consider seamark:type=rock or natural=shoal" />
		<tag k="name" v="Langskjæran" />
		<tag k="place" v="islet" />
		<tag k="ssr:stedsnr" v="383430" />
	</node>
	<node lat="70.8498166918881" lon="29.1720268324937" id="-50136">
		<tag k="alt_name" v="Store Vargvika" />
		<tag k="name" v="Vargvika" />
		<tag k="natural" v="bay" />
		<tag k="ssr:stedsnr" v="384962" />
	</node>
	<node lat="70.69995835614847" lon="29.374518394692647" id="-50143">
		<tag k="alt_name" v="Vestre Straumsnes" />
		<tag k="name" v="Vestre Strømsneset" />
		<tag k="natural" v="cape" />
		<tag k="ssr:stedsnr" v="411197" />
	</node>
	<node lat="70.70413612785303" lon="28.539999229013006" id="-50144">
		<tag k="name" v="Skjerberget" />
		<tag k="natural" v="cape" />
		<tag k="ssr:stedsnr" v="444326" />
	</node>
	<node lat="70.65863613974878" lon="29.27729896852165" id="-50146">
		<tag k="alt_name:no" v="Østerbotn" />
		<tag k="name" v="Austerbotn - Guohcagohppi" />
		<tag k="name:no" v="Austerbotn" />
		<tag k="name:se" v="Guohcagohppi" />
		<tag k="natural" v="bay" />
		<tag k="old_name:se" v="Guoccagåppi" />
		<tag k="ssr:stedsnr" v="445398" />
	</node>
	<node lat="70.9060333502063" lon="29.081910210544734" id="-50153">
		<tag k="alt_name" v="Mellomgrunnen" />
		<tag k="name" v="Mellagrunnen" />
		<tag k="natural" v="shoal" />
		<tag k="place" v="locality" />
		<tag k="ssr:stedsnr" v="445964" />
	</node>
	<node lat="70.82645835322164" lon="29.27130733921747" id="-50157">
		<tag k="loc_name:se" v="Stivran;Stivrannjárga" />
		<tag k="name" v="Styret" />
		<tag k="name:no" v="Styret" />
		<tag k="natural" v="cape" />
		<tag k="ssr:stedsnr" v="505979" />
	</node>
	<node lat="70.69926390745745" lon="28.541854795314062" id="-50160">
		<tag k="fixme" v="consider seamark:type=rock or natural=shoal" />
		<tag k="name" v="Storskjeret - Stuorralásis" />
		<tag k="name:no" v="Storskjeret" />
		<tag k="name:se" v="Stuorralásis" />
		<tag k="old_name:se" v="Stuorralasis" />
		<tag k="place" v="islet" />
		<tag k="ssr:stedsnr" v="505362" />
	</node>
	<node lat="70.73053992068824" lon="29.39618151751135" id="-50161">
		<tag k="name" v="Veidnesodden - Riššačilanjárga" />
		<tag k="name:no" v="Veidnesodden" />
		<tag k="name:se" v="Riššačilanjárga" />
		<tag k="natural" v="cape" />
		<tag k="old_name:se" v="Riššačilanjarga" />
		<tag k="ssr:stedsnr" v="505423" />
	</node>
	<node lat="70.6921639183968" lon="29.407137805712875" id="-50162">
		<tag k="name" v="Sandbukta - Sáttogohppi" />
		<tag k="name:no" v="Sandbukta" />
		<tag k="name:se" v="Sáttogohppi" />
		<tag k="natural" v="bay" />
		<tag k="old_name:se" v="Saddugåppi" />
		<tag k="ssr:stedsnr" v="505400" />
	</node>
	<node lat="70.71034725033357" lon="29.28597397355075" id="-50163">
		<tag k="name" v="Djupbukta - Goađášgohppi" />
		<tag k="name:no" v="Djupbukta" />
		<tag k="name:se" v="Goađášgohppi" />
		<tag k="natural" v="bay" />
		<tag k="old_name:se" v="Goađašgåppi" />
		<tag k="ssr:stedsnr" v="505401" />
	</node>
	<node lat="70.7458333563277" lon="29.30657120776803" id="-50165">
		<tag k="bay" v="fjord" />
		<tag k="loc_name:se" v="Miennavuonna" />
		<tag k="name" v="Risfjorden - Miennavuotna" />
		<tag k="name:no" v="Risfjorden" />
		<tag k="name:se" v="Miennavuotna" />
		<tag k="natural" v="bay" />
		<tag k="old_name:se" v="Miennavuodna" />
		<tag k="ssr:stedsnr" v="505443" />
	</node>
	<node lat="70.84401113238546" lon="28.735543661075756" id="-50167">
		<tag k="name" v="Kvitnes - Guittanas" />
		<tag k="name:no" v="Kvitnes" />
		<tag k="name:se" v="Guittanas" />
		<tag k="natural" v="cape" />
		<tag k="old_name:se" v="Guitanas" />
		<tag k="ssr:stedsnr" v="505920" />
	</node>
	<node lat="70.81163613034379" lon="28.675571443344" id="-50168">
		<tag k="name" v="Krøkebærneset - Muorjegárnjárga" />
		<tag k="name:no" v="Krøkebærneset" />
		<tag k="name:se" v="Muorjegárnjárga" />
		<tag k="natural" v="cape" />
		<tag k="old_name:se" v="Muorjegarnjarga" />
		<tag k="ssr:stedsnr" v="505929" />
	</node>
	<node lat="70.48375003306245" lon="29.54015713483775" id="-50170">
		<tag k="name" v="Varangerhalvøya - Várnjárga - Varenkinniemi" />
		<tag k="name:fkv" v="Varenkinniemi" />
		<tag k="name:no" v="Varangerhalvøya" />
		<tag k="name:se" v="Várnjárga" />
		<tag k="natural" v="cape" />
		<tag k="ssr:stedsnr" v="506029" />
	</node>
	<node lat="70.79167502781188" lon="29.299846220947522" id="-50172">
		<tag k="name" v="Sandstøberget" />
		<tag k="natural" v="cape" />
		<tag k="ssr:stedsnr" v="506989" />
	</node>
	<node lat="70.87458891090992" lon="29.087176867934062" id="-50174">
		<tag k="fixme" v="consider seamark:type=rock or natural=shoal" />
		<tag k="name" v="Tollefsnesskjæret" />
		<tag k="place" v="islet" />
		<tag k="ssr:stedsnr" v="511939" />
	</node>
	<node lat="70.88436946362869" lon="28.95557691438024" id="-50178">
		<tag k="name" v="Vestre Skarvneset" />
		<tag k="natural" v="cape" />
		<tag k="ssr:stedsnr" v="531754" />
	</node>
	<node lat="70.68675002177602" lon="29.366501724578587" id="-50179">
		<tag k="name" v="Gamneset" />
		<tag k="natural" v="cape" />
		<tag k="ssr:stedsnr" v="533926" />
	</node>
	<node lat="70.69037224701103" lon="29.381840596746663" id="-50180">
		<tag k="name" v="Frantzenbukta" />
		<tag k="natural" v="bay" />
		<tag k="ssr:stedsnr" v="533927" />
	</node>
	<node lat="70.73083335823901" lon="29.368479512715766" id="-50181">
		<tag k="name" v="Storvika" />
		<tag k="natural" v="bay" />
		<tag k="ssr:stedsnr" v="565390" />
	</node>
	<node lat="70.4779694984812" lon="30.901573022960466" id="-50186">
		<tag k="alt_name" v="Østhavet" />
		<tag k="name" v="Austhavet" />
		<tag k="place" v="sea" />
		<tag k="ssr:stedsnr" v="565913" />
	</node>
	<node lat="70.67250002441699" lon="29.271393422109156" id="-50193">
		<tag k="name" v="Vesterbotn - Sarvvesvuotna" />
		<tag k="name:no" v="Vesterbotn" />
		<tag k="name:se" v="Sarvvesvuotna" />
		<tag k="natural" v="bay" />
		<tag k="old_name:se" v="Sarvesvuodna" />
		<tag k="ssr:stedsnr" v="566416" />
	</node>
	<node lat="70.91287224658572" lon="29.10182966146032" id="-50197">
		<tag k="name" v="Skallen" />
		<tag k="natural" v="shoal" />
		<tag k="place" v="locality" />
		<tag k="ssr:stedsnr" v="566949" />
	</node>
	<node lat="70.87917501950854" lon="29.065649109591106" id="-50198">
		<tag k="fixme" v="consider seamark:type=rock or natural=shoal" />
		<tag k="name" v="Rundskjeret" />
		<tag k="place" v="islet" />
		<tag k="ssr:stedsnr" v="566952" />
	</node>
	<node lat="70.78930558169212" lon="29.302807327236053" id="-50199">
		<tag k="loc_name:se" v="Loahkkeviika" />
		<tag k="name" v="Løkvika" />
		<tag k="name:no" v="Løkvika" />
		<tag k="natural" v="bay" />
		<tag k="ssr:stedsnr" v="566990" />
	</node>
	<node lat="70.86110835040685" lon="29.1207879804699" id="-50202">
		<tag k="name" v="Storelvfallet" />
		<tag k="natural" v="shoal" />
		<tag k="place" v="locality" />
		<tag k="ssr:stedsnr" v="571945" />
	</node>
	<node lat="70.85441668608982" lon="29.16471017517919" id="-50203">
		<tag k="name" v="Vargvikgrunnen" />
		<tag k="natural" v="shoal" />
		<tag k="place" v="locality" />
		<tag k="ssr:stedsnr" v="571948" />
	</node>
	<node lat="70.74166669128847" lon="29.449998926607666" id="-50206">
		<tag k="name" v="Helløysteinen" />
		<tag k="natural" v="shoal" />
		<tag k="place" v="locality" />
		<tag k="ssr:stedsnr" v="573173" />
	</node>
	<node lat="70.85054724069084" lon="29.143493525182848" id="-50207">
		<tag k="name" v="Lille Vargvika" />
		<tag k="natural" v="bay" />
		<tag k="ssr:stedsnr" v="578231" />
	</node>
	<node lat="70.73218891493075" lon="29.36689618017513" id="-50210">
		<tag k="name" v="Storvikodden" />
		<tag k="natural" v="cape" />
		<tag k="ssr:stedsnr" v="592947" />
	</node>
	<node lat="70.67051947435549" lon="29.28221841526971" id="-50211">
		<tag k="fixme" v="consider seamark:type=rock or natural=shoal" />
		<tag k="name" v="Skarvholmen" />
		<tag k="place" v="islet" />
		<tag k="ssr:stedsnr" v="593881" />
	</node>
	<node lat="70.73599724828706" lon="29.358610080790193" id="-50218">
		<tag k="name" v="Rundholmen - Jorbalásis" />
		<tag k="name:no" v="Rundholmen" />
		<tag k="name:se" v="Jorbalásis" />
		<tag k="old_name:se" v="Jårbalasis" />
		<tag k="place" v="islet" />
		<tag k="ssr:stedsnr" v="626445" />
	</node>
	<node lat="70.86120002247712" lon="29.100126873469808" id="-50222">
		<tag k="name" v="Trønderneset" />
		<tag k="natural" v="cape" />
		<tag k="ssr:stedsnr" v="627978" />
	</node>
	<node lat="70.85552224647913" lon="29.12700462831923" id="-50223">
		<tag k="name" v="Vringstadnes" />
		<tag k="natural" v="cape" />
		<tag k="ssr:stedsnr" v="627979" />
	</node>
	<node lat="70.86944446628826" lon="29.105554638528886" id="-50226">
		<tag k="name" v="Astrupbukta" />
		<tag k="natural" v="bay" />
		<tag k="ssr:stedsnr" v="632184" />
	</node>
	<node lat="70.74444446916559" lon="29.449998924126298" id="-50227">
		<tag k="name" v="Veidnesgrunnen" />
		<tag k="natural" v="shoal" />
		<tag k="place" v="locality" />
		<tag k="ssr:stedsnr" v="632186" />
	</node>
	<node lat="70.69826113944141" lon="29.385868380446084" id="-50229">
		<tag k="alt_name" v="Østre Straumsnes" />
		<tag k="name" v="Østre Strømsneset" />
		<tag k="natural" v="cape" />
		<tag k="ssr:stedsnr" v="635193" />
	</node>
	<node lat="70.86351946415103" lon="28.79377420575476" id="-50242">
		<tag k="name" v="Bukkekeila" />
		<tag k="natural" v="bay" />
		<tag k="ssr:stedsnr" v="748937" />
	</node>
	<node lat="70.7853444739594" lon="29.39592117920624" id="-50245">
		<tag k="name" v="Nålneset - Nuovlu" />
		<tag k="name:no" v="Nålneset" />
		<tag k="name:se" v="Nuovlu" />
		<tag k="natural" v="cape" />
		<tag k="old_name:se" v="Nuovlo;Nuoviu" />
		<tag k="ssr:stedsnr" v="748991" />
	</node>
	<node lat="70.72342224915751" lon="29.35021561256513" id="-50247">
		<tag k="name" v="Ytre Havn" />
		<tag k="natural" v="bay" />
		<tag k="ssr:stedsnr" v="753925" />
	</node>
	<node lat="70.72663613526026" lon="29.336035060594863" id="-50254">
		<tag k="name" v="Plogvika" />
		<tag k="natural" v="bay" />
		<tag k="ssr:stedsnr" v="774941" />
	</node>
	<node lat="70.72787224945296" lon="29.391240611866504" id="-50256">
		<tag k="name" v="Oterstokken" />
		<tag k="natural" v="bay" />
		<tag k="ssr:stedsnr" v="774946" />
	</node>
	<node lat="70.83925835490287" lon="29.251007368774207" id="-50258">
		<tag k="alt_name" v="Skjergardnes;Skjærgårdsnes" />
		<tag k="name" v="Skjærgardsneset" />
		<tag k="natural" v="cape" />
		<tag k="ssr:stedsnr" v="809986" />
	</node>
	<node lat="70.78070558058322" lon="29.375048975550843" id="-50260">
		<tag k="loc_name:se" v="Fálláluokta" />
		<tag k="name" v="Kvalvika" />
		<tag k="name:no" v="Kvalvika" />
		<tag k="natural" v="bay" />
		<tag k="ssr:stedsnr" v="809999" />
	</node>
	<node lat="70.73539169204447" lon="29.725432148101497" id="-50264">
		<tag k="name" v="Vesterneset" />
		<tag k="natural" v="cape" />
		<tag k="ssr:stedsnr" v="809518" />
	</node>
	<node lat="70.7117639177404" lon="29.3631545175182" id="-50266">
		<tag k="alt_name:no" v="Kongsfjord" />
		<tag k="bay" v="fjord" />
		<tag k="loc_name:se" v="Strommavuonna" />
		<tag k="name" v="Kongsfjorden" />
		<tag k="name:no" v="Kongsfjorden" />
		<tag k="natural" v="bay" />
		<tag k="old_name:se" v="Stråmmavuodna" />
		<tag k="ssr:stedsnr" v="809445" />
	</node>
	<node lat="70.8449861324823" lon="28.74188254282334" id="-50268">
		<tag k="name" v="Kvitnesbukta" />
		<tag k="natural" v="bay" />
		<tag k="ssr:stedsnr" v="809942" />
	</node>
	<node lat="70.85784169160627" lon="29.10124909362016" id="-50270">
		<tag k="name" v="Vardneset" />
		<tag k="natural" v="cape" />
		<tag k="ssr:stedsnr" v="809974" />
	</node>
	<node lat="70.86428335041533" lon="29.10266575411598" id="-50271">
		<tag k="name" v="Lagmannsneset" />
		<tag k="natural" v="cape" />
		<tag k="ssr:stedsnr" v="815175" />
	</node>
	<node lat="70.66940836447198" lon="29.324968395134082" id="-50272">
		<tag k="name" v="Bergbekkneset" />
		<tag k="natural" v="cape" />
		<tag k="ssr:stedsnr" v="814568" />
	</node>
	<node lat="70.8669055749498" lon="29.100099103558588" id="-50273">
		<tag k="name" v="Sandkeila" />
		<tag k="natural" v="bay" />
		<tag k="ssr:stedsnr" v="820295" />
	</node>
	<node lat="70.72271391574286" lon="29.34815174570776" id="-50277">
		<tag k="name" v="Frantzenneset" />
		<tag k="natural" v="cape" />
		<tag k="ssr:stedsnr" v="836923" />
	</node>
	<node lat="70.71427224558316" lon="29.29733230265528" id="-50283">
		<tag k="name" v="Kobbkroken" />
		<tag k="natural" v="bay" />
		<tag k="ssr:stedsnr" v="869463" />
	</node>
	<node lat="70.67099169335268" lon="29.290426738984632" id="-50296">
		<tag k="alt_name" v="Golbholmen" />
		<tag k="name" v="Østerøya" />
		<tag k="place" v="islet" />
		<tag k="ssr:stedsnr" v="875538" />
	</node>
	<node lat="70.73536668812268" lon="28.52820200900293" id="-50304">
		<tag k="name" v="Fossvika" />
		<tag k="natural" v="bay" />
		<tag k="ssr:stedsnr" v="937313" />
	</node>
	<node lat="70.87109169061122" lon="29.090993548860567" id="-50306">
		<tag k="name" v="Tollesnesbukta" />
		<tag k="natural" v="bay" />
		<tag k="ssr:stedsnr" v="941291" />
	</node>
	<node lat="70.6585722495835" lon="29.256662877039805" id="-50309">
		<tag k="name" v="Lasteplassneset" />
		<tag k="natural" v="cape" />
		<tag k="ssr:stedsnr" v="956932" />
	</node>
</osm>
