<?xml version="1.0" encoding="UTF-8"?>
<osm generator="osmapis" version="0.6">
	<node id="-747117" lat="69.1238888906" lon="18.6149777763">
		<tag k="name" v="M책lselv kommune" />
		<tag k="ssr:date" v="2016-05-11" />
		<tag k="ssr:gruppe" v="administrativeIndelinger" />
		<tag k="ssr:hovedgruppe" v="offentligAdministrasjon" />
		<tag k="ssr:stedsnr" v="936314" />
		<tag k="ssr:type" v="kommune" />
	</node>
	<node id="-746356" lat="69.1926833326" lon="18.4317944482">
		<tag k="name" v="M책lselv" />
		<tag k="ssr:date" v="2016-05-11" />
		<tag k="ssr:gruppe" v="terrengomr책der" />
		<tag k="ssr:hovedgruppe" v="terreng" />
		<tag k="ssr:stedsnr" v="756793" />
		<tag k="ssr:type" v="landskapsomr책de" />
	</node>
	<node id="-747275" lat="68.4849327361" lon="16.2297866207">
		<tag k="fixme" v="multiple name tags, choose one and add the other to alt_name" />
		<tag k="name" v="Nord-Noreg;Nord-Norge" />
		<tag k="ssr:date" v="2017-05-18" />
		<tag k="ssr:gruppe" v="administrativeIndelinger" />
		<tag k="ssr:hovedgruppe" v="offentligAdministrasjon" />
		<tag k="ssr:stedsnr" v="976106" />
		<tag k="ssr:type" v="annenAdministrativInndeling" />
	</node>
</osm>
