<?xml version="1.0" encoding="UTF-8"?>
<osm generator="osmapis" version="0.6">
	<node id="-560981" lat="62.2239861071" lon="5.89077499849">
		<tag k="name" v="Yksnøy" />
		<tag k="ssr:date" v="2016-05-10" />
		<tag k="ssr:gruppe" v="navigasjon" />
		<tag k="ssr:hovedgruppe" v="infrastruktur" />
		<tag k="ssr:stedsnr" v="314201" />
		<tag k="ssr:type" v="fyrlykt" />
	</node>
	<node id="-563256" lat="60.8816104596" lon="6.30047518531">
		<tag k="name" v="Vestlandet" />
		<tag k="ssr:date" v="2019-01-06" />
		<tag k="ssr:gruppe" v="administrativeIndelinger" />
		<tag k="ssr:hovedgruppe" v="offentligAdministrasjon" />
		<tag k="ssr:stedsnr" v="974777" />
		<tag k="ssr:type" v="annenAdministrativInndeling" />
	</node>
	<node id="-561717" lat="62.0768638864" lon="6.25575555534">
		<tag k="name" v="Årsetøy" />
		<tag k="ssr:date" v="2016-05-10" />
		<tag k="ssr:gruppe" v="navigasjon" />
		<tag k="ssr:hovedgruppe" v="infrastruktur" />
		<tag k="ssr:stedsnr" v="132639" />
		<tag k="ssr:type" v="fyrlykt" />
	</node>
	<node id="-561394" lat="62.147912533" lon="6.06504018627">
		<tag k="name" v="Dokterhaugen" />
		<tag k="ssr:date" v="2019-06-24" />
		<tag k="ssr:gruppe" v="veg" />
		<tag k="ssr:hovedgruppe" v="infrastruktur" />
		<tag k="ssr:stedsnr" v="1071982" />
		<tag k="ssr:type" v="adressenavn" />
	</node>
	<node id="-562991" lat="62.1467777781" lon="6.0680055575">
		<tag k="name" v="Volda kommune" />
		<tag k="ssr:date" v="2016-05-11" />
		<tag k="ssr:gruppe" v="administrativeIndelinger" />
		<tag k="ssr:hovedgruppe" v="offentligAdministrasjon" />
		<tag k="ssr:stedsnr" v="814107" />
		<tag k="ssr:type" v="kommune" />
	</node>
	<node id="-561131" lat="62.0753611137" lon="6.3145333325">
		<tag k="name" v="Leitet" />
		<tag k="ssr:date" v="2016-05-10" />
		<tag k="ssr:gruppe" v="navigasjon" />
		<tag k="ssr:hovedgruppe" v="infrastruktur" />
		<tag k="ssr:stedsnr" v="374609" />
		<tag k="ssr:type" v="fyrlykt" />
	</node>
	<node id="-561322" lat="62.1409401793" lon="5.9265970871">
		<tag k="name" v="Sæsshaugen" />
		<tag k="ssr:date" v="2019-05-31" />
		<tag k="ssr:gruppe" v="veg" />
		<tag k="ssr:hovedgruppe" v="infrastruktur" />
		<tag k="ssr:stedsnr" v="1062085" />
		<tag k="ssr:type" v="adressenavn" />
	</node>
	<node id="-561321" lat="62.0024596288" lon="5.76223872184">
		<tag k="name" v="Storlida" />
		<tag k="ssr:date" v="2019-05-31" />
		<tag k="ssr:gruppe" v="veg" />
		<tag k="ssr:hovedgruppe" v="infrastruktur" />
		<tag k="ssr:stedsnr" v="1061885" />
		<tag k="ssr:type" v="adressenavn" />
	</node>
	<node id="-562952" lat="62.0945250022" lon="6.14195000785">
		<tag k="name" v="Furnes" />
		<tag k="ssr:date" v="2016-05-11" />
		<tag k="ssr:gruppe" v="navigasjon" />
		<tag k="ssr:hovedgruppe" v="infrastruktur" />
		<tag k="ssr:stedsnr" v="799847" />
		<tag k="ssr:type" v="fyrlykt" />
	</node>
</osm>
