<?xml version="1.0" encoding="UTF-8"?>
<osm version="0.6" generator="osmapis">
	<node lat="61.491372218430506" lon="11.706922227483734" id="-17036">
		<tag k="name" v="Storåstjønna" />
		<tag k="natural" v="water" />
		<tag k="ssr:date" v="2019-12-27" />
		<tag k="ssr:gruppe" v="stilleståendeVann" />
		<tag k="ssr:hovedgruppe" v="ferskvann" />
		<tag k="ssr:stedsnr" v="8202" />
		<tag k="ssr:type" v="tjern" />
	</node>
	<node lat="61.87586666785382" lon="11.352038881596476" id="-17037">
		<tag k="alt_name" v="Misterdalen" />
		<tag k="name" v="Mistdalen" />
		<tag k="place" v="hamlet" />
		<tag k="ssr:date" v="2019-12-27" />
		<tag k="ssr:gruppe" v="bebyggelsesområder" />
		<tag k="ssr:hovedgruppe" v="bebyggelse" />
		<tag k="ssr:stedsnr" v="10010" />
		<tag k="ssr:type" v="grend" />
	</node>
	<node lat="61.52989999563103" lon="11.268880560927224" id="-17038">
		<tag k="fixme" v="consider natural=peak for the most distinct mountains in the district" />
		<tag k="name" v="Skramsliberget" />
		<tag k="natural" v="hill" />
		<tag k="place" v="locality" />
		<tag k="ssr:date" v="2019-12-27" />
		<tag k="ssr:gruppe" v="høyder" />
		<tag k="ssr:hovedgruppe" v="terreng" />
		<tag k="ssr:stedsnr" v="10295" />
		<tag k="ssr:type" v="ås" />
	</node>
	<node lat="61.621597218819325" lon="11.638472219061049" id="-17039">
		<tag k="fixme" v="consider natural=peak for the most distinct mountains in the district" />
		<tag k="name" v="Kletten" />
		<tag k="natural" v="hill" />
		<tag k="place" v="locality" />
		<tag k="ssr:date" v="2019-12-27" />
		<tag k="ssr:gruppe" v="høyder" />
		<tag k="ssr:hovedgruppe" v="terreng" />
		<tag k="ssr:stedsnr" v="10298" />
		<tag k="ssr:type" v="fjell" />
	</node>
	<node lat="61.80163610879832" lon="10.87526944263336" id="-17040">
		<tag k="name" v="Sagbekken" />
		<tag k="ssr:date" v="2019-12-27" />
		<tag k="ssr:gruppe" v="rennendeVann" />
		<tag k="ssr:hovedgruppe" v="ferskvann" />
		<tag k="ssr:stedsnr" v="10190" />
		<tag k="ssr:type" v="bekk" />
		<tag k="waterway" v="stream" />
	</node>
	<node lat="61.800044448082986" lon="11.021391672179064" id="-17041">
		<tag k="name" v="Hundtjønna" />
		<tag k="natural" v="water" />
		<tag k="ssr:date" v="2019-12-27" />
		<tag k="ssr:gruppe" v="stilleståendeVann" />
		<tag k="ssr:hovedgruppe" v="ferskvann" />
		<tag k="ssr:stedsnr" v="10191" />
		<tag k="ssr:type" v="tjern" />
	</node>
	<node lat="61.646205558970564" lon="11.709288887422215" id="-17042">
		<tag k="fixme" v="consider natural=peak for the most distinct mountains in the district" />
		<tag k="name" v="Gråhøgda" />
		<tag k="natural" v="hill" />
		<tag k="place" v="locality" />
		<tag k="ssr:date" v="2019-12-27" />
		<tag k="ssr:gruppe" v="høyder" />
		<tag k="ssr:hovedgruppe" v="terreng" />
		<tag k="ssr:stedsnr" v="10305" />
		<tag k="ssr:type" v="ås" />
	</node>
	<node lat="61.96328888670919" lon="10.977361104766306" id="-17043">
		<tag k="alt_name" v="Gammelsæteråa" />
		<tag k="name" v="Tysla" />
		<tag k="ssr:date" v="2019-12-27" />
		<tag k="ssr:gruppe" v="rennendeVann" />
		<tag k="ssr:hovedgruppe" v="ferskvann" />
		<tag k="ssr:stedsnr" v="10312" />
		<tag k="ssr:type" v="elv" />
		<tag k="waterway" v="river" />
	</node>
</osm>
