<?xml version="1.0" encoding="UTF-8"?>
<osm version="0.6" generator="osmapis">
	<node lat="61.456402286928245" lon="11.33104063539463" id="-43431">
		<tag k="name" v="Strandbergveien" />
		<tag k="ssr:date" v="2019-12-27" />
		<tag k="ssr:gruppe" v="veg" />
		<tag k="ssr:hovedgruppe" v="infrastruktur" />
		<tag k="ssr:stedsnr" v="178175" />
		<tag k="ssr:type" v="adressenavn" />
	</node>
	<node lat="61.75665787098816" lon="11.176665632545431" id="-43473">
		<tag k="name" v="Vangvollsveien" />
		<tag k="ssr:date" v="2019-12-27" />
		<tag k="ssr:gruppe" v="veg" />
		<tag k="ssr:hovedgruppe" v="infrastruktur" />
		<tag k="ssr:stedsnr" v="269082" />
		<tag k="ssr:type" v="adressenavn" />
	</node>
	<node lat="61.90134211422031" lon="11.080755435939212" id="-43478">
		<tag k="name" v="Brøtaveien" />
		<tag k="ssr:date" v="2019-12-27" />
		<tag k="ssr:gruppe" v="veg" />
		<tag k="ssr:hovedgruppe" v="infrastruktur" />
		<tag k="ssr:stedsnr" v="269460" />
		<tag k="ssr:type" v="adressenavn" />
	</node>
	<node lat="61.9947739233641" lon="11.134086614321134" id="-43505">
		<tag k="name" v="Spekedalsveien" />
		<tag k="ssr:date" v="2019-12-27" />
		<tag k="ssr:gruppe" v="veg" />
		<tag k="ssr:hovedgruppe" v="infrastruktur" />
		<tag k="ssr:stedsnr" v="240333" />
		<tag k="ssr:type" v="adressenavn" />
	</node>
	<node lat="61.61574107544921" lon="11.32328487483113" id="-43745">
		<tag k="name" v="Flendalsveien" />
		<tag k="ssr:date" v="2019-12-27" />
		<tag k="ssr:gruppe" v="veg" />
		<tag k="ssr:hovedgruppe" v="infrastruktur" />
		<tag k="ssr:stedsnr" v="420344" />
		<tag k="ssr:type" v="adressenavn" />
	</node>
	<node lat="61.83778950047431" lon="10.866542868079168" id="-43763">
		<tag k="name" v="Nedalsveien" />
		<tag k="ssr:date" v="2019-12-27" />
		<tag k="ssr:gruppe" v="veg" />
		<tag k="ssr:hovedgruppe" v="infrastruktur" />
		<tag k="ssr:stedsnr" v="422593" />
		<tag k="ssr:type" v="adressenavn" />
	</node>
	<node lat="61.966928044407304" lon="11.103254253258939" id="-43891">
		<tag k="name" v="Flatveien" />
		<tag k="ssr:date" v="2019-12-27" />
		<tag k="ssr:gruppe" v="veg" />
		<tag k="ssr:hovedgruppe" v="infrastruktur" />
		<tag k="ssr:stedsnr" v="482465" />
		<tag k="ssr:type" v="adressenavn" />
	</node>
	<node lat="61.92809278803902" lon="11.056796915034012" id="-43946">
		<tag k="name" v="Elvålsgutua" />
		<tag k="ssr:date" v="2019-12-27" />
		<tag k="ssr:gruppe" v="veg" />
		<tag k="ssr:hovedgruppe" v="infrastruktur" />
		<tag k="ssr:stedsnr" v="511005" />
		<tag k="ssr:type" v="adressenavn" />
	</node>
	<node lat="61.867558643350954" lon="11.047316637674134" id="-44040">
		<tag k="name" v="Klettvollveien" />
		<tag k="ssr:date" v="2019-12-27" />
		<tag k="ssr:gruppe" v="veg" />
		<tag k="ssr:hovedgruppe" v="infrastruktur" />
		<tag k="ssr:stedsnr" v="602804" />
		<tag k="ssr:type" v="adressenavn" />
	</node>
	<node lat="61.5665530271666" lon="11.12977054606738" id="-44062">
		<tag k="name" v="Storsjøveien" />
		<tag k="ssr:date" v="2019-12-27" />
		<tag k="ssr:gruppe" v="veg" />
		<tag k="ssr:hovedgruppe" v="infrastruktur" />
		<tag k="ssr:stedsnr" v="604851" />
		<tag k="ssr:type" v="adressenavn" />
	</node>
	<node lat="62.00962653896011" lon="11.147726749766312" id="-44150">
		<tag k="name" v="Klettsæterveien" />
		<tag k="ssr:date" v="2019-12-27" />
		<tag k="ssr:gruppe" v="veg" />
		<tag k="ssr:hovedgruppe" v="infrastruktur" />
		<tag k="ssr:stedsnr" v="664287" />
		<tag k="ssr:type" v="adressenavn" />
	</node>
	<node lat="61.573949998048455" lon="11.13547776962127" id="-44389">
		<tag k="name" v="Sunndalsvegen" />
		<tag k="ssr:date" v="2019-12-27" />
		<tag k="ssr:gruppe" v="veg" />
		<tag k="ssr:hovedgruppe" v="infrastruktur" />
		<tag k="ssr:stedsnr" v="786819" />
		<tag k="ssr:type" v="vegstrekning" />
	</node>
	<node lat="61.890038890850924" lon="11.076936105186613" id="-44435">
		<tag k="name" v="Rendalen kommune" />
		<tag k="ssr:date" v="2019-12-27" />
		<tag k="ssr:gruppe" v="administrativeIndelinger" />
		<tag k="ssr:hovedgruppe" v="offentligAdministrasjon" />
		<tag k="ssr:stedsnr" v="814679" />
		<tag k="ssr:type" v="kommune" />
	</node>
	<node lat="61.48317270102452" lon="11.682842106680871" id="-44546">
		<tag k="name" v="Osdalsveien" />
		<tag k="ssr:date" v="2019-12-27" />
		<tag k="ssr:gruppe" v="veg" />
		<tag k="ssr:hovedgruppe" v="infrastruktur" />
		<tag k="ssr:stedsnr" v="906400" />
		<tag k="ssr:type" v="adressenavn" />
	</node>
	<node lat="61.759711815261724" lon="11.431969465792463" id="-44553">
		<tag k="name" v="Jotveien" />
		<tag k="ssr:date" v="2019-12-27" />
		<tag k="ssr:gruppe" v="veg" />
		<tag k="ssr:hovedgruppe" v="infrastruktur" />
		<tag k="ssr:stedsnr" v="907266" />
		<tag k="ssr:type" v="adressenavn" />
	</node>
	<node lat="61.805375910406916" lon="10.850267828895541" id="-44632">
		<tag k="name" v="Rønningen" />
		<tag k="ssr:date" v="2019-12-27" />
		<tag k="ssr:gruppe" v="veg" />
		<tag k="ssr:hovedgruppe" v="infrastruktur" />
		<tag k="ssr:stedsnr" v="979979" />
		<tag k="ssr:type" v="adressenavn" />
	</node>
	<node lat="61.89266285256344" lon="11.076771569236941" id="-44633">
		<tag k="name" v="Asphaugjordet" />
		<tag k="ssr:date" v="2019-12-27" />
		<tag k="ssr:gruppe" v="veg" />
		<tag k="ssr:hovedgruppe" v="infrastruktur" />
		<tag k="ssr:stedsnr" v="979980" />
		<tag k="ssr:type" v="adressenavn" />
	</node>
	<node lat="61.884957914563095" lon="11.073015670239153" id="-44634">
		<tag k="name" v="Vestaberget" />
		<tag k="ssr:date" v="2019-12-27" />
		<tag k="ssr:gruppe" v="veg" />
		<tag k="ssr:hovedgruppe" v="infrastruktur" />
		<tag k="ssr:stedsnr" v="979981" />
		<tag k="ssr:type" v="adressenavn" />
	</node>
	<node lat="61.89128460069619" lon="11.077727001784183" id="-44635">
		<tag k="name" v="Stevneveien" />
		<tag k="ssr:date" v="2019-12-27" />
		<tag k="ssr:gruppe" v="veg" />
		<tag k="ssr:hovedgruppe" v="infrastruktur" />
		<tag k="ssr:stedsnr" v="979982" />
		<tag k="ssr:type" v="adressenavn" />
	</node>
	<node lat="61.88490677153529" lon="11.077510076092523" id="-44636">
		<tag k="name" v="Bergslia" />
		<tag k="ssr:date" v="2019-12-27" />
		<tag k="ssr:gruppe" v="veg" />
		<tag k="ssr:hovedgruppe" v="infrastruktur" />
		<tag k="ssr:stedsnr" v="979983" />
		<tag k="ssr:type" v="adressenavn" />
	</node>
	<node lat="61.83435314734179" lon="10.87933750004997" id="-44637">
		<tag k="name" v="Grøttingveien" />
		<tag k="ssr:date" v="2019-12-27" />
		<tag k="ssr:gruppe" v="veg" />
		<tag k="ssr:hovedgruppe" v="infrastruktur" />
		<tag k="ssr:stedsnr" v="979984" />
		<tag k="ssr:type" v="adressenavn" />
	</node>
	<node lat="61.82419663631602" lon="10.858161714380772" id="-44638">
		<tag k="name" v="Stasjonsveien" />
		<tag k="ssr:date" v="2019-12-27" />
		<tag k="ssr:gruppe" v="veg" />
		<tag k="ssr:hovedgruppe" v="infrastruktur" />
		<tag k="ssr:stedsnr" v="979985" />
		<tag k="ssr:type" v="adressenavn" />
	</node>
	<node lat="61.79438883053846" lon="11.152567634695906" id="-44639">
		<tag k="name" v="Berget" />
		<tag k="ssr:date" v="2019-12-27" />
		<tag k="ssr:gruppe" v="veg" />
		<tag k="ssr:hovedgruppe" v="infrastruktur" />
		<tag k="ssr:stedsnr" v="979986" />
		<tag k="ssr:type" v="adressenavn" />
	</node>
	<node lat="61.75821967060354" lon="11.198681742656019" id="-44640">
		<tag k="name" v="Lomnesveien" />
		<tag k="ssr:date" v="2019-12-27" />
		<tag k="ssr:gruppe" v="veg" />
		<tag k="ssr:hovedgruppe" v="infrastruktur" />
		<tag k="ssr:stedsnr" v="979987" />
		<tag k="ssr:type" v="adressenavn" />
	</node>
	<node lat="61.733623958344715" lon="11.208563349146992" id="-44641">
		<tag k="name" v="Kvernnesmoveien" />
		<tag k="ssr:date" v="2019-12-27" />
		<tag k="ssr:gruppe" v="veg" />
		<tag k="ssr:hovedgruppe" v="infrastruktur" />
		<tag k="ssr:stedsnr" v="979988" />
		<tag k="ssr:type" v="adressenavn" />
	</node>
	<node lat="61.760577198380766" lon="11.170338713538108" id="-44642">
		<tag k="name" v="Otnesøyen" />
		<tag k="ssr:date" v="2019-12-27" />
		<tag k="ssr:gruppe" v="veg" />
		<tag k="ssr:hovedgruppe" v="infrastruktur" />
		<tag k="ssr:stedsnr" v="979989" />
		<tag k="ssr:type" v="adressenavn" />
	</node>
	<node lat="61.75775531697661" lon="11.175558083266813" id="-44643">
		<tag k="name" v="Kjerkeveien" />
		<tag k="ssr:date" v="2019-12-27" />
		<tag k="ssr:gruppe" v="veg" />
		<tag k="ssr:hovedgruppe" v="infrastruktur" />
		<tag k="ssr:stedsnr" v="979990" />
		<tag k="ssr:type" v="adressenavn" />
	</node>
	<node lat="61.758547237209314" lon="11.174150837236173" id="-44644">
		<tag k="name" v="Søstuveien" />
		<tag k="ssr:date" v="2019-12-27" />
		<tag k="ssr:gruppe" v="veg" />
		<tag k="ssr:hovedgruppe" v="infrastruktur" />
		<tag k="ssr:stedsnr" v="979991" />
		<tag k="ssr:type" v="adressenavn" />
	</node>
	<node lat="61.75643876081639" lon="11.16993976048927" id="-44645">
		<tag k="name" v="Gamleveien" />
		<tag k="ssr:date" v="2019-12-27" />
		<tag k="ssr:gruppe" v="veg" />
		<tag k="ssr:hovedgruppe" v="infrastruktur" />
		<tag k="ssr:stedsnr" v="979992" />
		<tag k="ssr:type" v="adressenavn" />
	</node>
	<node lat="61.75648247425367" lon="11.170175548761296" id="-44646">
		<tag k="name" v="Tømmerveien" />
		<tag k="ssr:date" v="2019-12-27" />
		<tag k="ssr:gruppe" v="veg" />
		<tag k="ssr:hovedgruppe" v="infrastruktur" />
		<tag k="ssr:stedsnr" v="979993" />
		<tag k="ssr:type" v="adressenavn" />
	</node>
	<node lat="61.69540730994644" lon="11.209509071725723" id="-44647">
		<tag k="name" v="Gamle Sjølivei" />
		<tag k="ssr:date" v="2019-12-27" />
		<tag k="ssr:gruppe" v="veg" />
		<tag k="ssr:hovedgruppe" v="infrastruktur" />
		<tag k="ssr:stedsnr" v="979994" />
		<tag k="ssr:type" v="adressenavn" />
	</node>
	<node lat="61.70410111977986" lon="11.284664889731644" id="-44648">
		<tag k="name" v="Ulvelavet" />
		<tag k="ssr:date" v="2019-12-27" />
		<tag k="ssr:gruppe" v="veg" />
		<tag k="ssr:hovedgruppe" v="infrastruktur" />
		<tag k="ssr:stedsnr" v="980027" />
		<tag k="ssr:type" v="adressenavn" />
	</node>
	<node lat="61.69758091530145" lon="11.304253890012511" id="-44649">
		<tag k="name" v="Rypesteggen" />
		<tag k="ssr:date" v="2019-12-27" />
		<tag k="ssr:gruppe" v="veg" />
		<tag k="ssr:hovedgruppe" v="infrastruktur" />
		<tag k="ssr:stedsnr" v="980028" />
		<tag k="ssr:type" v="adressenavn" />
	</node>
	<node lat="61.699958610801865" lon="11.309696774955485" id="-44650">
		<tag k="name" v="Rentråkket" />
		<tag k="ssr:date" v="2019-12-27" />
		<tag k="ssr:gruppe" v="veg" />
		<tag k="ssr:hovedgruppe" v="infrastruktur" />
		<tag k="ssr:stedsnr" v="980029" />
		<tag k="ssr:type" v="adressenavn" />
	</node>
	<node lat="61.70132587830759" lon="11.307512361533375" id="-44651">
		<tag k="name" v="Harestubben" />
		<tag k="ssr:date" v="2019-12-27" />
		<tag k="ssr:gruppe" v="veg" />
		<tag k="ssr:hovedgruppe" v="infrastruktur" />
		<tag k="ssr:stedsnr" v="980030" />
		<tag k="ssr:type" v="adressenavn" />
	</node>
	<node lat="61.70548542185936" lon="11.308770753093734" id="-44652">
		<tag k="name" v="Gevirtoppen" />
		<tag k="ssr:date" v="2019-12-27" />
		<tag k="ssr:gruppe" v="veg" />
		<tag k="ssr:hovedgruppe" v="infrastruktur" />
		<tag k="ssr:stedsnr" v="980031" />
		<tag k="ssr:type" v="adressenavn" />
	</node>
	<node lat="61.706375467899356" lon="11.308872314498267" id="-44653">
		<tag k="name" v="Tiurtoppen" />
		<tag k="ssr:date" v="2019-12-27" />
		<tag k="ssr:gruppe" v="veg" />
		<tag k="ssr:hovedgruppe" v="infrastruktur" />
		<tag k="ssr:stedsnr" v="980032" />
		<tag k="ssr:type" v="adressenavn" />
	</node>
	<node lat="61.703945388495" lon="11.312766155493048" id="-44654">
		<tag k="name" v="Bjørnelabben" />
		<tag k="ssr:date" v="2019-12-27" />
		<tag k="ssr:gruppe" v="veg" />
		<tag k="ssr:hovedgruppe" v="infrastruktur" />
		<tag k="ssr:stedsnr" v="980033" />
		<tag k="ssr:type" v="adressenavn" />
	</node>
	<node lat="61.700914562389" lon="11.31561389268207" id="-44655">
		<tag k="name" v="Jervesporet" />
		<tag k="ssr:date" v="2019-12-27" />
		<tag k="ssr:gruppe" v="veg" />
		<tag k="ssr:hovedgruppe" v="infrastruktur" />
		<tag k="ssr:stedsnr" v="980034" />
		<tag k="ssr:type" v="adressenavn" />
	</node>
	<node lat="61.70238881251792" lon="11.31951830508554" id="-44656">
		<tag k="name" v="Gaupeblikket" />
		<tag k="ssr:date" v="2019-12-27" />
		<tag k="ssr:gruppe" v="veg" />
		<tag k="ssr:hovedgruppe" v="infrastruktur" />
		<tag k="ssr:stedsnr" v="980035" />
		<tag k="ssr:type" v="adressenavn" />
	</node>
	<node lat="61.70149464549751" lon="11.323095033114143" id="-44657">
		<tag k="name" v="Orrleiken" />
		<tag k="ssr:date" v="2019-12-27" />
		<tag k="ssr:gruppe" v="veg" />
		<tag k="ssr:hovedgruppe" v="infrastruktur" />
		<tag k="ssr:stedsnr" v="980036" />
		<tag k="ssr:type" v="adressenavn" />
	</node>
	<node lat="61.698523296112164" lon="11.285781340701043" id="-44658">
		<tag k="name" v="Søljerøsta" />
		<tag k="ssr:date" v="2019-12-27" />
		<tag k="ssr:gruppe" v="veg" />
		<tag k="ssr:hovedgruppe" v="infrastruktur" />
		<tag k="ssr:stedsnr" v="980037" />
		<tag k="ssr:type" v="adressenavn" />
	</node>
	<node lat="61.88881697536226" lon="11.075062258212968" id="-44659">
		<tag k="name" v="Petterbakken" />
		<tag k="ssr:date" v="2019-12-27" />
		<tag k="ssr:gruppe" v="veg" />
		<tag k="ssr:hovedgruppe" v="infrastruktur" />
		<tag k="ssr:stedsnr" v="980038" />
		<tag k="ssr:type" v="adressenavn" />
	</node>
	<node lat="61.88926920807301" lon="11.078057674967571" id="-44660">
		<tag k="name" v="Klokkarveien" />
		<tag k="ssr:date" v="2019-12-27" />
		<tag k="ssr:gruppe" v="veg" />
		<tag k="ssr:hovedgruppe" v="infrastruktur" />
		<tag k="ssr:stedsnr" v="980039" />
		<tag k="ssr:type" v="adressenavn" />
	</node>
	<node lat="61.760698021855866" lon="11.170111054761316" id="-44661">
		<tag k="name" v="Brattegga" />
		<tag k="ssr:date" v="2019-12-27" />
		<tag k="ssr:gruppe" v="veg" />
		<tag k="ssr:hovedgruppe" v="infrastruktur" />
		<tag k="ssr:stedsnr" v="980040" />
		<tag k="ssr:type" v="adressenavn" />
	</node>
	<node lat="61.75946104188131" lon="11.17181417612236" id="-44662">
		<tag k="name" v="Sagveien" />
		<tag k="ssr:date" v="2019-12-27" />
		<tag k="ssr:gruppe" v="veg" />
		<tag k="ssr:hovedgruppe" v="infrastruktur" />
		<tag k="ssr:stedsnr" v="980041" />
		<tag k="ssr:type" v="adressenavn" />
	</node>
	<node lat="61.75862572562314" lon="11.17400017090726" id="-44663">
		<tag k="name" v="Fryseriveien" />
		<tag k="ssr:date" v="2019-12-27" />
		<tag k="ssr:gruppe" v="veg" />
		<tag k="ssr:hovedgruppe" v="infrastruktur" />
		<tag k="ssr:stedsnr" v="980042" />
		<tag k="ssr:type" v="adressenavn" />
	</node>
	<node lat="61.757242569139116" lon="11.171557960824076" id="-44664">
		<tag k="name" v="Treleveien" />
		<tag k="ssr:date" v="2019-12-27" />
		<tag k="ssr:gruppe" v="veg" />
		<tag k="ssr:hovedgruppe" v="infrastruktur" />
		<tag k="ssr:stedsnr" v="980043" />
		<tag k="ssr:type" v="adressenavn" />
	</node>
	<node lat="61.755363896755384" lon="11.180156414975627" id="-44665">
		<tag k="name" v="Strandveien" />
		<tag k="ssr:date" v="2019-12-27" />
		<tag k="ssr:gruppe" v="veg" />
		<tag k="ssr:hovedgruppe" v="infrastruktur" />
		<tag k="ssr:stedsnr" v="980044" />
		<tag k="ssr:type" v="adressenavn" />
	</node>
	<node lat="61.77636704574831" lon="11.42606805753558" id="-44666">
		<tag k="name" v="Lomnesmistra" />
		<tag k="ssr:date" v="2019-12-27" />
		<tag k="ssr:gruppe" v="veg" />
		<tag k="ssr:hovedgruppe" v="infrastruktur" />
		<tag k="ssr:stedsnr" v="980262" />
		<tag k="ssr:type" v="adressenavn" />
	</node>
	<node lat="61.72608922363159" lon="11.355659368345773" id="-44667">
		<tag k="name" v="Renåskarven" />
		<tag k="ssr:date" v="2019-12-27" />
		<tag k="ssr:gruppe" v="veg" />
		<tag k="ssr:hovedgruppe" v="infrastruktur" />
		<tag k="ssr:stedsnr" v="980263" />
		<tag k="ssr:type" v="adressenavn" />
	</node>
	<node lat="61.76773131676838" lon="11.505897442768072" id="-44668">
		<tag k="name" v="Holla" />
		<tag k="ssr:date" v="2019-12-27" />
		<tag k="ssr:gruppe" v="veg" />
		<tag k="ssr:hovedgruppe" v="infrastruktur" />
		<tag k="ssr:stedsnr" v="980264" />
		<tag k="ssr:type" v="adressenavn" />
	</node>
	<node lat="61.764955133227176" lon="11.544658060027047" id="-44669">
		<tag k="name" v="Nøklåkjølen" />
		<tag k="ssr:date" v="2019-12-27" />
		<tag k="ssr:gruppe" v="veg" />
		<tag k="ssr:hovedgruppe" v="infrastruktur" />
		<tag k="ssr:stedsnr" v="980265" />
		<tag k="ssr:type" v="adressenavn" />
	</node>
	<node lat="61.86149402420721" lon="11.72727756613693" id="-44670">
		<tag k="name" v="Røsandliveien" />
		<tag k="ssr:date" v="2019-12-27" />
		<tag k="ssr:gruppe" v="veg" />
		<tag k="ssr:hovedgruppe" v="infrastruktur" />
		<tag k="ssr:stedsnr" v="980266" />
		<tag k="ssr:type" v="adressenavn" />
	</node>
	<node lat="61.896890740815685" lon="11.075514571743946" id="-44671">
		<tag k="name" v="Bergeveien" />
		<tag k="ssr:date" v="2019-12-27" />
		<tag k="ssr:gruppe" v="veg" />
		<tag k="ssr:hovedgruppe" v="infrastruktur" />
		<tag k="ssr:stedsnr" v="980267" />
		<tag k="ssr:type" v="adressenavn" />
	</node>
	<node lat="61.792957965673864" lon="11.133939289921233" id="-44672">
		<tag k="name" v="Hårennveien" />
		<tag k="ssr:date" v="2019-12-27" />
		<tag k="ssr:gruppe" v="veg" />
		<tag k="ssr:hovedgruppe" v="infrastruktur" />
		<tag k="ssr:stedsnr" v="980268" />
		<tag k="ssr:type" v="adressenavn" />
	</node>
	<node lat="61.653485400312164" lon="11.191075148072011" id="-45113">
		<tag k="name" v="Moraveien" />
		<tag k="ssr:date" v="2019-12-27" />
		<tag k="ssr:gruppe" v="veg" />
		<tag k="ssr:hovedgruppe" v="infrastruktur" />
		<tag k="ssr:stedsnr" v="301054" />
		<tag k="ssr:type" v="adressenavn" />
	</node>
	<node lat="61.68822231549904" lon="11.549920327391774" id="-45273">
		<tag k="name" v="Krokbekkveien" />
		<tag k="ssr:date" v="2019-12-27" />
		<tag k="ssr:gruppe" v="veg" />
		<tag k="ssr:hovedgruppe" v="infrastruktur" />
		<tag k="ssr:stedsnr" v="361930" />
		<tag k="ssr:type" v="adressenavn" />
	</node>
	<node lat="61.86343809641008" lon="11.017680085033955" id="-45654">
		<tag k="name" v="Kaldbergveien" />
		<tag k="ssr:date" v="2019-12-27" />
		<tag k="ssr:gruppe" v="veg" />
		<tag k="ssr:hovedgruppe" v="infrastruktur" />
		<tag k="ssr:stedsnr" v="604818" />
		<tag k="ssr:type" v="adressenavn" />
	</node>
	<node lat="61.72788237175196" lon="11.38778376348266" id="-46136">
		<tag k="name" v="Østvollveien" />
		<tag k="ssr:date" v="2019-12-27" />
		<tag k="ssr:gruppe" v="veg" />
		<tag k="ssr:hovedgruppe" v="infrastruktur" />
		<tag k="ssr:stedsnr" v="966419" />
		<tag k="ssr:type" v="adressenavn" />
	</node>
	<node lat="61.430435496672146" lon="11.349102184697026" id="-46190">
		<tag k="name" v="Dølplassveien" />
		<tag k="ssr:date" v="2019-12-27" />
		<tag k="ssr:gruppe" v="veg" />
		<tag k="ssr:hovedgruppe" v="infrastruktur" />
		<tag k="ssr:stedsnr" v="976907" />
		<tag k="ssr:type" v="adressenavn" />
	</node>
	<node lat="61.70233371548668" lon="11.19780360110643" id="-46191">
		<tag k="name" v="Øverliveien" />
		<tag k="ssr:date" v="2019-12-27" />
		<tag k="ssr:gruppe" v="veg" />
		<tag k="ssr:hovedgruppe" v="infrastruktur" />
		<tag k="ssr:stedsnr" v="976908" />
		<tag k="ssr:type" v="adressenavn" />
	</node>
	<node lat="61.72188945189746" lon="11.199461847078133" id="-46192">
		<tag k="name" v="Skoleveien" />
		<tag k="ssr:date" v="2019-12-27" />
		<tag k="ssr:gruppe" v="veg" />
		<tag k="ssr:hovedgruppe" v="infrastruktur" />
		<tag k="ssr:stedsnr" v="976909" />
		<tag k="ssr:type" v="adressenavn" />
	</node>
	<node lat="61.8873503138554" lon="11.095792100707351" id="-46193">
		<tag k="name" v="Holmegga" />
		<tag k="ssr:date" v="2019-12-27" />
		<tag k="ssr:gruppe" v="veg" />
		<tag k="ssr:hovedgruppe" v="infrastruktur" />
		<tag k="ssr:stedsnr" v="976910" />
		<tag k="ssr:type" v="adressenavn" />
	</node>
	<node lat="61.77190009890411" lon="11.077518368261133" id="-46194">
		<tag k="name" v="Motjønnveien" />
		<tag k="ssr:date" v="2019-12-27" />
		<tag k="ssr:gruppe" v="veg" />
		<tag k="ssr:hovedgruppe" v="infrastruktur" />
		<tag k="ssr:stedsnr" v="976911" />
		<tag k="ssr:type" v="adressenavn" />
	</node>
	<node lat="61.77611488962116" lon="11.62548049801463" id="-46195">
		<tag k="name" v="Aursjøvolaveien" />
		<tag k="ssr:date" v="2019-12-27" />
		<tag k="ssr:gruppe" v="veg" />
		<tag k="ssr:hovedgruppe" v="infrastruktur" />
		<tag k="ssr:stedsnr" v="976912" />
		<tag k="ssr:type" v="adressenavn" />
	</node>
	<node lat="61.42537362610408" lon="11.349340474741057" id="-46196">
		<tag k="name" v="Sjøliveien" />
		<tag k="ssr:date" v="2019-12-27" />
		<tag k="ssr:gruppe" v="veg" />
		<tag k="ssr:hovedgruppe" v="infrastruktur" />
		<tag k="ssr:stedsnr" v="979974" />
		<tag k="ssr:type" v="adressenavn" />
	</node>
	<node lat="61.73240513131778" lon="11.20122680810407" id="-46197">
		<tag k="name" v="Lomnessjøen øst" />
		<tag k="ssr:date" v="2019-12-27" />
		<tag k="ssr:gruppe" v="veg" />
		<tag k="ssr:hovedgruppe" v="infrastruktur" />
		<tag k="ssr:stedsnr" v="979975" />
		<tag k="ssr:type" v="adressenavn" />
	</node>
	<node lat="61.88057588914821" lon="11.083044238518745" id="-46198">
		<tag k="name" v="Østagrenda" />
		<tag k="ssr:date" v="2019-12-27" />
		<tag k="ssr:gruppe" v="veg" />
		<tag k="ssr:hovedgruppe" v="infrastruktur" />
		<tag k="ssr:stedsnr" v="979976" />
		<tag k="ssr:type" v="adressenavn" />
	</node>
	<node lat="61.83560293754409" lon="10.887170337465488" id="-46199">
		<tag k="name" v="Hanestadveien" />
		<tag k="ssr:date" v="2019-12-27" />
		<tag k="ssr:gruppe" v="veg" />
		<tag k="ssr:hovedgruppe" v="infrastruktur" />
		<tag k="ssr:stedsnr" v="979977" />
		<tag k="ssr:type" v="adressenavn" />
	</node>
	<node lat="61.93299270428444" lon="11.05520684045193" id="-46200">
		<tag k="name" v="Unsetveien" />
		<tag k="ssr:date" v="2019-12-27" />
		<tag k="ssr:gruppe" v="veg" />
		<tag k="ssr:hovedgruppe" v="infrastruktur" />
		<tag k="ssr:stedsnr" v="979978" />
		<tag k="ssr:type" v="adressenavn" />
	</node>
	<node lat="61.71822556301647" lon="11.29441077965452" id="-46201">
		<tag k="name" v="Renåfjellveien" />
		<tag k="ssr:date" v="2019-12-27" />
		<tag k="ssr:gruppe" v="veg" />
		<tag k="ssr:hovedgruppe" v="infrastruktur" />
		<tag k="ssr:stedsnr" v="980022" />
		<tag k="ssr:type" v="adressenavn" />
	</node>
	<node lat="61.71774694665809" lon="11.294359597531015" id="-46202">
		<tag k="name" v="Renlavet" />
		<tag k="ssr:date" v="2019-12-27" />
		<tag k="ssr:gruppe" v="veg" />
		<tag k="ssr:hovedgruppe" v="infrastruktur" />
		<tag k="ssr:stedsnr" v="980023" />
		<tag k="ssr:type" v="adressenavn" />
	</node>
	<node lat="61.71511024347748" lon="11.291843388025935" id="-46203">
		<tag k="name" v="Røsslyngen" />
		<tag k="ssr:date" v="2019-12-27" />
		<tag k="ssr:gruppe" v="veg" />
		<tag k="ssr:hovedgruppe" v="infrastruktur" />
		<tag k="ssr:stedsnr" v="980024" />
		<tag k="ssr:type" v="adressenavn" />
	</node>
	<node lat="61.71405035584523" lon="11.290671770814239" id="-46204">
		<tag k="name" v="Fjellkreklingen" />
		<tag k="ssr:date" v="2019-12-27" />
		<tag k="ssr:gruppe" v="veg" />
		<tag k="ssr:hovedgruppe" v="infrastruktur" />
		<tag k="ssr:stedsnr" v="980025" />
		<tag k="ssr:type" v="adressenavn" />
	</node>
	<node lat="61.70753502175811" lon="11.2837647000051" id="-46205">
		<tag k="name" v="Geitramsen" />
		<tag k="ssr:date" v="2019-12-27" />
		<tag k="ssr:gruppe" v="veg" />
		<tag k="ssr:hovedgruppe" v="infrastruktur" />
		<tag k="ssr:stedsnr" v="980026" />
		<tag k="ssr:type" v="adressenavn" />
	</node>
	<node lat="61.68760667768084" lon="11.217916675826753" id="-46206">
		<tag k="name" v="Slåttveien" />
		<tag k="ssr:date" v="2019-12-27" />
		<tag k="ssr:gruppe" v="veg" />
		<tag k="ssr:hovedgruppe" v="infrastruktur" />
		<tag k="ssr:stedsnr" v="980269" />
		<tag k="ssr:type" v="adressenavn" />
	</node>
	<node lat="61.77386568929241" lon="11.621446397627615" id="-46207">
		<tag k="name" v="Engerdalsveien" />
		<tag k="ssr:date" v="2019-12-27" />
		<tag k="ssr:gruppe" v="veg" />
		<tag k="ssr:hovedgruppe" v="infrastruktur" />
		<tag k="ssr:stedsnr" v="979972" />
		<tag k="ssr:type" v="adressenavn" />
	</node>
	<node lat="61.73967145423843" lon="10.823038208925773" id="-46208">
		<tag k="name" v="Nord-Østerdalsveien" />
		<tag k="ssr:date" v="2019-12-27" />
		<tag k="ssr:gruppe" v="veg" />
		<tag k="ssr:hovedgruppe" v="infrastruktur" />
		<tag k="ssr:stedsnr" v="979973" />
		<tag k="ssr:type" v="adressenavn" />
	</node>
	<node lat="61.756546069246355" lon="11.176772260499439" id="-46209">
		<tag k="name" v="Spareforeningsveien" />
		<tag k="ssr:date" v="2019-12-27" />
		<tag k="ssr:gruppe" v="veg" />
		<tag k="ssr:hovedgruppe" v="infrastruktur" />
		<tag k="ssr:stedsnr" v="980045" />
		<tag k="ssr:type" v="adressenavn" />
	</node>
	<node lat="61.695860896607506" lon="11.202570767093249" id="-46210">
		<tag k="name" v="Velheimveien" />
		<tag k="ssr:date" v="2019-12-27" />
		<tag k="ssr:gruppe" v="veg" />
		<tag k="ssr:hovedgruppe" v="infrastruktur" />
		<tag k="ssr:stedsnr" v="980046" />
		<tag k="ssr:type" v="adressenavn" />
	</node>
	<node lat="61.69566105657232" lon="11.206872628784183" id="-46211">
		<tag k="name" v="Sanaveien" />
		<tag k="ssr:date" v="2019-12-27" />
		<tag k="ssr:gruppe" v="veg" />
		<tag k="ssr:hovedgruppe" v="infrastruktur" />
		<tag k="ssr:stedsnr" v="980047" />
		<tag k="ssr:type" v="adressenavn" />
	</node>
	<node lat="61.699000773136646" lon="11.232508695111115" id="-46212">
		<tag k="name" v="Nybergveien" />
		<tag k="ssr:date" v="2019-12-27" />
		<tag k="ssr:gruppe" v="veg" />
		<tag k="ssr:hovedgruppe" v="infrastruktur" />
		<tag k="ssr:stedsnr" v="980048" />
		<tag k="ssr:type" v="adressenavn" />
	</node>
	<node lat="62.10750190055362" lon="11.044338745775777" id="-46213">
		<tag k="name" v="Gamle Værådalsveien" />
		<tag k="ssr:date" v="2019-12-27" />
		<tag k="ssr:gruppe" v="veg" />
		<tag k="ssr:hovedgruppe" v="infrastruktur" />
		<tag k="ssr:stedsnr" v="980049" />
		<tag k="ssr:type" v="adressenavn" />
	</node>
	<node lat="62.06575682527376" lon="11.054440461705653" id="-46214">
		<tag k="name" v="Gammelsæterveien" />
		<tag k="ssr:date" v="2019-12-27" />
		<tag k="ssr:gruppe" v="veg" />
		<tag k="ssr:hovedgruppe" v="infrastruktur" />
		<tag k="ssr:stedsnr" v="980050" />
		<tag k="ssr:type" v="adressenavn" />
	</node>
	<node lat="61.963731048056815" lon="11.101851873478504" id="-46215">
		<tag k="name" v="Svenstugutua" />
		<tag k="ssr:date" v="2019-12-27" />
		<tag k="ssr:gruppe" v="veg" />
		<tag k="ssr:hovedgruppe" v="infrastruktur" />
		<tag k="ssr:stedsnr" v="980051" />
		<tag k="ssr:type" v="adressenavn" />
	</node>
	<node lat="61.969837877234035" lon="11.106310431930506" id="-46216">
		<tag k="name" v="Tjeldveien" />
		<tag k="ssr:date" v="2019-12-27" />
		<tag k="ssr:gruppe" v="veg" />
		<tag k="ssr:hovedgruppe" v="infrastruktur" />
		<tag k="ssr:stedsnr" v="980052" />
		<tag k="ssr:type" v="adressenavn" />
	</node>
	<node lat="61.97723069142727" lon="11.115022432809505" id="-46217">
		<tag k="name" v="Rødvolveien" />
		<tag k="ssr:date" v="2019-12-27" />
		<tag k="ssr:gruppe" v="veg" />
		<tag k="ssr:hovedgruppe" v="infrastruktur" />
		<tag k="ssr:stedsnr" v="980053" />
		<tag k="ssr:type" v="adressenavn" />
	</node>
	<node lat="61.97711272752955" lon="11.106716199811379" id="-46218">
		<tag k="name" v="Fjellveien" />
		<tag k="ssr:date" v="2019-12-27" />
		<tag k="ssr:gruppe" v="veg" />
		<tag k="ssr:hovedgruppe" v="infrastruktur" />
		<tag k="ssr:stedsnr" v="980054" />
		<tag k="ssr:type" v="adressenavn" />
	</node>
	<node lat="62.01232629048921" lon="11.537571082624401" id="-46219">
		<tag k="name" v="Nordre Sølendalen" />
		<tag k="ssr:date" v="2019-12-27" />
		<tag k="ssr:gruppe" v="veg" />
		<tag k="ssr:hovedgruppe" v="infrastruktur" />
		<tag k="ssr:stedsnr" v="980055" />
		<tag k="ssr:type" v="adressenavn" />
	</node>
	<node lat="61.933071959821646" lon="11.055557141748876" id="-46220">
		<tag k="name" v="Per Markens vei" />
		<tag k="ssr:date" v="2019-12-27" />
		<tag k="ssr:gruppe" v="veg" />
		<tag k="ssr:hovedgruppe" v="infrastruktur" />
		<tag k="ssr:stedsnr" v="980056" />
		<tag k="ssr:type" v="adressenavn" />
	</node>
	<node lat="61.931666163241395" lon="11.058882185004537" id="-46221">
		<tag k="name" v="Ferderkroken" />
		<tag k="ssr:date" v="2019-12-27" />
		<tag k="ssr:gruppe" v="veg" />
		<tag k="ssr:hovedgruppe" v="infrastruktur" />
		<tag k="ssr:stedsnr" v="980057" />
		<tag k="ssr:type" v="adressenavn" />
	</node>
	<node lat="61.900300637602484" lon="11.088055400063654" id="-46222">
		<tag k="name" v="Haugsetveien" />
		<tag k="ssr:date" v="2019-12-27" />
		<tag k="ssr:gruppe" v="veg" />
		<tag k="ssr:hovedgruppe" v="infrastruktur" />
		<tag k="ssr:stedsnr" v="980058" />
		<tag k="ssr:type" v="adressenavn" />
	</node>
	<node lat="61.90858790380982" lon="11.090994083632953" id="-46223">
		<tag k="name" v="Kjølvollen" />
		<tag k="ssr:date" v="2019-12-27" />
		<tag k="ssr:gruppe" v="veg" />
		<tag k="ssr:hovedgruppe" v="infrastruktur" />
		<tag k="ssr:stedsnr" v="980059" />
		<tag k="ssr:type" v="adressenavn" />
	</node>
	<node lat="61.8861162264866" lon="11.112219945322055" id="-46224">
		<tag k="name" v="Søndre Sølendalsveien" />
		<tag k="ssr:date" v="2019-12-27" />
		<tag k="ssr:gruppe" v="veg" />
		<tag k="ssr:hovedgruppe" v="infrastruktur" />
		<tag k="ssr:stedsnr" v="980060" />
		<tag k="ssr:type" v="adressenavn" />
	</node>
	<node lat="61.890766913937696" lon="11.238145186884951" id="-46225">
		<tag k="name" v="Mistdalsveien" />
		<tag k="ssr:date" v="2019-12-27" />
		<tag k="ssr:gruppe" v="veg" />
		<tag k="ssr:hovedgruppe" v="infrastruktur" />
		<tag k="ssr:stedsnr" v="980061" />
		<tag k="ssr:type" v="adressenavn" />
	</node>
	<node lat="61.880782905933046" lon="11.09056969593355" id="-46226">
		<tag k="name" v="Flatan" />
		<tag k="ssr:date" v="2019-12-27" />
		<tag k="ssr:gruppe" v="veg" />
		<tag k="ssr:hovedgruppe" v="infrastruktur" />
		<tag k="ssr:stedsnr" v="980062" />
		<tag k="ssr:type" v="adressenavn" />
	</node>
	<node lat="61.874572852312035" lon="11.077230714392512" id="-46227">
		<tag k="name" v="Stengutua" />
		<tag k="ssr:date" v="2019-12-27" />
		<tag k="ssr:gruppe" v="veg" />
		<tag k="ssr:hovedgruppe" v="infrastruktur" />
		<tag k="ssr:stedsnr" v="980063" />
		<tag k="ssr:type" v="adressenavn" />
	</node>
	<node lat="61.893292043476904" lon="10.885684469162507" id="-46228">
		<tag k="name" v="Aursjøveien" />
		<tag k="ssr:date" v="2019-12-27" />
		<tag k="ssr:gruppe" v="veg" />
		<tag k="ssr:hovedgruppe" v="infrastruktur" />
		<tag k="ssr:stedsnr" v="980064" />
		<tag k="ssr:type" v="adressenavn" />
	</node>
	<node lat="61.87809606377581" lon="10.904582222635488" id="-46229">
		<tag k="name" v="Grasbekken" />
		<tag k="ssr:date" v="2019-12-27" />
		<tag k="ssr:gruppe" v="veg" />
		<tag k="ssr:hovedgruppe" v="infrastruktur" />
		<tag k="ssr:stedsnr" v="980065" />
		<tag k="ssr:type" v="adressenavn" />
	</node>
	<node lat="61.8481785283393" lon="10.922832567234728" id="-46230">
		<tag k="name" v="Kivsjøveien" />
		<tag k="ssr:date" v="2019-12-27" />
		<tag k="ssr:gruppe" v="veg" />
		<tag k="ssr:hovedgruppe" v="infrastruktur" />
		<tag k="ssr:stedsnr" v="980066" />
		<tag k="ssr:type" v="adressenavn" />
	</node>
	<node lat="61.80051866691799" lon="11.085945255313984" id="-46231">
		<tag k="name" v="Hornsetnysætra" />
		<tag k="ssr:date" v="2019-12-27" />
		<tag k="ssr:gruppe" v="veg" />
		<tag k="ssr:hovedgruppe" v="infrastruktur" />
		<tag k="ssr:stedsnr" v="980067" />
		<tag k="ssr:type" v="adressenavn" />
	</node>
	<node lat="61.793945065951" lon="11.132957783765542" id="-46232">
		<tag k="name" v="Prestgardsveien" />
		<tag k="ssr:date" v="2019-12-27" />
		<tag k="ssr:gruppe" v="veg" />
		<tag k="ssr:hovedgruppe" v="infrastruktur" />
		<tag k="ssr:stedsnr" v="980068" />
		<tag k="ssr:type" v="adressenavn" />
	</node>
	<node lat="61.73889478466929" lon="11.213418429015679" id="-46233">
		<tag k="name" v="Kvernnes" />
		<tag k="ssr:date" v="2019-12-27" />
		<tag k="ssr:gruppe" v="veg" />
		<tag k="ssr:hovedgruppe" v="infrastruktur" />
		<tag k="ssr:stedsnr" v="980069" />
		<tag k="ssr:type" v="adressenavn" />
	</node>
	<node lat="61.728372460698345" lon="11.211192853761775" id="-46234">
		<tag k="name" v="Nordengveien" />
		<tag k="ssr:date" v="2019-12-27" />
		<tag k="ssr:gruppe" v="veg" />
		<tag k="ssr:hovedgruppe" v="infrastruktur" />
		<tag k="ssr:stedsnr" v="980070" />
		<tag k="ssr:type" v="adressenavn" />
	</node>
	<node lat="61.70063055395446" lon="11.197323141423977" id="-46235">
		<tag k="name" v="Åsegga" />
		<tag k="ssr:date" v="2019-12-27" />
		<tag k="ssr:gruppe" v="veg" />
		<tag k="ssr:hovedgruppe" v="infrastruktur" />
		<tag k="ssr:stedsnr" v="980071" />
		<tag k="ssr:type" v="adressenavn" />
	</node>
	<node lat="61.670944880405145" lon="11.176308546315104" id="-46236">
		<tag k="name" v="Volla" />
		<tag k="ssr:date" v="2019-12-27" />
		<tag k="ssr:gruppe" v="veg" />
		<tag k="ssr:hovedgruppe" v="infrastruktur" />
		<tag k="ssr:stedsnr" v="980072" />
		<tag k="ssr:type" v="adressenavn" />
	</node>
	<node lat="61.66690894277697" lon="11.175654596503755" id="-46237">
		<tag k="name" v="Bureiserveien" />
		<tag k="ssr:date" v="2019-12-27" />
		<tag k="ssr:gruppe" v="veg" />
		<tag k="ssr:hovedgruppe" v="infrastruktur" />
		<tag k="ssr:stedsnr" v="980073" />
		<tag k="ssr:type" v="adressenavn" />
	</node>
	<node lat="61.479202870634815" lon="11.307813092222466" id="-46238">
		<tag k="name" v="Botillen" />
		<tag k="ssr:date" v="2019-12-27" />
		<tag k="ssr:gruppe" v="veg" />
		<tag k="ssr:hovedgruppe" v="infrastruktur" />
		<tag k="ssr:stedsnr" v="980074" />
		<tag k="ssr:type" v="adressenavn" />
	</node>
	<node lat="61.48889882986676" lon="11.68098481857704" id="-46239">
		<tag k="name" v="Øverbekken" />
		<tag k="ssr:date" v="2019-12-27" />
		<tag k="ssr:gruppe" v="veg" />
		<tag k="ssr:hovedgruppe" v="infrastruktur" />
		<tag k="ssr:stedsnr" v="980075" />
		<tag k="ssr:type" v="adressenavn" />
	</node>
	<node lat="61.699728936867324" lon="11.237003031203278" id="-46240">
		<tag k="name" v="Skogholet" />
		<tag k="ssr:date" v="2019-12-27" />
		<tag k="ssr:gruppe" v="veg" />
		<tag k="ssr:hovedgruppe" v="infrastruktur" />
		<tag k="ssr:stedsnr" v="980076" />
		<tag k="ssr:type" v="adressenavn" />
	</node>
	<node lat="61.5689837774787" lon="11.132139303412114" id="-46241">
		<tag k="name" v="Gamle Kongevei" />
		<tag k="ssr:date" v="2019-12-27" />
		<tag k="ssr:gruppe" v="veg" />
		<tag k="ssr:hovedgruppe" v="infrastruktur" />
		<tag k="ssr:stedsnr" v="980417" />
		<tag k="ssr:type" v="adressenavn" />
	</node>
	<node lat="61.92487303346491" lon="11.04308487324064" id="-46242">
		<tag k="name" v="Gammellia" />
		<tag k="ssr:date" v="2019-12-27" />
		<tag k="ssr:gruppe" v="veg" />
		<tag k="ssr:hovedgruppe" v="infrastruktur" />
		<tag k="ssr:stedsnr" v="980418" />
		<tag k="ssr:type" v="adressenavn" />
	</node>
	<node lat="61.69236412701445" lon="11.216078020422746" id="-46245">
		<tag k="name" v="Parkveien" />
		<tag k="ssr:date" v="2019-12-27" />
		<tag k="ssr:gruppe" v="veg" />
		<tag k="ssr:hovedgruppe" v="infrastruktur" />
		<tag k="ssr:stedsnr" v="1005638" />
		<tag k="ssr:type" v="adressenavn" />
	</node>
	<node lat="61.884356357919096" lon="11.094541435795227" id="-46246">
		<tag k="name" v="Bjønngardsveien" />
		<tag k="ssr:date" v="2019-12-27" />
		<tag k="ssr:gruppe" v="veg" />
		<tag k="ssr:hovedgruppe" v="infrastruktur" />
		<tag k="ssr:stedsnr" v="1005642" />
		<tag k="ssr:type" v="adressenavn" />
	</node>
	<node lat="62.027156966036586" lon="10.913528027426599" id="-46247">
		<tag k="name" v="Jutulhoggveien" />
		<tag k="ssr:date" v="2019-12-27" />
		<tag k="ssr:gruppe" v="veg" />
		<tag k="ssr:hovedgruppe" v="infrastruktur" />
		<tag k="ssr:stedsnr" v="1005644" />
		<tag k="ssr:type" v="adressenavn" />
	</node>
	<node lat="61.694799062105176" lon="11.210685465273832" id="-46248">
		<tag k="name" v="Oddbjørn Hagen's vei" />
		<tag k="ssr:date" v="2019-12-27" />
		<tag k="ssr:gruppe" v="veg" />
		<tag k="ssr:hovedgruppe" v="infrastruktur" />
		<tag k="ssr:stedsnr" v="1005748" />
		<tag k="ssr:type" v="adressenavn" />
	</node>
	<node lat="61.701660567002534" lon="11.31232255481145" id="-46249">
		<tag k="name" v="Rypekjerret" />
		<tag k="ssr:date" v="2019-12-27" />
		<tag k="ssr:gruppe" v="veg" />
		<tag k="ssr:hovedgruppe" v="infrastruktur" />
		<tag k="ssr:stedsnr" v="1006187" />
		<tag k="ssr:type" v="adressenavn" />
	</node>
	<node lat="61.695711851714954" lon="11.314692059017926" id="-46250">
		<tag k="name" v="Flaggspetten" />
		<tag k="ssr:date" v="2019-12-27" />
		<tag k="ssr:gruppe" v="veg" />
		<tag k="ssr:hovedgruppe" v="infrastruktur" />
		<tag k="ssr:stedsnr" v="1006184" />
		<tag k="ssr:type" v="adressenavn" />
	</node>
	<node lat="61.87038659641499" lon="11.092674145165669" id="-46251">
		<tag k="name" v="Møreggveien" />
		<tag k="ssr:date" v="2019-12-27" />
		<tag k="ssr:gruppe" v="veg" />
		<tag k="ssr:hovedgruppe" v="infrastruktur" />
		<tag k="ssr:stedsnr" v="1007046" />
		<tag k="ssr:type" v="adressenavn" />
	</node>
	<node lat="62.10581308838692" lon="11.044358767009824" id="-46252">
		<tag k="name" v="Finstad Vestside" />
		<tag k="ssr:date" v="2019-12-27" />
		<tag k="ssr:gruppe" v="veg" />
		<tag k="ssr:hovedgruppe" v="infrastruktur" />
		<tag k="ssr:stedsnr" v="1007052" />
		<tag k="ssr:type" v="adressenavn" />
	</node>
	<node lat="62.10479237888874" lon="11.046120982082622" id="-46253">
		<tag k="name" v="Finstad Østside" />
		<tag k="ssr:date" v="2019-12-27" />
		<tag k="ssr:gruppe" v="veg" />
		<tag k="ssr:hovedgruppe" v="infrastruktur" />
		<tag k="ssr:stedsnr" v="1007053" />
		<tag k="ssr:type" v="adressenavn" />
	</node>
	<node lat="62.11838663995799" lon="11.049071541167201" id="-46254">
		<tag k="name" v="Finstadnysætra" />
		<tag k="ssr:date" v="2019-12-27" />
		<tag k="ssr:gruppe" v="veg" />
		<tag k="ssr:hovedgruppe" v="infrastruktur" />
		<tag k="ssr:stedsnr" v="1007054" />
		<tag k="ssr:type" v="adressenavn" />
	</node>
	<node lat="61.677491884897684" lon="11.43237545105265" id="-46255">
		<tag k="name" v="Renåtangen" />
		<tag k="ssr:date" v="2019-12-27" />
		<tag k="ssr:gruppe" v="veg" />
		<tag k="ssr:hovedgruppe" v="infrastruktur" />
		<tag k="ssr:stedsnr" v="1007005" />
		<tag k="ssr:type" v="adressenavn" />
	</node>
	<node lat="61.97028032731455" lon="11.529432253214617" id="-46256">
		<tag k="name" v="Fiskevollen" />
		<tag k="ssr:date" v="2019-12-27" />
		<tag k="ssr:gruppe" v="veg" />
		<tag k="ssr:hovedgruppe" v="infrastruktur" />
		<tag k="ssr:stedsnr" v="1007006" />
		<tag k="ssr:type" v="adressenavn" />
	</node>
	<node lat="61.54661902413011" lon="11.421264440569166" id="-46257">
		<tag k="name" v="Flendammen" />
		<tag k="ssr:date" v="2019-12-27" />
		<tag k="ssr:gruppe" v="veg" />
		<tag k="ssr:hovedgruppe" v="infrastruktur" />
		<tag k="ssr:stedsnr" v="1007007" />
		<tag k="ssr:type" v="adressenavn" />
	</node>
	<node lat="61.77263839656672" lon="11.584253334753784" id="-46258">
		<tag k="name" v="Gravåsen" />
		<tag k="ssr:date" v="2019-12-27" />
		<tag k="ssr:gruppe" v="veg" />
		<tag k="ssr:hovedgruppe" v="infrastruktur" />
		<tag k="ssr:stedsnr" v="1007009" />
		<tag k="ssr:type" v="adressenavn" />
	</node>
	<node lat="61.752058831347256" lon="11.426817754304443" id="-46259">
		<tag k="name" v="Balstadmistra" />
		<tag k="ssr:date" v="2019-12-27" />
		<tag k="ssr:gruppe" v="veg" />
		<tag k="ssr:hovedgruppe" v="infrastruktur" />
		<tag k="ssr:stedsnr" v="1007014" />
		<tag k="ssr:type" v="adressenavn" />
	</node>
	<node lat="61.60938227748931" lon="11.262953725037214" id="-46260">
		<tag k="name" v="Rønningsåsen" />
		<tag k="ssr:date" v="2019-12-27" />
		<tag k="ssr:gruppe" v="veg" />
		<tag k="ssr:hovedgruppe" v="infrastruktur" />
		<tag k="ssr:stedsnr" v="1007019" />
		<tag k="ssr:type" v="adressenavn" />
	</node>
	<node lat="61.4685748850585" lon="11.320710711961981" id="-46261">
		<tag k="name" v="Byringveien" />
		<tag k="ssr:date" v="2019-12-27" />
		<tag k="ssr:gruppe" v="veg" />
		<tag k="ssr:hovedgruppe" v="infrastruktur" />
		<tag k="ssr:stedsnr" v="1007020" />
		<tag k="ssr:type" v="adressenavn" />
	</node>
	<node lat="61.71850251892416" lon="11.193704834967804" id="-46262">
		<tag k="name" v="Åkersrokkdalen" />
		<tag k="ssr:date" v="2019-12-27" />
		<tag k="ssr:gruppe" v="veg" />
		<tag k="ssr:hovedgruppe" v="infrastruktur" />
		<tag k="ssr:stedsnr" v="1007021" />
		<tag k="ssr:type" v="adressenavn" />
	</node>
	<node lat="61.65840395626823" lon="11.167483629376282" id="-46263">
		<tag k="name" v="Fiskvikrokkdalen" />
		<tag k="ssr:date" v="2019-12-27" />
		<tag k="ssr:gruppe" v="veg" />
		<tag k="ssr:hovedgruppe" v="infrastruktur" />
		<tag k="ssr:stedsnr" v="1007022" />
		<tag k="ssr:type" v="adressenavn" />
	</node>
	<node lat="61.773162804591124" lon="11.059180006556307" id="-46264">
		<tag k="name" v="Mjovass" />
		<tag k="ssr:date" v="2019-12-27" />
		<tag k="ssr:gruppe" v="veg" />
		<tag k="ssr:hovedgruppe" v="infrastruktur" />
		<tag k="ssr:stedsnr" v="1007023" />
		<tag k="ssr:type" v="adressenavn" />
	</node>
	<node lat="60.795248707246294" lon="11.082591224285064" id="-46272">
		<tag k="name" v="Innlandet fylke" />
		<tag k="ssr:date" v="2022-01-03" />
		<tag k="ssr:gruppe" v="administrativeIndelinger" />
		<tag k="ssr:hovedgruppe" v="offentligAdministrasjon" />
		<tag k="ssr:stedsnr" v="1074406" />
		<tag k="ssr:type" v="fylke" />
	</node>
</osm>
