<?xml version="1.0" encoding="UTF-8"?>
<osm version="0.6" generator="osmapis">
	<node lat="63.7381861101388" lon="11.13857500321337" id="-44048">
		<tag k="name" v="Hestøygrunnflu" />
		<tag k="ssr:date" v="2018-01-09" />
		<tag k="ssr:gruppe" v="navigasjon" />
		<tag k="ssr:hovedgruppe" v="infrastruktur" />
		<tag k="ssr:stedsnr" v="650919" />
		<tag k="ssr:type" v="lanterne" />
	</node>
	<node lat="63.746030551903566" lon="11.298355564439253" id="-44242">
		<tag k="alt_name" v="Levanger" />
		<tag k="name" v="Levanger kommune" />
		<tag k="ssr:date" v="2018-01-09" />
		<tag k="ssr:gruppe" v="administrativeIndelinger" />
		<tag k="ssr:hovedgruppe" v="offentligAdministrasjon" />
		<tag k="ssr:stedsnr" v="935250" />
		<tag k="ssr:type" v="kommune" />
	</node>
	<node lat="63.75328888680409" lon="11.293000007585933" id="-44328">
		<tag k="loc_name" v="Nesseskjær" />
		<tag k="name" v="Nessiskjæret" />
		<tag k="old_name" v="Nesseskjærpynten" />
		<tag k="ssr:date" v="2018-01-09" />
		<tag k="ssr:gruppe" v="navigasjon" />
		<tag k="ssr:hovedgruppe" v="infrastruktur" />
		<tag k="ssr:stedsnr" v="932536" />
		<tag k="ssr:type" v="jernstang" />
	</node>
</osm>
