<?xml version="1.0" encoding="UTF-8"?>
<osm version="0.6" generator="osmapis">
	<node lat="63.72973610682424" lon="11.44791665928056" id="-43565">
		<tag k="amenity" v="school" />
		<tag k="old_name" v="Okkenhaug skole" />
		<tag k="ssr:date" v="2018-01-09" />
		<tag k="ssr:gruppe" v="institusjoner" />
		<tag k="ssr:hovedgruppe" v="bebyggelse" />
		<tag k="ssr:stedsnr" v="272984" />
		<tag k="ssr:type" v="skole" />
	</node>
	<node lat="63.75690277341573" lon="11.393344444005571" id="-43633">
		<tag k="amenity" v="school" />
		<tag k="old_name" v="Mule skole" />
		<tag k="ssr:date" v="2018-01-09" />
		<tag k="ssr:gruppe" v="institusjoner" />
		<tag k="ssr:hovedgruppe" v="bebyggelse" />
		<tag k="ssr:stedsnr" v="325712" />
		<tag k="ssr:type" v="skole" />
	</node>
	<node lat="63.69682777580347" lon="11.200811112898753" id="-44029">
		<tag k="amenity" v="school" />
		<tag k="old_name" v="Skogn folkehøgskole" />
		<tag k="ssr:date" v="2018-01-09" />
		<tag k="ssr:gruppe" v="institusjoner" />
		<tag k="ssr:hovedgruppe" v="bebyggelse" />
		<tag k="ssr:stedsnr" v="628596" />
		<tag k="ssr:type" v="skole" />
	</node>
	<node lat="63.71974166356962" lon="11.299391663218113" id="-44303">
		<tag k="old_name" v="Kjølås" />
		<tag k="place" v="farm" />
		<tag k="ssr:date" v="2018-01-09" />
		<tag k="ssr:gruppe" v="gardsbebyggelse" />
		<tag k="ssr:hovedgruppe" v="bebyggelse" />
		<tag k="ssr:stedsnr" v="862600" />
		<tag k="ssr:type" v="bruk" />
	</node>
	<node lat="63.74579722066055" lon="11.278238888072943" id="-44322">
		<tag k="amenity" v="school" />
		<tag k="old_name" v="Staup" />
		<tag k="ssr:date" v="2018-01-09" />
		<tag k="ssr:gruppe" v="institusjoner" />
		<tag k="ssr:hovedgruppe" v="bebyggelse" />
		<tag k="ssr:stedsnr" v="932615" />
		<tag k="ssr:type" v="skole" />
	</node>
</osm>
