<?xml version="1.0" encoding="UTF-8"?>
<<<<<<< HEAD
<osm version="0.6" generator="osmapis">
	<node lat="58.43947065142696" lon="6.0155397521173315" id="-425">
		<tag k="name" v="Stoplesteinane" />
		<tag k="place" v="locality" />
		<tag k="ssr:stedsnr" v="464715" />
	</node>
	<node lat="58.52604443339955" lon="6.249638384557673" id="-1182">
		<tag k="name" v="Mysinghålå" />
		<tag k="place" v="locality" />
		<tag k="ssr:stedsnr" v="815586" />
	</node>
	<node lat="58.43293055761753" lon="6.001372226968226" id="-1256">
=======
<osm generator="osmapis" version="0.6">
	<node id="-4765" lat="58.4329305576" lon="6.00137222697">
>>>>>>> e1d4bc35ff8a6074a6f2e91616a996b547c36f15
		<tag k="name" v="Hovereget" />
		<tag k="place" v="locality" />
		<tag k="ssr:stedsnr" v="889700" />
	</node>
<<<<<<< HEAD
	<node lat="58.44815604259517" lon="5.976474951467874" id="-1357">
=======
	<node id="-6459" lat="58.4481560426" lon="5.97647495147">
>>>>>>> e1d4bc35ff8a6074a6f2e91616a996b547c36f15
		<tag k="amenity" v="place_of_worship" />
		<tag k="denomination" v="lutheran" />
		<tag k="name" v="Eigerøy arbeidskirke" />
		<tag k="religion" v="christian" />
		<tag k="ssr:stedsnr" v="991248" />
	</node>
<<<<<<< HEAD
	<node lat="58.52065277572095" lon="6.115969439162885" id="-1358">
		<tag k="alt_name" v="Helleland;Helleland kyrkje" />
=======
	<node id="-6458" lat="58.4519072089" lon="5.99989702853">
>>>>>>> e1d4bc35ff8a6074a6f2e91616a996b547c36f15
		<tag k="amenity" v="place_of_worship" />
		<tag k="denomination" v="lutheran" />
		<tag k="name" v="Helleland kirke" />
		<tag k="religion" v="christian" />
		<tag k="ssr:stedsnr" v="181" />
	</node>
	<node lat="58.4315694442555" lon="6.170999997046612" id="-2311">
		<tag k="name" v="Hedleren" />
		<tag k="place" v="locality" />
		<tag k="ssr:stedsnr" v="645497" />
	</node>
<<<<<<< HEAD
	<node lat="58.470838891501714" lon="6.022527780729103" id="-2743">
=======
	<node id="-6420" lat="58.4708388915" lon="6.02252778073">
>>>>>>> e1d4bc35ff8a6074a6f2e91616a996b547c36f15
		<tag k="amenity" v="place_of_worship" />
		<tag k="denomination" v="lutheran" />
		<tag k="name" v="Bakkebø kirke" />
		<tag k="religion" v="christian" />
		<tag k="ssr:stedsnr" v="952645" />
	</node>
<<<<<<< HEAD
	<node lat="58.45190720894439" lon="5.999897028531988" id="-2779">
=======
	<node id="-4338" lat="58.4394706514" lon="6.01553975212">
		<tag k="name" v="Stoplesteinane" />
		<tag k="place" v="locality" />
		<tag k="ssr:stedsnr" v="464715" />
	</node>
	<node id="-6030" lat="58.4315694443" lon="6.17099999705">
		<tag k="name" v="Hedleren" />
		<tag k="place" v="locality" />
		<tag k="ssr:stedsnr" v="645497" />
	</node>
	<node id="-6250" lat="58.5260444334" lon="6.24963838456">
		<tag k="name" v="Mysinghålå" />
		<tag k="place" v="locality" />
		<tag k="ssr:stedsnr" v="815586" />
	</node>
	<node id="-5028" lat="58.5206527757" lon="6.11596943916">
		<tag k="alt_name" v="Helleland;Helleland kyrkje" />
>>>>>>> e1d4bc35ff8a6074a6f2e91616a996b547c36f15
		<tag k="amenity" v="place_of_worship" />
		<tag k="denomination" v="lutheran" />
		<tag k="name" v="Egersund kirke" />
		<tag k="religion" v="christian" />
		<tag k="ssr:stedsnr" v="991183" />
	</node>
</osm>
