<?xml version="1.0" encoding="UTF-8"?>
<<<<<<< HEAD
<osm version="0.6" generator="osmapis">
	<node lat="58.42840555934674" lon="6.056599999481136" id="-10">
		<tag k="ford" v="yes" />
		<tag k="name" v="Tyslandsvadet" />
		<tag k="place" v="locality" />
		<tag k="ssr:stedsnr" v="804" />
	</node>
	<node lat="58.443069444331876" lon="5.984508324940823" id="-51">
=======
<osm generator="osmapis" version="0.6">
	<node id="-4604" lat="58.4521166708" lon="5.99931944865">
		<tag k="man_made" v="quay" />
		<tag k="name" v="Steinbrygga" />
		<tag k="place" v="locality" />
		<tag k="ssr:stedsnr" v="603409" />
	</node>
	<node id="-4859" lat="58.4525583294" lon="5.98179167014">
		<tag k="man_made" v="quay" />
		<tag k="name" v="Nyåskaien" />
		<tag k="place" v="locality" />
		<tag k="ssr:stedsnr" v="910869" />
	</node>
	<node id="-3960" lat="58.4810555524" lon="5.87122777452">
		<tag k="bridge" v="yes" />
		<tag k="layer" v="1" />
		<tag k="name" v="Hellvik" />
		<tag k="ssr:stedsnr" v="290349" />
	</node>
	<node id="-5109" lat="58.4767138895" lon="6.25268611053">
		<tag k="name" v="Råna" />
		<tag k="ssr:stedsnr" v="27500" />
		<tag k="waterway" v="canal" />
	</node>
	<node id="-4979" lat="58.489338887" lon="5.89758056182">
		<tag k="bridge" v="yes" />
		<tag k="layer" v="1" />
		<tag k="name" v="Holma" />
		<tag k="ssr:stedsnr" v="897361" />
	</node>
	<node id="-4978" lat="58.4487499963" lon="6.03578055681">
		<tag k="bridge" v="yes" />
		<tag k="layer" v="1" />
		<tag k="name" v="Veshovde (Nedre)" />
		<tag k="ssr:stedsnr" v="897353" />
	</node>
	<node id="-4976" lat="58.446663888" lon="5.98913055475">
		<tag k="man_made" v="quay" />
		<tag k="name" v="Tyskerbrygga" />
		<tag k="place" v="locality" />
		<tag k="ssr:stedsnr" v="890421" />
	</node>
	<node id="-4263" lat="58.6207111095" lon="6.45658056109">
		<tag k="bridge" v="yes" />
		<tag k="layer" v="1" />
		<tag k="name" v="Nesjebekken" />
		<tag k="ssr:stedsnr" v="411356" />
	</node>
	<node id="-4328" lat="58.4601833377" lon="6.01650833975">
		<tag k="ford" v="yes" />
		<tag k="name" v="Hestvad" />
		<tag k="place" v="locality" />
		<tag k="ssr:stedsnr" v="665722" />
	</node>
	<node id="-6154" lat="58.4200388884" lon="6.02002776993">
		<tag k="name" v="Krudsvingen" />
		<tag k="place" v="locality" />
		<tag k="ssr:stedsnr" v="771987" />
	</node>
	<node id="-3812" lat="58.4186111084" lon="5.95000000529">
		<tag k="name" v="Gunnarsstø" />
		<tag k="place" v="locality" />
		<tag k="ssr:stedsnr" v="81924" />
	</node>
	<node id="-5286" lat="58.5170305559" lon="6.07923888372">
		<tag k="bridge" v="yes" />
		<tag k="layer" v="1" />
		<tag k="name" v="Klungland" />
		<tag k="ssr:stedsnr" v="108383" />
	</node>
	<node id="-5945" lat="58.6270222199" lon="6.48782777966">
		<tag k="bridge" v="yes" />
		<tag k="layer" v="1" />
		<tag k="name" v="Mydland" />
		<tag k="ssr:stedsnr" v="593344" />
	</node>
	<node id="-4448" lat="58.5575027804" lon="6.17622500585">
		<tag k="highway" v="path" />
		<tag k="name" v="Torvvegen" />
		<tag k="ssr:stedsnr" v="509063" />
	</node>
	<node id="-4191" lat="58.4524944425" lon="6.00045278132">
		<tag k="man_made" v="quay" />
		<tag k="name" v="Jernbanekaia" />
		<tag k="place" v="locality" />
		<tag k="ssr:stedsnr" v="361464" />
	</node>
	<node id="-4318" lat="58.4347138872" lon="5.98075277662">
		<tag k="fixme" v="verify maritime location" />
		<tag k="mooring" v="yes" />
		<tag k="name" v="Raudstø" />
		<tag k="place" v="locality" />
		<tag k="ssr:stedsnr" v="664434" />
	</node>
	<node id="-5135" lat="58.5305861118" lon="6.13333888259">
		<tag k="bridge" v="yes" />
		<tag k="layer" v="1" />
		<tag k="name" v="Strømstad" />
		<tag k="ssr:stedsnr" v="47364" />
	</node>
	<node id="-4794" lat="58.4611472255" lon="6.00093888132">
		<tag k="bridge" v="yes" />
		<tag k="layer" v="1" />
		<tag k="name" v="Egersund" />
		<tag k="ssr:stedsnr" v="715414" />
	</node>
	<node id="-4057" lat="58.3804083326" lon="6.12024722857">
		<tag k="ford" v="yes" />
		<tag k="name" v="Vadet" />
		<tag k="place" v="locality" />
		<tag k="ssr:stedsnr" v="283105" />
	</node>
	<node id="-4822" lat="58.4162222247" lon="6.01304444867">
>>>>>>> e1d4bc35ff8a6074a6f2e91616a996b547c36f15
		<tag k="man_made" v="quay" />
		<tag k="name" v="Hundsholmen" />
		<tag k="place" v="locality" />
		<tag k="ssr:stedsnr" v="40917" />
	</node>
<<<<<<< HEAD
	<node lat="58.44736388695501" lon="6.149905564114093" id="-65">
=======
	<node id="-4793" lat="58.592252775" lon="6.32713055353">
		<tag k="bridge" v="yes" />
		<tag k="layer" v="1" />
		<tag k="name" v="Skinnelv" />
		<tag k="ssr:stedsnr" v="715391" />
	</node>
	<node id="-5715" lat="58.495619447" lon="5.91352500682">
>>>>>>> e1d4bc35ff8a6074a6f2e91616a996b547c36f15
		<tag k="bridge" v="yes" />
		<tag k="layer" v="1" />
		<tag k="name" v="Grønhølen" />
		<tag k="ssr:stedsnr" v="47390" />
	</node>
<<<<<<< HEAD
	<node lat="58.452819445277925" lon="6.001316666634331" id="-72">
		<tag k="leisure" v="marina" />
		<tag k="name" v="Egersund gjestehavn" />
		<tag k="ssr:stedsnr" v="57391" />
	</node>
	<node lat="58.41861110838377" lon="5.9500000052863316" id="-146">
		<tag k="name" v="Gunnarsstø" />
		<tag k="place" v="locality" />
		<tag k="ssr:stedsnr" v="81924" />
	</node>
	<node lat="58.440402775746705" lon="6.151719452851418" id="-176">
		<tag k="bridge" v="yes" />
		<tag k="layer" v="1" />
		<tag k="name" v="Hestnes" />
		<tag k="ssr:stedsnr" v="108375" />
	</node>
	<node lat="58.46868611135637" lon="6.030336113074885" id="-177">
=======
	<node id="-5714" lat="58.4164166666" lon="6.02209999251">
		<tag k="bridge" v="yes" />
		<tag k="layer" v="1" />
		<tag k="name" v="Åse (Nedre)" />
		<tag k="ssr:stedsnr" v="411338" />
	</node>
	<node id="-4175" lat="58.481074997" lon="5.85876945259">
		<tag k="bridge" v="yes" />
		<tag k="layer" v="1" />
		<tag k="name" v="Sannernes" />
		<tag k="ssr:stedsnr" v="350328" />
	</node>
	<node id="-6157" lat="58.4913361142" lon="6.03591945059">
		<tag k="bridge" v="yes" />
		<tag k="layer" v="1" />
		<tag k="name" v="Søkkatjern" />
		<tag k="ssr:stedsnr" v="775336" />
	</node>
	<node id="-4120" lat="58.600572218" lon="6.3630083287">
		<tag k="bridge" v="yes" />
		<tag k="layer" v="1" />
		<tag k="name" v="Gya Nedre" />
		<tag k="ssr:stedsnr" v="472364" />
	</node>
	<node id="-6474" lat="58.5854119679" lon="6.35974814449">
		<tag k="highway" v="path" />
		<tag k="name" v="Kyrkjevegen" />
		<tag k="ssr:stedsnr" v="1073274" />
	</node>
	<node id="-5516" lat="58.485820605" lon="5.89718622401">
		<tag k="name" v="Hellvik stasjon" />
		<tag k="railway" v="station" />
		<tag k="ssr:stedsnr" v="303693" />
		<tag k="train" v="yes" />
	</node>
	<node id="-3906" lat="58.5359388846" lon="6.16043888772">
>>>>>>> e1d4bc35ff8a6074a6f2e91616a996b547c36f15
		<tag k="bridge" v="yes" />
		<tag k="layer" v="1" />
		<tag k="name" v="Mjølhus" />
		<tag k="ssr:stedsnr" v="108379" />
	</node>
<<<<<<< HEAD
	<node lat="58.51703055592187" lon="6.079238883721349" id="-178">
		<tag k="bridge" v="yes" />
		<tag k="layer" v="1" />
		<tag k="name" v="Klungland" />
		<tag k="ssr:stedsnr" v="108383" />
	</node>
	<node lat="58.53594444276413" lon="6.163130558896274" id="-222">
=======
	<node id="-5007" lat="58.4366359757" lon="5.97962823079">
		<tag k="fixme" v="verify maritime location" />
		<tag k="mooring" v="yes" />
		<tag k="name" v="Nordstø" />
		<tag k="place" v="locality" />
		<tag k="ssr:stedsnr" v="967412" />
	</node>
	<node id="-3904" lat="58.5359444428" lon="6.1631305589">
>>>>>>> e1d4bc35ff8a6074a6f2e91616a996b547c36f15
		<tag k="bridge" v="yes" />
		<tag k="layer" v="1" />
		<tag k="name" v="Hogstad" />
		<tag k="ssr:stedsnr" v="168371" />
	</node>
<<<<<<< HEAD
	<node lat="58.542091670354516" lon="6.214288892379835" id="-223">
		<tag k="bridge" v="yes" />
		<tag k="layer" v="1" />
		<tag k="name" v="Hestad" />
		<tag k="ssr:stedsnr" v="168372" />
	</node>
	<node lat="58.53593888458691" lon="6.160438887721556" id="-224">
=======
	<node id="-3772" lat="58.4378888858" lon="5.97900555185">
		<tag k="man_made" v="quay" />
		<tag k="name" v="Nordsjøterminalen" />
		<tag k="place" v="locality" />
		<tag k="ssr:stedsnr" v="239438" />
	</node>
	<node id="-5947" lat="58.4618055534" lon="5.97951667485">
		<tag k="alt_name" v="Egerøy" />
		<tag k="bridge" v="yes" />
		<tag k="layer" v="1" />
		<tag k="name" v="Eigerøy bru" />
		<tag k="ssr:stedsnr" v="593357" />
	</node>
	<node id="-5946" lat="58.4343944448" lon="6.15544166299">
		<tag k="bridge" v="yes" />
		<tag k="layer" v="1" />
		<tag k="name" v="Liarå" />
		<tag k="ssr:stedsnr" v="593351" />
	</node>
	<node id="-6201" lat="58.4611726751" lon="6.00233982369">
		<tag k="name" v="Egersund stasjon" />
		<tag k="railway" v="station" />
		<tag k="ssr:stedsnr" v="788847" />
		<tag k="train" v="yes" />
	</node>
	<node id="-5944" lat="58.5504972212" lon="6.1991055488">
>>>>>>> e1d4bc35ff8a6074a6f2e91616a996b547c36f15
		<tag k="bridge" v="yes" />
		<tag k="layer" v="1" />
		<tag k="name" v="Helland" />
		<tag k="ssr:stedsnr" v="168374" />
	</node>
<<<<<<< HEAD
	<node lat="58.43788888576897" lon="5.979005551853681" id="-333">
		<tag k="man_made" v="quay" />
		<tag k="name" v="Nordsjøterminalen" />
=======
	<node id="-5047" lat="58.4284055593" lon="6.05659999948">
		<tag k="ford" v="yes" />
		<tag k="name" v="Tyslandsvadet" />
>>>>>>> e1d4bc35ff8a6074a6f2e91616a996b547c36f15
		<tag k="place" v="locality" />
		<tag k="ssr:stedsnr" v="239438" />
	</node>
<<<<<<< HEAD
	<node lat="58.38040833258688" lon="6.1202472285689655" id="-386">
		<tag k="ford" v="yes" />
		<tag k="name" v="Vadet" />
		<tag k="place" v="locality" />
		<tag k="ssr:stedsnr" v="283105" />
	</node>
	<node lat="58.436166669323725" lon="6.011191671093106" id="-459">
=======
	<node id="-6069" lat="58.5221777808" lon="6.09795833765">
		<tag k="junction" v="yes" />
		<tag k="name" v="Krossmoen" />
		<tag k="place" v="locality" />
		<tag k="ssr:stedsnr" v="750809" />
	</node>
	<node id="-6065" lat="58.5234055565" lon="6.09278333621">
		<tag k="bridge" v="yes" />
		<tag k="layer" v="1" />
		<tag k="name" v="Brynje" />
		<tag k="ssr:stedsnr" v="654396" />
	</node>
	<node id="-6064" lat="58.4501666647" lon="6.04386110591">
>>>>>>> e1d4bc35ff8a6074a6f2e91616a996b547c36f15
		<tag k="bridge" v="yes" />
		<tag k="layer" v="1" />
		<tag k="name" v="Skåra" />
		<tag k="ssr:stedsnr" v="472340" />
	</node>
<<<<<<< HEAD
	<node lat="58.568024999021276" lon="6.254219445097813" id="-460">
=======
	<node id="-6063" lat="58.4161361153" lon="6.02325556222">
>>>>>>> e1d4bc35ff8a6074a6f2e91616a996b547c36f15
		<tag k="bridge" v="yes" />
		<tag k="layer" v="1" />
		<tag k="name" v="Oksekloppa" />
		<tag k="ssr:stedsnr" v="472344" />
	</node>
<<<<<<< HEAD
	<node lat="58.38420194237967" lon="6.0642183193063035" id="-485">
=======
	<node id="-3757" lat="58.4430694443" lon="5.98450832494">
>>>>>>> e1d4bc35ff8a6074a6f2e91616a996b547c36f15
		<tag k="man_made" v="quay" />
		<tag k="name" v="Allmenningskaien" />
		<tag k="place" v="locality" />
		<tag k="ssr:stedsnr" v="384908" />
	</node>
<<<<<<< HEAD
	<node lat="58.41641666658998" lon="6.022099992513464" id="-564">
=======
	<node id="-4264" lat="58.6093027736" lon="6.41839999627">
		<tag k="bridge" v="yes" />
		<tag k="layer" v="1" />
		<tag k="name" v="Gyastøl" />
		<tag k="ssr:stedsnr" v="411367" />
	</node>
	<node id="-5799" lat="58.4596333372" lon="6.2577472148">
>>>>>>> e1d4bc35ff8a6074a6f2e91616a996b547c36f15
		<tag k="bridge" v="yes" />
		<tag k="layer" v="1" />
		<tag k="name" v="Åse (Nedre)" />
		<tag k="ssr:stedsnr" v="411338" />
	</node>
<<<<<<< HEAD
	<node lat="58.49561944700503" lon="5.913525006824156" id="-565">
=======
	<node id="-5798" lat="58.6019083296" lon="6.372588885">
>>>>>>> e1d4bc35ff8a6074a6f2e91616a996b547c36f15
		<tag k="bridge" v="yes" />
		<tag k="layer" v="1" />
		<tag k="name" v="Sporavatn" />
		<tag k="ssr:stedsnr" v="411351" />
	</node>
<<<<<<< HEAD
	<node lat="58.60057221795125" lon="6.363008328699737" id="-647">
		<tag k="bridge" v="yes" />
		<tag k="layer" v="1" />
		<tag k="name" v="Gya Nedre" />
		<tag k="ssr:stedsnr" v="472364" />
	</node>
	<node lat="58.497744440039305" lon="6.182438887878767" id="-793">
		<tag k="junction" v="yes" />
		<tag k="name" v="Glypstadkrossen" />
		<tag k="place" v="locality" />
		<tag k="ssr:stedsnr" v="569063" />
	</node>
	<node lat="58.550497221235545" lon="6.199105548801061" id="-843">
=======
	<node id="-5285" lat="58.4686861114" lon="6.03033611307">
>>>>>>> e1d4bc35ff8a6074a6f2e91616a996b547c36f15
		<tag k="bridge" v="yes" />
		<tag k="layer" v="1" />
		<tag k="name" v="Øen" />
		<tag k="ssr:stedsnr" v="593319" />
	</node>
<<<<<<< HEAD
	<node lat="58.434394444845736" lon="6.155441662993182" id="-844">
=======
	<node id="-5284" lat="58.4404027757" lon="6.15171945285">
>>>>>>> e1d4bc35ff8a6074a6f2e91616a996b547c36f15
		<tag k="bridge" v="yes" />
		<tag k="layer" v="1" />
		<tag k="name" v="Liarå" />
		<tag k="ssr:stedsnr" v="593351" />
	</node>
<<<<<<< HEAD
	<node lat="58.46180555337035" lon="5.979516674848854" id="-845">
		<tag k="alt_name" v="Egerøy" />
=======
	<node id="-6306" lat="58.4618638931" lon="5.99242777056">
>>>>>>> e1d4bc35ff8a6074a6f2e91616a996b547c36f15
		<tag k="bridge" v="yes" />
		<tag k="layer" v="1" />
		<tag k="name" v="Eigerøy bru" />
		<tag k="ssr:stedsnr" v="593357" />
	</node>
	<node lat="58.45211667077088" lon="5.999319448652356" id="-849">
		<tag k="man_made" v="quay" />
		<tag k="name" v="Steinbrygga" />
		<tag k="place" v="locality" />
		<tag k="ssr:stedsnr" v="603409" />
	</node>
<<<<<<< HEAD
	<node lat="58.52340555645296" lon="6.092783336212497" id="-934">
=======
	<node id="-6305" lat="58.4797249988" lon="5.99618610469">
>>>>>>> e1d4bc35ff8a6074a6f2e91616a996b547c36f15
		<tag k="bridge" v="yes" />
		<tag k="layer" v="1" />
		<tag k="name" v="Brynje" />
		<tag k="ssr:stedsnr" v="654396" />
	</node>
<<<<<<< HEAD
	<node lat="58.43471388719941" lon="5.980752776622878" id="-945">
=======
	<node id="-6303" lat="58.4575027748" lon="6.00185278568">
>>>>>>> e1d4bc35ff8a6074a6f2e91616a996b547c36f15
		<tag k="fixme" v="verify maritime location" />
		<tag k="mooring" v="yes" />
		<tag k="name" v="Raudstø" />
		<tag k="place" v="locality" />
		<tag k="ssr:stedsnr" v="664434" />
	</node>
<<<<<<< HEAD
	<node lat="58.48933888697663" lon="5.897580561816704" id="-1009">
=======
	<node id="-6429" lat="58.452733333" lon="6.00191666121">
>>>>>>> e1d4bc35ff8a6074a6f2e91616a996b547c36f15
		<tag k="bridge" v="yes" />
		<tag k="layer" v="1" />
		<tag k="name" v="Holma" />
		<tag k="ssr:stedsnr" v="897361" />
	</node>
<<<<<<< HEAD
	<node lat="58.44874999631913" lon="6.035780556814828" id="-1012">
=======
	<node id="-6428" lat="58.5144750013" lon="6.07295277267">
>>>>>>> e1d4bc35ff8a6074a6f2e91616a996b547c36f15
		<tag k="bridge" v="yes" />
		<tag k="layer" v="1" />
		<tag k="name" v="Veshovde (Nedre)" />
		<tag k="ssr:stedsnr" v="897353" />
	</node>
<<<<<<< HEAD
	<node lat="58.46114722550364" lon="6.000938881323073" id="-1025">
=======
	<node id="-6427" lat="58.5023027816" lon="5.91855000103">
>>>>>>> e1d4bc35ff8a6074a6f2e91616a996b547c36f15
		<tag k="bridge" v="yes" />
		<tag k="layer" v="1" />
		<tag k="name" v="Egersund" />
		<tag k="ssr:stedsnr" v="715414" />
	</node>
<<<<<<< HEAD
	<node lat="58.592252775039164" lon="6.32713055352641" id="-1026">
=======
	<node id="-6426" lat="58.533408337" lon="6.15054722172">
>>>>>>> e1d4bc35ff8a6074a6f2e91616a996b547c36f15
		<tag k="bridge" v="yes" />
		<tag k="layer" v="1" />
		<tag k="name" v="Skinnelv" />
		<tag k="ssr:stedsnr" v="715391" />
	</node>
	<node lat="58.52217778075251" lon="6.097958337647689" id="-1055">
		<tag k="junction" v="yes" />
		<tag k="name" v="Krossmoen" />
		<tag k="place" v="locality" />
		<tag k="ssr:stedsnr" v="750809" />
	</node>
	<node lat="58.416222224668545" lon="6.013044448671207" id="-1092">
		<tag k="man_made" v="quay" />
		<tag k="name" v="Malmbrygga" />
		<tag k="place" v="locality" />
		<tag k="ssr:stedsnr" v="907498" />
	</node>
<<<<<<< HEAD
	<node lat="58.452558329426374" lon="5.981791670136433" id="-1132">
		<tag k="man_made" v="quay" />
		<tag k="name" v="Nyåskaien" />
		<tag k="place" v="locality" />
		<tag k="ssr:stedsnr" v="910869" />
	</node>
	<node lat="58.45750277483873" lon="6.001852785679105" id="-1202">
		<tag k="fixme" v="verify maritime location" />
		<tag k="mooring" v="yes" />
		<tag k="name" v="Støene" />
		<tag k="place" v="locality" />
		<tag k="ssr:stedsnr" v="832631" />
	</node>
	<node lat="58.47972499878472" lon="5.996186104693277" id="-1204">
		<tag k="bridge" v="yes" />
		<tag k="layer" v="1" />
		<tag k="name" v="Tengs" />
		<tag k="ssr:stedsnr" v="836332" />
	</node>
	<node lat="58.446663887964775" lon="5.989130554751298" id="-1260">
		<tag k="man_made" v="quay" />
		<tag k="name" v="Tyskerbrygga" />
		<tag k="place" v="locality" />
		<tag k="ssr:stedsnr" v="890421" />
	</node>
	<node lat="58.43663597566957" lon="5.9796282307940185" id="-1334">
		<tag k="fixme" v="verify maritime location" />
		<tag k="mooring" v="yes" />
		<tag k="name" v="Nordstø" />
		<tag k="place" v="locality" />
		<tag k="ssr:stedsnr" v="967412" />
	</node>
	<node lat="58.476713889540946" lon="6.252686110530901" id="-1415">
		<tag k="name" v="Råna" />
		<tag k="ssr:stedsnr" v="27500" />
		<tag k="waterway" v="canal" />
	</node>
	<node lat="58.53058611179469" lon="6.133338882589117" id="-1440">
		<tag k="bridge" v="yes" />
		<tag k="layer" v="1" />
		<tag k="name" v="Strømstad" />
		<tag k="ssr:stedsnr" v="47364" />
	</node>
	<node lat="58.426791669444576" lon="6.043730559568071" id="-1487">
=======
	<node id="-5656" lat="58.3842019424" lon="6.06421831931">
		<tag k="man_made" v="quay" />
		<tag k="name" v="Allmenningskaien" />
		<tag k="place" v="locality" />
		<tag k="ssr:stedsnr" v="384908" />
	</node>
	<node id="-4119" lat="58.568024999" lon="6.2542194451">
>>>>>>> e1d4bc35ff8a6074a6f2e91616a996b547c36f15
		<tag k="bridge" v="yes" />
		<tag k="layer" v="1" />
		<tag k="name" v="Tyslandsvad" />
		<tag k="ssr:stedsnr" v="229369" />
	</node>
<<<<<<< HEAD
	<node lat="58.48105555243926" lon="5.871227774516546" id="-1786">
=======
	<node id="-4118" lat="58.4361666693" lon="6.01119167109">
>>>>>>> e1d4bc35ff8a6074a6f2e91616a996b547c36f15
		<tag k="bridge" v="yes" />
		<tag k="layer" v="1" />
		<tag k="name" v="Hellvik" />
		<tag k="ssr:stedsnr" v="290349" />
	</node>
<<<<<<< HEAD
	<node lat="58.48582060495286" lon="5.897186224014194" id="-1804">
		<tag k="name" v="Hellvik stasjon" />
		<tag k="railway" v="station" />
		<tag k="ssr:stedsnr" v="303693" />
		<tag k="train" v="yes" />
	</node>
	<node lat="58.45967500051408" lon="6.014400003364465" id="-1814">
=======
	<node id="-5141" lat="58.4528194453" lon="6.00131666663">
		<tag k="leisure" v="marina" />
		<tag k="name" v="Egersund gjestehavn" />
		<tag k="ssr:stedsnr" v="57391" />
	</node>
	<node id="-5524" lat="58.4596750005" lon="6.01440000336">
>>>>>>> e1d4bc35ff8a6074a6f2e91616a996b547c36f15
		<tag k="bridge" v="yes" />
		<tag k="layer" v="1" />
		<tag k="name" v="Hestvad" />
		<tag k="ssr:stedsnr" v="303847" />
	</node>
<<<<<<< HEAD
	<node lat="58.45283081463338" lon="5.99722699961218" id="-1823">
		<tag k="man_made" v="quay" />
		<tag k="name" v="Raudhella" />
		<tag k="place" v="locality" />
		<tag k="ssr:stedsnr" v="324916" />
	</node>
	<node lat="58.481074996969085" lon="5.858769452594793" id="-1884">
=======
	<node id="-5136" lat="58.447363887" lon="6.14990556411">
		<tag k="bridge" v="yes" />
		<tag k="layer" v="1" />
		<tag k="name" v="Grønhølen" />
		<tag k="ssr:stedsnr" v="47390" />
	</node>
	<node id="-6159" lat="58.4291194432" lon="6.13156943984">
>>>>>>> e1d4bc35ff8a6074a6f2e91616a996b547c36f15
		<tag k="bridge" v="yes" />
		<tag k="layer" v="1" />
		<tag k="name" v="Sannernes" />
		<tag k="ssr:stedsnr" v="350328" />
	</node>
<<<<<<< HEAD
	<node lat="58.452494442509305" lon="6.00045278132105" id="-1906">
		<tag k="man_made" v="quay" />
		<tag k="name" v="Jernbanekaia" />
		<tag k="place" v="locality" />
		<tag k="ssr:stedsnr" v="361464" />
	</node>
	<node lat="58.620711109474215" lon="6.456580561088977" id="-2019">
		<tag k="bridge" v="yes" />
		<tag k="layer" v="1" />
		<tag k="name" v="Nesjebekken" />
		<tag k="ssr:stedsnr" v="411356" />
	</node>
	<node lat="58.60930277360018" lon="6.418399996268936" id="-2020">
		<tag k="bridge" v="yes" />
		<tag k="layer" v="1" />
		<tag k="name" v="Gyastøl" />
		<tag k="ssr:stedsnr" v="411367" />
	</node>
	<node lat="58.55750278042493" lon="6.176225005854254" id="-2083">
		<tag k="highway" v="path" />
		<tag k="name" v="Torvvegen" />
		<tag k="ssr:stedsnr" v="509063" />
	</node>
	<node lat="58.60190832964965" lon="6.372588884998011" id="-2129">
		<tag k="bridge" v="yes" />
		<tag k="layer" v="1" />
		<tag k="name" v="Gya Øvre" />
		<tag k="ssr:stedsnr" v="532363" />
	</node>
	<node lat="58.45963333724761" lon="6.257747214801948" id="-2130">
		<tag k="bridge" v="yes" />
		<tag k="layer" v="1" />
		<tag k="name" v="Bjelland" />
		<tag k="ssr:stedsnr" v="532367" />
	</node>
	<node lat="58.627022219869" lon="6.4878277796570725" id="-2225">
		<tag k="bridge" v="yes" />
		<tag k="layer" v="1" />
		<tag k="name" v="Mydland" />
		<tag k="ssr:stedsnr" v="593344" />
	</node>
	<node lat="58.41613611532043" lon="6.0232555622214505" id="-2330">
		<tag k="bridge" v="yes" />
		<tag k="layer" v="1" />
		<tag k="name" v="Åse (Øvre)" />
		<tag k="ssr:stedsnr" v="654359" />
	</node>
	<node lat="58.45016666466814" lon="6.043861105910015" id="-2331">
=======
	<node id="-6158" lat="58.5338916658" lon="6.1498194433">
		<tag k="bridge" v="yes" />
		<tag k="layer" v="1" />
		<tag k="name" v="Svalestad" />
		<tag k="ssr:stedsnr" v="775338" />
	</node>
	<node id="-5533" lat="58.4528308146" lon="5.99722699961">
		<tag k="man_made" v="quay" />
		<tag k="name" v="Raudhella" />
		<tag k="place" v="locality" />
		<tag k="ssr:stedsnr" v="324916" />
	</node>
	<node id="-6156" lat="58.4442527753" lon="6.02480555141">
		<tag k="bridge" v="yes" />
		<tag k="layer" v="1" />
		<tag k="name" v="Tveid" />
		<tag k="ssr:stedsnr" v="775334" />
	</node>
	<node id="-6155" lat="58.4419499989" lon="6.02324443936">
		<tag k="bridge" v="yes" />
		<tag k="layer" v="1" />
		<tag k="name" v="Skåra" />
		<tag k="ssr:stedsnr" v="775330" />
	</node>
	<node id="-3982" lat="58.4267916694" lon="6.04373055957">
>>>>>>> e1d4bc35ff8a6074a6f2e91616a996b547c36f15
		<tag k="bridge" v="yes" />
		<tag k="layer" v="1" />
		<tag k="name" v="Veshovde" />
		<tag k="ssr:stedsnr" v="654375" />
	</node>
<<<<<<< HEAD
	<node lat="58.46018333771724" lon="6.016508339748763" id="-2351">
		<tag k="ford" v="yes" />
		<tag k="name" v="Hestvad" />
		<tag k="place" v="locality" />
		<tag k="ssr:stedsnr" v="665722" />
	</node>
	<node lat="58.420038888376034" lon="6.020027769925253" id="-2492">
		<tag k="name" v="Krudsvingen" />
		<tag k="place" v="locality" />
		<tag k="ssr:stedsnr" v="771987" />
	</node>
	<node lat="58.44194999886459" lon="6.023244439355046" id="-2493">
		<tag k="bridge" v="yes" />
		<tag k="layer" v="1" />
		<tag k="name" v="Skåra" />
		<tag k="ssr:stedsnr" v="775330" />
	</node>
	<node lat="58.444252775252835" lon="6.024805551414881" id="-2494">
		<tag k="bridge" v="yes" />
		<tag k="layer" v="1" />
		<tag k="name" v="Tveid" />
		<tag k="ssr:stedsnr" v="775334" />
	</node>
	<node lat="58.49133611421184" lon="6.035919450591379" id="-2495">
		<tag k="bridge" v="yes" />
		<tag k="layer" v="1" />
		<tag k="name" v="Søkkatjern" />
		<tag k="ssr:stedsnr" v="775336" />
	</node>
	<node lat="58.53389166584673" lon="6.149819443303575" id="-2496">
		<tag k="bridge" v="yes" />
		<tag k="layer" v="1" />
		<tag k="name" v="Svalestad" />
		<tag k="ssr:stedsnr" v="775338" />
	</node>
	<node lat="58.42911944319743" lon="6.131569439835013" id="-2497">
		<tag k="bridge" v="yes" />
		<tag k="layer" v="1" />
		<tag k="name" v="Liastemmen" />
		<tag k="ssr:stedsnr" v="775345" />
	</node>
	<node lat="58.46117267510776" lon="6.002339823692606" id="-2529">
		<tag k="name" v="Egersund stasjon" />
		<tag k="railway" v="station" />
		<tag k="ssr:stedsnr" v="788847" />
		<tag k="train" v="yes" />
	</node>
	<node lat="58.46186389313258" lon="5.992427770564376" id="-2615">
		<tag k="bridge" v="yes" />
		<tag k="layer" v="1" />
		<tag k="name" v="Løgetjødne" />
		<tag k="ssr:stedsnr" v="836338" />
	</node>
	<node lat="58.53340833702408" lon="6.150547221715589" id="-2748">
		<tag k="bridge" v="yes" />
		<tag k="layer" v="1" />
		<tag k="name" v="Helleland" />
		<tag k="ssr:stedsnr" v="957366" />
	</node>
	<node lat="58.50230278155647" lon="5.91855000102869" id="-2749">
		<tag k="bridge" v="yes" />
		<tag k="layer" v="1" />
		<tag k="name" v="Heigrestad" />
		<tag k="ssr:stedsnr" v="957367" />
	</node>
	<node lat="58.51447500134724" lon="6.072952772669587" id="-2750">
		<tag k="bridge" v="yes" />
		<tag k="layer" v="1" />
		<tag k="name" v="Nese" />
		<tag k="ssr:stedsnr" v="957368" />
	</node>
	<node lat="58.45273333295477" lon="6.0019166612050086" id="-2751">
		<tag k="bridge" v="yes" />
		<tag k="layer" v="1" />
		<tag k="name" v="Lundeelva" />
		<tag k="ssr:stedsnr" v="957371" />
	</node>
	<node lat="58.58541196793112" lon="6.359748144492734" id="-2794">
		<tag k="highway" v="path" />
		<tag k="name" v="Kyrkjevegen" />
		<tag k="ssr:stedsnr" v="1073274" />
=======
	<node id="-5896" lat="58.49774444" lon="6.18243888788">
		<tag k="junction" v="yes" />
		<tag k="name" v="Glypstadkrossen" />
		<tag k="place" v="locality" />
		<tag k="ssr:stedsnr" v="569063" />
	</node>
	<node id="-3905" lat="58.5420916704" lon="6.21428889238">
		<tag k="bridge" v="yes" />
		<tag k="layer" v="1" />
		<tag k="name" v="Hestad" />
		<tag k="ssr:stedsnr" v="168372" />
>>>>>>> e1d4bc35ff8a6074a6f2e91616a996b547c36f15
	</node>
</osm>
