<?xml version="1.0" encoding="UTF-8"?>
<osm generator="osmapis" version="0.6">
	<node id="-389632" lat="58.5026611108" lon="6.07360554827">
		<tag k="name" v="Sollsteinen" />
		<tag k="natural" v="stone" />
		<tag k="ssr:stedsnr" v="23909" />
	</node>
	<node id="-389630" lat="58.4998916668" lon="5.98454999673">
		<tag k="name" v="Helgesmyra" />
		<tag k="natural" v="wetland" />
		<tag k="ssr:stedsnr" v="23876" />
	</node>
	<node id="-390652" lat="58.4168944457" lon="6.03707777912">
		<tag k="name" v="Stølsmyra" />
		<tag k="natural" v="wetland" />
		<tag k="ssr:stedsnr" v="531991" />
	</node>
	<node id="-391159" lat="58.4274944422" lon="6.16390833573">
		<tag k="name" v="Hedlersura" />
		<tag k="natural" v="scree" />
		<tag k="ssr:stedsnr" v="706480" />
	</node>
	<node id="-391665" lat="58.4830888859" lon="6.25502499439">
		<tag k="name" v="Holmamyra" />
		<tag k="place" v="locality" />
		<tag k="ssr:stedsnr" v="876475" />
	</node>
	<node id="-391663" lat="58.4843305578" lon="6.26054166406">
		<tag k="name" v="Lass-vollen" />
		<tag k="place" v="locality" />
		<tag k="ssr:stedsnr" v="876473" />
	</node>
	<node id="-390121" lat="58.5357361103" lon="6.20694166116">
		<tag k="name" v="Aslakstøa" />
		<tag k="place" v="locality" />
		<tag k="ssr:stedsnr" v="205777" />
	</node>
	<node id="-389096" lat="58.5181833357" lon="6.23837778147">
		<tag k="name" v="Kvednamyra" />
		<tag k="natural" v="wetland" />
		<tag k="ssr:stedsnr" v="269448" />
	</node>
	<node id="-389628" lat="58.5245972196" lon="5.95630000372">
		<tag k="name" v="Løgjedalsmyra" />
		<tag k="natural" v="wetland" />
		<tag k="ssr:stedsnr" v="23828" />
	</node>
	<node id="-390629" lat="58.4246777781" lon="6.09715277071">
		<tag k="name" v="Studapollen" />
		<tag k="natural" v="wetland" />
		<tag k="ssr:stedsnr" v="525932" />
	</node>
	<node id="-391651" lat="58.5153055512" lon="6.2125777828">
		<tag k="name" v="Ulvsmyr" />
		<tag k="natural" v="wetland" />
		<tag k="ssr:stedsnr" v="873051" />
	</node>
	<node id="-390114" lat="58.516547225" lon="5.87833889641">
		<tag k="name" v="Bastaskogtangane" />
		<tag k="place" v="locality" />
		<tag k="ssr:stedsnr" v="205132" />
	</node>
	<node id="-389715" lat="58.4912638898" lon="6.10806667116">
		<tag k="name" v="Røyrmyra" />
		<tag k="natural" v="wetland" />
		<tag k="ssr:stedsnr" v="58284" />
	</node>
	<node id="-391646" lat="58.5348388917" lon="6.13388056202">
		<tag k="name" v="Homura" />
		<tag k="natural" v="scree" />
		<tag k="ssr:stedsnr" v="872957" />
	</node>
	<node id="-391642" lat="58.5329083312" lon="6.1786833386">
		<tag k="name" v="Ålkjermyra" />
		<tag k="natural" v="wetland" />
		<tag k="ssr:stedsnr" v="872876" />
	</node>
	<node id="-391122" lat="58.5259694485" lon="6.19058055226">
		<tag k="name" v="Podlamyr" />
		<tag k="natural" v="wetland" />
		<tag k="ssr:stedsnr" v="690878" />
	</node>
	<node id="-391121" lat="58.5237888857" lon="6.16502499406">
		<tag k="name" v="Smalhagen" />
		<tag k="place" v="locality" />
		<tag k="ssr:stedsnr" v="690875" />
	</node>
	<node id="-391863" lat="58.4922861089" lon="6.02669166034">
		<tag k="name" v="Slettene" />
		<tag k="natural" v="wetland" />
		<tag k="ssr:stedsnr" v="968507" />
	</node>
	<node id="-391111" lat="58.5574249982" lon="6.21092778524">
		<tag k="name" v="Støet" />
		<tag k="place" v="locality" />
		<tag k="ssr:stedsnr" v="690062" />
	</node>
	<node id="-390593" lat="58.5235388893" lon="6.23867777338">
		<tag k="name" v="Akselsteinen" />
		<tag k="natural" v="stone" />
		<tag k="ssr:stedsnr" v="512448" />
	</node>
	<node id="-390575" lat="58.5295166707" lon="6.17900000224">
		<tag k="name" v="Sauamyra" />
		<tag k="natural" v="wetland" />
		<tag k="ssr:stedsnr" v="508874" />
	</node>
	<node id="-390573" lat="58.4989805568" lon="6.02219722535">
		<tag k="name" v="Tomasmyra" />
		<tag k="natural" v="wetland" />
		<tag k="ssr:stedsnr" v="508843" />
	</node>
	<node id="-390570" lat="58.5245777762" lon="5.96163611437">
		<tag k="landuse" v="meadow" />
		<tag k="name" v="Eikelibakkane" />
		<tag k="ssr:stedsnr" v="508833" />
	</node>
	<node id="-390046" lat="58.4843111071" lon="5.98757222501">
		<tag k="name" v="Kolgråmyra" />
		<tag k="natural" v="wetland" />
		<tag k="ssr:stedsnr" v="179772" />
	</node>
	<node id="-390127" lat="58.5369472201" lon="6.17038611698">
		<tag k="name" v="Smalhagen" />
		<tag k="place" v="locality" />
		<tag k="ssr:stedsnr" v="205886" />
	</node>
	<node id="-390039" lat="58.482630556" lon="6.21624166822">
		<tag k="name" v="Podlamyra" />
		<tag k="natural" v="wetland" />
		<tag k="ssr:stedsnr" v="179241" />
	</node>
	<node id="-389521" lat="58.4321972265" lon="6.17589999802">
		<tag k="name" v="Myran" />
		<tag k="natural" v="wetland" />
		<tag k="ssr:stedsnr" v="891399" />
	</node>
	<node id="-389783" lat="58.5594638904" lon="6.2146916692">
		<tag k="name" v="Nordre Myra" />
		<tag k="natural" v="wetland" />
		<tag k="ssr:stedsnr" v="83070" />
	</node>
	<node id="-390768" lat="58.5261277768" lon="6.22930555397">
		<tag k="name" v="Torvmyra" />
		<tag k="natural" v="wetland" />
		<tag k="ssr:stedsnr" v="572451" />
	</node>
	<node id="-391549" lat="58.4303805532" lon="5.90849721959">
		<tag k="name" v="Osten" />
		<tag k="natural" v="stone" />
		<tag k="ssr:stedsnr" v="835918" />
	</node>
	<node id="-389103" lat="58.4500361144" lon="6.23763054887">
		<tag k="name" v="Hattøyholet" />
		<tag k="place" v="locality" />
		<tag k="ssr:stedsnr" v="270445" />
	</node>
	<node id="-389492" lat="58.3986055534" lon="6.06792222049">
		<tag k="name" v="Mystemyra" />
		<tag k="natural" v="wetland" />
		<tag k="ssr:stedsnr" v="889489" />
	</node>
	<node id="-391528" lat="58.4293166636" lon="6.09056944026">
		<tag k="name" v="Leirmyra" />
		<tag k="natural" v="wetland" />
		<tag k="ssr:stedsnr" v="829942" />
	</node>
	<node id="-390502" lat="58.4928666649" lon="6.15319444511">
		<tag k="name" v="Trollshaugane" />
		<tag k="natural" v="scree" />
		<tag k="ssr:stedsnr" v="483124" />
	</node>
	<node id="-391653" lat="58.5403138864" lon="6.17907221808">
		<tag k="name" v="Hunsrauholene" />
		<tag k="place" v="locality" />
		<tag k="ssr:stedsnr" v="873068" />
	</node>
	<node id="-389465" lat="58.3852749979" lon="6.04431944492">
		<tag k="name" v="Storemyr" />
		<tag k="natural" v="wetland" />
		<tag k="ssr:stedsnr" v="406111" />
	</node>
	<node id="-389972" lat="58.5445416676" lon="6.22671388898">
		<tag k="name" v="Lyngklubben" />
		<tag k="place" v="locality" />
		<tag k="ssr:stedsnr" v="148492" />
	</node>
	<node id="-390993" lat="58.4199249982" lon="6.06928333226">
		<tag k="name" v="Videmyrane" />
		<tag k="natural" v="wetland" />
		<tag k="ssr:stedsnr" v="646936" />
	</node>
	<node id="-390992" lat="58.4111000021" lon="6.05787500197">
		<tag k="name" v="Vatlandsmyrane" />
		<tag k="natural" v="wetland" />
		<tag k="ssr:stedsnr" v="646928" />
	</node>
	<node id="-389965" lat="58.4997666653" lon="6.25096388806">
		<tag k="name" v="Storemyr" />
		<tag k="natural" v="wetland" />
		<tag k="ssr:stedsnr" v="148463" />
	</node>
	<node id="-390987" lat="58.4467777773" lon="5.89630000132">
		<tag k="landuse" v="meadow" />
		<tag k="name" v="Samslåtten" />
		<tag k="ssr:stedsnr" v="646804" />
	</node>
	<node id="-390986" lat="58.4406972191" lon="5.90868055981">
		<tag k="alt_name" v="Ura" />
		<tag k="name" v="Urdi" />
		<tag k="natural" v="scree" />
		<tag k="ssr:stedsnr" v="646797" />
	</node>
	<node id="-389960" lat="58.5812222204" lon="6.35027777812">
		<tag k="name" v="Salvesteinen" />
		<tag k="natural" v="stone" />
		<tag k="ssr:stedsnr" v="148294" />
	</node>
	<node id="-391495" lat="58.5383416664" lon="6.22101666012">
		<tag k="landuse" v="meadow" />
		<tag k="name" v="Rismyr" />
		<tag k="ssr:stedsnr" v="816452" />
	</node>
	<node id="-390978" lat="58.4073222215" lon="6.06043333706">
		<tag k="name" v="Revemyra" />
		<tag k="natural" v="wetland" />
		<tag k="ssr:stedsnr" v="646493" />
	</node>
	<node id="-391489" lat="58.5079722263" lon="6.28362777081">
		<tag k="name" v="Grimingsbotnen" />
		<tag k="place" v="locality" />
		<tag k="ssr:stedsnr" v="816408" />
	</node>
	<node id="-389951" lat="58.532474996" lon="6.07357500518">
		<tag k="name" v="Botnaskarmyra" />
		<tag k="natural" v="wetland" />
		<tag k="ssr:stedsnr" v="144956" />
	</node>
	<node id="-390971" lat="58.458438892" lon="6.22626944482">
		<tag k="name" v="Skogåsmyra" />
		<tag k="natural" v="wetland" />
		<tag k="ssr:stedsnr" v="634476" />
	</node>
	<node id="-391481" lat="58.5696333347" lon="6.16533889141">
		<tag k="name" v="Myglemyr" />
		<tag k="natural" v="wetland" />
		<tag k="ssr:stedsnr" v="812086" />
	</node>
	<node id="-389942" lat="58.512061109" lon="5.95755833744">
		<tag k="name" v="Djupemyr" />
		<tag k="natural" v="wetland" />
		<tag k="ssr:stedsnr" v="144835" />
	</node>
	<node id="-390622" lat="58.4532638878" lon="6.03319443848">
		<tag k="name" v="Følamyra" />
		<tag k="natural" v="wetland" />
		<tag k="ssr:stedsnr" v="525702" />
	</node>
	<node id="-391474" lat="58.5468916634" lon="6.10223055385">
		<tag k="name" v="Tu" />
		<tag k="place" v="locality" />
		<tag k="ssr:stedsnr" v="811996" />
	</node>
	<node id="-391473" lat="58.5443972181" lon="6.10509443633">
		<tag k="name" v="Løgje" />
		<tag k="natural" v="wetland" />
		<tag k="ssr:stedsnr" v="811989" />
	</node>
	<node id="-390960" lat="58.5175861108" lon="6.2220777755">
		<tag k="name" v="Riskjerr" />
		<tag k="place" v="locality" />
		<tag k="ssr:stedsnr" v="633480" />
	</node>
	<node id="-389422" lat="58.4486861129" lon="6.23324722977">
		<tag k="name" v="Mestølane" />
		<tag k="place" v="locality" />
		<tag k="ssr:stedsnr" v="391466" />
	</node>
	<node id="-390956" lat="58.5278305596" lon="6.26463611715">
		<tag k="name" v="Kartknudmyra" />
		<tag k="natural" v="wetland" />
		<tag k="ssr:stedsnr" v="633465" />
	</node>
	<node id="-391467" lat="58.5199555552" lon="6.11787500809">
		<tag k="name" v="Kari stykket" />
		<tag k="place" v="locality" />
		<tag k="ssr:stedsnr" v="811947" />
	</node>
	<node id="-390950" lat="58.6065722257" lon="6.35272776995">
		<tag k="name" v="Sundagsbeitet" />
		<tag k="place" v="locality" />
		<tag k="ssr:stedsnr" v="633298" />
	</node>
	<node id="-390942" lat="58.547927774" lon="6.21418888533">
		<tag k="name" v="Langemyr" />
		<tag k="natural" v="wetland" />
		<tag k="ssr:stedsnr" v="630066" />
	</node>
	<node id="-389405" lat="58.5405305518" lon="6.24703610801">
		<tag k="name" v="Råsa" />
		<tag k="natural" v="scree" />
		<tag k="ssr:stedsnr" v="390423" />
	</node>
	<node id="-390940" lat="58.5092749989" lon="6.1689749972">
		<tag k="name" v="Lamhagen" />
		<tag k="place" v="locality" />
		<tag k="ssr:stedsnr" v="630062" />
	</node>
	<node id="-390939" lat="58.5125500036" lon="6.18680555093">
		<tag k="name" v="Grøvle" />
		<tag k="place" v="locality" />
		<tag k="ssr:stedsnr" v="630053" />
	</node>
	<node id="-389401" lat="58.5577777773" lon="6.2370249951">
		<tag k="name" v="Bjønnamyra" />
		<tag k="natural" v="wetland" />
		<tag k="ssr:stedsnr" v="390386" />
	</node>
	<node id="-390934" lat="58.5298083348" lon="6.0626194443">
		<tag k="name" v="Djupadalsmyra" />
		<tag k="natural" v="wetland" />
		<tag k="ssr:stedsnr" v="629977" />
	</node>
	<node id="-390933" lat="58.5341027817" lon="6.10298056109">
		<tag k="name" v="Klovsteinen" />
		<tag k="natural" v="stone" />
		<tag k="ssr:stedsnr" v="629967" />
	</node>
	<node id="-389394" lat="58.5570527775" lon="6.14668888307">
		<tag k="name" v="Storli" />
		<tag k="place" v="locality" />
		<tag k="ssr:stedsnr" v="386980" />
	</node>
	<node id="-390417" lat="58.5039805537" lon="6.22328610708">
		<tag k="name" v="Stedlebakken" />
		<tag k="place" v="locality" />
		<tag k="ssr:stedsnr" v="451478" />
	</node>
	<node id="-390928" lat="58.5173277822" lon="5.95587499616">
		<tag k="name" v="Ryggjamyra" />
		<tag k="natural" v="wetland" />
		<tag k="ssr:stedsnr" v="629863" />
	</node>
	<node id="-390927" lat="58.5025111078" lon="5.99122778057">
		<tag k="name" v="Odresteinen" />
		<tag k="natural" v="stone" />
		<tag k="ssr:stedsnr" v="629862" />
	</node>
	<node id="-389390" lat="58.5374000044" lon="6.13200555606">
		<tag k="landuse" v="meadow" />
		<tag k="name" v="Roshagen" />
		<tag k="ssr:stedsnr" v="386938" />
	</node>
	<node id="-389389" lat="58.5373611132" lon="6.10962222244">
		<tag k="name" v="Geitemyra" />
		<tag k="place" v="locality" />
		<tag k="ssr:stedsnr" v="386935" />
	</node>
	<node id="-389388" lat="58.5352972222" lon="6.17426111765">
		<tag k="name" v="Smørkjellmyra" />
		<tag k="natural" v="wetland" />
		<tag k="ssr:stedsnr" v="386865" />
	</node>
	<node id="-390411" lat="58.5902666674" lon="6.25921110783">
		<tag k="name" v="Myrane" />
		<tag k="natural" v="wetland" />
		<tag k="ssr:stedsnr" v="451401" />
	</node>
	<node id="-389385" lat="58.4982388891" lon="5.99014999551">
		<tag k="name" v="Dyråsmyrane" />
		<tag k="natural" v="wetland" />
		<tag k="ssr:stedsnr" v="386840" />
	</node>
	<node id="-390408" lat="58.5235611153" lon="6.17215000558">
		<tag k="name" v="Myrateigen" />
		<tag k="place" v="locality" />
		<tag k="ssr:stedsnr" v="448873" />
	</node>
	<node id="-389406" lat="58.5457111097" lon="6.23458333839">
		<tag k="name" v="Myran" />
		<tag k="natural" v="wetland" />
		<tag k="ssr:stedsnr" v="390426" />
	</node>
	<node id="-389419" lat="58.4624500002" lon="6.23679444632">
		<tag k="name" v="Loppemyra" />
		<tag k="natural" v="wetland" />
		<tag k="ssr:stedsnr" v="391452" />
	</node>
	<node id="-390400" lat="58.551147226" lon="6.21436389415">
		<tag k="landuse" v="meadow" />
		<tag k="name" v="Fidjan" />
		<tag k="ssr:stedsnr" v="448079" />
	</node>
	<node id="-391295" lat="58.5028138867" lon="6.16074166114">
		<tag k="name" v="Geitråshagen" />
		<tag k="place" v="locality" />
		<tag k="ssr:stedsnr" v="751901" />
	</node>
	<node id="-389878" lat="58.4857999976" lon="6.01593332766">
		<tag k="name" v="Tengsareidhagen" />
		<tag k="place" v="locality" />
		<tag k="ssr:stedsnr" v="118429" />
	</node>
	<node id="-389877" lat="58.4880888865" lon="6.02826667371">
		<tag k="name" v="Rodåsmyra" />
		<tag k="natural" v="wetland" />
		<tag k="ssr:stedsnr" v="118428" />
	</node>
	<node id="-390386" lat="58.4987777794" lon="6.136197218">
		<tag k="name" v="Kvednaflåta" />
		<tag k="natural" v="wetland" />
		<tag k="ssr:stedsnr" v="447854" />
	</node>
	<node id="-390385" lat="58.5011027736" lon="6.05973333727">
		<tag k="name" v="Alvamyra" />
		<tag k="natural" v="wetland" />
		<tag k="ssr:stedsnr" v="447851" />
	</node>
	<node id="-390384" lat="58.5278999977" lon="5.95057221763">
		<tag k="name" v="Røynåsmyra" />
		<tag k="natural" v="wetland" />
		<tag k="ssr:stedsnr" v="447782" />
	</node>
	<node id="-389868" lat="58.416574998" lon="6.0438861134">
		<tag k="name" v="Surtemyra" />
		<tag k="natural" v="wetland" />
		<tag k="ssr:stedsnr" v="104982" />
	</node>
	<node id="-391399" lat="58.6274694438" lon="6.4471111136">
		<tag k="name" v="Vareberg" />
		<tag k="place" v="locality" />
		<tag k="ssr:stedsnr" v="786542" />
	</node>
	<node id="-391396" lat="58.4916444469" lon="6.04629722435">
		<tag k="name" v="Søkkemyra" />
		<tag k="natural" v="wetland" />
		<tag k="ssr:stedsnr" v="786312" />
	</node>
	<node id="-391462" lat="58.5201527822" lon="6.18254722346">
		<tag k="name" v="Svarta Myra" />
		<tag k="natural" v="wetland" />
		<tag k="ssr:stedsnr" v="811837" />
	</node>
	<node id="-391378" lat="58.4594583315" lon="6.10918888663">
		<tag k="name" v="Ormåsmyra" />
		<tag k="natural" v="wetland" />
		<tag k="ssr:stedsnr" v="783271" />
	</node>
	<node id="-389326" lat="58.4833083293" lon="6.08224166912">
		<tag k="historic" v="shieling" />
		<tag k="name" v="Gunnarstølen" />
		<tag k="place" v="locality" />
		<tag k="ssr:stedsnr" v="361543" />
	</node>
	<node id="-389322" lat="58.4808472205" lon="6.02718055114">
		<tag k="name" v="Kloppamyra" />
		<tag k="natural" v="wetland" />
		<tag k="ssr:stedsnr" v="361494" />
	</node>
	<node id="-390854" lat="58.4865527761" lon="6.15144166176">
		<tag k="historic" v="shieling" />
		<tag k="name" v="Stølen" />
		<tag k="place" v="locality" />
		<tag k="ssr:stedsnr" v="604109" />
	</node>
	<node id="-389314" lat="58.4839972223" lon="6.13664999633">
		<tag k="name" v="Lamhagen" />
		<tag k="place" v="locality" />
		<tag k="ssr:stedsnr" v="361148" />
	</node>
	<node id="-390773" lat="58.5068249969" lon="6.21870555819">
		<tag k="name" v="Krossfenmyra" />
		<tag k="natural" v="wetland" />
		<tag k="ssr:stedsnr" v="572492" />
	</node>
	<node id="-389308" lat="58.4898388892" lon="5.96136944518">
		<tag k="name" v="Didriksmyra" />
		<tag k="natural" v="wetland" />
		<tag k="ssr:stedsnr" v="360762" />
	</node>
	<node id="-389151" lat="58.4554972255" lon="6.13048333389">
		<tag k="name" v="Hagamyra" />
		<tag k="natural" v="wetland" />
		<tag k="ssr:stedsnr" v="298286" />
	</node>
	<node id="-391864" lat="58.4770333307" lon="6.0000166676">
		<tag k="name" v="Furemyra" />
		<tag k="natural" v="wetland" />
		<tag k="ssr:stedsnr" v="968513" />
	</node>
	<node id="-390327" lat="58.4776722188" lon="6.13316945311">
		<tag k="name" v="Sandågholmen" />
		<tag k="place" v="locality" />
		<tag k="ssr:stedsnr" v="423143" />
	</node>
	<node id="-391861" lat="58.4848333347" lon="6.04209721587">
		<tag k="name" v="Myrane" />
		<tag k="natural" v="wetland" />
		<tag k="ssr:stedsnr" v="968414" />
	</node>
	<node id="-390430" lat="58.4907805589" lon="6.24866388934">
		<tag k="name" v="Kvennmyr" />
		<tag k="natural" v="wetland" />
		<tag k="ssr:stedsnr" v="452493" />
	</node>
	<node id="-390322" lat="58.485308329" lon="6.18255000454">
		<tag k="name" v="Stemyra" />
		<tag k="natural" v="wetland" />
		<tag k="ssr:stedsnr" v="422790" />
	</node>
	<node id="-389809" lat="58.5548694446" lon="6.18782778403">
		<tag k="name" v="Svinahagen" />
		<tag k="place" v="locality" />
		<tag k="ssr:stedsnr" v="84095" />
	</node>
	<node id="-391856" lat="58.4963333288" lon="6.08835555028">
		<tag k="name" v="Syngaren" />
		<tag k="natural" v="stone" />
		<tag k="ssr:stedsnr" v="968109" />
	</node>
	<node id="-391343" lat="58.4282055537" lon="6.08003888051">
		<tag k="name" v="Skiptingsmyra" />
		<tag k="natural" v="wetland" />
		<tag k="ssr:stedsnr" v="768949" />
	</node>
	<node id="-391342" lat="58.4171055528" lon="6.0579388827">
		<tag k="name" v="Deblemyra" />
		<tag k="natural" v="wetland" />
		<tag k="ssr:stedsnr" v="768942" />
	</node>
	<node id="-389802" lat="58.5267111089" lon="6.10461111741">
		<tag k="name" v="Prestmyra" />
		<tag k="natural" v="wetland" />
		<tag k="ssr:stedsnr" v="83969" />
	</node>
	<node id="-390599" lat="58.6117527783" lon="6.44004444449">
		<tag k="name" v="Åsemyra" />
		<tag k="natural" v="wetland" />
		<tag k="ssr:stedsnr" v="512504" />
	</node>
	<node id="-391452" lat="58.385934438" lon="6.05084668205">
		<tag k="name" v="Stapneshølen" />
		<tag k="natural" v="wetland" />
		<tag k="ssr:stedsnr" v="789997" />
	</node>
	<node id="-391334" lat="58.4714472195" lon="6.05787222928">
		<tag k="name" v="Kodlåsmyrane" />
		<tag k="natural" v="wetland" />
		<tag k="ssr:stedsnr" v="768261" />
	</node>
	<node id="-389280" lat="58.4253666654" lon="6.06076111609">
		<tag k="name" v="Rodamyra" />
		<tag k="natural" v="wetland" />
		<tag k="ssr:stedsnr" v="343955" />
	</node>
	<node id="-389232" lat="58.5539805569" lon="6.20124722777">
		<tag k="landuse" v="meadow" />
		<tag k="name" v="Hauan" />
		<tag k="ssr:stedsnr" v="327074" />
	</node>
	<node id="-390301" lat="58.5413111154" lon="6.17453889655">
		<tag k="name" v="Djubemyr" />
		<tag k="natural" v="wetland" />
		<tag k="ssr:stedsnr" v="266069" />
	</node>
	<node id="-390297" lat="58.5122472212" lon="6.17163056237">
		<tag k="name" v="Stølen" />
		<tag k="place" v="locality" />
		<tag k="ssr:stedsnr" v="266049" />
	</node>
	<node id="-389784" lat="58.5729416655" lon="6.2060250076">
		<tag k="landuse" v="meadow" />
		<tag k="name" v="Legå" />
		<tag k="ssr:stedsnr" v="83085" />
	</node>
	<node id="-391831" lat="58.4300888859" lon="6.02056388354">
		<tag k="name" v="Lågemyra" />
		<tag k="natural" v="wetland" />
		<tag k="ssr:stedsnr" v="953980" />
	</node>
	<node id="-391317" lat="58.4851194464" lon="6.25769721504">
		<tag k="name" v="Heia" />
		<tag k="place" v="locality" />
		<tag k="ssr:stedsnr" v="755494" />
	</node>
	<node id="-390803" lat="58.4259777815" lon="6.08083889229">
		<tag k="name" v="Kaknutmyra" />
		<tag k="natural" v="wetland" />
		<tag k="ssr:stedsnr" v="585929" />
	</node>
	<node id="-391314" lat="58.4797583374" lon="6.24562499422">
		<tag k="name" v="Sauabakken" />
		<tag k="place" v="locality" />
		<tag k="ssr:stedsnr" v="755486" />
	</node>
	<node id="-390799" lat="58.4352083351" lon="6.03663611009">
		<tag k="name" v="Storemyra" />
		<tag k="natural" v="wetland" />
		<tag k="ssr:stedsnr" v="585668" />
	</node>
	<node id="-390286" lat="58.4984666624" lon="5.97309999896">
		<tag k="name" v="Piggsteinmyra" />
		<tag k="natural" v="wetland" />
		<tag k="ssr:stedsnr" v="265863" />
	</node>
	<node id="-391821" lat="58.4849222254" lon="5.91844444934">
		<tag k="name" v="Storemyra" />
		<tag k="natural" v="wetland" />
		<tag k="ssr:stedsnr" v="951845" />
	</node>
	<node id="-390284" lat="58.5006194483" lon="5.99538333367">
		<tag k="name" v="Laverskog" />
		<tag k="place" v="locality" />
		<tag k="ssr:stedsnr" v="265857" />
	</node>
	<node id="-389259" lat="58.3757111146" lon="6.07946943872">
		<tag k="name" v="Smalahagen" />
		<tag k="place" v="locality" />
		<tag k="ssr:stedsnr" v="333023" />
	</node>
	<node id="-391301" lat="58.5305999994" lon="6.14349722631">
		<tag k="landuse" v="meadow" />
		<tag k="name" v="Løvoll" />
		<tag k="ssr:stedsnr" v="751964" />
	</node>
	<node id="-391812" lat="58.4226194402" lon="6.07973055827">
		<tag k="name" v="Brendemyra" />
		<tag k="natural" v="wetland" />
		<tag k="ssr:stedsnr" v="950934" />
	</node>
	<node id="-389250" lat="58.4795805539" lon="6.25659167434">
		<tag k="name" v="Monen" />
		<tag k="place" v="locality" />
		<tag k="ssr:stedsnr" v="330498" />
	</node>
	<node id="-389249" lat="58.5053944454" lon="6.26579721389">
		<tag k="name" v="Rismyr" />
		<tag k="natural" v="wetland" />
		<tag k="ssr:stedsnr" v="330491" />
	</node>
	<node id="-391807" lat="58.4433305567" lon="6.03303888127">
		<tag k="name" v="Lademyra" />
		<tag k="natural" v="wetland" />
		<tag k="ssr:stedsnr" v="950691" />
	</node>
	<node id="-391294" lat="58.5253527774" lon="6.18418610506">
		<tag k="name" v="Pressmyr" />
		<tag k="natural" v="wetland" />
		<tag k="ssr:stedsnr" v="751884" />
	</node>
	<node id="-390778" lat="58.4584194442" lon="6.23746665901">
		<tag k="name" v="Mæfenet" />
		<tag k="natural" v="wetland" />
		<tag k="ssr:stedsnr" v="573417" />
	</node>
	<node id="-391285" lat="58.53220556" lon="5.93735000451">
		<tag k="landuse" v="meadow" />
		<tag k="name" v="Skinan" />
		<tag k="ssr:stedsnr" v="751728" />
	</node>
	<node id="-391794" lat="58.4614555516" lon="6.23130277428">
		<tag k="name" v="Foremyra" />
		<tag k="natural" v="wetland" />
		<tag k="ssr:stedsnr" v="938449" />
	</node>
	<node id="-391793" lat="58.4703694451" lon="6.23831111175">
		<tag k="name" v="Store Hagen" />
		<tag k="place" v="locality" />
		<tag k="ssr:stedsnr" v="938441" />
	</node>
	<node id="-391280" lat="58.5546916676" lon="6.21506666477">
		<tag k="name" v="Store Myra" />
		<tag k="natural" v="wetland" />
		<tag k="ssr:stedsnr" v="751073" />
	</node>
	<node id="-391790" lat="58.4831305534" lon="6.23166944614">
		<tag k="name" v="Nesjan" />
		<tag k="place" v="locality" />
		<tag k="ssr:stedsnr" v="937522" />
	</node>
	<node id="-391789" lat="58.4917638917" lon="6.2267388833">
		<tag k="name" v="Stølamyra" />
		<tag k="natural" v="wetland" />
		<tag k="ssr:stedsnr" v="937515" />
	</node>
	<node id="-391276" lat="58.5121583355" lon="6.19628055311">
		<tag k="name" v="Floen" />
		<tag k="place" v="locality" />
		<tag k="ssr:stedsnr" v="751046" />
	</node>
	<node id="-391783" lat="58.5289472211" lon="6.22554722835">
		<tag k="name" v="Slettamyr" />
		<tag k="natural" v="wetland" />
		<tag k="ssr:stedsnr" v="937461" />
	</node>
	<node id="-391782" lat="58.5524361099" lon="6.2240944451">
		<tag k="name" v="Sauaneset" />
		<tag k="place" v="locality" />
		<tag k="ssr:stedsnr" v="937454" />
	</node>
	<node id="-390755" lat="58.5117472248" lon="6.19240554956">
		<tag k="name" v="Djupemyr" />
		<tag k="natural" v="wetland" />
		<tag k="ssr:stedsnr" v="569043" />
	</node>
	<node id="-389217" lat="58.5295361121" lon="6.19212222834">
		<tag k="name" v="Nedste Flotet" />
		<tag k="place" v="locality" />
		<tag k="ssr:stedsnr" v="326858" />
	</node>
	<node id="-389216" lat="58.527205552" lon="6.16966111867">
		<tag k="name" v="Foggmyra" />
		<tag k="natural" v="wetland" />
		<tag k="ssr:stedsnr" v="326855" />
	</node>
	<node id="-390415" lat="58.5117694446" lon="6.26763889405">
		<tag k="name" v="Grimingsmyra" />
		<tag k="natural" v="wetland" />
		<tag k="ssr:stedsnr" v="451463" />
	</node>
	<node id="-391768" lat="58.5290555565" lon="6.14522500597">
		<tag k="landuse" v="meadow" />
		<tag k="name" v="Kjerret" />
		<tag k="ssr:stedsnr" v="933965" />
	</node>
	<node id="-390766" lat="58.5478416648" lon="6.21993055198">
		<tag k="name" v="Traen" />
		<tag k="place" v="locality" />
		<tag k="ssr:stedsnr" v="572441" />
	</node>
	<node id="-390742" lat="58.5346777774" lon="6.18633055381">
		<tag k="name" v="Krossmyr" />
		<tag k="natural" v="wetland" />
		<tag k="ssr:stedsnr" v="568853" />
	</node>
	<node id="-390741" lat="58.5200833292" lon="6.17100277815">
		<tag k="name" v="Alvafoggmyr" />
		<tag k="natural" v="wetland" />
		<tag k="ssr:stedsnr" v="568848" />
	</node>
	<node id="-390227" lat="58.455819444" lon="6.03726667298">
		<tag k="name" v="Endresmyra" />
		<tag k="natural" v="wetland" />
		<tag k="ssr:stedsnr" v="240693" />
	</node>
	<node id="-390226" lat="58.4632750035" lon="6.03547221932">
		<tag k="name" v="Stemmemyra" />
		<tag k="natural" v="wetland" />
		<tag k="ssr:stedsnr" v="240690" />
	</node>
	<node id="-389816" lat="58.5466583352" lon="6.2558027752">
		<tag k="name" v="Resalega" />
		<tag k="place" v="locality" />
		<tag k="ssr:stedsnr" v="87447" />
	</node>
	<node id="-390733" lat="58.5240916668" lon="6.19290832597">
		<tag k="name" v="Øvre Floan" />
		<tag k="place" v="locality" />
		<tag k="ssr:stedsnr" v="568749" />
	</node>
	<node id="-391756" lat="58.5384499997" lon="6.18311111045">
		<tag k="name" v="Flottorvmyra" />
		<tag k="natural" v="wetland" />
		<tag k="ssr:stedsnr" v="933780" />
	</node>
	<node id="-389815" lat="58.5431833377" lon="6.24999721863">
		<tag k="name" v="Teramyr" />
		<tag k="natural" v="wetland" />
		<tag k="ssr:stedsnr" v="87446" />
	</node>
	<node id="-390212" lat="58.4817888879" lon="5.95964444361">
		<tag k="historic" v="shieling" />
		<tag k="name" v="Juvdalsvollen" />
		<tag k="place" v="locality" />
		<tag k="ssr:stedsnr" v="239806" />
	</node>
	<node id="-389813" lat="58.5528638901" lon="6.23538889467">
		<tag k="name" v="Floen" />
		<tag k="place" v="locality" />
		<tag k="ssr:stedsnr" v="87400" />
	</node>
	<node id="-390198" lat="58.4285083376" lon="6.1083694475">
		<tag k="name" v="Stuamyra" />
		<tag k="natural" v="wetland" />
		<tag k="ssr:stedsnr" v="224538" />
	</node>
	<node id="-391217" lat="58.4924277794" lon="5.95340555724">
		<tag k="name" v="Solheimsmyra" />
		<tag k="natural" v="wetland" />
		<tag k="ssr:stedsnr" v="725741" />
	</node>
	<node id="-389166" lat="58.6321138909" lon="6.47244443666">
		<tag k="name" v="Ålimyrane" />
		<tag k="natural" v="wetland" />
		<tag k="ssr:stedsnr" v="301515" />
	</node>
	<node id="-389981" lat="58.3992194488" lon="6.16253611876">
		<tag k="name" v="Kvide Hedleren" />
		<tag k="natural" v="wetland" />
		<tag k="ssr:stedsnr" v="159664" />
	</node>
	<node id="-390184" lat="58.4381555576" lon="6.03436389048">
		<tag k="name" v="Mjåsundmyra" />
		<tag k="natural" v="wetland" />
		<tag k="ssr:stedsnr" v="222715" />
	</node>
	<node id="-389667" lat="58.4627749964" lon="5.96725832831">
		<tag k="name" v="Storemyra" />
		<tag k="natural" v="wetland" />
		<tag k="ssr:stedsnr" v="39516" />
	</node>
	<node id="-390175" lat="58.4569416712" lon="6.09056667124">
		<tag k="name" v="Horvevollen" />
		<tag k="place" v="locality" />
		<tag k="ssr:stedsnr" v="222255" />
	</node>
	<node id="-389149" lat="58.4336916667" lon="6.06721111238">
		<tag k="historic" v="shieling" />
		<tag k="name" v="Øvre Stølen" />
		<tag k="place" v="locality" />
		<tag k="ssr:stedsnr" v="298281" />
	</node>
	<node id="-391703" lat="58.4610444426" lon="6.04442222387">
		<tag k="name" v="Åsbrotmyra" />
		<tag k="natural" v="wetland" />
		<tag k="ssr:stedsnr" v="908708" />
	</node>
	<node id="-390318" lat="58.4896138865" lon="6.06790277806">
		<tag k="name" v="Rosshagen" />
		<tag k="place" v="locality" />
		<tag k="ssr:stedsnr" v="422518" />
	</node>
	<node id="-391277" lat="58.5432916711" lon="6.19563055516">
		<tag k="name" v="Myra" />
		<tag k="natural" v="wetland" />
		<tag k="ssr:stedsnr" v="751063" />
	</node>
	<node id="-389646" lat="58.4808638862" lon="6.26016666427">
		<tag k="name" v="Eptavollen" />
		<tag k="place" v="locality" />
		<tag k="ssr:stedsnr" v="27490" />
	</node>
	<node id="-390157" lat="58.4172694455" lon="6.10216667203">
		<tag k="name" v="Bustemyra" />
		<tag k="natural" v="wetland" />
		<tag k="ssr:stedsnr" v="222928" />
	</node>
	<node id="-391689" lat="58.4883782102" lon="5.95274722113">
		<tag k="name" v="Lyseforane" />
		<tag k="natural" v="wetland" />
		<tag k="ssr:stedsnr" v="907738" />
	</node>
	<node id="-390663" lat="58.4958833324" lon="6.10336111001">
		<tag k="name" v="Høyhedlerhagen" />
		<tag k="place" v="locality" />
		<tag k="ssr:stedsnr" v="543119" />
	</node>
	<node id="-391174" lat="58.4776972181" lon="5.87941666519">
		<tag k="landuse" v="meadow" />
		<tag k="name" v="Råna" />
		<tag k="ssr:stedsnr" v="707728" />
	</node>
	<node id="-390149" lat="58.6153194414" lon="6.45563889485">
		<tag k="name" v="Røsseholet" />
		<tag k="natural" v="wetland" />
		<tag k="ssr:stedsnr" v="209518" />
	</node>
	<node id="-389635" lat="58.5252361106" lon="6.07538055542">
		<tag k="name" v="Breiemyr" />
		<tag k="natural" v="wetland" />
		<tag k="ssr:stedsnr" v="23973" />
	</node>
	<node id="-391682" lat="58.4874361117" lon="6.06856665936">
		<tag k="name" v="Migarura" />
		<tag k="natural" v="scree" />
		<tag k="ssr:stedsnr" v="907461" />
	</node>
</osm>
