<?xml version="1.0" encoding="UTF-8"?>
<osm version="0.6" generator="osmapis">
	<node lat="58.43197754079407" lon="5.937658766090856" id="-864">
		<tag k="name" v="Fladholmen" />
		<tag k="place" v="islet" />
		<tag k="ssr:stedsnr" v="801" />
	</node>
	<node lat="58.42677499937745" lon="6.009149993567574" id="-866">
		<tag k="name" v="Lyngtangen" />
		<tag k="natural" v="cape" />
		<tag k="ssr:stedsnr" v="807" />
	</node>
	<node lat="58.46278889144021" lon="5.9803916711736615" id="-879">
		<tag k="alt_name" v="Søndre Kattaviga" />
		<tag k="name" v="Søre Kattaviga" />
		<tag k="natural" v="bay" />
		<tag k="ssr:stedsnr" v="220629" />
	</node>
	<node lat="58.433663885120694" lon="5.876652778312451" id="-889">
		<tag k="alt_name" v="Ringaskjer" />
		<tag k="fixme" v="consider seamark:type=rock or natural=shoal" />
		<tag k="name" v="Ringaskjeret" />
		<tag k="place" v="islet" />
		<tag k="ssr:stedsnr" v="221774" />
	</node>
	<node lat="58.43879444157897" lon="5.858922215494472" id="-890">
		<tag k="name" v="Strålaugflua" />
		<tag k="natural" v="shoal" />
		<tag k="place" v="locality" />
		<tag k="ssr:stedsnr" v="221994" />
	</node>
	<node lat="58.46845833719711" lon="5.931475003303439" id="-892">
		<tag k="name" v="Hetleviga" />
		<tag k="natural" v="bay" />
		<tag k="ssr:stedsnr" v="221969" />
	</node>
	<node lat="58.46761111175596" lon="5.907577773944566" id="-893">
		<tag k="name" v="Slåsholmbukta" />
		<tag k="natural" v="bay" />
		<tag k="ssr:stedsnr" v="221972" />
	</node>
	<node lat="58.40830833460907" lon="5.980341665045681" id="-908">
		<tag k="name" v="Skotasundholmen" />
		<tag k="place" v="islet" />
		<tag k="ssr:stedsnr" v="222568" />
	</node>
	<node lat="58.476133333534634" lon="5.881633330770932" id="-915">
		<tag k="name" v="Marbotnen" />
		<tag k="natural" v="bay" />
		<tag k="ssr:stedsnr" v="222731" />
	</node>
	<node lat="58.37434722649203" lon="6.070388893910386" id="-920">
		<tag k="name" v="Steinodden" />
		<tag k="natural" v="cape" />
		<tag k="ssr:stedsnr" v="222974" />
	</node>
	<node lat="58.42603611329421" lon="5.985941668056895" id="-924">
		<tag k="alt_name" v="Gjedlestadvika" />
		<tag k="name" v="Gjellestadviga" />
		<tag k="natural" v="bay" />
		<tag k="ssr:stedsnr" v="223648" />
	</node>
	<node lat="58.45823610806303" lon="5.985997220165773" id="-928">
		<tag k="name" v="Båtavika" />
		<tag k="natural" v="bay" />
		<tag k="ssr:stedsnr" v="39503" />
	</node>
	<node lat="58.472158337614694" lon="5.9925416579070925" id="-929">
		<tag k="name" v="Kremmarvika" />
		<tag k="natural" v="bay" />
		<tag k="ssr:stedsnr" v="39504" />
	</node>
	<node lat="58.472524999073684" lon="5.987483332651391" id="-930">
		<tag k="name" v="Bjønnbåsen" />
		<tag k="natural" v="strait" />
		<tag k="ssr:stedsnr" v="39514" />
	</node>
	<node lat="58.46256689573334" lon="5.972584274500573" id="-932">
		<tag k="alt_name" v="Søndre Krossvikbukta" />
		<tag k="name" v="Søre Krossvikbukta" />
		<tag k="natural" v="bay" />
		<tag k="ssr:stedsnr" v="39518" />
	</node>
	<node lat="58.450063891709036" lon="5.881302773719432" id="-933">
		<tag k="name" v="Seglsteinfluene" />
		<tag k="natural" v="shoal" />
		<tag k="place" v="locality" />
		<tag k="ssr:stedsnr" v="39767" />
	</node>
	<node lat="58.43517777422543" lon="5.892352784527051" id="-934">
		<tag k="name" v="Indre Strutsvågen" />
		<tag k="natural" v="bay" />
		<tag k="ssr:stedsnr" v="39771" />
	</node>
	<node lat="58.464575717943426" lon="5.980618013987594" id="-935">
		<tag k="name" v="Kattaviga" />
		<tag k="natural" v="bay" />
		<tag k="ssr:stedsnr" v="39977" />
	</node>
	<node lat="58.41412500411079" lon="5.970586103450166" id="-944">
		<tag k="name" v="Grønevik" />
		<tag k="natural" v="bay" />
		<tag k="ssr:stedsnr" v="40908" />
	</node>
	<node lat="58.44830833147328" lon="5.879869444183941" id="-946">
		<tag k="name" v="Hyrne" />
		<tag k="place" v="locality" />
		<tag k="seamark:type" v="rock" />
		<tag k="ssr:stedsnr" v="41780" />
	</node>
	<node lat="58.43594167017346" lon="5.876491659167245" id="-947">
		<tag k="name" v="Vågen" />
		<tag k="natural" v="bay" />
		<tag k="ssr:stedsnr" v="41786" />
	</node>
	<node lat="58.46209999831582" lon="5.871436107233294" id="-949">
		<tag k="name" v="Lureholmen" />
		<tag k="place" v="islet" />
		<tag k="ssr:stedsnr" v="42627" />
	</node>
	<node lat="58.465716662407935" lon="5.853705547580341" id="-957">
		<tag k="fixme" v="consider seamark:type=rock or natural=shoal" />
		<tag k="name" v="Raudskjeret" />
		<tag k="place" v="islet" />
		<tag k="ssr:stedsnr" v="57723" />
	</node>
	<node lat="58.430922221274315" lon="5.991477785498768" id="-958">
		<tag k="name" v="Spranget" />
		<tag k="natural" v="cape" />
		<tag k="ssr:stedsnr" v="57418" />
	</node>
	<node lat="58.45996944492046" lon="5.890302771021625" id="-959">
		<tag k="fixme" v="consider seamark:type=rock or natural=shoal" />
		<tag k="name" v="Lusaskjeret" />
		<tag k="place" v="islet" />
		<tag k="ssr:stedsnr" v="57606" />
	</node>
	<node lat="58.42853367774536" lon="6.008672672828957" id="-960">
		<tag k="name" v="Gauleiksbukta" />
		<tag k="natural" v="bay" />
		<tag k="ssr:stedsnr" v="57972" />
	</node>
	<node lat="58.4191583378076" lon="5.996866670103084" id="-967">
		<tag k="name" v="Sundsodden" />
		<tag k="natural" v="cape" />
		<tag k="ssr:stedsnr" v="59708" />
	</node>
	<node lat="58.419696184571706" lon="5.998229457724344" id="-968">
		<tag k="alt_name" v="Fjølevik" />
		<tag k="name" v="Fjølaviga" />
		<tag k="natural" v="bay" />
		<tag k="ssr:stedsnr" v="59712" />
	</node>
	<node lat="58.43994870490477" lon="5.979460944296806" id="-981">
		<tag k="name" v="Holeviga" />
		<tag k="natural" v="bay" />
		<tag k="ssr:stedsnr" v="61809" />
	</node>
	<node lat="58.437752779471396" lon="5.86525000527335" id="-982">
		<tag k="name" v="Veggjarviga" />
		<tag k="natural" v="bay" />
		<tag k="ssr:stedsnr" v="61817" />
	</node>
	<node lat="58.37146944493716" lon="6.076724994019815" id="-994">
		<tag k="name" v="Langholmen" />
		<tag k="place" v="islet" />
		<tag k="ssr:stedsnr" v="81401" />
	</node>
	<node lat="58.41304722501991" lon="5.9309444362985415" id="-1023">
		<tag k="alt_name" v="Skovet;Skove" />
		<tag k="fixme" v="consider seamark:type=rock or natural=shoal" />
		<tag k="name" v="Skoge" />
		<tag k="place" v="islet" />
		<tag k="ssr:stedsnr" v="101268" />
	</node>
	<node lat="58.421469447269864" lon="5.9472388919280625" id="-1024">
		<tag k="name" v="Ytre Selvågen" />
		<tag k="natural" v="bay" />
		<tag k="ssr:stedsnr" v="101270" />
	</node>
	<node lat="58.42577499931803" lon="5.89862222774311" id="-1025">
		<tag k="name" v="Hagen" />
		<tag k="natural" v="bay" />
		<tag k="ssr:stedsnr" v="101807" />
	</node>
	<node lat="58.4335758771559" lon="5.93842201038126" id="-1026">
		<tag k="alt_name" v="Ytre Bekkjarviga" />
		<tag k="name" v="Ytra Bekkjarvika" />
		<tag k="natural" v="bay" />
		<tag k="ssr:stedsnr" v="101810" />
	</node>
	<node lat="58.42138055260755" lon="5.995108333431633" id="-1027">
		<tag k="name" v="Ytra Musavik" />
		<tag k="natural" v="bay" />
		<tag k="ssr:stedsnr" v="101914" />
	</node>
	<node lat="58.44691666936331" lon="5.93372776950735" id="-1028">
		<tag k="name" v="Gjenviga" />
		<tag k="natural" v="bay" />
		<tag k="ssr:stedsnr" v="101972" />
	</node>
	<node lat="58.3953750034286" lon="6.021358333537688" id="-1030">
		<tag k="name" v="Gråurdfluene" />
		<tag k="place" v="locality" />
		<tag k="seamark:type" v="rock" />
		<tag k="ssr:stedsnr" v="102385" />
	</node>
	<node lat="58.38250833329208" lon="6.0354138920427856" id="-1031">
		<tag k="name" v="Brynnesodden" />
		<tag k="natural" v="cape" />
		<tag k="ssr:stedsnr" v="103104" />
	</node>
	<node lat="58.435391666093835" lon="5.987050000104987" id="-1034">
		<tag k="alt_name" v="Fugleodden" />
		<tag k="name" v="Fuglodden" />
		<tag k="natural" v="cape" />
		<tag k="ssr:stedsnr" v="118392" />
	</node>
	<node lat="58.42729444523361" lon="5.947599997296249" id="-1037">
		<tag k="name" v="Tarholmsundet" />
		<tag k="natural" v="strait" />
		<tag k="ssr:stedsnr" v="119323" />
	</node>
	<node lat="58.47489444087671" lon="5.852575006072782" id="-1039">
		<tag k="alt_name" v="Vassvigodden" />
		<tag k="name" v="Vassvikodden" />
		<tag k="natural" v="cape" />
		<tag k="ssr:stedsnr" v="237525" />
	</node>
	<node lat="58.47957778128739" lon="5.861799998306412" id="-1040">
		<tag k="name" v="Svartholodden" />
		<tag k="natural" v="cape" />
		<tag k="ssr:stedsnr" v="237528" />
	</node>
	<node lat="58.4239999970248" lon="5.934750006201889" id="-1043">
		<tag k="name" v="Langholmen" />
		<tag k="place" v="islet" />
		<tag k="ssr:stedsnr" v="121798" />
	</node>
	<node lat="58.43127499612051" lon="5.983949991790678" id="-1044">
		<tag k="name" v="Halsen" />
		<tag k="natural" v="cape" />
		<tag k="ssr:stedsnr" v="121802" />
	</node>
	<node lat="58.42258371428943" lon="5.890532366988048" id="-1045">
		<tag k="alt_name" v="Søre Rosholman" />
		<tag k="name" v="Søreholmen" />
		<tag k="place" v="islet" />
		<tag k="ssr:stedsnr" v="121808" />
	</node>
	<node lat="58.44234722476235" lon="5.89344167394495" id="-1054">
		<tag k="name" v="Nordre Eigerøya" />
		<tag k="place" v="island" />
		<tag k="ssr:stedsnr" v="121867" />
	</node>
	<node lat="58.43371944380846" lon="5.99115277018126" id="-1057">
		<tag k="alt_name" v="Rabnafjellbukta" />
		<tag k="name" v="Ramnefjellbukta" />
		<tag k="natural" v="bay" />
		<tag k="ssr:stedsnr" v="239427" />
	</node>
	<node lat="58.424680556405804" lon="5.896430557742664" id="-1061">
		<tag k="alt_name" v="Lyraberget" />
		<tag k="name" v="Lyrabergodden" />
		<tag k="natural" v="cape" />
		<tag k="ssr:stedsnr" v="239972" />
	</node>
	<node lat="58.43173115541262" lon="6.011496918990053" id="-1062">
		<tag k="name" v="Møllbakkneset" />
		<tag k="natural" v="cape" />
		<tag k="ssr:stedsnr" v="239986" />
	</node>
	<node lat="58.37287499867929" lon="6.083500006472358" id="-1069">
		<tag k="name" v="Bomviga" />
		<tag k="natural" v="bay" />
		<tag k="ssr:stedsnr" v="141387" />
	</node>
	<node lat="58.42048611249752" lon="5.94618610387779" id="-1072">
		<tag k="name" v="Kattrauvholmane" />
		<tag k="place" v="islet" />
		<tag k="ssr:stedsnr" v="241291" />
	</node>
	<node lat="58.40982500157415" lon="5.935677785682858" id="-1100">
		<tag k="name" v="Kjesholmen" />
		<tag k="place" v="islet" />
		<tag k="ssr:stedsnr" v="243771" />
	</node>
	<node lat="58.44706388564427" lon="5.914147223000341" id="-1108">
		<tag k="name" v="Lundarviga" />
		<tag k="natural" v="bay" />
		<tag k="ssr:stedsnr" v="243840" />
	</node>
	<node lat="58.46622777706979" lon="5.984111111259652" id="-1113">
		<tag k="name" v="Launes" />
		<tag k="natural" v="cape" />
		<tag k="ssr:stedsnr" v="160502" />
	</node>
	<node lat="58.46907777496141" lon="5.984502775161504" id="-1114">
		<tag k="name" v="Finnsholmen" />
		<tag k="natural" v="cape" />
		<tag k="ssr:stedsnr" v="161544" />
	</node>
	<node lat="58.441102776862515" lon="5.885477784411325" id="-1115">
		<tag k="name" v="Nautasundet" />
		<tag k="natural" v="strait" />
		<tag k="ssr:stedsnr" v="161605" />
	</node>
	<node lat="58.430791665301484" lon="5.87313888593954" id="-1116">
		<tag k="name" v="Feberholmen" />
		<tag k="place" v="islet" />
		<tag k="ssr:stedsnr" v="161796" />
	</node>
	<node lat="58.446833328984795" lon="5.891119444013155" id="-1117">
		<tag k="alt_name" v="Grønevik" />
		<tag k="name" v="Grøneviga" />
		<tag k="natural" v="bay" />
		<tag k="ssr:stedsnr" v="161815" />
	</node>
	<node lat="58.45125277423178" lon="5.894072214858857" id="-1118">
		<tag k="name" v="Selvågen" />
		<tag k="natural" v="bay" />
		<tag k="ssr:stedsnr" v="161817" />
	</node>
	<node lat="58.44985277922563" lon="5.890733330724715" id="-1119">
		<tag k="name" v="Gyret" />
		<tag k="natural" v="cape" />
		<tag k="ssr:stedsnr" v="161818" />
	</node>
	<node lat="58.392861109711255" lon="5.9720861043694935" id="-1120">
		<tag k="name" v="Krabbaflua" />
		<tag k="natural" v="shoal" />
		<tag k="place" v="locality" />
		<tag k="ssr:stedsnr" v="162399" />
	</node>
	<node lat="58.4252194414111" lon="5.993969436193492" id="-1122">
		<tag k="name" v="Hyseberget" />
		<tag k="natural" v="cape" />
		<tag k="ssr:stedsnr" v="163730" />
	</node>
	<node lat="58.43002778067834" lon="5.908605550269889" id="-1127">
		<tag k="fixme" v="consider seamark:type=rock or natural=shoal" />
		<tag k="name" v="Holmaskjeret" />
		<tag k="place" v="islet" />
		<tag k="ssr:stedsnr" v="178954" />
	</node>
	<node lat="58.47632499850356" lon="5.9908638851075535" id="-1130">
		<tag k="name" v="Lervik" />
		<tag k="natural" v="bay" />
		<tag k="ssr:stedsnr" v="179765" />
	</node>
	<node lat="58.41670277839186" lon="5.957116674229064" id="-1134">
		<tag k="name" v="Store Skvetteholmen" />
		<tag k="place" v="islet" />
		<tag k="ssr:stedsnr" v="180725" />
	</node>
	<node lat="58.412150000233524" lon="5.961077773232436" id="-1140">
		<tag k="name" v="Lyngholmen" />
		<tag k="place" v="islet" />
		<tag k="ssr:stedsnr" v="182750" />
	</node>
	<node lat="58.40805497551193" lon="6.015694082374207" id="-1141">
		<tag k="name" v="Beltviga" />
		<tag k="natural" v="bay" />
		<tag k="ssr:stedsnr" v="182758" />
	</node>
	<node lat="58.37844354488177" lon="6.062168980011193" id="-1157">
		<tag k="name" v="Nålaugviga" />
		<tag k="natural" v="bay" />
		<tag k="ssr:stedsnr" v="182993" />
	</node>
	<node lat="58.42315316684152" lon="5.943196580042091" id="-1165">
		<tag k="fixme" v="consider seamark:type=rock or natural=shoal" />
		<tag k="name" v="Vardsgapskjeri" />
		<tag k="place" v="islet" />
		<tag k="ssr:stedsnr" v="203924" />
	</node>
	<node lat="58.452149995834525" lon="5.890272224401086" id="-1187">
		<tag k="name" v="Pinkaren" />
		<tag k="natural" v="cape" />
		<tag k="ssr:stedsnr" v="221801" />
	</node>
	<node lat="58.4208388878167" lon="5.902869441232885" id="-1191">
		<tag k="name" v="Taraflua" />
		<tag k="natural" v="shoal" />
		<tag k="place" v="locality" />
		<tag k="ssr:stedsnr" v="222989" />
	</node>
	<node lat="58.39421666443795" lon="5.9899611031489535" id="-1192">
		<tag k="fixme" v="consider seamark:type=rock or natural=shoal" />
		<tag k="name" v="Merra" />
		<tag k="place" v="islet" />
		<tag k="ssr:stedsnr" v="223408" />
	</node>
	<node lat="58.395922223005314" lon="5.97111388448178" id="-1193">
		<tag k="name" v="Glåna" />
		<tag k="natural" v="shoal" />
		<tag k="place" v="locality" />
		<tag k="ssr:stedsnr" v="223409" />
	</node>
	<node lat="58.46452777393815" lon="5.8153805613184195" id="-1194">
		<tag k="name" v="Litlegrunnen" />
		<tag k="natural" v="shoal" />
		<tag k="place" v="locality" />
		<tag k="ssr:stedsnr" v="223813" />
	</node>
	<node lat="58.42453611259367" lon="5.903058339740583" id="-1195">
		<tag k="name" v="Hausane" />
		<tag k="natural" v="shoal" />
		<tag k="place" v="locality" />
		<tag k="ssr:stedsnr" v="223823" />
	</node>
	<node lat="58.42951110686912" lon="5.869694438126748" id="-1205">
		<tag k="name" v="Litlagapet" />
		<tag k="natural" v="strait" />
		<tag k="ssr:stedsnr" v="239918" />
	</node>
	<node lat="58.42777839030103" lon="5.948262748301866" id="-1213">
		<tag k="name" v="Gunnarstø" />
		<tag k="natural" v="bay" />
		<tag k="ssr:stedsnr" v="241309" />
	</node>
	<node lat="58.42630833049733" lon="5.929955555530669" id="-1214">
		<tag k="name" v="Sigerflua" />
		<tag k="natural" v="shoal" />
		<tag k="place" v="locality" />
		<tag k="ssr:stedsnr" v="241311" />
	</node>
	<node lat="58.425194440707195" lon="5.947252772783327" id="-1215">
		<tag k="name" v="Sandviga" />
		<tag k="natural" v="bay" />
		<tag k="ssr:stedsnr" v="241312" />
	</node>
	<node lat="58.41777222275784" lon="5.945461103476412" id="-1216">
		<tag k="name" v="Knappaflua" />
		<tag k="natural" v="shoal" />
		<tag k="place" v="locality" />
		<tag k="ssr:stedsnr" v="241719" />
	</node>
	<node lat="58.459825002172366" lon="5.887077785239655" id="-1229">
		<tag k="name" v="Horsholmen" />
		<tag k="place" v="islet" />
		<tag k="ssr:stedsnr" v="243648" />
	</node>
	<node lat="58.46007500268453" lon="5.914200005159703" id="-1230">
		<tag k="name" v="Skadbergstronda" />
		<tag k="natural" v="beach" />
		<tag k="ssr:stedsnr" v="243650" />
	</node>
	<node lat="58.36503055138471" lon="6.09789999939313" id="-1238">
		<tag k="name" v="Stølsvigholmen" />
		<tag k="place" v="islet" />
		<tag k="ssr:stedsnr" v="263398" />
	</node>
	<node lat="58.455600001148696" lon="5.9178222142145405" id="-1278">
		<tag k="name" v="Litlesanden" />
		<tag k="natural" v="beach" />
		<tag k="ssr:stedsnr" v="281643" />
	</node>
	<node lat="58.44574721998529" lon="5.888661103218219" id="-1280">
		<tag k="fixme" v="consider seamark:type=rock or natural=shoal" />
		<tag k="name" v="Gapaskjeret" />
		<tag k="place" v="islet" />
		<tag k="ssr:stedsnr" v="282807" />
	</node>
	<node lat="58.444913892435096" lon="5.867666671903824" id="-1289">
		<tag k="name" v="Bøyen" />
		<tag k="place" v="locality" />
		<tag k="seamark:type" v="rock" />
		<tag k="ssr:stedsnr" v="283793" />
	</node>
	<node lat="58.420966665871724" lon="5.898633328509061" id="-1290">
		<tag k="name" v="Seiflua" />
		<tag k="natural" v="shoal" />
		<tag k="place" v="locality" />
		<tag k="ssr:stedsnr" v="283795" />
	</node>
	<node lat="58.4047805597025" lon="5.940055562340381" id="-1291">
		<tag k="name" v="Skogaflu" />
		<tag k="natural" v="shoal" />
		<tag k="place" v="locality" />
		<tag k="ssr:stedsnr" v="284301" />
	</node>
	<node lat="58.4639861154448" lon="5.861183340651383" id="-1303">
		<tag k="fixme" v="consider seamark:type=rock or natural=shoal" />
		<tag k="name" v="Skarvagrunnen" />
		<tag k="place" v="islet" />
		<tag k="ssr:stedsnr" v="298516" />
	</node>
	<node lat="58.383138886225495" lon="6.035419448316326" id="-1304">
		<tag k="loc_name" v="Brynneset" />
		<tag k="name" v="Brønneset" />
		<tag k="natural" v="cape" />
		<tag k="ssr:stedsnr" v="298547" />
	</node>
	<node lat="58.417694442490074" lon="5.961022219405335" id="-1308">
		<tag k="alt_name" v="Naglevik" />
		<tag k="name" v="Naglaviga" />
		<tag k="natural" v="bay" />
		<tag k="ssr:stedsnr" v="301739" />
	</node>
	<node lat="58.40205833132948" lon="5.9947694489705805" id="-1309">
		<tag k="bay" v="fjord" />
		<tag k="name" v="Søragabet" />
		<tag k="natural" v="bay" />
		<tag k="ssr:stedsnr" v="303738" />
	</node>
	<node lat="58.44884999726764" lon="5.885477776056879" id="-1319">
		<tag k="name" v="Seglsteinen" />
		<tag k="place" v="islet" />
		<tag k="ssr:stedsnr" v="304881" />
	</node>
	<node lat="58.37522777975863" lon="6.068186116197129" id="-1320">
		<tag k="fixme" v="consider seamark:type=rock or natural=shoal" />
		<tag k="name" v="Håskjeret" />
		<tag k="place" v="islet" />
		<tag k="ssr:stedsnr" v="304981" />
	</node>
	<node lat="58.423897880153035" lon="5.941410520840899" id="-1322">
		<tag k="name" v="Alteren" />
		<tag k="place" v="islet" />
		<tag k="ssr:stedsnr" v="324909" />
	</node>
	<node lat="58.426794447975375" lon="5.984855549555035" id="-1340">
		<tag k="name" v="Tangen" />
		<tag k="natural" v="cape" />
		<tag k="ssr:stedsnr" v="343619" />
	</node>
	<node lat="58.447291662911844" lon="5.904519447489856" id="-1341">
		<tag k="alt_name" v="Tornes" />
		<tag k="name" v="Tårnesodden" />
		<tag k="natural" v="cape" />
		<tag k="ssr:stedsnr" v="343852" />
	</node>
	<node lat="58.45168055663123" lon="5.905402777615595" id="-1342">
		<tag k="name" v="Skitnavigbukta" />
		<tag k="natural" v="bay" />
		<tag k="ssr:stedsnr" v="343855" />
	</node>
	<node lat="58.38701388881488" lon="5.987922214283655" id="-1344">
		<tag k="name" v="Jensbåhausen" />
		<tag k="natural" v="shoal" />
		<tag k="place" v="locality" />
		<tag k="ssr:stedsnr" v="344402" />
	</node>
	<node lat="58.46720833685905" lon="5.861419436303329" id="-1348">
		<tag k="name" v="Dyrøyhamn" />
		<tag k="natural" v="bay" />
		<tag k="ssr:stedsnr" v="345575" />
	</node>
	<node lat="58.46335833673181" lon="5.884863886384093" id="-1349">
		<tag k="name" v="Sundet" />
		<tag k="natural" v="strait" />
		<tag k="ssr:stedsnr" v="345589" />
	</node>
	<node lat="58.47282499922331" lon="5.835758341658621" id="-1358">
		<tag k="name" v="Molvigflua" />
		<tag k="natural" v="shoal" />
		<tag k="place" v="locality" />
		<tag k="ssr:stedsnr" v="358526" />
	</node>
	<node lat="58.41841111060676" lon="6.010941659772374" id="-1363">
		<tag k="name" v="Trollholmen" />
		<tag k="place" v="islet" />
		<tag k="ssr:stedsnr" v="360507" />
	</node>
	<node lat="58.47610833079413" lon="5.864047220383705" id="-1364">
		<tag k="name" v="Indre Trosaviga" />
		<tag k="natural" v="bay" />
		<tag k="ssr:stedsnr" v="464731" />
	</node>
	<node lat="58.453249996534765" lon="5.90901944835595" id="-1365">
		<tag k="fixme" v="consider seamark:type=rock or natural=shoal" />
		<tag k="name" v="Storebergsteinane" />
		<tag k="place" v="islet" />
		<tag k="ssr:stedsnr" v="360605" />
	</node>
	<node lat="58.46940833615918" lon="5.856447230130576" id="-1367">
		<tag k="fixme" v="consider seamark:type=rock or natural=shoal" />
		<tag k="name" v="Seilsteinen" />
		<tag k="place" v="islet" />
		<tag k="ssr:stedsnr" v="360716" />
	</node>
	<node lat="58.422463886182214" lon="5.979950004179622" id="-1369">
		<tag k="name" v="Grunneviga" />
		<tag k="natural" v="bay" />
		<tag k="ssr:stedsnr" v="464593" />
	</node>
	<node lat="58.43149444186903" lon="5.986030560448371" id="-1370">
		<tag k="name" v="Knatten" />
		<tag k="natural" v="cape" />
		<tag k="ssr:stedsnr" v="464597" />
	</node>
	<node lat="58.45205833697867" lon="5.987647220093639" id="-1371">
		<tag k="alt_name" v="Lyngsholmen" />
		<tag k="name" v="Lyngholmen" />
		<tag k="place" v="islet" />
		<tag k="ssr:stedsnr" v="360876" />
	</node>
	<node lat="58.45496388926274" lon="5.985050006388152" id="-1372">
		<tag k="name" v="Flatholmen" />
		<tag k="place" v="islet" />
		<tag k="ssr:stedsnr" v="360878" />
	</node>
	<node lat="58.37305833044485" lon="6.027500003279712" id="-1374">
		<tag k="name" v="Kletten" />
		<tag k="natural" v="shoal" />
		<tag k="place" v="locality" />
		<tag k="ssr:stedsnr" v="361216" />
	</node>
	<node lat="58.476552780037835" lon="5.861966662593767" id="-1380">
		<tag k="name" v="Persteinen" />
		<tag k="place" v="locality" />
		<tag k="seamark:type" v="rock" />
		<tag k="ssr:stedsnr" v="464733" />
	</node>
	<node lat="58.4711888904506" lon="5.864297214416138" id="-1381">
		<tag k="name" v="Mastraodden" />
		<tag k="natural" v="cape" />
		<tag k="ssr:stedsnr" v="464735" />
	</node>
	<node lat="58.41983333581327" lon="5.944411114243465" id="-1382">
		<tag k="fixme" v="consider seamark:type=rock or natural=shoal" />
		<tag k="name" v="Knappane" />
		<tag k="place" v="islet" />
		<tag k="ssr:stedsnr" v="362315" />
	</node>
	<node lat="58.46673888506699" lon="5.919447223688434" id="-1383">
		<tag k="name" v="Sirevågneset" />
		<tag k="natural" v="cape" />
		<tag k="ssr:stedsnr" v="464976" />
	</node>
	<node lat="58.46825555610336" lon="5.92191944103554" id="-1384">
		<tag k="alt_name" v="Myklebustvågen" />
		<tag k="name" v="Myglebostvågen" />
		<tag k="natural" v="bay" />
		<tag k="ssr:stedsnr" v="464981" />
	</node>
	<node lat="58.46199166414773" lon="5.918180549390796" id="-1388">
		<tag k="name" v="Sønstøberget" />
		<tag k="natural" v="cape" />
		<tag k="ssr:stedsnr" v="464947" />
	</node>
	<node lat="58.44132500264051" lon="5.93147222763359" id="-1390">
		<tag k="name" v="Stiflua" />
		<tag k="natural" v="shoal" />
		<tag k="place" v="locality" />
		<tag k="ssr:stedsnr" v="464958" />
	</node>
	<node lat="58.46251110799064" lon="5.99736111315977" id="-1408">
		<tag k="alt_name" v="Eidebukta" />
		<tag k="name" v="Eideviga" />
		<tag k="natural" v="bay" />
		<tag k="ssr:stedsnr" v="465841" />
	</node>
	<node lat="58.47171944024368" lon="5.865802773081399" id="-1414">
		<tag k="name" v="Mastrasanden" />
		<tag k="natural" v="beach" />
		<tag k="ssr:stedsnr" v="466642" />
	</node>
	<node lat="58.450345954501245" lon="5.977833598985058" id="-1415">
		<tag k="name" v="Kongsholmen" />
		<tag k="place" v="islet" />
		<tag k="ssr:stedsnr" v="466783" />
	</node>
	<node lat="58.39584688551153" lon="5.967308449439966" id="-1423">
		<tag k="name" v="Litle Svetlingen" />
		<tag k="place" v="islet" />
		<tag k="ssr:stedsnr" v="384904" />
	</node>
	<node lat="58.35136944738053" lon="5.9992333354940595" id="-1448">
		<tag k="name" v="Klettegrunnen" />
		<tag k="natural" v="shoal" />
		<tag k="place" v="locality" />
		<tag k="ssr:stedsnr" v="403196" />
	</node>
	<node lat="58.47122778137126" lon="5.961355551526703" id="-1449">
		<tag k="name" v="Leidlandslega" />
		<tag k="natural" v="bay" />
		<tag k="ssr:stedsnr" v="403990" />
	</node>
	<node lat="58.43624444496267" lon="6.009694447352822" id="-1451">
		<tag k="name" v="Indre Lygre" />
		<tag k="natural" v="bay" />
		<tag k="ssr:stedsnr" v="404267" />
	</node>
	<node lat="58.389177778208705" lon="5.9205611078819995" id="-1460">
		<tag k="name" v="Kjesholmgrunnen" />
		<tag k="natural" v="shoal" />
		<tag k="place" v="locality" />
		<tag k="ssr:stedsnr" v="405294" />
	</node>
	<node lat="58.44016201635582" lon="5.864568678080356" id="-1461">
		<tag k="alt_name" v="Strålsundet" />
		<tag k="name" v="Strålaugsundet" />
		<tag k="natural" v="strait" />
		<tag k="ssr:stedsnr" v="405815" />
	</node>
	<node lat="58.46011666360051" lon="5.867658328706783" id="-1464">
		<tag k="fixme" v="consider seamark:type=rock or natural=shoal" />
		<tag k="name" v="Toskaskjeret" />
		<tag k="place" v="islet" />
		<tag k="ssr:stedsnr" v="406613" />
	</node>
	<node lat="58.46466111170928" lon="5.87552222726267" id="-1465">
		<tag k="name" v="Sundsgapodden" />
		<tag k="natural" v="cape" />
		<tag k="ssr:stedsnr" v="406614" />
	</node>
	<node lat="58.43486388652132" lon="5.989502782707408" id="-1470">
		<tag k="name" v="Søra Sundet" />
		<tag k="natural" v="strait" />
		<tag k="ssr:stedsnr" v="406726" />
	</node>
	<node lat="58.43824999723933" lon="5.990147219833199" id="-1473">
		<tag k="name" v="Franskmannen" />
		<tag k="natural" v="cape" />
		<tag k="ssr:stedsnr" v="479376" />
	</node>
	<node lat="58.46513333283584" lon="5.841613884138834" id="-1474">
		<tag k="name" v="Skreddaren" />
		<tag k="natural" v="shoal" />
		<tag k="place" v="locality" />
		<tag k="ssr:stedsnr" v="419507" />
	</node>
	<node lat="58.42456944031008" lon="5.877122222536237" id="-1479">
		<tag k="name" v="Råsholmsundet" />
		<tag k="natural" v="strait" />
		<tag k="ssr:stedsnr" v="422917" />
	</node>
	<node lat="58.41829444446289" lon="6.005736106243665" id="-1481">
		<tag k="name" v="Svartetangen" />
		<tag k="natural" v="cape" />
		<tag k="ssr:stedsnr" v="423753" />
	</node>
	<node lat="58.4166527767072" lon="5.961563892654385" id="-1482">
		<tag k="name" v="Drengen" />
		<tag k="place" v="islet" />
		<tag k="ssr:stedsnr" v="423758" />
	</node>
	<node lat="58.39818921825055" lon="5.969277979871026" id="-1497">
		<tag k="name" v="Svetlingan" />
		<tag k="place" v="islet" />
		<tag k="ssr:stedsnr" v="425758" />
	</node>
	<node lat="58.40347499597895" lon="6.015574993289057" id="-1498">
		<tag k="fixme" v="consider seamark:type=rock or natural=shoal" />
		<tag k="name" v="Grødstø" />
		<tag k="place" v="islet" />
		<tag k="ssr:stedsnr" v="425763" />
	</node>
	<node lat="58.365813888551386" lon="6.092380557156276" id="-1504">
		<tag k="name" v="Skodasundsholman" />
		<tag k="place" v="islet" />
		<tag k="ssr:stedsnr" v="425959" />
	</node>
	<node lat="58.38595833102864" lon="6.0310583413198575" id="-1524">
		<tag k="alt_name" v="Kalvanes" />
		<tag k="name" v="Kalvaneset" />
		<tag k="natural" v="cape" />
		<tag k="ssr:stedsnr" v="662586" />
	</node>
	<node lat="58.429414072320625" lon="6.010574128416903" id="-1531">
		<tag k="alt_name" v="Rappestadneset" />
		<tag k="name" v="Rappstadneset" />
		<tag k="natural" v="cape" />
		<tag k="ssr:stedsnr" v="663565" />
	</node>
	<node lat="58.46682397121286" lon="5.858357557565977" id="-1532">
		<tag k="name" v="Hamnagabet" />
		<tag k="natural" v="bay" />
		<tag k="ssr:stedsnr" v="663762" />
	</node>
	<node lat="58.41488456418037" lon="5.98305674941166" id="-1537">
		<tag k="fixme" v="consider seamark:type=rock or natural=shoal" />
		<tag k="name" v="Regevigflua" />
		<tag k="place" v="islet" />
		<tag k="ssr:stedsnr" v="464603" />
	</node>
	<node lat="58.45018888580309" lon="5.886861113392603" id="-1539">
		<tag k="name" v="Laksholmen" />
		<tag k="place" v="islet" />
		<tag k="ssr:stedsnr" v="464824" />
	</node>
	<node lat="58.38848888816411" lon="6.027105558852782" id="-1541">
		<tag k="name" v="Nerdalsodden" />
		<tag k="natural" v="cape" />
		<tag k="ssr:stedsnr" v="465315" />
	</node>
	<node lat="58.431222224311725" lon="5.907205557045737" id="-1544">
		<tag k="name" v="Storetåa" />
		<tag k="natural" v="cape" />
		<tag k="ssr:stedsnr" v="465813" />
	</node>
	<node lat="58.43343888932664" lon="5.819338885090441" id="-1545">
		<tag k="name" v="Øyagrunnen" />
		<tag k="natural" v="shoal" />
		<tag k="place" v="locality" />
		<tag k="ssr:stedsnr" v="465785" />
	</node>
	<node lat="58.421438893137214" lon="5.942813884519834" id="-1553">
		<tag k="name" v="Saltholmane" />
		<tag k="place" v="islet" />
		<tag k="ssr:stedsnr" v="665341" />
	</node>
	<node lat="58.42783332920807" lon="5.9395861146579385" id="-1555">
		<tag k="name" v="Seiaviga" />
		<tag k="natural" v="bay" />
		<tag k="ssr:stedsnr" v="665354" />
	</node>
	<node lat="58.39506111042508" lon="6.022650003117987" id="-1560">
		<tag k="fixme" v="consider seamark:type=rock or natural=shoal" />
		<tag k="name" v="Stolen" />
		<tag k="place" v="islet" />
		<tag k="ssr:stedsnr" v="480607" />
	</node>
	<node lat="58.46850186302338" lon="5.853666364109572" id="-1561">
		<tag k="name" v="Seilsteinflua" />
		<tag k="place" v="locality" />
		<tag k="seamark:type" v="rock" />
		<tag k="ssr:stedsnr" v="481722" />
	</node>
	<node lat="58.47360629936748" lon="5.853100888003062" id="-1562">
		<tag k="name" v="Hobmannen" />
		<tag k="place" v="locality" />
		<tag k="seamark:type" v="rock" />
		<tag k="ssr:stedsnr" v="481725" />
	</node>
	<node lat="58.453247217753855" lon="5.887672216112931" id="-1565">
		<tag k="alt_name" v="Ruskeskjer" />
		<tag k="fixme" v="consider seamark:type=rock or natural=shoal" />
		<tag k="name" v="Ruskeskjeret" />
		<tag k="place" v="islet" />
		<tag k="ssr:stedsnr" v="482620" />
	</node>
	<node lat="58.41970244514935" lon="6.014143061005196" id="-1568">
		<tag k="name" v="Lyngneset" />
		<tag k="natural" v="cape" />
		<tag k="ssr:stedsnr" v="482985" />
	</node>
	<node lat="58.428774999458156" lon="5.935394440445619" id="-1571">
		<tag k="name" v="Lassaholmflua" />
		<tag k="natural" v="shoal" />
		<tag k="place" v="locality" />
		<tag k="ssr:stedsnr" v="483335" />
	</node>
	<node lat="58.461880554404615" lon="5.875474991582475" id="-1574">
		<tag k="name" v="Sundsgabholmen" />
		<tag k="place" v="islet" />
		<tag k="ssr:stedsnr" v="485589" />
	</node>
	<node lat="58.46370000028228" lon="5.976324997674663" id="-1577">
		<tag k="name" v="Asprøya" />
		<tag k="place" v="islet" />
		<tag k="ssr:stedsnr" v="485603" />
	</node>
	<node lat="58.37825278141777" lon="6.056224995307365" id="-1586">
		<tag k="name" v="Palleskjeret" />
		<tag k="place" v="islet" />
		<tag k="ssr:stedsnr" v="485980" />
	</node>
	<node lat="58.46521666594621" lon="5.9294833250029955" id="-1636">
		<tag k="name" v="Krågodden" />
		<tag k="natural" v="cape" />
		<tag k="ssr:stedsnr" v="524571" />
	</node>
	<node lat="58.40992499967046" lon="5.970391672434744" id="-1637">
		<tag k="alt_name" v="Størevik" />
		<tag k="name" v="Storeviga" />
		<tag k="natural" v="bay" />
		<tag k="ssr:stedsnr" v="525603" />
	</node>
	<node lat="58.4685111096166" lon="5.960913881677256" id="-1638">
		<tag k="alt_name" v="Søndre Napparen" />
		<tag k="name" v="Søre Napparen" />
		<tag k="place" v="islet" />
		<tag k="ssr:stedsnr" v="525574" />
	</node>
	<node lat="58.44776389197852" lon="5.904375005770837" id="-1641">
		<tag k="alt_name" v="Østelvik" />
		<tag k="name" v="Tårnesbukta" />
		<tag k="natural" v="bay" />
		<tag k="ssr:stedsnr" v="525812" />
	</node>
	<node lat="58.44282805543502" lon="5.889501807670115" id="-1642">
		<tag k="name" v="Segleimstranda" />
		<tag k="natural" v="beach" />
		<tag k="ssr:stedsnr" v="525816" />
	</node>
	<node lat="58.40861389212423" lon="5.979227773101568" id="-1643">
		<tag k="name" v="Skotasundet" />
		<tag k="natural" v="strait" />
		<tag k="ssr:stedsnr" v="525887" />
	</node>
	<node lat="58.42864444875801" lon="5.981844446886879" id="-1644">
		<tag k="name" v="Sundstø" />
		<tag k="natural" v="bay" />
		<tag k="ssr:stedsnr" v="525892" />
	</node>
	<node lat="58.437819444731126" lon="5.936269447818669" id="-1645">
		<tag k="name" v="Djupeodden" />
		<tag k="natural" v="cape" />
		<tag k="ssr:stedsnr" v="525973" />
	</node>
	<node lat="58.45223610779657" lon="5.917955554028305" id="-1646">
		<tag k="name" v="Padlodden" />
		<tag k="natural" v="cape" />
		<tag k="ssr:stedsnr" v="525977" />
	</node>
	<node lat="58.42612222087916" lon="5.867786115189425" id="-1647">
		<tag k="name" v="Ådneflu" />
		<tag k="natural" v="shoal" />
		<tag k="place" v="locality" />
		<tag k="ssr:stedsnr" v="526806" />
	</node>
	<node lat="58.38458889068339" lon="6.03491388375853" id="-1648">
		<tag k="name" v="Grønevik" />
		<tag k="natural" v="bay" />
		<tag k="ssr:stedsnr" v="527114" />
	</node>
	<node lat="58.434175002645034" lon="5.8902722186747996" id="-1649">
		<tag k="name" v="Strusvågen" />
		<tag k="natural" v="bay" />
		<tag k="ssr:stedsnr" v="527631" />
	</node>
	<node lat="58.43776667094068" lon="5.989888889001871" id="-1650">
		<tag k="name" v="Breivik" />
		<tag k="natural" v="bay" />
		<tag k="ssr:stedsnr" v="527751" />
	</node>
	<node lat="58.43775833549172" lon="5.989830560605018" id="-1655">
		<tag k="name" v="Rytterviga" />
		<tag k="natural" v="bay" />
		<tag k="ssr:stedsnr" v="540372" />
	</node>
	<node lat="58.38939444870271" lon="6.026130547582564" id="-1656">
		<tag k="alt_name" v="Kalvhagsbukta" />
		<tag k="name" v="Kalhagbukta" />
		<tag k="natural" v="bay" />
		<tag k="ssr:stedsnr" v="540575" />
	</node>
	<node lat="58.42859167050469" lon="5.865200005347905" id="-1661">
		<tag k="fixme" v="consider seamark:type=rock or natural=shoal" />
		<tag k="name" v="Sjedlesskjer" />
		<tag k="place" v="islet" />
		<tag k="ssr:stedsnr" v="543891" />
	</node>
	<node lat="58.43978055421098" lon="5.861802769619258" id="-1680">
		<tag k="name" v="Strålaug" />
		<tag k="place" v="islet" />
		<tag k="ssr:stedsnr" v="546837" />
	</node>
	<node lat="58.42545000278146" lon="5.886980548433196" id="-1682">
		<tag k="name" v="Krossvig" />
		<tag k="natural" v="bay" />
		<tag k="ssr:stedsnr" v="546782" />
	</node>
	<node lat="58.46694444315961" lon="5.935277784125039" id="-1683">
		<tag k="name" v="Skjelbreidlega" />
		<tag k="natural" v="beach" />
		<tag k="ssr:stedsnr" v="567910" />
	</node>
	<node lat="58.42248889079517" lon="5.9840416674655375" id="-1710">
		<tag k="name" v="Fiskarviga" />
		<tag k="natural" v="bay" />
		<tag k="ssr:stedsnr" v="585561" />
	</node>
	<node lat="58.413366663248325" lon="5.973433338666662" id="-1711">
		<tag k="name" v="Nordre Odden" />
		<tag k="natural" v="cape" />
		<tag k="ssr:stedsnr" v="585567" />
	</node>
	<node lat="58.411941669624554" lon="5.973949991247716" id="-1712">
		<tag k="name" v="Risholmen" />
		<tag k="place" v="islet" />
		<tag k="ssr:stedsnr" v="585569" />
	</node>
	<node lat="58.404755558411225" lon="5.977169438512151" id="-1713">
		<tag k="name" v="Vardaflua" />
		<tag k="natural" v="shoal" />
		<tag k="place" v="locality" />
		<tag k="ssr:stedsnr" v="585602" />
	</node>
	<node lat="58.45202499902102" lon="5.891741662963437" id="-1715">
		<tag k="name" v="Manneviga" />
		<tag k="natural" v="bay" />
		<tag k="ssr:stedsnr" v="585807" />
	</node>
	<node lat="58.42771762293136" lon="5.876150434068367" id="-1716">
		<tag k="alt_name" v="Hamnavika" />
		<tag k="name" v="Hamnaviga" />
		<tag k="natural" v="bay" />
		<tag k="ssr:stedsnr" v="586953" />
	</node>
	<node lat="58.44876666374193" lon="5.891280556973437" id="-1719">
		<tag k="name" v="Stora Prysevik" />
		<tag k="natural" v="bay" />
		<tag k="ssr:stedsnr" v="587614" />
	</node>
	<node lat="58.45366944468806" lon="5.864469442583034" id="-1723">
		<tag k="name" v="Svartholmflua" />
		<tag k="natural" v="shoal" />
		<tag k="place" v="locality" />
		<tag k="ssr:stedsnr" v="588675" />
	</node>
	<node lat="58.42651389108699" lon="5.903449992341788" id="-1728">
		<tag k="name" v="Kistodden" />
		<tag k="natural" v="cape" />
		<tag k="ssr:stedsnr" v="603964" />
	</node>
	<node lat="58.43299999937021" lon="5.907436102818446" id="-1729">
		<tag k="alt_name" v="Garnholmen" />
		<tag k="name" v="Gatholmen" />
		<tag k="place" v="islet" />
		<tag k="ssr:stedsnr" v="603969" />
	</node>
	<node lat="58.430394445635415" lon="5.932511112233213" id="-1736">
		<tag k="name" v="Kanneflua" />
		<tag k="natural" v="shoal" />
		<tag k="place" v="locality" />
		<tag k="ssr:stedsnr" v="604309" />
	</node>
	<node lat="58.42334333315122" lon="5.942610195764628" id="-1753">
		<tag k="name" v="Vardsgapet" />
		<tag k="natural" v="bay" />
		<tag k="ssr:stedsnr" v="688919" />
	</node>
	<node lat="58.46666666708332" lon="5.933333328391016" id="-1754">
		<tag k="name" v="Nordra Sundet" />
		<tag k="natural" v="strait" />
		<tag k="ssr:stedsnr" v="688925" />
	</node>
	<node lat="58.4674916692576" lon="5.981291663605576" id="-1804">
		<tag k="name" v="Launessundet" />
		<tag k="natural" v="strait" />
		<tag k="ssr:stedsnr" v="646582" />
	</node>
	<node lat="58.41383611329728" lon="5.982949995458814" id="-1806">
		<tag k="alt_name" v="Svarteskjera" />
		<tag k="fixme" v="consider seamark:type=rock or natural=shoal" />
		<tag k="name" v="Svarteskjeri" />
		<tag k="place" v="islet" />
		<tag k="ssr:stedsnr" v="646604" />
	</node>
	<node lat="58.43890278207036" lon="5.97891944308724" id="-1810">
		<tag k="name" v="Ragaskjerflua" />
		<tag k="place" v="locality" />
		<tag k="seamark:type" v="rock" />
		<tag k="ssr:stedsnr" v="646892" />
	</node>
	<node lat="58.46516388933502" lon="5.858272225833932" id="-1818">
		<tag k="name" v="Karpursundet" />
		<tag k="natural" v="strait" />
		<tag k="ssr:stedsnr" v="648621" />
	</node>
	<node lat="58.38356666530571" lon="6.061913886773165" id="-1829">
		<tag k="name" v="Nålaugpollen" />
		<tag k="natural" v="bay" />
		<tag k="ssr:stedsnr" v="662043" />
	</node>
	<node lat="58.472350002211" lon="5.8481888823131545" id="-1830">
		<tag k="name" v="Store Skjerpingen" />
		<tag k="place" v="islet" />
		<tag k="ssr:stedsnr" v="663740" />
	</node>
	<node lat="58.46917499619187" lon="5.9212805604579" id="-1845">
		<tag k="name" v="Litla Sirevåg" />
		<tag k="natural" v="bay" />
		<tag k="ssr:stedsnr" v="667586" />
	</node>
	<node lat="58.41027499902704" lon="5.982924999900758" id="-1849">
		<tag k="name" v="Drevsundet" />
		<tag k="natural" v="strait" />
		<tag k="ssr:stedsnr" v="667723" />
	</node>
	<node lat="58.410055779226525" lon="5.985988734831542" id="-1850">
		<tag k="name" v="Skarvøyholmen" />
		<tag k="place" v="islet" />
		<tag k="ssr:stedsnr" v="667724" />
	</node>
	<node lat="58.443250000212466" lon="5.982349995103551" id="-1852">
		<tag k="name" v="Kaubaneset" />
		<tag k="natural" v="cape" />
		<tag k="ssr:stedsnr" v="667804" />
	</node>
	<node lat="58.363866666107626" lon="6.099244443604403" id="-1889">
		<tag k="name" v="Tuvågen" />
		<tag k="natural" v="bay" />
		<tag k="ssr:stedsnr" v="706110" />
	</node>
	<node lat="58.36526388858533" lon="6.095538886863571" id="-1894">
		<tag k="name" v="Flæet" />
		<tag k="natural" v="bay" />
		<tag k="ssr:stedsnr" v="707222" />
	</node>
	<node lat="58.4695416629114" lon="5.969933339150075" id="-1897">
		<tag k="name" v="Kjønndalsvika" />
		<tag k="natural" v="bay" />
		<tag k="ssr:stedsnr" v="707571" />
	</node>
	<node lat="58.44805555720173" lon="5.932566664153545" id="-1901">
		<tag k="name" v="Sandvigsundet" />
		<tag k="natural" v="strait" />
		<tag k="ssr:stedsnr" v="707966" />
	</node>
	<node lat="58.37722499742804" lon="6.033958329130205" id="-1902">
		<tag k="name" v="Stiksflua" />
		<tag k="natural" v="shoal" />
		<tag k="place" v="locality" />
		<tag k="ssr:stedsnr" v="708329" />
	</node>
	<node lat="58.41938055422212" lon="5.989919450865259" id="-1903">
		<tag k="name" v="Vibberodden" />
		<tag k="place" v="islet" />
		<tag k="ssr:stedsnr" v="708624" />
	</node>
	<node lat="58.466347220818925" lon="5.902491663000463" id="-1909">
		<tag k="name" v="Litle Navarsanden" />
		<tag k="natural" v="beach" />
		<tag k="ssr:stedsnr" v="709611" />
	</node>
	<node lat="58.4635159661913" lon="5.972090775324793" id="-1920">
		<tag k="name" v="Nordre Krossvikbukta" />
		<tag k="natural" v="bay" />
		<tag k="ssr:stedsnr" v="889542" />
	</node>
	<node lat="58.40951944748979" lon="5.985511112687762" id="-1921">
		<tag k="name" v="Siholmen" />
		<tag k="place" v="islet" />
		<tag k="ssr:stedsnr" v="889576" />
	</node>
	<node lat="58.41521667075158" lon="5.980161111149806" id="-1922">
		<tag k="name" v="Vandringshamna" />
		<tag k="natural" v="bay" />
		<tag k="ssr:stedsnr" v="889578" />
	</node>
	<node lat="58.40413055687786" lon="5.964811116446096" id="-1924">
		<tag k="name" v="Brynnesfluene" />
		<tag k="natural" v="shoal" />
		<tag k="place" v="locality" />
		<tag k="ssr:stedsnr" v="889591" />
	</node>
	<node lat="58.454380552013845" lon="5.889938890635402" id="-1930">
		<tag k="name" v="Ruskodden" />
		<tag k="natural" v="cape" />
		<tag k="ssr:stedsnr" v="725574" />
	</node>
	<node lat="58.40515833550414" lon="6.0145972256226266" id="-1936">
		<tag k="name" v="Langholmen" />
		<tag k="place" v="islet" />
		<tag k="ssr:stedsnr" v="726729" />
	</node>
	<node lat="58.46613889107585" lon="5.847430551463586" id="-1940">
		<tag k="name" v="Øyaflua" />
		<tag k="place" v="locality" />
		<tag k="seamark:type" v="rock" />
		<tag k="ssr:stedsnr" v="890791" />
	</node>
	<node lat="58.41587499593874" lon="5.967050004375543" id="-1942">
		<tag k="name" v="Gardaviga" />
		<tag k="natural" v="bay" />
		<tag k="ssr:stedsnr" v="728755" />
	</node>
	<node lat="58.448600001625685" lon="5.909280563291298" id="-1950">
		<tag k="name" v="Seiholmen" />
		<tag k="place" v="islet" />
		<tag k="ssr:stedsnr" v="728836" />
	</node>
	<node lat="58.43641666360202" lon="5.934747223412749" id="-1954">
		<tag k="alt_name" v="Stølsvikholmen" />
		<tag k="name" v="Stølsvigholmen" />
		<tag k="place" v="islet" />
		<tag k="ssr:stedsnr" v="890985" />
	</node>
	<node lat="58.45993055808176" lon="5.857413882702067" id="-1959">
		<tag k="name" v="Sundsgabflua" />
		<tag k="natural" v="shoal" />
		<tag k="place" v="locality" />
		<tag k="ssr:stedsnr" v="892652" />
	</node>
	<node lat="58.39507222628229" lon="6.009966663277112" id="-1963">
		<tag k="name" v="Isakflua" />
		<tag k="natural" v="shoal" />
		<tag k="place" v="locality" />
		<tag k="ssr:stedsnr" v="749916" />
	</node>
	<node lat="58.4626083365761" lon="5.994900007999825" id="-1988">
		<tag k="name" v="Danielsodden" />
		<tag k="natural" v="cape" />
		<tag k="ssr:stedsnr" v="767559" />
	</node>
	<node lat="58.41076666844937" lon="5.956619442474813" id="-1990">
		<tag k="fixme" v="consider seamark:type=rock or natural=shoal" />
		<tag k="name" v="Skarvasteinen" />
		<tag k="place" v="islet" />
		<tag k="ssr:stedsnr" v="767616" />
	</node>
	<node lat="58.44851388878246" lon="5.88817777552631" id="-1991">
		<tag k="name" v="Krekbærholmen" />
		<tag k="place" v="islet" />
		<tag k="ssr:stedsnr" v="767828" />
	</node>
	<node lat="58.477452778083155" lon="5.877105555850698" id="-1996">
		<tag k="name" v="Asserodden" />
		<tag k="natural" v="cape" />
		<tag k="ssr:stedsnr" v="768757" />
	</node>
	<node lat="58.399233337818764" lon="5.969519449426607" id="-1997">
		<tag k="fixme" v="consider seamark:type=rock or natural=shoal" />
		<tag k="name" v="Store Svetlingen" />
		<tag k="place" v="islet" />
		<tag k="ssr:stedsnr" v="768908" />
	</node>
	<node lat="58.47034999786082" lon="5.864569437555005" id="-2001">
		<tag k="name" v="Varavika" />
		<tag k="natural" v="strait" />
		<tag k="ssr:stedsnr" v="769613" />
	</node>
	<node lat="58.475095960837585" lon="5.992550035904523" id="-2002">
		<tag k="name" v="Kremmarviga" />
		<tag k="natural" v="bay" />
		<tag k="ssr:stedsnr" v="769808" />
	</node>
	<node lat="58.42182305232131" lon="5.994876801988938" id="-2006">
		<tag k="name" v="Musavigene" />
		<tag k="natural" v="bay" />
		<tag k="ssr:stedsnr" v="770721" />
	</node>
	<node lat="58.37407777755327" lon="6.071291667483457" id="-2007">
		<tag k="name" v="Håskjervika" />
		<tag k="natural" v="bay" />
		<tag k="ssr:stedsnr" v="783018" />
	</node>
	<node lat="58.47964444144544" lon="5.857263892384298" id="-2009">
		<tag k="name" v="Store Sandviga" />
		<tag k="natural" v="bay" />
		<tag k="ssr:stedsnr" v="783509" />
	</node>
	<node lat="58.458052775899745" lon="5.8801999969444445" id="-2010">
		<tag k="fixme" v="consider seamark:type=rock or natural=shoal" />
		<tag k="name" v="Rauvi" />
		<tag k="place" v="islet" />
		<tag k="ssr:stedsnr" v="785603" />
	</node>
	<node lat="58.45981666576872" lon="5.882136102879301" id="-2011">
		<tag k="name" v="Store Letresundholmen" />
		<tag k="place" v="islet" />
		<tag k="ssr:stedsnr" v="785605" />
	</node>
	<node lat="58.4290972251014" lon="5.865208337509135" id="-2013">
		<tag k="name" v="Sjedlesvika" />
		<tag k="natural" v="bay" />
		<tag k="ssr:stedsnr" v="785915" />
	</node>
	<node lat="58.4248527770389" lon="5.881330560646979" id="-2014">
		<tag k="fixme" v="consider seamark:type=rock or natural=shoal" />
		<tag k="name" v="Småskjeret" />
		<tag k="place" v="islet" />
		<tag k="ssr:stedsnr" v="785919" />
	</node>
	<node lat="58.4310759903769" lon="5.936037306629882" id="-2017">
		<tag k="name" v="Nordre Lassaholmen" />
		<tag k="place" v="islet" />
		<tag k="ssr:stedsnr" v="787317" />
	</node>
	<node lat="58.42944167017017" lon="5.936244449466697" id="-2018">
		<tag k="alt_name" v="Søndre Lassaholmen" />
		<tag k="name" v="Søre Lassaholmen" />
		<tag k="place" v="islet" />
		<tag k="ssr:stedsnr" v="787318" />
	</node>
	<node lat="58.42338333096377" lon="5.932041663759381" id="-2019">
		<tag k="name" v="Søre Langholmflua" />
		<tag k="natural" v="shoal" />
		<tag k="place" v="locality" />
		<tag k="ssr:stedsnr" v="787321" />
	</node>
	<node lat="58.45055000394323" lon="5.900725004436941" id="-2032">
		<tag k="name" v="Samslått" />
		<tag k="place" v="islet" />
		<tag k="ssr:stedsnr" v="789865" />
	</node>
	<node lat="58.45255555464803" lon="5.920899997843894" id="-2034">
		<tag k="name" v="Økseneset" />
		<tag k="natural" v="cape" />
		<tag k="ssr:stedsnr" v="789871" />
	</node>
	<node lat="58.385447219942535" lon="6.034199994280442" id="-2044">
		<tag k="alt_name" v="Vigagabholmen" />
		<tag k="name" v="Vikagapholmen" />
		<tag k="place" v="islet" />
		<tag k="ssr:stedsnr" v="905582" />
	</node>
	<node lat="58.415941667579496" lon="6.0102583290988685" id="-2070">
		<tag k="name" v="Larselodden" />
		<tag k="natural" v="cape" />
		<tag k="ssr:stedsnr" v="907500" />
	</node>
	<node lat="58.434144440333064" lon="5.933744448912067" id="-2075">
		<tag k="name" v="Mortaflua" />
		<tag k="natural" v="shoal" />
		<tag k="place" v="locality" />
		<tag k="ssr:stedsnr" v="908327" />
	</node>
	<node lat="58.44611388577209" lon="5.876755549507983" id="-2081">
		<tag k="fixme" v="consider seamark:type=rock or natural=shoal" />
		<tag k="name" v="Skrabeskjeret" />
		<tag k="place" v="islet" />
		<tag k="ssr:stedsnr" v="828571" />
	</node>
	<node lat="58.41221666930705" lon="5.974869439569475" id="-2082">
		<tag k="name" v="Grønebukta" />
		<tag k="natural" v="bay" />
		<tag k="ssr:stedsnr" v="829617" />
	</node>
	<node lat="58.41749418696894" lon="5.983278250093274" id="-2083">
		<tag k="alt_name" v="Regevigskjera" />
		<tag k="name" v="Regevigholmane" />
		<tag k="place" v="islet" />
		<tag k="ssr:stedsnr" v="829624" />
	</node>
	<node lat="58.44589166429653" lon="5.879819447473741" id="-2084">
		<tag k="name" v="Knappodden" />
		<tag k="natural" v="cape" />
		<tag k="ssr:stedsnr" v="829810" />
	</node>
	<node lat="58.37245278138156" lon="6.079133332423835" id="-2086">
		<tag k="name" v="Krossen" />
		<tag k="natural" v="cape" />
		<tag k="ssr:stedsnr" v="829976" />
	</node>
	<node lat="58.46376110827827" lon="5.879547214377458" id="-2087">
		<tag k="alt_name" v="Sundsgapet" />
		<tag k="bay" v="fjord" />
		<tag k="name" v="Sundsgabet" />
		<tag k="natural" v="bay" />
		<tag k="ssr:stedsnr" v="830791" />
	</node>
	<node lat="58.457583333860995" lon="5.881655550660235" id="-2088">
		<tag k="alt_name" v="Svarteholmen" />
		<tag k="name" v="Svartholman" />
		<tag k="place" v="islet" />
		<tag k="ssr:stedsnr" v="830792" />
	</node>
	<node lat="58.45687777604262" lon="5.85203054786933" id="-2096">
		<tag k="bay" v="fjord" />
		<tag k="name" v="Nordragabet" />
		<tag k="natural" v="bay" />
		<tag k="ssr:stedsnr" v="910637" />
	</node>
	<node lat="58.42328055358191" lon="5.874424999055696" id="-2103">
		<tag k="alt_name" v="Nordre Rosholman" />
		<tag k="name" v="Rosholman" />
		<tag k="place" v="islet" />
		<tag k="ssr:stedsnr" v="910801" />
	</node>
	<node lat="58.434629357056764" lon="5.884949943496869" id="-2118">
		<tag k="name" v="Seksarvågen" />
		<tag k="natural" v="bay" />
		<tag k="ssr:stedsnr" v="911829" />
	</node>
	<node lat="58.359472225793134" lon="6.108052773773659" id="-2120">
		<tag k="name" v="Gråderen" />
		<tag k="natural" v="cape" />
		<tag k="ssr:stedsnr" v="846878" />
	</node>
	<node lat="58.432938885832726" lon="5.985855548625654" id="-2127">
		<tag k="name" v="Halsabukta" />
		<tag k="natural" v="bay" />
		<tag k="ssr:stedsnr" v="847480" />
	</node>
	<node lat="58.375583329763444" lon="6.041074998278804" id="-2150">
		<tag k="name" v="Svåholman" />
		<tag k="place" v="islet" />
		<tag k="ssr:stedsnr" v="870906" />
	</node>
	<node lat="58.41732392522979" lon="5.983697128574735" id="-2151">
		<tag k="loc_name" v="Store Regevigholmen" />
		<tag k="name" v="Store Rekevikholmen" />
		<tag k="place" v="islet" />
		<tag k="ssr:stedsnr" v="870915" />
	</node>
	<node lat="58.44485498293359" lon="5.869699239731513" id="-2170">
		<tag k="alt_name" v="Sorpodden" />
		<tag k="name" v="Surpodden" />
		<tag k="natural" v="cape" />
		<tag k="ssr:stedsnr" v="889816" />
	</node>
	<node lat="58.440041669716585" lon="5.882411107996217" id="-2171">
		<tag k="alt_name" v="Malmeskjeret" />
		<tag k="fixme" v="consider seamark:type=rock or natural=shoal" />
		<tag k="name" v="Malmeskjer" />
		<tag k="place" v="islet" />
		<tag k="ssr:stedsnr" v="889820" />
	</node>
	<node lat="58.4394944448547" lon="5.909472226163854" id="-2172">
		<tag k="name" v="Rekviga" />
		<tag k="natural" v="bay" />
		<tag k="ssr:stedsnr" v="889824" />
	</node>
	<node lat="58.4455694458055" lon="5.878322213665903" id="-2173">
		<tag k="name" v="Jødelviga" />
		<tag k="natural" v="bay" />
		<tag k="ssr:stedsnr" v="889796" />
	</node>
	<node lat="58.435963890594834" lon="5.878847226392622" id="-2174">
		<tag k="fixme" v="consider seamark:type=rock or natural=shoal" />
		<tag k="name" v="Raudaskjeret" />
		<tag k="place" v="islet" />
		<tag k="ssr:stedsnr" v="889798" />
	</node>
	<node lat="58.444291668478" lon="5.866933339391007" id="-2175">
		<tag k="name" v="Hodla" />
		<tag k="natural" v="shoal" />
		<tag k="place" v="locality" />
		<tag k="ssr:stedsnr" v="890000" />
	</node>
	<node lat="58.36665555450242" lon="6.092669438641156" id="-2176">
		<tag k="name" v="Skotasundet" />
		<tag k="natural" v="strait" />
		<tag k="ssr:stedsnr" v="890213" />
	</node>
	<node lat="58.41707500187726" lon="6.01239999777651" id="-2180">
		<tag k="alt_name" v="Skjevollsvika" />
		<tag k="name" v="Skjevollsviga" />
		<tag k="natural" v="bay" />
		<tag k="ssr:stedsnr" v="891357" />
	</node>
	<node lat="58.38583610907349" lon="6.017405554843364" id="-2181">
		<tag k="alt_name" v="Såvikgrunnen" />
		<tag k="name" v="Såviggrunnen" />
		<tag k="natural" v="shoal" />
		<tag k="place" v="locality" />
		<tag k="ssr:stedsnr" v="891358" />
	</node>
	<node lat="58.40117777434591" lon="6.018197224050873" id="-2182">
		<tag k="name" v="Grødstøfluene" />
		<tag k="place" v="locality" />
		<tag k="seamark:type" v="rock" />
		<tag k="ssr:stedsnr" v="891362" />
	</node>
	<node lat="58.44773888682448" lon="5.890722217608601" id="-2183">
		<tag k="name" v="Litla Prysevik" />
		<tag k="natural" v="bay" />
		<tag k="ssr:stedsnr" v="891605" />
	</node>
	<node lat="58.47087372446248" lon="5.855460505049286" id="-2190">
		<tag k="name" v="Knego" />
		<tag k="natural" v="shoal" />
		<tag k="place" v="locality" />
		<tag k="ssr:stedsnr" v="906755" />
	</node>
	<node lat="58.42824166331429" lon="5.9049749986659466" id="-2193">
		<tag k="alt_name" v="Vetjarvik" />
		<tag k="name" v="Vetjarviga" />
		<tag k="natural" v="bay" />
		<tag k="ssr:stedsnr" v="907956" />
	</node>
	<node lat="58.4140611144142" lon="6.006016666366061" id="-2201">
		<tag k="name" v="Geitodden" />
		<tag k="natural" v="cape" />
		<tag k="ssr:stedsnr" v="908754" />
	</node>
	<node lat="58.41640277830633" lon="5.9630527812497265" id="-2202">
		<tag k="name" v="Vallebergodden" />
		<tag k="natural" v="cape" />
		<tag k="ssr:stedsnr" v="908772" />
	</node>
	<node lat="58.38181944347593" lon="6.0624361187782245" id="-2245">
		<tag k="name" v="Tjeldholmane" />
		<tag k="place" v="islet" />
		<tag k="ssr:stedsnr" v="950210" />
	</node>
	<node lat="58.37012777635398" lon="6.0868249923716" id="-2246">
		<tag k="name" v="Seilbak" />
		<tag k="place" v="islet" />
		<tag k="ssr:stedsnr" v="950214" />
	</node>
	<node lat="58.41013332878896" lon="5.958677774074083" id="-2249">
		<tag k="name" v="Pelaberget" />
		<tag k="place" v="islet" />
		<tag k="ssr:stedsnr" v="950632" />
	</node>
	<node lat="58.42832785105639" lon="5.946824059349334" id="-2250">
		<tag k="name" v="Nordra Gunnarstø" />
		<tag k="natural" v="bay" />
		<tag k="ssr:stedsnr" v="950892" />
	</node>
	<node lat="58.45607499753878" lon="5.884936107503496" id="-2253">
		<tag k="alt_name" v="Gule Holmen" />
		<tag k="name" v="Guleholmen" />
		<tag k="place" v="islet" />
		<tag k="ssr:stedsnr" v="950990" />
	</node>
	<node lat="58.46659444478601" lon="5.898497218899009" id="-2256">
		<tag k="name" v="Store Navarsanden" />
		<tag k="natural" v="beach" />
		<tag k="ssr:stedsnr" v="952591" />
	</node>
	<node lat="58.46016666379973" lon="5.867750003745666" id="-2257">
		<tag k="fixme" v="consider seamark:type=rock or natural=shoal" />
		<tag k="name" v="Svarteskjeret" />
		<tag k="place" v="islet" />
		<tag k="ssr:stedsnr" v="952643" />
	</node>
	<node lat="58.41910277986958" lon="6.016722213499848" id="-2260">
		<tag k="name" v="Darviga" />
		<tag k="natural" v="bay" />
		<tag k="ssr:stedsnr" v="967504" />
	</node>
	<node lat="58.456033331540105" lon="5.88175000769285" id="-2261">
		<tag k="name" v="Skardaflua" />
		<tag k="natural" v="shoal" />
		<tag k="place" v="locality" />
		<tag k="ssr:stedsnr" v="967590" />
	</node>
	<node lat="58.45853888490314" lon="5.883927778834715" id="-2262">
		<tag k="name" v="Litle Letresundholmen" />
		<tag k="place" v="islet" />
		<tag k="ssr:stedsnr" v="967592" />
	</node>
	<node lat="58.450472225057524" lon="5.949097219882375" id="-2271">
		<tag k="name" v="Eigerøya" />
		<tag k="place" v="island" />
		<tag k="ssr:stedsnr" v="970706" />
	</node>
	<node lat="58.41923303984319" lon="6.011060545952243" id="-2274">
		<tag k="name" v="Mikkelsholmen" />
		<tag k="place" v="islet" />
		<tag k="ssr:stedsnr" v="977054" />
	</node>
	<node lat="58.46378055990332" lon="5.925730556077182" id="-2464">
		<tag k="name" v="Myklebuststronda" />
		<tag k="natural" v="beach" />
		<tag k="ssr:stedsnr" v="628" />
	</node>
	<node lat="58.47453888457543" lon="5.857608334474022" id="-2465">
		<tag k="bay" v="fjord" />
		<tag k="name" v="Marren" />
		<tag k="natural" v="bay" />
		<tag k="ssr:stedsnr" v="683" />
	</node>
	<node lat="58.44531944109087" lon="5.9324194393401" id="-2472">
		<tag k="fixme" v="consider seamark:type=rock or natural=shoal" />
		<tag k="name" v="Svartskjer" />
		<tag k="place" v="islet" />
		<tag k="ssr:stedsnr" v="841" />
	</node>
	<node lat="58.442847224296855" lon="5.872966673817502" id="-2474">
		<tag k="name" v="Midbrødøya" />
		<tag k="place" v="island" />
		<tag k="ssr:stedsnr" v="849" />
	</node>
	<node lat="58.37429166519355" lon="6.042430561399754" id="-2493">
		<tag k="name" v="Svåholmen" />
		<tag k="place" v="islet" />
		<tag k="ssr:stedsnr" v="978" />
	</node>
	<node lat="58.37145832923448" lon="6.09162500611128" id="-2495">
		<tag k="name" v="Juvvåg" />
		<tag k="natural" v="bay" />
		<tag k="ssr:stedsnr" v="983" />
	</node>
	<node lat="58.45037500101288" lon="5.991427773746693" id="-2499">
		<tag k="name" v="Lindøya" />
		<tag k="natural" v="peninsula" />
		<tag k="place" v="locality" />
		<tag k="ssr:stedsnr" v="20418" />
	</node>
	<node lat="58.43499999957853" lon="5.984722221768319" id="-2500">
		<tag k="name" v="Nordra Bruviki" />
		<tag k="natural" v="bay" />
		<tag k="ssr:stedsnr" v="20925" />
	</node>
	<node lat="58.3754649469821" lon="6.046733958204315" id="-2501">
		<tag k="name" v="Svåholmsundet" />
		<tag k="natural" v="strait" />
		<tag k="ssr:stedsnr" v="20928" />
	</node>
	<node lat="58.44098611512633" lon="5.859600008043874" id="-2534">
		<tag k="name" v="Strålauggrunnen" />
		<tag k="natural" v="shoal" />
		<tag k="place" v="locality" />
		<tag k="ssr:stedsnr" v="39996" />
	</node>
	<node lat="58.4757666704846" lon="5.993811106270679" id="-2550">
		<tag k="name" v="Tengsastranda" />
		<tag k="natural" v="cape" />
		<tag k="ssr:stedsnr" v="57775" />
	</node>
	<node lat="58.46768889035695" lon="5.872500004500379" id="-2554">
		<tag k="name" v="Flateholmen" />
		<tag k="place" v="islet" />
		<tag k="ssr:stedsnr" v="57756" />
	</node>
	<node lat="58.37841944091777" lon="6.056524996555879" id="-2555">
		<tag k="name" v="Skådasundsholmen" />
		<tag k="place" v="islet" />
		<tag k="ssr:stedsnr" v="58250" />
	</node>
	<node lat="58.44082500064569" lon="5.910080560819228" id="-2577">
		<tag k="name" v="Færevigholmen" />
		<tag k="place" v="islet" />
		<tag k="ssr:stedsnr" v="61832" />
	</node>
	<node lat="58.4326702381472" lon="5.934756288215071" id="-2583">
		<tag k="fixme" v="consider seamark:type=rock or natural=shoal" />
		<tag k="name" v="Ingeborgskjer" />
		<tag k="place" v="islet" />
		<tag k="ssr:stedsnr" v="61798" />
	</node>
	<node lat="58.45142049584796" lon="5.995975923757267" id="-2588">
		<tag k="name" v="Vågen" />
		<tag k="natural" v="bay" />
		<tag k="ssr:stedsnr" v="81446" />
	</node>
	<node lat="58.450144446265064" lon="5.98046666533555" id="-2629">
		<tag k="name" v="Svanavågodden" />
		<tag k="natural" v="cape" />
		<tag k="ssr:stedsnr" v="100588" />
	</node>
	<node lat="58.40489721900969" lon="5.958116667405938" id="-2630">
		<tag k="name" v="Torvaldflua" />
		<tag k="natural" v="shoal" />
		<tag k="place" v="locality" />
		<tag k="ssr:stedsnr" v="100599" />
	</node>
	<node lat="58.43393611200464" lon="5.87378333265093" id="-2631">
		<tag k="name" v="Engi" />
		<tag k="natural" v="bay" />
		<tag k="ssr:stedsnr" v="100776" />
	</node>
	<node lat="58.43711600278807" lon="5.909656481797046" id="-2632">
		<tag k="name" v="Litlehagen" />
		<tag k="natural" v="bay" />
		<tag k="ssr:stedsnr" v="100780" />
	</node>
	<node lat="58.44421666574262" lon="5.903400004491143" id="-2633">
		<tag k="alt_name" v="Midbrødstranda" />
		<tag k="name" v="Strondi" />
		<tag k="natural" v="beach" />
		<tag k="ssr:stedsnr" v="100784" />
	</node>
	<node lat="58.43463611411496" lon="5.878991659421453" id="-2637">
		<tag k="name" v="Kviaholmen" />
		<tag k="place" v="islet" />
		<tag k="ssr:stedsnr" v="101789" />
	</node>
	<node lat="58.42819721995417" lon="5.908413893118302" id="-2638">
		<tag k="name" v="Hestavigfluene" />
		<tag k="natural" v="shoal" />
		<tag k="place" v="locality" />
		<tag k="ssr:stedsnr" v="101795" />
	</node>
	<node lat="58.38961110831017" lon="6.02465833846281" id="-2647">
		<tag k="alt_name" v="Tenholmen" />
		<tag k="name" v="Ternholmen" />
		<tag k="place" v="islet" />
		<tag k="ssr:stedsnr" v="116573" />
	</node>
	<node lat="58.39604721885965" lon="6.022422226610579" id="-2648">
		<tag k="alt_name" v="Gråur" />
		<tag k="name" v="Gråurd" />
		<tag k="natural" v="bay" />
		<tag k="ssr:stedsnr" v="116596" />
	</node>
	<node lat="58.46579166989444" lon="5.860044443153568" id="-2651">
		<tag k="name" v="Skarvabukta" />
		<tag k="natural" v="bay" />
		<tag k="ssr:stedsnr" v="118740" />
	</node>
	<node lat="58.466563890837946" lon="5.8713833396688955" id="-2652">
		<tag k="name" v="Rundeholmen" />
		<tag k="place" v="islet" />
		<tag k="ssr:stedsnr" v="118742" />
	</node>
	<node lat="58.46470555889062" lon="5.879233336508174" id="-2653">
		<tag k="name" v="Djupabukta" />
		<tag k="natural" v="bay" />
		<tag k="ssr:stedsnr" v="118743" />
	</node>
	<node lat="58.467333332021795" lon="5.864288890494299" id="-2663">
		<tag k="name" v="Dyrøya" />
		<tag k="place" v="islet" />
		<tag k="ssr:stedsnr" v="121680" />
	</node>
	<node lat="58.46773055548755" lon="5.942538889772641" id="-2668">
		<tag k="alt_name" v="Torsøy" />
		<tag k="name" v="Håhellerholmen" />
		<tag k="place" v="islet" />
		<tag k="ssr:stedsnr" v="121632" />
	</node>
	<node lat="58.40922500173491" lon="5.96815000310691" id="-2669">
		<tag k="name" v="Brynnesodden" />
		<tag k="natural" v="cape" />
		<tag k="ssr:stedsnr" v="121758" />
	</node>
	<node lat="58.37950833044656" lon="6.040377771668105" id="-2676">
		<tag k="name" v="Kilheiodden" />
		<tag k="natural" v="cape" />
		<tag k="ssr:stedsnr" v="121999" />
	</node>
	<node lat="58.46493333018248" lon="5.983330553222922" id="-2716">
		<tag k="name" v="Nordre Kattaviga" />
		<tag k="natural" v="bay" />
		<tag k="ssr:stedsnr" v="160503" />
	</node>
	<node lat="58.46659721808572" lon="5.991402770973214" id="-2722">
		<tag k="name" v="Hedlå" />
		<tag k="natural" v="cape" />
		<tag k="ssr:stedsnr" v="161556" />
	</node>
	<node lat="58.42771389311119" lon="5.986525005889353" id="-2723">
		<tag k="name" v="Skreddaren" />
		<tag k="place" v="locality" />
		<tag k="seamark:type" v="rock" />
		<tag k="ssr:stedsnr" v="161568" />
	</node>
	<node lat="58.42913610984606" lon="5.98578610943921" id="-2724">
		<tag k="alt_name" v="Lammaholmen" />
		<tag k="name" v="Lamholmen" />
		<tag k="place" v="islet" />
		<tag k="ssr:stedsnr" v="161569" />
	</node>
	<node lat="58.449000003787845" lon="5.8838305533831665" id="-2727">
		<tag k="name" v="Flekk" />
		<tag k="natural" v="shoal" />
		<tag k="place" v="locality" />
		<tag k="ssr:stedsnr" v="161788" />
	</node>
	<node lat="58.4438611136173" lon="5.929691670689655" id="-2728">
		<tag k="name" v="Svartskjerflua" />
		<tag k="natural" v="shoal" />
		<tag k="place" v="locality" />
		<tag k="ssr:stedsnr" v="161962" />
	</node>
	<node lat="58.44856111105025" lon="5.9326944393835355" id="-2729">
		<tag k="alt_name" v="Ytra Sandvik" />
		<tag k="name" v="Ytra Sandviga" />
		<tag k="natural" v="bay" />
		<tag k="ssr:stedsnr" v="161965" />
	</node>
	<node lat="58.43914722029015" lon="5.931680549747514" id="-2730">
		<tag k="name" v="Kvernhusfluene" />
		<tag k="natural" v="shoal" />
		<tag k="place" v="locality" />
		<tag k="ssr:stedsnr" v="161968" />
	</node>
	<node lat="58.46709444435734" lon="5.911405558166653" id="-2732">
		<tag k="name" v="Slåsholmen" />
		<tag k="place" v="islet" />
		<tag k="ssr:stedsnr" v="161983" />
	</node>
	<node lat="58.46800000137549" lon="5.94729443807601" id="-2733">
		<tag k="alt_name" v="Skogebergholmen" />
		<tag k="name" v="Skogabergholmen" />
		<tag k="place" v="islet" />
		<tag k="ssr:stedsnr" v="161939" />
	</node>
	<node lat="58.47139444144194" lon="5.845194447317415" id="-2739">
		<tag k="name" v="Følavikskjerpingen" />
		<tag k="place" v="islet" />
		<tag k="ssr:stedsnr" v="163598" />
	</node>
	<node lat="58.36790555278256" lon="6.099033331498216" id="-2747">
		<tag k="name" v="Nesapollen" />
		<tag k="natural" v="bay" />
		<tag k="ssr:stedsnr" v="176057" />
	</node>
	<node lat="58.44258610894976" lon="5.990275001485391" id="-2748">
		<tag k="alt_name" v="Bruvika" />
		<tag k="name" v="Bruviga" />
		<tag k="natural" v="bay" />
		<tag k="ssr:stedsnr" v="176367" />
	</node>
	<node lat="58.38486111547948" lon="6.034847230146584" id="-2749">
		<tag k="name" v="Johammaren" />
		<tag k="natural" v="cape" />
		<tag k="ssr:stedsnr" v="176527" />
	</node>
	<node lat="58.3929611095635" lon="6.024152773279211" id="-2750">
		<tag k="name" v="Såvigodden" />
		<tag k="natural" v="cape" />
		<tag k="ssr:stedsnr" v="176533" />
	</node>
	<node lat="58.408199379796635" lon="6.0123513064128735" id="-2751">
		<tag k="alt_name" v="Skjølevik" />
		<tag k="name" v="Skjølarviga" />
		<tag k="natural" v="bay" />
		<tag k="ssr:stedsnr" v="178539" />
	</node>
	<node lat="58.35855000201931" lon="6.1096999933582055" id="-2759">
		<tag k="name" v="Hummarvik" />
		<tag k="natural" v="bay" />
		<tag k="ssr:stedsnr" v="179889" />
	</node>
	<node lat="58.418875001005894" lon="6.004863882345926" id="-2762">
		<tag k="name" v="Myntevik" />
		<tag k="natural" v="bay" />
		<tag k="ssr:stedsnr" v="179986" />
	</node>
	<node lat="58.41989444879241" lon="6.016511113729357" id="-2763">
		<tag k="name" v="Lervika" />
		<tag k="natural" v="bay" />
		<tag k="ssr:stedsnr" v="179988" />
	</node>
	<node lat="58.42508333575429" lon="5.9343277752479064" id="-2764">
		<tag k="name" v="Nordre Langholmflua" />
		<tag k="natural" v="shoal" />
		<tag k="place" v="locality" />
		<tag k="ssr:stedsnr" v="180300" />
	</node>
	<node lat="58.41102500075256" lon="5.929349997782716" id="-2765">
		<tag k="name" v="Lassaflua" />
		<tag k="natural" v="shoal" />
		<tag k="place" v="locality" />
		<tag k="ssr:stedsnr" v="180728" />
	</node>
	<node lat="58.15130833030587" lon="6.29712777180919" id="-2768">
		<tag k="name" v="Nordsjøen" />
		<tag k="name:en" v="North Sea" />
		<tag k="name:no" v="Nordsjøen" />
		<tag k="place" v="sea" />
		<tag k="ssr:stedsnr" v="182096" />
	</node>
	<node lat="58.44779721832951" lon="5.930850007614825" id="-2769">
		<tag k="name" v="Sandvigholmen" />
		<tag k="place" v="islet" />
		<tag k="ssr:stedsnr" v="182831" />
	</node>
	<node lat="58.41457500214656" lon="5.935777777248199" id="-2779">
		<tag k="name" v="Blegholmen" />
		<tag k="place" v="islet" />
		<tag k="ssr:stedsnr" v="182767" />
	</node>
	<node lat="58.42452783075725" lon="5.944272759751393" id="-2789">
		<tag k="name" v="Altersundet" />
		<tag k="natural" v="strait" />
		<tag k="ssr:stedsnr" v="202930" />
	</node>
	<node lat="58.38173888635345" lon="6.023208325191389" id="-2816">
		<tag k="name" v="Svånesfluene" />
		<tag k="natural" v="shoal" />
		<tag k="place" v="locality" />
		<tag k="ssr:stedsnr" v="263922" />
	</node>
	<node lat="58.4146944467845" lon="5.970683341476401" id="-2844">
		<tag k="name" v="Sandviga" />
		<tag k="natural" v="bay" />
		<tag k="ssr:stedsnr" v="282592" />
	</node>
	<node lat="58.42809166660603" lon="5.98116389148297" id="-2846">
		<tag k="name" v="Sundstøholmane" />
		<tag k="place" v="islet" />
		<tag k="ssr:stedsnr" v="282574" />
	</node>
	<node lat="58.44364444250735" lon="5.907152785523321" id="-2847">
		<tag k="alt_name" v="Hodnhammaren" />
		<tag k="name" v="Hornhammaren" />
		<tag k="natural" v="cape" />
		<tag k="ssr:stedsnr" v="282799" />
	</node>
	<node lat="58.47101944143516" lon="5.994772226847405" id="-2851">
		<tag k="name" v="Tengsvågen" />
		<tag k="natural" v="bay" />
		<tag k="ssr:stedsnr" v="283828" />
	</node>
	<node lat="58.47400555287713" lon="5.861422229361492" id="-2852">
		<tag k="name" v="Ytre Trosaviga" />
		<tag k="natural" v="bay" />
		<tag k="ssr:stedsnr" v="283727" />
	</node>
	<node lat="58.41879721975864" lon="5.897694443667005" id="-2853">
		<tag k="name" v="Fleseflua" />
		<tag k="place" v="locality" />
		<tag k="seamark:type" v="rock" />
		<tag k="ssr:stedsnr" v="283781" />
	</node>
	<node lat="58.42752683240862" lon="5.9500524897823235" id="-2855">
		<tag k="name" v="Søra Gunnarstø" />
		<tag k="natural" v="bay" />
		<tag k="ssr:stedsnr" v="283883" />
	</node>
	<node lat="58.42955986685537" lon="5.875226656362555" id="-2858">
		<tag k="alt_name" v="Bjøllevikholmen" />
		<tag k="name" v="Bjøllevigholmen" />
		<tag k="place" v="islet" />
		<tag k="ssr:stedsnr" v="283963" />
	</node>
	<node lat="58.38167973433508" lon="6.056497489657735" id="-2859">
		<tag k="alt_name" v="Kvednavika" />
		<tag k="name" v="Kvernhusviga" />
		<tag k="natural" v="bay" />
		<tag k="ssr:stedsnr" v="283980" />
	</node>
	<node lat="58.43802499674262" lon="5.8811916658406975" id="-2868">
		<tag k="name" v="Kviasundet" />
		<tag k="natural" v="strait" />
		<tag k="ssr:stedsnr" v="284825" />
	</node>
	<node lat="58.376005559099106" lon="6.049286102319347" id="-2869">
		<tag k="name" v="Nordra Stabsauvika" />
		<tag k="natural" v="bay" />
		<tag k="ssr:stedsnr" v="285117" />
	</node>
	<node lat="58.478647218467216" lon="5.856477776949577" id="-2873">
		<tag k="name" v="Prestodden" />
		<tag k="natural" v="cape" />
		<tag k="ssr:stedsnr" v="479505" />
	</node>
	<node lat="58.43661110856581" lon="5.989963885578875" id="-2874">
		<tag k="alt_name" v="Synnevikodden;Synnavikodden" />
		<tag k="name" v="Synnavigodden" />
		<tag k="natural" v="cape" />
		<tag k="ssr:stedsnr" v="298357" />
	</node>
	<node lat="58.43313333669834" lon="5.991100004722267" id="-2876">
		<tag k="name" v="Sprengsodden" />
		<tag k="natural" v="cape" />
		<tag k="ssr:stedsnr" v="300453" />
	</node>
	<node lat="58.43206111095197" lon="5.985622214922116" id="-2877">
		<tag k="name" v="Vardeodden" />
		<tag k="natural" v="cape" />
		<tag k="ssr:stedsnr" v="300458" />
	</node>
	<node lat="58.456997226428356" lon="5.9134916609864705" id="-2879">
		<tag k="name" v="Storesanden" />
		<tag k="natural" v="beach" />
		<tag k="ssr:stedsnr" v="300634" />
	</node>
	<node lat="58.479425001800784" lon="5.861025006689131" id="-2890">
		<tag k="name" v="Sandarnes" />
		<tag k="natural" v="cape" />
		<tag k="ssr:stedsnr" v="303655" />
	</node>
	<node lat="58.4373929563319" lon="5.982225591359968" id="-2906">
		<tag k="name" v="Hovlandsviga" />
		<tag k="natural" v="bay" />
		<tag k="ssr:stedsnr" v="304830" />
	</node>
	<node lat="58.379919441902075" lon="6.0642888931156" id="-2907">
		<tag k="name" v="Ternholmen" />
		<tag k="place" v="islet" />
		<tag k="ssr:stedsnr" v="304979" />
	</node>
	<node lat="58.37488055577746" lon="5.9562805605959435" id="-2946">
		<tag k="name" v="Losegrunnen" />
		<tag k="natural" v="shoal" />
		<tag k="place" v="locality" />
		<tag k="ssr:stedsnr" v="342199" />
	</node>
	<node lat="58.36691388700224" lon="6.097316662908138" id="-2947">
		<tag k="name" v="Nesasundet" />
		<tag k="natural" v="strait" />
		<tag k="ssr:stedsnr" v="343196" />
	</node>
	<node lat="58.416102777540864" lon="5.930944445915883" id="-2953">
		<tag k="name" v="Blegholmflua" />
		<tag k="natural" v="shoal" />
		<tag k="place" v="locality" />
		<tag k="ssr:stedsnr" v="343667" />
	</node>
	<node lat="58.4126972210432" lon="5.966041664851852" id="-2956">
		<tag k="name" v="Flatholmen" />
		<tag k="place" v="islet" />
		<tag k="ssr:stedsnr" v="343632" />
	</node>
	<node lat="58.41095833564623" lon="5.985936104184732" id="-2957">
		<tag k="fixme" v="consider seamark:type=rock or natural=shoal" />
		<tag k="name" v="Sloen" />
		<tag k="place" v="islet" />
		<tag k="ssr:stedsnr" v="343635" />
	</node>
	<node lat="58.44408888570622" lon="5.933958334922283" id="-2958">
		<tag k="name" v="Grønabukta" />
		<tag k="natural" v="bay" />
		<tag k="ssr:stedsnr" v="343983" />
	</node>
	<node lat="58.45704199929992" lon="5.981011437553882" id="-2959">
		<tag k="name" v="Nyåsflua" />
		<tag k="natural" v="shoal" />
		<tag k="place" v="locality" />
		<tag k="ssr:stedsnr" v="343950" />
	</node>
	<node lat="58.45993611443842" lon="5.872658332521935" id="-2962">
		<tag k="alt_name" v="Edlesmeholmen" />
		<tag k="name" v="Ellesmeholmane" />
		<tag k="place" v="islet" />
		<tag k="ssr:stedsnr" v="345640" />
	</node>
	<node lat="58.426191667680044" lon="5.886505554019521" id="-2965">
		<tag k="name" v="Vadlarvika" />
		<tag k="natural" v="bay" />
		<tag k="ssr:stedsnr" v="360897" />
	</node>
	<node lat="58.46980277925408" lon="5.992824998562058" id="-2966">
		<tag k="name" v="Kjeøya" />
		<tag k="place" v="islet" />
		<tag k="ssr:stedsnr" v="364633" />
	</node>
	<node lat="58.47084722060208" lon="5.869716661419349" id="-2970">
		<tag k="name" v="Sandane" />
		<tag k="natural" v="beach" />
		<tag k="ssr:stedsnr" v="360748" />
	</node>
	<node lat="58.45603888671079" lon="5.894952780404436" id="-2971">
		<tag k="alt_name" v="Ytre Erevik;Ytre Æreviga" />
		<tag k="name" v="Ytra Æreviga" />
		<tag k="natural" v="bay" />
		<tag k="ssr:stedsnr" v="360634" />
	</node>
	<node lat="58.425911112872996" lon="5.905694440992696" id="-2972">
		<tag k="name" v="Kistoddgrunnene" />
		<tag k="natural" v="shoal" />
		<tag k="place" v="locality" />
		<tag k="ssr:stedsnr" v="360954" />
	</node>
	<node lat="58.47632222399882" lon="5.854069448581548" id="-2981">
		<tag k="name" v="Sandvik" />
		<tag k="natural" v="bay" />
		<tag k="ssr:stedsnr" v="362037" />
	</node>
	<node lat="58.41788333142557" lon="5.953469446104668" id="-2983">
		<tag k="alt_name" v="Vaksvikholmen" />
		<tag k="name" v="Vaksvigholmen" />
		<tag k="place" v="islet" />
		<tag k="ssr:stedsnr" v="362737" />
	</node>
	<node lat="58.41924166370799" lon="5.952838886987143" id="-2984">
		<tag k="name" v="Slokholmen" />
		<tag k="place" v="islet" />
		<tag k="ssr:stedsnr" v="362743" />
	</node>
	<node lat="58.416127782430415" lon="5.99917500705302" id="-2992">
		<tag k="name" v="Tingelsædet" />
		<tag k="place" v="islet" />
		<tag k="ssr:stedsnr" v="364801" />
	</node>
	<node lat="58.43333333602115" lon="5.950000000174899" id="-3000">
		<tag k="name" v="Søre Eigerøya" />
		<tag k="place" v="island" />
		<tag k="ssr:stedsnr" v="364847" />
	</node>
	<node lat="58.38615555171395" lon="6.034233338293689" id="-3004">
		<tag k="name" v="Svånesviga" />
		<tag k="natural" v="bay" />
		<tag k="ssr:stedsnr" v="384380" />
	</node>
	<node lat="58.462833332110606" lon="5.859269451706937" id="-3007">
		<tag k="name" v="Dyrøyflua" />
		<tag k="place" v="locality" />
		<tag k="seamark:type" v="rock" />
		<tag k="ssr:stedsnr" v="385902" />
	</node>
	<node lat="58.43301588531894" lon="5.8907375941985265" id="-3036">
		<tag k="name" v="Ytre Strutsvågen" />
		<tag k="natural" v="bay" />
		<tag k="ssr:stedsnr" v="403794" />
	</node>
	<node lat="58.43566666788581" lon="5.877366661913525" id="-3037">
		<tag k="fixme" v="consider seamark:type=rock or natural=shoal" />
		<tag k="name" v="Svartskjeret" />
		<tag k="place" v="islet" />
		<tag k="ssr:stedsnr" v="403807" />
	</node>
	<node lat="58.44091944708079" lon="5.877141674562323" id="-3038">
		<tag k="alt_name" v="Leirbotnen" />
		<tag k="name" v="Leirbotn" />
		<tag k="natural" v="bay" />
		<tag k="ssr:stedsnr" v="403811" />
	</node>
	<node lat="58.436991665647795" lon="5.912347229258666" id="-3039">
		<tag k="fixme" v="consider seamark:type=rock or natural=shoal" />
		<tag k="name" v="Tøhammarskjeret" />
		<tag k="place" v="islet" />
		<tag k="ssr:stedsnr" v="403816" />
	</node>
	<node lat="58.47089444438089" lon="5.94879444595983" id="-3040">
		<tag k="name" v="Skjelbreidlega" />
		<tag k="natural" v="bay" />
		<tag k="ssr:stedsnr" v="403982" />
	</node>
	<node lat="58.42544999737839" lon="5.87700277085687" id="-3047">
		<tag k="alt_name" v="Hedlå" />
		<tag k="name" v="Hella" />
		<tag k="natural" v="cape" />
		<tag k="ssr:stedsnr" v="404950" />
	</node>
	<node lat="58.41362500214882" lon="5.97345555702899" id="-3049">
		<tag k="name" v="Torvhusvika" />
		<tag k="natural" v="bay" />
		<tag k="ssr:stedsnr" v="404882" />
	</node>
	<node lat="58.45326666770653" lon="5.986602781154399" id="-3051">
		<tag k="name" v="Tjuvholmen" />
		<tag k="place" v="islet" />
		<tag k="ssr:stedsnr" v="404927" />
	</node>
	<node lat="58.39880000018924" lon="6.0191666740233485" id="-3052">
		<tag k="alt_name" v="Kuungodden" />
		<tag k="name" v="Kuongodden" />
		<tag k="natural" v="cape" />
		<tag k="ssr:stedsnr" v="405335" />
	</node>
	<node lat="58.44966111416515" lon="5.932736114334016" id="-3053">
		<tag k="alt_name" v="Indra Sandvik" />
		<tag k="name" v="Indra Sandviga" />
		<tag k="natural" v="bay" />
		<tag k="ssr:stedsnr" v="404967" />
	</node>
	<node lat="58.38268055842418" lon="6.059138881882391" id="-3054">
		<tag k="name" v="Fagrebakkviga" />
		<tag k="natural" v="bay" />
		<tag k="ssr:stedsnr" v="404971" />
	</node>
	<node lat="58.37293610827438" lon="6.093205563041464" id="-3055">
		<tag k="alt_name" v="Sandvika" />
		<tag k="name" v="Sandviga" />
		<tag k="natural" v="bay" />
		<tag k="ssr:stedsnr" v="404978" />
	</node>
	<node lat="58.4518972255391" lon="5.926008339010008" id="-3056">
		<tag k="fixme" v="consider seamark:type=rock or natural=shoal" />
		<tag k="name" v="Litlavårskjeret" />
		<tag k="place" v="islet" />
		<tag k="ssr:stedsnr" v="404980" />
	</node>
	<node lat="58.37550555721955" lon="6.051347217831409" id="-3058">
		<tag k="name" v="Øystra Stabsauvika" />
		<tag k="natural" v="bay" />
		<tag k="ssr:stedsnr" v="406113" />
	</node>
	<node lat="58.43846666474237" lon="5.989880561076352" id="-3060">
		<tag k="name" v="Djupevik" />
		<tag k="natural" v="bay" />
		<tag k="ssr:stedsnr" v="406738" />
	</node>
	<node lat="58.42601389117789" lon="5.897727781998684" id="-3063">
		<tag k="name" v="Ytre Hagen" />
		<tag k="natural" v="bay" />
		<tag k="ssr:stedsnr" v="410912" />
	</node>
	<node lat="58.44156389046096" lon="5.990363888786728" id="-3068">
		<tag k="name" v="Fjellparken" />
		<tag k="natural" v="cape" />
		<tag k="ssr:stedsnr" v="419381" />
	</node>
	<node lat="58.444897223534184" lon="5.989202770629393" id="-3069">
		<tag k="name" v="Solkroa" />
		<tag k="natural" v="bay" />
		<tag k="ssr:stedsnr" v="419385" />
	</node>
	<node lat="58.4687027807756" lon="5.843488891205054" id="-3073">
		<tag k="fixme" v="consider seamark:type=rock or natural=shoal" />
		<tag k="name" v="Følavigskjeret" />
		<tag k="place" v="islet" />
		<tag k="ssr:stedsnr" v="419527" />
	</node>
	<node lat="58.46478888678614" lon="5.872294439778455" id="-3074">
		<tag k="fixme" v="consider seamark:type=rock or natural=shoal" />
		<tag k="name" v="Småskjeran" />
		<tag k="place" v="islet" />
		<tag k="ssr:stedsnr" v="421776" />
	</node>
	<node lat="58.43038055754602" lon="5.986827779097095" id="-3076">
		<tag k="alt_name" v="Raudeholmen" />
		<tag k="name" v="Raudeholmane" />
		<tag k="place" v="islet" />
		<tag k="ssr:stedsnr" v="422449" />
	</node>
	<node lat="58.45994444077978" lon="5.909305548665699" id="-3077">
		<tag k="name" v="Grønevigberget" />
		<tag k="natural" v="cape" />
		<tag k="ssr:stedsnr" v="422629" />
	</node>
	<node lat="58.43333889118218" lon="5.936094451878868" id="-3085">
		<tag k="alt_name" v="Bekkjarviggabet" />
		<tag k="name" v="Bekkjarvikgapet" />
		<tag k="natural" v="bay" />
		<tag k="ssr:stedsnr" v="423328" />
	</node>
	<node lat="58.4266367416195" lon="5.9475033978151" id="-3091">
		<tag k="name" v="Løyningsvågen" />
		<tag k="natural" v="bay" />
		<tag k="ssr:stedsnr" v="425817" />
	</node>
	<node lat="58.39254444547455" lon="5.983394438076731" id="-3102">
		<tag k="name" v="Stabbsædet" />
		<tag k="place" v="islet" />
		<tag k="ssr:stedsnr" v="425991" />
	</node>
	<node lat="58.425450003317515" lon="5.900372219592992" id="-3109">
		<tag k="name" v="Hagaflua" />
		<tag k="natural" v="shoal" />
		<tag k="place" v="locality" />
		<tag k="ssr:stedsnr" v="482946" />
	</node>
	<node lat="58.43388333132822" lon="5.981372221736907" id="-3110">
		<tag k="name" v="Hovlandsstrondi" />
		<tag k="natural" v="beach" />
		<tag k="ssr:stedsnr" v="482446" />
	</node>
	<node lat="58.46024444020883" lon="5.884274995978146" id="-3111">
		<tag k="name" v="Straumsundet" />
		<tag k="natural" v="strait" />
		<tag k="ssr:stedsnr" v="482622" />
	</node>
	<node lat="58.40462222228933" lon="6.016630554422452" id="-3118">
		<tag k="name" v="Sanden" />
		<tag k="natural" v="bay" />
		<tag k="ssr:stedsnr" v="483744" />
	</node>
	<node lat="58.40321430895923" lon="6.018468747274784" id="-3119">
		<tag k="alt_name" v="Grødstøviga" />
		<tag k="name" v="Grøstøvika" />
		<tag k="natural" v="bay" />
		<tag k="ssr:stedsnr" v="483747" />
	</node>
	<node lat="58.41722222346931" lon="5.957055553894079" id="-3120">
		<tag k="name" v="Litle Skvetteholmen" />
		<tag k="place" v="islet" />
		<tag k="ssr:stedsnr" v="483760" />
	</node>
	<node lat="58.41580555146837" lon="5.960225007341665" id="-3121">
		<tag k="alt_name" v="Aksaholmane" />
		<tag k="name" v="Aksaholmen" />
		<tag k="place" v="islet" />
		<tag k="ssr:stedsnr" v="483767" />
	</node>
	<node lat="58.43969999627384" lon="5.878924999752177" id="-3128">
		<tag k="name" v="Løvågen" />
		<tag k="natural" v="bay" />
		<tag k="ssr:stedsnr" v="485831" />
	</node>
	<node lat="58.45109444735188" lon="5.927441660809315" id="-3135">
		<tag k="name" v="Ellevigholmen" />
		<tag k="place" v="islet" />
		<tag k="ssr:stedsnr" v="485852" />
	</node>
	<node lat="58.43984999565126" lon="5.936752778303694" id="-3141">
		<tag k="name" v="Kvernhusviga" />
		<tag k="natural" v="bay" />
		<tag k="ssr:stedsnr" v="485795" />
	</node>
	<node lat="58.459480560083485" lon="5.9054111157614315" id="-3188">
		<tag k="name" v="Grunnesund" />
		<tag k="natural" v="strait" />
		<tag k="ssr:stedsnr" v="524556" />
	</node>
	<node lat="58.376563890456055" lon="6.053405550719502" id="-3199">
		<tag k="alt_name" v="Regeviga" />
		<tag k="name" v="Regevika" />
		<tag k="natural" v="bay" />
		<tag k="ssr:stedsnr" v="525962" />
	</node>
	<node lat="58.37636666634574" lon="6.047655561885155" id="-3200">
		<tag k="fixme" v="consider seamark:type=rock or natural=shoal" />
		<tag k="name" v="Krakeskjeret" />
		<tag k="place" v="islet" />
		<tag k="ssr:stedsnr" v="525965" />
	</node>
	<node lat="58.38852777451717" lon="5.98616666981593" id="-3201">
		<tag k="name" v="Jensbåen" />
		<tag k="place" v="locality" />
		<tag k="seamark:type" v="rock" />
		<tag k="ssr:stedsnr" v="526381" />
	</node>
	<node lat="58.43221506842613" lon="5.940850350984479" id="-3204">
		<tag k="alt_name" v="Indre Bekkjarviga" />
		<tag k="name" v="Indra Bekkjarvika" />
		<tag k="natural" v="bay" />
		<tag k="ssr:stedsnr" v="526814" />
	</node>
	<node lat="58.45777222313832" lon="5.902363896325089" id="-3218">
		<tag k="alt_name" v="Indre Erevik" />
		<tag k="name" v="Heimra Æreviga" />
		<tag k="natural" v="bay" />
		<tag k="ssr:stedsnr" v="543621" />
	</node>
	<node lat="58.47576944297697" lon="5.855763888823084" id="-3225">
		<tag k="name" v="Sandarnesodden" />
		<tag k="natural" v="cape" />
		<tag k="ssr:stedsnr" v="544070" />
	</node>
	<node lat="58.41747777713466" lon="5.897825006906611" id="-3227">
		<tag k="name" v="Flesa" />
		<tag k="place" v="islet" />
		<tag k="ssr:stedsnr" v="546752" />
	</node>
	<node lat="58.42092500053498" lon="5.980705559761373" id="-3230">
		<tag k="name" v="Regeviga" />
		<tag k="natural" v="bay" />
		<tag k="ssr:stedsnr" v="546759" />
	</node>
	<node lat="58.453625003979404" lon="5.929874995890482" id="-3245">
		<tag k="name" v="Sprangbukta" />
		<tag k="natural" v="bay" />
		<tag k="ssr:stedsnr" v="546850" />
	</node>
	<node lat="58.40717777599093" lon="5.985747224125657" id="-3296">
		<tag k="name" v="Skarvøya" />
		<tag k="place" v="islet" />
		<tag k="ssr:stedsnr" v="585570" />
	</node>
	<node lat="58.43436666877935" lon="5.8626916605888475" id="-3300">
		<tag k="alt_name" v="Høyvikskjeret" />
		<tag k="fixme" v="consider seamark:type=rock or natural=shoal" />
		<tag k="name" v="Høyvigskjeret" />
		<tag k="place" v="islet" />
		<tag k="ssr:stedsnr" v="585995" />
	</node>
	<node lat="58.43313333260883" lon="5.864558341308059" id="-3303">
		<tag k="alt_name" v="Høyvik" />
		<tag k="name" v="Høyviga" />
		<tag k="natural" v="bay" />
		<tag k="ssr:stedsnr" v="586784" />
	</node>
	<node lat="58.44231944751046" lon="5.887480547728177" id="-3304">
		<tag k="name" v="Renna" />
		<tag k="natural" v="strait" />
		<tag k="ssr:stedsnr" v="586785" />
	</node>
	<node lat="58.42699444183709" lon="5.9930722196373685" id="-3305">
		<tag k="name" v="Rosshagbukta" />
		<tag k="natural" v="bay" />
		<tag k="ssr:stedsnr" v="586897" />
	</node>
	<node lat="58.46605277745232" lon="5.96674166723766" id="-3306">
		<tag k="name" v="Rauestadfjorden" />
		<tag k="natural" v="bay" />
		<tag k="ssr:stedsnr" v="586957" />
	</node>
	<node lat="58.437847226209435" lon="5.937466674025194" id="-3307">
		<tag k="alt_name" v="Nordra Krabbaviga" />
		<tag k="name" v="Krabbavika" />
		<tag k="natural" v="bay" />
		<tag k="ssr:stedsnr" v="586979" />
	</node>
	<node lat="58.46856389193032" lon="5.870544436556784" id="-3310">
		<tag k="name" v="Gjeisbelgen" />
		<tag k="natural" v="strait" />
		<tag k="ssr:stedsnr" v="587648" />
	</node>
	<node lat="58.41065833784446" lon="6.006966669023805" id="-3311">
		<tag k="name" v="Dyrnesodden" />
		<tag k="natural" v="cape" />
		<tag k="ssr:stedsnr" v="587351" />
	</node>
	<node lat="58.37689722584122" lon="6.047380555166069" id="-3318">
		<tag k="name" v="Kraksvika" />
		<tag k="natural" v="bay" />
		<tag k="ssr:stedsnr" v="588108" />
	</node>
	<node lat="58.36739722064721" lon="6.102033331167797" id="-3326">
		<tag k="name" v="Tuepollen" />
		<tag k="natural" v="bay" />
		<tag k="ssr:stedsnr" v="601044" />
	</node>
	<node lat="58.41949444674118" lon="5.955666672089601" id="-3345">
		<tag k="name" v="Vaksvig" />
		<tag k="natural" v="bay" />
		<tag k="ssr:stedsnr" v="606768" />
	</node>
	<node lat="58.42153333589419" lon="5.9528694483273155" id="-3346">
		<tag k="name" v="Selvågen" />
		<tag k="natural" v="bay" />
		<tag k="ssr:stedsnr" v="606770" />
	</node>
	<node lat="58.469775001223105" lon="5.913824998103776" id="-3355">
		<tag k="name" v="Skadbergvågen" />
		<tag k="natural" v="bay" />
		<tag k="ssr:stedsnr" v="606679" />
	</node>
	<node lat="58.46091110967044" lon="5.9017861068675765" id="-3356">
		<tag k="name" v="Grunnesundsholmen" />
		<tag k="place" v="islet" />
		<tag k="ssr:stedsnr" v="606642" />
	</node>
	<node lat="58.44694999699228" lon="5.9795250063777186" id="-3363">
		<tag k="name" v="Fiskarvig" />
		<tag k="natural" v="bay" />
		<tag k="ssr:stedsnr" v="606839" />
	</node>
	<node lat="58.43298333453467" lon="5.876119446180173" id="-3375">
		<tag k="name" v="Midbrødvågen" />
		<tag k="natural" v="bay" />
		<tag k="ssr:stedsnr" v="607815" />
	</node>
	<node lat="58.43222222422966" lon="5.903161118635368" id="-3376">
		<tag k="name" v="Rausvågen" />
		<tag k="natural" v="bay" />
		<tag k="ssr:stedsnr" v="607818" />
	</node>
	<node lat="58.445658333284065" lon="5.989463897017763" id="-3417">
		<tag k="name" v="Vardbergodden" />
		<tag k="natural" v="cape" />
		<tag k="ssr:stedsnr" v="646386" />
	</node>
	<node lat="58.40888889064341" lon="5.973400000422255" id="-3420">
		<tag k="name" v="Midnesodden" />
		<tag k="natural" v="cape" />
		<tag k="ssr:stedsnr" v="646870" />
	</node>
	<node lat="58.407908334879394" lon="5.9783111110847695" id="-3421">
		<tag k="fixme" v="consider seamark:type=rock or natural=shoal" />
		<tag k="name" v="Palmeskjeret" />
		<tag k="place" v="islet" />
		<tag k="ssr:stedsnr" v="646871" />
	</node>
	<node lat="58.426624999185655" lon="5.875477769489351" id="-3424">
		<tag k="alt_name" v="Sorpodden" />
		<tag k="name" v="Surpodden" />
		<tag k="natural" v="cape" />
		<tag k="ssr:stedsnr" v="646940" />
	</node>
	<node lat="58.469066670911886" lon="5.957374997012282" id="-3426">
		<tag k="alt_name" v="Napparen" />
		<tag k="name" v="Nordre Napparen" />
		<tag k="place" v="islet" />
		<tag k="ssr:stedsnr" v="646945" />
	</node>
	<node lat="58.42940480830815" lon="5.873832694432463" id="-3427">
		<tag k="alt_name" v="Storagabet" />
		<tag k="bay" v="fjord" />
		<tag k="name" v="Storagapet" />
		<tag k="natural" v="bay" />
		<tag k="ssr:stedsnr" v="646946" />
	</node>
	<node lat="58.37492221886212" lon="6.052430558633092" id="-3428">
		<tag k="alt_name" v="Stabnesodden" />
		<tag k="name" v="Stapnesodden" />
		<tag k="natural" v="cape" />
		<tag k="ssr:stedsnr" v="646958" />
	</node>
	<node lat="58.45455277613942" lon="5.9171527730442754" id="-3429">
		<tag k="name" v="Litlesandholmen" />
		<tag k="place" v="islet" />
		<tag k="ssr:stedsnr" v="646976" />
	</node>
	<node lat="58.43496666301267" lon="5.915308339047388" id="-3431">
		<tag k="name" v="Lokteflua" />
		<tag k="natural" v="shoal" />
		<tag k="place" v="locality" />
		<tag k="ssr:stedsnr" v="647821" />
	</node>
	<node lat="58.45010277761687" lon="5.888899992352743" id="-3434">
		<tag k="name" v="Rottå" />
		<tag k="place" v="islet" />
		<tag k="ssr:stedsnr" v="648638" />
	</node>
	<node lat="58.44917777487254" lon="5.992119443596796" id="-3435">
		<tag k="name" v="Lindøygapet" />
		<tag k="natural" v="strait" />
		<tag k="ssr:stedsnr" v="648724" />
	</node>
	<node lat="58.46784999623948" lon="5.975472229254071" id="-3445">
		<tag k="name" v="Lauvsnesodden" />
		<tag k="natural" v="cape" />
		<tag k="ssr:stedsnr" v="707989" />
	</node>
	<node lat="58.463413890423624" lon="5.922019442683936" id="-3449">
		<tag k="alt_name" v="Labergodden" />
		<tag k="name" v="Ladbergodden" />
		<tag k="natural" v="cape" />
		<tag k="ssr:stedsnr" v="707949" />
	</node>
	<node lat="58.45035833279066" lon="5.907249996333794" id="-3451">
		<tag k="alt_name" v="Ertebærholmane" />
		<tag k="name" v="Ertbuholmane" />
		<tag k="place" v="islet" />
		<tag k="ssr:stedsnr" v="707829" />
	</node>
	<node lat="58.42229444195446" lon="5.995049993433667" id="-3452">
		<tag k="name" v="Indra Musavik" />
		<tag k="natural" v="bay" />
		<tag k="ssr:stedsnr" v="707903" />
	</node>
	<node lat="58.40760555536853" lon="5.942447222091209" id="-3453">
		<tag k="name" v="Storeflu" />
		<tag k="place" v="locality" />
		<tag k="seamark:type" v="rock" />
		<tag k="ssr:stedsnr" v="708294" />
	</node>
	<node lat="58.4415722222495" lon="5.867113885286748" id="-3454">
		<tag k="name" v="Smørviga" />
		<tag k="natural" v="bay" />
		<tag k="ssr:stedsnr" v="707999" />
	</node>
	<node lat="58.42951110781347" lon="5.863833329444217" id="-3455">
		<tag k="alt_name" v="Sjedlesodden" />
		<tag k="name" v="Skjetleisodden" />
		<tag k="place" v="islet" />
		<tag k="ssr:stedsnr" v="708788" />
	</node>
	<node lat="58.42412222543114" lon="5.868786102907287" id="-3456">
		<tag k="name" v="Storeflu" />
		<tag k="natural" v="shoal" />
		<tag k="place" v="locality" />
		<tag k="ssr:stedsnr" v="708789" />
	</node>
	<node lat="58.44063889250922" lon="5.914916660151389" id="-3457">
		<tag k="name" v="Hagaflua" />
		<tag k="natural" v="shoal" />
		<tag k="place" v="locality" />
		<tag k="ssr:stedsnr" v="708793" />
	</node>
	<node lat="58.3868416664291" lon="6.0284333335210185" id="-3461">
		<tag k="name" v="Nerdalsholmen" />
		<tag k="place" v="islet" />
		<tag k="ssr:stedsnr" v="722585" />
	</node>
	<node lat="58.38519444449184" lon="6.030283331991463" id="-3462">
		<tag k="alt_name" v="Vigagapflua" />
		<tag k="name" v="Vikagapflua" />
		<tag k="natural" v="shoal" />
		<tag k="place" v="locality" />
		<tag k="ssr:stedsnr" v="722587" />
	</node>
	<node lat="58.418822219600436" lon="6.010461116337434" id="-3467">
		<tag k="name" v="Lygresundet" />
		<tag k="natural" v="strait" />
		<tag k="ssr:stedsnr" v="724555" />
	</node>
	<node lat="58.47179444737607" lon="5.84497777126369" id="-3468">
		<tag k="name" v="Flateskjeret" />
		<tag k="place" v="islet" />
		<tag k="ssr:stedsnr" v="724719" />
	</node>
	<node lat="58.47069999788189" lon="5.85018889628571" id="-3469">
		<tag k="fixme" v="consider seamark:type=rock or natural=shoal" />
		<tag k="name" v="Småskjeran" />
		<tag k="place" v="islet" />
		<tag k="ssr:stedsnr" v="724720" />
	</node>
	<node lat="58.43411666747737" lon="5.909788881822824" id="-3470">
		<tag k="name" v="Raudhammaren" />
		<tag k="natural" v="cape" />
		<tag k="ssr:stedsnr" v="724971" />
	</node>
	<node lat="58.477680555401754" lon="5.865527771654442" id="-3474">
		<tag k="name" v="Sauasandodden" />
		<tag k="natural" v="cape" />
		<tag k="ssr:stedsnr" v="726064" />
	</node>
	<node lat="58.39310556002347" lon="6.023100001476819" id="-3485">
		<tag k="name" v="Såviga" />
		<tag k="natural" v="bay" />
		<tag k="ssr:stedsnr" v="728992" />
	</node>
	<node lat="58.369725003275704" lon="6.094300005870335" id="-3494">
		<tag k="name" v="Neset" />
		<tag k="natural" v="cape" />
		<tag k="ssr:stedsnr" v="728956" />
	</node>
	<node lat="58.470999997293575" lon="5.844505556455987" id="-3496">
		<tag k="name" v="Skjerpingan" />
		<tag k="place" v="islet" />
		<tag k="ssr:stedsnr" v="728651" />
	</node>
	<node lat="58.4672759221787" lon="5.839171372904506" id="-3507">
		<tag k="name" v="Ytre Skjerpingen" />
		<tag k="place" v="islet" />
		<tag k="ssr:stedsnr" v="748927" />
	</node>
	<node lat="58.4093361108541" lon="5.980372218928229" id="-3538">
		<tag k="alt_name" v="Sandvikholmen" />
		<tag k="name" v="Sandvigholmen" />
		<tag k="place" v="islet" />
		<tag k="ssr:stedsnr" v="767577" />
	</node>
	<node lat="58.40896666904026" lon="5.984550007726753" id="-3539">
		<tag k="alt_name" v="Skarvøyholmsundet" />
		<tag k="name" v="Siholmsundet" />
		<tag k="natural" v="strait" />
		<tag k="ssr:stedsnr" v="767584" />
	</node>
	<node lat="58.380752779638534" lon="6.066383334821987" id="-3546">
		<tag k="alt_name" v="Kveideodden" />
		<tag k="name" v="Kveidodden" />
		<tag k="natural" v="cape" />
		<tag k="ssr:stedsnr" v="768970" />
	</node>
	<node lat="58.374005555439005" lon="6.062513885413105" id="-3547">
		<tag k="name" v="Lyreflua" />
		<tag k="natural" v="shoal" />
		<tag k="place" v="locality" />
		<tag k="ssr:stedsnr" v="768978" />
	</node>
	<node lat="58.371558330674034" lon="6.093558331341776" id="-3548">
		<tag k="name" v="Sandvigflua" />
		<tag k="natural" v="shoal" />
		<tag k="place" v="locality" />
		<tag k="ssr:stedsnr" v="768981" />
	</node>
	<node lat="58.45360277574639" lon="5.8819833341965015" id="-3550">
		<tag k="fixme" v="consider seamark:type=rock or natural=shoal" />
		<tag k="name" v="Tryet" />
		<tag k="place" v="islet" />
		<tag k="ssr:stedsnr" v="769774" />
	</node>
	<node lat="58.43854166760532" lon="5.8601166614293" id="-3551">
		<tag k="name" v="Strålaugflua" />
		<tag k="place" v="locality" />
		<tag k="seamark:type" v="rock" />
		<tag k="ssr:stedsnr" v="769776" />
	</node>
	<node lat="58.44441388612588" lon="5.888613889627335" id="-3552">
		<tag k="name" v="Segleimsvågen" />
		<tag k="natural" v="bay" />
		<tag k="ssr:stedsnr" v="770554" />
	</node>
	<node lat="58.37466388810672" lon="6.051022214750113" id="-3553">
		<tag k="name" v="Sloan" />
		<tag k="place" v="islet" />
		<tag k="ssr:stedsnr" v="770100" />
	</node>
	<node lat="58.40339999585167" lon="6.015663896547595" id="-3554">
		<tag k="name" v="Grøstøholmen" />
		<tag k="place" v="islet" />
		<tag k="ssr:stedsnr" v="770948" />
	</node>
	<node lat="58.442052778562704" lon="5.989866667926126" id="-3570">
		<tag k="name" v="Flyndrehovet" />
		<tag k="natural" v="cape" />
		<tag k="ssr:stedsnr" v="783386" />
	</node>
	<node lat="58.407900003494866" lon="6.008227769696238" id="-3571">
		<tag k="fixme" v="consider seamark:type=rock or natural=shoal" />
		<tag k="name" v="Steinskjera" />
		<tag k="place" v="islet" />
		<tag k="ssr:stedsnr" v="785525" />
	</node>
	<node lat="58.467338887588625" lon="5.858552775955433" id="-3572">
		<tag k="name" v="Urdholmen" />
		<tag k="place" v="islet" />
		<tag k="ssr:stedsnr" v="785721" />
	</node>
	<node lat="58.42697499747999" lon="5.941074993514621" id="-3587">
		<tag k="name" v="Løyningsøya" />
		<tag k="place" v="island" />
		<tag k="ssr:stedsnr" v="788785" />
	</node>
	<node lat="58.44982500154689" lon="5.978224997513001" id="-3596">
		<tag k="name" v="Svanavågen" />
		<tag k="natural" v="bay" />
		<tag k="ssr:stedsnr" v="788831" />
	</node>
	<node lat="58.46677499785591" lon="5.894130563390946" id="-3603">
		<tag k="name" v="Æsan" />
		<tag k="natural" v="bay" />
		<tag k="ssr:stedsnr" v="789635" />
	</node>
	<node lat="58.43668333002395" lon="5.9321250010953" id="-3611">
		<tag k="name" v="Guleholmen" />
		<tag k="place" v="islet" />
		<tag k="ssr:stedsnr" v="789827" />
	</node>
	<node lat="58.46040188485025" lon="5.978941767496408" id="-3618">
		<tag k="name" v="Sundet" />
		<tag k="natural" v="strait" />
		<tag k="ssr:stedsnr" v="810914" />
	</node>
	<node lat="58.372377773855" lon="6.061836103241887" id="-3646">
		<tag k="name" v="Storeflua" />
		<tag k="natural" v="shoal" />
		<tag k="place" v="locality" />
		<tag k="ssr:stedsnr" v="828125" />
	</node>
	<node lat="58.44484721892895" lon="5.907544449158679" id="-3649">
		<tag k="name" v="Ålbergflua" />
		<tag k="natural" v="shoal" />
		<tag k="place" v="locality" />
		<tag k="ssr:stedsnr" v="828789" />
	</node>
	<node lat="58.4587777769558" lon="5.980950005730687" id="-3655">
		<tag k="name" v="Langholmen" />
		<tag k="place" v="islet" />
		<tag k="ssr:stedsnr" v="829933" />
	</node>
	<node lat="58.46629166405416" lon="5.942727770899046" id="-3657">
		<tag k="name" v="Holasanden" />
		<tag k="natural" v="beach" />
		<tag k="ssr:stedsnr" v="829955" />
	</node>
	<node lat="58.4324972189288" lon="5.876755548337197" id="-3658">
		<tag k="name" v="Midbrødgrunnen" />
		<tag k="natural" v="shoal" />
		<tag k="place" v="locality" />
		<tag k="ssr:stedsnr" v="829956" />
	</node>
	<node lat="58.43077221772532" lon="5.875949993228178" id="-3659">
		<tag k="name" v="Storsteinodden" />
		<tag k="natural" v="cape" />
		<tag k="ssr:stedsnr" v="829957" />
	</node>
	<node lat="58.47005000425152" lon="5.8680194441272855" id="-3661">
		<tag k="name" v="Rundeholmen" />
		<tag k="place" v="islet" />
		<tag k="ssr:stedsnr" v="829731" />
	</node>
	<node lat="58.411777776033034" lon="5.958277783084274" id="-3662">
		<tag k="name" v="Litle Lyngholmen" />
		<tag k="place" v="islet" />
		<tag k="ssr:stedsnr" v="829655" />
	</node>
	<node lat="58.41115000178116" lon="5.964555563270977" id="-3663">
		<tag k="name" v="Lyngøysundet" />
		<tag k="natural" v="strait" />
		<tag k="ssr:stedsnr" v="829894" />
	</node>
	<node lat="58.416686109589754" lon="5.957280555171021" id="-3664">
		<tag k="name" v="Skvetteholmane" />
		<tag k="place" v="islet" />
		<tag k="ssr:stedsnr" v="829896" />
	</node>
	<node lat="58.47009166890344" lon="5.959652774322711" id="-3665">
		<tag k="name" v="Husholmen" />
		<tag k="place" v="islet" />
		<tag k="ssr:stedsnr" v="829993" />
	</node>
	<node lat="58.4647916643477" lon="5.8982444489299635" id="-3666">
		<tag k="name" v="Æsandgrunnen" />
		<tag k="natural" v="shoal" />
		<tag k="place" v="locality" />
		<tag k="ssr:stedsnr" v="829999" />
	</node>
	<node lat="58.46621666944896" lon="5.837527775655672" id="-3669">
		<tag k="name" v="Mastefluene" />
		<tag k="place" v="locality" />
		<tag k="seamark:type" v="rock" />
		<tag k="ssr:stedsnr" v="830848" />
	</node>
	<node lat="58.47782222396734" lon="5.866897227950699" id="-3677">
		<tag k="name" v="Saueodden" />
		<tag k="natural" v="cape" />
		<tag k="ssr:stedsnr" v="844513" />
	</node>
	<node lat="58.46448610673347" lon="5.857349995656795" id="-3678">
		<tag k="fixme" v="consider seamark:type=rock or natural=shoal" />
		<tag k="name" v="Skarpusskjeret" />
		<tag k="place" v="islet" />
		<tag k="ssr:stedsnr" v="844523" />
	</node>
	<node lat="58.46762681352704" lon="5.84123212231111" id="-3679">
		<tag k="alt_name" v="Tenneskjeret" />
		<tag k="fixme" v="consider seamark:type=rock or natural=shoal" />
		<tag k="name" v="Terneskjeret" />
		<tag k="place" v="islet" />
		<tag k="ssr:stedsnr" v="844524" />
	</node>
	<node lat="58.37820555893864" lon="6.069905559910231" id="-3682">
		<tag k="name" v="Grødvika" />
		<tag k="natural" v="bay" />
		<tag k="ssr:stedsnr" v="844055" />
	</node>
	<node lat="58.464461114267465" lon="5.857111104343991" id="-3686">
		<tag k="fixme" v="consider seamark:type=rock or natural=shoal" />
		<tag k="name" v="Karpurskjeret" />
		<tag k="place" v="islet" />
		<tag k="ssr:stedsnr" v="846753" />
	</node>
	<node lat="58.423133332455635" lon="6.013469441063371" id="-3687">
		<tag k="name" v="Løbergflua" />
		<tag k="natural" v="shoal" />
		<tag k="place" v="locality" />
		<tag k="ssr:stedsnr" v="846557" />
	</node>
	<node lat="58.408494669627856" lon="5.982308178418655" id="-3688">
		<tag k="name" v="Skarvøysundet" />
		<tag k="natural" v="strait" />
		<tag k="ssr:stedsnr" v="846868" />
	</node>
	<node lat="58.4299000003097" lon="5.9070416585522025" id="-3690">
		<tag k="alt_name" v="Hestavik" />
		<tag k="name" v="Hestaviga" />
		<tag k="natural" v="bay" />
		<tag k="ssr:stedsnr" v="846958" />
	</node>
	<node lat="58.376105554690746" lon="6.06017499938129" id="-3692">
		<tag k="fixme" v="consider seamark:type=rock or natural=shoal" />
		<tag k="name" v="Småskjeret" />
		<tag k="place" v="islet" />
		<tag k="ssr:stedsnr" v="847239" />
	</node>
	<node lat="58.37589999882116" lon="6.059899999612505" id="-3705">
		<tag k="fixme" v="consider seamark:type=rock or natural=shoal" />
		<tag k="name" v="Skurveskjeret" />
		<tag k="place" v="islet" />
		<tag k="ssr:stedsnr" v="850970" />
	</node>
	<node lat="58.42449444023352" lon="6.013825008002671" id="-3715">
		<tag k="name" v="Lygre" />
		<tag k="natural" v="bay" />
		<tag k="ssr:stedsnr" v="850798" />
	</node>
	<node lat="58.45522500315786" lon="5.92652499133542" id="-3717">
		<tag k="name" v="Knarraviga" />
		<tag k="natural" v="bay" />
		<tag k="ssr:stedsnr" v="850864" />
	</node>
	<node lat="58.46613450429254" lon="5.927476086026019" id="-3719">
		<tag k="fixme" v="consider seamark:type=rock or natural=shoal" />
		<tag k="name" v="Krågeskjer" />
		<tag k="place" v="islet" />
		<tag k="ssr:stedsnr" v="870430" />
	</node>
	<node lat="58.45917222257614" lon="5.978422224416912" id="-3777">
		<tag k="alt_name" v="Nysund" />
		<tag k="name" v="Nysundet" />
		<tag k="natural" v="strait" />
		<tag k="ssr:stedsnr" v="949550" />
	</node>
	<node lat="58.36334444665173" lon="6.097969447448062" id="-3782">
		<tag k="name" v="Seiodden" />
		<tag k="natural" v="cape" />
		<tag k="ssr:stedsnr" v="950226" />
	</node>
	<node lat="58.46666944242841" lon="5.986113887247627" id="-3783">
		<tag k="name" v="Foreholmen" />
		<tag k="natural" v="cape" />
		<tag k="ssr:stedsnr" v="950555" />
	</node>
	<node lat="58.43863333292082" lon="5.880669439922659" id="-3784">
		<tag k="alt_name" v="Svinodden" />
		<tag k="name" v="Løvågodden" />
		<tag k="natural" v="cape" />
		<tag k="ssr:stedsnr" v="950787" />
	</node>
	<node lat="58.4422305580621" lon="5.909677772467468" id="-3785">
		<tag k="alt_name" v="Færevik" />
		<tag k="name" v="Færeviga" />
		<tag k="natural" v="bay" />
		<tag k="ssr:stedsnr" v="950798" />
	</node>
	<node lat="58.46659444478601" lon="5.898497218899009" id="-3786">
		<tag k="name" v="Navarsanden" />
		<tag k="natural" v="beach" />
		<tag k="ssr:stedsnr" v="950998" />
	</node>
	<node lat="58.371394444968544" lon="6.085463897219346" id="-3787">
		<tag k="alt_name" v="Mastholmen" />
		<tag k="name" v="Mastreholmen" />
		<tag k="place" v="islet" />
		<tag k="ssr:stedsnr" v="950973" />
	</node>
	<node lat="58.469397223737516" lon="5.914161109707908" id="-3790">
		<tag k="name" v="Kvernavågen" />
		<tag k="natural" v="bay" />
		<tag k="ssr:stedsnr" v="951798" />
	</node>
	<node lat="58.43778055433992" lon="5.908583335505969" id="-3793">
		<tag k="name" v="Storhagen" />
		<tag k="natural" v="bay" />
		<tag k="ssr:stedsnr" v="952562" />
	</node>
	<node lat="58.36802499955129" lon="6.094730556831482" id="-3806">
		<tag k="name" v="Kongshamn" />
		<tag k="natural" v="bay" />
		<tag k="ssr:stedsnr" v="965054" />
	</node>
	<node lat="58.47487334893711" lon="5.848557089534074" id="-3807">
		<tag k="name" v="Skjerpingsundet" />
		<tag k="natural" v="strait" />
		<tag k="ssr:stedsnr" v="965525" />
	</node>
	<node lat="58.476722224800696" lon="5.854555550106484" id="-3808">
		<tag k="name" v="Litle Sanviga" />
		<tag k="natural" v="bay" />
		<tag k="ssr:stedsnr" v="965526" />
	</node>
	<node lat="58.40540000364334" lon="6.000263897020922" id="-3809">
		<tag k="name" v="Steinskjerfjellet" />
		<tag k="natural" v="shoal" />
		<tag k="place" v="locality" />
		<tag k="ssr:stedsnr" v="967520" />
	</node>
	<node lat="58.475464357686455" lon="5.851045672133945" id="-3811">
		<tag k="name" v="Vassvik" />
		<tag k="natural" v="bay" />
		<tag k="ssr:stedsnr" v="968034" />
	</node>
	<node lat="58.4243027747617" lon="5.894980552679194" id="-3813">
		<tag k="alt_name" v="Roaldsvik" />
		<tag k="name" v="Roaldsviga" />
		<tag k="natural" v="bay" />
		<tag k="ssr:stedsnr" v="967949" />
	</node>
	<node lat="58.47914721995127" lon="5.858569439942257" id="-3816">
		<tag k="name" v="Sandarnesbukta" />
		<tag k="natural" v="bay" />
		<tag k="ssr:stedsnr" v="968085" />
	</node>
	<node lat="58.41118610806806" lon="6.005200007934296" id="-3822">
		<tag k="name" v="Skreddaren" />
		<tag k="natural" v="cape" />
		<tag k="ssr:stedsnr" v="969715" />
	</node>
	<node lat="58.41271388821579" lon="6.00488055998552" id="-3823">
		<tag k="name" v="Køyreviga" />
		<tag k="natural" v="bay" />
		<tag k="ssr:stedsnr" v="969716" />
	</node>
	<node lat="58.46331161692601" lon="5.880236711399242" id="-3829">
		<tag k="loc_name" v="Høyvigodden" />
		<tag k="name" v="Høyvikkodden" />
		<tag k="natural" v="cape" />
		<tag k="ssr:stedsnr" v="977136" />
	</node>
	<node lat="58.43099747098298" lon="5.938767491152526" id="-4074">
		<tag k="name" v="Fotholmen" />
		<tag k="place" v="islet" />
		<tag k="ssr:stedsnr" v="1073126" />
	</node>
</osm>
