<?xml version="1.0" encoding="UTF-8"?>
<osm version="0.6" generator="osmapis">
	<node lat="58.49779999891322" lon="6.135575004230899" id="-983">
		<tag k="name" v="Auglend" />
		<tag k="place" v="farm" />
		<tag k="ssr:stedsnr" v="242683" />
	</node>
	<node lat="58.51771944865001" lon="6.086172228243748" id="-996">
		<tag k="name" v="Klungland" />
		<tag k="place" v="farm" />
		<tag k="ssr:stedsnr" v="243174" />
	</node>
	<node lat="58.543191666397504" lon="6.183061117511242" id="-1058">
		<tag k="alt_name" v="Nygård" />
		<tag k="name" v="Nygard" />
		<tag k="place" v="farm" />
		<tag k="ssr:stedsnr" v="122169" />
	</node>
	<node lat="58.534013888059604" lon="6.159327774276205" id="-1121">
		<tag k="name" v="Kloppa" />
		<tag k="place" v="farm" />
		<tag k="ssr:stedsnr" v="265948" />
	</node>
	<node lat="58.52443889124044" lon="6.236449994240271" id="-1164">
		<tag k="name" v="Plasset" />
		<tag k="place" v="farm" />
		<tag k="ssr:stedsnr" v="269442" />
	</node>
	<node lat="58.47053610909717" lon="6.246130562986957" id="-1224">
		<tag k="name" v="Skailand" />
		<tag k="place" v="farm" />
		<tag k="ssr:stedsnr" v="243933" />
	</node>
	<node lat="58.49079999696224" lon="6.003699999812847" id="-1268">
		<tag k="name" v="Bjånes" />
		<tag k="place" v="locality" />
		<tag k="ssr:stedsnr" v="300473" />
	</node>
	<node lat="58.54623888665169" lon="6.238383335632494" id="-1279">
		<tag k="name" v="Drange" />
		<tag k="place" v="farm" />
		<tag k="ssr:stedsnr" v="303914" />
	</node>
	<node lat="58.46393889226182" lon="5.93601943914502" id="-1297">
		<tag k="name" v="Nygård" />
		<tag k="place" v="farm" />
		<tag k="ssr:stedsnr" v="464950" />
	</node>
	<node lat="58.44227222520559" lon="6.008016671160027" id="-1302">
		<tag k="name" v="Årstaddalen" />
		<tag k="place" v="farm" />
		<tag k="ssr:stedsnr" v="465844" />
	</node>
	<node lat="58.4660527810322" lon="5.998405559831569" id="-1303">
		<tag k="name" v="Hestholane" />
		<tag k="place" v="farm" />
		<tag k="ssr:stedsnr" v="465847" />
	</node>
	<node lat="58.54240278064906" lon="6.190855559199037" id="-1313">
		<tag k="name" v="Søyland" />
		<tag k="place" v="farm" />
		<tag k="ssr:stedsnr" v="327058" />
	</node>
	<node lat="58.54661111439475" lon="6.236066659095839" id="-1345">
		<tag k="name" v="Nordmork" />
		<tag k="place" v="farm" />
		<tag k="ssr:stedsnr" v="364925" />
	</node>
	<node lat="58.600524999086375" lon="6.447108339078398" id="-1402">
		<tag k="alt_name" v="Holet" />
		<tag k="name" v="Hola" />
		<tag k="place" v="locality" />
		<tag k="ssr:stedsnr" v="485847" />
	</node>
	<node lat="58.45776667041783" lon="6.000422224210869" id="-1544">
		<tag k="name" v="Eigerøyvegen" />
		<tag k="place" v="farm" />
		<tag k="ssr:stedsnr" v="485841" />
	</node>
	<node lat="58.48032500205875" lon="5.856369452010967" id="-1596">
		<tag k="name" v="Sandarnes" />
		<tag k="place" v="farm" />
		<tag k="ssr:stedsnr" v="544028" />
	</node>
	<node lat="58.61521192916496" lon="6.451776891684661" id="-1610">
		<tag k="fixme" v="consider place=hamlet" />
		<tag k="name" v="Åsen" />
		<tag k="place" v="farm" />
		<tag k="ssr:stedsnr" v="546820" />
	</node>
	<node lat="58.52535000098233" lon="6.092938893561469" id="-1641">
		<tag k="name" v="Brynje" />
		<tag k="place" v="farm" />
		<tag k="ssr:stedsnr" v="690974" />
	</node>
	<node lat="58.533447226518966" lon="6.172572222717909" id="-1659">
		<tag k="name" v="Stauråsen" />
		<tag k="place" v="farm" />
		<tag k="ssr:stedsnr" v="568858" />
	</node>
	<node lat="58.53393888762075" lon="6.245502777047641" id="-1671">
		<tag k="historic" v="shieling" />
		<tag k="name" v="Røynestøl" />
		<tag k="place" v="isolated_dwelling" />
		<tag k="ssr:stedsnr" v="694424" />
	</node>
	<node lat="58.47146596238528" lon="6.023763940876911" id="-1689">
		<tag k="name" v="Bakkebø" />
		<tag k="place" v="farm" />
		<tag k="ssr:stedsnr" v="585546" />
	</node>
	<node lat="58.45585555703101" lon="5.987605553904003" id="-1739">
		<tag k="name" v="Åsheim" />
		<tag k="place" v="farm" />
		<tag k="ssr:stedsnr" v="606851" />
	</node>
	<node lat="58.58699444095146" lon="6.247227772051283" id="-1741">
		<tag k="alt_name" v="Kallbergstølen" />
		<tag k="historic" v="shieling" />
		<tag k="name" v="Kaldbergstølen" />
		<tag k="place" v="isolated_dwelling" />
		<tag k="ssr:stedsnr" v="606862" />
	</node>
	<node lat="58.547091663694026" lon="6.218886118763349" id="-1746">
		<tag k="alt_name" v="Grøndel" />
		<tag k="name" v="Grøndøl" />
		<tag k="place" v="farm" />
		<tag k="ssr:stedsnr" v="606908" />
	</node>
	<node lat="58.43311944455758" lon="6.021783333997483" id="-1795">
		<tag k="name" v="Årstadmyra" />
		<tag k="place" v="farm" />
		<tag k="ssr:stedsnr" v="707691" />
	</node>
	<node lat="58.41271110962908" lon="6.100519436063934" id="-1801">
		<tag k="name" v="Indre Myran" />
		<tag k="place" v="farm" />
		<tag k="ssr:stedsnr" v="707939" />
	</node>
	<node lat="58.497916664229486" lon="6.132644446188609" id="-1844">
		<tag k="name" v="Auglend" />
		<tag k="place" v="farm" />
		<tag k="ssr:stedsnr" v="668197" />
	</node>
	<node lat="58.5426277811023" lon="6.214013883719277" id="-1928">
		<tag k="name" v="Stolen" />
		<tag k="place" v="farm" />
		<tag k="ssr:stedsnr" v="751066" />
	</node>
	<node lat="58.52223889043559" lon="6.093894442488096" id="-1938">
		<tag k="name" v="Bjørkenes" />
		<tag k="place" v="farm" />
		<tag k="ssr:stedsnr" v="751978" />
	</node>
	<node lat="58.44868055574403" lon="5.991941673987718" id="-1957">
		<tag k="building" v="civic" />
		<tag k="name" v="Egersund havnevesen" />
		<tag k="ssr:stedsnr" v="907383" />
	</node>
	<node lat="58.45245587865037" lon="6.001778796774377" id="-1998">
		<tag k="name" v="Egersund" />
		<tag k="place" v="town" />
		<tag k="ssr:stedsnr" v="910822" />
	</node>
	<node lat="58.512480557593925" lon="6.211038887167013" id="-2016">
		<tag k="alt_name" v="Braudland" />
		<tag k="name" v="Brautland" />
		<tag k="place" v="farm" />
		<tag k="ssr:stedsnr" v="911149" />
	</node>
	<node lat="58.521133332932294" lon="6.1774444479780675" id="-2044">
		<tag k="name" v="Lega" />
		<tag k="place" v="farm" />
		<tag k="ssr:stedsnr" v="811827" />
	</node>
	<node lat="58.5252777802585" lon="6.121983331903948" id="-2047">
		<tag k="name" v="Vassvik" />
		<tag k="place" v="farm" />
		<tag k="ssr:stedsnr" v="811933" />
	</node>
	<node lat="58.39424166625427" lon="6.030191668402627" id="-2081">
		<tag k="name" v="Nodland" />
		<tag k="place" v="farm" />
		<tag k="ssr:stedsnr" v="844577" />
	</node>
	<node lat="58.53368888539489" lon="6.1048138818233255" id="-2089">
		<tag k="name" v="Gåshus" />
		<tag k="place" v="farm" />
		<tag k="ssr:stedsnr" v="850178" />
	</node>
	<node lat="58.52360833031834" lon="6.116872223003116" id="-2116">
		<tag k="name" v="Krossen" />
		<tag k="place" v="farm" />
		<tag k="ssr:stedsnr" v="933960" />
	</node>
	<node lat="58.49709166265281" lon="6.2246499917487474" id="-2179">
		<tag k="name" v="Skogstad" />
		<tag k="place" v="locality" />
		<tag k="ssr:stedsnr" v="937510" />
	</node>
	<node lat="58.5204194430315" lon="5.99950832503004" id="-2229">
		<tag k="alt_name" v="Litle Eike;Eike litle" />
		<tag k="name" v="Lille Eige" />
		<tag k="old_name" v="Eikje, l" />
		<tag k="place" v="farm" />
		<tag k="ssr:stedsnr" v="188" />
	</node>
	<node lat="58.4957944477533" lon="5.905216664228061" id="-2248">
		<tag k="name" v="Vonheim" />
		<tag k="place" v="farm" />
		<tag k="ssr:stedsnr" v="698" />
	</node>
	<node lat="58.46303888509898" lon="6.243113887836036" id="-2288">
		<tag k="name" v="Ytra Plasset" />
		<tag k="place" v="farm" />
		<tag k="ssr:stedsnr" v="27456" />
	</node>
	<node lat="58.44940000187579" lon="5.993824997819993" id="-2311">
		<tag k="building" v="civic" />
		<tag k="name" v="Egersund politistasjon" />
		<tag k="ssr:stedsnr" v="57395" />
	</node>
	<node lat="58.52250277407637" lon="6.213077782093236" id="-2368">
		<tag k="name" v="Dalen" />
		<tag k="place" v="farm" />
		<tag k="ssr:stedsnr" v="83758" />
	</node>
	<node lat="58.48857777357499" lon="6.180794442034765" id="-2432">
		<tag k="name" v="Hadland" />
		<tag k="place" v="locality" />
		<tag k="ssr:stedsnr" v="119812" />
	</node>
	<node lat="58.547147221820154" lon="6.211652776836574" id="-2434">
		<tag k="name" v="Vormevik" />
		<tag k="place" v="farm" />
		<tag k="ssr:stedsnr" v="121079" />
	</node>
	<node lat="58.54132499823312" lon="6.214558338232621" id="-2466">
		<tag k="name" v="Skaret" />
		<tag k="place" v="farm" />
		<tag k="ssr:stedsnr" v="144054" />
	</node>
	<node lat="58.497913890544744" lon="5.920150005564951" id="-2469">
		<tag k="name" v="Sporabotnen" />
		<tag k="place" v="farm" />
		<tag k="ssr:stedsnr" v="144721" />
	</node>
	<node lat="58.52333610760571" lon="6.1111611133895885" id="-2479">
		<tag k="name" v="Prestegarden" />
		<tag k="place" v="farm" />
		<tag k="ssr:stedsnr" v="144951" />
	</node>
	<node lat="58.54682777819277" lon="6.226275005397824" id="-2497">
		<tag k="name" v="Klubban" />
		<tag k="place" v="farm" />
		<tag k="ssr:stedsnr" v="148490" />
	</node>
	<node lat="58.46716944744893" lon="5.920833338911644" id="-2520">
		<tag k="name" v="Maurholen" />
		<tag k="place" v="quarter" />
		<tag k="ssr:stedsnr" v="161980" />
	</node>
	<node lat="58.538017007408094" lon="6.099656823774429" id="-2576">
		<tag k="alt_name" v="Tveita" />
		<tag k="fixme" v="consider place=hamlet" />
		<tag k="name" v="Tveiti" />
		<tag k="place" v="farm" />
		<tag k="ssr:stedsnr" v="183072" />
	</node>
	<node lat="58.55956944710682" lon="6.192302785080208" id="-2588">
		<tag k="name" v="Liavollen" />
		<tag k="place" v="farm" />
		<tag k="ssr:stedsnr" v="205069" />
	</node>
	<node lat="58.526249995996764" lon="6.179158325141201" id="-2595">
		<tag k="name" v="Årsvoll" />
		<tag k="place" v="farm" />
		<tag k="ssr:stedsnr" v="205880" />
	</node>
	<node lat="58.49589444616375" lon="5.905311118758458" id="-2650">
		<tag k="name" v="Bakkane" />
		<tag k="place" v="farm" />
		<tag k="ssr:stedsnr" v="284871" />
	</node>
	<node lat="58.405852780429726" lon="6.028674998550977" id="-2654">
		<tag k="name" v="Indre Nodland" />
		<tag k="place" v="farm" />
		<tag k="ssr:stedsnr" v="285937" />
	</node>
	<node lat="58.462555552907524" lon="5.924208326522466" id="-2669">
		<tag k="name" v="Strondvegen" />
		<tag k="place" v="farm" />
		<tag k="ssr:stedsnr" v="303646" />
	</node>
	<node lat="58.519030556785786" lon="5.984444440944382" id="-2687">
		<tag k="alt_name" v="Eikestølen" />
		<tag k="name" v="Eikesstølen" />
		<tag k="old_name" v="Eikjestølen" />
		<tag k="place" v="farm" />
		<tag k="ssr:stedsnr" v="304161" />
	</node>
	<node lat="58.5128888890597" lon="6.04071943680633" id="-2698">
		<tag k="name" v="Lunden" />
		<tag k="place" v="farm" />
		<tag k="ssr:stedsnr" v="326836" />
	</node>
	<node lat="58.501380552004626" lon="6.061972230153639" id="-2709">
		<tag k="name" v="Torsaplasset" />
		<tag k="place" v="locality" />
		<tag k="ssr:stedsnr" v="326910" />
	</node>
	<node lat="58.46829444703827" lon="6.241663888127763" id="-2728">
		<tag k="name" v="Heimra Plasset" />
		<tag k="place" v="farm" />
		<tag k="ssr:stedsnr" v="331430" />
	</node>
	<node lat="58.3997611120192" lon="6.034169450620317" id="-2751">
		<tag k="name" v="Indre Nodland" />
		<tag k="place" v="farm" />
		<tag k="ssr:stedsnr" v="345947" />
	</node>
	<node lat="58.486405557561" lon="5.9926083380672415" id="-2790">
		<tag k="name" v="Tengsabakken" />
		<tag k="place" v="locality" />
		<tag k="ssr:stedsnr" v="362781" />
	</node>
	<node lat="58.51585277719638" lon="6.190016664817866" id="-2836">
		<tag k="name" v="Viåsen" />
		<tag k="place" v="farm" />
		<tag k="ssr:stedsnr" v="387041" />
	</node>
	<node lat="58.51169444656567" lon="6.231130558866321" id="-2847">
		<tag k="name" v="Slåttå" />
		<tag k="place" v="farm" />
		<tag k="ssr:stedsnr" v="390435" />
	</node>
	<node lat="58.52150000433239" lon="6.209350006165066" id="-2856">
		<tag k="name" v="Rughaug" />
		<tag k="place" v="farm" />
		<tag k="ssr:stedsnr" v="448764" />
	</node>
	<node lat="58.42043889305456" lon="6.097658340574583" id="-2858">
		<tag k="name" v="Hynland" />
		<tag k="place" v="locality" />
		<tag k="ssr:stedsnr" v="404516" />
	</node>
	<node lat="58.508624997246045" lon="5.989586104818269" id="-2870">
		<tag k="name" v="Buberget" />
		<tag k="place" v="locality" />
		<tag k="ssr:stedsnr" v="448865" />
	</node>
	<node lat="58.451037524584244" lon="5.979321472789672" id="-2875">
		<tag k="name" v="Horten" />
		<tag k="place" v="quarter" />
		<tag k="ssr:stedsnr" v="404923" />
	</node>
	<node lat="58.39899999611082" lon="6.078877773386017" id="-2885">
		<tag k="historic" v="shieling" />
		<tag k="name" v="Erikstølen" />
		<tag k="place" v="isolated_dwelling" />
		<tag k="ssr:stedsnr" v="406537" />
	</node>
	<node lat="58.54492222437872" lon="6.199997221309003" id="-2939">
		<tag k="name" v="Kulen" />
		<tag k="place" v="farm" />
		<tag k="ssr:stedsnr" v="448068" />
	</node>
	<node lat="58.53582777391999" lon="6.088022219769378" id="-2953">
		<tag k="name" v="Lunden" />
		<tag k="place" v="farm" />
		<tag k="ssr:stedsnr" v="508964" />
	</node>
	<node lat="58.54203611060135" lon="6.198986103999539" id="-2958">
		<tag k="name" v="Brattevoll" />
		<tag k="place" v="farm" />
		<tag k="ssr:stedsnr" v="509053" />
	</node>
	<node lat="58.55350833329395" lon="6.238511103270627" id="-2959">
		<tag k="historic" v="shieling" />
		<tag k="name" v="Stølane" />
		<tag k="place" v="isolated_dwelling" />
		<tag k="ssr:stedsnr" v="512425" />
	</node>
	<node lat="58.55652500024705" lon="6.243863888942077" id="-2960">
		<tag k="name" v="Krossen" />
		<tag k="place" v="farm" />
		<tag k="ssr:stedsnr" v="512428" />
	</node>
	<node lat="58.380730557103035" lon="6.070277781368415" id="-2973">
		<tag k="name" v="Svåen" />
		<tag k="place" v="farm" />
		<tag k="ssr:stedsnr" v="515028" />
	</node>
	<node lat="58.5311277746812" lon="6.157550000286088" id="-3015">
		<tag k="name" v="Orestad" />
		<tag k="place" v="farm" />
		<tag k="ssr:stedsnr" v="546171" />
	</node>
	<node lat="58.510347226529014" lon="6.2052194440008295" id="-3022">
		<tag k="fixme" v="multiple name tags, choose one and add the other to alt_name" />
		<tag k="name" v="Grønli;Grindåsen" />
		<tag k="place" v="farm" />
		<tag k="ssr:stedsnr" v="547161" />
	</node>
	<node lat="58.51436666436557" lon="6.202202782701479" id="-3058">
		<tag k="name" v="Kleivaplasset" />
		<tag k="place" v="locality" />
		<tag k="ssr:stedsnr" v="569046" />
	</node>
	<node lat="58.41651388759366" lon="5.976847226533478" id="-3080">
		<tag k="name" v="Brattestø" />
		<tag k="place" v="farm" />
		<tag k="ssr:stedsnr" v="585572" />
	</node>
	<node lat="58.45773055226156" lon="6.000838887497667" id="-3097">
		<tag k="name" v="Strandhaugen" />
		<tag k="place" v="farm" />
		<tag k="ssr:stedsnr" v="588590" />
	</node>
	<node lat="58.47767222081804" lon="5.884644442658484" id="-3103">
		<tag k="name" v="Råna" />
		<tag k="place" v="farm" />
		<tag k="ssr:stedsnr" v="604076" />
	</node>
	<node lat="58.43806373602719" lon="6.0092118644893775" id="-3113">
		<tag k="building" v="commercial" />
		<tag k="name" v="Lygre" />
		<tag k="ssr:stedsnr" v="604746" />
	</node>
	<node lat="58.45318333671841" lon="5.97171945052658" id="-3115">
		<tag k="name" v="Vadlåsen" />
		<tag k="place" v="quarter" />
		<tag k="ssr:stedsnr" v="605540" />
	</node>
	<node lat="58.52737499689208" lon="6.126399993595028" id="-3119">
		<tag k="name" v="Skjerpe" />
		<tag k="place" v="quarter" />
		<tag k="ssr:stedsnr" v="607178" />
	</node>
	<node lat="58.4756194463664" lon="5.880449997488902" id="-3126">
		<tag k="alt_name" v="Næsheim" />
		<tag k="name" v="Nesheim" />
		<tag k="place" v="farm" />
		<tag k="ssr:stedsnr" v="606657" />
	</node>
	<node lat="58.52055555923953" lon="6.260586114136483" id="-3174">
		<tag k="name" v="Pelarstølen" />
		<tag k="place" v="farm" />
		<tag k="ssr:stedsnr" v="633470" />
	</node>
	<node lat="58.496022225957276" lon="6.068777782874577" id="-3213">
		<tag k="name" v="Øygarden" />
		<tag k="place" v="locality" />
		<tag k="ssr:stedsnr" v="664482" />
	</node>
	<node lat="58.47813784873581" lon="5.880018338306772" id="-3221">
		<tag k="fixme" v="consider place=hamlet" />
		<tag k="name" v="Hellvik" />
		<tag k="place" v="farm" />
		<tag k="ssr:stedsnr" v="665081" />
	</node>
	<node lat="58.47818055299385" lon="5.878199997196444" id="-3229">
		<tag k="fixme" v="consider place=hamlet" />
		<tag k="name" v="Hellvik" />
		<tag k="place" v="village" />
		<tag k="ssr:stedsnr" v="667617" />
	</node>
	<node lat="58.55499166372451" lon="6.205088892140655" id="-3312">
		<tag k="name" v="Kleiva" />
		<tag k="place" v="farm" />
		<tag k="ssr:stedsnr" v="751077" />
	</node>
	<node lat="58.542997220808054" lon="6.264797222436029" id="-3334">
		<tag k="name" v="Raudhedleren" />
		<tag k="place" v="farm" />
		<tag k="ssr:stedsnr" v="755495" />
	</node>
	<node lat="58.57086388691423" lon="6.133255561087413" id="-3412">
		<tag k="name" v="Hidalen" />
		<tag k="place" v="locality" />
		<tag k="ssr:stedsnr" v="789102" />
	</node>
	<node lat="58.519241663628165" lon="6.107561111778466" id="-3414">
		<tag k="name" v="Lauvvoll" />
		<tag k="place" v="farm" />
		<tag k="ssr:stedsnr" v="789175" />
	</node>
	<node lat="58.53680833132953" lon="6.173363886879647" id="-3417">
		<tag k="name" v="Myrvoll" />
		<tag k="place" v="farm" />
		<tag k="ssr:stedsnr" v="789192" />
	</node>
	<node lat="58.52989166933932" lon="6.182561105236638" id="-3433">
		<tag k="name" v="Langebakka" />
		<tag k="place" v="farm" />
		<tag k="ssr:stedsnr" v="811843" />
	</node>
	<node lat="58.520702774884555" lon="6.104624993890384" id="-3440">
		<tag k="name" v="Vattakleiva" />
		<tag k="place" v="farm" />
		<tag k="ssr:stedsnr" v="811970" />
	</node>
	<node lat="58.5145277754111" lon="6.206127769603826" id="-3443">
		<tag k="name" v="Høygård" />
		<tag k="place" v="locality" />
		<tag k="ssr:stedsnr" v="812043" />
	</node>
	<node lat="58.54083611188231" lon="6.2185000008840134" id="-3454">
		<tag k="name" v="Kleiva" />
		<tag k="place" v="farm" />
		<tag k="ssr:stedsnr" v="816497" />
	</node>
	<node lat="58.47894444658247" lon="6.020630563595936" id="-3502">
		<tag k="name" v="Viga" />
		<tag k="place" v="locality" />
		<tag k="ssr:stedsnr" v="847499" />
	</node>
	<node lat="58.510516670347776" lon="5.964405552801529" id="-3552">
		<tag k="name" v="Birkeland" />
		<tag k="place" v="farm" />
		<tag k="ssr:stedsnr" v="872850" />
	</node>
	<node lat="58.545997225284104" lon="6.2418694389561775" id="-3571">
		<tag k="name" v="Reiaråsen" />
		<tag k="place" v="farm" />
		<tag k="ssr:stedsnr" v="876472" />
	</node>
	<node lat="58.51344999889823" lon="6.224527776727817" id="-3575">
		<tag k="name" v="Plasset" />
		<tag k="place" v="farm" />
		<tag k="ssr:stedsnr" v="876479" />
	</node>
	<node lat="58.53757500269138" lon="6.22789167219741" id="-3579">
		<tag k="name" v="Høgebakka" />
		<tag k="place" v="locality" />
		<tag k="ssr:stedsnr" v="876435" />
	</node>
	<node lat="58.5190722181205" lon="6.234213891249752" id="-3580">
		<tag k="name" v="Traen" />
		<tag k="place" v="farm" />
		<tag k="ssr:stedsnr" v="876443" />
	</node>
	<node lat="58.510516667603824" lon="6.2461861073429965" id="-3601">
		<tag k="name" v="Toptene" />
		<tag k="place" v="locality" />
		<tag k="ssr:stedsnr" v="937479" />
	</node>
	<node lat="58.433872222953994" lon="6.0632722289398515" id="-3630">
		<tag k="name" v="Nedre Stølen" />
		<tag k="place" v="locality" />
		<tag k="ssr:stedsnr" v="965319" />
	</node>
	<node lat="58.44775184040201" lon="5.997498671889836" id="-3659">
		<tag k="fixme" v="consider place=hamlet" />
		<tag k="name" v="Egersunds prestegård" />
		<tag k="place" v="farm" />
		<tag k="ssr:stedsnr" v="990912" />
	</node>
</osm>
