<?xml version="1.0" encoding="UTF-8"?>
<osm generator="osmapis" version="0.6">
	<node id="-391168" lat="58.409779704" lon="6.11474553422">
		<tag k="alt_name" v="Nordre Langtjørn" />
		<tag k="name" v="Nordra Langtjørn" />
		<tag k="natural" v="water" />
		<tag k="ssr:stedsnr" v="707566" />
	</node>
	<node id="-391165" lat="58.4495388862" lon="6.03801667133">
		<tag k="name" v="Veshovdaåna" />
		<tag k="ssr:stedsnr" v="707291" />
		<tag k="waterway" v="river" />
	</node>
	<node id="-391164" lat="58.4712560241" lon="6.08671132111">
		<tag k="name" v="Heimra Jonslitjørna" />
		<tag k="natural" v="water" />
		<tag k="ssr:stedsnr" v="707288" />
	</node>
	<node id="-389114" lat="58.4603416684" lon="6.05367499813">
		<tag k="name" v="Horveosen" />
		<tag k="natural" v="bay" />
		<tag k="ssr:stedsnr" v="283230" />
	</node>
	<node id="-391161" lat="58.3851444489" lon="6.08373889264">
		<tag k="name" v="Øvra Blåbærtjørna" />
		<tag k="natural" v="water" />
		<tag k="ssr:stedsnr" v="707040" />
	</node>
	<node id="-389107" lat="58.4599277804" lon="5.96246111848">
		<tag k="name" v="Kleivatjørna" />
		<tag k="natural" v="water" />
		<tag k="ssr:stedsnr" v="282557" />
	</node>
	<node id="-389117" lat="58.4407354775" lon="6.01859664586">
		<tag k="name" v="Skåradammen" />
		<tag k="natural" v="water" />
		<tag k="ssr:stedsnr" v="283703" />
	</node>
	<node id="-389099" lat="58.4909694487" lon="6.26398889214">
		<tag k="name" v="Rotten" />
		<tag k="natural" v="cape" />
		<tag k="ssr:stedsnr" v="269481" />
	</node>
	<node id="-389098" lat="58.4937111069" lon="6.26241388716">
		<tag k="name" v="Mjelkevik" />
		<tag k="natural" v="bay" />
		<tag k="ssr:stedsnr" v="269479" />
	</node>
	<node id="-391143" lat="58.5886503024" lon="6.25845149578">
		<tag k="name" v="Blanketjørna" />
		<tag k="natural" v="water" />
		<tag k="ssr:stedsnr" v="694383" />
		<tag k="water" v="lake" />
	</node>
	<node id="-391141" lat="58.5875638853" lon="6.35710555503">
		<tag k="name" v="Urtjørn" />
		<tag k="natural" v="water" />
		<tag k="ssr:stedsnr" v="694279" />
	</node>
	<node id="-391138" lat="58.4983319656" lon="6.20512304237">
		<tag k="name" v="Heiatjørna" />
		<tag k="natural" v="water" />
		<tag k="ssr:stedsnr" v="691062" />
	</node>
	<node id="-391137" lat="58.5058750035" lon="6.19980833593">
		<tag k="name" v="Osevad" />
		<tag k="place" v="locality" />
		<tag k="ssr:stedsnr" v="691061" />
	</node>
	<node id="-391136" lat="58.5015888883" lon="6.18969443978">
		<tag k="name" v="Blanketjørn" />
		<tag k="natural" v="water" />
		<tag k="ssr:stedsnr" v="691056" />
	</node>
	<node id="-391134" lat="58.5492055531" lon="6.14617777447">
		<tag k="name" v="Stølstjørn" />
		<tag k="natural" v="water" />
		<tag k="ssr:stedsnr" v="690987" />
	</node>
	<node id="-391129" lat="58.5294138872" lon="6.10070832781">
		<tag k="name" v="Jorenvika" />
		<tag k="natural" v="bay" />
		<tag k="ssr:stedsnr" v="690959" />
	</node>
	<node id="-391119" lat="58.5065249979" lon="6.04180833748">
		<tag k="name" v="Litlåna" />
		<tag k="ssr:stedsnr" v="690848" />
		<tag k="waterway" v="river" />
	</node>
	<node id="-391118" lat="58.5003166691" lon="6.01520555786">
		<tag k="name" v="Vidfed" />
		<tag k="natural" v="beach" />
		<tag k="ssr:stedsnr" v="690846" />
	</node>
	<node id="-391117" lat="58.5302083333" lon="5.94561110963">
		<tag k="name" v="Brattstitjørna" />
		<tag k="natural" v="water" />
		<tag k="ssr:stedsnr" v="690830" />
	</node>
	<node id="-391116" lat="58.5705277761" lon="6.13960277218">
		<tag k="name" v="Svartevatnet" />
		<tag k="natural" v="water" />
		<tag k="ssr:stedsnr" v="690796" />
	</node>
	<node id="-391114" lat="58.5117027769" lon="5.86648055339">
		<tag k="name" v="Nilsalundtjørna" />
		<tag k="natural" v="water" />
		<tag k="ssr:stedsnr" v="690107" />
	</node>
	<node id="-391103" lat="58.4987210659" lon="5.99853884509">
		<tag k="name" v="Auravatnet" />
		<tag k="natural" v="water" />
		<tag k="ssr:stedsnr" v="673374" />
		<tag k="water" v="lake" />
	</node>
	<node id="-391102" lat="58.3781750044" lon="6.10508055432">
		<tag k="name" v="Tritjørnan" />
		<tag k="natural" v="water" />
		<tag k="ssr:stedsnr" v="668980" />
	</node>
	<node id="-391100" lat="58.5268579008" lon="6.25831688734">
		<tag k="name" v="Holmavatnet" />
		<tag k="natural" v="water" />
		<tag k="ssr:stedsnr" v="668953" />
	</node>
	<node id="-391097" lat="58.4508028294" lon="6.1371366818">
		<tag k="name" v="Grønehølen" />
		<tag k="natural" v="water" />
		<tag k="ssr:stedsnr" v="668838" />
	</node>
	<node id="-391096" lat="58.4375999989" lon="5.95449999894">
		<tag k="name" v="Smådalsvatnet" />
		<tag k="natural" v="water" />
		<tag k="ssr:stedsnr" v="668827" />
	</node>
	<node id="-391089" lat="58.5177972646" lon="6.20257100895">
		<tag k="alt_name" v="Høylandstjørna" />
		<tag k="name" v="Høylandstjørni" />
		<tag k="natural" v="water" />
		<tag k="ssr:stedsnr" v="668150" />
	</node>
	<node id="-391087" lat="58.5431201176" lon="6.11690484901">
		<tag k="alt_name" v="Bukkatjørn" />
		<tag k="name" v="Bukkatjørni" />
		<tag k="natural" v="water" />
		<tag k="ssr:stedsnr" v="668070" />
	</node>
	<node id="-391083" lat="58.4864141578" lon="6.23225239503">
		<tag k="name" v="Krågevatnet" />
		<tag k="natural" v="water" />
		<tag k="ssr:stedsnr" v="667945" />
		<tag k="water" v="lake" />
	</node>
	<node id="-391081" lat="58.3994749986" lon="6.09135000177">
		<tag k="name" v="Halsen" />
		<tag k="natural" v="cape" />
		<tag k="ssr:stedsnr" v="667917" />
	</node>
	<node id="-391079" lat="58.5940722209" lon="6.42426110784">
		<tag k="name" v="Sandtjørna" />
		<tag k="natural" v="water" />
		<tag k="ssr:stedsnr" v="667869" />
	</node>
	<node id="-391076" lat="58.5757722239" lon="6.27588889232">
		<tag k="alt_name" v="Mellomsbekken" />
		<tag k="name" v="Mellombekken" />
		<tag k="ssr:stedsnr" v="667854" />
		<tag k="waterway" v="stream" />
	</node>
	<node id="-391074" lat="58.4588000017" lon="6.04859999847">
		<tag k="name" v="Veshovdavatnet" />
		<tag k="natural" v="water" />
		<tag k="ssr:stedsnr" v="667827" />
		<tag k="water" v="lake" />
	</node>
	<node id="-391071" lat="58.6251675024" lon="6.43093366027">
		<tag k="name" v="Bjørndalstjørna" />
		<tag k="natural" v="water" />
		<tag k="ssr:stedsnr" v="667796" />
	</node>
	<node id="-391069" lat="58.6351166626" lon="6.39214999608">
		<tag k="name" v="Sauetjørna" />
		<tag k="natural" v="water" />
		<tag k="ssr:stedsnr" v="667787" />
	</node>
	<node id="-391067" lat="58.424722344" lon="6.17884230734">
		<tag k="name" v="Lauvkrotjørna" />
		<tag k="natural" v="water" />
		<tag k="ssr:stedsnr" v="667731" />
	</node>
	<node id="-391063" lat="58.4123250039" lon="6.06068056044">
		<tag k="name" v="Kolltjørna" />
		<tag k="natural" v="water" />
		<tag k="ssr:stedsnr" v="667707" />
	</node>
	<node id="-391062" lat="58.4893498807" lon="6.1325722399">
		<tag k="name" v="Eigelandsvatnet" />
		<tag k="natural" v="water" />
		<tag k="ssr:stedsnr" v="667668" />
		<tag k="water" v="lake" />
	</node>
	<node id="-389370" lat="58.3811218677" lon="6.11356297694">
		<tag k="name" v="Mjåvatnet" />
		<tag k="natural" v="water" />
		<tag k="ssr:stedsnr" v="364980" />
		<tag k="water" v="lake" />
	</node>
	<node id="-391058" lat="58.4971194471" lon="5.91665834033">
		<tag k="name" v="Sporavatnet" />
		<tag k="natural" v="water" />
		<tag k="ssr:stedsnr" v="667648" />
		<tag k="water" v="lake" />
	</node>
	<node id="-391043" lat="58.6325916638" lon="6.42003056238">
		<tag k="name" v="Dyrdalstjørna" />
		<tag k="natural" v="water" />
		<tag k="ssr:stedsnr" v="665622" />
	</node>
	<node id="-391040" lat="58.627525737" lon="6.47694660994">
		<tag k="name" v="Langavatnet" />
		<tag k="natural" v="water" />
		<tag k="ssr:stedsnr" v="665559" />
		<tag k="water" v="lake" />
	</node>
	<node id="-389440" lat="58.4685416674" lon="6.06284999825">
		<tag k="name" v="Sandtjørna" />
		<tag k="natural" v="water" />
		<tag k="ssr:stedsnr" v="404275" />
	</node>
	<node id="-391035" lat="58.4903138868" lon="6.1222000021">
		<tag k="name" v="Tinntjørn" />
		<tag k="natural" v="water" />
		<tag k="ssr:stedsnr" v="665220" />
	</node>
	<node id="-389256" lat="58.4534222221" lon="6.24031666737">
		<tag k="name" v="Lomsvika" />
		<tag k="natural" v="bay" />
		<tag k="ssr:stedsnr" v="331427" />
	</node>
	<node id="-391022" lat="58.4493246739" lon="6.05727704709">
		<tag k="name" v="Gromlaustjørna" />
		<tag k="natural" v="water" />
		<tag k="ssr:stedsnr" v="662270" />
	</node>
	<node id="-391021" lat="58.4434611086" lon="6.09092777332">
		<tag k="name" v="Diltetjørna" />
		<tag k="natural" v="water" />
		<tag k="ssr:stedsnr" v="662267" />
	</node>
	<node id="-391014" lat="58.4606388911" lon="6.00712500349">
		<tag k="name" v="Kjerjaneset" />
		<tag k="natural" v="cape" />
		<tag k="ssr:stedsnr" v="649607" />
	</node>
	<node id="-391011" lat="58.4476380191" lon="5.97498732694">
		<tag k="name" v="Svartamyr" />
		<tag k="natural" v="water" />
		<tag k="ssr:stedsnr" v="648726" />
	</node>
	<node id="-389776" lat="58.4532119077" lon="6.23059966359">
		<tag k="name" v="Tvitjørnene" />
		<tag k="natural" v="water" />
		<tag k="ssr:stedsnr" v="81368" />
	</node>
	<node id="-391006" lat="58.4101971752" lon="6.12062267854">
		<tag k="name" v="Øystra Langtjørn" />
		<tag k="natural" v="water" />
		<tag k="ssr:stedsnr" v="648576" />
	</node>
	<node id="-389093" lat="58.5520583367" lon="6.21887499733">
		<tag k="name" v="Madhølen" />
		<tag k="place" v="locality" />
		<tag k="ssr:stedsnr" v="269433" />
	</node>
	<node id="-391001" lat="58.3851333331" lon="6.11890277275">
		<tag k="name" v="Deblemyrane" />
		<tag k="natural" v="bay" />
		<tag k="ssr:stedsnr" v="647264" />
	</node>
	<node id="-390994" lat="58.4279361111" lon="6.06942221816">
		<tag k="name" v="Tanslandshølen" />
		<tag k="place" v="locality" />
		<tag k="ssr:stedsnr" v="646939" />
	</node>
	<node id="-390984" lat="58.4515429216" lon="6.0235871747">
		<tag k="name" v="Kjerkjetjørna" />
		<tag k="natural" v="water" />
		<tag k="ssr:stedsnr" v="646692" />
	</node>
	<node id="-390983" lat="58.4371920689" lon="6.04232879991">
		<tag k="name" v="Svarteskartjørna" />
		<tag k="natural" v="water" />
		<tag k="ssr:stedsnr" v="646691" />
	</node>
	<node id="-389569" lat="58.4144249964" lon="6.12169999729">
		<tag k="name" v="Hestatjørna" />
		<tag k="natural" v="water" />
		<tag k="ssr:stedsnr" v="767" />
	</node>
	<node id="-390980" lat="58.4236694443" lon="6.06479166258">
		<tag k="name" v="Selebærtjørna" />
		<tag k="natural" v="water" />
		<tag k="ssr:stedsnr" v="646530" />
	</node>
	<node id="-390976" lat="58.4728361149" lon="6.20223055596">
		<tag k="name" v="Revatjørna" />
		<tag k="natural" v="water" />
		<tag k="ssr:stedsnr" v="646346" />
	</node>
	<node id="-390975" lat="58.4343864236" lon="6.16247526729">
		<tag k="name" v="Ytra Ulsvatnet" />
		<tag k="natural" v="water" />
		<tag k="ssr:stedsnr" v="646317" />
		<tag k="water" v="lake" />
	</node>
	<node id="-390974" lat="58.4660679079" lon="6.05483279831">
		<tag k="name" v="Heimra Sandtjørna" />
		<tag k="natural" v="water" />
		<tag k="ssr:stedsnr" v="646276" />
	</node>
	<node id="-390972" lat="58.4569972229" lon="6.25466944386">
		<tag k="name" v="Risvik" />
		<tag k="natural" v="bay" />
		<tag k="ssr:stedsnr" v="634483" />
	</node>
	<node id="-390970" lat="58.4650444455" lon="6.22755555126">
		<tag k="name" v="Kleppen" />
		<tag k="place" v="island" />
		<tag k="ssr:stedsnr" v="634464" />
	</node>
	<node id="-390969" lat="58.5767861135" lon="6.28544722071">
		<tag k="name" v="Migaren" />
		<tag k="ssr:stedsnr" v="633565" />
		<tag k="waterway" v="stream" />
	</node>
	<node id="-390964" lat="58.4805249997" lon="6.22598334062">
		<tag k="name" v="Krågebekken" />
		<tag k="ssr:stedsnr" v="633505" />
		<tag k="waterway" v="stream" />
	</node>
	<node id="-390961" lat="58.4787277782" lon="6.26315833233">
		<tag k="name" v="Ristangen" />
		<tag k="natural" v="cape" />
		<tag k="ssr:stedsnr" v="633488" />
	</node>
	<node id="-390954" lat="58.5546222262" lon="6.24594167421">
		<tag k="name" v="Timrevik" />
		<tag k="natural" v="bay" />
		<tag k="ssr:stedsnr" v="633445" />
	</node>
	<node id="-390948" lat="58.4793305537" lon="6.27638888854">
		<tag k="name" v="Litløy" />
		<tag k="place" v="island" />
		<tag k="ssr:stedsnr" v="633137" />
	</node>
	<node id="-390947" lat="58.5935999994" lon="6.34499166501">
		<tag k="name" v="Kvednhusholmen" />
		<tag k="place" v="islet" />
		<tag k="ssr:stedsnr" v="632273" />
	</node>
	<node id="-390937" lat="58.5024250021" lon="6.21626388563">
		<tag k="name" v="Øyna" />
		<tag k="place" v="island" />
		<tag k="ssr:stedsnr" v="630037" />
	</node>
	<node id="-390936" lat="58.5079888926" lon="6.11539999157">
		<tag k="name" v="Kobartjørn" />
		<tag k="natural" v="water" />
		<tag k="ssr:stedsnr" v="629998" />
		<tag k="water" v="lake" />
	</node>
	<node id="-390932" lat="58.519955559" lon="6.1491611178">
		<tag k="name" v="Kattatjørna" />
		<tag k="natural" v="water" />
		<tag k="ssr:stedsnr" v="629966" />
	</node>
	<node id="-390929" lat="58.5039083369" lon="5.98117778405">
		<tag k="name" v="Skittpollen" />
		<tag k="natural" v="water" />
		<tag k="ssr:stedsnr" v="629865" />
		<tag k="water" v="pond" />
	</node>
	<node id="-389421" lat="58.4614438072" lon="6.24359241697">
		<tag k="name" v="Hølen" />
		<tag k="natural" v="water" />
		<tag k="ssr:stedsnr" v="391456" />
	</node>
	<node id="-390924" lat="58.5225111106" lon="5.96781388667">
		<tag k="name" v="Urbekk" />
		<tag k="ssr:stedsnr" v="629824" />
		<tag k="waterway" v="stream" />
	</node>
	<node id="-390919" lat="58.4002250041" lon="6.09150000528">
		<tag k="name" v="Mjåsund" />
		<tag k="natural" v="strait" />
		<tag k="ssr:stedsnr" v="627394" />
	</node>
	<node id="-390917" lat="58.5949499958" lon="6.27035278124">
		<tag k="alt_name" v="øvra Heiingsvatnet" />
		<tag k="name" v="Heiingvatnet" />
		<tag k="natural" v="water" />
		<tag k="ssr:stedsnr" v="607847" />
	</node>
	<node id="-390916" lat="58.605262815" lon="6.45326111684">
		<tag k="name" v="Hommetjørna" />
		<tag k="natural" v="water" />
		<tag k="ssr:stedsnr" v="607838" />
	</node>
	<node id="-390914" lat="58.4479000038" lon="6.20902500251">
		<tag k="name" v="Nordra Albogtjørna" />
		<tag k="natural" v="water" />
		<tag k="ssr:stedsnr" v="607823" />
	</node>
	<node id="-390913" lat="58.4542883075" lon="6.19717920182">
		<tag k="name" v="Kverven" />
		<tag k="natural" v="water" />
		<tag k="ssr:stedsnr" v="607820" />
		<tag k="water" v="lake" />
	</node>
	<node id="-390909" lat="58.5328805588" lon="6.09348333821">
		<tag k="alt_name" v="Brynneslandsvatnet" />
		<tag k="name" v="Bryneslandsvatnet" />
		<tag k="natural" v="water" />
		<tag k="ssr:stedsnr" v="607181" />
		<tag k="water" v="lake" />
	</node>
	<node id="-390907" lat="58.3929780952" lon="6.04391742589">
		<tag k="name" v="Langevatnet" />
		<tag k="natural" v="water" />
		<tag k="ssr:stedsnr" v="606989" />
	</node>
	<node id="-390904" lat="58.5695199456" lon="6.26878511168">
		<tag k="alt_name" v="Eldrivatnet" />
		<tag k="name" v="Eldrevatnet" />
		<tag k="natural" v="water" />
		<tag k="ssr:stedsnr" v="606892" />
		<tag k="water" v="lake" />
	</node>
	<node id="-390903" lat="58.5726055553" lon="6.26148889546">
		<tag k="name" v="Salttjørna" />
		<tag k="natural" v="water" />
		<tag k="ssr:stedsnr" v="606890" />
	</node>
	<node id="-390902" lat="58.5905660156" lon="6.4394401755">
		<tag k="alt_name" v="Holavatnet" />
		<tag k="name" v="Holevatnet" />
		<tag k="natural" v="water" />
		<tag k="ssr:stedsnr" v="606880" />
		<tag k="water" v="lake" />
	</node>
	<node id="-389417" lat="58.5985527783" lon="6.32045555">
		<tag k="name" v="Birtesbekken" />
		<tag k="ssr:stedsnr" v="391324" />
		<tag k="waterway" v="stream" />
	</node>
	<node id="-390900" lat="58.4403250017" lon="6.19157500386">
		<tag k="name" v="Stølstjørna" />
		<tag k="natural" v="water" />
		<tag k="ssr:stedsnr" v="606790" />
	</node>
	<node id="-390898" lat="58.4383784945" lon="6.17552047489">
		<tag k="name" v="Ulsvatnet" />
		<tag k="natural" v="water" />
		<tag k="ssr:stedsnr" v="606782" />
		<tag k="water" v="lake" />
	</node>
	<node id="-390891" lat="58.4869555516" lon="6.18881944751">
		<tag k="name" v="Glypstadvatnet" />
		<tag k="natural" v="water" />
		<tag k="ssr:stedsnr" v="606671" />
		<tag k="water" v="lake" />
	</node>
	<node id="-390888" lat="58.4801944405" lon="5.97955000826">
		<tag k="name" v="Varåstjørna" />
		<tag k="natural" v="water" />
		<tag k="old_name" v="Vardåstjørni" />
		<tag k="ssr:stedsnr" v="606661" />
	</node>
	<node id="-390885" lat="58.4608478203" lon="6.07122686492">
		<tag k="name" v="Djubavatnet" />
		<tag k="natural" v="water" />
		<tag k="ssr:stedsnr" v="606654" />
	</node>
	<node id="-390884" lat="58.4643527823" lon="6.09153056331">
		<tag k="name" v="Horvevatnet" />
		<tag k="natural" v="water" />
		<tag k="ssr:stedsnr" v="606650" />
	</node>
	<node id="-390882" lat="58.4592750019" lon="5.94540000224">
		<tag k="name" v="Hatjørna" />
		<tag k="natural" v="water" />
		<tag k="ssr:stedsnr" v="606646" />
	</node>
	<node id="-390880" lat="58.4728308903" lon="6.01583065874">
		<tag k="name" v="Langevatnet" />
		<tag k="natural" v="water" />
		<tag k="ssr:stedsnr" v="606627" />
		<tag k="water" v="lake" />
	</node>
	<node id="-390876" lat="58.4946555564" lon="5.97961389235">
		<tag k="name" v="Skittjørna" />
		<tag k="natural" v="water" />
		<tag k="ssr:stedsnr" v="604792" />
	</node>
	<node id="-390875" lat="58.5859114838" lon="6.32253234417">
		<tag k="name" v="Gyavatnet" />
		<tag k="natural" v="water" />
		<tag k="ssr:stedsnr" v="606866" />
		<tag k="water" v="lake" />
	</node>
	<node id="-390874" lat="58.4619061313" lon="6.10018215725">
		<tag k="name" v="Laupstadvatnet" />
		<tag k="natural" v="water" />
		<tag k="ssr:stedsnr" v="606864" />
		<tag k="water" v="lake" />
	</node>
	<node id="-390870" lat="58.4538415483" lon="6.11937143929">
		<tag k="name" v="Kjerdalstjørna" />
		<tag k="natural" v="water" />
		<tag k="ssr:stedsnr" v="606847" />
	</node>
	<node id="-390868" lat="58.443440999" lon="5.97365823937">
		<tag k="name" v="Holevigtjørna" />
		<tag k="natural" v="water" />
		<tag k="ssr:stedsnr" v="606834" />
	</node>
	<node id="-390867" lat="58.6135722178" lon="6.38495554813">
		<tag k="alt_name" v="Mjelkevatnet, store" />
		<tag k="name" v="Stora Mjelkevatnet" />
		<tag k="natural" v="water" />
		<tag k="ssr:stedsnr" v="606830" />
	</node>
	<node id="-390866" lat="58.4499500006" lon="6.10907499599">
		<tag k="name" v="Langevatnet" />
		<tag k="natural" v="water" />
		<tag k="ssr:stedsnr" v="606824" />
	</node>
	<node id="-389411" lat="58.6223363009" lon="6.41159805485">
		<tag k="name" v="Breidaltjørna" />
		<tag k="natural" v="water" />
		<tag k="ssr:stedsnr" v="390466" />
	</node>
	<node id="-390864" lat="58.6298149569" lon="6.3727202184">
		<tag k="alt_name" v="Mørkevatn" />
		<tag k="name" v="Mørkevatnet" />
		<tag k="natural" v="water" />
		<tag k="ssr:stedsnr" v="606802" />
		<tag k="water" v="lake" />
	</node>
	<node id="-390858" lat="58.4919749957" lon="6.17588888382">
		<tag k="name" v="Revstitjørna" />
		<tag k="natural" v="water" />
		<tag k="ssr:stedsnr" v="604247" />
	</node>
	<node id="-390855" lat="58.491155554" lon="6.14461388807">
		<tag k="name" v="Stemtjørn" />
		<tag k="natural" v="water" />
		<tag k="ssr:stedsnr" v="604114" />
	</node>
	<node id="-390852" lat="58.4866032687" lon="5.88640560657">
		<tag k="name" v="Nedra Hellvikvatnet" />
		<tag k="natural" v="water" />
		<tag k="ssr:stedsnr" v="604082" />
		<tag k="water" v="lake" />
	</node>
	<node id="-390844" lat="58.4825055516" lon="5.99682221465">
		<tag k="name" v="Svarthølen" />
		<tag k="place" v="locality" />
		<tag k="ssr:stedsnr" v="603737" />
	</node>
	<node id="-390837" lat="58.4363632579" lon="6.0573367308">
		<tag k="name" v="Bassatjørna" />
		<tag k="natural" v="water" />
		<tag k="ssr:stedsnr" v="601247" />
	</node>
	<node id="-390820" lat="58.444684248" lon="5.96207215039">
		<tag k="name" v="Hestavatnet" />
		<tag k="natural" v="water" />
		<tag k="ssr:stedsnr" v="587777" />
		<tag k="water" v="lake" />
	</node>
	<node id="-390819" lat="58.4410055549" lon="5.9691305515">
		<tag k="name" v="Torvhustjørna" />
		<tag k="natural" v="water" />
		<tag k="ssr:stedsnr" v="587775" />
	</node>
	<node id="-390815" lat="58.4240361125" lon="6.11296666896">
		<tag k="name" v="Stemmetjørna" />
		<tag k="natural" v="water" />
		<tag k="ssr:stedsnr" v="587599" />
	</node>
	<node id="-390802" lat="58.4201388877" lon="6.0952138953">
		<tag k="name" v="Bustemyrbekken" />
		<tag k="ssr:stedsnr" v="585925" />
		<tag k="waterway" v="stream" />
	</node>
	<node id="-390787" lat="58.4413250013" lon="6.15866388473">
		<tag k="name" v="Nedre Teodoratjørna" />
		<tag k="natural" v="water" />
		<tag k="ssr:stedsnr" v="585292" />
	</node>
	<node id="-390783" lat="58.4005444489" lon="6.13854721897">
		<tag k="name" v="Vidjelitjørna" />
		<tag k="natural" v="water" />
		<tag k="ssr:stedsnr" v="584517" />
	</node>
	<node id="-390779" lat="58.3812444419" lon="6.0904083286">
		<tag k="name" v="Øvra Stølstjørna" />
		<tag k="natural" v="water" />
		<tag k="ssr:stedsnr" v="576045" />
	</node>
	<node id="-390771" lat="58.5118777818" lon="6.2471361079">
		<tag k="name" v="Nesbakkhølen" />
		<tag k="place" v="locality" />
		<tag k="ssr:stedsnr" v="572468" />
	</node>
	<node id="-390770" lat="58.5005333345" lon="6.24719722921">
		<tag k="name" v="Rapstadhølen" />
		<tag k="place" v="locality" />
		<tag k="ssr:stedsnr" v="572461" />
	</node>
	<node id="-390769" lat="58.5238833305" lon="6.23584722454">
		<tag k="name" v="Studapollen" />
		<tag k="natural" v="bay" />
		<tag k="ssr:stedsnr" v="572454" />
	</node>
	<node id="-390764" lat="58.5786500034" lon="6.36783055555">
		<tag k="name" v="Baglibekken" />
		<tag k="ssr:stedsnr" v="572293" />
		<tag k="waterway" v="stream" />
	</node>
	<node id="-390763" lat="58.5970166661" lon="6.39149721707">
		<tag k="name" v="Sletteknudstjørna" />
		<tag k="natural" v="water" />
		<tag k="ssr:stedsnr" v="572261" />
	</node>
	<node id="-390761" lat="58.5535705355" lon="6.19281261555">
		<tag k="name" v="Litletjørn" />
		<tag k="natural" v="water" />
		<tag k="ssr:stedsnr" v="569084" />
	</node>
	<node id="-390759" lat="58.5046592169" lon="6.17245965388">
		<tag k="name" v="Gjeidråstjørna" />
		<tag k="natural" v="water" />
		<tag k="ssr:stedsnr" v="569066" />
	</node>
	<node id="-390757" lat="58.5047166694" lon="6.20224723002">
		<tag k="name" v="Hedlersvad" />
		<tag k="place" v="locality" />
		<tag k="ssr:stedsnr" v="569049" />
	</node>
	<node id="-390754" lat="58.503512102" lon="6.21613631283">
		<tag k="name" v="Svartevatn" />
		<tag k="natural" v="water" />
		<tag k="ssr:stedsnr" v="569036" />
		<tag k="water" v="lake" />
	</node>
	<node id="-390752" lat="58.5420111152" lon="6.09696388032">
		<tag k="name" v="Løgjebekken" />
		<tag k="ssr:stedsnr" v="568994" />
		<tag k="waterway" v="stream" />
	</node>
	<node id="-390748" lat="58.5371638904" lon="6.16018055042">
		<tag k="name" v="Stokkurhølen" />
		<tag k="place" v="locality" />
		<tag k="ssr:stedsnr" v="568948" />
	</node>
	<node id="-390746" lat="58.528963889" lon="6.13228332868">
		<tag k="name" v="Langhølen" />
		<tag k="place" v="locality" />
		<tag k="ssr:stedsnr" v="568943" />
	</node>
	<node id="-389391" lat="58.5229749968" lon="6.05664444082">
		<tag k="name" v="Spetjørna" />
		<tag k="natural" v="water" />
		<tag k="ssr:stedsnr" v="386949" />
	</node>
	<node id="-390744" lat="58.5147333308" lon="6.06776110709">
		<tag k="name" v="Hølen" />
		<tag k="place" v="locality" />
		<tag k="ssr:stedsnr" v="568886" />
	</node>
	<node id="-390740" lat="58.4973444467" lon="5.97895000122">
		<tag k="name" v="Varetjørna" />
		<tag k="natural" v="water" />
		<tag k="ssr:stedsnr" v="568839" />
	</node>
	<node id="-390739" lat="58.510159355" lon="5.94797270664">
		<tag k="name" v="Melletjørn" />
		<tag k="natural" v="water" />
		<tag k="ssr:stedsnr" v="568829" />
	</node>
	<node id="-390736" lat="58.5057166656" lon="6.02443332789">
		<tag k="name" v="Sandvika" />
		<tag k="natural" v="bay" />
		<tag k="ssr:stedsnr" v="568815" />
	</node>
	<node id="-390735" lat="58.5284527754" lon="5.96843055571">
		<tag k="name" v="Blanketjørna" />
		<tag k="natural" v="water" />
		<tag k="ssr:stedsnr" v="568796" />
	</node>
	<node id="-390734" lat="58.5619858724" lon="6.15018019191">
		<tag k="name" v="Drengsvaulane" />
		<tag k="natural" v="water" />
		<tag k="ssr:stedsnr" v="568754" />
	</node>
	<node id="-390729" lat="58.519880555" lon="5.88352777801">
		<tag k="name" v="Rauetjørn" />
		<tag k="natural" v="water" />
		<tag k="ssr:stedsnr" v="568148" />
		<tag k="water" v="lake" />
	</node>
	<node id="-390727" lat="58.3653749994" lon="6.11867499698">
		<tag k="name" v="Stølebekken" />
		<tag k="ssr:stedsnr" v="566376" />
		<tag k="waterway" v="stream" />
	</node>
	<node id="-390726" lat="58.4416765565" lon="6.2231457708">
		<tag k="name" v="Fiskeløystjørna" />
		<tag k="natural" v="water" />
		<tag k="ssr:stedsnr" v="566352" />
	</node>
	<node id="-390723" lat="58.5159415344" lon="6.2375749324">
		<tag k="alt_name" v="Skeipstadhølen" />
		<tag k="name" v="Podlohølen" />
		<tag k="natural" v="water" />
		<tag k="ssr:stedsnr" v="546974" />
	</node>
	<node id="-390721" lat="58.5754555516" lon="6.3371833414">
		<tag k="name" v="Svartevatnet" />
		<tag k="natural" v="water" />
		<tag k="ssr:stedsnr" v="546872" />
	</node>
	<node id="-390720" lat="58.5840343129" lon="6.34403960471">
		<tag k="name" v="Middagstjørna" />
		<tag k="natural" v="water" />
		<tag k="ssr:stedsnr" v="546859" />
	</node>
	<node id="-390719" lat="58.5889083311" lon="6.37313055886">
		<tag k="name" v="Stemmevatnet" />
		<tag k="natural" v="water" />
		<tag k="ssr:stedsnr" v="546858" />
	</node>
	<node id="-389727" lat="58.4949070093" lon="6.08434021471">
		<tag k="name" v="Espetjørna" />
		<tag k="natural" v="water" />
		<tag k="ssr:stedsnr" v="60714" />
	</node>
	<node id="-390703" lat="58.4364837581" lon="6.19523151353">
		<tag k="name" v="Illgjernsbutjørna" />
		<tag k="natural" v="water" />
		<tag k="ssr:stedsnr" v="546773" />
	</node>
	<node id="-390702" lat="58.4255500026" lon="6.03874999719">
		<tag k="name" v="Hålandselva" />
		<tag k="ssr:stedsnr" v="546768" />
		<tag k="waterway" v="stream" />
	</node>
	<node id="-390699" lat="58.419077779" lon="5.97067499611">
		<tag k="name" v="Svartavatnet" />
		<tag k="natural" v="water" />
		<tag k="ssr:stedsnr" v="546758" />
	</node>
	<node id="-391431" lat="58.5289805577" lon="6.07084444567">
		<tag k="alt_name" v="Sauatjørna" />
		<tag k="name" v="Sauatjørni" />
		<tag k="natural" v="water" />
		<tag k="ssr:stedsnr" v="789196" />
	</node>
	<node id="-390694" lat="58.408861476" lon="6.0784343661">
		<tag k="name" v="Gjegningstjørna" />
		<tag k="natural" v="water" />
		<tag k="ssr:stedsnr" v="546720" />
	</node>
	<node id="-390690" lat="58.4903833311" lon="6.03605277975">
		<tag k="name" v="Ommundshølen" />
		<tag k="natural" v="water" />
		<tag k="ssr:stedsnr" v="546670" />
	</node>
	<node id="-390686" lat="58.4824249971" lon="6.11742500095">
		<tag k="name" v="Revstjørna" />
		<tag k="natural" v="water" />
		<tag k="ssr:stedsnr" v="546642" />
	</node>
	<node id="-390685" lat="58.4836250032" lon="6.09573888684">
		<tag k="name" v="Syltre" />
		<tag k="place" v="locality" />
		<tag k="ssr:stedsnr" v="546637" />
	</node>
	<node id="-390684" lat="58.4875027811" lon="6.02081666179">
		<tag k="name" v="Svanevatnet" />
		<tag k="natural" v="water" />
		<tag k="ssr:stedsnr" v="546632" />
		<tag k="water" v="lake" />
	</node>
	<node id="-390682" lat="58.4761722242" lon="6.15097778238">
		<tag k="name" v="Storliviga" />
		<tag k="natural" v="bay" />
		<tag k="ssr:stedsnr" v="546600" />
	</node>
	<node id="-390681" lat="58.5225000027" lon="5.97414721525">
		<tag k="alt_name" v="Sauatjørna" />
		<tag k="name" v="Sauatjørni" />
		<tag k="natural" v="water" />
		<tag k="ssr:stedsnr" v="546186" />
	</node>
	<node id="-390677" lat="58.4855694406" lon="6.1306361137">
		<tag k="name" v="Stronda" />
		<tag k="natural" v="beach" />
		<tag k="ssr:stedsnr" v="544121" />
	</node>
	<node id="-390676" lat="58.4790861076" lon="6.13325833848">
		<tag k="name" v="Kvednabekken" />
		<tag k="ssr:stedsnr" v="544120" />
		<tag k="waterway" v="stream" />
	</node>
	<node id="-390675" lat="58.4874361075" lon="6.13098334173">
		<tag k="name" v="Nautaneset" />
		<tag k="natural" v="cape" />
		<tag k="ssr:stedsnr" v="544116" />
	</node>
	<node id="-390655" lat="58.3872611141" lon="6.08313610935">
		<tag k="name" v="Tritjørna" />
		<tag k="natural" v="water" />
		<tag k="ssr:stedsnr" v="540059" />
	</node>
	<node id="-390651" lat="58.4560944472" lon="6.00841943933">
		<tag k="name" v="Hafsøy" />
		<tag k="place" v="island" />
		<tag k="ssr:stedsnr" v="528613" />
	</node>
	<node id="-390650" lat="58.4782472249" lon="5.92193056228">
		<tag k="name" v="Aurbekktjørna" />
		<tag k="natural" v="water" />
		<tag k="ssr:stedsnr" v="527819" />
	</node>
	<node id="-390643" lat="58.393372219" lon="6.07795833926">
		<tag k="name" v="Svartodden" />
		<tag k="natural" v="cape" />
		<tag k="ssr:stedsnr" v="527524" />
	</node>
	<node id="-390628" lat="58.415883329" lon="6.09613055717">
		<tag k="name" v="Kattatjørna" />
		<tag k="natural" v="water" />
		<tag k="ssr:stedsnr" v="525925" />
	</node>
	<node id="-390619" lat="58.4237528419" lon="6.08282309308">
		<tag k="name" v="Hestatjørna" />
		<tag k="natural" v="water" />
		<tag k="ssr:stedsnr" v="525536" />
	</node>
	<node id="-390618" lat="58.4235055528" lon="6.09223055942">
		<tag k="name" v="Ålatjørna" />
		<tag k="natural" v="water" />
		<tag k="ssr:stedsnr" v="525535" />
	</node>
	<node id="-390600" lat="58.6108666629" lon="6.47887500207">
		<tag k="name" v="Stemmetjørna" />
		<tag k="natural" v="water" />
		<tag k="ssr:stedsnr" v="512503" />
	</node>
	<node id="-390591" lat="58.5513111129" lon="6.24863055048">
		<tag k="name" v="Kuholmen" />
		<tag k="place" v="islet" />
		<tag k="ssr:stedsnr" v="512435" />
	</node>
	<node id="-390588" lat="58.597833334" lon="6.4329583332">
		<tag k="name" v="Bergebekken" />
		<tag k="ssr:stedsnr" v="512240" />
		<tag k="waterway" v="stream" />
	</node>
	<node id="-390582" lat="58.5000345234" lon="6.13977190145">
		<tag k="name" v="Iglatjørn" />
		<tag k="natural" v="water" />
		<tag k="ssr:stedsnr" v="509000" />
		<tag k="water" v="lake" />
	</node>
	<node id="-390577" lat="58.5062503672" lon="6.08849547017">
		<tag k="name" v="Deblane" />
		<tag k="natural" v="water" />
		<tag k="ssr:stedsnr" v="508887" />
	</node>
	<node id="-390574" lat="58.5099546355" lon="5.96849795369">
		<tag k="name" v="Birkelandstjørna" />
		<tag k="natural" v="water" />
		<tag k="ssr:stedsnr" v="508859" />
	</node>
	<node id="-390572" lat="58.50637222" lon="6.00135277042">
		<tag k="name" v="Tvitjørnene" />
		<tag k="natural" v="water" />
		<tag k="ssr:stedsnr" v="508840" />
	</node>
	<node id="-390568" lat="58.5041924636" lon="5.90621514776">
		<tag k="name" v="Allmannstjørna" />
		<tag k="natural" v="water" />
		<tag k="ssr:stedsnr" v="508729" />
	</node>
	<node id="-390567" lat="58.5017583344" lon="5.89005555041">
		<tag k="name" v="Dybingsvatnet" />
		<tag k="natural" v="water" />
		<tag k="ssr:stedsnr" v="508727" />
		<tag k="water" v="lake" />
	</node>
	<node id="-390564" lat="58.5003777771" lon="5.88136110935">
		<tag k="name" v="Kaubenestangen" />
		<tag k="natural" v="cape" />
		<tag k="ssr:stedsnr" v="508114" />
	</node>
	<node id="-390561" lat="58.4463611071" lon="6.22275556227">
		<tag k="name" v="Tuptalundstjørna" />
		<tag k="natural" v="water" />
		<tag k="ssr:stedsnr" v="506364" />
	</node>
	<node id="-390560" lat="58.4684027741" lon="6.22345000065">
		<tag k="name" v="Forøy" />
		<tag k="place" v="island" />
		<tag k="ssr:stedsnr" v="506359" />
	</node>
	<node id="-390559" lat="58.5183134463" lon="5.87673864207">
		<tag k="alt_name" v="Forevatnet øvra;øvra Forevatnet" />
		<tag k="name" v="Øvra Furevatn" />
		<tag k="natural" v="water" />
		<tag k="old_name" v="Forevatn, øvre" />
		<tag k="ssr:stedsnr" v="486165" />
		<tag k="water" v="lake" />
	</node>
	<node id="-390556" lat="58.5061444406" lon="5.86723888066">
		<tag k="alt_name" v="Ulvhustjørn øvra;Ulvhustjørn nedra" />
		<tag k="name" v="Ulhustjørni" />
		<tag k="natural" v="water" />
		<tag k="ssr:stedsnr" v="486141" />
	</node>
	<node id="-390549" lat="58.4657999963" lon="6.14834999584">
		<tag k="name" v="Kjøkkenvigodden" />
		<tag k="natural" v="cape" />
		<tag k="ssr:stedsnr" v="485861" />
	</node>
	<node id="-390542" lat="58.603922226" lon="6.39305556059">
		<tag k="name" v="Gyalona" />
		<tag k="natural" v="water" />
		<tag k="ssr:stedsnr" v="485833" />
		<tag k="water" v="lake" />
	</node>
	<node id="-390539" lat="58.6130840131" lon="6.36882992057">
		<tag k="alt_name" v="Mjelkevatnet, l" />
		<tag k="name" v="Litla Mjelkevatnet" />
		<tag k="natural" v="water" />
		<tag k="ssr:stedsnr" v="485817" />
	</node>
	<node id="-390537" lat="58.4470102821" lon="6.07071687899">
		<tag k="name" v="Holmavatnet" />
		<tag k="natural" v="water" />
		<tag k="ssr:stedsnr" v="485808" />
		<tag k="water" v="lake" />
	</node>
	<node id="-390534" lat="58.6342888851" lon="6.42885832539">
		<tag k="name" v="Fisketjørn" />
		<tag k="natural" v="water" />
		<tag k="ssr:stedsnr" v="485794" />
	</node>
	<node id="-390533" lat="58.4385508437" lon="6.10497580015">
		<tag k="name" v="Holmatjørna" />
		<tag k="natural" v="water" />
		<tag k="ssr:stedsnr" v="485789" />
	</node>
	<node id="-390529" lat="58.3965566538" lon="6.04973117624">
		<tag k="name" v="Teltatjørna" />
		<tag k="natural" v="water" />
		<tag k="ssr:stedsnr" v="485699" />
	</node>
	<node id="-390528" lat="58.4923249981" lon="5.97592499795">
		<tag k="name" v="Karvavatnet" />
		<tag k="natural" v="water" />
		<tag k="ssr:stedsnr" v="485657" />
	</node>
	<node id="-390526" lat="58.4801999974" lon="5.90109999179">
		<tag k="name" v="Kvidingsvatnet" />
		<tag k="natural" v="water" />
		<tag k="ssr:stedsnr" v="485618" />
		<tag k="water" v="lake" />
	</node>
	<node id="-390524" lat="58.4710910256" lon="6.08886438153">
		<tag k="name" v="Jonslitjørna" />
		<tag k="natural" v="water" />
		<tag k="ssr:stedsnr" v="485613" />
	</node>
	<node id="-390519" lat="58.5208694437" lon="6.23474721894">
		<tag k="name" v="Skeivedalstjørna" />
		<tag k="natural" v="water" />
		<tag k="ssr:stedsnr" v="485975" />
	</node>
	<node id="-390516" lat="58.5748388853" lon="6.21511111601">
		<tag k="name" v="Storebekken" />
		<tag k="ssr:stedsnr" v="485094" />
		<tag k="waterway" v="stream" />
	</node>
	<node id="-389352" lat="58.4844899772" lon="5.95704238467">
		<tag k="name" v="Juvdalsvatnet" />
		<tag k="natural" v="water" />
		<tag k="ssr:stedsnr" v="364679" />
	</node>
	<node id="-389648" lat="58.4571472218" lon="6.2574555639">
		<tag k="name" v="Litlaneset" />
		<tag k="natural" v="cape" />
		<tag k="ssr:stedsnr" v="27441" />
	</node>
	<node id="-390501" lat="58.4939000002" lon="5.87563610356">
		<tag k="name" v="Stølsåna" />
		<tag k="ssr:stedsnr" v="483090" />
		<tag k="waterway" v="river" />
	</node>
	<node id="-390499" lat="58.4807940734" lon="5.85007804137">
		<tag k="name" v="Moitjørna" />
		<tag k="natural" v="water" />
		<tag k="ssr:stedsnr" v="483045" />
	</node>
	<node id="-390495" lat="58.4766972233" lon="5.95601943685">
		<tag k="name" v="Fossholmane" />
		<tag k="place" v="islet" />
		<tag k="ssr:stedsnr" v="482771" />
	</node>
	<node id="-390481" lat="58.4251413793" lon="6.04102415931">
		<tag k="name" v="Grunnstøtjørna" />
		<tag k="natural" v="water" />
		<tag k="ssr:stedsnr" v="467993" />
	</node>
	<node id="-390480" lat="58.4120582858" lon="6.01993202942">
		<tag k="name" v="Hagatjørna" />
		<tag k="natural" v="water" />
		<tag k="ssr:stedsnr" v="467990" />
	</node>
	<node id="-390475" lat="58.4362277816" lon="5.94760555933">
		<tag k="name" v="Bronatjørna" />
		<tag k="natural" v="water" />
		<tag k="ssr:stedsnr" v="466773" />
	</node>
	<node id="-389345" lat="58.4560750026" lon="6.06845000829">
		<tag k="name" v="Sauadalstjørna" />
		<tag k="natural" v="water" />
		<tag k="ssr:stedsnr" v="364878" />
	</node>
	<node id="-390468" lat="58.4437999957" lon="6.20093610556">
		<tag k="name" v="Ørnafjelltjørna" />
		<tag k="natural" v="water" />
		<tag k="ssr:stedsnr" v="466397" />
	</node>
	<node id="-390450" lat="58.4145333297" lon="6.08346666032">
		<tag k="name" v="Rompetjørna" />
		<tag k="natural" v="water" />
		<tag k="ssr:stedsnr" v="464935" />
	</node>
	<node id="-390444" lat="58.3935972262" lon="6.06227776914">
		<tag k="name" v="Segersvatnet" />
		<tag k="natural" v="water" />
		<tag k="ssr:stedsnr" v="464498" />
	</node>
	<node id="-390443" lat="58.3902111153" lon="6.05651944473">
		<tag k="name" v="Sivtjørna" />
		<tag k="natural" v="water" />
		<tag k="ssr:stedsnr" v="464496" />
	</node>
	<node id="-390441" lat="58.3654833308" lon="6.11990833699">
		<tag k="name" v="Stølebekken" />
		<tag k="ssr:stedsnr" v="463873" />
		<tag k="waterway" v="stream" />
	</node>
	<node id="-390438" lat="58.4064101863" lon="6.16218945397">
		<tag k="name" v="Beintjørna" />
		<tag k="natural" v="water" />
		<tag k="ssr:stedsnr" v="463580" />
	</node>
	<node id="-390431" lat="58.4783972245" lon="6.21705000328">
		<tag k="name" v="Revstjørn" />
		<tag k="natural" v="water" />
		<tag k="ssr:stedsnr" v="452495" />
	</node>
	<node id="-390428" lat="58.6100922865" lon="6.46965386135">
		<tag k="name" v="Holetjørna" />
		<tag k="natural" v="water" />
		<tag k="ssr:stedsnr" v="452471" />
	</node>
	<node id="-390426" lat="58.4549888892" lon="6.24793332784">
		<tag k="name" v="Kattarau" />
		<tag k="natural" v="strait" />
		<tag k="ssr:stedsnr" v="452448" />
	</node>
	<node id="-390425" lat="58.4666916666" lon="6.23342778238">
		<tag k="name" v="Heigraneset" />
		<tag k="natural" v="cape" />
		<tag k="ssr:stedsnr" v="452443" />
	</node>
	<node id="-389677" lat="58.4520571528" lon="6.00614890615">
		<tag k="name" v="Lundeåna" />
		<tag k="ssr:stedsnr" v="40282" />
		<tag k="waterway" v="river" />
	</node>
	<node id="-390412" lat="58.5517611097" lon="6.24343889148">
		<tag k="name" v="Teksestemmen" />
		<tag k="ssr:stedsnr" v="451428" />
		<tag k="waterway" v="dam" />
	</node>
	<node id="-390410" lat="58.5921361109" lon="6.33935277266">
		<tag k="name" v="Risholmen" />
		<tag k="place" v="islet" />
		<tag k="ssr:stedsnr" v="451283" />
	</node>
	<node id="-390409" lat="58.5875717622" lon="6.36129880902">
		<tag k="name" v="Fiskeløysa" />
		<tag k="natural" v="water" />
		<tag k="ssr:stedsnr" v="451274" />
	</node>
	<node id="-390406" lat="58.512875002" lon="6.02367221866">
		<tag k="name" v="Buøya" />
		<tag k="place" v="islet" />
		<tag k="ssr:stedsnr" v="448858" />
	</node>
	<node id="-390404" lat="58.5162972186" lon="5.91191666622">
		<tag k="name" v="Oppkomtjørna" />
		<tag k="natural" v="water" />
		<tag k="ssr:stedsnr" v="448673" />
	</node>
	<node id="-390403" lat="58.5047042108" lon="5.91462921597">
		<tag k="name" v="Husafjelltjørna" />
		<tag k="natural" v="water" />
		<tag k="ssr:stedsnr" v="448671" />
	</node>
	<node id="-390398" lat="58.5104916707" lon="6.18298889375">
		<tag k="name" v="Prestvad" />
		<tag k="place" v="locality" />
		<tag k="ssr:stedsnr" v="448067" />
	</node>
	<node id="-390397" lat="58.5064250011" lon="6.19463888079">
		<tag k="name" v="Ronåna" />
		<tag k="ssr:stedsnr" v="448045" />
		<tag k="waterway" v="river" />
	</node>
	<node id="-390393" lat="58.5230222213" lon="6.06577499337">
		<tag k="name" v="Ringreitjørna" />
		<tag k="natural" v="water" />
		<tag k="ssr:stedsnr" v="447953" />
	</node>
	<node id="-390391" lat="58.5203222184" lon="6.00862222595">
		<tag k="name" v="Gådå" />
		<tag k="place" v="locality" />
		<tag k="ssr:stedsnr" v="447919" />
	</node>
	<node id="-390388" lat="58.5114277821" lon="6.07308055762">
		<tag k="name" v="Tangen" />
		<tag k="natural" v="cape" />
		<tag k="ssr:stedsnr" v="447874" />
	</node>
	<node id="-390387" lat="58.5079722197" lon="6.10443888551">
		<tag k="name" v="Ålatjørna" />
		<tag k="natural" v="water" />
		<tag k="ssr:stedsnr" v="447866" />
	</node>
	<node id="-390382" lat="58.5144472199" lon="5.91755556414">
		<tag k="name" v="Nedra Øykjatjørna" />
		<tag k="natural" v="water" />
		<tag k="ssr:stedsnr" v="447624" />
	</node>
	<node id="-390377" lat="58.5199038287" lon="6.16642806543">
		<tag k="alt_name" v="Dybingstjørna" />
		<tag k="name" v="Dypingstjørni" />
		<tag k="natural" v="water" />
		<tag k="ssr:stedsnr" v="426172" />
	</node>
	<node id="-390373" lat="58.38161635" lon="6.13350501954">
		<tag k="name" v="Åvendalsvatnet" />
		<tag k="natural" v="water" />
		<tag k="ssr:stedsnr" v="425978" />
		<tag k="water" v="lake" />
	</node>
	<node id="-390370" lat="58.3691432787" lon="6.13100211442">
		<tag k="name" v="Fiskevatnet" />
		<tag k="natural" v="water" />
		<tag k="ssr:stedsnr" v="425950" />
	</node>
	<node id="-390369" lat="58.5299669421" lon="6.23263100628">
		<tag k="name" v="Kogle" />
		<tag k="natural" v="water" />
		<tag k="ssr:stedsnr" v="425942" />
	</node>
	<node id="-390367" lat="58.5863425113" lon="6.22583132568">
		<tag k="fixme" v="multiple name tags, choose one and add the other to alt_name" />
		<tag k="name" v="Stemmevatnet;Stemmetjørna" />
		<tag k="natural" v="water" />
		<tag k="ssr:stedsnr" v="425875" />
	</node>
	<node id="-390362" lat="58.4409499981" lon="5.94537777481">
		<tag k="name" v="Skreddalsvatnet" />
		<tag k="natural" v="water" />
		<tag k="ssr:stedsnr" v="425840" />
	</node>
	<node id="-390358" lat="58.4342168951" lon="6.1382533905">
		<tag k="name" v="Liavatnet" />
		<tag k="natural" v="water" />
		<tag k="ssr:stedsnr" v="425806" />
		<tag k="water" v="lake" />
	</node>
	<node id="-390351" lat="58.4917743401" lon="6.09925044416">
		<tag k="name" v="Helgesvatnet" />
		<tag k="natural" v="water" />
		<tag k="ssr:stedsnr" v="425730" />
		<tag k="water" v="lake" />
	</node>
	<node id="-390350" lat="58.4919497516" lon="6.19477442424">
		<tag k="name" v="Larsatjørna" />
		<tag k="natural" v="water" />
		<tag k="ssr:stedsnr" v="425728" />
	</node>
	<node id="-390349" lat="58.4880948849" lon="5.8518256396">
		<tag k="name" v="Auratjørna" />
		<tag k="natural" v="water" />
		<tag k="ssr:stedsnr" v="425710" />
	</node>
	<node id="-390347" lat="58.4879341856" lon="5.89726680473">
		<tag k="name" v="Netlandstjørna" />
		<tag k="natural" v="water" />
		<tag k="ssr:stedsnr" v="425705" />
	</node>
	<node id="-390344" lat="58.4971944406" lon="5.94070832516">
		<tag k="name" v="Dybingen" />
		<tag k="natural" v="water" />
		<tag k="ssr:stedsnr" v="425697" />
	</node>
	<node id="-390342" lat="58.4841750042" lon="6.17877499852">
		<tag k="name" v="Skartjørna" />
		<tag k="natural" v="water" />
		<tag k="ssr:stedsnr" v="425688" />
	</node>
	<node id="-390341" lat="58.4798027791" lon="6.09519722252">
		<tag k="name" v="Kjervallvatnet" />
		<tag k="natural" v="water" />
		<tag k="ssr:stedsnr" v="425676" />
		<tag k="water" v="lake" />
	</node>
	<node id="-390340" lat="58.4784102909" lon="6.04112064688">
		<tag k="name" v="Hølen" />
		<tag k="natural" v="water" />
		<tag k="ssr:stedsnr" v="425669" />
	</node>
	<node id="-390339" lat="58.4875750007" lon="5.99134999165">
		<tag k="name" v="Oksatjørna" />
		<tag k="natural" v="water" />
		<tag k="ssr:stedsnr" v="425665" />
	</node>
	<node id="-390331" lat="58.6347347161" lon="6.43137030832">
		<tag k="name" v="Teinebekktjørna" />
		<tag k="natural" v="water" />
		<tag k="ssr:stedsnr" v="423607" />
	</node>
	<node id="-390317" lat="58.4754249966" lon="6.0668388821">
		<tag k="name" v="Kodlåsbekken" />
		<tag k="ssr:stedsnr" v="422513" />
		<tag k="waterway" v="stream" />
	</node>
	<node id="-389437" lat="58.3796722236" lon="6.13431943928">
		<tag k="name" v="Svartekovane" />
		<tag k="natural" v="bay" />
		<tag k="ssr:stedsnr" v="404233" />
	</node>
	<node id="-390313" lat="58.4807305544" lon="6.20659444865">
		<tag k="name" v="Grastjørna" />
		<tag k="natural" v="water" />
		<tag k="ssr:stedsnr" v="422228" />
	</node>
	<node id="-390306" lat="58.4410128809" lon="6.1028491181">
		<tag k="name" v="Bukkatjørna" />
		<tag k="natural" v="water" />
		<tag k="ssr:stedsnr" v="419286" />
	</node>
	<node id="-390304" lat="58.4630805584" lon="6.14174722947">
		<tag k="name" v="Refstangen" />
		<tag k="natural" v="cape" />
		<tag k="ssr:stedsnr" v="419256" />
	</node>
	<node id="-390303" lat="58.5167534292" lon="5.90359534811">
		<tag k="name" v="Buhedlertjørna" />
		<tag k="natural" v="water" />
		<tag k="ssr:stedsnr" v="266629" />
	</node>
	<node id="-390298" lat="58.5053416702" lon="6.16297778443">
		<tag k="name" v="Gjeidråsåna" />
		<tag k="ssr:stedsnr" v="266055" />
		<tag k="waterway" v="river" />
	</node>
	<node id="-390295" lat="58.5045305533" lon="6.20927777136">
		<tag k="name" v="Øyna" />
		<tag k="natural" v="cape" />
		<tag k="ssr:stedsnr" v="266042" />
	</node>
	<node id="-390294" lat="58.5065999965" lon="6.15329722625">
		<tag k="name" v="Helgelitjørna" />
		<tag k="natural" v="water" />
		<tag k="ssr:stedsnr" v="265997" />
		<tag k="water" v="lake" />
	</node>
	<node id="-390293" lat="58.5585944407" lon="6.13348333803">
		<tag k="name" v="Pollan" />
		<tag k="natural" v="water" />
		<tag k="ssr:stedsnr" v="265977" />
	</node>
	<node id="-390290" lat="58.5222984508" lon="6.11980095015">
		<tag k="name" v="Hestvikhølen" />
		<tag k="place" v="locality" />
		<tag k="ssr:stedsnr" v="265944" />
	</node>
	<node id="-389315" lat="58.4883193445" lon="6.13948460712">
		<tag k="name" v="Imseidtjørna" />
		<tag k="natural" v="water" />
		<tag k="ssr:stedsnr" v="361152" />
	</node>
	<node id="-390287" lat="58.5018666664" lon="5.97387500607">
		<tag k="name" v="Tvitjørna" />
		<tag k="natural" v="water" />
		<tag k="ssr:stedsnr" v="265862" />
	</node>
	<node id="-390285" lat="58.5044040848" lon="5.97167602444">
		<tag k="name" v="Holmatjørna" />
		<tag k="natural" v="water" />
		<tag k="ssr:stedsnr" v="265861" />
	</node>
	<node id="-390282" lat="58.5236944415" lon="6.19880833592">
		<tag k="name" v="Risåsbekken" />
		<tag k="ssr:stedsnr" v="265789" />
		<tag k="waterway" v="stream" />
	</node>
	<node id="-390281" lat="58.5118333339" lon="5.921880554">
		<tag k="name" v="Ranneitjørna" />
		<tag k="natural" v="water" />
		<tag k="ssr:stedsnr" v="265761" />
	</node>
	<node id="-390280" lat="58.526852775" lon="5.91241111485">
		<tag k="name" v="Hestatjørna" />
		<tag k="natural" v="water" />
		<tag k="ssr:stedsnr" v="265755" />
	</node>
	<node id="-389116" lat="58.4729444428" lon="6.16225277631">
		<tag k="name" v="Stemtjørna" />
		<tag k="natural" v="water" />
		<tag k="ssr:stedsnr" v="283301" />
	</node>
	<node id="-390271" lat="58.5438371832" lon="6.23801677644">
		<tag k="name" v="Kleivatjørna" />
		<tag k="natural" v="water" />
		<tag k="ssr:stedsnr" v="243931" />
	</node>
	<node id="-390269" lat="58.4629405425" lon="6.12729536132">
		<tag k="name" v="Husatjørna" />
		<tag k="natural" v="water" />
		<tag k="ssr:stedsnr" v="243845" />
	</node>
	<node id="-390267" lat="58.6218888868" lon="6.42897777724">
		<tag k="name" v="Stidalstjørna" />
		<tag k="natural" v="water" />
		<tag k="ssr:stedsnr" v="243834" />
	</node>
	<node id="-390265" lat="58.4473027801" lon="6.01915000788">
		<tag k="name" v="Sandtjørna" />
		<tag k="natural" v="water" />
		<tag k="ssr:stedsnr" v="243830" />
	</node>
	<node id="-390261" lat="58.4202115325" lon="6.05758496501">
		<tag k="name" v="Fisketjørna" />
		<tag k="natural" v="water" />
		<tag k="ssr:stedsnr" v="243777" />
	</node>
	<node id="-390258" lat="58.4890694462" lon="6.08109445246">
		<tag k="name" v="Migarvatnet" />
		<tag k="natural" v="water" />
		<tag k="ssr:stedsnr" v="243686" />
		<tag k="water" v="lake" />
	</node>
	<node id="-390253" lat="58.4736999999" lon="5.95015278162">
		<tag k="name" v="Stølstjørna" />
		<tag k="natural" v="water" />
		<tag k="ssr:stedsnr" v="243626" />
	</node>
	<node id="-390248" lat="58.5112361076" lon="5.89530555537">
		<tag k="name" v="Blåvatnet" />
		<tag k="natural" v="water" />
		<tag k="ssr:stedsnr" v="243150" />
	</node>
	<node id="-390246" lat="58.568306726" lon="6.1478711692">
		<tag k="name" v="Mjåvatnet" />
		<tag k="natural" v="water" />
		<tag k="ssr:stedsnr" v="243075" />
	</node>
	<node id="-390244" lat="58.5760638926" lon="6.25325555094">
		<tag k="name" v="Gydalsbekken" />
		<tag k="ssr:stedsnr" v="242865" />
		<tag k="waterway" v="stream" />
	</node>
	<node id="-390239" lat="58.4941818552" lon="6.01030440411">
		<tag k="name" v="Fotlandsvatnet" />
		<tag k="natural" v="water" />
		<tag k="ssr:stedsnr" v="242671" />
		<tag k="water" v="lake" />
	</node>
	<node id="-390229" lat="58.4598583313" lon="6.00796110929">
		<tag k="name" v="Fantadammen" />
		<tag k="place" v="locality" />
		<tag k="ssr:stedsnr" v="240699" />
	</node>
	<node id="-390228" lat="58.462466663" lon="6.01885278292">
		<tag k="name" v="Torskjellsbukt" />
		<tag k="natural" v="bay" />
		<tag k="ssr:stedsnr" v="240698" />
	</node>
	<node id="-390223" lat="58.6380972255" lon="6.45372778581">
		<tag k="name" v="Gomilo" />
		<tag k="natural" v="water" />
		<tag k="ssr:stedsnr" v="240553" />
	</node>
	<node id="-390222" lat="58.4864083335" lon="6.00542778008">
		<tag k="name" v="Haganeset" />
		<tag k="natural" v="cape" />
		<tag k="ssr:stedsnr" v="240520" />
	</node>
	<node id="-390205" lat="58.4601694406" lon="6.14934166628">
		<tag k="name" v="Kaninholmen" />
		<tag k="place" v="islet" />
		<tag k="ssr:stedsnr" v="237255" />
	</node>
	<node id="-390201" lat="58.4605944431" lon="6.00877500634">
		<tag k="name" v="Storeholmen" />
		<tag k="place" v="islet" />
		<tag k="ssr:stedsnr" v="225626" />
	</node>
	<node id="-390200" lat="58.4649305516" lon="6.02749444452">
		<tag k="name" v="Tangane" />
		<tag k="natural" v="beach" />
		<tag k="ssr:stedsnr" v="225624" />
	</node>
	<node id="-390199" lat="58.4569388861" lon="6.02467221818">
		<tag k="name" v="Hobdalsbukta" />
		<tag k="natural" v="bay" />
		<tag k="ssr:stedsnr" v="225619" />
	</node>
	<node id="-390197" lat="58.3981555518" lon="6.08683889459">
		<tag k="name" v="Råna" />
		<tag k="natural" v="strait" />
		<tag k="ssr:stedsnr" v="224493" />
	</node>
	<node id="-390187" lat="58.4354833353" lon="6.1757388936">
		<tag k="name" v="Raubekken" />
		<tag k="ssr:stedsnr" v="223382" />
		<tag k="waterway" v="stream" />
	</node>
	<node id="-390183" lat="58.4453168647" lon="6.04490360997">
		<tag k="name" v="Todalsvatnet" />
		<tag k="natural" v="water" />
		<tag k="ssr:stedsnr" v="222705" />
		<tag k="water" v="lake" />
	</node>
	<node id="-390182" lat="58.4538416474" lon="6.04617264252">
		<tag k="name" v="Dalsvatnet" />
		<tag k="natural" v="water" />
		<tag k="ssr:stedsnr" v="222706" />
		<tag k="water" v="lake" />
	</node>
	<node id="-390180" lat="58.4275361069" lon="6.09846112001">
		<tag k="name" v="Laugetjørna" />
		<tag k="natural" v="water" />
		<tag k="ssr:stedsnr" v="222496" />
	</node>
	<node id="-389638" lat="58.5925555573" lon="6.33876943619">
		<tag k="name" v="Storholmen" />
		<tag k="place" v="islet" />
		<tag k="ssr:stedsnr" v="26278" />
	</node>
	<node id="-390177" lat="58.4589805548" lon="6.10320832596">
		<tag k="name" v="Råna" />
		<tag k="natural" v="water" />
		<tag k="ssr:stedsnr" v="222264" />
		<tag k="water" v="lake" />
	</node>
	<node id="-390176" lat="58.470722223" lon="6.09109166474">
		<tag k="name" v="Øystra Jonslitjørna" />
		<tag k="natural" v="water" />
		<tag k="ssr:stedsnr" v="222256" />
	</node>
	<node id="-390173" lat="58.385891671" lon="6.10350833307">
		<tag k="name" v="Foreholmen" />
		<tag k="place" v="islet" />
		<tag k="ssr:stedsnr" v="222172" />
	</node>
	<node id="-390166" lat="58.4602500017" lon="5.95327499693">
		<tag k="name" v="Rotatjørna" />
		<tag k="natural" v="water" />
		<tag k="ssr:stedsnr" v="221534" />
	</node>
	<node id="-390164" lat="58.3891146839" lon="6.0599626418">
		<tag k="name" v="Gulltjørna" />
		<tag k="natural" v="water" />
		<tag k="ssr:stedsnr" v="221455" />
	</node>
	<node id="-390163" lat="58.3917361131" lon="6.05919722439">
		<tag k="name" v="Rånatjørna" />
		<tag k="natural" v="water" />
		<tag k="ssr:stedsnr" v="221456" />
	</node>
	<node id="-390162" lat="58.4074083366" lon="6.08544166464">
		<tag k="name" v="Årstjørna" />
		<tag k="natural" v="water" />
		<tag k="ssr:stedsnr" v="221453" />
	</node>
	<node id="-390161" lat="58.4089853277" lon="6.087676967">
		<tag k="name" v="Kjerketjørna" />
		<tag k="natural" v="water" />
		<tag k="ssr:stedsnr" v="221454" />
	</node>
	<node id="-390160" lat="58.4036813362" lon="6.08022511526">
		<tag k="name" v="Lomatjørna" />
		<tag k="natural" v="water" />
		<tag k="ssr:stedsnr" v="221452" />
	</node>
	<node id="-390147" lat="58.4850305587" lon="6.2339138867">
		<tag k="name" v="Vasketangen" />
		<tag k="natural" v="cape" />
		<tag k="ssr:stedsnr" v="209506" />
	</node>
	<node id="-390146" lat="58.508836111" lon="6.23600000114">
		<tag k="name" v="Poddetjørn" />
		<tag k="natural" v="water" />
		<tag k="ssr:stedsnr" v="209496" />
	</node>
	<node id="-390145" lat="58.4962222196" lon="6.23262777158">
		<tag k="name" v="Holmen" />
		<tag k="place" v="islet" />
		<tag k="ssr:stedsnr" v="209491" />
	</node>
	<node id="-390144" lat="58.4425527774" lon="6.24221110313">
		<tag k="name" v="Ormestadtangen" />
		<tag k="natural" v="cape" />
		<tag k="ssr:stedsnr" v="209456" />
	</node>
	<node id="-390143" lat="58.5401444445" lon="6.22837222559">
		<tag k="name" v="Tordalsbekken" />
		<tag k="ssr:stedsnr" v="209436" />
		<tag k="waterway" v="stream" />
	</node>
	<node id="-390140" lat="58.5897530878" lon="6.29818723136">
		<tag k="name" v="Løpsetjørna" />
		<tag k="natural" v="water" />
		<tag k="ssr:stedsnr" v="209332" />
	</node>
	<node id="-390138" lat="58.5978361154" lon="6.31663333528">
		<tag k="name" v="Skinnellåna" />
		<tag k="ssr:stedsnr" v="209317" />
		<tag k="waterway" v="river" />
	</node>
	<node id="-390137" lat="58.6219055541" lon="6.34007222739">
		<tag k="name" v="Solhomtjørna" />
		<tag k="natural" v="water" />
		<tag k="ssr:stedsnr" v="209293" />
	</node>
	<node id="-389772" lat="58.3969499999" lon="6.15980000631">
		<tag k="name" v="Tvitjørna" />
		<tag k="natural" v="water" />
		<tag k="ssr:stedsnr" v="61996" />
	</node>
	<node id="-390134" lat="58.5261530452" lon="6.06930681069">
		<tag k="name" v="Deplatjørna" />
		<tag k="natural" v="water" />
		<tag k="ssr:stedsnr" v="205966" />
	</node>
	<node id="-390129" lat="58.505186109" lon="6.09820833821">
		<tag k="name" v="Øvratjørna" />
		<tag k="natural" v="water" />
		<tag k="ssr:stedsnr" v="205900" />
	</node>
	<node id="-390128" lat="58.5309323623" lon="6.18584738925">
		<tag k="name" v="Indretjødnen" />
		<tag k="natural" v="water" />
		<tag k="ssr:stedsnr" v="205890" />
	</node>
	<node id="-390124" lat="58.5022239574" lon="5.95532293405">
		<tag k="name" v="Heimretjørn" />
		<tag k="natural" v="water" />
		<tag k="ssr:stedsnr" v="205868" />
	</node>
	<node id="-390119" lat="58.5037361151" lon="5.91098333678">
		<tag k="name" v="Regestjørna" />
		<tag k="natural" v="water" />
		<tag k="ssr:stedsnr" v="205746" />
	</node>
	<node id="-390118" lat="58.5207845679" lon="5.91520765375">
		<tag k="name" v="Bugsvatnet" />
		<tag k="natural" v="water" />
		<tag k="ssr:stedsnr" v="205739" />
		<tag k="water" v="lake" />
	</node>
	<node id="-390111" lat="58.373400001" lon="6.07405000157">
		<tag k="name" v="Selaviga" />
		<tag k="natural" v="bay" />
		<tag k="ssr:stedsnr" v="203638" />
	</node>
	<node id="-390109" lat="58.4852999998" lon="6.26870000191">
		<tag k="name" v="Storøy" />
		<tag k="place" v="island" />
		<tag k="ssr:stedsnr" v="203365" />
	</node>
	<node id="-390100" lat="58.5030194858" lon="6.2062419748">
		<tag k="alt_name" v="Hedlersvatnet" />
		<tag k="name" v="Hellersvatnet" />
		<tag k="natural" v="water" />
		<tag k="ssr:stedsnr" v="183125" />
		<tag k="water" v="lake" />
	</node>
	<node id="-390095" lat="58.5204128439" lon="6.25804867431">
		<tag k="name" v="Mjåvatnet" />
		<tag k="natural" v="water" />
		<tag k="ssr:stedsnr" v="182952" />
	</node>
	<node id="-390094" lat="58.4999861123" lon="6.22427777512">
		<tag k="name" v="Skogstadvatnet" />
		<tag k="natural" v="water" />
		<tag k="ssr:stedsnr" v="182942" />
	</node>
	<node id="-390092" lat="58.5446240319" lon="6.22031366509">
		<tag k="name" v="Hestadvatnet" />
		<tag k="natural" v="water" />
		<tag k="ssr:stedsnr" v="182924" />
	</node>
	<node id="-390090" lat="58.5495131043" lon="6.27519631346">
		<tag k="name" v="Teksevatnet" />
		<tag k="natural" v="water" />
		<tag k="ssr:stedsnr" v="182902" />
		<tag k="water" v="lake" />
	</node>
	<node id="-390088" lat="58.5834123249" lon="6.25283667303">
		<tag k="name" v="Kallbergstjørna" />
		<tag k="natural" v="water" />
		<tag k="ssr:stedsnr" v="182861" />
	</node>
	<node id="-390085" lat="58.4603555556" lon="6.07947499332">
		<tag k="name" v="Sulknatjørna" />
		<tag k="natural" v="water" />
		<tag k="ssr:stedsnr" v="182842" />
	</node>
	<node id="-389622" lat="58.5154196839" lon="5.88840075282">
		<tag k="name" v="Fiskelenstjørna" />
		<tag k="natural" v="water" />
		<tag k="ssr:stedsnr" v="23665" />
	</node>
	<node id="-390079" lat="58.4279000014" lon="5.89565556296">
		<tag k="name" v="Hagavatnet" />
		<tag k="natural" v="water" />
		<tag k="ssr:stedsnr" v="182791" />
	</node>
	<node id="-390073" lat="58.4105226188" lon="6.11797815426">
		<tag k="name" v="Langtjørna" />
		<tag k="natural" v="water" />
		<tag k="ssr:stedsnr" v="182743" />
	</node>
	<node id="-390071" lat="58.4972249966" lon="6.10534999551">
		<tag k="name" v="Åmdalstjørna" />
		<tag k="natural" v="water" />
		<tag k="ssr:stedsnr" v="182710" />
	</node>
	<node id="-390068" lat="58.4962000011" lon="6.05535555098">
		<tag k="name" v="Storatjørna" />
		<tag k="natural" v="water" />
		<tag k="ssr:stedsnr" v="182697" />
	</node>
	<node id="-390067" lat="58.4958318118" lon="5.86003873825">
		<tag k="name" v="Litlatjørna" />
		<tag k="natural" v="water" />
		<tag k="ssr:stedsnr" v="182686" />
	</node>
	<node id="-390065" lat="58.4777812041" lon="5.9791296501">
		<tag k="name" v="Krågetjørna" />
		<tag k="natural" v="water" />
		<tag k="ssr:stedsnr" v="182665" />
	</node>
	<node id="-390064" lat="58.474900002" lon="5.91520000131">
		<tag k="name" v="Nedre Øybutjørna" />
		<tag k="natural" v="water" />
		<tag k="ssr:stedsnr" v="182658" />
	</node>
	<node id="-390063" lat="58.470333805" lon="6.05283124607">
		<tag k="name" v="Kolslivatnet" />
		<tag k="natural" v="water" />
		<tag k="ssr:stedsnr" v="182654" />
	</node>
	<node id="-390058" lat="58.4937527766" lon="5.99671945016">
		<tag k="name" v="Træetjørn" />
		<tag k="natural" v="water" />
		<tag k="ssr:stedsnr" v="180762" />
	</node>
	<node id="-390055" lat="58.4611361087" lon="6.00768332785">
		<tag k="name" v="Eideåna" />
		<tag k="ssr:stedsnr" v="180677" />
		<tag k="waterway" v="river" />
	</node>
	<node id="-390045" lat="58.4805805579" lon="5.99605833061">
		<tag k="name" v="Soget" />
		<tag k="place" v="locality" />
		<tag k="ssr:stedsnr" v="179771" />
	</node>
	<node id="-390040" lat="58.4921222263" lon="6.19908055609">
		<tag k="name" v="Skidtjørna" />
		<tag k="natural" v="water" />
		<tag k="ssr:stedsnr" v="179244" />
	</node>
	<node id="-390023" lat="58.4313444439" lon="6.0394111036">
		<tag k="name" v="Heptetjørn" />
		<tag k="natural" v="water" />
		<tag k="ssr:stedsnr" v="164982" />
	</node>
	<node id="-389611" lat="58.5245098799" lon="6.1686859708">
		<tag k="alt_name" v="Lomatjørn" />
		<tag k="name" v="Lomatjørni" />
		<tag k="natural" v="water" />
		<tag k="ssr:stedsnr" v="1187" />
	</node>
	<node id="-389996" lat="58.4477083368" lon="6.00997222851">
		<tag k="name" v="Årstadtjørna" />
		<tag k="natural" v="water" />
		<tag k="ssr:stedsnr" v="161678" />
	</node>
	<node id="-389987" lat="58.3803111129" lon="6.12668889278">
		<tag k="name" v="Høyvika" />
		<tag k="natural" v="bay" />
		<tag k="ssr:stedsnr" v="161246" />
	</node>
	<node id="-389978" lat="58.3846027754" lon="6.07529444967">
		<tag k="name" v="Brendamyrtjørna" />
		<tag k="natural" v="water" />
		<tag k="ssr:stedsnr" v="151043" />
	</node>
	<node id="-389974" lat="58.4840222217" lon="6.2684833404">
		<tag k="name" v="Sodløy" />
		<tag k="place" v="island" />
		<tag k="ssr:stedsnr" v="148501" />
	</node>
	<node id="-389958" lat="58.5799289119" lon="6.36093468539">
		<tag k="name" v="Baglitjørna" />
		<tag k="natural" v="water" />
		<tag k="ssr:stedsnr" v="148275" />
	</node>
	<node id="-389949" lat="58.5106384959" lon="6.09324720232">
		<tag k="name" v="Hanganstjørna" />
		<tag k="natural" v="water" />
		<tag k="ssr:stedsnr" v="144885" />
	</node>
	<node id="-389599" lat="58.372975001" lon="6.13937500467">
		<tag k="name" v="Øvra Rongtjørna" />
		<tag k="natural" v="water" />
		<tag k="ssr:stedsnr" v="965" />
	</node>
	<node id="-389943" lat="58.5174083291" lon="5.99528055273">
		<tag k="name" v="Kvednabekken" />
		<tag k="ssr:stedsnr" v="144837" />
		<tag k="waterway" v="stream" />
	</node>
	<node id="-389936" lat="58.5716111099" lon="6.19600555995">
		<tag k="name" v="Tjødnå under bratta Brode" />
		<tag k="natural" v="water" />
		<tag k="ssr:stedsnr" v="144104" />
	</node>
	<node id="-389935" lat="58.5646083336" lon="6.17940832688">
		<tag k="name" v="Liabekken" />
		<tag k="ssr:stedsnr" v="144102" />
		<tag k="waterway" v="stream" />
	</node>
	<node id="-389933" lat="58.4991042253" lon="6.20859046416">
		<tag k="name" v="Litla Heiatjørna" />
		<tag k="natural" v="water" />
		<tag k="ssr:stedsnr" v="144049" />
	</node>
	<node id="-389930" lat="58.5000194463" lon="6.23263332547">
		<tag k="alt_name" v="Røydlandstjørna" />
		<tag k="name" v="Røydlandsvatnet" />
		<tag k="natural" v="water" />
		<tag k="ssr:stedsnr" v="122998" />
	</node>
	<node id="-389924" lat="58.5097852658" lon="6.19711715022">
		<tag k="name" v="Grastjørn" />
		<tag k="natural" v="water" />
		<tag k="ssr:stedsnr" v="122140" />
	</node>
	<node id="-389595" lat="58.5656222223" lon="6.24015833328">
		<tag k="name" v="Hølen" />
		<tag k="natural" v="water" />
		<tag k="ssr:stedsnr" v="911" />
	</node>
	<node id="-389919" lat="58.4816619302" lon="6.28198356282">
		<tag k="name" v="Grøsfjellvatnet" />
		<tag k="natural" v="water" />
		<tag k="ssr:stedsnr" v="121953" />
		<tag k="water" v="lake" />
	</node>
	<node id="-389917" lat="58.5870472181" lon="6.2749500087">
		<tag k="alt_name" v="Holmavatnet" />
		<tag k="name" v="Holmevatnet" />
		<tag k="natural" v="water" />
		<tag k="ssr:stedsnr" v="121863" />
	</node>
	<node id="-389916" lat="58.5927616175" lon="6.23559846223">
		<tag k="name" v="Myttatjørna" />
		<tag k="natural" v="water" />
		<tag k="ssr:stedsnr" v="121856" />
	</node>
	<node id="-389914" lat="58.6041638509" lon="6.41972076862">
		<tag k="name" v="Høgelitjørna" />
		<tag k="natural" v="water" />
		<tag k="ssr:stedsnr" v="121849" />
	</node>
	<node id="-389913" lat="58.6062194425" lon="6.48072778115">
		<tag k="name" v="Langetjørna" />
		<tag k="natural" v="water" />
		<tag k="ssr:stedsnr" v="121848" />
	</node>
	<node id="-389911" lat="58.6391944461" lon="6.46895000773">
		<tag k="name" v="Hommelona" />
		<tag k="natural" v="water" />
		<tag k="ssr:stedsnr" v="121815" />
	</node>
	<node id="-389910" lat="58.6398783231" lon="6.42580690458">
		<tag k="name" v="Fisketjørna" />
		<tag k="natural" v="water" />
		<tag k="ssr:stedsnr" v="121814" />
	</node>
	<node id="-389905" lat="58.4036114413" lon="6.03346311162">
		<tag k="name" v="Nodlandstjørna" />
		<tag k="natural" v="water" />
		<tag k="ssr:stedsnr" v="121740" />
	</node>
	<node id="-389904" lat="58.4899494333" lon="5.86667578702">
		<tag k="name" v="Løgen" />
		<tag k="natural" v="water" />
		<tag k="ssr:stedsnr" v="121701" />
	</node>
	<node id="-389903" lat="58.4990499211" lon="5.88092596112">
		<tag k="name" v="Nedra Forevatnet" />
		<tag k="natural" v="water" />
		<tag k="old_name" v="Forevatn, nedre" />
		<tag k="ssr:stedsnr" v="121692" />
		<tag k="water" v="lake" />
	</node>
	<node id="-389901" lat="58.496961107" lon="5.94101388729">
		<tag k="name" v="Dybingstjørna" />
		<tag k="natural" v="water" />
		<tag k="ssr:stedsnr" v="121689" />
	</node>
	<node id="-389895" lat="58.4768398243" lon="6.07807086023">
		<tag k="alt_name" v="Rangåtjørni" />
		<tag k="name" v="Forekamtjørna" />
		<tag k="natural" v="water" />
		<tag k="ssr:stedsnr" v="121638" />
	</node>
	<node id="-389894" lat="58.4791683864" lon="6.10663240675">
		<tag k="name" v="Grønavatnet" />
		<tag k="natural" v="water" />
		<tag k="ssr:stedsnr" v="121635" />
		<tag k="water" v="lake" />
	</node>
	<node id="-389590" lat="58.4552127254" lon="5.93346697647">
		<tag k="name" v="Evja" />
		<tag k="natural" v="water" />
		<tag k="ssr:stedsnr" v="865" />
	</node>
	<node id="-389887" lat="58.4804166642" lon="6.11690277888">
		<tag k="name" v="Råna" />
		<tag k="place" v="locality" />
		<tag k="ssr:stedsnr" v="119195" />
	</node>
	<node id="-389886" lat="58.4901749979" lon="6.13087777666">
		<tag k="name" v="Storeholmen" />
		<tag k="place" v="islet" />
		<tag k="ssr:stedsnr" v="119142" />
	</node>
	<node id="-389882" lat="58.4920888864" lon="5.89951943687">
		<tag k="name" v="Grøne Tangen" />
		<tag k="natural" v="cape" />
		<tag k="ssr:stedsnr" v="118773" />
	</node>
	<node id="-389873" lat="58.4463888931" lon="6.0754277727">
		<tag k="name" v="Borganeset" />
		<tag k="natural" v="cape" />
		<tag k="ssr:stedsnr" v="116262" />
	</node>
	<node id="-389869" lat="58.4281861152" lon="6.03919445107">
		<tag k="name" v="Slettåstjørna" />
		<tag k="natural" v="water" />
		<tag k="ssr:stedsnr" v="104985" />
	</node>
	<node id="-389865" lat="58.4947277777" lon="5.9124361114">
		<tag k="name" v="Råna" />
		<tag k="ssr:stedsnr" v="102841" />
		<tag k="waterway" v="stream" />
	</node>
	<node id="-389863" lat="58.4366388891" lon="6.17237499498">
		<tag k="name" v="Brenda Neset" />
		<tag k="natural" v="cape" />
		<tag k="ssr:stedsnr" v="102430" />
	</node>
	<node id="-389862" lat="58.4441555591" lon="6.1847972162">
		<tag k="name" v="Øvra Podletjørna" />
		<tag k="natural" v="water" />
		<tag k="ssr:stedsnr" v="102425" />
	</node>
	<node id="-389243" lat="58.5521166706" lon="6.24837221534">
		<tag k="name" v="Pinkholmen" />
		<tag k="place" v="islet" />
		<tag k="ssr:stedsnr" v="330451" />
	</node>
	<node id="-389849" lat="58.4155499968" lon="6.0922027729">
		<tag k="name" v="Fiskelaus" />
		<tag k="natural" v="water" />
		<tag k="ssr:stedsnr" v="100929" />
	</node>
	<node id="-389848" lat="58.4131055578" lon="6.08779721352">
		<tag k="name" v="Djupetjørna" />
		<tag k="natural" v="water" />
		<tag k="ssr:stedsnr" v="100928" />
	</node>
	<node id="-389240" lat="58.5944159802" lon="6.30033551759">
		<tag k="name" v="Holatjørna" />
		<tag k="natural" v="water" />
		<tag k="ssr:stedsnr" v="330334" />
		<tag k="water" v="lake" />
	</node>
	<node id="-389838" lat="58.4264388876" lon="6.09277778352">
		<tag k="name" v="Kutjørna" />
		<tag k="natural" v="water" />
		<tag k="ssr:stedsnr" v="100518" />
	</node>
	<node id="-389836" lat="58.4381055586" lon="6.13037222125">
		<tag k="name" v="Heststranda" />
		<tag k="natural" v="beach" />
		<tag k="ssr:stedsnr" v="100299" />
	</node>
	<node id="-389835" lat="58.4580444455" lon="6.09839721454">
		<tag k="name" v="Torsteinstjørna" />
		<tag k="natural" v="water" />
		<tag k="ssr:stedsnr" v="100248" />
	</node>
	<node id="-389829" lat="58.3790416694" lon="6.09553333652">
		<tag k="name" v="Saufjelltjørna" />
		<tag k="natural" v="water" />
		<tag k="ssr:stedsnr" v="91046" />
	</node>
	<node id="-389828" lat="58.3844583332" lon="6.08055141236">
		<tag k="name" v="Blåbærtjørna" />
		<tag k="natural" v="water" />
		<tag k="ssr:stedsnr" v="91044" />
	</node>
	<node id="-389823" lat="58.4833972247" lon="6.23056945163">
		<tag k="name" v="Kvednavika" />
		<tag k="natural" v="bay" />
		<tag k="ssr:stedsnr" v="87481" />
	</node>
	<node id="-389821" lat="58.4956083326" lon="6.23349999846">
		<tag k="name" v="Litleholmen" />
		<tag k="place" v="islet" />
		<tag k="ssr:stedsnr" v="87474" />
	</node>
	<node id="-389818" lat="58.5474222212" lon="6.22508055702">
		<tag k="name" v="Kjilen" />
		<tag k="natural" v="bay" />
		<tag k="ssr:stedsnr" v="87453" />
	</node>
	<node id="-391865" lat="58.4752805565" lon="6.0730777705">
		<tag k="name" v="Rangåna" />
		<tag k="ssr:stedsnr" v="968528" />
		<tag k="waterway" v="river" />
	</node>
	<node id="-389812" lat="58.5516805528" lon="6.24111667087">
		<tag k="name" v="Svinapollen" />
		<tag k="place" v="locality" />
		<tag k="ssr:stedsnr" v="87398" />
	</node>
	<node id="-389811" lat="58.5055088471" lon="6.28463650193">
		<tag k="name" v="Grimingstjørn" />
		<tag k="natural" v="water" />
		<tag k="ssr:stedsnr" v="87379" />
	</node>
	<node id="-389806" lat="58.5002715827" lon="6.19536766097">
		<tag k="name" v="Grastjørn" />
		<tag k="natural" v="water" />
		<tag k="ssr:stedsnr" v="84060" />
	</node>
	<node id="-389804" lat="58.5552527787" lon="6.15979722921">
		<tag k="name" v="Stykkjetjørn" />
		<tag k="natural" v="water" />
		<tag k="ssr:stedsnr" v="83977" />
		<tag k="water" v="pond" />
	</node>
	<node id="-389803" lat="58.5461805524" lon="6.11168332509">
		<tag k="name" v="Tvitjørn" />
		<tag k="natural" v="water" />
		<tag k="ssr:stedsnr" v="83973" />
	</node>
	<node id="-389801" lat="58.5344688449" lon="6.08069004139">
		<tag k="name" v="Eikestetjørna" />
		<tag k="natural" v="water" />
		<tag k="ssr:stedsnr" v="83958" />
	</node>
	<node id="-389798" lat="58.531369447" lon="6.10814722787">
		<tag k="name" v="Gåshustjørna" />
		<tag k="natural" v="water" />
		<tag k="ssr:stedsnr" v="83940" />
	</node>
	<node id="-389793" lat="58.5071089823" lon="5.97975166684">
		<tag k="name" v="Grastjørna" />
		<tag k="natural" v="water" />
		<tag k="ssr:stedsnr" v="83852" />
	</node>
	<node id="-391840" lat="58.4409726397" lon="6.10529961192">
		<tag k="name" v="Bibretjørna" />
		<tag k="natural" v="water" />
		<tag k="ssr:stedsnr" v="965309" />
	</node>
	<node id="-389215" lat="58.516150002" lon="6.04290833515">
		<tag k="name" v="Slevelandstjørna" />
		<tag k="natural" v="water" />
		<tag k="ssr:stedsnr" v="326839" />
	</node>
	<node id="-389785" lat="58.5134333291" lon="5.90690278306">
		<tag k="name" v="Stemmetjørna" />
		<tag k="natural" v="water" />
		<tag k="ssr:stedsnr" v="83645" />
	</node>
	<node id="-389782" lat="58.551113891" lon="6.21075278594">
		<tag k="name" v="Teks" />
		<tag k="ssr:stedsnr" v="83065" />
		<tag k="waterway" v="river" />
	</node>
	<node id="-391824" lat="58.4166694406" lon="6.12216666868">
		<tag k="name" v="Skittpyttane" />
		<tag k="natural" v="water" />
		<tag k="ssr:stedsnr" v="952551" />
		<tag k="water" v="lake" />
	</node>
	<node id="-389775" lat="58.4669019734" lon="6.25315654755">
		<tag k="name" v="Nedre Eptavatnet" />
		<tag k="natural" v="water" />
		<tag k="ssr:stedsnr" v="81365" />
		<tag k="water" v="lake" />
	</node>
	<node id="-389773" lat="58.4771222245" lon="6.25745832721">
		<tag k="name" v="Øvre Eptavatnet" />
		<tag k="natural" v="water" />
		<tag k="ssr:stedsnr" v="81306" />
		<tag k="water" v="lake" />
	</node>
	<node id="-391820" lat="58.4787833354" lon="5.90988889612">
		<tag k="name" v="Drengjatjørna" />
		<tag k="natural" v="water" />
		<tag k="ssr:stedsnr" v="951842" />
	</node>
	<node id="-389769" lat="58.3952500042" lon="6.09410000044">
		<tag k="name" v="Hellersbukta" />
		<tag k="natural" v="bay" />
		<tag k="ssr:stedsnr" v="61982" />
	</node>
	<node id="-389768" lat="58.3931277761" lon="6.10404999218">
		<tag k="name" v="Kjerringtjørna" />
		<tag k="natural" v="water" />
		<tag k="ssr:stedsnr" v="61978" />
	</node>
	<node id="-389767" lat="58.3742775795" lon="6.13439250999">
		<tag k="name" v="Løtjørna" />
		<tag k="natural" v="water" />
		<tag k="ssr:stedsnr" v="61972" />
	</node>
	<node id="-389766" lat="58.5591833309" lon="6.24598611748">
		<tag k="name" v="Slettebøtjørna" />
		<tag k="natural" v="water" />
		<tag k="ssr:stedsnr" v="61883" />
	</node>
	<node id="-391813" lat="58.4314083305" lon="6.0715138822">
		<tag k="name" v="Øvra Stølsvatnet" />
		<tag k="natural" v="water" />
		<tag k="ssr:stedsnr" v="950937" />
		<tag k="water" v="lake" />
	</node>
	<node id="-389764" lat="58.4639777736" lon="6.19324999619">
		<tag k="name" v="Øvra Tjørna" />
		<tag k="natural" v="water" />
		<tag k="ssr:stedsnr" v="61839" />
	</node>
	<node id="-389568" lat="58.413596089" lon="6.12698195103">
		<tag k="name" v="Breiskartjørna" />
		<tag k="natural" v="water" />
		<tag k="ssr:stedsnr" v="766" />
	</node>
	<node id="-389758" lat="58.6055999958" lon="6.37100000754">
		<tag k="name" v="Store Mjølkeåna" />
		<tag k="ssr:stedsnr" v="61823" />
		<tag k="waterway" v="stream" />
	</node>
	<node id="-389226" lat="58.5120220887" lon="6.10909275116">
		<tag k="name" v="Stølstjørna" />
		<tag k="natural" v="water" />
		<tag k="ssr:stedsnr" v="326998" />
		<tag k="water" v="lake" />
	</node>
	<node id="-391802" lat="58.4609721628" lon="6.0617158799">
		<tag k="name" v="Kjerringtjørna" />
		<tag k="natural" v="water" />
		<tag k="ssr:stedsnr" v="950287" />
	</node>
	<node id="-389752" lat="58.431933574" lon="6.10809258866">
		<tag k="name" v="Imestjørna" />
		<tag k="natural" v="water" />
		<tag k="ssr:stedsnr" v="61787" />
	</node>
	<node id="-389751" lat="58.4254305571" lon="6.05498056068">
		<tag k="name" v="Stokkatjørna" />
		<tag k="natural" v="water" />
		<tag k="ssr:stedsnr" v="61782" />
	</node>
	<node id="-389749" lat="58.4187555557" lon="6.11028054735">
		<tag k="name" v="Hunnafossen" />
		<tag k="natural" v="waterfall" />
		<tag k="ssr:stedsnr" v="61764" />
	</node>
	<node id="-389746" lat="58.4798000004" lon="6.0852444427">
		<tag k="name" v="Sauatjørna" />
		<tag k="natural" v="water" />
		<tag k="ssr:stedsnr" v="61657" />
	</node>
	<node id="-389745" lat="58.4815830277" lon="5.93985250425">
		<tag k="name" v="Drengjatjørnene" />
		<tag k="natural" v="water" />
		<tag k="ssr:stedsnr" v="61645" />
	</node>
	<node id="-389744" lat="58.478074998" lon="5.91542499468">
		<tag k="name" v="Øvre Øybutjørna" />
		<tag k="natural" v="water" />
		<tag k="ssr:stedsnr" v="61642" />
	</node>
	<node id="-389741" lat="58.5242305516" lon="5.94097222338">
		<tag k="alt_name" v="Røynåstjørna" />
		<tag k="name" v="Røynåstjørni" />
		<tag k="natural" v="water" />
		<tag k="old_name" v="Røynåsvatnet" />
		<tag k="ssr:stedsnr" v="61176" />
	</node>
	<node id="-389739" lat="58.5266861094" lon="5.90403611276">
		<tag k="name" v="Tvitjørnane" />
		<tag k="natural" v="water" />
		<tag k="ssr:stedsnr" v="61174" />
	</node>
	<node id="-391786" lat="58.5449722206" lon="6.22857777479">
		<tag k="name" v="Rørvik" />
		<tag k="natural" v="bay" />
		<tag k="ssr:stedsnr" v="937500" />
	</node>
	<node id="-389737" lat="58.5138305596" lon="5.93110832571">
		<tag k="alt_name" v="Nevlandstjørna" />
		<tag k="name" v="Nævelandsvatnet" />
		<tag k="natural" v="water" />
		<tag k="ssr:stedsnr" v="61167" />
	</node>
	<node id="-391780" lat="58.5942222249" lon="6.3786000052">
		<tag k="name" v="Grevletjørna" />
		<tag k="natural" v="water" />
		<tag k="ssr:stedsnr" v="937347" />
	</node>
	<node id="-389730" lat="58.4579249975" lon="6.11334999392">
		<tag k="name" v="Stemtjørna" />
		<tag k="natural" v="water" />
		<tag k="ssr:stedsnr" v="60928" />
	</node>
	<node id="-389729" lat="58.5812156985" lon="6.2429519834">
		<tag k="name" v="Astridtjørna" />
		<tag k="natural" v="water" />
		<tag k="ssr:stedsnr" v="60894" />
	</node>
	<node id="-389728" lat="58.5901833372" lon="6.3158416696">
		<tag k="name" v="Klovbekken" />
		<tag k="ssr:stedsnr" v="60884" />
		<tag k="waterway" v="stream" />
	</node>
	<node id="-391775" lat="58.5027358319" lon="6.14057104352">
		<tag k="name" v="Tjørna" />
		<tag k="natural" v="water" />
		<tag k="ssr:stedsnr" v="933999" />
		<tag k="water" v="lake" />
	</node>
	<node id="-389725" lat="58.4903611092" lon="6.06406667508">
		<tag k="name" v="Øygreisvatnet" />
		<tag k="natural" v="water" />
		<tag k="ssr:stedsnr" v="60691" />
		<tag k="water" v="lake" />
	</node>
	<node id="-389724" lat="58.4938777771" lon="5.99054445206">
		<tag k="name" v="Ytretjørn" />
		<tag k="natural" v="water" />
		<tag k="ssr:stedsnr" v="59744" />
	</node>
	<node id="-391771" lat="58.5253166652" lon="6.09422222199">
		<tag k="name" v="Brynjebekken" />
		<tag k="ssr:stedsnr" v="933982" />
		<tag k="waterway" v="stream" />
	</node>
	<node id="-389720" lat="58.48744167" lon="6.18191665968">
		<tag k="name" v="Skjørvika" />
		<tag k="natural" v="bay" />
		<tag k="ssr:stedsnr" v="58796" />
	</node>
	<node id="-389719" lat="58.645877782" lon="6.43475277651">
		<tag k="name" v="Krogevatnet" />
		<tag k="natural" v="water" />
		<tag k="ssr:stedsnr" v="58582" />
		<tag k="water" v="lake" />
	</node>
	<node id="-391765" lat="58.5014444453" lon="6.09468888381">
		<tag k="name" v="Surpetjørna" />
		<tag k="natural" v="water" />
		<tag k="ssr:stedsnr" v="933908" />
	</node>
	<node id="-391763" lat="58.4987894175" lon="6.05764569169">
		<tag k="name" v="Møsetjørna" />
		<tag k="natural" v="water" />
		<tag k="ssr:stedsnr" v="933899" />
	</node>
	<node id="-389219" lat="58.5142903106" lon="6.11981788116">
		<tag k="name" v="Bastautjørna" />
		<tag k="natural" v="water" />
		<tag k="ssr:stedsnr" v="326875" />
		<tag k="water" v="lake" />
	</node>
	<node id="-391755" lat="58.504232259" lon="5.89661741134">
		<tag k="name" v="Badnustjørna" />
		<tag k="natural" v="water" />
		<tag k="ssr:stedsnr" v="933748" />
	</node>
	<node id="-391753" lat="58.5046722219" lon="5.87953611393">
		<tag k="name" v="Spjødåna" />
		<tag k="ssr:stedsnr" v="933119" />
		<tag k="waterway" v="river" />
	</node>
	<node id="-391749" lat="58.4675874042" lon="6.17129626117">
		<tag k="name" v="Eigelivatnet" />
		<tag k="natural" v="water" />
		<tag k="ssr:stedsnr" v="931442" />
		<tag k="water" v="lake" />
	</node>
	<node id="-391745" lat="58.5024788795" lon="6.2498416921">
		<tag k="name" v="Byre" />
		<tag k="natural" v="water" />
		<tag k="ssr:stedsnr" v="911999" />
	</node>
	<node id="-389694" lat="58.4276194486" lon="6.03335000145">
		<tag k="name" v="Stemmen" />
		<tag k="place" v="locality" />
		<tag k="ssr:stedsnr" v="43989" />
	</node>
	<node id="-389693" lat="58.4282194474" lon="6.04690277025">
		<tag k="name" v="Tysklandshølen" />
		<tag k="place" v="locality" />
		<tag k="ssr:stedsnr" v="43986" />
	</node>
	<node id="-391740" lat="58.5220469355" lon="5.96091463278">
		<tag k="alt_name" v="Ljostjørna" />
		<tag k="name" v="Ljostjørn" />
		<tag k="natural" v="water" />
		<tag k="ssr:stedsnr" v="911179" />
	</node>
	<node id="-389690" lat="58.3999746686" lon="6.04652230712">
		<tag k="name" v="Stemmetjørna" />
		<tag k="natural" v="water" />
		<tag k="ssr:stedsnr" v="42955" />
	</node>
	<node id="-389689" lat="58.4510666623" lon="5.96850554884">
		<tag k="name" v="Vadlåstjørna" />
		<tag k="natural" v="water" />
		<tag k="ssr:stedsnr" v="42704" />
	</node>
	<node id="-391735" lat="58.5105095718" lon="6.1406557171">
		<tag k="name" v="Møgedalsvatnet" />
		<tag k="natural" v="water" />
		<tag k="ssr:stedsnr" v="911144" />
		<tag k="water" v="lake" />
	</node>
	<node id="-391733" lat="58.3965095138" lon="6.1173002084">
		<tag k="name" v="Branndalsvatnet" />
		<tag k="natural" v="water" />
		<tag k="ssr:stedsnr" v="911000" />
		<tag k="water" v="lake" />
	</node>
	<node id="-391732" lat="58.3957249984" lon="6.17022500037">
		<tag k="name" v="Spjodevatnet" />
		<tag k="natural" v="water" />
		<tag k="ssr:stedsnr" v="910997" />
		<tag k="water" v="lake" />
	</node>
	<node id="-391731" lat="58.5307933805" lon="6.25757723706">
		<tag k="name" v="Store Hommatjørna" />
		<tag k="natural" v="water" />
		<tag k="ssr:stedsnr" v="910950" />
	</node>
	<node id="-391728" lat="58.4687552264" lon="6.11511681809">
		<tag k="name" v="Revsvatnet" />
		<tag k="natural" v="water" />
		<tag k="ssr:stedsnr" v="910884" />
		<tag k="water" v="lake" />
	</node>
	<node id="-391727" lat="58.4686305531" lon="6.15002500711">
		<tag k="name" v="Kjøkkenviga" />
		<tag k="natural" v="bay" />
		<tag k="ssr:stedsnr" v="910881" />
	</node>
	<node id="-389678" lat="58.4603416684" lon="6.05367499813">
		<tag k="name" v="Heimra Kjerringtjørna" />
		<tag k="natural" v="water" />
		<tag k="ssr:stedsnr" v="40291" />
	</node>
	<node id="-391725" lat="58.4545749741" lon="6.10296085859">
		<tag k="name" v="Joruntjørnene" />
		<tag k="natural" v="water" />
		<tag k="ssr:stedsnr" v="910858" />
	</node>
	<node id="-391724" lat="58.6201694433" lon="6.43992499605">
		<tag k="alt_name" v="Kvednabekken" />
		<tag k="name" v="Kvernabekken" />
		<tag k="ssr:stedsnr" v="910826" />
		<tag k="waterway" v="stream" />
	</node>
	<node id="-391723" lat="58.4513249992" lon="6.02712500105">
		<tag k="name" v="Nordsjøen" />
		<tag k="natural" v="water" />
		<tag k="ssr:stedsnr" v="910824" />
	</node>
	<node id="-389673" lat="58.3872277764" lon="6.13574166581">
		<tag k="name" v="Branndalsmunningen" />
		<tag k="natural" v="bay" />
		<tag k="ssr:stedsnr" v="40256" />
	</node>
	<node id="-391717" lat="58.4078624087" lon="6.02656533196">
		<tag k="name" v="Igletjørna" />
		<tag k="natural" v="water" />
		<tag k="ssr:stedsnr" v="910764" />
	</node>
	<node id="-391715" lat="58.415550003" lon="6.10504999186">
		<tag k="name" v="Smievatnet" />
		<tag k="natural" v="water" />
		<tag k="ssr:stedsnr" v="910747" />
	</node>
	<node id="-391714" lat="58.4083278692" lon="6.1253587985">
		<tag k="name" v="Øvra Rontjørna" />
		<tag k="natural" v="water" />
		<tag k="ssr:stedsnr" v="910744" />
	</node>
	<node id="-391713" lat="58.4899630157" lon="5.94121178851">
		<tag k="name" v="Liatjørna" />
		<tag k="natural" v="water" />
		<tag k="ssr:stedsnr" v="910699" />
	</node>
	<node id="-389662" lat="58.3648722221" lon="6.12035000359">
		<tag k="name" v="Rodetjørna" />
		<tag k="natural" v="water" />
		<tag k="ssr:stedsnr" v="38896" />
	</node>
	<node id="-389661" lat="58.4138055523" lon="6.10524166444">
		<tag k="name" v="Smieneset" />
		<tag k="natural" v="cape" />
		<tag k="ssr:stedsnr" v="36956" />
	</node>
	<node id="-391707" lat="58.4774050231" lon="6.05197533171">
		<tag k="name" v="Hornnesvatnet" />
		<tag k="natural" v="water" />
		<tag k="ssr:stedsnr" v="910624" />
		<tag k="water" v="lake" />
	</node>
	<node id="-389656" lat="58.5709444425" lon="6.31750555846">
		<tag k="name" v="Teksåna" />
		<tag k="natural" v="water" />
		<tag k="ssr:stedsnr" v="27561" />
	</node>
	<node id="-389649" lat="58.5494444408" lon="6.23906111933">
		<tag k="name" v="Verafossen" />
		<tag k="natural" v="waterfall" />
		<tag k="ssr:stedsnr" v="27449" />
	</node>
	<node id="-391696" lat="58.4845916658" lon="6.1981888844">
		<tag k="name" v="Ålavika" />
		<tag k="natural" v="bay" />
		<tag k="ssr:stedsnr" v="908249" />
	</node>
	<node id="-391695" lat="58.48840833" lon="6.14466666947">
		<tag k="name" v="Kvednabekken" />
		<tag k="ssr:stedsnr" v="908150" />
		<tag k="waterway" v="stream" />
	</node>
	<node id="-391694" lat="58.4831083314" lon="5.87609722601">
		<tag k="name" v="Hellvikåna" />
		<tag k="ssr:stedsnr" v="908067" />
		<tag k="waterway" v="river" />
	</node>
	<node id="-389642" lat="58.6103952584" lon="6.37187198597">
		<tag k="name" v="Tjødnå ved Brekkå" />
		<tag k="natural" v="water" />
		<tag k="ssr:stedsnr" v="27278" />
	</node>
	<node id="-389640" lat="58.5948944104" lon="6.37077115221">
		<tag k="name" v="Foreknudtjørna" />
		<tag k="natural" v="water" />
		<tag k="ssr:stedsnr" v="27326" />
	</node>
	<node id="-391686" lat="58.4788444489" lon="5.99516111531">
		<tag k="name" v="Litlehølen" />
		<tag k="place" v="locality" />
		<tag k="ssr:stedsnr" v="907723" />
	</node>
	<node id="-389637" lat="58.4777388905" lon="6.27928054734">
		<tag k="name" v="Kjeøy" />
		<tag k="place" v="islet" />
		<tag k="ssr:stedsnr" v="27107" />
	</node>
	<node id="-391683" lat="58.4773944407" lon="6.09328610787">
		<tag k="name" v="Hestnes" />
		<tag k="natural" v="cape" />
		<tag k="ssr:stedsnr" v="907470" />
	</node>
	<node id="-389634" lat="58.5326777801" lon="6.08523889055">
		<tag k="name" v="Eikestevika" />
		<tag k="natural" v="bay" />
		<tag k="ssr:stedsnr" v="23968" />
	</node>
	<node id="-389633" lat="58.5350972236" lon="6.15684999985">
		<tag k="name" v="Hogstadhølen" />
		<tag k="place" v="locality" />
		<tag k="ssr:stedsnr" v="23958" />
	</node>
	<node id="-391676" lat="58.4679361075" lon="6.13343056087">
		<tag k="name" v="Øksaneset" />
		<tag k="natural" v="cape" />
		<tag k="ssr:stedsnr" v="905242" />
	</node>
	<node id="-391675" lat="58.3829138869" lon="6.0792499936">
		<tag k="name" v="Pineknudtjørna" />
		<tag k="natural" v="water" />
		<tag k="ssr:stedsnr" v="905052" />
	</node>
	<node id="-389626" lat="58.5086194433" lon="5.89082778585">
		<tag k="name" v="Rodatjørna" />
		<tag k="natural" v="water" />
		<tag k="ssr:stedsnr" v="23746" />
	</node>
	<node id="-389625" lat="58.5050573661" lon="5.92444339214">
		<tag k="name" v="Melletjørna" />
		<tag k="natural" v="water" />
		<tag k="ssr:stedsnr" v="23741" />
	</node>
	<node id="-389624" lat="58.529074998" lon="5.93463610486">
		<tag k="name" v="Ulvstjørna" />
		<tag k="natural" v="water" />
		<tag k="ssr:stedsnr" v="23733" />
	</node>
	<node id="-391670" lat="58.4831253368" lon="6.22683408488">
		<tag k="name" v="Krågetjørna" />
		<tag k="natural" v="water" />
		<tag k="ssr:stedsnr" v="876493" />
	</node>
	<node id="-389621" lat="58.5147416696" lon="5.91387777634">
		<tag k="name" v="Øvra Øykjatjørna" />
		<tag k="natural" v="water" />
		<tag k="ssr:stedsnr" v="23662" />
	</node>
	<node id="-389619" lat="58.5708719098" lon="6.17833085928">
		<tag k="name" v="Krogavatnet" />
		<tag k="natural" v="water" />
		<tag k="ssr:stedsnr" v="23113" />
		<tag k="water" v="lake" />
	</node>
	<node id="-389616" lat="58.5461750015" lon="6.21381110758">
		<tag k="name" v="Vormevika" />
		<tag k="natural" v="bay" />
		<tag k="ssr:stedsnr" v="23067" />
	</node>
	<node id="-389615" lat="58.5020937343" lon="6.18086902185">
		<tag k="name" v="Bergatjørna" />
		<tag k="natural" v="water" />
		<tag k="ssr:stedsnr" v="23059" />
	</node>
	<node id="-391659" lat="58.5859055519" lon="6.31426388674">
		<tag k="name" v="Ålavika" />
		<tag k="natural" v="bay" />
		<tag k="ssr:stedsnr" v="876302" />
	</node>
	<node id="-389605" lat="58.3977749985" lon="6.14839999578">
		<tag k="name" v="Raunlivatnet" />
		<tag k="natural" v="water" />
		<tag k="ssr:stedsnr" v="999" />
	</node>
	<node id="-389604" lat="58.3964932444" lon="6.08421860842">
		<tag k="name" v="Svåvatnet" />
		<tag k="natural" v="water" />
		<tag k="ssr:stedsnr" v="990" />
		<tag k="water" v="lake" />
	</node>
	<node id="-389601" lat="58.3890250036" lon="6.12375277725">
		<tag k="name" v="Djubatjørna" />
		<tag k="natural" v="water" />
		<tag k="ssr:stedsnr" v="981" />
	</node>
	<node id="-391648" lat="58.5405104836" lon="6.11225964227">
		<tag k="name" v="Holmatjørn" />
		<tag k="natural" v="water" />
		<tag k="ssr:stedsnr" v="872979" />
	</node>
	<node id="-391647" lat="58.5349861112" lon="6.07050555045">
		<tag k="name" v="Søyren" />
		<tag k="natural" v="water" />
		<tag k="ssr:stedsnr" v="872968" />
	</node>
	<node id="-391643" lat="58.4992916695" lon="6.06888888961">
		<tag k="name" v="Straumen" />
		<tag k="ssr:stedsnr" v="872885" />
		<tag k="waterway" v="river" />
	</node>
	<node id="-389593" lat="58.4648094546" lon="6.2195192382">
		<tag k="name" v="Heigravatnet" />
		<tag k="natural" v="water" />
		<tag k="ssr:stedsnr" v="872" />
		<tag k="water" v="lake" />
	</node>
	<node id="-389592" lat="58.5863680433" lon="6.40689134567">
		<tag k="name" v="Langavatnet" />
		<tag k="natural" v="water" />
		<tag k="ssr:stedsnr" v="871" />
	</node>
	<node id="-391639" lat="58.4989368772" lon="6.05126135876">
		<tag k="name" v="Litletjørna" />
		<tag k="natural" v="water" />
		<tag k="ssr:stedsnr" v="872842" />
	</node>
	<node id="-391638" lat="58.5103194442" lon="6.02097500859">
		<tag k="name" v="Røynes" />
		<tag k="natural" v="cape" />
		<tag k="ssr:stedsnr" v="872834" />
	</node>
	<node id="-389589" lat="58.4570500014" lon="5.96369999475">
		<tag k="name" v="Risbakktjørna" />
		<tag k="natural" v="water" />
		<tag k="ssr:stedsnr" v="862" />
	</node>
	<node id="-389587" lat="58.5933930283" lon="6.2321736736">
		<tag k="name" v="Langatjørna" />
		<tag k="natural" v="water" />
		<tag k="ssr:stedsnr" v="858" />
	</node>
	<node id="-391633" lat="58.5012481837" lon="6.21331098438">
		<tag k="name" v="Hølen" />
		<tag k="natural" v="water" />
		<tag k="ssr:stedsnr" v="872391" />
	</node>
	<node id="-389584" lat="58.6099629483" lon="6.32181501364">
		<tag k="name" v="Langatjørna" />
		<tag k="natural" v="water" />
		<tag k="ssr:stedsnr" v="842" />
	</node>
	<node id="-389580" lat="58.4462382543" lon="6.0856751416">
		<tag k="name" v="Dyråsvatnet" />
		<tag k="natural" v="water" />
		<tag k="ssr:stedsnr" v="832" />
	</node>
	<node id="-389579" lat="58.4527161821" lon="6.09599598564">
		<tag k="name" v="Horvetjørna" />
		<tag k="natural" v="water" />
		<tag k="ssr:stedsnr" v="830" />
	</node>
	<node id="-391625" lat="58.4662499966" lon="5.8848500024">
		<tag k="name" v="Gyarhavn" />
		<tag k="natural" v="bay" />
		<tag k="ssr:stedsnr" v="870422" />
	</node>
	<node id="-389574" lat="58.4276750004" lon="5.97057499626">
		<tag k="name" v="Sæstadvatnet" />
		<tag k="natural" v="water" />
		<tag k="ssr:stedsnr" v="800" />
	</node>
	<node id="-389573" lat="58.4325500027" lon="6.07269999455">
		<tag k="name" v="Øvra Stølsvatnet" />
		<tag k="natural" v="water" />
		<tag k="ssr:stedsnr" v="795" />
	</node>
	<node id="-389572" lat="58.4335433577" lon="6.05823218817">
		<tag k="name" v="Nedra Stølsvatnet" />
		<tag k="natural" v="water" />
		<tag k="ssr:stedsnr" v="794" />
		<tag k="water" v="lake" />
	</node>
	<node id="-389571" lat="58.4201420077" lon="6.17043989068">
		<tag k="name" v="Kvernavatnet" />
		<tag k="natural" v="water" />
		<tag k="ssr:stedsnr" v="785" />
	</node>
	<node id="-389570" lat="58.421487527" lon="6.13866050891">
		<tag k="name" v="Kydlandsvatnet" />
		<tag k="natural" v="water" />
		<tag k="ssr:stedsnr" v="781" />
		<tag k="water" v="lake" />
	</node>
	<node id="-391617" lat="58.613055555" lon="6.40954165937">
		<tag k="name" v="Bessåna" />
		<tag k="ssr:stedsnr" v="850838" />
		<tag k="waterway" v="stream" />
	</node>
	<node id="-391616" lat="58.4485555575" lon="6.02663054914">
		<tag k="name" v="Tveidatjørna" />
		<tag k="natural" v="water" />
		<tag k="ssr:stedsnr" v="850839" />
	</node>
	<node id="-389567" lat="58.4037055566" lon="6.11837777415">
		<tag k="name" v="Nedra Rontjørna" />
		<tag k="natural" v="water" />
		<tag k="ssr:stedsnr" v="759" />
	</node>
	<node id="-391614" lat="58.4517750016" lon="6.18420277145">
		<tag k="name" v="Sigbjørntjørnan" />
		<tag k="natural" v="water" />
		<tag k="ssr:stedsnr" v="850831" />
	</node>
	<node id="-389565" lat="58.489491762" lon="5.9292642179">
		<tag k="name" v="Kvamstjørna" />
		<tag k="natural" v="water" />
		<tag k="ssr:stedsnr" v="715" />
	</node>
	<node id="-389564" lat="58.4841000003" lon="5.8506750016">
		<tag k="name" v="Piggsteintjørna" />
		<tag k="natural" v="water" />
		<tag k="ssr:stedsnr" v="708" />
	</node>
	<node id="-389384" lat="58.5118222178" lon="5.91789443685">
		<tag k="name" v="Rabatjørn" />
		<tag k="natural" v="water" />
		<tag k="ssr:stedsnr" v="386638" />
	</node>
	<node id="-389558" lat="58.4731040228" lon="5.88491778558">
		<tag k="name" v="Krotjørna" />
		<tag k="natural" v="water" />
		<tag k="ssr:stedsnr" v="691" />
	</node>
	<node id="-389557" lat="58.4703027808" lon="5.88877500526">
		<tag k="name" v="Soltjørna" />
		<tag k="natural" v="water" />
		<tag k="ssr:stedsnr" v="690" />
	</node>
	<node id="-389555" lat="58.478581174" lon="5.97065436656">
		<tag k="name" v="Krågevatnet" />
		<tag k="natural" v="water" />
		<tag k="ssr:stedsnr" v="657" />
	</node>
	<node id="-391601" lat="58.4604203994" lon="6.02137034661">
		<tag k="name" v="Slettebøvatnet" />
		<tag k="natural" v="water" />
		<tag k="ssr:stedsnr" v="850634" />
		<tag k="water" v="lake" />
	</node>
	<node id="-391592" lat="58.4981152567" lon="6.15658621396">
		<tag k="name" v="Hyttevatnet" />
		<tag k="natural" v="water" />
		<tag k="ssr:stedsnr" v="849741" />
		<tag k="water" v="lake" />
	</node>
	<node id="-391591" lat="58.4894575199" lon="5.8942363729">
		<tag k="name" v="Hellvigsvatnet" />
		<tag k="natural" v="water" />
		<tag k="ssr:stedsnr" v="849730" />
		<tag k="water" v="lake" />
	</node>
	<node id="-391588" lat="58.5962555528" lon="6.35035278574">
		<tag k="alt_name" v="Storåna" />
		<tag k="name" v="Gyaåna" />
		<tag k="ssr:stedsnr" v="849123" />
		<tag k="waterway" v="river" />
	</node>
	<node id="-391587" lat="58.5473423108" lon="6.13211087382">
		<tag k="name" v="Møssingtjørna" />
		<tag k="natural" v="water" />
		<tag k="old_name" v="Missingtjørni;Myssingtjørna" />
		<tag k="ssr:stedsnr" v="849100" />
	</node>
	<node id="-391586" lat="58.4538777755" lon="6.01316944028">
		<tag k="name" v="Lundeåna" />
		<tag k="ssr:stedsnr" v="847684" />
		<tag k="waterway" v="river" />
	</node>
	<node id="-391585" lat="58.4675250012" lon="6.04681110776">
		<tag k="name" v="Nålaugtjørna" />
		<tag k="natural" v="water" />
		<tag k="ssr:stedsnr" v="847681" />
	</node>
	<node id="-389536" lat="58.612924791" lon="6.49440016205">
		<tag k="name" v="Hestevatn" />
		<tag k="natural" v="water" />
		<tag k="ssr:stedsnr" v="771170" />
		<tag k="water" v="lake" />
	</node>
	<node id="-389189" lat="58.5744111119" lon="6.36295555762">
		<tag k="alt_name" v="Botnåna" />
		<tag k="name" v="Botnaåni" />
		<tag k="ssr:stedsnr" v="303897" />
		<tag k="waterway" v="stream" />
	</node>
	<node id="-389528" lat="58.4910810702" lon="5.89846869081">
		<tag k="name" v="Øvra Hellvikvatnet" />
		<tag k="natural" v="water" />
		<tag k="ssr:stedsnr" v="891858" />
		<tag k="water" v="lake" />
	</node>
	<node id="-389525" lat="58.4324388927" lon="5.95494443578">
		<tag k="name" v="Tjødne" />
		<tag k="natural" v="water" />
		<tag k="ssr:stedsnr" v="891772" />
	</node>
	<node id="-389522" lat="58.4499838939" lon="6.1756421566">
		<tag k="name" v="Flåmetjørna" />
		<tag k="natural" v="water" />
		<tag k="ssr:stedsnr" v="891398" />
	</node>
	<node id="-389513" lat="58.4577333321" lon="6.20646388186">
		<tag k="name" v="Kvervahalsen" />
		<tag k="natural" v="strait" />
		<tag k="ssr:stedsnr" v="890361" />
	</node>
	<node id="-389512" lat="58.4716277792" lon="6.18889445253">
		<tag k="name" v="Øvra Bleielitjørn" />
		<tag k="natural" v="water" />
		<tag k="ssr:stedsnr" v="890357" />
	</node>
	<node id="-389510" lat="58.3820972182" lon="6.12065555514">
		<tag k="name" v="Gjerbærbukta" />
		<tag k="natural" v="bay" />
		<tag k="ssr:stedsnr" v="890253" />
	</node>
	<node id="-391556" lat="58.4342027805" lon="6.08958332651">
		<tag k="name" v="Svartevatnet" />
		<tag k="natural" v="water" />
		<tag k="ssr:stedsnr" v="844264" />
		<tag k="water" v="lake" />
	</node>
	<node id="-391555" lat="58.4380436849" lon="6.06969998798">
		<tag k="name" v="Baklitjørna" />
		<tag k="natural" v="water" />
		<tag k="ssr:stedsnr" v="844262" />
	</node>
	<node id="-391554" lat="58.4659194446" lon="6.1448611112">
		<tag k="name" v="Fanteholmen" />
		<tag k="place" v="islet" />
		<tag k="ssr:stedsnr" v="844247" />
	</node>
	<node id="-391553" lat="58.4734861076" lon="6.12283888188">
		<tag k="name" v="Fladå" />
		<tag k="natural" v="strait" />
		<tag k="ssr:stedsnr" v="844244" />
	</node>
	<node id="-389183" lat="58.6334472206" lon="6.4518611191">
		<tag k="name" v="Sigdalstjørna" />
		<tag k="natural" v="water" />
		<tag k="ssr:stedsnr" v="303806" />
	</node>
	<node id="-391543" lat="58.4516214922" lon="5.96195470267">
		<tag k="name" v="Arestadvatnet" />
		<tag k="natural" v="water" />
		<tag k="ssr:stedsnr" v="831698" />
		<tag k="water" v="lake" />
	</node>
	<node id="-391542" lat="58.4286694487" lon="6.15853611785">
		<tag k="name" v="Soltingstjørna" />
		<tag k="natural" v="water" />
		<tag k="ssr:stedsnr" v="831526" />
	</node>
	<node id="-391540" lat="58.4813636508" lon="5.92805345515">
		<tag k="name" v="Klypevatnet" />
		<tag k="natural" v="water" />
		<tag k="ssr:stedsnr" v="830861" />
		<tag k="water" v="lake" />
	</node>
	<node id="-391538" lat="58.481363893" lon="5.91879167459">
		<tag k="name" v="Støa" />
		<tag k="natural" v="water" />
		<tag k="ssr:stedsnr" v="830847" />
		<tag k="water" v="pond" />
	</node>
	<node id="-391519" lat="58.4692166687" lon="6.18956666926">
		<tag k="name" v="Nedra Bleielitjørn" />
		<tag k="natural" v="water" />
		<tag k="ssr:stedsnr" v="829356" />
	</node>
	<node id="-391517" lat="58.4426805516" lon="6.11522777262">
		<tag k="name" v="Rauntjørna" />
		<tag k="natural" v="water" />
		<tag k="ssr:stedsnr" v="829336" />
	</node>
	<node id="-391514" lat="58.3846805511" lon="6.11202777881">
		<tag k="name" v="Kjerringtjørna" />
		<tag k="natural" v="water" />
		<tag k="ssr:stedsnr" v="829140" />
	</node>
	<node id="-391510" lat="58.4005027812" lon="6.10037500334">
		<tag k="name" v="Krobekken" />
		<tag k="ssr:stedsnr" v="828469" />
		<tag k="waterway" v="stream" />
	</node>
	<node id="-391509" lat="58.4061963583" lon="6.08048447854">
		<tag k="name" v="Grisatjørna" />
		<tag k="natural" v="water" />
		<tag k="ssr:stedsnr" v="828461" />
	</node>
	<node id="-391506" lat="58.3914138935" lon="6.14538056282">
		<tag k="name" v="Klumpestøa" />
		<tag k="natural" v="bay" />
		<tag k="ssr:stedsnr" v="827571" />
	</node>
	<node id="-391502" lat="58.5944083335" lon="6.44119443773">
		<tag k="name" v="Kyrkjenes" />
		<tag k="natural" v="cape" />
		<tag k="ssr:stedsnr" v="816534" />
	</node>
	<node id="-391497" lat="58.4618555541" lon="6.22205555756">
		<tag k="name" v="Skogåstangen" />
		<tag k="natural" v="cape" />
		<tag k="ssr:stedsnr" v="816457" />
	</node>
	<node id="-389447" lat="58.4430290479" lon="6.04634478446">
		<tag k="name" v="Svartevatnet" />
		<tag k="natural" v="water" />
		<tag k="ssr:stedsnr" v="404697" />
		<tag k="water" v="lake" />
	</node>
	<node id="-389445" lat="58.4234027815" lon="6.05976110386">
		<tag k="name" v="Rodamyrtjørna" />
		<tag k="natural" v="water" />
		<tag k="ssr:stedsnr" v="404518" />
	</node>
	<node id="-391492" lat="58.5515138928" lon="6.22237500393">
		<tag k="name" v="Øygreifossen" />
		<tag k="natural" v="waterfall" />
		<tag k="ssr:stedsnr" v="816443" />
	</node>
	<node id="-391490" lat="58.5522777767" lon="6.25251110385">
		<tag k="name" v="Kjeøy" />
		<tag k="place" v="islet" />
		<tag k="ssr:stedsnr" v="816436" />
	</node>
	<node id="-391488" lat="58.6017972226" lon="6.35596389058">
		<tag k="name" v="Liarbekken" />
		<tag k="ssr:stedsnr" v="816321" />
		<tag k="waterway" v="stream" />
	</node>
	<node id="-391485" lat="58.4807138863" lon="6.27870555437">
		<tag k="name" v="Josteinen" />
		<tag k="place" v="islet" />
		<tag k="ssr:stedsnr" v="816121" />
	</node>
	<node id="-389436" lat="58.3837250006" lon="6.13862778437">
		<tag k="name" v="Holman" />
		<tag k="place" v="islet" />
		<tag k="ssr:stedsnr" v="404131" />
	</node>
	<node id="-391482" lat="58.517019447" lon="5.89198610482">
		<tag k="name" v="Vidmyrtjørna" />
		<tag k="natural" v="water" />
		<tag k="ssr:stedsnr" v="812652" />
	</node>
	<node id="-389427" lat="58.4049388922" lon="6.1049944463">
		<tag k="name" v="Legebekken" />
		<tag k="ssr:stedsnr" v="403483" />
		<tag k="waterway" v="stream" />
	</node>
	<node id="-391469" lat="58.5196972218" lon="6.07908888367">
		<tag k="name" v="Lomelandstjørna" />
		<tag k="natural" v="water" />
		<tag k="ssr:stedsnr" v="811961" />
	</node>
	<node id="-389418" lat="58.6017944443" lon="6.36337500315">
		<tag k="name" v="Nedra Mjelkeåna" />
		<tag k="ssr:stedsnr" v="391336" />
		<tag k="waterway" v="stream" />
	</node>
	<node id="-391465" lat="58.5364499856" lon="6.11432143967">
		<tag k="name" v="Andorstjørna" />
		<tag k="natural" v="water" />
		<tag k="ssr:stedsnr" v="811927" />
	</node>
	<node id="-391464" lat="58.5165111093" lon="6.08385556242">
		<tag k="name" v="Hedlandsåna" />
		<tag k="ssr:stedsnr" v="811846" />
		<tag k="waterway" v="river" />
	</node>
	<node id="-389414" lat="58.5714444466" lon="6.30021388959">
		<tag k="name" v="Holetjørna" />
		<tag k="natural" v="water" />
		<tag k="ssr:stedsnr" v="390501" />
	</node>
	<node id="-391461" lat="58.5188675892" lon="6.17589793003">
		<tag k="name" v="Korvatjørn" />
		<tag k="natural" v="water" />
		<tag k="ssr:stedsnr" v="811834" />
	</node>
	<node id="-391459" lat="58.5080305575" lon="5.99154444228">
		<tag k="name" v="Birkelandsodden" />
		<tag k="natural" v="cape" />
		<tag k="ssr:stedsnr" v="811820" />
	</node>
	<node id="-391458" lat="58.4974686379" lon="5.95600641713">
		<tag k="name" v="Espetjørn" />
		<tag k="natural" v="water" />
		<tag k="ssr:stedsnr" v="811815" />
	</node>
	<node id="-391456" lat="58.4694000009" lon="6.06757500078">
		<tag k="name" v="Tvibekken" />
		<tag k="ssr:stedsnr" v="809446" />
		<tag k="waterway" v="stream" />
	</node>
	<node id="-391455" lat="58.4230249978" lon="6.10062499907">
		<tag k="name" v="Hynnlandstjørna" />
		<tag k="natural" v="water" />
		<tag k="ssr:stedsnr" v="809400" />
	</node>
	<node id="-391453" lat="58.5103860808" lon="6.26901940752">
		<tag k="name" v="Fiskeløys" />
		<tag k="natural" v="water" />
		<tag k="ssr:stedsnr" v="790000" />
	</node>
	<node id="-391446" lat="58.4547000041" lon="5.90250000432">
		<tag k="name" v="Sauatjørna" />
		<tag k="natural" v="water" />
		<tag k="ssr:stedsnr" v="789872" />
	</node>
	<node id="-391443" lat="58.4540870897" lon="6.16170100544">
		<tag k="name" v="Husavatnet" />
		<tag k="natural" v="water" />
		<tag k="ssr:stedsnr" v="789831" />
	</node>
	<node id="-391441" lat="58.4374277821" lon="6.01457500511">
		<tag k="name" v="Skoraåa" />
		<tag k="ssr:stedsnr" v="789825" />
		<tag k="waterway" v="stream" />
	</node>
	<node id="-391439" lat="58.425430822" lon="6.15779715399">
		<tag k="name" v="Piggsteintjørna" />
		<tag k="natural" v="water" />
		<tag k="ssr:stedsnr" v="789784" />
	</node>
	<node id="-389679" lat="58.4336444464" lon="6.11785000113">
		<tag k="name" v="Alvika" />
		<tag k="natural" v="bay" />
		<tag k="ssr:stedsnr" v="40346" />
	</node>
	<node id="-389386" lat="58.5037538121" lon="5.96269234164">
		<tag k="name" v="Hunnakjella" />
		<tag k="natural" v="water" />
		<tag k="ssr:stedsnr" v="386842" />
		<tag k="water" v="lake" />
	</node>
	<node id="-391432" lat="58.4715031405" lon="6.13631001052">
		<tag k="name" v="Nodlandsvatnet" />
		<tag k="natural" v="water" />
		<tag k="ssr:stedsnr" v="789629" />
		<tag k="water" v="lake" />
	</node>
	<node id="-389792" lat="58.5100795922" lon="6.00424539599">
		<tag k="name" v="Kråketjørna" />
		<tag k="natural" v="water" />
		<tag k="ssr:stedsnr" v="83836" />
	</node>
	<node id="-389381" lat="58.5163277755" lon="5.8806194397">
		<tag k="name" v="Forevasstangen" />
		<tag k="natural" v="cape" />
		<tag k="ssr:stedsnr" v="386126" />
	</node>
	<node id="-389375" lat="58.4158000002" lon="6.18495000235">
		<tag k="name" v="Mjåvatn" />
		<tag k="natural" v="water" />
		<tag k="ssr:stedsnr" v="384629" />
		<tag k="water" v="lake" />
	</node>
	<node id="-389372" lat="58.3923845743" lon="6.08806755073">
		<tag k="name" v="Rangåa" />
		<tag k="ssr:stedsnr" v="364989" />
		<tag k="waterway" v="stream" />
	</node>
	<node id="-389371" lat="58.3768000012" lon="6.10917500045">
		<tag k="name" v="Trolletjørna" />
		<tag k="natural" v="water" />
		<tag k="ssr:stedsnr" v="364984" />
	</node>
	<node id="-391418" lat="58.6035337584" lon="6.4695222389">
		<tag k="name" v="Harketjørna" />
		<tag k="natural" v="water" />
		<tag k="ssr:stedsnr" v="788852" />
	</node>
	<node id="-391416" lat="58.4594783863" lon="6.18216043213">
		<tag k="name" v="Mjåvatn" />
		<tag k="natural" v="water" />
		<tag k="ssr:stedsnr" v="788839" />
	</node>
	<node id="-389366" lat="58.5473300922" lon="6.24971469154">
		<tag k="name" v="Haugatjørna" />
		<tag k="natural" v="water" />
		<tag k="ssr:stedsnr" v="364927" />
	</node>
	<node id="-391409" lat="58.5608693416" lon="6.11694120922">
		<tag k="name" v="Eftelandsvatnet" />
		<tag k="natural" v="water" />
		<tag k="ssr:stedsnr" v="788087" />
		<tag k="water" v="lake" />
	</node>
	<node id="-389357" lat="58.4910415928" lon="5.96493985409">
		<tag k="name" v="Lysevatnet" />
		<tag k="natural" v="water" />
		<tag k="ssr:stedsnr" v="364726" />
	</node>
	<node id="-389356" lat="58.4857527753" lon="5.92870000558">
		<tag k="name" v="Smihustjørna" />
		<tag k="natural" v="water" />
		<tag k="ssr:stedsnr" v="364727" />
	</node>
	<node id="-389355" lat="58.4941112827" lon="6.02177059792">
		<tag k="name" v="Foretjørna" />
		<tag k="natural" v="water" />
		<tag k="ssr:stedsnr" v="364724" />
	</node>
	<node id="-389354" lat="58.4764304171" lon="5.90794900014">
		<tag k="name" v="Holmavatnet" />
		<tag k="natural" v="water" />
		<tag k="ssr:stedsnr" v="364702" />
	</node>
	<node id="-391400" lat="58.4769500008" lon="5.96436945054">
		<tag k="name" v="Blanketjørna" />
		<tag k="natural" v="water" />
		<tag k="ssr:stedsnr" v="786782" />
	</node>
	<node id="-389349" lat="58.5794250043" lon="6.2038027811">
		<tag k="name" v="Toptabekken" />
		<tag k="ssr:stedsnr" v="364116" />
		<tag k="waterway" v="stream" />
	</node>
	<node id="-391393" lat="58.4937055564" lon="6.13762777149">
		<tag k="name" v="Stubbholmen" />
		<tag k="place" v="islet" />
		<tag k="ssr:stedsnr" v="786123" />
	</node>
	<node id="-389342" lat="58.6082166625" lon="6.31256943818">
		<tag k="name" v="Stølsbekken" />
		<tag k="ssr:stedsnr" v="364866" />
		<tag k="waterway" v="stream" />
	</node>
	<node id="-389340" lat="58.6299796888" lon="6.39953854572">
		<tag k="name" v="Bessevatnet" />
		<tag k="natural" v="water" />
		<tag k="ssr:stedsnr" v="364843" />
		<tag k="water" v="lake" />
	</node>
	<node id="-389339" lat="58.4433249973" lon="6.1624250075">
		<tag k="name" v="Tedoratjørnan" />
		<tag k="natural" v="water" />
		<tag k="ssr:stedsnr" v="364830" />
	</node>
	<node id="-391385" lat="58.4765016212" lon="5.99625015016">
		<tag k="name" v="Kroknedene" />
		<tag k="place" v="locality" />
		<tag k="ssr:stedsnr" v="785769" />
	</node>
	<node id="-389334" lat="58.4928416623" lon="5.9504166724">
		<tag k="name" v="Krosstjørna" />
		<tag k="natural" v="water" />
		<tag k="ssr:stedsnr" v="362778" />
	</node>
	<node id="-391375" lat="58.4502305545" lon="6.08584166337">
		<tag k="name" v="Stemmen" />
		<tag k="natural" v="water" />
		<tag k="ssr:stedsnr" v="783255" />
	</node>
	<node id="-391374" lat="58.4446210633" lon="6.10189770181">
		<tag k="name" v="Eikebakktjørna" />
		<tag k="natural" v="water" />
		<tag k="ssr:stedsnr" v="783251" />
	</node>
	<node id="-389321" lat="58.4759027785" lon="6.03250276941">
		<tag k="name" v="Odden" />
		<tag k="natural" v="cape" />
		<tag k="ssr:stedsnr" v="361490" />
	</node>
	<node id="-389319" lat="58.485591665" lon="6.11646111152">
		<tag k="name" v="Midtvad" />
		<tag k="ssr:stedsnr" v="361272" />
		<tag k="waterway" v="river" />
	</node>
	<node id="-391363" lat="58.4015472236" lon="6.02597222266">
		<tag k="name" v="Hagatjørna" />
		<tag k="natural" v="water" />
		<tag k="ssr:stedsnr" v="770955" />
	</node>
	<node id="-391349" lat="58.4221250023" lon="6.13030278464">
		<tag k="name" v="Litløya" />
		<tag k="place" v="islet" />
		<tag k="ssr:stedsnr" v="769562" />
	</node>
	<node id="-389150" lat="58.4729472264" lon="6.16154999202">
		<tag k="name" v="Stemtjørn" />
		<tag k="natural" v="water" />
		<tag k="ssr:stedsnr" v="298284" />
	</node>
	<node id="-389298" lat="58.4743722197" lon="6.12827500847">
		<tag k="name" v="Gaupestiodden" />
		<tag k="natural" v="cape" />
		<tag k="ssr:stedsnr" v="358284" />
	</node>
	<node id="-389297" lat="58.4321611069" lon="6.08159722319">
		<tag k="name" v="Stuatjørna" />
		<tag k="natural" v="water" />
		<tag k="ssr:stedsnr" v="358274" />
	</node>
	<node id="-389293" lat="58.4667583314" lon="6.03075278501">
		<tag k="name" v="Stidle" />
		<tag k="natural" v="beach" />
		<tag k="ssr:stedsnr" v="346601" />
	</node>
	<node id="-389292" lat="58.4004305595" lon="6.04221110992">
		<tag k="name" v="Varupstjørna" />
		<tag k="natural" v="water" />
		<tag k="ssr:stedsnr" v="345957" />
	</node>
	<node id="-389490" lat="58.4554777767" lon="6.09418611003">
		<tag k="name" v="Svensråna" />
		<tag k="natural" v="water" />
		<tag k="ssr:stedsnr" v="889275" />
		<tag k="water" v="lake" />
	</node>
	<node id="-389289" lat="58.4472166678" lon="5.96381388896">
		<tag k="name" v="Tvitjørna" />
		<tag k="natural" v="water" />
		<tag k="ssr:stedsnr" v="345720" />
	</node>
	<node id="-391335" lat="58.4430944411" lon="6.15144166685">
		<tag k="name" v="Stokkurhølen" />
		<tag k="place" v="locality" />
		<tag k="ssr:stedsnr" v="768312" />
	</node>
	<node id="-391323" lat="58.4581333339" lon="5.90914722485">
		<tag k="name" v="Surtetjørna" />
		<tag k="natural" v="water" />
		<tag k="ssr:stedsnr" v="766634" />
	</node>
	<node id="-391322" lat="58.3776472267" lon="6.08721389427">
		<tag k="name" v="Stølstjørna" />
		<tag k="natural" v="water" />
		<tag k="ssr:stedsnr" v="758042" />
	</node>
	<node id="-389272" lat="58.4235611104" lon="6.08525555836">
		<tag k="name" v="Sølstjørna" />
		<tag k="natural" v="water" />
		<tag k="ssr:stedsnr" v="343529" />
	</node>
	<node id="-389269" lat="58.4507694474" lon="6.13726111363">
		<tag k="name" v="Skittjørna" />
		<tag k="natural" v="water" />
		<tag k="ssr:stedsnr" v="343292" />
	</node>
	<node id="-389268" lat="58.4588338847" lon="6.08753625398">
		<tag k="name" v="Hyttetjørnene" />
		<tag k="natural" v="water" />
		<tag k="ssr:stedsnr" v="343259" />
	</node>
	<node id="-389267" lat="58.4711221161" lon="6.10563336296">
		<tag k="name" v="Kattatjørna" />
		<tag k="natural" v="water" />
		<tag k="ssr:stedsnr" v="343258" />
	</node>
	<node id="-389144" lat="58.4603611107" lon="6.01023611723">
		<tag k="name" v="Risholmen" />
		<tag k="place" v="islet" />
		<tag k="ssr:stedsnr" v="286606" />
	</node>
	<node id="-391309" lat="58.5547972244" lon="6.26085278478">
		<tag k="name" v="Revastranda" />
		<tag k="natural" v="beach" />
		<tag k="ssr:stedsnr" v="755427" />
	</node>
	<node id="-391307" lat="58.5985888906" lon="6.32523888174">
		<tag k="name" v="Brubekken" />
		<tag k="ssr:stedsnr" v="755315" />
		<tag k="waterway" v="stream" />
	</node>
	<node id="-391304" lat="58.5859867752" lon="6.36326119491">
		<tag k="name" v="Auatjørna" />
		<tag k="natural" v="water" />
		<tag k="ssr:stedsnr" v="754298" />
	</node>
	<node id="-391303" lat="58.560215019" lon="6.13671231106">
		<tag k="name" v="Indre Pollan" />
		<tag k="natural" v="water" />
		<tag k="ssr:stedsnr" v="751989" />
		<tag k="water" v="lake" />
	</node>
	<node id="-389252" lat="58.6190194432" lon="6.47008610595">
		<tag k="name" v="Kvednabekken" />
		<tag k="ssr:stedsnr" v="330526" />
		<tag k="waterway" v="stream" />
	</node>
	<node id="-391293" lat="58.5047083376" lon="5.98324444256">
		<tag k="name" v="Skiftingsbekken" />
		<tag k="ssr:stedsnr" v="751875" />
		<tag k="waterway" v="stream" />
	</node>
	<node id="-391291" lat="58.5278555529" lon="5.96185278189">
		<tag k="name" v="Kjertåstjørna" />
		<tag k="natural" v="water" />
		<tag k="ssr:stedsnr" v="751838" />
	</node>
	<node id="-389242" lat="58.5561083344" lon="6.24626110289">
		<tag k="name" v="Krossvika" />
		<tag k="natural" v="bay" />
		<tag k="ssr:stedsnr" v="330448" />
	</node>
	<node id="-389241" lat="58.5024000003" lon="6.27629999734">
		<tag k="name" v="Svartetjørn" />
		<tag k="natural" v="water" />
		<tag k="ssr:stedsnr" v="330426" />
	</node>
	<node id="-391288" lat="58.5197416647" lon="6.20583889604">
		<tag k="name" v="Teinebekken" />
		<tag k="ssr:stedsnr" v="751766" />
		<tag k="waterway" v="stream" />
	</node>
	<node id="-391287" lat="58.521236112" lon="5.90527499307">
		<tag k="name" v="Tvitjørna" />
		<tag k="natural" v="water" />
		<tag k="ssr:stedsnr" v="751735" />
	</node>
	<node id="-389235" lat="58.596110558" lon="6.39605108171">
		<tag k="name" v="Joanstjørna" />
		<tag k="natural" v="water" />
		<tag k="ssr:stedsnr" v="330250" />
	</node>
	<node id="-391282" lat="58.5087853494" lon="5.86364265913">
		<tag k="name" v="Glovatjørna" />
		<tag k="natural" v="water" />
		<tag k="ssr:stedsnr" v="751118" />
	</node>
	<node id="-389233" lat="58.5919805538" lon="6.3278805509">
		<tag k="name" v="Skinnellneset" />
		<tag k="natural" v="cape" />
		<tag k="ssr:stedsnr" v="329260" />
	</node>
	<node id="-389228" lat="58.5063111084" lon="6.18021666361">
		<tag k="name" v="Hågåstjørna" />
		<tag k="natural" v="water" />
		<tag k="ssr:stedsnr" v="327049" />
	</node>
	<node id="-391274" lat="58.542725002" lon="6.14089999996">
		<tag k="alt_name" v="Erretjørn" />
		<tag k="name" v="Erekjer" />
		<tag k="natural" v="water" />
		<tag k="ssr:stedsnr" v="750810" />
	</node>
	<node id="-391271" lat="58.4090249979" lon="6.16472499677">
		<tag k="name" v="Ålkjertjørna" />
		<tag k="natural" v="water" />
		<tag k="ssr:stedsnr" v="748368" />
	</node>
	<node id="-391270" lat="58.4519249986" lon="6.02702499962">
		<tag k="name" v="Vannbassengan" />
		<tag k="place" v="locality" />
		<tag k="ssr:stedsnr" v="748321" />
	</node>
	<node id="-389221" lat="58.5033864091" lon="6.08732945691">
		<tag k="name" v="Kleivatjørna" />
		<tag k="natural" v="water" />
		<tag k="ssr:stedsnr" v="326883" />
	</node>
	<node id="-391267" lat="58.5128770464" lon="6.27446543469">
		<tag k="name" v="Grimingsvatnet" />
		<tag k="natural" v="water" />
		<tag k="ssr:stedsnr" v="729982" />
		<tag k="water" v="lake" />
	</node>
	<node id="-391264" lat="58.5055135025" lon="6.06988803873">
		<tag k="alt_name" v="Kvålevatnet" />
		<tag k="name" v="Kvålsvatnet" />
		<tag k="natural" v="water" />
		<tag k="ssr:stedsnr" v="729163" />
		<tag k="water" v="lake" />
	</node>
	<node id="-391263" lat="58.5121260602" lon="6.16873349613">
		<tag k="alt_name" v="Drangatjørna" />
		<tag k="name" v="Drangatjørni" />
		<tag k="natural" v="water" />
		<tag k="old_name" v="Drangetjørni" />
		<tag k="ssr:stedsnr" v="729152" />
	</node>
	<node id="-389213" lat="58.5219416708" lon="5.98251665975">
		<tag k="name" v="Sauabekken" />
		<tag k="ssr:stedsnr" v="326820" />
		<tag k="waterway" v="stream" />
	</node>
	<node id="-391258" lat="58.5748211351" lon="6.3557862189">
		<tag k="name" v="Maurlitjørna" />
		<tag k="natural" v="water" />
		<tag k="ssr:stedsnr" v="728887" />
	</node>
	<node id="-389209" lat="58.5079777794" lon="5.88398055719">
		<tag k="name" v="Rodatjørna" />
		<tag k="natural" v="water" />
		<tag k="ssr:stedsnr" v="326101" />
	</node>
	<node id="-391256" lat="58.5738555513" lon="6.22893054917">
		<tag k="name" v="Løkjebekken" />
		<tag k="ssr:stedsnr" v="728871" />
		<tag k="waterway" v="stream" />
	</node>
	<node id="-391252" lat="58.4477805549" lon="6.15680555089">
		<tag k="name" v="Vindtjørna" />
		<tag k="natural" v="water" />
		<tag k="ssr:stedsnr" v="728815" />
	</node>
	<node id="-391249" lat="58.4414500005" lon="6.05035000112">
		<tag k="name" v="Krågevatnet" />
		<tag k="natural" v="water" />
		<tag k="ssr:stedsnr" v="728796" />
		<tag k="water" v="lake" />
	</node>
	<node id="-391248" lat="58.6381498032" lon="6.44249429003">
		<tag k="name" v="Eikelandsdalstjørna" />
		<tag k="natural" v="water" />
		<tag k="ssr:stedsnr" v="728789" />
		<tag k="water" v="lake" />
	</node>
	<node id="-389195" lat="58.5057031643" lon="5.99007333066">
		<tag k="alt_name" v="Langevatnet" />
		<tag k="name" v="Langavatnet" />
		<tag k="natural" v="water" />
		<tag k="ssr:stedsnr" v="304146" />
		<tag k="water" v="lake" />
	</node>
	<node id="-389193" lat="58.5304862765" lon="6.26728166131">
		<tag k="name" v="Fiskeløys" />
		<tag k="natural" v="water" />
		<tag k="ssr:stedsnr" v="303956" />
	</node>
	<node id="-389192" lat="58.5306281299" lon="6.25197425834">
		<tag k="name" v="Litle Hommatjørna" />
		<tag k="natural" v="water" />
		<tag k="ssr:stedsnr" v="303953" />
	</node>
	<node id="-391237" lat="58.4775986894" lon="5.93056537698">
		<tag k="name" v="Krogavatn" />
		<tag k="natural" v="water" />
		<tag k="ssr:stedsnr" v="728635" />
	</node>
	<node id="-391235" lat="58.4748861073" lon="6.0837138899">
		<tag k="name" v="Stemtjørna" />
		<tag k="natural" v="water" />
		<tag k="ssr:stedsnr" v="728616" />
	</node>
	<node id="-389186" lat="58.4613750045" lon="6.19792500177">
		<tag k="name" v="Nedra Tjørna" />
		<tag k="natural" v="water" />
		<tag k="ssr:stedsnr" v="303837" />
	</node>
	<node id="-389185" lat="58.6159555566" lon="6.32369721523">
		<tag k="alt_name" v="Skykultjørnene" />
		<tag k="name" v="Skykultjørnane" />
		<tag k="natural" v="water" />
		<tag k="ssr:stedsnr" v="303826" />
	</node>
	<node id="-391231" lat="58.5786027779" lon="6.16939443816">
		<tag k="alt_name" v="Rauavadet" />
		<tag k="name" v="Raudavadet" />
		<tag k="natural" v="water" />
		<tag k="ssr:stedsnr" v="728080" />
	</node>
	<node id="-389182" lat="58.4294999989" lon="5.88877500197">
		<tag k="name" v="Vallatjørna" />
		<tag k="natural" v="water" />
		<tag k="ssr:stedsnr" v="303799" />
	</node>
	<node id="-391228" lat="58.4743777764" lon="6.04743889641">
		<tag k="name" v="Grønevik" />
		<tag k="natural" v="bay" />
		<tag k="ssr:stedsnr" v="726694" />
	</node>
	<node id="-391227" lat="58.6398222181" lon="6.41811943818">
		<tag k="name" v="Bessetjørna" />
		<tag k="natural" v="water" />
		<tag k="ssr:stedsnr" v="726588" />
	</node>
	<node id="-389178" lat="58.3990305543" lon="6.11547500789">
		<tag k="name" v="Kroganeset" />
		<tag k="natural" v="cape" />
		<tag k="ssr:stedsnr" v="303744" />
	</node>
	<node id="-389175" lat="58.4872055537" lon="6.11708333174">
		<tag k="name" v="Midttjørna" />
		<tag k="natural" v="water" />
		<tag k="ssr:stedsnr" v="303675" />
	</node>
	<node id="-389174" lat="58.4772952303" lon="5.9566343249">
		<tag k="name" v="Fossvatnet" />
		<tag k="natural" v="water" />
		<tag k="ssr:stedsnr" v="303658" />
		<tag k="water" v="lake" />
	</node>
	<node id="-389170" lat="58.475105163" lon="6.1038484357">
		<tag k="name" v="Kattatjørn" />
		<tag k="natural" v="water" />
		<tag k="ssr:stedsnr" v="303636" />
	</node>
	<node id="-389168" lat="58.4614083368" lon="6.01016388269">
		<tag k="name" v="Eidehølen" />
		<tag k="place" v="locality" />
		<tag k="ssr:stedsnr" v="301674" />
	</node>
	<node id="-389164" lat="58.4952888926" lon="6.19630556042">
		<tag k="name" v="Hunsbekk" />
		<tag k="ssr:stedsnr" v="301225" />
		<tag k="waterway" v="stream" />
	</node>
	<node id="-389161" lat="58.4924345532" lon="5.87563303455">
		<tag k="name" v="Klypetjørna" />
		<tag k="natural" v="water" />
		<tag k="ssr:stedsnr" v="301063" />
	</node>
	<node id="-391207" lat="58.4597166687" lon="6.14440556072">
		<tag k="name" v="Fiskaberget" />
		<tag k="natural" v="cape" />
		<tag k="ssr:stedsnr" v="723252" />
	</node>
	<node id="-389158" lat="58.4869694404" lon="5.99940833329">
		<tag k="name" v="Fotlandsfossen" />
		<tag k="natural" v="waterfall" />
		<tag k="ssr:stedsnr" v="300486" />
	</node>
	<node id="-391205" lat="58.3871388928" lon="6.06957499422">
		<tag k="name" v="Svåelva" />
		<tag k="ssr:stedsnr" v="723043" />
		<tag k="waterway" v="river" />
	</node>
	<node id="-391200" lat="58.4551472209" lon="6.01446666264">
		<tag k="name" v="Elverhøy" />
		<tag k="place" v="islet" />
		<tag k="ssr:stedsnr" v="710601" />
	</node>
	<node id="-391198" lat="58.4959206672" lon="5.93145310335">
		<tag k="name" v="Hedlandsdybingen" />
		<tag k="natural" v="water" />
		<tag k="ssr:stedsnr" v="709838" />
		<tag k="water" v="lake" />
	</node>
	<node id="-391195" lat="58.4229027814" lon="6.12691667034">
		<tag k="name" v="Storaøya" />
		<tag k="place" v="islet" />
		<tag k="ssr:stedsnr" v="709551" />
	</node>
	<node id="-391194" lat="58.4258460962" lon="6.15830110654">
		<tag k="name" v="Litla Stemmetjørna" />
		<tag k="natural" v="water" />
		<tag k="ssr:stedsnr" v="709548" />
	</node>
	<node id="-391192" lat="58.4412944438" lon="6.18466667334">
		<tag k="name" v="Nedra Podletjørna" />
		<tag k="natural" v="water" />
		<tag k="ssr:stedsnr" v="709365" />
	</node>
	<node id="-389136" lat="58.4861231015" lon="5.94140619521">
		<tag k="alt_name" v="Smihusvatnet" />
		<tag k="name" v="Smihusvatna" />
		<tag k="natural" v="water" />
		<tag k="ssr:stedsnr" v="284861" />
		<tag k="water" v="lake" />
	</node>
	<node id="-389134" lat="58.4262777821" lon="6.1323805606">
		<tag k="name" v="Liåna" />
		<tag k="ssr:stedsnr" v="284575" />
		<tag k="waterway" v="river" />
	</node>
	<node id="-389133" lat="58.4134611122" lon="6.12618055774">
		<tag k="name" v="Raude Sanden" />
		<tag k="natural" v="water" />
		<tag k="ssr:stedsnr" v="284570" />
	</node>
	<node id="-391177" lat="58.417728061" lon="6.08713062924">
		<tag k="name" v="Horsetjørna" />
		<tag k="natural" v="water" />
		<tag k="ssr:stedsnr" v="707934" />
	</node>
	<node id="-389126" lat="58.4137305592" lon="6.09351665886">
		<tag k="name" v="Auglendsbekken" />
		<tag k="ssr:stedsnr" v="283957" />
		<tag k="waterway" v="stream" />
	</node>
</osm>
