<?xml version="1.0" encoding="UTF-8"?>
<osm generator="osmapis" version="0.6">
	<node id="-692656" lat="68.3875583364" lon="15.863016671">
		<tag k="man_made" v="quay" />
		<tag k="name" v="Neskaia" />
		<tag k="place" v="locality" />
		<tag k="ssr:stedsnr" v="40579" />
	</node>
	<node id="-692668" lat="68.4160277786" lon="15.9972083226">
		<tag k="landuse" v="harbour" />
		<tag k="name" v="Lødingen Hamn" />
		<tag k="seamark:type" v="harbour" />
		<tag k="ssr:stedsnr" v="77271" />
	</node>
	<node id="-693499" lat="68.441636113" lon="16.0071083372">
		<tag k="junction" v="yes" />
		<tag k="name" v="Kåringskrysset" />
		<tag k="place" v="locality" />
		<tag k="ssr:stedsnr" v="570455" />
	</node>
	<node id="-692440" lat="68.3702277793" lon="15.2416361233">
		<tag k="name" v="Gammelstøene" />
		<tag k="place" v="locality" />
		<tag k="ssr:stedsnr" v="391645" />
	</node>
	<node id="-692791" lat="68.3101638905" lon="15.6414027811">
		<tag k="landuse" v="harbour" />
		<tag k="name" v="Offersøy havneområde" />
		<tag k="seamark:type" v="harbour" />
		<tag k="ssr:stedsnr" v="101382" />
	</node>
	<node id="-694196" lat="68.5168777759" lon="16.1135999973">
		<tag k="highway" v="path" />
		<tag k="name" v="Sommarfjøsvegen" />
		<tag k="ssr:stedsnr" v="874147" />
	</node>
	<node id="-692305" lat="68.3734361101" lon="15.2534138917">
		<tag k="highway" v="path" />
		<tag k="name" v="Bjørnbåsen" />
		<tag k="ssr:stedsnr" v="331914" />
	</node>
	<node id="-694192" lat="68.3856583314" lon="15.7364499935">
		<tag k="highway" v="path" />
		<tag k="name" v="Dalheimvegen" />
		<tag k="ssr:stedsnr" v="871594" />
	</node>
	<node id="-692751" lat="68.3290111112" lon="15.6474166631">
		<tag k="highway" v="path" />
		<tag k="name" v="Melkarvegen" />
		<tag k="ssr:stedsnr" v="88128" />
	</node>
	<node id="-692486" lat="68.382141666" lon="15.7142638808">
		<tag k="highway" v="path" />
		<tag k="name" v="Slettvegen" />
		<tag k="ssr:stedsnr" v="889595" />
	</node>
</osm>
