<?xml version="1.0" encoding="UTF-8"?>
<osm version="0.6" generator="osmapis">
	<node lat="68.33315555986458" lon="15.661441657927776" id="-19729">
		<tag k="name" v="Nattmålsmyra" />
		<tag k="natural" v="wetland" />
		<tag k="ssr:stedsnr" v="39660" />
	</node>
	<node lat="68.38126666585686" lon="15.375247215269995" id="-19761">
		<tag k="name" v="Sengmyra" />
		<tag k="natural" v="wetland" />
		<tag k="ssr:stedsnr" v="82729" />
	</node>
	<node lat="68.44383611185445" lon="15.522591673008902" id="-19771">
		<tag k="name" v="Springarsteinen" />
		<tag k="natural" v="stone" />
		<tag k="ssr:stedsnr" v="88183" />
	</node>
	<node lat="68.3700166689741" lon="15.253805561229996" id="-19772">
		<tag k="name" v="Botingsmyra" />
		<tag k="natural" v="wetland" />
		<tag k="ssr:stedsnr" v="88509" />
	</node>
	<node lat="68.49334722316243" lon="16.063805543553386" id="-19816">
		<tag k="name" v="Vedhøggan" />
		<tag k="place" v="locality" />
		<tag k="ssr:stedsnr" v="146919" />
	</node>
	<node lat="68.49312499632525" lon="15.599227777989183" id="-19822">
		<tag k="name" v="Kobbsteinan" />
		<tag k="natural" v="stone" />
		<tag k="ssr:stedsnr" v="149151" />
	</node>
	<node lat="68.43506154297987" lon="15.3613937199" id="-19874">
		<tag k="name" v="Heimerdalmyran" />
		<tag k="natural" v="wetland" />
		<tag k="ssr:stedsnr" v="210843" />
	</node>
	<node lat="68.33796110789866" lon="15.647744453812722" id="-19909">
		<tag k="name" v="Oksmyrholen" />
		<tag k="natural" v="wetland" />
		<tag k="ssr:stedsnr" v="221686" />
	</node>
	<node lat="68.4231833345665" lon="15.764680551559687" id="-19951">
		<tag k="name" v="Seterøyra" />
		<tag k="place" v="locality" />
		<tag k="ssr:stedsnr" v="447661" />
	</node>
	<node lat="68.51340833600793" lon="16.11616666326347" id="-19958">
		<tag k="name" v="Kleivmyra" />
		<tag k="natural" v="wetland" />
		<tag k="ssr:stedsnr" v="267101" />
	</node>
	<node lat="68.46284166697653" lon="16.04017500483411" id="-19960">
		<tag k="name" v="Stornesmyra" />
		<tag k="natural" v="wetland" />
		<tag k="ssr:stedsnr" v="267713" />
	</node>
	<node lat="68.38123610934117" lon="15.703922213316456" id="-19973">
		<tag k="name" v="Stormyra" />
		<tag k="natural" v="wetland" />
		<tag k="ssr:stedsnr" v="282605" />
	</node>
	<node lat="68.47839166403034" lon="15.540969454282454" id="-19978">
		<tag k="name" v="Mortensteinen" />
		<tag k="natural" v="stone" />
		<tag k="ssr:stedsnr" v="452141" />
	</node>
	<node lat="68.39997777889451" lon="15.30034999514024" id="-19995">
		<tag k="name" v="Hesjemyra" />
		<tag k="natural" v="wetland" />
		<tag k="ssr:stedsnr" v="453949" />
	</node>
	<node lat="68.36151944587958" lon="15.514405552709995" id="-20033">
		<tag k="name" v="Mølnhaugmyra" />
		<tag k="natural" v="wetland" />
		<tag k="ssr:stedsnr" v="325640" />
	</node>
	<node lat="68.3139888897271" lon="15.635394455966019" id="-20035">
		<tag k="name" v="Stormyra" />
		<tag k="natural" v="wetland" />
		<tag k="ssr:stedsnr" v="325697" />
	</node>
	<node lat="68.55330277689262" lon="15.92431389805124" id="-20042">
		<tag k="name" v="Atterslåttene" />
		<tag k="place" v="locality" />
		<tag k="ssr:stedsnr" v="331112" />
	</node>
	<node lat="68.35446110778807" lon="15.400566666370054" id="-20065">
		<tag k="name" v="Naustosen" />
		<tag k="place" v="locality" />
		<tag k="ssr:stedsnr" v="464437" />
	</node>
	<node lat="68.38023889220409" lon="15.667263896339598" id="-20068">
		<tag k="name" v="Slåtten" />
		<tag k="natural" v="wetland" />
		<tag k="ssr:stedsnr" v="464636" />
	</node>
	<node lat="68.34359444803674" lon="15.674955546329608" id="-20071">
		<tag k="name" v="Stormyra" />
		<tag k="natural" v="wetland" />
		<tag k="ssr:stedsnr" v="464744" />
	</node>
	<node lat="68.42876666867929" lon="15.765358327652867" id="-20090">
		<tag k="name" v="Piksteinen" />
		<tag k="natural" v="stone" />
		<tag k="ssr:stedsnr" v="386673" />
	</node>
	<node lat="68.43067222211033" lon="15.440499994447384" id="-20149">
		<tag k="name" v="Smørlumpen" />
		<tag k="natural" v="stone" />
		<tag k="ssr:stedsnr" v="452235" />
	</node>
	<node lat="68.4237722263045" lon="15.495977788894452" id="-20151">
		<tag k="name" v="Vedsteinen" />
		<tag k="natural" v="stone" />
		<tag k="ssr:stedsnr" v="452176" />
	</node>
	<node lat="68.37318888971646" lon="15.233569454035889" id="-20157">
		<tag k="name" v="Bakkamyra" />
		<tag k="natural" v="wetland" />
		<tag k="ssr:stedsnr" v="452977" />
	</node>
	<node lat="68.4564277807367" lon="16.008458342665893" id="-20200">
		<tag k="name" v="Kåringsmyra" />
		<tag k="natural" v="wetland" />
		<tag k="ssr:stedsnr" v="509473" />
	</node>
	<node lat="68.3901750037244" lon="15.752988881914604" id="-20252">
		<tag k="name" v="Stormyra" />
		<tag k="natural" v="wetland" />
		<tag k="ssr:stedsnr" v="567602" />
	</node>
	<node lat="68.49256388832538" lon="16.054549990303016" id="-20262">
		<tag k="name" v="Brattmyra" />
		<tag k="natural" v="wetland" />
		<tag k="ssr:stedsnr" v="571925" />
	</node>
	<node lat="68.40336110838687" lon="15.333874999876116" id="-20270">
		<tag k="name" v="Småskogan" />
		<tag k="place" v="locality" />
		<tag k="ssr:stedsnr" v="573838" />
	</node>
	<node lat="68.42386389201265" lon="15.764144433799261" id="-20283">
		<tag k="landuse" v="meadow" />
		<tag k="name" v="Setran" />
		<tag k="ssr:stedsnr" v="684243" />
	</node>
	<node lat="68.46821388512488" lon="15.50351943477287" id="-20364">
		<tag k="name" v="Sandmælen" />
		<tag k="place" v="locality" />
		<tag k="ssr:stedsnr" v="634142" />
	</node>
	<node lat="68.46927777845893" lon="15.47718888081536" id="-20393">
		<tag k="name" v="Lavollen" />
		<tag k="place" v="locality" />
		<tag k="ssr:stedsnr" v="695148" />
	</node>
	<node lat="68.40237222432138" lon="15.972569443988709" id="-20438">
		<tag k="landuse" v="meadow" />
		<tag k="name" v="Kallvollen" />
		<tag k="ssr:stedsnr" v="689547" />
	</node>
	<node lat="68.39149721872647" lon="15.273572232439593" id="-20461">
		<tag k="name" v="Svarthola" />
		<tag k="natural" v="scree" />
		<tag k="ssr:stedsnr" v="695887" />
	</node>
	<node lat="68.38957500006248" lon="15.214033336337723" id="-20464">
		<tag k="name" v="Smørhola" />
		<tag k="natural" v="scree" />
		<tag k="ssr:stedsnr" v="695978" />
	</node>
	<node lat="68.37189444746963" lon="15.215261117026788" id="-20466">
		<tag k="name" v="Brannåsmyra" />
		<tag k="natural" v="wetland" />
		<tag k="ssr:stedsnr" v="695982" />
	</node>
	<node lat="68.34377500192966" lon="15.576497212294655" id="-20473">
		<tag k="name" v="Bumyra" />
		<tag k="natural" v="wetland" />
		<tag k="ssr:stedsnr" v="708377" />
	</node>
	<node lat="68.43045278177" lon="15.763625007363732" id="-20513">
		<tag k="name" v="Ura" />
		<tag k="natural" v="scree" />
		<tag k="ssr:stedsnr" v="750653" />
	</node>
	<node lat="68.35104166878133" lon="15.708844437371361" id="-20625">
		<tag k="name" v="Rinbømarka" />
		<tag k="place" v="locality" />
		<tag k="ssr:stedsnr" v="889719" />
	</node>
	<node lat="68.49922221975038" lon="15.861144437307406" id="-20630">
		<tag k="name" v="Åborsmyra" />
		<tag k="natural" v="wetland" />
		<tag k="ssr:stedsnr" v="890549" />
	</node>
	<node lat="68.32461388988132" lon="15.594688897953365" id="-20665">
		<tag k="name" v="Svartskogen" />
		<tag k="place" v="locality" />
		<tag k="ssr:stedsnr" v="932693" />
	</node>
	<node lat="68.41056666996785" lon="15.343194435468503" id="-20676">
		<tag k="name" v="Svartbergmyran" />
		<tag k="natural" v="wetland" />
		<tag k="ssr:stedsnr" v="938843" />
	</node>
	<node lat="68.37542778163957" lon="15.268052790576533" id="-20677">
		<tag k="name" v="Rørvikmyran" />
		<tag k="natural" v="wetland" />
		<tag k="ssr:stedsnr" v="938993" />
	</node>
	<node lat="68.49753888482067" lon="15.846166663468244" id="-20680">
		<tag k="name" v="Langsiri" />
		<tag k="natural" v="wetland" />
		<tag k="ssr:stedsnr" v="951537" />
	</node>
	<node lat="68.38921944388841" lon="15.869552771036458" id="-20681">
		<tag k="landuse" v="meadow" />
		<tag k="name" v="Nessjøen" />
		<tag k="ssr:stedsnr" v="951603" />
	</node>
	<node lat="68.39766944041476" lon="15.911644447025855" id="-20682">
		<tag k="name" v="Kanstadmyra" />
		<tag k="natural" v="wetland" />
		<tag k="ssr:stedsnr" v="951609" />
	</node>
	<node lat="68.38778333724194" lon="15.398611105147452" id="-20777">
		<tag k="name" v="Torvmyra" />
		<tag k="natural" v="wetland" />
		<tag k="ssr:stedsnr" v="21747" />
	</node>
	<node lat="68.35999166522775" lon="15.521425005621456" id="-20778">
		<tag k="name" v="Vågemarka" />
		<tag k="place" v="locality" />
		<tag k="ssr:stedsnr" v="21667" />
	</node>
	<node lat="68.51237499868976" lon="16.10182223251219" id="-20787">
		<tag k="name" v="Stormyra" />
		<tag k="natural" v="wetland" />
		<tag k="ssr:stedsnr" v="25142" />
	</node>
	<node lat="68.42773055350149" lon="15.42684721829006" id="-20799">
		<tag k="name" v="Bjerknessteinen" />
		<tag k="natural" v="stone" />
		<tag k="ssr:stedsnr" v="28274" />
	</node>
	<node lat="68.39626667065565" lon="15.301486101817234" id="-20801">
		<tag k="name" v="Stuvvassmyra" />
		<tag k="natural" v="wetland" />
		<tag k="ssr:stedsnr" v="28572" />
	</node>
	<node lat="68.3564555519443" lon="15.223977771336202" id="-20807">
		<tag k="name" v="Larsneverladet" />
		<tag k="place" v="locality" />
		<tag k="ssr:stedsnr" v="28557" />
	</node>
	<node lat="68.37673611086213" lon="15.260663894242755" id="-20808">
		<tag k="name" v="Vedhøggan" />
		<tag k="place" v="locality" />
		<tag k="ssr:stedsnr" v="28932" />
	</node>
	<node lat="68.372049997132" lon="15.207472221384347" id="-20816">
		<tag k="name" v="Kattuglberget" />
		<tag k="natural" v="scree" />
		<tag k="ssr:stedsnr" v="28986" />
	</node>
	<node lat="68.39367222427103" lon="15.920855561895777" id="-20830">
		<tag k="name" v="Storsteinmyra" />
		<tag k="natural" v="wetland" />
		<tag k="ssr:stedsnr" v="40589" />
	</node>
	<node lat="68.51734166499693" lon="16.105855547931274" id="-20882">
		<tag k="name" v="Båtvikmyra" />
		<tag k="natural" v="wetland" />
		<tag k="ssr:stedsnr" v="85117" />
	</node>
	<node lat="68.45690000226742" lon="16.01963611262677" id="-20884">
		<tag k="name" v="Jofotmyra" />
		<tag k="natural" v="wetland" />
		<tag k="ssr:stedsnr" v="85453" />
	</node>
	<node lat="68.53357221983835" lon="16.111777769919485" id="-20885">
		<tag k="name" v="Kufisksteinen" />
		<tag k="natural" v="stone" />
		<tag k="ssr:stedsnr" v="87155" />
	</node>
	<node lat="68.31504166541438" lon="15.277827768623107" id="-20895">
		<tag k="name" v="Selsøymyra" />
		<tag k="natural" v="wetland" />
		<tag k="ssr:stedsnr" v="88647" />
	</node>
	<node lat="68.38798333505966" lon="15.72921112007861" id="-20945">
		<tag k="name" v="Æresteigen" />
		<tag k="place" v="locality" />
		<tag k="ssr:stedsnr" v="142622" />
	</node>
	<node lat="68.48958610684511" lon="16.07403333321854" id="-20961">
		<tag k="name" v="Hans Gjæver-myra" />
		<tag k="natural" v="wetland" />
		<tag k="ssr:stedsnr" v="146893" />
	</node>
	<node lat="68.37367222522138" lon="15.218097231912907" id="-20975">
		<tag k="name" v="Brannåsmyra" />
		<tag k="natural" v="wetland" />
		<tag k="ssr:stedsnr" v="149978" />
	</node>
	<node lat="68.38323611036485" lon="15.268711112387518" id="-20978">
		<tag k="name" v="Vassosmyran" />
		<tag k="natural" v="wetland" />
		<tag k="ssr:stedsnr" v="149988" />
	</node>
	<node lat="68.38023610677057" lon="15.264622227720949" id="-20981">
		<tag k="name" v="Vollan" />
		<tag k="place" v="locality" />
		<tag k="ssr:stedsnr" v="149923" />
	</node>
	<node lat="68.49115555364327" lon="16.081794454152625" id="-21043">
		<tag k="name" v="Selkmyra" />
		<tag k="natural" v="wetland" />
		<tag k="ssr:stedsnr" v="207891" />
	</node>
	<node lat="68.5081611109671" lon="16.096027778489375" id="-21044">
		<tag k="name" v="Steinrabben" />
		<tag k="natural" v="stone" />
		<tag k="ssr:stedsnr" v="209171" />
	</node>
	<node lat="68.38298889058902" lon="15.39375555595213" id="-21111">
		<tag k="name" v="Langmyra" />
		<tag k="natural" v="wetland" />
		<tag k="ssr:stedsnr" v="264740" />
	</node>
	<node lat="68.39953888519197" lon="15.306027788160176" id="-21134">
		<tag k="name" v="Høgmyran" />
		<tag k="natural" v="wetland" />
		<tag k="ssr:stedsnr" v="270556" />
	</node>
	<node lat="68.4054583375948" lon="15.346513879991388" id="-21138">
		<tag k="name" v="Gåsbogmyra" />
		<tag k="natural" v="wetland" />
		<tag k="ssr:stedsnr" v="270827" />
	</node>
	<node lat="68.39178332994409" lon="15.897074993273081" id="-21151">
		<tag k="name" v="Stormyra" />
		<tag k="natural" v="wetland" />
		<tag k="ssr:stedsnr" v="283533" />
	</node>
	<node lat="68.43854166817366" lon="15.499313895992369" id="-21208">
		<tag k="name" v="Skjåsteinan" />
		<tag k="natural" v="stone" />
		<tag k="ssr:stedsnr" v="331213" />
	</node>
	<node lat="68.338952774198" lon="15.598272221235812" id="-21230">
		<tag k="name" v="Stormyra" />
		<tag k="natural" v="wetland" />
		<tag k="ssr:stedsnr" v="344340" />
	</node>
	<node lat="68.40717777442141" lon="15.977544447502865" id="-21289">
		<tag k="name" v="Prestegårdsjorda" />
		<tag k="place" v="locality" />
		<tag k="ssr:stedsnr" v="385598" />
	</node>
	<node lat="68.40161944735931" lon="15.962274993680715" id="-21290">
		<tag k="name" v="Jomfrumyra" />
		<tag k="natural" v="wetland" />
		<tag k="ssr:stedsnr" v="385601" />
	</node>
	<node lat="68.38512778014692" lon="15.741027773830941" id="-21292">
		<tag k="name" v="Dalheimmyra" />
		<tag k="natural" v="wetland" />
		<tag k="ssr:stedsnr" v="385633" />
	</node>
	<node lat="68.45703333003257" lon="15.794524997185546" id="-21345">
		<tag k="name" v="Bjørnmyra" />
		<tag k="natural" v="wetland" />
		<tag k="ssr:stedsnr" v="441173" />
	</node>
	<node lat="68.424213885271" lon="15.766861100119979" id="-21385">
		<tag k="name" v="Øyra" />
		<tag k="place" v="locality" />
		<tag k="ssr:stedsnr" v="507682" />
	</node>
	<node lat="68.41910555568988" lon="15.779386111589293" id="-21388">
		<tag k="name" v="Aspeskogen" />
		<tag k="place" v="locality" />
		<tag k="ssr:stedsnr" v="507689" />
	</node>
	<node lat="68.3745999965309" lon="15.243022213197786" id="-21410">
		<tag k="name" v="Saulimyra" />
		<tag k="natural" v="wetland" />
		<tag k="ssr:stedsnr" v="513974" />
	</node>
	<node lat="68.40152778215034" lon="15.350113887693551" id="-21415">
		<tag k="name" v="Vollen" />
		<tag k="place" v="locality" />
		<tag k="ssr:stedsnr" v="514915" />
	</node>
	<node lat="68.41601944406523" lon="15.751383323924076" id="-21421">
		<tag k="name" v="Blåskjermyra" />
		<tag k="natural" v="wetland" />
		<tag k="ssr:stedsnr" v="524597" />
	</node>
	<node lat="68.33833611165223" lon="15.673074989696547" id="-21422">
		<tag k="name" v="Låvemyra" />
		<tag k="natural" v="wetland" />
		<tag k="ssr:stedsnr" v="524701" />
	</node>
	<node lat="68.52641944188103" lon="15.866233324520596" id="-21453">
		<tag k="name" v="Botnmyran" />
		<tag k="natural" v="wetland" />
		<tag k="ssr:stedsnr" v="563796" />
	</node>
	<node lat="68.38654166683287" lon="15.205597228941178" id="-21489">
		<tag k="historic" v="shieling" />
		<tag k="name" v="Andre voll" />
		<tag k="place" v="locality" />
		<tag k="ssr:stedsnr" v="573971" />
	</node>
	<node lat="68.33593611331658" lon="15.51828887968093" id="-21540">
		<tag k="name" v="Jurmyra" />
		<tag k="natural" v="wetland" />
		<tag k="ssr:stedsnr" v="628629" />
	</node>
	<node lat="68.37020833537902" lon="15.526919448063634" id="-21542">
		<tag k="name" v="Kjellarbotsmyra" />
		<tag k="natural" v="wetland" />
		<tag k="ssr:stedsnr" v="628635" />
	</node>
	<node lat="68.49701110997248" lon="16.076036117664977" id="-21555">
		<tag k="name" v="Tindmyra" />
		<tag k="natural" v="wetland" />
		<tag k="ssr:stedsnr" v="632928" />
	</node>
	<node lat="68.42541110821654" lon="15.364891659790239" id="-21569">
		<tag k="name" v="Kvanntomyran" />
		<tag k="natural" v="wetland" />
		<tag k="ssr:stedsnr" v="634848" />
	</node>
	<node lat="68.3360000023455" lon="15.658394442230135" id="-21583">
		<tag k="name" v="Haldormyran" />
		<tag k="natural" v="wetland" />
		<tag k="ssr:stedsnr" v="645724" />
	</node>
	<node lat="68.37387499709149" lon="15.65005555736477" id="-21595">
		<tag k="name" v="Godbakkmyran" />
		<tag k="natural" v="wetland" />
		<tag k="ssr:stedsnr" v="706698" />
	</node>
	<node lat="68.49134444066445" lon="15.892472218655188" id="-21596">
		<tag k="name" v="Bonslåtta" />
		<tag k="place" v="locality" />
		<tag k="ssr:stedsnr" v="708563" />
	</node>
	<node lat="68.42020833089309" lon="15.402633339908315" id="-21654">
		<tag k="name" v="Fjellmyran" />
		<tag k="natural" v="wetland" />
		<tag k="ssr:stedsnr" v="756238" />
	</node>
	<node lat="68.4168833296463" lon="15.395933338268522" id="-21669">
		<tag k="name" v="Holmåkran" />
		<tag k="place" v="locality" />
		<tag k="ssr:stedsnr" v="756887" />
	</node>
	<node lat="68.31747499998991" lon="15.611527773831343" id="-21738">
		<tag k="name" v="Nattmålsmyran" />
		<tag k="natural" v="wetland" />
		<tag k="ssr:stedsnr" v="810730" />
	</node>
	<node lat="68.42318611166908" lon="15.432452783162923" id="-21746">
		<tag k="name" v="Holmsteinan" />
		<tag k="natural" v="stone" />
		<tag k="ssr:stedsnr" v="816270" />
	</node>
	<node lat="68.42467499723239" lon="15.49343611862349" id="-21750">
		<tag k="name" v="Sniphaugmyra" />
		<tag k="natural" v="wetland" />
		<tag k="ssr:stedsnr" v="817199" />
	</node>
	<node lat="68.43503611131061" lon="15.502622232954598" id="-21751">
		<tag k="name" v="Ungsmalbergmyra" />
		<tag k="natural" v="wetland" />
		<tag k="ssr:stedsnr" v="817202" />
	</node>
	<node lat="68.37094167010835" lon="15.231375011775878" id="-21754">
		<tag k="name" v="Hundslåtta" />
		<tag k="place" v="locality" />
		<tag k="ssr:stedsnr" v="817618" />
	</node>
	<node lat="68.42231667082201" lon="15.757541657580344" id="-21820">
		<tag k="name" v="Jomyra" />
		<tag k="natural" v="wetland" />
		<tag k="ssr:stedsnr" v="872699" />
	</node>
	<node lat="68.42542500180787" lon="15.486594440306645" id="-21832">
		<tag k="name" v="Torvhaugmyra" />
		<tag k="natural" v="wetland" />
		<tag k="ssr:stedsnr" v="877182" />
	</node>
	<node lat="68.37331110952432" lon="15.259888881325715" id="-21840">
		<tag k="name" v="Sildvikmyra" />
		<tag k="natural" v="wetland" />
		<tag k="ssr:stedsnr" v="877923" />
	</node>
	<node lat="68.4287749999184" lon="15.398902776464546" id="-21848">
		<tag k="name" v="Rødsandan" />
		<tag k="natural" v="beach" />
		<tag k="ssr:stedsnr" v="877883" />
		<tag k="surface" v="sand" />
	</node>
	<node lat="68.4314944423123" lon="15.37718055769968" id="-21850">
		<tag k="name" v="Pollmyran" />
		<tag k="natural" v="wetland" />
		<tag k="ssr:stedsnr" v="877841" />
	</node>
	<node lat="68.37445000329683" lon="15.240527789787778" id="-21852">
		<tag k="name" v="Bulimyra" />
		<tag k="natural" v="wetland" />
		<tag k="ssr:stedsnr" v="877964" />
	</node>
	<node lat="68.38483055342122" lon="15.72900001030919" id="-21897">
		<tag k="name" v="Mikkjelheimen" />
		<tag k="place" v="locality" />
		<tag k="ssr:stedsnr" v="932587" />
	</node>
	<node lat="68.42718889041477" lon="15.998191673778837" id="-21908">
		<tag k="name" v="Lødingsura" />
		<tag k="natural" v="scree" />
		<tag k="ssr:stedsnr" v="935731" />
	</node>
	<node lat="68.43178333516381" lon="15.499433341257353" id="-21917">
		<tag k="name" v="Elvhaugmyra" />
		<tag k="natural" v="wetland" />
		<tag k="ssr:stedsnr" v="938168" />
	</node>
</osm>
