<?xml version="1.0" encoding="UTF-8"?>
<<<<<<< HEAD
<osm version="0.6" generator="osmapis">
	<node lat="68.3802752767047" lon="15.710911996653193" id="-14400">
		<tag k="fixme" v="consider place=hamlet" />
		<tag k="name" v="Hesten" />
=======
<osm generator="osmapis" version="0.6">
	<node id="-183210" lat="68.3361138906" lon="15.6524027728">
		<tag k="name" v="Nyvoll" />
		<tag k="place" v="farm" />
		<tag k="ssr:stedsnr" v="464741" />
	</node>
	<node id="-184311" lat="68.450277822" lon="16.0132538189">
		<tag k="name" v="Kåringen" />
		<tag k="place" v="farm" />
		<tag k="ssr:stedsnr" v="320205" />
	</node>
	<node id="-184309" lat="68.4479222195" lon="15.948016658">
		<tag k="building" v="commercial" />
		<tag k="name" v="Daltun" />
		<tag k="ssr:stedsnr" v="320197" />
	</node>
	<node id="-183283" lat="68.3595694465" lon="15.4310861085">
		<tag k="name" v="Nordmo" />
		<tag k="place" v="farm" />
		<tag k="ssr:stedsnr" v="388822" />
	</node>
	<node id="-183121" lat="68.3526260066" lon="15.3831415164">
		<tag k="alt_name" v="Naustvik" />
		<tag k="fixme" v="consider place=hamlet" />
		<tag k="name" v="Naustvika" />
		<tag k="place" v="farm" />
		<tag k="ssr:stedsnr" v="442988" />
	</node>
	<node id="-184803" lat="68.3562374938" lon="15.33498637">
		<tag k="fixme" v="consider place=hamlet" />
		<tag k="name" v="Øksnes" />
		<tag k="place" v="farm" />
		<tag k="ssr:stedsnr" v="745993" />
	</node>
	<node id="-184288" lat="68.3650250009" lon="15.3358361087">
		<tag k="name" v="Øines" />
		<tag k="place" v="farm" />
		<tag k="ssr:stedsnr" v="303289" />
	</node>
	<node id="-183263" lat="68.4545038893" lon="15.4803601952">
		<tag k="alt_name" v="Sommarset, yt" />
		<tag k="name" v="Ytre Sommarset" />
		<tag k="place" v="farm" />
		<tag k="ssr:stedsnr" v="502809" />
	</node>
	<node id="-183394" lat="68.3146194413" lon="15.27153056">
		<tag k="name" v="Selsøya" />
		<tag k="place" v="locality" />
		<tag k="ssr:stedsnr" v="684028" />
	</node>
	<node id="-184793" lat="68.3884527798" lon="15.3859833324">
		<tag k="name" v="Berget" />
		<tag k="place" v="farm" />
		<tag k="ssr:stedsnr" v="745851" />
	</node>
	<node id="-183204" lat="68.3515916662" lon="15.3773194486">
		<tag k="name" v="Bergly" />
		<tag k="place" v="farm" />
		<tag k="ssr:stedsnr" v="464435" />
	</node>
	<node id="-183247" lat="68.3671510723" lon="15.7149093677">
		<tag k="alt_name:no" v="Rinbø" />
		<tag k="fixme" v="consider place=hamlet" />
		<tag k="name" v="Rindbø - Rinbiddja" />
		<tag k="name:no" v="Rindbø" />
		<tag k="name:se" v="Rinbiddja" />
		<tag k="place" v="farm" />
		<tag k="ssr:stedsnr" v="502334" />
	</node>
	<node id="-184781" lat="68.4061136008" lon="15.7998176759">
		<tag k="fixme" v="consider place=hamlet" />
		<tag k="name" v="Svensgam - Sveangápma" />
		<tag k="name:no" v="Svensgam" />
		<tag k="name:se" v="Sveangápma" />
		<tag k="place" v="farm" />
		<tag k="ssr:stedsnr" v="745301" />
	</node>
	<node id="-184779" lat="68.4526611135" lon="16.0250055594">
		<tag k="alt_name" v="Slotstrand" />
		<tag k="name" v="Slåttstrand" />
		<tag k="place" v="farm" />
		<tag k="ssr:stedsnr" v="745246" />
	</node>
	<node id="-182882" lat="68.3373027782" lon="15.6804972179">
		<tag k="name" v="Einan" />
		<tag k="place" v="farm" />
		<tag k="ssr:stedsnr" v="77329" />
	</node>
	<node id="-184777" lat="68.4482722212" lon="15.8956305467">
		<tag k="name" v="Nymoen" />
		<tag k="place" v="farm" />
		<tag k="ssr:stedsnr" v="745237" />
	</node>
	<node id="-183371" lat="68.4678472234" lon="16.0556027701">
		<tag k="name" v="Breidablikk" />
		<tag k="place" v="farm" />
		<tag k="ssr:stedsnr" v="502148" />
	</node>
	<node id="-184041" lat="68.4081222236" lon="15.9893166577">
		<tag k="name" v="Nymoen" />
		<tag k="place" v="quarter" />
		<tag k="ssr:stedsnr" v="82637" />
	</node>
	<node id="-184763" lat="68.375477774" lon="15.5028916679">
		<tag k="name" v="Heimerskjåen" />
		<tag k="place" v="locality" />
		<tag k="ssr:stedsnr" v="647371" />
	</node>
	<node id="-184246" lat="68.3348679155" lon="15.5266212656">
		<tag k="name" v="Hopaslåtta" />
		<tag k="place" v="locality" />
		<tag k="ssr:stedsnr" v="204602" />
	</node>
	<node id="-184755" lat="68.3549527779" lon="15.434052783">
		<tag k="name" v="Solstrand" />
		<tag k="place" v="farm" />
		<tag k="ssr:stedsnr" v="643285" />
	</node>
	<node id="-183027" lat="68.3145666643" lon="15.6506444338">
		<tag k="name" v="Viklund" />
		<tag k="place" v="farm" />
		<tag k="ssr:stedsnr" v="282238" />
	</node>
	<node id="-183216" lat="68.3160166639" lon="15.6214138756">
		<tag k="name" v="Sjøvoll" />
		<tag k="place" v="farm" />
		<tag k="ssr:stedsnr" v="320367" />
	</node>
	<node id="-183215" lat="68.3086861114" lon="15.6433500106">
		<tag k="alt_name" v="Offersøy" />
		<tag k="name" v="Offersøya" />
>>>>>>> e1d4bc35ff8a6074a6f2e91616a996b547c36f15
		<tag k="place" v="farm" />
		<tag k="ssr:stedsnr" v="16261" />
	</node>
<<<<<<< HEAD
	<node lat="68.41404166883008" lon="15.83405832444683" id="-14408">
		<tag k="fixme" v="consider place=hamlet" />
		<tag k="loc_name:se" v="Erstá;Erstták" />
		<tag k="name" v="Erikstad" />
		<tag k="name:no" v="Erikstad" />
		<tag k="place" v="village" />
		<tag k="ssr:stedsnr" v="17322" />
	</node>
	<node lat="68.4013722190332" lon="15.739116670378802" id="-14440">
		<tag k="name" v="Nysneisa" />
		<tag k="place" v="farm" />
		<tag k="ssr:stedsnr" v="39574" />
	</node>
	<node lat="68.33505452992804" lon="15.667353206505956" id="-14441">
=======
	<node id="-183724" lat="68.383608334" lon="15.8790916636">
		<tag k="name" v="Moen" />
		<tag k="place" v="isolated_dwelling" />
		<tag k="ssr:stedsnr" v="927315" />
	</node>
	<node id="-184234" lat="68.3554583324" lon="15.4897666556">
		<tag k="name" v="Hustadstranda" />
		<tag k="place" v="hamlet" />
		<tag k="ssr:stedsnr" v="199990" />
	</node>
	<node id="-184233" lat="68.34695388" lon="15.460866594">
>>>>>>> e1d4bc35ff8a6074a6f2e91616a996b547c36f15
		<tag k="fixme" v="consider place=hamlet" />
		<tag k="name" v="Ytterstad - Ihtterstáddi" />
		<tag k="name:no" v="Ytterstad" />
		<tag k="name:se" v="Ihtterstáddi" />
		<tag k="place" v="farm" />
		<tag k="ssr:stedsnr" v="39657" />
	</node>
<<<<<<< HEAD
	<node lat="68.3914222259434" lon="15.870341671189628" id="-14444">
		<tag k="name" v="Skjåvik" />
=======
	<node id="-183720" lat="68.4037250025" lon="15.8793611009">
		<tag k="alt_name" v="Enbakken;Enebakken" />
		<tag k="name" v="Einebakken" />
>>>>>>> e1d4bc35ff8a6074a6f2e91616a996b547c36f15
		<tag k="place" v="farm" />
		<tag k="ssr:stedsnr" v="40572" />
	</node>
<<<<<<< HEAD
	<node lat="68.35799126844822" lon="15.391695470275998" id="-14455">
=======
	<node id="-183206" lat="68.3752769601" lon="15.7552371797">
		<tag k="alt_name" v="Rinøy" />
>>>>>>> e1d4bc35ff8a6074a6f2e91616a996b547c36f15
		<tag k="fixme" v="consider place=hamlet" />
		<tag k="name" v="Åndervåg" />
		<tag k="place" v="farm" />
<<<<<<< HEAD
		<tag k="ssr:stedsnr" v="77898" />
	</node>
	<node lat="68.47276667087192" lon="16.074588887204843" id="-14457">
		<tag k="name" v="Berg" />
=======
		<tag k="ssr:stedsnr" v="464689" />
	</node>
	<node id="-183716" lat="68.4405944466" lon="16.0077027841">
		<tag k="name" v="Lavollen" />
		<tag k="place" v="isolated_dwelling" />
		<tag k="ssr:stedsnr" v="927229" />
	</node>
	<node id="-183202" lat="68.3281222186" lon="15.6476110976">
		<tag k="name" v="Fenes" />
>>>>>>> e1d4bc35ff8a6074a6f2e91616a996b547c36f15
		<tag k="place" v="farm" />
		<tag k="ssr:stedsnr" v="78160" />
	</node>
<<<<<<< HEAD
	<node lat="68.43671944930516" lon="16.004702769880527" id="-14460">
		<tag k="name" v="Fjellheim" />
=======
	<node id="-184225" lat="68.4130527786" lon="15.3539611142">
		<tag k="name" v="Solum" />
>>>>>>> e1d4bc35ff8a6074a6f2e91616a996b547c36f15
		<tag k="place" v="farm" />
		<tag k="ssr:stedsnr" v="78249" />
	</node>
<<<<<<< HEAD
	<node lat="68.32015277424448" lon="15.62668333638444" id="-14471">
		<tag k="name" v="Vollen" />
=======
	<node id="-183200" lat="68.3562444413" lon="15.389980562">
		<tag k="name" v="Fredvang" />
>>>>>>> e1d4bc35ff8a6074a6f2e91616a996b547c36f15
		<tag k="place" v="farm" />
		<tag k="ssr:stedsnr" v="82721" />
	</node>
<<<<<<< HEAD
	<node lat="68.33170555192967" lon="15.537797221069852" id="-14475">
		<tag k="name" v="Ivergamman" />
		<tag k="place" v="locality" />
		<tag k="ssr:stedsnr" v="82618" />
	</node>
	<node lat="68.40812222358717" lon="15.989316657670077" id="-14478">
		<tag k="name" v="Nymoen" />
		<tag k="place" v="quarter" />
		<tag k="ssr:stedsnr" v="82637" />
	</node>
	<node lat="68.41963055944667" lon="15.98751944028443" id="-14479">
		<tag k="name" v="Breivika" />
		<tag k="place" v="quarter" />
		<tag k="ssr:stedsnr" v="82640" />
	</node>
	<node lat="68.4585222226791" lon="15.898750009861168" id="-14481">
		<tag k="name" v="Lyngmo" />
		<tag k="place" v="farm" />
		<tag k="ssr:stedsnr" v="83685" />
	</node>
	<node lat="68.46979166857223" lon="16.073086110575463" id="-14482">
		<tag k="name" v="Skoglund" />
=======
	<node id="-183523" lat="68.4081027812" lon="15.7387499891">
		<tag k="name" v="Gamvika" />
		<tag k="place" v="farm" />
		<tag k="ssr:stedsnr" v="562249" />
	</node>
	<node id="-184222" lat="68.4026555521" lon="15.4179472132">
		<tag k="name" v="Forneset" />
		<tag k="place" v="farm" />
		<tag k="ssr:stedsnr" v="199844" />
	</node>
	<node id="-183197" lat="68.3719555578" lon="15.2367722144">
		<tag k="name" v="Bakkan" />
		<tag k="place" v="farm" />
		<tag k="ssr:stedsnr" v="270972" />
	</node>
	<node id="-183023" lat="68.3204499979" lon="15.6483888888">
		<tag k="name" v="Nordøy" />
		<tag k="place" v="farm" />
		<tag k="ssr:stedsnr" v="160217" />
	</node>
	<node id="-184215" lat="68.4270266366" lon="15.4297322948">
		<tag k="fixme" v="consider place=hamlet" />
		<tag k="name" v="Bjerknes" />
		<tag k="place" v="farm" />
		<tag k="ssr:stedsnr" v="199773" />
	</node>
	<node id="-184211" lat="68.3663888926" lon="15.7148888982">
		<tag k="name" v="Nygård" />
		<tag k="place" v="farm" />
		<tag k="ssr:stedsnr" v="199342" />
	</node>
	<node id="-184207" lat="68.4009833328" lon="15.8787666753">
		<tag k="name" v="Neshamn" />
>>>>>>> e1d4bc35ff8a6074a6f2e91616a996b547c36f15
		<tag k="place" v="farm" />
		<tag k="ssr:stedsnr" v="85708" />
	</node>
<<<<<<< HEAD
	<node lat="68.35859166735541" lon="15.441119446343832" id="-14498">
		<tag k="name" v="Nordgård" />
=======
	<node id="-182850" lat="68.3078222195" lon="15.6317611097">
		<tag k="name" v="Hanskjellvik" />
		<tag k="place" v="farm" />
		<tag k="ssr:stedsnr" v="223425" />
	</node>
	<node id="-183532" lat="68.3117777781" lon="15.6486999881">
		<tag k="name" v="Langstrand" />
		<tag k="place" v="farm" />
		<tag k="ssr:stedsnr" v="706261" />
	</node>
	<node id="-183683" lat="68.391883332" lon="15.3955555641">
		<tag k="name" v="Myrvang" />
>>>>>>> e1d4bc35ff8a6074a6f2e91616a996b547c36f15
		<tag k="place" v="farm" />
		<tag k="ssr:stedsnr" v="97308" />
	</node>
<<<<<<< HEAD
	<node lat="68.47147024015491" lon="16.06800350217052" id="-14504">
		<tag k="fixme" v="consider place=hamlet" />
		<tag k="name" v="Strand" />
		<tag k="old_name" v="Strand-nedre" />
=======
	<node id="-183682" lat="68.3898250006" lon="15.3895583312">
		<tag k="name" v="Skogstrand" />
>>>>>>> e1d4bc35ff8a6074a6f2e91616a996b547c36f15
		<tag k="place" v="farm" />
		<tag k="ssr:stedsnr" v="137128" />
	</node>
<<<<<<< HEAD
	<node lat="68.3669611102187" lon="15.401783331906229" id="-14518">
		<tag k="name" v="Skogvang" />
		<tag k="place" v="farm" />
		<tag k="ssr:stedsnr" v="138902" />
	</node>
	<node lat="68.39770833719231" lon="15.91899722990018" id="-14545">
=======
	<node id="-184191" lat="68.3977083372" lon="15.9189972299">
>>>>>>> e1d4bc35ff8a6074a6f2e91616a996b547c36f15
		<tag k="name" v="Øygård Vestre" />
		<tag k="place" v="farm" />
		<tag k="ssr:stedsnr" v="162625" />
	</node>
<<<<<<< HEAD
	<node lat="68.35066040977726" lon="15.363783315378678" id="-14551">
		<tag k="fixme" v="consider place=hamlet" />
		<tag k="name" v="Haug" />
		<tag k="place" v="farm" />
		<tag k="ssr:stedsnr" v="259991" />
	</node>
	<node lat="68.4608972207934" lon="15.504300003361333" id="-14561">
		<tag k="alt_name" v="Sommarset, in" />
		<tag k="name" v="Indre Sommarset" />
=======
	<node id="-184701" lat="68.3494333366" lon="15.4713500009">
		<tag k="name" v="Engan" />
		<tag k="place" v="farm" />
		<tag k="ssr:stedsnr" v="623999" />
	</node>
	<node id="-184187" lat="68.368372223" lon="15.721247228">
		<tag k="name" v="Stranden" />
		<tag k="place" v="farm" />
		<tag k="ssr:stedsnr" v="160651" />
	</node>
	<node id="-184696" lat="68.340042854" lon="15.5334764796">
		<tag k="name" v="Høyvågen" />
>>>>>>> e1d4bc35ff8a6074a6f2e91616a996b547c36f15
		<tag k="place" v="farm" />
		<tag k="ssr:stedsnr" v="260739" />
	</node>
<<<<<<< HEAD
	<node lat="68.33486791553706" lon="15.526621265577866" id="-14602">
		<tag k="name" v="Hopaslåtta" />
		<tag k="place" v="locality" />
		<tag k="ssr:stedsnr" v="204602" />
	</node>
	<node lat="68.41607499688061" lon="15.756672209979602" id="-14644">
		<tag k="name" v="Skovro" />
=======
	<node id="-184695" lat="68.338441668" lon="15.5548027769">
		<tag k="name" v="Høgset" />
		<tag k="place" v="isolated_dwelling" />
		<tag k="ssr:stedsnr" v="623945" />
	</node>
	<node id="-183267" lat="68.3983416627" lon="15.410686114">
		<tag k="name" v="Myrtun" />
		<tag k="place" v="isolated_dwelling" />
		<tag k="ssr:stedsnr" v="502848" />
	</node>
	<node id="-184181" lat="68.4625611098" lon="15.8972444391">
		<tag k="name" v="Harkeneset" />
>>>>>>> e1d4bc35ff8a6074a6f2e91616a996b547c36f15
		<tag k="place" v="farm" />
		<tag k="ssr:stedsnr" v="221603" />
	</node>
<<<<<<< HEAD
	<node lat="68.3078222195131" lon="15.63176110974937" id="-14650">
		<tag k="name" v="Hanskjellvik" />
=======
	<node id="-182844" lat="68.4160749969" lon="15.75667221">
		<tag k="name" v="Skovro" />
>>>>>>> e1d4bc35ff8a6074a6f2e91616a996b547c36f15
		<tag k="place" v="farm" />
		<tag k="ssr:stedsnr" v="221603" />
	</node>
<<<<<<< HEAD
	<node lat="68.40867222281764" lon="15.982252782067043" id="-14705">
		<tag k="name" v="Dalen" />
		<tag k="place" v="quarter" />
		<tag k="ssr:stedsnr" v="264638" />
	</node>
	<node lat="68.37195555780649" lon="15.236772214407969" id="-14722">
		<tag k="name" v="Bakkan" />
		<tag k="place" v="farm" />
		<tag k="ssr:stedsnr" v="270972" />
	</node>
	<node lat="68.35624444130384" lon="15.389980562018678" id="-14731">
		<tag k="name" v="Fredvang" />
		<tag k="place" v="farm" />
		<tag k="ssr:stedsnr" v="461321" />
	</node>
	<node lat="68.32812221861172" lon="15.64761109756646" id="-14733">
		<tag k="name" v="Fenes" />
=======
	<node id="-184678" lat="68.3216428961" lon="15.6207019631">
		<tag k="fixme" v="consider place=hamlet" />
		<tag k="name" v="Øya" />
		<tag k="place" v="farm" />
		<tag k="ssr:stedsnr" v="623373" />
	</node>
	<node id="-185062" lat="68.4661847895" lon="15.8884858081">
		<tag k="name" v="Kanstad - Gánas" />
		<tag k="name:no" v="Kanstad" />
		<tag k="name:se" v="Gánas" />
		<tag k="place" v="hamlet" />
		<tag k="ssr:stedsnr" v="989409" />
	</node>
	<node id="-183695" lat="68.3739166639" lon="15.7534194477">
		<tag k="name" v="Toften" />
		<tag k="place" v="farm" />
		<tag k="ssr:stedsnr" v="767662" />
	</node>
	<node id="-183634" lat="68.4623944406" lon="16.0367027824">
		<tag k="name" v="Solbakken" />
>>>>>>> e1d4bc35ff8a6074a6f2e91616a996b547c36f15
		<tag k="place" v="farm" />
		<tag k="ssr:stedsnr" v="461500" />
	</node>
<<<<<<< HEAD
	<node lat="68.41204444821179" lon="15.992552780530758" id="-14734">
		<tag k="name" v="Lådik" />
		<tag k="place" v="quarter" />
		<tag k="ssr:stedsnr" v="287728" />
	</node>
	<node lat="68.35159166619658" lon="15.377319448562234" id="-14738">
		<tag k="name" v="Bergly" />
=======
	<node id="-184145" lat="68.4626805568" lon="15.8992805579">
		<tag k="name" v="Sylfestplassen" />
		<tag k="place" v="farm" />
		<tag k="ssr:stedsnr" v="143666" />
	</node>
	<node id="-184144" lat="68.4576833353" lon="15.8985500006">
		<tag k="name" v="Strandmo" />
>>>>>>> e1d4bc35ff8a6074a6f2e91616a996b547c36f15
		<tag k="place" v="farm" />
		<tag k="ssr:stedsnr" v="464435" />
	</node>
<<<<<<< HEAD
	<node lat="68.3752769600586" lon="15.755237179656229" id="-14740">
		<tag k="alt_name" v="Rinøy" />
		<tag k="fixme" v="consider place=hamlet" />
		<tag k="name" v="Rinøya" />
		<tag k="place" v="farm" />
		<tag k="ssr:stedsnr" v="464689" />
	</node>
	<node lat="68.33813333166987" lon="15.667972221175805" id="-14741">
		<tag k="alt_name" v="Langseth" />
		<tag k="name" v="Langset" />
		<tag k="place" v="farm" />
		<tag k="ssr:stedsnr" v="464736" />
	</node>
	<node lat="68.33611389055511" lon="15.652402772775078" id="-14742">
		<tag k="name" v="Nyvoll" />
		<tag k="place" v="farm" />
		<tag k="ssr:stedsnr" v="464741" />
	</node>
	<node lat="68.32273610731554" lon="15.598986102977001" id="-14805">
		<tag k="name" v="Grønvoll" />
=======
	<node id="-184140" lat="68.4126416628" lon="15.9918999939">
		<tag k="name" v="Skaret" />
		<tag k="place" v="quarter" />
		<tag k="ssr:stedsnr" v="142668" />
	</node>
	<node id="-184139" lat="68.4079972226" lon="15.9953361164">
		<tag k="name" v="Tippen" />
		<tag k="place" v="quarter" />
		<tag k="ssr:stedsnr" v="142665" />
	</node>
	<node id="-184138" lat="68.3632979997" lon="15.5100966955">
		<tag k="name" v="Kyllingstad" />
		<tag k="place" v="locality" />
		<tag k="ssr:stedsnr" v="142649" />
	</node>
	<node id="-183111" lat="68.4243916666" lon="15.482216674">
		<tag k="name" v="Nordmanndalen" />
>>>>>>> e1d4bc35ff8a6074a6f2e91616a996b547c36f15
		<tag k="place" v="farm" />
		<tag k="ssr:stedsnr" v="380008" />
	</node>
<<<<<<< HEAD
	<node lat="68.3870723662392" lon="15.873144354113865" id="-14816">
		<tag k="fixme" v="consider place=hamlet" />
		<tag k="name" v="Nes" />
		<tag k="place" v="farm" />
		<tag k="ssr:stedsnr" v="381310" />
	</node>
	<node lat="68.3859388868721" lon="15.744380546627045" id="-14817">
		<tag k="name" v="Dalheim" />
		<tag k="place" v="isolated_dwelling" />
		<tag k="ssr:stedsnr" v="381313" />
	</node>
	<node lat="68.44693610766019" lon="15.895430552145449" id="-14857">
		<tag k="name" v="Straumneset" />
		<tag k="place" v="farm" />
		<tag k="ssr:stedsnr" v="441189" />
	</node>
	<node lat="68.33799999865553" lon="15.658499993240147" id="-14859">
=======
	<node id="-184125" lat="68.3466250924" lon="15.5066748875">
>>>>>>> e1d4bc35ff8a6074a6f2e91616a996b547c36f15
		<tag k="fixme" v="consider place=hamlet" />
		<tag k="loc_name:se" v="Itterstáddi;Ihtterstáddi" />
		<tag k="name" v="Ytterstad" />
		<tag k="name:no" v="Ytterstad" />
		<tag k="place" v="village" />
		<tag k="ssr:stedsnr" v="441313" />
	</node>
	<node lat="68.33338583376127" lon="15.582644625488555" id="-14864">
		<tag k="alt_name" v="Heggstad" />
		<tag k="fixme" v="consider place=hamlet" />
		<tag k="name" v="Hegstad" />
		<tag k="place" v="farm" />
		<tag k="ssr:stedsnr" v="441948" />
	</node>
<<<<<<< HEAD
	<node lat="68.33524721822332" lon="15.555088894116807" id="-14865">
		<tag k="name" v="Solvang" />
=======
	<node id="-184121" lat="68.3669611102" lon="15.4017833319">
		<tag k="name" v="Skogvang" />
>>>>>>> e1d4bc35ff8a6074a6f2e91616a996b547c36f15
		<tag k="place" v="farm" />
		<tag k="ssr:stedsnr" v="441949" />
	</node>
<<<<<<< HEAD
	<node lat="68.46362222228895" lon="15.88246945122598" id="-14871">
=======
	<node id="-183095" lat="68.4636222223" lon="15.8824694512">
>>>>>>> e1d4bc35ff8a6074a6f2e91616a996b547c36f15
		<tag k="alt_name" v="Kanstad, vestre;Kanstad vestre" />
		<tag k="name" v="Vestre Kanstad" />
		<tag k="place" v="hamlet" />
		<tag k="ssr:stedsnr" v="442196" />
	</node>
<<<<<<< HEAD
	<node lat="68.42439166658373" lon="15.48221667399769" id="-14876">
		<tag k="name" v="Nordmanndalen" />
=======
	<node id="-184630" lat="68.3834333312" lon="15.868261122">
		<tag k="name" v="Langstrand" />
>>>>>>> e1d4bc35ff8a6074a6f2e91616a996b547c36f15
		<tag k="place" v="farm" />
		<tag k="ssr:stedsnr" v="442793" />
	</node>
<<<<<<< HEAD
	<node lat="68.3526260066495" lon="15.38314151637441" id="-14879">
		<tag k="alt_name" v="Naustvik" />
		<tag k="fixme" v="consider place=hamlet" />
		<tag k="name" v="Naustvika" />
		<tag k="place" v="farm" />
		<tag k="ssr:stedsnr" v="442988" />
	</node>
	<node lat="68.43948889046008" lon="16.004338897909385" id="-14886">
		<tag k="name" v="Nyheim" />
		<tag k="place" v="farm" />
		<tag k="ssr:stedsnr" v="450766" />
	</node>
	<node lat="68.33723333122268" lon="15.675591671781762" id="-14920">
		<tag k="name" v="Sandvoll" />
=======
	<node id="-183075" lat="68.3352472182" lon="15.5550888941">
		<tag k="name" v="Solvang" />
>>>>>>> e1d4bc35ff8a6074a6f2e91616a996b547c36f15
		<tag k="place" v="farm" />
		<tag k="ssr:stedsnr" v="502296" />
	</node>
<<<<<<< HEAD
	<node lat="68.36715107230268" lon="15.71490936772722" id="-14925">
		<tag k="alt_name:no" v="Rinbø" />
=======
	<node id="-183074" lat="68.3333858338" lon="15.5826446255">
		<tag k="alt_name" v="Heggstad" />
>>>>>>> e1d4bc35ff8a6074a6f2e91616a996b547c36f15
		<tag k="fixme" v="consider place=hamlet" />
		<tag k="name" v="Rindbø - Rinbiddja" />
		<tag k="name:no" v="Rindbø" />
		<tag k="name:se" v="Rinbiddja" />
		<tag k="place" v="farm" />
		<tag k="ssr:stedsnr" v="502334" />
	</node>
<<<<<<< HEAD
	<node lat="68.4545038893454" lon="15.480360195163046" id="-14926">
		<tag k="alt_name" v="Sommarset, yt" />
		<tag k="name" v="Ytre Sommarset" />
=======
	<node id="-184096" lat="68.4066777789" lon="15.8828361122">
		<tag k="alt_name" v="Neshamn, in;Indre Neshamn" />
		<tag k="name" v="Inner Neshamn" />
>>>>>>> e1d4bc35ff8a6074a6f2e91616a996b547c36f15
		<tag k="place" v="farm" />
		<tag k="ssr:stedsnr" v="502809" />
	</node>
<<<<<<< HEAD
	<node lat="68.40484721924759" lon="15.985752782366546" id="-14935">
		<tag k="name" v="Lødingssjøen" />
		<tag k="place" v="quarter" />
		<tag k="ssr:stedsnr" v="507667" />
	</node>
	<node lat="68.42095790775535" lon="15.39215400198373" id="-14950">
		<tag k="alt_name" v="Limskjelvik" />
		<tag k="fixme" v="consider place=hamlet" />
		<tag k="name" v="Limskjelvika" />
=======
	<node id="-184095" lat="68.3993305531" lon="15.7406083435">
		<tag k="name" v="Heimstad" />
>>>>>>> e1d4bc35ff8a6074a6f2e91616a996b547c36f15
		<tag k="place" v="farm" />
		<tag k="ssr:stedsnr" v="513291" />
	</node>
<<<<<<< HEAD
	<node lat="68.31461944129133" lon="15.27153055998715" id="-14960">
		<tag k="name" v="Selsøya" />
		<tag k="place" v="locality" />
		<tag k="ssr:stedsnr" v="684028" />
	</node>
	<node lat="68.46000555181216" lon="16.02807499556212" id="-14965">
		<tag k="name" v="Fredheim" />
		<tag k="place" v="farm" />
		<tag k="ssr:stedsnr" v="684193" />
	</node>
	<node lat="68.40262758599764" lon="15.733341150377376" id="-14967">
		<tag k="fixme" v="consider place=hamlet" />
		<tag k="name" v="Sneisa - Snáisá" />
		<tag k="name:no" v="Sneisa" />
		<tag k="name:se" v="Snáisá" />
=======
	<node id="-184091" lat="68.3211999975" lon="15.5812361141">
		<tag k="name" v="Vestøy" />
		<tag k="place" v="farm" />
		<tag k="ssr:stedsnr" v="138031" />
	</node>
	<node id="-184090" lat="68.3310583372" lon="15.6135722309">
		<tag k="name" v="Høgtun" />
>>>>>>> e1d4bc35ff8a6074a6f2e91616a996b547c36f15
		<tag k="place" v="farm" />
		<tag k="ssr:stedsnr" v="684276" />
	</node>
<<<<<<< HEAD
	<node lat="68.37187777671117" lon="15.239366657500598" id="-14984">
=======
	<node id="-183065" lat="68.3379999987" lon="15.6584999932">
>>>>>>> e1d4bc35ff8a6074a6f2e91616a996b547c36f15
		<tag k="fixme" v="consider place=hamlet" />
		<tag k="name" v="Kvannkjosen" />
		<tag k="place" v="village" />
		<tag k="ssr:stedsnr" v="684942" />
	</node>
<<<<<<< HEAD
	<node lat="68.40993055581303" lon="15.362677787230913" id="-14985">
		<tag k="name" v="Skjelvika" />
=======
	<node id="-183061" lat="68.4469361077" lon="15.8954305521">
		<tag k="name" v="Straumneset" />
>>>>>>> e1d4bc35ff8a6074a6f2e91616a996b547c36f15
		<tag k="place" v="farm" />
		<tag k="ssr:stedsnr" v="684862" />
	</node>
<<<<<<< HEAD
	<node lat="68.36969721921639" lon="15.242308328853927" id="-15008">
		<tag k="name" v="Gammelgården" />
=======
	<node id="-183568" lat="68.4728933951" lon="16.0700806859">
		<tag k="name" v="Strand" />
		<tag k="old_name" v="Strand-øvre" />
>>>>>>> e1d4bc35ff8a6074a6f2e91616a996b547c36f15
		<tag k="place" v="farm" />
		<tag k="ssr:stedsnr" v="695632" />
	</node>
<<<<<<< HEAD
	<node lat="68.4623944406026" lon="16.03670278243087" id="-15013">
		<tag k="name" v="Solbakken" />
=======
	<node id="-183565" lat="68.3618666662" lon="15.7136277875">
		<tag k="name" v="Vikly" />
>>>>>>> e1d4bc35ff8a6074a6f2e91616a996b547c36f15
		<tag k="place" v="farm" />
		<tag k="ssr:stedsnr" v="692718" />
	</node>
<<<<<<< HEAD
	<node lat="68.35963333061174" lon="15.424133336861534" id="-15016">
		<tag k="name" v="Bråten" />
		<tag k="place" v="farm" />
		<tag k="ssr:stedsnr" v="692838" />
	</node>
	<node lat="68.35630277571555" lon="15.420533328185742" id="-15017">
		<tag k="name" v="Daleng" />
		<tag k="place" v="farm" />
		<tag k="ssr:stedsnr" v="692839" />
	</node>
	<node lat="68.34792221913695" lon="15.508280563825492" id="-15021">
=======
	<node id="-183047" lat="68.5024555553" lon="15.8653027829">
		<tag k="fixme" v="multiple name tags, choose one and add the other to alt_name" />
		<tag k="name" v="Kanstadsætra;Sætra" />
		<tag k="place" v="isolated_dwelling" />
		<tag k="ssr:stedsnr" v="200765" />
	</node>
	<node id="-184582" lat="68.3479222191" lon="15.5082805638">
>>>>>>> e1d4bc35ff8a6074a6f2e91616a996b547c36f15
		<tag k="amenity" v="school" />
		<tag k="name" v="Vestbygd skole" />
		<tag k="ssr:stedsnr" v="567620" />
	</node>
<<<<<<< HEAD
	<node lat="68.37021666316592" lon="15.245041662385507" id="-15036">
		<tag k="name" v="Nergården" />
		<tag k="place" v="farm" />
		<tag k="ssr:stedsnr" v="573599" />
	</node>
	<node lat="68.34004285400492" lon="15.533476479602204" id="-15086">
		<tag k="name" v="Høyvågen" />
		<tag k="place" v="farm" />
		<tag k="ssr:stedsnr" v="623960" />
	</node>
	<node lat="68.47289339512703" lon="16.0700806859061" id="-15093">
		<tag k="name" v="Strand" />
		<tag k="old_name" v="Strand-øvre" />
		<tag k="place" v="farm" />
		<tag k="ssr:stedsnr" v="630715" />
	</node>
	<node lat="68.35495277788417" lon="15.434052783002198" id="-15122">
		<tag k="name" v="Solstrand" />
		<tag k="place" v="farm" />
		<tag k="ssr:stedsnr" v="643285" />
	</node>
	<node lat="68.31158584312095" lon="15.648483331870374" id="-15123">
		<tag k="name" v="Langstrand" />
		<tag k="place" v="farm" />
		<tag k="ssr:stedsnr" v="706261" />
	</node>
	<node lat="68.37285000261771" lon="15.688516670987704" id="-15133">
=======
	<node id="-183039" lat="68.4120444482" lon="15.9925527805">
		<tag k="name" v="Lådik" />
		<tag k="place" v="quarter" />
		<tag k="ssr:stedsnr" v="287728" />
	</node>
	<node id="-183509" lat="68.3286999965" lon="15.6041666658">
		<tag k="name" v="Øyjorda" />
		<tag k="place" v="farm" />
		<tag k="ssr:stedsnr" v="562011" />
	</node>
	<node id="-184572" lat="68.4656444489" lon="15.5389555519">
		<tag k="name" v="Brynnelslåttene" />
		<tag k="place" v="locality" />
		<tag k="ssr:stedsnr" v="563776" />
	</node>
	<node id="-183545" lat="68.3728500026" lon="15.688516671">
>>>>>>> e1d4bc35ff8a6074a6f2e91616a996b547c36f15
		<tag k="name" v="Sætran" />
		<tag k="place" v="locality" />
		<tag k="ssr:stedsnr" v="706689" />
	</node>
<<<<<<< HEAD
	<node lat="68.42361111340851" lon="15.423327766773003" id="-15162">
		<tag k="name" v="Bjerkneshamn" />
		<tag k="place" v="isolated_dwelling" />
		<tag k="ssr:stedsnr" v="684747" />
	</node>
	<node lat="68.37620278198688" lon="15.755094449081724" id="-15170">
=======
	<node id="-183031" lat="68.3371722245" lon="15.6589861005">
		<tag k="name" v="Oppheim" />
		<tag k="place" v="farm" />
		<tag k="ssr:stedsnr" v="282703" />
	</node>
	<node id="-185076" lat="68.5157005456" lon="16.1070404972">
		<tag k="alt_name" v="Fiskøy" />
		<tag k="fixme" v="consider place=hamlet" />
		<tag k="name" v="Fiskøya" />
		<tag k="place" v="farm" />
		<tag k="ssr:stedsnr" v="1076426" />
	</node>
	<node id="-185075" lat="68.4122928194" lon="15.9732341403">
		<tag k="fixme" v="consider place=hamlet" />
		<tag k="name" v="Lødingen" />
		<tag k="place" v="farm" />
		<tag k="ssr:stedsnr" v="1076423" />
	</node>
	<node id="-185074" lat="68.4559884032" lon="15.488920607">
		<tag k="fixme" v="consider place=hamlet" />
		<tag k="name" v="Sommarset" />
		<tag k="place" v="farm" />
		<tag k="ssr:stedsnr" v="1076398" />
	</node>
	<node id="-185073" lat="68.4006765507" lon="15.3472199774">
>>>>>>> e1d4bc35ff8a6074a6f2e91616a996b547c36f15
		<tag k="fixme" v="consider place=hamlet" />
		<tag k="name" v="Rinøya" />
		<tag k="place" v="village" />
		<tag k="ssr:stedsnr" v="689585" />
	</node>
<<<<<<< HEAD
	<node lat="68.33355000319366" lon="15.531227788711067" id="-15171">
		<tag k="name" v="Borgarvika" />
=======
	<node id="-185072" lat="68.3714114689" lon="15.2382834646">
		<tag k="fixme" v="consider place=hamlet" />
		<tag k="name" v="Kvannkjosen" />
>>>>>>> e1d4bc35ff8a6074a6f2e91616a996b547c36f15
		<tag k="place" v="farm" />
		<tag k="ssr:stedsnr" v="689595" />
	</node>
<<<<<<< HEAD
	<node lat="68.3443083340427" lon="15.51396943898336" id="-15172">
		<tag k="name" v="Dalen" />
=======
	<node id="-184047" lat="68.4585222227" lon="15.8987500099">
		<tag k="name" v="Lyngmo" />
>>>>>>> e1d4bc35ff8a6074a6f2e91616a996b547c36f15
		<tag k="place" v="farm" />
		<tag k="ssr:stedsnr" v="689596" />
	</node>
<<<<<<< HEAD
	<node lat="68.35012242387864" lon="15.430961905632714" id="-15200">
=======
	<node id="-183534" lat="68.3501224239" lon="15.4309619056">
>>>>>>> e1d4bc35ff8a6074a6f2e91616a996b547c36f15
		<tag k="alt_name" v="Annfinnslett" />
		<tag k="fixme" v="consider place=hamlet" />
		<tag k="name" v="Annfinnsletta" />
		<tag k="place" v="farm" />
		<tag k="ssr:stedsnr" v="706374" />
	</node>
<<<<<<< HEAD
	<node lat="68.4548361120258" lon="15.872561106249226" id="-15264">
		<tag k="name" v="Lømo" />
=======
	<node id="-185068" lat="68.4952079574" lon="16.09406057">
		<tag k="name" v="Djupfest" />
>>>>>>> e1d4bc35ff8a6074a6f2e91616a996b547c36f15
		<tag k="place" v="farm" />
		<tag k="ssr:stedsnr" v="805152" />
	</node>
<<<<<<< HEAD
	<node lat="68.33067221840177" lon="15.617483328273316" id="-15268">
		<tag k="name" v="Fjellheim" />
		<tag k="place" v="farm" />
		<tag k="ssr:stedsnr" v="810747" />
	</node>
	<node lat="68.32919444580251" lon="15.594897222907253" id="-15269">
		<tag k="name" v="Solheim" />
=======
	<node id="-185042" lat="68.3463222245" lon="15.3543555622">
		<tag k="alt_name" v="Kålsvik" />
		<tag k="name" v="Kolsvik" />
		<tag k="place" v="isolated_dwelling" />
		<tag k="ssr:stedsnr" v="867968" />
	</node>
	<node id="-184042" lat="68.4196305594" lon="15.9875194403">
		<tag k="name" v="Breivika" />
		<tag k="place" v="quarter" />
		<tag k="ssr:stedsnr" v="82640" />
	</node>
	<node id="-184553" lat="68.4627444466" lon="16.0397416621">
		<tag k="alt_name" v="Nybrot" />
		<tag k="name" v="Nybrott" />
>>>>>>> e1d4bc35ff8a6074a6f2e91616a996b547c36f15
		<tag k="place" v="farm" />
		<tag k="ssr:stedsnr" v="810749" />
	</node>
<<<<<<< HEAD
	<node lat="68.38360833396725" lon="15.879091663598894" id="-15304">
		<tag k="name" v="Moen" />
		<tag k="place" v="isolated_dwelling" />
		<tag k="ssr:stedsnr" v="927315" />
	</node>
	<node lat="68.40372500250305" lon="15.879361100873805" id="-15310">
		<tag k="alt_name" v="Enbakken;Enebakken" />
		<tag k="name" v="Einebakken" />
=======
	<node id="-185064" lat="68.3360714243" lon="15.6660471912">
		<tag k="name" v="Ytterstad" />
>>>>>>> e1d4bc35ff8a6074a6f2e91616a996b547c36f15
		<tag k="place" v="farm" />
		<tag k="ssr:stedsnr" v="927286" />
	</node>
<<<<<<< HEAD
	<node lat="68.3732638908933" lon="15.414191665317235" id="-15318">
		<tag k="name" v="Fjellmo" />
=======
	<node id="-185063" lat="68.3348397363" lon="15.6649416527">
		<tag k="name" v="Ytterstad" />
>>>>>>> e1d4bc35ff8a6074a6f2e91616a996b547c36f15
		<tag k="place" v="farm" />
		<tag k="ssr:stedsnr" v="927928" />
	</node>
<<<<<<< HEAD
	<node lat="68.44059444657758" lon="16.00770278413446" id="-15382">
		<tag k="name" v="Lavollen" />
		<tag k="place" v="isolated_dwelling" />
		<tag k="ssr:stedsnr" v="927229" />
	</node>
	<node lat="68.33483973628978" lon="15.664941652707205" id="-15419">
		<tag k="name" v="Ytterstad" />
=======
	<node id="-184550" lat="68.35728056" lon="15.2526277785">
		<tag k="name" v="Hamnes" />
		<tag k="place" v="isolated_dwelling" />
		<tag k="ssr:stedsnr" v="562881" />
	</node>
	<node id="-185061" lat="68.4123602468" lon="15.8338486503">
		<tag k="name" v="Erikstad" />
>>>>>>> e1d4bc35ff8a6074a6f2e91616a996b547c36f15
		<tag k="place" v="farm" />
		<tag k="ssr:stedsnr" v="989411" />
	</node>
<<<<<<< HEAD
	<node lat="68.33607142432902" lon="15.66604719121623" id="-15420">
		<tag k="name" v="Ytterstad" />
=======
	<node id="-185060" lat="68.418611024" lon="15.8247765864">
		<tag k="name" v="Erikstad" />
>>>>>>> e1d4bc35ff8a6074a6f2e91616a996b547c36f15
		<tag k="place" v="farm" />
		<tag k="ssr:stedsnr" v="989412" />
	</node>
<<<<<<< HEAD
	<node lat="68.31907500265602" lon="15.642625006984357" id="-15431">
		<tag k="name" v="Nygård" />
=======
	<node id="-185059" lat="68.412895727" lon="15.8344303968">
		<tag k="name" v="Erikstad" />
>>>>>>> e1d4bc35ff8a6074a6f2e91616a996b547c36f15
		<tag k="place" v="farm" />
		<tag k="ssr:stedsnr" v="17395" />
	</node>
<<<<<<< HEAD
	<node lat="68.43376382501116" lon="15.843507969326334" id="-15443">
		<tag k="fixme" v="consider place=hamlet" />
		<tag k="name" v="Bukta" />
=======
	<node id="-185058" lat="68.4260745375" lon="15.838034147">
		<tag k="name" v="Erikstad" />
>>>>>>> e1d4bc35ff8a6074a6f2e91616a996b547c36f15
		<tag k="place" v="farm" />
		<tag k="ssr:stedsnr" v="17264" />
	</node>
<<<<<<< HEAD
	<node lat="68.42175000149098" lon="15.883166678667259" id="-15444">
		<tag k="name" v="Josarsaklubben" />
		<tag k="place" v="isolated_dwelling" />
		<tag k="ssr:stedsnr" v="17282" />
	</node>
	<node lat="68.38623888653622" lon="15.885300000325467" id="-15451">
		<tag k="name" v="Solberg" />
		<tag k="place" v="isolated_dwelling" />
		<tag k="ssr:stedsnr" v="17331" />
	</node>
	<node lat="68.43828163296222" lon="15.501321659044345" id="-15460">
		<tag k="fixme" v="consider place=hamlet" />
		<tag k="name" v="Husjorda" />
=======
	<node id="-184030" lat="68.5658416698" lon="15.9721583376">
		<tag k="fixme" v="consider tourism=alpine_hut or tourism=chalet" />
		<tag k="name" v="Toralfsbu" />
		<tag k="old_name" v="Toralvsbu" />
		<tag k="ssr:stedsnr" v="78880" />
		<tag k="tourism" v="wilderness_hut" />
	</node>
	<node id="-185052" lat="68.4618833307" lon="16.0334527883">
		<tag k="name" v="Solstad" />
>>>>>>> e1d4bc35ff8a6074a6f2e91616a996b547c36f15
		<tag k="place" v="farm" />
		<tag k="ssr:stedsnr" v="17795" />
	</node>
<<<<<<< HEAD
	<node lat="68.35588332876179" lon="15.513125008406112" id="-15462">
		<tag k="name" v="Halsen" />
		<tag k="place" v="farm" />
		<tag k="ssr:stedsnr" v="17986" />
	</node>
	<node lat="68.32131666327885" lon="15.629288875614003" id="-15472">
		<tag k="name" v="Valnes" />
		<tag k="place" v="farm" />
		<tag k="ssr:stedsnr" v="21738" />
	</node>
	<node lat="68.4418416623012" lon="15.888372224199642" id="-15479">
		<tag k="name" v="Myrset" />
		<tag k="place" v="locality" />
		<tag k="ssr:stedsnr" v="22666" />
	</node>
	<node lat="68.33166944786801" lon="15.577986122802029" id="-15517">
		<tag k="name" v="Gåsvoll" />
		<tag k="place" v="farm" />
		<tag k="ssr:stedsnr" v="40331" />
	</node>
	<node lat="68.33730277821194" lon="15.680497217871956" id="-15530">
		<tag k="name" v="Einan" />
		<tag k="place" v="farm" />
		<tag k="ssr:stedsnr" v="77329" />
	</node>
	<node lat="68.46210000206634" lon="16.029880551450905" id="-15538">
=======
	<node id="-183513" lat="68.3212972202" lon="15.6047222094">
		<tag k="name" v="Valstad" />
		<tag k="place" v="farm" />
		<tag k="ssr:stedsnr" v="562020" />
	</node>
	<node id="-185046" lat="68.4064638877" lon="15.9890333222">
		<tag k="name" v="Klokkerjordet" />
		<tag k="place" v="quarter" />
		<tag k="ssr:stedsnr" v="871551" />
	</node>
	<node id="-185045" lat="68.413216664" lon="15.9964555469">
		<tag k="name" v="Hamnbakken" />
		<tag k="place" v="quarter" />
		<tag k="ssr:stedsnr" v="871550" />
	</node>
	<node id="-185044" lat="68.3472694475" lon="15.5101888827">
		<tag k="fixme" v="consider place=hamlet" />
		<tag k="loc_name:se" v="Vuogak" />
		<tag k="name" v="Vestbygda" />
		<tag k="name:no" v="Vestbygda" />
		<tag k="place" v="village" />
		<tag k="ssr:stedsnr" v="870562" />
	</node>
	<node id="-184530" lat="68.4612249968" lon="15.873588879">
		<tag k="name" v="Gammelgården" />
		<tag k="place" v="isolated_dwelling" />
		<tag k="ssr:stedsnr" v="521446" />
	</node>
	<node id="-183757" lat="68.3732638909" lon="15.4141916653">
		<tag k="name" v="Fjellmo" />
		<tag k="place" v="farm" />
		<tag k="ssr:stedsnr" v="927928" />
	</node>
	<node id="-184012" lat="68.4621000021" lon="16.0298805515">
>>>>>>> e1d4bc35ff8a6074a6f2e91616a996b547c36f15
		<tag k="name" v="Lundli" />
		<tag k="place" v="farm" />
		<tag k="ssr:stedsnr" v="78175" />
	</node>
<<<<<<< HEAD
	<node lat="68.39489999753205" lon="15.754822229013774" id="-15540">
		<tag k="name" v="Solstad" />
=======
	<node id="-185034" lat="68.5205500015" lon="15.870033327">
		<tag k="alt_name" v="Eidisheimen" />
		<tag k="name" v="Eidesheimen" />
		<tag k="place" v="isolated_dwelling" />
		<tag k="ssr:stedsnr" v="867795" />
	</node>
	<node id="-184520" lat="68.4673194435" lon="15.8879361218">
		<tag k="name" v="Vika" />
		<tag k="place" v="locality" />
		<tag k="ssr:stedsnr" v="400465" />
	</node>
	<node id="-183495" lat="68.3696972192" lon="15.2423083289">
		<tag k="name" v="Gammelgården" />
>>>>>>> e1d4bc35ff8a6074a6f2e91616a996b547c36f15
		<tag k="place" v="farm" />
		<tag k="ssr:stedsnr" v="78282" />
	</node>
	<node lat="68.56584166979198" lon="15.972158337635708" id="-15554">
		<tag k="fixme" v="consider tourism=alpine_hut or tourism=chalet" />
		<tag k="name" v="Toralfsbu" />
		<tag k="old_name" v="Toralvsbu" />
		<tag k="ssr:stedsnr" v="78880" />
		<tag k="tourism" v="wilderness_hut" />
	</node>
<<<<<<< HEAD
	<node lat="68.38162778048971" lon="15.713347234816668" id="-15603">
=======
	<node id="-182982" lat="68.3816277805" lon="15.7133472348">
>>>>>>> e1d4bc35ff8a6074a6f2e91616a996b547c36f15
		<tag k="name" v="Øyjorda" />
		<tag k="place" v="farm" />
		<tag k="ssr:stedsnr" v="137253" />
	</node>
<<<<<<< HEAD
	<node lat="68.32119999753459" lon="15.581236114050203" id="-15607">
		<tag k="name" v="Vestøy" />
=======
	<node id="-184005" lat="68.3579912684" lon="15.3916954703">
		<tag k="fixme" v="consider place=hamlet" />
		<tag k="name" v="Åndervåg" />
>>>>>>> e1d4bc35ff8a6074a6f2e91616a996b547c36f15
		<tag k="place" v="farm" />
		<tag k="ssr:stedsnr" v="138031" />
	</node>
<<<<<<< HEAD
	<node lat="68.33105833724811" lon="15.613572230879686" id="-15611">
		<tag k="name" v="Høgtun" />
=======
	<node id="-182980" lat="68.4714702402" lon="16.0680035022">
		<tag k="fixme" v="consider place=hamlet" />
		<tag k="name" v="Strand" />
		<tag k="old_name" v="Strand-nedre" />
>>>>>>> e1d4bc35ff8a6074a6f2e91616a996b547c36f15
		<tag k="place" v="farm" />
		<tag k="ssr:stedsnr" v="137942" />
	</node>
<<<<<<< HEAD
	<node lat="68.39933055306406" lon="15.740608343472076" id="-15615">
		<tag k="name" v="Heimstad" />
=======
	<node id="-185027" lat="68.3155055548" lon="15.6609305589">
		<tag k="name" v="Vika" />
>>>>>>> e1d4bc35ff8a6074a6f2e91616a996b547c36f15
		<tag k="place" v="farm" />
		<tag k="ssr:stedsnr" v="138290" />
	</node>
<<<<<<< HEAD
	<node lat="68.40667777885231" lon="15.882836112156093" id="-15621">
		<tag k="alt_name" v="Neshamn, in;Indre Neshamn" />
		<tag k="name" v="Inner Neshamn" />
		<tag k="place" v="farm" />
		<tag k="ssr:stedsnr" v="138298" />
	</node>
	<node lat="68.34662509239476" lon="15.506674887548703" id="-15631">
		<tag k="fixme" v="consider place=hamlet" />
		<tag k="name" v="Våge" />
=======
	<node id="-185022" lat="68.4681555536" lon="15.8936499941">
		<tag k="alt_name:no" v="Kanstad, austre;Kanstad østre" />
		<tag k="fixme" v="consider place=hamlet" />
		<tag k="loc_name:se" v="Gánas" />
		<tag k="name" v="Austre Kanstad" />
		<tag k="name:no" v="Austre Kanstad" />
		<tag k="place" v="village" />
		<tag k="ssr:stedsnr" v="867198" />
	</node>
	<node id="-183485" lat="68.3596333306" lon="15.4241333369">
		<tag k="name" v="Bråten" />
>>>>>>> e1d4bc35ff8a6074a6f2e91616a996b547c36f15
		<tag k="place" v="farm" />
		<tag k="ssr:stedsnr" v="138971" />
	</node>
<<<<<<< HEAD
	<node lat="68.36329799966394" lon="15.510096695514697" id="-15645">
		<tag k="name" v="Kyllingstad" />
		<tag k="place" v="locality" />
		<tag k="ssr:stedsnr" v="142649" />
	</node>
	<node lat="68.40799722256341" lon="15.995336116402944" id="-15646">
		<tag k="name" v="Tippen" />
=======
	<node id="-182967" lat="68.4086722228" lon="15.9822527821">
		<tag k="name" v="Dalen" />
>>>>>>> e1d4bc35ff8a6074a6f2e91616a996b547c36f15
		<tag k="place" v="quarter" />
		<tag k="ssr:stedsnr" v="142665" />
	</node>
<<<<<<< HEAD
	<node lat="68.41264166275806" lon="15.991899993914325" id="-15647">
		<tag k="name" v="Skaret" />
		<tag k="place" v="quarter" />
		<tag k="ssr:stedsnr" v="142668" />
	</node>
	<node lat="68.45768333534434" lon="15.89855000058261" id="-15652">
		<tag k="name" v="Strandmo" />
		<tag k="place" v="farm" />
		<tag k="ssr:stedsnr" v="143664" />
	</node>
	<node lat="68.46268055683646" lon="15.899280557939155" id="-15653">
		<tag k="name" v="Sylfestplassen" />
=======
	<node id="-183983" lat="68.3316694479" lon="15.5779861228">
		<tag k="name" v="Gåsvoll" />
		<tag k="place" v="farm" />
		<tag k="ssr:stedsnr" v="40331" />
	</node>
	<node id="-183982" lat="68.401372219" lon="15.7391166704">
		<tag k="name" v="Nysneisa" />
		<tag k="place" v="farm" />
		<tag k="ssr:stedsnr" v="39574" />
	</node>
	<node id="-183469" lat="68.376202782" lon="15.7550944491">
		<tag k="fixme" v="consider place=hamlet" />
		<tag k="name" v="Rinøya" />
		<tag k="place" v="village" />
		<tag k="ssr:stedsnr" v="689585" />
	</node>
	<node id="-182951" lat="68.4608972208" lon="15.5043000034">
		<tag k="alt_name" v="Sommarset, in" />
		<tag k="name" v="Indre Sommarset" />
>>>>>>> e1d4bc35ff8a6074a6f2e91616a996b547c36f15
		<tag k="place" v="farm" />
		<tag k="ssr:stedsnr" v="143666" />
	</node>
<<<<<<< HEAD
	<node lat="68.46256110978153" lon="15.897244439093846" id="-15689">
		<tag k="name" v="Harkeneset" />
		<tag k="place" v="farm" />
		<tag k="ssr:stedsnr" v="157416" />
	</node>
	<node lat="68.32044999791881" lon="15.64838888875576" id="-15690">
		<tag k="name" v="Nordøy" />
=======
	<node id="-183409" lat="68.402627586" lon="15.7333411504">
		<tag k="fixme" v="consider place=hamlet" />
		<tag k="name" v="Sneisa - Snáisá" />
		<tag k="name:no" v="Sneisa" />
		<tag k="name:se" v="Snáisá" />
		<tag k="place" v="farm" />
		<tag k="ssr:stedsnr" v="684276" />
	</node>
	<node id="-183486" lat="68.3563027757" lon="15.4205333282">
		<tag k="name" v="Daleng" />
		<tag k="place" v="farm" />
		<tag k="ssr:stedsnr" v="692839" />
	</node>
	<node id="-184603" lat="68.3702166632" lon="15.2450416624">
		<tag k="name" v="Nergården" />
		<tag k="place" v="farm" />
		<tag k="ssr:stedsnr" v="573599" />
	</node>
	<node id="-182934" lat="68.3506604098" lon="15.3637833154">
		<tag k="fixme" v="consider place=hamlet" />
		<tag k="name" v="Haug" />
		<tag k="place" v="farm" />
		<tag k="ssr:stedsnr" v="259991" />
	</node>
	<node id="-183315" lat="68.5056305519" lon="16.097486107">
		<tag k="name" v="Beretheimen" />
		<tag k="place" v="farm" />
		<tag k="ssr:stedsnr" v="510977" />
	</node>
	<node id="-183443" lat="68.3718777767" lon="15.2393666575">
		<tag k="fixme" v="consider place=hamlet" />
		<tag k="name" v="Kvannkjosen" />
		<tag k="place" v="village" />
		<tag k="ssr:stedsnr" v="684942" />
	</node>
	<node id="-184458" lat="68.3718111116" lon="15.4009583216">
		<tag k="name" v="Nordvoll" />
>>>>>>> e1d4bc35ff8a6074a6f2e91616a996b547c36f15
		<tag k="place" v="farm" />
		<tag k="ssr:stedsnr" v="160217" />
	</node>
<<<<<<< HEAD
	<node lat="68.3683722230111" lon="15.721247227951075" id="-15697">
		<tag k="name" v="Stranden" />
=======
	<node id="-183433" lat="68.4099305558" lon="15.3626777872">
		<tag k="name" v="Skjelvika" />
>>>>>>> e1d4bc35ff8a6074a6f2e91616a996b547c36f15
		<tag k="place" v="farm" />
		<tag k="ssr:stedsnr" v="160651" />
	</node>
<<<<<<< HEAD
	<node lat="68.41305277861142" lon="15.353961114227626" id="-15702">
		<tag k="name" v="Solum" />
=======
	<node id="-182919" lat="68.3585916674" lon="15.4411194463">
		<tag k="name" v="Nordgård" />
>>>>>>> e1d4bc35ff8a6074a6f2e91616a996b547c36f15
		<tag k="place" v="farm" />
		<tag k="ssr:stedsnr" v="199871" />
	</node>
<<<<<<< HEAD
	<node lat="68.34695388004805" lon="15.46086659404667" id="-15705">
		<tag k="fixme" v="consider place=hamlet" />
		<tag k="name" v="Hustad" />
		<tag k="place" v="farm" />
		<tag k="ssr:stedsnr" v="199983" />
	</node>
	<node lat="68.35545833238207" lon="15.489766655622686" id="-15706">
		<tag k="name" v="Hustadstranda" />
		<tag k="place" v="hamlet" />
		<tag k="ssr:stedsnr" v="199990" />
	</node>
	<node lat="68.36638889263934" lon="15.71488889820852" id="-15720">
		<tag k="name" v="Nygård" />
=======
	<node id="-182891" lat="68.3948999975" lon="15.754822229">
		<tag k="name" v="Solstad" />
		<tag k="place" v="farm" />
		<tag k="ssr:stedsnr" v="78282" />
	</node>
	<node id="-183424" lat="68.4236111134" lon="15.4233277668">
		<tag k="name" v="Bjerkneshamn" />
		<tag k="place" v="isolated_dwelling" />
		<tag k="ssr:stedsnr" v="684747" />
	</node>
	<node id="-183932" lat="68.4418416623" lon="15.8883722242">
		<tag k="name" v="Myrset" />
		<tag k="place" v="locality" />
		<tag k="ssr:stedsnr" v="22666" />
	</node>
	<node id="-182907" lat="68.4697916686" lon="16.0730861106">
		<tag k="name" v="Skoglund" />
>>>>>>> e1d4bc35ff8a6074a6f2e91616a996b547c36f15
		<tag k="place" v="farm" />
		<tag k="ssr:stedsnr" v="199342" />
	</node>
<<<<<<< HEAD
	<node lat="68.40098333281217" lon="15.878766675314871" id="-15725">
		<tag k="name" v="Neshamn" />
		<tag k="place" v="farm" />
		<tag k="ssr:stedsnr" v="199293" />
	</node>
	<node lat="68.42702663655105" lon="15.429732294823198" id="-15726">
=======
	<node id="-184439" lat="68.3859388869" lon="15.7443805466">
		<tag k="name" v="Dalheim" />
		<tag k="place" v="isolated_dwelling" />
		<tag k="ssr:stedsnr" v="381313" />
	</node>
	<node id="-184438" lat="68.3870723662" lon="15.8731443541">
>>>>>>> e1d4bc35ff8a6074a6f2e91616a996b547c36f15
		<tag k="fixme" v="consider place=hamlet" />
		<tag k="name" v="Bjerknes" />
		<tag k="place" v="farm" />
		<tag k="ssr:stedsnr" v="199773" />
	</node>
<<<<<<< HEAD
	<node lat="68.40265555209724" lon="15.417947213188711" id="-15731">
		<tag k="name" v="Forneset" />
=======
	<node id="-182901" lat="68.3201527742" lon="15.6266833364">
		<tag k="name" v="Vollen" />
>>>>>>> e1d4bc35ff8a6074a6f2e91616a996b547c36f15
		<tag k="place" v="farm" />
		<tag k="ssr:stedsnr" v="199844" />
	</node>
<<<<<<< HEAD
	<node lat="68.50245555529926" lon="15.865302782919537" id="-15741">
		<tag k="fixme" v="multiple name tags, choose one and add the other to alt_name" />
		<tag k="name" v="Kanstadsætra;Sætra" />
		<tag k="place" v="isolated_dwelling" />
		<tag k="ssr:stedsnr" v="200765" />
	</node>
	<node lat="68.31456666433576" lon="15.650644433835115" id="-15778">
		<tag k="name" v="Viklund" />
=======
	<node id="-184435" lat="68.3984638884" lon="15.8718305472">
		<tag k="alt_name" v="Neshamn, yt;Ytre Neshamn" />
		<tag k="name" v="Ytter Neshamn" />
>>>>>>> e1d4bc35ff8a6074a6f2e91616a996b547c36f15
		<tag k="place" v="farm" />
		<tag k="ssr:stedsnr" v="282238" />
	</node>
<<<<<<< HEAD
	<node lat="68.33717222450848" lon="15.658986100488114" id="-15782">
		<tag k="name" v="Oppheim" />
=======
	<node id="-183921" lat="68.3213166633" lon="15.6292888756">
		<tag k="name" v="Valnes" />
>>>>>>> e1d4bc35ff8a6074a6f2e91616a996b547c36f15
		<tag k="place" v="farm" />
		<tag k="ssr:stedsnr" v="282703" />
	</node>
<<<<<<< HEAD
	<node lat="68.3650250009029" lon="15.335836108694068" id="-15786">
		<tag k="name" v="Øines" />
		<tag k="place" v="farm" />
		<tag k="ssr:stedsnr" v="303289" />
	</node>
	<node lat="68.44792221953401" lon="15.948016657994884" id="-15787">
		<tag k="building" v="commercial" />
		<tag k="name" v="Daltun" />
		<tag k="ssr:stedsnr" v="320197" />
	</node>
	<node lat="68.45027782203165" lon="16.013253818883122" id="-15789">
		<tag k="name" v="Kåringen" />
=======
	<node id="-184432" lat="68.4403361151" lon="15.8822500069">
		<tag k="name" v="Revedansen" />
		<tag k="place" v="isolated_dwelling" />
		<tag k="ssr:stedsnr" v="381246" />
	</node>
	<node id="-182895" lat="68.3317055519" lon="15.5377972211">
		<tag k="name" v="Ivergamman" />
		<tag k="place" v="locality" />
		<tag k="ssr:stedsnr" v="82618" />
	</node>
	<node id="-183406" lat="68.4600055518" lon="16.0280749956">
		<tag k="name" v="Fredheim" />
>>>>>>> e1d4bc35ff8a6074a6f2e91616a996b547c36f15
		<tag k="place" v="farm" />
		<tag k="ssr:stedsnr" v="320205" />
	</node>
<<<<<<< HEAD
	<node lat="68.34534167140085" lon="15.684308324884421" id="-15804">
		<tag k="alt_name" v="Lyngmo" />
		<tag k="name" v="Lyngmoen" />
=======
	<node id="-183916" lat="68.3558833288" lon="15.5131250084">
		<tag k="name" v="Halsen" />
>>>>>>> e1d4bc35ff8a6074a6f2e91616a996b547c36f15
		<tag k="place" v="farm" />
		<tag k="ssr:stedsnr" v="320328" />
	</node>
<<<<<<< HEAD
	<node lat="68.3649000005516" lon="15.714913884024423" id="-15805">
		<tag k="alt_name" v="Sletten" />
		<tag k="name" v="Sletta" />
=======
	<node id="-184427" lat="68.4945879904" lon="16.0933117005">
		<tag k="fixme" v="consider place=hamlet" />
		<tag k="name" v="Djupfest" />
>>>>>>> e1d4bc35ff8a6074a6f2e91616a996b547c36f15
		<tag k="place" v="farm" />
		<tag k="ssr:stedsnr" v="320331" />
	</node>
<<<<<<< HEAD
	<node lat="68.30868611142678" lon="15.643350010603925" id="-15807">
		<tag k="alt_name" v="Offersøy" />
		<tag k="name" v="Offersøya" />
=======
	<node id="-182890" lat="68.4727666709" lon="16.0745888872">
		<tag k="name" v="Berg" />
>>>>>>> e1d4bc35ff8a6074a6f2e91616a996b547c36f15
		<tag k="place" v="farm" />
		<tag k="ssr:stedsnr" v="320356" />
	</node>
<<<<<<< HEAD
	<node lat="68.31601666391083" lon="15.6214138756025" id="-15808">
		<tag k="name" v="Sjøvoll" />
=======
	<node id="-182887" lat="68.4367194493" lon="16.0047027699">
		<tag k="name" v="Fjellheim" />
		<tag k="place" v="farm" />
		<tag k="ssr:stedsnr" v="78249" />
	</node>
	<node id="-184936" lat="68.3291944458" lon="15.5948972229">
		<tag k="name" v="Solheim" />
>>>>>>> e1d4bc35ff8a6074a6f2e91616a996b547c36f15
		<tag k="place" v="farm" />
		<tag k="ssr:stedsnr" v="320367" />
	</node>
<<<<<<< HEAD
	<node lat="68.35134444627347" lon="15.363858328113977" id="-15861">
		<tag k="name" v="Lia" />
=======
	<node id="-184935" lat="68.3306722184" lon="15.6174833283">
		<tag k="name" v="Fjellheim" />
>>>>>>> e1d4bc35ff8a6074a6f2e91616a996b547c36f15
		<tag k="place" v="farm" />
		<tag k="ssr:stedsnr" v="342381" />
	</node>
<<<<<<< HEAD
	<node lat="68.45063888800587" lon="15.895894447901332" id="-15874">
		<tag k="name" v="Brattland" />
		<tag k="place" v="farm" />
		<tag k="ssr:stedsnr" v="380189" />
	</node>
	<node lat="68.385338887567" lon="15.383255565185845" id="-15877">
		<tag k="name" v="Stormyr" />
=======
	<node id="-184932" lat="68.4153527737" lon="15.9890194494">
		<tag k="name" v="Vika" />
		<tag k="place" v="quarter" />
		<tag k="ssr:stedsnr" v="810663" />
	</node>
	<node id="-182853" lat="68.4140416688" lon="15.8340583244">
		<tag k="fixme" v="consider place=hamlet" />
		<tag k="loc_name:se" v="Erstá" />
		<tag k="name" v="Erikstad" />
		<tag k="name:no" v="Erikstad" />
		<tag k="place" v="village" />
		<tag k="ssr:stedsnr" v="17322" />
	</node>
	<node id="-183906" lat="68.438281633" lon="15.501321659">
		<tag k="fixme" v="consider place=hamlet" />
		<tag k="name" v="Husjorda" />
>>>>>>> e1d4bc35ff8a6074a6f2e91616a996b547c36f15
		<tag k="place" v="farm" />
		<tag k="ssr:stedsnr" v="17795" />
	</node>
<<<<<<< HEAD
	<node lat="68.49458799038105" lon="16.09331170050113" id="-15886">
=======
	<node id="-182880" lat="68.3914222259" lon="15.8703416712">
		<tag k="name" v="Skjåvik" />
		<tag k="place" v="farm" />
		<tag k="ssr:stedsnr" v="40572" />
	</node>
	<node id="-182877" lat="68.3350545299" lon="15.6673532065">
>>>>>>> e1d4bc35ff8a6074a6f2e91616a996b547c36f15
		<tag k="fixme" v="consider place=hamlet" />
		<tag k="name" v="Djupfest" />
		<tag k="place" v="farm" />
		<tag k="ssr:stedsnr" v="381152" />
	</node>
<<<<<<< HEAD
	<node lat="68.44033611507032" lon="15.882250006937142" id="-15887">
		<tag k="name" v="Revedansen" />
		<tag k="place" v="isolated_dwelling" />
		<tag k="ssr:stedsnr" v="381246" />
	</node>
	<node lat="68.39846388837981" lon="15.871830547212456" id="-15892">
		<tag k="alt_name" v="Neshamn, yt;Ytre Neshamn" />
		<tag k="name" v="Ytter Neshamn" />
=======
	<node id="-184412" lat="68.450638888" lon="15.8958944479">
		<tag k="name" v="Brattland" />
		<tag k="place" v="farm" />
		<tag k="ssr:stedsnr" v="380189" />
	</node>
	<node id="-183387" lat="68.4086166687" lon="15.3605138864">
		<tag k="name" v="Storvika" />
>>>>>>> e1d4bc35ff8a6074a6f2e91616a996b547c36f15
		<tag k="place" v="farm" />
		<tag k="ssr:stedsnr" v="381282" />
	</node>
<<<<<<< HEAD
	<node lat="68.37181111155745" lon="15.40095832158645" id="-15896">
		<tag k="name" v="Nordvoll" />
		<tag k="place" v="farm" />
		<tag k="ssr:stedsnr" v="381923" />
	</node>
	<node lat="68.35956944649672" lon="15.43108610845815" id="-15931">
		<tag k="name" v="Nordmo" />
=======
	<node id="-183897" lat="68.4217500015" lon="15.8831666787">
		<tag k="name" v="Josarsaklubben" />
		<tag k="place" v="isolated_dwelling" />
		<tag k="ssr:stedsnr" v="17282" />
	</node>
	<node id="-183896" lat="68.433763825" lon="15.8435079693">
		<tag k="fixme" v="consider place=hamlet" />
		<tag k="name" v="Bukta" />
>>>>>>> e1d4bc35ff8a6074a6f2e91616a996b547c36f15
		<tag k="place" v="farm" />
		<tag k="ssr:stedsnr" v="388822" />
	</node>
<<<<<<< HEAD
	<node lat="68.4673194434769" lon="15.887936121786344" id="-15957">
		<tag k="name" v="Vika" />
		<tag k="place" v="locality" />
		<tag k="ssr:stedsnr" v="400465" />
	</node>
	<node lat="68.51794722322903" lon="15.877325004230576" id="-15966">
		<tag k="name" v="Kanstadbotn" />
=======
	<node id="-183383" lat="68.3372333312" lon="15.6755916718">
		<tag k="name" v="Sandvoll" />
>>>>>>> e1d4bc35ff8a6074a6f2e91616a996b547c36f15
		<tag k="place" v="farm" />
		<tag k="ssr:stedsnr" v="405964" />
	</node>
<<<<<<< HEAD
	<node lat="68.46784722344248" lon="16.05560277010756" id="-16029">
		<tag k="name" v="Breidablikk" />
=======
	<node id="-184405" lat="68.3227361073" lon="15.598986103">
		<tag k="name" v="Grønvoll" />
>>>>>>> e1d4bc35ff8a6074a6f2e91616a996b547c36f15
		<tag k="place" v="farm" />
		<tag k="ssr:stedsnr" v="502148" />
	</node>
<<<<<<< HEAD
	<node lat="68.41372777742744" lon="15.996258323798846" id="-16034">
		<tag k="loc_name:se" v="Lodegak;Lodek" />
=======
	<node id="-183380" lat="68.4137277774" lon="15.9962583238">
		<tag k="loc_name:se" v="Lodek" />
>>>>>>> e1d4bc35ff8a6074a6f2e91616a996b547c36f15
		<tag k="name" v="Lødingen" />
		<tag k="name:no" v="Lødingen" />
		<tag k="place" v="village" />
		<tag k="ssr:stedsnr" v="502257" />
	</node>
<<<<<<< HEAD
	<node lat="68.39834166266004" lon="15.410686113950014" id="-16041">
		<tag k="name" v="Myrtun" />
		<tag k="place" v="isolated_dwelling" />
		<tag k="ssr:stedsnr" v="502848" />
	</node>
	<node lat="68.40861666871068" lon="15.36051388644808" id="-16043">
		<tag k="name" v="Storvika" />
=======
	<node id="-183887" lat="68.3190750027" lon="15.642625007">
		<tag k="name" v="Nygård" />
>>>>>>> e1d4bc35ff8a6074a6f2e91616a996b547c36f15
		<tag k="place" v="farm" />
		<tag k="ssr:stedsnr" v="502861" />
	</node>
<<<<<<< HEAD
	<node lat="68.41681944304322" lon="15.981902786023062" id="-16052">
		<tag k="name" v="Hamndalen" />
		<tag k="place" v="quarter" />
		<tag k="ssr:stedsnr" v="507580" />
	</node>
	<node lat="68.41223055439704" lon="16.002386104611652" id="-16053">
		<tag k="name" v="Melkebukta" />
		<tag k="place" v="quarter" />
		<tag k="ssr:stedsnr" v="507581" />
	</node>
	<node lat="68.5056305519012" lon="16.097486106960496" id="-16066">
		<tag k="name" v="Beretheimen" />
		<tag k="place" v="farm" />
		<tag k="ssr:stedsnr" v="510977" />
	</node>
	<node lat="68.3716444438817" lon="15.23988056649074" id="-16082">
		<tag k="name" v="Mellomgården" />
=======
	<node id="-184909" lat="68.4700611149" lon="15.5476472209">
		<tag k="name" v="Rørneset" />
		<tag k="place" v="isolated_dwelling" />
		<tag k="ssr:stedsnr" v="806772" />
	</node>
	<node id="-184418" lat="68.3853388876" lon="15.3832555652">
		<tag k="name" v="Stormyr" />
		<tag k="place" v="farm" />
		<tag k="ssr:stedsnr" v="380828" />
	</node>
	<node id="-184904" lat="68.3174333315" lon="15.6539527877">
		<tag k="alt_name" v="Stranda" />
		<tag k="name" v="Skarpstrand" />
>>>>>>> e1d4bc35ff8a6074a6f2e91616a996b547c36f15
		<tag k="place" v="farm" />
		<tag k="ssr:stedsnr" v="513979" />
	</node>
<<<<<<< HEAD
	<node lat="68.461224996849" lon="15.873588879028155" id="-16088">
		<tag k="name" v="Gammelgården" />
=======
	<node id="-182855" lat="68.3862388865" lon="15.8853000003">
		<tag k="name" v="Solberg" />
>>>>>>> e1d4bc35ff8a6074a6f2e91616a996b547c36f15
		<tag k="place" v="isolated_dwelling" />
		<tag k="ssr:stedsnr" v="521446" />
	</node>
<<<<<<< HEAD
	<node lat="68.32869999646981" lon="15.604166665839479" id="-16102">
		<tag k="name" v="Øyjorda" />
=======
	<node id="-184902" lat="68.3396194427" lon="15.6622138808">
		<tag k="name" v="Elvan" />
>>>>>>> e1d4bc35ff8a6074a6f2e91616a996b547c36f15
		<tag k="place" v="farm" />
		<tag k="ssr:stedsnr" v="562011" />
	</node>
<<<<<<< HEAD
	<node lat="68.32129722015752" lon="15.604722209376376" id="-16108">
		<tag k="name" v="Valstad" />
		<tag k="place" v="farm" />
		<tag k="ssr:stedsnr" v="562020" />
	</node>
	<node lat="68.46274444657058" lon="16.039741662083763" id="-16123">
		<tag k="alt_name" v="Nybrot" />
		<tag k="name" v="Nybrott" />
		<tag k="place" v="farm" />
		<tag k="ssr:stedsnr" v="562168" />
	</node>
	<node lat="68.40810278124188" lon="15.738749989124619" id="-16129">
		<tag k="name" v="Gamvika" />
=======
	<node id="-184901" lat="68.3408388853" lon="15.6685138909">
		<tag k="alt_name" v="Flåten" />
		<tag k="name" v="Flåta" />
		<tag k="place" v="isolated_dwelling" />
		<tag k="ssr:stedsnr" v="806325" />
	</node>
	<node id="-184900" lat="68.3975027806" lon="15.9221777822">
		<tag k="name" v="Øygård" />
		<tag k="place" v="isolated_dwelling" />
		<tag k="ssr:stedsnr" v="806312" />
	</node>
	<node id="-184397" lat="68.3513444463" lon="15.3638583281">
		<tag k="name" v="Lia" />
		<tag k="place" v="farm" />
		<tag k="ssr:stedsnr" v="342381" />
	</node>
	<node id="-184898" lat="68.3849444457" lon="15.8725027895">
		<tag k="alt_name" v="Buktvik" />
		<tag k="name" v="Buktvika" />
>>>>>>> e1d4bc35ff8a6074a6f2e91616a996b547c36f15
		<tag k="place" v="farm" />
		<tag k="ssr:stedsnr" v="562249" />
	</node>
<<<<<<< HEAD
	<node lat="68.35728055998027" lon="15.252627778464726" id="-16133">
		<tag k="name" v="Hamnes" />
		<tag k="place" v="isolated_dwelling" />
		<tag k="ssr:stedsnr" v="562881" />
	</node>
	<node lat="68.465644448937" lon="15.538955551872645" id="-16150">
		<tag k="name" v="Brynnelslåttene" />
		<tag k="place" v="locality" />
		<tag k="ssr:stedsnr" v="563776" />
	</node>
	<node lat="68.36186666618893" lon="15.713627787495774" id="-16199">
		<tag k="name" v="Vikly" />
=======
	<node id="-183873" lat="68.3802752767" lon="15.7109119967">
		<tag k="fixme" v="consider place=hamlet" />
		<tag k="name" v="Hesten" />
>>>>>>> e1d4bc35ff8a6074a6f2e91616a996b547c36f15
		<tag k="place" v="farm" />
		<tag k="ssr:stedsnr" v="585659" />
	</node>
<<<<<<< HEAD
	<node lat="68.32164289606199" lon="15.620701963142245" id="-16226">
=======
	<node id="-183868" lat="68.4141632458" lon="15.8320191755">
>>>>>>> e1d4bc35ff8a6074a6f2e91616a996b547c36f15
		<tag k="fixme" v="consider place=hamlet" />
		<tag k="name" v="Øya" />
		<tag k="place" v="farm" />
		<tag k="ssr:stedsnr" v="623373" />
	</node>
<<<<<<< HEAD
	<node lat="68.3384416679773" lon="15.554802776896262" id="-16236">
		<tag k="name" v="Høgset" />
		<tag k="place" v="isolated_dwelling" />
		<tag k="ssr:stedsnr" v="623945" />
	</node>
	<node lat="68.34943333661083" lon="15.471350000891102" id="-16245">
		<tag k="name" v="Engan" />
		<tag k="place" v="farm" />
		<tag k="ssr:stedsnr" v="623999" />
	</node>
	<node lat="68.3754777739733" lon="15.502891667850687" id="-16280">
		<tag k="name" v="Heimerskjåen" />
		<tag k="place" v="locality" />
		<tag k="ssr:stedsnr" v="647371" />
	</node>
	<node lat="68.44827222124988" lon="15.895630546744838" id="-16298">
		<tag k="name" v="Nymoen" />
=======
	<node id="-184879" lat="68.454836112" lon="15.8725611062">
		<tag k="name" v="Lømo" />
		<tag k="place" v="farm" />
		<tag k="ssr:stedsnr" v="805152" />
	</node>
	<node id="-183340" lat="68.3716444439" lon="15.2398805665">
		<tag k="name" v="Mellomgården" />
>>>>>>> e1d4bc35ff8a6074a6f2e91616a996b547c36f15
		<tag k="place" v="farm" />
		<tag k="ssr:stedsnr" v="745237" />
	</node>
<<<<<<< HEAD
	<node lat="68.45266111348133" lon="16.025005559415206" id="-16300">
		<tag k="alt_name" v="Slotstrand" />
		<tag k="name" v="Slåttstrand" />
		<tag k="place" v="farm" />
		<tag k="ssr:stedsnr" v="745246" />
	</node>
	<node lat="68.40611360078336" lon="15.79981767585386" id="-16304">
=======
	<node id="-183388" lat="68.4048472192" lon="15.9857527824">
		<tag k="name" v="Lødingssjøen" />
		<tag k="place" v="quarter" />
		<tag k="ssr:stedsnr" v="507667" />
	</node>
	<node id="-183209" lat="68.3381333317" lon="15.6679722212">
		<tag k="name" v="Langseth" />
		<tag k="place" v="farm" />
		<tag k="ssr:stedsnr" v="464736" />
	</node>
	<node id="-183322" lat="68.4209579078" lon="15.392154002">
		<tag k="alt_name" v="Limskjelvik" />
>>>>>>> e1d4bc35ff8a6074a6f2e91616a996b547c36f15
		<tag k="fixme" v="consider place=hamlet" />
		<tag k="name" v="Svensgam - Sveangápma" />
		<tag k="name:no" v="Svensgam" />
		<tag k="name:se" v="Sveangápma" />
		<tag k="place" v="farm" />
		<tag k="ssr:stedsnr" v="745301" />
	</node>
<<<<<<< HEAD
	<node lat="68.38845277979945" lon="15.385983332396899" id="-16307">
		<tag k="name" v="Berget" />
		<tag k="place" v="farm" />
		<tag k="ssr:stedsnr" v="745851" />
	</node>
	<node lat="68.38982500060139" lon="15.3895583312465" id="-16308">
		<tag k="name" v="Skogstrand" />
		<tag k="place" v="farm" />
		<tag k="ssr:stedsnr" v="745853" />
	</node>
	<node lat="68.39188333204201" lon="15.395555564068347" id="-16309">
		<tag k="name" v="Myrvang" />
		<tag k="place" v="farm" />
		<tag k="ssr:stedsnr" v="745854" />
	</node>
	<node lat="68.35623749377172" lon="15.334986370036159" id="-16312">
		<tag k="fixme" v="consider place=hamlet" />
		<tag k="name" v="Øksnes" />
		<tag k="place" v="farm" />
		<tag k="ssr:stedsnr" v="745993" />
	</node>
	<node lat="68.37391666393948" lon="15.753419447710549" id="-16363">
		<tag k="name" v="Toften" />
=======
	<node id="-183471" lat="68.344308334" lon="15.513969439">
		<tag k="name" v="Dalen" />
		<tag k="place" v="farm" />
		<tag k="ssr:stedsnr" v="689596" />
	</node>
	<node id="-183129" lat="68.4394888905" lon="16.0043388979">
		<tag k="name" v="Nyheim" />
		<tag k="place" v="farm" />
		<tag k="ssr:stedsnr" v="450766" />
	</node>
	<node id="-183470" lat="68.3335500032" lon="15.5312277887">
		<tag k="name" v="Borgarvika" />
		<tag k="place" v="farm" />
		<tag k="ssr:stedsnr" v="689595" />
	</node>
	<node id="-183299" lat="68.4122305544" lon="16.0023861046">
		<tag k="name" v="Melkebukta" />
		<tag k="place" v="quarter" />
		<tag k="ssr:stedsnr" v="507581" />
	</node>
	<node id="-183309" lat="68.5179472232" lon="15.8773250042">
		<tag k="name" v="Kanstadbotn" />
		<tag k="place" v="farm" />
		<tag k="ssr:stedsnr" v="405964" />
	</node>
	<node id="-184324" lat="68.3649000006" lon="15.714913884">
		<tag k="alt_name" v="Sletten" />
		<tag k="name" v="Sletta" />
>>>>>>> e1d4bc35ff8a6074a6f2e91616a996b547c36f15
		<tag k="place" v="farm" />
		<tag k="ssr:stedsnr" v="767662" />
	</node>
<<<<<<< HEAD
	<node lat="68.38494444569163" lon="15.87250278949754" id="-16387">
		<tag k="alt_name" v="Buktvik" />
		<tag k="name" v="Buktvika" />
=======
	<node id="-184323" lat="68.3453416714" lon="15.6843083249">
		<tag k="alt_name" v="Lyngmo" />
		<tag k="name" v="Lyngmoen" />
>>>>>>> e1d4bc35ff8a6074a6f2e91616a996b547c36f15
		<tag k="place" v="farm" />
		<tag k="ssr:stedsnr" v="806304" />
	</node>
<<<<<<< HEAD
	<node lat="68.39750278059007" lon="15.92217778219422" id="-16389">
		<tag k="name" v="Øygård" />
		<tag k="place" v="isolated_dwelling" />
		<tag k="ssr:stedsnr" v="806312" />
	</node>
	<node lat="68.4700611148686" lon="15.547647220867573" id="-16399">
		<tag k="name" v="Rørneset" />
		<tag k="place" v="isolated_dwelling" />
		<tag k="ssr:stedsnr" v="806772" />
	</node>
	<node lat="68.31743333147826" lon="15.653952787734756" id="-16406">
		<tag k="alt_name" v="Stranda" />
		<tag k="name" v="Skarpstrand" />
		<tag k="place" v="farm" />
		<tag k="ssr:stedsnr" v="806352" />
	</node>
	<node lat="68.34083888531313" lon="15.66851389089431" id="-16407">
		<tag k="alt_name" v="Flåten" />
		<tag k="name" v="Flåta" />
		<tag k="place" v="isolated_dwelling" />
		<tag k="ssr:stedsnr" v="806325" />
	</node>
	<node lat="68.33961944269818" lon="15.662213880758461" id="-16408">
		<tag k="name" v="Elvan" />
		<tag k="place" v="farm" />
		<tag k="ssr:stedsnr" v="806326" />
	</node>
	<node lat="68.41535277368128" lon="15.989019449426584" id="-16432">
		<tag k="name" v="Vika" />
		<tag k="place" v="quarter" />
		<tag k="ssr:stedsnr" v="810663" />
	</node>
	<node lat="68.4681054233974" lon="15.89383981690241" id="-16514">
		<tag k="alt_name:no" v="Kanstad, austre;Kanstad østre" />
		<tag k="fixme" v="consider place=hamlet" />
		<tag k="loc_name:se" v="Gánas" />
		<tag k="name" v="Austre Kanstad" />
		<tag k="name:no" v="Austre Kanstad" />
		<tag k="place" v="village" />
		<tag k="ssr:stedsnr" v="867198" />
	</node>
	<node lat="68.31550555483672" lon="15.66093055894306" id="-16526">
		<tag k="name" v="Vika" />
		<tag k="place" v="farm" />
		<tag k="ssr:stedsnr" v="867367" />
	</node>
	<node lat="68.52055000152575" lon="15.870033327031289" id="-16534">
		<tag k="alt_name" v="Eidisheimen" />
		<tag k="name" v="Eidesheimen" />
		<tag k="place" v="isolated_dwelling" />
		<tag k="ssr:stedsnr" v="867795" />
	</node>
	<node lat="68.34632222454366" lon="15.354355562183786" id="-16536">
		<tag k="alt_name" v="Kålsvik" />
		<tag k="name" v="Kolsvik" />
		<tag k="place" v="isolated_dwelling" />
		<tag k="ssr:stedsnr" v="867968" />
	</node>
	<node lat="68.34726944753241" lon="15.510188882703716" id="-16537">
		<tag k="fixme" v="consider place=hamlet" />
		<tag k="loc_name:se" v="Vuogak;Voagak" />
		<tag k="name" v="Vestbygda" />
		<tag k="name:no" v="Vestbygda" />
		<tag k="place" v="village" />
		<tag k="ssr:stedsnr" v="870562" />
	</node>
	<node lat="68.41321666397369" lon="15.996455546932756" id="-16538">
		<tag k="name" v="Hamnbakken" />
		<tag k="place" v="quarter" />
		<tag k="ssr:stedsnr" v="871550" />
	</node>
	<node lat="68.4064638877467" lon="15.989033322206382" id="-16539">
		<tag k="name" v="Klokkerjordet" />
		<tag k="place" v="quarter" />
		<tag k="ssr:stedsnr" v="871551" />
	</node>
	<node lat="68.46188333074167" lon="16.033452788268253" id="-16552">
		<tag k="name" v="Solstad" />
		<tag k="place" v="farm" />
		<tag k="ssr:stedsnr" v="874739" />
	</node>
	<node lat="68.41416324580473" lon="15.832019175513263" id="-16614">
		<tag k="fixme" v="consider place=hamlet" />
		<tag k="name" v="Erikstad - Erstá" />
		<tag k="name:no" v="Erikstad" />
		<tag k="name:se" v="Erstá" />
		<tag k="place" v="farm" />
		<tag k="ssr:stedsnr" v="989384" />
	</node>
	<node lat="68.42607453752049" lon="15.838034146952106" id="-16615">
		<tag k="name" v="Erikstad" />
		<tag k="place" v="farm" />
		<tag k="ssr:stedsnr" v="989405" />
	</node>
	<node lat="68.41289572698089" lon="15.834430396777313" id="-16616">
		<tag k="name" v="Erikstad" />
		<tag k="place" v="farm" />
		<tag k="ssr:stedsnr" v="989406" />
	</node>
	<node lat="68.4186110239683" lon="15.82477658644877" id="-16617">
		<tag k="name" v="Erikstad" />
		<tag k="place" v="farm" />
		<tag k="ssr:stedsnr" v="989407" />
	</node>
	<node lat="68.41236024680997" lon="15.833848650328939" id="-16618">
		<tag k="name" v="Erikstad" />
		<tag k="place" v="farm" />
		<tag k="ssr:stedsnr" v="989408" />
	</node>
	<node lat="68.4661847895138" lon="15.888485808148154" id="-16619">
		<tag k="name" v="Kanstad - Gánas" />
		<tag k="name:no" v="Kanstad" />
		<tag k="name:se" v="Gánas" />
		<tag k="place" v="hamlet" />
		<tag k="ssr:stedsnr" v="989409" />
	</node>
	<node lat="68.49520795742036" lon="16.094060570040927" id="-16623">
		<tag k="name" v="Djupfest" />
		<tag k="place" v="farm" />
		<tag k="ssr:stedsnr" v="1073150" />
	</node>
	<node lat="68.37141146893832" lon="15.238283464642576" id="-16627">
		<tag k="fixme" v="consider place=hamlet" />
		<tag k="name" v="Kvannkjosen" />
		<tag k="place" v="farm" />
		<tag k="ssr:stedsnr" v="1076395" />
	</node>
	<node lat="68.40067655073597" lon="15.347219977449097" id="-16628">
		<tag k="fixme" v="consider place=hamlet" />
		<tag k="name" v="Svartskaret" />
		<tag k="place" v="farm" />
		<tag k="ssr:stedsnr" v="1076397" />
	</node>
	<node lat="68.4559884031643" lon="15.488920606965127" id="-16629">
		<tag k="fixme" v="consider place=hamlet" />
		<tag k="name" v="Sommarset" />
		<tag k="place" v="farm" />
		<tag k="ssr:stedsnr" v="1076398" />
	</node>
	<node lat="68.41229281940561" lon="15.973234140296322" id="-16630">
		<tag k="fixme" v="consider place=hamlet" />
		<tag k="name" v="Lødingen - Lodegak" />
		<tag k="name:no" v="Lødingen" />
		<tag k="name:se" v="Lodegak" />
		<tag k="place" v="farm" />
		<tag k="ssr:stedsnr" v="1076423" />
	</node>
	<node lat="68.51570054557709" lon="16.10704049717003" id="-16631">
		<tag k="alt_name" v="Fiskøy" />
		<tag k="fixme" v="consider place=hamlet" />
		<tag k="name" v="Fiskøya" />
		<tag k="place" v="farm" />
		<tag k="ssr:stedsnr" v="1076426" />
	</node>
	<node lat="68.41379144554256" lon="15.832747698153582" id="-16646">
		<tag k="name" v="Bakken" />
		<tag k="place" v="farm" />
		<tag k="ssr:stedsnr" v="1081896" />
	</node>
=======
	<node id="-183298" lat="68.416819443" lon="15.981902786">
		<tag k="name" v="Hamndalen" />
		<tag k="place" v="quarter" />
		<tag k="ssr:stedsnr" v="507580" />
	</node>
>>>>>>> e1d4bc35ff8a6074a6f2e91616a996b547c36f15
</osm>
