<?xml version="1.0" encoding="UTF-8"?>
<osm version="0.6" generator="osmapis">
	<node lat="68.40970555703072" lon="15.27377778113797" id="-15270">
		<tag k="name" v="Langvatnet" />
		<tag k="natural" v="water" />
		<tag k="ssr:stedsnr" v="17867" />
	</node>
	<node lat="68.34604444582018" lon="15.6090222262338" id="-15273">
		<tag k="name" v="Hegstadvatnet" />
		<tag k="natural" v="water" />
		<tag k="ssr:stedsnr" v="17965" />
	</node>
	<node lat="68.39458888556086" lon="15.30982777488414" id="-15284">
		<tag k="name" v="Stuvbekken" />
		<tag k="ssr:stedsnr" v="28577" />
		<tag k="waterway" v="stream" />
	</node>
	<node lat="68.40862500016196" lon="15.315813880298458" id="-15287">
		<tag k="name" v="Tverrdalselva" />
		<tag k="ssr:stedsnr" v="28601" />
		<tag k="waterway" v="river" />
	</node>
	<node lat="68.37902777786631" lon="15.2757777892605" id="-15309">
		<tag k="name" v="Vassosen" />
		<tag k="natural" v="bay" />
		<tag k="ssr:stedsnr" v="77812" />
	</node>
	<node lat="68.38384722281582" lon="15.273447228822693" id="-15310">
		<tag k="name" v="Vassosvatnet" />
		<tag k="natural" v="water" />
		<tag k="ssr:stedsnr" v="77813" />
	</node>
	<node lat="68.37759444229803" lon="15.471594442694721" id="-15312">
		<tag k="name" v="Lamåsvatnet" />
		<tag k="natural" v="water" />
		<tag k="ssr:stedsnr" v="77925" />
	</node>
	<node lat="68.44421666786509" lon="15.996511108210447" id="-15317">
		<tag k="alt_name" v="Grønelva" />
		<tag k="name" v="Grønnelva" />
		<tag k="ssr:stedsnr" v="78246" />
		<tag k="waterway" v="stream" />
	</node>
	<node lat="68.42790000075517" lon="15.976780552553969" id="-15320">
		<tag k="name" v="Klokkarelvvatnet" />
		<tag k="natural" v="water" />
		<tag k="ssr:stedsnr" v="78259" />
	</node>
	<node lat="68.42939999944187" lon="15.437511117148397" id="-15342">
		<tag k="name" v="Olderelva" />
		<tag k="ssr:stedsnr" v="88208" />
		<tag k="waterway" v="river" />
	</node>
	<node lat="68.42771944350989" lon="15.385922226065393" id="-15352">
		<tag k="name" v="Forselva" />
		<tag k="ssr:stedsnr" v="88870" />
		<tag k="waterway" v="stream" />
	</node>
	<node lat="68.40297221991908" lon="15.724316664523318" id="-15358">
		<tag k="name" v="Slåttjønna" />
		<tag k="natural" v="water" />
		<tag k="ssr:stedsnr" v="100614" />
		<tag k="water" v="lake" />
	</node>
	<node lat="68.36274444591216" lon="15.371622218901535" id="-15373">
		<tag k="name" v="Trollvatnet" />
		<tag k="natural" v="water" />
		<tag k="ssr:stedsnr" v="138900" />
	</node>
	<node lat="68.44277500181981" lon="15.430199999915168" id="-15375">
		<tag k="name" v="Vasskrunvatnet" />
		<tag k="natural" v="water" />
		<tag k="ssr:stedsnr" v="138792" />
	</node>
	<node lat="68.36676111502584" lon="15.41808888960545" id="-15378">
		<tag k="name" v="Saltvatnet" />
		<tag k="natural" v="water" />
		<tag k="ssr:stedsnr" v="138907" />
		<tag k="water" v="lake" />
	</node>
	<node lat="68.52017222487963" lon="16.087677779534392" id="-15383">
		<tag k="name" v="Heggelva" />
		<tag k="ssr:stedsnr" v="148162" />
		<tag k="waterway" v="river" />
	</node>
	<node lat="68.39746666793876" lon="15.282516673633884" id="-15392">
		<tag k="name" v="Daumannstjønnene" />
		<tag k="natural" v="water" />
		<tag k="ssr:stedsnr" v="149955" />
	</node>
	<node lat="68.32709721990467" lon="15.651027775167766" id="-15400">
		<tag k="alt_name" v="Fenosen" />
		<tag k="name" v="Fenesosen" />
		<tag k="natural" v="bay" />
		<tag k="ssr:stedsnr" v="259351" />
	</node>
	<node lat="68.47945277775987" lon="15.492258339787814" id="-15410">
		<tag k="name" v="Lakselva" />
		<tag k="ssr:stedsnr" v="260076" />
		<tag k="waterway" v="river" />
	</node>
	<node lat="68.48476389237007" lon="15.740449996335446" id="-15412">
		<tag k="alt_name" v="Stordalsvatnet, nedre" />
		<tag k="name" v="Nedre Stordalsvatnet" />
		<tag k="natural" v="water" />
		<tag k="ssr:stedsnr" v="260178" />
		<tag k="water" v="lake" />
	</node>
	<node lat="68.47808332990525" lon="15.748752780786583" id="-15414">
		<tag k="name" v="Mellomvatnet" />
		<tag k="natural" v="water" />
		<tag k="ssr:stedsnr" v="260189" />
	</node>
	<node lat="68.47878055275419" lon="16.06114722263436" id="-15415">
		<tag k="name" v="Vassbotnvatnet" />
		<tag k="natural" v="water" />
		<tag k="ssr:stedsnr" v="260198" />
	</node>
	<node lat="68.51174444038867" lon="15.47978332971466" id="-15417">
		<tag k="alt_name" v="Møysalvatnet, nedre" />
		<tag k="name" v="Nedre Møysalvatnet" />
		<tag k="natural" v="water" />
		<tag k="ssr:stedsnr" v="260423" />
		<tag k="water" v="lake" />
	</node>
	<node lat="68.45216944038819" lon="15.446827769701505" id="-15423">
		<tag k="name" v="Fjellvatnet" />
		<tag k="natural" v="water" />
		<tag k="ssr:stedsnr" v="260835" />
	</node>
	<node lat="68.50456666427515" lon="15.915188897630106" id="-15424">
		<tag k="alt_name" v="Kobbdalselva" />
		<tag k="name" v="Kobbedalsbekken" />
		<tag k="ssr:stedsnr" v="260842" />
		<tag k="waterway" v="stream" />
	</node>
	<node lat="68.40430833218814" lon="15.467277769040935" id="-15425">
		<tag k="name" v="Dypingsvatnet" />
		<tag k="natural" v="water" />
		<tag k="ssr:stedsnr" v="260881" />
	</node>
	<node lat="68.40706619070217" lon="15.98317560622931" id="-15428">
		<tag k="name" v="Prestegårdsbekken" />
		<tag k="ssr:stedsnr" v="264571" />
		<tag k="waterway" v="stream" />
	</node>
	<node lat="68.51475833175662" lon="15.641183340882703" id="-15443">
		<tag k="name" v="Austpollvatnet" />
		<tag k="natural" v="water" />
		<tag k="ssr:stedsnr" v="199802" />
	</node>
	<node lat="68.36618610973622" lon="15.384147212561102" id="-15448">
		<tag k="alt_name" v="Kjøtjørna" />
		<tag k="name" v="Kjøtjønna" />
		<tag k="natural" v="water" />
		<tag k="ssr:stedsnr" v="199912" />
	</node>
	<node lat="68.49935278015998" lon="16.091350007701834" id="-15468">
		<tag k="name" v="Hyselva" />
		<tag k="ssr:stedsnr" v="268929" />
		<tag k="waterway" v="stream" />
	</node>
	<node lat="68.49725555292238" lon="16.038980562896167" id="-15469">
		<tag k="name" v="Tindvatnet" />
		<tag k="natural" v="water" />
		<tag k="ssr:stedsnr" v="268937" />
		<tag k="water" v="lake" />
	</node>
	<node lat="68.45189444498207" lon="15.536327780033714" id="-15475">
		<tag k="name" v="Lomtjønna" />
		<tag k="natural" v="water" />
		<tag k="ssr:stedsnr" v="210254" />
	</node>
	<node lat="68.31735555581359" lon="15.27790556257036" id="-15481">
		<tag k="name" v="Selsøyvatnet" />
		<tag k="natural" v="water" />
		<tag k="ssr:stedsnr" v="210709" />
	</node>
	<node lat="68.4074694476389" lon="15.334033331688063" id="-15483">
		<tag k="name" v="Småtjønnene" />
		<tag k="natural" v="water" />
		<tag k="ssr:stedsnr" v="210874" />
	</node>
	<node lat="68.49778055577556" lon="15.560219446518097" id="-15488">
		<tag k="name" v="Sandelva" />
		<tag k="ssr:stedsnr" v="270168" />
		<tag k="waterway" v="river" />
	</node>
	<node lat="68.45490832947844" lon="15.479058339067059" id="-15490">
		<tag k="name" v="Sommarsetelva" />
		<tag k="ssr:stedsnr" v="270213" />
		<tag k="waterway" v="stream" />
	</node>
	<node lat="68.40380833540895" lon="15.34927777786437" id="-15500">
		<tag k="name" v="Pollvatnet" />
		<tag k="natural" v="water" />
		<tag k="ssr:stedsnr" v="270818" />
	</node>
	<node lat="68.46544444556719" lon="15.911666668074716" id="-15510">
		<tag k="name" v="Gårdselva" />
		<tag k="ssr:stedsnr" v="223607" />
		<tag k="waterway" v="stream" />
	</node>
	<node lat="68.52548055717861" lon="16.06750000771811" id="-15517">
		<tag k="name" v="Nedste Raskardalsvatnet" />
		<tag k="natural" v="water" />
		<tag k="ssr:stedsnr" v="451193" />
		<tag k="water" v="lake" />
	</node>
	<node lat="68.45351944350082" lon="15.511566661966313" id="-15525">
		<tag k="name" v="Leirholmen" />
		<tag k="place" v="islet" />
		<tag k="ssr:stedsnr" v="452200" />
	</node>
	<node lat="68.47332499894716" lon="16.013499987915424" id="-15555">
		<tag k="alt_name" v="Skjeringsdalselva" />
		<tag k="name" v="Skjerdingsdalselva" />
		<tag k="ssr:stedsnr" v="260200" />
		<tag k="waterway" v="river" />
	</node>
	<node lat="68.41074722289756" lon="15.602427778175272" id="-15560">
		<tag k="name" v="Trollkjellvatnet" />
		<tag k="natural" v="water" />
		<tag k="ssr:stedsnr" v="260904" />
	</node>
	<node lat="68.55861388707797" lon="15.985769431827888" id="-15561">
		<tag k="name" v="Midtre Kvitelvvatnet - Gaska Vearkkajávri" />
		<tag k="name:no" v="Midtre Kvitelvvatnet" />
		<tag k="name:se" v="Gaska Vearkkajávri" />
		<tag k="natural" v="water" />
		<tag k="ssr:stedsnr" v="260907" />
		<tag k="water" v="lake" />
	</node>
	<node lat="68.36403888654633" lon="15.420227778278747" id="-15574">
		<tag k="name" v="Austpollneset" />
		<tag k="natural" v="cape" />
		<tag k="ssr:stedsnr" v="267840" />
	</node>
	<node lat="68.37254444830705" lon="15.253016655817982" id="-15579">
		<tag k="name" v="Lomtjønna" />
		<tag k="natural" v="water" />
		<tag k="ssr:stedsnr" v="270880" />
	</node>
	<node lat="68.4498611097485" lon="15.667288890699464" id="-15615">
		<tag k="name" v="Bukketindvatnet" />
		<tag k="natural" v="water" />
		<tag k="ssr:stedsnr" v="320187" />
		<tag k="water" v="lake" />
	</node>
	<node lat="68.4521277784987" lon="15.602991662481443" id="-15626">
		<tag k="name" v="Husjordvatnet" />
		<tag k="natural" v="water" />
		<tag k="ssr:stedsnr" v="320814" />
		<tag k="water" v="lake" />
	</node>
	<node lat="68.45835833400922" lon="15.47564165798863" id="-15628">
		<tag k="name" v="Gardsvatnet" />
		<tag k="natural" v="water" />
		<tag k="ssr:stedsnr" v="320709" />
	</node>
	<node lat="68.3731499961084" lon="15.468116656370634" id="-15630">
		<tag k="name" v="Bursvatnet" />
		<tag k="natural" v="water" />
		<tag k="ssr:stedsnr" v="320915" />
	</node>
	<node lat="68.46067222588944" lon="16.027955549279216" id="-15646">
		<tag k="name" v="Slåttdalselva" />
		<tag k="ssr:stedsnr" v="327525" />
		<tag k="waterway" v="river" />
	</node>
	<node lat="68.4592500034078" lon="15.972061103779543" id="-15666">
		<tag k="name" v="Tordisvatnet" />
		<tag k="natural" v="water" />
		<tag k="ssr:stedsnr" v="380171" />
	</node>
	<node lat="68.41131667146456" lon="15.922472215190213" id="-15668">
		<tag k="name" v="Øygårdsvatnet" />
		<tag k="natural" v="water" />
		<tag k="ssr:stedsnr" v="380269" />
	</node>
	<node lat="68.48198889022768" lon="15.900677787928405" id="-15670">
		<tag k="name" v="Engelielva" />
		<tag k="ssr:stedsnr" v="381162" />
		<tag k="waterway" v="stream" />
	</node>
	<node lat="68.51689444434864" lon="16.061030552749084" id="-15677">
		<tag k="name" v="Heggvatnet" />
		<tag k="natural" v="water" />
		<tag k="ssr:stedsnr" v="381807" />
	</node>
	<node lat="68.5234611089097" lon="15.814880548242371" id="-15678">
		<tag k="name" v="Springarbekken" />
		<tag k="ssr:stedsnr" v="381816" />
		<tag k="waterway" v="stream" />
	</node>
	<node lat="68.39440277494113" lon="15.448252773522341" id="-15679">
		<tag k="name" v="Jensvatnet" />
		<tag k="natural" v="water" />
		<tag k="ssr:stedsnr" v="381858" />
	</node>
	<node lat="68.45015555192579" lon="16.007141664757842" id="-15691">
		<tag k="name" v="Gårdselva" />
		<tag k="ssr:stedsnr" v="388474" />
		<tag k="waterway" v="river" />
	</node>
	<node lat="68.45954722536486" lon="15.504147226492272" id="-15696">
		<tag k="name" v="Straumneset" />
		<tag k="natural" v="cape" />
		<tag k="ssr:stedsnr" v="391205" />
	</node>
	<node lat="68.44147778084864" lon="15.524733344623158" id="-15697">
		<tag k="name" v="Bjørnelva" />
		<tag k="ssr:stedsnr" v="391242" />
		<tag k="waterway" v="river" />
	</node>
	<node lat="68.3957555580479" lon="15.6899750097684" id="-15731">
		<tag k="name" v="Slettfjellvatnan" />
		<tag k="natural" v="water" />
		<tag k="ssr:stedsnr" v="442304" />
	</node>
	<node lat="68.5383750025783" lon="15.911819437317217" id="-15733">
		<tag k="name" v="Heggdalselva - Heargeváhjohka" />
		<tag k="name:no" v="Heggdalselva" />
		<tag k="name:se" v="Heargeváhjohka" />
		<tag k="ssr:stedsnr" v="442792" />
		<tag k="waterway" v="river" />
	</node>
	<node lat="68.51717221920316" lon="16.116811103541693" id="-15735">
		<tag k="name" v="Breiosen" />
		<tag k="natural" v="bay" />
		<tag k="ssr:stedsnr" v="442806" />
	</node>
	<node lat="68.4360527799261" lon="15.762783335441988" id="-15741">
		<tag k="name" v="Vollelva" />
		<tag k="ssr:stedsnr" v="447611" />
		<tag k="waterway" v="stream" />
	</node>
	<node lat="68.5533027765638" lon="15.990636098555761" id="-15746">
		<tag k="name" v="Øvste Kvitelvvatnet - Badje-Vearkkajávri" />
		<tag k="name:no" v="Øvste Kvitelvvatnet" />
		<tag k="name:se" v="Badje-Vearkkajávri" />
		<tag k="natural" v="water" />
		<tag k="ssr:stedsnr" v="452102" />
		<tag k="water" v="lake" />
	</node>
	<node lat="68.4493638898428" lon="15.532941678337048" id="-15753">
		<tag k="name" v="Trolldalselva" />
		<tag k="ssr:stedsnr" v="452221" />
		<tag k="waterway" v="river" />
	</node>
	<node lat="68.37702222468062" lon="15.236744440193794" id="-15762">
		<tag k="name" v="Mølnelva" />
		<tag k="ssr:stedsnr" v="453966" />
		<tag k="waterway" v="stream" />
	</node>
	<node lat="68.41855833506496" lon="15.949180567016171" id="-15775">
		<tag k="name" v="Hamndalselva" />
		<tag k="ssr:stedsnr" v="502224" />
		<tag k="waterway" v="stream" />
	</node>
	<node lat="68.45073333621679" lon="16.00129165483091" id="-15780">
		<tag k="alt_name" v="Litlevatnet" />
		<tag k="name" v="Lillevatnet" />
		<tag k="natural" v="water" />
		<tag k="ssr:stedsnr" v="502180" />
	</node>
	<node lat="68.34690832993736" lon="15.649163880153361" id="-15782">
		<tag k="name" v="Ytterstadelva" />
		<tag k="ssr:stedsnr" v="502326" />
		<tag k="waterway" v="stream" />
	</node>
	<node lat="68.43167222662072" lon="15.57900277417397" id="-15785">
		<tag k="name" v="Kvasstindvatnet" />
		<tag k="natural" v="water" />
		<tag k="ssr:stedsnr" v="502781" />
		<tag k="water" v="lake" />
	</node>
	<node lat="68.34924167080912" lon="15.3397555534019" id="-15790">
		<tag k="name" v="Gjevikosen" />
		<tag k="natural" v="bay" />
		<tag k="ssr:stedsnr" v="502995" />
	</node>
	<node lat="68.35906666573456" lon="15.59493610260222" id="-15791">
		<tag k="name" v="Småvatnan" />
		<tag k="natural" v="water" />
		<tag k="ssr:stedsnr" v="502886" />
		<tag k="water" v="lake" />
	</node>
	<node lat="68.52894444217729" lon="15.884900009584127" id="-15800">
		<tag k="name" v="Storforsen" />
		<tag k="natural" v="waterfall" />
		<tag k="ssr:stedsnr" v="513130" />
	</node>
	<node lat="68.46425833130186" lon="15.778763883748859" id="-15821">
		<tag k="name" v="Strandelva" />
		<tag k="ssr:stedsnr" v="684179" />
		<tag k="waterway" v="stream" />
	</node>
	<node lat="68.43885555516528" lon="15.991141666445326" id="-15826">
		<tag k="name" v="Arendalsvatnet" />
		<tag k="natural" v="water" />
		<tag k="ssr:stedsnr" v="684228" />
	</node>
	<node lat="68.37548055577831" lon="15.390844447441514" id="-15839">
		<tag k="name" v="Langvatnet" />
		<tag k="natural" v="water" />
		<tag k="ssr:stedsnr" v="684929" />
	</node>
	<node lat="68.37530277535701" lon="15.37822221106275" id="-15841">
		<tag k="name" v="Pollvatnet" />
		<tag k="natural" v="water" />
		<tag k="ssr:stedsnr" v="684932" />
	</node>
	<node lat="68.52603055403779" lon="15.825238896007079" id="-15851">
		<tag k="name" v="Austerdalselva" />
		<tag k="ssr:stedsnr" v="685179" />
		<tag k="waterway" v="river" />
	</node>
	<node lat="68.51730000391478" lon="15.565833332404424" id="-15852">
		<tag k="name" v="Storelva" />
		<tag k="ssr:stedsnr" v="685370" />
		<tag k="waterway" v="stream" />
	</node>
	<node lat="68.5282722261337" lon="15.420605560883219" id="-15853">
		<tag k="alt_name" v="Møysalvatnet, øvre" />
		<tag k="name" v="Øvre Møysalvatnet" />
		<tag k="natural" v="water" />
		<tag k="ssr:stedsnr" v="685371" />
		<tag k="water" v="lake" />
	</node>
	<node lat="68.39561666901854" lon="15.30479443707291" id="-15862">
		<tag k="name" v="Stuvvatnet" />
		<tag k="natural" v="water" />
		<tag k="ssr:stedsnr" v="685837" />
	</node>
	<node lat="68.43864166985767" lon="15.995377786783658" id="-15872">
		<tag k="name" v="Arendalselva" />
		<tag k="ssr:stedsnr" v="692752" />
		<tag k="waterway" v="river" />
	</node>
	<node lat="68.3638361069277" lon="15.423886118038913" id="-15873">
		<tag k="name" v="Austpollen" />
		<tag k="natural" v="bay" />
		<tag k="ssr:stedsnr" v="692833" />
	</node>
	<node lat="68.51461666776805" lon="16.106047223439063" id="-15884">
		<tag k="name" v="Osen" />
		<tag k="natural" v="bay" />
		<tag k="ssr:stedsnr" v="570117" />
	</node>
	<node lat="68.52717222060987" lon="16.05627776652071" id="-15889">
		<tag k="name" v="Øvste Raskardalsvatnet" />
		<tag k="natural" v="water" />
		<tag k="ssr:stedsnr" v="572201" />
		<tag k="water" v="lake" />
	</node>
	<node lat="68.36201666250965" lon="15.239219442621101" id="-15893">
		<tag k="name" v="Vassvegelva" />
		<tag k="ssr:stedsnr" v="573596" />
		<tag k="waterway" v="stream" />
	</node>
	<node lat="68.35883889064083" lon="15.210172234543982" id="-15895">
		<tag k="name" v="Olderbekken" />
		<tag k="ssr:stedsnr" v="573497" />
		<tag k="waterway" v="stream" />
	</node>
	<node lat="68.52744722586415" lon="16.08480277379227" id="-15896">
		<tag k="name" v="Raskardalselva" />
		<tag k="ssr:stedsnr" v="694157" />
		<tag k="waterway" v="stream" />
	</node>
	<node lat="68.40001666821058" lon="15.283699997542453" id="-15915">
		<tag k="name" v="Anedalen" />
		<tag k="place" v="locality" />
		<tag k="ssr:stedsnr" v="695951" />
	</node>
	<node lat="68.37495832944144" lon="15.517519441845605" id="-15919">
		<tag k="name" v="Lomtjønna" />
		<tag k="natural" v="water" />
		<tag k="ssr:stedsnr" v="586351" />
	</node>
	<node lat="68.4520500022797" lon="15.742330556120619" id="-15926">
		<tag k="alt_name" v="Kobbnesvatnet, øvre" />
		<tag k="name" v="Øvre Kobbnesvatnet" />
		<tag k="natural" v="water" />
		<tag k="ssr:stedsnr" v="623204" />
	</node>
	<node lat="68.4499999983731" lon="15.747283325886075" id="-15927">
		<tag k="alt_name" v="Kobbnesvatnet, nedre" />
		<tag k="name" v="Nedre Kobbnesvatnet" />
		<tag k="natural" v="water" />
		<tag k="ssr:stedsnr" v="623207" />
	</node>
	<node lat="68.45184444019146" lon="15.972019449024552" id="-15929">
		<tag k="name" v="Gudrunvatnet" />
		<tag k="natural" v="water" />
		<tag k="ssr:stedsnr" v="623211" />
	</node>
	<node lat="68.45085277604345" lon="15.994630549457252" id="-15930">
		<tag k="loc_name" v="Øvervatnet" />
		<tag k="name" v="Øvrevatnet" />
		<tag k="natural" v="water" />
		<tag k="ssr:stedsnr" v="623212" />
	</node>
	<node lat="68.45112500085668" lon="16.01704723313141" id="-15931">
		<tag k="alt_name" v="Kåringosen" />
		<tag k="name" v="Kåringsosen" />
		<tag k="natural" v="bay" />
		<tag k="ssr:stedsnr" v="623213" />
	</node>
	<node lat="68.44363610856769" lon="15.763325002254248" id="-15932">
		<tag k="name" v="Grunnvatnet" />
		<tag k="natural" v="water" />
		<tag k="ssr:stedsnr" v="623219" />
	</node>
	<node lat="68.44302222313141" lon="15.774133339979755" id="-15933">
		<tag k="name" v="Storelva" />
		<tag k="ssr:stedsnr" v="623221" />
		<tag k="waterway" v="stream" />
	</node>
	<node lat="68.4767638926937" lon="15.924897211101603" id="-15937">
		<tag k="name" v="Mølnelva" />
		<tag k="ssr:stedsnr" v="623165" />
		<tag k="waterway" v="stream" />
	</node>
	<node lat="68.40179167009667" lon="15.249966672601321" id="-15941">
		<tag k="name" v="Lomvatnet" />
		<tag k="natural" v="water" />
		<tag k="ssr:stedsnr" v="623863" />
	</node>
	<node lat="68.39855277484324" lon="15.33489445305576" id="-15943">
		<tag k="name" v="Langosen" />
		<tag k="natural" v="bay" />
		<tag k="ssr:stedsnr" v="623869" />
	</node>
	<node lat="68.5115277808642" lon="16.095199995290578" id="-15957">
		<tag k="name" v="Litjelva" />
		<tag k="ssr:stedsnr" v="633198" />
		<tag k="waterway" v="stream" />
	</node>
	<node lat="68.46996944783695" lon="15.479586115124063" id="-15958">
		<tag k="name" v="Hesjebukta" />
		<tag k="natural" v="bay" />
		<tag k="ssr:stedsnr" v="634129" />
	</node>
	<node lat="68.3964777762123" lon="15.508066667034154" id="-15963">
		<tag k="name" v="Botnsanden" />
		<tag k="natural" v="beach" />
		<tag k="ssr:stedsnr" v="634234" />
	</node>
	<node lat="68.44110555684173" lon="15.460802788017753" id="-15971">
		<tag k="name" v="Mølnelva" />
		<tag k="ssr:stedsnr" v="634890" />
		<tag k="waterway" v="stream" />
	</node>
	<node lat="68.37248055575964" lon="15.246263895078343" id="-15975">
		<tag k="name" v="Rydningselva" />
		<tag k="ssr:stedsnr" v="634976" />
		<tag k="waterway" v="stream" />
	</node>
	<node lat="68.47710833453328" lon="16.041844436565647" id="-16006">
		<tag k="name" v="Storvatnet" />
		<tag k="natural" v="water" />
		<tag k="ssr:stedsnr" v="684161" />
	</node>
	<node lat="68.42318055756901" lon="15.815611118564528" id="-16008">
		<tag k="name" v="Erikstadvatnet" />
		<tag k="natural" v="water" />
		<tag k="ssr:stedsnr" v="684252" />
	</node>
	<node lat="68.42464166709334" lon="15.345513880563832" id="-16021">
		<tag k="name" v="Kvanntovatnet" />
		<tag k="natural" v="water" />
		<tag k="ssr:stedsnr" v="684761" />
	</node>
	<node lat="68.32281666732172" lon="15.627591677876493" id="-16033">
		<tag k="name" v="Åfaran" />
		<tag k="natural" v="bay" />
		<tag k="ssr:stedsnr" v="689686" />
	</node>
	<node lat="68.45416388810347" lon="15.872711118749944" id="-16036">
		<tag k="name" v="Røyrvasselva" />
		<tag k="ssr:stedsnr" v="690714" />
		<tag k="waterway" v="stream" />
	</node>
	<node lat="68.564150004033" lon="15.948052767792078" id="-16042">
		<tag k="name" v="Kvitelva" />
		<tag k="ssr:stedsnr" v="695115" />
		<tag k="waterway" v="river" />
	</node>
	<node lat="68.48653611323265" lon="15.619413889780972" id="-16044">
		<tag k="name" v="Austpollelva" />
		<tag k="ssr:stedsnr" v="695184" />
		<tag k="waterway" v="river" />
	</node>
	<node lat="68.42510000210213" lon="15.508930561146311" id="-16046">
		<tag k="name" v="Raphola" />
		<tag k="ssr:stedsnr" v="695212" />
		<tag k="waterway" v="stream" />
	</node>
	<node lat="68.42622222698853" lon="15.360597214230667" id="-16050">
		<tag k="name" v="Kvanntoelva" />
		<tag k="ssr:stedsnr" v="695820" />
		<tag k="waterway" v="river" />
	</node>
	<node lat="68.33327777935402" lon="15.577638898457602" id="-16061">
		<tag k="name" v="Vatnet" />
		<tag k="natural" v="water" />
		<tag k="ssr:stedsnr" v="708332" />
	</node>
	<node lat="68.4464055559062" lon="15.749902773876485" id="-16069">
		<tag k="name" v="Storelvvatnet" />
		<tag k="natural" v="water" />
		<tag k="ssr:stedsnr" v="745228" />
	</node>
	<node lat="68.53893056019302" lon="15.941261103621581" id="-16077">
		<tag k="name" v="Tverrelvvatnet" />
		<tag k="natural" v="water" />
		<tag k="ssr:stedsnr" v="745809" />
	</node>
	<node lat="68.50971388832481" lon="15.882044442340355" id="-16080">
		<tag k="name" v="Pernilsavatnet" />
		<tag k="natural" v="water" />
		<tag k="ssr:stedsnr" v="745824" />
	</node>
	<node lat="68.43655555627572" lon="15.501799996991522" id="-16098">
		<tag k="name" v="Melkarstranda" />
		<tag k="natural" v="bay" />
		<tag k="ssr:stedsnr" v="753608" />
	</node>
	<node lat="68.54209721778012" lon="15.910713894702953" id="-16102">
		<tag k="name" v="Klokkarelva" />
		<tag k="ssr:stedsnr" v="756121" />
		<tag k="waterway" v="river" />
	</node>
	<node lat="68.37010000062605" lon="15.17633054462373" id="-16140">
		<tag k="name" v="Skogjordelva" />
		<tag k="ssr:stedsnr" v="817520" />
		<tag k="waterway" v="stream" />
	</node>
	<node lat="68.32524721800075" lon="15.29173333421164" id="-16144">
		<tag k="name" v="Storvika" />
		<tag k="natural" v="bay" />
		<tag k="ssr:stedsnr" v="817688" />
	</node>
	<node lat="68.38278610778498" lon="15.260255545873596" id="-16145">
		<tag k="name" v="Kvanntoelva" />
		<tag k="ssr:stedsnr" v="817923" />
		<tag k="waterway" v="stream" />
	</node>
	<node lat="68.37309444809856" lon="15.232166669512056" id="-16147">
		<tag k="name" v="Øvergårdselva" />
		<tag k="ssr:stedsnr" v="817970" />
		<tag k="waterway" v="stream" />
	</node>
	<node lat="68.39141388512316" lon="15.706524995662082" id="-16163">
		<tag k="name" v="Kattnesdalsvatnet" />
		<tag k="natural" v="water" />
		<tag k="ssr:stedsnr" v="927320" />
	</node>
	<node lat="68.38734167103713" lon="15.50390833237304" id="-16174">
		<tag k="name" v="Strangvedneset" />
		<tag k="natural" v="cape" />
		<tag k="ssr:stedsnr" v="927837" />
	</node>
	<node lat="68.37732222250278" lon="15.418841671966359" id="-16177">
		<tag k="name" v="Godmarelva" />
		<tag k="ssr:stedsnr" v="927938" />
		<tag k="waterway" v="stream" />
	</node>
	<node lat="68.3583444405977" lon="15.5212222164281" id="-16178">
		<tag k="name" v="Teinelva" />
		<tag k="ssr:stedsnr" v="927889" />
		<tag k="waterway" v="stream" />
	</node>
	<node lat="68.36129999989586" lon="15.606999995042981" id="-16179">
		<tag k="name" v="Trollvatnet" />
		<tag k="natural" v="water" />
		<tag k="ssr:stedsnr" v="927892" />
		<tag k="water" v="lake" />
	</node>
	<node lat="68.5114861099591" lon="15.844633320433053" id="-16186">
		<tag k="name" v="Nattmålselva" />
		<tag k="ssr:stedsnr" v="928770" />
		<tag k="waterway" v="stream" />
	</node>
	<node lat="68.50440000322092" lon="15.63195277789286" id="-16187">
		<tag k="name" v="Austpollelva" />
		<tag k="ssr:stedsnr" v="928777" />
		<tag k="waterway" v="stream" />
	</node>
	<node lat="68.50416667074424" lon="15.972991676120342" id="-16188">
		<tag k="name" v="Trollvatnan" />
		<tag k="natural" v="water" />
		<tag k="ssr:stedsnr" v="928787" />
		<tag k="water" v="lake" />
	</node>
	<node lat="68.36971944041555" lon="15.54970277328481" id="-16195">
		<tag k="name" v="Janslielva" />
		<tag k="ssr:stedsnr" v="932609" />
		<tag k="waterway" v="stream" />
	</node>
	<node lat="68.42180833320822" lon="15.502530554530683" id="-16207">
		<tag k="name" v="Lakshola" />
		<tag k="natural" v="bay" />
		<tag k="ssr:stedsnr" v="877206" />
	</node>
	<node lat="68.41482500126162" lon="15.36051388932607" id="-16217">
		<tag k="name" v="Dalelva" />
		<tag k="ssr:stedsnr" v="877850" />
		<tag k="waterway" v="stream" />
	</node>
	<node lat="68.44634999584524" lon="16.005324996861194" id="-16238">
		<tag k="name" v="Storvollvatnet" />
		<tag k="natural" v="water" />
		<tag k="ssr:stedsnr" v="927211" />
	</node>
	<node lat="68.40408333424595" lon="15.274491669885226" id="-16251">
		<tag k="name" v="Krokvatnet" />
		<tag k="natural" v="water" />
		<tag k="ssr:stedsnr" v="927870" />
	</node>
	<node lat="68.53164722348991" lon="15.907016672982936" id="-16252">
		<tag k="name" v="Tverrelva" />
		<tag k="ssr:stedsnr" v="928164" />
		<tag k="waterway" v="stream" />
	</node>
	<node lat="68.52759722141124" lon="15.881536119049803" id="-16266">
		<tag k="name" v="Litjeforsen" />
		<tag k="natural" v="waterfall" />
		<tag k="ssr:stedsnr" v="938116" />
	</node>
	<node lat="68.47631111273168" lon="16.06039445397113" id="-16285">
		<tag k="alt_name" v="Strandselva" />
		<tag k="name" v="Strandelva" />
		<tag k="ssr:stedsnr" v="17186" />
		<tag k="waterway" v="stream" />
	</node>
	<node lat="68.41938333095321" lon="15.932983334464614" id="-16303">
		<tag k="name" v="Dalvatnan" />
		<tag k="natural" v="water" />
		<tag k="ssr:stedsnr" v="17284" />
		<tag k="water" v="lake" />
	</node>
	<node lat="68.39340555195554" lon="15.885483322041937" id="-16305">
		<tag k="name" v="Nesvatnet" />
		<tag k="natural" v="water" />
		<tag k="ssr:stedsnr" v="17295" />
	</node>
	<node lat="68.50810555382989" lon="15.894358338447502" id="-16323">
		<tag k="name" v="Olderdalselva" />
		<tag k="ssr:stedsnr" v="18722" />
		<tag k="waterway" v="stream" />
	</node>
	<node lat="68.47722222635883" lon="15.570755552299033" id="-16346">
		<tag k="name" v="Hellelva" />
		<tag k="ssr:stedsnr" v="28156" />
		<tag k="waterway" v="river" />
	</node>
	<node lat="68.39406666554461" lon="15.489458335648484" id="-16353">
		<tag k="name" v="Kvannelva" />
		<tag k="ssr:stedsnr" v="28255" />
		<tag k="waterway" v="stream" />
	</node>
	<node lat="68.4077833327875" lon="15.328436106761322" id="-16359">
		<tag k="name" v="Tverrdalelva" />
		<tag k="ssr:stedsnr" v="28878" />
		<tag k="waterway" v="stream" />
	</node>
	<node lat="68.45922499910523" lon="16.010283342009032" id="-16384">
		<tag k="name" v="Slåttdalsvatnet" />
		<tag k="natural" v="water" />
		<tag k="ssr:stedsnr" v="77187" />
	</node>
	<node lat="68.41462499597971" lon="15.805899997950027" id="-16386">
		<tag k="name" v="Mølnelva" />
		<tag k="ssr:stedsnr" v="77276" />
		<tag k="waterway" v="stream" />
	</node>
	<node lat="68.3854472208841" lon="15.613566676712743" id="-16389">
		<tag k="alt_name" v="Sørdalsvatnet, nedre" />
		<tag k="fixme" v="multiple name tags, choose one and add the other to alt_name" />
		<tag k="name" v="Langvatnet;Nedre Sørdalsvatnet" />
		<tag k="natural" v="water" />
		<tag k="ssr:stedsnr" v="77823" />
		<tag k="water" v="lake" />
	</node>
	<node lat="68.3643305553755" lon="15.395319449994902" id="-16391">
		<tag k="alt_name" v="Garsvatnet" />
		<tag k="name" v="Gårdsvatnet" />
		<tag k="natural" v="water" />
		<tag k="ssr:stedsnr" v="77895" />
	</node>
	<node lat="68.46179999916048" lon="15.457480544102701" id="-16402">
		<tag k="name" v="Tverrelva" />
		<tag k="ssr:stedsnr" v="79040" />
		<tag k="waterway" v="stream" />
	</node>
	<node lat="68.46337499714458" lon="15.550608327327598" id="-16404">
		<tag k="name" v="Brynnelslåttelva" />
		<tag k="ssr:stedsnr" v="78713" />
		<tag k="waterway" v="stream" />
	</node>
	<node lat="68.43383333616855" lon="15.408944452912351" id="-16409">
		<tag k="name" v="Bjerknesvatnan" />
		<tag k="natural" v="water" />
		<tag k="ssr:stedsnr" v="78791" />
	</node>
	<node lat="68.40095555324638" lon="15.262572218851595" id="-16410">
		<tag k="name" v="Rundvatnet" />
		<tag k="natural" v="water" />
		<tag k="ssr:stedsnr" v="78863" />
	</node>
	<node lat="68.60575555945856" lon="15.950897227858635" id="-16418">
		<tag k="name" v="Heggedalsvatnan" />
		<tag k="natural" v="water" />
		<tag k="ssr:stedsnr" v="79787" />
		<tag k="water" v="lake" />
	</node>
	<node lat="68.45954166581876" lon="15.736500009020565" id="-16450">
		<tag k="name" v="Lillefjordelva" />
		<tag k="ssr:stedsnr" v="100639" />
		<tag k="waterway" v="river" />
	</node>
	<node lat="68.4588416634269" lon="15.711630544374296" id="-16459">
		<tag k="name" v="Litledalselva" />
		<tag k="ssr:stedsnr" v="137142" />
		<tag k="waterway" v="stream" />
	</node>
	<node lat="68.4723416626063" lon="15.857166669689583" id="-16477">
		<tag k="name" v="Torselva" />
		<tag k="ssr:stedsnr" v="138170" />
		<tag k="waterway" v="stream" />
	</node>
	<node lat="68.39077500338875" lon="15.722174992163273" id="-16481">
		<tag k="name" v="Kattnesdalelva" />
		<tag k="ssr:stedsnr" v="138325" />
		<tag k="waterway" v="stream" />
	</node>
	<node lat="68.52901388707306" lon="16.057341668215372" id="-16485">
		<tag k="name" v="Raskaralsvatnan" />
		<tag k="natural" v="water" />
		<tag k="ssr:stedsnr" v="138783" />
		<tag k="water" v="lake" />
	</node>
	<node lat="68.35569721996816" lon="15.408097230783072" id="-16492">
		<tag k="name" v="Saltvassosen" />
		<tag k="natural" v="bay" />
		<tag k="ssr:stedsnr" v="138989" />
	</node>
	<node lat="68.50278888657037" lon="15.573924991117" id="-16495">
		<tag k="name" v="Vestpollneset" />
		<tag k="natural" v="cape" />
		<tag k="ssr:stedsnr" v="139424" />
	</node>
	<node lat="68.51459999685251" lon="15.96710556000648" id="-16496">
		<tag k="alt_name" v="Kobbedalsvatnet, nedre" />
		<tag k="name" v="Nedre Kobbedalsvatnet" />
		<tag k="natural" v="water" />
		<tag k="ssr:stedsnr" v="139775" />
	</node>
	<node lat="68.36331111062339" lon="15.505363885881088" id="-16501">
		<tag k="name" v="Bresjeelva" />
		<tag k="ssr:stedsnr" v="142638" />
		<tag k="waterway" v="river" />
	</node>
	<node lat="68.41703333005243" lon="15.472961115735705" id="-16526">
		<tag k="name" v="Skavvikelva" />
		<tag k="ssr:stedsnr" v="149232" />
		<tag k="waterway" v="stream" />
	</node>
	<node lat="68.42583611460869" lon="15.496144451198255" id="-16529">
		<tag k="name" v="Skredelva" />
		<tag k="ssr:stedsnr" v="149176" />
		<tag k="waterway" v="stream" />
	</node>
	<node lat="68.43728333237688" lon="15.512772231753313" id="-16530">
		<tag k="name" v="Mølnelva" />
		<tag k="ssr:stedsnr" v="149178" />
		<tag k="waterway" v="stream" />
	</node>
	<node lat="68.36251388602915" lon="15.620958335496363" id="-16558">
		<tag k="name" v="Vestre Tennvatn" />
		<tag k="natural" v="water" />
		<tag k="ssr:stedsnr" v="162375" />
		<tag k="water" v="lake" />
	</node>
	<node lat="68.42030555696135" lon="15.933313877665649" id="-16559">
		<tag k="fixme" v="multiple name tags, choose one and add the other to alt_name" />
		<tag k="name" v="Hyttevatnet;Ytre Hyttevatn" />
		<tag k="natural" v="water" />
		<tag k="ssr:stedsnr" v="162627" />
	</node>
	<node lat="68.4686250007405" lon="15.83861388112355" id="-16571">
		<tag k="name" v="Stormyrbekken" />
		<tag k="ssr:stedsnr" v="199177" />
		<tag k="waterway" v="stream" />
	</node>
	<node lat="68.44182222467951" lon="15.694716671749445" id="-16573">
		<tag k="name" v="Norddalsvatnet" />
		<tag k="natural" v="water" />
		<tag k="ssr:stedsnr" v="199229" />
		<tag k="water" v="lake" />
	</node>
	<node lat="68.44169166980079" lon="15.911661099966857" id="-16574">
		<tag k="name" v="Rørvatnan" />
		<tag k="natural" v="water" />
		<tag k="ssr:stedsnr" v="199234" />
		<tag k="water" v="lake" />
	</node>
	<node lat="68.54998611115549" lon="15.907438877227138" id="-16585">
		<tag k="name" v="Pedervatnet" />
		<tag k="natural" v="water" />
		<tag k="ssr:stedsnr" v="199776" />
	</node>
	<node lat="68.45236388767306" lon="15.45974998813961" id="-16587">
		<tag k="name" v="Fjellelva" />
		<tag k="ssr:stedsnr" v="199817" />
		<tag k="waterway" v="stream" />
	</node>
	<node lat="68.40116666530118" lon="15.444938882840137" id="-16590">
		<tag k="name" v="Trollvatnet" />
		<tag k="natural" v="water" />
		<tag k="ssr:stedsnr" v="199845" />
	</node>
	<node lat="68.36786944714906" lon="15.608902766104352" id="-16591">
		<tag k="name" v="Mellomvatnet" />
		<tag k="natural" v="water" />
		<tag k="ssr:stedsnr" v="199920" />
	</node>
	<node lat="68.44150833235153" lon="15.905850008387286" id="-16600">
		<tag k="name" v="Lomtjørna" />
		<tag k="natural" v="water" />
		<tag k="ssr:stedsnr" v="204633" />
	</node>
	<node lat="68.4665500026755" lon="15.502841657523746" id="-16607">
		<tag k="name" v="Klubbneset" />
		<tag k="natural" v="cape" />
		<tag k="ssr:stedsnr" v="210169" />
	</node>
	<node lat="68.47631667088365" lon="15.529372215266612" id="-16609">
		<tag k="name" v="Sandrapet" />
		<tag k="ssr:stedsnr" v="210183" />
		<tag k="waterway" v="stream" />
	</node>
	<node lat="68.3770083319126" lon="15.224563883002075" id="-16620">
		<tag k="name" v="Grindvikelva" />
		<tag k="ssr:stedsnr" v="210985" />
		<tag k="waterway" v="stream" />
	</node>
	<node lat="68.412822222081" lon="15.330158327002644" id="-16625">
		<tag k="name" v="Svartskarforsen" />
		<tag k="natural" v="waterfall" />
		<tag k="ssr:stedsnr" v="210873" />
	</node>
	<node lat="68.41461389131901" lon="15.365055556181074" id="-16626">
		<tag k="name" v="Straumvatnet" />
		<tag k="natural" v="water" />
		<tag k="ssr:stedsnr" v="210938" />
		<tag k="water" v="lake" />
	</node>
	<node lat="68.48785555844225" lon="15.831091662381544" id="-16639">
		<tag k="name" v="Annfinnskåvatnet" />
		<tag k="natural" v="water" />
		<tag k="ssr:stedsnr" v="283501" />
	</node>
	<node lat="68.44413333146174" lon="15.951858344378435" id="-16650">
		<tag k="name" v="Fjellsendvatnet" />
		<tag k="natural" v="water" />
		<tag k="old_name" v="Kåringsvatnet, øvre;Øvre Kåringsvatnet" />
		<tag k="ssr:stedsnr" v="320227" />
		<tag k="water" v="lake" />
	</node>
	<node lat="68.35101388682567" lon="15.659144449285453" id="-16651">
		<tag k="name" v="Småvatnan" />
		<tag k="natural" v="water" />
		<tag k="ssr:stedsnr" v="320321" />
		<tag k="water" v="lake" />
	</node>
	<node lat="68.47014444440472" lon="15.754719447637168" id="-16652">
		<tag k="name" v="Pettervatnet" />
		<tag k="natural" v="water" />
		<tag k="ssr:stedsnr" v="320158" />
	</node>
	<node lat="68.46379722319027" lon="15.861675009409712" id="-16653">
		<tag k="name" v="Gårdselva" />
		<tag k="ssr:stedsnr" v="320172" />
		<tag k="waterway" v="stream" />
	</node>
	<node lat="68.42815000114504" lon="15.393019445507127" id="-16669">
		<tag k="name" v="Mølnelva" />
		<tag k="ssr:stedsnr" v="320757" />
		<tag k="waterway" v="stream" />
	</node>
	<node lat="68.49459999852229" lon="15.801913897690074" id="-16676">
		<tag k="name" v="Stordalselva" />
		<tag k="ssr:stedsnr" v="321419" />
		<tag k="waterway" v="river" />
	</node>
	<node lat="68.53098888533164" lon="15.8623805451447" id="-16677">
		<tag k="name" v="Eidelva" />
		<tag k="ssr:stedsnr" v="321751" />
		<tag k="waterway" v="river" />
	</node>
	<node lat="68.5564194445748" lon="15.94878055257439" id="-16679">
		<tag k="name" v="Pederholavatnan" />
		<tag k="natural" v="water" />
		<tag k="ssr:stedsnr" v="321842" />
		<tag k="water" v="lake" />
	</node>
	<node lat="68.5024999974642" lon="16.093244443220886" id="-16686">
		<tag k="name" v="Oterelva" />
		<tag k="ssr:stedsnr" v="328948" />
		<tag k="waterway" v="stream" />
	</node>
	<node lat="68.50492777961033" lon="16.096799994025194" id="-16687">
		<tag k="name" v="Beretbekken" />
		<tag k="ssr:stedsnr" v="328978" />
		<tag k="waterway" v="stream" />
	</node>
	<node lat="68.56372778141301" lon="15.963949992813891" id="-16691">
		<tag k="name" v="Nedste Kvitelvvatnet - Vuolip Vearkkajávri" />
		<tag k="name:no" v="Nedste Kvitelvvatnet" />
		<tag k="name:se" v="Vuolip Vearkkajávri" />
		<tag k="natural" v="water" />
		<tag k="ssr:stedsnr" v="331115" />
		<tag k="water" v="lake" />
	</node>
	<node lat="68.51076389210868" lon="16.09120001074328" id="-16694">
		<tag k="name" v="Mølnelva" />
		<tag k="ssr:stedsnr" v="330198" />
		<tag k="waterway" v="stream" />
	</node>
	<node lat="68.46939999738504" lon="15.503861111656946" id="-16697">
		<tag k="name" v="Steinrapet" />
		<tag k="ssr:stedsnr" v="331149" />
		<tag k="waterway" v="stream" />
	</node>
	<node lat="68.3630972223194" lon="15.178147225431747" id="-16701">
		<tag k="name" v="Vesterkråelva" />
		<tag k="ssr:stedsnr" v="331526" />
		<tag k="waterway" v="stream" />
	</node>
	<node lat="68.32304722211455" lon="15.285097233232218" id="-16703">
		<tag k="name" v="Breivika" />
		<tag k="natural" v="bay" />
		<tag k="ssr:stedsnr" v="331697" />
	</node>
	<node lat="68.40210555454654" lon="15.332988890895106" id="-16705">
		<tag k="name" v="Mølnvatnet" />
		<tag k="natural" v="water" />
		<tag k="ssr:stedsnr" v="331857" />
		<tag k="water" v="lake" />
	</node>
	<node lat="68.40260833135027" lon="15.327355562652992" id="-16707">
		<tag k="name" v="Lakshola" />
		<tag k="natural" v="bay" />
		<tag k="ssr:stedsnr" v="331861" />
	</node>
	<node lat="68.40738888571337" lon="15.446297225451746" id="-16708">
		<tag k="name" v="Dypingselva" />
		<tag k="ssr:stedsnr" v="331867" />
		<tag k="waterway" v="stream" />
	</node>
	<node lat="68.36440000073067" lon="15.630075001992962" id="-16734">
		<tag k="fixme" v="multiple name tags, choose one and add the other to alt_name" />
		<tag k="name" v="Tennvatnet;Austre Tennvatn" />
		<tag k="natural" v="water" />
		<tag k="ssr:stedsnr" v="380351" />
		<tag k="water" v="lake" />
	</node>
	<node lat="68.38286666781816" lon="15.500088900649798" id="-16736">
		<tag k="fixme" v="multiple name tags, choose one and add the other to alt_name" />
		<tag k="name" v="Bresjevatnet, første;Bresjevatnet;Første Bresjevatnet - Bráššajávri" />
		<tag k="name:no" v="Bresjevatnet, første;Bresjevatnet;Første Bresjevatnet" />
		<tag k="name:se" v="Bráššajávri" />
		<tag k="natural" v="water" />
		<tag k="ssr:stedsnr" v="380831" />
		<tag k="water" v="lake" />
	</node>
	<node lat="68.38542777709918" lon="15.56943888351782" id="-16737">
		<tag k="name" v="Janslivatnet" />
		<tag k="natural" v="water" />
		<tag k="ssr:stedsnr" v="380834" />
		<tag k="water" v="lake" />
	</node>
	<node lat="68.4429500008074" lon="15.9785972263521" id="-16746">
		<tag k="alt_name:no" v="Kåringsvatnet, nedre;Nedre Kåringsvatn" />
		<tag k="name" v="Nedre Kåringsvatnet - Gorigajávri" />
		<tag k="name:no" v="Nedre Kåringsvatnet" />
		<tag k="name:se" v="Gorigajávri" />
		<tag k="natural" v="water" />
		<tag k="ssr:stedsnr" v="381252" />
		<tag k="water" v="lake" />
	</node>
	<node lat="68.46721666693394" lon="15.441330565713542" id="-16756">
		<tag k="name" v="Litlvatnet" />
		<tag k="natural" v="water" />
		<tag k="ssr:stedsnr" v="381781" />
	</node>
	<node lat="68.40422222101259" lon="15.532524997804016" id="-16760">
		<tag k="name" v="Tredjevatnet" />
		<tag k="natural" v="water" />
		<tag k="ssr:stedsnr" v="381870" />
		<tag k="water" v="lake" />
	</node>
	<node lat="68.41908611076671" lon="15.324772226929323" id="-16763">
		<tag k="name" v="Vasskrunvatnet" />
		<tag k="natural" v="water" />
		<tag k="ssr:stedsnr" v="381889" />
	</node>
	<node lat="68.36600833568883" lon="15.555524988809456" id="-16768">
		<tag k="name" v="Svarttjørnen" />
		<tag k="natural" v="water" />
		<tag k="ssr:stedsnr" v="381932" />
		<tag k="water" v="lake" />
	</node>
	<node lat="68.49367777903831" lon="15.62351109981719" id="-16797">
		<tag k="name" v="Heselva" />
		<tag k="ssr:stedsnr" v="391175" />
		<tag k="waterway" v="river" />
	</node>
	<node lat="68.43126666836278" lon="15.374808323417504" id="-16800">
		<tag k="name" v="Vikelva" />
		<tag k="ssr:stedsnr" v="391856" />
		<tag k="waterway" v="river" />
	</node>
	<node lat="68.39880833604715" lon="15.321750002262045" id="-16809">
		<tag k="name" v="Elvosen" />
		<tag k="natural" v="bay" />
		<tag k="ssr:stedsnr" v="392620" />
	</node>
	<node lat="68.45084166676632" lon="15.74665832721291" id="-16820">
		<tag k="name" v="Kobbnesvatnan" />
		<tag k="natural" v="water" />
		<tag k="ssr:stedsnr" v="403649" />
		<tag k="water" v="lake" />
	</node>
	<node lat="68.42985832940295" lon="15.615922228940603" id="-16833">
		<tag k="name" v="Trevatnan" />
		<tag k="natural" v="water" />
		<tag k="ssr:stedsnr" v="441780" />
		<tag k="water" v="lake" />
	</node>
	<node lat="68.38173888832476" lon="15.199805547178027" id="-16834">
		<tag k="name" v="Storelva" />
		<tag k="ssr:stedsnr" v="441839" />
		<tag k="waterway" v="stream" />
	</node>
	<node lat="68.38508610763442" lon="15.474472230265782" id="-16835">
		<tag k="name" v="Kvanntovatnet" />
		<tag k="natural" v="water" />
		<tag k="ssr:stedsnr" v="441842" />
	</node>
	<node lat="68.35874444691734" lon="15.576608331941708" id="-16837">
		<tag k="name" v="Svinøyvatnet" />
		<tag k="natural" v="water" />
		<tag k="ssr:stedsnr" v="441890" />
	</node>
	<node lat="68.40030000216105" lon="15.729777766523213" id="-16846">
		<tag k="name" v="Svartvatnet" />
		<tag k="natural" v="water" />
		<tag k="ssr:stedsnr" v="442301" />
	</node>
	<node lat="68.4083277804265" lon="15.694413892748482" id="-16847">
		<tag k="name" v="Sneisvatnet - Snáisájávri" />
		<tag k="name:no" v="Sneisvatnet" />
		<tag k="name:se" v="Snáisájávri" />
		<tag k="natural" v="water" />
		<tag k="ssr:stedsnr" v="442315" />
		<tag k="water" v="lake" />
	</node>
	<node lat="68.39904444722599" lon="15.498522229321493" id="-16862">
		<tag k="name" v="Kvannelva" />
		<tag k="ssr:stedsnr" v="442869" />
		<tag k="waterway" v="stream" />
	</node>
	<node lat="68.37516111118758" lon="15.404091673537458" id="-16866">
		<tag k="name" v="Pervatnet" />
		<tag k="natural" v="water" />
		<tag k="ssr:stedsnr" v="442923" />
	</node>
	<node lat="68.37390833012796" lon="15.441363888072852" id="-16868">
		<tag k="name" v="Loftselva" />
		<tag k="ssr:stedsnr" v="442928" />
		<tag k="waterway" v="stream" />
	</node>
	<node lat="68.47723333315635" lon="15.831825001783585" id="-16884">
		<tag k="name" v="Torsvatnet" />
		<tag k="natural" v="water" />
		<tag k="ssr:stedsnr" v="502132" />
	</node>
	<node lat="68.4673555539625" lon="15.463136103945992" id="-16885">
		<tag k="name" v="Storvatnet - Luossajávri" />
		<tag k="name:no" v="Storvatnet" />
		<tag k="name:se" v="Luossajávri" />
		<tag k="natural" v="water" />
		<tag k="ssr:stedsnr" v="502761" />
		<tag k="water" v="lake" />
	</node>
	<node lat="68.36221111129741" lon="15.459791663777839" id="-16886">
		<tag k="name" v="Trollvatnet" />
		<tag k="natural" v="water" />
		<tag k="ssr:stedsnr" v="502915" />
	</node>
	<node lat="68.44643333413173" lon="15.826266678684128" id="-16888">
		<tag k="name" v="Stornesvatnet" />
		<tag k="natural" v="water" />
		<tag k="ssr:stedsnr" v="502169" />
	</node>
	<node lat="68.38917221979484" lon="15.230891666402018" id="-16897">
		<tag k="name" v="Langvatnet" />
		<tag k="natural" v="water" />
		<tag k="ssr:stedsnr" v="502843" />
	</node>
	<node lat="68.49169722349501" lon="16.062033331683267" id="-16926">
		<tag k="name" v="Botnelva" />
		<tag k="ssr:stedsnr" v="510933" />
		<tag k="waterway" v="stream" />
	</node>
	<node lat="68.44008332870212" lon="15.511969450030183" id="-16929">
		<tag k="name" v="Husjordelva" />
		<tag k="ssr:stedsnr" v="513248" />
		<tag k="waterway" v="river" />
	</node>
	<node lat="68.37766944761448" lon="15.244088901338982" id="-16939">
		<tag k="name" v="Laupbakkbekken" />
		<tag k="ssr:stedsnr" v="513975" />
		<tag k="waterway" v="stream" />
	</node>
	<node lat="68.38270555698384" lon="15.276094442372537" id="-16945">
		<tag k="name" v="Vassoselva" />
		<tag k="ssr:stedsnr" v="513990" />
		<tag k="waterway" v="river" />
	</node>
	<node lat="68.4460666671632" lon="15.8296083302635" id="-16955">
		<tag k="name" v="Stornesvatnan" />
		<tag k="natural" v="water" />
		<tag k="ssr:stedsnr" v="526649" />
		<tag k="water" v="lake" />
	</node>
	<node lat="68.5152277747229" lon="15.87071111690725" id="-16957">
		<tag k="name" v="Botnelva" />
		<tag k="ssr:stedsnr" v="526962" />
		<tag k="waterway" v="river" />
	</node>
	<node lat="68.41821666452364" lon="15.729336113882562" id="-16976">
		<tag k="alt_name" v="Blåskjervikvatnet" />
		<tag k="name" v="Blåskjervatnet" />
		<tag k="natural" v="water" />
		<tag k="ssr:stedsnr" v="562219" />
	</node>
	<node lat="68.41580555199053" lon="15.74306943482692" id="-16977">
		<tag k="name" v="Blåskjerelva" />
		<tag k="ssr:stedsnr" v="562220" />
		<tag k="waterway" v="stream" />
	</node>
	<node lat="68.48309444578265" lon="15.841766661300277" id="-17003">
		<tag k="name" v="Nøkkellivatnet" />
		<tag k="natural" v="water" />
		<tag k="ssr:stedsnr" v="563145" />
	</node>
	<node lat="68.4729000028518" lon="15.704225001122133" id="-17004">
		<tag k="alt_name" v="Stordalsvatnet, øvre" />
		<tag k="name" v="Øvre Stordalsvatnet" />
		<tag k="natural" v="water" />
		<tag k="ssr:stedsnr" v="563162" />
		<tag k="water" v="lake" />
	</node>
	<node lat="68.53418889267604" lon="15.613022224254221" id="-17006">
		<tag k="alt_name" v="Storelvvatnet, øvre" />
		<tag k="name" v="Øvre Storelvvatnet" />
		<tag k="natural" v="water" />
		<tag k="ssr:stedsnr" v="563359" />
		<tag k="water" v="lake" />
	</node>
	<node lat="68.36241388759775" lon="15.174433327649806" id="-17025">
		<tag k="name" v="Tverrelva" />
		<tag k="ssr:stedsnr" v="573506" />
		<tag k="waterway" v="stream" />
	</node>
	<node lat="68.41078055622816" lon="15.359713881855015" id="-17040">
		<tag k="name" v="Skjelvikelva" />
		<tag k="ssr:stedsnr" v="573814" />
		<tag k="waterway" v="stream" />
	</node>
	<node lat="68.38050278179578" lon="15.276249996364118" id="-17050">
		<tag k="name" v="Vassosvadet" />
		<tag k="natural" v="bay" />
		<tag k="ssr:stedsnr" v="573987" />
	</node>
	<node lat="68.50185833239497" lon="15.841902773770723" id="-17060">
		<tag k="name" v="Bringebærelva" />
		<tag k="ssr:stedsnr" v="586514" />
		<tag k="waterway" v="stream" />
	</node>
	<node lat="68.35089444047736" lon="15.624599990711006" id="-17070">
		<tag k="name" v="Ytterstadvatnet" />
		<tag k="natural" v="water" />
		<tag k="ssr:stedsnr" v="623337" />
	</node>
	<node lat="68.3986583297697" lon="15.639977774441967" id="-17087">
		<tag k="alt_name" v="Sørdalsvatnet, øvre" />
		<tag k="fixme" v="multiple name tags, choose one and add the other to alt_name" />
		<tag k="loc_name" v="Sørdalsvatnet" />
		<tag k="name" v="Stortindvatnet;Øvre Sørdalsvatnet" />
		<tag k="natural" v="water" />
		<tag k="ssr:stedsnr" v="623254" />
		<tag k="water" v="lake" />
	</node>
	<node lat="68.4194166642446" lon="15.529949987878938" id="-17088">
		<tag k="name" v="Nordmanndalsvatnet" />
		<tag k="natural" v="water" />
		<tag k="ssr:stedsnr" v="623774" />
	</node>
	<node lat="68.43658888523338" lon="15.370833332519677" id="-17089">
		<tag k="name" v="Vikvatnet" />
		<tag k="natural" v="water" />
		<tag k="ssr:stedsnr" v="623783" />
	</node>
	<node lat="68.47226110856202" lon="15.465799996882655" id="-17099">
		<tag k="name" v="Tverrelva" />
		<tag k="ssr:stedsnr" v="623740" />
		<tag k="waterway" v="stream" />
	</node>
	<node lat="68.35406111267555" lon="15.441566673350442" id="-17102">
		<tag k="name" v="Mordarosen" />
		<tag k="natural" v="bay" />
		<tag k="ssr:stedsnr" v="623984" />
	</node>
	<node lat="68.52337777856319" lon="15.967783339236206" id="-17106">
		<tag k="alt_name:no" v="Kobbedalsvatnet, øvre" />
		<tag k="name" v="Øvre Kobbedalsvatnet - Badjegorssajávri" />
		<tag k="name:no" v="Øvre Kobbedalsvatnet" />
		<tag k="name:se" v="Badjegorssajávri" />
		<tag k="natural" v="water" />
		<tag k="ssr:stedsnr" v="624783" />
	</node>
	<node lat="68.42328889272537" lon="15.825849989720124" id="-17113">
		<tag k="name" v="Vadelva" />
		<tag k="ssr:stedsnr" v="629675" />
		<tag k="waterway" v="stream" />
	</node>
	<node lat="68.51592222066681" lon="16.10903611924748" id="-17115">
		<tag k="name" v="Storbrynnen" />
		<tag k="natural" v="water" />
		<tag k="ssr:stedsnr" v="631129" />
	</node>
	<node lat="68.510502775099" lon="16.094405547163014" id="-17119">
		<tag k="name" v="Fiskøyforsen" />
		<tag k="natural" v="waterfall" />
		<tag k="ssr:stedsnr" v="633201" />
	</node>
	<node lat="68.4107944482212" lon="15.552455561394382" id="-17126">
		<tag k="name" v="Bresjedalselva" />
		<tag k="ssr:stedsnr" v="634239" />
		<tag k="waterway" v="river" />
	</node>
	<node lat="68.42765000234915" lon="15.434188895262057" id="-17127">
		<tag k="name" v="Kjelelva" />
		<tag k="ssr:stedsnr" v="634270" />
		<tag k="waterway" v="stream" />
	</node>
	<node lat="68.41463611496238" lon="15.294497222242205" id="-17169">
		<tag k="name" v="Tverrelvdalvatnan" />
		<tag k="natural" v="water" />
		<tag k="ssr:stedsnr" v="745898" />
	</node>
	<node lat="68.35447778040421" lon="15.546350002963235" id="-17171">
		<tag k="name" v="Vestervatnet" />
		<tag k="natural" v="water" />
		<tag k="ssr:stedsnr" v="745997" />
	</node>
	<node lat="68.3236805592762" lon="15.608502780554295" id="-17183">
		<tag k="name" v="Stortjørna" />
		<tag k="place" v="locality" />
		<tag k="ssr:stedsnr" v="749753" />
	</node>
	<node lat="68.42347499712658" lon="15.481791667156417" id="-17191">
		<tag k="name" v="Normanndalselva" />
		<tag k="ssr:stedsnr" v="756168" />
		<tag k="waterway" v="stream" />
	</node>
	<node lat="68.47314444289658" lon="15.553661101959637" id="-17194">
		<tag k="name" v="Mortarelva" />
		<tag k="ssr:stedsnr" v="756141" />
		<tag k="waterway" v="river" />
	</node>
	<node lat="68.45359166715441" lon="15.54242221421046" id="-17196">
		<tag k="name" v="Langtjønna" />
		<tag k="natural" v="water" />
		<tag k="ssr:stedsnr" v="756229" />
	</node>
	<node lat="68.32450555510687" lon="15.288461117904516" id="-17202">
		<tag k="name" v="Malenavika" />
		<tag k="natural" v="bay" />
		<tag k="ssr:stedsnr" v="756716" />
	</node>
	<node lat="68.4304527744653" lon="15.361188892834218" id="-17204">
		<tag k="name" v="Hyselva" />
		<tag k="ssr:stedsnr" v="756839" />
		<tag k="waterway" v="stream" />
	</node>
	<node lat="68.45816666349549" lon="15.470902775508833" id="-17206">
		<tag k="name" v="Litjevatnet" />
		<tag k="natural" v="water" />
		<tag k="ssr:stedsnr" v="756878" />
		<tag k="water" v="lake" />
	</node>
	<node lat="68.47564444076018" lon="15.452172211144761" id="-17232">
		<tag k="name" v="Forkledalsvatnan" />
		<tag k="natural" v="water" />
		<tag k="ssr:stedsnr" v="805713" />
	</node>
	<node lat="68.38524166643788" lon="15.540519435038297" id="-17233">
		<tag k="name" v="Tindvatnet" />
		<tag k="natural" v="water" />
		<tag k="ssr:stedsnr" v="805816" />
	</node>
	<node lat="68.3908166665357" lon="15.603205558498084" id="-17234">
		<tag k="alt_name" v="Grønvatnet" />
		<tag k="name" v="Grønnvatnet" />
		<tag k="natural" v="water" />
		<tag k="ssr:stedsnr" v="805820" />
	</node>
	<node lat="68.33453333274907" lon="15.602550006703016" id="-17239">
		<tag k="name" v="Stokkbruelva" />
		<tag k="ssr:stedsnr" v="805941" />
		<tag k="waterway" v="stream" />
	</node>
	<node lat="68.38707777479601" lon="15.650563896498953" id="-17246">
		<tag k="name" v="Iverelvvatnan" />
		<tag k="natural" v="water" />
		<tag k="ssr:stedsnr" v="806310" />
	</node>
	<node lat="68.42736111335923" lon="15.987030559031584" id="-17258">
		<tag k="name" v="Klokkarelva" />
		<tag k="ssr:stedsnr" v="806240" />
		<tag k="waterway" v="stream" />
	</node>
	<node lat="68.4171555564433" lon="15.974772220668328" id="-17259">
		<tag k="name" v="Hamndalsvatnet" />
		<tag k="natural" v="water" />
		<tag k="ssr:stedsnr" v="806259" />
	</node>
	<node lat="68.39652500206147" lon="15.708924991389775" id="-17261">
		<tag k="name" v="Kvaloselva" />
		<tag k="ssr:stedsnr" v="806275" />
		<tag k="waterway" v="stream" />
	</node>
	<node lat="68.5385722186628" lon="15.969733325775493" id="-17270">
		<tag k="name" v="Svartvatnet - Stuorajávri" />
		<tag k="name:no" v="Svartvatnet" />
		<tag k="name:se" v="Stuorajávri" />
		<tag k="natural" v="water" />
		<tag k="ssr:stedsnr" v="806784" />
		<tag k="water" v="lake" />
	</node>
	<node lat="68.39187777420256" lon="15.211572228228082" id="-17271">
		<tag k="name" v="Tverrforsan" />
		<tag k="ssr:stedsnr" v="806852" />
		<tag k="waterway" v="stream" />
	</node>
	<node lat="68.39710555737264" lon="15.519288877482508" id="-17272">
		<tag k="alt_name" v="Bresjevatnet, andre" />
		<tag k="fixme" v="multiple name tags, choose one and add the other to alt_name" />
		<tag k="name" v="Andrevatnet;Andre Bresjevatnet" />
		<tag k="natural" v="water" />
		<tag k="ssr:stedsnr" v="806858" />
	</node>
	<node lat="68.40643888530678" lon="15.330166661334463" id="-17274">
		<tag k="name" v="Gardsvatnet" />
		<tag k="natural" v="water" />
		<tag k="ssr:stedsnr" v="806876" />
	</node>
	<node lat="68.3591583323782" lon="15.223199992617248" id="-17279">
		<tag k="name" v="Hamnesvatnet" />
		<tag k="natural" v="water" />
		<tag k="ssr:stedsnr" v="806906" />
	</node>
	<node lat="68.36936666847139" lon="15.153158321968803" id="-17281">
		<tag k="name" v="Skogjordvatnet" />
		<tag k="natural" v="water" />
		<tag k="ssr:stedsnr" v="806935" />
	</node>
	<node lat="68.35020833707297" lon="15.554411110741668" id="-17283">
		<tag k="name" v="Austervatnet" />
		<tag k="natural" v="water" />
		<tag k="ssr:stedsnr" v="806997" />
	</node>
	<node lat="68.35323055993422" lon="15.568086106463555" id="-17284">
		<tag k="alt_name" v="Svinøyvatnet, l" />
		<tag k="name" v="Lille Svinøyvatnet" />
		<tag k="natural" v="water" />
		<tag k="ssr:stedsnr" v="806998" />
	</node>
	<node lat="68.50313055116904" lon="15.550311118046524" id="-17286">
		<tag k="name" v="Forselva" />
		<tag k="ssr:stedsnr" v="807398" />
		<tag k="waterway" v="stream" />
	</node>
	<node lat="68.50005277678443" lon="15.826161114206046" id="-17293">
		<tag k="name" v="Skredelva" />
		<tag k="ssr:stedsnr" v="811665" />
		<tag k="waterway" v="stream" />
	</node>
	<node lat="68.45294444540205" lon="15.913469454978122" id="-17294">
		<tag k="name" v="Tverrelva" />
		<tag k="ssr:stedsnr" v="811666" />
		<tag k="waterway" v="stream" />
	</node>
	<node lat="68.41820833272962" lon="15.366716671254402" id="-17317">
		<tag k="name" v="Straumen" />
		<tag k="natural" v="bay" />
		<tag k="ssr:stedsnr" v="817847" />
	</node>
	<node lat="68.40383889058232" lon="15.446302769332961" id="-17319">
		<tag k="name" v="Trollvasselva" />
		<tag k="ssr:stedsnr" v="817877" />
		<tag k="waterway" v="river" />
	</node>
	<node lat="68.31365000158623" lon="15.653455554294128" id="-17329">
		<tag k="name" v="Kuvatnet" />
		<tag k="natural" v="water" />
		<tag k="ssr:stedsnr" v="828238" />
	</node>
	<node lat="68.3578333323547" lon="15.625666674255177" id="-17331">
		<tag k="name" v="Tennvasselva" />
		<tag k="ssr:stedsnr" v="830349" />
		<tag k="waterway" v="stream" />
	</node>
	<node lat="68.46163333686377" lon="15.958491674558067" id="-17346">
		<tag k="name" v="Småvatnan" />
		<tag k="natural" v="water" />
		<tag k="ssr:stedsnr" v="866155" />
		<tag k="water" v="lake" />
	</node>
	<node lat="68.45056666720382" lon="15.931025007701015" id="-17350">
		<tag k="fixme" v="multiple name tags, choose one and add the other to alt_name" />
		<tag k="name" v="Ørnstolelva;Lonkelva" />
		<tag k="ssr:stedsnr" v="866177" />
		<tag k="waterway" v="stream" />
	</node>
	<node lat="68.40503889007027" lon="15.712963877804539" id="-17351">
		<tag k="name" v="Sneiselva" />
		<tag k="ssr:stedsnr" v="866241" />
		<tag k="waterway" v="river" />
	</node>
	<node lat="68.4175277786243" lon="15.945797228628674" id="-17352">
		<tag k="alt_name" v="Hamndalsvatnet, øvre" />
		<tag k="fixme" v="multiple name tags, choose one and add the other to alt_name" />
		<tag k="name" v="Øvre Hyttevatn;Øvre Hamndalsvatnet" />
		<tag k="natural" v="water" />
		<tag k="ssr:stedsnr" v="866246" />
	</node>
	<node lat="68.42705277443457" lon="15.302241660447608" id="-17362">
		<tag k="name" v="Svartskartindvatnet" />
		<tag k="natural" v="water" />
		<tag k="ssr:stedsnr" v="866751" />
	</node>
	<node lat="68.36975277903024" lon="15.43395554534775" id="-17365">
		<tag k="name" v="Bursvasselva" />
		<tag k="ssr:stedsnr" v="866906" />
		<tag k="waterway" v="stream" />
	</node>
	<node lat="68.36210277856263" lon="15.534700007348453" id="-17367">
		<tag k="loc_name:se" v="Luossajávri" />
		<tag k="name" v="Laksvatnet" />
		<tag k="name:no" v="Laksvatnet" />
		<tag k="natural" v="water" />
		<tag k="ssr:stedsnr" v="866870" />
	</node>
	<node lat="68.33775000107109" lon="15.588602766894578" id="-17368">
		<tag k="fixme" v="multiple name tags, choose one and add the other to alt_name" />
		<tag k="name" v="Mølnelva;Hegstadelva" />
		<tag k="ssr:stedsnr" v="866950" />
		<tag k="waterway" v="stream" />
	</node>
	<node lat="68.36684722475209" lon="15.529438891237701" id="-17369">
		<tag k="name" v="Kjellarbotsvatnet" />
		<tag k="natural" v="water" />
		<tag k="ssr:stedsnr" v="866914" />
	</node>
	<node lat="68.47032500125134" lon="15.769986110321554" id="-17371">
		<tag k="name" v="Strandvatnet" />
		<tag k="natural" v="water" />
		<tag k="ssr:stedsnr" v="867186" />
	</node>
	<node lat="68.52094721863133" lon="15.513613899744927" id="-17383">
		<tag k="name" v="Vestpollelva" />
		<tag k="ssr:stedsnr" v="867419" />
		<tag k="waterway" v="river" />
	</node>
	<node lat="68.31818055654959" lon="15.650919447079849" id="-17385">
		<tag k="name" v="Nordøyosen" />
		<tag k="natural" v="bay" />
		<tag k="ssr:stedsnr" v="867371" />
	</node>
	<node lat="68.34826944066835" lon="15.371119441989537" id="-17389">
		<tag k="name" v="Haugosen" />
		<tag k="natural" v="bay" />
		<tag k="ssr:stedsnr" v="867964" />
	</node>
	<node lat="68.3757083334674" lon="15.208416655007678" id="-17408">
		<tag k="name" v="Bjønnbakkelva" />
		<tag k="ssr:stedsnr" v="877980" />
		<tag k="waterway" v="stream" />
	</node>
	<node lat="68.46762222300755" lon="15.481905557213333" id="-17418">
		<tag k="name" v="Ellevsneset" />
		<tag k="natural" v="cape" />
		<tag k="ssr:stedsnr" v="877131" />
	</node>
	<node lat="68.40072222676034" lon="15.323152776275274" id="-17421">
		<tag k="name" v="Svartskarelva" />
		<tag k="ssr:stedsnr" v="877585" />
		<tag k="waterway" v="river" />
	</node>
	<node lat="68.405169447793" lon="15.534486103291293" id="-17445">
		<tag k="name" v="Tredjevassholmen" />
		<tag k="place" v="islet" />
		<tag k="ssr:stedsnr" v="938231" />
	</node>
	<node lat="68.39710555737264" lon="15.519288877482508" id="-17446">
		<tag k="name" v="Tredjevasselva" />
		<tag k="ssr:stedsnr" v="938232" />
		<tag k="waterway" v="river" />
	</node>
	<node lat="68.37898055562883" lon="15.700666658150103" id="-17463">
		<tag k="name" v="Mølnelva" />
		<tag k="ssr:stedsnr" v="949567" />
		<tag k="waterway" v="stream" />
	</node>
	<node lat="68.37915555680593" lon="15.664458339899186" id="-17465">
		<tag k="name" v="Ivarelva" />
		<tag k="ssr:stedsnr" v="949577" />
		<tag k="waterway" v="stream" />
	</node>
	<node lat="68.39628055151302" lon="15.916408333732786" id="-17471">
		<tag k="name" v="Øygårdselva" />
		<tag k="ssr:stedsnr" v="951611" />
		<tag k="waterway" v="stream" />
	</node>
	<node lat="68.48751439202479" lon="15.663599046699687" id="-17478">
		<tag k="name" v="Jápmajávri" />
		<tag k="name:se" v="Jápmajávri" />
		<tag k="natural" v="water" />
		<tag k="ssr:stedsnr" v="989420" />
	</node>
</osm>
