<?xml version="1.0" encoding="UTF-8"?>
<<<<<<< HEAD
<osm version="0.6" generator="osmapis">
	<node lat="68.34405555363469" lon="15.50358332128684" id="-14930">
=======
<osm generator="osmapis" version="0.6">
	<node id="-183271" lat="68.3440555536" lon="15.5035833213">
>>>>>>> e1d4bc35ff8a6074a6f2e91616a996b547c36f15
		<tag k="amenity" v="place_of_worship" />
		<tag k="denomination" v="lutheran" />
		<tag k="name" v="Vestbygd kirke" />
		<tag k="religion" v="christian" />
		<tag k="ssr:stedsnr" v="502981" />
	</node>
<<<<<<< HEAD
	<node lat="68.31426944530558" lon="15.644308340911646" id="-15590">
		<tag k="cemetery" v="grave" />
		<tag k="name" v="Offersøy kirkegård" />
=======
	<node id="-183390" lat="68.452758333" lon="15.8945166632">
		<tag k="name" v="Digermuren" />
>>>>>>> e1d4bc35ff8a6074a6f2e91616a996b547c36f15
		<tag k="place" v="locality" />
		<tag k="ssr:stedsnr" v="100238" />
	</node>
<<<<<<< HEAD
	<node lat="68.40636666468956" lon="15.980516670879517" id="-15723">
=======
	<node id="-185069" lat="68.5230974379" lon="15.8479013775">
		<tag k="name" v="Botnmyran viltovergang" />
		<tag k="place" v="locality" />
		<tag k="ssr:stedsnr" v="1073227" />
	</node>
	<node id="-184205" lat="68.4063666647" lon="15.9805166709">
>>>>>>> e1d4bc35ff8a6074a6f2e91616a996b547c36f15
		<tag k="amenity" v="place_of_worship" />
		<tag k="denomination" v="lutheran" />
		<tag k="name" v="Lødingen kirke" />
		<tag k="religion" v="christian" />
		<tag k="ssr:stedsnr" v="199291" />
	</node>
<<<<<<< HEAD
	<node lat="68.45275833304197" lon="15.894516663186494" id="-16054">
		<tag k="name" v="Digermuren" />
		<tag k="place" v="locality" />
		<tag k="ssr:stedsnr" v="507677" />
	</node>
	<node lat="68.52309743788473" lon="15.847901377450334" id="-16624">
		<tag k="name" v="Botnmyran viltovergang" />
=======
	<node id="-184073" lat="68.3142694453" lon="15.6443083409">
		<tag k="cemetery" v="grave" />
		<tag k="name" v="Offersøy kirkegård" />
>>>>>>> e1d4bc35ff8a6074a6f2e91616a996b547c36f15
		<tag k="place" v="locality" />
		<tag k="ssr:stedsnr" v="1073227" />
	</node>
</osm>
