<?xml version="1.0" encoding="UTF-8"?>
<osm version="0.6" generator="osmapis">
	<node lat="68.37423888880873" lon="15.380588892509387" id="-19324">
		<tag k="name" v="Kleven" />
		<tag k="natural" v="slope" />
		<tag k="place" v="locality" />
		<tag k="ssr:stedsnr" v="17919" />
	</node>
	<node lat="68.44255555425174" lon="15.996222218561192" id="-19328">
		<tag k="name" v="Forrahaugen" />
		<tag k="natural" v="hill" />
		<tag k="place" v="locality" />
		<tag k="ssr:stedsnr" v="24505" />
	</node>
	<node lat="68.45418055551427" lon="15.990397215810479" id="-19329">
		<tag k="name" v="Nordfjellbakkan" />
		<tag k="natural" v="slope" />
		<tag k="place" v="locality" />
		<tag k="ssr:stedsnr" v="24530" />
	</node>
	<node lat="68.38479167090712" lon="15.430511111115717" id="-19349">
		<tag k="name" v="Kvanntodalen" />
		<tag k="natural" v="valley" />
		<tag k="place" v="locality" />
		<tag k="ssr:stedsnr" v="39318" />
	</node>
	<node lat="68.58367500020942" lon="15.949566660166802" id="-19376">
		<tag k="name" v="Reinvegan" />
		<tag k="place" v="locality" />
		<tag k="ssr:stedsnr" v="78854" />
	</node>
	<node lat="68.32899999773332" lon="15.643630562403187" id="-19399">
		<tag k="name" v="Nordgjerdet" />
		<tag k="place" v="locality" />
		<tag k="ssr:stedsnr" v="88144" />
	</node>
	<node lat="68.38104999683799" lon="15.664102775427454" id="-19410">
		<tag k="name" v="Seljehola" />
		<tag k="natural" v="valley" />
		<tag k="place" v="locality" />
		<tag k="ssr:stedsnr" v="100612" />
	</node>
	<node lat="68.39013888969815" lon="15.887522215661074" id="-19420">
		<tag k="alt_name" v="Rishaugene" />
		<tag k="name" v="Rishaugen" />
		<tag k="natural" v="hill" />
		<tag k="place" v="locality" />
		<tag k="ssr:stedsnr" v="138317" />
	</node>
	<node lat="68.49436944382701" lon="15.490988884258899" id="-19421">
		<tag k="fixme" v="consider natural=peak for the most distinct mountains in the district" />
		<tag k="name" v="Forkledalstindan" />
		<tag k="natural" v="hill" />
		<tag k="place" v="locality" />
		<tag k="ssr:stedsnr" v="138645" />
	</node>
	<node lat="68.47519722164151" lon="15.426352777731047" id="-19426">
		<tag k="fixme" v="consider natural=peak for the most distinct mountains in the district" />
		<tag k="name" v="Sebortinden" />
		<tag k="natural" v="hill" />
		<tag k="place" v="locality" />
		<tag k="ssr:stedsnr" v="138739" />
	</node>
	<node lat="68.35926666295448" lon="15.452752787785524" id="-19429">
		<tag k="name" v="Langdalen" />
		<tag k="natural" v="valley" />
		<tag k="place" v="locality" />
		<tag k="ssr:stedsnr" v="138904" />
	</node>
	<node lat="68.38732221857755" lon="15.879066652898102" id="-19454">
		<tag k="name" v="Gullhaugen" />
		<tag k="natural" v="hill" />
		<tag k="place" v="locality" />
		<tag k="ssr:stedsnr" v="162615" />
	</node>
	<node lat="68.54597777544535" lon="15.545816662799579" id="-19465">
		<tag k="fixme" v="consider natural=peak for the most distinct mountains in the district" />
		<tag k="name" v="Nordtinden" />
		<tag k="natural" v="hill" />
		<tag k="place" v="locality" />
		<tag k="ssr:stedsnr" v="260136" />
	</node>
	<node lat="68.42728055879994" lon="15.553627788845946" id="-19472">
		<tag k="fixme" v="consider natural=peak for the most distinct mountains in the district" />
		<tag k="name" v="Lappen" />
		<tag k="natural" v="hill" />
		<tag k="place" v="locality" />
		<tag k="ssr:stedsnr" v="260795" />
	</node>
	<node lat="68.51189999567438" lon="15.894402787740457" id="-19473">
		<tag k="name" v="Olderdalen" />
		<tag k="natural" v="valley" />
		<tag k="place" v="locality" />
		<tag k="ssr:stedsnr" v="260820" />
	</node>
	<node lat="68.45611666607871" lon="15.975049998013462" id="-19485">
		<tag k="fixme" v="consider natural=peak for the most distinct mountains in the district" />
		<tag k="name" v="Storlifjellet" />
		<tag k="natural" v="hill" />
		<tag k="place" v="locality" />
		<tag k="ssr:stedsnr" v="267474" />
	</node>
	<node lat="68.35895000274358" lon="15.342725009033176" id="-19499">
		<tag k="name" v="Nordhaugan" />
		<tag k="natural" v="hill" />
		<tag k="place" v="locality" />
		<tag k="ssr:stedsnr" v="199905" />
	</node>
	<node lat="68.45772221890472" lon="15.995527786865473" id="-19506">
		<tag k="name" v="Forsbakkan" />
		<tag k="natural" v="slope" />
		<tag k="place" v="locality" />
		<tag k="ssr:stedsnr" v="267489" />
	</node>
	<node lat="68.393800002756" lon="15.421822234701194" id="-19510">
		<tag k="fixme" v="consider natural=peak for the most distinct mountains in the district" />
		<tag k="name" v="Lappgamkruna" />
		<tag k="natural" v="hill" />
		<tag k="place" v="locality" />
		<tag k="ssr:stedsnr" v="267867" />
	</node>
	<node lat="68.42780555614881" lon="15.982524995028282" id="-19523">
		<tag k="name" v="Klokkarelvdalen" />
		<tag k="natural" v="valley" />
		<tag k="place" v="locality" />
		<tag k="ssr:stedsnr" v="207713" />
	</node>
	<node lat="68.35048333259174" lon="15.599472218036004" id="-19561">
		<tag k="fixme" v="consider natural=peak for the most distinct mountains in the district" />
		<tag k="name" v="Lille Årnipen" />
		<tag k="natural" v="hill" />
		<tag k="place" v="locality" />
		<tag k="ssr:stedsnr" v="223399" />
	</node>
	<node lat="68.36116388913611" lon="15.477875010630761" id="-19563">
		<tag k="fixme" v="consider natural=peak for the most distinct mountains in the district" />
		<tag k="name" v="Hustadfjellet" />
		<tag k="natural" v="hill" />
		<tag k="place" v="locality" />
		<tag k="ssr:stedsnr" v="449830" />
	</node>
	<node lat="68.42044999675882" lon="15.695502774964693" id="-19596">
		<tag k="fixme" v="consider natural=peak for the most distinct mountains in the district" />
		<tag k="name" v="Langosfjellet" />
		<tag k="natural" v="hill" />
		<tag k="place" v="locality" />
		<tag k="ssr:stedsnr" v="259216" />
	</node>
	<node lat="68.4451500002375" lon="15.42977499629464" id="-19611">
		<tag k="fixme" v="consider natural=peak for the most distinct mountains in the district" />
		<tag k="name" v="Vasskruna" />
		<tag k="natural" v="hill" />
		<tag k="place" v="locality" />
		<tag k="ssr:stedsnr" v="260849" />
	</node>
	<node lat="68.35288333062435" lon="15.615861120013019" id="-19640">
		<tag k="fixme" v="consider natural=peak for the most distinct mountains in the district" />
		<tag k="name" v="Blåmannen" />
		<tag k="natural" v="hill" />
		<tag k="place" v="locality" />
		<tag k="ssr:stedsnr" v="283305" />
	</node>
	<node lat="68.38503610879121" lon="15.691633340079782" id="-19646">
		<tag k="name" v="Langlia" />
		<tag k="natural" v="slope" />
		<tag k="place" v="locality" />
		<tag k="ssr:stedsnr" v="464629" />
	</node>
	<node lat="68.37088055179602" lon="15.669430564168943" id="-19672">
		<tag k="name" v="Katthola" />
		<tag k="natural" v="valley" />
		<tag k="place" v="locality" />
		<tag k="ssr:stedsnr" v="320342" />
	</node>
	<node lat="68.37166111418465" lon="15.45070833744803" id="-19681">
		<tag k="name" v="Bursvassdalen" />
		<tag k="natural" v="valley" />
		<tag k="place" v="locality" />
		<tag k="ssr:stedsnr" v="320914" />
	</node>
	<node lat="68.56412777736696" lon="15.98176943365952" id="-19687">
		<tag k="name" v="Kvitelvdalen" />
		<tag k="name:no" v="Kvitelvdalen" />
		<tag k="name:se" v="Vearkkariehppi" />
		<tag k="natural" v="valley" />
		<tag k="place" v="locality" />
		<tag k="ssr:stedsnr" v="321834" />
	</node>
	<node lat="68.45163888998076" lon="15.984255565805594" id="-19695">
		<tag k="fixme" v="consider natural=peak for the most distinct mountains in the district" />
		<tag k="name" v="Nordfjellet" />
		<tag k="natural" v="hill" />
		<tag k="place" v="locality" />
		<tag k="ssr:stedsnr" v="327507" />
	</node>
	<node lat="68.45584722128551" lon="15.985258320407594" id="-19696">
		<tag k="name" v="Storlia" />
		<tag k="natural" v="slope" />
		<tag k="place" v="locality" />
		<tag k="ssr:stedsnr" v="327511" />
	</node>
	<node lat="68.4525583358584" lon="16.019511112755673" id="-19697">
		<tag k="name" v="Nylandshaugen" />
		<tag k="natural" v="hill" />
		<tag k="place" v="locality" />
		<tag k="ssr:stedsnr" v="327521" />
	</node>
	<node lat="68.46311388578337" lon="16.035674999978095" id="-19699">
		<tag k="name" v="Moshaugen" />
		<tag k="natural" v="hill" />
		<tag k="place" v="locality" />
		<tag k="ssr:stedsnr" v="328718" />
	</node>
	<node lat="68.39075832924814" lon="15.880780561680233" id="-19712">
		<tag k="fixme" v="consider natural=peak for the most distinct mountains in the district" />
		<tag k="name" v="Skjåvikfjellet" />
		<tag k="natural" v="hill" />
		<tag k="place" v="locality" />
		<tag k="ssr:stedsnr" v="344609" />
	</node>
	<node lat="68.48883055623223" lon="15.854833340604548" id="-19713">
		<tag k="name" v="Annfinnskådalen" />
		<tag k="natural" v="valley" />
		<tag k="place" v="locality" />
		<tag k="ssr:stedsnr" v="344587" />
	</node>
	<node lat="68.46200833244536" lon="15.996822231737827" id="-19744">
		<tag k="name" v="Gamdalkråa" />
		<tag k="place" v="locality" />
		<tag k="ssr:stedsnr" v="388502" />
	</node>
	<node lat="68.36996666325886" lon="15.439702779443891" id="-19745">
		<tag k="fixme" v="consider natural=peak for the most distinct mountains in the district" />
		<tag k="name" v="Lilleaksla" />
		<tag k="natural" v="hill" />
		<tag k="place" v="locality" />
		<tag k="ssr:stedsnr" v="388818" />
	</node>
	<node lat="68.35264166547671" lon="15.456397232008149" id="-19746">
		<tag k="name" v="Raet" />
		<tag k="place" v="locality" />
		<tag k="ssr:stedsnr" v="388846" />
	</node>
	<node lat="68.35877500126263" lon="15.396705563830311" id="-19759">
		<tag k="fixme" v="consider natural=peak for the most distinct mountains in the district" />
		<tag k="name" v="Åndervåghaugen" />
		<tag k="natural" v="hill" />
		<tag k="place" v="locality" />
		<tag k="ssr:stedsnr" v="403406" />
	</node>
	<node lat="68.37773333235306" lon="15.661377786634029" id="-19760">
		<tag k="name" v="Tyttbærbakkan" />
		<tag k="natural" v="slope" />
		<tag k="place" v="locality" />
		<tag k="ssr:stedsnr" v="403603" />
	</node>
	<node lat="68.41299166986508" lon="15.80430832871945" id="-19764">
		<tag k="name" v="Rammelhaugen" />
		<tag k="natural" v="hill" />
		<tag k="place" v="locality" />
		<tag k="ssr:stedsnr" v="405702" />
	</node>
	<node lat="68.46826388794275" lon="15.84792777130901" id="-19782">
		<tag k="alt_name" v="Grønlikollen" />
		<tag k="fixme" v="consider natural=peak for the most distinct mountains in the district" />
		<tag k="name" v="Grønnlikollen" />
		<tag k="natural" v="hill" />
		<tag k="place" v="locality" />
		<tag k="ssr:stedsnr" v="442200" />
	</node>
	<node lat="68.51889166257206" lon="15.571241664010385" id="-19784">
		<tag k="name" v="Storelvdalen" />
		<tag k="natural" v="valley" />
		<tag k="place" v="locality" />
		<tag k="ssr:stedsnr" v="442406" />
	</node>
	<node lat="68.35377222040826" lon="15.364916662513691" id="-19788">
		<tag k="fixme" v="consider natural=peak for the most distinct mountains in the district" />
		<tag k="name" v="Storåsen" />
		<tag k="natural" v="hill" />
		<tag k="place" v="locality" />
		<tag k="ssr:stedsnr" v="443033" />
	</node>
	<node lat="68.33907777932045" lon="15.585772225094642" id="-19819">
		<tag k="fixme" v="consider natural=peak for the most distinct mountains in the district" />
		<tag k="name" v="Kolmilen" />
		<tag k="natural" v="hill" />
		<tag k="place" v="locality" />
		<tag k="ssr:stedsnr" v="465317" />
	</node>
	<node lat="68.38227500125966" lon="15.878602765858476" id="-19820">
		<tag k="name" v="Mohaugen" />
		<tag k="natural" v="hill" />
		<tag k="place" v="locality" />
		<tag k="ssr:stedsnr" v="465611" />
	</node>
	<node lat="68.52379444577093" lon="15.453991670407621" id="-19844">
		<tag k="fixme" v="consider natural=peak for the most distinct mountains in the district" />
		<tag k="name" v="Møyen" />
		<tag k="natural" v="hill" />
		<tag k="place" v="locality" />
		<tag k="ssr:stedsnr" v="503369" />
	</node>
	<node lat="68.38114721973345" lon="15.18183333615626" id="-19868">
		<tag k="fixme" v="consider natural=peak for the most distinct mountains in the district" />
		<tag k="name" v="Raudhammaren" />
		<tag k="natural" v="hill" />
		<tag k="place" v="locality" />
		<tag k="ssr:stedsnr" v="684831" />
	</node>
	<node lat="68.39397500114504" lon="15.441027776336039" id="-19869">
		<tag k="fixme" v="multiple name tags, choose one and add the other to alt_name; consider natural=peak for the most distinct mountains in the district" />
		<tag k="name" v="Langfjellkruna;Langfjellet" />
		<tag k="natural" v="hill" />
		<tag k="place" v="locality" />
		<tag k="ssr:stedsnr" v="684839" />
	</node>
	<node lat="68.43482500049485" lon="15.556819451052668" id="-19889">
		<tag k="fixme" v="consider natural=peak for the most distinct mountains in the district" />
		<tag k="name" v="Kvasstinden" />
		<tag k="natural" v="hill" />
		<tag k="place" v="locality" />
		<tag k="ssr:stedsnr" v="684768" />
	</node>
	<node lat="68.3819583340622" lon="15.447263894794434" id="-19890">
		<tag k="fixme" v="consider natural=peak for the most distinct mountains in the district" />
		<tag k="name" v="Sandfjellet" />
		<tag k="natural" v="hill" />
		<tag k="place" v="locality" />
		<tag k="ssr:stedsnr" v="684926" />
	</node>
	<node lat="68.34028888954748" lon="15.565972217657157" id="-19902">
		<tag k="fixme" v="consider natural=peak for the most distinct mountains in the district" />
		<tag k="name" v="Bufjellet" />
		<tag k="natural" v="hill" />
		<tag k="place" v="locality" />
		<tag k="ssr:stedsnr" v="684979" />
	</node>
	<node lat="68.3665166633193" lon="15.701619452870602" id="-19906">
		<tag k="fixme" v="consider natural=peak for the most distinct mountains in the district" />
		<tag k="name" v="Heia" />
		<tag k="natural" v="hill" />
		<tag k="place" v="locality" />
		<tag k="ssr:stedsnr" v="524659" />
	</node>
	<node lat="68.35479999647386" lon="15.702327782087142" id="-19907">
		<tag k="name" v="Rinbøramnfloget" />
		<tag k="natural" v="hill" />
		<tag k="place" v="locality" />
		<tag k="ssr:stedsnr" v="524645" />
	</node>
	<node lat="68.35684166732764" lon="15.516352781190845" id="-19908">
		<tag k="name" v="Halsen" />
		<tag k="natural" v="valley" />
		<tag k="place" v="locality" />
		<tag k="ssr:stedsnr" v="526406" />
	</node>
	<node lat="68.52295833533358" lon="15.930277786759092" id="-19909">
		<tag k="name" v="Steindalen" />
		<tag k="natural" v="valley" />
		<tag k="place" v="locality" />
		<tag k="ssr:stedsnr" v="685762" />
	</node>
	<node lat="68.5281527791877" lon="15.631194444761203" id="-19910">
		<tag k="fixme" v="consider natural=peak for the most distinct mountains in the district" />
		<tag k="name" v="Vestbotntinden" />
		<tag k="natural" v="hill" />
		<tag k="place" v="locality" />
		<tag k="ssr:stedsnr" v="685735" />
	</node>
	<node lat="68.39482222146273" lon="15.912066670136381" id="-19911">
		<tag k="fixme" v="consider natural=peak for the most distinct mountains in the district" />
		<tag k="name" v="Aspen" />
		<tag k="natural" v="hill" />
		<tag k="place" v="locality" />
		<tag k="ssr:stedsnr" v="526606" />
	</node>
	<node lat="68.50947221997761" lon="15.811975007294711" id="-19912">
		<tag k="fixme" v="consider natural=peak for the most distinct mountains in the district" />
		<tag k="name" v="Stordalsaksla" />
		<tag k="natural" v="hill" />
		<tag k="place" v="locality" />
		<tag k="ssr:stedsnr" v="685769" />
	</node>
	<node lat="68.50875555457755" lon="15.782255550394003" id="-19913">
		<tag k="fixme" v="consider natural=peak for the most distinct mountains in the district" />
		<tag k="name" v="Middagsfjellet" />
		<tag k="natural" v="hill" />
		<tag k="place" v="locality" />
		<tag k="ssr:stedsnr" v="685770" />
	</node>
	<node lat="68.35313889341168" lon="15.469602775756222" id="-19928">
		<tag k="name" v="Øvernakken" />
		<tag k="natural" v="hill" />
		<tag k="place" v="locality" />
		<tag k="ssr:stedsnr" v="692861" />
	</node>
	<node lat="68.37981666921705" lon="15.698091662467183" id="-19969">
		<tag k="name" v="Mølnhola" />
		<tag k="natural" v="valley" />
		<tag k="place" v="locality" />
		<tag k="ssr:stedsnr" v="585592" />
	</node>
	<node lat="68.37996111324289" lon="15.67827222391759" id="-19970">
		<tag k="name" v="Oterhola" />
		<tag k="natural" v="valley" />
		<tag k="place" v="locality" />
		<tag k="ssr:stedsnr" v="585595" />
	</node>
	<node lat="68.51971111232133" lon="15.408869452192413" id="-20000">
		<tag k="fixme" v="consider natural=peak for the most distinct mountains in the district" />
		<tag k="loc_name" v="Toatinden" />
		<tag k="name" v="Memurutinden" />
		<tag k="natural" v="hill" />
		<tag k="place" v="locality" />
		<tag k="ssr:stedsnr" v="624413" />
	</node>
	<node lat="68.32849166520701" lon="15.645413883299488" id="-20034">
		<tag k="name" v="Langhaugen" />
		<tag k="natural" v="hill" />
		<tag k="place" v="locality" />
		<tag k="ssr:stedsnr" v="706254" />
	</node>
	<node lat="68.3846694449152" lon="15.418905555429676" id="-20037">
		<tag k="name" v="Sandmilen" />
		<tag k="natural" v="slope" />
		<tag k="place" v="locality" />
		<tag k="ssr:stedsnr" v="645385" />
	</node>
	<node lat="68.37943611439422" lon="15.694383322492177" id="-20039">
		<tag k="name" v="Bergan" />
		<tag k="natural" v="hill" />
		<tag k="place" v="locality" />
		<tag k="ssr:stedsnr" v="706587" />
	</node>
	<node lat="68.37488055896713" lon="15.657038878998739" id="-20042">
		<tag k="name" v="Godbondhaugen" />
		<tag k="natural" v="hill" />
		<tag k="place" v="locality" />
		<tag k="ssr:stedsnr" v="706683" />
	</node>
	<node lat="68.37411666596547" lon="15.489855566424385" id="-20046">
		<tag k="name" v="Langlia" />
		<tag k="natural" v="slope" />
		<tag k="place" v="locality" />
		<tag k="ssr:stedsnr" v="708341" />
	</node>
	<node lat="68.3879999959451" lon="15.88342221237829" id="-20048">
		<tag k="name" v="Lilledalen" />
		<tag k="natural" v="valley" />
		<tag k="place" v="locality" />
		<tag k="ssr:stedsnr" v="708590" />
	</node>
	<node lat="68.35521666659561" lon="15.626977779945749" id="-20049">
		<tag k="name" v="Ytterstadvassbotn" />
		<tag k="natural" v="valley" />
		<tag k="place" v="locality" />
		<tag k="ssr:stedsnr" v="890351" />
	</node>
	<node lat="68.38854166615604" lon="15.683613886069459" id="-20064">
		<tag k="fixme" v="consider natural=peak for the most distinct mountains in the district" />
		<tag k="name" v="Hesttinden" />
		<tag k="natural" v="hill" />
		<tag k="place" v="locality" />
		<tag k="ssr:stedsnr" v="684307" />
	</node>
	<node lat="68.32604722373952" lon="15.650997229445315" id="-20067">
		<tag k="name" v="Sjøhaugen" />
		<tag k="natural" v="hill" />
		<tag k="place" v="locality" />
		<tag k="ssr:stedsnr" v="684354" />
	</node>
	<node lat="68.49238055226101" lon="15.5325555541347" id="-20070">
		<tag k="fixme" v="consider natural=peak for the most distinct mountains in the district" />
		<tag k="name" v="Lakselvtindan" />
		<tag k="natural" v="hill" />
		<tag k="place" v="locality" />
		<tag k="ssr:stedsnr" v="684612" />
	</node>
	<node lat="68.35959444111973" lon="15.3992888819764" id="-20075">
		<tag k="name" v="Storhaugen" />
		<tag k="natural" v="hill" />
		<tag k="place" v="locality" />
		<tag k="ssr:stedsnr" v="684907" />
	</node>
	<node lat="68.3716222263539" lon="15.383777777542932" id="-20076">
		<tag k="fixme" v="multiple name tags, choose one and add the other to alt_name; consider natural=peak for the most distinct mountains in the district" />
		<tag k="name" v="Storåsen;Djupdalåsen" />
		<tag k="natural" v="hill" />
		<tag k="place" v="locality" />
		<tag k="ssr:stedsnr" v="684910" />
	</node>
	<node lat="68.4524805581618" lon="15.972463886452935" id="-20091">
		<tag k="name" v="Øvre Storlidalen" />
		<tag k="natural" v="valley" />
		<tag k="place" v="locality" />
		<tag k="ssr:stedsnr" v="692492" />
	</node>
	<node lat="68.39245555443215" lon="15.913772209633184" id="-20115">
		<tag k="name" v="Klokkatohaugen" />
		<tag k="natural" v="hill" />
		<tag k="place" v="locality" />
		<tag k="ssr:stedsnr" v="708631" />
	</node>
	<node lat="68.46388333163718" lon="15.817591670119628" id="-20120">
		<tag k="fixme" v="consider natural=peak for the most distinct mountains in the district" />
		<tag k="name" v="Erikstadfjordfjellet" />
		<tag k="name:no" v="Erikstadfjordfjellet" />
		<tag k="name:se" v="Duolbbas" />
		<tag k="natural" v="hill" />
		<tag k="place" v="locality" />
		<tag k="ssr:stedsnr" v="745205" />
	</node>
	<node lat="68.47575555422816" lon="16.0741055553589" id="-20125">
		<tag k="name" v="Storhaugen" />
		<tag k="natural" v="hill" />
		<tag k="place" v="locality" />
		<tag k="ssr:stedsnr" v="745193" />
	</node>
	<node lat="68.52006110697963" lon="15.955980550284403" id="-20131">
		<tag k="fixme" v="consider natural=peak for the most distinct mountains in the district" />
		<tag k="name" v="Steinaksla" />
		<tag k="name:no" v="Steinaksla" />
		<tag k="name:se" v="Geargevárri" />
		<tag k="natural" v="hill" />
		<tag k="place" v="locality" />
		<tag k="ssr:stedsnr" v="745821" />
	</node>
	<node lat="68.41010833187768" lon="15.309836109339546" id="-20134">
		<tag k="name" v="Tverrelvdalen" />
		<tag k="natural" v="valley" />
		<tag k="place" v="locality" />
		<tag k="ssr:stedsnr" v="745882" />
	</node>
	<node lat="68.37318332928939" lon="15.490124995573872" id="-20137">
		<tag k="alt_name" v="Breidlia" />
		<tag k="name" v="Breilia" />
		<tag k="natural" v="slope" />
		<tag k="place" v="locality" />
		<tag k="ssr:stedsnr" v="745928" />
	</node>
	<node lat="68.35344167043465" lon="15.428386108191548" id="-20142">
		<tag k="name" v="Anfinnsletta" />
		<tag k="place" v="locality" />
		<tag k="ssr:stedsnr" v="745986" />
	</node>
	<node lat="68.472916668873" lon="16.053638889220178" id="-20145">
		<tag k="name" v="Bjørnhola" />
		<tag k="natural" v="valley" />
		<tag k="place" v="locality" />
		<tag k="ssr:stedsnr" v="752712" />
	</node>
	<node lat="68.38148610998282" lon="15.669441676594692" id="-20171">
		<tag k="name" v="Røyelia" />
		<tag k="natural" v="slope" />
		<tag k="place" v="locality" />
		<tag k="ssr:stedsnr" v="767618" />
	</node>
	<node lat="68.38046666532654" lon="15.647936102177075" id="-20172">
		<tag k="fixme" v="consider natural=peak for the most distinct mountains in the district" />
		<tag k="name" v="Tverrfjellet" />
		<tag k="natural" v="hill" />
		<tag k="place" v="locality" />
		<tag k="ssr:stedsnr" v="767619" />
	</node>
	<node lat="68.45121111251797" lon="15.756430550619912" id="-20175">
		<tag k="fixme" v="consider natural=peak for the most distinct mountains in the district" />
		<tag k="name" v="Kobbnesfjellet" />
		<tag k="natural" v="hill" />
		<tag k="place" v="locality" />
		<tag k="ssr:stedsnr" v="805163" />
	</node>
	<node lat="68.43209166241058" lon="15.983361121011932" id="-20184">
		<tag k="fixme" v="consider natural=peak for the most distinct mountains in the district" />
		<tag k="name" v="Lødingsaksla" />
		<tag k="natural" v="hill" />
		<tag k="place" v="locality" />
		<tag k="ssr:stedsnr" v="813487" />
	</node>
	<node lat="68.3942083333904" lon="15.869061114811931" id="-20202">
		<tag k="name" v="Skjåvikklubben" />
		<tag k="natural" v="hill" />
		<tag k="place" v="locality" />
		<tag k="ssr:stedsnr" v="830583" />
	</node>
	<node lat="68.3353611150101" lon="15.679516659522562" id="-20204">
		<tag k="name" v="Båtberget" />
		<tag k="natural" v="hill" />
		<tag k="place" v="locality" />
		<tag k="ssr:stedsnr" v="927381" />
	</node>
	<node lat="68.33184999804908" lon="15.63263609920569" id="-20217">
		<tag k="name" v="Veten" />
		<tag k="natural" v="hill" />
		<tag k="place" v="locality" />
		<tag k="ssr:stedsnr" v="927331" />
	</node>
	<node lat="68.33893055237645" lon="15.677425007353122" id="-20218">
		<tag k="name" v="Svehaugen" />
		<tag k="natural" v="hill" />
		<tag k="place" v="locality" />
		<tag k="ssr:stedsnr" v="927343" />
	</node>
	<node lat="68.5111805592423" lon="15.666994456770476" id="-20236">
		<tag k="fixme" v="consider natural=peak for the most distinct mountains in the district" />
		<tag k="loc_name" v="Botntinden" />
		<tag k="name" v="Botntindan" />
		<tag k="natural" v="hill" />
		<tag k="place" v="locality" />
		<tag k="ssr:stedsnr" v="928750" />
	</node>
	<node lat="68.44749722407656" lon="16.00639165787527" id="-20273">
		<tag k="name" v="Storvollen" />
		<tag k="natural" v="hill" />
		<tag k="place" v="locality" />
		<tag k="ssr:stedsnr" v="934480" />
	</node>
	<node lat="68.4142083306821" lon="15.745013877711404" id="-20277">
		<tag k="name" v="Blåskjerrabben" />
		<tag k="natural" v="hill" />
		<tag k="place" v="locality" />
		<tag k="ssr:stedsnr" v="889619" />
	</node>
	<node lat="68.37057499813318" lon="15.631144453533894" id="-20279">
		<tag k="fixme" v="consider natural=peak for the most distinct mountains in the district" />
		<tag k="name" v="Tennvasstinden" />
		<tag k="natural" v="hill" />
		<tag k="place" v="locality" />
		<tag k="ssr:stedsnr" v="890404" />
	</node>
	<node lat="68.39781944810869" lon="15.895294437111083" id="-20281">
		<tag k="name" v="Hamnskaret" />
		<tag k="natural" v="valley" />
		<tag k="place" v="locality" />
		<tag k="ssr:stedsnr" v="890610" />
	</node>
	<node lat="68.47774999640518" lon="16.064000002429456" id="-20286">
		<tag k="name" v="Vasskollen" />
		<tag k="natural" v="hill" />
		<tag k="place" v="locality" />
		<tag k="ssr:stedsnr" v="927172" />
	</node>
	<node lat="68.4725388874953" lon="16.03252221544321" id="-20287">
		<tag k="fixme" v="consider natural=peak for the most distinct mountains in the district" />
		<tag k="name" v="Silsandfjellet" />
		<tag k="natural" v="hill" />
		<tag k="place" v="locality" />
		<tag k="ssr:stedsnr" v="927173" />
	</node>
	<node lat="68.3637583337834" lon="15.442188877999232" id="-20298">
		<tag k="name" v="Mellombakkan" />
		<tag k="natural" v="slope" />
		<tag k="place" v="locality" />
		<tag k="ssr:stedsnr" v="927918" />
	</node>
	<node lat="68.36847222675873" lon="15.453055547207022" id="-20299">
		<tag k="fixme" v="consider natural=peak for the most distinct mountains in the district" />
		<tag k="name" v="Olsfjellet" />
		<tag k="natural" v="hill" />
		<tag k="place" v="locality" />
		<tag k="ssr:stedsnr" v="927924" />
	</node>
	<node lat="68.39963888479984" lon="15.478769453580194" id="-20300">
		<tag k="fixme" v="consider natural=peak for the most distinct mountains in the district" />
		<tag k="name" v="Sandfjelltindan" />
		<tag k="name:no" v="Sandfjelltindan" />
		<tag k="name:se" v="Sáttuvárri" />
		<tag k="natural" v="hill" />
		<tag k="place" v="locality" />
		<tag k="ssr:stedsnr" v="927857" />
	</node>
	<node lat="68.51032777884694" lon="15.542586122680797" id="-20305">
		<tag k="name" v="Tjuvhallaren" />
		<tag k="place" v="locality" />
		<tag k="ssr:stedsnr" v="928363" />
	</node>
	<node lat="68.45634444235796" lon="15.997313894846469" id="-20313">
		<tag k="name" v="Gamman" />
		<tag k="place" v="locality" />
		<tag k="ssr:stedsnr" v="934504" />
	</node>
	<node lat="68.44493611191797" lon="15.976794446291056" id="-20314">
		<tag k="name" v="Kåringsdalen" />
		<tag k="natural" v="valley" />
		<tag k="place" v="locality" />
		<tag k="ssr:stedsnr" v="934506" />
	</node>
	<node lat="68.4625750028341" lon="15.974180556537577" id="-20315">
		<tag k="name" v="Labakken" />
		<tag k="natural" v="slope" />
		<tag k="place" v="locality" />
		<tag k="ssr:stedsnr" v="935536" />
	</node>
	<node lat="68.37221666777073" lon="15.460708324086937" id="-20316">
		<tag k="name" v="Dalbakken" />
		<tag k="natural" v="slope" />
		<tag k="place" v="locality" />
		<tag k="ssr:stedsnr" v="935835" />
	</node>
	<node lat="68.33814721843483" lon="15.615558321063066" id="-20326">
		<tag k="name" v="Hestdalen" />
		<tag k="natural" v="valley" />
		<tag k="place" v="locality" />
		<tag k="ssr:stedsnr" v="951333" />
	</node>
	<node lat="68.45510546062393" lon="16.008165657226282" id="-20364">
		<tag k="name" v="Skarhaugen" />
		<tag k="natural" v="hill" />
		<tag k="place" v="locality" />
		<tag k="ssr:stedsnr" v="16164" />
	</node>
	<node lat="68.38356944685138" lon="15.239341677372776" id="-20378">
		<tag k="fixme" v="consider natural=peak for the most distinct mountains in the district" />
		<tag k="name" v="Kvannkjosfjellet" />
		<tag k="natural" v="hill" />
		<tag k="place" v="locality" />
		<tag k="ssr:stedsnr" v="17845" />
	</node>
	<node lat="68.38633611529" lon="15.412611101312338" id="-20379">
		<tag k="name" v="Skavdalen" />
		<tag k="natural" v="valley" />
		<tag k="place" v="locality" />
		<tag k="ssr:stedsnr" v="17940" />
	</node>
	<node lat="68.34735277528418" lon="15.363794451660489" id="-20381">
		<tag k="name" v="Ramnbergan" />
		<tag k="natural" v="hill" />
		<tag k="place" v="locality" />
		<tag k="ssr:stedsnr" v="17977" />
	</node>
	<node lat="68.41156944880335" lon="15.615780558145724" id="-20398">
		<tag k="fixme" v="consider natural=peak for the most distinct mountains in the district" />
		<tag k="name" v="Nattmålstinden" />
		<tag k="name:no" v="Nattmålstinden" />
		<tag k="name:se" v="Lánsačohkka" />
		<tag k="natural" v="hill" />
		<tag k="place" v="locality" />
		<tag k="ssr:stedsnr" v="17878" />
	</node>
	<node lat="68.5400861073472" lon="16.01284723239661" id="-20401">
		<tag k="fixme" v="consider natural=peak for the most distinct mountains in the district" />
		<tag k="name" v="Fiskefjordtindan" />
		<tag k="name:no" v="Fiskefjordtindan" />
		<tag k="name:se" v="Guollevierddčohkka" />
		<tag k="natural" v="hill" />
		<tag k="place" v="locality" />
		<tag k="ssr:stedsnr" v="17790" />
	</node>
	<node lat="68.53210555880193" lon="15.92648054981748" id="-20402">
		<tag k="name" v="Tverrelvdalen" />
		<tag k="natural" v="valley" />
		<tag k="place" v="locality" />
		<tag k="ssr:stedsnr" v="17791" />
	</node>
	<node lat="68.36958333330008" lon="15.457811100152245" id="-20423">
		<tag k="name" v="Andersolsadalen" />
		<tag k="natural" v="valley" />
		<tag k="place" v="locality" />
		<tag k="ssr:stedsnr" v="24844" />
	</node>
	<node lat="68.47461944446181" lon="16.048130566132585" id="-20424">
		<tag k="fixme" v="consider natural=peak for the most distinct mountains in the district" />
		<tag k="name" v="Bjørnholfjellet" />
		<tag k="natural" v="hill" />
		<tag k="place" v="locality" />
		<tag k="ssr:stedsnr" v="24748" />
	</node>
	<node lat="68.43782499853333" lon="16.00659721816756" id="-20426">
		<tag k="name" v="Tankhaugen" />
		<tag k="natural" v="hill" />
		<tag k="place" v="locality" />
		<tag k="ssr:stedsnr" v="25738" />
	</node>
	<node lat="68.364608336447" lon="15.659780559362215" id="-20472">
		<tag k="fixme" v="consider natural=peak for the most distinct mountains in the district" />
		<tag k="name" v="Mølnfjordfjellet" />
		<tag k="natural" v="hill" />
		<tag k="place" v="locality" />
		<tag k="ssr:stedsnr" v="77281" />
	</node>
	<node lat="68.46639722042251" lon="16.00695000425775" id="-20482">
		<tag k="alt_name" v="Svadfjellet" />
		<tag k="fixme" v="consider natural=peak for the most distinct mountains in the district" />
		<tag k="name" v="Svafjellet" />
		<tag k="natural" v="hill" />
		<tag k="place" v="locality" />
		<tag k="ssr:stedsnr" v="78176" />
	</node>
	<node lat="68.53888333073459" lon="15.490766665349888" id="-20488">
		<tag k="fixme" v="consider natural=peak for the most distinct mountains in the district" />
		<tag k="name" v="Raudtinden" />
		<tag k="natural" v="hill" />
		<tag k="place" v="locality" />
		<tag k="ssr:stedsnr" v="78385" />
	</node>
	<node lat="68.51813055100287" lon="15.898283335703367" id="-20492">
		<tag k="fixme" v="consider natural=peak for the most distinct mountains in the district" />
		<tag k="name" v="Olderdalsaksla" />
		<tag k="natural" v="hill" />
		<tag k="place" v="locality" />
		<tag k="ssr:stedsnr" v="78787" />
	</node>
	<node lat="68.43606943960194" lon="15.417808343145344" id="-20493">
		<tag k="name" v="Heia" />
		<tag k="natural" v="hill" />
		<tag k="place" v="locality" />
		<tag k="ssr:stedsnr" v="78789" />
	</node>
	<node lat="68.36828889168461" lon="15.576363887178335" id="-20500">
		<tag k="fixme" v="consider natural=peak for the most distinct mountains in the district" />
		<tag k="name" v="Kjølfjellet" />
		<tag k="natural" v="hill" />
		<tag k="place" v="locality" />
		<tag k="ssr:stedsnr" v="78935" />
	</node>
	<node lat="68.324630554104" lon="15.64159167672794" id="-20531">
		<tag k="name" v="Humpen" />
		<tag k="natural" v="hill" />
		<tag k="place" v="locality" />
		<tag k="ssr:stedsnr" v="100231" />
	</node>
	<node lat="68.35099166749809" lon="15.686858341478928" id="-20534">
		<tag k="name" v="Ramnfloget" />
		<tag k="natural" v="hill" />
		<tag k="place" v="locality" />
		<tag k="ssr:stedsnr" v="100697" />
	</node>
	<node lat="68.33407500255994" lon="15.629866673748907" id="-20538">
		<tag k="name" v="Trangørnskaret" />
		<tag k="natural" v="valley" />
		<tag k="place" v="locality" />
		<tag k="ssr:stedsnr" v="101318" />
	</node>
	<node lat="68.33231944549671" lon="15.62930832189242" id="-20539">
		<tag k="name" v="Ørnskaret" />
		<tag k="natural" v="valley" />
		<tag k="place" v="locality" />
		<tag k="ssr:stedsnr" v="101321" />
	</node>
	<node lat="68.36780555646037" lon="15.630436101991068" id="-20540">
		<tag k="name" v="Tennvasslia" />
		<tag k="natural" v="slope" />
		<tag k="place" v="locality" />
		<tag k="ssr:stedsnr" v="101385" />
	</node>
	<node lat="68.52636111445797" lon="15.83848332828908" id="-20541">
		<tag k="name" v="Kanstadhaugen" />
		<tag k="natural" v="hill" />
		<tag k="place" v="locality" />
		<tag k="ssr:stedsnr" v="101952" />
	</node>
	<node lat="68.41001944494343" lon="15.6437361072683" id="-20556">
		<tag k="name" v="Sørdalen" />
		<tag k="natural" v="valley" />
		<tag k="place" v="locality" />
		<tag k="ssr:stedsnr" v="138283" />
	</node>
	<node lat="68.39922777960379" lon="15.92512500541041" id="-20567">
		<tag k="name" v="Lødingsrapet" />
		<tag k="natural" v="valley" />
		<tag k="place" v="locality" />
		<tag k="ssr:stedsnr" v="138335" />
	</node>
	<node lat="68.48544167116701" lon="15.542013881659855" id="-20568">
		<tag k="name" v="Sletthalsen" />
		<tag k="natural" v="slope" />
		<tag k="place" v="locality" />
		<tag k="ssr:stedsnr" v="138655" />
	</node>
	<node lat="68.41006388932745" lon="15.33781666446727" id="-20571">
		<tag k="name" v="Elvdalen" />
		<tag k="natural" v="valley" />
		<tag k="place" v="locality" />
		<tag k="ssr:stedsnr" v="138863" />
	</node>
	<node lat="68.418011109638" lon="15.301236103547444" id="-20573">
		<tag k="fixme" v="consider natural=peak for the most distinct mountains in the district" />
		<tag k="name" v="Tverrelvdaltinden" />
		<tag k="natural" v="hill" />
		<tag k="place" v="locality" />
		<tag k="ssr:stedsnr" v="138879" />
	</node>
	<node lat="68.36445833435872" lon="15.432447217745361" id="-20597">
		<tag k="name" v="Brennhaugen" />
		<tag k="natural" v="hill" />
		<tag k="place" v="locality" />
		<tag k="ssr:stedsnr" v="145837" />
	</node>
	<node lat="68.35758332902299" lon="15.426450008656735" id="-20598">
		<tag k="name" v="Storhaugen" />
		<tag k="natural" v="hill" />
		<tag k="place" v="locality" />
		<tag k="ssr:stedsnr" v="145846" />
	</node>
	<node lat="68.48221111189639" lon="16.086141669497735" id="-20599">
		<tag k="name" v="Kubergan" />
		<tag k="natural" v="hill" />
		<tag k="place" v="locality" />
		<tag k="ssr:stedsnr" v="145745" />
	</node>
	<node lat="68.40145555825343" lon="15.332138882044433" id="-20635">
		<tag k="name" v="Svartskaret" />
		<tag k="natural" v="valley" />
		<tag k="place" v="locality" />
		<tag k="ssr:stedsnr" v="160369" />
	</node>
	<node lat="68.35193055176438" lon="15.369866654085955" id="-20636">
		<tag k="name" v="Haug" />
		<tag k="natural" v="hill" />
		<tag k="place" v="locality" />
		<tag k="ssr:stedsnr" v="160373" />
	</node>
	<node lat="68.34444444342387" lon="15.65786110507769" id="-20637">
		<tag k="name" v="Svarthola" />
		<tag k="natural" v="valley" />
		<tag k="place" v="locality" />
		<tag k="ssr:stedsnr" v="160699" />
	</node>
	<node lat="68.37567222386056" lon="15.70051666905887" id="-20638">
		<tag k="name" v="Haugan" />
		<tag k="natural" v="hill" />
		<tag k="place" v="locality" />
		<tag k="ssr:stedsnr" v="160565" />
	</node>
	<node lat="68.36876111091817" lon="15.718219444251785" id="-20639">
		<tag k="name" v="Strandhaugen" />
		<tag k="natural" v="hill" />
		<tag k="place" v="locality" />
		<tag k="ssr:stedsnr" v="160649" />
	</node>
	<node lat="68.34216666358965" lon="15.615183334925312" id="-20641">
		<tag k="fixme" v="consider natural=peak for the most distinct mountains in the district" />
		<tag k="name" v="Hestdalsskovan" />
		<tag k="natural" v="hill" />
		<tag k="place" v="locality" />
		<tag k="ssr:stedsnr" v="162337" />
	</node>
	<node lat="68.38491666469632" lon="15.486122216816593" id="-20642">
		<tag k="name" v="Bresjelian" />
		<tag k="natural" v="slope" />
		<tag k="place" v="locality" />
		<tag k="ssr:stedsnr" v="162345" />
	</node>
	<node lat="68.3544555563615" lon="15.226386121149122" id="-20646">
		<tag k="fixme" v="consider natural=peak for the most distinct mountains in the district" />
		<tag k="name" v="Litltinden" />
		<tag k="natural" v="hill" />
		<tag k="place" v="locality" />
		<tag k="ssr:stedsnr" v="199890" />
	</node>
	<node lat="68.44093889305549" lon="15.992111110784405" id="-20661">
		<tag k="alt_name" v="Forahaugen" />
		<tag k="name" v="Forrahaugen" />
		<tag k="natural" v="hill" />
		<tag k="place" v="locality" />
		<tag k="ssr:stedsnr" v="199245" />
	</node>
	<node lat="68.39909999842335" lon="15.884391656344704" id="-20665">
		<tag k="alt_name" v="Hamnflåget" />
		<tag k="name" v="Hamnfloget" />
		<tag k="natural" v="valley" />
		<tag k="place" v="locality" />
		<tag k="ssr:stedsnr" v="199280" />
	</node>
	<node lat="68.51839444078745" lon="15.981419453860466" id="-20671">
		<tag k="name" v="Fiskefjordskaret" />
		<tag k="name:no" v="Fiskefjordskaret" />
		<tag k="name:se" v="Guollevierddčahca" />
		<tag k="natural" v="valley" />
		<tag k="place" v="locality" />
		<tag k="ssr:stedsnr" v="199789" />
	</node>
	<node lat="68.44523888595936" lon="15.383588894324248" id="-20673">
		<tag k="fixme" v="consider natural=peak for the most distinct mountains in the district" />
		<tag k="name" v="Viktindan" />
		<tag k="natural" v="hill" />
		<tag k="place" v="locality" />
		<tag k="ssr:stedsnr" v="199825" />
	</node>
	<node lat="68.3750472195449" lon="15.514627768653504" id="-20677">
		<tag k="alt_name" v="Grønåsen" />
		<tag k="fixme" v="consider natural=peak for the most distinct mountains in the district" />
		<tag k="name" v="Grønnåsen" />
		<tag k="natural" v="hill" />
		<tag k="place" v="locality" />
		<tag k="ssr:stedsnr" v="199938" />
	</node>
	<node lat="68.3821166688846" lon="15.662138887630977" id="-20715">
		<tag k="name" v="Seljelia" />
		<tag k="natural" v="slope" />
		<tag k="place" v="locality" />
		<tag k="ssr:stedsnr" v="221595" />
	</node>
	<node lat="68.34909444071224" lon="15.670261120417381" id="-20718">
		<tag k="name" v="Geitlia" />
		<tag k="natural" v="slope" />
		<tag k="place" v="locality" />
		<tag k="ssr:stedsnr" v="221691" />
	</node>
	<node lat="68.39015555178388" lon="15.524436102821252" id="-20720">
		<tag k="fixme" v="consider natural=peak for the most distinct mountains in the district" />
		<tag k="name" v="Knollan" />
		<tag k="natural" v="hill" />
		<tag k="place" v="locality" />
		<tag k="ssr:stedsnr" v="223353" />
	</node>
	<node lat="68.39646389160573" lon="15.890738881771897" id="-20729">
		<tag k="alt_name" v="Ramnflåget" />
		<tag k="fixme" v="consider natural=peak for the most distinct mountains in the district" />
		<tag k="name" v="Ramnfloget" />
		<tag k="natural" v="hill" />
		<tag k="place" v="locality" />
		<tag k="ssr:stedsnr" v="283534" />
	</node>
	<node lat="68.40159166275465" lon="15.914674990138563" id="-20743">
		<tag k="name" v="Øygårdsdalen" />
		<tag k="natural" v="valley" />
		<tag k="place" v="locality" />
		<tag k="ssr:stedsnr" v="320273" />
	</node>
	<node lat="68.34166110839465" lon="15.67837499334706" id="-20747">
		<tag k="name" v="Vollan" />
		<tag k="place" v="locality" />
		<tag k="ssr:stedsnr" v="320325" />
	</node>
	<node lat="68.37661388549819" lon="15.432933336167249" id="-20757">
		<tag k="fixme" v="consider natural=peak for the most distinct mountains in the district" />
		<tag k="name" v="Sandfjellkruna" />
		<tag k="natural" v="hill" />
		<tag k="place" v="locality" />
		<tag k="ssr:stedsnr" v="320925" />
	</node>
	<node lat="68.3870083326059" lon="15.423197228483504" id="-20758">
		<tag k="fixme" v="consider natural=peak for the most distinct mountains in the district" />
		<tag k="name" v="Langfjellet" />
		<tag k="natural" v="hill" />
		<tag k="place" v="locality" />
		<tag k="ssr:stedsnr" v="320927" />
	</node>
	<node lat="68.42092777864056" lon="15.33361943633357" id="-20759">
		<tag k="fixme" v="consider natural=peak for the most distinct mountains in the district" />
		<tag k="name" v="Ørntinden" />
		<tag k="natural" v="hill" />
		<tag k="place" v="locality" />
		<tag k="ssr:stedsnr" v="320772" />
	</node>
	<node lat="68.45829721906058" lon="16.026024992974026" id="-20769">
		<tag k="name" v="Langhaugen" />
		<tag k="natural" v="hill" />
		<tag k="place" v="locality" />
		<tag k="ssr:stedsnr" v="327699" />
	</node>
	<node lat="68.3813527762991" lon="15.673522222058242" id="-20803">
		<tag k="name" v="Lemman" />
		<tag k="natural" v="hill" />
		<tag k="place" v="locality" />
		<tag k="ssr:stedsnr" v="342560" />
	</node>
	<node lat="68.34091388559676" lon="15.60718611143216" id="-20808">
		<tag k="fixme" v="consider natural=peak for the most distinct mountains in the district" />
		<tag k="name" v="Beretgjotkollen" />
		<tag k="natural" v="hill" />
		<tag k="place" v="locality" />
		<tag k="ssr:stedsnr" v="344334" />
	</node>
	<node lat="68.33454444748037" lon="15.631433337464701" id="-20811">
		<tag k="fixme" v="consider natural=peak for the most distinct mountains in the district" />
		<tag k="name" v="Nordvetten" />
		<tag k="natural" v="hill" />
		<tag k="place" v="locality" />
		<tag k="ssr:stedsnr" v="344353" />
	</node>
	<node lat="68.424183333537" lon="15.605175003417227" id="-20812">
		<tag k="fixme" v="consider natural=peak for the most distinct mountains in the district" />
		<tag k="name" v="Kvasstinden" />
		<tag k="natural" v="hill" />
		<tag k="place" v="locality" />
		<tag k="ssr:stedsnr" v="344355" />
	</node>
	<node lat="68.35698055342439" lon="15.593861113659745" id="-20813">
		<tag k="name" v="Kvitbergan" />
		<tag k="natural" v="hill" />
		<tag k="place" v="locality" />
		<tag k="ssr:stedsnr" v="344375" />
	</node>
	<node lat="68.43162500065682" lon="15.654355553063425" id="-20833">
		<tag k="fixme" v="consider natural=peak for the most distinct mountains in the district" />
		<tag k="name" v="Ryfjella" />
		<tag k="natural" v="hill" />
		<tag k="place" v="locality" />
		<tag k="ssr:stedsnr" v="381257" />
	</node>
	<node lat="68.5369222244629" lon="16.08701666577547" id="-20835">
		<tag k="fixme" v="consider natural=peak for the most distinct mountains in the district" />
		<tag k="name" v="Middagsfjellet" />
		<tag k="natural" v="hill" />
		<tag k="place" v="locality" />
		<tag k="ssr:stedsnr" v="381207" />
	</node>
	<node lat="68.53463336751884" lon="15.894488303264026" id="-20848">
		<tag k="name" v="Heggedalen" />
		<tag k="name:no" v="Heggedalen" />
		<tag k="name:se" v="Heargevággi" />
		<tag k="natural" v="valley" />
		<tag k="place" v="locality" />
		<tag k="ssr:stedsnr" v="381876" />
	</node>
	<node lat="68.35149722162535" lon="15.469769453875765" id="-20852">
		<tag k="fixme" v="consider natural=peak for the most distinct mountains in the district" />
		<tag k="name" v="Aksla" />
		<tag k="natural" v="hill" />
		<tag k="place" v="locality" />
		<tag k="ssr:stedsnr" v="381985" />
	</node>
	<node lat="68.35567777677234" lon="15.464908341857624" id="-20853">
		<tag k="name" v="Ørnskaret" />
		<tag k="natural" v="valley" />
		<tag k="place" v="locality" />
		<tag k="ssr:stedsnr" v="381987" />
	</node>
	<node lat="68.3680333318111" lon="15.595705558572204" id="-20856">
		<tag k="fixme" v="consider natural=peak for the most distinct mountains in the district" />
		<tag k="name" v="Åsen" />
		<tag k="natural" v="hill" />
		<tag k="place" v="locality" />
		<tag k="ssr:stedsnr" v="381933" />
	</node>
	<node lat="68.4521777771289" lon="16.003305565204148" id="-20872">
		<tag k="name" v="Blåbærbakken" />
		<tag k="natural" v="slope" />
		<tag k="place" v="locality" />
		<tag k="ssr:stedsnr" v="388497" />
	</node>
	<node lat="68.44692222169998" lon="15.979638888477579" id="-20873">
		<tag k="name" v="Jolia" />
		<tag k="natural" v="slope" />
		<tag k="place" v="locality" />
		<tag k="ssr:stedsnr" v="388485" />
	</node>
	<node lat="68.46204166436755" lon="15.970200006308556" id="-20874">
		<tag k="name" v="Gjærdalen" />
		<tag k="natural" v="valley" />
		<tag k="place" v="locality" />
		<tag k="ssr:stedsnr" v="388489" />
	</node>
	<node lat="68.35791944542962" lon="15.43616945604197" id="-20875">
		<tag k="name" v="Krokmyrhaugen" />
		<tag k="natural" v="hill" />
		<tag k="place" v="locality" />
		<tag k="ssr:stedsnr" v="388820" />
	</node>
	<node lat="68.38212500198387" lon="15.70567776710984" id="-20905">
		<tag k="name" v="Øyjordhalsen" />
		<tag k="natural" v="valley" />
		<tag k="place" v="locality" />
		<tag k="ssr:stedsnr" v="403589" />
	</node>
	<node lat="68.39779444627699" lon="15.901963893556623" id="-20909">
		<tag k="name" v="Hamnskaralen" />
		<tag k="natural" v="valley" />
		<tag k="place" v="locality" />
		<tag k="ssr:stedsnr" v="404565" />
	</node>
	<node lat="68.41839999815072" lon="15.808325007488602" id="-20918">
		<tag k="alt_name" v="Halsan" />
		<tag k="name" v="Halsen" />
		<tag k="natural" v="valley" />
		<tag k="place" v="locality" />
		<tag k="ssr:stedsnr" v="441266" />
	</node>
	<node lat="68.38099166579471" lon="15.247058343153252" id="-20923">
		<tag k="fixme" v="consider natural=peak for the most distinct mountains in the district" />
		<tag k="name" v="Lauvfjellet" />
		<tag k="natural" v="hill" />
		<tag k="place" v="locality" />
		<tag k="ssr:stedsnr" v="441831" />
	</node>
	<node lat="68.40313055565701" lon="15.669649994571182" id="-20935">
		<tag k="fixme" v="consider natural=peak for the most distinct mountains in the district" />
		<tag k="name" v="Sneistinden" />
		<tag k="natural" v="hill" />
		<tag k="place" v="locality" />
		<tag k="ssr:stedsnr" v="442316" />
	</node>
	<node lat="68.51406388555081" lon="15.602969439708593" id="-20937">
		<tag k="fixme" v="consider natural=peak for the most distinct mountains in the district" />
		<tag k="name" v="Vestpolltinden" />
		<tag k="natural" v="hill" />
		<tag k="place" v="locality" />
		<tag k="ssr:stedsnr" v="442420" />
	</node>
	<node lat="68.48577500355314" lon="15.781224997856173" id="-20941">
		<tag k="name" v="Stordalen" />
		<tag k="name:no" v="Stordalen" />
		<tag k="name:se" v="Juvttavuopmi" />
		<tag k="natural" v="valley" />
		<tag k="place" v="locality" />
		<tag k="ssr:stedsnr" v="442164" />
	</node>
	<node lat="68.47879444652737" lon="15.842583338183841" id="-20943">
		<tag k="name" v="Torslikollen" />
		<tag k="natural" v="hill" />
		<tag k="place" v="locality" />
		<tag k="ssr:stedsnr" v="442175" />
	</node>
	<node lat="68.43109167137574" lon="15.888374994340372" id="-20945">
		<tag k="name" v="Sildegarnberget" />
		<tag k="natural" v="hill" />
		<tag k="place" v="locality" />
		<tag k="ssr:stedsnr" v="442268" />
	</node>
	<node lat="68.51183888977808" lon="15.939636118109954" id="-20951">
		<tag k="fixme" v="consider natural=peak for the most distinct mountains in the district" />
		<tag k="name" v="Kobbedalsaksla" />
		<tag k="natural" v="hill" />
		<tag k="place" v="locality" />
		<tag k="ssr:stedsnr" v="442821" />
	</node>
	<node lat="68.35972777947792" lon="15.693052769408006" id="-20962">
		<tag k="fixme" v="consider natural=peak for the most distinct mountains in the district" />
		<tag k="name" v="Stortuva" />
		<tag k="natural" v="hill" />
		<tag k="place" v="locality" />
		<tag k="ssr:stedsnr" v="502319" />
	</node>
	<node lat="68.36370833609953" lon="15.706563893310301" id="-20963">
		<tag k="alt_name" v="Rinbøtuva" />
		<tag k="name" v="Rindbøtuva" />
		<tag k="natural" v="hill" />
		<tag k="place" v="locality" />
		<tag k="ssr:stedsnr" v="502322" />
	</node>
	<node lat="68.4983027776892" lon="15.661947217177154" id="-20971">
		<tag k="fixme" v="consider natural=peak for the most distinct mountains in the district" />
		<tag k="name" v="Hestetinden" />
		<tag k="name:no" v="Hestetinden" />
		<tag k="name:se" v="Jápmačohkka" />
		<tag k="natural" v="hill" />
		<tag k="place" v="locality" />
		<tag k="ssr:stedsnr" v="502126" />
	</node>
	<node lat="68.43137499690823" lon="15.329333343745327" id="-20983">
		<tag k="fixme" v="consider natural=peak for the most distinct mountains in the district" />
		<tag k="name" v="Svartskartindan" />
		<tag k="natural" v="hill" />
		<tag k="place" v="locality" />
		<tag k="ssr:stedsnr" v="502792" />
	</node>
	<node lat="68.40686110794188" lon="15.252327785016" id="-20990">
		<tag k="fixme" v="consider natural=peak for the most distinct mountains in the district" />
		<tag k="name" v="Reinskarfjellet" />
		<tag k="natural" v="hill" />
		<tag k="place" v="locality" />
		<tag k="ssr:stedsnr" v="502863" />
	</node>
	<node lat="68.52295833149158" lon="15.518894446916537" id="-20992">
		<tag k="name" v="Vestpolldalen" />
		<tag k="natural" v="valley" />
		<tag k="place" v="locality" />
		<tag k="ssr:stedsnr" v="503381" />
	</node>
	<node lat="68.60874999674374" lon="15.947380555567197" id="-20993">
		<tag k="name" v="Vassvikskaret" />
		<tag k="name:no" v="Vassvikskaret" />
		<tag k="name:se" v="Heargegurra" />
		<tag k="natural" v="valley" />
		<tag k="place" v="locality" />
		<tag k="ssr:stedsnr" v="503347" />
	</node>
	<node lat="68.53852777593876" lon="15.517558327253857" id="-20994">
		<tag k="name" v="Innerdalskaret" />
		<tag k="natural" v="valley" />
		<tag k="place" v="locality" />
		<tag k="ssr:stedsnr" v="503367" />
	</node>
	<node lat="68.5127222210972" lon="15.888852788114917" id="-20996">
		<tag k="alt_name" v="Kanstadbotnen" />
		<tag k="name" v="Kanstadbotn" />
		<tag k="natural" v="valley" />
		<tag k="place" v="locality" />
		<tag k="ssr:stedsnr" v="503740" />
	</node>
	<node lat="68.51242222081034" lon="15.983475007225156" id="-20997">
		<tag k="fixme" v="consider natural=peak for the most distinct mountains in the district" />
		<tag k="name" v="Trollaksla" />
		<tag k="natural" v="hill" />
		<tag k="place" v="locality" />
		<tag k="ssr:stedsnr" v="503752" />
	</node>
	<node lat="68.44585277375803" lon="15.993752769001837" id="-21007">
		<tag k="name" v="Storhaugen" />
		<tag k="natural" v="hill" />
		<tag k="place" v="locality" />
		<tag k="ssr:stedsnr" v="509472" />
	</node>
	<node lat="68.46094999805237" lon="16.003647222734532" id="-21009">
		<tag k="name" v="Slåttdalen" />
		<tag k="natural" v="valley" />
		<tag k="place" v="locality" />
		<tag k="ssr:stedsnr" v="509497" />
	</node>
	<node lat="68.4401861086124" lon="16.0093333255481" id="-21011">
		<tag k="name" v="Lahaugen" />
		<tag k="natural" v="hill" />
		<tag k="place" v="locality" />
		<tag k="ssr:stedsnr" v="510786" />
	</node>
	<node lat="68.3513027816314" lon="15.340027769329089" id="-21040">
		<tag k="name" v="Buholmen" />
		<tag k="natural" v="hill" />
		<tag k="place" v="locality" />
		<tag k="ssr:stedsnr" v="524379" />
	</node>
	<node lat="68.39229444399584" lon="15.910408335142463" id="-21042">
		<tag k="name" v="Revskaret" />
		<tag k="natural" v="valley" />
		<tag k="place" v="locality" />
		<tag k="ssr:stedsnr" v="526641" />
	</node>
	<node lat="68.4418777757268" lon="15.749705551016355" id="-21044">
		<tag k="fixme" v="consider natural=peak for the most distinct mountains in the district" />
		<tag k="name" v="Årnipen" />
		<tag k="natural" v="hill" />
		<tag k="place" v="locality" />
		<tag k="ssr:stedsnr" v="526697" />
	</node>
	<node lat="68.52596389041048" lon="15.452063877411351" id="-21047">
		<tag k="fixme" v="consider natural=peak for the most distinct mountains in the district" />
		<tag k="name" v="Møysalen" />
		<tag k="natural" v="hill" />
		<tag k="place" v="locality" />
		<tag k="ssr:stedsnr" v="563382" />
	</node>
	<node lat="68.49656666870058" lon="15.953130563315382" id="-21060">
		<tag k="fixme" v="consider natural=peak for the most distinct mountains in the district" />
		<tag k="name" v="Kanstadfjellet" />
		<tag k="natural" v="hill" />
		<tag k="place" v="locality" />
		<tag k="ssr:stedsnr" v="562119" />
	</node>
	<node lat="68.44323055246868" lon="15.648583339431392" id="-21061">
		<tag k="fixme" v="consider natural=peak for the most distinct mountains in the district" />
		<tag k="name" v="Bukketinden" />
		<tag k="natural" v="hill" />
		<tag k="place" v="locality" />
		<tag k="ssr:stedsnr" v="562183" />
	</node>
	<node lat="68.38788888816552" lon="15.460275006013385" id="-21079">
		<tag k="alt_name" v="Breidtinden" />
		<tag k="fixme" v="consider natural=peak for the most distinct mountains in the district" />
		<tag k="name" v="Breitinden" />
		<tag k="natural" v="hill" />
		<tag k="place" v="locality" />
		<tag k="ssr:stedsnr" v="562823" />
	</node>
	<node lat="68.37968055830999" lon="15.454466676424572" id="-21082">
		<tag k="name" v="Loftan" />
		<tag k="natural" v="valley" />
		<tag k="place" v="locality" />
		<tag k="ssr:stedsnr" v="562917" />
	</node>
	<node lat="68.37686944770235" lon="15.461558333058111" id="-21083">
		<tag k="fixme" v="consider natural=peak for the most distinct mountains in the district" />
		<tag k="name" v="Lamåsen" />
		<tag k="natural" v="hill" />
		<tag k="place" v="locality" />
		<tag k="ssr:stedsnr" v="562919" />
	</node>
	<node lat="68.35454999923024" lon="15.426124995977071" id="-21084">
		<tag k="name" v="Stihaugen" />
		<tag k="natural" v="hill" />
		<tag k="place" v="locality" />
		<tag k="ssr:stedsnr" v="562981" />
	</node>
	<node lat="68.35043333019308" lon="15.349536114426593" id="-21085">
		<tag k="name" v="Langhaugen" />
		<tag k="natural" v="hill" />
		<tag k="place" v="locality" />
		<tag k="ssr:stedsnr" v="562986" />
	</node>
	<node lat="68.35567499891653" lon="15.600388889214297" id="-21086">
		<tag k="fixme" v="consider natural=peak for the most distinct mountains in the district" />
		<tag k="name" v="Årnipen" />
		<tag k="natural" v="hill" />
		<tag k="place" v="locality" />
		<tag k="ssr:stedsnr" v="562993" />
	</node>
	<node lat="68.46358611194395" lon="15.477069440150219" id="-21096">
		<tag k="name" v="Stakkakollen" />
		<tag k="natural" v="hill" />
		<tag k="place" v="locality" />
		<tag k="ssr:stedsnr" v="563733" />
	</node>
	<node lat="68.51546111063001" lon="15.852502766209513" id="-21101">
		<tag k="fixme" v="consider natural=peak for the most distinct mountains in the district" />
		<tag k="name" v="Nova" />
		<tag k="natural" v="hill" />
		<tag k="place" v="locality" />
		<tag k="ssr:stedsnr" v="563807" />
	</node>
	<node lat="68.40244166443561" lon="15.516150000131974" id="-21102">
		<tag k="name" v="Bresjedalen" />
		<tag k="name:no" v="Bresjedalen" />
		<tag k="name:se" v="Bráššavággi" />
		<tag k="natural" v="valley" />
		<tag k="place" v="locality" />
		<tag k="ssr:stedsnr" v="563867" />
	</node>
	<node lat="68.32653888977318" lon="15.646669437532921" id="-21143">
		<tag k="name" v="Steingravhaugen" />
		<tag k="natural" v="hill" />
		<tag k="place" v="locality" />
		<tag k="ssr:stedsnr" v="585228" />
	</node>
	<node lat="68.33366944671978" lon="15.598788898901535" id="-21147">
		<tag k="name" v="Stokkbrua" />
		<tag k="natural" v="slope" />
		<tag k="place" v="locality" />
		<tag k="ssr:stedsnr" v="586338" />
	</node>
	<node lat="68.41223611535958" lon="15.805013877647001" id="-21152">
		<tag k="name" v="Myrskaret" />
		<tag k="natural" v="valley" />
		<tag k="place" v="locality" />
		<tag k="ssr:stedsnr" v="586675" />
	</node>
	<node lat="68.38723055369421" lon="15.71225000602553" id="-21171">
		<tag k="alt_name" v="Svadhola" />
		<tag k="name" v="Svahola" />
		<tag k="natural" v="valley" />
		<tag k="place" v="locality" />
		<tag k="ssr:stedsnr" v="623298" />
	</node>
	<node lat="68.41928333356152" lon="15.683875002508646" id="-21174">
		<tag k="name" v="Norddalen" />
		<tag k="natural" v="valley" />
		<tag k="place" v="locality" />
		<tag k="ssr:stedsnr" v="623241" />
	</node>
	<node lat="68.35878889337357" lon="15.36701388765941" id="-21180">
		<tag k="fixme" v="consider natural=peak for the most distinct mountains in the district" />
		<tag k="name" v="Brannåsan" />
		<tag k="natural" v="hill" />
		<tag k="place" v="locality" />
		<tag k="ssr:stedsnr" v="623912" />
	</node>
	<node lat="68.48148333671413" lon="15.461452776884999" id="-21184">
		<tag k="name" v="Forkledalen" />
		<tag k="natural" v="valley" />
		<tag k="place" v="locality" />
		<tag k="ssr:stedsnr" v="623659" />
	</node>
	<node lat="68.47748055186284" lon="15.507936098174005" id="-21187">
		<tag k="fixme" v="consider natural=peak for the most distinct mountains in the district" />
		<tag k="name" v="Lakselvfjellet" />
		<tag k="name:no" v="Lakselvfjellet" />
		<tag k="name:se" v="Luossavárri" />
		<tag k="natural" v="hill" />
		<tag k="place" v="locality" />
		<tag k="ssr:stedsnr" v="623738" />
	</node>
	<node lat="68.36598888641905" lon="15.483358327453361" id="-21189">
		<tag k="fixme" v="consider natural=peak for the most distinct mountains in the district" />
		<tag k="name" v="Hustadfjellet" />
		<tag k="natural" v="hill" />
		<tag k="place" v="locality" />
		<tag k="ssr:stedsnr" v="623885" />
	</node>
	<node lat="68.40537222293484" lon="15.600019451426459" id="-21193">
		<tag k="fixme" v="consider natural=peak for the most distinct mountains in the district" />
		<tag k="name" v="Lappen" />
		<tag k="natural" v="hill" />
		<tag k="place" v="locality" />
		<tag k="ssr:stedsnr" v="624046" />
	</node>
	<node lat="68.38897499886532" lon="15.237386107768469" id="-21197">
		<tag k="fixme" v="consider natural=peak for the most distinct mountains in the district" />
		<tag k="name" v="Langvasstindan" />
		<tag k="natural" v="hill" />
		<tag k="place" v="locality" />
		<tag k="ssr:stedsnr" v="624818" />
	</node>
	<node lat="68.46920555483669" lon="15.474869450315442" id="-21212">
		<tag k="name" v="Lavollen" />
		<tag k="place" v="locality" />
		<tag k="ssr:stedsnr" v="634125" />
	</node>
	<node lat="68.31641944370597" lon="15.646988898418366" id="-21222">
		<tag k="name" v="Dumpa" />
		<tag k="natural" v="valley" />
		<tag k="place" v="locality" />
		<tag k="ssr:stedsnr" v="645246" />
	</node>
	<node lat="68.3887861085842" lon="15.71272222181429" id="-21223">
		<tag k="name" v="Svahellen" />
		<tag k="place" v="locality" />
		<tag k="ssr:stedsnr" v="645601" />
	</node>
	<node lat="68.37737499962884" lon="15.647652768650856" id="-21224">
		<tag k="name" v="Sniphaugen" />
		<tag k="natural" v="hill" />
		<tag k="place" v="locality" />
		<tag k="ssr:stedsnr" v="645604" />
	</node>
	<node lat="68.37742222301507" lon="15.523508341697614" id="-21226">
		<tag k="fixme" v="consider natural=peak for the most distinct mountains in the district" />
		<tag k="name" v="Bjørnbåsen" />
		<tag k="natural" v="hill" />
		<tag k="place" v="locality" />
		<tag k="ssr:stedsnr" v="647370" />
	</node>
	<node lat="68.44496944686136" lon="15.809761102276168" id="-21228">
		<tag k="name" v="Sekelberget" />
		<tag k="natural" v="hill" />
		<tag k="place" v="locality" />
		<tag k="ssr:stedsnr" v="647642" />
	</node>
	<node lat="68.3458305550511" lon="15.646874996296566" id="-21230">
		<tag k="name" v="Budalen" />
		<tag k="natural" v="valley" />
		<tag k="place" v="locality" />
		<tag k="ssr:stedsnr" v="889723" />
	</node>
	<node lat="68.37632221759877" lon="15.705886118460056" id="-21231">
		<tag k="name" v="Brennhaugen" />
		<tag k="natural" v="hill" />
		<tag k="place" v="locality" />
		<tag k="ssr:stedsnr" v="889658" />
	</node>
	<node lat="68.37792499633001" lon="15.710458332133678" id="-21232">
		<tag k="name" v="Nausthaugen" />
		<tag k="natural" v="hill" />
		<tag k="place" v="locality" />
		<tag k="ssr:stedsnr" v="889659" />
	</node>
	<node lat="68.44880277492665" lon="15.968586103421943" id="-21246">
		<tag k="name" v="Kåringshaugen" />
		<tag k="natural" v="hill" />
		<tag k="place" v="locality" />
		<tag k="ssr:stedsnr" v="745242" />
	</node>
	<node lat="68.3719277772229" lon="15.174216676303292" id="-21261">
		<tag k="name" v="Skogjorda" />
		<tag k="natural" v="slope" />
		<tag k="place" v="locality" />
		<tag k="ssr:stedsnr" v="745941" />
	</node>
	<node lat="68.37276111227996" lon="15.213049991773248" id="-21262">
		<tag k="name" v="Kroklian" />
		<tag k="natural" v="slope" />
		<tag k="place" v="locality" />
		<tag k="ssr:stedsnr" v="745948" />
	</node>
	<node lat="68.44918611352014" lon="15.980158343295713" id="-21274">
		<tag k="fixme" v="consider natural=peak for the most distinct mountains in the district" />
		<tag k="name" v="Sørfjellet" />
		<tag k="natural" v="hill" />
		<tag k="place" v="locality" />
		<tag k="ssr:stedsnr" v="752486" />
	</node>
	<node lat="68.41707778216394" lon="15.75563332287646" id="-21308">
		<tag k="name" v="Brennhaugen" />
		<tag k="natural" v="hill" />
		<tag k="place" v="locality" />
		<tag k="ssr:stedsnr" v="767630" />
	</node>
	<node lat="68.33916111045886" lon="15.651033339783568" id="-21309">
		<tag k="name" v="Soppbyggarhaugen" />
		<tag k="natural" v="hill" />
		<tag k="place" v="locality" />
		<tag k="ssr:stedsnr" v="767714" />
	</node>
	<node lat="68.35756388604008" lon="15.70039721274457" id="-21312">
		<tag k="name" v="Rinbørevva" />
		<tag k="natural" v="valley" />
		<tag k="place" v="locality" />
		<tag k="ssr:stedsnr" v="767687" />
	</node>
	<node lat="68.45213333261452" lon="15.804966675069407" id="-21314">
		<tag k="name" v="Asphola" />
		<tag k="natural" v="valley" />
		<tag k="place" v="locality" />
		<tag k="ssr:stedsnr" v="769629" />
	</node>
	<node lat="68.33899721741469" lon="15.565230564181533" id="-21315">
		<tag k="fixme" v="consider natural=peak for the most distinct mountains in the district" />
		<tag k="name" v="Ramnreirhøgda" />
		<tag k="natural" v="hill" />
		<tag k="place" v="locality" />
		<tag k="ssr:stedsnr" v="769383" />
	</node>
	<node lat="68.45810277737719" lon="15.954202779627812" id="-21318">
		<tag k="fixme" v="consider natural=peak for the most distinct mountains in the district" />
		<tag k="name" v="Nordfjellaksla" />
		<tag k="natural" v="hill" />
		<tag k="place" v="locality" />
		<tag k="ssr:stedsnr" v="805149" />
	</node>
	<node lat="68.48043333646474" lon="16.02851111464181" id="-21331">
		<tag k="fixme" v="consider natural=peak for the most distinct mountains in the district" />
		<tag k="name" v="Storfjellet" />
		<tag k="natural" v="hill" />
		<tag k="place" v="locality" />
		<tag k="ssr:stedsnr" v="806150" />
	</node>
	<node lat="68.39383888555241" lon="15.907230547627696" id="-21349">
		<tag k="name" v="Neshaugen" />
		<tag k="natural" v="hill" />
		<tag k="place" v="locality" />
		<tag k="ssr:stedsnr" v="806269" />
	</node>
	<node lat="68.50926111202794" lon="15.501530553772847" id="-21356">
		<tag k="fixme" v="consider natural=peak for the most distinct mountains in the district" />
		<tag k="name" v="Forselvtinden" />
		<tag k="natural" v="hill" />
		<tag k="place" v="locality" />
		<tag k="ssr:stedsnr" v="806400" />
	</node>
	<node lat="68.44899167009905" lon="15.448172234837303" id="-21364">
		<tag k="fixme" v="consider natural=peak for the most distinct mountains in the district" />
		<tag k="name" v="Elvtindan" />
		<tag k="natural" v="hill" />
		<tag k="place" v="locality" />
		<tag k="ssr:stedsnr" v="806812" />
	</node>
	<node lat="68.34953333701921" lon="15.181311121068918" id="-21365">
		<tag k="fixme" v="consider natural=peak for the most distinct mountains in the district" />
		<tag k="name" v="Tverrfjellet" />
		<tag k="natural" v="hill" />
		<tag k="place" v="locality" />
		<tag k="ssr:stedsnr" v="806898" />
	</node>
	<node lat="68.36416666240127" lon="15.172686120794117" id="-21367">
		<tag k="name" v="Vesterkråa" />
		<tag k="natural" v="valley" />
		<tag k="place" v="locality" />
		<tag k="ssr:stedsnr" v="806905" />
	</node>
	<node lat="68.35281666841243" lon="15.581194434312113" id="-21371">
		<tag k="fixme" v="consider natural=peak for the most distinct mountains in the district" />
		<tag k="name" v="Lappranen" />
		<tag k="natural" v="hill" />
		<tag k="place" v="locality" />
		<tag k="ssr:stedsnr" v="806995" />
	</node>
	<node lat="68.59724166917105" lon="15.957905543811231" id="-21377">
		<tag k="name" v="Botnslettan" />
		<tag k="place" v="locality" />
		<tag k="ssr:stedsnr" v="807796" />
	</node>
	<node lat="68.38879444253388" lon="15.41958889046935" id="-21416">
		<tag k="fixme" v="consider natural=peak for the most distinct mountains in the district" />
		<tag k="name" v="Skavdalkruna" />
		<tag k="natural" v="hill" />
		<tag k="place" v="locality" />
		<tag k="ssr:stedsnr" v="828390" />
	</node>
	<node lat="68.37528333286922" lon="15.649974997761031" id="-21419">
		<tag k="name" v="Godbakkan" />
		<tag k="natural" v="slope" />
		<tag k="place" v="locality" />
		<tag k="ssr:stedsnr" v="828596" />
	</node>
	<node lat="68.47607777820244" lon="15.868544434967001" id="-21421">
		<tag k="name" v="Melkarberget" />
		<tag k="natural" v="hill" />
		<tag k="place" v="locality" />
		<tag k="ssr:stedsnr" v="830548" />
	</node>
	<node lat="68.38523889043614" lon="15.88968888603478" id="-21423">
		<tag k="name" v="Gjetarhaugen" />
		<tag k="natural" v="hill" />
		<tag k="place" v="locality" />
		<tag k="ssr:stedsnr" v="830631" />
	</node>
	<node lat="68.43772222427074" lon="15.835544454886785" id="-21432">
		<tag k="name" v="Dalen" />
		<tag k="natural" v="valley" />
		<tag k="place" v="locality" />
		<tag k="ssr:stedsnr" v="866190" />
	</node>
	<node lat="68.46090555867653" lon="15.996524994577424" id="-21436">
		<tag k="name" v="Gamdalen" />
		<tag k="name:no" v="Gamdalen" />
		<tag k="name:se" v="Gámavággi" />
		<tag k="natural" v="valley" />
		<tag k="place" v="locality" />
		<tag k="ssr:stedsnr" v="866156" />
	</node>
	<node lat="68.4631861122333" lon="15.824522225633336" id="-21438">
		<tag k="fixme" v="consider natural=peak for the most distinct mountains in the district" />
		<tag k="name" v="Bjørnmyrtinden" />
		<tag k="natural" v="hill" />
		<tag k="place" v="locality" />
		<tag k="ssr:stedsnr" v="866161" />
	</node>
	<node lat="68.35827499686899" lon="15.657458338589299" id="-21447">
		<tag k="fixme" v="consider natural=peak for the most distinct mountains in the district" />
		<tag k="name" v="Ytterstadfjellet" />
		<tag k="natural" v="hill" />
		<tag k="place" v="locality" />
		<tag k="ssr:stedsnr" v="866319" />
	</node>
	<node lat="68.48543611095664" lon="16.061188890016126" id="-21459">
		<tag k="fixme" v="consider natural=peak for the most distinct mountains in the district" />
		<tag k="name" v="Tverrfjellet" />
		<tag k="natural" v="hill" />
		<tag k="place" v="locality" />
		<tag k="ssr:stedsnr" v="867184" />
	</node>
	<node lat="68.55947221980696" lon="15.891666661877766" id="-21467">
		<tag k="fixme" v="consider natural=peak for the most distinct mountains in the district" />
		<tag k="name" v="Kvanndalsaksla" />
		<tag k="natural" v="hill" />
		<tag k="place" v="locality" />
		<tag k="ssr:stedsnr" v="867881" />
	</node>
	<node lat="68.43442500187707" lon="15.95059722957401" id="-21470">
		<tag k="alt_name" v="Lødingaksla" />
		<tag k="fixme" v="consider natural=peak for the most distinct mountains in the district" />
		<tag k="name" v="Lødingsaksla" />
		<tag k="natural" v="hill" />
		<tag k="place" v="locality" />
		<tag k="ssr:stedsnr" v="867272" />
	</node>
	<node lat="68.59631666320051" lon="16.002108327310577" id="-21477">
		<tag k="fixme" v="consider natural=peak for the most distinct mountains in the district" />
		<tag k="name" v="Lørvefjellet" />
		<tag k="name:no" v="Lørvefjellet" />
		<tag k="name:se" v="Rimsevárri" />
		<tag k="natural" v="hill" />
		<tag k="place" v="locality" />
		<tag k="ssr:stedsnr" v="867833" />
	</node>
	<node lat="68.53375555668815" lon="16.031722215136384" id="-21479">
		<tag k="name" v="Fiskefjordlia" />
		<tag k="natural" v="slope" />
		<tag k="place" v="locality" />
		<tag k="ssr:stedsnr" v="867776" />
	</node>
	<node lat="68.43581389227978" lon="15.968141674312186" id="-21498">
		<tag k="fixme" v="consider natural=peak for the most distinct mountains in the district" />
		<tag k="name" v="Lødingsfjellet" />
		<tag k="natural" v="hill" />
		<tag k="place" v="locality" />
		<tag k="ssr:stedsnr" v="874768" />
	</node>
	<node lat="68.36891944764781" lon="15.37792221394302" id="-21527">
		<tag k="fixme" v="consider natural=peak for the most distinct mountains in the district" />
		<tag k="name" v="Storskaråsen" />
		<tag k="natural" v="hill" />
		<tag k="place" v="locality" />
		<tag k="ssr:stedsnr" v="889422" />
	</node>
	<node lat="68.3805111154281" lon="15.699572227565472" id="-21551">
		<tag k="name" v="Trohaugen" />
		<tag k="natural" v="hill" />
		<tag k="place" v="locality" />
		<tag k="ssr:stedsnr" v="949564" />
	</node>
	<node lat="68.37977499754874" lon="15.684080542723144" id="-21553">
		<tag k="name" v="Kråkhaugen" />
		<tag k="natural" v="hill" />
		<tag k="place" v="locality" />
		<tag k="ssr:stedsnr" v="949576" />
	</node>
	<node lat="68.3406999962788" lon="15.608733332911145" id="-21556">
		<tag k="name" v="Beretgjota" />
		<tag k="natural" v="valley" />
		<tag k="place" v="locality" />
		<tag k="ssr:stedsnr" v="951319" />
	</node>
	<node lat="68.39429722441946" lon="15.899780545613849" id="-21559">
		<tag k="name" v="Kjørskaret" />
		<tag k="natural" v="valley" />
		<tag k="place" v="locality" />
		<tag k="ssr:stedsnr" v="951610" />
	</node>
</osm>
