<?xml version="1.0" encoding="UTF-8"?>
<osm version="0.6" generator="osmapis">
	<node lat="68.28356666629351" lon="15.36066944693784" id="-19308">
		<tag k="fixme" v="consider seamark:type=rock or natural=shoal" />
		<tag k="name" v="Svartskjeret" />
		<tag k="place" v="islet" />
		<tag k="ssr:stedsnr" v="16064" />
	</node>
	<node lat="68.30242777722418" lon="15.363199995458599" id="-19315">
		<tag k="name" v="Gulføttingen" />
		<tag k="place" v="islet" />
		<tag k="ssr:stedsnr" v="17068" />
	</node>
	<node lat="68.27391666395846" lon="15.238638880465198" id="-19316">
		<tag k="name" v="Tjørnøya" />
		<tag k="place" v="island" />
		<tag k="ssr:stedsnr" v="17105" />
	</node>
	<node lat="68.2751777795897" lon="15.572763881088118" id="-19317">
		<tag k="name" v="Alpøykalven" />
		<tag k="place" v="islet" />
		<tag k="ssr:stedsnr" v="17107" />
	</node>
	<node lat="68.3483861094047" lon="15.767716655845868" id="-19320">
		<tag k="alt_name" v="Rindbøtverrskjeran" />
		<tag k="fixme" v="consider seamark:type=rock or natural=shoal" />
		<tag k="name" v="Rindbøtverrskjæran" />
		<tag k="place" v="islet" />
		<tag k="ssr:stedsnr" v="17363" />
	</node>
	<node lat="68.34096944823038" lon="15.294425000664997" id="-19345">
		<tag k="name" v="Håkjerringholmen" />
		<tag k="place" v="islet" />
		<tag k="ssr:stedsnr" v="36281" />
	</node>
	<node lat="68.33244444694756" lon="15.356566676179712" id="-19346">
		<tag k="name" v="Hjertøygrunnen" />
		<tag k="natural" v="shoal" />
		<tag k="place" v="locality" />
		<tag k="ssr:stedsnr" v="36283" />
	</node>
	<node lat="68.46817500185851" lon="16.072930547145194" id="-19347">
		<tag k="fixme" v="consider seamark:type=rock or natural=shoal" />
		<tag k="name" v="Storøyra" />
		<tag k="place" v="islet" />
		<tag k="ssr:stedsnr" v="36421" />
	</node>
	<node lat="68.42103610914334" lon="15.997891655881856" id="-19348">
		<tag k="name" v="Olagrunnen" />
		<tag k="natural" v="shoal" />
		<tag k="place" v="locality" />
		<tag k="ssr:stedsnr" v="36423" />
	</node>
	<node lat="68.32241111158284" lon="15.658463898488504" id="-19350">
		<tag k="fixme" v="consider seamark:type=rock or natural=shoal" />
		<tag k="name" v="Silsandskjeret" />
		<tag k="place" v="islet" />
		<tag k="ssr:stedsnr" v="39211" />
	</node>
	<node lat="68.33345833371312" lon="15.643588889629434" id="-19354">
		<tag k="name" v="Soppneset" />
		<tag k="natural" v="cape" />
		<tag k="ssr:stedsnr" v="39662" />
	</node>
	<node lat="68.38114722444683" lon="15.881527771486939" id="-19357">
		<tag k="name" v="Sør-Korsvika" />
		<tag k="natural" v="bay" />
		<tag k="ssr:stedsnr" v="40624" />
	</node>
	<node lat="68.31810555955536" lon="15.370677775902317" id="-19358">
		<tag k="name" v="Hustadvær" />
		<tag k="place" v="island" />
		<tag k="ssr:stedsnr" v="77017" />
	</node>
	<node lat="68.36451111308655" lon="15.897399991470015" id="-19361">
		<tag k="name" v="Skarvhausbåen" />
		<tag k="natural" v="shoal" />
		<tag k="place" v="locality" />
		<tag k="ssr:stedsnr" v="77356" />
	</node>
	<node lat="68.30878611098011" lon="15.581963884057663" id="-19367">
		<tag k="name" v="Langosneset" />
		<tag k="natural" v="cape" />
		<tag k="ssr:stedsnr" v="78066" />
	</node>
	<node lat="68.38580833370932" lon="15.9119249914231" id="-19369">
		<tag k="name" v="Mølnvikneset" />
		<tag k="natural" v="cape" />
		<tag k="ssr:stedsnr" v="78302" />
	</node>
	<node lat="68.30879999576585" lon="15.60080278017393" id="-19378">
		<tag k="name" v="Naustholmen" />
		<tag k="place" v="islet" />
		<tag k="ssr:stedsnr" v="79031" />
	</node>
	<node lat="68.5019222204769" lon="15.581238881966147" id="-19407">
		<tag k="name" v="Revet" />
		<tag k="natural" v="shoal" />
		<tag k="place" v="locality" />
		<tag k="ssr:stedsnr" v="96368" />
	</node>
	<node lat="68.40010000327324" lon="15.801272228940853" id="-19408">
		<tag k="fixme" v="consider seamark:type=rock or natural=shoal" />
		<tag k="name" v="Litjskjæret" />
		<tag k="place" v="islet" />
		<tag k="ssr:stedsnr" v="97432" />
	</node>
	<node lat="68.36961666970228" lon="15.709350008686618" id="-19412">
		<tag k="name" v="Klubben" />
		<tag k="natural" v="cape" />
		<tag k="ssr:stedsnr" v="100663" />
	</node>
	<node lat="68.50408889053351" lon="15.866808338100737" id="-19414">
		<tag k="name" v="Varpstø" />
		<tag k="natural" v="cape" />
		<tag k="ssr:stedsnr" v="101562" />
	</node>
	<node lat="68.26859721831265" lon="15.200336109959197" id="-19417">
		<tag k="alt_name" v="Store Kløyvøya" />
		<tag k="name" v="Kløyvøyan" />
		<tag k="place" v="island" />
		<tag k="ssr:stedsnr" v="138110" />
	</node>
	<node lat="68.41649722016201" lon="15.848549995242804" id="-19418">
		<tag k="alt_name" v="Gardsøya" />
		<tag k="name" v="Gårdsøya" />
		<tag k="place" v="islet" />
		<tag k="ssr:stedsnr" v="138302" />
	</node>
	<node lat="68.37642778160398" lon="15.662238887575423" id="-19419">
		<tag k="name" v="Mattisfjorden" />
		<tag k="natural" v="bay" />
		<tag k="ssr:stedsnr" v="138314" />
	</node>
	<node lat="68.39696111356668" lon="15.319463895799904" id="-19422">
		<tag k="name" v="Kolvika" />
		<tag k="natural" v="bay" />
		<tag k="ssr:stedsnr" v="138849" />
	</node>
	<node lat="68.41647499759324" lon="15.777586106066881" id="-19445">
		<tag k="fixme" v="consider seamark:type=rock or natural=shoal" />
		<tag k="name" v="Lappvikskjæret" />
		<tag k="place" v="islet" />
		<tag k="ssr:stedsnr" v="157409" />
	</node>
	<node lat="68.44755000403491" lon="15.791313900193257" id="-19448">
		<tag k="alt_name" v="Kobbneset, ytre" />
		<tag k="name" v="Ytre Kobbneset" />
		<tag k="natural" v="cape" />
		<tag k="ssr:stedsnr" v="259182" />
	</node>
	<node lat="68.44198333238567" lon="15.862180552051825" id="-19449">
		<tag k="name" v="Skavikneset" />
		<tag k="natural" v="cape" />
		<tag k="ssr:stedsnr" v="259194" />
	</node>
	<node lat="68.33793889078255" lon="15.689572216868662" id="-19450">
		<tag k="name" v="Oksbåsen" />
		<tag k="natural" v="bay" />
		<tag k="ssr:stedsnr" v="259294" />
	</node>
	<node lat="68.31416944199258" lon="15.665330557040651" id="-19451">
		<tag k="name" v="Vikaodden" />
		<tag k="natural" v="cape" />
		<tag k="ssr:stedsnr" v="259348" />
	</node>
	<node lat="68.3089444467382" lon="15.587302782641238" id="-19453">
		<tag k="name" v="Sandtjønnan" />
		<tag k="natural" v="cape" />
		<tag k="ssr:stedsnr" v="162412" />
	</node>
	<node lat="68.43879721946347" lon="15.468016655667245" id="-19459">
		<tag k="alt_name" v="Høystakkskjeret" />
		<tag k="name" v="Høystakkskjæret" />
		<tag k="natural" v="shoal" />
		<tag k="place" v="locality" />
		<tag k="ssr:stedsnr" v="259794" />
	</node>
	<node lat="68.38925555130773" lon="15.934594454641102" id="-19468">
		<tag k="alt_name" v="Flatskjeret" />
		<tag k="fixme" v="consider seamark:type=rock or natural=shoal" />
		<tag k="name" v="Flatskjeran" />
		<tag k="place" v="islet" />
		<tag k="ssr:stedsnr" v="260346" />
	</node>
	<node lat="68.27424999883975" lon="15.626980561224077" id="-19470">
		<tag k="alt_name" v="Kvannskjeran" />
		<tag k="fixme" v="consider seamark:type=rock or natural=shoal" />
		<tag k="name" v="Kvannskjæran" />
		<tag k="place" v="islet" />
		<tag k="ssr:stedsnr" v="260427" />
	</node>
	<node lat="68.34244166290657" lon="15.416136108909274" id="-19478">
		<tag k="name" v="Måsøya" />
		<tag k="place" v="island" />
		<tag k="ssr:stedsnr" v="260985" />
	</node>
	<node lat="68.45783332994148" lon="16.032086111959952" id="-19486">
		<tag k="name" v="Sørneset" />
		<tag k="natural" v="cape" />
		<tag k="ssr:stedsnr" v="198165" />
	</node>
	<node lat="68.45457500086397" lon="16.029019440155157" id="-19487">
		<tag k="alt_name" v="Litleholmen" />
		<tag k="name" v="Lilleholmen" />
		<tag k="place" v="islet" />
		<tag k="ssr:stedsnr" v="198166" />
	</node>
	<node lat="68.32118055445049" lon="15.514163887760953" id="-19488">
		<tag k="alt_name" v="Blåskjeret" />
		<tag k="fixme" v="multiple name tags, choose one and add the other to alt_name; consider seamark:type=rock or natural=shoal" />
		<tag k="name" v="Blåskjerbåen;Blåskjæret" />
		<tag k="place" v="islet" />
		<tag k="ssr:stedsnr" v="199019" />
	</node>
	<node lat="68.4778694414585" lon="15.882536109443784" id="-19490">
		<tag k="fixme" v="multiple name tags, choose one and add the other to alt_name" />
		<tag k="name" v="Tyttebærneset;Høgblikkneset;Høgbekkneset" />
		<tag k="natural" v="cape" />
		<tag k="ssr:stedsnr" v="199172" />
	</node>
	<node lat="68.31590833269678" lon="15.698049994644393" id="-19491">
		<tag k="name" v="Kalvholmen" />
		<tag k="place" v="islet" />
		<tag k="ssr:stedsnr" v="199356" />
	</node>
	<node lat="68.32162222498225" lon="15.713263895878994" id="-19492">
		<tag k="alt_name" v="Latmannsbåen;Latmannsbøen" />
		<tag k="fixme" v="consider seamark:type=rock or natural=shoal" />
		<tag k="name" v="Latmannsbøya" />
		<tag k="place" v="islet" />
		<tag k="ssr:stedsnr" v="199364" />
	</node>
	<node lat="68.33438888445653" lon="15.307286120528897" id="-19501">
		<tag k="name" v="Svinøyholman" />
		<tag k="place" v="islet" />
		<tag k="ssr:stedsnr" v="199966" />
	</node>
	<node lat="68.3402361114027" lon="15.408547212511364" id="-19502">
		<tag k="name" v="Klubbøya" />
		<tag k="place" v="islet" />
		<tag k="ssr:stedsnr" v="199968" />
	</node>
	<node lat="68.34514166378746" lon="15.335783338602027" id="-19503">
		<tag k="fixme" v="consider seamark:type=rock or natural=shoal" />
		<tag k="name" v="Kvalen" />
		<tag k="place" v="islet" />
		<tag k="ssr:stedsnr" v="199974" />
	</node>
	<node lat="68.48462777728582" lon="15.873100009097202" id="-19505">
		<tag k="name" v="Storneset" />
		<tag k="natural" v="cape" />
		<tag k="ssr:stedsnr" v="200444" />
	</node>
	<node lat="68.44703610781896" lon="16.048388885897257" id="-19507">
		<tag k="fixme" v="consider seamark:type=rock or natural=shoal" />
		<tag k="name" v="Lille-Falken" />
		<tag k="place" v="islet" />
		<tag k="ssr:stedsnr" v="267701" />
	</node>
	<node lat="68.34614722469614" lon="15.344322234302368" id="-19511">
		<tag k="name" v="Geitvika" />
		<tag k="natural" v="bay" />
		<tag k="ssr:stedsnr" v="267870" />
	</node>
	<node lat="68.33229166817871" lon="15.411050012053892" id="-19553">
		<tag k="name" v="Gagnlausholmen" />
		<tag k="place" v="islet" />
		<tag k="ssr:stedsnr" v="221404" />
	</node>
	<node lat="68.3784027749921" lon="15.694836101438618" id="-19555">
		<tag k="name" v="Aspeneset" />
		<tag k="natural" v="cape" />
		<tag k="ssr:stedsnr" v="221580" />
	</node>
	<node lat="68.37841110793956" lon="15.677741658906369" id="-19556">
		<tag k="name" v="Båtneset" />
		<tag k="natural" v="cape" />
		<tag k="ssr:stedsnr" v="221585" />
	</node>
	<node lat="68.37842777381526" lon="15.682436100791247" id="-19557">
		<tag k="name" v="Kråkøyra" />
		<tag k="natural" v="cape" />
		<tag k="ssr:stedsnr" v="221586" />
	</node>
	<node lat="68.33315555986458" lon="15.661441657927776" id="-19570">
		<tag k="name" v="Tittingstranda" />
		<tag k="natural" v="beach" />
		<tag k="ssr:stedsnr" v="452128" />
	</node>
	<node lat="68.50989999607917" lon="16.12503054425828" id="-19588">
		<tag k="name" v="Skagodden" />
		<tag k="place" v="islet" />
		<tag k="ssr:stedsnr" v="454694" />
	</node>
	<node lat="68.272008336343" lon="15.373780545495189" id="-19590">
		<tag k="alt_name" v="Søre Brøran" />
		<tag k="name" v="Brøran" />
		<tag k="natural" v="shoal" />
		<tag k="place" v="locality" />
		<tag k="ssr:stedsnr" v="259107" />
	</node>
	<node lat="68.2681805579639" lon="15.478563878352102" id="-19591">
		<tag k="alt_name" v="Gullhavskjeret" />
		<tag k="fixme" v="consider seamark:type=rock or natural=shoal" />
		<tag k="name" v="Gullhavskjæret" />
		<tag k="place" v="islet" />
		<tag k="ssr:stedsnr" v="259110" />
	</node>
	<node lat="68.27310555410216" lon="15.443536122075207" id="-19592">
		<tag k="alt_name" v="Storhavskjeret" />
		<tag k="fixme" v="consider seamark:type=rock or natural=shoal" />
		<tag k="name" v="Storhavskjæret" />
		<tag k="place" v="islet" />
		<tag k="ssr:stedsnr" v="259112" />
	</node>
	<node lat="68.26334444846516" lon="15.473661107218911" id="-19593">
		<tag k="fixme" v="consider seamark:type=rock or natural=shoal" />
		<tag k="name" v="Flesa" />
		<tag k="place" v="islet" />
		<tag k="ssr:stedsnr" v="259120" />
	</node>
	<node lat="68.2514527792446" lon="15.19341110768198" id="-19594">
		<tag k="alt_name" v="Litje Gjessøybåen" />
		<tag k="name" v="Gjesøybåen" />
		<tag k="natural" v="shoal" />
		<tag k="place" v="locality" />
		<tag k="ssr:stedsnr" v="259126" />
	</node>
	<node lat="68.45686666410279" lon="16.02937776922788" id="-19595">
		<tag k="name" v="Einvika" />
		<tag k="natural" v="bay" />
		<tag k="ssr:stedsnr" v="259174" />
	</node>
	<node lat="68.40335555911722" lon="15.825441677847586" id="-19597">
		<tag k="alt_name" v="Erikstadneset, yt" />
		<tag k="fixme" v="multiple name tags, choose one and add the other to alt_name" />
		<tag k="name" v="Ytre Erikstadneset;Erikstadneset" />
		<tag k="natural" v="cape" />
		<tag k="ssr:stedsnr" v="259241" />
	</node>
	<node lat="68.38104722182314" lon="15.86632221272292" id="-19598">
		<tag k="fixme" v="multiple name tags, choose one and add the other to alt_name; consider seamark:type=rock or natural=shoal" />
		<tag k="name" v="Rakkfallan;Rakfallskjeran" />
		<tag k="place" v="islet" />
		<tag k="ssr:stedsnr" v="259257" />
	</node>
	<node lat="68.38572778203586" lon="15.360783323155722" id="-19599">
		<tag k="name" v="Forøygrunnen" />
		<tag k="natural" v="shoal" />
		<tag k="place" v="locality" />
		<tag k="ssr:stedsnr" v="259835" />
	</node>
	<node lat="68.32138055741576" lon="15.549852784400615" id="-19603">
		<tag k="name" v="Svinøya" />
		<tag k="place" v="island" />
		<tag k="ssr:stedsnr" v="260058" />
	</node>
	<node lat="68.23179166788113" lon="15.479583325550646" id="-19606">
		<tag k="name" v="Bordgrunnen" />
		<tag k="natural" v="shoal" />
		<tag k="place" v="locality" />
		<tag k="ssr:stedsnr" v="260111" />
	</node>
	<node lat="68.39255833293642" lon="15.927477785439047" id="-19608">
		<tag k="alt_name" v="Øygårdsneset" />
		<tag k="name" v="Øygårdneset" />
		<tag k="natural" v="cape" />
		<tag k="ssr:stedsnr" v="260307" />
	</node>
	<node lat="68.38365555971232" lon="15.905658338510136" id="-19609">
		<tag k="name" v="Langneset" />
		<tag k="natural" v="cape" />
		<tag k="ssr:stedsnr" v="260464" />
	</node>
	<node lat="68.50399444162387" lon="16.10437222129584" id="-19635">
		<tag k="name" v="Kistholmgrunnen" />
		<tag k="natural" v="shoal" />
		<tag k="place" v="locality" />
		<tag k="ssr:stedsnr" v="272629" />
	</node>
	<node lat="68.35221389218897" lon="15.756516672686685" id="-19636">
		<tag k="name" v="Stabben" />
		<tag k="natural" v="shoal" />
		<tag k="place" v="locality" />
		<tag k="ssr:stedsnr" v="278076" />
	</node>
	<node lat="68.31865555673913" lon="15.503822232065469" id="-19637">
		<tag k="fixme" v="consider seamark:type=rock or natural=shoal" />
		<tag k="name" v="Smitskjæret" />
		<tag k="place" v="islet" />
		<tag k="ssr:stedsnr" v="279290" />
	</node>
	<node lat="68.37151110733274" lon="15.691391673180137" id="-19638">
		<tag k="name" v="Sirivik" />
		<tag k="natural" v="bay" />
		<tag k="ssr:stedsnr" v="282671" />
	</node>
	<node lat="68.30921110713598" lon="15.65568056094938" id="-19639">
		<tag k="name" v="Langstrandholman" />
		<tag k="place" v="islet" />
		<tag k="ssr:stedsnr" v="282689" />
	</node>
	<node lat="68.35174444083299" lon="15.488352775915612" id="-19642">
		<tag k="fixme" v="consider seamark:type=rock or natural=shoal" />
		<tag k="name" v="Kobbsteinen" />
		<tag k="place" v="islet" />
		<tag k="ssr:stedsnr" v="461294" />
	</node>
	<node lat="68.25336944656296" lon="15.202675001466758" id="-19645">
		<tag k="name" v="Store Gjessøybåen" />
		<tag k="natural" v="shoal" />
		<tag k="place" v="locality" />
		<tag k="ssr:stedsnr" v="461653" />
	</node>
	<node lat="68.30933610637604" lon="15.613738899075873" id="-19654">
		<tag k="name" v="Nyøysundet" />
		<tag k="natural" v="strait" />
		<tag k="ssr:stedsnr" v="465383" />
	</node>
	<node lat="68.3780361110165" lon="15.879411102951584" id="-19655">
		<tag k="name" v="Auenholman" />
		<tag k="place" v="islet" />
		<tag k="ssr:stedsnr" v="465568" />
	</node>
	<node lat="68.28181110772319" lon="15.547502764378294" id="-19656">
		<tag k="fixme" v="consider seamark:type=rock or natural=shoal" />
		<tag k="name" v="Eistan" />
		<tag k="place" v="islet" />
		<tag k="ssr:stedsnr" v="320106" />
	</node>
	<node lat="68.2656722266528" lon="15.237013884731297" id="-19657">
		<tag k="alt_name" v="Staurskaren" />
		<tag k="name" v="Staursgarden" />
		<tag k="natural" v="shoal" />
		<tag k="place" v="locality" />
		<tag k="ssr:stedsnr" v="320111" />
	</node>
	<node lat="68.26528610700387" lon="15.251830559080178" id="-19658">
		<tag k="name" v="Stabben" />
		<tag k="natural" v="shoal" />
		<tag k="place" v="locality" />
		<tag k="ssr:stedsnr" v="320112" />
	</node>
	<node lat="68.26427222001801" lon="15.210724997220614" id="-19659">
		<tag k="name" v="Kåvøya" />
		<tag k="place" v="island" />
		<tag k="ssr:stedsnr" v="320120" />
	</node>
	<node lat="68.26527222534952" lon="15.613769455552823" id="-19660">
		<tag k="alt_name" v="Havskjeran" />
		<tag k="fixme" v="consider seamark:type=rock or natural=shoal" />
		<tag k="name" v="Havskjæran" />
		<tag k="place" v="islet" />
		<tag k="ssr:stedsnr" v="320136" />
	</node>
	<node lat="68.32398055778053" lon="15.532833326283882" id="-19662">
		<tag k="fixme" v="consider seamark:type=rock or natural=shoal" />
		<tag k="name" v="Spanna" />
		<tag k="place" v="islet" />
		<tag k="ssr:stedsnr" v="320013" />
	</node>
	<node lat="68.28207778028246" lon="15.335541668007027" id="-19665">
		<tag k="name" v="Jorda" />
		<tag k="place" v="islet" />
		<tag k="ssr:stedsnr" v="320079" />
	</node>
	<node lat="68.27934166747889" lon="15.494100003635998" id="-19666">
		<tag k="name" v="Gammøya" />
		<tag k="place" v="island" />
		<tag k="ssr:stedsnr" v="320083" />
	</node>
	<node lat="68.45163611444592" lon="15.790822232445423" id="-19668">
		<tag k="alt_name" v="Kobbneset, indre" />
		<tag k="name" v="Indre Kobbneset" />
		<tag k="natural" v="cape" />
		<tag k="ssr:stedsnr" v="320189" />
	</node>
	<node lat="68.37186388642498" lon="15.699669448091178" id="-19671">
		<tag k="alt_name" v="Kjerringøy" />
		<tag k="name" v="Kjerringøya" />
		<tag k="place" v="islet" />
		<tag k="ssr:stedsnr" v="320340" />
	</node>
	<node lat="68.30423610731721" lon="15.643661118972936" id="-19673">
		<tag k="name" v="Per Hansaholmen" />
		<tag k="place" v="islet" />
		<tag k="ssr:stedsnr" v="320348" />
	</node>
	<node lat="68.30083055591388" lon="15.661136115756769" id="-19674">
		<tag k="alt_name" v="Skarvhausen, litle;Lille Skarvhausen" />
		<tag k="name" v="Litje Skarvhausen" />
		<tag k="place" v="islet" />
		<tag k="ssr:stedsnr" v="320349" />
	</node>
	<node lat="68.27316111031158" lon="15.668236115421978" id="-19675">
		<tag k="fixme" v="consider seamark:type=rock or natural=shoal" />
		<tag k="name" v="Ternskjeret" />
		<tag k="place" v="islet" />
		<tag k="ssr:stedsnr" v="320396" />
	</node>
	<node lat="68.38490000211087" lon="15.94035000841579" id="-19676">
		<tag k="alt_name" v="Leiskjeret" />
		<tag k="fixme" v="consider seamark:type=rock or natural=shoal" />
		<tag k="name" v="Leiskjæret" />
		<tag k="place" v="islet" />
		<tag k="ssr:stedsnr" v="320291" />
	</node>
	<node lat="68.38693333015691" lon="15.86396665418325" id="-19677">
		<tag k="name" v="Nesodden" />
		<tag k="natural" v="cape" />
		<tag k="ssr:stedsnr" v="320298" />
	</node>
	<node lat="68.34141111253972" lon="15.39720554797916" id="-19684">
		<tag k="name" v="Skarvhausen" />
		<tag k="place" v="islet" />
		<tag k="ssr:stedsnr" v="320985" />
	</node>
	<node lat="68.34850277503637" lon="15.419841668965416" id="-19685">
		<tag k="name" v="Ungsmaløya" />
		<tag k="place" v="islet" />
		<tag k="ssr:stedsnr" v="320987" />
	</node>
	<node lat="68.27220277490908" lon="15.632349998259482" id="-19709">
		<tag k="fixme" v="consider seamark:type=rock or natural=shoal" />
		<tag k="name" v="Svartskjæret" />
		<tag k="place" v="islet" />
		<tag k="ssr:stedsnr" v="339409" />
	</node>
	<node lat="68.41262222299902" lon="15.756655565925328" id="-19710">
		<tag k="alt_name" v="Blåskjeret" />
		<tag k="fixme" v="consider seamark:type=rock or natural=shoal" />
		<tag k="name" v="Blåskjæret" />
		<tag k="place" v="islet" />
		<tag k="ssr:stedsnr" v="339419" />
	</node>
	<node lat="68.31466111370787" lon="15.663138884996203" id="-19711">
		<tag k="name" v="Vikaosen" />
		<tag k="natural" v="bay" />
		<tag k="ssr:stedsnr" v="342245" />
	</node>
	<node lat="68.32621667048225" lon="15.58357222917466" id="-19714">
		<tag k="name" v="Langholmen" />
		<tag k="place" v="islet" />
		<tag k="ssr:stedsnr" v="380007" />
	</node>
	<node lat="68.32490000156817" lon="15.339755548446199" id="-19716">
		<tag k="name" v="Oksøyvær" />
		<tag k="place" v="island" />
		<tag k="ssr:stedsnr" v="380014" />
	</node>
	<node lat="68.3742694467083" lon="15.663974997830014" id="-19721">
		<tag k="name" v="Larsfjorden" />
		<tag k="natural" v="bay" />
		<tag k="ssr:stedsnr" v="380271" />
	</node>
	<node lat="68.46373611422389" lon="16.060172210491146" id="-19723">
		<tag k="alt_name" v="Langskjeret" />
		<tag k="fixme" v="consider seamark:type=rock or natural=shoal" />
		<tag k="name" v="Langskjæret" />
		<tag k="place" v="islet" />
		<tag k="ssr:stedsnr" v="381180" />
	</node>
	<node lat="68.37617222629363" lon="15.679108333007981" id="-19724">
		<tag k="bay" v="fjord" />
		<tag k="name" v="Mellomfjorden" />
		<tag k="natural" v="bay" />
		<tag k="ssr:stedsnr" v="381304" />
	</node>
	<node lat="68.39042500312861" lon="15.866994432729998" id="-19725">
		<tag k="name" v="Skjåvika" />
		<tag k="natural" v="bay" />
		<tag k="ssr:stedsnr" v="381306" />
	</node>
	<node lat="68.36874166748851" lon="15.368438898450519" id="-19732">
		<tag k="alt_name" v="Melkerpollen" />
		<tag k="name" v="Melkarpollen" />
		<tag k="natural" v="bay" />
		<tag k="ssr:stedsnr" v="381915" />
	</node>
	<node lat="68.45623333194754" lon="15.796961106026252" id="-19762">
		<tag k="name" v="Bjørnmyrklubben" />
		<tag k="natural" v="cape" />
		<tag k="ssr:stedsnr" v="404608" />
	</node>
	<node lat="68.32606388609176" lon="15.540938878854922" id="-19763">
		<tag k="name" v="Hegstadosen" />
		<tag k="natural" v="strait" />
		<tag k="ssr:stedsnr" v="405434" />
	</node>
	<node lat="68.27378611065181" lon="15.292408330343012" id="-19765">
		<tag k="name" v="Kvitholmen" />
		<tag k="place" v="islet" />
		<tag k="ssr:stedsnr" v="441090" />
	</node>
	<node lat="68.28450277617696" lon="15.505161104295697" id="-19766">
		<tag k="name" v="Vågøyholman" />
		<tag k="place" v="islet" />
		<tag k="ssr:stedsnr" v="441098" />
	</node>
	<node lat="68.33305833591707" lon="15.65876944180565" id="-19768">
		<tag k="name" v="Rabben" />
		<tag k="natural" v="cape" />
		<tag k="ssr:stedsnr" v="441311" />
	</node>
	<node lat="68.3695833305976" lon="15.944916671027354" id="-19770">
		<tag k="name" v="Kråkøya" />
		<tag k="place" v="islet" />
		<tag k="ssr:stedsnr" v="441346" />
	</node>
	<node lat="68.47810000176324" lon="15.55450000707204" id="-19772">
		<tag k="bay" v="fjord" />
		<tag k="name" v="Innerfjorden" />
		<tag k="natural" v="bay" />
		<tag k="ssr:stedsnr" v="441728" />
	</node>
	<node lat="68.30940555807526" lon="15.57090000218092" id="-19776">
		<tag k="name" v="Langosholman" />
		<tag k="place" v="islet" />
		<tag k="ssr:stedsnr" v="442041" />
	</node>
	<node lat="68.30429166289206" lon="15.484016672200209" id="-19777">
		<tag k="alt_name" v="Svartskjerskallen" />
		<tag k="name" v="Svartskjærskallen" />
		<tag k="natural" v="shoal" />
		<tag k="place" v="locality" />
		<tag k="ssr:stedsnr" v="442042" />
	</node>
	<node lat="68.23258055435835" lon="15.58830833082598" id="-19779">
		<tag k="alt_name" v="Breidskallen" />
		<tag k="name" v="Breiskallen" />
		<tag k="natural" v="shoal" />
		<tag k="place" v="locality" />
		<tag k="ssr:stedsnr" v="442096" />
	</node>
	<node lat="68.29185833449779" lon="15.314661099509694" id="-19780">
		<tag k="alt_name" v="Svellingen, store" />
		<tag k="name" v="Store Svællingen" />
		<tag k="place" v="island" />
		<tag k="ssr:stedsnr" v="442099" />
	</node>
	<node lat="68.46924166543494" lon="16.064636107432822" id="-19795">
		<tag k="name" v="Osen" />
		<tag k="natural" v="bay" />
		<tag k="ssr:stedsnr" v="449730" />
	</node>
	<node lat="68.34444166382474" lon="15.369380562078108" id="-19813">
		<tag k="name" v="Skovikholmen" />
		<tag k="place" v="islet" />
		<tag k="ssr:stedsnr" v="453908" />
	</node>
	<node lat="68.28733055238855" lon="15.638050009956153" id="-19815">
		<tag k="name" v="Mellomgrunnen" />
		<tag k="natural" v="shoal" />
		<tag k="place" v="locality" />
		<tag k="ssr:stedsnr" v="461413" />
	</node>
	<node lat="68.44303333536654" lon="15.86522778442515" id="-19816">
		<tag k="name" v="Skavika" />
		<tag k="natural" v="bay" />
		<tag k="ssr:stedsnr" v="461463" />
	</node>
	<node lat="68.31118888787516" lon="15.663425009670952" id="-19817">
		<tag k="name" v="Hestholmsundet" />
		<tag k="natural" v="strait" />
		<tag k="ssr:stedsnr" v="464276" />
	</node>
	<node lat="68.37415833570485" lon="15.67583889972736" id="-19818">
		<tag k="name" v="Ytterstraumen" />
		<tag k="natural" v="strait" />
		<tag k="ssr:stedsnr" v="464706" />
	</node>
	<node lat="68.30669722505559" lon="15.519430553732235" id="-19824">
		<tag k="name" v="Heggstadstabben" />
		<tag k="natural" v="shoal" />
		<tag k="place" v="locality" />
		<tag k="ssr:stedsnr" v="502037" />
	</node>
	<node lat="68.27270278013849" lon="15.60870554556572" id="-19825">
		<tag k="name" v="Langgrunnen" />
		<tag k="natural" v="shoal" />
		<tag k="place" v="locality" />
		<tag k="ssr:stedsnr" v="502113" />
	</node>
	<node lat="68.34013610967008" lon="15.749124998559365" id="-19828">
		<tag k="alt_name" v="Parykkskjeret" />
		<tag k="fixme" v="consider seamark:type=rock or natural=shoal" />
		<tag k="name" v="Parykkskjæret" />
		<tag k="place" v="islet" />
		<tag k="ssr:stedsnr" v="502291" />
	</node>
	<node lat="68.34517499912523" lon="15.725175007951512" id="-19829">
		<tag k="name" v="Sjursholmen" />
		<tag k="place" v="islet" />
		<tag k="ssr:stedsnr" v="502294" />
	</node>
	<node lat="68.3468444487544" lon="15.693655551256096" id="-19833">
		<tag k="name" v="Storosen" />
		<tag k="natural" v="bay" />
		<tag k="ssr:stedsnr" v="502309" />
	</node>
	<node lat="68.35911793753742" lon="15.252763940813484" id="-19838">
		<tag k="name" v="Hamnneshamn" />
		<tag k="natural" v="bay" />
		<tag k="ssr:stedsnr" v="502906" />
	</node>
	<node lat="68.34208333701183" lon="15.469691672332834" id="-19841">
		<tag k="fixme" v="multiple name tags, choose one and add the other to alt_name" />
		<tag k="name" v="Hustadneset;Hustadnakken" />
		<tag k="natural" v="cape" />
		<tag k="ssr:stedsnr" v="502982" />
	</node>
	<node lat="68.2902805563312" lon="15.172699990865771" id="-19847">
		<tag k="name" v="Sandøya" />
		<tag k="place" v="islet" />
		<tag k="ssr:stedsnr" v="684068" />
	</node>
	<node lat="68.2900638861746" lon="15.218547227438874" id="-19848">
		<tag k="alt_name" v="Måsøya, store" />
		<tag k="name" v="Store Måsøya" />
		<tag k="place" v="island" />
		<tag k="ssr:stedsnr" v="684072" />
	</node>
	<node lat="68.45605278061882" lon="16.05208889562671" id="-19850">
		<tag k="alt_name" v="Rundskjeret" />
		<tag k="fixme" v="consider seamark:type=rock or natural=shoal" />
		<tag k="name" v="Rundskjæret" />
		<tag k="place" v="islet" />
		<tag k="ssr:stedsnr" v="510753" />
	</node>
	<node lat="68.45850000035223" lon="16.04314165723073" id="-19851">
		<tag k="alt_name" v="Elveskjeret" />
		<tag k="fixme" v="consider seamark:type=rock or natural=shoal" />
		<tag k="name" v="Elveskjæret" />
		<tag k="place" v="islet" />
		<tag k="ssr:stedsnr" v="510755" />
	</node>
	<node lat="68.42843610758186" lon="15.8879972107285" id="-19880">
		<tag k="name" v="Fjellvika" />
		<tag k="natural" v="bay" />
		<tag k="ssr:stedsnr" v="684235" />
	</node>
	<node lat="68.343408332477" lon="15.694086100827112" id="-19884">
		<tag k="name" v="Storosneset" />
		<tag k="natural" v="cape" />
		<tag k="ssr:stedsnr" v="684325" />
	</node>
	<node lat="68.38334444550567" lon="15.894869452429038" id="-19885">
		<tag k="name" v="Kvalosen" />
		<tag k="natural" v="bay" />
		<tag k="ssr:stedsnr" v="684285" />
	</node>
	<node lat="68.31077222115604" lon="15.66714722516144" id="-19887">
		<tag k="name" v="Hestholmen" />
		<tag k="place" v="islet" />
		<tag k="ssr:stedsnr" v="684344" />
	</node>
	<node lat="68.27673055649274" lon="15.667286103310213" id="-19888">
		<tag k="alt_name" v="Vadholmen, store" />
		<tag k="fixme" v="multiple name tags, choose one and add the other to alt_name" />
		<tag k="name" v="Vadholmen;Store Vadholmen" />
		<tag k="place" v="islet" />
		<tag k="ssr:stedsnr" v="684396" />
	</node>
	<node lat="68.33396944408146" lon="15.317847218258459" id="-19900">
		<tag k="name" v="Svinøya" />
		<tag k="place" v="island" />
		<tag k="ssr:stedsnr" v="684969" />
	</node>
	<node lat="68.37602500205317" lon="15.7634111026634" id="-19901">
		<tag k="name" v="Gluggflua" />
		<tag k="natural" v="shoal" />
		<tag k="place" v="locality" />
		<tag k="ssr:stedsnr" v="521064" />
	</node>
	<node lat="68.35569721873337" lon="15.437430555583058" id="-19938">
		<tag k="name" v="Skjåneset" />
		<tag k="natural" v="cape" />
		<tag k="ssr:stedsnr" v="570819" />
	</node>
	<node lat="68.26523888885968" lon="15.624363895525683" id="-19960">
		<tag k="fixme" v="consider seamark:type=rock or natural=shoal" />
		<tag k="name" v="Skarvsteinen" />
		<tag k="place" v="islet" />
		<tag k="ssr:stedsnr" v="582412" />
	</node>
	<node lat="68.29798055397184" lon="15.169386113942434" id="-19973">
		<tag k="alt_name" v="Finnskjeret, austre" />
		<tag k="fixme" v="consider seamark:type=rock or natural=shoal" />
		<tag k="name" v="Austre Finnskjæret" />
		<tag k="place" v="islet" />
		<tag k="ssr:stedsnr" v="623067" />
	</node>
	<node lat="68.46195833687186" lon="16.049749998137777" id="-19977">
		<tag k="alt_name" v="Buholman" />
		<tag k="name" v="Buholmen" />
		<tag k="place" v="islet" />
		<tag k="ssr:stedsnr" v="623203" />
	</node>
	<node lat="68.40742499770265" lon="15.83574998785761" id="-19988">
		<tag k="alt_name" v="Erikstadneset, in" />
		<tag k="name" v="Indre Erikstadneset" />
		<tag k="natural" v="cape" />
		<tag k="ssr:stedsnr" v="623263" />
	</node>
	<node lat="68.47430277495783" lon="15.882152774267901" id="-19990">
		<tag k="name" v="Sekkeneset" />
		<tag k="natural" v="cape" />
		<tag k="ssr:stedsnr" v="623166" />
	</node>
	<node lat="68.47414444335338" lon="16.08066389566006" id="-19991">
		<tag k="alt_name" v="Vika" />
		<tag k="name" v="Heimervika" />
		<tag k="natural" v="bay" />
		<tag k="ssr:stedsnr" v="623180" />
	</node>
	<node lat="68.33151110928587" lon="15.643727785697552" id="-19992">
		<tag k="name" v="Risøya" />
		<tag k="natural" v="cape" />
		<tag k="ssr:stedsnr" v="623316" />
	</node>
	<node lat="68.39630000468357" lon="15.32571943339051" id="-19994">
		<tag k="name" v="Haugneset" />
		<tag k="natural" v="cape" />
		<tag k="ssr:stedsnr" v="623866" />
	</node>
	<node lat="68.33452777697292" lon="15.391236116013195" id="-19997">
		<tag k="name" v="Flaget" />
		<tag k="natural" v="strait" />
		<tag k="ssr:stedsnr" v="623964" />
	</node>
	<node lat="68.34277500422043" lon="15.36158333626591" id="-19998">
		<tag k="name" v="Ramnbergneset" />
		<tag k="natural" v="cape" />
		<tag k="ssr:stedsnr" v="623967" />
	</node>
	<node lat="68.34404999896171" lon="15.445352781073849" id="-19999">
		<tag k="name" v="Rafsen" />
		<tag k="place" v="island" />
		<tag k="ssr:stedsnr" v="623978" />
	</node>
	<node lat="68.43469721938826" lon="16.009033336269983" id="-20004">
		<tag k="name" v="Sildgarnklubben" />
		<tag k="natural" v="cape" />
		<tag k="ssr:stedsnr" v="631734" />
	</node>
	<node lat="68.50588611077626" lon="16.11669445146727" id="-20029">
		<tag k="name" v="Litlegrunnen" />
		<tag k="natural" v="shoal" />
		<tag k="place" v="locality" />
		<tag k="ssr:stedsnr" v="636690" />
	</node>
	<node lat="68.3827416666804" lon="15.925083336524503" id="-20030">
		<tag k="name" v="Vestre Stabben" />
		<tag k="place" v="locality" />
		<tag k="seamark:type" v="rock" />
		<tag k="ssr:stedsnr" v="642073" />
	</node>
	<node lat="68.25637777393983" lon="15.50460277287625" id="-20031">
		<tag k="name" v="Auerskallene" />
		<tag k="natural" v="shoal" />
		<tag k="place" v="locality" />
		<tag k="ssr:stedsnr" v="642603" />
	</node>
	<node lat="68.36026666982018" lon="15.356055544577083" id="-20035">
		<tag k="name" v="Lillepollneset" />
		<tag k="natural" v="cape" />
		<tag k="ssr:stedsnr" v="645406" />
	</node>
	<node lat="68.34398889280642" lon="15.438336116123475" id="-20036">
		<tag k="name" v="Klemningen" />
		<tag k="natural" v="bay" />
		<tag k="ssr:stedsnr" v="645382" />
	</node>
	<node lat="68.3755777754513" lon="15.66214165555335" id="-20038">
		<tag k="name" v="Godbondneset" />
		<tag k="natural" v="cape" />
		<tag k="ssr:stedsnr" v="645678" />
	</node>
	<node lat="68.34582499968953" lon="15.716597227673319" id="-20040">
		<tag k="name" v="Sjursholmen" />
		<tag k="place" v="islet" />
		<tag k="ssr:stedsnr" v="645718" />
	</node>
	<node lat="68.41639444526248" lon="15.777169445701174" id="-20044">
		<tag k="name" v="Lappvika" />
		<tag k="natural" v="bay" />
		<tag k="ssr:stedsnr" v="706617" />
	</node>
	<node lat="68.38068055412614" lon="15.872752770185368" id="-20050">
		<tag k="loc_name" v="Silvika" />
		<tag k="name" v="Sildvik" />
		<tag k="natural" v="bay" />
		<tag k="ssr:stedsnr" v="890646" />
	</node>
	<node lat="68.31323611510673" lon="15.504838889910884" id="-20056">
		<tag k="fixme" v="consider seamark:type=rock or natural=shoal" />
		<tag k="name" v="Svartskjeran" />
		<tag k="place" v="islet" />
		<tag k="ssr:stedsnr" v="684019" />
	</node>
	<node lat="68.26877500393108" lon="15.281761113257579" id="-20057">
		<tag k="alt_name" v="Svartskjeran, austre" />
		<tag k="fixme" v="consider seamark:type=rock or natural=shoal" />
		<tag k="name" v="Austre Svartskjæran" />
		<tag k="place" v="islet" />
		<tag k="ssr:stedsnr" v="684115" />
	</node>
	<node lat="68.44885833306687" lon="16.039763877026864" id="-20059">
		<tag k="alt_name" v="Falken, store;Stor-Falken" />
		<tag k="fixme" v="consider seamark:type=rock or natural=shoal" />
		<tag k="name" v="Store Falken" />
		<tag k="place" v="islet" />
		<tag k="ssr:stedsnr" v="684204" />
	</node>
	<node lat="68.41486388650118" lon="15.754780551807512" id="-20061">
		<tag k="name" v="Blåskjervika" />
		<tag k="natural" v="bay" />
		<tag k="ssr:stedsnr" v="684256" />
	</node>
	<node lat="68.3181777766836" lon="15.685263899649211" id="-20066">
		<tag k="name" v="Kjeøya" />
		<tag k="name:no" v="Kjeøya" />
		<tag k="name:se" v="Geajak" />
		<tag k="place" v="island" />
		<tag k="ssr:stedsnr" v="684351" />
	</node>
	<node lat="68.33084444372915" lon="15.697536114742167" id="-20069">
		<tag k="alt_name" v="Ternskjeret" />
		<tag k="fixme" v="consider seamark:type=rock or natural=shoal" />
		<tag k="name" v="Tennskjæret" />
		<tag k="place" v="islet" />
		<tag k="ssr:stedsnr" v="684365" />
	</node>
	<node lat="68.44226666814225" lon="16.008436123012043" id="-20090">
		<tag k="name" v="Lastranda" />
		<tag k="natural" v="beach" />
		<tag k="ssr:stedsnr" v="692473" />
	</node>
	<node lat="68.4622527744691" lon="16.044077768518097" id="-20092">
		<tag k="name" v="Storneset" />
		<tag k="natural" v="cape" />
		<tag k="ssr:stedsnr" v="692723" />
	</node>
	<node lat="68.27749166445803" lon="15.38805555280879" id="-20106">
		<tag k="name" v="Nordre Brøran" />
		<tag k="natural" v="shoal" />
		<tag k="place" v="locality" />
		<tag k="ssr:stedsnr" v="703661" />
	</node>
	<node lat="68.34176389090483" lon="15.428799999288005" id="-20107">
		<tag k="fixme" v="consider seamark:type=rock or natural=shoal" />
		<tag k="name" v="Reinskjæret" />
		<tag k="place" v="islet" />
		<tag k="ssr:stedsnr" v="706410" />
	</node>
	<node lat="68.37537499754896" lon="15.671911113027637" id="-20108">
		<tag k="name" v="Straumnesan" />
		<tag k="natural" v="cape" />
		<tag k="ssr:stedsnr" v="706606" />
	</node>
	<node lat="68.34386389061375" lon="15.451469436864322" id="-20109">
		<tag k="name" v="Svinøyvalen" />
		<tag k="natural" v="strait" />
		<tag k="ssr:stedsnr" v="706373" />
	</node>
	<node lat="68.37006389244377" lon="15.721955564299938" id="-20111">
		<tag k="name" v="Rinbøvalen" />
		<tag k="natural" v="strait" />
		<tag k="ssr:stedsnr" v="706672" />
	</node>
	<node lat="68.30286666834604" lon="15.630847226524375" id="-20112">
		<tag k="fixme" v="consider seamark:type=rock or natural=shoal" />
		<tag k="name" v="Svartoksen" />
		<tag k="place" v="islet" />
		<tag k="ssr:stedsnr" v="708429" />
	</node>
	<node lat="68.27858333172446" lon="15.193694437712722" id="-20117">
		<tag k="name" v="Skiftingsbåen" />
		<tag k="natural" v="shoal" />
		<tag k="place" v="locality" />
		<tag k="ssr:stedsnr" v="744052" />
	</node>
	<node lat="68.28076110697435" lon="15.374430547654535" id="-20118">
		<tag k="alt_name" v="Draugskjeran" />
		<tag k="fixme" v="consider seamark:type=rock or natural=shoal" />
		<tag k="name" v="Draugskjæran" />
		<tag k="place" v="islet" />
		<tag k="ssr:stedsnr" v="744056" />
	</node>
	<node lat="68.32573333315185" lon="15.580311122317688" id="-20119">
		<tag k="name" v="Ørnholmen" />
		<tag k="place" v="islet" />
		<tag k="ssr:stedsnr" v="745010" />
	</node>
	<node lat="68.28461944110744" lon="15.378772222332408" id="-20122">
		<tag k="name" v="Simøydragan" />
		<tag k="place" v="islet" />
		<tag k="ssr:stedsnr" v="745124" />
	</node>
	<node lat="68.25591111204301" lon="15.216024994812903" id="-20123">
		<tag k="alt_name" v="Gjessøya" />
		<tag k="name" v="Gjesøya" />
		<tag k="place" v="island" />
		<tag k="ssr:stedsnr" v="745171" />
	</node>
	<node lat="68.3775916674065" lon="15.88228888942231" id="-20126">
		<tag k="alt_name" v="Auenholmen, l;Lille Auenholmen" />
		<tag k="name" v="Litje Auenholmen" />
		<tag k="place" v="islet" />
		<tag k="ssr:stedsnr" v="745314" />
	</node>
	<node lat="68.51651388415473" lon="16.13449723049562" id="-20130">
		<tag k="name" v="Slåttøyvalen" />
		<tag k="natural" v="strait" />
		<tag k="ssr:stedsnr" v="745817" />
	</node>
	<node lat="68.34452222119491" lon="15.378391663859867" id="-20138">
		<tag k="fixme" v="consider seamark:type=rock or natural=shoal" />
		<tag k="name" v="Syrtønna" />
		<tag k="place" v="islet" />
		<tag k="ssr:stedsnr" v="745970" />
	</node>
	<node lat="68.34855000091883" lon="15.488672220622096" id="-20140">
		<tag k="name" v="Bresja" />
		<tag k="name:no" v="Bresja" />
		<tag k="name:se" v="Bráššá" />
		<tag k="natural" v="bay" />
		<tag k="ssr:stedsnr" v="745979" />
	</node>
	<node lat="68.34926111481934" lon="15.395641658276832" id="-20141">
		<tag k="name" v="Storøya" />
		<tag k="place" v="island" />
		<tag k="ssr:stedsnr" v="745981" />
	</node>
	<node lat="68.44496111121097" lon="16.010100008237437" id="-20144">
		<tag k="fixme" v="consider seamark:type=rock or natural=shoal" />
		<tag k="name" v="Grønnelvskjeran" />
		<tag k="place" v="islet" />
		<tag k="ssr:stedsnr" v="752473" />
	</node>
	<node lat="68.36707499959238" lon="15.351177768707654" id="-20163">
		<tag k="name" v="Ingeborgholmen" />
		<tag k="place" v="islet" />
		<tag k="ssr:stedsnr" v="756860" />
	</node>
	<node lat="68.51058055695319" lon="16.140533335161514" id="-20165">
		<tag k="name" v="Skaggrunnen" />
		<tag k="natural" v="shoal" />
		<tag k="place" v="locality" />
		<tag k="ssr:stedsnr" v="758695" />
	</node>
	<node lat="68.33426944670575" lon="15.41251666883094" id="-20167">
		<tag k="name" v="Smitskjærleia" />
		<tag k="natural" v="strait" />
		<tag k="ssr:stedsnr" v="764293" />
	</node>
	<node lat="68.34798611489059" lon="15.381169455585288" id="-20169">
		<tag k="name" v="Middagsosen" />
		<tag k="natural" v="bay" />
		<tag k="ssr:stedsnr" v="767443" />
	</node>
	<node lat="68.37759722242868" lon="15.679272231913256" id="-20170">
		<tag k="name" v="Innerfjorden" />
		<tag k="natural" v="bay" />
		<tag k="ssr:stedsnr" v="767608" />
	</node>
	<node lat="68.3074750028191" lon="15.624283324940775" id="-20173">
		<tag k="name" v="Vestervik" />
		<tag k="natural" v="bay" />
		<tag k="ssr:stedsnr" v="769411" />
	</node>
	<node lat="68.31448889120429" lon="15.6903416618898" id="-20201">
		<tag k="fixme" v="consider seamark:type=rock or natural=shoal" />
		<tag k="name" v="Tennskjæret" />
		<tag k="place" v="islet" />
		<tag k="ssr:stedsnr" v="825486" />
	</node>
	<node lat="67.6406666625269" lon="12.919197231179043" id="-20203">
		<tag k="name" v="Vestfjorden" />
		<tag k="place" v="sea" />
		<tag k="ssr:stedsnr" v="926139" />
	</node>
	<node lat="68.32194722034178" lon="15.472819438362523" id="-20205">
		<tag k="fixme" v="consider seamark:type=rock or natural=shoal" />
		<tag k="name" v="Hysskjeran" />
		<tag k="place" v="islet" />
		<tag k="ssr:stedsnr" v="927030" />
	</node>
	<node lat="68.30957777370888" lon="15.249577777920171" id="-20207">
		<tag k="name" v="Brannøya" />
		<tag k="place" v="islet" />
		<tag k="ssr:stedsnr" v="927049" />
	</node>
	<node lat="68.46285833296724" lon="16.05873889299642" id="-20208">
		<tag k="fixme" v="consider seamark:type=rock or natural=shoal" />
		<tag k="name" v="Kobbsteinen" />
		<tag k="place" v="islet" />
		<tag k="ssr:stedsnr" v="927177" />
	</node>
	<node lat="68.24304166694837" lon="15.574327779886206" id="-20210">
		<tag k="name" v="Langgrunnen" />
		<tag k="natural" v="shoal" />
		<tag k="place" v="locality" />
		<tag k="ssr:stedsnr" v="927082" />
	</node>
	<node lat="68.27777777431092" lon="15.58244443119703" id="-20211">
		<tag k="name" v="Alpøya" />
		<tag k="place" v="island" />
		<tag k="ssr:stedsnr" v="927089" />
	</node>
	<node lat="68.28545555721148" lon="15.609611108159458" id="-20212">
		<tag k="name" v="Skrovgrunnen" />
		<tag k="natural" v="shoal" />
		<tag k="place" v="locality" />
		<tag k="ssr:stedsnr" v="927095" />
	</node>
	<node lat="68.43325832879795" lon="15.876972228994719" id="-20213">
		<tag k="name" v="Fjellvikholman" />
		<tag k="place" v="islet" />
		<tag k="ssr:stedsnr" v="927242" />
	</node>
	<node lat="68.35872499783788" lon="15.71588610690336" id="-20219">
		<tag k="fixme" v="multiple name tags, choose one and add the other to alt_name" />
		<tag k="name" v="Hella;Ytterhellen" />
		<tag k="natural" v="cape" />
		<tag k="ssr:stedsnr" v="927345" />
	</node>
	<node lat="68.40639166585589" lon="15.744027766024503" id="-20221">
		<tag k="name" v="Falkholmen" />
		<tag k="place" v="islet" />
		<tag k="ssr:stedsnr" v="927290" />
	</node>
	<node lat="68.34301388541702" lon="15.349958343260854" id="-20234">
		<tag k="alt_name" v="Kålsvikholmen" />
		<tag k="name" v="Kolsvikholmen" />
		<tag k="place" v="islet" />
		<tag k="ssr:stedsnr" v="927984" />
	</node>
	<node lat="68.44262777866955" lon="16.009702787345834" id="-20272">
		<tag k="name" v="Grønnelvosen" />
		<tag k="natural" v="bay" />
		<tag k="ssr:stedsnr" v="934478" />
	</node>
	<node lat="68.3312250042489" lon="15.692474996591478" id="-20276">
		<tag k="name" v="Lille Tennholmen" />
		<tag k="place" v="islet" />
		<tag k="ssr:stedsnr" v="889266" />
	</node>
	<node lat="68.30717222024403" lon="15.618991677081462" id="-20280">
		<tag k="name" v="Dranglan" />
		<tag k="place" v="islet" />
		<tag k="ssr:stedsnr" v="890399" />
	</node>
	<node lat="68.28122500120361" lon="15.468727775718797" id="-20283">
		<tag k="alt_name" v="Skjervøyskallen, austre" />
		<tag k="name" v="Austre Skjervøyskallen" />
		<tag k="natural" v="shoal" />
		<tag k="place" v="locality" />
		<tag k="ssr:stedsnr" v="927106" />
	</node>
	<node lat="68.26949166861819" lon="15.413361106703675" id="-20284">
		<tag k="alt_name" v="Ramnøybåan" />
		<tag k="name" v="Ramnøybåen" />
		<tag k="natural" v="shoal" />
		<tag k="place" v="locality" />
		<tag k="ssr:stedsnr" v="927126" />
	</node>
	<node lat="68.48029999727049" lon="15.870805553832424" id="-20285">
		<tag k="name" v="Nøkkelvika" />
		<tag k="natural" v="bay" />
		<tag k="ssr:stedsnr" v="927155" />
	</node>
	<node lat="68.37444166510957" lon="15.756549992245585" id="-20288">
		<tag k="name" v="Rinøya" />
		<tag k="place" v="island" />
		<tag k="ssr:stedsnr" v="927304" />
	</node>
	<node lat="68.41057222352258" lon="15.739611116185003" id="-20293">
		<tag k="name" v="Langosen" />
		<tag k="natural" v="bay" />
		<tag k="ssr:stedsnr" v="927269" />
	</node>
	<node lat="68.40013889019617" lon="15.740391657616614" id="-20294">
		<tag k="name" v="Kvalosen" />
		<tag k="natural" v="bay" />
		<tag k="ssr:stedsnr" v="927277" />
	</node>
	<node lat="68.36748889146773" lon="15.69243611535434" id="-20295">
		<tag k="name" v="Mølnfjorden" />
		<tag k="natural" v="bay" />
		<tag k="ssr:stedsnr" v="927352" />
	</node>
	<node lat="68.36915555517528" lon="15.913649996538355" id="-20297">
		<tag k="name" v="Skarvhausen" />
		<tag k="place" v="islet" />
		<tag k="ssr:stedsnr" v="927356" />
	</node>
	<node lat="68.28309444176894" lon="15.307000000910769" id="-20306">
		<tag k="alt_name" v="Sandøya, l" />
		<tag k="name" v="Litje-Sandøya" />
		<tag k="place" v="island" />
		<tag k="ssr:stedsnr" v="928416" />
	</node>
	<node lat="68.49831111075704" lon="15.867222233137378" id="-20328">
		<tag k="name" v="Stordalsøyra" />
		<tag k="natural" v="cape" />
		<tag k="ssr:stedsnr" v="951587" />
	</node>
	<node lat="68.27977500299902" lon="15.422341658066747" id="-20365">
		<tag k="name" v="Ingebretbåen" />
		<tag k="natural" v="shoal" />
		<tag k="place" v="locality" />
		<tag k="ssr:stedsnr" v="17119" />
	</node>
	<node lat="68.2646527771986" lon="15.60578333557701" id="-20366">
		<tag k="name" v="Litlbåen" />
		<tag k="natural" v="shoal" />
		<tag k="place" v="locality" />
		<tag k="ssr:stedsnr" v="17129" />
	</node>
	<node lat="68.2929055566454" lon="15.160224999970053" id="-20369">
		<tag k="alt_name" v="Finnskjeret, vestre" />
		<tag k="fixme" v="consider seamark:type=rock or natural=shoal" />
		<tag k="name" v="Vestre Finnskjeret" />
		<tag k="place" v="islet" />
		<tag k="ssr:stedsnr" v="17087" />
	</node>
	<node lat="68.30720833755497" lon="15.644933326178307" id="-20371">
		<tag k="name" v="Bryggholmen" />
		<tag k="place" v="islet" />
		<tag k="ssr:stedsnr" v="17373" />
	</node>
	<node lat="68.3211527815115" lon="15.690374993479345" id="-20372">
		<tag k="name" v="Dragan" />
		<tag k="place" v="islet" />
		<tag k="ssr:stedsnr" v="17391" />
	</node>
	<node lat="68.32968889067024" lon="15.690288878263562" id="-20373">
		<tag k="fixme" v="consider seamark:type=rock or natural=shoal" />
		<tag k="name" v="Hysskjeret" />
		<tag k="place" v="islet" />
		<tag k="ssr:stedsnr" v="17392" />
	</node>
	<node lat="68.30742499706463" lon="15.23118611773677" id="-20376">
		<tag k="fixme" v="consider seamark:type=rock or natural=shoal" />
		<tag k="name" v="Reinøyskjeret" />
		<tag k="place" v="islet" />
		<tag k="ssr:stedsnr" v="17049" />
	</node>
	<node lat="68.34797500133516" lon="15.336627770605439" id="-20380">
		<tag k="name" v="Buholmen" />
		<tag k="place" v="islet" />
		<tag k="ssr:stedsnr" v="17976" />
	</node>
	<node lat="68.2696000019187" lon="15.49183056333524" id="-20382">
		<tag k="alt_name" v="Hjørnskjeret" />
		<tag k="fixme" v="consider seamark:type=rock or natural=shoal" />
		<tag k="name" v="Hjørneskjæret" />
		<tag k="place" v="islet" />
		<tag k="ssr:stedsnr" v="17136" />
	</node>
	<node lat="68.49751388822467" lon="15.880377785495671" id="-20383">
		<tag k="name" v="Kobbneset" />
		<tag k="natural" v="cape" />
		<tag k="ssr:stedsnr" v="17146" />
	</node>
	<node lat="68.43804167035735" lon="16.010102787642815" id="-20385">
		<tag k="alt_name" v="Joskjeret;Joskjeran" />
		<tag k="fixme" v="consider seamark:type=rock or natural=shoal" />
		<tag k="name" v="Joskjæran" />
		<tag k="place" v="islet" />
		<tag k="ssr:stedsnr" v="17257" />
	</node>
	<node lat="68.42104166374435" lon="15.992652766824113" id="-20389">
		<tag k="alt_name" v="Breidvika" />
		<tag k="name" v="Breivika" />
		<tag k="natural" v="bay" />
		<tag k="ssr:stedsnr" v="17289" />
	</node>
	<node lat="68.40040555622194" lon="15.80853612012911" id="-20391">
		<tag k="alt_name" v="Storskjeret" />
		<tag k="fixme" v="consider seamark:type=rock or natural=shoal" />
		<tag k="name" v="Storskjæret" />
		<tag k="place" v="islet" />
		<tag k="ssr:stedsnr" v="17296" />
	</node>
	<node lat="68.39963055533259" lon="15.747822211286328" id="-20392">
		<tag k="alt_name" v="Forholmen" />
		<tag k="name" v="Forrholmen" />
		<tag k="place" v="islet" />
		<tag k="ssr:stedsnr" v="17298" />
	</node>
	<node lat="68.37607777354391" lon="15.689027777862808" id="-20393">
		<tag k="name" v="Innerøya" />
		<tag k="place" v="islet" />
		<tag k="ssr:stedsnr" v="17329" />
	</node>
	<node lat="68.38740277907225" lon="15.944883326409" id="-20395">
		<tag k="name" v="Storsteinholmen" />
		<tag k="place" v="islet" />
		<tag k="ssr:stedsnr" v="17332" />
	</node>
	<node lat="68.3952194425183" lon="15.928219447731585" id="-20397">
		<tag k="name" v="Øygårdsosen" />
		<tag k="natural" v="bay" />
		<tag k="ssr:stedsnr" v="17349" />
	</node>
	<node lat="68.34064167074712" lon="15.452302785085731" id="-20407">
		<tag k="name" v="Svinøya" />
		<tag k="place" v="island" />
		<tag k="ssr:stedsnr" v="18046" />
	</node>
	<node lat="68.50992222251404" lon="16.125088884384603" id="-20409">
		<tag k="name" v="Skagan" />
		<tag k="place" v="islet" />
		<tag k="ssr:stedsnr" v="18736" />
	</node>
	<node lat="68.3165666709647" lon="15.236169434449511" id="-20453">
		<tag k="fixme" v="consider seamark:type=rock or natural=shoal" />
		<tag k="name" v="Kobbsteinen" />
		<tag k="place" v="islet" />
		<tag k="ssr:stedsnr" v="36284" />
	</node>
	<node lat="68.33192778004184" lon="15.34612221189561" id="-20454">
		<tag k="name" v="Oksøygrunnen" />
		<tag k="natural" v="shoal" />
		<tag k="place" v="locality" />
		<tag k="ssr:stedsnr" v="36285" />
	</node>
	<node lat="68.28066111107891" lon="15.637280553408997" id="-20455">
		<tag k="name" v="Kvannskjærskallan" />
		<tag k="natural" v="shoal" />
		<tag k="place" v="locality" />
		<tag k="ssr:stedsnr" v="36384" />
	</node>
	<node lat="68.2616333316082" lon="15.628983337926778" id="-20456">
		<tag k="name" v="Skarvsteinskallen" />
		<tag k="natural" v="shoal" />
		<tag k="place" v="locality" />
		<tag k="ssr:stedsnr" v="36385" />
	</node>
	<node lat="68.38451944344631" lon="15.762991667093562" id="-20457">
		<tag k="name" v="Kattnesgrunnen" />
		<tag k="natural" v="shoal" />
		<tag k="place" v="locality" />
		<tag k="ssr:stedsnr" v="36068" />
	</node>
	<node lat="68.35098610791015" lon="15.437958336304058" id="-20458">
		<tag k="name" v="Tøneset" />
		<tag k="natural" v="cape" />
		<tag k="ssr:stedsnr" v="39343" />
	</node>
	<node lat="68.37498888547755" lon="15.748494441696064" id="-20459">
		<tag k="name" v="Lilleøyvalen" />
		<tag k="natural" v="strait" />
		<tag k="ssr:stedsnr" v="39631" />
	</node>
	<node lat="68.41302500118191" lon="15.84162500810894" id="-20462">
		<tag k="fixme" v="consider seamark:type=rock or natural=shoal" />
		<tag k="name" v="Langskjeret" />
		<tag k="place" v="islet" />
		<tag k="ssr:stedsnr" v="40698" />
	</node>
	<node lat="68.29285555909063" lon="15.501269455050595" id="-20466">
		<tag k="fixme" v="consider seamark:type=rock or natural=shoal" />
		<tag k="name" v="Ausa" />
		<tag k="place" v="islet" />
		<tag k="ssr:stedsnr" v="77067" />
	</node>
	<node lat="68.28073888689647" lon="15.221541665179927" id="-20467">
		<tag k="alt_name" v="Skiftingen, store" />
		<tag k="name" v="Store Skiftingen" />
		<tag k="place" v="island" />
		<tag k="ssr:stedsnr" v="77077" />
	</node>
	<node lat="68.459308337216" lon="15.766488895061487" id="-20468">
		<tag k="alt_name" v="Lillefjorden" />
		<tag k="name" v="Litlefjorden" />
		<tag k="natural" v="bay" />
		<tag k="ssr:stedsnr" v="77181" />
	</node>
	<node lat="68.41929722351219" lon="15.778050009791487" id="-20470">
		<tag k="name" v="Aspneset" />
		<tag k="natural" v="cape" />
		<tag k="ssr:stedsnr" v="77274" />
	</node>
	<node lat="68.36686944567309" lon="15.323733343985797" id="-20475">
		<tag k="name" v="Hallvardøydraget" />
		<tag k="place" v="islet" />
		<tag k="ssr:stedsnr" v="77894" />
	</node>
	<node lat="68.31165278047119" lon="15.547580550999886" id="-20479">
		<tag k="name" v="Raftsøya" />
		<tag k="place" v="island" />
		<tag k="ssr:stedsnr" v="78030" />
	</node>
	<node lat="68.25643889199621" lon="15.169869457077763" id="-20480">
		<tag k="name" v="Storbåen" />
		<tag k="natural" v="shoal" />
		<tag k="place" v="locality" />
		<tag k="ssr:stedsnr" v="78131" />
	</node>
	<node lat="68.40526111127664" lon="15.877227770701204" id="-20484">
		<tag k="name" v="Pauteneset" />
		<tag k="natural" v="cape" />
		<tag k="ssr:stedsnr" v="78291" />
	</node>
	<node lat="68.30541388624411" lon="15.649463894506992" id="-20485">
		<tag k="alt_name" v="Kobbholmen, l;Lille Koppholmen;Litje Koppholmen" />
		<tag k="name" v="Litje Kobbholmen" />
		<tag k="place" v="islet" />
		<tag k="ssr:stedsnr" v="78339" />
	</node>
	<node lat="68.30998055491753" lon="15.676050010285268" id="-20486">
		<tag k="alt_name" v="Leiskjeran" />
		<tag k="fixme" v="consider seamark:type=rock or natural=shoal" />
		<tag k="name" v="Leiskjæran" />
		<tag k="place" v="islet" />
		<tag k="ssr:stedsnr" v="78343" />
	</node>
	<node lat="68.40189444024" lon="15.350427771873234" id="-20496">
		<tag k="name" v="Svartskaret" />
		<tag k="natural" v="cape" />
		<tag k="ssr:stedsnr" v="78879" />
	</node>
	<node lat="68.33149722127155" lon="15.415963877949785" id="-20498">
		<tag k="alt_name" v="Ausskjerklubben" />
		<tag k="fixme" v="consider seamark:type=rock or natural=shoal" />
		<tag k="name" v="Ausskjærklubben" />
		<tag k="place" v="islet" />
		<tag k="ssr:stedsnr" v="78969" />
	</node>
	<node lat="68.34994444206572" lon="15.39183888668644" id="-20501">
		<tag k="name" v="Storøysundet" />
		<tag k="natural" v="strait" />
		<tag k="ssr:stedsnr" v="78988" />
	</node>
	<node lat="68.40995555596677" lon="15.774977784923108" id="-20530">
		<tag k="name" v="Aspenesgrunnen" />
		<tag k="natural" v="shoal" />
		<tag k="place" v="locality" />
		<tag k="ssr:stedsnr" v="97441" />
	</node>
	<node lat="68.32835000373184" lon="15.651622223620043" id="-20532">
		<tag k="name" v="Kråknebben" />
		<tag k="natural" v="cape" />
		<tag k="ssr:stedsnr" v="100233" />
	</node>
	<node lat="68.37477777374362" lon="15.671116665986894" id="-20536">
		<tag k="name" v="Innerstraumen" />
		<tag k="natural" v="strait" />
		<tag k="ssr:stedsnr" v="100657" />
	</node>
	<node lat="68.46541111032627" lon="15.892963899737278" id="-20537">
		<tag k="name" v="Mølnosen" />
		<tag k="natural" v="bay" />
		<tag k="ssr:stedsnr" v="101552" />
	</node>
	<node lat="68.28992499924259" lon="15.575374993151604" id="-20543">
		<tag k="alt_name" v="Alpøyskjeran" />
		<tag k="fixme" v="consider seamark:type=rock or natural=shoal" />
		<tag k="name" v="Alpøyskjæran" />
		<tag k="place" v="islet" />
		<tag k="ssr:stedsnr" v="137057" />
	</node>
	<node lat="68.3729944475223" lon="15.728977782576509" id="-20547">
		<tag k="alt_name" v="Gårdsøya" />
		<tag k="name" v="Gårdsholmen" />
		<tag k="place" v="islet" />
		<tag k="ssr:stedsnr" v="137314" />
	</node>
	<node lat="68.42427499661136" lon="15.423536111084196" id="-20549">
		<tag k="name" v="Hamnbukta" />
		<tag k="natural" v="bay" />
		<tag k="ssr:stedsnr" v="138763" />
	</node>
	<node lat="68.25613055908651" lon="15.439388882111091" id="-20552">
		<tag k="name" v="Langgrunnen" />
		<tag k="natural" v="shoal" />
		<tag k="place" v="locality" />
		<tag k="ssr:stedsnr" v="138156" />
	</node>
	<node lat="68.25301944252827" lon="15.236949997979528" id="-20553">
		<tag k="name" v="Årstein-Skjervøy" />
		<tag k="place" v="island" />
		<tag k="ssr:stedsnr" v="138159" />
	</node>
	<node lat="68.43618889304936" lon="15.824124997464557" id="-20555">
		<tag k="name" v="Dalneset" />
		<tag k="natural" v="cape" />
		<tag k="ssr:stedsnr" v="138256" />
	</node>
	<node lat="68.34802777752381" lon="15.731699994887169" id="-20559">
		<tag k="name" v="Sjursholmdragan" />
		<tag k="place" v="islet" />
		<tag k="ssr:stedsnr" v="138353" />
	</node>
	<node lat="68.31827221978561" lon="15.662150001994382" id="-20560">
		<tag k="name" v="Strandholmen" />
		<tag k="place" v="islet" />
		<tag k="ssr:stedsnr" v="138371" />
	</node>
	<node lat="68.33442777912026" lon="15.746474999358625" id="-20561">
		<tag k="fixme" v="consider seamark:type=rock or natural=shoal" />
		<tag k="name" v="Ytterstadskjeran" />
		<tag k="place" v="islet" />
		<tag k="ssr:stedsnr" v="138387" />
	</node>
	<node lat="68.40928888789938" lon="15.78330833134259" id="-20565">
		<tag k="alt_name" v="Aspnes" />
		<tag k="name" v="Aspeneset" />
		<tag k="natural" v="cape" />
		<tag k="ssr:stedsnr" v="138299" />
	</node>
	<node lat="68.34259444760305" lon="15.404777774288988" id="-20575">
		<tag k="name" v="Skipøya" />
		<tag k="place" v="islet" />
		<tag k="ssr:stedsnr" v="138984" />
	</node>
	<node lat="68.38980833177499" lon="15.307297228387649" id="-20576">
		<tag k="name" v="Hesjevikklubben" />
		<tag k="natural" v="cape" />
		<tag k="ssr:stedsnr" v="138832" />
	</node>
	<node lat="68.31784444282368" lon="15.614355561391722" id="-20630">
		<tag k="name" v="Offersøya" />
		<tag k="name:no" v="Offersøya" />
		<tag k="name:se" v="Roghámna" />
		<tag k="natural" v="cape" />
		<tag k="ssr:stedsnr" v="157232" />
	</node>
	<node lat="68.38399999898662" lon="15.934424989590454" id="-20631">
		<tag k="name" v="Austre Stabben" />
		<tag k="place" v="locality" />
		<tag k="seamark:type" v="rock" />
		<tag k="ssr:stedsnr" v="157071" />
	</node>
	<node lat="68.31853333678438" lon="15.67528054706128" id="-20634">
		<tag k="name" v="Lusnes" />
		<tag k="natural" v="cape" />
		<tag k="ssr:stedsnr" v="160234" />
	</node>
	<node lat="68.35111388880166" lon="15.329455556867082" id="-20647">
		<tag k="name" v="Tippholmen" />
		<tag k="place" v="islet" />
		<tag k="ssr:stedsnr" v="199894" />
	</node>
	<node lat="68.35315555876797" lon="15.40249722991712" id="-20650">
		<tag k="name" v="Klemsøya" />
		<tag k="place" v="islet" />
		<tag k="ssr:stedsnr" v="199991" />
	</node>
	<node lat="68.32253610787309" lon="15.289699994096365" id="-20651">
		<tag k="name" v="Selsøyvær" />
		<tag k="place" v="island" />
		<tag k="ssr:stedsnr" v="198950" />
	</node>
	<node lat="68.30816388672947" lon="15.61714998748471" id="-20655">
		<tag k="name" v="Rørvika" />
		<tag k="natural" v="bay" />
		<tag k="ssr:stedsnr" v="199089" />
	</node>
	<node lat="68.26579166724339" lon="15.310033344726428" id="-20657">
		<tag k="name" v="Kvitbarden" />
		<tag k="place" v="islet" />
		<tag k="ssr:stedsnr" v="199143" />
	</node>
	<node lat="68.44059444657758" lon="16.00770278413446" id="-20660">
		<tag k="name" v="Laholmen" />
		<tag k="place" v="islet" />
		<tag k="ssr:stedsnr" v="199241" />
	</node>
	<node lat="68.37128888505605" lon="15.89592498973543" id="-20662">
		<tag k="name" v="Flagskallen" />
		<tag k="natural" v="shoal" />
		<tag k="place" v="locality" />
		<tag k="ssr:stedsnr" v="199341" />
	</node>
	<node lat="68.30121111173958" lon="15.655111110288251" id="-20664">
		<tag k="name" v="Svartoksen" />
		<tag k="place" v="islet" />
		<tag k="ssr:stedsnr" v="199350" />
	</node>
	<node lat="68.51314444314997" lon="15.552083334589055" id="-20679">
		<tag k="name" v="Tjuvhallarneset" />
		<tag k="natural" v="cape" />
		<tag k="ssr:stedsnr" v="200390" />
	</node>
	<node lat="68.28116388532928" lon="15.30658611144796" id="-20680">
		<tag k="alt_name" v="Sandøya, store" />
		<tag k="name" v="Store Sandøya" />
		<tag k="place" v="island" />
		<tag k="ssr:stedsnr" v="200448" />
	</node>
	<node lat="68.28601388872465" lon="15.305705548548756" id="-20682">
		<tag k="name" v="Ramnøya" />
		<tag k="place" v="island" />
		<tag k="ssr:stedsnr" v="200450" />
	</node>
	<node lat="68.4791388923123" lon="16.083908339444537" id="-20688">
		<tag k="name" v="Lilledjupfest" />
		<tag k="natural" v="bay" />
		<tag k="ssr:stedsnr" v="206751" />
	</node>
	<node lat="68.35231666741159" lon="15.73764444294984" id="-20713">
		<tag k="name" v="Torfinnflua" />
		<tag k="natural" v="shoal" />
		<tag k="place" v="locality" />
		<tag k="ssr:stedsnr" v="218063" />
	</node>
	<node lat="68.41342500401284" lon="15.777286114952801" id="-20714">
		<tag k="fixme" v="consider seamark:type=rock or natural=shoal" />
		<tag k="name" v="Storvikskjæran" />
		<tag k="place" v="islet" />
		<tag k="ssr:stedsnr" v="218441" />
	</node>
	<node lat="68.33309722567539" lon="15.68238612011594" id="-20716">
		<tag k="fixme" v="consider seamark:type=rock or natural=shoal" />
		<tag k="name" v="Revskjeret" />
		<tag k="place" v="islet" />
		<tag k="ssr:stedsnr" v="221684" />
	</node>
	<node lat="68.31017777603891" lon="15.651416661071593" id="-20719">
		<tag k="name" v="Langstrandosen" />
		<tag k="natural" v="bay" />
		<tag k="ssr:stedsnr" v="221240" />
	</node>
	<node lat="68.30198333278963" lon="15.657363879651324" id="-20721">
		<tag k="fixme" v="multiple name tags, choose one and add the other to alt_name" />
		<tag k="name" v="Skarvhausen;Store Skarvhausen" />
		<tag k="place" v="islet" />
		<tag k="ssr:stedsnr" v="279556" />
	</node>
	<node lat="68.49524166983916" lon="15.867788897174607" id="-20724">
		<tag k="name" v="Stordalskroken" />
		<tag k="natural" v="bay" />
		<tag k="ssr:stedsnr" v="283495" />
	</node>
	<node lat="68.30928888447208" lon="15.571405556217615" id="-20727">
		<tag k="name" v="Lille Langosholmen" />
		<tag k="place" v="islet" />
		<tag k="ssr:stedsnr" v="283337" />
	</node>
	<node lat="68.45015545729882" lon="16.01787345558635" id="-20732">
		<tag k="alt_name:no" v="Kåringklubben" />
		<tag k="name" v="Kåringsklubben" />
		<tag k="name:no" v="Kåringsklubben" />
		<tag k="name:se" v="Gorigak" />
		<tag k="natural" v="cape" />
		<tag k="ssr:stedsnr" v="320200" />
	</node>
	<node lat="68.44697500251861" lon="16.011158324568413" id="-20734">
		<tag k="name" v="Makkholmen" />
		<tag k="place" v="islet" />
		<tag k="ssr:stedsnr" v="320206" />
	</node>
	<node lat="68.31241388448535" lon="15.664188890689365" id="-20750">
		<tag k="name" v="Småvikran" />
		<tag k="natural" v="bay" />
		<tag k="ssr:stedsnr" v="320353" />
	</node>
	<node lat="68.33179444541939" lon="15.671813886328616" id="-20753">
		<tag k="name" v="Naustholmen" />
		<tag k="place" v="islet" />
		<tag k="ssr:stedsnr" v="320372" />
	</node>
	<node lat="68.35326388890985" lon="15.32856945391974" id="-20756">
		<tag k="name" v="Rundholmen" />
		<tag k="place" v="islet" />
		<tag k="ssr:stedsnr" v="320899" />
	</node>
	<node lat="68.51262778115272" lon="15.565036101479032" id="-20761">
		<tag k="name" v="Vestpollen" />
		<tag k="natural" v="bay" />
		<tag k="ssr:stedsnr" v="321397" />
	</node>
	<node lat="68.30594999925378" lon="15.592411108903168" id="-20802">
		<tag k="name" v="Stabben" />
		<tag k="place" v="locality" />
		<tag k="seamark:type" v="rock" />
		<tag k="ssr:stedsnr" v="339464" />
	</node>
	<node lat="68.4128999984399" lon="15.778583323380934" id="-20804">
		<tag k="name" v="Storvika" />
		<tag k="natural" v="bay" />
		<tag k="ssr:stedsnr" v="342572" />
	</node>
	<node lat="68.33201110784466" lon="15.689150007472282" id="-20806">
		<tag k="name" v="Store Tennholmen" />
		<tag k="place" v="islet" />
		<tag k="ssr:stedsnr" v="342233" />
	</node>
	<node lat="68.3455194492455" lon="15.72316943614018" id="-20807">
		<tag k="name" v="Sjursholman" />
		<tag k="place" v="islet" />
		<tag k="ssr:stedsnr" v="342669" />
	</node>
	<node lat="68.33241110834591" lon="15.589363885922243" id="-20809">
		<tag k="name" v="Reinstrand" />
		<tag k="natural" v="beach" />
		<tag k="ssr:stedsnr" v="344339" />
	</node>
	<node lat="68.44945277617211" lon="15.795161106331284" id="-20814">
		<tag k="name" v="Kobbneset" />
		<tag k="natural" v="cape" />
		<tag k="ssr:stedsnr" v="344641" />
	</node>
	<node lat="68.27993333025913" lon="15.299191656465185" id="-20815">
		<tag k="name" v="Kvaløya" />
		<tag k="place" v="islet" />
		<tag k="ssr:stedsnr" v="380072" />
	</node>
	<node lat="68.29250555329253" lon="15.542258335877264" id="-20816">
		<tag k="name" v="Lyngøystabben" />
		<tag k="natural" v="shoal" />
		<tag k="place" v="locality" />
		<tag k="ssr:stedsnr" v="380082" />
	</node>
	<node lat="68.36667500081514" lon="15.743847223723742" id="-20819">
		<tag k="alt_name" v="Småskjeran" />
		<tag k="fixme" v="consider seamark:type=rock or natural=shoal" />
		<tag k="name" v="Småskjæran" />
		<tag k="place" v="islet" />
		<tag k="ssr:stedsnr" v="380342" />
	</node>
	<node lat="68.24794444050507" lon="15.570033343946587" id="-20825">
		<tag k="fixme" v="multiple name tags, choose one and add the other to alt_name" />
		<tag k="name" v="Mefjordbåen;Bøskjæret" />
		<tag k="natural" v="shoal" />
		<tag k="place" v="locality" />
		<tag k="ssr:stedsnr" v="381090" />
	</node>
	<node lat="68.23938055871042" lon="15.467997223005375" id="-20826">
		<tag k="name" v="Mellomgrunnen" />
		<tag k="natural" v="shoal" />
		<tag k="place" v="locality" />
		<tag k="ssr:stedsnr" v="381092" />
	</node>
	<node lat="68.25105833124934" lon="15.564880559454704" id="-20829">
		<tag k="name" v="Notgrunnen" />
		<tag k="natural" v="shoal" />
		<tag k="place" v="locality" />
		<tag k="ssr:stedsnr" v="381149" />
	</node>
	<node lat="68.30365833308754" lon="15.649000010976415" id="-20834">
		<tag k="alt_name" v="Kobbholmen, store;Store Koppholmen" />
		<tag k="name" v="Store Kobbholmen" />
		<tag k="place" v="islet" />
		<tag k="ssr:stedsnr" v="381346" />
	</node>
	<node lat="68.31508888813052" lon="15.688300001082107" id="-20837">
		<tag k="name" v="Bukkhausen" />
		<tag k="place" v="islet" />
		<tag k="ssr:stedsnr" v="381362" />
	</node>
	<node lat="68.32325833423204" lon="15.663913899672782" id="-20838">
		<tag k="alt_name" v="Skipholmen" />
		<tag k="name" v="Skipøyholmen" />
		<tag k="place" v="islet" />
		<tag k="ssr:stedsnr" v="381367" />
	</node>
	<node lat="68.34529999585433" lon="15.39834167260287" id="-20851">
		<tag k="name" v="Kalvøya" />
		<tag k="place" v="islet" />
		<tag k="ssr:stedsnr" v="381983" />
	</node>
	<node lat="68.36912500219205" lon="15.209150007023402" id="-20860">
		<tag k="name" v="Kvannkjosen" />
		<tag k="natural" v="bay" />
		<tag k="ssr:stedsnr" v="381945" />
	</node>
	<node lat="68.32918610913411" lon="15.650772223422706" id="-20891">
		<tag k="name" v="Ytterstadvegen" />
		<tag k="natural" v="bay" />
		<tag k="ssr:stedsnr" v="392179" />
	</node>
	<node lat="68.43799166433807" lon="15.858305557615545" id="-20903">
		<tag k="fixme" v="consider seamark:type=rock or natural=shoal" />
		<tag k="name" v="Mariheimskjæret" />
		<tag k="place" v="islet" />
		<tag k="ssr:stedsnr" v="400466" />
	</node>
	<node lat="68.35928333164705" lon="15.35482499372648" id="-20904">
		<tag k="name" v="Lillepollen" />
		<tag k="natural" v="bay" />
		<tag k="ssr:stedsnr" v="403413" />
	</node>
	<node lat="68.346183329554" lon="15.376669452089265" id="-20906">
		<tag k="name" v="Liosen" />
		<tag k="natural" v="bay" />
		<tag k="ssr:stedsnr" v="403429" />
	</node>
	<node lat="68.33182500117277" lon="15.572163895963419" id="-20908">
		<tag k="name" v="Steffosen" />
		<tag k="natural" v="bay" />
		<tag k="ssr:stedsnr" v="404344" />
	</node>
	<node lat="68.31312221909846" lon="15.5572416534139" id="-20910">
		<tag k="name" v="Korsnes" />
		<tag k="natural" v="cape" />
		<tag k="ssr:stedsnr" v="405431" />
	</node>
	<node lat="68.28948333176146" lon="15.542144435046756" id="-20916">
		<tag k="name" v="Lyngøya" />
		<tag k="place" v="islet" />
		<tag k="ssr:stedsnr" v="441076" />
	</node>
	<node lat="68.37688610721487" lon="15.944491659930847" id="-20919">
		<tag k="alt_name" v="Kråkøyskjeran" />
		<tag k="fixme" v="consider seamark:type=rock or natural=shoal" />
		<tag k="name" v="Kråkøyskjæran" />
		<tag k="place" v="islet" />
		<tag k="ssr:stedsnr" v="441271" />
	</node>
	<node lat="68.30085555763917" lon="15.26954998883116" id="-20930">
		<tag k="name" v="Bukkhausan" />
		<tag k="place" v="islet" />
		<tag k="ssr:stedsnr" v="442068" />
	</node>
	<node lat="68.25773055207694" lon="15.187175000743077" id="-20939">
		<tag k="name" v="Slettbåen" />
		<tag k="natural" v="shoal" />
		<tag k="place" v="locality" />
		<tag k="ssr:stedsnr" v="442157" />
	</node>
	<node lat="68.2555388862185" lon="15.463594440121886" id="-20940">
		<tag k="alt_name" v="Breidgrunnen" />
		<tag k="name" v="Breigrunnen" />
		<tag k="natural" v="shoal" />
		<tag k="place" v="locality" />
		<tag k="ssr:stedsnr" v="442159" />
	</node>
	<node lat="68.48508611163447" lon="15.885041667491524" id="-20942">
		<tag k="fixme" v="multiple name tags, choose one and add the other to alt_name" />
		<tag k="name" v="Endeneset;Innerneset" />
		<tag k="natural" v="cape" />
		<tag k="ssr:stedsnr" v="442167" />
	</node>
	<node lat="68.44086666339379" lon="15.794308321535729" id="-20944">
		<tag k="alt_name" v="Forneset, ytre" />
		<tag k="name" v="Ytre Forneset" />
		<tag k="natural" v="cape" />
		<tag k="ssr:stedsnr" v="442258" />
	</node>
	<node lat="68.43409166858171" lon="15.824244454377434" id="-20946">
		<tag k="name" v="Dalholmen" />
		<tag k="place" v="islet" />
		<tag k="ssr:stedsnr" v="442271" />
	</node>
	<node lat="68.3696638886136" lon="15.344338896440052" id="-20954">
		<tag k="name" v="Landøya" />
		<tag k="place" v="island" />
		<tag k="ssr:stedsnr" v="442924" />
	</node>
	<node lat="68.34569721855618" lon="15.422874994621187" id="-20956">
		<tag k="name" v="Perøya" />
		<tag k="place" v="island" />
		<tag k="ssr:stedsnr" v="442979" />
	</node>
	<node lat="68.45336944561132" lon="16.033844443620648" id="-20961">
		<tag k="name" v="Holmsundet" />
		<tag k="natural" v="strait" />
		<tag k="ssr:stedsnr" v="510749" />
	</node>
	<node lat="68.27620000451552" lon="15.679174998589744" id="-20964">
		<tag k="alt_name" v="Vadholmen, l" />
		<tag k="name" v="Litje Vadholmen" />
		<tag k="place" v="islet" />
		<tag k="ssr:stedsnr" v="502401" />
	</node>
	<node lat="68.30522500113328" lon="15.525049994835365" id="-20965">
		<tag k="alt_name" v="Silsandøyskallen" />
		<tag k="name" v="Silsandskallen" />
		<tag k="natural" v="shoal" />
		<tag k="place" v="locality" />
		<tag k="ssr:stedsnr" v="502039" />
	</node>
	<node lat="68.29194444773901" lon="15.33645556584769" id="-20968">
		<tag k="name" v="Møljeholet" />
		<tag k="natural" v="strait" />
		<tag k="ssr:stedsnr" v="502063" />
	</node>
	<node lat="68.24682499794795" lon="15.400980562433926" id="-20969">
		<tag k="name" v="Havbåan" />
		<tag k="natural" v="shoal" />
		<tag k="place" v="locality" />
		<tag k="ssr:stedsnr" v="502065" />
	</node>
	<node lat="68.24853889306887" lon="15.581358340545185" id="-20970">
		<tag k="name" v="Korsnesskallen" />
		<tag k="natural" v="shoal" />
		<tag k="place" v="locality" />
		<tag k="ssr:stedsnr" v="502070" />
	</node>
	<node lat="68.41578055426743" lon="15.756575003728049" id="-20977">
		<tag k="alt_name" v="Høystakkrommet" />
		<tag k="name" v="Høystakkromet" />
		<tag k="natural" v="cape" />
		<tag k="ssr:stedsnr" v="502238" />
	</node>
	<node lat="68.40751666281969" lon="15.867130555267298" id="-20979">
		<tag k="alt_name" v="Hamnskjeret" />
		<tag k="fixme" v="consider seamark:type=rock or natural=shoal" />
		<tag k="name" v="Hamnskjæret" />
		<tag k="place" v="islet" />
		<tag k="ssr:stedsnr" v="502249" />
	</node>
	<node lat="68.30555833401341" lon="15.667552788094948" id="-20981">
		<tag k="alt_name" v="Jakob Pålsaholmen" />
		<tag k="name" v="Jakobpålsaholmen" />
		<tag k="place" v="islet" />
		<tag k="ssr:stedsnr" v="502341" />
	</node>
	<node lat="68.32312500131793" lon="15.649125010333" id="-20982">
		<tag k="name" v="Nordøya" />
		<tag k="place" v="islet" />
		<tag k="ssr:stedsnr" v="502353" />
	</node>
	<node lat="68.3662750002918" lon="15.351627772441006" id="-21023">
		<tag k="name" v="Ingeborgsundet" />
		<tag k="natural" v="strait" />
		<tag k="ssr:stedsnr" v="513590" />
	</node>
	<node lat="68.3115166684218" lon="15.509436102901573" id="-21031">
		<tag k="fixme" v="consider seamark:type=rock or natural=shoal" />
		<tag k="name" v="Seingen" />
		<tag k="place" v="islet" />
		<tag k="ssr:stedsnr" v="513928" />
	</node>
	<node lat="68.4771249969345" lon="15.876008331937484" id="-21035">
		<tag k="bay" v="fjord" />
		<tag k="name" v="Innerfjorden" />
		<tag k="natural" v="bay" />
		<tag k="ssr:stedsnr" v="521448" />
	</node>
	<node lat="68.37402778173387" lon="15.744791671880664" id="-21037">
		<tag k="name" v="Lilleøya" />
		<tag k="place" v="islet" />
		<tag k="ssr:stedsnr" v="524636" />
	</node>
	<node lat="68.316566664088" lon="15.6643083443397" id="-21038">
		<tag k="fixme" v="consider seamark:type=rock or natural=shoal" />
		<tag k="name" v="Kabelen" />
		<tag k="place" v="islet" />
		<tag k="ssr:stedsnr" v="524245" />
	</node>
	<node lat="68.35437221871848" lon="15.392619454619368" id="-21039">
		<tag k="name" v="Åndervågosen" />
		<tag k="natural" v="bay" />
		<tag k="ssr:stedsnr" v="524377" />
	</node>
	<node lat="68.31486666499428" lon="15.219416665887987" id="-21052">
		<tag k="alt_name" v="Spenningen, l" />
		<tag k="fixme" v="consider seamark:type=rock or natural=shoal" />
		<tag k="name" v="Litje Spenningen" />
		<tag k="place" v="islet" />
		<tag k="ssr:stedsnr" v="562029" />
	</node>
	<node lat="68.32918889299286" lon="15.534411100839854" id="-21054">
		<tag k="alt_name" v="Purkholmen" />
		<tag k="name" v="Purkøya" />
		<tag k="place" v="islet" />
		<tag k="ssr:stedsnr" v="562017" />
	</node>
	<node lat="68.31387500264384" lon="15.56732500938354" id="-21056">
		<tag k="alt_name" v="Korsneset, vestre" />
		<tag k="name" v="Vestre Korsneset" />
		<tag k="natural" v="cape" />
		<tag k="ssr:stedsnr" v="562025" />
	</node>
	<node lat="68.27123333574012" lon="15.268899989072612" id="-21057">
		<tag k="name" v="Helløya" />
		<tag k="place" v="islet" />
		<tag k="ssr:stedsnr" v="562080" />
	</node>
	<node lat="68.27266111504667" lon="15.31910833960616" id="-21058">
		<tag k="name" v="Seingsdragan" />
		<tag k="place" v="islet" />
		<tag k="ssr:stedsnr" v="562084" />
	</node>
	<node lat="68.27344722368028" lon="15.530858328897025" id="-21059">
		<tag k="name" v="Farkskallen" />
		<tag k="natural" v="shoal" />
		<tag k="place" v="locality" />
		<tag k="ssr:stedsnr" v="562098" />
	</node>
	<node lat="68.4324027751436" lon="16.00950834199977" id="-21062">
		<tag k="alt_name" v="Klubben" />
		<tag k="loc_name" v="Klubban" />
		<tag k="name" v="Urklubben" />
		<tag k="natural" v="cape" />
		<tag k="ssr:stedsnr" v="562199" />
	</node>
	<node lat="68.27791111394555" lon="15.24547499561131" id="-21067">
		<tag k="fixme" v="consider seamark:type=rock or natural=shoal" />
		<tag k="name" v="Tjørnøyskjeran" />
		<tag k="place" v="islet" />
		<tag k="ssr:stedsnr" v="562059" />
	</node>
	<node lat="68.40322500361019" lon="15.80413334141002" id="-21072">
		<tag k="name" v="Tjeldklubben" />
		<tag k="natural" v="cape" />
		<tag k="ssr:stedsnr" v="562242" />
	</node>
	<node lat="68.40752777537807" lon="15.795591672631978" id="-21073">
		<tag k="name" v="Svensgamosen" />
		<tag k="natural" v="bay" />
		<tag k="ssr:stedsnr" v="562243" />
	</node>
	<node lat="68.4063833303651" lon="15.805852765649796" id="-21074">
		<tag k="name" v="Innerosen" />
		<tag k="natural" v="bay" />
		<tag k="ssr:stedsnr" v="562246" />
	</node>
	<node lat="68.40513889087799" lon="15.739386117743539" id="-21075">
		<tag k="name" v="Sneisholmen" />
		<tag k="natural" v="cape" />
		<tag k="ssr:stedsnr" v="562247" />
	</node>
	<node lat="68.35630277506185" lon="15.714108334228824" id="-21078">
		<tag k="alt_name" v="Lilleosen" />
		<tag k="name" v="Litlosen" />
		<tag k="natural" v="bay" />
		<tag k="ssr:stedsnr" v="562312" />
	</node>
	<node lat="68.2972222226735" lon="15.507849988378323" id="-21088">
		<tag k="alt_name" v="Ausskjerskallen" />
		<tag k="name" v="Ausskjærskallen" />
		<tag k="natural" v="shoal" />
		<tag k="place" v="locality" />
		<tag k="ssr:stedsnr" v="563047" />
	</node>
	<node lat="68.3427694481668" lon="15.367508324570972" id="-21104">
		<tag k="name" v="Hestholmen" />
		<tag k="place" v="islet" />
		<tag k="ssr:stedsnr" v="563976" />
	</node>
	<node lat="68.37966666497998" lon="15.735347233170353" id="-21141">
		<tag k="name" v="Skøyteflua" />
		<tag k="natural" v="shoal" />
		<tag k="place" v="locality" />
		<tag k="ssr:stedsnr" v="581087" />
	</node>
	<node lat="68.3306083369411" lon="15.647438879065872" id="-21142">
		<tag k="name" v="Fenesbukta" />
		<tag k="natural" v="bay" />
		<tag k="ssr:stedsnr" v="581524" />
	</node>
	<node lat="68.32063889219738" lon="15.653197225129738" id="-21144">
		<tag k="name" v="Nordøyodden" />
		<tag k="natural" v="cape" />
		<tag k="ssr:stedsnr" v="585234" />
	</node>
	<node lat="68.34602499963012" lon="15.417099995763733" id="-21145">
		<tag k="name" v="Lille Ungsmaløya" />
		<tag k="place" v="islet" />
		<tag k="ssr:stedsnr" v="585397" />
	</node>
	<node lat="68.30670000115492" lon="15.639027777933206" id="-21148">
		<tag k="name" v="Steinkjerringa" />
		<tag k="place" v="islet" />
		<tag k="ssr:stedsnr" v="586398" />
	</node>
	<node lat="68.38689166787464" lon="15.93989721082133" id="-21150">
		<tag k="fixme" v="consider seamark:type=rock or natural=shoal" />
		<tag k="name" v="Makkskjeret" />
		<tag k="place" v="islet" />
		<tag k="ssr:stedsnr" v="586623" />
	</node>
	<node lat="68.40229166346177" lon="15.817466675398501" id="-21151">
		<tag k="fixme" v="consider seamark:type=rock or natural=shoal" />
		<tag k="name" v="Daumannskjeret" />
		<tag k="place" v="islet" />
		<tag k="ssr:stedsnr" v="586671" />
	</node>
	<node lat="68.31448055779808" lon="15.533655567939507" id="-21155">
		<tag k="name" v="Seljeøya" />
		<tag k="place" v="island" />
		<tag k="ssr:stedsnr" v="623026" />
	</node>
	<node lat="68.32054166977014" lon="15.228255549528754" id="-21156">
		<tag k="alt_name" v="Spenningen, store" />
		<tag k="fixme" v="consider seamark:type=rock or natural=shoal" />
		<tag k="name" v="Store Spenningen" />
		<tag k="place" v="islet" />
		<tag k="ssr:stedsnr" v="623035" />
	</node>
	<node lat="68.26352500385711" lon="15.17728611632539" id="-21157">
		<tag k="name" v="Danielbåen" />
		<tag k="natural" v="shoal" />
		<tag k="place" v="locality" />
		<tag k="ssr:stedsnr" v="623133" />
	</node>
	<node lat="68.36255833066078" lon="15.933180563826532" id="-21158">
		<tag k="name" v="Smellen" />
		<tag k="natural" v="shoal" />
		<tag k="place" v="locality" />
		<tag k="ssr:stedsnr" v="623333" />
	</node>
	<node lat="68.36804999595303" lon="15.929125002558905" id="-21160">
		<tag k="alt_name" v="Rotvær, store" />
		<tag k="name" v="Store Rotvær" />
		<tag k="place" v="island" />
		<tag k="ssr:stedsnr" v="623347" />
	</node>
	<node lat="68.30647222515003" lon="15.420958324291654" id="-21161">
		<tag k="name" v="Kalven" />
		<tag k="place" v="islet" />
		<tag k="ssr:stedsnr" v="623043" />
	</node>
	<node lat="68.28618055402237" lon="15.53518332562342" id="-21162">
		<tag k="alt_name" v="Lyngøyskjeran" />
		<tag k="fixme" v="consider seamark:type=rock or natural=shoal" />
		<tag k="name" v="Lyngøyskjæran" />
		<tag k="place" v="islet" />
		<tag k="ssr:stedsnr" v="623088" />
	</node>
	<node lat="68.28881111271845" lon="15.165730565789973" id="-21163">
		<tag k="fixme" v="consider seamark:type=rock or natural=shoal" />
		<tag k="name" v="Dirikskjeret" />
		<tag k="place" v="islet" />
		<tag k="ssr:stedsnr" v="623091" />
	</node>
	<node lat="68.29201111184963" lon="15.214911113394413" id="-21164">
		<tag k="alt_name" v="Måsøya, l" />
		<tag k="name" v="Litje Måsøya" />
		<tag k="place" v="island" />
		<tag k="ssr:stedsnr" v="623093" />
	</node>
	<node lat="68.27849167082606" lon="15.518280547012106" id="-21165">
		<tag k="alt_name" v="Vågøyskallan" />
		<tag k="name" v="Vågøyskallene" />
		<tag k="natural" v="shoal" />
		<tag k="place" v="locality" />
		<tag k="ssr:stedsnr" v="623102" />
	</node>
	<node lat="68.415319443686" lon="15.8526249972378" id="-21166">
		<tag k="name" v="Kvaløya" />
		<tag k="place" v="islet" />
		<tag k="ssr:stedsnr" v="623278" />
	</node>
	<node lat="68.38678055639551" lon="15.909797232811341" id="-21168">
		<tag k="name" v="Mølnosen" />
		<tag k="natural" v="bay" />
		<tag k="ssr:stedsnr" v="623288" />
	</node>
	<node lat="68.38734722438903" lon="15.925902789062519" id="-21169">
		<tag k="alt_name" v="Kvannholman" />
		<tag k="name" v="Kvannholmen" />
		<tag k="place" v="islet" />
		<tag k="ssr:stedsnr" v="623290" />
	</node>
	<node lat="68.38973610689119" lon="15.859863889500694" id="-21170">
		<tag k="alt_name" v="Nesskjeran" />
		<tag k="fixme" v="consider seamark:type=rock or natural=shoal" />
		<tag k="name" v="Nesskjæran" />
		<tag k="place" v="islet" />
		<tag k="ssr:stedsnr" v="623294" />
	</node>
	<node lat="68.32387778213543" lon="15.655277780699668" id="-21172">
		<tag k="name" v="Ørnholmen" />
		<tag k="place" v="islet" />
		<tag k="ssr:stedsnr" v="623369" />
	</node>
	<node lat="68.32860833423739" lon="15.547113884955728" id="-21194">
		<tag k="name" v="Buøya" />
		<tag k="place" v="island" />
		<tag k="ssr:stedsnr" v="624051" />
	</node>
	<node lat="68.44355555692975" lon="16.010324992528524" id="-21203">
		<tag k="name" v="Grønneset" />
		<tag k="natural" v="cape" />
		<tag k="ssr:stedsnr" v="630473" />
	</node>
	<node lat="68.39435277537378" lon="15.865391654947269" id="-21221">
		<tag k="name" v="Rødberget" />
		<tag k="natural" v="cape" />
		<tag k="ssr:stedsnr" v="642451" />
	</node>
	<node lat="68.32003610718789" lon="15.503755556314225" id="-21225">
		<tag k="fixme" v="consider seamark:type=rock or natural=shoal" />
		<tag k="name" v="Smithskjeret" />
		<tag k="place" v="islet" />
		<tag k="ssr:stedsnr" v="647421" />
	</node>
	<node lat="68.37457500389101" lon="15.700994444555583" id="-21233">
		<tag k="name" v="Hesten" />
		<tag k="natural" v="cape" />
		<tag k="ssr:stedsnr" v="889680" />
	</node>
	<node lat="68.26994999671138" lon="15.192341672712276" id="-21234">
		<tag k="name" v="Nyken" />
		<tag k="place" v="islet" />
		<tag k="ssr:stedsnr" v="745116" />
	</node>
	<node lat="68.46969166783158" lon="15.870375005750049" id="-21235">
		<tag k="alt_name" v="Melkanneset" />
		<tag k="name" v="Melkarneset" />
		<tag k="natural" v="cape" />
		<tag k="ssr:stedsnr" v="745202" />
	</node>
	<node lat="68.31488333173876" lon="15.542322231077545" id="-21238">
		<tag k="name" v="Silsandøyan" />
		<tag k="place" v="island" />
		<tag k="ssr:stedsnr" v="745031" />
	</node>
	<node lat="68.3124499985853" lon="15.23745832493475" id="-21240">
		<tag k="name" v="Kristofferholmen" />
		<tag k="place" v="islet" />
		<tag k="ssr:stedsnr" v="745060" />
	</node>
	<node lat="68.2599833336754" lon="15.551119453806043" id="-21241">
		<tag k="name" v="Jakob Pålsagrunnen" />
		<tag k="natural" v="shoal" />
		<tag k="place" v="locality" />
		<tag k="ssr:stedsnr" v="745139" />
	</node>
	<node lat="68.26509722288948" lon="15.266336108823296" id="-21242">
		<tag k="alt_name" v="Svartskjeran, vestre" />
		<tag k="fixme" v="consider seamark:type=rock or natural=shoal" />
		<tag k="name" v="Vestre Svartskjæran" />
		<tag k="place" v="islet" />
		<tag k="ssr:stedsnr" v="745140" />
	</node>
	<node lat="68.25295000410016" lon="15.216699999760444" id="-21243">
		<tag k="name" v="Rugla" />
		<tag k="place" v="island" />
		<tag k="ssr:stedsnr" v="745169" />
	</node>
	<node lat="68.4338194470902" lon="16.00952499830052" id="-21248">
		<tag k="alt_name" v="Jeremishamna" />
		<tag k="name" v="Jeremiashamn" />
		<tag k="natural" v="bay" />
		<tag k="ssr:stedsnr" v="745267" />
	</node>
	<node lat="68.466688886051" lon="15.473644431256345" id="-21253">
		<tag k="name" v="Klubbneset" />
		<tag k="natural" v="cape" />
		<tag k="ssr:stedsnr" v="745743" />
	</node>
	<node lat="68.33293055226835" lon="15.333525010406895" id="-21263">
		<tag k="alt_name" v="Hestholmen" />
		<tag k="name" v="Hestøya" />
		<tag k="place" v="islet" />
		<tag k="ssr:stedsnr" v="745968" />
	</node>
	<node lat="68.34454999948335" lon="15.708616654174401" id="-21264">
		<tag k="name" v="Risøya" />
		<tag k="place" v="island" />
		<tag k="ssr:stedsnr" v="746428" />
	</node>
	<node lat="68.45589721918705" lon="16.0286777682925" id="-21275">
		<tag k="name" v="Einneset" />
		<tag k="natural" v="cape" />
		<tag k="ssr:stedsnr" v="752698" />
	</node>
	<node lat="68.34042499932215" lon="15.42598054929402" id="-21304">
		<tag k="name" v="Reinskjærgrunnen" />
		<tag k="natural" v="shoal" />
		<tag k="place" v="locality" />
		<tag k="ssr:stedsnr" v="764271" />
	</node>
	<node lat="68.3780638854964" lon="15.846555559059455" id="-21305">
		<tag k="name" v="Smellrumpa" />
		<tag k="natural" v="shoal" />
		<tag k="place" v="locality" />
		<tag k="ssr:stedsnr" v="764071" />
	</node>
	<node lat="68.3328611095372" lon="15.74992777191385" id="-21306">
		<tag k="fixme" v="consider seamark:type=rock or natural=shoal" />
		<tag k="name" v="Tverrskjæran" />
		<tag k="place" v="islet" />
		<tag k="ssr:stedsnr" v="764072" />
	</node>
	<node lat="68.26509722533247" lon="15.190727784194085" id="-21307">
		<tag k="name" v="Litje Kløyvøya" />
		<tag k="place" v="island" />
		<tag k="ssr:stedsnr" v="764622" />
	</node>
	<node lat="68.37488055608596" lon="15.740322226425581" id="-21311">
		<tag k="name" v="Djupvalen" />
		<tag k="natural" v="strait" />
		<tag k="ssr:stedsnr" v="767677" />
	</node>
	<node lat="68.41524999716599" lon="15.88131666931078" id="-21313">
		<tag k="name" v="Vidjestranda" />
		<tag k="natural" v="beach" />
		<tag k="ssr:stedsnr" v="769602" />
	</node>
	<node lat="68.48194444609875" lon="15.871897229847193" id="-21316">
		<tag k="name" v="Nøkkelvikneset" />
		<tag k="natural" v="cape" />
		<tag k="ssr:stedsnr" v="769565" />
	</node>
	<node lat="68.35725555760182" lon="15.748180554900864" id="-21320">
		<tag k="alt_name" v="Torfinn" />
		<tag k="fixme" v="multiple name tags, choose one and add the other to alt_name" />
		<tag k="name" v="Torvfinnen;Torfinnbåen" />
		<tag k="natural" v="shoal" />
		<tag k="place" v="locality" />
		<tag k="ssr:stedsnr" v="805312" />
	</node>
	<node lat="68.33135833010303" lon="15.537569435477803" id="-21326">
		<tag k="name" v="Storholmen" />
		<tag k="place" v="islet" />
		<tag k="ssr:stedsnr" v="805961" />
	</node>
	<node lat="68.32304722139718" lon="15.329055554929324" id="-21329">
		<tag k="name" v="Risholmen" />
		<tag k="place" v="islet" />
		<tag k="ssr:stedsnr" v="805944" />
	</node>
	<node lat="68.38477777730267" lon="15.864750005056958" id="-21333">
		<tag k="loc_name" v="Bukkvika" />
		<tag k="name" v="Buktvika" />
		<tag k="natural" v="bay" />
		<tag k="ssr:stedsnr" v="806301" />
	</node>
	<node lat="68.30875833554406" lon="15.549230563116582" id="-21337">
		<tag k="name" v="Brøran" />
		<tag k="natural" v="shoal" />
		<tag k="place" v="locality" />
		<tag k="ssr:stedsnr" v="806040" />
	</node>
	<node lat="68.27708333499605" lon="15.441355563386017" id="-21338">
		<tag k="alt_name" v="Havskjerskallen" />
		<tag k="name" v="Havskjærskallen" />
		<tag k="natural" v="shoal" />
		<tag k="place" v="locality" />
		<tag k="ssr:stedsnr" v="806105" />
	</node>
	<node lat="68.27437777435698" lon="15.356666670831206" id="-21339">
		<tag k="alt_name" v="Matsskjeret" />
		<tag k="fixme" v="consider seamark:type=rock or natural=shoal" />
		<tag k="name" v="Matsskjæret" />
		<tag k="place" v="islet" />
		<tag k="ssr:stedsnr" v="806108" />
	</node>
	<node lat="68.27521667026224" lon="15.341119454763263" id="-21342">
		<tag k="name" v="Skarvhausan" />
		<tag k="place" v="islet" />
		<tag k="ssr:stedsnr" v="806085" />
	</node>
	<node lat="68.25756111521822" lon="15.403611104097175" id="-21344">
		<tag k="name" v="Kveitgrunnen" />
		<tag k="natural" v="shoal" />
		<tag k="place" v="locality" />
		<tag k="ssr:stedsnr" v="806134" />
	</node>
	<node lat="68.28836666457052" lon="15.652955542959297" id="-21352">
		<tag k="bay" v="fjord" />
		<tag k="name" v="Nordgrunnen" />
		<tag k="natural" v="bay" />
		<tag k="ssr:stedsnr" v="806348" />
	</node>
	<node lat="68.37683610799525" lon="15.670277769322137" id="-21376">
		<tag k="name" v="Straumneset" />
		<tag k="natural" v="cape" />
		<tag k="ssr:stedsnr" v="807425" />
	</node>
	<node lat="68.34064444107274" lon="15.468083334646174" id="-21414">
		<tag k="name" v="Urvika" />
		<tag k="natural" v="bay" />
		<tag k="ssr:stedsnr" v="825242" />
	</node>
	<node lat="68.36088889067005" lon="15.926916662195625" id="-21415">
		<tag k="name" v="Smellrumpa" />
		<tag k="natural" v="shoal" />
		<tag k="place" v="locality" />
		<tag k="ssr:stedsnr" v="825055" />
	</node>
	<node lat="68.37781110904598" lon="15.690586116497846" id="-21417">
		<tag k="name" v="Høgsettet" />
		<tag k="natural" v="bay" />
		<tag k="ssr:stedsnr" v="828585" />
	</node>
	<node lat="68.38250277695948" lon="15.889752772597516" id="-21422">
		<tag k="name" v="Korsvika" />
		<tag k="natural" v="bay" />
		<tag k="ssr:stedsnr" v="830630" />
	</node>
	<node lat="68.32821944742713" lon="15.514005552339952" id="-21424">
		<tag k="alt_name" v="Langskjeret" />
		<tag k="fixme" v="consider seamark:type=rock or natural=shoal" />
		<tag k="name" v="Langskjæret" />
		<tag k="place" v="islet" />
		<tag k="ssr:stedsnr" v="866007" />
	</node>
	<node lat="68.32094444739126" lon="15.523108342765592" id="-21425">
		<tag k="name" v="Fangøya" />
		<tag k="place" v="island" />
		<tag k="ssr:stedsnr" v="866012" />
	</node>
	<node lat="68.31361110908082" lon="15.524855562557123" id="-21429">
		<tag k="alt_name" v="Seljeskjeran" />
		<tag k="fixme" v="consider seamark:type=rock or natural=shoal" />
		<tag k="name" v="Seljeskjæran" />
		<tag k="place" v="islet" />
		<tag k="ssr:stedsnr" v="866025" />
	</node>
	<node lat="68.26650555851414" lon="15.450833342454844" id="-21430">
		<tag k="alt_name" v="Langhavskjeran" />
		<tag k="fixme" v="consider seamark:type=rock or natural=shoal" />
		<tag k="name" v="Langhavskjæran" />
		<tag k="place" v="islet" />
		<tag k="ssr:stedsnr" v="866081" />
	</node>
	<node lat="68.26411111284204" lon="15.362430558593276" id="-21431">
		<tag k="name" v="Steingrunnen" />
		<tag k="natural" v="shoal" />
		<tag k="place" v="locality" />
		<tag k="ssr:stedsnr" v="866083" />
	</node>
	<node lat="68.42163611111286" lon="15.777750003196395" id="-21433">
		<tag k="name" v="Lappvika" />
		<tag k="natural" v="bay" />
		<tag k="ssr:stedsnr" v="866204" />
	</node>
	<node lat="68.42111944116732" lon="15.837369443287837" id="-21434">
		<tag k="name" v="Erikstadøyan" />
		<tag k="place" v="island" />
		<tag k="ssr:stedsnr" v="866211" />
	</node>
	<node lat="68.41135555395866" lon="15.852547215012702" id="-21442">
		<tag k="alt_name" v="Kvaløyskjeret" />
		<tag k="fixme" v="consider seamark:type=rock or natural=shoal" />
		<tag k="name" v="Kvaløyskjæret" />
		<tag k="place" v="islet" />
		<tag k="ssr:stedsnr" v="866247" />
	</node>
	<node lat="68.37873611496865" lon="15.875888879233027" id="-21443">
		<tag k="alt_name" v="Auenholmen, store" />
		<tag k="name" v="Store Auenholmen" />
		<tag k="place" v="islet" />
		<tag k="ssr:stedsnr" v="866251" />
	</node>
	<node lat="68.37591944755661" lon="15.69471388346147" id="-21445">
		<tag k="name" v="Risøya" />
		<tag k="place" v="island" />
		<tag k="ssr:stedsnr" v="866266" />
	</node>
	<node lat="68.36709444039379" lon="15.940780550646325" id="-21446">
		<tag k="name" v="Fugløya" />
		<tag k="place" v="island" />
		<tag k="ssr:stedsnr" v="866317" />
	</node>
	<node lat="68.36891389323259" lon="15.922450001774822" id="-21448">
		<tag k="name" v="Rotværet" />
		<tag k="place" v="island" />
		<tag k="ssr:stedsnr" v="866321" />
	</node>
	<node lat="68.2885000030111" lon="15.341200011511996" id="-21449">
		<tag k="name" v="Fredriksberg" />
		<tag k="place" v="islet" />
		<tag k="ssr:stedsnr" v="867081" />
	</node>
	<node lat="68.2406944481186" lon="15.584652768798641" id="-21450">
		<tag k="name" v="Helligskallen" />
		<tag k="natural" v="shoal" />
		<tag k="place" v="locality" />
		<tag k="ssr:stedsnr" v="867097" />
	</node>
	<node lat="68.3565500022894" lon="15.3571833370425" id="-21453">
		<tag k="name" v="Øksnespollen" />
		<tag k="natural" v="bay" />
		<tag k="ssr:stedsnr" v="866897" />
	</node>
	<node lat="68.30200833134381" lon="15.493783342932122" id="-21464">
		<tag k="name" v="Okstunga" />
		<tag k="place" v="islet" />
		<tag k="ssr:stedsnr" v="867060" />
	</node>
	<node lat="68.29939444403276" lon="15.257874992825059" id="-21466">
		<tag k="name" v="Ramnøya" />
		<tag k="place" v="island" />
		<tag k="ssr:stedsnr" v="867068" />
	</node>
	<node lat="68.87405277898304" lon="15.580744438809667" id="-21475">
		<tag k="alt_name:no" v="Hinnøy" />
		<tag k="name" v="Hinnøya" />
		<tag k="name:no" v="Hinnøya" />
		<tag k="name:se" v="Iinnasuolu" />
		<tag k="place" v="island" />
		<tag k="ssr:stedsnr" v="867568" />
	</node>
	<node lat="68.50447222263773" lon="15.872480548207385" id="-21482">
		<tag k="alt_name" v="Kanstadbotnen" />
		<tag k="name" v="Kanstadbotn" />
		<tag k="natural" v="bay" />
		<tag k="ssr:stedsnr" v="867812" />
	</node>
	<node lat="68.46038888579163" lon="16.053319438887407" id="-21500">
		<tag k="fixme" v="consider seamark:type=rock or natural=shoal" />
		<tag k="name" v="Buholmskjeret" />
		<tag k="place" v="islet" />
		<tag k="ssr:stedsnr" v="874745" />
	</node>
	<node lat="68.4983138863915" lon="16.108983332951556" id="-21523">
		<tag k="name" v="Djupfestskallen" />
		<tag k="natural" v="shoal" />
		<tag k="place" v="locality" />
		<tag k="ssr:stedsnr" v="879656" />
	</node>
	<node lat="68.4004749981542" lon="15.825652772474715" id="-21524">
		<tag k="name" v="Erikstadnesgrunnen" />
		<tag k="natural" v="shoal" />
		<tag k="place" v="locality" />
		<tag k="ssr:stedsnr" v="886432" />
	</node>
	<node lat="68.32059443992276" lon="15.679975006773788" id="-21526">
		<tag k="name" v="Nordnes" />
		<tag k="natural" v="cape" />
		<tag k="ssr:stedsnr" v="889276" />
	</node>
	<node lat="68.28266666462436" lon="15.683327781463733" id="-21549">
		<tag k="name" v="Follan" />
		<tag k="place" v="locality" />
		<tag k="seamark:type" v="rock" />
		<tag k="ssr:stedsnr" v="946380" />
	</node>
	<node lat="68.29948889299138" lon="15.63666666760653" id="-21550">
		<tag k="name" v="Koppholmskallen" />
		<tag k="natural" v="shoal" />
		<tag k="place" v="locality" />
		<tag k="ssr:stedsnr" v="946521" />
	</node>
	<node lat="68.37468333806714" lon="15.683513880593189" id="-21555">
		<tag k="fixme" v="consider seamark:type=rock or natural=shoal" />
		<tag k="name" v="Røyrskjeret" />
		<tag k="place" v="islet" />
		<tag k="ssr:stedsnr" v="949664" />
	</node>
	<node lat="68.41175152393767" lon="16.004436153940205" id="-21632">
		<tag k="name" v="Melkebukta" />
		<tag k="natural" v="bay" />
		<tag k="ssr:stedsnr" v="1076169" />
	</node>
</osm>
