<?xml version="1.0" encoding="UTF-8"?>
<osm version="0.6" generator="osmapis">
	<node id="34024685" lat="63.3858695" lon="8.5907373" version="2" timestamp="2022-08-01T18:53:53Z" changeset="124360617" uid="3497659" user="NKA">
		<tag k="name" v="Skipnes" />
		<tag k="place" v="hamlet" />
		<tag k="ssr:stedsnr" v="681195" />
	</node>
	<node id="886047862" lat="63.2034957" lon="8.0340017" version="4" timestamp="2022-08-01T18:53:53Z" changeset="124360617" uid="3497659" user="NKA">
		<tag k="name" v="Leira" />
		<tag k="place" v="village" />
		<tag k="ssr:stedsnr" v="862473" />
	</node>
	<node id="886047878" lat="63.1568937" lon="7.9560716" version="5" timestamp="2022-08-01T18:53:53Z" changeset="124360617" uid="3497659" user="NKA">
		<tag k="name" v="Tømmervåg" />
		<tag k="place" v="village" />
		<tag k="ssr:stedsnr" v="73310" />
	</node>
	<node id="886058318" lat="63.2273694" lon="8.5017101" version="3" timestamp="2022-08-01T18:53:53Z" changeset="124360617" uid="3497659" user="NKA">
		<tag k="name" v="Mjosundet" />
		<tag k="place" v="hamlet" />
		<tag k="ssr:stedsnr" v="923055" />
	</node>
	<node id="888389533" lat="63.2682571" lon="8.5312492" version="6" timestamp="2022-08-01T18:53:53Z" changeset="124360617" uid="3497659" user="NKA">
		<tag k="name" v="Aure" />
		<tag k="place" v="village" />
		<tag k="population" v="629" />
		<tag k="population:date" v="2021-01-01" />
		<tag k="ref:ssb_tettsted" v="6311" />
		<tag k="source:population" v="SSB - befolkning i tettstedet" />
		<tag k="ssr:stedsnr" v="497275" />
	</node>
	<node id="1367061542" lat="63.1665678" lon="8.4392065" version="2" timestamp="2022-08-01T18:53:53Z" changeset="124360617" uid="3497659" user="NKA">
		<tag k="alt_name" v="Arasvika;Vågos" />
		<tag k="name" v="Vågosen" />
		<tag k="place" v="hamlet" />
		<tag k="ssr:stedsnr" v="839836" />
	</node>
	<node id="1367061543" lat="63.2061242" lon="8.1512837" version="2" timestamp="2022-08-01T18:53:53Z" changeset="124360617" uid="3497659" user="NKA">
		<tag k="name" v="Gullstein" />
		<tag k="place" v="hamlet" />
		<tag k="ssr:stedsnr" v="255468" />
	</node>
	<node id="1367061545" lat="63.2192519" lon="8.1408616" version="2" timestamp="2022-08-01T18:53:53Z" changeset="124360617" uid="3497659" user="NKA">
		<tag k="name" v="Kalvika" />
		<tag k="place" v="hamlet" />
		<tag k="ssr:stedsnr" v="923524" />
	</node>
	<node id="1367061546" lat="63.2321795" lon="8.1166257" version="2" timestamp="2022-08-01T18:53:53Z" changeset="124360617" uid="3497659" user="NKA">
		<tag k="name" v="Sandvika" />
		<tag k="place" v="hamlet" />
		<tag k="ssr:stedsnr" v="558421" />
	</node>
	<node id="1367061589" lat="63.2021508" lon="8.4131634" version="2" timestamp="2022-08-01T18:53:53Z" changeset="124360617" uid="3497659" user="NKA">
		<tag k="name" v="Ålmo" />
		<tag k="place" v="hamlet" />
		<tag k="ssr:stedsnr" v="801111" />
	</node>
	<node id="2597141135" lat="63.3488981" lon="8.8487989" version="2" timestamp="2022-08-01T18:53:53Z" changeset="124360617" uid="3497659" user="NKA">
		<tag k="name" v="Årvågen" />
		<tag k="place" v="hamlet" />
		<tag k="ssr:stedsnr" v="801700" />
	</node>
	<node id="3730665407" lat="63.2876277" lon="8.8175" version="2" timestamp="2022-08-01T18:53:53Z" changeset="124360617" uid="3497659" user="NKA">
		<tag k="historic" v="shieling" />
		<tag k="name" v="Ulfsnessetra" />
		<tag k="place" v="isolated_dwelling" />
		<tag k="ssr:stedsnr" v="255593" />
	</node>
	<node id="3730702110" lat="63.2526444" lon="8.4772918" version="2" timestamp="2022-08-01T18:53:53Z" changeset="124360617" uid="3497659" user="NKA">
		<tag k="name" v="Giset" />
		<tag k="place" v="hamlet" />
		<tag k="ssr:stedsnr" v="73299" />
	</node>
	<node id="3730702111" lat="63.2229026" lon="8.2683007" version="2" timestamp="2022-08-01T18:53:53Z" changeset="124360617" uid="3497659" user="NKA">
		<tag k="name" v="Ormbostad" />
		<tag k="place" v="farm" />
		<tag k="ssr:stedsnr" v="802038" />
	</node>
	<node id="3730702112" lat="63.2917663" lon="8.579246" version="3" timestamp="2022-08-01T18:53:53Z" changeset="124360617" uid="3497659" user="NKA">
		<tag k="alt_name" v="Vågsetra" />
		<tag k="historic" v="shieling" />
		<tag k="name" v="Vågssetra" />
		<tag k="place" v="isolated_dwelling" />
		<tag k="ssr:stedsnr" v="497363" />
	</node>
	<node id="3730980459" lat="63.2812204" lon="8.6329381" version="3" timestamp="2022-08-01T18:53:53Z" changeset="124360617" uid="3497659" user="NKA">
		<tag k="historic" v="shieling" />
		<tag k="name" v="Aurdalssetra" />
		<tag k="place" v="isolated_dwelling" />
		<tag k="ssr:stedsnr" v="73250" />
	</node>
	<node id="3731005327" lat="63.2224088" lon="8.7873773" version="4" timestamp="2022-08-01T18:53:53Z" changeset="124360617" uid="3497659" user="NKA">
		<tag k="historic" v="shieling" />
		<tag k="name" v="Todalssetra" />
		<tag k="place" v="hamlet" />
		<tag k="ssr:stedsnr" v="12773" />
	</node>
	<node id="5040902941" lat="63.328289" lon="8.4234484" version="2" timestamp="2022-08-01T18:53:53Z" changeset="124360617" uid="3497659" user="NKA">
		<tag k="name" v="Aukan" />
		<tag k="place" v="hamlet" />
		<tag k="ssr:stedsnr" v="376168" />
	</node>
	<node id="6214191501" lat="63.2612001" lon="8.3960219" version="2" timestamp="2022-08-01T18:53:53Z" changeset="124360617" uid="3497659" user="NKA">
		<tag k="alt_name" v="Foldfjorden" />
		<tag k="name" v="Espset" />
		<tag k="place" v="hamlet" />
		<tag k="ssr:stedsnr" v="315268" />
	</node>
	<node id="6214191508" lat="63.3478234" lon="8.6855504" version="2" timestamp="2022-08-01T18:53:53Z" changeset="124360617" uid="3497659" user="NKA">
		<tag k="name" v="Vihalsen" />
		<tag k="place" v="hamlet" />
		<tag k="ssr:stedsnr" v="801141" />
	</node>
	<node id="6216715390" lat="63.4110724" lon="8.7268065" version="2" timestamp="2022-08-01T18:53:53Z" changeset="124360617" uid="3497659" user="NKA">
		<tag k="name" v="Kjørsvikbugen" />
		<tag k="place" v="village" />
		<tag k="ssr:stedsnr" v="559041" />
	</node>
	<node id="6216715405" lat="63.3308569" lon="8.4669104" version="2" timestamp="2022-08-01T18:53:53Z" changeset="124360617" uid="3497659" user="NKA">
		<tag k="name" v="Lesund" />
		<tag k="place" v="hamlet" />
		<tag k="ssr:stedsnr" v="740175" />
	</node>
	<node id="9897141755" lat="63.3442126" lon="8.4710923" version="2" timestamp="2022-08-01T18:53:53Z" changeset="124360617" uid="3497659" user="NKA">
		<tag k="name" v="Sandvika" />
		<tag k="place" v="farm" />
		<tag k="ssr:stedsnr" v="255163" />
	</node>
	<node id="9897141756" lat="63.3457542" lon="8.4805574" version="2" timestamp="2022-08-01T18:53:53Z" changeset="124360617" uid="3497659" user="NKA">
		<tag k="name" v="Melkvik" />
		<tag k="place" v="farm" />
		<tag k="ssr:stedsnr" v="777245" />
	</node>
	<node id="9897141757" lat="63.3451926" lon="8.4868561" version="2" timestamp="2022-08-01T18:53:53Z" changeset="124360617" uid="3497659" user="NKA">
		<tag k="name" v="Åsheim" />
		<tag k="place" v="farm" />
		<tag k="ssr:stedsnr" v="109247" />
	</node>
	<node id="9897141758" lat="63.3431492" lon="8.4739513" version="2" timestamp="2022-08-01T18:53:53Z" changeset="124360617" uid="3497659" user="NKA">
		<tag k="name" v="Sandhamn" />
		<tag k="place" v="farm" />
		<tag k="ssr:stedsnr" v="352234" />
	</node>
	<node id="9897141759" lat="63.3655574" lon="8.5141821" version="2" timestamp="2022-08-01T18:53:53Z" changeset="124360617" uid="3497659" user="NKA">
		<tag k="name" v="Finnset" />
		<tag k="place" v="farm" />
		<tag k="ssr:stedsnr" v="315229" />
	</node>
	<node id="9897141760" lat="63.3624639" lon="8.5148314" version="2" timestamp="2022-08-01T18:53:53Z" changeset="124360617" uid="3497659" user="NKA">
		<tag k="name" v="Fredheim" />
		<tag k="place" v="farm" />
		<tag k="ssr:stedsnr" v="618203" />
	</node>
	<node id="9897141761" lat="63.3566684" lon="8.5191148" version="2" timestamp="2022-08-01T18:53:53Z" changeset="124360617" uid="3497659" user="NKA">
		<tag k="name" v="Vatnegård" />
		<tag k="place" v="isolated_dwelling" />
		<tag k="ssr:stedsnr" v="778138" />
	</node>
	<node id="9897141762" lat="63.3551921" lon="8.5217525" version="2" timestamp="2022-08-01T18:53:53Z" changeset="124360617" uid="3497659" user="NKA">
		<tag k="name" v="Melland" />
		<tag k="place" v="hamlet" />
		<tag k="ssr:stedsnr" v="255222" />
	</node>
	<node id="9899543358" lat="63.3381748" lon="8.4702872" version="2" timestamp="2022-08-01T18:53:53Z" changeset="124360617" uid="3497659" user="NKA">
		<tag k="name" v="Vangsmo" />
		<tag k="place" v="isolated_dwelling" />
		<tag k="ssr:stedsnr" v="291395" />
	</node>
	<node id="9899543360" lat="63.336592" lon="8.4584125" version="2" timestamp="2022-08-01T18:53:53Z" changeset="124360617" uid="3497659" user="NKA">
		<tag k="name" v="Åkvika" />
		<tag k="place" v="hamlet" />
		<tag k="ssr:stedsnr" v="133129" />
	</node>
	<node id="9899543361" lat="63.3420489" lon="8.4600449" version="2" timestamp="2022-08-01T18:53:53Z" changeset="124360617" uid="3497659" user="NKA">
		<tag k="alt_name" v="Kåvik" />
		<tag k="name" v="Kåvika" />
		<tag k="place" v="farm" />
		<tag k="ssr:stedsnr" v="12150" />
	</node>
	<node id="9899781558" lat="63.3339" lon="8.4658749" version="2" timestamp="2022-08-01T18:53:53Z" changeset="124360617" uid="3497659" user="NKA">
		<tag k="name" v="Åsen" />
		<tag k="place" v="farm" />
		<tag k="ssr:stedsnr" v="73141" />
	</node>
	<node id="9899781560" lat="63.3283686" lon="8.479806" version="2" timestamp="2022-08-01T18:53:53Z" changeset="124360617" uid="3497659" user="NKA">
		<tag k="name" v="Stranda" />
		<tag k="place" v="farm" />
		<tag k="ssr:stedsnr" v="437200" />
	</node>
	<node id="9899781561" lat="63.329181" lon="8.4855265" version="2" timestamp="2022-08-01T18:53:53Z" changeset="124360617" uid="3497659" user="NKA">
		<tag k="name" v="Solvang" />
		<tag k="place" v="farm" />
		<tag k="ssr:stedsnr" v="534295" />
	</node>
	<node id="9899781562" lat="63.3318743" lon="8.4883458" version="2" timestamp="2022-08-01T18:53:53Z" changeset="124360617" uid="3497659" user="NKA">
		<tag k="alt_name" v="Øverås" />
		<tag k="name" v="Øveråsen" />
		<tag k="place" v="farm" />
		<tag k="ssr:stedsnr" v="801170" />
	</node>
	<node id="9899781563" lat="63.3282833" lon="8.4943486" version="2" timestamp="2022-08-01T18:53:53Z" changeset="124360617" uid="3497659" user="NKA">
		<tag k="name" v="Solheim" />
		<tag k="place" v="farm" />
		<tag k="ssr:stedsnr" v="534312" />
	</node>
	<node id="9899781564" lat="63.3258141" lon="8.5006272" version="2" timestamp="2022-08-01T18:53:53Z" changeset="124360617" uid="3497659" user="NKA">
		<tag k="name" v="Tømmernes" />
		<tag k="place" v="hamlet" />
		<tag k="ssr:stedsnr" v="73172" />
	</node>
	<node id="9899781565" lat="63.3244654" lon="8.5135351" version="2" timestamp="2022-08-01T18:53:53Z" changeset="124360617" uid="3497659" user="NKA">
		<tag k="alt_name" v="Kolvika" />
		<tag k="name" v="Kålåvika" />
		<tag k="place" v="farm" />
		<tag k="ssr:stedsnr" v="558189" />
	</node>
	<node id="9899781566" lat="63.3234483" lon="8.5401994" version="2" timestamp="2022-08-01T18:53:53Z" changeset="124360617" uid="3497659" user="NKA">
		<tag k="name" v="Ramsvika" />
		<tag k="place" v="farm" />
		<tag k="ssr:stedsnr" v="862333" />
	</node>
	<node id="9899781567" lat="63.3272939" lon="8.5396262" version="2" timestamp="2022-08-01T18:53:53Z" changeset="124360617" uid="3497659" user="NKA">
		<tag k="name" v="Seterneset" />
		<tag k="place" v="farm" />
		<tag k="ssr:stedsnr" v="740172" />
	</node>
	<node id="9925326470" lat="63.3748889" lon="8.6997501" version="1" timestamp="2022-08-01T18:53:53Z" changeset="124360617" uid="3497659" user="NKA">
		<tag k="name" v="Skogly" />
		<tag k="place" v="farm" />
		<tag k="ssr:stedsnr" v="376246" />
	</node>
	<node id="9925326471" lat="63.3793835" lon="8.613683" version="1" timestamp="2022-08-01T18:53:53Z" changeset="124360617" uid="3497659" user="NKA">
		<tag k="name" v="Skard" />
		<tag k="place" v="hamlet" />
		<tag k="ssr:stedsnr" v="620196" />
	</node>
	<node id="9925326472" lat="63.3874055" lon="8.5657416" version="1" timestamp="2022-08-01T18:53:53Z" changeset="124360617" uid="3497659" user="NKA">
		<tag k="name" v="Rønsvika" />
		<tag k="place" v="farm" />
		<tag k="ssr:stedsnr" v="195241" />
	</node>
	<node id="9925326473" lat="63.2235584" lon="8.5094057" version="1" timestamp="2022-08-01T18:53:53Z" changeset="124360617" uid="3497659" user="NKA">
		<tag k="historic" v="shieling" />
		<tag k="name" v="Nedere Ertvågseter" />
		<tag k="place" v="isolated_dwelling" />
		<tag k="ssr:stedsnr" v="412081" />
	</node>
	<node id="9925326474" lat="63.3807187" lon="8.6251666" version="1" timestamp="2022-08-01T18:53:53Z" changeset="124360617" uid="3497659" user="NKA">
		<tag k="name" v="Havnebugen" />
		<tag k="place" v="farm" />
		<tag k="ssr:stedsnr" v="111063" />
	</node>
	<node id="9925326475" lat="63.2503694" lon="8.4224112" version="1" timestamp="2022-08-01T18:53:53Z" changeset="124360617" uid="3497659" user="NKA">
		<tag k="historic" v="shieling" />
		<tag k="name" v="Stavnessetra" />
		<tag k="place" v="isolated_dwelling" />
		<tag k="ssr:stedsnr" v="535115" />
	</node>
	<node id="9925326476" lat="63.413592" lon="8.7114075" version="1" timestamp="2022-08-01T18:53:53Z" changeset="124360617" uid="3497659" user="NKA">
		<tag k="name" v="Buhaugen" />
		<tag k="place" v="farm" />
		<tag k="ssr:stedsnr" v="74043" />
	</node>
	<node id="9925326477" lat="63.4070495" lon="8.7292166" version="1" timestamp="2022-08-01T18:53:53Z" changeset="124360617" uid="3497659" user="NKA">
		<tag k="alt_name" v="Ledal" />
		<tag k="name" v="Buslættet" />
		<tag k="place" v="farm" />
		<tag k="ssr:stedsnr" v="315666" />
	</node>
	<node id="9925326478" lat="63.4156694" lon="8.745025" version="1" timestamp="2022-08-01T18:53:53Z" changeset="124360617" uid="3497659" user="NKA">
		<tag k="name" v="Bukta" />
		<tag k="place" v="farm" />
		<tag k="ssr:stedsnr" v="255426" />
	</node>
	<node id="9925326479" lat="63.2848673" lon="8.6878884" version="1" timestamp="2022-08-01T18:53:53Z" changeset="124360617" uid="3497659" user="NKA">
		<tag k="historic" v="shieling" />
		<tag k="name" v="Sølømen" />
		<tag k="place" v="isolated_dwelling" />
		<tag k="ssr:stedsnr" v="73260" />
	</node>
	<node id="9925326480" lat="63.3838622" lon="8.766421" version="1" timestamp="2022-08-01T18:53:53Z" changeset="124360617" uid="3497659" user="NKA">
		<tag k="historic" v="shieling" />
		<tag k="name" v="Vollasetra" />
		<tag k="place" v="isolated_dwelling" />
		<tag k="ssr:stedsnr" v="293823" />
	</node>
	<node id="9925326481" lat="63.3157" lon="8.6775556" version="1" timestamp="2022-08-01T18:53:53Z" changeset="124360617" uid="3497659" user="NKA">
		<tag k="name" v="Lauvheim" />
		<tag k="place" v="farm" />
		<tag k="ssr:stedsnr" v="50969" />
	</node>
	<node id="9925326482" lat="63.4005694" lon="8.7095861" version="1" timestamp="2022-08-01T18:53:53Z" changeset="124360617" uid="3497659" user="NKA">
		<tag k="name" v="Veiset" />
		<tag k="place" v="farm" />
		<tag k="ssr:stedsnr" v="74205" />
	</node>
	<node id="9925326483" lat="63.3882972" lon="8.5754389" version="1" timestamp="2022-08-01T18:53:53Z" changeset="124360617" uid="3497659" user="NKA">
		<tag k="name" v="Nyengen" />
		<tag k="place" v="farm" />
		<tag k="ssr:stedsnr" v="110836" />
	</node>
	<node id="9925326484" lat="63.171575" lon="7.93715" version="1" timestamp="2022-08-01T18:53:53Z" changeset="124360617" uid="3497659" user="NKA">
		<tag k="name" v="Engdalen" />
		<tag k="place" v="farm" />
		<tag k="ssr:stedsnr" v="497276" />
	</node>
	<node id="9925326485" lat="63.4045393" lon="8.7173104" version="1" timestamp="2022-08-01T18:53:53Z" changeset="124360617" uid="3497659" user="NKA">
		<tag k="name" v="Solbakken" />
		<tag k="place" v="isolated_dwelling" />
		<tag k="ssr:stedsnr" v="171326" />
	</node>
	<node id="9925326486" lat="63.1594778" lon="7.9277445" version="1" timestamp="2022-08-01T18:53:53Z" changeset="124360617" uid="3497659" user="NKA">
		<tag k="name" v="Breivika" />
		<tag k="place" v="farm" />
		<tag k="ssr:stedsnr" v="437314" />
	</node>
	<node id="9925326487" lat="63.2780528" lon="8.6114555" version="1" timestamp="2022-08-01T18:53:53Z" changeset="124360617" uid="3497659" user="NKA">
		<tag k="name" v="Løfall" />
		<tag k="place" v="farm" />
		<tag k="ssr:stedsnr" v="12268" />
	</node>
	<node id="9925326488" lat="63.3534955" lon="8.6903574" version="1" timestamp="2022-08-01T18:53:53Z" changeset="124360617" uid="3497659" user="NKA">
		<tag k="name" v="Solberg" />
		<tag k="place" v="farm" />
		<tag k="ssr:stedsnr" v="50104" />
	</node>
	<node id="9925326489" lat="63.2133856" lon="8.5397655" version="1" timestamp="2022-08-01T18:53:53Z" changeset="124360617" uid="3497659" user="NKA">
		<tag k="name" v="Ertvågen" />
		<tag k="place" v="hamlet" />
		<tag k="ssr:stedsnr" v="558001" />
	</node>
	<node id="9925326490" lat="63.1601473" lon="7.9040168" version="1" timestamp="2022-08-01T18:53:53Z" changeset="124360617" uid="3497659" user="NKA">
		<tag k="name" v="Øverås" />
		<tag k="place" v="farm" />
		<tag k="ssr:stedsnr" v="376296" />
	</node>
	<node id="9925326491" lat="63.1637361" lon="8.506375" version="1" timestamp="2022-08-01T18:53:53Z" changeset="124360617" uid="3497659" user="NKA">
		<tag k="name" v="Geistadhaugen" />
		<tag k="place" v="farm" />
		<tag k="ssr:stedsnr" v="498076" />
	</node>
	<node id="9925326492" lat="63.213825" lon="8.1447972" version="1" timestamp="2022-08-01T18:53:53Z" changeset="124360617" uid="3497659" user="NKA">
		<tag k="name" v="Bakken" />
		<tag k="place" v="farm" />
		<tag k="ssr:stedsnr" v="923522" />
	</node>
	<node id="9925326493" lat="63.161625" lon="8.2446111" version="1" timestamp="2022-08-01T18:53:53Z" changeset="124360617" uid="3497659" user="NKA">
		<tag k="name" v="Fjelnesdalen" />
		<tag k="place" v="hamlet" />
		<tag k="ssr:stedsnr" v="693820" />
	</node>
	<node id="9925326494" lat="63.1984973" lon="7.98045" version="1" timestamp="2022-08-01T18:53:53Z" changeset="124360617" uid="3497659" user="NKA">
		<tag k="name" v="Nyheim" />
		<tag k="place" v="farm" />
		<tag k="ssr:stedsnr" v="49126" />
	</node>
	<node id="9925326495" lat="63.1973945" lon="8.0351668" version="1" timestamp="2022-08-01T18:53:53Z" changeset="124360617" uid="3497659" user="NKA">
		<tag k="name" v="Skogset" />
		<tag k="place" v="farm" />
		<tag k="ssr:stedsnr" v="472742" />
	</node>
	<node id="9925326496" lat="63.1976167" lon="7.9707667" version="1" timestamp="2022-08-01T18:53:53Z" changeset="124360617" uid="3497659" user="NKA">
		<tag k="name" v="Vestnes" />
		<tag k="place" v="farm" />
		<tag k="ssr:stedsnr" v="49117" />
	</node>
	<node id="9925326497" lat="63.1998722" lon="7.9643611" version="1" timestamp="2022-08-01T18:53:53Z" changeset="124360617" uid="3497659" user="NKA">
		<tag k="name" v="Bukta" />
		<tag k="place" v="isolated_dwelling" />
		<tag k="ssr:stedsnr" v="12474" />
	</node>
	<node id="9925326498" lat="63.1664917" lon="7.9428749" version="1" timestamp="2022-08-01T18:53:53Z" changeset="124360617" uid="3497659" user="NKA">
		<tag k="name" v="Myrvoll" />
		<tag k="place" v="farm" />
		<tag k="ssr:stedsnr" v="315277" />
	</node>
	<node id="9925326499" lat="63.2563973" lon="8.5622612" version="1" timestamp="2022-08-01T18:53:53Z" changeset="124360617" uid="3497659" user="NKA">
		<tag k="name" v="Rimstad" />
		<tag k="place" v="farm" />
		<tag k="ssr:stedsnr" v="12312" />
	</node>
	<node id="9925326500" lat="63.1653667" lon="7.9172223" version="1" timestamp="2022-08-01T18:53:53Z" changeset="124360617" uid="3497659" user="NKA">
		<tag k="name" v="Jektvika" />
		<tag k="place" v="hamlet" />
		<tag k="ssr:stedsnr" v="862311" />
	</node>
	<node id="9925326501" lat="63.1607409" lon="7.9455018" version="1" timestamp="2022-08-01T18:53:53Z" changeset="124360617" uid="3497659" user="NKA">
		<tag k="name" v="Hannasvik" />
		<tag k="place" v="farm" />
		<tag k="ssr:stedsnr" v="862314" />
	</node>
	<node id="9925326502" lat="63.1982222" lon="8.4631695" version="1" timestamp="2022-08-01T18:53:53Z" changeset="124360617" uid="3497659" user="NKA">
		<tag k="historic" v="shieling" />
		<tag k="name" v="Skausetsetra" />
		<tag k="place" v="isolated_dwelling" />
		<tag k="ssr:stedsnr" v="922122" />
	</node>
	<node id="9925326503" lat="63.2045" lon="8.4054556" version="1" timestamp="2022-08-01T18:53:53Z" changeset="124360617" uid="3497659" user="NKA">
		<tag k="name" v="Dalen" />
		<tag k="place" v="farm" />
		<tag k="ssr:stedsnr" v="922120" />
	</node>
	<node id="9925326504" lat="63.22537" lon="8.5027374" version="1" timestamp="2022-08-01T18:53:53Z" changeset="124360617" uid="3497659" user="NKA">
		<tag k="name" v="Bugøra" />
		<tag k="old_name" v="Bogøra" />
		<tag k="place" v="farm" />
		<tag k="ssr:stedsnr" v="289186" />
	</node>
	<node id="9925326505" lat="63.1924685" lon="8.5654996" version="1" timestamp="2022-08-01T18:53:53Z" changeset="124360617" uid="3497659" user="NKA">
		<tag k="name" v="Bergfall" />
		<tag k="place" v="hamlet" />
		<tag k="ssr:stedsnr" v="680117" />
	</node>
	<node id="9925326506" lat="63.1991333" lon="7.9839583" version="1" timestamp="2022-08-01T18:53:53Z" changeset="124360617" uid="3497659" user="NKA">
		<tag k="name" v="Breivika" />
		<tag k="place" v="farm" />
		<tag k="ssr:stedsnr" v="838121" />
	</node>
	<node id="9925326507" lat="63.1630139" lon="7.8936501" version="1" timestamp="2022-08-01T18:53:53Z" changeset="124360617" uid="3497659" user="NKA">
		<tag k="name" v="Slettet" />
		<tag k="place" v="farm" />
		<tag k="ssr:stedsnr" v="837177" />
	</node>
	<node id="9925326508" lat="63.1759306" lon="7.9584139" version="1" timestamp="2022-08-01T18:53:53Z" changeset="124360617" uid="3497659" user="NKA">
		<tag k="historic" v="shieling" />
		<tag k="name" v="Linvågsetra" />
		<tag k="place" v="isolated_dwelling" />
		<tag k="ssr:stedsnr" v="838842" />
	</node>
	<node id="9925326509" lat="63.3051972" lon="8.4236385" version="1" timestamp="2022-08-01T18:53:53Z" changeset="124360617" uid="3497659" user="NKA">
		<tag k="name" v="Gjerda" />
		<tag k="place" v="hamlet" />
		<tag k="ssr:stedsnr" v="740344" />
	</node>
	<node id="9925326510" lat="63.1723833" lon="7.9336833" version="1" timestamp="2022-08-01T18:53:53Z" changeset="124360617" uid="3497659" user="NKA">
		<tag k="name" v="Engvika" />
		<tag k="place" v="hamlet" />
		<tag k="ssr:stedsnr" v="558303" />
	</node>
	<node id="9925326511" lat="63.3569702" lon="8.6844772" version="1" timestamp="2022-08-01T18:53:53Z" changeset="124360617" uid="3497659" user="NKA">
		<tag k="alt_name" v="Ulfsnes" />
		<tag k="name" v="Ulvsnes" />
		<tag k="place" v="hamlet" />
		<tag k="ssr:stedsnr" v="619254" />
	</node>
	<node id="9925326512" lat="63.2257289" lon="8.5317547" version="1" timestamp="2022-08-01T18:53:53Z" changeset="124360617" uid="3497659" user="NKA">
		<tag k="name" v="Hammarvik" />
		<tag k="place" v="farm" />
		<tag k="ssr:stedsnr" v="896197" />
	</node>
	<node id="9925326513" lat="63.1747111" lon="7.916164" version="1" timestamp="2022-08-01T18:53:53Z" changeset="124360617" uid="3497659" user="NKA">
		<tag k="name" v="Strand" />
		<tag k="place" v="farm" />
		<tag k="ssr:stedsnr" v="352869" />
	</node>
	<node id="9925326514" lat="63.3774917" lon="8.5979918" version="1" timestamp="2022-08-01T18:53:53Z" changeset="124360617" uid="3497659" user="NKA">
		<tag k="name" v="Åsheim" />
		<tag k="place" v="farm" />
		<tag k="ssr:stedsnr" v="134226" />
	</node>
	<node id="9925326515" lat="63.3780861" lon="8.6046444" version="1" timestamp="2022-08-01T18:53:53Z" changeset="124360617" uid="3497659" user="NKA">
		<tag k="name" v="Haltskardet" />
		<tag k="place" v="farm" />
		<tag k="ssr:stedsnr" v="620241" />
	</node>
	<node id="9925326516" lat="63.2188431" lon="8.5851784" version="1" timestamp="2022-08-01T18:53:53Z" changeset="124360617" uid="3497659" user="NKA">
		<tag k="name" v="Haugen" />
		<tag k="place" v="hamlet" />
		<tag k="ssr:stedsnr" v="195025" />
	</node>
	<node id="9925370717" lat="63.3275252" lon="8.5814701" version="1" timestamp="2022-08-01T18:53:53Z" changeset="124360617" uid="3497659" user="NKA">
		<tag k="name" v="Haugly" />
		<tag k="place" v="farm" />
		<tag k="ssr:stedsnr" v="534446" />
	</node>
	<node id="9925370718" lat="63.2808111" lon="8.5872778" version="1" timestamp="2022-08-01T18:53:53Z" changeset="124360617" uid="3497659" user="NKA">
		<tag k="historic" v="shieling" />
		<tag k="name" v="Bergssetra" />
		<tag k="place" v="isolated_dwelling" />
		<tag k="ssr:stedsnr" v="557243" />
	</node>
	<node id="9925370719" lat="63.3832101" lon="8.5918399" version="1" timestamp="2022-08-01T18:53:53Z" changeset="124360617" uid="3497659" user="NKA">
		<tag k="name" v="Vollen" />
		<tag k="place" v="farm" />
		<tag k="ssr:stedsnr" v="896847" />
	</node>
	<node id="9925370720" lat="63.3276314" lon="8.5753684" version="1" timestamp="2022-08-01T18:53:53Z" changeset="124360617" uid="3497659" user="NKA">
		<tag k="name" v="Kalland" />
		<tag k="place" v="hamlet" />
		<tag k="ssr:stedsnr" v="922158" />
	</node>
	<node id="9925370721" lat="63.2304861" lon="8.7085305" version="1" timestamp="2022-08-01T18:53:53Z" changeset="124360617" uid="3497659" user="NKA">
		<tag k="name" v="Kvistdalssetra" />
		<tag k="place" v="isolated_dwelling" />
		<tag k="ssr:stedsnr" v="498025" />
	</node>
	<node id="9925370722" lat="63.3729528" lon="8.605264" version="1" timestamp="2022-08-01T18:53:53Z" changeset="124360617" uid="3497659" user="NKA">
		<tag k="historic" v="shieling" />
		<tag k="name" v="Gammelsetra" />
		<tag k="place" v="isolated_dwelling" />
		<tag k="ssr:stedsnr" v="353102" />
	</node>
	<node id="9925370723" lat="63.3171416" lon="8.5922583" version="1" timestamp="2022-08-01T18:53:53Z" changeset="124360617" uid="3497659" user="NKA">
		<tag k="name" v="Kallhammaren" />
		<tag k="place" v="isolated_dwelling" />
		<tag k="ssr:stedsnr" v="352549" />
	</node>
	<node id="9925370724" lat="63.1617043" lon="7.8997004" version="1" timestamp="2022-08-01T18:53:53Z" changeset="124360617" uid="3497659" user="NKA">
		<tag k="name" v="Golma" />
		<tag k="place" v="farm" />
		<tag k="ssr:stedsnr" v="133254" />
	</node>
	<node id="9925370725" lat="63.3389778" lon="8.7064527" version="1" timestamp="2022-08-01T18:53:53Z" changeset="124360617" uid="3497659" user="NKA">
		<tag k="name" v="Båtstranda" />
		<tag k="place" v="farm" />
		<tag k="ssr:stedsnr" v="315176" />
	</node>
	<node id="9925370726" lat="63.2891831" lon="8.8276631" version="1" timestamp="2022-08-01T18:53:53Z" changeset="124360617" uid="3497659" user="NKA">
		<tag k="historic" v="shieling" />
		<tag k="name" v="Vitsøsetra" />
		<tag k="place" v="isolated_dwelling" />
		<tag k="ssr:stedsnr" v="475630" />
	</node>
	<node id="9925370727" lat="63.1487233" lon="7.9869058" version="1" timestamp="2022-08-01T18:53:53Z" changeset="124360617" uid="3497659" user="NKA">
		<tag k="name" v="Jørenvåg" />
		<tag k="place" v="hamlet" />
		<tag k="ssr:stedsnr" v="376264" />
	</node>
	<node id="9925370728" lat="63.1467684" lon="7.9998086" version="1" timestamp="2022-08-01T18:53:53Z" changeset="124360617" uid="3497659" user="NKA">
		<tag k="name" v="Skaret" />
		<tag k="place" v="farm" />
		<tag k="ssr:stedsnr" v="316284" />
	</node>
	<node id="9925370729" lat="63.1480475" lon="8.0749875" version="1" timestamp="2022-08-01T18:53:53Z" changeset="124360617" uid="3497659" user="NKA">
		<tag k="name" v="Sørhalsnes" />
		<tag k="place" v="hamlet" />
		<tag k="ssr:stedsnr" v="255260" />
	</node>
	<node id="9925370730" lat="63.2484185" lon="8.1800244" version="1" timestamp="2022-08-01T18:53:53Z" changeset="124360617" uid="3497659" user="NKA">
		<tag k="name" v="Hamna" />
		<tag k="place" v="farm" />
		<tag k="ssr:stedsnr" v="801372" />
	</node>
	<node id="9925370731" lat="63.2279702" lon="8.5799611" version="1" timestamp="2022-08-01T18:53:53Z" changeset="124360617" uid="3497659" user="NKA">
		<tag k="name" v="Bjøring" />
		<tag k="place" v="farm" />
		<tag k="ssr:stedsnr" v="231754" />
	</node>
	<node id="9925370732" lat="63.1452889" lon="8.011089" version="1" timestamp="2022-08-01T18:53:53Z" changeset="124360617" uid="3497659" user="NKA">
		<tag k="name" v="Grasvika" />
		<tag k="place" v="farm" />
		<tag k="ssr:stedsnr" v="716773" />
	</node>
	<node id="9925370733" lat="63.2115833" lon="8.7126722" version="1" timestamp="2022-08-01T18:53:53Z" changeset="124360617" uid="3497659" user="NKA">
		<tag k="historic" v="shieling" />
		<tag k="name" v="Heimseterstølen" />
		<tag k="place" v="isolated_dwelling" />
		<tag k="ssr:stedsnr" v="414412" />
	</node>
	<node id="9925370734" lat="63.2332267" lon="8.2015535" version="1" timestamp="2022-08-01T18:53:53Z" changeset="124360617" uid="3497659" user="NKA">
		<tag k="name" v="Storbogen" />
		<tag k="place" v="farm" />
		<tag k="ssr:stedsnr" v="47080" />
	</node>
	<node id="9925370735" lat="63.1452338" lon="8.0845202" version="1" timestamp="2022-08-01T18:53:53Z" changeset="124360617" uid="3497659" user="NKA">
		<tag k="name" v="Ersvik" />
		<tag k="place" v="farm" />
		<tag k="ssr:stedsnr" v="837876" />
	</node>
	<node id="9925370736" lat="63.2451743" lon="8.1885213" version="1" timestamp="2022-08-01T18:53:53Z" changeset="124360617" uid="3497659" user="NKA">
		<tag k="name" v="Solskjel" />
		<tag k="place" v="farm" />
		<tag k="ssr:stedsnr" v="12365" />
	</node>
	<node id="9925370737" lat="63.1458833" lon="8.0196696" version="1" timestamp="2022-08-01T18:53:53Z" changeset="124360617" uid="3497659" user="NKA">
		<tag k="name" v="Rønningen" />
		<tag k="place" v="farm" />
		<tag k="ssr:stedsnr" v="413774" />
	</node>
	<node id="9925370738" lat="63.3760802" lon="8.6465296" version="1" timestamp="2022-08-01T18:53:53Z" changeset="124360617" uid="3497659" user="NKA">
		<tag k="name" v="Stranda" />
		<tag k="place" v="farm" />
		<tag k="ssr:stedsnr" v="900811" />
	</node>
	<node id="9925370739" lat="63.1446348" lon="7.9917564" version="1" timestamp="2022-08-01T18:53:53Z" changeset="124360617" uid="3497659" user="NKA">
		<tag k="name" v="Bjørkvang" />
		<tag k="place" v="farm" />
		<tag k="ssr:stedsnr" v="292251" />
	</node>
	<node id="9925370740" lat="63.2293235" lon="8.2298149" version="1" timestamp="2022-08-01T18:53:53Z" changeset="124360617" uid="3497659" user="NKA">
		<tag k="name" v="Aukan" />
		<tag k="natural" v="cape" />
		<tag k="ssr:stedsnr" v="740031" />
	</node>
	<node id="9925370741" lat="63.3751473" lon="8.6480445" version="1" timestamp="2022-08-01T18:53:53Z" changeset="124360617" uid="3497659" user="NKA">
		<tag k="name" v="Rognneset" />
		<tag k="place" v="farm" />
		<tag k="ssr:stedsnr" v="778833" />
	</node>
	<node id="9925370742" lat="63.3059579" lon="8.4323378" version="1" timestamp="2022-08-01T18:53:53Z" changeset="124360617" uid="3497659" user="NKA">
		<tag k="name" v="Viken" />
		<tag k="place" v="farm" />
		<tag k="ssr:stedsnr" v="777345" />
	</node>
	<node id="9925370743" lat="63.1593527" lon="8.1896583" version="1" timestamp="2022-08-01T18:53:53Z" changeset="124360617" uid="3497659" user="NKA">
		<tag k="name" v="Hals" />
		<tag k="place" v="farm" />
		<tag k="ssr:stedsnr" v="595551" />
	</node>
	<node id="9925370744" lat="63.362175" lon="8.6581001" version="1" timestamp="2022-08-01T18:53:53Z" changeset="124360617" uid="3497659" user="NKA">
		<tag k="historic" v="shieling" />
		<tag k="name" v="Rognsetra" />
		<tag k="place" v="isolated_dwelling" />
		<tag k="ssr:stedsnr" v="232118" />
	</node>
	<node id="9925370745" lat="63.3439802" lon="8.8522184" version="1" timestamp="2022-08-01T18:53:53Z" changeset="124360617" uid="3497659" user="NKA">
		<tag k="name" v="Bakken" />
		<tag k="place" v="isolated_dwelling" />
		<tag k="ssr:stedsnr" v="232835" />
	</node>
	<node id="9925370746" lat="63.1690806" lon="7.9880722" version="1" timestamp="2022-08-01T18:53:53Z" changeset="124360617" uid="3497659" user="NKA">
		<tag k="historic" v="shieling" />
		<tag k="name" v="Setra" />
		<tag k="place" v="isolated_dwelling" />
		<tag k="ssr:stedsnr" v="775126" />
	</node>
	<node id="9925370747" lat="63.2560035" lon="8.4036756" version="1" timestamp="2022-08-01T18:53:53Z" changeset="124360617" uid="3497659" user="NKA">
		<tag k="name" v="Haltbakkan" />
		<tag k="place" v="farm" />
		<tag k="ssr:stedsnr" v="923342" />
	</node>
	<node id="9925370748" lat="63.3268361" lon="8.6879437" version="1" timestamp="2022-08-01T18:53:53Z" changeset="124360617" uid="3497659" user="NKA">
		<tag k="name" v="Bunes" />
		<tag k="place" v="farm" />
		<tag k="ssr:stedsnr" v="171204" />
	</node>
	<node id="9925370749" lat="63.3242555" lon="8.5789084" version="1" timestamp="2022-08-01T18:53:53Z" changeset="124360617" uid="3497659" user="NKA">
		<tag k="name" v="Innervikbekken" />
		<tag k="place" v="farm" />
		<tag k="ssr:stedsnr" v="170470" />
	</node>
	<node id="9925370750" lat="63.1627361" lon="8.4542751" version="1" timestamp="2022-08-01T18:53:53Z" changeset="124360617" uid="3497659" user="NKA">
		<tag k="name" v="Gjerda" />
		<tag k="place" v="farm" />
		<tag k="ssr:stedsnr" v="255070" />
	</node>
	<node id="9925370751" lat="63.1608305" lon="8.499239" version="1" timestamp="2022-08-01T18:53:53Z" changeset="124360617" uid="3497659" user="NKA">
		<tag k="name" v="Rabben" />
		<tag k="place" v="isolated_dwelling" />
		<tag k="ssr:stedsnr" v="48722" />
	</node>
	<node id="9925370752" lat="63.1794223" lon="8.0340861" version="1" timestamp="2022-08-01T18:53:53Z" changeset="124360617" uid="3497659" user="NKA">
		<tag k="name" v="Soltun" />
		<tag k="place" v="farm" />
		<tag k="ssr:stedsnr" v="376472" />
	</node>
	<node id="9925370753" lat="63.3044" lon="8.3399333" version="1" timestamp="2022-08-01T18:53:53Z" changeset="124360617" uid="3497659" user="NKA">
		<tag k="name" v="Bærøya" />
		<tag k="place" v="isolated_dwelling" />
		<tag k="ssr:stedsnr" v="231973" />
	</node>
	<node id="9925370754" lat="63.2057891" lon="8.0071596" version="1" timestamp="2022-08-01T18:53:53Z" changeset="124360617" uid="3497659" user="NKA">
		<tag k="name" v="Hammarbukta" />
		<tag k="place" v="farm" />
		<tag k="ssr:stedsnr" v="376488" />
	</node>
	<node id="9925370755" lat="63.3248554" lon="8.4067474" version="1" timestamp="2022-08-01T18:53:53Z" changeset="124360617" uid="3497659" user="NKA">
		<tag k="name" v="Vollan" />
		<tag k="place" v="farm" />
		<tag k="ssr:stedsnr" v="49466" />
	</node>
	<node id="9925370756" lat="63.2079929" lon="8.1662925" version="1" timestamp="2022-08-01T18:53:53Z" changeset="124360617" uid="3497659" user="NKA">
		<tag k="name" v="Smedneset" />
		<tag k="place" v="farm" />
		<tag k="ssr:stedsnr" v="352285" />
	</node>
	<node id="9925370757" lat="63.349975" lon="8.8034972" version="1" timestamp="2022-08-01T18:53:53Z" changeset="124360617" uid="3497659" user="NKA">
		<tag k="name" v="Fjellplassen" />
		<tag k="place" v="isolated_dwelling" />
		<tag k="ssr:stedsnr" v="901828" />
	</node>
	<node id="9925370758" lat="63.2055694" lon="8.1953292" version="1" timestamp="2022-08-01T18:53:53Z" changeset="124360617" uid="3497659" user="NKA">
		<tag k="name" v="Brekkvoll" />
		<tag k="place" v="farm" />
		<tag k="ssr:stedsnr" v="291180" />
	</node>
	<node id="9925370759" lat="63.1592481" lon="8.4737323" version="1" timestamp="2022-08-01T18:53:53Z" changeset="124360617" uid="3497659" user="NKA">
		<tag k="name" v="Espenes" />
		<tag k="place" v="isolated_dwelling" />
		<tag k="ssr:stedsnr" v="109413" />
	</node>
	<node id="9925370760" lat="63.1624472" lon="8.4219807" version="1" timestamp="2022-08-01T18:53:53Z" changeset="124360617" uid="3497659" user="NKA">
		<tag k="name" v="Arasvika" />
		<tag k="place" v="farm" />
		<tag k="ssr:stedsnr" v="73107" />
	</node>
	<node id="9925370761" lat="63.1668444" lon="8.5058167" version="1" timestamp="2022-08-01T18:53:53Z" changeset="124360617" uid="3497659" user="NKA">
		<tag k="historic" v="shieling" />
		<tag k="name" v="Gjestadsetra" />
		<tag k="place" v="isolated_dwelling" />
		<tag k="ssr:stedsnr" v="48402" />
	</node>
	<node id="9925370762" lat="63.287895" lon="8.5313872" version="1" timestamp="2022-08-01T18:53:53Z" changeset="124360617" uid="3497659" user="NKA">
		<tag k="name" v="Nedre Våg" />
		<tag k="place" v="farm" />
		<tag k="ssr:stedsnr" v="960785" />
	</node>
	<node id="9925370763" lat="63.2153782" lon="8.1426992" version="1" timestamp="2022-08-01T18:53:53Z" changeset="124360617" uid="3497659" user="NKA">
		<tag k="name" v="Knarvika" />
		<tag k="place" v="hamlet" />
		<tag k="ssr:stedsnr" v="73503" />
	</node>
	<node id="9925370764" lat="63.2535805" lon="8.4250445" version="1" timestamp="2022-08-01T18:53:53Z" changeset="124360617" uid="3497659" user="NKA">
		<tag k="historic" v="shieling" />
		<tag k="name" v="Haltbakksetra" />
		<tag k="place" v="isolated_dwelling" />
		<tag k="ssr:stedsnr" v="595111" />
	</node>
	<node id="9925370765" lat="63.3305834" lon="8.5638029" version="1" timestamp="2022-08-01T18:53:53Z" changeset="124360617" uid="3497659" user="NKA">
		<tag k="name" v="Haugen" />
		<tag k="place" v="farm" />
		<tag k="ssr:stedsnr" v="931481" />
	</node>
	<node id="9925370766" lat="63.3610111" lon="8.8352027" version="1" timestamp="2022-08-01T18:53:53Z" changeset="124360617" uid="3497659" user="NKA">
		<tag k="historic" v="shieling" />
		<tag k="name" v="Fevelsetra" />
		<tag k="place" v="isolated_dwelling" />
		<tag k="ssr:stedsnr" v="680788" />
	</node>
	<node id="9925370767" lat="63.1937506" lon="8.4235348" version="1" timestamp="2022-08-01T18:53:53Z" changeset="124360617" uid="3497659" user="NKA">
		<tag k="name" v="Skauset" />
		<tag k="place" v="hamlet" />
		<tag k="ssr:stedsnr" v="558116" />
	</node>
	<node id="9925370768" lat="63.2861492" lon="8.5409578" version="1" timestamp="2022-08-01T18:53:53Z" changeset="124360617" uid="3497659" user="NKA">
		<tag k="name" v="Våg" />
		<tag k="place" v="hamlet" />
		<tag k="ssr:stedsnr" v="740356" />
	</node>
	<node id="9925370769" lat="63.2301639" lon="8.422089" version="1" timestamp="2022-08-01T18:53:53Z" changeset="124360617" uid="3497659" user="NKA">
		<tag k="historic" v="shieling" />
		<tag k="name" v="Gammelsetra" />
		<tag k="place" v="isolated_dwelling" />
		<tag k="ssr:stedsnr" v="656167" />
	</node>
	<node id="9925370770" lat="63.1992278" lon="7.9923946" version="1" timestamp="2022-08-01T18:53:53Z" changeset="124360617" uid="3497659" user="NKA">
		<tag k="name" v="Øygarden" />
		<tag k="place" v="farm" />
		<tag k="ssr:stedsnr" v="12476" />
	</node>
	<node id="9925370771" lat="63.2207009" lon="8.3841289" version="1" timestamp="2022-08-01T18:53:53Z" changeset="124360617" uid="3497659" user="NKA">
		<tag k="name" v="Bårset" />
		<tag k="place" v="farm" />
		<tag k="ssr:stedsnr" v="558014" />
	</node>
	<node id="9925370772" lat="63.2050643" lon="8.1541248" version="1" timestamp="2022-08-01T18:53:53Z" changeset="124360617" uid="3497659" user="NKA">
		<tag k="name" v="Åsheim" />
		<tag k="place" v="farm" />
		<tag k="ssr:stedsnr" v="12430" />
	</node>
	<node id="9925370773" lat="63.2631389" lon="8.4978251" version="1" timestamp="2022-08-01T18:53:53Z" changeset="124360617" uid="3497659" user="NKA">
		<tag k="name" v="Oldervika" />
		<tag k="place" v="farm" />
		<tag k="ssr:stedsnr" v="619333" />
	</node>
	<node id="9925370774" lat="63.2661556" lon="8.4980666" version="1" timestamp="2022-08-01T18:53:53Z" changeset="124360617" uid="3497659" user="NKA">
		<tag k="name" v="Skiphamna" />
		<tag k="place" v="farm" />
		<tag k="ssr:stedsnr" v="680319" />
	</node>
	<node id="9925370775" lat="63.3876611" lon="8.7512" version="1" timestamp="2022-08-01T18:53:53Z" changeset="124360617" uid="3497659" user="NKA">
		<tag k="historic" v="shieling" />
		<tag k="name" v="Nessasetra" />
		<tag k="place" v="isolated_dwelling" />
		<tag k="ssr:stedsnr" v="474264" />
	</node>
	<node id="9925370776" lat="63.1894611" lon="8.4120112" version="1" timestamp="2022-08-01T18:53:53Z" changeset="124360617" uid="3497659" user="NKA">
		<tag k="historic" v="shieling" />
		<tag k="name" v="Gammelsetra" />
		<tag k="place" v="isolated_dwelling" />
		<tag k="ssr:stedsnr" v="412592" />
	</node>
	<node id="9925370777" lat="63.2632257" lon="8.5362801" version="1" timestamp="2022-08-01T18:53:53Z" changeset="124360617" uid="3497659" user="NKA">
		<tag k="name" v="Tevika" />
		<tag k="place" v="farm" />
		<tag k="ssr:stedsnr" v="497277" />
	</node>
	<node id="9925370778" lat="63.1967333" lon="7.9986639" version="1" timestamp="2022-08-01T18:53:53Z" changeset="124360617" uid="3497659" user="NKA">
		<tag k="name" v="Myrset" />
		<tag k="place" v="farm" />
		<tag k="ssr:stedsnr" v="862472" />
	</node>
	<node id="9925370779" lat="63.2646661" lon="8.3762362" version="1" timestamp="2022-08-01T18:53:53Z" changeset="124360617" uid="3497659" user="NKA">
		<tag k="name" v="Grimsvika" />
		<tag k="place" v="farm" />
		<tag k="ssr:stedsnr" v="532067" />
	</node>
	<node id="9925370780" lat="63.2861521" lon="8.5552265" version="1" timestamp="2022-08-01T18:53:53Z" changeset="124360617" uid="3497659" user="NKA">
		<tag k="name" v="Berg" />
		<tag k="place" v="hamlet" />
		<tag k="ssr:stedsnr" v="437272" />
	</node>
	<node id="9925370781" lat="63.3412945" lon="8.8079277" version="1" timestamp="2022-08-01T18:53:53Z" changeset="124360617" uid="3497659" user="NKA">
		<tag k="name" v="Dalen" />
		<tag k="place" v="farm" />
		<tag k="ssr:stedsnr" v="133493" />
	</node>
	<node id="9925370782" lat="63.202275" lon="8.1908473" version="1" timestamp="2022-08-01T18:53:53Z" changeset="124360617" uid="3497659" user="NKA">
		<tag k="name" v="Solemshaugen" />
		<tag k="place" v="farm" />
		<tag k="ssr:stedsnr" v="862447" />
	</node>
	<node id="9925370783" lat="63.1491955" lon="8.1010294" version="1" timestamp="2022-08-01T18:53:53Z" changeset="124360617" uid="3497659" user="NKA">
		<tag k="name" v="Ertervik" />
		<tag k="place" v="isolated_dwelling" />
		<tag k="ssr:stedsnr" v="716844" />
	</node>
	<node id="9925370784" lat="63.2763833" lon="8.6020916" version="1" timestamp="2022-08-01T18:53:53Z" changeset="124360617" uid="3497659" user="NKA">
		<tag k="name" v="Midtlyng" />
		<tag k="place" v="farm" />
		<tag k="ssr:stedsnr" v="255285" />
	</node>
	<node id="9925370785" lat="63.3542361" lon="8.8616611" version="1" timestamp="2022-08-01T18:53:53Z" changeset="124360617" uid="3497659" user="NKA">
		<tag k="name" v="Mebakkan" />
		<tag k="place" v="farm" />
		<tag k="ssr:stedsnr" v="73699" />
	</node>
	<node id="9925370786" lat="63.2238916" lon="8.5182028" version="1" timestamp="2022-08-01T18:53:53Z" changeset="124360617" uid="3497659" user="NKA">
		<tag k="name" v="Kroken" />
		<tag k="place" v="farm" />
		<tag k="ssr:stedsnr" v="376025" />
	</node>
	<node id="9925370787" lat="63.1945833" lon="8.0478555" version="1" timestamp="2022-08-01T18:53:53Z" changeset="124360617" uid="3497659" user="NKA">
		<tag k="historic" v="shieling" />
		<tag k="name" v="Leirsetra" />
		<tag k="place" v="isolated_dwelling" />
		<tag k="ssr:stedsnr" v="715758" />
	</node>
	<node id="9925370788" lat="63.2447075" lon="8.50635" version="1" timestamp="2022-08-01T18:53:53Z" changeset="124360617" uid="3497659" user="NKA">
		<tag k="name" v="Rottøya" />
		<tag k="place" v="farm" />
		<tag k="ssr:stedsnr" v="255058" />
	</node>
	<node id="9925370789" lat="63.3409028" lon="8.7795444" version="1" timestamp="2022-08-01T18:53:53Z" changeset="124360617" uid="3497659" user="NKA">
		<tag k="name" v="Myrvang" />
		<tag k="place" v="farm" />
		<tag k="ssr:stedsnr" v="73559" />
	</node>
	<node id="9925370790" lat="63.3430431" lon="8.8533321" version="1" timestamp="2022-08-01T18:53:53Z" changeset="124360617" uid="3497659" user="NKA">
		<tag k="name" v="Åsgard" />
		<tag k="place" v="farm" />
		<tag k="ssr:stedsnr" v="73717" />
	</node>
	<node id="9925370791" lat="63.2535972" lon="8.54435" version="1" timestamp="2022-08-01T18:53:53Z" changeset="124360617" uid="3497659" user="NKA">
		<tag k="name" v="Kjerringneset" />
		<tag k="place" v="farm" />
		<tag k="ssr:stedsnr" v="170099" />
	</node>
	<node id="9925370792" lat="63.2140018" lon="8.0678896" version="1" timestamp="2022-08-01T18:53:53Z" changeset="124360617" uid="3497659" user="NKA">
		<tag k="name" v="Skarset" />
		<tag k="place" v="farm" />
		<tag k="ssr:stedsnr" v="593615" />
	</node>
	<node id="9925370793" lat="63.1606408" lon="8.4030767" version="1" timestamp="2022-08-01T18:53:53Z" changeset="124360617" uid="3497659" user="NKA">
		<tag k="name" v="Vika" />
		<tag k="place" v="isolated_dwelling" />
		<tag k="ssr:stedsnr" v="109797" />
	</node>
	<node id="9925370794" lat="63.1988139" lon="7.9908972" version="1" timestamp="2022-08-01T18:53:53Z" changeset="124360617" uid="3497659" user="NKA">
		<tag k="name" v="Leirøygarden" />
		<tag k="place" v="farm" />
		<tag k="ssr:stedsnr" v="838128" />
	</node>
	<node id="9925370795" lat="63.2313465" lon="8.1822217" version="1" timestamp="2022-08-01T18:53:53Z" changeset="124360617" uid="3497659" user="NKA">
		<tag k="name" v="Vassli" />
		<tag k="place" v="farm" />
		<tag k="ssr:stedsnr" v="837679" />
	</node>
	<node id="9925370796" lat="63.2024861" lon="8.0190862" version="1" timestamp="2022-08-01T18:53:53Z" changeset="124360617" uid="3497659" user="NKA">
		<tag k="name" v="Nerås" />
		<tag k="place" v="farm" />
		<tag k="ssr:stedsnr" v="837644" />
	</node>
	<node id="9925370797" lat="63.2000655" lon="8.1563132" version="1" timestamp="2022-08-01T18:53:53Z" changeset="124360617" uid="3497659" user="NKA">
		<tag k="name" v="Røsthaugen" />
		<tag k="place" v="isolated_dwelling" />
		<tag k="ssr:stedsnr" v="837268" />
	</node>
	<node id="9925370798" lat="63.211613" lon="8.1446234" version="1" timestamp="2022-08-01T18:53:53Z" changeset="124360617" uid="3497659" user="NKA">
		<tag k="name" v="Bruvika" />
		<tag k="place" v="farm" />
		<tag k="ssr:stedsnr" v="558500" />
	</node>
	<node id="9925370799" lat="63.2357435" lon="8.5734071" version="1" timestamp="2022-08-01T18:53:53Z" changeset="124360617" uid="3497659" user="NKA">
		<tag k="alt_name" v="Torset søndre" />
		<tag k="name" v="Søndre Torset" />
		<tag k="place" v="farm" />
		<tag k="ssr:stedsnr" v="111362" />
	</node>
	<node id="9925370800" lat="63.1983093" lon="8.0277843" version="1" timestamp="2022-08-01T18:53:53Z" changeset="124360617" uid="3497659" user="NKA">
		<tag k="name" v="Austmark" />
		<tag k="place" v="farm" />
		<tag k="ssr:stedsnr" v="654758" />
	</node>
	<node id="9925370801" lat="63.3155222" lon="8.8271844" version="1" timestamp="2022-08-01T18:53:53Z" changeset="124360617" uid="3497659" user="NKA">
		<tag k="historic" v="shieling" />
		<tag k="name" v="Bakksetra" />
		<tag k="place" v="hamlet" />
		<tag k="ssr:stedsnr" v="862494" />
	</node>
	<node id="9925370802" lat="63.3231491" lon="8.4708201" version="1" timestamp="2022-08-01T18:53:53Z" changeset="124360617" uid="3497659" user="NKA">
		<tag k="alt_name" v="Gjøten" />
		<tag k="name" v="Gjøta" />
		<tag k="place" v="farm" />
		<tag k="ssr:stedsnr" v="73320" />
	</node>
	<node id="9925370803" lat="63.1787296" lon="8.1713666" version="1" timestamp="2022-08-01T18:53:53Z" changeset="124360617" uid="3497659" user="NKA">
		<tag k="name" v="Djupvika" />
		<tag k="place" v="farm" />
		<tag k="ssr:stedsnr" v="413117" />
	</node>
	<node id="9925370804" lat="63.1960832" lon="7.9912005" version="1" timestamp="2022-08-01T18:53:53Z" changeset="124360617" uid="3497659" user="NKA">
		<tag k="name" v="Artvågen" />
		<tag k="place" v="farm" />
		<tag k="ssr:stedsnr" v="413004" />
	</node>
	<node id="9925370805" lat="63.1868361" lon="8.5699028" version="1" timestamp="2022-08-01T18:53:53Z" changeset="124360617" uid="3497659" user="NKA">
		<tag k="name" v="Bergfallvika" />
		<tag k="place" v="farm" />
		<tag k="ssr:stedsnr" v="922111" />
	</node>
	<node id="9925370806" lat="63.3090861" lon="8.5778227" version="1" timestamp="2022-08-01T18:53:53Z" changeset="124360617" uid="3497659" user="NKA">
		<tag k="name" v="Festbugen" />
		<tag k="place" v="hamlet" />
		<tag k="ssr:stedsnr" v="12326" />
	</node>
	<node id="9925370807" lat="63.2172601" lon="8.1400309" version="1" timestamp="2022-08-01T18:53:53Z" changeset="124360617" uid="3497659" user="NKA">
		<tag k="name" v="Skogly" />
		<tag k="place" v="farm" />
		<tag k="ssr:stedsnr" v="534684" />
	</node>
	<node id="9925370808" lat="63.1985652" lon="8.0058551" version="1" timestamp="2022-08-01T18:53:53Z" changeset="124360617" uid="3497659" user="NKA">
		<tag k="name" v="Vonheim" />
		<tag k="place" v="farm" />
		<tag k="ssr:stedsnr" v="376502" />
	</node>
	<node id="9925370809" lat="63.2881555" lon="8.6074333" version="1" timestamp="2022-08-01T18:53:53Z" changeset="124360617" uid="3497659" user="NKA">
		<tag k="historic" v="shieling" />
		<tag k="name" v="Bergssetra" />
		<tag k="place" v="isolated_dwelling" />
		<tag k="ssr:stedsnr" v="862270" />
	</node>
	<node id="9925370810" lat="63.2085861" lon="8.1762916" version="1" timestamp="2022-08-01T18:53:53Z" changeset="124360617" uid="3497659" user="NKA">
		<tag k="name" v="Løkkemyra" />
		<tag k="place" v="farm" />
		<tag k="ssr:stedsnr" v="534281" />
	</node>
	<node id="9925370811" lat="63.282848" lon="8.4418847" version="1" timestamp="2022-08-01T18:53:53Z" changeset="124360617" uid="3497659" user="NKA">
		<tag k="name" v="Husfesta" />
		<tag k="place" v="farm" />
		<tag k="ssr:stedsnr" v="740361" />
	</node>
	<node id="9925370812" lat="63.1792917" lon="8.3455473" version="1" timestamp="2022-08-01T18:53:53Z" changeset="124360617" uid="3497659" user="NKA">
		<tag k="historic" v="shieling" />
		<tag k="name" v="Fuglvågsetra" />
		<tag k="place" v="isolated_dwelling" />
		<tag k="ssr:stedsnr" v="776990" />
	</node>
	<node id="9925370813" lat="63.1896639" lon="8.3444973" version="1" timestamp="2022-08-01T18:53:53Z" changeset="124360617" uid="3497659" user="NKA">
		<tag k="historic" v="shieling" />
		<tag k="name" v="Setra" />
		<tag k="place" v="isolated_dwelling" />
		<tag k="ssr:stedsnr" v="594999" />
	</node>
	<node id="9925370814" lat="63.2090572" lon="8.1965911" version="1" timestamp="2022-08-01T18:53:53Z" changeset="124360617" uid="3497659" user="NKA">
		<tag k="name" v="Solbakken" />
		<tag k="place" v="farm" />
		<tag k="ssr:stedsnr" v="316560" />
	</node>
	<node id="9925370815" lat="63.2601416" lon="8.5020528" version="1" timestamp="2022-08-01T18:53:53Z" changeset="124360617" uid="3497659" user="NKA">
		<tag k="name" v="Nordstrand" />
		<tag k="place" v="farm" />
		<tag k="ssr:stedsnr" v="838451" />
	</node>
	<node id="9925370816" lat="63.1993666" lon="8.0131833" version="1" timestamp="2022-08-01T18:53:53Z" changeset="124360617" uid="3497659" user="NKA">
		<tag k="name" v="Åsen" />
		<tag k="place" v="farm" />
		<tag k="ssr:stedsnr" v="533665" />
	</node>
	<node id="9925370817" lat="63.1648722" lon="8.1940973" version="1" timestamp="2022-08-01T18:53:53Z" changeset="124360617" uid="3497659" user="NKA">
		<tag k="name" v="Åsnes" />
		<tag k="place" v="farm" />
		<tag k="ssr:stedsnr" v="352601" />
	</node>
	<node id="9925370818" lat="63.3297245" lon="8.8091117" version="1" timestamp="2022-08-01T18:53:53Z" changeset="124360617" uid="3497659" user="NKA">
		<tag k="historic" v="shieling" />
		<tag k="name" v="Gammelsetra" />
		<tag k="place" v="isolated_dwelling" />
		<tag k="ssr:stedsnr" v="293691" />
	</node>
	<node id="9925370819" lat="63.195825" lon="8.536675" version="1" timestamp="2022-08-01T18:53:53Z" changeset="124360617" uid="3497659" user="NKA">
		<tag k="historic" v="shieling" />
		<tag k="name" v="Lindåssetra" />
		<tag k="place" v="isolated_dwelling" />
		<tag k="ssr:stedsnr" v="680118" />
	</node>
	<node id="9925370820" lat="63.1565654" lon="8.1645967" version="1" timestamp="2022-08-01T18:53:53Z" changeset="124360617" uid="3497659" user="NKA">
		<tag k="name" v="Kjerringvika" />
		<tag k="place" v="farm" />
		<tag k="ssr:stedsnr" v="352590" />
	</node>
	<node id="9925370821" lat="63.34715" lon="8.5817529" version="1" timestamp="2022-08-01T18:53:53Z" changeset="124360617" uid="3497659" user="NKA">
		<tag k="historic" v="shieling" />
		<tag k="name" v="Kallandsetra" />
		<tag k="place" v="isolated_dwelling" />
		<tag k="ssr:stedsnr" v="558158" />
	</node>
	<node id="9925370822" lat="63.3021778" lon="8.8505194" version="1" timestamp="2022-08-01T18:53:53Z" changeset="124360617" uid="3497659" user="NKA">
		<tag k="historic" v="shieling" />
		<tag k="name" v="Sjølisætra" />
		<tag k="place" v="isolated_dwelling" />
		<tag k="ssr:stedsnr" v="195608" />
	</node>
	<node id="9925370823" lat="63.2230228" lon="8.2157673" version="1" timestamp="2022-08-01T18:53:53Z" changeset="124360617" uid="3497659" user="NKA">
		<tag k="name" v="Vassmyra" />
		<tag k="place" v="farm" />
		<tag k="ssr:stedsnr" v="291723" />
	</node>
	<node id="9925370824" lat="63.2351733" lon="8.4878887" version="1" timestamp="2022-08-01T18:53:53Z" changeset="124360617" uid="3497659" user="NKA">
		<tag k="name" v="Sundsbøen" />
		<tag k="place" v="hamlet" />
		<tag k="ssr:stedsnr" v="558065" />
	</node>
	<node id="9925370825" lat="63.2339805" lon="8.609564" version="1" timestamp="2022-08-01T18:53:53Z" changeset="124360617" uid="3497659" user="NKA">
		<tag k="name" v="Lia" />
		<tag k="place" v="farm" />
		<tag k="ssr:stedsnr" v="558041" />
	</node>
	<node id="9925370826" lat="63.3362028" lon="8.7644806" version="1" timestamp="2022-08-01T18:53:53Z" changeset="124360617" uid="3497659" user="NKA">
		<tag k="name" v="Solheim" />
		<tag k="place" v="farm" />
		<tag k="ssr:stedsnr" v="194481" />
	</node>
	<node id="9925370827" lat="63.2315882" lon="8.4990114" version="1" timestamp="2022-08-01T18:53:53Z" changeset="124360617" uid="3497659" user="NKA">
		<tag k="name" v="Sletta" />
		<tag k="place" v="farm" />
		<tag k="ssr:stedsnr" v="558044" />
	</node>
	<node id="9925370828" lat="63.3464" lon="8.7579834" version="1" timestamp="2022-08-01T18:53:53Z" changeset="124360617" uid="3497659" user="NKA">
		<tag k="name" v="Hellandet" />
		<tag k="place" v="farm" />
		<tag k="ssr:stedsnr" v="619750" />
	</node>
	<node id="9925370829" lat="63.2484846" lon="8.4001408" version="1" timestamp="2022-08-01T18:53:53Z" changeset="124360617" uid="3497659" user="NKA">
		<tag k="name" v="Stavneset" />
		<tag k="place" v="farm" />
		<tag k="ssr:stedsnr" v="133049" />
	</node>
	<node id="9925370830" lat="63.2491943" lon="8.1750953" version="1" timestamp="2022-08-01T18:53:53Z" changeset="124360617" uid="3497659" user="NKA">
		<tag k="name" v="Hamnes" />
		<tag k="place" v="farm" />
		<tag k="ssr:stedsnr" v="351485" />
	</node>
	<node id="9925370831" lat="63.3255361" lon="8.8358361" version="1" timestamp="2022-08-01T18:53:53Z" changeset="124360617" uid="3497659" user="NKA">
		<tag k="historic" v="shieling" />
		<tag k="name" v="Litlsetra" />
		<tag k="place" v="isolated_dwelling" />
		<tag k="ssr:stedsnr" v="171570" />
	</node>
	<node id="9925370832" lat="63.1604722" lon="8.181014" version="1" timestamp="2022-08-01T18:53:53Z" changeset="124360617" uid="3497659" user="NKA">
		<tag k="name" v="Stranda" />
		<tag k="place" v="farm" />
		<tag k="ssr:stedsnr" v="255306" />
	</node>
	<node id="9925370833" lat="63.243175" lon="8.3885945" version="1" timestamp="2022-08-01T18:53:53Z" changeset="124360617" uid="3497659" user="NKA">
		<tag k="name" v="Straumen" />
		<tag k="place" v="farm" />
		<tag k="ssr:stedsnr" v="194049" />
	</node>
	<node id="9925370834" lat="63.3449504" lon="8.8134278" version="1" timestamp="2022-08-01T18:53:53Z" changeset="124360617" uid="3497659" user="NKA">
		<tag k="name" v="Nerbakk" />
		<tag k="place" v="farm" />
		<tag k="ssr:stedsnr" v="12715" />
	</node>
	<node id="9925370835" lat="63.2307831" lon="8.2062384" version="1" timestamp="2022-08-01T18:53:53Z" changeset="124360617" uid="3497659" user="NKA">
		<tag k="name" v="Solstad" />
		<tag k="place" v="farm" />
		<tag k="ssr:stedsnr" v="229062" />
	</node>
	<node id="9925370836" lat="63.2082667" lon="8.0348945" version="1" timestamp="2022-08-01T18:53:53Z" changeset="124360617" uid="3497659" user="NKA">
		<tag k="name" v="Yttermolen" />
		<tag k="place" v="farm" />
		<tag k="ssr:stedsnr" v="619517" />
	</node>
	<node id="9925370837" lat="63.1970805" lon="8.0319279" version="1" timestamp="2022-08-01T18:53:53Z" changeset="124360617" uid="3497659" user="NKA">
		<tag k="name" v="Vangen" />
		<tag k="place" v="farm" />
		<tag k="ssr:stedsnr" v="194433" />
	</node>
	<node id="9925370838" lat="63.3488587" lon="8.7381395" version="1" timestamp="2022-08-01T18:53:53Z" changeset="124360617" uid="3497659" user="NKA">
		<tag k="name" v="Løvik" />
		<tag k="place" v="farm" />
		<tag k="ssr:stedsnr" v="437715" />
	</node>
	<node id="9925370839" lat="63.2010417" lon="8.0377194" version="1" timestamp="2022-08-01T18:53:53Z" changeset="124360617" uid="3497659" user="NKA">
		<tag k="name" v="Skogstad" />
		<tag k="place" v="farm" />
		<tag k="ssr:stedsnr" v="194432" />
	</node>
	<node id="9925370840" lat="63.1822555" lon="8.576214" version="1" timestamp="2022-08-01T18:53:53Z" changeset="124360617" uid="3497659" user="NKA">
		<tag k="name" v="Bergvang" />
		<tag k="place" v="farm" />
		<tag k="ssr:stedsnr" v="534596" />
	</node>
	<node id="9925370841" lat="63.4154139" lon="8.7104778" version="1" timestamp="2022-08-01T18:53:53Z" changeset="124360617" uid="3497659" user="NKA">
		<tag k="name" v="Ystvika" />
		<tag k="place" v="farm" />
		<tag k="ssr:stedsnr" v="377039" />
	</node>
	<node id="9925370842" lat="63.3299254" lon="8.716997" version="1" timestamp="2022-08-01T18:53:53Z" changeset="124360617" uid="3497659" user="NKA">
		<tag k="name" v="Klakkmyra" />
		<tag k="place" v="farm" />
		<tag k="ssr:stedsnr" v="376151" />
	</node>
	<node id="9925370843" lat="63.2664363" lon="8.4629762" version="1" timestamp="2022-08-01T18:53:53Z" changeset="124360617" uid="3497659" user="NKA">
		<tag k="name" v="Klakksvika" />
		<tag k="place" v="farm" />
		<tag k="ssr:stedsnr" v="680317" />
	</node>
	<node id="9925370844" lat="63.2502417" lon="8.5908417" version="1" timestamp="2022-08-01T18:53:53Z" changeset="124360617" uid="3497659" user="NKA">
		<tag k="historic" v="shieling" />
		<tag k="name" v="Gressetsetra" />
		<tag k="place" v="isolated_dwelling" />
		<tag k="ssr:stedsnr" v="376468" />
	</node>
	<node id="9925370845" lat="63.2882818" lon="8.5390594" version="1" timestamp="2022-08-01T18:53:53Z" changeset="124360617" uid="3497659" user="NKA">
		<tag k="name" v="Vågshaug" />
		<tag k="place" v="farm" />
		<tag k="ssr:stedsnr" v="293825" />
	</node>
	<node id="9925370846" lat="63.2906472" lon="8.5549056" version="1" timestamp="2022-08-01T18:53:53Z" changeset="124360617" uid="3497659" user="NKA">
		<tag k="historic" v="shieling" />
		<tag k="name" v="Litlsetra" />
		<tag k="place" v="isolated_dwelling" />
		<tag k="ssr:stedsnr" v="596783" />
	</node>
	<node id="9925370847" lat="63.2676546" lon="8.5939484" version="1" timestamp="2022-08-01T18:53:53Z" changeset="124360617" uid="3497659" user="NKA">
		<tag k="name" v="Ormset" />
		<tag k="place" v="hamlet" />
		<tag k="ssr:stedsnr" v="376295" />
	</node>
	<node id="9925370848" lat="63.2695199" lon="8.4603342" version="1" timestamp="2022-08-01T18:53:53Z" changeset="124360617" uid="3497659" user="NKA">
		<tag k="name" v="Ånesbug" />
		<tag k="place" v="farm" />
		<tag k="ssr:stedsnr" v="292323" />
	</node>
	<node id="9925370849" lat="63.2620554" lon="8.4868153" version="1" timestamp="2022-08-01T18:53:53Z" changeset="124360617" uid="3497659" user="NKA">
		<tag k="name" v="Ruø" />
		<tag k="place" v="farm" />
		<tag k="ssr:stedsnr" v="352384" />
	</node>
	<node id="9925370850" lat="63.323536" lon="8.4645003" version="1" timestamp="2022-08-01T18:53:53Z" changeset="124360617" uid="3497659" user="NKA">
		<tag k="name" v="Kiplesundbugen" />
		<tag k="place" v="farm" />
		<tag k="ssr:stedsnr" v="291333" />
	</node>
	<node id="9925370851" lat="63.2527417" lon="8.6680749" version="1" timestamp="2022-08-01T18:53:53Z" changeset="124360617" uid="3497659" user="NKA">
		<tag k="historic" v="shieling" />
		<tag k="name" v="Nordsetra" />
		<tag k="place" v="isolated_dwelling" />
		<tag k="ssr:stedsnr" v="195345" />
	</node>
	<node id="9925370852" lat="63.2209444" lon="8.3325751" version="1" timestamp="2022-08-01T18:53:53Z" changeset="124360617" uid="3497659" user="NKA">
		<tag k="historic" v="shieling" />
		<tag k="name" v="Bårdsetsetra" />
		<tag k="place" v="isolated_dwelling" />
		<tag k="ssr:stedsnr" v="534750" />
	</node>
	<node id="9925370853" lat="63.2598194" lon="8.4756278" version="1" timestamp="2022-08-01T18:53:53Z" changeset="124360617" uid="3497659" user="NKA">
		<tag k="name" v="Setervika" />
		<tag k="place" v="farm" />
		<tag k="ssr:stedsnr" v="376305" />
	</node>
	<node id="9925370854" lat="63.2492945" lon="8.6421278" version="1" timestamp="2022-08-01T18:53:53Z" changeset="124360617" uid="3497659" user="NKA">
		<tag k="historic" v="shieling" />
		<tag k="name" v="Dyrlisetra" />
		<tag k="place" v="isolated_dwelling" />
		<tag k="ssr:stedsnr" v="414740" />
	</node>
	<node id="9925370855" lat="63.2002297" lon="8.5637167" version="1" timestamp="2022-08-01T18:53:53Z" changeset="124360617" uid="3497659" user="NKA">
		<tag k="name" v="Lindåsen" />
		<tag k="place" v="farm" />
		<tag k="ssr:stedsnr" v="133110" />
	</node>
	<node id="9925370856" lat="63.1956056" lon="8.0341833" version="1" timestamp="2022-08-01T18:53:53Z" changeset="124360617" uid="3497659" user="NKA">
		<tag k="name" v="Fjellvang" />
		<tag k="place" v="farm" />
		<tag k="ssr:stedsnr" v="315425" />
	</node>
	<node id="9925370857" lat="63.2775417" lon="8.5763667" version="1" timestamp="2022-08-01T18:53:53Z" changeset="124360617" uid="3497659" user="NKA">
		<tag k="name" v="Kråklia" />
		<tag k="place" v="farm" />
		<tag k="ssr:stedsnr" v="315258" />
	</node>
	<node id="9925370858" lat="63.219775" lon="8.2378612" version="1" timestamp="2022-08-01T18:53:53Z" changeset="124360617" uid="3497659" user="NKA">
		<tag k="name" v="Haltvika" />
		<tag k="place" v="farm" />
		<tag k="ssr:stedsnr" v="255028" />
	</node>
	<node id="9925370859" lat="63.1765728" lon="8.5651464" version="1" timestamp="2022-08-01T18:53:53Z" changeset="124360617" uid="3497659" user="NKA">
		<tag k="name" v="Solstrand" />
		<tag k="place" v="farm" />
		<tag k="ssr:stedsnr" v="777302" />
	</node>
	<node id="9925370860" lat="63.2290833" lon="8.523214" version="1" timestamp="2022-08-01T18:53:53Z" changeset="124360617" uid="3497659" user="NKA">
		<tag k="name" v="Kalvik" />
		<tag k="place" v="farm" />
		<tag k="ssr:stedsnr" v="111681" />
	</node>
	<node id="9925370861" lat="63.1795308" lon="8.5696471" version="1" timestamp="2022-08-01T18:53:53Z" changeset="124360617" uid="3497659" user="NKA">
		<tag k="name" v="Einneset" />
		<tag k="place" v="farm" />
		<tag k="ssr:stedsnr" v="619093" />
	</node>
	<node id="9925370862" lat="63.3103889" lon="8.5889305" version="1" timestamp="2022-08-01T18:53:53Z" changeset="124360617" uid="3497659" user="NKA">
		<tag k="name" v="Vesterberg" />
		<tag k="place" v="farm" />
		<tag k="ssr:stedsnr" v="596570" />
	</node>
	<node id="9925370863" lat="63.2025806" lon="8.4166084" version="1" timestamp="2022-08-01T18:53:53Z" changeset="124360617" uid="3497659" user="NKA">
		<tag k="name" v="Haugen" />
		<tag k="place" v="farm" />
		<tag k="ssr:stedsnr" v="437138" />
	</node>
	<node id="9925370864" lat="63.2393546" lon="8.2326321" version="1" timestamp="2022-08-01T18:53:53Z" changeset="124360617" uid="3497659" user="NKA">
		<tag k="name" v="Kunna" />
		<tag k="place" v="locality" />
		<tag k="ssr:stedsnr" v="977736" />
	</node>
	<node id="9925370865" lat="63.2820956" lon="8.5504534" version="1" timestamp="2022-08-01T18:53:53Z" changeset="124360617" uid="3497659" user="NKA">
		<tag k="historic" v="shieling" />
		<tag k="name" v="Grønseter" />
		<tag k="place" v="isolated_dwelling" />
		<tag k="ssr:stedsnr" v="171814" />
	</node>
	<node id="9925370866" lat="63.1788278" lon="8.4470999" version="1" timestamp="2022-08-01T18:53:53Z" changeset="124360617" uid="3497659" user="NKA">
		<tag k="historic" v="shieling" />
		<tag k="name" v="Vågossetra" />
		<tag k="place" v="isolated_dwelling" />
		<tag k="ssr:stedsnr" v="255098" />
	</node>
	<node id="9925370867" lat="63.2014194" lon="8.0159806" version="1" timestamp="2022-08-01T18:53:53Z" changeset="124360617" uid="3497659" user="NKA">
		<tag k="name" v="Lunheim" />
		<tag k="place" v="farm" />
		<tag k="ssr:stedsnr" v="837643" />
	</node>
	<node id="9925370868" lat="63.2529882" lon="8.4918714" version="1" timestamp="2022-08-01T18:53:53Z" changeset="124360617" uid="3497659" user="NKA">
		<tag k="alt_name" v="Strand" />
		<tag k="name" v="Stranda" />
		<tag k="place" v="hamlet" />
		<tag k="ssr:stedsnr" v="73305" />
	</node>
	<node id="9925370869" lat="63.1993583" lon="8.4454805" version="1" timestamp="2022-08-01T18:53:53Z" changeset="124360617" uid="3497659" user="NKA">
		<tag k="historic" v="shieling" />
		<tag k="name" v="Sigridsetra" />
		<tag k="place" v="isolated_dwelling" />
		<tag k="ssr:stedsnr" v="716177" />
	</node>
	<node id="9925370870" lat="63.2278306" lon="8.2027084" version="1" timestamp="2022-08-01T18:53:53Z" changeset="124360617" uid="3497659" user="NKA">
		<tag k="name" v="Øygarden" />
		<tag k="place" v="farm" />
		<tag k="ssr:stedsnr" v="801385" />
	</node>
	<node id="9925370871" lat="63.253519" lon="8.3298544" version="1" timestamp="2022-08-01T18:53:53Z" changeset="124360617" uid="3497659" user="NKA">
		<tag k="name" v="Sagvågen" />
		<tag k="place" v="village" />
		<tag k="ssr:stedsnr" v="109713" />
	</node>
	<node id="9925370872" lat="63.3205008" lon="8.6108191" version="1" timestamp="2022-08-01T18:53:53Z" changeset="124360617" uid="3497659" user="NKA">
		<tag k="name" v="Torset" />
		<tag k="place" v="farm" />
		<tag k="ssr:stedsnr" v="255326" />
	</node>
	<node id="9925370873" lat="63.3274917" lon="8.5815583" version="1" timestamp="2022-08-01T18:53:53Z" changeset="124360617" uid="3497659" user="NKA">
		<tag k="name" v="Kristianvika" />
		<tag k="place" v="farm" />
		<tag k="ssr:stedsnr" v="255174" />
	</node>
	<node id="9925370874" lat="63.2175583" lon="8.4186139" version="1" timestamp="2022-08-01T18:53:53Z" changeset="124360617" uid="3497659" user="NKA">
		<tag k="name" v="Grønenga" />
		<tag k="place" v="farm" />
		<tag k="ssr:stedsnr" v="13017" />
	</node>
	<node id="9925370875" lat="63.1730028" lon="8.5291083" version="1" timestamp="2022-08-01T18:53:53Z" changeset="124360617" uid="3497659" user="NKA">
		<tag k="historic" v="shieling" />
		<tag k="name" v="Brattsetsetra" />
		<tag k="place" v="isolated_dwelling" />
		<tag k="ssr:stedsnr" v="655625" />
	</node>
	<node id="9925370876" lat="63.1965139" lon="8.6911223" version="1" timestamp="2022-08-01T18:53:53Z" changeset="124360617" uid="3497659" user="NKA">
		<tag k="name" v="Kjerra" />
		<tag k="place" v="farm" />
		<tag k="ssr:stedsnr" v="809781" />
	</node>
	<node id="9925370877" lat="63.2072407" lon="8.1907228" version="1" timestamp="2022-08-01T18:53:53Z" changeset="124360617" uid="3497659" user="NKA">
		<tag k="name" v="Solem" />
		<tag k="place" v="hamlet" />
		<tag k="ssr:stedsnr" v="906741" />
	</node>
	<node id="9925370878" lat="63.3234976" lon="8.4608755" version="1" timestamp="2022-08-01T18:53:53Z" changeset="124360617" uid="3497659" user="NKA">
		<tag k="name" v="Bugen" />
		<tag k="place" v="farm" />
		<tag k="ssr:stedsnr" v="315290" />
	</node>
	<node id="9925370879" lat="63.3188639" lon="8.5721639" version="1" timestamp="2022-08-01T18:53:53Z" changeset="124360617" uid="3497659" user="NKA">
		<tag k="name" v="Ålfarbugen" />
		<tag k="place" v="farm" />
		<tag k="ssr:stedsnr" v="437335" />
	</node>
	<node id="9925370880" lat="63.2755278" lon="8.575814" version="1" timestamp="2022-08-01T18:53:53Z" changeset="124360617" uid="3497659" user="NKA">
		<tag k="name" v="Skogly" />
		<tag k="place" v="farm" />
		<tag k="ssr:stedsnr" v="922248" />
	</node>
	<node id="9925370881" lat="63.3348083" lon="8.7627138" version="1" timestamp="2022-08-01T18:53:53Z" changeset="124360617" uid="3497659" user="NKA">
		<tag k="name" v="Åsbø" />
		<tag k="place" v="farm" />
		<tag k="ssr:stedsnr" v="437550" />
	</node>
	<node id="9925370882" lat="63.2003149" lon="8.30309" version="1" timestamp="2022-08-01T18:53:53Z" changeset="124360617" uid="3497659" user="NKA">
		<tag k="name" v="Hundhammaren" />
		<tag k="place" v="farm" />
		<tag k="ssr:stedsnr" v="255011" />
	</node>
	<node id="9925370883" lat="63.1987239" lon="8.2523378" version="1" timestamp="2022-08-01T18:53:53Z" changeset="124360617" uid="3497659" user="NKA">
		<tag k="name" v="Bjørkheim" />
		<tag k="place" v="isolated_dwelling" />
		<tag k="ssr:stedsnr" v="777162" />
	</node>
	<node id="9925370884" lat="63.2545417" lon="8.532386" version="1" timestamp="2022-08-01T18:53:53Z" changeset="124360617" uid="3497659" user="NKA">
		<tag k="name" v="Gylta" />
		<tag k="place" v="farm" />
		<tag k="ssr:stedsnr" v="437329" />
	</node>
	<node id="9925370885" lat="63.3248417" lon="8.4067834" version="1" timestamp="2022-08-01T18:53:53Z" changeset="124360617" uid="3497659" user="NKA">
		<tag k="name" v="Postvollen" />
		<tag k="place" v="farm" />
		<tag k="ssr:stedsnr" v="12188" />
	</node>
	<node id="9925370886" lat="63.1658417" lon="8.5138445" version="1" timestamp="2022-08-01T18:53:53Z" changeset="124360617" uid="3497659" user="NKA">
		<tag k="alt_name" v="Gjestad" />
		<tag k="name" v="Geistad" />
		<tag k="place" v="farm" />
		<tag k="ssr:stedsnr" v="255068" />
	</node>
	<node id="9925370887" lat="63.1647944" lon="8.4722473" version="1" timestamp="2022-08-01T18:53:53Z" changeset="124360617" uid="3497659" user="NKA">
		<tag k="historic" v="shieling" />
		<tag k="name" v="Gjerdesetra" />
		<tag k="place" v="isolated_dwelling" />
		<tag k="ssr:stedsnr" v="291458" />
	</node>
	<node id="9925370888" lat="63.2009639" lon="8.6588334" version="1" timestamp="2022-08-01T18:53:53Z" changeset="124360617" uid="3497659" user="NKA">
		<tag k="historic" v="shieling" />
		<tag k="name" v="Erviksetra" />
		<tag k="place" v="isolated_dwelling" />
		<tag k="ssr:stedsnr" v="862145" />
	</node>
	<node id="9925370889" lat="63.2078653" lon="8.4341577" version="1" timestamp="2022-08-01T18:53:53Z" changeset="124360617" uid="3497659" user="NKA">
		<tag k="historic" v="shieling" />
		<tag k="name" v="Ålmosetra" />
		<tag k="place" v="isolated_dwelling" />
		<tag k="ssr:stedsnr" v="255002" />
	</node>
	<node id="9925370890" lat="63.2499835" lon="8.3844237" version="1" timestamp="2022-08-01T18:53:53Z" changeset="124360617" uid="3497659" user="NKA">
		<tag k="name" v="Husby" />
		<tag k="place" v="farm" />
		<tag k="ssr:stedsnr" v="558058" />
	</node>
	<node id="9925370891" lat="63.3731694" lon="8.695025" version="1" timestamp="2022-08-01T18:53:53Z" changeset="124360617" uid="3497659" user="NKA">
		<tag k="name" v="Dalen" />
		<tag k="place" v="farm" />
		<tag k="ssr:stedsnr" v="474833" />
	</node>
	<node id="9925370892" lat="63.2656306" lon="8.3686306" version="1" timestamp="2022-08-01T18:53:53Z" changeset="124360617" uid="3497659" user="NKA">
		<tag k="name" v="Slyngsteinbugen" />
		<tag k="place" v="farm" />
		<tag k="ssr:stedsnr" v="497269" />
	</node>
	<node id="9925370893" lat="63.2074698" lon="8.5484328" version="1" timestamp="2022-08-01T18:53:53Z" changeset="124360617" uid="3497659" user="NKA">
		<tag k="name" v="Storvika" />
		<tag k="place" v="farm" />
		<tag k="ssr:stedsnr" v="133010" />
	</node>
	<node id="9925370894" lat="63.2000694" lon="8.4342167" version="1" timestamp="2022-08-01T18:53:53Z" changeset="124360617" uid="3497659" user="NKA">
		<tag k="historic" v="shieling" />
		<tag k="name" v="Stølen" />
		<tag k="place" v="isolated_dwelling" />
		<tag k="ssr:stedsnr" v="230162" />
	</node>
	<node id="9925370895" lat="63.2160639" lon="8.1395001" version="1" timestamp="2022-08-01T18:53:53Z" changeset="124360617" uid="3497659" user="NKA">
		<tag k="name" v="Åsland" />
		<tag k="place" v="farm" />
		<tag k="ssr:stedsnr" v="376496" />
	</node>
	<node id="9925370896" lat="63.2298051" lon="8.569637" version="1" timestamp="2022-08-01T18:53:53Z" changeset="124360617" uid="3497659" user="NKA">
		<tag k="name" v="Øygarden" />
		<tag k="place" v="farm" />
		<tag k="ssr:stedsnr" v="437060" />
	</node>
	<node id="9925370897" lat="63.2549862" lon="8.3393454" version="1" timestamp="2022-08-01T18:53:53Z" changeset="124360617" uid="3497659" user="NKA">
		<tag k="name" v="Moen" />
		<tag k="place" v="isolated_dwelling" />
		<tag k="ssr:stedsnr" v="230725" />
	</node>
	<node id="9925370898" lat="63.2023218" lon="8.1905558" version="1" timestamp="2022-08-01T18:53:53Z" changeset="124360617" uid="3497659" user="NKA">
		<tag k="name" v="Haugen" />
		<tag k="place" v="farm" />
		<tag k="ssr:stedsnr" v="376461" />
	</node>
	<node id="9925370899" lat="63.2236378" lon="8.1332884" version="1" timestamp="2022-08-01T18:53:53Z" changeset="124360617" uid="3497659" user="NKA">
		<tag k="name" v="Hylla" />
		<tag k="place" v="isolated_dwelling" />
		<tag k="ssr:stedsnr" v="230640" />
	</node>
	<node id="9925370900" lat="63.2390573" lon="8.3998486" version="1" timestamp="2022-08-01T18:53:53Z" changeset="124360617" uid="3497659" user="NKA">
		<tag k="name" v="Foldan" />
		<tag k="place" v="farm" />
		<tag k="ssr:stedsnr" v="437076" />
	</node>
	<node id="9925370901" lat="63.1913794" lon="8.6238629" version="1" timestamp="2022-08-01T18:53:53Z" changeset="124360617" uid="3497659" user="NKA">
		<tag k="name" v="Ervika" />
		<tag k="place" v="hamlet" />
		<tag k="ssr:stedsnr" v="558117" />
	</node>
	<node id="9925370902" lat="63.2009665" lon="8.6876509" version="1" timestamp="2022-08-01T18:53:53Z" changeset="124360617" uid="3497659" user="NKA">
		<tag k="name" v="Todalen" />
		<tag k="place" v="hamlet" />
		<tag k="ssr:stedsnr" v="336945" />
	</node>
	<node id="9925370903" lat="63.1464603" lon="8.0033506" version="1" timestamp="2022-08-01T18:53:53Z" changeset="124360617" uid="3497659" user="NKA">
		<tag k="name" v="Myrdal" />
		<tag k="place" v="farm" />
		<tag k="ssr:stedsnr" v="959249" />
	</node>
	<node id="9925370904" lat="63.3283111" lon="8.4574528" version="1" timestamp="2022-08-01T18:53:53Z" changeset="124360617" uid="3497659" user="NKA">
		<tag k="name" v="Haugen" />
		<tag k="place" v="farm" />
		<tag k="ssr:stedsnr" v="534303" />
	</node>
	<node id="9925370905" lat="63.2095944" lon="8.6245195" version="1" timestamp="2022-08-01T18:53:53Z" changeset="124360617" uid="3497659" user="NKA">
		<tag k="historic" v="shieling" />
		<tag k="name" v="Vikasetra" />
		<tag k="place" v="isolated_dwelling" />
		<tag k="ssr:stedsnr" v="414206" />
	</node>
	<node id="9925370906" lat="63.4107027" lon="8.7649527" version="1" timestamp="2022-08-01T18:53:53Z" changeset="124360617" uid="3497659" user="NKA">
		<tag k="name" v="Nordgard" />
		<tag k="place" v="farm" />
		<tag k="ssr:stedsnr" v="679642" />
	</node>
	<node id="9925370907" lat="63.410025" lon="8.7401501" version="1" timestamp="2022-08-01T18:53:53Z" changeset="124360617" uid="3497659" user="NKA">
		<tag k="alt_name" v="Tømmerdal" />
		<tag k="name" v="Tømmervik" />
		<tag k="place" v="farm" />
		<tag k="ssr:stedsnr" v="255682" />
	</node>
	<node id="9925370908" lat="63.321575" lon="8.5650167" version="1" timestamp="2022-08-01T18:53:53Z" changeset="124360617" uid="3497659" user="NKA">
		<tag k="name" v="Rotnesset" />
		<tag k="place" v="farm" />
		<tag k="ssr:stedsnr" v="292009" />
	</node>
	<node id="9925370909" lat="63.1440111" lon="8.0378251" version="1" timestamp="2022-08-01T18:53:53Z" changeset="124360617" uid="3497659" user="NKA">
		<tag k="name" v="Hagan" />
		<tag k="place" v="farm" />
		<tag k="ssr:stedsnr" v="740247" />
	</node>
	<node id="9925370910" lat="63.404833" lon="8.7262925" version="1" timestamp="2022-08-01T18:53:53Z" changeset="124360617" uid="3497659" user="NKA">
		<tag k="name" v="Ledal" />
		<tag k="place" v="farm" />
		<tag k="ssr:stedsnr" v="316727" />
	</node>
	<node id="9925370911" lat="63.1668916" lon="7.9351361" version="1" timestamp="2022-08-01T18:53:53Z" changeset="124360617" uid="3497659" user="NKA">
		<tag k="alt_name" v="Kipervika" />
		<tag k="name" v="Kippervika" />
		<tag k="place" v="farm" />
		<tag k="ssr:stedsnr" v="801279" />
	</node>
	<node id="9925370912" lat="63.3874992" lon="8.6783819" version="1" timestamp="2022-08-01T18:53:53Z" changeset="124360617" uid="3497659" user="NKA">
		<tag k="name" v="Vesterheim" />
		<tag k="place" v="farm" />
		<tag k="ssr:stedsnr" v="248746" />
	</node>
	<node id="9925370913" lat="63.1532445" lon="7.9413361" version="1" timestamp="2022-08-01T18:53:53Z" changeset="124360617" uid="3497659" user="NKA">
		<tag k="alt_name" v="Fætten industriområde" />
		<tag k="name" v="Fætta industriområde" />
		<tag k="place" v="neighbourhood" />
		<tag k="ssr:stedsnr" v="661873" />
	</node>
	<node id="9925370914" lat="63.410896" lon="8.7244781" version="1" timestamp="2022-08-01T18:53:53Z" changeset="124360617" uid="3497659" user="NKA">
		<tag k="name" v="Vollen" />
		<tag k="place" v="farm" />
		<tag k="ssr:stedsnr" v="12669" />
	</node>
	<node id="9925370915" lat="63.1589739" lon="8.1680064" version="1" timestamp="2022-08-01T18:53:53Z" changeset="124360617" uid="3497659" user="NKA">
		<tag k="name" v="Hals" />
		<tag k="place" v="hamlet" />
		<tag k="ssr:stedsnr" v="498376" />
	</node>
	<node id="9925370916" lat="63.2037389" lon="8.6276778" version="1" timestamp="2022-08-01T18:53:53Z" changeset="124360617" uid="3497659" user="NKA">
		<tag k="historic" v="shieling" />
		<tag k="name" v="Inner Vikasetra" />
		<tag k="place" v="isolated_dwelling" />
		<tag k="ssr:stedsnr" v="535189" />
	</node>
	<node id="9925370917" lat="63.4116818" lon="8.7171104" version="1" timestamp="2022-08-01T18:53:53Z" changeset="124360617" uid="3497659" user="NKA">
		<tag k="name" v="Hamnvik" />
		<tag k="place" v="farm" />
		<tag k="ssr:stedsnr" v="837819" />
	</node>
	<node id="9925370918" lat="63.1626845" lon="7.9432528" version="1" timestamp="2022-08-01T18:53:53Z" changeset="124360617" uid="3497659" user="NKA">
		<tag k="name" v="Svensvika" />
		<tag k="place" v="farm" />
		<tag k="ssr:stedsnr" v="558308" />
	</node>
	<node id="9925370919" lat="63.323425" lon="8.5771166" version="1" timestamp="2022-08-01T18:53:53Z" changeset="124360617" uid="3497659" user="NKA">
		<tag k="alt_name" v="Indreviken" />
		<tag k="name" v="Innervika" />
		<tag k="place" v="farm" />
		<tag k="ssr:stedsnr" v="110476" />
	</node>
	<node id="9925370920" lat="63.15085" lon="8.0839001" version="1" timestamp="2022-08-01T18:53:53Z" changeset="124360617" uid="3497659" user="NKA">
		<tag k="name" v="Austmarka" />
		<tag k="place" v="farm" />
		<tag k="ssr:stedsnr" v="376254" />
	</node>
	<node id="9925370921" lat="63.1616121" lon="7.9010987" version="1" timestamp="2022-08-01T18:53:53Z" changeset="124360617" uid="3497659" user="NKA">
		<tag k="name" v="Nytun" />
		<tag k="place" v="farm" />
		<tag k="ssr:stedsnr" v="740289" />
	</node>
	<node id="9925370922" lat="63.2031792" lon="8.6120048" version="1" timestamp="2022-08-01T18:53:53Z" changeset="124360617" uid="3497659" user="NKA">
		<tag k="name" v="Storgarden" />
		<tag k="place" v="farm" />
		<tag k="ssr:stedsnr" v="231756" />
	</node>
	<node id="9925370923" lat="63.1610806" lon="8.4990333" version="1" timestamp="2022-08-01T18:53:53Z" changeset="124360617" uid="3497659" user="NKA">
		<tag k="name" v="Olderskog" />
		<tag k="place" v="farm" />
		<tag k="ssr:stedsnr" v="923085" />
	</node>
	<node id="9925370924" lat="63.2133056" lon="8.3100473" version="1" timestamp="2022-08-01T18:53:53Z" changeset="124360617" uid="3497659" user="NKA">
		<tag k="name" v="Lia" />
		<tag k="place" v="farm" />
		<tag k="ssr:stedsnr" v="922008" />
	</node>
	<node id="9925370925" lat="63.1714417" lon="7.9205445" version="1" timestamp="2022-08-01T18:53:53Z" changeset="124360617" uid="3497659" user="NKA">
		<tag k="name" v="Bekken" />
		<tag k="place" v="farm" />
		<tag k="ssr:stedsnr" v="716872" />
	</node>
	<node id="9925370926" lat="63.2516944" lon="8.2731639" version="1" timestamp="2022-08-01T18:53:53Z" changeset="124360617" uid="3497659" user="NKA">
		<tag k="name" v="Holmvika" />
		<tag k="place" v="farm" />
		<tag k="ssr:stedsnr" v="801282" />
	</node>
	<node id="9925370927" lat="63.2108917" lon="8.1379695" version="1" timestamp="2022-08-01T18:53:53Z" changeset="124360617" uid="3497659" user="NKA">
		<tag k="name" v="Gammeltrøa" />
		<tag k="place" v="locality" />
		<tag k="ssr:stedsnr" v="958294" />
	</node>
	<node id="9925370928" lat="63.1738472" lon="7.9361917" version="1" timestamp="2022-08-01T18:53:53Z" changeset="124360617" uid="3497659" user="NKA">
		<tag k="name" v="Botnen" />
		<tag k="place" v="farm" />
		<tag k="ssr:stedsnr" v="922262" />
	</node>
	<node id="9925370929" lat="63.1939008" lon="7.9934997" version="1" timestamp="2022-08-01T18:53:53Z" changeset="124360617" uid="3497659" user="NKA">
		<tag k="name" v="Haugatun" />
		<tag k="place" v="farm" />
		<tag k="ssr:stedsnr" v="898012" />
	</node>
	<node id="9925370930" lat="63.2255639" lon="8.1193057" version="1" timestamp="2022-08-01T18:53:53Z" changeset="124360617" uid="3497659" user="NKA">
		<tag k="name" v="Høgdatun" />
		<tag k="place" v="farm" />
		<tag k="ssr:stedsnr" v="898683" />
	</node>
	<node id="9925370931" lat="63.2396764" lon="8.2022465" version="1" timestamp="2022-08-01T18:53:53Z" changeset="124360617" uid="3497659" user="NKA">
		<tag k="name" v="Vallund" />
		<tag k="place" v="farm" />
		<tag k="ssr:stedsnr" v="898572" />
	</node>
	<node id="9925370932" lat="63.2237861" lon="8.1298194" version="1" timestamp="2022-08-01T18:53:53Z" changeset="124360617" uid="3497659" user="NKA">
		<tag k="name" v="Myra" />
		<tag k="place" v="farm" />
		<tag k="ssr:stedsnr" v="680524" />
	</node>
	<node id="9925370933" lat="63.2058937" lon="8.1968084" version="1" timestamp="2022-08-01T18:53:53Z" changeset="124360617" uid="3497659" user="NKA">
		<tag k="name" v="Brekkvollen" />
		<tag k="place" v="farm" />
		<tag k="ssr:stedsnr" v="801432" />
	</node>
	<node id="9925370934" lat="63.1768303" lon="7.9440448" version="1" timestamp="2022-08-01T18:53:53Z" changeset="124360617" uid="3497659" user="NKA">
		<tag k="name" v="Skoglund" />
		<tag k="place" v="farm" />
		<tag k="ssr:stedsnr" v="594798" />
	</node>
	<node id="9925370935" lat="63.1975334" lon="7.9975028" version="1" timestamp="2022-08-01T18:53:53Z" changeset="124360617" uid="3497659" user="NKA">
		<tag k="name" v="Myra" />
		<tag k="place" v="farm" />
		<tag k="ssr:stedsnr" v="680548" />
	</node>
	<node id="9925370936" lat="63.1900556" lon="8.5395667" version="1" timestamp="2022-08-01T18:53:53Z" changeset="124360617" uid="3497659" user="NKA">
		<tag k="historic" v="shieling" />
		<tag k="name" v="Bronsetra" />
		<tag k="place" v="isolated_dwelling" />
		<tag k="ssr:stedsnr" v="292630" />
	</node>
	<node id="9925370937" lat="63.2212083" lon="8.1412777" version="1" timestamp="2022-08-01T18:53:53Z" changeset="124360617" uid="3497659" user="NKA">
		<tag k="name" v="Ytre Knarvika" />
		<tag k="place" v="farm" />
		<tag k="ssr:stedsnr" v="498527" />
	</node>
	<node id="9925370938" lat="63.1982793" lon="8.2613816" version="1" timestamp="2022-08-01T18:53:53Z" changeset="124360617" uid="3497659" user="NKA">
		<tag k="name" v="Ørbogen" />
		<tag k="place" v="hamlet" />
		<tag k="ssr:stedsnr" v="376020" />
	</node>
	<node id="9925370939" lat="63.2064573" lon="8.2482354" version="1" timestamp="2022-08-01T18:53:53Z" changeset="124360617" uid="3497659" user="NKA">
		<tag k="name" v="Sagbukt" />
		<tag k="place" v="farm" />
		<tag k="ssr:stedsnr" v="352159" />
	</node>
	<node id="9925370940" lat="63.2360528" lon="8.2645639" version="1" timestamp="2022-08-01T18:53:53Z" changeset="124360617" uid="3497659" user="NKA">
		<tag k="name" v="Storvika" />
		<tag k="place" v="farm" />
		<tag k="ssr:stedsnr" v="255057" />
	</node>
	<node id="9925370941" lat="63.2168778" lon="8.079464" version="1" timestamp="2022-08-01T18:53:53Z" changeset="124360617" uid="3497659" user="NKA">
		<tag k="name" v="Veiset" />
		<tag k="place" v="farm" />
		<tag k="ssr:stedsnr" v="472646" />
	</node>
	<node id="9925370942" lat="63.1549996" lon="7.9751568" version="1" timestamp="2022-08-01T18:53:53Z" changeset="124360617" uid="3497659" user="NKA">
		<tag k="name" v="Tømmervika" />
		<tag k="place" v="farm" />
		<tag k="ssr:stedsnr" v="316356" />
	</node>
	<node id="9925370943" lat="63.1472743" lon="8.0942794" version="1" timestamp="2022-08-01T18:53:53Z" changeset="124360617" uid="3497659" user="NKA">
		<tag k="name" v="Myrholt" />
		<tag k="place" v="farm" />
		<tag k="ssr:stedsnr" v="437271" />
	</node>
	<node id="9925370944" lat="63.2236722" lon="8.1073917" version="1" timestamp="2022-08-01T18:53:53Z" changeset="124360617" uid="3497659" user="NKA">
		<tag k="name" v="Haugmo" />
		<tag k="place" v="farm" />
		<tag k="ssr:stedsnr" v="291678" />
	</node>
	<node id="9925370945" lat="63.218775" lon="8.1337501" version="1" timestamp="2022-08-01T18:53:53Z" changeset="124360617" uid="3497659" user="NKA">
		<tag k="name" v="Skaret" />
		<tag k="place" v="farm" />
		<tag k="ssr:stedsnr" v="316538" />
	</node>
	<node id="9925370946" lat="63.2259541" lon="8.250504" version="1" timestamp="2022-08-01T18:53:53Z" changeset="124360617" uid="3497659" user="NKA">
		<tag k="name" v="Jørnøya" />
		<tag k="place" v="farm" />
		<tag k="ssr:stedsnr" v="170736" />
	</node>
	<node id="9925370947" lat="63.1544691" lon="7.9423831" version="1" timestamp="2022-08-01T18:53:53Z" changeset="124360617" uid="3497659" user="NKA">
		<tag k="name" v="Fætta" />
		<tag k="place" v="farm" />
		<tag k="ssr:stedsnr" v="255301" />
	</node>
	<node id="9925370948" lat="63.2011611" lon="8.6935361" version="1" timestamp="2022-08-01T18:53:53Z" changeset="124360617" uid="3497659" user="NKA">
		<tag k="name" v="Leitet" />
		<tag k="place" v="farm" />
		<tag k="ssr:stedsnr" v="809782" />
	</node>
	<node id="9925370949" lat="63.2328996" lon="8.1023785" version="1" timestamp="2022-08-01T18:53:53Z" changeset="124360617" uid="3497659" user="NKA">
		<tag k="name" v="Hyttneset" />
		<tag k="place" v="hamlet" />
		<tag k="ssr:stedsnr" v="207823" />
	</node>
	<node id="9925370950" lat="63.2205195" lon="8.7766082" version="1" timestamp="2022-08-01T18:53:53Z" changeset="124360617" uid="3497659" user="NKA">
		<tag k="name" v="Storsetra" />
		<tag k="place" v="isolated_dwelling" />
		<tag k="ssr:stedsnr" v="596619" />
	</node>
	<node id="9925370951" lat="63.2003917" lon="8.0349694" version="1" timestamp="2022-08-01T18:53:53Z" changeset="124360617" uid="3497659" user="NKA">
		<tag k="name" v="Lyngmo" />
		<tag k="place" v="farm" />
		<tag k="ssr:stedsnr" v="169746" />
	</node>
	<node id="9925370952" lat="63.2059028" lon="8.0437055" version="1" timestamp="2022-08-01T18:53:53Z" changeset="124360617" uid="3497659" user="NKA">
		<tag k="name" v="Furuly" />
		<tag k="place" v="farm" />
		<tag k="ssr:stedsnr" v="169740" />
	</node>
	<node id="9925370953" lat="63.2051071" lon="8.0365973" version="1" timestamp="2022-08-01T18:53:53Z" changeset="124360617" uid="3497659" user="NKA">
		<tag k="name" v="Øvregård" />
		<tag k="place" v="farm" />
		<tag k="ssr:stedsnr" v="169733" />
	</node>
	<node id="9925370954" lat="63.2085778" lon="8.1290444" version="1" timestamp="2022-08-01T18:53:53Z" changeset="124360617" uid="3497659" user="NKA">
		<tag k="name" v="Resset" />
		<tag k="place" v="isolated_dwelling" />
		<tag k="ssr:stedsnr" v="169627" />
	</node>
	<node id="9925370955" lat="63.1507695" lon="8.1065472" version="1" timestamp="2022-08-01T18:53:53Z" changeset="124360617" uid="3497659" user="NKA">
		<tag k="name" v="Myrvang" />
		<tag k="place" v="farm" />
		<tag k="ssr:stedsnr" v="133231" />
	</node>
	<node id="9925370956" lat="63.2223833" lon="8.4419528" version="1" timestamp="2022-08-01T18:53:53Z" changeset="124360617" uid="3497659" user="NKA">
		<tag k="name" v="Øversetra" />
		<tag k="place" v="isolated_dwelling" />
		<tag k="ssr:stedsnr" v="741026" />
	</node>
	<node id="9925370957" lat="63.2449472" lon="8.2907362" version="1" timestamp="2022-08-01T18:53:53Z" changeset="124360617" uid="3497659" user="NKA">
		<tag k="name" v="Vågahaugen" />
		<tag k="place" v="farm" />
		<tag k="ssr:stedsnr" v="12196" />
	</node>
	<node id="9925370958" lat="63.2565568" lon="8.3403631" version="1" timestamp="2022-08-01T18:53:53Z" changeset="124360617" uid="3497659" user="NKA">
		<tag k="name" v="Maridalen" />
		<tag k="place" v="hamlet" />
		<tag k="ssr:stedsnr" v="680330" />
	</node>
	<node id="9925370959" lat="63.2573473" lon="8.3170612" version="1" timestamp="2022-08-01T18:53:53Z" changeset="124360617" uid="3497659" user="NKA">
		<tag k="alt_name" v="Vågen, nordre" />
		<tag k="name" v="Nordre Vågen" />
		<tag k="place" v="farm" />
		<tag k="ssr:stedsnr" v="619344" />
	</node>
	<node id="9925370960" lat="63.2295278" lon="8.7160333" version="1" timestamp="2022-08-01T18:53:53Z" changeset="124360617" uid="3497659" user="NKA">
		<tag k="historic" v="shieling" />
		<tag k="name" v="Råsetra" />
		<tag k="place" v="isolated_dwelling" />
		<tag k="ssr:stedsnr" v="50545" />
	</node>
	<node id="9925370961" lat="63.1761604" lon="7.9216152" version="1" timestamp="2022-08-01T18:53:53Z" changeset="124360617" uid="3497659" user="NKA">
		<tag k="name" v="Fitjan" />
		<tag k="old_name" v="Fikkan" />
		<tag k="place" v="farm" />
		<tag k="ssr:stedsnr" v="73285" />
	</node>
	<node id="9925370962" lat="63.2162278" lon="8.0454694" version="1" timestamp="2022-08-01T18:53:53Z" changeset="124360617" uid="3497659" user="NKA">
		<tag k="name" v="Sørvika" />
		<tag k="place" v="farm" />
		<tag k="ssr:stedsnr" v="73500" />
	</node>
	<node id="9925370963" lat="63.2545328" lon="8.6744461" version="1" timestamp="2022-08-01T18:53:53Z" changeset="124360617" uid="3497659" user="NKA">
		<tag k="name" v="Hulderheimen" />
		<tag k="place" v="isolated_dwelling" />
		<tag k="ssr:stedsnr" v="839739" />
	</node>
	<node id="9925370964" lat="63.2306611" lon="8.135014" version="1" timestamp="2022-08-01T18:53:53Z" changeset="124360617" uid="3497659" user="NKA">
		<tag k="name" v="Utheim" />
		<tag k="place" v="farm" />
		<tag k="ssr:stedsnr" v="958691" />
	</node>
	<node id="9925370965" lat="63.2178282" lon="8.1396857" version="1" timestamp="2022-08-01T18:53:53Z" changeset="124360617" uid="3497659" user="NKA">
		<tag k="name" v="Solstein" />
		<tag k="place" v="farm" />
		<tag k="ssr:stedsnr" v="958689" />
	</node>
	<node id="9925370966" lat="63.1613278" lon="8.4049083" version="1" timestamp="2022-08-01T18:53:53Z" changeset="124360617" uid="3497659" user="NKA">
		<tag k="name" v="Sørheim" />
		<tag k="place" v="farm" />
		<tag k="ssr:stedsnr" v="862078" />
	</node>
	<node id="9925370967" lat="63.2500611" lon="8.6430361" version="1" timestamp="2022-08-01T18:53:53Z" changeset="124360617" uid="3497659" user="NKA">
		<tag k="historic" v="shieling" />
		<tag k="name" v="Dyrlia" />
		<tag k="place" v="isolated_dwelling" />
		<tag k="ssr:stedsnr" v="498502" />
	</node>
	<node id="9925370968" lat="63.1479361" lon="8.0916639" version="1" timestamp="2022-08-01T18:53:53Z" changeset="124360617" uid="3497659" user="NKA">
		<tag k="name" v="Sjøholt" />
		<tag k="place" v="farm" />
		<tag k="ssr:stedsnr" v="47856" />
	</node>
	<node id="9925370969" lat="63.2351444" lon="8.4700084" version="1" timestamp="2022-08-01T18:53:53Z" changeset="124360617" uid="3497659" user="NKA">
		<tag k="name" v="Sundsbøsetra" />
		<tag k="place" v="isolated_dwelling" />
		<tag k="ssr:stedsnr" v="498074" />
	</node>
	<node id="9925370970" lat="63.2450556" lon="8.3898889" version="1" timestamp="2022-08-01T18:53:53Z" changeset="124360617" uid="3497659" user="NKA">
		<tag k="name" v="Lauvset" />
		<tag k="place" v="farm" />
		<tag k="ssr:stedsnr" v="194055" />
	</node>
	<node id="9925370971" lat="63.2565967" lon="8.381792" version="1" timestamp="2022-08-01T18:53:53Z" changeset="124360617" uid="3497659" user="NKA">
		<tag k="name" v="Vika" />
		<tag k="place" v="farm" />
		<tag k="ssr:stedsnr" v="497290" />
	</node>
	<node id="9925370972" lat="63.2131816" lon="8.1374005" version="1" timestamp="2022-08-01T18:53:53Z" changeset="124360617" uid="3497659" user="NKA">
		<tag k="name" v="Ressheim" />
		<tag k="old_name" v="ROSSHEIM" />
		<tag k="place" v="farm" />
		<tag k="ssr:stedsnr" v="1076914" />
	</node>
	<node id="9925370973" lat="63.2449498" lon="8.3895366" version="1" timestamp="2022-08-01T18:53:53Z" changeset="124360617" uid="3497659" user="NKA">
		<tag k="name" v="Bokta" />
		<tag k="place" v="farm" />
		<tag k="ssr:stedsnr" v="474135" />
	</node>
	<node id="9925370974" lat="63.2579353" lon="8.271002" version="1" timestamp="2022-08-01T18:53:53Z" changeset="124360617" uid="3497659" user="NKA">
		<tag k="name" v="Høvika" />
		<tag k="place" v="hamlet" />
		<tag k="ssr:stedsnr" v="862318" />
	</node>
	<node id="9925370975" lat="63.2035713" lon="8.0393901" version="1" timestamp="2022-08-01T18:53:53Z" changeset="124360617" uid="3497659" user="NKA">
		<tag k="name" v="Rønningen" />
		<tag k="place" v="farm" />
		<tag k="ssr:stedsnr" v="195522" />
	</node>
	<node id="9925370976" lat="63.2265416" lon="8.134075" version="1" timestamp="2022-08-01T18:53:53Z" changeset="124360617" uid="3497659" user="NKA">
		<tag k="name" v="Elva" />
		<tag k="place" v="farm" />
		<tag k="ssr:stedsnr" v="194355" />
	</node>
	<node id="9925370977" lat="63.2105389" lon="8.7176278" version="1" timestamp="2022-08-01T18:53:53Z" changeset="124360617" uid="3497659" user="NKA">
		<tag k="historic" v="shieling" />
		<tag k="name" v="Heimsetra" />
		<tag k="place" v="isolated_dwelling" />
		<tag k="ssr:stedsnr" v="111394" />
	</node>
	<node id="9925370978" lat="63.2674034" lon="8.3715128" version="1" timestamp="2022-08-01T18:53:53Z" changeset="124360617" uid="3497659" user="NKA">
		<tag k="name" v="Sandeidet" />
		<tag k="place" v="farm" />
		<tag k="ssr:stedsnr" v="655994" />
	</node>
	<node id="9925370979" lat="63.3185142" lon="8.4761403" version="1" timestamp="2022-08-01T18:53:53Z" changeset="124360617" uid="3497659" user="NKA">
		<tag k="name" v="Svinvika" />
		<tag k="place" v="hamlet" />
		<tag k="ssr:stedsnr" v="376316" />
	</node>
	<node id="9925370980" lat="63.2402048" lon="8.3895051" version="1" timestamp="2022-08-01T18:53:53Z" changeset="124360617" uid="3497659" user="NKA">
		<tag k="name" v="Vikan" />
		<tag k="place" v="farm" />
		<tag k="ssr:stedsnr" v="717132" />
	</node>
	<node id="9925370981" lat="63.1981917" lon="8.0343362" version="1" timestamp="2022-08-01T18:53:53Z" changeset="124360617" uid="3497659" user="NKA">
		<tag k="name" v="Myrstad" />
		<tag k="place" v="farm" />
		<tag k="ssr:stedsnr" v="862475" />
	</node>
	<node id="9925370982" lat="63.2299667" lon="8.1350472" version="1" timestamp="2022-08-01T18:53:53Z" changeset="124360617" uid="3497659" user="NKA">
		<tag k="name" v="Solhaug" />
		<tag k="place" v="farm" />
		<tag k="ssr:stedsnr" v="862401" />
	</node>
	<node id="9925370983" lat="63.1462649" lon="8.0271189" version="1" timestamp="2022-08-01T18:53:53Z" changeset="124360617" uid="3497659" user="NKA">
		<tag k="name" v="Ljustad" />
		<tag k="place" v="farm" />
		<tag k="ssr:stedsnr" v="862275" />
	</node>
	<node id="9925370984" lat="63.1629889" lon="8.1689862" version="1" timestamp="2022-08-01T18:53:53Z" changeset="124360617" uid="3497659" user="NKA">
		<tag k="name" v="Trøa" />
		<tag k="place" v="farm" />
		<tag k="ssr:stedsnr" v="959541" />
	</node>
	<node id="9925370985" lat="63.1791333" lon="7.9439307" version="1" timestamp="2022-08-01T18:53:53Z" changeset="124360617" uid="3497659" user="NKA">
		<tag k="name" v="Solli" />
		<tag k="place" v="isolated_dwelling" />
		<tag k="ssr:stedsnr" v="655806" />
	</node>
	<node id="9925370986" lat="63.2727361" lon="8.5249166" version="1" timestamp="2022-08-01T18:53:53Z" changeset="124360617" uid="3497659" user="NKA">
		<tag k="name" v="Ytre Leirdalen" />
		<tag k="place" v="farm" />
		<tag k="ssr:stedsnr" v="801250" />
	</node>
	<node id="9925370987" lat="63.1614645" lon="8.3623167" version="1" timestamp="2022-08-01T18:53:53Z" changeset="124360617" uid="3497659" user="NKA">
		<tag k="name" v="Berget" />
		<tag k="place" v="locality" />
		<tag k="ssr:stedsnr" v="566766" />
	</node>
	<node id="9925370988" lat="63.1899637" lon="8.1665471" version="1" timestamp="2022-08-01T18:53:53Z" changeset="124360617" uid="3497659" user="NKA">
		<tag k="name" v="Fossheim" />
		<tag k="place" v="farm" />
		<tag k="ssr:stedsnr" v="801430" />
	</node>
	<node id="9925370989" lat="63.2060444" lon="8.6093666" version="1" timestamp="2022-08-01T18:53:53Z" changeset="124360617" uid="3497659" user="NKA">
		<tag k="name" v="Mettergarden" />
		<tag k="place" v="farm" />
		<tag k="ssr:stedsnr" v="839178" />
	</node>
	<node id="9925370990" lat="63.2247917" lon="8.1288195" version="1" timestamp="2022-08-01T18:53:53Z" changeset="124360617" uid="3497659" user="NKA">
		<tag k="name" v="Åheim" />
		<tag k="place" v="farm" />
		<tag k="ssr:stedsnr" v="838702" />
	</node>
	<node id="9925370991" lat="63.1728562" lon="8.1914322" version="1" timestamp="2022-08-01T18:53:53Z" changeset="124360617" uid="3497659" user="NKA">
		<tag k="name" v="Yttervika" />
		<tag k="place" v="farm" />
		<tag k="ssr:stedsnr" v="740284" />
	</node>
	<node id="9925370992" lat="63.2114619" lon="8.0543683" version="1" timestamp="2022-08-01T18:53:53Z" changeset="124360617" uid="3497659" user="NKA">
		<tag k="name" v="Reiten" />
		<tag k="place" v="farm" />
		<tag k="ssr:stedsnr" v="837739" />
	</node>
	<node id="9925370993" lat="63.2131611" lon="8.2774139" version="1" timestamp="2022-08-01T18:53:53Z" changeset="124360617" uid="3497659" user="NKA">
		<tag k="name" v="Viavika" />
		<tag k="place" v="farm" />
		<tag k="ssr:stedsnr" v="497007" />
	</node>
	<node id="9925370994" lat="63.2962194" lon="8.5316917" version="1" timestamp="2022-08-01T18:53:53Z" changeset="124360617" uid="3497659" user="NKA">
		<tag k="name" v="Sandvika" />
		<tag k="place" v="farm" />
		<tag k="ssr:stedsnr" v="680395" />
	</node>
	<node id="9925370995" lat="63.2588111" lon="8.4974" version="1" timestamp="2022-08-01T18:53:53Z" changeset="124360617" uid="3497659" user="NKA">
		<tag k="name" v="Odemo" />
		<tag k="place" v="farm" />
		<tag k="ssr:stedsnr" v="680341" />
	</node>
	<node id="9925370996" lat="63.196775" lon="8.0266695" version="1" timestamp="2022-08-01T18:53:53Z" changeset="124360617" uid="3497659" user="NKA">
		<tag k="name" v="Øverland" />
		<tag k="place" v="farm" />
		<tag k="ssr:stedsnr" v="558517" />
	</node>
	<node id="9925370997" lat="63.2725195" lon="8.5299639" version="1" timestamp="2022-08-01T18:53:53Z" changeset="124360617" uid="3497659" user="NKA">
		<tag k="name" v="Indre Leirdalen" />
		<tag k="place" v="farm" />
		<tag k="ssr:stedsnr" v="679232" />
	</node>
	<node id="9925370998" lat="63.2063904" lon="8.1581453" version="1" timestamp="2022-08-01T18:53:53Z" changeset="124360617" uid="3497659" user="NKA">
		<tag k="name" v="Gjengstøa" />
		<tag k="place" v="farm" />
		<tag k="ssr:stedsnr" v="594289" />
	</node>
	<node id="9925370999" lat="63.2341641" lon="8.2106978" version="1" timestamp="2022-08-01T18:53:53Z" changeset="124360617" uid="3497659" user="NKA">
		<tag k="name" v="Vollen" />
		<tag k="place" v="farm" />
		<tag k="ssr:stedsnr" v="593092" />
	</node>
	<node id="9925371000" lat="63.1824361" lon="8.5747167" version="1" timestamp="2022-08-01T18:53:53Z" changeset="124360617" uid="3497659" user="NKA">
		<tag k="name" v="Rumpa" />
		<tag k="place" v="farm" />
		<tag k="ssr:stedsnr" v="680127" />
	</node>
	<node id="9925371001" lat="63.2161945" lon="8.3862778" version="1" timestamp="2022-08-01T18:53:53Z" changeset="124360617" uid="3497659" user="NKA">
		<tag k="name" v="Sørlia" />
		<tag k="place" v="farm" />
		<tag k="ssr:stedsnr" v="558015" />
	</node>
	<node id="9925371002" lat="63.2155203" lon="8.1710492" version="1" timestamp="2022-08-01T18:53:53Z" changeset="124360617" uid="3497659" user="NKA">
		<tag k="name" v="Nygarden" />
		<tag k="place" v="hamlet" />
		<tag k="ssr:stedsnr" v="437499" />
	</node>
	<node id="9925371003" lat="63.1698689" lon="8.3427119" version="1" timestamp="2022-08-01T18:53:53Z" changeset="124360617" uid="3497659" user="NKA">
		<tag k="name" v="Klaven" />
		<tag k="place" v="farm" />
		<tag k="ssr:stedsnr" v="558112" />
	</node>
	<node id="9925371004" lat="63.1853583" lon="8.4873612" version="1" timestamp="2022-08-01T18:53:53Z" changeset="124360617" uid="3497659" user="NKA">
		<tag k="historic" v="shieling" />
		<tag k="name" v="Bergfallsetra" />
		<tag k="place" v="isolated_dwelling" />
		<tag k="ssr:stedsnr" v="960334" />
	</node>
	<node id="9925371005" lat="63.1883929" lon="8.1857729" version="1" timestamp="2022-08-01T18:53:53Z" changeset="124360617" uid="3497659" user="NKA">
		<tag k="name" v="Stabben" />
		<tag k="place" v="farm" />
		<tag k="ssr:stedsnr" v="376454" />
	</node>
	<node id="9925371006" lat="63.2044" lon="8.0340277" version="1" timestamp="2022-08-01T18:53:53Z" changeset="124360617" uid="3497659" user="NKA">
		<tag k="name" v="Haugen" />
		<tag k="place" v="farm" />
		<tag k="ssr:stedsnr" v="654748" />
	</node>
	<node id="9925371007" lat="63.2614649" lon="8.5088861" version="1" timestamp="2022-08-01T18:53:53Z" changeset="124360617" uid="3497659" user="NKA">
		<tag k="name" v="Grønvik" />
		<tag k="place" v="farm" />
		<tag k="ssr:stedsnr" v="959372" />
	</node>
	<node id="9925371008" lat="63.2210993" lon="8.0544963" version="1" timestamp="2022-08-01T18:53:53Z" changeset="124360617" uid="3497659" user="NKA">
		<tag k="name" v="Brandsvika" />
		<tag k="place" v="hamlet" />
		<tag k="ssr:stedsnr" v="376404" />
	</node>
	<node id="9925371009" lat="63.1630559" lon="8.506266" version="1" timestamp="2022-08-01T18:53:53Z" changeset="124360617" uid="3497659" user="NKA">
		<tag k="name" v="Gjestad" />
		<tag k="place" v="farm" />
		<tag k="ssr:stedsnr" v="958455" />
	</node>
	<node id="9925371010" lat="63.1606278" lon="8.1083279" version="1" timestamp="2022-08-01T18:53:53Z" changeset="124360617" uid="3497659" user="NKA">
		<tag k="name" v="Ersviksetra" />
		<tag k="place" v="isolated_dwelling" />
		<tag k="ssr:stedsnr" v="376307" />
	</node>
	<node id="9925371011" lat="63.2583533" lon="8.5082481" version="1" timestamp="2022-08-01T18:53:53Z" changeset="124360617" uid="3497659" user="NKA">
		<tag k="name" v="Lurvika" />
		<tag k="place" v="farm" />
		<tag k="ssr:stedsnr" v="923349" />
	</node>
	<node id="9925371012" lat="63.2066973" lon="8.4117528" version="1" timestamp="2022-08-01T18:53:53Z" changeset="124360617" uid="3497659" user="NKA">
		<tag k="name" v="Haltbakkan" />
		<tag k="place" v="farm" />
		<tag k="ssr:stedsnr" v="922002" />
	</node>
	<node id="9925371013" lat="63.1725083" lon="8.46125" version="1" timestamp="2022-08-01T18:53:53Z" changeset="124360617" uid="3497659" user="NKA">
		<tag k="historic" v="shieling" />
		<tag k="name" v="Middagssetra" />
		<tag k="place" v="isolated_dwelling" />
		<tag k="ssr:stedsnr" v="899345" />
	</node>
	<node id="9925371014" lat="63.2977611" lon="8.5598722" version="1" timestamp="2022-08-01T18:53:53Z" changeset="124360617" uid="3497659" user="NKA">
		<tag k="historic" v="shieling" />
		<tag k="name" v="Eidssetra" />
		<tag k="place" v="isolated_dwelling" />
		<tag k="ssr:stedsnr" v="232790" />
	</node>
	<node id="9925371015" lat="63.1655389" lon="8.025414" version="1" timestamp="2022-08-01T18:53:53Z" changeset="124360617" uid="3497659" user="NKA">
		<tag k="historic" v="shieling" />
		<tag k="name" v="Lervågsetra" />
		<tag k="place" v="isolated_dwelling" />
		<tag k="ssr:stedsnr" v="534858" />
	</node>
	<node id="9925371016" lat="63.2178166" lon="8.4307946" version="1" timestamp="2022-08-01T18:53:53Z" changeset="124360617" uid="3497659" user="NKA">
		<tag k="name" v="Nersetra" />
		<tag k="place" v="farm" />
		<tag k="ssr:stedsnr" v="134029" />
	</node>
	<node id="9925371017" lat="63.2003222" lon="7.9982305" version="1" timestamp="2022-08-01T18:53:53Z" changeset="124360617" uid="3497659" user="NKA">
		<tag k="name" v="Nordvika" />
		<tag k="place" v="farm" />
		<tag k="ssr:stedsnr" v="534129" />
	</node>
	<node id="9925371018" lat="63.1715355" lon="8.5391258" version="1" timestamp="2022-08-01T18:53:53Z" changeset="124360617" uid="3497659" user="NKA">
		<tag k="name" v="Brattset" />
		<tag k="place" v="hamlet" />
		<tag k="ssr:stedsnr" v="255103" />
	</node>
	<node id="9925371019" lat="63.1882393" lon="8.4302036" version="1" timestamp="2022-08-01T18:53:53Z" changeset="124360617" uid="3497659" user="NKA">
		<tag k="name" v="Myran" />
		<tag k="place" v="farm" />
		<tag k="ssr:stedsnr" v="801096" />
	</node>
	<node id="9925371020" lat="63.2175556" lon="8.0501501" version="1" timestamp="2022-08-01T18:53:53Z" changeset="124360617" uid="3497659" user="NKA">
		<tag k="name" v="Litlvika" />
		<tag k="place" v="farm" />
		<tag k="ssr:stedsnr" v="352608" />
	</node>
	<node id="9925371021" lat="63.2506659" lon="8.3259842" version="1" timestamp="2022-08-01T18:53:53Z" changeset="124360617" uid="3497659" user="NKA">
		<tag k="name" v="Nygarden" />
		<tag k="place" v="farm" />
		<tag k="ssr:stedsnr" v="776747" />
	</node>
	<node id="9925371022" lat="63.21815" lon="8.5998112" version="1" timestamp="2022-08-01T18:53:53Z" changeset="124360617" uid="3497659" user="NKA">
		<tag k="historic" v="shieling" />
		<tag k="name" v="Haugasetra" />
		<tag k="place" v="isolated_dwelling" />
		<tag k="ssr:stedsnr" v="862037" />
	</node>
	<node id="9925371023" lat="63.259" lon="8.3742527" version="1" timestamp="2022-08-01T18:53:53Z" changeset="124360617" uid="3497659" user="NKA">
		<tag k="name" v="Myrset" />
		<tag k="place" v="farm" />
		<tag k="ssr:stedsnr" v="862322" />
	</node>
	<node id="9925371024" lat="63.2088417" lon="8.2874862" version="1" timestamp="2022-08-01T18:53:53Z" changeset="124360617" uid="3497659" user="NKA">
		<tag k="name" v="Bukta" />
		<tag k="place" v="farm" />
		<tag k="ssr:stedsnr" v="740002" />
	</node>
	<node id="9925371025" lat="63.2808639" lon="8.6222028" version="1" timestamp="2022-08-01T18:53:53Z" changeset="124360617" uid="3497659" user="NKA">
		<tag k="name" v="Austli" />
		<tag k="place" v="farm" />
		<tag k="ssr:stedsnr" v="862269" />
	</node>
	<node id="9925371026" lat="63.2675139" lon="8.3890918" version="1" timestamp="2022-08-01T18:53:53Z" changeset="124360617" uid="3497659" user="NKA">
		<tag k="name" v="Øygarden" />
		<tag k="place" v="farm" />
		<tag k="ssr:stedsnr" v="194256" />
	</node>
	<node id="9925371027" lat="63.2009861" lon="8.25915" version="1" timestamp="2022-08-01T18:53:53Z" changeset="124360617" uid="3497659" user="NKA">
		<tag k="name" v="Vikan" />
		<tag k="place" v="farm" />
		<tag k="ssr:stedsnr" v="740008" />
	</node>
	<node id="9925371028" lat="63.2657361" lon="8.5044112" version="1" timestamp="2022-08-01T18:53:53Z" changeset="124360617" uid="3497659" user="NKA">
		<tag k="name" v="Skaget" />
		<tag k="place" v="farm" />
		<tag k="ssr:stedsnr" v="680320" />
	</node>
	<node id="9925371029" lat="63.2559583" lon="8.5297528" version="1" timestamp="2022-08-01T18:53:53Z" changeset="124360617" uid="3497659" user="NKA">
		<tag k="name" v="Gylthalsen" />
		<tag k="place" v="farm" />
		<tag k="ssr:stedsnr" v="194278" />
	</node>
	<node id="9925371030" lat="63.1585639" lon="7.9683555" version="1" timestamp="2022-08-01T18:53:53Z" changeset="124360617" uid="3497659" user="NKA">
		<tag k="name" v="Skogly" />
		<tag k="place" v="farm" />
		<tag k="ssr:stedsnr" v="229166" />
	</node>
	<node id="9925371031" lat="63.1611278" lon="8.41075" version="1" timestamp="2022-08-01T18:53:53Z" changeset="124360617" uid="3497659" user="NKA">
		<tag k="name" v="Storslett" />
		<tag k="place" v="farm" />
		<tag k="ssr:stedsnr" v="194088" />
	</node>
	<node id="9925371032" lat="63.1593723" lon="8.4739723" version="1" timestamp="2022-08-01T18:53:53Z" changeset="124360617" uid="3497659" user="NKA">
		<tag k="name" v="Espneset" />
		<tag k="place" v="farm" />
		<tag k="ssr:stedsnr" v="680084" />
	</node>
	<node id="9925371033" lat="63.1903833" lon="8.5383528" version="1" timestamp="2022-08-01T18:53:53Z" changeset="124360617" uid="3497659" user="NKA">
		<tag k="historic" v="shieling" />
		<tag k="name" v="Bergfallsetra" />
		<tag k="place" v="isolated_dwelling" />
		<tag k="ssr:stedsnr" v="862118" />
	</node>
	<node id="9925371034" lat="63.3155848" lon="8.6638357" version="1" timestamp="2022-08-01T18:53:53Z" changeset="124360617" uid="3497659" user="NKA">
		<tag k="name" v="Vang" />
		<tag k="place" v="farm" />
		<tag k="ssr:stedsnr" v="717964" />
	</node>
	<node id="9925371035" lat="63.1802191" lon="7.9555229" version="1" timestamp="2022-08-01T18:53:53Z" changeset="124360617" uid="3497659" user="NKA">
		<tag k="name" v="Sommerro" />
		<tag k="place" v="isolated_dwelling" />
		<tag k="ssr:stedsnr" v="109789" />
	</node>
	<node id="9925371036" lat="63.2302139" lon="8.3285111" version="1" timestamp="2022-08-01T18:53:53Z" changeset="124360617" uid="3497659" user="NKA">
		<tag k="name" v="Vinsternessetra" />
		<tag k="place" v="isolated_dwelling" />
		<tag k="ssr:stedsnr" v="619035" />
	</node>
	<node id="9925371037" lat="63.20235" lon="8.5875473" version="1" timestamp="2022-08-01T18:53:53Z" changeset="124360617" uid="3497659" user="NKA">
		<tag k="name" v="Nessagarden" />
		<tag k="place" v="farm" />
		<tag k="ssr:stedsnr" v="717181" />
	</node>
	<node id="9925371038" lat="63.2626151" lon="8.3797603" version="1" timestamp="2022-08-01T18:53:53Z" changeset="124360617" uid="3497659" user="NKA">
		<tag k="name" v="Strømsvik" />
		<tag k="place" v="farm" />
		<tag k="ssr:stedsnr" v="716995" />
	</node>
	<node id="9925371039" lat="63.2069264" lon="8.0364826" version="1" timestamp="2022-08-01T18:53:53Z" changeset="124360617" uid="3497659" user="NKA">
		<tag k="name" v="Målen" />
		<tag k="place" v="farm" />
		<tag k="ssr:stedsnr" v="109695" />
	</node>
	<node id="9925371040" lat="63.2195139" lon="8.0548778" version="1" timestamp="2022-08-01T18:53:53Z" changeset="124360617" uid="3497659" user="NKA">
		<tag k="name" v="Brandsvikhaugen" />
		<tag k="place" v="farm" />
		<tag k="ssr:stedsnr" v="109568" />
	</node>
	<node id="9925371041" lat="63.2700694" lon="8.2821861" version="1" timestamp="2022-08-01T18:53:53Z" changeset="124360617" uid="3497659" user="NKA">
		<tag k="name" v="Sandshamna" />
		<tag k="place" v="farm" />
		<tag k="ssr:stedsnr" v="618223" />
	</node>
	<node id="9925371042" lat="63.1982417" lon="7.9883833" version="1" timestamp="2022-08-01T18:53:53Z" changeset="124360617" uid="3497659" user="NKA">
		<tag k="name" v="Strandli" />
		<tag k="place" v="farm" />
		<tag k="ssr:stedsnr" v="109093" />
	</node>
	<node id="9925371043" lat="63.2472832" lon="8.2740996" version="1" timestamp="2022-08-01T18:53:53Z" changeset="124360617" uid="3497659" user="NKA">
		<tag k="name" v="Grinbukta" />
		<tag k="place" v="isolated_dwelling" />
		<tag k="ssr:stedsnr" v="230598" />
	</node>
	<node id="9925371044" lat="63.1877944" lon="8.4139361" version="1" timestamp="2022-08-01T18:53:53Z" changeset="124360617" uid="3497659" user="NKA">
		<tag k="historic" v="shieling" />
		<tag k="name" v="Nysetra" />
		<tag k="place" v="isolated_dwelling" />
		<tag k="ssr:stedsnr" v="594621" />
	</node>
	<node id="9925371045" lat="63.200669" lon="8.4842595" version="1" timestamp="2022-08-01T18:53:53Z" changeset="124360617" uid="3497659" user="NKA">
		<tag k="historic" v="shieling" />
		<tag k="name" v="Ertvågssetra" />
		<tag k="place" v="isolated_dwelling" />
		<tag k="ssr:stedsnr" v="618099" />
	</node>
	<node id="9925371046" lat="63.2053063" lon="8.6115017" version="1" timestamp="2022-08-01T18:53:53Z" changeset="124360617" uid="3497659" user="NKA">
		<tag k="name" v="Vik" />
		<tag k="place" v="hamlet" />
		<tag k="ssr:stedsnr" v="679114" />
	</node>
	<node id="9925371047" lat="63.2278382" lon="8.1319626" version="1" timestamp="2022-08-01T18:53:53Z" changeset="124360617" uid="3497659" user="NKA">
		<tag k="alt_name" v="Follå;Foldåa" />
		<tag k="name" v="Follåa" />
		<tag k="place" v="hamlet" />
		<tag k="ssr:stedsnr" v="73401" />
	</node>
	<node id="9925371048" lat="63.150075" lon="7.962468" version="1" timestamp="2022-08-01T18:53:53Z" changeset="124360617" uid="3497659" user="NKA">
		<tag k="name" v="Leirvåg" />
		<tag k="place" v="hamlet" />
		<tag k="ssr:stedsnr" v="12310" />
	</node>
	<node id="9925371049" lat="63.3227971" lon="8.3956977" version="1" timestamp="2022-08-01T18:53:53Z" changeset="124360617" uid="3497659" user="NKA">
		<tag k="name" v="Grisvågen" />
		<tag k="place" v="hamlet" />
		<tag k="ssr:stedsnr" v="73165" />
	</node>
	<node id="9925371050" lat="63.270075" lon="8.4924" version="1" timestamp="2022-08-01T18:53:53Z" changeset="124360617" uid="3497659" user="NKA">
		<tag k="name" v="Valen" />
		<tag k="place" v="farm" />
		<tag k="ssr:stedsnr" v="497259" />
	</node>
	<node id="9925371051" lat="63.1765055" lon="8.4517306" version="1" timestamp="2022-08-01T18:53:53Z" changeset="124360617" uid="3497659" user="NKA">
		<tag k="historic" v="shieling" />
		<tag k="name" v="Vassbotnbekken" />
		<tag k="place" v="isolated_dwelling" />
		<tag k="ssr:stedsnr" v="474338" />
	</node>
	<node id="9925371052" lat="63.1825388" lon="8.332313" version="1" timestamp="2022-08-01T18:53:53Z" changeset="124360617" uid="3497659" user="NKA">
		<tag k="name" v="Fuglvågen" />
		<tag k="place" v="hamlet" />
		<tag k="ssr:stedsnr" v="680120" />
	</node>
	<node id="9925371053" lat="63.1676111" lon="8.3217445" version="1" timestamp="2022-08-01T18:53:53Z" changeset="124360617" uid="3497659" user="NKA">
		<tag k="name" v="Indre Karlsvika" />
		<tag k="place" v="farm" />
		<tag k="ssr:stedsnr" v="898149" />
	</node>
	<node id="9925371054" lat="63.1737497" lon="8.1696982" version="1" timestamp="2022-08-01T18:53:53Z" changeset="124360617" uid="3497659" user="NKA">
		<tag k="name" v="Yttersetra" />
		<tag k="place" v="farm" />
		<tag k="ssr:stedsnr" v="619329" />
	</node>
	<node id="9925371055" lat="63.2082823" lon="8.6025816" version="1" timestamp="2022-08-01T18:53:53Z" changeset="124360617" uid="3497659" user="NKA">
		<tag k="name" v="Myran" />
		<tag k="place" v="farm" />
		<tag k="ssr:stedsnr" v="592207" />
	</node>
	<node id="9925371056" lat="63.2891139" lon="8.8278361" version="1" timestamp="2022-08-01T18:53:53Z" changeset="124360617" uid="3497659" user="NKA">
		<tag k="historic" v="shieling" />
		<tag k="name" v="Vestsesætra" />
		<tag k="place" v="isolated_dwelling" />
		<tag k="ssr:stedsnr" v="923611" />
	</node>
	<node id="9925371057" lat="63.2712545" lon="8.4655432" version="1" timestamp="2022-08-01T18:53:53Z" changeset="124360617" uid="3497659" user="NKA">
		<tag k="name" v="Ånes" />
		<tag k="place" v="hamlet" />
		<tag k="ssr:stedsnr" v="437283" />
	</node>
	<node id="9925371058" lat="63.206103" lon="8.2494521" version="1" timestamp="2022-08-01T18:53:53Z" changeset="124360617" uid="3497659" user="NKA">
		<tag k="name" v="Saga" />
		<tag k="place" v="farm" />
		<tag k="ssr:stedsnr" v="437040" />
	</node>
	<node id="9925371059" lat="63.1983417" lon="8.6972055" version="1" timestamp="2022-08-01T18:53:53Z" changeset="124360617" uid="3497659" user="NKA">
		<tag k="name" v="Liastua" />
		<tag k="place" v="farm" />
		<tag k="ssr:stedsnr" v="566783" />
	</node>
	<node id="9925371060" lat="63.3297611" lon="8.424514" version="1" timestamp="2022-08-01T18:53:53Z" changeset="124360617" uid="3497659" user="NKA">
		<tag k="name" v="Bergheim" />
		<tag k="place" v="farm" />
		<tag k="ssr:stedsnr" v="376170" />
	</node>
	<node id="9925371061" lat="63.2457986" lon="8.2839011" version="1" timestamp="2022-08-01T18:53:53Z" changeset="124360617" uid="3497659" user="NKA">
		<tag k="name" v="Sørvågen" />
		<tag k="place" v="farm" />
		<tag k="ssr:stedsnr" v="497182" />
	</node>
	<node id="9925371062" lat="63.2965556" lon="8.808564" version="1" timestamp="2022-08-01T18:53:53Z" changeset="124360617" uid="3497659" user="NKA">
		<tag k="historic" v="shieling" />
		<tag k="name" v="Klavasætra" />
		<tag k="place" v="isolated_dwelling" />
		<tag k="ssr:stedsnr" v="255570" />
	</node>
	<node id="9925371063" lat="63.2881384" lon="8.8165387" version="1" timestamp="2022-08-01T18:53:53Z" changeset="124360617" uid="3497659" user="NKA">
		<tag k="historic" v="shieling" />
		<tag k="name" v="Klakksetra" />
		<tag k="place" v="isolated_dwelling" />
		<tag k="ssr:stedsnr" v="718638" />
	</node>
	<node id="9925371064" lat="63.3300055" lon="8.6345195" version="1" timestamp="2022-08-01T18:53:53Z" changeset="124360617" uid="3497659" user="NKA">
		<tag k="historic" v="shieling" />
		<tag k="name" v="Torsetsetra" />
		<tag k="place" v="isolated_dwelling" />
		<tag k="ssr:stedsnr" v="801163" />
	</node>
	<node id="9925371065" lat="63.1942666" lon="8.1635032" version="1" timestamp="2022-08-01T18:53:53Z" changeset="124360617" uid="3497659" user="NKA">
		<tag k="name" v="Baggan" />
		<tag k="place" v="farm" />
		<tag k="ssr:stedsnr" v="437464" />
	</node>
	<node id="9925371066" lat="63.2461195" lon="8.2809334" version="1" timestamp="2022-08-01T18:53:53Z" changeset="124360617" uid="3497659" user="NKA">
		<tag k="name" v="Bergsli" />
		<tag k="place" v="farm" />
		<tag k="ssr:stedsnr" v="315183" />
	</node>
	<node id="9925371067" lat="63.2122416" lon="8.743525" version="1" timestamp="2022-08-01T18:53:53Z" changeset="124360617" uid="3497659" user="NKA">
		<tag k="historic" v="shieling" />
		<tag k="name" v="Litlsetra" />
		<tag k="place" v="isolated_dwelling" />
		<tag k="ssr:stedsnr" v="111419" />
	</node>
	<node id="9925371068" lat="63.1681278" lon="8.3220055" version="1" timestamp="2022-08-01T18:53:53Z" changeset="124360617" uid="3497659" user="NKA">
		<tag k="name" v="Indre Aukan" />
		<tag k="place" v="hamlet" />
		<tag k="ssr:stedsnr" v="230161" />
	</node>
	<node id="9925371069" lat="63.1938655" lon="7.9869103" version="1" timestamp="2022-08-01T18:53:53Z" changeset="124360617" uid="3497659" user="NKA">
		<tag k="name" v="Myrvang" />
		<tag k="place" v="farm" />
		<tag k="ssr:stedsnr" v="898013" />
	</node>
	<node id="9925371070" lat="63.2887382" lon="8.5342376" version="1" timestamp="2022-08-01T18:53:53Z" changeset="124360617" uid="3497659" user="NKA">
		<tag k="name" v="Nervåg" />
		<tag k="place" v="farm" />
		<tag k="ssr:stedsnr" v="596796" />
	</node>
	<node id="9925371071" lat="63.1932278" lon="8.642925" version="1" timestamp="2022-08-01T18:53:53Z" changeset="124360617" uid="3497659" user="NKA">
		<tag k="historic" v="shieling" />
		<tag k="name" v="Hamnasetra" />
		<tag k="place" v="isolated_dwelling" />
		<tag k="ssr:stedsnr" v="50270" />
	</node>
	<node id="9925371072" lat="63.3004639" lon="8.6157639" version="1" timestamp="2022-08-01T18:53:53Z" changeset="124360617" uid="3497659" user="NKA">
		<tag k="historic" v="shieling" />
		<tag k="name" v="Veasetra" />
		<tag k="place" v="isolated_dwelling" />
		<tag k="ssr:stedsnr" v="558348" />
	</node>
	<node id="9925371073" lat="63.1767121" lon="8.3145229" version="1" timestamp="2022-08-01T18:53:53Z" changeset="124360617" uid="3497659" user="NKA">
		<tag k="name" v="Blomtua" />
		<tag k="place" v="farm" />
		<tag k="ssr:stedsnr" v="133078" />
	</node>
	<node id="9925371074" lat="63.2011171" lon="8.0378782" version="1" timestamp="2022-08-01T18:53:53Z" changeset="124360617" uid="3497659" user="NKA">
		<tag k="name" v="Skogly" />
		<tag k="place" v="farm" />
		<tag k="ssr:stedsnr" v="776730" />
	</node>
	<node id="9925371075" lat="63.1852806" lon="8.1075305" version="1" timestamp="2022-08-01T18:53:53Z" changeset="124360617" uid="3497659" user="NKA">
		<tag k="historic" v="shieling" />
		<tag k="name" v="Gullsteinsetra" />
		<tag k="place" v="isolated_dwelling" />
		<tag k="ssr:stedsnr" v="801444" />
	</node>
	<node id="9925371076" lat="63.2418583" lon="8.6430612" version="1" timestamp="2022-08-01T18:53:53Z" changeset="124360617" uid="3497659" user="NKA">
		<tag k="historic" v="shieling" />
		<tag k="name" v="Bjøringsetra" />
		<tag k="place" v="isolated_dwelling" />
		<tag k="ssr:stedsnr" v="194037" />
	</node>
	<node id="9925371077" lat="63.3878124" lon="8.6999051" version="1" timestamp="2022-08-01T18:53:53Z" changeset="124360617" uid="3497659" user="NKA">
		<tag k="name" v="Alstad" />
		<tag k="place" v="hamlet" />
		<tag k="ssr:stedsnr" v="438194" />
	</node>
	<node id="9925371078" lat="63.1497278" lon="8.0853639" version="1" timestamp="2022-08-01T18:53:53Z" changeset="124360617" uid="3497659" user="NKA">
		<tag k="name" v="Nyvoll" />
		<tag k="place" v="farm" />
		<tag k="ssr:stedsnr" v="680277" />
	</node>
	<node id="9925371079" lat="63.2073361" lon="8.035225" version="1" timestamp="2022-08-01T18:53:53Z" changeset="124360617" uid="3497659" user="NKA">
		<tag k="name" v="Innermolen" />
		<tag k="place" v="farm" />
		<tag k="ssr:stedsnr" v="741549" />
	</node>
	<node id="9925371080" lat="63.195717" lon="8.1611017" version="1" timestamp="2022-08-01T18:53:53Z" changeset="124360617" uid="3497659" user="NKA">
		<tag k="name" v="Nyheim" />
		<tag k="place" v="hamlet" />
		<tag k="ssr:stedsnr" v="12426" />
	</node>
	<node id="9925371081" lat="63.199075" lon="8.2524223" version="1" timestamp="2022-08-01T18:53:53Z" changeset="124360617" uid="3497659" user="NKA">
		<tag k="name" v="Myra" />
		<tag k="place" v="farm" />
		<tag k="ssr:stedsnr" v="73012" />
	</node>
	<node id="9925371082" lat="63.371994" lon="8.6896614" version="1" timestamp="2022-08-01T18:53:53Z" changeset="124360617" uid="3497659" user="NKA">
		<tag k="name" v="Vikan" />
		<tag k="place" v="hamlet" />
		<tag k="ssr:stedsnr" v="376248" />
	</node>
	<node id="9925371083" lat="63.224281" lon="8.2132333" version="1" timestamp="2022-08-01T18:53:53Z" changeset="124360617" uid="3497659" user="NKA">
		<tag k="name" v="Nordheim" />
		<tag k="place" v="hamlet" />
		<tag k="ssr:stedsnr" v="12472" />
	</node>
	<node id="9925371084" lat="63.3266497" lon="8.7057898" version="1" timestamp="2022-08-01T18:53:53Z" changeset="124360617" uid="3497659" user="NKA">
		<tag k="name" v="Stemshaug" />
		<tag k="place" v="hamlet" />
		<tag k="ssr:stedsnr" v="922154" />
	</node>
	<node id="9925371085" lat="63.3248333" lon="8.6783278" version="1" timestamp="2022-08-01T18:53:53Z" changeset="124360617" uid="3497659" user="NKA">
		<tag k="name" v="Øygarden" />
		<tag k="place" v="farm" />
		<tag k="ssr:stedsnr" v="316379" />
	</node>
	<node id="9925371086" lat="63.351575" lon="8.8336" version="1" timestamp="2022-08-01T18:53:53Z" changeset="124360617" uid="3497659" user="NKA">
		<tag k="name" v="Haugen" />
		<tag k="place" v="farm" />
		<tag k="ssr:stedsnr" v="923722" />
	</node>
	<node id="9925371087" lat="63.3359195" lon="8.6450083" version="1" timestamp="2022-08-01T18:53:53Z" changeset="124360617" uid="3497659" user="NKA">
		<tag k="historic" v="shieling" />
		<tag k="name" v="Romundsetsetra" />
		<tag k="place" v="isolated_dwelling" />
		<tag k="ssr:stedsnr" v="315128" />
	</node>
	<node id="9925371088" lat="63.3460072" lon="8.8522002" version="1" timestamp="2022-08-01T18:53:53Z" changeset="124360617" uid="3497659" user="NKA">
		<tag k="name" v="Åsly" />
		<tag k="place" v="isolated_dwelling" />
		<tag k="ssr:stedsnr" v="900852" />
	</node>
	<node id="9925371089" lat="63.335274" lon="8.7487907" version="1" timestamp="2022-08-01T18:53:53Z" changeset="124360617" uid="3497659" user="NKA">
		<tag k="alt_name" v="Gjelen" />
		<tag k="name" v="Gjela" />
		<tag k="place" v="hamlet" />
		<tag k="ssr:stedsnr" v="255540" />
	</node>
	<node id="9925371090" lat="63.1955841" lon="8.3145528" version="1" timestamp="2022-08-01T18:53:53Z" changeset="124360617" uid="3497659" user="NKA">
		<tag k="name" v="Olvika" />
		<tag k="place" v="farm" />
		<tag k="ssr:stedsnr" v="862149" />
	</node>
	<node id="9925371091" lat="63.1961528" lon="8.22135" version="1" timestamp="2022-08-01T18:53:53Z" changeset="124360617" uid="3497659" user="NKA">
		<tag k="name" v="Solemssetra" />
		<tag k="place" v="isolated_dwelling" />
		<tag k="ssr:stedsnr" v="801010" />
	</node>
	<node id="9925371092" lat="63.2521436" lon="8.3105871" version="1" timestamp="2022-08-01T18:53:53Z" changeset="124360617" uid="3497659" user="NKA">
		<tag k="name" v="Vinsternes" />
		<tag k="place" v="hamlet" />
		<tag k="ssr:stedsnr" v="195343" />
	</node>
	<node id="9925371093" lat="63.38185" lon="8.67195" version="1" timestamp="2022-08-01T18:53:53Z" changeset="124360617" uid="3497659" user="NKA">
		<tag k="name" v="Åsen" />
		<tag k="place" v="farm" />
		<tag k="ssr:stedsnr" v="134234" />
	</node>
	<node id="9925371094" lat="63.1885555" lon="8.3243279" version="1" timestamp="2022-08-01T18:53:53Z" changeset="124360617" uid="3497659" user="NKA">
		<tag k="name" v="Ytre Fuglvågen" />
		<tag k="place" v="farm" />
		<tag k="ssr:stedsnr" v="194123" />
	</node>
	<node id="9925371095" lat="63.260425" lon="8.3028862" version="1" timestamp="2022-08-01T18:53:53Z" changeset="124360617" uid="3497659" user="NKA">
		<tag k="name" v="Setervika" />
		<tag k="place" v="farm" />
		<tag k="ssr:stedsnr" v="862301" />
	</node>
	<node id="9925371096" lat="63.2945556" lon="8.5336918" version="1" timestamp="2022-08-01T18:53:53Z" changeset="124360617" uid="3497659" user="NKA">
		<tag k="name" v="Vågsand" />
		<tag k="place" v="farm" />
		<tag k="ssr:stedsnr" v="133335" />
	</node>
	<node id="9925371097" lat="63.3014694" lon="8.7058" version="1" timestamp="2022-08-01T18:53:53Z" changeset="124360617" uid="3497659" user="NKA">
		<tag k="historic" v="shieling" />
		<tag k="name" v="Melasetra" />
		<tag k="place" v="isolated_dwelling" />
		<tag k="ssr:stedsnr" v="376366" />
	</node>
	<node id="9925371098" lat="63.3448751" lon="8.7973396" version="1" timestamp="2022-08-01T18:53:53Z" changeset="124360617" uid="3497659" user="NKA">
		<tag k="name" v="Fennerommet" />
		<tag k="place" v="farm" />
		<tag k="ssr:stedsnr" v="112855" />
	</node>
	<node id="9925371099" lat="63.3334944" lon="8.7555777" version="1" timestamp="2022-08-01T18:53:53Z" changeset="124360617" uid="3497659" user="NKA">
		<tag k="name" v="Åsheim" />
		<tag k="place" v="farm" />
		<tag k="ssr:stedsnr" v="315539" />
	</node>
	<node id="9925371100" lat="63.3306278" lon="8.7228528" version="1" timestamp="2022-08-01T18:53:53Z" changeset="124360617" uid="3497659" user="NKA">
		<tag k="name" v="Gjelahaugen" />
		<tag k="place" v="farm" />
		<tag k="ssr:stedsnr" v="376558" />
	</node>
	<node id="9925371101" lat="63.3366805" lon="8.7654167" version="1" timestamp="2022-08-01T18:53:53Z" changeset="124360617" uid="3497659" user="NKA">
		<tag k="name" v="Åsen" />
		<tag k="place" v="farm" />
		<tag k="ssr:stedsnr" v="73554" />
	</node>
	<node id="9925371102" lat="63.234997" lon="8.2013739" version="1" timestamp="2022-08-01T18:53:53Z" changeset="124360617" uid="3497659" user="NKA">
		<tag k="name" v="Ytre Storbog" />
		<tag k="place" v="isolated_dwelling" />
		<tag k="ssr:stedsnr" v="837581" />
	</node>
	<node id="9925371103" lat="63.1847961" lon="8.3062217" version="1" timestamp="2022-08-01T18:53:53Z" changeset="124360617" uid="3497659" user="NKA">
		<tag k="name" v="Fuglsnes" />
		<tag k="place" v="farm" />
		<tag k="ssr:stedsnr" v="497105" />
	</node>
	<node id="9925371104" lat="63.3321139" lon="8.7359166" version="1" timestamp="2022-08-01T18:53:53Z" changeset="124360617" uid="3497659" user="NKA">
		<tag k="name" v="Gjelahamn" />
		<tag k="place" v="farm" />
		<tag k="ssr:stedsnr" v="73572" />
	</node>
	<node id="9925371105" lat="63.3256889" lon="8.5770555" version="1" timestamp="2022-08-01T18:53:53Z" changeset="124360617" uid="3497659" user="NKA">
		<tag k="alt_name" v="Mitreviken" />
		<tag k="name" v="Midtervika" />
		<tag k="place" v="farm" />
		<tag k="ssr:stedsnr" v="959410" />
	</node>
	<node id="9925371106" lat="63.2105126" lon="8.1623912" version="1" timestamp="2022-08-01T18:53:53Z" changeset="124360617" uid="3497659" user="NKA">
		<tag k="name" v="Mevika" />
		<tag k="place" v="farm" />
		<tag k="ssr:stedsnr" v="558521" />
	</node>
	<node id="9925371107" lat="63.308375" lon="8.5864777" version="1" timestamp="2022-08-01T18:53:53Z" changeset="124360617" uid="3497659" user="NKA">
		<tag k="name" v="Nygård" />
		<tag k="place" v="farm" />
		<tag k="ssr:stedsnr" v="50559" />
	</node>
	<node id="9925371108" lat="63.1847671" lon="8.3246332" version="1" timestamp="2022-08-01T18:53:53Z" changeset="124360617" uid="3497659" user="NKA">
		<tag k="name" v="Vika" />
		<tag k="place" v="isolated_dwelling" />
		<tag k="ssr:stedsnr" v="655954" />
	</node>
	<node id="9925371109" lat="63.1573746" lon="8.1875812" version="1" timestamp="2022-08-01T18:53:53Z" changeset="124360617" uid="3497659" user="NKA">
		<tag k="name" v="Nesset" />
		<tag k="place" v="farm" />
		<tag k="ssr:stedsnr" v="473611" />
	</node>
	<node id="9925371110" lat="63.3282372" lon="8.6447091" version="1" timestamp="2022-08-01T18:53:53Z" changeset="124360617" uid="3497659" user="NKA">
		<tag k="alt_name" v="Stranden" />
		<tag k="name" v="Setra" />
		<tag k="place" v="farm" />
		<tag k="ssr:stedsnr" v="133161" />
	</node>
	<node id="9925371111" lat="63.3559333" lon="8.6207973" version="1" timestamp="2022-08-01T18:53:53Z" changeset="124360617" uid="3497659" user="NKA">
		<tag k="historic" v="shieling" />
		<tag k="name" v="Skardssetra" />
		<tag k="place" v="isolated_dwelling" />
		<tag k="ssr:stedsnr" v="862245" />
	</node>
	<node id="9925371112" lat="63.3304697" lon="8.6700585" version="1" timestamp="2022-08-01T18:53:53Z" changeset="124360617" uid="3497659" user="NKA">
		<tag k="name" v="Romundset" />
		<tag k="place" v="hamlet" />
		<tag k="ssr:stedsnr" v="12173" />
	</node>
	<node id="9925371113" lat="63.2539346" lon="8.2400596" version="1" timestamp="2022-08-01T18:53:53Z" changeset="124360617" uid="3497659" user="NKA">
		<tag k="name" v="Herringsøya" />
		<tag k="place" v="farm" />
		<tag k="ssr:stedsnr" v="412569" />
	</node>
	<node id="9925371114" lat="63.3486111" lon="8.6830555" version="1" timestamp="2022-08-01T18:53:53Z" changeset="124360617" uid="3497659" user="NKA">
		<tag k="name" v="Haltbakkan" />
		<tag k="place" v="farm" />
		<tag k="ssr:stedsnr" v="862175" />
	</node>
	<node id="9925371115" lat="63.3077278" lon="8.6475584" version="1" timestamp="2022-08-01T18:53:53Z" changeset="124360617" uid="3497659" user="NKA">
		<tag k="historic" v="shieling" />
		<tag k="name" v="Glomstadsetra" />
		<tag k="place" v="isolated_dwelling" />
		<tag k="ssr:stedsnr" v="717952" />
	</node>
	<node id="9925371116" lat="63.3178557" lon="8.7670128" version="1" timestamp="2022-08-01T18:53:53Z" changeset="124360617" uid="3497659" user="NKA">
		<tag k="alt_name" v="Hjelasetra" />
		<tag k="historic" v="shieling" />
		<tag k="name" v="Gjelasetra" />
		<tag k="place" v="hamlet" />
		<tag k="ssr:stedsnr" v="862489" />
	</node>
	<node id="9925371117" lat="63.2833639" lon="8.6553112" version="1" timestamp="2022-08-01T18:53:53Z" changeset="124360617" uid="3497659" user="NKA">
		<tag k="historic" v="shieling" />
		<tag k="name" v="Tverrhaugsetra" />
		<tag k="place" v="isolated_dwelling" />
		<tag k="ssr:stedsnr" v="839950" />
	</node>
	<node id="9925371118" lat="63.3396732" lon="8.7716301" version="1" timestamp="2022-08-01T18:53:53Z" changeset="124360617" uid="3497659" user="NKA">
		<tag k="name" v="Skaret" />
		<tag k="place" v="farm" />
		<tag k="ssr:stedsnr" v="778557" />
	</node>
	<node id="9925371119" lat="63.3290917" lon="8.6960111" version="1" timestamp="2022-08-01T18:53:53Z" changeset="124360617" uid="3497659" user="NKA">
		<tag k="name" v="Hammaren" />
		<tag k="place" v="farm" />
		<tag k="ssr:stedsnr" v="194167" />
	</node>
	<node id="9925371120" lat="63.1654471" lon="8.1934484" version="1" timestamp="2022-08-01T18:53:53Z" changeset="124360617" uid="3497659" user="NKA">
		<tag k="name" v="Innerberg" />
		<tag k="place" v="hamlet" />
		<tag k="ssr:stedsnr" v="376304" />
	</node>
	<node id="9925371121" lat="63.2102334" lon="8.31735" version="1" timestamp="2022-08-01T18:53:53Z" changeset="124360617" uid="3497659" user="NKA">
		<tag k="historic" v="shieling" />
		<tag k="name" v="Hundhammersetra" />
		<tag k="place" v="isolated_dwelling" />
		<tag k="ssr:stedsnr" v="534035" />
	</node>
	<node id="9925371122" lat="63.2855278" lon="8.6803806" version="1" timestamp="2022-08-01T18:53:53Z" changeset="124360617" uid="3497659" user="NKA">
		<tag k="historic" v="shieling" />
		<tag k="name" v="Nysetra" />
		<tag k="place" v="hamlet" />
		<tag k="ssr:stedsnr" v="194231" />
	</node>
	<node id="9925371123" lat="63.312775" lon="8.6768278" version="1" timestamp="2022-08-01T18:53:53Z" changeset="124360617" uid="3497659" user="NKA">
		<tag k="name" v="Sørsetra" />
		<tag k="place" v="isolated_dwelling" />
		<tag k="ssr:stedsnr" v="656970" />
	</node>
	<node id="9925371124" lat="63.3164695" lon="8.6410777" version="1" timestamp="2022-08-01T18:53:53Z" changeset="124360617" uid="3497659" user="NKA">
		<tag k="name" v="Glomstad" />
		<tag k="place" v="hamlet" />
		<tag k="ssr:stedsnr" v="862350" />
	</node>
	<node id="9925371125" lat="63.3584084" lon="8.6922695" version="1" timestamp="2022-08-01T18:53:53Z" changeset="124360617" uid="3497659" user="NKA">
		<tag k="name" v="Nordheim" />
		<tag k="place" v="farm" />
		<tag k="ssr:stedsnr" v="656105" />
	</node>
	<node id="9925371126" lat="63.3544389" lon="8.7443501" version="1" timestamp="2022-08-01T18:53:53Z" changeset="124360617" uid="3497659" user="NKA">
		<tag k="historic" v="shieling" />
		<tag k="name" v="Løviksetra" />
		<tag k="place" v="isolated_dwelling" />
		<tag k="ssr:stedsnr" v="657007" />
	</node>
	<node id="9925371127" lat="63.3144027" lon="8.609364" version="1" timestamp="2022-08-01T18:53:53Z" changeset="124360617" uid="3497659" user="NKA">
		<tag k="name" v="Knausane" />
		<tag k="place" v="farm" />
		<tag k="ssr:stedsnr" v="655544" />
	</node>
	<node id="9925371128" lat="63.3283222" lon="8.6548889" version="1" timestamp="2022-08-01T18:53:53Z" changeset="124360617" uid="3497659" user="NKA">
		<tag k="name" v="Einan" />
		<tag k="place" v="farm" />
		<tag k="ssr:stedsnr" v="657238" />
	</node>
	<node id="9925371129" lat="63.1608604" lon="8.166864" version="1" timestamp="2022-08-01T18:53:53Z" changeset="124360617" uid="3497659" user="NKA">
		<tag k="name" v="Dalen" />
		<tag k="place" v="farm" />
		<tag k="ssr:stedsnr" v="352552" />
	</node>
	<node id="9925371130" lat="63.3476833" lon="8.6442417" version="1" timestamp="2022-08-01T18:53:53Z" changeset="124360617" uid="3497659" user="NKA">
		<tag k="historic" v="shieling" />
		<tag k="name" v="Ulfsnessetra" />
		<tag k="place" v="isolated_dwelling" />
		<tag k="ssr:stedsnr" v="656094" />
	</node>
	<node id="9925371131" lat="63.3527416" lon="8.6872945" version="1" timestamp="2022-08-01T18:53:53Z" changeset="124360617" uid="3497659" user="NKA">
		<tag k="name" v="Vestre" />
		<tag k="place" v="farm" />
		<tag k="ssr:stedsnr" v="353126" />
	</node>
	<node id="9925371132" lat="63.2277314" lon="8.2029074" version="1" timestamp="2022-08-01T18:53:53Z" changeset="124360617" uid="3497659" user="NKA">
		<tag k="name" v="Solskjeløygarden" />
		<tag k="place" v="farm" />
		<tag k="ssr:stedsnr" v="291735" />
	</node>
	<node id="9925371133" lat="63.3254972" lon="8.7586222" version="1" timestamp="2022-08-01T18:53:53Z" changeset="124360617" uid="3497659" user="NKA">
		<tag k="historic" v="shieling" />
		<tag k="name" v="Gammelsetra" />
		<tag k="place" v="isolated_dwelling" />
		<tag k="ssr:stedsnr" v="232139" />
	</node>
	<node id="9925371134" lat="63.1972778" lon="7.9750056" version="1" timestamp="2022-08-01T18:53:53Z" changeset="124360617" uid="3497659" user="NKA">
		<tag k="name" v="Aspvika" />
		<tag k="place" v="farm" />
		<tag k="ssr:stedsnr" v="898090" />
	</node>
	<node id="9925371135" lat="63.3679598" lon="8.6950385" version="1" timestamp="2022-08-01T18:53:53Z" changeset="124360617" uid="3497659" user="NKA">
		<tag k="name" v="Lervik" />
		<tag k="place" v="farm" />
		<tag k="ssr:stedsnr" v="839819" />
	</node>
	<node id="9925371136" lat="63.1452747" lon="7.9970791" version="1" timestamp="2022-08-01T18:53:53Z" changeset="124360617" uid="3497659" user="NKA">
		<tag k="name" v="Rovika" />
		<tag k="place" v="hamlet" />
		<tag k="ssr:stedsnr" v="740244" />
	</node>
	<node id="9925371137" lat="63.1597611" lon="7.9476277" version="1" timestamp="2022-08-01T18:53:53Z" changeset="124360617" uid="3497659" user="NKA">
		<tag k="name" v="Berg" />
		<tag k="place" v="farm" />
		<tag k="ssr:stedsnr" v="619347" />
	</node>
	<node id="9925371138" lat="63.3167458" lon="8.7133957" version="1" timestamp="2022-08-01T18:53:53Z" changeset="124360617" uid="3497659" user="NKA">
		<tag k="name" v="Fredheim" />
		<tag k="place" v="isolated_dwelling" />
		<tag k="ssr:stedsnr" v="111921" />
	</node>
	<node id="9925371139" lat="63.3407694" lon="8.7693448" version="1" timestamp="2022-08-01T18:53:53Z" changeset="124360617" uid="3497659" user="NKA">
		<tag k="name" v="Neset" />
		<tag k="place" v="farm" />
		<tag k="ssr:stedsnr" v="839593" />
	</node>
	<node id="9925371140" lat="63.4089155" lon="8.7270947" version="1" timestamp="2022-08-01T18:53:53Z" changeset="124360617" uid="3497659" user="NKA">
		<tag k="name" v="Myren" />
		<tag k="place" v="farm" />
		<tag k="ssr:stedsnr" v="839645" />
	</node>
	<node id="9925371141" lat="63.2259196" lon="8.210707" version="1" timestamp="2022-08-01T18:53:53Z" changeset="124360617" uid="3497659" user="NKA">
		<tag k="name" v="Øvre Nordvoll" />
		<tag k="place" v="isolated_dwelling" />
		<tag k="ssr:stedsnr" v="231767" />
	</node>
	<node id="9925371142" lat="63.1792889" lon="7.9471708" version="1" timestamp="2022-08-01T18:53:53Z" changeset="124360617" uid="3497659" user="NKA">
		<tag k="name" v="Linvågen" />
		<tag k="place" v="hamlet" />
		<tag k="ssr:stedsnr" v="558494" />
	</node>
	<node id="9925371143" lat="63.3280667" lon="8.6596416" version="1" timestamp="2022-08-01T18:53:53Z" changeset="124360617" uid="3497659" user="NKA">
		<tag k="name" v="Trøa" />
		<tag k="place" v="farm" />
		<tag k="ssr:stedsnr" v="12169" />
	</node>
	<node id="9925371144" lat="63.3807253" lon="8.6251813" version="1" timestamp="2022-08-01T18:53:53Z" changeset="124360617" uid="3497659" user="NKA">
		<tag k="name" v="Hanbugen" />
		<tag k="place" v="farm" />
		<tag k="ssr:stedsnr" v="498248" />
	</node>
	<node id="9925371145" lat="63.197232" lon="8.30925" version="1" timestamp="2022-08-01T18:53:53Z" changeset="124360617" uid="3497659" user="NKA">
		<tag k="name" v="Kvernstad" />
		<tag k="place" v="isolated_dwelling" />
		<tag k="ssr:stedsnr" v="231068" />
	</node>
	<node id="9925371146" lat="63.3533778" lon="8.7466333" version="1" timestamp="2022-08-01T18:53:53Z" changeset="124360617" uid="3497659" user="NKA">
		<tag k="name" v="Løviksætra" />
		<tag k="place" v="locality" />
		<tag k="ssr:stedsnr" v="558726" />
	</node>
	<node id="9925371147" lat="63.4131592" lon="8.7446431" version="1" timestamp="2022-08-01T18:53:53Z" changeset="124360617" uid="3497659" user="NKA">
		<tag k="name" v="Kjørsvik" />
		<tag k="place" v="hamlet" />
		<tag k="ssr:stedsnr" v="73672" />
	</node>
	<node id="9925371148" lat="63.4079333" lon="8.7447529" version="1" timestamp="2022-08-01T18:53:53Z" changeset="124360617" uid="3497659" user="NKA">
		<tag k="name" v="Lia" />
		<tag k="place" v="farm" />
		<tag k="ssr:stedsnr" v="558692" />
	</node>
	<node id="9925371149" lat="63.3143667" lon="8.6092845" version="1" timestamp="2022-08-01T18:53:53Z" changeset="124360617" uid="3497659" user="NKA">
		<tag k="name" v="Bergset" />
		<tag k="place" v="farm" />
		<tag k="ssr:stedsnr" v="657578" />
	</node>
	<node id="9925371150" lat="63.4170612" lon="8.7458529" version="1" timestamp="2022-08-01T18:53:53Z" changeset="124360617" uid="3497659" user="NKA">
		<tag k="name" v="Solvang" />
		<tag k="place" v="farm" />
		<tag k="ssr:stedsnr" v="862428" />
	</node>
	<node id="9925371151" lat="63.2281556" lon="8.1792389" version="1" timestamp="2022-08-01T18:53:53Z" changeset="124360617" uid="3497659" user="NKA">
		<tag k="name" v="Skaret" />
		<tag k="place" v="farm" />
		<tag k="ssr:stedsnr" v="498456" />
	</node>
	<node id="9925371152" lat="63.1974186" lon="8.1584275" version="1" timestamp="2022-08-01T18:53:53Z" changeset="124360617" uid="3497659" user="NKA">
		<tag k="name" v="Baggtrøa" />
		<tag k="place" v="farm" />
		<tag k="ssr:stedsnr" v="594278" />
	</node>
	<node id="9925371153" lat="63.2386093" lon="8.2021778" version="1" timestamp="2022-08-01T18:53:53Z" changeset="124360617" uid="3497659" user="NKA">
		<tag k="name" v="Valen" />
		<tag k="place" v="isolated_dwelling" />
		<tag k="ssr:stedsnr" v="230561" />
	</node>
	<node id="9925371154" lat="63.3343333" lon="8.6952916" version="1" timestamp="2022-08-01T18:53:53Z" changeset="124360617" uid="3497659" user="NKA">
		<tag k="name" v="Røberg" />
		<tag k="place" v="farm" />
		<tag k="ssr:stedsnr" v="657250" />
	</node>
	<node id="9925371155" lat="63.4186389" lon="8.7395888" version="1" timestamp="2022-08-01T18:53:53Z" changeset="124360617" uid="3497659" user="NKA">
		<tag k="name" v="Tuvik" />
		<tag k="place" v="farm" />
		<tag k="ssr:stedsnr" v="12414" />
	</node>
	<node id="9925371156" lat="63.3885027" lon="8.7489306" version="1" timestamp="2022-08-01T18:53:53Z" changeset="124360617" uid="3497659" user="NKA">
		<tag k="historic" v="shieling" />
		<tag k="name" v="Ledalssetra" />
		<tag k="place" v="isolated_dwelling" />
		<tag k="ssr:stedsnr" v="656252" />
	</node>
	<node id="9925371157" lat="63.4108933" lon="8.7244721" version="1" timestamp="2022-08-01T18:53:53Z" changeset="124360617" uid="3497659" user="NKA">
		<tag k="alt_name" v="Ledalsvold" />
		<tag k="name" v="Ledalsvoll" />
		<tag k="place" v="farm" />
		<tag k="ssr:stedsnr" v="656650" />
	</node>
	<node id="9925371158" lat="63.2233151" lon="8.2102749" version="1" timestamp="2022-08-01T18:53:53Z" changeset="124360617" uid="3497659" user="NKA">
		<tag k="name" v="Søgarden" />
		<tag k="place" v="farm" />
		<tag k="ssr:stedsnr" v="110733" />
	</node>
	<node id="9925371159" lat="63.2308889" lon="8.3460251" version="1" timestamp="2022-08-01T18:53:53Z" changeset="124360617" uid="3497659" user="NKA">
		<tag k="historic" v="shieling" />
		<tag k="name" v="Nysetra" />
		<tag k="place" v="isolated_dwelling" />
		<tag k="ssr:stedsnr" v="958765" />
	</node>
	<node id="9925371160" lat="63.2888944" lon="8.6491445" version="1" timestamp="2022-08-01T18:53:53Z" changeset="124360617" uid="3497659" user="NKA">
		<tag k="historic" v="shieling" />
		<tag k="name" v="Tverrbotnsetra" />
		<tag k="place" v="isolated_dwelling" />
		<tag k="ssr:stedsnr" v="474912" />
	</node>
	<node id="9925371161" lat="63.1489204" lon="8.0775725" version="1" timestamp="2022-08-01T18:53:53Z" changeset="124360617" uid="3497659" user="NKA">
		<tag k="alt_name" v="Halsneset" />
		<tag k="name" v="Halsnes" />
		<tag k="place" v="farm" />
		<tag k="ssr:stedsnr" v="830573" />
	</node>
	<node id="9925371162" lat="63.3772278" lon="8.6436056" version="1" timestamp="2022-08-01T18:53:53Z" changeset="124360617" uid="3497659" user="NKA">
		<tag k="name" v="Kvennhushaugen" />
		<tag k="place" v="farm" />
		<tag k="ssr:stedsnr" v="414791" />
	</node>
	<node id="9925371163" lat="63.2060226" lon="8.2902614" version="1" timestamp="2022-08-01T18:53:53Z" changeset="124360617" uid="3497659" user="NKA">
		<tag k="name" v="Trommå" />
		<tag k="place" v="farm" />
		<tag k="ssr:stedsnr" v="110030" />
	</node>
	<node id="9925371164" lat="63.2368773" lon="8.5714054" version="1" timestamp="2022-08-01T18:53:53Z" changeset="124360617" uid="3497659" user="NKA">
		<tag k="name" v="Torset" />
		<tag k="place" v="hamlet" />
		<tag k="ssr:stedsnr" v="801051" />
	</node>
	<node id="9925371165" lat="63.2305306" lon="8.4231694" version="1" timestamp="2022-08-01T18:53:53Z" changeset="124360617" uid="3497659" user="NKA">
		<tag k="name" v="Sæmundsetsetra" />
		<tag k="place" v="isolated_dwelling" />
		<tag k="ssr:stedsnr" v="680053" />
	</node>
	<node id="9925371166" lat="63.2253508" lon="8.4144818" version="1" timestamp="2022-08-01T18:53:53Z" changeset="124360617" uid="3497659" user="NKA">
		<tag k="name" v="Sæmundset" />
		<tag k="place" v="farm" />
		<tag k="ssr:stedsnr" v="680054" />
	</node>
	<node id="9925371167" lat="63.253529" lon="8.5548121" version="1" timestamp="2022-08-01T18:53:53Z" changeset="124360617" uid="3497659" user="NKA">
		<tag k="name" v="Gresset" />
		<tag k="place" v="hamlet" />
		<tag k="ssr:stedsnr" v="619356" />
	</node>
	<node id="9925371168" lat="63.226725" lon="8.2186167" version="1" timestamp="2022-08-01T18:53:53Z" changeset="124360617" uid="3497659" user="NKA">
		<tag k="name" v="Strand" />
		<tag k="place" v="farm" />
		<tag k="ssr:stedsnr" v="316035" />
	</node>
	<node id="9925371169" lat="63.2749003" lon="8.356375" version="1" timestamp="2022-08-01T18:53:53Z" changeset="124360617" uid="3497659" user="NKA">
		<tag k="name" v="Jøssøya" />
		<tag k="place" v="farm" />
		<tag k="ssr:stedsnr" v="977727" />
	</node>
	<node id="9925371170" lat="63.2004963" lon="8.1539936" version="1" timestamp="2022-08-01T18:53:53Z" changeset="124360617" uid="3497659" user="NKA">
		<tag k="name" v="Røstet" />
		<tag k="place" v="farm" />
		<tag k="ssr:stedsnr" v="315430" />
	</node>
	<node id="9925371171" lat="63.3073695" lon="8.5633556" version="1" timestamp="2022-08-01T18:53:53Z" changeset="124360617" uid="3497659" user="NKA">
		<tag k="name" v="Leivstad" />
		<tag k="place" v="farm" />
		<tag k="ssr:stedsnr" v="497320" />
	</node>
	<node id="9925371172" lat="63.2089111" lon="8.2044223" version="1" timestamp="2022-08-01T18:53:53Z" changeset="124360617" uid="3497659" user="NKA">
		<tag k="alt_name" v="Ådal" />
		<tag k="name" v="Ådalen" />
		<tag k="place" v="farm" />
		<tag k="ssr:stedsnr" v="73513" />
	</node>
	<node id="9925371173" lat="63.3164584" lon="8.6508083" version="1" timestamp="2022-08-01T18:53:53Z" changeset="124360617" uid="3497659" user="NKA">
		<tag k="name" v="Slettet" />
		<tag k="place" v="farm" />
		<tag k="ssr:stedsnr" v="353952" />
	</node>
	<node id="9925371174" lat="63.1676988" lon="8.1695751" version="1" timestamp="2022-08-01T18:53:53Z" changeset="124360617" uid="3497659" user="NKA">
		<tag k="name" v="Innersetra" />
		<tag k="place" v="farm" />
		<tag k="ssr:stedsnr" v="73302" />
	</node>
	<node id="9925371175" lat="63.3304676" lon="8.4536477" version="1" timestamp="2022-08-01T18:53:53Z" changeset="124360617" uid="3497659" user="NKA">
		<tag k="name" v="Kiplesund" />
		<tag k="place" v="farm" />
		<tag k="ssr:stedsnr" v="376166" />
	</node>
	<node id="9925371176" lat="63.3359574" lon="8.6988447" version="1" timestamp="2022-08-01T18:53:53Z" changeset="124360617" uid="3497659" user="NKA">
		<tag k="name" v="Knorrå" />
		<tag k="place" v="farm" />
		<tag k="ssr:stedsnr" v="960077" />
	</node>
	<node id="9925371177" lat="63.1472264" lon="7.999077" version="1" timestamp="2022-08-01T18:53:53Z" changeset="124360617" uid="3497659" user="NKA">
		<tag k="name" v="Øvre Rovik" />
		<tag k="place" v="farm" />
		<tag k="ssr:stedsnr" v="959248" />
	</node>
	<node id="9925371178" lat="63.2361448" lon="8.5775732" version="1" timestamp="2022-08-01T18:53:53Z" changeset="124360617" uid="3497659" user="NKA">
		<tag k="name" v="Vollan" />
		<tag k="place" v="farm" />
		<tag k="ssr:stedsnr" v="353357" />
	</node>
	<node id="9925371179" lat="63.3461" lon="8.7604445" version="1" timestamp="2022-08-01T18:53:53Z" changeset="124360617" uid="3497659" user="NKA">
		<tag k="name" v="Indre Helland" />
		<tag k="place" v="isolated_dwelling" />
		<tag k="ssr:stedsnr" v="778002" />
	</node>
	<node id="9925371180" lat="63.1690979" lon="8.3183242" version="1" timestamp="2022-08-01T18:53:53Z" changeset="124360617" uid="3497659" user="NKA">
		<tag k="name" v="Karlsvika" />
		<tag k="place" v="hamlet" />
		<tag k="ssr:stedsnr" v="12101" />
	</node>
	<node id="9925371181" lat="63.3412111" lon="8.6873167" version="1" timestamp="2022-08-01T18:53:53Z" changeset="124360617" uid="3497659" user="NKA">
		<tag k="name" v="Vihalsbukt" />
		<tag k="place" v="isolated_dwelling" />
		<tag k="ssr:stedsnr" v="293104" />
	</node>
	<node id="9925371182" lat="63.2960667" lon="8.5371417" version="1" timestamp="2022-08-01T18:53:53Z" changeset="124360617" uid="3497659" user="NKA">
		<tag k="name" v="Kårstad" />
		<tag k="place" v="farm" />
		<tag k="ssr:stedsnr" v="232789" />
	</node>
	<node id="9925371183" lat="63.2028694" lon="7.98545" version="1" timestamp="2022-08-01T18:53:53Z" changeset="124360617" uid="3497659" user="NKA">
		<tag k="name" v="Øya" />
		<tag k="place" v="farm" />
		<tag k="ssr:stedsnr" v="680542" />
	</node>
	<node id="9925371184" lat="63.3871" lon="8.6938777" version="1" timestamp="2022-08-01T18:53:53Z" changeset="124360617" uid="3497659" user="NKA">
		<tag k="name" v="Bjørkly" />
		<tag k="place" v="farm" />
		<tag k="ssr:stedsnr" v="620194" />
	</node>
	<node id="9925371185" lat="63.3901732" lon="8.6645723" version="1" timestamp="2022-08-01T18:53:53Z" changeset="124360617" uid="3497659" user="NKA">
		<tag k="name" v="Dromnes" />
		<tag k="place" v="hamlet" />
		<tag k="ssr:stedsnr" v="256208" />
	</node>
	<node id="9925371186" lat="63.1769082" lon="7.8341466" version="1" timestamp="2022-08-01T18:53:53Z" changeset="124360617" uid="3497659" user="NKA">
		<tag k="name" v="Langholmen" />
		<tag k="place" v="farm" />
		<tag k="ssr:stedsnr" v="977741" />
	</node>
	<node id="9925371187" lat="63.301003" lon="8.5372858" version="1" timestamp="2022-08-01T18:53:53Z" changeset="124360617" uid="3497659" user="NKA">
		<tag k="name" v="Eidet" />
		<tag k="place" v="hamlet" />
		<tag k="ssr:stedsnr" v="133317" />
	</node>
	<node id="9925371188" lat="63.2887361" lon="8.5086417" version="1" timestamp="2022-08-01T18:53:53Z" changeset="124360617" uid="3497659" user="NKA">
		<tag k="name" v="Vollsjøen" />
		<tag k="place" v="farm" />
		<tag k="ssr:stedsnr" v="133322" />
	</node>
	<node id="9925371189" lat="63.4063497" lon="8.7685766" version="1" timestamp="2022-08-01T18:53:53Z" changeset="124360617" uid="3497659" user="NKA">
		<tag k="name" v="Østrem" />
		<tag k="place" v="farm" />
		<tag k="ssr:stedsnr" v="922649" />
	</node>
	<node id="9925371190" lat="63.2921722" lon="8.6415583" version="1" timestamp="2022-08-01T18:53:53Z" changeset="124360617" uid="3497659" user="NKA">
		<tag k="historic" v="shieling" />
		<tag k="name" v="Skarsetra" />
		<tag k="place" v="isolated_dwelling" />
		<tag k="ssr:stedsnr" v="656917" />
	</node>
	<node id="9925371191" lat="63.3801336" lon="8.6408773" version="1" timestamp="2022-08-01T18:53:53Z" changeset="124360617" uid="3497659" user="NKA">
		<tag k="name" v="Rognan" />
		<tag k="place" v="hamlet" />
		<tag k="ssr:stedsnr" v="620189" />
	</node>
	<node id="9925371192" lat="63.4078345" lon="8.7302655" version="1" timestamp="2022-08-01T18:53:53Z" changeset="124360617" uid="3497659" user="NKA">
		<tag k="name" v="Neset" />
		<tag k="place" v="isolated_dwelling" />
		<tag k="ssr:stedsnr" v="778623" />
	</node>
	<node id="9925371193" lat="63.3079778" lon="8.4351444" version="1" timestamp="2022-08-01T18:53:53Z" changeset="124360617" uid="3497659" user="NKA">
		<tag k="name" v="Gjerdavika" />
		<tag k="place" v="farm" />
		<tag k="ssr:stedsnr" v="73335" />
	</node>
	<node id="9925371194" lat="63.2229053" lon="8.532353" version="1" timestamp="2022-08-01T18:53:53Z" changeset="124360617" uid="3497659" user="NKA">
		<tag k="name" v="Espvika" />
		<tag k="place" v="farm" />
		<tag k="ssr:stedsnr" v="73021" />
	</node>
	<node id="9925371195" lat="63.328007" lon="8.7091916" version="1" timestamp="2022-08-01T18:53:53Z" changeset="124360617" uid="3497659" user="NKA">
		<tag k="name" v="Bratt" />
		<tag k="place" v="farm" />
		<tag k="ssr:stedsnr" v="778150" />
	</node>
	<node id="9925371196" lat="63.3433069" lon="8.8329751" version="1" timestamp="2022-08-01T18:53:53Z" changeset="124360617" uid="3497659" user="NKA">
		<tag k="name" v="Sjøli" />
		<tag k="place" v="farm" />
		<tag k="ssr:stedsnr" v="558745" />
	</node>
	<node id="9925371197" lat="63.3282139" lon="8.4280196" version="1" timestamp="2022-08-01T18:53:53Z" changeset="124360617" uid="3497659" user="NKA">
		<tag k="alt_name" v="Eidan" />
		<tag k="name" v="Einan" />
		<tag k="place" v="farm" />
		<tag k="ssr:stedsnr" v="12177" />
	</node>
	<node id="9925371198" lat="63.3099809" lon="8.5929937" version="1" timestamp="2022-08-01T18:53:53Z" changeset="124360617" uid="3497659" user="NKA">
		<tag k="name" v="Vean" />
		<tag k="place" v="hamlet" />
		<tag k="ssr:stedsnr" v="801337" />
	</node>
	<node id="9925371199" lat="63.3874333" lon="8.6785278" version="1" timestamp="2022-08-01T18:53:53Z" changeset="124360617" uid="3497659" user="NKA">
		<tag k="name" v="Vestrem" />
		<tag k="place" v="farm" />
		<tag k="ssr:stedsnr" v="680229" />
	</node>
	<node id="9925371200" lat="63.2801778" lon="8.6182861" version="1" timestamp="2022-08-01T18:53:53Z" changeset="124360617" uid="3497659" user="NKA">
		<tag k="name" v="Liabø" />
		<tag k="place" v="farm" />
		<tag k="ssr:stedsnr" v="740240" />
	</node>
	<node id="9925371201" lat="63.3435602" lon="8.7911487" version="1" timestamp="2022-08-01T18:53:53Z" changeset="124360617" uid="3497659" user="NKA">
		<tag k="name" v="Bakkmyr" />
		<tag k="place" v="farm" />
		<tag k="ssr:stedsnr" v="437713" />
	</node>
	<node id="9925371202" lat="63.3445968" lon="8.8361236" version="1" timestamp="2022-08-01T18:53:53Z" changeset="124360617" uid="3497659" user="NKA">
		<tag k="name" v="Myren" />
		<tag k="place" v="isolated_dwelling" />
		<tag k="ssr:stedsnr" v="293856" />
	</node>
	<node id="9925371203" lat="63.3514583" lon="8.8588168" version="1" timestamp="2022-08-01T18:53:53Z" changeset="124360617" uid="3497659" user="NKA">
		<tag k="name" v="Sandmo" />
		<tag k="place" v="farm" />
		<tag k="ssr:stedsnr" v="437710" />
	</node>
	<node id="9925371204" lat="63.330294" lon="8.7265059" version="1" timestamp="2022-08-01T18:53:53Z" changeset="124360617" uid="3497659" user="NKA">
		<tag k="name" v="Hjelahamn" />
		<tag k="place" v="farm" />
		<tag k="ssr:stedsnr" v="596151" />
	</node>
	<node id="9925371205" lat="63.3523" lon="8.8456418" version="1" timestamp="2022-08-01T18:53:53Z" changeset="124360617" uid="3497659" user="NKA">
		<tag k="name" v="Fevelen" />
		<tag k="place" v="farm" />
		<tag k="ssr:stedsnr" v="862691" />
	</node>
	<node id="9925371206" lat="63.3821861" lon="8.620711" version="1" timestamp="2022-08-01T18:53:53Z" changeset="124360617" uid="3497659" user="NKA">
		<tag k="name" v="Haugly" />
		<tag k="place" v="farm" />
		<tag k="ssr:stedsnr" v="559180" />
	</node>
	<node id="9925371207" lat="63.2254916" lon="8.5212778" version="1" timestamp="2022-08-01T18:53:53Z" changeset="124360617" uid="3497659" user="NKA">
		<tag k="name" v="Sanden" />
		<tag k="place" v="farm" />
		<tag k="ssr:stedsnr" v="195042" />
	</node>
	<node id="9925371208" lat="63.3156778" lon="8.6779306" version="1" timestamp="2022-08-01T18:53:53Z" changeset="124360617" uid="3497659" user="NKA">
		<tag k="name" v="Setrin" />
		<tag k="place" v="farm" />
		<tag k="ssr:stedsnr" v="437358" />
	</node>
	<node id="9925371209" lat="63.2958417" lon="8.5371028" version="1" timestamp="2022-08-01T18:53:53Z" changeset="124360617" uid="3497659" user="NKA">
		<tag k="name" v="Trøan" />
		<tag k="place" v="farm" />
		<tag k="ssr:stedsnr" v="801358" />
	</node>
	<node id="9925371210" lat="63.2757945" lon="8.5938888" version="1" timestamp="2022-08-01T18:53:53Z" changeset="124360617" uid="3497659" user="NKA">
		<tag k="name" v="Jonsrud" />
		<tag k="place" v="farm" />
		<tag k="ssr:stedsnr" v="437290" />
	</node>
	<node id="9925371211" lat="63.2270094" lon="8.4830999" version="1" timestamp="2022-08-01T18:53:53Z" changeset="124360617" uid="3497659" user="NKA">
		<tag k="historic" v="shieling" />
		<tag k="name" v="Bugasetra" />
		<tag k="place" v="isolated_dwelling" />
		<tag k="ssr:stedsnr" v="862050" />
	</node>
	<node id="9925371212" lat="63.3181603" lon="8.6650637" version="1" timestamp="2022-08-01T18:53:53Z" changeset="124360617" uid="3497659" user="NKA">
		<tag k="name" v="Melan" />
		<tag k="place" v="hamlet" />
		<tag k="ssr:stedsnr" v="316377" />
	</node>
	<node id="9925371213" lat="63.2856815" lon="8.5252338" version="1" timestamp="2022-08-01T18:53:53Z" changeset="124360617" uid="3497659" user="NKA">
		<tag k="name" v="Vang" />
		<tag k="place" v="farm" />
		<tag k="ssr:stedsnr" v="718806" />
	</node>
	<node id="9925371214" lat="63.2674583" lon="8.2543751" version="1" timestamp="2022-08-01T18:53:53Z" changeset="124360617" uid="3497659" user="NKA">
		<tag k="name" v="Styrshamna" />
		<tag k="place" v="farm" />
		<tag k="ssr:stedsnr" v="619311" />
	</node>
	<node id="9925371215" lat="63.3502861" lon="8.632761" version="1" timestamp="2022-08-01T18:53:53Z" changeset="124360617" uid="3497659" user="NKA">
		<tag k="name" v="Ulvsnessetra" />
		<tag k="place" v="locality" />
		<tag k="ssr:stedsnr" v="255151" />
	</node>
	<node id="9925371216" lat="63.2642583" lon="8.5593361" version="1" timestamp="2022-08-01T18:53:53Z" changeset="124360617" uid="3497659" user="NKA">
		<tag k="historic" v="shieling" />
		<tag k="name" v="Heimsetra" />
		<tag k="place" v="isolated_dwelling" />
		<tag k="ssr:stedsnr" v="655103" />
	</node>
	<node id="9925371217" lat="63.2657722" lon="8.5426888" version="1" timestamp="2022-08-01T18:53:53Z" changeset="124360617" uid="3497659" user="NKA">
		<tag k="name" v="Stormyra" />
		<tag k="place" v="farm" />
		<tag k="ssr:stedsnr" v="558306" />
	</node>
	<node id="9925371218" lat="63.270625" lon="8.5458779" version="1" timestamp="2022-08-01T18:53:53Z" changeset="124360617" uid="3497659" user="NKA">
		<tag k="name" v="Snebro" />
		<tag k="place" v="farm" />
		<tag k="ssr:stedsnr" v="558281" />
	</node>
	<node id="9925371219" lat="63.3178387" lon="8.7106025" version="1" timestamp="2022-08-01T18:53:53Z" changeset="124360617" uid="3497659" user="NKA">
		<tag k="name" v="Kammen" />
		<tag k="place" v="farm" />
		<tag k="ssr:stedsnr" v="133287" />
	</node>
	<node id="9925371220" lat="63.2846861" lon="8.7799139" version="1" timestamp="2022-08-01T18:53:53Z" changeset="124360617" uid="3497659" user="NKA">
		<tag k="historic" v="shieling" />
		<tag k="name" v="Vihalssætra" />
		<tag k="place" v="isolated_dwelling" />
		<tag k="ssr:stedsnr" v="195589" />
	</node>
	<node id="9925371221" lat="63.354525" lon="8.6789945" version="1" timestamp="2022-08-01T18:53:53Z" changeset="124360617" uid="3497659" user="NKA">
		<tag k="alt_name" v="Nygård" />
		<tag k="name" v="Nygard" />
		<tag k="place" v="farm" />
		<tag k="ssr:stedsnr" v="73217" />
	</node>
	<node id="9925371222" lat="63.3360695" lon="8.6946779" version="1" timestamp="2022-08-01T18:53:53Z" changeset="124360617" uid="3497659" user="NKA">
		<tag k="name" v="Bjørnås" />
		<tag k="place" v="farm" />
		<tag k="ssr:stedsnr" v="133128" />
	</node>
	<node id="9925371223" lat="63.2783685" lon="8.5075365" version="1" timestamp="2022-08-01T18:53:53Z" changeset="124360617" uid="3497659" user="NKA">
		<tag k="name" v="Barlaupen" />
		<tag k="place" v="farm" />
		<tag k="ssr:stedsnr" v="73271" />
	</node>
	<node id="9925371224" lat="63.3691839" lon="8.6944349" version="1" timestamp="2022-08-01T18:53:53Z" changeset="124360617" uid="3497659" user="NKA">
		<tag k="name" v="Myra" />
		<tag k="place" v="farm" />
		<tag k="ssr:stedsnr" v="960810" />
	</node>
	<node id="9925371225" lat="63.2071278" lon="8.7068166" version="1" timestamp="2022-08-01T18:53:53Z" changeset="124360617" uid="3497659" user="NKA">
		<tag k="name" v="Moldbakkan" />
		<tag k="place" v="farm" />
		<tag k="ssr:stedsnr" v="255010" />
	</node>
	<node id="9925371226" lat="63.2753235" lon="8.6433773" version="1" timestamp="2022-08-01T18:53:53Z" changeset="124360617" uid="3497659" user="NKA">
		<tag k="historic" v="shieling" />
		<tag k="name" v="Ormsetsetra" />
		<tag k="place" v="isolated_dwelling" />
		<tag k="ssr:stedsnr" v="12278" />
	</node>
	<node id="9925371227" lat="63.3290371" lon="8.4329412" version="1" timestamp="2022-08-01T18:53:53Z" changeset="124360617" uid="3497659" user="NKA">
		<tag k="name" v="Postvik" />
		<tag k="place" v="isolated_dwelling" />
		<tag k="ssr:stedsnr" v="838411" />
	</node>
	<node id="9925371228" lat="63.3765" lon="8.6796084" version="1" timestamp="2022-08-01T18:53:53Z" changeset="124360617" uid="3497659" user="NKA">
		<tag k="name" v="Solbu" />
		<tag k="place" v="farm" />
		<tag k="ssr:stedsnr" v="801228" />
	</node>
	<node id="9925371229" lat="63.3903834" lon="8.78125" version="1" timestamp="2022-08-01T18:53:53Z" changeset="124360617" uid="3497659" user="NKA">
		<tag k="historic" v="shieling" />
		<tag k="name" v="Kjørviksætrin" />
		<tag k="place" v="isolated_dwelling" />
		<tag k="ssr:stedsnr" v="679600" />
	</node>
	<node id="9925371230" lat="63.354025" lon="8.8569444" version="1" timestamp="2022-08-01T18:53:53Z" changeset="124360617" uid="3497659" user="NKA">
		<tag k="name" v="Solli" />
		<tag k="place" v="farm" />
		<tag k="ssr:stedsnr" v="801668" />
	</node>
	<node id="9925371231" lat="63.3818389" lon="8.685839" version="1" timestamp="2022-08-01T18:53:53Z" changeset="124360617" uid="3497659" user="NKA">
		<tag k="historic" v="shieling" />
		<tag k="name" v="Inner Setra" />
		<tag k="place" v="isolated_dwelling" />
		<tag k="ssr:stedsnr" v="596840" />
	</node>
	<node id="9925371232" lat="63.3741556" lon="8.6822806" version="1" timestamp="2022-08-01T18:53:53Z" changeset="124360617" uid="3497659" user="NKA">
		<tag k="name" v="Bakken" />
		<tag k="place" v="isolated_dwelling" />
		<tag k="ssr:stedsnr" v="839824" />
	</node>
	<node id="9925371233" lat="63.3262489" lon="8.6905041" version="1" timestamp="2022-08-01T18:53:53Z" changeset="124360617" uid="3497659" user="NKA">
		<tag k="name" v="Trøa" />
		<tag k="place" v="farm" />
		<tag k="ssr:stedsnr" v="839067" />
	</node>
	<node id="9925371234" lat="63.383145" lon="8.6956486" version="1" timestamp="2022-08-01T18:53:53Z" changeset="124360617" uid="3497659" user="NKA">
		<tag k="name" v="Fremstad" />
		<tag k="old_name" v="Fredstad" />
		<tag k="place" v="locality" />
		<tag k="ssr:stedsnr" v="741244" />
	</node>
	<node id="9925371235" lat="63.3170056" lon="8.5839278" version="1" timestamp="2022-08-01T18:53:53Z" changeset="124360617" uid="3497659" user="NKA">
		<tag k="name" v="Klakken" />
		<tag k="place" v="farm" />
		<tag k="ssr:stedsnr" v="740308" />
	</node>
	<node id="9925371236" lat="63.3981612" lon="8.7031278" version="1" timestamp="2022-08-01T18:53:53Z" changeset="124360617" uid="3497659" user="NKA">
		<tag k="name" v="Lidarheim" />
		<tag k="place" v="farm" />
		<tag k="ssr:stedsnr" v="316233" />
	</node>
	<node id="9925371237" lat="63.3934695" lon="8.6723944" version="1" timestamp="2022-08-01T18:53:53Z" changeset="124360617" uid="3497659" user="NKA">
		<tag k="name" v="Setra" />
		<tag k="place" v="farm" />
		<tag k="ssr:stedsnr" v="741253" />
	</node>
	<node id="9925371238" lat="63.2267972" lon="8.5005084" version="1" timestamp="2022-08-01T18:53:53Z" changeset="124360617" uid="3497659" user="NKA">
		<tag k="name" v="Djupbug" />
		<tag k="place" v="farm" />
		<tag k="ssr:stedsnr" v="656098" />
	</node>
	<node id="9925371239" lat="63.3809943" lon="8.5956099" version="1" timestamp="2022-08-01T18:53:53Z" changeset="124360617" uid="3497659" user="NKA">
		<tag k="name" v="Vorphaugen" />
		<tag k="place" v="farm" />
		<tag k="ssr:stedsnr" v="171083" />
	</node>
	<node id="9925371240" lat="63.3903" lon="8.5796444" version="1" timestamp="2022-08-01T18:53:53Z" changeset="124360617" uid="3497659" user="NKA">
		<tag k="alt_name" v="Myra" />
		<tag k="name" v="Nordstrand" />
		<tag k="place" v="farm" />
		<tag k="ssr:stedsnr" v="134245" />
	</node>
	<node id="9925371241" lat="63.27485" lon="8.4576223" version="1" timestamp="2022-08-01T18:53:53Z" changeset="124360617" uid="3497659" user="NKA">
		<tag k="historic" v="shieling" />
		<tag k="name" v="Stølan" />
		<tag k="place" v="isolated_dwelling" />
		<tag k="ssr:stedsnr" v="655328" />
	</node>
	<node id="9925371242" lat="63.3835805" lon="8.6707333" version="1" timestamp="2022-08-01T18:53:53Z" changeset="124360617" uid="3497659" user="NKA">
		<tag k="alt_name" v="Kvennavik" />
		<tag k="name" v="Kvernavika" />
		<tag k="place" v="farm" />
		<tag k="ssr:stedsnr" v="48851" />
	</node>
	<node id="9925371243" lat="63.3840167" lon="8.766389" version="1" timestamp="2022-08-01T18:53:53Z" changeset="124360617" uid="3497659" user="NKA">
		<tag k="historic" v="shieling" />
		<tag k="name" v="Vollasætra" />
		<tag k="place" v="isolated_dwelling" />
		<tag k="ssr:stedsnr" v="862640" />
	</node>
	<node id="9925371244" lat="63.4011347" lon="8.7085093" version="1" timestamp="2022-08-01T18:53:53Z" changeset="124360617" uid="3497659" user="NKA">
		<tag k="alt_name" v="Bergem" />
		<tag k="name" v="Bergheim" />
		<tag k="place" v="farm" />
		<tag k="ssr:stedsnr" v="412824" />
	</node>
	<node id="9925371245" lat="63.4091389" lon="8.7185499" version="1" timestamp="2022-08-01T18:53:53Z" changeset="124360617" uid="3497659" user="NKA">
		<tag k="name" v="Myra" />
		<tag k="place" v="farm" />
		<tag k="ssr:stedsnr" v="862652" />
	</node>
	<node id="9925371246" lat="63.3267186" lon="8.6949617" version="1" timestamp="2022-08-01T18:53:53Z" changeset="124360617" uid="3497659" user="NKA">
		<tag k="name" v="Stemshaug" />
		<tag k="place" v="farm" />
		<tag k="ssr:stedsnr" v="535077" />
	</node>
	<node id="9925371247" lat="63.3431317" lon="8.8016954" version="1" timestamp="2022-08-01T18:53:53Z" changeset="124360617" uid="3497659" user="NKA">
		<tag k="name" v="Øverbakk" />
		<tag k="place" v="farm" />
		<tag k="ssr:stedsnr" v="498742" />
	</node>
	<node id="9925371248" lat="63.3810167" lon="8.5901833" version="1" timestamp="2022-08-01T18:53:53Z" changeset="124360617" uid="3497659" user="NKA">
		<tag k="name" v="Skogly" />
		<tag k="place" v="farm" />
		<tag k="ssr:stedsnr" v="195221" />
	</node>
	<node id="9925371249" lat="63.38695" lon="8.6810944" version="1" timestamp="2022-08-01T18:53:53Z" changeset="124360617" uid="3497659" user="NKA">
		<tag k="name" v="Østrem" />
		<tag k="place" v="farm" />
		<tag k="ssr:stedsnr" v="438186" />
	</node>
	<node id="9925371250" lat="63.3634" lon="8.6543945" version="1" timestamp="2022-08-01T18:53:53Z" changeset="124360617" uid="3497659" user="NKA">
		<tag k="historic" v="shieling" />
		<tag k="name" v="Gammelsetra" />
		<tag k="place" v="isolated_dwelling" />
		<tag k="ssr:stedsnr" v="292104" />
	</node>
	<node id="9925371251" lat="63.4104389" lon="8.7126916" version="1" timestamp="2022-08-01T18:53:53Z" changeset="124360617" uid="3497659" user="NKA">
		<tag k="name" v="Saglia" />
		<tag k="place" v="farm" />
		<tag k="ssr:stedsnr" v="559051" />
	</node>
	<node id="9925371252" lat="63.3138556" lon="8.6227279" version="1" timestamp="2022-08-01T18:53:53Z" changeset="124360617" uid="3497659" user="NKA">
		<tag k="name" v="Olderbakkan" />
		<tag k="place" v="farm" />
		<tag k="ssr:stedsnr" v="437360" />
	</node>
</osm>
