<?xml version="1.0" encoding="UTF-8"?>
<osm generator="osmapis" version="0.6">
	<node id="-161280" lat="59.638477779" lon="9.44618332548">
		<tag k="name" v="Multedokka" />
		<tag k="natural" v="wetland" />
		<tag k="ssr:stedsnr" v="849034" />
	</node>
	<node id="-159739" lat="59.4901250044" lon="9.61777500351">
		<tag k="name" v="Fagervassløkene" />
		<tag k="natural" v="wetland" />
		<tag k="ssr:stedsnr" v="245555" />
	</node>
	<node id="-160762" lat="59.7320916633" lon="9.41692777231">
		<tag k="name" v="Bleikemyr" />
		<tag k="natural" v="wetland" />
		<tag k="ssr:stedsnr" v="670433" />
	</node>
	<node id="-160245" lat="59.6014027736" lon="9.81207499153">
		<tag k="name" v="Finneløkka" />
		<tag k="place" v="locality" />
		<tag k="ssr:stedsnr" v="512648" />
	</node>
	<node id="-158695" lat="59.5744027799" lon="9.85113610875">
		<tag k="name" v="Kråkemyr" />
		<tag k="natural" v="wetland" />
		<tag k="ssr:stedsnr" v="363998" />
	</node>
	<node id="-160742" lat="59.6365972211" lon="9.74553889718">
		<tag k="name" v="Blårudmyra" />
		<tag k="natural" v="wetland" />
		<tag k="ssr:stedsnr" v="667630" />
	</node>
	<node id="-159717" lat="59.614347226" lon="9.80734167288">
		<tag k="name" v="Kristenhogsten" />
		<tag k="place" v="locality" />
		<tag k="ssr:stedsnr" v="242935" />
	</node>
	<node id="-160740" lat="59.5170749997" lon="9.98388055167">
		<tag k="name" v="Lynildmyra" />
		<tag k="natural" v="wetland" />
		<tag k="ssr:stedsnr" v="667610" />
	</node>
	<node id="-161250" lat="59.5469583373" lon="9.91422221415">
		<tag k="name" v="Lortebrumyra" />
		<tag k="natural" v="wetland" />
		<tag k="ssr:stedsnr" v="813769" />
	</node>
	<node id="-159227" lat="59.7246722244" lon="9.53581110997">
		<tag k="name" v="Holbekkmyra" />
		<tag k="natural" v="wetland" />
		<tag k="ssr:stedsnr" v="120137" />
	</node>
	<node id="-160736" lat="59.4526944443" lon="9.60590000527">
		<tag k="historic" v="shieling" />
		<tag k="name" v="Ramsstul" />
		<tag k="place" v="locality" />
		<tag k="ssr:stedsnr" v="667471" />
	</node>
	<node id="-160223" lat="59.5039722232" lon="9.87755278406">
		<tag k="landuse" v="meadow" />
		<tag k="name" v="Dorteajordet" />
		<tag k="ssr:stedsnr" v="508845" />
	</node>
	<node id="-161756" lat="59.4758999993" lon="9.71112222179">
		<tag k="name" v="Tretjernmyra" />
		<tag k="natural" v="wetland" />
		<tag k="ssr:stedsnr" v="970295" />
	</node>
	<node id="-160219" lat="59.5126583343" lon="9.89610555769">
		<tag k="name" v="Tveithavna" />
		<tag k="place" v="locality" />
		<tag k="ssr:stedsnr" v="508815" />
	</node>
	<node id="-161754" lat="59.5978250019" lon="9.63371666766">
		<tag k="name" v="Bleikemyr" />
		<tag k="natural" v="wetland" />
		<tag k="ssr:stedsnr" v="970272" />
	</node>
	<node id="-161753" lat="59.5994777784" lon="9.62464166935">
		<tag k="name" v="Limmyr" />
		<tag k="natural" v="wetland" />
		<tag k="ssr:stedsnr" v="970269" />
	</node>
	<node id="-161236" lat="59.4862722192" lon="9.81641388911">
		<tag k="name" v="Tjernmyr" />
		<tag k="natural" v="wetland" />
		<tag k="ssr:stedsnr" v="812885" />
	</node>
	<node id="-159184" lat="59.6727638873" lon="9.69940000404">
		<tag k="landuse" v="quarry" />
		<tag k="name" v="Pukkverket" />
		<tag k="ssr:stedsnr" v="85403" />
	</node>
	<node id="-160718" lat="59.556108329" lon="9.84885277625">
		<tag k="name" v="Bjørnemyr" />
		<tag k="natural" v="wetland" />
		<tag k="ssr:stedsnr" v="666821" />
	</node>
	<node id="-161741" lat="59.7124944417" lon="9.39741666236">
		<tag k="name" v="Løkjamyra" />
		<tag k="natural" v="wetland" />
		<tag k="ssr:stedsnr" v="970177" />
	</node>
	<node id="-161228" lat="59.519416669" lon="9.87420833666">
		<tag k="name" v="Bråtan" />
		<tag k="place" v="locality" />
		<tag k="ssr:stedsnr" v="812805" />
	</node>
	<node id="-160201" lat="59.6542944486" lon="9.67626110789">
		<tag k="name" v="Eilertsløkka" />
		<tag k="place" v="locality" />
		<tag k="ssr:stedsnr" v="508552" />
	</node>
	<node id="-158664" lat="59.5549805549" lon="9.54861111514">
		<tag k="name" v="Hemyra" />
		<tag k="natural" v="wetland" />
		<tag k="ssr:stedsnr" v="363524" />
	</node>
	<node id="-161735" lat="59.6265472216" lon="9.75685832791">
		<tag k="name" v="Torvstrømyra" />
		<tag k="natural" v="wetland" />
		<tag k="ssr:stedsnr" v="970126" />
	</node>
	<node id="-161732" lat="59.633505556" lon="9.78166388931">
		<tag k="name" v="Klokkerhugsten" />
		<tag k="place" v="locality" />
		<tag k="ssr:stedsnr" v="970117" />
	</node>
	<node id="-160700" lat="59.6270805573" lon="9.53319166646">
		<tag k="name" v="Postmyra" />
		<tag k="natural" v="wetland" />
		<tag k="ssr:stedsnr" v="666553" />
	</node>
	<node id="-159162" lat="59.5800361153" lon="9.6727777842">
		<tag k="name" v="Hengsmyra" />
		<tag k="natural" v="wetland" />
		<tag k="ssr:stedsnr" v="84730" />
	</node>
	<node id="-160697" lat="59.491636115" lon="9.62612778092">
		<tag k="name" v="Fagervannmyrene" />
		<tag k="natural" v="wetland" />
		<tag k="ssr:stedsnr" v="666546" />
	</node>
	<node id="-161720" lat="59.5828083331" lon="9.84300832687">
		<tag k="name" v="Gravningsmyr" />
		<tag k="natural" v="wetland" />
		<tag k="ssr:stedsnr" v="969981" />
	</node>
	<node id="-158645" lat="59.7278111135" lon="9.38639721691">
		<tag k="name" v="Andehølmyra" />
		<tag k="natural" v="wetland" />
		<tag k="ssr:stedsnr" v="363173" />
	</node>
	<node id="-160692" lat="59.5011833296" lon="9.75030277267">
		<tag k="name" v="Torkelkleivmyra" />
		<tag k="natural" v="wetland" />
		<tag k="ssr:stedsnr" v="666426" />
	</node>
	<node id="-159153" lat="59.5365472232" lon="9.90818055748">
		<tag k="name" v="Bergendalmyra" />
		<tag k="natural" v="wetland" />
		<tag k="ssr:stedsnr" v="84793" />
	</node>
	<node id="-161710" lat="59.4901805553" lon="9.56941944065">
		<tag k="name" v="Løkemyr" />
		<tag k="natural" v="wetland" />
		<tag k="ssr:stedsnr" v="969586" />
	</node>
	<node id="-158877" lat="59.7226499956" lon="9.41764722227">
		<tag k="alt_name" v="Hukamyrane" />
		<tag k="name" v="Hukumyrane" />
		<tag k="natural" v="wetland" />
		<tag k="ssr:stedsnr" v="3418" />
	</node>
	<node id="-160683" lat="59.7306805595" lon="9.39069722006">
		<tag k="name" v="Svenskerud" />
		<tag k="natural" v="wetland" />
		<tag k="ssr:stedsnr" v="666206" />
	</node>
	<node id="-158632" lat="59.4697250041" lon="9.95068333173">
		<tag k="name" v="Kakemyr" />
		<tag k="natural" v="wetland" />
		<tag k="ssr:stedsnr" v="363123" />
	</node>
	<node id="-159654" lat="59.5520472221" lon="9.92216667472">
		<tag k="name" v="Granamyrene" />
		<tag k="natural" v="wetland" />
		<tag k="ssr:stedsnr" v="241779" />
	</node>
	<node id="-160674" lat="59.70323056" lon="9.35887222983">
		<tag k="name" v="Hestemyra" />
		<tag k="natural" v="wetland" />
		<tag k="ssr:stedsnr" v="666128" />
	</node>
	<node id="-158944" lat="59.4886583321" lon="9.8504638902">
		<tag k="name" v="Langemyr" />
		<tag k="natural" v="wetland" />
		<tag k="ssr:stedsnr" v="23835" />
	</node>
	<node id="-160672" lat="59.690174996" lon="9.38377777694">
		<tag k="name" v="Godtentjernmyrene" />
		<tag k="natural" v="wetland" />
		<tag k="ssr:stedsnr" v="666117" />
	</node>
	<node id="-161695" lat="59.4644250015" lon="9.93213055745">
		<tag k="name" v="Tretjernmyr" />
		<tag k="natural" v="wetland" />
		<tag k="ssr:stedsnr" v="969144" />
	</node>
	<node id="-159134" lat="59.4601777789" lon="9.78488333173">
		<tag k="name" v="Diplemyr" />
		<tag k="natural" v="wetland" />
		<tag k="ssr:stedsnr" v="70687" />
	</node>
	<node id="-161693" lat="59.7362694426" lon="9.45940277944">
		<tag k="name" v="Torvmyra" />
		<tag k="natural" v="wetland" />
		<tag k="ssr:stedsnr" v="969135" />
	</node>
	<node id="-160668" lat="59.6717027759" lon="9.48419167023">
		<tag k="name" v="Femtjernmyrene" />
		<tag k="natural" v="wetland" />
		<tag k="ssr:stedsnr" v="666029" />
	</node>
	<node id="-159641" lat="59.7061861119" lon="9.57114722213">
		<tag k="historic" v="shieling" />
		<tag k="name" v="Åmodtstul" />
		<tag k="place" v="locality" />
		<tag k="ssr:stedsnr" v="242074" />
	</node>
	<node id="-158616" lat="59.7599999963" lon="9.38739166567">
		<tag k="name" v="Løkjamyra" />
		<tag k="natural" v="wetland" />
		<tag k="ssr:stedsnr" v="358460" />
	</node>
	<node id="-160016" lat="59.6767749959" lon="9.60012499803">
		<tag k="landuse" v="quarry" />
		<tag k="name" v="Braunschweig gruve" />
		<tag k="ssr:stedsnr" v="448934" />
	</node>
	<node id="-159980" lat="59.4598388858" lon="10.0149694466">
		<tag k="name" v="Borgershamna" />
		<tag k="place" v="locality" />
		<tag k="ssr:stedsnr" v="448775" />
	</node>
	<node id="-160646" lat="59.6599444406" lon="9.73125554926">
		<tag k="name" v="Kapteinsbråten" />
		<tag k="place" v="locality" />
		<tag k="ssr:stedsnr" v="632990" />
	</node>
	<node id="-161157" lat="59.6212500017" lon="9.55209999451">
		<tag k="name" v="Langemyr" />
		<tag k="natural" v="wetland" />
		<tag k="ssr:stedsnr" v="791876" />
	</node>
	<node id="-160644" lat="59.5359388906" lon="9.90304999438">
		<tag k="name" v="Den lange myra" />
		<tag k="natural" v="wetland" />
		<tag k="ssr:stedsnr" v="630739" />
	</node>
	<node id="-160643" lat="59.5379000015" lon="9.88300833642">
		<tag k="name" v="Magnusmyr" />
		<tag k="natural" v="wetland" />
		<tag k="ssr:stedsnr" v="630727" />
	</node>
	<node id="-161666" lat="59.6168750036" lon="9.73700832927">
		<tag k="name" v="Plassmyrene" />
		<tag k="natural" v="wetland" />
		<tag k="ssr:stedsnr" v="933884" />
	</node>
	<node id="-161153" lat="59.4781111081" lon="9.85197777231">
		<tag k="name" v="Sagmyra" />
		<tag k="natural" v="wetland" />
		<tag k="ssr:stedsnr" v="791598" />
	</node>
	<node id="-161373" lat="59.7272750029" lon="9.50910555812">
		<tag k="alt_name" v="Kalvemyr" />
		<tag k="name" v="Kalvemyra" />
		<tag k="natural" v="wetland" />
		<tag k="ssr:stedsnr" v="853448" />
	</node>
	<node id="-159611" lat="59.6577722246" lon="9.70973332627">
		<tag k="name" v="Rosenmyr" />
		<tag k="natural" v="wetland" />
		<tag k="ssr:stedsnr" v="268996" />
	</node>
	<node id="-161658" lat="59.5791777764" lon="9.66516389158">
		<tag k="name" v="Skrubbebråtan" />
		<tag k="natural" v="wetland" />
		<tag k="ssr:stedsnr" v="933773" />
	</node>
	<node id="-159601" lat="59.5343666671" lon="9.9177944457">
		<tag k="name" v="Hedmyr" />
		<tag k="natural" v="wetland" />
		<tag k="ssr:stedsnr" v="206765" />
	</node>
	<node id="-160623" lat="59.6210777782" lon="9.73388333392">
		<tag k="name" v="Wittenbergmyra" />
		<tag k="natural" v="wetland" />
		<tag k="ssr:stedsnr" v="629870" />
	</node>
	<node id="-161642" lat="59.5813666627" lon="9.59991667258">
		<tag k="name" v="Porsmyra" />
		<tag k="natural" v="wetland" />
		<tag k="ssr:stedsnr" v="933392" />
	</node>
	<node id="-160105" lat="59.5115805538" lon="9.98746388981">
		<tag k="name" v="Askedalsmyra" />
		<tag k="natural" v="wetland" />
		<tag k="ssr:stedsnr" v="484657" />
	</node>
	<node id="-160615" lat="59.5217305571" lon="9.89379999351">
		<tag k="name" v="Rekstebråtan" />
		<tag k="place" v="locality" />
		<tag k="ssr:stedsnr" v="629739" />
	</node>
	<node id="-161124" lat="59.5841972185" lon="9.71664723009">
		<tag k="name" v="Tuvemyr" />
		<tag k="natural" v="wetland" />
		<tag k="ssr:stedsnr" v="788782" />
	</node>
	<node id="-159206" lat="59.6566277777" lon="9.52833610446">
		<tag k="name" v="Florensmyrene" />
		<tag k="natural" v="wetland" />
		<tag k="ssr:stedsnr" v="120014" />
	</node>
	<node id="-160610" lat="59.6149111144" lon="9.67188610275">
		<tag k="name" v="Myrehagan" />
		<tag k="old_name" v="Myhrehagan" />
		<tag k="place" v="locality" />
		<tag k="ssr:stedsnr" v="629700" />
	</node>
	<node id="-159585" lat="59.6153027774" lon="9.70223055089">
		<tag k="name" v="Tofstadhagan" />
		<tag k="place" v="locality" />
		<tag k="ssr:stedsnr" v="205863" />
	</node>
	<node id="-159888" lat="59.5220166675" lon="9.80193610304">
		<tag k="name" v="Ospeholtet" />
		<tag k="place" v="locality" />
		<tag k="ssr:stedsnr" v="424558" />
	</node>
	<node id="-159581" lat="59.5154972179" lon="9.88866110233">
		<tag k="name" v="Ulebergplassen" />
		<tag k="place" v="locality" />
		<tag k="ssr:stedsnr" v="205816" />
	</node>
	<node id="-158436" lat="59.4834805597" lon="9.82667222233">
		<tag k="name" v="Møymyr" />
		<tag k="natural" v="wetland" />
		<tag k="ssr:stedsnr" v="302256" />
	</node>
	<node id="-159574" lat="59.5921000023" lon="9.68644722372">
		<tag k="name" v="Lureplass" />
		<tag k="place" v="locality" />
		<tag k="ssr:stedsnr" v="205692" />
	</node>
	<node id="-159572" lat="59.6753777802" lon="9.60230833447">
		<tag k="landuse" v="quarry" />
		<tag k="name" v="Blygangen gruve" />
		<tag k="ssr:stedsnr" v="205652" />
	</node>
	<node id="-161422" lat="59.4694583315" lon="10.0438972279">
		<tag k="name" v="Bossmyr" />
		<tag k="natural" v="wetland" />
		<tag k="ssr:stedsnr" v="873243" />
	</node>
	<node id="-161618" lat="59.563963893" lon="9.73058333703">
		<tag k="alt_name" v="Stormyr" />
		<tag k="name" v="Storemyr" />
		<tag k="natural" v="wetland" />
		<tag k="ssr:stedsnr" v="914373" />
	</node>
	<node id="-159055" lat="59.4898361096" lon="9.50434445323">
		<tag k="name" v="Løkemyr" />
		<tag k="natural" v="wetland" />
		<tag k="ssr:stedsnr" v="60596" />
	</node>
	<node id="-160078" lat="59.5000499993" lon="9.74134166532">
		<tag k="name" v="Digerhaugmyra" />
		<tag k="natural" v="wetland" />
		<tag k="ssr:stedsnr" v="484392" />
	</node>
	<node id="-160076" lat="59.518797223" lon="9.67210278133">
		<tag k="name" v="Godangen" />
		<tag k="natural" v="wetland" />
		<tag k="ssr:stedsnr" v="484369" />
	</node>
	<node id="-161610" lat="59.6423472204" lon="9.50682777322">
		<tag k="name" v="Kjelkemyra" />
		<tag k="natural" v="wetland" />
		<tag k="ssr:stedsnr" v="913883" />
	</node>
	<node id="-161096" lat="59.7094861086" lon="9.38552776972">
		<tag k="name" v="Geitemyra" />
		<tag k="natural" v="wetland" />
		<tag k="ssr:stedsnr" v="788129" />
	</node>
	<node id="-158535" lat="59.4692138897" lon="9.95668611866">
		<tag k="alt_name" v="Langemyr" />
		<tag k="name" v="Langmyr" />
		<tag k="natural" v="wetland" />
		<tag k="ssr:stedsnr" v="306564" />
	</node>
	<node id="-159045" lat="59.5253666684" lon="9.63171944615">
		<tag k="name" v="Torskemyra" />
		<tag k="natural" v="wetland" />
		<tag k="ssr:stedsnr" v="60358" />
	</node>
	<node id="-160063" lat="59.4699111094" lon="9.98023055663">
		<tag k="name" v="Matmåsan" />
		<tag k="natural" v="wetland" />
		<tag k="ssr:stedsnr" v="484176" />
	</node>
	<node id="-160061" lat="59.6080916711" lon="9.62788611586">
		<tag k="name" v="Delsmyr" />
		<tag k="natural" v="wetland" />
		<tag k="ssr:stedsnr" v="484166" />
	</node>
	<node id="-160059" lat="59.4834916681" lon="9.86267222222">
		<tag k="name" v="Kjerringfjellmyra" />
		<tag k="natural" v="wetland" />
		<tag k="ssr:stedsnr" v="484130" />
	</node>
	<node id="-160564" lat="59.6926944428" lon="9.4002555626">
		<tag k="historic" v="shieling" />
		<tag k="name" v="Sleiken" />
		<tag k="place" v="locality" />
		<tag k="ssr:stedsnr" v="609946" />
	</node>
	<node id="-161074" lat="59.4190500032" lon="9.67955277374">
		<tag k="historic" v="shieling" />
		<tag k="name" v="Gåserudseter" />
		<tag k="place" v="locality" />
		<tag k="ssr:stedsnr" v="787645" />
	</node>
	<node id="-159537" lat="59.6343277768" lon="9.45465832746">
		<tag k="name" v="Storemyr" />
		<tag k="natural" v="wetland" />
		<tag k="ssr:stedsnr" v="185853" />
	</node>
	<node id="-160560" lat="59.6458249997" lon="9.44589999315">
		<tag k="alt_name" v="Diplemyr" />
		<tag k="name" v="Diplemyrane" />
		<tag k="natural" v="wetland" />
		<tag k="ssr:stedsnr" v="609868" />
	</node>
	<node id="-160904" lat="59.4943972196" lon="9.50916389099">
		<tag k="name" v="Dalsmyr" />
		<tag k="natural" v="wetland" />
		<tag k="ssr:stedsnr" v="727620" />
	</node>
	<node id="-161069" lat="59.5385750042" lon="9.53290555092">
		<tag k="name" v="Rolighølet" />
		<tag k="natural" v="wetland" />
		<tag k="ssr:stedsnr" v="787601" />
	</node>
	<node id="-159026" lat="59.7042583308" lon="9.38241110778">
		<tag k="historic" v="shieling" />
		<tag k="name" v="Gamlesetra" />
		<tag k="place" v="locality" />
		<tag k="ssr:stedsnr" v="60134" />
	</node>
	<node id="-160042" lat="59.7341444459" lon="9.36624722666">
		<tag k="name" v="Engane" />
		<tag k="natural" v="wetland" />
		<tag k="ssr:stedsnr" v="480922" />
	</node>
	<node id="-159016" lat="59.6457222202" lon="9.41972500737">
		<tag k="name" v="Finnemyrene" />
		<tag k="natural" v="wetland" />
		<tag k="ssr:stedsnr" v="60025" />
	</node>
	<node id="-158503" lat="59.51718333" lon="9.97550554794">
		<tag k="name" v="Lortemyr" />
		<tag k="natural" v="wetland" />
		<tag k="ssr:stedsnr" v="303686" />
	</node>
	<node id="-161060" lat="59.5349138856" lon="9.61992778654">
		<tag k="name" v="Dammyra" />
		<tag k="natural" v="wetland" />
		<tag k="ssr:stedsnr" v="787363" />
	</node>
	<node id="-159520" lat="59.5433749968" lon="9.96118888273">
		<tag k="name" v="Flottmyr" />
		<tag k="natural" v="wetland" />
		<tag k="ssr:stedsnr" v="185387" />
	</node>
	<node id="-161054" lat="59.469044442" lon="9.89428055592">
		<tag k="name" v="Bjørnemyr" />
		<tag k="natural" v="wetland" />
		<tag k="ssr:stedsnr" v="787152" />
	</node>
	<node id="-160730" lat="59.5829722224" lon="9.84958333271">
		<tag k="name" v="Villngsmyr" />
		<tag k="natural" v="wetland" />
		<tag k="ssr:stedsnr" v="666991" />
	</node>
	<node id="-160024" lat="59.6491111139" lon="9.77116110586">
		<tag k="name" v="Hasselskogene" />
		<tag k="place" v="locality" />
		<tag k="ssr:stedsnr" v="449522" />
	</node>
	<node id="-159620" lat="59.4706916701" lon="9.84536665864">
		<tag k="name" v="Kirkemyr" />
		<tag k="natural" v="wetland" />
		<tag k="ssr:stedsnr" v="241230" />
	</node>
	<node id="-161045" lat="59.6147305561" lon="9.81688611141">
		<tag k="name" v="Sagmyra" />
		<tag k="natural" v="wetland" />
		<tag k="ssr:stedsnr" v="755927" />
	</node>
	<node id="-161555" lat="59.6479416686" lon="9.70787777845">
		<tag k="name" v="Langmyr" />
		<tag k="natural" v="wetland" />
		<tag k="ssr:stedsnr" v="910134" />
	</node>
	<node id="-158992" lat="59.4637361113" lon="9.62760556203">
		<tag k="historic" v="shieling" />
		<tag k="name" v="Bjørntjernseter" />
		<tag k="place" v="locality" />
		<tag k="ssr:stedsnr" v="59546" />
	</node>
	<node id="-158479" lat="59.5728027741" lon="9.85980555451">
		<tag k="name" v="Store Damvannsmyra" />
		<tag k="natural" v="wetland" />
		<tag k="ssr:stedsnr" v="302982" />
	</node>
	<node id="-161036" lat="59.5384444445" lon="9.9003749995">
		<tag k="name" v="Steinsmyr" />
		<tag k="natural" v="wetland" />
		<tag k="ssr:stedsnr" v="752765" />
	</node>
	<node id="-161035" lat="59.5392277763" lon="9.91440278485">
		<tag k="name" v="Ivarløkka" />
		<tag k="place" v="locality" />
		<tag k="ssr:stedsnr" v="752754" />
	</node>
	<node id="-160009" lat="59.5531805521" lon="9.81061388796">
		<tag k="landuse" v="meadow" />
		<tag k="name" v="Nordenga" />
		<tag k="ssr:stedsnr" v="448862" />
	</node>
	<node id="-161031" lat="59.6410027767" lon="9.78695834085">
		<tag k="name" v="Dammyr" />
		<tag k="natural" v="wetland" />
		<tag k="ssr:stedsnr" v="752534" />
	</node>
	<node id="-160518" lat="59.5477416631" lon="9.70115833728">
		<tag k="name" v="Kloppmyr" />
		<tag k="natural" v="wetland" />
		<tag k="ssr:stedsnr" v="606640" />
	</node>
	<node id="-160129" lat="59.418566665" lon="9.71331389577">
		<tag k="alt_name" v="Limyrene" />
		<tag k="name" v="Limyrane" />
		<tag k="natural" v="wetland" />
		<tag k="ssr:stedsnr" v="487594" />
	</node>
	<node id="-160004" lat="59.5171472212" lon="9.87119721499">
		<tag k="name" v="Tjubørje" />
		<tag k="place" v="locality" />
		<tag k="ssr:stedsnr" v="448822" />
	</node>
	<node id="-160003" lat="59.5183083296" lon="9.89049999261">
		<tag k="name" v="Furumoen" />
		<tag k="place" v="locality" />
		<tag k="ssr:stedsnr" v="448820" />
	</node>
	<node id="-159487" lat="59.5303722208" lon="9.93278333332">
		<tag k="name" v="Tretjernmyr" />
		<tag k="natural" v="wetland" />
		<tag k="ssr:stedsnr" v="181645" />
	</node>
	<node id="-161533" lat="59.7231444438" lon="9.56642221377">
		<tag k="name" v="Gravningsmyr" />
		<tag k="natural" v="wetland" />
		<tag k="ssr:stedsnr" v="909624" />
	</node>
	<node id="-158970" lat="59.5194583375" lon="9.86651388587">
		<tag k="name" v="Borgehovet" />
		<tag k="place" v="locality" />
		<tag k="ssr:stedsnr" v="24793" />
	</node>
	<node id="-158969" lat="59.5406805541" lon="9.88947777807">
		<tag k="name" v="Bjørneskottet" />
		<tag k="natural" v="wetland" />
		<tag k="ssr:stedsnr" v="24786" />
	</node>
	<node id="-158968" lat="59.5418416634" lon="9.90829166994">
		<tag k="name" v="Hanseløkkene" />
		<tag k="place" v="locality" />
		<tag k="ssr:stedsnr" v="24780" />
	</node>
	<node id="-159479" lat="59.5746277767" lon="9.506391672">
		<tag k="name" v="Bjørkesetermyrene" />
		<tag k="natural" v="wetland" />
		<tag k="ssr:stedsnr" v="181596" />
	</node>
	<node id="-161014" lat="59.5179027811" lon="9.88744444265">
		<tag k="name" v="Ulebergplassen" />
		<tag k="place" v="locality" />
		<tag k="ssr:stedsnr" v="751827" />
	</node>
	<node id="-158965" lat="59.6398638849" lon="9.76723888048">
		<tag k="name" v="Teigenskogene" />
		<tag k="place" v="locality" />
		<tag k="ssr:stedsnr" v="24569" />
	</node>
	<node id="-161006" lat="59.5651333301" lon="9.62677221624">
		<tag k="name" v="Syverslinna" />
		<tag k="place" v="locality" />
		<tag k="ssr:stedsnr" v="751737" />
	</node>
	<node id="-160492" lat="59.5519361081" lon="9.93659999966">
		<tag k="name" v="Steinsmyr" />
		<tag k="natural" v="wetland" />
		<tag k="ssr:stedsnr" v="605785" />
	</node>
	<node id="-159467" lat="59.6023194469" lon="9.46880555192">
		<tag k="name" v="Bjørkemyra" />
		<tag k="natural" v="wetland" />
		<tag k="ssr:stedsnr" v="181551" />
	</node>
	<node id="-161002" lat="59.6208138853" lon="9.64814444053">
		<tag k="landuse" v="quarry" />
		<tag k="name" v="Blårud skjerp" />
		<tag k="ssr:stedsnr" v="751258" />
	</node>
	<node id="-158440" lat="59.5634472256" lon="9.68100832884">
		<tag k="name" v="Grønnhvila" />
		<tag k="natural" v="wetland" />
		<tag k="ssr:stedsnr" v="302357" />
	</node>
	<node id="-160999" lat="59.6258416698" lon="9.62911111905">
		<tag k="name" v="Jordbrua" />
		<tag k="place" v="locality" />
		<tag k="ssr:stedsnr" v="751241" />
	</node>
	<node id="-161508" lat="59.4700777793" lon="9.93154445227">
		<tag k="name" v="Breimyr" />
		<tag k="natural" v="wetland" />
		<tag k="ssr:stedsnr" v="909148" />
	</node>
	<node id="-159968" lat="59.6196250016" lon="9.55982222014">
		<tag k="name" v="Storemyr" />
		<tag k="natural" v="wetland" />
		<tag k="ssr:stedsnr" v="428878" />
	</node>
	<node id="-161501" lat="59.426211108" lon="9.73838611691">
		<tag k="name" v="Nordidalsmyr" />
		<tag k="natural" v="wetland" />
		<tag k="ssr:stedsnr" v="909100" />
	</node>
	<node id="-160122" lat="59.4727222257" lon="9.85341388974">
		<tag k="name" v="Dritmyr" />
		<tag k="natural" v="wetland" />
		<tag k="ssr:stedsnr" v="485175" />
	</node>
	<node id="-160463" lat="59.7377138856" lon="9.38386111384">
		<tag k="landuse" v="meadow" />
		<tag k="name" v="Hagan" />
		<tag k="ssr:stedsnr" v="605226" />
	</node>
	<node id="-159443" lat="59.4726944421" lon="9.89893055303">
		<tag k="name" v="Store Eknesmyr" />
		<tag k="natural" v="wetland" />
		<tag k="ssr:stedsnr" v="181166" />
	</node>
	<node id="-161490" lat="59.7469944405" lon="9.43951665932">
		<tag k="name" v="Roligmyrene" />
		<tag k="natural" v="wetland" />
		<tag k="ssr:stedsnr" v="905927" />
	</node>
	<node id="-159440" lat="59.7307500018" lon="9.54289722305">
		<tag k="name" v="Dyrmyra" />
		<tag k="natural" v="wetland" />
		<tag k="ssr:stedsnr" v="181149" />
	</node>
	<node id="-161487" lat="59.7436361106" lon="9.34631667417">
		<tag k="name" v="Kjørkeholtet" />
		<tag k="place" v="locality" />
		<tag k="ssr:stedsnr" v="905498" />
	</node>
	<node id="-158924" lat="59.6454361118" lon="9.67488610792">
		<tag k="name" v="Steinmyrløkka" />
		<tag k="place" v="locality" />
		<tag k="ssr:stedsnr" v="23565" />
	</node>
	<node id="-160456" lat="59.7212305514" lon="9.47884444955">
		<tag k="historic" v="shieling" />
		<tag k="name" v="Jondalssetra" />
		<tag k="place" v="locality" />
		<tag k="ssr:stedsnr" v="605157" />
	</node>
	<node id="-159429" lat="59.6195027765" lon="9.56086388691">
		<tag k="name" v="Glomstulmyra" />
		<tag k="natural" v="wetland" />
		<tag k="ssr:stedsnr" v="181064" />
	</node>
	<node id="-159425" lat="59.7672194409" lon="9.3936527721">
		<tag k="name" v="Brennrustin" />
		<tag k="place" v="locality" />
		<tag k="ssr:stedsnr" v="176439" />
	</node>
	<node id="-160446" lat="59.6333527822" lon="9.47372499165">
		<tag k="name" v="Gullikmyra" />
		<tag k="natural" v="wetland" />
		<tag k="ssr:stedsnr" v="605013" />
	</node>
	<node id="-161469" lat="59.7137638934" lon="9.59076944389">
		<tag k="name" v="Stordalsmyrene" />
		<tag k="natural" v="wetland" />
		<tag k="ssr:stedsnr" v="873998" />
	</node>
	<node id="-161466" lat="59.7191111133" lon="9.65391388902">
		<tag k="name" v="Skjærbenkmyra" />
		<tag k="natural" v="wetland" />
		<tag k="ssr:stedsnr" v="873968" />
	</node>
	<node id="-160950" lat="59.4747833321" lon="9.75796111987">
		<tag k="name" v="Diplemyr" />
		<tag k="natural" v="wetland" />
		<tag k="ssr:stedsnr" v="730669" />
	</node>
	<node id="-160433" lat="59.6409166696" lon="9.76511666717">
		<tag k="historic" v="shieling" />
		<tag k="name" v="Teigsetervollen" />
		<tag k="place" v="locality" />
		<tag k="ssr:stedsnr" v="570478" />
	</node>
	<node id="-159915" lat="59.5343527738" lon="9.97225278483">
		<tag k="name" v="Svaene" />
		<tag k="place" v="locality" />
		<tag k="ssr:stedsnr" v="424842" />
	</node>
	<node id="-159399" lat="59.6849694412" lon="9.65543611181">
		<tag k="name" v="Vålahagan" />
		<tag k="place" v="locality" />
		<tag k="ssr:stedsnr" v="144924" />
	</node>
	<node id="-159906" lat="59.5087972202" lon="9.94612778353">
		<tag k="name" v="Reveura" />
		<tag k="natural" v="scree" />
		<tag k="ssr:stedsnr" v="424688" />
	</node>
	<node id="-160417" lat="59.513063886" lon="9.87889722167">
		<tag k="name" v="Hedde" />
		<tag k="place" v="locality" />
		<tag k="ssr:stedsnr" v="569771" />
	</node>
	<node id="-160928" lat="59.5918055516" lon="9.84589166873">
		<tag k="name" v="Sløgemyr" />
		<tag k="natural" v="wetland" />
		<tag k="ssr:stedsnr" v="727944" />
	</node>
	<node id="-161439" lat="59.5273749987" lon="9.87506111405">
		<tag k="name" v="Gampemyr" />
		<tag k="natural" v="wetland" />
		<tag k="ssr:stedsnr" v="873762" />
	</node>
	<node id="-160414" lat="59.525519445" lon="9.8981055632">
		<tag k="name" v="Klokkelunden" />
		<tag k="place" v="locality" />
		<tag k="ssr:stedsnr" v="569714" />
	</node>
	<node id="-159901" lat="59.6198722212" lon="9.45394999318">
		<tag k="name" v="Briskemyra" />
		<tag k="natural" v="wetland" />
		<tag k="ssr:stedsnr" v="424654" />
	</node>
	<node id="-161435" lat="59.5385805543" lon="9.90873610547">
		<tag k="name" v="Løkemyr" />
		<tag k="natural" v="wetland" />
		<tag k="ssr:stedsnr" v="873731" />
	</node>
	<node id="-160409" lat="59.6329472227" lon="9.69500555859">
		<tag k="name" v="Langmyr" />
		<tag k="natural" v="wetland" />
		<tag k="ssr:stedsnr" v="569680" />
	</node>
	<node id="-160196" lat="59.4984166707" lon="10.0176194435">
		<tag k="name" v="Nordrønningen" />
		<tag k="place" v="locality" />
		<tag k="ssr:stedsnr" v="508202" />
	</node>
	<node id="-160917" lat="59.5885777769" lon="9.73792223056">
		<tag k="name" v="Kjørstadtajet" />
		<tag k="place" v="locality" />
		<tag k="ssr:stedsnr" v="727809" />
	</node>
	<node id="-159342" lat="59.518350003" lon="9.97909166516">
		<tag k="name" v="Gravdalsmarka" />
		<tag k="place" v="locality" />
		<tag k="ssr:stedsnr" v="124888" />
	</node>
	<node id="-161424" lat="59.6426944422" lon="9.60942221863">
		<tag k="name" v="Veamyr" />
		<tag k="natural" v="wetland" />
		<tag k="ssr:stedsnr" v="873484" />
	</node>
	<node id="-160910" lat="59.5256916696" lon="9.99181944672">
		<tag k="name" v="Blåkollmyra" />
		<tag k="natural" v="wetland" />
		<tag k="ssr:stedsnr" v="727665" />
	</node>
	<node id="-158861" lat="59.5511249999" lon="9.76085554909">
		<tag k="name" v="Bjørndalsmyra" />
		<tag k="natural" v="wetland" />
		<tag k="ssr:stedsnr" v="3362" />
	</node>
	<node id="-160396" lat="59.6509166687" lon="9.59304166491">
		<tag k="landuse" v="quarry" />
		<tag k="name" v="Armen gruve" />
		<tag k="ssr:stedsnr" v="569537" />
	</node>
	<node id="-160394" lat="59.4868805569" lon="10.0308222274">
		<tag k="name" v="Jonsonløkka" />
		<tag k="place" v="locality" />
		<tag k="ssr:stedsnr" v="569222" />
	</node>
	<node id="-161303" lat="59.5657694446" lon="9.6915499956">
		<tag k="name" v="Storemyr" />
		<tag k="natural" v="wetland" />
		<tag k="ssr:stedsnr" v="849338" />
	</node>
	<node id="-160111" lat="59.5754277786" lon="9.71290277348">
		<tag k="landuse" v="quarry" />
		<tag k="name" v="Finnegurigruvene" />
		<tag k="ssr:stedsnr" v="484787" />
	</node>
	<node id="-159366" lat="59.6471527762" lon="9.6889166677">
		<tag k="name" v="Ruggesteinen" />
		<tag k="natural" v="stone" />
		<tag k="ssr:stedsnr" v="144533" />
	</node>
	<node id="-159365" lat="59.6411111132" lon="9.69270278287">
		<tag k="name" v="Bjørndalsmyr" />
		<tag k="natural" v="wetland" />
		<tag k="ssr:stedsnr" v="144522" />
	</node>
	<node id="-161411" lat="59.5614861094" lon="9.63730555221">
		<tag k="name" v="Lauareie" />
		<tag k="place" v="locality" />
		<tag k="ssr:stedsnr" v="872748" />
	</node>
	<node id="-158841" lat="59.7054666626" lon="9.6231472151">
		<tag k="name" v="Storemyr" />
		<tag k="natural" v="wetland" />
		<tag k="ssr:stedsnr" v="266943" />
	</node>
	<node id="-160887" lat="59.5124388918" lon="9.61948055977">
		<tag k="name" v="Bingen" />
		<tag k="natural" v="wetland" />
		<tag k="ssr:stedsnr" v="727386" />
	</node>
	<node id="-160883" lat="59.555613886" lon="9.66731665854">
		<tag k="name" v="Brennemyr" />
		<tag k="natural" v="wetland" />
		<tag k="ssr:stedsnr" v="727313" />
	</node>
	<node id="-160878" lat="59.731249997" lon="9.38038888571">
		<tag k="name" v="Torvmyra" />
		<tag k="natural" v="wetland" />
		<tag k="ssr:stedsnr" v="727203" />
	</node>
	<node id="-160103" lat="59.5235361127" lon="9.98830833784">
		<tag k="name" v="Dottmyr" />
		<tag k="natural" v="wetland" />
		<tag k="ssr:stedsnr" v="484650" />
	</node>
	<node id="-159334" lat="59.5862305586" lon="9.50376944971">
		<tag k="name" v="Kolsjødiplane" />
		<tag k="natural" v="wetland" />
		<tag k="ssr:stedsnr" v="124761" />
	</node>
	<node id="-159845" lat="59.7221027745" lon="9.52303889061">
		<tag k="alt_name" v="Blåmyra" />
		<tag k="name" v="Blåmyr" />
		<tag k="natural" v="wetland" />
		<tag k="ssr:stedsnr" v="424154" />
	</node>
	<node id="-160355" lat="59.7310000014" lon="9.3730416694">
		<tag k="name" v="Fugleleikmyra" />
		<tag k="natural" v="wetland" />
		<tag k="ssr:stedsnr" v="549424" />
	</node>
	<node id="-159841" lat="59.6928416681" lon="9.39583611391">
		<tag k="name" v="Setermyrene" />
		<tag k="natural" v="wetland" />
		<tag k="ssr:stedsnr" v="424123" />
	</node>
	<node id="-158480" lat="59.582813888" lon="9.83066667213">
		<tag k="name" v="Langemyr" />
		<tag k="natural" v="wetland" />
		<tag k="ssr:stedsnr" v="302985" />
	</node>
	<node id="-160869" lat="59.6914555516" lon="9.55549444466">
		<tag k="name" v="Svartemyrene" />
		<tag k="natural" v="wetland" />
		<tag k="ssr:stedsnr" v="727098" />
	</node>
	<node id="-160442" lat="59.7428861139" lon="9.43873334149">
		<tag k="name" v="Rosendammen" />
		<tag k="natural" v="wetland" />
		<tag k="ssr:stedsnr" v="601911" />
	</node>
	<node id="-159832" lat="59.6658944443" lon="9.46937500157">
		<tag k="name" v="Søgmyrene" />
		<tag k="natural" v="wetland" />
		<tag k="ssr:stedsnr" v="424027" />
	</node>
	<node id="-159827" lat="59.7660055532" lon="9.37608333749">
		<tag k="name" v="Korslimyra" />
		<tag k="natural" v="wetland" />
		<tag k="ssr:stedsnr" v="419465" />
	</node>
	<node id="-158798" lat="59.6315416668" lon="9.74430555076">
		<tag k="name" v="Tjernsmyr" />
		<tag k="natural" v="wetland" />
		<tag k="ssr:stedsnr" v="387847" />
	</node>
	<node id="-158793" lat="59.5143388875" lon="9.87535277452">
		<tag k="name" v="Lunden" />
		<tag k="place" v="locality" />
		<tag k="ssr:stedsnr" v="387796" />
	</node>
	<node id="-158792" lat="59.5431444427" lon="9.912430555">
		<tag k="name" v="Stulsmyr" />
		<tag k="natural" v="wetland" />
		<tag k="ssr:stedsnr" v="387779" />
	</node>
	<node id="-158791" lat="59.5385694411" lon="9.8811249953">
		<tag k="name" v="Øyestul" />
		<tag k="place" v="locality" />
		<tag k="ssr:stedsnr" v="387778" />
	</node>
	<node id="-158786" lat="59.6251583342" lon="9.65864166126">
		<tag k="name" v="Sunnelanda" />
		<tag k="place" v="locality" />
		<tag k="ssr:stedsnr" v="387689" />
	</node>
	<node id="-160319" lat="59.5312805595" lon="9.70592499723">
		<tag k="name" v="Smalska" />
		<tag k="natural" v="wetland" />
		<tag k="ssr:stedsnr" v="545632" />
	</node>
	<node id="-159806" lat="59.6165472245" lon="9.68589444749">
		<tag k="name" v="Gravshagan" />
		<tag k="place" v="locality" />
		<tag k="ssr:stedsnr" v="266680" />
	</node>
	<node id="-159805" lat="59.6197361075" lon="9.64178333756">
		<tag k="name" v="Landsverkhagan" />
		<tag k="place" v="locality" />
		<tag k="ssr:stedsnr" v="266675" />
	</node>
	<node id="-158777" lat="59.6440611122" lon="9.61856943845">
		<tag k="landuse" v="quarry" />
		<tag k="name" v="Bestandige Liebe gruve" />
		<tag k="ssr:stedsnr" v="387542" />
	</node>
	<node id="-160312" lat="59.57825278" lon="9.49563054764">
		<tag k="name" v="Høymyra" />
		<tag k="natural" v="wetland" />
		<tag k="ssr:stedsnr" v="545575" />
	</node>
	<node id="-158775" lat="59.640774997" lon="9.6809694386">
		<tag k="name" v="Steinmyr" />
		<tag k="natural" v="wetland" />
		<tag k="ssr:stedsnr" v="387526" />
	</node>
	<node id="-158473" lat="59.5586027761" lon="9.71010555589">
		<tag k="name" v="Telefonmyra" />
		<tag k="natural" v="wetland" />
		<tag k="ssr:stedsnr" v="302863" />
	</node>
	<node id="-160819" lat="59.6277527793" lon="9.70393333572">
		<tag k="name" v="Tubbemyra" />
		<tag k="natural" v="wetland" />
		<tag k="ssr:stedsnr" v="690866" />
	</node>
	<node id="-160818" lat="59.5500277788" lon="9.7973527822">
		<tag k="name" v="Stormyra" />
		<tag k="natural" v="wetland" />
		<tag k="ssr:stedsnr" v="690860" />
	</node>
	<node id="-160817" lat="59.5315694439" lon="9.9017805599">
		<tag k="name" v="Moltemyr" />
		<tag k="natural" v="wetland" />
		<tag k="ssr:stedsnr" v="690852" />
	</node>
	<node id="-160815" lat="59.493783337" lon="9.90638611686">
		<tag k="name" v="Djupedalsenga" />
		<tag k="place" v="locality" />
		<tag k="ssr:stedsnr" v="690843" />
	</node>
	<node id="-160814" lat="59.4871638882" lon="9.83860832474">
		<tag k="name" v="Bjørnestein" />
		<tag k="natural" v="stone" />
		<tag k="ssr:stedsnr" v="690833" />
	</node>
	<node id="-158813" lat="59.6456805528" lon="9.780297228">
		<tag k="name" v="Tiursmyr" />
		<tag k="natural" v="wetland" />
		<tag k="ssr:stedsnr" v="388551" />
	</node>
	<node id="-160824" lat="59.4828222251" lon="10.0373416747">
		<tag k="name" v="Hagebråten" />
		<tag k="place" v="locality" />
		<tag k="ssr:stedsnr" v="691216" />
	</node>
	<node id="-160810" lat="59.63221389" lon="9.65626111164">
		<tag k="name" v="Tveitaskogen" />
		<tag k="place" v="locality" />
		<tag k="ssr:stedsnr" v="690740" />
	</node>
	<node id="-160809" lat="59.6131638859" lon="9.65830278438">
		<tag k="name" v="Loftstuvollen" />
		<tag k="place" v="locality" />
		<tag k="ssr:stedsnr" v="690735" />
	</node>
	<node id="-159271" lat="59.5622722246" lon="9.84693611485">
		<tag k="name" v="Stulsmyr" />
		<tag k="natural" v="wetland" />
		<tag k="ssr:stedsnr" v="120781" />
	</node>
	<node id="-159782" lat="59.6820500043" lon="9.57823333812">
		<tag k="landuse" v="quarry" />
		<tag k="name" v="Kronprinsens gruve" />
		<tag k="ssr:stedsnr" v="246955" />
	</node>
	<node id="-160291" lat="59.5464249956" lon="9.62052778483">
		<tag k="name" v="Brennemyr" />
		<tag k="natural" v="wetland" />
		<tag k="ssr:stedsnr" v="545303" />
	</node>
	<node id="-158469" lat="59.5347777742" lon="9.9297055556">
		<tag k="name" v="Glennehogslet" />
		<tag k="place" v="locality" />
		<tag k="ssr:stedsnr" v="302840" />
	</node>
	<node id="-161420" lat="59.6242888919" lon="9.60766665974">
		<tag k="name" v="Kvennaløkka" />
		<tag k="place" v="locality" />
		<tag k="ssr:stedsnr" v="873233" />
	</node>
	<node id="-160276" lat="59.4745472208" lon="9.91160000841">
		<tag k="name" v="Elgmyr" />
		<tag k="natural" v="wetland" />
		<tag k="ssr:stedsnr" v="545152" />
	</node>
	<node id="-160274" lat="59.6353999991" lon="9.47171389127">
		<tag k="name" v="Brønstadmyra" />
		<tag k="natural" v="wetland" />
		<tag k="ssr:stedsnr" v="545134" />
	</node>
	<node id="-159247" lat="59.4911833336" lon="9.79108610784">
		<tag k="name" v="Storemyr" />
		<tag k="natural" v="wetland" />
		<tag k="ssr:stedsnr" v="120414" />
	</node>
	<node id="-161294" lat="59.7086416648" lon="9.34700554927">
		<tag k="name" v="Tranebærroa" />
		<tag k="natural" v="wetland" />
		<tag k="ssr:stedsnr" v="849161" />
	</node>
	<node id="-160266" lat="59.5594166627" lon="9.7108499966">
		<tag k="name" v="Mortenshogst" />
		<tag k="place" v="locality" />
		<tag k="ssr:stedsnr" v="545860" />
	</node>
	<node id="-160777" lat="59.5169666644" lon="9.52941943884">
		<tag k="alt_name" v="Haugmyrene" />
		<tag k="name" v="Haugmyrane" />
		<tag k="natural" v="wetland" />
		<tag k="ssr:stedsnr" v="670687" />
	</node>
	<node id="-160908" lat="59.4584194472" lon="9.70010000288">
		<tag k="name" v="Dansermyrene" />
		<tag k="natural" v="wetland" />
		<tag k="ssr:stedsnr" v="727631" />
	</node>
	<node id="-160261" lat="59.7518194452" lon="9.43856388333">
		<tag k="name" v="Stubbmyra" />
		<tag k="natural" v="wetland" />
		<tag k="ssr:stedsnr" v="540871" />
	</node>
	<node id="-158635" lat="59.4809222245" lon="9.87916389483">
		<tag k="name" v="Køytemyra" />
		<tag k="natural" v="wetland" />
		<tag k="ssr:stedsnr" v="363132" />
	</node>
</osm>
