<?xml version="1.0" encoding="UTF-8"?>
<osm generator="osmapis" version="0.6">
	<node id="-38907" lat="60.0817611156" lon="11.6363777792">
		<tag k="fixme" v="consider natural=peak for the most distinct mountains in the district" />
		<tag k="name" v="Svenskeberget" />
		<tag k="natural" v="hill" />
		<tag k="place" v="locality" />
		<tag k="ssr:stedsnr" v="238348" />
	</node>
	<node id="-38569" lat="60.2545333347" lon="11.2831750041">
		<tag k="alt_name" v="Borstadkampen" />
		<tag k="name" v="Bårstadkampen" />
		<tag k="natural" v="hill" />
		<tag k="place" v="locality" />
		<tag k="ssr:stedsnr" v="127246" />
	</node>
	<node id="-40508" lat="60.290241669" lon="11.4348972232">
		<tag k="name" v="Østvangdalen" />
		<tag k="natural" v="valley" />
		<tag k="place" v="locality" />
		<tag k="ssr:stedsnr" v="906645" />
	</node>
	<node id="-38896" lat="60.1126583309" lon="11.6162944381">
		<tag k="name" v="Bærdalen" />
		<tag k="natural" v="valley" />
		<tag k="place" v="locality" />
		<tag k="ssr:stedsnr" v="238068" />
	</node>
	<node id="-38895" lat="60.2205555572" lon="11.5366444379">
		<tag k="name" v="Deldalen" />
		<tag k="natural" v="valley" />
		<tag k="place" v="locality" />
		<tag k="ssr:stedsnr" v="238066" />
	</node>
	<node id="-38892" lat="60.2307694422" lon="11.2710694408">
		<tag k="name" v="Sandakerporten" />
		<tag k="place" v="locality" />
		<tag k="ssr:stedsnr" v="238055" />
	</node>
	<node id="-38884" lat="60.2354916654" lon="11.4784361171">
		<tag k="name" v="Svarthaugen" />
		<tag k="natural" v="hill" />
		<tag k="place" v="locality" />
		<tag k="ssr:stedsnr" v="237971" />
	</node>
	<node id="-38873" lat="60.2010583345" lon="11.3185666665">
		<tag k="fixme" v="consider natural=peak for the most distinct mountains in the district" />
		<tag k="name" v="Låveggsåsen" />
		<tag k="natural" v="hill" />
		<tag k="place" v="locality" />
		<tag k="ssr:stedsnr" v="237797" />
	</node>
	<node id="-38860" lat="60.0640444486" lon="11.6596583406">
		<tag k="name" v="Bruhaugen" />
		<tag k="natural" v="hill" />
		<tag k="place" v="locality" />
		<tag k="ssr:stedsnr" v="231931" />
	</node>
	<node id="-37879" lat="60.0479777787" lon="11.5924555489">
		<tag k="name" v="Kjøltjennlia" />
		<tag k="natural" v="slope" />
		<tag k="place" v="locality" />
		<tag k="ssr:stedsnr" v="344718" />
	</node>
	<node id="-38856" lat="60.0397111148" lon="11.740369439">
		<tag k="fixme" v="consider natural=peak for the most distinct mountains in the district" />
		<tag k="name" v="Veslerabbillhaugen" />
		<tag k="natural" v="hill" />
		<tag k="place" v="locality" />
		<tag k="ssr:stedsnr" v="231218" />
	</node>
	<node id="-38855" lat="60.0514611117" lon="11.7099027704">
		<tag k="name" v="Kvernåsen" />
		<tag k="natural" v="hill" />
		<tag k="place" v="locality" />
		<tag k="ssr:stedsnr" v="230925" />
	</node>
	<node id="-38853" lat="60.0620583352" lon="11.651572222">
		<tag k="name" v="Galteryggen" />
		<tag k="natural" v="ridge" />
		<tag k="place" v="locality" />
		<tag k="ssr:stedsnr" v="230553" />
	</node>
	<node id="-38846" lat="60.043911107" lon="11.7727972287">
		<tag k="name" v="Buholholtet" />
		<tag k="place" v="locality" />
		<tag k="ssr:stedsnr" v="223921" />
	</node>
	<node id="-38840" lat="60.034580552" lon="11.5672888917">
		<tag k="fixme" v="consider natural=peak for the most distinct mountains in the district" />
		<tag k="name" v="Brennhaugen" />
		<tag k="natural" v="hill" />
		<tag k="place" v="locality" />
		<tag k="ssr:stedsnr" v="223830" />
	</node>
	<node id="-38829" lat="60.1498583349" lon="11.5701138944">
		<tag k="name" v="Knefallmåsadalen" />
		<tag k="natural" v="valley" />
		<tag k="place" v="locality" />
		<tag k="ssr:stedsnr" v="223380" />
	</node>
	<node id="-38828" lat="60.1570333347" lon="11.4430388842">
		<tag k="name" v="Vingersdalen" />
		<tag k="natural" v="valley" />
		<tag k="place" v="locality" />
		<tag k="ssr:stedsnr" v="223329" />
	</node>
	<node id="-38816" lat="60.1169305579" lon="11.5923861025">
		<tag k="name" v="Haugbrenna" />
		<tag k="natural" v="hill" />
		<tag k="place" v="locality" />
		<tag k="ssr:stedsnr" v="223051" />
	</node>
	<node id="-38813" lat="60.0158638895" lon="11.660522214">
		<tag k="name" v="Tiurnabben" />
		<tag k="natural" v="hill" />
		<tag k="place" v="locality" />
		<tag k="ssr:stedsnr" v="223024" />
	</node>
	<node id="-38812" lat="60.0842000011" lon="11.7563638885">
		<tag k="name" v="Sandåsen" />
		<tag k="place" v="locality" />
		<tag k="ssr:stedsnr" v="223568" />
	</node>
	<node id="-38811" lat="60.0846055578" lon="11.7644555516">
		<tag k="fixme" v="consider natural=peak for the most distinct mountains in the district" />
		<tag k="name" v="Flahøgda" />
		<tag k="natural" v="hill" />
		<tag k="place" v="locality" />
		<tag k="ssr:stedsnr" v="223566" />
	</node>
	<node id="-38806" lat="60.0547666694" lon="11.6054222278">
		<tag k="fixme" v="consider natural=peak for the most distinct mountains in the district" />
		<tag k="name" v="Våla" />
		<tag k="natural" v="hill" />
		<tag k="place" v="locality" />
		<tag k="ssr:stedsnr" v="222670" />
	</node>
	<node id="-38785" lat="60.0568138892" lon="11.6109722232">
		<tag k="name" v="Matrikkelhaugen" />
		<tag k="natural" v="hill" />
		<tag k="place" v="locality" />
		<tag k="ssr:stedsnr" v="188624" />
	</node>
	<node id="-38780" lat="60.146216666" lon="11.3712666676">
		<tag k="fixme" v="consider natural=peak for the most distinct mountains in the district" />
		<tag k="name" v="Tesiåsen" />
		<tag k="natural" v="hill" />
		<tag k="place" v="locality" />
		<tag k="ssr:stedsnr" v="188197" />
	</node>
	<node id="-38748" lat="60.2301999983" lon="11.4214999954">
		<tag k="alt_name" v="Mysudalshøgda" />
		<tag k="name" v="Mysedalshøgda" />
		<tag k="natural" v="hill" />
		<tag k="place" v="locality" />
		<tag k="ssr:stedsnr" v="187296" />
	</node>
	<node id="-38737" lat="60.1416611151" lon="11.404155556">
		<tag k="fixme" v="consider natural=peak for the most distinct mountains in the district" />
		<tag k="name" v="Kvernberget" />
		<tag k="natural" v="hill" />
		<tag k="place" v="locality" />
		<tag k="ssr:stedsnr" v="187137" />
	</node>
	<node id="-38727" lat="59.9919388915" lon="11.4501999934">
		<tag k="alt_name" v="Borhøgda" />
		<tag k="fixme" v="consider natural=peak for the most distinct mountains in the district" />
		<tag k="name" v="Bårhøgda" />
		<tag k="natural" v="hill" />
		<tag k="place" v="locality" />
		<tag k="ssr:stedsnr" v="186526" />
	</node>
	<node id="-38714" lat="60.2683527816" lon="11.3444305485">
		<tag k="fixme" v="consider natural=peak for the most distinct mountains in the district" />
		<tag k="name" v="Mannerudberget" />
		<tag k="natural" v="hill" />
		<tag k="place" v="locality" />
		<tag k="ssr:stedsnr" v="177926" />
	</node>
	<node id="-38713" lat="60.2660583348" lon="11.573980549">
		<tag k="name" v="Kølabudalen" />
		<tag k="natural" v="valley" />
		<tag k="place" v="locality" />
		<tag k="ssr:stedsnr" v="177896" />
	</node>
	<node id="-38701" lat="60.3187388887" lon="11.435624998">
		<tag k="name" v="Grønndalen" />
		<tag k="natural" v="valley" />
		<tag k="place" v="locality" />
		<tag k="ssr:stedsnr" v="177760" />
	</node>
	<node id="-38695" lat="60.0819388923" lon="11.7480111187">
		<tag k="name" v="Puttdalen" />
		<tag k="natural" v="valley" />
		<tag k="place" v="locality" />
		<tag k="ssr:stedsnr" v="177644" />
	</node>
	<node id="-38694" lat="60.0769749965" lon="11.7090305544">
		<tag k="name" v="Hella" />
		<tag k="place" v="locality" />
		<tag k="ssr:stedsnr" v="177639" />
	</node>
	<node id="-38689" lat="60.3169333326" lon="11.434169443">
		<tag k="name" v="Hakadalslia" />
		<tag k="natural" v="slope" />
		<tag k="place" v="locality" />
		<tag k="ssr:stedsnr" v="177554" />
	</node>
	<node id="-38680" lat="60.081786109" lon="11.5900583292">
		<tag k="name" v="Geitsveltdalen" />
		<tag k="natural" v="valley" />
		<tag k="place" v="locality" />
		<tag k="ssr:stedsnr" v="177324" />
	</node>
	<node id="-38673" lat="60.0156611094" lon="11.4783555636">
		<tag k="fixme" v="consider natural=peak for the most distinct mountains in the district" />
		<tag k="name" v="Bjønnhøgda" />
		<tag k="natural" v="hill" />
		<tag k="place" v="locality" />
		<tag k="ssr:stedsnr" v="177157" />
	</node>
	<node id="-38672" lat="60.2540222256" lon="11.3753083409">
		<tag k="name" v="Stavmyråsen" />
		<tag k="natural" v="hill" />
		<tag k="place" v="locality" />
		<tag k="ssr:stedsnr" v="177151" />
	</node>
	<node id="-38667" lat="60.1862777776" lon="11.3740722306">
		<tag k="name" v="Tømmerdalen" />
		<tag k="natural" v="valley" />
		<tag k="place" v="locality" />
		<tag k="ssr:stedsnr" v="177028" />
	</node>
	<node id="-38651" lat="60.0554333365" lon="11.7260388928">
		<tag k="name" v="Grønneluggen" />
		<tag k="natural" v="hill" />
		<tag k="place" v="locality" />
		<tag k="ssr:stedsnr" v="162921" />
	</node>
	<node id="-38650" lat="60.0436000013" lon="11.7769750019">
		<tag k="name" v="Tutedalen" />
		<tag k="natural" v="valley" />
		<tag k="place" v="locality" />
		<tag k="ssr:stedsnr" v="162910" />
	</node>
	<node id="-40691" lat="60.1287861109" lon="11.3706472162">
		<tag k="name" v="Fuglefjellet" />
		<tag k="natural" v="hill" />
		<tag k="place" v="locality" />
		<tag k="ssr:stedsnr" v="966797" />
	</node>
	<node id="-40689" lat="60.3221527747" lon="11.4209361185">
		<tag k="name" v="Katterudbommen" />
		<tag k="natural" v="ridge" />
		<tag k="place" v="locality" />
		<tag k="ssr:stedsnr" v="966758" />
	</node>
	<node id="-40687" lat="60.3169916698" lon="11.4602694418">
		<tag k="name" v="Nisseberget" />
		<tag k="natural" v="hill" />
		<tag k="place" v="locality" />
		<tag k="ssr:stedsnr" v="966746" />
	</node>
	<node id="-40681" lat="60.0727472243" lon="11.7828611071">
		<tag k="name" v="Storrskjulet" />
		<tag k="place" v="locality" />
		<tag k="ssr:stedsnr" v="966621" />
	</node>
	<node id="-38632" lat="60.0960888881" lon="11.5216333379">
		<tag k="fixme" v="consider natural=peak for the most distinct mountains in the district" />
		<tag k="name" v="Veslesjøhøgda" />
		<tag k="natural" v="hill" />
		<tag k="place" v="locality" />
		<tag k="ssr:stedsnr" v="162694" />
	</node>
	<node id="-40676" lat="60.3085499971" lon="11.447994453">
		<tag k="name" v="Styggdalen" />
		<tag k="natural" v="valley" />
		<tag k="place" v="locality" />
		<tag k="ssr:stedsnr" v="966567" />
	</node>
	<node id="-40672" lat="60.2196555556" lon="11.3122249994">
		<tag k="name" v="Styggdalen" />
		<tag k="natural" v="valley" />
		<tag k="place" v="locality" />
		<tag k="ssr:stedsnr" v="966516" />
	</node>
	<node id="-40666" lat="60.0660944439" lon="11.661422221">
		<tag k="name" v="Brurehølet" />
		<tag k="natural" v="valley" />
		<tag k="place" v="locality" />
		<tag k="ssr:stedsnr" v="966338" />
	</node>
	<node id="-40665" lat="60.0753916704" lon="11.6474833415">
		<tag k="name" v="Åbortjennlia" />
		<tag k="natural" v="slope" />
		<tag k="place" v="locality" />
		<tag k="ssr:stedsnr" v="966335" />
	</node>
	<node id="-40664" lat="60.0823694444" lon="11.5278666591">
		<tag k="name" v="Merradalen" />
		<tag k="natural" v="valley" />
		<tag k="place" v="locality" />
		<tag k="ssr:stedsnr" v="966322" />
	</node>
	<node id="-38615" lat="60.0510972242" lon="11.5795305504">
		<tag k="name" v="Østhøgda" />
		<tag k="natural" v="hill" />
		<tag k="place" v="locality" />
		<tag k="ssr:stedsnr" v="162304" />
	</node>
	<node id="-40659" lat="60.2566194456" lon="11.4076361184">
		<tag k="name" v="Børgenhøgda" />
		<tag k="natural" v="ridge" />
		<tag k="place" v="locality" />
		<tag k="ssr:stedsnr" v="966155" />
	</node>
	<node id="-40651" lat="60.1103638915" lon="11.615158331">
		<tag k="name" v="Hansonhaugen" />
		<tag k="natural" v="hill" />
		<tag k="place" v="locality" />
		<tag k="ssr:stedsnr" v="966065" />
	</node>
	<node id="-38600" lat="60.019480558" lon="11.6292777718">
		<tag k="name" v="Myrsæterhøgda" />
		<tag k="natural" v="hill" />
		<tag k="place" v="locality" />
		<tag k="ssr:stedsnr" v="162046" />
	</node>
	<node id="-40646" lat="60.1127666646" lon="11.5672749909">
		<tag k="fixme" v="consider natural=peak for the most distinct mountains in the district" />
		<tag k="name" v="Nordåsen" />
		<tag k="natural" v="hill" />
		<tag k="place" v="locality" />
		<tag k="ssr:stedsnr" v="966009" />
	</node>
	<node id="-40634" lat="60.0610083312" lon="11.6885444376">
		<tag k="name" v="Seterlia" />
		<tag k="natural" v="slope" />
		<tag k="place" v="locality" />
		<tag k="ssr:stedsnr" v="959923" />
	</node>
	<node id="-40631" lat="60.0434055518" lon="11.516230549">
		<tag k="name" v="Snauknatten" />
		<tag k="natural" v="hill" />
		<tag k="place" v="locality" />
		<tag k="ssr:stedsnr" v="959805" />
	</node>
	<node id="-38582" lat="60.3390083326" lon="11.4326388886">
		<tag k="fixme" v="consider natural=peak for the most distinct mountains in the district" />
		<tag k="name" v="Knappen" />
		<tag k="natural" v="hill" />
		<tag k="place" v="locality" />
		<tag k="ssr:stedsnr" v="141975" />
	</node>
	<node id="-38580" lat="60.1173027822" lon="11.6694444387">
		<tag k="fixme" v="consider natural=peak for the most distinct mountains in the district" />
		<tag k="name" v="Joggekjølen" />
		<tag k="natural" v="hill" />
		<tag k="place" v="locality" />
		<tag k="ssr:stedsnr" v="127734" />
	</node>
	<node id="-40627" lat="60.059933337" lon="11.6315972177">
		<tag k="name" v="Smallangmyrlia" />
		<tag k="natural" v="slope" />
		<tag k="place" v="locality" />
		<tag k="ssr:stedsnr" v="959563" />
	</node>
	<node id="-40617" lat="60.0601222192" lon="11.7238222293">
		<tag k="name" v="Tallhaugtoppen" />
		<tag k="natural" v="hill" />
		<tag k="place" v="locality" />
		<tag k="ssr:stedsnr" v="951915" />
	</node>
	<node id="-40606" lat="60.0396638909" lon="11.7696944496">
		<tag k="name" v="Ormestampen" />
		<tag k="place" v="locality" />
		<tag k="ssr:stedsnr" v="951739" />
	</node>
	<node id="-40594" lat="60.0192527735" lon="11.4388722251">
		<tag k="name" v="Tårnhøgda" />
		<tag k="natural" v="hill" />
		<tag k="place" v="locality" />
		<tag k="ssr:stedsnr" v="951477" />
	</node>
	<node id="-40592" lat="60.1337222189" lon="11.6263972259">
		<tag k="name" v="Ulvedalen" />
		<tag k="natural" v="valley" />
		<tag k="place" v="locality" />
		<tag k="ssr:stedsnr" v="951386" />
	</node>
	<node id="-40591" lat="60.1353361069" lon="11.5998138817">
		<tag k="name" v="Puttdalen" />
		<tag k="natural" v="valley" />
		<tag k="place" v="locality" />
		<tag k="ssr:stedsnr" v="951383" />
	</node>
	<node id="-38537" lat="60.1096916668" lon="11.3657249947">
		<tag k="name" v="Knarten" />
		<tag k="natural" v="hill" />
		<tag k="place" v="locality" />
		<tag k="ssr:stedsnr" v="126113" />
	</node>
	<node id="-40584" lat="60.0228222262" lon="11.8090694497">
		<tag k="name" v="Bjønndalsdråga" />
		<tag k="place" v="locality" />
		<tag k="ssr:stedsnr" v="951219" />
	</node>
	<node id="-40581" lat="60.1273638869" lon="11.6340833416">
		<tag k="name" v="Mildalen" />
		<tag k="natural" v="valley" />
		<tag k="place" v="locality" />
		<tag k="ssr:stedsnr" v="951154" />
	</node>
	<node id="-38530" lat="60.2877833345" lon="11.4371749948">
		<tag k="name" v="Østvanglia" />
		<tag k="natural" v="slope" />
		<tag k="place" v="locality" />
		<tag k="ssr:stedsnr" v="117624" />
	</node>
	<node id="-38529" lat="60.2923111085" lon="11.4218416607">
		<tag k="fixme" v="consider natural=peak for the most distinct mountains in the district" />
		<tag k="name" v="Tjernslidalshøgda" />
		<tag k="natural" v="hill" />
		<tag k="place" v="locality" />
		<tag k="ssr:stedsnr" v="117621" />
	</node>
	<node id="-38523" lat="60.27026389" lon="11.4470138836">
		<tag k="name" v="Fjøsdalen" />
		<tag k="natural" v="valley" />
		<tag k="place" v="locality" />
		<tag k="ssr:stedsnr" v="116898" />
	</node>
	<node id="-38518" lat="60.2541888876" lon="11.4598944469">
		<tag k="name" v="Deldalen" />
		<tag k="natural" v="valley" />
		<tag k="place" v="locality" />
		<tag k="ssr:stedsnr" v="116827" />
	</node>
	<node id="-38517" lat="60.2606722258" lon="11.4546499967">
		<tag k="name" v="Oppsalhøgda" />
		<tag k="natural" v="hill" />
		<tag k="place" v="locality" />
		<tag k="ssr:stedsnr" v="116826" />
	</node>
	<node id="-38505" lat="60.3156861071" lon="11.4835888892">
		<tag k="name" v="Årstaddalen" />
		<tag k="natural" v="valley" />
		<tag k="place" v="locality" />
		<tag k="ssr:stedsnr" v="116733" />
	</node>
	<node id="-40550" lat="60.1318305595" lon="11.5849111041">
		<tag k="fixme" v="consider natural=peak for the most distinct mountains in the district" />
		<tag k="name" v="Røsåsen" />
		<tag k="natural" v="hill" />
		<tag k="place" v="locality" />
		<tag k="ssr:stedsnr" v="916712" />
	</node>
	<node id="-38499" lat="60.2943861114" lon="11.425833333">
		<tag k="name" v="Torvtjenndalen" />
		<tag k="natural" v="valley" />
		<tag k="place" v="locality" />
		<tag k="ssr:stedsnr" v="116630" />
	</node>
	<node id="-38498" lat="60.2717527817" lon="11.5702333337">
		<tag k="name" v="Aurbakken" />
		<tag k="natural" v="slope" />
		<tag k="place" v="locality" />
		<tag k="ssr:stedsnr" v="116624" />
	</node>
	<node id="-38497" lat="60.2721027778" lon="11.5841694486">
		<tag k="name" v="Østre Kølabudalen" />
		<tag k="natural" v="valley" />
		<tag k="place" v="locality" />
		<tag k="ssr:stedsnr" v="116620" />
	</node>
	<node id="-38495" lat="60.2174277748" lon="11.4595583344">
		<tag k="name" v="Grushølet" />
		<tag k="place" v="locality" />
		<tag k="ssr:stedsnr" v="116608" />
	</node>
	<node id="-38491" lat="60.2963916697" lon="11.4757722315">
		<tag k="fixme" v="consider natural=peak for the most distinct mountains in the district" />
		<tag k="name" v="Storrkilberget" />
		<tag k="natural" v="hill" />
		<tag k="place" v="locality" />
		<tag k="ssr:stedsnr" v="116518" />
	</node>
	<node id="-38485" lat="60.0242833311" lon="11.8142722216">
		<tag k="name" v="Pålsåsen" />
		<tag k="natural" v="hill" />
		<tag k="place" v="locality" />
		<tag k="ssr:stedsnr" v="116149" />
	</node>
	<node id="-38484" lat="60.1886250044" lon="11.3335083273">
		<tag k="fixme" v="consider natural=peak for the most distinct mountains in the district" />
		<tag k="name" v="Aurstadfjellet" />
		<tag k="natural" v="hill" />
		<tag k="place" v="locality" />
		<tag k="ssr:stedsnr" v="116143" />
	</node>
	<node id="-38480" lat="60.2525083369" lon="11.265688889">
		<tag k="name" v="Korpenebben" />
		<tag k="natural" v="hill" />
		<tag k="place" v="locality" />
		<tag k="ssr:stedsnr" v="116109" />
	</node>
	<node id="-40522" lat="60.1038388896" lon="11.6252388943">
		<tag k="fixme" v="consider natural=peak for the most distinct mountains in the district" />
		<tag k="name" v="Høgåsen" />
		<tag k="natural" v="hill" />
		<tag k="place" v="locality" />
		<tag k="ssr:stedsnr" v="915703" />
	</node>
	<node id="-40519" lat="60.0878499965" lon="11.3274749921">
		<tag k="fixme" v="consider natural=peak for the most distinct mountains in the district" />
		<tag k="name" v="Jagastadfjellet" />
		<tag k="natural" v="hill" />
		<tag k="place" v="locality" />
		<tag k="ssr:stedsnr" v="915087" />
	</node>
	<node id="-38466" lat="60.0902361139" lon="11.6918416674">
		<tag k="name" v="Gampen" />
		<tag k="place" v="locality" />
		<tag k="ssr:stedsnr" v="116923" />
	</node>
	<node id="-38462" lat="60.0482083364" lon="11.7658472234">
		<tag k="name" v="Lundbenken" />
		<tag k="place" v="locality" />
		<tag k="ssr:stedsnr" v="110947" />
	</node>
	<node id="-40509" lat="60.2660027785" lon="11.3980361136">
		<tag k="fixme" v="consider natural=peak for the most distinct mountains in the district" />
		<tag k="name" v="Børjehøgda" />
		<tag k="natural" v="hill" />
		<tag k="place" v="locality" />
		<tag k="ssr:stedsnr" v="906935" />
	</node>
	<node id="-38460" lat="60.0397194448" lon="11.4528805565">
		<tag k="fixme" v="consider natural=peak for the most distinct mountains in the district" />
		<tag k="name" v="Bukkebrekka" />
		<tag k="natural" v="hill" />
		<tag k="place" v="locality" />
		<tag k="ssr:stedsnr" v="110833" />
	</node>
	<node id="-38459" lat="60.0535527805" lon="11.683552786">
		<tag k="name" v="Sjølia" />
		<tag k="natural" v="slope" />
		<tag k="place" v="locality" />
		<tag k="ssr:stedsnr" v="110612" />
	</node>
	<node id="-38454" lat="60.0345999964" lon="11.7454222188">
		<tag k="name" v="Rabbillia" />
		<tag k="natural" v="slope" />
		<tag k="place" v="locality" />
		<tag k="ssr:stedsnr" v="110167" />
	</node>
	<node id="-40497" lat="60.26181667" lon="11.4462555599">
		<tag k="name" v="Osmyrdalen" />
		<tag k="natural" v="valley" />
		<tag k="place" v="locality" />
		<tag k="ssr:stedsnr" v="905909" />
	</node>
	<node id="-38445" lat="60.0611250007" lon="11.7026249998">
		<tag k="name" v="Sprutberget" />
		<tag k="place" v="locality" />
		<tag k="ssr:stedsnr" v="102912" />
	</node>
	<node id="-38439" lat="60.0345694404" lon="11.8130472262">
		<tag k="name" v="Joggeberget" />
		<tag k="natural" v="hill" />
		<tag k="place" v="locality" />
		<tag k="ssr:stedsnr" v="102767" />
	</node>
	<node id="-40486" lat="60.3159388882" lon="11.4897111022">
		<tag k="name" v="Trettebråtalia" />
		<tag k="natural" v="slope" />
		<tag k="place" v="locality" />
		<tag k="ssr:stedsnr" v="905748" />
	</node>
	<node id="-38437" lat="60.0425388892" lon="11.7739583244">
		<tag k="fixme" v="consider natural=peak for the most distinct mountains in the district" />
		<tag k="name" v="Tutedalskampen" />
		<tag k="natural" v="hill" />
		<tag k="place" v="locality" />
		<tag k="ssr:stedsnr" v="102745" />
	</node>
	<node id="-40483" lat="60.0841527778" lon="11.7457666618">
		<tag k="name" v="Promhaugen" />
		<tag k="natural" v="hill" />
		<tag k="place" v="locality" />
		<tag k="ssr:stedsnr" v="905642" />
	</node>
	<node id="-40482" lat="60.2734694432" lon="11.5821972253">
		<tag k="name" v="Vestre Kølabudalen" />
		<tag k="natural" v="valley" />
		<tag k="place" v="locality" />
		<tag k="ssr:stedsnr" v="905640" />
	</node>
	<node id="-38429" lat="60.0856861127" lon="11.677569453">
		<tag k="name" v="Revrompdalen" />
		<tag k="natural" v="valley" />
		<tag k="place" v="locality" />
		<tag k="ssr:stedsnr" v="102426" />
	</node>
	<node id="-38428" lat="60.0841027789" lon="11.6807666757">
		<tag k="name" v="Korsfløytlia" />
		<tag k="natural" v="slope" />
		<tag k="place" v="locality" />
		<tag k="ssr:stedsnr" v="102427" />
	</node>
	<node id="-40473" lat="60.3103444457" lon="11.4661083369">
		<tag k="name" v="Gofjellet" />
		<tag k="natural" v="hill" />
		<tag k="place" v="locality" />
		<tag k="ssr:stedsnr" v="905551" />
	</node>
	<node id="-40467" lat="60.0664444462" lon="11.6697888921">
		<tag k="name" v="Klompedalen" />
		<tag k="natural" v="valley" />
		<tag k="place" v="locality" />
		<tag k="ssr:stedsnr" v="905321" />
	</node>
	<node id="-40466" lat="60.0738916695" lon="11.6528638852">
		<tag k="name" v="Gravdalen" />
		<tag k="natural" v="valley" />
		<tag k="place" v="locality" />
		<tag k="ssr:stedsnr" v="905297" />
	</node>
	<node id="-38411" lat="60.0489222253" lon="11.7614138872">
		<tag k="name" v="Grasdalen" />
		<tag k="natural" v="valley" />
		<tag k="place" v="locality" />
		<tag k="ssr:stedsnr" v="101906" />
	</node>
	<node id="-38405" lat="60.1421305546" lon="11.6165472199">
		<tag k="name" v="Setermyrdalen" />
		<tag k="natural" v="valley" />
		<tag k="place" v="locality" />
		<tag k="ssr:stedsnr" v="101346" />
	</node>
	<node id="-40447" lat="60.0476388883" lon="11.6561277693">
		<tag k="name" v="Holeberget" />
		<tag k="natural" v="cliff" />
		<tag k="ssr:stedsnr" v="899600" />
	</node>
	<node id="-40442" lat="60.0501944463" lon="11.5815611193">
		<tag k="name" v="Vestre Gullroskne" />
		<tag k="place" v="locality" />
		<tag k="ssr:stedsnr" v="856608" />
	</node>
	<node id="-38376" lat="60.1505833316" lon="11.6070194463">
		<tag k="name" v="Storalmåsdalen" />
		<tag k="natural" v="valley" />
		<tag k="place" v="locality" />
		<tag k="ssr:stedsnr" v="66625" />
	</node>
	<node id="-38375" lat="60.155422225" lon="11.5297472156">
		<tag k="fixme" v="consider natural=peak for the most distinct mountains in the district" />
		<tag k="name" v="Folbergåsen" />
		<tag k="natural" v="hill" />
		<tag k="place" v="locality" />
		<tag k="ssr:stedsnr" v="66616" />
	</node>
	<node id="-38369" lat="60.0664249982" lon="11.5397277696">
		<tag k="alt_name" v="Dragsjøhøgda" />
		<tag k="fixme" v="consider natural=peak for the most distinct mountains in the district" />
		<tag k="name" v="Dragsjøhaugen" />
		<tag k="natural" v="hill" />
		<tag k="place" v="locality" />
		<tag k="ssr:stedsnr" v="66497" />
	</node>
	<node id="-40416" lat="60.0382222193" lon="11.7797833262">
		<tag k="name" v="Hundstadhøgda" />
		<tag k="natural" v="hill" />
		<tag k="place" v="locality" />
		<tag k="ssr:stedsnr" v="855560" />
	</node>
	<node id="-40415" lat="60.0378250028" lon="11.821866671">
		<tag k="fixme" v="consider natural=peak for the most distinct mountains in the district" />
		<tag k="name" v="Bjørkneshøgda" />
		<tag k="natural" v="hill" />
		<tag k="place" v="locality" />
		<tag k="ssr:stedsnr" v="855558" />
	</node>
	<node id="-40412" lat="60.0660361081" lon="11.506686105">
		<tag k="name" v="Drogneshøgda" />
		<tag k="natural" v="hill" />
		<tag k="place" v="locality" />
		<tag k="ssr:stedsnr" v="855517" />
	</node>
	<node id="-40411" lat="60.0725611112" lon="11.7145277823">
		<tag k="alt_name" v="Fuglleikhaugane" />
		<tag k="name" v="Fuglleikhaugene" />
		<tag k="natural" v="hill" />
		<tag k="place" v="locality" />
		<tag k="ssr:stedsnr" v="855508" />
	</node>
	<node id="-40408" lat="60.2503999959" lon="11.2624166596">
		<tag k="fixme" v="consider natural=peak for the most distinct mountains in the district" />
		<tag k="name" v="Vardehøgda" />
		<tag k="natural" v="hill" />
		<tag k="place" v="locality" />
		<tag k="ssr:stedsnr" v="855321" />
	</node>
	<node id="-40367" lat="60.2497444401" lon="11.4276416709">
		<tag k="fixme" v="consider natural=peak for the most distinct mountains in the district" />
		<tag k="name" v="Kallholen" />
		<tag k="natural" v="hill" />
		<tag k="place" v="locality" />
		<tag k="ssr:stedsnr" v="845874" />
	</node>
	<node id="-40366" lat="60.2596000033" lon="11.4650361194">
		<tag k="name" v="T-fjellet" />
		<tag k="natural" v="hill" />
		<tag k="place" v="locality" />
		<tag k="ssr:stedsnr" v="845869" />
	</node>
	<node id="-40359" lat="60.3111222228" lon="11.5033055561">
		<tag k="fixme" v="consider natural=peak for the most distinct mountains in the district" />
		<tag k="name" v="Vollmyrhøgda" />
		<tag k="natural" v="hill" />
		<tag k="place" v="locality" />
		<tag k="ssr:stedsnr" v="845786" />
	</node>
	<node id="-38310" lat="60.074911108" lon="11.7571888855">
		<tag k="fixme" v="consider natural=peak for the most distinct mountains in the district" />
		<tag k="name" v="Langtjennsåsen" />
		<tag k="natural" v="hill" />
		<tag k="place" v="locality" />
		<tag k="ssr:stedsnr" v="56617" />
	</node>
	<node id="-38308" lat="60.0692111155" lon="11.6475250036">
		<tag k="name" v="Smørbukklia" />
		<tag k="natural" v="slope" />
		<tag k="place" v="locality" />
		<tag k="ssr:stedsnr" v="56347" />
	</node>
	<node id="-38307" lat="60.0754305554" lon="11.6031138839">
		<tag k="name" v="Kattåsen" />
		<tag k="natural" v="ridge" />
		<tag k="place" v="locality" />
		<tag k="ssr:stedsnr" v="56332" />
	</node>
	<node id="-38304" lat="60.0664333337" lon="11.6097027833">
		<tag k="name" v="Seterjenta" />
		<tag k="place" v="locality" />
		<tag k="ssr:stedsnr" v="56281" />
	</node>
	<node id="-38303" lat="60.1264722231" lon="11.5881138836">
		<tag k="name" v="St. Hansberget" />
		<tag k="place" v="locality" />
		<tag k="ssr:stedsnr" v="56094" />
	</node>
	<node id="-40349" lat="60.0854444482" lon="11.7193277756">
		<tag k="fixme" v="consider natural=peak for the most distinct mountains in the district" />
		<tag k="name" v="Lunnemyrberget" />
		<tag k="natural" v="hill" />
		<tag k="place" v="locality" />
		<tag k="ssr:stedsnr" v="845632" />
	</node>
	<node id="-40348" lat="60.3080749989" lon="11.4610833374">
		<tag k="fixme" v="consider natural=peak for the most distinct mountains in the district" />
		<tag k="name" v="Ilangshøgda" />
		<tag k="natural" v="hill" />
		<tag k="place" v="locality" />
		<tag k="ssr:stedsnr" v="845583" />
	</node>
	<node id="-40347" lat="60.3093638864" lon="11.4467694377">
		<tag k="name" v="Søndre sleppa" />
		<tag k="place" v="locality" />
		<tag k="ssr:stedsnr" v="845580" />
	</node>
	<node id="-38295" lat="60.1215583371" lon="11.574277783">
		<tag k="name" v="Vindmyrdalen" />
		<tag k="natural" v="valley" />
		<tag k="place" v="locality" />
		<tag k="ssr:stedsnr" v="56004" />
	</node>
	<node id="-40339" lat="60.0691777735" lon="11.6755472257">
		<tag k="name" v="Bjørndalsbrenna" />
		<tag k="natural" v="ridge" />
		<tag k="place" v="locality" />
		<tag k="ssr:stedsnr" v="845357" />
	</node>
	<node id="-40338" lat="60.0655222205" lon="11.6718555545">
		<tag k="name" v="Besseberget" />
		<tag k="place" v="locality" />
		<tag k="ssr:stedsnr" v="845354" />
	</node>
	<node id="-38285" lat="60.0655805542" lon="11.6881249937">
		<tag k="fixme" v="consider natural=peak for the most distinct mountains in the district" />
		<tag k="name" v="Kaffeberget" />
		<tag k="natural" v="hill" />
		<tag k="place" v="locality" />
		<tag k="ssr:stedsnr" v="49936" />
	</node>
	<node id="-38283" lat="60.0528083289" lon="11.6527694528">
		<tag k="name" v="Stalldalen" />
		<tag k="natural" v="slope" />
		<tag k="place" v="locality" />
		<tag k="ssr:stedsnr" v="49637" />
	</node>
	<node id="-40329" lat="60.1197305593" lon="11.6248861195">
		<tag k="name" v="Kuberget" />
		<tag k="natural" v="hill" />
		<tag k="place" v="locality" />
		<tag k="ssr:stedsnr" v="845131" />
	</node>
	<node id="-38279" lat="60.0547222209" lon="11.6585472187">
		<tag k="name" v="Holmelia" />
		<tag k="natural" v="slope" />
		<tag k="place" v="locality" />
		<tag k="ssr:stedsnr" v="48541" />
	</node>
	<node id="-40324" lat="60.2318833295" lon="11.2856666678">
		<tag k="fixme" v="consider natural=peak for the most distinct mountains in the district" />
		<tag k="name" v="Sandåkertårnet" />
		<tag k="natural" v="hill" />
		<tag k="place" v="locality" />
		<tag k="ssr:stedsnr" v="845065" />
	</node>
	<node id="-40318" lat="60.1228805534" lon="11.569177774">
		<tag k="name" v="Portromsdalen" />
		<tag k="natural" v="valley" />
		<tag k="place" v="locality" />
		<tag k="ssr:stedsnr" v="845010" />
	</node>
	<node id="-38268" lat="60.0650805542" lon="11.7283277841">
		<tag k="name" v="Sakkhusholtet" />
		<tag k="place" v="locality" />
		<tag k="ssr:stedsnr" v="41890" />
	</node>
	<node id="-40314" lat="60.2695527738" lon="11.4255833298">
		<tag k="name" v="Grinderlia" />
		<tag k="natural" v="slope" />
		<tag k="place" v="locality" />
		<tag k="ssr:stedsnr" v="844914" />
	</node>
	<node id="-40307" lat="60.0354249974" lon="11.777330548">
		<tag k="name" v="Rabbillberget" />
		<tag k="natural" v="slope" />
		<tag k="place" v="locality" />
		<tag k="ssr:stedsnr" v="832702" />
	</node>
	<node id="-40306" lat="60.0637555565" lon="11.7540277695">
		<tag k="name" v="Runnimyråsen" />
		<tag k="natural" v="ridge" />
		<tag k="place" v="locality" />
		<tag k="ssr:stedsnr" v="830942" />
	</node>
	<node id="-40305" lat="60.0486499998" lon="11.7360611125">
		<tag k="name" v="Tiurhaugen" />
		<tag k="natural" v="hill" />
		<tag k="place" v="locality" />
		<tag k="ssr:stedsnr" v="830914" />
	</node>
	<node id="-40304" lat="60.0457861135" lon="11.7600916662">
		<tag k="name" v="Danserberget" />
		<tag k="natural" v="hill" />
		<tag k="place" v="locality" />
		<tag k="ssr:stedsnr" v="830903" />
	</node>
	<node id="-40302" lat="60.0551638912" lon="11.7705444357">
		<tag k="name" v="Buskåsen" />
		<tag k="natural" v="hill" />
		<tag k="place" v="locality" />
		<tag k="ssr:stedsnr" v="830886" />
	</node>
	<node id="-38253" lat="60.0127000023" lon="11.4531194381">
		<tag k="name" v="Svarvestolen" />
		<tag k="place" v="locality" />
		<tag k="ssr:stedsnr" v="41467" />
	</node>
	<node id="-38252" lat="60.0349611086" lon="11.8187555522">
		<tag k="name" v="Syltedalsberget" />
		<tag k="natural" v="slope" />
		<tag k="place" v="locality" />
		<tag k="ssr:stedsnr" v="41738" />
	</node>
	<node id="-40297" lat="60.0342833318" lon="11.8202611194">
		<tag k="name" v="Syltedalen" />
		<tag k="natural" v="valley" />
		<tag k="place" v="locality" />
		<tag k="ssr:stedsnr" v="830752" />
	</node>
	<node id="-38247" lat="60.0520277761" lon="11.559374991">
		<tag k="fixme" v="consider natural=peak for the most distinct mountains in the district" />
		<tag k="name" v="Rogndalshøgda" />
		<tag k="natural" v="hill" />
		<tag k="place" v="locality" />
		<tag k="ssr:stedsnr" v="41298" />
	</node>
	<node id="-40290" lat="60.1315305523" lon="11.6168944421">
		<tag k="name" v="Vållia" />
		<tag k="natural" v="slope" />
		<tag k="place" v="locality" />
		<tag k="ssr:stedsnr" v="830367" />
	</node>
	<node id="-40289" lat="60.0838722259" lon="11.644908335">
		<tag k="name" v="Vaktberget" />
		<tag k="natural" v="ridge" />
		<tag k="place" v="locality" />
		<tag k="ssr:stedsnr" v="830348" />
	</node>
	<node id="-38238" lat="60.0122000006" lon="11.6442750073">
		<tag k="fixme" v="consider natural=peak for the most distinct mountains in the district" />
		<tag k="name" v="Myrsæterhøgda" />
		<tag k="natural" v="hill" />
		<tag k="place" v="locality" />
		<tag k="ssr:stedsnr" v="41029" />
	</node>
	<node id="-40283" lat="60.0529611156" lon="11.4678388883">
		<tag k="name" v="Blekjemyrdalen" />
		<tag k="natural" v="valley" />
		<tag k="place" v="locality" />
		<tag k="ssr:stedsnr" v="830284" />
	</node>
	<node id="-37758" lat="60.2657805517" lon="11.4191027733">
		<tag k="name" v="Vasshelldalen" />
		<tag k="natural" v="valley" />
		<tag k="place" v="locality" />
		<tag k="ssr:stedsnr" v="298882" />
	</node>
	<node id="-38230" lat="60.1301944437" lon="11.5709555606">
		<tag k="name" v="Hengekåpedalen" />
		<tag k="natural" v="valley" />
		<tag k="place" v="locality" />
		<tag k="ssr:stedsnr" v="40063" />
	</node>
	<node id="-38228" lat="60.2965138894" lon="11.5066388872">
		<tag k="name" v="Stygghølstoppen" />
		<tag k="natural" v="hill" />
		<tag k="place" v="locality" />
		<tag k="ssr:stedsnr" v="40046" />
	</node>
	<node id="-40266" lat="60.1186138851" lon="11.5838611194">
		<tag k="name" v="Rokkholdalen" />
		<tag k="natural" v="valley" />
		<tag k="place" v="locality" />
		<tag k="ssr:stedsnr" v="830041" />
	</node>
	<node id="-38214" lat="60.2734805574" lon="11.5520083318">
		<tag k="alt_name" v="Nes Høgås" />
		<tag k="fixme" v="consider natural=peak for the most distinct mountains in the district" />
		<tag k="name" v="Nesbu Høgåsen" />
		<tag k="natural" v="hill" />
		<tag k="place" v="locality" />
		<tag k="ssr:stedsnr" v="6583" />
	</node>
	<node id="-38213" lat="60.0488111155" lon="11.7559916642">
		<tag k="fixme" v="multiple name tags, choose one and add the other to alt_name; consider natural=peak for the most distinct mountains in the district" />
		<tag k="name" v="Grasdalsberget;Kjerkeliberget" />
		<tag k="natural" v="hill" />
		<tag k="place" v="locality" />
		<tag k="ssr:stedsnr" v="6578" />
	</node>
	<node id="-40256" lat="60.1648611137" lon="11.5816333341">
		<tag k="fixme" v="consider natural=peak for the most distinct mountains in the district" />
		<tag k="name" v="Eievarden" />
		<tag k="natural" v="hill" />
		<tag k="place" v="locality" />
		<tag k="ssr:stedsnr" v="794835" />
	</node>
	<node id="-38200" lat="60.0041249961" lon="11.4563944493">
		<tag k="fixme" v="consider natural=peak for the most distinct mountains in the district" />
		<tag k="name" v="Steinstjennhøgdene" />
		<tag k="natural" v="hill" />
		<tag k="place" v="locality" />
		<tag k="ssr:stedsnr" v="5951" />
	</node>
	<node id="-38192" lat="60.0901888899" lon="11.5330500001">
		<tag k="fixme" v="consider natural=peak for the most distinct mountains in the district" />
		<tag k="name" v="Lundbergåsen" />
		<tag k="natural" v="hill" />
		<tag k="place" v="locality" />
		<tag k="ssr:stedsnr" v="5716" />
	</node>
	<node id="-38191" lat="60.0936333357" lon="11.6880500091">
		<tag k="alt_name" v="Funnihøgda" />
		<tag k="name" v="Fundihøgda" />
		<tag k="natural" v="hill" />
		<tag k="place" v="locality" />
		<tag k="ssr:stedsnr" v="5708" />
	</node>
	<node id="-40230" lat="60.0616601142" lon="11.7387386684">
		<tag k="alt_name" v="Runniskallern" />
		<tag k="name" v="Runniskallaren" />
		<tag k="natural" v="hill" />
		<tag k="place" v="locality" />
		<tag k="ssr:stedsnr" v="794503" />
	</node>
	<node id="-37688" lat="60.0632777811" lon="11.7657416683">
		<tag k="fixme" v="consider natural=peak for the most distinct mountains in the district" />
		<tag k="name" v="Håkaliberget" />
		<tag k="natural" v="hill" />
		<tag k="place" v="locality" />
		<tag k="ssr:stedsnr" v="284841" />
	</node>
	<node id="-40207" lat="60.2355694415" lon="11.4329527728">
		<tag k="name" v="Deldalen" />
		<tag k="natural" v="valley" />
		<tag k="place" v="locality" />
		<tag k="ssr:stedsnr" v="784968" />
	</node>
	<node id="-40205" lat="60.2505916702" lon="11.5635111038">
		<tag k="name" v="Ovnsberget" />
		<tag k="natural" v="hill" />
		<tag k="place" v="locality" />
		<tag k="ssr:stedsnr" v="784945" />
	</node>
	<node id="-40204" lat="60.2694583296" lon="11.3686138901">
		<tag k="name" v="Lågsjøsletta" />
		<tag k="place" v="locality" />
		<tag k="ssr:stedsnr" v="784940" />
	</node>
	<node id="-38151" lat="60.0499916636" lon="11.7310888898">
		<tag k="name" v="Grevlingstokken" />
		<tag k="place" v="locality" />
		<tag k="ssr:stedsnr" v="898930" />
	</node>
	<node id="-40193" lat="60.3333666624" lon="11.4427861022">
		<tag k="fixme" v="consider natural=peak for the most distinct mountains in the district" />
		<tag k="name" v="Lauvbergtoppen" />
		<tag k="natural" v="hill" />
		<tag k="place" v="locality" />
		<tag k="ssr:stedsnr" v="784767" />
	</node>
	<node id="-38143" lat="60.0495194483" lon="11.7486361063">
		<tag k="name" v="Svarttjennsbrenna" />
		<tag k="natural" v="slope" />
		<tag k="place" v="locality" />
		<tag k="ssr:stedsnr" v="891922" />
	</node>
	<node id="-38142" lat="60.0472972259" lon="11.8060833354">
		<tag k="name" v="Kleivtjennlia" />
		<tag k="natural" v="slope" />
		<tag k="place" v="locality" />
		<tag k="ssr:stedsnr" v="891898" />
	</node>
	<node id="-38139" lat="60.0520083371" lon="11.8160944393">
		<tag k="name" v="Festningen" />
		<tag k="place" v="locality" />
		<tag k="ssr:stedsnr" v="891815" />
	</node>
	<node id="-40185" lat="60.0784333303" lon="11.7402916603">
		<tag k="name" v="Korsmyrlia" />
		<tag k="natural" v="slope" />
		<tag k="place" v="locality" />
		<tag k="ssr:stedsnr" v="784650" />
	</node>
	<node id="-40183" lat="60.2705638931" lon="11.5381999973">
		<tag k="name" v="Styggdalen" />
		<tag k="natural" v="valley" />
		<tag k="place" v="locality" />
		<tag k="ssr:stedsnr" v="784641" />
	</node>
	<node id="-40182" lat="60.2703111099" lon="11.5514722289">
		<tag k="name" v="Passoppdalen" />
		<tag k="natural" v="valley" />
		<tag k="place" v="locality" />
		<tag k="ssr:stedsnr" v="784640" />
	</node>
	<node id="-40180" lat="60.07083611" lon="11.7079500086">
		<tag k="name" v="Peisberget" />
		<tag k="natural" v="hill" />
		<tag k="place" v="locality" />
		<tag k="ssr:stedsnr" v="784624" />
	</node>
	<node id="-40179" lat="60.0730999994" lon="11.7043611077">
		<tag k="name" v="Ormberget" />
		<tag k="natural" v="ridge" />
		<tag k="place" v="locality" />
		<tag k="ssr:stedsnr" v="784623" />
	</node>
	<node id="-38126" lat="60.0120888863" lon="11.4367277716">
		<tag k="name" v="Askettjennsdalen" />
		<tag k="natural" v="valley" />
		<tag k="place" v="locality" />
		<tag k="ssr:stedsnr" v="891493" />
	</node>
	<node id="-40487" lat="60.3268222212" lon="11.4440361153">
		<tag k="name" v="Lauvberget" />
		<tag k="natural" v="cliff" />
		<tag k="ssr:stedsnr" v="905751" />
	</node>
	<node id="-40168" lat="60.2601416638" lon="11.3707055558">
		<tag k="alt_name" v="Tobergshøgda" />
		<tag k="fixme" v="consider natural=peak for the most distinct mountains in the district" />
		<tag k="name" v="Toberget" />
		<tag k="natural" v="hill" />
		<tag k="place" v="locality" />
		<tag k="ssr:stedsnr" v="784170" />
	</node>
	<node id="-40166" lat="60.2505111124" lon="11.416566672">
		<tag k="name" v="Langvassdalen" />
		<tag k="natural" v="valley" />
		<tag k="place" v="locality" />
		<tag k="ssr:stedsnr" v="784168" />
	</node>
	<node id="-40165" lat="60.0116638847" lon="11.4696777751">
		<tag k="name" v="Ringtjenndalen" />
		<tag k="natural" v="valley" />
		<tag k="place" v="locality" />
		<tag k="ssr:stedsnr" v="784162" />
	</node>
	<node id="-40157" lat="60.114705555" lon="11.5792527798">
		<tag k="name" v="Kirsebærhaugen" />
		<tag k="natural" v="hill" />
		<tag k="place" v="locality" />
		<tag k="ssr:stedsnr" v="784011" />
	</node>
	<node id="-38106" lat="60.0450666667" lon="11.6198527847">
		<tag k="name" v="Flinttjennhaugen" />
		<tag k="natural" v="hill" />
		<tag k="place" v="locality" />
		<tag k="ssr:stedsnr" v="890728" />
	</node>
	<node id="-38102" lat="60.1429833347" lon="11.6010138884">
		<tag k="fixme" v="consider natural=peak for the most distinct mountains in the district" />
		<tag k="name" v="Askedalsberget" />
		<tag k="natural" v="hill" />
		<tag k="place" v="locality" />
		<tag k="ssr:stedsnr" v="890369" />
	</node>
	<node id="-40149" lat="60.2477861151" lon="11.2577000051">
		<tag k="name" v="Svintjennlia" />
		<tag k="natural" v="slope" />
		<tag k="place" v="locality" />
		<tag k="ssr:stedsnr" v="783090" />
	</node>
	<node id="-40143" lat="60.0336916692" lon="11.4836027857">
		<tag k="fixme" v="consider natural=peak for the most distinct mountains in the district" />
		<tag k="name" v="Langmåsahøgda" />
		<tag k="natural" v="hill" />
		<tag k="place" v="locality" />
		<tag k="ssr:stedsnr" v="777791" />
	</node>
	<node id="-40141" lat="60.0647472224" lon="11.5976000036">
		<tag k="name" v="Ynshøgda" />
		<tag k="natural" v="ridge" />
		<tag k="place" v="locality" />
		<tag k="ssr:stedsnr" v="777578" />
	</node>
	<node id="-40140" lat="60.0424250037" lon="11.7657222307">
		<tag k="name" v="Bråtadalen" />
		<tag k="natural" v="valley" />
		<tag k="place" v="locality" />
		<tag k="ssr:stedsnr" v="777189" />
	</node>
	<node id="-40135" lat="60.0727861131" lon="11.7435638885">
		<tag k="name" v="Geittjennbrenna" />
		<tag k="natural" v="hill" />
		<tag k="place" v="locality" />
		<tag k="ssr:stedsnr" v="772619" />
	</node>
	<node id="-38085" lat="60.0472750044" lon="11.661236106">
		<tag k="name" v="Glesteinlia" />
		<tag k="natural" v="slope" />
		<tag k="place" v="locality" />
		<tag k="ssr:stedsnr" v="474602" />
	</node>
	<node id="-38082" lat="60.0419083306" lon="11.7843750001">
		<tag k="name" v="Stasberget" />
		<tag k="natural" v="cliff" />
		<tag k="ssr:stedsnr" v="413222" />
	</node>
	<node id="-40128" lat="60.0536055599" lon="11.7274527699">
		<tag k="name" v="Piphaugen" />
		<tag k="natural" v="hill" />
		<tag k="place" v="locality" />
		<tag k="ssr:stedsnr" v="769905" />
	</node>
	<node id="-38076" lat="60.047055551" lon="11.8207750077">
		<tag k="name" v="Piperkallia" />
		<tag k="natural" v="slope" />
		<tag k="place" v="locality" />
		<tag k="ssr:stedsnr" v="407570" />
	</node>
	<node id="-40121" lat="60.0451499955" lon="11.8162111147">
		<tag k="name" v="Blauthellene" />
		<tag k="place" v="locality" />
		<tag k="ssr:stedsnr" v="769782" />
	</node>
	<node id="-38072" lat="60.0631349062" lon="11.7387717866">
		<tag k="fixme" v="consider natural=peak for the most distinct mountains in the district" />
		<tag k="name" v="Høgeberget" />
		<tag k="natural" v="hill" />
		<tag k="place" v="locality" />
		<tag k="ssr:stedsnr" v="405918" />
	</node>
	<node id="-40116" lat="60.0429166694" lon="11.8113333407">
		<tag k="name" v="Blauthellene" />
		<tag k="place" v="locality" />
		<tag k="ssr:stedsnr" v="769741" />
	</node>
	<node id="-38067" lat="60.0498416648" lon="11.8211916712">
		<tag k="name" v="Haraberget" />
		<tag k="natural" v="hill" />
		<tag k="place" v="locality" />
		<tag k="ssr:stedsnr" v="405830" />
	</node>
	<node id="-38065" lat="60.0358444468" lon="11.6471527766">
		<tag k="fixme" v="consider natural=peak for the most distinct mountains in the district" />
		<tag k="name" v="Steinhaugen" />
		<tag k="natural" v="hill" />
		<tag k="place" v="locality" />
		<tag k="ssr:stedsnr" v="405802" />
	</node>
	<node id="-40105" lat="60.1388750007" lon="11.603463888">
		<tag k="name" v="Kalvedalen" />
		<tag k="natural" v="valley" />
		<tag k="place" v="locality" />
		<tag k="ssr:stedsnr" v="769392" />
	</node>
	<node id="-38047" lat="60.0073277778" lon="11.4313916743">
		<tag k="name" v="Nybrudalen" />
		<tag k="natural" v="valley" />
		<tag k="place" v="locality" />
		<tag k="ssr:stedsnr" v="405492" />
	</node>
	<node id="-40093" lat="60.1247305559" lon="11.6439916712">
		<tag k="name" v="Bringebærvålhøgda" />
		<tag k="natural" v="hill" />
		<tag k="place" v="locality" />
		<tag k="ssr:stedsnr" v="769143" />
	</node>
	<node id="-40092" lat="60.111966663" lon="11.6497361034">
		<tag k="name" v="Gudbrandsdalen" />
		<tag k="natural" v="valley" />
		<tag k="place" v="locality" />
		<tag k="ssr:stedsnr" v="769137" />
	</node>
	<node id="-40091" lat="60.017538887" lon="11.708002785">
		<tag k="fixme" v="consider natural=peak for the most distinct mountains in the district" />
		<tag k="name" v="Mørdrevangshøgda" />
		<tag k="natural" v="hill" />
		<tag k="place" v="locality" />
		<tag k="ssr:stedsnr" v="769100" />
	</node>
	<node id="-38042" lat="60.1438111068" lon="11.6074027842">
		<tag k="name" v="Svarttjernhøgda" />
		<tag k="natural" v="hill" />
		<tag k="place" v="locality" />
		<tag k="ssr:stedsnr" v="405386" />
	</node>
	<node id="-39791" lat="60.0734777733" lon="11.700472227">
		<tag k="name" v="Deldalen" />
		<tag k="natural" v="valley" />
		<tag k="place" v="locality" />
		<tag k="ssr:stedsnr" v="662624" />
	</node>
	<node id="-38039" lat="60.0835638884" lon="11.6762277862">
		<tag k="name" v="Korsfløytdalen" />
		<tag k="natural" v="valley" />
		<tag k="place" v="locality" />
		<tag k="ssr:stedsnr" v="405370" />
	</node>
	<node id="-37742" lat="60.2778722259" lon="11.5351305515">
		<tag k="name" v="Skomakerdalen" />
		<tag k="natural" v="valley" />
		<tag k="place" v="locality" />
		<tag k="ssr:stedsnr" v="298599" />
	</node>
	<node id="-40130" lat="60.047266666" lon="11.7420000054">
		<tag k="name" v="Styggedalen" />
		<tag k="natural" v="valley" />
		<tag k="place" v="locality" />
		<tag k="ssr:stedsnr" v="769914" />
	</node>
	<node id="-38026" lat="60.1217527775" lon="11.6415749926">
		<tag k="name" v="Midtåsen" />
		<tag k="natural" v="hill" />
		<tag k="place" v="locality" />
		<tag k="ssr:stedsnr" v="405139" />
	</node>
	<node id="-38025" lat="60.1105944453" lon="11.6474111196">
		<tag k="fixme" v="consider natural=peak for the most distinct mountains in the district" />
		<tag k="name" v="Ringmarkhaugen" />
		<tag k="natural" v="hill" />
		<tag k="place" v="locality" />
		<tag k="ssr:stedsnr" v="405135" />
	</node>
	<node id="-38019" lat="60.013394444" lon="11.6768694384">
		<tag k="fixme" v="consider natural=peak for the most distinct mountains in the district" />
		<tag k="name" v="Steinstjernbrenna" />
		<tag k="natural" v="hill" />
		<tag k="place" v="locality" />
		<tag k="ssr:stedsnr" v="405029" />
	</node>
	<node id="-38017" lat="60.0495611101" lon="11.5665138842">
		<tag k="name" v="Askedalen" />
		<tag k="natural" v="valley" />
		<tag k="place" v="locality" />
		<tag k="ssr:stedsnr" v="404291" />
	</node>
	<node id="-38016" lat="60.1299722184" lon="11.5735861102">
		<tag k="name" v="Saumyrdalen" />
		<tag k="natural" v="valley" />
		<tag k="place" v="locality" />
		<tag k="ssr:stedsnr" v="404052" />
	</node>
	<node id="-38011" lat="60.0516166652" lon="11.5873861093">
		<tag k="name" v="Østre Gullroskne" />
		<tag k="place" v="locality" />
		<tag k="ssr:stedsnr" v="370592" />
	</node>
	<node id="-40053" lat="60.310358335" lon="11.4354472155">
		<tag k="name" v="Migerdalen" />
		<tag k="natural" v="valley" />
		<tag k="place" v="locality" />
		<tag k="ssr:stedsnr" v="734149" />
	</node>
	<node id="-40040" lat="60.1230749983" lon="11.5565333399">
		<tag k="fixme" v="consider natural=peak for the most distinct mountains in the district" />
		<tag k="name" v="Aulihøgda" />
		<tag k="natural" v="hill" />
		<tag k="place" v="locality" />
		<tag k="ssr:stedsnr" v="733658" />
	</node>
	<node id="-40038" lat="60.1505305524" lon="11.5434749934">
		<tag k="name" v="Kleivberghøgda" />
		<tag k="natural" v="hill" />
		<tag k="place" v="locality" />
		<tag k="ssr:stedsnr" v="733599" />
	</node>
	<node id="-38073" lat="60.0467138924" lon="11.7491583247">
		<tag k="name" v="Kirkelia" />
		<tag k="natural" v="slope" />
		<tag k="place" v="locality" />
		<tag k="ssr:stedsnr" v="405931" />
	</node>
	<node id="-40015" lat="60.2658166671" lon="11.4708194487">
		<tag k="name" v="Sinaimyrdalen" />
		<tag k="natural" v="valley" />
		<tag k="place" v="locality" />
		<tag k="ssr:stedsnr" v="723846" />
	</node>
	<node id="-37961" lat="60.3305222255" lon="11.4752027848">
		<tag k="name" v="Rabbdalen" />
		<tag k="natural" v="slope" />
		<tag k="place" v="locality" />
		<tag k="ssr:stedsnr" v="177728" />
	</node>
	<node id="-40007" lat="60.3062666698" lon="11.4810249998">
		<tag k="name" v="Botntjennhøgda" />
		<tag k="natural" v="hill" />
		<tag k="place" v="locality" />
		<tag k="ssr:stedsnr" v="723725" />
	</node>
	<node id="-40006" lat="60.3261861111" lon="11.4692777852">
		<tag k="name" v="Jonsokberget" />
		<tag k="natural" v="cliff" />
		<tag k="ssr:stedsnr" v="723694" />
	</node>
	<node id="-39984" lat="60.069286109" lon="11.6225277688">
		<tag k="name" v="Kvernlia" />
		<tag k="natural" v="slope" />
		<tag k="place" v="locality" />
		<tag k="ssr:stedsnr" v="723274" />
	</node>
	<node id="-37934" lat="60.1034138854" lon="11.6999555585">
		<tag k="name" v="Krapptjennholen" />
		<tag k="natural" v="hill" />
		<tag k="place" v="locality" />
		<tag k="ssr:stedsnr" v="359627" />
	</node>
	<node id="-39981" lat="60.0768638879" lon="11.6766555565">
		<tag k="name" v="Klartjennåsen" />
		<tag k="natural" v="hill" />
		<tag k="place" v="locality" />
		<tag k="ssr:stedsnr" v="723315" />
	</node>
	<node id="-39980" lat="60.0702916636" lon="11.689641668">
		<tag k="name" v="Tiurhaugen" />
		<tag k="natural" v="hill" />
		<tag k="place" v="locality" />
		<tag k="ssr:stedsnr" v="723313" />
	</node>
	<node id="-37929" lat="60.3067972252" lon="11.4407833425">
		<tag k="name" v="Hvamslia" />
		<tag k="natural" v="slope" />
		<tag k="place" v="locality" />
		<tag k="ssr:stedsnr" v="359556" />
	</node>
	<node id="-39972" lat="60.1188999965" lon="11.5650694424">
		<tag k="name" v="Aulikastet" />
		<tag k="place" v="locality" />
		<tag k="ssr:stedsnr" v="723010" />
	</node>
	<node id="-37922" lat="60.0689833326" lon="11.6683055516">
		<tag k="name" v="Sletta" />
		<tag k="place" v="locality" />
		<tag k="ssr:stedsnr" v="359356" />
	</node>
	<node id="-37920" lat="60.0748888847" lon="11.655658329">
		<tag k="name" v="Gravdalslia" />
		<tag k="natural" v="slope" />
		<tag k="place" v="locality" />
		<tag k="ssr:stedsnr" v="359324" />
	</node>
	<node id="-39962" lat="60.0502888868" lon="11.6895027835">
		<tag k="fixme" v="consider natural=peak for the most distinct mountains in the district" />
		<tag k="name" v="Heitoppen" />
		<tag k="natural" v="hill" />
		<tag k="place" v="locality" />
		<tag k="ssr:stedsnr" v="716592" />
	</node>
	<node id="-39954" lat="60.2643916631" lon="11.5880222246">
		<tag k="name" v="Bjønnstokkbakken" />
		<tag k="natural" v="slope" />
		<tag k="place" v="locality" />
		<tag k="ssr:stedsnr" v="709063" />
	</node>
	<node id="-39949" lat="60.0476361119" lon="11.7080416725">
		<tag k="name" v="Tjennsåsen" />
		<tag k="natural" v="hill" />
		<tag k="place" v="locality" />
		<tag k="ssr:stedsnr" v="708919" />
	</node>
	<node id="-39948" lat="60.0546638892" lon="11.714924995">
		<tag k="name" v="Haukeliberget" />
		<tag k="natural" v="cliff" />
		<tag k="ssr:stedsnr" v="708903" />
	</node>
	<node id="-39945" lat="60.0452611156" lon="11.7846416608">
		<tag k="name" v="Sommerfjøsåsen" />
		<tag k="natural" v="hill" />
		<tag k="place" v="locality" />
		<tag k="ssr:stedsnr" v="708886" />
	</node>
	<node id="-39931" lat="60.1466138911" lon="11.5599138895">
		<tag k="name" v="Gudmundsholtet" />
		<tag k="place" v="locality" />
		<tag k="ssr:stedsnr" v="708366" />
	</node>
	<node id="-39927" lat="60.1499972222" lon="11.5419777826">
		<tag k="name" v="Langfolddalen" />
		<tag k="natural" v="valley" />
		<tag k="place" v="locality" />
		<tag k="ssr:stedsnr" v="708354" />
	</node>
	<node id="-39925" lat="60.0511166631" lon="11.4490555509">
		<tag k="name" v="Kalvebrudalen" />
		<tag k="natural" v="valley" />
		<tag k="place" v="locality" />
		<tag k="ssr:stedsnr" v="708289" />
	</node>
	<node id="-37871" lat="60.0276777802" lon="11.8211138809">
		<tag k="fixme" v="consider natural=peak for the most distinct mountains in the district" />
		<tag k="name" v="Høgåsen" />
		<tag k="natural" v="hill" />
		<tag k="old_name" v="Raudmyrkollen" />
		<tag k="place" v="locality" />
		<tag k="ssr:stedsnr" v="344619" />
	</node>
	<node id="-39917" lat="60.1185027806" lon="11.6495416752">
		<tag k="name" v="Lindlia" />
		<tag k="natural" v="slope" />
		<tag k="place" v="locality" />
		<tag k="ssr:stedsnr" v="708162" />
	</node>
	<node id="-39915" lat="60.1297055553" lon="11.5923111055">
		<tag k="name" v="Tjæregråvdalen" />
		<tag k="natural" v="valley" />
		<tag k="place" v="locality" />
		<tag k="ssr:stedsnr" v="708123" />
	</node>
	<node id="-37866" lat="60.0863472249" lon="11.6428944469">
		<tag k="name" v="Børtjernlia" />
		<tag k="natural" v="slope" />
		<tag k="place" v="locality" />
		<tag k="ssr:stedsnr" v="344376" />
	</node>
	<node id="-37865" lat="60.1411305518" lon="11.5717027732">
		<tag k="fixme" v="consider natural=peak for the most distinct mountains in the district" />
		<tag k="name" v="Kakunuhøgda" />
		<tag k="natural" v="hill" />
		<tag k="place" v="locality" />
		<tag k="ssr:stedsnr" v="344361" />
	</node>
	<node id="-39909" lat="60.0190444438" lon="11.5862750053">
		<tag k="name" v="Frøyhovdlia" />
		<tag k="natural" v="slope" />
		<tag k="place" v="locality" />
		<tag k="ssr:stedsnr" v="708013" />
	</node>
	<node id="-39908" lat="60.0107638902" lon="11.6244222202">
		<tag k="name" v="Rynjutjernlia" />
		<tag k="natural" v="slope" />
		<tag k="place" v="locality" />
		<tag k="ssr:stedsnr" v="708008" />
	</node>
	<node id="-39905" lat="60.0555972189" lon="11.6223944382">
		<tag k="fixme" v="consider natural=peak for the most distinct mountains in the district" />
		<tag k="name" v="Bårsliknatten" />
		<tag k="natural" v="hill" />
		<tag k="place" v="locality" />
		<tag k="ssr:stedsnr" v="674576" />
	</node>
	<node id="-37850" lat="60.1227166685" lon="11.6138166732">
		<tag k="name" v="Damhaug" />
		<tag k="natural" v="hill" />
		<tag k="place" v="locality" />
		<tag k="ssr:stedsnr" v="344094" />
	</node>
	<node id="-37844" lat="60.1290972193" lon="11.5765777702">
		<tag k="name" v="Langholen" />
		<tag k="natural" v="ridge" />
		<tag k="place" v="locality" />
		<tag k="ssr:stedsnr" v="344048" />
	</node>
	<node id="-37843" lat="60.0235111109" lon="11.5487500055">
		<tag k="fixme" v="consider natural=peak for the most distinct mountains in the district" />
		<tag k="name" v="Øysjøhøgda" />
		<tag k="natural" v="hill" />
		<tag k="place" v="locality" />
		<tag k="ssr:stedsnr" v="344047" />
	</node>
	<node id="-39889" lat="60.0180861088" lon="11.5249111175">
		<tag k="fixme" v="consider natural=peak for the most distinct mountains in the district" />
		<tag k="name" v="Tyvknattane" />
		<tag k="natural" v="hill" />
		<tag k="place" v="locality" />
		<tag k="ssr:stedsnr" v="673583" />
	</node>
	<node id="-39885" lat="60.0410388845" lon="11.7243500031">
		<tag k="fixme" v="consider natural=peak for the most distinct mountains in the district" />
		<tag k="name" v="Glasshaugen" />
		<tag k="natural" v="hill" />
		<tag k="place" v="locality" />
		<tag k="ssr:stedsnr" v="673565" />
	</node>
	<node id="-37836" lat="60.0635444472" lon="11.6963694453">
		<tag k="name" v="Kavlebrudalen" />
		<tag k="natural" v="valley" />
		<tag k="place" v="locality" />
		<tag k="ssr:stedsnr" v="344906" />
	</node>
	<node id="-37835" lat="60.2379972245" lon="11.417666663">
		<tag k="fixme" v="consider natural=peak for the most distinct mountains in the district" />
		<tag k="name" v="Jonsrudberget" />
		<tag k="natural" v="hill" />
		<tag k="place" v="locality" />
		<tag k="ssr:stedsnr" v="126319" />
	</node>
	<node id="-39877" lat="60.2317416703" lon="11.449177779">
		<tag k="fixme" v="consider natural=peak for the most distinct mountains in the district" />
		<tag k="name" v="Lindberget" />
		<tag k="natural" v="hill" />
		<tag k="place" v="locality" />
		<tag k="ssr:stedsnr" v="673351" />
	</node>
	<node id="-37823" lat="60.2272361148" lon="11.4552527746">
		<tag k="name" v="Vøyenhøgda" />
		<tag k="natural" v="hill" />
		<tag k="place" v="locality" />
		<tag k="ssr:stedsnr" v="309338" />
	</node>
	<node id="-38045" lat="60.0770333371" lon="11.6934805531">
		<tag k="name" v="Putteberget" />
		<tag k="natural" v="hill" />
		<tag k="place" v="locality" />
		<tag k="ssr:stedsnr" v="405405" />
	</node>
	<node id="-37792" lat="60.1428583362" lon="11.6224250059">
		<tag k="fixme" v="consider natural=peak for the most distinct mountains in the district" />
		<tag k="name" v="Almåsen" />
		<tag k="natural" v="hill" />
		<tag k="place" v="locality" />
		<tag k="ssr:stedsnr" v="308627" />
	</node>
	<node id="-37791" lat="60.1529359602" lon="11.5722643657">
		<tag k="fixme" v="consider natural=peak for the most distinct mountains in the district" />
		<tag k="name" v="Knefallmåsaberget" />
		<tag k="natural" v="hill" />
		<tag k="old_name" v="Knefalimosaberget;Knefalimåsaberget" />
		<tag k="place" v="locality" />
		<tag k="ssr:stedsnr" v="308614" />
	</node>
	<node id="-37789" lat="60.0165388923" lon="11.4869777771">
		<tag k="fixme" v="consider natural=peak for the most distinct mountains in the district" />
		<tag k="name" v="Høgåsen" />
		<tag k="natural" v="hill" />
		<tag k="place" v="locality" />
		<tag k="ssr:stedsnr" v="308363" />
	</node>
	<node id="-39824" lat="60.2743500026" lon="11.4363583398">
		<tag k="name" v="Torvet" />
		<tag k="place" v="locality" />
		<tag k="ssr:stedsnr" v="662904" />
	</node>
	<node id="-37775" lat="60.1687750042" lon="11.5748916617">
		<tag k="name" v="Bjønndalen" />
		<tag k="natural" v="valley" />
		<tag k="place" v="locality" />
		<tag k="ssr:stedsnr" v="299789" />
	</node>
	<node id="-39806" lat="60.3438222188" lon="11.4296305583">
		<tag k="name" v="Kaffiholen" />
		<tag k="place" v="locality" />
		<tag k="ssr:stedsnr" v="662713" />
	</node>
	<node id="-39802" lat="60.0940888873" lon="11.7143388843">
		<tag k="name" v="Blåberget" />
		<tag k="place" v="locality" />
		<tag k="ssr:stedsnr" v="662656" />
	</node>
	<node id="-39799" lat="60.2949888859" lon="11.4148722282">
		<tag k="name" v="Tjernslidalen" />
		<tag k="natural" v="valley" />
		<tag k="place" v="locality" />
		<tag k="ssr:stedsnr" v="662646" />
	</node>
	<node id="-39796" lat="60.2725916657" lon="11.5444166715">
		<tag k="name" v="Deldalen" />
		<tag k="natural" v="valley" />
		<tag k="place" v="locality" />
		<tag k="ssr:stedsnr" v="662637" />
	</node>
	<node id="-39794" lat="60.0988388928" lon="11.700425004">
		<tag k="name" v="Djeveløya" />
		<tag k="old_name" v="Dleveløya" />
		<tag k="place" v="locality" />
		<tag k="ssr:stedsnr" v="662636" />
	</node>
	<node id="-37744" lat="60.0734055599" lon="11.7467055504">
		<tag k="name" v="Delmyrlia" />
		<tag k="natural" v="slope" />
		<tag k="place" v="locality" />
		<tag k="ssr:stedsnr" v="298606" />
	</node>
	<node id="-37743" lat="60.1009333334" lon="11.7069500073">
		<tag k="name" v="Kvehaug" />
		<tag k="natural" v="hill" />
		<tag k="place" v="locality" />
		<tag k="ssr:stedsnr" v="298601" />
	</node>
	<node id="-39790" lat="60.0684972204" lon="11.7863500006">
		<tag k="name" v="Blåbærtangen" />
		<tag k="place" v="locality" />
		<tag k="ssr:stedsnr" v="662619" />
	</node>
	<node id="-39785" lat="60.3181666651" lon="11.4310555488">
		<tag k="name" v="Nordre sleppa" />
		<tag k="place" v="locality" />
		<tag k="ssr:stedsnr" v="662538" />
	</node>
	<node id="-39783" lat="60.0913333373" lon="11.7169361135">
		<tag k="name" v="Puttlia" />
		<tag k="natural" v="slope" />
		<tag k="place" v="locality" />
		<tag k="ssr:stedsnr" v="662526" />
	</node>
	<node id="-39782" lat="60.0888861129" lon="11.7310166748">
		<tag k="name" v="Otermyrlia" />
		<tag k="natural" v="slope" />
		<tag k="place" v="locality" />
		<tag k="ssr:stedsnr" v="662525" />
	</node>
	<node id="-39780" lat="60.0937194468" lon="11.6981888965">
		<tag k="name" v="Det sprekte berget" />
		<tag k="place" v="locality" />
		<tag k="ssr:stedsnr" v="662524" />
	</node>
	<node id="-39778" lat="60.1481888906" lon="11.5999666736">
		<tag k="name" v="Tyttebærhøgda" />
		<tag k="natural" v="hill" />
		<tag k="place" v="locality" />
		<tag k="ssr:stedsnr" v="662488" />
	</node>
	<node id="-37728" lat="60.0722138899" lon="11.5944111094">
		<tag k="name" v="Hunndalen" />
		<tag k="natural" v="valley" />
		<tag k="place" v="locality" />
		<tag k="ssr:stedsnr" v="298253" />
	</node>
	<node id="-37724" lat="60.2422472234" lon="11.2873111044">
		<tag k="name" v="Brattstupen" />
		<tag k="natural" v="cliff" />
		<tag k="ssr:stedsnr" v="298120" />
	</node>
	<node id="-37722" lat="60.2259611126" lon="11.5274000075">
		<tag k="fixme" v="consider natural=peak for the most distinct mountains in the district" />
		<tag k="name" v="Sagåsen" />
		<tag k="natural" v="hill" />
		<tag k="place" v="locality" />
		<tag k="ssr:stedsnr" v="298103" />
	</node>
	<node id="-37720" lat="60.2245972249" lon="11.4739472272">
		<tag k="name" v="Rustaddalen" />
		<tag k="natural" v="valley" />
		<tag k="place" v="locality" />
		<tag k="ssr:stedsnr" v="298070" />
	</node>
	<node id="-39766" lat="60.2603944453" lon="11.3198000019">
		<tag k="name" v="Bakhondalen" />
		<tag k="natural" v="valley" />
		<tag k="place" v="locality" />
		<tag k="ssr:stedsnr" v="662128" />
	</node>
	<node id="-39765" lat="60.2259138906" lon="11.3628888841">
		<tag k="name" v="Hovindalen" />
		<tag k="natural" v="valley" />
		<tag k="place" v="locality" />
		<tag k="ssr:stedsnr" v="662122" />
	</node>
	<node id="-39764" lat="60.2535361151" lon="11.3241944487">
		<tag k="name" v="Fjellhammeren" />
		<tag k="natural" v="cliff" />
		<tag k="ssr:stedsnr" v="662110" />
	</node>
	<node id="-39759" lat="60.2385527753" lon="11.2660805561">
		<tag k="name" v="Ospelia" />
		<tag k="natural" v="slope" />
		<tag k="place" v="locality" />
		<tag k="ssr:stedsnr" v="662051" />
	</node>
	<node id="-37706" lat="60.0450666702" lon="11.6820555574">
		<tag k="name" v="Kattåsen" />
		<tag k="natural" v="hill" />
		<tag k="place" v="locality" />
		<tag k="ssr:stedsnr" v="292570" />
	</node>
	<node id="-39748" lat="60.0647805559" lon="11.5954805512">
		<tag k="name" v="Følldalen" />
		<tag k="natural" v="valley" />
		<tag k="place" v="locality" />
		<tag k="ssr:stedsnr" v="655582" />
	</node>
	<node id="-38027" lat="60.124077782" lon="11.6415638868">
		<tag k="fixme" v="consider natural=peak for the most distinct mountains in the district" />
		<tag k="name" v="Butjennhøgda" />
		<tag k="natural" v="hill" />
		<tag k="place" v="locality" />
		<tag k="ssr:stedsnr" v="405143" />
	</node>
	<node id="-37696" lat="60.0471805519" lon="11.7694083343">
		<tag k="name" v="Kverntjennlia" />
		<tag k="natural" v="slope" />
		<tag k="place" v="locality" />
		<tag k="ssr:stedsnr" v="284917" />
	</node>
	<node id="-37692" lat="60.056452778" lon="11.7780555509">
		<tag k="name" v="Eikestøhølet" />
		<tag k="place" v="locality" />
		<tag k="ssr:stedsnr" v="284897" />
	</node>
	<node id="-39738" lat="60.061113889" lon="11.7721027704">
		<tag k="name" v="Kjerstibrenna" />
		<tag k="natural" v="cliff" />
		<tag k="ssr:stedsnr" v="647954" />
	</node>
	<node id="-39736" lat="60.0475861121" lon="11.7288583364">
		<tag k="name" v="Storrmyrhaugene" />
		<tag k="natural" v="hill" />
		<tag k="place" v="locality" />
		<tag k="ssr:stedsnr" v="647929" />
	</node>
	<node id="-39734" lat="60.0448694476" lon="11.7959972219">
		<tag k="name" v="Musehogget" />
		<tag k="place" v="locality" />
		<tag k="ssr:stedsnr" v="647900" />
	</node>
	<node id="-37685" lat="60.2158444473" lon="11.4196638859">
		<tag k="fixme" v="consider natural=peak for the most distinct mountains in the district" />
		<tag k="name" v="Holeberget" />
		<tag k="natural" v="hill" />
		<tag k="place" v="locality" />
		<tag k="ssr:stedsnr" v="284567" />
	</node>
	<node id="-39731" lat="60.0408499969" lon="11.6617611111">
		<tag k="name" v="Isdalen" />
		<tag k="natural" v="valley" />
		<tag k="place" v="locality" />
		<tag k="ssr:stedsnr" v="647779" />
	</node>
	<node id="-37680" lat="60.0755166664" lon="11.6849611075">
		<tag k="fixme" v="consider natural=peak for the most distinct mountains in the district" />
		<tag k="name" v="Klartjennputtåsen" />
		<tag k="natural" v="hill" />
		<tag k="place" v="locality" />
		<tag k="ssr:stedsnr" v="284378" />
	</node>
	<node id="-37676" lat="60.1496277753" lon="11.5768888805">
		<tag k="name" v="Eiekollen" />
		<tag k="natural" v="hill" />
		<tag k="place" v="locality" />
		<tag k="ssr:stedsnr" v="284360" />
	</node>
	<node id="-37671" lat="60.0164333324" lon="11.6189833371">
		<tag k="fixme" v="consider natural=peak for the most distinct mountains in the district" />
		<tag k="name" v="Tyrihjellen" />
		<tag k="natural" v="hill" />
		<tag k="place" v="locality" />
		<tag k="ssr:stedsnr" v="284045" />
	</node>
	<node id="-39717" lat="60.1407888882" lon="11.6085333366">
		<tag k="fixme" v="consider natural=peak for the most distinct mountains in the district" />
		<tag k="name" v="Gråtendalsberget" />
		<tag k="natural" v="hill" />
		<tag k="place" v="locality" />
		<tag k="ssr:stedsnr" v="647395" />
	</node>
	<node id="-39716" lat="60.1474750037" lon="11.5344138854">
		<tag k="name" v="Postløkka" />
		<tag k="place" v="locality" />
		<tag k="ssr:stedsnr" v="647387" />
	</node>
	<node id="-39715" lat="60.0690333305" lon="11.7029138824">
		<tag k="name" v="Sleppa" />
		<tag k="place" v="locality" />
		<tag k="ssr:stedsnr" v="647384" />
	</node>
	<node id="-39713" lat="60.1344750006" lon="11.5600333347">
		<tag k="fixme" v="consider natural=peak for the most distinct mountains in the district" />
		<tag k="name" v="Ursberghøgda" />
		<tag k="natural" v="hill" />
		<tag k="place" v="locality" />
		<tag k="ssr:stedsnr" v="647356" />
	</node>
	<node id="-39712" lat="60.0523305519" lon="11.4855972255">
		<tag k="name" v="Helvetesdalen" />
		<tag k="natural" v="valley" />
		<tag k="place" v="locality" />
		<tag k="ssr:stedsnr" v="647351" />
	</node>
	<node id="-39728" lat="60.0290694448" lon="11.8173388893">
		<tag k="name" v="Slemdalsdråga" />
		<tag k="place" v="locality" />
		<tag k="ssr:stedsnr" v="647740" />
	</node>
	<node id="-39701" lat="60.1127833299" lon="11.6523944438">
		<tag k="name" v="Gråterdalen" />
		<tag k="natural" v="valley" />
		<tag k="place" v="locality" />
		<tag k="ssr:stedsnr" v="647173" />
	</node>
	<node id="-39700" lat="60.021208337" lon="11.7473805571">
		<tag k="fixme" v="consider natural=peak for the most distinct mountains in the district" />
		<tag k="name" v="Rakeiåsen" />
		<tag k="natural" v="hill" />
		<tag k="place" v="locality" />
		<tag k="ssr:stedsnr" v="647139" />
	</node>
	<node id="-39691" lat="60.1257722228" lon="11.5765527714">
		<tag k="name" v="Firebakkåsen" />
		<tag k="natural" v="hill" />
		<tag k="place" v="locality" />
		<tag k="ssr:stedsnr" v="647082" />
	</node>
	<node id="-39681" lat="60.0413583361" lon="11.8018972272">
		<tag k="name" v="Butjernberget" />
		<tag k="natural" v="cliff" />
		<tag k="ssr:stedsnr" v="643742" />
	</node>
	<node id="-39680" lat="60.2765805549" lon="11.4067138905">
		<tag k="fixme" v="consider natural=peak for the most distinct mountains in the district" />
		<tag k="name" v="Vardehøgda" />
		<tag k="natural" v="hill" />
		<tag k="place" v="locality" />
		<tag k="ssr:stedsnr" v="613184" />
	</node>
	<node id="-39679" lat="60.0228916711" lon="11.368297218">
		<tag k="fixme" v="consider natural=peak for the most distinct mountains in the district" />
		<tag k="name" v="Rustadåsen" />
		<tag k="natural" v="hill" />
		<tag k="place" v="locality" />
		<tag k="ssr:stedsnr" v="612940" />
	</node>
	<node id="-39672" lat="60.1145138925" lon="11.6766527846">
		<tag k="fixme" v="consider natural=peak for the most distinct mountains in the district" />
		<tag k="name" v="Vålhaugen" />
		<tag k="natural" v="hill" />
		<tag k="place" v="locality" />
		<tag k="ssr:stedsnr" v="612697" />
	</node>
	<node id="-39663" lat="60.056400004" lon="11.4979194422">
		<tag k="name" v="Kjerkehøgda" />
		<tag k="natural" v="hill" />
		<tag k="place" v="locality" />
		<tag k="ssr:stedsnr" v="612562" />
	</node>
	<node id="-39661" lat="60.0567666646" lon="11.7544333398">
		<tag k="alt_name" v="Skøyenskallern" />
		<tag k="fixme" v="consider natural=peak for the most distinct mountains in the district" />
		<tag k="name" v="Skøyenskalleren" />
		<tag k="natural" v="hill" />
		<tag k="place" v="locality" />
		<tag k="ssr:stedsnr" v="612549" />
	</node>
	<node id="-39658" lat="60.0781888847" lon="11.6002388955">
		<tag k="alt_name" v="Andfjellhøgda" />
		<tag k="name" v="Andfjell" />
		<tag k="natural" v="hill" />
		<tag k="place" v="locality" />
		<tag k="ssr:stedsnr" v="612539" />
	</node>
	<node id="-39657" lat="60.0857055568" lon="11.6555694376">
		<tag k="fixme" v="consider natural=peak for the most distinct mountains in the district" />
		<tag k="name" v="Sølvknatten" />
		<tag k="natural" v="hill" />
		<tag k="place" v="locality" />
		<tag k="ssr:stedsnr" v="612538" />
	</node>
	<node id="-39643" lat="60.1071888846" lon="11.6653499928">
		<tag k="name" v="Oterhøgda" />
		<tag k="natural" v="hill" />
		<tag k="place" v="locality" />
		<tag k="ssr:stedsnr" v="611718" />
	</node>
	<node id="-39626" lat="60.2206388891" lon="11.4177249915">
		<tag k="name" v="Hasledalen" />
		<tag k="natural" v="valley" />
		<tag k="place" v="locality" />
		<tag k="ssr:stedsnr" v="601980" />
	</node>
	<node id="-39625" lat="60.0983305563" lon="11.557030553">
		<tag k="name" v="Rolighetsmoen" />
		<tag k="place" v="locality" />
		<tag k="ssr:stedsnr" v="601979" />
	</node>
	<node id="-39615" lat="60.2692861104" lon="11.5468000031">
		<tag k="fixme" v="consider natural=peak for the most distinct mountains in the district" />
		<tag k="name" v="Jenshøgda" />
		<tag k="natural" v="hill" />
		<tag k="place" v="locality" />
		<tag k="ssr:stedsnr" v="601866" />
	</node>
	<node id="-39610" lat="60.3170333294" lon="11.47635555">
		<tag k="name" v="Grevlinghøla" />
		<tag k="place" v="locality" />
		<tag k="ssr:stedsnr" v="601731" />
	</node>
	<node id="-39609" lat="60.3186138889" lon="11.4888638843">
		<tag k="name" v="Trettebråtahøgda" />
		<tag k="natural" v="hill" />
		<tag k="place" v="locality" />
		<tag k="ssr:stedsnr" v="601729" />
	</node>
	<node id="-39608" lat="60.3198444413" lon="11.4662277708">
		<tag k="name" v="Lønndalen" />
		<tag k="natural" v="valley" />
		<tag k="place" v="locality" />
		<tag k="ssr:stedsnr" v="601716" />
	</node>
	<node id="-39605" lat="60.0888333344" lon="11.7409944462">
		<tag k="name" v="Eieseterhola" />
		<tag k="natural" v="hill" />
		<tag k="place" v="locality" />
		<tag k="ssr:stedsnr" v="601620" />
	</node>
	<node id="-39601" lat="60.2754916635" lon="11.5739083313">
		<tag k="alt_name" v="Kalvedalen" />
		<tag k="name" v="Kalvdalen" />
		<tag k="natural" v="valley" />
		<tag k="place" v="locality" />
		<tag k="ssr:stedsnr" v="601598" />
	</node>
	<node id="-39584" lat="60.1626222226" lon="11.585008328">
		<tag k="name" v="Haramyra" />
		<tag k="natural" v="valley" />
		<tag k="place" v="locality" />
		<tag k="ssr:stedsnr" v="601137" />
	</node>
	<node id="-39577" lat="60.1621777769" lon="11.44077222">
		<tag k="name" v="Vingersdalen" />
		<tag k="natural" v="valley" />
		<tag k="place" v="locality" />
		<tag k="ssr:stedsnr" v="601051" />
	</node>
	<node id="-39576" lat="60.1177944432" lon="11.5608250006">
		<tag k="name" v="Leggebeindalen" />
		<tag k="natural" v="valley" />
		<tag k="place" v="locality" />
		<tag k="ssr:stedsnr" v="601010" />
	</node>
	<node id="-39561" lat="60.0569333327" lon="11.7217055502">
		<tag k="name" v="Vesle Haukeberget" />
		<tag k="natural" v="hill" />
		<tag k="place" v="locality" />
		<tag k="ssr:stedsnr" v="587917" />
	</node>
	<node id="-39560" lat="60.0538416671" lon="11.7670722195">
		<tag k="name" v="Kantlinja" />
		<tag k="place" v="locality" />
		<tag k="ssr:stedsnr" v="587890" />
	</node>
	<node id="-39545" lat="60.0347027745" lon="11.7779694402">
		<tag k="name" v="Sundbydråga" />
		<tag k="place" v="locality" />
		<tag k="ssr:stedsnr" v="587727" />
	</node>
	<node id="-39543" lat="60.071575004" lon="11.6993805538">
		<tag k="name" v="Torvet" />
		<tag k="place" v="locality" />
		<tag k="ssr:stedsnr" v="587387" />
	</node>
	<node id="-39535" lat="60.0529777813" lon="11.7753194487">
		<tag k="name" v="Haukeberget" />
		<tag k="natural" v="cliff" />
		<tag k="ssr:stedsnr" v="586876" />
	</node>
	<node id="-39532" lat="60.0523638931" lon="11.6238250044">
		<tag k="name" v="Hanekamhøgda" />
		<tag k="natural" v="hill" />
		<tag k="place" v="locality" />
		<tag k="ssr:stedsnr" v="586689" />
	</node>
	<node id="-39531" lat="60.0481555551" lon="11.6334611097">
		<tag k="name" v="Sollihøgda" />
		<tag k="natural" v="ridge" />
		<tag k="place" v="locality" />
		<tag k="ssr:stedsnr" v="586688" />
	</node>
	<node id="-39528" lat="60.1356527745" lon="11.6184111145">
		<tag k="name" v="Vassfellholtet" />
		<tag k="place" v="locality" />
		<tag k="ssr:stedsnr" v="586378" />
	</node>
	<node id="-39518" lat="60.1160833345" lon="11.5824388818">
		<tag k="name" v="Korsdalen" />
		<tag k="natural" v="valley" />
		<tag k="place" v="locality" />
		<tag k="ssr:stedsnr" v="586026" />
	</node>
	<node id="-39517" lat="60.0223189796" lon="11.530204453">
		<tag k="fixme" v="consider natural=peak for the most distinct mountains in the district" />
		<tag k="name" v="Tjuvknatten" />
		<tag k="natural" v="hill" />
		<tag k="place" v="locality" />
		<tag k="ssr:stedsnr" v="585759" />
	</node>
	<node id="-39513" lat="60.3134388864" lon="11.4229361176">
		<tag k="alt_name" v="Sjursteinhøgda" />
		<tag k="fixme" v="consider natural=peak for the most distinct mountains in the district" />
		<tag k="name" v="Skjulsteinhøgda" />
		<tag k="natural" v="hill" />
		<tag k="place" v="locality" />
		<tag k="ssr:stedsnr" v="552152" />
	</node>
	<node id="-39501" lat="60.2228611109" lon="11.5307527809">
		<tag k="name" v="Skårerberget" />
		<tag k="natural" v="hill" />
		<tag k="place" v="locality" />
		<tag k="ssr:stedsnr" v="551761" />
	</node>
	<node id="-39497" lat="60.0910194481" lon="11.6759527732">
		<tag k="name" v="Rudshøgda" />
		<tag k="natural" v="hill" />
		<tag k="place" v="locality" />
		<tag k="ssr:stedsnr" v="551744" />
	</node>
	<node id="-39452" lat="60.1046611101" lon="11.569216674">
		<tag k="fixme" v="consider natural=peak for the most distinct mountains in the district" />
		<tag k="name" v="Sagstuåsen" />
		<tag k="natural" v="hill" />
		<tag k="place" v="locality" />
		<tag k="ssr:stedsnr" v="541985" />
	</node>
	<node id="-39449" lat="60.2262333316" lon="11.4385277787">
		<tag k="fixme" v="consider natural=peak for the most distinct mountains in the district" />
		<tag k="name" v="Brattåsen" />
		<tag k="natural" v="hill" />
		<tag k="place" v="locality" />
		<tag k="ssr:stedsnr" v="541974" />
	</node>
	<node id="-39448" lat="60.0893333352" lon="11.6313527826">
		<tag k="name" v="Børåsen" />
		<tag k="natural" v="hill" />
		<tag k="place" v="locality" />
		<tag k="ssr:stedsnr" v="541973" />
	</node>
	<node id="-39447" lat="60.2310527775" lon="11.4231166605">
		<tag k="name" v="Mysudalen" />
		<tag k="natural" v="valley" />
		<tag k="place" v="locality" />
		<tag k="ssr:stedsnr" v="541960" />
	</node>
	<node id="-39442" lat="60.2742111121" lon="11.3609444496">
		<tag k="fixme" v="consider natural=peak for the most distinct mountains in the district" />
		<tag k="name" v="Tuppangfjellet" />
		<tag k="natural" v="hill" />
		<tag k="place" v="locality" />
		<tag k="ssr:stedsnr" v="541941" />
	</node>
	<node id="-39434" lat="60.2547000004" lon="11.518352783">
		<tag k="name" v="Jørmeruddalen" />
		<tag k="natural" v="valley" />
		<tag k="place" v="locality" />
		<tag k="ssr:stedsnr" v="541843" />
	</node>
	<node id="-39413" lat="60.3073583327" lon="11.4477416607">
		<tag k="name" v="Styggedalsholen" />
		<tag k="natural" v="ridge" />
		<tag k="place" v="locality" />
		<tag k="ssr:stedsnr" v="541557" />
	</node>
	<node id="-39411" lat="60.3119944443" lon="11.4521083296">
		<tag k="name" v="Klomdalen" />
		<tag k="natural" v="valley" />
		<tag k="place" v="locality" />
		<tag k="ssr:stedsnr" v="541551" />
	</node>
	<node id="-39407" lat="60.0825333357" lon="11.581663885">
		<tag k="name" v="Åserudåsen" />
		<tag k="natural" v="ridge" />
		<tag k="place" v="locality" />
		<tag k="ssr:stedsnr" v="541341" />
	</node>
	<node id="-39399" lat="60.0748361117" lon="11.581619445">
		<tag k="name" v="Aspelia" />
		<tag k="natural" v="slope" />
		<tag k="place" v="locality" />
		<tag k="ssr:stedsnr" v="541294" />
	</node>
	<node id="-39398" lat="60.237099997" lon="11.4405638817">
		<tag k="name" v="Snippen" />
		<tag k="natural" v="hill" />
		<tag k="place" v="locality" />
		<tag k="ssr:stedsnr" v="541213" />
	</node>
	<node id="-39396" lat="60.2573805568" lon="11.3739944484">
		<tag k="fixme" v="consider natural=peak for the most distinct mountains in the district" />
		<tag k="name" v="Valstadhøgda" />
		<tag k="natural" v="hill" />
		<tag k="place" v="locality" />
		<tag k="ssr:stedsnr" v="541147" />
	</node>
	<node id="-39390" lat="60.250469446" lon="11.2841083314">
		<tag k="name" v="Styggdalen" />
		<tag k="natural" v="valley" />
		<tag k="place" v="locality" />
		<tag k="ssr:stedsnr" v="541093" />
	</node>
	<node id="-39389" lat="60.2279972262" lon="11.5379416718">
		<tag k="fixme" v="consider natural=peak for the most distinct mountains in the district" />
		<tag k="name" v="Ursberget" />
		<tag k="natural" v="hill" />
		<tag k="place" v="locality" />
		<tag k="ssr:stedsnr" v="541084" />
	</node>
	<node id="-39370" lat="60.0651694472" lon="11.7025249947">
		<tag k="name" v="Pinkertonhaugen" />
		<tag k="natural" v="hill" />
		<tag k="place" v="locality" />
		<tag k="ssr:stedsnr" v="526906" />
	</node>
	<node id="-39368" lat="60.048586115" lon="11.7893222225">
		<tag k="name" v="Sikberget" />
		<tag k="natural" v="hill" />
		<tag k="place" v="locality" />
		<tag k="ssr:stedsnr" v="526899" />
	</node>
	<node id="-39367" lat="60.0460138893" lon="11.7813277726">
		<tag k="name" v="Steinbakken" />
		<tag k="natural" v="slope" />
		<tag k="place" v="locality" />
		<tag k="ssr:stedsnr" v="526892" />
	</node>
	<node id="-39364" lat="60.0436999977" lon="11.8202194383">
		<tag k="name" v="Brandmyssmøget" />
		<tag k="place" v="locality" />
		<tag k="ssr:stedsnr" v="526834" />
	</node>
	<node id="-39358" lat="59.9940833354" lon="11.4432222301">
		<tag k="name" v="Høldalen" />
		<tag k="natural" v="valley" />
		<tag k="place" v="locality" />
		<tag k="ssr:stedsnr" v="526713" />
	</node>
	<node id="-39347" lat="60.132175002" lon="11.612911113">
		<tag k="name" v="Kleggesnurdalen" />
		<tag k="natural" v="valley" />
		<tag k="place" v="locality" />
		<tag k="ssr:stedsnr" v="526372" />
	</node>
	<node id="-38641" lat="60.0338138907" lon="11.8004305554">
		<tag k="name" v="Måsadøsset" />
		<tag k="place" v="locality" />
		<tag k="ssr:stedsnr" v="162792" />
	</node>
	<node id="-39332" lat="60.1137277773" lon="11.6817722255">
		<tag k="name" v="Slemdalen" />
		<tag k="natural" v="valley" />
		<tag k="place" v="locality" />
		<tag k="ssr:stedsnr" v="526158" />
	</node>
	<node id="-39321" lat="60.1026472183" lon="11.3418333313">
		<tag k="name" v="Badstudalen" />
		<tag k="place" v="locality" />
		<tag k="ssr:stedsnr" v="524444" />
	</node>
	<node id="-39320" lat="60.3194083303" lon="11.4088361137">
		<tag k="name" v="Djupdalen" />
		<tag k="natural" v="valley" />
		<tag k="place" v="locality" />
		<tag k="ssr:stedsnr" v="505982" />
	</node>
	<node id="-39319" lat="60.3218999986" lon="11.4239444513">
		<tag k="name" v="Gruvedalen" />
		<tag k="natural" v="valley" />
		<tag k="place" v="locality" />
		<tag k="ssr:stedsnr" v="505981" />
	</node>
	<node id="-39318" lat="60.0526833297" lon="11.588872227">
		<tag k="name" v="Bjønnhi" />
		<tag k="place" v="locality" />
		<tag k="ssr:stedsnr" v="492532" />
	</node>
	<node id="-39314" lat="60.1803277779" lon="11.5409333307">
		<tag k="fixme" v="consider natural=peak for the most distinct mountains in the district" />
		<tag k="name" v="Hebergåsen" />
		<tag k="natural" v="hill" />
		<tag k="place" v="locality" />
		<tag k="ssr:stedsnr" v="491805" />
	</node>
	<node id="-39308" lat="60.0321944438" lon="11.7430305589">
		<tag k="fixme" v="multiple name tags, choose one and add the other to alt_name" />
		<tag k="name" v="Høgeberget;Runnihaugen" />
		<tag k="natural" v="hill" />
		<tag k="place" v="locality" />
		<tag k="ssr:stedsnr" v="491579" />
	</node>
	<node id="-39277" lat="60.1930833335" lon="11.4281611083">
		<tag k="fixme" v="consider natural=peak for the most distinct mountains in the district" />
		<tag k="name" v="Kjåsberget" />
		<tag k="natural" v="hill" />
		<tag k="place" v="locality" />
		<tag k="ssr:stedsnr" v="490254" />
	</node>
	<node id="-39253" lat="60.2361083365" lon="11.4349805539">
		<tag k="name" v="Kollbakken" />
		<tag k="natural" v="hill" />
		<tag k="place" v="locality" />
		<tag k="ssr:stedsnr" v="480982" />
	</node>
	<node id="-39241" lat="60.2560638901" lon="11.4619861135">
		<tag k="name" v="Kjusvållia" />
		<tag k="natural" v="slope" />
		<tag k="place" v="locality" />
		<tag k="ssr:stedsnr" v="480842" />
	</node>
	<node id="-39236" lat="60.3082777744" lon="11.4977638855">
		<tag k="name" v="Lønndalshøgda" />
		<tag k="natural" v="hill" />
		<tag k="place" v="locality" />
		<tag k="ssr:stedsnr" v="480746" />
	</node>
	<node id="-39235" lat="60.3206638899" lon="11.42963056">
		<tag k="name" v="Styggmannsberget" />
		<tag k="natural" v="hill" />
		<tag k="place" v="locality" />
		<tag k="ssr:stedsnr" v="480745" />
	</node>
	<node id="-39233" lat="60.3371222201" lon="11.4378833254">
		<tag k="name" v="Murukollen" />
		<tag k="natural" v="hill" />
		<tag k="place" v="locality" />
		<tag k="ssr:stedsnr" v="480715" />
	</node>
	<node id="-39228" lat="60.2982305595" lon="11.4179722186">
		<tag k="name" v="Traudalen" />
		<tag k="natural" v="valley" />
		<tag k="place" v="locality" />
		<tag k="ssr:stedsnr" v="480635" />
	</node>
	<node id="-39223" lat="60.2122444488" lon="11.4391666728">
		<tag k="fixme" v="consider natural=peak for the most distinct mountains in the district" />
		<tag k="name" v="Rødløkhøgda" />
		<tag k="natural" v="hill" />
		<tag k="place" v="locality" />
		<tag k="ssr:stedsnr" v="480599" />
	</node>
	<node id="-38281" lat="60.062402782" lon="11.5856805608">
		<tag k="name" v="Nevertjennlia" />
		<tag k="natural" v="slope" />
		<tag k="place" v="locality" />
		<tag k="ssr:stedsnr" v="49610" />
	</node>
	<node id="-39216" lat="60.092108335" lon="11.7101638972">
		<tag k="name" v="Grevlingberget" />
		<tag k="natural" v="hill" />
		<tag k="place" v="locality" />
		<tag k="ssr:stedsnr" v="480521" />
	</node>
	<node id="-39212" lat="60.067930558" lon="11.6794555481">
		<tag k="name" v="Hesteskodalen" />
		<tag k="natural" v="valley" />
		<tag k="place" v="locality" />
		<tag k="ssr:stedsnr" v="480293" />
	</node>
	<node id="-39211" lat="60.086519444" lon="11.5836666627">
		<tag k="name" v="Deledalen" />
		<tag k="natural" v="valley" />
		<tag k="place" v="locality" />
		<tag k="ssr:stedsnr" v="480287" />
	</node>
	<node id="-39200" lat="60.0304749991" lon="11.7233888835">
		<tag k="name" v="Skåbombakka" />
		<tag k="natural" v="slope" />
		<tag k="place" v="locality" />
		<tag k="ssr:stedsnr" v="468674" />
	</node>
	<node id="-39195" lat="60.0644944486" lon="11.5557222232">
		<tag k="name" v="Slettfjellet" />
		<tag k="natural" v="hill" />
		<tag k="place" v="locality" />
		<tag k="ssr:stedsnr" v="466693" />
	</node>
	<node id="-39192" lat="60.0745111088" lon="11.69293334">
		<tag k="name" v="Puttdalen" />
		<tag k="natural" v="valley" />
		<tag k="place" v="locality" />
		<tag k="ssr:stedsnr" v="466415" />
	</node>
	<node id="-39191" lat="60.07212222" lon="11.6796166604">
		<tag k="name" v="Bjørnhi" />
		<tag k="place" v="locality" />
		<tag k="ssr:stedsnr" v="466412" />
	</node>
	<node id="-39185" lat="60.1106888867" lon="11.6538972238">
		<tag k="name" v="Festninga" />
		<tag k="natural" v="ridge" />
		<tag k="place" v="locality" />
		<tag k="ssr:stedsnr" v="466153" />
	</node>
	<node id="-39184" lat="60.1292611147" lon="11.5842638848">
		<tag k="name" v="Kleivdalen" />
		<tag k="natural" v="valley" />
		<tag k="place" v="locality" />
		<tag k="ssr:stedsnr" v="466103" />
	</node>
	<node id="-37933" lat="60.0819666691" lon="11.7097277798">
		<tag k="name" v="Tørrhalåsen" />
		<tag k="natural" v="hill" />
		<tag k="place" v="locality" />
		<tag k="ssr:stedsnr" v="359625" />
	</node>
	<node id="-39178" lat="60.0644972256" lon="11.7129472185">
		<tag k="name" v="Statenslia" />
		<tag k="natural" v="slope" />
		<tag k="place" v="locality" />
		<tag k="ssr:stedsnr" v="465903" />
	</node>
	<node id="-39175" lat="60.0329722197" lon="11.6131472136">
		<tag k="fixme" v="consider natural=peak for the most distinct mountains in the district" />
		<tag k="name" v="Skvalerhaugen" />
		<tag k="natural" v="hill" />
		<tag k="place" v="locality" />
		<tag k="ssr:stedsnr" v="465814" />
	</node>
	<node id="-39173" lat="60.0379888908" lon="11.7707555469">
		<tag k="name" v="Hvileberget" />
		<tag k="natural" v="slope" />
		<tag k="place" v="locality" />
		<tag k="ssr:stedsnr" v="465713" />
	</node>
	<node id="-39162" lat="60.1332888906" lon="11.5974916743">
		<tag k="name" v="Tjæregravåsen" />
		<tag k="natural" v="hill" />
		<tag k="place" v="locality" />
		<tag k="ssr:stedsnr" v="465363" />
	</node>
	<node id="-39155" lat="60.0452555516" lon="11.5760027794">
		<tag k="fixme" v="consider natural=peak for the most distinct mountains in the district" />
		<tag k="name" v="Skipsteinshøgda" />
		<tag k="natural" v="hill" />
		<tag k="place" v="locality" />
		<tag k="ssr:stedsnr" v="465293" />
	</node>
	<node id="-39136" lat="60.2709611104" lon="11.5879305547">
		<tag k="alt_name" v="Grasberghøgda" />
		<tag k="fixme" v="consider natural=peak for the most distinct mountains in the district" />
		<tag k="name" v="Grasberget" />
		<tag k="natural" v="hill" />
		<tag k="place" v="locality" />
		<tag k="ssr:stedsnr" v="431552" />
	</node>
	<node id="-39112" lat="60.1268388866" lon="11.5668750023">
		<tag k="fixme" v="consider natural=peak for the most distinct mountains in the district" />
		<tag k="name" v="Vindmyrhøgda" />
		<tag k="natural" v="hill" />
		<tag k="place" v="locality" />
		<tag k="ssr:stedsnr" v="430670" />
	</node>
	<node id="-39106" lat="60.051855552" lon="11.4889388831">
		<tag k="fixme" v="consider natural=peak for the most distinct mountains in the district" />
		<tag k="name" v="Storlifjella" />
		<tag k="natural" v="hill" />
		<tag k="place" v="locality" />
		<tag k="ssr:stedsnr" v="430525" />
	</node>
	<node id="-38603" lat="60.1101944445" lon="11.6600861171">
		<tag k="name" v="Bjørkelibakka" />
		<tag k="natural" v="slope" />
		<tag k="place" v="locality" />
		<tag k="ssr:stedsnr" v="162149" />
	</node>
	<node id="-39098" lat="60.221674996" lon="11.4052166754">
		<tag k="name" v="Åland" />
		<tag k="place" v="locality" />
		<tag k="ssr:stedsnr" v="430278" />
	</node>
	<node id="-39093" lat="60.0950138866" lon="11.3346555627">
		<tag k="fixme" v="consider natural=peak for the most distinct mountains in the district" />
		<tag k="name" v="Hvamsåsen" />
		<tag k="natural" v="hill" />
		<tag k="place" v="locality" />
		<tag k="ssr:stedsnr" v="430073" />
	</node>
	<node id="-39078" lat="60.1006055517" lon="11.6111833263">
		<tag k="name" v="Gørtjennlia" />
		<tag k="natural" v="slope" />
		<tag k="place" v="locality" />
		<tag k="ssr:stedsnr" v="420999" />
	</node>
	<node id="-39062" lat="60.0837138909" lon="11.7357138868">
		<tag k="name" v="Helvete" />
		<tag k="place" v="locality" />
		<tag k="ssr:stedsnr" v="420646" />
	</node>
	<node id="-39054" lat="60.3110611085" lon="11.4335499953">
		<tag k="name" v="Sjursteinlia" />
		<tag k="natural" v="slope" />
		<tag k="place" v="locality" />
		<tag k="ssr:stedsnr" v="420575" />
	</node>
	<node id="-39051" lat="60.30201389" lon="11.4807749947">
		<tag k="fixme" v="consider natural=peak for the most distinct mountains in the district" />
		<tag k="name" v="Tobakknarten" />
		<tag k="natural" v="hill" />
		<tag k="place" v="locality" />
		<tag k="ssr:stedsnr" v="420565" />
	</node>
	<node id="-39050" lat="60.0900888903" lon="11.7224083357">
		<tag k="name" v="Lunnemyrdalen" />
		<tag k="natural" v="valley" />
		<tag k="place" v="locality" />
		<tag k="ssr:stedsnr" v="420566" />
	</node>
	<node id="-39044" lat="60.0731722187" lon="11.6734083391">
		<tag k="name" v="Tjennslimåsaberget" />
		<tag k="natural" v="hill" />
		<tag k="place" v="locality" />
		<tag k="ssr:stedsnr" v="420310" />
	</node>
	<node id="-37716" lat="60.1200138859" lon="11.5538527807">
		<tag k="name" v="Knatten" />
		<tag k="natural" v="hill" />
		<tag k="place" v="locality" />
		<tag k="ssr:stedsnr" v="298010" />
	</node>
	<node id="-39018" lat="60.1126222215" lon="11.634508333">
		<tag k="name" v="Brattberget" />
		<tag k="natural" v="cliff" />
		<tag k="ssr:stedsnr" v="480100" />
	</node>
	<node id="-39015" lat="60.2491111145" lon="11.265780559">
		<tag k="name" v="Vardehøgddalen" />
		<tag k="natural" v="valley" />
		<tag k="place" v="locality" />
		<tag k="ssr:stedsnr" v="480087" />
	</node>
	<node id="-38996" lat="60.282252777" lon="11.3562805614">
		<tag k="fixme" v="consider natural=peak for the most distinct mountains in the district" />
		<tag k="name" v="Grasåsen" />
		<tag k="natural" v="hill" />
		<tag k="place" v="locality" />
		<tag k="ssr:stedsnr" v="249170" />
	</node>
	<node id="-37901" lat="60.0655472214" lon="11.5935638872">
		<tag k="name" v="Sittarfjøla" />
		<tag k="place" v="locality" />
		<tag k="ssr:stedsnr" v="352563" />
	</node>
	<node id="-38982" lat="60.1431777778" lon="11.5298500044">
		<tag k="fixme" v="consider natural=peak for the most distinct mountains in the district" />
		<tag k="name" v="Skøyenåsen" />
		<tag k="natural" v="hill" />
		<tag k="place" v="locality" />
		<tag k="ssr:stedsnr" v="248660" />
	</node>
	<node id="-40628" lat="60.0462444469" lon="11.6592833271">
		<tag k="name" v="Holehøgda" />
		<tag k="natural" v="hill" />
		<tag k="place" v="locality" />
		<tag k="ssr:stedsnr" v="959566" />
	</node>
	<node id="-38944" lat="60.0648444478" lon="11.4539194515">
		<tag k="fixme" v="consider natural=peak for the most distinct mountains in the district" />
		<tag k="name" v="Korpåsen" />
		<tag k="natural" v="hill" />
		<tag k="place" v="locality" />
		<tag k="ssr:stedsnr" v="248058" />
	</node>
	<node id="-38928" lat="60.1006527759" lon="11.6873138865">
		<tag k="name" v="Svarvestolen" />
		<tag k="natural" v="ridge" />
		<tag k="place" v="locality" />
		<tag k="ssr:stedsnr" v="238941" />
	</node>
	<node id="-38922" lat="60.3144527735" lon="11.475600003">
		<tag k="name" v="Kjepphelvete" />
		<tag k="natural" v="valley" />
		<tag k="place" v="locality" />
		<tag k="ssr:stedsnr" v="238757" />
	</node>
	<node id="-38919" lat="60.3220333339" lon="11.4592555566">
		<tag k="name" v="Vasshellene" />
		<tag k="place" v="locality" />
		<tag k="ssr:stedsnr" v="238737" />
	</node>
	<node id="-38917" lat="60.3077527739" lon="11.4652777768">
		<tag k="name" v="Flekkebekkdalen" />
		<tag k="natural" v="valley" />
		<tag k="place" v="locality" />
		<tag k="ssr:stedsnr" v="238576" />
	</node>
</osm>
