<?xml version="1.0" encoding="UTF-8"?>
<osm version="0.6" generator="osmapis">
	<node lat="64.48644166342655" lon="12.618688895158192" id="-39586">
		<tag k="historic" v="shieling" />
		<tag k="name" v="Erikplassen" />
		<tag k="place" v="locality" />
		<tag k="ssr:stedsnr" v="229972" />
	</node>
	<node lat="64.39134722353232" lon="12.527294442709104" id="-39591">
		<tag k="name" v="Helikoptermyra" />
		<tag k="natural" v="wetland" />
		<tag k="ssr:stedsnr" v="230382" />
	</node>
	<node lat="64.56943333101798" lon="12.446297223174131" id="-39593">
		<tag k="name" v="Stigmyra" />
		<tag k="natural" v="wetland" />
		<tag k="ssr:stedsnr" v="230846" />
	</node>
	<node lat="64.66585833630856" lon="12.518666661917608" id="-39597">
		<tag k="name" v="Tjuvstakkenget" />
		<tag k="natural" v="wetland" />
		<tag k="ssr:stedsnr" v="230754" />
	</node>
	<node lat="64.48891666305678" lon="12.516227767200903" id="-39598">
		<tag k="name" v="Gorrmyra" />
		<tag k="natural" v="wetland" />
		<tag k="ssr:stedsnr" v="230755" />
	</node>
	<node lat="64.50353611249075" lon="12.249647224075026" id="-39600">
		<tag k="name" v="Flyin" />
		<tag k="natural" v="wetland" />
		<tag k="ssr:stedsnr" v="230862" />
	</node>
	<node lat="64.50069166769673" lon="12.611508323380232" id="-39606">
		<tag k="name" v="Tostakkmyra" />
		<tag k="natural" v="wetland" />
		<tag k="ssr:stedsnr" v="230976" />
	</node>
	<node lat="64.4651694406191" lon="12.45444444173082" id="-39607">
		<tag k="name" v="Gammelloddomyra" />
		<tag k="natural" v="wetland" />
		<tag k="ssr:stedsnr" v="231600" />
	</node>
	<node lat="64.47557222667662" lon="12.483761103079896" id="-39608">
		<tag k="name" v="Gorrmyra" />
		<tag k="natural" v="wetland" />
		<tag k="ssr:stedsnr" v="231610" />
	</node>
	<node lat="64.4601166710606" lon="12.27811943534062" id="-39620">
		<tag k="name" v="Dunamelan" />
		<tag k="place" v="locality" />
		<tag k="ssr:stedsnr" v="28011" />
	</node>
	<node lat="64.3679611078681" lon="12.33015832379527" id="-39632">
		<tag k="name" v="Gråtarmyra" />
		<tag k="natural" v="wetland" />
		<tag k="ssr:stedsnr" v="48004" />
	</node>
	<node lat="64.64447222609648" lon="12.831019454188269" id="-39635">
		<tag k="name" v="Litlånessa" />
		<tag k="natural" v="wetland" />
		<tag k="ssr:stedsnr" v="48110" />
	</node>
	<node lat="64.61858888649671" lon="12.671899996888293" id="-39638">
		<tag k="name" v="Millasbotnet" />
		<tag k="natural" v="wetland" />
		<tag k="ssr:stedsnr" v="48335" />
	</node>
	<node lat="64.37624999664448" lon="12.357133339339512" id="-39640">
		<tag k="name" v="Postmyra" />
		<tag k="natural" v="wetland" />
		<tag k="ssr:stedsnr" v="48403" />
	</node>
	<node lat="64.38701111037506" lon="12.357850007347137" id="-39641">
		<tag k="name" v="Lurumarka" />
		<tag k="place" v="locality" />
		<tag k="ssr:stedsnr" v="48409" />
	</node>
	<node lat="64.47828055619478" lon="12.215813883344543" id="-39667">
		<tag k="name" v="Torvmyra" />
		<tag k="natural" v="wetland" />
		<tag k="ssr:stedsnr" v="89020" />
	</node>
	<node lat="64.5147194464543" lon="12.448930550197167" id="-39671">
		<tag k="name" v="Forstadmyra" />
		<tag k="natural" v="wetland" />
		<tag k="ssr:stedsnr" v="89714" />
	</node>
	<node lat="64.56243055730212" lon="12.458674998868874" id="-39672">
		<tag k="name" v="Tjønnmyra" />
		<tag k="natural" v="wetland" />
		<tag k="ssr:stedsnr" v="89671" />
	</node>
	<node lat="64.4752333348564" lon="12.28701665786421" id="-39675">
		<tag k="name" v="Langbekkmyra" />
		<tag k="natural" v="wetland" />
		<tag k="ssr:stedsnr" v="90370" />
	</node>
	<node lat="64.41263889209043" lon="12.573719438425986" id="-39680">
		<tag k="historic" v="shieling" />
		<tag k="name" v="Gamnelløa" />
		<tag k="place" v="locality" />
		<tag k="ssr:stedsnr" v="109103" />
	</node>
	<node lat="64.46431388661404" lon="12.699336101161943" id="-39684">
		<tag k="name" v="Larsmyra" />
		<tag k="natural" v="wetland" />
		<tag k="ssr:stedsnr" v="109524" />
	</node>
	<node lat="64.54096111513397" lon="12.493875000207135" id="-39688">
		<tag k="name" v="Langmyra" />
		<tag k="natural" v="wetland" />
		<tag k="ssr:stedsnr" v="109771" />
	</node>
	<node lat="64.52396666462342" lon="12.51092776843719" id="-39689">
		<tag k="name" v="Ramsjøslettet" />
		<tag k="natural" v="wetland" />
		<tag k="ssr:stedsnr" v="109777" />
	</node>
	<node lat="64.47984166991668" lon="12.679513886359013" id="-39690">
		<tag k="name" v="Olanessa" />
		<tag k="natural" v="wetland" />
		<tag k="ssr:stedsnr" v="109778" />
	</node>
	<node lat="64.48186110858457" lon="12.505844434612351" id="-39692">
		<tag k="historic" v="shieling" />
		<tag k="name" v="Tølløvsetran" />
		<tag k="place" v="locality" />
		<tag k="ssr:stedsnr" v="110593" />
	</node>
	<node lat="64.44008055653109" lon="12.441255547053453" id="-39693">
		<tag k="historic" v="shieling" />
		<tag k="name" v="Rønningsetran" />
		<tag k="place" v="locality" />
		<tag k="ssr:stedsnr" v="110623" />
	</node>
	<node lat="64.58553610698362" lon="12.521927780184777" id="-39723">
		<tag k="name" v="Rønningan" />
		<tag k="place" v="locality" />
		<tag k="ssr:stedsnr" v="149713" />
	</node>
	<node lat="64.38163888774669" lon="12.316619452787046" id="-39727">
		<tag k="name" v="Bjørnsteinen" />
		<tag k="natural" v="stone" />
		<tag k="ssr:stedsnr" v="150174" />
	</node>
	<node lat="64.60727777576268" lon="12.476736116507576" id="-39744">
		<tag k="alt_name" v="Lodoenget" />
		<tag k="name" v="Loddoenget" />
		<tag k="natural" v="wetland" />
		<tag k="ssr:stedsnr" v="257600" />
	</node>
	<node lat="64.5486749996852" lon="12.628930553805047" id="-39749">
		<tag k="name" v="Sunnimyran" />
		<tag k="natural" v="wetland" />
		<tag k="ssr:stedsnr" v="257769" />
	</node>
	<node lat="64.49059444504461" lon="12.164016673275961" id="-39755">
		<tag k="name" v="Holourda" />
		<tag k="natural" v="scree" />
		<tag k="ssr:stedsnr" v="257823" />
	</node>
	<node lat="64.50682777405277" lon="12.212080563930433" id="-39766">
		<tag k="name" v="Annfinnslettet" />
		<tag k="natural" v="wetland" />
		<tag k="ssr:stedsnr" v="169169" />
	</node>
	<node lat="64.401502775255" lon="12.516213879128626" id="-39768">
		<tag k="name" v="Kavlmyra" />
		<tag k="natural" v="wetland" />
		<tag k="ssr:stedsnr" v="169320" />
	</node>
	<node lat="64.41023888570423" lon="12.421691666263854" id="-39769">
		<tag k="name" v="Setermyra" />
		<tag k="natural" v="wetland" />
		<tag k="ssr:stedsnr" v="169419" />
	</node>
	<node lat="64.57824444075962" lon="12.686988895302077" id="-39770">
		<tag k="name" v="Steinengan" />
		<tag k="natural" v="wetland" />
		<tag k="ssr:stedsnr" v="169704" />
	</node>
	<node lat="64.48569721916289" lon="12.4346500087387" id="-39772">
		<tag k="name" v="Setermyra" />
		<tag k="natural" v="wetland" />
		<tag k="ssr:stedsnr" v="169902" />
	</node>
	<node lat="64.37006666434142" lon="12.367288894462959" id="-39775">
		<tag k="name" v="Kjølamyra" />
		<tag k="natural" v="wetland" />
		<tag k="ssr:stedsnr" v="170460" />
	</node>
	<node lat="64.4405555584743" lon="12.130638879281738" id="-39783">
		<tag k="name" v="Mosetmyra" />
		<tag k="natural" v="wetland" />
		<tag k="ssr:stedsnr" v="264053" />
	</node>
	<node lat="64.56236389172985" lon="12.545519446830452" id="-39802">
		<tag k="name" v="Småmyran" />
		<tag k="natural" v="wetland" />
		<tag k="ssr:stedsnr" v="197775" />
	</node>
	<node lat="64.45566666806727" lon="12.142319452714203" id="-39806">
		<tag k="name" v="Gammelsetermyra" />
		<tag k="natural" v="wetland" />
		<tag k="ssr:stedsnr" v="204045" />
	</node>
	<node lat="64.51133611136645" lon="12.320697220977525" id="-39820">
		<tag k="name" v="Litlgomyra" />
		<tag k="natural" v="wetland" />
		<tag k="ssr:stedsnr" v="211296" />
	</node>
	<node lat="64.45814999893007" lon="12.319224992034833" id="-39822">
		<tag k="name" v="Melmomyra" />
		<tag k="natural" v="wetland" />
		<tag k="ssr:stedsnr" v="211350" />
	</node>
	<node lat="64.58416111485045" lon="12.490130551863109" id="-39841">
		<tag k="name" v="Snauslættet" />
		<tag k="natural" v="wetland" />
		<tag k="ssr:stedsnr" v="271767" />
	</node>
	<node lat="64.58406944160573" lon="12.584294441138692" id="-39845">
		<tag k="name" v="Rognbumyra" />
		<tag k="natural" v="wetland" />
		<tag k="ssr:stedsnr" v="229534" />
	</node>
	<node lat="64.50090555888468" lon="12.631147212266809" id="-39849">
		<tag k="historic" v="shieling" />
		<tag k="name" v="Kristensetran" />
		<tag k="place" v="locality" />
		<tag k="ssr:stedsnr" v="229981" />
	</node>
	<node lat="64.38161944689553" lon="12.358166659448727" id="-39857">
		<tag k="name" v="Blåsetermyra" />
		<tag k="natural" v="wetland" />
		<tag k="ssr:stedsnr" v="230425" />
	</node>
	<node lat="64.39258610821393" lon="12.380313882950178" id="-39859">
		<tag k="name" v="Helmerrmyra" />
		<tag k="natural" v="wetland" />
		<tag k="ssr:stedsnr" v="230432" />
	</node>
	<node lat="64.46698333122355" lon="12.526852771359701" id="-39864">
		<tag k="historic" v="shieling" />
		<tag k="name" v="Bergsetran" />
		<tag k="place" v="locality" />
		<tag k="ssr:stedsnr" v="231641" />
	</node>
	<node lat="64.48306111291801" lon="12.27493611953883" id="-39870">
		<tag k="name" v="Fagerliholet" />
		<tag k="natural" v="wetland" />
		<tag k="ssr:stedsnr" v="453033" />
	</node>
	<node lat="64.4116805547806" lon="12.48295000461253" id="-39889">
		<tag k="name" v="Stormyra" />
		<tag k="natural" v="wetland" />
		<tag k="ssr:stedsnr" v="257510" />
	</node>
	<node lat="64.51509999699294" lon="12.65487777846651" id="-39894">
		<tag k="name" v="Stormyran" />
		<tag k="natural" v="wetland" />
		<tag k="ssr:stedsnr" v="257721" />
	</node>
	<node lat="64.50132500280621" lon="12.243605550285384" id="-39896">
		<tag k="name" v="Fisklausenget" />
		<tag k="natural" v="wetland" />
		<tag k="ssr:stedsnr" v="271028" />
	</node>
	<node lat="64.57547778016973" lon="12.4062027805399" id="-39900">
		<tag k="name" v="Jensmyra" />
		<tag k="natural" v="wetland" />
		<tag k="ssr:stedsnr" v="272290" />
	</node>
	<node lat="64.3778388864992" lon="12.351136101151056" id="-39902">
		<tag k="name" v="Blåmyra" />
		<tag k="natural" v="wetland" />
		<tag k="ssr:stedsnr" v="272171" />
	</node>
	<node lat="64.45907136255744" lon="12.349425253542817" id="-39904">
		<tag k="name" v="Medjåurda" />
		<tag k="natural" v="scree" />
		<tag k="ssr:stedsnr" v="272324" />
	</node>
	<node lat="64.57510555264255" lon="12.594002776430512" id="-39908">
		<tag k="name" v="Hesjemyra" />
		<tag k="natural" v="wetland" />
		<tag k="ssr:stedsnr" v="272776" />
	</node>
	<node lat="64.50955833383577" lon="12.185663897598866" id="-39914">
		<tag k="alt_name" v="Føynemsetran" />
		<tag k="historic" v="shieling" />
		<tag k="name" v="Føynessetran" />
		<tag k="place" v="locality" />
		<tag k="ssr:stedsnr" v="290181" />
	</node>
	<node lat="64.47928888944006" lon="12.659022218790751" id="-39922">
		<tag k="name" v="Stråtmyra" />
		<tag k="natural" v="wetland" />
		<tag k="ssr:stedsnr" v="291807" />
	</node>
	<node lat="64.50080833345649" lon="12.39962778274959" id="-39929">
		<tag k="name" v="Litlkillingmyra" />
		<tag k="natural" v="wetland" />
		<tag k="ssr:stedsnr" v="292611" />
	</node>
	<node lat="64.63072222242263" lon="12.625377776757258" id="-39949">
		<tag k="name" v="Grovamyra" />
		<tag k="natural" v="wetland" />
		<tag k="ssr:stedsnr" v="318539" />
	</node>
	<node lat="64.49933611080674" lon="12.324297214411716" id="-39955">
		<tag k="name" v="Hundsmomyra" />
		<tag k="natural" v="wetland" />
		<tag k="ssr:stedsnr" v="331364" />
	</node>
	<node lat="64.62613055159584" lon="12.557741670195055" id="-39969">
		<tag k="name" v="Merramyra" />
		<tag k="natural" v="wetland" />
		<tag k="ssr:stedsnr" v="332754" />
	</node>
	<node lat="64.62339166876207" lon="12.55523611339962" id="-39970">
		<tag k="name" v="Tjønnmyra" />
		<tag k="natural" v="wetland" />
		<tag k="ssr:stedsnr" v="332755" />
	</node>
	<node lat="64.40249999631247" lon="12.489208329388221" id="-39982">
		<tag k="name" v="Trekvislmyra" />
		<tag k="natural" v="wetland" />
		<tag k="ssr:stedsnr" v="472299" />
	</node>
	<node lat="64.61248055259182" lon="12.623230548584724" id="-39984">
		<tag k="name" v="Flåmyran" />
		<tag k="natural" v="wetland" />
		<tag k="ssr:stedsnr" v="472335" />
	</node>
	<node lat="64.40898888762028" lon="12.41648055056322" id="-39987">
		<tag k="name" v="Setermyra" />
		<tag k="natural" v="wetland" />
		<tag k="ssr:stedsnr" v="472448" />
	</node>
	<node lat="64.56222221865791" lon="12.61511666650476" id="-39990">
		<tag k="name" v="Lomtjønnmyra" />
		<tag k="natural" v="wetland" />
		<tag k="ssr:stedsnr" v="472636" />
	</node>
	<node lat="64.47519999866986" lon="12.588747213682806" id="-39992">
		<tag k="name" v="Demningsmyra" />
		<tag k="natural" v="wetland" />
		<tag k="ssr:stedsnr" v="472769" />
	</node>
	<node lat="64.4588638888067" lon="12.550144442856105" id="-39994">
		<tag k="name" v="Bergmyra" />
		<tag k="natural" v="wetland" />
		<tag k="ssr:stedsnr" v="473576" />
	</node>
	<node lat="64.41443055370229" lon="12.50569443781536" id="-40002">
		<tag k="name" v="Kavelbrumyra" />
		<tag k="natural" v="wetland" />
		<tag k="ssr:stedsnr" v="351316" />
	</node>
	<node lat="64.57953055924581" lon="12.442252788275121" id="-40006">
		<tag k="name" v="Langtjønnmyra" />
		<tag k="natural" v="wetland" />
		<tag k="ssr:stedsnr" v="351864" />
	</node>
	<node lat="64.50116389164347" lon="12.460886118073772" id="-40009">
		<tag k="name" v="Jonnsmyra" />
		<tag k="natural" v="wetland" />
		<tag k="ssr:stedsnr" v="351956" />
	</node>
	<node lat="64.47349722356128" lon="12.519869446007922" id="-40012">
		<tag k="name" v="Tvillingskarmyra" />
		<tag k="natural" v="wetland" />
		<tag k="ssr:stedsnr" v="352560" />
	</node>
	<node lat="64.50816111200899" lon="12.347419437579822" id="-40031">
		<tag k="name" v="Spennmyra" />
		<tag k="natural" v="wetland" />
		<tag k="ssr:stedsnr" v="379627" />
	</node>
	<node lat="64.46725000388744" lon="12.189238892705207" id="-40035">
		<tag k="name" v="Finndalmyra" />
		<tag k="natural" v="wetland" />
		<tag k="ssr:stedsnr" v="392011" />
	</node>
	<node lat="64.37930832959935" lon="12.325397216595182" id="-40041">
		<tag k="name" v="Småengmyrin" />
		<tag k="natural" v="wetland" />
		<tag k="ssr:stedsnr" v="393183" />
	</node>
	<node lat="64.4387277748206" lon="12.307675008157858" id="-40043">
		<tag k="name" v="Kvernmyra" />
		<tag k="natural" v="wetland" />
		<tag k="ssr:stedsnr" v="393334" />
	</node>
	<node lat="64.64807778029818" lon="12.633580562210877" id="-40048">
		<tag k="name" v="Oppkastmyra" />
		<tag k="natural" v="wetland" />
		<tag k="ssr:stedsnr" v="411548" />
	</node>
	<node lat="64.4370861100676" lon="12.471052777568259" id="-40052">
		<tag k="name" v="Langmyra" />
		<tag k="natural" v="wetland" />
		<tag k="ssr:stedsnr" v="412314" />
	</node>
	<node lat="64.44703333475188" lon="12.86947777198581" id="-40054">
		<tag k="name" v="Tverrelvfloan" />
		<tag k="natural" v="wetland" />
		<tag k="ssr:stedsnr" v="412542" />
	</node>
	<node lat="64.51991666378039" lon="12.54645833964526" id="-40058">
		<tag k="name" v="Broddhalsan" />
		<tag k="natural" v="wetland" />
		<tag k="ssr:stedsnr" v="412850" />
	</node>
	<node lat="64.48411944393749" lon="12.522111121318991" id="-40059">
		<tag k="name" v="Strandamyra" />
		<tag k="natural" v="wetland" />
		<tag k="ssr:stedsnr" v="412741" />
	</node>
	<node lat="64.49264722375071" lon="12.468424998556335" id="-40060">
		<tag k="name" v="Vegamyra" />
		<tag k="natural" v="wetland" />
		<tag k="ssr:stedsnr" v="412947" />
	</node>
	<node lat="64.40315000441193" lon="12.308624993959281" id="-40075">
		<tag k="name" v="Bæramyra" />
		<tag k="natural" v="wetland" />
		<tag k="ssr:stedsnr" v="439453" />
	</node>
	<node lat="64.5668083304145" lon="12.608922227798423" id="-40110">
		<tag k="name" v="Loftet" />
		<tag k="natural" v="wetland" />
		<tag k="ssr:stedsnr" v="472476" />
	</node>
	<node lat="64.46086111441406" lon="12.746636119069818" id="-40113">
		<tag k="name" v="Toremomyrin" />
		<tag k="natural" v="wetland" />
		<tag k="ssr:stedsnr" v="472564" />
	</node>
	<node lat="64.53060832907059" lon="12.527088892523697" id="-40115">
		<tag k="historic" v="shieling" />
		<tag k="name" v="Vollasetran" />
		<tag k="place" v="locality" />
		<tag k="ssr:stedsnr" v="472802" />
	</node>
	<node lat="64.58760833476877" lon="12.456947231085675" id="-40117">
		<tag k="name" v="Eidrengmyra" />
		<tag k="natural" v="wetland" />
		<tag k="ssr:stedsnr" v="472858" />
	</node>
	<node lat="64.53848888683567" lon="12.747327782968217" id="-40125">
		<tag k="name" v="Skiftesmyra" />
		<tag k="natural" v="wetland" />
		<tag k="ssr:stedsnr" v="473570" />
	</node>
	<node lat="64.38559166904099" lon="12.351636113019069" id="-40129">
		<tag k="name" v="Lurumyra" />
		<tag k="natural" v="wetland" />
		<tag k="ssr:stedsnr" v="272162" />
	</node>
	<node lat="64.47047222364556" lon="12.797758338121255" id="-40138">
		<tag k="name" v="Andreasmyra" />
		<tag k="natural" v="wetland" />
		<tag k="ssr:stedsnr" v="499266" />
	</node>
	<node lat="64.596270575229" lon="12.578939621185912" id="-40163">
		<tag k="alt_name" v="Finnhusroa" />
		<tag k="name" v="Finnhusråa" />
		<tag k="natural" v="wetland" />
		<tag k="ssr:stedsnr" v="682602" />
	</node>
	<node lat="64.41075277492745" lon="12.337772217923737" id="-40176">
		<tag k="name" v="Engnesmyra" />
		<tag k="natural" v="wetland" />
		<tag k="ssr:stedsnr" v="513173" />
	</node>
	<node lat="64.53750833394889" lon="12.479711104064517" id="-40181">
		<tag k="name" v="Heimamyra" />
		<tag k="natural" v="wetland" />
		<tag k="ssr:stedsnr" v="514708" />
	</node>
	<node lat="64.51030555207592" lon="12.399133322513329" id="-40185">
		<tag k="name" v="Brennhaugmyra" />
		<tag k="natural" v="wetland" />
		<tag k="ssr:stedsnr" v="517264" />
	</node>
	<node lat="64.5924583373207" lon="12.56835554628652" id="-40187">
		<tag k="name" v="Stormyra" />
		<tag k="natural" v="wetland" />
		<tag k="ssr:stedsnr" v="532483" />
	</node>
	<node lat="64.43575833445173" lon="12.373633336270586" id="-40192">
		<tag k="name" v="Stormyra" />
		<tag k="natural" v="wetland" />
		<tag k="ssr:stedsnr" v="533286" />
	</node>
	<node lat="64.3907138895373" lon="12.53765278620238" id="-40193">
		<tag k="name" v="Taraldrmyra" />
		<tag k="natural" v="wetland" />
		<tag k="ssr:stedsnr" v="533402" />
	</node>
	<node lat="64.45330833486669" lon="12.147677769666608" id="-40206">
		<tag k="name" v="Garnåsmyran" />
		<tag k="natural" v="wetland" />
		<tag k="ssr:stedsnr" v="689049" />
	</node>
	<node lat="64.44879444186135" lon="12.47920277800206" id="-40207">
		<tag k="name" v="Bjørnsteinen" />
		<tag k="natural" v="stone" />
		<tag k="ssr:stedsnr" v="559486" />
	</node>
	<node lat="64.45062777688362" lon="12.221650004503534" id="-40225">
		<tag k="name" v="Torvmyra" />
		<tag k="natural" v="wetland" />
		<tag k="ssr:stedsnr" v="574112" />
	</node>
	<node lat="64.5836527751596" lon="12.503397227885797" id="-40233">
		<tag k="name" v="Stakkenget" />
		<tag k="natural" v="wetland" />
		<tag k="ssr:stedsnr" v="574752" />
	</node>
	<node lat="64.43076111561092" lon="12.31200832415326" id="-40235">
		<tag k="name" v="Bergstuholet" />
		<tag k="place" v="locality" />
		<tag k="ssr:stedsnr" v="575307" />
	</node>
	<node lat="64.5169222200972" lon="12.645858334739383" id="-40240">
		<tag k="historic" v="shieling" />
		<tag k="name" v="Sagmosetran" />
		<tag k="place" v="locality" />
		<tag k="ssr:stedsnr" v="580841" />
	</node>
	<node lat="64.38713055686905" lon="12.376769438703741" id="-40244">
		<tag k="name" v="Postmyra" />
		<tag k="natural" v="wetland" />
		<tag k="ssr:stedsnr" v="696187" />
	</node>
	<node lat="64.53911110674139" lon="12.257444450136827" id="-40245">
		<tag k="name" v="Svarabergura" />
		<tag k="natural" v="scree" />
		<tag k="ssr:stedsnr" v="696046" />
	</node>
	<node lat="64.57794444271845" lon="12.671405554207999" id="-40265">
		<tag k="name" v="Stormyra" />
		<tag k="natural" v="wetland" />
		<tag k="ssr:stedsnr" v="593603" />
	</node>
	<node lat="64.42573611247683" lon="12.456377772090883" id="-40274">
		<tag k="name" v="Grubbenget" />
		<tag k="natural" v="wetland" />
		<tag k="ssr:stedsnr" v="594352" />
	</node>
	<node lat="64.61775278060831" lon="12.640858330111797" id="-40275">
		<tag k="name" v="Setermyra" />
		<tag k="natural" v="wetland" />
		<tag k="ssr:stedsnr" v="594361" />
	</node>
	<node lat="64.50017777812013" lon="12.569169440807272" id="-40279">
		<tag k="name" v="Langmyra" />
		<tag k="natural" v="wetland" />
		<tag k="ssr:stedsnr" v="594754" />
	</node>
	<node lat="64.46428610674394" lon="12.459000009296084" id="-40284">
		<tag k="name" v="Steinenget" />
		<tag k="natural" v="wetland" />
		<tag k="ssr:stedsnr" v="595514" />
	</node>
	<node lat="64.44411110917065" lon="12.314900010006955" id="-40290">
		<tag k="name" v="Homomarka" />
		<tag k="place" v="locality" />
		<tag k="ssr:stedsnr" v="620473" />
	</node>
	<node lat="64.46776944271501" lon="12.809897225770984" id="-40295">
		<tag k="name" v="Brynnmyra" />
		<tag k="natural" v="wetland" />
		<tag k="ssr:stedsnr" v="620321" />
	</node>
	<node lat="64.4739888926992" lon="12.324669437311167" id="-40319">
		<tag k="name" v="Råmyra" />
		<tag k="natural" v="wetland" />
		<tag k="ssr:stedsnr" v="635396" />
	</node>
	<node lat="64.62881388863829" lon="12.578625004596953" id="-40320">
		<tag k="name" v="Brumyra" />
		<tag k="natural" v="wetland" />
		<tag k="ssr:stedsnr" v="635745" />
	</node>
	<node lat="64.56714722620366" lon="12.589577771967365" id="-40330">
		<tag k="name" v="Bjørbekkmyra" />
		<tag k="natural" v="wetland" />
		<tag k="ssr:stedsnr" v="654540" />
	</node>
	<node lat="64.48450278175963" lon="12.574638883643646" id="-40332">
		<tag k="name" v="Bikkjefoten" />
		<tag k="natural" v="wetland" />
		<tag k="ssr:stedsnr" v="654785" />
	</node>
	<node lat="64.39432222257092" lon="12.390522221495589" id="-40335">
		<tag k="name" v="Postmyra" />
		<tag k="natural" v="wetland" />
		<tag k="ssr:stedsnr" v="655439" />
	</node>
	<node lat="64.45940833413202" lon="12.528250009888964" id="-40337">
		<tag k="historic" v="shieling" />
		<tag k="name" v="Olasetran" />
		<tag k="place" v="locality" />
		<tag k="ssr:stedsnr" v="655589" />
	</node>
	<node lat="64.47391666571751" lon="12.280055551945463" id="-40362">
		<tag k="name" v="Blakkmyra" />
		<tag k="natural" v="wetland" />
		<tag k="ssr:stedsnr" v="696008" />
	</node>
	<node lat="64.50066110894302" lon="12.21278611317485" id="-40364">
		<tag k="name" v="Annfinnslættet" />
		<tag k="natural" v="wetland" />
		<tag k="ssr:stedsnr" v="696108" />
	</node>
	<node lat="64.46878610847722" lon="12.336836119774066" id="-40369">
		<tag k="name" v="Fjellmyra" />
		<tag k="natural" v="wetland" />
		<tag k="ssr:stedsnr" v="696406" />
	</node>
	<node lat="64.57391666490783" lon="12.477219449582805" id="-40384">
		<tag k="name" v="Einesdalmyra" />
		<tag k="natural" v="wetland" />
		<tag k="ssr:stedsnr" v="897826" />
	</node>
	<node lat="64.4818944448552" lon="12.688644434702057" id="-40404">
		<tag k="name" v="Olanessa" />
		<tag k="natural" v="wetland" />
		<tag k="ssr:stedsnr" v="898547" />
	</node>
	<node lat="64.62167777550668" lon="12.539038894595354" id="-40411">
		<tag k="name" v="Fjellmyra" />
		<tag k="natural" v="wetland" />
		<tag k="ssr:stedsnr" v="898841" />
	</node>
	<node lat="64.45808610987119" lon="12.645680562858328" id="-40414">
		<tag k="name" v="Stormyra" />
		<tag k="natural" v="wetland" />
		<tag k="ssr:stedsnr" v="898852" />
	</node>
	<node lat="64.5250638901964" lon="12.544122218979204" id="-40417">
		<tag k="name" v="Nylodomyran" />
		<tag k="natural" v="wetland" />
		<tag k="ssr:stedsnr" v="715810" />
	</node>
	<node lat="64.49962222131226" lon="12.561005550021813" id="-40418">
		<tag k="name" v="Midtre Stakkenget" />
		<tag k="natural" v="wetland" />
		<tag k="ssr:stedsnr" v="715776" />
	</node>
	<node lat="64.49776389077603" lon="12.424836116127633" id="-40424">
		<tag k="name" v="Vollomyra" />
		<tag k="natural" v="wetland" />
		<tag k="ssr:stedsnr" v="898924" />
	</node>
	<node lat="64.48122221991649" lon="12.512641667986905" id="-40430">
		<tag k="name" v="Litlmyra" />
		<tag k="natural" v="wetland" />
		<tag k="ssr:stedsnr" v="716587" />
	</node>
	<node lat="64.46757221990931" lon="12.541472229960894" id="-40440">
		<tag k="name" v="Rundmyra" />
		<tag k="natural" v="wetland" />
		<tag k="ssr:stedsnr" v="899590" />
	</node>
	<node lat="64.46697499799582" lon="12.25944998957164" id="-40452">
		<tag k="alt_name" v="Rønningan" />
		<tag k="name" v="Rønningen" />
		<tag k="place" v="locality" />
		<tag k="ssr:stedsnr" v="742501" />
	</node>
	<node lat="64.65744444499641" lon="12.655361102879196" id="-40460">
		<tag k="name" v="Oppkastmyra" />
		<tag k="natural" v="wetland" />
		<tag k="ssr:stedsnr" v="743628" />
	</node>
	<node lat="64.55405000211731" lon="12.662836119752129" id="-40463">
		<tag k="alt_name" v="Gressbekkmoan" />
		<tag k="name" v="Gressbekkmoen" />
		<tag k="natural" v="wetland" />
		<tag k="ssr:stedsnr" v="743729" />
	</node>
	<node lat="64.45389999781" lon="12.133908342080968" id="-40465">
		<tag k="name" v="Brennmomyra" />
		<tag k="natural" v="wetland" />
		<tag k="ssr:stedsnr" v="750029" />
	</node>
	<node lat="64.53955833710852" lon="12.355569435390597" id="-40470">
		<tag k="name" v="Sagstillingsmyra" />
		<tag k="natural" v="wetland" />
		<tag k="ssr:stedsnr" v="757259" />
	</node>
	<node lat="64.36190278158978" lon="12.34018889209103" id="-40474">
		<tag k="name" v="Stormyra" />
		<tag k="natural" v="wetland" />
		<tag k="ssr:stedsnr" v="776001" />
	</node>
	<node lat="64.36578055639171" lon="12.348016671625883" id="-40476">
		<tag k="name" v="Dessarmyra" />
		<tag k="natural" v="wetland" />
		<tag k="ssr:stedsnr" v="776005" />
	</node>
	<node lat="64.71219444361112" lon="12.602613895989734" id="-40478">
		<tag k="name" v="Kalmyra" />
		<tag k="natural" v="wetland" />
		<tag k="ssr:stedsnr" v="776072" />
	</node>
	<node lat="64.58175555384379" lon="12.426050002482102" id="-40495">
		<tag k="name" v="Limsteinenget" />
		<tag k="natural" v="wetland" />
		<tag k="ssr:stedsnr" v="803720" />
	</node>
	<node lat="64.4649999978373" lon="12.216511105959297" id="-40505">
		<tag k="name" v="Bergmomyra" />
		<tag k="natural" v="wetland" />
		<tag k="ssr:stedsnr" v="817012" />
	</node>
	<node lat="64.4791694487551" lon="12.167183328722997" id="-40506">
		<tag k="landuse" v="meadow" />
		<tag k="name" v="Nordenget" />
		<tag k="ssr:stedsnr" v="817027" />
	</node>
	<node lat="64.4494472242664" lon="12.224994452542663" id="-40508">
		<tag k="name" v="Semsmyra" />
		<tag k="natural" v="wetland" />
		<tag k="ssr:stedsnr" v="817113" />
	</node>
	<node lat="64.63615833095892" lon="12.549736102070824" id="-40521">
		<tag k="name" v="Åkroken" />
		<tag k="natural" v="wetland" />
		<tag k="ssr:stedsnr" v="836478" />
	</node>
	<node lat="64.56462500212083" lon="12.732958323765532" id="-40522">
		<tag k="name" v="Kringla" />
		<tag k="natural" v="wetland" />
		<tag k="ssr:stedsnr" v="836684" />
	</node>
	<node lat="64.41189721803835" lon="12.490100009742017" id="-40525">
		<tag k="name" v="Langmyra" />
		<tag k="natural" v="wetland" />
		<tag k="ssr:stedsnr" v="837313" />
	</node>
	<node lat="64.53002499751882" lon="12.65272499056741" id="-40547">
		<tag k="name" v="Sunnimyran" />
		<tag k="natural" v="wetland" />
		<tag k="ssr:stedsnr" v="925193" />
	</node>
	<node lat="64.47171666693976" lon="12.278508329158518" id="-40578">
		<tag k="name" v="Tefatmyra" />
		<tag k="natural" v="wetland" />
		<tag k="ssr:stedsnr" v="878005" />
	</node>
	<node lat="64.4617166691364" lon="12.225816658245492" id="-40579">
		<tag k="name" v="Sørmarka" />
		<tag k="place" v="locality" />
		<tag k="ssr:stedsnr" v="878007" />
	</node>
	<node lat="64.57006388671604" lon="12.505111120302477" id="-40586">
		<tag k="name" v="Stormyra" />
		<tag k="natural" v="wetland" />
		<tag k="ssr:stedsnr" v="878714" />
	</node>
	<node lat="64.62882777821018" lon="12.58556667242077" id="-40592">
		<tag k="name" v="Taftnesmyra" />
		<tag k="natural" v="wetland" />
		<tag k="ssr:stedsnr" v="896576" />
	</node>
	<node lat="64.43629444258772" lon="12.444644437282518" id="-40598">
		<tag k="historic" v="shieling" />
		<tag k="name" v="Steinengsetran" />
		<tag k="place" v="locality" />
		<tag k="ssr:stedsnr" v="898365" />
	</node>
	<node lat="64.40558333178133" lon="12.4519611116375" id="-40600">
		<tag k="name" v="Bergsetermyra" />
		<tag k="natural" v="wetland" />
		<tag k="ssr:stedsnr" v="898416" />
	</node>
	<node lat="64.41173889054511" lon="12.423930561705648" id="-40601">
		<tag k="name" v="Elgmyra" />
		<tag k="natural" v="wetland" />
		<tag k="ssr:stedsnr" v="898425" />
	</node>
	<node lat="64.37904444759057" lon="12.356380554676754" id="-40602">
		<tag k="historic" v="shieling" />
		<tag k="name" v="Blåsetran" />
		<tag k="place" v="locality" />
		<tag k="ssr:stedsnr" v="898432" />
	</node>
	<node lat="64.46933333002215" lon="12.698077774069517" id="-40604">
		<tag k="name" v="Høttmyra" />
		<tag k="natural" v="wetland" />
		<tag k="ssr:stedsnr" v="898563" />
	</node>
	<node lat="64.4961638852318" lon="12.614147214566184" id="-40605">
		<tag k="name" v="Kristensetermyra" />
		<tag k="natural" v="wetland" />
		<tag k="ssr:stedsnr" v="898775" />
	</node>
	<node lat="64.55141666494352" lon="12.317419451419823" id="-40624">
		<tag k="name" v="Nordenget" />
		<tag k="natural" v="wetland" />
		<tag k="ssr:stedsnr" v="925779" />
	</node>
	<node lat="64.47609166967476" lon="12.171938880174668" id="-40630">
		<tag k="landuse" v="meadow" />
		<tag k="name" v="Engan" />
		<tag k="ssr:stedsnr" v="939021" />
	</node>
	<node lat="64.56790277889324" lon="12.37674166524806" id="-40636">
		<tag k="name" v="Bruenget" />
		<tag k="natural" v="wetland" />
		<tag k="ssr:stedsnr" v="939315" />
	</node>
	<node lat="64.58719444340531" lon="12.534891661411127" id="-40642">
		<tag k="name" v="Olderåa" />
		<tag k="place" v="locality" />
		<tag k="ssr:stedsnr" v="939708" />
	</node>
	<node lat="64.58009722381779" lon="12.594722217294262" id="-40643">
		<tag k="name" v="Blakkmyra" />
		<tag k="natural" v="wetland" />
		<tag k="ssr:stedsnr" v="939806" />
	</node>
	<node lat="64.56784999911757" lon="12.58150832458085" id="-40645">
		<tag k="name" v="Litlenget" />
		<tag k="natural" v="wetland" />
		<tag k="ssr:stedsnr" v="229527" />
	</node>
	<node lat="64.58193611246674" lon="12.718997222747518" id="-40654">
		<tag k="name" v="Østre Byaslettet" />
		<tag k="natural" v="wetland" />
		<tag k="ssr:stedsnr" v="958735" />
	</node>
	<node lat="64.3804027815603" lon="12.375402787502539" id="-40659">
		<tag k="name" v="Mårura" />
		<tag k="natural" v="scree" />
		<tag k="ssr:stedsnr" v="959403" />
	</node>
	<node lat="64.4507249999647" lon="12.26127778370556" id="-40683">
		<tag k="name" v="Stormyra" />
		<tag k="natural" v="wetland" />
		<tag k="ssr:stedsnr" v="14836" />
	</node>
	<node lat="64.55447222267229" lon="12.395111104451674" id="-40700">
		<tag k="name" v="Vegamyra" />
		<tag k="natural" v="wetland" />
		<tag k="ssr:stedsnr" v="28335" />
	</node>
	<node lat="64.51061110998985" lon="12.435597222238004" id="-40702">
		<tag k="name" v="Langmyra" />
		<tag k="natural" v="wetland" />
		<tag k="ssr:stedsnr" v="28730" />
	</node>
	<node lat="64.59414722326166" lon="12.510388889439115" id="-40711">
		<tag k="name" v="Setermyra" />
		<tag k="natural" v="wetland" />
		<tag k="ssr:stedsnr" v="29639" />
	</node>
	<node lat="64.65215555902756" lon="12.669883338250221" id="-40718">
		<tag k="name" v="Stormyra" />
		<tag k="natural" v="wetland" />
		<tag k="ssr:stedsnr" v="47584" />
	</node>
	<node lat="64.4721305597121" lon="12.569838899332806" id="-40723">
		<tag k="historic" v="shieling" />
		<tag k="name" v="Kerstisetran" />
		<tag k="place" v="locality" />
		<tag k="ssr:stedsnr" v="47757" />
	</node>
	<node lat="64.56738055652693" lon="12.735936120440941" id="-40725">
		<tag k="historic" v="shieling" />
		<tag k="name" v="Kareliussetran" />
		<tag k="place" v="locality" />
		<tag k="ssr:stedsnr" v="47697" />
	</node>
	<node lat="64.40482221945079" lon="12.499869435625726" id="-40734">
		<tag k="name" v="Krokmyra" />
		<tag k="natural" v="wetland" />
		<tag k="ssr:stedsnr" v="48296" />
	</node>
	<node lat="64.39810000410326" lon="12.491836104378132" id="-40735">
		<tag k="name" v="Muskeggmyrin" />
		<tag k="natural" v="wetland" />
		<tag k="ssr:stedsnr" v="48299" />
	</node>
	<node lat="64.39777777692422" lon="12.399083333472795" id="-40737">
		<tag k="name" v="Rundmyra" />
		<tag k="natural" v="wetland" />
		<tag k="ssr:stedsnr" v="48437" />
	</node>
	<node lat="64.48515555333577" lon="12.569925006061338" id="-40744">
		<tag k="name" v="Iverstranda" />
		<tag k="natural" v="wetland" />
		<tag k="ssr:stedsnr" v="48763" />
	</node>
	<node lat="64.59345833516613" lon="12.471275008099854" id="-40746">
		<tag k="name" v="Kovamyra" />
		<tag k="natural" v="wetland" />
		<tag k="ssr:stedsnr" v="48845" />
	</node>
	<node lat="64.46424166480884" lon="12.465963885104399" id="-40754">
		<tag k="name" v="Geitkløyvmyra" />
		<tag k="natural" v="wetland" />
		<tag k="ssr:stedsnr" v="49565" />
	</node>
	<node lat="64.46345000299456" lon="12.739783323937592" id="-40761">
		<tag k="name" v="Nyengan" />
		<tag k="place" v="locality" />
		<tag k="ssr:stedsnr" v="74321" />
	</node>
	<node lat="64.43375277359708" lon="12.315419444967311" id="-40778">
		<tag k="name" v="Ekkermyra" />
		<tag k="natural" v="wetland" />
		<tag k="ssr:stedsnr" v="75497" />
	</node>
	<node lat="64.54381389162143" lon="12.280041666440463" id="-40787">
		<tag k="name" v="Selbekkenget" />
		<tag k="natural" v="wetland" />
		<tag k="ssr:stedsnr" v="89037" />
	</node>
	<node lat="64.45135277996242" lon="12.24663610256622" id="-40789">
		<tag k="name" v="Limyra" />
		<tag k="natural" v="wetland" />
		<tag k="ssr:stedsnr" v="89128" />
	</node>
	<node lat="64.44974166954422" lon="12.32652222563302" id="-40800">
		<tag k="name" v="Eggan" />
		<tag k="place" v="locality" />
		<tag k="ssr:stedsnr" v="89349" />
	</node>
	<node lat="64.57082221862044" lon="12.59733610019456" id="-40811">
		<tag k="name" v="Hattmyra" />
		<tag k="natural" v="wetland" />
		<tag k="ssr:stedsnr" v="90748" />
	</node>
	<node lat="64.60293490906434" lon="12.551568627973301" id="-40817">
		<tag k="alt_name" v="Stormyra" />
		<tag k="name" v="Storlimyra" />
		<tag k="natural" v="wetland" />
		<tag k="ssr:stedsnr" v="107534" />
	</node>
	<node lat="64.64649721903476" lon="12.562683327788232" id="-40818">
		<tag k="name" v="Korsfjellmyra" />
		<tag k="natural" v="wetland" />
		<tag k="ssr:stedsnr" v="107552" />
	</node>
	<node lat="64.64011389076607" lon="12.66395833118324" id="-40824">
		<tag k="name" v="Svartmyra" />
		<tag k="natural" v="wetland" />
		<tag k="ssr:stedsnr" v="107623" />
	</node>
	<node lat="64.43869999705396" lon="12.370363880591782" id="-40826">
		<tag k="name" v="Fjellmyra" />
		<tag k="natural" v="wetland" />
		<tag k="ssr:stedsnr" v="108300" />
	</node>
	<node lat="64.40763889100117" lon="12.36002222388253" id="-40827">
		<tag k="name" v="Rognsmomyra" />
		<tag k="natural" v="wetland" />
		<tag k="ssr:stedsnr" v="109438" />
	</node>
	<node lat="64.58808889273368" lon="12.631952777171788" id="-40828">
		<tag k="historic" v="shieling" />
		<tag k="name" v="Solemssetran" />
		<tag k="place" v="locality" />
		<tag k="ssr:stedsnr" v="108655" />
	</node>
	<node lat="64.58323888872822" lon="12.625900008287068" id="-40829">
		<tag k="name" v="Butulenget" />
		<tag k="natural" v="wetland" />
		<tag k="ssr:stedsnr" v="108656" />
	</node>
	<node lat="64.58209166925809" lon="12.665227788451926" id="-40831">
		<tag k="historic" v="shieling" />
		<tag k="name" v="Solemssetran" />
		<tag k="place" v="locality" />
		<tag k="ssr:stedsnr" v="108667" />
	</node>
	<node lat="64.5814861075375" lon="12.454363886689691" id="-40833">
		<tag k="name" v="Røyrtjønnmyra" />
		<tag k="natural" v="wetland" />
		<tag k="ssr:stedsnr" v="108846" />
	</node>
	<node lat="64.48521388605589" lon="12.425161115146327" id="-40838">
		<tag k="historic" v="shieling" />
		<tag k="name" v="Gammelsetran" />
		<tag k="place" v="locality" />
		<tag k="ssr:stedsnr" v="109897" />
	</node>
	<node lat="64.64475555757508" lon="12.50636666529842" id="-40845">
		<tag k="name" v="Damslettet" />
		<tag k="natural" v="wetland" />
		<tag k="ssr:stedsnr" v="109744" />
	</node>
	<node lat="64.45178889283055" lon="12.66224444914515" id="-40851">
		<tag k="name" v="Stormyra" />
		<tag k="natural" v="wetland" />
		<tag k="ssr:stedsnr" v="109846" />
	</node>
	<node lat="64.48487499673264" lon="12.464647225693158" id="-40857">
		<tag k="name" v="Larsmyra" />
		<tag k="natural" v="wetland" />
		<tag k="ssr:stedsnr" v="110954" />
	</node>
	<node lat="64.45697777711732" lon="12.30397499227741" id="-40874">
		<tag k="alt_name" v="Hovengmyra" />
		<tag k="name" v="Hoengmyra" />
		<tag k="natural" v="wetland" />
		<tag k="ssr:stedsnr" v="135542" />
	</node>
	<node lat="64.46122222144601" lon="12.221594452814614" id="-40890">
		<tag k="name" v="Fjøsdalmyra" />
		<tag k="natural" v="wetland" />
		<tag k="ssr:stedsnr" v="149053" />
	</node>
	<node lat="64.545177781985" lon="12.357433331183758" id="-40894">
		<tag k="name" v="Slættet" />
		<tag k="natural" v="wetland" />
		<tag k="ssr:stedsnr" v="150279" />
	</node>
	<node lat="64.42476944728435" lon="12.328355552004412" id="-40897">
		<tag k="name" v="Pemoen" />
		<tag k="place" v="locality" />
		<tag k="ssr:stedsnr" v="150352" />
	</node>
	<node lat="64.6295777738186" lon="12.612733335287176" id="-40900">
		<tag k="name" v="Stormyra" />
		<tag k="natural" v="wetland" />
		<tag k="ssr:stedsnr" v="150738" />
	</node>
	<node lat="64.53645277866836" lon="12.569241675109298" id="-40902">
		<tag k="name" v="Storsteinmyra" />
		<tag k="natural" v="wetland" />
		<tag k="ssr:stedsnr" v="229543" />
	</node>
	<node lat="64.6852111067344" lon="12.70516388651627" id="-40907">
		<tag k="name" v="Stormyra" />
		<tag k="natural" v="wetland" />
		<tag k="ssr:stedsnr" v="167627" />
	</node>
	<node lat="64.64537777622083" lon="12.613427768346261" id="-40910">
		<tag k="name" v="Peholmyra" />
		<tag k="natural" v="wetland" />
		<tag k="ssr:stedsnr" v="168543" />
	</node>
	<node lat="64.45908611544938" lon="12.85324166329621" id="-40912">
		<tag k="name" v="Storåsmyra" />
		<tag k="natural" v="wetland" />
		<tag k="ssr:stedsnr" v="168593" />
	</node>
	<node lat="64.5792861122741" lon="12.662822219614354" id="-40922">
		<tag k="name" v="Kristianmyra" />
		<tag k="natural" v="wetland" />
		<tag k="ssr:stedsnr" v="169647" />
	</node>
	<node lat="64.49185000302052" lon="12.586594444148137" id="-40925">
		<tag k="name" v="Svartholet" />
		<tag k="natural" v="wetland" />
		<tag k="ssr:stedsnr" v="169779" />
	</node>
	<node lat="64.5853638897097" lon="12.43072777695465" id="-40928">
		<tag k="name" v="Litlenget" />
		<tag k="natural" v="wetland" />
		<tag k="ssr:stedsnr" v="169852" />
	</node>
	<node lat="64.4871166700695" lon="12.364986101620984" id="-40940">
		<tag k="historic" v="shieling" />
		<tag k="name" v="Medjåsætran" />
		<tag k="place" v="locality" />
		<tag k="ssr:stedsnr" v="196477" />
	</node>
	<node lat="64.52079999965777" lon="12.462172232198617" id="-40968">
		<tag k="name" v="Bjørnura" />
		<tag k="natural" v="scree" />
		<tag k="ssr:stedsnr" v="210748" />
	</node>
	<node lat="64.59285277571622" lon="12.56646666473972" id="-40971">
		<tag k="name" v="Stormyra" />
		<tag k="natural" v="wetland" />
		<tag k="ssr:stedsnr" v="211769" />
	</node>
	<node lat="64.57188055588983" lon="12.668774993513942" id="-40985">
		<tag k="name" v="Bjønnenget" />
		<tag k="natural" v="wetland" />
		<tag k="ssr:stedsnr" v="290600" />
	</node>
	<node lat="64.49127500229497" lon="12.456522213579186" id="-41003">
		<tag k="name" v="Leikhaugmyra" />
		<tag k="natural" v="wetland" />
		<tag k="ssr:stedsnr" v="291956" />
	</node>
	<node lat="64.46336110764568" lon="12.492402783937104" id="-41005">
		<tag k="name" v="Bjørkengan" />
		<tag k="natural" v="wetland" />
		<tag k="ssr:stedsnr" v="292558" />
	</node>
	<node lat="64.47013888971435" lon="12.536063897831859" id="-41006">
		<tag k="name" v="Nordmyra" />
		<tag k="natural" v="wetland" />
		<tag k="ssr:stedsnr" v="292561" />
	</node>
	<node lat="64.51041111118553" lon="12.522302773168773" id="-41015">
		<tag k="name" v="Finnmyra" />
		<tag k="natural" v="wetland" />
		<tag k="ssr:stedsnr" v="317623" />
	</node>
	<node lat="64.55580832947508" lon="12.41668889798771" id="-41023">
		<tag k="name" v="Stamtjønnmyra" />
		<tag k="natural" v="wetland" />
		<tag k="ssr:stedsnr" v="318750" />
	</node>
	<node lat="64.39254166353469" lon="12.331619445531814" id="-41031">
		<tag k="name" v="Spjøtmyra" />
		<tag k="natural" v="wetland" />
		<tag k="ssr:stedsnr" v="332156" />
	</node>
	<node lat="64.61288611272563" lon="12.5669027738442" id="-41041">
		<tag k="name" v="Fossmyra" />
		<tag k="natural" v="wetland" />
		<tag k="ssr:stedsnr" v="350464" />
	</node>
	<node lat="64.42000278061363" lon="12.399994446145083" id="-41051">
		<tag k="name" v="Loken" />
		<tag k="natural" v="wetland" />
		<tag k="ssr:stedsnr" v="351284" />
	</node>
	<node lat="64.47189166379998" lon="12.681438880032964" id="-41057">
		<tag k="name" v="Godfarmyra" />
		<tag k="natural" v="wetland" />
		<tag k="ssr:stedsnr" v="351816" />
	</node>
	<node lat="64.543205553436" lon="12.505175009072627" id="-41061">
		<tag k="name" v="Åmyra" />
		<tag k="natural" v="wetland" />
		<tag k="ssr:stedsnr" v="351797" />
	</node>
	<node lat="64.44019722287563" lon="12.458216663275675" id="-41066">
		<tag k="name" v="Langmyra" />
		<tag k="natural" v="wetland" />
		<tag k="ssr:stedsnr" v="352585" />
	</node>
	<node lat="64.51852222436722" lon="12.354861102097916" id="-41100">
		<tag k="name" v="Setermyra" />
		<tag k="natural" v="wetland" />
		<tag k="ssr:stedsnr" v="379629" />
	</node>
	<node lat="64.54365277848258" lon="12.476144445904865" id="-41107">
		<tag k="name" v="Sunnamyra" />
		<tag k="natural" v="wetland" />
		<tag k="ssr:stedsnr" v="392762" />
	</node>
	<node lat="64.60820241426549" lon="12.585575241247323" id="-41113">
		<tag k="name" v="Fossmarka" />
		<tag k="place" v="locality" />
		<tag k="ssr:stedsnr" v="393764" />
	</node>
	<node lat="64.66755277820214" lon="12.690258330417743" id="-41119">
		<tag k="name" v="Stormyra" />
		<tag k="natural" v="wetland" />
		<tag k="ssr:stedsnr" v="411552" />
	</node>
	<node lat="64.57033889044135" lon="12.696261101521204" id="-41123">
		<tag k="name" v="Vosslettet" />
		<tag k="natural" v="wetland" />
		<tag k="ssr:stedsnr" v="411693" />
	</node>
	<node lat="64.42521944345802" lon="12.446991669490826" id="-41125">
		<tag k="name" v="Kaldmyra" />
		<tag k="natural" v="wetland" />
		<tag k="ssr:stedsnr" v="412330" />
	</node>
	<node lat="64.49538055537889" lon="12.542091662356087" id="-41131">
		<tag k="name" v="Einarslettet" />
		<tag k="natural" v="wetland" />
		<tag k="ssr:stedsnr" v="412756" />
	</node>
	<node lat="64.51623333064104" lon="12.531452786577976" id="-41132">
		<tag k="name" v="Hallimyra" />
		<tag k="natural" v="wetland" />
		<tag k="ssr:stedsnr" v="412768" />
	</node>
	<node lat="64.57591110819455" lon="12.67420277309614" id="-41136">
		<tag k="name" v="Nyloddoslettet" />
		<tag k="natural" v="wetland" />
		<tag k="ssr:stedsnr" v="412620" />
	</node>
	<node lat="64.45222777344759" lon="12.6480694526112" id="-41138">
		<tag k="name" v="Kokarstadmyra" />
		<tag k="natural" v="wetland" />
		<tag k="ssr:stedsnr" v="412833" />
	</node>
	<node lat="64.52689722441089" lon="12.497311106527548" id="-41140">
		<tag k="name" v="Gregoriusstakkenga" />
		<tag k="natural" v="wetland" />
		<tag k="ssr:stedsnr" v="412780" />
	</node>
	<node lat="64.46248610910204" lon="12.44934723083073" id="-41144">
		<tag k="name" v="Gammelloddoslettet" />
		<tag k="natural" v="wetland" />
		<tag k="ssr:stedsnr" v="413549" />
	</node>
	<node lat="64.4960749970927" lon="12.322633334554492" id="-41158">
		<tag k="name" v="Fjellmyra" />
		<tag k="natural" v="wetland" />
		<tag k="ssr:stedsnr" v="438518" />
	</node>
	<node lat="64.61138333602227" lon="12.640327780530932" id="-41170">
		<tag k="name" v="Brannmyra" />
		<tag k="natural" v="wetland" />
		<tag k="ssr:stedsnr" v="439538" />
	</node>
	<node lat="64.47184444831113" lon="12.11007777198255" id="-41182">
		<tag k="name" v="Fjellmyra" />
		<tag k="natural" v="wetland" />
		<tag k="ssr:stedsnr" v="446056" />
	</node>
	<node lat="64.45955278059752" lon="12.304641665341167" id="-41185">
		<tag k="name" v="Nesmyra" />
		<tag k="natural" v="wetland" />
		<tag k="ssr:stedsnr" v="499492" />
	</node>
	<node lat="64.47738333752899" lon="12.221958338240793" id="-41198">
		<tag k="name" v="Rundhaugmyra" />
		<tag k="natural" v="wetland" />
		<tag k="ssr:stedsnr" v="499450" />
	</node>
	<node lat="64.43892222654395" lon="12.351730553668787" id="-41216">
		<tag k="name" v="Teodormyra" />
		<tag k="natural" v="wetland" />
		<tag k="ssr:stedsnr" v="513359" />
	</node>
	<node lat="64.57094917865481" lon="12.570991385096116" id="-41228">
		<tag k="name" v="Spikmyra" />
		<tag k="natural" v="wetland" />
		<tag k="ssr:stedsnr" v="514782" />
	</node>
	<node lat="64.58634444012716" lon="12.57286389774098" id="-41229">
		<tag k="name" v="Lonmarka" />
		<tag k="place" v="locality" />
		<tag k="ssr:stedsnr" v="514783" />
	</node>
	<node lat="64.61760828903394" lon="12.558579118000255" id="-41230">
		<tag k="name" v="Dikmyra" />
		<tag k="natural" v="wetland" />
		<tag k="ssr:stedsnr" v="514747" />
	</node>
	<node lat="64.62570833162827" lon="12.57204999660228" id="-41231">
		<tag k="name" v="Kartmyra" />
		<tag k="natural" v="wetland" />
		<tag k="ssr:stedsnr" v="514752" />
	</node>
	<node lat="64.628808336343" lon="12.585108344144201" id="-41233">
		<tag k="name" v="Toftnesmyra" />
		<tag k="natural" v="wetland" />
		<tag k="ssr:stedsnr" v="514759" />
	</node>
	<node lat="64.65038611415014" lon="12.590841668061683" id="-41238">
		<tag k="name" v="Kavlbrumyra" />
		<tag k="natural" v="wetland" />
		<tag k="ssr:stedsnr" v="532538" />
	</node>
	<node lat="64.6512972242014" lon="12.642549993640111" id="-41241">
		<tag k="name" v="Åsmulstormyra" />
		<tag k="natural" v="wetland" />
		<tag k="ssr:stedsnr" v="532550" />
	</node>
	<node lat="64.65708055975124" lon="12.619383324129343" id="-41243">
		<tag k="name" v="Sørmoan" />
		<tag k="natural" v="wetland" />
		<tag k="ssr:stedsnr" v="532560" />
	</node>
	<node lat="64.61363055302584" lon="12.639797215874736" id="-41245">
		<tag k="name" v="Bjønnmyra" />
		<tag k="natural" v="wetland" />
		<tag k="ssr:stedsnr" v="533357" />
	</node>
	<node lat="64.69332222334835" lon="12.595980545435532" id="-41249">
		<tag k="name" v="Ådalsmyrin" />
		<tag k="natural" v="wetland" />
		<tag k="ssr:stedsnr" v="533427" />
	</node>
	<node lat="64.39432222257092" lon="12.390522221495589" id="-41250">
		<tag k="name" v="Stormyra" />
		<tag k="natural" v="wetland" />
		<tag k="ssr:stedsnr" v="533456" />
	</node>
	<node lat="64.53881389266812" lon="12.731400007003028" id="-41252">
		<tag k="name" v="Firstakkmyra" />
		<tag k="natural" v="wetland" />
		<tag k="ssr:stedsnr" v="533551" />
	</node>
	<node lat="64.57477500391327" lon="12.467805561229966" id="-41258">
		<tag k="name" v="Åmyra" />
		<tag k="natural" v="wetland" />
		<tag k="ssr:stedsnr" v="533877" />
	</node>
	<node lat="64.58380555287165" lon="12.443361114340739" id="-41261">
		<tag k="name" v="Flymyra" />
		<tag k="natural" v="wetland" />
		<tag k="ssr:stedsnr" v="533888" />
	</node>
	<node lat="64.40858610866988" lon="12.55796943468369" id="-41264">
		<tag k="name" v="Lodobandet" />
		<tag k="natural" v="wetland" />
		<tag k="ssr:stedsnr" v="534128" />
	</node>
	<node lat="64.53405277559901" lon="12.561672212560834" id="-41270">
		<tag k="name" v="Slamyra" />
		<tag k="natural" v="wetland" />
		<tag k="ssr:stedsnr" v="534554" />
	</node>
	<node lat="64.41405000326355" lon="12.3507361176809" id="-41294">
		<tag k="name" v="Skiftesmyra" />
		<tag k="natural" v="wetland" />
		<tag k="ssr:stedsnr" v="574180" />
	</node>
	<node lat="64.53937222277803" lon="12.324086113548015" id="-41299">
		<tag k="name" v="Seterenget" />
		<tag k="natural" v="wetland" />
		<tag k="ssr:stedsnr" v="575253" />
	</node>
	<node lat="64.62029999754013" lon="12.575838892161256" id="-41303">
		<tag k="name" v="Litlmyra" />
		<tag k="natural" v="wetland" />
		<tag k="ssr:stedsnr" v="575724" />
	</node>
	<node lat="64.66458888431882" lon="12.635211118817528" id="-41312">
		<tag k="name" v="Grovamyra" />
		<tag k="natural" v="wetland" />
		<tag k="ssr:stedsnr" v="592619" />
	</node>
	<node lat="64.63509166689666" lon="12.78688332597363" id="-41318">
		<tag k="name" v="Margitslettet" />
		<tag k="natural" v="wetland" />
		<tag k="ssr:stedsnr" v="593149" />
	</node>
	<node lat="64.56453055957374" lon="12.594016675661974" id="-41321">
		<tag k="name" v="Myrskjellmyra" />
		<tag k="natural" v="wetland" />
		<tag k="ssr:stedsnr" v="593498" />
	</node>
	<node lat="64.46323889258645" lon="12.712427785426161" id="-41328">
		<tag k="name" v="Katta-Pemyra" />
		<tag k="natural" v="wetland" />
		<tag k="ssr:stedsnr" v="594547" />
	</node>
	<node lat="64.58115833700664" lon="12.448216661090605" id="-41329">
		<tag k="name" v="Storengmyra" />
		<tag k="natural" v="wetland" />
		<tag k="ssr:stedsnr" v="593827" />
	</node>
	<node lat="64.4154722266656" lon="12.407641658222898" id="-41338">
		<tag k="name" v="Viksteinen" />
		<tag k="natural" v="stone" />
		<tag k="ssr:stedsnr" v="594460" />
	</node>
	<node lat="64.6201999983063" lon="12.510983331642226" id="-41343">
		<tag k="name" v="Tollknivenget" />
		<tag k="natural" v="wetland" />
		<tag k="ssr:stedsnr" v="594835" />
	</node>
	<node lat="64.48712500257034" lon="12.660377782628213" id="-41352">
		<tag k="name" v="Hesjedalmyra" />
		<tag k="natural" v="wetland" />
		<tag k="ssr:stedsnr" v="594974" />
	</node>
	<node lat="64.47900277361157" lon="12.252388882632" id="-41387">
		<tag k="name" v="Sagbotnet" />
		<tag k="natural" v="wetland" />
		<tag k="ssr:stedsnr" v="634005" />
	</node>
	<node lat="64.49184999902845" lon="12.219208338197989" id="-41392">
		<tag k="name" v="Stormyra" />
		<tag k="natural" v="wetland" />
		<tag k="ssr:stedsnr" v="634025" />
	</node>
	<node lat="64.50797499962135" lon="12.447269439726599" id="-41401">
		<tag k="name" v="Tømmermyra" />
		<tag k="natural" v="wetland" />
		<tag k="ssr:stedsnr" v="634737" />
	</node>
	<node lat="64.45486666775037" lon="12.290577770359741" id="-41405">
		<tag k="name" v="Rostamyra" />
		<tag k="natural" v="wetland" />
		<tag k="ssr:stedsnr" v="635345" />
	</node>
	<node lat="64.43079444233305" lon="12.324794453720092" id="-41406">
		<tag k="name" v="Melan" />
		<tag k="place" v="locality" />
		<tag k="ssr:stedsnr" v="635351" />
	</node>
	<node lat="64.42544721870017" lon="12.339250008548957" id="-41408">
		<tag k="name" v="Kvernmoen" />
		<tag k="place" v="locality" />
		<tag k="ssr:stedsnr" v="635357" />
	</node>
	<node lat="64.56924444443439" lon="12.374466662717344" id="-41411">
		<tag k="name" v="Hesjemyra" />
		<tag k="natural" v="wetland" />
		<tag k="ssr:stedsnr" v="635315" />
	</node>
	<node lat="64.62332777371438" lon="12.560672226673514" id="-41414">
		<tag k="name" v="Langmyra" />
		<tag k="natural" v="wetland" />
		<tag k="ssr:stedsnr" v="635747" />
	</node>
	<node lat="64.51930000461093" lon="12.356316661346158" id="-41415">
		<tag k="name" v="Piprørmyra" />
		<tag k="natural" v="wetland" />
		<tag k="ssr:stedsnr" v="638256" />
	</node>
	<node lat="64.64102221793168" lon="12.645613895764772" id="-41423">
		<tag k="name" v="Storsandmelen" />
		<tag k="place" v="locality" />
		<tag k="ssr:stedsnr" v="653563" />
	</node>
	<node lat="64.66056388840384" lon="12.621922231001745" id="-41424">
		<tag k="name" v="Stormyra" />
		<tag k="natural" v="wetland" />
		<tag k="ssr:stedsnr" v="653572" />
	</node>
	<node lat="64.42334722259346" lon="12.432413892965608" id="-41429">
		<tag k="historic" v="shieling" />
		<tag k="name" v="Gavlssetran" />
		<tag k="place" v="locality" />
		<tag k="ssr:stedsnr" v="654351" />
	</node>
	<node lat="64.5762472249077" lon="12.700299999906475" id="-41434">
		<tag k="name" v="Vestre Byaslettet" />
		<tag k="natural" v="wetland" />
		<tag k="ssr:stedsnr" v="654711" />
	</node>
	<node lat="64.46174722405881" lon="12.69612222927218" id="-41436">
		<tag k="name" v="Nessa" />
		<tag k="natural" v="wetland" />
		<tag k="ssr:stedsnr" v="654571" />
	</node>
	<node lat="64.5749472229805" lon="12.658841666832423" id="-41437">
		<tag k="name" v="Skaftholet" />
		<tag k="natural" v="wetland" />
		<tag k="ssr:stedsnr" v="654659" />
	</node>
	<node lat="64.5813499997824" lon="12.428569437802677" id="-41440">
		<tag k="historic" v="shieling" />
		<tag k="name" v="Østgardsetran" />
		<tag k="place" v="locality" />
		<tag k="ssr:stedsnr" v="654880" />
	</node>
	<node lat="64.52364444252947" lon="12.534036116117441" id="-41442">
		<tag k="name" v="Gammellodomyran" />
		<tag k="natural" v="wetland" />
		<tag k="ssr:stedsnr" v="654819" />
	</node>
	<node lat="64.53001666440318" lon="12.526686112631152" id="-41444">
		<tag k="name" v="Setermyra" />
		<tag k="natural" v="wetland" />
		<tag k="ssr:stedsnr" v="654823" />
	</node>
	<node lat="64.53718333437688" lon="12.654161117729632" id="-41447">
		<tag k="name" v="Nordengan" />
		<tag k="natural" v="wetland" />
		<tag k="ssr:stedsnr" v="655545" />
	</node>
	<node lat="64.63508055264003" lon="12.739805546495997" id="-41463">
		<tag k="name" v="Steinåslettet" />
		<tag k="natural" v="wetland" />
		<tag k="ssr:stedsnr" v="715143" />
	</node>
	<node lat="64.40473055913826" lon="12.462188879251435" id="-41467">
		<tag k="name" v="Snaumyra" />
		<tag k="natural" v="wetland" />
		<tag k="ssr:stedsnr" v="715456" />
	</node>
	<node lat="64.47730277372494" lon="12.696883325510942" id="-41469">
		<tag k="name" v="Storstakkslettet" />
		<tag k="natural" v="wetland" />
		<tag k="ssr:stedsnr" v="715567" />
	</node>
	<node lat="64.47085833274794" lon="12.720955562834469" id="-41471">
		<tag k="name" v="Bergmyra" />
		<tag k="natural" v="wetland" />
		<tag k="ssr:stedsnr" v="715577" />
	</node>
	<node lat="64.56230277911365" lon="12.608563882475233" id="-41472">
		<tag k="name" v="Storotermyra" />
		<tag k="natural" v="wetland" />
		<tag k="ssr:stedsnr" v="715507" />
	</node>
	<node lat="64.55839722021648" lon="12.685605550104464" id="-41474">
		<tag k="name" v="Stormyra" />
		<tag k="natural" v="wetland" />
		<tag k="ssr:stedsnr" v="715654" />
	</node>
	<node lat="64.56616944679851" lon="12.63056943982817" id="-41475">
		<tag k="name" v="Saustakkenget" />
		<tag k="natural" v="wetland" />
		<tag k="ssr:stedsnr" v="715656" />
	</node>
	<node lat="64.63611110836591" lon="12.545474995489682" id="-41485">
		<tag k="name" v="Kvilbordet" />
		<tag k="natural" v="stone" />
		<tag k="ssr:stedsnr" v="716777" />
	</node>
	<node lat="64.46491389157433" lon="12.558744452757818" id="-41486">
		<tag k="name" v="Bergmyra" />
		<tag k="natural" v="wetland" />
		<tag k="ssr:stedsnr" v="715764" />
	</node>
	<node lat="64.39361944549" lon="12.56301665955918" id="-41489">
		<tag k="name" v="Stormyra" />
		<tag k="natural" v="wetland" />
		<tag k="ssr:stedsnr" v="716134" />
	</node>
	<node lat="64.48870555936057" lon="12.415613897151754" id="-41496">
		<tag k="name" v="Steindalsmyra" />
		<tag k="natural" v="wetland" />
		<tag k="ssr:stedsnr" v="716718" />
	</node>
	<node lat="64.59375277392333" lon="12.436186108101378" id="-41498">
		<tag k="name" v="Skarlandsmyra" />
		<tag k="natural" v="wetland" />
		<tag k="ssr:stedsnr" v="716848" />
	</node>
	<node lat="64.44028611344821" lon="12.346891664611718" id="-41537">
		<tag k="name" v="Fjellmyra" />
		<tag k="natural" v="wetland" />
		<tag k="ssr:stedsnr" v="756327" />
	</node>
	<node lat="64.55257777984878" lon="12.34691943881295" id="-41543">
		<tag k="name" v="Litltjønnmyra" />
		<tag k="natural" v="wetland" />
		<tag k="ssr:stedsnr" v="757289" />
	</node>
	<node lat="64.43281111461684" lon="12.294088888792427" id="-41544">
		<tag k="name" v="Todorberget" />
		<tag k="place" v="locality" />
		<tag k="ssr:stedsnr" v="757341" />
	</node>
	<node lat="64.50524444591976" lon="12.406861116053694" id="-41551">
		<tag k="name" v="Storkilligmyra" />
		<tag k="natural" v="wetland" />
		<tag k="ssr:stedsnr" v="760292" />
	</node>
	<node lat="64.63374999728514" lon="12.604316670961179" id="-41553">
		<tag k="name" v="Korsmyra" />
		<tag k="natural" v="wetland" />
		<tag k="ssr:stedsnr" v="775523" />
	</node>
	<node lat="64.63968333696293" lon="12.63173332675047" id="-41560">
		<tag k="name" v="Grovamyra" />
		<tag k="natural" v="wetland" />
		<tag k="ssr:stedsnr" v="775545" />
	</node>
	<node lat="64.39446666387666" lon="12.550330547048366" id="-41561">
		<tag k="name" v="Stormyra" />
		<tag k="natural" v="wetland" />
		<tag k="ssr:stedsnr" v="776381" />
	</node>
	<node lat="64.44576389223566" lon="12.375627769217864" id="-41565">
		<tag k="name" v="Botnmyra" />
		<tag k="natural" v="wetland" />
		<tag k="ssr:stedsnr" v="776279" />
	</node>
	<node lat="64.42070833066926" lon="12.446972213434236" id="-41567">
		<tag k="name" v="Jamsengmyra" />
		<tag k="natural" v="wetland" />
		<tag k="ssr:stedsnr" v="776330" />
	</node>
	<node lat="64.41958332924914" lon="12.43606944241468" id="-41568">
		<tag k="name" v="Gavlsmyra" />
		<tag k="natural" v="wetland" />
		<tag k="ssr:stedsnr" v="776331" />
	</node>
	<node lat="64.68192222044276" lon="12.567502773199516" id="-41569">
		<tag k="name" v="Merraslettet" />
		<tag k="natural" v="wetland" />
		<tag k="ssr:stedsnr" v="776391" />
	</node>
	<node lat="64.38956666705764" lon="12.475438889895027" id="-41571">
		<tag k="name" v="Lurumyra" />
		<tag k="natural" v="wetland" />
		<tag k="ssr:stedsnr" v="776396" />
	</node>
	<node lat="64.5126833350466" lon="12.505975009582704" id="-41577">
		<tag k="name" v="Stakkenga" />
		<tag k="natural" v="wetland" />
		<tag k="ssr:stedsnr" v="776768" />
	</node>
	<node lat="64.53723055260649" lon="12.512249996342947" id="-41579">
		<tag k="name" v="Rundmyra" />
		<tag k="natural" v="wetland" />
		<tag k="ssr:stedsnr" v="776793" />
	</node>
	<node lat="64.61754166725683" lon="12.508858335361882" id="-41580">
		<tag k="name" v="Setermyra" />
		<tag k="natural" v="wetland" />
		<tag k="ssr:stedsnr" v="776835" />
	</node>
	<node lat="64.59490277753983" lon="12.460522223314003" id="-41582">
		<tag k="historic" v="shieling" />
		<tag k="name" v="Gammelsetervollen" />
		<tag k="place" v="locality" />
		<tag k="ssr:stedsnr" v="776846" />
	</node>
	<node lat="64.38513610687896" lon="12.390800004462948" id="-41587">
		<tag k="name" v="Larsholmmyra" />
		<tag k="natural" v="wetland" />
		<tag k="ssr:stedsnr" v="777439" />
	</node>
	<node lat="64.47627222494668" lon="12.524330556117869" id="-41590">
		<tag k="name" v="Iverstrandmyra" />
		<tag k="natural" v="wetland" />
		<tag k="ssr:stedsnr" v="777577" />
	</node>
	<node lat="64.48890000050865" lon="12.479594453103655" id="-41593">
		<tag k="name" v="Småmyrin" />
		<tag k="natural" v="wetland" />
		<tag k="ssr:stedsnr" v="777954" />
	</node>
	<node lat="64.55915000014014" lon="12.690324993409286" id="-41619">
		<tag k="name" v="Stormyra" />
		<tag k="natural" v="wetland" />
		<tag k="ssr:stedsnr" v="803734" />
	</node>
	<node lat="64.46072777955011" lon="12.135025005972814" id="-41624">
		<tag k="name" v="Raudmyrdiket" />
		<tag k="natural" v="wetland" />
		<tag k="ssr:stedsnr" v="810038" />
	</node>
	<node lat="64.46618055915457" lon="12.227941670947766" id="-41627">
		<tag k="name" v="Tørvmyra" />
		<tag k="natural" v="wetland" />
		<tag k="ssr:stedsnr" v="817059" />
	</node>
	<node lat="64.44674722124199" lon="12.296358324624439" id="-41629">
		<tag k="name" v="Slettbergmyra" />
		<tag k="natural" v="wetland" />
		<tag k="ssr:stedsnr" v="817335" />
	</node>
	<node lat="64.58691944723846" lon="12.50892778811857" id="-41635">
		<tag k="name" v="Kveldshaugmyra" />
		<tag k="natural" v="wetland" />
		<tag k="ssr:stedsnr" v="817723" />
	</node>
	<node lat="64.37548055718257" lon="12.351583343208711" id="-41639">
		<tag k="name" v="Moslettmyra" />
		<tag k="natural" v="wetland" />
		<tag k="ssr:stedsnr" v="818161" />
	</node>
	<node lat="64.66619444765533" lon="12.731299993339142" id="-41651">
		<tag k="name" v="Gryta" />
		<tag k="natural" v="wetland" />
		<tag k="ssr:stedsnr" v="836562" />
	</node>
	<node lat="64.51131666433977" lon="12.208666663542232" id="-41654">
		<tag k="name" v="Flatslettet" />
		<tag k="natural" v="wetland" />
		<tag k="ssr:stedsnr" v="837161" />
	</node>
	<node lat="64.48981111457256" lon="12.36661110723863" id="-41662">
		<tag k="historic" v="shieling" />
		<tag k="name" v="Nordsetran" />
		<tag k="place" v="locality" />
		<tag k="ssr:stedsnr" v="837669" />
	</node>
	<node lat="64.47123888917609" lon="12.48015834097934" id="-41671">
		<tag k="historic" v="shieling" />
		<tag k="name" v="Gamsetran" />
		<tag k="place" v="locality" />
		<tag k="ssr:stedsnr" v="838564" />
	</node>
	<node lat="64.4618999957266" lon="12.234911114234265" id="-41684">
		<tag k="name" v="Stormyra" />
		<tag k="natural" v="wetland" />
		<tag k="ssr:stedsnr" v="864578" />
	</node>
	<node lat="64.64493611183713" lon="12.660824998107453" id="-41691">
		<tag k="name" v="Svartmyra" />
		<tag k="natural" v="wetland" />
		<tag k="ssr:stedsnr" v="864656" />
	</node>
	<node lat="64.56318888936917" lon="12.377338893540074" id="-41706">
		<tag k="name" v="Abrahammyra" />
		<tag k="natural" v="wetland" />
		<tag k="ssr:stedsnr" v="864726" />
	</node>
	<node lat="64.54913597330258" lon="12.348728985682715" id="-41708">
		<tag k="historic" v="shieling" />
		<tag k="name" v="Gartlandsetran" />
		<tag k="place" v="locality" />
		<tag k="ssr:stedsnr" v="864767" />
	</node>
	<node lat="64.44153610718413" lon="12.143480547186693" id="-41715">
		<tag k="name" v="Bjørnstokken" />
		<tag k="natural" v="stone" />
		<tag k="ssr:stedsnr" v="871054" />
	</node>
	<node lat="64.56577777561294" lon="12.46815554733305" id="-41719">
		<tag k="name" v="Stormyra" />
		<tag k="natural" v="wetland" />
		<tag k="ssr:stedsnr" v="878691" />
	</node>
	<node lat="64.47062499628403" lon="12.181836108378041" id="-41720">
		<tag k="alt_name" v="Føynemsmyra" />
		<tag k="name" v="Føynesmyra" />
		<tag k="natural" v="wetland" />
		<tag k="ssr:stedsnr" v="878029" />
	</node>
	<node lat="64.59072777380337" lon="12.49531944431467" id="-41735">
		<tag k="name" v="Lodoenget" />
		<tag k="place" v="locality" />
		<tag k="ssr:stedsnr" v="879613" />
	</node>
	<node lat="64.49657777337548" lon="12.21121111407196" id="-41746">
		<tag k="name" v="Fossmyra" />
		<tag k="natural" v="wetland" />
		<tag k="ssr:stedsnr" v="939099" />
	</node>
	<node lat="64.45391944268485" lon="12.308622221802269" id="-41747">
		<tag k="name" v="Fossenget" />
		<tag k="place" v="locality" />
		<tag k="ssr:stedsnr" v="939348" />
	</node>
	<node lat="64.53642499670276" lon="12.359358324900038" id="-41749">
		<tag k="name" v="Mekveldsmyra" />
		<tag k="natural" v="wetland" />
		<tag k="ssr:stedsnr" v="939273" />
	</node>
	<node lat="64.46681666460303" lon="12.340391661652534" id="-41751">
		<tag k="name" v="Fuglmyra" />
		<tag k="natural" v="wetland" />
		<tag k="ssr:stedsnr" v="939395" />
	</node>
	<node lat="64.48201111451186" lon="12.297452786913778" id="-41752">
		<tag k="name" v="Nedre Høgsetmyra" />
		<tag k="natural" v="wetland" />
		<tag k="ssr:stedsnr" v="939379" />
	</node>
	<node lat="64.44543333773213" lon="12.15884166700803" id="-41754">
		<tag k="name" v="Innengmyra" />
		<tag k="natural" v="wetland" />
		<tag k="ssr:stedsnr" v="939453" />
	</node>
	<node lat="64.58272778032656" lon="12.486808336004293" id="-41755">
		<tag k="name" v="Langløyfta" />
		<tag k="natural" v="wetland" />
		<tag k="ssr:stedsnr" v="939712" />
	</node>
	<node lat="64.56048888935844" lon="12.465258327382609" id="-41761">
		<tag k="name" v="Tørvmyra" />
		<tag k="natural" v="wetland" />
		<tag k="ssr:stedsnr" v="939662" />
	</node>
	<node lat="64.67258888606665" lon="12.67954166315946" id="-41764">
		<tag k="name" v="Fossmyra" />
		<tag k="natural" v="wetland" />
		<tag k="ssr:stedsnr" v="955315" />
	</node>
	<node lat="64.63645555590061" lon="12.569974998726313" id="-41766">
		<tag k="historic" v="shieling" />
		<tag k="name" v="Kvennhusvollen" />
		<tag k="place" v="locality" />
		<tag k="ssr:stedsnr" v="957510" />
	</node>
	<node lat="64.6417444408149" lon="12.579369446137171" id="-41767">
		<tag k="name" v="Tømmermyra" />
		<tag k="natural" v="wetland" />
		<tag k="ssr:stedsnr" v="957538" />
	</node>
	<node lat="64.63952500347987" lon="12.618872228075684" id="-41768">
		<tag k="name" v="Stormyra" />
		<tag k="natural" v="wetland" />
		<tag k="ssr:stedsnr" v="957554" />
	</node>
	<node lat="64.51838610758739" lon="12.70157223186826" id="-41785">
		<tag k="name" v="Reinkrumyra" />
		<tag k="natural" v="wetland" />
		<tag k="ssr:stedsnr" v="958577" />
	</node>
	<node lat="64.54946666264405" lon="12.67216944810488" id="-41786">
		<tag k="name" v="Pe-Minarsvingen" />
		<tag k="natural" v="wetland" />
		<tag k="ssr:stedsnr" v="958705" />
	</node>
	<node lat="64.46153055147688" lon="12.616452785917733" id="-41788">
		<tag k="name" v="Brokmyra" />
		<tag k="natural" v="wetland" />
		<tag k="ssr:stedsnr" v="958820" />
	</node>
	<node lat="64.50098055496358" lon="12.446261112234387" id="-41793">
		<tag k="name" v="Hessimyra" />
		<tag k="natural" v="wetland" />
		<tag k="ssr:stedsnr" v="958958" />
	</node>
	<node lat="64.39036944501537" lon="12.38473332549052" id="-41795">
		<tag k="name" v="Øvre Stormyra" />
		<tag k="natural" v="wetland" />
		<tag k="ssr:stedsnr" v="959421" />
	</node>
	<node lat="64.48128332983573" lon="12.525636102134282" id="-41800">
		<tag k="name" v="Strandamyra" />
		<tag k="natural" v="wetland" />
		<tag k="ssr:stedsnr" v="959554" />
	</node>
	<node lat="64.66389444011024" lon="12.528263885347295" id="-41805">
		<tag k="name" v="Åslodomyrin" />
		<tag k="natural" v="wetland" />
		<tag k="ssr:stedsnr" v="959772" />
	</node>
</osm>
