<?xml version="1.0" encoding="UTF-8"?>
<<<<<<< HEAD
<osm version="0.6" generator="osmapis">
	<node lat="64.34750555266332" lon="12.171211114467608" id="-34162">
		<tag k="name" v="Bognsjø statsallmenning" />
=======
<osm generator="osmapis" version="0.6">
	<node id="-785310" lat="64.4680944425" lon="12.566075002">
		<tag k="alt_name" v="Hermannstein" />
		<tag k="historic" v="boundary_stone" />
		<tag k="man_made" v="cairn" />
		<tag k="name" v="Hermannsteinen" />
>>>>>>> e1d4bc35ff8a6074a6f2e91616a996b547c36f15
		<tag k="place" v="locality" />
		<tag k="ssr:stedsnr" v="594169" />
	</node>
<<<<<<< HEAD
	<node lat="64.50384166366425" lon="13.086736119684549" id="-34307">
=======
	<node id="-783762" lat="64.4880194444" lon="12.3738888974">
		<tag k="fixme" v="consider boundary=protected_area and relevant protect_class if not nature reserve" />
		<tag k="leisure" v="nature_reserve" />
		<tag k="name" v="Migaren naturreservat" />
		<tag k="ssr:stedsnr" v="161269" />
	</node>
	<node id="-784238" lat="64.5038416637" lon="13.0867361197">
>>>>>>> e1d4bc35ff8a6074a6f2e91616a996b547c36f15
		<tag k="name" v="Brennmoen statsallmenning" />
		<tag k="place" v="locality" />
		<tag k="ssr:stedsnr" v="715305" />
	</node>
<<<<<<< HEAD
	<node lat="64.4880194443871" lon="12.373888897417956" id="-34797">
		<tag k="fixme" v="consider boundary=protected_area and relevant protect_class if not nature reserve" />
		<tag k="leisure" v="nature_reserve" />
		<tag k="name" v="Migaren naturreservat" />
		<tag k="ssr:stedsnr" v="161269" />
	</node>
	<node lat="64.46809444247015" lon="12.566075002039465" id="-35174">
		<tag k="alt_name" v="Hermannstein" />
		<tag k="historic" v="boundary_stone" />
		<tag k="man_made" v="cairn" />
		<tag k="name" v="Hermannsteinen" />
		<tag k="place" v="locality" />
		<tag k="ssr:stedsnr" v="560569" />
	</node>
	<node lat="64.45793890509134" lon="12.360292583550429" id="-35767">
		<tag k="fixme" v="consider boundary=protected_area and relevant protect_class if not nature reserve" />
		<tag k="leisure" v="nature_reserve" />
		<tag k="name" v="Memorgotuva naturreservat" />
		<tag k="ssr:stedsnr" v="1081833" />
=======
	<node id="-785386" lat="64.3475055527" lon="12.1712111145">
		<tag k="name" v="Bognsjø statsallmenning" />
		<tag k="place" v="locality" />
		<tag k="ssr:stedsnr" v="594169" />
>>>>>>> e1d4bc35ff8a6074a6f2e91616a996b547c36f15
	</node>
</osm>
