<?xml version="1.0" encoding="UTF-8"?>
<<<<<<< HEAD
<osm version="0.6" generator="osmapis">
	<node lat="64.39871389228259" lon="12.445541670410146" id="-33746">
		<tag k="name" v="Bruravelta" />
		<tag k="place" v="locality" />
		<tag k="ssr:stedsnr" v="230405" />
	</node>
	<node lat="64.5981194414672" lon="12.595097231661514" id="-33867">
		<tag k="name" v="Brennhaugen" />
		<tag k="place" v="locality" />
		<tag k="ssr:stedsnr" v="471545" />
	</node>
	<node lat="64.4749305553147" lon="12.538627778765212" id="-34746">
		<tag k="name" v="Tomasvelta" />
		<tag k="place" v="locality" />
		<tag k="ssr:stedsnr" v="110601" />
	</node>
	<node lat="64.58494166379214" lon="12.552461111492734" id="-34870">
=======
<osm generator="osmapis" version="0.6">
	<node id="-785565" lat="64.5592271854" lon="12.48653539">
		<tag k="amenity" v="place_of_worship" />
		<tag k="denomination" v="lutheran" />
		<tag k="name" v="Harran kirke" />
		<tag k="religion" v="christian" />
		<tag k="ssr:stedsnr" v="754625" />
	</node>
	<node id="-783952" lat="64.5849416638" lon="12.5524611115">
>>>>>>> e1d4bc35ff8a6074a6f2e91616a996b547c36f15
		<tag k="name" v="Rundhaugen" />
		<tag k="place" v="locality" />
		<tag k="ssr:stedsnr" v="289556" />
	</node>
<<<<<<< HEAD
	<node lat="64.55922718539087" lon="12.486535390033954" id="-35423">
		<tag k="amenity" v="place_of_worship" />
		<tag k="denomination" v="lutheran" />
		<tag k="name" v="Harran kirke" />
		<tag k="religion" v="christian" />
		<tag k="ssr:stedsnr" v="754625" />
	</node>
	<node lat="64.53482777772858" lon="12.401769438494902" id="-35434">
=======
	<node id="-785757" lat="64.4668910708" lon="12.2963673886">
>>>>>>> e1d4bc35ff8a6074a6f2e91616a996b547c36f15
		<tag k="amenity" v="place_of_worship" />
		<tag k="denomination" v="lutheran" />
		<tag k="name" v="Grong kirke" />
		<tag k="religion" v="christian" />
		<tag k="ssr:stedsnr" v="864581" />
	</node>
<<<<<<< HEAD
	<node lat="64.46689107079986" lon="12.29636738858431" id="-35577">
=======
	<node id="-785580" lat="64.5348277777" lon="12.4017694385">
>>>>>>> e1d4bc35ff8a6074a6f2e91616a996b547c36f15
		<tag k="amenity" v="place_of_worship" />
		<tag k="denomination" v="lutheran" />
		<tag k="loc_name" v="Gløshaug kirke" />
		<tag k="name" v="Gløshaugen kirke" />
		<tag k="religion" v="christian" />
		<tag k="ssr:stedsnr" v="757267" />
	</node>
<<<<<<< HEAD
	<node lat="64.46466396176821" lon="12.30977729621976" id="-35758">
		<tag k="amenity" v="conference_centre" />
		<tag k="name" v="Kulturhuset Kuben" />
		<tag k="ssr:stedsnr" v="1080052" />
=======
	<node id="-784871" lat="64.4749305553" lon="12.5386277788">
		<tag k="name" v="Tomasvelta" />
		<tag k="place" v="locality" />
		<tag k="ssr:stedsnr" v="110601" />
	</node>
	<node id="-783874" lat="64.3987138923" lon="12.4455416704">
		<tag k="name" v="Bruravelta" />
		<tag k="place" v="locality" />
		<tag k="ssr:stedsnr" v="230405" />
>>>>>>> e1d4bc35ff8a6074a6f2e91616a996b547c36f15
	</node>
</osm>
