<?xml version="1.0" encoding="UTF-8"?>
<osm version="0.6" generator="osmapis">
	<node lat="64.64661666911111" lon="12.78667777944132" id="-88942">
		<tag k="name" v="Merkesskjæret" />
		<tag k="place" v="islet" />
		<tag k="ssr:stedsnr" v="230164" />
	</node>
	<node lat="64.57478333690744" lon="12.715644434901048" id="-88949">
		<tag k="name" v="Seterelvin" />
		<tag k="ssr:stedsnr" v="230677" />
		<tag k="waterway" v="stream" />
	</node>
	<node lat="64.46199722337447" lon="12.458608324714746" id="-88950">
		<tag k="alt_name" v="Litlåa" />
		<tag k="name" v="Litleåa" />
		<tag k="ssr:stedsnr" v="230912" />
		<tag k="waterway" v="stream" />
	</node>
	<node lat="64.67879722608168" lon="12.525158336988355" id="-88954">
		<tag k="name" v="Skåltjønnbekken" />
		<tag k="ssr:stedsnr" v="230765" />
		<tag k="waterway" v="stream" />
	</node>
	<node lat="64.50316110979543" lon="12.909672217467847" id="-88956">
		<tag k="name" v="Litltjønna" />
		<tag k="natural" v="water" />
		<tag k="ssr:stedsnr" v="230932" />
	</node>
	<node lat="64.48664722681262" lon="12.966474995923239" id="-88958">
		<tag k="name" v="Storfisktjønna" />
		<tag k="natural" v="water" />
		<tag k="ssr:stedsnr" v="230922" />
	</node>
	<node lat="64.50005277804225" lon="12.948994440079774" id="-88959">
		<tag k="name" v="Olavtjønna" />
		<tag k="natural" v="water" />
		<tag k="ssr:stedsnr" v="230927" />
	</node>
	<node lat="64.48228055285398" lon="12.474658341455536" id="-88960">
		<tag k="name" v="Stortjønna" />
		<tag k="natural" v="water" />
		<tag k="ssr:stedsnr" v="230963" />
	</node>
	<node lat="64.47519722506922" lon="12.478511120013229" id="-88964">
		<tag k="name" v="Elvnesa" />
		<tag k="natural" v="cape" />
		<tag k="ssr:stedsnr" v="231611" />
	</node>
	<node lat="64.56727777634111" lon="12.435591675169691" id="-88966">
		<tag k="name" v="Svartholet" />
		<tag k="natural" v="water" />
		<tag k="ssr:stedsnr" v="14706" />
	</node>
	<node lat="64.67716110798204" lon="12.723227770401529" id="-88968">
		<tag k="name" v="Brudalsbekken" />
		<tag k="ssr:stedsnr" v="15406" />
		<tag k="waterway" v="stream" />
	</node>
	<node lat="64.67523889030605" lon="12.799294444410387" id="-88969">
		<tag k="name" v="Grøndalselva" />
		<tag k="ssr:stedsnr" v="15408" />
		<tag k="waterway" v="river" />
	</node>
	<node lat="64.52274999584463" lon="12.387333332383875" id="-88972">
		<tag k="alt_name" v="Havsøra" />
		<tag k="name" v="Havsøyra" />
		<tag k="place" v="islet" />
		<tag k="ssr:stedsnr" v="15677" />
	</node>
	<node lat="64.43936388758554" lon="12.240977770594274" id="-88976">
		<tag k="name" v="Skavldalsbekken" />
		<tag k="ssr:stedsnr" v="28107" />
		<tag k="waterway" v="stream" />
	</node>
	<node lat="64.441741666806" lon="12.238172224519758" id="-88978">
		<tag k="name" v="Migranspruten" />
		<tag k="ssr:stedsnr" v="28109" />
		<tag k="waterway" v="stream" />
	</node>
	<node lat="64.47849443993911" lon="12.297738891313916" id="-88982">
		<tag k="name" v="Steinsåa" />
		<tag k="ssr:stedsnr" v="29372" />
		<tag k="waterway" v="stream" />
	</node>
	<node lat="64.50786944850528" lon="12.680458341296442" id="-88983">
		<tag k="name" v="Breivassfossen" />
		<tag k="natural" v="waterfall" />
		<tag k="ssr:stedsnr" v="34826" />
	</node>
	<node lat="64.57288611368399" lon="12.737902778782223" id="-88986">
		<tag k="name" v="Steinåa" />
		<tag k="ssr:stedsnr" v="47720" />
		<tag k="waterway" v="river" />
	</node>
	<node lat="64.37093888868017" lon="12.335944435196142" id="-88988">
		<tag k="name" v="Verkesfossen" />
		<tag k="natural" v="waterfall" />
		<tag k="ssr:stedsnr" v="48007" />
	</node>
	<node lat="64.39107222131419" lon="12.366594446678326" id="-88997">
		<tag k="name" v="Spjøtneset" />
		<tag k="natural" v="cape" />
		<tag k="ssr:stedsnr" v="48410" />
	</node>
	<node lat="64.3876444472452" lon="12.396505559423572" id="-88998">
		<tag k="name" v="Lurufossen" />
		<tag k="natural" v="waterfall" />
		<tag k="ssr:stedsnr" v="48412" />
	</node>
	<node lat="64.5360305517483" lon="12.68944166686493" id="-88999">
		<tag k="name" v="Fiskløystjønna" />
		<tag k="natural" v="water" />
		<tag k="ssr:stedsnr" v="48501" />
	</node>
	<node lat="64.58333888543082" lon="12.621911100337298" id="-89000">
		<tag k="name" v="Butulbekken" />
		<tag k="ssr:stedsnr" v="48621" />
		<tag k="waterway" v="stream" />
	</node>
	<node lat="64.47731110888401" lon="12.474566674239682" id="-89001">
		<tag k="name" v="Gresstjønna" />
		<tag k="natural" v="water" />
		<tag k="ssr:stedsnr" v="49575" />
	</node>
	<node lat="64.49398610897" lon="12.234102772163721" id="-89005">
		<tag k="name" v="Bekkrokan" />
		<tag k="ssr:stedsnr" v="74512" />
		<tag k="waterway" v="stream" />
	</node>
	<node lat="64.48839999866331" lon="12.310274996000556" id="-89012">
		<tag k="name" v="Djupdalsbekken" />
		<tag k="ssr:stedsnr" v="75549" />
		<tag k="waterway" v="stream" />
	</node>
	<node lat="64.47669166283613" lon="12.665252770274822" id="-89013">
		<tag k="name" v="Fiskburet" />
		<tag k="natural" v="water" />
		<tag k="ssr:stedsnr" v="75560" />
	</node>
	<node lat="64.60680555719723" lon="12.604716673136176" id="-89033">
		<tag k="name" v="Lomtjønnbekken" />
		<tag k="ssr:stedsnr" v="90764" />
		<tag k="waterway" v="stream" />
	</node>
	<node lat="64.40064444619705" lon="12.553308331851438" id="-89036">
		<tag k="name" v="Brufossen" />
		<tag k="natural" v="waterfall" />
		<tag k="ssr:stedsnr" v="109302" />
	</node>
	<node lat="64.39161388576044" lon="12.488441661440424" id="-89041">
		<tag k="name" v="Medalåkroken" />
		<tag k="natural" v="cape" />
		<tag k="ssr:stedsnr" v="109407" />
	</node>
	<node lat="64.49154166970219" lon="12.89977777750604" id="-89046">
		<tag k="name" v="Tjønnrølbekken" />
		<tag k="ssr:stedsnr" v="109910" />
		<tag k="waterway" v="stream" />
	</node>
	<node lat="64.67048333526824" lon="12.6712555602645" id="-89055">
		<tag k="name" v="Ospholmen" />
		<tag k="place" v="islet" />
		<tag k="ssr:stedsnr" v="135570" />
	</node>
	<node lat="64.5649666685677" lon="12.700261103072723" id="-89056">
		<tag k="name" v="Rognbuvatnet" />
		<tag k="natural" v="water" />
		<tag k="ssr:stedsnr" v="135723" />
	</node>
	<node lat="64.40455833358898" lon="12.568774997465367" id="-89057">
		<tag k="name" v="Medalåa" />
		<tag k="ssr:stedsnr" v="135452" />
		<tag k="waterway" v="river" />
	</node>
	<node lat="64.37764999693674" lon="12.178550003620568" id="-89059">
		<tag k="name" v="Fiskløysa" />
		<tag k="natural" v="water" />
		<tag k="ssr:stedsnr" v="135651" />
	</node>
	<node lat="64.4556749967071" lon="12.239686118876534" id="-89065">
		<tag k="name" v="Odelsneset" />
		<tag k="natural" v="cape" />
		<tag k="ssr:stedsnr" v="149104" />
	</node>
	<node lat="64.4703555576167" lon="12.262402775189853" id="-89066">
		<tag k="name" v="Speikbukta" />
		<tag k="place" v="locality" />
		<tag k="ssr:stedsnr" v="149002" />
	</node>
	<node lat="64.475352773709" lon="12.801186101388545" id="-89071">
		<tag k="name" v="Nordelva" />
		<tag k="ssr:stedsnr" v="256314" />
		<tag k="waterway" v="stream" />
	</node>
	<node lat="64.56278888567573" lon="12.511080549706836" id="-89072">
		<tag k="name" v="Nesholmen" />
		<tag k="place" v="islet" />
		<tag k="ssr:stedsnr" v="149657" />
	</node>
	<node lat="64.55078889061568" lon="12.442113888643606" id="-89073">
		<tag k="name" v="Bjørbekken" />
		<tag k="ssr:stedsnr" v="149658" />
		<tag k="waterway" v="stream" />
	</node>
	<node lat="64.60616666993069" lon="12.492025007233952" id="-89074">
		<tag k="name" v="Krokvasspjeten" />
		<tag k="natural" v="cape" />
		<tag k="ssr:stedsnr" v="149665" />
	</node>
	<node lat="64.44462777387753" lon="12.303925002794617" id="-89084">
		<tag k="name" v="Røttesdalbekken" />
		<tag k="ssr:stedsnr" v="256453" />
		<tag k="waterway" v="stream" />
	</node>
	<node lat="64.4714861083277" lon="12.308349995616354" id="-89090">
		<tag k="name" v="Steinsåa" />
		<tag k="ssr:stedsnr" v="256513" />
		<tag k="waterway" v="stream" />
	</node>
	<node lat="64.66680555760786" lon="12.664149999279443" id="-89096">
		<tag k="name" v="Heggøya" />
		<tag k="place" v="islet" />
		<tag k="ssr:stedsnr" v="257628" />
	</node>
	<node lat="64.64380833052577" lon="12.476616673911991" id="-89101">
		<tag k="name" v="Ådalselva" />
		<tag k="ssr:stedsnr" v="257653" />
		<tag k="waterway" v="stream" />
	</node>
	<node lat="64.5214805517811" lon="12.658424993712257" id="-89102">
		<tag k="name" v="Brusvatnet" />
		<tag k="natural" v="water" />
		<tag k="ssr:stedsnr" v="257684" />
		<tag k="water" v="lake" />
	</node>
	<node lat="64.53186389083037" lon="12.263049999680753" id="-89103">
		<tag k="name" v="Fiskløysa" />
		<tag k="natural" v="water" />
		<tag k="ssr:stedsnr" v="257767" />
	</node>
	<node lat="64.55438055936735" lon="12.636516668511552" id="-89106">
		<tag k="name" v="Melbyholman" />
		<tag k="place" v="islet" />
		<tag k="ssr:stedsnr" v="257783" />
	</node>
	<node lat="64.55260277749262" lon="12.40993611412117" id="-89107">
		<tag k="alt_name" v="Fiskløystjønna" />
		<tag k="name" v="Fiskløysa" />
		<tag k="natural" v="water" />
		<tag k="ssr:stedsnr" v="257787" />
	</node>
	<node lat="64.67047777879316" lon="12.671477777802881" id="-89115">
		<tag k="name" v="Aspholmen" />
		<tag k="place" v="islet" />
		<tag k="ssr:stedsnr" v="168558" />
	</node>
	<node lat="64.63795555837568" lon="12.625350010649464" id="-89116">
		<tag k="name" v="Storholmen" />
		<tag k="place" v="islet" />
		<tag k="ssr:stedsnr" v="168564" />
	</node>
	<node lat="64.46061389058394" lon="12.685402777128221" id="-89117">
		<tag k="name" v="Sommarfjøstjønna" />
		<tag k="natural" v="water" />
		<tag k="ssr:stedsnr" v="168572" />
	</node>
	<node lat="64.40189166327787" lon="12.515436120101317" id="-89121">
		<tag k="name" v="Fiskløysbekken" />
		<tag k="ssr:stedsnr" v="169313" />
		<tag k="waterway" v="stream" />
	</node>
	<node lat="64.50232222505656" lon="13.082311117041636" id="-89127">
		<tag k="name" v="Rundhaugtjønna" />
		<tag k="natural" v="water" />
		<tag k="ssr:stedsnr" v="169907" />
	</node>
	<node lat="64.47067222015984" lon="12.993044433872909" id="-89128">
		<tag k="name" v="Sprutbekken" />
		<tag k="ssr:stedsnr" v="169911" />
		<tag k="waterway" v="stream" />
	</node>
	<node lat="64.39272222104552" lon="12.366480553692346" id="-89130">
		<tag k="name" v="Storholmen" />
		<tag k="place" v="islet" />
		<tag k="ssr:stedsnr" v="170471" />
	</node>
	<node lat="64.44605832976411" lon="12.478097228845904" id="-89131">
		<tag k="name" v="Litlfjelltjønna" />
		<tag k="natural" v="water" />
		<tag k="ssr:stedsnr" v="170604" />
	</node>
	<node lat="64.61690555163696" lon="12.589377781528594" id="-89139">
		<tag k="name" v="Langholmen" />
		<tag k="natural" v="cape" />
		<tag k="ssr:stedsnr" v="272706" />
	</node>
	<node lat="64.50430277914911" lon="12.512863898941236" id="-89147">
		<tag k="name" v="Finnmyrbekken" />
		<tag k="ssr:stedsnr" v="196659" />
		<tag k="waterway" v="stream" />
	</node>
	<node lat="64.34409444554497" lon="12.168399996637369" id="-89152">
		<tag k="name" v="Sandåa" />
		<tag k="ssr:stedsnr" v="196861" />
		<tag k="waterway" v="stream" />
	</node>
	<node lat="64.51755278164723" lon="12.442186120838656" id="-89169">
		<tag k="name" v="Hestdalfossen" />
		<tag k="natural" v="waterfall" />
		<tag k="ssr:stedsnr" v="210724" />
	</node>
	<node lat="64.52535000238201" lon="12.38976389203017" id="-89173">
		<tag k="name" v="Johylla" />
		<tag k="natural" v="cape" />
		<tag k="ssr:stedsnr" v="211291" />
	</node>
	<node lat="64.42805000377625" lon="12.311580553520852" id="-89177">
		<tag k="name" v="Stakkmyrbekken" />
		<tag k="ssr:stedsnr" v="211357" />
		<tag k="waterway" v="stream" />
	</node>
	<node lat="64.49385278129598" lon="12.211727783283003" id="-89179">
		<tag k="name" v="Svinskinnbekken" />
		<tag k="ssr:stedsnr" v="269564" />
		<tag k="waterway" v="stream" />
	</node>
	<node lat="64.46128888873126" lon="12.263905562374617" id="-89196">
		<tag k="name" v="Lonet" />
		<tag k="natural" v="water" />
		<tag k="ssr:stedsnr" v="227432" />
		<tag k="water" v="lake" />
	</node>
	<node lat="64.35734722319437" lon="12.319797218814575" id="-89204">
		<tag k="name" v="Litlraudsjøen" />
		<tag k="natural" v="water" />
		<tag k="ssr:stedsnr" v="230004" />
	</node>
	<node lat="64.43362778029704" lon="12.53396667624029" id="-89205">
		<tag k="name" v="Fjellendbekken" />
		<tag k="ssr:stedsnr" v="230332" />
		<tag k="waterway" v="stream" />
	</node>
	<node lat="64.3999583360998" lon="12.421638885106072" id="-89207">
		<tag k="name" v="Larsneset" />
		<tag k="natural" v="cape" />
		<tag k="ssr:stedsnr" v="230402" />
	</node>
	<node lat="64.38531666992392" lon="12.400555560027474" id="-89210">
		<tag k="name" v="Lurufossan" />
		<tag k="natural" v="waterfall" />
		<tag k="ssr:stedsnr" v="230417" />
	</node>
	<node lat="64.38556667018803" lon="12.37186388368588" id="-89212">
		<tag k="name" v="Larsholmhøla" />
		<tag k="place" v="locality" />
		<tag k="ssr:stedsnr" v="230428" />
	</node>
	<node lat="64.56740555251649" lon="12.618547220784048" id="-89214">
		<tag k="name" v="Hattjønna" />
		<tag k="natural" v="water" />
		<tag k="ssr:stedsnr" v="230634" />
	</node>
	<node lat="64.6005611088306" lon="12.444700000110595" id="-89215">
		<tag k="name" v="Litlåa" />
		<tag k="ssr:stedsnr" v="230837" />
		<tag k="waterway" v="stream" />
	</node>
	<node lat="64.66683055858923" lon="12.822930565067201" id="-89216">
		<tag k="name" v="Storbekken" />
		<tag k="ssr:stedsnr" v="230786" />
		<tag k="waterway" v="stream" />
	</node>
	<node lat="64.60158889277922" lon="12.530811113994474" id="-89236">
		<tag k="name" v="Kalvbekken" />
		<tag k="ssr:stedsnr" v="454650" />
		<tag k="waterway" v="stream" />
	</node>
	<node lat="64.4726499979396" lon="12.985172232034602" id="-89238">
		<tag k="name" v="Bergfossen" />
		<tag k="natural" v="waterfall" />
		<tag k="ssr:stedsnr" v="256307" />
	</node>
	<node lat="64.4734805545017" lon="12.08223889700128" id="-89241">
		<tag k="name" v="Fjellbekken" />
		<tag k="ssr:stedsnr" v="256760" />
		<tag k="waterway" v="stream" />
	</node>
	<node lat="64.63925277534459" lon="12.605366668694177" id="-89264">
		<tag k="name" v="Groftneset" />
		<tag k="natural" v="cape" />
		<tag k="ssr:stedsnr" v="289612" />
	</node>
	<node lat="64.39534722491267" lon="12.418602785823403" id="-89267">
		<tag k="name" v="Bjørfossen" />
		<tag k="natural" v="waterfall" />
		<tag k="ssr:stedsnr" v="290404" />
	</node>
	<node lat="64.5652861147602" lon="12.580044455340825" id="-89270">
		<tag k="name" v="Neset" />
		<tag k="natural" v="cape" />
		<tag k="ssr:stedsnr" v="290480" />
	</node>
	<node lat="64.50102777356838" lon="12.662383325321848" id="-89271">
		<tag k="name" v="Møkkelvasstjønna" />
		<tag k="natural" v="water" />
		<tag k="ssr:stedsnr" v="290991" />
	</node>
	<node lat="64.46801110898821" lon="12.667547228573397" id="-89278">
		<tag k="name" v="Vestre Langtjønna" />
		<tag k="natural" v="water" />
		<tag k="ssr:stedsnr" v="291810" />
	</node>
	<node lat="64.46477222057005" lon="12.682016671179902" id="-89279">
		<tag k="name" v="Langtjønnbekken" />
		<tag k="ssr:stedsnr" v="291811" />
		<tag k="waterway" v="stream" />
	</node>
	<node lat="64.45056388591736" lon="12.54920555080669" id="-89285">
		<tag k="name" v="Litlneset" />
		<tag k="natural" v="cape" />
		<tag k="ssr:stedsnr" v="292580" />
	</node>
	<node lat="64.50683889113854" lon="12.146086118584236" id="-89307">
		<tag k="name" v="Fremre Nåltjønna" />
		<tag k="natural" v="water" />
		<tag k="ssr:stedsnr" v="326202" />
	</node>
	<node lat="64.45230277574947" lon="12.265880565532933" id="-89311">
		<tag k="name" v="Bubekken" />
		<tag k="ssr:stedsnr" v="332097" />
		<tag k="waterway" v="stream" />
	</node>
	<node lat="64.54475833304582" lon="12.476449998889242" id="-89322">
		<tag k="name" v="Kvernfossen" />
		<tag k="natural" v="waterfall" />
		<tag k="ssr:stedsnr" v="332708" />
	</node>
	<node lat="64.65719721975373" lon="12.627794453961373" id="-89326">
		<tag k="name" v="Storneset" />
		<tag k="natural" v="cape" />
		<tag k="ssr:stedsnr" v="471582" />
	</node>
	<node lat="64.6125321842763" lon="12.580936830106559" id="-89327">
		<tag k="name" v="Sandvika" />
		<tag k="natural" v="bay" />
		<tag k="ssr:stedsnr" v="471527" />
	</node>
	<node lat="64.38579166841197" lon="12.482691673780652" id="-89336">
		<tag k="name" v="Svartfossan" />
		<tag k="natural" v="waterfall" />
		<tag k="ssr:stedsnr" v="472376" />
	</node>
	<node lat="64.39486944256682" lon="12.410033322802748" id="-89339">
		<tag k="name" v="Svartfossen" />
		<tag k="natural" v="waterfall" />
		<tag k="ssr:stedsnr" v="472429" />
	</node>
	<node lat="64.46381666611403" lon="12.692758331615334" id="-89341">
		<tag k="name" v="Jotjønna" />
		<tag k="natural" v="water" />
		<tag k="ssr:stedsnr" v="472553" />
	</node>
	<node lat="64.50734722012686" lon="12.63796110693709" id="-89348">
		<tag k="alt_name" v="Bruvasselva" />
		<tag k="name" v="Brusvasselva" />
		<tag k="ssr:stedsnr" v="473551" />
		<tag k="waterway" v="stream" />
	</node>
	<node lat="64.47959721905073" lon="12.863549996956548" id="-89349">
		<tag k="name" v="Kollitjønnelva" />
		<tag k="ssr:stedsnr" v="473585" />
		<tag k="waterway" v="stream" />
	</node>
	<node lat="64.68644722207007" lon="12.717272217862885" id="-89351">
		<tag k="name" v="Bergholmen" />
		<tag k="place" v="islet" />
		<tag k="ssr:stedsnr" v="349663" />
	</node>
	<node lat="64.47639166340853" lon="12.868747230986704" id="-89357">
		<tag k="name" v="Tjønnrølelva" />
		<tag k="ssr:stedsnr" v="351566" />
		<tag k="waterway" v="stream" />
	</node>
	<node lat="64.65948888466579" lon="12.7288749992417" id="-89370">
		<tag k="alt_name" v="Sellbekken" />
		<tag k="name" v="Selbekken" />
		<tag k="ssr:stedsnr" v="378374" />
		<tag k="waterway" v="stream" />
	</node>
	<node lat="64.5488083324052" lon="12.36930554578497" id="-89392">
		<tag k="name" v="Røyrengdalbekken" />
		<tag k="ssr:stedsnr" v="392334" />
		<tag k="waterway" v="stream" />
	</node>
	<node lat="64.59171389172776" lon="12.524922228833558" id="-89397">
		<tag k="name" v="Moaholmen" />
		<tag k="place" v="islet" />
		<tag k="ssr:stedsnr" v="393627" />
	</node>
	<node lat="64.36425555309137" lon="12.343552784929301" id="-89402">
		<tag k="name" v="Kalvbrubekken" />
		<tag k="ssr:stedsnr" v="412006" />
		<tag k="waterway" v="stream" />
	</node>
	<node lat="64.46048332976855" lon="12.599872229459516" id="-89410">
		<tag k="name" v="Storfiskløysa" />
		<tag k="natural" v="water" />
		<tag k="ssr:stedsnr" v="412841" />
	</node>
	<node lat="64.46020000128205" lon="12.599833327877091" id="-89417">
		<tag k="name" v="Fiskløystjørnin" />
		<tag k="natural" v="water" />
		<tag k="ssr:stedsnr" v="438470" />
	</node>
	<node lat="64.6484277750613" lon="12.752652785240567" id="-89421">
		<tag k="name" v="Agnetfossen" />
		<tag k="natural" v="waterfall" />
		<tag k="ssr:stedsnr" v="439298" />
	</node>
	<node lat="64.59660833445872" lon="12.486166669188767" id="-89425">
		<tag k="name" v="Fiskløysa" />
		<tag k="natural" v="water" />
		<tag k="ssr:stedsnr" v="439510" />
	</node>
	<node lat="64.64108332978701" lon="12.662208330128546" id="-89435">
		<tag k="name" v="Svartmyrfossen" />
		<tag k="natural" v="waterfall" />
		<tag k="ssr:stedsnr" v="439601" />
	</node>
	<node lat="64.48705555509771" lon="12.152380564490187" id="-89438">
		<tag k="alt_name" v="Kvernbekken" />
		<tag k="name" v="Kvennbekken" />
		<tag k="ssr:stedsnr" v="451564" />
		<tag k="waterway" v="stream" />
	</node>
	<node lat="64.52766944377291" lon="12.35480000083309" id="-89446">
		<tag k="name" v="Bergendalbekken" />
		<tag k="ssr:stedsnr" v="454270" />
		<tag k="waterway" v="stream" />
	</node>
	<node lat="64.62510593924837" lon="12.586161826842783" id="-89450">
		<tag k="name" v="Holmbekken" />
		<tag k="ssr:stedsnr" v="454776" />
		<tag k="waterway" v="stream" />
	</node>
	<node lat="64.3963305570476" lon="12.498763895526642" id="-89458">
		<tag k="name" v="Raudbergfossen" />
		<tag k="natural" v="waterfall" />
		<tag k="ssr:stedsnr" v="472303" />
	</node>
	<node lat="64.41278055306486" lon="12.456199991277595" id="-89460">
		<tag k="name" v="Storholmen" />
		<tag k="place" v="islet" />
		<tag k="ssr:stedsnr" v="472411" />
	</node>
	<node lat="64.396238884978" lon="12.382252784793554" id="-89463">
		<tag k="name" v="Bertilstranda" />
		<tag k="natural" v="beach" />
		<tag k="ssr:stedsnr" v="472462" />
	</node>
	<node lat="64.56141110777034" lon="12.563908322621662" id="-89465">
		<tag k="name" v="Urdalsbekken" />
		<tag k="ssr:stedsnr" v="472508" />
		<tag k="waterway" v="stream" />
	</node>
	<node lat="64.46334999988353" lon="12.820058333353455" id="-89468">
		<tag k="name" v="Hansmobekken" />
		<tag k="ssr:stedsnr" v="472565" />
		<tag k="waterway" v="stream" />
	</node>
	<node lat="64.63224166807827" lon="12.536558323294095" id="-89481">
		<tag k="name" v="Flyin" />
		<tag k="natural" v="water" />
		<tag k="ssr:stedsnr" v="473860" />
	</node>
	<node lat="64.49855833090318" lon="13.036822226641393" id="-89482">
		<tag k="name" v="Langløyfttjønna" />
		<tag k="natural" v="water" />
		<tag k="ssr:stedsnr" v="473960" />
	</node>
	<node lat="64.5297222198898" lon="12.327652773156021" id="-89484">
		<tag k="name" v="Hestengbekken" />
		<tag k="ssr:stedsnr" v="272263" />
		<tag k="waterway" v="stream" />
	</node>
	<node lat="64.46818055564763" lon="12.959469452591538" id="-89485">
		<tag k="name" v="Finnkrufossen" />
		<tag k="natural" v="waterfall" />
		<tag k="ssr:stedsnr" v="681310" />
	</node>
	<node lat="64.47300555398616" lon="12.891891664256297" id="-89487">
		<tag k="fixme" v="multiple name tags, choose one and add the other to alt_name" />
		<tag k="name" v="Tverrelva;Fremsttjønnbekken" />
		<tag k="ssr:stedsnr" v="681325" />
		<tag k="waterway" v="stream" />
	</node>
	<node lat="64.49615833036994" lon="12.486930547540606" id="-89493">
		<tag k="name" v="Hyllfossen" />
		<tag k="natural" v="waterfall" />
		<tag k="ssr:stedsnr" v="499443" />
	</node>
	<node lat="64.49275278114207" lon="12.776033328612213" id="-89494">
		<tag k="name" v="Fiskløysa" />
		<tag k="natural" v="water" />
		<tag k="ssr:stedsnr" v="681343" />
	</node>
	<node lat="64.42541388553771" lon="12.286202782820512" id="-89495">
		<tag k="name" v="Stakkmyrbekken" />
		<tag k="ssr:stedsnr" v="499400" />
		<tag k="waterway" v="stream" />
	</node>
	<node lat="64.45601110706023" lon="12.296724989616656" id="-89496">
		<tag k="name" v="Skjåbekken" />
		<tag k="ssr:stedsnr" v="499485" />
		<tag k="waterway" v="stream" />
	</node>
	<node lat="64.44819999575866" lon="12.37017778059129" id="-89501">
		<tag k="name" v="Tinnåa" />
		<tag k="ssr:stedsnr" v="681483" />
		<tag k="waterway" v="stream" />
	</node>
	<node lat="64.64288055285033" lon="12.805849992712822" id="-89503">
		<tag k="name" v="Litlåa" />
		<tag k="ssr:stedsnr" v="500381" />
		<tag k="waterway" v="stream" />
	</node>
	<node lat="64.56048889069746" lon="12.609488894246732" id="-89509">
		<tag k="alt_name" v="Iskvernfossan" />
		<tag k="name" v="Iskvennfossan" />
		<tag k="natural" v="waterfall" />
		<tag k="ssr:stedsnr" v="500794" />
	</node>
	<node lat="64.55262778051915" lon="12.611625006917333" id="-89524">
		<tag k="name" v="Storbekken" />
		<tag k="ssr:stedsnr" v="682789" />
		<tag k="waterway" v="stream" />
	</node>
	<node lat="64.5316055513465" lon="12.447911108466382" id="-89539">
		<tag k="name" v="Embribekken" />
		<tag k="ssr:stedsnr" v="514716" />
		<tag k="waterway" v="stream" />
	</node>
	<node lat="64.46561944708306" lon="12.980616671918048" id="-89560">
		<tag k="name" v="Finnkrulielva" />
		<tag k="ssr:stedsnr" v="534921" />
		<tag k="waterway" v="stream" />
	</node>
	<node lat="64.54486666614565" lon="12.796986120091583" id="-89567">
		<tag k="name" v="Storholmen" />
		<tag k="place" v="islet" />
		<tag k="ssr:stedsnr" v="560297" />
	</node>
	<node lat="64.47942499609482" lon="12.56802500048135" id="-89568">
		<tag k="name" v="Sandtjørnin" />
		<tag k="natural" v="water" />
		<tag k="ssr:stedsnr" v="560536" />
	</node>
	<node lat="64.47090000378611" lon="12.521966661252662" id="-89569">
		<tag k="name" v="Tvillingskardbekken" />
		<tag k="ssr:stedsnr" v="560537" />
		<tag k="waterway" v="stream" />
	</node>
	<node lat="64.5541083332799" lon="12.371033329185689" id="-89575">
		<tag k="name" v="Gartlandselva" />
		<tag k="ssr:stedsnr" v="560732" />
		<tag k="waterway" v="river" />
	</node>
	<node lat="64.54920832993571" lon="12.409116675950473" id="-89576">
		<tag k="alt_name" v="Juldokktjønna" />
		<tag k="name" v="Juldokka" />
		<tag k="natural" v="water" />
		<tag k="ssr:stedsnr" v="560733" />
	</node>
	<node lat="64.5125305541581" lon="12.452305559650414" id="-89587">
		<tag k="name" v="Hervollhøla" />
		<tag k="place" v="locality" />
		<tag k="ssr:stedsnr" v="574747" />
	</node>
	<node lat="64.46834722317347" lon="12.313380560457283" id="-89593">
		<tag k="name" v="Torneset" />
		<tag k="natural" v="cape" />
		<tag k="ssr:stedsnr" v="575356" />
	</node>
	<node lat="64.68107499746073" lon="12.60634167227713" id="-89627">
		<tag k="name" v="Bergengseterbekken" />
		<tag k="ssr:stedsnr" v="594407" />
		<tag k="waterway" v="stream" />
	</node>
	<node lat="64.68903888995989" lon="12.588494446167731" id="-89628">
		<tag k="name" v="Ådalselva" />
		<tag k="ssr:stedsnr" v="594417" />
		<tag k="waterway" v="stream" />
	</node>
	<node lat="64.4570749972463" lon="12.875458331458708" id="-89631">
		<tag k="name" v="Holbekken" />
		<tag k="ssr:stedsnr" v="594563" />
		<tag k="waterway" v="stream" />
	</node>
	<node lat="64.48630277916503" lon="12.600513896657848" id="-89635">
		<tag k="name" v="Midtflya" />
		<tag k="place" v="locality" />
		<tag k="ssr:stedsnr" v="594761" />
	</node>
	<node lat="64.48673333196102" lon="12.511791661701974" id="-89636">
		<tag k="name" v="Svartfossen" />
		<tag k="natural" v="waterfall" />
		<tag k="ssr:stedsnr" v="594768" />
	</node>
	<node lat="64.52114999891396" lon="12.403763896656443" id="-89642">
		<tag k="name" v="Rossethylla" />
		<tag k="natural" v="cape" />
		<tag k="ssr:stedsnr" v="699255" />
	</node>
	<node lat="64.35565000434886" lon="12.324836114711273" id="-89644">
		<tag k="name" v="Raudsjøen" />
		<tag k="natural" v="water" />
		<tag k="ssr:stedsnr" v="620405" />
	</node>
	<node lat="64.4599805513222" lon="12.64291944957307" id="-89645">
		<tag k="alt_name" v="Stortjørna" />
		<tag k="name" v="Stortjønna" />
		<tag k="natural" v="water" />
		<tag k="ssr:stedsnr" v="620467" />
	</node>
	<node lat="64.4954999981718" lon="12.328700002257381" id="-89654">
		<tag k="alt_name" v="Leirdalbekken" />
		<tag k="name" v="Leirdalsbekken" />
		<tag k="ssr:stedsnr" v="620512" />
		<tag k="waterway" v="stream" />
	</node>
	<node lat="64.59502500419084" lon="12.530030547172665" id="-89661">
		<tag k="name" v="Byastrupen" />
		<tag k="place" v="locality" />
		<tag k="ssr:stedsnr" v="621590" />
	</node>
	<node lat="64.452947225472" lon="12.223766675704441" id="-89669">
		<tag k="name" v="Lonet" />
		<tag k="natural" v="water" />
		<tag k="ssr:stedsnr" v="634092" />
		<tag k="water" v="pond" />
	</node>
	<node lat="64.55617222343453" lon="12.48948333159952" id="-89670">
		<tag k="name" v="Sagmoholmen" />
		<tag k="place" v="islet" />
		<tag k="ssr:stedsnr" v="634703" />
	</node>
	<node lat="64.57471388916592" lon="12.432080549927273" id="-89672">
		<tag k="name" v="Bjørkengbekken" />
		<tag k="ssr:stedsnr" v="635311" />
		<tag k="waterway" v="stream" />
	</node>
	<node lat="64.66443888480083" lon="12.604874990009378" id="-89678">
		<tag k="name" v="Vestre Kovabekken" />
		<tag k="ssr:stedsnr" v="654406" />
		<tag k="waterway" v="stream" />
	</node>
	<node lat="64.41909444583526" lon="12.522400003193496" id="-89683">
		<tag k="name" v="Bustadhaugbekken" />
		<tag k="ssr:stedsnr" v="654338" />
		<tag k="waterway" v="stream" />
	</node>
	<node lat="64.43236666966433" lon="12.525238880126295" id="-89685">
		<tag k="name" v="Klompbekken" />
		<tag k="ssr:stedsnr" v="654340" />
		<tag k="waterway" v="stream" />
	</node>
	<node lat="64.48008055455985" lon="12.62760554768836" id="-89687">
		<tag k="name" v="Langtjønnbekken" />
		<tag k="ssr:stedsnr" v="654807" />
		<tag k="waterway" v="stream" />
	</node>
	<node lat="64.53254722370272" lon="12.590608343833038" id="-89693">
		<tag k="name" v="Tverrdalbekken" />
		<tag k="ssr:stedsnr" v="655540" />
		<tag k="waterway" v="stream" />
	</node>
	<node lat="64.6382444472842" lon="12.67238610625256" id="-89709">
		<tag k="name" v="Sandåa" />
		<tag k="ssr:stedsnr" v="682657" />
		<tag k="waterway" v="stream" />
	</node>
	<node lat="64.47143333629337" lon="12.122822220052681" id="-89716">
		<tag k="name" v="Buneset" />
		<tag k="natural" v="cape" />
		<tag k="ssr:stedsnr" v="689040" />
	</node>
	<node lat="64.64045000331986" lon="12.564586116770188" id="-89717">
		<tag k="name" v="Vestre Falmårelva" />
		<tag k="ssr:stedsnr" v="896582" />
		<tag k="waterway" v="river" />
	</node>
	<node lat="64.39573333724114" lon="12.350819450795068" id="-89723">
		<tag k="name" v="Groftneset" />
		<tag k="natural" v="cape" />
		<tag k="ssr:stedsnr" v="696174" />
	</node>
	<node lat="64.67123055583446" lon="12.821819440741669" id="-89733">
		<tag k="name" v="Gangtrefossen" />
		<tag k="natural" v="waterfall" />
		<tag k="ssr:stedsnr" v="897731" />
	</node>
	<node lat="64.57277500278492" lon="12.446930545668478" id="-89743">
		<tag k="name" v="Breidalneset" />
		<tag k="natural" v="cape" />
		<tag k="ssr:stedsnr" v="897831" />
	</node>
	<node lat="64.63018055533107" lon="12.63967500756225" id="-89748">
		<tag k="name" v="Spargullbekken" />
		<tag k="ssr:stedsnr" v="898258" />
		<tag k="waterway" v="stream" />
	</node>
	<node lat="64.60775555614096" lon="12.63733334196808" id="-89751">
		<tag k="name" v="Brannmyrbekken" />
		<tag k="ssr:stedsnr" v="898335" />
		<tag k="waterway" v="stream" />
	</node>
	<node lat="64.38682222536065" lon="12.51573888986002" id="-89752">
		<tag k="name" v="Blautdalfossen" />
		<tag k="natural" v="waterfall" />
		<tag k="ssr:stedsnr" v="898391" />
	</node>
	<node lat="64.44135555937538" lon="12.888883325762748" id="-89758">
		<tag k="name" v="Brandsfjellbekken" />
		<tag k="ssr:stedsnr" v="898581" />
		<tag k="waterway" v="stream" />
	</node>
	<node lat="64.44465833128659" lon="12.878377783198001" id="-89759">
		<tag k="name" v="Tverrelvflyen" />
		<tag k="natural" v="water" />
		<tag k="ssr:stedsnr" v="898582" />
		<tag k="water" v="lake" />
	</node>
	<node lat="64.54041389054065" lon="12.708447220744366" id="-89761">
		<tag k="name" v="Sela" />
		<tag k="natural" v="water" />
		<tag k="ssr:stedsnr" v="898532" />
		<tag k="water" v="lake" />
	</node>
	<node lat="64.63745000232184" lon="12.561899995203499" id="-89763">
		<tag k="name" v="Heviltjønna" />
		<tag k="natural" v="water" />
		<tag k="ssr:stedsnr" v="714475" />
	</node>
	<node lat="64.66823888499715" lon="12.621583339705616" id="-89765">
		<tag k="name" v="Østre Kovabekken" />
		<tag k="ssr:stedsnr" v="714494" />
		<tag k="waterway" v="stream" />
	</node>
	<node lat="64.48369167093514" lon="12.493194453830466" id="-89766">
		<tag k="name" v="Bryntjønnbekken" />
		<tag k="ssr:stedsnr" v="898784" />
		<tag k="waterway" v="stream" />
	</node>
	<node lat="64.65761388914235" lon="12.609091662188245" id="-89770">
		<tag k="name" v="Gammelkvennfossen" />
		<tag k="natural" v="waterfall" />
		<tag k="ssr:stedsnr" v="715418" />
	</node>
	<node lat="64.4929555585221" lon="12.982997224929925" id="-89777">
		<tag k="name" v="Skarfjellbekken" />
		<tag k="ssr:stedsnr" v="715915" />
		<tag k="waterway" v="stream" />
	</node>
	<node lat="64.48242777677359" lon="12.963644453114695" id="-89781">
		<tag k="name" v="Litltjønna" />
		<tag k="natural" v="water" />
		<tag k="ssr:stedsnr" v="898923" />
	</node>
	<node lat="64.50009444070771" lon="12.70889166538596" id="-89786">
		<tag k="name" v="Trekvisla" />
		<tag k="natural" v="water" />
		<tag k="ssr:stedsnr" v="716585" />
	</node>
	<node lat="64.47742222644536" lon="12.477183334789572" id="-89796">
		<tag k="name" v="Spetten" />
		<tag k="natural" v="cape" />
		<tag k="ssr:stedsnr" v="899551" />
	</node>
	<node lat="64.47633889196571" lon="12.488002781711305" id="-89797">
		<tag k="name" v="Litlfjelltjønna" />
		<tag k="natural" v="water" />
		<tag k="ssr:stedsnr" v="899583" />
	</node>
	<node lat="64.44075833412069" lon="12.51651110813636" id="-89799">
		<tag k="name" v="Kleppbekken" />
		<tag k="ssr:stedsnr" v="899592" />
		<tag k="waterway" v="stream" />
	</node>
	<node lat="64.44935832953959" lon="12.540697228998166" id="-89801">
		<tag k="name" v="Drangelstranda" />
		<tag k="natural" v="beach" />
		<tag k="ssr:stedsnr" v="899596" />
	</node>
	<node lat="64.47318611072235" lon="12.816547227427877" id="-89804">
		<tag k="alt_name" v="Litltjønna" />
		<tag k="name" v="Bergtjønna" />
		<tag k="natural" v="water" />
		<tag k="ssr:stedsnr" v="742304" />
	</node>
	<node lat="64.4836749971829" lon="12.224927770978988" id="-89808">
		<tag k="name" v="Sagfossen" />
		<tag k="natural" v="waterfall" />
		<tag k="ssr:stedsnr" v="742487" />
	</node>
	<node lat="64.4811111112754" lon="12.4056805474942" id="-89812">
		<tag k="alt_name" v="Steindalselva" />
		<tag k="name" v="Steindalåa" />
		<tag k="ssr:stedsnr" v="742507" />
		<tag k="waterway" v="stream" />
	</node>
	<node lat="64.59598888451033" lon="12.503447228956723" id="-89832">
		<tag k="name" v="Småëngbekken" />
		<tag k="ssr:stedsnr" v="757615" />
		<tag k="waterway" v="stream" />
	</node>
	<node lat="64.65053056013775" lon="12.695966658610145" id="-89838">
		<tag k="name" v="Skjuraandholmen" />
		<tag k="place" v="islet" />
		<tag k="ssr:stedsnr" v="776205" />
	</node>
	<node lat="64.52699444540866" lon="12.650436103729774" id="-89839">
		<tag k="name" v="Brusvassbekken" />
		<tag k="ssr:stedsnr" v="776517" />
		<tag k="waterway" v="stream" />
	</node>
	<node lat="64.47139999996796" lon="12.901988898113183" id="-89842">
		<tag k="name" v="Bergmobekken" />
		<tag k="ssr:stedsnr" v="776931" />
		<tag k="waterway" v="stream" />
	</node>
	<node lat="64.55819444521319" lon="12.630491658253407" id="-89843">
		<tag k="name" v="Seterholman" />
		<tag k="place" v="islet" />
		<tag k="ssr:stedsnr" v="776654" />
	</node>
	<node lat="64.342099999697" lon="12.151758339152808" id="-89853">
		<tag k="name" v="Liabekken" />
		<tag k="ssr:stedsnr" v="803579" />
		<tag k="waterway" v="stream" />
	</node>
	<node lat="64.36430277389003" lon="12.27114999260928" id="-89855">
		<tag k="name" v="Tverrbekken" />
		<tag k="ssr:stedsnr" v="803464" />
		<tag k="waterway" v="stream" />
	</node>
	<node lat="64.53708889303415" lon="12.358044440843958" id="-89861">
		<tag k="name" v="Finnbekken" />
		<tag k="ssr:stedsnr" v="804678" />
		<tag k="waterway" v="stream" />
	</node>
	<node lat="64.462380555703" lon="12.276044445737588" id="-89863">
		<tag k="name" v="Rønningan" />
		<tag k="natural" v="cape" />
		<tag k="ssr:stedsnr" v="817006" />
	</node>
	<node lat="64.40014722007507" lon="12.34033054913361" id="-89869">
		<tag k="name" v="Formofossen" />
		<tag k="natural" v="waterfall" />
		<tag k="ssr:stedsnr" v="817185" />
	</node>
	<node lat="64.51780833687661" lon="12.396552784132167" id="-89871">
		<tag k="name" v="Litlåa" />
		<tag k="ssr:stedsnr" v="821268" />
		<tag k="waterway" v="river" />
	</node>
	<node lat="64.45656388623715" lon="12.511297211485768" id="-89872">
		<tag k="alt_name" v="Stamtjørna" />
		<tag k="name" v="Stamtjønna" />
		<tag k="natural" v="water" />
		<tag k="ssr:stedsnr" v="924458" />
	</node>
	<node lat="64.68196111352908" lon="12.706630547519897" id="-89876">
		<tag k="name" v="Joseftjønna" />
		<tag k="natural" v="water" />
		<tag k="ssr:stedsnr" v="835629" />
	</node>
	<node lat="64.64780277865827" lon="12.590694436392514" id="-89877">
		<tag k="name" v="Liafossen" />
		<tag k="natural" v="waterfall" />
		<tag k="ssr:stedsnr" v="836507" />
	</node>
	<node lat="64.41858611254628" lon="12.478966663679572" id="-89885">
		<tag k="name" v="Grenseplutten" />
		<tag k="natural" v="water" />
		<tag k="ssr:stedsnr" v="837326" />
		<tag k="water" v="pond" />
	</node>
	<node lat="64.40816666742877" lon="12.446933341682959" id="-89889">
		<tag k="name" v="Båtneset" />
		<tag k="natural" v="cape" />
		<tag k="ssr:stedsnr" v="837424" />
	</node>
	<node lat="64.40830555200866" lon="12.459872215664559" id="-89890">
		<tag k="name" v="Rørsmobekken" />
		<tag k="ssr:stedsnr" v="837431" />
		<tag k="waterway" v="stream" />
	</node>
	<node lat="64.47500555310471" lon="12.845916664666868" id="-89892">
		<tag k="name" v="Stupulfossen" />
		<tag k="natural" v="waterfall" />
		<tag k="ssr:stedsnr" v="837582" />
	</node>
	<node lat="64.48691944665129" lon="12.559272224371206" id="-89894">
		<tag k="name" v="Stortjønna" />
		<tag k="natural" v="water" />
		<tag k="ssr:stedsnr" v="837783" />
	</node>
	<node lat="64.48125555850034" lon="12.560033341818192" id="-89895">
		<tag k="name" v="Litlfossen" />
		<tag k="natural" v="waterfall" />
		<tag k="ssr:stedsnr" v="837788" />
	</node>
	<node lat="64.53354722313752" lon="12.492799998437869" id="-89897">
		<tag k="name" v="Fjellfossen" />
		<tag k="natural" v="waterfall" />
		<tag k="ssr:stedsnr" v="837814" />
	</node>
	<node lat="64.45656666391355" lon="12.602994436790908" id="-89898">
		<tag k="name" v="Sagbekken" />
		<tag k="ssr:stedsnr" v="837878" />
		<tag k="waterway" v="stream" />
	</node>
	<node lat="64.38904999680781" lon="12.370555565185567" id="-89899">
		<tag k="name" v="Homoholmen" />
		<tag k="place" v="islet" />
		<tag k="ssr:stedsnr" v="838489" />
	</node>
	<node lat="64.59630277779226" lon="12.478338893766514" id="-89902">
		<tag k="name" v="Fiskløysbekken" />
		<tag k="ssr:stedsnr" v="838879" />
		<tag k="waterway" v="stream" />
	</node>
	<node lat="64.40525833206418" lon="12.22557777062317" id="-89908">
		<tag k="name" v="Geitfjelltjørnin" />
		<tag k="natural" v="water" />
		<tag k="ssr:stedsnr" v="925497" />
	</node>
	<node lat="64.39558055805989" lon="12.257800003517275" id="-89909">
		<tag k="name" v="Eidbakktjørna" />
		<tag k="natural" v="water" />
		<tag k="ssr:stedsnr" v="925501" />
	</node>
	<node lat="64.66476388668532" lon="12.52423610255991" id="-89910">
		<tag k="name" v="Skiftesbekken" />
		<tag k="ssr:stedsnr" v="925614" />
		<tag k="waterway" v="stream" />
	</node>
	<node lat="64.52024166724954" lon="12.533061116707975" id="-89916">
		<tag k="name" v="Ramsjøen" />
		<tag k="natural" v="water" />
		<tag k="ssr:stedsnr" v="925686" />
		<tag k="water" v="lake" />
	</node>
	<node lat="64.5256694403935" lon="12.341049993329449" id="-89917">
		<tag k="name" v="Bergsengdalbekken" />
		<tag k="ssr:stedsnr" v="925690" />
		<tag k="waterway" v="stream" />
	</node>
	<node lat="64.51132499848377" lon="12.156550003675317" id="-89923">
		<tag k="alt_name" v="Nåltjørnin" />
		<tag k="name" v="Nåltjønnin" />
		<tag k="natural" v="water" />
		<tag k="ssr:stedsnr" v="925994" />
	</node>
	<node lat="64.48709999599632" lon="12.348875006584777" id="-89930">
		<tag k="name" v="Buneset" />
		<tag k="natural" v="cape" />
		<tag k="ssr:stedsnr" v="863534" />
	</node>
	<node lat="64.59253611270687" lon="12.520850004616067" id="-89947">
		<tag k="name" v="Seterneset" />
		<tag k="natural" v="cape" />
		<tag k="ssr:stedsnr" v="879610" />
	</node>
	<node lat="64.63636111279894" lon="12.646424991499329" id="-89948">
		<tag k="name" v="Storhaugtjønna" />
		<tag k="natural" v="water" />
		<tag k="ssr:stedsnr" v="896607" />
	</node>
	<node lat="64.65682500254267" lon="12.743044437811665" id="-89950">
		<tag k="name" v="Selliåstjønnin" />
		<tag k="natural" v="water" />
		<tag k="ssr:stedsnr" v="896669" />
	</node>
	<node lat="64.48082222533345" lon="12.715158330128679" id="-89962">
		<tag k="name" v="Flyin" />
		<tag k="natural" v="water" />
		<tag k="ssr:stedsnr" v="898559" />
	</node>
	<node lat="64.39680555638543" lon="12.297050001034743" id="-89968">
		<tag k="name" v="Skiftesbekken" />
		<tag k="ssr:stedsnr" v="924437" />
		<tag k="waterway" v="stream" />
	</node>
	<node lat="64.473511113523" lon="12.385172222478415" id="-89969">
		<tag k="alt_name" v="Reinslitjørna" />
		<tag k="name" v="Reinslitjønna" />
		<tag k="natural" v="water" />
		<tag k="ssr:stedsnr" v="924511" />
	</node>
	<node lat="64.69414722401808" lon="12.558119438653446" id="-89976">
		<tag k="alt_name" v="Besvasselva" />
		<tag k="name" v="Besa" />
		<tag k="ssr:stedsnr" v="925203" />
		<tag k="waterway" v="river" />
	</node>
	<node lat="64.53046667122105" lon="12.692555549887798" id="-89986">
		<tag k="name" v="Fiskløysa" />
		<tag k="natural" v="water" />
		<tag k="ssr:stedsnr" v="925695" />
		<tag k="water" v="lake" />
	</node>
	<node lat="64.45259722591817" lon="12.3252055662083" id="-89997">
		<tag k="name" v="Tømmeråsfossen" />
		<tag k="natural" v="waterfall" />
		<tag k="ssr:stedsnr" v="939342" />
	</node>
	<node lat="64.47120000359983" lon="12.34260000259216" id="-90001">
		<tag k="name" v="Fjellbekken" />
		<tag k="ssr:stedsnr" v="939406" />
		<tag k="waterway" v="stream" />
	</node>
	<node lat="64.64135277855924" lon="12.55193055973839" id="-90004">
		<tag k="name" v="Hevilfossen" />
		<tag k="natural" v="waterfall" />
		<tag k="ssr:stedsnr" v="229510" />
	</node>
	<node lat="64.40029166962846" lon="12.41207222648209" id="-90008">
		<tag k="name" v="Olaneset" />
		<tag k="natural" v="cape" />
		<tag k="ssr:stedsnr" v="958494" />
	</node>
	<node lat="64.46038611310676" lon="12.787994444165331" id="-90010">
		<tag k="name" v="Yorkbekken" />
		<tag k="ssr:stedsnr" v="958603" />
		<tag k="waterway" v="stream" />
	</node>
	<node lat="64.49526111359876" lon="12.75228054989058" id="-90012">
		<tag k="name" v="Tangtjønnin" />
		<tag k="natural" v="water" />
		<tag k="ssr:stedsnr" v="958587" />
	</node>
	<node lat="64.49705278001761" lon="12.574405565070757" id="-90015">
		<tag k="name" v="Setertjønnbekken" />
		<tag k="ssr:stedsnr" v="958798" />
		<tag k="waterway" v="stream" />
	</node>
	<node lat="64.54993888916528" lon="12.690963888842363" id="-90017">
		<tag k="name" v="Dautjønna" />
		<tag k="natural" v="water" />
		<tag k="ssr:stedsnr" v="958693" />
	</node>
	<node lat="64.4957500041775" lon="12.663552783034952" id="-90018">
		<tag k="name" v="Bukta" />
		<tag k="natural" v="bay" />
		<tag k="ssr:stedsnr" v="958989" />
	</node>
	<node lat="64.47776944382238" lon="12.481686112487438" id="-90020">
		<tag k="name" v="Stamtjønna" />
		<tag k="natural" v="water" />
		<tag k="ssr:stedsnr" v="959511" />
	</node>
	<node lat="64.49902499717805" lon="12.411438896981965" id="-90021">
		<tag k="name" v="Grongseterbekken" />
		<tag k="ssr:stedsnr" v="959595" />
		<tag k="waterway" v="stream" />
	</node>
	<node lat="64.38480833446516" lon="12.27249166307253" id="-90033">
		<tag k="name" v="Snøåa" />
		<tag k="ssr:stedsnr" v="14358" />
		<tag k="waterway" v="river" />
	</node>
	<node lat="64.34829166940419" lon="12.284249997235113" id="-90039">
		<tag k="alt_name" v="Kvernsjøelva;Kvennsjøåa" />
		<tag k="name" v="Kvennsjøelva" />
		<tag k="ssr:stedsnr" v="14345" />
		<tag k="waterway" v="river" />
	</node>
	<node lat="64.49519721905034" lon="12.337166655960395" id="-90041">
		<tag k="name" v="Fosslandselva" />
		<tag k="ssr:stedsnr" v="14453" />
		<tag k="waterway" v="stream" />
	</node>
	<node lat="64.6743305577928" lon="12.674777773734428" id="-90042">
		<tag k="name" v="Bergholmen" />
		<tag k="place" v="islet" />
		<tag k="ssr:stedsnr" v="14509" />
	</node>
	<node lat="64.45268888968255" lon="12.860825003630636" id="-90046">
		<tag k="name" v="Tverrelva" />
		<tag k="ssr:stedsnr" v="14843" />
		<tag k="waterway" v="stream" />
	</node>
	<node lat="64.58651666617658" lon="12.454975000060594" id="-90049">
		<tag k="name" v="Krokan" />
		<tag k="place" v="locality" />
		<tag k="ssr:stedsnr" v="15737" />
	</node>
	<node lat="64.63077777540846" lon="12.620966666173285" id="-90052">
		<tag k="name" v="Litlåa" />
		<tag k="ssr:stedsnr" v="15560" />
		<tag k="waterway" v="stream" />
	</node>
	<node lat="64.50848610672219" lon="12.427144445744704" id="-90065">
		<tag k="name" v="Mølnbekken" />
		<tag k="ssr:stedsnr" v="28737" />
		<tag k="waterway" v="stream" />
	</node>
	<node lat="64.45461666689428" lon="12.322727770445175" id="-90070">
		<tag k="name" v="Tømmeråshøla" />
		<tag k="place" v="locality" />
		<tag k="ssr:stedsnr" v="29354" />
	</node>
	<node lat="64.61770746629439" lon="12.607483046670993" id="-90074">
		<tag k="alt_name" v="Kvernfossen" />
		<tag k="name" v="Kvennfossen" />
		<tag k="natural" v="waterfall" />
		<tag k="ssr:stedsnr" v="29761" />
	</node>
	<node lat="64.66518889229083" lon="12.662605555991872" id="-90078">
		<tag k="name" v="Geitryggen" />
		<tag k="natural" v="cape" />
		<tag k="ssr:stedsnr" v="47580" />
	</node>
	<node lat="64.66610278153856" lon="12.671819445058762" id="-90079">
		<tag k="name" v="Oladalbekken" />
		<tag k="ssr:stedsnr" v="47582" />
		<tag k="waterway" v="stream" />
	</node>
	<node lat="64.687177777521" lon="12.713425003035404" id="-90081">
		<tag k="name" v="Gressholmen" />
		<tag k="place" v="islet" />
		<tag k="ssr:stedsnr" v="46652" />
	</node>
	<node lat="64.56575277775842" lon="12.578052776946208" id="-90083">
		<tag k="name" v="Joholmen" />
		<tag k="place" v="islet" />
		<tag k="ssr:stedsnr" v="47533" />
	</node>
	<node lat="64.66659722212299" lon="12.630455548731158" id="-90084">
		<tag k="name" v="Sellnessa" />
		<tag k="natural" v="cape" />
		<tag k="ssr:stedsnr" v="47535" />
	</node>
	<node lat="64.64711944733742" lon="12.60487499326709" id="-90085">
		<tag k="name" v="Skrapholmen" />
		<tag k="place" v="islet" />
		<tag k="ssr:stedsnr" v="47546" />
	</node>
	<node lat="64.38686944441545" lon="12.448341659357308" id="-90089">
		<tag k="name" v="Johanfossen" />
		<tag k="natural" v="waterfall" />
		<tag k="ssr:stedsnr" v="48379" />
	</node>
	<node lat="64.46808333537282" lon="12.784569440026143" id="-90092">
		<tag k="name" v="Løftarn" />
		<tag k="natural" v="waterfall" />
		<tag k="ssr:stedsnr" v="48539" />
	</node>
	<node lat="64.40225278018465" lon="12.483222221059876" id="-90096">
		<tag k="name" v="Trekvislfossen" />
		<tag k="natural" v="waterfall" />
		<tag k="ssr:stedsnr" v="48292" />
	</node>
	<node lat="64.68707222398253" lon="12.53009999875837" id="-90103">
		<tag k="name" v="Besvassdammen" />
		<tag k="ssr:stedsnr" v="48795" />
		<tag k="waterway" v="dam" />
	</node>
	<node lat="64.492977781384" lon="12.570050008658345" id="-90108">
		<tag k="name" v="Larstubekken" />
		<tag k="ssr:stedsnr" v="48764" />
		<tag k="waterway" v="stream" />
	</node>
	<node lat="64.59465000029259" lon="12.449649991221428" id="-90110">
		<tag k="name" v="Litltjønna" />
		<tag k="ssr:stedsnr" v="48848" />
		<tag k="waterway" v="stream" />
	</node>
	<node lat="64.45087777968963" lon="12.615172230659528" id="-90111">
		<tag k="name" v="Langnesbukta" />
		<tag k="natural" v="bay" />
		<tag k="ssr:stedsnr" v="48861" />
	</node>
	<node lat="64.45623888490407" lon="12.679066671057097" id="-90112">
		<tag k="name" v="Sørneset" />
		<tag k="natural" v="cape" />
		<tag k="ssr:stedsnr" v="48863" />
	</node>
	<node lat="64.48731666620174" lon="12.888449997046816" id="-90113">
		<tag k="name" v="Oddvartjønna" />
		<tag k="natural" v="water" />
		<tag k="ssr:stedsnr" v="48937" />
	</node>
	<node lat="64.48241111111895" lon="12.945011114195358" id="-90114">
		<tag k="name" v="Trekvisla" />
		<tag k="natural" v="water" />
		<tag k="ssr:stedsnr" v="48943" />
	</node>
	<node lat="64.47397499680582" lon="12.466133336382075" id="-90116">
		<tag k="name" v="Storbekken" />
		<tag k="ssr:stedsnr" v="49563" />
		<tag k="waterway" v="stream" />
	</node>
	<node lat="64.60537777502148" lon="12.546041671395143" id="-90129">
		<tag k="name" v="Holterfossen" />
		<tag k="natural" v="waterfall" />
		<tag k="ssr:stedsnr" v="75579" />
	</node>
	<node lat="64.61519166860587" lon="12.628327771172819" id="-90130">
		<tag k="name" v="Litlfjerdingelva" />
		<tag k="ssr:stedsnr" v="75581" />
		<tag k="waterway" v="stream" />
	</node>
	<node lat="64.54614999759256" lon="12.680294454130685" id="-90146">
		<tag k="alt_name" v="Mortenfossen" />
		<tag k="name" v="Mortenfossan" />
		<tag k="natural" v="waterfall" />
		<tag k="ssr:stedsnr" v="75766" />
	</node>
	<node lat="64.52972500018404" lon="12.289933339261976" id="-90147">
		<tag k="name" v="Flyin" />
		<tag k="natural" v="water" />
		<tag k="ssr:stedsnr" v="75768" />
	</node>
	<node lat="64.44656666487018" lon="12.224808326634191" id="-90152">
		<tag k="name" v="Miganbekken" />
		<tag k="ssr:stedsnr" v="89126" />
		<tag k="waterway" v="stream" />
	</node>
	<node lat="64.48256111146756" lon="12.334747226479378" id="-90173">
		<tag k="name" v="Kvitsteinneset" />
		<tag k="natural" v="cape" />
		<tag k="ssr:stedsnr" v="90347" />
	</node>
	<node lat="64.57363611291133" lon="12.411913885102123" id="-90179">
		<tag k="name" v="Golitjønna" />
		<tag k="natural" v="water" />
		<tag k="ssr:stedsnr" v="106422" />
	</node>
	<node lat="64.59497777577106" lon="12.570174995901853" id="-90180">
		<tag k="name" v="Kvennbekken" />
		<tag k="ssr:stedsnr" v="107532" />
		<tag k="waterway" v="stream" />
	</node>
	<node lat="64.67322221866107" lon="12.66162221489307" id="-90185">
		<tag k="name" v="Stordalbekken" />
		<tag k="ssr:stedsnr" v="107596" />
		<tag k="waterway" v="stream" />
	</node>
	<node lat="64.55156389017695" lon="12.61458055602767" id="-90196">
		<tag k="name" v="Sunnimyrbekken" />
		<tag k="ssr:stedsnr" v="108551" />
		<tag k="waterway" v="stream" />
	</node>
	<node lat="64.43193055430368" lon="12.138980560148902" id="-90201">
		<tag k="name" v="Seterelva" />
		<tag k="ssr:stedsnr" v="109159" />
		<tag k="waterway" v="river" />
	</node>
	<node lat="64.39864722476013" lon="12.544483331953282" id="-90205">
		<tag k="name" v="Murfossen" />
		<tag k="natural" v="waterfall" />
		<tag k="ssr:stedsnr" v="109314" />
	</node>
	<node lat="64.45217777660189" lon="12.628252784619981" id="-90214">
		<tag k="name" v="Stormotjønna" />
		<tag k="natural" v="water" />
		<tag k="ssr:stedsnr" v="109836" />
	</node>
	<node lat="64.48029999862038" lon="12.364474999428941" id="-90218">
		<tag k="name" v="Nøkkgulltjønna" />
		<tag k="natural" v="water" />
		<tag k="ssr:stedsnr" v="110749" />
	</node>
	<node lat="64.48153333232523" lon="12.542247224199688" id="-90220">
		<tag k="name" v="Strandabekken" />
		<tag k="ssr:stedsnr" v="110609" />
		<tag k="waterway" v="stream" />
	</node>
	<node lat="64.4500722228164" lon="12.54337778350576" id="-90226">
		<tag k="name" v="Sanddøla - Sovvene" />
		<tag k="name:no" v="Sanddøla" />
		<tag k="name:sma" v="Sovvene" />
		<tag k="ssr:stedsnr" v="134543" />
		<tag k="waterway" v="river" />
	</node>
	<node lat="64.57522500279937" lon="12.743563887866264" id="-90230">
		<tag k="name" v="Steinåfossen" />
		<tag k="natural" v="waterfall" />
		<tag k="ssr:stedsnr" v="136324" />
	</node>
	<node lat="64.37354444081197" lon="12.31251110256868" id="-90231">
		<tag k="alt_name" v="Litlraudhylla" />
		<tag k="name" v="Litlåa" />
		<tag k="ssr:stedsnr" v="135440" />
		<tag k="waterway" v="stream" />
	</node>
	<node lat="64.4078750034532" lon="12.253475004698513" id="-90233">
		<tag k="name" v="Saulitjørnin" />
		<tag k="natural" v="water" />
		<tag k="ssr:stedsnr" v="135443" />
	</node>
	<node lat="64.4741277776339" lon="12.62531111777188" id="-90236">
		<tag k="alt_name" v="Langtjørna" />
		<tag k="name" v="Langtjønna" />
		<tag k="natural" v="water" />
		<tag k="ssr:stedsnr" v="135521" />
	</node>
	<node lat="64.47560000309427" lon="12.254149994689081" id="-90240">
		<tag k="alt_name" v="Speikelva" />
		<tag k="name" v="Speikbekken" />
		<tag k="ssr:stedsnr" v="135498" />
		<tag k="waterway" v="stream" />
	</node>
	<node lat="64.52379444252348" lon="12.405080547366381" id="-90266">
		<tag k="name" v="Gartlandsneset" />
		<tag k="natural" v="cape" />
		<tag k="ssr:stedsnr" v="153269" />
	</node>
	<node lat="64.65036944321257" lon="12.603941661707038" id="-90268">
		<tag k="name" v="Åneset" />
		<tag k="natural" v="cape" />
		<tag k="ssr:stedsnr" v="229549" />
	</node>
	<node lat="64.64874166901903" lon="12.587824999645592" id="-90274">
		<tag k="name" v="Storfossen" />
		<tag k="natural" v="waterfall" />
		<tag k="ssr:stedsnr" v="168540" />
	</node>
	<node lat="64.50431667076394" lon="12.259047229489004" id="-90278">
		<tag k="name" v="Soksdalbekken" />
		<tag k="ssr:stedsnr" v="169174" />
		<tag k="waterway" v="stream" />
	</node>
	<node lat="64.65536666373346" lon="12.608388883009093" id="-90281">
		<tag k="name" v="Storfossen" />
		<tag k="natural" v="waterfall" />
		<tag k="ssr:stedsnr" v="169394" />
	</node>
	<node lat="64.45898610902466" lon="12.775508332160486" id="-90285">
		<tag k="name" v="Toremobekken" />
		<tag k="ssr:stedsnr" v="169573" />
		<tag k="waterway" v="stream" />
	</node>
	<node lat="64.48801111259439" lon="12.610230555367162" id="-90289">
		<tag k="name" v="Storflya" />
		<tag k="place" v="locality" />
		<tag k="ssr:stedsnr" v="169777" />
	</node>
	<node lat="64.45019166310811" lon="12.568616673035608" id="-90292">
		<tag k="name" v="Godejordneset" />
		<tag k="natural" v="cape" />
		<tag k="ssr:stedsnr" v="169841" />
	</node>
	<node lat="64.48596944869074" lon="12.644097216945399" id="-90294">
		<tag k="name" v="Bengtsabekken" />
		<tag k="ssr:stedsnr" v="169971" />
		<tag k="waterway" v="stream" />
	</node>
	<node lat="64.49244444771638" lon="12.635116672127335" id="-90295">
		<tag k="name" v="Storholmen" />
		<tag k="place" v="islet" />
		<tag k="ssr:stedsnr" v="169982" />
	</node>
	<node lat="64.44084444889099" lon="12.529133325975465" id="-90298">
		<tag k="name" v="Storbekken" />
		<tag k="ssr:stedsnr" v="170580" />
		<tag k="waterway" v="stream" />
	</node>
	<node lat="64.44462777860828" lon="12.237405561011874" id="-90302">
		<tag k="name" v="Geita" />
		<tag k="ssr:stedsnr" v="195524" />
		<tag k="waterway" v="stream" />
	</node>
	<node lat="64.48472777633611" lon="12.514455550330352" id="-90310">
		<tag k="name" v="Elstadelva" />
		<tag k="ssr:stedsnr" v="196501" />
		<tag k="waterway" v="river" />
	</node>
	<node lat="64.4877277746346" lon="12.610375005619758" id="-90311">
		<tag k="name" v="Flyin" />
		<tag k="natural" v="water" />
		<tag k="ssr:stedsnr" v="196502" />
	</node>
	<node lat="64.46620833658967" lon="12.707558331204584" id="-90314">
		<tag k="alt_name" v="Grubbtjørna" />
		<tag k="name" v="Grubbtjønna" />
		<tag k="natural" v="water" />
		<tag k="ssr:stedsnr" v="196525" />
	</node>
	<node lat="64.5803416630139" lon="12.587161108037687" id="-90316">
		<tag k="fixme" v="multiple name tags, choose one and add the other to alt_name" />
		<tag k="name" v="Hyllbekkåa;Litlelva" />
		<tag k="ssr:stedsnr" v="196686" />
		<tag k="waterway" v="stream" />
	</node>
	<node lat="64.62890833445053" lon="12.478097225148957" id="-90320">
		<tag k="name" v="Skarlandsvatnet" />
		<tag k="natural" v="water" />
		<tag k="ssr:stedsnr" v="197642" />
		<tag k="water" v="lake" />
	</node>
	<node lat="64.39952778004624" lon="12.349205545778542" id="-90330">
		<tag k="name" v="Tangen" />
		<tag k="natural" v="cape" />
		<tag k="ssr:stedsnr" v="210209" />
	</node>
	<node lat="64.64819166529975" lon="12.662619451192935" id="-90343">
		<tag k="name" v="Lavinatjønnin" />
		<tag k="natural" v="water" />
		<tag k="ssr:stedsnr" v="288309" />
	</node>
	<node lat="64.56483333477291" lon="12.604316665614778" id="-90350">
		<tag k="name" v="Bjørbekken" />
		<tag k="ssr:stedsnr" v="290436" />
		<tag k="waterway" v="stream" />
	</node>
	<node lat="64.47977777750063" lon="12.568761102017335" id="-90354">
		<tag k="name" v="Sandtjønna" />
		<tag k="natural" v="water" />
		<tag k="ssr:stedsnr" v="290750" />
	</node>
	<node lat="64.45619166349584" lon="12.576472228149361" id="-90356">
		<tag k="name" v="Godejordplutten" />
		<tag k="natural" v="water" />
		<tag k="ssr:stedsnr" v="290852" />
		<tag k="water" v="pond" />
	</node>
	<node lat="64.50823383754833" lon="12.218516975011056" id="-90359">
		<tag k="name" v="Stemningstjønna" />
		<tag k="natural" v="water" />
		<tag k="ssr:stedsnr" v="291170" />
	</node>
	<node lat="64.42197777353684" lon="12.467044447525252" id="-90360">
		<tag k="name" v="Litlholmen" />
		<tag k="place" v="islet" />
		<tag k="ssr:stedsnr" v="291345" />
	</node>
	<node lat="64.5452194445433" lon="12.81376666796259" id="-90365">
		<tag k="name" v="Holmtjønnelva" />
		<tag k="ssr:stedsnr" v="291561" />
		<tag k="waterway" v="stream" />
	</node>
	<node lat="64.47630555177096" lon="13.018197225012637" id="-90368">
		<tag k="name" v="Sprutbekken" />
		<tag k="ssr:stedsnr" v="291913" />
		<tag k="waterway" v="stream" />
	</node>
	<node lat="64.4823666653521" lon="12.974897228179538" id="-90369">
		<tag k="name" v="Langtjønnflya" />
		<tag k="natural" v="water" />
		<tag k="ssr:stedsnr" v="291914" />
	</node>
	<node lat="64.38444166448018" lon="12.421261113588137" id="-90381">
		<tag k="name" v="Låarte - Luru" />
		<tag k="name:no" v="Luru" />
		<tag k="name:sma" v="Låarte" />
		<tag k="ssr:stedsnr" v="317388" />
		<tag k="waterway" v="river" />
	</node>
	<node lat="64.37574999964271" lon="12.33897499795418" id="-90382">
		<tag k="name" v="Raudhylla" />
		<tag k="ssr:stedsnr" v="317390" />
		<tag k="waterway" v="river" />
	</node>
	<node lat="64.54399166556537" lon="12.48423889115696" id="-90391">
		<tag k="name" v="Ramsjøelva" />
		<tag k="ssr:stedsnr" v="318157" />
		<tag k="waterway" v="river" />
	</node>
	<node lat="64.44616388700493" lon="12.332455564948974" id="-90400">
		<tag k="name" v="Litlfossen" />
		<tag k="natural" v="waterfall" />
		<tag k="ssr:stedsnr" v="331342" />
	</node>
	<node lat="64.4556111145859" lon="12.320741662070489" id="-90403">
		<tag k="name" v="Storholmen" />
		<tag k="place" v="islet" />
		<tag k="ssr:stedsnr" v="332337" />
	</node>
	<node lat="64.43678610748589" lon="12.325886112171094" id="-90404">
		<tag k="name" v="Krokneset" />
		<tag k="natural" v="cape" />
		<tag k="ssr:stedsnr" v="332345" />
	</node>
	<node lat="64.44451110661059" lon="12.188205558113431" id="-90405">
		<tag k="name" v="Kvernelva" />
		<tag k="ssr:stedsnr" v="332423" />
		<tag k="waterway" v="stream" />
	</node>
	<node lat="64.55093055776172" lon="12.516477787976996" id="-90406">
		<tag k="name" v="Stemningstjønna" />
		<tag k="natural" v="water" />
		<tag k="ssr:stedsnr" v="332662" />
	</node>
	<node lat="64.58865555313808" lon="12.591286113217164" id="-90410">
		<tag k="name" v="Lambekken" />
		<tag k="old_name" v="Lombekken" />
		<tag k="ssr:stedsnr" v="332790" />
		<tag k="waterway" v="stream" />
	</node>
	<node lat="64.67100278151571" lon="12.677163881327711" id="-90416">
		<tag k="name" v="Tortneset" />
		<tag k="natural" v="cape" />
		<tag k="ssr:stedsnr" v="350534" />
	</node>
	<node lat="64.66494722348644" lon="12.692066673878678" id="-90417">
		<tag k="name" v="Austbekken" />
		<tag k="ssr:stedsnr" v="350543" />
		<tag k="waterway" v="stream" />
	</node>
	<node lat="64.56518888895035" lon="12.708961105851333" id="-90418">
		<tag k="name" v="Svartholet" />
		<tag k="natural" v="water" />
		<tag k="ssr:stedsnr" v="350688" />
	</node>
	<node lat="64.51007222257272" lon="12.213022226220806" id="-90419">
		<tag k="name" v="Litlstemningstjønna" />
		<tag k="natural" v="water" />
		<tag k="ssr:stedsnr" v="351196" />
	</node>
	<node lat="64.68179999659748" lon="12.574419448422136" id="-90422">
		<tag k="name" v="Fjerdingskarbekken" />
		<tag k="ssr:stedsnr" v="351405" />
		<tag k="waterway" v="stream" />
	</node>
	<node lat="64.3878805522472" lon="12.466716663401957" id="-90423">
		<tag k="name" v="Storholmen" />
		<tag k="place" v="islet" />
		<tag k="ssr:stedsnr" v="351407" />
	</node>
	<node lat="64.53203055392159" lon="12.717605550834184" id="-90425">
		<tag k="name" v="Fiskløysoset" />
		<tag k="natural" v="bay" />
		<tag k="ssr:stedsnr" v="351536" />
	</node>
	<node lat="64.49553333034011" lon="12.713097223801688" id="-90426">
		<tag k="name" v="Sandtjønna" />
		<tag k="natural" v="water" />
		<tag k="ssr:stedsnr" v="351544" />
	</node>
	<node lat="64.48505833535754" lon="12.515849999580555" id="-90429">
		<tag k="name" v="Stranda" />
		<tag k="natural" v="cape" />
		<tag k="ssr:stedsnr" v="351785" />
	</node>
	<node lat="64.47832500304334" lon="12.478030551621357" id="-90435">
		<tag k="name" v="Elstadtjønna" />
		<tag k="natural" v="water" />
		<tag k="ssr:stedsnr" v="352531" />
	</node>
	<node lat="64.43958333780999" lon="12.451497218008884" id="-90445">
		<tag k="alt_name" v="Arnfinntjørna" />
		<tag k="name" v="Anfinntjønna" />
		<tag k="natural" v="water" />
		<tag k="ssr:stedsnr" v="378499" />
	</node>
	<node lat="64.48898611338878" lon="12.315874989960397" id="-90450">
		<tag k="name" v="Lomdalsbekken" />
		<tag k="ssr:stedsnr" v="378559" />
		<tag k="waterway" v="stream" />
	</node>
	<node lat="64.41999999822805" lon="12.309950000136823" id="-90453">
		<tag k="name" v="Farstøbekken" />
		<tag k="ssr:stedsnr" v="378512" />
		<tag k="waterway" v="stream" />
	</node>
	<node lat="64.47934999892917" lon="12.663399996966435" id="-90455">
		<tag k="fixme" v="multiple name tags, choose one and add the other to alt_name" />
		<tag k="name" v="Stortjørna;Eriktjønna" />
		<tag k="natural" v="water" />
		<tag k="ssr:stedsnr" v="378569" />
	</node>
	<node lat="64.60734999949705" lon="12.498777774547479" id="-90457">
		<tag k="name" v="Krokvatnet" />
		<tag k="natural" v="water" />
		<tag k="ssr:stedsnr" v="378585" />
		<tag k="water" v="lake" />
	</node>
	<node lat="64.46505277961305" lon="12.602688894127615" id="-90461">
		<tag k="alt_name" v="Angeltjørnin" />
		<tag k="name" v="Angeltjønnin" />
		<tag k="natural" v="water" />
		<tag k="ssr:stedsnr" v="378597" />
	</node>
	<node lat="64.64033610752905" lon="12.64570554729455" id="-90464">
		<tag k="name" v="Fjerdingelva" />
		<tag k="ssr:stedsnr" v="378637" />
		<tag k="waterway" v="river" />
	</node>
	<node lat="64.51248333358072" lon="12.31830000529021" id="-90465">
		<tag k="name" v="Myrbekken" />
		<tag k="ssr:stedsnr" v="378661" />
		<tag k="waterway" v="stream" />
	</node>
	<node lat="64.55175000371148" lon="12.674158332639314" id="-90467">
		<tag k="name" v="Olabekken" />
		<tag k="ssr:stedsnr" v="378751" />
		<tag k="waterway" v="stream" />
	</node>
	<node lat="64.55558611157662" lon="12.358124993980047" id="-90476">
		<tag k="name" v="Seterbekken" />
		<tag k="ssr:stedsnr" v="392353" />
		<tag k="waterway" v="stream" />
	</node>
	<node lat="64.58566944073976" lon="12.514388887246552" id="-90477">
		<tag k="name" v="Mobekken" />
		<tag k="ssr:stedsnr" v="392755" />
		<tag k="waterway" v="stream" />
	</node>
	<node lat="64.57117499858819" lon="12.523819439813716" id="-90478">
		<tag k="name" v="Gjertrudholmen" />
		<tag k="place" v="islet" />
		<tag k="ssr:stedsnr" v="392757" />
	</node>
	<node lat="64.42409999812428" lon="12.331655548892098" id="-90482">
		<tag k="name" v="Sagbekken" />
		<tag k="ssr:stedsnr" v="393345" />
		<tag k="waterway" v="stream" />
	</node>
	<node lat="64.46527499732363" lon="12.778377782086407" id="-90498">
		<tag k="name" v="Finnbuelva" />
		<tag k="ssr:stedsnr" v="412521" />
		<tag k="waterway" v="river" />
	</node>
	<node lat="64.39587499836088" lon="12.538622221760413" id="-90500">
		<tag k="name" v="Lindkvisttjønna" />
		<tag k="natural" v="water" />
		<tag k="ssr:stedsnr" v="412372" />
		<tag k="water" v="pond" />
	</node>
	<node lat="64.55364722458859" lon="12.657780549714118" id="-90509">
		<tag k="name" v="Gressbekken" />
		<tag k="ssr:stedsnr" v="412632" />
		<tag k="waterway" v="stream" />
	</node>
	<node lat="64.46419166445851" lon="12.934222212029223" id="-90511">
		<tag k="name" v="Finnkrulielva" />
		<tag k="ssr:stedsnr" v="412916" />
		<tag k="waterway" v="stream" />
	</node>
	<node lat="64.66206111525624" lon="12.85494721718907" id="-90513">
		<tag k="name" v="Lorentsfossen" />
		<tag k="natural" v="waterfall" />
		<tag k="ssr:stedsnr" v="412781" />
	</node>
	<node lat="64.47573610949344" lon="12.360438895821567" id="-90519">
		<tag k="name" v="Botnbekken" />
		<tag k="ssr:stedsnr" v="413755" />
		<tag k="waterway" v="stream" />
	</node>
	<node lat="64.49467500271166" lon="12.386000005403814" id="-90531">
		<tag k="name" v="Migaren" />
		<tag k="ssr:stedsnr" v="438515" />
		<tag k="waterway" v="stream" />
	</node>
	<node lat="64.3735472262481" lon="12.262625007510266" id="-90540">
		<tag k="name" v="Dambotnbekken" />
		<tag k="ssr:stedsnr" v="439433" />
		<tag k="waterway" v="stream" />
	</node>
	<node lat="64.36909999632141" lon="12.160949996636495" id="-90548">
		<tag k="name" v="Sandåa" />
		<tag k="ssr:stedsnr" v="439673" />
		<tag k="waterway" v="stream" />
	</node>
	<node lat="64.47405555197592" lon="12.089374998581688" id="-90555">
		<tag k="name" v="Fakså" />
		<tag k="ssr:stedsnr" v="446054" />
		<tag k="waterway" v="river" />
	</node>
	<node lat="64.56284999714671" lon="12.839608338602607" id="-90561">
		<tag k="name" v="Finnsela" />
		<tag k="place" v="locality" />
		<tag k="ssr:stedsnr" v="499229" />
	</node>
	<node lat="64.38363055198622" lon="12.561949990505552" id="-90571">
		<tag k="name" v="Leirsjøbekken" />
		<tag k="ssr:stedsnr" v="499377" />
		<tag k="waterway" v="stream" />
	</node>
	<node lat="64.44995555675243" lon="12.27380000981366" id="-90577">
		<tag k="alt_name" v="Kvittemsbekken" />
		<tag k="name" v="Kvitemsbekken" />
		<tag k="ssr:stedsnr" v="499483" />
		<tag k="waterway" v="stream" />
	</node>
	<node lat="64.50150000336745" lon="12.72143333641558" id="-90582">
		<tag k="alt_name" v="Østvatnet" />
		<tag k="name" v="Austvatnet" />
		<tag k="natural" v="water" />
		<tag k="ssr:stedsnr" v="500376" />
	</node>
	<node lat="64.6496305532071" lon="12.50934167029294" id="-90584">
		<tag k="name" v="Skarlandselva" />
		<tag k="ssr:stedsnr" v="500666" />
		<tag k="waterway" v="stream" />
	</node>
	<node lat="64.573080556479" lon="12.553477779420923" id="-90585">
		<tag k="alt_name" v="Kvennbekken" />
		<tag k="name" v="Kvernbekken" />
		<tag k="ssr:stedsnr" v="500764" />
		<tag k="waterway" v="stream" />
	</node>
	<node lat="64.54836944813673" lon="12.512061111694457" id="-90600">
		<tag k="name" v="Gregoriustjønna" />
		<tag k="natural" v="water" />
		<tag k="ssr:stedsnr" v="514678" />
	</node>
	<node lat="64.62974179355346" lon="12.610632576303159" id="-90606">
		<tag k="name" v="Gåstjønna" />
		<tag k="natural" v="water" />
		<tag k="ssr:stedsnr" v="514758" />
	</node>
	<node lat="64.59999166409291" lon="12.586616670529361" id="-90607">
		<tag k="alt_name" v="Kvernbekktjønnin" />
		<tag k="name" v="Kvennbekktjønnin" />
		<tag k="natural" v="water" />
		<tag k="ssr:stedsnr" v="532497" />
	</node>
	<node lat="64.69535000160096" lon="12.751333330552917" id="-90609">
		<tag k="name" v="Kringelneset" />
		<tag k="natural" v="cape" />
		<tag k="ssr:stedsnr" v="532600" />
	</node>
	<node lat="64.66970832901072" lon="12.634347228581948" id="-90610">
		<tag k="name" v="Sellfossen" />
		<tag k="natural" v="waterfall" />
		<tag k="ssr:stedsnr" v="532532" />
	</node>
	<node lat="64.6365305522855" lon="12.612913887145892" id="-90613">
		<tag k="name" v="Olderholmen" />
		<tag k="place" v="islet" />
		<tag k="ssr:stedsnr" v="532546" />
	</node>
	<node lat="64.66430555242549" lon="12.622447219006622" id="-90615">
		<tag k="name" v="Selldammen" />
		<tag k="ssr:stedsnr" v="532555" />
		<tag k="waterway" v="dam" />
	</node>
	<node lat="64.64877221864013" lon="12.758061100848224" id="-90617">
		<tag k="name" v="Gangtrefossen" />
		<tag k="natural" v="waterfall" />
		<tag k="ssr:stedsnr" v="533132" />
	</node>
	<node lat="64.52717499634012" lon="12.7520027808891" id="-90619">
		<tag k="name" v="Rostadstuholmen" />
		<tag k="place" v="islet" />
		<tag k="ssr:stedsnr" v="533580" />
	</node>
	<node lat="64.41564444618353" lon="12.481099997740207" id="-90621">
		<tag k="name" v="Stormyrtjønna" />
		<tag k="natural" v="water" />
		<tag k="ssr:stedsnr" v="533425" />
	</node>
	<node lat="64.5653749958547" lon="12.586155548285769" id="-90624">
		<tag k="name" v="Skogholmen" />
		<tag k="place" v="islet" />
		<tag k="ssr:stedsnr" v="533540" />
	</node>
	<node lat="64.52930833125902" lon="12.698363892671525" id="-90626">
		<tag k="name" v="Melbyspjelten" />
		<tag k="natural" v="cape" />
		<tag k="ssr:stedsnr" v="533561" />
	</node>
	<node lat="64.48737777761296" lon="12.596038879321375" id="-90627">
		<tag k="name" v="Litlflya" />
		<tag k="place" v="locality" />
		<tag k="ssr:stedsnr" v="533786" />
	</node>
	<node lat="64.48098055639906" lon="12.576988883204825" id="-90628">
		<tag k="name" v="Litlsandtjønna" />
		<tag k="natural" v="water" />
		<tag k="ssr:stedsnr" v="533789" />
	</node>
	<node lat="64.6648111117005" lon="12.51900555592211" id="-90641">
		<tag k="name" v="Hyttebekken" />
		<tag k="ssr:stedsnr" v="534784" />
		<tag k="waterway" v="stream" />
	</node>
	<node lat="64.51515000007315" lon="12.559277781360777" id="-90644">
		<tag k="name" v="Litlsetertjønna" />
		<tag k="natural" v="water" />
		<tag k="ssr:stedsnr" v="534558" />
	</node>
	<node lat="64.39505000087212" lon="12.42200001019895" id="-90650">
		<tag k="name" v="Bjørfossen" />
		<tag k="natural" v="waterfall" />
		<tag k="ssr:stedsnr" v="559460" />
	</node>
	<node lat="64.481416668278" lon="12.20811666224551" id="-90657">
		<tag k="name" v="Sklettelva" />
		<tag k="ssr:stedsnr" v="559778" />
		<tag k="waterway" v="stream" />
	</node>
	<node lat="64.65021944685036" lon="12.736194447206621" id="-90658">
		<tag k="name" v="Storfossen" />
		<tag k="natural" v="waterfall" />
		<tag k="ssr:stedsnr" v="560304" />
	</node>
	<node lat="64.56666111563678" lon="12.559974994077287" id="-90664">
		<tag k="name" v="Grønstrandfossan" />
		<tag k="natural" v="waterfall" />
		<tag k="ssr:stedsnr" v="560743" />
	</node>
	<node lat="64.542044446497" lon="12.281080549272536" id="-90666">
		<tag k="name" v="Selbekken" />
		<tag k="ssr:stedsnr" v="574042" />
		<tag k="waterway" v="stream" />
	</node>
	<node lat="64.41340833304659" lon="12.333350004346178" id="-90668">
		<tag k="name" v="Øverøya" />
		<tag k="place" v="islet" />
		<tag k="ssr:stedsnr" v="574187" />
	</node>
	<node lat="64.51178333662094" lon="12.411705562738138" id="-90679">
		<tag k="name" v="Svarthaugneset" />
		<tag k="natural" v="cape" />
		<tag k="ssr:stedsnr" v="578264" />
	</node>
	<node lat="64.61652304913409" lon="12.59353437159523" id="-90683">
		<tag k="name" v="Brattøra" />
		<tag k="natural" v="cape" />
		<tag k="ssr:stedsnr" v="592579" />
	</node>
	<node lat="64.66238333441795" lon="12.617463893516833" id="-90688">
		<tag k="alt_name" v="Østre Falmårelva" />
		<tag k="name" v="Østre Falmårelv" />
		<tag k="ssr:stedsnr" v="592589" />
		<tag k="waterway" v="river" />
	</node>
	<node lat="64.68777500388282" lon="12.63273888116796" id="-90689">
		<tag k="name" v="Pe-Elingsenslettbekken" />
		<tag k="ssr:stedsnr" v="592591" />
		<tag k="waterway" v="stream" />
	</node>
	<node lat="64.49841110841159" lon="12.68967499669767" id="-90700">
		<tag k="name" v="Breivasstjønna" />
		<tag k="natural" v="water" />
		<tag k="ssr:stedsnr" v="594542" />
	</node>
	<node lat="64.44043333108732" lon="12.380111108871477" id="-90708">
		<tag k="name" v="Botnbekken" />
		<tag k="ssr:stedsnr" v="594308" />
		<tag k="waterway" v="stream" />
	</node>
	<node lat="64.47451111358015" lon="12.641405559514274" id="-90721">
		<tag k="name" v="Finnjotjønna" />
		<tag k="natural" v="water" />
		<tag k="ssr:stedsnr" v="594783" />
	</node>
	<node lat="64.47748888431015" lon="12.645291672232018" id="-90732">
		<tag k="alt_name" v="Svarttjørna" />
		<tag k="name" v="Svarttjønna" />
		<tag k="natural" v="water" />
		<tag k="ssr:stedsnr" v="620517" />
	</node>
	<node lat="64.47530555876706" lon="12.654352782368017" id="-90733">
		<tag k="alt_name" v="Svarabergtjørna" />
		<tag k="name" v="Svarabergtjønna" />
		<tag k="natural" v="water" />
		<tag k="ssr:stedsnr" v="620518" />
	</node>
	<node lat="64.47125555618268" lon="12.666847227853683" id="-90739">
		<tag k="alt_name" v="Svarttjørna" />
		<tag k="name" v="Svarttjønna" />
		<tag k="natural" v="water" />
		<tag k="ssr:stedsnr" v="620844" />
	</node>
	<node lat="64.50098888853775" lon="12.872399991997451" id="-90741">
		<tag k="name" v="Skardfjellelva" />
		<tag k="ssr:stedsnr" v="621325" />
		<tag k="waterway" v="stream" />
	</node>
	<node lat="64.64462499923069" lon="12.729788886543252" id="-90742">
		<tag k="name" v="Steinåa" />
		<tag k="ssr:stedsnr" v="621330" />
		<tag k="waterway" v="stream" />
	</node>
	<node lat="64.6466416631152" lon="12.471908337614913" id="-90749">
		<tag k="name" v="Litlådalselva" />
		<tag k="ssr:stedsnr" v="621663" />
		<tag k="waterway" v="stream" />
	</node>
	<node lat="64.5597194481625" lon="12.6698250032056" id="-90754">
		<tag k="name" v="Rognbuelva" />
		<tag k="ssr:stedsnr" v="621760" />
		<tag k="waterway" v="stream" />
	</node>
	<node lat="64.50605000170717" lon="12.194005545894807" id="-90756">
		<tag k="alt_name" v="Føynemsætertjørna;Føynemtjønna" />
		<tag k="name" v="Føynestjønna" />
		<tag k="natural" v="water" />
		<tag k="ssr:stedsnr" v="621893" />
	</node>
	<node lat="64.46769444614182" lon="12.206433327490304" id="-90761">
		<tag k="name" v="Håkåstjønna" />
		<tag k="natural" v="water" />
		<tag k="ssr:stedsnr" v="634013" />
	</node>
	<node lat="64.64833333138917" lon="12.607899994029125" id="-90793">
		<tag k="name" v="Fjerdingholmen" />
		<tag k="place" v="islet" />
		<tag k="ssr:stedsnr" v="653548" />
	</node>
	<node lat="64.6611499984072" lon="12.766286117012982" id="-90798">
		<tag k="name" v="Skrapbekken" />
		<tag k="ssr:stedsnr" v="654130" />
		<tag k="waterway" v="stream" />
	</node>
	<node lat="64.43712499846139" lon="12.452280556559188" id="-90801">
		<tag k="name" v="Anfinntjønna" />
		<tag k="natural" v="water" />
		<tag k="ssr:stedsnr" v="654348" />
	</node>
	<node lat="64.49786111227681" lon="12.443019438965122" id="-90806">
		<tag k="name" v="Litlåa" />
		<tag k="ssr:stedsnr" v="655902" />
		<tag k="waterway" v="stream" />
	</node>
	<node lat="64.53423055979432" lon="12.528350009624996" id="-90816">
		<tag k="name" v="Seterbekken" />
		<tag k="ssr:stedsnr" v="654822" />
		<tag k="waterway" v="stream" />
	</node>
	<node lat="64.49236388582588" lon="13.007280546681036" id="-90819">
		<tag k="name" v="Langløyftelva" />
		<tag k="ssr:stedsnr" v="654928" />
		<tag k="waterway" v="stream" />
	</node>
	<node lat="64.47755833790733" lon="12.519369435860757" id="-90821">
		<tag k="name" v="Tvillingskarfossen" />
		<tag k="natural" v="waterfall" />
		<tag k="ssr:stedsnr" v="655569" />
	</node>
	<node lat="64.49159722154363" lon="12.498994434545372" id="-90822">
		<tag k="name" v="Andersstranda" />
		<tag k="natural" v="cape" />
		<tag k="ssr:stedsnr" v="655772" />
	</node>
	<node lat="64.53206667098239" lon="12.294738883257603" id="-90826">
		<tag k="name" v="Åsengtjønna" />
		<tag k="natural" v="water" />
		<tag k="ssr:stedsnr" v="712419" />
	</node>
	<node lat="64.41525277473123" lon="12.458538893743555" id="-90842">
		<tag k="name" v="Iverneset" />
		<tag k="natural" v="cape" />
		<tag k="ssr:stedsnr" v="715460" />
	</node>
	<node lat="64.46585277891488" lon="12.782691670634904" id="-90844">
		<tag k="name" v="Klipa" />
		<tag k="natural" v="waterfall" />
		<tag k="ssr:stedsnr" v="715576" />
	</node>
	<node lat="64.47920278100021" lon="12.585183324627533" id="-90850">
		<tag k="name" v="Demningsmyrbekken" />
		<tag k="ssr:stedsnr" v="715781" />
		<tag k="waterway" v="stream" />
	</node>
	<node lat="64.46193611356675" lon="12.597886105987968" id="-90852">
		<tag k="name" v="Fiskløysa" />
		<tag k="natural" v="water" />
		<tag k="ssr:stedsnr" v="715798" />
	</node>
	<node lat="64.57320277537566" lon="12.474297216089198" id="-90853">
		<tag k="name" v="Hølbekken" />
		<tag k="ssr:stedsnr" v="715856" />
		<tag k="waterway" v="stream" />
	</node>
	<node lat="64.491813885123" lon="12.641352786082969" id="-90855">
		<tag k="name" v="Litlholmen" />
		<tag k="place" v="islet" />
		<tag k="ssr:stedsnr" v="715973" />
	</node>
	<node lat="64.47049166998679" lon="12.847827775881354" id="-90857">
		<tag k="name" v="Fremsttjønnbekken" />
		<tag k="ssr:stedsnr" v="716617" />
		<tag k="waterway" v="stream" />
	</node>
	<node lat="64.46368611217656" lon="12.882397217014725" id="-90867">
		<tag k="name" v="Seterbekken" />
		<tag k="ssr:stedsnr" v="716626" />
		<tag k="waterway" v="stream" />
	</node>
	<node lat="64.5429222259882" lon="12.720675004148514" id="-90870">
		<tag k="name" v="Seterbekken" />
		<tag k="ssr:stedsnr" v="716571" />
		<tag k="waterway" v="stream" />
	</node>
	<node lat="64.47981111012749" lon="12.981575009441553" id="-90875">
		<tag k="name" v="Langtjønnelva" />
		<tag k="ssr:stedsnr" v="716898" />
		<tag k="waterway" v="stream" />
	</node>
	<node lat="64.45582499930482" lon="12.451058340634676" id="-90882">
		<tag k="fixme" v="multiple name tags, choose one and add the other to alt_name" />
		<tag k="name" v="Rabalskheitjørna;Rossettjønna" />
		<tag k="natural" v="water" />
		<tag k="ssr:stedsnr" v="742458" />
	</node>
	<node lat="64.46180000180902" lon="12.325099999190469" id="-90890">
		<tag k="name" v="Dunaneset" />
		<tag k="natural" v="cape" />
		<tag k="ssr:stedsnr" v="742528" />
	</node>
	<node lat="64.51930000072882" lon="12.329908332588191" id="-90900">
		<tag k="name" v="Bergsengbekken" />
		<tag k="ssr:stedsnr" v="743652" />
		<tag k="waterway" v="stream" />
	</node>
	<node lat="64.52508055582936" lon="12.393858328138268" id="-90901">
		<tag k="alt_name" v="Rørneset" />
		<tag k="name" v="Gartlandsneset" />
		<tag k="natural" v="cape" />
		<tag k="ssr:stedsnr" v="743656" />
	</node>
	<node lat="64.52935277664064" lon="13.000130557157789" id="-90906">
		<tag k="name" v="Reinsjøen" />
		<tag k="name:no" v="Reinsjøen" />
		<tag k="name:sma" v="Bijjie-Neessanjaevrie" />
		<tag k="natural" v="water" />
		<tag k="ssr:stedsnr" v="753241" />
		<tag k="water" v="lake" />
	</node>
	<node lat="64.46121389304803" lon="12.28882499846108" id="-90922">
		<tag k="name" v="Sundspeten" />
		<tag k="natural" v="cape" />
		<tag k="ssr:stedsnr" v="757356" />
	</node>
	<node lat="64.58391388905075" lon="12.670263888039573" id="-90933">
		<tag k="name" v="Midtibekken" />
		<tag k="ssr:stedsnr" v="776634" />
		<tag k="waterway" v="stream" />
	</node>
	<node lat="64.56604999649902" lon="12.678591659513852" id="-90934">
		<tag k="name" v="Bjønnengåa" />
		<tag k="ssr:stedsnr" v="776641" />
		<tag k="waterway" v="stream" />
	</node>
	<node lat="64.64977222514867" lon="12.611280548467125" id="-90935">
		<tag k="name" v="Kjerringodden" />
		<tag k="natural" v="cape" />
		<tag k="ssr:stedsnr" v="775540" />
	</node>
	<node lat="64.43682500066782" lon="12.37015278016339" id="-90940">
		<tag k="name" v="Lomtjønna" />
		<tag k="natural" v="water" />
		<tag k="ssr:stedsnr" v="776256" />
	</node>
	<node lat="64.501563891704" lon="12.789630565969146" id="-90948">
		<tag k="name" v="Geitingelva" />
		<tag k="ssr:stedsnr" v="776537" />
		<tag k="waterway" v="stream" />
	</node>
	<node lat="64.47834166632845" lon="12.783802778105517" id="-90949">
		<tag k="name" v="Piprørtjønna" />
		<tag k="natural" v="water" />
		<tag k="ssr:stedsnr" v="776549" />
	</node>
	<node lat="64.46221666529723" lon="12.388586108239998" id="-90950">
		<tag k="name" v="Reinslibekken" />
		<tag k="ssr:stedsnr" v="776702" />
		<tag k="waterway" v="stream" />
	</node>
	<node lat="64.46868055206102" lon="12.679008331839746" id="-90954">
		<tag k="name" v="Østre Langtjønna" />
		<tag k="natural" v="water" />
		<tag k="ssr:stedsnr" v="776790" />
	</node>
	<node lat="64.61505833143735" lon="12.505205544849654" id="-90957">
		<tag k="name" v="Hyllbekken" />
		<tag k="ssr:stedsnr" v="776836" />
		<tag k="waterway" v="stream" />
	</node>
	<node lat="64.50208055754506" lon="13.049763882043694" id="-90959">
		<tag k="name" v="Langløyftbekken" />
		<tag k="ssr:stedsnr" v="776966" />
		<tag k="waterway" v="stream" />
	</node>
	<node lat="64.3694222252481" lon="12.36167499325897" id="-90961">
		<tag k="name" v="Lauvlimobekken" />
		<tag k="ssr:stedsnr" v="777037" />
		<tag k="waterway" v="stream" />
	</node>
	<node lat="64.44276111208278" lon="12.508152788271353" id="-90967">
		<tag k="name" v="Lintjønna" />
		<tag k="natural" v="water" />
		<tag k="ssr:stedsnr" v="777584" />
	</node>
	<node lat="64.45748055151137" lon="12.51711944718068" id="-90968">
		<tag k="name" v="Kvennstryket" />
		<tag k="ssr:stedsnr" v="777593" />
		<tag k="waterway" v="rapids" />
	</node>
	<node lat="64.46217500333745" lon="12.61033334241337" id="-90975">
		<tag k="name" v="Broka" />
		<tag k="natural" v="water" />
		<tag k="ssr:stedsnr" v="802556" />
	</node>
	<node lat="64.47418333296208" lon="12.245377768948407" id="-90981">
		<tag k="name" v="Skiftesbekken" />
		<tag k="ssr:stedsnr" v="803524" />
		<tag k="waterway" v="stream" />
	</node>
	<node lat="64.4897499963781" lon="12.271975006435376" id="-90984">
		<tag k="alt_name" v="Svarttjønna" />
		<tag k="name" v="Svarttjerna" />
		<tag k="natural" v="water" />
		<tag k="ssr:stedsnr" v="803538" />
	</node>
	<node lat="64.47870000443793" lon="12.739391661174192" id="-90985">
		<tag k="alt_name" v="Rognhaugtjørnin" />
		<tag k="name" v="Rognhaugtjønnin" />
		<tag k="natural" v="water" />
		<tag k="ssr:stedsnr" v="803338" />
	</node>
	<node lat="64.65019999840848" lon="12.83584445074988" id="-91001">
		<tag k="name" v="Fiskløysa" />
		<tag k="natural" v="water" />
		<tag k="ssr:stedsnr" v="804351" />
	</node>
	<node lat="64.48797499818262" lon="12.23380555959127" id="-91004">
		<tag k="name" v="Verabekken" />
		<tag k="ssr:stedsnr" v="817039" />
		<tag k="waterway" v="stream" />
	</node>
	<node lat="64.39083888824952" lon="12.343905557726698" id="-91014">
		<tag k="name" v="Skiftesbekken" />
		<tag k="ssr:stedsnr" v="818152" />
		<tag k="waterway" v="stream" />
	</node>
	<node lat="64.57567777549978" lon="12.59138055859295" id="-91019">
		<tag k="alt_name" v="Gravengåa" />
		<tag k="name" v="Grovaengåa" />
		<tag k="ssr:stedsnr" v="818814" />
		<tag k="waterway" v="stream" />
	</node>
	<node lat="64.64142499572058" lon="12.659119438247968" id="-91023">
		<tag k="name" v="Svartmyrholmen" />
		<tag k="place" v="islet" />
		<tag k="ssr:stedsnr" v="836541" />
	</node>
	<node lat="64.66249722625643" lon="12.696866663567928" id="-91024">
		<tag k="name" v="Tomastjønnin" />
		<tag k="natural" v="water" />
		<tag k="ssr:stedsnr" v="836542" />
	</node>
	<node lat="64.44622221797175" lon="12.846622216994062" id="-91028">
		<tag k="name" v="Finnlarsbekken" />
		<tag k="ssr:stedsnr" v="836553" />
		<tag k="waterway" v="stream" />
	</node>
	<node lat="64.4226722197276" lon="12.14745833576924" id="-91031">
		<tag k="name" v="Austfjellelva" />
		<tag k="ssr:stedsnr" v="837139" />
		<tag k="waterway" v="river" />
	</node>
	<node lat="64.63657222257471" lon="12.713825004866232" id="-91036">
		<tag k="name" v="Bakklundtjønna" />
		<tag k="natural" v="water" />
		<tag k="ssr:stedsnr" v="837247" />
	</node>
	<node lat="64.54177777833706" lon="12.771530558174094" id="-91038">
		<tag k="name" v="Flåbergbekken" />
		<tag k="ssr:stedsnr" v="837550" />
		<tag k="waterway" v="stream" />
	</node>
	<node lat="64.49525277975602" lon="12.813116661654712" id="-91039">
		<tag k="name" v="Kroktjønnin" />
		<tag k="natural" v="water" />
		<tag k="ssr:stedsnr" v="837559" />
	</node>
	<node lat="64.49871666768259" lon="12.437355562632154" id="-91042">
		<tag k="name" v="Ånessa" />
		<tag k="natural" v="cape" />
		<tag k="ssr:stedsnr" v="837923" />
	</node>
	<node lat="64.59089166661101" lon="12.446625000495354" id="-91044">
		<tag k="name" v="Salamonbekken" />
		<tag k="ssr:stedsnr" v="837864" />
		<tag k="waterway" v="stream" />
	</node>
	<node lat="64.50019722425809" lon="12.89959165720419" id="-91045">
		<tag k="name" v="Lærvtjønna" />
		<tag k="natural" v="water" />
		<tag k="ssr:stedsnr" v="837934" />
	</node>
	<node lat="64.65438055890905" lon="12.515738896185368" id="-91051">
		<tag k="name" v="Litlelva" />
		<tag k="ssr:stedsnr" v="838798" />
		<tag k="waterway" v="stream" />
	</node>
	<node lat="64.45603333468586" lon="12.990891665351702" id="-91053">
		<tag k="name" v="Finnkruelva" />
		<tag k="ssr:stedsnr" v="863314" />
		<tag k="waterway" v="stream" />
	</node>
	<node lat="64.3550555530394" lon="12.341000007414143" id="-91057">
		<tag k="name" v="Trettbekken" />
		<tag k="ssr:stedsnr" v="863436" />
		<tag k="waterway" v="stream" />
	</node>
	<node lat="64.47677499624346" lon="12.28158054493107" id="-91058">
		<tag k="name" v="Grongbekken" />
		<tag k="ssr:stedsnr" v="863536" />
		<tag k="waterway" v="stream" />
	</node>
	<node lat="64.47398055299384" lon="12.16402500300311" id="-91060">
		<tag k="name" v="Leirelva" />
		<tag k="ssr:stedsnr" v="863772" />
		<tag k="waterway" v="stream" />
	</node>
	<node lat="64.509116662898" lon="12.948319446729519" id="-91066">
		<tag k="name" v="Skardfjellvatnet" />
		<tag k="natural" v="water" />
		<tag k="ssr:stedsnr" v="864328" />
		<tag k="water" v="lake" />
	</node>
	<node lat="64.64232777653528" lon="12.67649999383596" id="-91071">
		<tag k="name" v="Sandåfossen" />
		<tag k="natural" v="waterfall" />
		<tag k="ssr:stedsnr" v="864658" />
	</node>
	<node lat="64.53223055602437" lon="12.321408337213605" id="-91075">
		<tag k="name" v="Hestbekkenget" />
		<tag k="ssr:stedsnr" v="864691" />
		<tag k="waterway" v="stream" />
	</node>
	<node lat="64.67799444557158" lon="12.677727784624782" id="-91081">
		<tag k="name" v="Åsmulfossen" />
		<tag k="natural" v="waterfall" />
		<tag k="ssr:stedsnr" v="864609" />
	</node>
	<node lat="64.5538583341279" lon="12.64236110288416" id="-91086">
		<tag k="name" v="Rognbuneset" />
		<tag k="natural" v="cape" />
		<tag k="ssr:stedsnr" v="864761" />
	</node>
	<node lat="64.53219722155931" lon="12.356136104136972" id="-91105">
		<tag k="fixme" v="multiple name tags, choose one and add the other to alt_name" />
		<tag k="name" v="Fjellbekken;Seterbekken" />
		<tag k="ssr:stedsnr" v="878284" />
		<tag k="waterway" v="stream" />
	</node>
	<node lat="64.42908333172305" lon="12.325225007938272" id="-91109">
		<tag k="name" v="Formoøya" />
		<tag k="place" v="islet" />
		<tag k="ssr:stedsnr" v="878432" />
	</node>
	<node lat="64.47212500400398" lon="12.315002770878278" id="-91112">
		<tag k="name" v="Øykneset" />
		<tag k="natural" v="cape" />
		<tag k="ssr:stedsnr" v="878447" />
	</node>
	<node lat="64.60296111282875" lon="12.48264723186323" id="-91115">
		<tag k="name" v="Krokvassbekken" />
		<tag k="ssr:stedsnr" v="879633" />
		<tag k="waterway" v="stream" />
	</node>
	<node lat="64.48103610708499" lon="12.147499998084696" id="-91123">
		<tag k="name" v="Holandsøyelva" />
		<tag k="ssr:stedsnr" v="938073" />
		<tag k="waterway" v="river" />
	</node>
	<node lat="64.5228722217767" lon="12.42197776750949" id="-91135">
		<tag k="name" v="Gråspeten" />
		<tag k="natural" v="cape" />
		<tag k="ssr:stedsnr" v="939723" />
	</node>
	<node lat="64.59530833008873" lon="12.600905558331096" id="-91136">
		<tag k="name" v="Lambekktjønna" />
		<tag k="natural" v="water" />
		<tag k="ssr:stedsnr" v="939783" />
	</node>
	<node lat="64.64245555273294" lon="12.671272218820913" id="-91149">
		<tag k="name" v="Sandåfossen" />
		<tag k="natural" v="waterfall" />
		<tag k="ssr:stedsnr" v="957572" />
	</node>
	<node lat="64.69842777743307" lon="12.592363892930983" id="-91152">
		<tag k="name" v="Flakkøyan" />
		<tag k="place" v="islet" />
		<tag k="ssr:stedsnr" v="958083" />
	</node>
	<node lat="64.64342222227936" lon="12.834591673561912" id="-91153">
		<tag k="name" v="Litltjønna" />
		<tag k="natural" v="water" />
		<tag k="ssr:stedsnr" v="958160" />
	</node>
	<node lat="64.613550001938" lon="12.66261945164195" id="-91159">
		<tag k="name" v="Nidalbekken" />
		<tag k="ssr:stedsnr" v="958370" />
		<tag k="waterway" v="stream" />
	</node>
	<node lat="64.40123333529763" lon="12.42369722589792" id="-91160">
		<tag k="name" v="Seterneset" />
		<tag k="natural" v="cape" />
		<tag k="ssr:stedsnr" v="958440" />
	</node>
	<node lat="64.46750833423313" lon="12.644194451404783" id="-91166">
		<tag k="name" v="Småtjønnin" />
		<tag k="natural" v="water" />
		<tag k="ssr:stedsnr" v="958818" />
	</node>
	<node lat="64.4540444447855" lon="12.672422221966896" id="-91170">
		<tag k="name" v="Sørnesbekken" />
		<tag k="ssr:stedsnr" v="958882" />
		<tag k="waterway" v="stream" />
	</node>
	<node lat="64.39001666403885" lon="12.364286107162762" id="-91173">
		<tag k="name" v="Lurustranda" />
		<tag k="natural" v="beach" />
		<tag k="ssr:stedsnr" v="959415" />
	</node>
	<node lat="64.53399444269762" lon="12.574883329525226" id="-91175">
		<tag k="name" v="Setertjønna" />
		<tag k="natural" v="water" />
		<tag k="ssr:stedsnr" v="959525" />
	</node>
	<node lat="64.64970555435771" lon="12.542038890848387" id="-91182">
		<tag k="name" v="Storbekken" />
		<tag k="ssr:stedsnr" v="959765" />
		<tag k="waterway" v="stream" />
	</node>
	<node lat="64.66226666437001" lon="12.535172222182497" id="-91183">
		<tag k="name" v="Gulldokkbekken" />
		<tag k="ssr:stedsnr" v="959771" />
		<tag k="waterway" v="stream" />
	</node>
</osm>
