<?xml version="1.0" encoding="UTF-8"?>
<osm generator="osmapis" version="0.6">
	<node id="-895872" lat="64.4660611119" lon="12.935194444">
		<tag k="bridge" v="yes" />
		<tag k="layer" v="1" />
		<tag k="name" v="Mortenslundbrua" />
		<tag k="ssr:stedsnr" v="413908" />
	</node>
	<node id="-897532" lat="64.4813527742" lon="12.153791666">
		<tag k="bridge" v="yes" />
		<tag k="layer" v="1" />
		<tag k="name" v="Holandsøybrua" />
		<tag k="ssr:stedsnr" v="898907" />
	</node>
	<node id="-897530" lat="64.4528305524" lon="12.3001083257">
		<tag k="bridge" v="yes" />
		<tag k="layer" v="1" />
		<tag k="name" v="Solheimsbrua" />
		<tag k="ssr:stedsnr" v="898141" />
	</node>
	<node id="-896619" lat="64.3969027809" lon="12.3347055641">
		<tag k="bridge" v="yes" />
		<tag k="layer" v="1" />
		<tag k="name" v="Bjørgbrua" />
		<tag k="ssr:stedsnr" v="534133" />
	</node>
	<node id="-895348" lat="64.6100305517" lon="12.5781305484">
		<tag k="landuse" v="industrial" />
		<tag k="name" v="Aunfoss" />
		<tag k="power" v="plant" />
		<tag k="ssr:stedsnr" v="896571" />
	</node>
	<node id="-896750" lat="64.3885138847" lon="12.3409749987">
		<tag k="bridge" v="yes" />
		<tag k="layer" v="1" />
		<tag k="name" v="Spjøtmyrmobrua" />
		<tag k="ssr:stedsnr" v="777124" />
	</node>
	<node id="-895570" lat="64.4465416679" lon="12.1899527871">
		<tag k="bridge" v="yes" />
		<tag k="layer" v="1" />
		<tag k="name" v="Jøreselvbrua" />
		<tag k="ssr:stedsnr" v="655854" />
	</node>
	<node id="-896872" lat="64.6492611139" lon="12.5030666611">
		<tag k="ford" v="yes" />
		<tag k="name" v="Vadet" />
		<tag k="place" v="locality" />
		<tag k="ssr:stedsnr" v="351780" />
	</node>
	<node id="-896870" lat="64.4618277785" lon="12.1620833432">
		<tag k="bridge" v="yes" />
		<tag k="layer" v="1" />
		<tag k="name" v="Litlbrua" />
		<tag k="ssr:stedsnr" v="594900" />
	</node>
	<node id="-896227" lat="64.5592499999" lon="12.4815777734">
		<tag k="bridge" v="yes" />
		<tag k="layer" v="1" />
		<tag k="name" v="Fiskemselvgangbrua" />
		<tag k="ssr:stedsnr" v="109860" />
	</node>
	<node id="-897116" lat="64.5686055598" lon="12.493766663">
		<tag k="name" v="Harran" />
		<tag k="railway" v="station" />
		<tag k="ssr:stedsnr" v="682752" />
		<tag k="train" v="yes" />
	</node>
	<node id="-896987" lat="64.4490888858" lon="12.21817499">
		<tag k="bridge" v="yes" />
		<tag k="layer" v="1" />
		<tag k="name" v="Geitbrua" />
		<tag k="ssr:stedsnr" v="594897" />
	</node>
	<node id="-897369" lat="64.6642250041" lon="12.6679583294">
		<tag k="bridge" v="yes" />
		<tag k="layer" v="1" />
		<tag k="name" v="Austbekkbrua" />
		<tag k="ssr:stedsnr" v="898884" />
	</node>
	<node id="-895960" lat="64.4674500005" lon="12.8713138841">
		<tag k="bridge" v="yes" />
		<tag k="layer" v="1" />
		<tag k="name" v="Tverrelvbrua" />
		<tag k="ssr:stedsnr" v="49890" />
	</node>
	<node id="-895318" lat="64.4311805525" lon="12.4818527695">
		<tag k="bridge" v="yes" />
		<tag k="layer" v="1" />
		<tag k="name" v="Trongbrua" />
		<tag k="ssr:stedsnr" v="959886" />
	</node>
	<node id="-896725" lat="64.4558083375" lon="12.2749611202">
		<tag k="bridge" v="yes" />
		<tag k="layer" v="1" />
		<tag k="name" v="Kvitesdalsbrua" />
		<tag k="ssr:stedsnr" v="534907" />
	</node>
	<node id="-895828" lat="64.4692972201" lon="12.0822083296">
		<tag k="bridge" v="yes" />
		<tag k="layer" v="1" />
		<tag k="name" v="Faksbrua" />
		<tag k="ssr:stedsnr" v="655895" />
	</node>
	<node id="-896723" lat="64.4566250035" lon="12.3376722232">
		<tag k="bridge" v="yes" />
		<tag k="layer" v="1" />
		<tag k="name" v="Litlåbrua" />
		<tag k="ssr:stedsnr" v="170926" />
	</node>
	<node id="-896082" lat="64.4762166689" lon="12.2277027733">
		<tag k="highway" v="path" />
		<tag k="name" v="Hevelstien" />
		<tag k="ssr:stedsnr" v="696005" />
	</node>
	<node id="-896867" lat="64.5363250032" lon="12.4172194411">
		<tag k="bridge" v="yes" />
		<tag k="layer" v="1" />
		<tag k="name" v="Aurstadbrua" />
		<tag k="ssr:stedsnr" v="594869" />
	</node>
	<node id="-895522" lat="64.3771055553" lon="12.3363333323">
		<tag k="bridge" v="yes" />
		<tag k="layer" v="1" />
		<tag k="name" v="Litlraudhyllbrua" />
		<tag k="ssr:stedsnr" v="413136" />
	</node>
	<node id="-896202" lat="64.4588666661" lon="12.3385472216">
		<tag k="name" v="Grong" />
		<tag k="railway" v="station" />
		<tag k="ssr:stedsnr" v="378587" />
		<tag k="train" v="yes" />
	</node>
	<node id="-897091" lat="64.3960777778" lon="12.3277333426">
		<tag k="junction" v="yes" />
		<tag k="name" v="Bjørgan" />
		<tag k="place" v="locality" />
		<tag k="ssr:stedsnr" v="210188" />
	</node>
	<node id="-897089" lat="64.4038027754" lon="12.5674166595">
		<tag k="ford" v="yes" />
		<tag k="name" v="Snåsavadet" />
		<tag k="place" v="locality" />
		<tag k="ssr:stedsnr" v="291115" />
	</node>
	<node id="-895925" lat="64.4610972232" lon="12.7674444511">
		<tag k="bridge" v="yes" />
		<tag k="layer" v="1" />
		<tag k="name" v="Toremobrua" />
		<tag k="ssr:stedsnr" v="413905" />
	</node>
	<node id="-897192" lat="64.3909333308" lon="12.510225009">
		<tag k="ford" v="yes" />
		<tag k="name" v="Elgvadet" />
		<tag k="place" v="locality" />
		<tag k="ssr:stedsnr" v="472381" />
	</node>
	<node id="-895524" lat="64.5452888914" lon="12.3828277797">
		<tag k="bridge" v="yes" />
		<tag k="layer" v="1" />
		<tag k="name" v="Nordengbrua" />
		<tag k="ssr:stedsnr" v="655892" />
	</node>
	<node id="-896802" lat="64.4757694485" lon="12.1586388887">
		<tag k="bridge" v="yes" />
		<tag k="layer" v="1" />
		<tag k="name" v="Leirbrua" />
		<tag k="ssr:stedsnr" v="352897" />
	</node>
	<node id="-895963" lat="64.5343777773" lon="12.3928750095">
		<tag k="bridge" v="yes" />
		<tag k="layer" v="1" />
		<tag k="name" v="Gartlandsbrua" />
		<tag k="ssr:stedsnr" v="594889" />
	</node>
	<node id="-897043" lat="64.5469166686" lon="12.3792305473">
		<tag k="bridge" v="yes" />
		<tag k="layer" v="1" />
		<tag k="name" v="Langengbrua" />
		<tag k="ssr:stedsnr" v="473912" />
	</node>
	<node id="-896012" lat="64.5522916645" lon="12.3717111142">
		<tag k="bridge" v="yes" />
		<tag k="layer" v="1" />
		<tag k="name" v="Seterengbrua" />
		<tag k="ssr:stedsnr" v="594903" />
	</node>
	<node id="-895747" lat="64.4662916625" lon="12.3038749947">
		<tag k="bridge" v="yes" />
		<tag k="layer" v="1" />
		<tag k="name" v="Tinghaugbrua" />
		<tag k="ssr:stedsnr" v="716169" />
	</node>
	<node id="-897025" lat="64.4613527781" lon="12.2936527878">
		<tag k="bridge" v="yes" />
		<tag k="layer" v="1" />
		<tag k="name" v="Sundspetbrua" />
		<tag k="ssr:stedsnr" v="594147" />
	</node>
</osm>
