<?xml version="1.0" encoding="UTF-8"?>
<osm version="0.6" generator="osmapis">
	<node lat="64.54916389253253" lon="12.348825006059352" id="-88940">
		<tag k="historic" v="shieling" />
		<tag k="name" v="Severinsetran" />
		<tag k="place" v="isolated_dwelling" />
		<tag k="ssr:stedsnr" v="229642" />
	</node>
	<node lat="64.52296388955162" lon="12.41466110741242" id="-88971">
		<tag k="name" v="Rossetnes" />
		<tag k="place" v="farm" />
		<tag k="ssr:stedsnr" v="15671" />
	</node>
	<node lat="64.40667222117489" lon="12.330416668965372" id="-88979">
		<tag k="historic" v="shieling" />
		<tag k="name" v="Bjørgsetran" />
		<tag k="place" v="isolated_dwelling" />
		<tag k="ssr:stedsnr" v="28175" />
	</node>
	<node lat="64.55047777695289" lon="12.480797213337887" id="-88980">
		<tag k="name" v="Sagmohaugen" />
		<tag k="place" v="farm" />
		<tag k="ssr:stedsnr" v="28676" />
	</node>
	<node lat="64.558383337503" lon="12.348422220474019" id="-88981">
		<tag k="historic" v="shieling" />
		<tag k="name" v="Gammelsetran" />
		<tag k="place" v="isolated_dwelling" />
		<tag k="ssr:stedsnr" v="29308" />
	</node>
	<node lat="64.45653056001072" lon="12.257091657129799" id="-89014">
		<tag k="fixme" v="consider place=hamlet" />
		<tag k="name" v="Heggem" />
		<tag k="place" v="farm" />
		<tag k="ssr:stedsnr" v="75563" />
	</node>
	<node lat="64.48044999718411" lon="12.17451666370403" id="-89017">
		<tag k="name" v="Holomo" />
		<tag k="place" v="farm" />
		<tag k="ssr:stedsnr" v="75912" />
	</node>
	<node lat="64.46174166456035" lon="12.331941666701917" id="-89024">
		<tag k="name" v="Hallgotto" />
		<tag k="place" v="quarter" />
		<tag k="ssr:stedsnr" v="89413" />
	</node>
	<node lat="64.67238099051963" lon="12.670859449749575" id="-89054">
		<tag k="name" v="Fossem" />
		<tag k="place" v="locality" />
		<tag k="ssr:stedsnr" v="135558" />
	</node>
	<node lat="64.58353031827471" lon="12.556861999321383" id="-89060">
		<tag k="fixme" v="consider place=hamlet" />
		<tag k="name" v="Solem" />
		<tag k="place" v="farm" />
		<tag k="ssr:stedsnr" v="136725" />
	</node>
	<node lat="64.45269722652536" lon="12.226352779379122" id="-89064">
		<tag k="alt_name" v="Sem vestre" />
		<tag k="fixme" v="consider place=hamlet" />
		<tag k="name" v="Vestre Sem" />
		<tag k="place" v="farm" />
		<tag k="ssr:stedsnr" v="149102" />
	</node>
	<node lat="64.45792500036782" lon="12.68331388855012" id="-89083">
		<tag k="name" v="Nyneset" />
		<tag k="place" v="farm" />
		<tag k="ssr:stedsnr" v="256448" />
	</node>
	<node lat="64.47449166248128" lon="12.187194435586369" id="-89091">
		<tag k="fixme" v="consider place=hamlet" />
		<tag k="name" v="Føynem" />
		<tag k="place" v="farm" />
		<tag k="ssr:stedsnr" v="256750" />
	</node>
	<node lat="64.58131389196043" lon="12.564461108669637" id="-89108">
		<tag k="name" v="Skogvoll" />
		<tag k="place" v="farm" />
		<tag k="ssr:stedsnr" v="257745" />
	</node>
	<node lat="64.57814722530033" lon="12.521341661517491" id="-89109">
		<tag k="alt_name" v="Rønningen" />
		<tag k="name" v="Moarønningen" />
		<tag k="place" v="farm" />
		<tag k="ssr:stedsnr" v="257752" />
	</node>
	<node lat="64.46175832958085" lon="12.314024996546216" id="-89111">
		<tag k="amenity" v="school" />
		<tag k="name" v="Grong videregående skole" />
		<tag k="ssr:stedsnr" v="163217" />
	</node>
	<node lat="64.66666666811516" lon="12.673944455109213" id="-89114">
		<tag k="name" v="Seterhaugen" />
		<tag k="place" v="farm" />
		<tag k="ssr:stedsnr" v="168557" />
	</node>
	<node lat="64.46806944791366" lon="12.101733331374074" id="-89136">
		<tag k="name" v="Veiem" />
		<tag k="place" v="farm" />
		<tag k="ssr:stedsnr" v="264030" />
	</node>
	<node lat="64.45935555180122" lon="12.78597499596559" id="-89145">
		<tag k="name" v="New York" />
		<tag k="place" v="locality" />
		<tag k="ssr:stedsnr" v="196290" />
	</node>
	<node lat="64.3434750031202" lon="12.232125007815208" id="-89146">
		<tag k="alt_name" v="Rostasætran;Rostensetren" />
		<tag k="historic" v="shieling" />
		<tag k="name" v="Rostasetran" />
		<tag k="place" v="isolated_dwelling" />
		<tag k="ssr:stedsnr" v="196387" />
	</node>
	<node lat="64.57269133815745" lon="12.588787789749478" id="-89150">
		<tag k="name" v="Solbakken" />
		<tag k="place" v="farm" />
		<tag k="ssr:stedsnr" v="196667" />
	</node>
	<node lat="64.51857499764574" lon="12.373477778222025" id="-89158">
		<tag k="alt_name" v="Åsen" />
		<tag k="name" v="Gartlandsåsen" />
		<tag k="place" v="farm" />
		<tag k="ssr:stedsnr" v="197672" />
	</node>
	<node lat="64.47257499583645" lon="12.303238896755975" id="-89167">
		<tag k="fixme" v="consider place=hamlet" />
		<tag k="name" v="Leksås" />
		<tag k="place" v="village" />
		<tag k="ssr:stedsnr" v="210389" />
	</node>
	<node lat="64.4743305534858" lon="12.20608054978237" id="-89182">
		<tag k="name" v="Sklett" />
		<tag k="place" v="hamlet" />
		<tag k="ssr:stedsnr" v="271021" />
	</node>
	<node lat="64.4834277816018" lon="12.149361109948556" id="-89184">
		<tag k="name" v="Holand" />
		<tag k="place" v="locality" />
		<tag k="ssr:stedsnr" v="271087" />
	</node>
	<node lat="64.45093610721297" lon="12.288419447273208" id="-89187">
		<tag k="fixme" v="consider place=hamlet" />
		<tag k="name" v="Rosten" />
		<tag k="place" v="farm" />
		<tag k="ssr:stedsnr" v="271134" />
	</node>
	<node lat="64.54721944547461" lon="12.274983340026646" id="-89189">
		<tag k="historic" v="shieling" />
		<tag k="name" v="Væremssetran" />
		<tag k="place" v="isolated_dwelling" />
		<tag k="ssr:stedsnr" v="271250" />
	</node>
	<node lat="64.46365555942378" lon="12.315566659383432" id="-89221">
		<tag k="fixme" v="consider place=suburb, village or hamlet" />
		<tag k="name" v="Medjå" />
		<tag k="place" v="quarter" />
		<tag k="ssr:stedsnr" v="453390" />
	</node>
	<node lat="64.45612778031332" lon="12.339850005878729" id="-89231">
		<tag k="fixme" v="multiple name tags, choose one and add the other to alt_name" />
		<tag k="name" v="Moen;Larsmoen" />
		<tag k="place" v="farm" />
		<tag k="ssr:stedsnr" v="454342" />
	</node>
	<node lat="64.42935555146799" lon="12.337983335336112" id="-89259">
		<tag k="name" v="Formo" />
		<tag k="place" v="hamlet" />
		<tag k="ssr:stedsnr" v="272328" />
	</node>
	<node lat="64.4558638931867" lon="12.27105555470257" id="-89289">
		<tag k="alt_name" v="Kvittem" />
		<tag k="fixme" v="consider place=hamlet" />
		<tag k="name" v="Kvitem" />
		<tag k="place" v="farm" />
		<tag k="ssr:stedsnr" v="317504" />
	</node>
	<node lat="64.45478888869609" lon="12.37628333171998" id="-89291">
		<tag k="alt_name" v="Tømmeråssætran" />
		<tag k="name" v="Tømmeråssetran" />
		<tag k="place" v="isolated_dwelling" />
		<tag k="ssr:stedsnr" v="317511" />
	</node>
	<node lat="64.45014444575338" lon="12.580661116786116" id="-89295">
		<tag k="name" v="Elvestad" />
		<tag k="place" v="isolated_dwelling" />
		<tag k="ssr:stedsnr" v="317442" />
	</node>
	<node lat="64.57251388945501" lon="12.512611107319861" id="-89304">
		<tag k="name" v="Bruheim" />
		<tag k="place" v="farm" />
		<tag k="ssr:stedsnr" v="318710" />
	</node>
	<node lat="64.45028888765334" lon="12.28844445001724" id="-89317">
		<tag k="fixme" v="consider place=hamlet" />
		<tag k="name" v="Rosten" />
		<tag k="place" v="village" />
		<tag k="ssr:stedsnr" v="332357" />
	</node>
	<node lat="64.56834166852109" lon="12.520386110766028" id="-89319">
		<tag k="name" v="Nes" />
		<tag k="place" v="farm" />
		<tag k="ssr:stedsnr" v="332650" />
	</node>
	<node lat="64.53888888675122" lon="12.46345833062151" id="-89321">
		<tag k="historic" v="shieling" />
		<tag k="name" v="Haustsetervollen" />
		<tag k="place" v="isolated_dwelling" />
		<tag k="ssr:stedsnr" v="332706" />
	</node>
	<node lat="64.57736110827454" lon="12.442272215662635" id="-89358">
		<tag k="name" v="Gammelsetermoen" />
		<tag k="place" v="isolated_dwelling" />
		<tag k="ssr:stedsnr" v="351858" />
	</node>
	<node lat="64.43215832985506" lon="12.482247215167709" id="-89373">
		<tag k="name" v="Trangen" />
		<tag k="place" v="farm" />
		<tag k="ssr:stedsnr" v="378507" />
	</node>
	<node lat="64.5708047245683" lon="12.578263291407291" id="-89375">
		<tag k="name" v="Myrvang" />
		<tag k="place" v="farm" />
		<tag k="ssr:stedsnr" v="378716" />
	</node>
	<node lat="64.45649444656893" lon="12.20623611037227" id="-89377">
		<tag k="name" v="Rønningen" />
		<tag k="place" v="farm" />
		<tag k="ssr:stedsnr" v="378728" />
	</node>
	<node lat="64.62097499821697" lon="12.601486103512864" id="-89382">
		<tag k="fixme" v="consider place=hamlet" />
		<tag k="name" v="Fjerdingen" />
		<tag k="place" v="farm" />
		<tag k="ssr:stedsnr" v="379481" />
	</node>
	<node lat="64.46496749730665" lon="12.310569520869121" id="-89399">
		<tag k="amenity" v="school" />
		<tag k="name" v="Grong barne- og ungdomsskole" />
		<tag k="ssr:stedsnr" v="406249" />
	</node>
	<node lat="64.62162417068369" lon="12.6027230255409" id="-89400">
		<tag k="alt_name" v="Fjerdingen" />
		<tag k="name" v="Østre Fjerdingen" />
		<tag k="place" v="farm" />
		<tag k="ssr:stedsnr" v="411511" />
	</node>
	<node lat="64.53331944842961" lon="12.393988883098013" id="-89432">
		<tag k="fixme" v="consider place=hamlet" />
		<tag k="name" v="Gartland" />
		<tag k="place" v="village" />
		<tag k="ssr:stedsnr" v="439644" />
	</node>
	<node lat="64.54024901523081" lon="12.713330284001866" id="-89433">
		<tag k="alt_name" v="Solessetran" />
		<tag k="historic" v="shieling" />
		<tag k="name" v="Libergsetran" />
		<tag k="place" v="isolated_dwelling" />
		<tag k="ssr:stedsnr" v="439653" />
	</node>
	<node lat="64.40065277783778" lon="12.357672225128915" id="-89462">
		<tag k="name" v="Tufte" />
		<tag k="place" v="farm" />
		<tag k="ssr:stedsnr" v="472459" />
	</node>
	<node lat="64.47130277510666" lon="12.20796389261193" id="-89497">
		<tag k="name" v="Sklettneset" />
		<tag k="place" v="farm" />
		<tag k="ssr:stedsnr" v="499638" />
	</node>
	<node lat="64.44916111531582" lon="12.282080557458496" id="-89500">
		<tag k="alt_name" v="Rydningen" />
		<tag k="name" v="Rønningen" />
		<tag k="place" v="farm" />
		<tag k="ssr:stedsnr" v="681480" />
	</node>
	<node lat="64.45138055929567" lon="12.28999999785293" id="-89502">
		<tag k="name" v="Rostamoen" />
		<tag k="place" v="farm" />
		<tag k="ssr:stedsnr" v="681551" />
	</node>
	<node lat="64.51490277928472" lon="12.423500005567062" id="-89506">
		<tag k="fixme" v="consider place=hamlet" />
		<tag k="name" v="Rosset" />
		<tag k="place" v="farm" />
		<tag k="ssr:stedsnr" v="500704" />
	</node>
	<node lat="64.46840771191701" lon="12.101865961180211" id="-89511">
		<tag k="fixme" v="consider place=hamlet" />
		<tag k="name" v="Veiem" />
		<tag k="place" v="farm" />
		<tag k="ssr:stedsnr" v="681790" />
	</node>
	<node lat="64.3944888890323" lon="12.320080564841842" id="-89512">
		<tag k="landuse" v="winter_sports" />
		<tag k="name" v="Grong Skisenter" />
		<tag k="piste:type" v="downhill" />
		<tag k="ssr:stedsnr" v="506025" />
	</node>
	<node lat="64.59341055189947" lon="12.558668949059475" id="-89517">
		<tag k="alt_name" v="Skavmo;Skamoen" />
		<tag k="name" v="Skavmoen" />
		<tag k="place" v="farm" />
		<tag k="ssr:stedsnr" v="682600" />
	</node>
	<node lat="64.56069999557931" lon="12.48010833806912" id="-89526">
		<tag k="name" v="Kvernmoen" />
		<tag k="place" v="farm" />
		<tag k="ssr:stedsnr" v="682799" />
	</node>
	<node lat="64.45685555669434" lon="12.3370472322834" id="-89527">
		<tag k="name" v="Åkvisla" />
		<tag k="place" v="quarter" />
		<tag k="ssr:stedsnr" v="272346" />
	</node>
	<node lat="64.40383611054828" lon="12.30974999904914" id="-89532">
		<tag k="historic" v="shieling" />
		<tag k="name" v="Lynumsetran" />
		<tag k="place" v="isolated_dwelling" />
		<tag k="ssr:stedsnr" v="513194" />
	</node>
	<node lat="64.48254722327908" lon="12.176683336174372" id="-89563">
		<tag k="alt_name" v="Holo" />
		<tag k="name" v="Holomo" />
		<tag k="place" v="farm" />
		<tag k="ssr:stedsnr" v="559747" />
	</node>
	<node lat="64.46753055354294" lon="12.218436111675622" id="-89564">
		<tag k="fixme" v="consider place=suburb, village or hamlet" />
		<tag k="name" v="Bergsmoen" />
		<tag k="place" v="quarter" />
		<tag k="ssr:stedsnr" v="559691" />
	</node>
	<node lat="64.46238888815637" lon="12.211652779975632" id="-89565">
		<tag k="fixme" v="consider place=hamlet" />
		<tag k="name" v="Berge" />
		<tag k="place" v="farm" />
		<tag k="ssr:stedsnr" v="559701" />
	</node>
	<node lat="64.42810000394634" lon="12.335158328223336" id="-89571">
		<tag k="name" v="Persmoen" />
		<tag k="place" v="farm" />
		<tag k="ssr:stedsnr" v="560485" />
	</node>
	<node lat="64.46989166984288" lon="12.268033324661866" id="-89581">
		<tag k="name" v="Speikan" />
		<tag k="place" v="farm" />
		<tag k="ssr:stedsnr" v="574010" />
	</node>
	<node lat="64.46644586867474" lon="12.155878733094049" id="-89583">
		<tag k="name" v="Valdskrå" />
		<tag k="place" v="hamlet" />
		<tag k="ssr:stedsnr" v="574019" />
	</node>
	<node lat="64.46736389313779" lon="12.302130561492193" id="-89594">
		<tag k="fixme" v="consider place=hamlet" />
		<tag k="name" v="Grong" />
		<tag k="place" v="farm" />
		<tag k="ssr:stedsnr" v="575357" />
	</node>
	<node lat="64.49259166622575" lon="12.263163888632107" id="-89597">
		<tag k="historic" v="shieling" />
		<tag k="name" v="Bergsmosetran" />
		<tag k="place" v="isolated_dwelling" />
		<tag k="ssr:stedsnr" v="696036" />
	</node>
	<node lat="64.5654611125184" lon="12.501466674541993" id="-89611">
		<tag k="amenity" v="school" />
		<tag k="name" v="Harran oppvekstsenter" />
		<tag k="ssr:stedsnr" v="587259" />
	</node>
	<node lat="64.62918374790625" lon="12.599585004346425" id="-89616">
		<tag k="name" v="Skogan" />
		<tag k="place" v="farm" />
		<tag k="ssr:stedsnr" v="696763" />
	</node>
	<node lat="64.44228611544834" lon="12.327755563259055" id="-89647">
		<tag k="fixme" v="consider place=hamlet" />
		<tag k="name" v="Homo" />
		<tag k="place" v="farm" />
		<tag k="ssr:stedsnr" v="620475" />
	</node>
	<node lat="64.45150000368587" lon="12.617500007123644" id="-89649">
		<tag k="name" v="Stormoen" />
		<tag k="place" v="farm" />
		<tag k="ssr:stedsnr" v="620479" />
	</node>
	<node lat="64.66852777839887" lon="12.67940278392513" id="-89658">
		<tag k="name" v="Bekkheim" />
		<tag k="place" v="isolated_dwelling" />
		<tag k="ssr:stedsnr" v="621619" />
	</node>
	<node lat="64.50883333176023" lon="12.353697232446015" id="-89663">
		<tag k="alt_name" v="Spennmyra" />
		<tag k="name" v="Myra" />
		<tag k="place" v="farm" />
		<tag k="ssr:stedsnr" v="621670" />
	</node>
	<node lat="64.56847777578443" lon="12.51118333140422" id="-89671">
		<tag k="alt_name" v="Myrvold" />
		<tag k="name" v="Myrvoll" />
		<tag k="place" v="farm" />
		<tag k="ssr:stedsnr" v="634732" />
	</node>
	<node lat="64.42068889018763" lon="12.46241110846982" id="-89681">
		<tag k="name" v="Trangen" />
		<tag k="place" v="farm" />
		<tag k="ssr:stedsnr" v="654332" />
	</node>
	<node lat="64.48709722310883" lon="12.332447218759267" id="-89701">
		<tag k="fixme" v="consider place=hamlet" />
		<tag k="name" v="Fossland" />
		<tag k="place" v="farm" />
		<tag k="ssr:stedsnr" v="681515" />
	</node>
	<node lat="64.53366666845912" lon="12.388511115658668" id="-89706">
		<tag k="alt_name" v="Gartland" />
		<tag k="name" v="Hansmoen" />
		<tag k="place" v="farm" />
		<tag k="ssr:stedsnr" v="682704" />
	</node>
	<node lat="64.65593333015481" lon="12.650041666466185" id="-89710">
		<tag k="name" v="Nyheim" />
		<tag k="place" v="isolated_dwelling" />
		<tag k="ssr:stedsnr" v="682662" />
	</node>
	<node lat="64.6616028838976" lon="12.63364231957429" id="-89711">
		<tag k="name" v="Bergenget" />
		<tag k="place" v="farm" />
		<tag k="ssr:stedsnr" v="682665" />
	</node>
	<node lat="64.57871111567079" lon="12.535463882806026" id="-89714">
		<tag k="fixme" v="consider place=hamlet" />
		<tag k="name" v="Bya" />
		<tag k="place" v="farm" />
		<tag k="ssr:stedsnr" v="682757" />
	</node>
	<node lat="64.58661666733782" lon="12.515205549244932" id="-89715">
		<tag k="fixme" v="consider place=hamlet" />
		<tag k="name" v="Moen" />
		<tag k="place" v="farm" />
		<tag k="ssr:stedsnr" v="682758" />
	</node>
	<node lat="64.4221055553219" lon="12.341597228582575" id="-89728">
		<tag k="name" v="Langeggen" />
		<tag k="place" v="locality" />
		<tag k="ssr:stedsnr" v="696367" />
	</node>
	<node lat="64.46927499854465" lon="12.891163881741814" id="-89778">
		<tag k="name" v="Bergmoen" />
		<tag k="place" v="locality" />
		<tag k="ssr:stedsnr" v="715931" />
	</node>
	<node lat="64.46567778159819" lon="12.818525005035722" id="-89784">
		<tag k="name" v="Gammel Hansmoen" />
		<tag k="place" v="locality" />
		<tag k="ssr:stedsnr" v="716614" />
	</node>
	<node lat="64.47008055277016" lon="12.967150004015664" id="-89792">
		<tag k="name" v="Storholmen" />
		<tag k="place" v="isolated_dwelling" />
		<tag k="ssr:stedsnr" v="716911" />
	</node>
	<node lat="64.46571389247735" lon="12.933397213790068" id="-89793">
		<tag k="name" v="Fjellheim" />
		<tag k="place" v="isolated_dwelling" />
		<tag k="ssr:stedsnr" v="716928" />
	</node>
	<node lat="64.45332499952814" lon="12.637175006225668" id="-89803">
		<tag k="name" v="Brenna" />
		<tag k="place" v="isolated_dwelling" />
		<tag k="ssr:stedsnr" v="741590" />
	</node>
	<node lat="64.46986111405728" lon="12.830722216104785" id="-89805">
		<tag k="name" v="Berg" />
		<tag k="place" v="farm" />
		<tag k="ssr:stedsnr" v="742305" />
	</node>
	<node lat="64.46788888961552" lon="12.166383342010226" id="-89814">
		<tag k="fixme" v="consider place=hamlet" />
		<tag k="name" v="Vie" />
		<tag k="place" v="farm" />
		<tag k="ssr:stedsnr" v="742681" />
	</node>
	<node lat="64.40094166323358" lon="12.313411115929465" id="-89825">
		<tag k="historic" v="shieling" />
		<tag k="name" v="Homosetran" />
		<tag k="place" v="isolated_dwelling" />
		<tag k="ssr:stedsnr" v="756156" />
	</node>
	<node lat="64.36806666210194" lon="12.316650004981634" id="-89836">
		<tag k="historic" v="shieling" />
		<tag k="name" v="Heggemssetran" />
		<tag k="place" v="isolated_dwelling" />
		<tag k="ssr:stedsnr" v="776009" />
	</node>
	<node lat="64.5261500034188" lon="12.670866673937951" id="-89840">
		<tag k="name" v="Matisensetran" />
		<tag k="place" v="locality" />
		<tag k="ssr:stedsnr" v="776520" />
	</node>
	<node lat="64.45591944336888" lon="12.65578333690176" id="-89844">
		<tag k="name" v="Ivermoen" />
		<tag k="place" v="isolated_dwelling" />
		<tag k="ssr:stedsnr" v="776852" />
	</node>
	<node lat="64.45674444906028" lon="12.66738055034102" id="-89845">
		<tag k="name" v="Solberg" />
		<tag k="place" v="isolated_dwelling" />
		<tag k="ssr:stedsnr" v="776864" />
	</node>
	<node lat="64.45147221884216" lon="12.278769440636243" id="-89852">
		<tag k="name" v="Kvitemsmoen" />
		<tag k="place" v="farm" />
		<tag k="ssr:stedsnr" v="803559" />
	</node>
	<node lat="64.65834444695976" lon="12.758805552795698" id="-89857">
		<tag k="name" v="Selliås" />
		<tag k="place" v="farm" />
		<tag k="ssr:stedsnr" v="804411" />
	</node>
	<node lat="64.4592277777124" lon="12.52625001016228" id="-89873">
		<tag k="name" v="Sandnessætran" />
		<tag k="place" v="isolated_dwelling" />
		<tag k="ssr:stedsnr" v="924460" />
	</node>
	<node lat="64.44825000097975" lon="12.330675000278367" id="-89874">
		<tag k="name" v="Fossem" />
		<tag k="place" v="farm" />
		<tag k="ssr:stedsnr" v="924463" />
	</node>
	<node lat="64.6211138931954" lon="12.585852783882201" id="-89879">
		<tag k="name" v="Aunet" />
		<tag k="place" v="farm" />
		<tag k="ssr:stedsnr" v="836475" />
	</node>
	<node lat="64.47935277763756" lon="13.030333326409973" id="-89882">
		<tag k="name" v="Sibirien" />
		<tag k="place" v="locality" />
		<tag k="ssr:stedsnr" v="924293" />
	</node>
	<node lat="64.52338610953798" lon="12.661413898818385" id="-89915">
		<tag k="alt_name" v="Nessetran" />
		<tag k="name" v="Brusvassetran" />
		<tag k="place" v="locality" />
		<tag k="ssr:stedsnr" v="925683" />
	</node>
	<node lat="64.56195277535068" lon="12.49566944551399" id="-89922">
		<tag k="fixme" v="consider place=hamlet" />
		<tag k="name" v="Moa" />
		<tag k="place" v="village" />
		<tag k="ssr:stedsnr" v="925791" />
	</node>
	<node lat="64.49008888657535" lon="12.468747229672248" id="-89928">
		<tag k="alt_name" v="Rossetsetran" />
		<tag k="name" v="Mørkvedsetran" />
		<tag k="place" v="isolated_dwelling" />
		<tag k="ssr:stedsnr" v="863530" />
	</node>
	<node lat="64.49133055211097" lon="12.411422222087536" id="-89929">
		<tag k="alt_name" v="Rossetsetran" />
		<tag k="historic" v="shieling" />
		<tag k="name" v="Grongsetran" />
		<tag k="place" v="isolated_dwelling" />
		<tag k="ssr:stedsnr" v="863532" />
	</node>
	<node lat="64.39609166314608" lon="12.327605560784445" id="-89936">
		<tag k="name" v="Bjørgan" />
		<tag k="place" v="hamlet" />
		<tag k="ssr:stedsnr" v="870611" />
	</node>
	<node lat="64.37075555898832" lon="12.3383527770425" id="-89954">
		<tag k="historic" v="shieling" />
		<tag k="name" v="Verkessetran" />
		<tag k="place" v="isolated_dwelling" />
		<tag k="ssr:stedsnr" v="898006" />
	</node>
	<node lat="64.46686944170393" lon="12.21904444643825" id="-89970">
		<tag k="name" v="Bergsmoen" />
		<tag k="place" v="farm" />
		<tag k="ssr:stedsnr" v="924523" />
	</node>
	<node lat="64.47270277744431" lon="12.300402776657089" id="-89971">
		<tag k="fixme" v="consider place=hamlet" />
		<tag k="name" v="Leksås" />
		<tag k="place" v="farm" />
		<tag k="ssr:stedsnr" v="924525" />
	</node>
	<node lat="64.46812500234448" lon="12.09776665927164" id="-89975">
		<tag k="name" v="Veiemsmoen" />
		<tag k="place" v="farm" />
		<tag k="ssr:stedsnr" v="924770" />
	</node>
	<node lat="64.47406667029762" lon="12.158105566233171" id="-89991">
		<tag k="fixme" v="consider place=hamlet" />
		<tag k="name" v="Leir" />
		<tag k="place" v="village" />
		<tag k="ssr:stedsnr" v="939023" />
	</node>
	<node lat="64.52828055212905" lon="12.380008324475778" id="-89999">
		<tag k="name" v="Elvheim" />
		<tag k="place" v="locality" />
		<tag k="ssr:stedsnr" v="939296" />
	</node>
	<node lat="64.48604167049336" lon="12.638516660411277" id="-90036">
		<tag k="alt_name" v="Møkkelvassåsen" />
		<tag k="name" v="Bengtsplassen" />
		<tag k="place" v="locality" />
		<tag k="ssr:stedsnr" v="14477" />
	</node>
	<node lat="64.449700001381" lon="12.289008334398316" id="-90038">
		<tag k="name" v="Skogly" />
		<tag k="place" v="farm" />
		<tag k="ssr:stedsnr" v="14484" />
	</node>
	<node lat="64.47097778135891" lon="12.201386114474856" id="-90043">
		<tag k="name" v="Nesmoen" />
		<tag k="place" v="farm" />
		<tag k="ssr:stedsnr" v="14649" />
	</node>
	<node lat="64.6217952515688" lon="12.584694816044907" id="-90051">
		<tag k="fixme" v="consider place=hamlet" />
		<tag k="name" v="Aunet" />
		<tag k="place" v="farm" />
		<tag k="ssr:stedsnr" v="15539" />
	</node>
	<node lat="64.4209944491531" lon="12.29062776901475" id="-90060">
		<tag k="historic" v="shieling" />
		<tag k="name" v="Eriksetran" />
		<tag k="place" v="isolated_dwelling" />
		<tag k="ssr:stedsnr" v="28385" />
	</node>
	<node lat="64.44612499731336" lon="12.327680553511106" id="-90063">
		<tag k="name" v="Rolandsgjelet" />
		<tag k="place" v="farm" />
		<tag k="ssr:stedsnr" v="28342" />
	</node>
	<node lat="64.57429721861624" lon="12.514619438894611" id="-90068">
		<tag k="name" v="Åsheim" />
		<tag k="place" v="locality" />
		<tag k="ssr:stedsnr" v="28746" />
	</node>
	<node lat="64.45878332905485" lon="12.333708331361708" id="-90071">
		<tag k="name" v="Rønningen" />
		<tag k="place" v="farm" />
		<tag k="ssr:stedsnr" v="29355" />
	</node>
	<node lat="64.46157222550568" lon="12.76146111475997" id="-90090">
		<tag k="name" v="Mikalplassen" />
		<tag k="place" v="isolated_dwelling" />
		<tag k="ssr:stedsnr" v="48536" />
	</node>
	<node lat="64.48662778130767" lon="12.330577779452913" id="-90123">
		<tag k="loc_name" v="Lia" />
		<tag k="name" v="Fossland" />
		<tag k="place" v="farm" />
		<tag k="ssr:stedsnr" v="60493" />
	</node>
	<node lat="64.48066110678184" lon="12.153677784791277" id="-90128">
		<tag k="fixme" v="consider place=hamlet" />
		<tag k="name" v="Holandsøya" />
		<tag k="place" v="farm" />
		<tag k="ssr:stedsnr" v="74777" />
	</node>
	<node lat="64.46458888852504" lon="12.31601111719235" id="-90131">
		<tag k="name" v="Grong" />
		<tag k="place" v="village" />
		<tag k="ssr:stedsnr" v="75584" />
	</node>
	<node lat="64.57881110804891" lon="12.554286103450181" id="-90145">
		<tag k="name" v="Myran" />
		<tag k="place" v="farm" />
		<tag k="ssr:stedsnr" v="75753" />
	</node>
	<node lat="64.57392500095399" lon="12.517891676374095" id="-90149">
		<tag k="alt_name" v="Rønningen" />
		<tag k="name" v="Rønningmo" />
		<tag k="place" v="farm" />
		<tag k="ssr:stedsnr" v="75742" />
	</node>
	<node lat="64.50021389276317" lon="12.142166657255405" id="-90154">
		<tag k="name" v="Skarplassan" />
		<tag k="place" v="locality" />
		<tag k="ssr:stedsnr" v="89097" />
	</node>
	<node lat="64.40028888975996" lon="12.313763890981093" id="-90157">
		<tag k="historic" v="shieling" />
		<tag k="name" v="Homonessetran" />
		<tag k="place" v="isolated_dwelling" />
		<tag k="ssr:stedsnr" v="89184" />
	</node>
	<node lat="64.44561388737166" lon="12.342236104818813" id="-90162">
		<tag k="name" v="Jerpen" />
		<tag k="place" v="farm" />
		<tag k="ssr:stedsnr" v="89345" />
	</node>
	<node lat="64.51754999992272" lon="12.414783324218316" id="-90177">
		<tag k="name" v="Rossetmo" />
		<tag k="place" v="farm" />
		<tag k="ssr:stedsnr" v="93243" />
	</node>
	<node lat="64.66111666350504" lon="12.643975000862717" id="-90184">
		<tag k="name" v="Åsmulen" />
		<tag k="place" v="farm" />
		<tag k="ssr:stedsnr" v="107594" />
	</node>
	<node lat="64.44020277746893" lon="12.498461113598191" id="-90221">
		<tag k="name" v="Sandnes" />
		<tag k="place" v="farm" />
		<tag k="ssr:stedsnr" v="110614" />
	</node>
	<node lat="64.482341667853" lon="12.165583343773578" id="-90227">
		<tag k="fixme" v="consider place=hamlet" />
		<tag k="name" v="Holo" />
		<tag k="place" v="farm" />
		<tag k="ssr:stedsnr" v="134795" />
	</node>
	<node lat="64.46707221889302" lon="12.302877785858616" id="-90237">
		<tag k="name" v="Tinghaugen" />
		<tag k="place" v="farm" />
		<tag k="ssr:stedsnr" v="135534" />
	</node>
	<node lat="64.5767805560043" lon="12.517152774044716" id="-90242">
		<tag k="name" v="Åsheim" />
		<tag k="place" v="farm" />
		<tag k="ssr:stedsnr" v="135690" />
	</node>
	<node lat="64.47465833682294" lon="12.205952776225724" id="-90244">
		<tag k="fixme" v="consider place=hamlet" />
		<tag k="name" v="Sklett" />
		<tag k="place" v="farm" />
		<tag k="ssr:stedsnr" v="135772" />
	</node>
	<node lat="64.40904999705077" lon="12.310261108892561" id="-90256">
		<tag k="historic" v="shieling" />
		<tag k="name" v="Saulisetran" />
		<tag k="place" v="isolated_dwelling" />
		<tag k="ssr:stedsnr" v="149149" />
	</node>
	<node lat="64.4574416699936" lon="12.188477769150722" id="-90263">
		<tag k="name" v="Jørem" />
		<tag k="place" v="hamlet" />
		<tag k="ssr:stedsnr" v="150427" />
	</node>
	<node lat="64.43887221922525" lon="12.498280561506636" id="-90307">
		<tag k="fixme" v="consider place=hamlet" />
		<tag k="name" v="Sandnes" />
		<tag k="place" v="farm" />
		<tag k="ssr:stedsnr" v="196440" />
	</node>
	<node lat="64.45988888777741" lon="12.203813887849854" id="-90315">
		<tag k="name" v="Dal" />
		<tag k="place" v="farm" />
		<tag k="ssr:stedsnr" v="196681" />
	</node>
	<node lat="64.58330555694779" lon="12.56273610107721" id="-90321">
		<tag k="name" v="Lauvbota" />
		<tag k="place" v="farm" />
		<tag k="ssr:stedsnr" v="197730" />
	</node>
	<node lat="64.52030555472417" lon="12.414888891355968" id="-90342">
		<tag k="name" v="Ellingmoen" />
		<tag k="place" v="locality" />
		<tag k="ssr:stedsnr" v="275264" />
	</node>
	<node lat="64.4663666663872" lon="12.922683342422392" id="-90379">
		<tag k="name" v="Mortenslund" />
		<tag k="place" v="isolated_dwelling" />
		<tag k="ssr:stedsnr" v="317296" />
	</node>
	<node lat="64.46494999703899" lon="12.825291669064837" id="-90380">
		<tag k="name" v="Hansmoen" />
		<tag k="place" v="locality" />
		<tag k="ssr:stedsnr" v="317297" />
	</node>
	<node lat="64.65556110922833" lon="12.650180563426966" id="-90383">
		<tag k="name" v="Åsvang" />
		<tag k="place" v="isolated_dwelling" />
		<tag k="ssr:stedsnr" v="318625" />
	</node>
	<node lat="64.48467222113894" lon="12.112599995163263" id="-90398">
		<tag k="historic" v="shieling" />
		<tag k="name" v="Samuelsetran" />
		<tag k="place" v="isolated_dwelling" />
		<tag k="ssr:stedsnr" v="331065" />
	</node>
	<node lat="64.44389999711991" lon="12.339649989668823" id="-90442">
		<tag k="fixme" v="consider place=hamlet" />
		<tag k="name" v="Ekker" />
		<tag k="place" v="farm" />
		<tag k="ssr:stedsnr" v="377486" />
	</node>
	<node lat="64.47457500304547" lon="12.160969437015723" id="-90443">
		<tag k="name" v="Vie" />
		<tag k="place" v="farm" />
		<tag k="ssr:stedsnr" v="377773" />
	</node>
	<node lat="64.45578333300259" lon="12.546708324781731" id="-90447">
		<tag k="name" v="Sandnessætran" />
		<tag k="place" v="locality" />
		<tag k="ssr:stedsnr" v="378517" />
	</node>
	<node lat="64.45189167058994" lon="12.296708337345681" id="-90458">
		<tag k="name" v="Solheim" />
		<tag k="place" v="farm" />
		<tag k="ssr:stedsnr" v="378586" />
	</node>
	<node lat="64.54633055432299" lon="12.629374994823962" id="-90468">
		<tag k="alt_name" v="Nessetran" />
		<tag k="historic" v="shieling" />
		<tag k="name" v="Ingebriktsetran" />
		<tag k="place" v="isolated_dwelling" />
		<tag k="ssr:stedsnr" v="378754" />
	</node>
	<node lat="64.5591944462871" lon="12.492427784049825" id="-90470">
		<tag k="name" v="Elvebakken" />
		<tag k="place" v="farm" />
		<tag k="ssr:stedsnr" v="378761" />
	</node>
	<node lat="64.45920277608569" lon="12.182705557059816" id="-90475">
		<tag k="name" v="Jørem" />
		<tag k="place" v="farm" />
		<tag k="ssr:stedsnr" v="392016" />
	</node>
	<node lat="64.46671388737771" lon="12.313330550346691" id="-90484">
		<tag k="name" v="Grovin" />
		<tag k="place" v="quarter" />
		<tag k="ssr:stedsnr" v="393378" />
	</node>
	<node lat="64.56097777607333" lon="12.491677778640005" id="-90529">
		<tag k="fixme" v="consider place=hamlet" />
		<tag k="name" v="Harran" />
		<tag k="place" v="village" />
		<tag k="ssr:stedsnr" v="439756" />
	</node>
	<node lat="64.56326262824079" lon="12.514618314341345" id="-90530">
		<tag k="name" v="Siggerudmoen" />
		<tag k="place" v="locality" />
		<tag k="ssr:stedsnr" v="439758" />
	</node>
	<node lat="64.58957555509231" lon="12.561387263948255" id="-90543">
		<tag k="alt_name" v="Øvermo;Overmo" />
		<tag k="name" v="Øvermoen" />
		<tag k="place" v="farm" />
		<tag k="ssr:stedsnr" v="439532" />
	</node>
	<node lat="64.4622944462838" lon="12.250236102216036" id="-90550">
		<tag k="name" v="Moum" />
		<tag k="place" v="farm" />
		<tag k="ssr:stedsnr" v="439882" />
	</node>
	<node lat="64.48006378420578" lon="12.137511197043938" id="-90553">
		<tag k="name" v="Brauta" />
		<tag k="place" v="farm" />
		<tag k="ssr:stedsnr" v="446049" />
	</node>
	<node lat="64.6145629105857" lon="12.592610958454589" id="-90558">
		<tag k="name" v="Fjerdingmoen" />
		<tag k="place" v="farm" />
		<tag k="ssr:stedsnr" v="499490" />
	</node>
	<node lat="64.50014999752369" lon="12.742761113215282" id="-90566">
		<tag k="historic" v="shieling" />
		<tag k="name" v="Brennmoen" />
		<tag k="place" v="isolated_dwelling" />
		<tag k="ssr:stedsnr" v="499283" />
	</node>
	<node lat="64.45084999711905" lon="12.574325001797378" id="-90568">
		<tag k="alt_name" v="Godejord" />
		<tag k="name" v="Godejorda" />
		<tag k="place" v="farm" />
		<tag k="ssr:stedsnr" v="499416" />
	</node>
	<node lat="64.45908611047454" lon="12.280305558513458" id="-90573">
		<tag k="fixme" v="consider place=hamlet" />
		<tag k="name" v="Dun" />
		<tag k="place" v="farm" />
		<tag k="ssr:stedsnr" v="499471" />
	</node>
	<node lat="64.46595000332006" lon="12.245433333593782" id="-90576">
		<tag k="fixme" v="consider place=hamlet" />
		<tag k="name" v="Moum" />
		<tag k="place" v="farm" />
		<tag k="ssr:stedsnr" v="499480" />
	</node>
	<node lat="64.4748361112997" lon="12.157069441165623" id="-90581">
		<tag k="fixme" v="consider place=hamlet" />
		<tag k="name" v="Leir" />
		<tag k="place" v="farm" />
		<tag k="ssr:stedsnr" v="499764" />
	</node>
	<node lat="64.37804444694304" lon="12.31971944900486" id="-90592">
		<tag k="historic" v="shieling" />
		<tag k="name" v="Biskoplisetran" />
		<tag k="place" v="isolated_dwelling" />
		<tag k="ssr:stedsnr" v="514199" />
	</node>
	<node lat="64.59579722403186" lon="12.520013880810563" id="-90601">
		<tag k="historic" v="shieling" />
		<tag k="name" v="Moasetran" />
		<tag k="place" v="isolated_dwelling" />
		<tag k="ssr:stedsnr" v="514657" />
	</node>
	<node lat="64.5844361124595" lon="12.436955546127328" id="-90633">
		<tag k="historic" v="shieling" />
		<tag k="name" v="Storengsetran" />
		<tag k="place" v="isolated_dwelling" />
		<tag k="ssr:stedsnr" v="533885" />
	</node>
	<node lat="64.46716944565422" lon="12.297966669301637" id="-90647">
		<tag k="loc_name" v="Remma" />
		<tag k="name" v="Grong" />
		<tag k="place" v="farm" />
		<tag k="ssr:stedsnr" v="545851" />
	</node>
	<node lat="64.45962499921428" lon="12.18806667260657" id="-90656">
		<tag k="fixme" v="consider place=hamlet" />
		<tag k="name" v="Jørem" />
		<tag k="place" v="farm" />
		<tag k="ssr:stedsnr" v="559708" />
	</node>
	<node lat="64.53486667060578" lon="12.409852772591773" id="-90660">
		<tag k="fixme" v="consider place=hamlet" />
		<tag k="name" v="Aurstad" />
		<tag k="place" v="farm" />
		<tag k="ssr:stedsnr" v="560647" />
	</node>
	<node lat="64.50135000404299" lon="12.26148889560517" id="-90661">
		<tag k="name" v="Nyhagan" />
		<tag k="place" v="isolated_dwelling" />
		<tag k="ssr:stedsnr" v="560678" />
	</node>
	<node lat="64.3694222252481" lon="12.36167499325897" id="-90706">
		<tag k="name" v="Lauvlimosetran" />
		<tag k="place" v="isolated_dwelling" />
		<tag k="ssr:stedsnr" v="594041" />
	</node>
	<node lat="64.48792777536879" lon="12.332652768973233" id="-90727">
		<tag k="name" v="Fossland" />
		<tag k="place" v="farm" />
		<tag k="ssr:stedsnr" v="606521" />
	</node>
	<node lat="64.53438055139439" lon="12.39864999922424" id="-90728">
		<tag k="fixme" v="consider place=hamlet" />
		<tag k="name" v="Gartland" />
		<tag k="place" v="farm" />
		<tag k="ssr:stedsnr" v="606538" />
	</node>
	<node lat="64.56231944033709" lon="12.499913889671227" id="-90729">
		<tag k="fixme" v="consider place=hamlet" />
		<tag k="name" v="Moa" />
		<tag k="place" v="farm" />
		<tag k="ssr:stedsnr" v="606567" />
	</node>
	<node lat="64.39989444875793" lon="12.344469435943461" id="-90730">
		<tag k="fixme" v="consider place=hamlet" />
		<tag k="name" v="Formofoss" />
		<tag k="place" v="village" />
		<tag k="ssr:stedsnr" v="620442" />
	</node>
	<node lat="64.4829136183314" lon="12.436014982459463" id="-90734">
		<tag k="alt_name" v="Øvre Rossetsetran" />
		<tag k="name" v="Isaksetran" />
		<tag k="place" v="locality" />
		<tag k="ssr:stedsnr" v="620524" />
	</node>
	<node lat="64.46032499843079" lon="12.304088883323335" id="-90735">
		<tag k="name" v="Langnes" />
		<tag k="place" v="farm" />
		<tag k="ssr:stedsnr" v="620536" />
	</node>
	<node lat="64.4626527788686" lon="12.353577778347061" id="-90736">
		<tag k="alt_name" v="Medjåsætran" />
		<tag k="historic" v="shieling" />
		<tag k="name" v="Heimsætran" />
		<tag k="place" v="isolated_dwelling" />
		<tag k="ssr:stedsnr" v="620537" />
	</node>
	<node lat="64.61751473136589" lon="12.581661437790391" id="-90747">
		<tag k="name" v="Nymoen" />
		<tag k="place" v="farm" />
		<tag k="ssr:stedsnr" v="621559" />
	</node>
	<node lat="64.64338407118044" lon="12.607693240088608" id="-90748">
		<tag k="name" v="Fjerdingøya" />
		<tag k="place" v="farm" />
		<tag k="ssr:stedsnr" v="621649" />
	</node>
	<node lat="64.44182499752031" lon="12.326419440010111" id="-90771">
		<tag k="name" v="Homo" />
		<tag k="place" v="hamlet" />
		<tag k="ssr:stedsnr" v="634358" />
	</node>
	<node lat="64.45186111383747" lon="12.344469453605202" id="-90772">
		<tag k="fixme" v="consider place=hamlet" />
		<tag k="name" v="Tømmerås" />
		<tag k="place" v="farm" />
		<tag k="ssr:stedsnr" v="634361" />
	</node>
	<node lat="64.54058055662254" lon="12.483880554945829" id="-90776">
		<tag k="name" v="Gregoriusplassen" />
		<tag k="place" v="locality" />
		<tag k="ssr:stedsnr" v="634749" />
	</node>
	<node lat="64.47173055111493" lon="12.202569450433693" id="-90791">
		<tag k="amenity" v="school" />
		<tag k="name" v="Bergsmo oppvekstsenter" />
		<tag k="ssr:stedsnr" v="648269" />
	</node>
	<node lat="64.58443333637803" lon="12.558944452524266" id="-90792">
		<tag k="name" v="Solem" />
		<tag k="place" v="farm" />
		<tag k="ssr:stedsnr" v="653501" />
	</node>
	<node lat="64.58702500359415" lon="12.564936118081606" id="-90829">
		<tag k="name" v="Haugen" />
		<tag k="place" v="farm" />
		<tag k="ssr:stedsnr" v="714460" />
	</node>
	<node lat="64.46786389163321" lon="12.272302768035484" id="-90885">
		<tag k="name" v="Allmannmoen" />
		<tag k="place" v="farm" />
		<tag k="ssr:stedsnr" v="742513" />
	</node>
	<node lat="64.45337777591224" lon="12.209700007125265" id="-90893">
		<tag k="fixme" v="consider place=hamlet" />
		<tag k="name" v="Værem" />
		<tag k="place" v="farm" />
		<tag k="ssr:stedsnr" v="742713" />
	</node>
	<node lat="64.48072777787148" lon="12.18221388090951" id="-90895">
		<tag k="name" v="Solvang" />
		<tag k="place" v="farm" />
		<tag k="ssr:stedsnr" v="742779" />
	</node>
	<node lat="64.51175555760105" lon="12.367766657107348" id="-90899">
		<tag k="name" v="Sellerneset" />
		<tag k="place" v="farm" />
		<tag k="ssr:stedsnr" v="743645" />
	</node>
	<node lat="64.47216944850082" lon="12.196038892047843" id="-90908">
		<tag k="name" v="Solhaug" />
		<tag k="place" v="farm" />
		<tag k="ssr:stedsnr" v="756016" />
	</node>
	<node lat="64.55138610983026" lon="12.367077776883544" id="-90911">
		<tag k="historic" v="shieling" />
		<tag k="name" v="Vollasetran" />
		<tag k="place" v="isolated_dwelling" />
		<tag k="ssr:stedsnr" v="756314" />
	</node>
	<node lat="64.49315833522408" lon="12.6226194426702" id="-90960">
		<tag k="name" v="Kristenplassen" />
		<tag k="place" v="isolated_dwelling" />
		<tag k="ssr:stedsnr" v="776982" />
	</node>
	<node lat="64.44017499843548" lon="12.331261103710558" id="-90972">
		<tag k="name" v="Homoneset" />
		<tag k="place" v="farm" />
		<tag k="ssr:stedsnr" v="803483" />
	</node>
	<node lat="64.42966666518697" lon="12.335588893589156" id="-90974">
		<tag k="fixme" v="consider place=hamlet" />
		<tag k="name" v="Formo" />
		<tag k="place" v="farm" />
		<tag k="ssr:stedsnr" v="803487" />
	</node>
	<node lat="64.56785555748849" lon="12.741072223181897" id="-90979">
		<tag k="alt_name" v="Nysetran" />
		<tag k="historic" v="shieling" />
		<tag k="name" v="Rognbusetran" />
		<tag k="place" v="isolated_dwelling" />
		<tag k="ssr:stedsnr" v="803291" />
	</node>
	<node lat="64.68304298935335" lon="12.730960944115997" id="-90987">
		<tag k="name" v="Granmo" />
		<tag k="place" v="farm" />
		<tag k="ssr:stedsnr" v="803355" />
	</node>
	<node lat="64.66050832998444" lon="12.645355556153667" id="-90988">
		<tag k="fixme" v="consider place=hamlet" />
		<tag k="name" v="Åsmulen" />
		<tag k="place" v="farm" />
		<tag k="ssr:stedsnr" v="803586" />
	</node>
	<node lat="64.55539444371936" lon="12.483111106953167" id="-90998">
		<tag k="fixme" v="consider place=hamlet" />
		<tag k="name" v="Sagmoen" />
		<tag k="place" v="farm" />
		<tag k="ssr:stedsnr" v="803739" />
	</node>
	<node lat="64.5255388898784" lon="12.402672224090468" id="-91010">
		<tag k="name" v="Gartlandsneset" />
		<tag k="place" v="farm" />
		<tag k="ssr:stedsnr" v="818297" />
	</node>
	<node lat="64.52842499882398" lon="12.721555564897706" id="-91065">
		<tag k="name" v="Tiern" />
		<tag k="place" v="isolated_dwelling" />
		<tag k="ssr:stedsnr" v="864321" />
	</node>
	<node lat="64.52375277820289" lon="12.434288886558113" id="-91073">
		<tag k="fixme" v="consider place=hamlet" />
		<tag k="name" v="Elstad" />
		<tag k="place" v="farm" />
		<tag k="ssr:stedsnr" v="864687" />
	</node>
	<node lat="64.52651389296553" lon="12.420058323913436" id="-91074">
		<tag k="name" v="Elstadneset" />
		<tag k="place" v="farm" />
		<tag k="ssr:stedsnr" v="864689" />
	</node>
	<node lat="64.61215299796521" lon="12.506990225888263" id="-91080">
		<tag k="alt_name" v="Krokvassenget" />
		<tag k="name" v="Krokvassheimen" />
		<tag k="place" v="locality" />
		<tag k="ssr:stedsnr" v="864594" />
	</node>
	<node lat="64.47809999912491" lon="12.328216669680048" id="-91108">
		<tag k="name" v="Nygård" />
		<tag k="place" v="farm" />
		<tag k="ssr:stedsnr" v="878423" />
	</node>
	<node lat="64.46320558022815" lon="12.310981308122448" id="-91367">
		<tag k="amenity" v="nursing_home" />
		<tag k="name" v="Grong helse- og omsorgstun" />
		<tag k="ssr:stedsnr" v="1080046" />
	</node>
	<node lat="64.46984555779606" lon="12.206518651428206" id="-91368">
		<tag k="amenity" v="cafe" />
		<tag k="name" v="Nordtun samfunnshus" />
		<tag k="ssr:stedsnr" v="1080047" />
	</node>
	<node lat="64.45512836351583" lon="12.279011916244889" id="-91369">
		<tag k="amenity" v="cafe" />
		<tag k="name" v="Sørheim grendehus" />
		<tag k="ssr:stedsnr" v="1080049" />
	</node>
	<node lat="64.52557176779182" lon="12.428397955599237" id="-91370">
		<tag k="amenity" v="cafe" />
		<tag k="name" v="Haugen grendehus" />
		<tag k="ssr:stedsnr" v="1080050" />
	</node>
	<node lat="64.55207296383712" lon="12.463858774670841" id="-91371">
		<tag k="amenity" v="cafe" />
		<tag k="name" v="Harran samfunnshus" />
		<tag k="ssr:stedsnr" v="1080051" />
	</node>
	<node lat="64.46323321137073" lon="12.314661528626713" id="-91373">
		<tag k="amenity" v="sports_centre" />
		<tag k="name" v="Gronghallen" />
		<tag k="ssr:stedsnr" v="1080060" />
	</node>
	<node lat="64.46233442294779" lon="12.311434872829004" id="-91374">
		<tag k="leisure" v="park" />
		<tag k="name" v="Grong sport- og fritidspark" />
		<tag k="ssr:stedsnr" v="1080062" />
	</node>
	<node lat="64.46640300014609" lon="12.236411941938885" id="-91375">
		<tag k="name" v="Grong næringspark" />
		<tag k="place" v="quarter" />
		<tag k="ssr:stedsnr" v="1080063" />
	</node>
	<node lat="64.4433300689605" lon="12.340718714860095" id="-91376">
		<tag k="amenity" v="kindergarten" />
		<tag k="name" v="Ekker barnehage" />
		<tag k="ssr:stedsnr" v="1079997" />
	</node>
	<node lat="64.45955376151353" lon="12.333848285285045" id="-91377">
		<tag k="amenity" v="kindergarten" />
		<tag k="name" v="Rønningen barnehage" />
		<tag k="ssr:stedsnr" v="1079998" />
	</node>
	<node lat="64.47225830073027" lon="12.20347650002324" id="-91378">
		<tag k="amenity" v="kindergarten" />
		<tag k="name" v="Bergsmo barnehage" />
		<tag k="ssr:stedsnr" v="1080000" />
	</node>
	<node lat="64.46568006973027" lon="12.317114848075635" id="-91379">
		<tag k="alt_name" v="Reintun" />
		<tag k="amenity" v="school" />
		<tag k="name" v="Namdals folkehøgskole" />
		<tag k="ssr:stedsnr" v="1080001" />
	</node>
	<node lat="64.46392080112291" lon="12.31129886299017" id="-91380">
		<tag k="amenity" v="townhall" />
		<tag k="name" v="Grong kommunehus" />
		<tag k="ssr:stedsnr" v="1080002" />
	</node>
</osm>
