<?xml version="1.0" encoding="UTF-8"?>
<osm generator="osmapis" version="0.6">
	<node id="-260096" lat="59.3044944484" lon="8.09359167208">
		<tag k="alt_name" v="Lieplassen" />
		<tag k="name" v="Liplassen" />
		<tag k="place" v="farm" />
		<tag k="ssr:stedsnr" v="230699" />
	</node>
	<node id="-262142" lat="59.2542194408" lon="8.23008055679">
		<tag k="name" v="Nystøyl" />
		<tag k="place" v="locality" />
		<tag k="ssr:stedsnr" v="837848" />
	</node>
	<node id="-260089" lat="59.1631861107" lon="8.27252778605">
		<tag k="name" v="Sandvik" />
		<tag k="place" v="locality" />
		<tag k="ssr:stedsnr" v="230597" />
	</node>
	<node id="-260087" lat="59.1275249988" lon="8.12742221553">
		<tag k="name" v="Skjeri" />
		<tag k="place" v="isolated_dwelling" />
		<tag k="ssr:stedsnr" v="230568" />
	</node>
	<node id="-262129" lat="59.1755472253" lon="8.23806944523">
		<tag k="name" v="Kil" />
		<tag k="place" v="locality" />
		<tag k="ssr:stedsnr" v="837649" />
	</node>
	<node id="-262123" lat="59.1257972213" lon="8.13030000022">
		<tag k="name" v="Kåsa" />
		<tag k="place" v="locality" />
		<tag k="ssr:stedsnr" v="837592" />
	</node>
	<node id="-262118" lat="59.2678638895" lon="8.09511944114">
		<tag k="name" v="Bjørnstad søndre" />
		<tag k="place" v="farm" />
		<tag k="ssr:stedsnr" v="837474" />
	</node>
	<node id="-262103" lat="59.0030249985" lon="8.29438332574">
		<tag k="name" v="Århus" />
		<tag k="place" v="locality" />
		<tag k="ssr:stedsnr" v="837293" />
	</node>
	<node id="-260054" lat="59.1788527773" lon="8.09238333965">
		<tag k="name" v="Moghus søndre" />
		<tag k="place" v="farm" />
		<tag k="ssr:stedsnr" v="229781" />
	</node>
	<node id="-260051" lat="59.0181305588" lon="8.35943055991">
		<tag k="name" v="Skoren" />
		<tag k="place" v="isolated_dwelling" />
		<tag k="ssr:stedsnr" v="229752" />
	</node>
	<node id="-262098" lat="59.008747222" lon="8.27505000275">
		<tag k="name" v="Fjellstad" />
		<tag k="place" v="isolated_dwelling" />
		<tag k="ssr:stedsnr" v="837259" />
	</node>
	<node id="-262090" lat="59.2787888895" lon="8.14254167272">
		<tag k="name" v="Solli" />
		<tag k="place" v="locality" />
		<tag k="ssr:stedsnr" v="837178" />
	</node>
	<node id="-262088" lat="59.2799777756" lon="8.11322223084">
		<tag k="name" v="Vestgarden" />
		<tag k="place" v="locality" />
		<tag k="ssr:stedsnr" v="837133" />
	</node>
	<node id="-262081" lat="59.0926027752" lon="8.28724722484">
		<tag k="name" v="Sandvasshytta" />
		<tag k="place" v="isolated_dwelling" />
		<tag k="ssr:stedsnr" v="836960" />
	</node>
	<node id="-258720" lat="59.2425249973" lon="7.93607499309">
		<tag k="name" v="Metveit, uppigard" />
		<tag k="place" v="farm" />
		<tag k="ssr:stedsnr" v="399997" />
	</node>
	<node id="-262078" lat="59.1112249978" lon="8.30415834017">
		<tag k="name" v="Hågstøyl" />
		<tag k="place" v="locality" />
		<tag k="ssr:stedsnr" v="836771" />
	</node>
	<node id="-262077" lat="59.1381472195" lon="8.1073750018">
		<tag k="name" v="Nordre Momrak" />
		<tag k="place" v="farm" />
		<tag k="ssr:stedsnr" v="836742" />
	</node>
	<node id="-258378" lat="59.3279305538" lon="7.94697222255">
		<tag k="alt_name" v="Buene" />
		<tag k="historic" v="shieling" />
		<tag k="name" v="Buine" />
		<tag k="place" v="locality" />
		<tag k="ssr:stedsnr" v="305998" />
	</node>
	<node id="-260026" lat="59.1311722232" lon="7.79308333498">
		<tag k="name" v="Slåki" />
		<tag k="place" v="isolated_dwelling" />
		<tag k="ssr:stedsnr" v="219966" />
	</node>
	<node id="-260025" lat="59.1595138925" lon="7.80313332743">
		<tag k="name" v="Bjønnebåsen" />
		<tag k="place" v="locality" />
		<tag k="ssr:stedsnr" v="219943" />
	</node>
	<node id="-262071" lat="59.0211388881" lon="8.28002221851">
		<tag k="name" v="Nordre Sundsli" />
		<tag k="place" v="isolated_dwelling" />
		<tag k="ssr:stedsnr" v="836598" />
	</node>
	<node id="-260020" lat="59.3260499955" lon="7.74869722213">
		<tag k="name" v="Gullbu" />
		<tag k="place" v="locality" />
		<tag k="ssr:stedsnr" v="218674" />
	</node>
	<node id="-260019" lat="59.2407583296" lon="8.28863056054">
		<tag k="name" v="Homvasshytta" />
		<tag k="place" v="isolated_dwelling" />
		<tag k="ssr:stedsnr" v="218661" />
	</node>
	<node id="-262060" lat="59.0199999977" lon="8.20877221898">
		<tag k="name" v="Tjønnheihytta" />
		<tag k="place" v="isolated_dwelling" />
		<tag k="ssr:stedsnr" v="834142" />
	</node>
	<node id="-260011" lat="59.2398222244" lon="7.9334805566">
		<tag k="name" v="Haugom" />
		<tag k="place" v="farm" />
		<tag k="ssr:stedsnr" v="217988" />
	</node>
	<node id="-260010" lat="59.245486111" lon="7.89856944196">
		<tag k="name" v="Øygarden" />
		<tag k="place" v="farm" />
		<tag k="ssr:stedsnr" v="217954" />
	</node>
	<node id="-262057" lat="58.9512444472" lon="8.3063027705">
		<tag k="name" v="Fosstøyl" />
		<tag k="place" v="locality" />
		<tag k="ssr:stedsnr" v="834065" />
	</node>
	<node id="-262056" lat="59.0612583369" lon="8.33985554937">
		<tag k="name" v="Holmekollen" />
		<tag k="place" v="isolated_dwelling" />
		<tag k="ssr:stedsnr" v="833089" />
	</node>
	<node id="-259277" lat="59.1527722225" lon="8.19738054935">
		<tag k="name" v="Plassen" />
		<tag k="place" v="isolated_dwelling" />
		<tag k="ssr:stedsnr" v="48395" />
	</node>
	<node id="-260005" lat="59.1789166656" lon="8.03863611441">
		<tag k="name" v="Buine" />
		<tag k="place" v="locality" />
		<tag k="ssr:stedsnr" v="217597" />
	</node>
	<node id="-262052" lat="59.2870361067" lon="7.84556110764">
		<tag k="name" v="Torsstøyl" />
		<tag k="place" v="locality" />
		<tag k="ssr:stedsnr" v="826473" />
	</node>
	<node id="-262047" lat="59.3164027771" lon="7.76752778288">
		<tag k="historic" v="shieling" />
		<tag k="name" v="Bjørkeholta" />
		<tag k="place" v="locality" />
		<tag k="ssr:stedsnr" v="825628" />
	</node>
	<node id="-259905" lat="59.0039222195" lon="8.03724721935">
		<tag k="name" v="Midtgarden" />
		<tag k="place" v="farm" />
		<tag k="ssr:stedsnr" v="184015" />
	</node>
	<node id="-262041" lat="59.2402250004" lon="7.93284444077">
		<tag k="name" v="Metveit, nordre" />
		<tag k="place" v="farm" />
		<tag k="ssr:stedsnr" v="824985" />
	</node>
	<node id="-259054" lat="59.1895765866" lon="8.22952698747">
		<tag k="name" v="Nape" />
		<tag k="place" v="hamlet" />
		<tag k="ssr:stedsnr" v="984142" />
	</node>
	<node id="-259986" lat="59.2459277817" lon="7.92076388833">
		<tag k="name" v="Midtbø" />
		<tag k="place" v="locality" />
		<tag k="ssr:stedsnr" v="217217" />
	</node>
	<node id="-258712" lat="59.1887444429" lon="7.94696666908">
		<tag k="name" v="Midtstøyl" />
		<tag k="place" v="locality" />
		<tag k="ssr:stedsnr" v="399682" />
	</node>
	<node id="-259980" lat="59.2801388878" lon="7.79371388893">
		<tag k="name" v="Sollistøylen" />
		<tag k="place" v="locality" />
		<tag k="ssr:stedsnr" v="217004" />
	</node>
	<node id="-262027" lat="59.236288892" lon="7.97177222581">
		<tag k="name" v="Bondal norigard" />
		<tag k="place" v="farm" />
		<tag k="ssr:stedsnr" v="824590" />
	</node>
	<node id="-259978" lat="59.1961027736" lon="8.08373056223">
		<tag k="name" v="Nordheim" />
		<tag k="place" v="farm" />
		<tag k="ssr:stedsnr" v="216815" />
	</node>
	<node id="-259977" lat="59.1998611084" lon="8.08588334201">
		<tag k="name" v="Verpe" />
		<tag k="place" v="isolated_dwelling" />
		<tag k="ssr:stedsnr" v="216785" />
	</node>
	<node id="-259976" lat="59.236774997" lon="8.2426194532">
		<tag k="name" v="Fiskå" />
		<tag k="place" v="locality" />
		<tag k="ssr:stedsnr" v="217112" />
	</node>
	<node id="-260983" lat="59.2400444405" lon="8.21583333762">
		<tag k="name" v="Sagstoga" />
		<tag k="place" v="isolated_dwelling" />
		<tag k="ssr:stedsnr" v="594817" />
	</node>
	<node id="-259972" lat="59.2442083342" lon="7.950297221">
		<tag k="name" v="Metveitstøylen" />
		<tag k="place" v="locality" />
		<tag k="ssr:stedsnr" v="216492" />
	</node>
	<node id="-262017" lat="59.2886499981" lon="7.76510277259">
		<tag k="name" v="Skålane" />
		<tag k="place" v="locality" />
		<tag k="ssr:stedsnr" v="824439" />
	</node>
	<node id="-259967" lat="59.2398166653" lon="8.09733888738">
		<tag k="name" v="Askland" />
		<tag k="place" v="farm" />
		<tag k="ssr:stedsnr" v="216376" />
	</node>
	<node id="-262011" lat="59.244705554" lon="7.9032055563">
		<tag k="name" v="Liæ sørgård" />
		<tag k="place" v="farm" />
		<tag k="ssr:stedsnr" v="824196" />
	</node>
	<node id="-262007" lat="59.241336108" lon="7.83083611884">
		<tag k="historic" v="shieling" />
		<tag k="name" v="Uvlistøylen" />
		<tag k="place" v="locality" />
		<tag k="ssr:stedsnr" v="824181" />
	</node>
	<node id="-262002" lat="59.2216055575" lon="7.8084777773">
		<tag k="name" v="Gaukåsstøylen" />
		<tag k="place" v="locality" />
		<tag k="ssr:stedsnr" v="824125" />
	</node>
	<node id="-259952" lat="59.1771194411" lon="8.05030833361">
		<tag k="name" v="Bukti" />
		<tag k="place" v="isolated_dwelling" />
		<tag k="ssr:stedsnr" v="209447" />
	</node>
	<node id="-261999" lat="59.2752722211" lon="7.76806666356">
		<tag k="name" v="Kallstogvikja" />
		<tag k="place" v="farm" />
		<tag k="ssr:stedsnr" v="824015" />
	</node>
	<node id="-261995" lat="59.2161527779" lon="8.00698333397">
		<tag k="historic" v="shieling" />
		<tag k="name" v="Røynbustøylen" />
		<tag k="place" v="locality" />
		<tag k="ssr:stedsnr" v="823887" />
	</node>
	<node id="-261994" lat="59.2145583353" lon="8.04730555973">
		<tag k="name" v="Snoregjil" />
		<tag k="place" v="locality" />
		<tag k="ssr:stedsnr" v="823886" />
	</node>
	<node id="-261993" lat="59.1892999972" lon="8.08804166406">
		<tag k="name" v="Bolstad" />
		<tag k="place" v="isolated_dwelling" />
		<tag k="ssr:stedsnr" v="823768" />
	</node>
	<node id="-261992" lat="59.2070527762" lon="7.94006111194">
		<tag k="name" v="Nissebu" />
		<tag k="place" v="isolated_dwelling" />
		<tag k="ssr:stedsnr" v="823557" />
	</node>
	<node id="-261990" lat="59.2441138922" lon="7.96561389246">
		<tag k="name" v="Fjellstøyl" />
		<tag k="place" v="locality" />
		<tag k="ssr:stedsnr" v="823486" />
	</node>
	<node id="-261989" lat="59.2082222238" lon="8.06096944655">
		<tag k="name" v="Presteåker" />
		<tag k="place" v="isolated_dwelling" />
		<tag k="ssr:stedsnr" v="823481" />
	</node>
	<node id="-261987" lat="59.2136000001" lon="8.05813610376">
		<tag k="name" v="Skåren" />
		<tag k="place" v="farm" />
		<tag k="ssr:stedsnr" v="823479" />
	</node>
	<node id="-261986" lat="59.2367805535" lon="7.9661444508">
		<tag k="name" v="Vødd" />
		<tag k="place" v="locality" />
		<tag k="ssr:stedsnr" v="823477" />
	</node>
	<node id="-259936" lat="59.3007749974" lon="8.04157777865">
		<tag k="name" v="Fossås" />
		<tag k="place" v="farm" />
		<tag k="ssr:stedsnr" v="184951" />
	</node>
	<node id="-259935" lat="59.3041111146" lon="7.99968611102">
		<tag k="alt_name" v="Midtli" />
		<tag k="name" v="Midli" />
		<tag k="place" v="locality" />
		<tag k="ssr:stedsnr" v="184949" />
	</node>
	<node id="-259934" lat="59.3177916685" lon="7.89188888274">
		<tag k="alt_name" v="Midtstøyl" />
		<tag k="name" v="Midstøyl" />
		<tag k="old_name" v="Midstøl" />
		<tag k="place" v="locality" />
		<tag k="ssr:stedsnr" v="184928" />
	</node>
	<node id="-259045" lat="59.16468757" lon="7.95687727519">
		<tag k="fixme" v="consider place=hamlet" />
		<tag k="name" v="Store Rui" />
		<tag k="place" v="farm" />
		<tag k="ssr:stedsnr" v="984095" />
	</node>
	<node id="-259932" lat="59.287441666" lon="8.04507778573">
		<tag k="name" v="Tveit" />
		<tag k="place" v="farm" />
		<tag k="ssr:stedsnr" v="184887" />
	</node>
	<node id="-261979" lat="59.1873027768" lon="8.10597222136">
		<tag k="name" v="Lundi" />
		<tag k="place" v="isolated_dwelling" />
		<tag k="ssr:stedsnr" v="823193" />
	</node>
	<node id="-259930" lat="59.2532638892" lon="8.06276111178">
		<tag k="alt_name" v="Besjord" />
		<tag k="fixme" v="consider place=hamlet" />
		<tag k="name" v="Bessjord" />
		<tag k="place" v="farm" />
		<tag k="ssr:stedsnr" v="184854" />
	</node>
	<node id="-259928" lat="59.326674999" lon="8.14462499837">
		<tag k="alt_name" v="Haugene" />
		<tag k="fixme" v="consider place=hamlet" />
		<tag k="name" v="Haugane" />
		<tag k="place" v="farm" />
		<tag k="ssr:stedsnr" v="184341" />
	</node>
	<node id="-259925" lat="59.3206222223" lon="8.13928056231">
		<tag k="fixme" v="consider place=hamlet" />
		<tag k="name" v="Hauggrend" />
		<tag k="place" v="village" />
		<tag k="ssr:stedsnr" v="184194" />
	</node>
	<node id="-259924" lat="59.3189444468" lon="8.13592778327">
		<tag k="name" v="Moen" />
		<tag k="place" v="farm" />
		<tag k="ssr:stedsnr" v="184192" />
	</node>
	<node id="-259923" lat="59.1334250041" lon="7.99621945023">
		<tag k="name" v="Kleivane" />
		<tag k="place" v="farm" />
		<tag k="ssr:stedsnr" v="184432" />
	</node>
	<node id="-259922" lat="59.1329638868" lon="7.80561111521">
		<tag k="alt_name" v="Hedderstøylen" />
		<tag k="name" v="Helleren" />
		<tag k="old_name" v="Hedderstølen" />
		<tag k="place" v="locality" />
		<tag k="ssr:stedsnr" v="184418" />
	</node>
	<node id="-259919" lat="59.1498166678" lon="8.17933054725">
		<tag k="name" v="Lisland" />
		<tag k="place" v="farm" />
		<tag k="ssr:stedsnr" v="184085" />
	</node>
	<node id="-259913" lat="59.3058472183" lon="8.10086666139">
		<tag k="alt_name" v="Grånli" />
		<tag k="name" v="Granli" />
		<tag k="place" v="isolated_dwelling" />
		<tag k="ssr:stedsnr" v="184151" />
	</node>
	<node id="-261960" lat="59.3179472243" lon="7.77914444419">
		<tag k="alt_name" v="Kjøpsvasstøylane" />
		<tag k="historic" v="shieling" />
		<tag k="loc_name" v="Kjøpvasstøylane" />
		<tag k="name" v="Kjøpsvasstøylen" />
		<tag k="old_name" v="Kjøpvasstølen" />
		<tag k="place" v="locality" />
		<tag k="ssr:stedsnr" v="791999" />
	</node>
	<node id="-261958" lat="59.3284472184" lon="7.85081944763">
		<tag k="name" v="Heknenystøyl" />
		<tag k="old_name" v="Heknenystøl" />
		<tag k="place" v="isolated_dwelling" />
		<tag k="ssr:stedsnr" v="791995" />
	</node>
	<node id="-259959" lat="59.2493500018" lon="8.07839999224">
		<tag k="name" v="Kleiv" />
		<tag k="place" v="locality" />
		<tag k="ssr:stedsnr" v="210035" />
	</node>
	<node id="-261955" lat="59.0006888881" lon="8.29210000195">
		<tag k="alt_name" v="Kilan" />
		<tag k="fixme" v="consider place=hamlet" />
		<tag k="name" v="Kiland" />
		<tag k="place" v="farm" />
		<tag k="ssr:stedsnr" v="791979" />
	</node>
	<node id="-261954" lat="59.0017583352" lon="8.27795278459">
		<tag k="name" v="Saurnes" />
		<tag k="place" v="isolated_dwelling" />
		<tag k="ssr:stedsnr" v="791978" />
	</node>
	<node id="-261953" lat="59.0070027807" lon="8.27916666499">
		<tag k="name" v="Flaten" />
		<tag k="place" v="isolated_dwelling" />
		<tag k="ssr:stedsnr" v="791968" />
	</node>
	<node id="-259903" lat="59.0340638847" lon="7.97780277118">
		<tag k="alt_name" v="Birtestøylen" />
		<tag k="historic" v="shieling" />
		<tag k="name" v="Birte" />
		<tag k="old_name" v="Birtestølen" />
		<tag k="place" v="locality" />
		<tag k="ssr:stedsnr" v="183440" />
	</node>
	<node id="-259902" lat="59.0433722225" lon="8.04313333742">
		<tag k="name" v="Buvik" />
		<tag k="place" v="locality" />
		<tag k="ssr:stedsnr" v="183433" />
	</node>
	<node id="-261949" lat="59.3218305545" lon="7.85007777883">
		<tag k="name" v="Hovdestøyl" />
		<tag k="old_name" v="Hovdestøl" />
		<tag k="place" v="isolated_dwelling" />
		<tag k="ssr:stedsnr" v="791930" />
	</node>
	<node id="-259900" lat="59.0478666677" lon="7.98213334071">
		<tag k="alt_name" v="Fisketjørnstøylen" />
		<tag k="name" v="Fisketjønnstøylen" />
		<tag k="old_name" v="Fisketjørnstøl" />
		<tag k="place" v="locality" />
		<tag k="ssr:stedsnr" v="183425" />
	</node>
	<node id="-261947" lat="59.2737916627" lon="7.83999166293">
		<tag k="alt_name" v="Listøyl" />
		<tag k="name" v="Listøylen" />
		<tag k="old_name" v="Listølen" />
		<tag k="place" v="locality" />
		<tag k="ssr:stedsnr" v="791913" />
	</node>
	<node id="-261946" lat="59.2880749993" lon="7.86040834113">
		<tag k="alt_name" v="Leivdalen" />
		<tag k="name" v="Leivsdalen" />
		<tag k="place" v="isolated_dwelling" />
		<tag k="ssr:stedsnr" v="791907" />
	</node>
	<node id="-261945" lat="59.2595611129" lon="8.07698888778">
		<tag k="name" v="Rudvang" />
		<tag k="place" v="farm" />
		<tag k="ssr:stedsnr" v="791881" />
	</node>
	<node id="-259380" lat="58.9816027746" lon="7.9660666743">
		<tag k="alt_name" v="Selbustøyl" />
		<tag k="name" v="Selbustøl" />
		<tag k="place" v="locality" />
		<tag k="ssr:stedsnr" v="62626" />
	</node>
	<node id="-261942" lat="59.2787138885" lon="8.11402499258">
		<tag k="alt_name" v="Norli" />
		<tag k="name" v="Nordli" />
		<tag k="place" v="farm" />
		<tag k="ssr:stedsnr" v="791216" />
	</node>
	<node id="-261941" lat="59.2689833296" lon="8.14249165882">
		<tag k="alt_name" v="Høghovden" />
		<tag k="name" v="Hæghovden" />
		<tag k="place" v="isolated_dwelling" />
		<tag k="ssr:stedsnr" v="791205" />
	</node>
	<node id="-261940" lat="59.0792750022" lon="8.2458305561">
		<tag k="name" v="Vik" />
		<tag k="place" v="farm" />
		<tag k="ssr:stedsnr" v="791201" />
	</node>
	<node id="-261939" lat="59.2530194489" lon="8.19651388337">
		<tag k="fixme" v="consider place=hamlet" />
		<tag k="name" v="Rolleivstad" />
		<tag k="place" v="farm" />
		<tag k="ssr:stedsnr" v="791195" />
	</node>
	<node id="-259890" lat="59.2489055567" lon="8.03779722433">
		<tag k="alt_name" v="Haga nordre" />
		<tag k="fixme" v="consider place=hamlet" />
		<tag k="name" v="Haga" />
		<tag k="place" v="farm" />
		<tag k="ssr:stedsnr" v="183275" />
	</node>
	<node id="-261937" lat="59.260844448" lon="8.34264444643">
		<tag k="alt_name" v="Finnflata" />
		<tag k="name" v="Finnfloti" />
		<tag k="place" v="isolated_dwelling" />
		<tag k="ssr:stedsnr" v="791192" />
	</node>
	<node id="-261935" lat="59.3240444466" lon="8.14375833284">
		<tag k="alt_name" v="Midtgarden" />
		<tag k="fixme" v="consider place=hamlet" />
		<tag k="name" v="Midgarden" />
		<tag k="place" v="farm" />
		<tag k="ssr:stedsnr" v="791187" />
	</node>
	<node id="-261934" lat="59.3205305582" lon="8.14699444308">
		<tag k="amenity" v="school" />
		<tag k="name" v="Foldsæ utdanningssenter" />
		<tag k="old_name" v="Foldsæ landbruksskole;Foldsæ" />
		<tag k="ssr:stedsnr" v="791186" />
	</node>
	<node id="-261933" lat="59.3178777799" lon="8.15394444518">
		<tag k="name" v="Nedrebø" />
		<tag k="place" v="farm" />
		<tag k="ssr:stedsnr" v="791171" />
	</node>
	<node id="-261930" lat="59.3012000007" lon="8.10466111003">
		<tag k="fixme" v="consider place=hamlet" />
		<tag k="name" v="Brokke" />
		<tag k="place" v="farm" />
		<tag k="ssr:stedsnr" v="791146" />
	</node>
	<node id="-261929" lat="59.2943222252" lon="8.10422499508">
		<tag k="name" v="Dalen" />
		<tag k="place" v="farm" />
		<tag k="ssr:stedsnr" v="791141" />
	</node>
	<node id="-261928" lat="59.3082777772" lon="8.23555555344">
		<tag k="name" v="Håvestøyl" />
		<tag k="place" v="locality" />
		<tag k="ssr:stedsnr" v="791130" />
	</node>
	<node id="-261926" lat="59.0210749987" lon="8.34708055107">
		<tag k="alt_name" v="Krokvasstøylen" />
		<tag k="name" v="Krokvasstøl" />
		<tag k="place" v="isolated_dwelling" />
		<tag k="ssr:stedsnr" v="790986" />
	</node>
	<node id="-259873" lat="59.2862666687" lon="7.98481389293">
		<tag k="name" v="Byggstøyl" />
		<tag k="place" v="locality" />
		<tag k="ssr:stedsnr" v="171278" />
	</node>
	<node id="-261918" lat="59.0424277807" lon="7.93296388567">
		<tag k="name" v="Nuten" />
		<tag k="place" v="locality" />
		<tag k="ssr:stedsnr" v="790497" />
	</node>
	<node id="-258693" lat="59.2038444451" lon="7.8218027779">
		<tag k="name" v="Nystøyl" />
		<tag k="place" v="locality" />
		<tag k="ssr:stedsnr" v="399328" />
	</node>
	<node id="-261916" lat="59.0641472204" lon="7.94181389034">
		<tag k="name" v="Fjellheim" />
		<tag k="place" v="farm" />
		<tag k="ssr:stedsnr" v="790466" />
	</node>
	<node id="-259862" lat="59.2908388875" lon="7.94380278387">
		<tag k="name" v="Nystøyl" />
		<tag k="place" v="locality" />
		<tag k="ssr:stedsnr" v="170665" />
	</node>
	<node id="-261909" lat="59.1746805532" lon="8.08969999196">
		<tag k="name" v="Landvik" />
		<tag k="place" v="isolated_dwelling" />
		<tag k="ssr:stedsnr" v="790374" />
	</node>
	<node id="-261906" lat="59.2091722214" lon="7.92767500173">
		<tag k="alt_name" v="Votnæ" />
		<tag k="name" v="Votni" />
		<tag k="place" v="locality" />
		<tag k="ssr:stedsnr" v="790316" />
	</node>
	<node id="-259855" lat="59.2939027778" lon="8.11472499431">
		<tag k="fixme" v="consider place=hamlet" />
		<tag k="name" v="Nordre Veum" />
		<tag k="place" v="farm" />
		<tag k="ssr:stedsnr" v="170095" />
	</node>
	<node id="-261898" lat="59.1032166631" lon="8.21897777604">
		<tag k="name" v="Brautestøl" />
		<tag k="place" v="locality" />
		<tag k="ssr:stedsnr" v="790147" />
	</node>
	<node id="-261893" lat="59.1766361142" lon="8.17561110955">
		<tag k="alt_name" v="Hønestøyl" />
		<tag k="historic" v="shieling" />
		<tag k="name" v="Hønestøl" />
		<tag k="place" v="locality" />
		<tag k="ssr:stedsnr" v="790055" />
	</node>
	<node id="-259844" lat="59.2486944409" lon="8.17714445006">
		<tag k="name" v="Sunnstøyl" />
		<tag k="place" v="locality" />
		<tag k="ssr:stedsnr" v="169912" />
	</node>
	<node id="-261890" lat="59.1986999964" lon="8.10071666016">
		<tag k="name" v="Nyli" />
		<tag k="place" v="farm" />
		<tag k="ssr:stedsnr" v="790035" />
	</node>
	<node id="-261889" lat="59.1945444479" lon="8.10838054931">
		<tag k="alt_name" v="Nordgarden" />
		<tag k="name" v="Nordgard" />
		<tag k="place" v="farm" />
		<tag k="ssr:stedsnr" v="790033" />
	</node>
	<node id="-261886" lat="58.9820805563" lon="8.27734167106">
		<tag k="name" v="Åsen" />
		<tag k="place" v="locality" />
		<tag k="ssr:stedsnr" v="789897" />
	</node>
	<node id="-261883" lat="58.9969861144" lon="8.26700276993">
		<tag k="name" v="Gjerli" />
		<tag k="place" v="isolated_dwelling" />
		<tag k="ssr:stedsnr" v="789863" />
	</node>
	<node id="-261878" lat="59.0806666681" lon="7.96499444389">
		<tag k="name" v="Gjevarbu" />
		<tag k="place" v="isolated_dwelling" />
		<tag k="ssr:stedsnr" v="778198" />
	</node>
	<node id="-258345" lat="59.1895888862" lon="8.21326666346">
		<tag k="alt_name" v="Austre Nape" />
		<tag k="name" v="Nape" />
		<tag k="place" v="farm" />
		<tag k="ssr:stedsnr" v="305077" />
	</node>
	<node id="-259828" lat="59.3077555549" lon="8.22079166098">
		<tag k="name" v="Myrsenden" />
		<tag k="place" v="locality" />
		<tag k="ssr:stedsnr" v="169481" />
	</node>
	<node id="-259825" lat="59.2956611081" lon="8.25091389343">
		<tag k="name" v="Luffendal" />
		<tag k="place" v="locality" />
		<tag k="ssr:stedsnr" v="169459" />
	</node>
	<node id="-259823" lat="59.1910527739" lon="8.21781110939">
		<tag k="name" v="Midtgarden" />
		<tag k="place" v="farm" />
		<tag k="ssr:stedsnr" v="169450" />
	</node>
	<node id="-261868" lat="59.2993944456" lon="8.00052499135">
		<tag k="name" v="Flottveit" />
		<tag k="place" v="locality" />
		<tag k="ssr:stedsnr" v="777836" />
	</node>
	<node id="-261864" lat="59.3247888848" lon="7.91118056151">
		<tag k="name" v="Aslestad nigard" />
		<tag k="place" v="farm" />
		<tag k="ssr:stedsnr" v="777589" />
	</node>
	<node id="-261180" lat="59.174088888" lon="8.04006667525">
		<tag k="alt_name" v="Nordre Vik" />
		<tag k="fixme" v="consider place=hamlet" />
		<tag k="name" v="Vik norigard" />
		<tag k="place" v="farm" />
		<tag k="ssr:stedsnr" v="642614" />
	</node>
	<node id="-261851" lat="59.101366669" lon="7.84806389482">
		<tag k="name" v="Tussehaugen" />
		<tag k="place" v="isolated_dwelling" />
		<tag k="ssr:stedsnr" v="777150" />
	</node>
	<node id="-261848" lat="59.3014805573" lon="7.92960277035">
		<tag k="name" v="Nevstøyl" />
		<tag k="place" v="locality" />
		<tag k="ssr:stedsnr" v="777027" />
	</node>
	<node id="-261835" lat="59.2410305522" lon="8.20836389659">
		<tag k="name" v="Fjellstøyl" />
		<tag k="place" v="locality" />
		<tag k="ssr:stedsnr" v="776807" />
	</node>
	<node id="-261834" lat="59.2397138851" lon="8.20283332765">
		<tag k="name" v="Fjellstøyl" />
		<tag k="place" v="locality" />
		<tag k="ssr:stedsnr" v="776804" />
	</node>
	<node id="-259019" lat="59.3237805554" lon="8.15219444505">
		<tag k="name" v="Bergland" />
		<tag k="place" v="isolated_dwelling" />
		<tag k="ssr:stedsnr" v="898892" />
	</node>
	<node id="-259776" lat="59.0289250037" lon="8.20238611637">
		<tag k="name" v="Stråndestøylen" />
		<tag k="place" v="locality" />
		<tag k="ssr:stedsnr" v="166140" />
	</node>
	<node id="-259773" lat="59.0609361091" lon="8.33879166958">
		<tag k="name" v="Røykbu" />
		<tag k="place" v="isolated_dwelling" />
		<tag k="ssr:stedsnr" v="166095" />
	</node>
	<node id="-259766" lat="59.3174777803" lon="7.75446111766">
		<tag k="name" v="Bøsstjønnstøylen" />
		<tag k="place" v="locality" />
		<tag k="ssr:stedsnr" v="157655" />
	</node>
	<node id="-259765" lat="59.2368055545" lon="8.27396111764">
		<tag k="name" v="Stallane" />
		<tag k="place" v="locality" />
		<tag k="ssr:stedsnr" v="157651" />
	</node>
	<node id="-259761" lat="59.2701916644" lon="7.83608056109">
		<tag k="historic" v="shieling" />
		<tag k="name" v="Mørktjønnstøylen" />
		<tag k="place" v="locality" />
		<tag k="ssr:stedsnr" v="157566" />
	</node>
	<node id="-259759" lat="59.269816671" lon="7.84075000086">
		<tag k="historic" v="shieling" />
		<tag k="name" v="Nystøyl" />
		<tag k="place" v="locality" />
		<tag k="ssr:stedsnr" v="157552" />
	</node>
	<node id="-261806" lat="59.2892916654" lon="8.10802222196">
		<tag k="name" v="Søvei nordre" />
		<tag k="place" v="locality" />
		<tag k="ssr:stedsnr" v="776220" />
	</node>
	<node id="-262429" lat="59.2400888902" lon="8.02989722757">
		<tag k="name" v="Graver øvre" />
		<tag k="place" v="farm" />
		<tag k="ssr:stedsnr" v="945343" />
	</node>
	<node id="-259755" lat="59.1988722262" lon="7.80616944013">
		<tag k="name" v="Valalia" />
		<tag k="place" v="isolated_dwelling" />
		<tag k="ssr:stedsnr" v="157249" />
	</node>
	<node id="-261801" lat="59.2741833369" lon="8.10783333477">
		<tag k="name" v="Norskog" />
		<tag k="place" v="locality" />
		<tag k="ssr:stedsnr" v="776147" />
	</node>
	<node id="-261799" lat="58.9912833316" lon="8.3055111175">
		<tag k="name" v="Ångåstangen" />
		<tag k="place" v="isolated_dwelling" />
		<tag k="ssr:stedsnr" v="776061" />
	</node>
	<node id="-259749" lat="59.2074388872" lon="7.80437778558">
		<tag k="name" v="Haugebreihomstøylen" />
		<tag k="place" v="locality" />
		<tag k="ssr:stedsnr" v="157093" />
	</node>
	<node id="-261794" lat="59.0190111132" lon="8.27832221914">
		<tag k="name" v="Søndre Sundsli" />
		<tag k="place" v="farm" />
		<tag k="ssr:stedsnr" v="775587" />
	</node>
	<node id="-261792" lat="59.0800305543" lon="8.24436389441">
		<tag k="name" v="Nordstog Vik" />
		<tag k="place" v="farm" />
		<tag k="ssr:stedsnr" v="775517" />
	</node>
	<node id="-261789" lat="59.0630444483" lon="8.26127499519">
		<tag k="name" v="Nigard" />
		<tag k="place" v="farm" />
		<tag k="ssr:stedsnr" v="775504" />
	</node>
	<node id="-259738" lat="59.1924805579" lon="8.00058333895">
		<tag k="name" v="Gausvassbui" />
		<tag k="place" v="locality" />
		<tag k="ssr:stedsnr" v="156552" />
	</node>
	<node id="-258671" lat="59.1918944482" lon="8.08758055718">
		<tag k="name" v="Dølen" />
		<tag k="place" v="isolated_dwelling" />
		<tag k="ssr:stedsnr" v="397830" />
	</node>
	<node id="-258329" lat="59.0604138897" lon="7.98046667099">
		<tag k="fixme" v="consider place=hamlet" />
		<tag k="name" v="Tovsli" />
		<tag k="place" v="farm" />
		<tag k="ssr:stedsnr" v="304461" />
	</node>
	<node id="-261780" lat="59.1478805531" lon="8.13013334206">
		<tag k="name" v="Midtdammen" />
		<tag k="place" v="isolated_dwelling" />
		<tag k="ssr:stedsnr" v="775275" />
	</node>
	<node id="-259722" lat="59.2469194414" lon="7.89802222304">
		<tag k="name" v="Haugane" />
		<tag k="place" v="farm" />
		<tag k="ssr:stedsnr" v="156154" />
	</node>
	<node id="-261769" lat="59.0010777811" lon="8.29236945018">
		<tag k="name" v="Nistog Kiland" />
		<tag k="place" v="farm" />
		<tag k="ssr:stedsnr" v="776349" />
	</node>
	<node id="-259716" lat="59.2036472184" lon="8.10095554782">
		<tag k="name" v="Nyland" />
		<tag k="place" v="isolated_dwelling" />
		<tag k="ssr:stedsnr" v="155826" />
	</node>
	<node id="-259715" lat="59.2046416637" lon="8.09968611084">
		<tag k="name" v="Rydland" />
		<tag k="place" v="isolated_dwelling" />
		<tag k="ssr:stedsnr" v="155818" />
	</node>
	<node id="-259714" lat="59.2219444452" lon="8.09418054728">
		<tag k="name" v="Liarheim" />
		<tag k="place" v="farm" />
		<tag k="ssr:stedsnr" v="155509" />
	</node>
	<node id="-258414" lat="59.2035027798" lon="8.09588056356">
		<tag k="name" v="Stykket" />
		<tag k="place" v="isolated_dwelling" />
		<tag k="ssr:stedsnr" v="337834" />
	</node>
	<node id="-259712" lat="59.2072499977" lon="8.08662499483">
		<tag k="name" v="Furuly" />
		<tag k="place" v="isolated_dwelling" />
		<tag k="ssr:stedsnr" v="155476" />
	</node>
	<node id="-259711" lat="59.2382694423" lon="8.096441672">
		<tag k="name" v="Smeland" />
		<tag k="place" v="farm" />
		<tag k="ssr:stedsnr" v="155396" />
	</node>
	<node id="-259709" lat="59.2347638909" lon="8.12318611298">
		<tag k="historic" v="shieling" />
		<tag k="name" v="Evenstad" />
		<tag k="place" v="locality" />
		<tag k="ssr:stedsnr" v="155325" />
	</node>
	<node id="-262249" lat="59.2640638884" lon="8.17348610749">
		<tag k="name" v="Midstøyl" />
		<tag k="place" v="isolated_dwelling" />
		<tag k="ssr:stedsnr" v="852224" />
	</node>
	<node id="-261752" lat="59.2539749989" lon="8.30300000339">
		<tag k="name" v="Godokk" />
		<tag k="place" v="locality" />
		<tag k="ssr:stedsnr" v="764659" />
	</node>
	<node id="-261751" lat="59.2570944466" lon="7.83429444153">
		<tag k="name" v="Normanndalsbua" />
		<tag k="place" v="locality" />
		<tag k="ssr:stedsnr" v="764592" />
	</node>
	<node id="-261750" lat="59.2057888891" lon="7.79677499756">
		<tag k="historic" v="shieling" />
		<tag k="name" v="Breihomstøylen" />
		<tag k="place" v="locality" />
		<tag k="ssr:stedsnr" v="764266" />
	</node>
	<node id="-261747" lat="59.2393333313" lon="7.93441667099">
		<tag k="name" v="Metveit, søndre" />
		<tag k="place" v="farm" />
		<tag k="ssr:stedsnr" v="763983" />
	</node>
	<node id="-259347" lat="59.184047218" lon="8.09364444217">
		<tag k="name" v="Folkestadbyen" />
		<tag k="place" v="quarter" />
		<tag k="ssr:stedsnr" v="59981" />
	</node>
	<node id="-261742" lat="59.1877638877" lon="7.95432778003">
		<tag k="name" v="Grimbu" />
		<tag k="place" v="isolated_dwelling" />
		<tag k="ssr:stedsnr" v="763740" />
	</node>
	<node id="-261176" lat="59.1996750034" lon="8.01465833232">
		<tag k="name" v="Stemtjønnhytta" />
		<tag k="old_name" v="Stemmtjønnhytta" />
		<tag k="place" v="isolated_dwelling" />
		<tag k="ssr:stedsnr" v="642558" />
	</node>
	<node id="-262418" lat="59.235033337" lon="7.98356110805">
		<tag k="name" v="Vegheim" />
		<tag k="place" v="isolated_dwelling" />
		<tag k="ssr:stedsnr" v="944553" />
	</node>
	<node id="-258663" lat="59.2328833371" lon="8.09951666301">
		<tag k="name" v="Annbjønnbrokka" />
		<tag k="place" v="locality" />
		<tag k="ssr:stedsnr" v="397455" />
	</node>
	<node id="-259688" lat="59.3235722232" lon="7.86161110493">
		<tag k="alt_name" v="Lisleli" />
		<tag k="name" v="Lisli" />
		<tag k="place" v="locality" />
		<tag k="ssr:stedsnr" v="123951" />
	</node>
	<node id="-259687" lat="59.2567638912" lon="7.73760277874">
		<tag k="alt_name" v="Øytjørnstøyl" />
		<tag k="name" v="Øytjønnstøylen" />
		<tag k="old_name" v="Øytjørnstøl" />
		<tag k="place" v="locality" />
		<tag k="ssr:stedsnr" v="123950" />
	</node>
	<node id="-259686" lat="59.2606666708" lon="7.83066943637">
		<tag k="alt_name" v="Rekfjellstølen;Rekedalsstøylen" />
		<tag k="name" v="Rekefjellstøylen" />
		<tag k="place" v="locality" />
		<tag k="ssr:stedsnr" v="123947" />
	</node>
	<node id="-258420" lat="59.2472083312" lon="7.9009805546">
		<tag k="name" v="Midli" />
		<tag k="place" v="locality" />
		<tag k="ssr:stedsnr" v="338130" />
	</node>
	<node id="-261731" lat="59.2139222251" lon="8.16841389594">
		<tag k="name" v="Steanhytta" />
		<tag k="place" v="isolated_dwelling" />
		<tag k="ssr:stedsnr" v="763506" />
	</node>
	<node id="-259682" lat="59.1469111156" lon="8.05323056408">
		<tag k="name" v="Fardal" />
		<tag k="place" v="isolated_dwelling" />
		<tag k="ssr:stedsnr" v="123449" />
	</node>
	<node id="-261729" lat="59.2813999986" lon="7.75056945118">
		<tag k="name" v="Krokstøyl" />
		<tag k="place" v="locality" />
		<tag k="ssr:stedsnr" v="763456" />
	</node>
	<node id="-262416" lat="59.2325694435" lon="8.09176110657">
		<tag k="name" v="Bjørge" />
		<tag k="place" v="farm" />
		<tag k="ssr:stedsnr" v="944459" />
	</node>
	<node id="-259678" lat="59.2255416699" lon="8.09215278276">
		<tag k="fixme" v="consider place=hamlet" />
		<tag k="name" v="Lunden" />
		<tag k="place" v="farm" />
		<tag k="ssr:stedsnr" v="123364" />
	</node>
	<node id="-259676" lat="59.224394443" lon="8.09353056032">
		<tag k="alt_name" v="Lunden søndre" />
		<tag k="name" v="Lunden" />
		<tag k="place" v="farm" />
		<tag k="ssr:stedsnr" v="123302" />
	</node>
	<node id="-262414" lat="59.2470527813" lon="8.09544444023">
		<tag k="fixme" v="consider place=hamlet" />
		<tag k="name" v="Gryte søndre" />
		<tag k="place" v="farm" />
		<tag k="ssr:stedsnr" v="944419" />
	</node>
	<node id="-261713" lat="59.2231305515" lon="7.94534999381">
		<tag k="name" v="Budalsbua" />
		<tag k="place" v="locality" />
		<tag k="ssr:stedsnr" v="762874" />
	</node>
	<node id="-259664" lat="59.171888887" lon="8.11991666099">
		<tag k="alt_name" v="Kanekro" />
		<tag k="name" v="Kanebu" />
		<tag k="place" v="isolated_dwelling" />
		<tag k="ssr:stedsnr" v="123079" />
	</node>
	<node id="-261711" lat="59.1885194459" lon="8.08841665994">
		<tag k="name" v="Jørundland" />
		<tag k="place" v="isolated_dwelling" />
		<tag k="ssr:stedsnr" v="762815" />
	</node>
	<node id="-261710" lat="59.1864694483" lon="8.08635278249">
		<tag k="amenity" v="school" />
		<tag k="name" v="Gimle skule" />
		<tag k="ssr:stedsnr" v="762812" />
	</node>
	<node id="-262413" lat="59.2498111123" lon="8.07620556413">
		<tag k="name" v="Granheim" />
		<tag k="place" v="farm" />
		<tag k="ssr:stedsnr" v="944417" />
	</node>
	<node id="-261708" lat="59.2388583346" lon="7.93764722076">
		<tag k="name" v="Sørum" />
		<tag k="place" v="isolated_dwelling" />
		<tag k="ssr:stedsnr" v="762536" />
	</node>
	<node id="-261707" lat="59.2343444485" lon="7.98728332821">
		<tag k="name" v="Brattland" />
		<tag k="place" v="farm" />
		<tag k="ssr:stedsnr" v="762535" />
	</node>
	<node id="-259654" lat="58.9589888911" lon="8.32530556127">
		<tag k="name" v="Drangstveit" />
		<tag k="place" v="farm" />
		<tag k="ssr:stedsnr" v="122893" />
	</node>
	<node id="-261701" lat="59.2319666687" lon="8.01479444239">
		<tag k="name" v="Kåsa sør" />
		<tag k="place" v="farm" />
		<tag k="ssr:stedsnr" v="762281" />
	</node>
	<node id="-261698" lat="59.1903083317" lon="8.10895833576">
		<tag k="name" v="Sitje nordre" />
		<tag k="place" v="farm" />
		<tag k="ssr:stedsnr" v="762191" />
	</node>
	<node id="-259649" lat="59.1536194415" lon="7.87646388795">
		<tag k="alt_name" v="Nørdsteli" />
		<tag k="historic" v="shieling" />
		<tag k="name" v="Nørstelistøylen" />
		<tag k="place" v="locality" />
		<tag k="ssr:stedsnr" v="122399" />
	</node>
	<node id="-259648" lat="59.1615861119" lon="8.03953334043">
		<tag k="name" v="Ålandsli" />
		<tag k="place" v="farm" />
		<tag k="ssr:stedsnr" v="122398" />
	</node>
	<node id="-261695" lat="59.2227416702" lon="8.13098611906">
		<tag k="historic" v="shieling" />
		<tag k="name" v="Fonnstøyl" />
		<tag k="place" v="locality" />
		<tag k="ssr:stedsnr" v="762060" />
	</node>
	<node id="-261694" lat="59.2269583336" lon="8.09212499838">
		<tag k="name" v="Jonsborg" />
		<tag k="place" v="farm" />
		<tag k="ssr:stedsnr" v="761603" />
	</node>
	<node id="-259645" lat="59.1801777774" lon="7.79480278168">
		<tag k="fixme" v="consider place=hamlet" />
		<tag k="name" v="Ramsvatn" />
		<tag k="place" v="farm" />
		<tag k="ssr:stedsnr" v="122374" />
	</node>
	<node id="-259644" lat="59.1722916701" lon="7.9184527782">
		<tag k="name" v="Borggrend" />
		<tag k="place" v="hamlet" />
		<tag k="ssr:stedsnr" v="122371" />
	</node>
	<node id="-259643" lat="59.2360944448" lon="7.83111111254">
		<tag k="alt_name" v="Nusvik" />
		<tag k="fixme" v="consider place=hamlet" />
		<tag k="name" v="Nussvik" />
		<tag k="place" v="farm" />
		<tag k="ssr:stedsnr" v="122341" />
	</node>
	<node id="-261690" lat="59.239391669" lon="8.07274443598">
		<tag k="name" v="Landheim" />
		<tag k="place" v="isolated_dwelling" />
		<tag k="ssr:stedsnr" v="761074" />
	</node>
	<node id="-259641" lat="59.2465861086" lon="7.80377777721">
		<tag k="alt_name" v="Nos" />
		<tag k="historic" v="shieling" />
		<tag k="name" v="Nøs" />
		<tag k="place" v="locality" />
		<tag k="ssr:stedsnr" v="122320" />
	</node>
	<node id="-259640" lat="59.2450999979" lon="7.92862778119">
		<tag k="name" v="Rui" />
		<tag k="place" v="farm" />
		<tag k="ssr:stedsnr" v="122312" />
	</node>
	<node id="-259638" lat="59.0615750004" lon="8.26517500233">
		<tag k="alt_name" v="Valebjør" />
		<tag k="fixme" v="consider place=hamlet" />
		<tag k="name" v="Valebjørg" />
		<tag k="place" v="farm" />
		<tag k="ssr:stedsnr" v="122188" />
	</node>
	<node id="-261684" lat="59.2481388871" lon="8.04222222624">
		<tag k="alt_name" v="Eikjæ;Eiken" />
		<tag k="fixme" v="consider place=hamlet" />
		<tag k="name" v="Eiki" />
		<tag k="place" v="farm" />
		<tag k="ssr:stedsnr" v="755448" />
	</node>
	<node id="-259060" lat="59.4453685479" lon="8.16914471444">
		<tag k="fixme" v="consider place=hamlet" />
		<tag k="name" v="Nordre Håtveit" />
		<tag k="place" v="farm" />
		<tag k="ssr:stedsnr" v="984177" />
	</node>
	<node id="-259630" lat="59.1827111076" lon="8.11183332479">
		<tag k="alt_name" v="Lie" />
		<tag k="name" v="Li" />
		<tag k="place" v="farm" />
		<tag k="ssr:stedsnr" v="122076" />
	</node>
	<node id="-261677" lat="59.0090777768" lon="8.27439722616">
		<tag k="name" v="Kilegrend" />
		<tag k="place" v="hamlet" />
		<tag k="ssr:stedsnr" v="755345" />
	</node>
	<node id="-261673" lat="59.2881388883" lon="8.06204999414">
		<tag k="name" v="Seljehommen" />
		<tag k="place" v="farm" />
		<tag k="ssr:stedsnr" v="731922" />
	</node>
	<node id="-261672" lat="59.2854222198" lon="8.06610833475">
		<tag k="fixme" v="consider place=hamlet" />
		<tag k="name" v="Kvassjord" />
		<tag k="place" v="farm" />
		<tag k="ssr:stedsnr" v="731896" />
	</node>
	<node id="-259621" lat="59.1500527739" lon="7.76673611824">
		<tag k="historic" v="shieling" />
		<tag k="name" v="Bærvasstøylen" />
		<tag k="place" v="locality" />
		<tag k="ssr:stedsnr" v="110841" />
	</node>
	<node id="-261668" lat="59.010291671" lon="8.26225278176">
		<tag k="alt_name" v="Øyne" />
		<tag k="name" v="Øyni" />
		<tag k="place" v="farm" />
		<tag k="ssr:stedsnr" v="730995" />
	</node>
	<node id="-259619" lat="59.2877694437" lon="7.94726388034">
		<tag k="name" v="Hovdestøyl neiri" />
		<tag k="place" v="locality" />
		<tag k="ssr:stedsnr" v="110682" />
	</node>
	<node id="-261666" lat="59.3390083327" lon="8.06372500201">
		<tag k="name" v="Kråkehommen" />
		<tag k="place" v="locality" />
		<tag k="ssr:stedsnr" v="730985" />
	</node>
	<node id="-261665" lat="59.2947083355" lon="7.7943499999">
		<tag k="alt_name" v="Mykletjørnstøylen" />
		<tag k="historic" v="shieling" />
		<tag k="name" v="Mykletjønnstøylen" />
		<tag k="old_name" v="Mykletjørnstølen" />
		<tag k="place" v="locality" />
		<tag k="ssr:stedsnr" v="730964" />
	</node>
	<node id="-259616" lat="59.3146638863" lon="7.88033054738">
		<tag k="name" v="Nystøyl" />
		<tag k="place" v="locality" />
		<tag k="ssr:stedsnr" v="110530" />
	</node>
	<node id="-261663" lat="59.3021472215" lon="7.95619166125">
		<tag k="alt_name" v="Homseker" />
		<tag k="name" v="Homsekre" />
		<tag k="place" v="farm" />
		<tag k="ssr:stedsnr" v="730958" />
	</node>
	<node id="-261661" lat="59.3143138921" lon="7.87882499504">
		<tag k="alt_name" v="Nystøyl" />
		<tag k="fixme" v="multiple name tags, choose one and add the other to alt_name" />
		<tag k="name" v="Moberg;Nystøl" />
		<tag k="place" v="locality" />
		<tag k="ssr:stedsnr" v="730951" />
	</node>
	<node id="-261660" lat="59.2551666655" lon="7.77067777756">
		<tag k="fixme" v="consider tourism=alpine_hut or tourism=chalet" />
		<tag k="name" v="Hovstøyl" />
		<tag k="ssr:stedsnr" v="730946" />
		<tag k="tourism" v="wilderness_hut" />
	</node>
	<node id="-259611" lat="59.2594111105" lon="7.94419443739">
		<tag k="name" v="Krokstjønnbua" />
		<tag k="place" v="locality" />
		<tag k="ssr:stedsnr" v="110424" />
	</node>
	<node id="-261658" lat="59.259627778" lon="7.96977499331">
		<tag k="alt_name" v="Bøysæstøylen" />
		<tag k="historic" v="shieling" />
		<tag k="name" v="Bøysæ" />
		<tag k="place" v="locality" />
		<tag k="ssr:stedsnr" v="730937" />
	</node>
	<node id="-261380" lat="59.1474555558" lon="7.94028332735">
		<tag k="name" v="Madjestøylen" />
		<tag k="old_name" v="Madjestølen" />
		<tag k="place" v="locality" />
		<tag k="ssr:stedsnr" v="669406" />
	</node>
	<node id="-259604" lat="59.3134527791" lon="7.88282222655">
		<tag k="name" v="Sveigstøyl" />
		<tag k="place" v="locality" />
		<tag k="ssr:stedsnr" v="110229" />
	</node>
	<node id="-261651" lat="59.1710638914" lon="7.95560554935">
		<tag k="fixme" v="consider place=hamlet" />
		<tag k="name" v="Rui" />
		<tag k="place" v="farm" />
		<tag k="ssr:stedsnr" v="730399" />
	</node>
	<node id="-261649" lat="59.2144972228" lon="8.09107777064">
		<tag k="name" v="Moheim" />
		<tag k="place" v="farm" />
		<tag k="ssr:stedsnr" v="730368" />
	</node>
	<node id="-261648" lat="59.2047083293" lon="8.06039167268">
		<tag k="alt_name" v="Snarteland norigard;Snartland" />
		<tag k="fixme" v="consider place=hamlet" />
		<tag k="name" v="Snarteland" />
		<tag k="place" v="farm" />
		<tag k="ssr:stedsnr" v="730354" />
	</node>
	<node id="-259596" lat="59.3009027762" lon="7.89928055628">
		<tag k="name" v="Nørstestøylen" />
		<tag k="place" v="locality" />
		<tag k="ssr:stedsnr" v="110212" />
	</node>
	<node id="-261643" lat="59.0477749991" lon="8.16908889615">
		<tag k="alt_name" v="Gjevestostøylen" />
		<tag k="name" v="Solli" />
		<tag k="place" v="isolated_dwelling" />
		<tag k="ssr:stedsnr" v="730238" />
	</node>
	<node id="-259590" lat="59.0159138869" lon="8.26733056297">
		<tag k="name" v="Lønegrav" />
		<tag k="place" v="locality" />
		<tag k="ssr:stedsnr" v="109819" />
	</node>
	<node id="-261636" lat="59.0994527739" lon="8.22793055251">
		<tag k="name" v="Kolshus" />
		<tag k="place" v="locality" />
		<tag k="ssr:stedsnr" v="730184" />
	</node>
	<node id="-259587" lat="59.2836250026" lon="8.06808889562">
		<tag k="name" v="Nedrebø" />
		<tag k="place" v="farm" />
		<tag k="ssr:stedsnr" v="109722" />
	</node>
	<node id="-259578" lat="59.3497611093" lon="8.07261666915">
		<tag k="name" v="Krålen" />
		<tag k="place" v="locality" />
		<tag k="ssr:stedsnr" v="109495" />
	</node>
	<node id="-259577" lat="59.280008336" lon="8.08631388198">
		<tag k="name" v="Dale" />
		<tag k="place" v="farm" />
		<tag k="ssr:stedsnr" v="109961" />
	</node>
	<node id="-259574" lat="59.0663444478" lon="8.26480000137">
		<tag k="name" v="Sandvoll" />
		<tag k="place" v="isolated_dwelling" />
		<tag k="ssr:stedsnr" v="109939" />
	</node>
	<node id="-259572" lat="59.3265055563" lon="8.10627778379">
		<tag k="name" v="Vårfjoset" />
		<tag k="place" v="locality" />
		<tag k="ssr:stedsnr" v="109911" />
	</node>
	<node id="-261619" lat="59.2441888897" lon="7.89010555527">
		<tag k="name" v="Homme" />
		<tag k="place" v="farm" />
		<tag k="ssr:stedsnr" v="729347" />
	</node>
	<node id="-261617" lat="59.2389111083" lon="8.03260833055">
		<tag k="alt_name" v="Gravir" />
		<tag k="fixme" v="consider place=hamlet" />
		<tag k="name" v="Graver" />
		<tag k="place" v="farm" />
		<tag k="ssr:stedsnr" v="729336" />
	</node>
	<node id="-261614" lat="59.1879805523" lon="8.09578611351">
		<tag k="alt_name" v="Svalastog nedre;Svalestu" />
		<tag k="fixme" v="consider place=hamlet" />
		<tag k="name" v="Svalestog" />
		<tag k="place" v="farm" />
		<tag k="ssr:stedsnr" v="729079" />
	</node>
	<node id="-261611" lat="59.2037999975" lon="8.26083056413">
		<tag k="alt_name" v="Napestøyl" />
		<tag k="historic" v="shieling" />
		<tag k="name" v="Napestøl" />
		<tag k="place" v="locality" />
		<tag k="ssr:stedsnr" v="729039" />
	</node>
	<node id="-259562" lat="59.2943972263" lon="8.10270000134">
		<tag k="name" v="Heimtun" />
		<tag k="place" v="isolated_dwelling" />
		<tag k="ssr:stedsnr" v="109344" />
	</node>
	<node id="-261609" lat="59.0733972244" lon="7.93583334043">
		<tag k="name" v="Griddalen" />
		<tag k="place" v="neighbourhood" />
		<tag k="ssr:stedsnr" v="727982" />
	</node>
	<node id="-261608" lat="59.0434888848" lon="7.97810000139">
		<tag k="name" v="Åbodokki" />
		<tag k="place" v="neighbourhood" />
		<tag k="ssr:stedsnr" v="727894" />
	</node>
	<node id="-259557" lat="59.2930138921" lon="8.11413610883">
		<tag k="name" v="Veum nordigard" />
		<tag k="place" v="farm" />
		<tag k="ssr:stedsnr" v="109228" />
	</node>
	<node id="-262395" lat="59.1364138852" lon="8.03059444925">
		<tag k="alt_name" v="Nedstebø" />
		<tag k="name" v="Nestebø" />
		<tag k="place" v="farm" />
		<tag k="ssr:stedsnr" v="937492" />
	</node>
	<node id="-261600" lat="59.2747638919" lon="7.93410278206">
		<tag k="name" v="Reidalsstøylen" />
		<tag k="place" v="locality" />
		<tag k="ssr:stedsnr" v="717444" />
	</node>
	<node id="-261596" lat="59.3216388926" lon="7.91122500375">
		<tag k="name" v="Slettfit" />
		<tag k="place" v="locality" />
		<tag k="ssr:stedsnr" v="717393" />
	</node>
	<node id="-259663" lat="59.219425001" lon="8.09409999306">
		<tag k="fixme" v="consider place=hamlet" />
		<tag k="name" v="Brokke" />
		<tag k="place" v="farm" />
		<tag k="ssr:stedsnr" v="123073" />
	</node>
	<node id="-260004" lat="59.145216667" lon="8.04226389686">
		<tag k="amenity" v="school" />
		<tag k="name" v="Grendeskule" />
		<tag k="ssr:stedsnr" v="217584" />
	</node>
	<node id="-259542" lat="59.2654138855" lon="8.09557777144">
		<tag k="name" v="Rullan" />
		<tag k="place" v="locality" />
		<tag k="ssr:stedsnr" v="109440" />
	</node>
	<node id="-261584" lat="59.1803444459" lon="8.09376944314">
		<tag k="name" v="Væting nedre" />
		<tag k="place" v="farm" />
		<tag k="ssr:stedsnr" v="716997" />
	</node>
	<node id="-261583" lat="59.3300388922" lon="8.10449166732">
		<tag k="name" v="Plassen" />
		<tag k="place" v="locality" />
		<tag k="ssr:stedsnr" v="716912" />
	</node>
	<node id="-261582" lat="59.2937361155" lon="8.04065278587">
		<tag k="name" v="Tortveit nistog" />
		<tag k="place" v="farm" />
		<tag k="ssr:stedsnr" v="716913" />
	</node>
	<node id="-261581" lat="59.317666671" lon="8.08353888761">
		<tag k="name" v="Grønlistøylen" />
		<tag k="place" v="locality" />
		<tag k="ssr:stedsnr" v="716900" />
	</node>
	<node id="-261580" lat="59.2941611136" lon="8.0416138967">
		<tag k="name" v="Tortveit uppistog" />
		<tag k="place" v="farm" />
		<tag k="ssr:stedsnr" v="716896" />
	</node>
	<node id="-259531" lat="59.0626444483" lon="8.26509443823">
		<tag k="name" v="Norigard" />
		<tag k="place" v="farm" />
		<tag k="ssr:stedsnr" v="108553" />
	</node>
	<node id="-261578" lat="59.1691944482" lon="8.08879444219">
		<tag k="name" v="Lauvrak" />
		<tag k="place" v="isolated_dwelling" />
		<tag k="ssr:stedsnr" v="716675" />
	</node>
	<node id="-261572" lat="59.0605027799" lon="8.07476943715">
		<tag k="name" v="Øvre Berge" />
		<tag k="place" v="farm" />
		<tag k="ssr:stedsnr" v="716479" />
	</node>
	<node id="-259521" lat="59.2533527803" lon="8.33351666981">
		<tag k="name" v="Austre Rauhelle" />
		<tag k="place" v="locality" />
		<tag k="ssr:stedsnr" v="108150" />
	</node>
	<node id="-258634" lat="59.0068249998" lon="8.16985000182">
		<tag k="alt_name" v="Nussli" />
		<tag k="name" v="Knutslii" />
		<tag k="place" v="isolated_dwelling" />
		<tag k="ssr:stedsnr" v="366996" />
	</node>
	<node id="-259056" lat="59.2416166695" lon="7.93377475869">
		<tag k="name" v="Metveit" />
		<tag k="place" v="hamlet" />
		<tag k="ssr:stedsnr" v="984164" />
	</node>
	<node id="-261556" lat="59.0527972264" lon="8.26443054996">
		<tag k="name" v="Dale" />
		<tag k="place" v="isolated_dwelling" />
		<tag k="ssr:stedsnr" v="716000" />
	</node>
	<node id="-261554" lat="59.3168888908" lon="8.12979999596">
		<tag k="name" v="Telemark Camping &amp; Inn" />
		<tag k="old_name" v="Roan camping" />
		<tag k="ssr:stedsnr" v="715985" />
		<tag k="tourism" v="camp_site" />
	</node>
	<node id="-261553" lat="59.0623694464" lon="8.25944722095">
		<tag k="name" v="Åsen" />
		<tag k="place" v="isolated_dwelling" />
		<tag k="ssr:stedsnr" v="715942" />
	</node>
	<node id="-261543" lat="59.1757666677" lon="8.08952499469">
		<tag k="name" v="Kåsa nordre" />
		<tag k="place" v="farm" />
		<tag k="ssr:stedsnr" v="715807" />
	</node>
	<node id="-259493" lat="59.2447416623" lon="7.92593332758">
		<tag k="name" v="Rui, nistog" />
		<tag k="place" v="farm" />
		<tag k="ssr:stedsnr" v="96999" />
	</node>
	<node id="-259492" lat="59.2433805527" lon="7.9291749927">
		<tag k="name" v="Askerud" />
		<tag k="place" v="farm" />
		<tag k="ssr:stedsnr" v="96995" />
	</node>
	<node id="-259491" lat="59.2411472223" lon="7.93460278337">
		<tag k="alt_name" v="Midtgarden" />
		<tag k="name" v="Midtgarden Metveit" />
		<tag k="place" v="farm" />
		<tag k="ssr:stedsnr" v="96994" />
	</node>
	<node id="-261537" lat="59.0262999991" lon="8.28956666541">
		<tag k="name" v="Sundskarstøylen" />
		<tag k="place" v="locality" />
		<tag k="ssr:stedsnr" v="715674" />
	</node>
	<node id="-261536" lat="59.1701611093" lon="8.08855833679">
		<tag k="name" v="Solberg" />
		<tag k="place" v="isolated_dwelling" />
		<tag k="ssr:stedsnr" v="715631" />
	</node>
	<node id="-259479" lat="59.3187472254" lon="7.7852416749">
		<tag k="name" v="Klavneshytta" />
		<tag k="place" v="isolated_dwelling" />
		<tag k="ssr:stedsnr" v="96614" />
	</node>
	<node id="-261519" lat="59.0647527786" lon="8.18444722327">
		<tag k="name" v="Skjeggestahytta" />
		<tag k="place" v="locality" />
		<tag k="ssr:stedsnr" v="715368" />
	</node>
	<node id="-259650" lat="59.0390638923" lon="7.89421111446">
		<tag k="alt_name" v="Søre Grøssæ" />
		<tag k="name" v="Søndre Grøssæ" />
		<tag k="old_name" v="Grøssæ, s" />
		<tag k="place" v="locality" />
		<tag k="ssr:stedsnr" v="122464" />
	</node>
	<node id="-261514" lat="59.1313833291" lon="8.17566667146">
		<tag k="name" v="Støylshovden" />
		<tag k="place" v="locality" />
		<tag k="ssr:stedsnr" v="715346" />
	</node>
	<node id="-261512" lat="59.3005166692" lon="8.06276945154">
		<tag k="name" v="Åsbu" />
		<tag k="place" v="locality" />
		<tag k="ssr:stedsnr" v="715326" />
	</node>
	<node id="-259463" lat="59.2906750016" lon="7.7737000017">
		<tag k="name" v="Huslanda" />
		<tag k="place" v="locality" />
		<tag k="ssr:stedsnr" v="96224" />
	</node>
	<node id="-261504" lat="58.9904249997" lon="8.3122277834">
		<tag k="name" v="Ångås" />
		<tag k="place" v="farm" />
		<tag k="ssr:stedsnr" v="715047" />
	</node>
	<node id="-259455" lat="59.1994111114" lon="7.79968610815">
		<tag k="name" v="Valalia" />
		<tag k="place" v="locality" />
		<tag k="ssr:stedsnr" v="96306" />
	</node>
	<node id="-262378" lat="59.3162194459" lon="8.15596944056">
		<tag k="name" v="Solheim" />
		<tag k="place" v="isolated_dwelling" />
		<tag k="ssr:stedsnr" v="913165" />
	</node>
	<node id="-259647" lat="59.1663777792" lon="8.08638333083">
		<tag k="name" v="Bergland" />
		<tag k="place" v="farm" />
		<tag k="ssr:stedsnr" v="122385" />
	</node>
	<node id="-259447" lat="59.2499583349" lon="8.04186944447">
		<tag k="fixme" v="consider place=hamlet" />
		<tag k="name" v="Austjord" />
		<tag k="place" v="farm" />
		<tag k="ssr:stedsnr" v="95263" />
	</node>
	<node id="-259445" lat="59.2487722236" lon="7.90828333987">
		<tag k="alt_name" v="Uppistog" />
		<tag k="name" v="Uppistog Bergland" />
		<tag k="place" v="farm" />
		<tag k="ssr:stedsnr" v="95146" />
	</node>
	<node id="-261492" lat="59.0618833289" lon="8.26523610965">
		<tag k="name" v="Midtgarden" />
		<tag k="place" v="farm" />
		<tag k="ssr:stedsnr" v="714490" />
	</node>
	<node id="-259440" lat="59.2031722195" lon="8.10111667409">
		<tag k="name" v="Hovland" />
		<tag k="place" v="isolated_dwelling" />
		<tag k="ssr:stedsnr" v="94880" />
	</node>
	<node id="-259439" lat="59.1955083322" lon="8.08625556423">
		<tag k="name" v="Furulund" />
		<tag k="place" v="farm" />
		<tag k="ssr:stedsnr" v="94878" />
	</node>
	<node id="-259438" lat="59.2337305591" lon="8.08954166628">
		<tag k="name" v="Haugen øvre" />
		<tag k="place" v="farm" />
		<tag k="ssr:stedsnr" v="94459" />
	</node>
	<node id="-259437" lat="59.237538891" lon="8.06461389595">
		<tag k="name" v="Furemo" />
		<tag k="place" v="isolated_dwelling" />
		<tag k="ssr:stedsnr" v="94076" />
	</node>
	<node id="-261482" lat="59.0514000003" lon="7.96552222166">
		<tag k="name" v="Solliåsen" />
		<tag k="place" v="neighbourhood" />
		<tag k="ssr:stedsnr" v="707887" />
	</node>
	<node id="-259432" lat="59.1043666659" lon="8.00749444078">
		<tag k="historic" v="shieling" />
		<tag k="name" v="Bjøllii" />
		<tag k="place" v="locality" />
		<tag k="ssr:stedsnr" v="88439" />
	</node>
	<node id="-261477" lat="59.2423916664" lon="7.78573055154">
		<tag k="name" v="Brattstøyl" />
		<tag k="place" v="locality" />
		<tag k="ssr:stedsnr" v="703747" />
	</node>
	<node id="-261476" lat="59.2426611076" lon="7.79201667112">
		<tag k="name" v="Krostøylen" />
		<tag k="place" v="locality" />
		<tag k="ssr:stedsnr" v="703745" />
	</node>
	<node id="-259302" lat="59.3249777797" lon="8.14076943853">
		<tag k="name" v="Haugland" />
		<tag k="place" v="farm" />
		<tag k="ssr:stedsnr" v="48866" />
	</node>
	<node id="-261474" lat="59.1716805577" lon="8.03885000401">
		<tag k="name" v="Vik midtbø" />
		<tag k="place" v="farm" />
		<tag k="ssr:stedsnr" v="703629" />
	</node>
	<node id="-258619" lat="59.284683334" lon="8.0939999932">
		<tag k="name" v="Veum" />
		<tag k="place" v="hamlet" />
		<tag k="ssr:stedsnr" v="366235" />
	</node>
	<node id="-261468" lat="59.1667583369" lon="7.80136389384">
		<tag k="name" v="Austmannlistøylen" />
		<tag k="place" v="locality" />
		<tag k="ssr:stedsnr" v="703296" />
	</node>
	<node id="-261465" lat="59.2414972183" lon="8.26874166079">
		<tag k="name" v="Byen" />
		<tag k="place" v="locality" />
		<tag k="ssr:stedsnr" v="703015" />
	</node>
	<node id="-261464" lat="59.2404805521" lon="8.24943611868">
		<tag k="name" v="Solvangstoga" />
		<tag k="place" v="locality" />
		<tag k="ssr:stedsnr" v="703010" />
	</node>
	<node id="-259410" lat="59.3253083368" lon="7.90718888444">
		<tag k="fixme" v="consider place=hamlet" />
		<tag k="name" v="Aslestad" />
		<tag k="place" v="farm" />
		<tag k="ssr:stedsnr" v="63999" />
	</node>
	<node id="-261455" lat="59.2080916709" lon="7.83657500583">
		<tag k="name" v="Haukerei, heimre" />
		<tag k="place" v="farm" />
		<tag k="ssr:stedsnr" v="702519" />
	</node>
	<node id="-259405" lat="59.288963892" lon="7.76845000284">
		<tag k="name" v="Øysæ" />
		<tag k="place" v="locality" />
		<tag k="ssr:stedsnr" v="63962" />
	</node>
	<node id="-259404" lat="59.2999277785" lon="7.96906110677">
		<tag k="name" v="Donstad" />
		<tag k="place" v="locality" />
		<tag k="ssr:stedsnr" v="63956" />
	</node>
	<node id="-259402" lat="59.2677083301" lon="7.96396389638">
		<tag k="historic" v="shieling" />
		<tag k="name" v="Vembedalen" />
		<tag k="place" v="locality" />
		<tag k="ssr:stedsnr" v="63919" />
	</node>
	<node id="-259400" lat="59.2844638846" lon="7.78870554965">
		<tag k="name" v="Åse" />
		<tag k="place" v="locality" />
		<tag k="ssr:stedsnr" v="63909" />
	</node>
	<node id="-259399" lat="59.2851388861" lon="7.94390555167">
		<tag k="alt_name" v="Hovdestøyl øvri" />
		<tag k="name" v="Hovdestøyl" />
		<tag k="old_name" v="Hovdestøl" />
		<tag k="place" v="locality" />
		<tag k="ssr:stedsnr" v="63905" />
	</node>
	<node id="-259396" lat="59.3306240553" lon="8.13828256266">
		<tag k="name" v="Helland" />
		<tag k="place" v="farm" />
		<tag k="ssr:stedsnr" v="63364" />
	</node>
	<node id="-259394" lat="59.2617916705" lon="8.15100278463">
		<tag k="name" v="Nystøyl" />
		<tag k="place" v="locality" />
		<tag k="ssr:stedsnr" v="63224" />
	</node>
	<node id="-261440" lat="59.289163886" lon="7.76935832745">
		<tag k="name" v="Øyse uppigard" />
		<tag k="place" v="farm" />
		<tag k="ssr:stedsnr" v="702174" />
	</node>
	<node id="-259387" lat="59.3092833354" lon="8.12798611226">
		<tag k="name" v="Rindebakken" />
		<tag k="place" v="farm" />
		<tag k="ssr:stedsnr" v="63162" />
	</node>
	<node id="-261429" lat="59.2032055566" lon="8.06549999628">
		<tag k="name" v="Lund" />
		<tag k="place" v="farm" />
		<tag k="ssr:stedsnr" v="701810" />
	</node>
	<node id="-261428" lat="59.2202333312" lon="8.09888889436">
		<tag k="name" v="Kålgardsdalen" />
		<tag k="place" v="locality" />
		<tag k="ssr:stedsnr" v="701583" />
	</node>
	<node id="-259294" lat="59.2833833299" lon="8.07112500745">
		<tag k="name" v="Furuheim" />
		<tag k="place" v="isolated_dwelling" />
		<tag k="ssr:stedsnr" v="48737" />
	</node>
	<node id="-261426" lat="59.242199999" lon="8.09899999737">
		<tag k="name" v="Nordheim" />
		<tag k="place" v="farm" />
		<tag k="ssr:stedsnr" v="701481" />
	</node>
	<node id="-259377" lat="59.0637027792" lon="7.92206666078">
		<tag k="fixme" v="consider tourism=alpine_hut or tourism=chalet" />
		<tag k="name" v="Kvipt" />
		<tag k="ssr:stedsnr" v="62469" />
		<tag k="tourism" v="wilderness_hut" />
	</node>
	<node id="-259376" lat="59.0996555584" lon="7.89641110634">
		<tag k="historic" v="shieling" />
		<tag k="name" v="Kultrane" />
		<tag k="place" v="locality" />
		<tag k="ssr:stedsnr" v="62444" />
	</node>
	<node id="-259375" lat="59.1022500032" lon="7.89759167104">
		<tag k="alt_name" v="Trosvikstøylen" />
		<tag k="name" v="Trosvik" />
		<tag k="old_name" v="Trosvikstøl" />
		<tag k="place" v="locality" />
		<tag k="ssr:stedsnr" v="62436" />
	</node>
	<node id="-262365" lat="59.0819666632" lon="7.92411943666">
		<tag k="alt_name" v="Flotta" />
		<tag k="historic" v="shieling" />
		<tag k="name" v="Flottine" />
		<tag k="old_name" v="Flottene" />
		<tag k="place" v="locality" />
		<tag k="ssr:stedsnr" v="912476" />
	</node>
	<node id="-259371" lat="59.1716000008" lon="7.96920278263">
		<tag k="alt_name" v="Hedderstøylen" />
		<tag k="name" v="Hedderstølen" />
		<tag k="place" v="locality" />
		<tag k="ssr:stedsnr" v="62406" />
	</node>
	<node id="-261418" lat="59.2649138879" lon="7.87984722333">
		<tag k="name" v="Heddi" />
		<tag k="place" v="isolated_dwelling" />
		<tag k="ssr:stedsnr" v="695395" />
	</node>
	<node id="-259369" lat="59.1735805575" lon="7.95945555855">
		<tag k="name" v="Vassli" />
		<tag k="place" v="locality" />
		<tag k="ssr:stedsnr" v="62387" />
	</node>
	<node id="-259365" lat="59.2349999971" lon="7.83309444622">
		<tag k="name" v="Audjordet" />
		<tag k="place" v="farm" />
		<tag k="ssr:stedsnr" v="62315" />
	</node>
	<node id="-261412" lat="59.0590999984" lon="7.96695277645">
		<tag k="alt_name" v="Kili" />
		<tag k="fixme" v="consider place=hamlet" />
		<tag k="name" v="Kile" />
		<tag k="place" v="farm" />
		<tag k="ssr:stedsnr" v="695061" />
	</node>
	<node id="-259363" lat="59.244855553" lon="8.02509999234">
		<tag k="alt_name" v="Jore øvre" />
		<tag k="name" v="Jordet" />
		<tag k="place" v="farm" />
		<tag k="ssr:stedsnr" v="62286" />
	</node>
	<node id="-258267" lat="59.0071138848" lon="8.27710832784">
		<tag k="name" v="Karisholmen" />
		<tag k="place" v="isolated_dwelling" />
		<tag k="ssr:stedsnr" v="291272" />
	</node>
	<node id="-262256" lat="59.2833694423" lon="7.79534167265">
		<tag k="alt_name" v="Kveldbekklii" />
		<tag k="name" v="Kveldbekklistøylen" />
		<tag k="place" v="locality" />
		<tag k="ssr:stedsnr" v="852898" />
	</node>
	<node id="-261401" lat="59.2924138874" lon="7.88490000067">
		<tag k="name" v="Sollistøylen" />
		<tag k="old_name" v="Sollistøl" />
		<tag k="place" v="locality" />
		<tag k="ssr:stedsnr" v="670967" />
	</node>
	<node id="-261400" lat="59.3005055528" lon="7.91634722123">
		<tag k="fixme" v="consider place=hamlet" />
		<tag k="name" v="Skåli" />
		<tag k="place" v="farm" />
		<tag k="ssr:stedsnr" v="670961" />
	</node>
	<node id="-261398" lat="59.2721416654" lon="8.05433055195">
		<tag k="alt_name" v="Tveitene" />
		<tag k="fixme" v="consider place=hamlet" />
		<tag k="name" v="Tveitane" />
		<tag k="place" v="farm" />
		<tag k="ssr:stedsnr" v="670920" />
	</node>
	<node id="-261397" lat="59.2853749981" lon="8.05842222452">
		<tag k="fixme" v="consider place=hamlet" />
		<tag k="name" v="Spokkeli" />
		<tag k="place" v="farm" />
		<tag k="ssr:stedsnr" v="670915" />
	</node>
	<node id="-261396" lat="59.3098499977" lon="8.1335416737">
		<tag k="name" v="Bjåland" />
		<tag k="place" v="farm" />
		<tag k="ssr:stedsnr" v="670178" />
	</node>
	<node id="-261395" lat="59.3126083351" lon="8.13503333097">
		<tag k="name" v="Rindom" />
		<tag k="place" v="farm" />
		<tag k="ssr:stedsnr" v="670160" />
	</node>
	<node id="-261394" lat="59.0084499997" lon="8.25615278357">
		<tag k="name" v="Lunde" />
		<tag k="place" v="farm" />
		<tag k="ssr:stedsnr" v="669998" />
	</node>
	<node id="-258947" lat="59.1599194415" lon="7.8078638976">
		<tag k="name" v="Skorstøylen" />
		<tag k="place" v="locality" />
		<tag k="ssr:stedsnr" v="886932" />
	</node>
	<node id="-261392" lat="59.0185611124" lon="8.27800278113">
		<tag k="name" v="Sundsli" />
		<tag k="place" v="farm" />
		<tag k="ssr:stedsnr" v="669990" />
	</node>
	<node id="-261390" lat="59.3380916692" lon="7.83055833563">
		<tag k="name" v="Listøyl" />
		<tag k="old_name" v="Listøl" />
		<tag k="place" v="locality" />
		<tag k="ssr:stedsnr" v="669980" />
	</node>
	<node id="-261388" lat="59.250788892" lon="7.75160832533">
		<tag k="alt_name" v="Rishovden" />
		<tag k="name" v="Rishovdstøyl" />
		<tag k="old_name" v="Rishovdstøl" />
		<tag k="place" v="locality" />
		<tag k="ssr:stedsnr" v="669939" />
	</node>
	<node id="-261387" lat="59.2527555547" lon="7.96855554703">
		<tag k="historic" v="shieling" />
		<tag k="name" v="Høydalen" />
		<tag k="place" v="locality" />
		<tag k="ssr:stedsnr" v="669931" />
	</node>
	<node id="-261096" lat="59.2969749966" lon="7.74580276933">
		<tag k="historic" v="shieling" />
		<tag k="name" v="Nordfit" />
		<tag k="place" v="locality" />
		<tag k="ssr:stedsnr" v="609951" />
	</node>
	<node id="-261384" lat="59.116144441" lon="8.0784444427">
		<tag k="alt_name" v="Breidvik" />
		<tag k="name" v="Breivik" />
		<tag k="place" v="hamlet" />
		<tag k="ssr:stedsnr" v="669452" />
	</node>
	<node id="-261382" lat="59.1439749977" lon="7.95383333706">
		<tag k="alt_name" v="Saupstøyl" />
		<tag k="name" v="Saupstøylane" />
		<tag k="old_name" v="Saupstøl" />
		<tag k="place" v="locality" />
		<tag k="ssr:stedsnr" v="669421" />
	</node>
	<node id="-259969" lat="59.2283111142" lon="8.0951249938">
		<tag k="name" v="Jægersborg" />
		<tag k="place" v="locality" />
		<tag k="ssr:stedsnr" v="216457" />
	</node>
	<node id="-259332" lat="59.1642361108" lon="8.08397777527">
		<tag k="name" v="Kjellberg" />
		<tag k="place" v="isolated_dwelling" />
		<tag k="ssr:stedsnr" v="49725" />
	</node>
	<node id="-259330" lat="59.327997218" lon="7.90939723008">
		<tag k="name" v="Fjøddi" />
		<tag k="place" v="locality" />
		<tag k="ssr:stedsnr" v="49607" />
	</node>
	<node id="-261376" lat="59.1686972229" lon="7.98527221557">
		<tag k="alt_name" v="Jordal" />
		<tag k="fixme" v="consider place=hamlet" />
		<tag k="name" v="Jorddal" />
		<tag k="place" v="farm" />
		<tag k="ssr:stedsnr" v="669378" />
	</node>
	<node id="-261375" lat="59.1695472231" lon="8.00724999168">
		<tag k="name" v="Homme" />
		<tag k="place" v="farm" />
		<tag k="ssr:stedsnr" v="669377" />
	</node>
	<node id="-261373" lat="59.2330694436" lon="8.00232778271">
		<tag k="alt_name" v="Flaten" />
		<tag k="name" v="Flata" />
		<tag k="place" v="farm" />
		<tag k="ssr:stedsnr" v="669316" />
	</node>
	<node id="-261370" lat="59.0772250011" lon="8.119736117">
		<tag k="alt_name" v="Sandbu" />
		<tag k="name" v="Sandebu" />
		<tag k="place" v="isolated_dwelling" />
		<tag k="ssr:stedsnr" v="669179" />
	</node>
	<node id="-259861" lat="59.263461111" lon="7.9391277746">
		<tag k="name" v="Lamstjønnbua" />
		<tag k="place" v="locality" />
		<tag k="ssr:stedsnr" v="170426" />
	</node>
	<node id="-259320" lat="59.2900527818" lon="7.98966388178">
		<tag k="name" v="Songedal nistog" />
		<tag k="place" v="farm" />
		<tag k="ssr:stedsnr" v="49329" />
	</node>
	<node id="-259317" lat="59.0839666627" lon="7.84334999283">
		<tag k="name" v="Olstadhytta" />
		<tag k="place" v="isolated_dwelling" />
		<tag k="ssr:stedsnr" v="49293" />
	</node>
	<node id="-259313" lat="59.0019444459" lon="8.03961665951">
		<tag k="fixme" v="consider place=hamlet" />
		<tag k="name" v="Midtgarden" />
		<tag k="place" v="farm" />
		<tag k="ssr:stedsnr" v="49148" />
	</node>
	<node id="-259311" lat="59.2620388854" lon="8.01483334206">
		<tag k="name" v="Rantekåsene" />
		<tag k="place" v="locality" />
		<tag k="ssr:stedsnr" v="49097" />
	</node>
	<node id="-262410" lat="59.1859444465" lon="8.0963444394">
		<tag k="name" v="Svalastog søndre/nordre" />
		<tag k="place" v="farm" />
		<tag k="ssr:stedsnr" v="944825" />
	</node>
	<node id="-259305" lat="59.3520833377" lon="7.85016666287">
		<tag k="name" v="Storli" />
		<tag k="place" v="locality" />
		<tag k="ssr:stedsnr" v="48926" />
	</node>
	<node id="-259303" lat="59.3209277821" lon="8.13493333734">
		<tag k="name" v="Fossumsanden camping" />
		<tag k="ssr:stedsnr" v="48889" />
		<tag k="tourism" v="camp_site" />
	</node>
	<node id="-261350" lat="58.9954555548" lon="8.24630556208">
		<tag k="name" v="Flatland" />
		<tag k="place" v="farm" />
		<tag k="ssr:stedsnr" v="668858" />
	</node>
	<node id="-261345" lat="59.0597055528" lon="7.96530834075">
		<tag k="name" v="Øvre Birtedalen" />
		<tag k="old_name" v="Birtedalen,øvre" />
		<tag k="place" v="hamlet" />
		<tag k="ssr:stedsnr" v="668478" />
	</node>
	<node id="-259296" lat="59.2840250004" lon="8.07317222691">
		<tag k="name" v="Groven" />
		<tag k="place" v="farm" />
		<tag k="ssr:stedsnr" v="48741" />
	</node>
	<node id="-261342" lat="59.1734555573" lon="7.94345833851">
		<tag k="name" v="Nordbø" />
		<tag k="place" v="farm" />
		<tag k="ssr:stedsnr" v="668398" />
	</node>
	<node id="-261341" lat="59.2406583357" lon="7.78755000383">
		<tag k="historic" v="shieling" />
		<tag k="name" v="Krokstøyl" />
		<tag k="old_name" v="Krokstøl" />
		<tag k="place" v="locality" />
		<tag k="ssr:stedsnr" v="668357" />
	</node>
	<node id="-259292" lat="59.3260583324" lon="8.19596944889">
		<tag k="historic" v="shieling" />
		<tag k="name" v="Nystøyl" />
		<tag k="place" v="locality" />
		<tag k="ssr:stedsnr" v="48699" />
	</node>
	<node id="-259291" lat="59.1337638917" lon="8.12697221985">
		<tag k="name" v="Nordre Momrak" />
		<tag k="place" v="farm" />
		<tag k="ssr:stedsnr" v="48681" />
	</node>
	<node id="-261338" lat="59.2368000035" lon="7.9722749921">
		<tag k="fixme" v="consider place=hamlet" />
		<tag k="name" v="Bondal" />
		<tag k="place" v="farm" />
		<tag k="ssr:stedsnr" v="668346" />
	</node>
	<node id="-259289" lat="59.3161166708" lon="8.17040554944">
		<tag k="name" v="Lyngstad" />
		<tag k="place" v="locality" />
		<tag k="ssr:stedsnr" v="48657" />
	</node>
	<node id="-258937" lat="59.1440416701" lon="8.03908056185">
		<tag k="alt_name" v="Bekkjerhus" />
		<tag k="fixme" v="consider place=hamlet" />
		<tag k="name" v="Bekkerhus" />
		<tag k="place" v="farm" />
		<tag k="ssr:stedsnr" v="885588" />
	</node>
	<node id="-259282" lat="59.2029472249" lon="8.19801110821">
		<tag k="name" v="Stavstøylen" />
		<tag k="place" v="locality" />
		<tag k="ssr:stedsnr" v="48449" />
	</node>
	<node id="-261327" lat="59.2798833343" lon="8.28263888676">
		<tag k="historic" v="shieling" />
		<tag k="name" v="Svanestøyl" />
		<tag k="place" v="locality" />
		<tag k="ssr:stedsnr" v="669209" />
	</node>
	<node id="-261326" lat="59.2571138906" lon="7.82196945153">
		<tag k="name" v="Normanndalen" />
		<tag k="place" v="neighbourhood" />
		<tag k="ssr:stedsnr" v="666973" />
	</node>
	<node id="-261325" lat="59.041080557" lon="7.96992777983">
		<tag k="name" v="Bjorhustjønn" />
		<tag k="place" v="neighbourhood" />
		<tag k="ssr:stedsnr" v="666969" />
	</node>
	<node id="-261322" lat="59.3223388848" lon="7.87371667288">
		<tag k="name" v="Homen" />
		<tag k="place" v="locality" />
		<tag k="ssr:stedsnr" v="656885" />
	</node>
	<node id="-259273" lat="59.1802972208" lon="8.14442221781">
		<tag k="name" v="Kjekhusdalen" />
		<tag k="place" v="isolated_dwelling" />
		<tag k="ssr:stedsnr" v="48380" />
	</node>
	<node id="-261320" lat="59.3226388863" lon="7.88855278465">
		<tag k="name" v="Hæknine" />
		<tag k="place" v="locality" />
		<tag k="ssr:stedsnr" v="656622" />
	</node>
	<node id="-261319" lat="59.3254694485" lon="7.90823611196">
		<tag k="name" v="Aslestad midtgarden" />
		<tag k="place" v="farm" />
		<tag k="ssr:stedsnr" v="656616" />
	</node>
	<node id="-259269" lat="59.1785138889" lon="8.18815833038">
		<tag k="name" v="Hukebu" />
		<tag k="place" v="locality" />
		<tag k="ssr:stedsnr" v="48356" />
	</node>
	<node id="-259267" lat="59.0017694485" lon="8.29297777519">
		<tag k="name" v="Uppistog Kiland" />
		<tag k="place" v="farm" />
		<tag k="ssr:stedsnr" v="48346" />
	</node>
	<node id="-259260" lat="59.0095361146" lon="8.27483889499">
		<tag k="building" v="industrial" />
		<tag k="name" v="Grindberg" />
		<tag k="ssr:stedsnr" v="48232" />
	</node>
	<node id="-262346" lat="59.3013722194" lon="8.09657777144">
		<tag k="alt_name" v="Vestre Tveiten" />
		<tag k="fixme" v="consider place=hamlet" />
		<tag k="name" v="Tveiten" />
		<tag k="place" v="farm" />
		<tag k="ssr:stedsnr" v="912156" />
	</node>
	<node id="-261321" lat="59.0703472233" lon="8.02204444295">
		<tag k="name" v="Bondalshytta" />
		<tag k="place" v="locality" />
		<tag k="ssr:stedsnr" v="656828" />
	</node>
	<node id="-261300" lat="59.1818944402" lon="8.10400555865">
		<tag k="name" v="Bakken" />
		<tag k="place" v="locality" />
		<tag k="ssr:stedsnr" v="655987" />
	</node>
	<node id="-261299" lat="59.1823333355" lon="8.08806666675">
		<tag k="alt_name" v="Moland prestegard" />
		<tag k="fixme" v="consider place=hamlet" />
		<tag k="name" v="Prestegarden" />
		<tag k="place" v="farm" />
		<tag k="ssr:stedsnr" v="655935" />
	</node>
	<node id="-261297" lat="59.1841166685" lon="8.08228054809">
		<tag k="name" v="Klokkargarden" />
		<tag k="place" v="isolated_dwelling" />
		<tag k="ssr:stedsnr" v="655928" />
	</node>
	<node id="-261295" lat="59.3497166667" lon="7.84408611911">
		<tag k="name" v="Hommen" />
		<tag k="place" v="locality" />
		<tag k="ssr:stedsnr" v="655911" />
	</node>
	<node id="-261292" lat="59.283852775" lon="8.06940277254">
		<tag k="name" v="Midtbø" />
		<tag k="place" v="isolated_dwelling" />
		<tag k="ssr:stedsnr" v="655754" />
	</node>
	<node id="-259243" lat="59.0310722244" lon="8.11303610728">
		<tag k="historic" v="shieling" />
		<tag k="name" v="Himmelstøyl" />
		<tag k="place" v="locality" />
		<tag k="ssr:stedsnr" v="47837" />
	</node>
	<node id="-261287" lat="59.3379305539" lon="8.13566666967">
		<tag k="name" v="Timmerudjuvet" />
		<tag k="place" v="locality" />
		<tag k="ssr:stedsnr" v="655486" />
	</node>
	<node id="-259238" lat="59.1377777734" lon="8.11043334097">
		<tag k="name" v="Nistog Momrak" />
		<tag k="place" v="farm" />
		<tag k="ssr:stedsnr" v="47746" />
	</node>
	<node id="-259233" lat="59.0812444464" lon="8.23858610496">
		<tag k="name" v="Plassen" />
		<tag k="place" v="locality" />
		<tag k="ssr:stedsnr" v="47540" />
	</node>
	<node id="-262314" lat="59.3173527806" lon="8.0548388832">
		<tag k="name" v="Listøylen" />
		<tag k="old_name" v="Listølen" />
		<tag k="place" v="locality" />
		<tag k="ssr:stedsnr" v="913949" />
	</node>
	<node id="-259216" lat="59.2646249961" lon="7.77010277829">
		<tag k="name" v="Ørnekrostøylen" />
		<tag k="place" v="locality" />
		<tag k="ssr:stedsnr" v="35871" />
	</node>
	<node id="-259607" lat="59.343627778" lon="7.88406110275">
		<tag k="name" v="Stavli" />
		<tag k="place" v="locality" />
		<tag k="ssr:stedsnr" v="110384" />
	</node>
	<node id="-261256" lat="59.1316722261" lon="8.12742499781">
		<tag k="name" v="Søndre Momrak" />
		<tag k="place" v="farm" />
		<tag k="ssr:stedsnr" v="654709" />
	</node>
	<node id="-261255" lat="59.2070083362" lon="8.2350777796">
		<tag k="name" v="Hægebu" />
		<tag k="place" v="locality" />
		<tag k="ssr:stedsnr" v="654699" />
	</node>
	<node id="-261253" lat="59.0152083341" lon="8.3275083366">
		<tag k="name" v="Saurlistøylen" />
		<tag k="place" v="locality" />
		<tag k="ssr:stedsnr" v="654617" />
	</node>
	<node id="-259947" lat="59.3065361094" lon="7.99376667114">
		<tag k="alt_name" v="Dokkji" />
		<tag k="name" v="Dokki" />
		<tag k="place" v="farm" />
		<tag k="ssr:stedsnr" v="209368" />
	</node>
	<node id="-259200" lat="59.2840277791" lon="7.78976667237">
		<tag k="name" v="Åsistøylen" />
		<tag k="place" v="locality" />
		<tag k="ssr:stedsnr" v="35528" />
	</node>
	<node id="-259199" lat="59.2777805564" lon="7.75979444801">
		<tag k="name" v="Huslandhytta" />
		<tag k="place" v="isolated_dwelling" />
		<tag k="ssr:stedsnr" v="35477" />
	</node>
	<node id="-259196" lat="59.3130194414" lon="7.73336666261">
		<tag k="name" v="Blomstøyl" />
		<tag k="place" v="locality" />
		<tag k="ssr:stedsnr" v="35413" />
	</node>
	<node id="-261240" lat="59.1505277798" lon="8.17318889287">
		<tag k="name" v="Elgbu" />
		<tag k="place" v="isolated_dwelling" />
		<tag k="ssr:stedsnr" v="654434" />
	</node>
	<node id="-259945" lat="59.2757611117" lon="8.114486115">
		<tag k="alt_name" v="Gjerli" />
		<tag k="name" v="Gjerdli" />
		<tag k="place" v="farm" />
		<tag k="ssr:stedsnr" v="185199" />
	</node>
	<node id="-259185" lat="59.2576722212" lon="7.75232777175">
		<tag k="name" v="Sollistøyl" />
		<tag k="place" v="locality" />
		<tag k="ssr:stedsnr" v="35261" />
	</node>
	<node id="-261230" lat="59.298805554" lon="8.0984666635">
		<tag k="name" v="Rui" />
		<tag k="place" v="locality" />
		<tag k="ssr:stedsnr" v="654347" />
	</node>
	<node id="-259181" lat="59.249161113" lon="7.85617222433">
		<tag k="historic" v="shieling" />
		<tag k="name" v="Djuptjønnstøylen" />
		<tag k="place" v="locality" />
		<tag k="ssr:stedsnr" v="35172" />
	</node>
	<node id="-261226" lat="59.113094445" lon="8.17468054949">
		<tag k="name" v="Basthomstøylen" />
		<tag k="place" v="locality" />
		<tag k="ssr:stedsnr" v="654317" />
	</node>
	<node id="-259176" lat="59.2179694473" lon="7.98092777384">
		<tag k="alt_name" v="Findalstveit" />
		<tag k="fixme" v="consider place=hamlet" />
		<tag k="name" v="Finndalstveit" />
		<tag k="place" v="farm" />
		<tag k="ssr:stedsnr" v="34550" />
	</node>
	<node id="-261222" lat="59.2672833373" lon="8.06931111359">
		<tag k="name" v="Tøddebua" />
		<tag k="place" v="locality" />
		<tag k="ssr:stedsnr" v="654266" />
	</node>
	<node id="-259171" lat="59.2459722194" lon="8.03192221522">
		<tag k="name" v="Åland" />
		<tag k="place" v="isolated_dwelling" />
		<tag k="ssr:stedsnr" v="34339" />
	</node>
	<node id="-259168" lat="59.1888861082" lon="8.08722222147">
		<tag k="name" v="Smeland" />
		<tag k="place" v="isolated_dwelling" />
		<tag k="ssr:stedsnr" v="33830" />
	</node>
	<node id="-259166" lat="59.2167222207" lon="8.09531110417">
		<tag k="name" v="Skogheim" />
		<tag k="place" v="isolated_dwelling" />
		<tag k="ssr:stedsnr" v="33580" />
	</node>
	<node id="-259164" lat="59.241458334" lon="8.05886389644">
		<tag k="name" v="Hovstad" />
		<tag k="place" v="farm" />
		<tag k="ssr:stedsnr" v="33421" />
	</node>
	<node id="-259159" lat="59.187527777" lon="8.10992500027">
		<tag k="name" v="Sitje søndre" />
		<tag k="place" v="farm" />
		<tag k="ssr:stedsnr" v="33211" />
	</node>
	<node id="-259158" lat="59.2234388916" lon="8.14788056371">
		<tag k="historic" v="shieling" />
		<tag k="name" v="Greivstjønnstøylen" />
		<tag k="place" v="locality" />
		<tag k="ssr:stedsnr" v="33065" />
	</node>
	<node id="-261205" lat="59.0795194426" lon="8.24583334124">
		<tag k="name" v="Søstog Vik" />
		<tag k="place" v="farm" />
		<tag k="ssr:stedsnr" v="653550" />
	</node>
	<node id="-259148" lat="59.232413891" lon="8.04951389273">
		<tag k="name" v="Hjelldokk" />
		<tag k="place" v="locality" />
		<tag k="ssr:stedsnr" v="28015" />
	</node>
	<node id="-259147" lat="59.1174277805" lon="7.89385832733">
		<tag k="name" v="Sandvasstøylen" />
		<tag k="place" v="isolated_dwelling" />
		<tag k="ssr:stedsnr" v="27515" />
	</node>
	<node id="-262317" lat="59.1990305519" lon="8.10846666547">
		<tag k="name" v="Omsberg" />
		<tag k="place" v="farm" />
		<tag k="ssr:stedsnr" v="911044" />
	</node>
	<node id="-259140" lat="59.165099996" lon="7.9561083406">
		<tag k="name" v="Plassen" />
		<tag k="place" v="isolated_dwelling" />
		<tag k="ssr:stedsnr" v="27453" />
	</node>
	<node id="-259136" lat="59.3269166711" lon="7.99655555747">
		<tag k="alt_name" v="Vihovdstøylen" />
		<tag k="name" v="Vehovd" />
		<tag k="place" v="locality" />
		<tag k="ssr:stedsnr" v="3000" />
	</node>
	<node id="-259132" lat="59.3402333345" lon="8.02005555413">
		<tag k="alt_name" v="Erhommen" />
		<tag k="historic" v="shieling" />
		<tag k="name" v="Erahommen" />
		<tag k="place" v="locality" />
		<tag k="ssr:stedsnr" v="2988" />
	</node>
	<node id="-261179" lat="59.1676666647" lon="7.99470833541">
		<tag k="name" v="Jordal" />
		<tag k="place" v="locality" />
		<tag k="ssr:stedsnr" v="642612" />
	</node>
	<node id="-259129" lat="59.2921000033" lon="7.99003054947">
		<tag k="fixme" v="consider place=hamlet" />
		<tag k="name" v="Songedal" />
		<tag k="place" v="farm" />
		<tag k="ssr:stedsnr" v="2962" />
	</node>
	<node id="-259128" lat="59.3026305534" lon="7.97228056188">
		<tag k="name" v="Ystesund" />
		<tag k="place" v="farm" />
		<tag k="ssr:stedsnr" v="2947" />
	</node>
	<node id="-259126" lat="59.3092805578" lon="7.92716667019">
		<tag k="name" v="Simonsfit" />
		<tag k="place" v="locality" />
		<tag k="ssr:stedsnr" v="2939" />
	</node>
	<node id="-259124" lat="59.2589861115" lon="7.75856943859">
		<tag k="alt_name" v="Fugldalsstøyl" />
		<tag k="historic" v="shieling" />
		<tag k="name" v="Fugledalsstøylen" />
		<tag k="old_name" v="Fugledalsstøl" />
		<tag k="place" v="locality" />
		<tag k="ssr:stedsnr" v="2931" />
	</node>
	<node id="-259123" lat="59.2843361119" lon="8.08966389022">
		<tag k="fixme" v="consider place=hamlet" />
		<tag k="name" v="Øyane" />
		<tag k="place" v="village" />
		<tag k="ssr:stedsnr" v="2921" />
	</node>
	<node id="-259251" lat="59.0086027799" lon="8.23822499275">
		<tag k="name" v="Solom" />
		<tag k="place" v="locality" />
		<tag k="ssr:stedsnr" v="48143" />
	</node>
	<node id="-259120" lat="59.2830750025" lon="8.06771666137">
		<tag k="name" v="Lund" />
		<tag k="place" v="isolated_dwelling" />
		<tag k="ssr:stedsnr" v="2906" />
	</node>
	<node id="-259118" lat="59.100074996" lon="7.95284722653">
		<tag k="name" v="Nystøyl" />
		<tag k="old_name" v="Nystøl" />
		<tag k="place" v="locality" />
		<tag k="ssr:stedsnr" v="2465" />
	</node>
	<node id="-259117" lat="59.1126972181" lon="8.07545278159">
		<tag k="alt_name" v="Kåsa" />
		<tag k="name" v="Kosi" />
		<tag k="old_name" v="Kåsi" />
		<tag k="place" v="isolated_dwelling" />
		<tag k="ssr:stedsnr" v="2462" />
	</node>
	<node id="-259115" lat="59.101755553" lon="7.87202222763">
		<tag k="historic" v="shieling" />
		<tag k="name" v="Fitjedalen" />
		<tag k="place" v="locality" />
		<tag k="ssr:stedsnr" v="2458" />
	</node>
	<node id="-259114" lat="59.2070777747" lon="7.83458056004">
		<tag k="alt_name" v="Haukrei nordre" />
		<tag k="historic" v="shieling" />
		<tag k="name" v="Haukreistøylane" />
		<tag k="old_name" v="Haukrei" />
		<tag k="place" v="locality" />
		<tag k="ssr:stedsnr" v="2378" />
	</node>
	<node id="-259113" lat="59.2166249976" lon="8.0149805516">
		<tag k="alt_name" v="Russland" />
		<tag k="historic" v="shieling" />
		<tag k="name" v="Rudsland" />
		<tag k="old_name" v="Rusland" />
		<tag k="place" v="locality" />
		<tag k="ssr:stedsnr" v="2375" />
	</node>
	<node id="-261160" lat="59.2899000008" lon="7.75602777462">
		<tag k="name" v="Sniptorv" />
		<tag k="place" v="locality" />
		<tag k="ssr:stedsnr" v="641371" />
	</node>
	<node id="-259110" lat="59.2778111067" lon="8.14914999856">
		<tag k="name" v="Nybu" />
		<tag k="place" v="locality" />
		<tag k="ssr:stedsnr" v="2231" />
	</node>
	<node id="-261155" lat="59.2471499974" lon="8.03225832847">
		<tag k="name" v="Hadder" />
		<tag k="place" v="farm" />
		<tag k="ssr:stedsnr" v="641323" />
	</node>
	<node id="-259931" lat="59.2497861136" lon="8.04167500255">
		<tag k="name" v="Austjord" />
		<tag k="place" v="farm" />
		<tag k="ssr:stedsnr" v="184857" />
	</node>
	<node id="-259103" lat="59.3107888914" lon="8.13146111137">
		<tag k="alt_name" v="Garmo" />
		<tag k="name" v="Gardmo" />
		<tag k="place" v="farm" />
		<tag k="ssr:stedsnr" v="2157" />
	</node>
	<node id="-261150" lat="59.230416669" lon="8.01272778255">
		<tag k="name" v="Bjørnerud nord" />
		<tag k="place" v="farm" />
		<tag k="ssr:stedsnr" v="641250" />
	</node>
	<node id="-261149" lat="59.242791669" lon="8.04427222141">
		<tag k="name" v="Jordsbø" />
		<tag k="place" v="locality" />
		<tag k="ssr:stedsnr" v="641235" />
	</node>
	<node id="-259097" lat="59.2080249998" lon="8.11180555503">
		<tag k="name" v="Nordbø" />
		<tag k="place" v="locality" />
		<tag k="ssr:stedsnr" v="2045" />
	</node>
	<node id="-261144" lat="59.2444444432" lon="7.91813889095">
		<tag k="amenity" v="school" />
		<tag k="name" v="Skulen" />
		<tag k="ssr:stedsnr" v="641127" />
	</node>
	<node id="-261140" lat="59.1926666672" lon="8.08776666411">
		<tag k="name" v="Årak" />
		<tag k="place" v="isolated_dwelling" />
		<tag k="ssr:stedsnr" v="640834" />
	</node>
	<node id="-261139" lat="59.1869694445" lon="8.09766665974">
		<tag k="name" v="Svalastog nordre" />
		<tag k="place" v="farm" />
		<tag k="ssr:stedsnr" v="640829" />
	</node>
	<node id="-261137" lat="59.1881083345" lon="8.08594166279">
		<tag k="fixme" v="consider place=suburb, village or hamlet" />
		<tag k="name" v="Lyngdal" />
		<tag k="place" v="quarter" />
		<tag k="ssr:stedsnr" v="640804" />
	</node>
	<node id="-262247" lat="59.2508944475" lon="8.27911944039">
		<tag k="historic" v="shieling" />
		<tag k="name" v="Smedbu" />
		<tag k="place" v="locality" />
		<tag k="ssr:stedsnr" v="852208" />
	</node>
	<node id="-261135" lat="59.2421416705" lon="7.97725555168">
		<tag k="historic" v="shieling" />
		<tag k="name" v="Ækrune" />
		<tag k="place" v="locality" />
		<tag k="ssr:stedsnr" v="640544" />
	</node>
	<node id="-259085" lat="59.1386694426" lon="7.88266111877">
		<tag k="historic" v="shieling" />
		<tag k="name" v="Grodvasstøylen" />
		<tag k="old_name" v="Grodvasstøl" />
		<tag k="place" v="locality" />
		<tag k="ssr:stedsnr" v="1397" />
	</node>
	<node id="-259083" lat="59.1718916627" lon="8.03835555509">
		<tag k="name" v="Vik" />
		<tag k="place" v="farm" />
		<tag k="ssr:stedsnr" v="1387" />
	</node>
	<node id="-261130" lat="59.2489777789" lon="8.07964722397">
		<tag k="name" v="Brattli" />
		<tag k="place" v="farm" />
		<tag k="ssr:stedsnr" v="640374" />
	</node>
	<node id="-259244" lat="59.0650361081" lon="8.30304999847">
		<tag k="name" v="Himmelstøyl" />
		<tag k="place" v="locality" />
		<tag k="ssr:stedsnr" v="47922" />
	</node>
	<node id="-259077" lat="59.2398833358" lon="7.81265277349">
		<tag k="historic" v="shieling" />
		<tag k="name" v="Slådalen" />
		<tag k="place" v="locality" />
		<tag k="ssr:stedsnr" v="1327" />
	</node>
	<node id="-259076" lat="59.2360805511" lon="8.05872499161">
		<tag k="name" v="Skori" />
		<tag k="place" v="farm" />
		<tag k="ssr:stedsnr" v="1317" />
	</node>
	<node id="-261123" lat="59.2819055541" lon="8.00019721627">
		<tag k="name" v="Myrane" />
		<tag k="place" v="farm" />
		<tag k="ssr:stedsnr" v="634413" />
	</node>
	<node id="-261121" lat="59.2656055529" lon="7.86442221782">
		<tag k="name" v="Odden" />
		<tag k="place" v="isolated_dwelling" />
		<tag k="ssr:stedsnr" v="634405" />
	</node>
	<node id="-261120" lat="59.2668361138" lon="7.90038610822">
		<tag k="name" v="Fosstjørn" />
		<tag k="place" v="isolated_dwelling" />
		<tag k="ssr:stedsnr" v="634406" />
	</node>
	<node id="-259071" lat="59.2284833375" lon="8.17383610646">
		<tag k="alt_name" v="Brokkestøl" />
		<tag k="historic" v="shieling" />
		<tag k="name" v="Brokkestøylen" />
		<tag k="place" v="locality" />
		<tag k="ssr:stedsnr" v="1009" />
	</node>
	<node id="-261118" lat="59.3013555596" lon="7.96465277149">
		<tag k="alt_name" v="Midtsund" />
		<tag k="name" v="Midsund" />
		<tag k="place" v="farm" />
		<tag k="ssr:stedsnr" v="634396" />
	</node>
	<node id="-261115" lat="59.2561527785" lon="7.98566110954">
		<tag k="name" v="Granakjerr" />
		<tag k="place" v="locality" />
		<tag k="ssr:stedsnr" v="634301" />
	</node>
	<node id="-259066" lat="59.3428555528" lon="7.84156111604">
		<tag k="name" v="Skarstøyl" />
		<tag k="place" v="locality" />
		<tag k="ssr:stedsnr" v="413922" />
	</node>
	<node id="-261113" lat="59.2326472265" lon="8.0078166626">
		<tag k="alt_name" v="Mørkjæ" />
		<tag k="name" v="Morki" />
		<tag k="place" v="farm" />
		<tag k="ssr:stedsnr" v="634009" />
	</node>
	<node id="-262313" lat="59.2696916699" lon="7.75574166978">
		<tag k="name" v="Nystøyl" />
		<tag k="old_name" v="Nystøl" />
		<tag k="place" v="locality" />
		<tag k="ssr:stedsnr" v="913929" />
	</node>
	<node id="-261108" lat="59.006688891" lon="7.94885833259">
		<tag k="fixme" v="consider tourism=alpine_hut or tourism=chalet" />
		<tag k="name" v="Granbustøyl" />
		<tag k="ssr:stedsnr" v="633483" />
		<tag k="tourism" v="wilderness_hut" />
	</node>
	<node id="-259059" lat="59.4441461651" lon="8.17531789822">
		<tag k="fixme" v="consider place=hamlet" />
		<tag k="name" v="Søndre Håtveit" />
		<tag k="place" v="farm" />
		<tag k="ssr:stedsnr" v="984176" />
	</node>
	<node id="-259058" lat="59.3216564605" lon="8.14639425274">
		<tag k="fixme" v="consider place=hamlet" />
		<tag k="name" v="Foldsæ" />
		<tag k="place" v="farm" />
		<tag k="ssr:stedsnr" v="984165" />
	</node>
	<node id="-259057" lat="59.2427927274" lon="7.9336485318">
		<tag k="fixme" v="consider place=hamlet" />
		<tag k="name" v="Øvre Metveit" />
		<tag k="place" v="farm" />
		<tag k="ssr:stedsnr" v="984158" />
	</node>
	<node id="-261104" lat="59.2388694475" lon="8.07651389164">
		<tag k="name" v="Haugfoss" />
		<tag k="place" v="farm" />
		<tag k="ssr:stedsnr" v="633454" />
	</node>
	<node id="-259055" lat="59.2389445457" lon="7.93461898645">
		<tag k="fixme" v="consider place=hamlet" />
		<tag k="name" v="Nedre Metveit" />
		<tag k="place" v="farm" />
		<tag k="ssr:stedsnr" v="984157" />
	</node>
	<node id="-261102" lat="59.2824833356" lon="7.83716667458">
		<tag k="name" v="Kråknes" />
		<tag k="place" v="locality" />
		<tag k="ssr:stedsnr" v="633389" />
	</node>
	<node id="-259053" lat="59.1913729356" lon="8.22137290855">
		<tag k="fixme" v="consider place=hamlet" />
		<tag k="name" v="Østre Nape" />
		<tag k="place" v="farm" />
		<tag k="ssr:stedsnr" v="984141" />
	</node>
	<node id="-259052" lat="59.190302997" lon="8.21651076164">
		<tag k="fixme" v="consider place=hamlet" />
		<tag k="name" v="Nape vestgarden" />
		<tag k="place" v="farm" />
		<tag k="ssr:stedsnr" v="984139" />
	</node>
	<node id="-261099" lat="59.2814305589" lon="7.74707500159">
		<tag k="name" v="Gilbergdalen" />
		<tag k="place" v="locality" />
		<tag k="ssr:stedsnr" v="609975" />
	</node>
	<node id="-259050" lat="58.9997140372" lon="8.04090046689">
		<tag k="name" v="Søndre Nesi" />
		<tag k="place" v="isolated_dwelling" />
		<tag k="ssr:stedsnr" v="984132" />
	</node>
	<node id="-259049" lat="59.0627613655" lon="7.92364949994">
		<tag k="fixme" v="consider place=hamlet" />
		<tag k="name" v="Kvipt" />
		<tag k="place" v="farm" />
		<tag k="ssr:stedsnr" v="984128" />
	</node>
	<node id="-259048" lat="59.1151792516" lon="8.08057143075">
		<tag k="name" v="Breivik" />
		<tag k="place" v="hamlet" />
		<tag k="ssr:stedsnr" v="984127" />
	</node>
	<node id="-261095" lat="59.3142527815" lon="7.73286667139">
		<tag k="historic" v="shieling" />
		<tag k="name" v="Bordbu" />
		<tag k="place" v="locality" />
		<tag k="ssr:stedsnr" v="609940" />
	</node>
	<node id="-259046" lat="59.1164321306" lon="8.07663323476">
		<tag k="fixme" v="consider place=hamlet" />
		<tag k="name" v="Nordre Breivik" />
		<tag k="place" v="farm" />
		<tag k="ssr:stedsnr" v="984125" />
	</node>
	<node id="-261093" lat="59.2668361132" lon="7.90050833167">
		<tag k="name" v="Fosstjørn" />
		<tag k="old_name" v="Fosstjørno" />
		<tag k="place" v="isolated_dwelling" />
		<tag k="ssr:stedsnr" v="609930" />
	</node>
	<node id="-259044" lat="59.1735426922" lon="7.91419299369">
		<tag k="fixme" v="consider place=hamlet" />
		<tag k="name" v="Borgen" />
		<tag k="place" v="farm" />
		<tag k="ssr:stedsnr" v="984041" />
	</node>
	<node id="-261091" lat="59.2702972256" lon="7.85452777251">
		<tag k="alt_name" v="Sveinsbulia" />
		<tag k="name" v="Sveinsbuli" />
		<tag k="place" v="isolated_dwelling" />
		<tag k="ssr:stedsnr" v="609928" />
	</node>
	<node id="-261089" lat="59.2750000029" lon="7.79809999567">
		<tag k="alt_name" v="Strond" />
		<tag k="name" v="Strånd" />
		<tag k="old_name" v="Strand" />
		<tag k="place" v="farm" />
		<tag k="ssr:stedsnr" v="609920" />
	</node>
	<node id="-259040" lat="59.2856888927" lon="8.10138610447">
		<tag k="name" v="Steivoll" />
		<tag k="place" v="isolated_dwelling" />
		<tag k="ssr:stedsnr" v="413796" />
	</node>
	<node id="-261087" lat="59.3380500011" lon="8.1485027791">
		<tag k="name" v="Timmerud" />
		<tag k="place" v="farm" />
		<tag k="ssr:stedsnr" v="609320" />
	</node>
	<node id="-259038" lat="59.1696222246" lon="8.09178055746">
		<tag k="name" v="Bakka" />
		<tag k="place" v="farm" />
		<tag k="ssr:stedsnr" v="413677" />
	</node>
	<node id="-261084" lat="59.0086750033" lon="8.1864666634">
		<tag k="alt_name" v="Bindalstøl" />
		<tag k="historic" v="shieling" />
		<tag k="name" v="Bindalstøylen" />
		<tag k="place" v="locality" />
		<tag k="ssr:stedsnr" v="609000" />
	</node>
	<node id="-259035" lat="59.2878138883" lon="7.98877778355">
		<tag k="name" v="Støyl" />
		<tag k="place" v="locality" />
		<tag k="ssr:stedsnr" v="899283" />
	</node>
	<node id="-261078" lat="59.0265777734" lon="7.96547499179">
		<tag k="name" v="Rjupeto" />
		<tag k="place" v="locality" />
		<tag k="ssr:stedsnr" v="608534" />
	</node>
	<node id="-258553" lat="59.2823944433" lon="7.8497055565">
		<tag k="name" v="Åsi" />
		<tag k="place" v="locality" />
		<tag k="ssr:stedsnr" v="352452" />
	</node>
	<node id="-261076" lat="59.0560055544" lon="8.04262500255">
		<tag k="name" v="Sandvik" />
		<tag k="place" v="isolated_dwelling" />
		<tag k="ssr:stedsnr" v="608520" />
	</node>
	<node id="-261075" lat="59.0438083363" lon="7.88706944781">
		<tag k="alt_name" v="Nordre Grøssæ" />
		<tag k="name" v="Nørdre Grøssæ" />
		<tag k="old_name" v="Grøssæ, nordre" />
		<tag k="place" v="isolated_dwelling" />
		<tag k="ssr:stedsnr" v="608507" />
	</node>
	<node id="-261074" lat="59.1210249978" lon="8.0708027704">
		<tag k="name" v="Svivet" />
		<tag k="place" v="farm" />
		<tag k="ssr:stedsnr" v="608442" />
	</node>
	<node id="-259025" lat="58.9961722182" lon="8.11439444815">
		<tag k="name" v="Nilsebu" />
		<tag k="place" v="isolated_dwelling" />
		<tag k="ssr:stedsnr" v="898970" />
	</node>
	<node id="-261072" lat="59.1315888903" lon="8.06550277782">
		<tag k="name" v="Høyland" />
		<tag k="place" v="farm" />
		<tag k="ssr:stedsnr" v="608427" />
	</node>
	<node id="-261070" lat="59.1417694472" lon="8.0421249994">
		<tag k="fixme" v="consider place=hamlet" />
		<tag k="name" v="Tveit" />
		<tag k="place" v="farm" />
		<tag k="ssr:stedsnr" v="608412" />
	</node>
	<node id="-261069" lat="59.1587805563" lon="7.82365000055">
		<tag k="name" v="Geitsund" />
		<tag k="place" v="isolated_dwelling" />
		<tag k="ssr:stedsnr" v="608408" />
	</node>
	<node id="-261068" lat="59.162455558" lon="7.9586333389">
		<tag k="name" v="Storrud" />
		<tag k="place" v="farm" />
		<tag k="ssr:stedsnr" v="608404" />
	</node>
	<node id="-261067" lat="59.2082444425" lon="8.08990556116">
		<tag k="name" v="Skoglund" />
		<tag k="place" v="locality" />
		<tag k="ssr:stedsnr" v="608352" />
	</node>
	<node id="-261066" lat="59.220149999" lon="8.07899722307">
		<tag k="name" v="Heimdal" />
		<tag k="place" v="locality" />
		<tag k="ssr:stedsnr" v="608341" />
	</node>
	<node id="-261065" lat="59.2215999994" lon="8.02865555594">
		<tag k="historic" v="shieling" />
		<tag k="name" v="Bjåstøyl" />
		<tag k="old_name" v="Bjåstøl" />
		<tag k="place" v="locality" />
		<tag k="ssr:stedsnr" v="608339" />
	</node>
	<node id="-258999" lat="59.2740138875" lon="8.08429721922">
		<tag k="name" v="Dølemo" />
		<tag k="place" v="isolated_dwelling" />
		<tag k="ssr:stedsnr" v="898366" />
	</node>
	<node id="-261044" lat="58.9792194421" lon="8.01578333681">
		<tag k="alt_name" v="Grotåstøylen" />
		<tag k="historic" v="shieling" />
		<tag k="name" v="Grotåstøl" />
		<tag k="place" v="locality" />
		<tag k="ssr:stedsnr" v="607618" />
	</node>
	<node id="-261043" lat="59.0569222185" lon="7.97528889342">
		<tag k="name" v="Lyngstad" />
		<tag k="place" v="farm" />
		<tag k="ssr:stedsnr" v="607478" />
	</node>
	<node id="-258993" lat="59.3042666685" lon="8.11690555654">
		<tag k="name" v="Skarkrud" />
		<tag k="place" v="locality" />
		<tag k="ssr:stedsnr" v="898104" />
	</node>
	<node id="-261040" lat="59.1771638886" lon="8.09171388641">
		<tag k="fixme" v="consider place=hamlet" />
		<tag k="name" v="Lofthus" />
		<tag k="place" v="farm" />
		<tag k="ssr:stedsnr" v="607396" />
	</node>
	<node id="-261039" lat="59.1738388868" lon="7.91223889116">
		<tag k="name" v="Borgi" />
		<tag k="place" v="isolated_dwelling" />
		<tag k="ssr:stedsnr" v="607386" />
	</node>
	<node id="-261038" lat="59.1834277773" lon="8.09210276926">
		<tag k="alt_name" v="Kyrkjebygdi" />
		<tag k="name" v="Fyresdal" />
		<tag k="place" v="village" />
		<tag k="ssr:stedsnr" v="607379" />
	</node>
	<node id="-258986" lat="59.0626750012" lon="8.28832777944">
		<tag k="name" v="Skarbu" />
		<tag k="place" v="locality" />
		<tag k="ssr:stedsnr" v="897908" />
	</node>
	<node id="-261033" lat="59.0696999987" lon="8.16603055953">
		<tag k="alt_name" v="Gjevesto" />
		<tag k="name" v="Gjævestø" />
		<tag k="place" v="isolated_dwelling" />
		<tag k="ssr:stedsnr" v="607220" />
	</node>
	<node id="-259047" lat="59.1156008316" lon="8.08389244521">
		<tag k="fixme" v="consider place=hamlet" />
		<tag k="name" v="Søndre Breivik" />
		<tag k="place" v="farm" />
		<tag k="ssr:stedsnr" v="984126" />
	</node>
	<node id="-261030" lat="59.205261108" lon="8.16882776951">
		<tag k="alt_name" v="Bjåstøyl" />
		<tag k="name" v="Bjåstøl" />
		<tag k="place" v="isolated_dwelling" />
		<tag k="ssr:stedsnr" v="607047" />
	</node>
	<node id="-258980" lat="59.1775222188" lon="8.08837221412">
		<tag k="name" v="Bjørgheim" />
		<tag k="place" v="isolated_dwelling" />
		<tag k="ssr:stedsnr" v="897762" />
	</node>
	<node id="-258886" lat="59.3446888848" lon="7.870441672">
		<tag k="name" v="Borgedalen" />
		<tag k="place" v="locality" />
		<tag k="ssr:stedsnr" v="474987" />
	</node>
	<node id="-262299" lat="59.2975638887" lon="7.94727778117">
		<tag k="name" v="Nivelkinn" />
		<tag k="place" v="locality" />
		<tag k="ssr:stedsnr" v="899720" />
	</node>
	<node id="-261024" lat="59.036955558" lon="8.01423054837">
		<tag k="historic" v="shieling" />
		<tag k="name" v="Gamlestøyl" />
		<tag k="place" v="locality" />
		<tag k="ssr:stedsnr" v="595910" />
	</node>
	<node id="-258974" lat="59.1767194444" lon="8.24182499361">
		<tag k="historic" v="shieling" />
		<tag k="name" v="Vidstøylhytta" />
		<tag k="place" v="locality" />
		<tag k="ssr:stedsnr" v="897608" />
	</node>
	<node id="-258973" lat="59.0049805572" lon="8.27941111167">
		<tag k="name" v="Slettemo" />
		<tag k="place" v="isolated_dwelling" />
		<tag k="ssr:stedsnr" v="897604" />
	</node>
	<node id="-258202" lat="59.144325004" lon="8.03446388521">
		<tag k="fixme" v="consider place=hamlet" />
		<tag k="name" v="Nøra" />
		<tag k="place" v="farm" />
		<tag k="ssr:stedsnr" v="278629" />
	</node>
	<node id="-261016" lat="59.2913833356" lon="7.96502777703">
		<tag k="name" v="Skrykkja" />
		<tag k="place" v="locality" />
		<tag k="ssr:stedsnr" v="595631" />
	</node>
	<node id="-261006" lat="59.2740722181" lon="7.98907777998">
		<tag k="name" v="Lyslistøylen" />
		<tag k="place" v="locality" />
		<tag k="ssr:stedsnr" v="595299" />
	</node>
	<node id="-258955" lat="59.1557694477" lon="8.12065277836">
		<tag k="name" v="Våkås" />
		<tag k="place" v="locality" />
		<tag k="ssr:stedsnr" v="896289" />
	</node>
	<node id="-258949" lat="59.1584166675" lon="7.82286945217">
		<tag k="historic" v="shieling" />
		<tag k="name" v="Geitsund" />
		<tag k="place" v="locality" />
		<tag k="ssr:stedsnr" v="887932" />
	</node>
	<node id="-260996" lat="59.3306194432" lon="7.96409999467">
		<tag k="name" v="Tverrli" />
		<tag k="place" v="locality" />
		<tag k="ssr:stedsnr" v="595065" />
	</node>
	<node id="-260995" lat="59.2997888929" lon="7.91096944952">
		<tag k="name" v="Skåli uppigard" />
		<tag k="place" v="farm" />
		<tag k="ssr:stedsnr" v="595013" />
	</node>
	<node id="-258946" lat="59.2431777814" lon="7.93319166147">
		<tag k="name" v="Porsgrunn" />
		<tag k="place" v="farm" />
		<tag k="ssr:stedsnr" v="885995" />
	</node>
	<node id="-258943" lat="59.1735861124" lon="7.91255555554">
		<tag k="name" v="Borgen øvre" />
		<tag k="place" v="farm" />
		<tag k="ssr:stedsnr" v="885838" />
	</node>
	<node id="-258355" lat="59.2616333308" lon="8.33722500628">
		<tag k="name" v="Kråbu" />
		<tag k="place" v="locality" />
		<tag k="ssr:stedsnr" v="305189" />
	</node>
	<node id="-262293" lat="59.3185111125" lon="7.92015554916">
		<tag k="name" v="Rombui" />
		<tag k="place" v="locality" />
		<tag k="ssr:stedsnr" v="899396" />
	</node>
	<node id="-260987" lat="59.351986109" lon="7.86108611968">
		<tag k="name" v="Nystøyl" />
		<tag k="place" v="locality" />
		<tag k="ssr:stedsnr" v="594896" />
	</node>
	<node id="-258938" lat="59.1451972198" lon="7.88076389188">
		<tag k="historic" v="shieling" />
		<tag k="name" v="Vålå" />
		<tag k="place" v="locality" />
		<tag k="ssr:stedsnr" v="885652" />
	</node>
	<node id="-260985" lat="59.3260333355" lon="8.14228889386">
		<tag k="name" v="Nedre Haugan" />
		<tag k="place" v="farm" />
		<tag k="ssr:stedsnr" v="594862" />
	</node>
	<node id="-258936" lat="59.2671611151" lon="7.85206944703">
		<tag k="name" v="Eikedalsstøylen" />
		<tag k="place" v="locality" />
		<tag k="ssr:stedsnr" v="885587" />
	</node>
	<node id="-258935" lat="59.1446638908" lon="8.04010278101">
		<tag k="fixme" v="consider place=hamlet" />
		<tag k="name" v="Lofthus" />
		<tag k="place" v="farm" />
		<tag k="ssr:stedsnr" v="885585" />
	</node>
	<node id="-262310" lat="59.3280805529" lon="7.82502222796">
		<tag k="name" v="Setali" />
		<tag k="place" v="locality" />
		<tag k="ssr:stedsnr" v="899976" />
	</node>
	<node id="-258928" lat="59.2766999982" lon="7.73369722415">
		<tag k="historic" v="shieling" />
		<tag k="name" v="Vebergstøylen" />
		<tag k="place" v="locality" />
		<tag k="ssr:stedsnr" v="885396" />
	</node>
	<node id="-258926" lat="59.1838833361" lon="7.79249999903">
		<tag k="name" v="Saupstøyl" />
		<tag k="place" v="locality" />
		<tag k="ssr:stedsnr" v="885270" />
	</node>
	<node id="-260972" lat="59.1377361138" lon="8.15293611169">
		<tag k="name" v="Brattebrokk" />
		<tag k="place" v="locality" />
		<tag k="ssr:stedsnr" v="594613" />
	</node>
	<node id="-258968" lat="59.1836833334" lon="8.11329721452">
		<tag k="name" v="Lauvdal søndre" />
		<tag k="place" v="farm" />
		<tag k="ssr:stedsnr" v="897433" />
	</node>
	<node id="-258918" lat="59.2432194446" lon="8.27013611151">
		<tag k="historic" v="shieling" />
		<tag k="name" v="Sveigstøyl" />
		<tag k="place" v="locality" />
		<tag k="ssr:stedsnr" v="885005" />
	</node>
	<node id="-258914" lat="59.1329361122" lon="8.02928889681">
		<tag k="name" v="Libjå øvre" />
		<tag k="place" v="farm" />
		<tag k="ssr:stedsnr" v="884356" />
	</node>
	<node id="-259899" lat="59.0589833376" lon="7.98539722727">
		<tag k="name" v="Klauvås" />
		<tag k="old_name" v="Klauvstad" />
		<tag k="place" v="farm" />
		<tag k="ssr:stedsnr" v="183415" />
	</node>
	<node id="-258911" lat="59.2496222205" lon="8.03382777741">
		<tag k="name" v="Lauvland øvre" />
		<tag k="place" v="isolated_dwelling" />
		<tag k="ssr:stedsnr" v="884347" />
	</node>
	<node id="-258910" lat="59.2432861123" lon="8.02793611026">
		<tag k="name" v="Jore nedre" />
		<tag k="place" v="isolated_dwelling" />
		<tag k="ssr:stedsnr" v="884323" />
	</node>
	<node id="-260955" lat="59.2887055598" lon="8.1068527724">
		<tag k="name" v="Søvei søndre" />
		<tag k="place" v="locality" />
		<tag k="ssr:stedsnr" v="594195" />
	</node>
	<node id="-258191" lat="59.293213885" lon="7.7545250045">
		<tag k="name" v="Listøyl" />
		<tag k="place" v="locality" />
		<tag k="ssr:stedsnr" v="278369" />
	</node>
	<node id="-258532" lat="59.3302527796" lon="8.07179444307">
		<tag k="name" v="Nystøyl" />
		<tag k="place" v="locality" />
		<tag k="ssr:stedsnr" v="351904" />
	</node>
	<node id="-260946" lat="59.0969166665" lon="8.28175555804">
		<tag k="name" v="Sandvasstøylen" />
		<tag k="place" v="locality" />
		<tag k="ssr:stedsnr" v="593997" />
	</node>
	<node id="-258897" lat="59.2194888892" lon="8.10316944257">
		<tag k="name" v="Huslænde" />
		<tag k="place" v="locality" />
		<tag k="ssr:stedsnr" v="883623" />
	</node>
	<node id="-260944" lat="59.1769805561" lon="8.09049443851">
		<tag k="name" v="Sølofthus" />
		<tag k="place" v="locality" />
		<tag k="ssr:stedsnr" v="593758" />
	</node>
	<node id="-262285" lat="59.1128055595" lon="8.07523888175">
		<tag k="name" v="Liane" />
		<tag k="place" v="farm" />
		<tag k="ssr:stedsnr" v="877495" />
	</node>
	<node id="-260939" lat="59.33190556" lon="8.05073334017">
		<tag k="name" v="Trættekrylen" />
		<tag k="place" v="locality" />
		<tag k="ssr:stedsnr" v="593912" />
	</node>
	<node id="-260934" lat="59.2982500031" lon="8.22891111055">
		<tag k="name" v="Bekkedalen" />
		<tag k="place" v="locality" />
		<tag k="ssr:stedsnr" v="593420" />
	</node>
	<node id="-262513" lat="59.1282166668" lon="8.13635833931">
		<tag k="name" v="Rugkåsa" />
		<tag k="place" v="locality" />
		<tag k="ssr:stedsnr" v="958604" />
	</node>
	<node id="-258875" lat="59.3406638913" lon="7.90682777143">
		<tag k="name" v="Nystøyl" />
		<tag k="place" v="locality" />
		<tag k="ssr:stedsnr" v="474375" />
	</node>
	<node id="-258873" lat="59.2919916668" lon="7.98953611987">
		<tag k="name" v="Songedal burtistog" />
		<tag k="place" v="farm" />
		<tag k="ssr:stedsnr" v="474267" />
	</node>
	<node id="-259892" lat="59.2490916676" lon="8.08892221879">
		<tag k="fixme" v="consider place=hamlet" />
		<tag k="name" v="Gryte nordre" />
		<tag k="place" v="farm" />
		<tag k="ssr:stedsnr" v="183302" />
	</node>
	<node id="-258868" lat="59.0616305542" lon="7.97472777477">
		<tag k="name" v="Espeli" />
		<tag k="place" v="locality" />
		<tag k="ssr:stedsnr" v="474181" />
	</node>
	<node id="-259891" lat="59.235902778" lon="7.983394445">
		<tag k="alt_name" v="Håmmårsjordet;Hamarsjordet" />
		<tag k="name" v="Hammarsjordet" />
		<tag k="place" v="isolated_dwelling" />
		<tag k="ssr:stedsnr" v="183293" />
	</node>
	<node id="-258863" lat="59.3266388867" lon="8.14470832503">
		<tag k="name" v="Øvre Haugan" />
		<tag k="place" v="farm" />
		<tag k="ssr:stedsnr" v="473880" />
	</node>
	<node id="-260908" lat="59.1335555549" lon="7.89494443721">
		<tag k="historic" v="shieling" />
		<tag k="name" v="Klinkenberg" />
		<tag k="place" v="locality" />
		<tag k="ssr:stedsnr" v="581712" />
	</node>
	<node id="-258859" lat="59.2680666629" lon="7.89712222601">
		<tag k="historic" v="shieling" />
		<tag k="name" v="Fosstjønn" />
		<tag k="place" v="locality" />
		<tag k="ssr:stedsnr" v="473650" />
	</node>
	<node id="-260906" lat="59.2502999984" lon="8.31175555175">
		<tag k="historic" v="shieling" />
		<tag k="name" v="Neiri Smedbu" />
		<tag k="place" v="locality" />
		<tag k="ssr:stedsnr" v="581673" />
	</node>
	<node id="-260905" lat="59.1555694479" lon="7.88359999793">
		<tag k="historic" v="shieling" />
		<tag k="name" v="Nørstebu" />
		<tag k="place" v="locality" />
		<tag k="ssr:stedsnr" v="581639" />
	</node>
	<node id="-260904" lat="59.143924997" lon="8.03612776977">
		<tag k="alt_name" v="Åketun" />
		<tag k="fixme" v="consider place=hamlet" />
		<tag k="name" v="Aketun" />
		<tag k="place" v="farm" />
		<tag k="ssr:stedsnr" v="581622" />
	</node>
	<node id="-258524" lat="59.1745916644" lon="8.08969166494">
		<tag k="name" v="Kåsa søndre" />
		<tag k="place" v="farm" />
		<tag k="ssr:stedsnr" v="351807" />
	</node>
	<node id="-259889" lat="59.2453500031" lon="7.91624443604">
		<tag k="alt_name" v="Kleivi" />
		<tag k="fixme" v="consider place=hamlet" />
		<tag k="name" v="Kleiva" />
		<tag k="place" v="farm" />
		<tag k="ssr:stedsnr" v="183273" />
	</node>
	<node id="-260899" lat="59.19168611" lon="7.99922500526">
		<tag k="historic" v="shieling" />
		<tag k="name" v="Gausvasstøylen" />
		<tag k="place" v="locality" />
		<tag k="ssr:stedsnr" v="581602" />
	</node>
	<node id="-262216" lat="59.1920518747" lon="8.10012445766">
		<tag k="name" v="Århus" />
		<tag k="place" v="farm" />
		<tag k="ssr:stedsnr" v="851345" />
	</node>
	<node id="-260896" lat="59.2756000028" lon="7.75815000313">
		<tag k="name" v="Listøyl" />
		<tag k="place" v="locality" />
		<tag k="ssr:stedsnr" v="581421" />
	</node>
	<node id="-260895" lat="59.2947861134" lon="7.72394167302">
		<tag k="name" v="Brårvasshytta" />
		<tag k="place" v="isolated_dwelling" />
		<tag k="ssr:stedsnr" v="581349" />
	</node>
	<node id="-258846" lat="59.0332444425" lon="8.04194444382">
		<tag k="name" v="Sandvik" />
		<tag k="place" v="farm" />
		<tag k="ssr:stedsnr" v="413574" />
	</node>
	<node id="-260887" lat="59.2434500018" lon="7.90641388311">
		<tag k="name" v="Lisle Bondal" />
		<tag k="place" v="locality" />
		<tag k="ssr:stedsnr" v="581192" />
	</node>
	<node id="-260886" lat="59.2430972198" lon="7.86395833531">
		<tag k="name" v="Skåltjønn" />
		<tag k="place" v="farm" />
		<tag k="ssr:stedsnr" v="581133" />
	</node>
	<node id="-258837" lat="59.2727972238" lon="7.97185278358">
		<tag k="name" v="Nystøyl" />
		<tag k="place" v="locality" />
		<tag k="ssr:stedsnr" v="413326" />
	</node>
	<node id="-260881" lat="59.2380833311" lon="8.26841943961">
		<tag k="historic" v="shieling" />
		<tag k="name" v="Matnapp" />
		<tag k="place" v="locality" />
		<tag k="ssr:stedsnr" v="581007" />
	</node>
	<node id="-258829" lat="59.3248916639" lon="8.11449166228">
		<tag k="name" v="Strånd" />
		<tag k="place" v="locality" />
		<tag k="ssr:stedsnr" v="412998" />
	</node>
	<node id="-260876" lat="59.2401305519" lon="8.04237221965">
		<tag k="name" v="Stubbsjord" />
		<tag k="place" v="locality" />
		<tag k="ssr:stedsnr" v="580248" />
	</node>
	<node id="-260874" lat="59.2437972194" lon="7.97010555643">
		<tag k="name" v="Ækrune" />
		<tag k="place" v="locality" />
		<tag k="ssr:stedsnr" v="579600" />
	</node>
	<node id="-259543" lat="59.2690777769" lon="8.09616110612">
		<tag k="name" v="Bjørnstad nordre" />
		<tag k="place" v="farm" />
		<tag k="ssr:stedsnr" v="109443" />
	</node>
	<node id="-260870" lat="59.2454388872" lon="8.07896110307">
		<tag k="name" v="Gryteskøti" />
		<tag k="place" v="locality" />
		<tag k="ssr:stedsnr" v="579421" />
	</node>
	<node id="-260868" lat="59.2405555542" lon="8.0505333286">
		<tag k="name" v="Stigansjord" />
		<tag k="place" v="locality" />
		<tag k="ssr:stedsnr" v="579413" />
	</node>
	<node id="-258819" lat="59.3201222209" lon="8.13660556417">
		<tag k="name" v="Fossum" />
		<tag k="place" v="farm" />
		<tag k="ssr:stedsnr" v="412858" />
	</node>
	<node id="-260866" lat="59.1863222229" lon="8.10512500142">
		<tag k="name" v="Undedal" />
		<tag k="place" v="isolated_dwelling" />
		<tag k="ssr:stedsnr" v="579244" />
	</node>
	<node id="-260865" lat="59.2002722195" lon="8.1091555553">
		<tag k="name" v="Undeberg" />
		<tag k="place" v="farm" />
		<tag k="ssr:stedsnr" v="579239" />
	</node>
	<node id="-260864" lat="59.2166555572" lon="8.13588056073">
		<tag k="historic" v="shieling" />
		<tag k="name" v="Lagjikøsstøylen" />
		<tag k="place" v="locality" />
		<tag k="ssr:stedsnr" v="579051" />
	</node>
	<node id="-260860" lat="59.1804666636" lon="8.08749167275">
		<tag k="name" v="Fyresdal hotell" />
		<tag k="ssr:stedsnr" v="573475" />
		<tag k="tourism" v="hotel" />
	</node>
	<node id="-258811" lat="59.3051472192" lon="8.09684999539">
		<tag k="alt_name" v="Lie;Øvre Li" />
		<tag k="fixme" v="consider place=hamlet" />
		<tag k="name" v="Li" />
		<tag k="place" v="farm" />
		<tag k="ssr:stedsnr" v="412687" />
	</node>
	<node id="-260857" lat="59.1671166702" lon="7.95712500344">
		<tag k="alt_name" v="Lie" />
		<tag k="name" v="Lia" />
		<tag k="place" v="farm" />
		<tag k="ssr:stedsnr" v="573418" />
	</node>
	<node id="-260855" lat="59.3143083329" lon="7.87882500238">
		<tag k="name" v="Moberg" />
		<tag k="place" v="locality" />
		<tag k="ssr:stedsnr" v="573345" />
	</node>
	<node id="-258806" lat="59.1288694417" lon="8.12676388765">
		<tag k="name" v="Sundbø" />
		<tag k="place" v="isolated_dwelling" />
		<tag k="ssr:stedsnr" v="412549" />
	</node>
	<node id="-259881" lat="59.1065999988" lon="8.26267778609">
		<tag k="alt_name" v="Fisketjørn" />
		<tag k="name" v="Fisketjønnstøylen" />
		<tag k="place" v="isolated_dwelling" />
		<tag k="ssr:stedsnr" v="183158" />
	</node>
	<node id="-258800" lat="59.0467277813" lon="8.3469500004">
		<tag k="name" v="Nystøyl" />
		<tag k="place" v="locality" />
		<tag k="ssr:stedsnr" v="412454" />
	</node>
	<node id="-258799" lat="59.197347221" lon="8.17588611247">
		<tag k="name" v="Grasstøyl" />
		<tag k="place" v="locality" />
		<tag k="ssr:stedsnr" v="412442" />
	</node>
	<node id="-258795" lat="59.0590222206" lon="8.06784722818">
		<tag k="name" v="Nedre Berge" />
		<tag k="place" v="farm" />
		<tag k="ssr:stedsnr" v="412421" />
	</node>
	<node id="-260839" lat="59.3435499985" lon="7.87866666685">
		<tag k="name" v="Stavsli" />
		<tag k="place" v="locality" />
		<tag k="ssr:stedsnr" v="548974" />
	</node>
	<node id="-260838" lat="59.3517999968" lon="7.8494805486">
		<tag k="name" v="Storli" />
		<tag k="place" v="locality" />
		<tag k="ssr:stedsnr" v="548965" />
	</node>
	<node id="-260837" lat="59.2874333362" lon="7.73273611961">
		<tag k="historic" v="shieling" />
		<tag k="name" v="Torfonnstøylen" />
		<tag k="old_name" v="Torfonnstøl" />
		<tag k="place" v="locality" />
		<tag k="ssr:stedsnr" v="548958" />
	</node>
	<node id="-258785" lat="58.9883277735" lon="7.95436944293">
		<tag k="historic" v="shieling" />
		<tag k="name" v="Øytjønnåsen" />
		<tag k="place" v="locality" />
		<tag k="ssr:stedsnr" v="412295" />
	</node>
	<node id="-259536" lat="59.1794861077" lon="8.10271389207">
		<tag k="name" v="Uppstad" />
		<tag k="place" v="locality" />
		<tag k="ssr:stedsnr" v="108783" />
	</node>
	<node id="-258782" lat="59.0463138862" lon="8.1687527842">
		<tag k="name" v="Solli" />
		<tag k="place" v="locality" />
		<tag k="ssr:stedsnr" v="412260" />
	</node>
	<node id="-259535" lat="59.1797944425" lon="8.09246389214">
		<tag k="name" v="Moghus nordre" />
		<tag k="place" v="farm" />
		<tag k="ssr:stedsnr" v="108776" />
	</node>
	<node id="-260823" lat="59.2177916672" lon="7.85305278514">
		<tag k="historic" v="shieling" />
		<tag k="name" v="Varmekro" />
		<tag k="place" v="locality" />
		<tag k="ssr:stedsnr" v="548356" />
	</node>
	<node id="-258770" lat="59.2528972198" lon="8.16672499976">
		<tag k="name" v="Sæsjori" />
		<tag k="place" v="locality" />
		<tag k="ssr:stedsnr" v="412118" />
	</node>
	<node id="-258769" lat="59.3097777748" lon="8.1335416665">
		<tag k="name" v="Bjåland nordre" />
		<tag k="place" v="farm" />
		<tag k="ssr:stedsnr" v="412091" />
	</node>
	<node id="-260814" lat="59.315224997" lon="8.12903055785">
		<tag k="alt_name" v="Rinden" />
		<tag k="name" v="Rindi" />
		<tag k="place" v="farm" />
		<tag k="ssr:stedsnr" v="548157" />
	</node>
	<node id="-260812" lat="59.2963638847" lon="8.24189722402">
		<tag k="historic" v="shieling" />
		<tag k="name" v="Kvæven" />
		<tag k="place" v="locality" />
		<tag k="ssr:stedsnr" v="548133" />
	</node>
	<node id="-260811" lat="59.1283999968" lon="8.28976110773">
		<tag k="alt_name" v="Osvasstøyl" />
		<tag k="name" v="Osvasstøl" />
		<tag k="place" v="locality" />
		<tag k="ssr:stedsnr" v="548130" />
	</node>
	<node id="-262263" lat="59.3014638912" lon="8.00355556139">
		<tag k="alt_name" v="Neiri Liene" />
		<tag k="name" v="Nerliene" />
		<tag k="place" v="farm" />
		<tag k="ssr:stedsnr" v="852953" />
	</node>
	<node id="-260806" lat="58.9539194468" lon="8.31099444318">
		<tag k="name" v="Fosstveit" />
		<tag k="place" v="isolated_dwelling" />
		<tag k="ssr:stedsnr" v="547928" />
	</node>
	<node id="-260800" lat="59.0245416685" lon="7.96949721634">
		<tag k="alt_name" v="Nistogstøylen" />
		<tag k="name" v="Nedstogstøylen" />
		<tag k="old_name" v="Nestogsstølen" />
		<tag k="place" v="locality" />
		<tag k="ssr:stedsnr" v="547538" />
	</node>
	<node id="-260799" lat="59.1199611118" lon="7.90715832667">
		<tag k="historic" v="shieling" />
		<tag k="name" v="Lauvåsen" />
		<tag k="place" v="locality" />
		<tag k="ssr:stedsnr" v="547453" />
	</node>
	<node id="-258750" lat="59.0094861129" lon="8.25833888315">
		<tag k="name" v="Bakken" />
		<tag k="place" v="farm" />
		<tag k="ssr:stedsnr" v="411191" />
	</node>
	<node id="-260797" lat="59.1317583368" lon="7.81359721522">
		<tag k="name" v="Hovasshytta" />
		<tag k="place" v="isolated_dwelling" />
		<tag k="ssr:stedsnr" v="547438" />
	</node>
	<node id="-260796" lat="59.1439444438" lon="7.87497778634">
		<tag k="historic" v="shieling" />
		<tag k="name" v="Nesstøylen" />
		<tag k="old_name" v="Nesstølen" />
		<tag k="place" v="locality" />
		<tag k="ssr:stedsnr" v="547430" />
	</node>
	<node id="-258847" lat="59.332575" lon="7.92189444318">
		<tag k="name" v="Sellibo" />
		<tag k="place" v="locality" />
		<tag k="ssr:stedsnr" v="413592" />
	</node>
	<node id="-260792" lat="59.2329999985" lon="7.94877777299">
		<tag k="name" v="Nygard" />
		<tag k="place" v="isolated_dwelling" />
		<tag k="ssr:stedsnr" v="547368" />
	</node>
	<node id="-260789" lat="59.2444805549" lon="7.80276388261">
		<tag k="historic" v="shieling" />
		<tag k="name" v="Røynbrokke" />
		<tag k="old_name" v="Røynbrøkke" />
		<tag k="place" v="locality" />
		<tag k="ssr:stedsnr" v="547336" />
	</node>
	<node id="-258740" lat="59.0652972267" lon="8.37302222095">
		<tag k="name" v="Ånundsbu" />
		<tag k="place" v="locality" />
		<tag k="ssr:stedsnr" v="409114" />
	</node>
	<node id="-260787" lat="59.2459666659" lon="7.89983333951">
		<tag k="alt_name" v="Li;Lien" />
		<tag k="fixme" v="consider place=hamlet" />
		<tag k="name" v="Lia" />
		<tag k="place" v="farm" />
		<tag k="ssr:stedsnr" v="547332" />
	</node>
	<node id="-262259" lat="59.3188750024" lon="7.85443610594">
		<tag k="name" v="Gullandsåsen" />
		<tag k="place" v="locality" />
		<tag k="ssr:stedsnr" v="852926" />
	</node>
	<node id="-259051" lat="59.0717311205" lon="8.16532229133">
		<tag k="fixme" v="consider place=hamlet" />
		<tag k="name" v="Gjevesta" />
		<tag k="place" v="farm" />
		<tag k="ssr:stedsnr" v="984135" />
	</node>
	<node id="-258734" lat="59.0622750001" lon="8.34332221875">
		<tag k="name" v="Nesbu" />
		<tag k="place" v="isolated_dwelling" />
		<tag k="ssr:stedsnr" v="408111" />
	</node>
	<node id="-262258" lat="59.2593916664" lon="7.80689444126">
		<tag k="historic" v="shieling" />
		<tag k="name" v="Brunli" />
		<tag k="old_name" v="Bronli" />
		<tag k="place" v="locality" />
		<tag k="ssr:stedsnr" v="852920" />
	</node>
	<node id="-258379" lat="59.3185444482" lon="8.15566666934">
		<tag k="name" v="Remberg" />
		<tag k="place" v="isolated_dwelling" />
		<tag k="ssr:stedsnr" v="306178" />
	</node>
	<node id="-259868" lat="59.1847333292" lon="8.10471666605">
		<tag k="name" v="Kasebua" />
		<tag k="place" v="locality" />
		<tag k="ssr:stedsnr" v="170961" />
	</node>
	<node id="-258726" lat="59.21638333" lon="8.09240834048">
		<tag k="name" v="Flatland" />
		<tag k="place" v="farm" />
		<tag k="ssr:stedsnr" v="244356" />
	</node>
	<node id="-258725" lat="59.247924997" lon="8.09044166976">
		<tag k="name" v="Gryte" />
		<tag k="place" v="hamlet" />
		<tag k="ssr:stedsnr" v="404641" />
	</node>
	<node id="-260772" lat="59.1849999963" lon="8.11655000379">
		<tag k="name" v="Berge" />
		<tag k="place" v="farm" />
		<tag k="ssr:stedsnr" v="547093" />
	</node>
	<node id="-260770" lat="59.0061166702" lon="8.03620278148">
		<tag k="alt_name" v="Kleivland" />
		<tag k="name" v="Kleivi" />
		<tag k="place" v="isolated_dwelling" />
		<tag k="ssr:stedsnr" v="547028" />
	</node>
	<node id="-260768" lat="59.2422472219" lon="8.26661944473">
		<tag k="alt_name" v="Sveigstøl" />
		<tag k="historic" v="shieling" />
		<tag k="name" v="Sveigstøyl" />
		<tag k="place" v="locality" />
		<tag k="ssr:stedsnr" v="547018" />
	</node>
	<node id="-260208" lat="59.1890777781" lon="8.08734999161">
		<tag k="name" v="Prærien" />
		<tag k="place" v="quarter" />
		<tag k="ssr:stedsnr" v="424989" />
	</node>
	<node id="-258716" lat="59.199844441" lon="7.82696111708">
		<tag k="historic" v="shieling" />
		<tag k="name" v="Bjorfitstøylen" />
		<tag k="place" v="locality" />
		<tag k="ssr:stedsnr" v="399745" />
	</node>
	<node id="-258211" lat="59.1818611137" lon="7.83712221407">
		<tag k="historic" v="shieling" />
		<tag k="name" v="Fiskeløysstøylen" />
		<tag k="place" v="locality" />
		<tag k="ssr:stedsnr" v="278790" />
	</node>
	<node id="-260761" lat="58.9988805569" lon="8.2719750052">
		<tag k="name" v="Bråten" />
		<tag k="place" v="isolated_dwelling" />
		<tag k="ssr:stedsnr" v="546845" />
	</node>
	<node id="-260760" lat="59.0514000003" lon="7.96552222166">
		<tag k="name" v="Solliåsen" />
		<tag k="place" v="neighbourhood" />
		<tag k="ssr:stedsnr" v="545958" />
	</node>
	<node id="-260759" lat="59.055427776" lon="7.9853833378">
		<tag k="name" v="Bergåsen" />
		<tag k="place" v="neighbourhood" />
		<tag k="ssr:stedsnr" v="545957" />
	</node>
	<node id="-258710" lat="59.250255556" lon="8.29834721473">
		<tag k="name" v="Godokk" />
		<tag k="place" v="locality" />
		<tag k="ssr:stedsnr" v="399666" />
	</node>
	<node id="-258708" lat="59.1691833359" lon="8.03836943715">
		<tag k="alt_name" v="Søndre Vik" />
		<tag k="fixme" v="consider place=hamlet" />
		<tag k="name" v="Vik søgard" />
		<tag k="place" v="farm" />
		<tag k="ssr:stedsnr" v="399616" />
	</node>
	<node id="-258158" lat="59.2463805515" lon="7.89073889146">
		<tag k="alt_name" v="Løngdal" />
		<tag k="name" v="Lyngdal" />
		<tag k="place" v="farm" />
		<tag k="ssr:stedsnr" v="277183" />
	</node>
	<node id="-258706" lat="59.2562333324" lon="7.85806111701">
		<tag k="name" v="Skarstøyl" />
		<tag k="place" v="locality" />
		<tag k="ssr:stedsnr" v="399606" />
	</node>
	<node id="-259370" lat="59.1519027809" lon="7.97469167033">
		<tag k="name" v="Jopperud" />
		<tag k="place" v="farm" />
		<tag k="ssr:stedsnr" v="62405" />
	</node>
	<node id="-260751" lat="59.2757305586" lon="7.98002500398">
		<tag k="name" v="Kvæven" />
		<tag k="place" v="locality" />
		<tag k="ssr:stedsnr" v="535328" />
	</node>
	<node id="-258701" lat="59.1950638911" lon="8.00021944105">
		<tag k="name" v="Brattstøyl" />
		<tag k="place" v="locality" />
		<tag k="ssr:stedsnr" v="399587" />
	</node>
	<node id="-258699" lat="59.2570777756" lon="7.87158055608">
		<tag k="historic" v="shieling" />
		<tag k="name" v="Langli" />
		<tag k="place" v="locality" />
		<tag k="ssr:stedsnr" v="399543" />
	</node>
	<node id="-258698" lat="59.26498056" lon="7.87905277178">
		<tag k="name" v="Heddi" />
		<tag k="place" v="isolated_dwelling" />
		<tag k="ssr:stedsnr" v="399540" />
	</node>
	<node id="-258697" lat="59.2305138913" lon="7.80151388277">
		<tag k="historic" v="shieling" />
		<tag k="name" v="Emondkvævstøylen" />
		<tag k="place" v="locality" />
		<tag k="ssr:stedsnr" v="399529" />
	</node>
	<node id="-260741" lat="59.3345444416" lon="7.96754722979">
		<tag k="name" v="Nystøyl" />
		<tag k="place" v="locality" />
		<tag k="ssr:stedsnr" v="535073" />
	</node>
	<node id="-258692" lat="59.2019194411" lon="7.75845832971">
		<tag k="name" v="Rakkestøyl" />
		<tag k="place" v="locality" />
		<tag k="ssr:stedsnr" v="399306" />
	</node>
	<node id="-260736" lat="59.3206055515" lon="8.13926111173">
		<tag k="name" v="Ystehaughallet" />
		<tag k="place" v="quarter" />
		<tag k="ssr:stedsnr" v="534930" />
	</node>
	<node id="-258687" lat="59.2467055532" lon="7.90324721723">
		<tag k="name" v="Tuftine" />
		<tag k="place" v="locality" />
		<tag k="ssr:stedsnr" v="399187" />
	</node>
	<node id="-260733" lat="59.2905722257" lon="8.06051388327">
		<tag k="name" v="Skari" />
		<tag k="place" v="locality" />
		<tag k="ssr:stedsnr" v="534777" />
	</node>
	<node id="-258153" lat="59.2033388908" lon="8.05832221512">
		<tag k="name" v="Snarteland Søgard" />
		<tag k="place" v="farm" />
		<tag k="ssr:stedsnr" v="276865" />
	</node>
	<node id="-260720" lat="59.0588833332" lon="8.25508611981">
		<tag k="name" v="Nesi" />
		<tag k="place" v="locality" />
		<tag k="ssr:stedsnr" v="533959" />
	</node>
	<node id="-260719" lat="59.3394861078" lon="8.06366111764">
		<tag k="name" v="Fjøllstøyl" />
		<tag k="place" v="locality" />
		<tag k="ssr:stedsnr" v="533917" />
	</node>
	<node id="-258669" lat="59.2211861125" lon="7.99095832516">
		<tag k="name" v="Liborg" />
		<tag k="place" v="locality" />
		<tag k="ssr:stedsnr" v="397624" />
	</node>
	<node id="-258668" lat="59.2248583325" lon="8.10054999937">
		<tag k="name" v="Lundetoa" />
		<tag k="place" v="locality" />
		<tag k="ssr:stedsnr" v="397593" />
	</node>
	<node id="-260715" lat="59.0155583329" lon="8.2734416628">
		<tag k="name" v="Granheim" />
		<tag k="place" v="isolated_dwelling" />
		<tag k="ssr:stedsnr" v="533847" />
	</node>
	<node id="-260714" lat="59.0373694422" lon="8.23478889624">
		<tag k="name" v="Lønhommen" />
		<tag k="place" v="isolated_dwelling" />
		<tag k="ssr:stedsnr" v="533836" />
	</node>
	<node id="-258151" lat="59.1902805582" lon="8.08927499793">
		<tag k="building" v="industrial" />
		<tag k="name" v="Bondalsheim" />
		<tag k="ssr:stedsnr" v="276849" />
	</node>
	<node id="-258664" lat="59.2352972208" lon="8.09134999721">
		<tag k="name" v="Kvålen" />
		<tag k="place" v="locality" />
		<tag k="ssr:stedsnr" v="397454" />
	</node>
	<node id="-260711" lat="59.3075138899" lon="8.08313611422">
		<tag k="name" v="Nystøyl" />
		<tag k="place" v="locality" />
		<tag k="ssr:stedsnr" v="533764" />
	</node>
	<node id="-258658" lat="59.2384333375" lon="8.05195555462">
		<tag k="name" v="Rindeplassen" />
		<tag k="place" v="locality" />
		<tag k="ssr:stedsnr" v="397092" />
	</node>
	<node id="-258651" lat="59.2034611106" lon="7.76706388172">
		<tag k="fixme" v="consider tourism=alpine_hut or tourism=chalet" />
		<tag k="name" v="Torsdalsbu" />
		<tag k="ssr:stedsnr" v="392023" />
		<tag k="tourism" v="wilderness_hut" />
	</node>
	<node id="-260698" lat="59.0399138846" lon="8.35256666795">
		<tag k="name" v="Krossvasshytta" />
		<tag k="place" v="isolated_dwelling" />
		<tag k="ssr:stedsnr" v="533519" />
	</node>
	<node id="-259350" lat="58.9991861086" lon="8.24376943596">
		<tag k="name" v="Rui" />
		<tag k="place" v="farm" />
		<tag k="ssr:stedsnr" v="61851" />
	</node>
	<node id="-258645" lat="59.2561166675" lon="7.77209722397">
		<tag k="historic" v="shieling" />
		<tag k="name" v="Hovstøyl" />
		<tag k="old_name" v="Hovstølen" />
		<tag k="place" v="locality" />
		<tag k="ssr:stedsnr" v="391400" />
	</node>
	<node id="-259027" lat="59.3004833311" lon="7.91685554845">
		<tag k="name" v="Skåli nigard" />
		<tag k="place" v="farm" />
		<tag k="ssr:stedsnr" v="899021" />
	</node>
	<node id="-261028" lat="59.1926499977" lon="8.10046111615">
		<tag k="name" v="Kåsi" />
		<tag k="place" v="isolated_dwelling" />
		<tag k="ssr:stedsnr" v="607038" />
	</node>
	<node id="-260682" lat="59.1467333336" lon="8.05254165815">
		<tag k="name" v="Åbø" />
		<tag k="place" v="isolated_dwelling" />
		<tag k="ssr:stedsnr" v="533378" />
	</node>
	<node id="-258630" lat="59.3544527764" lon="7.85446111718">
		<tag k="alt_name" v="Danskor" />
		<tag k="name" v="Dansskorstøyl" />
		<tag k="old_name" v="Dansskorstølen" />
		<tag k="place" v="locality" />
		<tag k="ssr:stedsnr" v="366961" />
	</node>
	<node id="-258629" lat="59.2938111146" lon="8.04919999693">
		<tag k="fixme" v="consider place=hamlet" />
		<tag k="name" v="Hæstad" />
		<tag k="place" v="farm" />
		<tag k="ssr:stedsnr" v="366954" />
	</node>
	<node id="-258485" lat="59.2921222252" lon="8.11788055502">
		<tag k="name" v="Veum uppigard" />
		<tag k="place" v="farm" />
		<tag k="ssr:stedsnr" v="351248" />
	</node>
	<node id="-260667" lat="59.2899888894" lon="8.11043888682">
		<tag k="name" v="Floske" />
		<tag k="place" v="locality" />
		<tag k="ssr:stedsnr" v="533236" />
	</node>
	<node id="-258617" lat="59.3203999987" lon="8.19176389116">
		<tag k="name" v="Høystøylane" />
		<tag k="place" v="isolated_dwelling" />
		<tag k="ssr:stedsnr" v="366179" />
	</node>
	<node id="-260664" lat="59.2541888854" lon="8.16049444586">
		<tag k="name" v="Harto" />
		<tag k="place" v="locality" />
		<tag k="ssr:stedsnr" v="533209" />
	</node>
	<node id="-260873" lat="59.2144361118" lon="8.09266944547">
		<tag k="name" v="Kjellemo" />
		<tag k="place" v="isolated_dwelling" />
		<tag k="ssr:stedsnr" v="579580" />
	</node>
	<node id="-258611" lat="58.9922194441" lon="8.25504444043">
		<tag k="name" v="Skjeggerud" />
		<tag k="place" v="farm" />
		<tag k="ssr:stedsnr" v="365876" />
	</node>
	<node id="-258610" lat="58.9725749983" lon="7.97956666555">
		<tag k="alt_name" v="Selbustøylen" />
		<tag k="name" v="Selbustøl" />
		<tag k="place" v="isolated_dwelling" />
		<tag k="ssr:stedsnr" v="365633" />
	</node>
	<node id="-258604" lat="59.0534277786" lon="8.03970833923">
		<tag k="alt_name" v="Selbergstøylen" />
		<tag k="name" v="Selbergmyr" />
		<tag k="place" v="isolated_dwelling" />
		<tag k="ssr:stedsnr" v="365494" />
	</node>
	<node id="-260651" lat="59.0809833358" lon="8.24514722543">
		<tag k="name" v="Uppigard Vik" />
		<tag k="place" v="farm" />
		<tag k="ssr:stedsnr" v="532536" />
	</node>
	<node id="-258599" lat="59.1690972262" lon="7.95309445048">
		<tag k="name" v="Nordheim" />
		<tag k="place" v="farm" />
		<tag k="ssr:stedsnr" v="365399" />
	</node>
	<node id="-260646" lat="59.0618222267" lon="8.33786666509">
		<tag k="name" v="Fiskebu" />
		<tag k="place" v="locality" />
		<tag k="ssr:stedsnr" v="530119" />
	</node>
	<node id="-258596" lat="59.2488333291" lon="7.90704722588">
		<tag k="fixme" v="consider place=hamlet" />
		<tag k="name" v="Bergland" />
		<tag k="place" v="farm" />
		<tag k="ssr:stedsnr" v="365308" />
	</node>
	<node id="-258594" lat="59.046555559" lon="8.11004444118">
		<tag k="historic" v="shieling" />
		<tag k="name" v="Kongsberg" />
		<tag k="place" v="locality" />
		<tag k="ssr:stedsnr" v="365247" />
	</node>
	<node id="-258480" lat="59.308947225" lon="8.13163333683">
		<tag k="name" v="Bjåland søndre" />
		<tag k="place" v="farm" />
		<tag k="ssr:stedsnr" v="351110" />
	</node>
	<node id="-260637" lat="59.2656499997" lon="7.92109167339">
		<tag k="name" v="Fjellstøyl" />
		<tag k="place" v="locality" />
		<tag k="ssr:stedsnr" v="522557" />
	</node>
	<node id="-260636" lat="59.2860805571" lon="7.83573610915">
		<tag k="name" v="Støylsdalen" />
		<tag k="place" v="locality" />
		<tag k="ssr:stedsnr" v="522464" />
	</node>
	<node id="-258587" lat="59.1079000028" lon="8.12670556419">
		<tag k="name" v="Åmli" />
		<tag k="place" v="farm" />
		<tag k="ssr:stedsnr" v="365175" />
	</node>
	<node id="-262575" lat="59.1973416666" lon="8.08361111146">
		<tag k="name" v="Grunnvik" />
		<tag k="place" v="quarter" />
		<tag k="ssr:stedsnr" v="969984" />
	</node>
	<node id="-258583" lat="59.1693472246" lon="8.08750833394">
		<tag k="name" v="Sørbygda" />
		<tag k="place" v="hamlet" />
		<tag k="ssr:stedsnr" v="363985" />
	</node>
	<node id="-260627" lat="59.2657611097" lon="7.86522500697">
		<tag k="name" v="Bullhytta" />
		<tag k="place" v="isolated_dwelling" />
		<tag k="ssr:stedsnr" v="521599" />
	</node>
	<node id="-260625" lat="59.1519777744" lon="7.97475555224">
		<tag k="name" v="Jopperud" />
		<tag k="place" v="farm" />
		<tag k="ssr:stedsnr" v="521592" />
	</node>
	<node id="-260624" lat="59.188680559" lon="8.01911943618">
		<tag k="name" v="Gausvatn hyttefelt" />
		<tag k="place" v="neighbourhood" />
		<tag k="ssr:stedsnr" v="521573" />
	</node>
	<node id="-258136" lat="59.1893888853" lon="8.08641389689">
		<tag k="name" v="Bakketun" />
		<tag k="place" v="isolated_dwelling" />
		<tag k="ssr:stedsnr" v="270495" />
	</node>
	<node id="-258573" lat="59.1814250032" lon="8.0943027851">
		<tag k="name" v="Væting øvre" />
		<tag k="place" v="farm" />
		<tag k="ssr:stedsnr" v="352994" />
	</node>
	<node id="-260620" lat="59.1469055553" lon="7.9397833249">
		<tag k="name" v="Margitstøyl" />
		<tag k="place" v="locality" />
		<tag k="ssr:stedsnr" v="521393" />
	</node>
	<node id="-262231" lat="58.988858334" lon="8.26698333217">
		<tag k="name" v="Moen" />
		<tag k="place" v="farm" />
		<tag k="ssr:stedsnr" v="851848" />
	</node>
	<node id="-259841" lat="59.3387027804" lon="8.06646388872">
		<tag k="name" v="Toli" />
		<tag k="place" v="locality" />
		<tag k="ssr:stedsnr" v="169894" />
	</node>
	<node id="-260601" lat="59.281455559" lon="7.74756944738">
		<tag k="name" v="Gilbergdalsstøylen" />
		<tag k="place" v="locality" />
		<tag k="ssr:stedsnr" v="520421" />
	</node>
	<node id="-260600" lat="59.1350694443" lon="8.02795556244">
		<tag k="name" v="Libjå nedre" />
		<tag k="place" v="farm" />
		<tag k="ssr:stedsnr" v="520388" />
	</node>
	<node id="-260599" lat="59.1340472244" lon="8.00049166146">
		<tag k="name" v="Moen" />
		<tag k="place" v="farm" />
		<tag k="ssr:stedsnr" v="520382" />
	</node>
	<node id="-260598" lat="59.2321833329" lon="8.01193889456">
		<tag k="name" v="Kåsa nord" />
		<tag k="place" v="farm" />
		<tag k="ssr:stedsnr" v="520303" />
	</node>
	<node id="-259838" lat="59.1779083371" lon="8.08845556183">
		<tag k="name" v="Seljestad" />
		<tag k="place" v="isolated_dwelling" />
		<tag k="ssr:stedsnr" v="169786" />
	</node>
	<node id="-258546" lat="59.2893166696" lon="7.99825277336">
		<tag k="name" v="Nedrebø" />
		<tag k="place" v="farm" />
		<tag k="ssr:stedsnr" v="352210" />
	</node>
	<node id="-258542" lat="59.2638833374" lon="8.0006111069">
		<tag k="name" v="Nystøyl" />
		<tag k="place" v="locality" />
		<tag k="ssr:stedsnr" v="352080" />
	</node>
	<node id="-258539" lat="59.3244722192" lon="8.10745277298">
		<tag k="alt_name" v="Nordre Skrei" />
		<tag k="name" v="Nordre Skredi" />
		<tag k="place" v="locality" />
		<tag k="ssr:stedsnr" v="351995" />
	</node>
	<node id="-260583" lat="59.1950611107" lon="8.08681944992">
		<tag k="name" v="Oland" />
		<tag k="place" v="isolated_dwelling" />
		<tag k="ssr:stedsnr" v="519842" />
	</node>
	<node id="-260582" lat="59.1937861088" lon="8.08712778056">
		<tag k="name" v="Grunnvik" />
		<tag k="place" v="farm" />
		<tag k="ssr:stedsnr" v="519836" />
	</node>
	<node id="-260580" lat="59.190366666" lon="8.08733333638">
		<tag k="name" v="Heimdal" />
		<tag k="place" v="isolated_dwelling" />
		<tag k="ssr:stedsnr" v="519818" />
	</node>
	<node id="-260577" lat="59.2096833348" lon="8.08710833442">
		<tag k="historic" v="shieling" />
		<tag k="name" v="Modøl" />
		<tag k="place" v="locality" />
		<tag k="ssr:stedsnr" v="519510" />
	</node>
	<node id="-260576" lat="59.2370527751" lon="8.09739723013">
		<tag k="name" v="Kleivane" />
		<tag k="place" v="farm" />
		<tag k="ssr:stedsnr" v="519427" />
	</node>
	<node id="-260575" lat="59.2289277799" lon="8.09023333247">
		<tag k="name" v="Lundevall" />
		<tag k="place" v="farm" />
		<tag k="ssr:stedsnr" v="519423" />
	</node>
	<node id="-258526" lat="59.2423749981" lon="8.21186111596">
		<tag k="name" v="Nystøyl" />
		<tag k="place" v="locality" />
		<tag k="ssr:stedsnr" v="351834" />
	</node>
	<node id="-258525" lat="59.1763361136" lon="8.08792778441">
		<tag k="name" v="Segtun" />
		<tag k="place" v="isolated_dwelling" />
		<tag k="ssr:stedsnr" v="351809" />
	</node>
	<node id="-260572" lat="59.2330444435" lon="8.12498611285">
		<tag k="historic" v="shieling" />
		<tag k="name" v="Knutsbu" />
		<tag k="place" v="locality" />
		<tag k="ssr:stedsnr" v="519323" />
	</node>
	<node id="-258523" lat="59.0854305543" lon="8.12683333852">
		<tag k="name" v="Mjåvasstøylen" />
		<tag k="place" v="locality" />
		<tag k="ssr:stedsnr" v="351753" />
	</node>
	<node id="-260569" lat="59.2030527758" lon="8.10853888477">
		<tag k="name" v="Vadli søndre" />
		<tag k="place" v="farm" />
		<tag k="ssr:stedsnr" v="519209" />
	</node>
	<node id="-260455" lat="59.2479277762" lon="8.09349166953">
		<tag k="name" v="Grythe søndre" />
		<tag k="place" v="farm" />
		<tag k="ssr:stedsnr" v="484843" />
	</node>
	<node id="-260567" lat="59.2340944422" lon="8.08771667223">
		<tag k="amenity" v="school" />
		<tag k="name" v="Heggland skule" />
		<tag k="ssr:stedsnr" v="519095" />
	</node>
	<node id="-258518" lat="59.1608777786" lon="8.09954722431">
		<tag k="name" v="Lauvstadhytta" />
		<tag k="place" v="locality" />
		<tag k="ssr:stedsnr" v="351587" />
	</node>
	<node id="-258809" lat="59.309377774" lon="8.0889833387">
		<tag k="name" v="Berstøyl" />
		<tag k="place" v="isolated_dwelling" />
		<tag k="ssr:stedsnr" v="412664" />
	</node>
	<node id="-258508" lat="59.0597083334" lon="8.0699499914">
		<tag k="name" v="Borghildsbu" />
		<tag k="place" v="isolated_dwelling" />
		<tag k="ssr:stedsnr" v="351449" />
	</node>
	<node id="-260554" lat="59.2474111154" lon="8.23342499878">
		<tag k="name" v="Foldsæ" />
		<tag k="place" v="locality" />
		<tag k="ssr:stedsnr" v="521003" />
	</node>
	<node id="-260549" lat="59.2438555521" lon="7.93165000031">
		<tag k="fixme" v="consider place=hamlet" />
		<tag k="name" v="Kleivgrend" />
		<tag k="place" v="village" />
		<tag k="ssr:stedsnr" v="513030" />
	</node>
	<node id="-260546" lat="59.2449583321" lon="8.03477499935">
		<tag k="name" v="Åslandsgrend" />
		<tag k="place" v="hamlet" />
		<tag k="ssr:stedsnr" v="513003" />
	</node>
	<node id="-260544" lat="59.2633000028" lon="7.93895833511">
		<tag k="name" v="Lomstjørn" />
		<tag k="place" v="locality" />
		<tag k="ssr:stedsnr" v="488927" />
	</node>
	<node id="-260543" lat="59.287402778" lon="8.04118056269">
		<tag k="name" v="Storli" />
		<tag k="place" v="isolated_dwelling" />
		<tag k="ssr:stedsnr" v="488908" />
	</node>
	<node id="-260542" lat="59.2820749989" lon="8.03517499822">
		<tag k="name" v="Ravndalen" />
		<tag k="old_name" v="Ramndalen" />
		<tag k="place" v="farm" />
		<tag k="ssr:stedsnr" v="488907" />
	</node>
	<node id="-258492" lat="59.3109083376" lon="8.11641389155">
		<tag k="name" v="Solli" />
		<tag k="place" v="locality" />
		<tag k="ssr:stedsnr" v="351331" />
	</node>
	<node id="-260535" lat="59.00861389" lon="8.27533888244">
		<tag k="name" v="Lunde" />
		<tag k="place" v="isolated_dwelling" />
		<tag k="ssr:stedsnr" v="487995" />
	</node>
	<node id="-260533" lat="59.0203777756" lon="8.25905000851">
		<tag k="name" v="Jørundland" />
		<tag k="place" v="farm" />
		<tag k="ssr:stedsnr" v="487980" />
	</node>
	<node id="-260530" lat="59.3038500024" lon="7.9473750001">
		<tag k="name" v="Blikar" />
		<tag k="place" v="isolated_dwelling" />
		<tag k="ssr:stedsnr" v="487956" />
	</node>
	<node id="-260529" lat="59.3103527819" lon="7.73665555649">
		<tag k="historic" v="shieling" />
		<tag k="name" v="Fagerdalsstøylen" />
		<tag k="old_name" v="Fagerdalsstøl" />
		<tag k="place" v="locality" />
		<tag k="ssr:stedsnr" v="487947" />
	</node>
	<node id="-260528" lat="59.3187888913" lon="7.86737500211">
		<tag k="name" v="Løyning" />
		<tag k="place" v="locality" />
		<tag k="ssr:stedsnr" v="487943" />
	</node>
	<node id="-260527" lat="59.3209916675" lon="7.88361389622">
		<tag k="historic" v="shieling" />
		<tag k="name" v="Slystøyl" />
		<tag k="old_name" v="Slystøl" />
		<tag k="place" v="locality" />
		<tag k="ssr:stedsnr" v="487941" />
	</node>
	<node id="-262572" lat="59.0387305587" lon="8.00066110809">
		<tag k="name" v="Annebu" />
		<tag k="place" v="isolated_dwelling" />
		<tag k="ssr:stedsnr" v="960903" />
	</node>
	<node id="-258474" lat="59.1316749988" lon="8.22170556191">
		<tag k="name" v="Teigen" />
		<tag k="place" v="locality" />
		<tag k="ssr:stedsnr" v="350576" />
	</node>
	<node id="-260521" lat="59.0844750007" lon="7.92427778257">
		<tag k="historic" v="shieling" />
		<tag k="name" v="Nuten" />
		<tag k="place" v="locality" />
		<tag k="ssr:stedsnr" v="487480" />
	</node>
	<node id="-258470" lat="59.0730222194" lon="8.25579722141">
		<tag k="name" v="Lauvik" />
		<tag k="place" v="farm" />
		<tag k="ssr:stedsnr" v="350499" />
	</node>
	<node id="-262565" lat="59.342377781" lon="7.86258611723">
		<tag k="historic" v="shieling" />
		<tag k="name" v="Grasstøyl" />
		<tag k="place" v="locality" />
		<tag k="ssr:stedsnr" v="959985" />
	</node>
	<node id="-260516" lat="59.235886113" lon="8.07470277589">
		<tag k="name" v="Lauvås" />
		<tag k="place" v="farm" />
		<tag k="ssr:stedsnr" v="487359" />
	</node>
	<node id="-260515" lat="59.2324249988" lon="8.08803055335">
		<tag k="alt_name" v="Haugen nedre" />
		<tag k="fixme" v="consider place=hamlet" />
		<tag k="name" v="Haugen" />
		<tag k="place" v="farm" />
		<tag k="ssr:stedsnr" v="487358" />
	</node>
	<node id="-260514" lat="59.2274111119" lon="8.05945555238">
		<tag k="alt_name" v="Tåråldli;Taraldlien" />
		<tag k="fixme" v="consider place=hamlet" />
		<tag k="name" v="Taraldli" />
		<tag k="place" v="farm" />
		<tag k="ssr:stedsnr" v="487357" />
	</node>
	<node id="-262559" lat="59.1755527771" lon="8.09811389702">
		<tag k="name" v="Flatine" />
		<tag k="place" v="locality" />
		<tag k="ssr:stedsnr" v="959815" />
	</node>
	<node id="-258462" lat="59.0620055574" lon="8.3495277839">
		<tag k="name" v="Trollbu" />
		<tag k="place" v="isolated_dwelling" />
		<tag k="ssr:stedsnr" v="347097" />
	</node>
	<node id="-262557" lat="59.2841027815" lon="8.06855833247">
		<tag k="name" v="Soltun" />
		<tag k="place" v="isolated_dwelling" />
		<tag k="ssr:stedsnr" v="959750" />
	</node>
	<node id="-262556" lat="59.2872583367" lon="8.05626388726">
		<tag k="name" v="Spokkeli norigard" />
		<tag k="place" v="farm" />
		<tag k="ssr:stedsnr" v="959738" />
	</node>
	<node id="-261871" lat="59.0362416627" lon="8.00939722745">
		<tag k="historic" v="shieling" />
		<tag k="name" v="Smylemoen" />
		<tag k="place" v="locality" />
		<tag k="ssr:stedsnr" v="777895" />
	</node>
	<node id="-260504" lat="59.0822805588" lon="8.23672499561">
		<tag k="name" v="Skomdal" />
		<tag k="place" v="farm" />
		<tag k="ssr:stedsnr" v="487206" />
	</node>
	<node id="-262551" lat="59.0241361076" lon="8.01973333746">
		<tag k="name" v="Revdalen" />
		<tag k="place" v="locality" />
		<tag k="ssr:stedsnr" v="959533" />
	</node>
	<node id="-258457" lat="59.1465083345" lon="7.87174721802">
		<tag k="historic" v="shieling" />
		<tag k="name" v="Rotbulistøylen" />
		<tag k="place" v="locality" />
		<tag k="ssr:stedsnr" v="339601" />
	</node>
	<node id="-260498" lat="59.1290277799" lon="8.21746388735">
		<tag k="name" v="Vindåsen" />
		<tag k="place" v="isolated_dwelling" />
		<tag k="ssr:stedsnr" v="487148" />
	</node>
	<node id="-260496" lat="59.1314666695" lon="8.12668610605">
		<tag k="fixme" v="consider place=hamlet" />
		<tag k="name" v="Momrak" />
		<tag k="place" v="farm" />
		<tag k="ssr:stedsnr" v="487141" />
	</node>
	<node id="-260495" lat="59.3042166654" lon="8.09682222262">
		<tag k="name" v="Ligrend" />
		<tag k="place" v="hamlet" />
		<tag k="ssr:stedsnr" v="487137" />
	</node>
	<node id="-261527" lat="59.1918888921" lon="8.21834999274">
		<tag k="name" v="Austigard" />
		<tag k="place" v="farm" />
		<tag k="ssr:stedsnr" v="715477" />
	</node>
	<node id="-262536" lat="58.9842888846" lon="8.07170556358">
		<tag k="name" v="Homme" />
		<tag k="place" v="locality" />
		<tag k="ssr:stedsnr" v="959111" />
	</node>
	<node id="-260487" lat="59.2127055558" lon="8.09665834007">
		<tag k="fixme" v="consider place=hamlet" />
		<tag k="name" v="Greivstad" />
		<tag k="place" v="farm" />
		<tag k="ssr:stedsnr" v="487041" />
	</node>
	<node id="-258437" lat="59.2366833374" lon="7.94464721564">
		<tag k="name" v="Åsen" />
		<tag k="place" v="locality" />
		<tag k="ssr:stedsnr" v="338429" />
	</node>
	<node id="-258455" lat="59.1994694409" lon="8.00578888738">
		<tag k="name" v="Listøyl" />
		<tag k="place" v="locality" />
		<tag k="ssr:stedsnr" v="339545" />
	</node>
	<node id="-262530" lat="59.1725527816" lon="8.15061666976">
		<tag k="name" v="Nystøyl" />
		<tag k="place" v="locality" />
		<tag k="ssr:stedsnr" v="958990" />
	</node>
	<node id="-258433" lat="59.2486333362" lon="8.03324166533">
		<tag k="name" v="Hagajorde" />
		<tag k="old_name" v="Hagajore" />
		<tag k="place" v="farm" />
		<tag k="ssr:stedsnr" v="338326" />
	</node>
	<node id="-262526" lat="59.0621138906" lon="8.324011111">
		<tag k="name" v="Løyningsbu" />
		<tag k="place" v="locality" />
		<tag k="ssr:stedsnr" v="958902" />
	</node>
	<node id="-260501" lat="59.2571749962" lon="8.31858333304">
		<tag k="alt_name" v="Raudhellstøylen, heimre" />
		<tag k="name" v="Heimre Raudhellstøylen" />
		<tag k="place" v="locality" />
		<tag k="ssr:stedsnr" v="487185" />
	</node>
	<node id="-262524" lat="59.1738666627" lon="8.10316389187">
		<tag k="name" v="Glitta" />
		<tag k="place" v="locality" />
		<tag k="ssr:stedsnr" v="958864" />
	</node>
	<node id="-260475" lat="59.1557416675" lon="8.08476111332">
		<tag k="fixme" v="consider place=hamlet" />
		<tag k="name" v="Nesland" />
		<tag k="place" v="farm" />
		<tag k="ssr:stedsnr" v="486414" />
	</node>
	<node id="-260473" lat="59.1670833311" lon="7.73598610988">
		<tag k="fixme" v="consider tourism=alpine_hut or tourism=chalet" />
		<tag k="name" v="Nystøyl" />
		<tag k="old_name" v="Nystøl" />
		<tag k="ssr:stedsnr" v="486403" />
		<tag k="tourism" v="wilderness_hut" />
	</node>
	<node id="-260472" lat="59.1652472266" lon="7.85788333917">
		<tag k="name" v="Løyning" />
		<tag k="place" v="isolated_dwelling" />
		<tag k="ssr:stedsnr" v="486402" />
	</node>
	<node id="-258421" lat="59.2490638931" lon="7.90705278577">
		<tag k="alt_name" v="Nordistog" />
		<tag k="name" v="Nordistog Bergland" />
		<tag k="place" v="farm" />
		<tag k="ssr:stedsnr" v="338134" />
	</node>
	<node id="-260468" lat="59.1954611108" lon="7.95310000562">
		<tag k="name" v="Grimhombui" />
		<tag k="place" v="isolated_dwelling" />
		<tag k="ssr:stedsnr" v="486370" />
	</node>
	<node id="-260467" lat="59.2373555556" lon="7.93896389035">
		<tag k="fixme" v="consider place=hamlet" />
		<tag k="name" v="Landsverk" />
		<tag k="place" v="farm" />
		<tag k="ssr:stedsnr" v="486350" />
	</node>
	<node id="-260466" lat="59.2434611143" lon="7.86389723065">
		<tag k="name" v="Skåltjørn" />
		<tag k="place" v="isolated_dwelling" />
		<tag k="ssr:stedsnr" v="486346" />
	</node>
	<node id="-259906" lat="58.9948138864" lon="8.25926945034">
		<tag k="name" v="Eidskard" />
		<tag k="place" v="farm" />
		<tag k="ssr:stedsnr" v="183856" />
	</node>
	<node id="-260464" lat="59.2427250021" lon="8.03538888771">
		<tag k="alt_name" v="Holir" />
		<tag k="fixme" v="consider place=hamlet" />
		<tag k="name" v="Holer" />
		<tag k="old_name" v="Høler" />
		<tag k="place" v="farm" />
		<tag k="ssr:stedsnr" v="486342" />
	</node>
	<node id="-260463" lat="59.2477972184" lon="8.03990277273">
		<tag k="name" v="Rinden" />
		<tag k="place" v="farm" />
		<tag k="ssr:stedsnr" v="486321" />
	</node>
	<node id="-260462" lat="59.0726999985" lon="8.25597499888">
		<tag k="name" v="Lauvvik" />
		<tag k="place" v="isolated_dwelling" />
		<tag k="ssr:stedsnr" v="486207" />
	</node>
	<node id="-258412" lat="59.1924333294" lon="8.1004722201">
		<tag k="name" v="Kåsegrend" />
		<tag k="place" v="hamlet" />
		<tag k="ssr:stedsnr" v="337805" />
	</node>
	<node id="-262507" lat="59.173763889" lon="8.11325556374">
		<tag k="name" v="Vårfjoset" />
		<tag k="place" v="locality" />
		<tag k="ssr:stedsnr" v="958436" />
	</node>
	<node id="-258409" lat="59.2086416698" lon="8.08622499743">
		<tag k="name" v="Furuheim" />
		<tag k="place" v="isolated_dwelling" />
		<tag k="ssr:stedsnr" v="337515" />
	</node>
	<node id="-258407" lat="59.2462583315" lon="8.06558333983">
		<tag k="name" v="Hagedalen" />
		<tag k="place" v="farm" />
		<tag k="ssr:stedsnr" v="337383" />
	</node>
	<node id="-262500" lat="59.0933138914" lon="8.21285277842">
		<tag k="name" v="Lianstøylane" />
		<tag k="place" v="locality" />
		<tag k="ssr:stedsnr" v="958350" />
	</node>
	<node id="-262497" lat="59.2941027815" lon="8.05021389691">
		<tag k="name" v="Hærstad søstøg" />
		<tag k="place" v="farm" />
		<tag k="ssr:stedsnr" v="958317" />
	</node>
	<node id="-260447" lat="59.1695750025" lon="8.1562305611">
		<tag k="name" v="Åsbu" />
		<tag k="place" v="locality" />
		<tag k="ssr:stedsnr" v="472980" />
	</node>
	<node id="-260446" lat="59.0553916679" lon="8.25706666463">
		<tag k="name" v="Brokke" />
		<tag k="place" v="locality" />
		<tag k="ssr:stedsnr" v="472969" />
	</node>
	<node id="-258396" lat="59.1042749959" lon="7.98248889487">
		<tag k="historic" v="shieling" />
		<tag k="name" v="Furestøyl" />
		<tag k="place" v="locality" />
		<tag k="ssr:stedsnr" v="330536" />
	</node>
	<node id="-258447" lat="59.2452666694" lon="7.75448888709">
		<tag k="name" v="Lortebergkroa" />
		<tag k="place" v="locality" />
		<tag k="ssr:stedsnr" v="339107" />
	</node>
	<node id="-260439" lat="59.0407472233" lon="8.28257499506">
		<tag k="name" v="Kleivstøyl" />
		<tag k="place" v="locality" />
		<tag k="ssr:stedsnr" v="472873" />
	</node>
	<node id="-258389" lat="59.0163333353" lon="7.91847500858">
		<tag k="alt_name" v="Storli" />
		<tag k="name" v="Storeli" />
		<tag k="place" v="locality" />
		<tag k="ssr:stedsnr" v="330483" />
	</node>
	<node id="-258387" lat="59.1820666641" lon="8.05314167232">
		<tag k="name" v="Sandland" />
		<tag k="place" v="farm" />
		<tag k="ssr:stedsnr" v="330447" />
	</node>
	<node id="-258386" lat="59.1763555584" lon="7.89848056187">
		<tag k="name" v="Skrimsdalen" />
		<tag k="place" v="locality" />
		<tag k="ssr:stedsnr" v="330445" />
	</node>
	<node id="-260431" lat="59.0201388878" lon="8.11742499389">
		<tag k="name" v="Nystøyl" />
		<tag k="place" v="locality" />
		<tag k="ssr:stedsnr" v="472813" />
	</node>
	<node id="-258381" lat="59.3062722242" lon="7.99957221415">
		<tag k="alt_name" v="Øvre Liene" />
		<tag k="name" v="Øverliene" />
		<tag k="place" v="isolated_dwelling" />
		<tag k="ssr:stedsnr" v="306958" />
	</node>
	<node id="-262475" lat="59.0609750038" lon="8.26549999699">
		<tag k="name" v="Søgard" />
		<tag k="place" v="farm" />
		<tag k="ssr:stedsnr" v="957523" />
	</node>
	<node id="-260426" lat="59.3085194419" lon="8.08293611283">
		<tag k="name" v="Luffendal" />
		<tag k="place" v="locality" />
		<tag k="ssr:stedsnr" v="472713" />
	</node>
	<node id="-262199" lat="59.1378499998" lon="8.31833333417">
		<tag k="alt_name" v="Flottine" />
		<tag k="name" v="Flottene" />
		<tag k="place" v="isolated_dwelling" />
		<tag k="ssr:stedsnr" v="851136" />
	</node>
	<node id="-258375" lat="59.3439694412" lon="7.78486945299">
		<tag k="name" v="Steastøyl" />
		<tag k="old_name" v="Steastøl" />
		<tag k="place" v="locality" />
		<tag k="ssr:stedsnr" v="305978" />
	</node>
	<node id="-260421" lat="59.0997916669" lon="8.23025278459">
		<tag k="name" v="Brautstøyl" />
		<tag k="place" v="locality" />
		<tag k="ssr:stedsnr" v="472582" />
	</node>
	<node id="-260420" lat="59.1254805512" lon="8.12907778549">
		<tag k="name" v="Fiskeodden" />
		<tag k="place" v="isolated_dwelling" />
		<tag k="ssr:stedsnr" v="472579" />
	</node>
	<node id="-258371" lat="59.3193750001" lon="7.81701666943">
		<tag k="alt_name" v="Uvtjørn" />
		<tag k="historic" v="shieling" />
		<tag k="name" v="Uvtjønnstøylen" />
		<tag k="place" v="locality" />
		<tag k="ssr:stedsnr" v="305948" />
	</node>
	<node id="-260418" lat="59.0530055544" lon="8.33101388966">
		<tag k="name" v="Kroktjønnstøylen" />
		<tag k="place" v="locality" />
		<tag k="ssr:stedsnr" v="472488" />
	</node>
	<node id="-258369" lat="59.0319527808" lon="8.08233888197">
		<tag k="name" v="Åland" />
		<tag k="place" v="locality" />
		<tag k="ssr:stedsnr" v="305526" />
	</node>
	<node id="-258404" lat="59.1152611104" lon="8.24089999868">
		<tag k="name" v="Fritjønnstøylen" />
		<tag k="place" v="locality" />
		<tag k="ssr:stedsnr" v="331545" />
	</node>
	<node id="-258365" lat="59.1367666626" lon="7.99248055817">
		<tag k="name" v="Jernberg" />
		<tag k="place" v="farm" />
		<tag k="ssr:stedsnr" v="305435" />
	</node>
	<node id="-258364" lat="59.1424222246" lon="7.98519722098">
		<tag k="name" v="Jordfall" />
		<tag k="old_name" v="Jordfoll" />
		<tag k="place" v="farm" />
		<tag k="ssr:stedsnr" v="305434" />
	</node>
	<node id="-258362" lat="59.151886107" lon="7.80482777858">
		<tag k="name" v="Kilstøyl" />
		<tag k="old_name" v="Kilstøl" />
		<tag k="place" v="locality" />
		<tag k="ssr:stedsnr" v="305411" />
	</node>
	<node id="-258356" lat="59.2509305591" lon="8.09607500258">
		<tag k="name" v="Kasine" />
		<tag k="place" v="isolated_dwelling" />
		<tag k="ssr:stedsnr" v="305193" />
	</node>
	<node id="-260403" lat="59.2915722184" lon="8.11244443933">
		<tag k="alt_name" v="Søndre Veum" />
		<tag k="fixme" v="consider place=hamlet" />
		<tag k="name" v="Veum sørigard" />
		<tag k="place" v="farm" />
		<tag k="ssr:stedsnr" v="472225" />
	</node>
	<node id="-258354" lat="59.095538892" lon="8.23407499684">
		<tag k="alt_name" v="Stebua" />
		<tag k="name" v="Stebui" />
		<tag k="place" v="isolated_dwelling" />
		<tag k="ssr:stedsnr" v="305177" />
	</node>
	<node id="-258353" lat="59.0950916669" lon="8.24121388704">
		<tag k="alt_name" v="Stuvestøl" />
		<tag k="name" v="Stuvestøyl" />
		<tag k="place" v="isolated_dwelling" />
		<tag k="ssr:stedsnr" v="305174" />
	</node>
	<node id="-258349" lat="59.2921249965" lon="8.11783889395">
		<tag k="alt_name" v="Veom" />
		<tag k="name" v="Veum" />
		<tag k="place" v="hamlet" />
		<tag k="ssr:stedsnr" v="305135" />
	</node>
	<node id="-260396" lat="59.0067138918" lon="8.28179167465">
		<tag k="name" v="Berg" />
		<tag k="place" v="isolated_dwelling" />
		<tag k="ssr:stedsnr" v="471656" />
	</node>
	<node id="-262442" lat="59.1462999959" lon="7.97662499499">
		<tag k="name" v="Torshus" />
		<tag k="place" v="isolated_dwelling" />
		<tag k="ssr:stedsnr" v="946360" />
	</node>
	<node id="-260393" lat="59.0887083354" lon="8.24092778395">
		<tag k="name" v="Valebu" />
		<tag k="place" v="isolated_dwelling" />
		<tag k="ssr:stedsnr" v="471560" />
	</node>
	<node id="-258344" lat="59.1752250016" lon="8.10312499613">
		<tag k="name" v="Åsberg" />
		<tag k="place" v="farm" />
		<tag k="ssr:stedsnr" v="305066" />
	</node>
	<node id="-259017" lat="59.2837944474" lon="8.08217500424">
		<tag k="name" v="Myrland" />
		<tag k="place" v="locality" />
		<tag k="ssr:stedsnr" v="898803" />
	</node>
	<node id="-258342" lat="59.0117194422" lon="7.9975138838">
		<tag k="historic" v="shieling" />
		<tag k="name" v="Krokstøyl" />
		<tag k="old_name" v="Krokstøl" />
		<tag k="place" v="locality" />
		<tag k="ssr:stedsnr" v="305025" />
	</node>
	<node id="-258341" lat="59.0041416623" lon="7.94838888831">
		<tag k="alt_name" v="Grånbudalen" />
		<tag k="historic" v="shieling" />
		<tag k="name" v="Granbudalen" />
		<tag k="place" v="locality" />
		<tag k="ssr:stedsnr" v="305023" />
	</node>
	<node id="-262436" lat="59.2453249973" lon="7.92851943962">
		<tag k="name" v="Rui, uppistog" />
		<tag k="place" v="farm" />
		<tag k="ssr:stedsnr" v="945998" />
	</node>
	<node id="-258339" lat="59.2401305565" lon="8.10159444409">
		<tag k="alt_name" v="Geitestad" />
		<tag k="fixme" v="consider place=hamlet" />
		<tag k="name" v="Geitstad" />
		<tag k="place" v="farm" />
		<tag k="ssr:stedsnr" v="305019" />
	</node>
	<node id="-260144" lat="59.0896638916" lon="8.24318611537">
		<tag k="name" v="Våmur" />
		<tag k="place" v="neighbourhood" />
		<tag k="ssr:stedsnr" v="242218" />
	</node>
	<node id="-262430" lat="59.2466388924" lon="8.03576945251">
		<tag k="name" v="Breiland" />
		<tag k="place" v="farm" />
		<tag k="ssr:stedsnr" v="945347" />
	</node>
	<node id="-260485" lat="59.0141472257" lon="7.98253055291">
		<tag k="historic" v="shieling" />
		<tag k="name" v="Fjalebu" />
		<tag k="place" v="locality" />
		<tag k="ssr:stedsnr" v="487021" />
	</node>
	<node id="-259835" lat="59.3080722243" lon="8.09120833602">
		<tag k="name" v="Håtveit" />
		<tag k="place" v="locality" />
		<tag k="ssr:stedsnr" v="169713" />
	</node>
	<node id="-262426" lat="59.2881555521" lon="7.76827221931">
		<tag k="name" v="Øyse nigard" />
		<tag k="place" v="farm" />
		<tag k="ssr:stedsnr" v="945176" />
	</node>
	<node id="-260377" lat="59.0713305544" lon="8.33835834169">
		<tag k="name" v="Siplestøyl" />
		<tag k="place" v="locality" />
		<tag k="ssr:stedsnr" v="469047" />
	</node>
	<node id="-258325" lat="59.1828749974" lon="7.94464722968">
		<tag k="alt_name" v="Festøyl" />
		<tag k="name" v="Fis-støyl" />
		<tag k="old_name" v="Festøl" />
		<tag k="place" v="locality" />
		<tag k="ssr:stedsnr" v="304376" />
	</node>
	<node id="-262420" lat="59.2345333307" lon="7.94369444803">
		<tag k="name" v="Gåren" />
		<tag k="place" v="farm" />
		<tag k="ssr:stedsnr" v="944608" />
	</node>
	<node id="-260370" lat="59.1913888903" lon="7.9428222204">
		<tag k="historic" v="shieling" />
		<tag k="name" v="Nørstestøyl" />
		<tag k="place" v="locality" />
		<tag k="ssr:stedsnr" v="460723" />
	</node>
	<node id="-258321" lat="59.0614638866" lon="8.13391666695">
		<tag k="alt_name" v="Sandvasstøylen" />
		<tag k="name" v="Sandvasstøl" />
		<tag k="place" v="isolated_dwelling" />
		<tag k="ssr:stedsnr" v="304172" />
	</node>
	<node id="-260368" lat="59.2438916701" lon="8.3011861026">
		<tag k="name" v="Granhomen" />
		<tag k="place" v="locality" />
		<tag k="ssr:stedsnr" v="460709" />
	</node>
	<node id="-260366" lat="59.2414694405" lon="8.30210277795">
		<tag k="name" v="Føreheistøylen" />
		<tag k="place" v="locality" />
		<tag k="ssr:stedsnr" v="460697" />
	</node>
	<node id="-258317" lat="59.2050222227" lon="8.0826888908">
		<tag k="name" v="Molandsmoen industriområde" />
		<tag k="place" v="quarter" />
		<tag k="ssr:stedsnr" v="302971" />
	</node>
	<node id="-260362" lat="59.1684083366" lon="8.00221945009">
		<tag k="name" v="Homme" />
		<tag k="place" v="isolated_dwelling" />
		<tag k="ssr:stedsnr" v="460641" />
	</node>
	<node id="-260361" lat="59.1442499961" lon="7.98376110584">
		<tag k="name" v="Bergtun" />
		<tag k="place" v="farm" />
		<tag k="ssr:stedsnr" v="460619" />
	</node>
	<node id="-261094" lat="59.2813666654" lon="8.08738611678">
		<tag k="name" v="Spokkeligrend" />
		<tag k="place" v="hamlet" />
		<tag k="ssr:stedsnr" v="609932" />
	</node>
	<node id="-260355" lat="59.2171000004" lon="8.16210832585">
		<tag k="name" v="Steanstøylen" />
		<tag k="place" v="locality" />
		<tag k="ssr:stedsnr" v="460541" />
	</node>
	<node id="-262397" lat="59.1067666686" lon="7.81712500298">
		<tag k="fixme" v="consider tourism=alpine_hut or tourism=chalet" />
		<tag k="name" v="Nutevasshytta" />
		<tag k="old_name" v="Nutvasshytta" />
		<tag k="ssr:stedsnr" v="937497" />
		<tag k="tourism" v="wilderness_hut" />
	</node>
	<node id="-258300" lat="59.0638944419" lon="7.96094721495">
		<tag k="name" v="Lia" />
		<tag k="place" v="neighbourhood" />
		<tag k="ssr:stedsnr" v="292141" />
	</node>
	<node id="-258299" lat="59.3043166665" lon="7.87683332676">
		<tag k="name" v="Fjellstøyl" />
		<tag k="place" v="locality" />
		<tag k="ssr:stedsnr" v="292142" />
	</node>
	<node id="-258297" lat="59.3264055552" lon="7.97746945147">
		<tag k="name" v="Saupstaul" />
		<tag k="place" v="locality" />
		<tag k="ssr:stedsnr" v="292059" />
	</node>
	<node id="-260342" lat="59.2480888901" lon="7.90834444514">
		<tag k="alt_name" v="Søristog" />
		<tag k="name" v="Søristog Bergland" />
		<tag k="place" v="farm" />
		<tag k="ssr:stedsnr" v="460224" />
	</node>
	<node id="-258292" lat="59.3170027735" lon="8.05116111708">
		<tag k="name" v="Plassestøylen" />
		<tag k="place" v="locality" />
		<tag k="ssr:stedsnr" v="291928" />
	</node>
	<node id="-260339" lat="59.23041667" lon="8.25000277738">
		<tag k="name" v="Løestøylen" />
		<tag k="place" v="locality" />
		<tag k="ssr:stedsnr" v="460139" />
	</node>
	<node id="-258290" lat="59.3250916664" lon="8.15764723078">
		<tag k="name" v="Støylen" />
		<tag k="place" v="locality" />
		<tag k="ssr:stedsnr" v="291896" />
	</node>
	<node id="-262385" lat="59.2278083364" lon="8.09090833552">
		<tag k="name" v="Vollane" />
		<tag k="place" v="isolated_dwelling" />
		<tag k="ssr:stedsnr" v="938005" />
	</node>
	<node id="-258288" lat="59.3188111152" lon="8.13981389217">
		<tag k="name" v="Berge" />
		<tag k="place" v="farm" />
		<tag k="ssr:stedsnr" v="291887" />
	</node>
	<node id="-259112" lat="59.2169361123" lon="7.97801388775">
		<tag k="name" v="Finndalstveit" />
		<tag k="place" v="farm" />
		<tag k="ssr:stedsnr" v="2351" />
	</node>
	<node id="-262382" lat="59.2936388913" lon="8.04021665948">
		<tag k="fixme" v="consider place=hamlet" />
		<tag k="name" v="Tortveit" />
		<tag k="place" v="farm" />
		<tag k="ssr:stedsnr" v="913970" />
	</node>
	<node id="-260333" lat="59.2301166646" lon="7.82546666879">
		<tag k="historic" v="shieling" />
		<tag k="name" v="Ulvsvass-støylen" />
		<tag k="old_name" v="Ullvassstøylen" />
		<tag k="place" v="locality" />
		<tag k="ssr:stedsnr" v="460084" />
	</node>
	<node id="-262380" lat="59.2531083326" lon="8.15963610493">
		<tag k="fixme" v="consider place=hamlet" />
		<tag k="name" v="Husstøyl" />
		<tag k="place" v="farm" />
		<tag k="ssr:stedsnr" v="913183" />
	</node>
	<node id="-260517" lat="59.204619442" lon="7.94751389486">
		<tag k="historic" v="shieling" />
		<tag k="name" v="Dydding" />
		<tag k="place" v="locality" />
		<tag k="ssr:stedsnr" v="487360" />
	</node>
	<node id="-258282" lat="59.2865805579" lon="8.05760277009">
		<tag k="name" v="Spokkeli sørigard" />
		<tag k="place" v="farm" />
		<tag k="ssr:stedsnr" v="291763" />
	</node>
	<node id="-260325" lat="59.2331722253" lon="7.994777784">
		<tag k="name" v="Fantehola" />
		<tag k="place" v="locality" />
		<tag k="ssr:stedsnr" v="459308" />
	</node>
	<node id="-260317" lat="59.1894305559" lon="8.08658888256">
		<tag k="name" v="Bergvoll" />
		<tag k="place" v="isolated_dwelling" />
		<tag k="ssr:stedsnr" v="458834" />
	</node>
	<node id="-262363" lat="59.100391666" lon="7.99125832684">
		<tag k="name" v="Espeli" />
		<tag k="place" v="locality" />
		<tag k="ssr:stedsnr" v="912464" />
	</node>
	<node id="-260314" lat="59.227180556" lon="8.09061665914">
		<tag k="name" v="Nyheim" />
		<tag k="place" v="isolated_dwelling" />
		<tag k="ssr:stedsnr" v="458600" />
	</node>
	<node id="-260311" lat="59.2456194421" lon="8.08698610719">
		<tag k="name" v="Brokka" />
		<tag k="place" v="locality" />
		<tag k="ssr:stedsnr" v="458513" />
	</node>
	<node id="-260310" lat="59.2492083359" lon="8.09843333364">
		<tag k="name" v="Øverket" />
		<tag k="place" v="locality" />
		<tag k="ssr:stedsnr" v="458514" />
	</node>
	<node id="-260309" lat="59.230422218" lon="8.0917250033">
		<tag k="alt_name" v="Lillestu" />
		<tag k="fixme" v="consider place=hamlet" />
		<tag k="name" v="Lislestog" />
		<tag k="place" v="farm" />
		<tag k="ssr:stedsnr" v="458492" />
	</node>
	<node id="-262355" lat="59.0294333343" lon="8.27220000191">
		<tag k="name" v="Åmevje" />
		<tag k="place" v="isolated_dwelling" />
		<tag k="ssr:stedsnr" v="912235" />
	</node>
	<node id="-259107" lat="59.2690888927" lon="8.09608054852">
		<tag k="fixme" v="consider place=hamlet" />
		<tag k="name" v="Bjørnestad" />
		<tag k="place" v="farm" />
		<tag k="ssr:stedsnr" v="2197" />
	</node>
	<node id="-260302" lat="59.1868722207" lon="8.11482777414">
		<tag k="name" v="Bergan" />
		<tag k="place" v="isolated_dwelling" />
		<tag k="ssr:stedsnr" v="458268" />
	</node>
	<node id="-262349" lat="59.1012361115" lon="8.23468333134">
		<tag k="alt_name" v="Nystøyl" />
		<tag k="name" v="Nystøl" />
		<tag k="place" v="isolated_dwelling" />
		<tag k="ssr:stedsnr" v="912180" />
	</node>
	<node id="-260298" lat="59.1129027773" lon="8.23523610863">
		<tag k="name" v="Grotstøyl" />
		<tag k="place" v="locality" />
		<tag k="ssr:stedsnr" v="453567" />
	</node>
	<node id="-260297" lat="59.1125944402" lon="8.21830556366">
		<tag k="name" v="Kvitjønnstøylen" />
		<tag k="place" v="locality" />
		<tag k="ssr:stedsnr" v="453566" />
	</node>
	<node id="-258741" lat="59.0570055598" lon="8.35033611735">
		<tag k="historic" v="shieling" />
		<tag k="name" v="Midtstøyl" />
		<tag k="place" v="locality" />
		<tag k="ssr:stedsnr" v="409167" />
	</node>
	<node id="-259105" lat="59.3254444484" lon="8.15041665991">
		<tag k="alt_name" v="Østre Tveiten" />
		<tag k="fixme" v="consider place=hamlet" />
		<tag k="name" v="Tveiten" />
		<tag k="place" v="farm" />
		<tag k="ssr:stedsnr" v="2187" />
	</node>
	<node id="-260291" lat="59.2864833315" lon="7.99360833752">
		<tag k="alt_name" v="Songdalstveiten" />
		<tag k="fixme" v="consider place=hamlet" />
		<tag k="name" v="Songedalstveiten" />
		<tag k="place" v="farm" />
		<tag k="ssr:stedsnr" v="452384" />
	</node>
	<node id="-262338" lat="59.0126027764" lon="8.06643055414">
		<tag k="name" v="Vinsnes" />
		<tag k="place" v="isolated_dwelling" />
		<tag k="ssr:stedsnr" v="912028" />
	</node>
	<node id="-262337" lat="59.0080527746" lon="8.03327499158">
		<tag k="name" v="Vik" />
		<tag k="place" v="isolated_dwelling" />
		<tag k="ssr:stedsnr" v="912024" />
	</node>
	<node id="-258240" lat="59.184313886" lon="8.11415000227">
		<tag k="name" v="Lauvdal nordre" />
		<tag k="place" v="farm" />
		<tag k="ssr:stedsnr" v="290415" />
	</node>
	<node id="-262517" lat="59.2023305554" lon="8.25023889708">
		<tag k="name" v="Røynebu" />
		<tag k="place" v="locality" />
		<tag k="ssr:stedsnr" v="958724" />
	</node>
	<node id="-260284" lat="59.1809944422" lon="7.87886667359">
		<tag k="historic" v="shieling" />
		<tag k="name" v="Krokstøyl" />
		<tag k="place" v="locality" />
		<tag k="ssr:stedsnr" v="448589" />
	</node>
	<node id="-259786" lat="59.0067083307" lon="8.28579445223">
		<tag k="name" v="Skarnes" />
		<tag k="place" v="isolated_dwelling" />
		<tag k="ssr:stedsnr" v="168646" />
	</node>
	<node id="-260281" lat="59.3212749966" lon="7.99015000433">
		<tag k="alt_name" v="Gullborgdalen" />
		<tag k="historic" v="shieling" />
		<tag k="name" v="Gullbjørgdalen" />
		<tag k="place" v="locality" />
		<tag k="ssr:stedsnr" v="427936" />
	</node>
	<node id="-262327" lat="59.1785611094" lon="8.09187500069">
		<tag k="fixme" v="consider place=hamlet" />
		<tag k="name" v="Moghus" />
		<tag k="place" v="farm" />
		<tag k="ssr:stedsnr" v="911398" />
	</node>
	<node id="-260278" lat="59.2723777809" lon="7.98087223071">
		<tag k="name" v="Fitilen" />
		<tag k="place" v="locality" />
		<tag k="ssr:stedsnr" v="427905" />
	</node>
	<node id="-260277" lat="59.2855083313" lon="7.84129166672">
		<tag k="name" v="Teigen" />
		<tag k="place" v="isolated_dwelling" />
		<tag k="ssr:stedsnr" v="427902" />
	</node>
	<node id="-260276" lat="59.2870083309" lon="7.84967221808">
		<tag k="name" v="Støylsåi" />
		<tag k="old_name" v="Stølsåi" />
		<tag k="place" v="isolated_dwelling" />
		<tag k="ssr:stedsnr" v="427901" />
	</node>
	<node id="-259102" lat="59.3054694447" lon="8.12444999431">
		<tag k="name" v="Veamyrane" />
		<tag k="place" v="farm" />
		<tag k="ssr:stedsnr" v="2155" />
	</node>
	<node id="-262322" lat="59.2455999961" lon="7.88876943714">
		<tag k="fixme" v="consider place=hamlet" />
		<tag k="name" v="Homsli" />
		<tag k="place" v="farm" />
		<tag k="ssr:stedsnr" v="911315" />
	</node>
	<node id="-260273" lat="59.0854944437" lon="8.01794722097">
		<tag k="alt_name" v="Lomstøyl" />
		<tag k="name" v="Lomestøyl" />
		<tag k="old_name" v="Lomestøl" />
		<tag k="place" v="isolated_dwelling" />
		<tag k="ssr:stedsnr" v="427464" />
	</node>
	<node id="-258224" lat="59.2781805531" lon="8.24808889625">
		<tag k="name" v="Fiskehytta" />
		<tag k="place" v="locality" />
		<tag k="ssr:stedsnr" v="291443" />
	</node>
	<node id="-260271" lat="59.1044055546" lon="8.00755556128">
		<tag k="alt_name" v="Bjøllia" />
		<tag k="name" v="Bjøllii" />
		<tag k="place" v="isolated_dwelling" />
		<tag k="ssr:stedsnr" v="427445" />
	</node>
	<node id="-260270" lat="59.1126916671" lon="8.05019167479">
		<tag k="alt_name" v="Vedlia" />
		<tag k="name" v="Vedlii" />
		<tag k="place" v="locality" />
		<tag k="ssr:stedsnr" v="427440" />
	</node>
	<node id="-260269" lat="59.2011444407" lon="7.8673166676">
		<tag k="alt_name" v="Geitsmyrane" />
		<tag k="historic" v="shieling" />
		<tag k="name" v="Geismyrane" />
		<tag k="old_name" v="Geismyr" />
		<tag k="place" v="locality" />
		<tag k="ssr:stedsnr" v="427390" />
	</node>
	<node id="-260268" lat="59.205280552" lon="7.75928889294">
		<tag k="name" v="Torsdalen" />
		<tag k="place" v="locality" />
		<tag k="ssr:stedsnr" v="427384" />
	</node>
	<node id="-260266" lat="59.2297944444" lon="8.01457500661">
		<tag k="alt_name" v="Bjørnrud;Bjørnerud sør" />
		<tag k="name" v="Bjørnerud" />
		<tag k="place" v="farm" />
		<tag k="ssr:stedsnr" v="427364" />
	</node>
	<node id="-260265" lat="59.2846138873" lon="8.23252499675">
		<tag k="alt_name" v="Steinbrakka" />
		<tag k="name" v="Steinbu" />
		<tag k="place" v="locality" />
		<tag k="ssr:stedsnr" v="427275" />
	</node>
	<node id="-260262" lat="59.2546222219" lon="8.32185832625">
		<tag k="name" v="Plagestad" />
		<tag k="place" v="locality" />
		<tag k="ssr:stedsnr" v="427219" />
	</node>
	<node id="-258213" lat="59.1722916648" lon="7.91685832968">
		<tag k="name" v="Borgen nedre" />
		<tag k="place" v="farm" />
		<tag k="ssr:stedsnr" v="278874" />
	</node>
	<node id="-260259" lat="59.3117499982" lon="8.13412500499">
		<tag k="name" v="Onstad" />
		<tag k="place" v="farm" />
		<tag k="ssr:stedsnr" v="427186" />
	</node>
	<node id="-258209" lat="59.2410416626" lon="7.78109443705">
		<tag k="name" v="Nystøyl" />
		<tag k="place" v="locality" />
		<tag k="ssr:stedsnr" v="278748" />
	</node>
	<node id="-262304" lat="59.0767583334" lon="8.03906667189">
		<tag k="historic" v="shieling" />
		<tag k="name" v="Småstøylane" />
		<tag k="place" v="locality" />
		<tag k="ssr:stedsnr" v="899878" />
	</node>
	<node id="-260255" lat="59.3072083298" lon="8.12410554918">
		<tag k="name" v="Myrvang" />
		<tag k="place" v="farm" />
		<tag k="ssr:stedsnr" v="427164" />
	</node>
	<node id="-258206" lat="59.2490916665" lon="8.29191945021">
		<tag k="historic" v="shieling" />
		<tag k="name" v="Nystøyl" />
		<tag k="place" v="locality" />
		<tag k="ssr:stedsnr" v="278700" />
	</node>
	<node id="-260251" lat="59.2970138909" lon="8.25380554875">
		<tag k="alt_name" v="Kvæven, øvre;Øvrekvæv" />
		<tag k="name" v="Øvre Kvæven" />
		<tag k="place" v="locality" />
		<tag k="ssr:stedsnr" v="427140" />
	</node>
	<node id="-260250" lat="59.1518388895" lon="8.29268610935">
		<tag k="alt_name" v="Strånd" />
		<tag k="name" v="Strond" />
		<tag k="place" v="isolated_dwelling" />
		<tag k="ssr:stedsnr" v="427112" />
	</node>
	<node id="-258201" lat="59.1889722261" lon="7.99873334057">
		<tag k="name" v="Lislegaussvasstøylen" />
		<tag k="place" v="locality" />
		<tag k="ssr:stedsnr" v="278616" />
	</node>
	<node id="-262296" lat="59.2873722209" lon="7.85541667081">
		<tag k="name" v="Ormsteig" />
		<tag k="place" v="locality" />
		<tag k="ssr:stedsnr" v="899518" />
	</node>
	<node id="-258198" lat="59.197127776" lon="7.98199722381">
		<tag k="name" v="Hestekvævstøylen" />
		<tag k="place" v="locality" />
		<tag k="ssr:stedsnr" v="278579" />
	</node>
	<node id="-258197" lat="59.2088388845" lon="8.1838694471">
		<tag k="name" v="Prestedalstøylen" />
		<tag k="place" v="locality" />
		<tag k="ssr:stedsnr" v="278528" />
	</node>
	<node id="-260243" lat="58.9906861095" lon="8.31229999783">
		<tag k="name" v="Ångard" />
		<tag k="place" v="isolated_dwelling" />
		<tag k="ssr:stedsnr" v="426857" />
	</node>
	<node id="-260725" lat="59.2619750025" lon="8.18358610649">
		<tag k="historic" v="shieling" />
		<tag k="name" v="Kvamoen" />
		<tag k="place" v="locality" />
		<tag k="ssr:stedsnr" v="534158" />
	</node>
	<node id="-260240" lat="59.1306055532" lon="8.06867499151">
		<tag k="alt_name" v="Lia" />
		<tag k="name" v="Lii" />
		<tag k="place" v="isolated_dwelling" />
		<tag k="ssr:stedsnr" v="426401" />
	</node>
	<node id="-260239" lat="59.1344250017" lon="8.02881666575">
		<tag k="name" v="Libjå" />
		<tag k="place" v="farm" />
		<tag k="ssr:stedsnr" v="426398" />
	</node>
	<node id="-260238" lat="59.1309111114" lon="7.93295277033">
		<tag k="name" v="Nystøyl" />
		<tag k="old_name" v="Nystøl" />
		<tag k="place" v="locality" />
		<tag k="ssr:stedsnr" v="426394" />
	</node>
	<node id="-260237" lat="59.1436083348" lon="8.04019443617">
		<tag k="name" v="Fardal" />
		<tag k="place" v="hamlet" />
		<tag k="ssr:stedsnr" v="426387" />
	</node>
	<node id="-260235" lat="59.1695694405" lon="7.89386944491">
		<tag k="name" v="Krøni" />
		<tag k="old_name" v="Krøne" />
		<tag k="place" v="isolated_dwelling" />
		<tag k="ssr:stedsnr" v="426365" />
	</node>
	<node id="-260234" lat="59.1712638917" lon="7.92962221826">
		<tag k="name" v="Vassbø" />
		<tag k="place" v="farm" />
		<tag k="ssr:stedsnr" v="426363" />
	</node>
	<node id="-260233" lat="59.16969722" lon="8.08220277666">
		<tag k="name" v="Berve" />
		<tag k="place" v="farm" />
		<tag k="ssr:stedsnr" v="426359" />
	</node>
	<node id="-260231" lat="59.1777861072" lon="7.76193055305">
		<tag k="historic" v="shieling" />
		<tag k="name" v="Høydalsstøylen" />
		<tag k="old_name" v="Høydalsstøl" />
		<tag k="place" v="locality" />
		<tag k="ssr:stedsnr" v="426346" />
	</node>
	<node id="-260228" lat="59.2387611114" lon="7.93794165858">
		<tag k="name" v="Medtveit" />
		<tag k="place" v="farm" />
		<tag k="ssr:stedsnr" v="426318" />
	</node>
	<node id="-260227" lat="59.2420249988" lon="7.97686943576">
		<tag k="name" v="Ekrune" />
		<tag k="old_name" v="Ekrene" />
		<tag k="place" v="locality" />
		<tag k="ssr:stedsnr" v="426307" />
	</node>
	<node id="-258178" lat="59.1476305596" lon="7.97425000313">
		<tag k="historic" v="shieling" />
		<tag k="name" v="Glomstøyl" />
		<tag k="place" v="locality" />
		<tag k="ssr:stedsnr" v="278439" />
	</node>
	<node id="-259898" lat="59.1481805562" lon="7.97230833311">
		<tag k="name" v="Glomstøyl" />
		<tag k="old_name" v="Glømstøl" />
		<tag k="place" v="locality" />
		<tag k="ssr:stedsnr" v="183361" />
	</node>
	<node id="-258175" lat="59.2436166675" lon="7.87215277877">
		<tag k="name" v="Osi" />
		<tag k="place" v="locality" />
		<tag k="ssr:stedsnr" v="278125" />
	</node>
	<node id="-258168" lat="59.2462805578" lon="7.986127776">
		<tag k="historic" v="shieling" />
		<tag k="name" v="Saupstøyl" />
		<tag k="place" v="locality" />
		<tag k="ssr:stedsnr" v="277557" />
	</node>
	<node id="-260215" lat="59.1911277772" lon="8.11880000771">
		<tag k="name" v="Heistad" />
		<tag k="place" v="isolated_dwelling" />
		<tag k="ssr:stedsnr" v="426082" />
	</node>
	<node id="-262262" lat="59.2994805551" lon="7.90534999633">
		<tag k="fixme" v="consider place=hamlet" />
		<tag k="name" v="Nordbø" />
		<tag k="place" v="farm" />
		<tag k="ssr:stedsnr" v="852945" />
	</node>
	<node id="-262261" lat="59.3143694452" lon="7.99696666347">
		<tag k="name" v="Fistøyl" />
		<tag k="old_name" v="Fistøl" />
		<tag k="place" v="locality" />
		<tag k="ssr:stedsnr" v="852940" />
	</node>
	<node id="-262260" lat="59.3114416639" lon="7.72903611267">
		<tag k="name" v="Haugen" />
		<tag k="place" v="locality" />
		<tag k="ssr:stedsnr" v="852937" />
	</node>
	<node id="-260211" lat="59.0129249977" lon="8.00659999752">
		<tag k="alt_name" v="Kråkelistøylen" />
		<tag k="name" v="Kråkelii" />
		<tag k="place" v="locality" />
		<tag k="ssr:stedsnr" v="426029" />
	</node>
	<node id="-258162" lat="59.2476833339" lon="8.04050833801">
		<tag k="fixme" v="consider place=hamlet" />
		<tag k="name" v="Rinden" />
		<tag k="place" v="farm" />
		<tag k="ssr:stedsnr" v="277359" />
	</node>
	<node id="-260209" lat="58.9763111121" lon="8.3046500049">
		<tag k="name" v="Lindborg" />
		<tag k="place" v="isolated_dwelling" />
		<tag k="ssr:stedsnr" v="425885" />
	</node>
	<node id="-258160" lat="59.2486583376" lon="8.03562500517">
		<tag k="name" v="Lauvland" />
		<tag k="place" v="isolated_dwelling" />
		<tag k="ssr:stedsnr" v="277351" />
	</node>
	<node id="-262255" lat="59.2631416676" lon="8.05154999822">
		<tag k="alt_name" v="Håsum" />
		<tag k="fixme" v="consider place=hamlet" />
		<tag k="name" v="Håsom" />
		<tag k="place" v="farm" />
		<tag k="ssr:stedsnr" v="852866" />
	</node>
	<node id="-260206" lat="59.1857916681" lon="8.09886665883">
		<tag k="name" v="Tøddebakkane" />
		<tag k="place" v="quarter" />
		<tag k="ssr:stedsnr" v="424974" />
	</node>
	<node id="-260205" lat="59.0575777782" lon="7.958572228">
		<tag k="name" v="Åsen" />
		<tag k="place" v="neighbourhood" />
		<tag k="ssr:stedsnr" v="424966" />
	</node>
	<node id="-260203" lat="59.340049998" lon="7.89875278028">
		<tag k="name" v="Bersli" />
		<tag k="place" v="locality" />
		<tag k="ssr:stedsnr" v="414370" />
	</node>
	<node id="-260201" lat="59.3305333369" lon="7.96418054678">
		<tag k="name" v="Tverrli" />
		<tag k="place" v="isolated_dwelling" />
		<tag k="ssr:stedsnr" v="246000" />
	</node>
	<node id="-258152" lat="59.1905611147" lon="8.08605278613">
		<tag k="name" v="Furuheim" />
		<tag k="place" v="isolated_dwelling" />
		<tag k="ssr:stedsnr" v="276854" />
	</node>
	<node id="-260199" lat="59.2954000006" lon="8.05507221594">
		<tag k="name" v="Bakken" />
		<tag k="place" v="farm" />
		<tag k="ssr:stedsnr" v="245961" />
	</node>
	<node id="-260198" lat="59.291963891" lon="7.74886667224">
		<tag k="name" v="Åsbu" />
		<tag k="place" v="locality" />
		<tag k="ssr:stedsnr" v="245952" />
	</node>
	<node id="-260196" lat="59.27252222" lon="7.80542777197">
		<tag k="name" v="Haukedalen" />
		<tag k="place" v="locality" />
		<tag k="ssr:stedsnr" v="245911" />
	</node>
	<node id="-258147" lat="59.243530554" lon="8.08486666456">
		<tag k="historic" v="shieling" />
		<tag k="name" v="Juvi" />
		<tag k="place" v="locality" />
		<tag k="ssr:stedsnr" v="276501" />
	</node>
	<node id="-260194" lat="59.2620000019" lon="8.15696110632">
		<tag k="name" v="Liene" />
		<tag k="place" v="isolated_dwelling" />
		<tag k="ssr:stedsnr" v="245208" />
	</node>
	<node id="-258145" lat="59.2485194438" lon="8.06501666245">
		<tag k="name" v="Kroa" />
		<tag k="place" v="farm" />
		<tag k="ssr:stedsnr" v="276448" />
	</node>
	<node id="-260192" lat="59.3225583335" lon="8.17398334129">
		<tag k="alt_name" v="Fjellet, øvre" />
		<tag k="historic" v="shieling" />
		<tag k="name" v="Øvre Fjøddi" />
		<tag k="place" v="locality" />
		<tag k="ssr:stedsnr" v="245174" />
	</node>
	<node id="-260190" lat="59.0002611113" lon="8.2732861116">
		<tag k="alt_name" v="Lomkilen" />
		<tag k="name" v="Låmkilen" />
		<tag k="place" v="farm" />
		<tag k="ssr:stedsnr" v="244979" />
	</node>
	<node id="-262234" lat="59.014699999" lon="8.25163054983">
		<tag k="alt_name" v="Strånd" />
		<tag k="name" v="Strond" />
		<tag k="place" v="isolated_dwelling" />
		<tag k="ssr:stedsnr" v="851983" />
	</node>
	<node id="-259087" lat="59.1441638912" lon="7.8088722175">
		<tag k="alt_name" v="Klovsteinstøylen" />
		<tag k="name" v="Kløvsteinstøylen" />
		<tag k="old_name" v="Kløvsteinstølen" />
		<tag k="place" v="isolated_dwelling" />
		<tag k="ssr:stedsnr" v="1404" />
	</node>
	<node id="-260184" lat="58.9899527795" lon="8.13445832914">
		<tag k="name" v="Nilsebu" />
		<tag k="place" v="isolated_dwelling" />
		<tag k="ssr:stedsnr" v="244869" />
	</node>
	<node id="-260183" lat="58.9936861128" lon="8.28886389669">
		<tag k="name" v="Sønderland" />
		<tag k="place" v="farm" />
		<tag k="ssr:stedsnr" v="244860" />
	</node>
	<node id="-260181" lat="59.0993666635" lon="8.03776945041">
		<tag k="name" v="Nystøyl" />
		<tag k="old_name" v="Nystøl" />
		<tag k="place" v="locality" />
		<tag k="ssr:stedsnr" v="244453" />
	</node>
	<node id="-258132" lat="59.1679638902" lon="7.9551555626">
		<tag k="alt_name" v="Olimstad" />
		<tag k="name" v="Olemstad" />
		<tag k="place" v="farm" />
		<tag k="ssr:stedsnr" v="270435" />
	</node>
	<node id="-260179" lat="59.1268749968" lon="8.05921666398">
		<tag k="alt_name" v="Skrei" />
		<tag k="fixme" v="consider place=hamlet" />
		<tag k="name" v="Skredi" />
		<tag k="place" v="farm" />
		<tag k="ssr:stedsnr" v="244436" />
	</node>
	<node id="-262226" lat="59.0599527784" lon="8.07494721355">
		<tag k="fixme" v="consider place=hamlet" />
		<tag k="name" v="Berge" />
		<tag k="place" v="farm" />
		<tag k="ssr:stedsnr" v="851442" />
	</node>
	<node id="-262223" lat="59.0810749968" lon="8.03615000619">
		<tag k="name" v="Ljosdalen" />
		<tag k="place" v="locality" />
		<tag k="ssr:stedsnr" v="851423" />
	</node>
	<node id="-262217" lat="59.166099997" lon="7.73834722932">
		<tag k="name" v="Listøyl" />
		<tag k="old_name" v="Listøl" />
		<tag k="place" v="locality" />
		<tag k="ssr:stedsnr" v="851356" />
	</node>
	<node id="-258120" lat="59.0714916707" lon="8.08284999145">
		<tag k="fixme" v="consider tourism=alpine_hut or tourism=chalet" />
		<tag k="name" v="Hengeltjørnloftet" />
		<tag k="ssr:stedsnr" v="270021" />
		<tag k="tourism" v="wilderness_hut" />
	</node>
	<node id="-262209" lat="59.2456888883" lon="8.04306944652">
		<tag k="alt_name" v="Londehall" />
		<tag k="fixme" v="consider place=hamlet" />
		<tag k="name" v="Lundehall" />
		<tag k="place" v="farm" />
		<tag k="ssr:stedsnr" v="851296" />
	</node>
	<node id="-260159" lat="59.1546833292" lon="8.20179166533">
		<tag k="alt_name" v="Nape" />
		<tag k="fixme" v="consider place=hamlet" />
		<tag k="name" v="Vestre Nape" />
		<tag k="place" v="farm" />
		<tag k="ssr:stedsnr" v="244119" />
	</node>
	<node id="-260157" lat="59.183761114" lon="8.11261110488">
		<tag k="name" v="Lauvdal" />
		<tag k="place" v="farm" />
		<tag k="ssr:stedsnr" v="244089" />
	</node>
	<node id="-260156" lat="59.1890138897" lon="8.10905555143">
		<tag k="alt_name" v="Sitje midtre" />
		<tag k="fixme" v="consider place=hamlet" />
		<tag k="name" v="Sitje" />
		<tag k="place" v="farm" />
		<tag k="ssr:stedsnr" v="244087" />
	</node>
	<node id="-262495" lat="59.2945472191" lon="8.04876945247">
		<tag k="name" v="Hærstad noristøg" />
		<tag k="place" v="farm" />
		<tag k="ssr:stedsnr" v="958313" />
	</node>
	<node id="-260152" lat="59.2256583323" lon="8.25695832559">
		<tag k="alt_name" v="Løestøl" />
		<tag k="historic" v="shieling" />
		<tag k="name" v="Løestøyl" />
		<tag k="place" v="locality" />
		<tag k="ssr:stedsnr" v="244065" />
	</node>
	<node id="-260151" lat="59.2164388902" lon="8.09668055215">
		<tag k="name" v="Heggland" />
		<tag k="place" v="farm" />
		<tag k="ssr:stedsnr" v="244061" />
	</node>
	<node id="-260150" lat="59.2059694441" lon="8.10790278412">
		<tag k="alt_name" v="Vadli nordre" />
		<tag k="name" v="Vadli" />
		<tag k="place" v="farm" />
		<tag k="ssr:stedsnr" v="244049" />
	</node>
	<node id="-262196" lat="59.1591" lon="8.15095277465">
		<tag k="alt_name" v="Vefsåsstøylen" />
		<tag k="name" v="Vepsåsen" />
		<tag k="place" v="locality" />
		<tag k="ssr:stedsnr" v="851106" />
	</node>
	<node id="-262195" lat="59.1377499965" lon="8.10983055985">
		<tag k="name" v="Momrak" />
		<tag k="place" v="farm" />
		<tag k="ssr:stedsnr" v="851095" />
	</node>
	<node id="-258924" lat="59.1658833298" lon="7.80431666425">
		<tag k="name" v="Smalebu" />
		<tag k="place" v="isolated_dwelling" />
		<tag k="ssr:stedsnr" v="885267" />
	</node>
	<node id="-262193" lat="59.1801888886" lon="8.09394999552">
		<tag k="fixme" v="consider place=hamlet" />
		<tag k="name" v="Væting" />
		<tag k="place" v="farm" />
		<tag k="ssr:stedsnr" v="851073" />
	</node>
	<node id="-261873" lat="59.3540444432" lon="7.84480833416">
		<tag k="name" v="Danskor" />
		<tag k="place" v="locality" />
		<tag k="ssr:stedsnr" v="777897" />
	</node>
	<node id="-260142" lat="59.0214861085" lon="8.08503611111">
		<tag k="name" v="Vinsneslia" />
		<tag k="place" v="neighbourhood" />
		<tag k="ssr:stedsnr" v="241910" />
	</node>
	<node id="-260141" lat="59.186097218" lon="8.08879443808">
		<tag k="name" v="Landstad" />
		<tag k="place" v="quarter" />
		<tag k="ssr:stedsnr" v="231943" />
	</node>
	<node id="-262188" lat="58.9920361155" lon="8.06792499543">
		<tag k="name" v="Homme" />
		<tag k="place" v="locality" />
		<tag k="ssr:stedsnr" v="850589" />
	</node>
	<node id="-262187" lat="59.0433777794" lon="8.0833555573">
		<tag k="name" v="Kvisleåne" />
		<tag k="place" v="neighbourhood" />
		<tag k="ssr:stedsnr" v="848893" />
	</node>
	<node id="-262186" lat="58.9961583367" lon="7.99141389381">
		<tag k="name" v="Bronbakkskaret" />
		<tag k="place" v="locality" />
		<tag k="ssr:stedsnr" v="839502" />
	</node>
	<node id="-262183" lat="59.2913777796" lon="7.98843611443">
		<tag k="name" v="Songedal uppistog" />
		<tag k="place" v="farm" />
		<tag k="ssr:stedsnr" v="839268" />
	</node>
	<node id="-262179" lat="59.3383555594" lon="7.83029999453">
		<tag k="historic" v="shieling" />
		<tag k="name" v="Hæknenystøyl" />
		<tag k="place" v="locality" />
		<tag k="ssr:stedsnr" v="838999" />
	</node>
	<node id="-260130" lat="59.3252055575" lon="7.90688888722">
		<tag k="name" v="Aslestad uppigard" />
		<tag k="place" v="farm" />
		<tag k="ssr:stedsnr" v="231660" />
	</node>
	<node id="-262177" lat="59.1832361072" lon="8.09776667001">
		<tag k="name" v="Nordjordet" />
		<tag k="place" v="isolated_dwelling" />
		<tag k="ssr:stedsnr" v="838965" />
	</node>
	<node id="-262176" lat="59.1833888932" lon="8.09857222431">
		<tag k="name" v="Homland" />
		<tag k="place" v="isolated_dwelling" />
		<tag k="ssr:stedsnr" v="838963" />
	</node>
	<node id="-262170" lat="59.2924277795" lon="8.08116667031">
		<tag k="name" v="Morkji" />
		<tag k="place" v="locality" />
		<tag k="ssr:stedsnr" v="838838" />
	</node>
	<node id="-262169" lat="59.0350805561" lon="8.07548889674">
		<tag k="name" v="Sandnes" />
		<tag k="place" v="locality" />
		<tag k="ssr:stedsnr" v="838516" />
	</node>
	<node id="-262167" lat="59.087491663" lon="8.09237500392">
		<tag k="name" v="Godlistøylen" />
		<tag k="place" v="locality" />
		<tag k="ssr:stedsnr" v="838436" />
	</node>
	<node id="-260315" lat="59.2367694401" lon="7.97390555344">
		<tag k="name" v="Bondal søgard" />
		<tag k="place" v="farm" />
		<tag k="ssr:stedsnr" v="458629" />
	</node>
	<node id="-259075" lat="59.2428888907" lon="7.78277777618">
		<tag k="alt_name" v="Brokkestøyl" />
		<tag k="historic" v="shieling" />
		<tag k="name" v="Brøkkestøyl" />
		<tag k="old_name" v="Brøkkestøl" />
		<tag k="place" v="locality" />
		<tag k="ssr:stedsnr" v="1310" />
	</node>
	<node id="-262160" lat="59.2989194439" lon="7.89462221525">
		<tag k="name" v="Håmsbu" />
		<tag k="place" v="isolated_dwelling" />
		<tag k="ssr:stedsnr" v="838268" />
	</node>
	<node id="-260108" lat="59.3161805564" lon="8.15509167187">
		<tag k="name" v="Bergedal" />
		<tag k="place" v="farm" />
		<tag k="ssr:stedsnr" v="230939" />
	</node>
	<node id="-262155" lat="59.2943833321" lon="8.10455833875">
		<tag k="name" v="Dalen" />
		<tag k="place" v="farm" />
		<tag k="ssr:stedsnr" v="838114" />
	</node>
	<node id="-260106" lat="59.3433638919" lon="8.0815138805">
		<tag k="name" v="Heggtveit" />
		<tag k="place" v="locality" />
		<tag k="ssr:stedsnr" v="230889" />
	</node>
	<node id="-258391" lat="59.1017500035" lon="7.84895277431">
		<tag k="alt_name" v="Båsfjellstøylen" />
		<tag k="historic" v="shieling" />
		<tag k="name" v="Båsfjell" />
		<tag k="place" v="locality" />
		<tag k="ssr:stedsnr" v="330500" />
	</node>
	<node id="-260104" lat="59.322202781" lon="8.14038054912">
		<tag k="name" v="Neirigrendi" />
		<tag k="place" v="quarter" />
		<tag k="ssr:stedsnr" v="230880" />
	</node>
	<node id="-262150" lat="59.3229249962" lon="8.11094166609">
		<tag k="alt_name" v="Skredi;Søndre Skrei" />
		<tag k="fixme" v="consider place=hamlet" />
		<tag k="name" v="Søndre Skredi" />
		<tag k="place" v="farm" />
		<tag k="ssr:stedsnr" v="837991" />
	</node>
	<node id="-259073" lat="59.0096111143" lon="8.06762778553">
		<tag k="alt_name" v="Kåsa" />
		<tag k="name" v="Kosi" />
		<tag k="old_name" v="Kåsi" />
		<tag k="place" v="locality" />
		<tag k="ssr:stedsnr" v="1032" />
	</node>
</osm>
