<?xml version="1.0" encoding="UTF-8"?>
<osm generator="osmapis" version="0.6">
	<node id="-259216" lat="59.254583335" lon="7.99840277025">
		<tag k="historic" v="boundary_stone" />
		<tag k="man_made" v="cairn" />
		<tag k="name" v="Steinfenta" />
		<tag k="place" v="locality" />
		<tag k="ssr:stedsnr" v="474069" />
	</node>
	<node id="-258557" lat="59.1275277804" lon="7.88913054845">
		<tag k="historic" v="boundary_stone" />
		<tag k="man_made" v="cairn" />
		<tag k="name" v="Nyddingen" />
		<tag k="place" v="locality" />
		<tag k="ssr:stedsnr" v="278727" />
	</node>
	<node id="-260474" lat="58.9980361096" lon="8.02845000141">
		<tag k="historic" v="boundary_stone" />
		<tag k="man_made" v="cairn" />
		<tag k="name" v="Flatsteinen" />
		<tag k="place" v="locality" />
		<tag k="ssr:stedsnr" v="231301" />
	</node>
	<node id="-260214" lat="59.2857500001" lon="7.93107778264">
		<tag k="historic" v="boundary_stone" />
		<tag k="man_made" v="cairn" />
		<tag k="name" v="Hovdefura" />
		<tag k="place" v="locality" />
		<tag k="ssr:stedsnr" v="170512" />
	</node>
	<node id="-262164" lat="59.147677779" lon="8.09784166213">
		<tag k="historic" v="boundary_stone" />
		<tag k="man_made" v="cairn" />
		<tag k="name" v="Bytingsfura" />
		<tag k="place" v="locality" />
		<tag k="ssr:stedsnr" v="776413" />
	</node>
	<node id="-260595" lat="58.9866250025" lon="8.1138194471">
		<tag k="historic" v="boundary_stone" />
		<tag k="man_made" v="cairn" />
		<tag k="name" v="Gråkapp" />
		<tag k="place" v="locality" />
		<tag k="ssr:stedsnr" v="426870" />
	</node>
	<node id="-259666" lat="59.2814277814" lon="7.83731943587">
		<tag k="historic" v="boundary_stone" />
		<tag k="man_made" v="cairn" />
		<tag k="name" v="Kråkenesdeilda" />
		<tag k="place" v="locality" />
		<tag k="ssr:stedsnr" v="49178" />
	</node>
	<node id="-261584" lat="59.1426999998" lon="8.09215277022">
		<tag k="historic" v="boundary_stone" />
		<tag k="man_made" v="cairn" />
		<tag k="name" v="Bytingsbakken" />
		<tag k="place" v="locality" />
		<tag k="ssr:stedsnr" v="654370" />
	</node>
	<node id="-258925" lat="59.0432611074" lon="7.96543610744">
		<tag k="historic" v="boundary_stone" />
		<tag k="man_made" v="cairn" />
		<tag k="name" v="Galten" />
		<tag k="place" v="locality" />
		<tag k="ssr:stedsnr" v="414029" />
	</node>
	<node id="-260716" lat="59.3265416684" lon="7.75566110685">
		<tag k="historic" v="boundary_stone" />
		<tag k="man_made" v="cairn" />
		<tag k="name" v="Vrålstein" />
		<tag k="place" v="locality" />
		<tag k="ssr:stedsnr" v="460684" />
	</node>
	<node id="-260397" lat="59.0492888901" lon="8.30066944696">
		<tag k="historic" v="boundary_stone" />
		<tag k="man_made" v="cairn" />
		<tag k="name" v="Åbogsfjellvarden" />
		<tag k="place" v="locality" />
		<tag k="ssr:stedsnr" v="229576" />
	</node>
	<node id="-259559" lat="59.3309305566" lon="7.76494444547">
		<tag k="historic" v="boundary_stone" />
		<tag k="man_made" v="cairn" />
		<tag k="name" v="Kransen" />
		<tag k="place" v="locality" />
		<tag k="ssr:stedsnr" v="35683" />
	</node>
	<node id="-259623" lat="58.9776166643" lon="7.95913056141">
		<tag k="historic" v="boundary_stone" />
		<tag k="man_made" v="cairn" />
		<tag k="name" v="Hesten" />
		<tag k="place" v="locality" />
		<tag k="ssr:stedsnr" v="48376" />
	</node>
	<node id="-261094" lat="59.2653361114" lon="7.98821666004">
		<tag k="historic" v="boundary_stone" />
		<tag k="man_made" v="cairn" />
		<tag k="name" v="Djupedalsdeilda" />
		<tag k="place" v="locality" />
		<tag k="ssr:stedsnr" v="535076" />
	</node>
	<node id="-261378" lat="59.2445638871" lon="7.96172778241">
		<tag k="fixme" v="consider boundary=protected_area and relevant protect_class if not nature reserve" />
		<tag k="leisure" v="nature_reserve" />
		<tag k="name" v="Brårfjell naturreservat" />
		<tag k="ssr:stedsnr" v="606896" />
	</node>
</osm>
