<?xml version="1.0" encoding="UTF-8"?>
<osm generator="osmapis" version="0.6">
	<node id="-259199" lat="59.2780250031" lon="7.86587778077">
		<tag k="name" v="Ånistuve" />
		<tag k="place" v="locality" />
		<tag k="ssr:stedsnr" v="473172" />
	</node>
	<node id="-260733" lat="58.9852833315" lon="8.26745555601">
		<tag k="name" v="Normannskotet" />
		<tag k="place" v="locality" />
		<tag k="ssr:stedsnr" v="469087" />
	</node>
	<node id="-259068" lat="59.2641444453" lon="7.82201110362">
		<tag k="name" v="Myrteigen øvre" />
		<tag k="place" v="locality" />
		<tag k="ssr:stedsnr" v="399844" />
	</node>
	<node id="-259574" lat="59.0639055531" lon="8.33969444941">
		<tag k="name" v="Kruskefura" />
		<tag k="place" v="locality" />
		<tag k="ssr:stedsnr" v="45091" />
	</node>
	<node id="-259573" lat="58.9842027744" lon="8.11728888405">
		<tag k="name" v="Tobakksfura" />
		<tag k="ssr:stedsnr" v="44986" />
		<tag k="tourism" v="attraction" />
	</node>
	<node id="-258675" lat="59.181905558" lon="8.08708055544">
		<tag k="amenity" v="place_of_worship" />
		<tag k="denomination" v="lutheran" />
		<tag k="name" v="Moland" />
		<tag k="religion" v="christian" />
		<tag k="ssr:stedsnr" v="304381" />
	</node>
	<node id="-259569" lat="59.2442750024" lon="7.8986194423">
		<tag k="name" v="Kvennhusåa" />
		<tag k="place" v="locality" />
		<tag k="ssr:stedsnr" v="35956" />
	</node>
	<node id="-260464" lat="59.3248722183" lon="7.95828888074">
		<tag k="name" v="Reveberget" />
		<tag k="place" v="locality" />
		<tag k="ssr:stedsnr" v="231098" />
	</node>
	<node id="-262440" lat="59.2824111142" lon="8.11836110998">
		<tag k="name" v="Sandskøti" />
		<tag k="place" v="locality" />
		<tag k="ssr:stedsnr" v="837132" />
	</node>
	<node id="-262126" lat="58.9532083368" lon="8.33769721402">
		<tag k="name" v="Fiskejosreir" />
		<tag k="place" v="locality" />
		<tag k="ssr:stedsnr" v="773985" />
	</node>
	<node id="-259049" lat="59.1678194439" lon="7.97982778327">
		<tag k="name" v="Frøste" />
		<tag k="place" v="locality" />
		<tag k="ssr:stedsnr" v="399548" />
	</node>
	<node id="-261095" lat="59.0611888871" lon="7.96010832885">
		<tag k="name" v="Finnkjeddingsåti" />
		<tag k="place" v="locality" />
		<tag k="ssr:stedsnr" v="535163" />
	</node>
	<node id="-262117" lat="59.0935416641" lon="8.19111389312">
		<tag k="name" v="Såvi" />
		<tag k="place" v="locality" />
		<tag k="ssr:stedsnr" v="776334" />
	</node>
	<node id="-261860" lat="58.9995361137" lon="8.25531389504">
		<tag k="name" v="Bjønnskjella" />
		<tag k="place" v="locality" />
		<tag k="ssr:stedsnr" v="715196" />
	</node>
	<node id="-261603" lat="59.1335305558" lon="8.14601389245">
		<tag k="name" v="Åvelskot" />
		<tag k="place" v="locality" />
		<tag k="ssr:stedsnr" v="654611" />
	</node>
	<node id="-262114" lat="58.9829416684" lon="8.26033611342">
		<tag k="name" v="Lastevasen" />
		<tag k="place" v="locality" />
		<tag k="ssr:stedsnr" v="773089" />
	</node>
	<node id="-259937" lat="59.3060638847" lon="8.09236666918">
		<tag k="name" v="Kariskøs" />
		<tag k="place" v="locality" />
		<tag k="ssr:stedsnr" v="109710" />
	</node>
	<node id="-261344" lat="59.0556250021" lon="8.24767499588">
		<tag k="name" v="Tarjeisteinen" />
		<tag k="place" v="locality" />
		<tag k="ssr:stedsnr" v="594994" />
	</node>
	<node id="-260191" lat="59.0203249987" lon="8.25356389179">
		<tag k="name" v="Leiken" />
		<tag k="place" v="locality" />
		<tag k="ssr:stedsnr" v="169842" />
	</node>
	<node id="-260446" lat="59.3110055553" lon="8.09497499176">
		<tag k="name" v="Skøti" />
		<tag k="place" v="locality" />
		<tag k="ssr:stedsnr" v="230687" />
	</node>
	<node id="-262663" lat="59.2799249999" lon="7.77105277959">
		<tag k="name" v="Vassfit" />
		<tag k="place" v="locality" />
		<tag k="ssr:stedsnr" v="913920" />
	</node>
	<node id="-259546" lat="59.3003444404" lon="7.76643333369">
		<tag k="name" v="Vindås" />
		<tag k="place" v="locality" />
		<tag k="ssr:stedsnr" v="35405" />
	</node>
	<node id="-259799" lat="59.2398722217" lon="7.97511111658">
		<tag k="name" v="Bjønnehiet" />
		<tag k="place" v="locality" />
		<tag k="ssr:stedsnr" v="95535" />
	</node>
	<node id="-260181" lat="59.1515916696" lon="8.08220277102">
		<tag k="name" v="Brurehola" />
		<tag k="place" v="locality" />
		<tag k="ssr:stedsnr" v="169577" />
	</node>
	<node id="-262483" lat="59.309661108" lon="8.09523332788">
		<tag k="name" v="Gamlekøs" />
		<tag k="place" v="locality" />
		<tag k="ssr:stedsnr" v="837724" />
	</node>
	<node id="-260199" lat="59.0675694423" lon="8.26898055737">
		<tag k="name" v="Flisbakkskøti" />
		<tag k="place" v="locality" />
		<tag k="ssr:stedsnr" v="169943" />
	</node>
	<node id="-259661" lat="59.0538861073" lon="8.25953055562">
		<tag k="name" v="Moldskøtet" />
		<tag k="place" v="locality" />
		<tag k="ssr:stedsnr" v="48998" />
	</node>
	<node id="-262860" lat="59.0591916664" lon="8.07059999895">
		<tag k="name" v="Runesteinen" />
		<tag k="place" v="locality" />
		<tag k="ssr:stedsnr" v="958476" />
	</node>
	<node id="-260322" lat="59.2175583296" lon="8.09201388998">
		<tag k="cemetery" v="grave" />
		<tag k="name" v="Heggland gamle kyrkje" />
		<tag k="place" v="locality" />
		<tag k="ssr:stedsnr" v="216470" />
	</node>
	<node id="-259907" lat="59.2914861086" lon="8.11723611063">
		<tag k="name" v="Dansarhaugen" />
		<tag k="place" v="locality" />
		<tag k="ssr:stedsnr" v="109227" />
	</node>
	<node id="-259143" lat="59.1919722202" lon="8.25203054691">
		<tag k="name" v="Dei fire store" />
		<tag k="place" v="locality" />
		<tag k="ssr:stedsnr" v="412420" />
	</node>
	<node id="-259526" lat="59.2468222221" lon="7.97565833367">
		<tag k="name" v="Svartraspresten" />
		<tag k="place" v="locality" />
		<tag k="ssr:stedsnr" v="34544" />
	</node>
	<node id="-262085" lat="59.2031555556" lon="8.01950277033">
		<tag k="name" v="Stemtjønnstoga" />
		<tag k="old_name" v="Stemmtjønnstoga" />
		<tag k="place" v="locality" />
		<tag k="ssr:stedsnr" v="763579" />
	</node>
	<node id="-260932" lat="59.2036777802" lon="8.08607778468">
		<tag k="name" v="Skeisteinen" />
		<tag k="place" v="locality" />
		<tag k="ssr:stedsnr" v="519822" />
	</node>
	<node id="-261315" lat="59.000697222" lon="8.28948334005">
		<tag k="name" v="Dammasta" />
		<tag k="place" v="locality" />
		<tag k="ssr:stedsnr" v="594373" />
	</node>
	<node id="-261055" lat="59.3255083371" lon="8.16509166125">
		<tag k="name" v="Gampeskrotten" />
		<tag k="place" v="locality" />
		<tag k="ssr:stedsnr" v="533648" />
	</node>
	<node id="-260413" lat="58.977041665" lon="8.25008055028">
		<tag k="name" v="Namnfura" />
		<tag k="place" v="locality" />
		<tag k="ssr:stedsnr" v="230079" />
	</node>
	<node id="-262841" lat="59.2916944407" lon="8.11446111648">
		<tag k="name" v="Kyrkjegardsækra" />
		<tag k="place" v="locality" />
		<tag k="ssr:stedsnr" v="958248" />
	</node>
	<node id="-262836" lat="59.2512527748" lon="8.16596389269">
		<tag k="name" v="Sæsjordsåta" />
		<tag k="place" v="locality" />
		<tag k="ssr:stedsnr" v="958131" />
	</node>
	<node id="-260404" lat="59.1413527785" lon="8.11975278375">
		<tag k="name" v="Olavskøti" />
		<tag k="place" v="locality" />
		<tag k="ssr:stedsnr" v="229757" />
	</node>
	<node id="-258611" lat="59.3077194442" lon="8.13264444014">
		<tag k="name" v="Kolbu" />
		<tag k="place" v="locality" />
		<tag k="ssr:stedsnr" v="291116" />
	</node>
	<node id="-262194" lat="59.0606444466" lon="8.25790277305">
		<tag k="name" v="Vassjula" />
		<tag k="place" v="locality" />
		<tag k="ssr:stedsnr" v="776964" />
	</node>
	<node id="-259249" lat="59.1871361089" lon="8.08739444554">
		<tag k="name" v="Meinstad" />
		<tag k="place" v="locality" />
		<tag k="ssr:stedsnr" v="883879" />
	</node>
	<node id="-259935" lat="59.1667361075" lon="8.09360833099">
		<tag k="name" v="Berglandskotet" />
		<tag k="place" v="locality" />
		<tag k="ssr:stedsnr" v="109671" />
	</node>
	<node id="-261044" lat="59.2022472214" lon="8.17657499549">
		<tag k="name" v="Fløtarvika" />
		<tag k="place" v="locality" />
		<tag k="ssr:stedsnr" v="533476" />
	</node>
	<node id="-260396" lat="59.0735166671" lon="8.2660138899">
		<tag k="name" v="Bjønnskjella" />
		<tag k="place" v="locality" />
		<tag k="ssr:stedsnr" v="229518" />
	</node>
	<node id="-261554" lat="59.0837777775" lon="8.2572555549">
		<tag k="name" v="Eriksfure" />
		<tag k="place" v="locality" />
		<tag k="ssr:stedsnr" v="653521" />
	</node>
	<node id="-259682" lat="59.1651472189" lon="8.09795555495">
		<tag k="name" v="Puffen" />
		<tag k="place" v="locality" />
		<tag k="ssr:stedsnr" v="49676" />
	</node>
	<node id="-258887" lat="59.0604805538" lon="8.25440000257">
		<tag k="name" v="Haukrei" />
		<tag k="place" v="locality" />
		<tag k="ssr:stedsnr" v="351971" />
	</node>
	<node id="-260776" lat="59.2035944426" lon="8.24970832867">
		<tag k="name" v="Revehiet" />
		<tag k="place" v="locality" />
		<tag k="ssr:stedsnr" v="472684" />
	</node>
	<node id="-261031" lat="59.0642805538" lon="8.16471667093">
		<tag k="name" v="Kvildeberget" />
		<tag k="place" v="locality" />
		<tag k="ssr:stedsnr" v="533342" />
	</node>
	<node id="-261553" lat="59.0821694479" lon="8.25403611172">
		<tag k="name" v="Stuffen" />
		<tag k="place" v="locality" />
		<tag k="ssr:stedsnr" v="653503" />
	</node>
	<node id="-259365" lat="59.3066888871" lon="8.08739167284">
		<tag k="name" v="Brennevinsbergi" />
		<tag k="place" v="locality" />
		<tag k="ssr:stedsnr" v="898752" />
	</node>
	<node id="-262221" lat="59.0735749959" lon="8.01135833821">
		<tag k="name" v="Tjuvhola" />
		<tag k="place" v="locality" />
		<tag k="ssr:stedsnr" v="777857" />
	</node>
	<node id="-261282" lat="59.3093527781" lon="8.20178611621">
		<tag k="name" v="Myrsendskjerpa" />
		<tag k="place" v="locality" />
		<tag k="ssr:stedsnr" v="593233" />
	</node>
	<node id="-261040" lat="59.3090083366" lon="8.18705833807">
		<tag k="name" v="Lyfti" />
		<tag k="place" v="locality" />
		<tag k="ssr:stedsnr" v="533451" />
	</node>
	<node id="-258629" lat="59.1564583338" lon="8.08289443643">
		<tag k="name" v="Bostedhøla" />
		<tag k="place" v="locality" />
		<tag k="ssr:stedsnr" v="291617" />
	</node>
	<node id="-259612" lat="59.1171277776" lon="8.18616111649">
		<tag k="name" v="Lensmannshola" />
		<tag k="place" v="locality" />
		<tag k="ssr:stedsnr" v="48290" />
	</node>
	<node id="-258587" lat="59.0642388871" lon="8.19618056093">
		<tag k="name" v="Røykjesteinen" />
		<tag k="place" v="locality" />
		<tag k="ssr:stedsnr" v="290324" />
	</node>
	<node id="-260378" lat="58.9854138862" lon="8.26493333216">
		<tag k="name" v="Støgeskotet" />
		<tag k="place" v="locality" />
		<tag k="ssr:stedsnr" v="226083" />
	</node>
	<node id="-258583" lat="59.0077999983" lon="8.30616944308">
		<tag k="name" v="Åmshomskoti" />
		<tag k="place" v="locality" />
		<tag k="ssr:stedsnr" v="290271" />
	</node>
	<node id="-261270" lat="58.9901194412" lon="8.26416943836">
		<tag k="name" v="Merrestallen" />
		<tag k="place" v="locality" />
		<tag k="ssr:stedsnr" v="590078" />
	</node>
	<node id="-259857" lat="58.9814000042" lon="8.24531666837">
		<tag k="name" v="Moleiken" />
		<tag k="place" v="locality" />
		<tag k="ssr:stedsnr" v="105094" />
	</node>
	<node id="-259610" lat="59.0031472241" lon="8.28855278099">
		<tag k="name" v="Kolbotn" />
		<tag k="place" v="locality" />
		<tag k="ssr:stedsnr" v="48230" />
	</node>
	<node id="-258850" lat="59.1713277795" lon="8.12565277489">
		<tag k="name" v="Glade hjem" />
		<tag k="place" v="locality" />
		<tag k="ssr:stedsnr" v="351397" />
	</node>
	<node id="-261262" lat="59.2651833321" lon="7.81769721741">
		<tag k="name" v="Myrteigen nedre" />
		<tag k="place" v="locality" />
		<tag k="ssr:stedsnr" v="581883" />
	</node>
	<node id="-259762" lat="59.2852861067" lon="8.09240833382">
		<tag k="alt_name" v="Veum kyrkje" />
		<tag k="amenity" v="place_of_worship" />
		<tag k="denomination" v="lutheran" />
		<tag k="name" v="Veum" />
		<tag k="religion" v="christian" />
		<tag k="ssr:stedsnr" v="85459" />
	</node>
	<node id="-258901" lat="58.9921166676" lon="8.04414999312">
		<tag k="name" v="Grendeskotet" />
		<tag k="place" v="locality" />
		<tag k="ssr:stedsnr" v="352447" />
	</node>
	<node id="-262871" lat="59.0183750036" lon="8.2365444437">
		<tag k="name" v="Skarken" />
		<tag k="place" v="locality" />
		<tag k="ssr:stedsnr" v="958801" />
	</node>
	<node id="-261552" lat="59.0979861106" lon="8.23057500167">
		<tag k="name" v="Kølshus" />
		<tag k="place" v="locality" />
		<tag k="ssr:stedsnr" v="653491" />
	</node>
	<node id="-259975" lat="59.1517166624" lon="7.73953056346">
		<tag k="name" v="Olavssåt" />
		<tag k="place" v="locality" />
		<tag k="ssr:stedsnr" v="110859" />
	</node>
	<node id="-260486" lat="59.1448083298" lon="7.74996945226">
		<tag k="name" v="Lensmannsætane" />
		<tag k="place" v="locality" />
		<tag k="ssr:stedsnr" v="231835" />
	</node>
	<node id="-261636" lat="58.9942583366" lon="8.04266666874">
		<tag k="name" v="Holskåtet" />
		<tag k="place" v="locality" />
		<tag k="ssr:stedsnr" v="655432" />
	</node>
	<node id="-261891" lat="59.2008361129" lon="8.24744444247">
		<tag k="name" v="Mikkels høyhekk" />
		<tag k="place" v="locality" />
		<tag k="ssr:stedsnr" v="715720" />
	</node>
	<node id="-260432" lat="59.2018611084" lon="8.18198333249">
		<tag k="name" v="Kolbotn" />
		<tag k="place" v="locality" />
		<tag k="ssr:stedsnr" v="230458" />
	</node>
	<node id="-261889" lat="59.3054138927" lon="8.05050277203">
		<tag k="name" v="Svartrast" />
		<tag k="place" v="locality" />
		<tag k="ssr:stedsnr" v="715684" />
	</node>
</osm>
