<?xml version="1.0" encoding="UTF-8"?>
<osm generator="osmapis" version="0.6">
	<node id="-572414" lat="62.3941222707" lon="6.89302028375">
		<tag k="fixme" v="consider place=hamlet" />
		<tag k="name" v="Vidhammar" />
		<tag k="old_name" v="Vindhammar" />
		<tag k="place" v="farm" />
		<tag k="ssr:stedsnr" v="739742" />
	</node>
	<node id="-572413" lat="62.3869829272" lon="7.18872409536">
		<tag k="fixme" v="consider place=hamlet" />
		<tag k="name" v="Almås" />
		<tag k="place" v="farm" />
		<tag k="ssr:stedsnr" v="739718" />
	</node>
	<node id="-572412" lat="62.3612138921" lon="6.9428916702">
		<tag k="name" v="Latøyna" />
		<tag k="place" v="locality" />
		<tag k="ssr:stedsnr" v="739684" />
	</node>
	<node id="-572406" lat="62.38190167" lon="7.15873591262">
		<tag k="fixme" v="consider place=hamlet" />
		<tag k="name" v="Lianes" />
		<tag k="place" v="farm" />
		<tag k="ssr:stedsnr" v="738719" />
	</node>
	<node id="-571893" lat="62.3880305544" lon="7.17603611056">
		<tag k="historic" v="shieling" />
		<tag k="name" v="Litlestølen" />
		<tag k="place" v="locality" />
		<tag k="ssr:stedsnr" v="884839" />
	</node>
	<node id="-572402" lat="62.4223388906" lon="7.25658332902">
		<tag k="name" v="Fokhaugstova" />
		<tag k="place" v="isolated_dwelling" />
		<tag k="ssr:stedsnr" v="728612" />
	</node>
	<node id="-572401" lat="62.4221632827" lon="6.94511029755">
		<tag k="fixme" v="consider place=hamlet" />
		<tag k="name" v="Nedre Dyrkorn" />
		<tag k="place" v="farm" />
		<tag k="ssr:stedsnr" v="719688" />
	</node>
	<node id="-571878" lat="62.3802666682" lon="7.02068334093">
		<tag k="name" v="Flatmark" />
		<tag k="place" v="farm" />
		<tag k="ssr:stedsnr" v="883674" />
	</node>
	<node id="-571872" lat="62.3731499988" lon="7.25591666703">
		<tag k="name" v="Bøen" />
		<tag k="place" v="isolated_dwelling" />
		<tag k="ssr:stedsnr" v="399814" />
	</node>
	<node id="-572382" lat="62.3962416632" lon="7.12264167263">
		<tag k="historic" v="shieling" />
		<tag k="name" v="Stavdalsstølen" />
		<tag k="place" v="locality" />
		<tag k="ssr:stedsnr" v="702063" />
	</node>
	<node id="-572381" lat="62.3822611145" lon="7.05209721234">
		<tag k="name" v="Holt" />
		<tag k="place" v="farm" />
		<tag k="ssr:stedsnr" v="702049" />
	</node>
	<node id="-571867" lat="62.3712111083" lon="7.07889722304">
		<tag k="name" v="Nedstegarden" />
		<tag k="place" v="farm" />
		<tag k="ssr:stedsnr" v="399089" />
	</node>
	<node id="-572371" lat="62.3348861123" lon="7.12072777041">
		<tag k="historic" v="shieling" />
		<tag k="name" v="Ekrestølen" />
		<tag k="place" v="locality" />
		<tag k="ssr:stedsnr" v="679482" />
	</node>
	<node id="-572370" lat="62.3399892193" lon="7.09651971448">
		<tag k="fixme" v="consider place=hamlet" />
		<tag k="name" v="Ekrane" />
		<tag k="place" v="farm" />
		<tag k="ssr:stedsnr" v="679478" />
	</node>
	<node id="-572366" lat="62.40051321" lon="6.94795401818">
		<tag k="fixme" v="consider place=hamlet" />
		<tag k="name" v="Stavneset" />
		<tag k="place" v="farm" />
		<tag k="ssr:stedsnr" v="678730" />
	</node>
	<node id="-572363" lat="62.3789586091" lon="7.15018315215">
		<tag k="fixme" v="consider place=hamlet" />
		<tag k="name" v="Støle" />
		<tag k="place" v="farm" />
		<tag k="ssr:stedsnr" v="678701" />
	</node>
	<node id="-572362" lat="62.4265333308" lon="6.99930555923">
		<tag k="historic" v="shieling" />
		<tag k="name" v="Gjerdsstølen" />
		<tag k="place" v="locality" />
		<tag k="ssr:stedsnr" v="678659" />
	</node>
	<node id="-571845" lat="62.4090682594" lon="7.2136545146">
		<tag k="fixme" v="consider place=hamlet" />
		<tag k="name" v="Øverøyane" />
		<tag k="place" v="farm" />
		<tag k="ssr:stedsnr" v="374755" />
	</node>
	<node id="-571844" lat="62.3803805241" lon="7.05866656031">
		<tag k="fixme" v="consider place=hamlet" />
		<tag k="name" v="Storheim" />
		<tag k="place" v="farm" />
		<tag k="ssr:stedsnr" v="374711" />
	</node>
	<node id="-571842" lat="62.3699930618" lon="7.08042965698">
		<tag k="fixme" v="consider place=hamlet" />
		<tag k="name" v="Mo" />
		<tag k="place" v="farm" />
		<tag k="ssr:stedsnr" v="374694" />
	</node>
	<node id="-571841" lat="62.4218083325" lon="6.9460527841">
		<tag k="fixme" v="consider place=hamlet" />
		<tag k="name" v="Dyrkorn" />
		<tag k="place" v="village" />
		<tag k="ssr:stedsnr" v="374675" />
	</node>
	<node id="-571840" lat="62.4163194467" lon="6.9921250023">
		<tag k="historic" v="shieling" />
		<tag k="name" v="Dyrkornstølen" />
		<tag k="place" v="locality" />
		<tag k="ssr:stedsnr" v="374639" />
	</node>
	<node id="-572340" lat="62.3725388886" lon="7.11476666826">
		<tag k="historic" v="shieling" />
		<tag k="name" v="Stølen" />
		<tag k="place" v="locality" />
		<tag k="ssr:stedsnr" v="641090" />
	</node>
	<node id="-571827" lat="62.3399027776" lon="7.12882777149">
		<tag k="historic" v="shieling" />
		<tag k="name" v="Skjetnesetra" />
		<tag k="place" v="locality" />
		<tag k="ssr:stedsnr" v="338437" />
	</node>
	<node id="-572333" lat="62.378797219" lon="7.00071110228">
		<tag k="name" v="Vinjesanden" />
		<tag k="place" v="quarter" />
		<tag k="ssr:stedsnr" v="640604" />
	</node>
	<node id="-572331" lat="62.3739231768" lon="6.93630758329">
		<tag k="fixme" v="consider place=hamlet" />
		<tag k="name" v="Stordalsholmen" />
		<tag k="place" v="farm" />
		<tag k="ssr:stedsnr" v="632971" />
	</node>
	<node id="-571975" lat="62.3799333367" lon="7.14833056432">
		<tag k="name" v="Haugplassen" />
		<tag k="place" v="locality" />
		<tag k="ssr:stedsnr" v="35130" />
	</node>
	<node id="-572328" lat="62.3395916639" lon="7.13526667372">
		<tag k="historic" v="shieling" />
		<tag k="name" v="Riset" />
		<tag k="place" v="locality" />
		<tag k="ssr:stedsnr" v="618514" />
	</node>
	<node id="-571815" lat="62.3659249963" lon="6.94399443659">
		<tag k="name" v="Nedsteplassen" />
		<tag k="place" v="locality" />
		<tag k="ssr:stedsnr" v="337740" />
	</node>
	<node id="-572325" lat="62.3988916702" lon="6.88599999774">
		<tag k="historic" v="shieling" />
		<tag k="name" v="Vidhammarsætra" />
		<tag k="place" v="locality" />
		<tag k="ssr:stedsnr" v="617767" />
	</node>
	<node id="-572323" lat="62.3789361085" lon="7.0916499976">
		<tag k="historic" v="shieling" />
		<tag k="name" v="Mosætra" />
		<tag k="place" v="locality" />
		<tag k="ssr:stedsnr" v="617722" />
	</node>
	<node id="-572322" lat="62.3736333303" lon="6.8748416576">
		<tag k="historic" v="shieling" />
		<tag k="name" v="Skjortnessætra" />
		<tag k="place" v="locality" />
		<tag k="ssr:stedsnr" v="617713" />
	</node>
	<node id="-571808" lat="62.4127992805" lon="6.90240142635">
		<tag k="name" v="Me-Skotet" />
		<tag k="place" v="farm" />
		<tag k="ssr:stedsnr" v="325910" />
	</node>
	<node id="-571807" lat="62.3449236492" lon="7.09568073623">
		<tag k="fixme" v="consider place=hamlet" />
		<tag k="name" v="Rødset" />
		<tag k="place" v="farm" />
		<tag k="ssr:stedsnr" v="315532" />
	</node>
	<node id="-572315" lat="62.4160166713" lon="7.32163611878">
		<tag k="name" v="Storvasshytta" />
		<tag k="place" v="isolated_dwelling" />
		<tag k="ssr:stedsnr" v="581715" />
	</node>
	<node id="-572312" lat="62.3986111107" lon="7.21921389529">
		<tag k="historic" v="shieling" />
		<tag k="name" v="Stølen" />
		<tag k="place" v="locality" />
		<tag k="ssr:stedsnr" v="581694" />
	</node>
	<node id="-571795" lat="62.4208207536" lon="6.95684672063">
		<tag k="fixme" v="consider place=hamlet" />
		<tag k="name" v="Øvre Dyrkorn" />
		<tag k="place" v="farm" />
		<tag k="ssr:stedsnr" v="294727" />
	</node>
	<node id="-572306" lat="62.3807194464" lon="7.15574721309">
		<tag k="name" v="Granheim" />
		<tag k="place" v="farm" />
		<tag k="ssr:stedsnr" v="581120" />
	</node>
	<node id="-572304" lat="62.373630558" lon="7.07909721754">
		<tag k="name" v="Torvå" />
		<tag k="place" v="farm" />
		<tag k="ssr:stedsnr" v="581091" />
	</node>
	<node id="-572302" lat="62.4072944471" lon="7.12748610537">
		<tag k="historic" v="shieling" />
		<tag k="name" v="Findastølen" />
		<tag k="place" v="locality" />
		<tag k="ssr:stedsnr" v="581073" />
	</node>
	<node id="-571789" lat="62.3702777762" lon="7.08238332409">
		<tag k="name" v="Litlebakken" />
		<tag k="place" v="farm" />
		<tag k="ssr:stedsnr" v="278083" />
	</node>
	<node id="-571784" lat="62.3693777804" lon="7.0826611024">
		<tag k="name" v="Mo" />
		<tag k="place" v="farm" />
		<tag k="ssr:stedsnr" v="277536" />
	</node>
	<node id="-572295" lat="62.3405472251" lon="7.140663889">
		<tag k="historic" v="shieling" />
		<tag k="name" v="Gamlestølen" />
		<tag k="place" v="locality" />
		<tag k="ssr:stedsnr" v="580457" />
	</node>
	<node id="-571782" lat="62.4299111108" lon="6.99351111279">
		<tag k="historic" v="shieling" />
		<tag k="name" v="Puskesætra" />
		<tag k="place" v="locality" />
		<tag k="ssr:stedsnr" v="277431" />
	</node>
	<node id="-572276" lat="62.3845860463" lon="7.0295547761">
		<tag k="fixme" v="consider place=hamlet" />
		<tag k="name" v="Øvrebust" />
		<tag k="place" v="farm" />
		<tag k="ssr:stedsnr" v="557698" />
	</node>
	<node id="-572275" lat="62.3923444411" lon="6.98142500173">
		<tag k="historic" v="shieling" />
		<tag k="name" v="Hovsnakken" />
		<tag k="place" v="locality" />
		<tag k="ssr:stedsnr" v="557696" />
	</node>
	<node id="-572273" lat="62.3816527395" lon="6.9967374725">
		<tag k="alt_name" v="Gjestegarden" />
		<tag k="fixme" v="consider place=hamlet" />
		<tag k="name" v="Vinje" />
		<tag k="place" v="farm" />
		<tag k="ssr:stedsnr" v="557682" />
	</node>
	<node id="-572270" lat="62.3359500002" lon="7.12284723029">
		<tag k="historic" v="shieling" />
		<tag k="name" v="Øyesætra" />
		<tag k="place" v="locality" />
		<tag k="ssr:stedsnr" v="557502" />
	</node>
	<node id="-572269" lat="62.3406002743" lon="7.10789376367">
		<tag k="fixme" v="consider place=hamlet" />
		<tag k="name" v="Rødsetsætra" />
		<tag k="place" v="farm" />
		<tag k="ssr:stedsnr" v="557501" />
	</node>
	<node id="-572266" lat="62.3824684623" lon="7.23163318389">
		<tag k="fixme" v="consider place=hamlet" />
		<tag k="loc_name" v="Seljebotnen" />
		<tag k="name" v="Seljebotn" />
		<tag k="place" v="farm" />
		<tag k="ssr:stedsnr" v="556960" />
	</node>
	<node id="-572262" lat="62.3823535186" lon="7.04909972303">
		<tag k="fixme" v="consider place=hamlet" />
		<tag k="name" v="Holt" />
		<tag k="place" v="farm" />
		<tag k="ssr:stedsnr" v="556724" />
	</node>
	<node id="-572261" lat="62.3807828254" lon="7.11722830368">
		<tag k="fixme" v="consider place=hamlet" />
		<tag k="name" v="Jasvollsætra" />
		<tag k="place" v="farm" />
		<tag k="ssr:stedsnr" v="556722" />
	</node>
	<node id="-572256" lat="62.428701441" lon="6.94543174019">
		<tag k="fixme" v="consider place=hamlet" />
		<tag k="name" v="Lia" />
		<tag k="place" v="farm" />
		<tag k="ssr:stedsnr" v="556693" />
	</node>
	<node id="-572254" lat="62.4037499991" lon="6.89669165972">
		<tag k="historic" v="shieling" />
		<tag k="name" v="Skotssætra" />
		<tag k="place" v="locality" />
		<tag k="ssr:stedsnr" v="556651" />
	</node>
	<node id="-572253" lat="62.3342777769" lon="7.18974722842">
		<tag k="name" v="Karlstad" />
		<tag k="place" v="isolated_dwelling" />
		<tag k="ssr:stedsnr" v="537700" />
	</node>
	<node id="-572252" lat="62.3827653823" lon="7.0052488584">
		<tag k="fixme" v="consider place=hamlet" />
		<tag k="name" v="Busengdal" />
		<tag k="place" v="farm" />
		<tag k="ssr:stedsnr" v="537688" />
	</node>
	<node id="-571790" lat="62.4212750027" lon="7.23398611602">
		<tag k="historic" v="shieling" />
		<tag k="name" v="Langsætrane" />
		<tag k="place" v="locality" />
		<tag k="ssr:stedsnr" v="278690" />
	</node>
	<node id="-572238" lat="62.3773944457" lon="7.15167777061">
		<tag k="historic" v="shieling" />
		<tag k="name" v="Litlesætra" />
		<tag k="place" v="locality" />
		<tag k="ssr:stedsnr" v="520083" />
	</node>
	<node id="-572236" lat="62.3755694465" lon="7.09247778673">
		<tag k="historic" v="shieling" />
		<tag k="name" v="Gamlesætra" />
		<tag k="place" v="locality" />
		<tag k="ssr:stedsnr" v="520066" />
	</node>
	<node id="-572219" lat="62.4148255858" lon="6.8944158482">
		<tag k="fixme" v="multiple name tags, choose one and add the other to alt_name" />
		<tag k="name" v="Ytste Skotet;Skotet" />
		<tag k="place" v="farm" />
		<tag k="ssr:stedsnr" v="507923" />
	</node>
	<node id="-572214" lat="62.3944777807" lon="7.1904638872">
		<tag k="historic" v="shieling" />
		<tag k="name" v="Almåssætra" />
		<tag k="place" v="locality" />
		<tag k="ssr:stedsnr" v="496724" />
	</node>
	<node id="-572213" lat="62.3818377855" lon="6.98750581533">
		<tag k="alt_name" v="Hove" />
		<tag k="name" v="Ellinggarden" />
		<tag k="place" v="farm" />
		<tag k="ssr:stedsnr" v="496718" />
	</node>
	<node id="-571916" lat="62.3851746917" lon="7.02939630559">
		<tag k="name" v="Øvrebust" />
		<tag k="place" v="farm" />
		<tag k="ssr:stedsnr" v="986085" />
	</node>
	<node id="-572208" lat="62.4171780213" lon="6.95443198691">
		<tag k="fixme" v="consider place=hamlet" />
		<tag k="name" v="Indresætra" />
		<tag k="place" v="farm" />
		<tag k="ssr:stedsnr" v="496646" />
	</node>
	<node id="-572197" lat="62.3800138921" lon="7.1509416699">
		<tag k="name" v="Tegeplassen" />
		<tag k="place" v="locality" />
		<tag k="ssr:stedsnr" v="460146" />
	</node>
	<node id="-572196" lat="62.376361112" lon="7.13248888254">
		<tag k="name" v="Nygarden" />
		<tag k="place" v="farm" />
		<tag k="ssr:stedsnr" v="460143" />
	</node>
	<node id="-572195" lat="62.374505559" lon="7.1182583313">
		<tag k="name" v="Stavåplassen" />
		<tag k="place" v="farm" />
		<tag k="ssr:stedsnr" v="460138" />
	</node>
	<node id="-572191" lat="62.3713444408" lon="7.10189721772">
		<tag k="name" v="Ytstegarden" />
		<tag k="place" v="farm" />
		<tag k="ssr:stedsnr" v="460111" />
	</node>
	<node id="-572190" lat="62.4608833298" lon="7.20773888216">
		<tag k="historic" v="shieling" />
		<tag k="name" v="Nilsstølen" />
		<tag k="place" v="locality" />
		<tag k="ssr:stedsnr" v="460104" />
	</node>
	<node id="-572037" lat="62.4301388858" lon="6.99468610405">
		<tag k="historic" v="shieling" />
		<tag k="name" v="Pusken" />
		<tag k="old_name" v="Puskestølen" />
		<tag k="place" v="locality" />
		<tag k="ssr:stedsnr" v="131670" />
	</node>
	<node id="-572183" lat="62.3647888869" lon="7.15254999807">
		<tag k="historic" v="shieling" />
		<tag k="name" v="Gamlesætra" />
		<tag k="place" v="locality" />
		<tag k="ssr:stedsnr" v="459513" />
	</node>
	<node id="-572182" lat="62.3686944418" lon="7.08426110901">
		<tag k="name" v="Holen" />
		<tag k="place" v="farm" />
		<tag k="ssr:stedsnr" v="459514" />
	</node>
	<node id="-572175" lat="62.366436112" lon="6.94510278179">
		<tag k="name" v="Øygarden" />
		<tag k="place" v="locality" />
		<tag k="ssr:stedsnr" v="458771" />
	</node>
	<node id="-572163" lat="62.3566509258" lon="6.95510376882">
		<tag k="fixme" v="consider place=hamlet" />
		<tag k="name" v="Djupdalen" />
		<tag k="place" v="farm" />
		<tag k="ssr:stedsnr" v="436534" />
	</node>
	<node id="-572160" lat="62.3687745491" lon="6.94766712973">
		<tag k="fixme" v="consider place=hamlet" />
		<tag k="loc_name" v="Holmehals" />
		<tag k="name" v="Øvstholmen" />
		<tag k="place" v="farm" />
		<tag k="ssr:stedsnr" v="435724" />
	</node>
	<node id="-572156" lat="62.4265953229" lon="6.96985253408">
		<tag k="alt_name" v="Ødegård" />
		<tag k="fixme" v="consider place=hamlet" />
		<tag k="loc_name" v="Øgarden" />
		<tag k="name" v="Øygarden" />
		<tag k="place" v="farm" />
		<tag k="ssr:stedsnr" v="435689" />
	</node>
	<node id="-572149" lat="62.3475420459" lon="7.08894353035">
		<tag k="fixme" v="consider place=hamlet" />
		<tag k="name" v="Øyane" />
		<tag k="old_name" v="Trettøyane;Trætøie" />
		<tag k="place" v="farm" />
		<tag k="ssr:stedsnr" v="254518" />
	</node>
	<node id="-571859" lat="62.4220499957" lon="6.94849999816">
		<tag k="name" v="Ålund" />
		<tag k="place" v="farm" />
		<tag k="ssr:stedsnr" v="398352" />
	</node>
	<node id="-572144" lat="62.3954944443" lon="7.01830833142">
		<tag k="historic" v="shieling" />
		<tag k="name" v="Midtbustsætra" />
		<tag k="place" v="locality" />
		<tag k="ssr:stedsnr" v="253762" />
	</node>
	<node id="-572142" lat="62.3754964025" lon="7.12667896107">
		<tag k="fixme" v="consider place=hamlet" />
		<tag k="name" v="Stavdal" />
		<tag k="place" v="farm" />
		<tag k="ssr:stedsnr" v="253709" />
	</node>
	<node id="-572141" lat="62.4260921238" lon="6.95983671061">
		<tag k="fixme" v="consider place=hamlet" />
		<tag k="name" v="Framsætra" />
		<tag k="place" v="farm" />
		<tag k="ssr:stedsnr" v="253680" />
	</node>
	<node id="-572134" lat="62.3994611122" lon="7.20853333914">
		<tag k="loc_name" v="Ytstehaug" />
		<tag k="name" v="Ystehaug" />
		<tag k="place" v="farm" />
		<tag k="ssr:stedsnr" v="217667" />
	</node>
	<node id="-572123" lat="62.3744333344" lon="7.07512500933">
		<tag k="name" v="Plassen" />
		<tag k="place" v="isolated_dwelling" />
		<tag k="ssr:stedsnr" v="217081" />
	</node>
	<node id="-572122" lat="62.3966055517" lon="7.11935000245">
		<tag k="historic" v="shieling" />
		<tag k="name" v="Jasvollstølen" />
		<tag k="place" v="locality" />
		<tag k="ssr:stedsnr" v="217071" />
	</node>
	<node id="-572109" lat="62.4117034839" lon="6.90671662504">
		<tag k="name" v="Inste Skotet" />
		<tag k="place" v="farm" />
		<tag k="ssr:stedsnr" v="204924" />
	</node>
	<node id="-571938" lat="62.3855515763" lon="7.01381281792">
		<tag k="fixme" v="consider place=hamlet" />
		<tag k="name" v="Midtbust" />
		<tag k="place" v="farm" />
		<tag k="ssr:stedsnr" v="11731" />
	</node>
	<node id="-572101" lat="62.3837480437" lon="7.00929918296">
		<tag k="fixme" v="consider place=hamlet" />
		<tag k="name" v="Kyrkjebøen" />
		<tag k="place" v="farm" />
		<tag k="ssr:stedsnr" v="193688" />
	</node>
	<node id="-572100" lat="62.3798405898" lon="7.01442278083">
		<tag k="fixme" v="consider place=hamlet" />
		<tag k="name" v="Kvammen" />
		<tag k="place" v="farm" />
		<tag k="ssr:stedsnr" v="193687" />
	</node>
	<node id="-572094" lat="62.393336107" lon="7.03788610281">
		<tag k="historic" v="shieling" />
		<tag k="name" v="Litlesætra" />
		<tag k="place" v="locality" />
		<tag k="ssr:stedsnr" v="173331" />
	</node>
	<node id="-572089" lat="62.4196940608" lon="7.22946735306">
		<tag k="historic" v="shieling" />
		<tag k="name" v="Kvitlestølen" />
		<tag k="place" v="locality" />
		<tag k="ssr:stedsnr" v="157586" />
	</node>
	<node id="-572087" lat="62.4081805588" lon="6.96348611073">
		<tag k="historic" v="shieling" />
		<tag k="name" v="Stavnessætra" />
		<tag k="place" v="locality" />
		<tag k="ssr:stedsnr" v="156694" />
	</node>
	<node id="-571920" lat="62.3842479666" lon="7.02188977997">
		<tag k="name" v="Øvrebust" />
		<tag k="place" v="farm" />
		<tag k="ssr:stedsnr" v="986093" />
	</node>
	<node id="-572072" lat="62.3716111091" lon="7.07920278425">
		<tag k="name" v="Erikgarden" />
		<tag k="place" v="farm" />
		<tag k="ssr:stedsnr" v="156077" />
	</node>
	<node id="-572052" lat="62.4132628437" lon="6.89848800916">
		<tag k="fixme" v="consider place=hamlet" />
		<tag k="name" v="Skotet" />
		<tag k="place" v="farm" />
		<tag k="ssr:stedsnr" v="132652" />
	</node>
	<node id="-572045" lat="62.3843638639" lon="7.20011033166">
		<tag k="fixme" v="consider place=hamlet" />
		<tag k="name" v="Langhaugen" />
		<tag k="place" v="farm" />
		<tag k="ssr:stedsnr" v="131720" />
	</node>
	<node id="-572044" lat="62.3842694481" lon="7.18252499373">
		<tag k="historic" v="shieling" />
		<tag k="name" v="Nakkesætra" />
		<tag k="place" v="locality" />
		<tag k="ssr:stedsnr" v="131719" />
	</node>
	<node id="-572041" lat="62.3718064416" lon="6.88979362069">
		<tag k="fixme" v="consider place=hamlet" />
		<tag k="name" v="Skjortneset" />
		<tag k="place" v="farm" />
		<tag k="ssr:stedsnr" v="131710" />
	</node>
	<node id="-572551" lat="62.3852839294" lon="6.99127681308">
		<tag k="name" v="Toregarden" />
		<tag k="place" v="farm" />
		<tag k="ssr:stedsnr" v="975600" />
	</node>
	<node id="-572038" lat="62.4225593478" lon="6.95627942081">
		<tag k="fixme" v="consider place=hamlet" />
		<tag k="name" v="Gjerdet" />
		<tag k="place" v="farm" />
		<tag k="ssr:stedsnr" v="131672" />
	</node>
	<node id="-572549" lat="62.3817169773" lon="6.9897370728">
		<tag k="name" v="Nilsgarden" />
		<tag k="place" v="farm" />
		<tag k="ssr:stedsnr" v="975594" />
	</node>
	<node id="-572028" lat="62.3823472203" lon="7.04494999248">
		<tag k="name" v="Holtleite" />
		<tag k="place" v="farm" />
		<tag k="ssr:stedsnr" v="96060" />
	</node>
	<node id="-572020" lat="62.3362861113" lon="7.12073054883">
		<tag k="historic" v="shieling" />
		<tag k="name" v="Ekresætra" />
		<tag k="place" v="locality" />
		<tag k="ssr:stedsnr" v="95415" />
	</node>
	<node id="-572017" lat="62.3767277785" lon="7.1303166595">
		<tag k="historic" v="shieling" />
		<tag k="name" v="Haugaplassen" />
		<tag k="place" v="locality" />
		<tag k="ssr:stedsnr" v="95116" />
	</node>
	<node id="-572016" lat="62.3823083329" lon="7.16015000204">
		<tag k="historic" v="shieling" />
		<tag k="name" v="Gamlebøen" />
		<tag k="place" v="locality" />
		<tag k="ssr:stedsnr" v="95083" />
	</node>
	<node id="-572517" lat="62.4010589751" lon="7.20951052475">
		<tag k="fixme" v="consider place=hamlet" />
		<tag k="name" v="Seljehaugen" />
		<tag k="place" v="farm" />
		<tag k="ssr:stedsnr" v="921751" />
	</node>
	<node id="-572515" lat="62.3719487464" lon="7.10408390874">
		<tag k="fixme" v="consider place=hamlet" />
		<tag k="name" v="Jasvoll" />
		<tag k="place" v="farm" />
		<tag k="ssr:stedsnr" v="921710" />
	</node>
	<node id="-572513" lat="62.4134888908" lon="6.98181389268">
		<tag k="historic" v="shieling" />
		<tag k="name" v="Vikastølen" />
		<tag k="place" v="locality" />
		<tag k="ssr:stedsnr" v="921661" />
	</node>
	<node id="-572511" lat="62.3608544186" lon="7.08564724033">
		<tag k="fixme" v="consider place=hamlet" />
		<tag k="name" v="Løset" />
		<tag k="place" v="farm" />
		<tag k="ssr:stedsnr" v="921580" />
	</node>
	<node id="-572508" lat="62.3592916648" lon="7.09751944358">
		<tag k="historic" v="shieling" />
		<tag k="name" v="Løsetnakken" />
		<tag k="place" v="locality" />
		<tag k="ssr:stedsnr" v="921559" />
	</node>
	<node id="-572550" lat="62.4211959604" lon="6.94911532792">
		<tag k="name" v="Bakkeplassen" />
		<tag k="place" v="farm" />
		<tag k="ssr:stedsnr" v="975598" />
	</node>
	<node id="-571990" lat="62.396430555" lon="7.12281388608">
		<tag k="historic" v="shieling" />
		<tag k="name" v="Botnastølen" />
		<tag k="place" v="locality" />
		<tag k="ssr:stedsnr" v="71753" />
	</node>
	<node id="-571906" lat="62.4259395734" lon="6.96696247546">
		<tag k="alt_name" v="Ødegård" />
		<tag k="name" v="Øygarden" />
		<tag k="place" v="farm" />
		<tag k="ssr:stedsnr" v="982648" />
	</node>
	<node id="-572496" lat="62.3672830451" lon="7.08270825369">
		<tag k="fixme" v="consider place=hamlet" />
		<tag k="name" v="Vad" />
		<tag k="place" v="farm" />
		<tag k="ssr:stedsnr" v="861523" />
	</node>
	<node id="-572487" lat="62.382698833" lon="7.17257741391">
		<tag k="fixme" v="consider place=hamlet" />
		<tag k="name" v="Nakken" />
		<tag k="place" v="farm" />
		<tag k="ssr:stedsnr" v="860733" />
	</node>
	<node id="-571974" lat="62.3781111078" lon="7.14159722341">
		<tag k="name" v="Støleplassen" />
		<tag k="place" v="locality" />
		<tag k="ssr:stedsnr" v="35126" />
	</node>
	<node id="-572485" lat="62.3744337092" lon="7.13832489349">
		<tag k="fixme" v="consider place=hamlet" />
		<tag k="name" v="Telberg" />
		<tag k="place" v="farm" />
		<tag k="ssr:stedsnr" v="860727" />
	</node>
	<node id="-571972" lat="62.3885583377" lon="7.19311112033">
		<tag k="name" v="Plassebøen" />
		<tag k="place" v="locality" />
		<tag k="ssr:stedsnr" v="34838" />
	</node>
	<node id="-572478" lat="62.4258722191" lon="7.2279055504">
		<tag k="historic" v="shieling" />
		<tag k="name" v="Puskestølen" />
		<tag k="place" v="locality" />
		<tag k="ssr:stedsnr" v="824659" />
	</node>
	<node id="-571960" lat="62.4350416636" lon="6.93773333646">
		<tag k="name" v="Fjellet" />
		<tag k="place" v="locality" />
		<tag k="ssr:stedsnr" v="34368" />
	</node>
	<node id="-572470" lat="62.3816277805" lon="7.05060834187">
		<tag k="name" v="Holt" />
		<tag k="place" v="farm" />
		<tag k="ssr:stedsnr" v="824062" />
	</node>
	<node id="-571957" lat="62.4148138848" lon="6.94790555428">
		<tag k="name" v="Reiten" />
		<tag k="place" v="locality" />
		<tag k="ssr:stedsnr" v="34349" />
	</node>
	<node id="-572467" lat="62.3882694481" lon="7.17999167209">
		<tag k="name" v="Reiten" />
		<tag k="place" v="farm" />
		<tag k="ssr:stedsnr" v="823819" />
	</node>
	<node id="-572462" lat="62.4175609356" lon="6.94735600362">
		<tag k="alt_name" v="Viken;Flåen" />
		<tag k="fixme" v="consider place=hamlet" />
		<tag k="name" v="Vika" />
		<tag k="place" v="farm" />
		<tag k="ssr:stedsnr" v="823354" />
	</node>
	<node id="-571948" lat="62.3834305534" lon="6.97310833743">
		<tag k="name" v="Hovsstranda" />
		<tag k="place" v="hamlet" />
		<tag k="ssr:stedsnr" v="33775" />
	</node>
	<node id="-572459" lat="62.4264499982" lon="7.2274638888">
		<tag k="historic" v="shieling" />
		<tag k="name" v="Pusken" />
		<tag k="place" v="locality" />
		<tag k="ssr:stedsnr" v="800995" />
	</node>
	<node id="-572457" lat="62.3872478023" lon="6.88020347077">
		<tag k="fixme" v="consider place=hamlet" />
		<tag k="name" v="Korsadalen" />
		<tag k="place" v="farm" />
		<tag k="ssr:stedsnr" v="800704" />
	</node>
	<node id="-572456" lat="62.3860888862" lon="6.96693055755">
		<tag k="name" v="Nesplassen" />
		<tag k="place" v="locality" />
		<tag k="ssr:stedsnr" v="800701" />
	</node>
	<node id="-572454" lat="62.3820250019" lon="6.98629166356">
		<tag k="loc_name" v="Stordalen" />
		<tag k="name" v="Stordal" />
		<tag k="place" v="village" />
		<tag k="ssr:stedsnr" v="800693" />
	</node>
	<node id="-572450" lat="62.3677805559" lon="7.14985278643">
		<tag k="historic" v="shieling" />
		<tag k="name" v="Telbergsætra" />
		<tag k="place" v="locality" />
		<tag k="ssr:stedsnr" v="800552" />
	</node>
	<node id="-572449" lat="62.3608333309" lon="6.96606944284">
		<tag k="historic" v="shieling" />
		<tag k="name" v="Holmesætra" />
		<tag k="place" v="locality" />
		<tag k="ssr:stedsnr" v="800548" />
	</node>
	<node id="-571932" lat="62.3857333295" lon="7.14549444254">
		<tag k="historic" v="shieling" />
		<tag k="name" v="Stølesætra" />
		<tag k="place" v="locality" />
		<tag k="ssr:stedsnr" v="10722" />
	</node>
	<node id="-571810" lat="62.3470138912" lon="7.09176388554">
		<tag k="name" v="Bjørkheim" />
		<tag k="place" v="farm" />
		<tag k="ssr:stedsnr" v="333820" />
	</node>
	<node id="-571930" lat="62.4271144415" lon="6.9536373606">
		<tag k="fixme" v="consider place=hamlet" />
		<tag k="name" v="Ytresætra" />
		<tag k="place" v="farm" />
		<tag k="ssr:stedsnr" v="10683" />
	</node>
	<node id="-572441" lat="62.4112102612" lon="6.91270001835">
		<tag k="fixme" v="consider place=hamlet" />
		<tag k="name" v="Skotshalsen" />
		<tag k="place" v="farm" />
		<tag k="ssr:stedsnr" v="799665" />
	</node>
	<node id="-571908" lat="62.383753337" lon="6.99219488303">
		<tag k="fixme" v="consider place=hamlet" />
		<tag k="name" v="Hove" />
		<tag k="place" v="farm" />
		<tag k="ssr:stedsnr" v="983643" />
	</node>
	<node id="-572434" lat="62.3787611148" lon="7.12389722503">
		<tag k="historic" v="shieling" />
		<tag k="name" v="Gamlesætra" />
		<tag k="place" v="locality" />
		<tag k="ssr:stedsnr" v="763154" />
	</node>
	<node id="-571921" lat="62.3844179833" lon="7.02374548858">
		<tag k="name" v="Øvrebust" />
		<tag k="place" v="farm" />
		<tag k="ssr:stedsnr" v="986095" />
	</node>
	<node id="-572432" lat="62.3774583338" lon="7.13984722645">
		<tag k="name" v="Leithola" />
		<tag k="place" v="locality" />
		<tag k="ssr:stedsnr" v="763122" />
	</node>
	<node id="-571919" lat="62.3844776567" lon="7.03122911438">
		<tag k="name" v="Øvrebust" />
		<tag k="place" v="farm" />
		<tag k="ssr:stedsnr" v="986092" />
	</node>
	<node id="-571918" lat="62.3839803796" lon="7.02622020026">
		<tag k="name" v="Øvrebust" />
		<tag k="place" v="farm" />
		<tag k="ssr:stedsnr" v="986091" />
	</node>
	<node id="-571917" lat="62.383577831" lon="7.03544113394">
		<tag k="name" v="Øvrebust" />
		<tag k="place" v="farm" />
		<tag k="ssr:stedsnr" v="986089" />
	</node>
	<node id="-572428" lat="62.3673305582" lon="6.94463332566">
		<tag k="name" v="Jakobsplassen" />
		<tag k="place" v="locality" />
		<tag k="ssr:stedsnr" v="762732" />
	</node>
	<node id="-571915" lat="62.3855900582" lon="7.00790981684">
		<tag k="name" v="Midtbust" />
		<tag k="place" v="farm" />
		<tag k="ssr:stedsnr" v="986084" />
	</node>
	<node id="-571914" lat="62.3858266403" lon="7.0160409902">
		<tag k="name" v="Midtbust" />
		<tag k="place" v="farm" />
		<tag k="ssr:stedsnr" v="986083" />
	</node>
	<node id="-571913" lat="62.3857210894" lon="7.01156522173">
		<tag k="name" v="Midtbust" />
		<tag k="place" v="farm" />
		<tag k="ssr:stedsnr" v="986082" />
	</node>
	<node id="-571912" lat="62.38622692" lon="7.0151858586">
		<tag k="name" v="Midtbust" />
		<tag k="place" v="farm" />
		<tag k="ssr:stedsnr" v="986081" />
	</node>
	<node id="-571911" lat="62.3396981857" lon="7.09607959773">
		<tag k="name" v="Ekrane" />
		<tag k="place" v="farm" />
		<tag k="ssr:stedsnr" v="986079" />
	</node>
	<node id="-571910" lat="62.3408271892" lon="7.1087692127">
		<tag k="name" v="Rødsetsætra" />
		<tag k="place" v="farm" />
		<tag k="ssr:stedsnr" v="986077" />
	</node>
	<node id="-571909" lat="62.3439983745" lon="7.09598622179">
		<tag k="name" v="Rødset" />
		<tag k="place" v="farm" />
		<tag k="ssr:stedsnr" v="986074" />
	</node>
	<node id="-572420" lat="62.3874027753" lon="7.18963334247">
		<tag k="name" v="Alnås" />
		<tag k="place" v="farm" />
		<tag k="ssr:stedsnr" v="759318" />
	</node>
	<node id="-571907" lat="62.4364868035" lon="6.91372871424">
		<tag k="name" v="Bjørkeneset" />
		<tag k="place" v="locality" />
		<tag k="ssr:stedsnr" v="435710" />
	</node>
	<node id="-572418" lat="62.3463055527" lon="7.0937472174">
		<tag k="name" v="Kleiva" />
		<tag k="place" v="farm" />
		<tag k="ssr:stedsnr" v="758822" />
	</node>
</osm>
