<?xml version="1.0" encoding="UTF-8"?>
<osm generator="osmapis" version="0.6">
	<node id="-571261" lat="62.3722750005" lon="6.93878888579">
		<tag k="name" v="Skråvika" />
		<tag k="natural" v="bay" />
		<tag k="ssr:stedsnr" v="216730" />
	</node>
	<node id="-571515" lat="62.3653277747" lon="6.89029721679">
		<tag k="name" v="Galtevika" />
		<tag k="natural" v="bay" />
		<tag k="ssr:stedsnr" v="679673" />
	</node>
	<node id="-571258" lat="62.4315055553" lon="6.92338056119">
		<tag k="name" v="Hegrehalsen" />
		<tag k="natural" v="cape" />
		<tag k="ssr:stedsnr" v="216378" />
	</node>
	<node id="-571641" lat="62.3646416706" lon="6.9386333275">
		<tag k="name" v="Holmeneset" />
		<tag k="natural" v="cape" />
		<tag k="ssr:stedsnr" v="861661" />
	</node>
	<node id="-570996" lat="62.3423833371" lon="6.95694721798">
		<tag k="name" v="Knurrestøa" />
		<tag k="natural" v="cape" />
		<tag k="ssr:stedsnr" v="395374" />
	</node>
	<node id="-570995" lat="62.3846833297" lon="6.88700277109">
		<tag k="name" v="Værflåneset" />
		<tag k="natural" v="cape" />
		<tag k="ssr:stedsnr" v="395351" />
	</node>
	<node id="-571428" lat="62.3676805582" lon="6.94027777155">
		<tag k="name" v="Tobaksnes" />
		<tag k="natural" v="cape" />
		<tag k="ssr:stedsnr" v="579776" />
	</node>
	<node id="-571632" lat="62.4016833363" lon="6.94471945093">
		<tag k="name" v="Stavnesodden" />
		<tag k="natural" v="cape" />
		<tag k="ssr:stedsnr" v="860771" />
	</node>
	<node id="-571374" lat="62.3721611085" lon="6.93859443664">
		<tag k="name" v="Rorshamna" />
		<tag k="natural" v="bay" />
		<tag k="ssr:stedsnr" v="519914" />
	</node>
	<node id="-571517" lat="62.388341666" lon="6.88953055764">
		<tag k="name" v="Korsadalsvika" />
		<tag k="natural" v="bay" />
		<tag k="ssr:stedsnr" v="699308" />
	</node>
	<node id="-571244" lat="62.3874518401" lon="6.95787232776">
		<tag k="name" v="Seljeneset" />
		<tag k="natural" v="cape" />
		<tag k="ssr:stedsnr" v="193703" />
	</node>
	<node id="-570984" lat="62.3679444402" lon="6.94095833818">
		<tag k="name" v="Roshamna" />
		<tag k="natural" v="bay" />
		<tag k="old_name" v="Roshamn" />
		<tag k="ssr:stedsnr" v="374698" />
	</node>
	<node id="-571366" lat="62.3814694458" lon="6.98480833667">
		<tag k="name" v="Vinjebugen" />
		<tag k="natural" v="bay" />
		<tag k="ssr:stedsnr" v="519624" />
	</node>
	<node id="-571473" lat="62.3871555591" lon="6.88910000805">
		<tag k="name" v="Korsadalsneset" />
		<tag k="natural" v="cape" />
		<tag k="ssr:stedsnr" v="640198" />
	</node>
	<node id="-571642" lat="62.3647944443" lon="6.88913611693">
		<tag k="name" v="Skjortnesvika" />
		<tag k="natural" v="bay" />
		<tag k="ssr:stedsnr" v="880059" />
	</node>
	<node id="-571095" lat="62.4364277796" lon="6.91254444103">
		<tag k="name" v="Bjørkneset" />
		<tag k="natural" v="cape" />
		<tag k="ssr:stedsnr" v="34299" />
	</node>
	<node id="-571257" lat="62.4304638855" lon="6.92654444774">
		<tag k="name" v="Ramskarneset" />
		<tag k="natural" v="cape" />
		<tag k="ssr:stedsnr" v="216281" />
	</node>
	<node id="-571601" lat="62.3741722214" lon="6.96381388347">
		<tag k="name" v="Stølevika" />
		<tag k="natural" v="bay" />
		<tag k="ssr:stedsnr" v="820355" />
	</node>
	<node id="-570960" lat="62.3880499993" lon="6.95715555608">
		<tag k="name" v="Galten" />
		<tag k="natural" v="cape" />
		<tag k="ssr:stedsnr" v="337993" />
	</node>
	<node id="-571087" lat="62.3884111121" lon="6.93183610165">
		<tag k="name" v="Stordalsflua" />
		<tag k="natural" v="shoal" />
		<tag k="place" v="locality" />
		<tag k="ssr:stedsnr" v="31310" />
	</node>
	<node id="-571212" lat="62.3831277803" lon="6.9743638976">
		<tag k="name" v="Morthola" />
		<tag k="natural" v="bay" />
		<tag k="ssr:stedsnr" v="155743" />
	</node>
	<node id="-571426" lat="62.3840916634" lon="6.98444722872">
		<tag k="name" v="Hovsbugen" />
		<tag k="natural" v="bay" />
		<tag k="ssr:stedsnr" v="579661" />
	</node>
	<node id="-571209" lat="62.3972611139" lon="6.90641666959">
		<tag k="bay" v="fjord" />
		<tag k="name" v="Storfjorden" />
		<tag k="natural" v="bay" />
		<tag k="ssr:stedsnr" v="155849" />
	</node>
	<node id="-570952" lat="62.4167805595" lon="6.94552500935">
		<tag k="name" v="Vikaneset" />
		<tag k="natural" v="cape" />
		<tag k="ssr:stedsnr" v="335345" />
	</node>
	<node id="-571078" lat="62.3813555579" lon="6.9749305626">
		<tag k="name" v="Stordalsvika" />
		<tag k="natural" v="bay" />
		<tag k="ssr:stedsnr" v="11720" />
	</node>
	<node id="-571460" lat="62.4084138889" lon="6.91245000312">
		<tag k="name" v="Naustvika" />
		<tag k="natural" v="bay" />
		<tag k="ssr:stedsnr" v="617635" />
	</node>
	<node id="-571202" lat="62.4062305578" lon="6.90875277131">
		<tag k="name" v="Korsen" />
		<tag k="natural" v="cape" />
		<tag k="ssr:stedsnr" v="152372" />
	</node>
	<node id="-571072" lat="62.4238583322" lon="6.88621389222">
		<tag k="name" v="Ytste Vollvika" />
		<tag k="natural" v="bay" />
		<tag k="old_name" v="Volvika, ytste" />
		<tag k="ssr:stedsnr" v="10686" />
	</node>
	<node id="-570912" lat="62.3744333363" lon="6.96617777332">
		<tag k="name" v="Støleneset" />
		<tag k="natural" v="cape" />
		<tag k="ssr:stedsnr" v="276797" />
	</node>
	<node id="-571317" lat="62.3616361126" lon="6.94123888349">
		<tag k="name" v="Storneset" />
		<tag k="natural" v="cape" />
		<tag k="ssr:stedsnr" v="458796" />
	</node>
	<node id="-571477" lat="62.3731999972" lon="6.95021667249">
		<tag k="name" v="Køvhola" />
		<tag k="natural" v="bay" />
		<tag k="ssr:stedsnr" v="640756" />
	</node>
	<node id="-571312" lat="62.3611777818" lon="6.94219721734">
		<tag k="name" v="Latøyvika" />
		<tag k="natural" v="bay" />
		<tag k="ssr:stedsnr" v="456354" />
	</node>
	<node id="-571562" lat="62.3723055574" lon="6.94253610281">
		<tag k="name" v="Brønneset" />
		<tag k="natural" v="cape" />
		<tag k="ssr:stedsnr" v="759338" />
	</node>
	<node id="-571300" lat="62.3739166623" lon="6.95982778412">
		<tag k="name" v="Holmebugen" />
		<tag k="natural" v="bay" />
		<tag k="ssr:stedsnr" v="435720" />
	</node>
	<node id="-571206" lat="62.3763361106" lon="6.97962777897">
		<tag k="name" v="Sessen" />
		<tag k="natural" v="cape" />
		<tag k="ssr:stedsnr" v="155560" />
	</node>
	<node id="-570914" lat="62.3710166643" lon="6.93915832497">
		<tag k="name" v="Svinerotneset" />
		<tag k="natural" v="cape" />
		<tag k="ssr:stedsnr" v="276803" />
	</node>
	<node id="-571296" lat="62.4190472249" lon="6.8888583345">
		<tag k="name" v="Vollvika" />
		<tag k="natural" v="bay" />
		<tag k="old_name" v="Volvika" />
		<tag k="ssr:stedsnr" v="435685" />
	</node>
	<node id="-571568" lat="62.4092277796" lon="6.94842499332">
		<tag k="name" v="Landflæene" />
		<tag k="natural" v="shoal" />
		<tag k="place" v="locality" />
		<tag k="ssr:stedsnr" v="762681" />
	</node>
	<node id="-571421" lat="62.3899916655" lon="6.89045555062">
		<tag k="name" v="Litleneset" />
		<tag k="natural" v="cape" />
		<tag k="ssr:stedsnr" v="579182" />
	</node>
	<node id="-571420" lat="62.4224555532" lon="6.9435861117">
		<tag k="name" v="Smivika" />
		<tag k="natural" v="bay" />
		<tag k="ssr:stedsnr" v="577325" />
	</node>
	<node id="-571419" lat="62.3982416626" lon="6.94920277685">
		<tag k="name" v="Stavnesbugen" />
		<tag k="natural" v="bay" />
		<tag k="ssr:stedsnr" v="577324" />
	</node>
	<node id="-571546" lat="62.4240805584" lon="6.94196111035">
		<tag k="name" v="Smineset" />
		<tag k="natural" v="cape" />
		<tag k="ssr:stedsnr" v="738678" />
	</node>
	<node id="-571668" lat="62.3805527802" lon="6.98369999639">
		<tag k="name" v="Gyljeneset" />
		<tag k="natural" v="cape" />
		<tag k="ssr:stedsnr" v="944628" />
	</node>
	<node id="-571539" lat="62.4134583356" lon="6.94665832759">
		<tag k="name" v="Saltarvika" />
		<tag k="natural" v="bay" />
		<tag k="ssr:stedsnr" v="702663" />
	</node>
	<node id="-571154" lat="62.3864666633" lon="6.95925277175">
		<tag k="name" v="Seljeneshola" />
		<tag k="natural" v="bay" />
		<tag k="ssr:stedsnr" v="95000" />
	</node>
	<node id="-571664" lat="62.4004888928" lon="6.9013916745">
		<tag k="name" v="Skotsneset" />
		<tag k="natural" v="cape" />
		<tag k="ssr:stedsnr" v="942323" />
	</node>
	<node id="-571663" lat="62.4307083337" lon="6.92674444577">
		<tag k="name" v="Ramskjerneset" />
		<tag k="natural" v="cape" />
		<tag k="ssr:stedsnr" v="942319" />
	</node>
	<node id="-571661" lat="62.3738277776" lon="6.93728888285">
		<tag k="name" v="Stordalsholmen" />
		<tag k="natural" v="cape" />
		<tag k="ssr:stedsnr" v="936970" />
	</node>
	<node id="-571145" lat="62.3945694433" lon="6.8951694353">
		<tag k="name" v="Krammaneset" />
		<tag k="natural" v="cape" />
		<tag k="ssr:stedsnr" v="92338" />
	</node>
	<node id="-571398" lat="62.421466664" lon="6.89021667548">
		<tag k="name" v="Vollvikneset" />
		<tag k="natural" v="cape" />
		<tag k="old_name" v="Volvikneset" />
		<tag k="ssr:stedsnr" v="556697" />
	</node>
	<node id="-571653" lat="62.4039277745" lon="6.90668610561">
		<tag k="name" v="Heggurbukta" />
		<tag k="natural" v="bay" />
		<tag k="ssr:stedsnr" v="921646" />
	</node>
</osm>
