<?xml version="1.0" encoding="UTF-8"?>
<osm generator="osmapis" version="0.6">
	<node id="-572416" lat="62.3379472231" lon="7.19378888049">
		<tag k="alt_name" v="Tverrelva, heimste" />
		<tag k="name" v="Heimste Tverrelva" />
		<tag k="ssr:stedsnr" v="740495" />
		<tag k="waterway" v="stream" />
	</node>
	<node id="-571903" lat="62.4116611077" lon="7.20588611273">
		<tag k="name" v="Heimste Tverrelva" />
		<tag k="ssr:stedsnr" v="885757" />
		<tag k="waterway" v="river" />
	</node>
	<node id="-572409" lat="62.3481277811" lon="6.99826667076">
		<tag k="name" v="Jolgrøvatna" />
		<tag k="natural" v="water" />
		<tag k="ssr:stedsnr" v="739541" />
	</node>
	<node id="-572404" lat="62.4234194408" lon="6.86739999209">
		<tag k="name" v="Plitten" />
		<tag k="ssr:stedsnr" v="738674" />
		<tag k="waterway" v="stream" />
	</node>
	<node id="-571885" lat="62.4365361135" lon="6.94554167517">
		<tag k="name" v="Geitaskarvatnet" />
		<tag k="natural" v="water" />
		<tag k="ssr:stedsnr" v="884276" />
		<tag k="water" v="lake" />
	</node>
	<node id="-571870" lat="62.432744447" lon="7.31143610498">
		<tag k="name" v="Brynebotselva" />
		<tag k="ssr:stedsnr" v="399694" />
		<tag k="waterway" v="river" />
	</node>
	<node id="-572380" lat="62.3731250042" lon="6.96704443818">
		<tag k="name" v="Stølegrova" />
		<tag k="ssr:stedsnr" v="701780" />
		<tag k="waterway" v="stream" />
	</node>
	<node id="-571983" lat="62.4443833344" lon="7.2265277727">
		<tag k="name" v="Jolbotselva" />
		<tag k="ssr:stedsnr" v="35844" />
		<tag k="waterway" v="river" />
	</node>
	<node id="-571864" lat="62.407647218" lon="6.95424166468">
		<tag k="name" v="Stavneselva" />
		<tag k="ssr:stedsnr" v="398683" />
		<tag k="waterway" v="stream" />
	</node>
	<node id="-572372" lat="62.3671000041" lon="7.02018055864">
		<tag k="name" v="Fjelladalsvatnet" />
		<tag k="natural" v="water" />
		<tag k="ssr:stedsnr" v="679507" />
	</node>
	<node id="-572369" lat="62.3382027752" lon="7.09393055255">
		<tag k="name" v="Ekreelva" />
		<tag k="ssr:stedsnr" v="679459" />
		<tag k="waterway" v="stream" />
	</node>
	<node id="-572367" lat="62.3698944452" lon="7.27973055741">
		<tag k="name" v="Rynggrova" />
		<tag k="ssr:stedsnr" v="678784" />
		<tag k="waterway" v="stream" />
	</node>
	<node id="-571849" lat="62.3602444409" lon="7.2176888963">
		<tag k="name" v="Geitabottsvatna" />
		<tag k="natural" v="water" />
		<tag k="ssr:stedsnr" v="375490" />
	</node>
	<node id="-572353" lat="62.4348472181" lon="7.31190278721">
		<tag k="name" v="Ådalselva" />
		<tag k="ssr:stedsnr" v="642648" />
		<tag k="waterway" v="river" />
	</node>
	<node id="-572347" lat="62.4073416634" lon="6.98733332902">
		<tag k="name" v="Storelineset" />
		<tag k="natural" v="cape" />
		<tag k="ssr:stedsnr" v="641531" />
	</node>
	<node id="-571822" lat="62.3974749977" lon="7.11833611087">
		<tag k="name" v="Tverelva" />
		<tag k="ssr:stedsnr" v="338057" />
		<tag k="waterway" v="river" />
	</node>
	<node id="-571814" lat="62.393411109" lon="7.01946111126">
		<tag k="name" v="Midtbustelva" />
		<tag k="ssr:stedsnr" v="337599" />
		<tag k="waterway" v="river" />
	</node>
	<node id="-572324" lat="62.3895749984" lon="7.17744999727">
		<tag k="name" v="Alnåna" />
		<tag k="ssr:stedsnr" v="617736" />
		<tag k="waterway" v="stream" />
	</node>
	<node id="-571806" lat="62.4190631232" lon="7.22855291708">
		<tag k="name" v="Kvitlane" />
		<tag k="natural" v="cape" />
		<tag k="ssr:stedsnr" v="314976" />
	</node>
	<node id="-571805" lat="62.4504111088" lon="7.30821111312">
		<tag k="fixme" v="multiple name tags, choose one and add the other to alt_name" />
		<tag k="name" v="Ådalsvatnet;Ytste Brynebottsvatnet" />
		<tag k="natural" v="water" />
		<tag k="ssr:stedsnr" v="314964" />
	</node>
	<node id="-571799" lat="62.4027583343" lon="6.97536110885">
		<tag k="name" v="Stavnesvatnet" />
		<tag k="natural" v="water" />
		<tag k="ssr:stedsnr" v="314653" />
	</node>
	<node id="-571797" lat="62.4031166693" lon="6.87457222057">
		<tag k="name" v="Vidhammarvatnet" />
		<tag k="natural" v="water" />
		<tag k="ssr:stedsnr" v="314645" />
	</node>
	<node id="-572305" lat="62.3801944417" lon="7.15991667268">
		<tag k="name" v="Nakkehavet" />
		<tag k="place" v="locality" />
		<tag k="ssr:stedsnr" v="581117" />
	</node>
	<node id="-572297" lat="62.4117527793" lon="7.00387499025">
		<tag k="name" v="Svagrova" />
		<tag k="ssr:stedsnr" v="580525" />
		<tag k="waterway" v="stream" />
	</node>
	<node id="-571778" lat="62.4182361144" lon="7.21484722923">
		<tag k="name" v="Fonna" />
		<tag k="ssr:stedsnr" v="277211" />
		<tag k="waterway" v="stream" />
	</node>
	<node id="-572286" lat="62.3818777738" lon="7.02889165783">
		<tag k="name" v="Rikjenda" />
		<tag k="ssr:stedsnr" v="579666" />
		<tag k="waterway" v="stream" />
	</node>
	<node id="-572283" lat="62.3844722221" lon="6.9960555562">
		<tag k="name" v="Litleelva" />
		<tag k="ssr:stedsnr" v="579656" />
		<tag k="waterway" v="stream" />
	</node>
	<node id="-571770" lat="62.3897277814" lon="7.00180832629">
		<tag k="name" v="Melsetgrova" />
		<tag k="ssr:stedsnr" v="276674" />
		<tag k="waterway" v="stream" />
	</node>
	<node id="-571769" lat="62.3462972179" lon="7.09749166495">
		<tag k="name" v="Grønligrova" />
		<tag k="ssr:stedsnr" v="273842" />
		<tag k="waterway" v="stream" />
	</node>
	<node id="-572272" lat="62.3592250035" lon="7.07195277151">
		<tag k="name" v="Fjellåna" />
		<tag k="old_name" v="Fjellåa" />
		<tag k="ssr:stedsnr" v="557597" />
		<tag k="waterway" v="stream" />
	</node>
	<node id="-572268" lat="62.4568222231" lon="7.19853889278">
		<tag k="name" v="Kleivavatnet" />
		<tag k="natural" v="water" />
		<tag k="ssr:stedsnr" v="557346" />
	</node>
	<node id="-572265" lat="62.3745527818" lon="7.22807223093">
		<tag k="name" v="Litlelva" />
		<tag k="ssr:stedsnr" v="556792" />
		<tag k="waterway" v="stream" />
	</node>
	<node id="-572246" lat="62.3974888928" lon="7.21367777065">
		<tag k="name" v="Hjellvad" />
		<tag k="natural" v="shoal" />
		<tag k="place" v="locality" />
		<tag k="ssr:stedsnr" v="520701" />
	</node>
	<node id="-572243" lat="62.3620833314" lon="7.08256665818">
		<tag k="name" v="Eineneset" />
		<tag k="natural" v="cape" />
		<tag k="ssr:stedsnr" v="520552" />
	</node>
	<node id="-572231" lat="62.401441671" lon="6.87338611643">
		<tag k="name" v="Vidhammarelva" />
		<tag k="ssr:stedsnr" v="519848" />
		<tag k="waterway" v="stream" />
	</node>
	<node id="-572222" lat="62.3787027757" lon="6.87671111419">
		<tag k="name" v="Bytegrova" />
		<tag k="ssr:stedsnr" v="519190" />
		<tag k="waterway" v="stream" />
	</node>
	<node id="-572211" lat="62.4239055561" lon="6.97526665892">
		<tag k="name" v="Dyrkornelva" />
		<tag k="ssr:stedsnr" v="496669" />
		<tag k="waterway" v="river" />
	</node>
	<node id="-572207" lat="62.4016416654" lon="6.83755277158">
		<tag k="name" v="Storebottsvatnet" />
		<tag k="natural" v="water" />
		<tag k="ssr:stedsnr" v="496644" />
	</node>
	<node id="-572204" lat="62.3702333345" lon="7.14395832875">
		<tag k="name" v="Telbergselva" />
		<tag k="ssr:stedsnr" v="496578" />
		<tag k="waterway" v="stream" />
	</node>
	<node id="-572203" lat="62.3536555554" lon="7.16192777908">
		<tag k="name" v="Telbergsvatnet" />
		<tag k="natural" v="water" />
		<tag k="ssr:stedsnr" v="496553" />
	</node>
	<node id="-572202" lat="62.3748361129" lon="7.01539721906">
		<tag k="name" v="Fjellåna" />
		<tag k="old_name" v="Fjellåa" />
		<tag k="ssr:stedsnr" v="495703" />
		<tag k="waterway" v="stream" />
	</node>
	<node id="-572201" lat="62.3816722259" lon="7.22710277416">
		<tag k="name" v="Seljebotselva" />
		<tag k="ssr:stedsnr" v="460866" />
		<tag k="waterway" v="river" />
	</node>
	<node id="-572194" lat="62.3714305584" lon="7.10709721635">
		<tag k="name" v="Fannegrova" />
		<tag k="ssr:stedsnr" v="460137" />
		<tag k="waterway" v="stream" />
	</node>
	<node id="-572177" lat="62.3947583376" lon="6.87794167061">
		<tag k="name" v="Lauggrova" />
		<tag k="ssr:stedsnr" v="458873" />
		<tag k="waterway" v="stream" />
	</node>
	<node id="-571949" lat="62.3885472239" lon="6.95796388524">
		<tag k="name" v="Åkoma" />
		<tag k="natural" v="spring" />
		<tag k="ssr:stedsnr" v="33992" />
	</node>
	<node id="-572172" lat="62.372102776" lon="6.86250278438">
		<tag k="name" v="Skjortnesvatnet" />
		<tag k="natural" v="water" />
		<tag k="ssr:stedsnr" v="458194" />
		<tag k="water" v="lake" />
	</node>
	<node id="-572169" lat="62.4372111119" lon="7.33484444454">
		<tag k="name" v="Litlevatnet" />
		<tag k="natural" v="water" />
		<tag k="ssr:stedsnr" v="436999" />
	</node>
	<node id="-572545" lat="62.3873472256" lon="7.20152777365">
		<tag k="name" v="Odden" />
		<tag k="natural" v="cape" />
		<tag k="ssr:stedsnr" v="945859" />
	</node>
	<node id="-572162" lat="62.4457083358" lon="7.14648889564">
		<tag k="name" v="Rollsvatnet" />
		<tag k="natural" v="water" />
		<tag k="ssr:stedsnr" v="436354" />
	</node>
	<node id="-572157" lat="62.4339861136" lon="6.99632777989">
		<tag k="name" v="Kroketevatnet" />
		<tag k="natural" v="water" />
		<tag k="ssr:stedsnr" v="435697" />
	</node>
	<node id="-572143" lat="62.3933749976" lon="7.12461111911">
		<tag k="name" v="Stavåna" />
		<tag k="ssr:stedsnr" v="253728" />
		<tag k="waterway" v="river" />
	</node>
	<node id="-572140" lat="62.4230416638" lon="7.14690555025">
		<tag k="name" v="Fossane" />
		<tag k="natural" v="waterfall" />
		<tag k="ssr:stedsnr" v="253669" />
	</node>
	<node id="-572139" lat="62.4069416643" lon="6.85751667288">
		<tag k="name" v="Skotsvatna" />
		<tag k="natural" v="water" />
		<tag k="ssr:stedsnr" v="253661" />
	</node>
	<node id="-572135" lat="62.4296611125" lon="7.30477221321">
		<tag k="name" v="Litlevasselva" />
		<tag k="ssr:stedsnr" v="217688" />
		<tag k="waterway" v="river" />
	</node>
	<node id="-572131" lat="62.419183335" lon="7.26988610371">
		<tag k="name" v="Storådalselva" />
		<tag k="ssr:stedsnr" v="217630" />
		<tag k="waterway" v="river" />
	</node>
	<node id="-572128" lat="62.3397527777" lon="7.14364722664">
		<tag k="name" v="Røelva" />
		<tag k="ssr:stedsnr" v="217502" />
		<tag k="waterway" v="river" />
	</node>
	<node id="-572126" lat="62.4406999976" lon="7.19683333839">
		<tag k="name" v="Heimste Tverrelva" />
		<tag k="ssr:stedsnr" v="217172" />
		<tag k="waterway" v="river" />
	</node>
	<node id="-572112" lat="62.3719166626" lon="6.88172221841">
		<tag k="name" v="Skjortneselva" />
		<tag k="ssr:stedsnr" v="216137" />
		<tag k="waterway" v="stream" />
	</node>
	<node id="-572108" lat="62.3518861139" lon="7.24822777678">
		<tag k="name" v="Uriskarbottsvatnet" />
		<tag k="natural" v="water" />
		<tag k="ssr:stedsnr" v="193800" />
	</node>
	<node id="-572098" lat="62.3791861117" lon="7.1903972219">
		<tag k="name" v="Storgrova" />
		<tag k="ssr:stedsnr" v="193629" />
		<tag k="waterway" v="stream" />
	</node>
	<node id="-572096" lat="62.4336444457" lon="7.15293333708">
		<tag k="name" v="Medvatnet" />
		<tag k="natural" v="water" />
		<tag k="old_name" v="Mevatnet" />
		<tag k="ssr:stedsnr" v="192720" />
	</node>
	<node id="-572095" lat="62.4249861094" lon="7.15199445196">
		<tag k="name" v="Litlevatnet" />
		<tag k="natural" v="water" />
		<tag k="ssr:stedsnr" v="192700" />
	</node>
	<node id="-572091" lat="62.3753444489" lon="7.24315555071">
		<tag k="name" v="Storkvitla" />
		<tag k="natural" v="cape" />
		<tag k="ssr:stedsnr" v="157845" />
	</node>
	<node id="-572090" lat="62.4362666648" lon="7.32736389821">
		<tag k="name" v="Litlevatnet" />
		<tag k="natural" v="water" />
		<tag k="ssr:stedsnr" v="157660" />
		<tag k="water" v="lake" />
	</node>
	<node id="-572361" lat="62.4232472241" lon="6.97836111751">
		<tag k="name" v="Tverrelva" />
		<tag k="ssr:stedsnr" v="678651" />
		<tag k="waterway" v="river" />
	</node>
	<node id="-572079" lat="62.4291027787" lon="6.94001944546">
		<tag k="name" v="Liagrova" />
		<tag k="ssr:stedsnr" v="156399" />
		<tag k="waterway" v="stream" />
	</node>
	<node id="-572066" lat="62.3978472239" lon="6.95460555234">
		<tag k="name" v="Stabbegrova" />
		<tag k="ssr:stedsnr" v="155678" />
		<tag k="waterway" v="stream" />
	</node>
	<node id="-572043" lat="62.3722972256" lon="7.10878888474">
		<tag k="name" v="Stordalselva" />
		<tag k="ssr:stedsnr" v="131713" />
		<tag k="waterway" v="river" />
	</node>
	<node id="-572040" lat="62.4316222225" lon="7.21608054846">
		<tag k="name" v="Kleivabottselva" />
		<tag k="ssr:stedsnr" v="131691" />
		<tag k="waterway" v="stream" />
	</node>
	<node id="-572034" lat="62.4074777761" lon="7.22045276901">
		<tag k="name" v="Kvitlane" />
		<tag k="natural" v="cape" />
		<tag k="ssr:stedsnr" v="96842" />
	</node>
	<node id="-572033" lat="62.3664861137" lon="7.26289166133">
		<tag k="name" v="Uriskarelva" />
		<tag k="ssr:stedsnr" v="96827" />
		<tag k="waterway" v="river" />
	</node>
	<node id="-572032" lat="62.378397225" lon="7.2270555647">
		<tag k="name" v="Geitabotselva" />
		<tag k="ssr:stedsnr" v="96822" />
		<tag k="waterway" v="river" />
	</node>
	<node id="-572031" lat="62.4170111079" lon="7.25342500583">
		<tag k="name" v="Litleådalselva" />
		<tag k="ssr:stedsnr" v="96639" />
		<tag k="waterway" v="river" />
	</node>
	<node id="-572540" lat="62.34184167" lon="7.11108056168">
		<tag k="name" v="Storgrova" />
		<tag k="ssr:stedsnr" v="945543" />
		<tag k="waterway" v="stream" />
	</node>
	<node id="-572025" lat="62.4045305535" lon="7.00233332761">
		<tag k="name" v="Botnagrova" />
		<tag k="ssr:stedsnr" v="95500" />
		<tag k="waterway" v="stream" />
	</node>
	<node id="-572018" lat="62.4451472224" lon="7.19527777282">
		<tag k="name" v="Fremste Tverrelva" />
		<tag k="ssr:stedsnr" v="95148" />
		<tag k="waterway" v="river" />
	</node>
	<node id="-572525" lat="62.3867805575" lon="6.87184722874">
		<tag k="name" v="Korsadalselva" />
		<tag k="ssr:stedsnr" v="944185" />
		<tag k="waterway" v="river" />
	</node>
	<node id="-572002" lat="62.426494442" lon="7.30007222041">
		<tag k="name" v="Elvabytet" />
		<tag k="place" v="locality" />
		<tag k="ssr:stedsnr" v="72994" />
	</node>
	<node id="-572509" lat="62.3587472207" lon="6.97504443606">
		<tag k="name" v="Djupdalselva" />
		<tag k="ssr:stedsnr" v="921575" />
		<tag k="waterway" v="stream" />
	</node>
	<node id="-571995" lat="62.4204833317" lon="7.22186110558">
		<tag k="name" v="Storelva" />
		<tag k="ssr:stedsnr" v="72621" />
		<tag k="waterway" v="river" />
	</node>
	<node id="-571994" lat="62.3442722183" lon="7.09334722936">
		<tag k="name" v="Røelva" />
		<tag k="ssr:stedsnr" v="72535" />
		<tag k="waterway" v="river" />
	</node>
	<node id="-572505" lat="62.3997972205" lon="7.28511943614">
		<tag k="name" v="Ådalsvatnet" />
		<tag k="natural" v="water" />
		<tag k="ssr:stedsnr" v="921923" />
		<tag k="water" v="lake" />
	</node>
	<node id="-572503" lat="62.4118916686" lon="7.18985832504">
		<tag k="name" v="Øravatnet" />
		<tag k="natural" v="water" />
		<tag k="ssr:stedsnr" v="902547" />
	</node>
	<node id="-571987" lat="62.4146916685" lon="7.0329722186">
		<tag k="name" v="Svartevatnet" />
		<tag k="natural" v="water" />
		<tag k="ssr:stedsnr" v="71680" />
		<tag k="water" v="lake" />
	</node>
	<node id="-572498" lat="62.3518111137" lon="6.97348333128">
		<tag k="name" v="Fløtåna" />
		<tag k="old_name" v="Fløtåa" />
		<tag k="ssr:stedsnr" v="861535" />
		<tag k="waterway" v="stream" />
	</node>
	<node id="-571984" lat="62.4100083301" lon="7.22043333756">
		<tag k="name" v="Langkvitla" />
		<tag k="natural" v="cape" />
		<tag k="ssr:stedsnr" v="35867" />
	</node>
	<node id="-572495" lat="62.3452638869" lon="6.98273332889">
		<tag k="name" v="Buskarvatnet" />
		<tag k="natural" v="water" />
		<tag k="ssr:stedsnr" v="861514" />
	</node>
	<node id="-572493" lat="62.3829805511" lon="7.24979722273">
		<tag k="name" v="Tverrelva" />
		<tag k="ssr:stedsnr" v="860973" />
		<tag k="waterway" v="stream" />
	</node>
	<node id="-571980" lat="62.4183527783" lon="7.3104444393">
		<tag k="name" v="Storvasselva" />
		<tag k="ssr:stedsnr" v="35724" />
		<tag k="waterway" v="river" />
	</node>
	<node id="-571979" lat="62.4303194464" lon="7.24130277976">
		<tag k="name" v="Dyrdalselva" />
		<tag k="ssr:stedsnr" v="35666" />
		<tag k="waterway" v="river" />
	</node>
	<node id="-571973" lat="62.3758861096" lon="7.04885277854">
		<tag k="name" v="Holtfonna" />
		<tag k="ssr:stedsnr" v="35051" />
		<tag k="waterway" v="stream" />
	</node>
	<node id="-572483" lat="62.4204777764" lon="7.2061861066">
		<tag k="alt_name" v="Fremste Tverrelva" />
		<tag k="name" v="Fremstegrova" />
		<tag k="ssr:stedsnr" v="860682" />
		<tag k="waterway" v="stream" />
	</node>
	<node id="-572466" lat="62.4234611101" lon="6.87986944535">
		<tag k="name" v="Ytstevollvikgrova" />
		<tag k="ssr:stedsnr" v="823808" />
		<tag k="waterway" v="stream" />
	</node>
	<node id="-572464" lat="62.4297805571" lon="6.96853610426">
		<tag k="loc_name" v="Øggardsgrova" />
		<tag k="name" v="Øygardsgrova" />
		<tag k="ssr:stedsnr" v="823382" />
		<tag k="waterway" v="stream" />
	</node>
	<node id="-572461" lat="62.3997472192" lon="7.22853889392">
		<tag k="name" v="Storgrova" />
		<tag k="ssr:stedsnr" v="822478" />
		<tag k="waterway" v="stream" />
	</node>
	<node id="-572458" lat="62.398788888" lon="7.22657500247">
		<tag k="name" v="Storgrova" />
		<tag k="ssr:stedsnr" v="800717" />
		<tag k="waterway" v="stream" />
	</node>
	<node id="-572455" lat="62.3928694416" lon="7.05056111998">
		<tag k="name" v="Rikjenda" />
		<tag k="ssr:stedsnr" v="800698" />
		<tag k="waterway" v="stream" />
	</node>
	<node id="-571942" lat="62.4571083375" lon="7.27016110419">
		<tag k="name" v="Dyrdalsvatnet" />
		<tag k="natural" v="water" />
		<tag k="ssr:stedsnr" v="11988" />
		<tag k="water" v="lake" />
	</node>
	<node id="-572453" lat="62.4143833339" lon="6.98491943981">
		<tag k="name" v="Dyrkornvatnet" />
		<tag k="natural" v="water" />
		<tag k="ssr:stedsnr" v="800636" />
		<tag k="water" v="lake" />
	</node>
	<node id="-572444" lat="62.4410111144" lon="7.13294445267">
		<tag k="name" v="Svartevatnet" />
		<tag k="natural" v="water" />
		<tag k="ssr:stedsnr" v="799708" />
		<tag k="water" v="lake" />
	</node>
	<node id="-571929" lat="62.3785638911" lon="7.21373889072">
		<tag k="name" v="Svarthammargrova" />
		<tag k="ssr:stedsnr" v="10717" />
		<tag k="waterway" v="stream" />
	</node>
	<node id="-572439" lat="62.4241500032" lon="7.28424167301">
		<tag k="name" v="Innfjordelva" />
		<tag k="ssr:stedsnr" v="763652" />
		<tag k="waterway" v="river" />
	</node>
	<node id="-571924" lat="62.4219442922" lon="7.22429054143">
		<tag k="name" v="Øyna" />
		<tag k="place" v="island" />
		<tag k="ssr:stedsnr" v="988873" />
	</node>
	<node id="-572430" lat="62.4128611102" lon="6.88785833346">
		<tag k="name" v="Skotselva" />
		<tag k="ssr:stedsnr" v="762836" />
		<tag k="waterway" v="stream" />
	</node>
	<node id="-572417" lat="62.3358666704" lon="7.20302777153">
		<tag k="alt_name" v="Tverrelva, fremste" />
		<tag k="name" v="Fremste Tverrelva" />
		<tag k="ssr:stedsnr" v="740500" />
		<tag k="waterway" v="stream" />
	</node>
</osm>
