<?xml version="1.0" encoding="UTF-8"?>
<osm generator="osmapis" version="0.6">
	<node id="-572546" lat="62.39029167" lon="7.19744999327">
		<tag k="name" v="Smalebakken" />
		<tag k="natural" v="slope" />
		<tag k="place" v="locality" />
		<tag k="ssr:stedsnr" v="945861" />
	</node>
	<node id="-572544" lat="62.3915055542" lon="7.20151666438">
		<tag k="name" v="Hjelbakkane" />
		<tag k="natural" v="slope" />
		<tag k="place" v="locality" />
		<tag k="ssr:stedsnr" v="945701" />
	</node>
	<node id="-572543" lat="62.4028750031" lon="6.94996110505">
		<tag k="name" v="Stavneshera" />
		<tag k="place" v="locality" />
		<tag k="ssr:stedsnr" v="945674" />
	</node>
	<node id="-572541" lat="62.4036166627" lon="7.21149722568">
		<tag k="name" v="Haugane" />
		<tag k="natural" v="hill" />
		<tag k="place" v="locality" />
		<tag k="ssr:stedsnr" v="945579" />
	</node>
	<node id="-572539" lat="62.4010111147" lon="7.01044167555">
		<tag k="name" v="Midtbustegga" />
		<tag k="natural" v="ridge" />
		<tag k="place" v="locality" />
		<tag k="ssr:stedsnr" v="945535" />
	</node>
	<node id="-572538" lat="62.4074555552" lon="6.98105000834">
		<tag k="name" v="Høgskreda" />
		<tag k="natural" v="slope" />
		<tag k="place" v="locality" />
		<tag k="ssr:stedsnr" v="945519" />
	</node>
	<node id="-572536" lat="62.3388749964" lon="7.11665277103">
		<tag k="name" v="Nymarkhaugen" />
		<tag k="natural" v="hill" />
		<tag k="place" v="locality" />
		<tag k="ssr:stedsnr" v="945412" />
	</node>
	<node id="-572535" lat="62.4281722264" lon="7.00911945181">
		<tag k="name" v="Krokane" />
		<tag k="natural" v="valley" />
		<tag k="place" v="locality" />
		<tag k="ssr:stedsnr" v="945399" />
	</node>
	<node id="-572534" lat="62.4308416683" lon="6.93203611548">
		<tag k="name" v="Dyrkornstranda" />
		<tag k="place" v="locality" />
		<tag k="ssr:stedsnr" v="945365" />
	</node>
	<node id="-572533" lat="62.429030559" lon="7.21263055581">
		<tag k="name" v="Røbberskredene" />
		<tag k="natural" v="slope" />
		<tag k="place" v="locality" />
		<tag k="ssr:stedsnr" v="945240" />
	</node>
	<node id="-572530" lat="62.3794388908" lon="7.1662055526">
		<tag k="name" v="Nakkelia" />
		<tag k="natural" v="slope" />
		<tag k="place" v="locality" />
		<tag k="ssr:stedsnr" v="945084" />
	</node>
	<node id="-572529" lat="62.3706916687" lon="7.1168277776">
		<tag k="name" v="Fanne" />
		<tag k="natural" v="slope" />
		<tag k="place" v="locality" />
		<tag k="ssr:stedsnr" v="945062" />
	</node>
	<node id="-572528" lat="62.3858999978" lon="6.97454722998">
		<tag k="name" v="Nystihjellen" />
		<tag k="place" v="locality" />
		<tag k="ssr:stedsnr" v="944984" />
	</node>
	<node id="-572526" lat="62.3780194456" lon="6.87385000319">
		<tag k="name" v="Gnaggane" />
		<tag k="natural" v="hill" />
		<tag k="place" v="locality" />
		<tag k="ssr:stedsnr" v="944188" />
	</node>
	<node id="-572524" lat="62.3922222188" lon="6.88324723007">
		<tag k="name" v="Gamleseterdalen" />
		<tag k="natural" v="valley" />
		<tag k="place" v="locality" />
		<tag k="ssr:stedsnr" v="944178" />
	</node>
	<node id="-572521" lat="62.3381083347" lon="7.08375554831">
		<tag k="name" v="Kolda" />
		<tag k="natural" v="slope" />
		<tag k="place" v="locality" />
		<tag k="ssr:stedsnr" v="940832" />
	</node>
	<node id="-572518" lat="62.3640083355" lon="7.2221222308">
		<tag k="name" v="Geitabotnen" />
		<tag k="natural" v="valley" />
		<tag k="place" v="locality" />
		<tag k="ssr:stedsnr" v="921798" />
	</node>
	<node id="-572516" lat="62.3944944457" lon="7.08154721881">
		<tag k="fixme" v="consider natural=peak for the most distinct mountains in the district" />
		<tag k="name" v="Storheimshornet" />
		<tag k="natural" v="hill" />
		<tag k="place" v="locality" />
		<tag k="ssr:stedsnr" v="921734" />
	</node>
	<node id="-572514" lat="62.4136777761" lon="6.85647499247">
		<tag k="name" v="Skotsbotnen" />
		<tag k="natural" v="valley" />
		<tag k="old_name" v="Skotsbotn" />
		<tag k="place" v="locality" />
		<tag k="ssr:stedsnr" v="921672" />
	</node>
	<node id="-572510" lat="62.3613138856" lon="6.99918610189">
		<tag k="name" v="Koppedalen" />
		<tag k="natural" v="valley" />
		<tag k="old_name" v="Koppdalen" />
		<tag k="place" v="locality" />
		<tag k="ssr:stedsnr" v="921577" />
	</node>
	<node id="-572507" lat="62.3761722216" lon="7.15632500664">
		<tag k="name" v="Nørddalen" />
		<tag k="natural" v="valley" />
		<tag k="place" v="locality" />
		<tag k="ssr:stedsnr" v="920709" />
	</node>
	<node id="-572506" lat="62.40875" lon="7.24126666502">
		<tag k="fixme" v="consider natural=peak for the most distinct mountains in the district" />
		<tag k="name" v="Herda" />
		<tag k="natural" v="hill" />
		<tag k="place" v="locality" />
		<tag k="ssr:stedsnr" v="921938" />
	</node>
	<node id="-572504" lat="62.4639250003" lon="7.30098889207">
		<tag k="fixme" v="consider natural=peak for the most distinct mountains in the district" />
		<tag k="name" v="Trollvasstinden" />
		<tag k="natural" v="hill" />
		<tag k="place" v="locality" />
		<tag k="ssr:stedsnr" v="921882" />
	</node>
	<node id="-572502" lat="62.3458250003" lon="7.08013889626">
		<tag k="name" v="Øyeberget" />
		<tag k="natural" v="slope" />
		<tag k="place" v="locality" />
		<tag k="ssr:stedsnr" v="880826" />
	</node>
	<node id="-572499" lat="62.4470527801" lon="7.19226666426">
		<tag k="name" v="Kleivabotnen" />
		<tag k="natural" v="valley" />
		<tag k="old_name" v="Kleivabotn" />
		<tag k="place" v="locality" />
		<tag k="ssr:stedsnr" v="861649" />
	</node>
	<node id="-572497" lat="62.3604083342" lon="7.04027776807">
		<tag k="fixme" v="multiple name tags, choose one and add the other to alt_name; consider natural=peak for the most distinct mountains in the district" />
		<tag k="name" v="Mehornet;Vadbottshornet" />
		<tag k="natural" v="hill" />
		<tag k="place" v="locality" />
		<tag k="ssr:stedsnr" v="861522" />
	</node>
	<node id="-572494" lat="62.4509027742" lon="7.15035555825">
		<tag k="name" v="Rollsbotnen" />
		<tag k="natural" v="valley" />
		<tag k="old_name" v="Rollsbotn" />
		<tag k="place" v="locality" />
		<tag k="ssr:stedsnr" v="861340" />
	</node>
	<node id="-572492" lat="62.3981666626" lon="6.82624721323">
		<tag k="fixme" v="consider natural=peak for the most distinct mountains in the district" />
		<tag k="name" v="Sjurlihornet" />
		<tag k="natural" v="hill" />
		<tag k="place" v="locality" />
		<tag k="ssr:stedsnr" v="860773" />
	</node>
	<node id="-572490" lat="62.3986611156" lon="7.00460000903">
		<tag k="fixme" v="consider natural=peak for the most distinct mountains in the district" />
		<tag k="name" v="Omnane" />
		<tag k="natural" v="hill" />
		<tag k="old_name" v="Omnen" />
		<tag k="place" v="locality" />
		<tag k="ssr:stedsnr" v="860770" />
	</node>
	<node id="-572489" lat="62.4028583354" lon="7.01584722575">
		<tag k="name" v="Midtbustlia" />
		<tag k="natural" v="slope" />
		<tag k="place" v="locality" />
		<tag k="ssr:stedsnr" v="860769" />
	</node>
	<node id="-572488" lat="62.3825694468" lon="7.07826943758">
		<tag k="name" v="Molia" />
		<tag k="natural" v="slope" />
		<tag k="place" v="locality" />
		<tag k="ssr:stedsnr" v="860737" />
	</node>
	<node id="-572486" lat="62.3699333292" lon="6.99843611403">
		<tag k="name" v="Tuva" />
		<tag k="natural" v="hill" />
		<tag k="old_name" v="Tua" />
		<tag k="place" v="locality" />
		<tag k="ssr:stedsnr" v="860730" />
	</node>
	<node id="-572484" lat="62.3692833356" lon="7.01077777383">
		<tag k="name" v="Fjelladalen" />
		<tag k="natural" v="valley" />
		<tag k="place" v="locality" />
		<tag k="ssr:stedsnr" v="860725" />
	</node>
	<node id="-572482" lat="62.3991305564" lon="7.22994721563">
		<tag k="name" v="Svora" />
		<tag k="place" v="locality" />
		<tag k="ssr:stedsnr" v="824863" />
	</node>
	<node id="-572481" lat="62.4472027776" lon="7.22792778156">
		<tag k="name" v="Jolbotsreset" />
		<tag k="natural" v="slope" />
		<tag k="place" v="locality" />
		<tag k="ssr:stedsnr" v="824851" />
	</node>
	<node id="-572479" lat="62.3624361073" lon="7.25589445301">
		<tag k="name" v="Uriskargylet" />
		<tag k="natural" v="gorge" />
		<tag k="ssr:stedsnr" v="824845" />
	</node>
	<node id="-572477" lat="62.4180972234" lon="7.21096943967">
		<tag k="name" v="Furuhauen" />
		<tag k="natural" v="hill" />
		<tag k="place" v="locality" />
		<tag k="ssr:stedsnr" v="824288" />
	</node>
	<node id="-572476" lat="62.3786972269" lon="7.10982500912">
		<tag k="name" v="Gjerdet" />
		<tag k="natural" v="slope" />
		<tag k="place" v="locality" />
		<tag k="ssr:stedsnr" v="824162" />
	</node>
	<node id="-572473" lat="62.3798083312" lon="7.15992222484">
		<tag k="name" v="Gamlebøen" />
		<tag k="natural" v="slope" />
		<tag k="place" v="locality" />
		<tag k="ssr:stedsnr" v="824127" />
	</node>
	<node id="-572471" lat="62.3917527793" lon="7.12391389846">
		<tag k="name" v="Storhaugen" />
		<tag k="natural" v="hill" />
		<tag k="place" v="locality" />
		<tag k="ssr:stedsnr" v="824082" />
	</node>
	<node id="-572469" lat="62.3743250039" lon="7.04766110199">
		<tag k="name" v="Kjerringstølen" />
		<tag k="natural" v="ridge" />
		<tag k="place" v="locality" />
		<tag k="ssr:stedsnr" v="824057" />
	</node>
	<node id="-572465" lat="62.3941805551" lon="6.87231944616">
		<tag k="fixme" v="consider natural=peak for the most distinct mountains in the district" />
		<tag k="name" v="Laugedalsegga" />
		<tag k="natural" v="hill" />
		<tag k="place" v="locality" />
		<tag k="ssr:stedsnr" v="823803" />
	</node>
	<node id="-572463" lat="62.4199472258" lon="6.95209445051">
		<tag k="name" v="Nova" />
		<tag k="place" v="locality" />
		<tag k="ssr:stedsnr" v="823365" />
	</node>
	<node id="-572452" lat="62.3617694401" lon="7.19875277849">
		<tag k="fixme" v="consider natural=peak for the most distinct mountains in the district" />
		<tag k="name" v="Kvitegga" />
		<tag k="natural" v="hill" />
		<tag k="place" v="locality" />
		<tag k="ssr:stedsnr" v="800554" />
	</node>
	<node id="-572451" lat="62.3596555524" lon="7.11910278609">
		<tag k="name" v="Løsettuva" />
		<tag k="natural" v="hill" />
		<tag k="old_name" v="Møsetua" />
		<tag k="place" v="locality" />
		<tag k="ssr:stedsnr" v="800555" />
	</node>
	<node id="-572448" lat="62.3546583376" lon="7.090077769">
		<tag k="name" v="Bjørnalauga" />
		<tag k="natural" v="hill" />
		<tag k="place" v="locality" />
		<tag k="ssr:stedsnr" v="800527" />
	</node>
	<node id="-572447" lat="62.3604583289" lon="7.15499999454">
		<tag k="name" v="Telbergsbotn" />
		<tag k="natural" v="valley" />
		<tag k="place" v="locality" />
		<tag k="ssr:stedsnr" v="800523" />
	</node>
	<node id="-572446" lat="62.4147944489" lon="7.27438610875">
		<tag k="name" v="Storådalen" />
		<tag k="natural" v="valley" />
		<tag k="place" v="locality" />
		<tag k="ssr:stedsnr" v="799958" />
	</node>
	<node id="-572445" lat="62.3849861119" lon="7.10000832941">
		<tag k="name" v="Moheia" />
		<tag k="natural" v="hill" />
		<tag k="place" v="locality" />
		<tag k="ssr:stedsnr" v="799741" />
	</node>
	<node id="-572443" lat="62.4138138909" lon="7.06056389524">
		<tag k="alt_name" v="Skorkja, heimste" />
		<tag k="fixme" v="multiple name tags, choose one and add the other to alt_name; consider natural=peak for the most distinct mountains in the district" />
		<tag k="name" v="Heimste Skorka;Sandfjellet" />
		<tag k="natural" v="hill" />
		<tag k="old_name" v="Høgnykjen" />
		<tag k="place" v="locality" />
		<tag k="ssr:stedsnr" v="799672" />
	</node>
	<node id="-572442" lat="62.4119027745" lon="7.02121111516">
		<tag k="name" v="Midtmorgonshornet" />
		<tag k="natural" v="hill" />
		<tag k="place" v="locality" />
		<tag k="ssr:stedsnr" v="799667" />
	</node>
	<node id="-572438" lat="62.3351027739" lon="7.10273888541">
		<tag k="name" v="Ekrelia" />
		<tag k="natural" v="slope" />
		<tag k="place" v="locality" />
		<tag k="ssr:stedsnr" v="763618" />
	</node>
	<node id="-572437" lat="62.3650083355" lon="7.07785555731">
		<tag k="name" v="Vadgjerda" />
		<tag k="natural" v="slope" />
		<tag k="place" v="locality" />
		<tag k="ssr:stedsnr" v="763578" />
	</node>
	<node id="-572436" lat="62.4403194414" lon="7.19296387994">
		<tag k="name" v="Midtbusthjellane" />
		<tag k="place" v="locality" />
		<tag k="ssr:stedsnr" v="763205" />
	</node>
	<node id="-572435" lat="62.3794500009" lon="7.12852221326">
		<tag k="name" v="Sauesteinbakkane" />
		<tag k="natural" v="slope" />
		<tag k="place" v="locality" />
		<tag k="ssr:stedsnr" v="763153" />
	</node>
	<node id="-572433" lat="62.3790555547" lon="7.12036944904">
		<tag k="name" v="Gamlegarden" />
		<tag k="natural" v="slope" />
		<tag k="place" v="locality" />
		<tag k="ssr:stedsnr" v="763151" />
	</node>
	<node id="-572431" lat="62.3837277765" lon="7.16004722768">
		<tag k="name" v="Brøtebakkane" />
		<tag k="natural" v="slope" />
		<tag k="place" v="locality" />
		<tag k="ssr:stedsnr" v="763109" />
	</node>
	<node id="-572429" lat="62.3744277737" lon="6.97638055151">
		<tag k="name" v="Fagregylet" />
		<tag k="natural" v="gorge" />
		<tag k="ssr:stedsnr" v="762747" />
	</node>
	<node id="-572425" lat="62.3865055584" lon="6.98585556321">
		<tag k="name" v="Legene" />
		<tag k="natural" v="slope" />
		<tag k="place" v="locality" />
		<tag k="ssr:stedsnr" v="762550" />
	</node>
	<node id="-572424" lat="62.4298805572" lon="6.94188055618">
		<tag k="name" v="Fjellgylet" />
		<tag k="natural" v="gorge" />
		<tag k="ssr:stedsnr" v="762384" />
	</node>
	<node id="-572423" lat="62.4198055581" lon="6.95590277551">
		<tag k="name" v="Rognebakkane" />
		<tag k="natural" v="slope" />
		<tag k="old_name" v="Olabakkane" />
		<tag k="place" v="locality" />
		<tag k="ssr:stedsnr" v="762368" />
	</node>
	<node id="-572422" lat="62.3925972238" lon="6.96701666234">
		<tag k="name" v="Høgflåa" />
		<tag k="place" v="locality" />
		<tag k="ssr:stedsnr" v="762118" />
	</node>
	<node id="-572419" lat="62.3462972179" lon="7.09749166495">
		<tag k="name" v="Grønlia" />
		<tag k="natural" v="slope" />
		<tag k="place" v="locality" />
		<tag k="ssr:stedsnr" v="758831" />
	</node>
	<node id="-572415" lat="62.3454527739" lon="7.23077222604">
		<tag k="name" v="Uriskaret" />
		<tag k="natural" v="valley" />
		<tag k="place" v="locality" />
		<tag k="ssr:stedsnr" v="739811" />
	</node>
	<node id="-572411" lat="62.4065888903" lon="6.8955805602">
		<tag k="name" v="Nyken" />
		<tag k="natural" v="hill" />
		<tag k="place" v="locality" />
		<tag k="ssr:stedsnr" v="739632" />
	</node>
	<node id="-572408" lat="62.3536111096" lon="7.13696667536">
		<tag k="name" v="Hestekjeften" />
		<tag k="natural" v="valley" />
		<tag k="place" v="locality" />
		<tag k="ssr:stedsnr" v="739537" />
	</node>
	<node id="-572407" lat="62.3875916639" lon="7.20498055291">
		<tag k="alt_name" v="Seljebotn" />
		<tag k="name" v="Seljebotnen" />
		<tag k="natural" v="valley" />
		<tag k="place" v="locality" />
		<tag k="ssr:stedsnr" v="738717" />
	</node>
	<node id="-572403" lat="62.4271944427" lon="6.98984721721">
		<tag k="name" v="Trollhaugen" />
		<tag k="natural" v="hill" />
		<tag k="place" v="locality" />
		<tag k="ssr:stedsnr" v="738667" />
	</node>
	<node id="-572399" lat="62.4224194419" lon="7.24755000811">
		<tag k="name" v="Fokhaugen" />
		<tag k="natural" v="hill" />
		<tag k="place" v="locality" />
		<tag k="ssr:stedsnr" v="703660" />
	</node>
	<node id="-572397" lat="62.3635055548" lon="7.09406943917">
		<tag k="name" v="Støvfjellet" />
		<tag k="place" v="locality" />
		<tag k="ssr:stedsnr" v="702549" />
	</node>
	<node id="-572396" lat="62.3553777752" lon="7.1000277824">
		<tag k="name" v="Løsetsvoda" />
		<tag k="place" v="locality" />
		<tag k="ssr:stedsnr" v="702546" />
	</node>
	<node id="-572395" lat="62.3648527795" lon="7.12824999802">
		<tag k="name" v="Svødene" />
		<tag k="natural" v="slope" />
		<tag k="place" v="locality" />
		<tag k="ssr:stedsnr" v="702532" />
	</node>
	<node id="-572394" lat="62.3381055543" lon="7.13492221377">
		<tag k="name" v="Storrysta" />
		<tag k="natural" v="slope" />
		<tag k="place" v="locality" />
		<tag k="ssr:stedsnr" v="702481" />
	</node>
	<node id="-572393" lat="62.4347055572" lon="6.98800833587">
		<tag k="name" v="Kroketevasslia" />
		<tag k="natural" v="slope" />
		<tag k="place" v="locality" />
		<tag k="ssr:stedsnr" v="702428" />
	</node>
	<node id="-572392" lat="62.4337055571" lon="6.96940834226">
		<tag k="loc_name" v="Øggardsnakken" />
		<tag k="name" v="Øygardsnakken" />
		<tag k="natural" v="ridge" />
		<tag k="place" v="locality" />
		<tag k="ssr:stedsnr" v="702356" />
	</node>
	<node id="-572391" lat="62.4334916688" lon="6.95011944724">
		<tag k="name" v="Skaret" />
		<tag k="natural" v="valley" />
		<tag k="place" v="locality" />
		<tag k="ssr:stedsnr" v="702354" />
	</node>
	<node id="-572390" lat="62.4354166712" lon="7.01415000669">
		<tag k="name" v="Moshaugen" />
		<tag k="natural" v="hill" />
		<tag k="place" v="locality" />
		<tag k="ssr:stedsnr" v="702298" />
	</node>
	<node id="-572389" lat="62.4442777806" lon="7.20485277485">
		<tag k="name" v="Storlia" />
		<tag k="natural" v="slope" />
		<tag k="place" v="locality" />
		<tag k="ssr:stedsnr" v="702177" />
	</node>
	<node id="-572388" lat="62.3773472233" lon="7.11733333829">
		<tag k="name" v="Hoggja" />
		<tag k="natural" v="slope" />
		<tag k="place" v="locality" />
		<tag k="ssr:stedsnr" v="702147" />
	</node>
	<node id="-572387" lat="62.376222221" lon="7.10942776857">
		<tag k="name" v="Jasvollrystene" />
		<tag k="natural" v="slope" />
		<tag k="place" v="locality" />
		<tag k="ssr:stedsnr" v="702146" />
	</node>
	<node id="-572386" lat="62.3832833298" lon="7.15049999313">
		<tag k="name" v="Liagjerdet" />
		<tag k="natural" v="slope" />
		<tag k="place" v="locality" />
		<tag k="ssr:stedsnr" v="702128" />
	</node>
	<node id="-572384" lat="62.3733527771" lon="7.11744444252">
		<tag k="name" v="Kvamen" />
		<tag k="place" v="locality" />
		<tag k="ssr:stedsnr" v="702114" />
	</node>
	<node id="-572383" lat="62.3827250007" lon="7.14719444894">
		<tag k="name" v="Kjerringslættet" />
		<tag k="place" v="locality" />
		<tag k="ssr:stedsnr" v="702098" />
	</node>
	<node id="-572379" lat="62.3697805549" lon="6.95705278656">
		<tag k="name" v="Skaret" />
		<tag k="natural" v="valley" />
		<tag k="place" v="locality" />
		<tag k="ssr:stedsnr" v="701770" />
	</node>
	<node id="-572377" lat="62.3743166676" lon="6.88089999968">
		<tag k="name" v="Lia" />
		<tag k="natural" v="slope" />
		<tag k="place" v="locality" />
		<tag k="ssr:stedsnr" v="701169" />
	</node>
	<node id="-572375" lat="62.3400583371" lon="7.08331944718">
		<tag k="name" v="Ekrenakken" />
		<tag k="natural" v="ridge" />
		<tag k="place" v="locality" />
		<tag k="ssr:stedsnr" v="698799" />
	</node>
	<node id="-572373" lat="62.3649527765" lon="7.20826667503">
		<tag k="name" v="Geitabotnen" />
		<tag k="natural" v="valley" />
		<tag k="old_name" v="Geitabotn" />
		<tag k="place" v="locality" />
		<tag k="ssr:stedsnr" v="679515" />
	</node>
	<node id="-572368" lat="62.4369861097" lon="7.25408055306">
		<tag k="name" v="Dyrdalen" />
		<tag k="natural" v="valley" />
		<tag k="place" v="locality" />
		<tag k="ssr:stedsnr" v="678995" />
	</node>
	<node id="-572365" lat="62.3995277734" lon="7.15770554924">
		<tag k="name" v="Almåsbotnen" />
		<tag k="natural" v="valley" />
		<tag k="place" v="locality" />
		<tag k="ssr:stedsnr" v="678726" />
	</node>
	<node id="-572364" lat="62.3798972258" lon="6.8694277824">
		<tag k="fixme" v="consider natural=peak for the most distinct mountains in the district" />
		<tag k="name" v="Skjortnesryggen" />
		<tag k="natural" v="hill" />
		<tag k="place" v="locality" />
		<tag k="ssr:stedsnr" v="678709" />
	</node>
	<node id="-572360" lat="62.40805556" lon="6.88403611326">
		<tag k="name" v="Koppeheia" />
		<tag k="natural" v="hill" />
		<tag k="old_name" v="Koppheia" />
		<tag k="place" v="locality" />
		<tag k="ssr:stedsnr" v="678645" />
	</node>
	<node id="-572359" lat="62.4128000014" lon="7.12573889499">
		<tag k="name" v="Storskreda" />
		<tag k="natural" v="slope" />
		<tag k="place" v="locality" />
		<tag k="ssr:stedsnr" v="678636" />
	</node>
	<node id="-572358" lat="62.41249722" lon="6.97187778673">
		<tag k="name" v="Vikahornet" />
		<tag k="natural" v="hill" />
		<tag k="place" v="locality" />
		<tag k="ssr:stedsnr" v="678632" />
	</node>
	<node id="-572357" lat="62.4096944412" lon="6.90740554876">
		<tag k="fixme" v="consider natural=peak for the most distinct mountains in the district" />
		<tag k="name" v="Veten" />
		<tag k="natural" v="hill" />
		<tag k="place" v="locality" />
		<tag k="ssr:stedsnr" v="678626" />
	</node>
	<node id="-572356" lat="62.4540138913" lon="7.19522777957">
		<tag k="name" v="Fanthammaren" />
		<tag k="natural" v="hill" />
		<tag k="place" v="locality" />
		<tag k="ssr:stedsnr" v="658363" />
	</node>
	<node id="-572352" lat="62.3949583363" lon="6.96161666771">
		<tag k="name" v="Hovslia" />
		<tag k="natural" v="slope" />
		<tag k="place" v="locality" />
		<tag k="ssr:stedsnr" v="641980" />
	</node>
	<node id="-572351" lat="62.385825003" lon="7.19834167053">
		<tag k="name" v="Øyna" />
		<tag k="natural" v="slope" />
		<tag k="place" v="locality" />
		<tag k="ssr:stedsnr" v="641841" />
	</node>
	<node id="-572350" lat="62.3895472209" lon="7.20298889591">
		<tag k="name" v="Langhaugen" />
		<tag k="natural" v="hill" />
		<tag k="place" v="locality" />
		<tag k="ssr:stedsnr" v="641839" />
	</node>
	<node id="-572349" lat="62.3957583341" lon="7.19723056283">
		<tag k="name" v="Almåslia" />
		<tag k="natural" v="slope" />
		<tag k="place" v="locality" />
		<tag k="ssr:stedsnr" v="641700" />
	</node>
	<node id="-572348" lat="62.3998055517" lon="7.21142777471">
		<tag k="name" v="Hjellhaugen" />
		<tag k="natural" v="hill" />
		<tag k="place" v="locality" />
		<tag k="ssr:stedsnr" v="641657" />
	</node>
	<node id="-572345" lat="62.4309833379" lon="6.99579167174">
		<tag k="name" v="Puskehaugen" />
		<tag k="natural" v="hill" />
		<tag k="place" v="locality" />
		<tag k="ssr:stedsnr" v="641408" />
	</node>
	<node id="-572344" lat="62.4324527761" lon="6.92400834244">
		<tag k="name" v="Vollabakkane" />
		<tag k="natural" v="slope" />
		<tag k="place" v="locality" />
		<tag k="ssr:stedsnr" v="641347" />
	</node>
	<node id="-572343" lat="62.424252775" lon="6.94492778737">
		<tag k="name" v="Hjellane" />
		<tag k="place" v="locality" />
		<tag k="ssr:stedsnr" v="641334" />
	</node>
	<node id="-572342" lat="62.4157777805" lon="7.20714721358">
		<tag k="name" v="Bremsrørene" />
		<tag k="natural" v="ridge" />
		<tag k="place" v="locality" />
		<tag k="ssr:stedsnr" v="641203" />
	</node>
	<node id="-572341" lat="62.4384222218" lon="7.20646667057">
		<tag k="name" v="Dansarhaugen" />
		<tag k="natural" v="hill" />
		<tag k="place" v="locality" />
		<tag k="ssr:stedsnr" v="641153" />
	</node>
	<node id="-572339" lat="62.3723611072" lon="7.09062778236">
		<tag k="name" v="Trippe" />
		<tag k="natural" v="ridge" />
		<tag k="place" v="locality" />
		<tag k="ssr:stedsnr" v="641065" />
	</node>
	<node id="-572338" lat="62.3591444459" lon="6.969827773">
		<tag k="name" v="Litlelømarka" />
		<tag k="natural" v="slope" />
		<tag k="place" v="locality" />
		<tag k="ssr:stedsnr" v="640777" />
	</node>
	<node id="-572334" lat="62.3818111148" lon="6.99150833958">
		<tag k="name" v="Sjøabrauta" />
		<tag k="natural" v="slope" />
		<tag k="place" v="locality" />
		<tag k="ssr:stedsnr" v="640620" />
	</node>
	<node id="-572330" lat="62.3675527806" lon="7.17267776824">
		<tag k="name" v="Nakkeskreda" />
		<tag k="natural" v="hill" />
		<tag k="place" v="locality" />
		<tag k="ssr:stedsnr" v="618544" />
	</node>
	<node id="-572329" lat="62.3636499984" lon="7.01043333557">
		<tag k="fixme" v="consider natural=peak for the most distinct mountains in the district" />
		<tag k="name" v="Småhornet" />
		<tag k="natural" v="hill" />
		<tag k="place" v="locality" />
		<tag k="ssr:stedsnr" v="618537" />
	</node>
	<node id="-572327" lat="62.4523916682" lon="7.33473610604">
		<tag k="fixme" v="consider natural=peak for the most distinct mountains in the district" />
		<tag k="name" v="Litlevasstinden" />
		<tag k="natural" v="hill" />
		<tag k="place" v="locality" />
		<tag k="ssr:stedsnr" v="617982" />
	</node>
	<node id="-572326" lat="62.3974499962" lon="7.24519999911">
		<tag k="name" v="Litlebotnen" />
		<tag k="natural" v="valley" />
		<tag k="place" v="locality" />
		<tag k="ssr:stedsnr" v="617962" />
	</node>
	<node id="-572321" lat="62.3674972246" lon="7.04317778014">
		<tag k="fixme" v="consider natural=peak for the most distinct mountains in the district" />
		<tag k="name" v="Storhornet" />
		<tag k="natural" v="hill" />
		<tag k="place" v="locality" />
		<tag k="ssr:stedsnr" v="617705" />
	</node>
	<node id="-572320" lat="62.434416667" lon="7.20329165755">
		<tag k="name" v="Raudeberget" />
		<tag k="natural" v="hill" />
		<tag k="place" v="locality" />
		<tag k="ssr:stedsnr" v="617686" />
	</node>
	<node id="-572318" lat="62.446347225" lon="7.16216943502">
		<tag k="fixme" v="consider natural=peak for the most distinct mountains in the district" />
		<tag k="name" v="Rollsbottskorka" />
		<tag k="natural" v="hill" />
		<tag k="place" v="locality" />
		<tag k="ssr:stedsnr" v="617398" />
	</node>
	<node id="-572317" lat="62.3919777804" lon="7.01804167228">
		<tag k="name" v="Gullafallet" />
		<tag k="natural" v="hill" />
		<tag k="place" v="locality" />
		<tag k="ssr:stedsnr" v="597279" />
	</node>
	<node id="-572316" lat="62.3785027767" lon="7.21248334252">
		<tag k="name" v="Svarthamrane" />
		<tag k="place" v="locality" />
		<tag k="ssr:stedsnr" v="581849" />
	</node>
	<node id="-572314" lat="62.4248527769" lon="7.3014999986">
		<tag k="name" v="Kambehaugane" />
		<tag k="natural" v="hill" />
		<tag k="place" v="locality" />
		<tag k="ssr:stedsnr" v="581707" />
	</node>
	<node id="-572311" lat="62.4133444465" lon="7.22449999204">
		<tag k="name" v="Hagardsslætta" />
		<tag k="natural" v="slope" />
		<tag k="place" v="locality" />
		<tag k="ssr:stedsnr" v="581659" />
	</node>
	<node id="-572310" lat="62.425227777" lon="7.24645555702">
		<tag k="name" v="Fokhauglia" />
		<tag k="natural" v="slope" />
		<tag k="place" v="locality" />
		<tag k="ssr:stedsnr" v="581657" />
	</node>
	<node id="-572309" lat="62.4313611147" lon="7.23291943963">
		<tag k="name" v="Litlelia" />
		<tag k="natural" v="slope" />
		<tag k="place" v="locality" />
		<tag k="ssr:stedsnr" v="581645" />
	</node>
	<node id="-572308" lat="62.4137555582" lon="7.20954443945">
		<tag k="name" v="Bergeløslættet" />
		<tag k="natural" v="slope" />
		<tag k="place" v="locality" />
		<tag k="ssr:stedsnr" v="581280" />
	</node>
	<node id="-572307" lat="62.3838805533" lon="7.10890556073">
		<tag k="name" v="Øykjestø" />
		<tag k="natural" v="slope" />
		<tag k="place" v="locality" />
		<tag k="ssr:stedsnr" v="581157" />
	</node>
	<node id="-572303" lat="62.3714305584" lon="7.10709721635">
		<tag k="name" v="Ondelendene" />
		<tag k="natural" v="slope" />
		<tag k="place" v="locality" />
		<tag k="ssr:stedsnr" v="581082" />
	</node>
	<node id="-572301" lat="62.3834416627" lon="7.05397499414">
		<tag k="name" v="Leirbakkane" />
		<tag k="natural" v="slope" />
		<tag k="place" v="locality" />
		<tag k="ssr:stedsnr" v="581044" />
	</node>
	<node id="-572300" lat="62.3865166685" lon="7.18825833356">
		<tag k="name" v="Tøbbedalen" />
		<tag k="natural" v="gorge" />
		<tag k="ssr:stedsnr" v="580861" />
	</node>
	<node id="-572299" lat="62.3839833319" lon="7.18766110841">
		<tag k="name" v="Gylja" />
		<tag k="natural" v="gorge" />
		<tag k="ssr:stedsnr" v="580857" />
	</node>
	<node id="-572296" lat="62.4073694424" lon="7.20612777251">
		<tag k="name" v="Nystihamrane" />
		<tag k="place" v="locality" />
		<tag k="ssr:stedsnr" v="580520" />
	</node>
	<node id="-572294" lat="62.3407555575" lon="7.13939721426">
		<tag k="name" v="Fannegylet" />
		<tag k="natural" v="gorge" />
		<tag k="ssr:stedsnr" v="580455" />
	</node>
	<node id="-572293" lat="62.4243222236" lon="6.97572500356">
		<tag k="name" v="Gjerdsgjerda" />
		<tag k="natural" v="slope" />
		<tag k="place" v="locality" />
		<tag k="ssr:stedsnr" v="580346" />
	</node>
	<node id="-572292" lat="62.4241666664" lon="6.94862222427">
		<tag k="name" v="Reiten" />
		<tag k="place" v="locality" />
		<tag k="ssr:stedsnr" v="580333" />
	</node>
	<node id="-572291" lat="62.4155583298" lon="6.94944721809">
		<tag k="name" v="Vikastranda" />
		<tag k="place" v="locality" />
		<tag k="ssr:stedsnr" v="580307" />
	</node>
	<node id="-572290" lat="62.3893666633" lon="6.95761945369">
		<tag k="name" v="Nyfonna" />
		<tag k="natural" v="slope" />
		<tag k="place" v="locality" />
		<tag k="ssr:stedsnr" v="579995" />
	</node>
	<node id="-572289" lat="62.3653411891" lon="6.95187145016">
		<tag k="name" v="Høgenakken" />
		<tag k="natural" v="ridge" />
		<tag k="place" v="locality" />
		<tag k="ssr:stedsnr" v="579799" />
	</node>
	<node id="-572288" lat="62.3566472184" lon="6.95092222142">
		<tag k="name" v="Djupdalsgjølet" />
		<tag k="natural" v="gorge" />
		<tag k="ssr:stedsnr" v="579792" />
	</node>
	<node id="-572284" lat="62.3875750003" lon="6.98418610414">
		<tag k="name" v="Høgsvoda" />
		<tag k="place" v="locality" />
		<tag k="ssr:stedsnr" v="579660" />
	</node>
	<node id="-572282" lat="62.3766027766" lon="6.98133610506">
		<tag k="name" v="Fonnahaudet" />
		<tag k="natural" v="hill" />
		<tag k="place" v="locality" />
		<tag k="ssr:stedsnr" v="579653" />
	</node>
	<node id="-572281" lat="62.3814055528" lon="6.87490833456">
		<tag k="fixme" v="consider natural=peak for the most distinct mountains in the district" />
		<tag k="name" v="Korsadalshornet" />
		<tag k="natural" v="hill" />
		<tag k="place" v="locality" />
		<tag k="ssr:stedsnr" v="579195" />
	</node>
	<node id="-572277" lat="62.4533888865" lon="7.25120555702">
		<tag k="fixme" v="consider natural=peak for the most distinct mountains in the district" />
		<tag k="name" v="Dyrdalstinden" />
		<tag k="natural" v="hill" />
		<tag k="place" v="locality" />
		<tag k="ssr:stedsnr" v="557972" />
	</node>
	<node id="-572274" lat="62.3897972246" lon="7.09591388349">
		<tag k="fixme" v="consider natural=peak for the most distinct mountains in the district" />
		<tag k="name" v="Mohornet" />
		<tag k="natural" v="hill" />
		<tag k="place" v="locality" />
		<tag k="ssr:stedsnr" v="557695" />
	</node>
	<node id="-572271" lat="62.3528749958" lon="7.12305556355">
		<tag k="name" v="Fagerbotnen" />
		<tag k="natural" v="valley" />
		<tag k="old_name" v="Fagerbotn" />
		<tag k="place" v="locality" />
		<tag k="ssr:stedsnr" v="557504" />
	</node>
	<node id="-572267" lat="62.4154305511" lon="7.25429165956">
		<tag k="name" v="Litleådalen" />
		<tag k="natural" v="valley" />
		<tag k="place" v="locality" />
		<tag k="ssr:stedsnr" v="556985" />
	</node>
	<node id="-572264" lat="62.3976611145" lon="6.99409166404">
		<tag k="name" v="Myrdalen" />
		<tag k="natural" v="valley" />
		<tag k="place" v="locality" />
		<tag k="ssr:stedsnr" v="556754" />
	</node>
	<node id="-572263" lat="62.3367972189" lon="7.15486388832">
		<tag k="name" v="Litlebotnen" />
		<tag k="natural" v="valley" />
		<tag k="old_name" v="Veslebotn" />
		<tag k="place" v="locality" />
		<tag k="ssr:stedsnr" v="556751" />
	</node>
	<node id="-572260" lat="62.3783555581" lon="7.09110834088">
		<tag k="fixme" v="consider natural=peak for the most distinct mountains in the district" />
		<tag k="name" v="Monakken" />
		<tag k="natural" v="hill" />
		<tag k="place" v="locality" />
		<tag k="ssr:stedsnr" v="556716" />
	</node>
	<node id="-572259" lat="62.3748111131" lon="7.18602222413">
		<tag k="name" v="Langhaugbotnen" />
		<tag k="natural" v="valley" />
		<tag k="place" v="locality" />
		<tag k="ssr:stedsnr" v="556712" />
	</node>
	<node id="-572258" lat="62.4343999975" lon="7.12146111358">
		<tag k="fixme" v="consider natural=peak for the most distinct mountains in the district" />
		<tag k="name" v="Grytavasstinden" />
		<tag k="natural" v="hill" />
		<tag k="old_name" v="Grytavasstind" />
		<tag k="place" v="locality" />
		<tag k="ssr:stedsnr" v="556700" />
	</node>
	<node id="-572255" lat="62.4250027811" lon="7.1256722168">
		<tag k="name" v="Tverrbotnen" />
		<tag k="natural" v="valley" />
		<tag k="place" v="locality" />
		<tag k="ssr:stedsnr" v="556684" />
	</node>
	<node id="-572251" lat="62.4230194435" lon="7.30721944039">
		<tag k="name" v="Kambelia" />
		<tag k="natural" v="slope" />
		<tag k="place" v="locality" />
		<tag k="ssr:stedsnr" v="521707" />
	</node>
	<node id="-572250" lat="62.4152194466" lon="7.23079443524">
		<tag k="name" v="Haggardshaugane" />
		<tag k="natural" v="hill" />
		<tag k="place" v="locality" />
		<tag k="ssr:stedsnr" v="521654" />
	</node>
	<node id="-572249" lat="62.3927250025" lon="7.17275278244">
		<tag k="name" v="Gyljane" />
		<tag k="natural" v="gorge" />
		<tag k="ssr:stedsnr" v="520745" />
	</node>
	<node id="-572247" lat="62.4109555529" lon="6.94917500116">
		<tag k="name" v="Klipe" />
		<tag k="place" v="locality" />
		<tag k="ssr:stedsnr" v="520705" />
	</node>
	<node id="-572245" lat="62.3464944468" lon="7.10572222964">
		<tag k="name" v="Grønlia" />
		<tag k="natural" v="slope" />
		<tag k="place" v="locality" />
		<tag k="ssr:stedsnr" v="520596" />
	</node>
	<node id="-572244" lat="62.3659388853" lon="7.09894444775">
		<tag k="name" v="Kalveskaret" />
		<tag k="natural" v="valley" />
		<tag k="place" v="locality" />
		<tag k="ssr:stedsnr" v="520570" />
	</node>
	<node id="-572242" lat="62.39342778" lon="7.00142222809">
		<tag k="name" v="Myrdalen" />
		<tag k="natural" v="valley" />
		<tag k="place" v="locality" />
		<tag k="ssr:stedsnr" v="520533" />
	</node>
	<node id="-572241" lat="62.4241083366" lon="6.94256111469">
		<tag k="name" v="Smihammaren" />
		<tag k="natural" v="cliff" />
		<tag k="ssr:stedsnr" v="520383" />
	</node>
	<node id="-572240" lat="62.3893777767" lon="7.16156944015">
		<tag k="name" v="Litleskaret" />
		<tag k="natural" v="valley" />
		<tag k="place" v="locality" />
		<tag k="ssr:stedsnr" v="520134" />
	</node>
	<node id="-572239" lat="62.3789305591" lon="7.14473611041">
		<tag k="name" v="Nedstegrøbbane" />
		<tag k="place" v="locality" />
		<tag k="ssr:stedsnr" v="520104" />
	</node>
	<node id="-572235" lat="62.3712388864" lon="7.10989167202">
		<tag k="name" v="Hesjebakkane" />
		<tag k="natural" v="slope" />
		<tag k="place" v="locality" />
		<tag k="ssr:stedsnr" v="520058" />
	</node>
	<node id="-572232" lat="62.4383194476" lon="6.91583055874">
		<tag k="name" v="Almgjølet" />
		<tag k="natural" v="gorge" />
		<tag k="ssr:stedsnr" v="519867" />
	</node>
	<node id="-572230" lat="62.3529500023" lon="6.95942500873">
		<tag k="name" v="Fløtåkamben" />
		<tag k="natural" v="ridge" />
		<tag k="place" v="locality" />
		<tag k="ssr:stedsnr" v="519770" />
	</node>
	<node id="-572228" lat="62.3711055523" lon="6.94489999163">
		<tag k="name" v="Holmeaksla" />
		<tag k="place" v="locality" />
		<tag k="ssr:stedsnr" v="519759" />
	</node>
	<node id="-572227" lat="62.3891861125" lon="7.01426111306">
		<tag k="name" v="Ådalen" />
		<tag k="natural" v="valley" />
		<tag k="place" v="locality" />
		<tag k="ssr:stedsnr" v="519632" />
	</node>
	<node id="-572224" lat="62.3823583373" lon="6.99693610398">
		<tag k="name" v="Vinjebrauta" />
		<tag k="natural" v="slope" />
		<tag k="place" v="locality" />
		<tag k="ssr:stedsnr" v="519614" />
	</node>
	<node id="-572223" lat="62.3799472183" lon="6.9940583279">
		<tag k="name" v="Vollane" />
		<tag k="natural" v="slope" />
		<tag k="place" v="locality" />
		<tag k="ssr:stedsnr" v="519609" />
	</node>
	<node id="-572221" lat="62.3776916709" lon="6.87623889813">
		<tag k="name" v="Kilen" />
		<tag k="natural" v="valley" />
		<tag k="place" v="locality" />
		<tag k="ssr:stedsnr" v="519189" />
	</node>
	<node id="-572217" lat="62.4183888923" lon="7.30545000801">
		<tag k="name" v="Langedalsmoane" />
		<tag k="place" v="locality" />
		<tag k="ssr:stedsnr" v="496981" />
	</node>
	<node id="-572216" lat="62.4118722265" lon="7.18215555535">
		<tag k="name" v="Heimste Ørabotnen" />
		<tag k="natural" v="valley" />
		<tag k="place" v="locality" />
		<tag k="ssr:stedsnr" v="496747" />
	</node>
	<node id="-572215" lat="62.3995027767" lon="7.08997500734">
		<tag k="name" v="Rikjendskaret" />
		<tag k="natural" v="valley" />
		<tag k="place" v="locality" />
		<tag k="ssr:stedsnr" v="496736" />
	</node>
	<node id="-572212" lat="62.4198944452" lon="6.86195555679">
		<tag k="fixme" v="consider natural=peak for the most distinct mountains in the district" />
		<tag k="name" v="Småhorna" />
		<tag k="natural" v="hill" />
		<tag k="place" v="locality" />
		<tag k="ssr:stedsnr" v="496677" />
	</node>
	<node id="-572210" lat="62.4130777746" lon="6.87409721813">
		<tag k="name" v="Skotsdalen" />
		<tag k="natural" v="valley" />
		<tag k="place" v="locality" />
		<tag k="ssr:stedsnr" v="496667" />
	</node>
	<node id="-572209" lat="62.4079166647" lon="7.09592222292">
		<tag k="fixme" v="consider natural=peak for the most distinct mountains in the district" />
		<tag k="name" v="Benkene" />
		<tag k="natural" v="hill" />
		<tag k="place" v="locality" />
		<tag k="ssr:stedsnr" v="496654" />
	</node>
	<node id="-572206" lat="62.4056750019" lon="6.85335000933">
		<tag k="fixme" v="consider natural=peak for the most distinct mountains in the district" />
		<tag k="name" v="Forseggene" />
		<tag k="natural" v="hill" />
		<tag k="old_name" v="Ferseeggene" />
		<tag k="place" v="locality" />
		<tag k="ssr:stedsnr" v="496643" />
	</node>
	<node id="-572205" lat="62.3571000038" lon="7.03100555981">
		<tag k="fixme" v="consider natural=peak for the most distinct mountains in the district" />
		<tag k="name" v="Ringsetkloven" />
		<tag k="natural" v="hill" />
		<tag k="place" v="locality" />
		<tag k="ssr:stedsnr" v="496582" />
	</node>
	<node id="-572200" lat="62.3941527774" lon="7.2036305561">
		<tag k="loc_name" v="Øggardsslættet" />
		<tag k="name" v="Øygardsslættet" />
		<tag k="natural" v="slope" />
		<tag k="place" v="locality" />
		<tag k="ssr:stedsnr" v="460761" />
	</node>
	<node id="-572199" lat="62.395311113" lon="7.20464167311">
		<tag k="name" v="Nedste Liaslættet" />
		<tag k="natural" v="slope" />
		<tag k="place" v="locality" />
		<tag k="ssr:stedsnr" v="460759" />
	</node>
	<node id="-572198" lat="62.3908361071" lon="7.12425000922">
		<tag k="name" v="Litlehaugen" />
		<tag k="natural" v="hill" />
		<tag k="place" v="locality" />
		<tag k="ssr:stedsnr" v="460160" />
	</node>
	<node id="-572192" lat="62.3830277746" lon="7.14407499317">
		<tag k="name" v="Hamreslættet" />
		<tag k="natural" v="slope" />
		<tag k="place" v="locality" />
		<tag k="ssr:stedsnr" v="460117" />
	</node>
	<node id="-572189" lat="62.369997222" lon="7.10550000089">
		<tag k="name" v="Ekrane" />
		<tag k="natural" v="slope" />
		<tag k="place" v="locality" />
		<tag k="ssr:stedsnr" v="460094" />
	</node>
	<node id="-572188" lat="62.3698694418" lon="7.11063611092">
		<tag k="name" v="Fonna" />
		<tag k="natural" v="valley" />
		<tag k="place" v="locality" />
		<tag k="ssr:stedsnr" v="460093" />
	</node>
	<node id="-572187" lat="62.4105333374" lon="7.12529999961">
		<tag k="name" v="Tverrbotnen" />
		<tag k="natural" v="valley" />
		<tag k="place" v="locality" />
		<tag k="ssr:stedsnr" v="460080" />
	</node>
	<node id="-572186" lat="62.3843777773" lon="7.17534167311">
		<tag k="name" v="Maurhaugen" />
		<tag k="natural" v="hill" />
		<tag k="place" v="locality" />
		<tag k="ssr:stedsnr" v="459858" />
	</node>
	<node id="-572185" lat="62.3949555548" lon="7.02328054911">
		<tag k="name" v="Kringletehaugen" />
		<tag k="natural" v="hill" />
		<tag k="place" v="locality" />
		<tag k="ssr:stedsnr" v="459561" />
	</node>
	<node id="-572184" lat="62.3653805579" lon="7.08466943638">
		<tag k="name" v="Høgbrauta" />
		<tag k="natural" v="slope" />
		<tag k="place" v="locality" />
		<tag k="ssr:stedsnr" v="459516" />
	</node>
	<node id="-572181" lat="62.3499444444" lon="7.10302499122">
		<tag k="name" v="Kleivaslættet" />
		<tag k="natural" v="valley" />
		<tag k="place" v="locality" />
		<tag k="ssr:stedsnr" v="459505" />
	</node>
	<node id="-572180" lat="62.4291777771" lon="6.95391943833">
		<tag k="name" v="Ytresæterlia" />
		<tag k="natural" v="slope" />
		<tag k="place" v="locality" />
		<tag k="ssr:stedsnr" v="459364" />
	</node>
	<node id="-572179" lat="62.4203305516" lon="6.97978055958">
		<tag k="name" v="Riset" />
		<tag k="natural" v="ridge" />
		<tag k="place" v="locality" />
		<tag k="ssr:stedsnr" v="459348" />
	</node>
	<node id="-572178" lat="62.415922225" lon="6.97623888562">
		<tag k="name" v="Aksla" />
		<tag k="place" v="locality" />
		<tag k="ssr:stedsnr" v="459342" />
	</node>
	<node id="-572174" lat="62.3725555596" lon="6.98687221991">
		<tag k="name" v="Benkedalen" />
		<tag k="natural" v="valley" />
		<tag k="place" v="locality" />
		<tag k="ssr:stedsnr" v="458652" />
	</node>
	<node id="-572170" lat="62.3483611147" lon="6.955966675">
		<tag k="name" v="Fjelldrepen" />
		<tag k="natural" v="cliff" />
		<tag k="ssr:stedsnr" v="455876" />
	</node>
	<node id="-572168" lat="62.3487805533" lon="7.22145833701">
		<tag k="fixme" v="consider natural=peak for the most distinct mountains in the district" />
		<tag k="name" v="Geitabottstinden" />
		<tag k="natural" v="hill" />
		<tag k="place" v="locality" />
		<tag k="ssr:stedsnr" v="436800" />
	</node>
	<node id="-572167" lat="62.4065861139" lon="7.16547778179">
		<tag k="fixme" v="consider natural=peak for the most distinct mountains in the district" />
		<tag k="name" v="Sandfjellet" />
		<tag k="natural" v="hill" />
		<tag k="place" v="locality" />
		<tag k="ssr:stedsnr" v="436730" />
	</node>
	<node id="-572166" lat="62.3994361118" lon="7.14886666442">
		<tag k="fixme" v="consider natural=peak for the most distinct mountains in the district" />
		<tag k="name" v="Storbottshornet" />
		<tag k="natural" v="hill" />
		<tag k="place" v="locality" />
		<tag k="ssr:stedsnr" v="436731" />
	</node>
	<node id="-572165" lat="62.3766361103" lon="7.04486667331">
		<tag k="name" v="Stordalen" />
		<tag k="natural" v="valley" />
		<tag k="place" v="locality" />
		<tag k="ssr:stedsnr" v="436608" />
	</node>
	<node id="-572164" lat="62.3235111106" lon="7.16371388028">
		<tag k="name" v="Vassbotnen" />
		<tag k="natural" v="valley" />
		<tag k="old_name" v="Vassbotn" />
		<tag k="place" v="locality" />
		<tag k="ssr:stedsnr" v="436594" />
	</node>
	<node id="-572161" lat="62.4254861113" lon="7.29098888967">
		<tag k="name" v="Trollkyrkjegarden" />
		<tag k="natural" v="hill" />
		<tag k="place" v="locality" />
		<tag k="ssr:stedsnr" v="435994" />
	</node>
	<node id="-572154" lat="62.4170472255" lon="7.19033610527">
		<tag k="fixme" v="consider natural=peak for the most distinct mountains in the district" />
		<tag k="name" v="Kollen" />
		<tag k="natural" v="hill" />
		<tag k="place" v="locality" />
		<tag k="ssr:stedsnr" v="435678" />
	</node>
	<node id="-572153" lat="62.4132111085" lon="6.95971112029">
		<tag k="name" v="Bjørnanakken" />
		<tag k="natural" v="hill" />
		<tag k="place" v="locality" />
		<tag k="ssr:stedsnr" v="416245" />
	</node>
	<node id="-572151" lat="62.3648305547" lon="6.96371111367">
		<tag k="fixme" v="consider natural=peak for the most distinct mountains in the district" />
		<tag k="name" v="Holmehornet" />
		<tag k="natural" v="hill" />
		<tag k="place" v="locality" />
		<tag k="ssr:stedsnr" v="254660" />
	</node>
	<node id="-572150" lat="62.3682722223" lon="7.19677776988">
		<tag k="fixme" v="consider natural=peak for the most distinct mountains in the district" />
		<tag k="name" v="Langhaughornet" />
		<tag k="natural" v="hill" />
		<tag k="place" v="locality" />
		<tag k="ssr:stedsnr" v="254528" />
	</node>
	<node id="-572148" lat="62.3560444484" lon="7.13036111279">
		<tag k="fixme" v="consider natural=peak for the most distinct mountains in the district" />
		<tag k="name" v="Gregorshornet" />
		<tag k="natural" v="hill" />
		<tag k="place" v="locality" />
		<tag k="ssr:stedsnr" v="254504" />
	</node>
	<node id="-572147" lat="62.3408166637" lon="7.13774167319">
		<tag k="name" v="Litlebotnen" />
		<tag k="natural" v="valley" />
		<tag k="old_name" v="Litlebotn" />
		<tag k="place" v="locality" />
		<tag k="ssr:stedsnr" v="254494" />
	</node>
	<node id="-572146" lat="62.39506389" lon="7.27410833048">
		<tag k="fixme" v="consider natural=peak for the most distinct mountains in the district" />
		<tag k="name" v="Ådalstinden" />
		<tag k="natural" v="hill" />
		<tag k="place" v="locality" />
		<tag k="ssr:stedsnr" v="253966" />
	</node>
	<node id="-572145" lat="62.4708444476" lon="7.25418054576">
		<tag k="fixme" v="consider natural=peak for the most distinct mountains in the district" />
		<tag k="name" v="Storbua" />
		<tag k="natural" v="hill" />
		<tag k="place" v="locality" />
		<tag k="ssr:stedsnr" v="253892" />
	</node>
	<node id="-572138" lat="62.405424998" lon="6.88221110954">
		<tag k="name" v="Svartdalen" />
		<tag k="natural" v="valley" />
		<tag k="place" v="locality" />
		<tag k="ssr:stedsnr" v="253645" />
	</node>
	<node id="-572133" lat="62.3999277775" lon="7.21493333781">
		<tag k="name" v="Hjellen" />
		<tag k="place" v="locality" />
		<tag k="ssr:stedsnr" v="217665" />
	</node>
	<node id="-572132" lat="62.4223333309" lon="7.23708054665">
		<tag k="name" v="Fokhaugbakkane" />
		<tag k="natural" v="slope" />
		<tag k="place" v="locality" />
		<tag k="ssr:stedsnr" v="217632" />
	</node>
	<node id="-572130" lat="62.3545999964" lon="7.08756389006">
		<tag k="name" v="Hagane" />
		<tag k="natural" v="slope" />
		<tag k="place" v="locality" />
		<tag k="ssr:stedsnr" v="217569" />
	</node>
	<node id="-572129" lat="62.3622416675" lon="7.08786389704">
		<tag k="name" v="Gylet" />
		<tag k="natural" v="gorge" />
		<tag k="ssr:stedsnr" v="217567" />
	</node>
	<node id="-572127" lat="62.3327666646" lon="7.11164999983">
		<tag k="name" v="Litlelia" />
		<tag k="natural" v="slope" />
		<tag k="place" v="locality" />
		<tag k="ssr:stedsnr" v="217478" />
	</node>
	<node id="-572125" lat="62.3707833346" lon="7.0940888919">
		<tag k="name" v="Heimstegjerda" />
		<tag k="natural" v="slope" />
		<tag k="place" v="locality" />
		<tag k="ssr:stedsnr" v="217086" />
	</node>
	<node id="-572124" lat="62.3737194448" lon="7.05571944797">
		<tag k="name" v="Strikane" />
		<tag k="natural" v="slope" />
		<tag k="place" v="locality" />
		<tag k="ssr:stedsnr" v="217082" />
	</node>
	<node id="-572121" lat="62.3860194416" lon="7.16852222964">
		<tag k="name" v="Berngjerdet" />
		<tag k="natural" v="slope" />
		<tag k="place" v="locality" />
		<tag k="ssr:stedsnr" v="216853" />
	</node>
	<node id="-572119" lat="62.3976694457" lon="6.95143055513">
		<tag k="name" v="Stabbegylet" />
		<tag k="natural" v="gorge" />
		<tag k="ssr:stedsnr" v="216702" />
	</node>
	<node id="-572118" lat="62.3756416661" lon="6.98165276954">
		<tag k="name" v="Skredene" />
		<tag k="natural" v="slope" />
		<tag k="place" v="locality" />
		<tag k="ssr:stedsnr" v="216550" />
	</node>
	<node id="-572115" lat="62.3768027755" lon="6.88247500838">
		<tag k="name" v="Kamben" />
		<tag k="place" v="locality" />
		<tag k="ssr:stedsnr" v="216165" />
	</node>
	<node id="-572114" lat="62.3842194404" lon="6.88464999511">
		<tag k="name" v="Litlemarka" />
		<tag k="natural" v="slope" />
		<tag k="place" v="locality" />
		<tag k="ssr:stedsnr" v="216160" />
	</node>
	<node id="-572113" lat="62.3722138853" lon="6.8663499911">
		<tag k="name" v="Storhaugen" />
		<tag k="natural" v="hill" />
		<tag k="place" v="locality" />
		<tag k="ssr:stedsnr" v="216141" />
	</node>
	<node id="-572107" lat="62.3627305551" lon="7.2572583401">
		<tag k="name" v="Uriskarbotnen" />
		<tag k="natural" v="valley" />
		<tag k="place" v="locality" />
		<tag k="ssr:stedsnr" v="193778" />
	</node>
	<node id="-572106" lat="62.3660611085" lon="7.22455277731">
		<tag k="fixme" v="consider natural=peak for the most distinct mountains in the district" />
		<tag k="name" v="Klumpen" />
		<tag k="natural" v="hill" />
		<tag k="place" v="locality" />
		<tag k="ssr:stedsnr" v="193777" />
	</node>
	<node id="-572105" lat="62.3987111089" lon="6.98201666693">
		<tag k="fixme" v="consider natural=peak for the most distinct mountains in the district" />
		<tag k="name" v="Varden" />
		<tag k="natural" v="hill" />
		<tag k="place" v="locality" />
		<tag k="ssr:stedsnr" v="193713" />
	</node>
	<node id="-572104" lat="62.3915972231" lon="6.97340556307">
		<tag k="name" v="Litlelihaugen" />
		<tag k="natural" v="hill" />
		<tag k="place" v="locality" />
		<tag k="ssr:stedsnr" v="193702" />
	</node>
	<node id="-572102" lat="62.3940472185" lon="7.03531389873">
		<tag k="name" v="Turrnausa" />
		<tag k="natural" v="hill" />
		<tag k="old_name" v="Turnausen" />
		<tag k="place" v="locality" />
		<tag k="ssr:stedsnr" v="193699" />
	</node>
	<node id="-572099" lat="62.4212333323" lon="7.18698888549">
		<tag k="name" v="Fremste Ørabotnen" />
		<tag k="natural" v="valley" />
		<tag k="place" v="locality" />
		<tag k="ssr:stedsnr" v="193634" />
	</node>
	<node id="-572097" lat="62.4080249978" lon="7.02061388381">
		<tag k="fixme" v="consider natural=peak for the most distinct mountains in the district" />
		<tag k="name" v="Ørnedalshornet" />
		<tag k="natural" v="hill" />
		<tag k="place" v="locality" />
		<tag k="ssr:stedsnr" v="193627" />
	</node>
	<node id="-572093" lat="62.406191669" lon="7.2255722313">
		<tag k="name" v="Storløslætta" />
		<tag k="natural" v="slope" />
		<tag k="place" v="locality" />
		<tag k="ssr:stedsnr" v="157857" />
	</node>
	<node id="-572092" lat="62.3678222244" lon="7.26740277828">
		<tag k="name" v="Ryngane" />
		<tag k="place" v="locality" />
		<tag k="ssr:stedsnr" v="157847" />
	</node>
	<node id="-572088" lat="62.4108749981" lon="6.96149722337">
		<tag k="name" v="Bergrørene" />
		<tag k="natural" v="ridge" />
		<tag k="place" v="locality" />
		<tag k="ssr:stedsnr" v="156696" />
	</node>
	<node id="-572086" lat="62.3959388929" lon="6.95255834011">
		<tag k="name" v="Melen" />
		<tag k="place" v="locality" />
		<tag k="ssr:stedsnr" v="156623" />
	</node>
	<node id="-572084" lat="62.3427916657" lon="7.10912500672">
		<tag k="name" v="Grødalen" />
		<tag k="natural" v="valley" />
		<tag k="place" v="locality" />
		<tag k="ssr:stedsnr" v="156587" />
	</node>
	<node id="-572083" lat="62.3488888906" lon="7.09298610403">
		<tag k="name" v="Storflåa" />
		<tag k="place" v="locality" />
		<tag k="ssr:stedsnr" v="156554" />
	</node>
	<node id="-572082" lat="62.3387138857" lon="7.12475277911">
		<tag k="name" v="Ådalen" />
		<tag k="natural" v="valley" />
		<tag k="place" v="locality" />
		<tag k="ssr:stedsnr" v="156480" />
	</node>
	<node id="-572081" lat="62.4319805562" lon="7.01644166809">
		<tag k="name" v="Breiskredene" />
		<tag k="natural" v="slope" />
		<tag k="place" v="locality" />
		<tag k="ssr:stedsnr" v="156444" />
	</node>
	<node id="-572080" lat="62.4319805562" lon="7.01644166809">
		<tag k="name" v="Heiane" />
		<tag k="natural" v="hill" />
		<tag k="place" v="locality" />
		<tag k="ssr:stedsnr" v="156441" />
	</node>
	<node id="-572078" lat="62.4372138899" lon="6.99937499929">
		<tag k="fixme" v="consider natural=peak for the most distinct mountains in the district" />
		<tag k="name" v="Storlifjellet" />
		<tag k="natural" v="hill" />
		<tag k="place" v="locality" />
		<tag k="ssr:stedsnr" v="156312" />
	</node>
	<node id="-572077" lat="62.4222916709" lon="7.21366666596">
		<tag k="name" v="Trongstilia" />
		<tag k="natural" v="slope" />
		<tag k="place" v="locality" />
		<tag k="ssr:stedsnr" v="156212" />
	</node>
	<node id="-572076" lat="62.3841027803" lon="7.1419666755">
		<tag k="name" v="Nymarka" />
		<tag k="place" v="locality" />
		<tag k="ssr:stedsnr" v="156131" />
	</node>
	<node id="-572075" lat="62.3897166644" lon="7.12956388828">
		<tag k="name" v="Haugen" />
		<tag k="natural" v="hill" />
		<tag k="place" v="locality" />
		<tag k="ssr:stedsnr" v="156127" />
	</node>
	<node id="-572073" lat="62.3833916633" lon="7.1572305573">
		<tag k="name" v="Reitane" />
		<tag k="natural" v="slope" />
		<tag k="place" v="locality" />
		<tag k="ssr:stedsnr" v="156099" />
	</node>
	<node id="-572070" lat="62.3512416677" lon="6.97632500901">
		<tag k="name" v="Jolgrøbotnen" />
		<tag k="natural" v="valley" />
		<tag k="place" v="locality" />
		<tag k="ssr:stedsnr" v="155735" />
	</node>
	<node id="-572067" lat="62.4175083355" lon="6.88212500908">
		<tag k="name" v="Instegjølet" />
		<tag k="natural" v="gorge" />
		<tag k="ssr:stedsnr" v="155829" />
	</node>
	<node id="-572063" lat="62.3768499962" lon="6.87930834122">
		<tag k="name" v="Djupegylet" />
		<tag k="natural" v="valley" />
		<tag k="place" v="locality" />
		<tag k="ssr:stedsnr" v="155191" />
	</node>
	<node id="-572062" lat="62.3705277794" lon="6.94018888745">
		<tag k="name" v="Kisteberget" />
		<tag k="natural" v="hill" />
		<tag k="place" v="locality" />
		<tag k="ssr:stedsnr" v="152407" />
	</node>
	<node id="-572059" lat="62.3272138899" lon="7.15319723112">
		<tag k="fixme" v="consider natural=peak for the most distinct mountains in the district" />
		<tag k="name" v="Blåkollen" />
		<tag k="natural" v="hill" />
		<tag k="place" v="locality" />
		<tag k="ssr:stedsnr" v="133447" />
	</node>
	<node id="-572058" lat="62.4355305577" lon="7.26902499461">
		<tag k="fixme" v="consider natural=peak for the most distinct mountains in the district" />
		<tag k="name" v="Fokhaugtinden" />
		<tag k="natural" v="hill" />
		<tag k="place" v="locality" />
		<tag k="ssr:stedsnr" v="132998" />
	</node>
	<node id="-572057" lat="62.3838500017" lon="7.26978332549">
		<tag k="fixme" v="consider natural=peak for the most distinct mountains in the district" />
		<tag k="name" v="Løfjellet" />
		<tag k="natural" v="hill" />
		<tag k="place" v="locality" />
		<tag k="ssr:stedsnr" v="132951" />
	</node>
	<node id="-572056" lat="62.3523305588" lon="7.28091110734">
		<tag k="fixme" v="consider natural=peak for the most distinct mountains in the district" />
		<tag k="name" v="Seljebottstinden" />
		<tag k="natural" v="hill" />
		<tag k="place" v="locality" />
		<tag k="ssr:stedsnr" v="132802" />
	</node>
	<node id="-572055" lat="62.3913555558" lon="6.84831943901">
		<tag k="name" v="Korsadalsbotnen" />
		<tag k="natural" v="valley" />
		<tag k="place" v="locality" />
		<tag k="ssr:stedsnr" v="132723" />
	</node>
	<node id="-572054" lat="62.3936666712" lon="7.18528889537">
		<tag k="name" v="Almåsnakken" />
		<tag k="natural" v="hill" />
		<tag k="place" v="locality" />
		<tag k="ssr:stedsnr" v="132718" />
	</node>
	<node id="-572053" lat="62.4303138905" lon="7.17812778304">
		<tag k="fixme" v="multiple name tags, choose one and add the other to alt_name; consider natural=peak for the most distinct mountains in the district" />
		<tag k="name" v="Stolen;Ørastolen" />
		<tag k="natural" v="hill" />
		<tag k="place" v="locality" />
		<tag k="ssr:stedsnr" v="132661" />
	</node>
	<node id="-572051" lat="62.3185472214" lon="7.16391944217">
		<tag k="alt_name" v="Blåtind" />
		<tag k="fixme" v="consider natural=peak for the most distinct mountains in the district" />
		<tag k="name" v="Blåtinden" />
		<tag k="natural" v="hill" />
		<tag k="place" v="locality" />
		<tag k="ssr:stedsnr" v="132650" />
	</node>
	<node id="-572050" lat="62.3661888899" lon="6.98345277965">
		<tag k="name" v="Benkedalsrøra" />
		<tag k="natural" v="hill" />
		<tag k="place" v="locality" />
		<tag k="ssr:stedsnr" v="132543" />
	</node>
	<node id="-572049" lat="62.3463361067" lon="7.06118888761">
		<tag k="fixme" v="consider natural=peak for the most distinct mountains in the district" />
		<tag k="name" v="Kopphornet" />
		<tag k="natural" v="hill" />
		<tag k="place" v="locality" />
		<tag k="ssr:stedsnr" v="132539" />
	</node>
	<node id="-572048" lat="62.3528833354" lon="7.14761943582">
		<tag k="fixme" v="consider natural=peak for the most distinct mountains in the district" />
		<tag k="name" v="Garretinden" />
		<tag k="natural" v="hill" />
		<tag k="old_name" v="Garretind" />
		<tag k="place" v="locality" />
		<tag k="ssr:stedsnr" v="132537" />
	</node>
	<node id="-572047" lat="62.4525111119" lon="7.19330556143">
		<tag k="name" v="Kleiva" />
		<tag k="natural" v="slope" />
		<tag k="place" v="locality" />
		<tag k="ssr:stedsnr" v="132344" />
	</node>
	<node id="-572046" lat="62.423480559" lon="7.3219138881">
		<tag k="fixme" v="consider natural=peak for the most distinct mountains in the district" />
		<tag k="name" v="Kamben" />
		<tag k="natural" v="hill" />
		<tag k="place" v="locality" />
		<tag k="ssr:stedsnr" v="131968" />
	</node>
	<node id="-572042" lat="62.3702888917" lon="6.97656667171">
		<tag k="name" v="Benkedalen" />
		<tag k="natural" v="valley" />
		<tag k="place" v="locality" />
		<tag k="ssr:stedsnr" v="131711" />
	</node>
	<node id="-572039" lat="62.4243638916" lon="6.85127499647">
		<tag k="fixme" v="consider natural=peak for the most distinct mountains in the district" />
		<tag k="name" v="Storfjellet" />
		<tag k="natural" v="hill" />
		<tag k="place" v="locality" />
		<tag k="ssr:stedsnr" v="131681" />
	</node>
	<node id="-572036" lat="62.3783055558" lon="7.06317499572">
		<tag k="name" v="Harpeberget" />
		<tag k="natural" v="hill" />
		<tag k="place" v="locality" />
		<tag k="ssr:stedsnr" v="112307" />
	</node>
	<node id="-572035" lat="62.4096944448" lon="6.95985555753">
		<tag k="name" v="Tuva" />
		<tag k="natural" v="hill" />
		<tag k="place" v="locality" />
		<tag k="ssr:stedsnr" v="112304" />
	</node>
	<node id="-572030" lat="62.4260222222" lon="7.21514723069">
		<tag k="name" v="Trongstihaugen" />
		<tag k="natural" v="hill" />
		<tag k="place" v="locality" />
		<tag k="ssr:stedsnr" v="96620" />
	</node>
	<node id="-572029" lat="62.4159694454" lon="7.2154750031">
		<tag k="name" v="Fonnateigane" />
		<tag k="natural" v="slope" />
		<tag k="place" v="locality" />
		<tag k="ssr:stedsnr" v="96267" />
	</node>
	<node id="-572027" lat="62.4088666655" lon="7.21256944438">
		<tag k="name" v="Haugen" />
		<tag k="natural" v="hill" />
		<tag k="place" v="locality" />
		<tag k="ssr:stedsnr" v="95900" />
	</node>
	<node id="-572026" lat="62.3828777805" lon="7.1998944423">
		<tag k="name" v="Hauglia" />
		<tag k="natural" v="slope" />
		<tag k="place" v="locality" />
		<tag k="ssr:stedsnr" v="95854" />
	</node>
	<node id="-572022" lat="62.4239083323" lon="6.96096111667">
		<tag k="name" v="Gjerdsplassen" />
		<tag k="natural" v="slope" />
		<tag k="place" v="locality" />
		<tag k="ssr:stedsnr" v="95335" />
	</node>
	<node id="-572021" lat="62.4168027764" lon="6.95656666204">
		<tag k="name" v="Nakkane" />
		<tag k="place" v="locality" />
		<tag k="ssr:stedsnr" v="95325" />
	</node>
	<node id="-572019" lat="62.4364138891" lon="6.99300000318">
		<tag k="name" v="Skura" />
		<tag k="natural" v="valley" />
		<tag k="old_name" v="Storliskaret" />
		<tag k="place" v="locality" />
		<tag k="ssr:stedsnr" v="95285" />
	</node>
	<node id="-572015" lat="62.3726249992" lon="7.08404721831">
		<tag k="name" v="Mohjellane" />
		<tag k="place" v="locality" />
		<tag k="ssr:stedsnr" v="95058" />
	</node>
	<node id="-572014" lat="62.3727277811" lon="7.11125832661">
		<tag k="name" v="Bruabakkane" />
		<tag k="natural" v="slope" />
		<tag k="place" v="locality" />
		<tag k="ssr:stedsnr" v="95055" />
	</node>
	<node id="-572012" lat="62.3851999964" lon="6.97183889501">
		<tag k="name" v="Svanshaugen" />
		<tag k="natural" v="hill" />
		<tag k="place" v="locality" />
		<tag k="ssr:stedsnr" v="94999" />
	</node>
	<node id="-572011" lat="62.3448500026" lon="7.07460278369">
		<tag k="fixme" v="consider natural=peak for the most distinct mountains in the district" />
		<tag k="name" v="Øyehornet" />
		<tag k="natural" v="hill" />
		<tag k="place" v="locality" />
		<tag k="ssr:stedsnr" v="95209" />
	</node>
	<node id="-572010" lat="62.3841166664" lon="6.97667777821">
		<tag k="name" v="Tiljeberget" />
		<tag k="natural" v="hill" />
		<tag k="place" v="locality" />
		<tag k="ssr:stedsnr" v="94798" />
	</node>
	<node id="-572009" lat="62.3721499982" lon="6.95826389">
		<tag k="name" v="Holmefonna" />
		<tag k="natural" v="slope" />
		<tag k="place" v="locality" />
		<tag k="ssr:stedsnr" v="94793" />
	</node>
	<node id="-572008" lat="62.374058331" lon="6.93656111705">
		<tag k="name" v="Fjøsberget" />
		<tag k="natural" v="hill" />
		<tag k="place" v="locality" />
		<tag k="ssr:stedsnr" v="94792" />
	</node>
	<node id="-572006" lat="62.3871527744" lon="6.88484721313">
		<tag k="name" v="Hagen" />
		<tag k="natural" v="slope" />
		<tag k="place" v="locality" />
		<tag k="ssr:stedsnr" v="94218" />
	</node>
	<node id="-572005" lat="62.3912638894" lon="6.87260555881">
		<tag k="name" v="Man" />
		<tag k="natural" v="ridge" />
		<tag k="place" v="locality" />
		<tag k="ssr:stedsnr" v="94207" />
	</node>
	<node id="-572003" lat="62.332980555" lon="7.08066667591">
		<tag k="name" v="Stavsengfjellet" />
		<tag k="natural" v="slope" />
		<tag k="place" v="locality" />
		<tag k="ssr:stedsnr" v="91836" />
	</node>
	<node id="-572001" lat="62.4589055582" lon="7.22160277583">
		<tag k="name" v="Jolbotnen" />
		<tag k="natural" v="valley" />
		<tag k="place" v="locality" />
		<tag k="ssr:stedsnr" v="72979" />
	</node>
	<node id="-572000" lat="62.4685527775" lon="7.26474722676">
		<tag k="fixme" v="consider natural=peak for the most distinct mountains in the district" />
		<tag k="name" v="Månvasstinden" />
		<tag k="natural" v="hill" />
		<tag k="place" v="locality" />
		<tag k="ssr:stedsnr" v="72883" />
	</node>
	<node id="-571999" lat="62.340522219" lon="7.26266110187">
		<tag k="name" v="Koppen" />
		<tag k="natural" v="valley" />
		<tag k="place" v="locality" />
		<tag k="ssr:stedsnr" v="72786" />
	</node>
	<node id="-571998" lat="62.4060777776" lon="7.19249165758">
		<tag k="name" v="Øranakken" />
		<tag k="natural" v="hill" />
		<tag k="place" v="locality" />
		<tag k="ssr:stedsnr" v="72713" />
	</node>
	<node id="-571997" lat="62.3934361129" lon="7.15140555352">
		<tag k="name" v="Svodene" />
		<tag k="natural" v="slope" />
		<tag k="place" v="locality" />
		<tag k="ssr:stedsnr" v="72704" />
	</node>
	<node id="-571996" lat="62.3813277812" lon="6.83698611601">
		<tag k="name" v="Møsegga" />
		<tag k="natural" v="hill" />
		<tag k="place" v="locality" />
		<tag k="ssr:stedsnr" v="72695" />
	</node>
	<node id="-571993" lat="62.3485305552" lon="7.19556945126">
		<tag k="fixme" v="consider natural=peak for the most distinct mountains in the district" />
		<tag k="name" v="Blåtinden" />
		<tag k="natural" v="hill" />
		<tag k="place" v="locality" />
		<tag k="ssr:stedsnr" v="72524" />
	</node>
	<node id="-571992" lat="62.4843638847" lon="7.23338054976">
		<tag k="fixme" v="consider natural=peak for the most distinct mountains in the district" />
		<tag k="name" v="Sandfjellet" />
		<tag k="natural" v="hill" />
		<tag k="place" v="locality" />
		<tag k="ssr:stedsnr" v="71905" />
	</node>
	<node id="-571991" lat="62.3563777768" lon="7.22846944131">
		<tag k="fixme" v="consider natural=peak for the most distinct mountains in the district" />
		<tag k="name" v="Tuva" />
		<tag k="natural" v="hill" />
		<tag k="place" v="locality" />
		<tag k="ssr:stedsnr" v="71820" />
	</node>
	<node id="-571989" lat="62.4343916692" lon="6.97219722265">
		<tag k="name" v="Tverrbotnen" />
		<tag k="natural" v="valley" />
		<tag k="place" v="locality" />
		<tag k="ssr:stedsnr" v="71725" />
	</node>
	<node id="-571988" lat="62.4274138909" lon="7.01449444757">
		<tag k="name" v="Lågheia" />
		<tag k="natural" v="hill" />
		<tag k="place" v="locality" />
		<tag k="ssr:stedsnr" v="71705" />
	</node>
	<node id="-571985" lat="62.3938333289" lon="7.2241944416">
		<tag k="name" v="Litleløhjellen" />
		<tag k="place" v="locality" />
		<tag k="ssr:stedsnr" v="35875" />
	</node>
	<node id="-571981" lat="62.4112222221" lon="7.20221111108">
		<tag k="name" v="Fonneteigane" />
		<tag k="natural" v="slope" />
		<tag k="place" v="locality" />
		<tag k="ssr:stedsnr" v="35823" />
	</node>
	<node id="-571977" lat="62.3784055562" lon="7.10329999563">
		<tag k="name" v="Sletthjellen" />
		<tag k="place" v="locality" />
		<tag k="ssr:stedsnr" v="35150" />
	</node>
	<node id="-571976" lat="62.3831777814" lon="7.10586388893">
		<tag k="name" v="Høgebakken" />
		<tag k="natural" v="slope" />
		<tag k="place" v="locality" />
		<tag k="ssr:stedsnr" v="35149" />
	</node>
	<node id="-571971" lat="62.3829277787" lon="7.16589444813">
		<tag k="name" v="Nygjerdet" />
		<tag k="natural" v="slope" />
		<tag k="place" v="locality" />
		<tag k="ssr:stedsnr" v="34834" />
	</node>
	<node id="-571970" lat="62.3889888846" lon="7.16861110547">
		<tag k="name" v="Turrmarkslættet" />
		<tag k="natural" v="slope" />
		<tag k="place" v="locality" />
		<tag k="ssr:stedsnr" v="34831" />
	</node>
	<node id="-571969" lat="62.3857555567" lon="7.1791055501">
		<tag k="name" v="Storløslættet" />
		<tag k="natural" v="slope" />
		<tag k="place" v="locality" />
		<tag k="ssr:stedsnr" v="34820" />
	</node>
	<node id="-571968" lat="62.3913861076" lon="7.16596944837">
		<tag k="name" v="Litlenausa" />
		<tag k="natural" v="hill" />
		<tag k="place" v="locality" />
		<tag k="ssr:stedsnr" v="34817" />
	</node>
	<node id="-571967" lat="62.4000999992" lon="6.95596944074">
		<tag k="name" v="Kvitfjellet" />
		<tag k="place" v="locality" />
		<tag k="ssr:stedsnr" v="34678" />
	</node>
	<node id="-571966" lat="62.3433166663" lon="7.10717499618">
		<tag k="name" v="Setrenakken" />
		<tag k="natural" v="ridge" />
		<tag k="place" v="locality" />
		<tag k="ssr:stedsnr" v="34554" />
	</node>
	<node id="-571965" lat="62.352702776" lon="7.09031665743">
		<tag k="name" v="Hagarden" />
		<tag k="natural" v="slope" />
		<tag k="place" v="locality" />
		<tag k="ssr:stedsnr" v="34532" />
	</node>
	<node id="-571964" lat="62.3492583345" lon="7.08046945268">
		<tag k="name" v="Hagardsteigane" />
		<tag k="natural" v="slope" />
		<tag k="place" v="locality" />
		<tag k="ssr:stedsnr" v="34527" />
	</node>
	<node id="-571963" lat="62.3689638894" lon="7.08761388374">
		<tag k="name" v="Mogjerda" />
		<tag k="natural" v="slope" />
		<tag k="place" v="locality" />
		<tag k="ssr:stedsnr" v="34515" />
	</node>
	<node id="-571962" lat="62.3412833331" lon="7.12681389044">
		<tag k="name" v="Grønbakkane" />
		<tag k="natural" v="slope" />
		<tag k="place" v="locality" />
		<tag k="ssr:stedsnr" v="34438" />
	</node>
	<node id="-571961" lat="62.3418361136" lon="7.1167166661">
		<tag k="name" v="Liateigane" />
		<tag k="natural" v="slope" />
		<tag k="place" v="locality" />
		<tag k="ssr:stedsnr" v="34426" />
	</node>
	<node id="-571959" lat="62.4353166707" lon="6.91952221305">
		<tag k="name" v="Almberget" />
		<tag k="natural" v="hill" />
		<tag k="place" v="locality" />
		<tag k="ssr:stedsnr" v="34367" />
	</node>
	<node id="-571958" lat="62.4241166658" lon="6.97047221333">
		<tag k="name" v="Ådalane" />
		<tag k="natural" v="valley" />
		<tag k="place" v="locality" />
		<tag k="ssr:stedsnr" v="34352" />
	</node>
	<node id="-571956" lat="62.4166361151" lon="6.95884721295">
		<tag k="name" v="Orhaugen" />
		<tag k="natural" v="hill" />
		<tag k="place" v="locality" />
		<tag k="ssr:stedsnr" v="34344" />
	</node>
	<node id="-571952" lat="62.4206666639" lon="6.94865277173">
		<tag k="name" v="Ursletta" />
		<tag k="place" v="locality" />
		<tag k="ssr:stedsnr" v="34272" />
	</node>
	<node id="-571951" lat="62.3875972241" lon="6.97168054642">
		<tag k="name" v="Ospalia" />
		<tag k="natural" v="slope" />
		<tag k="place" v="locality" />
		<tag k="ssr:stedsnr" v="34000" />
	</node>
	<node id="-571950" lat="62.3887027816" lon="6.97521111306">
		<tag k="name" v="Litlelia" />
		<tag k="natural" v="slope" />
		<tag k="place" v="locality" />
		<tag k="ssr:stedsnr" v="33999" />
	</node>
	<node id="-571947" lat="62.3738527786" lon="6.87764165838">
		<tag k="name" v="Seterhaugen" />
		<tag k="natural" v="hill" />
		<tag k="place" v="locality" />
		<tag k="ssr:stedsnr" v="33186" />
	</node>
	<node id="-571945" lat="62.3356888877" lon="7.09660278501">
		<tag k="name" v="Rødsetteigane" />
		<tag k="natural" v="slope" />
		<tag k="place" v="locality" />
		<tag k="ssr:stedsnr" v="30831" />
	</node>
	<node id="-571944" lat="62.3479555564" lon="7.07957500694">
		<tag k="name" v="Nykjen" />
		<tag k="natural" v="hill" />
		<tag k="place" v="locality" />
		<tag k="ssr:stedsnr" v="30825" />
	</node>
	<node id="-571941" lat="62.3935944467" lon="7.23770554893">
		<tag k="fixme" v="consider natural=peak for the most distinct mountains in the district" />
		<tag k="name" v="Storhornet" />
		<tag k="natural" v="hill" />
		<tag k="place" v="locality" />
		<tag k="ssr:stedsnr" v="11967" />
	</node>
	<node id="-571940" lat="62.4619055519" lon="7.2505138917">
		<tag k="name" v="Trollbotn" />
		<tag k="natural" v="valley" />
		<tag k="place" v="locality" />
		<tag k="ssr:stedsnr" v="11897" />
	</node>
	<node id="-571939" lat="62.3973583371" lon="7.03972222512">
		<tag k="name" v="Reset" />
		<tag k="natural" v="hill" />
		<tag k="place" v="locality" />
		<tag k="ssr:stedsnr" v="11737" />
	</node>
	<node id="-571936" lat="62.4124222194" lon="7.13344999848">
		<tag k="name" v="Jasvollbotnen" />
		<tag k="natural" v="valley" />
		<tag k="place" v="locality" />
		<tag k="ssr:stedsnr" v="11631" />
	</node>
	<node id="-571935" lat="62.4037722229" lon="6.96168611406">
		<tag k="fixme" v="consider natural=peak for the most distinct mountains in the district" />
		<tag k="name" v="Stavneshornet" />
		<tag k="natural" v="hill" />
		<tag k="place" v="locality" />
		<tag k="ssr:stedsnr" v="11629" />
	</node>
	<node id="-571934" lat="62.355325003" lon="7.05496666768">
		<tag k="name" v="Vadbotnen" />
		<tag k="natural" v="valley" />
		<tag k="old_name" v="Vadbotn" />
		<tag k="place" v="locality" />
		<tag k="ssr:stedsnr" v="11556" />
	</node>
	<node id="-571933" lat="62.4567416696" lon="7.17500833956">
		<tag k="fixme" v="consider natural=peak for the most distinct mountains in the district" />
		<tag k="name" v="Litleskorka" />
		<tag k="natural" v="hill" />
		<tag k="old_name" v="Litleskorkja" />
		<tag k="place" v="locality" />
		<tag k="ssr:stedsnr" v="11360" />
	</node>
	<node id="-571928" lat="62.3713916705" lon="7.16010833775">
		<tag k="name" v="Tuva" />
		<tag k="natural" v="hill" />
		<tag k="old_name" v="Tua" />
		<tag k="place" v="locality" />
		<tag k="ssr:stedsnr" v="10705" />
	</node>
	<node id="-571927" lat="62.4214802011" lon="7.23531134216">
		<tag k="name" v="Knepet" />
		<tag k="place" v="locality" />
		<tag k="ssr:stedsnr" v="988881" />
	</node>
	<node id="-571926" lat="62.422981332" lon="7.23161938241">
		<tag k="name" v="Haugane" />
		<tag k="natural" v="hill" />
		<tag k="place" v="locality" />
		<tag k="ssr:stedsnr" v="988878" />
	</node>
	<node id="-571900" lat="62.4171416705" lon="7.2439944368">
		<tag k="name" v="Herda" />
		<tag k="place" v="locality" />
		<tag k="ssr:stedsnr" v="885629" />
	</node>
	<node id="-571899" lat="62.4040111151" lon="7.20530277434">
		<tag k="name" v="Buhamrane" />
		<tag k="place" v="locality" />
		<tag k="ssr:stedsnr" v="885623" />
	</node>
	<node id="-571898" lat="62.3863111139" lon="7.16029722296">
		<tag k="name" v="Høystakkslættet" />
		<tag k="place" v="locality" />
		<tag k="ssr:stedsnr" v="885159" />
	</node>
	<node id="-571897" lat="62.388227774" lon="7.15932223132">
		<tag k="name" v="Svødene" />
		<tag k="natural" v="slope" />
		<tag k="place" v="locality" />
		<tag k="ssr:stedsnr" v="885130" />
	</node>
	<node id="-571896" lat="62.3712944453" lon="7.13416110401">
		<tag k="name" v="Fanne" />
		<tag k="natural" v="slope" />
		<tag k="place" v="locality" />
		<tag k="ssr:stedsnr" v="885110" />
	</node>
	<node id="-571895" lat="62.3850583336" lon="7.15853054638">
		<tag k="name" v="Lianesgjerdet" />
		<tag k="natural" v="slope" />
		<tag k="place" v="locality" />
		<tag k="ssr:stedsnr" v="885101" />
	</node>
	<node id="-571892" lat="62.3810638915" lon="7.20434722263">
		<tag k="name" v="Svora" />
		<tag k="place" v="locality" />
		<tag k="ssr:stedsnr" v="884833" />
	</node>
	<node id="-571889" lat="62.4239472183" lon="7.0219527721">
		<tag k="name" v="Svartevassdalsaksla" />
		<tag k="place" v="locality" />
		<tag k="ssr:stedsnr" v="884407" />
	</node>
	<node id="-571888" lat="62.4315500004" lon="6.94618888338">
		<tag k="name" v="Lialia" />
		<tag k="natural" v="slope" />
		<tag k="place" v="locality" />
		<tag k="ssr:stedsnr" v="884374" />
	</node>
	<node id="-571887" lat="62.4334666693" lon="6.93857778356">
		<tag k="name" v="Fjellgylet" />
		<tag k="natural" v="gorge" />
		<tag k="ssr:stedsnr" v="884371" />
	</node>
	<node id="-571886" lat="62.4342777768" lon="7.01552499688">
		<tag k="name" v="Høghaugen" />
		<tag k="natural" v="hill" />
		<tag k="place" v="locality" />
		<tag k="ssr:stedsnr" v="884360" />
	</node>
	<node id="-571884" lat="62.448086111" lon="7.18808611971">
		<tag k="name" v="Vassbakkane" />
		<tag k="natural" v="slope" />
		<tag k="place" v="locality" />
		<tag k="ssr:stedsnr" v="884167" />
	</node>
	<node id="-571883" lat="62.3750805566" lon="7.05516388062">
		<tag k="name" v="Liene" />
		<tag k="natural" v="slope" />
		<tag k="place" v="locality" />
		<tag k="ssr:stedsnr" v="884043" />
	</node>
	<node id="-571882" lat="62.4185722212" lon="6.88260000656">
		<tag k="name" v="Ytstegjølet" />
		<tag k="natural" v="gorge" />
		<tag k="ssr:stedsnr" v="883902" />
	</node>
	<node id="-571880" lat="62.4075722218" lon="6.88535277273">
		<tag k="name" v="Heiane" />
		<tag k="natural" v="hill" />
		<tag k="place" v="locality" />
		<tag k="ssr:stedsnr" v="883897" />
	</node>
	<node id="-571879" lat="62.3978388904" lon="6.87292221968">
		<tag k="name" v="Hesten" />
		<tag k="natural" v="valley" />
		<tag k="place" v="locality" />
		<tag k="ssr:stedsnr" v="883894" />
	</node>
	<node id="-571877" lat="62.3862555516" lon="6.98727776943">
		<tag k="name" v="Smigylet" />
		<tag k="natural" v="gorge" />
		<tag k="ssr:stedsnr" v="883669" />
	</node>
	<node id="-571876" lat="62.3811444433" lon="6.86284165947">
		<tag k="name" v="Møsetbotn" />
		<tag k="natural" v="valley" />
		<tag k="place" v="locality" />
		<tag k="ssr:stedsnr" v="883203" />
	</node>
	<node id="-571873" lat="62.3726277815" lon="7.25236111795">
		<tag k="name" v="Langhaugen" />
		<tag k="natural" v="hill" />
		<tag k="place" v="locality" />
		<tag k="ssr:stedsnr" v="399816" />
	</node>
	<node id="-571871" lat="62.3964138931" lon="7.20257500049">
		<tag k="name" v="Øvste Liaslættet" />
		<tag k="natural" v="slope" />
		<tag k="place" v="locality" />
		<tag k="ssr:stedsnr" v="399729" />
	</node>
	<node id="-571869" lat="62.4168277755" lon="7.30829443558">
		<tag k="name" v="Langedalsrørene" />
		<tag k="natural" v="ridge" />
		<tag k="place" v="locality" />
		<tag k="ssr:stedsnr" v="399684" />
	</node>
	<node id="-571868" lat="62.4081888918" lon="7.20226943726">
		<tag k="name" v="Litlelia" />
		<tag k="natural" v="slope" />
		<tag k="place" v="locality" />
		<tag k="ssr:stedsnr" v="399567" />
	</node>
	<node id="-571866" lat="62.3733416632" lon="7.06973333197">
		<tag k="name" v="Moflatene" />
		<tag k="place" v="locality" />
		<tag k="ssr:stedsnr" v="399085" />
	</node>
	<node id="-571865" lat="62.4102499968" lon="6.95128332515">
		<tag k="name" v="Furnakken" />
		<tag k="natural" v="slope" />
		<tag k="place" v="locality" />
		<tag k="ssr:stedsnr" v="398688" />
	</node>
	<node id="-571863" lat="62.3987777783" lon="6.95755554794">
		<tag k="name" v="Stabben" />
		<tag k="natural" v="hill" />
		<tag k="place" v="locality" />
		<tag k="ssr:stedsnr" v="398681" />
	</node>
	<node id="-571862" lat="62.3866777774" lon="6.99494722197">
		<tag k="name" v="Røbbane" />
		<tag k="natural" v="slope" />
		<tag k="place" v="locality" />
		<tag k="ssr:stedsnr" v="398557" />
	</node>
	<node id="-571861" lat="62.3526944401" lon="7.09755833598">
		<tag k="name" v="Brattfjellet" />
		<tag k="place" v="locality" />
		<tag k="ssr:stedsnr" v="398544" />
	</node>
	<node id="-571858" lat="62.4383277783" lon="6.91573610952">
		<tag k="name" v="Gylet" />
		<tag k="natural" v="gorge" />
		<tag k="ssr:stedsnr" v="398299" />
	</node>
	<node id="-571856" lat="62.386363886" lon="6.96108610228">
		<tag k="name" v="Kjerringa" />
		<tag k="natural" v="slope" />
		<tag k="place" v="locality" />
		<tag k="ssr:stedsnr" v="397999" />
	</node>
	<node id="-571853" lat="62.4504722221" lon="7.31389722772">
		<tag k="name" v="Ådalen" />
		<tag k="natural" v="valley" />
		<tag k="place" v="locality" />
		<tag k="ssr:stedsnr" v="385304" />
	</node>
	<node id="-571852" lat="62.4780499979" lon="7.2495472164">
		<tag k="fixme" v="consider natural=peak for the most distinct mountains in the district" />
		<tag k="name" v="Kvasstinden" />
		<tag k="natural" v="hill" />
		<tag k="place" v="locality" />
		<tag k="ssr:stedsnr" v="375875" />
	</node>
	<node id="-571851" lat="62.404688891" lon="7.07212778297">
		<tag k="name" v="Rikjendbotnen" />
		<tag k="natural" v="valley" />
		<tag k="old_name" v="Rikjendbotn" />
		<tag k="place" v="locality" />
		<tag k="ssr:stedsnr" v="375718" />
	</node>
	<node id="-571850" lat="62.3496500003" lon="7.08331111356">
		<tag k="name" v="Rødsetdalen" />
		<tag k="natural" v="valley" />
		<tag k="place" v="locality" />
		<tag k="ssr:stedsnr" v="375522" />
	</node>
	<node id="-571848" lat="62.4522638866" lon="7.2077888977">
		<tag k="fixme" v="consider natural=peak for the most distinct mountains in the district" />
		<tag k="name" v="Storlihornet" />
		<tag k="natural" v="hill" />
		<tag k="place" v="locality" />
		<tag k="ssr:stedsnr" v="375325" />
	</node>
	<node id="-571847" lat="62.3872416698" lon="7.27603055996">
		<tag k="name" v="Jolbotnen" />
		<tag k="natural" v="valley" />
		<tag k="place" v="locality" />
		<tag k="ssr:stedsnr" v="374967" />
	</node>
	<node id="-571846" lat="62.4123499966" lon="7.1661527849">
		<tag k="fixme" v="consider natural=peak for the most distinct mountains in the district" />
		<tag k="name" v="Auskjeret" />
		<tag k="natural" v="hill" />
		<tag k="place" v="locality" />
		<tag k="ssr:stedsnr" v="374757" />
	</node>
	<node id="-571839" lat="62.3974166657" lon="6.89843611353">
		<tag k="name" v="Limurshola" />
		<tag k="place" v="locality" />
		<tag k="ssr:stedsnr" v="355272" />
	</node>
	<node id="-571835" lat="62.4319500013" lon="7.30271388953">
		<tag k="name" v="Instelitlelia" />
		<tag k="natural" v="slope" />
		<tag k="place" v="locality" />
		<tag k="ssr:stedsnr" v="339700" />
	</node>
	<node id="-571834" lat="62.4207361128" lon="7.28924443972">
		<tag k="name" v="Langedalen" />
		<tag k="natural" v="valley" />
		<tag k="place" v="locality" />
		<tag k="ssr:stedsnr" v="339686" />
	</node>
	<node id="-571833" lat="62.3861500033" lon="7.19156945004">
		<tag k="name" v="Legene" />
		<tag k="natural" v="slope" />
		<tag k="place" v="locality" />
		<tag k="ssr:stedsnr" v="338852" />
	</node>
	<node id="-571830" lat="62.4036555516" lon="7.00710277948">
		<tag k="name" v="Høystakkhamrane" />
		<tag k="place" v="locality" />
		<tag k="ssr:stedsnr" v="338510" />
	</node>
	<node id="-571829" lat="62.4088694411" lon="7.00432777631">
		<tag k="name" v="Blålia" />
		<tag k="natural" v="slope" />
		<tag k="place" v="locality" />
		<tag k="ssr:stedsnr" v="338503" />
	</node>
	<node id="-571828" lat="62.4003166648" lon="6.99920277117">
		<tag k="name" v="Vinjeegga" />
		<tag k="natural" v="ridge" />
		<tag k="place" v="locality" />
		<tag k="ssr:stedsnr" v="338496" />
	</node>
	<node id="-571826" lat="62.4282333352" lon="6.96091945091">
		<tag k="name" v="Framsæterlia" />
		<tag k="natural" v="slope" />
		<tag k="place" v="locality" />
		<tag k="ssr:stedsnr" v="338339" />
	</node>
	<node id="-571825" lat="62.3831888928" lon="7.16344722464">
		<tag k="name" v="Synnøvegjerdet" />
		<tag k="natural" v="slope" />
		<tag k="place" v="locality" />
		<tag k="ssr:stedsnr" v="338085" />
	</node>
	<node id="-571824" lat="62.382413887" lon="7.14236944317">
		<tag k="name" v="Ytsteløslættet" />
		<tag k="place" v="locality" />
		<tag k="ssr:stedsnr" v="338077" />
	</node>
	<node id="-571823" lat="62.3736888906" lon="7.09208332666">
		<tag k="name" v="Veitebakken" />
		<tag k="natural" v="slope" />
		<tag k="place" v="locality" />
		<tag k="ssr:stedsnr" v="338070" />
	</node>
	<node id="-571820" lat="62.3752361101" lon="7.04199166988">
		<tag k="name" v="Herda" />
		<tag k="natural" v="cliff" />
		<tag k="ssr:stedsnr" v="338043" />
	</node>
	<node id="-571818" lat="62.3590333298" lon="6.94966110762">
		<tag k="name" v="Timbregylet" />
		<tag k="natural" v="gorge" />
		<tag k="old_name" v="Bytegylet" />
		<tag k="ssr:stedsnr" v="337764" />
	</node>
	<node id="-571817" lat="62.3744277735" lon="6.93479443945">
		<tag k="name" v="Holmekråka" />
		<tag k="natural" v="hill" />
		<tag k="place" v="locality" />
		<tag k="ssr:stedsnr" v="337751" />
	</node>
	<node id="-571816" lat="62.3709722244" lon="6.94268610514">
		<tag k="name" v="Svinerota" />
		<tag k="natural" v="cliff" />
		<tag k="ssr:stedsnr" v="337750" />
	</node>
	<node id="-571813" lat="62.3888305552" lon="7.0303333274">
		<tag k="name" v="Svarthammaren" />
		<tag k="place" v="locality" />
		<tag k="ssr:stedsnr" v="337598" />
	</node>
	<node id="-571812" lat="62.3808583368" lon="6.87816111975">
		<tag k="name" v="Storskrea" />
		<tag k="place" v="locality" />
		<tag k="ssr:stedsnr" v="337190" />
	</node>
	<node id="-571809" lat="62.3311527772" lon="7.087455551">
		<tag k="name" v="Øyeholen" />
		<tag k="natural" v="slope" />
		<tag k="place" v="locality" />
		<tag k="ssr:stedsnr" v="333817" />
	</node>
	<node id="-571804" lat="62.3657972216" lon="7.28222777169">
		<tag k="name" v="Tverrbotnen" />
		<tag k="natural" v="valley" />
		<tag k="place" v="locality" />
		<tag k="ssr:stedsnr" v="314788" />
	</node>
	<node id="-571803" lat="62.3860388873" lon="6.83098056129">
		<tag k="name" v="Storheirøra" />
		<tag k="natural" v="hill" />
		<tag k="place" v="locality" />
		<tag k="ssr:stedsnr" v="314730" />
	</node>
	<node id="-571802" lat="62.3890166651" lon="6.83594999555">
		<tag k="name" v="Kalvdalen" />
		<tag k="natural" v="valley" />
		<tag k="old_name" v="Kalddalen" />
		<tag k="place" v="locality" />
		<tag k="ssr:stedsnr" v="314729" />
	</node>
	<node id="-571800" lat="62.4202222203" lon="6.87562500931">
		<tag k="name" v="Storhammaren" />
		<tag k="natural" v="hill" />
		<tag k="place" v="locality" />
		<tag k="ssr:stedsnr" v="314680" />
	</node>
	<node id="-571798" lat="62.4081944448" lon="6.96316944736">
		<tag k="name" v="Stavnesbotn" />
		<tag k="natural" v="valley" />
		<tag k="place" v="locality" />
		<tag k="ssr:stedsnr" v="314649" />
	</node>
	<node id="-571796" lat="62.3910361146" lon="7.04747777993">
		<tag k="name" v="Nova" />
		<tag k="natural" v="ridge" />
		<tag k="place" v="locality" />
		<tag k="ssr:stedsnr" v="294731" />
	</node>
	<node id="-571794" lat="62.4288472239" lon="7.03353334036">
		<tag k="name" v="Ryggane" />
		<tag k="natural" v="ridge" />
		<tag k="place" v="locality" />
		<tag k="ssr:stedsnr" v="294380" />
	</node>
	<node id="-571792" lat="62.4431583354" lon="7.22055278534">
		<tag k="name" v="Storliheia" />
		<tag k="natural" v="hill" />
		<tag k="place" v="locality" />
		<tag k="ssr:stedsnr" v="278861" />
	</node>
	<node id="-571791" lat="62.4333944404" lon="7.30839166053">
		<tag k="name" v="Brynebottshaugane" />
		<tag k="natural" v="hill" />
		<tag k="place" v="locality" />
		<tag k="ssr:stedsnr" v="278731" />
	</node>
	<node id="-571788" lat="62.4081166699" lon="7.21770554825">
		<tag k="name" v="Brendhaugen" />
		<tag k="natural" v="hill" />
		<tag k="place" v="locality" />
		<tag k="ssr:stedsnr" v="277885" />
	</node>
	<node id="-571787" lat="62.3842000012" lon="7.16601944684">
		<tag k="name" v="Nymarkslættet" />
		<tag k="natural" v="slope" />
		<tag k="place" v="locality" />
		<tag k="ssr:stedsnr" v="277873" />
	</node>
	<node id="-571786" lat="62.3875527788" lon="7.18342500885">
		<tag k="name" v="Slettebakken" />
		<tag k="natural" v="slope" />
		<tag k="old_name" v="Smalebakken" />
		<tag k="place" v="locality" />
		<tag k="ssr:stedsnr" v="277868" />
	</node>
	<node id="-571785" lat="62.4028861098" lon="7.20786944178">
		<tag k="name" v="Småbakkane" />
		<tag k="natural" v="slope" />
		<tag k="place" v="locality" />
		<tag k="ssr:stedsnr" v="277675" />
	</node>
	<node id="-571783" lat="62.3643666641" lon="7.10841388153">
		<tag k="name" v="Buskrea" />
		<tag k="place" v="locality" />
		<tag k="ssr:stedsnr" v="277529" />
	</node>
	<node id="-571780" lat="62.413227781" lon="6.9600194465">
		<tag k="name" v="Vikaberget" />
		<tag k="place" v="locality" />
		<tag k="ssr:stedsnr" v="277347" />
	</node>
	<node id="-571779" lat="62.4350944455" lon="6.92359999674">
		<tag k="name" v="Mårskogteigen" />
		<tag k="place" v="locality" />
		<tag k="ssr:stedsnr" v="277273" />
	</node>
	<node id="-571777" lat="62.3777888853" lon="7.1275333308">
		<tag k="name" v="Hogstrane" />
		<tag k="natural" v="slope" />
		<tag k="place" v="locality" />
		<tag k="ssr:stedsnr" v="277127" />
	</node>
	<node id="-571776" lat="62.3813555571" lon="7.11405554756">
		<tag k="name" v="Kriken" />
		<tag k="natural" v="slope" />
		<tag k="place" v="locality" />
		<tag k="ssr:stedsnr" v="277121" />
	</node>
	<node id="-571775" lat="62.3844166699" lon="7.12465833708">
		<tag k="name" v="Liaslættet" />
		<tag k="natural" v="slope" />
		<tag k="place" v="locality" />
		<tag k="ssr:stedsnr" v="277120" />
	</node>
	<node id="-571774" lat="62.3917611087" lon="6.97288888943">
		<tag k="name" v="Hovsnakken" />
		<tag k="natural" v="hill" />
		<tag k="place" v="locality" />
		<tag k="ssr:stedsnr" v="276994" />
	</node>
	<node id="-571772" lat="62.3730916659" lon="6.97216389538">
		<tag k="name" v="Styggegylet" />
		<tag k="natural" v="gorge" />
		<tag k="ssr:stedsnr" v="276799" />
	</node>
</osm>
