<?xml version="1.0" encoding="UTF-8"?>
<osm generator="osmapis" version="0.6">
	<node id="-571519" lat="62.3739583368" lon="6.88539166543">
		<tag k="highway" v="path" />
		<tag k="name" v="Seterstien" />
		<tag k="ssr:stedsnr" v="701177" />
	</node>
	<node id="-571127" lat="62.3829388883" lon="7.03079722554">
		<tag k="bridge" v="yes" />
		<tag k="layer" v="1" />
		<tag k="name" v="Øvrebustbrua" />
		<tag k="ssr:stedsnr" v="42995" />
	</node>
	<node id="-571251" lat="62.4323777738" lon="6.92663055708">
		<tag k="layer" v="-1" />
		<tag k="name" v="Dyrkorntunnelen" />
		<tag k="ssr:stedsnr" v="206437" />
		<tag k="tunnel" v="yes" />
	</node>
	<node id="-570979" lat="62.3674888876" lon="7.08665000208">
		<tag k="bridge" v="yes" />
		<tag k="layer" v="1" />
		<tag k="name" v="Vadbrua" />
		<tag k="ssr:stedsnr" v="346990" />
	</node>
	<node id="-570978" lat="62.3886000032" lon="7.17872499634">
		<tag k="bridge" v="yes" />
		<tag k="layer" v="1" />
		<tag k="name" v="Almåsbrua" />
		<tag k="ssr:stedsnr" v="346877" />
	</node>
	<node id="-571359" lat="62.4012442702" lon="6.95491603808">
		<tag k="layer" v="-1" />
		<tag k="name" v="Stordalstunnelen" />
		<tag k="ssr:stedsnr" v="506299" />
		<tag k="tunnel" v="yes" />
	</node>
	<node id="-571613" lat="62.3796138906" lon="7.0953999993">
		<tag k="highway" v="path" />
		<tag k="name" v="Heistien" />
		<tag k="ssr:stedsnr" v="824106" />
	</node>
	<node id="-571478" lat="62.3557472235" lon="6.94851945226">
		<tag k="fixme" v="verify maritime location" />
		<tag k="mooring" v="yes" />
		<tag k="name" v="Djupdalsstøa" />
		<tag k="place" v="locality" />
		<tag k="ssr:stedsnr" v="640774" />
	</node>
	<node id="-571476" lat="62.3710972256" lon="6.95028611819">
		<tag k="highway" v="path" />
		<tag k="name" v="Peknutstien" />
		<tag k="ssr:stedsnr" v="640747" />
	</node>
	<node id="-571084" lat="62.4198444421" lon="6.94837500361">
		<tag k="bridge" v="yes" />
		<tag k="layer" v="1" />
		<tag k="name" v="Flatebergbrua" />
		<tag k="ssr:stedsnr" v="22671" />
	</node>
	<node id="-571210" lat="62.3673555571" lon="6.95041111282">
		<tag k="highway" v="path" />
		<tag k="name" v="Sætrevegen" />
		<tag k="ssr:stedsnr" v="155734" />
	</node>
	<node id="-571201" lat="62.3409861127" lon="7.09856111244">
		<tag k="junction" v="yes" />
		<tag k="name" v="Sætrevegskiftet" />
		<tag k="place" v="locality" />
		<tag k="ssr:stedsnr" v="151840" />
	</node>
	<node id="-571581" lat="62.3829388848" lon="6.98647499271">
		<tag k="bridge" v="yes" />
		<tag k="layer" v="1" />
		<tag k="name" v="Stordalsgangbrua" />
		<tag k="ssr:stedsnr" v="771886" />
	</node>
	<node id="-571487" lat="62.3486611075" lon="7.0920138973">
		<tag k="junction" v="yes" />
		<tag k="name" v="Øyevegskiftet" />
		<tag k="place" v="locality" />
		<tag k="ssr:stedsnr" v="641527" />
	</node>
	<node id="-571064" lat="62.4194444546" lon="7.22217910257">
		<tag k="bridge" v="yes" />
		<tag k="layer" v="1" />
		<tag k="name" v="Kvitlebrua" />
		<tag k="ssr:stedsnr" v="988871" />
	</node>
	<node id="-570934" lat="62.3753444458" lon="7.1159249926">
		<tag k="bridge" v="yes" />
		<tag k="layer" v="1" />
		<tag k="name" v="Stavåbrua" />
		<tag k="ssr:stedsnr" v="285867" />
	</node>
	<node id="-571439" lat="62.3821722216" lon="7.16710277856">
		<tag k="bridge" v="yes" />
		<tag k="layer" v="1" />
		<tag k="name" v="Nakkebrua" />
		<tag k="ssr:stedsnr" v="580855" />
	</node>
	<node id="-571046" lat="62.3830027757" lon="7.03089444258">
		<tag k="bridge" v="yes" />
		<tag k="layer" v="1" />
		<tag k="name" v="Øvrebustgangbrua" />
		<tag k="ssr:stedsnr" v="892991" />
	</node>
	<node id="-571045" lat="62.3395166663" lon="7.09902776895">
		<tag k="bridge" v="yes" />
		<tag k="layer" v="1" />
		<tag k="name" v="Rødsetbrua" />
		<tag k="ssr:stedsnr" v="892990" />
	</node>
	<node id="-571541" lat="62.3829388848" lon="6.98647499271">
		<tag k="bridge" v="yes" />
		<tag k="layer" v="1" />
		<tag k="name" v="Stordalsbrua" />
		<tag k="ssr:stedsnr" v="710875" />
	</node>
	<node id="-571278" lat="62.3391888901" lon="7.09488611346">
		<tag k="bridge" v="yes" />
		<tag k="layer" v="1" />
		<tag k="name" v="Ekrebrua" />
		<tag k="ssr:stedsnr" v="225992" />
	</node>
	<node id="-571148" lat="62.3705083333" lon="6.94457222378">
		<tag k="highway" v="path" />
		<tag k="name" v="Holmestien" />
		<tag k="ssr:stedsnr" v="94789" />
	</node>
	<node id="-571016" lat="62.3825250035" lon="7.0410861182">
		<tag k="bridge" v="yes" />
		<tag k="layer" v="1" />
		<tag k="name" v="Nyløkbrua" />
		<tag k="ssr:stedsnr" v="407993" />
	</node>
	<node id="-571015" lat="62.4216138861" lon="6.94631667258">
		<tag k="bridge" v="yes" />
		<tag k="layer" v="1" />
		<tag k="name" v="Dyrkornbrua" />
		<tag k="ssr:stedsnr" v="407888" />
	</node>
</osm>
