<?xml version="1.0" encoding="UTF-8"?>
<osm generator="osmapis" version="0.6">
	<node id="-571392" lat="62.4230194435" lon="7.30721944039">
		<tag k="name" v="Kambelia" />
		<tag k="natural" v="slope" />
		<tag k="place" v="locality" />
		<tag k="ssr:stedsnr" v="521707" />
	</node>
	<node id="-571391" lat="62.4152194466" lon="7.23079443524">
		<tag k="name" v="Haggardshaugane" />
		<tag k="natural" v="hill" />
		<tag k="place" v="locality" />
		<tag k="ssr:stedsnr" v="521654" />
	</node>
	<node id="-571390" lat="62.3927250025" lon="7.17275278244">
		<tag k="name" v="Gyljane" />
		<tag k="natural" v="gorge" />
		<tag k="ssr:stedsnr" v="520745" />
	</node>
	<node id="-571389" lat="62.3924361079" lon="6.95475277531">
		<tag k="name" v="Spjøtura" />
		<tag k="natural" v="scree" />
		<tag k="ssr:stedsnr" v="520712" />
	</node>
	<node id="-571388" lat="62.4109555529" lon="6.94917500116">
		<tag k="name" v="Klipe" />
		<tag k="place" v="locality" />
		<tag k="ssr:stedsnr" v="520705" />
	</node>
	<node id="-571387" lat="62.3974888928" lon="7.21367777065">
		<tag k="name" v="Hjellvad" />
		<tag k="natural" v="shoal" />
		<tag k="place" v="locality" />
		<tag k="ssr:stedsnr" v="520701" />
	</node>
	<node id="-571386" lat="62.3464944468" lon="7.10572222964">
		<tag k="name" v="Grønlia" />
		<tag k="natural" v="slope" />
		<tag k="place" v="locality" />
		<tag k="ssr:stedsnr" v="520596" />
	</node>
	<node id="-571385" lat="62.3659388853" lon="7.09894444775">
		<tag k="name" v="Kalveskaret" />
		<tag k="natural" v="valley" />
		<tag k="place" v="locality" />
		<tag k="ssr:stedsnr" v="520570" />
	</node>
	<node id="-571384" lat="62.3620833314" lon="7.08256665818">
		<tag k="name" v="Eineneset" />
		<tag k="natural" v="cape" />
		<tag k="ssr:stedsnr" v="520552" />
	</node>
	<node id="-571383" lat="62.39342778" lon="7.00142222809">
		<tag k="name" v="Myrdalen" />
		<tag k="natural" v="valley" />
		<tag k="place" v="locality" />
		<tag k="ssr:stedsnr" v="520533" />
	</node>
	<node id="-571382" lat="62.4241083366" lon="6.94256111469">
		<tag k="name" v="Smihammaren" />
		<tag k="natural" v="cliff" />
		<tag k="ssr:stedsnr" v="520383" />
	</node>
	<node id="-571381" lat="62.3893777767" lon="7.16156944015">
		<tag k="name" v="Litleskaret" />
		<tag k="natural" v="valley" />
		<tag k="place" v="locality" />
		<tag k="ssr:stedsnr" v="520134" />
	</node>
	<node id="-571380" lat="62.3789305591" lon="7.14473611041">
		<tag k="name" v="Nedstegrøbbane" />
		<tag k="place" v="locality" />
		<tag k="ssr:stedsnr" v="520104" />
	</node>
	<node id="-571379" lat="62.3773944457" lon="7.15167777061">
		<tag k="historic" v="shieling" />
		<tag k="name" v="Litlesætra" />
		<tag k="place" v="locality" />
		<tag k="ssr:stedsnr" v="520083" />
	</node>
	<node id="-571378" lat="62.3705055556" lon="7.10012776937">
		<tag k="name" v="Holen" />
		<tag k="place" v="locality" />
		<tag k="ssr:stedsnr" v="520075" />
	</node>
	<node id="-571377" lat="62.3755694465" lon="7.09247778673">
		<tag k="historic" v="shieling" />
		<tag k="name" v="Gamlesætra" />
		<tag k="place" v="locality" />
		<tag k="ssr:stedsnr" v="520066" />
	</node>
	<node id="-571376" lat="62.3712388864" lon="7.10989167202">
		<tag k="name" v="Hesjebakkane" />
		<tag k="natural" v="slope" />
		<tag k="place" v="locality" />
		<tag k="ssr:stedsnr" v="520058" />
	</node>
	<node id="-571375" lat="62.3786611078" lon="7.05480000915">
		<tag k="name" v="Øyane" />
		<tag k="place" v="locality" />
		<tag k="ssr:stedsnr" v="520035" />
	</node>
	<node id="-571374" lat="62.3721611085" lon="6.93859443664">
		<tag k="name" v="Rorshamna" />
		<tag k="natural" v="bay" />
		<tag k="ssr:stedsnr" v="519914" />
	</node>
	<node id="-571373" lat="62.4383194476" lon="6.91583055874">
		<tag k="name" v="Almgjølet" />
		<tag k="natural" v="gorge" />
		<tag k="ssr:stedsnr" v="519867" />
	</node>
	<node id="-571372" lat="62.401441671" lon="6.87338611643">
		<tag k="name" v="Vidhammarelva" />
		<tag k="ssr:stedsnr" v="519848" />
		<tag k="waterway" v="stream" />
	</node>
	<node id="-571371" lat="62.3529500023" lon="6.95942500873">
		<tag k="name" v="Fløtåkamben" />
		<tag k="natural" v="ridge" />
		<tag k="place" v="locality" />
		<tag k="ssr:stedsnr" v="519770" />
	</node>
	<node id="-571370" lat="62.3738111072" lon="6.94300832784">
		<tag k="name" v="Sersjantura" />
		<tag k="natural" v="scree" />
		<tag k="ssr:stedsnr" v="519762" />
	</node>
	<node id="-571369" lat="62.3711055523" lon="6.94489999163">
		<tag k="name" v="Holmeaksla" />
		<tag k="place" v="locality" />
		<tag k="ssr:stedsnr" v="519759" />
	</node>
	<node id="-571368" lat="62.3891861125" lon="7.01426111306">
		<tag k="name" v="Ådalen" />
		<tag k="natural" v="valley" />
		<tag k="place" v="locality" />
		<tag k="ssr:stedsnr" v="519632" />
	</node>
	<node id="-571367" lat="62.3811138921" lon="7.00959722478">
		<tag k="name" v="Kirkebøsandane" />
		<tag k="place" v="locality" />
		<tag k="ssr:stedsnr" v="519628" />
	</node>
	<node id="-571366" lat="62.3814694458" lon="6.98480833667">
		<tag k="name" v="Vinjebugen" />
		<tag k="natural" v="bay" />
		<tag k="ssr:stedsnr" v="519624" />
	</node>
	<node id="-571365" lat="62.3823583373" lon="6.99693610398">
		<tag k="name" v="Vinjebrauta" />
		<tag k="natural" v="slope" />
		<tag k="place" v="locality" />
		<tag k="ssr:stedsnr" v="519614" />
	</node>
	<node id="-571364" lat="62.3799472183" lon="6.9940583279">
		<tag k="name" v="Vollane" />
		<tag k="natural" v="slope" />
		<tag k="place" v="locality" />
		<tag k="ssr:stedsnr" v="519609" />
	</node>
	<node id="-571363" lat="62.3787027757" lon="6.87671111419">
		<tag k="name" v="Bytegrova" />
		<tag k="ssr:stedsnr" v="519190" />
		<tag k="waterway" v="stream" />
	</node>
	<node id="-571362" lat="62.3776916709" lon="6.87623889813">
		<tag k="name" v="Kilen" />
		<tag k="natural" v="valley" />
		<tag k="place" v="locality" />
		<tag k="ssr:stedsnr" v="519189" />
	</node>
	<node id="-571360" lat="62.4148255858" lon="6.8944158482">
		<tag k="fixme" v="multiple name tags, choose one and add the other to alt_name" />
		<tag k="name" v="Ytste Skotet;Skotet" />
		<tag k="place" v="farm" />
		<tag k="ssr:stedsnr" v="507923" />
	</node>
	<node id="-571359" lat="62.4012442702" lon="6.95491603808">
		<tag k="layer" v="-1" />
		<tag k="name" v="Stordalstunnelen" />
		<tag k="ssr:stedsnr" v="506299" />
		<tag k="tunnel" v="yes" />
	</node>
	<node id="-571358" lat="62.4183888923" lon="7.30545000801">
		<tag k="name" v="Langedalsmoane" />
		<tag k="place" v="locality" />
		<tag k="ssr:stedsnr" v="496981" />
	</node>
	<node id="-571357" lat="62.4118722265" lon="7.18215555535">
		<tag k="name" v="Heimste Ørabotnen" />
		<tag k="natural" v="valley" />
		<tag k="place" v="locality" />
		<tag k="ssr:stedsnr" v="496747" />
	</node>
	<node id="-571356" lat="62.3995027767" lon="7.08997500734">
		<tag k="name" v="Rikjendskaret" />
		<tag k="natural" v="valley" />
		<tag k="place" v="locality" />
		<tag k="ssr:stedsnr" v="496736" />
	</node>
	<node id="-571355" lat="62.3944777807" lon="7.1904638872">
		<tag k="historic" v="shieling" />
		<tag k="name" v="Almåssætra" />
		<tag k="place" v="locality" />
		<tag k="ssr:stedsnr" v="496724" />
	</node>
	<node id="-571354" lat="62.3818377855" lon="6.98750581533">
		<tag k="alt_name" v="Hove" />
		<tag k="name" v="Ellinggarden" />
		<tag k="place" v="farm" />
		<tag k="ssr:stedsnr" v="496718" />
	</node>
	<node id="-571353" lat="62.4198944452" lon="6.86195555679">
		<tag k="fixme" v="consider natural=peak for the most distinct mountains in the district" />
		<tag k="name" v="Småhorna" />
		<tag k="natural" v="hill" />
		<tag k="place" v="locality" />
		<tag k="ssr:stedsnr" v="496677" />
	</node>
	<node id="-571352" lat="62.4239055561" lon="6.97526665892">
		<tag k="name" v="Dyrkornelva" />
		<tag k="ssr:stedsnr" v="496669" />
		<tag k="waterway" v="river" />
	</node>
	<node id="-571351" lat="62.4130777746" lon="6.87409721813">
		<tag k="name" v="Skotsdalen" />
		<tag k="natural" v="valley" />
		<tag k="place" v="locality" />
		<tag k="ssr:stedsnr" v="496667" />
	</node>
	<node id="-571350" lat="62.4079166647" lon="7.09592222292">
		<tag k="fixme" v="consider natural=peak for the most distinct mountains in the district" />
		<tag k="name" v="Benkene" />
		<tag k="natural" v="hill" />
		<tag k="place" v="locality" />
		<tag k="ssr:stedsnr" v="496654" />
	</node>
	<node id="-571349" lat="62.4171780213" lon="6.95443198691">
		<tag k="fixme" v="consider place=hamlet" />
		<tag k="name" v="Indresætra" />
		<tag k="place" v="farm" />
		<tag k="ssr:stedsnr" v="496646" />
	</node>
	<node id="-571348" lat="62.4016416654" lon="6.83755277158">
		<tag k="name" v="Storebottsvatnet" />
		<tag k="natural" v="water" />
		<tag k="ssr:stedsnr" v="496644" />
	</node>
	<node id="-571347" lat="62.4056750019" lon="6.85335000933">
		<tag k="fixme" v="consider natural=peak for the most distinct mountains in the district" />
		<tag k="name" v="Forseggene" />
		<tag k="natural" v="hill" />
		<tag k="old_name" v="Ferseeggene" />
		<tag k="place" v="locality" />
		<tag k="ssr:stedsnr" v="496643" />
	</node>
	<node id="-571346" lat="62.3571000038" lon="7.03100555981">
		<tag k="fixme" v="consider natural=peak for the most distinct mountains in the district" />
		<tag k="name" v="Ringsetkloven" />
		<tag k="natural" v="hill" />
		<tag k="place" v="locality" />
		<tag k="ssr:stedsnr" v="496582" />
	</node>
	<node id="-571345" lat="62.3702333345" lon="7.14395832875">
		<tag k="name" v="Telbergselva" />
		<tag k="ssr:stedsnr" v="496578" />
		<tag k="waterway" v="stream" />
	</node>
	<node id="-571344" lat="62.3536555554" lon="7.16192777908">
		<tag k="name" v="Telbergsvatnet" />
		<tag k="natural" v="water" />
		<tag k="ssr:stedsnr" v="496553" />
	</node>
	<node id="-571343" lat="62.3748361129" lon="7.01539721906">
		<tag k="name" v="Fjellåna" />
		<tag k="old_name" v="Fjellåa" />
		<tag k="ssr:stedsnr" v="495703" />
		<tag k="waterway" v="stream" />
	</node>
	<node id="-571342" lat="62.3816722259" lon="7.22710277416">
		<tag k="name" v="Seljebotselva" />
		<tag k="ssr:stedsnr" v="460866" />
		<tag k="waterway" v="river" />
	</node>
	<node id="-571341" lat="62.3941527774" lon="7.2036305561">
		<tag k="loc_name" v="Øggardsslættet" />
		<tag k="name" v="Øygardsslættet" />
		<tag k="natural" v="slope" />
		<tag k="place" v="locality" />
		<tag k="ssr:stedsnr" v="460761" />
	</node>
	<node id="-571340" lat="62.395311113" lon="7.20464167311">
		<tag k="name" v="Nedste Liaslættet" />
		<tag k="natural" v="slope" />
		<tag k="place" v="locality" />
		<tag k="ssr:stedsnr" v="460759" />
	</node>
	<node id="-571339" lat="62.3908361071" lon="7.12425000922">
		<tag k="name" v="Litlehaugen" />
		<tag k="natural" v="hill" />
		<tag k="place" v="locality" />
		<tag k="ssr:stedsnr" v="460160" />
	</node>
	<node id="-571338" lat="62.3800138921" lon="7.1509416699">
		<tag k="name" v="Tegeplassen" />
		<tag k="place" v="locality" />
		<tag k="ssr:stedsnr" v="460146" />
	</node>
	<node id="-571337" lat="62.376361112" lon="7.13248888254">
		<tag k="name" v="Nygarden" />
		<tag k="place" v="farm" />
		<tag k="ssr:stedsnr" v="460143" />
	</node>
	<node id="-571336" lat="62.374505559" lon="7.1182583313">
		<tag k="name" v="Stavåplassen" />
		<tag k="place" v="farm" />
		<tag k="ssr:stedsnr" v="460138" />
	</node>
	<node id="-571335" lat="62.3714305584" lon="7.10709721635">
		<tag k="name" v="Fannegrova" />
		<tag k="ssr:stedsnr" v="460137" />
		<tag k="waterway" v="stream" />
	</node>
	<node id="-571333" lat="62.3830277746" lon="7.14407499317">
		<tag k="name" v="Hamreslættet" />
		<tag k="natural" v="slope" />
		<tag k="place" v="locality" />
		<tag k="ssr:stedsnr" v="460117" />
	</node>
	<node id="-571332" lat="62.3713444408" lon="7.10189721772">
		<tag k="name" v="Ytstegarden" />
		<tag k="place" v="farm" />
		<tag k="ssr:stedsnr" v="460111" />
	</node>
	<node id="-571331" lat="62.4608833298" lon="7.20773888216">
		<tag k="historic" v="shieling" />
		<tag k="name" v="Nilsstølen" />
		<tag k="place" v="locality" />
		<tag k="ssr:stedsnr" v="460104" />
	</node>
	<node id="-571330" lat="62.369997222" lon="7.10550000089">
		<tag k="name" v="Ekrane" />
		<tag k="natural" v="slope" />
		<tag k="place" v="locality" />
		<tag k="ssr:stedsnr" v="460094" />
	</node>
	<node id="-571329" lat="62.3698694418" lon="7.11063611092">
		<tag k="name" v="Fonna" />
		<tag k="natural" v="valley" />
		<tag k="place" v="locality" />
		<tag k="ssr:stedsnr" v="460093" />
	</node>
	<node id="-571328" lat="62.4105333374" lon="7.12529999961">
		<tag k="name" v="Tverrbotnen" />
		<tag k="natural" v="valley" />
		<tag k="place" v="locality" />
		<tag k="ssr:stedsnr" v="460080" />
	</node>
	<node id="-571327" lat="62.3843777773" lon="7.17534167311">
		<tag k="name" v="Maurhaugen" />
		<tag k="natural" v="hill" />
		<tag k="place" v="locality" />
		<tag k="ssr:stedsnr" v="459858" />
	</node>
	<node id="-571326" lat="62.3949555548" lon="7.02328054911">
		<tag k="name" v="Kringletehaugen" />
		<tag k="natural" v="hill" />
		<tag k="place" v="locality" />
		<tag k="ssr:stedsnr" v="459561" />
	</node>
	<node id="-571325" lat="62.3653805579" lon="7.08466943638">
		<tag k="name" v="Høgbrauta" />
		<tag k="natural" v="slope" />
		<tag k="place" v="locality" />
		<tag k="ssr:stedsnr" v="459516" />
	</node>
	<node id="-571324" lat="62.3647888869" lon="7.15254999807">
		<tag k="historic" v="shieling" />
		<tag k="name" v="Gamlesætra" />
		<tag k="place" v="locality" />
		<tag k="ssr:stedsnr" v="459513" />
	</node>
	<node id="-571323" lat="62.3686944418" lon="7.08426110901">
		<tag k="name" v="Holen" />
		<tag k="place" v="farm" />
		<tag k="ssr:stedsnr" v="459514" />
	</node>
	<node id="-571322" lat="62.3499444444" lon="7.10302499122">
		<tag k="name" v="Kleivaslættet" />
		<tag k="natural" v="valley" />
		<tag k="place" v="locality" />
		<tag k="ssr:stedsnr" v="459505" />
	</node>
	<node id="-571321" lat="62.4291777771" lon="6.95391943833">
		<tag k="name" v="Ytresæterlia" />
		<tag k="natural" v="slope" />
		<tag k="place" v="locality" />
		<tag k="ssr:stedsnr" v="459364" />
	</node>
	<node id="-571320" lat="62.4203305516" lon="6.97978055958">
		<tag k="name" v="Riset" />
		<tag k="natural" v="ridge" />
		<tag k="place" v="locality" />
		<tag k="ssr:stedsnr" v="459348" />
	</node>
	<node id="-571319" lat="62.415922225" lon="6.97623888562">
		<tag k="name" v="Aksla" />
		<tag k="place" v="locality" />
		<tag k="ssr:stedsnr" v="459342" />
	</node>
	<node id="-571318" lat="62.3947583376" lon="6.87794167061">
		<tag k="name" v="Lauggrova" />
		<tag k="ssr:stedsnr" v="458873" />
		<tag k="waterway" v="stream" />
	</node>
	<node id="-571317" lat="62.3616361126" lon="6.94123888349">
		<tag k="name" v="Storneset" />
		<tag k="natural" v="cape" />
		<tag k="ssr:stedsnr" v="458796" />
	</node>
	<node id="-571316" lat="62.366436112" lon="6.94510278179">
		<tag k="name" v="Øygarden" />
		<tag k="place" v="locality" />
		<tag k="ssr:stedsnr" v="458771" />
	</node>
	<node id="-571315" lat="62.3725555596" lon="6.98687221991">
		<tag k="name" v="Benkedalen" />
		<tag k="natural" v="valley" />
		<tag k="place" v="locality" />
		<tag k="ssr:stedsnr" v="458652" />
	</node>
	<node id="-571314" lat="62.3788611136" lon="6.99510834022">
		<tag k="name" v="Moseøyane" />
		<tag k="place" v="locality" />
		<tag k="ssr:stedsnr" v="458650" />
	</node>
	<node id="-571313" lat="62.372102776" lon="6.86250278438">
		<tag k="name" v="Skjortnesvatnet" />
		<tag k="natural" v="water" />
		<tag k="ssr:stedsnr" v="458194" />
		<tag k="water" v="lake" />
	</node>
	<node id="-571312" lat="62.3611777818" lon="6.94219721734">
		<tag k="name" v="Latøyvika" />
		<tag k="natural" v="bay" />
		<tag k="ssr:stedsnr" v="456354" />
	</node>
	<node id="-571311" lat="62.3483611147" lon="6.955966675">
		<tag k="name" v="Fjelldrepen" />
		<tag k="natural" v="cliff" />
		<tag k="ssr:stedsnr" v="455876" />
	</node>
	<node id="-571310" lat="62.4372111119" lon="7.33484444454">
		<tag k="name" v="Litlevatnet" />
		<tag k="natural" v="water" />
		<tag k="ssr:stedsnr" v="436999" />
	</node>
	<node id="-571309" lat="62.3487805533" lon="7.22145833701">
		<tag k="fixme" v="consider natural=peak for the most distinct mountains in the district" />
		<tag k="name" v="Geitabottstinden" />
		<tag k="natural" v="hill" />
		<tag k="place" v="locality" />
		<tag k="ssr:stedsnr" v="436800" />
	</node>
	<node id="-571308" lat="62.4065861139" lon="7.16547778179">
		<tag k="fixme" v="consider natural=peak for the most distinct mountains in the district" />
		<tag k="name" v="Sandfjellet" />
		<tag k="natural" v="hill" />
		<tag k="place" v="locality" />
		<tag k="ssr:stedsnr" v="436730" />
	</node>
	<node id="-571307" lat="62.3994361118" lon="7.14886666442">
		<tag k="fixme" v="consider natural=peak for the most distinct mountains in the district" />
		<tag k="name" v="Storbottshornet" />
		<tag k="natural" v="hill" />
		<tag k="place" v="locality" />
		<tag k="ssr:stedsnr" v="436731" />
	</node>
	<node id="-571306" lat="62.3766361103" lon="7.04486667331">
		<tag k="name" v="Stordalen" />
		<tag k="natural" v="valley" />
		<tag k="place" v="locality" />
		<tag k="ssr:stedsnr" v="436608" />
	</node>
	<node id="-571305" lat="62.3235111106" lon="7.16371388028">
		<tag k="name" v="Vassbotnen" />
		<tag k="natural" v="valley" />
		<tag k="old_name" v="Vassbotn" />
		<tag k="place" v="locality" />
		<tag k="ssr:stedsnr" v="436594" />
	</node>
	<node id="-571304" lat="62.3566509258" lon="6.95510376882">
		<tag k="fixme" v="consider place=hamlet" />
		<tag k="name" v="Djupdalen" />
		<tag k="place" v="farm" />
		<tag k="ssr:stedsnr" v="436534" />
	</node>
	<node id="-571303" lat="62.4457083358" lon="7.14648889564">
		<tag k="name" v="Rollsvatnet" />
		<tag k="natural" v="water" />
		<tag k="ssr:stedsnr" v="436354" />
	</node>
	<node id="-571302" lat="62.4254861113" lon="7.29098888967">
		<tag k="name" v="Trollkyrkjegarden" />
		<tag k="natural" v="hill" />
		<tag k="place" v="locality" />
		<tag k="ssr:stedsnr" v="435994" />
	</node>
	<node id="-571301" lat="62.3687745491" lon="6.94766712973">
		<tag k="fixme" v="consider place=hamlet" />
		<tag k="loc_name" v="Holmehals" />
		<tag k="name" v="Øvstholmen" />
		<tag k="place" v="farm" />
		<tag k="ssr:stedsnr" v="435724" />
	</node>
	<node id="-571300" lat="62.3739166623" lon="6.95982778412">
		<tag k="name" v="Holmebugen" />
		<tag k="natural" v="bay" />
		<tag k="ssr:stedsnr" v="435720" />
	</node>
	<node id="-571298" lat="62.4339861136" lon="6.99632777989">
		<tag k="name" v="Kroketevatnet" />
		<tag k="natural" v="water" />
		<tag k="ssr:stedsnr" v="435697" />
	</node>
	<node id="-571297" lat="62.4265953229" lon="6.96985253408">
		<tag k="alt_name" v="Ødegård" />
		<tag k="fixme" v="consider place=hamlet" />
		<tag k="loc_name" v="Øgarden" />
		<tag k="name" v="Øygarden" />
		<tag k="place" v="farm" />
		<tag k="ssr:stedsnr" v="435689" />
	</node>
	<node id="-571296" lat="62.4190472249" lon="6.8888583345">
		<tag k="name" v="Vollvika" />
		<tag k="natural" v="bay" />
		<tag k="old_name" v="Volvika" />
		<tag k="ssr:stedsnr" v="435685" />
	</node>
	<node id="-571295" lat="62.4170472255" lon="7.19033610527">
		<tag k="fixme" v="consider natural=peak for the most distinct mountains in the district" />
		<tag k="name" v="Kollen" />
		<tag k="natural" v="hill" />
		<tag k="place" v="locality" />
		<tag k="ssr:stedsnr" v="435678" />
	</node>
	<node id="-571294" lat="62.4132111085" lon="6.95971112029">
		<tag k="name" v="Bjørnanakken" />
		<tag k="natural" v="hill" />
		<tag k="place" v="locality" />
		<tag k="ssr:stedsnr" v="416245" />
	</node>
	<node id="-571293" lat="62.4044722242" lon="6.94557777062">
		<tag k="name" v="Aurmedet" />
		<tag k="natural" v="scree" />
		<tag k="ssr:stedsnr" v="415614" />
	</node>
	<node id="-571292" lat="62.3648305547" lon="6.96371111367">
		<tag k="fixme" v="consider natural=peak for the most distinct mountains in the district" />
		<tag k="name" v="Holmehornet" />
		<tag k="natural" v="hill" />
		<tag k="place" v="locality" />
		<tag k="ssr:stedsnr" v="254660" />
	</node>
	<node id="-571291" lat="62.3682722223" lon="7.19677776988">
		<tag k="fixme" v="consider natural=peak for the most distinct mountains in the district" />
		<tag k="name" v="Langhaughornet" />
		<tag k="natural" v="hill" />
		<tag k="place" v="locality" />
		<tag k="ssr:stedsnr" v="254528" />
	</node>
	<node id="-571290" lat="62.3475420459" lon="7.08894353035">
		<tag k="fixme" v="consider place=hamlet" />
		<tag k="name" v="Øyane" />
		<tag k="old_name" v="Trettøyane;Trætøie" />
		<tag k="place" v="farm" />
		<tag k="ssr:stedsnr" v="254518" />
	</node>
	<node id="-571289" lat="62.3560444484" lon="7.13036111279">
		<tag k="fixme" v="consider natural=peak for the most distinct mountains in the district" />
		<tag k="name" v="Gregorshornet" />
		<tag k="natural" v="hill" />
		<tag k="place" v="locality" />
		<tag k="ssr:stedsnr" v="254504" />
	</node>
	<node id="-571288" lat="62.3408166637" lon="7.13774167319">
		<tag k="name" v="Litlebotnen" />
		<tag k="natural" v="valley" />
		<tag k="old_name" v="Litlebotn" />
		<tag k="place" v="locality" />
		<tag k="ssr:stedsnr" v="254494" />
	</node>
	<node id="-571287" lat="62.39506389" lon="7.27410833048">
		<tag k="fixme" v="consider natural=peak for the most distinct mountains in the district" />
		<tag k="name" v="Ådalstinden" />
		<tag k="natural" v="hill" />
		<tag k="place" v="locality" />
		<tag k="ssr:stedsnr" v="253966" />
	</node>
	<node id="-571286" lat="62.4708444476" lon="7.25418054576">
		<tag k="fixme" v="consider natural=peak for the most distinct mountains in the district" />
		<tag k="name" v="Storbua" />
		<tag k="natural" v="hill" />
		<tag k="place" v="locality" />
		<tag k="ssr:stedsnr" v="253892" />
	</node>
	<node id="-571285" lat="62.3954944443" lon="7.01830833142">
		<tag k="historic" v="shieling" />
		<tag k="name" v="Midtbustsætra" />
		<tag k="place" v="locality" />
		<tag k="ssr:stedsnr" v="253762" />
	</node>
	<node id="-571284" lat="62.3933749976" lon="7.12461111911">
		<tag k="name" v="Stavåna" />
		<tag k="ssr:stedsnr" v="253728" />
		<tag k="waterway" v="river" />
	</node>
	<node id="-571283" lat="62.3754964025" lon="7.12667896107">
		<tag k="fixme" v="consider place=hamlet" />
		<tag k="name" v="Stavdal" />
		<tag k="place" v="farm" />
		<tag k="ssr:stedsnr" v="253709" />
	</node>
	<node id="-571282" lat="62.4260921238" lon="6.95983671061">
		<tag k="fixme" v="consider place=hamlet" />
		<tag k="name" v="Framsætra" />
		<tag k="place" v="farm" />
		<tag k="ssr:stedsnr" v="253680" />
	</node>
	<node id="-571281" lat="62.4230416638" lon="7.14690555025">
		<tag k="name" v="Fossane" />
		<tag k="natural" v="waterfall" />
		<tag k="ssr:stedsnr" v="253669" />
	</node>
	<node id="-571280" lat="62.4069416643" lon="6.85751667288">
		<tag k="name" v="Skotsvatna" />
		<tag k="natural" v="water" />
		<tag k="ssr:stedsnr" v="253661" />
	</node>
	<node id="-571279" lat="62.405424998" lon="6.88221110954">
		<tag k="name" v="Svartdalen" />
		<tag k="natural" v="valley" />
		<tag k="place" v="locality" />
		<tag k="ssr:stedsnr" v="253645" />
	</node>
	<node id="-571278" lat="62.3391888901" lon="7.09488611346">
		<tag k="bridge" v="yes" />
		<tag k="layer" v="1" />
		<tag k="name" v="Ekrebrua" />
		<tag k="ssr:stedsnr" v="225992" />
	</node>
	<node id="-571277" lat="62.3731499988" lon="7.25591666703">
		<tag k="landuse" v="meadow" />
		<tag k="name" v="Botnaløslættet" />
		<tag k="ssr:stedsnr" v="217807" />
	</node>
	<node id="-571276" lat="62.4296611125" lon="7.30477221321">
		<tag k="name" v="Litlevasselva" />
		<tag k="ssr:stedsnr" v="217688" />
		<tag k="waterway" v="river" />
	</node>
	<node id="-571275" lat="62.3994611122" lon="7.20853333914">
		<tag k="loc_name" v="Ytstehaug" />
		<tag k="name" v="Ystehaug" />
		<tag k="place" v="farm" />
		<tag k="ssr:stedsnr" v="217667" />
	</node>
	<node id="-571274" lat="62.3999277775" lon="7.21493333781">
		<tag k="name" v="Hjellen" />
		<tag k="place" v="locality" />
		<tag k="ssr:stedsnr" v="217665" />
	</node>
	<node id="-571273" lat="62.4223333309" lon="7.23708054665">
		<tag k="name" v="Fokhaugbakkane" />
		<tag k="natural" v="slope" />
		<tag k="place" v="locality" />
		<tag k="ssr:stedsnr" v="217632" />
	</node>
	<node id="-571272" lat="62.419183335" lon="7.26988610371">
		<tag k="name" v="Storådalselva" />
		<tag k="ssr:stedsnr" v="217630" />
		<tag k="waterway" v="river" />
	</node>
	<node id="-571271" lat="62.3545999964" lon="7.08756389006">
		<tag k="name" v="Hagane" />
		<tag k="natural" v="slope" />
		<tag k="place" v="locality" />
		<tag k="ssr:stedsnr" v="217569" />
	</node>
	<node id="-571270" lat="62.3622416675" lon="7.08786389704">
		<tag k="name" v="Gylet" />
		<tag k="natural" v="gorge" />
		<tag k="ssr:stedsnr" v="217567" />
	</node>
	<node id="-571269" lat="62.3397527777" lon="7.14364722664">
		<tag k="name" v="Røelva" />
		<tag k="ssr:stedsnr" v="217502" />
		<tag k="waterway" v="river" />
	</node>
	<node id="-571268" lat="62.3327666646" lon="7.11164999983">
		<tag k="name" v="Litlelia" />
		<tag k="natural" v="slope" />
		<tag k="place" v="locality" />
		<tag k="ssr:stedsnr" v="217478" />
	</node>
	<node id="-571267" lat="62.4406999976" lon="7.19683333839">
		<tag k="name" v="Heimste Tverrelva" />
		<tag k="ssr:stedsnr" v="217172" />
		<tag k="waterway" v="river" />
	</node>
	<node id="-571266" lat="62.3707833346" lon="7.0940888919">
		<tag k="name" v="Heimstegjerda" />
		<tag k="natural" v="slope" />
		<tag k="place" v="locality" />
		<tag k="ssr:stedsnr" v="217086" />
	</node>
	<node id="-571265" lat="62.3737194448" lon="7.05571944797">
		<tag k="name" v="Strikane" />
		<tag k="natural" v="slope" />
		<tag k="place" v="locality" />
		<tag k="ssr:stedsnr" v="217082" />
	</node>
	<node id="-571264" lat="62.3744333344" lon="7.07512500933">
		<tag k="name" v="Plassen" />
		<tag k="place" v="isolated_dwelling" />
		<tag k="ssr:stedsnr" v="217081" />
	</node>
	<node id="-571263" lat="62.3966055517" lon="7.11935000245">
		<tag k="historic" v="shieling" />
		<tag k="name" v="Jasvollstølen" />
		<tag k="place" v="locality" />
		<tag k="ssr:stedsnr" v="217071" />
	</node>
	<node id="-571262" lat="62.3860194416" lon="7.16852222964">
		<tag k="name" v="Berngjerdet" />
		<tag k="natural" v="slope" />
		<tag k="place" v="locality" />
		<tag k="ssr:stedsnr" v="216853" />
	</node>
	<node id="-571261" lat="62.3722750005" lon="6.93878888579">
		<tag k="name" v="Skråvika" />
		<tag k="natural" v="bay" />
		<tag k="ssr:stedsnr" v="216730" />
	</node>
	<node id="-571260" lat="62.3976694457" lon="6.95143055513">
		<tag k="name" v="Stabbegylet" />
		<tag k="natural" v="gorge" />
		<tag k="ssr:stedsnr" v="216702" />
	</node>
	<node id="-571259" lat="62.3756416661" lon="6.98165276954">
		<tag k="name" v="Skredene" />
		<tag k="natural" v="slope" />
		<tag k="place" v="locality" />
		<tag k="ssr:stedsnr" v="216550" />
	</node>
	<node id="-571258" lat="62.4315055553" lon="6.92338056119">
		<tag k="name" v="Hegrehalsen" />
		<tag k="natural" v="cape" />
		<tag k="ssr:stedsnr" v="216378" />
	</node>
	<node id="-571257" lat="62.4304638855" lon="6.92654444774">
		<tag k="name" v="Ramskarneset" />
		<tag k="natural" v="cape" />
		<tag k="ssr:stedsnr" v="216281" />
	</node>
	<node id="-571256" lat="62.3768027755" lon="6.88247500838">
		<tag k="name" v="Kamben" />
		<tag k="place" v="locality" />
		<tag k="ssr:stedsnr" v="216165" />
	</node>
	<node id="-571255" lat="62.3842194404" lon="6.88464999511">
		<tag k="name" v="Litlemarka" />
		<tag k="natural" v="slope" />
		<tag k="place" v="locality" />
		<tag k="ssr:stedsnr" v="216160" />
	</node>
	<node id="-571254" lat="62.3722138853" lon="6.8663499911">
		<tag k="name" v="Storhaugen" />
		<tag k="natural" v="hill" />
		<tag k="place" v="locality" />
		<tag k="ssr:stedsnr" v="216141" />
	</node>
	<node id="-571253" lat="62.3719166626" lon="6.88172221841">
		<tag k="name" v="Skjortneselva" />
		<tag k="ssr:stedsnr" v="216137" />
		<tag k="waterway" v="stream" />
	</node>
	<node id="-571252" lat="62.3849388909" lon="6.9643027767">
		<tag k="name" v="Nessteinen" />
		<tag k="place" v="locality" />
		<tag k="ssr:stedsnr" v="213359" />
	</node>
	<node id="-571251" lat="62.4323777738" lon="6.92663055708">
		<tag k="layer" v="-1" />
		<tag k="name" v="Dyrkorntunnelen" />
		<tag k="ssr:stedsnr" v="206437" />
		<tag k="tunnel" v="yes" />
	</node>
	<node id="-571250" lat="62.4117034839" lon="6.90671662504">
		<tag k="name" v="Inste Skotet" />
		<tag k="place" v="farm" />
		<tag k="ssr:stedsnr" v="204924" />
	</node>
	<node id="-571249" lat="62.3518861139" lon="7.24822777678">
		<tag k="name" v="Uriskarbottsvatnet" />
		<tag k="natural" v="water" />
		<tag k="ssr:stedsnr" v="193800" />
	</node>
	<node id="-571248" lat="62.3627305551" lon="7.2572583401">
		<tag k="name" v="Uriskarbotnen" />
		<tag k="natural" v="valley" />
		<tag k="place" v="locality" />
		<tag k="ssr:stedsnr" v="193778" />
	</node>
	<node id="-571247" lat="62.3660611085" lon="7.22455277731">
		<tag k="fixme" v="consider natural=peak for the most distinct mountains in the district" />
		<tag k="name" v="Klumpen" />
		<tag k="natural" v="hill" />
		<tag k="place" v="locality" />
		<tag k="ssr:stedsnr" v="193777" />
	</node>
	<node id="-571246" lat="62.3987111089" lon="6.98201666693">
		<tag k="fixme" v="consider natural=peak for the most distinct mountains in the district" />
		<tag k="name" v="Varden" />
		<tag k="natural" v="hill" />
		<tag k="place" v="locality" />
		<tag k="ssr:stedsnr" v="193713" />
	</node>
	<node id="-571245" lat="62.3915972231" lon="6.97340556307">
		<tag k="name" v="Litlelihaugen" />
		<tag k="natural" v="hill" />
		<tag k="place" v="locality" />
		<tag k="ssr:stedsnr" v="193702" />
	</node>
	<node id="-571244" lat="62.3874518401" lon="6.95787232776">
		<tag k="name" v="Seljeneset" />
		<tag k="natural" v="cape" />
		<tag k="ssr:stedsnr" v="193703" />
	</node>
	<node id="-571243" lat="62.3940472185" lon="7.03531389873">
		<tag k="name" v="Turrnausa" />
		<tag k="natural" v="hill" />
		<tag k="old_name" v="Turnausen" />
		<tag k="place" v="locality" />
		<tag k="ssr:stedsnr" v="193699" />
	</node>
	<node id="-571242" lat="62.3837480437" lon="7.00929918296">
		<tag k="fixme" v="consider place=hamlet" />
		<tag k="name" v="Kyrkjebøen" />
		<tag k="place" v="farm" />
		<tag k="ssr:stedsnr" v="193688" />
	</node>
	<node id="-571241" lat="62.3798405898" lon="7.01442278083">
		<tag k="fixme" v="consider place=hamlet" />
		<tag k="name" v="Kvammen" />
		<tag k="place" v="farm" />
		<tag k="ssr:stedsnr" v="193687" />
	</node>
	<node id="-571240" lat="62.4212333323" lon="7.18698888549">
		<tag k="name" v="Fremste Ørabotnen" />
		<tag k="natural" v="valley" />
		<tag k="place" v="locality" />
		<tag k="ssr:stedsnr" v="193634" />
	</node>
	<node id="-571239" lat="62.3791861117" lon="7.1903972219">
		<tag k="name" v="Storgrova" />
		<tag k="ssr:stedsnr" v="193629" />
		<tag k="waterway" v="stream" />
	</node>
	<node id="-571238" lat="62.4080249978" lon="7.02061388381">
		<tag k="fixme" v="consider natural=peak for the most distinct mountains in the district" />
		<tag k="name" v="Ørnedalshornet" />
		<tag k="natural" v="hill" />
		<tag k="place" v="locality" />
		<tag k="ssr:stedsnr" v="193627" />
	</node>
	<node id="-571237" lat="62.4336444457" lon="7.15293333708">
		<tag k="name" v="Medvatnet" />
		<tag k="natural" v="water" />
		<tag k="old_name" v="Mevatnet" />
		<tag k="ssr:stedsnr" v="192720" />
	</node>
	<node id="-571236" lat="62.4249861094" lon="7.15199445196">
		<tag k="name" v="Litlevatnet" />
		<tag k="natural" v="water" />
		<tag k="ssr:stedsnr" v="192700" />
	</node>
	<node id="-571235" lat="62.393336107" lon="7.03788610281">
		<tag k="historic" v="shieling" />
		<tag k="name" v="Litlesætra" />
		<tag k="place" v="locality" />
		<tag k="ssr:stedsnr" v="173331" />
	</node>
	<node id="-571234" lat="62.406191669" lon="7.2255722313">
		<tag k="name" v="Storløslætta" />
		<tag k="natural" v="slope" />
		<tag k="place" v="locality" />
		<tag k="ssr:stedsnr" v="157857" />
	</node>
	<node id="-571233" lat="62.3678222244" lon="7.26740277828">
		<tag k="name" v="Ryngane" />
		<tag k="place" v="locality" />
		<tag k="ssr:stedsnr" v="157847" />
	</node>
	<node id="-571232" lat="62.3753444489" lon="7.24315555071">
		<tag k="name" v="Storkvitla" />
		<tag k="natural" v="cape" />
		<tag k="ssr:stedsnr" v="157845" />
	</node>
	<node id="-571231" lat="62.4362666648" lon="7.32736389821">
		<tag k="name" v="Litlevatnet" />
		<tag k="natural" v="water" />
		<tag k="ssr:stedsnr" v="157660" />
		<tag k="water" v="lake" />
	</node>
	<node id="-571230" lat="62.4196940608" lon="7.22946735306">
		<tag k="historic" v="shieling" />
		<tag k="name" v="Kvitlestølen" />
		<tag k="place" v="locality" />
		<tag k="ssr:stedsnr" v="157586" />
	</node>
	<node id="-571229" lat="62.4108749981" lon="6.96149722337">
		<tag k="name" v="Bergrørene" />
		<tag k="natural" v="ridge" />
		<tag k="place" v="locality" />
		<tag k="ssr:stedsnr" v="156696" />
	</node>
	<node id="-571228" lat="62.4081805588" lon="6.96348611073">
		<tag k="historic" v="shieling" />
		<tag k="name" v="Stavnessætra" />
		<tag k="place" v="locality" />
		<tag k="ssr:stedsnr" v="156694" />
	</node>
	<node id="-571227" lat="62.3959388929" lon="6.95255834011">
		<tag k="name" v="Melen" />
		<tag k="place" v="locality" />
		<tag k="ssr:stedsnr" v="156623" />
	</node>
	<node id="-571226" lat="62.3387944455" lon="7.10580278146">
		<tag k="name" v="Vitne" />
		<tag k="place" v="locality" />
		<tag k="ssr:stedsnr" v="156592" />
	</node>
	<node id="-571225" lat="62.3427916657" lon="7.10912500672">
		<tag k="name" v="Grødalen" />
		<tag k="natural" v="valley" />
		<tag k="place" v="locality" />
		<tag k="ssr:stedsnr" v="156587" />
	</node>
	<node id="-571224" lat="62.3488888906" lon="7.09298610403">
		<tag k="name" v="Storflåa" />
		<tag k="place" v="locality" />
		<tag k="ssr:stedsnr" v="156554" />
	</node>
	<node id="-571223" lat="62.3387138857" lon="7.12475277911">
		<tag k="name" v="Ådalen" />
		<tag k="natural" v="valley" />
		<tag k="place" v="locality" />
		<tag k="ssr:stedsnr" v="156480" />
	</node>
	<node id="-571222" lat="62.4319805562" lon="7.01644166809">
		<tag k="name" v="Breiskredene" />
		<tag k="natural" v="slope" />
		<tag k="place" v="locality" />
		<tag k="ssr:stedsnr" v="156444" />
	</node>
	<node id="-571221" lat="62.4319805562" lon="7.01644166809">
		<tag k="name" v="Heiane" />
		<tag k="natural" v="hill" />
		<tag k="place" v="locality" />
		<tag k="ssr:stedsnr" v="156441" />
	</node>
	<node id="-571220" lat="62.4291027787" lon="6.94001944546">
		<tag k="name" v="Liagrova" />
		<tag k="ssr:stedsnr" v="156399" />
		<tag k="waterway" v="stream" />
	</node>
	<node id="-571219" lat="62.4372138899" lon="6.99937499929">
		<tag k="fixme" v="consider natural=peak for the most distinct mountains in the district" />
		<tag k="name" v="Storlifjellet" />
		<tag k="natural" v="hill" />
		<tag k="place" v="locality" />
		<tag k="ssr:stedsnr" v="156312" />
	</node>
	<node id="-571218" lat="62.4222916709" lon="7.21366666596">
		<tag k="name" v="Trongstilia" />
		<tag k="natural" v="slope" />
		<tag k="place" v="locality" />
		<tag k="ssr:stedsnr" v="156212" />
	</node>
	<node id="-571217" lat="62.3841027803" lon="7.1419666755">
		<tag k="name" v="Nymarka" />
		<tag k="place" v="locality" />
		<tag k="ssr:stedsnr" v="156131" />
	</node>
	<node id="-571216" lat="62.3897166644" lon="7.12956388828">
		<tag k="name" v="Haugen" />
		<tag k="natural" v="hill" />
		<tag k="place" v="locality" />
		<tag k="ssr:stedsnr" v="156127" />
	</node>
	<node id="-571215" lat="62.3906861094" lon="7.13327222183">
		<tag k="historic" v="shieling" />
		<tag k="name" v="Dyrsto" />
		<tag k="place" v="locality" />
		<tag k="ssr:stedsnr" v="156124" />
	</node>
	<node id="-571214" lat="62.3833916633" lon="7.1572305573">
		<tag k="name" v="Reitane" />
		<tag k="natural" v="slope" />
		<tag k="place" v="locality" />
		<tag k="ssr:stedsnr" v="156099" />
	</node>
	<node id="-571213" lat="62.3716111091" lon="7.07920278425">
		<tag k="name" v="Erikgarden" />
		<tag k="place" v="farm" />
		<tag k="ssr:stedsnr" v="156077" />
	</node>
	<node id="-571212" lat="62.3831277803" lon="6.9743638976">
		<tag k="name" v="Morthola" />
		<tag k="natural" v="bay" />
		<tag k="ssr:stedsnr" v="155743" />
	</node>
	<node id="-571211" lat="62.3512416677" lon="6.97632500901">
		<tag k="name" v="Jolgrøbotnen" />
		<tag k="natural" v="valley" />
		<tag k="place" v="locality" />
		<tag k="ssr:stedsnr" v="155735" />
	</node>
	<node id="-571210" lat="62.3673555571" lon="6.95041111282">
		<tag k="highway" v="path" />
		<tag k="name" v="Sætrevegen" />
		<tag k="ssr:stedsnr" v="155734" />
	</node>
	<node id="-571209" lat="62.3972611139" lon="6.90641666959">
		<tag k="bay" v="fjord" />
		<tag k="name" v="Storfjorden" />
		<tag k="natural" v="bay" />
		<tag k="ssr:stedsnr" v="155849" />
	</node>
	<node id="-571208" lat="62.4175083355" lon="6.88212500908">
		<tag k="name" v="Instegjølet" />
		<tag k="natural" v="gorge" />
		<tag k="ssr:stedsnr" v="155829" />
	</node>
	<node id="-571207" lat="62.3978472239" lon="6.95460555234">
		<tag k="name" v="Stabbegrova" />
		<tag k="ssr:stedsnr" v="155678" />
		<tag k="waterway" v="stream" />
	</node>
	<node id="-571206" lat="62.3763361106" lon="6.97962777897">
		<tag k="name" v="Sessen" />
		<tag k="natural" v="cape" />
		<tag k="ssr:stedsnr" v="155560" />
	</node>
	<node id="-571205" lat="62.3775416645" lon="6.99672777105">
		<tag k="name" v="Gråura" />
		<tag k="natural" v="scree" />
		<tag k="ssr:stedsnr" v="155558" />
	</node>
	<node id="-571204" lat="62.3768499962" lon="6.87930834122">
		<tag k="name" v="Djupegylet" />
		<tag k="natural" v="valley" />
		<tag k="place" v="locality" />
		<tag k="ssr:stedsnr" v="155191" />
	</node>
	<node id="-571203" lat="62.3705277794" lon="6.94018888745">
		<tag k="name" v="Kisteberget" />
		<tag k="natural" v="hill" />
		<tag k="place" v="locality" />
		<tag k="ssr:stedsnr" v="152407" />
	</node>
	<node id="-571202" lat="62.4062305578" lon="6.90875277131">
		<tag k="name" v="Korsen" />
		<tag k="natural" v="cape" />
		<tag k="ssr:stedsnr" v="152372" />
	</node>
	<node id="-571201" lat="62.3409861127" lon="7.09856111244">
		<tag k="junction" v="yes" />
		<tag k="name" v="Sætrevegskiftet" />
		<tag k="place" v="locality" />
		<tag k="ssr:stedsnr" v="151840" />
	</node>
	<node id="-571200" lat="62.3272138899" lon="7.15319723112">
		<tag k="fixme" v="consider natural=peak for the most distinct mountains in the district" />
		<tag k="name" v="Blåkollen" />
		<tag k="natural" v="hill" />
		<tag k="place" v="locality" />
		<tag k="ssr:stedsnr" v="133447" />
	</node>
	<node id="-571199" lat="62.4355305577" lon="7.26902499461">
		<tag k="fixme" v="consider natural=peak for the most distinct mountains in the district" />
		<tag k="name" v="Fokhaugtinden" />
		<tag k="natural" v="hill" />
		<tag k="place" v="locality" />
		<tag k="ssr:stedsnr" v="132998" />
	</node>
	<node id="-571198" lat="62.3838500017" lon="7.26978332549">
		<tag k="fixme" v="consider natural=peak for the most distinct mountains in the district" />
		<tag k="name" v="Løfjellet" />
		<tag k="natural" v="hill" />
		<tag k="place" v="locality" />
		<tag k="ssr:stedsnr" v="132951" />
	</node>
	<node id="-571197" lat="62.3523305588" lon="7.28091110734">
		<tag k="fixme" v="consider natural=peak for the most distinct mountains in the district" />
		<tag k="name" v="Seljebottstinden" />
		<tag k="natural" v="hill" />
		<tag k="place" v="locality" />
		<tag k="ssr:stedsnr" v="132802" />
	</node>
	<node id="-571196" lat="62.3913555558" lon="6.84831943901">
		<tag k="name" v="Korsadalsbotnen" />
		<tag k="natural" v="valley" />
		<tag k="place" v="locality" />
		<tag k="ssr:stedsnr" v="132723" />
	</node>
	<node id="-571195" lat="62.3936666712" lon="7.18528889537">
		<tag k="name" v="Almåsnakken" />
		<tag k="natural" v="hill" />
		<tag k="place" v="locality" />
		<tag k="ssr:stedsnr" v="132718" />
	</node>
	<node id="-571194" lat="62.4303138905" lon="7.17812778304">
		<tag k="fixme" v="multiple name tags, choose one and add the other to alt_name; consider natural=peak for the most distinct mountains in the district" />
		<tag k="name" v="Stolen;Ørastolen" />
		<tag k="natural" v="hill" />
		<tag k="place" v="locality" />
		<tag k="ssr:stedsnr" v="132661" />
	</node>
	<node id="-571193" lat="62.4132628437" lon="6.89848800916">
		<tag k="fixme" v="consider place=hamlet" />
		<tag k="name" v="Skotet" />
		<tag k="place" v="farm" />
		<tag k="ssr:stedsnr" v="132652" />
	</node>
	<node id="-571192" lat="62.3185472214" lon="7.16391944217">
		<tag k="alt_name" v="Blåtind" />
		<tag k="fixme" v="consider natural=peak for the most distinct mountains in the district" />
		<tag k="name" v="Blåtinden" />
		<tag k="natural" v="hill" />
		<tag k="place" v="locality" />
		<tag k="ssr:stedsnr" v="132650" />
	</node>
	<node id="-571191" lat="62.3661888899" lon="6.98345277965">
		<tag k="name" v="Benkedalsrøra" />
		<tag k="natural" v="hill" />
		<tag k="place" v="locality" />
		<tag k="ssr:stedsnr" v="132543" />
	</node>
	<node id="-571190" lat="62.3463361067" lon="7.06118888761">
		<tag k="fixme" v="consider natural=peak for the most distinct mountains in the district" />
		<tag k="name" v="Kopphornet" />
		<tag k="natural" v="hill" />
		<tag k="place" v="locality" />
		<tag k="ssr:stedsnr" v="132539" />
	</node>
	<node id="-571189" lat="62.3528833354" lon="7.14761943582">
		<tag k="fixme" v="consider natural=peak for the most distinct mountains in the district" />
		<tag k="name" v="Garretinden" />
		<tag k="natural" v="hill" />
		<tag k="old_name" v="Garretind" />
		<tag k="place" v="locality" />
		<tag k="ssr:stedsnr" v="132537" />
	</node>
	<node id="-571188" lat="62.4525111119" lon="7.19330556143">
		<tag k="name" v="Kleiva" />
		<tag k="natural" v="slope" />
		<tag k="place" v="locality" />
		<tag k="ssr:stedsnr" v="132344" />
	</node>
	<node id="-571187" lat="62.423480559" lon="7.3219138881">
		<tag k="fixme" v="consider natural=peak for the most distinct mountains in the district" />
		<tag k="name" v="Kamben" />
		<tag k="natural" v="hill" />
		<tag k="place" v="locality" />
		<tag k="ssr:stedsnr" v="131968" />
	</node>
	<node id="-571186" lat="62.3843638639" lon="7.20011033166">
		<tag k="fixme" v="consider place=hamlet" />
		<tag k="name" v="Langhaugen" />
		<tag k="place" v="farm" />
		<tag k="ssr:stedsnr" v="131720" />
	</node>
	<node id="-571185" lat="62.3842694481" lon="7.18252499373">
		<tag k="historic" v="shieling" />
		<tag k="name" v="Nakkesætra" />
		<tag k="place" v="locality" />
		<tag k="ssr:stedsnr" v="131719" />
	</node>
	<node id="-571184" lat="62.3722972256" lon="7.10878888474">
		<tag k="name" v="Stordalselva" />
		<tag k="ssr:stedsnr" v="131713" />
		<tag k="waterway" v="river" />
	</node>
	<node id="-571183" lat="62.3702888917" lon="6.97656667171">
		<tag k="name" v="Benkedalen" />
		<tag k="natural" v="valley" />
		<tag k="place" v="locality" />
		<tag k="ssr:stedsnr" v="131711" />
	</node>
	<node id="-571182" lat="62.3718064416" lon="6.88979362069">
		<tag k="fixme" v="consider place=hamlet" />
		<tag k="name" v="Skjortneset" />
		<tag k="place" v="farm" />
		<tag k="ssr:stedsnr" v="131710" />
	</node>
	<node id="-571181" lat="62.4316222225" lon="7.21608054846">
		<tag k="name" v="Kleivabottselva" />
		<tag k="ssr:stedsnr" v="131691" />
		<tag k="waterway" v="stream" />
	</node>
	<node id="-571180" lat="62.4243638916" lon="6.85127499647">
		<tag k="fixme" v="consider natural=peak for the most distinct mountains in the district" />
		<tag k="name" v="Storfjellet" />
		<tag k="natural" v="hill" />
		<tag k="place" v="locality" />
		<tag k="ssr:stedsnr" v="131681" />
	</node>
	<node id="-571179" lat="62.4225593478" lon="6.95627942081">
		<tag k="fixme" v="consider place=hamlet" />
		<tag k="name" v="Gjerdet" />
		<tag k="place" v="farm" />
		<tag k="ssr:stedsnr" v="131672" />
	</node>
	<node id="-571178" lat="62.4301388858" lon="6.99468610405">
		<tag k="historic" v="shieling" />
		<tag k="name" v="Pusken" />
		<tag k="old_name" v="Puskestølen" />
		<tag k="place" v="locality" />
		<tag k="ssr:stedsnr" v="131670" />
	</node>
	<node id="-571177" lat="62.3783055558" lon="7.06317499572">
		<tag k="name" v="Harpeberget" />
		<tag k="natural" v="hill" />
		<tag k="place" v="locality" />
		<tag k="ssr:stedsnr" v="112307" />
	</node>
	<node id="-571176" lat="62.4096944448" lon="6.95985555753">
		<tag k="name" v="Tuva" />
		<tag k="natural" v="hill" />
		<tag k="place" v="locality" />
		<tag k="ssr:stedsnr" v="112304" />
	</node>
	<node id="-571175" lat="62.4074777761" lon="7.22045276901">
		<tag k="name" v="Kvitlane" />
		<tag k="natural" v="cape" />
		<tag k="ssr:stedsnr" v="96842" />
	</node>
	<node id="-571174" lat="62.3664861137" lon="7.26289166133">
		<tag k="name" v="Uriskarelva" />
		<tag k="ssr:stedsnr" v="96827" />
		<tag k="waterway" v="river" />
	</node>
	<node id="-571173" lat="62.378397225" lon="7.2270555647">
		<tag k="name" v="Geitabotselva" />
		<tag k="ssr:stedsnr" v="96822" />
		<tag k="waterway" v="river" />
	</node>
	<node id="-571172" lat="62.4170111079" lon="7.25342500583">
		<tag k="name" v="Litleådalselva" />
		<tag k="ssr:stedsnr" v="96639" />
		<tag k="waterway" v="river" />
	</node>
	<node id="-571171" lat="62.4260222222" lon="7.21514723069">
		<tag k="name" v="Trongstihaugen" />
		<tag k="natural" v="hill" />
		<tag k="place" v="locality" />
		<tag k="ssr:stedsnr" v="96620" />
	</node>
	<node id="-571170" lat="62.4159694454" lon="7.2154750031">
		<tag k="name" v="Fonnateigane" />
		<tag k="natural" v="slope" />
		<tag k="place" v="locality" />
		<tag k="ssr:stedsnr" v="96267" />
	</node>
	<node id="-571169" lat="62.3823472203" lon="7.04494999248">
		<tag k="name" v="Holtleite" />
		<tag k="place" v="farm" />
		<tag k="ssr:stedsnr" v="96060" />
	</node>
	<node id="-571168" lat="62.4088666655" lon="7.21256944438">
		<tag k="name" v="Haugen" />
		<tag k="natural" v="hill" />
		<tag k="place" v="locality" />
		<tag k="ssr:stedsnr" v="95900" />
	</node>
	<node id="-571167" lat="62.3828777805" lon="7.1998944423">
		<tag k="name" v="Hauglia" />
		<tag k="natural" v="slope" />
		<tag k="place" v="locality" />
		<tag k="ssr:stedsnr" v="95854" />
	</node>
	<node id="-571166" lat="62.4045305535" lon="7.00233332761">
		<tag k="name" v="Botnagrova" />
		<tag k="ssr:stedsnr" v="95500" />
		<tag k="waterway" v="stream" />
	</node>
	<node id="-571165" lat="62.409819442" lon="6.99661944488">
		<tag k="historic" v="shieling" />
		<tag k="name" v="Findastølen" />
		<tag k="place" v="locality" />
		<tag k="ssr:stedsnr" v="95514" />
	</node>
	<node id="-571164" lat="62.4221111076" lon="6.94608332918">
		<tag k="name" v="Torva" />
		<tag k="place" v="locality" />
		<tag k="ssr:stedsnr" v="95337" />
	</node>
	<node id="-571163" lat="62.4239083323" lon="6.96096111667">
		<tag k="name" v="Gjerdsplassen" />
		<tag k="natural" v="slope" />
		<tag k="place" v="locality" />
		<tag k="ssr:stedsnr" v="95335" />
	</node>
	<node id="-571162" lat="62.4168027764" lon="6.95656666204">
		<tag k="name" v="Nakkane" />
		<tag k="place" v="locality" />
		<tag k="ssr:stedsnr" v="95325" />
	</node>
	<node id="-571161" lat="62.3362861113" lon="7.12073054883">
		<tag k="historic" v="shieling" />
		<tag k="name" v="Ekresætra" />
		<tag k="place" v="locality" />
		<tag k="ssr:stedsnr" v="95415" />
	</node>
	<node id="-571160" lat="62.4364138891" lon="6.99300000318">
		<tag k="name" v="Skura" />
		<tag k="natural" v="valley" />
		<tag k="old_name" v="Storliskaret" />
		<tag k="place" v="locality" />
		<tag k="ssr:stedsnr" v="95285" />
	</node>
	<node id="-571159" lat="62.4451472224" lon="7.19527777282">
		<tag k="name" v="Fremste Tverrelva" />
		<tag k="ssr:stedsnr" v="95148" />
		<tag k="waterway" v="river" />
	</node>
	<node id="-571158" lat="62.3767277785" lon="7.1303166595">
		<tag k="historic" v="shieling" />
		<tag k="name" v="Haugaplassen" />
		<tag k="place" v="locality" />
		<tag k="ssr:stedsnr" v="95116" />
	</node>
	<node id="-571157" lat="62.3823083329" lon="7.16015000204">
		<tag k="historic" v="shieling" />
		<tag k="name" v="Gamlebøen" />
		<tag k="place" v="locality" />
		<tag k="ssr:stedsnr" v="95083" />
	</node>
	<node id="-571156" lat="62.3726249992" lon="7.08404721831">
		<tag k="name" v="Mohjellane" />
		<tag k="place" v="locality" />
		<tag k="ssr:stedsnr" v="95058" />
	</node>
	<node id="-571155" lat="62.3727277811" lon="7.11125832661">
		<tag k="name" v="Bruabakkane" />
		<tag k="natural" v="slope" />
		<tag k="place" v="locality" />
		<tag k="ssr:stedsnr" v="95055" />
	</node>
	<node id="-571154" lat="62.3864666633" lon="6.95925277175">
		<tag k="name" v="Seljeneshola" />
		<tag k="natural" v="bay" />
		<tag k="ssr:stedsnr" v="95000" />
	</node>
	<node id="-571153" lat="62.3851999964" lon="6.97183889501">
		<tag k="name" v="Svanshaugen" />
		<tag k="natural" v="hill" />
		<tag k="place" v="locality" />
		<tag k="ssr:stedsnr" v="94999" />
	</node>
	<node id="-571152" lat="62.3448500026" lon="7.07460278369">
		<tag k="fixme" v="consider natural=peak for the most distinct mountains in the district" />
		<tag k="name" v="Øyehornet" />
		<tag k="natural" v="hill" />
		<tag k="place" v="locality" />
		<tag k="ssr:stedsnr" v="95209" />
	</node>
	<node id="-571151" lat="62.3841166664" lon="6.97667777821">
		<tag k="name" v="Tiljeberget" />
		<tag k="natural" v="hill" />
		<tag k="place" v="locality" />
		<tag k="ssr:stedsnr" v="94798" />
	</node>
	<node id="-571150" lat="62.3721499982" lon="6.95826389">
		<tag k="name" v="Holmefonna" />
		<tag k="natural" v="slope" />
		<tag k="place" v="locality" />
		<tag k="ssr:stedsnr" v="94793" />
	</node>
	<node id="-571149" lat="62.374058331" lon="6.93656111705">
		<tag k="name" v="Fjøsberget" />
		<tag k="natural" v="hill" />
		<tag k="place" v="locality" />
		<tag k="ssr:stedsnr" v="94792" />
	</node>
	<node id="-571148" lat="62.3705083333" lon="6.94457222378">
		<tag k="highway" v="path" />
		<tag k="name" v="Holmestien" />
		<tag k="ssr:stedsnr" v="94789" />
	</node>
	<node id="-571147" lat="62.3871527744" lon="6.88484721313">
		<tag k="name" v="Hagen" />
		<tag k="natural" v="slope" />
		<tag k="place" v="locality" />
		<tag k="ssr:stedsnr" v="94218" />
	</node>
	<node id="-571146" lat="62.3912638894" lon="6.87260555881">
		<tag k="name" v="Man" />
		<tag k="natural" v="ridge" />
		<tag k="place" v="locality" />
		<tag k="ssr:stedsnr" v="94207" />
	</node>
	<node id="-571145" lat="62.3945694433" lon="6.8951694353">
		<tag k="name" v="Krammaneset" />
		<tag k="natural" v="cape" />
		<tag k="ssr:stedsnr" v="92338" />
	</node>
	<node id="-571144" lat="62.332980555" lon="7.08066667591">
		<tag k="name" v="Stavsengfjellet" />
		<tag k="natural" v="slope" />
		<tag k="place" v="locality" />
		<tag k="ssr:stedsnr" v="91836" />
	</node>
	<node id="-571143" lat="62.426494442" lon="7.30007222041">
		<tag k="name" v="Elvabytet" />
		<tag k="place" v="locality" />
		<tag k="ssr:stedsnr" v="72994" />
	</node>
	<node id="-571142" lat="62.4589055582" lon="7.22160277583">
		<tag k="name" v="Jolbotnen" />
		<tag k="natural" v="valley" />
		<tag k="place" v="locality" />
		<tag k="ssr:stedsnr" v="72979" />
	</node>
	<node id="-571141" lat="62.4685527775" lon="7.26474722676">
		<tag k="fixme" v="consider natural=peak for the most distinct mountains in the district" />
		<tag k="name" v="Månvasstinden" />
		<tag k="natural" v="hill" />
		<tag k="place" v="locality" />
		<tag k="ssr:stedsnr" v="72883" />
	</node>
	<node id="-571140" lat="62.340522219" lon="7.26266110187">
		<tag k="name" v="Koppen" />
		<tag k="natural" v="valley" />
		<tag k="place" v="locality" />
		<tag k="ssr:stedsnr" v="72786" />
	</node>
	<node id="-571139" lat="62.4060777776" lon="7.19249165758">
		<tag k="name" v="Øranakken" />
		<tag k="natural" v="hill" />
		<tag k="place" v="locality" />
		<tag k="ssr:stedsnr" v="72713" />
	</node>
	<node id="-571138" lat="62.3934361129" lon="7.15140555352">
		<tag k="name" v="Svodene" />
		<tag k="natural" v="slope" />
		<tag k="place" v="locality" />
		<tag k="ssr:stedsnr" v="72704" />
	</node>
	<node id="-571137" lat="62.3813277812" lon="6.83698611601">
		<tag k="name" v="Møsegga" />
		<tag k="natural" v="hill" />
		<tag k="place" v="locality" />
		<tag k="ssr:stedsnr" v="72695" />
	</node>
	<node id="-571136" lat="62.4204833317" lon="7.22186110558">
		<tag k="name" v="Storelva" />
		<tag k="ssr:stedsnr" v="72621" />
		<tag k="waterway" v="river" />
	</node>
	<node id="-571135" lat="62.3442722183" lon="7.09334722936">
		<tag k="name" v="Røelva" />
		<tag k="ssr:stedsnr" v="72535" />
		<tag k="waterway" v="river" />
	</node>
	<node id="-571134" lat="62.3485305552" lon="7.19556945126">
		<tag k="fixme" v="consider natural=peak for the most distinct mountains in the district" />
		<tag k="name" v="Blåtinden" />
		<tag k="natural" v="hill" />
		<tag k="place" v="locality" />
		<tag k="ssr:stedsnr" v="72524" />
	</node>
	<node id="-571133" lat="62.4843638847" lon="7.23338054976">
		<tag k="fixme" v="consider natural=peak for the most distinct mountains in the district" />
		<tag k="name" v="Sandfjellet" />
		<tag k="natural" v="hill" />
		<tag k="place" v="locality" />
		<tag k="ssr:stedsnr" v="71905" />
	</node>
	<node id="-571132" lat="62.3563777768" lon="7.22846944131">
		<tag k="fixme" v="consider natural=peak for the most distinct mountains in the district" />
		<tag k="name" v="Tuva" />
		<tag k="natural" v="hill" />
		<tag k="place" v="locality" />
		<tag k="ssr:stedsnr" v="71820" />
	</node>
	<node id="-571131" lat="62.396430555" lon="7.12281388608">
		<tag k="historic" v="shieling" />
		<tag k="name" v="Botnastølen" />
		<tag k="place" v="locality" />
		<tag k="ssr:stedsnr" v="71753" />
	</node>
	<node id="-571130" lat="62.4343916692" lon="6.97219722265">
		<tag k="name" v="Tverrbotnen" />
		<tag k="natural" v="valley" />
		<tag k="place" v="locality" />
		<tag k="ssr:stedsnr" v="71725" />
	</node>
	<node id="-571129" lat="62.4274138909" lon="7.01449444757">
		<tag k="name" v="Lågheia" />
		<tag k="natural" v="hill" />
		<tag k="place" v="locality" />
		<tag k="ssr:stedsnr" v="71705" />
	</node>
	<node id="-571128" lat="62.4146916685" lon="7.0329722186">
		<tag k="name" v="Svartevatnet" />
		<tag k="natural" v="water" />
		<tag k="ssr:stedsnr" v="71680" />
		<tag k="water" v="lake" />
	</node>
	<node id="-571127" lat="62.3829388883" lon="7.03079722554">
		<tag k="bridge" v="yes" />
		<tag k="layer" v="1" />
		<tag k="name" v="Øvrebustbrua" />
		<tag k="ssr:stedsnr" v="42995" />
	</node>
	<node id="-571126" lat="62.3938333289" lon="7.2241944416">
		<tag k="name" v="Litleløhjellen" />
		<tag k="place" v="locality" />
		<tag k="ssr:stedsnr" v="35875" />
	</node>
	<node id="-571125" lat="62.4100083301" lon="7.22043333756">
		<tag k="name" v="Langkvitla" />
		<tag k="natural" v="cape" />
		<tag k="ssr:stedsnr" v="35867" />
	</node>
	<node id="-571124" lat="62.4443833344" lon="7.2265277727">
		<tag k="name" v="Jolbotselva" />
		<tag k="ssr:stedsnr" v="35844" />
		<tag k="waterway" v="river" />
	</node>
	<node id="-571123" lat="62.4106555523" lon="7.21323889279">
		<tag k="name" v="Haugåkerteigane" />
		<tag k="place" v="locality" />
		<tag k="ssr:stedsnr" v="35832" />
	</node>
	<node id="-571122" lat="62.4112222221" lon="7.20221111108">
		<tag k="name" v="Fonneteigane" />
		<tag k="natural" v="slope" />
		<tag k="place" v="locality" />
		<tag k="ssr:stedsnr" v="35823" />
	</node>
	<node id="-571121" lat="62.4183527783" lon="7.3104444393">
		<tag k="name" v="Storvasselva" />
		<tag k="ssr:stedsnr" v="35724" />
		<tag k="waterway" v="river" />
	</node>
	<node id="-571120" lat="62.4303194464" lon="7.24130277976">
		<tag k="name" v="Dyrdalselva" />
		<tag k="ssr:stedsnr" v="35666" />
		<tag k="waterway" v="river" />
	</node>
	<node id="-571119" lat="62.4302111118" lon="7.22184999731">
		<tag k="name" v="Deplane" />
		<tag k="natural" v="wetland" />
		<tag k="ssr:stedsnr" v="35664" />
	</node>
	<node id="-571118" lat="62.3784055562" lon="7.10329999563">
		<tag k="name" v="Sletthjellen" />
		<tag k="place" v="locality" />
		<tag k="ssr:stedsnr" v="35150" />
	</node>
	<node id="-571117" lat="62.3831777814" lon="7.10586388893">
		<tag k="name" v="Høgebakken" />
		<tag k="natural" v="slope" />
		<tag k="place" v="locality" />
		<tag k="ssr:stedsnr" v="35149" />
	</node>
	<node id="-571116" lat="62.3799333367" lon="7.14833056432">
		<tag k="name" v="Haugplassen" />
		<tag k="place" v="locality" />
		<tag k="ssr:stedsnr" v="35130" />
	</node>
	<node id="-571115" lat="62.3781111078" lon="7.14159722341">
		<tag k="name" v="Støleplassen" />
		<tag k="place" v="locality" />
		<tag k="ssr:stedsnr" v="35126" />
	</node>
	<node id="-571114" lat="62.3758861096" lon="7.04885277854">
		<tag k="name" v="Holtfonna" />
		<tag k="ssr:stedsnr" v="35051" />
		<tag k="waterway" v="stream" />
	</node>
	<node id="-571113" lat="62.3885583377" lon="7.19311112033">
		<tag k="name" v="Plassebøen" />
		<tag k="place" v="locality" />
		<tag k="ssr:stedsnr" v="34838" />
	</node>
	<node id="-571112" lat="62.3829277787" lon="7.16589444813">
		<tag k="name" v="Nygjerdet" />
		<tag k="natural" v="slope" />
		<tag k="place" v="locality" />
		<tag k="ssr:stedsnr" v="34834" />
	</node>
	<node id="-571111" lat="62.3889888846" lon="7.16861110547">
		<tag k="name" v="Turrmarkslættet" />
		<tag k="natural" v="slope" />
		<tag k="place" v="locality" />
		<tag k="ssr:stedsnr" v="34831" />
	</node>
	<node id="-571110" lat="62.3857555567" lon="7.1791055501">
		<tag k="name" v="Storløslættet" />
		<tag k="natural" v="slope" />
		<tag k="place" v="locality" />
		<tag k="ssr:stedsnr" v="34820" />
	</node>
	<node id="-571109" lat="62.3913861076" lon="7.16596944837">
		<tag k="name" v="Litlenausa" />
		<tag k="natural" v="hill" />
		<tag k="place" v="locality" />
		<tag k="ssr:stedsnr" v="34817" />
	</node>
	<node id="-571108" lat="62.4000999992" lon="6.95596944074">
		<tag k="name" v="Kvitfjellet" />
		<tag k="place" v="locality" />
		<tag k="ssr:stedsnr" v="34678" />
	</node>
	<node id="-571107" lat="62.3433166663" lon="7.10717499618">
		<tag k="name" v="Setrenakken" />
		<tag k="natural" v="ridge" />
		<tag k="place" v="locality" />
		<tag k="ssr:stedsnr" v="34554" />
	</node>
	<node id="-571106" lat="62.352702776" lon="7.09031665743">
		<tag k="name" v="Hagarden" />
		<tag k="natural" v="slope" />
		<tag k="place" v="locality" />
		<tag k="ssr:stedsnr" v="34532" />
	</node>
	<node id="-571105" lat="62.3492583345" lon="7.08046945268">
		<tag k="name" v="Hagardsteigane" />
		<tag k="natural" v="slope" />
		<tag k="place" v="locality" />
		<tag k="ssr:stedsnr" v="34527" />
	</node>
	<node id="-571104" lat="62.3689638894" lon="7.08761388374">
		<tag k="name" v="Mogjerda" />
		<tag k="natural" v="slope" />
		<tag k="place" v="locality" />
		<tag k="ssr:stedsnr" v="34515" />
	</node>
	<node id="-571103" lat="62.3412833331" lon="7.12681389044">
		<tag k="name" v="Grønbakkane" />
		<tag k="natural" v="slope" />
		<tag k="place" v="locality" />
		<tag k="ssr:stedsnr" v="34438" />
	</node>
	<node id="-571102" lat="62.3418361136" lon="7.1167166661">
		<tag k="name" v="Liateigane" />
		<tag k="natural" v="slope" />
		<tag k="place" v="locality" />
		<tag k="ssr:stedsnr" v="34426" />
	</node>
	<node id="-571101" lat="62.4350416636" lon="6.93773333646">
		<tag k="name" v="Fjellet" />
		<tag k="place" v="locality" />
		<tag k="ssr:stedsnr" v="34368" />
	</node>
	<node id="-571100" lat="62.4353166707" lon="6.91952221305">
		<tag k="name" v="Almberget" />
		<tag k="natural" v="hill" />
		<tag k="place" v="locality" />
		<tag k="ssr:stedsnr" v="34367" />
	</node>
	<node id="-571099" lat="62.4241166658" lon="6.97047221333">
		<tag k="name" v="Ådalane" />
		<tag k="natural" v="valley" />
		<tag k="place" v="locality" />
		<tag k="ssr:stedsnr" v="34352" />
	</node>
	<node id="-571098" lat="62.4148138848" lon="6.94790555428">
		<tag k="name" v="Reiten" />
		<tag k="place" v="locality" />
		<tag k="ssr:stedsnr" v="34349" />
	</node>
	<node id="-571097" lat="62.4166361151" lon="6.95884721295">
		<tag k="name" v="Orhaugen" />
		<tag k="natural" v="hill" />
		<tag k="place" v="locality" />
		<tag k="ssr:stedsnr" v="34344" />
	</node>
	<node id="-571096" lat="62.421411107" lon="6.96828055995">
		<tag k="name" v="Breiskreene" />
		<tag k="natural" v="wetland" />
		<tag k="ssr:stedsnr" v="34331" />
	</node>
	<node id="-571095" lat="62.4364277796" lon="6.91254444103">
		<tag k="name" v="Bjørkneset" />
		<tag k="natural" v="cape" />
		<tag k="ssr:stedsnr" v="34299" />
	</node>
	<node id="-571093" lat="62.4206666639" lon="6.94865277173">
		<tag k="name" v="Ursletta" />
		<tag k="place" v="locality" />
		<tag k="ssr:stedsnr" v="34272" />
	</node>
	<node id="-571092" lat="62.3875972241" lon="6.97168054642">
		<tag k="name" v="Ospalia" />
		<tag k="natural" v="slope" />
		<tag k="place" v="locality" />
		<tag k="ssr:stedsnr" v="34000" />
	</node>
	<node id="-571091" lat="62.3887027816" lon="6.97521111306">
		<tag k="name" v="Litlelia" />
		<tag k="natural" v="slope" />
		<tag k="place" v="locality" />
		<tag k="ssr:stedsnr" v="33999" />
	</node>
	<node id="-571090" lat="62.3885472239" lon="6.95796388524">
		<tag k="name" v="Åkoma" />
		<tag k="natural" v="spring" />
		<tag k="ssr:stedsnr" v="33992" />
	</node>
	<node id="-571089" lat="62.3834305534" lon="6.97310833743">
		<tag k="name" v="Hovsstranda" />
		<tag k="place" v="hamlet" />
		<tag k="ssr:stedsnr" v="33775" />
	</node>
	<node id="-571088" lat="62.3738527786" lon="6.87764165838">
		<tag k="name" v="Seterhaugen" />
		<tag k="natural" v="hill" />
		<tag k="place" v="locality" />
		<tag k="ssr:stedsnr" v="33186" />
	</node>
	<node id="-571087" lat="62.3884111121" lon="6.93183610165">
		<tag k="name" v="Stordalsflua" />
		<tag k="natural" v="shoal" />
		<tag k="place" v="locality" />
		<tag k="ssr:stedsnr" v="31310" />
	</node>
	<node id="-571086" lat="62.3356888877" lon="7.09660278501">
		<tag k="name" v="Rødsetteigane" />
		<tag k="natural" v="slope" />
		<tag k="place" v="locality" />
		<tag k="ssr:stedsnr" v="30831" />
	</node>
	<node id="-571085" lat="62.3479555564" lon="7.07957500694">
		<tag k="name" v="Nykjen" />
		<tag k="natural" v="hill" />
		<tag k="place" v="locality" />
		<tag k="ssr:stedsnr" v="30825" />
	</node>
	<node id="-571084" lat="62.4198444421" lon="6.94837500361">
		<tag k="bridge" v="yes" />
		<tag k="layer" v="1" />
		<tag k="name" v="Flatebergbrua" />
		<tag k="ssr:stedsnr" v="22671" />
	</node>
	<node id="-571083" lat="62.4571083375" lon="7.27016110419">
		<tag k="name" v="Dyrdalsvatnet" />
		<tag k="natural" v="water" />
		<tag k="ssr:stedsnr" v="11988" />
		<tag k="water" v="lake" />
	</node>
	<node id="-571082" lat="62.3935944467" lon="7.23770554893">
		<tag k="fixme" v="consider natural=peak for the most distinct mountains in the district" />
		<tag k="name" v="Storhornet" />
		<tag k="natural" v="hill" />
		<tag k="place" v="locality" />
		<tag k="ssr:stedsnr" v="11967" />
	</node>
	<node id="-571081" lat="62.4619055519" lon="7.2505138917">
		<tag k="name" v="Trollbotn" />
		<tag k="natural" v="valley" />
		<tag k="place" v="locality" />
		<tag k="ssr:stedsnr" v="11897" />
	</node>
	<node id="-571080" lat="62.3973583371" lon="7.03972222512">
		<tag k="name" v="Reset" />
		<tag k="natural" v="hill" />
		<tag k="place" v="locality" />
		<tag k="ssr:stedsnr" v="11737" />
	</node>
	<node id="-571079" lat="62.3855515763" lon="7.01381281792">
		<tag k="fixme" v="consider place=hamlet" />
		<tag k="name" v="Midtbust" />
		<tag k="place" v="farm" />
		<tag k="ssr:stedsnr" v="11731" />
	</node>
	<node id="-571078" lat="62.3813555579" lon="6.9749305626">
		<tag k="name" v="Stordalsvika" />
		<tag k="natural" v="bay" />
		<tag k="ssr:stedsnr" v="11720" />
	</node>
	<node id="-571077" lat="62.4124222194" lon="7.13344999848">
		<tag k="name" v="Jasvollbotnen" />
		<tag k="natural" v="valley" />
		<tag k="place" v="locality" />
		<tag k="ssr:stedsnr" v="11631" />
	</node>
	<node id="-571076" lat="62.4037722229" lon="6.96168611406">
		<tag k="fixme" v="consider natural=peak for the most distinct mountains in the district" />
		<tag k="name" v="Stavneshornet" />
		<tag k="natural" v="hill" />
		<tag k="place" v="locality" />
		<tag k="ssr:stedsnr" v="11629" />
	</node>
	<node id="-571075" lat="62.355325003" lon="7.05496666768">
		<tag k="name" v="Vadbotnen" />
		<tag k="natural" v="valley" />
		<tag k="old_name" v="Vadbotn" />
		<tag k="place" v="locality" />
		<tag k="ssr:stedsnr" v="11556" />
	</node>
	<node id="-571074" lat="62.4567416696" lon="7.17500833956">
		<tag k="fixme" v="consider natural=peak for the most distinct mountains in the district" />
		<tag k="name" v="Litleskorka" />
		<tag k="natural" v="hill" />
		<tag k="old_name" v="Litleskorkja" />
		<tag k="place" v="locality" />
		<tag k="ssr:stedsnr" v="11360" />
	</node>
	<node id="-571073" lat="62.3857333295" lon="7.14549444254">
		<tag k="historic" v="shieling" />
		<tag k="name" v="Stølesætra" />
		<tag k="place" v="locality" />
		<tag k="ssr:stedsnr" v="10722" />
	</node>
	<node id="-571072" lat="62.4238583322" lon="6.88621389222">
		<tag k="name" v="Ytste Vollvika" />
		<tag k="natural" v="bay" />
		<tag k="old_name" v="Volvika, ytste" />
		<tag k="ssr:stedsnr" v="10686" />
	</node>
	<node id="-571071" lat="62.4271144415" lon="6.9536373606">
		<tag k="fixme" v="consider place=hamlet" />
		<tag k="name" v="Ytresætra" />
		<tag k="place" v="farm" />
		<tag k="ssr:stedsnr" v="10683" />
	</node>
	<node id="-571070" lat="62.3785638911" lon="7.21373889072">
		<tag k="name" v="Svarthammargrova" />
		<tag k="ssr:stedsnr" v="10717" />
		<tag k="waterway" v="stream" />
	</node>
	<node id="-571069" lat="62.3713916705" lon="7.16010833775">
		<tag k="name" v="Tuva" />
		<tag k="natural" v="hill" />
		<tag k="old_name" v="Tua" />
		<tag k="place" v="locality" />
		<tag k="ssr:stedsnr" v="10705" />
	</node>
	<node id="-571068" lat="62.4214802011" lon="7.23531134216">
		<tag k="name" v="Knepet" />
		<tag k="place" v="locality" />
		<tag k="ssr:stedsnr" v="988881" />
	</node>
	<node id="-571067" lat="62.422981332" lon="7.23161938241">
		<tag k="name" v="Haugane" />
		<tag k="natural" v="hill" />
		<tag k="place" v="locality" />
		<tag k="ssr:stedsnr" v="988878" />
	</node>
	<node id="-571066" lat="62.4205191836" lon="7.2272657398">
		<tag k="name" v="Kvitlegjerdet" />
		<tag k="place" v="locality" />
		<tag k="ssr:stedsnr" v="988875" />
	</node>
	<node id="-571065" lat="62.4219442922" lon="7.22429054143">
		<tag k="name" v="Øyna" />
		<tag k="place" v="island" />
		<tag k="ssr:stedsnr" v="988873" />
	</node>
	<node id="-571064" lat="62.4194444546" lon="7.22217910257">
		<tag k="bridge" v="yes" />
		<tag k="layer" v="1" />
		<tag k="name" v="Kvitlebrua" />
		<tag k="ssr:stedsnr" v="988871" />
	</node>
	<node id="-571062" lat="62.3844179833" lon="7.02374548858">
		<tag k="name" v="Øvrebust" />
		<tag k="place" v="farm" />
		<tag k="ssr:stedsnr" v="986095" />
	</node>
	<node id="-571061" lat="62.3842479666" lon="7.02188977997">
		<tag k="name" v="Øvrebust" />
		<tag k="place" v="farm" />
		<tag k="ssr:stedsnr" v="986093" />
	</node>
	<node id="-571060" lat="62.3844776567" lon="7.03122911438">
		<tag k="name" v="Øvrebust" />
		<tag k="place" v="farm" />
		<tag k="ssr:stedsnr" v="986092" />
	</node>
	<node id="-571059" lat="62.3839803796" lon="7.02622020026">
		<tag k="name" v="Øvrebust" />
		<tag k="place" v="farm" />
		<tag k="ssr:stedsnr" v="986091" />
	</node>
	<node id="-571058" lat="62.383577831" lon="7.03544113394">
		<tag k="name" v="Øvrebust" />
		<tag k="place" v="farm" />
		<tag k="ssr:stedsnr" v="986089" />
	</node>
	<node id="-571057" lat="62.3851746917" lon="7.02939630559">
		<tag k="name" v="Øvrebust" />
		<tag k="place" v="farm" />
		<tag k="ssr:stedsnr" v="986085" />
	</node>
	<node id="-571056" lat="62.3855900582" lon="7.00790981684">
		<tag k="name" v="Midtbust" />
		<tag k="place" v="farm" />
		<tag k="ssr:stedsnr" v="986084" />
	</node>
	<node id="-571055" lat="62.3858266403" lon="7.0160409902">
		<tag k="name" v="Midtbust" />
		<tag k="place" v="farm" />
		<tag k="ssr:stedsnr" v="986083" />
	</node>
	<node id="-571054" lat="62.3857210894" lon="7.01156522173">
		<tag k="name" v="Midtbust" />
		<tag k="place" v="farm" />
		<tag k="ssr:stedsnr" v="986082" />
	</node>
	<node id="-571053" lat="62.38622692" lon="7.0151858586">
		<tag k="name" v="Midtbust" />
		<tag k="place" v="farm" />
		<tag k="ssr:stedsnr" v="986081" />
	</node>
	<node id="-571052" lat="62.3396981857" lon="7.09607959773">
		<tag k="name" v="Ekrane" />
		<tag k="place" v="farm" />
		<tag k="ssr:stedsnr" v="986079" />
	</node>
	<node id="-571051" lat="62.3408271892" lon="7.1087692127">
		<tag k="name" v="Rødsetsætra" />
		<tag k="place" v="farm" />
		<tag k="ssr:stedsnr" v="986077" />
	</node>
	<node id="-571050" lat="62.3439983745" lon="7.09598622179">
		<tag k="name" v="Rødset" />
		<tag k="place" v="farm" />
		<tag k="ssr:stedsnr" v="986074" />
	</node>
	<node id="-571049" lat="62.383753337" lon="6.99219488303">
		<tag k="fixme" v="consider place=hamlet" />
		<tag k="name" v="Hove" />
		<tag k="place" v="farm" />
		<tag k="ssr:stedsnr" v="983643" />
	</node>
	<node id="-571048" lat="62.4364868035" lon="6.91372871424">
		<tag k="name" v="Bjørkeneset" />
		<tag k="place" v="locality" />
		<tag k="ssr:stedsnr" v="435710" />
	</node>
	<node id="-571047" lat="62.4259395734" lon="6.96696247546">
		<tag k="alt_name" v="Ødegård" />
		<tag k="name" v="Øygarden" />
		<tag k="place" v="farm" />
		<tag k="ssr:stedsnr" v="982648" />
	</node>
	<node id="-571046" lat="62.3830027757" lon="7.03089444258">
		<tag k="bridge" v="yes" />
		<tag k="layer" v="1" />
		<tag k="name" v="Øvrebustgangbrua" />
		<tag k="ssr:stedsnr" v="892991" />
	</node>
	<node id="-571045" lat="62.3395166663" lon="7.09902776895">
		<tag k="bridge" v="yes" />
		<tag k="layer" v="1" />
		<tag k="name" v="Rødsetbrua" />
		<tag k="ssr:stedsnr" v="892990" />
	</node>
	<node id="-571044" lat="62.4116611077" lon="7.20588611273">
		<tag k="name" v="Heimste Tverrelva" />
		<tag k="ssr:stedsnr" v="885757" />
		<tag k="waterway" v="river" />
	</node>
	<node id="-571043" lat="62.4137083308" lon="7.21968889115">
		<tag k="name" v="Gardskroken" />
		<tag k="natural" v="wetland" />
		<tag k="ssr:stedsnr" v="885632" />
	</node>
	<node id="-571042" lat="62.4232055551" lon="7.24281666414">
		<tag k="name" v="Fokhaugmyrane" />
		<tag k="natural" v="wetland" />
		<tag k="ssr:stedsnr" v="885628" />
	</node>
	<node id="-571041" lat="62.4171416705" lon="7.2439944368">
		<tag k="name" v="Herda" />
		<tag k="place" v="locality" />
		<tag k="ssr:stedsnr" v="885629" />
	</node>
	<node id="-571040" lat="62.4040111151" lon="7.20530277434">
		<tag k="name" v="Buhamrane" />
		<tag k="place" v="locality" />
		<tag k="ssr:stedsnr" v="885623" />
	</node>
	<node id="-571039" lat="62.3863111139" lon="7.16029722296">
		<tag k="name" v="Høystakkslættet" />
		<tag k="place" v="locality" />
		<tag k="ssr:stedsnr" v="885159" />
	</node>
	<node id="-571038" lat="62.388227774" lon="7.15932223132">
		<tag k="name" v="Svødene" />
		<tag k="natural" v="slope" />
		<tag k="place" v="locality" />
		<tag k="ssr:stedsnr" v="885130" />
	</node>
	<node id="-571037" lat="62.3712944453" lon="7.13416110401">
		<tag k="name" v="Fanne" />
		<tag k="natural" v="slope" />
		<tag k="place" v="locality" />
		<tag k="ssr:stedsnr" v="885110" />
	</node>
	<node id="-571036" lat="62.3850583336" lon="7.15853054638">
		<tag k="name" v="Lianesgjerdet" />
		<tag k="natural" v="slope" />
		<tag k="place" v="locality" />
		<tag k="ssr:stedsnr" v="885101" />
	</node>
	<node id="-571035" lat="62.3810055564" lon="7.04451944048">
		<tag k="name" v="Holtøyane" />
		<tag k="place" v="locality" />
		<tag k="ssr:stedsnr" v="885041" />
	</node>
	<node id="-571034" lat="62.3880305544" lon="7.17603611056">
		<tag k="historic" v="shieling" />
		<tag k="name" v="Litlestølen" />
		<tag k="place" v="locality" />
		<tag k="ssr:stedsnr" v="884839" />
	</node>
	<node id="-571033" lat="62.3810638915" lon="7.20434722263">
		<tag k="name" v="Svora" />
		<tag k="place" v="locality" />
		<tag k="ssr:stedsnr" v="884833" />
	</node>
	<node id="-571032" lat="62.4035194468" lon="7.00322777406">
		<tag k="name" v="Botnamyra" />
		<tag k="natural" v="wetland" />
		<tag k="ssr:stedsnr" v="884541" />
	</node>
	<node id="-571031" lat="62.4222583298" lon="6.98524166503">
		<tag k="name" v="Fremstemyrane" />
		<tag k="natural" v="wetland" />
		<tag k="ssr:stedsnr" v="884411" />
	</node>
	<node id="-571030" lat="62.4239472183" lon="7.0219527721">
		<tag k="name" v="Svartevassdalsaksla" />
		<tag k="place" v="locality" />
		<tag k="ssr:stedsnr" v="884407" />
	</node>
	<node id="-571029" lat="62.4315500004" lon="6.94618888338">
		<tag k="name" v="Lialia" />
		<tag k="natural" v="slope" />
		<tag k="place" v="locality" />
		<tag k="ssr:stedsnr" v="884374" />
	</node>
	<node id="-571028" lat="62.4334666693" lon="6.93857778356">
		<tag k="name" v="Fjellgylet" />
		<tag k="natural" v="gorge" />
		<tag k="ssr:stedsnr" v="884371" />
	</node>
	<node id="-571027" lat="62.4342777768" lon="7.01552499688">
		<tag k="name" v="Høghaugen" />
		<tag k="natural" v="hill" />
		<tag k="place" v="locality" />
		<tag k="ssr:stedsnr" v="884360" />
	</node>
	<node id="-571026" lat="62.4365361135" lon="6.94554167517">
		<tag k="name" v="Geitaskarvatnet" />
		<tag k="natural" v="water" />
		<tag k="ssr:stedsnr" v="884276" />
		<tag k="water" v="lake" />
	</node>
	<node id="-571025" lat="62.448086111" lon="7.18808611971">
		<tag k="name" v="Vassbakkane" />
		<tag k="natural" v="slope" />
		<tag k="place" v="locality" />
		<tag k="ssr:stedsnr" v="884167" />
	</node>
	<node id="-571024" lat="62.3750805566" lon="7.05516388062">
		<tag k="name" v="Liene" />
		<tag k="natural" v="slope" />
		<tag k="place" v="locality" />
		<tag k="ssr:stedsnr" v="884043" />
	</node>
	<node id="-571023" lat="62.4185722212" lon="6.88260000656">
		<tag k="name" v="Ytstegjølet" />
		<tag k="natural" v="gorge" />
		<tag k="ssr:stedsnr" v="883902" />
	</node>
	<node id="-571022" lat="62.4145083328" lon="6.87494166208">
		<tag k="name" v="Heimyrane" />
		<tag k="natural" v="wetland" />
		<tag k="ssr:stedsnr" v="883899" />
	</node>
	<node id="-571021" lat="62.4075722218" lon="6.88535277273">
		<tag k="name" v="Heiane" />
		<tag k="natural" v="hill" />
		<tag k="place" v="locality" />
		<tag k="ssr:stedsnr" v="883897" />
	</node>
	<node id="-571020" lat="62.3978388904" lon="6.87292221968">
		<tag k="name" v="Hesten" />
		<tag k="natural" v="valley" />
		<tag k="place" v="locality" />
		<tag k="ssr:stedsnr" v="883894" />
	</node>
	<node id="-571019" lat="62.3802666682" lon="7.02068334093">
		<tag k="name" v="Flatmark" />
		<tag k="place" v="farm" />
		<tag k="ssr:stedsnr" v="883674" />
	</node>
	<node id="-571018" lat="62.3862555516" lon="6.98727776943">
		<tag k="name" v="Smigylet" />
		<tag k="natural" v="gorge" />
		<tag k="ssr:stedsnr" v="883669" />
	</node>
	<node id="-571017" lat="62.3811444433" lon="6.86284165947">
		<tag k="name" v="Møsetbotn" />
		<tag k="natural" v="valley" />
		<tag k="place" v="locality" />
		<tag k="ssr:stedsnr" v="883203" />
	</node>
	<node id="-571016" lat="62.3825250035" lon="7.0410861182">
		<tag k="bridge" v="yes" />
		<tag k="layer" v="1" />
		<tag k="name" v="Nyløkbrua" />
		<tag k="ssr:stedsnr" v="407993" />
	</node>
	<node id="-571015" lat="62.4216138861" lon="6.94631667258">
		<tag k="bridge" v="yes" />
		<tag k="layer" v="1" />
		<tag k="name" v="Dyrkornbrua" />
		<tag k="ssr:stedsnr" v="407888" />
	</node>
	<node id="-571014" lat="62.3726277815" lon="7.25236111795">
		<tag k="name" v="Langhaugen" />
		<tag k="natural" v="hill" />
		<tag k="place" v="locality" />
		<tag k="ssr:stedsnr" v="399816" />
	</node>
	<node id="-571013" lat="62.3731499988" lon="7.25591666703">
		<tag k="name" v="Bøen" />
		<tag k="place" v="isolated_dwelling" />
		<tag k="ssr:stedsnr" v="399814" />
	</node>
	<node id="-571012" lat="62.3964138931" lon="7.20257500049">
		<tag k="name" v="Øvste Liaslættet" />
		<tag k="natural" v="slope" />
		<tag k="place" v="locality" />
		<tag k="ssr:stedsnr" v="399729" />
	</node>
	<node id="-571011" lat="62.432744447" lon="7.31143610498">
		<tag k="name" v="Brynebotselva" />
		<tag k="ssr:stedsnr" v="399694" />
		<tag k="waterway" v="river" />
	</node>
	<node id="-571010" lat="62.4168277755" lon="7.30829443558">
		<tag k="name" v="Langedalsrørene" />
		<tag k="natural" v="ridge" />
		<tag k="place" v="locality" />
		<tag k="ssr:stedsnr" v="399684" />
	</node>
	<node id="-571009" lat="62.4081888918" lon="7.20226943726">
		<tag k="name" v="Litlelia" />
		<tag k="natural" v="slope" />
		<tag k="place" v="locality" />
		<tag k="ssr:stedsnr" v="399567" />
	</node>
	<node id="-571008" lat="62.3712111083" lon="7.07889722304">
		<tag k="name" v="Nedstegarden" />
		<tag k="place" v="farm" />
		<tag k="ssr:stedsnr" v="399089" />
	</node>
	<node id="-571007" lat="62.3733416632" lon="7.06973333197">
		<tag k="name" v="Moflatene" />
		<tag k="place" v="locality" />
		<tag k="ssr:stedsnr" v="399085" />
	</node>
	<node id="-571006" lat="62.4102499968" lon="6.95128332515">
		<tag k="name" v="Furnakken" />
		<tag k="natural" v="slope" />
		<tag k="place" v="locality" />
		<tag k="ssr:stedsnr" v="398688" />
	</node>
	<node id="-571005" lat="62.407647218" lon="6.95424166468">
		<tag k="name" v="Stavneselva" />
		<tag k="ssr:stedsnr" v="398683" />
		<tag k="waterway" v="stream" />
	</node>
	<node id="-571004" lat="62.3987777783" lon="6.95755554794">
		<tag k="name" v="Stabben" />
		<tag k="natural" v="hill" />
		<tag k="place" v="locality" />
		<tag k="ssr:stedsnr" v="398681" />
	</node>
	<node id="-571003" lat="62.3866777774" lon="6.99494722197">
		<tag k="name" v="Røbbane" />
		<tag k="natural" v="slope" />
		<tag k="place" v="locality" />
		<tag k="ssr:stedsnr" v="398557" />
	</node>
	<node id="-571002" lat="62.3526944401" lon="7.09755833598">
		<tag k="name" v="Brattfjellet" />
		<tag k="place" v="locality" />
		<tag k="ssr:stedsnr" v="398544" />
	</node>
	<node id="-571001" lat="62.4340722251" lon="6.95460833991">
		<tag k="name" v="Demningane" />
		<tag k="natural" v="wetland" />
		<tag k="ssr:stedsnr" v="398355" />
	</node>
	<node id="-571000" lat="62.4220499957" lon="6.94849999816">
		<tag k="name" v="Ålund" />
		<tag k="place" v="farm" />
		<tag k="ssr:stedsnr" v="398352" />
	</node>
	<node id="-570999" lat="62.4383277783" lon="6.91573610952">
		<tag k="name" v="Gylet" />
		<tag k="natural" v="gorge" />
		<tag k="ssr:stedsnr" v="398299" />
	</node>
	<node id="-570998" lat="62.4213527737" lon="6.96752222704">
		<tag k="name" v="Dyrkornmyrane" />
		<tag k="natural" v="wetland" />
		<tag k="ssr:stedsnr" v="398274" />
	</node>
	<node id="-570997" lat="62.386363886" lon="6.96108610228">
		<tag k="name" v="Kjerringa" />
		<tag k="natural" v="slope" />
		<tag k="place" v="locality" />
		<tag k="ssr:stedsnr" v="397999" />
	</node>
	<node id="-570996" lat="62.3423833371" lon="6.95694721798">
		<tag k="name" v="Knurrestøa" />
		<tag k="natural" v="cape" />
		<tag k="ssr:stedsnr" v="395374" />
	</node>
	<node id="-570995" lat="62.3846833297" lon="6.88700277109">
		<tag k="name" v="Værflåneset" />
		<tag k="natural" v="cape" />
		<tag k="ssr:stedsnr" v="395351" />
	</node>
	<node id="-570994" lat="62.4504722221" lon="7.31389722772">
		<tag k="name" v="Ådalen" />
		<tag k="natural" v="valley" />
		<tag k="place" v="locality" />
		<tag k="ssr:stedsnr" v="385304" />
	</node>
	<node id="-570993" lat="62.4780499979" lon="7.2495472164">
		<tag k="fixme" v="consider natural=peak for the most distinct mountains in the district" />
		<tag k="name" v="Kvasstinden" />
		<tag k="natural" v="hill" />
		<tag k="place" v="locality" />
		<tag k="ssr:stedsnr" v="375875" />
	</node>
	<node id="-570992" lat="62.404688891" lon="7.07212778297">
		<tag k="name" v="Rikjendbotnen" />
		<tag k="natural" v="valley" />
		<tag k="old_name" v="Rikjendbotn" />
		<tag k="place" v="locality" />
		<tag k="ssr:stedsnr" v="375718" />
	</node>
	<node id="-570991" lat="62.3496500003" lon="7.08331111356">
		<tag k="name" v="Rødsetdalen" />
		<tag k="natural" v="valley" />
		<tag k="place" v="locality" />
		<tag k="ssr:stedsnr" v="375522" />
	</node>
	<node id="-570990" lat="62.3602444409" lon="7.2176888963">
		<tag k="name" v="Geitabottsvatna" />
		<tag k="natural" v="water" />
		<tag k="ssr:stedsnr" v="375490" />
	</node>
	<node id="-570989" lat="62.4522638866" lon="7.2077888977">
		<tag k="fixme" v="consider natural=peak for the most distinct mountains in the district" />
		<tag k="name" v="Storlihornet" />
		<tag k="natural" v="hill" />
		<tag k="place" v="locality" />
		<tag k="ssr:stedsnr" v="375325" />
	</node>
	<node id="-570988" lat="62.3872416698" lon="7.27603055996">
		<tag k="name" v="Jolbotnen" />
		<tag k="natural" v="valley" />
		<tag k="place" v="locality" />
		<tag k="ssr:stedsnr" v="374967" />
	</node>
	<node id="-570987" lat="62.4123499966" lon="7.1661527849">
		<tag k="fixme" v="consider natural=peak for the most distinct mountains in the district" />
		<tag k="name" v="Auskjeret" />
		<tag k="natural" v="hill" />
		<tag k="place" v="locality" />
		<tag k="ssr:stedsnr" v="374757" />
	</node>
	<node id="-570986" lat="62.4090682594" lon="7.2136545146">
		<tag k="fixme" v="consider place=hamlet" />
		<tag k="name" v="Øverøyane" />
		<tag k="place" v="farm" />
		<tag k="ssr:stedsnr" v="374755" />
	</node>
	<node id="-570985" lat="62.3803805241" lon="7.05866656031">
		<tag k="fixme" v="consider place=hamlet" />
		<tag k="name" v="Storheim" />
		<tag k="place" v="farm" />
		<tag k="ssr:stedsnr" v="374711" />
	</node>
	<node id="-570984" lat="62.3679444402" lon="6.94095833818">
		<tag k="name" v="Roshamna" />
		<tag k="natural" v="bay" />
		<tag k="old_name" v="Roshamn" />
		<tag k="ssr:stedsnr" v="374698" />
	</node>
	<node id="-570983" lat="62.3699930618" lon="7.08042965698">
		<tag k="fixme" v="consider place=hamlet" />
		<tag k="name" v="Mo" />
		<tag k="place" v="farm" />
		<tag k="ssr:stedsnr" v="374694" />
	</node>
	<node id="-570982" lat="62.4218083325" lon="6.9460527841">
		<tag k="fixme" v="consider place=hamlet" />
		<tag k="name" v="Dyrkorn" />
		<tag k="place" v="village" />
		<tag k="ssr:stedsnr" v="374675" />
	</node>
	<node id="-570981" lat="62.4163194467" lon="6.9921250023">
		<tag k="historic" v="shieling" />
		<tag k="name" v="Dyrkornstølen" />
		<tag k="place" v="locality" />
		<tag k="ssr:stedsnr" v="374639" />
	</node>
	<node id="-570980" lat="62.3974166657" lon="6.89843611353">
		<tag k="name" v="Limurshola" />
		<tag k="place" v="locality" />
		<tag k="ssr:stedsnr" v="355272" />
	</node>
	<node id="-570979" lat="62.3674888876" lon="7.08665000208">
		<tag k="bridge" v="yes" />
		<tag k="layer" v="1" />
		<tag k="name" v="Vadbrua" />
		<tag k="ssr:stedsnr" v="346990" />
	</node>
	<node id="-570978" lat="62.3886000032" lon="7.17872499634">
		<tag k="bridge" v="yes" />
		<tag k="layer" v="1" />
		<tag k="name" v="Almåsbrua" />
		<tag k="ssr:stedsnr" v="346877" />
	</node>
	<node id="-570977" lat="62.4016194487" lon="7.219580557">
		<tag k="name" v="Kroken" />
		<tag k="natural" v="wetland" />
		<tag k="ssr:stedsnr" v="339841" />
	</node>
	<node id="-570976" lat="62.4319500013" lon="7.30271388953">
		<tag k="name" v="Instelitlelia" />
		<tag k="natural" v="slope" />
		<tag k="place" v="locality" />
		<tag k="ssr:stedsnr" v="339700" />
	</node>
	<node id="-570975" lat="62.4207361128" lon="7.28924443972">
		<tag k="name" v="Langedalen" />
		<tag k="natural" v="valley" />
		<tag k="place" v="locality" />
		<tag k="ssr:stedsnr" v="339686" />
	</node>
	<node id="-570974" lat="62.3861500033" lon="7.19156945004">
		<tag k="name" v="Legene" />
		<tag k="natural" v="slope" />
		<tag k="place" v="locality" />
		<tag k="ssr:stedsnr" v="338852" />
	</node>
	<node id="-570973" lat="62.3873861146" lon="7.19704999255">
		<tag k="name" v="Hjellmyrane" />
		<tag k="natural" v="wetland" />
		<tag k="ssr:stedsnr" v="338851" />
	</node>
	<node id="-570972" lat="62.4044722242" lon="6.94557777062">
		<tag k="name" v="Auurene" />
		<tag k="natural" v="scree" />
		<tag k="ssr:stedsnr" v="338678" />
	</node>
	<node id="-570971" lat="62.4036555516" lon="7.00710277948">
		<tag k="name" v="Høystakkhamrane" />
		<tag k="place" v="locality" />
		<tag k="ssr:stedsnr" v="338510" />
	</node>
	<node id="-570970" lat="62.4088694411" lon="7.00432777631">
		<tag k="name" v="Blålia" />
		<tag k="natural" v="slope" />
		<tag k="place" v="locality" />
		<tag k="ssr:stedsnr" v="338503" />
	</node>
	<node id="-570969" lat="62.4003166648" lon="6.99920277117">
		<tag k="name" v="Vinjeegga" />
		<tag k="natural" v="ridge" />
		<tag k="place" v="locality" />
		<tag k="ssr:stedsnr" v="338496" />
	</node>
	<node id="-570968" lat="62.3399027776" lon="7.12882777149">
		<tag k="historic" v="shieling" />
		<tag k="name" v="Skjetnesetra" />
		<tag k="place" v="locality" />
		<tag k="ssr:stedsnr" v="338437" />
	</node>
	<node id="-570967" lat="62.4282333352" lon="6.96091945091">
		<tag k="name" v="Framsæterlia" />
		<tag k="natural" v="slope" />
		<tag k="place" v="locality" />
		<tag k="ssr:stedsnr" v="338339" />
	</node>
	<node id="-570966" lat="62.3831888928" lon="7.16344722464">
		<tag k="name" v="Synnøvegjerdet" />
		<tag k="natural" v="slope" />
		<tag k="place" v="locality" />
		<tag k="ssr:stedsnr" v="338085" />
	</node>
	<node id="-570965" lat="62.382413887" lon="7.14236944317">
		<tag k="name" v="Ytsteløslættet" />
		<tag k="place" v="locality" />
		<tag k="ssr:stedsnr" v="338077" />
	</node>
	<node id="-570964" lat="62.3736888906" lon="7.09208332666">
		<tag k="name" v="Veitebakken" />
		<tag k="natural" v="slope" />
		<tag k="place" v="locality" />
		<tag k="ssr:stedsnr" v="338070" />
	</node>
	<node id="-570963" lat="62.3974749977" lon="7.11833611087">
		<tag k="name" v="Tverelva" />
		<tag k="ssr:stedsnr" v="338057" />
		<tag k="waterway" v="river" />
	</node>
	<node id="-570962" lat="62.3783694415" lon="7.05701388215">
		<tag k="name" v="Sandane" />
		<tag k="place" v="locality" />
		<tag k="ssr:stedsnr" v="338042" />
	</node>
	<node id="-570961" lat="62.3752361101" lon="7.04199166988">
		<tag k="name" v="Herda" />
		<tag k="natural" v="cliff" />
		<tag k="ssr:stedsnr" v="338043" />
	</node>
	<node id="-570960" lat="62.3880499993" lon="6.95715555608">
		<tag k="name" v="Galten" />
		<tag k="natural" v="cape" />
		<tag k="ssr:stedsnr" v="337993" />
	</node>
	<node id="-570959" lat="62.3590333298" lon="6.94966110762">
		<tag k="name" v="Timbregylet" />
		<tag k="natural" v="gorge" />
		<tag k="old_name" v="Bytegylet" />
		<tag k="ssr:stedsnr" v="337764" />
	</node>
	<node id="-570958" lat="62.3744277735" lon="6.93479443945">
		<tag k="name" v="Holmekråka" />
		<tag k="natural" v="hill" />
		<tag k="place" v="locality" />
		<tag k="ssr:stedsnr" v="337751" />
	</node>
	<node id="-570957" lat="62.3709722244" lon="6.94268610514">
		<tag k="name" v="Svinerota" />
		<tag k="natural" v="cliff" />
		<tag k="ssr:stedsnr" v="337750" />
	</node>
	<node id="-570956" lat="62.3659249963" lon="6.94399443659">
		<tag k="name" v="Nedsteplassen" />
		<tag k="place" v="locality" />
		<tag k="ssr:stedsnr" v="337740" />
	</node>
	<node id="-570955" lat="62.393411109" lon="7.01946111126">
		<tag k="name" v="Midtbustelva" />
		<tag k="ssr:stedsnr" v="337599" />
		<tag k="waterway" v="river" />
	</node>
	<node id="-570954" lat="62.3888305552" lon="7.0303333274">
		<tag k="name" v="Svarthammaren" />
		<tag k="place" v="locality" />
		<tag k="ssr:stedsnr" v="337598" />
	</node>
	<node id="-570953" lat="62.3808583368" lon="6.87816111975">
		<tag k="name" v="Storskrea" />
		<tag k="place" v="locality" />
		<tag k="ssr:stedsnr" v="337190" />
	</node>
	<node id="-570952" lat="62.4167805595" lon="6.94552500935">
		<tag k="name" v="Vikaneset" />
		<tag k="natural" v="cape" />
		<tag k="ssr:stedsnr" v="335345" />
	</node>
	<node id="-570951" lat="62.3470138912" lon="7.09176388554">
		<tag k="name" v="Bjørkheim" />
		<tag k="place" v="farm" />
		<tag k="ssr:stedsnr" v="333820" />
	</node>
	<node id="-570950" lat="62.3311527772" lon="7.087455551">
		<tag k="name" v="Øyeholen" />
		<tag k="natural" v="slope" />
		<tag k="place" v="locality" />
		<tag k="ssr:stedsnr" v="333817" />
	</node>
	<node id="-570949" lat="62.4127992805" lon="6.90240142635">
		<tag k="name" v="Me-Skotet" />
		<tag k="place" v="farm" />
		<tag k="ssr:stedsnr" v="325910" />
	</node>
	<node id="-570948" lat="62.3449236492" lon="7.09568073623">
		<tag k="fixme" v="consider place=hamlet" />
		<tag k="name" v="Rødset" />
		<tag k="place" v="farm" />
		<tag k="ssr:stedsnr" v="315532" />
	</node>
	<node id="-570947" lat="62.4190631232" lon="7.22855291708">
		<tag k="name" v="Kvitlane" />
		<tag k="natural" v="cape" />
		<tag k="ssr:stedsnr" v="314976" />
	</node>
	<node id="-570946" lat="62.4504111088" lon="7.30821111312">
		<tag k="fixme" v="multiple name tags, choose one and add the other to alt_name" />
		<tag k="name" v="Ådalsvatnet;Ytste Brynebottsvatnet" />
		<tag k="natural" v="water" />
		<tag k="ssr:stedsnr" v="314964" />
	</node>
	<node id="-570945" lat="62.3657972216" lon="7.28222777169">
		<tag k="name" v="Tverrbotnen" />
		<tag k="natural" v="valley" />
		<tag k="place" v="locality" />
		<tag k="ssr:stedsnr" v="314788" />
	</node>
	<node id="-570944" lat="62.3860388873" lon="6.83098056129">
		<tag k="name" v="Storheirøra" />
		<tag k="natural" v="hill" />
		<tag k="place" v="locality" />
		<tag k="ssr:stedsnr" v="314730" />
	</node>
	<node id="-570943" lat="62.3890166651" lon="6.83594999555">
		<tag k="name" v="Kalvdalen" />
		<tag k="natural" v="valley" />
		<tag k="old_name" v="Kalddalen" />
		<tag k="place" v="locality" />
		<tag k="ssr:stedsnr" v="314729" />
	</node>
	<node id="-570942" lat="62.3826250037" lon="7.00077778358">
		<tag k="amenity" v="place_of_worship" />
		<tag k="denomination" v="lutheran" />
		<tag k="name" v="Stordal" />
		<tag k="religion" v="christian" />
		<tag k="ssr:stedsnr" v="314710" />
	</node>
	<node id="-570941" lat="62.4202222203" lon="6.87562500931">
		<tag k="name" v="Storhammaren" />
		<tag k="natural" v="hill" />
		<tag k="place" v="locality" />
		<tag k="ssr:stedsnr" v="314680" />
	</node>
	<node id="-570940" lat="62.4027583343" lon="6.97536110885">
		<tag k="name" v="Stavnesvatnet" />
		<tag k="natural" v="water" />
		<tag k="ssr:stedsnr" v="314653" />
	</node>
	<node id="-570939" lat="62.4081944448" lon="6.96316944736">
		<tag k="name" v="Stavnesbotn" />
		<tag k="natural" v="valley" />
		<tag k="place" v="locality" />
		<tag k="ssr:stedsnr" v="314649" />
	</node>
	<node id="-570938" lat="62.4031166693" lon="6.87457222057">
		<tag k="name" v="Vidhammarvatnet" />
		<tag k="natural" v="water" />
		<tag k="ssr:stedsnr" v="314645" />
	</node>
	<node id="-570937" lat="62.3910361146" lon="7.04747777993">
		<tag k="name" v="Nova" />
		<tag k="natural" v="ridge" />
		<tag k="place" v="locality" />
		<tag k="ssr:stedsnr" v="294731" />
	</node>
	<node id="-570936" lat="62.4208207536" lon="6.95684672063">
		<tag k="fixme" v="consider place=hamlet" />
		<tag k="name" v="Øvre Dyrkorn" />
		<tag k="place" v="farm" />
		<tag k="ssr:stedsnr" v="294727" />
	</node>
	<node id="-570935" lat="62.4288472239" lon="7.03353334036">
		<tag k="name" v="Ryggane" />
		<tag k="natural" v="ridge" />
		<tag k="place" v="locality" />
		<tag k="ssr:stedsnr" v="294380" />
	</node>
	<node id="-570934" lat="62.3753444458" lon="7.1159249926">
		<tag k="bridge" v="yes" />
		<tag k="layer" v="1" />
		<tag k="name" v="Stavåbrua" />
		<tag k="ssr:stedsnr" v="285867" />
	</node>
	<node id="-570933" lat="62.4431583354" lon="7.22055278534">
		<tag k="name" v="Storliheia" />
		<tag k="natural" v="hill" />
		<tag k="place" v="locality" />
		<tag k="ssr:stedsnr" v="278861" />
	</node>
	<node id="-570932" lat="62.4333944404" lon="7.30839166053">
		<tag k="name" v="Brynebottshaugane" />
		<tag k="natural" v="hill" />
		<tag k="place" v="locality" />
		<tag k="ssr:stedsnr" v="278731" />
	</node>
	<node id="-570931" lat="62.4212750027" lon="7.23398611602">
		<tag k="historic" v="shieling" />
		<tag k="name" v="Langsætrane" />
		<tag k="place" v="locality" />
		<tag k="ssr:stedsnr" v="278690" />
	</node>
	<node id="-570930" lat="62.3702777762" lon="7.08238332409">
		<tag k="name" v="Litlebakken" />
		<tag k="place" v="farm" />
		<tag k="ssr:stedsnr" v="278083" />
	</node>
	<node id="-570929" lat="62.4081166699" lon="7.21770554825">
		<tag k="name" v="Brendhaugen" />
		<tag k="natural" v="hill" />
		<tag k="place" v="locality" />
		<tag k="ssr:stedsnr" v="277885" />
	</node>
	<node id="-570928" lat="62.3842000012" lon="7.16601944684">
		<tag k="name" v="Nymarkslættet" />
		<tag k="natural" v="slope" />
		<tag k="place" v="locality" />
		<tag k="ssr:stedsnr" v="277873" />
	</node>
	<node id="-570927" lat="62.3875527788" lon="7.18342500885">
		<tag k="name" v="Slettebakken" />
		<tag k="natural" v="slope" />
		<tag k="old_name" v="Smalebakken" />
		<tag k="place" v="locality" />
		<tag k="ssr:stedsnr" v="277868" />
	</node>
	<node id="-570926" lat="62.4028861098" lon="7.20786944178">
		<tag k="name" v="Småbakkane" />
		<tag k="natural" v="slope" />
		<tag k="place" v="locality" />
		<tag k="ssr:stedsnr" v="277675" />
	</node>
	<node id="-570925" lat="62.3693777804" lon="7.0826611024">
		<tag k="name" v="Mo" />
		<tag k="place" v="farm" />
		<tag k="ssr:stedsnr" v="277536" />
	</node>
	<node id="-570924" lat="62.3643666641" lon="7.10841388153">
		<tag k="name" v="Buskrea" />
		<tag k="place" v="locality" />
		<tag k="ssr:stedsnr" v="277529" />
	</node>
	<node id="-570923" lat="62.4299111108" lon="6.99351111279">
		<tag k="historic" v="shieling" />
		<tag k="name" v="Puskesætra" />
		<tag k="place" v="locality" />
		<tag k="ssr:stedsnr" v="277431" />
	</node>
	<node id="-570922" lat="62.4336916636" lon="6.92263054926">
		<tag k="name" v="Kokarsteinen" />
		<tag k="natural" v="stone" />
		<tag k="ssr:stedsnr" v="277373" />
	</node>
	<node id="-570921" lat="62.413227781" lon="6.9600194465">
		<tag k="name" v="Vikaberget" />
		<tag k="place" v="locality" />
		<tag k="ssr:stedsnr" v="277347" />
	</node>
	<node id="-570920" lat="62.4350944455" lon="6.92359999674">
		<tag k="name" v="Mårskogteigen" />
		<tag k="place" v="locality" />
		<tag k="ssr:stedsnr" v="277273" />
	</node>
	<node id="-570919" lat="62.4182361144" lon="7.21484722923">
		<tag k="name" v="Fonna" />
		<tag k="ssr:stedsnr" v="277211" />
		<tag k="waterway" v="stream" />
	</node>
	<node id="-570918" lat="62.3777888853" lon="7.1275333308">
		<tag k="name" v="Hogstrane" />
		<tag k="natural" v="slope" />
		<tag k="place" v="locality" />
		<tag k="ssr:stedsnr" v="277127" />
	</node>
	<node id="-570917" lat="62.3813555571" lon="7.11405554756">
		<tag k="name" v="Kriken" />
		<tag k="natural" v="slope" />
		<tag k="place" v="locality" />
		<tag k="ssr:stedsnr" v="277121" />
	</node>
	<node id="-570916" lat="62.3844166699" lon="7.12465833708">
		<tag k="name" v="Liaslættet" />
		<tag k="natural" v="slope" />
		<tag k="place" v="locality" />
		<tag k="ssr:stedsnr" v="277120" />
	</node>
	<node id="-570915" lat="62.3917611087" lon="6.97288888943">
		<tag k="name" v="Hovsnakken" />
		<tag k="natural" v="hill" />
		<tag k="place" v="locality" />
		<tag k="ssr:stedsnr" v="276994" />
	</node>
	<node id="-570914" lat="62.3710166643" lon="6.93915832497">
		<tag k="name" v="Svinerotneset" />
		<tag k="natural" v="cape" />
		<tag k="ssr:stedsnr" v="276803" />
	</node>
	<node id="-570913" lat="62.3730916659" lon="6.97216389538">
		<tag k="name" v="Styggegylet" />
		<tag k="natural" v="gorge" />
		<tag k="ssr:stedsnr" v="276799" />
	</node>
	<node id="-570912" lat="62.3744333363" lon="6.96617777332">
		<tag k="name" v="Støleneset" />
		<tag k="natural" v="cape" />
		<tag k="ssr:stedsnr" v="276797" />
	</node>
	<node id="-570911" lat="62.3897277814" lon="7.00180832629">
		<tag k="name" v="Melsetgrova" />
		<tag k="ssr:stedsnr" v="276674" />
		<tag k="waterway" v="stream" />
	</node>
	<node id="-570910" lat="62.3462972179" lon="7.09749166495">
		<tag k="name" v="Grønligrova" />
		<tag k="ssr:stedsnr" v="273842" />
		<tag k="waterway" v="stream" />
	</node>
	<node id="-571692" lat="62.3852839294" lon="6.99127681308">
		<tag k="name" v="Toregarden" />
		<tag k="place" v="farm" />
		<tag k="ssr:stedsnr" v="975600" />
	</node>
	<node id="-571691" lat="62.4211959604" lon="6.94911532792">
		<tag k="name" v="Bakkeplassen" />
		<tag k="place" v="farm" />
		<tag k="ssr:stedsnr" v="975598" />
	</node>
	<node id="-571690" lat="62.3817169773" lon="6.9897370728">
		<tag k="name" v="Nilsgarden" />
		<tag k="place" v="farm" />
		<tag k="ssr:stedsnr" v="975594" />
	</node>
	<node id="-571688" lat="62.4104083342" lon="7.22414999914">
		<tag k="name" v="Hagardsmarkene" />
		<tag k="place" v="locality" />
		<tag k="ssr:stedsnr" v="946849" />
	</node>
	<node id="-571687" lat="62.39029167" lon="7.19744999327">
		<tag k="name" v="Smalebakken" />
		<tag k="natural" v="slope" />
		<tag k="place" v="locality" />
		<tag k="ssr:stedsnr" v="945861" />
	</node>
	<node id="-571686" lat="62.3873472256" lon="7.20152777365">
		<tag k="name" v="Odden" />
		<tag k="natural" v="cape" />
		<tag k="ssr:stedsnr" v="945859" />
	</node>
	<node id="-571685" lat="62.3915055542" lon="7.20151666438">
		<tag k="name" v="Hjelbakkane" />
		<tag k="natural" v="slope" />
		<tag k="place" v="locality" />
		<tag k="ssr:stedsnr" v="945701" />
	</node>
	<node id="-571684" lat="62.4028750031" lon="6.94996110505">
		<tag k="name" v="Stavneshera" />
		<tag k="place" v="locality" />
		<tag k="ssr:stedsnr" v="945674" />
	</node>
	<node id="-571683" lat="62.395669443" lon="7.2150722202">
		<tag k="name" v="Seljebotsmyrane" />
		<tag k="natural" v="wetland" />
		<tag k="ssr:stedsnr" v="945664" />
	</node>
	<node id="-571682" lat="62.4036166627" lon="7.21149722568">
		<tag k="name" v="Haugane" />
		<tag k="natural" v="hill" />
		<tag k="place" v="locality" />
		<tag k="ssr:stedsnr" v="945579" />
	</node>
	<node id="-571681" lat="62.34184167" lon="7.11108056168">
		<tag k="name" v="Storgrova" />
		<tag k="ssr:stedsnr" v="945543" />
		<tag k="waterway" v="stream" />
	</node>
	<node id="-571680" lat="62.4010111147" lon="7.01044167555">
		<tag k="name" v="Midtbustegga" />
		<tag k="natural" v="ridge" />
		<tag k="place" v="locality" />
		<tag k="ssr:stedsnr" v="945535" />
	</node>
	<node id="-571679" lat="62.4074555552" lon="6.98105000834">
		<tag k="name" v="Høgskreda" />
		<tag k="natural" v="slope" />
		<tag k="place" v="locality" />
		<tag k="ssr:stedsnr" v="945519" />
	</node>
	<node id="-571678" lat="62.3692805545" lon="7.09115833487">
		<tag k="name" v="Porsemyra" />
		<tag k="natural" v="wetland" />
		<tag k="ssr:stedsnr" v="945508" />
	</node>
	<node id="-571677" lat="62.3388749964" lon="7.11665277103">
		<tag k="name" v="Nymarkhaugen" />
		<tag k="natural" v="hill" />
		<tag k="place" v="locality" />
		<tag k="ssr:stedsnr" v="945412" />
	</node>
	<node id="-571676" lat="62.4281722264" lon="7.00911945181">
		<tag k="name" v="Krokane" />
		<tag k="natural" v="valley" />
		<tag k="place" v="locality" />
		<tag k="ssr:stedsnr" v="945399" />
	</node>
	<node id="-571675" lat="62.4308416683" lon="6.93203611548">
		<tag k="name" v="Dyrkornstranda" />
		<tag k="place" v="locality" />
		<tag k="ssr:stedsnr" v="945365" />
	</node>
	<node id="-571674" lat="62.429030559" lon="7.21263055581">
		<tag k="name" v="Røbberskredene" />
		<tag k="natural" v="slope" />
		<tag k="place" v="locality" />
		<tag k="ssr:stedsnr" v="945240" />
	</node>
	<node id="-571673" lat="62.3811194476" lon="7.15185277239">
		<tag k="name" v="Tegane" />
		<tag k="place" v="locality" />
		<tag k="ssr:stedsnr" v="945103" />
	</node>
	<node id="-571672" lat="62.3799416684" lon="7.15327778512">
		<tag k="name" v="Myrane" />
		<tag k="natural" v="wetland" />
		<tag k="ssr:stedsnr" v="945086" />
	</node>
	<node id="-571671" lat="62.3794388908" lon="7.1662055526">
		<tag k="name" v="Nakkelia" />
		<tag k="natural" v="slope" />
		<tag k="place" v="locality" />
		<tag k="ssr:stedsnr" v="945084" />
	</node>
	<node id="-571670" lat="62.3706916687" lon="7.1168277776">
		<tag k="name" v="Fanne" />
		<tag k="natural" v="slope" />
		<tag k="place" v="locality" />
		<tag k="ssr:stedsnr" v="945062" />
	</node>
	<node id="-571669" lat="62.3858999978" lon="6.97454722998">
		<tag k="name" v="Nystihjellen" />
		<tag k="place" v="locality" />
		<tag k="ssr:stedsnr" v="944984" />
	</node>
	<node id="-571668" lat="62.3805527802" lon="6.98369999639">
		<tag k="name" v="Gyljeneset" />
		<tag k="natural" v="cape" />
		<tag k="ssr:stedsnr" v="944628" />
	</node>
	<node id="-571667" lat="62.3780194456" lon="6.87385000319">
		<tag k="name" v="Gnaggane" />
		<tag k="natural" v="hill" />
		<tag k="place" v="locality" />
		<tag k="ssr:stedsnr" v="944188" />
	</node>
	<node id="-571666" lat="62.3867805575" lon="6.87184722874">
		<tag k="name" v="Korsadalselva" />
		<tag k="ssr:stedsnr" v="944185" />
		<tag k="waterway" v="river" />
	</node>
	<node id="-571665" lat="62.3922222188" lon="6.88324723007">
		<tag k="name" v="Gamleseterdalen" />
		<tag k="natural" v="valley" />
		<tag k="place" v="locality" />
		<tag k="ssr:stedsnr" v="944178" />
	</node>
	<node id="-571664" lat="62.4004888928" lon="6.9013916745">
		<tag k="name" v="Skotsneset" />
		<tag k="natural" v="cape" />
		<tag k="ssr:stedsnr" v="942323" />
	</node>
	<node id="-571663" lat="62.4307083337" lon="6.92674444577">
		<tag k="name" v="Ramskjerneset" />
		<tag k="natural" v="cape" />
		<tag k="ssr:stedsnr" v="942319" />
	</node>
	<node id="-571662" lat="62.3381083347" lon="7.08375554831">
		<tag k="name" v="Kolda" />
		<tag k="natural" v="slope" />
		<tag k="place" v="locality" />
		<tag k="ssr:stedsnr" v="940832" />
	</node>
	<node id="-571661" lat="62.3738277776" lon="6.93728888285">
		<tag k="name" v="Stordalsholmen" />
		<tag k="natural" v="cape" />
		<tag k="ssr:stedsnr" v="936970" />
	</node>
	<node id="-571659" lat="62.3640083355" lon="7.2221222308">
		<tag k="name" v="Geitabotnen" />
		<tag k="natural" v="valley" />
		<tag k="place" v="locality" />
		<tag k="ssr:stedsnr" v="921798" />
	</node>
	<node id="-571658" lat="62.4010589751" lon="7.20951052475">
		<tag k="fixme" v="consider place=hamlet" />
		<tag k="name" v="Seljehaugen" />
		<tag k="place" v="farm" />
		<tag k="ssr:stedsnr" v="921751" />
	</node>
	<node id="-571657" lat="62.3944944457" lon="7.08154721881">
		<tag k="fixme" v="consider natural=peak for the most distinct mountains in the district" />
		<tag k="name" v="Storheimshornet" />
		<tag k="natural" v="hill" />
		<tag k="place" v="locality" />
		<tag k="ssr:stedsnr" v="921734" />
	</node>
	<node id="-571656" lat="62.3719487464" lon="7.10408390874">
		<tag k="fixme" v="consider place=hamlet" />
		<tag k="name" v="Jasvoll" />
		<tag k="place" v="farm" />
		<tag k="ssr:stedsnr" v="921710" />
	</node>
	<node id="-571655" lat="62.4136777761" lon="6.85647499247">
		<tag k="name" v="Skotsbotnen" />
		<tag k="natural" v="valley" />
		<tag k="old_name" v="Skotsbotn" />
		<tag k="place" v="locality" />
		<tag k="ssr:stedsnr" v="921672" />
	</node>
	<node id="-571654" lat="62.4134888908" lon="6.98181389268">
		<tag k="historic" v="shieling" />
		<tag k="name" v="Vikastølen" />
		<tag k="place" v="locality" />
		<tag k="ssr:stedsnr" v="921661" />
	</node>
	<node id="-571653" lat="62.4039277745" lon="6.90668610561">
		<tag k="name" v="Heggurbukta" />
		<tag k="natural" v="bay" />
		<tag k="ssr:stedsnr" v="921646" />
	</node>
	<node id="-571652" lat="62.3608544186" lon="7.08564724033">
		<tag k="fixme" v="consider place=hamlet" />
		<tag k="name" v="Løset" />
		<tag k="place" v="farm" />
		<tag k="ssr:stedsnr" v="921580" />
	</node>
	<node id="-571651" lat="62.3613138856" lon="6.99918610189">
		<tag k="name" v="Koppedalen" />
		<tag k="natural" v="valley" />
		<tag k="old_name" v="Koppdalen" />
		<tag k="place" v="locality" />
		<tag k="ssr:stedsnr" v="921577" />
	</node>
	<node id="-571650" lat="62.3587472207" lon="6.97504443606">
		<tag k="name" v="Djupdalselva" />
		<tag k="ssr:stedsnr" v="921575" />
		<tag k="waterway" v="stream" />
	</node>
	<node id="-571649" lat="62.3592916648" lon="7.09751944358">
		<tag k="historic" v="shieling" />
		<tag k="name" v="Løsetnakken" />
		<tag k="place" v="locality" />
		<tag k="ssr:stedsnr" v="921559" />
	</node>
	<node id="-571648" lat="62.3761722216" lon="7.15632500664">
		<tag k="name" v="Nørddalen" />
		<tag k="natural" v="valley" />
		<tag k="place" v="locality" />
		<tag k="ssr:stedsnr" v="920709" />
	</node>
	<node id="-571647" lat="62.40875" lon="7.24126666502">
		<tag k="fixme" v="consider natural=peak for the most distinct mountains in the district" />
		<tag k="name" v="Herda" />
		<tag k="natural" v="hill" />
		<tag k="place" v="locality" />
		<tag k="ssr:stedsnr" v="921938" />
	</node>
	<node id="-571646" lat="62.3997972205" lon="7.28511943614">
		<tag k="name" v="Ådalsvatnet" />
		<tag k="natural" v="water" />
		<tag k="ssr:stedsnr" v="921923" />
		<tag k="water" v="lake" />
	</node>
	<node id="-571645" lat="62.4639250003" lon="7.30098889207">
		<tag k="fixme" v="consider natural=peak for the most distinct mountains in the district" />
		<tag k="name" v="Trollvasstinden" />
		<tag k="natural" v="hill" />
		<tag k="place" v="locality" />
		<tag k="ssr:stedsnr" v="921882" />
	</node>
	<node id="-571644" lat="62.4118916686" lon="7.18985832504">
		<tag k="name" v="Øravatnet" />
		<tag k="natural" v="water" />
		<tag k="ssr:stedsnr" v="902547" />
	</node>
	<node id="-571643" lat="62.3458250003" lon="7.08013889626">
		<tag k="name" v="Øyeberget" />
		<tag k="natural" v="slope" />
		<tag k="place" v="locality" />
		<tag k="ssr:stedsnr" v="880826" />
	</node>
	<node id="-571642" lat="62.3647944443" lon="6.88913611693">
		<tag k="name" v="Skjortnesvika" />
		<tag k="natural" v="bay" />
		<tag k="ssr:stedsnr" v="880059" />
	</node>
	<node id="-571641" lat="62.3646416706" lon="6.9386333275">
		<tag k="name" v="Holmeneset" />
		<tag k="natural" v="cape" />
		<tag k="ssr:stedsnr" v="861661" />
	</node>
	<node id="-571640" lat="62.4470527801" lon="7.19226666426">
		<tag k="name" v="Kleivabotnen" />
		<tag k="natural" v="valley" />
		<tag k="old_name" v="Kleivabotn" />
		<tag k="place" v="locality" />
		<tag k="ssr:stedsnr" v="861649" />
	</node>
	<node id="-571639" lat="62.3518111137" lon="6.97348333128">
		<tag k="name" v="Fløtåna" />
		<tag k="old_name" v="Fløtåa" />
		<tag k="ssr:stedsnr" v="861535" />
		<tag k="waterway" v="stream" />
	</node>
	<node id="-571638" lat="62.3604083342" lon="7.04027776807">
		<tag k="fixme" v="multiple name tags, choose one and add the other to alt_name; consider natural=peak for the most distinct mountains in the district" />
		<tag k="name" v="Mehornet;Vadbottshornet" />
		<tag k="natural" v="hill" />
		<tag k="place" v="locality" />
		<tag k="ssr:stedsnr" v="861522" />
	</node>
	<node id="-571637" lat="62.3672830451" lon="7.08270825369">
		<tag k="fixme" v="consider place=hamlet" />
		<tag k="name" v="Vad" />
		<tag k="place" v="farm" />
		<tag k="ssr:stedsnr" v="861523" />
	</node>
	<node id="-571636" lat="62.3452638869" lon="6.98273332889">
		<tag k="name" v="Buskarvatnet" />
		<tag k="natural" v="water" />
		<tag k="ssr:stedsnr" v="861514" />
	</node>
	<node id="-571635" lat="62.4509027742" lon="7.15035555825">
		<tag k="name" v="Rollsbotnen" />
		<tag k="natural" v="valley" />
		<tag k="old_name" v="Rollsbotn" />
		<tag k="place" v="locality" />
		<tag k="ssr:stedsnr" v="861340" />
	</node>
	<node id="-571634" lat="62.3829805511" lon="7.24979722273">
		<tag k="name" v="Tverrelva" />
		<tag k="ssr:stedsnr" v="860973" />
		<tag k="waterway" v="stream" />
	</node>
	<node id="-571633" lat="62.3981666626" lon="6.82624721323">
		<tag k="fixme" v="consider natural=peak for the most distinct mountains in the district" />
		<tag k="name" v="Sjurlihornet" />
		<tag k="natural" v="hill" />
		<tag k="place" v="locality" />
		<tag k="ssr:stedsnr" v="860773" />
	</node>
	<node id="-571632" lat="62.4016833363" lon="6.94471945093">
		<tag k="name" v="Stavnesodden" />
		<tag k="natural" v="cape" />
		<tag k="ssr:stedsnr" v="860771" />
	</node>
	<node id="-571631" lat="62.3986611156" lon="7.00460000903">
		<tag k="fixme" v="consider natural=peak for the most distinct mountains in the district" />
		<tag k="name" v="Omnane" />
		<tag k="natural" v="hill" />
		<tag k="old_name" v="Omnen" />
		<tag k="place" v="locality" />
		<tag k="ssr:stedsnr" v="860770" />
	</node>
	<node id="-571630" lat="62.4028583354" lon="7.01584722575">
		<tag k="name" v="Midtbustlia" />
		<tag k="natural" v="slope" />
		<tag k="place" v="locality" />
		<tag k="ssr:stedsnr" v="860769" />
	</node>
	<node id="-571629" lat="62.3825694468" lon="7.07826943758">
		<tag k="name" v="Molia" />
		<tag k="natural" v="slope" />
		<tag k="place" v="locality" />
		<tag k="ssr:stedsnr" v="860737" />
	</node>
	<node id="-571628" lat="62.382698833" lon="7.17257741391">
		<tag k="fixme" v="consider place=hamlet" />
		<tag k="name" v="Nakken" />
		<tag k="place" v="farm" />
		<tag k="ssr:stedsnr" v="860733" />
	</node>
	<node id="-571627" lat="62.3699333292" lon="6.99843611403">
		<tag k="name" v="Tuva" />
		<tag k="natural" v="hill" />
		<tag k="old_name" v="Tua" />
		<tag k="place" v="locality" />
		<tag k="ssr:stedsnr" v="860730" />
	</node>
	<node id="-571626" lat="62.3744337092" lon="7.13832489349">
		<tag k="fixme" v="consider place=hamlet" />
		<tag k="name" v="Telberg" />
		<tag k="place" v="farm" />
		<tag k="ssr:stedsnr" v="860727" />
	</node>
	<node id="-571625" lat="62.3692833356" lon="7.01077777383">
		<tag k="name" v="Fjelladalen" />
		<tag k="natural" v="valley" />
		<tag k="place" v="locality" />
		<tag k="ssr:stedsnr" v="860725" />
	</node>
	<node id="-571624" lat="62.4204777764" lon="7.2061861066">
		<tag k="alt_name" v="Fremste Tverrelva" />
		<tag k="name" v="Fremstegrova" />
		<tag k="ssr:stedsnr" v="860682" />
		<tag k="waterway" v="stream" />
	</node>
	<node id="-571623" lat="62.3991305564" lon="7.22994721563">
		<tag k="name" v="Svora" />
		<tag k="place" v="locality" />
		<tag k="ssr:stedsnr" v="824863" />
	</node>
	<node id="-571622" lat="62.4472027776" lon="7.22792778156">
		<tag k="name" v="Jolbotsreset" />
		<tag k="natural" v="slope" />
		<tag k="place" v="locality" />
		<tag k="ssr:stedsnr" v="824851" />
	</node>
	<node id="-571621" lat="62.3641166675" lon="7.26838888954">
		<tag k="name" v="Blåura" />
		<tag k="natural" v="scree" />
		<tag k="ssr:stedsnr" v="824848" />
	</node>
	<node id="-571620" lat="62.3624361073" lon="7.25589445301">
		<tag k="name" v="Uriskargylet" />
		<tag k="natural" v="gorge" />
		<tag k="ssr:stedsnr" v="824845" />
	</node>
	<node id="-571619" lat="62.4258722191" lon="7.2279055504">
		<tag k="historic" v="shieling" />
		<tag k="name" v="Puskestølen" />
		<tag k="place" v="locality" />
		<tag k="ssr:stedsnr" v="824659" />
	</node>
	<node id="-571618" lat="62.4180972234" lon="7.21096943967">
		<tag k="name" v="Furuhauen" />
		<tag k="natural" v="hill" />
		<tag k="place" v="locality" />
		<tag k="ssr:stedsnr" v="824288" />
	</node>
	<node id="-571617" lat="62.3786972269" lon="7.10982500912">
		<tag k="name" v="Gjerdet" />
		<tag k="natural" v="slope" />
		<tag k="place" v="locality" />
		<tag k="ssr:stedsnr" v="824162" />
	</node>
	<node id="-571616" lat="62.3831444479" lon="7.13354443828">
		<tag k="name" v="Bjørnehi" />
		<tag k="place" v="locality" />
		<tag k="ssr:stedsnr" v="824151" />
	</node>
	<node id="-571615" lat="62.3758555543" lon="7.13745554968">
		<tag k="name" v="Bølømarka" />
		<tag k="place" v="locality" />
		<tag k="ssr:stedsnr" v="824140" />
	</node>
	<node id="-571614" lat="62.3798083312" lon="7.15992222484">
		<tag k="name" v="Gamlebøen" />
		<tag k="natural" v="slope" />
		<tag k="place" v="locality" />
		<tag k="ssr:stedsnr" v="824127" />
	</node>
	<node id="-571613" lat="62.3796138906" lon="7.0953999993">
		<tag k="highway" v="path" />
		<tag k="name" v="Heistien" />
		<tag k="ssr:stedsnr" v="824106" />
	</node>
	<node id="-571612" lat="62.3917527793" lon="7.12391389846">
		<tag k="name" v="Storhaugen" />
		<tag k="natural" v="hill" />
		<tag k="place" v="locality" />
		<tag k="ssr:stedsnr" v="824082" />
	</node>
	<node id="-571611" lat="62.3816277805" lon="7.05060834187">
		<tag k="name" v="Holt" />
		<tag k="place" v="farm" />
		<tag k="ssr:stedsnr" v="824062" />
	</node>
	<node id="-571610" lat="62.3743250039" lon="7.04766110199">
		<tag k="name" v="Kjerringstølen" />
		<tag k="natural" v="ridge" />
		<tag k="place" v="locality" />
		<tag k="ssr:stedsnr" v="824057" />
	</node>
	<node id="-571609" lat="62.3863777735" lon="7.06234445131">
		<tag k="name" v="Gjølsvad" />
		<tag k="place" v="locality" />
		<tag k="ssr:stedsnr" v="824055" />
	</node>
	<node id="-571608" lat="62.3882694481" lon="7.17999167209">
		<tag k="name" v="Reiten" />
		<tag k="place" v="farm" />
		<tag k="ssr:stedsnr" v="823819" />
	</node>
	<node id="-571607" lat="62.4234611101" lon="6.87986944535">
		<tag k="name" v="Ytstevollvikgrova" />
		<tag k="ssr:stedsnr" v="823808" />
		<tag k="waterway" v="stream" />
	</node>
	<node id="-571606" lat="62.3941805551" lon="6.87231944616">
		<tag k="fixme" v="consider natural=peak for the most distinct mountains in the district" />
		<tag k="name" v="Laugedalsegga" />
		<tag k="natural" v="hill" />
		<tag k="place" v="locality" />
		<tag k="ssr:stedsnr" v="823803" />
	</node>
	<node id="-571605" lat="62.4297805571" lon="6.96853610426">
		<tag k="loc_name" v="Øggardsgrova" />
		<tag k="name" v="Øygardsgrova" />
		<tag k="ssr:stedsnr" v="823382" />
		<tag k="waterway" v="stream" />
	</node>
	<node id="-571604" lat="62.4199472258" lon="6.95209445051">
		<tag k="name" v="Nova" />
		<tag k="place" v="locality" />
		<tag k="ssr:stedsnr" v="823365" />
	</node>
	<node id="-571603" lat="62.4175609356" lon="6.94735600362">
		<tag k="alt_name" v="Viken;Flåen" />
		<tag k="fixme" v="consider place=hamlet" />
		<tag k="name" v="Vika" />
		<tag k="place" v="farm" />
		<tag k="ssr:stedsnr" v="823354" />
	</node>
	<node id="-571602" lat="62.3997472192" lon="7.22853889392">
		<tag k="name" v="Storgrova" />
		<tag k="ssr:stedsnr" v="822478" />
		<tag k="waterway" v="stream" />
	</node>
	<node id="-571601" lat="62.3741722214" lon="6.96381388347">
		<tag k="name" v="Stølevika" />
		<tag k="natural" v="bay" />
		<tag k="ssr:stedsnr" v="820355" />
	</node>
	<node id="-571600" lat="62.4264499982" lon="7.2274638888">
		<tag k="historic" v="shieling" />
		<tag k="name" v="Pusken" />
		<tag k="place" v="locality" />
		<tag k="ssr:stedsnr" v="800995" />
	</node>
	<node id="-571599" lat="62.398788888" lon="7.22657500247">
		<tag k="name" v="Storgrova" />
		<tag k="ssr:stedsnr" v="800717" />
		<tag k="waterway" v="stream" />
	</node>
	<node id="-571598" lat="62.3872478023" lon="6.88020347077">
		<tag k="fixme" v="consider place=hamlet" />
		<tag k="name" v="Korsadalen" />
		<tag k="place" v="farm" />
		<tag k="ssr:stedsnr" v="800704" />
	</node>
	<node id="-571597" lat="62.3860888862" lon="6.96693055755">
		<tag k="name" v="Nesplassen" />
		<tag k="place" v="locality" />
		<tag k="ssr:stedsnr" v="800701" />
	</node>
	<node id="-571596" lat="62.3928694416" lon="7.05056111998">
		<tag k="name" v="Rikjenda" />
		<tag k="ssr:stedsnr" v="800698" />
		<tag k="waterway" v="stream" />
	</node>
	<node id="-571595" lat="62.3820250019" lon="6.98629166356">
		<tag k="loc_name" v="Stordalen" />
		<tag k="name" v="Stordal" />
		<tag k="place" v="village" />
		<tag k="ssr:stedsnr" v="800693" />
	</node>
	<node id="-571594" lat="62.4143833339" lon="6.98491943981">
		<tag k="name" v="Dyrkornvatnet" />
		<tag k="natural" v="water" />
		<tag k="ssr:stedsnr" v="800636" />
		<tag k="water" v="lake" />
	</node>
	<node id="-571593" lat="62.3617694401" lon="7.19875277849">
		<tag k="fixme" v="consider natural=peak for the most distinct mountains in the district" />
		<tag k="name" v="Kvitegga" />
		<tag k="natural" v="hill" />
		<tag k="place" v="locality" />
		<tag k="ssr:stedsnr" v="800554" />
	</node>
	<node id="-571592" lat="62.3596555524" lon="7.11910278609">
		<tag k="name" v="Løsettuva" />
		<tag k="natural" v="hill" />
		<tag k="old_name" v="Møsetua" />
		<tag k="place" v="locality" />
		<tag k="ssr:stedsnr" v="800555" />
	</node>
	<node id="-571591" lat="62.3677805559" lon="7.14985278643">
		<tag k="historic" v="shieling" />
		<tag k="name" v="Telbergsætra" />
		<tag k="place" v="locality" />
		<tag k="ssr:stedsnr" v="800552" />
	</node>
	<node id="-571590" lat="62.3608333309" lon="6.96606944284">
		<tag k="historic" v="shieling" />
		<tag k="name" v="Holmesætra" />
		<tag k="place" v="locality" />
		<tag k="ssr:stedsnr" v="800548" />
	</node>
	<node id="-571589" lat="62.3546583376" lon="7.090077769">
		<tag k="name" v="Bjørnalauga" />
		<tag k="natural" v="hill" />
		<tag k="place" v="locality" />
		<tag k="ssr:stedsnr" v="800527" />
	</node>
	<node id="-571588" lat="62.3604583289" lon="7.15499999454">
		<tag k="name" v="Telbergsbotn" />
		<tag k="natural" v="valley" />
		<tag k="place" v="locality" />
		<tag k="ssr:stedsnr" v="800523" />
	</node>
	<node id="-571587" lat="62.4147944489" lon="7.27438610875">
		<tag k="name" v="Storådalen" />
		<tag k="natural" v="valley" />
		<tag k="place" v="locality" />
		<tag k="ssr:stedsnr" v="799958" />
	</node>
	<node id="-571586" lat="62.3849861119" lon="7.10000832941">
		<tag k="name" v="Moheia" />
		<tag k="natural" v="hill" />
		<tag k="place" v="locality" />
		<tag k="ssr:stedsnr" v="799741" />
	</node>
	<node id="-571585" lat="62.4410111144" lon="7.13294445267">
		<tag k="name" v="Svartevatnet" />
		<tag k="natural" v="water" />
		<tag k="ssr:stedsnr" v="799708" />
		<tag k="water" v="lake" />
	</node>
	<node id="-571584" lat="62.4138138909" lon="7.06056389524">
		<tag k="alt_name" v="Skorkja, heimste" />
		<tag k="fixme" v="multiple name tags, choose one and add the other to alt_name; consider natural=peak for the most distinct mountains in the district" />
		<tag k="name" v="Heimste Skorka;Sandfjellet" />
		<tag k="natural" v="hill" />
		<tag k="old_name" v="Høgnykjen" />
		<tag k="place" v="locality" />
		<tag k="ssr:stedsnr" v="799672" />
	</node>
	<node id="-571583" lat="62.4119027745" lon="7.02121111516">
		<tag k="name" v="Midtmorgonshornet" />
		<tag k="natural" v="hill" />
		<tag k="place" v="locality" />
		<tag k="ssr:stedsnr" v="799667" />
	</node>
	<node id="-571582" lat="62.4112102612" lon="6.91270001835">
		<tag k="fixme" v="consider place=hamlet" />
		<tag k="name" v="Skotshalsen" />
		<tag k="place" v="farm" />
		<tag k="ssr:stedsnr" v="799665" />
	</node>
	<node id="-571581" lat="62.3829388848" lon="6.98647499271">
		<tag k="bridge" v="yes" />
		<tag k="layer" v="1" />
		<tag k="name" v="Stordalsgangbrua" />
		<tag k="ssr:stedsnr" v="771886" />
	</node>
	<node id="-571580" lat="62.4241500032" lon="7.28424167301">
		<tag k="name" v="Innfjordelva" />
		<tag k="ssr:stedsnr" v="763652" />
		<tag k="waterway" v="river" />
	</node>
	<node id="-571579" lat="62.3351027739" lon="7.10273888541">
		<tag k="name" v="Ekrelia" />
		<tag k="natural" v="slope" />
		<tag k="place" v="locality" />
		<tag k="ssr:stedsnr" v="763618" />
	</node>
	<node id="-571578" lat="62.3650083355" lon="7.07785555731">
		<tag k="name" v="Vadgjerda" />
		<tag k="natural" v="slope" />
		<tag k="place" v="locality" />
		<tag k="ssr:stedsnr" v="763578" />
	</node>
	<node id="-571577" lat="62.4403194414" lon="7.19296387994">
		<tag k="name" v="Midtbusthjellane" />
		<tag k="place" v="locality" />
		<tag k="ssr:stedsnr" v="763205" />
	</node>
	<node id="-571576" lat="62.3794500009" lon="7.12852221326">
		<tag k="name" v="Sauesteinbakkane" />
		<tag k="natural" v="slope" />
		<tag k="place" v="locality" />
		<tag k="ssr:stedsnr" v="763153" />
	</node>
	<node id="-571575" lat="62.3787611148" lon="7.12389722503">
		<tag k="historic" v="shieling" />
		<tag k="name" v="Gamlesætra" />
		<tag k="place" v="locality" />
		<tag k="ssr:stedsnr" v="763154" />
	</node>
	<node id="-571574" lat="62.3790555547" lon="7.12036944904">
		<tag k="name" v="Gamlegarden" />
		<tag k="natural" v="slope" />
		<tag k="place" v="locality" />
		<tag k="ssr:stedsnr" v="763151" />
	</node>
	<node id="-571573" lat="62.3774583338" lon="7.13984722645">
		<tag k="name" v="Leithola" />
		<tag k="place" v="locality" />
		<tag k="ssr:stedsnr" v="763122" />
	</node>
	<node id="-571572" lat="62.3837277765" lon="7.16004722768">
		<tag k="name" v="Brøtebakkane" />
		<tag k="natural" v="slope" />
		<tag k="place" v="locality" />
		<tag k="ssr:stedsnr" v="763109" />
	</node>
	<node id="-571571" lat="62.4128611102" lon="6.88785833346">
		<tag k="name" v="Skotselva" />
		<tag k="ssr:stedsnr" v="762836" />
		<tag k="waterway" v="stream" />
	</node>
	<node id="-571570" lat="62.3744277737" lon="6.97638055151">
		<tag k="name" v="Fagregylet" />
		<tag k="natural" v="gorge" />
		<tag k="ssr:stedsnr" v="762747" />
	</node>
	<node id="-571569" lat="62.3673305582" lon="6.94463332566">
		<tag k="name" v="Jakobsplassen" />
		<tag k="place" v="locality" />
		<tag k="ssr:stedsnr" v="762732" />
	</node>
	<node id="-571568" lat="62.4092277796" lon="6.94842499332">
		<tag k="name" v="Landflæene" />
		<tag k="natural" v="shoal" />
		<tag k="place" v="locality" />
		<tag k="ssr:stedsnr" v="762681" />
	</node>
	<node id="-571567" lat="62.3822555595" lon="7.02252500595">
		<tag k="name" v="Danmark" />
		<tag k="place" v="locality" />
		<tag k="ssr:stedsnr" v="762556" />
	</node>
	<node id="-571566" lat="62.3865055584" lon="6.98585556321">
		<tag k="name" v="Legene" />
		<tag k="natural" v="slope" />
		<tag k="place" v="locality" />
		<tag k="ssr:stedsnr" v="762550" />
	</node>
	<node id="-571565" lat="62.4298805572" lon="6.94188055618">
		<tag k="name" v="Fjellgylet" />
		<tag k="natural" v="gorge" />
		<tag k="ssr:stedsnr" v="762384" />
	</node>
	<node id="-571564" lat="62.4198055581" lon="6.95590277551">
		<tag k="name" v="Rognebakkane" />
		<tag k="natural" v="slope" />
		<tag k="old_name" v="Olabakkane" />
		<tag k="place" v="locality" />
		<tag k="ssr:stedsnr" v="762368" />
	</node>
	<node id="-571563" lat="62.3925972238" lon="6.96701666234">
		<tag k="name" v="Høgflåa" />
		<tag k="place" v="locality" />
		<tag k="ssr:stedsnr" v="762118" />
	</node>
	<node id="-571562" lat="62.3723055574" lon="6.94253610281">
		<tag k="name" v="Brønneset" />
		<tag k="natural" v="cape" />
		<tag k="ssr:stedsnr" v="759338" />
	</node>
	<node id="-571561" lat="62.3874027753" lon="7.18963334247">
		<tag k="name" v="Alnås" />
		<tag k="place" v="farm" />
		<tag k="ssr:stedsnr" v="759318" />
	</node>
	<node id="-571560" lat="62.3462972179" lon="7.09749166495">
		<tag k="name" v="Grønlia" />
		<tag k="natural" v="slope" />
		<tag k="place" v="locality" />
		<tag k="ssr:stedsnr" v="758831" />
	</node>
	<node id="-571559" lat="62.3463055527" lon="7.0937472174">
		<tag k="name" v="Kleiva" />
		<tag k="place" v="farm" />
		<tag k="ssr:stedsnr" v="758822" />
	</node>
	<node id="-571558" lat="62.3358666704" lon="7.20302777153">
		<tag k="alt_name" v="Tverrelva, fremste" />
		<tag k="name" v="Fremste Tverrelva" />
		<tag k="ssr:stedsnr" v="740500" />
		<tag k="waterway" v="stream" />
	</node>
	<node id="-571557" lat="62.3379472231" lon="7.19378888049">
		<tag k="alt_name" v="Tverrelva, heimste" />
		<tag k="name" v="Heimste Tverrelva" />
		<tag k="ssr:stedsnr" v="740495" />
		<tag k="waterway" v="stream" />
	</node>
	<node id="-571556" lat="62.3454527739" lon="7.23077222604">
		<tag k="name" v="Uriskaret" />
		<tag k="natural" v="valley" />
		<tag k="place" v="locality" />
		<tag k="ssr:stedsnr" v="739811" />
	</node>
	<node id="-571555" lat="62.3941222707" lon="6.89302028375">
		<tag k="fixme" v="consider place=hamlet" />
		<tag k="name" v="Vidhammar" />
		<tag k="old_name" v="Vindhammar" />
		<tag k="place" v="farm" />
		<tag k="ssr:stedsnr" v="739742" />
	</node>
	<node id="-571554" lat="62.3869829272" lon="7.18872409536">
		<tag k="fixme" v="consider place=hamlet" />
		<tag k="name" v="Almås" />
		<tag k="place" v="farm" />
		<tag k="ssr:stedsnr" v="739718" />
	</node>
	<node id="-571553" lat="62.3612138921" lon="6.9428916702">
		<tag k="name" v="Latøyna" />
		<tag k="place" v="locality" />
		<tag k="ssr:stedsnr" v="739684" />
	</node>
	<node id="-571552" lat="62.4065888903" lon="6.8955805602">
		<tag k="name" v="Nyken" />
		<tag k="natural" v="hill" />
		<tag k="place" v="locality" />
		<tag k="ssr:stedsnr" v="739632" />
	</node>
	<node id="-571551" lat="62.3520277746" lon="7.0890722186">
		<tag k="amenity" v="community_centre" />
		<tag k="name" v="Haggardshaugen" />
		<tag k="ssr:stedsnr" v="739563" />
	</node>
	<node id="-571550" lat="62.3481277811" lon="6.99826667076">
		<tag k="name" v="Jolgrøvatna" />
		<tag k="natural" v="water" />
		<tag k="ssr:stedsnr" v="739541" />
	</node>
	<node id="-571549" lat="62.3536111096" lon="7.13696667536">
		<tag k="name" v="Hestekjeften" />
		<tag k="natural" v="valley" />
		<tag k="place" v="locality" />
		<tag k="ssr:stedsnr" v="739537" />
	</node>
	<node id="-571548" lat="62.3875916639" lon="7.20498055291">
		<tag k="alt_name" v="Seljebotn" />
		<tag k="name" v="Seljebotnen" />
		<tag k="natural" v="valley" />
		<tag k="place" v="locality" />
		<tag k="ssr:stedsnr" v="738717" />
	</node>
	<node id="-571547" lat="62.38190167" lon="7.15873591262">
		<tag k="fixme" v="consider place=hamlet" />
		<tag k="name" v="Lianes" />
		<tag k="place" v="farm" />
		<tag k="ssr:stedsnr" v="738719" />
	</node>
	<node id="-571546" lat="62.4240805584" lon="6.94196111035">
		<tag k="name" v="Smineset" />
		<tag k="natural" v="cape" />
		<tag k="ssr:stedsnr" v="738678" />
	</node>
	<node id="-571545" lat="62.4234194408" lon="6.86739999209">
		<tag k="name" v="Plitten" />
		<tag k="ssr:stedsnr" v="738674" />
		<tag k="waterway" v="stream" />
	</node>
	<node id="-571544" lat="62.4271944427" lon="6.98984721721">
		<tag k="name" v="Trollhaugen" />
		<tag k="natural" v="hill" />
		<tag k="place" v="locality" />
		<tag k="ssr:stedsnr" v="738667" />
	</node>
	<node id="-571543" lat="62.4223388906" lon="7.25658332902">
		<tag k="name" v="Fokhaugstova" />
		<tag k="place" v="isolated_dwelling" />
		<tag k="ssr:stedsnr" v="728612" />
	</node>
	<node id="-571542" lat="62.4221632827" lon="6.94511029755">
		<tag k="fixme" v="consider place=hamlet" />
		<tag k="name" v="Nedre Dyrkorn" />
		<tag k="place" v="farm" />
		<tag k="ssr:stedsnr" v="719688" />
	</node>
	<node id="-571541" lat="62.3829388848" lon="6.98647499271">
		<tag k="bridge" v="yes" />
		<tag k="layer" v="1" />
		<tag k="name" v="Stordalsbrua" />
		<tag k="ssr:stedsnr" v="710875" />
	</node>
	<node id="-571540" lat="62.4224194419" lon="7.24755000811">
		<tag k="name" v="Fokhaugen" />
		<tag k="natural" v="hill" />
		<tag k="place" v="locality" />
		<tag k="ssr:stedsnr" v="703660" />
	</node>
	<node id="-571539" lat="62.4134583356" lon="6.94665832759">
		<tag k="name" v="Saltarvika" />
		<tag k="natural" v="bay" />
		<tag k="ssr:stedsnr" v="702663" />
	</node>
	<node id="-571538" lat="62.3635055548" lon="7.09406943917">
		<tag k="name" v="Støvfjellet" />
		<tag k="place" v="locality" />
		<tag k="ssr:stedsnr" v="702549" />
	</node>
	<node id="-571537" lat="62.3553777752" lon="7.1000277824">
		<tag k="name" v="Løsetsvoda" />
		<tag k="place" v="locality" />
		<tag k="ssr:stedsnr" v="702546" />
	</node>
	<node id="-571536" lat="62.3648527795" lon="7.12824999802">
		<tag k="name" v="Svødene" />
		<tag k="natural" v="slope" />
		<tag k="place" v="locality" />
		<tag k="ssr:stedsnr" v="702532" />
	</node>
	<node id="-571535" lat="62.3381055543" lon="7.13492221377">
		<tag k="name" v="Storrysta" />
		<tag k="natural" v="slope" />
		<tag k="place" v="locality" />
		<tag k="ssr:stedsnr" v="702481" />
	</node>
	<node id="-571534" lat="62.4347055572" lon="6.98800833587">
		<tag k="name" v="Kroketevasslia" />
		<tag k="natural" v="slope" />
		<tag k="place" v="locality" />
		<tag k="ssr:stedsnr" v="702428" />
	</node>
	<node id="-571533" lat="62.4337055571" lon="6.96940834226">
		<tag k="loc_name" v="Øggardsnakken" />
		<tag k="name" v="Øygardsnakken" />
		<tag k="natural" v="ridge" />
		<tag k="place" v="locality" />
		<tag k="ssr:stedsnr" v="702356" />
	</node>
	<node id="-571532" lat="62.4334916688" lon="6.95011944724">
		<tag k="name" v="Skaret" />
		<tag k="natural" v="valley" />
		<tag k="place" v="locality" />
		<tag k="ssr:stedsnr" v="702354" />
	</node>
	<node id="-571531" lat="62.4354166712" lon="7.01415000669">
		<tag k="name" v="Moshaugen" />
		<tag k="natural" v="hill" />
		<tag k="place" v="locality" />
		<tag k="ssr:stedsnr" v="702298" />
	</node>
	<node id="-571530" lat="62.4442777806" lon="7.20485277485">
		<tag k="name" v="Storlia" />
		<tag k="natural" v="slope" />
		<tag k="place" v="locality" />
		<tag k="ssr:stedsnr" v="702177" />
	</node>
	<node id="-571529" lat="62.3773472233" lon="7.11733333829">
		<tag k="name" v="Hoggja" />
		<tag k="natural" v="slope" />
		<tag k="place" v="locality" />
		<tag k="ssr:stedsnr" v="702147" />
	</node>
	<node id="-571528" lat="62.376222221" lon="7.10942776857">
		<tag k="name" v="Jasvollrystene" />
		<tag k="natural" v="slope" />
		<tag k="place" v="locality" />
		<tag k="ssr:stedsnr" v="702146" />
	</node>
	<node id="-571527" lat="62.3832833298" lon="7.15049999313">
		<tag k="name" v="Liagjerdet" />
		<tag k="natural" v="slope" />
		<tag k="place" v="locality" />
		<tag k="ssr:stedsnr" v="702128" />
	</node>
	<node id="-571526" lat="62.3739055535" lon="7.12839999573">
		<tag k="name" v="Myrane" />
		<tag k="natural" v="wetland" />
		<tag k="ssr:stedsnr" v="702124" />
	</node>
	<node id="-571525" lat="62.3733527771" lon="7.11744444252">
		<tag k="name" v="Kvamen" />
		<tag k="place" v="locality" />
		<tag k="ssr:stedsnr" v="702114" />
	</node>
	<node id="-571524" lat="62.3827250007" lon="7.14719444894">
		<tag k="name" v="Kjerringslættet" />
		<tag k="place" v="locality" />
		<tag k="ssr:stedsnr" v="702098" />
	</node>
	<node id="-571523" lat="62.3962416632" lon="7.12264167263">
		<tag k="historic" v="shieling" />
		<tag k="name" v="Stavdalsstølen" />
		<tag k="place" v="locality" />
		<tag k="ssr:stedsnr" v="702063" />
	</node>
	<node id="-571522" lat="62.3822611145" lon="7.05209721234">
		<tag k="name" v="Holt" />
		<tag k="place" v="farm" />
		<tag k="ssr:stedsnr" v="702049" />
	</node>
	<node id="-571521" lat="62.3731250042" lon="6.96704443818">
		<tag k="name" v="Stølegrova" />
		<tag k="ssr:stedsnr" v="701780" />
		<tag k="waterway" v="stream" />
	</node>
	<node id="-571520" lat="62.3697805549" lon="6.95705278656">
		<tag k="name" v="Skaret" />
		<tag k="natural" v="valley" />
		<tag k="place" v="locality" />
		<tag k="ssr:stedsnr" v="701770" />
	</node>
	<node id="-571519" lat="62.3739583368" lon="6.88539166543">
		<tag k="highway" v="path" />
		<tag k="name" v="Seterstien" />
		<tag k="ssr:stedsnr" v="701177" />
	</node>
	<node id="-571518" lat="62.3743166676" lon="6.88089999968">
		<tag k="name" v="Lia" />
		<tag k="natural" v="slope" />
		<tag k="place" v="locality" />
		<tag k="ssr:stedsnr" v="701169" />
	</node>
	<node id="-571517" lat="62.388341666" lon="6.88953055764">
		<tag k="name" v="Korsadalsvika" />
		<tag k="natural" v="bay" />
		<tag k="ssr:stedsnr" v="699308" />
	</node>
	<node id="-571516" lat="62.3400583371" lon="7.08331944718">
		<tag k="name" v="Ekrenakken" />
		<tag k="natural" v="ridge" />
		<tag k="place" v="locality" />
		<tag k="ssr:stedsnr" v="698799" />
	</node>
	<node id="-571515" lat="62.3653277747" lon="6.89029721679">
		<tag k="name" v="Galtevika" />
		<tag k="natural" v="bay" />
		<tag k="ssr:stedsnr" v="679673" />
	</node>
	<node id="-571514" lat="62.3649527765" lon="7.20826667503">
		<tag k="name" v="Geitabotnen" />
		<tag k="natural" v="valley" />
		<tag k="old_name" v="Geitabotn" />
		<tag k="place" v="locality" />
		<tag k="ssr:stedsnr" v="679515" />
	</node>
	<node id="-571513" lat="62.3671000041" lon="7.02018055864">
		<tag k="name" v="Fjelladalsvatnet" />
		<tag k="natural" v="water" />
		<tag k="ssr:stedsnr" v="679507" />
	</node>
	<node id="-571512" lat="62.3348861123" lon="7.12072777041">
		<tag k="historic" v="shieling" />
		<tag k="name" v="Ekrestølen" />
		<tag k="place" v="locality" />
		<tag k="ssr:stedsnr" v="679482" />
	</node>
	<node id="-571511" lat="62.3399892193" lon="7.09651971448">
		<tag k="fixme" v="consider place=hamlet" />
		<tag k="name" v="Ekrane" />
		<tag k="place" v="farm" />
		<tag k="ssr:stedsnr" v="679478" />
	</node>
	<node id="-571510" lat="62.3382027752" lon="7.09393055255">
		<tag k="name" v="Ekreelva" />
		<tag k="ssr:stedsnr" v="679459" />
		<tag k="waterway" v="stream" />
	</node>
	<node id="-571509" lat="62.4369861097" lon="7.25408055306">
		<tag k="name" v="Dyrdalen" />
		<tag k="natural" v="valley" />
		<tag k="place" v="locality" />
		<tag k="ssr:stedsnr" v="678995" />
	</node>
	<node id="-571508" lat="62.3698944452" lon="7.27973055741">
		<tag k="name" v="Rynggrova" />
		<tag k="ssr:stedsnr" v="678784" />
		<tag k="waterway" v="stream" />
	</node>
	<node id="-571507" lat="62.40051321" lon="6.94795401818">
		<tag k="fixme" v="consider place=hamlet" />
		<tag k="name" v="Stavneset" />
		<tag k="place" v="farm" />
		<tag k="ssr:stedsnr" v="678730" />
	</node>
	<node id="-571506" lat="62.3995277734" lon="7.15770554924">
		<tag k="name" v="Almåsbotnen" />
		<tag k="natural" v="valley" />
		<tag k="place" v="locality" />
		<tag k="ssr:stedsnr" v="678726" />
	</node>
	<node id="-571505" lat="62.3798972258" lon="6.8694277824">
		<tag k="fixme" v="consider natural=peak for the most distinct mountains in the district" />
		<tag k="name" v="Skjortnesryggen" />
		<tag k="natural" v="hill" />
		<tag k="place" v="locality" />
		<tag k="ssr:stedsnr" v="678709" />
	</node>
	<node id="-571504" lat="62.3789586091" lon="7.15018315215">
		<tag k="fixme" v="consider place=hamlet" />
		<tag k="name" v="Støle" />
		<tag k="place" v="farm" />
		<tag k="ssr:stedsnr" v="678701" />
	</node>
	<node id="-571503" lat="62.4265333308" lon="6.99930555923">
		<tag k="historic" v="shieling" />
		<tag k="name" v="Gjerdsstølen" />
		<tag k="place" v="locality" />
		<tag k="ssr:stedsnr" v="678659" />
	</node>
	<node id="-571502" lat="62.4232472241" lon="6.97836111751">
		<tag k="name" v="Tverrelva" />
		<tag k="ssr:stedsnr" v="678651" />
		<tag k="waterway" v="river" />
	</node>
	<node id="-571501" lat="62.40805556" lon="6.88403611326">
		<tag k="name" v="Koppeheia" />
		<tag k="natural" v="hill" />
		<tag k="old_name" v="Koppheia" />
		<tag k="place" v="locality" />
		<tag k="ssr:stedsnr" v="678645" />
	</node>
	<node id="-571500" lat="62.4128000014" lon="7.12573889499">
		<tag k="name" v="Storskreda" />
		<tag k="natural" v="slope" />
		<tag k="place" v="locality" />
		<tag k="ssr:stedsnr" v="678636" />
	</node>
	<node id="-571499" lat="62.41249722" lon="6.97187778673">
		<tag k="name" v="Vikahornet" />
		<tag k="natural" v="hill" />
		<tag k="place" v="locality" />
		<tag k="ssr:stedsnr" v="678632" />
	</node>
	<node id="-571498" lat="62.4096944412" lon="6.90740554876">
		<tag k="fixme" v="consider natural=peak for the most distinct mountains in the district" />
		<tag k="name" v="Veten" />
		<tag k="natural" v="hill" />
		<tag k="place" v="locality" />
		<tag k="ssr:stedsnr" v="678626" />
	</node>
	<node id="-571497" lat="62.4540138913" lon="7.19522777957">
		<tag k="name" v="Fanthammaren" />
		<tag k="natural" v="hill" />
		<tag k="place" v="locality" />
		<tag k="ssr:stedsnr" v="658363" />
	</node>
	<node id="-571496" lat="62.4415138911" lon="7.2321194461">
		<tag k="name" v="Nilsurene" />
		<tag k="natural" v="scree" />
		<tag k="ssr:stedsnr" v="642834" />
	</node>
	<node id="-571495" lat="62.3679138886" lon="7.25738889344">
		<tag k="name" v="Uriskarskogen" />
		<tag k="place" v="locality" />
		<tag k="ssr:stedsnr" v="642816" />
	</node>
	<node id="-571494" lat="62.4348472181" lon="7.31190278721">
		<tag k="name" v="Ådalselva" />
		<tag k="ssr:stedsnr" v="642648" />
		<tag k="waterway" v="river" />
	</node>
	<node id="-571493" lat="62.3949583363" lon="6.96161666771">
		<tag k="name" v="Hovslia" />
		<tag k="natural" v="slope" />
		<tag k="place" v="locality" />
		<tag k="ssr:stedsnr" v="641980" />
	</node>
	<node id="-571492" lat="62.385825003" lon="7.19834167053">
		<tag k="name" v="Øyna" />
		<tag k="natural" v="slope" />
		<tag k="place" v="locality" />
		<tag k="ssr:stedsnr" v="641841" />
	</node>
	<node id="-571491" lat="62.3895472209" lon="7.20298889591">
		<tag k="name" v="Langhaugen" />
		<tag k="natural" v="hill" />
		<tag k="place" v="locality" />
		<tag k="ssr:stedsnr" v="641839" />
	</node>
	<node id="-571490" lat="62.3957583341" lon="7.19723056283">
		<tag k="name" v="Almåslia" />
		<tag k="natural" v="slope" />
		<tag k="place" v="locality" />
		<tag k="ssr:stedsnr" v="641700" />
	</node>
	<node id="-571489" lat="62.3998055517" lon="7.21142777471">
		<tag k="name" v="Hjellhaugen" />
		<tag k="natural" v="hill" />
		<tag k="place" v="locality" />
		<tag k="ssr:stedsnr" v="641657" />
	</node>
	<node id="-571488" lat="62.4073416634" lon="6.98733332902">
		<tag k="name" v="Storelineset" />
		<tag k="natural" v="cape" />
		<tag k="ssr:stedsnr" v="641531" />
	</node>
	<node id="-571487" lat="62.3486611075" lon="7.0920138973">
		<tag k="junction" v="yes" />
		<tag k="name" v="Øyevegskiftet" />
		<tag k="place" v="locality" />
		<tag k="ssr:stedsnr" v="641527" />
	</node>
	<node id="-571486" lat="62.4309833379" lon="6.99579167174">
		<tag k="name" v="Puskehaugen" />
		<tag k="natural" v="hill" />
		<tag k="place" v="locality" />
		<tag k="ssr:stedsnr" v="641408" />
	</node>
	<node id="-571485" lat="62.4324527761" lon="6.92400834244">
		<tag k="name" v="Vollabakkane" />
		<tag k="natural" v="slope" />
		<tag k="place" v="locality" />
		<tag k="ssr:stedsnr" v="641347" />
	</node>
	<node id="-571484" lat="62.424252775" lon="6.94492778737">
		<tag k="name" v="Hjellane" />
		<tag k="place" v="locality" />
		<tag k="ssr:stedsnr" v="641334" />
	</node>
	<node id="-571483" lat="62.4157777805" lon="7.20714721358">
		<tag k="name" v="Bremsrørene" />
		<tag k="natural" v="ridge" />
		<tag k="place" v="locality" />
		<tag k="ssr:stedsnr" v="641203" />
	</node>
	<node id="-571482" lat="62.4384222218" lon="7.20646667057">
		<tag k="name" v="Dansarhaugen" />
		<tag k="natural" v="hill" />
		<tag k="place" v="locality" />
		<tag k="ssr:stedsnr" v="641153" />
	</node>
	<node id="-571481" lat="62.3725388886" lon="7.11476666826">
		<tag k="historic" v="shieling" />
		<tag k="name" v="Stølen" />
		<tag k="place" v="locality" />
		<tag k="ssr:stedsnr" v="641090" />
	</node>
	<node id="-571480" lat="62.3723611072" lon="7.09062778236">
		<tag k="name" v="Trippe" />
		<tag k="natural" v="ridge" />
		<tag k="place" v="locality" />
		<tag k="ssr:stedsnr" v="641065" />
	</node>
	<node id="-571479" lat="62.3591444459" lon="6.969827773">
		<tag k="name" v="Litlelømarka" />
		<tag k="natural" v="slope" />
		<tag k="place" v="locality" />
		<tag k="ssr:stedsnr" v="640777" />
	</node>
	<node id="-571478" lat="62.3557472235" lon="6.94851945226">
		<tag k="fixme" v="verify maritime location" />
		<tag k="mooring" v="yes" />
		<tag k="name" v="Djupdalsstøa" />
		<tag k="place" v="locality" />
		<tag k="ssr:stedsnr" v="640774" />
	</node>
	<node id="-571477" lat="62.3731999972" lon="6.95021667249">
		<tag k="name" v="Køvhola" />
		<tag k="natural" v="bay" />
		<tag k="ssr:stedsnr" v="640756" />
	</node>
	<node id="-571476" lat="62.3710972256" lon="6.95028611819">
		<tag k="highway" v="path" />
		<tag k="name" v="Peknutstien" />
		<tag k="ssr:stedsnr" v="640747" />
	</node>
	<node id="-571475" lat="62.3818111148" lon="6.99150833958">
		<tag k="name" v="Sjøabrauta" />
		<tag k="natural" v="slope" />
		<tag k="place" v="locality" />
		<tag k="ssr:stedsnr" v="640620" />
	</node>
	<node id="-571474" lat="62.378797219" lon="7.00071110228">
		<tag k="name" v="Vinjesanden" />
		<tag k="place" v="quarter" />
		<tag k="ssr:stedsnr" v="640604" />
	</node>
	<node id="-571473" lat="62.3871555591" lon="6.88910000805">
		<tag k="name" v="Korsadalsneset" />
		<tag k="natural" v="cape" />
		<tag k="ssr:stedsnr" v="640198" />
	</node>
	<node id="-571472" lat="62.3739231768" lon="6.93630758329">
		<tag k="fixme" v="consider place=hamlet" />
		<tag k="name" v="Stordalsholmen" />
		<tag k="place" v="farm" />
		<tag k="ssr:stedsnr" v="632971" />
	</node>
	<node id="-571471" lat="62.3675527806" lon="7.17267776824">
		<tag k="name" v="Nakkeskreda" />
		<tag k="natural" v="hill" />
		<tag k="place" v="locality" />
		<tag k="ssr:stedsnr" v="618544" />
	</node>
	<node id="-571470" lat="62.3636499984" lon="7.01043333557">
		<tag k="fixme" v="consider natural=peak for the most distinct mountains in the district" />
		<tag k="name" v="Småhornet" />
		<tag k="natural" v="hill" />
		<tag k="place" v="locality" />
		<tag k="ssr:stedsnr" v="618537" />
	</node>
	<node id="-571469" lat="62.3395916639" lon="7.13526667372">
		<tag k="historic" v="shieling" />
		<tag k="name" v="Riset" />
		<tag k="place" v="locality" />
		<tag k="ssr:stedsnr" v="618514" />
	</node>
	<node id="-571468" lat="62.4523916682" lon="7.33473610604">
		<tag k="fixme" v="consider natural=peak for the most distinct mountains in the district" />
		<tag k="name" v="Litlevasstinden" />
		<tag k="natural" v="hill" />
		<tag k="place" v="locality" />
		<tag k="ssr:stedsnr" v="617982" />
	</node>
	<node id="-571467" lat="62.3974499962" lon="7.24519999911">
		<tag k="name" v="Litlebotnen" />
		<tag k="natural" v="valley" />
		<tag k="place" v="locality" />
		<tag k="ssr:stedsnr" v="617962" />
	</node>
	<node id="-571466" lat="62.3988916702" lon="6.88599999774">
		<tag k="historic" v="shieling" />
		<tag k="name" v="Vidhammarsætra" />
		<tag k="place" v="locality" />
		<tag k="ssr:stedsnr" v="617767" />
	</node>
	<node id="-571465" lat="62.3895749984" lon="7.17744999727">
		<tag k="name" v="Alnåna" />
		<tag k="ssr:stedsnr" v="617736" />
		<tag k="waterway" v="stream" />
	</node>
	<node id="-571464" lat="62.3789361085" lon="7.0916499976">
		<tag k="historic" v="shieling" />
		<tag k="name" v="Mosætra" />
		<tag k="place" v="locality" />
		<tag k="ssr:stedsnr" v="617722" />
	</node>
	<node id="-571463" lat="62.3736333303" lon="6.8748416576">
		<tag k="historic" v="shieling" />
		<tag k="name" v="Skjortnessætra" />
		<tag k="place" v="locality" />
		<tag k="ssr:stedsnr" v="617713" />
	</node>
	<node id="-571462" lat="62.3674972246" lon="7.04317778014">
		<tag k="fixme" v="consider natural=peak for the most distinct mountains in the district" />
		<tag k="name" v="Storhornet" />
		<tag k="natural" v="hill" />
		<tag k="place" v="locality" />
		<tag k="ssr:stedsnr" v="617705" />
	</node>
	<node id="-571461" lat="62.434416667" lon="7.20329165755">
		<tag k="name" v="Raudeberget" />
		<tag k="natural" v="hill" />
		<tag k="place" v="locality" />
		<tag k="ssr:stedsnr" v="617686" />
	</node>
	<node id="-571460" lat="62.4084138889" lon="6.91245000312">
		<tag k="name" v="Naustvika" />
		<tag k="natural" v="bay" />
		<tag k="ssr:stedsnr" v="617635" />
	</node>
	<node id="-571459" lat="62.446347225" lon="7.16216943502">
		<tag k="fixme" v="consider natural=peak for the most distinct mountains in the district" />
		<tag k="name" v="Rollsbottskorka" />
		<tag k="natural" v="hill" />
		<tag k="place" v="locality" />
		<tag k="ssr:stedsnr" v="617398" />
	</node>
	<node id="-571458" lat="62.3919777804" lon="7.01804167228">
		<tag k="name" v="Gullafallet" />
		<tag k="natural" v="hill" />
		<tag k="place" v="locality" />
		<tag k="ssr:stedsnr" v="597279" />
	</node>
	<node id="-571457" lat="62.3785027767" lon="7.21248334252">
		<tag k="name" v="Svarthamrane" />
		<tag k="place" v="locality" />
		<tag k="ssr:stedsnr" v="581849" />
	</node>
	<node id="-571456" lat="62.4160166713" lon="7.32163611878">
		<tag k="name" v="Storvasshytta" />
		<tag k="place" v="isolated_dwelling" />
		<tag k="ssr:stedsnr" v="581715" />
	</node>
	<node id="-571455" lat="62.4248527769" lon="7.3014999986">
		<tag k="name" v="Kambehaugane" />
		<tag k="natural" v="hill" />
		<tag k="place" v="locality" />
		<tag k="ssr:stedsnr" v="581707" />
	</node>
	<node id="-571454" lat="62.4221666626" lon="7.30363054946">
		<tag k="name" v="Kambemyrane" />
		<tag k="natural" v="wetland" />
		<tag k="ssr:stedsnr" v="581704" />
	</node>
	<node id="-571453" lat="62.3986111107" lon="7.21921389529">
		<tag k="historic" v="shieling" />
		<tag k="name" v="Stølen" />
		<tag k="place" v="locality" />
		<tag k="ssr:stedsnr" v="581694" />
	</node>
	<node id="-571452" lat="62.4133444465" lon="7.22449999204">
		<tag k="name" v="Hagardsslætta" />
		<tag k="natural" v="slope" />
		<tag k="place" v="locality" />
		<tag k="ssr:stedsnr" v="581659" />
	</node>
	<node id="-571451" lat="62.425227777" lon="7.24645555702">
		<tag k="name" v="Fokhauglia" />
		<tag k="natural" v="slope" />
		<tag k="place" v="locality" />
		<tag k="ssr:stedsnr" v="581657" />
	</node>
	<node id="-571450" lat="62.4313611147" lon="7.23291943963">
		<tag k="name" v="Litlelia" />
		<tag k="natural" v="slope" />
		<tag k="place" v="locality" />
		<tag k="ssr:stedsnr" v="581645" />
	</node>
	<node id="-571449" lat="62.4137555582" lon="7.20954443945">
		<tag k="name" v="Bergeløslættet" />
		<tag k="natural" v="slope" />
		<tag k="place" v="locality" />
		<tag k="ssr:stedsnr" v="581280" />
	</node>
	<node id="-571448" lat="62.3838805533" lon="7.10890556073">
		<tag k="name" v="Øykjestø" />
		<tag k="natural" v="slope" />
		<tag k="place" v="locality" />
		<tag k="ssr:stedsnr" v="581157" />
	</node>
	<node id="-571447" lat="62.3807194464" lon="7.15574721309">
		<tag k="name" v="Granheim" />
		<tag k="place" v="farm" />
		<tag k="ssr:stedsnr" v="581120" />
	</node>
	<node id="-571446" lat="62.3801944417" lon="7.15991667268">
		<tag k="name" v="Nakkehavet" />
		<tag k="place" v="locality" />
		<tag k="ssr:stedsnr" v="581117" />
	</node>
	<node id="-571445" lat="62.373630558" lon="7.07909721754">
		<tag k="name" v="Torvå" />
		<tag k="place" v="farm" />
		<tag k="ssr:stedsnr" v="581091" />
	</node>
	<node id="-571444" lat="62.3714305584" lon="7.10709721635">
		<tag k="name" v="Ondelendene" />
		<tag k="natural" v="slope" />
		<tag k="place" v="locality" />
		<tag k="ssr:stedsnr" v="581082" />
	</node>
	<node id="-571443" lat="62.4072944471" lon="7.12748610537">
		<tag k="historic" v="shieling" />
		<tag k="name" v="Findastølen" />
		<tag k="place" v="locality" />
		<tag k="ssr:stedsnr" v="581073" />
	</node>
	<node id="-571442" lat="62.3834416627" lon="7.05397499414">
		<tag k="name" v="Leirbakkane" />
		<tag k="natural" v="slope" />
		<tag k="place" v="locality" />
		<tag k="ssr:stedsnr" v="581044" />
	</node>
	<node id="-571441" lat="62.3865166685" lon="7.18825833356">
		<tag k="name" v="Tøbbedalen" />
		<tag k="natural" v="gorge" />
		<tag k="ssr:stedsnr" v="580861" />
	</node>
	<node id="-571440" lat="62.3839833319" lon="7.18766110841">
		<tag k="name" v="Gylja" />
		<tag k="natural" v="gorge" />
		<tag k="ssr:stedsnr" v="580857" />
	</node>
	<node id="-571439" lat="62.3821722216" lon="7.16710277856">
		<tag k="bridge" v="yes" />
		<tag k="layer" v="1" />
		<tag k="name" v="Nakkebrua" />
		<tag k="ssr:stedsnr" v="580855" />
	</node>
	<node id="-571438" lat="62.4117527793" lon="7.00387499025">
		<tag k="name" v="Svagrova" />
		<tag k="ssr:stedsnr" v="580525" />
		<tag k="waterway" v="stream" />
	</node>
	<node id="-571437" lat="62.4073694424" lon="7.20612777251">
		<tag k="name" v="Nystihamrane" />
		<tag k="place" v="locality" />
		<tag k="ssr:stedsnr" v="580520" />
	</node>
	<node id="-571436" lat="62.3405472251" lon="7.140663889">
		<tag k="historic" v="shieling" />
		<tag k="name" v="Gamlestølen" />
		<tag k="place" v="locality" />
		<tag k="ssr:stedsnr" v="580457" />
	</node>
	<node id="-571435" lat="62.3407555575" lon="7.13939721426">
		<tag k="name" v="Fannegylet" />
		<tag k="natural" v="gorge" />
		<tag k="ssr:stedsnr" v="580455" />
	</node>
	<node id="-571434" lat="62.4243222236" lon="6.97572500356">
		<tag k="name" v="Gjerdsgjerda" />
		<tag k="natural" v="slope" />
		<tag k="place" v="locality" />
		<tag k="ssr:stedsnr" v="580346" />
	</node>
	<node id="-571433" lat="62.4241666664" lon="6.94862222427">
		<tag k="name" v="Reiten" />
		<tag k="place" v="locality" />
		<tag k="ssr:stedsnr" v="580333" />
	</node>
	<node id="-571432" lat="62.4155583298" lon="6.94944721809">
		<tag k="name" v="Vikastranda" />
		<tag k="place" v="locality" />
		<tag k="ssr:stedsnr" v="580307" />
	</node>
	<node id="-571431" lat="62.3893666633" lon="6.95761945369">
		<tag k="name" v="Nyfonna" />
		<tag k="natural" v="slope" />
		<tag k="place" v="locality" />
		<tag k="ssr:stedsnr" v="579995" />
	</node>
	<node id="-571430" lat="62.3653411891" lon="6.95187145016">
		<tag k="name" v="Høgenakken" />
		<tag k="natural" v="ridge" />
		<tag k="place" v="locality" />
		<tag k="ssr:stedsnr" v="579799" />
	</node>
	<node id="-571429" lat="62.3566472184" lon="6.95092222142">
		<tag k="name" v="Djupdalsgjølet" />
		<tag k="natural" v="gorge" />
		<tag k="ssr:stedsnr" v="579792" />
	</node>
	<node id="-571428" lat="62.3676805582" lon="6.94027777155">
		<tag k="name" v="Tobaksnes" />
		<tag k="natural" v="cape" />
		<tag k="ssr:stedsnr" v="579776" />
	</node>
	<node id="-571427" lat="62.3818777738" lon="7.02889165783">
		<tag k="name" v="Rikjenda" />
		<tag k="ssr:stedsnr" v="579666" />
		<tag k="waterway" v="stream" />
	</node>
	<node id="-571426" lat="62.3840916634" lon="6.98444722872">
		<tag k="name" v="Hovsbugen" />
		<tag k="natural" v="bay" />
		<tag k="ssr:stedsnr" v="579661" />
	</node>
	<node id="-571425" lat="62.3875750003" lon="6.98418610414">
		<tag k="name" v="Høgsvoda" />
		<tag k="place" v="locality" />
		<tag k="ssr:stedsnr" v="579660" />
	</node>
	<node id="-571424" lat="62.3844722221" lon="6.9960555562">
		<tag k="name" v="Litleelva" />
		<tag k="ssr:stedsnr" v="579656" />
		<tag k="waterway" v="stream" />
	</node>
	<node id="-571423" lat="62.3766027766" lon="6.98133610506">
		<tag k="name" v="Fonnahaudet" />
		<tag k="natural" v="hill" />
		<tag k="place" v="locality" />
		<tag k="ssr:stedsnr" v="579653" />
	</node>
	<node id="-571422" lat="62.3814055528" lon="6.87490833456">
		<tag k="fixme" v="consider natural=peak for the most distinct mountains in the district" />
		<tag k="name" v="Korsadalshornet" />
		<tag k="natural" v="hill" />
		<tag k="place" v="locality" />
		<tag k="ssr:stedsnr" v="579195" />
	</node>
	<node id="-571421" lat="62.3899916655" lon="6.89045555062">
		<tag k="name" v="Litleneset" />
		<tag k="natural" v="cape" />
		<tag k="ssr:stedsnr" v="579182" />
	</node>
	<node id="-571420" lat="62.4224555532" lon="6.9435861117">
		<tag k="name" v="Smivika" />
		<tag k="natural" v="bay" />
		<tag k="ssr:stedsnr" v="577325" />
	</node>
	<node id="-571419" lat="62.3982416626" lon="6.94920277685">
		<tag k="name" v="Stavnesbugen" />
		<tag k="natural" v="bay" />
		<tag k="ssr:stedsnr" v="577324" />
	</node>
	<node id="-571418" lat="62.4533888865" lon="7.25120555702">
		<tag k="fixme" v="consider natural=peak for the most distinct mountains in the district" />
		<tag k="name" v="Dyrdalstinden" />
		<tag k="natural" v="hill" />
		<tag k="place" v="locality" />
		<tag k="ssr:stedsnr" v="557972" />
	</node>
	<node id="-571417" lat="62.3845860463" lon="7.0295547761">
		<tag k="fixme" v="consider place=hamlet" />
		<tag k="name" v="Øvrebust" />
		<tag k="place" v="farm" />
		<tag k="ssr:stedsnr" v="557698" />
	</node>
	<node id="-571416" lat="62.3923444411" lon="6.98142500173">
		<tag k="historic" v="shieling" />
		<tag k="name" v="Hovsnakken" />
		<tag k="place" v="locality" />
		<tag k="ssr:stedsnr" v="557696" />
	</node>
	<node id="-571415" lat="62.3897972246" lon="7.09591388349">
		<tag k="fixme" v="consider natural=peak for the most distinct mountains in the district" />
		<tag k="name" v="Mohornet" />
		<tag k="natural" v="hill" />
		<tag k="place" v="locality" />
		<tag k="ssr:stedsnr" v="557695" />
	</node>
	<node id="-571414" lat="62.3816527395" lon="6.9967374725">
		<tag k="alt_name" v="Gjestegarden" />
		<tag k="fixme" v="consider place=hamlet" />
		<tag k="name" v="Vinje" />
		<tag k="place" v="farm" />
		<tag k="ssr:stedsnr" v="557682" />
	</node>
	<node id="-571413" lat="62.3592250035" lon="7.07195277151">
		<tag k="name" v="Fjellåna" />
		<tag k="old_name" v="Fjellåa" />
		<tag k="ssr:stedsnr" v="557597" />
		<tag k="waterway" v="stream" />
	</node>
	<node id="-571412" lat="62.3528749958" lon="7.12305556355">
		<tag k="name" v="Fagerbotnen" />
		<tag k="natural" v="valley" />
		<tag k="old_name" v="Fagerbotn" />
		<tag k="place" v="locality" />
		<tag k="ssr:stedsnr" v="557504" />
	</node>
	<node id="-571411" lat="62.3359500002" lon="7.12284723029">
		<tag k="historic" v="shieling" />
		<tag k="name" v="Øyesætra" />
		<tag k="place" v="locality" />
		<tag k="ssr:stedsnr" v="557502" />
	</node>
	<node id="-571410" lat="62.3406002743" lon="7.10789376367">
		<tag k="fixme" v="consider place=hamlet" />
		<tag k="name" v="Rødsetsætra" />
		<tag k="place" v="farm" />
		<tag k="ssr:stedsnr" v="557501" />
	</node>
	<node id="-571409" lat="62.4568222231" lon="7.19853889278">
		<tag k="name" v="Kleivavatnet" />
		<tag k="natural" v="water" />
		<tag k="ssr:stedsnr" v="557346" />
	</node>
	<node id="-571408" lat="62.4154305511" lon="7.25429165956">
		<tag k="name" v="Litleådalen" />
		<tag k="natural" v="valley" />
		<tag k="place" v="locality" />
		<tag k="ssr:stedsnr" v="556985" />
	</node>
	<node id="-571407" lat="62.3824684623" lon="7.23163318389">
		<tag k="fixme" v="consider place=hamlet" />
		<tag k="loc_name" v="Seljebotnen" />
		<tag k="name" v="Seljebotn" />
		<tag k="place" v="farm" />
		<tag k="ssr:stedsnr" v="556960" />
	</node>
	<node id="-571406" lat="62.3745527818" lon="7.22807223093">
		<tag k="name" v="Litlelva" />
		<tag k="ssr:stedsnr" v="556792" />
		<tag k="waterway" v="stream" />
	</node>
	<node id="-571405" lat="62.3976611145" lon="6.99409166404">
		<tag k="name" v="Myrdalen" />
		<tag k="natural" v="valley" />
		<tag k="place" v="locality" />
		<tag k="ssr:stedsnr" v="556754" />
	</node>
	<node id="-571404" lat="62.3367972189" lon="7.15486388832">
		<tag k="name" v="Litlebotnen" />
		<tag k="natural" v="valley" />
		<tag k="old_name" v="Veslebotn" />
		<tag k="place" v="locality" />
		<tag k="ssr:stedsnr" v="556751" />
	</node>
	<node id="-571403" lat="62.3823535186" lon="7.04909972303">
		<tag k="fixme" v="consider place=hamlet" />
		<tag k="name" v="Holt" />
		<tag k="place" v="farm" />
		<tag k="ssr:stedsnr" v="556724" />
	</node>
	<node id="-571402" lat="62.3807828254" lon="7.11722830368">
		<tag k="fixme" v="consider place=hamlet" />
		<tag k="name" v="Jasvollsætra" />
		<tag k="place" v="farm" />
		<tag k="ssr:stedsnr" v="556722" />
	</node>
	<node id="-571401" lat="62.3783555581" lon="7.09110834088">
		<tag k="fixme" v="consider natural=peak for the most distinct mountains in the district" />
		<tag k="name" v="Monakken" />
		<tag k="natural" v="hill" />
		<tag k="place" v="locality" />
		<tag k="ssr:stedsnr" v="556716" />
	</node>
	<node id="-571400" lat="62.3748111131" lon="7.18602222413">
		<tag k="name" v="Langhaugbotnen" />
		<tag k="natural" v="valley" />
		<tag k="place" v="locality" />
		<tag k="ssr:stedsnr" v="556712" />
	</node>
	<node id="-571399" lat="62.4343999975" lon="7.12146111358">
		<tag k="fixme" v="consider natural=peak for the most distinct mountains in the district" />
		<tag k="name" v="Grytavasstinden" />
		<tag k="natural" v="hill" />
		<tag k="old_name" v="Grytavasstind" />
		<tag k="place" v="locality" />
		<tag k="ssr:stedsnr" v="556700" />
	</node>
	<node id="-571398" lat="62.421466664" lon="6.89021667548">
		<tag k="name" v="Vollvikneset" />
		<tag k="natural" v="cape" />
		<tag k="old_name" v="Volvikneset" />
		<tag k="ssr:stedsnr" v="556697" />
	</node>
	<node id="-571397" lat="62.428701441" lon="6.94543174019">
		<tag k="fixme" v="consider place=hamlet" />
		<tag k="name" v="Lia" />
		<tag k="place" v="farm" />
		<tag k="ssr:stedsnr" v="556693" />
	</node>
	<node id="-571396" lat="62.4250027811" lon="7.1256722168">
		<tag k="name" v="Tverrbotnen" />
		<tag k="natural" v="valley" />
		<tag k="place" v="locality" />
		<tag k="ssr:stedsnr" v="556684" />
	</node>
	<node id="-571395" lat="62.4037499991" lon="6.89669165972">
		<tag k="historic" v="shieling" />
		<tag k="name" v="Skotssætra" />
		<tag k="place" v="locality" />
		<tag k="ssr:stedsnr" v="556651" />
	</node>
	<node id="-571394" lat="62.3342777769" lon="7.18974722842">
		<tag k="name" v="Karlstad" />
		<tag k="place" v="isolated_dwelling" />
		<tag k="ssr:stedsnr" v="537700" />
	</node>
	<node id="-571393" lat="62.3827653823" lon="7.0052488584">
		<tag k="fixme" v="consider place=hamlet" />
		<tag k="name" v="Busengdal" />
		<tag k="place" v="farm" />
		<tag k="ssr:stedsnr" v="537688" />
	</node>
</osm>
