<?xml version="1.0" encoding="UTF-8"?>
<osm generator="osmapis" version="0.6">
	<node id="-572542" lat="62.395669443" lon="7.2150722202">
		<tag k="name" v="Seljebotsmyrane" />
		<tag k="natural" v="wetland" />
		<tag k="ssr:stedsnr" v="945664" />
	</node>
	<node id="-571901" lat="62.4232055551" lon="7.24281666414">
		<tag k="name" v="Fokhaugmyrane" />
		<tag k="natural" v="wetland" />
		<tag k="ssr:stedsnr" v="885628" />
	</node>
	<node id="-572537" lat="62.3692805545" lon="7.09115833487">
		<tag k="name" v="Porsemyra" />
		<tag k="natural" v="wetland" />
		<tag k="ssr:stedsnr" v="945508" />
	</node>
	<node id="-572152" lat="62.4044722242" lon="6.94557777062">
		<tag k="name" v="Aurmedet" />
		<tag k="natural" v="scree" />
		<tag k="ssr:stedsnr" v="415614" />
	</node>
	<node id="-572023" lat="62.4221111076" lon="6.94608332918">
		<tag k="name" v="Torva" />
		<tag k="place" v="locality" />
		<tag k="ssr:stedsnr" v="95337" />
	</node>
	<node id="-571894" lat="62.3810055564" lon="7.04451944048">
		<tag k="name" v="Holtøyane" />
		<tag k="place" v="locality" />
		<tag k="ssr:stedsnr" v="885041" />
	</node>
	<node id="-572532" lat="62.3811194476" lon="7.15185277239">
		<tag k="name" v="Tegane" />
		<tag k="place" v="locality" />
		<tag k="ssr:stedsnr" v="945103" />
	</node>
	<node id="-572531" lat="62.3799416684" lon="7.15327778512">
		<tag k="name" v="Myrane" />
		<tag k="natural" v="wetland" />
		<tag k="ssr:stedsnr" v="945086" />
	</node>
	<node id="-571890" lat="62.4222583298" lon="6.98524166503">
		<tag k="name" v="Fremstemyrane" />
		<tag k="natural" v="wetland" />
		<tag k="ssr:stedsnr" v="884411" />
	</node>
	<node id="-571881" lat="62.4145083328" lon="6.87494166208">
		<tag k="name" v="Heimyrane" />
		<tag k="natural" v="wetland" />
		<tag k="ssr:stedsnr" v="883899" />
	</node>
	<node id="-572136" lat="62.3731499988" lon="7.25591666703">
		<tag k="landuse" v="meadow" />
		<tag k="name" v="Botnaløslættet" />
		<tag k="ssr:stedsnr" v="217807" />
	</node>
	<node id="-572385" lat="62.3739055535" lon="7.12839999573">
		<tag k="name" v="Myrane" />
		<tag k="natural" v="wetland" />
		<tag k="ssr:stedsnr" v="702124" />
	</node>
	<node id="-572248" lat="62.3924361079" lon="6.95475277531">
		<tag k="name" v="Spjøtura" />
		<tag k="natural" v="scree" />
		<tag k="ssr:stedsnr" v="520712" />
	</node>
	<node id="-571860" lat="62.4340722251" lon="6.95460833991">
		<tag k="name" v="Demningane" />
		<tag k="natural" v="wetland" />
		<tag k="ssr:stedsnr" v="398355" />
	</node>
	<node id="-571857" lat="62.4213527737" lon="6.96752222704">
		<tag k="name" v="Dyrkornmyrane" />
		<tag k="natural" v="wetland" />
		<tag k="ssr:stedsnr" v="398274" />
	</node>
	<node id="-572024" lat="62.409819442" lon="6.99661944488">
		<tag k="historic" v="shieling" />
		<tag k="name" v="Findastølen" />
		<tag k="place" v="locality" />
		<tag k="ssr:stedsnr" v="95514" />
	</node>
	<node id="-571982" lat="62.4106555523" lon="7.21323889279">
		<tag k="name" v="Haugåkerteigane" />
		<tag k="place" v="locality" />
		<tag k="ssr:stedsnr" v="35832" />
	</node>
	<node id="-572237" lat="62.3705055556" lon="7.10012776937">
		<tag k="name" v="Holen" />
		<tag k="place" v="locality" />
		<tag k="ssr:stedsnr" v="520075" />
	</node>
	<node id="-572234" lat="62.3786611078" lon="7.05480000915">
		<tag k="name" v="Øyane" />
		<tag k="place" v="locality" />
		<tag k="ssr:stedsnr" v="520035" />
	</node>
	<node id="-572229" lat="62.3738111072" lon="6.94300832784">
		<tag k="name" v="Sersjantura" />
		<tag k="natural" v="scree" />
		<tag k="ssr:stedsnr" v="519762" />
	</node>
	<node id="-572355" lat="62.4415138911" lon="7.2321194461">
		<tag k="name" v="Nilsurene" />
		<tag k="natural" v="scree" />
		<tag k="ssr:stedsnr" v="642834" />
	</node>
	<node id="-572226" lat="62.3811138921" lon="7.00959722478">
		<tag k="name" v="Kirkebøsandane" />
		<tag k="place" v="locality" />
		<tag k="ssr:stedsnr" v="519628" />
	</node>
	<node id="-572480" lat="62.3641166675" lon="7.26838888954">
		<tag k="name" v="Blåura" />
		<tag k="natural" v="scree" />
		<tag k="ssr:stedsnr" v="824848" />
	</node>
	<node id="-571836" lat="62.4016194487" lon="7.219580557">
		<tag k="name" v="Kroken" />
		<tag k="natural" v="wetland" />
		<tag k="ssr:stedsnr" v="339841" />
	</node>
	<node id="-571978" lat="62.4302111118" lon="7.22184999731">
		<tag k="name" v="Deplane" />
		<tag k="natural" v="wetland" />
		<tag k="ssr:stedsnr" v="35664" />
	</node>
	<node id="-572474" lat="62.3758555543" lon="7.13745554968">
		<tag k="name" v="Bølømarka" />
		<tag k="place" v="locality" />
		<tag k="ssr:stedsnr" v="824140" />
	</node>
	<node id="-571832" lat="62.3873861146" lon="7.19704999255">
		<tag k="name" v="Hjellmyrane" />
		<tag k="natural" v="wetland" />
		<tag k="ssr:stedsnr" v="338851" />
	</node>
	<node id="-571831" lat="62.4044722242" lon="6.94557777062">
		<tag k="name" v="Auurene" />
		<tag k="natural" v="scree" />
		<tag k="ssr:stedsnr" v="338678" />
	</node>
	<node id="-572085" lat="62.3387944455" lon="7.10580278146">
		<tag k="name" v="Vitne" />
		<tag k="place" v="locality" />
		<tag k="ssr:stedsnr" v="156592" />
	</node>
	<node id="-572468" lat="62.3863777735" lon="7.06234445131">
		<tag k="name" v="Gjølsvad" />
		<tag k="place" v="locality" />
		<tag k="ssr:stedsnr" v="824055" />
	</node>
	<node id="-571955" lat="62.421411107" lon="6.96828055995">
		<tag k="name" v="Breiskreene" />
		<tag k="natural" v="wetland" />
		<tag k="ssr:stedsnr" v="34331" />
	</node>
	<node id="-571891" lat="62.4035194468" lon="7.00322777406">
		<tag k="name" v="Botnamyra" />
		<tag k="natural" v="wetland" />
		<tag k="ssr:stedsnr" v="884541" />
	</node>
	<node id="-571821" lat="62.3783694415" lon="7.05701388215">
		<tag k="name" v="Sandane" />
		<tag k="place" v="locality" />
		<tag k="ssr:stedsnr" v="338042" />
	</node>
	<node id="-572074" lat="62.3906861094" lon="7.13327222183">
		<tag k="historic" v="shieling" />
		<tag k="name" v="Dyrsto" />
		<tag k="place" v="locality" />
		<tag k="ssr:stedsnr" v="156124" />
	</node>
	<node id="-572064" lat="62.3775416645" lon="6.99672777105">
		<tag k="name" v="Gråura" />
		<tag k="natural" v="scree" />
		<tag k="ssr:stedsnr" v="155558" />
	</node>
	<node id="-572313" lat="62.4221666626" lon="7.30363054946">
		<tag k="name" v="Kambemyrane" />
		<tag k="natural" v="wetland" />
		<tag k="ssr:stedsnr" v="581704" />
	</node>
	<node id="-571925" lat="62.4205191836" lon="7.2272657398">
		<tag k="name" v="Kvitlegjerdet" />
		<tag k="place" v="locality" />
		<tag k="ssr:stedsnr" v="988875" />
	</node>
	<node id="-571902" lat="62.4137083308" lon="7.21968889115">
		<tag k="name" v="Gardskroken" />
		<tag k="natural" v="wetland" />
		<tag k="ssr:stedsnr" v="885632" />
	</node>
	<node id="-572173" lat="62.3788611136" lon="6.99510834022">
		<tag k="name" v="Moseøyane" />
		<tag k="place" v="locality" />
		<tag k="ssr:stedsnr" v="458650" />
	</node>
	<node id="-572354" lat="62.3679138886" lon="7.25738889344">
		<tag k="name" v="Uriskarskogen" />
		<tag k="place" v="locality" />
		<tag k="ssr:stedsnr" v="642816" />
	</node>
	<node id="-572426" lat="62.3822555595" lon="7.02252500595">
		<tag k="name" v="Danmark" />
		<tag k="place" v="locality" />
		<tag k="ssr:stedsnr" v="762556" />
	</node>
	<node id="-571781" lat="62.4336916636" lon="6.92263054926">
		<tag k="name" v="Kokarsteinen" />
		<tag k="natural" v="stone" />
		<tag k="ssr:stedsnr" v="277373" />
	</node>
	<node id="-572547" lat="62.4104083342" lon="7.22414999914">
		<tag k="name" v="Hagardsmarkene" />
		<tag k="place" v="locality" />
		<tag k="ssr:stedsnr" v="946849" />
	</node>
</osm>
