<?xml version="1.0" encoding="UTF-8"?>
<osm generator="osmapis" version="0.6">
	<node id="-497659" lat="61.5496694453" lon="5.39990277951">
		<tag k="name" v="Verpeholmen" />
		<tag k="natural" v="cape" />
		<tag k="ssr:stedsnr" v="880251" />
	</node>
	<node id="-497655" lat="61.5826944433" lon="5.56216387985">
		<tag k="name" v="Skarelva" />
		<tag k="ssr:stedsnr" v="880216" />
		<tag k="waterway" v="stream" />
	</node>
	<node id="-497652" lat="61.5557499995" lon="5.50205555362">
		<tag k="name" v="Kvievika" />
		<tag k="natural" v="bay" />
		<tag k="ssr:stedsnr" v="880174" />
	</node>
	<node id="-495596" lat="61.6663194414" lon="5.58334999504">
		<tag k="name" v="Øvstevika" />
		<tag k="natural" v="bay" />
		<tag k="ssr:stedsnr" v="212736" />
	</node>
	<node id="-495595" lat="61.5781583365" lon="5.59449721602">
		<tag k="name" v="Bjørnabotnelva" />
		<tag k="ssr:stedsnr" v="212716" />
		<tag k="waterway" v="stream" />
	</node>
	<node id="-495594" lat="61.6190536822" lon="5.58777076179">
		<tag k="name" v="Kalveneset" />
		<tag k="natural" v="cape" />
		<tag k="ssr:stedsnr" v="212698" />
	</node>
	<node id="-495593" lat="61.6224416652" lon="5.6121861038">
		<tag k="name" v="Tenneskjeret" />
		<tag k="place" v="islet" />
		<tag k="ssr:stedsnr" v="212695" />
	</node>
	<node id="-497632" lat="61.6132527737" lon="5.36768889517">
		<tag k="name" v="Fossen" />
		<tag k="natural" v="waterfall" />
		<tag k="ssr:stedsnr" v="879778" />
	</node>
	<node id="-495568" lat="61.660941668" lon="5.53201944916">
		<tag k="name" v="Bruaelva" />
		<tag k="ssr:stedsnr" v="212372" />
		<tag k="waterway" v="river" />
	</node>
	<node id="-497609" lat="61.6872283639" lon="4.85927723189">
		<tag k="name" v="Fagerdalsvatna" />
		<tag k="natural" v="water" />
		<tag k="ssr:stedsnr" v="879275" />
		<tag k="water" v="lake" />
	</node>
	<node id="-495559" lat="61.6688579035" lon="4.89536083662">
		<tag k="name" v="Rabbevatnet" />
		<tag k="natural" v="water" />
		<tag k="ssr:stedsnr" v="212300" />
		<tag k="water" v="lake" />
	</node>
	<node id="-495558" lat="61.6918455131" lon="4.87563063198">
		<tag k="name" v="Nordre Hovdevatnet" />
		<tag k="natural" v="water" />
		<tag k="ssr:stedsnr" v="212274" />
		<tag k="water" v="lake" />
	</node>
	<node id="-495557" lat="61.5482944422" lon="5.39376388477">
		<tag k="name" v="Søkja" />
		<tag k="natural" v="bay" />
		<tag k="ssr:stedsnr" v="212261" />
	</node>
	<node id="-495552" lat="61.6253290223" lon="4.84251010759">
		<tag k="name" v="Bukkevatnet" />
		<tag k="natural" v="water" />
		<tag k="ssr:stedsnr" v="212155" />
		<tag k="water" v="lake" />
	</node>
	<node id="-494240" lat="61.6651305544" lon="5.3684555628">
		<tag k="name" v="Hestedalsvatnet" />
		<tag k="natural" v="water" />
		<tag k="ssr:stedsnr" v="312897" />
	</node>
	<node id="-495550" lat="61.5781583315" lon="5.5201222295">
		<tag k="name" v="Lomtjørna" />
		<tag k="natural" v="water" />
		<tag k="ssr:stedsnr" v="212094" />
	</node>
	<node id="-495545" lat="61.498022222" lon="5.13502499216">
		<tag k="name" v="Leiren" />
		<tag k="natural" v="bay" />
		<tag k="ssr:stedsnr" v="211959" />
	</node>
	<node id="-497585" lat="61.6157388916" lon="5.62488611103">
		<tag k="name" v="Eidaneset" />
		<tag k="natural" v="cape" />
		<tag k="ssr:stedsnr" v="870689" />
	</node>
	<node id="-497583" lat="61.6996666675" lon="5.60046666272">
		<tag k="name" v="Tverrfossen" />
		<tag k="natural" v="waterfall" />
		<tag k="ssr:stedsnr" v="870669" />
	</node>
	<node id="-497581" lat="61.6482316588" lon="5.34085346151">
		<tag k="name" v="Ulldalsvatnet" />
		<tag k="natural" v="water" />
		<tag k="ssr:stedsnr" v="870656" />
		<tag k="water" v="lake" />
	</node>
	<node id="-497578" lat="61.5503305552" lon="5.55629443552">
		<tag k="name" v="Nonsvatnet" />
		<tag k="natural" v="water" />
		<tag k="ssr:stedsnr" v="869700" />
	</node>
	<node id="-497574" lat="61.592938885" lon="5.19713333791">
		<tag k="name" v="Nyttingenesvatnet" />
		<tag k="natural" v="water" />
		<tag k="ssr:stedsnr" v="858992" />
	</node>
	<node id="-497555" lat="61.5597333329" lon="5.08050277959">
		<tag k="name" v="Andalsvatnet" />
		<tag k="natural" v="water" />
		<tag k="ssr:stedsnr" v="858807" />
	</node>
	<node id="-497553" lat="61.6033166672" lon="5.64121666575">
		<tag k="name" v="Botnaelva" />
		<tag k="ssr:stedsnr" v="858779" />
		<tag k="waterway" v="stream" />
	</node>
	<node id="-497552" lat="61.6143062046" lon="5.60893360937">
		<tag k="name" v="Brandatjørna" />
		<tag k="natural" v="water" />
		<tag k="ssr:stedsnr" v="858773" />
	</node>
	<node id="-497551" lat="61.6028747269" lon="5.56708516182">
		<tag k="name" v="Endestadvatnet" />
		<tag k="natural" v="water" />
		<tag k="ssr:stedsnr" v="858766" />
		<tag k="water" v="lake" />
	</node>
	<node id="-495502" lat="61.611980555" lon="5.13313333114">
		<tag k="name" v="Vassdalen" />
		<tag k="natural" v="strait" />
		<tag k="ssr:stedsnr" v="210562" />
	</node>
	<node id="-497548" lat="61.5139417686" lon="5.25832383377">
		<tag k="name" v="Standalsvatnet" />
		<tag k="natural" v="water" />
		<tag k="ssr:stedsnr" v="858642" />
		<tag k="water" v="lake" />
	</node>
	<node id="-497542" lat="61.5554277778" lon="5.14893611053">
		<tag k="name" v="Plassavatnet" />
		<tag k="natural" v="water" />
		<tag k="ssr:stedsnr" v="858576" />
	</node>
	<node id="-495493" lat="61.5684277811" lon="5.52937222971">
		<tag k="name" v="Øyrahølen" />
		<tag k="place" v="locality" />
		<tag k="ssr:stedsnr" v="202698" />
	</node>
	<node id="-497539" lat="61.5561444465" lon="5.43829444728">
		<tag k="name" v="Flotatjørna" />
		<tag k="natural" v="water" />
		<tag k="ssr:stedsnr" v="858567" />
	</node>
	<node id="-495486" lat="61.647903865" lon="5.33960006849">
		<tag k="name" v="Pøysa" />
		<tag k="natural" v="water" />
		<tag k="ssr:stedsnr" v="191899" />
	</node>
	<node id="-497529" lat="61.5875861109" lon="5.62608333134">
		<tag k="name" v="Blåfjellsvatnet" />
		<tag k="natural" v="water" />
		<tag k="ssr:stedsnr" v="858490" />
	</node>
	<node id="-497527" lat="61.5264222216" lon="5.54532499075">
		<tag k="name" v="Øyraelva" />
		<tag k="ssr:stedsnr" v="858430" />
		<tag k="waterway" v="stream" />
	</node>
	<node id="-495478" lat="61.6333249974" lon="5.62436110684">
		<tag k="name" v="Bogeelva" />
		<tag k="ssr:stedsnr" v="191652" />
		<tag k="waterway" v="stream" />
	</node>
	<node id="-495477" lat="61.6331666657" lon="5.57841110474">
		<tag k="name" v="Røyrvikelva" />
		<tag k="ssr:stedsnr" v="191651" />
		<tag k="waterway" v="stream" />
	</node>
	<node id="-495476" lat="61.6372805533" lon="5.48489999405">
		<tag k="name" v="Ytre Fiskevasselva" />
		<tag k="ssr:stedsnr" v="191646" />
		<tag k="waterway" v="stream" />
	</node>
	<node id="-495475" lat="61.6483861098" lon="5.58980555525">
		<tag k="name" v="Langevatnet" />
		<tag k="natural" v="water" />
		<tag k="ssr:stedsnr" v="191641" />
	</node>
	<node id="-495474" lat="61.6543500037" lon="5.48789721627">
		<tag k="name" v="Solheimsvatnet" />
		<tag k="natural" v="water" />
		<tag k="ssr:stedsnr" v="191637" />
		<tag k="water" v="lake" />
	</node>
	<node id="-495472" lat="61.5242777743" lon="5.45212778533">
		<tag k="name" v="Håsteinselva" />
		<tag k="ssr:stedsnr" v="191579" />
		<tag k="waterway" v="stream" />
	</node>
	<node id="-495465" lat="61.5926527765" lon="5.63803333914">
		<tag k="name" v="Svarttjørna" />
		<tag k="natural" v="water" />
		<tag k="ssr:stedsnr" v="191429" />
	</node>
	<node id="-497512" lat="61.6530333319" lon="5.0891861126">
		<tag k="name" v="Kupevatnet" />
		<tag k="natural" v="water" />
		<tag k="ssr:stedsnr" v="858121" />
	</node>
	<node id="-495456" lat="61.5919750032" lon="5.33547777176">
		<tag k="name" v="Jagedalsvatnet" />
		<tag k="natural" v="water" />
		<tag k="ssr:stedsnr" v="190976" />
		<tag k="water" v="lake" />
	</node>
	<node id="-495451" lat="61.6362444454" lon="5.46565000185">
		<tag k="name" v="Durmålsfossen" />
		<tag k="natural" v="waterfall" />
		<tag k="ssr:stedsnr" v="190927" />
	</node>
	<node id="-495448" lat="61.662444443" lon="5.17239721786">
		<tag k="name" v="Rundevasstjønna" />
		<tag k="natural" v="water" />
		<tag k="ssr:stedsnr" v="190903" />
	</node>
	<node id="-495439" lat="61.6887833338" lon="5.56900278483">
		<tag k="name" v="Grøndalsvatnet" />
		<tag k="natural" v="water" />
		<tag k="ssr:stedsnr" v="190671" />
	</node>
	<node id="-495438" lat="61.5159194465" lon="5.45866944833">
		<tag k="alt_name" v="Dalelva" />
		<tag k="name" v="Daleelva" />
		<tag k="ssr:stedsnr" v="190612" />
		<tag k="waterway" v="stream" />
	</node>
	<node id="-495431" lat="61.5759805531" lon="5.36377777991">
		<tag k="name" v="Otereidet" />
		<tag k="natural" v="strait" />
		<tag k="ssr:stedsnr" v="190546" />
	</node>
	<node id="-495427" lat="61.5354444488" lon="5.58172777987">
		<tag k="name" v="Klenevatnet" />
		<tag k="natural" v="water" />
		<tag k="ssr:stedsnr" v="190481" />
	</node>
	<node id="-495424" lat="61.5443000034" lon="5.58589444874">
		<tag k="name" v="Langevatnet" />
		<tag k="natural" v="water" />
		<tag k="ssr:stedsnr" v="190463" />
	</node>
	<node id="-495423" lat="61.5477805524" lon="5.51074721828">
		<tag k="name" v="Slættelva" />
		<tag k="ssr:stedsnr" v="190456" />
		<tag k="waterway" v="stream" />
	</node>
	<node id="-497467" lat="61.5682194399" lon="5.62153888135">
		<tag k="name" v="Urabukta" />
		<tag k="natural" v="bay" />
		<tag k="ssr:stedsnr" v="820602" />
	</node>
	<node id="-497466" lat="61.5649194489" lon="5.60799166739">
		<tag k="name" v="Lonene" />
		<tag k="natural" v="water" />
		<tag k="ssr:stedsnr" v="820599" />
		<tag k="water" v="lake" />
	</node>
	<node id="-495407" lat="61.6513361109" lon="5.01239721792">
		<tag k="alt_name" v="Uravatnet" />
		<tag k="name" v="Storevatnet" />
		<tag k="natural" v="water" />
		<tag k="ssr:stedsnr" v="190103" />
		<tag k="water" v="lake" />
	</node>
	<node id="-495404" lat="61.6369818517" lon="5.02309075639">
		<tag k="name" v="Gyttane" />
		<tag k="natural" v="water" />
		<tag k="ssr:stedsnr" v="190071" />
	</node>
	<node id="-497441" lat="61.612508335" lon="5.65475277641">
		<tag k="name" v="Krokstadholmen" />
		<tag k="place" v="islet" />
		<tag k="ssr:stedsnr" v="819664" />
	</node>
	<node id="-497439" lat="61.5629861131" lon="5.64326665853">
		<tag k="name" v="Botnaelva" />
		<tag k="ssr:stedsnr" v="819650" />
		<tag k="waterway" v="stream" />
	</node>
	<node id="-497435" lat="61.6884944463" lon="5.56994443817">
		<tag k="name" v="Neset" />
		<tag k="natural" v="cape" />
		<tag k="ssr:stedsnr" v="819602" />
	</node>
	<node id="-497419" lat="61.6609999978" lon="5.51463332414">
		<tag k="name" v="Holteelva" />
		<tag k="ssr:stedsnr" v="819404" />
		<tag k="waterway" v="river" />
	</node>
	<node id="-497409" lat="61.6056472257" lon="5.55631666364">
		<tag k="name" v="Litle Eikevik" />
		<tag k="natural" v="bay" />
		<tag k="ssr:stedsnr" v="819260" />
	</node>
	<node id="-495355" lat="61.5708055597" lon="5.5987166571">
		<tag k="name" v="Litlevasselva" />
		<tag k="ssr:stedsnr" v="152648" />
		<tag k="waterway" v="river" />
	</node>
	<node id="-497401" lat="61.6351916651" lon="5.1845944427">
		<tag k="name" v="Elvane" />
		<tag k="ssr:stedsnr" v="819133" />
		<tag k="waterway" v="stream" />
	</node>
	<node id="-495347" lat="61.663186111" lon="5.38409722184">
		<tag k="name" v="Hestedalsfossen" />
		<tag k="natural" v="waterfall" />
		<tag k="ssr:stedsnr" v="151873" />
	</node>
	<node id="-495343" lat="61.6434277773" lon="4.77341388989">
		<tag k="name" v="Skiptåna" />
		<tag k="natural" v="cape" />
		<tag k="ssr:stedsnr" v="151861" />
	</node>
	<node id="-495332" lat="61.6197819481" lon="5.60231387279">
		<tag k="name" v="Boltholmen" />
		<tag k="place" v="islet" />
		<tag k="ssr:stedsnr" v="151709" />
	</node>
	<node id="-495327" lat="61.6425029318" lon="5.42516776926">
		<tag k="name" v="Gruvlevatnet" />
		<tag k="natural" v="water" />
		<tag k="ssr:stedsnr" v="151623" />
		<tag k="water" v="lake" />
	</node>
	<node id="-495325" lat="61.6429194465" lon="5.33095832488">
		<tag k="name" v="Slottråstjørna" />
		<tag k="natural" v="water" />
		<tag k="ssr:stedsnr" v="151533" />
	</node>
	<node id="-495321" lat="61.5172611086" lon="5.33657222413">
		<tag k="name" v="Stølselva" />
		<tag k="ssr:stedsnr" v="151485" />
		<tag k="waterway" v="river" />
	</node>
	<node id="-494882" lat="61.5891722247" lon="5.34234445209">
		<tag k="name" v="Timbrevika" />
		<tag k="natural" v="bay" />
		<tag k="ssr:stedsnr" v="30892" />
	</node>
	<node id="-497351" lat="61.596783335" lon="5.09319722938">
		<tag k="name" v="Kvernhuselva" />
		<tag k="ssr:stedsnr" v="817681" />
		<tag k="waterway" v="river" />
	</node>
	<node id="-495302" lat="61.5879027806" lon="5.55306110512">
		<tag k="name" v="Kalveneset" />
		<tag k="natural" v="cape" />
		<tag k="ssr:stedsnr" v="151245" />
	</node>
	<node id="-495301" lat="61.5900944414" lon="5.48278056387">
		<tag k="name" v="Hardbakkeelva" />
		<tag k="ssr:stedsnr" v="151236" />
		<tag k="waterway" v="stream" />
	</node>
	<node id="-495299" lat="61.582697218" lon="5.46162221468">
		<tag k="name" v="Sørelva" />
		<tag k="ssr:stedsnr" v="151171" />
		<tag k="waterway" v="river" />
	</node>
	<node id="-497345" lat="61.7112361133" lon="5.56435833992">
		<tag k="name" v="Støylsfossen" />
		<tag k="natural" v="waterfall" />
		<tag k="ssr:stedsnr" v="810634" />
	</node>
	<node id="-497344" lat="61.6705944439" lon="5.63326389701">
		<tag k="name" v="Budalselva" />
		<tag k="ssr:stedsnr" v="809705" />
		<tag k="waterway" v="stream" />
	</node>
	<node id="-497324" lat="61.5878500011" lon="5.31174999583">
		<tag k="name" v="Svanevatnet" />
		<tag k="natural" v="water" />
		<tag k="ssr:stedsnr" v="797982" />
	</node>
	<node id="-495274" lat="61.6495704322" lon="5.05391142238">
		<tag k="name" v="Løkavatnet" />
		<tag k="natural" v="water" />
		<tag k="ssr:stedsnr" v="150496" />
		<tag k="water" v="lake" />
	</node>
	<node id="-497316" lat="61.6575666651" lon="5.24220834223">
		<tag k="name" v="Gulskarlivatnet" />
		<tag k="natural" v="water" />
		<tag k="ssr:stedsnr" v="797881" />
	</node>
	<node id="-497315" lat="61.6529111075" lon="5.11836667552">
		<tag k="alt_name" v="Vassbotnvatnet" />
		<tag k="name" v="Vassbotnevatnet" />
		<tag k="natural" v="water" />
		<tag k="ssr:stedsnr" v="797876" />
	</node>
	<node id="-497314" lat="61.7043282177" lon="5.3139841175">
		<tag k="name" v="Svartevatnet" />
		<tag k="natural" v="water" />
		<tag k="ssr:stedsnr" v="797863" />
		<tag k="water" v="lake" />
	</node>
	<node id="-497313" lat="61.6645333318" lon="5.15081111194">
		<tag k="name" v="Akslavatnet" />
		<tag k="natural" v="water" />
		<tag k="ssr:stedsnr" v="797851" />
	</node>
	<node id="-497303" lat="61.6344111138" lon="5.64688888769">
		<tag k="name" v="Havikbotntjørna" />
		<tag k="natural" v="water" />
		<tag k="ssr:stedsnr" v="797735" />
	</node>
	<node id="-495253" lat="61.5511840984" lon="5.15601970257">
		<tag k="name" v="Litlevatnet" />
		<tag k="natural" v="water" />
		<tag k="ssr:stedsnr" v="150012" />
		<tag k="water" v="lake" />
	</node>
	<node id="-497297" lat="61.7041777764" lon="5.50283610503">
		<tag k="name" v="Trollebotnvatna" />
		<tag k="natural" v="water" />
		<tag k="ssr:stedsnr" v="797664" />
	</node>
	<node id="-497296" lat="61.7092333339" lon="5.60479444454">
		<tag k="name" v="Svartedalsvatnet" />
		<tag k="natural" v="water" />
		<tag k="ssr:stedsnr" v="797656" />
	</node>
	<node id="-497294" lat="61.7496785446" lon="5.5252647999">
		<tag k="name" v="Lægdevatnet" />
		<tag k="natural" v="water" />
		<tag k="ssr:stedsnr" v="797643" />
		<tag k="water" v="lake" />
	</node>
	<node id="-495242" lat="61.5699277772" lon="5.66374444463">
		<tag k="name" v="Støylselva" />
		<tag k="ssr:stedsnr" v="141659" />
		<tag k="waterway" v="stream" />
	</node>
	<node id="-497289" lat="61.5499972238" lon="5.36503333101">
		<tag k="alt_name" v="Remmavatnet" />
		<tag k="name" v="Remmevatnet" />
		<tag k="natural" v="water" />
		<tag k="ssr:stedsnr" v="797576" />
	</node>
	<node id="-495236" lat="61.5175583339" lon="5.30197223139">
		<tag k="name" v="Daleelva" />
		<tag k="ssr:stedsnr" v="131836" />
		<tag k="waterway" v="river" />
	</node>
	<node id="-495235" lat="61.5169444484" lon="5.47876111299">
		<tag k="name" v="Støylselva" />
		<tag k="ssr:stedsnr" v="131721" />
		<tag k="waterway" v="stream" />
	</node>
	<node id="-495232" lat="61.649777776" lon="5.39450277429">
		<tag k="alt_name" v="Lommetjørna" />
		<tag k="name" v="Lometjørna" />
		<tag k="natural" v="water" />
		<tag k="ssr:stedsnr" v="130926" />
	</node>
	<node id="-495227" lat="61.6597333366" lon="5.39439999714">
		<tag k="name" v="Nesjetjønna" />
		<tag k="natural" v="water" />
		<tag k="ssr:stedsnr" v="130882" />
	</node>
	<node id="-497271" lat="61.5712944444" lon="5.08871389663">
		<tag k="name" v="Grova" />
		<tag k="ssr:stedsnr" v="797214" />
		<tag k="waterway" v="stream" />
	</node>
	<node id="-495222" lat="61.668683335" lon="5.52014443609">
		<tag k="name" v="Dyttingevatnet" />
		<tag k="natural" v="water" />
		<tag k="ssr:stedsnr" v="130648" />
	</node>
	<node id="-495221" lat="61.6614861133" lon="5.48050555098">
		<tag k="name" v="Kvernavatnet" />
		<tag k="natural" v="water" />
		<tag k="ssr:stedsnr" v="130644" />
	</node>
	<node id="-497251" lat="61.6770611152" lon="4.99825278037">
		<tag k="name" v="Husefestvatnet" />
		<tag k="natural" v="water" />
		<tag k="ssr:stedsnr" v="797004" />
		<tag k="water" v="lake" />
	</node>
	<node id="-495201" lat="61.6462861071" lon="5.01093054926">
		<tag k="name" v="Kvernhusvatnet" />
		<tag k="natural" v="water" />
		<tag k="ssr:stedsnr" v="130086" />
	</node>
	<node id="-495198" lat="61.6568861118" lon="5.02678610529">
		<tag k="name" v="Uraelva" />
		<tag k="ssr:stedsnr" v="130068" />
		<tag k="waterway" v="stream" />
	</node>
	<node id="-495189" lat="61.6308000028" lon="5.41167221893">
		<tag k="name" v="Dyrstigtjørna" />
		<tag k="natural" v="water" />
		<tag k="ssr:stedsnr" v="129951" />
	</node>
	<node id="-495108" lat="61.5148527776" lon="5.27164166025">
		<tag k="name" v="Bøslettet" />
		<tag k="natural" v="beach" />
		<tag k="ssr:stedsnr" v="92524" />
	</node>
	<node id="-495183" lat="61.6177250044" lon="5.4570749955">
		<tag k="name" v="Nipevatnet" />
		<tag k="natural" v="water" />
		<tag k="ssr:stedsnr" v="129997" />
	</node>
	<node id="-495180" lat="61.6576777744" lon="5.13718333737">
		<tag k="name" v="Keipevatnet" />
		<tag k="natural" v="water" />
		<tag k="ssr:stedsnr" v="129898" />
	</node>
	<node id="-495179" lat="61.6571694436" lon="5.16601944465">
		<tag k="name" v="Rundevatnet" />
		<tag k="natural" v="water" />
		<tag k="ssr:stedsnr" v="129894" />
	</node>
	<node id="-497222" lat="61.6243246709" lon="5.30473072406">
		<tag k="name" v="Lendingsvatnet" />
		<tag k="natural" v="water" />
		<tag k="ssr:stedsnr" v="759601" />
		<tag k="water" v="lake" />
	</node>
	<node id="-497220" lat="61.5727611087" lon="5.57699722775">
		<tag k="name" v="Liaelva" />
		<tag k="ssr:stedsnr" v="759568" />
		<tag k="waterway" v="stream" />
	</node>
	<node id="-497210" lat="61.5956000035" lon="5.37644167174">
		<tag k="name" v="Svartetjørna" />
		<tag k="natural" v="water" />
		<tag k="ssr:stedsnr" v="758943" />
	</node>
	<node id="-497207" lat="61.5917361122" lon="5.33996943541">
		<tag k="name" v="Vassneset" />
		<tag k="natural" v="cape" />
		<tag k="ssr:stedsnr" v="758898" />
	</node>
	<node id="-495150" lat="61.4858111145" lon="5.10782499059">
		<tag k="name" v="Kvalstadvatnet" />
		<tag k="natural" v="water" />
		<tag k="ssr:stedsnr" v="129020" />
	</node>
	<node id="-497196" lat="61.6770694434" lon="5.57123054679">
		<tag k="name" v="Nedstestranda" />
		<tag k="natural" v="beach" />
		<tag k="ssr:stedsnr" v="758743" />
	</node>
	<node id="-497188" lat="61.6529916683" lon="5.37497778529">
		<tag k="name" v="Krekstranda" />
		<tag k="natural" v="beach" />
		<tag k="ssr:stedsnr" v="758553" />
	</node>
	<node id="-497177" lat="61.6543750003" lon="5.48155277618">
		<tag k="name" v="Kalveneset" />
		<tag k="natural" v="cape" />
		<tag k="ssr:stedsnr" v="758443" />
	</node>
	<node id="-497172" lat="61.6519916674" lon="5.51328056008">
		<tag k="name" v="Sølvfossen" />
		<tag k="natural" v="waterfall" />
		<tag k="ssr:stedsnr" v="758392" />
	</node>
	<node id="-497166" lat="61.6797194453" lon="5.46308332855">
		<tag k="name" v="Symjinga" />
		<tag k="natural" v="strait" />
		<tag k="ssr:stedsnr" v="758361" />
	</node>
	<node id="-495533" lat="61.6527944451" lon="5.11042221503">
		<tag k="name" v="Tjørna" />
		<tag k="natural" v="water" />
		<tag k="ssr:stedsnr" v="211628" />
	</node>
	<node id="-497164" lat="61.5465166669" lon="5.48100277744">
		<tag k="name" v="Lyngneset" />
		<tag k="natural" v="cape" />
		<tag k="ssr:stedsnr" v="758347" />
	</node>
	<node id="-497163" lat="61.5363472198" lon="5.431466666">
		<tag k="name" v="Klubben" />
		<tag k="natural" v="cape" />
		<tag k="ssr:stedsnr" v="758344" />
	</node>
	<node id="-497162" lat="61.5360972197" lon="5.44510277431">
		<tag k="name" v="Fureneset" />
		<tag k="natural" v="cape" />
		<tag k="ssr:stedsnr" v="758340" />
	</node>
	<node id="-497161" lat="61.5366027821" lon="5.43586110649">
		<tag k="name" v="Ospeneset" />
		<tag k="natural" v="cape" />
		<tag k="ssr:stedsnr" v="758337" />
	</node>
	<node id="-495110" lat="61.5162472199" lon="5.24196944353">
		<tag k="name" v="Kjerringkleivelva" />
		<tag k="ssr:stedsnr" v="92551" />
		<tag k="waterway" v="stream" />
	</node>
	<node id="-495109" lat="61.5124500029" lon="5.23228889247">
		<tag k="name" v="Nedre Standalselva" />
		<tag k="ssr:stedsnr" v="92545" />
		<tag k="waterway" v="river" />
	</node>
	<node id="-497156" lat="61.5946277801" lon="5.48131944795">
		<tag k="name" v="Kleivaelva" />
		<tag k="ssr:stedsnr" v="758274" />
		<tag k="waterway" v="river" />
	</node>
	<node id="-494166" lat="61.5392749997" lon="5.49859722058">
		<tag k="alt_name" v="Fosselva" />
		<tag k="name" v="Fossane" />
		<tag k="ssr:stedsnr" v="311501" />
		<tag k="waterway" v="stream" />
	</node>
	<node id="-497151" lat="61.5681638916" lon="5.5669666748">
		<tag k="name" v="Langedalselva" />
		<tag k="ssr:stedsnr" v="758016" />
		<tag k="waterway" v="river" />
	</node>
	<node id="-495101" lat="61.5768361086" lon="5.34650556167">
		<tag k="name" v="Pollen" />
		<tag k="natural" v="strait" />
		<tag k="ssr:stedsnr" v="91919" />
	</node>
	<node id="-497144" lat="61.4973722241" lon="5.12000277662">
		<tag k="name" v="Pineskjeret" />
		<tag k="place" v="islet" />
		<tag k="ssr:stedsnr" v="757935" />
	</node>
	<node id="-495092" lat="61.6240361119" lon="5.58278888017">
		<tag k="name" v="Nerstølselva" />
		<tag k="ssr:stedsnr" v="91691" />
		<tag k="waterway" v="river" />
	</node>
	<node id="-495090" lat="61.5670138916" lon="5.67411111728">
		<tag k="name" v="Ramsdalselva" />
		<tag k="ssr:stedsnr" v="91646" />
		<tag k="waterway" v="river" />
	</node>
	<node id="-497137" lat="61.6000583352" lon="5.20585000047">
		<tag k="name" v="Haneholmen" />
		<tag k="place" v="islet" />
		<tag k="ssr:stedsnr" v="757791" />
	</node>
	<node id="-495085" lat="61.5306305561" lon="5.56424723102">
		<tag k="name" v="Remmaelva" />
		<tag k="ssr:stedsnr" v="91419" />
		<tag k="waterway" v="river" />
	</node>
	<node id="-495084" lat="61.6446305573" lon="5.51676666912">
		<tag k="name" v="Litleskarelva" />
		<tag k="ssr:stedsnr" v="91409" />
		<tag k="waterway" v="stream" />
	</node>
	<node id="-495083" lat="61.6587555527" lon="5.52354443713">
		<tag k="name" v="Sveneset" />
		<tag k="natural" v="cape" />
		<tag k="ssr:stedsnr" v="91401" />
	</node>
	<node id="-497127" lat="61.6762416638" lon="4.97661666908">
		<tag k="name" v="Strupetjørna" />
		<tag k="natural" v="water" />
		<tag k="ssr:stedsnr" v="757436" />
	</node>
	<node id="-497124" lat="61.5678124384" lon="4.8291253769">
		<tag k="name" v="Vatnet" />
		<tag k="natural" v="water" />
		<tag k="ssr:stedsnr" v="757412" />
		<tag k="water" v="lake" />
	</node>
	<node id="-495075" lat="61.6881022769" lon="4.85531961469">
		<tag k="alt_name" v="Svartomnsvatna" />
		<tag k="name" v="Svartomnsvatnet" />
		<tag k="natural" v="water" />
		<tag k="ssr:stedsnr" v="91223" />
		<tag k="water" v="lake" />
	</node>
	<node id="-497102" lat="61.5700611076" lon="5.55259721423">
		<tag k="name" v="Sørelva" />
		<tag k="ssr:stedsnr" v="748702" />
		<tag k="waterway" v="river" />
	</node>
	<node id="-497101" lat="61.677777776" lon="5.57330277865">
		<tag k="name" v="Nedstevatnet" />
		<tag k="natural" v="water" />
		<tag k="ssr:stedsnr" v="748700" />
	</node>
	<node id="-497099" lat="61.6525611105" lon="5.50532500382">
		<tag k="name" v="Løypeelva" />
		<tag k="ssr:stedsnr" v="748686" />
		<tag k="waterway" v="stream" />
	</node>
	<node id="-497095" lat="61.6168611117" lon="5.48476666222">
		<tag k="name" v="Nipevatnet" />
		<tag k="natural" v="water" />
		<tag k="ssr:stedsnr" v="738825" />
	</node>
	<node id="-497093" lat="61.601372224" lon="5.45101944578">
		<tag k="name" v="Hovlandselva" />
		<tag k="ssr:stedsnr" v="737973" />
		<tag k="waterway" v="stream" />
	</node>
	<node id="-497092" lat="61.6422722195" lon="5.4179527766">
		<tag k="name" v="Gruvla" />
		<tag k="ssr:stedsnr" v="737922" />
		<tag k="waterway" v="stream" />
	</node>
	<node id="-497090" lat="61.660819448" lon="5.40769444565">
		<tag k="name" v="Nesjane" />
		<tag k="natural" v="cape" />
		<tag k="ssr:stedsnr" v="737890" />
	</node>
	<node id="-497089" lat="61.6555774866" lon="5.46792085389">
		<tag k="name" v="Furenesvatnet" />
		<tag k="natural" v="water" />
		<tag k="ssr:stedsnr" v="737888" />
	</node>
	<node id="-497079" lat="61.6508361088" lon="5.60019165794">
		<tag k="name" v="Kjerringevatnet" />
		<tag k="natural" v="water" />
		<tag k="ssr:stedsnr" v="737680" />
	</node>
	<node id="-497077" lat="61.6826250045" lon="5.64515000839">
		<tag k="name" v="Holtevatnet" />
		<tag k="natural" v="water" />
		<tag k="ssr:stedsnr" v="737665" />
	</node>
	<node id="-497074" lat="61.5376194446" lon="5.24975833131">
		<tag k="name" v="Strandaelva" />
		<tag k="ssr:stedsnr" v="737585" />
		<tag k="waterway" v="stream" />
	</node>
	<node id="-495017" lat="61.694613885" lon="5.57154445388">
		<tag k="name" v="Kvanngrøfossen" />
		<tag k="natural" v="waterfall" />
		<tag k="ssr:stedsnr" v="82653" />
	</node>
	<node id="-495015" lat="61.6173861129" lon="5.61792221985">
		<tag k="name" v="Eidet" />
		<tag k="natural" v="strait" />
		<tag k="ssr:stedsnr" v="81706" />
	</node>
	<node id="-495013" lat="61.5357249975" lon="5.25305832857">
		<tag k="name" v="Sandvikelva" />
		<tag k="ssr:stedsnr" v="71833" />
		<tag k="waterway" v="stream" />
	</node>
	<node id="-495010" lat="61.5413666697" lon="5.49083054917">
		<tag k="name" v="Støylsneset" />
		<tag k="natural" v="cape" />
		<tag k="ssr:stedsnr" v="70715" />
	</node>
	<node id="-495009" lat="61.5517000018" lon="5.51216944868">
		<tag k="alt_name" v="Indre Sagelva" />
		<tag k="name" v="Sagelva" />
		<tag k="ssr:stedsnr" v="70713" />
		<tag k="waterway" v="stream" />
	</node>
	<node id="-495007" lat="61.6117916671" lon="5.43973055172">
		<tag k="name" v="Lomelivatnet" />
		<tag k="natural" v="water" />
		<tag k="ssr:stedsnr" v="69993" />
	</node>
	<node id="-497048" lat="61.6843630336" lon="4.86737591493">
		<tag k="name" v="Gåsevatnet" />
		<tag k="natural" v="water" />
		<tag k="ssr:stedsnr" v="737049" />
		<tag k="water" v="lake" />
	</node>
	<node id="-494998" lat="61.6531166691" lon="5.45893332957">
		<tag k="name" v="Hopen" />
		<tag k="natural" v="water" />
		<tag k="ssr:stedsnr" v="69943" />
	</node>
	<node id="-494996" lat="61.6425194438" lon="5.30103888479">
		<tag k="alt_name" v="Haukelivatnet" />
		<tag k="name" v="Haukåvatnet" />
		<tag k="natural" v="water" />
		<tag k="ssr:stedsnr" v="69936" />
		<tag k="water" v="lake" />
	</node>
	<node id="-497035" lat="61.7108499959" lon="5.62489166145">
		<tag k="name" v="Trongedalselva" />
		<tag k="ssr:stedsnr" v="736654" />
		<tag k="waterway" v="stream" />
	</node>
	<node id="-494980" lat="61.6270499964" lon="5.6405638825">
		<tag k="name" v="Åsetjønna" />
		<tag k="natural" v="water" />
		<tag k="ssr:stedsnr" v="69755" />
	</node>
	<node id="-497026" lat="61.5163194483" lon="5.53533055805">
		<tag k="name" v="Ystebotntjørna" />
		<tag k="natural" v="water" />
		<tag k="ssr:stedsnr" v="736424" />
	</node>
	<node id="-496998" lat="61.6702361112" lon="5.01786112001">
		<tag k="name" v="Tverrelva" />
		<tag k="ssr:stedsnr" v="736007" />
		<tag k="waterway" v="stream" />
	</node>
	<node id="-494940" lat="61.6940500013" lon="4.98965834232">
		<tag k="alt_name" v="Litlevatnet" />
		<tag k="name" v="Litlevatn" />
		<tag k="natural" v="water" />
		<tag k="ssr:stedsnr" v="69046" />
	</node>
	<node id="-495844" lat="61.654086111" lon="5.10313611832">
		<tag k="name" v="Hornvatnet" />
		<tag k="natural" v="water" />
		<tag k="ssr:stedsnr" v="433897" />
	</node>
	<node id="-494928" lat="61.583305559" lon="5.65477222001">
		<tag k="name" v="Langevatnet" />
		<tag k="natural" v="water" />
		<tag k="ssr:stedsnr" v="69515" />
		<tag k="water" v="lake" />
	</node>
	<node id="-494927" lat="61.5819722216" lon="5.63379999517">
		<tag k="name" v="Kyratjørna" />
		<tag k="natural" v="water" />
		<tag k="ssr:stedsnr" v="69513" />
	</node>
	<node id="-494922" lat="61.4946361138" lon="5.09616944572">
		<tag k="name" v="Sagevatnet" />
		<tag k="natural" v="water" />
		<tag k="ssr:stedsnr" v="68019" />
	</node>
	<node id="-496968" lat="61.6122166663" lon="5.56937222491">
		<tag k="name" v="Skitnevikneset" />
		<tag k="natural" v="cape" />
		<tag k="ssr:stedsnr" v="698651" />
	</node>
	<node id="-496967" lat="61.608144441" lon="5.65339167506">
		<tag k="name" v="Krokstadstranda" />
		<tag k="natural" v="beach" />
		<tag k="ssr:stedsnr" v="698631" />
	</node>
	<node id="-496966" lat="61.5646833366" lon="5.66738889295">
		<tag k="name" v="Tronkaelva" />
		<tag k="ssr:stedsnr" v="698608" />
		<tag k="waterway" v="river" />
	</node>
	<node id="-496957" lat="61.5532972249" lon="5.54058611841">
		<tag k="name" v="Langevatnselva" />
		<tag k="ssr:stedsnr" v="698417" />
		<tag k="waterway" v="stream" />
	</node>
	<node id="-496950" lat="61.6358666698" lon="5.17172222493">
		<tag k="name" v="Vadet" />
		<tag k="natural" v="water" />
		<tag k="ssr:stedsnr" v="698115" />
		<tag k="water" v="lake" />
	</node>
	<node id="-494898" lat="61.5395277805" lon="5.30212500557">
		<tag k="name" v="Tunelva" />
		<tag k="ssr:stedsnr" v="31913" />
		<tag k="waterway" v="stream" />
	</node>
	<node id="-496943" lat="61.6883611124" lon="4.83594166427">
		<tag k="name" v="Dalselva" />
		<tag k="ssr:stedsnr" v="697933" />
		<tag k="waterway" v="stream" />
	</node>
	<node id="-496941" lat="61.5902388867" lon="5.34706666424">
		<tag k="name" v="Garnvika" />
		<tag k="natural" v="bay" />
		<tag k="ssr:stedsnr" v="697905" />
	</node>
	<node id="-496930" lat="61.6524555558" lon="5.37000554959">
		<tag k="name" v="Kreken" />
		<tag k="natural" v="bay" />
		<tag k="ssr:stedsnr" v="697510" />
	</node>
	<node id="-494875" lat="61.6480655697" lon="5.43734859505">
		<tag k="name" v="Kjørslevika" />
		<tag k="natural" v="bay" />
		<tag k="ssr:stedsnr" v="30742" />
	</node>
	<node id="-496920" lat="61.6901875506" lon="4.99310270036">
		<tag k="name" v="Rundevatnet" />
		<tag k="natural" v="water" />
		<tag k="ssr:stedsnr" v="697388" />
		<tag k="water" v="lake" />
	</node>
	<node id="-494871" lat="61.6972888879" lon="5.57269443575">
		<tag k="name" v="Kvanngrøelva" />
		<tag k="ssr:stedsnr" v="30543" />
		<tag k="waterway" v="river" />
	</node>
	<node id="-494870" lat="61.6678055573" lon="5.42143610433">
		<tag k="name" v="Fesseneset" />
		<tag k="natural" v="cape" />
		<tag k="ssr:stedsnr" v="30531" />
	</node>
	<node id="-497198" lat="61.6424222266" lon="5.43991389015">
		<tag k="name" v="Gruvlefossen" />
		<tag k="natural" v="waterfall" />
		<tag k="ssr:stedsnr" v="758750" />
	</node>
	<node id="-496913" lat="61.6623611089" lon="5.53526110745">
		<tag k="name" v="Hundedølen" />
		<tag k="natural" v="bay" />
		<tag k="ssr:stedsnr" v="697350" />
	</node>
	<node id="-496911" lat="61.5397138873" lon="5.42359723022">
		<tag k="name" v="Bukketåna" />
		<tag k="natural" v="cape" />
		<tag k="ssr:stedsnr" v="697330" />
	</node>
	<node id="-496910" lat="61.5411249989" lon="5.42405555136">
		<tag k="name" v="Leirhola" />
		<tag k="natural" v="bay" />
		<tag k="ssr:stedsnr" v="697326" />
	</node>
	<node id="-496907" lat="61.6365888889" lon="4.84205555325">
		<tag k="name" v="Skjeljehølen" />
		<tag k="place" v="locality" />
		<tag k="ssr:stedsnr" v="697259" />
	</node>
	<node id="-494848" lat="61.5789249994" lon="5.55732778484">
		<tag k="name" v="Daleelva" />
		<tag k="ssr:stedsnr" v="30237" />
		<tag k="waterway" v="stream" />
	</node>
	<node id="-496889" lat="61.6373944452" lon="5.04027222194">
		<tag k="name" v="Fossen" />
		<tag k="natural" v="waterfall" />
		<tag k="ssr:stedsnr" v="696527" />
	</node>
	<node id="-496877" lat="61.5894444402" lon="5.56873333862">
		<tag k="name" v="Driva" />
		<tag k="ssr:stedsnr" v="688691" />
		<tag k="waterway" v="stream" />
	</node>
	<node id="-496876" lat="61.5909722209" lon="5.52726666056">
		<tag k="name" v="Uravatnet" />
		<tag k="natural" v="water" />
		<tag k="ssr:stedsnr" v="688690" />
	</node>
	<node id="-496873" lat="61.5614916651" lon="5.57194721445">
		<tag k="name" v="Agledalselva" />
		<tag k="ssr:stedsnr" v="687682" />
		<tag k="waterway" v="river" />
	</node>
	<node id="-496858" lat="61.66083056" lon="5.43897778466">
		<tag k="name" v="Blålielva" />
		<tag k="ssr:stedsnr" v="676871" />
		<tag k="waterway" v="stream" />
	</node>
	<node id="-496856" lat="61.6524666678" lon="5.26040277024">
		<tag k="name" v="Krokvatnet" />
		<tag k="natural" v="water" />
		<tag k="ssr:stedsnr" v="676864" />
	</node>
	<node id="-496853" lat="61.6819805543" lon="5.37924165833">
		<tag k="name" v="Grønskredvatnet" />
		<tag k="natural" v="water" />
		<tag k="ssr:stedsnr" v="676843" />
	</node>
	<node id="-496846" lat="61.5278833352" lon="4.93428333464">
		<tag k="name" v="Valvikevatnet" />
		<tag k="natural" v="water" />
		<tag k="ssr:stedsnr" v="676752" />
	</node>
	<node id="-496843" lat="61.6136861077" lon="5.51641944704">
		<tag k="name" v="Blåvatnet" />
		<tag k="natural" v="water" />
		<tag k="ssr:stedsnr" v="676722" />
	</node>
	<node id="-496842" lat="61.624205553" lon="5.55186944613">
		<tag k="name" v="Snorelva" />
		<tag k="ssr:stedsnr" v="676719" />
		<tag k="waterway" v="stream" />
	</node>
	<node id="-496841" lat="61.6371916697" lon="5.59676111153">
		<tag k="name" v="Glupsa" />
		<tag k="ssr:stedsnr" v="676706" />
		<tag k="waterway" v="stream" />
	</node>
	<node id="-494791" lat="61.6928250016" lon="5.58375555009">
		<tag k="name" v="Storelvfossen" />
		<tag k="natural" v="waterfall" />
		<tag k="ssr:stedsnr" v="20697" />
	</node>
	<node id="-496837" lat="61.5176361078" lon="5.37052778308">
		<tag k="name" v="Stølsvatnet" />
		<tag k="natural" v="water" />
		<tag k="ssr:stedsnr" v="676600" />
	</node>
	<node id="-494787" lat="61.644138893" lon="5.19860555774">
		<tag k="name" v="Tåelva" />
		<tag k="ssr:stedsnr" v="9921" />
		<tag k="waterway" v="stream" />
	</node>
	<node id="-496834" lat="61.5323194483" lon="5.20210834094">
		<tag k="name" v="Storelva" />
		<tag k="ssr:stedsnr" v="676587" />
		<tag k="waterway" v="stream" />
	</node>
	<node id="-494784" lat="61.7117083298" lon="5.43388333783">
		<tag k="name" v="Storebotnvatnet" />
		<tag k="natural" v="water" />
		<tag k="ssr:stedsnr" v="9859" />
		<tag k="water" v="lake" />
	</node>
	<node id="-494781" lat="61.6238972183" lon="5.53739167036">
		<tag k="name" v="Skitnestøylselva" />
		<tag k="ssr:stedsnr" v="9733" />
		<tag k="waterway" v="stream" />
	</node>
	<node id="-494780" lat="61.6378500043" lon="5.58650834026">
		<tag k="name" v="Driva" />
		<tag k="ssr:stedsnr" v="9717" />
		<tag k="waterway" v="stream" />
	</node>
	<node id="-494778" lat="61.6657249989" lon="5.48355556497">
		<tag k="name" v="Langevatnet" />
		<tag k="natural" v="water" />
		<tag k="ssr:stedsnr" v="9672" />
	</node>
	<node id="-494776" lat="61.5298694478" lon="5.46251944851">
		<tag k="name" v="Kleivelva" />
		<tag k="ssr:stedsnr" v="9601" />
		<tag k="waterway" v="stream" />
	</node>
	<node id="-494771" lat="61.5849972231" lon="5.28744167577">
		<tag k="name" v="Høyvikvatnet" />
		<tag k="natural" v="water" />
		<tag k="ssr:stedsnr" v="9510" />
	</node>
	<node id="-494770" lat="61.5811750017" lon="5.30886667176">
		<tag k="alt_name" v="Lommevatnet" />
		<tag k="name" v="Lomevatnet" />
		<tag k="natural" v="water" />
		<tag k="ssr:stedsnr" v="9505" />
	</node>
	<node id="-494762" lat="61.5880527764" lon="4.82570833932">
		<tag k="name" v="Skorpevatnet" />
		<tag k="natural" v="water" />
		<tag k="ssr:stedsnr" v="9124" />
	</node>
	<node id="-496805" lat="61.6445555591" lon="5.08916389373">
		<tag k="name" v="Storelva" />
		<tag k="ssr:stedsnr" v="676114" />
		<tag k="waterway" v="stream" />
	</node>
	<node id="-496804" lat="61.6451666701" lon="5.02685554878">
		<tag k="alt_name" v="Fossevatnet" />
		<tag k="name" v="Fossatjørna" />
		<tag k="natural" v="water" />
		<tag k="ssr:stedsnr" v="676113" />
	</node>
	<node id="-496799" lat="61.6808277752" lon="5.0610722301">
		<tag k="name" v="Aurbrekkvatnet" />
		<tag k="natural" v="water" />
		<tag k="ssr:stedsnr" v="676014" />
	</node>
	<node id="-496797" lat="61.6447361148" lon="5.43314165993">
		<tag k="name" v="Gruvlelva" />
		<tag k="ssr:stedsnr" v="675929" />
		<tag k="waterway" v="stream" />
	</node>
	<node id="-494747" lat="61.6603999968" lon="5.26492777771">
		<tag k="name" v="Svartevatnet" />
		<tag k="natural" v="water" />
		<tag k="ssr:stedsnr" v="8907" />
	</node>
	<node id="-494745" lat="61.6875361092" lon="5.39401111934">
		<tag k="name" v="Ludvikbotneelva" />
		<tag k="ssr:stedsnr" v="8865" />
		<tag k="waterway" v="stream" />
	</node>
	<node id="-497860" lat="61.610561114" lon="5.56598056037">
		<tag k="name" v="Båtestraumen" />
		<tag k="natural" v="strait" />
		<tag k="ssr:stedsnr" v="940242" />
	</node>
	<node id="-494732" lat="61.5511833368" lon="5.14633610728">
		<tag k="name" v="Storøyvatnet" />
		<tag k="natural" v="water" />
		<tag k="ssr:stedsnr" v="8575" />
	</node>
	<node id="-494786" lat="61.6489916688" lon="5.25589166486">
		<tag k="name" v="Tjørnesvatnet" />
		<tag k="natural" v="water" />
		<tag k="ssr:stedsnr" v="9912" />
	</node>
	<node id="-494722" lat="61.5163027796" lon="5.49674444104">
		<tag k="name" v="Rustetjørna" />
		<tag k="natural" v="water" />
		<tag k="ssr:stedsnr" v="8454" />
	</node>
	<node id="-495464" lat="61.5959805526" lon="5.02714444477">
		<tag k="name" v="Litlevatnet" />
		<tag k="natural" v="water" />
		<tag k="ssr:stedsnr" v="191192" />
	</node>
	<node id="-495479" lat="61.626891431" lon="5.60745895777">
		<tag k="name" v="Lykkjebøvatnet" />
		<tag k="natural" v="water" />
		<tag k="ssr:stedsnr" v="191673" />
		<tag k="water" v="lake" />
	</node>
	<node id="-496742" lat="61.6734194432" lon="5.57335556017">
		<tag k="name" v="Grøndalselva" />
		<tag k="ssr:stedsnr" v="637729" />
		<tag k="waterway" v="river" />
	</node>
	<node id="-496740" lat="61.63248889" lon="5.59494167352">
		<tag k="name" v="Storelielva" />
		<tag k="ssr:stedsnr" v="637707" />
		<tag k="waterway" v="stream" />
	</node>
	<node id="-496735" lat="61.5662444426" lon="5.71809443753">
		<tag k="name" v="Brekkeelva" />
		<tag k="ssr:stedsnr" v="637618" />
		<tag k="waterway" v="stream" />
	</node>
	<node id="-496732" lat="61.5727083306" lon="5.56987778411">
		<tag k="name" v="Svartegrova" />
		<tag k="ssr:stedsnr" v="637600" />
		<tag k="waterway" v="stream" />
	</node>
	<node id="-494673" lat="61.612072218" lon="5.64026667467">
		<tag k="alt_name" v="Krogstadvatnet" />
		<tag k="name" v="Krokstadvatnet" />
		<tag k="natural" v="water" />
		<tag k="ssr:stedsnr" v="478748" />
		<tag k="water" v="lake" />
	</node>
	<node id="-496702" lat="61.6851666659" lon="5.56594444482">
		<tag k="name" v="Strupen" />
		<tag k="natural" v="cape" />
		<tag k="ssr:stedsnr" v="636606" />
	</node>
	<node id="-494650" lat="61.6206750892" lon="5.31301636202">
		<tag k="name" v="Liavatnet" />
		<tag k="natural" v="water" />
		<tag k="ssr:stedsnr" v="395602" />
		<tag k="water" v="lake" />
	</node>
	<node id="-494637" lat="61.7091333325" lon="5.43627778514">
		<tag k="name" v="Storebotnneset" />
		<tag k="natural" v="cape" />
		<tag k="ssr:stedsnr" v="394847" />
	</node>
	<node id="-494633" lat="61.6660305592" lon="5.57111389077">
		<tag k="name" v="Nedstevika" />
		<tag k="natural" v="bay" />
		<tag k="ssr:stedsnr" v="394722" />
	</node>
	<node id="-496680" lat="61.5374861104" lon="5.43095554991">
		<tag k="name" v="Sundet" />
		<tag k="natural" v="strait" />
		<tag k="ssr:stedsnr" v="636319" />
	</node>
	<node id="-496679" lat="61.5384583374" lon="5.44148333544">
		<tag k="name" v="Kastvika" />
		<tag k="natural" v="bay" />
		<tag k="ssr:stedsnr" v="636317" />
	</node>
	<node id="-496678" lat="61.6543361101" lon="5.37483333261">
		<tag k="name" v="Bjørnabeten" />
		<tag k="natural" v="cape" />
		<tag k="ssr:stedsnr" v="636525" />
	</node>
	<node id="-496676" lat="61.6473794068" lon="5.04387335029">
		<tag k="name" v="Indre Uradalsvatnet" />
		<tag k="natural" v="water" />
		<tag k="ssr:stedsnr" v="636503" />
		<tag k="water" v="lake" />
	</node>
	<node id="-496675" lat="61.6746805529" lon="5.04722499649">
		<tag k="name" v="Fossane" />
		<tag k="natural" v="waterfall" />
		<tag k="ssr:stedsnr" v="636296" />
	</node>
	<node id="-494626" lat="61.6868333366" lon="5.57251111384">
		<tag k="name" v="Bukta" />
		<tag k="natural" v="bay" />
		<tag k="ssr:stedsnr" v="394575" />
	</node>
	<node id="-494619" lat="61.6572361117" lon="5.50290277328">
		<tag k="name" v="Tåfossen" />
		<tag k="natural" v="waterfall" />
		<tag k="ssr:stedsnr" v="394412" />
	</node>
	<node id="-496666" lat="61.5608138923" lon="5.50057221299">
		<tag k="name" v="Leirvika" />
		<tag k="natural" v="bay" />
		<tag k="ssr:stedsnr" v="636166" />
	</node>
	<node id="-494616" lat="61.5937452734" lon="5.4270778006">
		<tag k="name" v="Storevatnet" />
		<tag k="natural" v="water" />
		<tag k="ssr:stedsnr" v="394398" />
		<tag k="water" v="lake" />
	</node>
	<node id="-494615" lat="61.5154361117" lon="5.52743332468">
		<tag k="name" v="Viddalselva" />
		<tag k="ssr:stedsnr" v="394394" />
		<tag k="waterway" v="river" />
	</node>
	<node id="-496662" lat="61.581319445" lon="5.52372222537">
		<tag k="name" v="Kvitetjørna" />
		<tag k="natural" v="water" />
		<tag k="ssr:stedsnr" v="636103" />
	</node>
	<node id="-494611" lat="61.6464342179" lon="5.4643092661">
		<tag k="name" v="Tjørna" />
		<tag k="natural" v="water" />
		<tag k="ssr:stedsnr" v="394348" />
	</node>
	<node id="-494610" lat="61.6449750032" lon="5.5153666597">
		<tag k="name" v="Oksefossen" />
		<tag k="natural" v="waterfall" />
		<tag k="ssr:stedsnr" v="394344" />
	</node>
	<node id="-494607" lat="61.6625833317" lon="5.54397778416">
		<tag k="name" v="Støldalselva" />
		<tag k="ssr:stedsnr" v="394316" />
		<tag k="waterway" v="stream" />
	</node>
	<node id="-494602" lat="61.610583331" lon="5.56213333029">
		<tag k="name" v="Øyrane" />
		<tag k="place" v="island" />
		<tag k="ssr:stedsnr" v="394237" />
	</node>
	<node id="-494600" lat="61.5568833341" lon="5.50070000516">
		<tag k="name" v="Djupevika" />
		<tag k="natural" v="bay" />
		<tag k="ssr:stedsnr" v="394157" />
	</node>
	<node id="-494597" lat="61.572030558" lon="5.53473888359">
		<tag k="name" v="Storelva" />
		<tag k="ssr:stedsnr" v="394008" />
		<tag k="waterway" v="river" />
	</node>
	<node id="-494596" lat="61.570216663" lon="5.53238055623">
		<tag k="name" v="Sørdalsøyra" />
		<tag k="natural" v="cape" />
		<tag k="ssr:stedsnr" v="394004" />
	</node>
	<node id="-494590" lat="61.5967611124" lon="5.08909165806">
		<tag k="name" v="Dragselva" />
		<tag k="ssr:stedsnr" v="393831" />
		<tag k="waterway" v="river" />
	</node>
	<node id="-494584" lat="61.4759055581" lon="5.08047222534">
		<tag k="name" v="Grønskjeret" />
		<tag k="place" v="islet" />
		<tag k="ssr:stedsnr" v="393706" />
	</node>
	<node id="-496629" lat="61.6389583349" lon="5.44415276938">
		<tag k="name" v="Dyttingevatnet" />
		<tag k="natural" v="water" />
		<tag k="ssr:stedsnr" v="627942" />
	</node>
	<node id="-494043" lat="61.6847916633" lon="4.9969472306">
		<tag k="name" v="Demma" />
		<tag k="ssr:stedsnr" v="272363" />
		<tag k="waterway" v="rapids" />
	</node>
	<node id="-494577" lat="61.6653472215" lon="5.01362221814">
		<tag k="name" v="Stølstjørna" />
		<tag k="natural" v="water" />
		<tag k="ssr:stedsnr" v="393499" />
	</node>
	<node id="-496622" lat="61.537105556" lon="5.42916388867">
		<tag k="alt_name" v="Osneset" />
		<tag k="name" v="Neset" />
		<tag k="natural" v="cape" />
		<tag k="ssr:stedsnr" v="616829" />
	</node>
	<node id="-496621" lat="61.5468250024" lon="5.41354444803">
		<tag k="name" v="Oselva" />
		<tag k="ssr:stedsnr" v="616827" />
		<tag k="waterway" v="river" />
	</node>
	<node id="-496616" lat="61.5918583325" lon="5.27037778215">
		<tag k="name" v="Sandvikelva" />
		<tag k="ssr:stedsnr" v="615969" />
		<tag k="waterway" v="stream" />
	</node>
	<node id="-496613" lat="61.6236361117" lon="5.4047222277">
		<tag k="name" v="Fiskevatnet" />
		<tag k="natural" v="water" />
		<tag k="ssr:stedsnr" v="615943" />
	</node>
	<node id="-496612" lat="61.6478861099" lon="5.42616389158">
		<tag k="name" v="Lakselva" />
		<tag k="ssr:stedsnr" v="615931" />
		<tag k="waterway" v="stream" />
	</node>
	<node id="-496608" lat="61.662029054" lon="5.28839259235">
		<tag k="alt_name" v="Børavatnet" />
		<tag k="name" v="Børevatnet" />
		<tag k="natural" v="water" />
		<tag k="ssr:stedsnr" v="615898" />
		<tag k="water" v="lake" />
	</node>
	<node id="-496606" lat="61.6828388912" lon="5.43284722221">
		<tag k="name" v="Storebotsfossen" />
		<tag k="natural" v="waterfall" />
		<tag k="ssr:stedsnr" v="615838" />
	</node>
	<node id="-496603" lat="61.5216750003" lon="4.94200278661">
		<tag k="alt_name" v="Hammersetvatnet" />
		<tag k="name" v="Hammarsetvatnet" />
		<tag k="natural" v="water" />
		<tag k="ssr:stedsnr" v="615789" />
	</node>
	<node id="-496596" lat="61.6404750025" lon="5.55460000768">
		<tag k="name" v="Støylsdalsvatnet" />
		<tag k="natural" v="water" />
		<tag k="ssr:stedsnr" v="615684" />
	</node>
	<node id="-496594" lat="61.6724250025" lon="5.64765833849">
		<tag k="name" v="Budalsvatnet" />
		<tag k="natural" v="water" />
		<tag k="ssr:stedsnr" v="615656" />
	</node>
	<node id="-495096" lat="61.6106277793" lon="5.61996943906">
		<tag k="name" v="Krokstadbugen" />
		<tag k="natural" v="bay" />
		<tag k="ssr:stedsnr" v="91702" />
	</node>
	<node id="-494541" lat="61.5458833347" lon="5.61666944848">
		<tag k="name" v="Svartevatnet" />
		<tag k="natural" v="water" />
		<tag k="ssr:stedsnr" v="384686" />
	</node>
	<node id="-494540" lat="61.6663194479" lon="5.54876388558">
		<tag k="name" v="Fureneset" />
		<tag k="natural" v="cape" />
		<tag k="ssr:stedsnr" v="384673" />
	</node>
	<node id="-496587" lat="61.5347855788" lon="5.44332329609">
		<tag k="name" v="Svardalsvatnet" />
		<tag k="natural" v="water" />
		<tag k="ssr:stedsnr" v="615592" />
		<tag k="water" v="lake" />
	</node>
	<node id="-496574" lat="61.5639472194" lon="5.47404999651">
		<tag k="name" v="Holetjørna" />
		<tag k="natural" v="water" />
		<tag k="ssr:stedsnr" v="615465" />
	</node>
	<node id="-494751" lat="61.6275166661" lon="5.43660000761">
		<tag k="name" v="Stølsvatnet" />
		<tag k="natural" v="water" />
		<tag k="ssr:stedsnr" v="8958" />
	</node>
	<node id="-496553" lat="61.6479833372" lon="5.01861110876">
		<tag k="name" v="Rundevatnet" />
		<tag k="natural" v="water" />
		<tag k="ssr:stedsnr" v="615101" />
	</node>
	<node id="-495089" lat="61.7010583323" lon="5.57288055507">
		<tag k="name" v="Langeneset" />
		<tag k="natural" v="cape" />
		<tag k="ssr:stedsnr" v="91570" />
	</node>
	<node id="-494493" lat="61.6384611139" lon="5.16720555208">
		<tag k="name" v="Klauveelva" />
		<tag k="ssr:stedsnr" v="372939" />
		<tag k="waterway" v="stream" />
	</node>
	<node id="-494491" lat="61.6558555515" lon="5.38133889533">
		<tag k="name" v="Litlevatnet" />
		<tag k="natural" v="water" />
		<tag k="ssr:stedsnr" v="372904" />
	</node>
	<node id="-494490" lat="61.6395527742" lon="5.12270833344">
		<tag k="alt_name" v="Tirdalselva" />
		<tag k="name" v="Terdalselva" />
		<tag k="ssr:stedsnr" v="372901" />
		<tag k="waterway" v="stream" />
	</node>
	<node id="-496535" lat="61.6337805566" lon="5.42632221644">
		<tag k="name" v="Utlitjørna" />
		<tag k="natural" v="water" />
		<tag k="ssr:stedsnr" v="614959" />
	</node>
	<node id="-494474" lat="61.6083666671" lon="5.60130833706">
		<tag k="alt_name" v="Endestadbugen" />
		<tag k="name" v="Endestadbogen" />
		<tag k="natural" v="bay" />
		<tag k="ssr:stedsnr" v="372746" />
	</node>
	<node id="-494473" lat="61.6435888872" lon="5.55223054757">
		<tag k="name" v="Nipevatnet" />
		<tag k="natural" v="water" />
		<tag k="ssr:stedsnr" v="372732" />
	</node>
	<node id="-494472" lat="61.6439694425" lon="5.52551666736">
		<tag k="alt_name" v="Djupedalselva" />
		<tag k="name" v="Djupdalselva" />
		<tag k="ssr:stedsnr" v="372731" />
		<tag k="waterway" v="stream" />
	</node>
	<node id="-494468" lat="61.6875861081" lon="5.66216665868">
		<tag k="name" v="Langevatnet" />
		<tag k="natural" v="water" />
		<tag k="ssr:stedsnr" v="372690" />
	</node>
	<node id="-494467" lat="61.6919250018" lon="5.5447722178">
		<tag k="name" v="Svoraelvane" />
		<tag k="ssr:stedsnr" v="372681" />
		<tag k="waterway" v="stream" />
	</node>
	<node id="-494466" lat="61.5189999992" lon="5.38056944326">
		<tag k="name" v="Svartevatnet" />
		<tag k="natural" v="water" />
		<tag k="ssr:stedsnr" v="372603" />
	</node>
	<node id="-494458" lat="61.5454361083" lon="5.39091665788">
		<tag k="name" v="Sagelva" />
		<tag k="ssr:stedsnr" v="372568" />
		<tag k="waterway" v="stream" />
	</node>
	<node id="-494449" lat="61.5552694442" lon="5.49215000508">
		<tag k="name" v="Vassetevatnet" />
		<tag k="natural" v="water" />
		<tag k="ssr:stedsnr" v="372461" />
		<tag k="water" v="lake" />
	</node>
	<node id="-494448" lat="61.5283916704" lon="5.58180833829">
		<tag k="name" v="Nordlielva" />
		<tag k="ssr:stedsnr" v="372426" />
		<tag k="waterway" v="stream" />
	</node>
	<node id="-496484" lat="61.5400055576" lon="5.27150554986">
		<tag k="name" v="Kvernhuselva" />
		<tag k="ssr:stedsnr" v="577929" />
		<tag k="waterway" v="river" />
	</node>
	<node id="-496480" lat="61.5606805582" lon="5.69453055477">
		<tag k="name" v="Middagselva" />
		<tag k="ssr:stedsnr" v="577592" />
		<tag k="waterway" v="stream" />
	</node>
	<node id="-496478" lat="61.5679805584" lon="5.58095277633">
		<tag k="name" v="Sagelva" />
		<tag k="ssr:stedsnr" v="577573" />
		<tag k="waterway" v="river" />
	</node>
	<node id="-494429" lat="61.654491665" lon="5.0186250081">
		<tag k="alt_name" v="Lonene" />
		<tag k="name" v="Lonevatnet" />
		<tag k="natural" v="water" />
		<tag k="ssr:stedsnr" v="372107" />
	</node>
	<node id="-495076" lat="61.5911404094" lon="5.5498926659">
		<tag k="name" v="Hestvika" />
		<tag k="natural" v="bay" />
		<tag k="ssr:stedsnr" v="91245" />
	</node>
	<node id="-494422" lat="61.6417972259" lon="5.02934721729">
		<tag k="name" v="Dalavatnet" />
		<tag k="natural" v="water" />
		<tag k="ssr:stedsnr" v="372068" />
	</node>
	<node id="-494419" lat="61.6912694447" lon="5.02243611206">
		<tag k="name" v="Tverrdalsvatnet" />
		<tag k="natural" v="water" />
		<tag k="ssr:stedsnr" v="372053" />
	</node>
	<node id="-494417" lat="61.6675999995" lon="5.01158334264">
		<tag k="fixme" v="multiple name tags, choose one and add the other to alt_name" />
		<tag k="name" v="Støyldalsvatnet;Støylsvatnet" />
		<tag k="natural" v="water" />
		<tag k="ssr:stedsnr" v="372020" />
	</node>
	<node id="-496464" lat="61.6971573527" lon="5.44742572101">
		<tag k="name" v="Tjørna" />
		<tag k="natural" v="water" />
		<tag k="ssr:stedsnr" v="576839" />
		<tag k="water" v="lake" />
	</node>
	<node id="-496463" lat="61.6443361075" lon="5.44025278294">
		<tag k="name" v="Gruvla" />
		<tag k="ssr:stedsnr" v="576768" />
		<tag k="waterway" v="river" />
	</node>
	<node id="-496450" lat="61.6717527788" lon="5.62924444107">
		<tag k="name" v="Tverrelvane" />
		<tag k="ssr:stedsnr" v="576517" />
		<tag k="waterway" v="river" />
	</node>
	<node id="-496439" lat="61.5931714259" lon="5.43737951246">
		<tag k="name" v="Litlevatnet" />
		<tag k="natural" v="water" />
		<tag k="ssr:stedsnr" v="576393" />
		<tag k="water" v="lake" />
	</node>
	<node id="-496436" lat="61.6581305531" lon="5.52476111099">
		<tag k="name" v="Godfervika" />
		<tag k="natural" v="bay" />
		<tag k="ssr:stedsnr" v="576376" />
	</node>
	<node id="-496434" lat="61.5520555525" lon="5.48570555678">
		<tag k="name" v="Hestelineset" />
		<tag k="natural" v="cape" />
		<tag k="ssr:stedsnr" v="576304" />
	</node>
	<node id="-494369" lat="61.6166885334" lon="5.59725278939">
		<tag k="name" v="Storemyrholmen" />
		<tag k="place" v="islet" />
		<tag k="ssr:stedsnr" v="334666" />
	</node>
	<node id="-497455" lat="61.5578305572" lon="5.34981943563">
		<tag k="name" v="Osstrupen" />
		<tag k="natural" v="strait" />
		<tag k="ssr:stedsnr" v="819918" />
	</node>
	<node id="-494351" lat="61.5445416667" lon="5.49297778091">
		<tag k="name" v="Håmannsneset" />
		<tag k="natural" v="cape" />
		<tag k="ssr:stedsnr" v="334259" />
	</node>
	<node id="-494350" lat="61.5569666651" lon="5.48173333755">
		<tag k="name" v="Kvernhuselva" />
		<tag k="ssr:stedsnr" v="334240" />
		<tag k="waterway" v="stream" />
	</node>
	<node id="-496396" lat="61.7108606923" lon="4.87143564711">
		<tag k="name" v="Hovdevatnet" />
		<tag k="natural" v="water" />
		<tag k="ssr:stedsnr" v="575336" />
		<tag k="water" v="lake" />
	</node>
	<node id="-494342" lat="61.5623694473" lon="5.4970638929">
		<tag k="name" v="Storeneset" />
		<tag k="natural" v="cape" />
		<tag k="ssr:stedsnr" v="334154" />
	</node>
	<node id="-494339" lat="61.5664194488" lon="5.5222444508">
		<tag k="name" v="Dyrevadet" />
		<tag k="natural" v="shoal" />
		<tag k="place" v="locality" />
		<tag k="ssr:stedsnr" v="334064" />
	</node>
	<node id="-494329" lat="61.5767333295" lon="5.60905555147">
		<tag k="name" v="Strupeelva" />
		<tag k="ssr:stedsnr" v="333695" />
		<tag k="waterway" v="stream" />
	</node>
	<node id="-496374" lat="61.6130249974" lon="4.8087666679">
		<tag k="name" v="Litle Bataldsosen" />
		<tag k="natural" v="bay" />
		<tag k="ssr:stedsnr" v="575119" />
	</node>
	<node id="-496371" lat="61.5590333361" lon="5.10445276945">
		<tag k="name" v="Stavøyvatnet" />
		<tag k="natural" v="water" />
		<tag k="ssr:stedsnr" v="575057" />
		<tag k="water" v="lake" />
	</node>
	<node id="-494322" lat="61.6373079326" lon="5.02194012937">
		<tag k="alt_name" v="Svartedalsvatnet" />
		<tag k="name" v="Svartdalstjørnane" />
		<tag k="natural" v="water" />
		<tag k="ssr:stedsnr" v="333488" />
	</node>
	<node id="-496366" lat="61.6122888882" lon="5.11759444149">
		<tag k="name" v="Sandvikskjeret" />
		<tag k="place" v="islet" />
		<tag k="ssr:stedsnr" v="574742" />
	</node>
	<node id="-496365" lat="61.598305556" lon="5.11353334228">
		<tag k="name" v="Haugaskjera" />
		<tag k="place" v="islet" />
		<tag k="ssr:stedsnr" v="574732" />
	</node>
	<node id="-494315" lat="61.5948722176" lon="5.44464443636">
		<tag k="name" v="Hamnaelva" />
		<tag k="ssr:stedsnr" v="333412" />
		<tag k="waterway" v="stream" />
	</node>
	<node id="-496362" lat="61.6197333289" lon="5.12104444518">
		<tag k="name" v="Grønengsundet" />
		<tag k="natural" v="strait" />
		<tag k="ssr:stedsnr" v="574451" />
	</node>
	<node id="-496361" lat="61.6258127973" lon="5.59432820664">
		<tag k="name" v="Røyrvika" />
		<tag k="natural" v="bay" />
		<tag k="ssr:stedsnr" v="566688" />
	</node>
	<node id="-496359" lat="61.7004963019" lon="5.66244389281">
		<tag k="name" v="Øvre Nipevatnet" />
		<tag k="natural" v="water" />
		<tag k="ssr:stedsnr" v="566673" />
		<tag k="water" v="lake" />
	</node>
	<node id="-494308" lat="61.6213916692" lon="5.56041667043">
		<tag k="name" v="Holteelva" />
		<tag k="ssr:stedsnr" v="333331" />
		<tag k="waterway" v="river" />
	</node>
	<node id="-494305" lat="61.6885446156" lon="4.87809820878">
		<tag k="name" v="Søre Hovdevatnet" />
		<tag k="natural" v="water" />
		<tag k="ssr:stedsnr" v="333303" />
		<tag k="water" v="lake" />
	</node>
	<node id="-497789" lat="61.6479333376" lon="5.37636944428">
		<tag k="alt_name" v="Storelva" />
		<tag k="name" v="Norddalselva" />
		<tag k="ssr:stedsnr" v="919929" />
		<tag k="waterway" v="river" />
	</node>
	<node id="-496334" lat="61.6966194483" lon="5.44926944422">
		<tag k="name" v="Nedre Storebotnvatnet" />
		<tag k="natural" v="water" />
		<tag k="ssr:stedsnr" v="554874" />
		<tag k="water" v="lake" />
	</node>
	<node id="-494277" lat="61.6766055595" lon="4.99088055356">
		<tag k="name" v="Husefesttjørna" />
		<tag k="natural" v="water" />
		<tag k="ssr:stedsnr" v="332532" />
	</node>
	<node id="-494276" lat="61.6687277741" lon="4.99007776884">
		<tag k="name" v="Demmetjørna" />
		<tag k="natural" v="water" />
		<tag k="ssr:stedsnr" v="332531" />
	</node>
	<node id="-496321" lat="61.5224222209" lon="5.37542777081">
		<tag k="name" v="Simavatnet" />
		<tag k="natural" v="water" />
		<tag k="ssr:stedsnr" v="554641" />
	</node>
	<node id="-496320" lat="61.5275444466" lon="5.3679972258">
		<tag k="name" v="Høydalsvatnet" />
		<tag k="natural" v="water" />
		<tag k="ssr:stedsnr" v="554642" />
	</node>
	<node id="-494271" lat="61.5926999983" lon="5.20275556318">
		<tag k="name" v="Sagevikane" />
		<tag k="natural" v="bay" />
		<tag k="ssr:stedsnr" v="332131" />
	</node>
	<node id="-494261" lat="61.5288749965" lon="5.52830277093">
		<tag k="name" v="Midtflotegrova" />
		<tag k="ssr:stedsnr" v="334407" />
		<tag k="waterway" v="stream" />
	</node>
	<node id="-494257" lat="61.6918555547" lon="5.57433888076">
		<tag k="name" v="Storelva" />
		<tag k="ssr:stedsnr" v="323682" />
		<tag k="waterway" v="river" />
	</node>
	<node id="-494249" lat="61.5977972235" lon="5.3480694505">
		<tag k="name" v="Jagetjørna" />
		<tag k="natural" v="water" />
		<tag k="ssr:stedsnr" v="312973" />
	</node>
	<node id="-496296" lat="61.5854111122" lon="5.5999611131">
		<tag k="name" v="Torsvatnet" />
		<tag k="natural" v="water" />
		<tag k="ssr:stedsnr" v="554503" />
	</node>
	<node id="-496295" lat="61.5340972186" lon="5.56139444439">
		<tag k="name" v="Rimmavatnet" />
		<tag k="natural" v="water" />
		<tag k="ssr:stedsnr" v="554479" />
	</node>
	<node id="-494245" lat="61.6459861124" lon="5.2696138902">
		<tag k="name" v="Tjørneselva" />
		<tag k="ssr:stedsnr" v="312921" />
		<tag k="waterway" v="stream" />
	</node>
	<node id="-496288" lat="61.5893861095" lon="5.01063611873">
		<tag k="name" v="Svartevatnet" />
		<tag k="natural" v="water" />
		<tag k="ssr:stedsnr" v="554248" />
	</node>
	<node id="-494239" lat="61.6690722231" lon="5.39890833779">
		<tag k="name" v="Storevika" />
		<tag k="natural" v="bay" />
		<tag k="ssr:stedsnr" v="312892" />
	</node>
	<node id="-494226" lat="61.5999472239" lon="5.57535000794">
		<tag k="alt_name" v="Kvangreneset" />
		<tag k="name" v="Kvanngrøneset" />
		<tag k="natural" v="cape" />
		<tag k="ssr:stedsnr" v="312721" />
	</node>
	<node id="-494225" lat="61.6103861126" lon="5.54270000325">
		<tag k="name" v="Sagelva" />
		<tag k="ssr:stedsnr" v="312717" />
		<tag k="waterway" v="stream" />
	</node>
	<node id="-494223" lat="61.6636722244" lon="5.5416749964">
		<tag k="name" v="Osen" />
		<tag k="natural" v="bay" />
		<tag k="ssr:stedsnr" v="312666" />
	</node>
	<node id="-494221" lat="61.657547172" lon="5.51678192797">
		<tag k="name" v="Midbøvatnet" />
		<tag k="natural" v="water" />
		<tag k="ssr:stedsnr" v="312658" />
	</node>
	<node id="-494219" lat="61.6857999958" lon="5.63228332779">
		<tag k="name" v="Kvanngrøvatna" />
		<tag k="natural" v="water" />
		<tag k="ssr:stedsnr" v="312640" />
	</node>
	<node id="-494216" lat="61.7030000033" lon="5.57230000758">
		<tag k="name" v="Støylsvatnet" />
		<tag k="natural" v="water" />
		<tag k="ssr:stedsnr" v="312629" />
	</node>
	<node id="-494215" lat="61.5376611074" lon="5.28317778343">
		<tag k="name" v="Ausevikelva" />
		<tag k="ssr:stedsnr" v="312591" />
		<tag k="waterway" v="stream" />
	</node>
	<node id="-494206" lat="61.5751805551" lon="5.59795277735">
		<tag k="name" v="Litlevatnet" />
		<tag k="natural" v="water" />
		<tag k="ssr:stedsnr" v="312488" />
	</node>
	<node id="-496227" lat="61.6982162254" lon="5.63870870355">
		<tag k="name" v="Nipevatna" />
		<tag k="natural" v="water" />
		<tag k="ssr:stedsnr" v="535732" />
		<tag k="water" v="lake" />
	</node>
	<node id="-494173" lat="61.7503442702" lon="5.56465535955">
		<tag k="name" v="Blåbrevatnet" />
		<tag k="natural" v="water" />
		<tag k="ssr:stedsnr" v="311680" />
		<tag k="water" v="lake" />
	</node>
	<node id="-494168" lat="61.5661972258" lon="5.63065278583">
		<tag k="name" v="Svarthumlevatnet" />
		<tag k="natural" v="water" />
		<tag k="ssr:stedsnr" v="311536" />
	</node>
	<node id="-496214" lat="61.6426222179" lon="5.28759444031">
		<tag k="name" v="Brudesløret" />
		<tag k="natural" v="waterfall" />
		<tag k="ssr:stedsnr" v="516730" />
	</node>
	<node id="-494165" lat="61.5410944422" lon="5.56450000225">
		<tag k="name" v="Dyrdalsvatna" />
		<tag k="natural" v="water" />
		<tag k="ssr:stedsnr" v="311498" />
	</node>
	<node id="-496211" lat="61.5992361068" lon="5.60946110528">
		<tag k="name" v="Svarttjørna" />
		<tag k="natural" v="water" />
		<tag k="ssr:stedsnr" v="516668" />
	</node>
	<node id="-496210" lat="61.6135194455" lon="5.57515554768">
		<tag k="name" v="Litleholmen" />
		<tag k="place" v="islet" />
		<tag k="ssr:stedsnr" v="516656" />
	</node>
	<node id="-496208" lat="61.5707194414" lon="5.63183889745">
		<tag k="name" v="Skareelva" />
		<tag k="ssr:stedsnr" v="516630" />
		<tag k="waterway" v="stream" />
	</node>
	<node id="-494157" lat="61.4925666681" lon="5.08947221919">
		<tag k="name" v="Stryvatnet" />
		<tag k="natural" v="water" />
		<tag k="ssr:stedsnr" v="311410" />
	</node>
	<node id="-496201" lat="61.5276749995" lon="5.5035000091">
		<tag k="name" v="Selja" />
		<tag k="natural" v="cape" />
		<tag k="ssr:stedsnr" v="516474" />
	</node>
	<node id="-496190" lat="61.6884267504" lon="4.84944902758">
		<tag k="name" v="Storskogsvatnet" />
		<tag k="natural" v="water" />
		<tag k="ssr:stedsnr" v="516225" />
		<tag k="water" v="lake" />
	</node>
	<node id="-496167" lat="61.6579243073" lon="5.05506671742">
		<tag k="name" v="Maravatnet" />
		<tag k="natural" v="water" />
		<tag k="ssr:stedsnr" v="515482" />
		<tag k="water" v="lake" />
	</node>
	<node id="-496162" lat="61.6533638928" lon="5.48432777993">
		<tag k="name" v="Storeholmen" />
		<tag k="place" v="islet" />
		<tag k="ssr:stedsnr" v="515418" />
	</node>
	<node id="-496160" lat="61.67225833" lon="5.56390832596">
		<tag k="name" v="Storelielva" />
		<tag k="ssr:stedsnr" v="515392" />
		<tag k="waterway" v="stream" />
	</node>
	<node id="-494104" lat="61.627611108" lon="5.62502499967">
		<tag k="name" v="Sandane" />
		<tag k="natural" v="beach" />
		<tag k="ssr:stedsnr" v="273726" />
	</node>
	<node id="-494102" lat="61.6157999993" lon="5.58575556096">
		<tag k="name" v="Holmane" />
		<tag k="place" v="islet" />
		<tag k="ssr:stedsnr" v="273698" />
	</node>
	<node id="-494100" lat="61.5612999994" lon="5.66130833624">
		<tag k="name" v="Simåelva" />
		<tag k="ssr:stedsnr" v="273654" />
		<tag k="waterway" v="stream" />
	</node>
	<node id="-494090" lat="61.5338694453" lon="5.4635166705">
		<tag k="name" v="Storelva" />
		<tag k="ssr:stedsnr" v="273438" />
		<tag k="waterway" v="river" />
	</node>
	<node id="-494089" lat="61.6548416665" lon="5.49839721827">
		<tag k="name" v="Mjelkeneset" />
		<tag k="natural" v="cape" />
		<tag k="ssr:stedsnr" v="273397" />
	</node>
	<node id="-496135" lat="61.573291668" lon="5.52871389479">
		<tag k="name" v="Eikevolltjørna" />
		<tag k="natural" v="water" />
		<tag k="ssr:stedsnr" v="515010" />
	</node>
	<node id="-494080" lat="61.7239361098" lon="5.48737222015">
		<tag k="name" v="Inste Storebotnsneset" />
		<tag k="natural" v="cape" />
		<tag k="ssr:stedsnr" v="273315" />
	</node>
	<node id="-494079" lat="61.537291665" lon="5.47491111142">
		<tag k="name" v="Strupeneset" />
		<tag k="natural" v="cape" />
		<tag k="ssr:stedsnr" v="273306" />
	</node>
	<node id="-497063" lat="61.5996972216" lon="5.45835238173">
		<tag k="loc_name" v="Nerstøyltjønna;Nerstøylstjønna" />
		<tag k="name" v="Nesdalstjønna" />
		<tag k="natural" v="water" />
		<tag k="ssr:stedsnr" v="737489" />
	</node>
	<node id="-496098" lat="61.6337749996" lon="5.60543334266">
		<tag k="name" v="Lindvika" />
		<tag k="natural" v="bay" />
		<tag k="ssr:stedsnr" v="506656" />
	</node>
	<node id="-496091" lat="61.6092305536" lon="5.43738056083">
		<tag k="name" v="Vassbottnevatnet" />
		<tag k="natural" v="water" />
		<tag k="ssr:stedsnr" v="494979" />
	</node>
	<node id="-494042" lat="61.6368250002" lon="5.13473333455">
		<tag k="name" v="Ospelltjørna" />
		<tag k="natural" v="water" />
		<tag k="ssr:stedsnr" v="272344" />
	</node>
	<node id="-496087" lat="61.6402388863" lon="5.25661110364">
		<tag k="name" v="Stølstjørna" />
		<tag k="natural" v="water" />
		<tag k="ssr:stedsnr" v="494922" />
	</node>
	<node id="-496083" lat="61.6846000041" lon="5.45836110797">
		<tag k="name" v="Myrbærdalsvatna" />
		<tag k="natural" v="water" />
		<tag k="ssr:stedsnr" v="494853" />
	</node>
	<node id="-496081" lat="61.6719324191" lon="5.16746129376">
		<tag k="name" v="Langevatnet" />
		<tag k="natural" v="water" />
		<tag k="ssr:stedsnr" v="494836" />
		<tag k="water" v="lake" />
	</node>
	<node id="-496070" lat="61.6856444418" lon="5.51623333661">
		<tag k="name" v="Øvre Myrbærdalsvatnet" />
		<tag k="natural" v="water" />
		<tag k="ssr:stedsnr" v="494629" />
	</node>
	<node id="-496062" lat="61.5415611089" lon="5.34594721886">
		<tag k="name" v="Høydalselva" />
		<tag k="ssr:stedsnr" v="494546" />
		<tag k="waterway" v="stream" />
	</node>
	<node id="-496053" lat="61.5974444407" lon="5.03854443739">
		<tag k="name" v="Storevatnet" />
		<tag k="natural" v="water" />
		<tag k="ssr:stedsnr" v="494195" />
	</node>
	<node id="-494318" lat="61.6543472225" lon="5.4984055556">
		<tag k="name" v="Djupevika" />
		<tag k="natural" v="bay" />
		<tag k="ssr:stedsnr" v="333431" />
	</node>
	<node id="-496016" lat="61.5227694486" lon="5.47463888176">
		<tag k="name" v="Litleelva" />
		<tag k="ssr:stedsnr" v="493462" />
		<tag k="waterway" v="stream" />
	</node>
	<node id="-495998" lat="61.6705929148" lon="5.05128077373">
		<tag k="name" v="Guleskarvatnet" />
		<tag k="natural" v="water" />
		<tag k="ssr:stedsnr" v="493038" />
		<tag k="water" v="lake" />
	</node>
	<node id="-495951" lat="61.6534083351" lon="5.38166666823">
		<tag k="name" v="Vasssenden" />
		<tag k="natural" v="cape" />
		<tag k="ssr:stedsnr" v="455593" />
	</node>
	<node id="-495946" lat="61.6370944469" lon="5.22459721378">
		<tag k="name" v="Breiskortjørna" />
		<tag k="natural" v="water" />
		<tag k="ssr:stedsnr" v="455453" />
	</node>
	<node id="-495942" lat="61.5301888905" lon="5.53867777497">
		<tag k="name" v="Tverrelva" />
		<tag k="ssr:stedsnr" v="455377" />
		<tag k="waterway" v="stream" />
	</node>
	<node id="-495929" lat="61.5616888889" lon="5.52870555332">
		<tag k="name" v="Bruneelva" />
		<tag k="ssr:stedsnr" v="455056" />
		<tag k="waterway" v="river" />
	</node>
	<node id="-495902" lat="61.6617888888" lon="4.86564722627">
		<tag k="name" v="Kjetangselva" />
		<tag k="ssr:stedsnr" v="454307" />
		<tag k="waterway" v="stream" />
	</node>
	<node id="-495901" lat="61.676729063" lon="4.86341113526">
		<tag k="name" v="Mjellkovsvatnet" />
		<tag k="natural" v="water" />
		<tag k="ssr:stedsnr" v="454296" />
		<tag k="water" v="lake" />
	</node>
	<node id="-497942" lat="61.538686112" lon="5.31519721855">
		<tag k="name" v="Sagelva" />
		<tag k="ssr:stedsnr" v="941912" />
		<tag k="waterway" v="stream" />
	</node>
	<node id="-497938" lat="61.641691664" lon="5.30263054887">
		<tag k="name" v="Vassnaustet" />
		<tag k="place" v="islet" />
		<tag k="ssr:stedsnr" v="941724" />
	</node>
	<node id="-497937" lat="61.6714555574" lon="5.57669444575">
		<tag k="name" v="Neset" />
		<tag k="natural" v="cape" />
		<tag k="ssr:stedsnr" v="941711" />
	</node>
	<node id="-497936" lat="61.6227238641" lon="5.59434774931">
		<tag k="name" v="Røyrvikneset" />
		<tag k="natural" v="cape" />
		<tag k="ssr:stedsnr" v="941691" />
	</node>
	<node id="-497935" lat="61.6272388879" lon="5.6219888849">
		<tag k="name" v="Sandeholmen" />
		<tag k="place" v="islet" />
		<tag k="ssr:stedsnr" v="941686" />
	</node>
	<node id="-497934" lat="61.6438944475" lon="5.25677499033">
		<tag k="name" v="Vadet" />
		<tag k="natural" v="water" />
		<tag k="ssr:stedsnr" v="941680" />
		<tag k="water" v="lake" />
	</node>
	<node id="-497932" lat="61.5601499964" lon="5.60161665987">
		<tag k="name" v="Svartegrova" />
		<tag k="ssr:stedsnr" v="941596" />
		<tag k="waterway" v="stream" />
	</node>
	<node id="-497931" lat="61.5646583296" lon="5.59213611165">
		<tag k="name" v="Brokelielva" />
		<tag k="ssr:stedsnr" v="941595" />
		<tag k="waterway" v="river" />
	</node>
	<node id="-497930" lat="61.5728527789" lon="5.69297222437">
		<tag k="name" v="Kvernhuselva" />
		<tag k="ssr:stedsnr" v="941575" />
		<tag k="waterway" v="stream" />
	</node>
	<node id="-497920" lat="61.531011111" lon="5.52223055307">
		<tag k="name" v="Kvernhuselva" />
		<tag k="ssr:stedsnr" v="941437" />
		<tag k="waterway" v="stream" />
	</node>
	<node id="-495870" lat="61.6458888921" lon="5.16411110787">
		<tag k="name" v="Keipevatnet" />
		<tag k="natural" v="water" />
		<tag k="ssr:stedsnr" v="435802" />
	</node>
	<node id="-497916" lat="61.5875138881" lon="5.22118611348">
		<tag k="name" v="Vadet" />
		<tag k="natural" v="water" />
		<tag k="ssr:stedsnr" v="941362" />
		<tag k="water" v="lake" />
	</node>
	<node id="-497915" lat="61.5366972218" lon="5.4867083245">
		<tag k="name" v="Rørneset" />
		<tag k="natural" v="cape" />
		<tag k="ssr:stedsnr" v="941299" />
	</node>
	<node id="-495865" lat="61.5985194402" lon="5.65263889399">
		<tag k="name" v="Botnavatnet" />
		<tag k="natural" v="water" />
		<tag k="ssr:stedsnr" v="434700" />
	</node>
	<node id="-495852" lat="61.6428444436" lon="5.07488610565">
		<tag k="name" v="Sagaelva" />
		<tag k="ssr:stedsnr" v="434086" />
		<tag k="waterway" v="stream" />
	</node>
	<node id="-495848" lat="61.6392694462" lon="5.13279444235">
		<tag k="name" v="Svartetjønna" />
		<tag k="natural" v="water" />
		<tag k="ssr:stedsnr" v="433929" />
	</node>
	<node id="-495847" lat="61.6362694415" lon="5.44042500973">
		<tag k="alt_name" v="Utelivatnet" />
		<tag k="name" v="Utlivatnet" />
		<tag k="natural" v="water" />
		<tag k="ssr:stedsnr" v="433924" />
	</node>
	<node id="-497893" lat="61.6557555545" lon="5.38991944149">
		<tag k="name" v="Osen" />
		<tag k="natural" v="bay" />
		<tag k="ssr:stedsnr" v="940643" />
	</node>
	<node id="-497892" lat="61.6617888925" lon="5.41295000551">
		<tag k="name" v="Huldreholmen" />
		<tag k="place" v="islet" />
		<tag k="ssr:stedsnr" v="940533" />
	</node>
	<node id="-495843" lat="61.6624166694" lon="5.20433333622">
		<tag k="name" v="Rundedalsvatnet" />
		<tag k="natural" v="water" />
		<tag k="ssr:stedsnr" v="433893" />
	</node>
	<node id="-495839" lat="61.6548972208" lon="5.3014833388">
		<tag k="name" v="Grisebotsvatnet" />
		<tag k="natural" v="water" />
		<tag k="ssr:stedsnr" v="433880" />
	</node>
	<node id="-495836" lat="61.6662000002" lon="5.19099165861">
		<tag k="name" v="Kupevatnet" />
		<tag k="natural" v="water" />
		<tag k="ssr:stedsnr" v="433851" />
	</node>
	<node id="-495827" lat="61.6617361096" lon="5.60696943926">
		<tag k="name" v="Støylselva" />
		<tag k="ssr:stedsnr" v="433696" />
		<tag k="waterway" v="stream" />
	</node>
	<node id="-495826" lat="61.6767111128" lon="5.61774999227">
		<tag k="alt_name" v="Fjellevatnet" />
		<tag k="name" v="Fjellvatnet" />
		<tag k="natural" v="water" />
		<tag k="ssr:stedsnr" v="433686" />
	</node>
	<node id="-495825" lat="61.6723694398" lon="5.54134721526">
		<tag k="name" v="Støylsvatnet" />
		<tag k="natural" v="water" />
		<tag k="ssr:stedsnr" v="433678" />
	</node>
	<node id="-495822" lat="61.5143555549" lon="5.38946111585">
		<tag k="name" v="Dyttingvatnet" />
		<tag k="natural" v="water" />
		<tag k="ssr:stedsnr" v="433597" />
	</node>
	<node id="-497866" lat="61.6707194418" lon="4.8667750054">
		<tag k="name" v="Maratjørna" />
		<tag k="natural" v="water" />
		<tag k="ssr:stedsnr" v="940297" />
	</node>
	<node id="-497865" lat="61.6781815291" lon="4.86546024892">
		<tag k="name" v="Litle Gåsevatnet" />
		<tag k="natural" v="water" />
		<tag k="ssr:stedsnr" v="940296" />
		<tag k="water" v="lake" />
	</node>
	<node id="-495813" lat="61.5646638916" lon="5.33919167123">
		<tag k="name" v="Litlevatnet" />
		<tag k="natural" v="water" />
		<tag k="ssr:stedsnr" v="433522" />
	</node>
	<node id="-495812" lat="61.5698499976" lon="5.37588055165">
		<tag k="name" v="Pollavikelva" />
		<tag k="ssr:stedsnr" v="433521" />
		<tag k="waterway" v="stream" />
	</node>
	<node id="-497859" lat="61.5909861102" lon="5.54255832548">
		<tag k="name" v="Hestvikelva" />
		<tag k="ssr:stedsnr" v="940239" />
		<tag k="waterway" v="stream" />
	</node>
	<node id="-495806" lat="61.5279416642" lon="5.52419167144">
		<tag k="name" v="Steindalselva" />
		<tag k="ssr:stedsnr" v="433465" />
		<tag k="waterway" v="stream" />
	</node>
	<node id="-497850" lat="61.5620944421" lon="5.10046389435">
		<tag k="name" v="Litlevatnet" />
		<tag k="natural" v="water" />
		<tag k="ssr:stedsnr" v="940072" />
		<tag k="water" v="lake" />
	</node>
	<node id="-495584" lat="61.6926250038" lon="5.56263611914">
		<tag k="name" v="Svoraelvane" />
		<tag k="ssr:stedsnr" v="212609" />
		<tag k="waterway" v="river" />
	</node>
	<node id="-497848" lat="61.5791027763" lon="4.72894443706">
		<tag k="name" v="Nærøykyllaren" />
		<tag k="natural" v="strait" />
		<tag k="ssr:stedsnr" v="940059" />
	</node>
	<node id="-497832" lat="61.5983861096" lon="5.20395555942">
		<tag k="name" v="Revet" />
		<tag k="natural" v="strait" />
		<tag k="ssr:stedsnr" v="939815" />
	</node>
	<node id="-497829" lat="61.6246416653" lon="5.10913332951">
		<tag k="name" v="Terøysundet" />
		<tag k="natural" v="strait" />
		<tag k="ssr:stedsnr" v="939420" />
	</node>
	<node id="-495778" lat="61.4893916662" lon="5.09477776982">
		<tag k="name" v="Midtvatnet" />
		<tag k="natural" v="water" />
		<tag k="ssr:stedsnr" v="433018" />
	</node>
	<node id="-495777" lat="61.6711555574" lon="4.85159167213">
		<tag k="name" v="Dombevatnet" />
		<tag k="natural" v="water" />
		<tag k="ssr:stedsnr" v="433007" />
	</node>
	<node id="-495776" lat="61.6342250045" lon="5.55845000277">
		<tag k="name" v="Ytrestøylselva" />
		<tag k="ssr:stedsnr" v="434679" />
		<tag k="waterway" v="stream" />
	</node>
	<node id="-495775" lat="61.5679277821" lon="5.60726389163">
		<tag k="name" v="Litlevatnet" />
		<tag k="natural" v="water" />
		<tag k="ssr:stedsnr" v="434676" />
	</node>
	<node id="-495772" lat="61.5295583319" lon="5.39340000662">
		<tag k="name" v="Håsteinsvatnet" />
		<tag k="natural" v="water" />
		<tag k="ssr:stedsnr" v="434602" />
	</node>
	<node id="-497813" lat="61.5948694472" lon="5.55893611924">
		<tag k="name" v="Syninga" />
		<tag k="natural" v="cape" />
		<tag k="ssr:stedsnr" v="931711" />
	</node>
	<node id="-497801" lat="61.6659916665" lon="5.41569722169">
		<tag k="name" v="Storevatnet" />
		<tag k="natural" v="water" />
		<tag k="ssr:stedsnr" v="920788" />
		<tag k="water" v="lake" />
	</node>
	<node id="-494614" lat="61.6602749974" lon="5.52695278328">
		<tag k="name" v="Bruafossen" />
		<tag k="natural" v="waterfall" />
		<tag k="ssr:stedsnr" v="394368" />
	</node>
	<node id="-497790" lat="61.6530277808" lon="5.4182944456">
		<tag k="name" v="Svanevatnet" />
		<tag k="natural" v="water" />
		<tag k="ssr:stedsnr" v="919933" />
	</node>
	<node id="-495741" lat="61.5507055516" lon="5.51118889591">
		<tag k="fixme" v="multiple name tags, choose one and add the other to alt_name" />
		<tag k="name" v="Støylselva;Ytre Sagelva" />
		<tag k="ssr:stedsnr" v="252680" />
		<tag k="waterway" v="stream" />
	</node>
	<node id="-495740" lat="61.5974916663" lon="5.36191388986">
		<tag k="name" v="Grønevikvatnet" />
		<tag k="natural" v="water" />
		<tag k="ssr:stedsnr" v="251993" />
	</node>
	<node id="-497787" lat="61.6742416669" lon="5.38945277912">
		<tag k="name" v="Grønskredfossen" />
		<tag k="natural" v="waterfall" />
		<tag k="ssr:stedsnr" v="919892" />
	</node>
	<node id="-497786" lat="61.6711611136" lon="5.42144166862">
		<tag k="name" v="Fessene" />
		<tag k="natural" v="cape" />
		<tag k="ssr:stedsnr" v="919889" />
	</node>
	<node id="-495737" lat="61.6273333335" lon="5.33488055849">
		<tag k="alt_name" v="Grovatjørna" />
		<tag k="name" v="Stølsvatnet" />
		<tag k="natural" v="water" />
		<tag k="ssr:stedsnr" v="251969" />
	</node>
	<node id="-495734" lat="61.6382222256" lon="5.1478138954">
		<tag k="name" v="Svartevatnet" />
		<tag k="natural" v="water" />
		<tag k="ssr:stedsnr" v="251950" />
	</node>
	<node id="-495730" lat="61.675631422" lon="5.41674957178">
		<tag k="name" v="Fessevatnet" />
		<tag k="natural" v="water" />
		<tag k="ssr:stedsnr" v="251927" />
		<tag k="water" v="lake" />
	</node>
	<node id="-497776" lat="61.6441611091" lon="5.59070555369">
		<tag k="name" v="Fridalsvatna" />
		<tag k="natural" v="water" />
		<tag k="ssr:stedsnr" v="919686" />
	</node>
	<node id="-497775" lat="61.644497677" lon="5.47761535985">
		<tag k="name" v="Fiskevatnet" />
		<tag k="natural" v="water" />
		<tag k="ssr:stedsnr" v="919679" />
	</node>
	<node id="-497772" lat="61.6983611093" lon="5.64181666781">
		<tag k="name" v="Nedre Nipevatnet" />
		<tag k="natural" v="water" />
		<tag k="ssr:stedsnr" v="919639" />
		<tag k="water" v="lake" />
	</node>
	<node id="-495722" lat="61.6907972205" lon="5.33037221795">
		<tag k="name" v="Svartevasselva" />
		<tag k="ssr:stedsnr" v="251888" />
		<tag k="waterway" v="stream" />
	</node>
	<node id="-495714" lat="61.6424361133" lon="5.49775000905">
		<tag k="name" v="Indre Fiskevasselva" />
		<tag k="ssr:stedsnr" v="251731" />
		<tag k="waterway" v="stream" />
	</node>
	<node id="-495711" lat="61.6689166621" lon="5.5753083263">
		<tag k="name" v="Sunndalsvatnet" />
		<tag k="natural" v="water" />
		<tag k="ssr:stedsnr" v="251712" />
		<tag k="water" v="lake" />
	</node>
	<node id="-495710" lat="61.6838361107" lon="5.66096111859">
		<tag k="name" v="Langatjønna" />
		<tag k="natural" v="water" />
		<tag k="ssr:stedsnr" v="251707" />
	</node>
	<node id="-495701" lat="61.5691972186" lon="5.32454165853">
		<tag k="name" v="Storevatnet" />
		<tag k="natural" v="water" />
		<tag k="ssr:stedsnr" v="251538" />
		<tag k="water" v="lake" />
	</node>
	<node id="-495700" lat="61.5859305594" lon="5.29926665753">
		<tag k="name" v="Svartevatnet" />
		<tag k="natural" v="water" />
		<tag k="ssr:stedsnr" v="251528" />
	</node>
	<node id="-495697" lat="61.5358250015" lon="5.53846388952">
		<tag k="name" v="Tverrelvevatnet" />
		<tag k="natural" v="water" />
		<tag k="ssr:stedsnr" v="251470" />
	</node>
	<node id="-497742" lat="61.6663000025" lon="5.07606388524">
		<tag k="name" v="Sagavatnet" />
		<tag k="natural" v="water" />
		<tag k="ssr:stedsnr" v="919101" />
	</node>
	<node id="-497736" lat="61.6740722195" lon="5.02359166917">
		<tag k="name" v="Tverrelvsvatnet" />
		<tag k="natural" v="water" />
		<tag k="ssr:stedsnr" v="919004" />
	</node>
	<node id="-497728" lat="61.5632222218" lon="5.52101389609">
		<tag k="name" v="Blåmannsvatnet" />
		<tag k="natural" v="water" />
		<tag k="ssr:stedsnr" v="918554" />
	</node>
	<node id="-497727" lat="61.5610416658" lon="5.51064999705">
		<tag k="name" v="Gygrefossen" />
		<tag k="natural" v="waterfall" />
		<tag k="ssr:stedsnr" v="918555" />
	</node>
	<node id="-497694" lat="61.6502083336" lon="5.42141944746">
		<tag k="name" v="Kylleren" />
		<tag k="ssr:stedsnr" v="902738" />
		<tag k="waterway" v="stream" />
	</node>
	<node id="-497675" lat="61.603374011" lon="5.58456878179">
		<tag k="name" v="Kyraneset" />
		<tag k="natural" v="cape" />
		<tag k="ssr:stedsnr" v="880708" />
	</node>
	<node id="-497674" lat="61.5723638848" lon="5.63980000506">
		<tag k="name" v="Stampeelva" />
		<tag k="ssr:stedsnr" v="880677" />
		<tag k="waterway" v="river" />
	</node>
	<node id="-497673" lat="61.5643250036" lon="5.65681944411">
		<tag k="name" v="Gaddegrova" />
		<tag k="ssr:stedsnr" v="880671" />
		<tag k="waterway" v="stream" />
	</node>
	<node id="-497671" lat="61.6736333304" lon="5.39924166543">
		<tag k="name" v="Fessevika" />
		<tag k="natural" v="bay" />
		<tag k="ssr:stedsnr" v="880571" />
	</node>
</osm>
