<?xml version="1.0" encoding="UTF-8"?>
<osm generator="osmapis" version="0.6">
	<node id="-496895" lat="61.5577833296" lon="4.75987499596">
		<tag k="man_made" v="cairn" />
		<tag k="name" v="Kinnavarden" />
		<tag k="place" v="locality" />
		<tag k="ssr:stedsnr" v="539115" />
	</node>
	<node id="-495274" lat="61.5301444419" lon="5.18092221865">
		<tag k="layer" v="-1" />
		<tag k="name" v="Stavang" />
		<tag k="ssr:stedsnr" v="408729" />
		<tag k="tunnel" v="yes" />
	</node>
	<node id="-497146" lat="61.5880000044" lon="5.33569166628">
		<tag k="bridge" v="yes" />
		<tag k="layer" v="1" />
		<tag k="name" v="Sageelva" />
		<tag k="ssr:stedsnr" v="593085" />
	</node>
	<node id="-497145" lat="61.6003472179" lon="5.06861110264">
		<tag k="bridge" v="yes" />
		<tag k="layer" v="1" />
		<tag k="name" v="Ragnarud" />
		<tag k="ssr:stedsnr" v="593081" />
	</node>
	<node id="-497144" lat="61.6028194462" lon="5.15473610151">
		<tag k="bridge" v="yes" />
		<tag k="layer" v="1" />
		<tag k="name" v="Mekevika" />
		<tag k="ssr:stedsnr" v="593078" />
	</node>
	<node id="-496881" lat="61.6025972213" lon="5.07151389833">
		<tag k="bridge" v="yes" />
		<tag k="layer" v="1" />
		<tag k="name" v="Havikbotn" />
		<tag k="ssr:stedsnr" v="533081" />
	</node>
	<node id="-496880" lat="61.5564083299" lon="5.48483610927">
		<tag k="bridge" v="yes" />
		<tag k="layer" v="1" />
		<tag k="name" v="Vasset" />
		<tag k="ssr:stedsnr" v="531446" />
	</node>
	<node id="-496022" lat="61.5936027769" lon="5.45447500423">
		<tag k="layer" v="-1" />
		<tag k="name" v="Hovland" />
		<tag k="ssr:stedsnr" v="165489" />
		<tag k="tunnel" v="yes" />
	</node>
	<node id="-497634" lat="61.6162499972" lon="5.61358333375">
		<tag k="bridge" v="yes" />
		<tag k="layer" v="1" />
		<tag k="name" v="Krogstadelva" />
		<tag k="ssr:stedsnr" v="715077" />
	</node>
	<node id="-497633" lat="61.6676611153" lon="5.19496943698">
		<tag k="layer" v="-1" />
		<tag k="name" v="Magnhildskaret" />
		<tag k="ssr:stedsnr" v="711354" />
		<tag k="tunnel" v="yes" />
	</node>
	<node id="-497887" lat="61.5937805527" lon="5.44325554957">
		<tag k="bridge" v="yes" />
		<tag k="layer" v="1" />
		<tag k="name" v="Hovland Ytre" />
		<tag k="ssr:stedsnr" v="775085" />
	</node>
	<node id="-497886" lat="61.5371916653" lon="5.42341389607">
		<tag k="bridge" v="yes" />
		<tag k="layer" v="1" />
		<tag k="name" v="Osneset" />
		<tag k="ssr:stedsnr" v="775077" />
	</node>
	<node id="-495449" lat="61.6120472255" lon="5.28843055131">
		<tag k="layer" v="-1" />
		<tag k="name" v="Sundafjelltunnelen" />
		<tag k="old_name" v="Sundafjell;Helgøytunnelen" />
		<tag k="ssr:stedsnr" v="24923" />
		<tag k="tunnel" v="yes" />
	</node>
	<node id="-498134" lat="61.6612166693" lon="5.5376305498">
		<tag k="bridge" v="yes" />
		<tag k="layer" v="1" />
		<tag k="name" v="Øyrane" />
		<tag k="ssr:stedsnr" v="835459" />
	</node>
	<node id="-498002" lat="61.5583666629" lon="5.67784444528">
		<tag k="layer" v="-1" />
		<tag k="name" v="Naustdaltunnelen" />
		<tag k="ssr:stedsnr" v="816334" />
		<tag k="tunnel" v="yes" />
	</node>
	<node id="-495779" lat="61.6180805597" lon="5.64461944812">
		<tag k="bridge" v="yes" />
		<tag k="layer" v="1" />
		<tag k="name" v="Svarttjernelva" />
		<tag k="ssr:stedsnr" v="107431" />
	</node>
	<node id="-495309" lat="61.6001485385" lon="5.03056919523">
		<tag k="man_made" v="quay" />
		<tag k="name" v="Trovikkaien" />
		<tag k="place" v="locality" />
		<tag k="ssr:stedsnr" v="1073050" />
	</node>
	<node id="-495308" lat="61.6019007835" lon="5.02821301934">
		<tag k="man_made" v="quay" />
		<tag k="name" v="Østre hovedkai" />
		<tag k="place" v="locality" />
		<tag k="ssr:stedsnr" v="1073049" />
	</node>
	<node id="-497995" lat="61.6676638855" lon="5.19497499564">
		<tag k="layer" v="-1" />
		<tag k="name" v="Magnhildskartunnelen" />
		<tag k="ssr:stedsnr" v="809513" />
		<tag k="tunnel" v="yes" />
	</node>
	<node id="-495562" lat="61.5900638878" lon="5.47398889385">
		<tag k="bridge" v="yes" />
		<tag k="layer" v="1" />
		<tag k="name" v="Øvrebø" />
		<tag k="ssr:stedsnr" v="46458" />
	</node>
	<node id="-495305" lat="61.5612856308" lon="5.33634706653">
		<tag k="man_made" v="quay" />
		<tag k="name" v="Høydalsfjord" />
		<tag k="place" v="locality" />
		<tag k="ssr:stedsnr" v="1073030" />
	</node>
	<node id="-498374" lat="61.5832888926" lon="5.02260554735">
		<tag k="aeroway" v="aerodrome" />
		<tag k="alt_name" v="Florø" />
		<tag k="name" v="Florø lufthamn" />
		<tag k="ssr:stedsnr" v="918296" />
	</node>
	<node id="-495684" lat="61.4963805597" lon="4.95040278279">
		<tag k="landuse" v="harbour" />
		<tag k="name" v="Hillershamn" />
		<tag k="seamark:type" v="harbour" />
		<tag k="ssr:stedsnr" v="90121" />
	</node>
	<node id="-495298" lat="61.6491805575" lon="5.19433611478">
		<tag k="bridge" v="yes" />
		<tag k="layer" v="1" />
		<tag k="name" v="Grytedalen Midtre" />
		<tag k="ssr:stedsnr" v="897085" />
	</node>
	<node id="-495307" lat="61.6018277143" lon="5.025785855">
		<tag k="man_made" v="quay" />
		<tag k="name" v="Vestre hovedkai" />
		<tag k="place" v="locality" />
		<tag k="ssr:stedsnr" v="1073048" />
	</node>
	<node id="-495803" lat="61.6006587084" lon="5.03376262617">
		<tag k="man_made" v="quay" />
		<tag k="name" v="Meieriets kai" />
		<tag k="place" v="locality" />
		<tag k="ssr:stedsnr" v="118338" />
	</node>
	<node id="-498606" lat="61.6309555581" lon="5.33331388833">
		<tag k="bridge" v="yes" />
		<tag k="layer" v="1" />
		<tag k="name" v="Norddalsfjord" />
		<tag k="ssr:stedsnr" v="957081" />
	</node>
	<node id="-498605" lat="61.5933527773" lon="5.05447499919">
		<tag k="bridge" v="yes" />
		<tag k="layer" v="1" />
		<tag k="name" v="Kanalen" />
		<tag k="ssr:stedsnr" v="957080" />
	</node>
	<node id="-498604" lat="61.5668333309" lon="5.63735832505">
		<tag k="bridge" v="yes" />
		<tag k="layer" v="1" />
		<tag k="name" v="Svarthumle" />
		<tag k="ssr:stedsnr" v="956458" />
	</node>
	<node id="-498603" lat="61.6354666671" lon="5.22637499129">
		<tag k="layer" v="-1" />
		<tag k="name" v="Haukå" />
		<tag k="ssr:stedsnr" v="954484" />
		<tag k="tunnel" v="yes" />
	</node>
	<node id="-496426" lat="61.600913893" lon="5.03451666397">
		<tag k="man_made" v="quay" />
		<tag k="name" v="Torgkaien" />
		<tag k="place" v="locality" />
		<tag k="ssr:stedsnr" v="421333" />
	</node>
	<node id="-495273" lat="61.6396583328" lon="5.28166945329">
		<tag k="layer" v="-1" />
		<tag k="name" v="Norddal" />
		<tag k="ssr:stedsnr" v="408382" />
		<tag k="tunnel" v="yes" />
	</node>
	<node id="-495781" lat="61.5965555564" lon="5.43400000066">
		<tag k="bridge" v="yes" />
		<tag k="layer" v="1" />
		<tag k="name" v="Kvalvik" />
		<tag k="ssr:stedsnr" v="108077" />
	</node>
	<node id="-495780" lat="61.5830000025" lon="5.48917777792">
		<tag k="bridge" v="yes" />
		<tag k="layer" v="1" />
		<tag k="name" v="Knapstad" />
		<tag k="ssr:stedsnr" v="108076" />
	</node>
	<node id="-496291" lat="61.6533111068" lon="5.47160555569">
		<tag k="bridge" v="yes" />
		<tag k="layer" v="1" />
		<tag k="name" v="Solheim" />
		<tag k="ssr:stedsnr" v="229413" />
	</node>
	<node id="-495778" lat="61.6115861114" lon="5.237074992">
		<tag k="alt_name" v="Helgøy" />
		<tag k="layer" v="-1" />
		<tag k="name" v="Helgøytunnelen" />
		<tag k="ssr:stedsnr" v="105499" />
		<tag k="tunnel" v="yes" />
	</node>
	<node id="-496289" lat="61.5745666647" lon="5.34687778241">
		<tag k="bridge" v="yes" />
		<tag k="layer" v="1" />
		<tag k="name" v="Lending" />
		<tag k="ssr:stedsnr" v="229074" />
	</node>
	<node id="-496288" lat="61.6954222249" lon="4.98727500898">
		<tag k="bridge" v="yes" />
		<tag k="layer" v="1" />
		<tag k="name" v="Husefest" />
		<tag k="ssr:stedsnr" v="229068" />
	</node>
	<node id="-496028" lat="61.5927888857" lon="5.45780278471">
		<tag k="bridge" v="yes" />
		<tag k="layer" v="1" />
		<tag k="name" v="Hovland" />
		<tag k="ssr:stedsnr" v="168103" />
	</node>
	<node id="-496027" lat="61.6646361078" lon="5.19542499589">
		<tag k="bridge" v="yes" />
		<tag k="layer" v="1" />
		<tag k="name" v="Grytedalen Øvre" />
		<tag k="ssr:stedsnr" v="168101" />
	</node>
	<node id="-496026" lat="61.6390444418" lon="5.20060000563">
		<tag k="bridge" v="yes" />
		<tag k="layer" v="1" />
		<tag k="name" v="Grytedalen Nedre" />
		<tag k="ssr:stedsnr" v="168100" />
	</node>
	<node id="-496025" lat="61.5838555577" lon="5.45530000186">
		<tag k="bridge" v="yes" />
		<tag k="layer" v="1" />
		<tag k="name" v="Eikefjord" />
		<tag k="ssr:stedsnr" v="168098" />
	</node>
	<node id="-496024" lat="61.6436999989" lon="5.37597500578">
		<tag k="bridge" v="yes" />
		<tag k="layer" v="1" />
		<tag k="name" v="Norddal" />
		<tag k="ssr:stedsnr" v="168092" />
	</node>
	<node id="-496023" lat="61.5707222214" lon="5.45237222701">
		<tag k="bridge" v="yes" />
		<tag k="layer" v="1" />
		<tag k="name" v="Sørelva" />
		<tag k="ssr:stedsnr" v="167456" />
	</node>
	<node id="-494742" lat="61.5707777752" lon="5.4413666753">
		<tag k="bridge" v="yes" />
		<tag k="layer" v="1" />
		<tag k="name" v="Sunnarvik" />
		<tag k="ssr:stedsnr" v="290383" />
	</node>
	<node id="-494681" lat="61.6011361086" lon="5.03273610869">
		<tag k="landuse" v="harbour" />
		<tag k="name" v="Florø hamn" />
		<tag k="seamark:type" v="harbour" />
		<tag k="ssr:stedsnr" v="272967" />
	</node>
	<node id="-495297" lat="61.5578111107" lon="5.35427500297">
		<tag k="bridge" v="yes" />
		<tag k="layer" v="1" />
		<tag k="name" v="Osstrupen" />
		<tag k="ssr:stedsnr" v="897078" />
	</node>
	<node id="-496290" lat="61.5484722194" lon="5.17445278397">
		<tag k="bridge" v="yes" />
		<tag k="layer" v="1" />
		<tag k="name" v="Stongasundet" />
		<tag k="ssr:stedsnr" v="229414" />
	</node>
	<node id="-494999" lat="61.5983833372" lon="5.05491667113">
		<tag k="bridge" v="yes" />
		<tag k="layer" v="1" />
		<tag k="name" v="Gaddevågen" />
		<tag k="ssr:stedsnr" v="350072" />
	</node>
	<node id="-497413" lat="61.6383138886" lon="5.26065833526">
		<tag k="bridge" v="yes" />
		<tag k="layer" v="1" />
		<tag k="name" v="Haukåvatnet" />
		<tag k="ssr:stedsnr" v="654074" />
	</node>
	<node id="-496644" lat="61.5984194484" lon="5.24473333714">
		<tag k="bridge" v="yes" />
		<tag k="layer" v="1" />
		<tag k="name" v="Sandvik" />
		<tag k="ssr:stedsnr" v="472081" />
	</node>
	<node id="-496643" lat="61.6602999977" lon="5.51374999379">
		<tag k="bridge" v="yes" />
		<tag k="layer" v="1" />
		<tag k="name" v="Midtbø" />
		<tag k="ssr:stedsnr" v="472075" />
	</node>
	<node id="-496642" lat="61.5465805585" lon="5.32775833334">
		<tag k="bridge" v="yes" />
		<tag k="layer" v="1" />
		<tag k="name" v="Høydal Ytre" />
		<tag k="ssr:stedsnr" v="472070" />
	</node>
	<node id="-496641" lat="61.6114694442" lon="5.35341110437">
		<tag k="layer" v="-1" />
		<tag k="name" v="Hatleset" />
		<tag k="ssr:stedsnr" v="469500" />
		<tag k="tunnel" v="yes" />
	</node>
</osm>
