<?xml version="1.0" encoding="UTF-8"?>
<osm generator="osmapis" version="0.6">
	<node id="-496640" lat="61.6577055535" lon="5.03696389466">
		<tag k="name" v="Myrane" />
		<tag k="natural" v="wetland" />
		<tag k="ssr:stedsnr" v="635460" />
	</node>
	<node id="-495615" lat="61.5195666674" lon="5.31345556347">
		<tag k="name" v="Høgemyra" />
		<tag k="natural" v="wetland" />
		<tag k="ssr:stedsnr" v="213547" />
	</node>
	<node id="-496126" lat="61.5609722205" lon="5.08290554695">
		<tag k="name" v="Storemyra" />
		<tag k="natural" v="wetland" />
		<tag k="ssr:stedsnr" v="514878" />
	</node>
	<node id="-495095" lat="61.6105666643" lon="5.61460000073">
		<tag k="name" v="Klovsteinen" />
		<tag k="natural" v="stone" />
		<tag k="ssr:stedsnr" v="91701" />
	</node>
	<node id="-494367" lat="61.5277361145" lon="5.51399444345">
		<tag k="name" v="Myrbærmyra" />
		<tag k="natural" v="wetland" />
		<tag k="ssr:stedsnr" v="334605" />
	</node>
	<node id="-495601" lat="61.651933332" lon="4.81099444899">
		<tag k="name" v="Steinen" />
		<tag k="natural" v="stone" />
		<tag k="ssr:stedsnr" v="212849" />
	</node>
	<node id="-495600" lat="61.5972861104" lon="5.34790554958">
		<tag k="name" v="Jagemyrane" />
		<tag k="natural" v="wetland" />
		<tag k="ssr:stedsnr" v="212829" />
	</node>
	<node id="-496108" lat="61.647027774" lon="5.14837221567">
		<tag k="name" v="Keipura" />
		<tag k="natural" v="scree" />
		<tag k="ssr:stedsnr" v="514162" />
	</node>
	<node id="-494559" lat="61.5658333293" lon="4.86066667124">
		<tag k="name" v="Storsteinen" />
		<tag k="natural" v="stone" />
		<tag k="ssr:stedsnr" v="393231" />
	</node>
	<node id="-497630" lat="61.6126527799" lon="5.36031388093">
		<tag k="name" v="Øyrurane" />
		<tag k="natural" v="scree" />
		<tag k="ssr:stedsnr" v="879768" />
	</node>
	<node id="-495581" lat="61.5527499973" lon="5.36187778561">
		<tag k="name" v="Parisura" />
		<tag k="natural" v="scree" />
		<tag k="ssr:stedsnr" v="212569" />
	</node>
	<node id="-494554" lat="61.6292000036" lon="4.80409999544">
		<tag k="name" v="Sengskjermmyrane" />
		<tag k="natural" v="wetland" />
		<tag k="ssr:stedsnr" v="393159" />
	</node>
	<node id="-494545" lat="61.5406305596" lon="5.19684999137">
		<tag k="name" v="Løypemyra" />
		<tag k="natural" v="wetland" />
		<tag k="ssr:stedsnr" v="393008" />
	</node>
	<node id="-495567" lat="61.6658666683" lon="5.55825277263">
		<tag k="name" v="Bjørkøyra" />
		<tag k="place" v="locality" />
		<tag k="ssr:stedsnr" v="212371" />
	</node>
	<node id="-495564" lat="61.5692888925" lon="5.48387777271">
		<tag k="name" v="Osemyrane" />
		<tag k="natural" v="wetland" />
		<tag k="ssr:stedsnr" v="212353" />
	</node>
	<node id="-495562" lat="61.624827778" lon="5.55314166014">
		<tag k="name" v="Snoremyra" />
		<tag k="natural" v="wetland" />
		<tag k="ssr:stedsnr" v="212341" />
	</node>
	<node id="-495042" lat="61.5620527811" lon="4.83100555279">
		<tag k="name" v="Kalvemarka" />
		<tag k="place" v="locality" />
		<tag k="ssr:stedsnr" v="90396" />
	</node>
	<node id="-497395" lat="61.586430557" lon="5.50005834217">
		<tag k="name" v="Revura" />
		<tag k="natural" v="scree" />
		<tag k="ssr:stedsnr" v="819032" />
	</node>
	<node id="-495023" lat="61.5697444457" lon="4.87186389014">
		<tag k="name" v="Selvågmyrane" />
		<tag k="natural" v="wetland" />
		<tag k="ssr:stedsnr" v="90025" />
	</node>
	<node id="-497069" lat="61.588658331" lon="5.36798888262">
		<tag k="name" v="Innlægda" />
		<tag k="natural" v="wetland" />
		<tag k="ssr:stedsnr" v="737511" />
	</node>
	<node id="-495519" lat="61.5964611067" lon="4.86866110747">
		<tag k="name" v="Storefjellsmyra" />
		<tag k="natural" v="wetland" />
		<tag k="ssr:stedsnr" v="211190" />
	</node>
	<node id="-495006" lat="61.6140722187" lon="5.37612500718">
		<tag k="name" v="Liamarka" />
		<tag k="place" v="locality" />
		<tag k="ssr:stedsnr" v="69992" />
	</node>
	<node id="-496023" lat="61.5613944489" lon="5.11103889101">
		<tag k="name" v="Vardemyra" />
		<tag k="natural" v="wetland" />
		<tag k="ssr:stedsnr" v="493533" />
	</node>
	<node id="-497038" lat="61.513644446" lon="5.30949165828">
		<tag k="name" v="Torvmyrane" />
		<tag k="natural" v="wetland" />
		<tag k="ssr:stedsnr" v="737606" />
	</node>
	<node id="-497545" lat="61.5258416628" lon="5.20738055082">
		<tag k="name" v="Tuemyra" />
		<tag k="natural" v="wetland" />
		<tag k="ssr:stedsnr" v="858592" />
	</node>
	<node id="-497538" lat="61.5580777792" lon="5.10705554986">
		<tag k="name" v="Stølsmyra" />
		<tag k="natural" v="wetland" />
		<tag k="ssr:stedsnr" v="858555" />
	</node>
	<node id="-494459" lat="61.5502805557" lon="5.39973333893">
		<tag k="name" v="Osøyra" />
		<tag k="place" v="locality" />
		<tag k="ssr:stedsnr" v="372570" />
	</node>
	<node id="-496999" lat="61.4886055552" lon="5.10589722809">
		<tag k="alt_name" v="Kvalstadmyra" />
		<tag k="name" v="Kvalstadmyrane" />
		<tag k="natural" v="wetland" />
		<tag k="ssr:stedsnr" v="736017" />
	</node>
	<node id="-495972" lat="61.5180000025" lon="5.24426110285">
		<tag k="name" v="Dyrebærsteinen" />
		<tag k="natural" v="stone" />
		<tag k="ssr:stedsnr" v="456537" />
	</node>
	<node id="-495963" lat="61.6108638929" lon="5.36898334062">
		<tag k="name" v="Alkemyra" />
		<tag k="natural" v="wetland" />
		<tag k="ssr:stedsnr" v="455791" />
	</node>
	<node id="-496969" lat="61.6088611136" lon="5.58146111196">
		<tag k="name" v="Mosesteinen" />
		<tag k="natural" v="stone" />
		<tag k="ssr:stedsnr" v="698652" />
	</node>
	<node id="-496445" lat="61.5741666666" lon="5.41643888821">
		<tag k="name" v="Kjerringura" />
		<tag k="natural" v="scree" />
		<tag k="ssr:stedsnr" v="576467" />
	</node>
	<node id="-495931" lat="61.5868805512" lon="5.52018056025">
		<tag k="name" v="Knudskjmyra" />
		<tag k="natural" v="wetland" />
		<tag k="ssr:stedsnr" v="455111" />
	</node>
	<node id="-496442" lat="61.6572972212" lon="5.49138888567">
		<tag k="name" v="Mørkura" />
		<tag k="natural" v="scree" />
		<tag k="ssr:stedsnr" v="576405" />
	</node>
	<node id="-497119" lat="61.6916027764" lon="4.84824722046">
		<tag k="name" v="Nordre Storskog" />
		<tag k="place" v="locality" />
		<tag k="ssr:stedsnr" v="757264" />
	</node>
	<node id="-496440" lat="61.5091388915" lon="5.50359166616">
		<tag k="name" v="Sengane" />
		<tag k="natural" v="wetland" />
		<tag k="ssr:stedsnr" v="576401" />
	</node>
	<node id="-496438" lat="61.5658499969" lon="5.4687166588">
		<tag k="name" v="Revemyrane" />
		<tag k="natural" v="wetland" />
		<tag k="ssr:stedsnr" v="576389" />
	</node>
	<node id="-496946" lat="61.5929249976" lon="5.36007778703">
		<tag k="name" v="Skitnemyrane" />
		<tag k="natural" v="wetland" />
		<tag k="ssr:stedsnr" v="697983" />
	</node>
	<node id="-495921" lat="61.6452416683" lon="4.77422500195">
		<tag k="name" v="Skipesteinane" />
		<tag k="natural" v="stone" />
		<tag k="ssr:stedsnr" v="454884" />
	</node>
	<node id="-494895" lat="61.5074027739" lon="5.24644443564">
		<tag k="name" v="Myrane" />
		<tag k="natural" v="wetland" />
		<tag k="ssr:stedsnr" v="31863" />
	</node>
	<node id="-496942" lat="61.5730666704" lon="5.52963611317">
		<tag k="name" v="Eikevolltjønnmyra" />
		<tag k="natural" v="wetland" />
		<tag k="ssr:stedsnr" v="697932" />
	</node>
	<node id="-496927" lat="61.5685527736" lon="5.41518055332">
		<tag k="name" v="Bukkesteinen" />
		<tag k="natural" v="stone" />
		<tag k="ssr:stedsnr" v="697470" />
	</node>
	<node id="-496926" lat="61.5689138933" lon="5.44108889393">
		<tag k="name" v="Storura" />
		<tag k="natural" v="scree" />
		<tag k="ssr:stedsnr" v="697462" />
	</node>
	<node id="-495388" lat="61.6572666684" lon="5.00095000023">
		<tag k="name" v="Urane" />
		<tag k="natural" v="scree" />
		<tag k="ssr:stedsnr" v="175712" />
	</node>
	<node id="-494363" lat="61.6137972231" lon="5.31775833068">
		<tag k="name" v="Tremyra" />
		<tag k="natural" v="wetland" />
		<tag k="ssr:stedsnr" v="334500" />
	</node>
	<node id="-494361" lat="61.6712722264" lon="5.63927778571">
		<tag k="name" v="Svartedalsmyra" />
		<tag k="natural" v="wetland" />
		<tag k="ssr:stedsnr" v="334488" />
	</node>
	<node id="-497429" lat="61.5709055574" lon="5.4274416634">
		<tag k="name" v="Grautasteinen" />
		<tag k="natural" v="stone" />
		<tag k="ssr:stedsnr" v="819478" />
	</node>
	<node id="-496915" lat="61.64071389" lon="5.47020555021">
		<tag k="name" v="Fiskevassøyrane" />
		<tag k="place" v="locality" />
		<tag k="ssr:stedsnr" v="697364" />
	</node>
	<node id="-495887" lat="61.5715777769" lon="4.83529722036">
		<tag k="name" v="Myrane" />
		<tag k="natural" v="wetland" />
		<tag k="ssr:stedsnr" v="454097" />
	</node>
	<node id="-496393" lat="61.6709611151" lon="4.86163056112">
		<tag k="name" v="Halshamreskog" />
		<tag k="place" v="locality" />
		<tag k="ssr:stedsnr" v="575276" />
	</node>
	<node id="-497416" lat="61.6586000023" lon="5.52988611631">
		<tag k="name" v="Storemyra" />
		<tag k="natural" v="wetland" />
		<tag k="ssr:stedsnr" v="819391" />
	</node>
	<node id="-497414" lat="61.6231361098" lon="5.56363055943">
		<tag k="name" v="Hatlebakkmyrane" />
		<tag k="natural" v="wetland" />
		<tag k="ssr:stedsnr" v="819310" />
	</node>
	<node id="-494331" lat="61.6446944415" lon="5.43443611627">
		<tag k="name" v="Gruvlura" />
		<tag k="natural" v="scree" />
		<tag k="ssr:stedsnr" v="333729" />
	</node>
	<node id="-497402" lat="61.6357694405" lon="5.17530277239">
		<tag k="name" v="Skorflotsmyra" />
		<tag k="natural" v="wetland" />
		<tag k="ssr:stedsnr" v="819134" />
	</node>
	<node id="-497399" lat="61.5612888918" lon="5.5421083255">
		<tag k="name" v="Dalemyra" />
		<tag k="natural" v="wetland" />
		<tag k="ssr:stedsnr" v="819058" />
	</node>
	<node id="-495350" lat="61.6170083295" lon="5.33684166814">
		<tag k="name" v="Rustamyra" />
		<tag k="natural" v="wetland" />
		<tag k="ssr:stedsnr" v="151972" />
	</node>
	<node id="-497907" lat="61.6018916662" lon="5.25341666889">
		<tag k="name" v="Botnamyrane" />
		<tag k="natural" v="wetland" />
		<tag k="ssr:stedsnr" v="941064" />
	</node>
	<node id="-497904" lat="61.5788638876" lon="5.51312778544">
		<tag k="name" v="Daudetjørnmyra" />
		<tag k="natural" v="wetland" />
		<tag k="ssr:stedsnr" v="941023" />
	</node>
	<node id="-494313" lat="61.6656444489" lon="5.04278056309">
		<tag k="name" v="Klovesteinen" />
		<tag k="natural" v="stone" />
		<tag k="ssr:stedsnr" v="333394" />
	</node>
	<node id="-495334" lat="61.5972388869" lon="5.58448055686">
		<tag k="name" v="Rogneskogen" />
		<tag k="place" v="locality" />
		<tag k="ssr:stedsnr" v="151723" />
	</node>
	<node id="-494306" lat="61.6857055516" lon="4.84808056378">
		<tag k="name" v="Søre Storskog" />
		<tag k="place" v="locality" />
		<tag k="ssr:stedsnr" v="333310" />
	</node>
	<node id="-495324" lat="61.6505694484" lon="5.37721943866">
		<tag k="name" v="Grønemyra" />
		<tag k="natural" v="wetland" />
		<tag k="ssr:stedsnr" v="151521" />
	</node>
	<node id="-495323" lat="61.641052774" lon="5.35318611236">
		<tag k="name" v="Kviemyra" />
		<tag k="natural" v="wetland" />
		<tag k="ssr:stedsnr" v="151511" />
	</node>
	<node id="-495824" lat="61.7410638889" lon="5.63553055857">
		<tag k="name" v="Ålfotbreen" />
		<tag k="natural" v="glacier" />
		<tag k="ssr:stedsnr" v="433632" />
	</node>
	<node id="-496839" lat="61.6477333327" lon="5.48252500455">
		<tag k="name" v="Søkkjemyra" />
		<tag k="natural" v="wetland" />
		<tag k="ssr:stedsnr" v="676685" />
	</node>
	<node id="-494274" lat="61.6310361127" lon="5.14422221451">
		<tag k="name" v="Blåsteinen" />
		<tag k="natural" v="stone" />
		<tag k="ssr:stedsnr" v="332349" />
	</node>
	<node id="-494785" lat="61.6348027798" lon="5.3892222147">
		<tag k="name" v="Stølsøyra" />
		<tag k="place" v="locality" />
		<tag k="ssr:stedsnr" v="9906" />
	</node>
	<node id="-495289" lat="61.5987805534" lon="5.07750000742">
		<tag k="name" v="Torvmyrane" />
		<tag k="natural" v="wetland" />
		<tag k="ssr:stedsnr" v="150982" />
	</node>
	<node id="-494264" lat="61.5470472213" lon="5.16620556335">
		<tag k="name" v="Skipsvikmyra" />
		<tag k="natural" v="wetland" />
		<tag k="ssr:stedsnr" v="332007" />
	</node>
	<node id="-495284" lat="61.4825083333" lon="5.10408332633">
		<tag k="name" v="Kvalstadmyra" />
		<tag k="natural" v="wetland" />
		<tag k="ssr:stedsnr" v="150868" />
	</node>
	<node id="-494255" lat="61.6856638878" lon="4.87105555776">
		<tag k="name" v="Gåsevass-skog" />
		<tag k="place" v="locality" />
		<tag k="ssr:stedsnr" v="90240" />
	</node>
	<node id="-495275" lat="61.660975002" lon="5.01586389032">
		<tag k="name" v="Bleikemyrane" />
		<tag k="natural" v="wetland" />
		<tag k="ssr:stedsnr" v="150513" />
	</node>
	<node id="-497834" lat="61.6777388861" lon="4.83845833355">
		<tag k="name" v="Gardekleivmyra" />
		<tag k="natural" v="wetland" />
		<tag k="ssr:stedsnr" v="939854" />
	</node>
	<node id="-495273" lat="61.6748472196" lon="5.01103612033">
		<tag k="name" v="Blåura" />
		<tag k="natural" v="scree" />
		<tag k="ssr:stedsnr" v="150469" />
	</node>
	<node id="-496921" lat="61.6404611151" lon="5.50429721269">
		<tag k="name" v="Middagsskarøyrane" />
		<tag k="place" v="locality" />
		<tag k="ssr:stedsnr" v="697406" />
	</node>
	<node id="-494737" lat="61.739375001" lon="5.60342500922">
		<tag k="name" v="Blåbreen" />
		<tag k="natural" v="glacier" />
		<tag k="ssr:stedsnr" v="8668" />
	</node>
	<node id="-496268" lat="61.6494166673" lon="4.78521111598">
		<tag k="name" v="Ura" />
		<tag k="natural" v="scree" />
		<tag k="ssr:stedsnr" v="554110" />
	</node>
	<node id="-495753" lat="61.5980416685" lon="5.24541111782">
		<tag k="name" v="Øyra" />
		<tag k="place" v="locality" />
		<tag k="ssr:stedsnr" v="416802" />
	</node>
	<node id="-497686" lat="61.5725722235" lon="5.59056944402">
		<tag k="name" v="Småmyrane" />
		<tag k="natural" v="wetland" />
		<tag k="ssr:stedsnr" v="881557" />
	</node>
	<node id="-496238" lat="61.6458305581" lon="5.44235000168">
		<tag k="name" v="Solheimsøyra" />
		<tag k="place" v="locality" />
		<tag k="ssr:stedsnr" v="538735" />
	</node>
	<node id="-497770" lat="61.5069388882" lon="5.28500556138">
		<tag k="name" v="Tuvemyra" />
		<tag k="natural" v="wetland" />
		<tag k="ssr:stedsnr" v="919603" />
	</node>
	<node id="-496729" lat="61.5278361127" lon="5.46169999425">
		<tag k="name" v="Hestemyra" />
		<tag k="natural" v="wetland" />
		<tag k="ssr:stedsnr" v="637548" />
	</node>
	<node id="-496723" lat="61.5879472239" lon="5.21868332524">
		<tag k="name" v="Myrane" />
		<tag k="natural" v="wetland" />
		<tag k="ssr:stedsnr" v="637379" />
	</node>
	<node id="-496721" lat="61.6371972245" lon="5.25546943992">
		<tag k="name" v="Memyra" />
		<tag k="natural" v="wetland" />
		<tag k="ssr:stedsnr" v="637333" />
	</node>
	<node id="-497227" lat="61.6057333352" lon="5.30830000023">
		<tag k="name" v="Klingesteinen" />
		<tag k="natural" v="stone" />
		<tag k="ssr:stedsnr" v="759967" />
	</node>
	<node id="-496202" lat="61.515063889" lon="5.30347221409">
		<tag k="name" v="Myrane" />
		<tag k="natural" v="wetland" />
		<tag k="ssr:stedsnr" v="516499" />
	</node>
	<node id="-496712" lat="61.5964194487" lon="5.36090277535">
		<tag k="name" v="Langeløken" />
		<tag k="natural" v="wetland" />
		<tag k="ssr:stedsnr" v="636997" />
	</node>
	<node id="-497219" lat="61.5164694407" lon="5.28217499191">
		<tag k="name" v="Revesteinen" />
		<tag k="natural" v="stone" />
		<tag k="ssr:stedsnr" v="759541" />
	</node>
	<node id="-496695" lat="61.527186113" lon="5.54072500593">
		<tag k="name" v="Øyrane" />
		<tag k="place" v="locality" />
		<tag k="ssr:stedsnr" v="636425" />
	</node>
	<node id="-496691" lat="61.6471944466" lon="5.50259167462">
		<tag k="name" v="Pålsmyrøyrane" />
		<tag k="place" v="locality" />
		<tag k="ssr:stedsnr" v="636404" />
	</node>
	<node id="-497201" lat="61.642611111" lon="4.77620277256">
		<tag k="name" v="Skuta" />
		<tag k="natural" v="stone" />
		<tag k="ssr:stedsnr" v="758863" />
	</node>
	<node id="-494638" lat="61.5898305562" lon="5.35511667154">
		<tag k="name" v="Skansemyra" />
		<tag k="natural" v="wetland" />
		<tag k="ssr:stedsnr" v="394904" />
	</node>
	<node id="-494636" lat="61.5976388886" lon="5.35544999314">
		<tag k="name" v="Løkane" />
		<tag k="place" v="locality" />
		<tag k="ssr:stedsnr" v="394825" />
	</node>
	<node id="-496170" lat="61.5687277804" lon="4.79808611566">
		<tag k="name" v="Otresteinen" />
		<tag k="natural" v="stone" />
		<tag k="ssr:stedsnr" v="515504" />
	</node>
	<node id="-494629" lat="61.5290416684" lon="5.51473332789">
		<tag k="name" v="Børsesteinen" />
		<tag k="natural" v="stone" />
		<tag k="ssr:stedsnr" v="394606" />
	</node>
	<node id="-496158" lat="61.6686027764" lon="5.0397388964">
		<tag k="name" v="Synnevesteinen" />
		<tag k="natural" v="stone" />
		<tag k="ssr:stedsnr" v="515371" />
	</node>
	<node id="-497180" lat="61.5274972232" lon="5.5367388945">
		<tag k="name" v="Fremmestølsmyrane" />
		<tag k="natural" v="wetland" />
		<tag k="ssr:stedsnr" v="758466" />
	</node>
	<node id="-497175" lat="61.5235166704" lon="5.46730832545">
		<tag k="name" v="Porsemyra" />
		<tag k="natural" v="wetland" />
		<tag k="ssr:stedsnr" v="758427" />
	</node>
	<node id="-497174" lat="61.6823027775" lon="5.56701665975">
		<tag k="name" v="Øyra" />
		<tag k="place" v="locality" />
		<tag k="ssr:stedsnr" v="758419" />
	</node>
	<node id="-497168" lat="61.6377611083" lon="5.25997222966">
		<tag k="name" v="Storemyra" />
		<tag k="natural" v="wetland" />
		<tag k="ssr:stedsnr" v="758365" />
	</node>
	<node id="-494094" lat="61.6405083299" lon="5.346558329">
		<tag k="name" v="Droplemyra" />
		<tag k="natural" v="wetland" />
		<tag k="ssr:stedsnr" v="273497" />
	</node>
	<node id="-494605" lat="61.6203861148" lon="5.56558056069">
		<tag k="name" v="Holtemyra" />
		<tag k="natural" v="wetland" />
		<tag k="ssr:stedsnr" v="394282" />
	</node>
	<node id="-497160" lat="61.6366361137" lon="5.250986111">
		<tag k="name" v="Strengmyra" />
		<tag k="natural" v="wetland" />
		<tag k="ssr:stedsnr" v="758321" />
	</node>
	<node id="-497158" lat="61.6098138926" lon="5.55508055729">
		<tag k="name" v="Åsemyra" />
		<tag k="natural" v="wetland" />
		<tag k="ssr:stedsnr" v="758293" />
	</node>
</osm>
