<?xml version="1.0" encoding="UTF-8"?>
<osm generator="osmapis" version="0.6">
	<node id="-478591" lat="60.5735527788" lon="5.94574166065">
		<tag k="name" v="Høgabuvegen" />
		<tag k="ssr:date" v="2019-05-30" />
		<tag k="ssr:gruppe" v="veg" />
		<tag k="ssr:hovedgruppe" v="infrastruktur" />
		<tag k="ssr:stedsnr" v="345601" />
		<tag k="ssr:type" v="adressenavn" />
	</node>
	<node id="-481054" lat="60.5568055518" lon="5.72012222292">
		<tag k="alt_name" v="Tettenes;Tettaneset" />
		<tag k="name" v="Tettaneset lykt" />
		<tag k="ssr:date" v="2016-05-11" />
		<tag k="ssr:gruppe" v="navigasjon" />
		<tag k="ssr:hovedgruppe" v="infrastruktur" />
		<tag k="ssr:stedsnr" v="877651" />
		<tag k="ssr:type" v="fyrlykt" />
	</node>
	<node id="-478493" lat="60.721305093" lon="5.7718330148">
		<tag k="name" v="Brørvik" />
		<tag k="ssr:date" v="2019-05-30" />
		<tag k="ssr:gruppe" v="veg" />
		<tag k="ssr:hovedgruppe" v="infrastruktur" />
		<tag k="ssr:stedsnr" v="1039807" />
		<tag k="ssr:type" v="adressenavn" />
	</node>
	<node id="-478492" lat="60.7052465889" lon="5.67665496302">
		<tag k="name" v="Elvik" />
		<tag k="ssr:date" v="2019-05-30" />
		<tag k="ssr:gruppe" v="veg" />
		<tag k="ssr:hovedgruppe" v="infrastruktur" />
		<tag k="ssr:stedsnr" v="1039802" />
		<tag k="ssr:type" v="adressenavn" />
	</node>
	<node id="-479929" lat="60.6827805577" lon="5.73621666431">
		<tag k="alt_name" v="Kallandsholmen" />
		<tag k="name" v="Kallandsholmen lykt" />
		<tag k="ssr:date" v="2016-05-10" />
		<tag k="ssr:gruppe" v="navigasjon" />
		<tag k="ssr:hovedgruppe" v="infrastruktur" />
		<tag k="ssr:stedsnr" v="491350" />
		<tag k="ssr:type" v="fyrlykt" />
	</node>
	<node id="-478494" lat="60.6465807099" lon="5.74039208803">
		<tag k="name" v="Kvamme" />
		<tag k="ssr:date" v="2019-05-30" />
		<tag k="ssr:gruppe" v="veg" />
		<tag k="ssr:hovedgruppe" v="infrastruktur" />
		<tag k="ssr:stedsnr" v="1039809" />
		<tag k="ssr:type" v="adressenavn" />
	</node>
	<node id="-479221" lat="60.5707388861" lon="5.93309999313">
		<tag k="name" v="Brekkemyrane" />
		<tag k="ssr:date" v="2019-05-30" />
		<tag k="ssr:gruppe" v="veg" />
		<tag k="ssr:hovedgruppe" v="infrastruktur" />
		<tag k="ssr:stedsnr" v="102684" />
		<tag k="ssr:type" v="adressenavn" />
	</node>
	<node id="-478590" lat="60.4832222219" lon="5.79960278192">
		<tag k="name" v="Herfindalsfjellet" />
		<tag k="ssr:date" v="2019-05-30" />
		<tag k="ssr:gruppe" v="veg" />
		<tag k="ssr:hovedgruppe" v="infrastruktur" />
		<tag k="ssr:stedsnr" v="345585" />
		<tag k="ssr:type" v="adressenavn" />
	</node>
	<node id="-478482" lat="60.6827379447" lon="5.78563333049">
		<tag k="name" v="Hesjedalsvegen" />
		<tag k="ssr:date" v="2019-05-30" />
		<tag k="ssr:gruppe" v="veg" />
		<tag k="ssr:hovedgruppe" v="infrastruktur" />
		<tag k="ssr:stedsnr" v="1039710" />
		<tag k="ssr:type" v="adressenavn" />
	</node>
	<node id="-478469" lat="60.6380255302" lon="5.72199010477">
		<tag k="name" v="Bukkestein" />
		<tag k="ssr:date" v="2019-05-30" />
		<tag k="ssr:gruppe" v="veg" />
		<tag k="ssr:hovedgruppe" v="infrastruktur" />
		<tag k="ssr:stedsnr" v="1039677" />
		<tag k="ssr:type" v="adressenavn" />
	</node>
	<node id="-478478" lat="60.5793909468" lon="5.80239704445">
		<tag k="name" v="Dalegarden" />
		<tag k="ssr:date" v="2019-05-30" />
		<tag k="ssr:gruppe" v="veg" />
		<tag k="ssr:hovedgruppe" v="infrastruktur" />
		<tag k="ssr:stedsnr" v="1039705" />
		<tag k="ssr:type" v="adressenavn" />
	</node>
	<node id="-481229" lat="60.8816104596" lon="6.30047518531">
		<tag k="name" v="Vestlandet" />
		<tag k="ssr:date" v="2019-01-06" />
		<tag k="ssr:gruppe" v="administrativeIndelinger" />
		<tag k="ssr:hovedgruppe" v="offentligAdministrasjon" />
		<tag k="ssr:stedsnr" v="974777" />
		<tag k="ssr:type" v="annenAdministrativInndeling" />
	</node>
	<node id="-478471" lat="60.66201837" lon="5.72529892391">
		<tag k="name" v="Kalvik" />
		<tag k="ssr:date" v="2019-05-30" />
		<tag k="ssr:gruppe" v="veg" />
		<tag k="ssr:hovedgruppe" v="infrastruktur" />
		<tag k="ssr:stedsnr" v="1039681" />
		<tag k="ssr:type" v="adressenavn" />
	</node>
	<node id="-478472" lat="60.6360157594" lon="5.73975832851">
		<tag k="name" v="Kåstad" />
		<tag k="ssr:date" v="2019-05-30" />
		<tag k="ssr:gruppe" v="veg" />
		<tag k="ssr:hovedgruppe" v="infrastruktur" />
		<tag k="ssr:stedsnr" v="1039683" />
		<tag k="ssr:type" v="adressenavn" />
	</node>
	<node id="-479047" lat="60.5902999975" lon="5.82274721722">
		<tag k="alt_name" v="Vaksdal" />
		<tag k="name" v="Vaksdal kommune" />
		<tag k="ssr:date" v="2019-07-16" />
		<tag k="ssr:gruppe" v="administrativeIndelinger" />
		<tag k="ssr:hovedgruppe" v="offentligAdministrasjon" />
		<tag k="ssr:stedsnr" v="24127" />
		<tag k="ssr:type" v="kommune" />
	</node>
	<node id="-478470" lat="60.6265113754" lon="5.71564250865">
		<tag k="name" v="Veo" />
		<tag k="ssr:date" v="2019-05-30" />
		<tag k="ssr:gruppe" v="veg" />
		<tag k="ssr:hovedgruppe" v="infrastruktur" />
		<tag k="ssr:stedsnr" v="1039679" />
		<tag k="ssr:type" v="adressenavn" />
	</node>
	<node id="-478495" lat="60.6957385965" lon="5.72388017094">
		<tag k="name" v="Simmenes" />
		<tag k="ssr:date" v="2019-05-30" />
		<tag k="ssr:gruppe" v="veg" />
		<tag k="ssr:hovedgruppe" v="infrastruktur" />
		<tag k="ssr:stedsnr" v="1039813" />
		<tag k="ssr:type" v="adressenavn" />
	</node>
	<node id="-478468" lat="60.5486458772" lon="5.70212473281">
		<tag k="name" v="Faugstad" />
		<tag k="ssr:date" v="2019-05-30" />
		<tag k="ssr:gruppe" v="veg" />
		<tag k="ssr:hovedgruppe" v="infrastruktur" />
		<tag k="ssr:stedsnr" v="1039673" />
		<tag k="ssr:type" v="adressenavn" />
	</node>
	<node id="-478467" lat="60.5636565225" lon="5.70955781787">
		<tag k="name" v="Grøttå" />
		<tag k="ssr:date" v="2019-05-30" />
		<tag k="ssr:gruppe" v="veg" />
		<tag k="ssr:hovedgruppe" v="infrastruktur" />
		<tag k="ssr:stedsnr" v="1039671" />
		<tag k="ssr:type" v="adressenavn" />
	</node>
</osm>
