<?xml version="1.0" encoding="UTF-8"?>
<osm generator="osmapis" version="0.6">
	<node id="-525437" lat="61.6852944478" lon="7.65404444751">
		<tag k="fixme" v="consider boundary=protected_area and relevant protect_class if not nature reserve" />
		<tag k="leisure" v="nature_reserve" />
		<tag k="name" v="Breheimen nasjonalpark" />
		<tag k="ssr:stedsnr" v="846262" />
	</node>
	<node id="-525915" lat="61.290641666" lon="7.17168611581">
		<tag k="name" v="Hafslo bygdeallmenning" />
		<tag k="place" v="locality" />
		<tag k="ssr:stedsnr" v="938917" />
	</node>
	<node id="-523418" lat="61.2401166643" lon="7.32908054984">
		<tag k="name" v="Luster Almenning" />
		<tag k="place" v="locality" />
		<tag k="ssr:stedsnr" v="208469" />
	</node>
	<node id="-525423" lat="61.2935083368" lon="7.17322500566">
		<tag k="name" v="Almenningen" />
		<tag k="place" v="locality" />
		<tag k="ssr:stedsnr" v="817922" />
	</node>
	<node id="-525944" lat="61.4799469104" lon="7.26163160944">
		<tag k="fixme" v="consider boundary=protected_area and relevant protect_class if not nature reserve" />
		<tag k="leisure" v="nature_reserve" />
		<tag k="name" v="Ytamo naturreservat" />
		<tag k="ssr:stedsnr" v="981072" />
	</node>
	<node id="-524311" lat="61.1839972245" lon="7.36632221497">
		<tag k="name" v="Luster allmenning" />
		<tag k="place" v="locality" />
		<tag k="ssr:stedsnr" v="571385" />
	</node>
	<node id="-523128" lat="61.6597805544" lon="7.24678334274">
		<tag k="name" v="Allmenning" />
		<tag k="place" v="locality" />
		<tag k="ssr:stedsnr" v="146812" />
	</node>
	<node id="-525292" lat="61.570247218" lon="6.80872222828">
		<tag k="historic" v="boundary_stone" />
		<tag k="man_made" v="cairn" />
		<tag k="name" v="Grensevarden" />
		<tag k="place" v="locality" />
		<tag k="ssr:stedsnr" v="810603" />
	</node>
	<node id="-525670" lat="61.4782555536" lon="7.94402221361">
		<tag k="fixme" v="consider boundary=protected_area and relevant protect_class if not nature reserve" />
		<tag k="leisure" v="nature_reserve" />
		<tag k="name" v="Jotunheimen nasjonalpark" />
		<tag k="ssr:stedsnr" v="917874" />
	</node>
	<node id="-525924" lat="61.5086505948" lon="7.67172862568">
		<tag k="fixme" v="consider boundary=protected_area and relevant protect_class if not nature reserve" />
		<tag k="leisure" v="nature_reserve" />
		<tag k="name" v="DrÃ¦gnismorki-Yttrismorki naturreservat" />
		<tag k="ssr:stedsnr" v="971503" />
	</node>
	<node id="-521889" lat="61.6734888868" lon="7.24111666531">
		<tag k="name" v="Grande allmenning" />
		<tag k="place" v="locality" />
		<tag k="ssr:stedsnr" v="270417" />
	</node>
</osm>
