<?xml version="1.0" encoding="UTF-8"?>
<osm generator="osmapis" version="0.6">
	<node id="-523242" lat="61.484522219" lon="7.59737221498">
		<tag k="name" v="Eidsbukti" />
		<tag k="natural" v="bay" />
		<tag k="ssr:stedsnr" v="176475" />
	</node>
	<node id="-523241" lat="61.4930555513" lon="7.58134166436">
		<tag k="name" v="Hunduri" />
		<tag k="natural" v="bay" />
		<tag k="ssr:stedsnr" v="176455" />
	</node>
	<node id="-523240" lat="61.4833333337" lon="7.57015833656">
		<tag k="name" v="Naustbukti" />
		<tag k="natural" v="bay" />
		<tag k="ssr:stedsnr" v="176453" />
	</node>
	<node id="-523239" lat="61.2514527744" lon="7.38177776926">
		<tag k="name" v="Båtneset" />
		<tag k="natural" v="cape" />
		<tag k="ssr:stedsnr" v="176228" />
	</node>
	<node id="-522710" lat="61.4796166654" lon="7.56511110419">
		<tag k="name" v="Strondaneset" />
		<tag k="natural" v="cape" />
		<tag k="ssr:stedsnr" v="55521" />
	</node>
	<node id="-523729" lat="61.4112611103" lon="7.43899167541">
		<tag k="name" v="Skansaneset" />
		<tag k="natural" v="cape" />
		<tag k="ssr:stedsnr" v="433709" />
	</node>
	<node id="-522174" lat="61.444861107" lon="7.51267499757">
		<tag k="name" v="Tobukti" />
		<tag k="natural" v="bay" />
		<tag k="ssr:stedsnr" v="358433" />
	</node>
	<node id="-522173" lat="61.4538027742" lon="7.55079999424">
		<tag k="name" v="Lindeneset" />
		<tag k="natural" v="cape" />
		<tag k="ssr:stedsnr" v="358429" />
	</node>
	<node id="-523704" lat="61.3977611213" lon="7.29250291038">
		<tag k="alt_name" v="Fugløy" />
		<tag k="name" v="Fugløyi" />
		<tag k="natural" v="cape" />
		<tag k="ssr:stedsnr" v="433026" />
	</node>
	<node id="-522672" lat="61.2931833379" lon="7.26382500592">
		<tag k="name" v="Låven" />
		<tag k="natural" v="bay" />
		<tag k="ssr:stedsnr" v="26914" />
	</node>
	<node id="-525734" lat="61.182127779" lon="7.39494166362">
		<tag k="alt_name" v="Ombandsneset" />
		<tag k="name" v="Ombandsnes" />
		<tag k="natural" v="cape" />
		<tag k="ssr:stedsnr" v="919368" />
	</node>
	<node id="-524614" lat="61.4659055535" lon="7.53319721415">
		<tag k="alt_name" v="Indre Possaneset" />
		<tag k="name" v="Porsen" />
		<tag k="natural" v="cape" />
		<tag k="ssr:stedsnr" v="632993" />
	</node>
	<node id="-525728" lat="61.4173166661" lon="7.44390000746">
		<tag k="alt_name" v="Flahamarskjeret" />
		<tag k="fixme" v="consider seamark:type=rock or natural=shoal" />
		<tag k="name" v="Skjeret" />
		<tag k="place" v="islet" />
		<tag k="ssr:stedsnr" v="918754" />
	</node>
	<node id="-523160" lat="61.2580999999" lon="7.38098054679">
		<tag k="name" v="Glisnes" />
		<tag k="natural" v="cape" />
		<tag k="ssr:stedsnr" v="147404" />
	</node>
	<node id="-523669" lat="61.3926222249" lon="7.29029444445">
		<tag k="name" v="Røneidsbukti" />
		<tag k="natural" v="bay" />
		<tag k="ssr:stedsnr" v="419620" />
	</node>
	<node id="-523667" lat="61.4638083363" lon="7.5309305626">
		<tag k="name" v="Ytre Possaneset" />
		<tag k="natural" v="cape" />
		<tag k="ssr:stedsnr" v="419546" />
	</node>
	<node id="-523666" lat="61.4829638847" lon="7.5944361191">
		<tag k="name" v="Eidsneset" />
		<tag k="natural" v="cape" />
		<tag k="ssr:stedsnr" v="419511" />
	</node>
	<node id="-523665" lat="61.4894833305" lon="7.57540000511">
		<tag k="name" v="Fjøsnebukti" />
		<tag k="natural" v="bay" />
		<tag k="ssr:stedsnr" v="419492" />
	</node>
	<node id="-523664" lat="61.3839861131" lon="7.42122222703">
		<tag k="name" v="Havhellebukti" />
		<tag k="natural" v="bay" />
		<tag k="ssr:stedsnr" v="419456" />
	</node>
	<node id="-523663" lat="61.3556416708" lon="7.39300833531">
		<tag k="name" v="Lauvaneset" />
		<tag k="natural" v="cape" />
		<tag k="ssr:stedsnr" v="419454" />
	</node>
	<node id="-523662" lat="61.4722555537" lon="7.58344999231">
		<tag k="name" v="Kviteskredneset" />
		<tag k="natural" v="cape" />
		<tag k="ssr:stedsnr" v="419447" />
	</node>
	<node id="-522125" lat="61.2333222199" lon="7.33869166838">
		<tag k="name" v="Indre Fureneset" />
		<tag k="natural" v="cape" />
		<tag k="ssr:stedsnr" v="330515" />
	</node>
	<node id="-523660" lat="61.3101000035" lon="7.34911666171">
		<tag k="name" v="Purka" />
		<tag k="natural" v="shoal" />
		<tag k="place" v="locality" />
		<tag k="ssr:stedsnr" v="479647" />
	</node>
	<node id="-523659" lat="61.3824638851" lon="7.37439165884">
		<tag k="name" v="Nesgrunnane" />
		<tag k="natural" v="shoal" />
		<tag k="place" v="locality" />
		<tag k="ssr:stedsnr" v="479609" />
	</node>
	<node id="-523658" lat="61.4777749986" lon="7.56078333481">
		<tag k="alt_name" v="Hatlevikneset" />
		<tag k="name" v="Vikaneset" />
		<tag k="natural" v="cape" />
		<tag k="ssr:stedsnr" v="268959" />
	</node>
	<node id="-522987" lat="61.3789944436" lon="7.36300277398">
		<tag k="name" v="Ongulsneset" />
		<tag k="natural" v="cape" />
		<tag k="ssr:stedsnr" v="128641" />
	</node>
	<node id="-523132" lat="61.4726222204" lon="7.54863055482">
		<tag k="name" v="Skaviki" />
		<tag k="natural" v="bay" />
		<tag k="ssr:stedsnr" v="146936" />
	</node>
	<node id="-524665" lat="61.4947416667" lon="7.58708610521">
		<tag k="fixme" v="consider seamark:type=rock or natural=shoal" />
		<tag k="name" v="Kobbesteinen" />
		<tag k="place" v="islet" />
		<tag k="ssr:stedsnr" v="661491" />
	</node>
	<node id="-524664" lat="61.4842166658" lon="7.57062499491">
		<tag k="name" v="Naustknubben" />
		<tag k="natural" v="cape" />
		<tag k="ssr:stedsnr" v="661463" />
	</node>
	<node id="-525175" lat="61.2890861111" lon="7.32711389615">
		<tag k="name" v="Utstå" />
		<tag k="natural" v="cape" />
		<tag k="ssr:stedsnr" v="796335" />
	</node>
	<node id="-525288" lat="61.3030583349" lon="7.25704167029">
		<tag k="alt_name" v="Bjørkeneset" />
		<tag k="name" v="Neset" />
		<tag k="natural" v="cape" />
		<tag k="ssr:stedsnr" v="799775" />
	</node>
	<node id="-522602" lat="61.4477500024" lon="7.49130277368">
		<tag k="name" v="Ufsadrognes" />
		<tag k="natural" v="cape" />
		<tag k="ssr:stedsnr" v="25891" />
	</node>
	<node id="-523111" lat="61.3601138847" lon="7.34354445132">
		<tag k="name" v="Røyrnes" />
		<tag k="natural" v="cape" />
		<tag k="ssr:stedsnr" v="146394" />
	</node>
	<node id="-525155" lat="61.3016555919" lon="7.25611369242">
		<tag k="name" v="Nesflua" />
		<tag k="natural" v="shoal" />
		<tag k="place" v="locality" />
		<tag k="ssr:stedsnr" v="783640" />
	</node>
	<node id="-522594" lat="61.4781472227" lon="7.59262221628">
		<tag k="name" v="Almhol" />
		<tag k="natural" v="bay" />
		<tag k="ssr:stedsnr" v="25740" />
	</node>
	<node id="-525153" lat="61.4387888866" lon="7.47892777811">
		<tag k="bay" v="fjord" />
		<tag k="name" v="Dalsfjorden" />
		<tag k="natural" v="bay" />
		<tag k="ssr:stedsnr" v="783438" />
	</node>
	<node id="-524944" lat="61.3049472239" lon="7.32804443666">
		<tag k="name" v="Innstå" />
		<tag k="natural" v="cape" />
		<tag k="ssr:stedsnr" v="736428" />
	</node>
	<node id="-524638" lat="61.3933388911" lon="7.37631945215">
		<tag k="name" v="Hundaviki" />
		<tag k="natural" v="bay" />
		<tag k="ssr:stedsnr" v="633731" />
	</node>
	<node id="-525657" lat="61.472147219" lon="7.54758333529">
		<tag k="name" v="Skavikneset" />
		<tag k="natural" v="cape" />
		<tag k="ssr:stedsnr" v="904526" />
	</node>
	<node id="-525655" lat="61.4917972253" lon="7.60277222191">
		<tag k="name" v="Skjoldlandet" />
		<tag k="natural" v="cape" />
		<tag k="ssr:stedsnr" v="904503" />
	</node>
	<node id="-525654" lat="61.3438969686" lon="7.34810108386">
		<tag k="name" v="Purka" />
		<tag k="natural" v="shoal" />
		<tag k="place" v="locality" />
		<tag k="ssr:stedsnr" v="904254" />
	</node>
	<node id="-522068" lat="61.2748249996" lon="7.35722221544">
		<tag k="name" v="Skreppeneset" />
		<tag k="natural" v="cape" />
		<tag k="ssr:stedsnr" v="329372" />
	</node>
	<node id="-524173" lat="61.4873499992" lon="7.60443888199">
		<tag k="name" v="Eidslandet" />
		<tag k="natural" v="cape" />
		<tag k="ssr:stedsnr" v="540518" />
	</node>
	<node id="-524108" lat="61.4644361119" lon="7.53150278444">
		<tag k="name" v="Jutulsholet" />
		<tag k="natural" v="bay" />
		<tag k="ssr:stedsnr" v="511989" />
	</node>
	<node id="-524172" lat="61.4224333341" lon="7.46988611051">
		<tag k="bay" v="fjord" />
		<tag k="name" v="Søreimsfjorden" />
		<tag k="natural" v="bay" />
		<tag k="ssr:stedsnr" v="540449" />
	</node>
	<node id="-525126" lat="61.3847444447" lon="7.34590555599">
		<tag k="name" v="Krossen" />
		<tag k="natural" v="cape" />
		<tag k="ssr:stedsnr" v="755538" />
	</node>
	<node id="-524171" lat="61.4484555544" lon="7.50453056314">
		<tag k="bay" v="fjord" />
		<tag k="name" v="Ottomsfjorden" />
		<tag k="natural" v="bay" />
		<tag k="ssr:stedsnr" v="540446" />
	</node>
	<node id="-524604" lat="61.4068777749" lon="7.42662222452">
		<tag k="name" v="Lamhagen" />
		<tag k="natural" v="beach" />
		<tag k="place" v="locality" />
		<tag k="ssr:stedsnr" v="632890" />
	</node>
	<node id="-525104" lat="61.297350003" lon="7.25417221717">
		<tag k="name" v="Jekthammar" />
		<tag k="natural" v="cape" />
		<tag k="ssr:stedsnr" v="754927" />
	</node>
	<node id="-525610" lat="61.4934916712" lon="7.58425556288">
		<tag k="name" v="Vikane" />
		<tag k="natural" v="bay" />
		<tag k="ssr:stedsnr" v="876074" />
	</node>
	<node id="-524072" lat="61.3341555574" lon="7.39198333988">
		<tag k="name" v="Olderneset" />
		<tag k="natural" v="cape" />
		<tag k="ssr:stedsnr" v="511585" />
	</node>
	<node id="-524064" lat="61.3892194472" lon="7.33781944238">
		<tag k="name" v="Kjølsneset" />
		<tag k="natural" v="cape" />
		<tag k="ssr:stedsnr" v="511485" />
	</node>
	<node id="-524063" lat="61.2434111133" lon="7.38431110629">
		<tag k="name" v="Ormanes" />
		<tag k="natural" v="cape" />
		<tag k="ssr:stedsnr" v="511472" />
	</node>
	<node id="-523550" lat="61.4305305548" lon="7.44907222013">
		<tag k="name" v="Foraneset" />
		<tag k="natural" v="cape" />
		<tag k="ssr:stedsnr" v="250737" />
	</node>
	<node id="-522001" lat="61.2064988547" lon="7.39572966669">
		<tag k="alt_name" v="Kvarveneset" />
		<tag k="name" v="Kvarven" />
		<tag k="natural" v="cape" />
		<tag k="ssr:stedsnr" v="313395" />
	</node>
	<node id="-522509" lat="61.4072777779" lon="7.43138054976">
		<tag k="alt_name" v="Fagernes" />
		<tag k="name" v="Fagerneset" />
		<tag k="natural" v="cape" />
		<tag k="ssr:stedsnr" v="8748" />
	</node>
	<node id="-523011" lat="61.3070666645" lon="7.26918332953">
		<tag k="name" v="Saltbuviki" />
		<tag k="natural" v="bay" />
		<tag k="ssr:stedsnr" v="129439" />
	</node>
	<node id="-521970" lat="61.3948305515" lon="7.43823888133">
		<tag k="alt_name" v="Nattropeneset" />
		<tag k="name" v="Nattropneset" />
		<tag k="natural" v="cape" />
		<tag k="ssr:stedsnr" v="311767" />
	</node>
	<node id="-523503" lat="61.4375333362" lon="7.49933333033">
		<tag k="name" v="Sandsneset" />
		<tag k="natural" v="cape" />
		<tag k="ssr:stedsnr" v="479438" />
	</node>
	<node id="-523499" lat="61.3142555536" lon="7.2850749987">
		<tag k="name" v="Lægeneset" />
		<tag k="natural" v="cape" />
		<tag k="ssr:stedsnr" v="237665" />
	</node>
	<node id="-523495" lat="61.4779138847" lon="7.57671667568">
		<tag k="bay" v="fjord" />
		<tag k="name" v="Havhellefjorden" />
		<tag k="natural" v="bay" />
		<tag k="ssr:stedsnr" v="237467" />
	</node>
	<node id="-521957" lat="61.2719361139" lon="7.36249721542">
		<tag k="name" v="Børtnes" />
		<tag k="natural" v="cape" />
		<tag k="ssr:stedsnr" v="311649" />
	</node>
	<node id="-523488" lat="61.4767999989" lon="7.55723610619">
		<tag k="name" v="Ørnaholet" />
		<tag k="natural" v="bay" />
		<tag k="ssr:stedsnr" v="268967" />
	</node>
	<node id="-521940" lat="61.4853222238" lon="7.63780555837">
		<tag k="name" v="Vadøyane" />
		<tag k="natural" v="cape" />
		<tag k="ssr:stedsnr" v="311371" />
	</node>
	<node id="-522961" lat="61.40286944" lon="7.43589166518">
		<tag k="bay" v="fjord" />
		<tag k="name" v="Nattropefjorden" />
		<tag k="natural" v="bay" />
		<tag k="ssr:stedsnr" v="115439" />
	</node>
	<node id="-523978" lat="61.2481027776" lon="7.3569555537">
		<tag k="bay" v="fjord" />
		<tag k="name" v="Lustrafjorden" />
		<tag k="natural" v="bay" />
		<tag k="ssr:stedsnr" v="495151" />
	</node>
	<node id="-524919" lat="61.2947666655" lon="7.25901388785">
		<tag k="name" v="Mosaviki" />
		<tag k="natural" v="bay" />
		<tag k="ssr:stedsnr" v="735398" />
	</node>
	<node id="-523971" lat="61.4443250013" lon="7.47402499187">
		<tag k="name" v="Kjempeneset" />
		<tag k="natural" v="cape" />
		<tag k="ssr:stedsnr" v="493749" />
	</node>
	<node id="-524478" lat="61.3437695888" lon="7.3468001271">
		<tag k="alt_name" v="Brurknappen" />
		<tag k="name" v="Bruknappen" />
		<tag k="natural" v="cape" />
		<tag k="ssr:stedsnr" v="614643" />
	</node>
	<node id="-523963" lat="61.3830694442" lon="7.35157778475">
		<tag k="name" v="Øksnaviki" />
		<tag k="natural" v="bay" />
		<tag k="ssr:stedsnr" v="493672" />
	</node>
	<node id="-523962" lat="61.3802944445" lon="7.35893055864">
		<tag k="alt_name" v="Pølseviki" />
		<tag k="name" v="Pylseviki" />
		<tag k="natural" v="bay" />
		<tag k="ssr:stedsnr" v="493670" />
	</node>
	<node id="-521913" lat="61.2939666687" lon="7.26316667439">
		<tag k="alt_name" v="Artneset" />
		<tag k="name" v="Artnes" />
		<tag k="natural" v="cape" />
		<tag k="ssr:stedsnr" v="310413" />
	</node>
	<node id="-521911" lat="61.2171777745" lon="7.39139443546">
		<tag k="name" v="Saltkjelen" />
		<tag k="natural" v="cape" />
		<tag k="ssr:stedsnr" v="297835" />
	</node>
	<node id="-521908" lat="61.2012611106" lon="7.35215554652">
		<tag k="name" v="Kvithellerneset" />
		<tag k="natural" v="cape" />
		<tag k="ssr:stedsnr" v="297515" />
	</node>
	<node id="-521907" lat="61.4792888871" lon="7.59326943816">
		<tag k="name" v="Bukkajerven" />
		<tag k="natural" v="cape" />
		<tag k="ssr:stedsnr" v="297491" />
	</node>
	<node id="-522414" lat="61.0838833317" lon="5.29721110271">
		<tag k="bay" v="fjord" />
		<tag k="name" v="Sognefjorden" />
		<tag k="natural" v="bay" />
		<tag k="ssr:stedsnr" v="434556" />
	</node>
	<node id="-523947" lat="61.2679388891" lon="7.32490278333">
		<tag k="alt_name" v="Skophammarneset" />
		<tag k="name" v="Skophamarneset" />
		<tag k="natural" v="cape" />
		<tag k="ssr:stedsnr" v="493358" />
	</node>
	<node id="-524453" lat="61.2878138879" lon="7.26639999584">
		<tag k="alt_name" v="Djupaviki;Djupevik" />
		<tag k="name" v="Djupvik" />
		<tag k="natural" v="bay" />
		<tag k="ssr:stedsnr" v="614326" />
	</node>
	<node id="-523419" lat="61.2421999981" lon="7.38336666219">
		<tag k="name" v="Holtervik" />
		<tag k="natural" v="bay" />
		<tag k="ssr:stedsnr" v="208505" />
	</node>
	<node id="-523416" lat="61.2998944427" lon="7.31034165946">
		<tag k="name" v="Laberg" />
		<tag k="natural" v="cape" />
		<tag k="ssr:stedsnr" v="208440" />
	</node>
	<node id="-521877" lat="61.2946750014" lon="7.26156944401">
		<tag k="name" v="Artnesodden" />
		<tag k="natural" v="cape" />
		<tag k="ssr:stedsnr" v="269931" />
	</node>
	<node id="-525674" lat="61.3860194485" lon="7.32322776934">
		<tag k="bay" v="fjord" />
		<tag k="name" v="Gaupnefjorden" />
		<tag k="natural" v="bay" />
		<tag k="ssr:stedsnr" v="918041" />
	</node>
	<node id="-522896" lat="61.460463886" lon="7.52598888135">
		<tag k="name" v="Havellehamn" />
		<tag k="natural" v="bay" />
		<tag k="ssr:stedsnr" v="86996" />
	</node>
	<node id="-521871" lat="61.3021277821" lon="7.24884722111">
		<tag k="name" v="Labergbukti" />
		<tag k="natural" v="bay" />
		<tag k="ssr:stedsnr" v="269842" />
	</node>
	<node id="-522886" lat="61.448355558" lon="7.49320555592">
		<tag k="name" v="Purka" />
		<tag k="natural" v="cape" />
		<tag k="ssr:stedsnr" v="86891" />
	</node>
	<node id="-525440" lat="61.3978805528" lon="7.29367499936">
		<tag k="name" v="Grandane" />
		<tag k="natural" v="cape" />
		<tag k="ssr:stedsnr" v="857022" />
	</node>
	<node id="-522878" lat="61.482141665" lon="7.57016389205">
		<tag k="name" v="Fjøsneneset" />
		<tag k="natural" v="cape" />
		<tag k="ssr:stedsnr" v="86754" />
	</node>
	<node id="-525436" lat="61.3898250013" lon="7.33410832793">
		<tag k="name" v="Råabukti" />
		<tag k="natural" v="bay" />
		<tag k="ssr:stedsnr" v="844649" />
	</node>
	<node id="-525435" lat="61.3749405751" lon="7.36538060872">
		<tag k="name" v="Storegrunnen" />
		<tag k="natural" v="shoal" />
		<tag k="place" v="locality" />
		<tag k="ssr:stedsnr" v="844637" />
	</node>
	<node id="-522874" lat="61.3872083348" lon="7.42883055959">
		<tag k="name" v="Sagaviki" />
		<tag k="natural" v="bay" />
		<tag k="ssr:stedsnr" v="86631" />
	</node>
	<node id="-525433" lat="61.4806888893" lon="7.56808333536">
		<tag k="name" v="Strondi" />
		<tag k="natural" v="beach" />
		<tag k="place" v="locality" />
		<tag k="ssr:stedsnr" v="844506" />
	</node>
	<node id="-525431" lat="61.3046888853" lon="7.32809721695">
		<tag k="name" v="Galgen" />
		<tag k="natural" v="cape" />
		<tag k="ssr:stedsnr" v="844232" />
	</node>
	<node id="-525942" lat="61.4580245336" lon="7.52412588457">
		<tag k="name" v="Havhelleneset" />
		<tag k="natural" v="cape" />
		<tag k="ssr:stedsnr" v="979599" />
	</node>
	<node id="-524393" lat="61.3622749989" lon="7.39929722476">
		<tag k="name" v="Sørennes" />
		<tag k="natural" v="cape" />
		<tag k="ssr:stedsnr" v="572713" />
	</node>
	<node id="-524904" lat="61.3644638884" lon="7.36556111579">
		<tag k="bay" v="fjord" />
		<tag k="name" v="Krokafjorden" />
		<tag k="natural" v="bay" />
		<tag k="ssr:stedsnr" v="722623" />
	</node>
	<node id="-524901" lat="61.4887888926" lon="7.60029721287">
		<tag k="name" v="Grøthaugodden" />
		<tag k="natural" v="cape" />
		<tag k="ssr:stedsnr" v="722531" />
	</node>
	<node id="-524388" lat="61.3986194439" lon="7.2860166635">
		<tag k="name" v="Bremerholm" />
		<tag k="natural" v="cape" />
		<tag k="ssr:stedsnr" v="572671" />
	</node>
	<node id="-524378" lat="61.2722333308" lon="7.36634444443">
		<tag k="name" v="Hamnen" />
		<tag k="natural" v="bay" />
		<tag k="ssr:stedsnr" v="572510" />
	</node>
	<node id="-523876" lat="61.397630558" lon="7.39087777227">
		<tag k="name" v="Rappanes" />
		<tag k="natural" v="cape" />
		<tag k="ssr:stedsnr" v="451718" />
	</node>
	<node id="-525397" lat="61.2980833362" lon="7.25059721774">
		<tag k="name" v="Hamnen" />
		<tag k="natural" v="bay" />
		<tag k="ssr:stedsnr" v="815890" />
	</node>
	<node id="-522833" lat="61.4920499964" lon="7.58217499755">
		<tag k="name" v="Haugsbukti" />
		<tag k="natural" v="bay" />
		<tag k="ssr:stedsnr" v="81526" />
	</node>
	<node id="-524361" lat="61.444563888" lon="7.51569722622">
		<tag k="name" v="Toi" />
		<tag k="natural" v="beach" />
		<tag k="place" v="locality" />
		<tag k="ssr:stedsnr" v="571992" />
	</node>
	<node id="-525383" lat="61.3820361095" lon="7.3673472289">
		<tag k="name" v="Krossviki" />
		<tag k="natural" v="bay" />
		<tag k="ssr:stedsnr" v="815704" />
	</node>
	<node id="-524641" lat="61.3863138907" lon="7.36951110803">
		<tag k="name" v="Andaviki" />
		<tag k="natural" v="bay" />
		<tag k="ssr:stedsnr" v="633750" />
	</node>
	<node id="-524861" lat="61.2847111101" lon="7.34358889073">
		<tag k="name" v="Halvfar" />
		<tag k="natural" v="bay" />
		<tag k="ssr:stedsnr" v="694477" />
	</node>
	<node id="-523828" lat="61.4156388909" lon="7.44060556217">
		<tag k="name" v="Slotte" />
		<tag k="natural" v="cape" />
		<tag k="ssr:stedsnr" v="450931" />
	</node>
	<node id="-523825" lat="61.4193027736" lon="7.44144167321">
		<tag k="name" v="Kåret" />
		<tag k="natural" v="beach" />
		<tag k="place" v="locality" />
		<tag k="ssr:stedsnr" v="450882" />
	</node>
	<node id="-524328" lat="61.3250305518" lon="7.38066943704">
		<tag k="name" v="Almeneset" />
		<tag k="natural" v="cape" />
		<tag k="ssr:stedsnr" v="571593" />
	</node>
	<node id="-523303" lat="61.4371250042" lon="7.44945556437">
		<tag k="name" v="Frudammen" />
		<tag k="natural" v="bay" />
		<tag k="ssr:stedsnr" v="190755" />
	</node>
	<node id="-524838" lat="61.2919888883" lon="7.26476667468">
		<tag k="name" v="Blinkeviki" />
		<tag k="natural" v="bay" />
		<tag k="ssr:stedsnr" v="693891" />
	</node>
	<node id="-524643" lat="61.2709749989" lon="7.3048249986">
		<tag k="name" v="Tøgestoi" />
		<tag k="natural" v="bay" />
		<tag k="ssr:stedsnr" v="633893" />
	</node>
	<node id="-525399" lat="61.4696305558" lon="7.5415055642">
		<tag k="name" v="Gullringen" />
		<tag k="natural" v="cape" />
		<tag k="ssr:stedsnr" v="815917" />
	</node>
	<node id="-525829" lat="61.3967777791" lon="7.28218054788">
		<tag k="name" v="Båtevollsneset" />
		<tag k="natural" v="cape" />
		<tag k="ssr:stedsnr" v="936652" />
	</node>
</osm>
