<?xml version="1.0" encoding="UTF-8"?>
<osm generator="osmapis" version="0.6">
	<node id="-521216" lat="61.310913892" lon="7.18559723055">
		<tag k="alt_name" v="Hafslo;Hafslo kirke" />
		<tag k="amenity" v="place_of_worship" />
		<tag k="denomination" v="lutheran" />
		<tag k="name" v="Hafslo kyrkje" />
		<tag k="religion" v="christian" />
		<tag k="ssr:stedsnr" v="311466" />
	</node>
	<node id="-521982" lat="61.4098888876" lon="7.28732778319">
		<tag k="alt_name" v="Gaupne" />
		<tag k="amenity" v="place_of_worship" />
		<tag k="denomination" v="lutheran" />
		<tag k="name" v="Gaupne kyrkje" />
		<tag k="religion" v="christian" />
		<tag k="ssr:stedsnr" v="55615" />
	</node>
	<node id="-522525" lat="61.2982055595" lon="7.32309444002">
		<tag k="amenity" v="place_of_worship" />
		<tag k="denomination" v="lutheran" />
		<tag k="name" v="Urnes stavkyrkje" />
		<tag k="religion" v="christian" />
		<tag k="ssr:stedsnr" v="189403" />
	</node>
	<node id="-521703" lat="61.4083603692" lon="7.29615290997">
		<tag k="amenity" v="place_of_worship" />
		<tag k="denomination" v="lutheran" />
		<tag k="name" v="Gaupne gamle kyrkje" />
		<tag k="religion" v="christian" />
		<tag k="ssr:stedsnr" v="989204" />
	</node>
	<node id="-523931" lat="61.4836250028" lon="7.03256389177">
		<tag k="alt_name" v="Veitastrand kyrkje" />
		<tag k="amenity" v="place_of_worship" />
		<tag k="denomination" v="lutheran" />
		<tag k="name" v="Veitastrond kapell" />
		<tag k="religion" v="christian" />
		<tag k="ssr:stedsnr" v="634972" />
	</node>
	<node id="-523194" lat="61.3869098414" lon="7.36757782248">
		<tag k="alt_name" v="Nes" />
		<tag k="amenity" v="place_of_worship" />
		<tag k="denomination" v="lutheran" />
		<tag k="name" v="Nes kyrkje" />
		<tag k="religion" v="christian" />
		<tag k="ssr:stedsnr" v="492697" />
	</node>
	<node id="-524473" lat="61.4412642035" lon="7.45528957707">
		<tag k="alt_name" v="Dale" />
		<tag k="amenity" v="place_of_worship" />
		<tag k="denomination" v="lutheran" />
		<tag k="name" v="Dale kyrkje" />
		<tag k="religion" v="christian" />
		<tag k="ssr:stedsnr" v="796730" />
	</node>
	<node id="-524213" lat="61.3074972207" lon="7.21505834256">
		<tag k="amenity" v="community_centre" />
		<tag k="name" v="Lyngmo" />
		<tag k="ssr:stedsnr" v="736417" />
	</node>
	<node id="-521726" lat="61.3005083346" lon="7.23752499887">
		<tag k="alt_name" v="Solvorn" />
		<tag k="amenity" v="place_of_worship" />
		<tag k="denomination" v="lutheran" />
		<tag k="name" v="Solvorn kyrkje" />
		<tag k="religion" v="christian" />
		<tag k="ssr:stedsnr" v="7408" />
	</node>
	<node id="-525008" lat="61.2262500022" lon="7.39102500521">
		<tag k="name" v="Ulvenes" />
		<tag k="place" v="locality" />
		<tag k="ssr:stedsnr" v="919382" />
	</node>
	<node id="-524744" lat="61.3620138893" lon="7.26156389627">
		<tag k="alt_name" v="Fet" />
		<tag k="amenity" v="place_of_worship" />
		<tag k="denomination" v="lutheran" />
		<tag k="name" v="Fet kyrkje" />
		<tag k="religion" v="christian" />
		<tag k="ssr:stedsnr" v="857468" />
	</node>
	<node id="-522005" lat="61.4931638869" lon="7.68663333159">
		<tag k="alt_name" v="Fortun" />
		<tag k="amenity" v="place_of_worship" />
		<tag k="denomination" v="lutheran" />
		<tag k="name" v="Fortun kyrkje" />
		<tag k="religion" v="christian" />
		<tag k="ssr:stedsnr" v="68262" />
	</node>
	<node id="-521192" lat="61.3781472181" lon="7.28874721479">
		<tag k="alt_name" v="Joranger" />
		<tag k="amenity" v="place_of_worship" />
		<tag k="denomination" v="lutheran" />
		<tag k="name" v="Joranger kyrkje" />
		<tag k="religion" v="christian" />
		<tag k="ssr:stedsnr" v="311042" />
	</node>
	<node id="-521831" lat="61.587472219" lon="7.2832555471">
		<tag k="alt_name" v="Jostedal" />
		<tag k="amenity" v="place_of_worship" />
		<tag k="denomination" v="lutheran" />
		<tag k="name" v="Jostedal kyrkje" />
		<tag k="religion" v="christian" />
		<tag k="ssr:stedsnr" v="10690" />
	</node>
	<node id="-524154" lat="61.6513472223" lon="7.27543333582">
		<tag k="name" v="Breheimsenteret" />
		<tag k="ssr:stedsnr" v="694894" />
		<tag k="tourism" v="museum" />
	</node>
	<node id="-523771" lat="61.7696861088" lon="7.50322499459">
		<tag k="name" v="Handspiken" />
		<tag k="place" v="locality" />
		<tag k="ssr:stedsnr" v="616498" />
	</node>
</osm>
