<?xml version="1.0" encoding="UTF-8"?>
<osm version="0.6" generator="osmapis">
	<node id="447991206" lat="59.6758389" lon="10.6737806" version="4" timestamp="2019-05-10T06:30:19Z" changeset="70097478" uid="633013" user="Honning">
		<tag k="name" v="Finset" />
		<tag k="place" v="farm" />
		<tag k="ssr:stedsnr" v="671859" />
	</node>
	<node id="448006723" lat="59.6792861" lon="10.6704167" version="3" timestamp="2019-05-10T06:30:19Z" changeset="70097478" uid="633013" user="Honning">
		<tag k="name" v="Flater" />
		<tag k="place" v="farm" />
		<tag k="ssr:stedsnr" v="913759" />
	</node>
	<node id="1448915811" lat="59.7197778" lon="10.7194861" version="3" timestamp="2019-05-10T06:30:19Z" changeset="70097478" uid="633013" user="Honning">
		<tag k="alt_name" v="Flespjeld" />
		<tag k="name" v="Fløyspjeld" />
		<tag k="place" v="farm" />
		<tag k="ssr:stedsnr" v="853559" />
	</node>
	<node id="1668767299" lat="59.6661" lon="10.6707417" version="2" timestamp="2019-05-10T06:30:19Z" changeset="70097478" uid="633013" user="Honning">
		<tag k="name" v="Hauer" />
		<tag k="place" v="farm" />
		<tag k="source:name" v="Privat skilt, vegskilt." />
		<tag k="ssr:stedsnr" v="854876" />
	</node>
	<node id="1716298558" lat="59.6427908" lon="10.6413122" version="3" timestamp="2019-11-18T12:52:09Z" changeset="77227287" uid="5732597" user="ENTUR Johan Wiklund">
		<tag k="name" v="Søndre Elle" />
		<tag k="place" v="farm" />
		<tag k="source:name" v="Privat skilt." />
		<tag k="ssr:stedsnr" v="186839" />
	</node>
	<node id="1716298580" lat="59.6497778" lon="10.6723611" version="2" timestamp="2019-05-10T06:30:19Z" changeset="70097478" uid="633013" user="Honning">
		<tag k="name" v="Haver" />
		<tag k="place" v="farm" />
		<tag k="source:name" v="Skilt" />
		<tag k="ssr:stedsnr" v="429838" />
	</node>
	<node id="1716298584" lat="59.6539278" lon="10.6510056" version="2" timestamp="2019-05-10T06:30:19Z" changeset="70097478" uid="633013" user="Honning">
		<tag k="name" v="Odalen" />
		<tag k="place" v="farm" />
		<tag k="source:name" v="Privat skilt." />
		<tag k="ssr:stedsnr" v="146021" />
	</node>
	<node id="1744164948" lat="59.6948838" lon="10.7084494" version="2" timestamp="2019-05-10T06:30:19Z" changeset="70097478" uid="633013" user="Honning">
		<tag k="name" v="Bjerke" />
		<tag k="place" v="hamlet" />
		<tag k="source:name" v="Privat skilt" />
		<tag k="ssr:stedsnr" v="306750" />
	</node>
	<node id="1744165558" lat="59.6993694" lon="10.7151917" version="2" timestamp="2019-05-10T06:30:19Z" changeset="70097478" uid="633013" user="Honning">
		<tag k="name" v="Økern" />
		<tag k="place" v="farm" />
		<tag k="source:name" v="Privat skilt" />
		<tag k="ssr:stedsnr" v="610767" />
	</node>
	<node id="1753805851" lat="59.6826861" lon="10.7148194" version="2" timestamp="2019-05-10T06:30:19Z" changeset="70097478" uid="633013" user="Honning">
		<tag k="name" v="Bakker" />
		<tag k="place" v="farm" />
		<tag k="ssr:stedsnr" v="367829" />
	</node>
	<node id="1753805852" lat="59.6875778" lon="10.6755417" version="2" timestamp="2019-05-10T06:30:20Z" changeset="70097478" uid="633013" user="Honning">
		<tag k="name" v="Haneborg" />
		<tag k="place" v="farm" />
		<tag k="source:name" v="Privat skilt" />
		<tag k="ssr:stedsnr" v="664128" />
	</node>
	<node id="1753805853" lat="59.7056639" lon="10.6735833" version="2" timestamp="2019-05-10T06:30:20Z" changeset="70097478" uid="633013" user="Honning">
		<tag k="name" v="Holt" />
		<tag k="place" v="farm" />
		<tag k="source:name" v="Privat skilt" />
		<tag k="ssr:stedsnr" v="185727" />
	</node>
	<node id="1753805854" lat="59.6922354" lon="10.7015874" version="2" timestamp="2019-05-10T06:30:20Z" changeset="70097478" uid="633013" user="Honning">
		<tag k="name" v="Huseby" />
		<tag k="place" v="hamlet" />
		<tag k="ssr:stedsnr" v="428759" />
	</node>
	<node id="1753805855" lat="59.7033222" lon="10.6977806" version="2" timestamp="2019-05-10T06:30:20Z" changeset="70097478" uid="633013" user="Honning">
		<tag k="name" v="Steinhuk" />
		<tag k="place" v="farm" />
		<tag k="source:name" v="Privat skilt" />
		<tag k="ssr:stedsnr" v="124701" />
	</node>
	<node id="1753805856" lat="59.7020417" lon="10.6940722" version="2" timestamp="2019-05-10T06:30:20Z" changeset="70097478" uid="633013" user="Honning">
		<tag k="name" v="Teipa" />
		<tag k="place" v="farm" />
		<tag k="ssr:stedsnr" v="422224" />
	</node>
	<node id="1760623355" lat="59.7167444" lon="10.6399417" version="2" timestamp="2019-05-10T06:30:20Z" changeset="70097478" uid="633013" user="Honning">
		<tag k="alt_name" v="Hallangen, nordre" />
		<tag k="name" v="Nordre Hallangen" />
		<tag k="place" v="farm" />
		<tag k="source:name" v="Privat skilt" />
		<tag k="ssr:stedsnr" v="792783" />
	</node>
	<node id="1781602082" lat="59.7094694" lon="10.7474222" version="2" timestamp="2019-05-10T06:30:20Z" changeset="70097478" uid="633013" user="Honning">
		<tag k="name" v="Askebakke" />
		<tag k="place" v="farm" />
		<tag k="source:name" v="Private sign" />
		<tag k="ssr:stedsnr" v="609542" />
	</node>
	<node id="1781602085" lat="59.7030528" lon="10.7428361" version="2" timestamp="2019-05-10T06:30:20Z" changeset="70097478" uid="633013" user="Honning">
		<tag k="name" v="Vassum" />
		<tag k="place" v="farm" />
		<tag k="source:name" v="Private sign" />
		<tag k="ssr:stedsnr" v="610430" />
	</node>
	<node id="1861989560" lat="59.6459139" lon="10.6621917" version="2" timestamp="2019-05-10T06:30:20Z" changeset="70097478" uid="633013" user="Honning">
		<tag k="alt_name" v="Røis" />
		<tag k="name" v="Røys" />
		<tag k="place" v="farm" />
		<tag k="ssr:stedsnr" v="671834" />
	</node>
	<node id="1863931490" lat="59.6352417" lon="10.6539139" version="2" timestamp="2019-05-10T06:30:20Z" changeset="70097478" uid="633013" user="Honning">
		<tag k="alt_name" v="Ekeberg" />
		<tag k="name" v="Eikeberg" />
		<tag k="place" v="farm" />
		<tag k="source:name" v="Frogn bygdebok" />
		<tag k="ssr:stedsnr" v="488659" />
	</node>
	<node id="1863931494" lat="59.6409222" lon="10.6545528" version="2" timestamp="2019-05-10T06:30:20Z" changeset="70097478" uid="633013" user="Honning">
		<tag k="name" v="Leium" />
		<tag k="place" v="farm" />
		<tag k="source:name" v="Frogn bygdebok" />
		<tag k="ssr:stedsnr" v="3647" />
	</node>
	<node id="1863931497" lat="59.6526444" lon="10.6635361" version="2" timestamp="2019-05-10T06:30:20Z" changeset="70097478" uid="633013" user="Honning">
		<tag k="alt_name" v="Øyrud, nordre;Nordre Øyerud" />
		<tag k="name" v="Nordre Øyrud" />
		<tag k="place" v="farm" />
		<tag k="source:name" v="Frogn bygdebok" />
		<tag k="ssr:stedsnr" v="307819" />
	</node>
	<node id="1863931501" lat="59.6497722" lon="10.6651389" version="2" timestamp="2019-05-10T06:30:20Z" changeset="70097478" uid="633013" user="Honning">
		<tag k="alt_name" v="Søndre Øyerud" />
		<tag k="name" v="Søndre Øyrud" />
		<tag k="place" v="farm" />
		<tag k="source:name" v="Frogn bygdebok" />
		<tag k="ssr:stedsnr" v="631032" />
	</node>
	<node id="1868628457" lat="59.6707112" lon="10.7006491" version="2" timestamp="2019-05-10T06:30:20Z" changeset="70097478" uid="633013" user="Honning">
		<tag k="name" v="Furu" />
		<tag k="place" v="hamlet" />
		<tag k="source:name" v="Privat skilt" />
		<tag k="ssr:stedsnr" v="428870" />
	</node>
	<node id="1868628458" lat="59.6905886" lon="10.7284748" version="2" timestamp="2019-05-10T06:30:20Z" changeset="70097478" uid="633013" user="Honning">
		<tag k="name" v="Horgen" />
		<tag k="place" v="hamlet" />
		<tag k="ssr:stedsnr" v="186465" />
	</node>
	<node id="1868628459" lat="59.6735861" lon="10.7046055" version="2" timestamp="2019-05-10T06:30:20Z" changeset="70097478" uid="633013" user="Honning">
		<tag k="name" v="Nordre Furu" />
		<tag k="place" v="farm" />
		<tag k="source:name" v="Privat skilt" />
		<tag k="ssr:stedsnr" v="786582" />
	</node>
	<node id="1905169160" lat="59.6144" lon="10.6567944" version="2" timestamp="2019-05-10T06:30:21Z" changeset="70097478" uid="633013" user="Honning">
		<tag k="name" v="Saga" />
		<tag k="place" v="isolated_dwelling" />
		<tag k="ssr:stedsnr" v="488616" />
	</node>
	<node id="1905169161" lat="59.6369" lon="10.6652278" version="2" timestamp="2019-05-10T06:30:21Z" changeset="70097478" uid="633013" user="Honning">
		<tag k="name" v="Solbergsand" />
		<tag k="place" v="isolated_dwelling" />
		<tag k="ssr:stedsnr" v="828489" />
	</node>
	<node id="1984434879" lat="59.7027834" lon="10.6606142" version="3" timestamp="2020-01-21T19:59:13Z" changeset="79875501" uid="3497659" user="NKA">
		<tag k="name" v="Dammen" />
		<tag k="place" v="hamlet" />
		<tag k="ssr:stedsnr" v="282930;853741" />
	</node>
	<node id="2017935652" lat="59.7697889" lon="10.682325" version="2" timestamp="2019-05-10T06:30:21Z" changeset="70097478" uid="633013" user="Honning">
		<tag k="name" v="Gullerud" />
		<tag k="place" v="hamlet" />
		<tag k="ssr:stedsnr" v="490620" />
	</node>
	<node id="2292479998" lat="59.7427639" lon="10.66325" version="2" timestamp="2019-05-10T06:30:21Z" changeset="70097478" uid="633013" user="Honning">
		<tag k="name" v="Nordre Lindebråte" />
		<tag k="place" v="farm" />
		<tag k="source:name" v="Sign." />
		<tag k="ssr:stedsnr" v="329442" />
	</node>
	<node id="2318542506" lat="59.7271778" lon="10.670425" version="2" timestamp="2019-05-10T06:30:21Z" changeset="70097478" uid="633013" user="Honning">
		<tag k="name" v="Tassebråten" />
		<tag k="place" v="farm" />
		<tag k="ssr:stedsnr" v="185770" />
	</node>
	<node id="2337260127" lat="59.7504056" lon="10.6786139" version="2" timestamp="2019-05-10T06:30:21Z" changeset="70097478" uid="633013" user="Honning">
		<tag k="name" v="Måsan" />
		<tag k="old_name" v="Mosen" />
		<tag k="place" v="farm" />
		<tag k="ssr:stedsnr" v="5591" />
	</node>
	<node id="2458220879" lat="59.7204818" lon="10.6085568" version="2" timestamp="2019-05-10T06:30:21Z" changeset="70097478" uid="633013" user="Honning">
		<tag k="name" v="Digerud" />
		<tag k="place" v="hamlet" />
		<tag k="ssr:stedsnr" v="3796" />
	</node>
	<node id="6234312546" lat="59.7033791" lon="10.6181647" version="2" timestamp="2019-05-10T06:30:21Z" changeset="70097478" uid="633013" user="Honning">
		<tag k="alt_name" v="Nordre Frogn" />
		<tag k="name" v="Hallangen" />
		<tag k="place" v="hamlet" />
		<tag k="ssr:stedsnr" v="306736" />
	</node>
	<node id="6463615893" lat="59.6988389" lon="10.612875" version="1" timestamp="2019-05-10T06:30:05Z" changeset="70097478" uid="633013" user="Honning">
		<tag k="name" v="Svartlaget" />
		<tag k="place" v="isolated_dwelling" />
		<tag k="ssr:stedsnr" v="367737" />
	</node>
	<node id="6463615894" lat="59.7291556" lon="10.704163" version="1" timestamp="2019-05-10T06:30:05Z" changeset="70097478" uid="633013" user="Honning">
		<tag k="name" v="Bøler" />
		<tag k="place" v="hamlet" />
		<tag k="ssr:stedsnr" v="913766" />
	</node>
	<node id="6463615895" lat="59.7308417" lon="10.6719083" version="1" timestamp="2019-05-10T06:30:05Z" changeset="70097478" uid="633013" user="Honning">
		<tag k="name" v="Dalen" />
		<tag k="place" v="farm" />
		<tag k="ssr:stedsnr" v="913772" />
	</node>
	<node id="6463615896" lat="59.7174333" lon="10.6605528" version="1" timestamp="2019-05-10T06:30:05Z" changeset="70097478" uid="633013" user="Honning">
		<tag k="name" v="Holtbråten" />
		<tag k="place" v="farm" />
		<tag k="ssr:stedsnr" v="913790" />
	</node>
	<node id="6463615897" lat="59.6393528" lon="10.6753139" version="1" timestamp="2019-05-10T06:30:05Z" changeset="70097478" uid="633013" user="Honning">
		<tag k="alt_name" v="Øvre Solberg" />
		<tag k="name" v="Eike-Solberg" />
		<tag k="place" v="farm" />
		<tag k="ssr:stedsnr" v="914705" />
	</node>
	<node id="6463615898" lat="59.673925" lon="10.6456306" version="1" timestamp="2019-05-10T06:30:05Z" changeset="70097478" uid="633013" user="Honning">
		<tag k="name" v="Belsjø" />
		<tag k="place" v="farm" />
		<tag k="ssr:stedsnr" v="914862" />
	</node>
	<node id="6463615899" lat="59.6891667" lon="10.6762417" version="1" timestamp="2019-05-10T06:30:05Z" changeset="70097478" uid="633013" user="Honning">
		<tag k="name" v="Østre Oppegård" />
		<tag k="place" v="farm" />
		<tag k="ssr:stedsnr" v="968150" />
	</node>
	<node id="6463615900" lat="59.7699472" lon="10.6936306" version="1" timestamp="2019-05-10T06:30:06Z" changeset="70097478" uid="633013" user="Honning">
		<tag k="name" v="Sagstua" />
		<tag k="place" v="farm" />
		<tag k="ssr:stedsnr" v="915603" />
	</node>
	<node id="6463615901" lat="59.6851361" lon="10.6893806" version="1" timestamp="2019-05-10T06:30:06Z" changeset="70097478" uid="633013" user="Honning">
		<tag k="name" v="Nordre Roksrud" />
		<tag k="place" v="farm" />
		<tag k="ssr:stedsnr" v="403141" />
	</node>
	<node id="6463615902" lat="59.7161167" lon="10.6242694" version="1" timestamp="2019-05-10T06:30:06Z" changeset="70097478" uid="633013" user="Honning">
		<tag k="name" v="Nordre Hallangen hyttefelt" />
		<tag k="place" v="neighbourhood" />
		<tag k="ssr:stedsnr" v="403368" />
	</node>
	<node id="6463615903" lat="59.71545" lon="10.7101667" version="1" timestamp="2019-05-10T06:30:06Z" changeset="70097478" uid="633013" user="Honning">
		<tag k="name" v="Rundvoll" />
		<tag k="place" v="isolated_dwelling" />
		<tag k="ssr:stedsnr" v="935215" />
	</node>
	<node id="6463615904" lat="59.6766778" lon="10.5884417" version="1" timestamp="2019-05-10T06:30:06Z" changeset="70097478" uid="633013" user="Honning">
		<tag k="alt_name" v="Orrekleiva" />
		<tag k="name" v="Orrekloa" />
		<tag k="place" v="isolated_dwelling" />
		<tag k="ssr:stedsnr" v="936091" />
	</node>
	<node id="6463615905" lat="59.7563361" lon="10.7072361" version="1" timestamp="2019-05-10T06:30:06Z" changeset="70097478" uid="633013" user="Honning">
		<tag k="name" v="Åsen" />
		<tag k="place" v="isolated_dwelling" />
		<tag k="ssr:stedsnr" v="403433" />
	</node>
	<node id="6463615906" lat="59.6658111" lon="10.6344389" version="1" timestamp="2019-05-10T06:30:06Z" changeset="70097478" uid="633013" user="Honning">
		<tag k="name" v="Drøbak og Frogn prestegård" />
		<tag k="place" v="isolated_dwelling" />
		<tag k="ssr:stedsnr" v="949024" />
	</node>
	<node id="6463615907" lat="59.7053472" lon="10.6813889" version="1" timestamp="2019-05-10T06:30:06Z" changeset="70097478" uid="633013" user="Honning">
		<tag k="name" v="Bjerkebråtan" />
		<tag k="place" v="farm" />
		<tag k="ssr:stedsnr" v="403461" />
	</node>
	<node id="6463615908" lat="59.7158361" lon="10.6519389" version="1" timestamp="2019-05-10T06:30:06Z" changeset="70097478" uid="633013" user="Honning">
		<tag k="name" v="Hallangshagen" />
		<tag k="place" v="isolated_dwelling" />
		<tag k="ssr:stedsnr" v="949338" />
	</node>
	<node id="6463615909" lat="59.7370306" lon="10.6747417" version="1" timestamp="2019-05-10T06:30:06Z" changeset="70097478" uid="633013" user="Honning">
		<tag k="name" v="Lindskau" />
		<tag k="place" v="farm" />
		<tag k="ssr:stedsnr" v="949373" />
	</node>
	<node id="6463615910" lat="59.7218056" lon="10.6734305" version="1" timestamp="2019-05-10T06:30:06Z" changeset="70097478" uid="633013" user="Honning">
		<tag k="name" v="Nordengen" />
		<tag k="place" v="isolated_dwelling" />
		<tag k="ssr:stedsnr" v="949412" />
	</node>
	<node id="6463615911" lat="59.7255417" lon="10.6606167" version="1" timestamp="2019-05-10T06:30:06Z" changeset="70097478" uid="633013" user="Honning">
		<tag k="name" v="Langen" />
		<tag k="place" v="locality" />
		<tag k="ssr:stedsnr" v="949416" />
	</node>
	<node id="6463615912" lat="59.7196111" lon="10.5897639" version="1" timestamp="2019-05-10T06:30:06Z" changeset="70097478" uid="633013" user="Honning">
		<tag k="name" v="Sollia" />
		<tag k="place" v="farm" />
		<tag k="ssr:stedsnr" v="949511" />
	</node>
	<node id="6463615913" lat="59.6695139" lon="10.6269861" version="1" timestamp="2019-05-10T06:30:06Z" changeset="70097478" uid="633013" user="Honning">
		<tag k="amenity" v="nursing_home" />
		<tag k="name" v="Grande" />
		<tag k="ssr:stedsnr" v="949830" />
	</node>
	<node id="6463615915" lat="59.7625722" lon="10.6620972" version="1" timestamp="2019-05-10T06:30:06Z" changeset="70097478" uid="633013" user="Honning">
		<tag k="alt_name" v="Skog, nordre;Nordre Skau" />
		<tag k="name" v="Nordre Skog" />
		<tag k="place" v="farm" />
		<tag k="ssr:stedsnr" v="308619" />
	</node>
	<node id="6463615916" lat="59.6914111" lon="10.6514278" version="1" timestamp="2019-05-10T06:30:06Z" changeset="70097478" uid="633013" user="Honning">
		<tag k="name" v="Måna" />
		<tag k="place" v="isolated_dwelling" />
		<tag k="ssr:stedsnr" v="968638" />
	</node>
	<node id="6463615917" lat="59.6872494" lon="10.6109006" version="1" timestamp="2019-05-10T06:30:06Z" changeset="70097478" uid="633013" user="Honning">
		<tag k="name" v="Langebåt" />
		<tag k="place" v="hamlet" />
		<tag k="ssr:stedsnr" v="985679" />
	</node>
	<node id="6463615918" lat="59.7292" lon="10.7032361" version="1" timestamp="2019-05-10T06:30:06Z" changeset="70097478" uid="633013" user="Honning">
		<tag k="name" v="Søndre Bøler" />
		<tag k="place" v="farm" />
		<tag k="ssr:stedsnr" v="645463" />
	</node>
	<node id="6463615919" lat="59.6833704" lon="10.7008486" version="1" timestamp="2019-05-10T06:30:06Z" changeset="70097478" uid="633013" user="Honning">
		<tag k="name" v="Rød" />
		<tag k="place" v="hamlet" />
		<tag k="ssr:stedsnr" v="185839" />
	</node>
	<node id="6463615920" lat="59.6340865" lon="10.6690321" version="1" timestamp="2019-05-10T06:30:07Z" changeset="70097478" uid="633013" user="Honning">
		<tag k="name" v="Kroksrud" />
		<tag k="place" v="hamlet" />
		<tag k="ssr:stedsnr" v="3633" />
	</node>
	<node id="6463615921" lat="59.6903917" lon="10.5915583" version="1" timestamp="2019-05-10T06:30:07Z" changeset="70097478" uid="633013" user="Honning">
		<tag k="name" v="Tronstad" />
		<tag k="place" v="isolated_dwelling" />
		<tag k="ssr:stedsnr" v="3742" />
	</node>
	<node id="6463615922" lat="59.678775" lon="10.6563778" version="1" timestamp="2019-05-10T06:30:07Z" changeset="70097478" uid="633013" user="Honning">
		<tag k="name" v="Kringerud" />
		<tag k="place" v="farm" />
		<tag k="ssr:stedsnr" v="3755" />
	</node>
	<node id="6463615923" lat="59.6845754" lon="10.689908" version="1" timestamp="2019-05-10T06:30:07Z" changeset="70097478" uid="633013" user="Honning">
		<tag k="name" v="Roksrud" />
		<tag k="place" v="hamlet" />
		<tag k="ssr:stedsnr" v="3847" />
	</node>
	<node id="6463615924" lat="59.7426722" lon="10.7149028" version="1" timestamp="2019-05-10T06:30:07Z" changeset="70097478" uid="633013" user="Honning">
		<tag k="name" v="Fuglesang" />
		<tag k="place" v="farm" />
		<tag k="ssr:stedsnr" v="3947" />
	</node>
	<node id="6463615925" lat="59.7592813" lon="10.686555" version="1" timestamp="2019-05-10T06:30:07Z" changeset="70097478" uid="633013" user="Honning">
		<tag k="alt_name" v="Garder, vestre" />
		<tag k="name" v="Vestre Garder" />
		<tag k="place" v="farm" />
		<tag k="ssr:stedsnr" v="4600" />
	</node>
	<node id="6463615926" lat="59.7427833" lon="10.7203167" version="1" timestamp="2019-05-10T06:30:07Z" changeset="70097478" uid="633013" user="Honning">
		<tag k="name" v="Ånebakke" />
		<tag k="place" v="isolated_dwelling" />
		<tag k="ssr:stedsnr" v="25246" />
	</node>
	<node id="6463615927" lat="59.6846417" lon="10.7321139" version="1" timestamp="2019-05-10T06:30:07Z" changeset="70097478" uid="633013" user="Honning">
		<tag k="name" v="Sørbråten" />
		<tag k="place" v="farm" />
		<tag k="ssr:stedsnr" v="39311" />
	</node>
	<node id="6463615928" lat="59.7475861" lon="10.7156528" version="1" timestamp="2019-05-10T06:30:07Z" changeset="70097478" uid="633013" user="Honning">
		<tag k="name" v="Nordli" />
		<tag k="place" v="isolated_dwelling" />
		<tag k="ssr:stedsnr" v="39398" />
	</node>
	<node id="6463615929" lat="59.6558222" lon="10.6581444" version="1" timestamp="2019-05-10T06:30:07Z" changeset="70097478" uid="633013" user="Honning">
		<tag k="name" v="Nordre Øyerud hyttefelt" />
		<tag k="place" v="neighbourhood" />
		<tag k="ssr:stedsnr" v="39475" />
	</node>
	<node id="6463615930" lat="59.6551389" lon="10.6724861" version="1" timestamp="2019-05-10T06:30:07Z" changeset="70097478" uid="633013" user="Honning">
		<tag k="name" v="Kolstadbråten" />
		<tag k="place" v="locality" />
		<tag k="ssr:stedsnr" v="39477" />
	</node>
	<node id="6463615931" lat="59.7012222" lon="10.6026306" version="1" timestamp="2019-05-10T06:30:07Z" changeset="70097478" uid="633013" user="Honning">
		<tag k="name" v="Marikova" />
		<tag k="place" v="hamlet" />
		<tag k="ssr:stedsnr" v="39481" />
	</node>
	<node id="6463615932" lat="59.6643444" lon="10.6347417" version="1" timestamp="2019-05-10T06:30:07Z" changeset="70097478" uid="633013" user="Honning">
		<tag k="name" v="Holmåsen" />
		<tag k="place" v="quarter" />
		<tag k="ssr:stedsnr" v="58042" />
	</node>
	<node id="6463615933" lat="59.6927389" lon="10.7028778" version="1" timestamp="2019-05-10T06:30:07Z" changeset="70097478" uid="633013" user="Honning">
		<tag k="name" v="Østre Huseby" />
		<tag k="place" v="farm" />
		<tag k="ssr:stedsnr" v="58143" />
	</node>
	<node id="6463615934" lat="59.6750833" lon="10.6881667" version="1" timestamp="2019-05-10T06:30:07Z" changeset="70097478" uid="633013" user="Honning">
		<tag k="name" v="Nordre Ermesø" />
		<tag k="place" v="farm" />
		<tag k="ssr:stedsnr" v="58594" />
	</node>
	<node id="6463615935" lat="59.6868167" lon="10.6822528" version="1" timestamp="2019-05-10T06:30:07Z" changeset="70097478" uid="633013" user="Honning">
		<tag k="name" v="Glosli" />
		<tag k="place" v="farm" />
		<tag k="ssr:stedsnr" v="63769" />
	</node>
	<node id="6463615936" lat="59.6805028" lon="10.7079944" version="1" timestamp="2019-05-10T06:30:07Z" changeset="70097478" uid="633013" user="Honning">
		<tag k="name" v="Klunderud" />
		<tag k="place" v="farm" />
		<tag k="ssr:stedsnr" v="63840" />
	</node>
	<node id="6463615937" lat="59.7003972" lon="10.6589083" version="1" timestamp="2019-05-10T06:30:07Z" changeset="70097478" uid="633013" user="Honning">
		<tag k="name" v="Monsrud" />
		<tag k="place" v="farm" />
		<tag k="ssr:stedsnr" v="64759" />
	</node>
	<node id="6463615938" lat="59.697175" lon="10.6329472" version="1" timestamp="2019-05-10T06:30:07Z" changeset="70097478" uid="633013" user="Honning">
		<tag k="name" v="Holmen" />
		<tag k="place" v="hamlet" />
		<tag k="ssr:stedsnr" v="64767" />
	</node>
	<node id="6463615939" lat="59.7095167" lon="10.705275" version="1" timestamp="2019-05-10T06:30:07Z" changeset="70097478" uid="633013" user="Honning">
		<tag k="name" v="Stubberud" />
		<tag k="place" v="isolated_dwelling" />
		<tag k="ssr:stedsnr" v="64819" />
	</node>
	<node id="6463615940" lat="59.6753387" lon="10.688159" version="1" timestamp="2019-05-10T06:30:08Z" changeset="70097478" uid="633013" user="Honning">
		<tag k="name" v="Ermesø" />
		<tag k="place" v="hamlet" />
		<tag k="ssr:stedsnr" v="64873" />
	</node>
	<node id="6463615941" lat="59.6772084" lon="10.6965341" version="1" timestamp="2019-05-10T06:30:08Z" changeset="70097478" uid="633013" user="Honning">
		<tag k="name" v="Berg" />
		<tag k="place" v="hamlet" />
		<tag k="ssr:stedsnr" v="64875" />
	</node>
	<node id="6463615942" lat="59.6674881" lon="10.6444192" version="1" timestamp="2019-05-10T06:30:08Z" changeset="70097478" uid="633013" user="Honning">
		<tag k="name" v="Ullerud" />
		<tag k="place" v="hamlet" />
		<tag k="ssr:stedsnr" v="64880" />
	</node>
	<node id="6463615943" lat="59.6998889" lon="10.6400806" version="1" timestamp="2019-05-10T06:30:08Z" changeset="70097478" uid="633013" user="Honning">
		<tag k="name" v="Kleiva" />
		<tag k="place" v="hamlet" />
		<tag k="ssr:stedsnr" v="85905" />
	</node>
	<node id="6463615944" lat="59.63037" lon="10.6632203" version="1" timestamp="2019-05-10T06:30:08Z" changeset="70097478" uid="633013" user="Honning">
		<tag k="name" v="Kroksrudsand" />
		<tag k="place" v="hamlet" />
		<tag k="ssr:stedsnr" v="86022" />
	</node>
	<node id="6463615945" lat="59.6385167" lon="10.643825" version="1" timestamp="2019-05-10T06:30:08Z" changeset="70097478" uid="633013" user="Honning">
		<tag k="name" v="Skiphelle" />
		<tag k="ssr:stedsnr" v="86021" />
		<tag k="tourism" v="hotel" />
	</node>
	<node id="6463615946" lat="59.6920528" lon="10.61065" version="1" timestamp="2019-05-10T06:30:08Z" changeset="70097478" uid="633013" user="Honning">
		<tag k="name" v="Langebåtfeltet" />
		<tag k="place" v="hamlet" />
		<tag k="ssr:stedsnr" v="95782" />
	</node>
	<node id="6463615947" lat="59.7492278" lon="10.6491361" version="1" timestamp="2019-05-10T06:30:08Z" changeset="70097478" uid="633013" user="Honning">
		<tag k="name" v="Østre Kopperud" />
		<tag k="place" v="farm" />
		<tag k="ssr:stedsnr" v="99459" />
	</node>
	<node id="6463615948" lat="59.7122861" lon="10.6635139" version="1" timestamp="2019-05-10T06:30:08Z" changeset="70097478" uid="633013" user="Honning">
		<tag k="name" v="Skyssrudfeltet" />
		<tag k="place" v="quarter" />
		<tag k="ssr:stedsnr" v="100367" />
	</node>
	<node id="6463615949" lat="59.7449417" lon="10.6882" version="1" timestamp="2019-05-10T06:30:08Z" changeset="70097478" uid="633013" user="Honning">
		<tag k="name" v="Hagan" />
		<tag k="place" v="isolated_dwelling" />
		<tag k="ssr:stedsnr" v="403423" />
	</node>
	<node id="6463615950" lat="59.7198" lon="10.6205722" version="1" timestamp="2019-05-10T06:30:08Z" changeset="70097478" uid="633013" user="Honning">
		<tag k="name" v="Østskogen" />
		<tag k="place" v="hamlet" />
		<tag k="ssr:stedsnr" v="100439" />
	</node>
	<node id="6463615951" lat="59.6744222" lon="10.6222694" version="1" timestamp="2019-05-10T06:30:08Z" changeset="70097478" uid="633013" user="Honning">
		<tag k="name" v="Husvik" />
		<tag k="place" v="isolated_dwelling" />
		<tag k="ssr:stedsnr" v="100442" />
	</node>
	<node id="6463615952" lat="59.7374917" lon="10.6409806" version="1" timestamp="2019-05-10T06:30:08Z" changeset="70097478" uid="633013" user="Honning">
		<tag k="name" v="Mellom-Gulbjørnrud" />
		<tag k="place" v="farm" />
		<tag k="ssr:stedsnr" v="100464" />
	</node>
	<node id="6463615953" lat="59.6298278" lon="10.6633333" version="1" timestamp="2019-05-10T06:30:08Z" changeset="70097478" uid="633013" user="Honning">
		<tag k="name" v="Nedre Kroksrudsand" />
		<tag k="place" v="farm" />
		<tag k="ssr:stedsnr" v="100499" />
	</node>
	<node id="6463615955" lat="59.6999494" lon="10.7181683" version="1" timestamp="2019-05-10T06:30:08Z" changeset="70097478" uid="633013" user="Honning">
		<tag k="name" v="Frogn" />
		<tag k="place" v="farm" />
		<tag k="ssr:stedsnr" v="125416" />
	</node>
	<node id="6463615956" lat="59.6755" lon="10.6482111" version="1" timestamp="2019-05-10T06:30:08Z" changeset="70097478" uid="633013" user="Honning">
		<tag k="name" v="Søndre Belsjø" />
		<tag k="place" v="farm" />
		<tag k="ssr:stedsnr" v="118380" />
	</node>
	<node id="6463615957" lat="59.6552361" lon="10.6427972" version="1" timestamp="2019-05-10T06:30:08Z" changeset="70097478" uid="633013" user="Honning">
		<tag k="name" v="Søndre Sogsti" />
		<tag k="place" v="farm" />
		<tag k="ssr:stedsnr" v="118515" />
	</node>
	<node id="6463615958" lat="59.6653778" lon="10.628275" version="1" timestamp="2019-05-10T06:30:08Z" changeset="70097478" uid="633013" user="Honning">
		<tag k="amenity" v="nursing_home" />
		<tag k="name" v="Frogn eldresenter" />
		<tag k="ssr:stedsnr" v="118519" />
	</node>
	<node id="6463615959" lat="59.6629083" lon="10.6694833" version="1" timestamp="2019-05-10T06:30:08Z" changeset="70097478" uid="633013" user="Honning">
		<tag k="name" v="Nordre Skorkeberg" />
		<tag k="place" v="farm" />
		<tag k="ssr:stedsnr" v="118538" />
	</node>
	<node id="6463615960" lat="59.6426306" lon="10.6503083" version="1" timestamp="2019-05-10T06:30:09Z" changeset="70097478" uid="633013" user="Honning">
		<tag k="name" v="Leiumåsen" />
		<tag k="place" v="quarter" />
		<tag k="ssr:stedsnr" v="118953" />
	</node>
	<node id="6463615961" lat="59.7517927" lon="10.6457993" version="3" timestamp="2019-05-14T05:08:47Z" changeset="70217030" uid="3497659" user="NKA">
		<tag k="name" v="Gamle Dal skole" />
		<tag k="place" v="locality" />
		<tag k="ssr:stedsnr" v="888641" />
		<tag k="was:amenity" v="school" />
	</node>
	<node id="6463615962" lat="59.6175639" lon="10.6564889" version="1" timestamp="2019-05-10T06:30:09Z" changeset="70097478" uid="633013" user="Honning">
		<tag k="name" v="Køyta" />
		<tag k="place" v="isolated_dwelling" />
		<tag k="ssr:stedsnr" v="119865" />
	</node>
	<node id="6463615963" lat="59.68735" lon="10.6651556" version="1" timestamp="2019-05-10T06:30:09Z" changeset="70097478" uid="633013" user="Honning">
		<tag k="name" v="Ottarsrud" />
		<tag k="place" v="farm" />
		<tag k="ssr:stedsnr" v="124723" />
	</node>
	<node id="6463615964" lat="59.7459463" lon="10.6992146" version="1" timestamp="2019-05-10T06:30:09Z" changeset="70097478" uid="633013" user="Honning">
		<tag k="name" v="Dal" />
		<tag k="place" v="hamlet" />
		<tag k="ssr:stedsnr" v="124932" />
	</node>
	<node id="6463615965" lat="59.750775" lon="10.6618139" version="1" timestamp="2019-05-10T06:30:09Z" changeset="70097478" uid="633013" user="Honning">
		<tag k="name" v="Myrvoll" />
		<tag k="place" v="isolated_dwelling" />
		<tag k="ssr:stedsnr" v="126597" />
	</node>
	<node id="6463615966" lat="59.7056639" lon="10.6629028" version="1" timestamp="2019-05-10T06:30:09Z" changeset="70097478" uid="633013" user="Honning">
		<tag k="name" v="Holthagen" />
		<tag k="place" v="farm" />
		<tag k="ssr:stedsnr" v="160408" />
	</node>
	<node id="6463615967" lat="59.6829417" lon="10.700675" version="1" timestamp="2019-05-10T06:30:09Z" changeset="70097478" uid="633013" user="Honning">
		<tag k="name" v="Søndre Rød" />
		<tag k="place" v="farm" />
		<tag k="ssr:stedsnr" v="160127" />
	</node>
	<node id="6463615968" lat="59.7664917" lon="10.6948444" version="1" timestamp="2019-05-10T06:30:09Z" changeset="70097478" uid="633013" user="Honning">
		<tag k="name" v="Høyendal" />
		<tag k="place" v="isolated_dwelling" />
		<tag k="ssr:stedsnr" v="160255" />
	</node>
	<node id="6463615969" lat="59.7711472" lon="10.6827722" version="1" timestamp="2019-05-10T06:30:09Z" changeset="70097478" uid="633013" user="Honning">
		<tag k="name" v="Nordre Gullerud" />
		<tag k="place" v="farm" />
		<tag k="ssr:stedsnr" v="160257" />
	</node>
	<node id="6463615970" lat="59.7043361" lon="10.7357806" version="1" timestamp="2019-05-10T06:30:09Z" changeset="70097478" uid="633013" user="Honning">
		<tag k="name" v="Frydenlund" />
		<tag k="place" v="farm" />
		<tag k="ssr:stedsnr" v="160339" />
	</node>
	<node id="6463615971" lat="59.71825" lon="10.6253861" version="1" timestamp="2019-05-10T06:30:09Z" changeset="70097478" uid="633013" user="Honning">
		<tag k="name" v="Nordre Hallangen" />
		<tag k="place" v="hamlet" />
		<tag k="ssr:stedsnr" v="160342" />
	</node>
	<node id="6463615972" lat="59.7048056" lon="10.6283417" version="1" timestamp="2019-05-10T06:30:09Z" changeset="70097478" uid="633013" user="Honning">
		<tag k="name" v="Høybråtenfeltet" />
		<tag k="place" v="quarter" />
		<tag k="ssr:stedsnr" v="160349" />
	</node>
	<node id="6463615973" lat="59.6762" lon="10.6491167" version="1" timestamp="2019-05-10T06:30:09Z" changeset="70097478" uid="633013" user="Honning">
		<tag k="name" v="Nordre Belsjø" />
		<tag k="place" v="isolated_dwelling" />
		<tag k="ssr:stedsnr" v="403444" />
	</node>
	<node id="6463615974" lat="59.7379722" lon="10.6798611" version="1" timestamp="2019-05-10T06:30:09Z" changeset="70097478" uid="633013" user="Honning">
		<tag k="name" v="Møglestu" />
		<tag k="place" v="isolated_dwelling" />
		<tag k="ssr:stedsnr" v="160382" />
	</node>
	<node id="6463615975" lat="59.6330667" lon="10.66855" version="1" timestamp="2019-05-10T06:30:09Z" changeset="70097478" uid="633013" user="Honning">
		<tag k="name" v="Øvre Kroksrud" />
		<tag k="place" v="farm" />
		<tag k="ssr:stedsnr" v="160451" />
	</node>
	<node id="6463615976" lat="59.6871028" lon="10.6794972" version="1" timestamp="2019-05-10T06:30:09Z" changeset="70097478" uid="633013" user="Honning">
		<tag k="name" v="Øvre Tomter" />
		<tag k="place" v="farm" />
		<tag k="ssr:stedsnr" v="179149" />
	</node>
	<node id="6463615977" lat="59.7029833" lon="10.7045" version="1" timestamp="2019-05-10T06:30:09Z" changeset="70097478" uid="633013" user="Honning">
		<tag k="name" v="Skjønhaug" />
		<tag k="place" v="farm" />
		<tag k="ssr:stedsnr" v="185729" />
	</node>
	<node id="6463615978" lat="59.6892639" lon="10.6895556" version="1" timestamp="2019-05-10T06:30:09Z" changeset="70097478" uid="633013" user="Honning">
		<tag k="name" v="Mellom-Roksrud" />
		<tag k="place" v="farm" />
		<tag k="ssr:stedsnr" v="240157" />
	</node>
	<node id="6463615979" lat="59.7601444" lon="10.706125" version="1" timestamp="2019-05-10T06:30:10Z" changeset="70097478" uid="633013" user="Honning">
		<tag k="alt_name" v="Glenne, nedre" />
		<tag k="name" v="Nedre Glenne" />
		<tag k="place" v="farm" />
		<tag k="ssr:stedsnr" v="186653" />
	</node>
	<node id="6463615980" lat="59.673525" lon="10.6070778" version="1" timestamp="2019-05-10T06:30:10Z" changeset="70097478" uid="633013" user="Honning">
		<tag k="landuse" v="military" />
		<tag k="name" v="Oscarsborg" />
		<tag k="ssr:stedsnr" v="186859" />
	</node>
	<node id="6463615981" lat="59.6893161" lon="10.6762254" version="1" timestamp="2019-05-10T06:30:10Z" changeset="70097478" uid="633013" user="Honning">
		<tag k="name" v="Oppegård" />
		<tag k="place" v="hamlet" />
		<tag k="ssr:stedsnr" v="306751" />
	</node>
	<node id="6463615982" lat="59.7364333" lon="10.7154167" version="1" timestamp="2019-05-10T06:30:10Z" changeset="70097478" uid="633013" user="Honning">
		<tag k="name" v="Øvre Knardal" />
		<tag k="place" v="farm" />
		<tag k="ssr:stedsnr" v="282418" />
	</node>
	<node id="6463615983" lat="59.7303972" lon="10.7079583" version="1" timestamp="2019-05-10T06:30:10Z" changeset="70097478" uid="633013" user="Honning">
		<tag k="name" v="Østre Bøler" />
		<tag k="place" v="farm" />
		<tag k="ssr:stedsnr" v="221451" />
	</node>
	<node id="6463615984" lat="59.6838333" lon="10.7012889" version="1" timestamp="2019-05-10T06:30:10Z" changeset="70097478" uid="633013" user="Honning">
		<tag k="name" v="Nordre Rød" />
		<tag k="place" v="farm" />
		<tag k="ssr:stedsnr" v="221135" />
	</node>
	<node id="6463616185" lat="59.7578306" lon="10.671975" version="1" timestamp="2019-05-10T06:30:10Z" changeset="70097478" uid="633013" user="Honning">
		<tag k="name" v="Nordre Kai" />
		<tag k="place" v="farm" />
		<tag k="ssr:stedsnr" v="221274" />
	</node>
	<node id="6463616186" lat="59.7351639" lon="10.6924361" version="1" timestamp="2019-05-10T06:30:10Z" changeset="70097478" uid="633013" user="Honning">
		<tag k="alt_name" v="Dal, søndre" />
		<tag k="name" v="Søndre Dal" />
		<tag k="place" v="farm" />
		<tag k="ssr:stedsnr" v="367950" />
	</node>
	<node id="6463616187" lat="59.7477611" lon="10.6980056" version="1" timestamp="2019-05-10T06:30:10Z" changeset="70097478" uid="633013" user="Honning">
		<tag k="name" v="Vestre Dal" />
		<tag k="place" v="farm" />
		<tag k="ssr:stedsnr" v="221408" />
	</node>
	<node id="6463616188" lat="59.7122972" lon="10.6503944" version="1" timestamp="2019-05-10T06:30:10Z" changeset="70097478" uid="633013" user="Honning">
		<tag k="alt_name" v="Holtberget" />
		<tag k="name" v="Berget" />
		<tag k="place" v="farm" />
		<tag k="ssr:stedsnr" v="221570" />
	</node>
	<node id="6463616189" lat="59.7698722" lon="10.7119861" version="1" timestamp="2019-05-10T06:30:10Z" changeset="70097478" uid="633013" user="Honning">
		<tag k="name" v="Skirstad" />
		<tag k="place" v="farm" />
		<tag k="ssr:stedsnr" v="221589" />
	</node>
	<node id="6463616190" lat="59.70285" lon="10.6178667" version="1" timestamp="2019-05-10T06:30:10Z" changeset="70097478" uid="633013" user="Honning">
		<tag k="name" v="Søndre Hallangen" />
		<tag k="place" v="farm" />
		<tag k="ssr:stedsnr" v="221865" />
	</node>
	<node id="6463616191" lat="59.649525" lon="10.6462444" version="1" timestamp="2019-05-10T06:30:10Z" changeset="70097478" uid="633013" user="Honning">
		<tag k="name" v="Nordre Elle" />
		<tag k="place" v="farm" />
		<tag k="ssr:stedsnr" v="221991" />
	</node>
	<node id="6463616192" lat="59.661775" lon="10.6390167" version="1" timestamp="2019-05-10T06:30:10Z" changeset="70097478" uid="633013" user="Honning">
		<tag k="name" v="Tverkjegla" />
		<tag k="place" v="farm" />
		<tag k="ssr:stedsnr" v="240041" />
	</node>
	<node id="6463616193" lat="59.6310111" lon="10.6465278" version="1" timestamp="2019-05-10T06:30:10Z" changeset="70097478" uid="633013" user="Honning">
		<tag k="name" v="Søndre Eikeberg hyttefelt" />
		<tag k="place" v="neighbourhood" />
		<tag k="ssr:stedsnr" v="282421" />
	</node>
	<node id="6463616194" lat="59.7328306" lon="10.7065333" version="1" timestamp="2019-05-10T06:30:10Z" changeset="70097478" uid="633013" user="Honning">
		<tag k="name" v="Bølerbråten" />
		<tag k="place" v="farm" />
		<tag k="ssr:stedsnr" v="240466" />
	</node>
	<node id="6463616195" lat="59.6565083" lon="10.6401444" version="1" timestamp="2019-05-10T06:30:10Z" changeset="70097478" uid="633013" user="Honning">
		<tag k="name" v="Nordre Sogsti" />
		<tag k="place" v="farm" />
		<tag k="ssr:stedsnr" v="240576" />
	</node>
	<node id="6463616196" lat="59.6640389" lon="10.68365" version="1" timestamp="2019-05-10T06:30:10Z" changeset="70097478" uid="633013" user="Honning">
		<tag k="name" v="Nordre Fjøser" />
		<tag k="place" v="farm" />
		<tag k="ssr:stedsnr" v="240629" />
	</node>
	<node id="6463616197" lat="59.7123556" lon="10.6465222" version="1" timestamp="2019-05-10T06:30:10Z" changeset="70097478" uid="633013" user="Honning">
		<tag k="name" v="Pollen" />
		<tag k="place" v="isolated_dwelling" />
		<tag k="ssr:stedsnr" v="240642" />
	</node>
	<node id="6463616198" lat="59.7194833" lon="10.5876778" version="1" timestamp="2019-05-10T06:30:11Z" changeset="70097478" uid="633013" user="Honning">
		<tag k="name" v="Digerud" />
		<tag k="place" v="isolated_dwelling" />
		<tag k="ssr:stedsnr" v="240904" />
	</node>
	<node id="6463616199" lat="59.6805167" lon="10.6650305" version="1" timestamp="2019-05-10T06:30:11Z" changeset="70097478" uid="633013" user="Honning">
		<tag k="name" v="Gislerud" />
		<tag k="place" v="farm" />
		<tag k="ssr:stedsnr" v="245748" />
	</node>
	<node id="6463616200" lat="59.7306222" lon="10.6877083" version="1" timestamp="2019-05-10T06:30:11Z" changeset="70097478" uid="633013" user="Honning">
		<tag k="alt_name" v="Dal, østre;Østre Dal" />
		<tag k="name" v="Øvre Dal" />
		<tag k="place" v="farm" />
		<tag k="ssr:stedsnr" v="246748" />
	</node>
	<node id="6463616201" lat="59.6351472" lon="10.6488583" version="1" timestamp="2019-05-10T06:30:11Z" changeset="70097478" uid="633013" user="Honning">
		<tag k="name" v="Nordre Eikeberg hyttefelt" />
		<tag k="place" v="neighbourhood" />
		<tag k="ssr:stedsnr" v="282425" />
	</node>
	<node id="6463616202" lat="59.672375" lon="10.6674833" version="1" timestamp="2019-05-10T06:30:11Z" changeset="70097478" uid="633013" user="Honning">
		<tag k="alt_name" v="Tomta" />
		<tag k="name" v="Kykkelsrud" />
		<tag k="place" v="farm" />
		<tag k="ssr:stedsnr" v="246840" />
	</node>
	<node id="6463616203" lat="59.7524111" lon="10.7118917" version="1" timestamp="2019-05-10T06:30:11Z" changeset="70097478" uid="633013" user="Honning">
		<tag k="name" v="Brevik" />
		<tag k="place" v="hamlet" />
		<tag k="ssr:stedsnr" v="247581" />
	</node>
	<node id="6463616204" lat="59.758125" lon="10.7021472" version="1" timestamp="2019-05-10T06:30:11Z" changeset="70097478" uid="633013" user="Honning">
		<tag k="alt_name" v="Glenne, øvre" />
		<tag k="name" v="Øvre Glenne" />
		<tag k="place" v="farm" />
		<tag k="ssr:stedsnr" v="247585" />
	</node>
	<node id="6463616205" lat="59.769525" lon="10.7130833" version="1" timestamp="2019-05-10T06:30:11Z" changeset="70097478" uid="633013" user="Honning">
		<tag k="name" v="Solbukta" />
		<tag k="place" v="isolated_dwelling" />
		<tag k="ssr:stedsnr" v="247606" />
	</node>
	<node id="6463616206" lat="59.7680611" lon="10.691575" version="1" timestamp="2019-05-10T06:30:11Z" changeset="70097478" uid="633013" user="Honning">
		<tag k="alt_name" v="Garder" />
		<tag k="name" v="Nedre Garder" />
		<tag k="place" v="farm" />
		<tag k="ssr:stedsnr" v="247623" />
	</node>
	<node id="6463616207" lat="59.6945833" lon="10.7075556" version="1" timestamp="2019-05-10T06:30:11Z" changeset="70097478" uid="633013" user="Honning">
		<tag k="name" v="Søndre Bjerke" />
		<tag k="place" v="farm" />
		<tag k="ssr:stedsnr" v="422123" />
	</node>
	<node id="6463616208" lat="59.6896833" lon="10.6941056" version="1" timestamp="2019-05-10T06:30:11Z" changeset="70097478" uid="633013" user="Honning">
		<tag k="name" v="Bilitt" />
		<tag k="place" v="farm" />
		<tag k="ssr:stedsnr" v="422143" />
	</node>
	<node id="6463616209" lat="59.6705861" lon="10.6719222" version="1" timestamp="2019-05-10T06:30:11Z" changeset="70097478" uid="633013" user="Honning">
		<tag k="name" v="Kykkelsrudbråten" />
		<tag k="place" v="farm" />
		<tag k="ssr:stedsnr" v="422590" />
	</node>
	<node id="6463616210" lat="59.6868899" lon="10.6757738" version="1" timestamp="2019-05-10T06:30:11Z" changeset="70097478" uid="633013" user="Honning">
		<tag k="name" v="Tomter" />
		<tag k="place" v="hamlet" />
		<tag k="ssr:stedsnr" v="428764" />
	</node>
	<node id="6463616211" lat="59.715425" lon="10.7143555" version="1" timestamp="2019-05-10T06:30:11Z" changeset="70097478" uid="633013" user="Honning">
		<tag k="name" v="Bonn" />
		<tag k="place" v="farm" />
		<tag k="ssr:stedsnr" v="428803" />
	</node>
	<node id="6463616212" lat="59.7207528" lon="10.6657833" version="1" timestamp="2019-05-10T06:30:11Z" changeset="70097478" uid="633013" user="Honning">
		<tag k="name" v="Havsjødalen" />
		<tag k="place" v="farm" />
		<tag k="ssr:stedsnr" v="428805" />
	</node>
	<node id="6463616213" lat="59.6740139" lon="10.6549583" version="1" timestamp="2019-05-10T06:30:11Z" changeset="70097478" uid="633013" user="Honning">
		<tag k="name" v="Dyrløkke" />
		<tag k="place" v="suburb" />
		<tag k="ssr:stedsnr" v="428861" />
	</node>
	<node id="6463616214" lat="59.6688917" lon="10.6723" version="1" timestamp="2019-05-10T06:30:11Z" changeset="70097478" uid="633013" user="Honning">
		<tag k="name" v="Espely" />
		<tag k="place" v="farm" />
		<tag k="ssr:stedsnr" v="429874" />
	</node>
	<node id="6463616215" lat="59.7497806" lon="10.6476069" version="1" timestamp="2019-05-10T06:30:11Z" changeset="70097478" uid="633013" user="Honning">
		<tag k="name" v="Kopperud" />
		<tag k="place" v="hamlet" />
		<tag k="ssr:stedsnr" v="430512" />
	</node>
	<node id="6463616216" lat="59.7232722" lon="10.58775" version="1" timestamp="2019-05-10T06:30:12Z" changeset="70097478" uid="633013" user="Honning">
		<tag k="name" v="Hethol" />
		<tag k="place" v="farm" />
		<tag k="ssr:stedsnr" v="450117" />
	</node>
	<node id="6463616217" lat="59.7279917" lon="10.7249278" version="1" timestamp="2019-05-10T06:30:12Z" changeset="70097478" uid="633013" user="Honning">
		<tag k="name" v="England" />
		<tag k="place" v="isolated_dwelling" />
		<tag k="ssr:stedsnr" v="450229" />
	</node>
	<node id="6463616218" lat="59.7426246" lon="10.715118" version="1" timestamp="2019-05-10T06:30:12Z" changeset="70097478" uid="633013" user="Honning">
		<tag k="name" v="Fuglesang feriehjem" />
		<tag k="ssr:stedsnr" v="451468" />
		<tag k="tourism" v="guest_house" />
	</node>
	<node id="6463616219" lat="59.6871583" lon="10.7067167" version="1" timestamp="2019-05-10T06:30:12Z" changeset="70097478" uid="633013" user="Honning">
		<tag k="name" v="Rødsholtet" />
		<tag k="place" v="hamlet" />
		<tag k="ssr:stedsnr" v="463140" />
	</node>
	<node id="6463616220" lat="59.7472639" lon="10.6481333" version="1" timestamp="2019-05-10T06:30:12Z" changeset="70097478" uid="633013" user="Honning">
		<tag k="name" v="Søndre Kopperud" />
		<tag k="place" v="farm" />
		<tag k="ssr:stedsnr" v="463428" />
	</node>
	<node id="6463616221" lat="59.7692139" lon="10.6983639" version="1" timestamp="2019-05-10T06:30:12Z" changeset="70097478" uid="633013" user="Honning">
		<tag k="name" v="Garderbråtan" />
		<tag k="place" v="farm" />
		<tag k="ssr:stedsnr" v="463651" />
	</node>
	<node id="6463616223" lat="59.6913167" lon="10.699625" version="1" timestamp="2019-05-10T06:30:12Z" changeset="70097478" uid="633013" user="Honning">
		<tag k="name" v="Mellom-Huseby" />
		<tag k="place" v="farm" />
		<tag k="ssr:stedsnr" v="482118" />
	</node>
	<node id="6463616224" lat="59.6882194" lon="10.6878306" version="1" timestamp="2019-05-10T06:30:12Z" changeset="70097478" uid="633013" user="Honning">
		<tag k="name" v="Ødegården" />
		<tag k="place" v="farm" />
		<tag k="ssr:stedsnr" v="482138" />
	</node>
	<node id="6463616225" lat="59.6963361" lon="10.6990806" version="1" timestamp="2019-05-10T06:30:12Z" changeset="70097478" uid="633013" user="Honning">
		<tag k="name" v="Husebyhagen" />
		<tag k="place" v="farm" />
		<tag k="ssr:stedsnr" v="482220" />
	</node>
	<node id="6463616226" lat="59.6710778" lon="10.7012444" version="1" timestamp="2019-05-10T06:30:12Z" changeset="70097478" uid="633013" user="Honning">
		<tag k="name" v="Mellom-Furu" />
		<tag k="place" v="farm" />
		<tag k="ssr:stedsnr" v="482585" />
	</node>
	<node id="6463616227" lat="59.7083806" lon="10.7488028" version="1" timestamp="2019-05-10T06:30:12Z" changeset="70097478" uid="633013" user="Honning">
		<tag k="alt_name" v="Stokkholm" />
		<tag k="name" v="Stokholm" />
		<tag k="place" v="farm" />
		<tag k="ssr:stedsnr" v="488563" />
	</node>
	<node id="6463616228" lat="59.7027917" lon="10.6521667" version="1" timestamp="2019-05-10T06:30:12Z" changeset="70097478" uid="633013" user="Honning">
		<tag k="alt_name" v="Snerrevik;Sperrvik" />
		<tag k="name" v="Sperrevik" />
		<tag k="place" v="farm" />
		<tag k="ssr:stedsnr" v="488744" />
	</node>
	<node id="6463616229" lat="59.6587694" lon="10.6733195" version="1" timestamp="2019-05-10T06:30:12Z" changeset="70097478" uid="633013" user="Honning">
		<tag k="name" v="Kolstad" />
		<tag k="place" v="farm" />
		<tag k="ssr:stedsnr" v="489827" />
	</node>
	<node id="6463616231" lat="59.7011028" lon="10.5612333" version="1" timestamp="2019-05-10T06:30:12Z" changeset="70097478" uid="633013" user="Honning">
		<tag k="name" v="Håøya" />
		<tag k="place" v="isolated_dwelling" />
		<tag k="ssr:stedsnr" v="511116" />
	</node>
	<node id="6463616232" lat="59.6921556" lon="10.7343861" version="1" timestamp="2019-05-10T06:30:12Z" changeset="70097478" uid="633013" user="Honning">
		<tag k="name" v="Årungstua" />
		<tag k="place" v="isolated_dwelling" />
		<tag k="ssr:stedsnr" v="524327" />
	</node>
	<node id="6463616233" lat="59.726175" lon="10.5927806" version="1" timestamp="2019-05-10T06:30:12Z" changeset="70097478" uid="633013" user="Honning">
		<tag k="alt_name" v="Åstvet" />
		<tag k="name" v="Søndre Sandvika" />
		<tag k="place" v="isolated_dwelling" />
		<tag k="ssr:stedsnr" v="282885" />
	</node>
	<node id="6463616234" lat="59.7696361" lon="10.7031778" version="1" timestamp="2019-05-10T06:30:12Z" changeset="70097478" uid="633013" user="Honning">
		<tag k="name" v="Brattås" />
		<tag k="place" v="isolated_dwelling" />
		<tag k="ssr:stedsnr" v="342569" />
	</node>
	<node id="6463616236" lat="59.6453194" lon="10.65555" version="1" timestamp="2019-05-10T06:30:13Z" changeset="70097478" uid="633013" user="Honning">
		<tag k="name" v="Sørli" />
		<tag k="place" v="isolated_dwelling" />
		<tag k="ssr:stedsnr" v="543131" />
	</node>
	<node id="6463616239" lat="59.6620917" lon="10.6696361" version="1" timestamp="2019-05-10T06:30:13Z" changeset="70097478" uid="633013" user="Honning">
		<tag k="name" v="Søndre Skorkeberg" />
		<tag k="place" v="farm" />
		<tag k="ssr:stedsnr" v="543577" />
	</node>
	<node id="6463616240" lat="59.7687333" lon="10.7084389" version="1" timestamp="2019-05-10T06:30:13Z" changeset="70097478" uid="633013" user="Honning">
		<tag k="name" v="Søndre Haslum" />
		<tag k="place" v="farm" />
		<tag k="ssr:stedsnr" v="545514;389266" />
	</node>
	<node id="6463616241" lat="59.7418167" lon="10.6370472" version="1" timestamp="2019-05-10T06:30:13Z" changeset="70097478" uid="633013" user="Honning">
		<tag k="name" v="Gulbjørnrud" />
		<tag k="place" v="farm" />
		<tag k="ssr:stedsnr" v="645453;549967" />
	</node>
	<node id="6463616242" lat="59.6627617" lon="10.6685764" version="1" timestamp="2019-05-10T06:30:13Z" changeset="70097478" uid="633013" user="Honning">
		<tag k="name" v="Skorkeberg" />
		<tag k="place" v="hamlet" />
		<tag k="ssr:stedsnr" v="550863" />
	</node>
	<node id="6463616243" lat="59.7575" lon="10.672075" version="1" timestamp="2019-05-10T06:30:13Z" changeset="70097478" uid="633013" user="Honning">
		<tag k="name" v="Kai" />
		<tag k="place" v="hamlet" />
		<tag k="ssr:stedsnr" v="551601" />
	</node>
	<node id="6463616244" lat="59.6900583" lon="10.6195083" version="1" timestamp="2019-05-10T06:30:13Z" changeset="70097478" uid="633013" user="Honning">
		<tag k="name" v="Tiurlia" />
		<tag k="place" v="hamlet" />
		<tag k="ssr:stedsnr" v="559805" />
	</node>
	<node id="6463616245" lat="59.61875" lon="10.6516" version="1" timestamp="2019-05-10T06:30:13Z" changeset="70097478" uid="633013" user="Honning">
		<tag k="name" v="Børrebråten" />
		<tag k="place" v="isolated_dwelling" />
		<tag k="ssr:stedsnr" v="571006" />
	</node>
	<node id="6463616246" lat="59.6530278" lon="10.6355028" version="1" timestamp="2019-05-10T06:30:13Z" changeset="70097478" uid="633013" user="Honning">
		<tag k="name" v="Løkkedal" />
		<tag k="place" v="isolated_dwelling" />
		<tag k="ssr:stedsnr" v="571023" />
	</node>
	<node id="6463616247" lat="59.7458222" lon="10.6993667" version="1" timestamp="2019-05-10T06:30:13Z" changeset="70097478" uid="633013" user="Honning">
		<tag k="alt_name" v="Dal, nordre" />
		<tag k="name" v="Nordre Dal" />
		<tag k="place" v="farm" />
		<tag k="ssr:stedsnr" v="584454" />
	</node>
	<node id="6463616249" lat="59.7056194" lon="10.6365056" version="1" timestamp="2019-05-10T06:30:13Z" changeset="70097478" uid="633013" user="Honning">
		<tag k="name" v="Strandmyr" />
		<tag k="place" v="isolated_dwelling" />
		<tag k="ssr:stedsnr" v="585350" />
	</node>
	<node id="6463616250" lat="59.7196806" lon="10.6077083" version="1" timestamp="2019-05-10T06:30:13Z" changeset="70097478" uid="633013" user="Honning">
		<tag k="name" v="Søndre Digerud" />
		<tag k="place" v="farm" />
		<tag k="ssr:stedsnr" v="585410" />
	</node>
	<node id="6463616251" lat="59.6881833" lon="10.6687667" version="1" timestamp="2019-05-10T06:30:13Z" changeset="70097478" uid="633013" user="Honning">
		<tag k="name" v="Hagen" />
		<tag k="place" v="isolated_dwelling" />
		<tag k="ssr:stedsnr" v="300140" />
	</node>
	<node id="6463616252" lat="59.6688778" lon="10.6348556" version="2" timestamp="2021-02-05T12:09:57Z" changeset="98766978" uid="4944916" user="Something B">
		<tag k="leisure" v="sports_centre" />
		<tag k="name" v="Frognhallen" />
		<tag k="ssr:stedsnr" v="603045" />
	</node>
	<node id="6463616253" lat="59.6895361" lon="10.6755139" version="1" timestamp="2019-05-10T06:30:13Z" changeset="70097478" uid="633013" user="Honning">
		<tag k="name" v="Vestre Oppegård" />
		<tag k="place" v="farm" />
		<tag k="ssr:stedsnr" v="603124" />
	</node>
	<node id="6463616254" lat="59.6735139" lon="10.6070778" version="1" timestamp="2019-05-10T06:30:13Z" changeset="70097478" uid="633013" user="Honning">
		<tag k="landuse" v="military" />
		<tag k="name" v="Søndre Oscarsborg" />
		<tag k="ssr:stedsnr" v="603384" />
	</node>
	<node id="6463616255" lat="59.6909139" lon="10.7284944" version="1" timestamp="2019-05-10T06:30:14Z" changeset="70097478" uid="633013" user="Honning">
		<tag k="name" v="Nordre Horgen" />
		<tag k="place" v="farm" />
		<tag k="ssr:stedsnr" v="645354" />
	</node>
	<node id="6463616256" lat="59.6749528" lon="10.6793694" version="1" timestamp="2019-05-10T06:30:14Z" changeset="70097478" uid="633013" user="Honning">
		<tag k="name" v="Nordre Kykkelsrud" />
		<tag k="place" v="farm" />
		<tag k="ssr:stedsnr" v="603567" />
	</node>
	<node id="6463616257" lat="59.7361461" lon="10.7156425" version="1" timestamp="2019-05-10T06:30:14Z" changeset="70097478" uid="633013" user="Honning">
		<tag k="name" v="Knardal" />
		<tag k="place" v="hamlet" />
		<tag k="ssr:stedsnr" v="609960" />
	</node>
	<node id="6463616258" lat="59.73595" lon="10.681075" version="1" timestamp="2019-05-10T06:30:14Z" changeset="70097478" uid="633013" user="Honning">
		<tag k="alt_name" v="Slåttebråtan" />
		<tag k="name" v="Slåttebråten" />
		<tag k="place" v="farm" />
		<tag k="ssr:stedsnr" v="609972" />
	</node>
	<node id="6463616259" lat="59.7135778" lon="10.6632194" version="1" timestamp="2019-05-10T06:30:14Z" changeset="70097478" uid="633013" user="Honning">
		<tag k="name" v="Skyssrud" />
		<tag k="place" v="farm" />
		<tag k="ssr:stedsnr" v="610824" />
	</node>
	<node id="6463616260" lat="59.75205" lon="10.7051833" version="1" timestamp="2019-05-10T06:30:14Z" changeset="70097478" uid="633013" user="Honning">
		<tag k="name" v="Køya" />
		<tag k="old_name" v="Kjøya" />
		<tag k="place" v="farm" />
		<tag k="ssr:stedsnr" v="611608" />
	</node>
	<node id="6463616261" lat="59.6839778" lon="10.6597667" version="1" timestamp="2019-05-10T06:30:14Z" changeset="70097478" uid="633013" user="Honning">
		<tag k="name" v="Heer" />
		<tag k="place" v="suburb" />
		<tag k="ssr:stedsnr" v="630526" />
	</node>
	<node id="6463616262" lat="59.6908194" lon="10.6276639" version="1" timestamp="2019-05-10T06:30:14Z" changeset="70097478" uid="633013" user="Honning">
		<tag k="name" v="Ottarsrud" />
		<tag k="place" v="neighbourhood" />
		<tag k="ssr:stedsnr" v="640813" />
	</node>
	<node id="6463616263" lat="59.6842194" lon="10.68875" version="1" timestamp="2019-05-10T06:30:14Z" changeset="70097478" uid="633013" user="Honning">
		<tag k="name" v="Søndre Roksrud" />
		<tag k="place" v="farm" />
		<tag k="ssr:stedsnr" v="645140" />
	</node>
	<node id="6463616264" lat="59.7596722" lon="10.6866294" version="2" timestamp="2020-03-02T15:03:55Z" changeset="81686501" uid="9403796" user="SAShah01">
		<tag k="name" v="Garder" />
		<tag k="place" v="hamlet" />
		<tag k="ssr:stedsnr" v="645271" />
	</node>
	<node id="6463616265" lat="59.7176222" lon="10.7280222" version="1" timestamp="2019-05-10T06:30:14Z" changeset="70097478" uid="633013" user="Honning">
		<tag k="name" v="Fossen" />
		<tag k="place" v="locality" />
		<tag k="ssr:stedsnr" v="645375" />
	</node>
	<node id="6463616266" lat="59.7500861" lon="10.6508333" version="1" timestamp="2019-05-10T06:30:14Z" changeset="70097478" uid="633013" user="Honning">
		<tag k="name" v="Skjønhaug" />
		<tag k="place" v="farm" />
		<tag k="ssr:stedsnr" v="645414" />
	</node>
	<node id="6463616267" lat="59.7609806" lon="10.6546168" version="1" timestamp="2019-05-10T06:30:14Z" changeset="70097478" uid="633013" user="Honning">
		<tag k="name" v="Skog" />
		<tag k="place" v="hamlet" />
		<tag k="ssr:stedsnr" v="645415" />
	</node>
	<node id="6463616268" lat="59.7135333" lon="10.7006444" version="1" timestamp="2019-05-10T06:30:14Z" changeset="70097478" uid="633013" user="Honning">
		<tag k="name" v="Stubberudhytta" />
		<tag k="place" v="isolated_dwelling" />
		<tag k="ssr:stedsnr" v="645439" />
	</node>
	<node id="6463616269" lat="59.728475" lon="10.704375" version="1" timestamp="2019-05-10T06:30:14Z" changeset="70097478" uid="633013" user="Honning">
		<tag k="name" v="Vestre Bøler" />
		<tag k="place" v="farm" />
		<tag k="ssr:stedsnr" v="645462" />
	</node>
	<node id="6463616270" lat="59.6368174" lon="10.6746879" version="1" timestamp="2019-05-10T06:30:14Z" changeset="70097478" uid="633013" user="Honning">
		<tag k="name" v="Solberg" />
		<tag k="place" v="hamlet" />
		<tag k="ssr:stedsnr" v="307696" />
	</node>
	<node id="6463616271" lat="59.7231167" lon="10.5895917" version="1" timestamp="2019-05-10T06:30:14Z" changeset="70097478" uid="633013" user="Honning">
		<tag k="name" v="Digerud" />
		<tag k="place" v="hamlet" />
		<tag k="ssr:stedsnr" v="645519" />
	</node>
	<node id="6463616273" lat="59.6655917" lon="10.6369861" version="1" timestamp="2019-05-10T06:30:14Z" changeset="70097478" uid="633013" user="Honning">
		<tag k="name" v="Karlsrud" />
		<tag k="place" v="quarter" />
		<tag k="ssr:stedsnr" v="664037" />
	</node>
	<node id="6463616274" lat="59.6545528" lon="10.6327028" version="1" timestamp="2019-05-10T06:30:15Z" changeset="70097478" uid="633013" user="Honning">
		<tag k="name" v="Torkilsbyen" />
		<tag k="place" v="quarter" />
		<tag k="ssr:stedsnr" v="664098" />
	</node>
	<node id="6463616275" lat="59.7015722" lon="10.6949361" version="1" timestamp="2019-05-10T06:30:15Z" changeset="70097478" uid="633013" user="Honning">
		<tag k="name" v="Birkeli" />
		<tag k="place" v="farm" />
		<tag k="ssr:stedsnr" v="664214" />
	</node>
	<node id="6463616276" lat="59.7284694" lon="10.6899083" version="1" timestamp="2019-05-10T06:30:15Z" changeset="70097478" uid="633013" user="Honning">
		<tag k="name" v="Tusse" />
		<tag k="place" v="isolated_dwelling" />
		<tag k="ssr:stedsnr" v="670764" />
	</node>
	<node id="6463616277" lat="59.7419708" lon="10.6657748" version="1" timestamp="2019-05-10T06:30:15Z" changeset="70097478" uid="633013" user="Honning">
		<tag k="name" v="Lindebråte" />
		<tag k="place" v="hamlet" />
		<tag k="ssr:stedsnr" v="670944" />
	</node>
	<node id="6463616278" lat="59.7433639" lon="10.6977833" version="1" timestamp="2019-05-10T06:30:15Z" changeset="70097478" uid="633013" user="Honning">
		<tag k="alt_name" v="Dal, midtre;Mellom Dal" />
		<tag k="name" v="Midtre Dal" />
		<tag k="place" v="farm" />
		<tag k="ssr:stedsnr" v="670946" />
	</node>
	<node id="6463616279" lat="59.7531306" lon="10.691175" version="1" timestamp="2019-05-10T06:30:15Z" changeset="70097478" uid="633013" user="Honning">
		<tag k="name" v="Garderenga" />
		<tag k="place" v="farm" />
		<tag k="ssr:stedsnr" v="671601" />
	</node>
	<node id="6463616280" lat="59.6740083" lon="10.6601555" version="1" timestamp="2019-05-10T06:30:15Z" changeset="70097478" uid="633013" user="Honning">
		<tag k="name" v="Holter" />
		<tag k="place" v="farm" />
		<tag k="ssr:stedsnr" v="671856" />
	</node>
	<node id="6463616281" lat="59.7592444" lon="10.6934083" version="1" timestamp="2019-05-10T06:30:15Z" changeset="70097478" uid="633013" user="Honning">
		<tag k="alt_name" v="Garder, østre" />
		<tag k="name" v="Østre Garder" />
		<tag k="place" v="farm" />
		<tag k="ssr:stedsnr" v="672576" />
	</node>
	<node id="6463616282" lat="59.7613861" lon="10.6861111" version="1" timestamp="2019-05-10T06:30:15Z" changeset="70097478" uid="633013" user="Honning">
		<tag k="alt_name" v="Garder, nordre" />
		<tag k="name" v="Nordre Garder" />
		<tag k="place" v="farm" />
		<tag k="ssr:stedsnr" v="672579" />
	</node>
	<node id="6463616283" lat="59.7537639" lon="10.6640278" version="1" timestamp="2019-05-10T06:30:15Z" changeset="70097478" uid="633013" user="Honning">
		<tag k="name" v="Slottet" />
		<tag k="place" v="farm" />
		<tag k="ssr:stedsnr" v="672580" />
	</node>
	<node id="6463616284" lat="59.7662222" lon="10.6753861" version="1" timestamp="2019-05-10T06:30:15Z" changeset="70097478" uid="633013" user="Honning">
		<tag k="name" v="Skuterud" />
		<tag k="place" v="farm" />
		<tag k="ssr:stedsnr" v="672618" />
	</node>
	<node id="6463616285" lat="59.6611694" lon="10.6451472" version="1" timestamp="2019-05-10T06:30:15Z" changeset="70097478" uid="633013" user="Honning">
		<tag k="name" v="Holterteigen" />
		<tag k="place" v="farm" />
		<tag k="ssr:stedsnr" v="693038" />
	</node>
	<node id="6463616286" lat="59.7087139" lon="10.5995389" version="1" timestamp="2019-05-10T06:30:15Z" changeset="70097478" uid="633013" user="Honning">
		<tag k="name" v="Solvik" />
		<tag k="place" v="isolated_dwelling" />
		<tag k="ssr:stedsnr" v="693164" />
	</node>
	<node id="6463616287" lat="59.7289639" lon="10.5925556" version="1" timestamp="2019-05-10T06:30:15Z" changeset="70097478" uid="633013" user="Honning">
		<tag k="alt_name" v="Sandvika" />
		<tag k="name" v="Nordre Sandvika" />
		<tag k="place" v="isolated_dwelling" />
		<tag k="ssr:stedsnr" v="693167" />
	</node>
	<node id="6463616288" lat="59.717225" lon="10.7111444" version="1" timestamp="2019-05-10T06:30:15Z" changeset="70097478" uid="633013" user="Honning">
		<tag k="name" v="Mien" />
		<tag k="place" v="locality" />
		<tag k="ssr:stedsnr" v="693290" />
	</node>
	<node id="6463616289" lat="59.7700528" lon="10.6827361" version="1" timestamp="2019-05-10T06:30:15Z" changeset="70097478" uid="633013" user="Honning">
		<tag k="name" v="Søndre Gullerud" />
		<tag k="place" v="farm" />
		<tag k="ssr:stedsnr" v="706279" />
	</node>
	<node id="6463616290" lat="59.7602222" lon="10.6788583" version="1" timestamp="2019-05-10T06:30:15Z" changeset="70097478" uid="633013" user="Honning">
		<tag k="name" v="Granli" />
		<tag k="place" v="isolated_dwelling" />
		<tag k="ssr:stedsnr" v="706284" />
	</node>
	<node id="6463616291" lat="59.7551639" lon="10.6684583" version="1" timestamp="2019-05-10T06:30:15Z" changeset="70097478" uid="633013" user="Honning">
		<tag k="name" v="Søndre Kai" />
		<tag k="place" v="farm" />
		<tag k="ssr:stedsnr" v="888261" />
	</node>
	<node id="6463616292" lat="59.7267" lon="10.6943583" version="1" timestamp="2019-05-10T06:30:16Z" changeset="70097478" uid="633013" user="Honning">
		<tag k="name" v="Berger" />
		<tag k="place" v="farm" />
		<tag k="ssr:stedsnr" v="706461" />
	</node>
	<node id="6463616293" lat="59.6836923" lon="10.6284241" version="2" timestamp="2019-11-15T12:10:26Z" changeset="77124360" uid="5732597" user="ENTUR Johan Wiklund">
		<tag k="name" v="Gylteåsen" />
		<tag k="place" v="neighbourhood" />
		<tag k="ssr:stedsnr" v="706715" />
	</node>
	<node id="6463616294" lat="59.7207667" lon="10.6078333" version="1" timestamp="2019-05-10T06:30:16Z" changeset="70097478" uid="633013" user="Honning">
		<tag k="name" v="Nordre Digerud" />
		<tag k="place" v="farm" />
		<tag k="ssr:stedsnr" v="707467" />
	</node>
	<node id="6463616295" lat="59.6299583" lon="10.6713222" version="1" timestamp="2019-05-10T06:30:16Z" changeset="70097478" uid="633013" user="Honning">
		<tag k="alt_name" v="Solberg, søndre" />
		<tag k="name" v="Søndre Solberg" />
		<tag k="place" v="farm" />
		<tag k="ssr:stedsnr" v="731639" />
	</node>
	<node id="6463616296" lat="59.6744194" lon="10.6804417" version="1" timestamp="2019-05-10T06:30:16Z" changeset="70097478" uid="633013" user="Honning">
		<tag k="name" v="Søndre Kykkelsrud" />
		<tag k="place" v="farm" />
		<tag k="ssr:stedsnr" v="725532" />
	</node>
	<node id="6463616297" lat="59.6822583" lon="10.6508" version="1" timestamp="2019-05-10T06:30:16Z" changeset="70097478" uid="633013" user="Honning">
		<tag k="name" v="Kringerudfeltet" />
		<tag k="place" v="quarter" />
		<tag k="ssr:stedsnr" v="725847" />
	</node>
	<node id="6463616298" lat="59.7118222" lon="10.6003639" version="1" timestamp="2019-05-10T06:30:16Z" changeset="70097478" uid="633013" user="Honning">
		<tag k="name" v="Sønderstøa" />
		<tag k="place" v="isolated_dwelling" />
		<tag k="ssr:stedsnr" v="731803" />
	</node>
	<node id="6463616299" lat="59.6914583" lon="10.7195278" version="1" timestamp="2019-05-10T06:30:16Z" changeset="70097478" uid="633013" user="Honning">
		<tag k="name" v="Østli" />
		<tag k="place" v="farm" />
		<tag k="ssr:stedsnr" v="732435" />
	</node>
	<node id="6463616300" lat="59.6633005" lon="10.6293392" version="6" timestamp="2021-10-29T14:41:32Z" changeset="113127928" uid="3497659" user="NKA">
		<tag k="name" v="Drøbak" />
		<tag k="name:ru" v="Дрёбак" />
		<tag k="place" v="town" />
		<tag k="population" v="13522" />
		<tag k="population:date" v="2021-01-01" />
		<tag k="ref:ssb_tettsted" v="0531" />
		<tag k="source:population" v="SSB - befolkning i tettstedet" />
		<tag k="ssr:stedsnr" v="732857" />
	</node>
	<node id="6463616301" lat="59.731475" lon="10.7224389" version="1" timestamp="2019-05-10T06:30:16Z" changeset="70097478" uid="633013" user="Honning">
		<tag k="name" v="Knardal hyttefelt" />
		<tag k="place" v="neighbourhood" />
		<tag k="ssr:stedsnr" v="767485" />
	</node>
	<node id="6463616302" lat="59.6350861" lon="10.6722139" version="1" timestamp="2019-05-10T06:30:16Z" changeset="70097478" uid="633013" user="Honning">
		<tag k="name" v="Nedre Kroksrud" />
		<tag k="place" v="farm" />
		<tag k="ssr:stedsnr" v="767506" />
	</node>
	<node id="6463616303" lat="59.6356583" lon="10.67375" version="1" timestamp="2019-05-10T06:30:16Z" changeset="70097478" uid="633013" user="Honning">
		<tag k="name" v="Nedre Solberg" />
		<tag k="place" v="farm" />
		<tag k="ssr:stedsnr" v="767509" />
	</node>
	<node id="6463616304" lat="59.6857833" lon="10.6760194" version="1" timestamp="2019-05-10T06:30:16Z" changeset="70097478" uid="633013" user="Honning">
		<tag k="name" v="Nedre Tomter" />
		<tag k="place" v="farm" />
		<tag k="ssr:stedsnr" v="786136" />
	</node>
	<node id="6463616305" lat="59.6683444" lon="10.6437583" version="1" timestamp="2019-05-10T06:30:16Z" changeset="70097478" uid="633013" user="Honning">
		<tag k="alt_name" v="Ullerud nordre" />
		<tag k="name" v="Nordre Ullerud" />
		<tag k="place" v="farm" />
		<tag k="ssr:stedsnr" v="786461" />
	</node>
	<node id="6463616306" lat="59.6776778" lon="10.6965722" version="1" timestamp="2019-05-10T06:30:16Z" changeset="70097478" uid="633013" user="Honning">
		<tag k="name" v="Nordre Berg" />
		<tag k="place" v="farm" />
		<tag k="ssr:stedsnr" v="786580" />
	</node>
	<node id="6463616307" lat="59.6724222" lon="10.6926305" version="1" timestamp="2019-05-10T06:30:16Z" changeset="70097478" uid="633013" user="Honning">
		<tag k="name" v="Søndre Ermesø" />
		<tag k="place" v="farm" />
		<tag k="ssr:stedsnr" v="786604" />
	</node>
	<node id="6463616308" lat="59.6639868" lon="10.6844414" version="1" timestamp="2019-05-10T06:30:16Z" changeset="70097478" uid="633013" user="Honning">
		<tag k="name" v="Fjøser" />
		<tag k="place" v="hamlet" />
		<tag k="ssr:stedsnr" v="914875" />
	</node>
	<node id="6463616309" lat="59.6979417" lon="10.6102917" version="1" timestamp="2019-05-10T06:30:16Z" changeset="70097478" uid="633013" user="Honning">
		<tag k="name" v="Båtstøfeltet" />
		<tag k="place" v="neighbourhood" />
		<tag k="ssr:stedsnr" v="786860" />
	</node>
	<node id="6463616310" lat="59.7016861" lon="10.6564833" version="1" timestamp="2019-05-10T06:30:16Z" changeset="70097478" uid="633013" user="Honning">
		<tag k="name" v="Nordre Dammen" />
		<tag k="place" v="farm" />
		<tag k="ssr:stedsnr" v="786863" />
	</node>
	<node id="6463616311" lat="59.6945528" lon="10.6581389" version="1" timestamp="2019-05-10T06:30:17Z" changeset="70097478" uid="633013" user="Honning">
		<tag k="name" v="Torshytta" />
		<tag k="place" v="farm" />
		<tag k="ssr:stedsnr" v="791771" />
	</node>
	<node id="6463616312" lat="59.6415444" lon="10.6759389" version="1" timestamp="2019-05-10T06:30:17Z" changeset="70097478" uid="633013" user="Honning">
		<tag k="alt_name" v="Solberg, nordre" />
		<tag k="name" v="Nordre Solberg" />
		<tag k="place" v="farm" />
		<tag k="ssr:stedsnr" v="792657" />
	</node>
	<node id="6463616313" lat="59.6693889" lon="10.6371361" version="2" timestamp="2019-11-08T15:12:43Z" changeset="76819061" uid="5732597" user="ENTUR Johan Wiklund">
		<tag k="name" v="Seiersten" />
		<tag k="place" v="suburb" />
		<tag k="ssr:stedsnr" v="792840" />
	</node>
	<node id="6463616314" lat="59.7567528" lon="10.6882083" version="1" timestamp="2019-05-10T06:30:17Z" changeset="70097478" uid="633013" user="Honning">
		<tag k="alt_name" v="Garder, søndre" />
		<tag k="name" v="Søndre Garder" />
		<tag k="place" v="farm" />
		<tag k="ssr:stedsnr" v="794603" />
	</node>
	<node id="6463616315" lat="59.7608583" lon="10.6977444" version="1" timestamp="2019-05-10T06:30:17Z" changeset="70097478" uid="633013" user="Honning">
		<tag k="name" v="Endre" />
		<tag k="place" v="isolated_dwelling" />
		<tag k="ssr:stedsnr" v="888415" />
	</node>
	<node id="6463616316" lat="59.663275" lon="10.6491222" version="1" timestamp="2019-05-10T06:30:17Z" changeset="70097478" uid="633013" user="Honning">
		<tag k="name" v="Granheia" />
		<tag k="place" v="quarter" />
		<tag k="ssr:stedsnr" v="828021" />
	</node>
	<node id="6463616317" lat="59.7042333" lon="10.6530917" version="1" timestamp="2019-05-10T06:30:17Z" changeset="70097478" uid="633013" user="Honning">
		<tag k="name" v="Spervika" />
		<tag k="place" v="hamlet" />
		<tag k="ssr:stedsnr" v="828381" />
	</node>
	<node id="6463616318" lat="59.7359889" lon="10.7158056" version="1" timestamp="2019-05-10T06:30:17Z" changeset="70097478" uid="633013" user="Honning">
		<tag k="name" v="Nedre Knardal" />
		<tag k="place" v="farm" />
		<tag k="ssr:stedsnr" v="828410" />
	</node>
	<node id="6463616319" lat="59.7396111" lon="10.6708695" version="1" timestamp="2019-05-10T06:30:17Z" changeset="70097478" uid="633013" user="Honning">
		<tag k="name" v="Mellom-Lindebråte" />
		<tag k="place" v="farm" />
		<tag k="ssr:stedsnr" v="828413" />
	</node>
	<node id="6463616320" lat="59.7498278" lon="10.6456972" version="1" timestamp="2019-05-10T06:30:17Z" changeset="70097478" uid="633013" user="Honning">
		<tag k="name" v="Vestre Kopperud" />
		<tag k="place" v="farm" />
		<tag k="ssr:stedsnr" v="828416" />
	</node>
	<node id="6463616321" lat="59.6901889" lon="10.7289528" version="1" timestamp="2019-05-10T06:30:17Z" changeset="70097478" uid="633013" user="Honning">
		<tag k="name" v="Søndre Horgen" />
		<tag k="place" v="farm" />
		<tag k="ssr:stedsnr" v="282346" />
	</node>
	<node id="6463616322" lat="59.7113694" lon="10.7116278" version="1" timestamp="2019-05-10T06:30:17Z" changeset="70097478" uid="633013" user="Honning">
		<tag k="name" v="Bråtan" />
		<tag k="place" v="isolated_dwelling" />
		<tag k="ssr:stedsnr" v="828442" />
	</node>
	<node id="6463616323" lat="59.6863139" lon="10.6511417" version="1" timestamp="2019-05-10T06:30:17Z" changeset="70097478" uid="633013" user="Honning">
		<tag k="name" v="Gloslibråten" />
		<tag k="place" v="isolated_dwelling" />
		<tag k="ssr:stedsnr" v="828452" />
	</node>
	<node id="6463616324" lat="59.7418361" lon="10.7205" version="1" timestamp="2019-05-10T06:30:17Z" changeset="70097478" uid="633013" user="Honning">
		<tag k="name" v="Fuglesang" />
		<tag k="place" v="isolated_dwelling" />
		<tag k="ssr:stedsnr" v="828457" />
	</node>
	<node id="6463616325" lat="59.6362944" lon="10.6655528" version="1" timestamp="2019-05-10T06:30:17Z" changeset="70097478" uid="633013" user="Honning">
		<tag k="name" v="Øvre Kroksrudsand" />
		<tag k="place" v="isolated_dwelling" />
		<tag k="ssr:stedsnr" v="828491" />
	</node>
	<node id="6463616326" lat="59.7197556" lon="10.6023972" version="1" timestamp="2019-05-10T06:30:17Z" changeset="70097478" uid="633013" user="Honning">
		<tag k="name" v="Bråtan" />
		<tag k="place" v="farm" />
		<tag k="ssr:stedsnr" v="828505" />
	</node>
	<node id="6463616327" lat="59.6770056" lon="10.6256083" version="1" timestamp="2019-05-10T06:30:17Z" changeset="70097478" uid="633013" user="Honning">
		<tag k="name" v="Rolighet" />
		<tag k="place" v="isolated_dwelling" />
		<tag k="ssr:stedsnr" v="282445" />
	</node>
	<node id="6463616328" lat="59.7432139" lon="10.6374333" version="1" timestamp="2019-05-10T06:30:17Z" changeset="70097478" uid="633013" user="Honning">
		<tag k="name" v="Nordre Gulbjørnrud" />
		<tag k="place" v="farm" />
		<tag k="ssr:stedsnr" v="282458" />
	</node>
	<node id="6463616329" lat="59.6831222" lon="10.6152639" version="1" timestamp="2019-05-10T06:30:18Z" changeset="70097478" uid="633013" user="Honning">
		<tag k="name" v="Godthol" />
		<tag k="place" v="isolated_dwelling" />
		<tag k="ssr:stedsnr" v="282461" />
	</node>
	<node id="6463616330" lat="59.6372889" lon="10.6719528" version="1" timestamp="2019-05-10T06:30:18Z" changeset="70097478" uid="633013" user="Honning">
		<tag k="name" v="Øvre Solberg" />
		<tag k="place" v="farm" />
		<tag k="ssr:stedsnr" v="282508" />
	</node>
	<node id="6463616332" lat="59.6925139" lon="10.7016583" version="1" timestamp="2019-05-10T06:30:18Z" changeset="70097478" uid="633013" user="Honning">
		<tag k="name" v="Nordre Huseby" />
		<tag k="place" v="farm" />
		<tag k="ssr:stedsnr" v="847142" />
	</node>
	<node id="6463616333" lat="59.6952944" lon="10.7093861" version="1" timestamp="2019-05-10T06:30:18Z" changeset="70097478" uid="633013" user="Honning">
		<tag k="name" v="Nordre Bjerke" />
		<tag k="place" v="farm" />
		<tag k="ssr:stedsnr" v="847153" />
	</node>
	<node id="6463616334" lat="59.7276194" lon="10.6976611" version="1" timestamp="2019-05-10T06:30:18Z" changeset="70097478" uid="633013" user="Honning">
		<tag k="alt_name" v="Bølerengen" />
		<tag k="name" v="Bølerenga" />
		<tag k="place" v="farm" />
		<tag k="ssr:stedsnr" v="847476" />
	</node>
	<node id="6463616336" lat="59.7041194" lon="10.6257306" version="1" timestamp="2019-05-10T06:30:18Z" changeset="70097478" uid="633013" user="Honning">
		<tag k="name" v="Pollen" />
		<tag k="place" v="isolated_dwelling" />
		<tag k="ssr:stedsnr" v="847620" />
	</node>
	<node id="6463616338" lat="59.6726278" lon="10.6396722" version="1" timestamp="2019-05-10T06:30:18Z" changeset="70097478" uid="633013" user="Honning">
		<tag k="landuse" v="military" />
		<tag k="name" v="Øvre Seiersten skanse" />
		<tag k="ssr:stedsnr" v="300433" />
	</node>
	<node id="6463616339" lat="59.6902361" lon="10.6467305" version="1" timestamp="2019-05-10T06:30:18Z" changeset="70097478" uid="633013" user="Honning">
		<tag k="name" v="Brakadalen" />
		<tag k="place" v="isolated_dwelling" />
		<tag k="ssr:stedsnr" v="852739" />
	</node>
	<node id="6463616340" lat="59.7245111" lon="10.6577" version="1" timestamp="2019-05-10T06:30:18Z" changeset="70097478" uid="633013" user="Honning">
		<tag k="name" v="Asgautrud" />
		<tag k="place" v="farm" />
		<tag k="ssr:stedsnr" v="853768" />
	</node>
	<node id="6463616341" lat="59.705875" lon="10.7015861" version="1" timestamp="2019-05-10T06:30:18Z" changeset="70097478" uid="633013" user="Honning">
		<tag k="name" v="Skjellerud" />
		<tag k="place" v="farm" />
		<tag k="ssr:stedsnr" v="853801" />
	</node>
	<node id="6463616342" lat="59.6556306" lon="10.6414333" version="1" timestamp="2019-05-10T06:30:18Z" changeset="70097478" uid="633013" user="Honning">
		<tag k="name" v="Sogsti" />
		<tag k="place" v="suburb" />
		<tag k="ssr:stedsnr" v="307818" />
	</node>
	<node id="6463616343" lat="59.6701361" lon="10.6326972" version="1" timestamp="2019-05-10T06:30:18Z" changeset="70097478" uid="633013" user="Honning">
		<tag k="landuse" v="military" />
		<tag k="name" v="Veisvingbatteriet" />
		<tag k="ssr:stedsnr" v="361066" />
	</node>
	<node id="6463616344" lat="59.7614331" lon="10.6537633" version="1" timestamp="2019-05-10T06:30:18Z" changeset="70097478" uid="633013" user="Honning">
		<tag k="alt_name" v="Skog, søndre;Søndre Skau" />
		<tag k="name" v="Søndre Skog" />
		<tag k="place" v="farm" />
		<tag k="ssr:stedsnr" v="855658" />
	</node>
	<node id="6463616345" lat="59.7068972" lon="10.7110278" version="1" timestamp="2019-05-10T06:30:18Z" changeset="70097478" uid="633013" user="Honning">
		<tag k="name" v="Rommerud" />
		<tag k="place" v="locality" />
		<tag k="ssr:stedsnr" v="869980" />
	</node>
	<node id="6463616346" lat="59.6380361" lon="10.652725" version="1" timestamp="2019-05-10T06:30:18Z" changeset="70097478" uid="633013" user="Honning">
		<tag k="name" v="Solhøgda" />
		<tag k="place" v="hamlet" />
		<tag k="ssr:stedsnr" v="342384" />
	</node>
	<node id="6463616347" lat="59.7061972" lon="10.6283028" version="1" timestamp="2019-05-10T06:30:18Z" changeset="70097478" uid="633013" user="Honning">
		<tag k="alt_name" v="Strandmyrfeltet" />
		<tag k="name" v="Strandemyra" />
		<tag k="place" v="quarter" />
		<tag k="ssr:stedsnr" v="875254" />
	</node>
	<node id="6463616348" lat="59.7751083" lon="10.7086028" version="1" timestamp="2019-05-10T06:30:19Z" changeset="70097478" uid="633013" user="Honning">
		<tag k="name" v="Nordre Haslum" />
		<tag k="place" v="farm" />
		<tag k="ssr:stedsnr" v="875276" />
	</node>
	<node id="6463616349" lat="59.6961528" lon="10.70705" version="1" timestamp="2019-05-10T06:30:19Z" changeset="70097478" uid="633013" user="Honning">
		<tag k="name" v="Vestre Bjerke" />
		<tag k="place" v="farm" />
		<tag k="ssr:stedsnr" v="907126" />
	</node>
	<node id="6463616350" lat="59.6775861" lon="10.6067944" version="1" timestamp="2019-05-10T06:30:19Z" changeset="70097478" uid="633013" user="Honning">
		<tag k="landuse" v="military" />
		<tag k="name" v="Nordre Oscarsborg" />
		<tag k="ssr:stedsnr" v="907360" />
	</node>
	<node id="6463616351" lat="59.7385194" lon="10.6528805" version="1" timestamp="2019-05-10T06:30:19Z" changeset="70097478" uid="633013" user="Honning">
		<tag k="alt_name" v="Måren" />
		<tag k="name" v="Målen" />
		<tag k="place" v="isolated_dwelling" />
		<tag k="ssr:stedsnr" v="428964" />
	</node>
	<node id="6463616352" lat="59.6980056" lon="10.6556806" version="1" timestamp="2019-05-10T06:30:19Z" changeset="70097478" uid="633013" user="Honning">
		<tag k="name" v="Søndre Dammen" />
		<tag k="place" v="farm" />
		<tag k="ssr:stedsnr" v="908892" />
	</node>
	<node id="6463616353" lat="59.6767306" lon="10.6961861" version="1" timestamp="2019-05-10T06:30:19Z" changeset="70097478" uid="633013" user="Honning">
		<tag k="name" v="Søndre Berg" />
		<tag k="place" v="farm" />
		<tag k="ssr:stedsnr" v="361591" />
	</node>
	<node id="6463616354" lat="59.7049306" lon="10.6003139" version="1" timestamp="2019-05-10T06:30:19Z" changeset="70097478" uid="633013" user="Honning">
		<tag k="name" v="Marikoven" />
		<tag k="place" v="isolated_dwelling" />
		<tag k="ssr:stedsnr" v="913733" />
	</node>
	<node id="6463659362" lat="59.7347278" lon="10.6451139" version="1" timestamp="2019-05-10T07:04:49Z" changeset="70098176" uid="633013" user="Honning">
		<tag k="alt_name" v="Gulbjørnrud" />
		<tag k="name" v="Søndre Gulbjørnrud" />
		<tag k="place" v="farm" />
		<tag k="ssr:stedsnr" v="160957" />
	</node>
	<node id="6463659553" lat="59.7421861" lon="10.6449278" version="1" timestamp="2019-05-10T07:04:54Z" changeset="70098176" uid="633013" user="Honning">
		<tag k="name" v="Gulbjørnrudbråten" />
		<tag k="place" v="farm" />
		<tag k="ssr:stedsnr" v="585951" />
	</node>
	<node id="7947150292" lat="59.6666339" lon="10.6356963" version="2" timestamp="2020-09-27T07:14:47Z" changeset="91572064" uid="3497659" user="NKA">
		<tag k="amenity" v="townhall" />
		<tag k="name" v="Frogn rådhus" />
		<tag k="ref" v="3022" />
		<tag k="ssr:stedsnr" v="300070" />
		<tag k="website" v="http://frogn.kommune.no/" />
		<tag k="wheelchair" v="yes" />
	</node>
</osm>
