<?xml version="1.0" encoding="UTF-8"?>
<osm version="0.6" generator="osmapis">
	<node lat="60.827226632614014" lon="11.086980257065157" id="-38658">
		<tag k="fixme" v="consider place=hamlet" />
		<tag k="name" v="Holmlund" />
		<tag k="place" v="farm" />
		<tag k="ssr:stedsnr" v="9412" />
	</node>
	<node lat="60.92663055850947" lon="11.122463880546178" id="-38659">
		<tag k="name" v="Langholmen" />
		<tag k="place" v="isolated_dwelling" />
		<tag k="ssr:stedsnr" v="9620" />
	</node>
	<node lat="60.81559679239066" lon="11.094825217071572" id="-38661">
		<tag k="fixme" v="consider place=hamlet" />
		<tag k="name" v="Vien" />
		<tag k="place" v="farm" />
		<tag k="ssr:stedsnr" v="9809" />
	</node>
	<node lat="60.808072221831864" lon="11.227144441990973" id="-38662">
		<tag k="name" v="Lundby" />
		<tag k="place" v="farm" />
		<tag k="ssr:stedsnr" v="9836" />
	</node>
	<node lat="60.811682386353446" lon="11.177267508198888" id="-38663">
		<tag k="fixme" v="consider place=hamlet" />
		<tag k="name" v="Kraftrud" />
		<tag k="place" v="farm" />
		<tag k="ssr:stedsnr" v="9842" />
	</node>
	<node lat="60.797991245385" lon="11.1608674154304" id="-38664">
		<tag k="fixme" v="consider place=hamlet" />
		<tag k="name" v="Frogner" />
		<tag k="place" v="farm" />
		<tag k="ssr:stedsnr" v="9854" />
	</node>
	<node lat="60.83371866571086" lon="11.230271980674402" id="-38665">
		<tag k="fixme" v="consider place=hamlet" />
		<tag k="name" v="Kallerud" />
		<tag k="place" v="farm" />
		<tag k="ssr:stedsnr" v="9788" />
	</node>
	<node lat="60.83005833138737" lon="11.12672777217798" id="-38666">
		<tag k="alt_name" v="Hagen" />
		<tag k="name" v="Ingebergshagen" />
		<tag k="place" v="farm" />
		<tag k="ssr:stedsnr" v="9800" />
	</node>
	<node lat="60.7811673291994" lon="11.213047685167066" id="-38667">
		<tag k="fixme" v="consider place=hamlet" />
		<tag k="name" v="Ilseng" />
		<tag k="place" v="farm" />
		<tag k="ssr:stedsnr" v="9908" />
	</node>
	<node lat="60.82526944888981" lon="11.11352500053008" id="-38669">
		<tag k="name" v="Midtre Imerslund" />
		<tag k="place" v="farm" />
		<tag k="ssr:stedsnr" v="22996" />
	</node>
	<node lat="60.821294440826605" lon="11.194197223305794" id="-38670">
		<tag k="name" v="Grubhol" />
		<tag k="place" v="farm" />
		<tag k="ssr:stedsnr" v="27489" />
	</node>
	<node lat="60.79988332894747" lon="11.07552499913648" id="-38672">
		<tag k="name" v="Ankerløkka" />
		<tag k="place" v="suburb" />
		<tag k="ssr:stedsnr" v="40560" />
	</node>
	<node lat="60.81822500241806" lon="11.146388887557245" id="-38675">
		<tag k="name" v="Viberg" />
		<tag k="place" v="isolated_dwelling" />
		<tag k="ssr:stedsnr" v="40622" />
	</node>
	<node lat="60.87514166825812" lon="11.214975007097737" id="-38676">
		<tag k="name" v="Østjordet" />
		<tag k="place" v="isolated_dwelling" />
		<tag k="ssr:stedsnr" v="41072" />
	</node>
	<node lat="60.78333889197183" lon="11.194630563142608" id="-38679">
		<tag k="name" v="Østre Hol" />
		<tag k="place" v="farm" />
		<tag k="ssr:stedsnr" v="239202" />
	</node>
	<node lat="60.799702775002494" lon="11.12166389665546" id="-38684">
		<tag k="landuse" v="military" />
		<tag k="name" v="Åker gård" />
		<tag k="ssr:stedsnr" v="57021" />
	</node>
	<node lat="61.09880277462632" lon="11.110355557933135" id="-38687">
		<tag k="name" v="Stangvollen" />
		<tag k="place" v="isolated_dwelling" />
		<tag k="ssr:stedsnr" v="68497" />
	</node>
	<node lat="60.93306389296869" lon="11.089633334380345" id="-38688">
		<tag k="historic" v="shieling" />
		<tag k="name" v="Bjørsætra" />
		<tag k="place" v="isolated_dwelling" />
		<tag k="ssr:stedsnr" v="70184" />
	</node>
	<node lat="60.977974996485585" lon="11.115733326496837" id="-38689">
		<tag k="historic" v="shieling" />
		<tag k="name" v="Haugsætra" />
		<tag k="place" v="isolated_dwelling" />
		<tag k="ssr:stedsnr" v="70522" />
	</node>
	<node lat="60.86972777354322" lon="11.193108329351245" id="-38691">
		<tag k="name" v="Røystad" />
		<tag k="place" v="farm" />
		<tag k="ssr:stedsnr" v="70720" />
	</node>
	<node lat="60.87086105890269" lon="11.121535377531973" id="-38692">
		<tag k="fixme" v="consider place=hamlet" />
		<tag k="name" v="Huse" />
		<tag k="place" v="farm" />
		<tag k="ssr:stedsnr" v="70724" />
	</node>
	<node lat="60.81860707266052" lon="11.175186747576388" id="-38693">
		<tag k="fixme" v="consider place=hamlet" />
		<tag k="name" v="Nyhus" />
		<tag k="place" v="farm" />
		<tag k="ssr:stedsnr" v="70815" />
	</node>
	<node lat="60.81473516920928" lon="11.112259075471393" id="-38695">
		<tag k="fixme" v="consider place=hamlet" />
		<tag k="name" v="Hveberg" />
		<tag k="place" v="farm" />
		<tag k="ssr:stedsnr" v="70818" />
	</node>
	<node lat="60.80466058904954" lon="11.14728799031754" id="-38696">
		<tag k="fixme" v="consider place=hamlet" />
		<tag k="name" v="Torshov" />
		<tag k="place" v="farm" />
		<tag k="ssr:stedsnr" v="70829" />
	</node>
	<node lat="60.801285802255215" lon="11.177017144717118" id="-38697">
		<tag k="fixme" v="consider place=hamlet" />
		<tag k="name" v="Møystad" />
		<tag k="place" v="farm" />
		<tag k="ssr:stedsnr" v="70871" />
	</node>
	<node lat="60.79980427925121" lon="11.19068693343475" id="-38698">
		<tag k="alt_name" v="Østre Hanum" />
		<tag k="name" v="Hanum" />
		<tag k="place" v="hamlet" />
		<tag k="ssr:stedsnr" v="70872" />
	</node>
	<node lat="60.83104365865921" lon="11.208896119074605" id="-38699">
		<tag k="fixme" v="consider place=hamlet" />
		<tag k="name" v="Tomten" />
		<tag k="place" v="farm" />
		<tag k="ssr:stedsnr" v="70778" />
	</node>
	<node lat="60.83083171833514" lon="11.199427513078534" id="-38700">
		<tag k="fixme" v="consider place=hamlet" />
		<tag k="name" v="Hafsal" />
		<tag k="place" v="farm" />
		<tag k="ssr:stedsnr" v="70779" />
	</node>
	<node lat="60.838052449395164" lon="11.242173737284737" id="-38701">
		<tag k="fixme" v="consider place=hamlet" />
		<tag k="name" v="Skramstad" />
		<tag k="place" v="farm" />
		<tag k="ssr:stedsnr" v="70781" />
	</node>
	<node lat="60.8354003554659" lon="11.223071919395112" id="-38702">
		<tag k="fixme" v="consider place=hamlet" />
		<tag k="name" v="Vartomten" />
		<tag k="place" v="farm" />
		<tag k="ssr:stedsnr" v="70784" />
	</node>
	<node lat="60.870524996394266" lon="11.153230553417906" id="-38705">
		<tag k="name" v="Nedre Løvlien" />
		<tag k="place" v="farm" />
		<tag k="ssr:stedsnr" v="88405" />
	</node>
	<node lat="60.833550000867284" lon="11.083944451750556" id="-38708">
		<tag k="loc_name" v="Søndre Arnkvern" />
		<tag k="name" v="Arnkvern mølle" />
		<tag k="place" v="farm" />
		<tag k="ssr:stedsnr" v="97769" />
	</node>
	<node lat="60.830108330455005" lon="11.180905560453123" id="-38710">
		<tag k="name" v="Vestre Blystad" />
		<tag k="place" v="farm" />
		<tag k="ssr:stedsnr" v="97777" />
	</node>
	<node lat="60.85090556001096" lon="11.208669442941718" id="-38713">
		<tag k="name" v="Nygård" />
		<tag k="place" v="farm" />
		<tag k="ssr:stedsnr" v="101014" />
	</node>
	<node lat="60.8440527761998" lon="11.217411107904798" id="-38714">
		<tag k="name" v="Bekkedal" />
		<tag k="place" v="isolated_dwelling" />
		<tag k="ssr:stedsnr" v="101016" />
	</node>
	<node lat="60.79438055586175" lon="11.084208329642296" id="-38715">
		<tag k="leisure" v="park" />
		<tag k="name" v="Hamar park" />
		<tag k="ssr:stedsnr" v="101563" />
	</node>
	<node lat="60.79210555191648" lon="11.08422778246342" id="-38716">
		<tag k="name" v="Østbyen" />
		<tag k="place" v="suburb" />
		<tag k="ssr:stedsnr" v="101568" />
	</node>
	<node lat="60.875797222535866" lon="11.128522216465562" id="-38717">
		<tag k="name" v="Engesletta" />
		<tag k="place" v="isolated_dwelling" />
		<tag k="ssr:stedsnr" v="101674" />
	</node>
	<node lat="60.83636666409543" lon="11.235258334104177" id="-38718">
		<tag k="name" v="Brodal" />
		<tag k="place" v="isolated_dwelling" />
		<tag k="ssr:stedsnr" v="102304" />
	</node>
	<node lat="60.838674996895875" lon="11.166650004856736" id="-38721">
		<tag k="name" v="Myrsrønningen" />
		<tag k="place" v="farm" />
		<tag k="ssr:stedsnr" v="116567" />
	</node>
	<node lat="60.83013055641484" lon="11.138236110162069" id="-38722">
		<tag k="name" v="Skogsrud" />
		<tag k="place" v="farm" />
		<tag k="ssr:stedsnr" v="116569" />
	</node>
	<node lat="60.827888888976055" lon="11.141222222801757" id="-38723">
		<tag k="amenity" v="nursing_home" />
		<tag k="name" v="Løbak psykiatriske senter" />
		<tag k="old_name" v="Løbakk psykiatriske sykehjem" />
		<tag k="ssr:stedsnr" v="116577" />
	</node>
	<node lat="60.867191665582865" lon="11.165352769617535" id="-38724">
		<tag k="name" v="Smedpalerud" />
		<tag k="place" v="farm" />
		<tag k="ssr:stedsnr" v="116584" />
	</node>
	<node lat="60.86642140603451" lon="11.11772205696053" id="-38726">
		<tag k="fixme" v="consider place=hamlet" />
		<tag k="name" v="Dalseng" />
		<tag k="place" v="farm" />
		<tag k="ssr:stedsnr" v="251717" />
	</node>
	<node lat="60.82182600589693" lon="11.159302695414151" id="-38727">
		<tag k="alt_name" v="Øvre Skråstad" />
		<tag k="name" v="Skråstad" />
		<tag k="place" v="hamlet" />
		<tag k="ssr:stedsnr" v="251844" />
	</node>
	<node lat="60.94219999803637" lon="11.16457778600326" id="-38731">
		<tag k="name" v="Måsætra" />
		<tag k="place" v="hamlet" />
		<tag k="ssr:stedsnr" v="252521" />
	</node>
	<node lat="60.88485429413805" lon="11.233511401408318" id="-38732">
		<tag k="fixme" v="consider place=hamlet" />
		<tag k="name" v="Bekkestykket" />
		<tag k="place" v="farm" />
		<tag k="ssr:stedsnr" v="130613" />
	</node>
	<node lat="60.83935278216172" lon="11.109561118393477" id="-38733">
		<tag k="name" v="Furulund" />
		<tag k="place" v="farm" />
		<tag k="ssr:stedsnr" v="130708" />
	</node>
	<node lat="60.84566269390361" lon="11.2576680511786" id="-38735">
		<tag k="fixme" v="consider place=hamlet" />
		<tag k="name" v="Høksnes" />
		<tag k="place" v="farm" />
		<tag k="ssr:stedsnr" v="130723" />
	</node>
	<node lat="60.882644447001546" lon="11.200055560726287" id="-38736">
		<tag k="name" v="Rydje" />
		<tag k="place" v="farm" />
		<tag k="ssr:stedsnr" v="252635" />
	</node>
	<node lat="60.897094446251074" lon="11.226786107336512" id="-38737">
		<tag k="name" v="Østgjerdingen" />
		<tag k="place" v="farm" />
		<tag k="ssr:stedsnr" v="252591" />
	</node>
	<node lat="60.89440833527208" lon="11.114702770959015" id="-38738">
		<tag k="alt_name" v="Brendsætra" />
		<tag k="name" v="Brennsæter" />
		<tag k="place" v="farm" />
		<tag k="ssr:stedsnr" v="252603" />
	</node>
	<node lat="60.896000000555844" lon="11.224516662486128" id="-38739">
		<tag k="name" v="Rødsætervollen" />
		<tag k="place" v="hamlet" />
		<tag k="ssr:stedsnr" v="252606" />
	</node>
	<node lat="60.86638055519604" lon="11.171469448916845" id="-38740">
		<tag k="alt_name" v="Nordre Haugen" />
		<tag k="name" v="Haugen" />
		<tag k="place" v="farm" />
		<tag k="ssr:stedsnr" v="252684" />
	</node>
	<node lat="60.86691493854098" lon="11.181308667838875" id="-38741">
		<tag k="alt_name" v="Søndre Spikkerud" />
		<tag k="fixme" v="consider place=hamlet" />
		<tag k="name" v="Spikkerud" />
		<tag k="place" v="farm" />
		<tag k="ssr:stedsnr" v="252686" />
	</node>
	<node lat="60.87277778091744" lon="11.22542221747578" id="-38742">
		<tag k="name" v="Libakken" />
		<tag k="place" v="farm" />
		<tag k="ssr:stedsnr" v="252688" />
	</node>
	<node lat="60.876430553115476" lon="11.223324998653377" id="-38743">
		<tag k="name" v="Engom" />
		<tag k="place" v="farm" />
		<tag k="ssr:stedsnr" v="252643" />
	</node>
	<node lat="60.839424998411744" lon="11.118866675620959" id="-38744">
		<tag k="name" v="Vegheim" />
		<tag k="place" v="isolated_dwelling" />
		<tag k="ssr:stedsnr" v="131814" />
	</node>
	<node lat="60.86486614589689" lon="11.235768002390735" id="-38745">
		<tag k="fixme" v="consider place=hamlet" />
		<tag k="name" v="Brenna" />
		<tag k="place" v="farm" />
		<tag k="ssr:stedsnr" v="131716" />
	</node>
	<node lat="60.8632750022156" lon="11.24581111248279" id="-38746">
		<tag k="name" v="Alhaug" />
		<tag k="place" v="farm" />
		<tag k="ssr:stedsnr" v="252718" />
	</node>
	<node lat="60.865250003586226" lon="11.163208332805572" id="-38747">
		<tag k="name" v="Palerud" />
		<tag k="place" v="farm" />
		<tag k="ssr:stedsnr" v="252725" />
	</node>
	<node lat="60.839693493531826" lon="11.259008306563464" id="-38748">
		<tag k="fixme" v="consider place=hamlet" />
		<tag k="name" v="Gran" />
		<tag k="place" v="farm" />
		<tag k="ssr:stedsnr" v="252747" />
	</node>
	<node lat="60.84275832986113" lon="11.250833338165727" id="-38749">
		<tag k="name" v="Løberg" />
		<tag k="place" v="isolated_dwelling" />
		<tag k="ssr:stedsnr" v="252751" />
	</node>
	<node lat="60.839664084430495" lon="11.24790609049174" id="-38750">
		<tag k="fixme" v="consider place=hamlet" />
		<tag k="name" v="Lerberg" />
		<tag k="place" v="farm" />
		<tag k="ssr:stedsnr" v="252752" />
	</node>
	<node lat="60.8154728845439" lon="11.187196706568372" id="-38751">
		<tag k="fixme" v="consider place=hamlet" />
		<tag k="name" v="Helstad" />
		<tag k="place" v="farm" />
		<tag k="ssr:stedsnr" v="252807" />
	</node>
	<node lat="60.83934722330786" lon="11.107894448631475" id="-38752">
		<tag k="name" v="Lundgård" />
		<tag k="place" v="farm" />
		<tag k="ssr:stedsnr" v="252767" />
	</node>
	<node lat="60.83618055705141" lon="11.147983325347077" id="-38753">
		<tag k="name" v="Søndre Tomter" />
		<tag k="old_name" v="Tomter, s" />
		<tag k="place" v="farm" />
		<tag k="ssr:stedsnr" v="252769" />
	</node>
	<node lat="60.835797225025416" lon="11.16781388649447" id="-38754">
		<tag k="name" v="Søbakken" />
		<tag k="place" v="isolated_dwelling" />
		<tag k="ssr:stedsnr" v="252770" />
	</node>
	<node lat="60.803388886676" lon="11.162538891589866" id="-38755">
		<tag k="alt_name" v="Hubred" />
		<tag k="name" v="Vesle Hubred" />
		<tag k="place" v="farm" />
		<tag k="ssr:stedsnr" v="252831" />
	</node>
	<node lat="60.81043769212924" lon="11.124767671174617" id="-38756">
		<tag k="fixme" v="consider place=hamlet" />
		<tag k="name" v="Tronhus" />
		<tag k="place" v="farm" />
		<tag k="ssr:stedsnr" v="252818" />
	</node>
	<node lat="60.87017777703311" lon="11.168319444343572" id="-38758">
		<tag k="name" v="Søndre Tønset" />
		<tag k="place" v="farm" />
		<tag k="ssr:stedsnr" v="151257" />
	</node>
	<node lat="60.817591667828104" lon="11.144358340638043" id="-38759">
		<tag k="name" v="Vangen" />
		<tag k="place" v="isolated_dwelling" />
		<tag k="ssr:stedsnr" v="161582" />
	</node>
	<node lat="60.81865555171726" lon="11.129027784019922" id="-38760">
		<tag k="name" v="Thune" />
		<tag k="place" v="isolated_dwelling" />
		<tag k="ssr:stedsnr" v="161598" />
	</node>
	<node lat="60.8224722210906" lon="11.258322217056413" id="-38762">
		<tag k="name" v="Sørlibakken" />
		<tag k="place" v="isolated_dwelling" />
		<tag k="ssr:stedsnr" v="163224" />
	</node>
	<node lat="60.80086388820686" lon="11.236727782705568" id="-38763">
		<tag k="name" v="Bjørkli" />
		<tag k="place" v="farm" />
		<tag k="ssr:stedsnr" v="163227" />
	</node>
	<node lat="60.79503333244955" lon="11.064327779033327" id="-38764">
		<tag k="name" v="Vestre Torg" />
		<tag k="place" v="square" />
		<tag k="ssr:stedsnr" v="163427" />
	</node>
	<node lat="60.852330555359" lon="11.181372221606757" id="-38765">
		<tag k="name" v="Nedre Skålerud" />
		<tag k="place" v="farm" />
		<tag k="ssr:stedsnr" v="163565" />
	</node>
	<node lat="60.809697224371526" lon="11.026333337152332" id="-38770">
		<tag k="name" v="Furubergjordet" />
		<tag k="old_name" v="Furuberget" />
		<tag k="place" v="suburb" />
		<tag k="ssr:stedsnr" v="191450" />
	</node>
	<node lat="60.87996111405347" lon="11.199463895903822" id="-38772">
		<tag k="name" v="Rubert" />
		<tag k="place" v="farm" />
		<tag k="ssr:stedsnr" v="191620" />
	</node>
	<node lat="60.881649774966036" lon="11.23309161488492" id="-38773">
		<tag k="fixme" v="consider place=hamlet" />
		<tag k="name" v="Lundby" />
		<tag k="place" v="farm" />
		<tag k="ssr:stedsnr" v="191621" />
	</node>
	<node lat="60.849062257828635" lon="11.247011976418532" id="-38774">
		<tag k="alt_name" v="Vestre Hårstad" />
		<tag k="name" v="Hårstad" />
		<tag k="place" v="hamlet" />
		<tag k="ssr:stedsnr" v="191671" />
	</node>
	<node lat="60.820543220199426" lon="11.068625844648517" id="-38775">
		<tag k="fixme" v="consider place=hamlet" />
		<tag k="name" v="Stavsberg" />
		<tag k="place" v="farm" />
		<tag k="ssr:stedsnr" v="191401" />
	</node>
	<node lat="60.84506027920993" lon="11.154550112874482" id="-38777">
		<tag k="fixme" v="consider place=hamlet" />
		<tag k="name" v="Høkset" />
		<tag k="place" v="farm" />
		<tag k="ssr:stedsnr" v="191719" />
	</node>
	<node lat="60.844065350490716" lon="11.182474510208614" id="-38778">
		<tag k="fixme" v="consider place=hamlet" />
		<tag k="name" v="Ingelsrud" />
		<tag k="place" v="farm" />
		<tag k="ssr:stedsnr" v="191724" />
	</node>
	<node lat="60.973019447587134" lon="11.136716658918445" id="-38779">
		<tag k="name" v="Bukkhølkoia" />
		<tag k="place" v="isolated_dwelling" />
		<tag k="ssr:stedsnr" v="263244" />
	</node>
	<node lat="60.82513370091402" lon="11.112229572031966" id="-38780">
		<tag k="name" v="Vestre Imerslund" />
		<tag k="place" v="farm" />
		<tag k="ssr:stedsnr" v="263656" />
	</node>
	<node lat="60.83413442276719" lon="11.085012951019191" id="-38781">
		<tag k="fixme" v="consider place=hamlet" />
		<tag k="name" v="Nedre Arnkvern" />
		<tag k="place" v="farm" />
		<tag k="ssr:stedsnr" v="219771" />
	</node>
	<node lat="60.85519722051891" lon="11.236736106273801" id="-38782">
		<tag k="name" v="Urstad" />
		<tag k="place" v="farm" />
		<tag k="ssr:stedsnr" v="222022" />
	</node>
	<node lat="60.82976666226355" lon="11.14013889413166" id="-38783">
		<tag k="name" v="Jevne" />
		<tag k="place" v="farm" />
		<tag k="ssr:stedsnr" v="222222" />
	</node>
	<node lat="60.79909999894538" lon="11.081483330869439" id="-38784">
		<tag k="name" v="Rollsløkka" />
		<tag k="place" v="suburb" />
		<tag k="ssr:stedsnr" v="222508" />
	</node>
	<node lat="60.81320278123952" lon="11.156097225256707" id="-38786">
		<tag k="name" v="Granerud" />
		<tag k="place" v="farm" />
		<tag k="ssr:stedsnr" v="222577" />
	</node>
	<node lat="60.8112277804585" lon="11.169649994124107" id="-38787">
		<tag k="name" v="Skolemesterbakken" />
		<tag k="place" v="isolated_dwelling" />
		<tag k="ssr:stedsnr" v="222582" />
	</node>
	<node lat="60.80242221884791" lon="11.13923333528141" id="-38788">
		<tag k="name" v="Dystingbo" />
		<tag k="place" v="farm" />
		<tag k="ssr:stedsnr" v="222588" />
	</node>
	<node lat="60.85214722565525" lon="11.270702774476003" id="-38789">
		<tag k="building" v="industrial" />
		<tag k="name" v="Heggvin avfallsplass" />
		<tag k="ssr:stedsnr" v="223030" />
	</node>
	<node lat="60.876261110333665" lon="11.166233335549917" id="-38790">
		<tag k="name" v="Torvbua" />
		<tag k="place" v="isolated_dwelling" />
		<tag k="ssr:stedsnr" v="237610" />
	</node>
	<node lat="60.821774996345354" lon="11.150697222993918" id="-38791">
		<tag k="name" v="Kapp" />
		<tag k="place" v="quarter" />
		<tag k="ssr:stedsnr" v="238929" />
	</node>
	<node lat="60.782225892033125" lon="11.194134727869807" id="-38794">
		<tag k="alt_name" v="Vestre Hol" />
		<tag k="name" v="Hol" />
		<tag k="place" v="hamlet" />
		<tag k="ssr:stedsnr" v="252902" />
	</node>
	<node lat="60.85701388529302" lon="11.238238893791543" id="-38797">
		<tag k="name" v="Vestby" />
		<tag k="place" v="farm" />
		<tag k="ssr:stedsnr" v="283019" />
	</node>
	<node lat="60.802724998377286" lon="11.066002784258318" id="-38798">
		<tag k="amenity" v="school" />
		<tag k="name" v="Greveløkka skole" />
		<tag k="ssr:stedsnr" v="283412" />
	</node>
	<node lat="60.81207777324825" lon="11.154319450731311" id="-38799">
		<tag k="name" v="Havnen" />
		<tag k="place" v="farm" />
		<tag k="ssr:stedsnr" v="283586" />
	</node>
	<node lat="60.81248333724629" lon="11.162113891940614" id="-38800">
		<tag k="name" v="Frang" />
		<tag k="place" v="isolated_dwelling" />
		<tag k="ssr:stedsnr" v="283590" />
	</node>
	<node lat="60.81228055427776" lon="11.141036104571775" id="-38801">
		<tag k="name" v="Lillehagen" />
		<tag k="place" v="farm" />
		<tag k="ssr:stedsnr" v="283607" />
	</node>
	<node lat="60.842105557451774" lon="11.238899994694968" id="-38802">
		<tag k="name" v="Brattli" />
		<tag k="place" v="isolated_dwelling" />
		<tag k="ssr:stedsnr" v="284272" />
	</node>
	<node lat="60.96380000324017" lon="11.165919442763213" id="-38804">
		<tag k="name" v="Blesterbakken" />
		<tag k="place" v="isolated_dwelling" />
		<tag k="ssr:stedsnr" v="284512" />
	</node>
	<node lat="60.849830556617036" lon="11.160972222361812" id="-38806">
		<tag k="name" v="Hegsvold" />
		<tag k="place" v="isolated_dwelling" />
		<tag k="ssr:stedsnr" v="284589" />
	</node>
	<node lat="60.814675002708555" lon="11.177233329113326" id="-38811">
		<tag k="fixme" v="consider place=suburb, village or hamlet" />
		<tag k="name" v="Vangli" />
		<tag k="place" v="quarter" />
		<tag k="ssr:stedsnr" v="510440" />
	</node>
	<node lat="60.80761944074522" lon="11.043097214828995" id="-38812">
		<tag k="amenity" v="nursing_home" />
		<tag k="name" v="Kløverenga omsorgsbolig" />
		<tag k="ssr:stedsnr" v="465440" />
	</node>
	<node lat="60.85653610681441" lon="11.197661117156265" id="-38813">
		<tag k="name" v="Østby" />
		<tag k="place" v="farm" />
		<tag k="ssr:stedsnr" v="465031" />
	</node>
	<node lat="60.871837586296735" lon="11.12617800684754" id="-38814">
		<tag k="name" v="Vestre Skjeset" />
		<tag k="place" v="farm" />
		<tag k="ssr:stedsnr" v="465676" />
	</node>
	<node lat="60.871422217980175" lon="11.127011118201324" id="-38815">
		<tag k="name" v="Midtre Skjeset" />
		<tag k="place" v="farm" />
		<tag k="ssr:stedsnr" v="465679" />
	</node>
	<node lat="60.832513885414386" lon="11.122458328362677" id="-38816">
		<tag k="name" v="Storimerslundmarka" />
		<tag k="place" v="farm" />
		<tag k="ssr:stedsnr" v="465842" />
	</node>
	<node lat="61.07898888529106" lon="11.129230556208373" id="-38817">
		<tag k="name" v="Nysætra" />
		<tag k="place" v="hamlet" />
		<tag k="ssr:stedsnr" v="310500" />
	</node>
	<node lat="60.87143055807909" lon="11.223374996830492" id="-38818">
		<tag k="name" v="Åsnes" />
		<tag k="place" v="farm" />
		<tag k="ssr:stedsnr" v="466045" />
	</node>
	<node lat="60.862700003070884" lon="11.239452780767854" id="-38819">
		<tag k="name" v="Nystuen" />
		<tag k="place" v="farm" />
		<tag k="ssr:stedsnr" v="466048" />
	</node>
	<node lat="60.842530558822006" lon="11.209369451234304" id="-38820">
		<tag k="name" v="Engestad" />
		<tag k="place" v="isolated_dwelling" />
		<tag k="ssr:stedsnr" v="466273" />
	</node>
	<node lat="60.831005559797966" lon="11.219066672012005" id="-38821">
		<tag k="name" v="Haugen" />
		<tag k="place" v="farm" />
		<tag k="ssr:stedsnr" v="466275" />
	</node>
	<node lat="60.809955553142935" lon="11.020025008671734" id="-38823">
		<tag k="building" v="industrial" />
		<tag k="name" v="Hamar vannverk" />
		<tag k="ssr:stedsnr" v="466470" />
	</node>
	<node lat="60.88649367959566" lon="11.227015462816045" id="-38824">
		<tag k="fixme" v="consider place=hamlet" />
		<tag k="name" v="Bekken" />
		<tag k="place" v="farm" />
		<tag k="ssr:stedsnr" v="312622" />
	</node>
	<node lat="60.794880555201615" lon="11.06800000531668" id="-38826">
		<tag k="name" v="Sagatun" />
		<tag k="place" v="suburb" />
		<tag k="ssr:stedsnr" v="466480" />
	</node>
	<node lat="60.85905896219664" lon="11.16435262132292" id="-38828">
		<tag k="fixme" v="consider place=hamlet" />
		<tag k="name" v="Høgsveen" />
		<tag k="place" v="farm" />
		<tag k="ssr:stedsnr" v="312724" />
	</node>
	<node lat="60.876963713579066" lon="11.152317363781803" id="-38829">
		<tag k="fixme" v="consider place=hamlet" />
		<tag k="name" v="Markestad" />
		<tag k="place" v="farm" />
		<tag k="ssr:stedsnr" v="313688" />
	</node>
	<node lat="60.878830556259175" lon="11.160008329398678" id="-38830">
		<tag k="name" v="Langenga" />
		<tag k="place" v="farm" />
		<tag k="ssr:stedsnr" v="313689" />
	</node>
	<node lat="60.84765833348641" lon="11.117680562443274" id="-38831">
		<tag k="name" v="Øverby" />
		<tag k="place" v="farm" />
		<tag k="ssr:stedsnr" v="313775" />
	</node>
	<node lat="60.79908610911231" lon="11.237508340979268" id="-38832">
		<tag k="name" v="Gilemoen" />
		<tag k="place" v="farm" />
		<tag k="ssr:stedsnr" v="313902" />
	</node>
	<node lat="60.77785918838898" lon="11.185539426795343" id="-38833">
		<tag k="fixme" v="consider place=hamlet" />
		<tag k="name" v="Kvæka" />
		<tag k="place" v="farm" />
		<tag k="ssr:stedsnr" v="313932" />
	</node>
	<node lat="60.82180192791349" lon="11.135943785523354" id="-38834">
		<tag k="fixme" v="consider place=hamlet" />
		<tag k="name" v="Nordre Hol" />
		<tag k="place" v="farm" />
		<tag k="ssr:stedsnr" v="323810" />
	</node>
	<node lat="60.80523610750861" lon="11.156047227310749" id="-38836">
		<tag k="alt_name" v="Hubred store" />
		<tag k="name" v="Store Hubred" />
		<tag k="place" v="farm" />
		<tag k="ssr:stedsnr" v="335750" />
	</node>
	<node lat="60.82969444343369" lon="11.173638895727072" id="-38837">
		<tag k="alt_name" v="Nordre Myr" />
		<tag k="name" v="Myr" />
		<tag k="place" v="farm" />
		<tag k="ssr:stedsnr" v="494788" />
	</node>
	<node lat="60.856619446866695" lon="11.201505549513591" id="-38841">
		<tag k="name" v="Myrdal" />
		<tag k="place" v="farm" />
		<tag k="ssr:stedsnr" v="343042" />
	</node>
	<node lat="60.85489722139943" lon="11.214066663307628" id="-38842">
		<tag k="name" v="Rydheim" />
		<tag k="place" v="farm" />
		<tag k="ssr:stedsnr" v="343045" />
	</node>
	<node lat="60.86925278026013" lon="11.117230548280181" id="-38844">
		<tag k="name" v="Møllerstua" />
		<tag k="place" v="isolated_dwelling" />
		<tag k="ssr:stedsnr" v="343710" />
	</node>
	<node lat="60.86622778040963" lon="11.245822227509041" id="-38846">
		<tag k="name" v="Nybakken" />
		<tag k="place" v="farm" />
		<tag k="ssr:stedsnr" v="344050" />
	</node>
	<node lat="60.85192499893226" lon="11.20123611286633" id="-38851">
		<tag k="name" v="Greftenenga" />
		<tag k="place" v="quarter" />
		<tag k="ssr:stedsnr" v="359958" />
	</node>
	<node lat="61.04976944104245" lon="11.230541658602096" id="-38852">
		<tag k="historic" v="shieling" />
		<tag k="name" v="Brennsætra" />
		<tag k="place" v="isolated_dwelling" />
		<tag k="ssr:stedsnr" v="371259" />
	</node>
	<node lat="61.095772218296354" lon="11.121902773736673" id="-38853">
		<tag k="name" v="Åstholmen" />
		<tag k="place" v="isolated_dwelling" />
		<tag k="ssr:stedsnr" v="371457" />
	</node>
	<node lat="60.8544833326892" lon="11.260330562271461" id="-38856">
		<tag k="name" v="Østhagen" />
		<tag k="place" v="farm" />
		<tag k="ssr:stedsnr" v="373729" />
	</node>
	<node lat="60.877528887942844" lon="11.162604189238795" id="-38857">
		<tag k="fixme" v="consider place=hamlet" />
		<tag k="name" v="Syljuset" />
		<tag k="place" v="farm" />
		<tag k="ssr:stedsnr" v="373696" />
	</node>
	<node lat="60.88329611127637" lon="11.16703203412364" id="-38858">
		<tag k="fixme" v="consider place=hamlet" />
		<tag k="name" v="Sleperud" />
		<tag k="place" v="farm" />
		<tag k="ssr:stedsnr" v="373698" />
	</node>
	<node lat="60.885625000669734" lon="11.218688889458567" id="-38859">
		<tag k="name" v="Stenberg" />
		<tag k="place" v="farm" />
		<tag k="ssr:stedsnr" v="373653" />
	</node>
	<node lat="60.82363055970559" lon="11.183074996448525" id="-38860">
		<tag k="name" v="Vengshol" />
		<tag k="place" v="farm" />
		<tag k="ssr:stedsnr" v="373803" />
	</node>
	<node lat="60.81986732881684" lon="11.217136519776744" id="-38861">
		<tag k="alt_name" v="Store Ingvoldstad" />
		<tag k="name" v="Ingvoldstad" />
		<tag k="place" v="hamlet" />
		<tag k="ssr:stedsnr" v="373823" />
	</node>
	<node lat="60.81511002263766" lon="11.141361232094873" id="-38862">
		<tag k="fixme" v="consider place=hamlet" />
		<tag k="name" v="Stanger" />
		<tag k="place" v="farm" />
		<tag k="ssr:stedsnr" v="373826" />
	</node>
	<node lat="60.82096273971003" lon="11.140676226782732" id="-38863">
		<tag k="fixme" v="consider place=hamlet" />
		<tag k="name" v="Herset" />
		<tag k="place" v="farm" />
		<tag k="ssr:stedsnr" v="373827" />
	</node>
	<node lat="60.879644444410516" lon="11.144294453510655" id="-38864">
		<tag k="name" v="Midtre Dufset" />
		<tag k="place" v="farm" />
		<tag k="ssr:stedsnr" v="480377" />
	</node>
	<node lat="60.8101277798453" lon="11.149663883548529" id="-38870">
		<tag k="name" v="Jorde" />
		<tag k="place" v="farm" />
		<tag k="ssr:stedsnr" v="404598" />
	</node>
	<node lat="60.801341664259816" lon="11.168922215443873" id="-38871">
		<tag k="name" v="Løvlund" />
		<tag k="place" v="isolated_dwelling" />
		<tag k="ssr:stedsnr" v="404601" />
	</node>
	<node lat="60.85504999655472" lon="11.102980560312561" id="-38872">
		<tag k="building" v="industrial" />
		<tag k="name" v="Vang vannverk" />
		<tag k="ssr:stedsnr" v="404800" />
	</node>
	<node lat="60.85275555290663" lon="11.105141658583387" id="-38873">
		<tag k="name" v="Skogtun" />
		<tag k="place" v="isolated_dwelling" />
		<tag k="ssr:stedsnr" v="404801" />
	</node>
	<node lat="60.85396110779736" lon="11.140625001410523" id="-38875">
		<tag k="name" v="Vestre Svenkerud" />
		<tag k="place" v="farm" />
		<tag k="ssr:stedsnr" v="406591" />
	</node>
	<node lat="60.86893333202968" lon="11.178536113651354" id="-38877">
		<tag k="name" v="Høyby" />
		<tag k="place" v="isolated_dwelling" />
		<tag k="ssr:stedsnr" v="419585" />
	</node>
	<node lat="60.80443333689908" lon="11.08679166932746" id="-38878">
		<tag k="amenity" v="school" />
		<tag k="name" v="Børstad ungdomsskole" />
		<tag k="ssr:stedsnr" v="420640" />
	</node>
	<node lat="60.78802499772697" lon="11.192183325011175" id="-38879">
		<tag k="name" v="Skogly" />
		<tag k="place" v="farm" />
		<tag k="ssr:stedsnr" v="421194" />
	</node>
	<node lat="60.978766666548935" lon="11.114966661563411" id="-38880">
		<tag k="historic" v="shieling" />
		<tag k="name" v="Blystad" />
		<tag k="place" v="isolated_dwelling" />
		<tag k="ssr:stedsnr" v="422906" />
	</node>
	<node lat="60.864013891910595" lon="11.214444451737705" id="-38884">
		<tag k="name" v="Greftenmoen" />
		<tag k="place" v="farm" />
		<tag k="ssr:stedsnr" v="434704" />
	</node>
	<node lat="60.84403550333983" lon="11.199635036127201" id="-38885">
		<tag k="alt_name" v="Nedre Slemsrud" />
		<tag k="fixme" v="consider place=hamlet" />
		<tag k="name" v="Slemsrud" />
		<tag k="place" v="farm" />
		<tag k="ssr:stedsnr" v="434719" />
	</node>
	<node lat="60.80951111012203" lon="11.221397230233789" id="-38886">
		<tag k="name" v="Nysveen" />
		<tag k="place" v="farm" />
		<tag k="ssr:stedsnr" v="434815" />
	</node>
	<node lat="60.808542349145306" lon="11.117766723681905" id="-38889">
		<tag k="fixme" v="consider place=hamlet" />
		<tag k="name" v="Sæli" />
		<tag k="place" v="farm" />
		<tag k="ssr:stedsnr" v="494833" />
	</node>
	<node lat="60.80293888562764" lon="11.195716671260046" id="-38890">
		<tag k="name" v="Hanumsveen" />
		<tag k="place" v="farm" />
		<tag k="ssr:stedsnr" v="445878" />
	</node>
	<node lat="60.81199166688872" lon="11.056836104893438" id="-38891">
		<tag k="name" v="Ajer" />
		<tag k="place" v="farm" />
		<tag k="ssr:stedsnr" v="494444" />
	</node>
	<node lat="60.96834444505646" lon="11.162883327224204" id="-38892">
		<tag k="name" v="Nybusætra" />
		<tag k="place" v="hamlet" />
		<tag k="ssr:stedsnr" v="494548" />
	</node>
	<node lat="60.888168043085614" lon="11.203653438922492" id="-38894">
		<tag k="fixme" v="consider place=hamlet" />
		<tag k="name" v="Sandvoll" />
		<tag k="place" v="farm" />
		<tag k="ssr:stedsnr" v="494610" />
	</node>
	<node lat="60.904686111551975" lon="11.194436106101167" id="-38896">
		<tag k="historic" v="shieling" />
		<tag k="name" v="Gåsbusætra" />
		<tag k="place" v="isolated_dwelling" />
		<tag k="ssr:stedsnr" v="494571" />
	</node>
	<node lat="60.90158055565883" lon="11.208013892909065" id="-38897">
		<tag k="name" v="Gåsbu" />
		<tag k="place" v="isolated_dwelling" />
		<tag k="ssr:stedsnr" v="494574" />
	</node>
	<node lat="60.9128500032012" lon="11.132430548465647" id="-38898">
		<tag k="historic" v="shieling" />
		<tag k="name" v="Kluksætra" />
		<tag k="place" v="isolated_dwelling" />
		<tag k="ssr:stedsnr" v="494582" />
	</node>
	<node lat="60.8485388875324" lon="11.158488897706643" id="-38899">
		<tag k="name" v="Sørli" />
		<tag k="place" v="farm" />
		<tag k="ssr:stedsnr" v="494700" />
	</node>
	<node lat="60.84348333127214" lon="11.118052784126776" id="-38900">
		<tag k="alt_name" v="Bråttly" />
		<tag k="name" v="Bråtly" />
		<tag k="place" v="farm" />
		<tag k="ssr:stedsnr" v="494745" />
	</node>
	<node lat="60.8733750027355" lon="11.148797224582053" id="-38903">
		<tag k="name" v="Skjesetødegården" />
		<tag k="place" v="farm" />
		<tag k="ssr:stedsnr" v="460762" />
	</node>
	<node lat="60.802783334981434" lon="11.065880556795948" id="-38904">
		<tag k="amenity" v="school" />
		<tag k="name" v="Greveløkka" />
		<tag k="ssr:stedsnr" v="461669" />
	</node>
	<node lat="60.79402500072835" lon="11.07968611926048" id="-38905">
		<tag k="name" v="Fougner Lundhs plass" />
		<tag k="place" v="square" />
		<tag k="ssr:stedsnr" v="461671" />
	</node>
	<node lat="60.81971666989626" lon="11.084144448471543" id="-38907">
		<tag k="name" v="Benterud" />
		<tag k="place" v="isolated_dwelling" />
		<tag k="ssr:stedsnr" v="465597" />
	</node>
	<node lat="60.823349997954885" lon="11.18384166870674" id="-38908">
		<tag k="name" v="Jøstad" />
		<tag k="place" v="farm" />
		<tag k="ssr:stedsnr" v="466603" />
	</node>
	<node lat="60.858172224485564" lon="11.162688896580345" id="-38909">
		<tag k="name" v="Sveum" />
		<tag k="place" v="isolated_dwelling" />
		<tag k="ssr:stedsnr" v="466619" />
	</node>
	<node lat="60.85016666643642" lon="11.170525005024812" id="-38910">
		<tag k="name" v="Engelien" />
		<tag k="place" v="farm" />
		<tag k="ssr:stedsnr" v="466622" />
	</node>
	<node lat="60.862022225027054" lon="11.140236103285119" id="-38915">
		<tag k="fixme" v="consider place=hamlet" />
		<tag k="name" v="Melby" />
		<tag k="place" v="farm" />
		<tag k="ssr:stedsnr" v="676679" />
	</node>
	<node lat="60.85711619297107" lon="11.140434797472125" id="-38916">
		<tag k="fixme" v="consider place=hamlet" />
		<tag k="name" v="Dalby" />
		<tag k="place" v="farm" />
		<tag k="ssr:stedsnr" v="676746" />
	</node>
	<node lat="60.812546427259036" lon="11.132218971015755" id="-38917">
		<tag k="fixme" v="consider place=hamlet" />
		<tag k="name" v="Lerhus" />
		<tag k="place" v="farm" />
		<tag k="ssr:stedsnr" v="676824" />
	</node>
	<node lat="60.87802272633216" lon="11.238035075129567" id="-38919">
		<tag k="fixme" v="consider place=hamlet" />
		<tag k="name" v="Snekkersveen" />
		<tag k="place" v="farm" />
		<tag k="ssr:stedsnr" v="677670" />
	</node>
	<node lat="60.842786953175974" lon="11.179173799147337" id="-38920">
		<tag k="fixme" v="consider place=hamlet" />
		<tag k="name" v="Suterud" />
		<tag k="place" v="farm" />
		<tag k="ssr:stedsnr" v="677766" />
	</node>
	<node lat="60.83912222199453" lon="11.15332221870752" id="-38921">
		<tag k="name" v="Olstad" />
		<tag k="place" v="farm" />
		<tag k="ssr:stedsnr" v="677769" />
	</node>
	<node lat="60.80834529524647" lon="11.09888257479932" id="-38922">
		<tag k="name" v="Kluke" />
		<tag k="place" v="farm" />
		<tag k="ssr:stedsnr" v="677849" />
	</node>
	<node lat="60.80154444646238" lon="11.086713894563497" id="-38923">
		<tag k="name" v="Børstad" />
		<tag k="place" v="suburb" />
		<tag k="ssr:stedsnr" v="480613" />
	</node>
	<node lat="60.88582499671152" lon="11.121263884308652" id="-38927">
		<tag k="name" v="Lierhagen" />
		<tag k="place" v="farm" />
		<tag k="ssr:stedsnr" v="494606" />
	</node>
	<node lat="60.82794876428748" lon="11.176860683618187" id="-38928">
		<tag k="alt_name" v="Vestre Myr" />
		<tag k="fixme" v="consider place=hamlet" />
		<tag k="name" v="Myr" />
		<tag k="place" v="farm" />
		<tag k="ssr:stedsnr" v="494608" />
	</node>
	<node lat="60.86000000034667" lon="11.117299993101218" id="-38929">
		<tag k="name" v="Østre Narmo" />
		<tag k="old_name" v="Øvre Narmo" />
		<tag k="place" v="farm" />
		<tag k="ssr:stedsnr" v="494660" />
	</node>
	<node lat="60.81830453194718" lon="11.127691254737405" id="-38930">
		<tag k="fixme" v="consider place=hamlet" />
		<tag k="name" v="Store Ingeberg" />
		<tag k="place" v="farm" />
		<tag k="ssr:stedsnr" v="494821" />
	</node>
	<node lat="60.95223611525582" lon="11.160938897060475" id="-38931">
		<tag k="alt_name" v="Sankt Olav" />
		<tag k="name" v="St. Olav" />
		<tag k="place" v="isolated_dwelling" />
		<tag k="ssr:stedsnr" v="495564" />
	</node>
	<node lat="60.941563885754825" lon="11.191158335349208" id="-38932">
		<tag k="fixme" v="consider tourism=alpine_hut or tourism=chalet" />
		<tag k="name" v="Stenfjellhytta" />
		<tag k="ssr:stedsnr" v="495566" />
		<tag k="tourism" v="wilderness_hut" />
	</node>
	<node lat="60.87421111059194" lon="11.162263894675434" id="-38935">
		<tag k="name" v="Rønningen" />
		<tag k="place" v="farm" />
		<tag k="ssr:stedsnr" v="495718" />
	</node>
	<node lat="60.871164245650284" lon="11.15295028262464" id="-38936">
		<tag k="fixme" v="consider place=hamlet" />
		<tag k="name" v="Løvlien" />
		<tag k="place" v="farm" />
		<tag k="ssr:stedsnr" v="495719" />
	</node>
	<node lat="60.82149166482969" lon="11.113975002930488" id="-38937">
		<tag k="name" v="Store Imerslund" />
		<tag k="place" v="farm" />
		<tag k="ssr:stedsnr" v="505814" />
	</node>
	<node lat="60.81104999741318" lon="11.07980277938948" id="-38938">
		<tag k="amenity" v="nursing_home" />
		<tag k="name" v="Klukstuen omsorgssenter" />
		<tag k="ssr:stedsnr" v="522618" />
	</node>
	<node lat="60.795624997464934" lon="11.09230277451347" id="-38940">
		<tag k="leisure" v="pitch" />
		<tag k="name" v="Briskeby gressbane" />
		<tag k="ssr:stedsnr" v="525558" />
	</node>
	<node lat="60.79828333609357" lon="11.071450003540097" id="-38941">
		<tag k="amenity" v="hospital" />
		<tag k="name" v="Sykehuset Innlandet Hamar" />
		<tag k="old_name" v="Hamar Sjukehus" />
		<tag k="ssr:stedsnr" v="525560" />
	</node>
	<node lat="60.85781111435259" lon="11.128644438498837" id="-38943">
		<tag k="name" v="Åsgård" />
		<tag k="place" v="farm" />
		<tag k="ssr:stedsnr" v="525803" />
	</node>
	<node lat="60.86109520367573" lon="11.114309953163161" id="-38944">
		<tag k="name" v="Vestre Narmo" />
		<tag k="old_name" v="Nedre Narmo" />
		<tag k="place" v="farm" />
		<tag k="ssr:stedsnr" v="525804" />
	</node>
	<node lat="60.85804166535251" lon="11.126788894856727" id="-38945">
		<tag k="name" v="Torsgård" />
		<tag k="place" v="isolated_dwelling" />
		<tag k="ssr:stedsnr" v="525809" />
	</node>
	<node lat="60.84900278112094" lon="11.223005550632495" id="-38946">
		<tag k="name" v="Bærum" />
		<tag k="place" v="farm" />
		<tag k="ssr:stedsnr" v="526016" />
	</node>
	<node lat="60.87373889304108" lon="11.241747221080919" id="-38947">
		<tag k="name" v="Holaker" />
		<tag k="place" v="farm" />
		<tag k="ssr:stedsnr" v="526061" />
	</node>
	<node lat="60.867809240844764" lon="11.240329405927561" id="-38948">
		<tag k="fixme" v="consider place=hamlet" />
		<tag k="name" v="Korsbakken" />
		<tag k="place" v="farm" />
		<tag k="ssr:stedsnr" v="526062" />
	</node>
	<node lat="60.80178055818252" lon="11.029547217840399" id="-38950">
		<tag k="name" v="Martodden" />
		<tag k="place" v="quarter" />
		<tag k="ssr:stedsnr" v="526417" />
	</node>
	<node lat="60.82768610699656" lon="11.129661102214843" id="-38951">
		<tag k="amenity" v="school" />
		<tag k="name" v="Ingeberg skole" />
		<tag k="ssr:stedsnr" v="526473" />
	</node>
	<node lat="60.84952778177779" lon="11.182030548401269" id="-38952">
		<tag k="name" v="Borud" />
		<tag k="place" v="isolated_dwelling" />
		<tag k="ssr:stedsnr" v="527580" />
	</node>
	<node lat="60.875802778259285" lon="11.141150005346727" id="-38953">
		<tag k="name" v="Stenshaug" />
		<tag k="place" v="farm" />
		<tag k="ssr:stedsnr" v="541611" />
	</node>
	<node lat="60.822494443007514" lon="11.035619448719638" id="-38955">
		<tag k="name" v="Heimdal" />
		<tag k="place" v="farm" />
		<tag k="ssr:stedsnr" v="688048" />
	</node>
	<node lat="60.91773333199854" lon="11.239191671841898" id="-38958">
		<tag k="alt_name" v="Pannekakebua" />
		<tag k="name" v="Pannekakesletta" />
		<tag k="place" v="locality" />
		<tag k="ssr:stedsnr" v="555565" />
	</node>
	<node lat="60.902883331671106" lon="11.096250002382808" id="-38960">
		<tag k="alt_name" v="Lundsæter" />
		<tag k="historic" v="shieling" />
		<tag k="name" v="Lundsætra" />
		<tag k="place" v="isolated_dwelling" />
		<tag k="ssr:stedsnr" v="555622" />
	</node>
	<node lat="60.852128423230596" lon="11.189275875707537" id="-38962">
		<tag k="fixme" v="consider place=hamlet" />
		<tag k="name" v="Ilset" />
		<tag k="place" v="farm" />
		<tag k="ssr:stedsnr" v="555696" />
	</node>
	<node lat="60.82471595498906" lon="11.210333997115221" id="-38963">
		<tag k="fixme" v="consider place=hamlet" />
		<tag k="name" v="Ålstad" />
		<tag k="place" v="farm" />
		<tag k="ssr:stedsnr" v="555802" />
	</node>
	<node lat="60.82098562526542" lon="11.131192877329292" id="-38964">
		<tag k="fixme" v="consider place=hamlet" />
		<tag k="name" v="Vesle Ingeberg" />
		<tag k="place" v="farm" />
		<tag k="ssr:stedsnr" v="555812" />
	</node>
	<node lat="60.81966664435184" lon="11.252955366996416" id="-38965">
		<tag k="alt_name" v="Lille Vindhol" />
		<tag k="fixme" v="consider place=hamlet" />
		<tag k="name" v="Vindhol" />
		<tag k="place" v="farm" />
		<tag k="ssr:stedsnr" v="555819" />
	</node>
	<node lat="60.846972220006556" lon="11.200838884051922" id="-38966">
		<tag k="fixme" v="consider place=suburb, village or hamlet" />
		<tag k="name" v="Slemsrud" />
		<tag k="place" v="quarter" />
		<tag k="ssr:stedsnr" v="692400" />
	</node>
	<node lat="61.11963888592696" lon="11.053766661005398" id="-38967">
		<tag k="fixme" v="consider tourism=alpine_hut or tourism=chalet" />
		<tag k="name" v="Halgutusveen" />
		<tag k="old_name" v="Hallgutusvea" />
		<tag k="ssr:stedsnr" v="693633" />
		<tag k="tourism" v="wilderness_hut" />
	</node>
	<node lat="60.84511944573536" lon="11.21277499396164" id="-38968">
		<tag k="name" v="Østre Kartomten" />
		<tag k="place" v="farm" />
		<tag k="ssr:stedsnr" v="694444" />
	</node>
	<node lat="60.797666669986164" lon="11.039708325114427" id="-38975">
		<tag k="amenity" v="school" />
		<tag k="name" v="Storhamar videregående skole" />
		<tag k="ssr:stedsnr" v="586450" />
	</node>
	<node lat="60.81321110829357" lon="11.083816672619557" id="-38976">
		<tag k="name" v="Smeby" />
		<tag k="place" v="suburb" />
		<tag k="ssr:stedsnr" v="586607" />
	</node>
	<node lat="60.80826666918938" lon="11.144805563373374" id="-38977">
		<tag k="name" v="Putten" />
		<tag k="place" v="isolated_dwelling" />
		<tag k="ssr:stedsnr" v="586620" />
	</node>
	<node lat="60.88342715953388" lon="11.178161018016088" id="-38978">
		<tag k="name" v="Nor" />
		<tag k="place" v="isolated_dwelling" />
		<tag k="ssr:stedsnr" v="601369" />
	</node>
	<node lat="60.879977780772066" lon="11.15234445146775" id="-38979">
		<tag k="name" v="Nedre Dufset" />
		<tag k="place" v="farm" />
		<tag k="ssr:stedsnr" v="601370" />
	</node>
	<node lat="60.88100278152145" lon="11.143355559023178" id="-38980">
		<tag k="name" v="Vestre Dufset" />
		<tag k="place" v="locality" />
		<tag k="ssr:stedsnr" v="601559" />
	</node>
	<node lat="60.87388888881857" lon="11.153716668410864" id="-38981">
		<tag k="name" v="Finsalødegården" />
		<tag k="place" v="locality" />
		<tag k="ssr:stedsnr" v="601562" />
	</node>
	<node lat="60.87598611534715" lon="11.167555560651955" id="-38982">
		<tag k="name" v="Fjellbu" />
		<tag k="place" v="isolated_dwelling" />
		<tag k="ssr:stedsnr" v="601564" />
	</node>
	<node lat="60.87440555665265" lon="11.166169448729894" id="-38983">
		<tag k="name" v="Holsvebakken" />
		<tag k="place" v="isolated_dwelling" />
		<tag k="ssr:stedsnr" v="601567" />
	</node>
	<node lat="61.0991250023257" lon="11.06574999869372" id="-38989">
		<tag k="historic" v="shieling" />
		<tag k="name" v="Bolsdalen" />
		<tag k="place" v="isolated_dwelling" />
		<tag k="ssr:stedsnr" v="614504" />
	</node>
	<node lat="60.825286565613055" lon="11.23694851657908" id="-38991">
		<tag k="fixme" v="consider place=hamlet" />
		<tag k="name" v="Finnberg" />
		<tag k="place" v="farm" />
		<tag k="ssr:stedsnr" v="615803" />
	</node>
	<node lat="60.82785738042863" lon="11.078983917519766" id="-38992">
		<tag k="fixme" v="consider place=hamlet" />
		<tag k="name" v="Snarud" />
		<tag k="place" v="farm" />
		<tag k="ssr:stedsnr" v="616410" />
	</node>
	<node lat="60.82114999782202" lon="11.050600000102646" id="-38993">
		<tag k="alt_name" v="Alu, østre" />
		<tag k="name" v="Østre Alu" />
		<tag k="place" v="farm" />
		<tag k="ssr:stedsnr" v="616419" />
	</node>
	<node lat="60.93713889284622" lon="11.131699993097476" id="-38996">
		<tag k="name" v="Svartdalskoia" />
		<tag k="place" v="isolated_dwelling" />
		<tag k="ssr:stedsnr" v="616617" />
	</node>
	<node lat="60.83181666408696" lon="11.12404722757366" id="-38997">
		<tag k="name" v="Langbakken" />
		<tag k="place" v="farm" />
		<tag k="ssr:stedsnr" v="616802" />
	</node>
	<node lat="60.811433337367426" lon="11.083444439830227" id="-38999">
		<tag k="name" v="Jesenbakken" />
		<tag k="place" v="isolated_dwelling" />
		<tag k="ssr:stedsnr" v="703981" />
	</node>
	<node lat="60.778508335051576" lon="11.219961103935557" id="-39004">
		<tag k="name" v="Skaubo" />
		<tag k="place" v="isolated_dwelling" />
		<tag k="ssr:stedsnr" v="646186" />
	</node>
	<node lat="60.833477782367396" lon="11.093108325195596" id="-39005">
		<tag k="name" v="Sveen" />
		<tag k="place" v="farm" />
		<tag k="ssr:stedsnr" v="646807" />
	</node>
	<node lat="60.851461108664815" lon="11.10299167346958" id="-39006">
		<tag k="name" v="Nordengen" />
		<tag k="place" v="isolated_dwelling" />
		<tag k="ssr:stedsnr" v="646794" />
	</node>
	<node lat="60.849475002417925" lon="11.194741664696503" id="-39007">
		<tag k="name" v="Neby" />
		<tag k="place" v="farm" />
		<tag k="ssr:stedsnr" v="647025" />
	</node>
	<node lat="60.89688061107372" lon="11.224188575282158" id="-39008">
		<tag k="fixme" v="consider place=hamlet" />
		<tag k="name" v="Øvre Vollen" />
		<tag k="place" v="farm" />
		<tag k="ssr:stedsnr" v="647117" />
	</node>
	<node lat="60.7985055526087" lon="11.187213879848603" id="-39010">
		<tag k="name" v="Vestre Hanum" />
		<tag k="place" v="farm" />
		<tag k="ssr:stedsnr" v="647513" />
	</node>
	<node lat="60.856819444123204" lon="11.139633339099806" id="-39011">
		<tag k="name" v="Nedre Dalby" />
		<tag k="place" v="farm" />
		<tag k="ssr:stedsnr" v="648614" />
	</node>
	<node lat="60.85228888672788" lon="11.195591659786036" id="-39013">
		<tag k="name" v="Haga" />
		<tag k="place" v="farm" />
		<tag k="ssr:stedsnr" v="708048" />
	</node>
	<node lat="60.85429444476411" lon="11.201894440323072" id="-39015">
		<tag k="name" v="Slettvoll" />
		<tag k="place" v="farm" />
		<tag k="ssr:stedsnr" v="708056" />
	</node>
	<node lat="60.80470555714691" lon="11.179899991904161" id="-39017">
		<tag k="name" v="Skurdal" />
		<tag k="place" v="farm" />
		<tag k="ssr:stedsnr" v="708596" />
	</node>
	<node lat="60.841194444905334" lon="11.225588887713018" id="-39021">
		<tag k="name" v="Haugli" />
		<tag k="place" v="isolated_dwelling" />
		<tag k="ssr:stedsnr" v="709269" />
	</node>
	<node lat="60.80767500255512" lon="11.033158334449892" id="-39023">
		<tag k="leisure" v="pitch" />
		<tag k="name" v="Prestrudhallen" />
		<tag k="ssr:stedsnr" v="709463" />
	</node>
	<node lat="60.8013722180962" lon="11.037855559013746" id="-39024">
		<tag k="leisure" v="pitch" />
		<tag k="name" v="Hamar OL amfi Nordlyshallen" />
		<tag k="ssr:stedsnr" v="709466" />
	</node>
	<node lat="60.79834722300551" lon="11.053938895188184" id="-39025">
		<tag k="name" v="Stormyra" />
		<tag k="place" v="quarter" />
		<tag k="ssr:stedsnr" v="709482" />
	</node>
	<node lat="60.80573611175753" lon="11.055313887144802" id="-39026">
		<tag k="amenity" v="school" />
		<tag k="name" v="Hamar katedralskole" />
		<tag k="ssr:stedsnr" v="890482" />
	</node>
	<node lat="60.812336108472316" lon="11.146916658363129" id="-39027">
		<tag k="amenity" v="nursing_home" />
		<tag k="name" v="Kåtorp bo- og aktivitetssenter" />
		<tag k="old_name" v="Kåtorp pensjonistsenter" />
		<tag k="ssr:stedsnr" v="890647" />
	</node>
	<node lat="60.80828611146199" lon="11.141372213177917" id="-39028">
		<tag k="name" v="Listua" />
		<tag k="place" v="isolated_dwelling" />
		<tag k="ssr:stedsnr" v="890664" />
	</node>
	<node lat="60.79601666889296" lon="11.182750007932176" id="-39030">
		<tag k="name" v="Nygård" />
		<tag k="place" v="isolated_dwelling" />
		<tag k="ssr:stedsnr" v="890545" />
	</node>
	<node lat="60.796186114058116" lon="11.077158337285287" id="-39032">
		<tag k="name" v="Holset" />
		<tag k="place" v="suburb" />
		<tag k="ssr:stedsnr" v="890581" />
	</node>
	<node lat="60.79378888696482" lon="11.074302777224215" id="-39033">
		<tag k="name" v="Østre Torg" />
		<tag k="place" v="square" />
		<tag k="ssr:stedsnr" v="890586" />
	</node>
	<node lat="60.86623888608065" lon="11.224161118604727" id="-39034">
		<tag k="name" v="Nordbryn" />
		<tag k="place" v="farm" />
		<tag k="ssr:stedsnr" v="891074" />
	</node>
	<node lat="60.88644722108289" lon="11.22232221535517" id="-39035">
		<tag k="name" v="Øverhagen" />
		<tag k="place" v="farm" />
		<tag k="ssr:stedsnr" v="891080" />
	</node>
	<node lat="60.924597223750254" lon="11.155969450581521" id="-39038">
		<tag k="name" v="Stormyrbrakka" />
		<tag k="place" v="isolated_dwelling" />
		<tag k="ssr:stedsnr" v="891479" />
	</node>
	<node lat="60.884050001609005" lon="11.237200004751315" id="-39039">
		<tag k="name" v="Bergsetbakken" />
		<tag k="place" v="farm" />
		<tag k="ssr:stedsnr" v="676633" />
	</node>
	<node lat="60.861777594437754" lon="11.251823821245559" id="-39041">
		<tag k="fixme" v="consider place=hamlet" />
		<tag k="name" v="Alderslyst" />
		<tag k="place" v="farm" />
		<tag k="ssr:stedsnr" v="676740" />
	</node>
	<node lat="60.857880245479315" lon="11.17379682463378" id="-39042">
		<tag k="fixme" v="consider place=hamlet" />
		<tag k="name" v="Mangerud" />
		<tag k="place" v="farm" />
		<tag k="ssr:stedsnr" v="676744" />
	</node>
	<node lat="60.82861615859001" lon="11.241209318094242" id="-39043">
		<tag k="fixme" v="consider place=hamlet" />
		<tag k="name" v="Oppstad" />
		<tag k="place" v="farm" />
		<tag k="ssr:stedsnr" v="676783" />
	</node>
	<node lat="60.84484999617994" lon="11.26770000574961" id="-39044">
		<tag k="name" v="Lillehagen" />
		<tag k="place" v="farm" />
		<tag k="ssr:stedsnr" v="677783" />
	</node>
	<node lat="60.849908331074026" lon="11.164322216262955" id="-39049">
		<tag k="name" v="Stensby" />
		<tag k="place" v="farm" />
		<tag k="ssr:stedsnr" v="709581" />
	</node>
	<node lat="60.86063610845233" lon="11.158616668287104" id="-39050">
		<tag k="name" v="Enerødegården" />
		<tag k="place" v="farm" />
		<tag k="ssr:stedsnr" v="709592" />
	</node>
	<node lat="60.87702616172721" lon="11.120194994397021" id="-39051">
		<tag k="fixme" v="consider place=hamlet" />
		<tag k="name" v="Lier" />
		<tag k="place" v="farm" />
		<tag k="ssr:stedsnr" v="709784" />
	</node>
	<node lat="60.86547799845688" lon="11.200396026722535" id="-39057">
		<tag k="alt_name" v="Rydningstad" />
		<tag k="fixme" v="consider place=hamlet" />
		<tag k="name" v="Rønningstad" />
		<tag k="place" v="farm" />
		<tag k="ssr:stedsnr" v="737703" />
	</node>
	<node lat="60.82951110472066" lon="11.18758311788492" id="-39059">
		<tag k="fixme" v="consider place=hamlet" />
		<tag k="name" v="Dæli" />
		<tag k="place" v="farm" />
		<tag k="ssr:stedsnr" v="737809" />
	</node>
	<node lat="60.81700495982036" lon="11.206443911794892" id="-39060">
		<tag k="fixme" v="consider place=hamlet" />
		<tag k="name" v="Hommelstad" />
		<tag k="place" v="farm" />
		<tag k="ssr:stedsnr" v="737832" />
	</node>
	<node lat="60.813680556441746" lon="11.222730556844171" id="-39061">
		<tag k="name" v="Lillehagen" />
		<tag k="place" v="farm" />
		<tag k="ssr:stedsnr" v="737834" />
	</node>
	<node lat="60.81663070209353" lon="11.15923584459254" id="-39062">
		<tag k="fixme" v="consider place=hamlet" />
		<tag k="name" v="Rogstad" />
		<tag k="place" v="farm" />
		<tag k="ssr:stedsnr" v="737839" />
	</node>
	<node lat="60.84120278117591" lon="11.11881388062452" id="-39063">
		<tag k="alt_name" v="Slettli" />
		<tag k="name" v="Slettly" />
		<tag k="place" v="farm" />
		<tag k="ssr:stedsnr" v="737758" />
	</node>
	<node lat="60.84138147120918" lon="11.212294809941778" id="-39064">
		<tag k="fixme" v="consider place=hamlet" />
		<tag k="name" v="Bjørtomten" />
		<tag k="place" v="farm" />
		<tag k="ssr:stedsnr" v="737761" />
	</node>
	<node lat="60.78804312996162" lon="11.200708420014147" id="-39065">
		<tag k="fixme" v="consider place=hamlet" />
		<tag k="name" v="Dalfarmen" />
		<tag k="place" v="farm" />
		<tag k="ssr:stedsnr" v="737905" />
	</node>
	<node lat="60.835477892464496" lon="11.261055927838031" id="-39067">
		<tag k="fixme" v="consider place=hamlet" />
		<tag k="name" v="Østre Arnset" />
		<tag k="place" v="farm" />
		<tag k="ssr:stedsnr" v="748808" />
	</node>
	<node lat="60.84174444352433" lon="11.157863890964764" id="-39069">
		<tag k="name" v="Holmsveen" />
		<tag k="place" v="farm" />
		<tag k="ssr:stedsnr" v="905579" />
	</node>
	<node lat="60.83152222306385" lon="11.155536102600811" id="-39070">
		<tag k="name" v="Øverli" />
		<tag k="place" v="isolated_dwelling" />
		<tag k="ssr:stedsnr" v="905587" />
	</node>
	<node lat="60.853936111983764" lon="11.197013897762757" id="-39077">
		<tag k="name" v="Nybakken" />
		<tag k="place" v="farm" />
		<tag k="ssr:stedsnr" v="768049" />
	</node>
	<node lat="60.82660833766464" lon="11.258980555812693" id="-39080">
		<tag k="name" v="Stensli" />
		<tag k="place" v="farm" />
		<tag k="ssr:stedsnr" v="770218" />
	</node>
	<node lat="60.85245832964399" lon="11.133652770561957" id="-39081">
		<tag k="name" v="Vestheim" />
		<tag k="place" v="isolated_dwelling" />
		<tag k="ssr:stedsnr" v="770555" />
	</node>
	<node lat="60.824475568000494" lon="11.111171315030463" id="-39082">
		<tag k="name" v="Imerslund" />
		<tag k="place" v="hamlet" />
		<tag k="ssr:stedsnr" v="771268" />
	</node>
	<node lat="61.06971111198267" lon="11.169980560382148" id="-39089">
		<tag k="fixme" v="consider tourism=alpine_hut or tourism=chalet" />
		<tag k="name" v="Sandfløten" />
		<tag k="ssr:stedsnr" v="796258" />
		<tag k="tourism" v="wilderness_hut" />
	</node>
	<node lat="60.87474722121367" lon="11.189719436792737" id="-39092">
		<tag k="name" v="Skogen" />
		<tag k="place" v="farm" />
		<tag k="ssr:stedsnr" v="798651" />
	</node>
	<node lat="60.88066944864265" lon="11.132338891795854" id="-39093">
		<tag k="name" v="Berg" />
		<tag k="place" v="farm" />
		<tag k="ssr:stedsnr" v="798654" />
	</node>
	<node lat="60.821038889739796" lon="11.070566658870293" id="-39094">
		<tag k="alt_name" v="Vallsig, vestre" />
		<tag k="name" v="Vestre Vallsig" />
		<tag k="place" v="farm" />
		<tag k="ssr:stedsnr" v="798400" />
	</node>
	<node lat="60.858399999305966" lon="11.18786111189094" id="-39097">
		<tag k="name" v="Rustad" />
		<tag k="place" v="farm" />
		<tag k="ssr:stedsnr" v="798705" />
	</node>
	<node lat="60.80450278177829" lon="11.101386107422297" id="-39098">
		<tag k="name" v="Børstad" />
		<tag k="place" v="farm" />
		<tag k="ssr:stedsnr" v="798806" />
	</node>
	<node lat="60.80799944261361" lon="11.152010404302226" id="-39099">
		<tag k="fixme" v="consider place=hamlet" />
		<tag k="name" v="Ry" />
		<tag k="place" v="farm" />
		<tag k="ssr:stedsnr" v="798808" />
	</node>
	<node lat="60.798761108120715" lon="11.167563889672255" id="-39100">
		<tag k="name" v="Lovisenberg" />
		<tag k="place" v="farm" />
		<tag k="ssr:stedsnr" v="798841" />
	</node>
	<node lat="60.81273916781123" lon="11.201593116962782" id="-39101">
		<tag k="name" v="Dørum" />
		<tag k="place" v="hamlet" />
		<tag k="ssr:stedsnr" v="798793" />
	</node>
	<node lat="61.104561109954886" lon="11.057149996416484" id="-39103">
		<tag k="name" v="Bringbusætra" />
		<tag k="place" v="hamlet" />
		<tag k="ssr:stedsnr" v="917488" />
	</node>
	<node lat="60.80126944061529" lon="11.130499994993498" id="-39104">
		<tag k="alt_name" v="Åker" />
		<tag k="name" v="Ridabu" />
		<tag k="place" v="village" />
		<tag k="ssr:stedsnr" v="811990" />
	</node>
	<node lat="60.82537500265148" lon="11.114666670802785" id="-39105">
		<tag k="name" v="Østre Imerslund" />
		<tag k="place" v="farm" />
		<tag k="ssr:stedsnr" v="811991" />
	</node>
	<node lat="61.09951814708753" lon="11.084143904145174" id="-39106">
		<tag k="fixme" v="consider place=hamlet" />
		<tag k="name" v="Øya" />
		<tag k="place" v="farm" />
		<tag k="ssr:stedsnr" v="918558" />
	</node>
	<node lat="60.81014722195719" lon="11.219491668277898" id="-39107">
		<tag k="name" v="Smedstua" />
		<tag k="old_name" v="Smedstuen" />
		<tag k="place" v="farm" />
		<tag k="ssr:stedsnr" v="919852" />
	</node>
	<node lat="60.87169444649306" lon="11.1525277727623" id="-39108">
		<tag k="name" v="Øvre Løvlien" />
		<tag k="place" v="farm" />
		<tag k="ssr:stedsnr" v="816488" />
	</node>
	<node lat="60.95656666207558" lon="11.210144452610136" id="-39109">
		<tag k="historic" v="shieling" />
		<tag k="name" v="Stensætra" />
		<tag k="place" v="isolated_dwelling" />
		<tag k="ssr:stedsnr" v="919569" />
	</node>
	<node lat="60.88306944421726" lon="11.183047229175928" id="-39111">
		<tag k="amenity" v="nursing_home" />
		<tag k="name" v="Vangseter" />
		<tag k="ssr:stedsnr" v="919617" />
	</node>
	<node lat="60.88470277649441" lon="11.188577784673889" id="-39112">
		<tag k="name" v="Lia" />
		<tag k="place" v="farm" />
		<tag k="ssr:stedsnr" v="919618" />
	</node>
	<node lat="60.89484721773133" lon="11.2301527852546" id="-39113">
		<tag k="name" v="Nedrevollen" />
		<tag k="place" v="isolated_dwelling" />
		<tag k="ssr:stedsnr" v="919620" />
	</node>
	<node lat="60.845224999102875" lon="11.15910555328022" id="-39115">
		<tag k="name" v="Hjemli" />
		<tag k="place" v="farm" />
		<tag k="ssr:stedsnr" v="919736" />
	</node>
	<node lat="60.839624996447576" lon="11.175799997103779" id="-39116">
		<tag k="name" v="Kjøssveen" />
		<tag k="place" v="locality" />
		<tag k="ssr:stedsnr" v="919740" />
	</node>
	<node lat="60.86501687462389" lon="11.24191899609943" id="-39117">
		<tag k="fixme" v="consider place=hamlet" />
		<tag k="name" v="Fetbekken" />
		<tag k="place" v="farm" />
		<tag k="ssr:stedsnr" v="919683" />
	</node>
	<node lat="60.82318454894032" lon="11.167494738642281" id="-39118">
		<tag k="fixme" v="consider place=hamlet" />
		<tag k="name" v="Nashaug" />
		<tag k="place" v="farm" />
		<tag k="ssr:stedsnr" v="919783" />
	</node>
	<node lat="60.800107015611026" lon="11.15638206580893" id="-39119">
		<tag k="fixme" v="consider place=hamlet" />
		<tag k="name" v="Hjellum" />
		<tag k="place" v="farm" />
		<tag k="ssr:stedsnr" v="919862" />
	</node>
	<node lat="60.92081111040669" lon="11.096136114827171" id="-39120">
		<tag k="name" v="Gråbendalskoia" />
		<tag k="place" v="isolated_dwelling" />
		<tag k="ssr:stedsnr" v="920627" />
	</node>
	<node lat="60.84927222301784" lon="11.19081945049917" id="-39121">
		<tag k="name" v="Bekkelund" />
		<tag k="place" v="farm" />
		<tag k="ssr:stedsnr" v="829021" />
	</node>
	<node lat="60.8509472237845" lon="11.204363887891885" id="-39122">
		<tag k="name" v="Elvsrud" />
		<tag k="place" v="farm" />
		<tag k="ssr:stedsnr" v="829026" />
	</node>
	<node lat="60.799702775002494" lon="11.12166389665546" id="-39123">
		<tag k="name" v="Åker gård" />
		<tag k="place" v="farm" />
		<tag k="ssr:stedsnr" v="829515" />
	</node>
	<node lat="60.80038333467503" lon="11.084863897902315" id="-39124">
		<tag k="amenity" v="school" />
		<tag k="name" v="Rollsløkken skole" />
		<tag k="ssr:stedsnr" v="829554" />
	</node>
	<node lat="60.813177778699824" lon="11.16677222634061" id="-39127">
		<tag k="name" v="Paradis" />
		<tag k="place" v="farm" />
		<tag k="ssr:stedsnr" v="829628" />
	</node>
	<node lat="60.864180556728776" lon="11.111886101986984" id="-39128">
		<tag k="name" v="Holmen" />
		<tag k="place" v="isolated_dwelling" />
		<tag k="ssr:stedsnr" v="829681" />
	</node>
	<node lat="60.881822744608314" lon="11.218634457921729" id="-39129">
		<tag k="fixme" v="consider place=hamlet" />
		<tag k="name" v="Stenbergrønningen" />
		<tag k="place" v="farm" />
		<tag k="ssr:stedsnr" v="830068" />
	</node>
	<node lat="60.818358609282235" lon="11.105177157168203" id="-39130">
		<tag k="name" v="Flagstad" />
		<tag k="place" v="hamlet" />
		<tag k="ssr:stedsnr" v="832283" />
	</node>
	<node lat="60.830547222458854" lon="11.131716660249918" id="-39132">
		<tag k="name" v="Haugom" />
		<tag k="place" v="farm" />
		<tag k="ssr:stedsnr" v="844573" />
	</node>
	<node lat="61.098000002011084" lon="11.106247230181827" id="-39133">
		<tag k="name" v="Nygardshytta" />
		<tag k="place" v="locality" />
		<tag k="ssr:stedsnr" v="844879" />
	</node>
	<node lat="61.12018055912232" lon="11.080841664742673" id="-39136">
		<tag k="name" v="Morgenvollkoia" />
		<tag k="place" v="isolated_dwelling" />
		<tag k="ssr:stedsnr" v="846925" />
	</node>
	<node lat="60.896230557761285" lon="11.237011108780148" id="-39140">
		<tag k="name" v="Vollkoia" />
		<tag k="place" v="isolated_dwelling" />
		<tag k="ssr:stedsnr" v="859616" />
	</node>
	<node lat="60.8552583321331" lon="11.179608336200381" id="-39141">
		<tag k="name" v="Skålerudengen" />
		<tag k="old_name" v="Sandnes" />
		<tag k="place" v="farm" />
		<tag k="ssr:stedsnr" v="859709" />
	</node>
	<node lat="60.861072222448705" lon="11.162266664991419" id="-39142">
		<tag k="alt_name" v="Høgli" />
		<tag k="name" v="Høglund" />
		<tag k="place" v="farm" />
		<tag k="ssr:stedsnr" v="859721" />
	</node>
	<node lat="60.83692777607126" lon="11.119608326134296" id="-39143">
		<tag k="name" v="Myrheim" />
		<tag k="place" v="farm" />
		<tag k="ssr:stedsnr" v="859765" />
	</node>
	<node lat="60.83469722298652" lon="11.120938892190424" id="-39144">
		<tag k="name" v="Rydland" />
		<tag k="place" v="farm" />
		<tag k="ssr:stedsnr" v="859766" />
	</node>
	<node lat="60.837386753858446" lon="11.187451221306482" id="-39145">
		<tag k="fixme" v="consider place=hamlet" />
		<tag k="name" v="Kjøs" />
		<tag k="place" v="farm" />
		<tag k="ssr:stedsnr" v="859767" />
	</node>
	<node lat="60.83463333275083" lon="11.188730556539522" id="-39146">
		<tag k="name" v="Vesle Oppsal" />
		<tag k="place" v="farm" />
		<tag k="ssr:stedsnr" v="859768" />
	</node>
	<node lat="60.85921111272153" lon="11.137602787078643" id="-39147">
		<tag k="name" v="Nordby" />
		<tag k="place" v="farm" />
		<tag k="ssr:stedsnr" v="859665" />
	</node>
	<node lat="60.81417499699463" lon="11.239294448691368" id="-39148">
		<tag k="name" v="Volla" />
		<tag k="place" v="farm" />
		<tag k="ssr:stedsnr" v="859806" />
	</node>
	<node lat="60.79123333312025" lon="11.14934721396185" id="-39149">
		<tag k="fixme" v="consider place=suburb, village or hamlet" />
		<tag k="name" v="Hjellum" />
		<tag k="place" v="quarter" />
		<tag k="ssr:stedsnr" v="859879" />
	</node>
	<node lat="60.804066671176635" lon="11.066224995657233" id="-39150">
		<tag k="amenity" v="sports_centre" />
		<tag k="name" v="Ankerskogen svømmehall og idrettspark" />
		<tag k="ssr:stedsnr" v="872322" />
	</node>
	<node lat="60.797913893123244" lon="11.097633339325352" id="-39151">
		<tag k="name" v="Disen" />
		<tag k="place" v="suburb" />
		<tag k="ssr:stedsnr" v="932992" />
	</node>
	<node lat="60.792979252382864" lon="11.21677162450963" id="-39152">
		<tag k="fixme" v="consider place=hamlet" />
		<tag k="name" v="Voll" />
		<tag k="place" v="farm" />
		<tag k="ssr:stedsnr" v="933404" />
	</node>
	<node lat="60.899783333274456" lon="11.217666669172129" id="-39154">
		<tag k="name" v="Østeråskoia" />
		<tag k="place" v="isolated_dwelling" />
		<tag k="ssr:stedsnr" v="891109" />
	</node>
	<node lat="60.87590154311056" lon="11.236948333426412" id="-39155">
		<tag k="fixme" v="consider place=hamlet" />
		<tag k="name" v="Holenbakken" />
		<tag k="place" v="farm" />
		<tag k="ssr:stedsnr" v="891070" />
	</node>
	<node lat="60.8827444423208" lon="11.178383340657112" id="-39159">
		<tag k="name" v="Øvre Kirkeby" />
		<tag k="place" v="locality" />
		<tag k="ssr:stedsnr" v="905378" />
	</node>
	<node lat="60.94919444666885" lon="11.12799999437489" id="-39162">
		<tag k="name" v="Kræggerud" />
		<tag k="place" v="isolated_dwelling" />
		<tag k="ssr:stedsnr" v="908263" />
	</node>
	<node lat="60.83151110835885" lon="11.223083340635483" id="-39168">
		<tag k="name" v="Nylende" />
		<tag k="place" v="farm" />
		<tag k="ssr:stedsnr" v="919758" />
	</node>
	<node lat="60.88098331179187" lon="11.241638673493044" id="-39169">
		<tag k="fixme" v="consider place=hamlet" />
		<tag k="name" v="Bergset" />
		<tag k="place" v="farm" />
		<tag k="ssr:stedsnr" v="919657" />
	</node>
	<node lat="60.84849722204211" lon="11.21580000738256" id="-39170">
		<tag k="name" v="Moløkka" />
		<tag k="place" v="farm" />
		<tag k="ssr:stedsnr" v="919702" />
	</node>
	<node lat="60.81957500111679" lon="11.156313890021236" id="-39174">
		<tag k="name" v="Nedre Skråstad" />
		<tag k="place" v="farm" />
		<tag k="ssr:stedsnr" v="950590" />
	</node>
	<node lat="60.80591143603613" lon="11.13865003727749" id="-39175">
		<tag k="alt_name" v="Gråner" />
		<tag k="name" v="Graner" />
		<tag k="place" v="isolated_dwelling" />
		<tag k="ssr:stedsnr" v="950606" />
	</node>
	<node lat="60.817338885833436" lon="11.142297215765534" id="-39176">
		<tag k="name" v="Solberg" />
		<tag k="place" v="isolated_dwelling" />
		<tag k="ssr:stedsnr" v="950607" />
	</node>
	<node lat="60.82524444797098" lon="11.08042221620232" id="-39177">
		<tag k="leisure" v="pitch" />
		<tag k="name" v="Galåsbana" />
		<tag k="ssr:stedsnr" v="950809" />
	</node>
	<node lat="60.83483333201654" lon="11.166872227598773" id="-39179">
		<tag k="name" v="Stensrud" />
		<tag k="place" v="farm" />
		<tag k="ssr:stedsnr" v="951033" />
	</node>
	<node lat="60.81949999978762" lon="11.256508325911408" id="-39181">
		<tag k="name" v="Store Vindhol" />
		<tag k="place" v="farm" />
		<tag k="ssr:stedsnr" v="952260" />
	</node>
	<node lat="60.80181111342967" lon="11.064288895653013" id="-39182">
		<tag k="leisure" v="pitch" />
		<tag k="name" v="Greveløkka" />
		<tag k="ssr:stedsnr" v="952452" />
	</node>
	<node lat="60.87714444135341" lon="11.173111105527266" id="-39183">
		<tag k="name" v="Østre Tomterødegården" />
		<tag k="place" v="farm" />
		<tag k="ssr:stedsnr" v="965400" />
	</node>
	<node lat="60.81832981128713" lon="11.080783304908744" id="-39194">
		<tag k="fixme" v="consider place=hamlet" />
		<tag k="name" v="Stav" />
		<tag k="place" v="farm" />
		<tag k="ssr:stedsnr" v="9430" />
	</node>
	<node lat="60.88213889035262" lon="11.210544445953447" id="-39199">
		<tag k="historic" v="shieling" />
		<tag k="name" v="Braset" />
		<tag k="place" v="isolated_dwelling" />
		<tag k="ssr:stedsnr" v="9671" />
	</node>
	<node lat="60.87262675272808" lon="11.127033633063455" id="-39201">
		<tag k="fixme" v="consider place=hamlet" />
		<tag k="name" v="Skjeset" />
		<tag k="place" v="farm" />
		<tag k="ssr:stedsnr" v="9721" />
	</node>
	<node lat="60.84320555869429" lon="11.256847221404035" id="-39202">
		<tag k="name" v="Nordli" />
		<tag k="place" v="farm" />
		<tag k="ssr:stedsnr" v="9766" />
	</node>
	<node lat="60.838386109844244" lon="11.250305547423418" id="-39203">
		<tag k="name" v="Arnsetbakken" />
		<tag k="old_name" v="Arnsethagen" />
		<tag k="place" v="farm" />
		<tag k="ssr:stedsnr" v="9769" />
	</node>
	<node lat="60.82966051459736" lon="11.181485052762904" id="-39204">
		<tag k="alt_name" v="Søndre Blystad" />
		<tag k="name" v="Blystad" />
		<tag k="place" v="hamlet" />
		<tag k="ssr:stedsnr" v="9784" />
	</node>
	<node lat="60.81802991220435" lon="11.103987093846929" id="-39206">
		<tag k="name" v="Vestre Flagstad" />
		<tag k="place" v="farm" />
		<tag k="ssr:stedsnr" v="30039" />
	</node>
	<node lat="60.84344722290888" lon="11.186008335708307" id="-39207">
		<tag k="name" v="Vestre Dystvoll" />
		<tag k="place" v="farm" />
		<tag k="ssr:stedsnr" v="30193" />
	</node>
	<node lat="60.88845555947234" lon="11.196255562111526" id="-39208">
		<tag k="name" v="Ormsætra" />
		<tag k="place" v="hamlet" />
		<tag k="ssr:stedsnr" v="36992" />
	</node>
	<node lat="60.85076111177127" lon="11.198733327169748" id="-39211">
		<tag k="name" v="Nordseng" />
		<tag k="place" v="isolated_dwelling" />
		<tag k="ssr:stedsnr" v="40026" />
	</node>
	<node lat="60.8199861093074" lon="11.125113883127526" id="-39212">
		<tag k="name" v="Skrenten" />
		<tag k="place" v="isolated_dwelling" />
		<tag k="ssr:stedsnr" v="40630" />
	</node>
	<node lat="60.80511110961908" lon="11.181944443083896" id="-39213">
		<tag k="name" v="Nyheim" />
		<tag k="place" v="farm" />
		<tag k="ssr:stedsnr" v="40587" />
	</node>
	<node lat="60.872101692290784" lon="11.22774565195241" id="-39214">
		<tag k="fixme" v="consider place=hamlet" />
		<tag k="name" v="Åsbakken" />
		<tag k="place" v="farm" />
		<tag k="ssr:stedsnr" v="41040" />
	</node>
	<node lat="60.79353611259653" lon="11.08011110221872" id="-39216">
		<tag k="amenity" v="nursing_home" />
		<tag k="name" v="Parkgården" />
		<tag k="ssr:stedsnr" v="40476" />
	</node>
	<node lat="60.793486109409656" lon="11.091372222152337" id="-39217">
		<tag k="name" v="Briskebyen" />
		<tag k="place" v="suburb" />
		<tag k="ssr:stedsnr" v="40555" />
	</node>
	<node lat="60.87801666568578" lon="11.223369448201645" id="-39220">
		<tag k="name" v="Sollia" />
		<tag k="place" v="farm" />
		<tag k="ssr:stedsnr" v="41059" />
	</node>
	<node lat="60.93319722630773" lon="11.132130564452524" id="-39221">
		<tag k="name" v="Puttmyrkoia" />
		<tag k="place" v="isolated_dwelling" />
		<tag k="ssr:stedsnr" v="41455" />
	</node>
	<node lat="60.82471666363112" lon="11.198952778831154" id="-39222">
		<tag k="name" v="Grindstua" />
		<tag k="place" v="isolated_dwelling" />
		<tag k="ssr:stedsnr" v="42234" />
	</node>
	<node lat="60.84063545989602" lon="11.213594811136764" id="-39223">
		<tag k="name" v="Nedre Bjørtomten" />
		<tag k="place" v="farm" />
		<tag k="ssr:stedsnr" v="42247" />
	</node>
	<node lat="60.810802777214384" lon="11.049477777225313" id="-39224">
		<tag k="name" v="Bekkesvea" />
		<tag k="place" v="suburb" />
		<tag k="ssr:stedsnr" v="42450" />
	</node>
	<node lat="60.84935000353006" lon="11.170916660746151" id="-39225">
		<tag k="name" v="Lunde" />
		<tag k="place" v="farm" />
		<tag k="ssr:stedsnr" v="42564" />
	</node>
	<node lat="60.806713887156" lon="11.128452785468005" id="-39226">
		<tag k="amenity" v="school" />
		<tag k="name" v="Ener ungdomsskole" />
		<tag k="ssr:stedsnr" v="46030" />
	</node>
	<node lat="60.83115555369389" lon="11.160533325323685" id="-39227">
		<tag k="name" v="Bakken" />
		<tag k="place" v="farm" />
		<tag k="ssr:stedsnr" v="55547" />
	</node>
	<node lat="60.81138332939757" lon="11.166952780105017" id="-39232">
		<tag k="name" v="Rysvea" />
		<tag k="place" v="quarter" />
		<tag k="ssr:stedsnr" v="56955" />
	</node>
	<node lat="61.05190000234816" lon="11.161097229487806" id="-39236">
		<tag k="name" v="Lavlia" />
		<tag k="place" v="isolated_dwelling" />
		<tag k="ssr:stedsnr" v="68278" />
	</node>
	<node lat="60.8177833319332" lon="11.047480556258945" id="-39241">
		<tag k="alt_name" v="Alu, vestre" />
		<tag k="name" v="Vestre Alu" />
		<tag k="place" v="farm" />
		<tag k="ssr:stedsnr" v="70421" />
	</node>
	<node lat="60.90631388965182" lon="11.232952786408859" id="-39242">
		<tag k="name" v="Grønkoia" />
		<tag k="place" v="isolated_dwelling" />
		<tag k="ssr:stedsnr" v="70591" />
	</node>
	<node lat="60.87794722569425" lon="11.218083326250738" id="-39244">
		<tag k="name" v="Nordsveen" />
		<tag k="place" v="farm" />
		<tag k="ssr:stedsnr" v="70676" />
	</node>
	<node lat="60.881254890750576" lon="11.176557050449325" id="-39245">
		<tag k="fixme" v="consider place=hamlet" />
		<tag k="name" v="Kirkeby" />
		<tag k="place" v="farm" />
		<tag k="ssr:stedsnr" v="70677" />
	</node>
	<node lat="60.87897352894559" lon="11.117948813535394" id="-39246">
		<tag k="fixme" v="consider place=hamlet" />
		<tag k="name" v="Busterud" />
		<tag k="place" v="farm" />
		<tag k="ssr:stedsnr" v="70686" />
	</node>
	<node lat="60.85351271671968" lon="11.206883453504231" id="-39247">
		<tag k="fixme" v="consider place=hamlet" />
		<tag k="name" v="Greften" />
		<tag k="place" v="farm" />
		<tag k="ssr:stedsnr" v="70733" />
	</node>
	<node lat="60.8515777780549" lon="11.136622215407845" id="-39248">
		<tag k="name" v="Vestgard" />
		<tag k="place" v="farm" />
		<tag k="ssr:stedsnr" v="70736" />
	</node>
	<node lat="60.80849722610901" lon="11.211461108535094" id="-39249">
		<tag k="name" v="Slettsveen" />
		<tag k="place" v="farm" />
		<tag k="ssr:stedsnr" v="70839" />
	</node>
	<node lat="60.83334721878674" lon="11.19261667397452" id="-39253">
		<tag k="name" v="Store Oppsal" />
		<tag k="place" v="farm" />
		<tag k="ssr:stedsnr" v="91197" />
	</node>
	<node lat="60.79402500072835" lon="11.07968611926048" id="-39254">
		<tag k="amenity" v="townhall" />
		<tag k="name" v="Statens Hus" />
		<tag k="ssr:stedsnr" v="97644" />
	</node>
	<node lat="60.79831389188727" lon="11.109461116311143" id="-39257">
		<tag k="name" v="Midtstranda" />
		<tag k="place" v="quarter" />
		<tag k="ssr:stedsnr" v="101559" />
	</node>
	<node lat="60.81366388447928" lon="11.152097230813885" id="-39258">
		<tag k="name" v="Sveen" />
		<tag k="place" v="farm" />
		<tag k="ssr:stedsnr" v="101619" />
	</node>
	<node lat="60.847972218579" lon="11.169666660366056" id="-39260">
		<tag k="name" v="Vesterengen" />
		<tag k="place" v="isolated_dwelling" />
		<tag k="ssr:stedsnr" v="102637" />
	</node>
	<node lat="60.83403055504805" lon="11.088038889206924" id="-39261">
		<tag k="name" v="Grønsvebakken" />
		<tag k="place" v="isolated_dwelling" />
		<tag k="ssr:stedsnr" v="101853" />
	</node>
	<node lat="60.84156388872843" lon="11.206172214541196" id="-39262">
		<tag k="name" v="Nordli" />
		<tag k="place" v="farm" />
		<tag k="ssr:stedsnr" v="102290" />
	</node>
	<node lat="60.830294447933404" lon="11.222494452221609" id="-39263">
		<tag k="name" v="Bakken" />
		<tag k="place" v="farm" />
		<tag k="ssr:stedsnr" v="102294" />
	</node>
	<node lat="60.80125555847068" lon="11.050505554322594" id="-39266">
		<tag k="amenity" v="school" />
		<tag k="name" v="Storhamar skole" />
		<tag k="ssr:stedsnr" v="102540" />
	</node>
	<node lat="60.85071944681935" lon="11.177263895570135" id="-39267">
		<tag k="name" v="Stenset" />
		<tag k="place" v="locality" />
		<tag k="ssr:stedsnr" v="102656" />
	</node>
	<node lat="60.864663889043996" lon="11.136258327298542" id="-39268">
		<tag k="name" v="Nylende" />
		<tag k="place" v="isolated_dwelling" />
		<tag k="ssr:stedsnr" v="102660" />
	</node>
	<node lat="60.77858333722612" lon="11.202433336094455" id="-39273">
		<tag k="name" v="Holter" />
		<tag k="place" v="farm" />
		<tag k="ssr:stedsnr" v="117235" />
	</node>
	<node lat="61.091438888625646" lon="11.131061103233838" id="-39275">
		<tag k="name" v="Nystua" />
		<tag k="place" v="isolated_dwelling" />
		<tag k="ssr:stedsnr" v="128464" />
	</node>
	<node lat="60.85141389205131" lon="11.229113886776476" id="-39278">
		<tag k="name" v="Lilleberg" />
		<tag k="place" v="farm" />
		<tag k="ssr:stedsnr" v="130681" />
	</node>
	<node lat="60.85215277356225" lon="11.155816665792665" id="-39280">
		<tag k="alt_name" v="Søndre Sveum" />
		<tag k="name" v="Sveum" />
		<tag k="place" v="farm" />
		<tag k="ssr:stedsnr" v="130687" />
	</node>
	<node lat="60.85703611235698" lon="11.161366665736777" id="-39282">
		<tag k="alt_name" v="Vestre Sveum" />
		<tag k="name" v="Sveum" />
		<tag k="place" v="farm" />
		<tag k="ssr:stedsnr" v="130698" />
	</node>
	<node lat="60.79763409564884" lon="11.201297083031266" id="-39283">
		<tag k="fixme" v="consider place=hamlet" />
		<tag k="name" v="Gile" />
		<tag k="place" v="farm" />
		<tag k="ssr:stedsnr" v="130864" />
	</node>
	<node lat="60.87053986731207" lon="11.215107624753612" id="-39284">
		<tag k="fixme" v="consider place=hamlet" />
		<tag k="name" v="Ålerud" />
		<tag k="place" v="farm" />
		<tag k="ssr:stedsnr" v="131724" />
	</node>
	<node lat="60.87466388850096" lon="11.143638884643474" id="-39285">
		<tag k="name" v="Skjesethagen" />
		<tag k="place" v="farm" />
		<tag k="ssr:stedsnr" v="131730" />
	</node>
	<node lat="60.82953149726577" lon="11.168896525829577" id="-39286">
		<tag k="fixme" v="consider place=hamlet" />
		<tag k="name" v="Finnburud" />
		<tag k="place" v="farm" />
		<tag k="ssr:stedsnr" v="131821" />
	</node>
	<node lat="60.84464721904793" lon="11.206899994831332" id="-39287">
		<tag k="name" v="Midtre Kartomten" />
		<tag k="place" v="farm" />
		<tag k="ssr:stedsnr" v="151073" />
	</node>
	<node lat="60.88341111018379" lon="11.18274722611648" id="-39290">
		<tag k="name" v="Vangssætra" />
		<tag k="place" v="hamlet" />
		<tag k="ssr:stedsnr" v="158997" />
	</node>
	<node lat="60.845036112360994" lon="11.218402776847851" id="-39291">
		<tag k="leisure" v="pitch" />
		<tag k="name" v="Fart-bana" />
		<tag k="ssr:stedsnr" v="161018" />
	</node>
	<node lat="60.795262267422004" lon="11.082651537405681" id="-39293">
		<tag k="alt_name" v="Fylkeshuset" />
		<tag k="amenity" v="townhall" />
		<tag k="name" v="Fylkeshuset på Hamar" />
		<tag k="old_name" v="Hedmark fylkeshus" />
		<tag k="ssr:stedsnr" v="161521" />
	</node>
	<node lat="60.795352782157316" lon="11.08634999322431" id="-39294">
		<tag k="name" v="Utstillingsplassen" />
		<tag k="place" v="square" />
		<tag k="ssr:stedsnr" v="161522" />
	</node>
	<node lat="60.78925833480131" lon="11.090583332091217" id="-39295">
		<tag k="name" v="Espern" />
		<tag k="place" v="quarter" />
		<tag k="ssr:stedsnr" v="161530" />
	</node>
	<node lat="60.80772499558068" lon="11.183911116959393" id="-39297">
		<tag k="name" v="Erlandsrud" />
		<tag k="place" v="isolated_dwelling" />
		<tag k="ssr:stedsnr" v="161546" />
	</node>
	<node lat="60.79506111454201" lon="11.165125006016797" id="-39298">
		<tag k="amenity" v="school" />
		<tag k="name" v="Lovisenberg skole" />
		<tag k="ssr:stedsnr" v="161483" />
	</node>
	<node lat="60.847752775906926" lon="11.25195834228359" id="-39300">
		<tag k="name" v="Østre Hårstad" />
		<tag k="place" v="farm" />
		<tag k="ssr:stedsnr" v="162028" />
	</node>
	<node lat="60.86161388697661" lon="11.225449993336536" id="-39301">
		<tag k="name" v="Vesterhagen" />
		<tag k="place" v="farm" />
		<tag k="ssr:stedsnr" v="162038" />
	</node>
	<node lat="60.82619444568728" lon="11.224083336858719" id="-39302">
		<tag k="name" v="Heimstad" />
		<tag k="place" v="farm" />
		<tag k="ssr:stedsnr" v="163234" />
	</node>
	<node lat="60.841406538999756" lon="11.152296163598296" id="-39303">
		<tag k="fixme" v="consider place=hamlet" />
		<tag k="name" v="Tomter" />
		<tag k="place" v="farm" />
		<tag k="ssr:stedsnr" v="164293" />
	</node>
	<node lat="60.82682221852525" lon="11.176427768924372" id="-39305">
		<tag k="name" v="Østre Myr" />
		<tag k="place" v="farm" />
		<tag k="ssr:stedsnr" v="176548" />
	</node>
	<node lat="60.823349997954885" lon="11.18384166870674" id="-39306">
		<tag k="name" v="Jøstad" />
		<tag k="place" v="farm" />
		<tag k="ssr:stedsnr" v="176549" />
	</node>
	<node lat="60.807705556091186" lon="11.076875001983504" id="-39309">
		<tag k="name" v="Mæhlumsløkka" />
		<tag k="place" v="suburb" />
		<tag k="ssr:stedsnr" v="177637" />
	</node>
	<node lat="60.784177773514386" lon="11.209033325892793" id="-39310">
		<tag k="name" v="Pettersborg" />
		<tag k="place" v="farm" />
		<tag k="ssr:stedsnr" v="178201" />
	</node>
	<node lat="61.10575277645413" lon="11.106655563422585" id="-39316">
		<tag k="name" v="Bekkemellom" />
		<tag k="place" v="isolated_dwelling" />
		<tag k="ssr:stedsnr" v="189443" />
	</node>
	<node lat="60.922080553265204" lon="11.194600005574808" id="-39320">
		<tag k="name" v="Lageråkvisla" />
		<tag k="place" v="hamlet" />
		<tag k="ssr:stedsnr" v="191582" />
	</node>
	<node lat="60.88295833732898" lon="11.222047213980671" id="-39322">
		<tag k="name" v="Nerhagen" />
		<tag k="place" v="farm" />
		<tag k="ssr:stedsnr" v="191592" />
	</node>
	<node lat="60.88677777819005" lon="11.194900001709648" id="-39323">
		<tag k="name" v="Ormseter" />
		<tag k="ssr:stedsnr" v="191593" />
		<tag k="tourism" v="guest_house" />
	</node>
	<node lat="60.85722785974629" lon="11.252037045538035" id="-39324">
		<tag k="alt_name" v="Store Åsvestad" />
		<tag k="name" v="Åsvestad" />
		<tag k="place" v="hamlet" />
		<tag k="ssr:stedsnr" v="191692" />
	</node>
	<node lat="60.833638888391086" lon="11.098991658806442" id="-39327">
		<tag k="name" v="Trehørningen" />
		<tag k="place" v="hamlet" />
		<tag k="ssr:stedsnr" v="191745" />
	</node>
	<node lat="60.78874298855788" lon="11.187109792994322" id="-39328">
		<tag k="fixme" v="consider place=hamlet" />
		<tag k="name" v="Opphus" />
		<tag k="place" v="farm" />
		<tag k="ssr:stedsnr" v="191886" />
	</node>
	<node lat="60.77985000342148" lon="11.199799999711354" id="-39329">
		<tag k="name" v="Enger" />
		<tag k="place" v="farm" />
		<tag k="ssr:stedsnr" v="191893" />
	</node>
	<node lat="60.802949996387966" lon="11.136658334351628" id="-39330">
		<tag k="amenity" v="school" />
		<tag k="name" v="Ridabu skole" />
		<tag k="ssr:stedsnr" v="191829" />
	</node>
	<node lat="60.83689945863723" lon="11.254043530796467" id="-39331">
		<tag k="fixme" v="consider place=hamlet" />
		<tag k="name" v="Vestre Arnset" />
		<tag k="place" v="farm" />
		<tag k="ssr:stedsnr" v="202818" />
	</node>
	<node lat="60.80684722123741" lon="11.063424993896753" id="-39332">
		<tag k="name" v="Ajer" />
		<tag k="place" v="suburb" />
		<tag k="ssr:stedsnr" v="204261" />
	</node>
	<node lat="60.87085537606783" lon="11.167606302449137" id="-39337">
		<tag k="name" v="Nordre Tønset" />
		<tag k="place" v="farm" />
		<tag k="ssr:stedsnr" v="212235" />
	</node>
	<node lat="60.78500277833002" lon="11.167447223996907" id="-39340">
		<tag k="name" v="Opphusbakken" />
		<tag k="place" v="locality" />
		<tag k="ssr:stedsnr" v="222468" />
	</node>
	<node lat="60.82003739510899" lon="11.078361598026872" id="-39341">
		<tag k="fixme" v="consider place=hamlet" />
		<tag k="name" v="Vallsigsvea" />
		<tag k="place" v="farm" />
		<tag k="ssr:stedsnr" v="222564" />
	</node>
	<node lat="60.86965555219783" lon="11.257530553241414" id="-39342">
		<tag k="name" v="Smeby" />
		<tag k="place" v="locality" />
		<tag k="ssr:stedsnr" v="223032" />
	</node>
	<node lat="60.862919442971574" lon="11.228911111013831" id="-39344">
		<tag k="loc_name" v="Brennengen" />
		<tag k="name" v="Brendengen" />
		<tag k="place" v="farm" />
		<tag k="ssr:stedsnr" v="223052" />
	</node>
	<node lat="60.87578333108378" lon="11.230625001084965" id="-39345">
		<tag k="name" v="Åsrønningen" />
		<tag k="place" v="farm" />
		<tag k="ssr:stedsnr" v="223057" />
	</node>
	<node lat="60.8407222204243" lon="11.222655556630091" id="-39347">
		<tag k="name" v="Bjørgård" />
		<tag k="place" v="farm" />
		<tag k="ssr:stedsnr" v="224254" />
	</node>
	<node lat="60.858391664411975" lon="11.135513897529833" id="-39348">
		<tag k="name" v="Vestby" />
		<tag k="place" v="farm" />
		<tag k="ssr:stedsnr" v="224568" />
	</node>
	<node lat="60.899650003166236" lon="11.205816675676733" id="-39356">
		<tag k="leisure" v="pitch" />
		<tag k="name" v="Gåsbu langrennsenter" />
		<tag k="ssr:stedsnr" v="282250" />
	</node>
	<node lat="60.8060027784469" lon="11.135611102950287" id="-39357">
		<tag k="name" v="Solbrå" />
		<tag k="place" v="farm" />
		<tag k="ssr:stedsnr" v="283600" />
	</node>
	<node lat="60.83604166532838" lon="11.103747223886693" id="-39358">
		<tag k="name" v="Engum" />
		<tag k="place" v="isolated_dwelling" />
		<tag k="ssr:stedsnr" v="283833" />
	</node>
	<node lat="60.872286113290464" lon="11.250652783252148" id="-39359">
		<tag k="name" v="Sletner" />
		<tag k="place" v="farm" />
		<tag k="ssr:stedsnr" v="284030" />
	</node>
	<node lat="60.80386388881244" lon="11.214808335604191" id="-39361">
		<tag k="name" v="Bjørkestua" />
		<tag k="place" v="isolated_dwelling" />
		<tag k="ssr:stedsnr" v="284256" />
	</node>
	<node lat="60.81956388735778" lon="11.045641670558437" id="-39362">
		<tag k="amenity" v="school" />
		<tag k="name" v="Hedmarktoppen folkehøyskole" />
		<tag k="ssr:stedsnr" v="284465" />
	</node>
	<node lat="60.80612777368612" lon="11.046352772436537" id="-39363">
		<tag k="building" v="commercial" />
		<tag k="name" v="Norsk tipping" />
		<tag k="ssr:stedsnr" v="284466" />
	</node>
	<node lat="60.831280551276656" lon="11.138399991483194" id="-39364">
		<tag k="name" v="Bakkerud" />
		<tag k="place" v="farm" />
		<tag k="ssr:stedsnr" v="298548" />
	</node>
	<node lat="60.87125833177092" lon="11.178661104024826" id="-39365">
		<tag k="name" v="Nordre Spikkerud" />
		<tag k="place" v="locality" />
		<tag k="ssr:stedsnr" v="298570" />
	</node>
	<node lat="61.10163889005523" lon="11.091050000357063" id="-39366">
		<tag k="name" v="Borregård" />
		<tag k="place" v="isolated_dwelling" />
		<tag k="ssr:stedsnr" v="298844" />
	</node>
	<node lat="60.77489444183726" lon="11.192119452187534" id="-39367">
		<tag k="name" v="Hagen" />
		<tag k="place" v="isolated_dwelling" />
		<tag k="ssr:stedsnr" v="299211" />
	</node>
	<node lat="60.8218333296585" lon="11.195433330402489" id="-39368">
		<tag k="name" v="Grubhol" />
		<tag k="place" v="quarter" />
		<tag k="ssr:stedsnr" v="299944" />
	</node>
	<node lat="60.81047500403103" lon="11.2160472197484" id="-39372">
		<tag k="name" v="Fremstad" />
		<tag k="place" v="farm" />
		<tag k="ssr:stedsnr" v="312843" />
	</node>
	<node lat="60.85198055730426" lon="11.178755559040152" id="-39374">
		<tag k="name" v="Rognstad" />
		<tag k="place" v="farm" />
		<tag k="ssr:stedsnr" v="312703" />
	</node>
	<node lat="60.85126391361277" lon="11.132497714196838" id="-39375">
		<tag k="fixme" v="consider place=hamlet" />
		<tag k="name" v="Vestvang" />
		<tag k="place" v="farm" />
		<tag k="ssr:stedsnr" v="312708" />
	</node>
	<node lat="60.81985555331346" lon="11.241130546395986" id="-39376">
		<tag k="name" v="Bekkevoll" />
		<tag k="place" v="farm" />
		<tag k="ssr:stedsnr" v="312789" />
	</node>
	<node lat="60.82487872177107" lon="11.232026981373995" id="-39377">
		<tag k="fixme" v="consider place=hamlet" />
		<tag k="name" v="Lageråen" />
		<tag k="place" v="farm" />
		<tag k="ssr:stedsnr" v="312791" />
	</node>
	<node lat="60.84645910446374" lon="11.17582172050565" id="-39378">
		<tag k="alt_name" v="Bergsvenkerud" />
		<tag k="fixme" v="consider place=hamlet" />
		<tag k="name" v="Bersvensrud" />
		<tag k="place" v="farm" />
		<tag k="ssr:stedsnr" v="313787" />
	</node>
	<node lat="60.800374995820206" lon="11.134213887157172" id="-39380">
		<tag k="amenity" v="school" />
		<tag k="name" v="Toneheim folkehøgskole" />
		<tag k="ssr:stedsnr" v="343488" />
	</node>
	<node lat="60.80684999874114" lon="11.044722228692876" id="-39382">
		<tag k="amenity" v="nursing_home" />
		<tag k="name" v="Prestrudsenteret" />
		<tag k="ssr:stedsnr" v="345434" />
	</node>
	<node lat="60.794880555201615" lon="11.06800000531668" id="-39383">
		<tag k="name" v="Stortorget" />
		<tag k="place" v="square" />
		<tag k="ssr:stedsnr" v="345442" />
	</node>
	<node lat="60.80654356505202" lon="11.158526466314306" id="-39385">
		<tag k="fixme" v="consider place=hamlet" />
		<tag k="name" v="Kai" />
		<tag k="place" v="farm" />
		<tag k="ssr:stedsnr" v="343645" />
	</node>
	<node lat="60.817313019235286" lon="11.134024568474642" id="-39386">
		<tag k="fixme" v="consider place=hamlet" />
		<tag k="name" v="Gutteberg" />
		<tag k="place" v="farm" />
		<tag k="ssr:stedsnr" v="343662" />
	</node>
	<node lat="60.830036111837664" lon="11.23370278051823" id="-39389">
		<tag k="name" v="Broberg" />
		<tag k="place" v="isolated_dwelling" />
		<tag k="ssr:stedsnr" v="345251" />
	</node>
	<node lat="60.826863888171445" lon="11.225086115348164" id="-39390">
		<tag k="name" v="Sveen" />
		<tag k="place" v="isolated_dwelling" />
		<tag k="ssr:stedsnr" v="345252" />
	</node>
	<node lat="60.850422223248074" lon="11.158202783881492" id="-39391">
		<tag k="name" v="Undset" />
		<tag k="place" v="isolated_dwelling" />
		<tag k="ssr:stedsnr" v="345522" />
	</node>
	<node lat="60.85301944263329" lon="11.181730550879028" id="-39393">
		<tag k="name" v="Øvre Skålerud" />
		<tag k="place" v="farm" />
		<tag k="ssr:stedsnr" v="345546" />
	</node>
	<node lat="60.86008610853484" lon="11.15343888296905" id="-39394">
		<tag k="name" v="Dalbytangen" />
		<tag k="place" v="locality" />
		<tag k="ssr:stedsnr" v="345550" />
	</node>
	<node lat="60.864455559454974" lon="11.139622227849369" id="-39395">
		<tag k="name" v="Lille Melby" />
		<tag k="place" v="farm" />
		<tag k="ssr:stedsnr" v="345552" />
	</node>
	<node lat="61.10024722520436" lon="11.060441672799545" id="-39396">
		<tag k="name" v="Dingsrud" />
		<tag k="place" v="isolated_dwelling" />
		<tag k="ssr:stedsnr" v="358186" />
	</node>
	<node lat="60.82958611236598" lon="11.16003332908049" id="-39397">
		<tag k="name" v="Nybakken" />
		<tag k="place" v="farm" />
		<tag k="ssr:stedsnr" v="358590" />
	</node>
	<node lat="60.86818332950419" lon="11.153199996637449" id="-39398">
		<tag k="name" v="Bukalsveen" />
		<tag k="place" v="isolated_dwelling" />
		<tag k="ssr:stedsnr" v="358592" />
	</node>
	<node lat="60.885172218497715" lon="11.198416668804942" id="-39405">
		<tag k="name" v="Heia" />
		<tag k="place" v="isolated_dwelling" />
		<tag k="ssr:stedsnr" v="362016" />
	</node>
	<node lat="61.01732777809054" lon="11.174175000761315" id="-39409">
		<tag k="name" v="Brumundsætra" />
		<tag k="place" v="hamlet" />
		<tag k="ssr:stedsnr" v="371269" />
	</node>
	<node lat="61.101538893381914" lon="11.135122219002897" id="-39410">
		<tag k="alt_name" v="Bredborg" />
		<tag k="name" v="Breborg" />
		<tag k="place" v="isolated_dwelling" />
		<tag k="ssr:stedsnr" v="371442" />
	</node>
	<node lat="60.82436175093521" lon="11.08015845882092" id="-39412">
		<tag k="alt_name" v="Vallsig, østre" />
		<tag k="name" v="Nedre Vallsig" />
		<tag k="place" v="farm" />
		<tag k="ssr:stedsnr" v="373428" />
	</node>
	<node lat="60.807658337853454" lon="11.041261106059816" id="-39413">
		<tag k="name" v="Prestrud" />
		<tag k="place" v="suburb" />
		<tag k="ssr:stedsnr" v="373490" />
	</node>
	<node lat="60.90111944592705" lon="11.108613884029038" id="-39414">
		<tag k="building" v="industrial" />
		<tag k="industrial" v="factory" />
		<tag k="name" v="Brennsætersaga" />
		<tag k="ssr:stedsnr" v="373663" />
	</node>
	<node lat="60.85109166760213" lon="11.219027775128193" id="-39415">
		<tag k="name" v="Graff" />
		<tag k="place" v="farm" />
		<tag k="ssr:stedsnr" v="373731" />
	</node>
	<node lat="60.84998889006031" lon="11.206466667010535" id="-39416">
		<tag k="name" v="Nyhagen" />
		<tag k="old_name" v="Lihagen" />
		<tag k="place" v="farm" />
		<tag k="ssr:stedsnr" v="373733" />
	</node>
	<node lat="60.84488611177534" lon="11.11766389236941" id="-39417">
		<tag k="name" v="Markeng" />
		<tag k="place" v="farm" />
		<tag k="ssr:stedsnr" v="373758" />
	</node>
	<node lat="60.84502889498746" lon="11.242752211526465" id="-39418">
		<tag k="fixme" v="consider place=hamlet" />
		<tag k="name" v="Rabstad" />
		<tag k="place" v="farm" />
		<tag k="ssr:stedsnr" v="373768" />
	</node>
	<node lat="60.80567175127975" lon="11.17476254175901" id="-39419">
		<tag k="fixme" v="consider place=hamlet" />
		<tag k="name" v="Olsrud" />
		<tag k="place" v="farm" />
		<tag k="ssr:stedsnr" v="494852" />
	</node>
	<node lat="60.79273610680193" lon="11.214655546890523" id="-39421">
		<tag k="name" v="Nedre Voll" />
		<tag k="place" v="farm" />
		<tag k="ssr:stedsnr" v="387382" />
	</node>
	<node lat="60.80956944355242" lon="11.183055546832819" id="-39426">
		<tag k="name" v="Sveaborg" />
		<tag k="place" v="farm" />
		<tag k="ssr:stedsnr" v="404556" />
	</node>
	<node lat="60.80641389261519" lon="11.186499995249115" id="-39427">
		<tag k="name" v="Øvergård" />
		<tag k="place" v="isolated_dwelling" />
		<tag k="ssr:stedsnr" v="404557" />
	</node>
	<node lat="60.87739444304271" lon="11.128358327808899" id="-39428">
		<tag k="name" v="Engelien" />
		<tag k="place" v="isolated_dwelling" />
		<tag k="ssr:stedsnr" v="404658" />
	</node>
	<node lat="60.85349999673374" lon="11.16676389560484" id="-39432">
		<tag k="name" v="Roen" />
		<tag k="place" v="isolated_dwelling" />
		<tag k="ssr:stedsnr" v="406586" />
	</node>
	<node lat="60.88045555527426" lon="11.175863884459908" id="-39433">
		<tag k="name" v="Vestre Kirkeby" />
		<tag k="place" v="isolated_dwelling" />
		<tag k="ssr:stedsnr" v="419374" />
	</node>
	<node lat="60.85826667006058" lon="11.217580553612569" id="-39436">
		<tag k="name" v="Greftenmoen" />
		<tag k="place" v="quarter" />
		<tag k="ssr:stedsnr" v="422965" />
	</node>
	<node lat="60.785634432067205" lon="11.158411080921281" id="-39437">
		<tag k="fixme" v="consider place=hamlet" />
		<tag k="name" v="Kurud" />
		<tag k="place" v="farm" />
		<tag k="ssr:stedsnr" v="434888" />
	</node>
	<node lat="60.792205987626474" lon="11.171655037297999" id="-39438">
		<tag k="fixme" v="consider place=hamlet" />
		<tag k="name" v="Skattum" />
		<tag k="place" v="farm" />
		<tag k="ssr:stedsnr" v="434889" />
	</node>
	<node lat="60.80853478735601" lon="11.092473360406963" id="-39440">
		<tag k="fixme" v="consider place=hamlet" />
		<tag k="name" v="Tommelstad" />
		<tag k="place" v="farm" />
		<tag k="ssr:stedsnr" v="434443" />
	</node>
	<node lat="60.86872711882626" lon="11.229028728122106" id="-39441">
		<tag k="alt_name" v="Østre Ås" />
		<tag k="fixme" v="consider place=hamlet" />
		<tag k="name" v="Ås" />
		<tag k="place" v="farm" />
		<tag k="ssr:stedsnr" v="434675" />
	</node>
	<node lat="60.8708313090547" lon="11.27083113749956" id="-39442">
		<tag k="fixme" v="consider place=hamlet" />
		<tag k="name" v="Skjellbekk" />
		<tag k="place" v="farm" />
		<tag k="ssr:stedsnr" v="434677" />
	</node>
	<node lat="60.8535342000399" lon="11.142843906921172" id="-39443">
		<tag k="fixme" v="consider place=hamlet" />
		<tag k="name" v="Svenkerud" />
		<tag k="place" v="farm" />
		<tag k="ssr:stedsnr" v="434691" />
	</node>
	<node lat="60.882333331058355" lon="11.244722216993308" id="-39444">
		<tag k="building" v="industrial" />
		<tag k="industrial" v="factory" />
		<tag k="name" v="Bergset sag" />
		<tag k="ssr:stedsnr" v="434656" />
	</node>
	<node lat="60.79416944681247" lon="11.215502769548246" id="-39445">
		<tag k="name" v="Øvre Voll" />
		<tag k="place" v="farm" />
		<tag k="ssr:stedsnr" v="444897" />
	</node>
	<node lat="60.792952781588355" lon="11.100994442727673" id="-39448">
		<tag k="alt_name" v="Hamar Olympiahall" />
		<tag k="amenity" v="sports_centre" />
		<tag k="name" v="Vikingskipet" />
		<tag k="ssr:stedsnr" v="447991" />
	</node>
	<node lat="60.82821712789441" lon="11.136674706950282" id="-39449">
		<tag k="name" v="Ingeberg" />
		<tag k="place" v="village" />
		<tag k="ssr:stedsnr" v="447995" />
	</node>
	<node lat="60.81559166209817" lon="11.057472230945217" id="-39450">
		<tag k="name" v="Voll" />
		<tag k="place" v="farm" />
		<tag k="ssr:stedsnr" v="495432" />
	</node>
	<node lat="60.823813885807716" lon="11.083402774124119" id="-39451">
		<tag k="name" v="Stensby" />
		<tag k="place" v="farm" />
		<tag k="ssr:stedsnr" v="506055" />
	</node>
	<node lat="60.80271640000163" lon="11.056801898058236" id="-39452">
		<tag k="name" v="Bondesvea" />
		<tag k="place" v="suburb" />
		<tag k="ssr:stedsnr" v="507283" />
	</node>
	<node lat="60.81737777719401" lon="11.10558332611561" id="-39454">
		<tag k="name" v="Østre Flagstad" />
		<tag k="place" v="farm" />
		<tag k="ssr:stedsnr" v="515048" />
	</node>
	<node lat="60.84471666347064" lon="11.207325005975115" id="-39455">
		<tag k="name" v="Søndre Kartomten" />
		<tag k="place" v="farm" />
		<tag k="ssr:stedsnr" v="515067" />
	</node>
	<node lat="60.787861112934465" lon="11.161375007590905" id="-39456">
		<tag k="name" v="Skattumshagan" />
		<tag k="place" v="quarter" />
		<tag k="ssr:stedsnr" v="525495" />
	</node>
	<node lat="60.869991670382745" lon="11.224274998861038" id="-39458">
		<tag k="name" v="Nordengen" />
		<tag k="place" v="farm" />
		<tag k="ssr:stedsnr" v="526033" />
	</node>
	<node lat="60.844869442740865" lon="11.248011112308275" id="-39459">
		<tag k="name" v="Duenger" />
		<tag k="place" v="isolated_dwelling" />
		<tag k="ssr:stedsnr" v="526042" />
	</node>
	<node lat="60.81623055828588" lon="11.166152770244235" id="-39462">
		<tag k="name" v="Volleng" />
		<tag k="place" v="farm" />
		<tag k="ssr:stedsnr" v="526644" />
	</node>
	<node lat="60.82418888951895" lon="11.259986106581522" id="-39463">
		<tag k="name" v="Sørli" />
		<tag k="place" v="farm" />
		<tag k="ssr:stedsnr" v="527240" />
	</node>
	<node lat="61.09538055656953" lon="11.126830557701183" id="-39466">
		<tag k="name" v="Bekkeoset" />
		<tag k="place" v="isolated_dwelling" />
		<tag k="ssr:stedsnr" v="540869" />
	</node>
	<node lat="60.81147500294252" lon="11.14551944696108" id="-39470">
		<tag k="name" v="Kåtorp" />
		<tag k="place" v="quarter" />
		<tag k="ssr:stedsnr" v="541935" />
	</node>
	<node lat="60.81405833684725" lon="11.14684999673858" id="-39472">
		<tag k="name" v="Vinnheia" />
		<tag k="place" v="quarter" />
		<tag k="ssr:stedsnr" v="542960" />
	</node>
	<node lat="61.129622218836175" lon="11.077086104196841" id="-39473">
		<tag k="name" v="Finse" />
		<tag k="place" v="isolated_dwelling" />
		<tag k="ssr:stedsnr" v="543951" />
	</node>
	<node lat="61.00029167051036" lon="11.13246389154535" id="-39479">
		<tag k="name" v="Kjeltåsen" />
		<tag k="place" v="hamlet" />
		<tag k="ssr:stedsnr" v="553266" />
	</node>
	<node lat="60.82360919643774" lon="11.07876817182657" id="-39483">
		<tag k="alt_name" v="Vallsig, øvre" />
		<tag k="name" v="Øvre Vallsig" />
		<tag k="place" v="farm" />
		<tag k="ssr:stedsnr" v="555360" />
	</node>
	<node lat="60.874875002442025" lon="11.242797223103333" id="-39485">
		<tag k="name" v="Åsen" />
		<tag k="place" v="farm" />
		<tag k="ssr:stedsnr" v="555644" />
	</node>
	<node lat="60.8706643140219" lon="11.2402097700201" id="-39486">
		<tag k="fixme" v="consider place=hamlet" />
		<tag k="name" v="Sagbroen" />
		<tag k="place" v="farm" />
		<tag k="ssr:stedsnr" v="555678" />
	</node>
	<node lat="60.87070437134725" lon="11.248111479161919" id="-39487">
		<tag k="name" v="Sagsvea" />
		<tag k="place" v="hamlet" />
		<tag k="ssr:stedsnr" v="555681" />
	</node>
	<node lat="60.872645650274585" lon="11.254313389109836" id="-39488">
		<tag k="fixme" v="consider place=hamlet" />
		<tag k="name" v="Skomakerbakken" />
		<tag k="place" v="farm" />
		<tag k="ssr:stedsnr" v="555683" />
	</node>
	<node lat="60.87230281149406" lon="11.247140507820234" id="-39489">
		<tag k="fixme" v="consider place=hamlet" />
		<tag k="name" v="Øvre Sagsveen" />
		<tag k="place" v="farm" />
		<tag k="ssr:stedsnr" v="555685" />
	</node>
	<node lat="60.85189939202219" lon="11.253877660627461" id="-39490">
		<tag k="fixme" v="consider place=hamlet" />
		<tag k="name" v="Grytting" />
		<tag k="place" v="farm" />
		<tag k="ssr:stedsnr" v="555691" />
	</node>
	<node lat="60.83153276668266" lon="11.250080078608741" id="-39491">
		<tag k="fixme" v="consider place=hamlet" />
		<tag k="name" v="Lindholt" />
		<tag k="place" v="farm" />
		<tag k="ssr:stedsnr" v="555777" />
	</node>
	<node lat="60.82064166437733" lon="11.18863611966052" id="-39492">
		<tag k="name" v="Nydal" />
		<tag k="place" v="farm" />
		<tag k="ssr:stedsnr" v="555793" />
	</node>
	<node lat="60.821983332148896" lon="11.222383332378307" id="-39499">
		<tag k="name" v="Østli" />
		<tag k="place" v="isolated_dwelling" />
		<tag k="ssr:stedsnr" v="586087" />
	</node>
	<node lat="60.83835555728303" lon="11.197150008535358" id="-39501">
		<tag k="amenity" v="school" />
		<tag k="name" v="Lunden skole" />
		<tag k="ssr:stedsnr" v="587271" />
	</node>
	<node lat="60.808172224590756" lon="11.035497221855621" id="-39502">
		<tag k="amenity" v="school" />
		<tag k="name" v="Prestrud skole" />
		<tag k="ssr:stedsnr" v="587479" />
	</node>
	<node lat="60.822324998370846" lon="11.046883333336263" id="-39503">
		<tag k="name" v="Gubbestua" />
		<tag k="place" v="isolated_dwelling" />
		<tag k="ssr:stedsnr" v="587481" />
	</node>
	<node lat="60.81210277525415" lon="11.09521111911546" id="-39505">
		<tag k="amenity" v="nursing_home" />
		<tag k="name" v="Vien-senteret" />
		<tag k="old_name" v="Bjørketun barnehjem" />
		<tag k="ssr:stedsnr" v="586625" />
	</node>
	<node lat="60.865800004059786" lon="11.171111120457585" id="-39506">
		<tag k="name" v="Søndre Haugen" />
		<tag k="place" v="farm" />
		<tag k="ssr:stedsnr" v="587629" />
	</node>
	<node lat="60.807461113866665" lon="11.054816673584583" id="-39507">
		<tag k="leisure" v="pitch" />
		<tag k="name" v="Ajerhallen" />
		<tag k="ssr:stedsnr" v="587485" />
	</node>
	<node lat="60.81023888651528" lon="11.080913893037996" id="-39510">
		<tag k="name" v="Haugli" />
		<tag k="place" v="isolated_dwelling" />
		<tag k="ssr:stedsnr" v="601589" />
	</node>
	<node lat="60.8075694417691" lon="11.085047226869897" id="-39511">
		<tag k="name" v="Solvang" />
		<tag k="place" v="suburb" />
		<tag k="ssr:stedsnr" v="601591" />
	</node>
	<node lat="60.98900555722534" lon="11.188886110924063" id="-39513">
		<tag k="name" v="Rustadhytta" />
		<tag k="place" v="isolated_dwelling" />
		<tag k="ssr:stedsnr" v="602361" />
	</node>
	<node lat="61.05754167061556" lon="11.162680557784183" id="-39515">
		<tag k="name" v="Lavlia" />
		<tag k="old_name" v="Lauvlia" />
		<tag k="place" v="hamlet" />
		<tag k="ssr:stedsnr" v="613253" />
	</node>
	<node lat="60.79511944790474" lon="11.047172216589464" id="-39518">
		<tag k="name" v="Storhamar" />
		<tag k="place" v="suburb" />
		<tag k="ssr:stedsnr" v="615468" />
	</node>
	<node lat="60.859969444860134" lon="11.20466111324738" id="-39520">
		<tag k="name" v="Dammen" />
		<tag k="place" v="farm" />
		<tag k="ssr:stedsnr" v="615739" />
	</node>
	<node lat="60.860024996943835" lon="11.240924999057446" id="-39521">
		<tag k="name" v="Sandaker" />
		<tag k="place" v="farm" />
		<tag k="ssr:stedsnr" v="615740" />
	</node>
	<node lat="60.833885482153555" lon="11.191465180610123" id="-39523">
		<tag k="name" v="Oppsal" />
		<tag k="place" v="hamlet" />
		<tag k="ssr:stedsnr" v="615770" />
	</node>
	<node lat="60.8245228578035" lon="11.14453493242106" id="-39524">
		<tag k="fixme" v="consider place=hamlet" />
		<tag k="name" v="Karset" />
		<tag k="place" v="farm" />
		<tag k="ssr:stedsnr" v="615786" />
	</node>
	<node lat="60.819222039120504" lon="11.179757410076641" id="-39525">
		<tag k="amenity" v="university" />
		<tag k="name" v="Høgskolen i Innlandet, Blæstad" />
		<tag k="old_name" v="Blæstad;Hedmark distriktshøgskole, avd Blæstad" />
		<tag k="ssr:stedsnr" v="615811" />
	</node>
	<node lat="60.806547224116876" lon="11.23845556412509" id="-39526">
		<tag k="alt_name" v="Dørumselven" />
		<tag k="name" v="Dørumselva" />
		<tag k="place" v="farm" />
		<tag k="ssr:stedsnr" v="615832" />
	</node>
	<node lat="60.8027002370365" lon="11.204045054410651" id="-39527">
		<tag k="fixme" v="consider place=hamlet" />
		<tag k="name" v="Bjørke" />
		<tag k="place" v="farm" />
		<tag k="ssr:stedsnr" v="615839" />
	</node>
	<node lat="60.880697620090174" lon="11.14568930643491" id="-39528">
		<tag k="alt_name" v="Øvre Dufset" />
		<tag k="name" v="Dufset" />
		<tag k="place" v="hamlet" />
		<tag k="ssr:stedsnr" v="616678" />
	</node>
	<node lat="60.79660763284251" lon="11.140840300102402" id="-39529">
		<tag k="fixme" v="consider place=hamlet" />
		<tag k="name" v="Vidarshov" />
		<tag k="place" v="farm" />
		<tag k="ssr:stedsnr" v="616882" />
	</node>
	<node lat="60.84528888816342" lon="11.20576945091376" id="-39531">
		<tag k="name" v="Vestre Kartomten" />
		<tag k="place" v="farm" />
		<tag k="ssr:stedsnr" v="627783" />
	</node>
	<node lat="60.8431722204514" lon="11.187825004745882" id="-39532">
		<tag k="name" v="Østre Dystvoll" />
		<tag k="place" v="farm" />
		<tag k="ssr:stedsnr" v="629332" />
	</node>
	<node lat="60.79649166316768" lon="11.086894450014114" id="-39538">
		<tag k="amenity" v="sports_centre" />
		<tag k="name" v="Hamarhallen" />
		<tag k="ssr:stedsnr" v="646544" />
	</node>
	<node lat="60.796352780252555" lon="11.0750750035548" id="-39540">
		<tag k="amenity" v="university" />
		<tag k="name" v="Høgskolen i Innlandet, Hamar" />
		<tag k="old_name" v="Høgskolen i Hedmark Campus Hamar;Hamar Lærerhøgskole" />
		<tag k="ssr:stedsnr" v="646556" />
	</node>
	<node lat="60.876733335204904" lon="11.121555557661543" id="-39541">
		<tag k="leisure" v="pitch" />
		<tag k="name" v="Liertoppen skisenter" />
		<tag k="ssr:stedsnr" v="646650" />
	</node>
	<node lat="60.88559999724262" lon="11.127652780583217" id="-39542">
		<tag k="name" v="Gjørslibakken" />
		<tag k="place" v="isolated_dwelling" />
		<tag k="ssr:stedsnr" v="646653" />
	</node>
	<node lat="60.8683305554581" lon="11.122905552593608" id="-39543">
		<tag k="name" v="Søndre Huse" />
		<tag k="place" v="farm" />
		<tag k="ssr:stedsnr" v="646658" />
	</node>
	<node lat="60.87090588909173" lon="11.253445277676228" id="-39545">
		<tag k="fixme" v="consider place=hamlet" />
		<tag k="name" v="Tømmerholen" />
		<tag k="place" v="farm" />
		<tag k="ssr:stedsnr" v="647039" />
	</node>
	<node lat="60.868633335637746" lon="11.232055562447025" id="-39546">
		<tag k="name" v="Rønningen" />
		<tag k="place" v="isolated_dwelling" />
		<tag k="ssr:stedsnr" v="647044" />
	</node>
	<node lat="60.86580833263841" lon="11.234183339702428" id="-39547">
		<tag k="name" v="Brennhaug" />
		<tag k="place" v="isolated_dwelling" />
		<tag k="ssr:stedsnr" v="647046" />
	</node>
	<node lat="60.86332221813973" lon="11.191816663008298" id="-39549">
		<tag k="name" v="Løbergsmoen" />
		<tag k="place" v="locality" />
		<tag k="ssr:stedsnr" v="647055" />
	</node>
	<node lat="60.80976944851794" lon="11.143816660221496" id="-39553">
		<tag k="name" v="Enhagan" />
		<tag k="place" v="isolated_dwelling" />
		<tag k="ssr:stedsnr" v="647644" />
	</node>
	<node lat="60.819513888871235" lon="11.234491660204737" id="-39554">
		<tag k="name" v="Fossum" />
		<tag k="place" v="isolated_dwelling" />
		<tag k="ssr:stedsnr" v="648268" />
	</node>
	<node lat="60.80548888731456" lon="11.057294435355074" id="-39555">
		<tag k="amenity" v="school" />
		<tag k="name" v="Ajer ungdomssskole" />
		<tag k="ssr:stedsnr" v="648459" />
	</node>
	<node lat="60.82739444695037" lon="11.171383338024768" id="-39557">
		<tag k="name" v="Holstad" />
		<tag k="place" v="farm" />
		<tag k="ssr:stedsnr" v="662591" />
	</node>
	<node lat="60.78118611336403" lon="11.204730561148724" id="-39558">
		<tag k="name" v="Holm" />
		<tag k="place" v="isolated_dwelling" />
		<tag k="ssr:stedsnr" v="663212" />
	</node>
	<node lat="61.09777222128813" lon="11.067405548999828" id="-39561">
		<tag k="name" v="Nybolsdalen" />
		<tag k="place" v="isolated_dwelling" />
		<tag k="ssr:stedsnr" v="722208" />
	</node>
	<node lat="60.86218611496009" lon="11.259916665827879" id="-39562">
		<tag k="name" v="Sveen" />
		<tag k="place" v="farm" />
		<tag k="ssr:stedsnr" v="723095" />
	</node>
	<node lat="60.91489999929142" lon="11.117775003253563" id="-39569">
		<tag k="name" v="Vesterhaug" />
		<tag k="place" v="isolated_dwelling" />
		<tag k="ssr:stedsnr" v="737614" />
	</node>
	<node lat="60.85444166720877" lon="11.218713892628601" id="-39571">
		<tag k="name" v="Midtskogen" />
		<tag k="place" v="farm" />
		<tag k="ssr:stedsnr" v="737716" />
	</node>
	<node lat="60.85600833749781" lon="11.1841305566573" id="-39572">
		<tag k="name" v="Ilstad" />
		<tag k="place" v="farm" />
		<tag k="ssr:stedsnr" v="737718" />
	</node>
	<node lat="60.85645277997083" lon="11.218374991004744" id="-39573">
		<tag k="alt_name" v="Krogsti" />
		<tag k="name" v="Kroksti" />
		<tag k="place" v="farm" />
		<tag k="ssr:stedsnr" v="737737" />
	</node>
	<node lat="60.829802549466635" lon="11.254433291795001" id="-39574">
		<tag k="fixme" v="consider place=hamlet" />
		<tag k="name" v="Spaberg" />
		<tag k="place" v="farm" />
		<tag k="ssr:stedsnr" v="737794" />
	</node>
	<node lat="60.78842231097439" lon="11.186932167888001" id="-39575">
		<tag k="name" v="Nordre Opphus" />
		<tag k="place" v="farm" />
		<tag k="ssr:stedsnr" v="737898" />
	</node>
	<node lat="60.9011083355869" lon="11.207741671456365" id="-39576">
		<tag k="amenity" v="cafe" />
		<tag k="name" v="Gåsbu" />
		<tag k="ssr:stedsnr" v="753009" />
	</node>
	<node lat="60.852725003347985" lon="11.238205561971988" id="-39577">
		<tag k="name" v="Nymoen" />
		<tag k="place" v="farm" />
		<tag k="ssr:stedsnr" v="768036" />
	</node>
	<node lat="60.8151472250651" lon="11.104288895937728" id="-39579">
		<tag k="name" v="Broberg" />
		<tag k="place" v="isolated_dwelling" />
		<tag k="ssr:stedsnr" v="768624" />
	</node>
	<node lat="60.807180556223024" lon="11.138822219268693" id="-39580">
		<tag k="name" v="Bergsten" />
		<tag k="place" v="isolated_dwelling" />
		<tag k="ssr:stedsnr" v="768627" />
	</node>
	<node lat="60.851805554662405" lon="11.105333329607562" id="-39581">
		<tag k="name" v="Knausen" />
		<tag k="place" v="isolated_dwelling" />
		<tag k="ssr:stedsnr" v="768850" />
	</node>
	<node lat="60.854630552122046" lon="11.255916659163486" id="-39582">
		<tag k="name" v="Gryttingsødegården" />
		<tag k="place" v="farm" />
		<tag k="ssr:stedsnr" v="769029" />
	</node>
	<node lat="60.85800278216038" lon="11.249422214557674" id="-39583">
		<tag k="name" v="Åsvestad" />
		<tag k="place" v="farm" />
		<tag k="ssr:stedsnr" v="769031" />
	</node>
	<node lat="60.801886114115504" lon="11.040797225547085" id="-39584">
		<tag k="name" v="Dalsløkka" />
		<tag k="place" v="suburb" />
		<tag k="ssr:stedsnr" v="770448" />
	</node>
	<node lat="60.794419447642426" lon="11.078625004201287" id="-39585">
		<tag k="amenity" v="townhall" />
		<tag k="name" v="Hamar rådhus" />
		<tag k="ssr:stedsnr" v="771086" />
	</node>
	<node lat="60.88256388750564" lon="11.163263894101899" id="-39587">
		<tag k="name" v="Bekkesveen" />
		<tag k="place" v="isolated_dwelling" />
		<tag k="ssr:stedsnr" v="783374" />
	</node>
	<node lat="60.880808332264856" lon="11.167622222765678" id="-39588">
		<tag k="name" v="Ham-jernhytta" />
		<tag k="place" v="isolated_dwelling" />
		<tag k="ssr:stedsnr" v="783379" />
	</node>
	<node lat="60.833777779198066" lon="11.142880564217037" id="-39590">
		<tag k="name" v="Bekkevoll" />
		<tag k="place" v="farm" />
		<tag k="ssr:stedsnr" v="783564" />
	</node>
	<node lat="60.83604444577615" lon="11.163652779891697" id="-39591">
		<tag k="name" v="Maurud" />
		<tag k="place" v="isolated_dwelling" />
		<tag k="ssr:stedsnr" v="783565" />
	</node>
	<node lat="61.09334166646629" lon="11.079647216569773" id="-39593">
		<tag k="name" v="Gammelbolsdalen" />
		<tag k="place" v="isolated_dwelling" />
		<tag k="ssr:stedsnr" v="783873" />
	</node>
	<node lat="60.77556944825172" lon="11.18923055519764" id="-39594">
		<tag k="name" v="Møllerstua" />
		<tag k="place" v="isolated_dwelling" />
		<tag k="ssr:stedsnr" v="785191" />
	</node>
	<node lat="60.946580555395954" lon="11.122425000957785" id="-39599">
		<tag k="name" v="Tørbustilen" />
		<tag k="place" v="hamlet" />
		<tag k="ssr:stedsnr" v="798541" />
	</node>
	<node lat="60.84460000138824" lon="11.126205561645152" id="-39601">
		<tag k="name" v="Vestvoll" />
		<tag k="place" v="farm" />
		<tag k="ssr:stedsnr" v="798719" />
	</node>
	<node lat="60.84813390836246" lon="11.101907790365532" id="-39602">
		<tag k="fixme" v="consider place=hamlet" />
		<tag k="name" v="Vennkvern" />
		<tag k="place" v="farm" />
		<tag k="ssr:stedsnr" v="798723" />
	</node>
	<node lat="60.841900123113916" lon="11.150758546813398" id="-39603">
		<tag k="name" v="Nordre Tomter" />
		<tag k="place" v="farm" />
		<tag k="ssr:stedsnr" v="798726" />
	</node>
	<node lat="60.93210833036019" lon="11.107225007847179" id="-39605">
		<tag k="name" v="Høyenhall" />
		<tag k="place" v="isolated_dwelling" />
		<tag k="ssr:stedsnr" v="798581" />
	</node>
	<node lat="60.87051295696992" lon="11.168807812774178" id="-39606">
		<tag k="name" v="Tønset" />
		<tag k="place" v="locality" />
		<tag k="ssr:stedsnr" v="798673" />
	</node>
	<node lat="60.79234490757481" lon="11.194076848939881" id="-39607">
		<tag k="fixme" v="consider place=hamlet" />
		<tag k="name" v="Farmen" />
		<tag k="place" v="farm" />
		<tag k="ssr:stedsnr" v="798885" />
	</node>
	<node lat="60.92449444003372" lon="11.194763889856015" id="-39608">
		<tag k="fixme" v="consider tourism=alpine_hut or tourism=chalet" />
		<tag k="name" v="Lageråkvisla" />
		<tag k="ssr:stedsnr" v="814796" />
		<tag k="tourism" v="wilderness_hut" />
	</node>
	<node lat="60.85850514649749" lon="11.203914701709005" id="-39611">
		<tag k="fixme" v="consider place=hamlet" />
		<tag k="name" v="Sandbakken" />
		<tag k="place" v="farm" />
		<tag k="ssr:stedsnr" v="829048" />
	</node>
	<node lat="60.80430833042219" lon="11.133769440569022" id="-39614">
		<tag k="amenity" v="nursing_home" />
		<tag k="name" v="Finsalsenteret" />
		<tag k="old_name" v="Finsal sykehjem" />
		<tag k="ssr:stedsnr" v="829635" />
	</node>
	<node lat="60.864000002526765" lon="11.260066666430468" id="-39617">
		<tag k="name" v="Bjørnbakken" />
		<tag k="place" v="farm" />
		<tag k="ssr:stedsnr" v="830032" />
	</node>
	<node lat="60.8647944464349" lon="11.221872216882952" id="-39618">
		<tag k="name" v="Ålerudrønningen" />
		<tag k="place" v="farm" />
		<tag k="ssr:stedsnr" v="830045" />
	</node>
	<node lat="60.863305559779135" lon="11.238211110803558" id="-39619">
		<tag k="name" v="Kylgården" />
		<tag k="place" v="farm" />
		<tag k="ssr:stedsnr" v="830048" />
	</node>
	<node lat="61.102916663430534" lon="11.14830555794119" id="-39620">
		<tag k="name" v="Monsbua" />
		<tag k="place" v="locality" />
		<tag k="ssr:stedsnr" v="830920" />
	</node>
	<node lat="60.840297225520445" lon="11.208636116719525" id="-39621">
		<tag k="name" v="Granheim" />
		<tag k="place" v="farm" />
		<tag k="ssr:stedsnr" v="831245" />
	</node>
	<node lat="60.82893332892525" lon="11.228225001224008" id="-39622">
		<tag k="name" v="Flengsrud" />
		<tag k="place" v="isolated_dwelling" />
		<tag k="ssr:stedsnr" v="831246" />
	</node>
	<node lat="60.80259166483112" lon="11.038880563560857" id="-39624">
		<tag k="name" v="Jønsrudløkka" />
		<tag k="place" v="suburb" />
		<tag k="ssr:stedsnr" v="831441" />
	</node>
	<node lat="60.81341110873138" lon="11.045655558982" id="-39626">
		<tag k="name" v="Hol" />
		<tag k="place" v="suburb" />
		<tag k="ssr:stedsnr" v="831445" />
	</node>
	<node lat="60.79370555583393" lon="11.059761101974283" id="-39628">
		<tag k="leisure" v="park" />
		<tag k="name" v="Koigen" />
		<tag k="ssr:stedsnr" v="831453" />
	</node>
	<node lat="60.83198333111346" lon="11.148849993787659" id="-39635">
		<tag k="name" v="Holter" />
		<tag k="place" v="isolated_dwelling" />
		<tag k="ssr:stedsnr" v="844568" />
	</node>
	<node lat="60.875341666117386" lon="11.175588897810446" id="-39636">
		<tag k="name" v="Åset" />
		<tag k="place" v="farm" />
		<tag k="ssr:stedsnr" v="844601" />
	</node>
	<node lat="60.808924999131285" lon="11.085658334258163" id="-39637">
		<tag k="amenity" v="school" />
		<tag k="name" v="Solvang skole" />
		<tag k="ssr:stedsnr" v="845648" />
	</node>
	<node lat="60.794505552267125" lon="11.067952776167465" id="-39639">
		<tag k="name" v="Hamar" />
		<tag k="place" v="town" />
		<tag k="ssr:stedsnr" v="859443" />
	</node>
	<node lat="60.86955833068968" lon="11.219905549538005" id="-39641">
		<tag k="name" v="Lysaker" />
		<tag k="place" v="farm" />
		<tag k="ssr:stedsnr" v="859698" />
	</node>
	<node lat="60.87979722632072" lon="11.161236109578297" id="-39642">
		<tag k="name" v="Tømte" />
		<tag k="place" v="farm" />
		<tag k="ssr:stedsnr" v="859657" />
	</node>
	<node lat="60.876331445961185" lon="11.125383815682616" id="-39643">
		<tag k="fixme" v="consider place=hamlet" />
		<tag k="name" v="Gjørsli" />
		<tag k="place" v="farm" />
		<tag k="ssr:stedsnr" v="859658" />
	</node>
	<node lat="60.83970941528612" lon="11.236714051640233" id="-39644">
		<tag k="fixme" v="consider place=hamlet" />
		<tag k="name" v="Liberg" />
		<tag k="place" v="farm" />
		<tag k="ssr:stedsnr" v="859747" />
	</node>
	<node lat="60.84372175883403" lon="11.186627396779903" id="-39645">
		<tag k="fixme" v="consider place=hamlet" />
		<tag k="name" v="Dystvoll" />
		<tag k="place" v="farm" />
		<tag k="ssr:stedsnr" v="859751" />
	</node>
	<node lat="60.84489493153219" lon="11.213803550873564" id="-39646">
		<tag k="fixme" v="consider place=hamlet" />
		<tag k="name" v="Kartomten" />
		<tag k="place" v="farm" />
		<tag k="ssr:stedsnr" v="876450" />
	</node>
	<node lat="60.81028333584311" lon="11.081263888187598" id="-39648">
		<tag k="name" v="Gamle Klukstuen" />
		<tag k="place" v="isolated_dwelling" />
		<tag k="ssr:stedsnr" v="885727" />
	</node>
	<node lat="60.8914499993869" lon="11.112991668035848" id="-39655">
		<tag k="name" v="Granstua" />
		<tag k="place" v="isolated_dwelling" />
		<tag k="ssr:stedsnr" v="889541" />
	</node>
	<node lat="60.84159722592275" lon="11.096172223739392" id="-39656">
		<tag k="name" v="Hamar næringspark Trehørningen" />
		<tag k="place" v="quarter" />
		<tag k="ssr:stedsnr" v="947625" />
	</node>
	<node lat="60.84646944173397" lon="11.223905556092816" id="-39659">
		<tag k="name" v="Solbakken" />
		<tag k="place" v="farm" />
		<tag k="ssr:stedsnr" v="951022" />
	</node>
	<node lat="60.86911666598648" lon="11.126374994297374" id="-39661">
		<tag k="name" v="Vårtun" />
		<tag k="place" v="isolated_dwelling" />
		<tag k="ssr:stedsnr" v="950658" />
	</node>
	<node lat="60.92239167076007" lon="11.158041673639445" id="-39666">
		<tag k="name" v="Stormyrkoia" />
		<tag k="place" v="locality" />
		<tag k="ssr:stedsnr" v="951466" />
	</node>
	<node lat="60.81850833233687" lon="11.215344437969113" id="-39667">
		<tag k="name" v="Lille Ingvoldstad" />
		<tag k="place" v="farm" />
		<tag k="ssr:stedsnr" v="952263" />
	</node>
	<node lat="60.8422888859819" lon="11.199158326365286" id="-39668">
		<tag k="name" v="Sande" />
		<tag k="place" v="farm" />
		<tag k="ssr:stedsnr" v="952270" />
	</node>
	<node lat="60.8302388872953" lon="11.224919451608281" id="-39669">
		<tag k="name" v="Øverhagen" />
		<tag k="place" v="farm" />
		<tag k="ssr:stedsnr" v="952272" />
	</node>
	<node lat="60.82516388651396" lon="11.223480558294447" id="-39670">
		<tag k="name" v="Nysted" />
		<tag k="place" v="isolated_dwelling" />
		<tag k="ssr:stedsnr" v="952275" />
	</node>
	<node lat="60.8432555575361" lon="11.23577221357551" id="-39671">
		<tag k="name" v="Lunde" />
		<tag k="place" v="isolated_dwelling" />
		<tag k="ssr:stedsnr" v="952283" />
	</node>
	<node lat="60.79828610707112" lon="11.058530560055809" id="-39672">
		<tag k="name" v="Vestbyen" />
		<tag k="place" v="suburb" />
		<tag k="ssr:stedsnr" v="952471" />
	</node>
	<node lat="60.77827777943992" lon="11.207091675688268" id="-39673">
		<tag k="name" v="Olasvea" />
		<tag k="place" v="farm" />
		<tag k="ssr:stedsnr" v="967161" />
	</node>
	<node lat="60.795256641330674" lon="11.064620423763161" id="-39708">
		<tag k="name" v="Sigrid Undsets plass" />
		<tag k="place" v="square" />
		<tag k="ssr:stedsnr" v="988752" />
	</node>
	<node lat="60.8603682166499" lon="11.11519862047912" id="-40145">
		<tag k="fixme" v="consider place=hamlet" />
		<tag k="name" v="Narmo" />
		<tag k="place" v="farm" />
		<tag k="ssr:stedsnr" v="1071896" />
	</node>
	<node lat="60.81946678293597" lon="11.182151618539272" id="-40146">
		<tag k="fixme" v="consider place=hamlet" />
		<tag k="name" v="Blæstad" />
		<tag k="place" v="farm" />
		<tag k="ssr:stedsnr" v="1072996" />
	</node>
	<node lat="60.85264612890308" lon="11.182867151825308" id="-40147">
		<tag k="fixme" v="consider place=hamlet" />
		<tag k="name" v="Skålerud" />
		<tag k="place" v="farm" />
		<tag k="ssr:stedsnr" v="1072997" />
	</node>
	<node lat="60.78716184615463" lon="11.180611446607095" id="-40148">
		<tag k="fixme" v="consider place=hamlet" />
		<tag k="name" v="O" />
		<tag k="place" v="farm" />
		<tag k="ssr:stedsnr" v="1073013" />
	</node>
	<node lat="60.82264552643045" lon="11.075626575855063" id="-40149">
		<tag k="fixme" v="consider place=hamlet" />
		<tag k="name" v="Vallsig" />
		<tag k="place" v="farm" />
		<tag k="ssr:stedsnr" v="1073014" />
	</node>
	<node lat="60.81997300520527" lon="11.050260057612148" id="-40150">
		<tag k="name" v="Alu" />
		<tag k="place" v="hamlet" />
		<tag k="ssr:stedsnr" v="1073016" />
	</node>
	<node lat="60.79885213640168" lon="11.12007597029734" id="-40151">
		<tag k="fixme" v="consider place=hamlet" />
		<tag k="name" v="Åker" />
		<tag k="place" v="farm" />
		<tag k="ssr:stedsnr" v="1072983" />
	</node>
	<node lat="60.80393448180113" lon="11.134601571175027" id="-40152">
		<tag k="fixme" v="consider place=hamlet" />
		<tag k="name" v="Finsal" />
		<tag k="place" v="farm" />
		<tag k="ssr:stedsnr" v="1072984" />
	</node>
	<node lat="60.800066074747136" lon="11.134179701227996" id="-40153">
		<tag k="fixme" v="consider place=hamlet" />
		<tag k="name" v="Vang prestegård" />
		<tag k="place" v="farm" />
		<tag k="ssr:stedsnr" v="1072986" />
	</node>
	<node lat="60.804398693718234" lon="11.160995487040429" id="-40154">
		<tag k="name" v="Hubred" />
		<tag k="place" v="hamlet" />
		<tag k="ssr:stedsnr" v="1072987" />
	</node>
	<node lat="60.88111397412077" lon="11.132930048525557" id="-40155">
		<tag k="fixme" v="consider place=hamlet" />
		<tag k="name" v="Ås" />
		<tag k="place" v="farm" />
		<tag k="ssr:stedsnr" v="1072992" />
	</node>
	<node lat="60.7867108497114" lon="11.228582617760866" id="-40156">
		<tag k="name" v="Farmenkoia" />
		<tag k="place" v="locality" />
		<tag k="ssr:stedsnr" v="1073567" />
	</node>
	<node lat="60.80265078951885" lon="11.06820666822154" id="-40157">
		<tag k="leisure" v="park" />
		<tag k="name" v="Ankerskogen" />
		<tag k="ssr:stedsnr" v="1076266" />
	</node>
	<node lat="60.85283209672433" lon="11.145435586296106" id="-40159">
		<tag k="name" v="Østre Svenkerud" />
		<tag k="place" v="farm" />
		<tag k="ssr:stedsnr" v="1076786" />
	</node>
	<node lat="60.85775044606286" lon="11.141791776344295" id="-40160">
		<tag k="name" v="Øvre Dalby" />
		<tag k="place" v="farm" />
		<tag k="ssr:stedsnr" v="1076787" />
	</node>
	<node lat="60.87338015588393" lon="11.129684023456015" id="-40161">
		<tag k="name" v="Østre Skjeset" />
		<tag k="place" v="farm" />
		<tag k="ssr:stedsnr" v="1076788" />
	</node>
	<node lat="60.88088765465687" lon="11.149342876231522" id="-40162">
		<tag k="name" v="Øvre Dufset" />
		<tag k="place" v="locality" />
		<tag k="ssr:stedsnr" v="1076789" />
	</node>
	<node lat="60.88194465960911" lon="11.178854076196801" id="-40163">
		<tag k="name" v="Nedre Kirkeby" />
		<tag k="place" v="farm" />
		<tag k="ssr:stedsnr" v="1076791" />
	</node>
	<node lat="60.84180764864384" lon="11.213938051593372" id="-40164">
		<tag k="name" v="Øvre Bjørtomten" />
		<tag k="place" v="farm" />
		<tag k="ssr:stedsnr" v="1076793" />
	</node>
	<node lat="60.86853311500189" lon="11.248192995127894" id="-40165">
		<tag k="fixme" v="consider place=hamlet" />
		<tag k="name" v="Nedre Sagsveen" />
		<tag k="place" v="farm" />
		<tag k="ssr:stedsnr" v="1076794" />
	</node>
	<node lat="60.77783826477634" lon="11.176615599304379" id="-40166">
		<tag k="name" v="Søndre Opphus" />
		<tag k="place" v="locality" />
		<tag k="ssr:stedsnr" v="1076795" />
	</node>
	<node lat="60.81832781736101" lon="11.127722649743816" id="-40169">
		<tag k="name" v="Ingeberg" />
		<tag k="place" v="hamlet" />
		<tag k="ssr:stedsnr" v="1081918" />
	</node>
	<node lat="60.84575907729371" lon="11.092474292934394" id="-40171">
		<tag k="name" v="Gålåsholmen" />
		<tag k="place" v="farm" />
		<tag k="ssr:stedsnr" v="1082037" />
	</node>
</osm>
