<?xml version="1.0" encoding="UTF-8"?>
<<<<<<< HEAD
<osm version="0.6" generator="osmapis">
	<node lat="60.80054166738946" lon="11.027133342215048" id="-16056">
		<tag k="name" v="Jernbanemuseet" />
		<tag k="ssr:stedsnr" v="9501" />
		<tag k="tourism" v="museum" />
	</node>
	<node lat="60.79204721933714" lon="11.038302781361383" id="-16072">
=======
<osm generator="osmapis" version="0.6">
	<node id="-302976" lat="60.8705527741" lon="11.229786114">
		<tag k="amenity" v="community_centre" />
		<tag k="name" v="Østås samfunnshus" />
		<tag k="ssr:stedsnr" v="41041" />
	</node>
	<node id="-303360" lat="60.8559888916" lon="11.1346166707">
		<tag k="amenity" v="community_centre" />
		<tag k="name" v="Neby" />
		<tag k="ssr:stedsnr" v="831548" />
	</node>
	<node id="-303198" lat="60.7973000013" lon="11.1961944464">
		<tag k="amenity" v="community_centre" />
		<tag k="name" v="Fredheim" />
		<tag k="ssr:stedsnr" v="542200" />
	</node>
	<node id="-302621" lat="60.7929750013" lon="11.0514694489">
		<tag k="name" v="Ridehuset" />
		<tag k="place" v="locality" />
		<tag k="ssr:stedsnr" v="466488" />
	</node>
	<node id="-302490" lat="60.7920472193" lon="11.0383027814">
>>>>>>> e1d4bc35ff8a6074a6f2e91616a996b547c36f15
		<tag k="name" v="Hamardomen" />
		<tag k="ssr:stedsnr" v="237718" />
		<tag k="tourism" v="attraction" />
	</node>
<<<<<<< HEAD
	<node lat="60.79671667068396" lon="11.068316673737797" id="-16075">
		<tag k="amenity" v="place_of_worship" />
		<tag k="denomination" v="lutheran" />
		<tag k="name" v="Hamar domkirke" />
		<tag k="religion" v="christian" />
		<tag k="ssr:stedsnr" v="55670" />
	</node>
	<node lat="60.792805557403895" lon="11.038719450700095" id="-16160">
		<tag k="name" v="Hedmarkmuseet" />
		<tag k="ssr:stedsnr" v="191454" />
		<tag k="tourism" v="museum" />
	</node>
	<node lat="60.80243610836533" lon="11.132275001652799" id="-16211">
=======
	<node id="-303225" lat="61.0152000041" lon="11.1477888907">
		<tag k="name" v="Ellemittholet" />
		<tag k="place" v="locality" />
		<tag k="ssr:stedsnr" v="566145" />
	</node>
	<node id="-302456" lat="60.8005416674" lon="11.0271333422">
		<tag k="name" v="Jernbanemuseet" />
		<tag k="ssr:stedsnr" v="9501" />
		<tag k="tourism" v="museum" />
	</node>
	<node id="-302628" lat="60.8024361084" lon="11.1322750017">
>>>>>>> e1d4bc35ff8a6074a6f2e91616a996b547c36f15
		<tag k="amenity" v="place_of_worship" />
		<tag k="denomination" v="lutheran" />
		<tag k="name" v="Vang kirke" />
		<tag k="religion" v="christian" />
		<tag k="ssr:stedsnr" v="312829" />
	</node>
<<<<<<< HEAD
	<node lat="60.792975001336515" lon="11.051469448879937" id="-16213">
		<tag k="name" v="Ridehuset" />
=======
	<node id="-303061" lat="60.8210111129" lon="11.1721750025">
		<tag k="amenity" v="community_centre" />
		<tag k="name" v="Høyvang" />
		<tag k="ssr:stedsnr" v="161545" />
	</node>
	<node id="-303346" lat="60.8481500004" lon="11.1058777688">
		<tag k="name" v="Vennkvern Motorbane" />
>>>>>>> e1d4bc35ff8a6074a6f2e91616a996b547c36f15
		<tag k="place" v="locality" />
		<tag k="ssr:stedsnr" v="466488" />
	</node>
<<<<<<< HEAD
	<node lat="60.815872224206025" lon="11.043702769086366" id="-16530">
=======
	<node id="-302929" lat="60.8158722242" lon="11.0437027691">
>>>>>>> e1d4bc35ff8a6074a6f2e91616a996b547c36f15
		<tag k="cemetery" v="grave" />
		<tag k="name" v="Hol" />
		<tag k="place" v="locality" />
		<tag k="ssr:stedsnr" v="920418" />
	</node>
<<<<<<< HEAD
	<node lat="60.870552774056364" lon="11.229786114011379" id="-16567">
		<tag k="amenity" v="community_centre" />
		<tag k="name" v="Østås samfunnshus" />
		<tag k="ssr:stedsnr" v="41041" />
	</node>
	<node lat="60.84591389245512" lon="11.204613895180273" id="-16627">
=======
	<node id="-303083" lat="60.7928055574" lon="11.0387194507">
		<tag k="name" v="Hedmarkmuseet" />
		<tag k="ssr:stedsnr" v="191454" />
		<tag k="tourism" v="museum" />
	</node>
	<node id="-303303" lat="60.8659361074" lon="11.1337527805">
		<tag k="amenity" v="community_centre" />
		<tag k="name" v="Vestås" />
		<tag k="ssr:stedsnr" v="783581" />
	</node>
	<node id="-302983" lat="60.7967166707" lon="11.0683166737">
>>>>>>> e1d4bc35ff8a6074a6f2e91616a996b547c36f15
		<tag k="amenity" v="place_of_worship" />
		<tag k="denomination" v="lutheran" />
		<tag k="name" v="Øvre Vang kirke" />
		<tag k="old_name" v="Vangsås" />
		<tag k="religion" v="christian" />
		<tag k="ssr:stedsnr" v="130683" />
	</node>
	<node lat="60.82101111291932" lon="11.1721750024907" id="-16642">
		<tag k="amenity" v="community_centre" />
		<tag k="name" v="Høyvang" />
		<tag k="ssr:stedsnr" v="161545" />
	</node>
	<node lat="60.79730000133313" lon="11.19619444641212" id="-16802">
		<tag k="amenity" v="community_centre" />
		<tag k="name" v="Fredheim" />
		<tag k="ssr:stedsnr" v="542200" />
	</node>
	<node lat="61.01520000407682" lon="11.147788890705803" id="-16827">
		<tag k="name" v="Ellemittholet" />
		<tag k="place" v="locality" />
		<tag k="ssr:stedsnr" v="566145" />
	</node>
<<<<<<< HEAD
	<node lat="60.80401388966008" lon="11.046397228713705" id="-16838">
=======
	<node id="-303238" lat="60.8040138897" lon="11.0463972287">
>>>>>>> e1d4bc35ff8a6074a6f2e91616a996b547c36f15
		<tag k="amenity" v="place_of_worship" />
		<tag k="denomination" v="lutheran" />
		<tag k="name" v="Storhamar kirke" />
		<tag k="religion" v="christian" />
		<tag k="ssr:stedsnr" v="600672" />
	</node>
<<<<<<< HEAD
	<node lat="60.86593610739726" lon="11.133752780539684" id="-16915">
		<tag k="amenity" v="community_centre" />
		<tag k="name" v="Vestås" />
		<tag k="ssr:stedsnr" v="783581" />
	</node>
	<node lat="60.848150000403265" lon="11.105877768805154" id="-16937">
		<tag k="name" v="Vennkvern Motorbane" />
		<tag k="place" v="locality" />
		<tag k="ssr:stedsnr" v="829837" />
	</node>
	<node lat="60.85598889162409" lon="11.134616670715289" id="-16950">
		<tag k="amenity" v="community_centre" />
		<tag k="name" v="Neby" />
		<tag k="ssr:stedsnr" v="831548" />
	</node>
=======
	<node id="-303044" lat="60.8459138925" lon="11.2046138952">
		<tag k="amenity" v="place_of_worship" />
		<tag k="denomination" v="lutheran" />
		<tag k="name" v="Øvre Vang kirke" />
		<tag k="old_name" v="Vangsås" />
		<tag k="religion" v="christian" />
		<tag k="ssr:stedsnr" v="130683" />
	</node>
>>>>>>> e1d4bc35ff8a6074a6f2e91616a996b547c36f15
</osm>
