<?xml version="1.0" encoding="UTF-8"?>
<osm generator="osmapis" version="0.6">
	<node id="-36608" lat="60.8115944478" lon="11.0704027863">
		<tag k="name" v="Klukhagan" />
		<tag k="place" v="locality" />
		<tag k="ssr:stedsnr" v="703757" />
	</node>
	<node id="-36734" lat="60.9101555517" lon="11.1601027834">
		<tag k="alt_name" v="Søndre Jengardsmyra" />
		<tag k="name" v="Jengardsmyra" />
		<tag k="natural" v="wetland" />
		<tag k="ssr:stedsnr" v="919581" />
	</node>
	<node id="-36346" lat="61.0732583291" lon="11.1052055549">
		<tag k="name" v="Spjeldholtet" />
		<tag k="place" v="locality" />
		<tag k="ssr:stedsnr" v="55854" />
	</node>
	<node id="-36601" lat="60.9389388933" lon="11.2011694496">
		<tag k="name" v="Kistmyra" />
		<tag k="natural" v="wetland" />
		<tag k="ssr:stedsnr" v="555522" />
	</node>
	<node id="-36728" lat="61.0282305598" lon="11.1452861073">
		<tag k="name" v="Gutåskjølen" />
		<tag k="natural" v="wetland" />
		<tag k="ssr:stedsnr" v="769126" />
	</node>
	<node id="-36727" lat="61.0197916625" lon="11.1850472243">
		<tag k="historic" v="shieling" />
		<tag k="name" v="Skoglykkja" />
		<tag k="place" v="locality" />
		<tag k="ssr:stedsnr" v="769123" />
	</node>
	<node id="-37234" lat="60.9316444448" lon="11.2152111144">
		<tag k="landuse" v="meadow" />
		<tag k="name" v="Bjørkvollene" />
		<tag k="ssr:stedsnr" v="848076" />
	</node>
	<node id="-37233" lat="60.9390055572" lon="11.0914194412">
		<tag k="landuse" v="meadow" />
		<tag k="name" v="Vakkervollen" />
		<tag k="ssr:stedsnr" v="847272" />
	</node>
	<node id="-36720" lat="61.1161916693" lon="11.07942222">
		<tag k="name" v="Dansemyrene" />
		<tag k="natural" v="wetland" />
		<tag k="ssr:stedsnr" v="907946" />
	</node>
	<node id="-36335" lat="60.9927777751" lon="11.1305444426">
		<tag k="name" v="Langjordmyra" />
		<tag k="natural" v="wetland" />
		<tag k="ssr:stedsnr" v="20208" />
	</node>
	<node id="-37230" lat="60.8945222237" lon="11.1806138935">
		<tag k="name" v="Lundmarka" />
		<tag k="place" v="locality" />
		<tag k="ssr:stedsnr" v="845479" />
	</node>
	<node id="-36973" lat="60.810766668" lon="11.231466667">
		<tag k="name" v="Hommelstadhagan" />
		<tag k="place" v="locality" />
		<tag k="ssr:stedsnr" v="340643" />
	</node>
	<node id="-36332" lat="61.0275388929" lon="11.1651638866">
		<tag k="name" v="Høgbakken" />
		<tag k="place" v="locality" />
		<tag k="ssr:stedsnr" v="223133" />
	</node>
	<node id="-36842" lat="60.8946583312" lon="11.1358527756">
		<tag k="name" v="Rundmyra" />
		<tag k="natural" v="wetland" />
		<tag k="ssr:stedsnr" v="56472" />
	</node>
	<node id="-36391" lat="60.9186999977" lon="11.1386166623">
		<tag k="name" v="Kluksæterkjølen" />
		<tag k="natural" v="wetland" />
		<tag k="ssr:stedsnr" v="102533" />
	</node>
	<node id="-37224" lat="61.0847722252" lon="11.0543666714">
		<tag k="name" v="Stellmyra" />
		<tag k="natural" v="wetland" />
		<tag k="ssr:stedsnr" v="844189" />
	</node>
	<node id="-36709" lat="60.9901638891" lon="11.2244916651">
		<tag k="name" v="Killingkjølen" />
		<tag k="natural" v="wetland" />
		<tag k="ssr:stedsnr" v="899497" />
	</node>
	<node id="-36708" lat="61.1117277765" lon="11.086977784">
		<tag k="name" v="Morgenvollen" />
		<tag k="place" v="locality" />
		<tag k="ssr:stedsnr" v="725960" />
	</node>
	<node id="-37030" lat="60.9505750026" lon="11.1218361198">
		<tag k="name" v="Mæresmyra" />
		<tag k="natural" v="wetland" />
		<tag k="ssr:stedsnr" v="423257" />
	</node>
	<node id="-36322" lat="60.8961972194" lon="11.1160888932">
		<tag k="historic" v="shieling" />
		<tag k="name" v="Gilevollen" />
		<tag k="place" v="locality" />
		<tag k="ssr:stedsnr" v="222517" />
	</node>
	<node id="-36667" lat="60.923161109" lon="11.1529083321">
		<tag k="name" v="Nordre Jengardsmyra" />
		<tag k="natural" v="wetland" />
		<tag k="ssr:stedsnr" v="647460" />
	</node>
	<node id="-37072" lat="60.9612555554" lon="11.195172221">
		<tag k="name" v="Stensæterkjølen" />
		<tag k="natural" v="wetland" />
		<tag k="ssr:stedsnr" v="555546" />
	</node>
	<node id="-36702" lat="60.8993694472" lon="11.1331333417">
		<tag k="name" v="Styggmyra" />
		<tag k="natural" v="wetland" />
		<tag k="ssr:stedsnr" v="891472" />
	</node>
	<node id="-37093" lat="60.9059750007" lon="11.1413444475">
		<tag k="name" v="Krampmyra" />
		<tag k="natural" v="wetland" />
		<tag k="ssr:stedsnr" v="587483" />
	</node>
	<node id="-37071" lat="60.997624997" lon="11.1456000043">
		<tag k="name" v="Bergemyra" />
		<tag k="natural" v="wetland" />
		<tag k="ssr:stedsnr" v="555489" />
	</node>
	<node id="-36439" lat="60.9804249988" lon="11.1008500075">
		<tag k="name" v="Haugsæterkjølen" />
		<tag k="natural" v="wetland" />
		<tag k="ssr:stedsnr" v="191508" />
	</node>
	<node id="-36345" lat="61.045022222" lon="11.0970194502">
		<tag k="landuse" v="meadow" />
		<tag k="name" v="Borkbuvollen" />
		<tag k="ssr:stedsnr" v="55852" />
	</node>
	<node id="-36430" lat="60.9691111152" lon="11.1613777799">
		<tag k="historic" v="shieling" />
		<tag k="name" v="Beita" />
		<tag k="place" v="locality" />
		<tag k="ssr:stedsnr" v="284506" />
	</node>
	<node id="-36818" lat="60.8951249964" lon="11.1461750056">
		<tag k="name" v="Ålsbergmyra" />
		<tag k="natural" v="wetland" />
		<tag k="ssr:stedsnr" v="9656" />
	</node>
	<node id="-36432" lat="60.9664194436" lon="11.1443722267">
		<tag k="name" v="Sjømyra" />
		<tag k="natural" v="wetland" />
		<tag k="ssr:stedsnr" v="284513" />
	</node>
	<node id="-36687" lat="60.8176416678" lon="11.2292611039">
		<tag k="name" v="Ingvoldstadhagan" />
		<tag k="place" v="locality" />
		<tag k="ssr:stedsnr" v="886647" />
	</node>
	<node id="-37070" lat="60.9730000003" lon="11.2261249922">
		<tag k="name" v="Målikjølen" />
		<tag k="natural" v="wetland" />
		<tag k="ssr:stedsnr" v="555482" />
	</node>
	<node id="-37197" lat="60.8934111123" lon="11.1079666678">
		<tag k="name" v="Gilehagan" />
		<tag k="place" v="locality" />
		<tag k="ssr:stedsnr" v="829570" />
	</node>
	<node id="-36940" lat="61.0138916693" lon="11.2086083384">
		<tag k="name" v="Lavsjømyrene" />
		<tag k="natural" v="wetland" />
		<tag k="ssr:stedsnr" v="190300" />
	</node>
	<node id="-37067" lat="60.9136500022" lon="11.0866333418">
		<tag k="alt_name" v="Stormyr" />
		<tag k="name" v="Stormyra" />
		<tag k="natural" v="wetland" />
		<tag k="ssr:stedsnr" v="555187" />
	</node>
	<node id="-36679" lat="60.9160499962" lon="11.2230499919">
		<tag k="name" v="Stormyra" />
		<tag k="natural" v="wetland" />
		<tag k="ssr:stedsnr" v="676624" />
	</node>
	<node id="-36678" lat="60.912825003" lon="11.1487250075">
		<tag k="name" v="Brannmyra" />
		<tag k="natural" v="wetland" />
		<tag k="ssr:stedsnr" v="676614" />
	</node>
	<node id="-37059" lat="61.1596944411" lon="11.0373027813">
		<tag k="name" v="Raudfjellsbekkekjølen" />
		<tag k="natural" v="wetland" />
		<tag k="ssr:stedsnr" v="544266" />
	</node>
	<node id="-36930" lat="61.0793444434" lon="11.1827277767">
		<tag k="name" v="Dovremyra" />
		<tag k="natural" v="wetland" />
		<tag k="ssr:stedsnr" v="178128" />
	</node>
	<node id="-36800" lat="60.9816388853" lon="11.0989499982">
		<tag k="name" v="Nordre Hyttmyra" />
		<tag k="natural" v="wetland" />
		<tag k="ssr:stedsnr" v="967866" />
	</node>
	<node id="-36799" lat="60.9749583327" lon="11.1001472301">
		<tag k="name" v="Søndre Hyttmyra" />
		<tag k="natural" v="wetland" />
		<tag k="ssr:stedsnr" v="967865" />
	</node>
	<node id="-37220" lat="61.10098611" lon="11.0490666633">
		<tag k="name" v="Prestsæterholmen" />
		<tag k="place" v="locality" />
		<tag k="ssr:stedsnr" v="844194" />
	</node>
	<node id="-37053" lat="61.0964611151" lon="11.095013883">
		<tag k="name" v="Spjeldåholmen" />
		<tag k="place" v="locality" />
		<tag k="ssr:stedsnr" v="540870" />
	</node>
	<node id="-36795" lat="61.0145083337" lon="11.1629277723">
		<tag k="historic" v="shieling" />
		<tag k="name" v="Farmenvollen" />
		<tag k="place" v="locality" />
		<tag k="ssr:stedsnr" v="951353" />
	</node>
	<node id="-36409" lat="60.9988722199" lon="11.1262861093">
		<tag k="name" v="Eftasmyra" />
		<tag k="natural" v="wetland" />
		<tag k="ssr:stedsnr" v="161865" />
	</node>
	<node id="-37047" lat="60.9192749975" lon="11.1555305625">
		<tag k="name" v="Blæstadfeltet" />
		<tag k="place" v="locality" />
		<tag k="ssr:stedsnr" v="526459" />
	</node>
	<node id="-37051" lat="61.0619750033" lon="11.109977786">
		<tag k="name" v="Tredvemyra" />
		<tag k="natural" v="wetland" />
		<tag k="ssr:stedsnr" v="540860" />
	</node>
	<node id="-36659" lat="61.1063472189" lon="11.0989500063">
		<tag k="name" v="Børstadvollen" />
		<tag k="place" v="locality" />
		<tag k="ssr:stedsnr" v="725950" />
	</node>
	<node id="-36530" lat="60.9440000009" lon="11.1043999951">
		<tag k="name" v="Jordsmyra" />
		<tag k="natural" v="wetland" />
		<tag k="ssr:stedsnr" v="495575" />
	</node>
	<node id="-36934" lat="60.9397555579" lon="11.1149666657">
		<tag k="name" v="Fallsmyra" />
		<tag k="natural" v="wetland" />
		<tag k="ssr:stedsnr" v="180246" />
	</node>
	<node id="-37040" lat="60.8065083305" lon="11.230094448">
		<tag k="name" v="Dørumshagan" />
		<tag k="place" v="locality" />
		<tag k="ssr:stedsnr" v="522633" />
	</node>
	<node id="-36962" lat="61.0804583368" lon="11.0500888934">
		<tag k="name" v="Harasjømyra" />
		<tag k="natural" v="wetland" />
		<tag k="ssr:stedsnr" v="311657" />
	</node>
	<node id="-36627" lat="60.9065194475" lon="11.1155527847">
		<tag k="name" v="Myrbergmyra" />
		<tag k="natural" v="wetland" />
		<tag k="ssr:stedsnr" v="585522" />
	</node>
	<node id="-36658" lat="60.9792583354" lon="11.109358326">
		<tag k="name" v="Glestadmyra" />
		<tag k="natural" v="wetland" />
		<tag k="ssr:stedsnr" v="725900" />
	</node>
	<node id="-36490" lat="61.0992138888" lon="11.1408750075">
		<tag k="name" v="Kalefonien" />
		<tag k="place" v="locality" />
		<tag k="ssr:stedsnr" v="480927" />
	</node>
	<node id="-36871" lat="60.9569138884" lon="11.1779694421">
		<tag k="landuse" v="peat_cutting" />
		<tag k="name" v="Krakholen" />
		<tag k="ssr:stedsnr" v="81235" />
	</node>
	<node id="-36775" lat="61.0703777795" lon="11.1019666596">
		<tag k="landuse" v="meadow" />
		<tag k="name" v="Tredvevollen" />
		<tag k="ssr:stedsnr" v="905875" />
	</node>
	<node id="-37158" lat="60.8855722178" lon="11.1315194501">
		<tag k="name" v="Åshagan" />
		<tag k="place" v="locality" />
		<tag k="ssr:stedsnr" v="783382" />
	</node>
	<node id="-36977" lat="61.1409055582" lon="11.0289111072">
		<tag k="name" v="Bubekkjølen" />
		<tag k="natural" v="wetland" />
		<tag k="ssr:stedsnr" v="343173" />
	</node>
	<node id="-36644" lat="60.8999777794" lon="11.190750001">
		<tag k="name" v="Ormsætermyra" />
		<tag k="place" v="locality" />
		<tag k="ssr:stedsnr" v="615637" />
	</node>
	<node id="-36806" lat="60.9843111133" lon="11.1963333408">
		<tag k="name" v="Målifløtene" />
		<tag k="natural" v="wetland" />
		<tag k="ssr:stedsnr" v="9556" />
	</node>
	<node id="-36389" lat="60.9195388898" lon="11.1014805564">
		<tag k="name" v="Gråbendalsmyra" />
		<tag k="natural" v="wetland" />
		<tag k="ssr:stedsnr" v="100207" />
	</node>
	<node id="-36513" lat="60.9051888924" lon="11.1577527821">
		<tag k="name" v="Raudmyra" />
		<tag k="natural" v="wetland" />
		<tag k="ssr:stedsnr" v="494559" />
	</node>
	<node id="-36512" lat="60.9528027776" lon="11.1084250033">
		<tag k="alt_name" v="Tørbustilmyra" />
		<tag k="name" v="Tørbustilkjølen" />
		<tag k="natural" v="wetland" />
		<tag k="ssr:stedsnr" v="494550" />
	</node>
	<node id="-36976" lat="60.8900833319" lon="11.2219555628">
		<tag k="name" v="Bekkeslåtten" />
		<tag k="place" v="locality" />
		<tag k="ssr:stedsnr" v="343091" />
	</node>
	<node id="-37019" lat="61.0115999987" lon="11.1815805507">
		<tag k="name" v="Torshovmyra" />
		<tag k="natural" v="wetland" />
		<tag k="ssr:stedsnr" v="405369" />
	</node>
	<node id="-36506" lat="61.1393777816" lon="11.0937361032">
		<tag k="name" v="Kvannbekkjølen" />
		<tag k="natural" v="wetland" />
		<tag k="ssr:stedsnr" v="360964" />
	</node>
	<node id="-36507" lat="60.9773944407" lon="11.1178499957">
		<tag k="historic" v="shieling" />
		<tag k="name" v="Prestrud" />
		<tag k="place" v="locality" />
		<tag k="ssr:stedsnr" v="361908" />
	</node>
	<node id="-36503" lat="61.0751249962" lon="11.1741472242">
		<tag k="name" v="Jomfrudalsmyra" />
		<tag k="natural" v="wetland" />
		<tag k="ssr:stedsnr" v="492457" />
	</node>
	<node id="-36502" lat="61.0766527774" lon="11.1083222145">
		<tag k="name" v="Godmyra" />
		<tag k="natural" v="wetland" />
		<tag k="ssr:stedsnr" v="358857" />
	</node>
	<node id="-37017" lat="60.8921555536" lon="11.1200166662">
		<tag k="name" v="Lierroa" />
		<tag k="place" v="locality" />
		<tag k="ssr:stedsnr" v="404544" />
	</node>
	<node id="-36499" lat="60.8460472218" lon="11.1312527747">
		<tag k="name" v="Markene" />
		<tag k="place" v="locality" />
		<tag k="ssr:stedsnr" v="345524" />
	</node>
	<node id="-36995" lat="60.7904249974" lon="11.2326861112">
		<tag k="name" v="Vollsmoene" />
		<tag k="place" v="locality" />
		<tag k="ssr:stedsnr" v="360184" />
	</node>
	<node id="-36880" lat="60.857527781" lon="11.1960194425">
		<tag k="name" v="Villroa" />
		<tag k="place" v="locality" />
		<tag k="ssr:stedsnr" v="101033" />
	</node>
	<node id="-36492" lat="60.9470277737" lon="11.0976916729">
		<tag k="name" v="Langholene" />
		<tag k="place" v="locality" />
		<tag k="ssr:stedsnr" v="483269" />
	</node>
	<node id="-36618" lat="61.0555611129" lon="11.1859555558">
		<tag k="name" v="Brennsætermyra" />
		<tag k="natural" v="wetland" />
		<tag k="ssr:stedsnr" v="709139" />
	</node>
	<node id="-36745" lat="60.8958999975" lon="11.1613111197">
		<tag k="alt_name" v="Gillermyrbanen" />
		<tag k="name" v="Gilmyrbanen" />
		<tag k="natural" v="wetland" />
		<tag k="ssr:stedsnr" v="798628" />
	</node>
	<node id="-37128" lat="60.8778722187" lon="11.2542249978">
		<tag k="name" v="Bergsetmarka" />
		<tag k="place" v="locality" />
		<tag k="ssr:stedsnr" v="647048" />
	</node>
	<node id="-36364" lat="60.9221499996" lon="11.1605277843">
		<tag k="name" v="Stormyra" />
		<tag k="natural" v="wetland" />
		<tag k="ssr:stedsnr" v="251651" />
	</node>
	<node id="-36358" lat="60.9900500012" lon="11.0999249957">
		<tag k="fixme" v="multiple name tags, choose one and add the other to alt_name" />
		<tag k="name" v="Krokfuruholmyra;Tjernsmyra" />
		<tag k="natural" v="wetland" />
		<tag k="ssr:stedsnr" v="70537" />
	</node>
	<node id="-36357" lat="60.9932499967" lon="11.1663749926">
		<tag k="name" v="Eftasmyra" />
		<tag k="natural" v="wetland" />
		<tag k="ssr:stedsnr" v="70532" />
	</node>
	<node id="-36996" lat="60.7844972223" lon="11.2267916652">
		<tag k="name" v="Farmenmoen" />
		<tag k="place" v="locality" />
		<tag k="ssr:stedsnr" v="360185" />
	</node>
	<node id="-37123" lat="61.0088916693" lon="11.1620916586">
		<tag k="name" v="Beita" />
		<tag k="place" v="locality" />
		<tag k="ssr:stedsnr" v="647155" />
	</node>
	<node id="-36651" lat="60.93300278" lon="11.1763749917">
		<tag k="alt_name" v="Langgjespa" />
		<tag k="name" v="Langgjesna" />
		<tag k="natural" v="wetland" />
		<tag k="ssr:stedsnr" v="616615" />
	</node>
</osm>
