<?xml version="1.0" encoding="UTF-8"?>
<osm version="0.6" generator="osmapis">
	<node lat="60.79143623966981" lon="11.080279413097902" id="-19167">
		<tag k="name" v="Hamar skysstasjon" />
		<tag k="railway" v="station" />
		<tag k="ssr:stedsnr" v="40564" />
		<tag k="train" v="yes" />
	</node>
	<node lat="60.9281527817858" lon="11.230058326295445" id="-19179">
		<tag k="highway" v="path" />
		<tag k="name" v="Bårdsætervegen" />
		<tag k="ssr:stedsnr" v="241071" />
	</node>
	<node lat="61.12828333159961" lon="11.094775001750845" id="-19255">
		<tag k="highway" v="path" />
		<tag k="name" v="Bringbuvegen" />
		<tag k="ssr:stedsnr" v="179960" />
	</node>
	<node lat="60.80268611377318" lon="11.130280557731147" id="-19291">
		<tag k="bridge" v="yes" />
		<tag k="layer" v="1" />
		<tag k="name" v="Finsalbekken" />
		<tag k="ssr:stedsnr" v="289609" />
	</node>
	<node lat="60.956294440687394" lon="11.185988889034464" id="-19329">
		<tag k="fixme" v="consider highway=path" />
		<tag k="highway" v="track" />
		<tag k="name" v="Stensætervegen" />
		<tag k="ssr:stedsnr" v="344512" />
	</node>
	<node lat="60.82276944407462" lon="11.16266389469649" id="-19331">
		<tag k="bridge" v="yes" />
		<tag k="layer" v="1" />
		<tag k="name" v="Nashaug" />
		<tag k="ssr:stedsnr" v="349611" />
	</node>
	<node lat="60.85631110928251" lon="11.135541671544198" id="-19387">
		<tag k="junction" v="yes" />
		<tag k="name" v="Dalby" />
		<tag k="place" v="locality" />
		<tag k="ssr:stedsnr" v="466627" />
	</node>
	<node lat="60.874397218858405" lon="11.199380558842558" id="-19425">
		<tag k="junction" v="yes" />
		<tag k="name" v="Dystvollsveum" />
		<tag k="place" v="locality" />
		<tag k="ssr:stedsnr" v="526067" />
	</node>
	<node lat="60.81740833095685" lon="11.069688886049445" id="-19457">
		<tag k="aeroway" v="aerodrome" />
		<tag k="alt_name" v="Hamar flyplass, Stafsberg" />
		<tag k="name" v="Hamar flyplass" />
		<tag k="ssr:stedsnr" v="602953" />
	</node>
	<node lat="60.850122218776406" lon="11.159430551962236" id="-19515">
		<tag k="junction" v="yes" />
		<tag k="name" v="Korslund" />
		<tag k="place" v="locality" />
		<tag k="ssr:stedsnr" v="709580" />
	</node>
	<node lat="60.79253055820904" lon="11.071113881272023" id="-19585">
		<tag k="man_made" v="quay" />
		<tag k="name" v="Brygga" />
		<tag k="place" v="locality" />
		<tag k="ssr:stedsnr" v="829565" />
	</node>
	<node lat="60.811736110705304" lon="11.093044446629568" id="-19614">
		<tag k="bridge" v="yes" />
		<tag k="layer" v="1" />
		<tag k="name" v="Vektbakken" />
		<tag k="ssr:stedsnr" v="896619" />
	</node>
	<node lat="60.92283333239918" lon="11.101133335419922" id="-19630">
		<tag k="highway" v="path" />
		<tag k="name" v="Tørbustilvegen" />
		<tag k="ssr:stedsnr" v="950250" />
	</node>
	<node lat="60.7915808587042" lon="11.076263626714281" id="-19642">
		<tag k="alt_name" v="Hamar jernbanestasjon" />
		<tag k="name" v="Hamar stasjon" />
		<tag k="railway" v="station" />
		<tag k="ssr:stedsnr" v="989630" />
		<tag k="train" v="yes" />
	</node>
	<node lat="61.138099998884144" lon="11.082119443549601" id="-19680">
		<tag k="highway" v="path" />
		<tag k="name" v="Tingstadbuvegen" />
		<tag k="ssr:stedsnr" v="57935" />
	</node>
	<node lat="60.90468888692484" lon="11.221574996032333" id="-19683">
		<tag k="highway" v="path" />
		<tag k="name" v="Brumundvegen" />
		<tag k="ssr:stedsnr" v="59058" />
	</node>
	<node lat="60.89128055528392" lon="11.198711119327626" id="-19702">
		<tag k="junction" v="yes" />
		<tag k="name" v="Ormsætertajet" />
		<tag k="place" v="locality" />
		<tag k="ssr:stedsnr" v="100077" />
	</node>
	<node lat="60.91236110718664" lon="11.148413882772337" id="-19711">
		<tag k="fixme" v="consider highway=path" />
		<tag k="highway" v="track" />
		<tag k="name" v="Kluksætervegen" />
		<tag k="ssr:stedsnr" v="102537" />
	</node>
	<node lat="60.809936113265366" lon="11.104691673548325" id="-19715">
		<tag k="bridge" v="yes" />
		<tag k="layer" v="1" />
		<tag k="name" v="Børstad" />
		<tag k="ssr:stedsnr" v="107580" />
	</node>
	<node lat="61.113058329478285" lon="11.059077781762712" id="-19716">
		<tag k="highway" v="path" />
		<tag k="name" v="Høgfjellvegen" />
		<tag k="ssr:stedsnr" v="116171" />
	</node>
	<node lat="60.87623333093719" lon="11.166874999927934" id="-19722">
		<tag k="junction" v="yes" />
		<tag k="name" v="Torvet" />
		<tag k="place" v="locality" />
		<tag k="ssr:stedsnr" v="130638" />
	</node>
	<node lat="61.139119446857976" lon="11.054824998829936" id="-19736">
		<tag k="highway" v="path" />
		<tag k="name" v="Staupholsvegen" />
		<tag k="ssr:stedsnr" v="161259" />
	</node>
	<node lat="60.9795361089187" lon="11.189152769916534" id="-19751">
		<tag k="highway" v="path" />
		<tag k="name" v="Målistien" />
		<tag k="ssr:stedsnr" v="177353" />
	</node>
	<node lat="61.158527780968576" lon="11.026611119912614" id="-19802">
		<tag k="highway" v="path" />
		<tag k="name" v="Bjønnåssætervegen" />
		<tag k="ssr:stedsnr" v="302297" />
	</node>
	<node lat="60.814344448299806" lon="11.09902222413238" id="-19820">
		<tag k="junction" v="yes" />
		<tag k="name" v="Vien vegkryss" />
		<tag k="place" v="locality" />
		<tag k="ssr:stedsnr" v="343623" />
	</node>
	<node lat="61.063174996571234" lon="11.184788881470602" id="-19877">
		<tag k="highway" v="path" />
		<tag k="name" v="Rondanestien" />
		<tag k="ssr:stedsnr" v="446185" />
	</node>
	<node lat="60.891986112280534" lon="11.098097227945669" id="-19886">
		<tag k="name" v="Markleet" />
		<tag k="place" v="locality" />
		<tag k="ssr:stedsnr" v="525538" />
	</node>
	<node lat="60.77696666595831" lon="11.222247228370149" id="-19924">
		<tag k="name" v="Ilseng stasjon" />
		<tag k="railway" v="station" />
		<tag k="ssr:stedsnr" v="555899" />
		<tag k="train" v="yes" />
	</node>
	<node lat="60.82440277616671" lon="11.089674994242904" id="-19979">
		<tag k="bridge" v="yes" />
		<tag k="layer" v="1" />
		<tag k="name" v="Turvegen" />
		<tag k="ssr:stedsnr" v="653574" />
	</node>
	<node lat="60.842291664616816" lon="11.23715556125055" id="-20042">
		<tag k="junction" v="yes" />
		<tag k="name" v="Libergstajet" />
		<tag k="place" v="locality" />
		<tag k="ssr:stedsnr" v="831254" />
	</node>
	<node lat="61.10812500416722" lon="11.061547230733346" id="-20049">
		<tag k="highway" v="path" />
		<tag k="name" v="Laddvavegen" />
		<tag k="ssr:stedsnr" v="844182" />
	</node>
	<node lat="60.92351666854576" lon="11.093488891649077" id="-20070">
		<tag k="highway" v="path" />
		<tag k="name" v="Bjørsætervegen" />
		<tag k="ssr:stedsnr" v="889241" />
	</node>
	<node lat="61.1299055522155" lon="11.06820277178665" id="-20073">
		<tag k="highway" v="path" />
		<tag k="name" v="Birkebeinerstien" />
		<tag k="ssr:stedsnr" v="950264" />
	</node>
	<node lat="60.97436666496412" lon="11.127822221051284" id="-20091">
		<tag k="highway" v="path" />
		<tag k="name" v="Haugsætervegen" />
		<tag k="ssr:stedsnr" v="967868" />
	</node>
</osm>
