<?xml version="1.0" encoding="UTF-8"?>
<<<<<<< HEAD
<osm version="0.6" generator="osmapis">
	<node lat="61.09721388825718" lon="11.085308324267395" id="-16073">
		<tag k="name" v="Øyskaret" />
		<tag k="natural" v="gorge" />
		<tag k="ssr:stedsnr" v="237865" />
	</node>
	<node lat="61.06494444036062" lon="11.201927776291758" id="-16101">
		<tag k="name" v="Maridalshøgda" />
		<tag k="natural" v="hill" />
		<tag k="place" v="locality" />
		<tag k="ssr:stedsnr" v="301116" />
	</node>
	<node lat="61.04643888581886" lon="11.157419449920395" id="-16112">
		<tag k="fixme" v="consider natural=peak for the most distinct mountains in the district" />
		<tag k="name" v="Helvetesberget" />
		<tag k="natural" v="hill" />
		<tag k="place" v="locality" />
		<tag k="ssr:stedsnr" v="250275" />
	</node>
	<node lat="61.204399996486714" lon="11.005033327837166" id="-16121">
		<tag k="fixme" v="consider natural=peak for the most distinct mountains in the district" />
		<tag k="name" v="Raudfjellet" />
		<tag k="natural" v="hill" />
		<tag k="place" v="locality" />
		<tag k="ssr:stedsnr" v="129715" />
	</node>
	<node lat="60.957791666639416" lon="11.147599996667447" id="-16152">
		<tag k="name" v="Tallrusten" />
		<tag k="place" v="locality" />
		<tag k="ssr:stedsnr" v="162507" />
	</node>
	<node lat="60.81967499959129" lon="11.038336105136738" id="-16158">
		<tag k="name" v="Hedmarktoppen" />
		<tag k="natural" v="hill" />
		<tag k="place" v="locality" />
		<tag k="ssr:stedsnr" v="191404" />
	</node>
	<node lat="61.10329444455221" lon="11.037119439610292" id="-16194">
		<tag k="name" v="Eggedal" />
		<tag k="natural" v="valley" />
		<tag k="place" v="locality" />
		<tag k="ssr:stedsnr" v="298182" />
	</node>
	<node lat="60.98065833597309" lon="11.138949992656023" id="-16221">
		<tag k="name" v="Bjørnholta" />
		<tag k="place" v="locality" />
		<tag k="ssr:stedsnr" v="324224" />
	</node>
	<node lat="60.947491670816135" lon="11.179825004166496" id="-16232">
		<tag k="name" v="Stenfjellia" />
		<tag k="natural" v="slope" />
		<tag k="place" v="locality" />
		<tag k="ssr:stedsnr" v="344514" />
	</node>
	<node lat="61.094811111127775" lon="11.063258329589681" id="-16256">
		<tag k="name" v="Bolsdalslia" />
		<tag k="natural" v="slope" />
		<tag k="place" v="locality" />
		<tag k="ssr:stedsnr" v="419191" />
	</node>
	<node lat="60.943147226572364" lon="11.21458610750311" id="-16311">
		<tag k="fixme" v="consider natural=peak for the most distinct mountains in the district" />
		<tag k="name" v="Kollmyrkampen" />
		<tag k="natural" v="hill" />
		<tag k="place" v="locality" />
		<tag k="ssr:stedsnr" v="495568" />
	</node>
	<node lat="61.08963055420028" lon="11.120249996350568" id="-16358">
		<tag k="name" v="Hundhuslia" />
		<tag k="natural" v="slope" />
		<tag k="place" v="locality" />
		<tag k="ssr:stedsnr" v="601854" />
	</node>
	<node lat="60.94265833700906" lon="11.202716669102507" id="-16368">
		<tag k="fixme" v="consider natural=peak for the most distinct mountains in the district" />
		<tag k="name" v="Stenfjellet" />
		<tag k="natural" v="hill" />
		<tag k="place" v="locality" />
		<tag k="ssr:stedsnr" v="616557" />
	</node>
	<node lat="60.90571666668908" lon="11.13216388729288" id="-16387">
		<tag k="name" v="Kubekklia" />
		<tag k="natural" v="slope" />
		<tag k="place" v="locality" />
		<tag k="ssr:stedsnr" v="708460" />
	</node>
	<node lat="60.875580553993856" lon="11.118077781462508" id="-16399">
		<tag k="name" v="Lierberget" />
		<tag k="natural" v="slope" />
=======
<osm generator="osmapis" version="0.6">
	<node id="-302588" lat="61.1032944446" lon="11.0371194396">
		<tag k="name" v="Eggedal" />
		<tag k="natural" v="valley" />
>>>>>>> e1d4bc35ff8a6074a6f2e91616a996b547c36f15
		<tag k="place" v="locality" />
		<tag k="ssr:stedsnr" v="890699" />
	</node>
<<<<<<< HEAD
	<node lat="61.15905277439972" lon="11.014013890844042" id="-16406">
		<tag k="name" v="Godbakka" />
		<tag k="natural" v="slope" />
=======
	<node id="-303099" lat="61.0649444404" lon="11.2019277763">
		<tag k="name" v="Maridalshøgda" />
		<tag k="natural" v="hill" />
>>>>>>> e1d4bc35ff8a6074a6f2e91616a996b547c36f15
		<tag k="place" v="locality" />
		<tag k="ssr:stedsnr" v="675557" />
	</node>
<<<<<<< HEAD
	<node lat="61.02737778019119" lon="11.212386107680054" id="-16421">
		<tag k="name" v="Krokåsen" />
		<tag k="natural" v="hill" />
		<tag k="place" v="locality" />
		<tag k="ssr:stedsnr" v="723110" />
	</node>
	<node lat="61.06985555144667" lon="11.181255551381652" id="-16422">
		<tag k="name" v="Jomfrudalshellinga" />
=======
	<node id="-302458" lat="60.902777775" lon="11.1663833275">
		<tag k="fixme" v="consider natural=peak for the most distinct mountains in the district" />
		<tag k="name" v="Vangsåsen" />
		<tag k="natural" v="hill" />
		<tag k="place" v="locality" />
		<tag k="ssr:stedsnr" v="9633" />
	</node>
	<node id="-302840" lat="60.875580554" lon="11.1180777815">
		<tag k="name" v="Lierberget" />
>>>>>>> e1d4bc35ff8a6074a6f2e91616a996b547c36f15
		<tag k="natural" v="slope" />
		<tag k="place" v="locality" />
		<tag k="ssr:stedsnr" v="724109" />
	</node>
<<<<<<< HEAD
	<node lat="60.975324998382455" lon="11.11638332571647" id="-16447">
		<tag k="name" v="Jønnhatten" />
		<tag k="natural" v="hill" />
		<tag k="place" v="locality" />
		<tag k="ssr:stedsnr" v="907872" />
	</node>
	<node lat="61.05084444479142" lon="11.204630549239502" id="-16464">
=======
	<node id="-302454" lat="61.2159500018" lon="11.0027888979">
>>>>>>> e1d4bc35ff8a6074a6f2e91616a996b547c36f15
		<tag k="fixme" v="consider natural=peak for the most distinct mountains in the district" />
		<tag k="name" v="Brennsæteråsen" />
		<tag k="natural" v="hill" />
		<tag k="place" v="locality" />
		<tag k="ssr:stedsnr" v="917244" />
	</node>
<<<<<<< HEAD
	<node lat="60.89294999665725" lon="11.14139999985493" id="-16476">
		<tag k="name" v="Åshagahøgda" />
		<tag k="natural" v="ridge" />
=======
	<node id="-302579" lat="60.8196749996" lon="11.0383361051">
		<tag k="name" v="Hedmarktoppen" />
		<tag k="natural" v="hill" />
>>>>>>> e1d4bc35ff8a6074a6f2e91616a996b547c36f15
		<tag k="place" v="locality" />
		<tag k="ssr:stedsnr" v="919632" />
	</node>
<<<<<<< HEAD
	<node lat="60.89788333559764" lon="11.156283339389132" id="-16495">
		<tag k="name" v="Ålsberghøgda" />
		<tag k="natural" v="hill" />
		<tag k="place" v="locality" />
		<tag k="ssr:stedsnr" v="845475" />
	</node>
	<node lat="61.018419442996695" lon="11.161533341644438" id="-16524">
		<tag k="name" v="Brumundkampen" />
=======
	<node id="-303344" lat="60.8148083337" lon="11.1276027765">
		<tag k="name" v="Røysa" />
>>>>>>> e1d4bc35ff8a6074a6f2e91616a996b547c36f15
		<tag k="natural" v="hill" />
		<tag k="place" v="locality" />
		<tag k="ssr:stedsnr" v="917260" />
	</node>
<<<<<<< HEAD
	<node lat="60.86338888810768" lon="11.263813897375854" id="-16526">
		<tag k="name" v="Åsvestadmoen" />
=======
	<node id="-302831" lat="60.9125472212" lon="11.1039972163">
		<tag k="name" v="Vakkerholmdalen" />
		<tag k="natural" v="valley" />
>>>>>>> e1d4bc35ff8a6074a6f2e91616a996b547c36f15
		<tag k="place" v="locality" />
		<tag k="ssr:stedsnr" v="919726" />
	</node>
<<<<<<< HEAD
	<node lat="61.00898610771707" lon="11.174738890346005" id="-16537">
		<tag k="loc_name" v="Myssmørbakken" />
		<tag k="name" v="Mysmørbakken" />
		<tag k="natural" v="slope" />
		<tag k="place" v="locality" />
		<tag k="ssr:stedsnr" v="951132" />
	</node>
	<node lat="61.08890000058581" lon="11.161663885349345" id="-16543">
		<tag k="name" v="Johanstaddalen" />
		<tag k="natural" v="valley" />
=======
	<node id="-303165" lat="61.0948111111" lon="11.0632583296">
		<tag k="name" v="Bolsdalslia" />
		<tag k="natural" v="slope" />
		<tag k="place" v="locality" />
		<tag k="ssr:stedsnr" v="419191" />
	</node>
	<node id="-302482" lat="60.9968194405" lon="11.1161333326">
		<tag k="name" v="Dypendal" />
		<tag k="natural" v="valley" />
		<tag k="place" v="locality" />
		<tag k="ssr:stedsnr" v="40905" />
	</node>
	<node id="-302696" lat="61.1493472208" lon="11.0256666607">
		<tag k="alt_name" v="Bjønnåsberget" />
		<tag k="name" v="Bjørnåsberget" />
		<tag k="natural" v="ridge" />
>>>>>>> e1d4bc35ff8a6074a6f2e91616a996b547c36f15
		<tag k="place" v="locality" />
		<tag k="ssr:stedsnr" v="966926" />
	</node>
<<<<<<< HEAD
	<node lat="61.2159500018372" lon="11.002788897858851" id="-16546">
		<tag k="fixme" v="consider natural=peak for the most distinct mountains in the district" />
		<tag k="name" v="Mortenshøgdene" />
		<tag k="natural" v="hill" />
		<tag k="place" v="locality" />
		<tag k="ssr:stedsnr" v="8746" />
	</node>
	<node lat="60.82572499916877" lon="11.041186108455245" id="-16547">
=======
	<node id="-302951" lat="60.8257249992" lon="11.0411861085">
>>>>>>> e1d4bc35ff8a6074a6f2e91616a996b547c36f15
		<tag k="name" v="Frøbergsberget" />
		<tag k="natural" v="hill" />
		<tag k="place" v="locality" />
		<tag k="ssr:stedsnr" v="9426" />
	</node>
<<<<<<< HEAD
	<node lat="60.9027777750115" lon="11.166383327474845" id="-16554">
		<tag k="fixme" v="consider natural=peak for the most distinct mountains in the district" />
		<tag k="name" v="Vangsåsen" />
=======
	<node id="-303334" lat="60.8875444399" lon="11.2337944481">
		<tag k="name" v="Berget" />
>>>>>>> e1d4bc35ff8a6074a6f2e91616a996b547c36f15
		<tag k="natural" v="hill" />
		<tag k="place" v="locality" />
		<tag k="ssr:stedsnr" v="9633" />
	</node>
<<<<<<< HEAD
	<node lat="60.99681944054933" lon="11.116133332597848" id="-16570">
		<tag k="name" v="Dypendal" />
		<tag k="natural" v="valley" />
=======
	<node id="-303077" lat="60.9165583328" lon="11.2387388909">
		<tag k="name" v="Fiskebrenna" />
>>>>>>> e1d4bc35ff8a6074a6f2e91616a996b547c36f15
		<tag k="place" v="locality" />
		<tag k="ssr:stedsnr" v="40905" />
	</node>
<<<<<<< HEAD
	<node lat="61.09676944388512" lon="11.139694450693925" id="-16583">
		<tag k="name" v="Dølknipa" />
=======
	<node id="-303078" lat="60.9284138875" lon="11.2148472251">
		<tag k="name" v="Tomaskvila" />
		<tag k="place" v="locality" />
		<tag k="ssr:stedsnr" v="181082" />
	</node>
	<node id="-302818" lat="61.1590527744" lon="11.0140138908">
		<tag k="name" v="Godbakka" />
>>>>>>> e1d4bc35ff8a6074a6f2e91616a996b547c36f15
		<tag k="natural" v="slope" />
		<tag k="place" v="locality" />
		<tag k="ssr:stedsnr" v="56936" />
	</node>
<<<<<<< HEAD
	<node lat="61.037869441733285" lon="11.137819440207295" id="-16586">
=======
	<node id="-302814" lat="61.0897416639" lon="11.1440999931">
>>>>>>> e1d4bc35ff8a6074a6f2e91616a996b547c36f15
		<tag k="fixme" v="consider natural=peak for the most distinct mountains in the district" />
		<tag k="name" v="Gutåsen" />
		<tag k="natural" v="hill" />
		<tag k="place" v="locality" />
		<tag k="ssr:stedsnr" v="68269" />
	</node>
<<<<<<< HEAD
	<node lat="61.03755277736751" lon="11.231927782157534" id="-16587">
		<tag k="fixme" v="consider natural=peak for the most distinct mountains in the district" />
		<tag k="name" v="Synsåsen" />
		<tag k="natural" v="hill" />
		<tag k="place" v="locality" />
		<tag k="ssr:stedsnr" v="68271" />
	</node>
	<node lat="61.161775002461646" lon="11.068049996032398" id="-16590">
		<tag k="name" v="Rundhaugen" />
		<tag k="natural" v="hill" />
=======
	<node id="-302501" lat="60.9390138862" lon="11.2064722257">
		<tag k="name" v="Appelsinhaugen" />
		<tag k="natural" v="hill" />
		<tag k="place" v="locality" />
		<tag k="ssr:stedsnr" v="70551" />
	</node>
	<node id="-302556" lat="60.9161666646" lon="11.1125749959">
		<tag k="name" v="Svensksletta" />
>>>>>>> e1d4bc35ff8a6074a6f2e91616a996b547c36f15
		<tag k="place" v="locality" />
		<tag k="ssr:stedsnr" v="69585" />
	</node>
<<<<<<< HEAD
	<node lat="60.93901388618325" lon="11.206472225658885" id="-16592">
		<tag k="name" v="Appelsinhaugen" />
		<tag k="natural" v="hill" />
=======
	<node id="-302939" lat="61.0889000006" lon="11.1616638853">
		<tag k="name" v="Johanstaddalen" />
		<tag k="natural" v="valley" />
>>>>>>> e1d4bc35ff8a6074a6f2e91616a996b547c36f15
		<tag k="place" v="locality" />
		<tag k="ssr:stedsnr" v="70551" />
	</node>
<<<<<<< HEAD
	<node lat="60.93082499790139" lon="11.172166660931035" id="-16595">
		<tag k="fixme" v="consider natural=peak for the most distinct mountains in the district" />
		<tag k="name" v="Yksenåsen" />
=======
	<node id="-302810" lat="60.9073750012" lon="11.1388861149">
		<tag k="name" v="Krampholen" />
>>>>>>> e1d4bc35ff8a6074a6f2e91616a996b547c36f15
		<tag k="natural" v="hill" />
		<tag k="place" v="locality" />
		<tag k="ssr:stedsnr" v="70601" />
	</node>
<<<<<<< HEAD
	<node lat="60.90508889343226" lon="11.168697220616615" id="-16620">
		<tag k="name" v="Raudmyrhøgda" />
		<tag k="natural" v="hill" />
=======
	<node id="-302553" lat="60.9577916666" lon="11.1475999967">
		<tag k="name" v="Tallrusten" />
>>>>>>> e1d4bc35ff8a6074a6f2e91616a996b547c36f15
		<tag k="place" v="locality" />
		<tag k="ssr:stedsnr" v="116434" />
	</node>
<<<<<<< HEAD
	<node lat="60.97551944229488" lon="11.146672222482469" id="-16622">
		<tag k="alt_name" v="Bokkhølsletta" />
		<tag k="name" v="Bukkhølsletta" />
		<tag k="place" v="locality" />
		<tag k="ssr:stedsnr" v="117379" />
	</node>
	<node lat="60.916558332787204" lon="11.238738890857274" id="-16660">
		<tag k="name" v="Fiskebrenna" />
=======
	<node id="-302808" lat="60.9387777784" lon="11.1445249956">
		<tag k="name" v="Svartdalen" />
		<tag k="natural" v="valley" />
		<tag k="place" v="locality" />
		<tag k="ssr:stedsnr" v="647459" />
	</node>
	<node id="-302935" lat="61.0089861077" lon="11.1747388903">
		<tag k="loc_name" v="Myssmørbakken" />
		<tag k="name" v="Mysmørbakken" />
		<tag k="natural" v="slope" />
>>>>>>> e1d4bc35ff8a6074a6f2e91616a996b547c36f15
		<tag k="place" v="locality" />
		<tag k="ssr:stedsnr" v="181080" />
	</node>
<<<<<<< HEAD
	<node lat="60.928413887515525" lon="11.214847225136834" id="-16661">
		<tag k="name" v="Tomaskvila" />
=======
	<node id="-302933" lat="60.8554277784" lon="11.2234750055">
		<tag k="name" v="Libergmoen" />
>>>>>>> e1d4bc35ff8a6074a6f2e91616a996b547c36f15
		<tag k="place" v="locality" />
		<tag k="ssr:stedsnr" v="181082" />
	</node>
<<<<<<< HEAD
	<node lat="60.917033329853595" lon="11.159016672009415" id="-16683">
		<tag k="name" v="Krokbuholen" />
		<tag k="natural" v="ridge" />
		<tag k="place" v="locality" />
		<tag k="ssr:stedsnr" v="223477" />
	</node>
	<node lat="60.916166664606465" lon="11.112574995872714" id="-16690">
		<tag k="name" v="Svensksletta" />
=======
	<node id="-302670" lat="60.9431472266" lon="11.2145861075">
		<tag k="fixme" v="consider natural=peak for the most distinct mountains in the district" />
		<tag k="name" v="Kollmyrkampen" />
		<tag k="natural" v="hill" />
		<tag k="place" v="locality" />
		<tag k="ssr:stedsnr" v="495568" />
	</node>
	<node id="-302799" lat="61.0698555514" lon="11.1812555514">
		<tag k="name" v="Jomfrudalshellinga" />
		<tag k="natural" v="slope" />
>>>>>>> e1d4bc35ff8a6074a6f2e91616a996b547c36f15
		<tag k="place" v="locality" />
		<tag k="ssr:stedsnr" v="282206" />
	</node>
<<<<<<< HEAD
	<node lat="60.99120833264585" lon="11.197361109167764" id="-16741">
		<tag k="name" v="Mørkholmen" />
=======
	<node id="-302926" lat="60.8633888881" lon="11.2638138974">
		<tag k="name" v="Åsvestadmoen" />
>>>>>>> e1d4bc35ff8a6074a6f2e91616a996b547c36f15
		<tag k="place" v="locality" />
		<tag k="ssr:stedsnr" v="362107" />
	</node>
<<<<<<< HEAD
	<node lat="60.9682944464805" lon="11.177797226273428" id="-16762">
		<tag k="name" v="Bryterbakken" />
		<tag k="natural" v="slope" />
		<tag k="place" v="locality" />
		<tag k="ssr:stedsnr" v="405518" />
	</node>
	<node lat="61.09178888835041" lon="11.103411110916815" id="-16766">
=======
	<node id="-302797" lat="61.0273777802" lon="11.2123861077">
		<tag k="name" v="Krokåsen" />
		<tag k="natural" v="hill" />
		<tag k="place" v="locality" />
		<tag k="ssr:stedsnr" v="723110" />
	</node>
	<node id="-302540" lat="61.2043999965" lon="11.0050333278">
>>>>>>> e1d4bc35ff8a6074a6f2e91616a996b547c36f15
		<tag k="fixme" v="consider natural=peak for the most distinct mountains in the district" />
		<tag k="name" v="Spjeldåsberget" />
		<tag k="natural" v="hill" />
		<tag k="place" v="locality" />
		<tag k="ssr:stedsnr" v="419858" />
	</node>
<<<<<<< HEAD
	<node lat="61.14934722081693" lon="11.025666660731096" id="-16771">
		<tag k="alt_name" v="Bjønnåsberget" />
		<tag k="name" v="Bjørnåsberget" />
		<tag k="natural" v="ridge" />
		<tag k="place" v="locality" />
		<tag k="ssr:stedsnr" v="433523" />
	</node>
	<node lat="60.97843889237768" lon="11.13194445342424" id="-16800">
		<tag k="name" v="Gjetryggen" />
=======
	<node id="-302690" lat="60.9682944465" lon="11.1777972263">
		<tag k="name" v="Bryterbakken" />
		<tag k="natural" v="slope" />
		<tag k="place" v="locality" />
		<tag k="ssr:stedsnr" v="405518" />
	</node>
	<node id="-302792" lat="60.942658337" lon="11.2027166691">
		<tag k="fixme" v="consider natural=peak for the most distinct mountains in the district" />
		<tag k="name" v="Stenfjellet" />
>>>>>>> e1d4bc35ff8a6074a6f2e91616a996b547c36f15
		<tag k="natural" v="hill" />
		<tag k="place" v="locality" />
		<tag k="ssr:stedsnr" v="541363" />
	</node>
<<<<<<< HEAD
	<node lat="60.85864444724708" lon="11.207977770404163" id="-16830">
		<tag k="name" v="Greftmoene" />
		<tag k="place" v="locality" />
		<tag k="ssr:stedsnr" v="586013" />
	</node>
	<node lat="61.09649166464822" lon="11.086411119732258" id="-16841">
		<tag k="name" v="Svartvelta" />
		<tag k="natural" v="slope" />
		<tag k="place" v="locality" />
		<tag k="ssr:stedsnr" v="601856" />
	</node>
	<node lat="60.902175003568864" lon="11.099433337015794" id="-16848">
		<tag k="name" v="Lundsæterhøgda" />
=======
	<node id="-302919" lat="61.018419443" lon="11.1615333416">
		<tag k="name" v="Brumundkampen" />
>>>>>>> e1d4bc35ff8a6074a6f2e91616a996b547c36f15
		<tag k="natural" v="hill" />
		<tag k="place" v="locality" />
		<tag k="ssr:stedsnr" v="615580" />
	</node>
<<<<<<< HEAD
	<node lat="60.92340555873858" lon="11.110986111953649" id="-16862">
		<tag k="name" v="Gråbendalen" />
=======
	<node id="-302936" lat="61.0371888909" lon="11.1783055548">
		<tag k="name" v="Femmermota" />
		<tag k="natural" v="slope" />
		<tag k="place" v="locality" />
		<tag k="ssr:stedsnr" v="951137" />
	</node>
	<node id="-303041" lat="60.9755194423" lon="11.1466722225">
		<tag k="alt_name" v="Bokkhølsletta" />
		<tag k="name" v="Bukkhølsletta" />
		<tag k="place" v="locality" />
		<tag k="ssr:stedsnr" v="117379" />
	</node>
	<node id="-303293" lat="61.0033944402" lon="11.1292638927">
		<tag k="name" v="Kjeltåsberget" />
		<tag k="natural" v="hill" />
		<tag k="place" v="locality" />
		<tag k="ssr:stedsnr" v="768904" />
	</node>
	<node id="-302651" lat="60.9912083326" lon="11.1973611092">
		<tag k="name" v="Mørkholmen" />
		<tag k="place" v="locality" />
		<tag k="ssr:stedsnr" v="362107" />
	</node>
	<node id="-303240" lat="61.0964916646" lon="11.0864111197">
		<tag k="name" v="Svartvelta" />
		<tag k="natural" v="slope" />
		<tag k="place" v="locality" />
		<tag k="ssr:stedsnr" v="601856" />
	</node>
	<node id="-303387" lat="60.9375027782" lon="11.1415194483">
		<tag k="name" v="Gjerterudskampen" />
		<tag k="natural" v="hill" />
		<tag k="place" v="locality" />
		<tag k="ssr:stedsnr" v="951459" />
	</node>
	<node id="-303113" lat="60.980658336" lon="11.1389499927">
		<tag k="name" v="Bjørnholta" />
		<tag k="place" v="locality" />
		<tag k="ssr:stedsnr" v="324224" />
	</node>
	<node id="-302536" lat="60.9050888934" lon="11.1686972206">
		<tag k="name" v="Raudmyrhøgda" />
		<tag k="natural" v="hill" />
		<tag k="place" v="locality" />
		<tag k="ssr:stedsnr" v="116434" />
	</node>
	<node id="-302637" lat="60.9474916708" lon="11.1798250042">
		<tag k="name" v="Stenfjellia" />
		<tag k="natural" v="slope" />
		<tag k="place" v="locality" />
		<tag k="ssr:stedsnr" v="344514" />
	</node>
	<node id="-303371" lat="60.8978833356" lon="11.1562833394">
		<tag k="name" v="Ålsberghøgda" />
		<tag k="natural" v="hill" />
		<tag k="place" v="locality" />
		<tag k="ssr:stedsnr" v="845475" />
	</node>
	<node id="-302502" lat="60.9308249979" lon="11.1721666609">
		<tag k="fixme" v="consider natural=peak for the most distinct mountains in the district" />
		<tag k="name" v="Yksenåsen" />
		<tag k="natural" v="hill" />
		<tag k="place" v="locality" />
		<tag k="ssr:stedsnr" v="70601" />
	</node>
	<node id="-303374" lat="61.0815999961" lon="11.1682888836">
		<tag k="name" v="Kattugldalen" />
>>>>>>> e1d4bc35ff8a6074a6f2e91616a996b547c36f15
		<tag k="natural" v="valley" />
		<tag k="place" v="locality" />
		<tag k="ssr:stedsnr" v="646243" />
	</node>
<<<<<<< HEAD
	<node lat="60.938777778434776" lon="11.144524995607226" id="-16875">
		<tag k="name" v="Svartdalen" />
		<tag k="natural" v="valley" />
		<tag k="place" v="locality" />
		<tag k="ssr:stedsnr" v="647459" />
	</node>
	<node lat="60.90737500122611" lon="11.138886114881467" id="-16877">
		<tag k="name" v="Krampholen" />
=======
	<node id="-302886" lat="60.9407499955" lon="11.1277083369">
		<tag k="name" v="Himmeldalen" />
		<tag k="natural" v="valley" />
		<tag k="place" v="locality" />
		<tag k="ssr:stedsnr" v="786235" />
	</node>
	<node id="-302757" lat="60.9057166667" lon="11.1321638873">
		<tag k="name" v="Kubekklia" />
		<tag k="natural" v="slope" />
		<tag k="place" v="locality" />
		<tag k="ssr:stedsnr" v="708460" />
	</node>
	<node id="-303246" lat="60.9021750036" lon="11.099433337">
		<tag k="name" v="Lundsæterhøgda" />
>>>>>>> e1d4bc35ff8a6074a6f2e91616a996b547c36f15
		<tag k="natural" v="hill" />
		<tag k="place" v="locality" />
		<tag k="ssr:stedsnr" v="647464" />
	</node>
<<<<<<< HEAD
	<node lat="60.923799998304204" lon="11.207972216936247" id="-16884">
		<tag k="name" v="Lageråkvislhøgda" />
		<tag k="natural" v="hill" />
		<tag k="place" v="locality" />
		<tag k="ssr:stedsnr" v="666087" />
	</node>
	<node lat="61.08974166389845" lon="11.14409999313647" id="-16892">
		<tag k="fixme" v="consider natural=peak for the most distinct mountains in the district" />
		<tag k="name" v="Joberget" />
		<tag k="natural" v="hill" />
		<tag k="place" v="locality" />
		<tag k="ssr:stedsnr" v="735463" />
	</node>
	<node lat="60.89993055423813" lon="11.128325002627697" id="-16894">
		<tag k="fixme" v="consider natural=peak for the most distinct mountains in the district" />
		<tag k="name" v="Rognåsen" />
		<tag k="natural" v="hill" />
		<tag k="place" v="locality" />
		<tag k="ssr:stedsnr" v="737626" />
	</node>
	<node lat="61.003394440155446" lon="11.129263892737166" id="-16902">
		<tag k="name" v="Kjeltåsberget" />
		<tag k="natural" v="hill" />
		<tag k="place" v="locality" />
		<tag k="ssr:stedsnr" v="768904" />
	</node>
	<node lat="60.94074999551894" lon="11.127708336862419" id="-16919">
		<tag k="name" v="Himmeldalen" />
		<tag k="natural" v="valley" />
		<tag k="place" v="locality" />
		<tag k="ssr:stedsnr" v="786235" />
	</node>
	<node lat="60.8875444399495" lon="11.233794448123977" id="-16933">
		<tag k="name" v="Berget" />
		<tag k="natural" v="hill" />
		<tag k="place" v="locality" />
		<tag k="ssr:stedsnr" v="829098" />
	</node>
	<node lat="60.814808333703176" lon="11.127602776490912" id="-16936">
		<tag k="name" v="Røysa" />
		<tag k="natural" v="hill" />
		<tag k="place" v="locality" />
		<tag k="ssr:stedsnr" v="829637" />
	</node>
	<node lat="60.817211114909085" lon="11.010299998407225" id="-16946">
		<tag k="name" v="Furuberget" />
		<tag k="natural" v="hill" />
		<tag k="place" v="locality" />
		<tag k="ssr:stedsnr" v="831442" />
	</node>
	<node lat="61.08159999610257" lon="11.16828888364091" id="-16959">
		<tag k="name" v="Kattugldalen" />
		<tag k="natural" v="valley" />
		<tag k="place" v="locality" />
		<tag k="ssr:stedsnr" v="845936" />
	</node>
	<node lat="60.91254722116689" lon="11.103997216305638" id="-16970">
		<tag k="name" v="Vakkerholmdalen" />
		<tag k="natural" v="valley" />
=======
	<node id="-302875" lat="60.8929499967" lon="11.1413999999">
		<tag k="name" v="Åshagahøgda" />
		<tag k="natural" v="ridge" />
		<tag k="place" v="locality" />
		<tag k="ssr:stedsnr" v="919632" />
	</node>
	<node id="-303388" lat="60.9424777773" lon="11.1737944451">
		<tag k="name" v="Hubreddalen" />
		<tag k="natural" v="valley" />
		<tag k="place" v="locality" />
		<tag k="ssr:stedsnr" v="951464" />
	</node>
	<node id="-302491" lat="61.0972138883" lon="11.0853083243">
		<tag k="name" v="Øyskaret" />
		<tag k="natural" v="gorge" />
		<tag k="ssr:stedsnr" v="237865" />
	</node>
	<node id="-303258" lat="60.9234055587" lon="11.110986112">
		<tag k="name" v="Gråbendalen" />
		<tag k="natural" v="valley" />
		<tag k="place" v="locality" />
		<tag k="ssr:stedsnr" v="646243" />
	</node>
	<node id="-302703" lat="60.9237999983" lon="11.2079722169">
		<tag k="name" v="Lageråkvislhøgda" />
		<tag k="natural" v="hill" />
		<tag k="place" v="locality" />
		<tag k="ssr:stedsnr" v="666087" />
	</node>
	<node id="-302873" lat="61.0508444448" lon="11.2046305492">
		<tag k="fixme" v="consider natural=peak for the most distinct mountains in the district" />
		<tag k="name" v="Brennsæteråsen" />
		<tag k="natural" v="hill" />
		<tag k="place" v="locality" />
		<tag k="ssr:stedsnr" v="917244" />
	</node>
	<node id="-302994" lat="61.1617750025" lon="11.068049996">
		<tag k="name" v="Rundhaugen" />
		<tag k="natural" v="hill" />
		<tag k="place" v="locality" />
		<tag k="ssr:stedsnr" v="69585" />
	</node>
	<node id="-302737" lat="60.9784388924" lon="11.1319444534">
		<tag k="name" v="Gjetryggen" />
		<tag k="natural" v="hill" />
		<tag k="place" v="locality" />
		<tag k="ssr:stedsnr" v="541363" />
	</node>
	<node id="-302991" lat="61.0375527774" lon="11.2319277822">
		<tag k="fixme" v="consider natural=peak for the most distinct mountains in the district" />
		<tag k="name" v="Synsåsen" />
		<tag k="natural" v="hill" />
		<tag k="place" v="locality" />
		<tag k="ssr:stedsnr" v="68271" />
	</node>
	<node id="-302990" lat="61.0378694417" lon="11.1378194402">
		<tag k="fixme" v="consider natural=peak for the most distinct mountains in the district" />
		<tag k="name" v="Gutåsen" />
		<tag k="natural" v="hill" />
		<tag k="place" v="locality" />
		<tag k="ssr:stedsnr" v="68269" />
	</node>
	<node id="-303277" lat="60.8999305542" lon="11.1283250026">
		<tag k="fixme" v="consider natural=peak for the most distinct mountains in the district" />
		<tag k="name" v="Rognåsen" />
		<tag k="natural" v="hill" />
		<tag k="place" v="locality" />
		<tag k="ssr:stedsnr" v="737626" />
	</node>
	<node id="-302860" lat="60.9753249984" lon="11.1163833257">
		<tag k="name" v="Jønnhatten" />
		<tag k="natural" v="hill" />
		<tag k="place" v="locality" />
		<tag k="ssr:stedsnr" v="907872" />
	</node>
	<node id="-302475" lat="60.9170333299" lon="11.159016672">
		<tag k="name" v="Krokbuholen" />
		<tag k="natural" v="ridge" />
>>>>>>> e1d4bc35ff8a6074a6f2e91616a996b547c36f15
		<tag k="place" v="locality" />
		<tag k="ssr:stedsnr" v="889236" />
	</node>
<<<<<<< HEAD
	<node lat="60.85542777838209" lon="11.223475005500541" id="-16977">
		<tag k="name" v="Libergmoen" />
		<tag k="place" v="locality" />
		<tag k="ssr:stedsnr" v="951024" />
	</node>
	<node lat="61.037188890907544" lon="11.178305554800836" id="-16979">
		<tag k="name" v="Femmermota" />
		<tag k="natural" v="slope" />
		<tag k="place" v="locality" />
		<tag k="ssr:stedsnr" v="951137" />
	</node>
	<node lat="60.93750277817534" lon="11.141519448349797" id="-16981">
		<tag k="name" v="Gjerterudskampen" />
		<tag k="natural" v="hill" />
		<tag k="place" v="locality" />
		<tag k="ssr:stedsnr" v="951459" />
	</node>
	<node lat="60.942477777319496" lon="11.173794445077183" id="-16982">
		<tag k="name" v="Hubreddalen" />
		<tag k="natural" v="valley" />
		<tag k="place" v="locality" />
		<tag k="ssr:stedsnr" v="951464" />
=======
	<node id="-303356" lat="60.8172111149" lon="11.0102999984">
		<tag k="name" v="Furuberget" />
		<tag k="natural" v="hill" />
		<tag k="place" v="locality" />
		<tag k="ssr:stedsnr" v="831442" />
	</node>
	<node id="-302985" lat="61.0967694439" lon="11.1396944507">
		<tag k="name" v="Dølknipa" />
		<tag k="natural" v="slope" />
		<tag k="place" v="locality" />
		<tag k="ssr:stedsnr" v="56936" />
	</node>
	<node id="-302600" lat="61.0464388858" lon="11.1574194499">
		<tag k="fixme" v="consider natural=peak for the most distinct mountains in the district" />
		<tag k="name" v="Helvetesberget" />
		<tag k="natural" v="hill" />
		<tag k="place" v="locality" />
		<tag k="ssr:stedsnr" v="250275" />
	</node>
	<node id="-303239" lat="61.0896305542" lon="11.1202499964">
		<tag k="name" v="Hundhuslia" />
		<tag k="natural" v="slope" />
		<tag k="place" v="locality" />
		<tag k="ssr:stedsnr" v="601854" />
	</node>
	<node id="-303228" lat="60.8586444472" lon="11.2079777704">
		<tag k="name" v="Greftmoene" />
		<tag k="place" v="locality" />
		<tag k="ssr:stedsnr" v="586013" />
	</node>
	<node id="-303169" lat="61.0917888884" lon="11.1034111109">
		<tag k="fixme" v="consider natural=peak for the most distinct mountains in the district" />
		<tag k="name" v="Spjeldåsberget" />
		<tag k="natural" v="hill" />
		<tag k="place" v="locality" />
		<tag k="ssr:stedsnr" v="419858" />
>>>>>>> e1d4bc35ff8a6074a6f2e91616a996b547c36f15
	</node>
</osm>
