<?xml version="1.0" encoding="UTF-8"?>
<osm version="0.6" generator="osmapis">
	<node lat="61.2159500018372" lon="11.002788897858851" id="-35404">
		<tag k="fixme" v="consider natural=peak for the most distinct mountains in the district" />
		<tag k="name" v="Mortenshøgdene" />
		<tag k="natural" v="hill" />
		<tag k="place" v="locality" />
		<tag k="ssr:stedsnr" v="8746" />
	</node>
	<node lat="60.827226632614014" lon="11.086980257065157" id="-35405">
		<tag k="name" v="Holmlund" />
		<tag k="place" v="farm" />
		<tag k="ssr:stedsnr" v="9412" />
	</node>
	<node lat="60.80054166738946" lon="11.027133342215048" id="-35406">
		<tag k="name" v="Jernbanemuseet" />
		<tag k="ssr:stedsnr" v="9501" />
		<tag k="tourism" v="museum" />
	</node>
	<node lat="60.97701388971196" lon="11.1778500050594" id="-35407">
		<tag k="alt_name" v="Kveådammen" />
		<tag k="name" v="Kveåsjøen" />
		<tag k="natural" v="water" />
		<tag k="ssr:stedsnr" v="9537" />
	</node>
	<node lat="60.92663055850947" lon="11.122463880546178" id="-35408">
		<tag k="name" v="Langholmen" />
		<tag k="place" v="isolated_dwelling" />
		<tag k="ssr:stedsnr" v="9620" />
	</node>
	<node lat="60.83371866571086" lon="11.230271980674402" id="-35410">
		<tag k="name" v="Kallerud" />
		<tag k="place" v="farm" />
		<tag k="ssr:stedsnr" v="9788" />
	</node>
	<node lat="60.83005833138737" lon="11.12672777217798" id="-35411">
		<tag k="alt_name" v="Hagen" />
		<tag k="name" v="Ingebergshagen" />
		<tag k="place" v="farm" />
		<tag k="ssr:stedsnr" v="9800" />
	</node>
	<node lat="60.7811673291994" lon="11.213047685167066" id="-35412">
		<tag k="name" v="Ilseng" />
		<tag k="place" v="farm" />
		<tag k="ssr:stedsnr" v="9908" />
	</node>
	<node lat="60.83413442276719" lon="11.085012951019191" id="-35414">
		<tag k="name" v="Nedre Arnkvern" />
		<tag k="place" v="farm" />
		<tag k="ssr:stedsnr" v="219771" />
	</node>
	<node lat="60.808072221831864" lon="11.227144441990973" id="-35415">
		<tag k="name" v="Lundby" />
		<tag k="place" v="farm" />
		<tag k="ssr:stedsnr" v="9836" />
	</node>
	<node lat="60.811682386353446" lon="11.177267508198888" id="-35416">
		<tag k="name" v="Kraftrud" />
		<tag k="place" v="farm" />
		<tag k="ssr:stedsnr" v="9842" />
	</node>
	<node lat="60.82526944888981" lon="11.11352500053008" id="-35417">
		<tag k="name" v="Midtre Imerslund" />
		<tag k="old_name" v="Mittre Imerslund" />
		<tag k="place" v="farm" />
		<tag k="ssr:stedsnr" v="22996" />
	</node>
	<node lat="60.85519722051891" lon="11.236736106273801" id="-35418">
		<tag k="name" v="Urstad" />
		<tag k="place" v="farm" />
		<tag k="ssr:stedsnr" v="222022" />
	</node>
	<node lat="60.82976666226355" lon="11.14013889413166" id="-35419">
		<tag k="name" v="Jevne" />
		<tag k="place" v="farm" />
		<tag k="ssr:stedsnr" v="222222" />
	</node>
	<node lat="60.82003739510899" lon="11.078361598026872" id="-35420">
		<tag k="name" v="Vallsigsvea" />
		<tag k="place" v="farm" />
		<tag k="ssr:stedsnr" v="222564" />
	</node>
	<node lat="60.89619721942624" lon="11.116088893200214" id="-35421">
		<tag k="historic" v="shieling" />
		<tag k="name" v="Gilevollen" />
		<tag k="place" v="locality" />
		<tag k="ssr:stedsnr" v="222517" />
	</node>
	<node lat="60.78500277833002" lon="11.167447223996907" id="-35422">
		<tag k="name" v="Opphusbakken" />
		<tag k="place" v="locality" />
		<tag k="ssr:stedsnr" v="222468" />
	</node>
	<node lat="60.81320278123952" lon="11.156097225256707" id="-35423">
		<tag k="name" v="Granerud" />
		<tag k="place" v="farm" />
		<tag k="ssr:stedsnr" v="222577" />
	</node>
	<node lat="60.8112277804585" lon="11.169649994124107" id="-35424">
		<tag k="name" v="Skolemesterbakken" />
		<tag k="place" v="farm" />
		<tag k="ssr:stedsnr" v="222582" />
	</node>
	<node lat="60.87578333108378" lon="11.230625001084965" id="-35425">
		<tag k="name" v="Åsrønningen" />
		<tag k="place" v="farm" />
		<tag k="ssr:stedsnr" v="223057" />
	</node>
	<node lat="60.85214722565525" lon="11.270702774476003" id="-35426">
		<tag k="building" v="industrial" />
		<tag k="name" v="Heggvin avfallsplass" />
		<tag k="ssr:stedsnr" v="223030" />
	</node>
	<node lat="60.86965555219783" lon="11.257530553241414" id="-35427">
		<tag k="name" v="Smeby" />
		<tag k="place" v="locality" />
		<tag k="ssr:stedsnr" v="223032" />
	</node>
	<node lat="61.027538892878965" lon="11.165163886608783" id="-35428">
		<tag k="name" v="Høgbakken" />
		<tag k="place" v="locality" />
		<tag k="ssr:stedsnr" v="223133" />
	</node>
	<node lat="60.917033329853595" lon="11.159016672009415" id="-35429">
		<tag k="name" v="Krokbuholen" />
		<tag k="natural" v="ridge" />
		<tag k="place" v="locality" />
		<tag k="ssr:stedsnr" v="223477" />
	</node>
	<node lat="60.8407222204243" lon="11.222655556630091" id="-35430">
		<tag k="name" v="Bjørgård" />
		<tag k="place" v="farm" />
		<tag k="ssr:stedsnr" v="224254" />
	</node>
	<node lat="60.793486109409656" lon="11.091372222152337" id="-35432">
		<tag k="name" v="Briskebyen" />
		<tag k="place" v="suburb" />
		<tag k="ssr:stedsnr" v="40555" />
	</node>
	<node lat="60.99681944054933" lon="11.116133332597848" id="-35433">
		<tag k="name" v="Dypendal" />
		<tag k="natural" v="valley" />
		<tag k="place" v="locality" />
		<tag k="ssr:stedsnr" v="40905" />
	</node>
	<node lat="61.034666665137095" lon="11.10908889214273" id="-35434">
		<tag k="name" v="Blåbærholmen" />
		<tag k="place" v="islet" />
		<tag k="ssr:stedsnr" v="40909" />
	</node>
	<node lat="60.87514166825812" lon="11.214975007097737" id="-35435">
		<tag k="name" v="Østjordet" />
		<tag k="place" v="isolated_dwelling" />
		<tag k="ssr:stedsnr" v="41072" />
	</node>
	<node lat="60.79671667068396" lon="11.068316673737797" id="-35436">
		<tag k="amenity" v="place_of_worship" />
		<tag k="denomination" v="lutheran" />
		<tag k="name" v="Hamar domkirke" />
		<tag k="religion" v="christian" />
		<tag k="ssr:stedsnr" v="55670" />
	</node>
	<node lat="60.894658331233956" lon="11.135852775635879" id="-35437">
		<tag k="name" v="Rundmyra" />
		<tag k="natural" v="wetland" />
		<tag k="ssr:stedsnr" v="56472" />
	</node>
	<node lat="60.799702775002494" lon="11.12166389665546" id="-35438">
		<tag k="landuse" v="military" />
		<tag k="name" v="Åker gård" />
		<tag k="ssr:stedsnr" v="57021" />
	</node>
	<node lat="61.09880277462632" lon="11.110355557933135" id="-35439">
		<tag k="name" v="Stangvollen" />
		<tag k="place" v="isolated_dwelling" />
		<tag k="ssr:stedsnr" v="68497" />
	</node>
	<node lat="60.977974996485585" lon="11.115733326496837" id="-35440">
		<tag k="historic" v="shieling" />
		<tag k="name" v="Haugsætra" />
		<tag k="place" v="isolated_dwelling" />
		<tag k="ssr:stedsnr" v="70522" />
	</node>
	<node lat="60.8177833319332" lon="11.047480556258945" id="-35441">
		<tag k="alt_name" v="Alu, vestre" />
		<tag k="name" v="Vestre Alu" />
		<tag k="place" v="farm" />
		<tag k="ssr:stedsnr" v="70421" />
	</node>
	<node lat="60.93082499790139" lon="11.172166660931035" id="-35442">
		<tag k="fixme" v="consider natural=peak for the most distinct mountains in the district" />
		<tag k="name" v="Yksenåsen" />
		<tag k="natural" v="hill" />
		<tag k="place" v="locality" />
		<tag k="ssr:stedsnr" v="70601" />
	</node>
	<node lat="60.877893974491286" lon="11.218394746815747" id="-35443">
		<tag k="name" v="Nordsveen" />
		<tag k="place" v="farm" />
		<tag k="ssr:stedsnr" v="70676" />
	</node>
	<node lat="60.881254890750576" lon="11.176557050449325" id="-35444">
		<tag k="name" v="Kirkeby" />
		<tag k="place" v="farm" />
		<tag k="ssr:stedsnr" v="70677" />
	</node>
	<node lat="60.87897352894559" lon="11.117948813535394" id="-35445">
		<tag k="name" v="Busterud" />
		<tag k="place" v="farm" />
		<tag k="ssr:stedsnr" v="70686" />
	</node>
	<node lat="60.81860707266052" lon="11.175186747576388" id="-35446">
		<tag k="name" v="Nyhus" />
		<tag k="place" v="farm" />
		<tag k="ssr:stedsnr" v="70815" />
	</node>
	<node lat="60.817925002349774" lon="11.16047777332639" id="-35447">
		<tag k="name" v="Finsalbekken" />
		<tag k="ssr:stedsnr" v="70817" />
		<tag k="waterway" v="stream" />
	</node>
	<node lat="60.81473516920928" lon="11.112259075471393" id="-35448">
		<tag k="name" v="Hveberg" />
		<tag k="place" v="farm" />
		<tag k="ssr:stedsnr" v="70818" />
	</node>
	<node lat="60.86972777354322" lon="11.193108329351245" id="-35449">
		<tag k="name" v="Røystad" />
		<tag k="place" v="farm" />
		<tag k="ssr:stedsnr" v="70720" />
	</node>
	<node lat="60.87086105890269" lon="11.121535377531973" id="-35450">
		<tag k="name" v="Huse" />
		<tag k="place" v="farm" />
		<tag k="ssr:stedsnr" v="70724" />
	</node>
	<node lat="60.85351271671968" lon="11.206883453504231" id="-35451">
		<tag k="name" v="Greften" />
		<tag k="place" v="farm" />
		<tag k="ssr:stedsnr" v="70733" />
	</node>
	<node lat="60.8515777780549" lon="11.136622215407845" id="-35452">
		<tag k="name" v="Vestgard" />
		<tag k="place" v="farm" />
		<tag k="ssr:stedsnr" v="70736" />
	</node>
	<node lat="60.83104365865921" lon="11.208896119074605" id="-35453">
		<tag k="name" v="Tomten" />
		<tag k="place" v="farm" />
		<tag k="ssr:stedsnr" v="70778" />
	</node>
	<node lat="60.83083171833514" lon="11.199427513078534" id="-35454">
		<tag k="name" v="Hafsal" />
		<tag k="place" v="farm" />
		<tag k="ssr:stedsnr" v="70779" />
	</node>
	<node lat="60.838052449395164" lon="11.242173737284737" id="-35455">
		<tag k="name" v="Skramstad" />
		<tag k="place" v="farm" />
		<tag k="ssr:stedsnr" v="70781" />
	</node>
	<node lat="60.8354003554659" lon="11.223071919395112" id="-35456">
		<tag k="name" v="Vartomten" />
		<tag k="place" v="farm" />
		<tag k="ssr:stedsnr" v="70784" />
	</node>
	<node lat="60.870524996394266" lon="11.153230553417906" id="-35457">
		<tag k="name" v="Nedre Løvlien" />
		<tag k="place" v="farm" />
		<tag k="ssr:stedsnr" v="88405" />
	</node>
	<node lat="60.83334721878674" lon="11.19261667397452" id="-35458">
		<tag k="name" v="Store Oppsal" />
		<tag k="place" v="farm" />
		<tag k="ssr:stedsnr" v="91197" />
	</node>
	<node lat="60.833550000867284" lon="11.083944451750556" id="-35459">
		<tag k="loc_name" v="Søndre Arnkvern" />
		<tag k="name" v="Arnkvern mølle" />
		<tag k="place" v="farm" />
		<tag k="ssr:stedsnr" v="97769" />
	</node>
	<node lat="60.830108330455005" lon="11.180905560453123" id="-35461">
		<tag k="name" v="Vestre Blystad" />
		<tag k="place" v="farm" />
		<tag k="ssr:stedsnr" v="97777" />
	</node>
	<node lat="60.89128055528392" lon="11.198711119327626" id="-35462">
		<tag k="junction" v="yes" />
		<tag k="name" v="Ormsætertajet" />
		<tag k="place" v="locality" />
		<tag k="ssr:stedsnr" v="100077" />
	</node>
	<node lat="60.92641944507484" lon="11.120941672955501" id="-35463">
		<tag k="name" v="Øvre Langholmen" />
		<tag k="place" v="islet" />
		<tag k="ssr:stedsnr" v="100205" />
	</node>
	<node lat="60.91953888980171" lon="11.10148055638362" id="-35464">
		<tag k="name" v="Gråbendalsmyra" />
		<tag k="natural" v="wetland" />
		<tag k="ssr:stedsnr" v="100207" />
	</node>
	<node lat="60.85090556001096" lon="11.208669442941718" id="-35465">
		<tag k="name" v="Nygård" />
		<tag k="place" v="farm" />
		<tag k="ssr:stedsnr" v="101014" />
	</node>
	<node lat="60.8440527761998" lon="11.217411107904798" id="-35466">
		<tag k="name" v="Bekkedal" />
		<tag k="place" v="farm" />
		<tag k="ssr:stedsnr" v="101016" />
	</node>
	<node lat="60.81366388447928" lon="11.152097230813885" id="-35467">
		<tag k="name" v="Sveen" />
		<tag k="place" v="farm" />
		<tag k="ssr:stedsnr" v="101619" />
	</node>
	<node lat="60.875797222535866" lon="11.128522216465562" id="-35468">
		<tag k="name" v="Engesletta" />
		<tag k="place" v="farm" />
		<tag k="ssr:stedsnr" v="101674" />
	</node>
	<node lat="60.79831389188727" lon="11.109461116311143" id="-35469">
		<tag k="name" v="Midtstranda" />
		<tag k="place" v="neighbourhood" />
		<tag k="ssr:stedsnr" v="101559" />
	</node>
	<node lat="60.79438055586175" lon="11.084208329642296" id="-35470">
		<tag k="leisure" v="park" />
		<tag k="name" v="Hamar park" />
		<tag k="ssr:stedsnr" v="101563" />
	</node>
	<node lat="60.79210555191648" lon="11.08422778246342" id="-35471">
		<tag k="name" v="Østbyen" />
		<tag k="place" v="suburb" />
		<tag k="ssr:stedsnr" v="101568" />
	</node>
	<node lat="60.83636666409543" lon="11.235258334104177" id="-35472">
		<tag k="name" v="Brodal" />
		<tag k="place" v="farm" />
		<tag k="ssr:stedsnr" v="102304" />
	</node>
	<node lat="60.84156388872843" lon="11.206172214541196" id="-35473">
		<tag k="name" v="Nordli" />
		<tag k="place" v="farm" />
		<tag k="ssr:stedsnr" v="102290" />
	</node>
	<node lat="60.78803108814639" lon="11.097208140108028" id="-35474">
		<tag k="bridge" v="yes" />
		<tag k="layer" v="1" />
		<tag k="name" v="Stangebrua" />
		<tag k="ssr:stedsnr" v="106612" />
	</node>
	<node lat="60.809936113265366" lon="11.104691673548325" id="-35475">
		<tag k="bridge" v="yes" />
		<tag k="layer" v="1" />
		<tag k="name" v="Børstad" />
		<tag k="ssr:stedsnr" v="107580" />
	</node>
	<node lat="61.113058329478285" lon="11.059077781762712" id="-35476">
		<tag k="highway" v="path" />
		<tag k="name" v="Høgfjellvegen" />
		<tag k="ssr:stedsnr" v="116171" />
	</node>
	<node lat="61.112294445224215" lon="11.040930551297654" id="-35477">
		<tag k="name" v="Kålåa" />
		<tag k="ssr:stedsnr" v="116174" />
		<tag k="waterway" v="stream" />
	</node>
	<node lat="60.97551944229488" lon="11.146672222482469" id="-35478">
		<tag k="alt_name" v="Bokkhølsletta" />
		<tag k="name" v="Bukkhølsletta" />
		<tag k="place" v="locality" />
		<tag k="ssr:stedsnr" v="117379" />
	</node>
	<node lat="61.09721388825718" lon="11.085308324267395" id="-35479">
		<tag k="name" v="Øyskaret" />
		<tag k="natural" v="gorge" />
		<tag k="ssr:stedsnr" v="237865" />
	</node>
	<node lat="60.821774996345354" lon="11.150697222993918" id="-35480">
		<tag k="name" v="Kapp" />
		<tag k="place" v="neighbourhood" />
		<tag k="ssr:stedsnr" v="238929" />
	</node>
	<node lat="61.09775278052732" lon="11.13473888592201" id="-35481">
		<tag k="name" v="Nesholmen" />
		<tag k="place" v="islet" />
		<tag k="ssr:stedsnr" v="238931" />
	</node>
	<node lat="61.204399996486714" lon="11.005033327837166" id="-35482">
		<tag k="fixme" v="consider natural=peak for the most distinct mountains in the district" />
		<tag k="name" v="Raudfjellet" />
		<tag k="natural" v="hill" />
		<tag k="place" v="locality" />
		<tag k="ssr:stedsnr" v="129715" />
	</node>
	<node lat="60.88485429413805" lon="11.233511401408318" id="-35483">
		<tag k="name" v="Bekkestykket" />
		<tag k="place" v="farm" />
		<tag k="ssr:stedsnr" v="130613" />
	</node>
	<node lat="60.85141389205131" lon="11.229113886776476" id="-35484">
		<tag k="name" v="Lilleberg" />
		<tag k="place" v="farm" />
		<tag k="ssr:stedsnr" v="130681" />
	</node>
	<node lat="60.84591389245512" lon="11.204613895180273" id="-35485">
		<tag k="amenity" v="place_of_worship" />
		<tag k="denomination" v="lutheran" />
		<tag k="name" v="Øvre Vang kirke" />
		<tag k="old_name" v="Vangsås" />
		<tag k="religion" v="christian" />
		<tag k="ssr:stedsnr" v="130683" />
	</node>
	<node lat="60.85215277356225" lon="11.155816665792665" id="-35486">
		<tag k="alt_name" v="Søndre Sveum" />
		<tag k="name" v="Sveum" />
		<tag k="place" v="farm" />
		<tag k="ssr:stedsnr" v="130687" />
	</node>
	<node lat="60.91785000281266" lon="11.197275002507936" id="-35487">
		<tag k="name" v="Østeråa" />
		<tag k="ssr:stedsnr" v="130580" />
		<tag k="waterway" v="stream" />
	</node>
	<node lat="60.83935278216172" lon="11.109561118393477" id="-35488">
		<tag k="name" v="Furulund" />
		<tag k="place" v="farm" />
		<tag k="ssr:stedsnr" v="130708" />
	</node>
	<node lat="60.86486614589689" lon="11.235768002390735" id="-35489">
		<tag k="name" v="Brenna" />
		<tag k="place" v="farm" />
		<tag k="ssr:stedsnr" v="131716" />
	</node>
	<node lat="60.87053986731207" lon="11.215107624753612" id="-35490">
		<tag k="name" v="Ålerud" />
		<tag k="place" v="farm" />
		<tag k="ssr:stedsnr" v="131724" />
	</node>
	<node lat="60.839424998411744" lon="11.118866675620959" id="-35491">
		<tag k="name" v="Vegheim" />
		<tag k="place" v="farm" />
		<tag k="ssr:stedsnr" v="131814" />
	</node>
	<node lat="60.82953149726577" lon="11.168896525829577" id="-35492">
		<tag k="name" v="Finnburud" />
		<tag k="place" v="farm" />
		<tag k="ssr:stedsnr" v="131821" />
	</node>
	<node lat="60.980600001674276" lon="11.126461102986363" id="-35493">
		<tag k="name" v="Bjønnholtbekken" />
		<tag k="ssr:stedsnr" v="239925" />
		<tag k="waterway" v="stream" />
	</node>
	<node lat="60.9281527817858" lon="11.230058326295445" id="-35494">
		<tag k="highway" v="path" />
		<tag k="name" v="Bårdsætervegen" />
		<tag k="ssr:stedsnr" v="241071" />
	</node>
	<node lat="60.87017777703311" lon="11.168319444343572" id="-35495">
		<tag k="name" v="Søndre Tønset" />
		<tag k="place" v="farm" />
		<tag k="ssr:stedsnr" v="151257" />
	</node>
	<node lat="60.88341111018379" lon="11.18274722611648" id="-35496">
		<tag k="name" v="Vangssætra" />
		<tag k="place" v="hamlet" />
		<tag k="ssr:stedsnr" v="158997" />
	</node>
	<node lat="60.795262267422004" lon="11.082651537405681" id="-35497">
		<tag k="alt_name" v="Fylkeshuset" />
		<tag k="amenity" v="townhall" />
		<tag k="name" v="Fylkeshuset på Hamar" />
		<tag k="old_name" v="Hedmark fylkeshus" />
		<tag k="ssr:stedsnr" v="161521" />
	</node>
	<node lat="60.795352782157316" lon="11.08634999322431" id="-35498">
		<tag k="name" v="Utstillingsplassen" />
		<tag k="place" v="square" />
		<tag k="ssr:stedsnr" v="161522" />
	</node>
	<node lat="60.78925833480131" lon="11.090583332091217" id="-35499">
		<tag k="name" v="Espern" />
		<tag k="place" v="neighbourhood" />
		<tag k="ssr:stedsnr" v="161530" />
	</node>
	<node lat="60.82101111291932" lon="11.1721750024907" id="-35500">
		<tag k="amenity" v="community_centre" />
		<tag k="name" v="Høyvang" />
		<tag k="ssr:stedsnr" v="161545" />
	</node>
	<node lat="60.80772499558068" lon="11.183911116959393" id="-35501">
		<tag k="name" v="Erlandsrud" />
		<tag k="place" v="isolated_dwelling" />
		<tag k="ssr:stedsnr" v="161546" />
	</node>
	<node lat="60.81865555171726" lon="11.129027784019922" id="-35502">
		<tag k="name" v="Thune" />
		<tag k="place" v="farm" />
		<tag k="ssr:stedsnr" v="161598" />
	</node>
	<node lat="60.9988722199164" lon="11.126286109263924" id="-35503">
		<tag k="name" v="Eftasmyra" />
		<tag k="natural" v="wetland" />
		<tag k="ssr:stedsnr" v="161865" />
	</node>
	<node lat="60.957791666639416" lon="11.147599996667447" id="-35504">
		<tag k="name" v="Tallrusten" />
		<tag k="place" v="locality" />
		<tag k="ssr:stedsnr" v="162507" />
	</node>
	<node lat="61.11616389323279" lon="11.048166664305217" id="-35505">
		<tag k="name" v="Bubekken" />
		<tag k="ssr:stedsnr" v="176195" />
		<tag k="waterway" v="stream" />
	</node>
	<node lat="60.9795361089187" lon="11.189152769916534" id="-35506">
		<tag k="highway" v="path" />
		<tag k="name" v="Målistien" />
		<tag k="ssr:stedsnr" v="177353" />
	</node>
	<node lat="60.97408889250512" lon="11.136755555356592" id="-35507">
		<tag k="name" v="Overgroningen" />
		<tag k="natural" v="water" />
		<tag k="ssr:stedsnr" v="177354" />
		<tag k="water" v="lake" />
	</node>
	<node lat="61.12828333159961" lon="11.094775001750845" id="-35508">
		<tag k="highway" v="path" />
		<tag k="name" v="Bringbuvegen" />
		<tag k="ssr:stedsnr" v="179960" />
	</node>
	<node lat="60.820543220199426" lon="11.068625844648517" id="-35509">
		<tag k="alt_name" v="Plassen" />
		<tag k="name" v="Stavsberg" />
		<tag k="place" v="farm" />
		<tag k="ssr:stedsnr" v="191401" />
	</node>
	<node lat="60.980424998808985" lon="11.100850007492282" id="-35510">
		<tag k="name" v="Haugsæterkjølen" />
		<tag k="natural" v="wetland" />
		<tag k="ssr:stedsnr" v="191508" />
	</node>
	<node lat="60.81967499959129" lon="11.038336105136738" id="-35511">
		<tag k="name" v="Hedmarktoppen" />
		<tag k="natural" v="hill" />
		<tag k="place" v="locality" />
		<tag k="ssr:stedsnr" v="191404" />
	</node>
	<node lat="60.87996111405347" lon="11.199463895903822" id="-35512">
		<tag k="name" v="Rubert" />
		<tag k="place" v="farm" />
		<tag k="ssr:stedsnr" v="191620" />
	</node>
	<node lat="60.881649774966036" lon="11.23309161488492" id="-35513">
		<tag k="name" v="Lundby" />
		<tag k="place" v="farm" />
		<tag k="ssr:stedsnr" v="191621" />
	</node>
	<node lat="60.833638888391086" lon="11.098991658806442" id="-35514">
		<tag k="name" v="Trehørningen" />
		<tag k="place" v="hamlet" />
		<tag k="ssr:stedsnr" v="191745" />
	</node>
	<node lat="60.82182600589693" lon="11.159302695414151" id="-35515">
		<tag k="alt_name" v="Øvre Skråstad" />
		<tag k="name" v="Skråstad" />
		<tag k="place" v="farm" />
		<tag k="ssr:stedsnr" v="251844" />
	</node>
	<node lat="60.97814999947512" lon="11.168350006850996" id="-35516">
		<tag k="name" v="Holtbekken" />
		<tag k="ssr:stedsnr" v="252489" />
		<tag k="waterway" v="stream" />
	</node>
	<node lat="60.882644447001546" lon="11.200055560726287" id="-35517">
		<tag k="name" v="Rydje" />
		<tag k="place" v="farm" />
		<tag k="ssr:stedsnr" v="252635" />
	</node>
	<node lat="60.94219999803637" lon="11.16457778600326" id="-35518">
		<tag k="name" v="Måsætra" />
		<tag k="place" v="hamlet" />
		<tag k="ssr:stedsnr" v="252521" />
	</node>
	<node lat="60.897106301098965" lon="11.226778563771818" id="-35519">
		<tag k="name" v="Østgjerdingen" />
		<tag k="place" v="farm" />
		<tag k="ssr:stedsnr" v="252591" />
	</node>
	<node lat="60.83931796415862" lon="11.107783816248638" id="-35520">
		<tag k="name" v="Lundgård" />
		<tag k="place" v="farm" />
		<tag k="ssr:stedsnr" v="252767" />
	</node>
	<node lat="60.836162302713944" lon="11.147986387917886" id="-35521">
		<tag k="name" v="Søndre Tomter" />
		<tag k="old_name" v="Tomter, s" />
		<tag k="place" v="farm" />
		<tag k="ssr:stedsnr" v="252769" />
	</node>
	<node lat="60.835797225025416" lon="11.16781388649447" id="-35522">
		<tag k="name" v="Søbakken" />
		<tag k="place" v="farm" />
		<tag k="ssr:stedsnr" v="252770" />
	</node>
	<node lat="60.865250003586226" lon="11.163208332805572" id="-35523">
		<tag k="name" v="Palerud" />
		<tag k="place" v="farm" />
		<tag k="ssr:stedsnr" v="252725" />
	</node>
	<node lat="60.86638055519604" lon="11.171469448916845" id="-35524">
		<tag k="alt_name" v="Nordre Haugen" />
		<tag k="name" v="Haugen" />
		<tag k="place" v="farm" />
		<tag k="ssr:stedsnr" v="252684" />
	</node>
	<node lat="60.86691493854098" lon="11.181308667838875" id="-35525">
		<tag k="alt_name" v="Søndre Spikkerud" />
		<tag k="name" v="Spikkerud" />
		<tag k="place" v="farm" />
		<tag k="ssr:stedsnr" v="252686" />
	</node>
	<node lat="60.87277778091744" lon="11.22542221747578" id="-35526">
		<tag k="name" v="Libakken" />
		<tag k="place" v="farm" />
		<tag k="ssr:stedsnr" v="252688" />
	</node>
	<node lat="60.81043769212924" lon="11.124767671174617" id="-35527">
		<tag k="name" v="Tronhus" />
		<tag k="place" v="farm" />
		<tag k="ssr:stedsnr" v="252818" />
	</node>
	<node lat="60.803388886676" lon="11.162538891589866" id="-35528">
		<tag k="alt_name" v="Hubred" />
		<tag k="name" v="Vesle Hubred" />
		<tag k="place" v="farm" />
		<tag k="ssr:stedsnr" v="252831" />
	</node>
	<node lat="60.83689945863723" lon="11.254043530796467" id="-35529">
		<tag k="name" v="Vestre Arnset" />
		<tag k="place" v="farm" />
		<tag k="ssr:stedsnr" v="202818" />
	</node>
	<node lat="60.79909999894538" lon="11.081483330869439" id="-35534">
		<tag k="name" v="Rollsløkka" />
		<tag k="place" v="suburb" />
		<tag k="ssr:stedsnr" v="222508" />
	</node>
	<node lat="60.80242221884791" lon="11.13923333528141" id="-35535">
		<tag k="name" v="Dystingbo" />
		<tag k="place" v="farm" />
		<tag k="ssr:stedsnr" v="222588" />
	</node>
	<node lat="60.862919442971574" lon="11.228911111013831" id="-35536">
		<tag k="loc_name" v="Brennengen" />
		<tag k="name" v="Brendengen" />
		<tag k="place" v="farm" />
		<tag k="ssr:stedsnr" v="223052" />
	</node>
	<node lat="60.858391664411975" lon="11.135513897529833" id="-35537">
		<tag k="name" v="Vestby" />
		<tag k="place" v="farm" />
		<tag k="ssr:stedsnr" v="224568" />
	</node>
	<node lat="60.82627688777536" lon="11.233725303833287" id="-35538">
		<tag k="bridge" v="yes" />
		<tag k="layer" v="1" />
		<tag k="name" v="Lagerå bru" />
		<tag k="ssr:stedsnr" v="228618" />
	</node>
	<node lat="60.79416892974583" lon="11.122463736723736" id="-35539">
		<tag k="bridge" v="yes" />
		<tag k="layer" v="1" />
		<tag k="name" v="Svartelva bru" />
		<tag k="ssr:stedsnr" v="228621" />
	</node>
	<node lat="60.876261110333665" lon="11.166233335549917" id="-35540">
		<tag k="name" v="Torvbua" />
		<tag k="place" v="farm" />
		<tag k="ssr:stedsnr" v="237610" />
	</node>
	<node lat="60.79204721933714" lon="11.038302781361383" id="-35541">
		<tag k="name" v="Hamardomen" />
		<tag k="ssr:stedsnr" v="237718" />
		<tag k="tourism" v="attraction" />
	</node>
	<node lat="60.78333889197183" lon="11.194630563142608" id="-35542">
		<tag k="name" v="Østre Hol" />
		<tag k="place" v="farm" />
		<tag k="ssr:stedsnr" v="239202" />
	</node>
	<node lat="61.11298055821837" lon="11.110955553994549" id="-35543">
		<tag k="name" v="Kalvhølsbekken" />
		<tag k="ssr:stedsnr" v="239962" />
		<tag k="waterway" v="stream" />
	</node>
	<node lat="60.79416944681247" lon="11.215502769548246" id="-35544">
		<tag k="name" v="Øvre Voll" />
		<tag k="place" v="farm" />
		<tag k="ssr:stedsnr" v="444897" />
	</node>
	<node lat="61.04643888581886" lon="11.157419449920395" id="-35545">
		<tag k="fixme" v="consider natural=peak for the most distinct mountains in the district" />
		<tag k="name" v="Helvetesberget" />
		<tag k="natural" v="hill" />
		<tag k="place" v="locality" />
		<tag k="ssr:stedsnr" v="250275" />
	</node>
	<node lat="60.96425555750964" lon="11.133136104321947" id="-35546">
		<tag k="name" v="Bukkhølbekken" />
		<tag k="old_name" v="Borkflotbekken" />
		<tag k="ssr:stedsnr" v="445557" />
		<tag k="waterway" v="stream" />
	</node>
	<node lat="60.92214999961329" lon="11.160527784300733" id="-35547">
		<tag k="name" v="Stormyra" />
		<tag k="natural" v="wetland" />
		<tag k="ssr:stedsnr" v="251651" />
	</node>
	<node lat="60.86642140603451" lon="11.11772205696053" id="-35548">
		<tag k="name" v="Dalseng" />
		<tag k="place" v="farm" />
		<tag k="ssr:stedsnr" v="251717" />
	</node>
	<node lat="60.8632750022156" lon="11.24581111248279" id="-35549">
		<tag k="name" v="Alhaug" />
		<tag k="place" v="farm" />
		<tag k="ssr:stedsnr" v="252718" />
	</node>
	<node lat="60.839693493531826" lon="11.259008306563464" id="-35550">
		<tag k="name" v="Gran" />
		<tag k="place" v="farm" />
		<tag k="ssr:stedsnr" v="252747" />
	</node>
	<node lat="60.84275832986113" lon="11.250833338165727" id="-35551">
		<tag k="name" v="Løberg" />
		<tag k="place" v="farm" />
		<tag k="ssr:stedsnr" v="252751" />
	</node>
	<node lat="60.839664084430495" lon="11.24790609049174" id="-35552">
		<tag k="name" v="Lerberg" />
		<tag k="place" v="farm" />
		<tag k="ssr:stedsnr" v="252752" />
	</node>
	<node lat="60.79971388928664" lon="11.025555552060009" id="-35553">
		<tag k="name" v="Martodden" />
		<tag k="natural" v="cape" />
		<tag k="ssr:stedsnr" v="252449" />
	</node>
	<node lat="60.89440833527208" lon="11.114702770959015" id="-35554">
		<tag k="alt_name" v="Brendsætra" />
		<tag k="name" v="Brennsæter" />
		<tag k="place" v="farm" />
		<tag k="ssr:stedsnr" v="252603" />
	</node>
	<node lat="60.896000000555844" lon="11.224516662486128" id="-35555">
		<tag k="name" v="Rødsætervollen" />
		<tag k="place" v="hamlet" />
		<tag k="ssr:stedsnr" v="252606" />
	</node>
	<node lat="60.876430553115476" lon="11.223324998653377" id="-35556">
		<tag k="name" v="Engom" />
		<tag k="place" v="farm" />
		<tag k="ssr:stedsnr" v="252643" />
	</node>
	<node lat="60.8154728845439" lon="11.187196706568372" id="-35557">
		<tag k="name" v="Helstad" />
		<tag k="place" v="farm" />
		<tag k="ssr:stedsnr" v="252807" />
	</node>
	<node lat="60.782225892033125" lon="11.194134727869807" id="-35558">
		<tag k="alt_name" v="Vestre Hol" />
		<tag k="name" v="Hol" />
		<tag k="place" v="farm" />
		<tag k="ssr:stedsnr" v="252902" />
	</node>
	<node lat="60.802909908995275" lon="11.195882646855061" id="-35559">
		<tag k="name" v="Hanumsveen" />
		<tag k="place" v="farm" />
		<tag k="ssr:stedsnr" v="445878" />
	</node>
	<node lat="60.82523075061658" lon="11.112674669307365" id="-35560">
		<tag k="name" v="Vestre Imerslund" />
		<tag k="place" v="farm" />
		<tag k="ssr:stedsnr" v="263656" />
	</node>
	<node lat="60.916166664606465" lon="11.112574995872714" id="-35563">
		<tag k="name" v="Svensksletta" />
		<tag k="place" v="locality" />
		<tag k="ssr:stedsnr" v="282206" />
	</node>
	<node lat="60.92943333527489" lon="11.086199992725652" id="-35564">
		<tag k="name" v="Veslbekken" />
		<tag k="ssr:stedsnr" v="282208" />
		<tag k="waterway" v="stream" />
	</node>
	<node lat="60.802724998377286" lon="11.066002784258318" id="-35565">
		<tag k="amenity" v="school" />
		<tag k="name" v="Greveløkka skole" />
		<tag k="ssr:stedsnr" v="283412" />
	</node>
	<node lat="60.81228055427776" lon="11.141036104571775" id="-35566">
		<tag k="name" v="Lillehagen" />
		<tag k="place" v="farm" />
		<tag k="ssr:stedsnr" v="283607" />
	</node>
	<node lat="60.81207777324825" lon="11.154319450731311" id="-35567">
		<tag k="name" v="Havnen" />
		<tag k="place" v="farm" />
		<tag k="ssr:stedsnr" v="283586" />
	</node>
	<node lat="60.81248333724629" lon="11.162113891940614" id="-35568">
		<tag k="name" v="Frang" />
		<tag k="place" v="farm" />
		<tag k="ssr:stedsnr" v="283590" />
	</node>
	<node lat="60.8060027784469" lon="11.135611102950287" id="-35569">
		<tag k="name" v="Solbrå" />
		<tag k="place" v="farm" />
		<tag k="ssr:stedsnr" v="283600" />
	</node>
	<node lat="61.02337778031926" lon="11.169822217845711" id="-35570">
		<tag k="name" v="Kråktjernet" />
		<tag k="natural" v="water" />
		<tag k="ssr:stedsnr" v="284142" />
	</node>
	<node lat="60.96911111519951" lon="11.161377779939313" id="-35571">
		<tag k="historic" v="shieling" />
		<tag k="name" v="Beita" />
		<tag k="place" v="locality" />
		<tag k="ssr:stedsnr" v="284506" />
	</node>
	<node lat="60.96380000324017" lon="11.165919442763213" id="-35572">
		<tag k="name" v="Blesterbakken" />
		<tag k="place" v="isolated_dwelling" />
		<tag k="ssr:stedsnr" v="284512" />
	</node>
	<node lat="60.966419443572626" lon="11.14437222671359" id="-35573">
		<tag k="name" v="Sjømyra" />
		<tag k="natural" v="wetland" />
		<tag k="ssr:stedsnr" v="284513" />
	</node>
	<node lat="60.850366165399606" lon="11.161822893806791" id="-35574">
		<tag k="name" v="Hegsvold" />
		<tag k="place" v="farm" />
		<tag k="ssr:stedsnr" v="284589" />
	</node>
	<node lat="60.80268611377318" lon="11.130280557731147" id="-35575">
		<tag k="bridge" v="yes" />
		<tag k="layer" v="1" />
		<tag k="name" v="Finsalbekken" />
		<tag k="ssr:stedsnr" v="289609" />
	</node>
	<node lat="60.831280551276656" lon="11.138399991483194" id="-35577">
		<tag k="name" v="Bakkerud" />
		<tag k="place" v="farm" />
		<tag k="ssr:stedsnr" v="298548" />
	</node>
	<node lat="60.77489444183726" lon="11.192119452187534" id="-35578">
		<tag k="name" v="Hagen" />
		<tag k="place" v="farm" />
		<tag k="ssr:stedsnr" v="299211" />
	</node>
	<node lat="60.982286112705246" lon="11.114861106654446" id="-35579">
		<tag k="name" v="Veltbekken" />
		<tag k="ssr:stedsnr" v="300892" />
		<tag k="waterway" v="stream" />
	</node>
	<node lat="61.06494444036062" lon="11.201927776291758" id="-35580">
		<tag k="name" v="Maridalshøgda" />
		<tag k="natural" v="hill" />
		<tag k="place" v="locality" />
		<tag k="ssr:stedsnr" v="301116" />
	</node>
	<node lat="60.888055556506586" lon="11.246105549846343" id="-35581">
		<tag k="name" v="Krokgranbekken" />
		<tag k="ssr:stedsnr" v="302107" />
		<tag k="waterway" v="stream" />
	</node>
	<node lat="61.158527780968576" lon="11.026611119912614" id="-35582">
		<tag k="highway" v="path" />
		<tag k="name" v="Bjønnåssætervegen" />
		<tag k="ssr:stedsnr" v="302297" />
	</node>
	<node lat="61.055302780091075" lon="11.163972222514365" id="-35583">
		<tag k="name" v="Lavåa" />
		<tag k="old_name" v="Lauvåa" />
		<tag k="ssr:stedsnr" v="310242" />
		<tag k="waterway" v="river" />
	</node>
	<node lat="61.07898888529106" lon="11.129230556208373" id="-35584">
		<tag k="name" v="Nysætra" />
		<tag k="place" v="hamlet" />
		<tag k="ssr:stedsnr" v="310500" />
	</node>
	<node lat="60.85198055730426" lon="11.178755559040152" id="-35585">
		<tag k="name" v="Rognstad" />
		<tag k="place" v="farm" />
		<tag k="ssr:stedsnr" v="312703" />
	</node>
	<node lat="60.85126391361277" lon="11.132497714196838" id="-35586">
		<tag k="name" v="Vestvang" />
		<tag k="place" v="farm" />
		<tag k="ssr:stedsnr" v="312708" />
	</node>
	<node lat="60.80243610836533" lon="11.132275001652799" id="-35587">
		<tag k="amenity" v="place_of_worship" />
		<tag k="denomination" v="lutheran" />
		<tag k="name" v="Vang kirke" />
		<tag k="religion" v="christian" />
		<tag k="ssr:stedsnr" v="312829" />
	</node>
	<node lat="60.81985555331346" lon="11.241130546395986" id="-35588">
		<tag k="name" v="Bekkevoll" />
		<tag k="place" v="farm" />
		<tag k="ssr:stedsnr" v="312789" />
	</node>
	<node lat="60.82487872177107" lon="11.232026981373995" id="-35589">
		<tag k="name" v="Lageråen" />
		<tag k="place" v="farm" />
		<tag k="ssr:stedsnr" v="312791" />
	</node>
	<node lat="60.79908610911231" lon="11.237508340979268" id="-35590">
		<tag k="name" v="Gilemoen" />
		<tag k="place" v="farm" />
		<tag k="ssr:stedsnr" v="313902" />
	</node>
	<node lat="60.77785918838898" lon="11.185539426795343" id="-35591">
		<tag k="name" v="Kvæka" />
		<tag k="place" v="farm" />
		<tag k="ssr:stedsnr" v="313932" />
	</node>
	<node lat="60.82180192791349" lon="11.135943785523354" id="-35592">
		<tag k="name" v="Nordre Hol" />
		<tag k="place" v="farm" />
		<tag k="ssr:stedsnr" v="323810" />
	</node>
	<node lat="60.8733750027355" lon="11.148797224582053" id="-35594">
		<tag k="name" v="Skjesetødegården" />
		<tag k="place" v="farm" />
		<tag k="ssr:stedsnr" v="460762" />
	</node>
	<node lat="60.814344448299806" lon="11.09902222413238" id="-35596">
		<tag k="junction" v="yes" />
		<tag k="name" v="Vien vegkryss" />
		<tag k="place" v="locality" />
		<tag k="ssr:stedsnr" v="343623" />
	</node>
	<node lat="60.86925278026013" lon="11.117230548280181" id="-35597">
		<tag k="name" v="Møllerstua" />
		<tag k="place" v="isolated_dwelling" />
		<tag k="ssr:stedsnr" v="343710" />
	</node>
	<node lat="60.956294440687394" lon="11.185988889034464" id="-35598">
		<tag k="fixme" v="consider highway=path" />
		<tag k="highway" v="track" />
		<tag k="name" v="Stensætervegen" />
		<tag k="ssr:stedsnr" v="344512" />
	</node>
	<node lat="60.947491670816135" lon="11.179825004166496" id="-35599">
		<tag k="name" v="Stenfjellia" />
		<tag k="natural" v="slope" />
		<tag k="place" v="locality" />
		<tag k="ssr:stedsnr" v="344514" />
	</node>
	<node lat="60.94555555300478" lon="11.163397224568673" id="-35600">
		<tag k="name" v="Måsæterbekken" />
		<tag k="ssr:stedsnr" v="344475" />
		<tag k="waterway" v="stream" />
	</node>
	<node lat="60.794880555201615" lon="11.06800000531668" id="-35601">
		<tag k="name" v="Stortorget" />
		<tag k="place" v="square" />
		<tag k="ssr:stedsnr" v="345442" />
	</node>
	<node lat="60.850422223248074" lon="11.158202783881492" id="-35603">
		<tag k="name" v="Undset" />
		<tag k="place" v="farm" />
		<tag k="ssr:stedsnr" v="345522" />
	</node>
	<node lat="60.84604722179552" lon="11.13125277468052" id="-35604">
		<tag k="name" v="Markene" />
		<tag k="place" v="locality" />
		<tag k="ssr:stedsnr" v="345524" />
	</node>
	<node lat="60.86008610853484" lon="11.15343888296905" id="-35605">
		<tag k="name" v="Dalbytangen" />
		<tag k="place" v="locality" />
		<tag k="ssr:stedsnr" v="345550" />
	</node>
	<node lat="60.864455559454974" lon="11.139622227849369" id="-35606">
		<tag k="name" v="Lille Melby" />
		<tag k="place" v="farm" />
		<tag k="ssr:stedsnr" v="345552" />
	</node>
	<node lat="61.139377781576385" lon="11.093736103223117" id="-35607">
		<tag k="name" v="Kvannbekkjølen" />
		<tag k="natural" v="wetland" />
		<tag k="ssr:stedsnr" v="360964" />
	</node>
	<node lat="60.885172218497715" lon="11.198416668804942" id="-35608">
		<tag k="name" v="Heia" />
		<tag k="place" v="farm" />
		<tag k="ssr:stedsnr" v="362016" />
	</node>
	<node lat="60.85653610681441" lon="11.197661117156265" id="-35609">
		<tag k="name" v="Østby" />
		<tag k="place" v="farm" />
		<tag k="ssr:stedsnr" v="465031" />
	</node>
	<node lat="61.06131388906413" lon="11.104155548375727" id="-35610">
		<tag k="fixme" v="consider boundary=protected_area and relevant protect_class if not nature reserve" />
		<tag k="leisure" v="nature_reserve" />
		<tag k="name" v="Brumundsjøen-Harasjømyra naturreservat" />
		<tag k="ssr:stedsnr" v="363425" />
	</node>
	<node lat="60.81971666989626" lon="11.084144448471543" id="-35611">
		<tag k="name" v="Benterud" />
		<tag k="place" v="isolated_dwelling" />
		<tag k="ssr:stedsnr" v="465597" />
	</node>
	<node lat="60.80761944074522" lon="11.043097214828995" id="-35612">
		<tag k="amenity" v="nursing_home" />
		<tag k="name" v="Kløverenga omsorgsbolig" />
		<tag k="ssr:stedsnr" v="465440" />
	</node>
	<node lat="60.832513885414386" lon="11.122458328362677" id="-35613">
		<tag k="name" v="Storimerslundmarka" />
		<tag k="place" v="farm" />
		<tag k="ssr:stedsnr" v="465842" />
	</node>
	<node lat="60.87143055807909" lon="11.223374996830492" id="-35614">
		<tag k="name" v="Åsnes" />
		<tag k="place" v="farm" />
		<tag k="ssr:stedsnr" v="466045" />
	</node>
	<node lat="60.862700003070884" lon="11.239452780767854" id="-35615">
		<tag k="name" v="Nystuen" />
		<tag k="place" v="farm" />
		<tag k="ssr:stedsnr" v="466048" />
	</node>
	<node lat="60.842530558822006" lon="11.209369451234304" id="-35616">
		<tag k="name" v="Engestad" />
		<tag k="place" v="farm" />
		<tag k="ssr:stedsnr" v="466273" />
	</node>
	<node lat="60.831005559797966" lon="11.219066672012005" id="-35617">
		<tag k="name" v="Haugen" />
		<tag k="place" v="farm" />
		<tag k="ssr:stedsnr" v="466275" />
	</node>
	<node lat="61.01732777809054" lon="11.174175000761315" id="-35618">
		<tag k="name" v="Brumundsætra" />
		<tag k="place" v="hamlet" />
		<tag k="ssr:stedsnr" v="371269" />
	</node>
	<node lat="61.07715277939985" lon="11.246219443834354" id="-35619">
		<tag k="name" v="Jernåa" />
		<tag k="ssr:stedsnr" v="371469" />
		<tag k="waterway" v="stream" />
	</node>
	<node lat="60.82436175093521" lon="11.08015845882092" id="-35620">
		<tag k="alt_name" v="Vallsig, østre" />
		<tag k="name" v="Nedre Vallsig" />
		<tag k="place" v="farm" />
		<tag k="ssr:stedsnr" v="373428" />
	</node>
	<node lat="60.85451016117229" lon="11.260311873009826" id="-35621">
		<tag k="name" v="Østhagen" />
		<tag k="place" v="farm" />
		<tag k="ssr:stedsnr" v="373729" />
	</node>
	<node lat="60.85109166760213" lon="11.219027775128193" id="-35622">
		<tag k="name" v="Graff" />
		<tag k="place" v="farm" />
		<tag k="ssr:stedsnr" v="373731" />
	</node>
	<node lat="60.84998889006031" lon="11.206466667010535" id="-35623">
		<tag k="name" v="Nyhagen" />
		<tag k="old_name" v="Lihagen" />
		<tag k="place" v="farm" />
		<tag k="ssr:stedsnr" v="373733" />
	</node>
	<node lat="60.90111944592705" lon="11.108613884029038" id="-35624">
		<tag k="building" v="industrial" />
		<tag k="industrial" v="factory" />
		<tag k="name" v="Brennsætersaga" />
		<tag k="ssr:stedsnr" v="373663" />
	</node>
	<node lat="60.823614856131464" lon="11.18310120470726" id="-35625">
		<tag k="name" v="Vengshol" />
		<tag k="place" v="farm" />
		<tag k="ssr:stedsnr" v="373803" />
	</node>
	<node lat="60.81986732881684" lon="11.217136519776744" id="-35626">
		<tag k="alt_name" v="Store Ingvoldstad" />
		<tag k="name" v="Ingvoldstad" />
		<tag k="place" v="farm" />
		<tag k="ssr:stedsnr" v="373823" />
	</node>
	<node lat="60.81511002263766" lon="11.141361232094873" id="-35627">
		<tag k="name" v="Stanger" />
		<tag k="place" v="farm" />
		<tag k="ssr:stedsnr" v="373826" />
	</node>
	<node lat="60.82096273971003" lon="11.140676226782732" id="-35628">
		<tag k="name" v="Herset" />
		<tag k="place" v="farm" />
		<tag k="ssr:stedsnr" v="373827" />
	</node>
	<node lat="60.92868611146204" lon="11.1511749940848" id="-35629">
		<tag k="name" v="Flagstadhyttbekken" />
		<tag k="ssr:stedsnr" v="384221" />
		<tag k="waterway" v="stream" />
	</node>
	<node lat="60.87732292472878" lon="11.129078950194293" id="-35634">
		<tag k="name" v="Engelien" />
		<tag k="place" v="farm" />
		<tag k="ssr:stedsnr" v="404658" />
	</node>
	<node lat="60.8101277798453" lon="11.149663883548529" id="-35635">
		<tag k="name" v="Jorde" />
		<tag k="place" v="farm" />
		<tag k="ssr:stedsnr" v="404598" />
	</node>
	<node lat="60.801148471044876" lon="11.169644891461326" id="-35636">
		<tag k="name" v="Løvlund" />
		<tag k="place" v="farm" />
		<tag k="ssr:stedsnr" v="404601" />
	</node>
	<node lat="60.85504999655472" lon="11.102980560312561" id="-35637">
		<tag k="man_made" v="water_works" />
		<tag k="name" v="Vang vannverk" />
		<tag k="ssr:stedsnr" v="404800" />
	</node>
	<node lat="60.85275555290663" lon="11.105141658583387" id="-35638">
		<tag k="name" v="Skogtun" />
		<tag k="place" v="farm" />
		<tag k="ssr:stedsnr" v="404801" />
	</node>
	<node lat="61.03211111047814" lon="11.115088879853532" id="-35639">
		<tag k="name" v="Granodden" />
		<tag k="natural" v="cape" />
		<tag k="ssr:stedsnr" v="404891" />
	</node>
	<node lat="60.9682944464805" lon="11.177797226273428" id="-35640">
		<tag k="name" v="Bryterbakken" />
		<tag k="natural" v="slope" />
		<tag k="place" v="locality" />
		<tag k="ssr:stedsnr" v="405518" />
	</node>
	<node lat="60.978766666548935" lon="11.114966661563411" id="-35641">
		<tag k="historic" v="shieling" />
		<tag k="name" v="Blystad" />
		<tag k="place" v="isolated_dwelling" />
		<tag k="ssr:stedsnr" v="422906" />
	</node>
	<node lat="60.9505750025803" lon="11.121836119756962" id="-35642">
		<tag k="name" v="Mæresmyra" />
		<tag k="natural" v="wetland" />
		<tag k="ssr:stedsnr" v="423257" />
	</node>
	<node lat="60.480638891947294" lon="11.195405555401956" id="-35643">
		<tag k="name" v="Mjøsa" />
		<tag k="natural" v="water" />
		<tag k="ssr:stedsnr" v="431452" />
		<tag k="water" v="lake" />
	</node>
	<node lat="61.14934722081693" lon="11.025666660731096" id="-35644">
		<tag k="alt_name" v="Bjønnåsberget" />
		<tag k="name" v="Bjørnåsberget" />
		<tag k="natural" v="ridge" />
		<tag k="place" v="locality" />
		<tag k="ssr:stedsnr" v="433523" />
	</node>
	<node lat="60.80853478735601" lon="11.092473360406963" id="-35645">
		<tag k="name" v="Tommelstad" />
		<tag k="place" v="farm" />
		<tag k="ssr:stedsnr" v="434443" />
	</node>
	<node lat="60.86872711882626" lon="11.229028728122106" id="-35646">
		<tag k="alt_name" v="Østre Ås" />
		<tag k="name" v="Ås" />
		<tag k="place" v="farm" />
		<tag k="ssr:stedsnr" v="434675" />
	</node>
	<node lat="60.8708313090547" lon="11.27083113749956" id="-35647">
		<tag k="name" v="Skjellbekk" />
		<tag k="place" v="farm" />
		<tag k="ssr:stedsnr" v="434677" />
	</node>
	<node lat="60.8535342000399" lon="11.142843906921172" id="-35648">
		<tag k="name" v="Svenkerud" />
		<tag k="place" v="farm" />
		<tag k="ssr:stedsnr" v="434691" />
	</node>
	<node lat="60.80942465164531" lon="11.22130822227461" id="-35649">
		<tag k="name" v="Nysveen" />
		<tag k="place" v="farm" />
		<tag k="ssr:stedsnr" v="434815" />
	</node>
	<node lat="60.86399571876853" lon="11.214450652224704" id="-35650">
		<tag k="name" v="Greftenmoen" />
		<tag k="old_name" v="Greftenmoen nr. 13" />
		<tag k="place" v="farm" />
		<tag k="ssr:stedsnr" v="434704" />
	</node>
	<node lat="60.785634432067205" lon="11.158411080921281" id="-35651">
		<tag k="name" v="Kurud" />
		<tag k="place" v="farm" />
		<tag k="ssr:stedsnr" v="434888" />
	</node>
	<node lat="60.792205987626474" lon="11.171655037297999" id="-35652">
		<tag k="name" v="Skattum" />
		<tag k="place" v="farm" />
		<tag k="ssr:stedsnr" v="434889" />
	</node>
	<node lat="61.100570398098256" lon="11.05713037117664" id="-35653">
		<tag k="bridge" v="yes" />
		<tag k="layer" v="1" />
		<tag k="name" v="Bringbu bru" />
		<tag k="ssr:stedsnr" v="661184" />
	</node>
	<node lat="61.063174996571234" lon="11.184788881470602" id="-35654">
		<tag k="highway" v="path" />
		<tag k="name" v="Rondanestien" />
		<tag k="ssr:stedsnr" v="446185" />
	</node>
	<node lat="60.792952781588355" lon="11.100994442727673" id="-35655">
		<tag k="alt_name" v="Hamar Olympiahall" />
		<tag k="amenity" v="sports_centre" />
		<tag k="name" v="Vikingskipet" />
		<tag k="ssr:stedsnr" v="447991" />
	</node>
	<node lat="60.82821712789441" lon="11.136674706950282" id="-35656">
		<tag k="name" v="Ingeberg" />
		<tag k="place" v="village" />
		<tag k="ssr:stedsnr" v="447995" />
	</node>
	<node lat="60.99861666653234" lon="11.216063889547073" id="-35657">
		<tag k="name" v="Killingbekken" />
		<tag k="ssr:stedsnr" v="662095" />
		<tag k="waterway" v="stream" />
	</node>
	<node lat="60.802783334981434" lon="11.065880556795948" id="-35660">
		<tag k="amenity" v="school" />
		<tag k="name" v="Greveløkka" />
		<tag k="ssr:stedsnr" v="461669" />
	</node>
	<node lat="60.79402500072835" lon="11.07968611926048" id="-35661">
		<tag k="name" v="Fougner Lundhs plass" />
		<tag k="place" v="square" />
		<tag k="ssr:stedsnr" v="461671" />
	</node>
	<node lat="60.871837586296735" lon="11.12617800684754" id="-35662">
		<tag k="name" v="Vestre Skjeset" />
		<tag k="place" v="farm" />
		<tag k="ssr:stedsnr" v="465676" />
	</node>
	<node lat="60.871422217980175" lon="11.127011118201324" id="-35663">
		<tag k="name" v="Midtre Skjeset" />
		<tag k="place" v="farm" />
		<tag k="ssr:stedsnr" v="465679" />
	</node>
	<node lat="60.94480000382482" lon="11.146927772468624" id="-35664">
		<tag k="name" v="Svarttjernet" />
		<tag k="natural" v="water" />
		<tag k="ssr:stedsnr" v="466468" />
	</node>
	<node lat="60.809955553142935" lon="11.020025008671734" id="-35665">
		<tag k="man_made" v="water_works" />
		<tag k="name" v="Hamar vannverk" />
		<tag k="ssr:stedsnr" v="466470" />
	</node>
	<node lat="60.794880555201615" lon="11.06800000531668" id="-35666">
		<tag k="name" v="Sagatun" />
		<tag k="place" v="suburb" />
		<tag k="ssr:stedsnr" v="466480" />
	</node>
	<node lat="60.792975001336515" lon="11.051469448879937" id="-35667">
		<tag k="name" v="Ridehuset" />
		<tag k="place" v="locality" />
		<tag k="ssr:stedsnr" v="466488" />
	</node>
	<node lat="60.823349997954885" lon="11.18384166870674" id="-35668">
		<tag k="name" v="Jøstad" />
		<tag k="place" v="farm" />
		<tag k="ssr:stedsnr" v="466603" />
	</node>
	<node lat="60.858172224485564" lon="11.162688896580345" id="-35669">
		<tag k="name" v="Sveum" />
		<tag k="place" v="farm" />
		<tag k="ssr:stedsnr" v="466619" />
	</node>
	<node lat="60.85016666643642" lon="11.170525005024812" id="-35670">
		<tag k="name" v="Engelien" />
		<tag k="place" v="farm" />
		<tag k="ssr:stedsnr" v="466622" />
	</node>
	<node lat="60.85631110928251" lon="11.135541671544198" id="-35671">
		<tag k="junction" v="yes" />
		<tag k="name" v="Dalby" />
		<tag k="place" v="locality" />
		<tag k="ssr:stedsnr" v="466627" />
	</node>
	<node lat="60.879644444410516" lon="11.144294453510655" id="-35672">
		<tag k="name" v="Midtre Dufset" />
		<tag k="place" v="farm" />
		<tag k="ssr:stedsnr" v="480377" />
	</node>
	<node lat="60.80154444646238" lon="11.086713894563497" id="-35673">
		<tag k="name" v="Børstad" />
		<tag k="place" v="suburb" />
		<tag k="ssr:stedsnr" v="480613" />
	</node>
	<node lat="60.98803888737978" lon="11.123802773705401" id="-35674">
		<tag k="name" v="Søthølbekken" />
		<tag k="ssr:stedsnr" v="482890" />
		<tag k="waterway" v="stream" />
	</node>
	<node lat="60.94702777372271" lon="11.097691672873975" id="-35675">
		<tag k="name" v="Langholene" />
		<tag k="place" v="locality" />
		<tag k="ssr:stedsnr" v="483269" />
	</node>
	<node lat="61.075124996205055" lon="11.174147224214904" id="-35676">
		<tag k="name" v="Jomfrudalsmyra" />
		<tag k="natural" v="wetland" />
		<tag k="ssr:stedsnr" v="492457" />
	</node>
	<node lat="60.904686111551975" lon="11.194436106101167" id="-35677">
		<tag k="historic" v="shieling" />
		<tag k="name" v="Gåsbusætra" />
		<tag k="place" v="isolated_dwelling" />
		<tag k="ssr:stedsnr" v="494571" />
	</node>
	<node lat="60.90158055565883" lon="11.208013892909065" id="-35678">
		<tag k="name" v="Gåsbu" />
		<tag k="place" v="isolated_dwelling" />
		<tag k="ssr:stedsnr" v="494574" />
	</node>
	<node lat="60.84348333127214" lon="11.118052784126776" id="-35679">
		<tag k="alt_name" v="Bråttly" />
		<tag k="name" v="Bråtly" />
		<tag k="place" v="farm" />
		<tag k="ssr:stedsnr" v="494745" />
	</node>
	<node lat="60.89236944028149" lon="11.10342778367549" id="-35680">
		<tag k="name" v="Flagstadelva" />
		<tag k="ssr:stedsnr" v="494603" />
		<tag k="waterway" v="river" />
	</node>
	<node lat="60.88582499671152" lon="11.121263884308652" id="-35681">
		<tag k="name" v="Lierhagen" />
		<tag k="place" v="farm" />
		<tag k="ssr:stedsnr" v="494606" />
	</node>
	<node lat="60.82794876428748" lon="11.176860683618187" id="-35682">
		<tag k="alt_name" v="Vestre Myr" />
		<tag k="name" v="Myr" />
		<tag k="place" v="farm" />
		<tag k="ssr:stedsnr" v="494608" />
	</node>
	<node lat="60.888168043085614" lon="11.203653438922492" id="-35683">
		<tag k="name" v="Sandvoll" />
		<tag k="place" v="farm" />
		<tag k="ssr:stedsnr" v="494610" />
	</node>
	<node lat="60.81830453194718" lon="11.127691254737405" id="-35684">
		<tag k="name" v="Store Ingeberg" />
		<tag k="place" v="farm" />
		<tag k="ssr:stedsnr" v="494821" />
	</node>
	<node lat="60.95223611525582" lon="11.160938897060475" id="-35685">
		<tag k="alt_name" v="Sankt Olav" />
		<tag k="name" v="St. Olav" />
		<tag k="place" v="isolated_dwelling" />
		<tag k="ssr:stedsnr" v="495564" />
	</node>
	<node lat="60.941563885754825" lon="11.191158335349208" id="-35686">
		<tag k="fixme" v="consider tourism=alpine_hut or tourism=chalet" />
		<tag k="name" v="Stenfjellhytta" />
		<tag k="ssr:stedsnr" v="495566" />
		<tag k="tourism" v="wilderness_hut" />
	</node>
	<node lat="60.943147226572364" lon="11.21458610750311" id="-35687">
		<tag k="fixme" v="consider natural=peak for the most distinct mountains in the district" />
		<tag k="name" v="Kollmyrkampen" />
		<tag k="natural" v="hill" />
		<tag k="place" v="locality" />
		<tag k="ssr:stedsnr" v="495568" />
	</node>
	<node lat="60.944000000918635" lon="11.104399995073605" id="-35688">
		<tag k="name" v="Jordsmyra" />
		<tag k="natural" v="wetland" />
		<tag k="ssr:stedsnr" v="495575" />
	</node>
	<node lat="60.87421111059194" lon="11.162263894675434" id="-35689">
		<tag k="name" v="Rønningen" />
		<tag k="place" v="farm" />
		<tag k="ssr:stedsnr" v="495718" />
	</node>
	<node lat="60.871164245650284" lon="11.15295028262464" id="-35690">
		<tag k="name" v="Løvlien" />
		<tag k="place" v="farm" />
		<tag k="ssr:stedsnr" v="495719" />
	</node>
	<node lat="61.01884999654841" lon="11.194963888290749" id="-35691">
		<tag k="name" v="Lavsjøen" />
		<tag k="natural" v="water" />
		<tag k="ssr:stedsnr" v="674280" />
	</node>
	<node lat="60.81104999741318" lon="11.07980277938948" id="-35692">
		<tag k="amenity" v="nursing_home" />
		<tag k="name" v="Klukstuen omsorgssenter" />
		<tag k="ssr:stedsnr" v="522618" />
	</node>
	<node lat="60.80650833053444" lon="11.230094447957887" id="-35693">
		<tag k="name" v="Dørumshagan" />
		<tag k="place" v="locality" />
		<tag k="ssr:stedsnr" v="522633" />
	</node>
	<node lat="60.85781111435259" lon="11.128644438498837" id="-35694">
		<tag k="name" v="Åsgård" />
		<tag k="place" v="farm" />
		<tag k="ssr:stedsnr" v="525803" />
	</node>
	<node lat="60.86109520367573" lon="11.114309953163161" id="-35695">
		<tag k="name" v="Vestre Narmo" />
		<tag k="old_name" v="Nedre Narmo" />
		<tag k="place" v="farm" />
		<tag k="ssr:stedsnr" v="525804" />
	</node>
	<node lat="60.85804058606023" lon="11.12637055572685" id="-35696">
		<tag k="name" v="Torsgård" />
		<tag k="place" v="farm" />
		<tag k="ssr:stedsnr" v="525809" />
	</node>
	<node lat="61.015936112591554" lon="11.122008336163374" id="-35697">
		<tag k="name" v="Hestbekkvika" />
		<tag k="natural" v="bay" />
		<tag k="ssr:stedsnr" v="525881" />
	</node>
	<node lat="60.84900278112094" lon="11.223005550632495" id="-35698">
		<tag k="name" v="Bærum" />
		<tag k="place" v="farm" />
		<tag k="ssr:stedsnr" v="526016" />
	</node>
	<node lat="60.874397218858405" lon="11.199380558842558" id="-35699">
		<tag k="junction" v="yes" />
		<tag k="name" v="Dystvollsveum" />
		<tag k="place" v="locality" />
		<tag k="ssr:stedsnr" v="526067" />
	</node>
	<node lat="60.80178055818252" lon="11.029547217840399" id="-35700">
		<tag k="name" v="Martodden" />
		<tag k="place" v="neighbourhood" />
		<tag k="ssr:stedsnr" v="526417" />
	</node>
	<node lat="60.82418888951895" lon="11.259986106581522" id="-35701">
		<tag k="name" v="Sørli" />
		<tag k="place" v="farm" />
		<tag k="ssr:stedsnr" v="527240" />
	</node>
	<node lat="60.91604999624984" lon="11.223049991871209" id="-35702">
		<tag k="name" v="Stormyra" />
		<tag k="natural" v="wetland" />
		<tag k="ssr:stedsnr" v="676624" />
	</node>
	<node lat="60.792613889512644" lon="11.036005560323781" id="-35703">
		<tag k="name" v="Domkirkeodden" />
		<tag k="natural" v="cape" />
		<tag k="ssr:stedsnr" v="676480" />
	</node>
	<node lat="60.857880245479315" lon="11.17379682463378" id="-35704">
		<tag k="name" v="Mangerud" />
		<tag k="place" v="farm" />
		<tag k="ssr:stedsnr" v="676744" />
	</node>
	<node lat="60.85711619297107" lon="11.140434797472125" id="-35705">
		<tag k="name" v="Dalby" />
		<tag k="place" v="farm" />
		<tag k="ssr:stedsnr" v="676746" />
	</node>
	<node lat="60.884050001609005" lon="11.237200004751315" id="-35706">
		<tag k="name" v="Bergsetbakken" />
		<tag k="place" v="farm" />
		<tag k="ssr:stedsnr" v="676633" />
	</node>
	<node lat="60.862022225027054" lon="11.140236103285119" id="-35707">
		<tag k="name" v="Melby" />
		<tag k="place" v="farm" />
		<tag k="ssr:stedsnr" v="676679" />
	</node>
	<node lat="60.82861615859001" lon="11.241209318094242" id="-35708">
		<tag k="name" v="Oppstad" />
		<tag k="place" v="farm" />
		<tag k="ssr:stedsnr" v="676783" />
	</node>
	<node lat="60.812546427259036" lon="11.132218971015755" id="-35709">
		<tag k="name" v="Lerhus" />
		<tag k="place" v="farm" />
		<tag k="ssr:stedsnr" v="676824" />
	</node>
	<node lat="60.87802272633216" lon="11.238035075129567" id="-35710">
		<tag k="name" v="Snekkersveen" />
		<tag k="place" v="farm" />
		<tag k="ssr:stedsnr" v="677670" />
	</node>
	<node lat="60.842786953175974" lon="11.179173799147337" id="-35711">
		<tag k="name" v="Suterud" />
		<tag k="place" v="farm" />
		<tag k="ssr:stedsnr" v="677766" />
	</node>
	<node lat="60.83912222199453" lon="11.15332221870752" id="-35712">
		<tag k="name" v="Olstad" />
		<tag k="place" v="farm" />
		<tag k="ssr:stedsnr" v="677769" />
	</node>
	<node lat="60.81147500294252" lon="11.14551944696108" id="-35713">
		<tag k="name" v="Kåtorp" />
		<tag k="place" v="neighbourhood" />
		<tag k="ssr:stedsnr" v="541935" />
	</node>
	<node lat="61.126600003312234" lon="11.052763886044167" id="-35714">
		<tag k="name" v="Raudfjellsbekken" />
		<tag k="ssr:stedsnr" v="553511" />
		<tag k="waterway" v="stream" />
	</node>
	<node lat="61.13576666391896" lon="11.070391664599736" id="-35715">
		<tag k="name" v="Nordkappbekken" />
		<tag k="ssr:stedsnr" v="553520" />
		<tag k="waterway" v="stream" />
	</node>
	<node lat="60.91365000216051" lon="11.086633341811558" id="-35716">
		<tag k="alt_name" v="Stormyr" />
		<tag k="name" v="Stormyra" />
		<tag k="natural" v="wetland" />
		<tag k="ssr:stedsnr" v="555187" />
	</node>
	<node lat="60.93893889326315" lon="11.201169449588761" id="-35717">
		<tag k="name" v="Kistmyra" />
		<tag k="natural" v="wetland" />
		<tag k="ssr:stedsnr" v="555522" />
	</node>
	<node lat="60.85895000409604" lon="11.275750008019472" id="-35718">
		<tag k="name" v="Stabekken" />
		<tag k="ssr:stedsnr" v="555711" />
		<tag k="waterway" v="stream" />
	</node>
	<node lat="60.902883331671106" lon="11.096250002382808" id="-35719">
		<tag k="alt_name" v="Lundsæter" />
		<tag k="historic" v="shieling" />
		<tag k="name" v="Lundsætra" />
		<tag k="place" v="isolated_dwelling" />
		<tag k="ssr:stedsnr" v="555622" />
	</node>
	<node lat="60.874875002442025" lon="11.242797223103333" id="-35720">
		<tag k="name" v="Åsen" />
		<tag k="place" v="farm" />
		<tag k="ssr:stedsnr" v="555644" />
	</node>
	<node lat="60.8706643140219" lon="11.2402097700201" id="-35721">
		<tag k="name" v="Sagbroen" />
		<tag k="place" v="farm" />
		<tag k="ssr:stedsnr" v="555678" />
	</node>
	<node lat="60.87070437134725" lon="11.248111479161919" id="-35722">
		<tag k="name" v="Sagsvea" />
		<tag k="place" v="farm" />
		<tag k="ssr:stedsnr" v="555681" />
	</node>
	<node lat="60.872645650274585" lon="11.254313389109836" id="-35723">
		<tag k="name" v="Skomakerbakken" />
		<tag k="place" v="farm" />
		<tag k="ssr:stedsnr" v="555683" />
	</node>
	<node lat="60.87230281149406" lon="11.247140507820234" id="-35724">
		<tag k="name" v="Øvre Sagsveen" />
		<tag k="place" v="farm" />
		<tag k="ssr:stedsnr" v="555685" />
	</node>
	<node lat="60.85189939202219" lon="11.253877660627461" id="-35725">
		<tag k="name" v="Grytting" />
		<tag k="place" v="farm" />
		<tag k="ssr:stedsnr" v="555691" />
	</node>
	<node lat="60.82471595498906" lon="11.210333997115221" id="-35726">
		<tag k="name" v="Ålstad" />
		<tag k="place" v="farm" />
		<tag k="ssr:stedsnr" v="555802" />
	</node>
	<node lat="60.82098562526542" lon="11.131192877329292" id="-35727">
		<tag k="name" v="Vesle Ingeberg" />
		<tag k="place" v="farm" />
		<tag k="ssr:stedsnr" v="555812" />
	</node>
	<node lat="60.81966664435184" lon="11.252955366996416" id="-35728">
		<tag k="alt_name" v="Lille Vindhol" />
		<tag k="name" v="Vindhol" />
		<tag k="place" v="farm" />
		<tag k="ssr:stedsnr" v="555819" />
	</node>
	<node lat="60.788050001075455" lon="11.219838890278654" id="-35729">
		<tag k="name" v="Lageråa" />
		<tag k="ssr:stedsnr" v="555883" />
		<tag k="waterway" v="stream" />
	</node>
	<node lat="60.85864444724708" lon="11.207977770404163" id="-35730">
		<tag k="name" v="Greftmoene" />
		<tag k="place" v="locality" />
		<tag k="ssr:stedsnr" v="586013" />
	</node>
	<node lat="60.797666669986164" lon="11.039708325114427" id="-35731">
		<tag k="amenity" v="school" />
		<tag k="name" v="Storhamar videregående skole" />
		<tag k="ssr:stedsnr" v="586450" />
	</node>
	<node lat="60.81321110829357" lon="11.083816672619557" id="-35732">
		<tag k="name" v="Smeby" />
		<tag k="place" v="suburb" />
		<tag k="ssr:stedsnr" v="586607" />
	</node>
	<node lat="60.808172224590756" lon="11.035497221855621" id="-35733">
		<tag k="amenity" v="school" />
		<tag k="name" v="Prestrud skole" />
		<tag k="ssr:stedsnr" v="587479" />
	</node>
	<node lat="60.80401388966008" lon="11.046397228713705" id="-35734">
		<tag k="amenity" v="place_of_worship" />
		<tag k="denomination" v="lutheran" />
		<tag k="name" v="Storhamar kirke" />
		<tag k="religion" v="christian" />
		<tag k="ssr:stedsnr" v="600672" />
	</node>
	<node lat="60.88342715953388" lon="11.178161018016088" id="-35735">
		<tag k="name" v="Nor" />
		<tag k="place" v="farm" />
		<tag k="ssr:stedsnr" v="601369" />
	</node>
	<node lat="60.879977780772066" lon="11.15234445146775" id="-35736">
		<tag k="name" v="Nedre Dufset" />
		<tag k="place" v="farm" />
		<tag k="ssr:stedsnr" v="601370" />
	</node>
	<node lat="60.88100278152145" lon="11.143355559023178" id="-35737">
		<tag k="name" v="Vestre Dufset" />
		<tag k="place" v="locality" />
		<tag k="ssr:stedsnr" v="601559" />
	</node>
	<node lat="61.113086111771416" lon="11.124088894589372" id="-35738">
		<tag k="name" v="Breborgbekken" />
		<tag k="ssr:stedsnr" v="603956" />
		<tag k="waterway" v="stream" />
	</node>
	<node lat="60.99347499947205" lon="11.201072227994114" id="-35739">
		<tag k="name" v="Mørkholmbekken" />
		<tag k="ssr:stedsnr" v="605126" />
		<tag k="waterway" v="stream" />
	</node>
	<node lat="60.794419447642426" lon="11.078625004201287" id="-35740">
		<tag k="amenity" v="townhall" />
		<tag k="name" v="Hamar rådhus" />
		<tag k="ssr:stedsnr" v="771086" />
	</node>
	<node lat="60.822494443007514" lon="11.035619448719638" id="-35741">
		<tag k="name" v="Heimdal" />
		<tag k="place" v="farm" />
		<tag k="ssr:stedsnr" v="688048" />
	</node>
	<node lat="61.0991250023257" lon="11.06574999869372" id="-35742">
		<tag k="historic" v="shieling" />
		<tag k="name" v="Bolsdalen" />
		<tag k="place" v="isolated_dwelling" />
		<tag k="ssr:stedsnr" v="614504" />
	</node>
	<node lat="60.940402777765755" lon="11.148991664641096" id="-35743">
		<tag k="name" v="Svartdalsbekken" />
		<tag k="ssr:stedsnr" v="615608" />
		<tag k="waterway" v="stream" />
	</node>
	<node lat="60.833885482153555" lon="11.191465180610123" id="-35744">
		<tag k="name" v="Oppsal" />
		<tag k="place" v="farm" />
		<tag k="ssr:stedsnr" v="615770" />
	</node>
	<node lat="60.82785738042863" lon="11.078983917519766" id="-35745">
		<tag k="name" v="Snarud" />
		<tag k="place" v="farm" />
		<tag k="ssr:stedsnr" v="616410" />
	</node>
	<node lat="60.82114999782202" lon="11.050600000102646" id="-35746">
		<tag k="alt_name" v="Alu, østre" />
		<tag k="name" v="Østre Alu" />
		<tag k="place" v="farm" />
		<tag k="ssr:stedsnr" v="616419" />
	</node>
	<node lat="60.94265833700906" lon="11.202716669102507" id="-35747">
		<tag k="fixme" v="consider natural=peak for the most distinct mountains in the district" />
		<tag k="name" v="Stenfjellet" />
		<tag k="natural" v="hill" />
		<tag k="place" v="locality" />
		<tag k="ssr:stedsnr" v="616557" />
	</node>
	<node lat="60.846972220006556" lon="11.200838884051922" id="-35749">
		<tag k="name" v="Slemsrud" />
		<tag k="place" v="quarter" />
		<tag k="ssr:stedsnr" v="692400" />
	</node>
	<node lat="60.779808809547994" lon="11.22320882226921" id="-35750">
		<tag k="name" v="Skaubo" />
		<tag k="place" v="farm" />
		<tag k="ssr:stedsnr" v="646186" />
	</node>
	<node lat="60.87090588909173" lon="11.253445277676228" id="-35751">
		<tag k="name" v="Tømmerholen" />
		<tag k="place" v="farm" />
		<tag k="ssr:stedsnr" v="647039" />
	</node>
	<node lat="60.89688061107372" lon="11.224188575282158" id="-35752">
		<tag k="name" v="Øvre Vollen" />
		<tag k="place" v="farm" />
		<tag k="ssr:stedsnr" v="647117" />
	</node>
	<node lat="60.7985055526087" lon="11.187213879848603" id="-35753">
		<tag k="name" v="Vestre Hanum" />
		<tag k="place" v="farm" />
		<tag k="ssr:stedsnr" v="647513" />
	</node>
	<node lat="60.80976944851794" lon="11.143816660221496" id="-35754">
		<tag k="name" v="Enhagan" />
		<tag k="place" v="farm" />
		<tag k="ssr:stedsnr" v="647644" />
	</node>
	<node lat="60.80548888731456" lon="11.057294435355074" id="-35755">
		<tag k="amenity" v="school" />
		<tag k="name" v="Ajer ungdomssskole" />
		<tag k="ssr:stedsnr" v="648459" />
	</node>
	<node lat="60.856819444123204" lon="11.139633339099806" id="-35756">
		<tag k="name" v="Nedre Dalby" />
		<tag k="place" v="farm" />
		<tag k="ssr:stedsnr" v="648614" />
	</node>
	<node lat="60.84511944573536" lon="11.21277499396164" id="-35757">
		<tag k="name" v="Østre Kartomten" />
		<tag k="place" v="farm" />
		<tag k="ssr:stedsnr" v="694444" />
	</node>
	<node lat="60.83233461697882" lon="11.102446198696846" id="-35758">
		<tag k="bridge" v="yes" />
		<tag k="layer" v="1" />
		<tag k="name" v="Imerslund bru" />
		<tag k="ssr:stedsnr" v="653540" />
	</node>
	<node lat="60.82739444695037" lon="11.171383338024768" id="-35760">
		<tag k="name" v="Holstad" />
		<tag k="place" v="farm" />
		<tag k="ssr:stedsnr" v="662591" />
	</node>
	<node lat="60.78118611336403" lon="11.204730561148724" id="-35761">
		<tag k="name" v="Holm" />
		<tag k="place" v="farm" />
		<tag k="ssr:stedsnr" v="663212" />
	</node>
	<node lat="60.923799998304204" lon="11.207972216936247" id="-35762">
		<tag k="name" v="Lageråkvislhøgda" />
		<tag k="natural" v="hill" />
		<tag k="place" v="locality" />
		<tag k="ssr:stedsnr" v="666087" />
	</node>
	<node lat="61.15905277439972" lon="11.014013890844042" id="-35763">
		<tag k="name" v="Godbakka" />
		<tag k="natural" v="slope" />
		<tag k="place" v="locality" />
		<tag k="ssr:stedsnr" v="675557" />
	</node>
	<node lat="60.91282500301867" lon="11.148725007504545" id="-35764">
		<tag k="name" v="Brannmyra" />
		<tag k="natural" v="wetland" />
		<tag k="ssr:stedsnr" v="676614" />
	</node>
	<node lat="60.861777594437754" lon="11.251823821245559" id="-35765">
		<tag k="name" v="Alderslyst" />
		<tag k="place" v="farm" />
		<tag k="ssr:stedsnr" v="676740" />
	</node>
	<node lat="60.97640000342485" lon="11.201199992056091" id="-35766">
		<tag k="name" v="Grønbekken" />
		<tag k="ssr:stedsnr" v="677522" />
		<tag k="waterway" v="stream" />
	</node>
	<node lat="60.80834529524647" lon="11.09888257479932" id="-35767">
		<tag k="name" v="Kluke" />
		<tag k="place" v="farm" />
		<tag k="ssr:stedsnr" v="677849" />
	</node>
	<node lat="60.84484999617994" lon="11.26770000574961" id="-35768">
		<tag k="name" v="Lillehagen" />
		<tag k="place" v="farm" />
		<tag k="ssr:stedsnr" v="677783" />
	</node>
	<node lat="60.79527500089733" lon="11.11345277951705" id="-35769">
		<tag k="name" v="Åkersvika" />
		<tag k="natural" v="bay" />
		<tag k="ssr:stedsnr" v="677916" />
	</node>
	<node lat="61.11963888592696" lon="11.053766661005398" id="-35770">
		<tag k="fixme" v="consider tourism=alpine_hut or tourism=chalet" />
		<tag k="name" v="Halgutusveen" />
		<tag k="old_name" v="Hallgutusvea" />
		<tag k="ssr:stedsnr" v="693633" />
		<tag k="tourism" v="wilderness_hut" />
	</node>
	<node lat="60.81028333584311" lon="11.081263888187598" id="-35771">
		<tag k="name" v="Gamle Klukstuen" />
		<tag k="place" v="isolated_dwelling" />
		<tag k="ssr:stedsnr" v="885727" />
	</node>
	<node lat="60.817641667810896" lon="11.22926110393523" id="-35772">
		<tag k="name" v="Ingvoldstadhagan" />
		<tag k="place" v="locality" />
		<tag k="ssr:stedsnr" v="886647" />
	</node>
	<node lat="60.79305555457237" lon="11.123947219803867" id="-35774">
		<tag k="name" v="Kråkholmen" />
		<tag k="place" v="islet" />
		<tag k="ssr:stedsnr" v="708526" />
	</node>
	<node lat="60.80470555714691" lon="11.179899991904161" id="-35775">
		<tag k="name" v="Skurdal" />
		<tag k="place" v="farm" />
		<tag k="ssr:stedsnr" v="708596" />
	</node>
	<node lat="61.05556111289586" lon="11.185955555754168" id="-35776">
		<tag k="name" v="Brennsætermyra" />
		<tag k="natural" v="wetland" />
		<tag k="ssr:stedsnr" v="709139" />
	</node>
	<node lat="60.959561112498086" lon="11.172525003989028" id="-35777">
		<tag k="name" v="Krakholsbekken" />
		<tag k="ssr:stedsnr" v="709384" />
		<tag k="waterway" v="stream" />
	</node>
	<node lat="60.79834722300551" lon="11.053938895188184" id="-35778">
		<tag k="name" v="Stormyra" />
		<tag k="place" v="neighbourhood" />
		<tag k="ssr:stedsnr" v="709482" />
	</node>
	<node lat="60.87702616172721" lon="11.120194994397021" id="-35779">
		<tag k="name" v="Lier" />
		<tag k="place" v="farm" />
		<tag k="ssr:stedsnr" v="709784" />
	</node>
	<node lat="61.09777222128813" lon="11.067405548999828" id="-35781">
		<tag k="name" v="Nybolsdalen" />
		<tag k="place" v="isolated_dwelling" />
		<tag k="ssr:stedsnr" v="722208" />
	</node>
	<node lat="61.02737778019119" lon="11.212386107680054" id="-35782">
		<tag k="name" v="Krokåsen" />
		<tag k="natural" v="hill" />
		<tag k="place" v="locality" />
		<tag k="ssr:stedsnr" v="723110" />
	</node>
	<node lat="60.8914499993869" lon="11.112991668035848" id="-35783">
		<tag k="name" v="Granstua" />
		<tag k="place" v="farm" />
		<tag k="ssr:stedsnr" v="889541" />
	</node>
	<node lat="60.86218611496009" lon="11.259916665827879" id="-35784">
		<tag k="name" v="Sveen" />
		<tag k="place" v="farm" />
		<tag k="ssr:stedsnr" v="723095" />
	</node>
	<node lat="61.06985555144667" lon="11.181255551381652" id="-35785">
		<tag k="name" v="Jomfrudalshellinga" />
		<tag k="natural" v="slope" />
		<tag k="place" v="locality" />
		<tag k="ssr:stedsnr" v="724109" />
	</node>
	<node lat="60.80573611175753" lon="11.055313887144802" id="-35786">
		<tag k="amenity" v="school" />
		<tag k="name" v="Hamar katedralskole" />
		<tag k="ssr:stedsnr" v="890482" />
	</node>
	<node lat="60.79601666889296" lon="11.182750007932176" id="-35787">
		<tag k="name" v="Nygård" />
		<tag k="place" v="farm" />
		<tag k="ssr:stedsnr" v="890545" />
	</node>
	<node lat="60.796186114058116" lon="11.077158337285287" id="-35788">
		<tag k="name" v="Holset" />
		<tag k="place" v="suburb" />
		<tag k="ssr:stedsnr" v="890581" />
	</node>
	<node lat="60.79378888696482" lon="11.074302777224215" id="-35789">
		<tag k="name" v="Østre Torg" />
		<tag k="place" v="square" />
		<tag k="ssr:stedsnr" v="890586" />
	</node>
	<node lat="60.812336108472316" lon="11.146916658363129" id="-35790">
		<tag k="amenity" v="nursing_home" />
		<tag k="name" v="Kåtorp bo- og aktivitetssenter" />
		<tag k="old_name" v="Kåtorp pensjonistsenter" />
		<tag k="ssr:stedsnr" v="890647" />
	</node>
	<node lat="60.875580553993856" lon="11.118077781462508" id="-35791">
		<tag k="name" v="Lierberget" />
		<tag k="natural" v="slope" />
		<tag k="place" v="locality" />
		<tag k="ssr:stedsnr" v="890699" />
	</node>
	<node lat="60.86623888608065" lon="11.224161118604727" id="-35792">
		<tag k="name" v="Nordbryn" />
		<tag k="place" v="farm" />
		<tag k="ssr:stedsnr" v="891074" />
	</node>
	<node lat="60.88644722108289" lon="11.22232221535517" id="-35793">
		<tag k="name" v="Øverhagen" />
		<tag k="place" v="farm" />
		<tag k="ssr:stedsnr" v="891080" />
	</node>
	<node lat="60.899369447195035" lon="11.133133341714597" id="-35794">
		<tag k="name" v="Styggmyra" />
		<tag k="natural" v="wetland" />
		<tag k="ssr:stedsnr" v="891472" />
	</node>
	<node lat="60.924597223750254" lon="11.155969450581521" id="-35795">
		<tag k="name" v="Stormyrbrakka" />
		<tag k="place" v="isolated_dwelling" />
		<tag k="ssr:stedsnr" v="891479" />
	</node>
	<node lat="60.79479721915206" lon="11.036322221263092" id="-35796">
		<tag k="name" v="Rosenlundvika" />
		<tag k="natural" v="bay" />
		<tag k="ssr:stedsnr" v="891500" />
	</node>
	<node lat="61.027031976491024" lon="11.114015453509891" id="-35797">
		<tag k="name" v="Brumundsjøen" />
		<tag k="natural" v="water" />
		<tag k="ssr:stedsnr" v="735290" />
		<tag k="water" v="lake" />
	</node>
	<node lat="61.09307777662042" lon="11.051183332987685" id="-35798">
		<tag k="name" v="Hanaknebekken" />
		<tag k="ssr:stedsnr" v="735486" />
		<tag k="waterway" v="stream" />
	</node>
	<node lat="60.91489999929142" lon="11.117775003253563" id="-35799">
		<tag k="name" v="Vesterhaug" />
		<tag k="place" v="isolated_dwelling" />
		<tag k="ssr:stedsnr" v="737614" />
	</node>
	<node lat="60.89993055423813" lon="11.128325002627697" id="-35800">
		<tag k="fixme" v="consider natural=peak for the most distinct mountains in the district" />
		<tag k="name" v="Rognåsen" />
		<tag k="natural" v="hill" />
		<tag k="place" v="locality" />
		<tag k="ssr:stedsnr" v="737626" />
	</node>
	<node lat="60.86547799845688" lon="11.200396026722535" id="-35801">
		<tag k="alt_name" v="Rydningstad" />
		<tag k="name" v="Rønningstad" />
		<tag k="place" v="farm" />
		<tag k="ssr:stedsnr" v="737703" />
	</node>
	<node lat="60.85444166720877" lon="11.218713892628601" id="-35802">
		<tag k="name" v="Midtskogen" />
		<tag k="place" v="farm" />
		<tag k="ssr:stedsnr" v="737716" />
	</node>
	<node lat="60.85600833749781" lon="11.1841305566573" id="-35803">
		<tag k="name" v="Ilstad" />
		<tag k="place" v="farm" />
		<tag k="ssr:stedsnr" v="737718" />
	</node>
	<node lat="60.78804312996162" lon="11.200708420014147" id="-35804">
		<tag k="name" v="Dalfarmen" />
		<tag k="place" v="farm" />
		<tag k="ssr:stedsnr" v="737905" />
	</node>
	<node lat="60.82951110472066" lon="11.18758311788492" id="-35805">
		<tag k="name" v="Dæli" />
		<tag k="place" v="farm" />
		<tag k="ssr:stedsnr" v="737809" />
	</node>
	<node lat="60.90484721780398" lon="11.126866671348328" id="-35806">
		<tag k="name" v="Kubekken" />
		<tag k="ssr:stedsnr" v="748215" />
		<tag k="waterway" v="stream" />
	</node>
	<node lat="60.835477892464496" lon="11.261055927838031" id="-35807">
		<tag k="name" v="Østre Arnset" />
		<tag k="place" v="farm" />
		<tag k="ssr:stedsnr" v="748808" />
	</node>
	<node lat="60.9011083355869" lon="11.207741671456365" id="-35808">
		<tag k="amenity" v="cafe" />
		<tag k="name" v="Gåsbu" />
		<tag k="ssr:stedsnr" v="753009" />
	</node>
	<node lat="60.853936111983764" lon="11.197013897762757" id="-35810">
		<tag k="name" v="Nybakken" />
		<tag k="place" v="farm" />
		<tag k="ssr:stedsnr" v="768049" />
	</node>
	<node lat="60.8151472250651" lon="11.104288895937728" id="-35811">
		<tag k="name" v="Broberg" />
		<tag k="place" v="farm" />
		<tag k="ssr:stedsnr" v="768624" />
	</node>
	<node lat="61.003394440155446" lon="11.129263892737166" id="-35812">
		<tag k="name" v="Kjeltåsberget" />
		<tag k="natural" v="hill" />
		<tag k="place" v="locality" />
		<tag k="ssr:stedsnr" v="768904" />
	</node>
	<node lat="60.851805554662405" lon="11.105333329607562" id="-35813">
		<tag k="name" v="Knausen" />
		<tag k="place" v="farm" />
		<tag k="ssr:stedsnr" v="768850" />
	</node>
	<node lat="61.0197916625309" lon="11.185047224253264" id="-35814">
		<tag k="historic" v="shieling" />
		<tag k="name" v="Skoglykkja" />
		<tag k="place" v="locality" />
		<tag k="ssr:stedsnr" v="769123" />
	</node>
	<node lat="61.0282305597959" lon="11.14528610734012" id="-35815">
		<tag k="name" v="Gutåskjølen" />
		<tag k="natural" v="wetland" />
		<tag k="ssr:stedsnr" v="769126" />
	</node>
	<node lat="60.80101883901591" lon="11.238580693358344" id="-35816">
		<tag k="alt_name" v="Falls bru" />
		<tag k="bridge" v="yes" />
		<tag k="layer" v="1" />
		<tag k="name" v="Falsbrua" />
		<tag k="ssr:stedsnr" v="777275" />
	</node>
	<node lat="60.990163889106164" lon="11.224491665057062" id="-35817">
		<tag k="name" v="Killingkjølen" />
		<tag k="natural" v="wetland" />
		<tag k="ssr:stedsnr" v="899497" />
	</node>
	<node lat="60.833777779198066" lon="11.142880564217037" id="-35818">
		<tag k="name" v="Bekkevoll" />
		<tag k="place" v="farm" />
		<tag k="ssr:stedsnr" v="783564" />
	</node>
	<node lat="60.83587983135511" lon="11.163774473022237" id="-35819">
		<tag k="name" v="Maurud" />
		<tag k="place" v="farm" />
		<tag k="ssr:stedsnr" v="783565" />
	</node>
	<node lat="61.06971111198267" lon="11.169980560382148" id="-35820">
		<tag k="fixme" v="consider tourism=alpine_hut or tourism=chalet" />
		<tag k="name" v="Sandfløten" />
		<tag k="ssr:stedsnr" v="796258" />
		<tag k="tourism" v="wilderness_hut" />
	</node>
	<node lat="61.10232499747259" lon="11.080025008652214" id="-35821">
		<tag k="name" v="Svarttjernet" />
		<tag k="natural" v="water" />
		<tag k="ssr:stedsnr" v="796513" />
	</node>
	<node lat="61.09202500400322" lon="11.004761116883513" id="-35822">
		<tag k="name" v="Prestsæterbekken" />
		<tag k="ssr:stedsnr" v="796517" />
		<tag k="waterway" v="stream" />
	</node>
	<node lat="61.12240000043968" lon="11.008263895419548" id="-35823">
		<tag k="name" v="Kittilåa" />
		<tag k="ssr:stedsnr" v="796519" />
		<tag k="waterway" v="stream" />
	</node>
	<node lat="60.96150000010844" lon="11.12467499814655" id="-35824">
		<tag k="name" v="Haugsæterbekken" />
		<tag k="ssr:stedsnr" v="798546" />
		<tag k="waterway" v="stream" />
	</node>
	<node lat="60.91180000175178" lon="11.18250277397035" id="-35825">
		<tag k="alt_name" v="Gåsbuelva" />
		<tag k="name" v="Gåsbubekken" />
		<tag k="ssr:stedsnr" v="798572" />
		<tag k="waterway" v="stream" />
	</node>
	<node lat="60.858399999305966" lon="11.18786111189094" id="-35826">
		<tag k="name" v="Rustad" />
		<tag k="place" v="farm" />
		<tag k="ssr:stedsnr" v="798705" />
	</node>
	<node lat="60.84460000138824" lon="11.126205561645152" id="-35827">
		<tag k="name" v="Vestvoll" />
		<tag k="place" v="farm" />
		<tag k="ssr:stedsnr" v="798719" />
	</node>
	<node lat="60.84813390836246" lon="11.101907790365532" id="-35828">
		<tag k="name" v="Vennkvern" />
		<tag k="place" v="farm" />
		<tag k="ssr:stedsnr" v="798723" />
	</node>
	<node lat="60.841900123113916" lon="11.150758546813398" id="-35829">
		<tag k="name" v="Nordre Tomter" />
		<tag k="place" v="farm" />
		<tag k="ssr:stedsnr" v="798726" />
	</node>
	<node lat="60.87474722121367" lon="11.189719436792737" id="-35830">
		<tag k="name" v="Skogen" />
		<tag k="place" v="farm" />
		<tag k="ssr:stedsnr" v="798651" />
	</node>
	<node lat="60.88066944864265" lon="11.132338891795854" id="-35831">
		<tag k="name" v="Berg" />
		<tag k="place" v="farm" />
		<tag k="ssr:stedsnr" v="798654" />
	</node>
	<node lat="60.80450278177829" lon="11.101386107422297" id="-35832">
		<tag k="name" v="Børstad" />
		<tag k="place" v="farm" />
		<tag k="ssr:stedsnr" v="798806" />
	</node>
	<node lat="60.80799944261361" lon="11.152010404302226" id="-35833">
		<tag k="name" v="Ry" />
		<tag k="place" v="farm" />
		<tag k="ssr:stedsnr" v="798808" />
	</node>
	<node lat="60.8827444423208" lon="11.178383340657112" id="-35834">
		<tag k="name" v="Øvre Kirkeby" />
		<tag k="place" v="locality" />
		<tag k="ssr:stedsnr" v="905378" />
	</node>
	<node lat="60.84174444352433" lon="11.157863890964764" id="-35836">
		<tag k="name" v="Holmsveen" />
		<tag k="place" v="farm" />
		<tag k="ssr:stedsnr" v="905579" />
	</node>
	<node lat="60.83152222306385" lon="11.155536102600811" id="-35837">
		<tag k="name" v="Øverli" />
		<tag k="place" v="farm" />
		<tag k="ssr:stedsnr" v="905587" />
	</node>
	<node lat="61.03058333487654" lon="11.199319445497474" id="-35838">
		<tag k="name" v="Kroktjernet" />
		<tag k="natural" v="water" />
		<tag k="ssr:stedsnr" v="906089" />
	</node>
	<node lat="60.80126944061529" lon="11.130499994993498" id="-35839">
		<tag k="alt_name" v="Åker" />
		<tag k="name" v="Ridabu" />
		<tag k="place" v="village" />
		<tag k="ssr:stedsnr" v="811990" />
	</node>
	<node lat="60.82537500265148" lon="11.114666670802785" id="-35840">
		<tag k="name" v="Østre Imerslund" />
		<tag k="place" v="farm" />
		<tag k="ssr:stedsnr" v="811991" />
	</node>
	<node lat="60.975324998382455" lon="11.11638332571647" id="-35842">
		<tag k="name" v="Jønnhatten" />
		<tag k="natural" v="hill" />
		<tag k="place" v="locality" />
		<tag k="ssr:stedsnr" v="907872" />
	</node>
	<node lat="61.112599997478014" lon="11.099599991827954" id="-35843">
		<tag k="name" v="Børstadvollbekken" />
		<tag k="ssr:stedsnr" v="907939" />
		<tag k="waterway" v="stream" />
	</node>
	<node lat="61.11619166933182" lon="11.079422220040508" id="-35844">
		<tag k="name" v="Dansemyrene" />
		<tag k="natural" v="wetland" />
		<tag k="ssr:stedsnr" v="907946" />
	</node>
	<node lat="60.84927222301784" lon="11.19081945049917" id="-35845">
		<tag k="name" v="Bekkelund" />
		<tag k="place" v="farm" />
		<tag k="ssr:stedsnr" v="829021" />
	</node>
	<node lat="60.8509472237845" lon="11.204363887891885" id="-35846">
		<tag k="name" v="Elvsrud" />
		<tag k="place" v="farm" />
		<tag k="ssr:stedsnr" v="829026" />
	</node>
	<node lat="60.799702775002494" lon="11.12166389665546" id="-35847">
		<tag k="name" v="Åker gård" />
		<tag k="place" v="farm" />
		<tag k="ssr:stedsnr" v="829515" />
	</node>
	<node lat="60.864180556728776" lon="11.111886101986984" id="-35848">
		<tag k="name" v="Holmen" />
		<tag k="place" v="isolated_dwelling" />
		<tag k="ssr:stedsnr" v="829681" />
	</node>
	<node lat="60.79253055820904" lon="11.071113881272023" id="-35849">
		<tag k="man_made" v="quay" />
		<tag k="name" v="Brygga" />
		<tag k="place" v="locality" />
		<tag k="ssr:stedsnr" v="829565" />
	</node>
	<node lat="60.893411112303866" lon="11.107966667751365" id="-35850">
		<tag k="name" v="Gilehagan" />
		<tag k="place" v="locality" />
		<tag k="ssr:stedsnr" v="829570" />
	</node>
	<node lat="60.881822744608314" lon="11.218634457921729" id="-35851">
		<tag k="name" v="Stenbergrønningen" />
		<tag k="place" v="farm" />
		<tag k="ssr:stedsnr" v="830068" />
	</node>
	<node lat="60.840297225520445" lon="11.208636116719525" id="-35852">
		<tag k="name" v="Granheim" />
		<tag k="place" v="farm" />
		<tag k="ssr:stedsnr" v="831245" />
	</node>
	<node lat="60.80259166483112" lon="11.038880563560857" id="-35853">
		<tag k="name" v="Jønsrudløkka" />
		<tag k="place" v="suburb" />
		<tag k="ssr:stedsnr" v="831441" />
	</node>
	<node lat="60.817211114909085" lon="11.010299998407225" id="-35854">
		<tag k="name" v="Furuberget" />
		<tag k="natural" v="hill" />
		<tag k="place" v="locality" />
		<tag k="ssr:stedsnr" v="831442" />
	</node>
	<node lat="60.818358609282235" lon="11.105177157168203" id="-35855">
		<tag k="name" v="Flagstad" />
		<tag k="place" v="farm" />
		<tag k="ssr:stedsnr" v="832283" />
	</node>
	<node lat="60.80639947628391" lon="11.146748602053345" id="-35856">
		<tag k="bridge" v="yes" />
		<tag k="layer" v="1" />
		<tag k="name" v="Sagbekk bru" />
		<tag k="ssr:stedsnr" v="835590" />
	</node>
	<node lat="61.10812500416722" lon="11.061547230733346" id="-35857">
		<tag k="highway" v="path" />
		<tag k="name" v="Laddvavegen" />
		<tag k="ssr:stedsnr" v="844182" />
	</node>
	<node lat="61.108847223810464" lon="11.070308330010045" id="-35858">
		<tag k="name" v="Kjæringbekken" />
		<tag k="ssr:stedsnr" v="844183" />
		<tag k="waterway" v="stream" />
	</node>
	<node lat="61.09487777525925" lon="11.072194448872906" id="-35859">
		<tag k="name" v="Skjæritbekken" />
		<tag k="ssr:stedsnr" v="844187" />
		<tag k="waterway" v="stream" />
	</node>
	<node lat="61.08477222515082" lon="11.054366671376393" id="-35860">
		<tag k="name" v="Stellmyra" />
		<tag k="natural" v="wetland" />
		<tag k="ssr:stedsnr" v="844189" />
	</node>
	<node lat="61.10098611003425" lon="11.049066663333305" id="-35861">
		<tag k="name" v="Prestsæterholmen" />
		<tag k="place" v="locality" />
		<tag k="ssr:stedsnr" v="844194" />
	</node>
	<node lat="61.098000002011084" lon="11.106247230181827" id="-35862">
		<tag k="name" v="Nygardshytta" />
		<tag k="place" v="locality" />
		<tag k="ssr:stedsnr" v="844879" />
	</node>
	<node lat="60.89788333559764" lon="11.156283339389132" id="-35863">
		<tag k="name" v="Ålsberghøgda" />
		<tag k="natural" v="hill" />
		<tag k="place" v="locality" />
		<tag k="ssr:stedsnr" v="845475" />
	</node>
	<node lat="60.89452222369027" lon="11.180613893527651" id="-35864">
		<tag k="name" v="Lundmarka" />
		<tag k="place" v="locality" />
		<tag k="ssr:stedsnr" v="845479" />
	</node>
	<node lat="61.08159999610257" lon="11.16828888364091" id="-35865">
		<tag k="name" v="Kattugldalen" />
		<tag k="natural" v="valley" />
		<tag k="place" v="locality" />
		<tag k="ssr:stedsnr" v="845936" />
	</node>
	<node lat="61.12018055912232" lon="11.080841664742673" id="-35866">
		<tag k="name" v="Morgenvollkoia" />
		<tag k="place" v="isolated_dwelling" />
		<tag k="ssr:stedsnr" v="846925" />
	</node>
	<node lat="60.931644444750106" lon="11.215211114448095" id="-35867">
		<tag k="landuse" v="meadow" />
		<tag k="name" v="Bjørkvollene" />
		<tag k="ssr:stedsnr" v="848076" />
	</node>
	<node lat="60.896230557761285" lon="11.237011108780148" id="-35868">
		<tag k="name" v="Vollkoia" />
		<tag k="place" v="isolated_dwelling" />
		<tag k="ssr:stedsnr" v="859616" />
	</node>
	<node lat="60.85921111272153" lon="11.137602787078643" id="-35869">
		<tag k="name" v="Nordby" />
		<tag k="place" v="farm" />
		<tag k="ssr:stedsnr" v="859665" />
	</node>
	<node lat="60.864874996564076" lon="11.128549991146933" id="-35870">
		<tag k="name" v="Torsgårdsbekken" />
		<tag k="ssr:stedsnr" v="859669" />
		<tag k="waterway" v="stream" />
	</node>
	<node lat="60.81417499699463" lon="11.239294448691368" id="-35871">
		<tag k="name" v="Volla" />
		<tag k="place" v="farm" />
		<tag k="ssr:stedsnr" v="859806" />
	</node>
	<node lat="60.8552583321331" lon="11.179608336200381" id="-35872">
		<tag k="name" v="Skålerudengen" />
		<tag k="old_name" v="Sandnes" />
		<tag k="place" v="farm" />
		<tag k="ssr:stedsnr" v="859709" />
	</node>
	<node lat="60.861072222448705" lon="11.162266664991419" id="-35873">
		<tag k="alt_name" v="Høgli" />
		<tag k="name" v="Høglund" />
		<tag k="place" v="farm" />
		<tag k="ssr:stedsnr" v="859721" />
	</node>
	<node lat="60.83692777607126" lon="11.119608326134296" id="-35874">
		<tag k="name" v="Myrheim" />
		<tag k="place" v="farm" />
		<tag k="ssr:stedsnr" v="859765" />
	</node>
	<node lat="60.83469722298652" lon="11.120938892190424" id="-35875">
		<tag k="name" v="Rydland" />
		<tag k="place" v="farm" />
		<tag k="ssr:stedsnr" v="859766" />
	</node>
	<node lat="60.837386753858446" lon="11.187451221306482" id="-35876">
		<tag k="name" v="Kjøs" />
		<tag k="place" v="farm" />
		<tag k="ssr:stedsnr" v="859767" />
	</node>
	<node lat="60.83463333275083" lon="11.188730556539522" id="-35877">
		<tag k="name" v="Vesle Oppsal" />
		<tag k="place" v="farm" />
		<tag k="ssr:stedsnr" v="859768" />
	</node>
	<node lat="60.804066671176635" lon="11.066224995657233" id="-35878">
		<tag k="amenity" v="sports_centre" />
		<tag k="name" v="Ankerskogen svømmehall og idrettspark" />
		<tag k="ssr:stedsnr" v="872322" />
	</node>
	<node lat="61.05084444479142" lon="11.204630549239502" id="-35879">
		<tag k="fixme" v="consider natural=peak for the most distinct mountains in the district" />
		<tag k="name" v="Brennsæteråsen" />
		<tag k="natural" v="hill" />
		<tag k="place" v="locality" />
		<tag k="ssr:stedsnr" v="917244" />
	</node>
	<node lat="61.104561109954886" lon="11.057149996416484" id="-35880">
		<tag k="name" v="Bringbusætra" />
		<tag k="place" v="hamlet" />
		<tag k="ssr:stedsnr" v="917488" />
	</node>
	<node lat="60.91254722116689" lon="11.103997216305638" id="-35882">
		<tag k="name" v="Vakkerholmdalen" />
		<tag k="natural" v="valley" />
		<tag k="place" v="locality" />
		<tag k="ssr:stedsnr" v="889236" />
	</node>
	<node lat="60.92753888686078" lon="11.108877777369047" id="-35883">
		<tag k="name" v="Gråbendalsbekken" />
		<tag k="ssr:stedsnr" v="889239" />
		<tag k="waterway" v="stream" />
	</node>
	<node lat="60.92351666854576" lon="11.093488891649077" id="-35884">
		<tag k="highway" v="path" />
		<tag k="name" v="Bjørsætervegen" />
		<tag k="ssr:stedsnr" v="889241" />
	</node>
	<node lat="60.80828611146199" lon="11.141372213177917" id="-35885">
		<tag k="name" v="Listua" />
		<tag k="place" v="farm" />
		<tag k="ssr:stedsnr" v="890664" />
	</node>
	<node lat="60.79983333185733" lon="11.163116658165059" id="-35886">
		<tag k="name" v="Frognertjernet" />
		<tag k="natural" v="water" />
		<tag k="old_name" v="Frogntjernet" />
		<tag k="ssr:stedsnr" v="890552" />
	</node>
	<node lat="60.87590154311056" lon="11.236948333426412" id="-35887">
		<tag k="name" v="Holenbakken" />
		<tag k="place" v="farm" />
		<tag k="ssr:stedsnr" v="891070" />
	</node>
	<node lat="60.899783333274456" lon="11.217666669172129" id="-35888">
		<tag k="name" v="Østeråskoia" />
		<tag k="place" v="isolated_dwelling" />
		<tag k="ssr:stedsnr" v="891109" />
	</node>
	<node lat="60.797990527033406" lon="11.10334326209325" id="-35889">
		<tag k="bridge" v="yes" />
		<tag k="layer" v="1" />
		<tag k="name" v="Disen bru" />
		<tag k="ssr:stedsnr" v="896603" />
	</node>
	<node lat="60.811736110705304" lon="11.093044446629568" id="-35890">
		<tag k="bridge" v="yes" />
		<tag k="layer" v="1" />
		<tag k="name" v="Vektbakken" />
		<tag k="ssr:stedsnr" v="896619" />
	</node>
	<node lat="61.07215555896625" lon="11.07937222138903" id="-35891">
		<tag k="name" v="Navnløstjernet" />
		<tag k="natural" v="water" />
		<tag k="ssr:stedsnr" v="905874" />
	</node>
	<node lat="61.07037777948119" lon="11.101966659620503" id="-35892">
		<tag k="landuse" v="meadow" />
		<tag k="name" v="Tredvevollen" />
		<tag k="ssr:stedsnr" v="905875" />
	</node>
	<node lat="60.94919444666885" lon="11.12799999437489" id="-35893">
		<tag k="name" v="Kræggerud" />
		<tag k="place" v="isolated_dwelling" />
		<tag k="ssr:stedsnr" v="908263" />
	</node>
	<node lat="60.94112222001701" lon="11.123119443302537" id="-35894">
		<tag k="name" v="Tørbustilfallene" />
		<tag k="natural" v="waterfall" />
		<tag k="ssr:stedsnr" v="908265" />
	</node>
	<node lat="60.793061115318885" lon="11.11332223117903" id="-35895">
		<tag k="fixme" v="consider boundary=protected_area and relevant protect_class if not nature reserve" />
		<tag k="leisure" v="nature_reserve" />
		<tag k="name" v="Åkersvika naturreservat" />
		<tag k="ssr:stedsnr" v="909571" />
	</node>
	<node lat="61.07214721912338" lon="11.13904166077443" id="-35896">
		<tag k="name" v="Ingridsbekken" />
		<tag k="ssr:stedsnr" v="917226" />
		<tag k="waterway" v="stream" />
	</node>
	<node lat="61.018419442996695" lon="11.161533341644438" id="-35897">
		<tag k="name" v="Brumundkampen" />
		<tag k="natural" v="hill" />
		<tag k="place" v="locality" />
		<tag k="ssr:stedsnr" v="917260" />
	</node>
	<node lat="61.09951814708753" lon="11.084143904145174" id="-35898">
		<tag k="name" v="Øya" />
		<tag k="place" v="farm" />
		<tag k="ssr:stedsnr" v="918558" />
	</node>
	<node lat="60.88098331179187" lon="11.241638673493044" id="-35899">
		<tag k="name" v="Bergset" />
		<tag k="place" v="farm" />
		<tag k="ssr:stedsnr" v="919657" />
	</node>
	<node lat="60.84851047579325" lon="11.21580891473777" id="-35900">
		<tag k="name" v="Moløkka" />
		<tag k="place" v="farm" />
		<tag k="ssr:stedsnr" v="919702" />
	</node>
	<node lat="60.81014722195719" lon="11.219491668277898" id="-35901">
		<tag k="name" v="Smedstua" />
		<tag k="old_name" v="Smedstuen" />
		<tag k="place" v="farm" />
		<tag k="ssr:stedsnr" v="919852" />
	</node>
	<node lat="60.800107015611026" lon="11.15638206580893" id="-35902">
		<tag k="name" v="Hjellum" />
		<tag k="place" v="farm" />
		<tag k="ssr:stedsnr" v="919862" />
	</node>
	<node lat="60.9139416682765" lon="11.115883335305922" id="-35903">
		<tag k="name" v="Kluksæterbekken" />
		<tag k="ssr:stedsnr" v="919601" />
		<tag k="waterway" v="stream" />
	</node>
	<node lat="60.86338888810768" lon="11.263813897375854" id="-35904">
		<tag k="name" v="Åsvestadmoen" />
		<tag k="place" v="locality" />
		<tag k="ssr:stedsnr" v="919726" />
	</node>
	<node lat="60.83151110835885" lon="11.223083340635483" id="-35905">
		<tag k="name" v="Nylende" />
		<tag k="place" v="farm" />
		<tag k="ssr:stedsnr" v="919758" />
	</node>
	<node lat="60.92081111040669" lon="11.096136114827171" id="-35906">
		<tag k="name" v="Gråbendalskoia" />
		<tag k="place" v="isolated_dwelling" />
		<tag k="ssr:stedsnr" v="920627" />
	</node>
	<node lat="60.961172219964084" lon="11.170541669385482" id="-35907">
		<tag k="name" v="Nybubekken" />
		<tag k="ssr:stedsnr" v="931593" />
		<tag k="waterway" v="stream" />
	</node>
	<node lat="60.797913893123244" lon="11.097633339325352" id="-35908">
		<tag k="name" v="Disen" />
		<tag k="place" v="suburb" />
		<tag k="ssr:stedsnr" v="932992" />
	</node>
	<node lat="60.80591143603613" lon="11.13865003727749" id="-35909">
		<tag k="alt_name" v="Gråner" />
		<tag k="name" v="Graner" />
		<tag k="place" v="isolated_dwelling" />
		<tag k="ssr:stedsnr" v="950606" />
	</node>
	<node lat="60.817338885833436" lon="11.142297215765534" id="-35910">
		<tag k="name" v="Solberg" />
		<tag k="place" v="farm" />
		<tag k="ssr:stedsnr" v="950607" />
	</node>
	<node lat="60.81957500111679" lon="11.156313890021236" id="-35911">
		<tag k="name" v="Nedre Skråstad" />
		<tag k="place" v="farm" />
		<tag k="ssr:stedsnr" v="950590" />
	</node>
	<node lat="60.84646944173397" lon="11.223905556092816" id="-35912">
		<tag k="name" v="Solbakken" />
		<tag k="place" v="farm" />
		<tag k="ssr:stedsnr" v="951022" />
	</node>
	<node lat="60.85542777838209" lon="11.223475005500541" id="-35913">
		<tag k="name" v="Libergmoen" />
		<tag k="place" v="locality" />
		<tag k="ssr:stedsnr" v="951024" />
	</node>
	<node lat="60.83483333201654" lon="11.166872227598773" id="-35914">
		<tag k="name" v="Stensrud" />
		<tag k="place" v="farm" />
		<tag k="ssr:stedsnr" v="951033" />
	</node>
	<node lat="61.00898610771707" lon="11.174738890346005" id="-35915">
		<tag k="loc_name" v="Myssmørbakken" />
		<tag k="name" v="Mysmørbakken" />
		<tag k="natural" v="slope" />
		<tag k="place" v="locality" />
		<tag k="ssr:stedsnr" v="951132" />
	</node>
	<node lat="61.037188890907544" lon="11.178305554800836" id="-35916">
		<tag k="name" v="Femmermota" />
		<tag k="natural" v="slope" />
		<tag k="place" v="locality" />
		<tag k="ssr:stedsnr" v="951137" />
	</node>
	<node lat="60.96323055121582" lon="11.133883332459117" id="-35917">
		<tag k="name" v="Bukkhøldammen" />
		<tag k="ssr:stedsnr" v="951507" />
		<tag k="waterway" v="dam" />
	</node>
	<node lat="60.80181111342967" lon="11.064288895653013" id="-35918">
		<tag k="leisure" v="pitch" />
		<tag k="name" v="Greveløkka" />
		<tag k="ssr:stedsnr" v="952452" />
	</node>
	<node lat="60.87714444135341" lon="11.173111105527266" id="-35919">
		<tag k="name" v="Østre Tomterødegården" />
		<tag k="place" v="farm" />
		<tag k="ssr:stedsnr" v="965400" />
	</node>
	<node lat="60.97495833272977" lon="11.100147230091196" id="-35920">
		<tag k="name" v="Søndre Hyttmyra" />
		<tag k="natural" v="wetland" />
		<tag k="ssr:stedsnr" v="967865" />
	</node>
	<node lat="60.981638885342726" lon="11.098949998186574" id="-35921">
		<tag k="name" v="Nordre Hyttmyra" />
		<tag k="natural" v="wetland" />
		<tag k="ssr:stedsnr" v="967866" />
	</node>
	<node lat="60.97436666496412" lon="11.127822221051284" id="-35922">
		<tag k="highway" v="path" />
		<tag k="name" v="Haugsætervegen" />
		<tag k="ssr:stedsnr" v="967868" />
	</node>
	<node lat="60.7915808587042" lon="11.076263626714281" id="-35948">
		<tag k="alt_name" v="Hamar jernbanestasjon" />
		<tag k="name" v="Hamar stasjon" />
		<tag k="railway" v="station" />
		<tag k="ssr:stedsnr" v="989630" />
		<tag k="train" v="yes" />
	</node>
	<node lat="61.06778888559036" lon="11.103877781549299" id="-36084">
		<tag k="name" v="Tredvebekken" />
		<tag k="ssr:stedsnr" v="7267" />
		<tag k="waterway" v="stream" />
	</node>
	<node lat="61.08451111003768" lon="11.122055549856114" id="-36085">
		<tag k="name" v="Godmyrbekken" />
		<tag k="ssr:stedsnr" v="7475" />
		<tag k="waterway" v="stream" />
	</node>
	<node lat="60.82572499916877" lon="11.041186108455245" id="-36086">
		<tag k="name" v="Frøbergsberget" />
		<tag k="natural" v="hill" />
		<tag k="place" v="locality" />
		<tag k="ssr:stedsnr" v="9426" />
	</node>
	<node lat="60.81832981128713" lon="11.080783304908744" id="-36087">
		<tag k="name" v="Stav" />
		<tag k="place" v="farm" />
		<tag k="ssr:stedsnr" v="9430" />
	</node>
	<node lat="60.9027777750115" lon="11.166383327474845" id="-36088">
		<tag k="fixme" v="consider natural=peak for the most distinct mountains in the district" />
		<tag k="name" v="Vangsåsen" />
		<tag k="natural" v="hill" />
		<tag k="place" v="locality" />
		<tag k="ssr:stedsnr" v="9633" />
	</node>
	<node lat="60.87262675272808" lon="11.127033633063455" id="-36089">
		<tag k="name" v="Skjeset" />
		<tag k="place" v="farm" />
		<tag k="ssr:stedsnr" v="9721" />
	</node>
	<node lat="60.797991245385" lon="11.1608674154304" id="-36090">
		<tag k="name" v="Frogner" />
		<tag k="place" v="farm" />
		<tag k="ssr:stedsnr" v="9854" />
	</node>
	<node lat="60.84320555869429" lon="11.256847221404035" id="-36091">
		<tag k="name" v="Nordli" />
		<tag k="place" v="farm" />
		<tag k="ssr:stedsnr" v="9766" />
	</node>
	<node lat="60.838386109844244" lon="11.250305547423418" id="-36092">
		<tag k="name" v="Arnsetbakken" />
		<tag k="old_name" v="Arnsethagen" />
		<tag k="place" v="farm" />
		<tag k="ssr:stedsnr" v="9769" />
	</node>
	<node lat="60.82966051459736" lon="11.181485052762904" id="-36093">
		<tag k="alt_name" v="Søndre Blystad" />
		<tag k="name" v="Blystad" />
		<tag k="place" v="farm" />
		<tag k="ssr:stedsnr" v="9784" />
	</node>
	<node lat="60.98431111331503" lon="11.19633334079674" id="-36094">
		<tag k="name" v="Målifløtene" />
		<tag k="natural" v="wetland" />
		<tag k="ssr:stedsnr" v="9556" />
	</node>
	<node lat="60.95250000214148" lon="11.107605551521853" id="-36095">
		<tag k="name" v="Tørbustilbekken" />
		<tag k="ssr:stedsnr" v="9563" />
		<tag k="waterway" v="stream" />
	</node>
	<node lat="60.89512499643796" lon="11.14617500563933" id="-36096">
		<tag k="name" v="Ålsbergmyra" />
		<tag k="natural" v="wetland" />
		<tag k="ssr:stedsnr" v="9656" />
	</node>
	<node lat="60.88213889035262" lon="11.210544445953447" id="-36097">
		<tag k="historic" v="shieling" />
		<tag k="name" v="Braset" />
		<tag k="place" v="isolated_dwelling" />
		<tag k="ssr:stedsnr" v="9671" />
	</node>
	<node lat="60.81559679239066" lon="11.094825217071572" id="-36098">
		<tag k="name" v="Vien" />
		<tag k="place" v="farm" />
		<tag k="ssr:stedsnr" v="9809" />
	</node>
	<node lat="60.992777775117595" lon="11.130544442568771" id="-36099">
		<tag k="name" v="Langjordmyra" />
		<tag k="natural" v="wetland" />
		<tag k="ssr:stedsnr" v="20208" />
	</node>
	<node lat="60.92557222342943" lon="11.143411110017837" id="-36100">
		<tag k="name" v="Fjelbolsdalsbekken" />
		<tag k="ssr:stedsnr" v="20661" />
		<tag k="waterway" v="stream" />
	</node>
	<node lat="60.821339096710716" lon="11.193865694936122" id="-36101">
		<tag k="name" v="Grubhol" />
		<tag k="place" v="farm" />
		<tag k="ssr:stedsnr" v="27489" />
	</node>
	<node lat="60.817636530479355" lon="11.1050108308217" id="-36102">
		<tag k="name" v="Vestre Flagstad" />
		<tag k="place" v="farm" />
		<tag k="ssr:stedsnr" v="30039" />
	</node>
	<node lat="60.84344722290888" lon="11.186008335708307" id="-36103">
		<tag k="name" v="Vestre Dystvoll" />
		<tag k="place" v="farm" />
		<tag k="ssr:stedsnr" v="30193" />
	</node>
	<node lat="60.88845555947234" lon="11.196255562111526" id="-36105">
		<tag k="name" v="Ormsætra" />
		<tag k="place" v="hamlet" />
		<tag k="ssr:stedsnr" v="36992" />
	</node>
	<node lat="60.85053144945583" lon="11.1976077235042" id="-36107">
		<tag k="name" v="Nordseng" />
		<tag k="place" v="farm" />
		<tag k="ssr:stedsnr" v="40026" />
	</node>
	<node lat="60.79988332894747" lon="11.07552499913648" id="-36108">
		<tag k="name" v="Ankerløkka" />
		<tag k="place" v="suburb" />
		<tag k="ssr:stedsnr" v="40560" />
	</node>
	<node lat="60.78948333159315" lon="11.076405562633072" id="-36109">
		<tag k="name" v="Vesle-Mjøsa" />
		<tag k="natural" v="bay" />
		<tag k="ssr:stedsnr" v="40562" />
	</node>
	<node lat="60.79143623966981" lon="11.080279413097902" id="-36110">
		<tag k="name" v="Hamar skysstasjon" />
		<tag k="railway" v="station" />
		<tag k="ssr:stedsnr" v="40564" />
		<tag k="train" v="yes" />
	</node>
	<node lat="60.80511110961908" lon="11.181944443083896" id="-36111">
		<tag k="name" v="Nyheim" />
		<tag k="place" v="farm" />
		<tag k="ssr:stedsnr" v="40587" />
	</node>
	<node lat="60.79353611259653" lon="11.08011110221872" id="-36112">
		<tag k="amenity" v="nursing_home" />
		<tag k="name" v="Parkgården" />
		<tag k="ssr:stedsnr" v="40476" />
	</node>
	<node lat="60.81822500241806" lon="11.146388887557245" id="-36113">
		<tag k="name" v="Viberg" />
		<tag k="place" v="farm" />
		<tag k="ssr:stedsnr" v="40622" />
	</node>
	<node lat="60.81972356598932" lon="11.125079213798022" id="-36114">
		<tag k="name" v="Skrenten" />
		<tag k="place" v="locality" />
		<tag k="ssr:stedsnr" v="40630" />
	</node>
	<node lat="60.872101692290784" lon="11.22774565195241" id="-36115">
		<tag k="name" v="Åsbakken" />
		<tag k="place" v="farm" />
		<tag k="ssr:stedsnr" v="41040" />
	</node>
	<node lat="60.870552774056364" lon="11.229786114011379" id="-36116">
		<tag k="amenity" v="community_centre" />
		<tag k="name" v="Østås samfunnshus" />
		<tag k="ssr:stedsnr" v="41041" />
	</node>
	<node lat="60.87801666568578" lon="11.223369448201645" id="-36117">
		<tag k="name" v="Sollia" />
		<tag k="place" v="farm" />
		<tag k="ssr:stedsnr" v="41059" />
	</node>
	<node lat="60.93319722630773" lon="11.132130564452524" id="-36118">
		<tag k="name" v="Puttmyrkoia" />
		<tag k="place" v="isolated_dwelling" />
		<tag k="ssr:stedsnr" v="41455" />
	</node>
	<node lat="60.82471666363112" lon="11.198952778831154" id="-36119">
		<tag k="name" v="Grindstua" />
		<tag k="place" v="farm" />
		<tag k="ssr:stedsnr" v="42234" />
	</node>
	<node lat="60.84063545989602" lon="11.213594811136764" id="-36120">
		<tag k="name" v="Nedre Bjørtomten" />
		<tag k="place" v="farm" />
		<tag k="ssr:stedsnr" v="42247" />
	</node>
	<node lat="60.810802777214384" lon="11.049477777225313" id="-36121">
		<tag k="name" v="Bekkesvea" />
		<tag k="place" v="suburb" />
		<tag k="ssr:stedsnr" v="42450" />
	</node>
	<node lat="60.84935000353006" lon="11.170916660746151" id="-36122">
		<tag k="name" v="Lunde" />
		<tag k="place" v="farm" />
		<tag k="ssr:stedsnr" v="42564" />
	</node>
	<node lat="60.806713887156" lon="11.128452785468005" id="-36123">
		<tag k="amenity" v="school" />
		<tag k="name" v="Ener ungdomsskole" />
		<tag k="ssr:stedsnr" v="46030" />
	</node>
	<node lat="60.83115555369389" lon="11.160533325323685" id="-36124">
		<tag k="name" v="Bakken" />
		<tag k="place" v="farm" />
		<tag k="ssr:stedsnr" v="55547" />
	</node>
	<node lat="61.04502222195975" lon="11.097019450163968" id="-36125">
		<tag k="landuse" v="meadow" />
		<tag k="name" v="Borkbuvollen" />
		<tag k="ssr:stedsnr" v="55852" />
	</node>
	<node lat="61.073258329147116" lon="11.10520555489271" id="-36126">
		<tag k="name" v="Spjeldholtet" />
		<tag k="place" v="locality" />
		<tag k="ssr:stedsnr" v="55854" />
	</node>
	<node lat="61.09676944388512" lon="11.139694450693925" id="-36127">
		<tag k="name" v="Dølknipa" />
		<tag k="natural" v="slope" />
		<tag k="place" v="locality" />
		<tag k="ssr:stedsnr" v="56936" />
	</node>
	<node lat="60.81138332939757" lon="11.166952780105017" id="-36128">
		<tag k="name" v="Rysvea" />
		<tag k="place" v="neighbourhood" />
		<tag k="ssr:stedsnr" v="56955" />
	</node>
	<node lat="61.138099998884144" lon="11.082119443549601" id="-36129">
		<tag k="highway" v="path" />
		<tag k="name" v="Tingstadbuvegen" />
		<tag k="ssr:stedsnr" v="57935" />
	</node>
	<node lat="60.985483329891736" lon="11.107844440133764" id="-36130">
		<tag k="name" v="Velttjernet" />
		<tag k="natural" v="water" />
		<tag k="ssr:stedsnr" v="58907" />
	</node>
	<node lat="60.90468888692484" lon="11.221574996032333" id="-36131">
		<tag k="highway" v="path" />
		<tag k="name" v="Brumundvegen" />
		<tag k="ssr:stedsnr" v="59058" />
	</node>
	<node lat="61.037869441733285" lon="11.137819440207295" id="-36132">
		<tag k="fixme" v="consider natural=peak for the most distinct mountains in the district" />
		<tag k="name" v="Gutåsen" />
		<tag k="natural" v="hill" />
		<tag k="place" v="locality" />
		<tag k="ssr:stedsnr" v="68269" />
	</node>
	<node lat="61.03755277736751" lon="11.231927782157534" id="-36133">
		<tag k="fixme" v="consider natural=peak for the most distinct mountains in the district" />
		<tag k="name" v="Synsåsen" />
		<tag k="natural" v="hill" />
		<tag k="place" v="locality" />
		<tag k="ssr:stedsnr" v="68271" />
	</node>
	<node lat="61.05190000234816" lon="11.161097229487806" id="-36134">
		<tag k="name" v="Lavlia" />
		<tag k="place" v="isolated_dwelling" />
		<tag k="ssr:stedsnr" v="68278" />
	</node>
	<node lat="61.054091665036225" lon="11.087891675377945" id="-36135">
		<tag k="name" v="Jokumsjøen" />
		<tag k="natural" v="water" />
		<tag k="ssr:stedsnr" v="68616" />
	</node>
	<node lat="61.161775002461646" lon="11.068049996032398" id="-36136">
		<tag k="name" v="Rundhaugen" />
		<tag k="natural" v="hill" />
		<tag k="place" v="locality" />
		<tag k="ssr:stedsnr" v="69585" />
	</node>
	<node lat="60.93306389296869" lon="11.089633334380345" id="-36137">
		<tag k="historic" v="shieling" />
		<tag k="name" v="Bjørsætra" />
		<tag k="place" v="isolated_dwelling" />
		<tag k="ssr:stedsnr" v="70184" />
	</node>
	<node lat="60.99324999673149" lon="11.166374992617808" id="-36138">
		<tag k="name" v="Eftasmyra" />
		<tag k="natural" v="wetland" />
		<tag k="ssr:stedsnr" v="70532" />
	</node>
	<node lat="60.990050001229314" lon="11.09992499565948" id="-36139">
		<tag k="fixme" v="multiple name tags, choose one and add the other to alt_name" />
		<tag k="name" v="Tjernsmyra;Krokfuruholmyra" />
		<tag k="natural" v="wetland" />
		<tag k="ssr:stedsnr" v="70537" />
	</node>
	<node lat="60.93901388618325" lon="11.206472225658885" id="-36140">
		<tag k="name" v="Appelsinhaugen" />
		<tag k="natural" v="hill" />
		<tag k="place" v="locality" />
		<tag k="ssr:stedsnr" v="70551" />
	</node>
	<node lat="60.90631388965182" lon="11.232952786408859" id="-36141">
		<tag k="name" v="Grønkoia" />
		<tag k="place" v="isolated_dwelling" />
		<tag k="ssr:stedsnr" v="70591" />
	</node>
	<node lat="60.801285802255215" lon="11.177017144717118" id="-36142">
		<tag k="name" v="Møystad" />
		<tag k="place" v="farm" />
		<tag k="ssr:stedsnr" v="70871" />
	</node>
	<node lat="60.79980427925121" lon="11.19068693343475" id="-36143">
		<tag k="alt_name" v="Østre Hanum" />
		<tag k="name" v="Hanum" />
		<tag k="place" v="farm" />
		<tag k="ssr:stedsnr" v="70872" />
	</node>
	<node lat="60.80466058904954" lon="11.14728799031754" id="-36144">
		<tag k="name" v="Torshov" />
		<tag k="place" v="farm" />
		<tag k="ssr:stedsnr" v="70829" />
	</node>
	<node lat="60.80862184562055" lon="11.211143745960078" id="-36145">
		<tag k="name" v="Slettsveen" />
		<tag k="place" v="farm" />
		<tag k="ssr:stedsnr" v="70839" />
	</node>
	<node lat="60.956913888367005" lon="11.177969442106205" id="-36146">
		<tag k="landuse" v="peat_cutting" />
		<tag k="name" v="Krakholen" />
		<tag k="ssr:stedsnr" v="81235" />
	</node>
	<node lat="60.931150003406174" lon="11.13147500129607" id="-36147">
		<tag k="name" v="Puttsjøen" />
		<tag k="natural" v="water" />
		<tag k="ssr:stedsnr" v="81236" />
		<tag k="water" v="lake" />
	</node>
	<node lat="60.79402500072835" lon="11.07968611926048" id="-36152">
		<tag k="amenity" v="townhall" />
		<tag k="name" v="Statens Hus" />
		<tag k="ssr:stedsnr" v="97644" />
	</node>
	<node lat="60.85752778099361" lon="11.196019442513267" id="-36154">
		<tag k="name" v="Villroa" />
		<tag k="place" v="locality" />
		<tag k="ssr:stedsnr" v="101033" />
	</node>
	<node lat="60.83414693472516" lon="11.087091976127462" id="-36155">
		<tag k="name" v="Grønsvebakken" />
		<tag k="place" v="farm" />
		<tag k="ssr:stedsnr" v="101853" />
	</node>
	<node lat="60.91869999766912" lon="11.138616662285393" id="-36156">
		<tag k="name" v="Kluksæterkjølen" />
		<tag k="natural" v="wetland" />
		<tag k="ssr:stedsnr" v="102533" />
	</node>
	<node lat="60.91236110718664" lon="11.148413882772337" id="-36157">
		<tag k="fixme" v="consider highway=path" />
		<tag k="highway" v="track" />
		<tag k="name" v="Kluksætervegen" />
		<tag k="ssr:stedsnr" v="102537" />
	</node>
	<node lat="60.80125555847068" lon="11.050505554322594" id="-36158">
		<tag k="amenity" v="school" />
		<tag k="name" v="Storhamar skole" />
		<tag k="ssr:stedsnr" v="102540" />
	</node>
	<node lat="60.830294447933404" lon="11.222494452221609" id="-36159">
		<tag k="name" v="Bakken" />
		<tag k="place" v="farm" />
		<tag k="ssr:stedsnr" v="102294" />
	</node>
	<node lat="60.847972218579" lon="11.169666660366056" id="-36160">
		<tag k="name" v="Vesterengen" />
		<tag k="place" v="farm" />
		<tag k="ssr:stedsnr" v="102637" />
	</node>
	<node lat="60.85071944681935" lon="11.177263895570135" id="-36161">
		<tag k="name" v="Stenset" />
		<tag k="place" v="locality" />
		<tag k="ssr:stedsnr" v="102656" />
	</node>
	<node lat="60.86414883339411" lon="11.13602379245145" id="-36162">
		<tag k="name" v="Nylende" />
		<tag k="place" v="farm" />
		<tag k="ssr:stedsnr" v="102660" />
	</node>
	<node lat="60.90508889343226" lon="11.168697220616615" id="-36163">
		<tag k="name" v="Raudmyrhøgda" />
		<tag k="natural" v="hill" />
		<tag k="place" v="locality" />
		<tag k="ssr:stedsnr" v="116434" />
	</node>
	<node lat="60.838674996895875" lon="11.166650004856736" id="-36164">
		<tag k="name" v="Myrsrønningen" />
		<tag k="place" v="farm" />
		<tag k="ssr:stedsnr" v="116567" />
	</node>
	<node lat="60.83013055641484" lon="11.138236110162069" id="-36165">
		<tag k="name" v="Skogsrud" />
		<tag k="place" v="farm" />
		<tag k="ssr:stedsnr" v="116569" />
	</node>
	<node lat="60.827888888976055" lon="11.141222222801757" id="-36166">
		<tag k="amenity" v="nursing_home" />
		<tag k="name" v="Løbak psykiatriske senter" />
		<tag k="old_name" v="Løbakk psykiatriske sykehjem" />
		<tag k="ssr:stedsnr" v="116577" />
	</node>
	<node lat="60.867191665582865" lon="11.165352769617535" id="-36167">
		<tag k="name" v="Smedpalerud" />
		<tag k="place" v="farm" />
		<tag k="ssr:stedsnr" v="116584" />
	</node>
	<node lat="60.77858333722612" lon="11.202433336094455" id="-36168">
		<tag k="name" v="Holter" />
		<tag k="place" v="farm" />
		<tag k="ssr:stedsnr" v="117235" />
	</node>
	<node lat="61.091438888625646" lon="11.131061103233838" id="-36169">
		<tag k="name" v="Nystua" />
		<tag k="place" v="isolated_dwelling" />
		<tag k="ssr:stedsnr" v="128464" />
	</node>
	<node lat="60.86338055530085" lon="11.148299991748358" id="-36170">
		<tag k="name" v="Dalbybekken" />
		<tag k="ssr:stedsnr" v="130697" />
		<tag k="waterway" v="stream" />
	</node>
	<node lat="60.85703611235698" lon="11.161366665736777" id="-36171">
		<tag k="alt_name" v="Vestre Sveum" />
		<tag k="name" v="Sveum" />
		<tag k="place" v="farm" />
		<tag k="ssr:stedsnr" v="130698" />
	</node>
	<node lat="60.84148055293295" lon="11.138480546455233" id="-36172">
		<tag k="name" v="Tomterbekken" />
		<tag k="ssr:stedsnr" v="130715" />
		<tag k="waterway" v="stream" />
	</node>
	<node lat="60.87623333093719" lon="11.166874999927934" id="-36173">
		<tag k="junction" v="yes" />
		<tag k="name" v="Torvet" />
		<tag k="place" v="locality" />
		<tag k="ssr:stedsnr" v="130638" />
	</node>
	<node lat="60.84566269390361" lon="11.2576680511786" id="-36174">
		<tag k="name" v="Høksnes" />
		<tag k="place" v="farm" />
		<tag k="ssr:stedsnr" v="130723" />
	</node>
	<node lat="60.79763409564884" lon="11.201297083031266" id="-36175">
		<tag k="name" v="Gile" />
		<tag k="place" v="farm" />
		<tag k="ssr:stedsnr" v="130864" />
	</node>
	<node lat="60.87466388850096" lon="11.143638884643474" id="-36176">
		<tag k="name" v="Skjesethagen" />
		<tag k="place" v="farm" />
		<tag k="ssr:stedsnr" v="131730" />
	</node>
	<node lat="60.84464721904793" lon="11.206899994831332" id="-36178">
		<tag k="name" v="Midtre Kartomten" />
		<tag k="place" v="farm" />
		<tag k="ssr:stedsnr" v="151073" />
	</node>
	<node lat="60.845036112360994" lon="11.218402776847851" id="-36181">
		<tag k="leisure" v="pitch" />
		<tag k="name" v="Fart-bana" />
		<tag k="ssr:stedsnr" v="161018" />
	</node>
	<node lat="61.139119446857976" lon="11.054824998829936" id="-36182">
		<tag k="highway" v="path" />
		<tag k="name" v="Staupholsvegen" />
		<tag k="ssr:stedsnr" v="161259" />
	</node>
	<node lat="60.817591667828104" lon="11.144358340638043" id="-36183">
		<tag k="name" v="Vangen" />
		<tag k="place" v="farm" />
		<tag k="ssr:stedsnr" v="161582" />
	</node>
	<node lat="60.79506111454201" lon="11.165125006016797" id="-36184">
		<tag k="amenity" v="school" />
		<tag k="name" v="Lovisenberg skole" />
		<tag k="ssr:stedsnr" v="161483" />
	</node>
	<node lat="60.847752775906926" lon="11.25195834228359" id="-36185">
		<tag k="name" v="Østre Hårstad" />
		<tag k="place" v="farm" />
		<tag k="ssr:stedsnr" v="162028" />
	</node>
	<node lat="60.86161388697661" lon="11.225449993336536" id="-36186">
		<tag k="name" v="Vesterhagen" />
		<tag k="place" v="farm" />
		<tag k="ssr:stedsnr" v="162038" />
	</node>
	<node lat="60.8224722210906" lon="11.258322217056413" id="-36187">
		<tag k="name" v="Sørlibakken" />
		<tag k="place" v="farm" />
		<tag k="ssr:stedsnr" v="163224" />
	</node>
	<node lat="60.80086388820686" lon="11.236727782705568" id="-36188">
		<tag k="name" v="Bjørkli" />
		<tag k="place" v="farm" />
		<tag k="ssr:stedsnr" v="163227" />
	</node>
	<node lat="60.82619444568728" lon="11.224083336858719" id="-36189">
		<tag k="name" v="Heimstad" />
		<tag k="place" v="farm" />
		<tag k="ssr:stedsnr" v="163234" />
	</node>
	<node lat="60.79503333244955" lon="11.064327779033327" id="-36190">
		<tag k="name" v="Vestre Torg" />
		<tag k="place" v="square" />
		<tag k="ssr:stedsnr" v="163427" />
	</node>
	<node lat="60.852330555359" lon="11.181372221606757" id="-36191">
		<tag k="name" v="Nedre Skålerud" />
		<tag k="place" v="farm" />
		<tag k="ssr:stedsnr" v="163565" />
	</node>
	<node lat="60.841406538999756" lon="11.152296163598296" id="-36192">
		<tag k="name" v="Tomter" />
		<tag k="place" v="farm" />
		<tag k="ssr:stedsnr" v="164293" />
	</node>
	<node lat="60.821266470192306" lon="11.09993883221833" id="-36193">
		<tag k="bridge" v="yes" />
		<tag k="layer" v="1" />
		<tag k="name" v="Nordre Flagstad bru" />
		<tag k="ssr:stedsnr" v="167609" />
	</node>
	<node lat="60.80488576853414" lon="11.111372171815574" id="-36194">
		<tag k="bridge" v="yes" />
		<tag k="layer" v="1" />
		<tag k="loc_name" v="Sæli bru" />
		<tag k="name" v="Sælid bru" />
		<tag k="ssr:stedsnr" v="167611" />
	</node>
	<node lat="60.82682221852525" lon="11.176427768924372" id="-36195">
		<tag k="name" v="Østre Myr" />
		<tag k="place" v="farm" />
		<tag k="ssr:stedsnr" v="176548" />
	</node>
	<node lat="60.823349997954885" lon="11.18384166870674" id="-36196">
		<tag k="name" v="Jøstad" />
		<tag k="place" v="farm" />
		<tag k="ssr:stedsnr" v="176549" />
	</node>
	<node lat="60.807705556091186" lon="11.076875001983504" id="-36197">
		<tag k="name" v="Mæhlumsløkka" />
		<tag k="place" v="suburb" />
		<tag k="ssr:stedsnr" v="177637" />
	</node>
	<node lat="61.079344443440434" lon="11.182727776677206" id="-36198">
		<tag k="name" v="Dovremyra" />
		<tag k="natural" v="wetland" />
		<tag k="ssr:stedsnr" v="178128" />
	</node>
	<node lat="60.784177773514386" lon="11.209033325892793" id="-36199">
		<tag k="name" v="Pettersborg" />
		<tag k="place" v="farm" />
		<tag k="ssr:stedsnr" v="178201" />
	</node>
	<node lat="60.94191666834627" lon="11.130211117731955" id="-36200">
		<tag k="name" v="Himmelbekken" />
		<tag k="ssr:stedsnr" v="180242" />
		<tag k="waterway" v="stream" />
	</node>
	<node lat="60.9397555578992" lon="11.114966665728007" id="-36201">
		<tag k="name" v="Fallsmyra" />
		<tag k="natural" v="wetland" />
		<tag k="ssr:stedsnr" v="180246" />
	</node>
	<node lat="60.916558332787204" lon="11.238738890857274" id="-36202">
		<tag k="name" v="Fiskebrenna" />
		<tag k="place" v="locality" />
		<tag k="ssr:stedsnr" v="181080" />
	</node>
	<node lat="60.928413887515525" lon="11.214847225136834" id="-36203">
		<tag k="name" v="Tomaskvila" />
		<tag k="place" v="locality" />
		<tag k="ssr:stedsnr" v="181082" />
	</node>
	<node lat="61.06455555864536" lon="11.216144441793409" id="-36204">
		<tag k="name" v="Kvitstenbekken" />
		<tag k="ssr:stedsnr" v="189227" />
		<tag k="waterway" v="stream" />
	</node>
	<node lat="61.10575277645413" lon="11.106655563422585" id="-36205">
		<tag k="name" v="Bekkemellom" />
		<tag k="place" v="isolated_dwelling" />
		<tag k="ssr:stedsnr" v="189443" />
	</node>
	<node lat="61.088574999564564" lon="11.101380550529191" id="-36206">
		<tag k="name" v="Spjeldåa" />
		<tag k="ssr:stedsnr" v="189455" />
		<tag k="waterway" v="stream" />
	</node>
	<node lat="61.01389166931179" lon="11.208608338447322" id="-36207">
		<tag k="name" v="Lavsjømyrene" />
		<tag k="natural" v="wetland" />
		<tag k="ssr:stedsnr" v="190300" />
	</node>
	<node lat="60.844065350490716" lon="11.182474510208614" id="-36208">
		<tag k="name" v="Ingelsrud" />
		<tag k="place" v="farm" />
		<tag k="ssr:stedsnr" v="191724" />
	</node>
	<node lat="60.94435000305429" lon="11.136974991230627" id="-36209">
		<tag k="name" v="Hattbekken" />
		<tag k="ssr:stedsnr" v="191541" />
		<tag k="waterway" v="stream" />
	</node>
	<node lat="60.96350000087427" lon="11.152041659434257" id="-36210">
		<tag k="name" v="Nybusjøen" />
		<tag k="natural" v="water" />
		<tag k="ssr:stedsnr" v="191544" />
	</node>
	<node lat="60.84506027920993" lon="11.154550112874482" id="-36211">
		<tag k="name" v="Høkset" />
		<tag k="place" v="farm" />
		<tag k="ssr:stedsnr" v="191719" />
	</node>
	<node lat="60.809697224371526" lon="11.026333337152332" id="-36212">
		<tag k="name" v="Furubergjordet" />
		<tag k="old_name" v="Furuberget" />
		<tag k="place" v="suburb" />
		<tag k="ssr:stedsnr" v="191450" />
	</node>
	<node lat="60.792805557403895" lon="11.038719450700095" id="-36213">
		<tag k="name" v="Hedmarkmuseet" />
		<tag k="ssr:stedsnr" v="191454" />
		<tag k="tourism" v="museum" />
	</node>
	<node lat="60.849062257828635" lon="11.247011976418532" id="-36214">
		<tag k="alt_name" v="Vestre Hårstad" />
		<tag k="name" v="Hårstad" />
		<tag k="place" v="farm" />
		<tag k="ssr:stedsnr" v="191671" />
	</node>
	<node lat="60.922080553265204" lon="11.194600005574808" id="-36215">
		<tag k="name" v="Lageråkvisla" />
		<tag k="place" v="hamlet" />
		<tag k="ssr:stedsnr" v="191582" />
	</node>
	<node lat="60.89350000291928" lon="11.097125009286453" id="-36216">
		<tag k="name" v="Fallsbekken" />
		<tag k="ssr:stedsnr" v="191589" />
		<tag k="waterway" v="stream" />
	</node>
	<node lat="60.88295833732898" lon="11.222047213980671" id="-36217">
		<tag k="name" v="Nerhagen" />
		<tag k="place" v="farm" />
		<tag k="ssr:stedsnr" v="191592" />
	</node>
	<node lat="60.88677777819005" lon="11.194900001709648" id="-36218">
		<tag k="name" v="Ormseter" />
		<tag k="ssr:stedsnr" v="191593" />
		<tag k="tourism" v="guest_house" />
	</node>
	<node lat="60.78874298855788" lon="11.187109792994322" id="-36219">
		<tag k="name" v="Opphus" />
		<tag k="place" v="farm" />
		<tag k="ssr:stedsnr" v="191886" />
	</node>
	<node lat="60.77985000342148" lon="11.199799999711354" id="-36220">
		<tag k="name" v="Enger" />
		<tag k="place" v="farm" />
		<tag k="ssr:stedsnr" v="191893" />
	</node>
	<node lat="60.85722785974629" lon="11.252037045538035" id="-36221">
		<tag k="alt_name" v="Store Åsvestad" />
		<tag k="name" v="Åsvestad" />
		<tag k="place" v="farm" />
		<tag k="ssr:stedsnr" v="191692" />
	</node>
	<node lat="60.802949996387966" lon="11.136658334351628" id="-36222">
		<tag k="amenity" v="school" />
		<tag k="name" v="Ridabu skole" />
		<tag k="ssr:stedsnr" v="191829" />
	</node>
	<node lat="60.80684722123741" lon="11.063424993896753" id="-36223">
		<tag k="name" v="Ajer" />
		<tag k="place" v="suburb" />
		<tag k="ssr:stedsnr" v="204261" />
	</node>
	<node lat="60.87085537606783" lon="11.167606302449137" id="-36224">
		<tag k="name" v="Nordre Tønset" />
		<tag k="place" v="farm" />
		<tag k="ssr:stedsnr" v="212235" />
	</node>
	<node lat="60.973019447587134" lon="11.136716658918445" id="-36225">
		<tag k="name" v="Bukkhølkoia" />
		<tag k="place" v="locality" />
		<tag k="ssr:stedsnr" v="263244" />
	</node>
	<node lat="60.899650003166236" lon="11.205816675676733" id="-36228">
		<tag k="leisure" v="pitch" />
		<tag k="name" v="Gåsbu langrennsenter" />
		<tag k="ssr:stedsnr" v="282250" />
	</node>
	<node lat="60.85701388529302" lon="11.238238893791543" id="-36229">
		<tag k="name" v="Vestby" />
		<tag k="place" v="farm" />
		<tag k="ssr:stedsnr" v="283019" />
	</node>
	<node lat="60.836108094911516" lon="11.104068196286361" id="-36230">
		<tag k="name" v="Engum" />
		<tag k="place" v="farm" />
		<tag k="ssr:stedsnr" v="283833" />
	</node>
	<node lat="60.872286113290464" lon="11.250652783252148" id="-36231">
		<tag k="name" v="Sletner" />
		<tag k="place" v="farm" />
		<tag k="ssr:stedsnr" v="284030" />
	</node>
	<node lat="60.80386388881244" lon="11.214808335604191" id="-36232">
		<tag k="name" v="Bjørkestua" />
		<tag k="place" v="isolated_dwelling" />
		<tag k="ssr:stedsnr" v="284256" />
	</node>
	<node lat="60.84232831505552" lon="11.238606056280751" id="-36233">
		<tag k="name" v="Brattli" />
		<tag k="place" v="farm" />
		<tag k="ssr:stedsnr" v="284272" />
	</node>
	<node lat="60.81956388735778" lon="11.045641670558437" id="-36234">
		<tag k="amenity" v="school" />
		<tag k="name" v="Hedmarktoppen folkehøyskole" />
		<tag k="ssr:stedsnr" v="284465" />
	</node>
	<node lat="60.80612777368612" lon="11.046352772436537" id="-36235">
		<tag k="building" v="commercial" />
		<tag k="name" v="Norsk tipping" />
		<tag k="ssr:stedsnr" v="284466" />
	</node>
	<node lat="61.10329444455221" lon="11.037119439610292" id="-36236">
		<tag k="name" v="Eggedal" />
		<tag k="natural" v="valley" />
		<tag k="place" v="locality" />
		<tag k="ssr:stedsnr" v="298182" />
	</node>
	<node lat="60.87125833177092" lon="11.178661104024826" id="-36237">
		<tag k="name" v="Nordre Spikkerud" />
		<tag k="place" v="locality" />
		<tag k="ssr:stedsnr" v="298570" />
	</node>
	<node lat="61.10163889005523" lon="11.091050000357063" id="-36238">
		<tag k="name" v="Borregård" />
		<tag k="place" v="isolated_dwelling" />
		<tag k="ssr:stedsnr" v="298844" />
	</node>
	<node lat="60.8218333296585" lon="11.195433330402489" id="-36239">
		<tag k="name" v="Grubhol" />
		<tag k="place" v="neighbourhood" />
		<tag k="ssr:stedsnr" v="299944" />
	</node>
	<node lat="61.12110277844274" lon="11.111855560106589" id="-36240">
		<tag k="name" v="Storbekken" />
		<tag k="ssr:stedsnr" v="310475" />
		<tag k="waterway" v="stream" />
	</node>
	<node lat="61.08045833676324" lon="11.050088893427123" id="-36241">
		<tag k="name" v="Harasjømyra" />
		<tag k="natural" v="wetland" />
		<tag k="ssr:stedsnr" v="311657" />
	</node>
	<node lat="60.88649367959566" lon="11.227015462816045" id="-36242">
		<tag k="name" v="Bekken" />
		<tag k="place" v="farm" />
		<tag k="ssr:stedsnr" v="312622" />
	</node>
	<node lat="60.85905896219664" lon="11.16435262132292" id="-36243">
		<tag k="name" v="Høgsveen" />
		<tag k="place" v="farm" />
		<tag k="ssr:stedsnr" v="312724" />
	</node>
	<node lat="60.81047500403103" lon="11.2160472197484" id="-36244">
		<tag k="name" v="Fremstad" />
		<tag k="place" v="farm" />
		<tag k="ssr:stedsnr" v="312843" />
	</node>
	<node lat="60.876963713579066" lon="11.152317363781803" id="-36245">
		<tag k="name" v="Markestad" />
		<tag k="place" v="farm" />
		<tag k="ssr:stedsnr" v="313688" />
	</node>
	<node lat="60.878830556259175" lon="11.160008329398678" id="-36246">
		<tag k="name" v="Langenga" />
		<tag k="place" v="farm" />
		<tag k="ssr:stedsnr" v="313689" />
	</node>
	<node lat="60.84765833348641" lon="11.117680562443274" id="-36247">
		<tag k="name" v="Øverby" />
		<tag k="place" v="farm" />
		<tag k="ssr:stedsnr" v="313775" />
	</node>
	<node lat="60.84645910446374" lon="11.17582172050565" id="-36248">
		<tag k="alt_name" v="Bergsvenkerud" />
		<tag k="name" v="Bersvensrud" />
		<tag k="place" v="farm" />
		<tag k="ssr:stedsnr" v="313787" />
	</node>
	<node lat="60.98065833597309" lon="11.138949992656023" id="-36249">
		<tag k="name" v="Bjørnholta" />
		<tag k="place" v="locality" />
		<tag k="ssr:stedsnr" v="324224" />
	</node>
	<node lat="60.80523610750861" lon="11.156047227310749" id="-36250">
		<tag k="alt_name" v="Hubred store" />
		<tag k="name" v="Store Hubred" />
		<tag k="place" v="farm" />
		<tag k="ssr:stedsnr" v="335750" />
	</node>
	<node lat="60.810766668027405" lon="11.231466666951954" id="-36251">
		<tag k="name" v="Hommelstadhagan" />
		<tag k="place" v="locality" />
		<tag k="ssr:stedsnr" v="340643" />
	</node>
	<node lat="61.140905558161656" lon="11.02891110716433" id="-36253">
		<tag k="name" v="Bubekkjølen" />
		<tag k="natural" v="wetland" />
		<tag k="ssr:stedsnr" v="343173" />
	</node>
	<node lat="60.89008333190097" lon="11.221955562756301" id="-36254">
		<tag k="name" v="Bekkeslåtten" />
		<tag k="place" v="locality" />
		<tag k="ssr:stedsnr" v="343091" />
	</node>
	<node lat="60.856619446866695" lon="11.201505549513591" id="-36255">
		<tag k="name" v="Myrdal" />
		<tag k="place" v="farm" />
		<tag k="ssr:stedsnr" v="343042" />
	</node>
	<node lat="60.85489722139943" lon="11.214066663307628" id="-36256">
		<tag k="name" v="Rydheim" />
		<tag k="place" v="farm" />
		<tag k="ssr:stedsnr" v="343045" />
	</node>
	<node lat="60.817313019235286" lon="11.134024568474642" id="-36257">
		<tag k="name" v="Gutteberg" />
		<tag k="place" v="farm" />
		<tag k="ssr:stedsnr" v="343662" />
	</node>
	<node lat="60.800374995820206" lon="11.134213887157172" id="-36258">
		<tag k="amenity" v="school" />
		<tag k="name" v="Toneheim folkehøgskole" />
		<tag k="ssr:stedsnr" v="343488" />
	</node>
	<node lat="60.80654356505202" lon="11.158526466314306" id="-36259">
		<tag k="name" v="Kai" />
		<tag k="place" v="farm" />
		<tag k="ssr:stedsnr" v="343645" />
	</node>
	<node lat="61.034958335999946" lon="11.111072218869799" id="-36260">
		<tag k="name" v="Lemodden" />
		<tag k="natural" v="cape" />
		<tag k="ssr:stedsnr" v="343914" />
	</node>
	<node lat="60.86622778040963" lon="11.245822227509041" id="-36261">
		<tag k="name" v="Nybakken" />
		<tag k="place" v="farm" />
		<tag k="ssr:stedsnr" v="344050" />
	</node>
	<node lat="60.80684999874114" lon="11.044722228692876" id="-36262">
		<tag k="amenity" v="nursing_home" />
		<tag k="name" v="Prestrudsenteret" />
		<tag k="ssr:stedsnr" v="345434" />
	</node>
	<node lat="60.830036111837664" lon="11.23370278051823" id="-36263">
		<tag k="name" v="Broberg" />
		<tag k="place" v="farm" />
		<tag k="ssr:stedsnr" v="345251" />
	</node>
	<node lat="60.826863888171445" lon="11.225086115348164" id="-36264">
		<tag k="name" v="Sveen" />
		<tag k="place" v="farm" />
		<tag k="ssr:stedsnr" v="345252" />
	</node>
	<node lat="60.85301944263329" lon="11.181730550879028" id="-36266">
		<tag k="name" v="Øvre Skålerud" />
		<tag k="place" v="farm" />
		<tag k="ssr:stedsnr" v="345546" />
	</node>
	<node lat="60.815036810587245" lon="11.102785767160867" id="-36267">
		<tag k="bridge" v="yes" />
		<tag k="layer" v="1" />
		<tag k="name" v="Flagstad bru" />
		<tag k="ssr:stedsnr" v="349617" />
	</node>
	<node lat="60.82276944407462" lon="11.16266389469649" id="-36268">
		<tag k="bridge" v="yes" />
		<tag k="layer" v="1" />
		<tag k="name" v="Nashaug" />
		<tag k="ssr:stedsnr" v="349611" />
	</node>
	<node lat="61.10024722520436" lon="11.060441672799545" id="-36269">
		<tag k="name" v="Dingsrud" />
		<tag k="place" v="isolated_dwelling" />
		<tag k="ssr:stedsnr" v="358186" />
	</node>
	<node lat="60.82958611236598" lon="11.16003332908049" id="-36270">
		<tag k="name" v="Nybakken" />
		<tag k="place" v="farm" />
		<tag k="ssr:stedsnr" v="358590" />
	</node>
	<node lat="60.86818332950419" lon="11.153199996637449" id="-36271">
		<tag k="name" v="Bukalsveen" />
		<tag k="place" v="farm" />
		<tag k="ssr:stedsnr" v="358592" />
	</node>
	<node lat="61.07665277735526" lon="11.108322214500477" id="-36272">
		<tag k="name" v="Godmyra" />
		<tag k="natural" v="wetland" />
		<tag k="ssr:stedsnr" v="358857" />
	</node>
	<node lat="60.85192499893226" lon="11.20123611286633" id="-36273">
		<tag k="name" v="Greftenenga" />
		<tag k="place" v="neighbourhood" />
		<tag k="ssr:stedsnr" v="359958" />
	</node>
	<node lat="60.79042499736803" lon="11.23268611124545" id="-36274">
		<tag k="name" v="Vollsmoene" />
		<tag k="place" v="locality" />
		<tag k="ssr:stedsnr" v="360184" />
	</node>
	<node lat="60.78449722225424" lon="11.226791665233476" id="-36275">
		<tag k="name" v="Farmenmoen" />
		<tag k="place" v="locality" />
		<tag k="ssr:stedsnr" v="360185" />
	</node>
	<node lat="61.1173472223413" lon="11.083441669425817" id="-36276">
		<tag k="name" v="Morgenvollbekken" />
		<tag k="ssr:stedsnr" v="360938" />
		<tag k="waterway" v="stream" />
	</node>
	<node lat="61.071944446063796" lon="11.19468054802475" id="-36277">
		<tag k="name" v="Rosendalsbekken" />
		<tag k="ssr:stedsnr" v="362125" />
		<tag k="waterway" v="stream" />
	</node>
	<node lat="60.977394440661534" lon="11.117849995749134" id="-36278">
		<tag k="historic" v="shieling" />
		<tag k="name" v="Prestrud" />
		<tag k="place" v="locality" />
		<tag k="ssr:stedsnr" v="361908" />
	</node>
	<node lat="60.99120833264585" lon="11.197361109167764" id="-36279">
		<tag k="name" v="Mørkholmen" />
		<tag k="place" v="locality" />
		<tag k="ssr:stedsnr" v="362107" />
	</node>
	<node lat="61.04976944104245" lon="11.230541658602096" id="-36280">
		<tag k="historic" v="shieling" />
		<tag k="name" v="Brennsætra" />
		<tag k="place" v="isolated_dwelling" />
		<tag k="ssr:stedsnr" v="371259" />
	</node>
	<node lat="61.101538893381914" lon="11.135122219002897" id="-36281">
		<tag k="alt_name" v="Bredborg" />
		<tag k="name" v="Breborg" />
		<tag k="place" v="isolated_dwelling" />
		<tag k="ssr:stedsnr" v="371442" />
	</node>
	<node lat="61.095772218296354" lon="11.121902773736673" id="-36282">
		<tag k="name" v="Åstholmen" />
		<tag k="place" v="isolated_dwelling" />
		<tag k="ssr:stedsnr" v="371457" />
	</node>
	<node lat="60.96215277502492" lon="11.201986114199965" id="-36283">
		<tag k="name" v="Stensæterbekken" />
		<tag k="ssr:stedsnr" v="373600" />
		<tag k="waterway" v="stream" />
	</node>
	<node lat="60.90360000297436" lon="11.233052768904445" id="-36284">
		<tag k="name" v="Vollbekken" />
		<tag k="ssr:stedsnr" v="373626" />
		<tag k="waterway" v="stream" />
	</node>
	<node lat="60.88565637473612" lon="11.218739447876297" id="-36285">
		<tag k="name" v="Stenberg" />
		<tag k="place" v="farm" />
		<tag k="ssr:stedsnr" v="373653" />
	</node>
	<node lat="60.807658337853454" lon="11.041261106059816" id="-36286">
		<tag k="name" v="Prestrud" />
		<tag k="place" v="suburb" />
		<tag k="ssr:stedsnr" v="373490" />
	</node>
	<node lat="60.877528887942844" lon="11.162604189238795" id="-36287">
		<tag k="name" v="Syljuset" />
		<tag k="place" v="farm" />
		<tag k="ssr:stedsnr" v="373696" />
	</node>
	<node lat="60.88329611127637" lon="11.16703203412364" id="-36288">
		<tag k="name" v="Sleperud" />
		<tag k="place" v="farm" />
		<tag k="ssr:stedsnr" v="373698" />
	</node>
	<node lat="60.84488611177534" lon="11.11766389236941" id="-36289">
		<tag k="name" v="Markeng" />
		<tag k="place" v="farm" />
		<tag k="ssr:stedsnr" v="373758" />
	</node>
	<node lat="60.84502889498746" lon="11.242752211526465" id="-36290">
		<tag k="name" v="Rabstad" />
		<tag k="place" v="farm" />
		<tag k="ssr:stedsnr" v="373768" />
	</node>
	<node lat="60.79273610680193" lon="11.214655546890523" id="-36291">
		<tag k="name" v="Nedre Voll" />
		<tag k="place" v="farm" />
		<tag k="ssr:stedsnr" v="387382" />
	</node>
	<node lat="60.92191666347324" lon="11.152408329083793" id="-36294">
		<tag k="name" v="Stormyrbekken" />
		<tag k="ssr:stedsnr" v="401278" />
		<tag k="waterway" v="stream" />
	</node>
	<node lat="60.8921555535875" lon="11.120016666240424" id="-36295">
		<tag k="name" v="Lierroa" />
		<tag k="place" v="locality" />
		<tag k="ssr:stedsnr" v="404544" />
	</node>
	<node lat="60.80956944355242" lon="11.183055546832819" id="-36296">
		<tag k="name" v="Sveaborg" />
		<tag k="place" v="farm" />
		<tag k="ssr:stedsnr" v="404556" />
	</node>
	<node lat="60.80641389261519" lon="11.186499995249115" id="-36297">
		<tag k="name" v="Øvergård" />
		<tag k="place" v="isolated_dwelling" />
		<tag k="ssr:stedsnr" v="404557" />
	</node>
	<node lat="61.01159999873664" lon="11.181580550684203" id="-36298">
		<tag k="name" v="Torshovmyra" />
		<tag k="natural" v="wetland" />
		<tag k="ssr:stedsnr" v="405369" />
	</node>
	<node lat="60.97023055644133" lon="11.167449995217142" id="-36299">
		<tag k="name" v="Nybubekken" />
		<tag k="ssr:stedsnr" v="405523" />
		<tag k="waterway" v="stream" />
	</node>
	<node lat="60.8536043998681" lon="11.165698172064912" id="-36300">
		<tag k="name" v="Roen" />
		<tag k="place" v="farm" />
		<tag k="ssr:stedsnr" v="406586" />
	</node>
	<node lat="60.85396110779736" lon="11.140625001410523" id="-36301">
		<tag k="name" v="Vestre Svenkerud" />
		<tag k="place" v="farm" />
		<tag k="ssr:stedsnr" v="406591" />
	</node>
	<node lat="61.094811111127775" lon="11.063258329589681" id="-36302">
		<tag k="name" v="Bolsdalslia" />
		<tag k="natural" v="slope" />
		<tag k="place" v="locality" />
		<tag k="ssr:stedsnr" v="419191" />
	</node>
	<node lat="60.88045555527426" lon="11.175863884459908" id="-36303">
		<tag k="name" v="Vestre Kirkeby" />
		<tag k="place" v="farm" />
		<tag k="ssr:stedsnr" v="419374" />
	</node>
	<node lat="60.8308805591365" lon="11.172994451575766" id="-36304">
		<tag k="name" v="Nashaugbekken" />
		<tag k="ssr:stedsnr" v="419579" />
		<tag k="waterway" v="stream" />
	</node>
	<node lat="60.86893333202968" lon="11.178536113651354" id="-36305">
		<tag k="name" v="Høyby" />
		<tag k="place" v="isolated_dwelling" />
		<tag k="ssr:stedsnr" v="419585" />
	</node>
	<node lat="61.09178888835041" lon="11.103411110916815" id="-36306">
		<tag k="fixme" v="consider natural=peak for the most distinct mountains in the district" />
		<tag k="name" v="Spjeldåsberget" />
		<tag k="natural" v="hill" />
		<tag k="place" v="locality" />
		<tag k="ssr:stedsnr" v="419858" />
	</node>
	<node lat="60.80443333689908" lon="11.08679166932746" id="-36307">
		<tag k="amenity" v="school" />
		<tag k="name" v="Børstad ungdomsskole" />
		<tag k="ssr:stedsnr" v="420640" />
	</node>
	<node lat="60.78802499772697" lon="11.192183325011175" id="-36308">
		<tag k="name" v="Skogly" />
		<tag k="place" v="farm" />
		<tag k="ssr:stedsnr" v="421194" />
	</node>
	<node lat="60.85826667006058" lon="11.217580553612569" id="-36309">
		<tag k="name" v="Greftenmoen" />
		<tag k="place" v="neighbourhood" />
		<tag k="ssr:stedsnr" v="422965" />
	</node>
	<node lat="61.1487166651875" lon="11.080383332145955" id="-36310">
		<tag k="name" v="Kvannbekken" />
		<tag k="ssr:stedsnr" v="432508" />
		<tag k="waterway" v="stream" />
	</node>
	<node lat="60.84403550333983" lon="11.199635036127201" id="-36311">
		<tag k="alt_name" v="Nedre Slemsrud" />
		<tag k="name" v="Slemsrud" />
		<tag k="place" v="farm" />
		<tag k="ssr:stedsnr" v="434719" />
	</node>
	<node lat="60.882333331058355" lon="11.244722216993308" id="-36312">
		<tag k="building" v="industrial" />
		<tag k="industrial" v="factory" />
		<tag k="name" v="Bergset sag" />
		<tag k="ssr:stedsnr" v="434656" />
	</node>
	<node lat="61.09921388878684" lon="11.140875007476641" id="-36313">
		<tag k="name" v="Kalefonien" />
		<tag k="place" v="locality" />
		<tag k="ssr:stedsnr" v="480927" />
	</node>
	<node lat="61.07637499986344" lon="11.102724996243337" id="-36314">
		<tag k="name" v="Spjeldsjøen" />
		<tag k="natural" v="water" />
		<tag k="ssr:stedsnr" v="492458" />
		<tag k="water" v="lake" />
	</node>
	<node lat="60.86000000034667" lon="11.117299993101218" id="-36315">
		<tag k="name" v="Østre Narmo" />
		<tag k="old_name" v="Øvre Narmo" />
		<tag k="place" v="farm" />
		<tag k="ssr:stedsnr" v="494660" />
	</node>
	<node lat="60.9128500032012" lon="11.132430548465647" id="-36316">
		<tag k="historic" v="shieling" />
		<tag k="name" v="Kluksætra" />
		<tag k="place" v="isolated_dwelling" />
		<tag k="ssr:stedsnr" v="494582" />
	</node>
	<node lat="60.82969444343369" lon="11.173638895727072" id="-36317">
		<tag k="alt_name" v="Nordre Myr" />
		<tag k="name" v="Myr" />
		<tag k="place" v="farm" />
		<tag k="ssr:stedsnr" v="494788" />
	</node>
	<node lat="60.81199166688872" lon="11.056836104893438" id="-36318">
		<tag k="name" v="Ajer" />
		<tag k="place" v="farm" />
		<tag k="ssr:stedsnr" v="494444" />
	</node>
	<node lat="60.96834444505646" lon="11.162883327224204" id="-36319">
		<tag k="name" v="Nybusætra" />
		<tag k="place" v="hamlet" />
		<tag k="ssr:stedsnr" v="494548" />
	</node>
	<node lat="60.95280277762982" lon="11.108425003255888" id="-36320">
		<tag k="alt_name" v="Tørbustilmyra" />
		<tag k="name" v="Tørbustilkjølen" />
		<tag k="natural" v="wetland" />
		<tag k="ssr:stedsnr" v="494550" />
	</node>
	<node lat="60.9051888923544" lon="11.157752782143566" id="-36321">
		<tag k="name" v="Raudmyra" />
		<tag k="natural" v="wetland" />
		<tag k="ssr:stedsnr" v="494559" />
	</node>
	<node lat="60.8485388875324" lon="11.158488897706643" id="-36322">
		<tag k="name" v="Sørli" />
		<tag k="place" v="farm" />
		<tag k="ssr:stedsnr" v="494700" />
	</node>
	<node lat="60.808542349145306" lon="11.117766723681905" id="-36323">
		<tag k="name" v="Sæli" />
		<tag k="place" v="farm" />
		<tag k="ssr:stedsnr" v="494833" />
	</node>
	<node lat="60.80567175127975" lon="11.17476254175901" id="-36324">
		<tag k="name" v="Olsrud" />
		<tag k="place" v="farm" />
		<tag k="ssr:stedsnr" v="494852" />
	</node>
	<node lat="60.81559166209817" lon="11.057472230945217" id="-36325">
		<tag k="name" v="Voll" />
		<tag k="place" v="farm" />
		<tag k="ssr:stedsnr" v="495432" />
	</node>
	<node lat="60.82145522759492" lon="11.11404975499093" id="-36326">
		<tag k="name" v="Store Imerslund" />
		<tag k="place" v="farm" />
		<tag k="ssr:stedsnr" v="505814" />
	</node>
	<node lat="60.823813885807716" lon="11.083402774124119" id="-36327">
		<tag k="name" v="Stensby" />
		<tag k="place" v="farm" />
		<tag k="ssr:stedsnr" v="506055" />
	</node>
	<node lat="60.80271640000163" lon="11.056801898058236" id="-36328">
		<tag k="name" v="Bondesvea" />
		<tag k="place" v="suburb" />
		<tag k="ssr:stedsnr" v="507283" />
	</node>
	<node lat="60.814675002708555" lon="11.177233329113326" id="-36329">
		<tag k="name" v="Vangli" />
		<tag k="place" v="quarter" />
		<tag k="ssr:stedsnr" v="510440" />
	</node>
	<node lat="60.81737777719401" lon="11.10558332611561" id="-36331">
		<tag k="name" v="Østre Flagstad" />
		<tag k="place" v="farm" />
		<tag k="ssr:stedsnr" v="515048" />
	</node>
	<node lat="60.84471666347064" lon="11.207325005975115" id="-36332">
		<tag k="name" v="Søndre Kartomten" />
		<tag k="place" v="farm" />
		<tag k="ssr:stedsnr" v="515067" />
	</node>
	<node lat="60.787861112934465" lon="11.161375007590905" id="-36333">
		<tag k="name" v="Skattumshagan" />
		<tag k="place" v="neighbourhood" />
		<tag k="ssr:stedsnr" v="525495" />
	</node>
	<node lat="60.891986112280534" lon="11.098097227945669" id="-36334">
		<tag k="name" v="Markleet" />
		<tag k="place" v="locality" />
		<tag k="ssr:stedsnr" v="525538" />
	</node>
	<node lat="60.795624997464934" lon="11.09230277451347" id="-36335">
		<tag k="leisure" v="pitch" />
		<tag k="name" v="Briskeby gressbane" />
		<tag k="ssr:stedsnr" v="525558" />
	</node>
	<node lat="60.79828333609357" lon="11.071450003540097" id="-36336">
		<tag k="amenity" v="hospital" />
		<tag k="name" v="Sykehuset Innlandet Hamar" />
		<tag k="old_name" v="Hamar Sjukehus" />
		<tag k="ssr:stedsnr" v="525560" />
	</node>
	<node lat="60.90682499603758" lon="11.10906943929701" id="-36337">
		<tag k="name" v="Kammershølen" />
		<tag k="place" v="locality" />
		<tag k="ssr:stedsnr" v="525564" />
	</node>
	<node lat="60.869991670382745" lon="11.224274998861038" id="-36338">
		<tag k="name" v="Nordengen" />
		<tag k="place" v="farm" />
		<tag k="ssr:stedsnr" v="526033" />
	</node>
	<node lat="60.844869442740865" lon="11.248011112308275" id="-36339">
		<tag k="name" v="Duenger" />
		<tag k="place" v="farm" />
		<tag k="ssr:stedsnr" v="526042" />
	</node>
	<node lat="60.87373889304108" lon="11.241747221080919" id="-36340">
		<tag k="name" v="Holaker" />
		<tag k="place" v="farm" />
		<tag k="ssr:stedsnr" v="526061" />
	</node>
	<node lat="60.867809240844764" lon="11.240329405927561" id="-36341">
		<tag k="name" v="Korsbakken" />
		<tag k="place" v="farm" />
		<tag k="ssr:stedsnr" v="526062" />
	</node>
	<node lat="60.82768610699656" lon="11.129661102214843" id="-36342">
		<tag k="amenity" v="school" />
		<tag k="name" v="Ingeberg skole" />
		<tag k="ssr:stedsnr" v="526473" />
	</node>
	<node lat="60.91927499749325" lon="11.155530562468922" id="-36343">
		<tag k="name" v="Blæstadfeltet" />
		<tag k="place" v="locality" />
		<tag k="ssr:stedsnr" v="526459" />
	</node>
	<node lat="60.81623055828588" lon="11.166152770244235" id="-36344">
		<tag k="name" v="Volleng" />
		<tag k="place" v="farm" />
		<tag k="ssr:stedsnr" v="526644" />
	</node>
	<node lat="60.79274444636723" lon="11.06444166695306" id="-36345">
		<tag k="name" v="Høyensalodden" />
		<tag k="natural" v="cape" />
		<tag k="old_name" v="Høiensalodden" />
		<tag k="ssr:stedsnr" v="527477" />
	</node>
	<node lat="60.84952778177779" lon="11.182030548401269" id="-36346">
		<tag k="name" v="Borud" />
		<tag k="place" v="farm" />
		<tag k="ssr:stedsnr" v="527580" />
	</node>
	<node lat="61.06197500327908" lon="11.1099777860211" id="-36347">
		<tag k="name" v="Tredvemyra" />
		<tag k="natural" v="wetland" />
		<tag k="ssr:stedsnr" v="540860" />
	</node>
	<node lat="61.09538055656953" lon="11.126830557701183" id="-36348">
		<tag k="name" v="Bekkeoset" />
		<tag k="place" v="isolated_dwelling" />
		<tag k="ssr:stedsnr" v="540869" />
	</node>
	<node lat="61.09646111509583" lon="11.09501388296042" id="-36349">
		<tag k="name" v="Spjeldåholmen" />
		<tag k="place" v="locality" />
		<tag k="ssr:stedsnr" v="540870" />
	</node>
	<node lat="60.89042777357858" lon="11.17552776886173" id="-36350">
		<tag k="name" v="Kirkebybekken" />
		<tag k="ssr:stedsnr" v="541465" />
		<tag k="waterway" v="stream" />
	</node>
	<node lat="60.97843889237768" lon="11.13194445342424" id="-36351">
		<tag k="name" v="Gjetryggen" />
		<tag k="natural" v="hill" />
		<tag k="place" v="locality" />
		<tag k="ssr:stedsnr" v="541363" />
	</node>
	<node lat="60.875802778259285" lon="11.141150005346727" id="-36352">
		<tag k="name" v="Stenshaug" />
		<tag k="place" v="farm" />
		<tag k="ssr:stedsnr" v="541611" />
	</node>
	<node lat="60.79730000133313" lon="11.19619444641212" id="-36353">
		<tag k="amenity" v="community_centre" />
		<tag k="name" v="Fredheim" />
		<tag k="ssr:stedsnr" v="542200" />
	</node>
	<node lat="60.81405833684725" lon="11.14684999673858" id="-36354">
		<tag k="name" v="Vinnheia" />
		<tag k="place" v="neighbourhood" />
		<tag k="ssr:stedsnr" v="542960" />
	</node>
	<node lat="61.129622218836175" lon="11.077086104196841" id="-36355">
		<tag k="name" v="Finse" />
		<tag k="place" v="isolated_dwelling" />
		<tag k="ssr:stedsnr" v="543951" />
	</node>
	<node lat="60.95053055267437" lon="11.12523055715151" id="-36356">
		<tag k="name" v="Mæresbekken" />
		<tag k="ssr:stedsnr" v="544251" />
		<tag k="waterway" v="stream" />
	</node>
	<node lat="61.1596944410711" lon="11.037302781326035" id="-36357">
		<tag k="name" v="Raudfjellsbekkekjølen" />
		<tag k="natural" v="wetland" />
		<tag k="ssr:stedsnr" v="544266" />
	</node>
	<node lat="61.06102499739396" lon="11.094588893846058" id="-36358">
		<tag k="name" v="Grytbekken" />
		<tag k="ssr:stedsnr" v="553248" />
		<tag k="waterway" v="stream" />
	</node>
	<node lat="61.0711277811628" lon="11.124227780145358" id="-36359">
		<tag k="name" v="Grønholtbekken" />
		<tag k="ssr:stedsnr" v="553253" />
		<tag k="waterway" v="stream" />
	</node>
	<node lat="61.027280551768264" lon="11.198122214720357" id="-36360">
		<tag k="name" v="Krokåa" />
		<tag k="ssr:stedsnr" v="553257" />
		<tag k="waterway" v="stream" />
	</node>
	<node lat="61.00029167051036" lon="11.13246389154535" id="-36361">
		<tag k="name" v="Kjeltåsen" />
		<tag k="place" v="hamlet" />
		<tag k="ssr:stedsnr" v="553266" />
	</node>
	<node lat="61.023241663557634" lon="11.140633336039159" id="-36362">
		<tag k="name" v="Bjørkholbekken" />
		<tag k="ssr:stedsnr" v="553276" />
		<tag k="waterway" v="stream" />
	</node>
	<node lat="60.9730000002672" lon="11.226124992216548" id="-36363">
		<tag k="name" v="Målikjølen" />
		<tag k="natural" v="wetland" />
		<tag k="ssr:stedsnr" v="555482" />
	</node>
	<node lat="60.99762499699997" lon="11.145600004343484" id="-36364">
		<tag k="name" v="Bergemyra" />
		<tag k="natural" v="wetland" />
		<tag k="ssr:stedsnr" v="555489" />
	</node>
	<node lat="60.82360919643774" lon="11.07876817182657" id="-36365">
		<tag k="alt_name" v="Vallsig, øvre" />
		<tag k="name" v="Øvre Vallsig" />
		<tag k="place" v="farm" />
		<tag k="ssr:stedsnr" v="555360" />
	</node>
	<node lat="60.852128423230596" lon="11.189275875707537" id="-36366">
		<tag k="name" v="Ilset" />
		<tag k="place" v="farm" />
		<tag k="ssr:stedsnr" v="555696" />
	</node>
	<node lat="60.782727778292625" lon="11.167586106479662" id="-36367">
		<tag k="name" v="Svartelva" />
		<tag k="ssr:stedsnr" v="555895" />
		<tag k="waterway" v="river" />
	</node>
	<node lat="60.77696666595831" lon="11.222247228370149" id="-36368">
		<tag k="name" v="Ilseng stasjon" />
		<tag k="railway" v="station" />
		<tag k="ssr:stedsnr" v="555899" />
		<tag k="train" v="yes" />
	</node>
	<node lat="60.961255555405586" lon="11.195172221029933" id="-36369">
		<tag k="name" v="Stensæterkjølen" />
		<tag k="natural" v="wetland" />
		<tag k="ssr:stedsnr" v="555546" />
	</node>
	<node lat="60.91773333199854" lon="11.239191671841898" id="-36370">
		<tag k="alt_name" v="Pannekakebua" />
		<tag k="name" v="Pannekakesletta" />
		<tag k="place" v="locality" />
		<tag k="ssr:stedsnr" v="555565" />
	</node>
	<node lat="60.83153276668266" lon="11.250080078608741" id="-36371">
		<tag k="name" v="Lindholt" />
		<tag k="place" v="farm" />
		<tag k="ssr:stedsnr" v="555777" />
	</node>
	<node lat="60.82064166437733" lon="11.18863611966052" id="-36372">
		<tag k="name" v="Nydal" />
		<tag k="place" v="farm" />
		<tag k="ssr:stedsnr" v="555793" />
	</node>
	<node lat="61.01520000407682" lon="11.147788890705803" id="-36373">
		<tag k="name" v="Ellemittholet" />
		<tag k="place" v="locality" />
		<tag k="ssr:stedsnr" v="566145" />
	</node>
	<node lat="60.90651944747789" lon="11.115552784695137" id="-36379">
		<tag k="name" v="Myrbergmyra" />
		<tag k="natural" v="wetland" />
		<tag k="ssr:stedsnr" v="585522" />
	</node>
	<node lat="60.896133337528354" lon="11.126200000309758" id="-36380">
		<tag k="name" v="Brennsæterbekken" />
		<tag k="ssr:stedsnr" v="585523" />
		<tag k="waterway" v="stream" />
	</node>
	<node lat="60.821983332148896" lon="11.222383332378307" id="-36381">
		<tag k="name" v="Østli" />
		<tag k="place" v="farm" />
		<tag k="ssr:stedsnr" v="586087" />
	</node>
	<node lat="60.80826666918938" lon="11.144805563373374" id="-36382">
		<tag k="name" v="Putten" />
		<tag k="place" v="farm" />
		<tag k="ssr:stedsnr" v="586620" />
	</node>
	<node lat="60.81210277525415" lon="11.09521111911546" id="-36383">
		<tag k="amenity" v="social_facility" />
		<tag k="name" v="Vien-senteret" />
		<tag k="old_name" v="Bjørketun barnehjem" />
		<tag k="social_facility" v="group_home" />
		<tag k="ssr:stedsnr" v="586625" />
	</node>
	<node lat="60.83835555728303" lon="11.197150008535358" id="-36384">
		<tag k="amenity" v="school" />
		<tag k="name" v="Lunden skole" />
		<tag k="ssr:stedsnr" v="587271" />
	</node>
	<node lat="60.822324998370846" lon="11.046883333336263" id="-36385">
		<tag k="name" v="Gubbestua" />
		<tag k="place" v="farm" />
		<tag k="ssr:stedsnr" v="587481" />
	</node>
	<node lat="60.90597500066946" lon="11.14134444749253" id="-36386">
		<tag k="name" v="Krampmyra" />
		<tag k="natural" v="wetland" />
		<tag k="ssr:stedsnr" v="587483" />
	</node>
	<node lat="60.807461113866665" lon="11.054816673584583" id="-36387">
		<tag k="leisure" v="pitch" />
		<tag k="name" v="Ajerhallen" />
		<tag k="ssr:stedsnr" v="587485" />
	</node>
	<node lat="60.865800004059786" lon="11.171111120457585" id="-36388">
		<tag k="name" v="Søndre Haugen" />
		<tag k="place" v="farm" />
		<tag k="ssr:stedsnr" v="587629" />
	</node>
	<node lat="60.78498107828271" lon="11.152803198445579" id="-36389">
		<tag k="bridge" v="yes" />
		<tag k="layer" v="1" />
		<tag k="name" v="Nybrua" />
		<tag k="ssr:stedsnr" v="591600" />
	</node>
	<node lat="60.87388888881857" lon="11.153716668410864" id="-36390">
		<tag k="name" v="Finsalødegården" />
		<tag k="place" v="locality" />
		<tag k="ssr:stedsnr" v="601562" />
	</node>
	<node lat="60.87598611534715" lon="11.167555560651955" id="-36391">
		<tag k="name" v="Fjellbu" />
		<tag k="place" v="farm" />
		<tag k="ssr:stedsnr" v="601564" />
	</node>
	<node lat="60.87440555665265" lon="11.166169448729894" id="-36392">
		<tag k="name" v="Holsvebakken" />
		<tag k="place" v="farm" />
		<tag k="ssr:stedsnr" v="601567" />
	</node>
	<node lat="60.81023888651528" lon="11.080913893037996" id="-36393">
		<tag k="name" v="Haugli" />
		<tag k="place" v="isolated_dwelling" />
		<tag k="ssr:stedsnr" v="601589" />
	</node>
	<node lat="60.8075694417691" lon="11.085047226869897" id="-36394">
		<tag k="name" v="Solvang" />
		<tag k="place" v="suburb" />
		<tag k="ssr:stedsnr" v="601591" />
	</node>
	<node lat="61.08963055420028" lon="11.120249996350568" id="-36395">
		<tag k="name" v="Hundhuslia" />
		<tag k="natural" v="slope" />
		<tag k="place" v="locality" />
		<tag k="ssr:stedsnr" v="601854" />
	</node>
	<node lat="61.09649166464822" lon="11.086411119732258" id="-36396">
		<tag k="name" v="Svartvelta" />
		<tag k="natural" v="slope" />
		<tag k="place" v="locality" />
		<tag k="ssr:stedsnr" v="601856" />
	</node>
	<node lat="60.98900555722534" lon="11.188886110924063" id="-36397">
		<tag k="name" v="Rustadhytta" />
		<tag k="place" v="isolated_dwelling" />
		<tag k="ssr:stedsnr" v="602361" />
	</node>
	<node lat="60.981363889807405" lon="11.189586118954738" id="-36398">
		<tag k="name" v="Kveåa" />
		<tag k="ssr:stedsnr" v="602368" />
		<tag k="waterway" v="stream" />
	</node>
	<node lat="60.81740833095685" lon="11.069688886049445" id="-36399">
		<tag k="aeroway" v="aerodrome" />
		<tag k="alt_name" v="Hamar flyplass, Stafsberg" />
		<tag k="name" v="Hamar flyplass" />
		<tag k="ssr:stedsnr" v="602953" />
	</node>
	<node lat="61.09032499783089" lon="11.126719445073935" id="-36400">
		<tag k="name" v="Nysæterbekken" />
		<tag k="ssr:stedsnr" v="613496" />
		<tag k="waterway" v="stream" />
	</node>
	<node lat="61.05754167061556" lon="11.162680557784183" id="-36401">
		<tag k="name" v="Lavlia" />
		<tag k="old_name" v="Lauvlia" />
		<tag k="place" v="hamlet" />
		<tag k="ssr:stedsnr" v="613253" />
	</node>
	<node lat="61.01053889116178" lon="11.133352782665952" id="-36402">
		<tag k="name" v="Hestbekken" />
		<tag k="ssr:stedsnr" v="614295" />
		<tag k="waterway" v="stream" />
	</node>
	<node lat="61.11209444646335" lon="11.03202777365815" id="-36403">
		<tag k="name" v="Kråleråa" />
		<tag k="ssr:stedsnr" v="614522" />
		<tag k="waterway" v="stream" />
	</node>
	<node lat="60.79511944790474" lon="11.047172216589464" id="-36404">
		<tag k="name" v="Storhamar" />
		<tag k="place" v="suburb" />
		<tag k="ssr:stedsnr" v="615468" />
	</node>
	<node lat="60.8245228578035" lon="11.14453493242106" id="-36405">
		<tag k="name" v="Karset" />
		<tag k="place" v="farm" />
		<tag k="ssr:stedsnr" v="615786" />
	</node>
	<node lat="60.902175003568864" lon="11.099433337015794" id="-36406">
		<tag k="name" v="Lundsæterhøgda" />
		<tag k="natural" v="hill" />
		<tag k="place" v="locality" />
		<tag k="ssr:stedsnr" v="615580" />
	</node>
	<node lat="60.859969444860134" lon="11.20466111324738" id="-36407">
		<tag k="name" v="Dammen" />
		<tag k="place" v="farm" />
		<tag k="ssr:stedsnr" v="615739" />
	</node>
	<node lat="60.860024996943835" lon="11.240924999057446" id="-36408">
		<tag k="name" v="Sandaker" />
		<tag k="place" v="farm" />
		<tag k="ssr:stedsnr" v="615740" />
	</node>
	<node lat="60.825286565613055" lon="11.23694851657908" id="-36409">
		<tag k="name" v="Finnberg" />
		<tag k="place" v="farm" />
		<tag k="ssr:stedsnr" v="615803" />
	</node>
	<node lat="60.819222039120504" lon="11.179757410076641" id="-36410">
		<tag k="amenity" v="university" />
		<tag k="name" v="Høgskolen i Innlandet, Blæstad" />
		<tag k="old_name" v="Blæstad;Hedmark distriktshøgskole, avd Blæstad" />
		<tag k="ssr:stedsnr" v="615811" />
	</node>
	<node lat="60.806547224116876" lon="11.23845556412509" id="-36411">
		<tag k="alt_name" v="Dørumselven" />
		<tag k="name" v="Dørumselva" />
		<tag k="place" v="farm" />
		<tag k="ssr:stedsnr" v="615832" />
	</node>
	<node lat="60.8027002370365" lon="11.204045054410651" id="-36412">
		<tag k="name" v="Bjørke" />
		<tag k="place" v="farm" />
		<tag k="ssr:stedsnr" v="615839" />
	</node>
	<node lat="60.899977779393936" lon="11.190750000975799" id="-36413">
		<tag k="name" v="Ormsætermyra" />
		<tag k="place" v="locality" />
		<tag k="ssr:stedsnr" v="615637" />
	</node>
	<node lat="60.93300278003822" lon="11.176374991699742" id="-36414">
		<tag k="alt_name" v="Langgjespa" />
		<tag k="name" v="Langgjesna" />
		<tag k="natural" v="wetland" />
		<tag k="ssr:stedsnr" v="616615" />
	</node>
	<node lat="60.93713889284622" lon="11.131699993097476" id="-36415">
		<tag k="name" v="Svartdalskoia" />
		<tag k="place" v="isolated_dwelling" />
		<tag k="ssr:stedsnr" v="616617" />
	</node>
	<node lat="60.83181666408696" lon="11.12404722757366" id="-36416">
		<tag k="name" v="Langbakken" />
		<tag k="place" v="farm" />
		<tag k="ssr:stedsnr" v="616802" />
	</node>
	<node lat="60.880697620090174" lon="11.14568930643491" id="-36417">
		<tag k="alt_name" v="Øvre Dufset" />
		<tag k="name" v="Dufset" />
		<tag k="place" v="farm" />
		<tag k="ssr:stedsnr" v="616678" />
	</node>
	<node lat="60.79660763284251" lon="11.140840300102402" id="-36418">
		<tag k="name" v="Vidarshov" />
		<tag k="place" v="farm" />
		<tag k="ssr:stedsnr" v="616882" />
	</node>
	<node lat="60.90435832987626" lon="11.055827781744172" id="-36419">
		<tag k="name" v="Viubekken" />
		<tag k="ssr:stedsnr" v="627091" />
		<tag k="waterway" v="stream" />
	</node>
	<node lat="60.84528888816342" lon="11.20576945091376" id="-36420">
		<tag k="name" v="Vestre Kartomten" />
		<tag k="place" v="farm" />
		<tag k="ssr:stedsnr" v="627783" />
	</node>
	<node lat="60.8431722204514" lon="11.187825004745882" id="-36421">
		<tag k="name" v="Østre Dystvoll" />
		<tag k="place" v="farm" />
		<tag k="ssr:stedsnr" v="629332" />
	</node>
	<node lat="60.92340555873858" lon="11.110986111953649" id="-36426">
		<tag k="name" v="Gråbendalen" />
		<tag k="natural" v="valley" />
		<tag k="place" v="locality" />
		<tag k="ssr:stedsnr" v="646243" />
	</node>
	<node lat="60.79649166316768" lon="11.086894450014114" id="-36427">
		<tag k="amenity" v="sports_centre" />
		<tag k="name" v="Hamarhallen" />
		<tag k="ssr:stedsnr" v="646544" />
	</node>
	<node lat="60.796352780252555" lon="11.0750750035548" id="-36429">
		<tag k="amenity" v="university" />
		<tag k="name" v="Høgskolen i Innlandet, Hamar" />
		<tag k="old_name" v="Høgskolen i Hedmark Campus Hamar;Hamar Lærerhøgskole" />
		<tag k="ssr:stedsnr" v="646556" />
	</node>
	<node lat="60.876733335204904" lon="11.121555557661543" id="-36430">
		<tag k="leisure" v="pitch" />
		<tag k="name" v="Liertoppen skisenter" />
		<tag k="ssr:stedsnr" v="646650" />
	</node>
	<node lat="60.88559999724262" lon="11.127652780583217" id="-36431">
		<tag k="name" v="Gjørslibakken" />
		<tag k="place" v="isolated_dwelling" />
		<tag k="ssr:stedsnr" v="646653" />
	</node>
	<node lat="60.8683305554581" lon="11.122905552593608" id="-36432">
		<tag k="name" v="Søndre Huse" />
		<tag k="place" v="farm" />
		<tag k="ssr:stedsnr" v="646658" />
	</node>
	<node lat="60.851461108664815" lon="11.10299167346958" id="-36433">
		<tag k="name" v="Nordengen" />
		<tag k="place" v="farm" />
		<tag k="ssr:stedsnr" v="646794" />
	</node>
	<node lat="60.833477782367396" lon="11.093108325195596" id="-36434">
		<tag k="name" v="Sveen" />
		<tag k="place" v="farm" />
		<tag k="ssr:stedsnr" v="646807" />
	</node>
	<node lat="60.849475002417925" lon="11.194741664696503" id="-36435">
		<tag k="name" v="Neby" />
		<tag k="place" v="farm" />
		<tag k="ssr:stedsnr" v="647025" />
	</node>
	<node lat="61.00889166926041" lon="11.162091658590171" id="-36436">
		<tag k="name" v="Beita" />
		<tag k="place" v="locality" />
		<tag k="ssr:stedsnr" v="647155" />
	</node>
	<node lat="60.868633335637746" lon="11.232055562447025" id="-36437">
		<tag k="name" v="Rønningen" />
		<tag k="place" v="farm" />
		<tag k="ssr:stedsnr" v="647044" />
	</node>
	<node lat="60.86564128677421" lon="11.234429528888908" id="-36438">
		<tag k="name" v="Brennhaug" />
		<tag k="place" v="farm" />
		<tag k="ssr:stedsnr" v="647046" />
	</node>
	<node lat="60.87787221868817" lon="11.254224997768612" id="-36439">
		<tag k="name" v="Bergsetmarka" />
		<tag k="place" v="locality" />
		<tag k="ssr:stedsnr" v="647048" />
	</node>
	<node lat="60.86332221813973" lon="11.191816663008298" id="-36440">
		<tag k="name" v="Løbergsmoen" />
		<tag k="place" v="locality" />
		<tag k="ssr:stedsnr" v="647055" />
	</node>
	<node lat="60.938777778434776" lon="11.144524995607226" id="-36441">
		<tag k="name" v="Svartdalen" />
		<tag k="natural" v="valley" />
		<tag k="place" v="locality" />
		<tag k="ssr:stedsnr" v="647459" />
	</node>
	<node lat="60.92316110896411" lon="11.152908332053343" id="-36442">
		<tag k="name" v="Nordre Jengardsmyra" />
		<tag k="natural" v="wetland" />
		<tag k="ssr:stedsnr" v="647460" />
	</node>
	<node lat="60.90737500122611" lon="11.138886114881467" id="-36443">
		<tag k="name" v="Krampholen" />
		<tag k="natural" v="hill" />
		<tag k="place" v="locality" />
		<tag k="ssr:stedsnr" v="647464" />
	</node>
	<node lat="60.95834722078117" lon="11.13430000632458" id="-36444">
		<tag k="name" v="Bukkhølholmen" />
		<tag k="place" v="islet" />
		<tag k="ssr:stedsnr" v="647498" />
	</node>
	<node lat="60.819231843912405" lon="11.234246038105058" id="-36445">
		<tag k="name" v="Fossum" />
		<tag k="place" v="farm" />
		<tag k="ssr:stedsnr" v="648268" />
	</node>
	<node lat="60.82440277616671" lon="11.089674994242904" id="-36446">
		<tag k="bridge" v="yes" />
		<tag k="layer" v="1" />
		<tag k="name" v="Turvegen" />
		<tag k="ssr:stedsnr" v="653574" />
	</node>
	<node lat="60.811433337367426" lon="11.083444439830227" id="-36448">
		<tag k="name" v="Jesenbakken" />
		<tag k="place" v="isolated_dwelling" />
		<tag k="ssr:stedsnr" v="703981" />
	</node>
	<node lat="60.811594447840385" lon="11.070402786266278" id="-36449">
		<tag k="name" v="Klukhagan" />
		<tag k="place" v="locality" />
		<tag k="ssr:stedsnr" v="703757" />
	</node>
	<node lat="60.922633333204175" lon="11.11407223033984" id="-36451">
		<tag k="name" v="Nedre Langholmen" />
		<tag k="place" v="islet" />
		<tag k="ssr:stedsnr" v="707257" />
	</node>
	<node lat="60.91197777889103" lon="11.09930833060265" id="-36452">
		<tag k="loc_name" v="Myssmørbekken" />
		<tag k="name" v="Mysmørbekken" />
		<tag k="ssr:stedsnr" v="707260" />
		<tag k="waterway" v="stream" />
	</node>
	<node lat="61.01997500444868" lon="11.12202222293824" id="-36453">
		<tag k="name" v="Kutangen" />
		<tag k="natural" v="cape" />
		<tag k="ssr:stedsnr" v="707894" />
	</node>
	<node lat="60.85228888672788" lon="11.195591659786036" id="-36454">
		<tag k="name" v="Haga" />
		<tag k="place" v="farm" />
		<tag k="ssr:stedsnr" v="708048" />
	</node>
	<node lat="60.85429444476411" lon="11.201894440323072" id="-36455">
		<tag k="name" v="Slettvoll" />
		<tag k="place" v="farm" />
		<tag k="ssr:stedsnr" v="708056" />
	</node>
	<node lat="60.90571666668908" lon="11.13216388729288" id="-36456">
		<tag k="name" v="Kubekklia" />
		<tag k="natural" v="slope" />
		<tag k="place" v="locality" />
		<tag k="ssr:stedsnr" v="708460" />
	</node>
	<node lat="60.841194444905334" lon="11.225588887713018" id="-36457">
		<tag k="name" v="Haugli" />
		<tag k="place" v="farm" />
		<tag k="ssr:stedsnr" v="709269" />
	</node>
	<node lat="60.850122218776406" lon="11.159430551962236" id="-36458">
		<tag k="junction" v="yes" />
		<tag k="name" v="Korslund" />
		<tag k="place" v="locality" />
		<tag k="ssr:stedsnr" v="709580" />
	</node>
	<node lat="60.80767500255512" lon="11.033158334449892" id="-36459">
		<tag k="leisure" v="pitch" />
		<tag k="name" v="Prestrudhallen" />
		<tag k="ssr:stedsnr" v="709463" />
	</node>
	<node lat="60.8013722180962" lon="11.037855559013746" id="-36460">
		<tag k="leisure" v="pitch" />
		<tag k="name" v="Hamar OL amfi Nordlyshallen" />
		<tag k="ssr:stedsnr" v="709466" />
	</node>
	<node lat="60.849908331074026" lon="11.164322216262955" id="-36461">
		<tag k="name" v="Stensby" />
		<tag k="place" v="farm" />
		<tag k="ssr:stedsnr" v="709581" />
	</node>
	<node lat="60.86063610845233" lon="11.158616668287104" id="-36462">
		<tag k="name" v="Enerødegården" />
		<tag k="place" v="farm" />
		<tag k="ssr:stedsnr" v="709592" />
	</node>
	<node lat="60.779856980662146" lon="11.21520824508418" id="-36463">
		<tag k="bridge" v="yes" />
		<tag k="layer" v="1" />
		<tag k="name" v="Ilseng bru" />
		<tag k="ssr:stedsnr" v="714495" />
	</node>
	<node lat="60.8634465068688" lon="11.109487258629228" id="-36464">
		<tag k="bridge" v="yes" />
		<tag k="layer" v="1" />
		<tag k="name" v="Bjørge bru" />
		<tag k="ssr:stedsnr" v="714523" />
	</node>
	<node lat="61.08455278080053" lon="11.170833326423686" id="-36465">
		<tag k="name" v="Jomfrudalsbekken" />
		<tag k="ssr:stedsnr" v="723897" />
		<tag k="waterway" v="stream" />
	</node>
	<node lat="61.10634721893697" lon="11.098950006332066" id="-36466">
		<tag k="name" v="Børstadvollen" />
		<tag k="place" v="locality" />
		<tag k="ssr:stedsnr" v="725950" />
	</node>
	<node lat="61.11172777645292" lon="11.086977784011479" id="-36467">
		<tag k="name" v="Morgenvollen" />
		<tag k="place" v="locality" />
		<tag k="ssr:stedsnr" v="725960" />
	</node>
	<node lat="60.97925833539088" lon="11.10935832601655" id="-36468">
		<tag k="name" v="Glestadmyra" />
		<tag k="natural" v="wetland" />
		<tag k="ssr:stedsnr" v="725900" />
	</node>
	<node lat="61.08974166389845" lon="11.14409999313647" id="-36469">
		<tag k="fixme" v="consider natural=peak for the most distinct mountains in the district" />
		<tag k="name" v="Joberget" />
		<tag k="natural" v="hill" />
		<tag k="place" v="locality" />
		<tag k="ssr:stedsnr" v="735463" />
	</node>
	<node lat="61.229905551718886" lon="10.830463894643284" id="-36470">
		<tag k="name" v="Åsta" />
		<tag k="ssr:stedsnr" v="736725" />
		<tag k="waterway" v="river" />
	</node>
	<node lat="60.95247499967372" lon="11.148100004803297" id="-36471">
		<tag k="name" v="Styggdalsbekken" />
		<tag k="ssr:stedsnr" v="737562" />
		<tag k="waterway" v="stream" />
	</node>
	<node lat="60.78842231097439" lon="11.186932167888001" id="-36472">
		<tag k="name" v="Nordre Opphus" />
		<tag k="place" v="farm" />
		<tag k="ssr:stedsnr" v="737898" />
	</node>
	<node lat="60.85645277997083" lon="11.218374991004744" id="-36473">
		<tag k="alt_name" v="Krogsti" />
		<tag k="name" v="Kroksti" />
		<tag k="place" v="farm" />
		<tag k="ssr:stedsnr" v="737737" />
	</node>
	<node lat="60.84120278117591" lon="11.11881388062452" id="-36474">
		<tag k="alt_name" v="Slettli" />
		<tag k="name" v="Slettly" />
		<tag k="place" v="farm" />
		<tag k="ssr:stedsnr" v="737758" />
	</node>
	<node lat="60.84138147120918" lon="11.212294809941778" id="-36475">
		<tag k="name" v="Bjørtomten" />
		<tag k="place" v="farm" />
		<tag k="ssr:stedsnr" v="737761" />
	</node>
	<node lat="60.81700495982036" lon="11.206443911794892" id="-36476">
		<tag k="name" v="Hommelstad" />
		<tag k="place" v="farm" />
		<tag k="ssr:stedsnr" v="737832" />
	</node>
	<node lat="60.813680556441746" lon="11.222730556844171" id="-36477">
		<tag k="name" v="Lillehagen" />
		<tag k="place" v="farm" />
		<tag k="ssr:stedsnr" v="737834" />
	</node>
	<node lat="60.81663070209353" lon="11.15923584459254" id="-36478">
		<tag k="name" v="Rogstad" />
		<tag k="place" v="farm" />
		<tag k="ssr:stedsnr" v="737839" />
	</node>
	<node lat="60.829802549466635" lon="11.254433291795001" id="-36479">
		<tag k="name" v="Spaberg" />
		<tag k="place" v="farm" />
		<tag k="ssr:stedsnr" v="737794" />
	</node>
	<node lat="60.852725003347985" lon="11.238205561971988" id="-36484">
		<tag k="name" v="Nymoen" />
		<tag k="place" v="farm" />
		<tag k="ssr:stedsnr" v="768036" />
	</node>
	<node lat="60.80704110901846" lon="11.138349146453283" id="-36485">
		<tag k="name" v="Bergsten" />
		<tag k="place" v="locality" />
		<tag k="ssr:stedsnr" v="768627" />
	</node>
	<node lat="60.854630552122046" lon="11.255916659163486" id="-36486">
		<tag k="name" v="Gryttingsødegården" />
		<tag k="place" v="farm" />
		<tag k="ssr:stedsnr" v="769029" />
	</node>
	<node lat="60.85800278216038" lon="11.249422214557674" id="-36487">
		<tag k="name" v="Åsvestad" />
		<tag k="place" v="farm" />
		<tag k="ssr:stedsnr" v="769031" />
	</node>
	<node lat="60.82660833766464" lon="11.258980555812693" id="-36488">
		<tag k="name" v="Stensli" />
		<tag k="place" v="farm" />
		<tag k="ssr:stedsnr" v="770218" />
	</node>
	<node lat="60.85245832964399" lon="11.133652770561957" id="-36489">
		<tag k="name" v="Vestheim" />
		<tag k="place" v="farm" />
		<tag k="ssr:stedsnr" v="770555" />
	</node>
	<node lat="60.801886114115504" lon="11.040797225547085" id="-36490">
		<tag k="name" v="Dalsløkka" />
		<tag k="place" v="suburb" />
		<tag k="ssr:stedsnr" v="770448" />
	</node>
	<node lat="60.824475568000494" lon="11.111171315030463" id="-36491">
		<tag k="name" v="Imerslund" />
		<tag k="place" v="farm" />
		<tag k="ssr:stedsnr" v="771268" />
	</node>
	<node lat="60.86232796853476" lon="11.247259167830169" id="-36492">
		<tag k="bridge" v="yes" />
		<tag k="layer" v="1" />
		<tag k="name" v="Alderslyst bru" />
		<tag k="ssr:stedsnr" v="774611" />
	</node>
	<node lat="60.84439204538116" lon="11.191370953488232" id="-36493">
		<tag k="bridge" v="yes" />
		<tag k="layer" v="1" />
		<tag k="name" v="Dystvoll bru" />
		<tag k="ssr:stedsnr" v="774615" />
	</node>
	<node lat="60.86593610739726" lon="11.133752780539684" id="-36494">
		<tag k="amenity" v="community_centre" />
		<tag k="name" v="Vestås" />
		<tag k="ssr:stedsnr" v="783581" />
	</node>
	<node lat="60.88256388750564" lon="11.163263894101899" id="-36495">
		<tag k="name" v="Bekkesveen" />
		<tag k="place" v="farm" />
		<tag k="ssr:stedsnr" v="783374" />
	</node>
	<node lat="60.880808332264856" lon="11.167622222765678" id="-36496">
		<tag k="name" v="Ham-jernhytta" />
		<tag k="place" v="isolated_dwelling" />
		<tag k="ssr:stedsnr" v="783379" />
	</node>
	<node lat="60.88557221775773" lon="11.131519450130883" id="-36497">
		<tag k="name" v="Åshagan" />
		<tag k="place" v="locality" />
		<tag k="ssr:stedsnr" v="783382" />
	</node>
	<node lat="61.09334166646629" lon="11.079647216569773" id="-36498">
		<tag k="name" v="Gammelbolsdalen" />
		<tag k="place" v="isolated_dwelling" />
		<tag k="ssr:stedsnr" v="783873" />
	</node>
	<node lat="60.77556944825172" lon="11.18923055519764" id="-36499">
		<tag k="name" v="Møllerstua" />
		<tag k="place" v="farm" />
		<tag k="ssr:stedsnr" v="785191" />
	</node>
	<node lat="61.108152776950504" lon="11.104683332832936" id="-36500">
		<tag k="name" v="Stangvollbekken" />
		<tag k="ssr:stedsnr" v="785962" />
		<tag k="waterway" v="stream" />
	</node>
	<node lat="60.94074999551894" lon="11.127708336862419" id="-36501">
		<tag k="name" v="Himmeldalen" />
		<tag k="natural" v="valley" />
		<tag k="place" v="locality" />
		<tag k="ssr:stedsnr" v="786235" />
	</node>
	<node lat="61.01269888450861" lon="11.112800920621932" id="-36502">
		<tag k="alt_name" v="Ørtjennet" />
		<tag k="name" v="Ørtjernet" />
		<tag k="natural" v="water" />
		<tag k="ssr:stedsnr" v="796287" />
	</node>
	<node lat="60.798761108120715" lon="11.167563889672255" id="-36503">
		<tag k="name" v="Lovisenberg" />
		<tag k="place" v="farm" />
		<tag k="ssr:stedsnr" v="798841" />
	</node>
	<node lat="60.87051295696992" lon="11.168807812774178" id="-36504">
		<tag k="name" v="Tønset" />
		<tag k="place" v="locality" />
		<tag k="ssr:stedsnr" v="798673" />
	</node>
	<node lat="60.821038889739796" lon="11.070566658870293" id="-36505">
		<tag k="alt_name" v="Vallsig, vestre" />
		<tag k="name" v="Vestre Vallsig" />
		<tag k="place" v="farm" />
		<tag k="ssr:stedsnr" v="798400" />
	</node>
	<node lat="60.93210833036019" lon="11.107225007847179" id="-36506">
		<tag k="name" v="Høyenhall" />
		<tag k="place" v="isolated_dwelling" />
		<tag k="ssr:stedsnr" v="798581" />
	</node>
	<node lat="60.99542500147145" lon="11.208975005944344" id="-36507">
		<tag k="name" v="Svartholbekken" />
		<tag k="ssr:stedsnr" v="798518" />
		<tag k="waterway" v="stream" />
	</node>
	<node lat="60.946580555395954" lon="11.122425000957785" id="-36508">
		<tag k="name" v="Tørbustilen" />
		<tag k="place" v="hamlet" />
		<tag k="ssr:stedsnr" v="798541" />
	</node>
	<node lat="60.89589999749784" lon="11.161311119699343" id="-36509">
		<tag k="alt_name" v="Gillermyrbanen" />
		<tag k="name" v="Gilmyrbanen" />
		<tag k="natural" v="wetland" />
		<tag k="ssr:stedsnr" v="798628" />
	</node>
	<node lat="60.81273916781123" lon="11.201593116962782" id="-36510">
		<tag k="name" v="Dørum" />
		<tag k="place" v="farm" />
		<tag k="ssr:stedsnr" v="798793" />
	</node>
	<node lat="60.79234490757481" lon="11.194076848939881" id="-36511">
		<tag k="name" v="Farmen" />
		<tag k="place" v="farm" />
		<tag k="ssr:stedsnr" v="798885" />
	</node>
	<node lat="60.92449444003372" lon="11.194763889856015" id="-36512">
		<tag k="fixme" v="consider tourism=alpine_hut or tourism=chalet" />
		<tag k="name" v="Lageråkvisla" />
		<tag k="ssr:stedsnr" v="814796" />
		<tag k="tourism" v="wilderness_hut" />
	</node>
	<node lat="60.87169444649306" lon="11.1525277727623" id="-36513">
		<tag k="name" v="Øvre Løvlien" />
		<tag k="place" v="farm" />
		<tag k="ssr:stedsnr" v="816488" />
	</node>
	<node lat="60.85850514649749" lon="11.203914701709005" id="-36515">
		<tag k="name" v="Sandbakken" />
		<tag k="place" v="farm" />
		<tag k="ssr:stedsnr" v="829048" />
	</node>
	<node lat="60.8875444399495" lon="11.233794448123977" id="-36516">
		<tag k="name" v="Berget" />
		<tag k="natural" v="hill" />
		<tag k="place" v="locality" />
		<tag k="ssr:stedsnr" v="829098" />
	</node>
	<node lat="60.80038333467503" lon="11.084863897902315" id="-36517">
		<tag k="amenity" v="school" />
		<tag k="name" v="Rollsløkken skole" />
		<tag k="ssr:stedsnr" v="829554" />
	</node>
	<node lat="60.813177778699824" lon="11.16677222634061" id="-36519">
		<tag k="name" v="Paradis" />
		<tag k="place" v="farm" />
		<tag k="ssr:stedsnr" v="829628" />
	</node>
	<node lat="60.80430833042219" lon="11.133769440569022" id="-36520">
		<tag k="amenity" v="nursing_home" />
		<tag k="name" v="Finsalsenteret" />
		<tag k="old_name" v="Finsal sykehjem" />
		<tag k="ssr:stedsnr" v="829635" />
	</node>
	<node lat="60.814808333703176" lon="11.127602776490912" id="-36521">
		<tag k="name" v="Røysa" />
		<tag k="natural" v="hill" />
		<tag k="place" v="locality" />
		<tag k="ssr:stedsnr" v="829637" />
	</node>
	<node lat="60.848150000403265" lon="11.105877768805154" id="-36522">
		<tag k="leisure" v="pitch" />
		<tag k="name" v="Vennkvern Motorbane" />
		<tag k="ssr:stedsnr" v="829837" />
	</node>
	<node lat="60.864000002526765" lon="11.260066666430468" id="-36523">
		<tag k="name" v="Bjørnbakken" />
		<tag k="place" v="farm" />
		<tag k="ssr:stedsnr" v="830032" />
	</node>
	<node lat="60.8647944464349" lon="11.221872216882952" id="-36524">
		<tag k="name" v="Ålerudrønningen" />
		<tag k="place" v="farm" />
		<tag k="ssr:stedsnr" v="830045" />
	</node>
	<node lat="60.863305559779135" lon="11.238211110803558" id="-36525">
		<tag k="name" v="Kylgården" />
		<tag k="place" v="farm" />
		<tag k="ssr:stedsnr" v="830048" />
	</node>
	<node lat="61.102916663430534" lon="11.14830555794119" id="-36526">
		<tag k="name" v="Monsbua" />
		<tag k="place" v="locality" />
		<tag k="ssr:stedsnr" v="830920" />
	</node>
	<node lat="60.82893332892525" lon="11.228225001224008" id="-36527">
		<tag k="name" v="Flengsrud" />
		<tag k="place" v="farm" />
		<tag k="ssr:stedsnr" v="831246" />
	</node>
	<node lat="60.842291664616816" lon="11.23715556125055" id="-36528">
		<tag k="junction" v="yes" />
		<tag k="name" v="Libergstajet" />
		<tag k="place" v="locality" />
		<tag k="ssr:stedsnr" v="831254" />
	</node>
	<node lat="60.81341110873138" lon="11.045655558982" id="-36529">
		<tag k="name" v="Hol" />
		<tag k="place" v="suburb" />
		<tag k="ssr:stedsnr" v="831445" />
	</node>
	<node lat="60.79370555583393" lon="11.059761101974283" id="-36531">
		<tag k="leisure" v="park" />
		<tag k="name" v="Koigen" />
		<tag k="ssr:stedsnr" v="831453" />
	</node>
	<node lat="60.85598889162409" lon="11.134616670715289" id="-36532">
		<tag k="amenity" v="community_centre" />
		<tag k="name" v="Neby" />
		<tag k="ssr:stedsnr" v="831548" />
	</node>
	<node lat="60.875341666117386" lon="11.175588897810446" id="-36533">
		<tag k="name" v="Åset" />
		<tag k="place" v="farm" />
		<tag k="ssr:stedsnr" v="844601" />
	</node>
	<node lat="60.83198333111346" lon="11.148849993787659" id="-36534">
		<tag k="name" v="Holter" />
		<tag k="place" v="farm" />
		<tag k="ssr:stedsnr" v="844568" />
	</node>
	<node lat="60.830547222458854" lon="11.131716660249918" id="-36535">
		<tag k="name" v="Haugom" />
		<tag k="place" v="farm" />
		<tag k="ssr:stedsnr" v="844573" />
	</node>
	<node lat="60.808924999131285" lon="11.085658334258163" id="-36536">
		<tag k="amenity" v="school" />
		<tag k="name" v="Solvang skole" />
		<tag k="ssr:stedsnr" v="845648" />
	</node>
	<node lat="60.93900555721175" lon="11.09141944118378" id="-36537">
		<tag k="landuse" v="meadow" />
		<tag k="name" v="Vakkervollen" />
		<tag k="ssr:stedsnr" v="847272" />
	</node>
	<node lat="60.78843333653629" lon="11.073000004045058" id="-36538">
		<tag k="name" v="Tjuvholmen" />
		<tag k="natural" v="peninsula" />
		<tag k="place" v="locality" />
		<tag k="ssr:stedsnr" v="859474" />
	</node>
	<node lat="60.794505552267125" lon="11.067952776167465" id="-36539">
		<tag k="name" v="Hamar" />
		<tag k="place" v="town" />
		<tag k="ssr:stedsnr" v="859443" />
	</node>
	<node lat="60.87979722632072" lon="11.161236109578297" id="-36540">
		<tag k="name" v="Tømte" />
		<tag k="place" v="farm" />
		<tag k="ssr:stedsnr" v="859657" />
	</node>
	<node lat="60.876331445961185" lon="11.125383815682616" id="-36541">
		<tag k="name" v="Gjørsli" />
		<tag k="place" v="farm" />
		<tag k="ssr:stedsnr" v="859658" />
	</node>
	<node lat="60.86955833068968" lon="11.219905549538005" id="-36542">
		<tag k="name" v="Lysaker" />
		<tag k="place" v="farm" />
		<tag k="ssr:stedsnr" v="859698" />
	</node>
	<node lat="60.83970941528612" lon="11.236714051640233" id="-36543">
		<tag k="name" v="Liberg" />
		<tag k="place" v="farm" />
		<tag k="ssr:stedsnr" v="859747" />
	</node>
	<node lat="60.84372175883403" lon="11.186627396779903" id="-36544">
		<tag k="name" v="Dystvoll" />
		<tag k="place" v="farm" />
		<tag k="ssr:stedsnr" v="859751" />
	</node>
	<node lat="60.79123333312025" lon="11.14934721396185" id="-36545">
		<tag k="name" v="Hjellum" />
		<tag k="place" v="quarter" />
		<tag k="ssr:stedsnr" v="859879" />
	</node>
	<node lat="60.84489493153219" lon="11.213803550873564" id="-36546">
		<tag k="name" v="Kartomten" />
		<tag k="place" v="farm" />
		<tag k="ssr:stedsnr" v="876450" />
	</node>
	<node lat="60.95656666207558" lon="11.210144452610136" id="-36548">
		<tag k="historic" v="shieling" />
		<tag k="name" v="Stensætra" />
		<tag k="place" v="isolated_dwelling" />
		<tag k="ssr:stedsnr" v="919569" />
	</node>
	<node lat="60.910155551673014" lon="11.160102783351284" id="-36549">
		<tag k="alt_name" v="Søndre Jengardsmyra" />
		<tag k="name" v="Jengardsmyra" />
		<tag k="natural" v="wetland" />
		<tag k="ssr:stedsnr" v="919581" />
	</node>
	<node lat="60.88306944421726" lon="11.183047229175928" id="-36550">
		<tag k="amenity" v="nursing_home" />
		<tag k="name" v="Vangseter" />
		<tag k="ssr:stedsnr" v="919617" />
	</node>
	<node lat="60.88470277649441" lon="11.188577784673889" id="-36551">
		<tag k="name" v="Lia" />
		<tag k="place" v="farm" />
		<tag k="ssr:stedsnr" v="919618" />
	</node>
	<node lat="60.89484721773133" lon="11.2301527852546" id="-36552">
		<tag k="name" v="Nedrevollen" />
		<tag k="place" v="farm" />
		<tag k="ssr:stedsnr" v="919620" />
	</node>
	<node lat="60.89294999665725" lon="11.14139999985493" id="-36553">
		<tag k="name" v="Åshagahøgda" />
		<tag k="natural" v="ridge" />
		<tag k="place" v="locality" />
		<tag k="ssr:stedsnr" v="919632" />
	</node>
	<node lat="60.845224999102875" lon="11.15910555328022" id="-36554">
		<tag k="name" v="Hjemli" />
		<tag k="place" v="farm" />
		<tag k="ssr:stedsnr" v="919736" />
	</node>
	<node lat="60.839624996447576" lon="11.175799997103779" id="-36555">
		<tag k="name" v="Kjøssveen" />
		<tag k="place" v="locality" />
		<tag k="ssr:stedsnr" v="919740" />
	</node>
	<node lat="60.86501687462389" lon="11.24191899609943" id="-36556">
		<tag k="name" v="Fetbekken" />
		<tag k="place" v="farm" />
		<tag k="ssr:stedsnr" v="919683" />
	</node>
	<node lat="60.82318454894032" lon="11.167494738642281" id="-36557">
		<tag k="name" v="Nashaug" />
		<tag k="place" v="farm" />
		<tag k="ssr:stedsnr" v="919783" />
	</node>
	<node lat="60.815872224206025" lon="11.043702769086366" id="-36558">
		<tag k="cemetery" v="grave" />
		<tag k="name" v="Hol" />
		<tag k="place" v="locality" />
		<tag k="ssr:stedsnr" v="920418" />
	</node>
	<node lat="60.792979252382864" lon="11.21677162450963" id="-36559">
		<tag k="name" v="Voll" />
		<tag k="place" v="farm" />
		<tag k="ssr:stedsnr" v="933404" />
	</node>
	<node lat="60.84159722592275" lon="11.096172223739392" id="-36560">
		<tag k="name" v="Hamar næringspark Trehørningen" />
		<tag k="place" v="neighbourhood" />
		<tag k="ssr:stedsnr" v="947625" />
	</node>
	<node lat="60.92283333239918" lon="11.101133335419922" id="-36562">
		<tag k="highway" v="path" />
		<tag k="name" v="Tørbustilvegen" />
		<tag k="ssr:stedsnr" v="950250" />
	</node>
	<node lat="61.1299055522155" lon="11.06820277178665" id="-36563">
		<tag k="highway" v="path" />
		<tag k="name" v="Birkebeinerstien" />
		<tag k="ssr:stedsnr" v="950264" />
	</node>
	<node lat="60.86911666598648" lon="11.126374994297374" id="-36564">
		<tag k="name" v="Vårtun" />
		<tag k="place" v="farm" />
		<tag k="ssr:stedsnr" v="950658" />
	</node>
	<node lat="60.82524444797098" lon="11.08042221620232" id="-36565">
		<tag k="leisure" v="pitch" />
		<tag k="name" v="Galåsbana" />
		<tag k="ssr:stedsnr" v="950809" />
	</node>
	<node lat="61.01450833373962" lon="11.162927772277696" id="-36566">
		<tag k="historic" v="shieling" />
		<tag k="name" v="Farmenvollen" />
		<tag k="place" v="locality" />
		<tag k="ssr:stedsnr" v="951353" />
	</node>
	<node lat="60.93750277817534" lon="11.141519448349797" id="-36567">
		<tag k="name" v="Gjerterudskampen" />
		<tag k="natural" v="hill" />
		<tag k="place" v="locality" />
		<tag k="ssr:stedsnr" v="951459" />
	</node>
	<node lat="60.942477777319496" lon="11.173794445077183" id="-36568">
		<tag k="name" v="Hubreddalen" />
		<tag k="natural" v="valley" />
		<tag k="place" v="locality" />
		<tag k="ssr:stedsnr" v="951464" />
	</node>
	<node lat="60.92239167076007" lon="11.158041673639445" id="-36569">
		<tag k="name" v="Stormyrkoia" />
		<tag k="place" v="locality" />
		<tag k="ssr:stedsnr" v="951466" />
	</node>
	<node lat="60.81949999978762" lon="11.256508325911408" id="-36570">
		<tag k="name" v="Store Vindhol" />
		<tag k="place" v="farm" />
		<tag k="ssr:stedsnr" v="952260" />
	</node>
	<node lat="60.81850833233687" lon="11.215344437969113" id="-36571">
		<tag k="name" v="Lille Ingvoldstad" />
		<tag k="place" v="farm" />
		<tag k="ssr:stedsnr" v="952263" />
	</node>
	<node lat="60.8422888859819" lon="11.199158326365286" id="-36572">
		<tag k="name" v="Sande" />
		<tag k="place" v="farm" />
		<tag k="ssr:stedsnr" v="952270" />
	</node>
	<node lat="60.8302388872953" lon="11.224919451608281" id="-36573">
		<tag k="name" v="Øverhagen" />
		<tag k="place" v="farm" />
		<tag k="ssr:stedsnr" v="952272" />
	</node>
	<node lat="60.82516388651396" lon="11.223480558294447" id="-36574">
		<tag k="name" v="Nysted" />
		<tag k="place" v="farm" />
		<tag k="ssr:stedsnr" v="952275" />
	</node>
	<node lat="60.8432555575361" lon="11.23577221357551" id="-36575">
		<tag k="name" v="Lunde" />
		<tag k="place" v="farm" />
		<tag k="ssr:stedsnr" v="952283" />
	</node>
	<node lat="60.79828610707112" lon="11.058530560055809" id="-36576">
		<tag k="name" v="Vestbyen" />
		<tag k="place" v="suburb" />
		<tag k="ssr:stedsnr" v="952471" />
	</node>
	<node lat="61.08890000058581" lon="11.161663885349345" id="-36577">
		<tag k="name" v="Johanstaddalen" />
		<tag k="natural" v="valley" />
		<tag k="place" v="locality" />
		<tag k="ssr:stedsnr" v="966926" />
	</node>
	<node lat="60.77827777943992" lon="11.207091675688268" id="-36578">
		<tag k="name" v="Olasvea" />
		<tag k="place" v="farm" />
		<tag k="ssr:stedsnr" v="967161" />
	</node>
	<node lat="60.795256641330674" lon="11.064620423763161" id="-36590">
		<tag k="name" v="Sigrid Undsets plass" />
		<tag k="place" v="square" />
		<tag k="ssr:stedsnr" v="988752" />
	</node>
	<node lat="60.8603682166499" lon="11.11519862047912" id="-36892">
		<tag k="name" v="Narmo" />
		<tag k="place" v="farm" />
		<tag k="ssr:stedsnr" v="1071896" />
	</node>
	<node lat="60.79885213640168" lon="11.12007597029734" id="-36893">
		<tag k="name" v="Åker" />
		<tag k="place" v="farm" />
		<tag k="ssr:stedsnr" v="1072983" />
	</node>
	<node lat="60.80393448180113" lon="11.134601571175027" id="-36894">
		<tag k="name" v="Finsal" />
		<tag k="place" v="farm" />
		<tag k="ssr:stedsnr" v="1072984" />
	</node>
	<node lat="60.800066074747136" lon="11.134179701227996" id="-36895">
		<tag k="name" v="Vang prestegård" />
		<tag k="place" v="farm" />
		<tag k="ssr:stedsnr" v="1072986" />
	</node>
	<node lat="60.804398693718234" lon="11.160995487040429" id="-36896">
		<tag k="name" v="Hubred" />
		<tag k="place" v="farm" />
		<tag k="ssr:stedsnr" v="1072987" />
	</node>
	<node lat="60.88111397412077" lon="11.132930048525557" id="-36897">
		<tag k="name" v="Ås" />
		<tag k="place" v="farm" />
		<tag k="ssr:stedsnr" v="1072992" />
	</node>
	<node lat="60.81946678293597" lon="11.182151618539272" id="-36898">
		<tag k="name" v="Blæstad" />
		<tag k="place" v="farm" />
		<tag k="ssr:stedsnr" v="1072996" />
	</node>
	<node lat="60.85264612890308" lon="11.182867151825308" id="-36899">
		<tag k="name" v="Skålerud" />
		<tag k="place" v="farm" />
		<tag k="ssr:stedsnr" v="1072997" />
	</node>
	<node lat="60.78716184615463" lon="11.180611446607095" id="-36900">
		<tag k="name" v="O" />
		<tag k="place" v="farm" />
		<tag k="ssr:stedsnr" v="1073013" />
	</node>
	<node lat="60.82264552643045" lon="11.075626575855063" id="-36901">
		<tag k="name" v="Vallsig" />
		<tag k="place" v="farm" />
		<tag k="ssr:stedsnr" v="1073014" />
	</node>
	<node lat="60.81997300520527" lon="11.050260057612148" id="-36902">
		<tag k="name" v="Alu" />
		<tag k="place" v="farm" />
		<tag k="ssr:stedsnr" v="1073016" />
	</node>
	<node lat="60.7867108497114" lon="11.228582617760866" id="-36903">
		<tag k="name" v="Farmenkoia" />
		<tag k="place" v="locality" />
		<tag k="ssr:stedsnr" v="1073567" />
	</node>
	<node lat="60.80265078951885" lon="11.06820666822154" id="-36905">
		<tag k="leisure" v="park" />
		<tag k="name" v="Ankerskogen" />
		<tag k="ssr:stedsnr" v="1076266" />
	</node>
	<node lat="60.85283209672433" lon="11.145435586296106" id="-36906">
		<tag k="name" v="Østre Svenkerud" />
		<tag k="place" v="farm" />
		<tag k="ssr:stedsnr" v="1076786" />
	</node>
	<node lat="60.85775044606286" lon="11.141791776344295" id="-36907">
		<tag k="name" v="Øvre Dalby" />
		<tag k="place" v="farm" />
		<tag k="ssr:stedsnr" v="1076787" />
	</node>
	<node lat="60.87338015588393" lon="11.129684023456015" id="-36908">
		<tag k="name" v="Østre Skjeset" />
		<tag k="place" v="farm" />
		<tag k="ssr:stedsnr" v="1076788" />
	</node>
	<node lat="60.88088765465687" lon="11.149342876231522" id="-36909">
		<tag k="name" v="Øvre Dufset" />
		<tag k="place" v="locality" />
		<tag k="ssr:stedsnr" v="1076789" />
	</node>
	<node lat="60.88194465960911" lon="11.178854076196801" id="-36910">
		<tag k="name" v="Nedre Kirkeby" />
		<tag k="place" v="farm" />
		<tag k="ssr:stedsnr" v="1076791" />
	</node>
	<node lat="60.84180764864384" lon="11.213938051593372" id="-36911">
		<tag k="name" v="Øvre Bjørtomten" />
		<tag k="place" v="farm" />
		<tag k="ssr:stedsnr" v="1076793" />
	</node>
	<node lat="60.86853311500189" lon="11.248192995127894" id="-36912">
		<tag k="name" v="Nedre Sagsveen" />
		<tag k="place" v="farm" />
		<tag k="ssr:stedsnr" v="1076794" />
	</node>
	<node lat="60.77783826477634" lon="11.176615599304379" id="-36913">
		<tag k="name" v="Søndre Opphus" />
		<tag k="place" v="locality" />
		<tag k="ssr:stedsnr" v="1076795" />
	</node>
	<node lat="60.81832781736101" lon="11.127722649743816" id="-36916">
		<tag k="name" v="Ingeberg" />
		<tag k="place" v="farm" />
		<tag k="ssr:stedsnr" v="1081918" />
	</node>
	<node lat="60.84575907729371" lon="11.092474292934394" id="-36918">
		<tag k="name" v="Gålåsholmen" />
		<tag k="place" v="farm" />
		<tag k="ssr:stedsnr" v="1082037" />
	</node>
	<node lat="60.82276392716542" lon="11.086138605270628" id="-36922">
		<tag k="name" v="Stensby" />
		<tag k="place" v="farm" />
		<tag k="ssr:stedsnr" v="1083986" />
	</node>
</osm>
