<?xml version="1.0" encoding="UTF-8"?>
<osm generator="osmapis" version="0.6">
	<node id="-35328" lat="59.9871944452" lon="11.1251611146">
		<tag k="name" v="Asakbråten" />
		<tag k="place" v="farm" />
		<tag k="ssr:stedsnr" v="368510" />
	</node>
	<node id="-35327" lat="59.983261113" lon="11.142800009">
		<tag k="alt_name" v="Brandrud" />
		<tag k="name" v="Branderud" />
		<tag k="place" v="farm" />
		<tag k="ssr:stedsnr" v="368507" />
	</node>
	<node id="-35326" lat="59.9763861124" lon="11.1477861093">
		<tag k="alt_name" v="Kongsrud, nordre" />
		<tag k="name" v="Nordre Kongsrud" />
		<tag k="place" v="farm" />
		<tag k="ssr:stedsnr" v="368475" />
	</node>
	<node id="-35320" lat="59.9561833311" lon="11.0592750049">
		<tag k="leisure" v="park" />
		<tag k="name" v="St. Sunnivas plass" />
		<tag k="ssr:stedsnr" v="327356" />
	</node>
	<node id="-35319" lat="59.9583555523" lon="11.0400388849">
		<tag k="amenity" v="school" />
		<tag k="name" v="Volla skole" />
		<tag k="ssr:stedsnr" v="327344" />
	</node>
	<node id="-35318" lat="59.9894722227" lon="11.1039138805">
		<tag k="name" v="Øvre Asak" />
		<tag k="place" v="farm" />
		<tag k="ssr:stedsnr" v="327323" />
	</node>
	<node id="-35317" lat="59.9991222213" lon="11.0167055527">
		<tag k="name" v="Smedbakken" />
		<tag k="place" v="farm" />
		<tag k="ssr:stedsnr" v="327303" />
	</node>
	<node id="-35316" lat="59.9889222218" lon="11.0235361138">
		<tag k="fixme" v="consider place=hamlet" />
		<tag k="name" v="Søndre Brånås" />
		<tag k="place" v="farm" />
		<tag k="ssr:stedsnr" v="327299" />
	</node>
	<node id="-35315" lat="59.9997166661" lon="11.0480055496">
		<tag k="name" v="Vestre Farseggen" />
		<tag k="place" v="farm" />
		<tag k="ssr:stedsnr" v="327296" />
	</node>
	<node id="-35314" lat="59.9846972193" lon="11.0361611197">
		<tag k="name" v="Vestre Holt" />
		<tag k="place" v="farm" />
		<tag k="ssr:stedsnr" v="327294" />
	</node>
	<node id="-35313" lat="59.9861888884" lon="11.13101667">
		<tag k="name" v="Nybråten" />
		<tag k="place" v="hamlet" />
		<tag k="ssr:stedsnr" v="327270" />
	</node>
	<node id="-35309" lat="59.9605944441" lon="11.0688944405">
		<tag k="alt_name" v="Lillestrøm stadion" />
		<tag k="leisure" v="pitch" />
		<tag k="name" v="Lillestrøm idrettspark" />
		<tag k="ssr:stedsnr" v="327018" />
	</node>
	<node id="-35308" lat="60.0002222229" lon="11.0976638836">
		<tag k="name" v="Haugli" />
		<tag k="place" v="farm" />
		<tag k="ssr:stedsnr" v="309960" />
	</node>
	<node id="-35306" lat="59.9693500042" lon="11.0756222246">
		<tag k="alt_name" v="Skogvollenga" />
		<tag k="name" v="Skåvålenga" />
		<tag k="place" v="farm" />
		<tag k="ssr:stedsnr" v="308527" />
	</node>
	<node id="-35304" lat="59.9858583353" lon="11.100463894">
		<tag k="alt_name" v="Asak, m;Mellem Asak" />
		<tag k="name" v="Mellom-Asak" />
		<tag k="place" v="farm" />
		<tag k="ssr:stedsnr" v="308430" />
	</node>
	<node id="-35303" lat="59.9818749995" lon="11.1496777814">
		<tag k="name" v="Kopperud" />
		<tag k="place" v="farm" />
		<tag k="ssr:stedsnr" v="308428" />
	</node>
	<node id="-35302" lat="59.9843722195" lon="11.1723249965">
		<tag k="name" v="Kohinor" />
		<tag k="place" v="isolated_dwelling" />
		<tag k="ssr:stedsnr" v="308416" />
	</node>
	<node id="-35301" lat="59.9812388873" lon="11.1015972164">
		<tag k="alt_name" v="Asak, s;Asak" />
		<tag k="name" v="Vestre Asak" />
		<tag k="place" v="farm" />
		<tag k="ssr:stedsnr" v="308410" />
	</node>
	<node id="-35300" lat="60.0211416681" lon="11.0594555635">
		<tag k="name" v="Skillebekk" />
		<tag k="place" v="isolated_dwelling" />
		<tag k="ssr:stedsnr" v="308358" />
	</node>
	<node id="-35296" lat="59.9930638876" lon="11.0936611127">
		<tag k="name" v="Nes" />
		<tag k="place" v="farm" />
		<tag k="ssr:stedsnr" v="285530" />
	</node>
	<node id="-35295" lat="60.0128166625" lon="10.9774999956">
		<tag k="name" v="Solberg" />
		<tag k="place" v="farm" />
		<tag k="ssr:stedsnr" v="269383" />
	</node>
	<node id="-35723" lat="59.9501027775" lon="11.015405554">
		<tag k="amenity" v="school" />
		<tag k="name" v="Stalsberg ungdomsskole" />
		<tag k="ssr:stedsnr" v="934329" />
	</node>
	<node id="-35721" lat="59.9729166624" lon="10.9577388956">
		<tag k="name" v="Knivstikkeren" />
		<tag k="place" v="isolated_dwelling" />
		<tag k="ssr:stedsnr" v="934316" />
	</node>
	<node id="-35720" lat="59.9971027738" lon="11.0634277831">
		<tag k="name" v="Dammensletta" />
		<tag k="place" v="isolated_dwelling" />
		<tag k="ssr:stedsnr" v="934300" />
	</node>
	<node id="-35719" lat="60.0090277787" lon="11.0355472255">
		<tag k="amenity" v="school" />
		<tag k="name" v="Korshagen skole" />
		<tag k="ssr:stedsnr" v="934299" />
	</node>
	<node id="-35718" lat="59.9636166683" lon="10.9995749969">
		<tag k="amenity" v="school" />
		<tag k="name" v="Stav ungdomsskole" />
		<tag k="ssr:stedsnr" v="934298" />
	</node>
	<node id="-35717" lat="59.9826055594" lon="11.0780694403">
		<tag k="name" v="Tomtnesa" />
		<tag k="place" v="farm" />
		<tag k="ssr:stedsnr" v="934280" />
	</node>
	<node id="-35716" lat="59.9795333341" lon="11.076491668">
		<tag k="name" v="Bergsbråten" />
		<tag k="place" v="farm" />
		<tag k="ssr:stedsnr" v="934279" />
	</node>
	<node id="-35715" lat="59.9778805549" lon="11.029225001">
		<tag k="name" v="Østre Nitberg" />
		<tag k="place" v="farm" />
		<tag k="ssr:stedsnr" v="934273" />
	</node>
	<node id="-35709" lat="60.015099999" lon="10.9902305536">
		<tag k="name" v="Ringnesstua" />
		<tag k="place" v="locality" />
		<tag k="ssr:stedsnr" v="934015" />
	</node>
	<node id="-35708" lat="59.989754662" lon="11.023587129">
		<tag k="name" v="Brånås" />
		<tag k="place" v="hamlet" />
		<tag k="ssr:stedsnr" v="915553" />
	</node>
	<node id="-35707" lat="59.9665250002" lon="10.9876944527">
		<tag k="name" v="Terudenga" />
		<tag k="place" v="farm" />
		<tag k="ssr:stedsnr" v="915530" />
	</node>
	<node id="-35706" lat="59.9864166641" lon="11.177097218">
		<tag k="name" v="Ruserud" />
		<tag k="place" v="isolated_dwelling" />
		<tag k="ssr:stedsnr" v="915467" />
	</node>
	<node id="-35705" lat="60.0177638882" lon="10.9731277839">
		<tag k="name" v="Myrhaug" />
		<tag k="place" v="isolated_dwelling" />
		<tag k="ssr:stedsnr" v="915365" />
	</node>
	<node id="-35704" lat="60.0041249999" lon="10.9997388901">
		<tag k="name" v="Værhaug" />
		<tag k="place" v="farm" />
		<tag k="ssr:stedsnr" v="915315" />
	</node>
	<node id="-35699" lat="59.9509916698" lon="11.0216166665">
		<tag k="name" v="Søndre Stalsberg" />
		<tag k="place" v="farm" />
		<tag k="ssr:stedsnr" v="873384" />
	</node>
	<node id="-35698" lat="59.9582222229" lon="11.042077782">
		<tag k="leisure" v="park" />
		<tag k="name" v="Vollaparken" />
		<tag k="ssr:stedsnr" v="873381" />
	</node>
	<node id="-35697" lat="59.9591416708" lon="11.0565361079">
		<tag k="amenity" v="nursing_home" />
		<tag k="name" v="Lillestrøm bo- og behandlingssenter" />
		<tag k="old_name" v="Lillestrøm aldershjem" />
		<tag k="ssr:stedsnr" v="873374" />
	</node>
	<node id="-35696" lat="59.9936138879" lon="11.0995000011">
		<tag k="name" v="Enga" />
		<tag k="place" v="farm" />
		<tag k="ssr:stedsnr" v="873352" />
	</node>
	<node id="-35695" lat="59.9671499975" lon="10.9555972237">
		<tag k="name" v="Hellerudkoia" />
		<tag k="place" v="isolated_dwelling" />
		<tag k="ssr:stedsnr" v="873341" />
	</node>
	<node id="-35694" lat="59.993508337" lon="11.1087027747">
		<tag k="amenity" v="school" />
		<tag k="name" v="Asak skole" />
		<tag k="ssr:stedsnr" v="873339" />
	</node>
	<node id="-35693" lat="59.9817361097" lon="11.0297194474">
		<tag k="name" v="Haugenstua" />
		<tag k="place" v="farm" />
		<tag k="ssr:stedsnr" v="873308" />
	</node>
	<node id="-35692" lat="59.9797583365" lon="11.032586109">
		<tag k="name" v="Dompa" />
		<tag k="place" v="farm" />
		<tag k="ssr:stedsnr" v="873301" />
	</node>
	<node id="-35691" lat="59.9828027787" lon="10.9881055619">
		<tag k="name" v="Nitsund" />
		<tag k="place" v="farm" />
		<tag k="ssr:stedsnr" v="873299" />
	</node>
	<node id="-35690" lat="60.0163499967" lon="10.9733722252">
		<tag k="name" v="Myrenga" />
		<tag k="place" v="farm" />
		<tag k="ssr:stedsnr" v="873276" />
	</node>
	<node id="-35685" lat="60.0062138918" lon="11.0909749958">
		<tag k="name" v="Enger" />
		<tag k="place" v="farm" />
		<tag k="ssr:stedsnr" v="855334" />
	</node>
	<node id="-35684" lat="59.990699997" lon="10.9939777852">
		<tag k="name" v="Høgtveita" />
		<tag k="place" v="farm" />
		<tag k="ssr:stedsnr" v="854596" />
	</node>
	<node id="-35683" lat="59.9953500024" lon="11.0457222197">
		<tag k="name" v="Nordvollen" />
		<tag k="place" v="farm" />
		<tag k="ssr:stedsnr" v="854553" />
	</node>
	<node id="-35681" lat="59.9589722549" lon="10.9826579703">
		<tag k="name" v="Gullhaug" />
		<tag k="place" v="farm" />
		<tag k="ssr:stedsnr" v="854504" />
	</node>
	<node id="-35676" lat="59.9601638865" lon="11.0402833357">
		<tag k="name" v="Volla" />
		<tag k="place" v="suburb" />
		<tag k="ssr:stedsnr" v="812398" />
	</node>
	<node id="-35674" lat="59.9570000016" lon="11.0768166753">
		<tag k="name" v="Markerud" />
		<tag k="place" v="farm" />
		<tag k="ssr:stedsnr" v="812326" />
	</node>
	<node id="-35673" lat="59.9748388856" lon="10.9694388899">
		<tag k="name" v="Lahaug" />
		<tag k="place" v="farm" />
		<tag k="ssr:stedsnr" v="812313" />
	</node>
	<node id="-35672" lat="60.006680558" lon="11.0191805543">
		<tag k="name" v="Jansbråten" />
		<tag k="place" v="isolated_dwelling" />
		<tag k="ssr:stedsnr" v="812309" />
	</node>
	<node id="-35669" lat="59.9778777821" lon="11.0724583401">
		<tag k="name" v="Nygård" />
		<tag k="place" v="farm" />
		<tag k="ssr:stedsnr" v="794522" />
	</node>
	<node id="-35668" lat="60.0184193285" lon="11.0640877166">
		<tag k="alt_name" v="Berger, nordre;Berger" />
		<tag k="name" v="Nordre Berger" />
		<tag k="place" v="farm" />
		<tag k="ssr:stedsnr" v="794366" />
	</node>
	<node id="-35667" lat="60.0217833307" lon="11.0328777769">
		<tag k="alt_name" v="Myrer, nordre" />
		<tag k="name" v="Nordre Myrer" />
		<tag k="place" v="farm" />
		<tag k="ssr:stedsnr" v="794361" />
	</node>
	<node id="-35666" lat="60.0111749997" lon="10.9888777756">
		<tag k="name" v="Solberg" />
		<tag k="place" v="farm" />
		<tag k="ssr:stedsnr" v="794349" />
	</node>
	<node id="-35665" lat="60.0010194479" lon="11.075383327">
		<tag k="alt_name" v="Bøler, nedre" />
		<tag k="name" v="Nedre Bøler" />
		<tag k="place" v="farm" />
		<tag k="ssr:stedsnr" v="794302" />
	</node>
	<node id="-35664" lat="59.9802444402" lon="11.0085222237">
		<tag k="name" v="Kjellerholen" />
		<tag k="place" v="farm" />
		<tag k="ssr:stedsnr" v="793608" />
	</node>
	<node id="-35663" lat="59.9992444434" lon="11.0080749953">
		<tag k="alt_name" v="Skolsegg" />
		<tag k="name" v="Nedre Skolsegg" />
		<tag k="place" v="farm" />
		<tag k="ssr:stedsnr" v="793603" />
	</node>
	<node id="-35662" lat="59.9747055527" lon="11.0169583274">
		<tag k="name" v="Valstad" />
		<tag k="place" v="farm" />
		<tag k="ssr:stedsnr" v="793568" />
	</node>
	<node id="-35661" lat="59.9749083331" lon="11.0000888927">
		<tag k="name" v="Hvam" />
		<tag k="place" v="farm" />
		<tag k="ssr:stedsnr" v="793560" />
	</node>
	<node id="-35660" lat="59.9529055515" lon="10.9849555557">
		<tag k="name" v="Steinbekk" />
		<tag k="place" v="farm" />
		<tag k="ssr:stedsnr" v="793538" />
	</node>
	<node id="-35659" lat="59.9512833367" lon="11.0202805508">
		<tag k="name" v="Stalsberg" />
		<tag k="place" v="farm" />
		<tag k="ssr:stedsnr" v="793033" />
	</node>
	<node id="-35657" lat="59.984008337" lon="11.1209749991">
		<tag k="name" v="Asakmoen" />
		<tag k="place" v="farm" />
		<tag k="ssr:stedsnr" v="793500" />
	</node>
	<node id="-35656" lat="59.975349999" lon="11.1245999982">
		<tag k="name" v="Torgunrud" />
		<tag k="place" v="farm" />
		<tag k="ssr:stedsnr" v="793481" />
	</node>
	<node id="-35655" lat="59.9730750044" lon="11.1491305547">
		<tag k="alt_name" v="Kongsrud, s" />
		<tag k="name" v="Søndre Kongsrud" />
		<tag k="place" v="farm" />
		<tag k="ssr:stedsnr" v="793480" />
	</node>
	<node id="-35654" lat="59.9666833302" lon="10.939144443">
		<tag k="leisure" v="pitch" />
		<tag k="name" v="Liabakkene" />
		<tag k="ssr:stedsnr" v="752021" />
	</node>
	<node id="-35649" lat="59.9820305549" lon="11.0761583274">
		<tag k="name" v="Rishagen" />
		<tag k="place" v="farm" />
		<tag k="ssr:stedsnr" v="751348" />
	</node>
	<node id="-35648" lat="59.9808333317" lon="11.1035027756">
		<tag k="name" v="Østre Asak" />
		<tag k="place" v="farm" />
		<tag k="ssr:stedsnr" v="751340" />
	</node>
	<node id="-35647" lat="59.9797833368" lon="11.0234027717">
		<tag k="name" v="Vestre Nitberg" />
		<tag k="place" v="farm" />
		<tag k="ssr:stedsnr" v="751335" />
	</node>
	<node id="-35644" lat="60.0146416648" lon="10.9882638811">
		<tag k="name" v="Stenerstua" />
		<tag k="place" v="locality" />
		<tag k="ssr:stedsnr" v="751017" />
	</node>
	<node id="-35643" lat="60.0140500009" lon="10.9743055627">
		<tag k="name" v="Nygård" />
		<tag k="place" v="farm" />
		<tag k="ssr:stedsnr" v="734405" />
	</node>
	<node id="-35642" lat="60.007905554" lon="11.0424138898">
		<tag k="name" v="Marlund" />
		<tag k="place" v="isolated_dwelling" />
		<tag k="ssr:stedsnr" v="734385" />
	</node>
	<node id="-35641" lat="59.9862027795" lon="11.0575611074">
		<tag k="alt_name" v="Løkenflaen" />
		<tag k="name" v="Flaen" />
		<tag k="place" v="farm" />
		<tag k="ssr:stedsnr" v="733551" />
	</node>
	<node id="-35640" lat="59.9963160696" lon="11.0260911997">
		<tag k="name" v="Fjellset" />
		<tag k="place" v="farm" />
		<tag k="ssr:stedsnr" v="733548" />
	</node>
	<node id="-35639" lat="59.9928222247" lon="11.0704833248">
		<tag k="fixme" v="consider place=hamlet" />
		<tag k="name" v="Lille Kjus" />
		<tag k="place" v="farm" />
		<tag k="ssr:stedsnr" v="733540" />
	</node>
	<node id="-35638" lat="59.9906861133" lon="11.0091638877">
		<tag k="name" v="Jogstad" />
		<tag k="place" v="farm" />
		<tag k="ssr:stedsnr" v="733541" />
	</node>
	<node id="-35636" lat="59.9669055531" lon="10.9898611198">
		<tag k="name" v="Melby" />
		<tag k="place" v="farm" />
		<tag k="ssr:stedsnr" v="733469" />
	</node>
	<node id="-35634" lat="60.0004555527" lon="11.0102083299">
		<tag k="alt_name" v="Skolsegg" />
		<tag k="name" v="Øvre Skolsegg" />
		<tag k="place" v="farm" />
		<tag k="ssr:stedsnr" v="733369" />
	</node>
	<node id="-35633" lat="60.0165861129" lon="11.0446666709">
		<tag k="name" v="Lurud" />
		<tag k="place" v="farm" />
		<tag k="ssr:stedsnr" v="733363" />
	</node>
	<node id="-35632" lat="60.015280556" lon="11.0533111111">
		<tag k="name" v="Sandbakken" />
		<tag k="place" v="farm" />
		<tag k="ssr:stedsnr" v="733364" />
	</node>
	<node id="-35631" lat="60.003113887" lon="11.0672277822">
		<tag k="alt_name" v="Bøler, øvre" />
		<tag k="name" v="Øvre Bøler" />
		<tag k="place" v="farm" />
		<tag k="ssr:stedsnr" v="733313" />
	</node>
	<node id="-35630" lat="59.9506305597" lon="11.0100944487">
		<tag k="name" v="Strømmen" />
		<tag k="place" v="village" />
		<tag k="ssr:stedsnr" v="732564" />
	</node>
	<node id="-35625" lat="59.9963888894" lon="11.0403694412">
		<tag k="amenity" v="school" />
		<tag k="name" v="Sten- Tærud skole" />
		<tag k="ssr:stedsnr" v="691368" />
	</node>
	<node id="-35624" lat="59.9821805518" lon="11.0074555629">
		<tag k="name" v="Stubberud" />
		<tag k="place" v="farm" />
		<tag k="ssr:stedsnr" v="691335" />
	</node>
	<node id="-35623" lat="59.9834861137" lon="11.0142222204">
		<tag k="name" v="Tuterud" />
		<tag k="place" v="hamlet" />
		<tag k="ssr:stedsnr" v="691318" />
	</node>
	<node id="-35622" lat="59.9769555519" lon="11.0579472186">
		<tag k="name" v="Dalheim" />
		<tag k="place" v="hamlet" />
		<tag k="ssr:stedsnr" v="691317" />
	</node>
	<node id="-35621" lat="60.005422221" lon="11.0189583401">
		<tag k="name" v="Tærudstuen" />
		<tag k="place" v="farm" />
		<tag k="ssr:stedsnr" v="691309" />
	</node>
	<node id="-35615" lat="59.9995583292" lon="11.0536277861">
		<tag k="name" v="Farseggen" />
		<tag k="place" v="farm" />
		<tag k="ssr:stedsnr" v="673411" />
	</node>
	<node id="-35614" lat="60.0134527791" lon="10.9935944439">
		<tag k="alt_name" v="Ringnes, nordre" />
		<tag k="name" v="Øvre Ringnes" />
		<tag k="place" v="farm" />
		<tag k="ssr:stedsnr" v="673384" />
	</node>
	<node id="-35613" lat="60.0118232313" lon="11.0565540019">
		<tag k="name" v="Søndre Berger" />
		<tag k="place" v="farm" />
		<tag k="ssr:stedsnr" v="673370" />
	</node>
	<node id="-35612" lat="59.9893027754" lon="11.0031638889">
		<tag k="alt_name" v="Møien" />
		<tag k="loc_name" v="Møi" />
		<tag k="name" v="Møyen" />
		<tag k="place" v="farm" />
		<tag k="ssr:stedsnr" v="672585" />
	</node>
	<node id="-35611" lat="59.9859027771" lon="10.9921722204">
		<tag k="name" v="Sundtveita" />
		<tag k="place" v="farm" />
		<tag k="ssr:stedsnr" v="672546" />
	</node>
	<node id="-35610" lat="59.997577779" lon="11.0142611041">
		<tag k="name" v="Haug" />
		<tag k="place" v="farm" />
		<tag k="ssr:stedsnr" v="672538" />
	</node>
	<node id="-35609" lat="59.9895722206" lon="11.049150003">
		<tag k="name" v="Løken" />
		<tag k="place" v="farm" />
		<tag k="ssr:stedsnr" v="672533" />
	</node>
	<node id="-35608" lat="59.9611249978" lon="10.9812916728">
		<tag k="name" v="Tømte" />
		<tag k="place" v="farm" />
		<tag k="ssr:stedsnr" v="672516" />
	</node>
	<node id="-35607" lat="59.9686638903" lon="10.9804250026">
		<tag k="alt_name" v="Tærud" />
		<tag k="name" v="Terud" />
		<tag k="place" v="farm" />
		<tag k="ssr:stedsnr" v="672513" />
	</node>
	<node id="-35606" lat="59.9801750034" lon="11.1121999984">
		<tag k="name" v="Flaen" />
		<tag k="place" v="farm" />
		<tag k="ssr:stedsnr" v="672435" />
	</node>
	<node id="-35604" lat="59.980622995" lon="11.0453519322">
		<tag k="fixme" v="consider place=hamlet" />
		<tag k="name" v="Ris" />
		<tag k="place" v="farm" />
		<tag k="ssr:stedsnr" v="652790" />
	</node>
	<node id="-35598" lat="59.9511249987" lon="11.0127833252">
		<tag k="amenity" v="school" />
		<tag k="name" v="Sagdalen skole" />
		<tag k="ssr:stedsnr" v="630349" />
	</node>
	<node id="-35597" lat="59.9542944466" lon="11.037108331">
		<tag k="name" v="Dampsagtomta" />
		<tag k="place" v="quarter" />
		<tag k="ssr:stedsnr" v="630341" />
	</node>
	<node id="-35596" lat="60.0087888883" lon="11.033750003">
		<tag k="amenity" v="school" />
		<tag k="name" v="Åsenhagen skole" />
		<tag k="ssr:stedsnr" v="630305" />
	</node>
	<node id="-35595" lat="59.987463886" lon="11.0617416656">
		<tag k="name" v="Slogum" />
		<tag k="place" v="farm" />
		<tag k="ssr:stedsnr" v="630302" />
	</node>
	<node id="-35594" lat="59.9707833303" lon="11.008047231">
		<tag k="name" v="Solvang" />
		<tag k="place" v="farm" />
		<tag k="ssr:stedsnr" v="630298" />
	</node>
	<node id="-35593" lat="59.9634388906" lon="11.0182527759">
		<tag k="name" v="Stavstranden" />
		<tag k="place" v="farm" />
		<tag k="ssr:stedsnr" v="630290" />
	</node>
	<node id="-35592" lat="59.9760694455" lon="10.9796499916">
		<tag k="name" v="Haugsholen" />
		<tag k="place" v="farm" />
		<tag k="ssr:stedsnr" v="630285" />
	</node>
	<node id="-35591" lat="59.972641664" lon="10.9727388916">
		<tag k="name" v="Foss" />
		<tag k="place" v="farm" />
		<tag k="ssr:stedsnr" v="630284" />
	</node>
	<node id="-35590" lat="59.9476055588" lon="11.0008333329">
		<tag k="name" v="Næbben" />
		<tag k="place" v="farm" />
		<tag k="ssr:stedsnr" v="630278" />
	</node>
	<node id="-35589" lat="60.0142611124" lon="11.0257472307">
		<tag k="name" v="Kroken" />
		<tag k="place" v="hamlet" />
		<tag k="ssr:stedsnr" v="630276" />
	</node>
	<node id="-35587" lat="59.9713861078" lon="11.1404583318">
		<tag k="name" v="Finnbråten" />
		<tag k="place" v="locality" />
		<tag k="ssr:stedsnr" v="630026" />
	</node>
	<node id="-35585" lat="59.9970611113" lon="11.0817166641">
		<tag k="alt_name" v="Ullreng;Ullreng søndre" />
		<tag k="name" v="Søndre Ullreng" />
		<tag k="place" v="farm" />
		<tag k="ssr:stedsnr" v="611574" />
	</node>
	<node id="-35584" lat="59.9771583312" lon="10.9777333277">
		<tag k="name" v="Hellerud" />
		<tag k="place" v="farm" />
		<tag k="ssr:stedsnr" v="611531" />
	</node>
	<node id="-35583" lat="59.9688472184" lon="11.0590027764">
		<tag k="alt_name" v="Sørum, vestre" />
		<tag k="name" v="Vestre Sørum" />
		<tag k="place" v="farm" />
		<tag k="ssr:stedsnr" v="611507" />
	</node>
	<node id="-35582" lat="59.9854750006" lon="11.1305166638">
		<tag k="name" v="Sjursrud" />
		<tag k="place" v="farm" />
		<tag k="ssr:stedsnr" v="611468" />
	</node>
	<node id="-35575" lat="59.9932361073" lon="11.0446666629">
		<tag k="name" v="Prestegård" />
		<tag k="place" v="isolated_dwelling" />
		<tag k="ssr:stedsnr" v="569348" />
	</node>
	<node id="-35574" lat="59.988947226" lon="11.1030722273">
		<tag k="name" v="Nedre Asak" />
		<tag k="place" v="farm" />
		<tag k="ssr:stedsnr" v="569341" />
	</node>
	<node id="-35573" lat="60.0393694486" lon="10.993805561">
		<tag k="name" v="Ramstadhytta" />
		<tag k="place" v="isolated_dwelling" />
		<tag k="ssr:stedsnr" v="569331" />
	</node>
	<node id="-35569" lat="59.9678222245" lon="10.9740583339">
		<tag k="name" v="Tærudtajet" />
		<tag k="place" v="locality" />
		<tag k="ssr:stedsnr" v="569023" />
	</node>
	<node id="-35568" lat="59.9559722194" lon="11.049180551">
		<tag k="name" v="Lillestrøm" />
		<tag k="place" v="town" />
		<tag k="ssr:stedsnr" v="551499" />
	</node>
	<node id="-35566" lat="60.0121499958" lon="11.0342361031">
		<tag k="name" v="Åsenhagen" />
		<tag k="place" v="quarter" />
		<tag k="ssr:stedsnr" v="551378" />
	</node>
	<node id="-35565" lat="60.0196138847" lon="11.022388891">
		<tag k="name" v="Søndre Holm" />
		<tag k="place" v="farm" />
		<tag k="ssr:stedsnr" v="551374" />
	</node>
	<node id="-35563" lat="60.0064888861" lon="11.009641664">
		<tag k="name" v="Øvre Tærud" />
		<tag k="place" v="farm" />
		<tag k="ssr:stedsnr" v="551357" />
	</node>
	<node id="-35557" lat="59.9518598985" lon="11.0500127725">
		<tag k="amenity" v="nursing_home" />
		<tag k="name" v="Lillestrøm sykehus" />
		<tag k="ssr:stedsnr" v="509344" />
	</node>
	<node id="-35556" lat="59.95613889" lon="11.0256638805">
		<tag k="name" v="Hesteryggen" />
		<tag k="place" v="farm" />
		<tag k="ssr:stedsnr" v="509341" />
	</node>
	<node id="-35554" lat="59.9656222266" lon="11.0411694373">
		<tag k="amenity" v="school" />
		<tag k="name" v="Skedsmo videregående skole" />
		<tag k="ssr:stedsnr" v="509300" />
	</node>
	<node id="-35553" lat="59.9526583345" lon="10.9992166726">
		<tag k="name" v="Bråte" />
		<tag k="place" v="farm" />
		<tag k="ssr:stedsnr" v="509277" />
	</node>
	<node id="-35552" lat="60.0242388857" lon="11.0369500074">
		<tag k="name" v="Fossum" />
		<tag k="place" v="farm" />
		<tag k="ssr:stedsnr" v="509261" />
	</node>
	<node id="-35548" lat="59.9691277763" lon="10.9698944466">
		<tag k="alt_name" v="Lukenga" />
		<tag k="name" v="Lukeenga" />
		<tag k="place" v="locality" />
		<tag k="ssr:stedsnr" v="509015" />
	</node>
	<node id="-35547" lat="59.962399998" lon="11.06339444">
		<tag k="leisure" v="pitch" />
		<tag k="name" v="Åråsen stadion" />
		<tag k="ssr:stedsnr" v="509012" />
	</node>
	<node id="-35546" lat="60.0093694438" lon="11.0502694426">
		<tag k="name" v="Høgslund" />
		<tag k="place" v="farm" />
		<tag k="ssr:stedsnr" v="491373" />
	</node>
	<node id="-35545" lat="59.9823666683" lon="11.0308583324">
		<tag k="alt_name" v="Solheim" />
		<tag k="name" v="Holtløkka" />
		<tag k="place" v="farm" />
		<tag k="ssr:stedsnr" v="490565" />
	</node>
	<node id="-35544" lat="59.9930055543" lon="11.044074991">
		<tag k="name" v="Skedsmovollen" />
		<tag k="place" v="farm" />
		<tag k="ssr:stedsnr" v="490554" />
	</node>
	<node id="-35542" lat="59.9731138883" lon="11.0640333265">
		<tag k="alt_name" v="Skogvoll" />
		<tag k="name" v="Skåvål" />
		<tag k="old_name" v="Skaavaal" />
		<tag k="place" v="farm" />
		<tag k="ssr:stedsnr" v="490519" />
	</node>
	<node id="-35541" lat="60.0163611122" lon="11.0266111193">
		<tag k="alt_name" v="Myrer, søndre" />
		<tag k="name" v="Søndre Myrer" />
		<tag k="place" v="farm" />
		<tag k="ssr:stedsnr" v="490374" />
	</node>
	<node id="-35540" lat="60.000813886" lon="11.035983334">
		<tag k="alt_name" v="Huseby" />
		<tag k="name" v="Store Huseby" />
		<tag k="place" v="farm" />
		<tag k="ssr:stedsnr" v="490319" />
	</node>
	<node id="-35539" lat="60.0056500037" lon="10.9916333374">
		<tag k="name" v="Fossum" />
		<tag k="place" v="farm" />
		<tag k="ssr:stedsnr" v="490318" />
	</node>
	<node id="-35538" lat="59.9807222254" lon="11.1238999938">
		<tag k="name" v="Ballerud" />
		<tag k="place" v="farm" />
		<tag k="ssr:stedsnr" v="490446" />
	</node>
	<node id="-35530" lat="59.9544499966" lon="11.0151444484">
		<tag k="alt_name" v="Romerike yrkesskole" />
		<tag k="amenity" v="school" />
		<tag k="name" v="Strømmen videregående skole" />
		<tag k="ssr:stedsnr" v="448416" />
	</node>
	<node id="-35529" lat="59.9717638849" lon="11.073694442">
		<tag k="name" v="Gulenga" />
		<tag k="place" v="isolated_dwelling" />
		<tag k="ssr:stedsnr" v="448377" />
	</node>
	<node id="-35528" lat="59.9908833327" lon="11.0529583386">
		<tag k="name" v="Slogumsgrinda" />
		<tag k="place" v="farm" />
		<tag k="ssr:stedsnr" v="448361" />
	</node>
	<node id="-35527" lat="59.9905555516" lon="11.0239138835">
		<tag k="fixme" v="consider place=hamlet" />
		<tag k="name" v="Nordre Brånås" />
		<tag k="place" v="farm" />
		<tag k="ssr:stedsnr" v="448356" />
	</node>
	<node id="-35526" lat="59.9744833322" lon="11.0572027732">
		<tag k="fixme" v="consider place=hamlet" />
		<tag k="name" v="Østre Brauter" />
		<tag k="place" v="farm" />
		<tag k="ssr:stedsnr" v="448335" />
	</node>
	<node id="-35525" lat="59.9537416661" lon="11.0622805489">
		<tag k="leisure" v="park" />
		<tag k="name" v="Sørumsparken" />
		<tag k="ssr:stedsnr" v="448314" />
	</node>
	<node id="-35524" lat="59.9737472247" lon="11.0477305533">
		<tag k="name" v="Kjeller" />
		<tag k="place" v="village" />
		<tag k="ssr:stedsnr" v="448313" />
	</node>
	<node id="-35523" lat="60.0198611096" lon="11.0218388851">
		<tag k="name" v="Søndre Holm" />
		<tag k="place" v="farm" />
		<tag k="ssr:stedsnr" v="448309" />
	</node>
	<node id="-35522" lat="60.0065138882" lon="11.0372388869">
		<tag k="name" v="Sandbakken" />
		<tag k="place" v="farm" />
		<tag k="ssr:stedsnr" v="448306" />
	</node>
	<node id="-35520" lat="59.9766527745" lon="11.1202944501">
		<tag k="name" v="Fluerud" />
		<tag k="place" v="locality" />
		<tag k="ssr:stedsnr" v="448029" />
	</node>
	<node id="-35518" lat="59.9727027771" lon="11.0056444461">
		<tag k="alt_name" v="Skjettenbyen" />
		<tag k="name" v="Skjetten" />
		<tag k="place" v="village" />
		<tag k="ssr:stedsnr" v="430539" />
	</node>
	<node id="-35517" lat="59.979225004" lon="11.0276277827">
		<tag k="name" v="Nitberg" />
		<tag k="place" v="farm" />
		<tag k="ssr:stedsnr" v="430537" />
	</node>
	<node id="-35516" lat="59.9751883768" lon="11.0574403683">
		<tag k="name" v="Brauter" />
		<tag k="place" v="hamlet" />
		<tag k="ssr:stedsnr" v="430536" />
	</node>
	<node id="-35515" lat="59.9727972253" lon="10.9682083391">
		<tag k="name" v="Lahaug" />
		<tag k="place" v="farm" />
		<tag k="ssr:stedsnr" v="430526" />
	</node>
	<node id="-35514" lat="60.0001666709" lon="11.0827527761">
		<tag k="alt_name" v="Ullereng" />
		<tag k="name" v="Nordre Ullreng" />
		<tag k="place" v="farm" />
		<tag k="ssr:stedsnr" v="430329" />
	</node>
	<node id="-35513" lat="59.9801305586" lon="10.9978972285">
		<tag k="name" v="Hvam" />
		<tag k="place" v="farm" />
		<tag k="ssr:stedsnr" v="429573" />
	</node>
	<node id="-35512" lat="59.984058331" lon="10.9828777788">
		<tag k="alt_name" v="Kråkerud" />
		<tag k="name" v="Kragerud" />
		<tag k="place" v="farm" />
		<tag k="ssr:stedsnr" v="429572" />
	</node>
	<node id="-35511" lat="59.9809404304" lon="11.0459073134">
		<tag k="alt_name" v="Ris, nedre" />
		<tag k="name" v="Nedre Ris" />
		<tag k="place" v="farm" />
		<tag k="ssr:stedsnr" v="429567" />
	</node>
	<node id="-35507" lat="59.9977666661" lon="11.026538885">
		<tag k="name" v="Bjørklund" />
		<tag k="place" v="isolated_dwelling" />
		<tag k="ssr:stedsnr" v="266350" />
	</node>
	<node id="-35506" lat="59.9943027792" lon="11.0750722227">
		<tag k="fixme" v="consider place=hamlet" />
		<tag k="name" v="Nordre Kjus" />
		<tag k="place" v="farm" />
		<tag k="ssr:stedsnr" v="266343" />
	</node>
	<node id="-35505" lat="60.0022277759" lon="11.0308416669">
		<tag k="amenity" v="nursing_home" />
		<tag k="name" v="Skedsmotun bo- og behandlingssenter" />
		<tag k="old_name" v="Skedsmotun sykehjem" />
		<tag k="ssr:stedsnr" v="266335" />
	</node>
	<node id="-35504" lat="60.013899997" lon="11.0175388885">
		<tag k="amenity" v="sports_centre" />
		<tag k="name" v="Tærudhallen" />
		<tag k="ssr:stedsnr" v="266333" />
	</node>
	<node id="-35495" lat="60.0205861116" lon="11.0294944388">
		<tag k="alt_name" v="Myrer" />
		<tag k="name" v="Søndre Myrer" />
		<tag k="place" v="farm" />
		<tag k="ssr:stedsnr" v="266036" />
	</node>
	<node id="-35493" lat="59.9729138892" lon="11.140358335">
		<tag k="name" v="Gullerud" />
		<tag k="place" v="locality" />
		<tag k="ssr:stedsnr" v="266025" />
	</node>
	<node id="-35491" lat="60.0302205763" lon="11.040512837">
		<tag k="alt_name" v="Leikvolldalen" />
		<tag k="name" v="Dalen" />
		<tag k="place" v="farm" />
		<tag k="ssr:stedsnr" v="248395" />
	</node>
	<node id="-35490" lat="60.023830559" lon="11.0268111094">
		<tag k="name" v="Nordli" />
		<tag k="place" v="farm" />
		<tag k="ssr:stedsnr" v="248389" />
	</node>
	<node id="-35489" lat="60.0147888865" lon="11.0242833335">
		<tag k="name" v="Salerud" />
		<tag k="place" v="farm" />
		<tag k="ssr:stedsnr" v="248370" />
	</node>
	<node id="-35488" lat="59.9940472181" lon="11.0128999966">
		<tag k="name" v="Skrimstad" />
		<tag k="place" v="farm" />
		<tag k="ssr:stedsnr" v="247546" />
	</node>
	<node id="-35487" lat="59.987325002" lon="11.0639472213">
		<tag k="name" v="Slogum" />
		<tag k="place" v="farm" />
		<tag k="ssr:stedsnr" v="247542" />
	</node>
	<node id="-35485" lat="59.9660250018" lon="11.0091749991">
		<tag k="name" v="Nordby" />
		<tag k="place" v="farm" />
		<tag k="ssr:stedsnr" v="247484" />
	</node>
	<node id="-35482" lat="59.9934663184" lon="11.0716526523">
		<tag k="name" v="Kjus" />
		<tag k="place" v="hamlet" />
		<tag k="ssr:stedsnr" v="206014" />
	</node>
	<node id="-35478" lat="59.9938194405" lon="11.0507833401">
		<tag k="name" v="Kjushagan" />
		<tag k="place" v="isolated_dwelling" />
		<tag k="ssr:stedsnr" v="205399" />
	</node>
	<node id="-35477" lat="59.9953194437" lon="11.1085388976">
		<tag k="name" v="Asakhagen" />
		<tag k="place" v="farm" />
		<tag k="ssr:stedsnr" v="205391" />
	</node>
	<node id="-35476" lat="59.9945166683" lon="11.0403722256">
		<tag k="amenity" v="school" />
		<tag k="name" v="Skedsmovollen ungdomsskole" />
		<tag k="ssr:stedsnr" v="205383" />
	</node>
	<node id="-35474" lat="59.9837777815" lon="11.0333194534">
		<tag k="name" v="Holtbakken" />
		<tag k="place" v="farm" />
		<tag k="ssr:stedsnr" v="205364" />
	</node>
	<node id="-35473" lat="59.9785527761" lon="11.0175222211">
		<tag k="name" v="Stranden" />
		<tag k="place" v="farm" />
		<tag k="ssr:stedsnr" v="205356" />
	</node>
	<node id="-35472" lat="60.013997221" lon="11.0422944522">
		<tag k="name" v="Prestmåsen" />
		<tag k="place" v="quarter" />
		<tag k="ssr:stedsnr" v="205347" />
	</node>
	<node id="-35471" lat="59.9482861068" lon="11.0716222201">
		<tag k="name" v="Låkehavna" />
		<tag k="place" v="quarter" />
		<tag k="ssr:stedsnr" v="205345" />
	</node>
	<node id="-35466" lat="59.939341664" lon="11.0034222135">
		<tag k="leisure" v="pitch" />
		<tag k="name" v="Strømmen stadion" />
		<tag k="ssr:stedsnr" v="205016" />
	</node>
	<node id="-35465" lat="60.008455553" lon="11.0218916706">
		<tag k="name" v="Korsfjellet" />
		<tag k="place" v="quarter" />
		<tag k="ssr:stedsnr" v="203071" />
	</node>
	<node id="-35463" lat="60.005474997" lon="11.0327750056">
		<tag k="name" v="Skedsmokorset" />
		<tag k="place" v="village" />
		<tag k="ssr:stedsnr" v="187319" />
	</node>
	<node id="-35462" lat="60.0215111126" lon="11.021822221">
		<tag k="name" v="Nordre Holm" />
		<tag k="place" v="farm" />
		<tag k="ssr:stedsnr" v="187356" />
	</node>
	<node id="-35461" lat="60.0221638903" lon="10.9714750019">
		<tag k="name" v="Enden" />
		<tag k="place" v="isolated_dwelling" />
		<tag k="ssr:stedsnr" v="187357" />
	</node>
	<node id="-35460" lat="59.9933222197" lon="11.0818250075">
		<tag k="name" v="Kjusløkka" />
		<tag k="place" v="farm" />
		<tag k="ssr:stedsnr" v="186613" />
	</node>
	<node id="-35459" lat="59.9558333322" lon="11.073813881">
		<tag k="name" v="Vigernes" />
		<tag k="old_name" v="Vignes" />
		<tag k="place" v="farm" />
		<tag k="ssr:stedsnr" v="186570" />
	</node>
	<node id="-35458" lat="59.9914333306" lon="11.1054388845">
		<tag k="name" v="Nordre Asak" />
		<tag k="place" v="farm" />
		<tag k="ssr:stedsnr" v="186529" />
	</node>
	<node id="-35450" lat="59.9876777815" lon="11.1449666617">
		<tag k="name" v="Nilserud" />
		<tag k="place" v="farm" />
		<tag k="ssr:stedsnr" v="144392" />
	</node>
	<node id="-35449" lat="59.9645472236" lon="11.0445500082">
		<tag k="amenity" v="school" />
		<tag k="name" v="Kjellervolla ungdomsskole" />
		<tag k="ssr:stedsnr" v="144369" />
	</node>
	<node id="-35448" lat="59.9761638919" lon="11.0178249969">
		<tag k="name" v="Valstad" />
		<tag k="place" v="farm" />
		<tag k="ssr:stedsnr" v="144360" />
	</node>
	<node id="-35446" lat="59.9750888933" lon="11.0558972154">
		<tag k="fixme" v="consider place=hamlet" />
		<tag k="name" v="Vestre Brauter" />
		<tag k="place" v="farm" />
		<tag k="ssr:stedsnr" v="144333" />
	</node>
	<node id="-35440" lat="59.9584472187" lon="11.0793500006">
		<tag k="name" v="Nesavika" />
		<tag k="place" v="locality" />
		<tag k="ssr:stedsnr" v="144030" />
	</node>
	<node id="-35439" lat="60.006799998" lon="11.0114722172">
		<tag k="alt_name" v="Østre Tærud" />
		<tag k="name" v="Nedre Tærud" />
		<tag k="place" v="farm" />
		<tag k="ssr:stedsnr" v="127389" />
	</node>
	<node id="-35437" lat="60.0254888891" lon="11.0301055606">
		<tag k="name" v="Skarud" />
		<tag k="place" v="isolated_dwelling" />
		<tag k="ssr:stedsnr" v="127440" />
	</node>
	<node id="-35436" lat="59.9641500034" lon="11.0094888814">
		<tag k="name" v="Stav" />
		<tag k="place" v="farm" />
		<tag k="ssr:stedsnr" v="126510" />
	</node>
	<node id="-35435" lat="59.9790000001" lon="11.0526888811">
		<tag k="name" v="Berg" />
		<tag k="place" v="farm" />
		<tag k="ssr:stedsnr" v="126581" />
	</node>
	<node id="-35434" lat="59.9862472198" lon="11.0676027724">
		<tag k="name" v="Tomt" />
		<tag k="place" v="farm" />
		<tag k="ssr:stedsnr" v="126572" />
	</node>
	<node id="-35432" lat="59.9927611139" lon="11.0367388957">
		<tag k="name" v="Vestvollen" />
		<tag k="place" v="farm" />
		<tag k="ssr:stedsnr" v="125583" />
	</node>
	<node id="-35430" lat="59.9602333367" lon="10.9772166754">
		<tag k="name" v="Breidablikk" />
		<tag k="place" v="isolated_dwelling" />
		<tag k="ssr:stedsnr" v="125528" />
	</node>
	<node id="-35426" lat="60.0199999972" lon="11.0526361115">
		<tag k="alt_name" v="Vardåsen" />
		<tag k="name" v="Vardeåsen" />
		<tag k="place" v="quarter" />
		<tag k="ssr:stedsnr" v="87285" />
	</node>
	<node id="-35423" lat="60.0195777774" lon="10.9726055601">
		<tag k="name" v="Mosebekk" />
		<tag k="place" v="isolated_dwelling" />
		<tag k="ssr:stedsnr" v="84361" />
	</node>
	<node id="-35422" lat="59.9948222192" lon="11.0260500088">
		<tag k="name" v="Solhaug" />
		<tag k="place" v="farm" />
		<tag k="ssr:stedsnr" v="84329" />
	</node>
	<node id="-35421" lat="59.99681944" lon="11.0874611178">
		<tag k="name" v="Leirsund" />
		<tag k="place" v="village" />
		<tag k="ssr:stedsnr" v="84308" />
	</node>
	<node id="-35420" lat="60.0217388871" lon="11.02268888">
		<tag k="name" v="Holm" />
		<tag k="place" v="farm" />
		<tag k="ssr:stedsnr" v="84306" />
	</node>
	<node id="-35416" lat="59.9706555599" lon="10.9682000025">
		<tag k="name" v="Karterud" />
		<tag k="place" v="locality" />
		<tag k="ssr:stedsnr" v="84026" />
	</node>
	<node id="-35415" lat="59.9850000025" lon="11.0363249933">
		<tag k="name" v="Holt" />
		<tag k="place" v="farm" />
		<tag k="ssr:stedsnr" v="65570" />
	</node>
	<node id="-35413" lat="59.9751305517" lon="11.0382999947">
		<tag k="name" v="Kjeller" />
		<tag k="place" v="farm" />
		<tag k="ssr:stedsnr" v="65526" />
	</node>
	<node id="-35412" lat="59.9787499982" lon="10.9695305496">
		<tag k="name" v="Fletstein" />
		<tag k="place" v="farm" />
		<tag k="ssr:stedsnr" v="65523" />
	</node>
	<node id="-35408" lat="59.9986055511" lon="11.0998833404">
		<tag k="name" v="Hauglibakken" />
		<tag k="place" v="isolated_dwelling" />
		<tag k="ssr:stedsnr" v="23400" />
	</node>
	<node id="-35407" lat="59.9749527766" lon="11.0262416618">
		<tag k="name" v="Gardsvik" />
		<tag k="place" v="farm" />
		<tag k="ssr:stedsnr" v="23370" />
	</node>
	<node id="-35406" lat="60.0186833317" lon="11.0285111141">
		<tag k="name" v="Søndre Sydmyrer" />
		<tag k="place" v="farm" />
		<tag k="ssr:stedsnr" v="23331" />
	</node>
	<node id="-35402" lat="60.0089888932" lon="10.9796611141">
		<tag k="alt_name" v="Lille Huseby" />
		<tag k="name" v="Huseby" />
		<tag k="place" v="farm" />
		<tag k="ssr:stedsnr" v="6396" />
	</node>
	<node id="-35401" lat="60.0107194409" lon="10.9940805561">
		<tag k="alt_name" v="Ringnes, s" />
		<tag k="name" v="Nedre Ringnes" />
		<tag k="place" v="farm" />
		<tag k="ssr:stedsnr" v="6395" />
	</node>
	<node id="-35399" lat="59.9848249997" lon="11.0606833353">
		<tag k="name" v="Løkenflaen" />
		<tag k="place" v="farm" />
		<tag k="ssr:stedsnr" v="5574" />
	</node>
	<node id="-35398" lat="59.9711499988" lon="10.9796333326">
		<tag k="name" v="Luke" />
		<tag k="place" v="farm" />
		<tag k="ssr:stedsnr" v="5510" />
	</node>
	<node id="-35395" lat="60.0272027784" lon="11.0372000058">
		<tag k="name" v="Leikvoll" />
		<tag k="old_name" v="Leikvold" />
		<tag k="place" v="farm" />
		<tag k="ssr:stedsnr" v="5393" />
	</node>
	<node id="-35394" lat="60.0177694401" lon="11.0192444509">
		<tag k="alt_name" v="Karterud;Karterud nordre" />
		<tag k="name" v="Nordre Karterud" />
		<tag k="place" v="farm" />
		<tag k="ssr:stedsnr" v="5372" />
	</node>
	<node id="-35393" lat="59.9967500014" lon="11.0349472265">
		<tag k="name" v="Lund" />
		<tag k="place" v="farm" />
		<tag k="ssr:stedsnr" v="4575" />
	</node>
	<node id="-35392" lat="59.9599805526" lon="11.0158750012">
		<tag k="name" v="Ryen" />
		<tag k="place" v="isolated_dwelling" />
		<tag k="ssr:stedsnr" v="4520" />
	</node>
	<node id="-35388" lat="59.9757756897" lon="11.0450550852">
		<tag k="amenity" v="school" />
		<tag k="name" v="Kjeller kunnskapssenter" />
		<tag k="ssr:stedsnr" v="990197" />
	</node>
	<node id="-35387" lat="60.0134980822" lon="11.0408739411">
		<tag k="amenity" v="school" />
		<tag k="name" v="Skedsmo voksenopplæringssenter" />
		<tag k="ssr:stedsnr" v="990196" />
	</node>
	<node id="-35385" lat="59.9980228354" lon="11.0229102089">
		<tag k="amenity" v="school" />
		<tag k="name" v="Brånås skole" />
		<tag k="ssr:stedsnr" v="990194" />
	</node>
	<node id="-35384" lat="60.012104089" lon="11.0474519246">
		<tag k="amenity" v="school" />
		<tag k="name" v="Vardeåsen skole" />
		<tag k="ssr:stedsnr" v="990193" />
	</node>
	<node id="-35383" lat="60.0129495592" lon="11.0176567669">
		<tag k="amenity" v="school" />
		<tag k="name" v="Tæruddalen skole" />
		<tag k="ssr:stedsnr" v="990182" />
	</node>
	<node id="-35382" lat="59.9597721682" lon="10.9972128933">
		<tag k="amenity" v="school" />
		<tag k="name" v="Skjetten skole" />
		<tag k="ssr:stedsnr" v="990181" />
	</node>
	<node id="-35380" lat="59.9507460148" lon="11.0138816191">
		<tag k="amenity" v="school" />
		<tag k="name" v="Frydenlund skole og ressurssenter" />
		<tag k="ssr:stedsnr" v="990154" />
	</node>
	<node id="-35379" lat="59.9562570171" lon="11.0550530721">
		<tag k="amenity" v="school" />
		<tag k="name" v="Folkeuniversitetet Øst, Romerike" />
		<tag k="ssr:stedsnr" v="990152" />
	</node>
	<node id="-35378" lat="59.9742565796" lon="11.0400021815">
		<tag k="amenity" v="school" />
		<tag k="name" v="Kjeller skole" />
		<tag k="ssr:stedsnr" v="990151" />
	</node>
	<node id="-35377" lat="59.9603164917" lon="11.0738744487">
		<tag k="leisure" v="park" />
		<tag k="name" v="Sørum fritidsgård" />
		<tag k="ssr:stedsnr" v="990149" />
	</node>
	<node id="-35376" lat="59.9546717584" lon="11.062299455">
		<tag k="name" v="Vigernes" />
		<tag k="place" v="suburb" />
		<tag k="ssr:stedsnr" v="990148" />
	</node>
	<node id="-35375" lat="59.9922573731" lon="11.1066693361">
		<tag k="fixme" v="consider place=suburb, village or hamlet" />
		<tag k="name" v="Asak" />
		<tag k="place" v="quarter" />
		<tag k="ssr:stedsnr" v="990147" />
	</node>
	<node id="-35374" lat="60.0160319912" lon="10.9791360101">
		<tag k="fixme" v="consider place=hamlet" />
		<tag k="name" v="Solberg" />
		<tag k="place" v="village" />
		<tag k="ssr:stedsnr" v="990145" />
	</node>
	<node id="-35373" lat="59.9670587297" lon="11.0543203677">
		<tag k="amenity" v="nursing_home" />
		<tag k="name" v="Åråsveien bo- og behandlingssenter" />
		<tag k="ssr:stedsnr" v="990144" />
	</node>
	<node id="-35371" lat="59.9513335342" lon="11.019412027">
		<tag k="amenity" v="nursing_home" />
		<tag k="name" v="Stalsberg bo- og behandlingssenter" />
		<tag k="ssr:stedsnr" v="990136" />
	</node>
	<node id="-35370" lat="59.9846751283" lon="10.9774010859">
		<tag k="name" v="Hellerudsletta" />
		<tag k="place" v="square" />
		<tag k="ssr:stedsnr" v="990135" />
	</node>
	<node id="-35367" lat="59.9962213229" lon="11.0199720395">
		<tag k="fixme" v="consider place=suburb, village or hamlet" />
		<tag k="name" v="Brånås" />
		<tag k="place" v="quarter" />
		<tag k="ssr:stedsnr" v="990130" />
	</node>
	<node id="-35366" lat="60.0046609311" lon="11.0394434561">
		<tag k="leisure" v="pitch" />
		<tag k="name" v="Skedsmo ishall" />
		<tag k="ssr:stedsnr" v="990129" />
	</node>
	<node id="-35365" lat="60.005120513" lon="11.0386078719">
		<tag k="leisure" v="pitch" />
		<tag k="name" v="Skedsmo stadion" />
		<tag k="ssr:stedsnr" v="990128" />
	</node>
	<node id="-35360" lat="60.0009060967" lon="11.0405481447">
		<tag k="building" v="commercial" />
		<tag k="name" v="Skedsmo senter" />
		<tag k="ssr:stedsnr" v="990122" />
	</node>
	<node id="-35359" lat="59.9602665773" lon="11.0672852292">
		<tag k="leisure" v="pitch" />
		<tag k="name" v="Romerike friidrettsstadion" />
		<tag k="ssr:stedsnr" v="988449" />
	</node>
	<node id="-35358" lat="59.9613961464" lon="11.0707099024">
		<tag k="amenity" v="sports_centre" />
		<tag k="name" v="LSK-Hallen" />
		<tag k="ssr:stedsnr" v="988448" />
	</node>
	<node id="-35357" lat="59.9620173495" lon="11.0688748075">
		<tag k="amenity" v="sports_centre" />
		<tag k="name" v="Skedsmohallen" />
		<tag k="ssr:stedsnr" v="988447" />
	</node>
	<node id="-35356" lat="59.9546500955" lon="11.0390954782">
		<tag k="amenity" v="townhall" />
		<tag k="name" v="Skedsmo rådhus" />
		<tag k="ssr:stedsnr" v="988445" />
	</node>
	<node id="-35355" lat="59.9562176096" lon="11.0493178012">
		<tag k="name" v="Torvet" />
		<tag k="place" v="square" />
		<tag k="ssr:stedsnr" v="988444" />
	</node>
	<node id="-35354" lat="60.0147095702" lon="11.0606185723">
		<tag k="name" v="Berger" />
		<tag k="place" v="quarter" />
		<tag k="ssr:stedsnr" v="983730" />
	</node>
	<node id="-35352" lat="59.9891246172" lon="11.1078029261">
		<tag k="name" v="Asak" />
		<tag k="place" v="quarter" />
		<tag k="ssr:stedsnr" v="981907" />
	</node>
	<node id="-35351" lat="60.0095094606" lon="11.0169633627">
		<tag k="name" v="Tæruddalen" />
		<tag k="place" v="quarter" />
		<tag k="ssr:stedsnr" v="981906" />
	</node>
	<node id="-35342" lat="59.9604222239" lon="11.0461388969">
		<tag k="amenity" v="school" />
		<tag k="name" v="Lillestrøm videregående skole" />
		<tag k="ssr:stedsnr" v="387396" />
	</node>
	<node id="-35341" lat="59.9550722202" lon="11.0181083386">
		<tag k="name" v="Nordre Stalsberg" />
		<tag k="place" v="farm" />
		<tag k="ssr:stedsnr" v="387393" />
	</node>
	<node id="-35340" lat="59.955174996" lon="11.0717055511">
		<tag k="amenity" v="school" />
		<tag k="name" v="Vigernes skole" />
		<tag k="ssr:stedsnr" v="387358" />
	</node>
	<node id="-35339" lat="59.9969999956" lon="11.0569861102">
		<tag k="name" v="Østvollen" />
		<tag k="place" v="farm" />
		<tag k="ssr:stedsnr" v="387354" />
	</node>
	<node id="-35338" lat="59.9734083321" lon="11.0111777828">
		<tag k="name" v="Valstad" />
		<tag k="place" v="farm" />
		<tag k="ssr:stedsnr" v="387352" />
	</node>
	<node id="-35337" lat="59.992338891" lon="11.0696888883">
		<tag k="fixme" v="consider place=hamlet" />
		<tag k="name" v="Søndre Kjus" />
		<tag k="place" v="farm" />
		<tag k="ssr:stedsnr" v="387332" />
	</node>
	<node id="-35333" lat="59.9657583336" lon="10.9788583416">
		<tag k="name" v="Tærudenga" />
		<tag k="place" v="locality" />
		<tag k="ssr:stedsnr" v="387029" />
	</node>
	<node id="-35331" lat="59.9612444409" lon="11.0103083296">
		<tag k="name" v="Skjetten" />
		<tag k="place" v="farm" />
		<tag k="ssr:stedsnr" v="369444" />
	</node>
	<node id="-35330" lat="59.9829555572" lon="11.0492499942">
		<tag k="name" v="Øvre Ris" />
		<tag k="place" v="farm" />
		<tag k="ssr:stedsnr" v="368619" />
	</node>
	<node id="-35329" lat="59.9960499957" lon="11.083833326">
		<tag k="name" v="Leirsund" />
		<tag k="place" v="farm" />
		<tag k="ssr:stedsnr" v="368597" />
	</node>
</osm>
