<?xml version="1.0" encoding="UTF-8"?>
<osm generator="osmapis" version="0.6">
	<node id="-35446" lat="59.9444055557" lon="11.077566658">
		<tag k="name" v="England" />
		<tag k="place" v="locality" />
		<tag k="ssr:stedsnr" v="144281" />
	</node>
	<node id="-35445" lat="60.020988893" lon="11.008752778">
		<tag k="name" v="Migmyra" />
		<tag k="natural" v="wetland" />
		<tag k="ssr:stedsnr" v="144271" />
	</node>
	<node id="-35444" lat="60.0207499996" lon="11.0506666721">
		<tag k="name" v="Tremannsmyra" />
		<tag k="natural" v="wetland" />
		<tag k="ssr:stedsnr" v="144272" />
	</node>
	<node id="-35315" lat="59.9528694408" lon="11.0952972213">
		<tag k="name" v="Nordlihagen" />
		<tag k="place" v="locality" />
		<tag k="ssr:stedsnr" v="327240" />
	</node>
	<node id="-35314" lat="59.9785277737" lon="11.0878944406">
		<tag k="name" v="Trollmyra" />
		<tag k="natural" v="wetland" />
		<tag k="ssr:stedsnr" v="327233" />
	</node>
	<node id="-35690" lat="59.9724861071" lon="11.1288305513">
		<tag k="name" v="Svinemyra" />
		<tag k="natural" v="wetland" />
		<tag k="ssr:stedsnr" v="873258" />
	</node>
	<node id="-35552" lat="59.9466472191" lon="11.0809972226">
		<tag k="name" v="Lille England" />
		<tag k="place" v="locality" />
		<tag k="ssr:stedsnr" v="509234" />
	</node>
	<node id="-35422" lat="59.9783750027" lon="11.1332194374">
		<tag k="name" v="Breimåsan" />
		<tag k="natural" v="wetland" />
		<tag k="ssr:stedsnr" v="84268" />
	</node>
	<node id="-35421" lat="59.9981472232" lon="11.0964500009">
		<tag k="name" v="Kattismyra" />
		<tag k="natural" v="wetland" />
		<tag k="ssr:stedsnr" v="84267" />
	</node>
	<node id="-35420" lat="59.9734472263" lon="11.0999333282">
		<tag k="name" v="Myrbodammen" />
		<tag k="natural" v="wetland" />
		<tag k="ssr:stedsnr" v="84266" />
	</node>
	<node id="-35674" lat="59.9938749959" lon="11.0096861191">
		<tag k="name" v="Skrimstadsletta" />
		<tag k="place" v="locality" />
		<tag k="ssr:stedsnr" v="812275" />
	</node>
	<node id="-35673" lat="60.02410833" lon="10.9815305488">
		<tag k="name" v="Lindtjernmyra" />
		<tag k="natural" v="wetland" />
		<tag k="ssr:stedsnr" v="812261" />
	</node>
	<node id="-35407" lat="59.9515305555" lon="11.0759527738">
		<tag k="name" v="Tangen" />
		<tag k="place" v="locality" />
		<tag k="ssr:stedsnr" v="23305" />
	</node>
	<node id="-35524" lat="60.0233888886" lon="10.9841222267">
		<tag k="name" v="Skyttermyra" />
		<tag k="natural" v="wetland" />
		<tag k="ssr:stedsnr" v="448266" />
	</node>
	<node id="-35573" lat="60.0173416675" lon="10.980972221">
		<tag k="name" v="Blåbærmyra" />
		<tag k="natural" v="wetland" />
		<tag k="ssr:stedsnr" v="569245" />
	</node>
	<node id="-35638" lat="60.0414583356" lon="10.9713444475">
		<tag k="name" v="Pettersmyra" />
		<tag k="natural" v="wetland" />
		<tag k="ssr:stedsnr" v="733407" />
	</node>
	<node id="-35502" lat="59.9732972183" lon="11.0201833274">
		<tag k="name" v="Valstadslora" />
		<tag k="place" v="locality" />
		<tag k="ssr:stedsnr" v="266265" />
	</node>
	<node id="-35501" lat="59.9777999959" lon="11.1662694431">
		<tag k="name" v="Kongsrudmåsan" />
		<tag k="natural" v="wetland" />
		<tag k="ssr:stedsnr" v="266259" />
	</node>
	<node id="-35500" lat="60.0387527819" lon="10.9713527838">
		<tag k="name" v="Løkenmåsan" />
		<tag k="natural" v="wetland" />
		<tag k="ssr:stedsnr" v="266251" />
	</node>
	<node id="-35620" lat="60.0153333333" lon="10.9821416652">
		<tag k="name" v="Kålhagemyra" />
		<tag k="natural" v="wetland" />
		<tag k="ssr:stedsnr" v="691273" />
	</node>
	<node id="-35470" lat="59.9604027814" lon="10.9538194436">
		<tag k="name" v="Ulvenhogget" />
		<tag k="place" v="locality" />
		<tag k="ssr:stedsnr" v="205283" />
	</node>
	<node id="-35629" lat="59.9548888882" lon="11.0268361163">
		<tag k="landuse" v="meadow" />
		<tag k="name" v="Hestehavn" />
		<tag k="ssr:stedsnr" v="691394" />
	</node>
	<node id="-35340" lat="59.9771499967" lon="11.0847611059">
		<tag k="name" v="Furuholen" />
		<tag k="place" v="locality" />
		<tag k="ssr:stedsnr" v="387279" />
	</node>
	<node id="-35339" lat="59.9724833309" lon="11.144341668">
		<tag k="name" v="Kongsrudmyra" />
		<tag k="natural" v="wetland" />
		<tag k="ssr:stedsnr" v="387273" />
	</node>
	<node id="-35338" lat="60.0209000025" lon="10.9758527704">
		<tag k="name" v="Hauermåsan" />
		<tag k="natural" v="wetland" />
		<tag k="ssr:stedsnr" v="387267" />
	</node>
	<node id="-35591" lat="59.9750999972" lon="11.1010361147">
		<tag k="name" v="Asaklandet" />
		<tag k="place" v="locality" />
		<tag k="ssr:stedsnr" v="630246" />
	</node>
	<node id="-35715" lat="59.9506583345" lon="11.0938361066">
		<tag k="name" v="Borgenholtet" />
		<tag k="place" v="locality" />
		<tag k="ssr:stedsnr" v="934222" />
	</node>
</osm>
