<?xml version="1.0" encoding="UTF-8"?>
<osm generator="osmapis" version="0.6">
	<node id="-35454" lat="59.9526750015" lon="11.0151361068">
		<tag k="amenity" v="place_of_worship" />
		<tag k="denomination" v="lutheran" />
		<tag k="name" v="Strømmen kirke" />
		<tag k="religion" v="christian" />
		<tag k="ssr:stedsnr" v="144409" />
	</node>
	<node id="-35417" lat="59.9937499998" lon="11.0450472193">
		<tag k="alt_name" v="Skedsmo" />
		<tag k="amenity" v="place_of_worship" />
		<tag k="denomination" v="lutheran" />
		<tag k="name" v="Skedsmo kirke" />
		<tag k="religion" v="christian" />
		<tag k="ssr:stedsnr" v="65554" />
	</node>
	<node id="-35406" lat="59.9675944478" lon="11.0261638833">
		<tag k="name" v="Nebbursvollen friluftsbad" />
		<tag k="place" v="locality" />
		<tag k="ssr:stedsnr" v="23032" />
	</node>
	<node id="-35725" lat="59.9586083342" lon="11.0482472298">
		<tag k="amenity" v="place_of_worship" />
		<tag k="denomination" v="lutheran" />
		<tag k="name" v="Lillestrøm kirke" />
		<tag k="religion" v="christian" />
		<tag k="ssr:stedsnr" v="934330" />
	</node>
	<node id="-35497" lat="59.94956944" lon="11.069658341">
		<tag k="name" v="Kran" />
		<tag k="place" v="locality" />
		<tag k="ssr:stedsnr" v="266029" />
	</node>
	<node id="-35558" lat="60.000247271" lon="11.0407362513">
		<tag k="amenity" v="community_centre" />
		<tag k="name" v="Skedsmo samfunnshus" />
		<tag k="ssr:stedsnr" v="509316" />
	</node>
</osm>
