<?xml version="1.0" encoding="UTF-8"?>
<osm generator="osmapis" version="0.6">
	<node id="-35455" lat="59.9531305568" lon="11.0112055598">
		<tag k="name" v="Sagelva" />
		<tag k="ssr:stedsnr" v="144413" />
		<tag k="waterway" v="river" />
	</node>
	<node id="-35448" lat="59.9691222235" lon="11.0889888888">
		<tag k="name" v="Brauterbekken" />
		<tag k="ssr:stedsnr" v="144293" />
		<tag k="waterway" v="stream" />
	</node>
	<node id="-35447" lat="59.9672694404" lon="11.0325916687">
		<tag k="name" v="Sogna" />
		<tag k="ssr:stedsnr" v="144289" />
		<tag k="waterway" v="river" />
	</node>
	<node id="-35574" lat="59.9423055572" lon="11.0817638876">
		<tag k="name" v="Andevika" />
		<tag k="natural" v="bay" />
		<tag k="ssr:stedsnr" v="569259" />
	</node>
	<node id="-35689" lat="60.0395361122" lon="10.9773722194">
		<tag k="alt_name" v="Klopptjern" />
		<tag k="name" v="Kropptjern" />
		<tag k="natural" v="water" />
		<tag k="ssr:stedsnr" v="855416" />
	</node>
	<node id="-35316" lat="59.9666611137" lon="11.0194916625">
		<tag k="name" v="Kulpvika" />
		<tag k="natural" v="bay" />
		<tag k="ssr:stedsnr" v="327245" />
	</node>
	<node id="-35570" lat="60.0256805515" lon="11.0180555517">
		<tag k="name" v="Ulvedalsbekken" />
		<tag k="ssr:stedsnr" v="551387" />
		<tag k="waterway" v="stream" />
	</node>
	<node id="-35347" lat="59.9778611112" lon="11.1322361145">
		<tag k="name" v="Breimåsatjern" />
		<tag k="natural" v="water" />
		<tag k="ssr:stedsnr" v="387487" />
	</node>
	<node id="-35311" lat="60.0268500032" lon="10.9890166628">
		<tag k="name" v="Ringdalsbekken" />
		<tag k="ssr:stedsnr" v="309447" />
		<tag k="waterway" v="stream" />
	</node>
	<node id="-35692" lat="59.9897833362" lon="11.0871027758">
		<tag k="name" v="Sunnesand" />
		<tag k="place" v="island" />
		<tag k="ssr:stedsnr" v="873272" />
	</node>
	<node id="-35691" lat="59.9764805571" lon="11.0857861099">
		<tag k="name" v="Asakneset" />
		<tag k="natural" v="cape" />
		<tag k="ssr:stedsnr" v="873271" />
	</node>
	<node id="-35561" lat="59.9470611149" lon="11.0558777754">
		<tag k="name" v="Øya" />
		<tag k="natural" v="cape" />
		<tag k="ssr:stedsnr" v="509345" />
	</node>
	<node id="-35554" lat="59.9640111069" lon="11.0295027696">
		<tag k="name" v="Bondetangen" />
		<tag k="natural" v="cape" />
		<tag k="ssr:stedsnr" v="509245" />
	</node>
	<node id="-35553" lat="59.9674500015" lon="11.0988388963">
		<tag k="name" v="Okseneset" />
		<tag k="natural" v="cape" />
		<tag k="ssr:stedsnr" v="509246" />
	</node>
	<node id="-35414" lat="59.988774999" lon="11.1325055513">
		<tag k="name" v="Tretjernet" />
		<tag k="natural" v="water" />
		<tag k="ssr:stedsnr" v="65470" />
	</node>
	<node id="-35408" lat="59.9525916665" lon="11.0944972163">
		<tag k="name" v="Nordlibekken" />
		<tag k="ssr:stedsnr" v="23316" />
		<tag k="waterway" v="stream" />
	</node>
	<node id="-35661" lat="59.9755416661" lon="11.1429777774">
		<tag k="alt_name" v="Kongsrudtjern" />
		<tag k="name" v="Kongsrudtjernet" />
		<tag k="natural" v="water" />
		<tag k="ssr:stedsnr" v="793505" />
	</node>
	<node id="-35403" lat="60.0155750014" lon="11.0049888924">
		<tag k="alt_name" v="Tærudtjerna" />
		<tag k="name" v="Ringnestjerna" />
		<tag k="natural" v="water" />
		<tag k="ssr:stedsnr" v="6394" />
	</node>
	<node id="-35575" lat="59.9410722188" lon="11.0673055622">
		<tag k="name" v="Åmotvarpet" />
		<tag k="place" v="locality" />
		<tag k="ssr:stedsnr" v="569277" />
	</node>
	<node id="-35400" lat="59.9659277768" lon="11.0818750056">
		<tag k="name" v="Stilla" />
		<tag k="natural" v="water" />
		<tag k="ssr:stedsnr" v="5488" />
		<tag k="water" v="lake" />
	</node>
	<node id="-35649" lat="59.9483972198" lon="11.0867361115">
		<tag k="name" v="Lille Sandhølet" />
		<tag k="place" v="island" />
		<tag k="ssr:stedsnr" v="751293" />
	</node>
	<node id="-35513" lat="59.9873416685" lon="11.1464111082">
		<tag k="name" v="Stampetjernet" />
		<tag k="natural" v="water" />
		<tag k="ssr:stedsnr" v="429455" />
	</node>
	<node id="-35640" lat="59.9878888898" lon="11.0846555606">
		<tag k="alt_name" v="Leirelva" />
		<tag k="name" v="Leira" />
		<tag k="ssr:stedsnr" v="733534" />
		<tag k="waterway" v="river" />
	</node>
	<node id="-35511" lat="59.9712944429" lon="11.1332638948">
		<tag k="name" v="Lindriktjern" />
		<tag k="natural" v="water" />
		<tag k="ssr:stedsnr" v="266446" />
	</node>
	<node id="-35505" lat="59.9694750022" lon="11.0158055516">
		<tag k="name" v="Nittebergstangen" />
		<tag k="natural" v="cape" />
		<tag k="ssr:stedsnr" v="266279" />
	</node>
	<node id="-35504" lat="59.9646916682" lon="11.0220666744">
		<tag k="name" v="Stavsvika" />
		<tag k="natural" v="bay" />
		<tag k="ssr:stedsnr" v="266268" />
	</node>
	<node id="-35503" lat="59.9418194465" lon="11.0690666706">
		<tag k="name" v="Gullaugvika" />
		<tag k="natural" v="bay" />
		<tag k="ssr:stedsnr" v="266267" />
	</node>
	<node id="-35499" lat="59.9771222212" lon="11.0915861121">
		<tag k="name" v="Sulustadsvingen" />
		<tag k="place" v="locality" />
		<tag k="ssr:stedsnr" v="266247" />
	</node>
	<node id="-35623" lat="59.97742778" lon="11.0775111076">
		<tag k="name" v="Bergsbråtasvingen" />
		<tag k="place" v="locality" />
		<tag k="ssr:stedsnr" v="691298" />
	</node>
	<node id="-35622" lat="59.9403027776" lon="11.0704583321">
		<tag k="name" v="Krim" />
		<tag k="natural" v="cape" />
		<tag k="ssr:stedsnr" v="691295" />
	</node>
	<node id="-35621" lat="59.946147219" lon="11.0618805621">
		<tag k="name" v="Heiavika" />
		<tag k="natural" v="bay" />
		<tag k="ssr:stedsnr" v="691288" />
	</node>
	<node id="-35619" lat="59.9459444444" lon="11.0715527784">
		<tag k="name" v="Gullaugdammen" />
		<tag k="ssr:stedsnr" v="691026" />
		<tag k="waterway" v="dam" />
	</node>
	<node id="-35489" lat="59.9722749972" lon="11.0836305547">
		<tag k="alt_name" v="Brauterstilla" />
		<tag k="name" v="Ringstilla" />
		<tag k="natural" v="water" />
		<tag k="ssr:stedsnr" v="247528" />
		<tag k="water" v="lake" />
	</node>
	<node id="-35487" lat="59.9433861146" lon="11.081150004">
		<tag k="name" v="Sørumsneset" />
		<tag k="natural" v="cape" />
		<tag k="ssr:stedsnr" v="247039" />
	</node>
	<node id="-35717" lat="59.9736194483" lon="11.0888666631">
		<tag k="name" v="Lysledningen" />
		<tag k="place" v="locality" />
		<tag k="ssr:stedsnr" v="934238" />
	</node>
	<node id="-35483" lat="59.9870111127" lon="11.1690277744">
		<tag k="name" v="Ballerudtjerna" />
		<tag k="natural" v="water" />
		<tag k="ssr:stedsnr" v="205526" />
	</node>
	<node id="-35482" lat="59.9578175111" lon="11.0207746157">
		<tag k="name" v="Skjervagapet" />
		<tag k="natural" v="bay" />
		<tag k="ssr:stedsnr" v="205423" />
	</node>
	<node id="-35608" lat="59.9755305542" lon="11.1331388829">
		<tag k="name" v="Svarttjern" />
		<tag k="natural" v="water" />
		<tag k="ssr:stedsnr" v="672422" />
	</node>
	<node id="-35603" lat="59.9742192133" lon="10.9336217034">
		<tag k="name" v="Tokerudtjern" />
		<tag k="natural" v="water" />
		<tag k="ssr:stedsnr" v="630414" />
	</node>
	<node id="-35473" lat="59.9808861154" lon="11.0890222291">
		<tag k="name" v="Fiskerisvingen" />
		<tag k="place" v="locality" />
		<tag k="ssr:stedsnr" v="205313" />
	</node>
	<node id="-35472" lat="59.9799111144" lon="11.1501888958">
		<tag k="name" v="Bukkedalsbekken" />
		<tag k="ssr:stedsnr" v="205301" />
		<tag k="waterway" v="stream" />
	</node>
	<node id="-35471" lat="59.9441777764" lon="11.0866666626">
		<tag k="name" v="Mastevika" />
		<tag k="natural" v="bay" />
		<tag k="ssr:stedsnr" v="205294" />
	</node>
	<node id="-35495" lat="60.0311388904" lon="10.9903666662">
		<tag k="name" v="Dammen" />
		<tag k="ssr:stedsnr" v="266021" />
		<tag k="waterway" v="dam" />
	</node>
	<node id="-35467" lat="59.9839611136" lon="11.0802055645">
		<tag k="alt_name" v="Tomtstilla" />
		<tag k="name" v="Tomtestilla" />
		<tag k="natural" v="water" />
		<tag k="ssr:stedsnr" v="187543" />
		<tag k="water" v="lake" />
	</node>
	<node id="-35436" lat="59.9644527821" lon="10.9659222303">
		<tag k="name" v="Lukedammen" />
		<tag k="natural" v="water" />
		<tag k="ssr:stedsnr" v="126554" />
	</node>
	<node id="-35589" lat="60.0307916647" lon="10.9741027851">
		<tag k="name" v="Kropptjernbekken" />
		<tag k="ssr:stedsnr" v="612428" />
		<tag k="waterway" v="stream" />
	</node>
	<node id="-35716" lat="59.9515638896" lon="11.0823944441">
		<tag k="name" v="Isakbekken" />
		<tag k="ssr:stedsnr" v="934231" />
		<tag k="waterway" v="stream" />
	</node>
</osm>
