<?xml version="1.0" encoding="UTF-8"?>
<osm generator="osmapis" version="0.6">
	<node id="-35584" lat="60.0095055578" lon="11.0307749991">
		<tag k="bridge" v="yes" />
		<tag k="layer" v="1" />
		<tag k="name" v="Åsenhagen" />
		<tag k="ssr:stedsnr" v="591001" />
	</node>
	<node id="-35583" lat="60.0130666624" lon="10.9770250036">
		<tag k="junction" v="yes" />
		<tag k="name" v="Solberg" />
		<tag k="place" v="locality" />
		<tag k="ssr:stedsnr" v="570012" />
	</node>
	<node id="-35349" lat="59.953116666" lon="11.0157888832">
		<tag k="bridge" v="yes" />
		<tag k="layer" v="1" />
		<tag k="name" v="Stalsberg" />
		<tag k="ssr:stedsnr" v="409014" />
	</node>
	<node id="-35706" lat="59.9538233478" lon="11.0451793282">
		<tag k="alt_name" v="Lillestrøm" />
		<tag k="name" v="Lillestrøm stasjon" />
		<tag k="railway" v="station" />
		<tag k="ssr:stedsnr" v="914540" />
		<tag k="train" v="yes" />
	</node>
	<node id="-35704" lat="59.9795805546" lon="10.9947194511">
		<tag k="junction" v="yes" />
		<tag k="name" v="Hvam" />
		<tag k="place" v="locality" />
		<tag k="ssr:stedsnr" v="874011" />
	</node>
	<node id="-35412" lat="59.9573722247" lon="11.0305333312">
		<tag k="bridge" v="yes" />
		<tag k="layer" v="1" />
		<tag k="name" v="Strand" />
		<tag k="ssr:stedsnr" v="45009" />
	</node>
	<node id="-35563" lat="59.9582999977" lon="11.01652778">
		<tag k="bridge" v="yes" />
		<tag k="layer" v="1" />
		<tag k="name" v="Sagelven" />
		<tag k="ssr:stedsnr" v="531009" />
	</node>
	<node id="-35562" lat="59.9566611093" lon="11.0480861136">
		<tag k="junction" v="yes" />
		<tag k="name" v="Fjeldberghjørnet" />
		<tag k="place" v="locality" />
		<tag k="ssr:stedsnr" v="509395" />
	</node>
	<node id="-35431" lat="59.9942333335" lon="11.0341166644">
		<tag k="bridge" v="yes" />
		<tag k="layer" v="1" />
		<tag k="name" v="Vestvollvegen" />
		<tag k="ssr:stedsnr" v="106005" />
	</node>
	<node id="-35430" lat="59.9916444421" lon="11.0775277826">
		<tag k="junction" v="yes" />
		<tag k="name" v="Kjus" />
		<tag k="place" v="locality" />
		<tag k="ssr:stedsnr" v="105365" />
	</node>
	<node id="-35685" lat="59.9563519612" lon="11.0156320276">
		<tag k="alt_name" v="Sagdalen" />
		<tag k="name" v="Sagdalen holdeplass" />
		<tag k="railway" v="station" />
		<tag k="ssr:stedsnr" v="854505" />
		<tag k="train" v="yes" />
	</node>
	<node id="-35683" lat="59.9495270347" lon="11.0015623223">
		<tag k="alt_name" v="Strømmen" />
		<tag k="name" v="Strømmen stasjon" />
		<tag k="railway" v="station" />
		<tag k="ssr:stedsnr" v="854028" />
		<tag k="train" v="yes" />
	</node>
	<node id="-35682" lat="59.9499833337" lon="10.9525722163">
		<tag k="bridge" v="yes" />
		<tag k="layer" v="1" />
		<tag k="name" v="Gryta" />
		<tag k="ssr:stedsnr" v="835011" />
	</node>
	<node id="-35681" lat="60.0350499978" lon="10.9717583292">
		<tag k="highway" v="path" />
		<tag k="name" v="Vangveien" />
		<tag k="ssr:stedsnr" v="813006" />
	</node>
	<node id="-35301" lat="59.980266668" lon="11.0113194391">
		<tag k="bridge" v="yes" />
		<tag k="layer" v="1" />
		<tag k="name" v="Tandbergbygget" />
		<tag k="ssr:stedsnr" v="288008" />
	</node>
	<node id="-35546" lat="59.9977046593" lon="11.0871178762">
		<tag k="alt_name" v="Leirsund" />
		<tag k="name" v="Leirsund stasjon" />
		<tag k="railway" v="station" />
		<tag k="ssr:stedsnr" v="490551" />
		<tag k="train" v="yes" />
	</node>
	<node id="-35413" lat="60.0073916697" lon="11.0505083392">
		<tag k="bridge" v="yes" />
		<tag k="layer" v="1" />
		<tag k="name" v="Høgslund" />
		<tag k="ssr:stedsnr" v="45023" />
	</node>
	<node id="-35540" lat="59.9469972193" lon="11.0716305514">
		<tag k="bridge" v="yes" />
		<tag k="layer" v="1" />
		<tag k="name" v="Isakveien" />
		<tag k="ssr:stedsnr" v="470019" />
	</node>
	<node id="-35539" lat="59.9492833331" lon="11.0755722225">
		<tag k="bridge" v="yes" />
		<tag k="layer" v="1" />
		<tag k="name" v="Sørumsneset" />
		<tag k="ssr:stedsnr" v="470010" />
	</node>
	<node id="-35538" lat="59.9621194474" lon="11.0611055577">
		<tag k="bridge" v="yes" />
		<tag k="layer" v="1" />
		<tag k="name" v="Åråsen" />
		<tag k="ssr:stedsnr" v="470001" />
	</node>
	<node id="-35537" lat="59.9490666654" lon="11.0637749993">
		<tag k="amenity" v="parking" />
		<tag k="name" v="Øyeren plass" />
		<tag k="ssr:stedsnr" v="449006" />
	</node>
	<node id="-35536" lat="59.9619416709" lon="11.0615166621">
		<tag k="junction" v="yes" />
		<tag k="name" v="Åråsen" />
		<tag k="place" v="locality" />
		<tag k="ssr:stedsnr" v="449007" />
	</node>
	<node id="-35534" lat="59.9546278088" lon="11.0424405828">
		<tag k="amenity" v="parking" />
		<tag k="name" v="Pedersløkka" />
		<tag k="ssr:stedsnr" v="448466" />
	</node>
	<node id="-35328" lat="59.9781944422" lon="11.0010749984">
		<tag k="bridge" v="yes" />
		<tag k="layer" v="1" />
		<tag k="name" v="Norheim" />
		<tag k="ssr:stedsnr" v="349009" />
	</node>
	<node id="-35302" lat="59.9619444456" lon="10.9746361078">
		<tag k="bridge" v="yes" />
		<tag k="layer" v="1" />
		<tag k="name" v="Torget" />
		<tag k="ssr:stedsnr" v="288013" />
	</node>
	<node id="-35734" lat="59.9743111155" lon="10.9913749972">
		<tag k="bridge" v="yes" />
		<tag k="layer" v="1" />
		<tag k="name" v="Hellerud" />
		<tag k="ssr:stedsnr" v="956017" />
	</node>
	<node id="-35512" lat="59.9984194462" lon="11.041338884">
		<tag k="junction" v="yes" />
		<tag k="name" v="Skedsmovollen" />
		<tag k="place" v="locality" />
		<tag k="ssr:stedsnr" v="267007" />
	</node>
	<node id="-35506" lat="59.9675071324" lon="11.0527762748">
		<tag k="junction" v="yes" />
		<tag k="name" v="Måsasvingen" />
		<tag k="place" v="locality" />
		<tag k="ssr:stedsnr" v="266304" />
	</node>
	<node id="-35632" lat="59.9861083323" lon="11.0163027769">
		<tag k="bridge" v="yes" />
		<tag k="layer" v="1" />
		<tag k="name" v="Tuterud" />
		<tag k="ssr:stedsnr" v="713007" />
	</node>
	<node id="-35486" lat="59.9974722268" lon="11.0993638865">
		<tag k="bridge" v="yes" />
		<tag k="layer" v="1" />
		<tag k="name" v="Heishagen" />
		<tag k="ssr:stedsnr" v="227016" />
	</node>
	<node id="-35484" lat="59.9649027761" lon="10.9458361196">
		<tag k="highway" v="path" />
		<tag k="name" v="Kongeveien" />
		<tag k="ssr:stedsnr" v="206011" />
	</node>
	<node id="-35353" lat="59.9735111124" lon="11.0554305592">
		<tag k="bridge" v="yes" />
		<tag k="layer" v="1" />
		<tag k="name" v="Brauter" />
		<tag k="ssr:stedsnr" v="896015" />
	</node>
	<node id="-35352" lat="59.9761805578" lon="11.0242972146">
		<tag k="bridge" v="yes" />
		<tag k="layer" v="1" />
		<tag k="name" v="Kjellerstranda" />
		<tag k="ssr:stedsnr" v="895014" />
	</node>
	<node id="-35351" lat="59.9796222261" lon="10.993925007">
		<tag k="bridge" v="yes" />
		<tag k="layer" v="1" />
		<tag k="name" v="Hvam" />
		<tag k="ssr:stedsnr" v="895016" />
	</node>
	<node id="-35606" lat="59.9970527782" lon="11.0436500036">
		<tag k="bridge" v="yes" />
		<tag k="layer" v="1" />
		<tag k="name" v="Tærud" />
		<tag k="ssr:stedsnr" v="652005" />
	</node>
	<node id="-35733" lat="59.9981916679" lon="11.041719445">
		<tag k="bridge" v="yes" />
		<tag k="layer" v="1" />
		<tag k="name" v="Skedsmovollen" />
		<tag k="ssr:stedsnr" v="956014" />
	</node>
	<node id="-35348" lat="59.9738277751" lon="11.0041499927">
		<tag k="bridge" v="yes" />
		<tag k="layer" v="1" />
		<tag k="name" v="Valstadsvingen" />
		<tag k="ssr:stedsnr" v="409003" />
	</node>
	<node id="-35459" lat="60.0045138887" lon="11.0328694362">
		<tag k="junction" v="yes" />
		<tag k="name" v="Skedsmokorset" />
		<tag k="place" v="locality" />
		<tag k="ssr:stedsnr" v="145014" />
	</node>
	<node id="-35336" lat="59.9713555541" lon="11.032758342">
		<tag k="aeroway" v="aerodrome" />
		<tag k="alt_name" v="Kjeller" />
		<tag k="name" v="Kjeller flyplass" />
		<tag k="ssr:stedsnr" v="369477" />
	</node>
	<node id="-35460" lat="59.9970916659" lon="11.0883000028">
		<tag k="bridge" v="yes" />
		<tag k="layer" v="1" />
		<tag k="name" v="Leirsund" />
		<tag k="ssr:stedsnr" v="167009" />
	</node>
	<node id="-35350" lat="59.9477055564" lon="11.0615472151">
		<tag k="bridge" v="yes" />
		<tag k="layer" v="1" />
		<tag k="name" v="Trelastbrua" />
		<tag k="ssr:stedsnr" v="895006" />
	</node>
	<node id="-35329" lat="59.9890305556" lon="11.0282611056">
		<tag k="bridge" v="yes" />
		<tag k="layer" v="1" />
		<tag k="name" v="Brånås" />
		<tag k="ssr:stedsnr" v="349015" />
	</node>
</osm>
