<?xml version="1.0" encoding="UTF-8"?>
<osm generator="osmapis" version="0.6">
	<node id="-35456" lat="59.9653972225" lon="10.9515305517">
		<tag k="fixme" v="consider natural=peak for the most distinct mountains in the district" />
		<tag k="name" v="Øvre Lauvåsen" />
		<tag k="natural" v="hill" />
		<tag k="place" v="locality" />
		<tag k="ssr:stedsnr" v="144504" />
	</node>
	<node id="-35327" lat="59.965386115" lon="10.9722805624">
		<tag k="name" v="Engerberget" />
		<tag k="natural" v="hill" />
		<tag k="place" v="locality" />
		<tag k="ssr:stedsnr" v="327448" />
	</node>
	<node id="-35582" lat="59.9613916652" lon="11.0749194458">
		<tag k="name" v="Oksefjellet" />
		<tag k="natural" v="hill" />
		<tag k="place" v="locality" />
		<tag k="ssr:stedsnr" v="569481" />
	</node>
	<node id="-35581" lat="59.9969833348" lon="11.0166944413">
		<tag k="name" v="Hattemakerlia" />
		<tag k="natural" v="slope" />
		<tag k="place" v="locality" />
		<tag k="ssr:stedsnr" v="569469" />
	</node>
	<node id="-35580" lat="60.0209666711" lon="10.9855944456">
		<tag k="name" v="Proppslia" />
		<tag k="natural" v="slope" />
		<tag k="place" v="locality" />
		<tag k="ssr:stedsnr" v="569470" />
	</node>
	<node id="-35579" lat="59.9628055587" lon="10.9412694401">
		<tag k="name" v="Kongedalen" />
		<tag k="natural" v="valley" />
		<tag k="place" v="locality" />
		<tag k="ssr:stedsnr" v="569467" />
	</node>
	<node id="-35703" lat="59.9740638919" lon="10.9847472313">
		<tag k="name" v="Buhaugen" />
		<tag k="natural" v="hill" />
		<tag k="place" v="locality" />
		<tag k="ssr:stedsnr" v="873460" />
	</node>
	<node id="-35441" lat="60.0103611096" lon="11.0178583299">
		<tag k="name" v="Tæruddalen" />
		<tag k="natural" v="valley" />
		<tag k="place" v="locality" />
		<tag k="ssr:stedsnr" v="127377" />
	</node>
	<node id="-35325" lat="59.963011113" lon="11.060747218">
		<tag k="name" v="Sørumsfjellet" />
		<tag k="natural" v="hill" />
		<tag k="place" v="locality" />
		<tag k="ssr:stedsnr" v="327441" />
	</node>
	<node id="-35567" lat="60.0225999989" lon="10.997197222">
		<tag k="fixme" v="consider natural=peak for the most distinct mountains in the district" />
		<tag k="name" v="Geitåsen" />
		<tag k="natural" v="hill" />
		<tag k="place" v="locality" />
		<tag k="ssr:stedsnr" v="551372" />
	</node>
	<node id="-35565" lat="60.0132305527" lon="11.0087972147">
		<tag k="name" v="Tærudkampen" />
		<tag k="natural" v="hill" />
		<tag k="place" v="locality" />
		<tag k="ssr:stedsnr" v="551358" />
	</node>
	<node id="-35564" lat="59.9924888849" lon="11.117499998">
		<tag k="fixme" v="consider natural=peak for the most distinct mountains in the district" />
		<tag k="name" v="Hauglifjellet" />
		<tag k="natural" v="hill" />
		<tag k="place" v="locality" />
		<tag k="ssr:stedsnr" v="550456" />
	</node>
	<node id="-35434" lat="59.9786749966" lon="11.1267805587">
		<tag k="fixme" v="consider natural=peak for the most distinct mountains in the district" />
		<tag k="name" v="Skansen" />
		<tag k="natural" v="hill" />
		<tag k="place" v="locality" />
		<tag k="ssr:stedsnr" v="125492" />
	</node>
	<node id="-35432" lat="59.9590000026" lon="10.9572166719">
		<tag k="alt_name" v="Høgda" />
		<tag k="fixme" v="consider natural=peak for the most distinct mountains in the district" />
		<tag k="name" v="Terudåsen" />
		<tag k="natural" v="hill" />
		<tag k="place" v="locality" />
		<tag k="ssr:stedsnr" v="125520" />
	</node>
	<node id="-35428" lat="60.0008750005" lon="11.0177805535">
		<tag k="name" v="Glassmesterbakken" />
		<tag k="natural" v="slope" />
		<tag k="place" v="locality" />
		<tag k="ssr:stedsnr" v="84493" />
	</node>
	<node id="-35680" lat="60.0250166677" lon="10.9797694384">
		<tag k="alt_name" v="Lauvbråtelia" />
		<tag k="name" v="Lauvbråtalia" />
		<tag k="natural" v="slope" />
		<tag k="place" v="locality" />
		<tag k="ssr:stedsnr" v="812497" />
	</node>
	<node id="-35535" lat="59.9548388848" lon="10.9568972154">
		<tag k="name" v="Brattli" />
		<tag k="natural" v="slope" />
		<tag k="place" v="locality" />
		<tag k="ssr:stedsnr" v="448507" />
	</node>
	<node id="-35732" lat="59.9571333321" lon="11.0148111141">
		<tag k="name" v="Gisledalen" />
		<tag k="natural" v="valley" />
		<tag k="place" v="locality" />
		<tag k="ssr:stedsnr" v="934425" />
	</node>
	<node id="-35656" lat="59.9490694451" lon="10.9944083316">
		<tag k="name" v="Sankthansfjellet" />
		<tag k="natural" v="hill" />
		<tag k="place" v="locality" />
		<tag k="ssr:stedsnr" v="751501" />
	</node>
	<node id="-35655" lat="60.0169638894" lon="11.0059583315">
		<tag k="name" v="Hulderkollen" />
		<tag k="natural" v="hill" />
		<tag k="place" v="locality" />
		<tag k="ssr:stedsnr" v="751500" />
	</node>
	<node id="-35654" lat="60.010769441" lon="10.9788222219">
		<tag k="name" v="Florstubakken" />
		<tag k="natural" v="slope" />
		<tag k="place" v="locality" />
		<tag k="ssr:stedsnr" v="751494" />
	</node>
	<node id="-35653" lat="59.9556916707" lon="11.0246638883">
		<tag k="name" v="Jenseberget" />
		<tag k="natural" v="hill" />
		<tag k="place" v="locality" />
		<tag k="ssr:stedsnr" v="751410" />
	</node>
	<node id="-35522" lat="59.9674277775" lon="10.9471249965">
		<tag k="fixme" v="consider natural=peak for the most distinct mountains in the district" />
		<tag k="name" v="Gjelleråsen" />
		<tag k="natural" v="hill" />
		<tag k="place" v="locality" />
		<tag k="ssr:stedsnr" v="430556" />
	</node>
	<node id="-35648" lat="59.9633972266" lon="10.9378277768">
		<tag k="name" v="Gropa" />
		<tag k="place" v="locality" />
		<tag k="ssr:stedsnr" v="751023" />
	</node>
	<node id="-35631" lat="60.0381527768" lon="10.9781361087">
		<tag k="name" v="Klopptjerntoppen" />
		<tag k="natural" v="hill" />
		<tag k="place" v="locality" />
		<tag k="ssr:stedsnr" v="691464" />
	</node>
	<node id="-35630" lat="59.9701833361" lon="10.9571777766">
		<tag k="fixme" v="consider natural=peak for the most distinct mountains in the district" />
		<tag k="name" v="Nedre Lauvåsen" />
		<tag k="natural" v="hill" />
		<tag k="place" v="locality" />
		<tag k="ssr:stedsnr" v="691455" />
	</node>
	<node id="-35605" lat="59.9755694455" lon="11.1305000004">
		<tag k="name" v="Haukåsen" />
		<tag k="natural" v="hill" />
		<tag k="place" v="locality" />
		<tag k="ssr:stedsnr" v="630426" />
	</node>
	<node id="-35604" lat="59.9902333326" lon="11.1113361054">
		<tag k="name" v="Stordalen" />
		<tag k="natural" v="valley" />
		<tag k="place" v="locality" />
		<tag k="ssr:stedsnr" v="630417" />
	</node>
	<node id="-35731" lat="59.9690194403" lon="11.0142250033">
		<tag k="name" v="Nøkleberget" />
		<tag k="natural" v="hill" />
		<tag k="place" v="locality" />
		<tag k="ssr:stedsnr" v="934418" />
	</node>
	<node id="-35730" lat="59.9531027785" lon="10.9716277781">
		<tag k="fixme" v="consider natural=peak for the most distinct mountains in the district" />
		<tag k="name" v="Skjettenåsen" />
		<tag k="natural" v="hill" />
		<tag k="place" v="locality" />
		<tag k="ssr:stedsnr" v="934411" />
	</node>
	<node id="-35729" lat="59.9526527744" lon="10.9915166726">
		<tag k="fixme" v="consider natural=peak for the most distinct mountains in the district" />
		<tag k="name" v="Bråteåsen" />
		<tag k="natural" v="hill" />
		<tag k="place" v="locality" />
		<tag k="ssr:stedsnr" v="934412" />
	</node>
	<node id="-35728" lat="60.0063499977" lon="11.051686113">
		<tag k="name" v="Skolemesterrabben" />
		<tag k="natural" v="ridge" />
		<tag k="place" v="locality" />
		<tag k="ssr:stedsnr" v="934408" />
	</node>
	<node id="-35727" lat="59.9754333323" lon="11.1151416581">
		<tag k="fixme" v="consider natural=peak for the most distinct mountains in the district" />
		<tag k="name" v="Korpåsen" />
		<tag k="natural" v="hill" />
		<tag k="place" v="locality" />
		<tag k="ssr:stedsnr" v="934407" />
	</node>
	<node id="-35309" lat="59.9888611153" lon="11.1670805495">
		<tag k="alt_name" v="Bjønnholen" />
		<tag k="fixme" v="consider natural=peak for the most distinct mountains in the district" />
		<tag k="name" v="Bjørnholen" />
		<tag k="natural" v="hill" />
		<tag k="place" v="locality" />
		<tag k="ssr:stedsnr" v="308444" />
	</node>
	<node id="-35457" lat="59.9797583336" lon="11.0362027759">
		<tag k="name" v="Kjellerhaugen" />
		<tag k="natural" v="hill" />
		<tag k="place" v="locality" />
		<tag k="ssr:stedsnr" v="144507" />
	</node>
	<node id="-35458" lat="60.0414305571" lon="10.9729777838">
		<tag k="name" v="Lyberget" />
		<tag k="natural" v="hill" />
		<tag k="place" v="locality" />
		<tag k="ssr:stedsnr" v="144513" />
	</node>
	<node id="-35713" lat="60.0219972203" lon="11.0094361097">
		<tag k="name" v="Damefallet" />
		<tag k="place" v="locality" />
		<tag k="ssr:stedsnr" v="934016" />
	</node>
</osm>
