<?xml version="1.0" encoding="UTF-8"?>
<osm version="0.6" generator="osmapis">
	<node lat="58.91969444293852" lon="9.144897213615849" id="-46037">
		<tag k="name" v="Kvennhusfossen" />
		<tag k="place" v="locality" />
		<tag k="ssr:stedsnr" v="39876" />
	</node>
	<node lat="59.0878277786415" lon="9.164347224570804" id="-46044">
		<tag k="name" v="Mannheim" />
		<tag k="place" v="locality" />
		<tag k="ssr:stedsnr" v="40267" />
	</node>
	<node lat="59.22799722418786" lon="8.95828610532895" id="-46176">
		<tag k="name" v="Rennedammen" />
		<tag k="place" v="locality" />
		<tag k="ssr:stedsnr" v="57488" />
	</node>
	<node lat="59.02079166824486" lon="9.242980561419717" id="-46182">
		<tag k="name" v="Taraldsbu" />
		<tag k="place" v="locality" />
		<tag k="ssr:stedsnr" v="57907" />
	</node>
	<node lat="59.188369444154176" lon="9.063577769701755" id="-46192">
		<tag k="name" v="De østre dalane" />
		<tag k="place" v="locality" />
		<tag k="ssr:stedsnr" v="58086" />
	</node>
	<node lat="58.95709722262175" lon="9.137074995902017" id="-46411">
		<tag k="amenity" v="community_centre" />
		<tag k="name" v="Folkvang" />
		<tag k="ssr:stedsnr" v="102975" />
	</node>
	<node lat="59.06142440462169" lon="8.770271480405954" id="-46526">
		<tag k="name" v="Kittilsbu" />
		<tag k="place" v="locality" />
		<tag k="ssr:stedsnr" v="123625" />
	</node>
	<node lat="58.96236110712595" lon="9.098652778561709" id="-46682">
		<tag k="name" v="Kvenna" />
		<tag k="place" v="locality" />
		<tag k="ssr:stedsnr" v="221725" />
	</node>
	<node lat="59.102883329251604" lon="9.003344452375215" id="-46885">
		<tag k="name" v="Junkersbu" />
		<tag k="place" v="locality" />
		<tag k="ssr:stedsnr" v="283702" />
	</node>
	<node lat="59.20742777984417" lon="8.795863884365978" id="-46918">
		<tag k="name" v="Nordkåsa" />
		<tag k="place" v="locality" />
		<tag k="ssr:stedsnr" v="298008" />
	</node>
	<node lat="58.95191111480219" lon="9.065266659017457" id="-47034">
		<tag k="name" v="Åsmunds post" />
		<tag k="place" v="locality" />
		<tag k="ssr:stedsnr" v="465283" />
	</node>
	<node lat="59.06815277855098" lon="9.334594441607468" id="-47074">
		<tag k="name" v="Brakka" />
		<tag k="place" v="locality" />
		<tag k="ssr:stedsnr" v="466542" />
	</node>
	<node lat="58.93364166291204" lon="9.07034167108661" id="-47092">
		<tag k="name" v="Skarkemyra" />
		<tag k="place" v="locality" />
		<tag k="ssr:stedsnr" v="342844" />
	</node>
	<node lat="59.15705277738744" lon="8.782819442072453" id="-47108">
		<tag k="name" v="Lauvombua" />
		<tag k="place" v="locality" />
		<tag k="ssr:stedsnr" v="343871" />
	</node>
	<node lat="58.95890000033722" lon="9.140072221721198" id="-47127">
		<tag k="amenity" v="place_of_worship" />
		<tag k="fixme" v="specify religion=*, denomination=*, building=* etc" />
		<tag k="name" v="Heldal bedehus" />
		<tag k="ssr:stedsnr" v="344974" />
	</node>
	<node lat="59.09799845058343" lon="9.064692525043913" id="-47160">
		<tag k="amenity" v="place_of_worship" />
		<tag k="denomination" v="lutheran" />
		<tag k="name" v="Drangedal kirke" />
		<tag k="religion" v="christian" />
		<tag k="ssr:stedsnr" v="365245" />
	</node>
	<node lat="58.93781388942303" lon="9.073997226066126" id="-47304">
		<tag k="name" v="Jordhytta" />
		<tag k="place" v="locality" />
		<tag k="ssr:stedsnr" v="403985" />
	</node>
	<node lat="59.003899999130596" lon="9.19874167073583" id="-47345">
		<tag k="amenity" v="community_centre" />
		<tag k="name" v="Solvang" />
		<tag k="ssr:stedsnr" v="406007" />
	</node>
	<node lat="59.15865555553852" lon="8.89605554803485" id="-47366">
		<tag k="name" v="Nybu" />
		<tag k="place" v="locality" />
		<tag k="ssr:stedsnr" v="487278" />
	</node>
	<node lat="59.05259722562602" lon="9.028044441742141" id="-47524">
		<tag k="name" v="Morgesdalstua" />
		<tag k="place" v="locality" />
		<tag k="ssr:stedsnr" v="464862" />
	</node>
	<node lat="59.12292221969246" lon="8.863869439122816" id="-47802">
		<tag k="name" v="Gråtopplassen" />
		<tag k="ssr:stedsnr" v="547316" />
		<tag k="tourism" v="attraction" />
	</node>
	<node lat="58.957813886572254" lon="9.058619448313546" id="-47860">
		<tag k="name" v="Trygves post" />
		<tag k="place" v="locality" />
		<tag k="ssr:stedsnr" v="585830" />
	</node>
	<node lat="59.124499998395464" lon="8.856697223808537" id="-47869">
		<tag k="name" v="Herren Halvards grav" />
		<tag k="place" v="locality" />
		<tag k="ssr:stedsnr" v="586340" />
	</node>
	<node lat="58.906838886438045" lon="9.149077772013106" id="-47873">
		<tag k="name" v="Pråmste" />
		<tag k="place" v="locality" />
		<tag k="ssr:stedsnr" v="586494" />
	</node>
	<node lat="58.97760277531403" lon="9.134494452338028" id="-48049">
		<tag k="name" v="Holmvannsdammen" />
		<tag k="place" v="locality" />
		<tag k="ssr:stedsnr" v="647380" />
	</node>
	<node lat="58.97377777923297" lon="9.151124998362265" id="-48053">
		<tag k="name" v="Lintjenndammen" />
		<tag k="place" v="locality" />
		<tag k="ssr:stedsnr" v="647715" />
	</node>
	<node lat="58.9387694486153" lon="9.107638893815633" id="-48097">
		<tag k="name" v="Fikjevannsdammen" />
		<tag k="place" v="locality" />
		<tag k="ssr:stedsnr" v="708000" />
	</node>
	<node lat="59.03443888822047" lon="9.280366671625313" id="-48182">
		<tag k="name" v="Kvenntjenndammen" />
		<tag k="place" v="locality" />
		<tag k="ssr:stedsnr" v="664682" />
	</node>
	<node lat="59.057352777348214" lon="9.377974991643244" id="-48185">
		<tag k="name" v="Velumvanndammen" />
		<tag k="place" v="locality" />
		<tag k="ssr:stedsnr" v="709524" />
	</node>
	<node lat="58.94442299021502" lon="9.132744046140232" id="-48233">
		<tag k="amenity" v="place_of_worship" />
		<tag k="denomination" v="lutheran" />
		<tag k="name" v="Kroken kirke" />
		<tag k="religion" v="christian" />
		<tag k="ssr:stedsnr" v="668914" />
	</node>
	<node lat="59.152352781748014" lon="9.017480552381473" id="-48340">
		<tag k="amenity" v="community_centre" />
		<tag k="name" v="Åkre-Nås bedehus" />
		<tag k="ssr:stedsnr" v="707630" />
	</node>
	<node lat="59.241019447316084" lon="8.640269438432096" id="-48362">
		<tag k="name" v="Juvedammen" />
		<tag k="place" v="locality" />
		<tag k="ssr:stedsnr" v="708534" />
	</node>
	<node lat="59.04169166237846" lon="8.831963890860186" id="-48474">
		<tag k="alt_name" v="Ondehommen" />
		<tag k="name" v="Undhommen" />
		<tag k="place" v="locality" />
		<tag k="ssr:stedsnr" v="730564" />
	</node>
	<node lat="58.997488890245876" lon="9.125202781759398" id="-48680">
		<tag k="name" v="Garevannsdammen" />
		<tag k="place" v="locality" />
		<tag k="ssr:stedsnr" v="787111" />
	</node>
	<node lat="59.096880553361736" lon="9.047150002335282" id="-48709">
		<tag k="name" v="Bygdetunet" />
		<tag k="ssr:stedsnr" v="790101" />
		<tag k="tourism" v="attraction" />
	</node>
	<node lat="58.90406666699983" lon="9.137766668709334" id="-48854">
		<tag k="name" v="Øygardsstranda" />
		<tag k="place" v="locality" />
		<tag k="ssr:stedsnr" v="830482" />
	</node>
	<node lat="59.025305552867835" lon="9.170705547162125" id="-48922">
		<tag k="name" v="Mosebu" />
		<tag k="place" v="locality" />
		<tag k="ssr:stedsnr" v="846889" />
	</node>
	<node lat="59.146411112565495" lon="8.960563883179486" id="-48931">
		<tag k="name" v="Fjellbudammen" />
		<tag k="place" v="locality" />
		<tag k="ssr:stedsnr" v="848619" />
	</node>
	<node lat="59.12606111513217" lon="9.192805563601476" id="-48989">
		<tag k="name" v="Småfiskvannstua" />
		<tag k="place" v="locality" />
		<tag k="ssr:stedsnr" v="889613" />
	</node>
	<node lat="59.069311114785606" lon="9.1201694509548" id="-49070">
		<tag k="name" v="Dammen" />
		<tag k="place" v="locality" />
		<tag k="ssr:stedsnr" v="907303" />
	</node>
	<node lat="59.068861115223086" lon="9.120577784991951" id="-49080">
		<tag k="name" v="Saga" />
		<tag k="place" v="locality" />
		<tag k="ssr:stedsnr" v="907302" />
	</node>
	<node lat="59.09999444848184" lon="9.024966673846354" id="-49183">
		<tag k="name" v="Trytetjenndammen" />
		<tag k="place" v="locality" />
		<tag k="ssr:stedsnr" v="950684" />
	</node>
	<node lat="58.99478055786692" lon="9.038352777124082" id="-49354">
		<tag k="name" v="Vreen" />
		<tag k="place" v="locality" />
		<tag k="ssr:stedsnr" v="1954" />
	</node>
	<node lat="59.20885833278515" lon="8.712241670506426" id="-49425">
		<tag k="amenity" v="community_centre" />
		<tag k="name" v="Tørdal grendehus" />
		<tag k="ssr:stedsnr" v="41430" />
	</node>
	<node lat="58.93592500053945" lon="9.062144453009429" id="-49618">
		<tag k="name" v="Svarttjennskåtet" />
		<tag k="place" v="locality" />
		<tag k="ssr:stedsnr" v="100990" />
	</node>
	<node lat="59.176524999227645" lon="9.041622228858579" id="-49621">
		<tag k="name" v="Svinkjerrstua" />
		<tag k="place" v="locality" />
		<tag k="ssr:stedsnr" v="100554" />
	</node>
	<node lat="58.921194447843625" lon="9.15872500485916" id="-49632">
		<tag k="name" v="Naut-brønn bru" />
		<tag k="place" v="locality" />
		<tag k="ssr:stedsnr" v="100855" />
	</node>
	<node lat="59.110708331784814" lon="8.757569436828554" id="-49743">
		<tag k="name" v="Jeriko" />
		<tag k="place" v="locality" />
		<tag k="ssr:stedsnr" v="118706" />
	</node>
	<node lat="58.93901388491011" lon="9.044263889095484" id="-49794">
		<tag k="alt_name" v="Sneisbustua" />
		<tag k="name" v="Sneisbu" />
		<tag k="place" v="locality" />
		<tag k="ssr:stedsnr" v="122817" />
	</node>
	<node lat="58.957594443392246" lon="9.09424166511246" id="-49862">
		<tag k="name" v="Sagfjella" />
		<tag k="place" v="locality" />
		<tag k="ssr:stedsnr" v="160730" />
	</node>
	<node lat="58.95911388893818" lon="9.078077782677562" id="-49865">
		<tag k="name" v="Teinelaget" />
		<tag k="place" v="locality" />
		<tag k="ssr:stedsnr" v="160871" />
	</node>
	<node lat="59.169608330030506" lon="8.847172217428731" id="-49899">
		<tag k="name" v="Lauvbua" />
		<tag k="place" v="locality" />
		<tag k="ssr:stedsnr" v="161465" />
	</node>
	<node lat="58.91150000263887" lon="9.155052771640717" id="-49918">
		<tag k="name" v="Sagfossen" />
		<tag k="place" v="locality" />
		<tag k="ssr:stedsnr" v="162492" />
	</node>
	<node lat="58.98689444257667" lon="9.13070278371026" id="-49922">
		<tag k="name" v="Fylldammen" />
		<tag k="place" v="locality" />
		<tag k="ssr:stedsnr" v="162655" />
	</node>
	<node lat="59.10749722439592" lon="9.212358334793661" id="-49926">
		<tag k="name" v="Krokvannsdammen" />
		<tag k="place" v="locality" />
		<tag k="ssr:stedsnr" v="162698" />
	</node>
	<node lat="58.90231388992583" lon="9.167380559497934" id="-49951">
		<tag k="name" v="Gunnar Lias bu" />
		<tag k="place" v="locality" />
		<tag k="ssr:stedsnr" v="177397" />
	</node>
	<node lat="59.155063577406466" lon="8.810678511830403" id="-50051">
		<tag k="amenity" v="place_of_worship" />
		<tag k="denomination" v="lutheran" />
		<tag k="name" v="Tørdal kirke" />
		<tag k="religion" v="christian" />
		<tag k="ssr:stedsnr" v="183740" />
	</node>
	<node lat="58.96304999953795" lon="9.072224994307055" id="-50176">
		<tag k="name" v="Buslåttrulla" />
		<tag k="place" v="locality" />
		<tag k="ssr:stedsnr" v="282852" />
	</node>
	<node lat="59.09865574000601" lon="8.837040062997003" id="-50345">
		<tag k="name" v="Haslestad" />
		<tag k="place" v="locality" />
		<tag k="ssr:stedsnr" v="304650" />
	</node>
	<node lat="58.930413888175266" lon="9.073738896751978" id="-50434">
		<tag k="name" v="Mortens bu" />
		<tag k="place" v="locality" />
		<tag k="ssr:stedsnr" v="342846" />
	</node>
	<node lat="58.93077222622817" lon="9.0573250029613" id="-50435">
		<tag k="name" v="Olas post" />
		<tag k="place" v="locality" />
		<tag k="ssr:stedsnr" v="342849" />
	</node>
	<node lat="59.0789583338736" lon="8.90450556019598" id="-50546">
		<tag k="name" v="Eilev Moens høybu" />
		<tag k="place" v="locality" />
		<tag k="ssr:stedsnr" v="360244" />
	</node>
	<node lat="59.01618611323975" lon="8.92939999592108" id="-50609">
		<tag k="name" v="Tiggeren" />
		<tag k="place" v="locality" />
		<tag k="ssr:stedsnr" v="362279" />
	</node>
	<node lat="59.17008332928002" lon="9.169727775396616" id="-50748">
		<tag k="name" v="Kristians hytte" />
		<tag k="place" v="locality" />
		<tag k="ssr:stedsnr" v="404629" />
	</node>
	<node lat="59.016344445615864" lon="8.925727772826857" id="-50863">
		<tag k="name" v="Østerådammen" />
		<tag k="place" v="locality" />
		<tag k="ssr:stedsnr" v="423269" />
	</node>
	<node lat="58.943897219125304" lon="9.117958327067743" id="-51205">
		<tag k="name" v="Sekshundremeteren" />
		<tag k="place" v="locality" />
		<tag k="ssr:stedsnr" v="585401" />
	</node>
	<node lat="58.97339721842975" lon="9.130302774587696" id="-51219">
		<tag k="name" v="Brannbukt hefte" />
		<tag k="place" v="locality" />
		<tag k="ssr:stedsnr" v="586328" />
	</node>
	<node lat="59.02922823834151" lon="9.05364859638893" id="-51621">
		<tag k="name" v="Våtmyrbua" />
		<tag k="place" v="locality" />
		<tag k="ssr:stedsnr" v="669108" />
	</node>
	<node lat="58.94672222383086" lon="9.058011107328811" id="-51840">
		<tag k="name" v="Solbergposten" />
		<tag k="place" v="locality" />
		<tag k="ssr:stedsnr" v="889973" />
	</node>
	<node lat="58.983486115359" lon="9.13451666667462" id="-51867">
		<tag k="name" v="Jonsfetdammen" />
		<tag k="place" v="locality" />
		<tag k="ssr:stedsnr" v="768569" />
	</node>
	<node lat="59.154472223687655" lon="9.007677782315872" id="-51885">
		<tag k="amenity" v="community_centre" />
		<tag k="name" v="Åsheim" />
		<tag k="ssr:stedsnr" v="768628" />
	</node>
	<node lat="58.950036108726444" lon="9.113738888029816" id="-51894">
		<tag k="name" v="Mofossdammen" />
		<tag k="place" v="locality" />
		<tag k="ssr:stedsnr" v="769967" />
	</node>
	<node lat="59.20144444426974" lon="8.704591674975193" id="-51973">
		<tag k="name" v="Russerhytta" />
		<tag k="place" v="locality" />
		<tag k="ssr:stedsnr" v="785475" />
	</node>
	<node lat="59.118352774581126" lon="8.957441674418671" id="-51980">
		<tag k="name" v="Dalankvenna" />
		<tag k="place" v="locality" />
		<tag k="ssr:stedsnr" v="786675" />
	</node>
	<node lat="59.12987108181891" lon="8.869538275810973" id="-52058">
		<tag k="name" v="Dårlaupet" />
		<tag k="place" v="locality" />
		<tag k="ssr:stedsnr" v="790266" />
	</node>
	<node lat="59.08163611010329" lon="9.019883329280646" id="-52141">
		<tag k="name" v="Venheim" />
		<tag k="place" v="locality" />
		<tag k="ssr:stedsnr" v="830753" />
	</node>
	<node lat="58.966122222205705" lon="9.207344437274951" id="-52199">
		<tag k="name" v="Sjåen" />
		<tag k="ssr:stedsnr" v="845471" />
		<tag k="tourism" v="viewpoint" />
	</node>
	<node lat="59.19519722623668" lon="8.685216659671585" id="-52242">
		<tag k="name" v="Gruva" />
		<tag k="place" v="locality" />
		<tag k="ssr:stedsnr" v="847493" />
	</node>
	<node lat="59.01064166402609" lon="9.19599443596609" id="-52443">
		<tag k="amenity" v="community_centre" />
		<tag k="name" v="Fjellstad" />
		<tag k="ssr:stedsnr" v="952011" />
	</node>
	<node lat="59.24125555280487" lon="8.77802777566578" id="-52446">
		<tag k="amenity" v="community_centre" />
		<tag k="name" v="Elvarheim" />
		<tag k="ssr:stedsnr" v="952132" />
	</node>
	<node lat="59.05934999976472" lon="8.986358335061084" id="-52537">
		<tag k="name" v="Hauglandshytte" />
		<tag k="place" v="locality" />
		<tag k="ssr:stedsnr" v="969758" />
	</node>
</osm>
