<?xml version="1.0" encoding="UTF-8"?>
<osm version="0.6" generator="osmapis">
	<node lat="58.93454444555612" lon="9.06206944043468" id="-20525">
		<tag k="fixme" v="consider natural=peak for the most distinct mountains in the district" />
		<tag k="name" v="Storfjell" />
		<tag k="natural" v="hill" />
		<tag k="place" v="locality" />
		<tag k="ssr:stedsnr" v="852" />
	</node>
	<node lat="59.05175278032166" lon="9.077847225439887" id="-20528">
		<tag k="fixme" v="consider natural=peak for the most distinct mountains in the district" />
		<tag k="name" v="Måbuåsen" />
		<tag k="natural" v="hill" />
		<tag k="place" v="locality" />
		<tag k="ssr:stedsnr" v="1098" />
	</node>
	<node lat="59.09948055995615" lon="8.953838896911737" id="-20531">
		<tag k="fixme" v="consider natural=peak for the most distinct mountains in the district" />
		<tag k="name" v="Linåsen" />
		<tag k="natural" v="hill" />
		<tag k="place" v="locality" />
		<tag k="ssr:stedsnr" v="1243" />
	</node>
	<node lat="59.028741668982185" lon="8.884497225358412" id="-20534">
		<tag k="alt_name" v="Renskjerrheia" />
		<tag k="fixme" v="consider natural=peak for the most distinct mountains in the district" />
		<tag k="name" v="Reinskjerrheia" />
		<tag k="natural" v="hill" />
		<tag k="place" v="locality" />
		<tag k="ssr:stedsnr" v="1112" />
	</node>
	<node lat="59.0931472222409" lon="9.097608340528177" id="-20536">
		<tag k="fixme" v="consider natural=peak for the most distinct mountains in the district" />
		<tag k="name" v="Middagsheia" />
		<tag k="natural" v="hill" />
		<tag k="place" v="locality" />
		<tag k="ssr:stedsnr" v="1147" />
	</node>
	<node lat="59.079816662493506" lon="8.966252773969973" id="-20537">
		<tag k="fixme" v="consider natural=peak for the most distinct mountains in the district" />
		<tag k="name" v="Skreddalsheia" />
		<tag k="natural" v="hill" />
		<tag k="place" v="locality" />
		<tag k="ssr:stedsnr" v="1154" />
	</node>
	<node lat="59.19269166592496" lon="9.011013883150504" id="-20538">
		<tag k="alt_name" v="Deilknatten" />
		<tag k="fixme" v="consider natural=peak for the most distinct mountains in the district" />
		<tag k="name" v="Deildalsknuten" />
		<tag k="natural" v="hill" />
		<tag k="place" v="locality" />
		<tag k="ssr:stedsnr" v="1320" />
	</node>
	<node lat="59.13392500023387" lon="8.812030554822288" id="-20542">
		<tag k="name" v="Skarveberget" />
		<tag k="natural" v="hill" />
		<tag k="place" v="locality" />
		<tag k="ssr:stedsnr" v="1701" />
	</node>
	<node lat="59.045205554634144" lon="9.343324997273012" id="-20548">
		<tag k="alt_name" v="Spirheia" />
		<tag k="fixme" v="consider natural=peak for the most distinct mountains in the district" />
		<tag k="name" v="Spireheia" />
		<tag k="natural" v="hill" />
		<tag k="place" v="locality" />
		<tag k="ssr:stedsnr" v="1833" />
	</node>
	<node lat="58.95397777638954" lon="9.150813889094652" id="-20549">
		<tag k="fixme" v="consider natural=peak for the most distinct mountains in the district" />
		<tag k="name" v="Hommansfjellet" />
		<tag k="natural" v="hill" />
		<tag k="place" v="locality" />
		<tag k="ssr:stedsnr" v="1898" />
	</node>
	<node lat="58.96257500429273" lon="9.179750002740162" id="-20550">
		<tag k="alt_name" v="Søgardsheia" />
		<tag k="fixme" v="consider natural=peak for the most distinct mountains in the district" />
		<tag k="name" v="Sørgardsheia" />
		<tag k="natural" v="hill" />
		<tag k="place" v="locality" />
		<tag k="ssr:stedsnr" v="1899" />
	</node>
	<node lat="59.077450000997" lon="8.769036105498483" id="-20558">
		<tag k="name" v="Bakkane" />
		<tag k="natural" v="slope" />
		<tag k="place" v="locality" />
		<tag k="ssr:stedsnr" v="2589" />
	</node>
	<node lat="59.0761583349593" lon="8.728972216843319" id="-20559">
		<tag k="fixme" v="consider natural=peak for the most distinct mountains in the district" />
		<tag k="name" v="Osliknatten" />
		<tag k="natural" v="hill" />
		<tag k="place" v="locality" />
		<tag k="ssr:stedsnr" v="2595" />
	</node>
	<node lat="59.29022777798469" lon="8.585233331672084" id="-20560">
		<tag k="alt_name" v="Grytedalsklemmen" />
		<tag k="name" v="Trengslet" />
		<tag k="natural" v="valley" />
		<tag k="place" v="locality" />
		<tag k="ssr:stedsnr" v="2731" />
	</node>
	<node lat="59.243686113003704" lon="8.59578333696382" id="-20562">
		<tag k="alt_name" v="Kveven" />
		<tag k="name" v="Kvæven" />
		<tag k="natural" v="valley" />
		<tag k="place" v="locality" />
		<tag k="ssr:stedsnr" v="2981" />
	</node>
	<node lat="58.92028888496236" lon="9.12459721631677" id="-20565">
		<tag k="name" v="Hagen" />
		<tag k="natural" v="slope" />
		<tag k="place" v="locality" />
		<tag k="ssr:stedsnr" v="39461" />
	</node>
	<node lat="58.93291110861213" lon="9.073536105619645" id="-20566">
		<tag k="fixme" v="consider natural=peak for the most distinct mountains in the district" />
		<tag k="name" v="Barlindknutane" />
		<tag k="natural" v="hill" />
		<tag k="place" v="locality" />
		<tag k="ssr:stedsnr" v="39875" />
	</node>
	<node lat="58.996266669284566" lon="8.857372226636013" id="-20570">
		<tag k="name" v="Østre Haglåslia" />
		<tag k="natural" v="slope" />
		<tag k="place" v="locality" />
		<tag k="ssr:stedsnr" v="40157" />
	</node>
	<node lat="59.118461110216415" lon="9.125177781135553" id="-20571">
		<tag k="name" v="Steindalen" />
		<tag k="natural" v="valley" />
		<tag k="place" v="locality" />
		<tag k="ssr:stedsnr" v="40319" />
	</node>
	<node lat="59.22930555891816" lon="8.639816658532455" id="-20576">
		<tag k="name" v="Skarkedalen" />
		<tag k="natural" v="valley" />
		<tag k="place" v="locality" />
		<tag k="ssr:stedsnr" v="40419" />
	</node>
	<node lat="59.229324997405286" lon="8.634805561573405" id="-20577">
		<tag k="name" v="Grasdalen" />
		<tag k="natural" v="valley" />
		<tag k="place" v="locality" />
		<tag k="ssr:stedsnr" v="40421" />
	</node>
	<node lat="58.967122220227765" lon="9.223777780625008" id="-20578">
		<tag k="name" v="Osmundshei" />
		<tag k="natural" v="hill" />
		<tag k="place" v="locality" />
		<tag k="ssr:stedsnr" v="40501" />
	</node>
	<node lat="58.982269448261206" lon="9.128927771685856" id="-20579">
		<tag k="name" v="Stormyrdalen" />
		<tag k="natural" v="valley" />
		<tag k="place" v="locality" />
		<tag k="ssr:stedsnr" v="40574" />
	</node>
	<node lat="59.1755000019566" lon="9.054283337402039" id="-20581">
		<tag k="name" v="Spådalen" />
		<tag k="natural" v="valley" />
		<tag k="place" v="locality" />
		<tag k="ssr:stedsnr" v="40580" />
	</node>
	<node lat="59.185513889693226" lon="9.049911114646605" id="-20582">
		<tag k="name" v="Saumyrdalen" />
		<tag k="natural" v="valley" />
		<tag k="place" v="locality" />
		<tag k="ssr:stedsnr" v="40585" />
	</node>
	<node lat="59.107972223389815" lon="9.218425004698299" id="-20583">
		<tag k="name" v="Jensdal" />
		<tag k="natural" v="valley" />
		<tag k="place" v="locality" />
		<tag k="ssr:stedsnr" v="40701" />
	</node>
	<node lat="59.09801666253196" lon="9.188066658045603" id="-20586">
		<tag k="fixme" v="consider natural=peak for the most distinct mountains in the district" />
		<tag k="name" v="Lille Maurkollen" />
		<tag k="natural" v="hill" />
		<tag k="place" v="locality" />
		<tag k="ssr:stedsnr" v="40722" />
	</node>
	<node lat="59.12171111551796" lon="8.761791662732286" id="-20594">
		<tag k="name" v="Steinfjellaksla" />
		<tag k="place" v="locality" />
		<tag k="ssr:stedsnr" v="40825" />
	</node>
	<node lat="58.948869446809795" lon="9.055355556622992" id="-20600">
		<tag k="fixme" v="consider natural=peak for the most distinct mountains in the district" />
		<tag k="name" v="Fjellmyrknuten" />
		<tag k="natural" v="hill" />
		<tag k="place" v="locality" />
		<tag k="ssr:stedsnr" v="41315" />
	</node>
	<node lat="59.00802778020353" lon="9.08816667426629" id="-20602">
		<tag k="name" v="Hyttslåttdalen" />
		<tag k="natural" v="valley" />
		<tag k="place" v="locality" />
		<tag k="ssr:stedsnr" v="41518" />
	</node>
	<node lat="59.070113889702554" lon="9.081966660824236" id="-20604">
		<tag k="name" v="Leirbekkdalen" />
		<tag k="natural" v="valley" />
		<tag k="place" v="locality" />
		<tag k="ssr:stedsnr" v="41405" />
	</node>
	<node lat="59.02388055434052" lon="9.155105552798881" id="-20606">
		<tag k="fixme" v="consider natural=peak for the most distinct mountains in the district" />
		<tag k="name" v="Teksleheia" />
		<tag k="natural" v="hill" />
		<tag k="place" v="locality" />
		<tag k="ssr:stedsnr" v="41465" />
	</node>
	<node lat="59.013249997296576" lon="9.161363882563956" id="-20610">
		<tag k="fixme" v="consider natural=peak for the most distinct mountains in the district" />
		<tag k="name" v="Damåsen" />
		<tag k="natural" v="hill" />
		<tag k="place" v="locality" />
		<tag k="ssr:stedsnr" v="41476" />
	</node>
	<node lat="59.09361389327012" lon="9.172661107524643" id="-20613">
		<tag k="fixme" v="consider natural=peak for the most distinct mountains in the district" />
		<tag k="name" v="Lille Rundkoll" />
		<tag k="natural" v="hill" />
		<tag k="place" v="locality" />
		<tag k="ssr:stedsnr" v="41821" />
	</node>
	<node lat="59.156330559169234" lon="8.757275007855949" id="-20621">
		<tag k="name" v="Klovet" />
		<tag k="natural" v="valley" />
		<tag k="place" v="locality" />
		<tag k="ssr:stedsnr" v="42828" />
	</node>
	<node lat="58.9377555528172" lon="9.176397225297471" id="-20628">
		<tag k="name" v="Hyttedalen" />
		<tag k="natural" v="valley" />
		<tag k="place" v="locality" />
		<tag k="ssr:stedsnr" v="238486" />
	</node>
	<node lat="58.93244444839169" lon="9.16722777369799" id="-20629">
		<tag k="fixme" v="consider natural=peak for the most distinct mountains in the district" />
		<tag k="name" v="Stølsknuten" />
		<tag k="natural" v="hill" />
		<tag k="place" v="locality" />
		<tag k="ssr:stedsnr" v="238490" />
	</node>
	<node lat="58.98919721922109" lon="9.194047224207486" id="-20633">
		<tag k="name" v="Berås" />
		<tag k="natural" v="hill" />
		<tag k="place" v="locality" />
		<tag k="ssr:stedsnr" v="238368" />
	</node>
	<node lat="58.965630557202005" lon="9.202847227283266" id="-20635">
		<tag k="name" v="Bjønnknuten" />
		<tag k="natural" v="hill" />
		<tag k="place" v="locality" />
		<tag k="ssr:stedsnr" v="238451" />
	</node>
	<node lat="59.048733329404214" lon="9.140866673016308" id="-20644">
		<tag k="name" v="Hegnliane" />
		<tag k="natural" v="slope" />
		<tag k="place" v="locality" />
		<tag k="ssr:stedsnr" v="239067" />
	</node>
	<node lat="59.149258334875846" lon="8.705650007904525" id="-20647">
		<tag k="name" v="Koppårknatten" />
		<tag k="natural" v="hill" />
		<tag k="place" v="locality" />
		<tag k="ssr:stedsnr" v="239260" />
	</node>
	<node lat="59.16598055633927" lon="9.12172499248189" id="-20652">
		<tag k="name" v="Høydalheia" />
		<tag k="natural" v="hill" />
		<tag k="place" v="locality" />
		<tag k="ssr:stedsnr" v="239219" />
	</node>
	<node lat="58.991455559952286" lon="9.127005549457579" id="-20654">
		<tag k="name" v="Garemoen" />
		<tag k="place" v="locality" />
		<tag k="ssr:stedsnr" v="239447" />
	</node>
	<node lat="58.995197221229446" lon="9.127241670537252" id="-20655">
		<tag k="fixme" v="consider natural=peak for the most distinct mountains in the district" />
		<tag k="name" v="Garåsen" />
		<tag k="natural" v="hill" />
		<tag k="place" v="locality" />
		<tag k="ssr:stedsnr" v="239448" />
	</node>
	<node lat="58.993552775022074" lon="9.134041673974954" id="-20656">
		<tag k="name" v="Svarttjenndalen" />
		<tag k="natural" v="valley" />
		<tag k="place" v="locality" />
		<tag k="ssr:stedsnr" v="239449" />
	</node>
	<node lat="59.082033336283175" lon="9.181327773642574" id="-20660">
		<tag k="name" v="Seterheia" />
		<tag k="natural" v="hill" />
		<tag k="place" v="locality" />
		<tag k="ssr:stedsnr" v="239574" />
	</node>
	<node lat="59.04259722566417" lon="9.2646388930888" id="-20672">
		<tag k="name" v="Lyarknatten" />
		<tag k="natural" v="hill" />
		<tag k="place" v="locality" />
		<tag k="ssr:stedsnr" v="239738" />
	</node>
	<node lat="59.14905833272295" lon="8.744127785627793" id="-20678">
		<tag k="name" v="Maurlia" />
		<tag k="natural" v="slope" />
		<tag k="place" v="locality" />
		<tag k="ssr:stedsnr" v="239877" />
	</node>
	<node lat="59.01566111018045" lon="9.259963889717348" id="-20679">
		<tag k="name" v="Klovkjerrdalen" />
		<tag k="natural" v="valley" />
		<tag k="place" v="locality" />
		<tag k="ssr:stedsnr" v="239926" />
	</node>
	<node lat="58.976019440328145" lon="9.177863891060573" id="-20681">
		<tag k="name" v="Langmyrskåtet" />
		<tag k="natural" v="cliff" />
		<tag k="ssr:stedsnr" v="56369" />
	</node>
	<node lat="58.94558055960963" lon="9.17407500578498" id="-20685">
		<tag k="name" v="Stengerheia" />
		<tag k="natural" v="hill" />
		<tag k="place" v="locality" />
		<tag k="ssr:stedsnr" v="56477" />
	</node>
	<node lat="58.94416111124877" lon="9.20460000247611" id="-20686">
		<tag k="name" v="Jomyrkøllene" />
		<tag k="natural" v="hill" />
		<tag k="place" v="locality" />
		<tag k="ssr:stedsnr" v="56488" />
	</node>
	<node lat="59.18025833371279" lon="9.150858327380059" id="-20688">
		<tag k="name" v="Lille Deilkøllen" />
		<tag k="natural" v="hill" />
		<tag k="place" v="locality" />
		<tag k="ssr:stedsnr" v="57172" />
	</node>
	<node lat="59.22049444017766" lon="8.79171111116691" id="-20689">
		<tag k="name" v="Juva" />
		<tag k="natural" v="gorge" />
		<tag k="ssr:stedsnr" v="57023" />
	</node>
	<node lat="59.25786944353438" lon="8.778619449278741" id="-20690">
		<tag k="name" v="Lillebron" />
		<tag k="natural" v="hill" />
		<tag k="place" v="locality" />
		<tag k="ssr:stedsnr" v="57069" />
	</node>
	<node lat="59.04606944256742" lon="9.131016672117816" id="-20691">
		<tag k="name" v="Kjerrbudalen" />
		<tag k="natural" v="valley" />
		<tag k="place" v="locality" />
		<tag k="ssr:stedsnr" v="57070" />
	</node>
	<node lat="59.04374444052159" lon="9.14223888678953" id="-20692">
		<tag k="name" v="Dalbu" />
		<tag k="natural" v="valley" />
		<tag k="place" v="locality" />
		<tag k="ssr:stedsnr" v="57072" />
	</node>
	<node lat="59.05328055142921" lon="9.137044441828543" id="-20693">
		<tag k="fixme" v="consider natural=peak for the most distinct mountains in the district" />
		<tag k="name" v="Eiåsen" />
		<tag k="natural" v="hill" />
		<tag k="place" v="locality" />
		<tag k="ssr:stedsnr" v="57075" />
	</node>
	<node lat="59.05180555987747" lon="9.114011116259446" id="-20696">
		<tag k="name" v="Stormyrdalen" />
		<tag k="natural" v="valley" />
		<tag k="place" v="locality" />
		<tag k="ssr:stedsnr" v="57080" />
	</node>
	<node lat="59.00419444331684" lon="8.891274997680036" id="-20700">
		<tag k="name" v="Ormtjennlia" />
		<tag k="natural" v="slope" />
		<tag k="place" v="locality" />
		<tag k="ssr:stedsnr" v="57188" />
	</node>
	<node lat="59.232591670376806" lon="8.968627777894394" id="-20707">
		<tag k="name" v="Lille Breidal" />
		<tag k="natural" v="valley" />
		<tag k="place" v="locality" />
		<tag k="ssr:stedsnr" v="57490" />
	</node>
	<node lat="59.04509999925653" lon="9.24888056021682" id="-20708">
		<tag k="name" v="Henseidheia" />
		<tag k="natural" v="hill" />
		<tag k="place" v="locality" />
		<tag k="ssr:stedsnr" v="57703" />
	</node>
	<node lat="59.0753111096252" lon="8.829172229195784" id="-20715">
		<tag k="name" v="Revehålene" />
		<tag k="natural" v="valley" />
		<tag k="place" v="locality" />
		<tag k="ssr:stedsnr" v="57624" />
	</node>
	<node lat="59.035899996266274" lon="9.293416672195624" id="-20717">
		<tag k="name" v="Engåbakken" />
		<tag k="natural" v="slope" />
		<tag k="place" v="locality" />
		<tag k="ssr:stedsnr" v="57676" />
	</node>
</osm>
