<?xml version="1.0" encoding="UTF-8"?>
<osm version="0.6" generator="osmapis">
	<node lat="59.0562361086217" lon="9.009099995399087" id="-25520">
		<tag k="alt_name" v="Solemvannet" />
		<tag k="name" v="Solemsvatnet" />
		<tag k="natural" v="water" />
		<tag k="ssr:stedsnr" v="1099" />
	</node>
	<node lat="59.10850277433256" lon="8.946336108284777" id="-25521">
		<tag k="alt_name" v="Motjenn" />
		<tag k="name" v="Motjern" />
		<tag k="natural" v="water" />
		<tag k="ssr:stedsnr" v="1239" />
	</node>
	<node lat="58.970652774942344" lon="9.070188886341514" id="-25523">
		<tag k="alt_name" v="Bjønnåsbekken" />
		<tag k="name" v="Bjørnåbekken" />
		<tag k="ssr:stedsnr" v="992" />
		<tag k="waterway" v="stream" />
	</node>
	<node lat="59.04944722572407" lon="9.030166664933624" id="-25524">
		<tag k="alt_name" v="Eggdalstjenn" />
		<tag k="name" v="Eggdalstjørna" />
		<tag k="natural" v="water" />
		<tag k="ssr:stedsnr" v="1107" />
	</node>
	<node lat="59.08959999737193" lon="9.119252777639755" id="-25526">
		<tag k="alt_name" v="Lirostjenn" />
		<tag k="name" v="Lirostjern" />
		<tag k="natural" v="water" />
		<tag k="ssr:stedsnr" v="1144" />
	</node>
	<node lat="59.16362500127753" lon="8.976574995162707" id="-25530">
		<tag k="alt_name" v="Våletjenna" />
		<tag k="name" v="Våletjern" />
		<tag k="natural" v="water" />
		<tag k="ssr:stedsnr" v="1291" />
	</node>
	<node lat="59.1798138926166" lon="8.747944448024148" id="-25537">
		<tag k="alt_name" v="Heftetjenn" />
		<tag k="name" v="Hettetjørn" />
		<tag k="natural" v="water" />
		<tag k="ssr:stedsnr" v="1807" />
	</node>
	<node lat="59.140708329714315" lon="9.087727780436405" id="-25542">
		<tag k="alt_name" v="Glisjevannet" />
		<tag k="name" v="Glitsjøen" />
		<tag k="natural" v="water" />
		<tag k="ssr:stedsnr" v="2314" />
	</node>
	<node lat="59.14197499943262" lon="9.194958330774519" id="-25543">
		<tag k="alt_name" v="Store Augusttjenna" />
		<tag k="name" v="Augusttjørna" />
		<tag k="natural" v="water" />
		<tag k="ssr:stedsnr" v="2323" />
	</node>
	<node lat="59.01900833264313" lon="8.776738887424731" id="-25544">
		<tag k="name" v="Vølstadøya" />
		<tag k="place" v="islet" />
		<tag k="ssr:stedsnr" v="2476" />
	</node>
	<node lat="59.0269777745884" lon="8.829616665465212" id="-25545">
		<tag k="alt_name" v="Støylvann" />
		<tag k="name" v="Stølevatnet" />
		<tag k="natural" v="water" />
		<tag k="ssr:stedsnr" v="2481" />
	</node>
	<node lat="59.26796110747223" lon="8.789677775014013" id="-25547">
		<tag k="name" v="Løkanbekken" />
		<tag k="ssr:stedsnr" v="2526" />
		<tag k="waterway" v="stream" />
	</node>
	<node lat="59.03919999730047" lon="9.301638894732546" id="-25555">
		<tag k="name" v="Kvennhusbukta" />
		<tag k="natural" v="bay" />
		<tag k="ssr:stedsnr" v="39501" />
	</node>
	<node lat="58.993599998549264" lon="9.264261108019378" id="-25560">
		<tag k="name" v="Tangen" />
		<tag k="natural" v="cape" />
		<tag k="ssr:stedsnr" v="40069" />
	</node>
	<node lat="59.104358330545246" lon="8.950855562564824" id="-25576">
		<tag k="name" v="Grantangen" />
		<tag k="natural" v="cape" />
		<tag k="ssr:stedsnr" v="40721" />
	</node>
	<node lat="59.24258333718624" lon="8.796019446977205" id="-25586">
		<tag k="name" v="Homleibekken" />
		<tag k="ssr:stedsnr" v="237120" />
		<tag k="waterway" v="stream" />
	</node>
	<node lat="58.98375277535787" lon="9.234130558049113" id="-25588">
		<tag k="name" v="Furødden" />
		<tag k="place" v="islet" />
		<tag k="ssr:stedsnr" v="41109" />
	</node>
	<node lat="59.00648611090017" lon="9.173741658192537" id="-25590">
		<tag k="name" v="Lille Svarttjenn" />
		<tag k="natural" v="water" />
		<tag k="ssr:stedsnr" v="41003" />
	</node>
	<node lat="59.187338891233956" lon="8.902011111876215" id="-25596">
		<tag k="name" v="Svarttjenn" />
		<tag k="natural" v="water" />
		<tag k="ssr:stedsnr" v="41464" />
	</node>
	<node lat="59.17551388526991" lon="8.902461114325748" id="-25599">
		<tag k="name" v="Høgheibekken" />
		<tag k="ssr:stedsnr" v="41473" />
		<tag k="waterway" v="stream" />
	</node>
	<node lat="59.02304444464528" lon="9.113213893519802" id="-25600">
		<tag k="name" v="Måvannsbekken" />
		<tag k="ssr:stedsnr" v="41475" />
		<tag k="waterway" v="stream" />
	</node>
	<node lat="58.964344444535506" lon="9.161741673689818" id="-25605">
		<tag k="name" v="Torshol" />
		<tag k="natural" v="shoal" />
		<tag k="place" v="locality" />
		<tag k="ssr:stedsnr" v="41809" />
	</node>
	<node lat="59.09534722497232" lon="9.219988894776987" id="-25606">
		<tag k="name" v="Aurtjenn" />
		<tag k="natural" v="water" />
		<tag k="ssr:stedsnr" v="41816" />
	</node>
	<node lat="58.995144446062874" lon="9.047386117231973" id="-25608">
		<tag k="name" v="Vennomdalsbekken" />
		<tag k="ssr:stedsnr" v="41849" />
		<tag k="waterway" v="stream" />
	</node>
	<node lat="59.1525416696203" lon="8.8129861102875" id="-25617">
		<tag k="name" v="Svarthøl" />
		<tag k="place" v="locality" />
		<tag k="ssr:stedsnr" v="237824" />
	</node>
	<node lat="58.98461110922967" lon="9.186669448567423" id="-25623">
		<tag k="name" v="Bastautangen" />
		<tag k="natural" v="cape" />
		<tag k="ssr:stedsnr" v="238341" />
	</node>
	<node lat="58.96078333258764" lon="9.208452772957658" id="-25628">
		<tag k="name" v="Tjerjeltjenna" />
		<tag k="natural" v="water" />
		<tag k="ssr:stedsnr" v="238471" />
	</node>
	<node lat="59.04306666868813" lon="8.720905556473568" id="-25636">
		<tag k="name" v="Holmtjenn" />
		<tag k="natural" v="water" />
		<tag k="ssr:stedsnr" v="239168" />
	</node>
	<node lat="59.10867777864776" lon="9.056702780544272" id="-25640">
		<tag k="name" v="Gudbrandsstrand" />
		<tag k="natural" v="beach" />
		<tag k="ssr:stedsnr" v="239268" />
	</node>
	<node lat="59.13052222005962" lon="9.165994450566648" id="-25641">
		<tag k="name" v="Myggheimtjenna" />
		<tag k="natural" v="water" />
		<tag k="ssr:stedsnr" v="239203" />
	</node>
	<node lat="59.009444447966544" lon="8.900872218156044" id="-25644">
		<tag k="name" v="Krokbekk" />
		<tag k="ssr:stedsnr" v="239226" />
		<tag k="waterway" v="stream" />
	</node>
	<node lat="59.24355000285399" lon="8.961366660718415" id="-25650">
		<tag k="name" v="Gusstulsetertjenna" />
		<tag k="natural" v="water" />
		<tag k="ssr:stedsnr" v="239522" />
	</node>
	<node lat="59.073022222389525" lon="8.757166675055357" id="-25652">
		<tag k="name" v="Sagfossen" />
		<tag k="natural" v="waterfall" />
		<tag k="ssr:stedsnr" v="239639" />
	</node>
	<node lat="59.07471666991216" lon="8.755022226417871" id="-25654">
		<tag k="name" v="Kvennhusfossen" />
		<tag k="natural" v="waterfall" />
		<tag k="ssr:stedsnr" v="239641" />
	</node>
	<node lat="59.02657499651672" lon="9.206572223561091" id="-25657">
		<tag k="name" v="Hamøybukta" />
		<tag k="natural" v="bay" />
		<tag k="ssr:stedsnr" v="239914" />
	</node>
	<node lat="59.03035833680249" lon="9.207322226114714" id="-25658">
		<tag k="name" v="Storfjorden" />
		<tag k="natural" v="water" />
		<tag k="ssr:stedsnr" v="239916" />
	</node>
	<node lat="59.03380277345436" lon="9.27089166870609" id="-25664">
		<tag k="name" v="Vierbekk" />
		<tag k="ssr:stedsnr" v="239741" />
		<tag k="waterway" v="stream" />
	</node>
	<node lat="59.10961666681896" lon="8.73376944519295" id="-25665">
		<tag k="name" v="Levorstjenn" />
		<tag k="natural" v="water" />
		<tag k="ssr:stedsnr" v="239747" />
	</node>
	<node lat="59.13898333484284" lon="8.819630558255247" id="-25667">
		<tag k="name" v="Maurbekk" />
		<tag k="ssr:stedsnr" v="239848" />
		<tag k="waterway" v="stream" />
	</node>
	<node lat="59.040944445524694" lon="9.188186109421142" id="-25673">
		<tag k="name" v="Bastavstrand" />
		<tag k="natural" v="beach" />
		<tag k="ssr:stedsnr" v="239963" />
	</node>
	<node lat="59.136127775612216" lon="9.116019438932076" id="-25678">
		<tag k="name" v="Lille Jerpantjenn" />
		<tag k="natural" v="water" />
		<tag k="ssr:stedsnr" v="57169" />
	</node>
	<node lat="59.10885833240692" lon="9.135847218577421" id="-25689">
		<tag k="name" v="Sjutjennane" />
		<tag k="natural" v="water" />
		<tag k="ssr:stedsnr" v="57268" />
		<tag k="water" v="lake" />
	</node>
	<node lat="59.105138890202625" lon="8.932577771763514" id="-25693">
		<tag k="name" v="Bastnesodden" />
		<tag k="natural" v="cape" />
		<tag k="ssr:stedsnr" v="57329" />
	</node>
	<node lat="58.950091669007335" lon="9.028074998567957" id="-25704">
		<tag k="name" v="Glopptjenn" />
		<tag k="natural" v="water" />
		<tag k="ssr:stedsnr" v="57922" />
	</node>
	<node lat="59.034319447929306" lon="9.29851388170165" id="-25707">
		<tag k="name" v="Engåneset" />
		<tag k="natural" v="cape" />
		<tag k="ssr:stedsnr" v="57673" />
	</node>
	<node lat="59.12949999666547" lon="8.804002771528966" id="-25710">
		<tag k="name" v="Stenslandsbukta" />
		<tag k="natural" v="bay" />
		<tag k="ssr:stedsnr" v="57814" />
	</node>
	<node lat="59.12413889148579" lon="8.810363892158758" id="-25711">
		<tag k="name" v="Kakkelommen" />
		<tag k="natural" v="bay" />
		<tag k="ssr:stedsnr" v="57815" />
	</node>
	<node lat="59.2680861143591" lon="8.693847220902935" id="-25723">
		<tag k="name" v="Bjønnbåktjenn" />
		<tag k="natural" v="water" />
		<tag k="ssr:stedsnr" v="59576" />
	</node>
	<node lat="59.08753888960162" lon="9.001638891561944" id="-25731">
		<tag k="name" v="Tørnesfossen" />
		<tag k="natural" v="waterfall" />
		<tag k="ssr:stedsnr" v="59714" />
	</node>
	<node lat="59.0065527767541" lon="9.006063884974216" id="-25737">
		<tag k="name" v="Bjønndambukta" />
		<tag k="natural" v="water" />
		<tag k="ssr:stedsnr" v="59887" />
		<tag k="water" v="lake" />
	</node>
	<node lat="59.00959166483197" lon="8.989827779763331" id="-25738">
		<tag k="name" v="Grythølfossen" />
		<tag k="natural" v="waterfall" />
		<tag k="ssr:stedsnr" v="59889" />
	</node>
	<node lat="59.089180557362184" lon="8.980508336366505" id="-25742">
		<tag k="name" v="Hegnabukta" />
		<tag k="natural" v="bay" />
		<tag k="ssr:stedsnr" v="240757" />
	</node>
	<node lat="58.99858302544454" lon="8.869969124694917" id="-25744">
		<tag k="alt_name" v="Det blå vann" />
		<tag k="name" v="Det blå vatnet" />
		<tag k="natural" v="water" />
		<tag k="ssr:stedsnr" v="61935" />
	</node>
	<node lat="58.99581388546634" lon="8.88500277457215" id="-25745">
		<tag k="name" v="Sjølvskotdalstjørnane" />
		<tag k="natural" v="water" />
		<tag k="ssr:stedsnr" v="61937" />
	</node>
	<node lat="58.969019447919194" lon="9.192113888163316" id="-25746">
		<tag k="name" v="Kjennbakktjenna" />
		<tag k="natural" v="water" />
		<tag k="ssr:stedsnr" v="61882" />
	</node>
	<node lat="59.01736666337461" lon="9.211452786065651" id="-25748">
		<tag k="alt_name" v="Lilløy" />
		<tag k="name" v="Litleøya" />
		<tag k="place" v="islet" />
		<tag k="ssr:stedsnr" v="62002" />
	</node>
	<node lat="59.01574722111479" lon="8.915572223087414" id="-25750">
		<tag k="alt_name" v="Blektjenn" />
		<tag k="name" v="Bleiktjern" />
		<tag k="natural" v="water" />
		<tag k="ssr:stedsnr" v="62104" />
	</node>
	<node lat="59.197380553382196" lon="9.167366663267902" id="-25760">
		<tag k="alt_name" v="Broke" />
		<tag k="name" v="Brokevatnet" />
		<tag k="natural" v="water" />
		<tag k="ssr:stedsnr" v="62309" />
	</node>
	<node lat="59.12443190761063" lon="9.182886574495951" id="-25765">
		<tag k="name" v="Solemtjørnane" />
		<tag k="natural" v="water" />
		<tag k="ssr:stedsnr" v="62206" />
	</node>
	<node lat="59.113533332285655" lon="8.990841670938579" id="-25766">
		<tag k="name" v="Svarthøl" />
		<tag k="place" v="locality" />
		<tag k="ssr:stedsnr" v="62212" />
	</node>
	<node lat="59.105502780641004" lon="9.182877774667213" id="-25769">
		<tag k="alt_name" v="Tereleiktjenna" />
		<tag k="name" v="Tiurleiktjørna" />
		<tag k="natural" v="water" />
		<tag k="ssr:stedsnr" v="62223" />
	</node>
	<node lat="59.13935833391562" lon="9.156674995199527" id="-25771">
		<tag k="alt_name" v="Åstetjenna" />
		<tag k="name" v="Åstetjern" />
		<tag k="natural" v="water" />
		<tag k="ssr:stedsnr" v="62283" />
	</node>
	<node lat="59.09724722456017" lon="8.716936114186648" id="-25777">
		<tag k="name" v="Djupsåna" />
		<tag k="place" v="locality" />
		<tag k="ssr:stedsnr" v="62608" />
	</node>
	<node lat="59.09223888909761" lon="8.729600006387233" id="-25778">
		<tag k="alt_name" v="Skålbuvann" />
		<tag k="name" v="Skålbuvatnet" />
		<tag k="natural" v="water" />
		<tag k="ssr:stedsnr" v="62609" />
	</node>
	<node lat="59.0701388890418" lon="9.258261111857976" id="-25781">
		<tag k="name" v="Storfiskvann" />
		<tag k="natural" v="water" />
		<tag k="ssr:stedsnr" v="240860" />
	</node>
	<node lat="59.07177222284887" lon="9.246391675142018" id="-25782">
		<tag k="name" v="Lustjenn" />
		<tag k="natural" v="water" />
		<tag k="ssr:stedsnr" v="240863" />
	</node>
	<node lat="59.184293445769725" lon="8.735657583425253" id="-25783">
		<tag k="name" v="Nuvstjørn" />
		<tag k="natural" v="water" />
		<tag k="ssr:stedsnr" v="62816" />
	</node>
	<node lat="59.26039166230013" lon="8.635124993618277" id="-25797">
		<tag k="alt_name" v="Tjøstolfstjenn" />
		<tag k="name" v="Tjøstulvtjørn" />
		<tag k="natural" v="water" />
		<tag k="ssr:stedsnr" v="63570" />
	</node>
	<node lat="59.13586616687834" lon="8.844953377286053" id="-25801">
		<tag k="name" v="Halsholsbukta" />
		<tag k="natural" v="bay" />
		<tag k="ssr:stedsnr" v="241218" />
	</node>
	<node lat="59.12720392293101" lon="8.875248169618871" id="-25802">
		<tag k="name" v="Tiggerdammen" />
		<tag k="ssr:stedsnr" v="241245" />
		<tag k="waterway" v="dam" />
	</node>
	<node lat="58.91224167039919" lon="9.08248611133549" id="-25803">
		<tag k="name" v="Lysertangen" />
		<tag k="natural" v="cape" />
		<tag k="ssr:stedsnr" v="241256" />
	</node>
	<node lat="59.06445000327259" lon="8.992197214868868" id="-25817">
		<tag k="name" v="Grasdalstjennbekken" />
		<tag k="ssr:stedsnr" v="241745" />
		<tag k="waterway" v="stream" />
	</node>
	<node lat="59.06844999855657" lon="8.996661111360403" id="-25818">
		<tag k="name" v="Husdalsdammen" />
		<tag k="ssr:stedsnr" v="241759" />
		<tag k="waterway" v="dam" />
	</node>
	<node lat="59.090669447532974" lon="9.006091670515461" id="-25819">
		<tag k="name" v="Olastrand" />
		<tag k="natural" v="beach" />
		<tag k="ssr:stedsnr" v="241706" />
	</node>
	<node lat="59.094125004089776" lon="8.827738887582322" id="-25822">
		<tag k="name" v="Bronmyrbekken" />
		<tag k="ssr:stedsnr" v="241725" />
		<tag k="waterway" v="stream" />
	</node>
	<node lat="59.041813884508365" lon="9.228380546934103" id="-25823">
		<tag k="name" v="Bråtanebukta" />
		<tag k="natural" v="bay" />
		<tag k="ssr:stedsnr" v="241775" />
	</node>
	<node lat="59.04364444010905" lon="9.231177784796142" id="-25824">
		<tag k="name" v="Ørntjenn" />
		<tag k="natural" v="water" />
		<tag k="ssr:stedsnr" v="241776" />
	</node>
	<node lat="58.93215000329021" lon="9.104783332221864" id="-25828">
		<tag k="alt_name" v="Båsdalstjenna" />
		<tag k="name" v="Båsdalstjerna" />
		<tag k="natural" v="water" />
		<tag k="ssr:stedsnr" v="243844" />
	</node>
	<node lat="58.95725555837993" lon="9.142516660275092" id="-25829">
		<tag k="alt_name" v="Fikjevann" />
		<tag k="name" v="Fitjevatn" />
		<tag k="natural" v="water" />
		<tag k="ssr:stedsnr" v="243902" />
	</node>
	<node lat="59.012563891116486" lon="8.928105547515504" id="-25832">
		<tag k="alt_name" v="Bjortjenn" />
		<tag k="name" v="Bjortjern" />
		<tag k="natural" v="water" />
		<tag k="ssr:stedsnr" v="244010" />
	</node>
	<node lat="59.0161027799673" lon="9.05388888505002" id="-25833">
		<tag k="alt_name" v="Våtmyrtjenna" />
		<tag k="name" v="Våtmyrtjørna" />
		<tag k="natural" v="water" />
		<tag k="ssr:stedsnr" v="244014" />
	</node>
	<node lat="59.048149996000724" lon="8.867105559910408" id="-25834">
		<tag k="fixme" v="multiple name tags, choose one and add the other to alt_name" />
		<tag k="name" v="Lometjørna;Nybøtjenna" />
		<tag k="natural" v="water" />
		<tag k="ssr:stedsnr" v="244070" />
		<tag k="water" v="lake" />
	</node>
	<node lat="59.00925833671763" lon="9.154825004534397" id="-25838">
		<tag k="alt_name" v="Laksvatnet, store;Laksvann" />
		<tag k="name" v="Store Laksvatnet" />
		<tag k="natural" v="water" />
		<tag k="ssr:stedsnr" v="244019" />
	</node>
	<node lat="59.01517222461784" lon="9.160197213617419" id="-25839">
		<tag k="alt_name" v="Laksvatnet, litle;Lille Laksvann" />
		<tag k="name" v="Litle Laksvatnet" />
		<tag k="natural" v="water" />
		<tag k="ssr:stedsnr" v="244021" />
	</node>
	<node lat="59.07788888958157" lon="9.20659999392732" id="-25842">
		<tag k="name" v="Damtjern" />
		<tag k="natural" v="water" />
		<tag k="ssr:stedsnr" v="244162" />
	</node>
	<node lat="59.030391664906325" lon="9.161505549184668" id="-25843">
		<tag k="alt_name" v="Lomtjenn" />
		<tag k="name" v="Lomtjern" />
		<tag k="natural" v="water" />
		<tag k="ssr:stedsnr" v="244126" />
	</node>
	<node lat="59.07665555751515" lon="8.882411114273642" id="-25844">
		<tag k="alt_name" v="Vihusvann" />
		<tag k="name" v="Vihusvatnet" />
		<tag k="natural" v="water" />
		<tag k="ssr:stedsnr" v="244163" />
	</node>
	<node lat="59.06099166330052" lon="8.913822217428715" id="-25846">
		<tag k="alt_name" v="Ormesteane" />
		<tag k="name" v="Ormsteane" />
		<tag k="place" v="locality" />
		<tag k="ssr:stedsnr" v="244175" />
	</node>
	<node lat="59.06527500251685" lon="8.877036116671091" id="-25847">
		<tag k="alt_name" v="Mørkreistjenn" />
		<tag k="name" v="Mørkreitjern" />
		<tag k="natural" v="water" />
		<tag k="ssr:stedsnr" v="244177" />
	</node>
	<node lat="59.16347222391857" lon="9.140622220449504" id="-25850">
		<tag k="alt_name" v="Breitjenn" />
		<tag k="name" v="Breitjern" />
		<tag k="natural" v="water" />
		<tag k="ssr:stedsnr" v="244265" />
	</node>
	<node lat="59.153658337384904" lon="8.880386112109088" id="-25851">
		<tag k="name" v="Vasshusbekken" />
		<tag k="ssr:stedsnr" v="244272" />
		<tag k="waterway" v="stream" />
	</node>
	<node lat="59.205400002703726" lon="8.888350000088822" id="-25854">
		<tag k="alt_name" v="Damtjenn" />
		<tag k="name" v="Damtjørn" />
		<tag k="natural" v="water" />
		<tag k="ssr:stedsnr" v="244424" />
	</node>
	<node lat="59.17193611290724" lon="8.87542500848588" id="-25858">
		<tag k="alt_name" v="Sandtjennane" />
		<tag k="name" v="Sandtjerna" />
		<tag k="natural" v="water" />
		<tag k="ssr:stedsnr" v="244360" />
		<tag k="water" v="lake" />
	</node>
	<node lat="59.18161388693377" lon="9.138280560829298" id="-25860">
		<tag k="alt_name" v="Svarttjenn" />
		<tag k="name" v="Svarttjørna" />
		<tag k="natural" v="water" />
		<tag k="ssr:stedsnr" v="244367" />
	</node>
	<node lat="59.17869722067714" lon="8.893597228241154" id="-25861">
		<tag k="alt_name" v="Svarvartjenn" />
		<tag k="name" v="Svarvartjørn" />
		<tag k="natural" v="water" />
		<tag k="ssr:stedsnr" v="244374" />
	</node>
	<node lat="59.19214999798103" lon="9.135030547646283" id="-25863">
		<tag k="alt_name" v="Høydalstjenna" />
		<tag k="name" v="Høydalstjørn" />
		<tag k="natural" v="water" />
		<tag k="ssr:stedsnr" v="244376" />
	</node>
	<node lat="59.02368055389322" lon="8.783608329291605" id="-25865">
		<tag k="alt_name" v="Storetjenn" />
		<tag k="name" v="Stortjørn" />
		<tag k="natural" v="water" />
		<tag k="ssr:stedsnr" v="244458" />
	</node>
	<node lat="59.04195833748475" lon="8.77735555388749" id="-25871">
		<tag k="name" v="Hauklitjenn" />
		<tag k="natural" v="water" />
		<tag k="ssr:stedsnr" v="244549" />
	</node>
	<node lat="59.04034166444056" lon="8.786027781409942" id="-25872">
		<tag k="alt_name" v="Øyvasstjenna" />
		<tag k="name" v="Øyvasstjørna" />
		<tag k="natural" v="water" />
		<tag k="ssr:stedsnr" v="244569" />
	</node>
	<node lat="59.083219445878036" lon="8.832274999128227" id="-25873">
		<tag k="name" v="Brudgomfossen" />
		<tag k="natural" v="waterfall" />
		<tag k="ssr:stedsnr" v="244652" />
	</node>
	<node lat="59.086302774105064" lon="8.701580557786118" id="-25874">
		<tag k="name" v="Sveigvatnet" />
		<tag k="natural" v="water" />
		<tag k="ssr:stedsnr" v="244660" />
		<tag k="water" v="lake" />
	</node>
	<node lat="59.1435194428409" lon="8.706680555583214" id="-25878">
		<tag k="alt_name" v="Svåtjenn" />
		<tag k="name" v="Svåtjørn" />
		<tag k="natural" v="water" />
		<tag k="ssr:stedsnr" v="244762" />
	</node>
	<node lat="58.91243055469299" lon="9.145802769433963" id="-25880">
		<tag k="alt_name" v="Kalvvatn, l" />
		<tag k="name" v="Lille Kalvvann" />
		<tag k="natural" v="water" />
		<tag k="ssr:stedsnr" v="244769" />
	</node>
	<node lat="59.0343944462421" lon="9.34202499847717" id="-25881">
		<tag k="alt_name" v="Åmåstjenn" />
		<tag k="name" v="Åmundtjern" />
		<tag k="natural" v="water" />
		<tag k="ssr:stedsnr" v="244832" />
	</node>
	<node lat="59.04683055922219" lon="9.275800000982656" id="-25883">
		<tag k="name" v="Øvrekjerringtjenn" />
		<tag k="natural" v="water" />
		<tag k="ssr:stedsnr" v="244845" />
	</node>
	<node lat="59.23487777982918" lon="8.803433329449266" id="-25886">
		<tag k="name" v="Stigbekken" />
		<tag k="ssr:stedsnr" v="244934" />
		<tag k="waterway" v="stream" />
	</node>
	<node lat="59.24852222240162" lon="8.776127782068667" id="-25888">
		<tag k="name" v="Nordbøelva" />
		<tag k="ssr:stedsnr" v="244966" />
		<tag k="waterway" v="stream" />
	</node>
	<node lat="59.264977780910094" lon="8.681219438414585" id="-25893">
		<tag k="alt_name" v="Nusstjørn, l;Litle Nusstjørn" />
		<tag k="name" v="Lille Nusstjenn" />
		<tag k="natural" v="water" />
		<tag k="ssr:stedsnr" v="245522" />
	</node>
	<node lat="59.25807777888402" lon="8.666330550550668" id="-25894">
		<tag k="alt_name" v="Kvenntjenna" />
		<tag k="name" v="Kverntjørn" />
		<tag k="natural" v="water" />
		<tag k="ssr:stedsnr" v="245538" />
	</node>
	<node lat="59.1194388898931" lon="8.987699992217408" id="-25898">
		<tag k="name" v="Avstikkeren" />
		<tag k="natural" v="cape" />
		<tag k="ssr:stedsnr" v="100615" />
	</node>
	<node lat="58.96699722403148" lon="9.13500832803567" id="-25901">
		<tag k="name" v="Tryttjenna" />
		<tag k="natural" v="water" />
		<tag k="ssr:stedsnr" v="100704" />
	</node>
	<node lat="59.0290277785834" lon="8.83115833909899" id="-25907">
		<tag k="name" v="Standarødden" />
		<tag k="natural" v="cape" />
		<tag k="ssr:stedsnr" v="101170" />
	</node>
	<node lat="59.01002499565755" lon="9.160175000936896" id="-25910">
		<tag k="name" v="Smørtangen" />
		<tag k="natural" v="cape" />
		<tag k="ssr:stedsnr" v="101450" />
	</node>
	<node lat="59.128094441727754" lon="8.910116669888414" id="-25926">
		<tag k="name" v="Store Sauvatjenn" />
		<tag k="natural" v="water" />
		<tag k="ssr:stedsnr" v="102513" />
	</node>
	<node lat="58.97182500291111" lon="9.11045278348291" id="-25930">
		<tag k="name" v="Tjennslåttjenna" />
		<tag k="natural" v="water" />
		<tag k="ssr:stedsnr" v="102718" />
	</node>
	<node lat="59.17851110714962" lon="8.805313895048045" id="-25939">
		<tag k="name" v="Gretebukt" />
		<tag k="natural" v="bay" />
		<tag k="ssr:stedsnr" v="103885" />
	</node>
	<node lat="59.269836110330225" lon="8.804133326671659" id="-25947">
		<tag k="name" v="Løkandammen" />
		<tag k="natural" v="water" />
		<tag k="ssr:stedsnr" v="117203" />
	</node>
	<node lat="58.92339444365827" lon="9.204994447543678" id="-25954">
		<tag k="name" v="Lomtjenn" />
		<tag k="natural" v="water" />
		<tag k="ssr:stedsnr" v="117443" />
	</node>
	<node lat="59.07141667061432" lon="8.769424993916122" id="-25956">
		<tag k="name" v="Svarthøl" />
		<tag k="place" v="locality" />
		<tag k="ssr:stedsnr" v="117635" />
	</node>
	<node lat="59.06462222601199" lon="8.817861117574369" id="-25960">
		<tag k="name" v="Skarkebekk" />
		<tag k="ssr:stedsnr" v="117686" />
		<tag k="waterway" v="stream" />
	</node>
	<node lat="59.155183328987924" lon="9.141891665300822" id="-25968">
		<tag k="name" v="Tellevstjenn" />
		<tag k="natural" v="water" />
		<tag k="ssr:stedsnr" v="118213" />
	</node>
	<node lat="59.14493610734695" lon="9.086433332469818" id="-25976">
		<tag k="name" v="Nakksjøelva" />
		<tag k="ssr:stedsnr" v="118227" />
		<tag k="waterway" v="river" />
	</node>
	<node lat="59.07478888492029" lon="8.808152779832835" id="-25982">
		<tag k="name" v="Tjennosen" />
		<tag k="natural" v="bay" />
		<tag k="ssr:stedsnr" v="118635" />
	</node>
	<node lat="59.10426944360528" lon="9.224411112708992" id="-25984">
		<tag k="name" v="Krokvannsbukta" />
		<tag k="natural" v="bay" />
		<tag k="ssr:stedsnr" v="118649" />
	</node>
	<node lat="59.10776666640247" lon="8.903880561026401" id="-25994">
		<tag k="name" v="Borgodden" />
		<tag k="natural" v="cape" />
		<tag k="ssr:stedsnr" v="119390" />
	</node>
	<node lat="59.09491666609355" lon="8.785230558789808" id="-26007">
		<tag k="name" v="Sortemyrbekken" />
		<tag k="ssr:stedsnr" v="119777" />
		<tag k="waterway" v="stream" />
	</node>
	<node lat="59.06055832945694" lon="8.946811107942159" id="-26009">
		<tag k="name" v="Knutelitjenn" />
		<tag k="natural" v="water" />
		<tag k="ssr:stedsnr" v="119793" />
	</node>
	<node lat="59.06864722129761" lon="8.732486102524643" id="-26011">
		<tag k="name" v="Fantemobekken" />
		<tag k="ssr:stedsnr" v="119670" />
		<tag k="waterway" v="stream" />
	</node>
	<node lat="58.97528610671508" lon="9.031305554016614" id="-26019">
		<tag k="name" v="Vølantjenna" />
		<tag k="natural" v="water" />
		<tag k="ssr:stedsnr" v="121990" />
	</node>
	<node lat="59.04315555510114" lon="9.081122221995317" id="-26023">
		<tag k="alt_name" v="Mabutjenna" />
		<tag k="name" v="Måbutjern" />
		<tag k="natural" v="water" />
		<tag k="ssr:stedsnr" v="122088" />
	</node>
	<node lat="59.12168889235074" lon="8.999452780893819" id="-26024">
		<tag k="alt_name" v="Hoseidvannet" />
		<tag k="loc_name" v="Oseidvann" />
		<tag k="name" v="Hoseidvatnet" />
		<tag k="natural" v="water" />
		<tag k="ssr:stedsnr" v="122205" />
		<tag k="water" v="lake" />
	</node>
	<node lat="58.88877653099117" lon="9.158502718459983" id="-26025">
		<tag k="name" v="Igletjern" />
		<tag k="natural" v="water" />
		<tag k="ssr:stedsnr" v="122209" />
	</node>
	<node lat="59.089355552718935" lon="8.73670555728546" id="-26031">
		<tag k="alt_name" v="Fiskevatnet" />
		<tag k="name" v="Fiskvann" />
		<tag k="natural" v="water" />
		<tag k="ssr:stedsnr" v="122606" />
	</node>
	<node lat="59.1262000036827" lon="9.080038881252875" id="-26033">
		<tag k="name" v="Tveitøya" />
		<tag k="place" v="island" />
		<tag k="ssr:stedsnr" v="123203" />
	</node>
	<node lat="59.03651944242239" lon="9.143091668483159" id="-26037">
		<tag k="alt_name" v="Rosstjern" />
		<tag k="name" v="Rosstjenn" />
		<tag k="natural" v="water" />
		<tag k="ssr:stedsnr" v="123110" />
	</node>
	<node lat="59.08447222447624" lon="8.996380553681016" id="-26041">
		<tag k="name" v="Tørneselva" />
		<tag k="ssr:stedsnr" v="123147" />
		<tag k="waterway" v="river" />
	</node>
	<node lat="59.25620833238235" lon="8.804877773956544" id="-26049">
		<tag k="alt_name" v="Haglehaugtjenn" />
		<tag k="name" v="Haglhaugtjørna" />
		<tag k="natural" v="water" />
		<tag k="ssr:stedsnr" v="123640" />
	</node>
	<node lat="58.90779999811236" lon="9.085630556332912" id="-26052">
		<tag k="alt_name" v="Steinsvannet;Steinvann" />
		<tag k="name" v="Steinsvatn" />
		<tag k="natural" v="water" />
		<tag k="ssr:stedsnr" v="123768" />
		<tag k="water" v="lake" />
	</node>
	<node lat="59.126344445868384" lon="9.228738892188147" id="-26068">
		<tag k="name" v="Sandbukta" />
		<tag k="natural" v="bay" />
		<tag k="ssr:stedsnr" v="161609" />
	</node>
	<node lat="59.11862718252744" lon="9.206366148486282" id="-26070">
		<tag k="name" v="Foltjenn" />
		<tag k="natural" v="water" />
		<tag k="ssr:stedsnr" v="161632" />
	</node>
	<node lat="59.113141666446865" lon="8.94616388425781" id="-26071">
		<tag k="name" v="Kroktjenn" />
		<tag k="natural" v="water" />
		<tag k="ssr:stedsnr" v="161638" />
	</node>
	<node lat="59.101602778939174" lon="8.979116670183705" id="-26072">
		<tag k="name" v="Sandbekken" />
		<tag k="ssr:stedsnr" v="161651" />
		<tag k="waterway" v="stream" />
	</node>
	<node lat="59.101930554318976" lon="8.960433336758937" id="-26073">
		<tag k="name" v="Sandsoddane" />
		<tag k="natural" v="cape" />
		<tag k="ssr:stedsnr" v="161657" />
	</node>
	<node lat="59.16872777760991" lon="9.063627773932877" id="-26078">
		<tag k="name" v="Gånøyane" />
		<tag k="place" v="islet" />
		<tag k="ssr:stedsnr" v="162107" />
	</node>
	<node lat="58.90515277864658" lon="9.1453222299708" id="-26088">
		<tag k="name" v="Kallødden" />
		<tag k="natural" v="cape" />
		<tag k="ssr:stedsnr" v="162508" />
	</node>
	<node lat="59.05329444053662" lon="9.089313895420629" id="-26089">
		<tag k="name" v="Smeøya" />
		<tag k="place" v="islet" />
		<tag k="ssr:stedsnr" v="162512" />
	</node>
	<node lat="59.04331389125104" lon="9.08411110448401" id="-26091">
		<tag k="name" v="Mabudammen" />
		<tag k="ssr:stedsnr" v="162517" />
		<tag k="waterway" v="dam" />
	</node>
	<node lat="58.99799166746153" lon="9.221500005238687" id="-26099">
		<tag k="name" v="Råna" />
		<tag k="natural" v="strait" />
		<tag k="ssr:stedsnr" v="163013" />
	</node>
	<node lat="59.093552776551356" lon="8.706880548555667" id="-26100">
		<tag k="name" v="Sveigvasstjennane" />
		<tag k="natural" v="water" />
		<tag k="ssr:stedsnr" v="163265" />
		<tag k="water" v="lake" />
	</node>
	<node lat="59.16873889166872" lon="8.80430276965412" id="-26103">
		<tag k="name" v="Murttjenn" />
		<tag k="natural" v="water" />
		<tag k="ssr:stedsnr" v="163909" />
	</node>
	<node lat="59.22235278203648" lon="8.803449994518148" id="-26105">
		<tag k="name" v="Storbekk" />
		<tag k="ssr:stedsnr" v="176006" />
		<tag k="waterway" v="stream" />
	</node>
	<node lat="58.985516666984964" lon="9.201075000666652" id="-26110">
		<tag k="name" v="Pålødden" />
		<tag k="natural" v="cape" />
		<tag k="ssr:stedsnr" v="177356" />
	</node>
	<node lat="59.16617777380545" lon="8.966908331042298" id="-26119">
		<tag k="name" v="Repshøl" />
		<tag k="place" v="locality" />
		<tag k="ssr:stedsnr" v="178572" />
	</node>
	<node lat="59.070594441785126" lon="8.732958325390673" id="-26122">
		<tag k="name" v="Hegnebekken" />
		<tag k="ssr:stedsnr" v="178610" />
		<tag k="waterway" v="stream" />
	</node>
	<node lat="58.95186666656102" lon="9.036325000567906" id="-26129">
		<tag k="name" v="Ulsheitjenn" />
		<tag k="natural" v="water" />
		<tag k="ssr:stedsnr" v="178915" />
	</node>
	<node lat="59.13593055328802" lon="9.089988893957077" id="-26130">
		<tag k="name" v="Blåtjenn" />
		<tag k="natural" v="water" />
		<tag k="ssr:stedsnr" v="179219" />
	</node>
	<node lat="59.05887499584308" lon="8.839472220491173" id="-26141">
		<tag k="name" v="Høgfoss" />
		<tag k="natural" v="waterfall" />
		<tag k="ssr:stedsnr" v="180306" />
	</node>
	<node lat="59.094613892420064" lon="9.01499167005181" id="-26154">
		<tag k="name" v="Langbekk" />
		<tag k="ssr:stedsnr" v="180718" />
		<tag k="waterway" v="stream" />
	</node>
	<node lat="59.04805555492328" lon="9.209677773486035" id="-26157">
		<tag k="name" v="Eiesbukta" />
		<tag k="natural" v="bay" />
		<tag k="ssr:stedsnr" v="180957" />
	</node>
	<node lat="59.047413891365224" lon="9.20492500421898" id="-26158">
		<tag k="name" v="Kjerringkilen" />
		<tag k="natural" v="bay" />
		<tag k="ssr:stedsnr" v="180959" />
	</node>
	<node lat="58.94237777959032" lon="9.182824998550998" id="-26161">
		<tag k="name" v="Gåsvatn" />
		<tag k="natural" v="water" />
		<tag k="ssr:stedsnr" v="182802" />
		<tag k="water" v="lake" />
	</node>
	<node lat="58.93783333477771" lon="9.196024994126804" id="-26162">
		<tag k="name" v="Svarttjern" />
		<tag k="natural" v="water" />
		<tag k="ssr:stedsnr" v="182819" />
	</node>
	<node lat="59.030650001400225" lon="8.910605559606918" id="-26163">
		<tag k="name" v="Vølstadtjørna" />
		<tag k="natural" v="water" />
		<tag k="ssr:stedsnr" v="183092" />
		<tag k="water" v="lake" />
	</node>
	<node lat="59.09925277504228" lon="8.925788882091823" id="-26166">
		<tag k="alt_name" v="Kvernkåstjenna" />
		<tag k="name" v="Kvernkåstjørna" />
		<tag k="natural" v="water" />
		<tag k="ssr:stedsnr" v="183202" />
	</node>
	<node lat="59.03974166484774" lon="8.900694451172642" id="-26170">
		<tag k="name" v="Lonebekken" />
		<tag k="ssr:stedsnr" v="183102" />
		<tag k="waterway" v="stream" />
	</node>
	<node lat="59.20062499741357" lon="8.948580562548319" id="-26171">
		<tag k="alt_name" v="Singusdalsvatnet, nedre;Ytre Singusdalsvann" />
		<tag k="name" v="Nedre Singusdalsvatnet" />
		<tag k="natural" v="water" />
		<tag k="ssr:stedsnr" v="183307" />
	</node>
	<node lat="59.20807499679066" lon="8.941141663101051" id="-26173">
		<tag k="alt_name" v="Singusdalsvatnet, øvre;Øvre Singusdalsvann" />
		<tag k="name" v="Øvre Singusdalsvatnet" />
		<tag k="natural" v="water" />
		<tag k="ssr:stedsnr" v="183372" />
	</node>
	<node lat="59.21213611022027" lon="8.92549722448826" id="-26174">
		<tag k="name" v="Heistadelva" />
		<tag k="ssr:stedsnr" v="183373" />
		<tag k="waterway" v="river" />
	</node>
	<node lat="59.196013892927525" lon="8.845688890033278" id="-26175">
		<tag k="alt_name" v="Øyvann" />
		<tag k="name" v="Øyvatnet" />
		<tag k="natural" v="water" />
		<tag k="ssr:stedsnr" v="183299" />
	</node>
	<node lat="59.03678055874472" lon="8.742872219393918" id="-26178">
		<tag k="fixme" v="multiple name tags, choose one and add the other to alt_name" />
		<tag k="name" v="Gautefallsvarttjørna;Svarttjenn" />
		<tag k="natural" v="water" />
		<tag k="ssr:stedsnr" v="183457" />
	</node>
	<node lat="59.04270555536427" lon="8.707727772080133" id="-26179">
		<tag k="name" v="Sveiva" />
		<tag k="natural" v="water" />
		<tag k="ssr:stedsnr" v="183510" />
	</node>
	<node lat="59.13731944229426" lon="8.739116668132551" id="-26182">
		<tag k="alt_name" v="Uvdalsholtjenna" />
		<tag k="name" v="Uvdalsholstjørna" />
		<tag k="natural" v="water" />
		<tag k="ssr:stedsnr" v="183712" />
	</node>
	<node lat="59.17539721996014" lon="9.145291667702537" id="-26188">
		<tag k="alt_name" v="Helsokvannet" />
		<tag k="name" v="Helsokvatnet" />
		<tag k="natural" v="water" />
		<tag k="ssr:stedsnr" v="184348" />
	</node>
	<node lat="59.04800555481589" lon="8.716544450429431" id="-26211">
		<tag k="name" v="Holmtjennbekken" />
		<tag k="ssr:stedsnr" v="222277" />
		<tag k="waterway" v="stream" />
	</node>
	<node lat="59.051991668944794" lon="8.730750005142466" id="-26219">
		<tag k="name" v="Grostjenn" />
		<tag k="natural" v="water" />
		<tag k="ssr:stedsnr" v="222594" />
	</node>
	<node lat="59.02397500438144" lon="9.333063886145574" id="-26220">
		<tag k="name" v="Kroktjennbukta" />
		<tag k="natural" v="bay" />
		<tag k="ssr:stedsnr" v="222730" />
	</node>
	<node lat="59.05793055505519" lon="9.013505562221088" id="-26231">
		<tag k="name" v="Solemdammen" />
		<tag k="ssr:stedsnr" v="222777" />
		<tag k="waterway" v="dam" />
	</node>
	<node lat="59.01538333774649" lon="9.198697217805785" id="-26234">
		<tag k="name" v="Risdalskjella" />
		<tag k="natural" v="water" />
		<tag k="ssr:stedsnr" v="222923" />
	</node>
	<node lat="58.985236109203775" lon="9.250080552758586" id="-26235">
		<tag k="name" v="Komløybukta" />
		<tag k="natural" v="bay" />
		<tag k="ssr:stedsnr" v="223108" />
	</node>
	<node lat="59.06864166959184" lon="9.102038883704557" id="-26243">
		<tag k="name" v="Langodde" />
		<tag k="natural" v="cape" />
		<tag k="ssr:stedsnr" v="223412" />
	</node>
	<node lat="59.06156944069038" lon="9.086711107245737" id="-26247">
		<tag k="name" v="Mokiløya" />
		<tag k="place" v="islet" />
		<tag k="ssr:stedsnr" v="223507" />
	</node>
	<node lat="59.06133889267427" lon="9.094166664710025" id="-26248">
		<tag k="name" v="Gamle odde" />
		<tag k="natural" v="cape" />
		<tag k="ssr:stedsnr" v="223509" />
	</node>
	<node lat="59.00756110876473" lon="9.210452770024148" id="-26255">
		<tag k="name" v="Hestøyhuet" />
		<tag k="place" v="island" />
		<tag k="ssr:stedsnr" v="224018" />
	</node>
	<node lat="59.050125001836975" lon="9.343105555575647" id="-26262">
		<tag k="name" v="Fløstjenn" />
		<tag k="natural" v="water" />
		<tag k="ssr:stedsnr" v="224514" />
	</node>
	<node lat="59.03650277989962" lon="9.350722228637217" id="-26264">
		<tag k="name" v="Fjelltjenn" />
		<tag k="natural" v="water" />
		<tag k="ssr:stedsnr" v="224519" />
	</node>
	<node lat="59.173047220113936" lon="8.809741664639384" id="-26265">
		<tag k="name" v="Hestetjennbekken" />
		<tag k="ssr:stedsnr" v="224904" />
		<tag k="waterway" v="stream" />
	</node>
	<node lat="59.08611944632637" lon="9.275672213954092" id="-26266">
		<tag k="name" v="Lomtjenn" />
		<tag k="natural" v="water" />
		<tag k="ssr:stedsnr" v="224836" />
	</node>
	<node lat="58.96425833094027" lon="9.167669452668703" id="-26277">
		<tag k="name" v="Søgardsødden" />
		<tag k="natural" v="cape" />
		<tag k="ssr:stedsnr" v="238440" />
	</node>
	<node lat="58.93003888512965" lon="9.20504722348649" id="-26281">
		<tag k="name" v="Bjønntjenna" />
		<tag k="natural" v="water" />
		<tag k="ssr:stedsnr" v="238506" />
	</node>
	<node lat="59.04815555777983" lon="9.161311103401127" id="-26286">
		<tag k="name" v="Amerika" />
		<tag k="natural" v="water" />
		<tag k="ssr:stedsnr" v="239087" />
	</node>
	<node lat="59.078516666274986" lon="9.088641673451797" id="-26289">
		<tag k="name" v="Svanehalsen" />
		<tag k="natural" v="strait" />
		<tag k="ssr:stedsnr" v="239329" />
	</node>
	<node lat="59.001111111179604" lon="9.140088886703124" id="-26300">
		<tag k="name" v="Nybutjenna" />
		<tag k="natural" v="water" />
		<tag k="ssr:stedsnr" v="239511" />
	</node>
	<node lat="59.1157722226292" lon="9.232388884616439" id="-26302">
		<tag k="name" v="Nestangen" />
		<tag k="natural" v="cape" />
		<tag k="ssr:stedsnr" v="239693" />
	</node>
	<node lat="59.169277775606645" lon="9.078919443228221" id="-26308">
		<tag k="name" v="Bjorbukta" />
		<tag k="natural" v="bay" />
		<tag k="ssr:stedsnr" v="240190" />
	</node>
	<node lat="59.063802781105274" lon="9.305186111829418" id="-26319">
		<tag k="name" v="De små Eikebutjennane" />
		<tag k="natural" v="water" />
		<tag k="ssr:stedsnr" v="241629" />
		<tag k="water" v="lake" />
	</node>
	<node lat="59.02237222383602" lon="8.813208340005062" id="-26325">
		<tag k="name" v="Lauvhombukta" />
		<tag k="natural" v="bay" />
		<tag k="ssr:stedsnr" v="241579" />
	</node>
	<node lat="59.021197221968905" lon="9.13497222373981" id="-26334">
		<tag k="alt_name" v="Tjuvtjenn" />
		<tag k="name" v="Tjuvtjern" />
		<tag k="natural" v="water" />
		<tag k="ssr:stedsnr" v="244003" />
	</node>
	<node lat="58.97330719499524" lon="9.214421621260026" id="-26337">
		<tag k="alt_name" v="Slåttjenn" />
		<tag k="name" v="Slåttjern" />
		<tag k="natural" v="water" />
		<tag k="ssr:stedsnr" v="243995" />
	</node>
	<node lat="58.973647374829376" lon="9.141578234692773" id="-26338">
		<tag k="alt_name" v="Mellomtjenn" />
		<tag k="name" v="Mellomtjern" />
		<tag k="natural" v="water" />
		<tag k="ssr:stedsnr" v="243997" />
	</node>
	<node lat="59.02643917006056" lon="8.9044954813687" id="-26340">
		<tag k="name" v="Reinskjerrtjerna" />
		<tag k="natural" v="water" />
		<tag k="ssr:stedsnr" v="244106" />
		<tag k="water" v="lake" />
	</node>
	<node lat="59.06330555208948" lon="8.998733338578944" id="-26346">
		<tag k="alt_name" v="Okstjenn" />
		<tag k="name" v="Okstjern" />
		<tag k="natural" v="water" />
		<tag k="ssr:stedsnr" v="244181" />
	</node>
	<node lat="59.05324999724782" lon="8.888897221563418" id="-26349">
		<tag k="alt_name" v="Sørknuttjenna" />
		<tag k="name" v="Knutantjørna" />
		<tag k="natural" v="water" />
		<tag k="ssr:stedsnr" v="244189" />
	</node>
	<node lat="59.19217499953775" lon="8.98355832981044" id="-26351">
		<tag k="alt_name" v="Lislåa" />
		<tag k="name" v="Lislå" />
		<tag k="ssr:stedsnr" v="244308" />
		<tag k="waterway" v="stream" />
	</node>
	<node lat="59.19785555902909" lon="8.858383335267275" id="-26352">
		<tag k="name" v="Haugstølbekken" />
		<tag k="ssr:stedsnr" v="244333" />
		<tag k="waterway" v="stream" />
	</node>
	<node lat="59.212438887833855" lon="9.101113882839789" id="-26353">
		<tag k="name" v="Tjernane" />
		<tag k="natural" v="water" />
		<tag k="ssr:stedsnr" v="244342" />
	</node>
	<node lat="58.91844444077851" lon="9.060911103627339" id="-26357">
		<tag k="name" v="Kilbuelva" />
		<tag k="ssr:stedsnr" v="244774" />
		<tag k="waterway" v="river" />
	</node>
	<node lat="59.215641669369774" lon="8.723300001147948" id="-26360">
		<tag k="name" v="Daleelva" />
		<tag k="ssr:stedsnr" v="244906" />
		<tag k="waterway" v="river" />
	</node>
	<node lat="59.06993888991922" lon="9.329655552405859" id="-26361">
		<tag k="alt_name" v="Lyser" />
		<tag k="name" v="Lysetjern" />
		<tag k="natural" v="water" />
		<tag k="ssr:stedsnr" v="244873" />
	</node>
	<node lat="59.10187777853878" lon="8.699388889611056" id="-26363">
		<tag k="alt_name" v="Hellersvann" />
		<tag k="name" v="Hellersvatnet" />
		<tag k="natural" v="water" />
		<tag k="ssr:stedsnr" v="245614" />
	</node>
	<node lat="59.05807222557526" lon="9.21141666448352" id="-26370">
		<tag k="name" v="Henseidkilen" />
		<tag k="natural" v="bay" />
		<tag k="ssr:stedsnr" v="282720" />
	</node>
	<node lat="58.93596666357883" lon="9.083758327823285" id="-26374">
		<tag k="name" v="Løkentjenna" />
		<tag k="natural" v="water" />
		<tag k="ssr:stedsnr" v="282882" />
	</node>
	<node lat="59.006222223072" lon="8.862347214385954" id="-26377">
		<tag k="name" v="Elgtjenn" />
		<tag k="natural" v="water" />
		<tag k="ssr:stedsnr" v="283107" />
	</node>
	<node lat="59.030027776736056" lon="9.06877778144362" id="-26384">
		<tag k="name" v="Hustulelva" />
		<tag k="ssr:stedsnr" v="283424" />
		<tag k="waterway" v="stream" />
	</node>
	<node lat="58.996408334590285" lon="9.16281111928746" id="-26385">
		<tag k="name" v="Bjønndalstjenna" />
		<tag k="natural" v="water" />
		<tag k="ssr:stedsnr" v="283384" />
	</node>
	<node lat="59.17588268084214" lon="9.177222996513768" id="-26397">
		<tag k="name" v="Perstjenn" />
		<tag k="natural" v="water" />
		<tag k="ssr:stedsnr" v="283625" />
	</node>
	<node lat="59.10324722670527" lon="8.959144447037863" id="-26401">
		<tag k="name" v="Knutshål" />
		<tag k="natural" v="bay" />
		<tag k="ssr:stedsnr" v="283686" />
	</node>
	<node lat="59.09978610787397" lon="8.961811116932312" id="-26402">
		<tag k="name" v="Linodden" />
		<tag k="natural" v="cape" />
		<tag k="ssr:stedsnr" v="283687" />
	</node>
	<node lat="59.02207222124902" lon="9.341283331260401" id="-26407">
		<tag k="name" v="Skarøya" />
		<tag k="place" v="island" />
		<tag k="ssr:stedsnr" v="283724" />
	</node>
	<node lat="59.006988891069966" lon="9.194341669786205" id="-26412">
		<tag k="name" v="Skjelbreidbekken" />
		<tag k="ssr:stedsnr" v="284006" />
		<tag k="waterway" v="stream" />
	</node>
	<node lat="59.00099444138075" lon="9.20688611076002" id="-26413">
		<tag k="name" v="Eldhustjenna" />
		<tag k="natural" v="water" />
		<tag k="ssr:stedsnr" v="284023" />
	</node>
	<node lat="59.00334166339298" lon="9.212075002062708" id="-26414">
		<tag k="name" v="Oddane" />
		<tag k="natural" v="cape" />
		<tag k="ssr:stedsnr" v="284024" />
	</node>
	<node lat="59.002430552227736" lon="9.167627781557538" id="-26415">
		<tag k="name" v="Elgdrøkken" />
		<tag k="natural" v="water" />
		<tag k="ssr:stedsnr" v="284027" />
	</node>
	<node lat="58.98274444525186" lon="9.257844436622085" id="-26416">
		<tag k="name" v="Grisødden" />
		<tag k="natural" v="cape" />
		<tag k="ssr:stedsnr" v="284103" />
	</node>
	<node lat="58.98096388648714" lon="9.25696666402737" id="-26417">
		<tag k="name" v="Danmark" />
		<tag k="place" v="islet" />
		<tag k="ssr:stedsnr" v="284106" />
	</node>
	<node lat="59.169716668443364" lon="9.085380546928436" id="-26418">
		<tag k="name" v="Stutødden" />
		<tag k="natural" v="cape" />
		<tag k="ssr:stedsnr" v="284122" />
	</node>
	<node lat="59.16736944377612" lon="8.889769447930709" id="-26425">
		<tag k="name" v="Nybu damtjenn" />
		<tag k="natural" v="water" />
		<tag k="ssr:stedsnr" v="284479" />
	</node>
	<node lat="59.10870555944904" lon="8.984999995846517" id="-26428">
		<tag k="name" v="Halfartjenn" />
		<tag k="natural" v="water" />
		<tag k="ssr:stedsnr" v="284708" />
	</node>
	<node lat="58.96266666317031" lon="9.153005548591507" id="-26431">
		<tag k="name" v="Auren" />
		<tag k="natural" v="shoal" />
		<tag k="place" v="locality" />
		<tag k="ssr:stedsnr" v="284835" />
	</node>
	<node lat="59.23486389152211" lon="8.79846944220695" id="-26433">
		<tag k="name" v="Lintjennbekken" />
		<tag k="ssr:stedsnr" v="285011" />
		<tag k="waterway" v="stream" />
	</node>
	<node lat="59.100224997930006" lon="9.11944722333503" id="-26463">
		<tag k="name" v="Kyrsvanndammen" />
		<tag k="ssr:stedsnr" v="300329" />
		<tag k="waterway" v="dam" />
	</node>
	<node lat="59.10072777585114" lon="9.13195276908891" id="-26464">
		<tag k="name" v="Blådalstjennane" />
		<tag k="natural" v="water" />
		<tag k="ssr:stedsnr" v="300336" />
		<tag k="water" v="lake" />
	</node>
	<node lat="59.02854722485421" lon="9.226402773526283" id="-26471">
		<tag k="name" v="Tollodden" />
		<tag k="natural" v="cape" />
		<tag k="ssr:stedsnr" v="300906" />
	</node>
	<node lat="59.02193055123458" lon="9.25394165879691" id="-26472">
		<tag k="name" v="Lille Aurtjenn" />
		<tag k="natural" v="water" />
		<tag k="ssr:stedsnr" v="300911" />
	</node>
	<node lat="59.11358611244142" lon="9.229002786316176" id="-26473">
		<tag k="name" v="Lille Merkerbukt" />
		<tag k="natural" v="bay" />
		<tag k="ssr:stedsnr" v="300678" />
	</node>
	<node lat="59.02312222387437" lon="9.266491671046126" id="-26477">
		<tag k="name" v="Åltjennputtane" />
		<tag k="natural" v="water" />
		<tag k="ssr:stedsnr" v="300974" />
		<tag k="water" v="pond" />
	</node>
	<node lat="59.073380557901395" lon="9.248752781017474" id="-26486">
		<tag k="name" v="Lillegrunnvann" />
		<tag k="natural" v="water" />
		<tag k="ssr:stedsnr" v="301891" />
	</node>
	<node lat="59.16666944857092" lon="9.177463892570021" id="-26495">
		<tag k="name" v="Fagerskinntjennane" />
		<tag k="natural" v="water" />
		<tag k="ssr:stedsnr" v="464626" />
		<tag k="water" v="lake" />
	</node>
	<node lat="59.149094448172804" lon="9.17089166193207" id="-26496">
		<tag k="name" v="Ragnhildstjenn" />
		<tag k="natural" v="water" />
		<tag k="ssr:stedsnr" v="464631" />
	</node>
	<node lat="59.105833332288206" lon="8.931680551575848" id="-26500">
		<tag k="name" v="Bastnes" />
		<tag k="natural" v="cape" />
		<tag k="old_name" v="Vassnes" />
		<tag k="ssr:stedsnr" v="304194" />
	</node>
	<node lat="58.943583333489876" lon="9.136272228300324" id="-26503">
		<tag k="name" v="Tungebakkdammen" />
		<tag k="ssr:stedsnr" v="464450" />
		<tag k="waterway" v="dam" />
	</node>
	<node lat="59.126816666258556" lon="9.244911118055674" id="-26504">
		<tag k="name" v="Store Eftan" />
		<tag k="natural" v="water" />
		<tag k="ssr:stedsnr" v="304815" />
	</node>
	<node lat="58.94758611155407" lon="9.162341658103665" id="-26506">
		<tag k="alt_name" v="Linvann" />
		<tag k="name" v="Linvatn" />
		<tag k="natural" v="water" />
		<tag k="ssr:stedsnr" v="304925" />
	</node>
	<node lat="59.04064999874239" lon="9.067641665384167" id="-26507">
		<tag k="alt_name" v="Rosstjenn" />
		<tag k="name" v="Rosttjern" />
		<tag k="natural" v="water" />
		<tag k="ssr:stedsnr" v="305103" />
	</node>
	<node lat="59.02833888487527" lon="9.079674997032535" id="-26508">
		<tag k="alt_name" v="Nedre Siljefjelltjenna" />
		<tag k="name" v="Siljufjelltjørna" />
		<tag k="natural" v="water" />
		<tag k="ssr:stedsnr" v="305117" />
	</node>
	<node lat="58.93080000443848" lon="9.065780562322912" id="-26512">
		<tag k="alt_name" v="Storfjelltjenna" />
		<tag k="name" v="Storfjelltjørnane" />
		<tag k="natural" v="water" />
		<tag k="ssr:stedsnr" v="304873" />
	</node>
	<node lat="59.115708337702785" lon="8.964991674419519" id="-26516">
		<tag k="name" v="Butjennbekken" />
		<tag k="ssr:stedsnr" v="464640" />
		<tag k="waterway" v="stream" />
	</node>
	<node lat="59.135077774031664" lon="9.224969449367078" id="-26519">
		<tag k="name" v="Pondalskilen" />
		<tag k="natural" v="bay" />
		<tag k="ssr:stedsnr" v="464648" />
	</node>
	<node lat="59.22252830044567" lon="9.02197516183772" id="-26522">
		<tag k="alt_name" v="Svarttjønnbekken" />
		<tag k="name" v="Svarttjernbekken" />
		<tag k="ssr:stedsnr" v="305429" />
		<tag k="waterway" v="stream" />
	</node>
	<node lat="59.02181666513627" lon="8.765869452940617" id="-26526">
		<tag k="name" v="Veting" />
		<tag k="place" v="locality" />
		<tag k="ssr:stedsnr" v="305481" />
	</node>
	<node lat="59.11281666908285" lon="8.80976944048151" id="-26533">
		<tag k="name" v="Vestlifjellbekken" />
		<tag k="ssr:stedsnr" v="305671" />
		<tag k="waterway" v="stream" />
	</node>
	<node lat="59.105933332727595" lon="8.767813896064117" id="-26540">
		<tag k="alt_name" v="Måvatnet" />
		<tag k="name" v="Måvann" />
		<tag k="natural" v="water" />
		<tag k="ssr:stedsnr" v="305704" />
		<tag k="water" v="lake" />
	</node>
	<node lat="59.22703333302851" lon="8.761758332374812" id="-26541">
		<tag k="name" v="Kåsbekken" />
		<tag k="ssr:stedsnr" v="305905" />
		<tag k="waterway" v="stream" />
	</node>
	<node lat="59.00764444489911" lon="9.27420833779674" id="-26545">
		<tag k="name" v="Gullbekk" />
		<tag k="ssr:stedsnr" v="465047" />
		<tag k="waterway" v="stream" />
	</node>
	<node lat="58.99549166747482" lon="8.88465833744793" id="-26546">
		<tag k="name" v="Nedre Sjølvskåttjenn" />
		<tag k="natural" v="water" />
		<tag k="ssr:stedsnr" v="465124" />
	</node>
	<node lat="59.11401388508551" lon="9.093588896229152" id="-26552">
		<tag k="name" v="Smørsund" />
		<tag k="natural" v="strait" />
		<tag k="ssr:stedsnr" v="465266" />
	</node>
	<node lat="59.11120833434308" lon="9.092799995200302" id="-26553">
		<tag k="name" v="Tyttebæroddane" />
		<tag k="natural" v="cape" />
		<tag k="ssr:stedsnr" v="465270" />
	</node>
	<node lat="59.116058334642354" lon="9.098747230749039" id="-26554">
		<tag k="name" v="Tveitpina" />
		<tag k="natural" v="cape" />
		<tag k="ssr:stedsnr" v="465275" />
	</node>
	<node lat="58.95394444715376" lon="9.056544448217124" id="-26556">
		<tag k="name" v="Ormtjenn" />
		<tag k="natural" v="water" />
		<tag k="ssr:stedsnr" v="465288" />
	</node>
	<node lat="59.08277499804934" lon="9.138088881626006" id="-26560">
		<tag k="name" v="Lognfisktjenna" />
		<tag k="natural" v="water" />
		<tag k="ssr:stedsnr" v="465368" />
	</node>
	<node lat="58.96984999887704" lon="9.172280551244572" id="-26561">
		<tag k="name" v="Neslandsvann" />
		<tag k="natural" v="water" />
		<tag k="ssr:stedsnr" v="465352" />
		<tag k="water" v="lake" />
	</node>
	<node lat="59.209336110219716" lon="8.959916675293062" id="-26569">
		<tag k="name" v="Lintjenn" />
		<tag k="natural" v="water" />
		<tag k="ssr:stedsnr" v="465555" />
		<tag k="water" v="pond" />
	</node>
	<node lat="59.031647220107914" lon="9.299505562324665" id="-26570">
		<tag k="name" v="Engåødden" />
		<tag k="natural" v="cape" />
		<tag k="ssr:stedsnr" v="465731" />
	</node>
	<node lat="59.001122223240515" lon="9.186355559160118" id="-26577">
		<tag k="name" v="Bjørktjenn" />
		<tag k="natural" v="water" />
		<tag k="ssr:stedsnr" v="466033" />
	</node>
	<node lat="59.15810278188462" lon="8.923788884428278" id="-26587">
		<tag k="name" v="Eikåstjenna" />
		<tag k="natural" v="water" />
		<tag k="ssr:stedsnr" v="466420" />
	</node>
	<node lat="59.001002773826194" lon="9.09414722351757" id="-26596">
		<tag k="loc_name" v="Svanntjenn" />
		<tag k="name" v="Svarttjenn" />
		<tag k="natural" v="water" />
		<tag k="ssr:stedsnr" v="466543" />
	</node>
	<node lat="59.02559444307412" lon="8.954325007229812" id="-26602">
		<tag k="name" v="Jysereidelva" />
		<tag k="ssr:stedsnr" v="466842" />
		<tag k="waterway" v="river" />
	</node>
	<node lat="59.087450002853245" lon="9.25390277562883" id="-26605">
		<tag k="name" v="Sleivtjenn" />
		<tag k="natural" v="water" />
		<tag k="ssr:stedsnr" v="466857" />
	</node>
	<node lat="59.14638888496163" lon="8.752433331223148" id="-26608">
		<tag k="name" v="Breihøl" />
		<tag k="place" v="locality" />
		<tag k="ssr:stedsnr" v="467873" />
	</node>
	<node lat="59.157055553472546" lon="8.745380547366134" id="-26609">
		<tag k="name" v="Sigtjenn" />
		<tag k="natural" v="water" />
		<tag k="ssr:stedsnr" v="467877" />
	</node>
	<node lat="58.9237472190126" lon="9.105750006931684" id="-26612">
		<tag k="name" v="Måvannsbekken" />
		<tag k="ssr:stedsnr" v="342802" />
		<tag k="waterway" v="stream" />
	</node>
	<node lat="58.99908442716083" lon="9.238189053646773" id="-26616">
		<tag k="name" v="Nåsnibbtjenna" />
		<tag k="natural" v="water" />
		<tag k="ssr:stedsnr" v="343050" />
	</node>
	<node lat="59.102327774766735" lon="9.205130552182881" id="-26621">
		<tag k="name" v="Store Øygardstjenn" />
		<tag k="natural" v="water" />
		<tag k="ssr:stedsnr" v="343706" />
	</node>
	<node lat="58.980427781064094" lon="9.220972228678118" id="-26632">
		<tag k="name" v="Ødden" />
		<tag k="natural" v="cape" />
		<tag k="ssr:stedsnr" v="344092" />
	</node>
	<node lat="58.988288885466595" lon="9.254158336851845" id="-26633">
		<tag k="name" v="Hansøy" />
		<tag k="place" v="islet" />
		<tag k="ssr:stedsnr" v="344097" />
	</node>
	<node lat="59.03309444184239" lon="9.00312499731346" id="-26641">
		<tag k="name" v="Kvennbekken" />
		<tag k="ssr:stedsnr" v="344871" />
		<tag k="waterway" v="stream" />
	</node>
	<node lat="59.01065833291459" lon="9.203583329104998" id="-26643">
		<tag k="name" v="Grunsundøya" />
		<tag k="place" v="islet" />
		<tag k="ssr:stedsnr" v="345013" />
	</node>
	<node lat="58.99595555115911" lon="9.221188890842996" id="-26644">
		<tag k="name" v="Romtjenn" />
		<tag k="natural" v="bay" />
		<tag k="ssr:stedsnr" v="345017" />
	</node>
	<node lat="58.991533332655855" lon="9.229258340805341" id="-26645">
		<tag k="name" v="Røyødden" />
		<tag k="natural" v="cape" />
		<tag k="ssr:stedsnr" v="345019" />
	</node>
	<node lat="58.98216110815586" lon="9.207969441255006" id="-26658">
		<tag k="name" v="Toke" />
		<tag k="natural" v="water" />
		<tag k="ssr:stedsnr" v="359365" />
		<tag k="water" v="lake" />
	</node>
	<node lat="59.25801111479939" lon="8.824866672798576" id="-26666">
		<tag k="name" v="Fjellmannstjenna" />
		<tag k="natural" v="water" />
		<tag k="ssr:stedsnr" v="360061" />
	</node>
	<node lat="59.22167778083879" lon="9.005463889828052" id="-26671">
		<tag k="name" v="Steintjenn" />
		<tag k="natural" v="water" />
		<tag k="ssr:stedsnr" v="360513" />
	</node>
	<node lat="58.96724999645001" lon="9.168138881177903" id="-26674">
		<tag k="alt_name" v="Neslandsvann" />
		<tag k="name" v="Neslandsvatn" />
		<tag k="natural" v="water" />
		<tag k="ssr:stedsnr" v="364900" />
		<tag k="water" v="lake" />
	</node>
	<node lat="59.00587777585347" lon="8.90800556300233" id="-26676">
		<tag k="alt_name" v="Måvann" />
		<tag k="name" v="Måvatnet" />
		<tag k="natural" v="water" />
		<tag k="ssr:stedsnr" v="365026" />
	</node>
	<node lat="58.97247372227139" lon="9.15374647446887" id="-26678">
		<tag k="alt_name" v="Lundtveittjenna" />
		<tag k="name" v="Lundtveittjern" />
		<tag k="natural" v="water" />
		<tag k="ssr:stedsnr" v="365000" />
	</node>
	<node lat="59.110527775255115" lon="9.126013896581759" id="-26680">
		<tag k="name" v="Røytjern" />
		<tag k="natural" v="water" />
		<tag k="ssr:stedsnr" v="365244" />
	</node>
	<node lat="58.92107035671738" lon="9.108625505513597" id="-26695">
		<tag k="alt_name" v="Tryttjenna" />
		<tag k="name" v="Trytetjern" />
		<tag k="natural" v="water" />
		<tag k="ssr:stedsnr" v="365895" />
	</node>
	<node lat="59.13321666632974" lon="8.979880564167386" id="-26698">
		<tag k="alt_name" v="Lislåa" />
		<tag k="name" v="Litleelva" />
		<tag k="ssr:stedsnr" v="366195" />
		<tag k="waterway" v="river" />
	</node>
	<node lat="59.13661388496512" lon="9.144175005113102" id="-26700">
		<tag k="alt_name" v="Sautjenn" />
		<tag k="name" v="Sautjern" />
		<tag k="natural" v="water" />
		<tag k="ssr:stedsnr" v="366296" />
	</node>
	<node lat="59.16847500188669" lon="8.710105555343153" id="-26704">
		<tag k="name" v="Løkane" />
		<tag k="place" v="locality" />
		<tag k="ssr:stedsnr" v="366775" />
	</node>
	<node lat="58.98835555527145" lon="9.18653054887736" id="-26712">
		<tag k="name" v="Hoftødden" />
		<tag k="natural" v="cape" />
		<tag k="ssr:stedsnr" v="480283" />
	</node>
	<node lat="59.238913888406614" lon="8.752297227888537" id="-26747">
		<tag k="name" v="Svarttjenn" />
		<tag k="natural" v="water" />
		<tag k="ssr:stedsnr" v="482081" />
	</node>
	<node lat="59.12816111396786" lon="9.095505546921316" id="-26750">
		<tag k="name" v="Tveittjenna" />
		<tag k="natural" v="water" />
		<tag k="ssr:stedsnr" v="482192" />
	</node>
	<node lat="59.06209444795445" lon="9.117000008125602" id="-26758">
		<tag k="name" v="Fubekk" />
		<tag k="ssr:stedsnr" v="482440" />
		<tag k="waterway" v="stream" />
	</node>
	<node lat="58.99848888990954" lon="9.126355559395366" id="-26761">
		<tag k="name" v="Nedre Garevann" />
		<tag k="natural" v="water" />
		<tag k="ssr:stedsnr" v="482531" />
	</node>
	<node lat="59.11236666865486" lon="9.246691674120216" id="-26764">
		<tag k="name" v="Daumannstjenna" />
		<tag k="natural" v="water" />
		<tag k="ssr:stedsnr" v="482666" />
	</node>
	<node lat="59.11547777735199" lon="9.243119451746166" id="-26765">
		<tag k="name" v="Seterbekken" />
		<tag k="ssr:stedsnr" v="482668" />
		<tag k="waterway" v="stream" />
	</node>
	<node lat="59.03585833514304" lon="9.308186113925673" id="-26766">
		<tag k="name" v="Bosmangøya" />
		<tag k="place" v="island" />
		<tag k="ssr:stedsnr" v="482685" />
	</node>
	<node lat="59.03393332915476" lon="9.294688888043572" id="-26767">
		<tag k="name" v="Engåbukta" />
		<tag k="natural" v="bay" />
		<tag k="ssr:stedsnr" v="482689" />
	</node>
	<node lat="59.02762777697008" lon="9.224549992518885" id="-26772">
		<tag k="name" v="Rugkåsa" />
		<tag k="place" v="islet" />
		<tag k="ssr:stedsnr" v="482893" />
	</node>
	<node lat="59.0369555553844" lon="9.194572226749338" id="-26778">
		<tag k="name" v="Sandbukta" />
		<tag k="natural" v="bay" />
		<tag k="ssr:stedsnr" v="482998" />
	</node>
	<node lat="59.07468055921545" lon="9.309158331423399" id="-26790">
		<tag k="name" v="Rasåstjenna" />
		<tag k="natural" v="water" />
		<tag k="ssr:stedsnr" v="483645" />
	</node>
	<node lat="59.01141110701348" lon="9.29555833662243" id="-26797">
		<tag k="name" v="Slossvikkilen" />
		<tag k="natural" v="bay" />
		<tag k="ssr:stedsnr" v="483796" />
	</node>
	<node lat="59.09672499758068" lon="8.78992778493687" id="-26799">
		<tag k="name" v="Sautjenn" />
		<tag k="natural" v="water" />
		<tag k="ssr:stedsnr" v="483799" />
	</node>
	<node lat="59.01288055607157" lon="8.797497230286535" id="-26805">
		<tag k="name" v="Hellervassdammen" />
		<tag k="ssr:stedsnr" v="484532" />
		<tag k="waterway" v="dam" />
	</node>
	<node lat="59.015897218022204" lon="8.82789166694548" id="-26811">
		<tag k="name" v="Vinterbukta" />
		<tag k="natural" v="bay" />
		<tag k="ssr:stedsnr" v="484556" />
	</node>
	<node lat="59.0133333364726" lon="8.82693610663561" id="-26812">
		<tag k="name" v="Langødde" />
		<tag k="natural" v="cape" />
		<tag k="ssr:stedsnr" v="484557" />
	</node>
	<node lat="59.09588333661771" lon="9.141233333213528" id="-26818">
		<tag k="alt_name" v="Holmvann" />
		<tag k="name" v="Holmvatnet" />
		<tag k="natural" v="water" />
		<tag k="ssr:stedsnr" v="486254" />
	</node>
	<node lat="59.03263333397909" lon="8.86051666612011" id="-26827">
		<tag k="name" v="Galtevassbekken" />
		<tag k="ssr:stedsnr" v="404194" />
		<tag k="waterway" v="stream" />
	</node>
	<node lat="59.11400555623192" lon="9.100013892906446" id="-26829">
		<tag k="name" v="Halsodden" />
		<tag k="natural" v="cape" />
		<tag k="ssr:stedsnr" v="404277" />
	</node>
	<node lat="59.21966388587834" lon="8.976777773150276" id="-26833">
		<tag k="name" v="Bukketjenna" />
		<tag k="natural" v="water" />
		<tag k="ssr:stedsnr" v="404515" />
	</node>
	<node lat="59.17598055666781" lon="8.996683332401913" id="-26834">
		<tag k="name" v="Budalsbekken" />
		<tag k="ssr:stedsnr" v="404574" />
		<tag k="waterway" v="stream" />
	</node>
	<node lat="59.04941944523914" lon="8.793922228818257" id="-26836">
		<tag k="name" v="Stormyrheitjenna" />
		<tag k="natural" v="water" />
		<tag k="ssr:stedsnr" v="404587" />
	</node>
	<node lat="58.99330555490975" lon="9.119077779185607" id="-26841">
		<tag k="name" v="Kåsbekken" />
		<tag k="ssr:stedsnr" v="404481" />
		<tag k="waterway" v="stream" />
	</node>
	<node lat="59.05309444888855" lon="8.746986116497418" id="-26842">
		<tag k="name" v="Elgtjenn" />
		<tag k="natural" v="water" />
		<tag k="ssr:stedsnr" v="404604" />
	</node>
	<node lat="59.12628333643926" lon="8.766994442125757" id="-26847">
		<tag k="name" v="Steinfjelltjennbekken" />
		<tag k="ssr:stedsnr" v="404782" />
		<tag k="waterway" v="stream" />
	</node>
	<node lat="58.97155555197159" lon="9.170788893542484" id="-26853">
		<tag k="name" v="Oterbekk" />
		<tag k="ssr:stedsnr" v="405388" />
		<tag k="waterway" v="stream" />
	</node>
	<node lat="58.98417778001041" lon="9.221130551275559" id="-26858">
		<tag k="name" v="Grønøya" />
		<tag k="place" v="island" />
		<tag k="ssr:stedsnr" v="485995" />
	</node>
	<node lat="58.9831888927391" lon="9.261538882338586" id="-26874">
		<tag k="name" v="Kjeøya" />
		<tag k="place" v="island" />
		<tag k="ssr:stedsnr" v="486347" />
	</node>
	<node lat="59.152397218435915" lon="8.832613895242922" id="-26877">
		<tag k="alt_name" v="Kalvskinnsrudtjenna" />
		<tag k="name" v="Kalveskinnrudtjørna" />
		<tag k="natural" v="water" />
		<tag k="ssr:stedsnr" v="486753" />
	</node>
	<node lat="58.998424996284015" lon="8.905116673589761" id="-26885">
		<tag k="alt_name" v="Sandvann" />
		<tag k="name" v="Sandvatn" />
		<tag k="natural" v="water" />
		<tag k="ssr:stedsnr" v="486950" />
		<tag k="water" v="lake" />
	</node>
	<node lat="59.16057499687367" lon="8.844688883378845" id="-26887">
		<tag k="alt_name" v="Lille Risåsheitjenna" />
		<tag k="name" v="Risåstjerna" />
		<tag k="natural" v="water" />
		<tag k="ssr:stedsnr" v="487277" />
	</node>
	<node lat="59.04113889308138" lon="9.196005554239495" id="-26891">
		<tag k="name" v="Kjeøya" />
		<tag k="place" v="island" />
		<tag k="ssr:stedsnr" v="487088" />
	</node>
	<node lat="59.01744999561112" lon="8.934324995540916" id="-26892">
		<tag k="name" v="Østeråbekken" />
		<tag k="ssr:stedsnr" v="487099" />
		<tag k="waterway" v="stream" />
	</node>
	<node lat="59.120327776071086" lon="8.92521666468521" id="-26895">
		<tag k="alt_name" v="Skarstøltjenna" />
		<tag k="name" v="Skardstøltjerna" />
		<tag k="natural" v="water" />
		<tag k="ssr:stedsnr" v="487197" />
	</node>
	<node lat="59.08573055272086" lon="9.145361106993274" id="-26896">
		<tag k="name" v="Teinetjernane" />
		<tag k="natural" v="water" />
		<tag k="ssr:stedsnr" v="487142" />
		<tag k="water" v="lake" />
	</node>
	<node lat="59.17740833135582" lon="9.030322223618917" id="-26905">
		<tag k="alt_name" v="Eiklitjenna" />
		<tag k="name" v="Eiklitjørna" />
		<tag k="natural" v="water" />
		<tag k="ssr:stedsnr" v="487366" />
	</node>
	<node lat="59.17070278164868" lon="9.087405547041227" id="-26907">
		<tag k="alt_name" v="Nakksjøen, l;Nakksjø, l;Lille Nakksjø" />
		<tag k="name" v="Litle Nakksjø" />
		<tag k="natural" v="water" />
		<tag k="ssr:stedsnr" v="487369" />
	</node>
	<node lat="59.174658336600324" lon="8.922788893494854" id="-26908">
		<tag k="name" v="Bekkruselva" />
		<tag k="ssr:stedsnr" v="487373" />
		<tag k="waterway" v="river" />
	</node>
	<node lat="59.20339444000159" lon="9.002788886379491" id="-26909">
		<tag k="alt_name" v="Nedre Ormtjenn" />
		<tag k="name" v="Ormtjørn" />
		<tag k="natural" v="water" />
		<tag k="ssr:stedsnr" v="487345" />
	</node>
	<node lat="59.03029999577018" lon="8.724700002377476" id="-26914">
		<tag k="alt_name" v="Reinsvasstjenna" />
		<tag k="name" v="Reinsvasstjørna" />
		<tag k="natural" v="water" />
		<tag k="ssr:stedsnr" v="487493" />
	</node>
	<node lat="59.266958329525714" lon="8.635686113488577" id="-26915">
		<tag k="alt_name" v="Grytvatnet, nordre;Nordre Grytdals vann" />
		<tag k="name" v="Nordre Grytvatnet" />
		<tag k="natural" v="water" />
		<tag k="ssr:stedsnr" v="487565" />
		<tag k="water" v="lake" />
	</node>
	<node lat="59.03602499844534" lon="8.788366662247354" id="-26916">
		<tag k="alt_name" v="Kattjenn" />
		<tag k="name" v="Kattjørn" />
		<tag k="natural" v="water" />
		<tag k="ssr:stedsnr" v="487577" />
	</node>
	<node lat="59.06088889080319" lon="8.800933328219134" id="-26917">
		<tag k="name" v="Baldrombekken" />
		<tag k="ssr:stedsnr" v="487578" />
		<tag k="waterway" v="stream" />
	</node>
	<node lat="59.063652778747326" lon="8.693983336613714" id="-26920">
		<tag k="name" v="Renndalsbekken" />
		<tag k="ssr:stedsnr" v="487629" />
		<tag k="waterway" v="stream" />
	</node>
	<node lat="59.27789167038631" lon="8.657116669735444" id="-26926">
		<tag k="name" v="Mørkvatnet" />
		<tag k="natural" v="water" />
		<tag k="ssr:stedsnr" v="487749" />
		<tag k="water" v="lake" />
	</node>
	<node lat="59.06826389164348" lon="9.27230555128474" id="-26928">
		<tag k="name" v="Lustjerna" />
		<tag k="natural" v="water" />
		<tag k="ssr:stedsnr" v="487879" />
	</node>
	<node lat="59.214933336574354" lon="8.821272219667385" id="-26930">
		<tag k="alt_name" v="Tempeltjenna" />
		<tag k="name" v="Tempeltjørn" />
		<tag k="natural" v="water" />
		<tag k="ssr:stedsnr" v="487891" />
	</node>
	<node lat="59.256938890113794" lon="8.751658327244213" id="-26934">
		<tag k="alt_name" v="Murttjuvtjenna" />
		<tag k="name" v="Murttjuvtjørna" />
		<tag k="natural" v="water" />
		<tag k="ssr:stedsnr" v="488540" />
	</node>
	<node lat="59.17869722067714" lon="8.893597228241154" id="-26936">
		<tag k="name" v="ytre Høgheivannet" />
		<tag k="natural" v="water" />
		<tag k="ssr:stedsnr" v="419209" />
	</node>
	<node lat="58.9845083302574" lon="9.182997225262435" id="-26945">
		<tag k="name" v="Igletjenn" />
		<tag k="natural" v="water" />
		<tag k="ssr:stedsnr" v="420358" />
	</node>
	<node lat="59.110063889361705" lon="8.922497213498412" id="-26954">
		<tag k="name" v="Kåppårbukta" />
		<tag k="natural" v="bay" />
		<tag k="ssr:stedsnr" v="421344" />
	</node>
	<node lat="59.12313610956512" lon="9.019947229235763" id="-26956">
		<tag k="name" v="Bjordammen" />
		<tag k="ssr:stedsnr" v="421607" />
		<tag k="waterway" v="dam" />
	</node>
	<node lat="59.07458611484559" lon="8.766702782912594" id="-26958">
		<tag k="name" v="Tjennbekken" />
		<tag k="ssr:stedsnr" v="421615" />
		<tag k="waterway" v="stream" />
	</node>
	<node lat="59.04136111091457" lon="9.250755556225867" id="-26959">
		<tag k="name" v="Nedretrytetjenna" />
		<tag k="natural" v="water" />
		<tag k="ssr:stedsnr" v="421725" />
	</node>
	<node lat="59.24734166888033" lon="8.742852775403113" id="-26965">
		<tag k="name" v="Lona" />
		<tag k="natural" v="water" />
		<tag k="ssr:stedsnr" v="422105" />
		<tag k="water" v="lake" />
	</node>
	<node lat="59.23181388466829" lon="8.752397218936387" id="-26966">
		<tag k="name" v="Damtjenn" />
		<tag k="natural" v="water" />
		<tag k="ssr:stedsnr" v="422110" />
	</node>
	<node lat="59.05196944532033" lon="8.703619444129158" id="-26967">
		<tag k="name" v="Lauvdalsbekken" />
		<tag k="ssr:stedsnr" v="422311" />
		<tag k="waterway" v="stream" />
	</node>
	<node lat="58.946969444606275" lon="9.029944444088033" id="-26976">
		<tag k="name" v="Nedre Glopptjenna" />
		<tag k="natural" v="water" />
		<tag k="ssr:stedsnr" v="422944" />
	</node>
	<node lat="59.027374996959956" lon="8.809961113074165" id="-26983">
		<tag k="name" v="Nedre Kølltjenn" />
		<tag k="natural" v="water" />
		<tag k="ssr:stedsnr" v="423609" />
	</node>
	<node lat="59.019527774182826" lon="8.813224994513549" id="-26984">
		<tag k="name" v="Mjonvassundet" />
		<tag k="natural" v="strait" />
		<tag k="ssr:stedsnr" v="423619" />
	</node>
	<node lat="59.09700555500827" lon="9.006380554785872" id="-26987">
		<tag k="name" v="Båen" />
		<tag k="place" v="locality" />
		<tag k="seamark:type" v="rock" />
		<tag k="ssr:stedsnr" v="423730" />
	</node>
	<node lat="58.92770555460577" lon="9.12080277735607" id="-26995">
		<tag k="alt_name" v="Sandvatnet" />
		<tag k="name" v="Sandvann" />
		<tag k="natural" v="water" />
		<tag k="ssr:stedsnr" v="425863" />
		<tag k="water" v="lake" />
	</node>
	<node lat="59.22617777830509" lon="8.953455550427563" id="-27007">
		<tag k="name" v="Gusstulelva" />
		<tag k="ssr:stedsnr" v="426404" />
		<tag k="waterway" v="stream" />
	</node>
	<node lat="59.09267777968726" lon="8.805655555770137" id="-27011">
		<tag k="name" v="Svenstadåna" />
		<tag k="ssr:stedsnr" v="426590" />
		<tag k="waterway" v="stream" />
	</node>
	<node lat="59.16692500424323" lon="8.720036105548278" id="-27018">
		<tag k="name" v="Løkanbekken" />
		<tag k="ssr:stedsnr" v="426781" />
		<tag k="waterway" v="stream" />
	</node>
	<node lat="59.13010833553083" lon="9.112075006556644" id="-27022">
		<tag k="alt_name" v="Mørktjenn" />
		<tag k="name" v="Mørktjern" />
		<tag k="natural" v="water" />
		<tag k="ssr:stedsnr" v="427207" />
	</node>
	<node lat="59.01984722388063" lon="9.182488895616366" id="-27024">
		<tag k="alt_name" v="Lomtjenn" />
		<tag k="name" v="Lomtjern" />
		<tag k="natural" v="water" />
		<tag k="ssr:stedsnr" v="427278" />
	</node>
	<node lat="59.06217221967112" lon="8.870155552489914" id="-27026">
		<tag k="alt_name" v="Bjortjenn" />
		<tag k="name" v="Bjortjern" />
		<tag k="natural" v="water" />
		<tag k="ssr:stedsnr" v="427175" />
	</node>
	<node lat="59.06480000318021" lon="9.001566658944359" id="-27043">
		<tag k="name" v="Husdalstjennbekken" />
		<tag k="ssr:stedsnr" v="464814" />
		<tag k="waterway" v="stream" />
	</node>
	<node lat="59.066933336020476" lon="9.006066660892001" id="-27044">
		<tag k="name" v="Tellefstjenn" />
		<tag k="natural" v="water" />
		<tag k="ssr:stedsnr" v="464815" />
	</node>
	<node lat="59.04986389251487" lon="8.733883337050012" id="-27052">
		<tag k="name" v="Stardardtjennane" />
		<tag k="natural" v="water" />
		<tag k="ssr:stedsnr" v="465626" />
		<tag k="water" v="lake" />
	</node>
	<node lat="59.113236115325634" lon="9.04167500291561" id="-27058">
		<tag k="name" v="Askebekk" />
		<tag k="ssr:stedsnr" v="465709" />
		<tag k="waterway" v="stream" />
	</node>
	<node lat="59.03449721985386" lon="9.239330552415861" id="-27062">
		<tag k="name" v="Skåbukta" />
		<tag k="natural" v="bay" />
		<tag k="ssr:stedsnr" v="465724" />
	</node>
	<node lat="59.0069305591068" lon="9.217783335911024" id="-27066">
		<tag k="name" v="Leirødden" />
		<tag k="natural" v="cape" />
		<tag k="ssr:stedsnr" v="466010" />
	</node>
	<node lat="58.95344999693577" lon="9.122666673253478" id="-27081">
		<tag k="name" v="Hauglandsfossen" />
		<tag k="natural" v="waterfall" />
		<tag k="ssr:stedsnr" v="466966" />
	</node>
	<node lat="59.04065384492769" lon="8.834532942533185" id="-27088">
		<tag k="name" v="Onderhomstjenna" />
		<tag k="natural" v="water" />
		<tag k="ssr:stedsnr" v="480166" />
	</node>
	<node lat="58.979280558895276" lon="9.203502773579677" id="-27089">
		<tag k="name" v="Dyvikødden" />
		<tag k="natural" v="cape" />
		<tag k="ssr:stedsnr" v="480311" />
	</node>
	<node lat="58.90353333521768" lon="9.130936104675454" id="-27094">
		<tag k="name" v="Kalvvann" />
		<tag k="natural" v="water" />
		<tag k="ssr:stedsnr" v="480360" />
		<tag k="water" v="lake" />
	</node>
	<node lat="59.045011113938926" lon="8.84599722357215" id="-27098">
		<tag k="name" v="Tollhomslona" />
		<tag k="natural" v="water" />
		<tag k="ssr:stedsnr" v="481302" />
		<tag k="water" v="lake" />
	</node>
	<node lat="59.06595833600404" lon="8.792861104955398" id="-27106">
		<tag k="name" v="Sagfossen" />
		<tag k="natural" v="waterfall" />
		<tag k="ssr:stedsnr" v="481665" />
	</node>
	<node lat="59.159027779889406" lon="9.142902771715669" id="-27119">
		<tag k="name" v="Storfisktjenn" />
		<tag k="natural" v="water" />
		<tag k="ssr:stedsnr" v="482221" />
	</node>
	<node lat="59.13766944802729" lon="8.978113882917452" id="-27128">
		<tag k="name" v="Trøtangen" />
		<tag k="natural" v="cape" />
		<tag k="ssr:stedsnr" v="482619" />
	</node>
	<node lat="59.09708333356019" lon="8.96618055246003" id="-27132">
		<tag k="name" v="Strengen" />
		<tag k="natural" v="strait" />
		<tag k="ssr:stedsnr" v="482725" />
	</node>
	<node lat="59.028266667276384" lon="8.901691660456201" id="-27137">
		<tag k="name" v="Øvre Renskjerrvann" />
		<tag k="natural" v="water" />
		<tag k="ssr:stedsnr" v="483263" />
	</node>
	<node lat="59.01923055420658" lon="8.920236118332053" id="-27138">
		<tag k="name" v="Skreppetangen" />
		<tag k="natural" v="cape" />
		<tag k="ssr:stedsnr" v="483276" />
	</node>
	<node lat="59.02519166903994" lon="9.314744438750527" id="-27142">
		<tag k="name" v="Lindbukta" />
		<tag k="natural" v="bay" />
		<tag k="ssr:stedsnr" v="483802" />
	</node>
	<node lat="59.13674226647148" lon="8.84164899832058" id="-27150">
		<tag k="name" v="Vågslandskilen" />
		<tag k="natural" v="bay" />
		<tag k="ssr:stedsnr" v="484215" />
	</node>
	<node lat="59.014916666496475" lon="8.800758328437414" id="-27152">
		<tag k="name" v="Hellervasstjennane" />
		<tag k="natural" v="water" />
		<tag k="ssr:stedsnr" v="484558" />
		<tag k="water" v="lake" />
	</node>
	<node lat="59.032847223919944" lon="9.230999992956042" id="-27154">
		<tag k="name" v="De små Haukøyane" />
		<tag k="place" v="islet" />
		<tag k="ssr:stedsnr" v="484961" />
	</node>
	<node lat="59.03393055974466" lon="9.232786107369975" id="-27155">
		<tag k="name" v="Båtodden" />
		<tag k="natural" v="cape" />
		<tag k="ssr:stedsnr" v="484965" />
	</node>
	<node lat="59.10694167108819" lon="9.199683330119903" id="-27160">
		<tag k="alt_name" v="Krokvann" />
		<tag k="name" v="Krokvatnet" />
		<tag k="natural" v="water" />
		<tag k="ssr:stedsnr" v="486233" />
	</node>
	<node lat="59.11987777405212" lon="9.076233331831471" id="-27161">
		<tag k="alt_name" v="Øygardstjenna" />
		<tag k="name" v="Øygardstjørna" />
		<tag k="natural" v="water" />
		<tag k="ssr:stedsnr" v="486198" />
	</node>
	<node lat="59.22389722412608" lon="8.857175000773791" id="-27162">
		<tag k="alt_name" v="Heistadvatnet, l;Lille Heistadvannet" />
		<tag k="name" v="Litle Heistadvatnet" />
		<tag k="natural" v="water" />
		<tag k="ssr:stedsnr" v="486410" />
	</node>
	<node lat="59.243875004492175" lon="8.967172217987873" id="-27163">
		<tag k="alt_name" v="Samkomma" />
		<tag k="name" v="Samkom" />
		<tag k="place" v="locality" />
		<tag k="ssr:stedsnr" v="486412" />
	</node>
	<node lat="58.95281393348294" lon="9.08307669867876" id="-27164">
		<tag k="alt_name" v="Esptjenn" />
		<tag k="name" v="Espetjern" />
		<tag k="natural" v="water" />
		<tag k="ssr:stedsnr" v="486913" />
	</node>
	<node lat="58.95700000162839" lon="9.170280554359259" id="-27165">
		<tag k="alt_name" v="Stemtjenn" />
		<tag k="name" v="Stemtjern" />
		<tag k="natural" v="water" />
		<tag k="ssr:stedsnr" v="486919" />
	</node>
	<node lat="58.9528330660116" lon="9.199044882217686" id="-27166">
		<tag k="alt_name" v="Setertjennene" />
		<tag k="name" v="Sætertjernane" />
		<tag k="natural" v="water" />
		<tag k="ssr:stedsnr" v="486920" />
	</node>
	<node lat="58.99171110992458" lon="9.038936110622213" id="-27168">
		<tag k="name" v="Bjorstemmen" />
		<tag k="ssr:stedsnr" v="486958" />
		<tag k="waterway" v="dam" />
	</node>
	<node lat="58.991491664873685" lon="9.092716673686507" id="-27171">
		<tag k="alt_name" v="Storslåttvann" />
		<tag k="name" v="Storslåttvatnet" />
		<tag k="natural" v="water" />
		<tag k="ssr:stedsnr" v="486962" />
	</node>
	<node lat="58.990331313937816" lon="9.132642498957887" id="-27172">
		<tag k="alt_name" v="Svarttjenn" />
		<tag k="name" v="Svarttjern" />
		<tag k="natural" v="water" />
		<tag k="ssr:stedsnr" v="486964" />
	</node>
	<node lat="59.20827500113372" lon="8.79496944566034" id="-27180">
		<tag k="name" v="Ruesbekken" />
		<tag k="ssr:stedsnr" v="486876" />
		<tag k="waterway" v="stream" />
	</node>
	<node lat="59.00916388801119" lon="8.91863333322598" id="-27181">
		<tag k="name" v="Fiskelaus" />
		<tag k="natural" v="water" />
		<tag k="ssr:stedsnr" v="487006" />
	</node>
	<node lat="59.0204083302895" lon="8.886022225361874" id="-27182">
		<tag k="name" v="Torshøl" />
		<tag k="place" v="locality" />
		<tag k="ssr:stedsnr" v="487102" />
	</node>
	<node lat="59.025427776487646" lon="9.095500008031225" id="-27183">
		<tag k="alt_name" v="Bjortjenn" />
		<tag k="name" v="Bjortjern" />
		<tag k="natural" v="water" />
		<tag k="ssr:stedsnr" v="487110" />
	</node>
	<node lat="59.08863333148773" lon="9.157763895851947" id="-27186">
		<tag k="alt_name" v="Manntjenn" />
		<tag k="name" v="Manntjern" />
		<tag k="natural" v="water" />
		<tag k="ssr:stedsnr" v="487253" />
	</node>
	<node lat="59.001344444647806" lon="9.259808335563198" id="-27192">
		<tag k="alt_name" v="Djupdalsfjorden" />
		<tag k="name" v="Djupedalsfjorden" />
		<tag k="natural" v="bay" />
		<tag k="ssr:stedsnr" v="487716" />
	</node>
	<node lat="59.020630559246335" lon="8.79707222515717" id="-27195">
		<tag k="name" v="Lomkilen" />
		<tag k="place" v="locality" />
		<tag k="ssr:stedsnr" v="487484" />
	</node>
	<node lat="59.08110832999645" lon="8.73274999406736" id="-27196">
		<tag k="alt_name" v="Skattjenn" />
		<tag k="name" v="Skåltjørn" />
		<tag k="natural" v="water" />
		<tag k="ssr:stedsnr" v="487671" />
	</node>
	<node lat="58.92234444507507" lon="9.053883327842922" id="-27203">
		<tag k="name" v="Kilbudammen" />
		<tag k="ssr:stedsnr" v="509572" />
		<tag k="waterway" v="dam" />
	</node>
	<node lat="58.99136944047577" lon="8.984850004992342" id="-27204">
		<tag k="name" v="Skreddarlona" />
		<tag k="natural" v="water" />
		<tag k="ssr:stedsnr" v="509909" />
		<tag k="water" v="lake" />
	</node>
	<node lat="58.96627222595827" lon="9.132902775223743" id="-27208">
		<tag k="name" v="Tryttjennheia" />
		<tag k="natural" v="water" />
		<tag k="ssr:stedsnr" v="524721" />
	</node>
	<node lat="59.09419444690576" lon="9.144216674724587" id="-27210">
		<tag k="name" v="Standaren" />
		<tag k="natural" v="cape" />
		<tag k="ssr:stedsnr" v="525372" />
	</node>
	<node lat="59.22228610984351" lon="8.65358055563085" id="-27212">
		<tag k="name" v="Tverrbekk" />
		<tag k="ssr:stedsnr" v="525402" />
		<tag k="waterway" v="stream" />
	</node>
	<node lat="59.028427775306774" lon="9.084330552861825" id="-27215">
		<tag k="name" v="Mørktjenn" />
		<tag k="natural" v="water" />
		<tag k="ssr:stedsnr" v="525467" />
	</node>
	<node lat="59.04521666227715" lon="8.792008328111287" id="-27216">
		<tag k="name" v="Øyvasstjennbekken" />
		<tag k="ssr:stedsnr" v="525602" />
		<tag k="waterway" v="stream" />
	</node>
	<node lat="59.037358337507435" lon="8.81557222780184" id="-27217">
		<tag k="name" v="Nedre Skartjenn" />
		<tag k="natural" v="water" />
		<tag k="ssr:stedsnr" v="525607" />
	</node>
	<node lat="59.04432777917075" lon="8.77678888943987" id="-27219">
		<tag k="name" v="Øvre Hauklitjenna" />
		<tag k="natural" v="water" />
		<tag k="ssr:stedsnr" v="525623" />
	</node>
	<node lat="59.04283055912277" lon="9.3076583390826" id="-27221">
		<tag k="name" v="Sagelva" />
		<tag k="ssr:stedsnr" v="525565" />
		<tag k="waterway" v="stream" />
	</node>
	<node lat="58.91140000170666" lon="9.132188890792847" id="-27225">
		<tag k="name" v="Livstjenna" />
		<tag k="natural" v="water" />
		<tag k="ssr:stedsnr" v="526011" />
	</node>
	<node lat="58.94675555118788" lon="9.078866671361572" id="-27226">
		<tag k="name" v="Korsvannsdammen" />
		<tag k="ssr:stedsnr" v="525981" />
		<tag k="waterway" v="dam" />
	</node>
	<node lat="59.02360277889494" lon="9.119388884502516" id="-27232">
		<tag k="name" v="Slettåstjenna" />
		<tag k="natural" v="water" />
		<tag k="ssr:stedsnr" v="526467" />
	</node>
	<node lat="59.10265833367015" lon="9.209502769283795" id="-27235">
		<tag k="name" v="Trytetjenna" />
		<tag k="natural" v="water" />
		<tag k="ssr:stedsnr" v="526681" />
	</node>
	<node lat="59.00671944582584" lon="9.207352784080303" id="-27241">
		<tag k="name" v="Nordstrandøya" />
		<tag k="place" v="island" />
		<tag k="ssr:stedsnr" v="527012" />
	</node>
	<node lat="58.90108055655611" lon="9.173980559616762" id="-27260">
		<tag k="name" v="Bjørkkjerrdammen" />
		<tag k="natural" v="water" />
		<tag k="ssr:stedsnr" v="541416" />
		<tag k="water" v="pond" />
	</node>
	<node lat="58.975861113067324" lon="9.18620555477718" id="-27264">
		<tag k="name" v="Eiødden" />
		<tag k="natural" v="cape" />
		<tag k="ssr:stedsnr" v="541378" />
	</node>
	<node lat="59.1769083351797" lon="9.146516664267299" id="-27270">
		<tag k="name" v="Helsokøya" />
		<tag k="place" v="island" />
		<tag k="ssr:stedsnr" v="542206" />
	</node>
	<node lat="59.15246111403623" lon="9.10888611479834" id="-27273">
		<tag k="name" v="Lauvlonntjenna" />
		<tag k="natural" v="water" />
		<tag k="ssr:stedsnr" v="542223" />
	</node>
	<node lat="59.09653055798542" lon="9.06915276917588" id="-27274">
		<tag k="name" v="Oddebakken" />
		<tag k="natural" v="cape" />
		<tag k="ssr:stedsnr" v="542374" />
	</node>
	<node lat="59.035302780718915" lon="9.280022216509405" id="-27283">
		<tag k="name" v="Nedre Kleivtjenn" />
		<tag k="natural" v="water" />
		<tag k="ssr:stedsnr" v="542705" />
	</node>
	<node lat="59.06851389312031" lon="8.782169451771493" id="-27288">
		<tag k="name" v="Fiskekroken" />
		<tag k="place" v="islet" />
		<tag k="ssr:stedsnr" v="542676" />
	</node>
	<node lat="59.12884444529439" lon="8.826472217079328" id="-27290">
		<tag k="name" v="Skarvetjenna" />
		<tag k="natural" v="water" />
		<tag k="ssr:stedsnr" v="542819" />
	</node>
	<node lat="59.023524998052814" lon="9.211705546844122" id="-27292">
		<tag k="name" v="Bjorhusbukta" />
		<tag k="natural" v="bay" />
		<tag k="ssr:stedsnr" v="542888" />
	</node>
	<node lat="59.02301111420535" lon="9.216308339197415" id="-27293">
		<tag k="name" v="Elsbutangsundet" />
		<tag k="natural" v="strait" />
		<tag k="ssr:stedsnr" v="542890" />
	</node>
	<node lat="59.0269722187761" lon="9.210325006442238" id="-27294">
		<tag k="name" v="Kjørkebukta" />
		<tag k="natural" v="bay" />
		<tag k="ssr:stedsnr" v="542893" />
	</node>
	<node lat="59.04107500162485" lon="9.223188890816944" id="-27313">
		<tag k="name" v="Lilleskomakerøya" />
		<tag k="place" v="islet" />
		<tag k="ssr:stedsnr" v="544971" />
	</node>
	<node lat="59.00782222111391" lon="9.139952781488633" id="-27318">
		<tag k="alt_name" v="Langlemsvatnet, nedre;Nedre Langlemsvannet" />
		<tag k="name" v="Nedre Langlemsvatnet" />
		<tag k="natural" v="water" />
		<tag k="ssr:stedsnr" v="547024" />
	</node>
	<node lat="58.938641215114764" lon="9.188346435598643" id="-27320">
		<tag k="name" v="Dokktjern" />
		<tag k="natural" v="water" />
		<tag k="ssr:stedsnr" v="546792" />
	</node>
	<node lat="59.059474996938384" lon="9.007036102402779" id="-27321">
		<tag k="alt_name" v="Grunntjenn" />
		<tag k="name" v="Grunntjern" />
		<tag k="natural" v="water" />
		<tag k="ssr:stedsnr" v="547190" />
	</node>
	<node lat="59.06433333092581" lon="9.0978972218696" id="-27322">
		<tag k="alt_name" v="Tokke, øvre;Øvre Tokke;Toke, øvre;Toke" />
		<tag k="name" v="Øvre Toke" />
		<tag k="natural" v="water" />
		<tag k="ssr:stedsnr" v="547194" />
		<tag k="water" v="lake" />
	</node>
	<node lat="59.21244999856349" lon="9.139241665719835" id="-27325">
		<tag k="alt_name" v="Surtetjenn" />
		<tag k="name" v="Surtetjørna" />
		<tag k="natural" v="water" />
		<tag k="ssr:stedsnr" v="547367" />
	</node>
	<node lat="59.11632221939579" lon="9.091716669303702" id="-27328">
		<tag k="name" v="Oddane" />
		<tag k="natural" v="cape" />
		<tag k="ssr:stedsnr" v="547223" />
	</node>
	<node lat="59.09744166531822" lon="9.005630555952138" id="-27331">
		<tag k="name" v="Høl" />
		<tag k="natural" v="water" />
		<tag k="ssr:stedsnr" v="547267" />
	</node>
	<node lat="59.10585277951497" lon="8.958422213926294" id="-27332">
		<tag k="alt_name" v="Røsvikbukta" />
		<tag k="name" v="Rødsvikbukta" />
		<tag k="natural" v="bay" />
		<tag k="ssr:stedsnr" v="547268" />
	</node>
</osm>
