<?xml version="1.0" encoding="UTF-8"?>
<osm version="0.6" generator="osmapis">
	<node lat="59.18295833399193" lon="8.725786118707603" id="-25536">
		<tag k="name" v="Langmyr" />
		<tag k="natural" v="wetland" />
		<tag k="ssr:stedsnr" v="1804" />
	</node>
	<node lat="59.07146111188148" lon="8.728119450600952" id="-25548">
		<tag k="alt_name" v="Hegnemyra" />
		<tag k="name" v="Hegnemyrane" />
		<tag k="natural" v="wetland" />
		<tag k="ssr:stedsnr" v="2586" />
	</node>
	<node lat="58.9548111140109" lon="9.1572972308529" id="-25554">
		<tag k="name" v="Diplan" />
		<tag k="natural" v="wetland" />
		<tag k="ssr:stedsnr" v="231662" />
	</node>
	<node lat="59.002972221923855" lon="9.222141669097876" id="-25559">
		<tag k="name" v="Berøyskotet" />
		<tag k="place" v="locality" />
		<tag k="ssr:stedsnr" v="40057" />
	</node>
	<node lat="58.89565555530891" lon="9.144072225499684" id="-25563">
		<tag k="name" v="Grasåskjerr" />
		<tag k="natural" v="wetland" />
		<tag k="ssr:stedsnr" v="40361" />
	</node>
	<node lat="59.21250555905962" lon="8.794627782827792" id="-25564">
		<tag k="name" v="Salvesrensle" />
		<tag k="place" v="locality" />
		<tag k="ssr:stedsnr" v="237001" />
	</node>
	<node lat="59.22745278086161" lon="8.627122226694434" id="-25566">
		<tag k="name" v="Speldalsliane" />
		<tag k="place" v="locality" />
		<tag k="ssr:stedsnr" v="40415" />
	</node>
	<node lat="59.18047222331446" lon="9.007205547568969" id="-25571">
		<tag k="name" v="Postmyr" />
		<tag k="natural" v="wetland" />
		<tag k="ssr:stedsnr" v="40577" />
	</node>
	<node lat="59.100672225319386" lon="8.986744445625813" id="-25575">
		<tag k="name" v="Kålhageåsen" />
		<tag k="place" v="locality" />
		<tag k="ssr:stedsnr" v="40710" />
	</node>
	<node lat="58.98812221906631" lon="9.140538896957148" id="-25579">
		<tag k="name" v="Østre Stormyr" />
		<tag k="natural" v="wetland" />
		<tag k="ssr:stedsnr" v="40602" />
	</node>
	<node lat="59.048577777332476" lon="8.807922215902668" id="-25580">
		<tag k="name" v="Jonskås" />
		<tag k="natural" v="wetland" />
		<tag k="ssr:stedsnr" v="40612" />
	</node>
	<node lat="59.03716944675635" lon="8.826594450043832" id="-25581">
		<tag k="name" v="Blymyrskaret" />
		<tag k="place" v="locality" />
		<tag k="ssr:stedsnr" v="40620" />
	</node>
	<node lat="59.12072499786266" lon="9.211872230410957" id="-25582">
		<tag k="name" v="Spirmyra" />
		<tag k="natural" v="wetland" />
		<tag k="ssr:stedsnr" v="40672" />
	</node>
	<node lat="59.12221388832796" lon="9.206388884446477" id="-25583">
		<tag k="name" v="Tverrmyra" />
		<tag k="natural" v="wetland" />
		<tag k="ssr:stedsnr" v="40674" />
	</node>
	<node lat="59.111400000728246" lon="8.982602780859912" id="-25584">
		<tag k="name" v="Geitryggmyra" />
		<tag k="natural" v="wetland" />
		<tag k="ssr:stedsnr" v="40675" />
	</node>
	<node lat="59.04236110870019" lon="9.028813894933151" id="-25589">
		<tag k="name" v="Lille Skottfjellmyra" />
		<tag k="natural" v="wetland" />
		<tag k="ssr:stedsnr" v="40871" />
	</node>
	<node lat="59.050763892081065" lon="9.092555551059547" id="-25592">
		<tag k="name" v="Sønderå" />
		<tag k="place" v="locality" />
		<tag k="ssr:stedsnr" v="41505" />
	</node>
	<node lat="59.149972223485605" lon="8.93211944567646" id="-25594">
		<tag k="name" v="Koseplassen" />
		<tag k="place" v="locality" />
		<tag k="ssr:stedsnr" v="41402" />
	</node>
	<node lat="59.02641944143181" lon="9.149416664510191" id="-25598">
		<tag k="name" v="Tekslemyra" />
		<tag k="natural" v="wetland" />
		<tag k="ssr:stedsnr" v="41466" />
	</node>
	<node lat="59.218072221432266" lon="8.683769450767906" id="-25603">
		<tag k="name" v="Amtmannsbakken" />
		<tag k="place" v="locality" />
		<tag k="ssr:stedsnr" v="237416" />
	</node>
	<node lat="59.085961114656904" lon="9.189547220686569" id="-25607">
		<tag k="name" v="Bjønnmyra" />
		<tag k="natural" v="wetland" />
		<tag k="ssr:stedsnr" v="41817" />
	</node>
	<node lat="58.95542221940759" lon="9.126186109658123" id="-25609">
		<tag k="name" v="Fosstveitmyra" />
		<tag k="place" v="locality" />
		<tag k="ssr:stedsnr" v="41974" />
	</node>
	<node lat="59.14514444517581" lon="8.751058329002774" id="-25610">
		<tag k="name" v="Nybruhallen" />
		<tag k="place" v="locality" />
		<tag k="ssr:stedsnr" v="42825" />
	</node>
	<node lat="59.15794444675889" lon="8.760561115489423" id="-25611">
		<tag k="name" v="Lauvholta" />
		<tag k="place" v="locality" />
		<tag k="ssr:stedsnr" v="42827" />
	</node>
	<node lat="59.18403889207018" lon="8.814599995229232" id="-25614">
		<tag k="name" v="Langskår" />
		<tag k="place" v="locality" />
		<tag k="ssr:stedsnr" v="42902" />
	</node>
	<node lat="59.14528611306849" lon="8.77043610982717" id="-25615">
		<tag k="name" v="Eikmyr" />
		<tag k="natural" v="wetland" />
		<tag k="ssr:stedsnr" v="237846" />
	</node>
	<node lat="59.15583055235329" lon="8.806822222038774" id="-25616">
		<tag k="name" v="Kjørkjemyra" />
		<tag k="place" v="locality" />
		<tag k="ssr:stedsnr" v="237812" />
	</node>
	<node lat="58.93601110816129" lon="9.184086114415681" id="-25618">
		<tag k="name" v="Norddammane" />
		<tag k="natural" v="wetland" />
		<tag k="ssr:stedsnr" v="238484" />
	</node>
	<node lat="58.91667222666925" lon="9.184386113022398" id="-25625">
		<tag k="name" v="Hovtongmyra" />
		<tag k="natural" v="wetland" />
		<tag k="ssr:stedsnr" v="238449" />
	</node>
	<node lat="58.95826388726184" lon="9.214927771249778" id="-25629">
		<tag k="name" v="Bjelkemyra" />
		<tag k="natural" v="wetland" />
		<tag k="ssr:stedsnr" v="238472" />
	</node>
	<node lat="58.96611666836238" lon="9.216611111440855" id="-25630">
		<tag k="name" v="Mulemyra" />
		<tag k="natural" v="wetland" />
		<tag k="ssr:stedsnr" v="238473" />
	</node>
	<node lat="58.926625001895125" lon="9.179008329021787" id="-25631">
		<tag k="name" v="Stormyr" />
		<tag k="natural" v="wetland" />
		<tag k="ssr:stedsnr" v="238497" />
	</node>
	<node lat="59.08723889288971" lon="9.075772227140124" id="-25632">
		<tag k="name" v="Suggebråten" />
		<tag k="place" v="locality" />
		<tag k="ssr:stedsnr" v="239337" />
	</node>
	<node lat="59.22631666395918" lon="8.778522227968272" id="-25633">
		<tag k="name" v="Grinndalen" />
		<tag k="place" v="locality" />
		<tag k="ssr:stedsnr" v="239026" />
	</node>
	<node lat="59.27027222034698" lon="8.79443888020191" id="-25637">
		<tag k="name" v="Høgmyr" />
		<tag k="natural" v="wetland" />
		<tag k="ssr:stedsnr" v="239175" />
	</node>
	<node lat="59.105236107260716" lon="9.103305557870117" id="-25639">
		<tag k="name" v="Gasgiveren" />
		<tag k="place" v="locality" />
		<tag k="ssr:stedsnr" v="239265" />
	</node>
	<node lat="59.05931666375218" lon="9.12058333921165" id="-25649">
		<tag k="name" v="Grandalen" />
		<tag k="place" v="locality" />
		<tag k="ssr:stedsnr" v="239422" />
	</node>
	<node lat="59.056622219090876" lon="8.750316658781188" id="-25655">
		<tag k="name" v="Rolegheta" />
		<tag k="place" v="locality" />
		<tag k="ssr:stedsnr" v="239654" />
	</node>
	<node lat="59.227033333063545" lon="8.831616665203143" id="-25660">
		<tag k="name" v="Torslimyrane" />
		<tag k="natural" v="wetland" />
		<tag k="ssr:stedsnr" v="55018" />
	</node>
	<node lat="59.22676944210069" lon="8.794797224129093" id="-25662">
		<tag k="name" v="Bujordet" />
		<tag k="place" v="locality" />
		<tag k="ssr:stedsnr" v="55009" />
	</node>
	<node lat="59.14560555321381" lon="8.828763880468426" id="-25666">
		<tag k="landuse" v="meadow" />
		<tag k="name" v="Bøfeta" />
		<tag k="ssr:stedsnr" v="239845" />
	</node>
	<node lat="59.19516944395354" lon="8.791605549213399" id="-25668">
		<tag k="name" v="Samlingskåsa" />
		<tag k="place" v="locality" />
		<tag k="ssr:stedsnr" v="55995" />
	</node>
	<node lat="59.03412777642294" lon="9.187227776473485" id="-25671">
		<tag k="name" v="Storbråten" />
		<tag k="place" v="locality" />
		<tag k="ssr:stedsnr" v="240000" />
	</node>
	<node lat="59.04089999630221" lon="9.147961113918612" id="-25675">
		<tag k="historic" v="shieling" />
		<tag k="name" v="Nyseter" />
		<tag k="place" v="locality" />
		<tag k="ssr:stedsnr" v="239975" />
	</node>
	<node lat="59.05312499653262" lon="9.136100002687053" id="-25685">
		<tag k="name" v="Grønnvoll" />
		<tag k="place" v="locality" />
		<tag k="ssr:stedsnr" v="57076" />
	</node>
	<node lat="59.05332500000041" lon="9.122844445252955" id="-25686">
		<tag k="name" v="Langmyr" />
		<tag k="natural" v="wetland" />
		<tag k="ssr:stedsnr" v="57077" />
	</node>
	<node lat="59.240066665719326" lon="8.760352774065492" id="-25690">
		<tag k="name" v="Orreleiken" />
		<tag k="natural" v="wetland" />
		<tag k="ssr:stedsnr" v="240098" />
	</node>
	<node lat="59.078455556252806" lon="9.059447218451083" id="-25692">
		<tag k="name" v="Jerpetjennmyra" />
		<tag k="natural" v="wetland" />
		<tag k="ssr:stedsnr" v="57323" />
	</node>
	<node lat="59.07676666514835" lon="9.100411113622387" id="-25694">
		<tag k="name" v="Halvfardalsmoen" />
		<tag k="place" v="locality" />
		<tag k="ssr:stedsnr" v="57336" />
	</node>
	<node lat="59.19721944174914" lon="8.709961108579806" id="-25696">
		<tag k="name" v="Dansarberget" />
		<tag k="place" v="locality" />
		<tag k="ssr:stedsnr" v="57477" />
	</node>
	<node lat="59.10571666545241" lon="8.826561118317837" id="-25700">
		<tag k="name" v="Rustemyr" />
		<tag k="natural" v="wetland" />
		<tag k="ssr:stedsnr" v="57769" />
	</node>
	<node lat="59.068277774011996" lon="9.21478334179925" id="-25701">
		<tag k="name" v="Steinstykke" />
		<tag k="place" v="locality" />
		<tag k="ssr:stedsnr" v="57772" />
	</node>
	<node lat="59.06206944106714" lon="8.731950001196468" id="-25705">
		<tag k="name" v="Bjønndalsrompa" />
		<tag k="natural" v="wetland" />
		<tag k="ssr:stedsnr" v="57620" />
	</node>
	<node lat="59.12207222072169" lon="8.779711112241248" id="-25709">
		<tag k="name" v="Hestehommen" />
		<tag k="place" v="locality" />
		<tag k="ssr:stedsnr" v="57808" />
	</node>
	<node lat="59.19761667088386" lon="8.924599997413909" id="-25715">
		<tag k="historic" v="shieling" />
		<tag k="name" v="Blesdalseteren" />
		<tag k="place" v="locality" />
		<tag k="ssr:stedsnr" v="57974" />
	</node>
	<node lat="59.037027774248095" lon="9.166705556587615" id="-25716">
		<tag k="name" v="Hestdalskjerra" />
		<tag k="natural" v="wetland" />
		<tag k="ssr:stedsnr" v="57979" />
	</node>
	<node lat="59.17114722240239" lon="9.093158329954363" id="-25717">
		<tag k="name" v="Igletjennåsane" />
		<tag k="place" v="locality" />
		<tag k="ssr:stedsnr" v="58190" />
	</node>
	<node lat="58.99369444102101" lon="9.186794438521536" id="-25718">
		<tag k="name" v="Diplane" />
		<tag k="place" v="locality" />
		<tag k="ssr:stedsnr" v="59014" />
	</node>
	<node lat="59.24297778043667" lon="8.690347225995827" id="-25722">
		<tag k="name" v="Dyrsmyr" />
		<tag k="natural" v="wetland" />
		<tag k="ssr:stedsnr" v="59523" />
	</node>
	<node lat="59.03174721839156" lon="8.772588897576655" id="-25724">
		<tag k="name" v="Geitsvåa" />
		<tag k="place" v="locality" />
		<tag k="ssr:stedsnr" v="59579" />
	</node>
	<node lat="59.0290805558199" lon="8.81861943573632" id="-25725">
		<tag k="name" v="Småmyrane" />
		<tag k="natural" v="wetland" />
		<tag k="ssr:stedsnr" v="59586" />
	</node>
	<node lat="59.090044441359325" lon="8.818075004173284" id="-25733">
		<tag k="name" v="Tørrmodalsbråta" />
		<tag k="place" v="locality" />
		<tag k="ssr:stedsnr" v="59726" />
	</node>
	<node lat="59.08296388788868" lon="9.295844449117759" id="-25734">
		<tag k="name" v="Videmyra" />
		<tag k="natural" v="wetland" />
		<tag k="ssr:stedsnr" v="59608" />
	</node>
	<node lat="59.076997220994365" lon="9.291255555467282" id="-25735">
		<tag k="name" v="Grasdalsmyra" />
		<tag k="natural" v="wetland" />
		<tag k="ssr:stedsnr" v="59615" />
	</node>
	<node lat="59.17762777542362" lon="8.736691666717903" id="-25736">
		<tag k="name" v="Bjønnmyr" />
		<tag k="natural" v="wetland" />
		<tag k="ssr:stedsnr" v="59872" />
	</node>
	<node lat="59.09516666638579" lon="8.946588884551144" id="-25740">
		<tag k="name" v="Sandvikmyra" />
		<tag k="natural" v="wetland" />
		<tag k="ssr:stedsnr" v="240748" />
	</node>
	<node lat="59.03013055764546" lon="9.17001388977317" id="-25751">
		<tag k="name" v="Stormyra" />
		<tag k="natural" v="wetland" />
		<tag k="ssr:stedsnr" v="62110" />
	</node>
	<node lat="59.18489722268125" lon="8.700622215829116" id="-25784">
		<tag k="name" v="Siljestølmyra" />
		<tag k="natural" v="wetland" />
		<tag k="ssr:stedsnr" v="62818" />
	</node>
	<node lat="58.92551111196885" lon="9.183688892153686" id="-25787">
		<tag k="name" v="Storemyr" />
		<tag k="natural" v="wetland" />
		<tag k="ssr:stedsnr" v="62868" />
	</node>
	<node lat="59.16652777936621" lon="8.750666661774224" id="-25789">
		<tag k="name" v="Stormyr" />
		<tag k="natural" v="wetland" />
		<tag k="ssr:stedsnr" v="62767" />
	</node>
	<node lat="59.22589999609474" lon="8.7314222180271" id="-25794">
		<tag k="name" v="Kringlemyr" />
		<tag k="natural" v="wetland" />
		<tag k="ssr:stedsnr" v="241053" />
	</node>
	<node lat="59.223274998212695" lon="8.726108329460924" id="-25795">
		<tag k="historic" v="shieling" />
		<tag k="name" v="Tørstøl" />
		<tag k="place" v="locality" />
		<tag k="ssr:stedsnr" v="241055" />
	</node>
	<node lat="59.25533888835465" lon="8.791633326414543" id="-25796">
		<tag k="name" v="Kjovittmyrane" />
		<tag k="natural" v="wetland" />
		<tag k="ssr:stedsnr" v="63563" />
	</node>
	<node lat="59.111647218491065" lon="8.894277769657837" id="-25804">
		<tag k="name" v="Østgardsåsen" />
		<tag k="place" v="locality" />
		<tag k="ssr:stedsnr" v="241369" />
	</node>
	<node lat="59.06958333373972" lon="8.839786113962052" id="-25806">
		<tag k="name" v="Ytre kjørkemyrane" />
		<tag k="natural" v="wetland" />
		<tag k="ssr:stedsnr" v="241318" />
	</node>
	<node lat="59.076683333437956" lon="8.845861110197967" id="-25807">
		<tag k="name" v="Porsmyr" />
		<tag k="natural" v="wetland" />
		<tag k="ssr:stedsnr" v="241321" />
	</node>
	<node lat="59.07189999632852" lon="8.855508329284486" id="-25808">
		<tag k="name" v="Grytmyr" />
		<tag k="natural" v="wetland" />
		<tag k="ssr:stedsnr" v="241325" />
	</node>
	<node lat="59.25585833523579" lon="8.694894435756574" id="-25809">
		<tag k="name" v="Skarken" />
		<tag k="place" v="locality" />
		<tag k="ssr:stedsnr" v="241560" />
	</node>
	<node lat="59.25736944299762" lon="8.712349997262105" id="-25811">
		<tag k="name" v="Fetlia" />
		<tag k="place" v="locality" />
		<tag k="ssr:stedsnr" v="241565" />
	</node>
	<node lat="59.26913055987684" lon="8.718441668475911" id="-25812">
		<tag k="name" v="Tryttjennmyrane" />
		<tag k="natural" v="wetland" />
		<tag k="ssr:stedsnr" v="241525" />
	</node>
	<node lat="59.02349444600766" lon="8.764036111223579" id="-25814">
		<tag k="name" v="Vetingmyrane" />
		<tag k="natural" v="wetland" />
		<tag k="ssr:stedsnr" v="241574" />
	</node>
	<node lat="59.2078416672562" lon="8.833994448742153" id="-25825">
		<tag k="name" v="Stormyr" />
		<tag k="natural" v="wetland" />
		<tag k="ssr:stedsnr" v="241968" />
	</node>
	<node lat="59.139105553309605" lon="8.728966665030367" id="-25869">
		<tag k="alt_name" v="Dei Breide myrane" />
		<tag k="name" v="Breidemyra" />
		<tag k="natural" v="wetland" />
		<tag k="ssr:stedsnr" v="244723" />
	</node>
	<node lat="59.19213055281643" lon="8.687272222431828" id="-25884">
		<tag k="name" v="Bulimyrane" />
		<tag k="natural" v="wetland" />
		<tag k="ssr:stedsnr" v="244846" />
	</node>
	<node lat="59.112583336990774" lon="8.972969449454627" id="-25899">
		<tag k="name" v="Korsmyr" />
		<tag k="natural" v="wetland" />
		<tag k="ssr:stedsnr" v="100619" />
	</node>
	<node lat="58.91224167039919" lon="9.08248611133549" id="-25900">
		<tag k="name" v="Steinvannsslåtta" />
		<tag k="natural" v="wetland" />
		<tag k="ssr:stedsnr" v="100804" />
	</node>
	<node lat="58.97211666487678" lon="9.049016666772689" id="-25903">
		<tag k="name" v="Bronsmyr" />
		<tag k="natural" v="wetland" />
		<tag k="ssr:stedsnr" v="100866" />
	</node>
	<node lat="59.20921389331546" lon="9.126941659600698" id="-25906">
		<tag k="name" v="Moltemyr" />
		<tag k="natural" v="wetland" />
		<tag k="ssr:stedsnr" v="101070" />
	</node>
	<node lat="59.108863891644404" lon="8.83475000663187" id="-25909">
		<tag k="name" v="Vest i hallane" />
		<tag k="place" v="locality" />
		<tag k="ssr:stedsnr" v="101305" />
	</node>
	<node lat="59.03659722464717" lon="9.108794438751152" id="-25911">
		<tag k="name" v="Kallarmyra" />
		<tag k="natural" v="wetland" />
		<tag k="ssr:stedsnr" v="101469" />
	</node>
	<node lat="59.20742499809026" lon="8.664633328743395" id="-25912">
		<tag k="name" v="Stordalsmyra" />
		<tag k="natural" v="wetland" />
		<tag k="ssr:stedsnr" v="101380" />
	</node>
	<node lat="59.24006389337023" lon="8.618466666891935" id="-25914">
		<tag k="name" v="Den gamle leiken" />
		<tag k="place" v="locality" />
		<tag k="ssr:stedsnr" v="101523" />
	</node>
	<node lat="59.1062527807167" lon="9.178763886329262" id="-25918">
		<tag k="name" v="Lyngmyra" />
		<tag k="natural" v="wetland" />
		<tag k="ssr:stedsnr" v="101675" />
	</node>
	<node lat="59.0097000024911" lon="9.170855547552131" id="-25924">
		<tag k="name" v="Teremyr" />
		<tag k="natural" v="wetland" />
		<tag k="ssr:stedsnr" v="102017" />
	</node>
	<node lat="58.98631389090204" lon="9.067369451589352" id="-25928">
		<tag k="name" v="Kaldkjeldkjerra" />
		<tag k="natural" v="wetland" />
		<tag k="ssr:stedsnr" v="102715" />
	</node>
	<node lat="59.18733055454482" lon="8.928794449532107" id="-25935">
		<tag k="name" v="Einarbergja" />
		<tag k="place" v="locality" />
		<tag k="ssr:stedsnr" v="102987" />
	</node>
	<node lat="59.04398055267382" lon="8.857936108195208" id="-25946">
		<tag k="name" v="Stormyr" />
		<tag k="natural" v="wetland" />
		<tag k="ssr:stedsnr" v="117318" />
	</node>
	<node lat="59.26738333069792" lon="8.78541110671379" id="-25948">
		<tag k="name" v="Grønnhavremyra" />
		<tag k="natural" v="wetland" />
		<tag k="ssr:stedsnr" v="117209" />
	</node>
	<node lat="58.92338610810835" lon="9.209125002562658" id="-25952">
		<tag k="name" v="Krokmyrane" />
		<tag k="natural" v="wetland" />
		<tag k="ssr:stedsnr" v="117437" />
	</node>
	<node lat="59.07192499976696" lon="8.758358329796" id="-25957">
		<tag k="name" v="Laksvassmyra" />
		<tag k="natural" v="wetland" />
		<tag k="ssr:stedsnr" v="117636" />
	</node>
	<node lat="59.073983332687" lon="8.812747230377378" id="-25959">
		<tag k="name" v="Dukmyra" />
		<tag k="natural" v="wetland" />
		<tag k="ssr:stedsnr" v="117674" />
	</node>
	<node lat="59.06370277406059" lon="8.819052781238462" id="-25961">
		<tag k="name" v="Skarkebekkholene" />
		<tag k="place" v="locality" />
		<tag k="ssr:stedsnr" v="117687" />
	</node>
	<node lat="59.06774444456961" lon="8.781463886106215" id="-25962">
		<tag k="name" v="Listea" />
		<tag k="place" v="locality" />
		<tag k="ssr:stedsnr" v="117691" />
	</node>
	<node lat="59.237097225041" lon="8.726716674010735" id="-25964">
		<tag k="historic" v="shieling" />
		<tag k="name" v="Drengstøll" />
		<tag k="place" v="locality" />
		<tag k="ssr:stedsnr" v="118108" />
	</node>
	<node lat="59.265536115099614" lon="8.756894447646424" id="-25966">
		<tag k="name" v="Stridsmyr" />
		<tag k="natural" v="wetland" />
		<tag k="ssr:stedsnr" v="118082" />
	</node>
	<node lat="59.247672219723874" lon="8.759575005182649" id="-25967">
		<tag k="name" v="Midtbøkåsene" />
		<tag k="place" v="locality" />
		<tag k="ssr:stedsnr" v="118089" />
	</node>
	<node lat="59.14049999801026" lon="9.09614445183397" id="-25970">
		<tag k="name" v="Skjeleidkåsa" />
		<tag k="place" v="locality" />
		<tag k="ssr:stedsnr" v="118185" />
	</node>
	<node lat="59.126858331459765" lon="9.16032222158493" id="-25971">
		<tag k="name" v="Nedre Kubbemyr" />
		<tag k="natural" v="wetland" />
		<tag k="ssr:stedsnr" v="118191" />
	</node>
	<node lat="59.1981527743911" lon="8.717283340656362" id="-25978">
		<tag k="name" v="Lillehøymyr" />
		<tag k="natural" v="wetland" />
		<tag k="ssr:stedsnr" v="118471" />
	</node>
	<node lat="59.01009444882885" lon="9.148341662504677" id="-25979">
		<tag k="name" v="Laksvannstykket" />
		<tag k="place" v="locality" />
		<tag k="ssr:stedsnr" v="118484" />
	</node>
	<node lat="59.075016668349654" lon="8.818513894032831" id="-25981">
		<tag k="name" v="Øvretørrgransmyr" />
		<tag k="natural" v="wetland" />
		<tag k="ssr:stedsnr" v="118632" />
	</node>
	<node lat="59.063730556520284" lon="9.197083340040553" id="-25987">
		<tag k="name" v="Bujordskåtet" />
		<tag k="place" v="locality" />
		<tag k="ssr:stedsnr" v="118775" />
	</node>
	<node lat="59.25450833719867" lon="8.74845000257379" id="-25988">
		<tag k="name" v="Løitekollane" />
		<tag k="place" v="locality" />
		<tag k="ssr:stedsnr" v="119078" />
	</node>
	<node lat="59.173999995949956" lon="9.071652782111634" id="-25990">
		<tag k="name" v="Postmyr" />
		<tag k="natural" v="wetland" />
		<tag k="ssr:stedsnr" v="119170" />
	</node>
	<node lat="59.17171666984661" lon="9.072533340129851" id="-25991">
		<tag k="name" v="Sondsåsen" />
		<tag k="place" v="locality" />
		<tag k="ssr:stedsnr" v="119172" />
	</node>
	<node lat="59.17939444283446" lon="9.073772229326863" id="-25992">
		<tag k="name" v="Valane" />
		<tag k="natural" v="wetland" />
		<tag k="ssr:stedsnr" v="119173" />
	</node>
	<node lat="59.14609999811655" lon="8.844269438711503" id="-25995">
		<tag k="name" v="Linmyr" />
		<tag k="natural" v="wetland" />
		<tag k="ssr:stedsnr" v="119524" />
	</node>
	<node lat="59.11184722343005" lon="8.933994439283635" id="-25997">
		<tag k="name" v="Eikmyr" />
		<tag k="natural" v="wetland" />
		<tag k="ssr:stedsnr" v="119403" />
	</node>
	<node lat="59.11726388774024" lon="8.895497216202239" id="-25998">
		<tag k="name" v="Bjønndalstjenna" />
		<tag k="natural" v="wetland" />
		<tag k="ssr:stedsnr" v="119408" />
	</node>
	<node lat="59.08369444481344" lon="9.13285832978327" id="-25999">
		<tag k="name" v="Augtjennmyra" />
		<tag k="natural" v="wetland" />
		<tag k="ssr:stedsnr" v="119421" />
	</node>
	<node lat="59.09634444071145" lon="9.011427774647181" id="-26000">
		<tag k="name" v="Feta" />
		<tag k="natural" v="wetland" />
		<tag k="ssr:stedsnr" v="119711" />
	</node>
	<node lat="59.08969166724624" lon="9.04630278029464" id="-26001">
		<tag k="name" v="Langmyr" />
		<tag k="natural" v="wetland" />
		<tag k="ssr:stedsnr" v="119719" />
	</node>
	<node lat="59.09321944337665" lon="9.03387777693536" id="-26002">
		<tag k="name" v="Lillekjerr" />
		<tag k="natural" v="wetland" />
		<tag k="ssr:stedsnr" v="119721" />
	</node>
	<node lat="59.00481389017185" lon="9.307025008244041" id="-26004">
		<tag k="name" v="Kamperhaug" />
		<tag k="place" v="locality" />
		<tag k="ssr:stedsnr" v="119772" />
	</node>
	<node lat="59.09069722619639" lon="8.813824991371096" id="-26005">
		<tag k="name" v="Skosokkmyra" />
		<tag k="natural" v="wetland" />
		<tag k="ssr:stedsnr" v="119774" />
	</node>
	<node lat="59.08007222260637" lon="8.786819445657509" id="-26006">
		<tag k="name" v="Tørrmodalsmyra" />
		<tag k="natural" v="wetland" />
		<tag k="ssr:stedsnr" v="119776" />
	</node>
	<node lat="59.06998611034781" lon="8.981241662894579" id="-26008">
		<tag k="name" v="Lauvhommyra" />
		<tag k="natural" v="wetland" />
		<tag k="ssr:stedsnr" v="119792" />
	</node>
	<node lat="58.993219447297705" lon="8.950819441363683" id="-26010">
		<tag k="name" v="Rasmuskjerr" />
		<tag k="natural" v="wetland" />
		<tag k="ssr:stedsnr" v="119921" />
	</node>
	<node lat="59.06432222429421" lon="9.25147221571151" id="-26014">
		<tag k="name" v="Tverrmyrane" />
		<tag k="natural" v="wetland" />
		<tag k="ssr:stedsnr" v="119882" />
	</node>
	<node lat="59.0717055576227" lon="8.895069450766856" id="-26017">
		<tag k="name" v="Stormyrkjærret" />
		<tag k="place" v="locality" />
		<tag k="ssr:stedsnr" v="120267" />
	</node>
	<node lat="59.05500833655555" lon="8.93081667207205" id="-26021">
		<tag k="name" v="Venemyra" />
		<tag k="natural" v="wetland" />
		<tag k="ssr:stedsnr" v="122077" />
	</node>
	<node lat="59.20476666663575" lon="8.67631944239292" id="-26057">
		<tag k="name" v="Dammyrane" />
		<tag k="natural" v="wetland" />
		<tag k="ssr:stedsnr" v="123882" />
	</node>
	<node lat="59.17470000221184" lon="8.98448888642739" id="-26061">
		<tag k="name" v="Rønningen" />
		<tag k="place" v="locality" />
		<tag k="ssr:stedsnr" v="161550" />
	</node>
	<node lat="59.173008330684844" lon="8.982936117904691" id="-26062">
		<tag k="name" v="Haugen" />
		<tag k="place" v="locality" />
		<tag k="ssr:stedsnr" v="161555" />
	</node>
	<node lat="59.177836114880975" lon="9.006405563714077" id="-26063">
		<tag k="name" v="Jupmyr" />
		<tag k="natural" v="wetland" />
		<tag k="ssr:stedsnr" v="161564" />
	</node>
	<node lat="59.117249996337776" lon="8.97346665812796" id="-26069">
		<tag k="name" v="Bufjellmyra" />
		<tag k="natural" v="wetland" />
		<tag k="ssr:stedsnr" v="161629" />
	</node>
	<node lat="59.09343332941096" lon="8.732280554162896" id="-26074">
		<tag k="name" v="Trengslesteinane" />
		<tag k="natural" v="stone" />
		<tag k="ssr:stedsnr" v="161667" />
	</node>
	<node lat="59.01563055318959" lon="9.136819449201546" id="-26083">
		<tag k="name" v="Embretskjerr" />
		<tag k="natural" v="wetland" />
		<tag k="ssr:stedsnr" v="162454" />
	</node>
	<node lat="58.90444166478776" lon="9.148286109417503" id="-26087">
		<tag k="name" v="Kalvvannsura" />
		<tag k="natural" v="scree" />
		<tag k="ssr:stedsnr" v="162506" />
	</node>
	<node lat="59.10914166412309" lon="8.983541669638223" id="-26094">
		<tag k="name" v="Halfarmyr" />
		<tag k="natural" v="wetland" />
		<tag k="ssr:stedsnr" v="162707" />
	</node>
	<node lat="59.01018055353597" lon="9.174730552524588" id="-26098">
		<tag k="name" v="Rundmyr" />
		<tag k="natural" v="wetland" />
		<tag k="ssr:stedsnr" v="163009" />
	</node>
	<node lat="59.179872221017874" lon="8.806116658631215" id="-26102">
		<tag k="name" v="Futhola" />
		<tag k="place" v="locality" />
		<tag k="ssr:stedsnr" v="163906" />
	</node>
	<node lat="58.97137777501054" lon="9.186486106891978" id="-26111">
		<tag k="name" v="Torvhuset" />
		<tag k="natural" v="wetland" />
		<tag k="ssr:stedsnr" v="177370" />
	</node>
	<node lat="59.23073610681883" lon="8.975847219305297" id="-26118">
		<tag k="name" v="Elgmyr" />
		<tag k="natural" v="wetland" />
		<tag k="ssr:stedsnr" v="178519" />
	</node>
	<node lat="59.07711111161821" lon="8.78354165930152" id="-26124">
		<tag k="name" v="Trestikkelmyra" />
		<tag k="natural" v="wetland" />
		<tag k="ssr:stedsnr" v="178664" />
	</node>
	<node lat="59.06458055636491" lon="9.187272227174073" id="-26128">
		<tag k="name" v="Høydalsmyra" />
		<tag k="natural" v="wetland" />
		<tag k="ssr:stedsnr" v="178773" />
	</node>
	<node lat="59.24618611386419" lon="8.739161110249137" id="-26133">
		<tag k="name" v="Gryta" />
		<tag k="place" v="locality" />
		<tag k="ssr:stedsnr" v="179104" />
	</node>
	<node lat="59.19950277871061" lon="9.08220833930973" id="-26139">
		<tag k="name" v="Høymyråsane" />
		<tag k="place" v="locality" />
		<tag k="ssr:stedsnr" v="180070" />
	</node>
	<node lat="59.0629888854844" lon="8.85646944678613" id="-26142">
		<tag k="name" v="Ytre Sleggemyr" />
		<tag k="natural" v="wetland" />
		<tag k="ssr:stedsnr" v="180307" />
	</node>
	<node lat="59.07251388826843" lon="9.30221110964937" id="-26146">
		<tag k="name" v="Elgemyra" />
		<tag k="natural" v="wetland" />
		<tag k="ssr:stedsnr" v="180618" />
	</node>
	<node lat="59.066891669452986" lon="8.760047213541897" id="-26149">
		<tag k="name" v="Storeleirdalsmyr" />
		<tag k="natural" v="wetland" />
		<tag k="ssr:stedsnr" v="180661" />
	</node>
	<node lat="59.06926944805111" lon="8.773219448897729" id="-26150">
		<tag k="name" v="Lillevadmyr" />
		<tag k="natural" v="wetland" />
		<tag k="ssr:stedsnr" v="180664" />
	</node>
	<node lat="59.03007222266922" lon="8.814399993115714" id="-26151">
		<tag k="name" v="Kjøbenhavn" />
		<tag k="place" v="locality" />
		<tag k="ssr:stedsnr" v="180574" />
	</node>
	<node lat="59.20715000040216" lon="8.78122777595479" id="-26155">
		<tag k="name" v="Revebakken" />
		<tag k="place" v="locality" />
		<tag k="ssr:stedsnr" v="181023" />
	</node>
	<node lat="59.21193611237334" lon="8.778077769558575" id="-26156">
		<tag k="name" v="Flaten" />
		<tag k="place" v="locality" />
		<tag k="ssr:stedsnr" v="181026" />
	</node>
	<node lat="59.03578610675822" lon="9.101713895464203" id="-26165">
		<tag k="alt_name" v="Stormyr" />
		<tag k="name" v="Storemyra" />
		<tag k="natural" v="wetland" />
		<tag k="ssr:stedsnr" v="183099" />
	</node>
	<node lat="59.03018333486628" lon="8.74126111580863" id="-26177">
		<tag k="name" v="Benkane" />
		<tag k="place" v="locality" />
		<tag k="ssr:stedsnr" v="183404" />
	</node>
	<node lat="59.286950000777686" lon="8.640105548243444" id="-26189">
		<tag k="fixme" v="multiple name tags, choose one and add the other to alt_name" />
		<tag k="historic" v="shieling" />
		<tag k="name" v="Mørkvasslåtta;Køllingslåtta" />
		<tag k="place" v="locality" />
		<tag k="ssr:stedsnr" v="184734" />
	</node>
	<node lat="58.96131944746393" lon="9.096563887299626" id="-26201">
		<tag k="name" v="Stormyr" />
		<tag k="natural" v="wetland" />
		<tag k="ssr:stedsnr" v="221722" />
	</node>
	<node lat="58.99787222443022" lon="8.843058336486418" id="-26207">
		<tag k="historic" v="shieling" />
		<tag k="name" v="Seteren" />
		<tag k="place" v="locality" />
		<tag k="ssr:stedsnr" v="222121" />
	</node>
	<node lat="59.207425004482616" lon="8.961444436046172" id="-26213">
		<tag k="name" v="Røymyr" />
		<tag k="natural" v="wetland" />
		<tag k="ssr:stedsnr" v="222511" />
	</node>
	<node lat="59.00414444053669" lon="9.139041663084514" id="-26221">
		<tag k="name" v="Stokkbukjerret" />
		<tag k="natural" v="wetland" />
		<tag k="ssr:stedsnr" v="222470" />
	</node>
	<node lat="59.161000002447786" lon="9.173941668859676" id="-26223">
		<tag k="name" v="Vaskekjerrskotet" />
		<tag k="place" v="locality" />
		<tag k="ssr:stedsnr" v="222606" />
	</node>
	<node lat="59.11783055666966" lon="8.987688884125035" id="-26224">
		<tag k="name" v="Olaskås" />
		<tag k="place" v="locality" />
		<tag k="ssr:stedsnr" v="222624" />
	</node>
	<node lat="59.103286108873505" lon="8.976230563687647" id="-26227">
		<tag k="name" v="Kringlemyråsen" />
		<tag k="place" v="locality" />
		<tag k="ssr:stedsnr" v="222674" />
	</node>
	<node lat="59.104886110668744" lon="9.049036109618653" id="-26229">
		<tag k="name" v="Studinåsen" />
		<tag k="place" v="locality" />
		<tag k="ssr:stedsnr" v="222689" />
	</node>
	<node lat="58.963786110664444" lon="9.038408333705654" id="-26232">
		<tag k="name" v="Lyngkjerr" />
		<tag k="natural" v="wetland" />
		<tag k="ssr:stedsnr" v="222910" />
	</node>
	<node lat="59.01431944874152" lon="9.166991670224084" id="-26233">
		<tag k="name" v="Soltjennmoen" />
		<tag k="place" v="locality" />
		<tag k="ssr:stedsnr" v="222917" />
	</node>
	<node lat="58.974350000587314" lon="9.2403499983224" id="-26236">
		<tag k="name" v="De krokete myrane" />
		<tag k="natural" v="wetland" />
		<tag k="ssr:stedsnr" v="223123" />
	</node>
	<node lat="58.96922778160286" lon="9.234016673948142" id="-26237">
		<tag k="name" v="Bjønnmyra" />
		<tag k="natural" v="wetland" />
		<tag k="ssr:stedsnr" v="223127" />
	</node>
	<node lat="59.175769445072724" lon="8.755997223687864" id="-26238">
		<tag k="name" v="Stormyr" />
		<tag k="natural" v="wetland" />
		<tag k="ssr:stedsnr" v="222875" />
	</node>
	<node lat="58.895574998677525" lon="9.151772223361846" id="-26246">
		<tag k="name" v="Lille Mørlandsmyr" />
		<tag k="natural" v="wetland" />
		<tag k="ssr:stedsnr" v="223393" />
	</node>
	<node lat="59.06498055111094" lon="9.078272230052587" id="-26249">
		<tag k="name" v="Åsanjordet" />
		<tag k="place" v="locality" />
		<tag k="ssr:stedsnr" v="223510" />
	</node>
	<node lat="58.98074444390074" lon="9.161208336181755" id="-26251">
		<tag k="name" v="Tømmermyr" />
		<tag k="natural" v="wetland" />
		<tag k="ssr:stedsnr" v="223630" />
	</node>
	<node lat="58.97036110894353" lon="9.12088333698189" id="-26252">
		<tag k="name" v="Møltekjerr" />
		<tag k="natural" v="wetland" />
		<tag k="ssr:stedsnr" v="223708" />
	</node>
	<node lat="59.004047218725745" lon="9.18216110979389" id="-26253">
		<tag k="name" v="Fuglmyra" />
		<tag k="natural" v="wetland" />
		<tag k="ssr:stedsnr" v="224006" />
	</node>
	<node lat="59.01638332965217" lon="8.852877785409202" id="-26256">
		<tag k="name" v="Rauenskjerr" />
		<tag k="place" v="locality" />
		<tag k="ssr:stedsnr" v="224226" />
	</node>
	<node lat="59.21195833716847" lon="8.700102774107085" id="-26258">
		<tag k="name" v="Myrlandskåsa" />
		<tag k="place" v="locality" />
		<tag k="ssr:stedsnr" v="224407" />
	</node>
	<node lat="59.071497218933246" lon="9.33983055580454" id="-26260">
		<tag k="name" v="Vimpelen" />
		<tag k="place" v="locality" />
		<tag k="ssr:stedsnr" v="224500" />
	</node>
	<node lat="59.161594441565185" lon="8.925991659051578" id="-26261">
		<tag k="name" v="Stretkleiv" />
		<tag k="place" v="locality" />
		<tag k="ssr:stedsnr" v="224393" />
	</node>
	<node lat="59.18054722249975" lon="8.786027776072872" id="-26267">
		<tag k="name" v="Hova" />
		<tag k="place" v="locality" />
		<tag k="ssr:stedsnr" v="224899" />
	</node>
	<node lat="59.21954722173469" lon="8.690647230310017" id="-26269">
		<tag k="name" v="Skarkollane" />
		<tag k="place" v="locality" />
		<tag k="ssr:stedsnr" v="237415" />
	</node>
	<node lat="59.18801389055647" lon="8.820422216548652" id="-26270">
		<tag k="name" v="Stokkmyr" />
		<tag k="natural" v="wetland" />
		<tag k="ssr:stedsnr" v="237979" />
	</node>
	<node lat="58.89622500142441" lon="9.167486104933655" id="-26274">
		<tag k="name" v="Vindgaulen" />
		<tag k="natural" v="wetland" />
		<tag k="ssr:stedsnr" v="238413" />
	</node>
	<node lat="58.922625001081656" lon="9.190150008086484" id="-26275">
		<tag k="name" v="Store Elsmyr" />
		<tag k="natural" v="wetland" />
		<tag k="ssr:stedsnr" v="238433" />
	</node>
	<node lat="58.90047777380606" lon="9.173880546975285" id="-26276">
		<tag k="name" v="Bjørkkjerra" />
		<tag k="natural" v="wetland" />
		<tag k="ssr:stedsnr" v="238437" />
	</node>
	<node lat="58.96950278147699" lon="9.18221666972723" id="-26279">
		<tag k="name" v="Kålkjerr" />
		<tag k="natural" v="wetland" />
		<tag k="ssr:stedsnr" v="238377" />
	</node>
	<node lat="59.05167222477776" lon="9.134083332681678" id="-26283">
		<tag k="name" v="Hesthagen" />
		<tag k="place" v="locality" />
		<tag k="ssr:stedsnr" v="239078" />
	</node>
	<node lat="59.26127221781031" lon="8.723694447390224" id="-26284">
		<tag k="name" v="Østjordbronane" />
		<tag k="place" v="locality" />
		<tag k="ssr:stedsnr" v="239084" />
	</node>
	<node lat="59.15286944142941" lon="9.061375002019563" id="-26287">
		<tag k="name" v="Refsdalåsen" />
		<tag k="place" v="locality" />
		<tag k="ssr:stedsnr" v="239230" />
	</node>
	<node lat="59.00603055244213" lon="8.903291671659362" id="-26288">
		<tag k="name" v="Nedre Krokbekkstea" />
		<tag k="natural" v="wetland" />
		<tag k="ssr:stedsnr" v="239232" />
	</node>
	<node lat="59.07574444349529" lon="9.112858335900034" id="-26290">
		<tag k="name" v="Bjønnmyr" />
		<tag k="natural" v="wetland" />
		<tag k="ssr:stedsnr" v="239334" />
	</node>
	<node lat="59.202544445912054" lon="8.716522221495582" id="-26294">
		<tag k="name" v="Kakelomsfjella" />
		<tag k="place" v="locality" />
		<tag k="ssr:stedsnr" v="239483" />
	</node>
	<node lat="59.157102779407786" lon="8.988236116213956" id="-26296">
		<tag k="name" v="Ellingsmyr" />
		<tag k="natural" v="wetland" />
		<tag k="ssr:stedsnr" v="239608" />
	</node>
	<node lat="59.12420278048308" lon="9.040258332202598" id="-26297">
		<tag k="name" v="Kursdalsmoen" />
		<tag k="place" v="locality" />
		<tag k="ssr:stedsnr" v="239613" />
	</node>
	<node lat="59.11609444391817" lon="9.24088333267401" id="-26303">
		<tag k="historic" v="shieling" />
		<tag k="name" v="Ellingseter" />
		<tag k="place" v="locality" />
		<tag k="ssr:stedsnr" v="239696" />
	</node>
	<node lat="59.078197221251884" lon="8.993066674816113" id="-26305">
		<tag k="name" v="Bringbermyra" />
		<tag k="natural" v="wetland" />
		<tag k="ssr:stedsnr" v="239813" />
	</node>
	<node lat="59.143461114003884" lon="8.74621665973261" id="-26306">
		<tag k="name" v="Lindalskåsa" />
		<tag k="natural" v="wetland" />
		<tag k="ssr:stedsnr" v="239880" />
	</node>
	<node lat="59.074141665568675" lon="9.227236118991224" id="-26309">
		<tag k="name" v="Klingermyr" />
		<tag k="natural" v="wetland" />
		<tag k="ssr:stedsnr" v="240890" />
	</node>
	<node lat="59.21250555334311" lon="8.791144439509408" id="-26310">
		<tag k="name" v="Kolbånn" />
		<tag k="place" v="locality" />
		<tag k="ssr:stedsnr" v="241039" />
	</node>
	<node lat="59.10499444398467" lon="8.890166661919158" id="-26312">
		<tag k="name" v="Eikefet" />
		<tag k="place" v="locality" />
		<tag k="ssr:stedsnr" v="241288" />
	</node>
	<node lat="59.10202500022576" lon="8.87537777355458" id="-26314">
		<tag k="name" v="Bjønnbekkhølta" />
		<tag k="place" v="locality" />
		<tag k="ssr:stedsnr" v="241385" />
	</node>
	<node lat="59.11688611084139" lon="8.849922218720566" id="-26315">
		<tag k="name" v="Heststeinen" />
		<tag k="natural" v="stone" />
		<tag k="ssr:stedsnr" v="241388" />
	</node>
	<node lat="59.16818055164542" lon="8.694686105321587" id="-26318">
		<tag k="name" v="Viglandsmyrane" />
		<tag k="natural" v="wetland" />
		<tag k="ssr:stedsnr" v="241482" />
	</node>
	<node lat="59.09669444689486" lon="9.017141670849321" id="-26320">
		<tag k="name" v="Myra" />
		<tag k="natural" v="wetland" />
		<tag k="ssr:stedsnr" v="241694" />
	</node>
	<node lat="59.080444448661524" lon="8.830266664500527" id="-26326">
		<tag k="name" v="Kolbånn" />
		<tag k="place" v="locality" />
		<tag k="ssr:stedsnr" v="241727" />
	</node>
	<node lat="58.98181944706558" lon="9.016958334071456" id="-26372">
		<tag k="name" v="Korsmyr" />
		<tag k="natural" v="wetland" />
		<tag k="ssr:stedsnr" v="282876" />
	</node>
	<node lat="59.09074722196636" lon="8.853933339181056" id="-26379">
		<tag k="name" v="Heimbekkmyra" />
		<tag k="natural" v="wetland" />
		<tag k="ssr:stedsnr" v="283221" />
	</node>
	<node lat="59.11532499992704" lon="9.113344449809425" id="-26380">
		<tag k="name" v="Kartkjerra" />
		<tag k="natural" v="wetland" />
		<tag k="ssr:stedsnr" v="283269" />
	</node>
	<node lat="59.03908888941082" lon="9.103500007345632" id="-26382">
		<tag k="name" v="Lillemyr" />
		<tag k="natural" v="wetland" />
		<tag k="ssr:stedsnr" v="283421" />
	</node>
	<node lat="59.03957499599482" lon="9.088041672145126" id="-26383">
		<tag k="name" v="Måbustea" />
		<tag k="natural" v="wetland" />
		<tag k="ssr:stedsnr" v="283422" />
	</node>
	<node lat="59.18651111547681" lon="9.030022225010443" id="-26388">
		<tag k="name" v="Mærgjitsmyr" />
		<tag k="natural" v="wetland" />
		<tag k="ssr:stedsnr" v="283520" />
	</node>
	<node lat="59.18624722434519" lon="9.019763888085594" id="-26389">
		<tag k="name" v="Sahara" />
		<tag k="natural" v="wetland" />
		<tag k="ssr:stedsnr" v="283523" />
	</node>
	<node lat="59.0501972181783" lon="8.797938890815558" id="-26391">
		<tag k="name" v="Stormyrheia" />
		<tag k="place" v="locality" />
		<tag k="ssr:stedsnr" v="283572" />
	</node>
	<node lat="59.14195278050351" lon="9.179358327304234" id="-26396">
		<tag k="name" v="Orremyr" />
		<tag k="natural" v="wetland" />
		<tag k="ssr:stedsnr" v="283619" />
	</node>
	<node lat="58.97295833671501" lon="9.160650006211196" id="-26399">
		<tag k="name" v="Krestensbråt" />
		<tag k="place" v="locality" />
		<tag k="ssr:stedsnr" v="283681" />
	</node>
	<node lat="59.103561109264824" lon="8.981088883846574" id="-26400">
		<tag k="name" v="Høgheikjerret" />
		<tag k="natural" v="wetland" />
		<tag k="ssr:stedsnr" v="283684" />
	</node>
	<node lat="59.10019722194206" lon="8.970786103478575" id="-26403">
		<tag k="name" v="Sandsmyr" />
		<tag k="natural" v="wetland" />
		<tag k="ssr:stedsnr" v="283690" />
	</node>
	<node lat="59.056474996649115" lon="9.03719722695344" id="-26408">
		<tag k="name" v="Tverrmyr" />
		<tag k="natural" v="wetland" />
		<tag k="ssr:stedsnr" v="283790" />
	</node>
	<node lat="59.190919447068005" lon="8.75353611840079" id="-26409">
		<tag k="name" v="Kåsene" />
		<tag k="place" v="locality" />
		<tag k="ssr:stedsnr" v="283972" />
	</node>
	<node lat="59.200933332283086" lon="8.668377773252155" id="-26419">
		<tag k="name" v="Røslimyra" />
		<tag k="natural" v="wetland" />
		<tag k="ssr:stedsnr" v="284185" />
	</node>
	<node lat="58.95479444266964" lon="9.062838890151017" id="-26420">
		<tag k="name" v="Barbuslåtta" />
		<tag k="natural" v="wetland" />
		<tag k="ssr:stedsnr" v="284307" />
	</node>
	<node lat="58.96071110934294" lon="9.106974998253166" id="-26421">
		<tag k="name" v="Revkjerra" />
		<tag k="natural" v="wetland" />
		<tag k="ssr:stedsnr" v="284314" />
	</node>
	<node lat="59.185113891382684" lon="8.906786116084161" id="-26424">
		<tag k="name" v="Kvennmyra" />
		<tag k="natural" v="wetland" />
		<tag k="ssr:stedsnr" v="284476" />
	</node>
	<node lat="59.16775278170665" lon="8.919741660591713" id="-26426">
		<tag k="name" v="Fyllingsmuren" />
		<tag k="place" v="locality" />
		<tag k="ssr:stedsnr" v="284488" />
	</node>
	<node lat="59.04551944869927" lon="9.074311109021659" id="-26427">
		<tag k="name" v="Stemtjennmyra" />
		<tag k="natural" v="wetland" />
		<tag k="ssr:stedsnr" v="284491" />
	</node>
	<node lat="59.104641669216015" lon="8.952066671833402" id="-26430">
		<tag k="name" v="Maristeinen" />
		<tag k="natural" v="stone" />
		<tag k="ssr:stedsnr" v="284690" />
	</node>
	<node lat="59.026433331138854" lon="9.043561113146465" id="-26432">
		<tag k="name" v="Ormtjennmyr" />
		<tag k="natural" v="wetland" />
		<tag k="ssr:stedsnr" v="284879" />
	</node>
	<node lat="59.18913333232825" lon="8.839525007343441" id="-26434">
		<tag k="name" v="Kringlemyr" />
		<tag k="natural" v="wetland" />
		<tag k="ssr:stedsnr" v="284981" />
	</node>
	<node lat="59.18556389326146" lon="8.912916664126476" id="-26435">
		<tag k="name" v="Berstadkjerra" />
		<tag k="place" v="locality" />
		<tag k="ssr:stedsnr" v="284984" />
	</node>
	<node lat="59.21806944852025" lon="8.798197229007167" id="-26438">
		<tag k="name" v="Lislekås" />
		<tag k="place" v="locality" />
		<tag k="ssr:stedsnr" v="298004" />
	</node>
	<node lat="59.21124999763863" lon="8.741761109267149" id="-26447">
		<tag k="name" v="Presteveimyra" />
		<tag k="natural" v="wetland" />
		<tag k="ssr:stedsnr" v="298977" />
	</node>
	<node lat="59.206383333266295" lon="8.779747228833125" id="-26449">
		<tag k="name" v="Øyane" />
		<tag k="place" v="locality" />
		<tag k="ssr:stedsnr" v="298993" />
	</node>
	<node lat="59.08316667064564" lon="8.895813897489877" id="-26453">
		<tag k="historic" v="shieling" />
		<tag k="name" v="Viusseteren" />
		<tag k="place" v="locality" />
		<tag k="ssr:stedsnr" v="299294" />
	</node>
	<node lat="59.076852778572096" lon="8.808772220574863" id="-26458">
		<tag k="name" v="Skanteplassrenna" />
		<tag k="place" v="locality" />
		<tag k="ssr:stedsnr" v="299692" />
	</node>
	<node lat="59.13676944573482" lon="8.804633329688281" id="-26460">
		<tag k="name" v="Orremyra" />
		<tag k="natural" v="wetland" />
		<tag k="ssr:stedsnr" v="299823" />
	</node>
	<node lat="59.19254444273853" lon="9.14219166539852" id="-26462">
		<tag k="name" v="Vintermyr" />
		<tag k="natural" v="wetland" />
		<tag k="ssr:stedsnr" v="300093" />
	</node>
	<node lat="59.18908333143812" lon="9.095050008500653" id="-26474">
		<tag k="name" v="Sætremoen" />
		<tag k="place" v="locality" />
		<tag k="ssr:stedsnr" v="301072" />
	</node>
	<node lat="59.03025278073663" lon="8.84526110908287" id="-26478">
		<tag k="name" v="Grasdalen" />
		<tag k="place" v="locality" />
		<tag k="ssr:stedsnr" v="301179" />
	</node>
	<node lat="59.12006110720387" lon="8.870272219567669" id="-26479">
		<tag k="name" v="Grytåsen" />
		<tag k="place" v="locality" />
		<tag k="ssr:stedsnr" v="301402" />
	</node>
	<node lat="59.064072225968104" lon="9.294716669667505" id="-26480">
		<tag k="name" v="Moltekjerr" />
		<tag k="natural" v="wetland" />
		<tag k="ssr:stedsnr" v="301625" />
	</node>
	<node lat="59.070025000597234" lon="8.750458326275174" id="-26481">
		<tag k="name" v="Holmekåsene" />
		<tag k="place" v="locality" />
		<tag k="ssr:stedsnr" v="301645" />
	</node>
	<node lat="59.068480557283735" lon="8.766252778427754" id="-26482">
		<tag k="name" v="Øljesteinen" />
		<tag k="natural" v="stone" />
		<tag k="ssr:stedsnr" v="301660" />
	</node>
	<node lat="59.1168722181511" lon="8.875447216175342" id="-26483">
		<tag k="name" v="Mønsås" />
		<tag k="place" v="locality" />
		<tag k="ssr:stedsnr" v="301377" />
	</node>
	<node lat="59.06405278103632" lon="9.321633325081388" id="-26485">
		<tag k="name" v="Bråtanskåtet" />
		<tag k="place" v="locality" />
		<tag k="ssr:stedsnr" v="301524" />
	</node>
	<node lat="59.06823611189217" lon="8.99276944290122" id="-26488">
		<tag k="name" v="Femyr" />
		<tag k="natural" v="wetland" />
		<tag k="ssr:stedsnr" v="301776" />
	</node>
	<node lat="59.06329722558411" lon="8.900802776599557" id="-26491">
		<tag k="name" v="Bulimyrane" />
		<tag k="natural" v="wetland" />
		<tag k="ssr:stedsnr" v="302307" />
	</node>
	<node lat="59.236483333288206" lon="8.703813882043557" id="-26492">
		<tag k="name" v="Deildmyr" />
		<tag k="natural" v="wetland" />
		<tag k="ssr:stedsnr" v="302516" />
	</node>
	<node lat="59.14637777651535" lon="9.025950004320167" id="-26494">
		<tag k="name" v="Kåsmyra" />
		<tag k="natural" v="wetland" />
		<tag k="ssr:stedsnr" v="464613" />
	</node>
	<node lat="59.10096110727558" lon="8.964169438721878" id="-26511">
		<tag k="name" v="Leirbekkmyra" />
		<tag k="natural" v="wetland" />
		<tag k="ssr:stedsnr" v="464682" />
	</node>
	<node lat="59.11046388756206" lon="8.973230563894516" id="-26517">
		<tag k="name" v="Kalstadkjerra" />
		<tag k="natural" v="wetland" />
		<tag k="ssr:stedsnr" v="464644" />
	</node>
	<node lat="58.959463887033586" lon="9.11632499787434" id="-26521">
		<tag k="name" v="Kalvkjerra" />
		<tag k="natural" v="wetland" />
		<tag k="ssr:stedsnr" v="464828" />
	</node>
	<node lat="59.20646110672686" lon="8.99245277360484" id="-26524">
		<tag k="name" v="Aslakbumyra" />
		<tag k="natural" v="wetland" />
		<tag k="ssr:stedsnr" v="305441" />
	</node>
	<node lat="59.216808332043186" lon="8.848869445266184" id="-26525">
		<tag k="alt_name" v="Breistein" />
		<tag k="name" v="Breidstein" />
		<tag k="natural" v="stone" />
		<tag k="ssr:stedsnr" v="305455" />
	</node>
	<node lat="58.96731388469428" lon="9.07529444078741" id="-26529">
		<tag k="name" v="Småmyrane" />
		<tag k="natural" v="wetland" />
		<tag k="ssr:stedsnr" v="464872" />
	</node>
	<node lat="58.96289722408036" lon="9.087822229808515" id="-26531">
		<tag k="name" v="Grasåsmyrane" />
		<tag k="natural" v="wetland" />
		<tag k="ssr:stedsnr" v="464882" />
	</node>
	<node lat="59.25928055239579" lon="8.723044446007476" id="-26547">
		<tag k="name" v="Østjordet" />
		<tag k="place" v="locality" />
		<tag k="ssr:stedsnr" v="465132" />
	</node>
	<node lat="59.26397221998578" lon="8.808005555074832" id="-26548">
		<tag k="alt_name" v="Grauteknapp" />
		<tag k="name" v="Grautknapp" />
		<tag k="natural" v="wetland" />
		<tag k="ssr:stedsnr" v="306520" />
	</node>
	<node lat="59.04239444479854" lon="8.88336667289518" id="-26549">
		<tag k="name" v="Bjørkslåttene" />
		<tag k="natural" v="wetland" />
		<tag k="ssr:stedsnr" v="465191" />
	</node>
	<node lat="59.11152222660737" lon="9.19325278031433" id="-26563">
		<tag k="name" v="Krokvannstea" />
		<tag k="natural" v="wetland" />
		<tag k="ssr:stedsnr" v="465681" />
	</node>
	<node lat="59.11320833549747" lon="9.21356110463148" id="-26565">
		<tag k="name" v="Valborgsslåtte" />
		<tag k="natural" v="wetland" />
		<tag k="ssr:stedsnr" v="465683" />
	</node>
	<node lat="59.22755833758713" lon="8.651941672666883" id="-26566">
		<tag k="name" v="Larskås" />
		<tag k="place" v="locality" />
		<tag k="ssr:stedsnr" v="465391" />
	</node>
	<node lat="59.228580557609185" lon="8.63361110915959" id="-26567">
		<tag k="name" v="Grasdalsmyra" />
		<tag k="natural" v="wetland" />
		<tag k="ssr:stedsnr" v="465393" />
	</node>
	<node lat="59.173394440423706" lon="8.764105554492959" id="-26573">
		<tag k="name" v="Svartnetten" />
		<tag k="place" v="locality" />
		<tag k="ssr:stedsnr" v="465897" />
	</node>
	<node lat="59.0141944430194" lon="9.17144444233822" id="-26575">
		<tag k="name" v="Soltjennhefte" />
		<tag k="place" v="locality" />
		<tag k="ssr:stedsnr" v="465934" />
	</node>
	<node lat="59.17691944440779" lon="8.910616667359754" id="-26580">
		<tag k="name" v="Bekkrusmarka" />
		<tag k="place" v="locality" />
		<tag k="ssr:stedsnr" v="466481" />
	</node>
	<node lat="59.0307583317315" lon="9.141449993309648" id="-26581">
		<tag k="name" v="Bjørkmyra" />
		<tag k="natural" v="wetland" />
		<tag k="ssr:stedsnr" v="466482" />
	</node>
	<node lat="59.045974996570806" lon="9.088502774851378" id="-26584">
		<tag k="name" v="Kåsene" />
		<tag k="place" v="locality" />
		<tag k="ssr:stedsnr" v="466516" />
	</node>
	<node lat="59.14235277995433" lon="8.911800005946992" id="-26588">
		<tag k="name" v="Kjøstålsslåttene" />
		<tag k="place" v="locality" />
		<tag k="ssr:stedsnr" v="466426" />
	</node>
	<node lat="59.160844445816444" lon="8.889113885424388" id="-26590">
		<tag k="name" v="Langmyr" />
		<tag k="natural" v="wetland" />
		<tag k="ssr:stedsnr" v="466442" />
	</node>
	<node lat="59.063647220739334" lon="9.364472228319542" id="-26592">
		<tag k="name" v="Flaskepostmyra" />
		<tag k="natural" v="wetland" />
		<tag k="ssr:stedsnr" v="466535" />
	</node>
	<node lat="58.9979749989102" lon="9.063986105230835" id="-26593">
		<tag k="name" v="Steinarsbuåsen" />
		<tag k="place" v="locality" />
		<tag k="ssr:stedsnr" v="466536" />
	</node>
	<node lat="59.05847500137899" lon="9.350363891479725" id="-26594">
		<tag k="name" v="Holmtjennmyrane" />
		<tag k="natural" v="wetland" />
		<tag k="ssr:stedsnr" v="466540" />
	</node>
	<node lat="59.04347222571569" lon="9.347836115634255" id="-26597">
		<tag k="name" v="Lille Bjønnkjerr" />
		<tag k="natural" v="wetland" />
		<tag k="ssr:stedsnr" v="466554" />
	</node>
	<node lat="59.04300277607653" lon="9.341097216973305" id="-26598">
		<tag k="name" v="Spirmyr" />
		<tag k="natural" v="wetland" />
		<tag k="ssr:stedsnr" v="466557" />
	</node>
	<node lat="59.10556389284024" lon="8.944488888857222" id="-26599">
		<tag k="name" v="Bastnesåsane" />
		<tag k="place" v="locality" />
		<tag k="ssr:stedsnr" v="466692" />
	</node>
	<node lat="59.09321110804286" lon="9.181358326058227" id="-26603">
		<tag k="name" v="Brumyr" />
		<tag k="natural" v="wetland" />
		<tag k="ssr:stedsnr" v="466846" />
	</node>
	<node lat="59.148197220754824" lon="8.72360277150956" id="-26607">
		<tag k="historic" v="shieling" />
		<tag k="name" v="Midtstøl" />
		<tag k="place" v="locality" />
		<tag k="ssr:stedsnr" v="467865" />
	</node>
	<node lat="59.21237500314224" lon="8.653627785804108" id="-26617">
		<tag k="name" v="Venlimyra" />
		<tag k="natural" v="wetland" />
		<tag k="ssr:stedsnr" v="343359" />
	</node>
	<node lat="59.22633888758765" lon="8.632227779715002" id="-26618">
		<tag k="name" v="Mjeltedekkane" />
		<tag k="place" v="locality" />
		<tag k="ssr:stedsnr" v="343363" />
	</node>
	<node lat="59.16980278196096" lon="8.741561107798697" id="-26624">
		<tag k="name" v="Ronnstein" />
		<tag k="natural" v="stone" />
		<tag k="ssr:stedsnr" v="343903" />
	</node>
	<node lat="59.17330278206093" lon="8.758016664210833" id="-26625">
		<tag k="historic" v="shieling" />
		<tag k="name" v="Krestbu" />
		<tag k="place" v="locality" />
		<tag k="ssr:stedsnr" v="343910" />
	</node>
	<node lat="58.9722138901165" lon="9.026016673189028" id="-26626">
		<tag k="historic" v="shieling" />
		<tag k="name" v="Vølanseteren" />
		<tag k="place" v="locality" />
		<tag k="ssr:stedsnr" v="343913" />
	</node>
	<node lat="59.13971666877422" lon="9.186538880591637" id="-26627">
		<tag k="name" v="Raunsmyr" />
		<tag k="natural" v="wetland" />
		<tag k="ssr:stedsnr" v="343696" />
	</node>
	<node lat="58.948719447123" lon="9.052608334796785" id="-26634">
		<tag k="name" v="Holtmyrhola" />
		<tag k="natural" v="wetland" />
		<tag k="ssr:stedsnr" v="344308" />
	</node>
	<node lat="59.00880278108409" lon="9.058594451411082" id="-26640">
		<tag k="alt_name" v="Eikelihotten" />
		<tag k="name" v="Eikelihåtten" />
		<tag k="place" v="locality" />
		<tag k="ssr:stedsnr" v="344861" />
	</node>
	<node lat="59.21900278157908" lon="8.719061103375115" id="-26650">
		<tag k="name" v="Signesskåt" />
		<tag k="place" v="locality" />
		<tag k="ssr:stedsnr" v="345405" />
	</node>
	<node lat="59.17031388690776" lon="8.779441667551044" id="-26651">
		<tag k="name" v="Hegna" />
		<tag k="place" v="locality" />
		<tag k="ssr:stedsnr" v="345909" />
	</node>
	<node lat="58.95230833604683" lon="9.140688884552684" id="-26653">
		<tag k="name" v="Torsmyr" />
		<tag k="natural" v="wetland" />
		<tag k="ssr:stedsnr" v="352569" />
	</node>
	<node lat="59.21261666980008" lon="8.821258336665085" id="-26654">
		<tag k="name" v="Bismarmyra" />
		<tag k="natural" v="wetland" />
		<tag k="ssr:stedsnr" v="358003" />
	</node>
	<node lat="59.22353888467946" lon="8.684466666909175" id="-26655">
		<tag k="name" v="Brattkleiv" />
		<tag k="place" v="locality" />
		<tag k="ssr:stedsnr" v="358397" />
	</node>
	<node lat="59.19064722330511" lon="8.829905555297703" id="-26657">
		<tag k="name" v="Røykjerra" />
		<tag k="place" v="locality" />
		<tag k="ssr:stedsnr" v="358968" />
	</node>
	<node lat="58.896058335760905" lon="9.172755558352138" id="-26659">
		<tag k="name" v="Den runde myra" />
		<tag k="natural" v="wetland" />
		<tag k="ssr:stedsnr" v="359403" />
	</node>
	<node lat="58.905522222731804" lon="9.175783335166209" id="-26661">
		<tag k="name" v="Langste" />
		<tag k="place" v="locality" />
		<tag k="ssr:stedsnr" v="359461" />
	</node>
	<node lat="59.25508333133256" lon="8.805669450637247" id="-26665">
		<tag k="name" v="Haglehaug standar" />
		<tag k="place" v="locality" />
		<tag k="ssr:stedsnr" v="360056" />
	</node>
	<node lat="59.09640555835389" lon="8.905272215813614" id="-26669">
		<tag k="name" v="Kusvåa" />
		<tag k="place" v="locality" />
		<tag k="ssr:stedsnr" v="360250" />
	</node>
	<node lat="59.07823055835193" lon="9.073566664327474" id="-26670">
		<tag k="name" v="Kåsene" />
		<tag k="place" v="locality" />
		<tag k="ssr:stedsnr" v="360317" />
	</node>
	<node lat="58.97873333666207" lon="9.074711114717978" id="-26677">
		<tag k="name" v="Fjellmyr" />
		<tag k="natural" v="wetland" />
		<tag k="ssr:stedsnr" v="364997" />
	</node>
	<node lat="59.20359722491273" lon="8.678008340411433" id="-26693">
		<tag k="alt_name" v="Flåttene" />
		<tag k="name" v="Flottane" />
		<tag k="natural" v="wetland" />
		<tag k="ssr:stedsnr" v="365884" />
	</node>
	<node lat="59.248375001271526" lon="8.822852780347416" id="-26711">
		<tag k="name" v="Slettfjellbråta" />
		<tag k="place" v="locality" />
		<tag k="ssr:stedsnr" v="480095" />
	</node>
	<node lat="58.92071388805329" lon="9.181249998347045" id="-26716">
		<tag k="name" v="Trulsmyr" />
		<tag k="natural" v="wetland" />
		<tag k="ssr:stedsnr" v="480398" />
	</node>
	<node lat="58.951922223746514" lon="9.192427775342336" id="-26717">
		<tag k="historic" v="shieling" />
		<tag k="name" v="Seteren" />
		<tag k="place" v="locality" />
		<tag k="ssr:stedsnr" v="480476" />
	</node>
	<node lat="58.90283610775599" lon="9.124277778683515" id="-26721">
		<tag k="name" v="Damstea" />
		<tag k="natural" v="wetland" />
		<tag k="ssr:stedsnr" v="480345" />
	</node>
	<node lat="58.917188892796496" lon="9.202502777793761" id="-26723">
		<tag k="name" v="Krokmyrane" />
		<tag k="natural" v="wetland" />
		<tag k="ssr:stedsnr" v="480422" />
	</node>
	<node lat="58.94940555998143" lon="9.200086103016433" id="-26726">
		<tag k="name" v="Jomyr" />
		<tag k="natural" v="wetland" />
		<tag k="ssr:stedsnr" v="480451" />
	</node>
	<node lat="59.23518610962548" lon="8.95003055762524" id="-26727">
		<tag k="name" v="Gros ryggar" />
		<tag k="place" v="locality" />
		<tag k="ssr:stedsnr" v="481540" />
	</node>
	<node lat="59.23231110688118" lon="8.9926416682762" id="-26728">
		<tag k="historic" v="shieling" />
		<tag k="name" v="Trestikkelseteren" />
		<tag k="place" v="locality" />
		<tag k="ssr:stedsnr" v="481556" />
	</node>
	<node lat="59.20757777351744" lon="8.751630554519519" id="-26732">
		<tag k="name" v="Jonskåsdokka" />
		<tag k="place" v="locality" />
		<tag k="ssr:stedsnr" v="480989" />
	</node>
	<node lat="59.050699995704086" lon="9.123588896788466" id="-26734">
		<tag k="name" v="Småkjerra" />
		<tag k="natural" v="wetland" />
		<tag k="ssr:stedsnr" v="481087" />
	</node>
	<node lat="59.051658329677544" lon="9.117613884258954" id="-26735">
		<tag k="name" v="Stormyr" />
		<tag k="natural" v="wetland" />
		<tag k="ssr:stedsnr" v="481089" />
	</node>
	<node lat="59.26191944705523" lon="8.726997227812376" id="-26736">
		<tag k="name" v="Fivilmyr" />
		<tag k="natural" v="wetland" />
		<tag k="ssr:stedsnr" v="481092" />
	</node>
	<node lat="59.2697583326686" lon="8.81211110565236" id="-26737">
		<tag k="name" v="Langmyr" />
		<tag k="natural" v="wetland" />
		<tag k="ssr:stedsnr" v="481184" />
	</node>
	<node lat="59.261105559387275" lon="8.789194436196237" id="-26738">
		<tag k="name" v="Røylikåsa" />
		<tag k="place" v="locality" />
		<tag k="ssr:stedsnr" v="481192" />
	</node>
	<node lat="59.26482222204552" lon="8.79425278347385" id="-26739">
		<tag k="name" v="Skurrmyr" />
		<tag k="natural" v="wetland" />
		<tag k="ssr:stedsnr" v="481194" />
	</node>
	<node lat="59.05995277470108" lon="8.763005558797978" id="-26741">
		<tag k="name" v="Nilsesmyr" />
		<tag k="natural" v="wetland" />
		<tag k="ssr:stedsnr" v="481652" />
	</node>
	<node lat="59.132269446426534" lon="8.796736119370994" id="-26744">
		<tag k="name" v="Gaupedalsmyrane" />
		<tag k="natural" v="wetland" />
		<tag k="ssr:stedsnr" v="481830" />
	</node>
	<node lat="59.24940278073996" lon="8.744241665410334" id="-26749">
		<tag k="name" v="Slomdalskollen" />
		<tag k="place" v="locality" />
		<tag k="ssr:stedsnr" v="482090" />
	</node>
	<node lat="59.10421389243252" lon="9.141033328807152" id="-26751">
		<tag k="name" v="Tobaksteinen" />
		<tag k="natural" v="stone" />
		<tag k="ssr:stedsnr" v="482298" />
	</node>
	<node lat="59.12480277419551" lon="9.16336665930377" id="-26752">
		<tag k="name" v="Øvre Kubbemyr" />
		<tag k="natural" v="wetland" />
		<tag k="ssr:stedsnr" v="482326" />
	</node>
	<node lat="59.06219444731628" lon="9.121549996396006" id="-26754">
		<tag k="name" v="Dukane" />
		<tag k="natural" v="wetland" />
		<tag k="ssr:stedsnr" v="482335" />
	</node>
	<node lat="59.06335000336324" lon="9.145144446800538" id="-26755">
		<tag k="name" v="Ormkjerr" />
		<tag k="natural" v="wetland" />
		<tag k="ssr:stedsnr" v="482341" />
	</node>
	<node lat="59.073963891848244" lon="9.129316658575398" id="-26757">
		<tag k="name" v="Kammerkjerr" />
		<tag k="natural" v="wetland" />
		<tag k="ssr:stedsnr" v="482346" />
	</node>
	<node lat="59.205013884970484" lon="8.713255553479454" id="-26760">
		<tag k="name" v="Sandåkerdalen" />
		<tag k="place" v="locality" />
		<tag k="ssr:stedsnr" v="482453" />
	</node>
	<node lat="59.182444440439745" lon="8.75115554703296" id="-26771">
		<tag k="name" v="Leirli" />
		<tag k="place" v="locality" />
		<tag k="ssr:stedsnr" v="482891" />
	</node>
	<node lat="59.168783331044175" lon="8.792641669555422" id="-26773">
		<tag k="name" v="Hestkåsene" />
		<tag k="place" v="locality" />
		<tag k="ssr:stedsnr" v="482894" />
	</node>
	<node lat="58.94693333195044" lon="9.042138881121852" id="-26774">
		<tag k="name" v="Elgmyra" />
		<tag k="natural" v="wetland" />
		<tag k="ssr:stedsnr" v="482922" />
	</node>
	<node lat="59.02805277403046" lon="9.26224722624723" id="-26775">
		<tag k="name" v="Fagerneskjerra" />
		<tag k="natural" v="wetland" />
		<tag k="ssr:stedsnr" v="482969" />
	</node>
	<node lat="59.03735833468502" lon="9.145563895330266" id="-26776">
		<tag k="name" v="Værtjenn" />
		<tag k="natural" v="wetland" />
		<tag k="ssr:stedsnr" v="482956" />
	</node>
	<node lat="59.03306111377683" lon="9.149858335921635" id="-26777">
		<tag k="landuse" v="meadow" />
		<tag k="name" v="Lillejordet" />
		<tag k="ssr:stedsnr" v="482958" />
	</node>
	<node lat="59.11573888446968" lon="8.895141672649752" id="-26782">
		<tag k="name" v="Snartvikåsen" />
		<tag k="place" v="locality" />
		<tag k="ssr:stedsnr" v="483404" />
	</node>
	<node lat="59.06655555781832" lon="8.853747214363132" id="-26783">
		<tag k="name" v="Kruppermyrane" />
		<tag k="natural" v="wetland" />
		<tag k="ssr:stedsnr" v="484300" />
	</node>
	<node lat="59.25773055408064" lon="8.714894442944132" id="-26786">
		<tag k="name" v="Fethålet" />
		<tag k="natural" v="wetland" />
		<tag k="ssr:stedsnr" v="483597" />
	</node>
	<node lat="59.06622777819009" lon="8.73732499259952" id="-26787">
		<tag k="name" v="Småliane" />
		<tag k="place" v="locality" />
		<tag k="ssr:stedsnr" v="483681" />
	</node>
	<node lat="59.09482221898453" lon="8.807072229149695" id="-26792">
		<tag k="name" v="Sompedalen" />
		<tag k="place" v="locality" />
		<tag k="ssr:stedsnr" v="483793" />
	</node>
	<node lat="59.09270833402802" lon="9.037444443762915" id="-26794">
		<tag k="name" v="Storekjerr" />
		<tag k="natural" v="wetland" />
		<tag k="ssr:stedsnr" v="483742" />
	</node>
	<node lat="59.003505555172076" lon="9.014222214357236" id="-26800">
		<tag k="name" v="Jensesskot" />
		<tag k="place" v="locality" />
		<tag k="ssr:stedsnr" v="483880" />
	</node>
	<node lat="59.074911107681885" lon="9.234316669633783" id="-26801">
		<tag k="name" v="Hellermyra" />
		<tag k="natural" v="wetland" />
		<tag k="ssr:stedsnr" v="483901" />
	</node>
	<node lat="59.12865813887596" lon="8.861959432707499" id="-26803">
		<tag k="name" v="Otersteinane" />
		<tag k="natural" v="stone" />
		<tag k="ssr:stedsnr" v="484237" />
	</node>
	<node lat="59.076377780198044" lon="8.870113896226105" id="-26804">
		<tag k="name" v="Skrubbdalsrompa" />
		<tag k="natural" v="wetland" />
		<tag k="ssr:stedsnr" v="484254" />
	</node>
	<node lat="59.23258333379302" lon="8.704741665528815" id="-26808">
		<tag k="name" v="Beinmyr" />
		<tag k="natural" v="wetland" />
		<tag k="ssr:stedsnr" v="484501" />
	</node>
	<node lat="59.25730555964217" lon="8.68221666542887" id="-26810">
		<tag k="name" v="Snøåsmyrane" />
		<tag k="natural" v="wetland" />
		<tag k="ssr:stedsnr" v="484537" />
	</node>
	<node lat="59.21720833152568" lon="8.917552773498285" id="-26813">
		<tag k="name" v="Vrestmyr" />
		<tag k="natural" v="wetland" />
		<tag k="ssr:stedsnr" v="484951" />
	</node>
	<node lat="58.917274996091045" lon="9.12279999399014" id="-26819">
		<tag k="name" v="Vassbekkmyra" />
		<tag k="natural" v="wetland" />
		<tag k="ssr:stedsnr" v="403496" />
	</node>
	<node lat="58.965274998581435" lon="9.102224997566571" id="-26822">
		<tag k="name" v="Råsskjerra" />
		<tag k="natural" v="wetland" />
		<tag k="ssr:stedsnr" v="403892" />
	</node>
	<node lat="58.92585000381236" lon="9.077566667542277" id="-26823">
		<tag k="name" v="Bustlimyra" />
		<tag k="natural" v="wetland" />
		<tag k="ssr:stedsnr" v="403898" />
	</node>
	<node lat="59.12511666641348" lon="8.877222227641193" id="-26828">
		<tag k="name" v="Støylsmoen" />
		<tag k="place" v="locality" />
		<tag k="ssr:stedsnr" v="404309" />
	</node>
	<node lat="59.22834999832556" lon="8.637269436897599" id="-26831">
		<tag k="name" v="Seterliane" />
		<tag k="place" v="locality" />
		<tag k="ssr:stedsnr" v="404375" />
	</node>
	<node lat="59.17084166304414" lon="9.010894450414728" id="-26835">
		<tag k="name" v="Snikkerbukjerret" />
		<tag k="place" v="locality" />
		<tag k="ssr:stedsnr" v="404578" />
	</node>
	<node lat="59.054030556178745" lon="8.828324998891024" id="-26837">
		<tag k="name" v="Holtebekkstea" />
		<tag k="natural" v="wetland" />
		<tag k="ssr:stedsnr" v="404589" />
	</node>
	<node lat="59.05739444405705" lon="9.30231388864791" id="-26839">
		<tag k="name" v="Eikebumarka" />
		<tag k="place" v="locality" />
		<tag k="ssr:stedsnr" v="404476" />
	</node>
	<node lat="59.05449444246482" lon="9.282838890128284" id="-26840">
		<tag k="name" v="Bjordammyrane" />
		<tag k="natural" v="wetland" />
		<tag k="ssr:stedsnr" v="404480" />
	</node>
	<node lat="59.101147225996165" lon="9.181052777846574" id="-26845">
		<tag k="name" v="Høymyr" />
		<tag k="natural" v="wetland" />
		<tag k="ssr:stedsnr" v="404685" />
	</node>
	<node lat="58.985347217822394" lon="9.04227778201937" id="-26848">
		<tag k="name" v="Rakslåtta" />
		<tag k="natural" v="wetland" />
		<tag k="ssr:stedsnr" v="404878" />
	</node>
	<node lat="58.97156666527192" lon="9.017225003977366" id="-26849">
		<tag k="name" v="Ormdalsmyra" />
		<tag k="natural" v="wetland" />
		<tag k="ssr:stedsnr" v="404888" />
	</node>
	<node lat="58.96573611430904" lon="9.021811104049181" id="-26850">
		<tag k="name" v="Putten" />
		<tag k="natural" v="wetland" />
		<tag k="ssr:stedsnr" v="404889" />
	</node>
	<node lat="58.9564944467258" lon="9.074611108365215" id="-26852">
		<tag k="name" v="Brukjerr" />
		<tag k="natural" v="wetland" />
		<tag k="ssr:stedsnr" v="405314" />
	</node>
	<node lat="59.027944441565765" lon="9.145027771509056" id="-26855">
		<tag k="name" v="Tekslemyra" />
		<tag k="natural" v="wetland" />
		<tag k="ssr:stedsnr" v="405493" />
	</node>
	<node lat="59.1723833320771" lon="8.892955561524145" id="-26856">
		<tag k="name" v="Bøslåtta" />
		<tag k="natural" v="wetland" />
		<tag k="ssr:stedsnr" v="405496" />
	</node>
	<node lat="58.99205833086453" lon="9.09805277115644" id="-26857">
		<tag k="name" v="Garfjellmyra" />
		<tag k="natural" v="wetland" />
		<tag k="ssr:stedsnr" v="405556" />
	</node>
	<node lat="58.973350000505654" lon="9.11200556122541" id="-26860">
		<tag k="name" v="Tjennslåttmyra" />
		<tag k="natural" v="wetland" />
		<tag k="ssr:stedsnr" v="405703" />
	</node>
	<node lat="59.110027782052335" lon="8.980222219016257" id="-26861">
		<tag k="name" v="Langmyr" />
		<tag k="natural" v="wetland" />
		<tag k="ssr:stedsnr" v="405705" />
	</node>
	<node lat="58.97088333662515" lon="9.097425004500307" id="-26864">
		<tag k="name" v="Bjønnkjerr" />
		<tag k="natural" v="wetland" />
		<tag k="ssr:stedsnr" v="405695" />
	</node>
	<node lat="58.97160000330609" lon="9.089566673154408" id="-26865">
		<tag k="name" v="Kroktjennmyra" />
		<tag k="natural" v="wetland" />
		<tag k="ssr:stedsnr" v="405697" />
	</node>
	<node lat="59.2097111139081" lon="8.708852771166002" id="-26869">
		<tag k="name" v="Hestmyr" />
		<tag k="place" v="locality" />
		<tag k="ssr:stedsnr" v="406445" />
	</node>
	<node lat="59.147311106684" lon="8.928722228017412" id="-26871">
		<tag k="name" v="Tverrdalsmyra" />
		<tag k="natural" v="wetland" />
		<tag k="ssr:stedsnr" v="406401" />
	</node>
	<node lat="59.14914166432597" lon="8.75608056003755" id="-26873">
		<tag k="name" v="Bakkansvåene" />
		<tag k="place" v="locality" />
		<tag k="ssr:stedsnr" v="406865" />
	</node>
	<node lat="58.930313892177054" lon="9.095033328341414" id="-26883">
		<tag k="name" v="Trollfjellmyra" />
		<tag k="natural" v="wetland" />
		<tag k="ssr:stedsnr" v="486853" />
	</node>
	<node lat="59.211433337152584" lon="8.886177786365256" id="-26913">
		<tag k="alt_name" v="Stormyr" />
		<tag k="name" v="Stormyra" />
		<tag k="natural" v="wetland" />
		<tag k="ssr:stedsnr" v="487448" />
	</node>
	<node lat="59.26299721905" lon="8.694222216030084" id="-26933">
		<tag k="name" v="Sætermyr" />
		<tag k="natural" v="wetland" />
		<tag k="ssr:stedsnr" v="488537" />
	</node>
	<node lat="59.22491666256561" lon="8.678119444369822" id="-26938">
		<tag k="name" v="Tukarten" />
		<tag k="place" v="locality" />
		<tag k="ssr:stedsnr" v="419403" />
	</node>
	<node lat="59.21689166716549" lon="8.677772223963835" id="-26940">
		<tag k="name" v="Den store steinen" />
		<tag k="natural" v="stone" />
		<tag k="ssr:stedsnr" v="419401" />
	</node>
	<node lat="58.91650277332454" lon="9.193236111602722" id="-26947">
		<tag k="name" v="Kringlemyr" />
		<tag k="natural" v="wetland" />
		<tag k="ssr:stedsnr" v="420447" />
	</node>
	<node lat="58.94978333053013" lon="9.20304721463103" id="-26948">
		<tag k="name" v="Bjønnmyra" />
		<tag k="natural" v="wetland" />
		<tag k="ssr:stedsnr" v="420496" />
	</node>
	<node lat="58.95189444279277" lon="9.202783340085967" id="-26949">
		<tag k="name" v="Torskjerr" />
		<tag k="natural" v="wetland" />
		<tag k="ssr:stedsnr" v="420498" />
	</node>
	<node lat="58.95455833085592" lon="9.213291673417602" id="-26950">
		<tag k="name" v="Bjordammane" />
		<tag k="natural" v="wetland" />
		<tag k="ssr:stedsnr" v="420504" />
	</node>
	<node lat="58.94621110917226" lon="9.199958332051294" id="-26951">
		<tag k="name" v="Jomyra" />
		<tag k="natural" v="wetland" />
		<tag k="ssr:stedsnr" v="420506" />
	</node>
	<node lat="59.01699444526795" lon="9.233311109737333" id="-26961">
		<tag k="name" v="Hallbakkmyra" />
		<tag k="natural" v="wetland" />
		<tag k="ssr:stedsnr" v="421902" />
	</node>
	<node lat="59.01971389326333" lon="9.225194444138316" id="-26962">
		<tag k="name" v="Dukmyr" />
		<tag k="natural" v="wetland" />
		<tag k="ssr:stedsnr" v="421906" />
	</node>
	<node lat="59.26297777568073" lon="8.743736109903407" id="-26963">
		<tag k="name" v="Murtjuvkåsa" />
		<tag k="place" v="locality" />
		<tag k="ssr:stedsnr" v="422090" />
	</node>
	<node lat="59.18955555268144" lon="8.694038890869932" id="-26968">
		<tag k="name" v="Store Bulianmyra" />
		<tag k="natural" v="wetland" />
		<tag k="ssr:stedsnr" v="422500" />
	</node>
	<node lat="59.197397225409034" lon="8.700180559318767" id="-26969">
		<tag k="name" v="Kortdalen" />
		<tag k="place" v="locality" />
		<tag k="ssr:stedsnr" v="422509" />
	</node>
	<node lat="59.19950278082686" lon="8.712169443058658" id="-26971">
		<tag k="name" v="Kveldmyr" />
		<tag k="natural" v="wetland" />
		<tag k="ssr:stedsnr" v="422528" />
	</node>
	<node lat="59.1842611119533" lon="8.74676666903361" id="-26972">
		<tag k="name" v="Kveldmyr" />
		<tag k="natural" v="wetland" />
		<tag k="ssr:stedsnr" v="422891" />
	</node>
	<node lat="59.09458888452041" lon="8.970116673109098" id="-26974">
		<tag k="name" v="Presteiet" />
		<tag k="place" v="locality" />
		<tag k="ssr:stedsnr" v="422748" />
	</node>
	<node lat="59.0612250038284" lon="8.884594450536657" id="-26979">
		<tag k="name" v="Skiftingsmyrane" />
		<tag k="natural" v="wetland" />
		<tag k="ssr:stedsnr" v="423349" />
	</node>
	<node lat="59.2533055600599" lon="8.69993888664854" id="-26985">
		<tag k="name" v="Romsjordåsen" />
		<tag k="place" v="locality" />
		<tag k="ssr:stedsnr" v="423598" />
	</node>
	<node lat="59.09589999943771" lon="8.820380559613374" id="-26990">
		<tag k="name" v="Eikhaugen" />
		<tag k="place" v="locality" />
		<tag k="ssr:stedsnr" v="423757" />
	</node>
	<node lat="59.19773888456271" lon="8.872694452387108" id="-26994">
		<tag k="name" v="Årlågsmyr" />
		<tag k="natural" v="wetland" />
		<tag k="ssr:stedsnr" v="423999" />
	</node>
	<node lat="59.092647224976965" lon="8.790630560731874" id="-27008">
		<tag k="alt_name" v="Surtmyr, nedre;Nedre Sortemyr" />
		<tag k="name" v="Nedre Surtmyr" />
		<tag k="natural" v="wetland" />
		<tag k="ssr:stedsnr" v="426606" />
	</node>
	<node lat="59.19365277771117" lon="8.722613880972625" id="-27014">
		<tag k="alt_name" v="Ålbågskleiv" />
		<tag k="name" v="Ålbogskleiv" />
		<tag k="place" v="locality" />
		<tag k="ssr:stedsnr" v="426827" />
	</node>
	<node lat="59.10182778086175" lon="8.975211105641213" id="-27041">
		<tag k="name" v="Storedokka" />
		<tag k="place" v="locality" />
		<tag k="ssr:stedsnr" v="464669" />
	</node>
	<node lat="59.1023861122378" lon="8.988363884024212" id="-27042">
		<tag k="name" v="Graskjerr" />
		<tag k="natural" v="wetland" />
		<tag k="ssr:stedsnr" v="464672" />
	</node>
	<node lat="58.911572225857455" lon="9.139324995969261" id="-27048">
		<tag k="name" v="Løken" />
		<tag k="natural" v="wetland" />
		<tag k="ssr:stedsnr" v="465458" />
	</node>
	<node lat="58.925488885969976" lon="9.207630547681896" id="-27049">
		<tag k="name" v="Bjørktjennmyra" />
		<tag k="natural" v="wetland" />
		<tag k="ssr:stedsnr" v="465466" />
	</node>
	<node lat="59.04278888953538" lon="8.80760833400691" id="-27050">
		<tag k="name" v="Slettfjellskarene" />
		<tag k="place" v="locality" />
		<tag k="ssr:stedsnr" v="465603" />
	</node>
	<node lat="59.0852305545619" lon="9.142083326532351" id="-27053">
		<tag k="name" v="Strømsmyr" />
		<tag k="natural" v="wetland" />
		<tag k="ssr:stedsnr" v="465356" />
	</node>
	<node lat="59.095183332233795" lon="8.768011115971966" id="-27056">
		<tag k="name" v="Kveven" />
		<tag k="place" v="locality" />
		<tag k="ssr:stedsnr" v="465704" />
	</node>
	<node lat="59.103719447395015" lon="9.029013887513099" id="-27057">
		<tag k="name" v="Småkjerråsane" />
		<tag k="place" v="locality" />
		<tag k="ssr:stedsnr" v="465705" />
	</node>
	<node lat="59.08942777639741" lon="8.762436114354749" id="-27060">
		<tag k="name" v="Bubekkmyra" />
		<tag k="natural" v="wetland" />
		<tag k="ssr:stedsnr" v="465714" />
	</node>
	<node lat="59.113444448261376" lon="9.178580559376176" id="-27063">
		<tag k="name" v="Dukefosslåtta" />
		<tag k="natural" v="wetland" />
		<tag k="ssr:stedsnr" v="465656" />
	</node>
	<node lat="59.165008333776" lon="8.761461103977116" id="-27064">
		<tag k="name" v="Gråmann" />
		<tag k="natural" v="stone" />
		<tag k="ssr:stedsnr" v="465887" />
	</node>
	<node lat="59.168297221080515" lon="9.058424993667415" id="-27067">
		<tag k="name" v="Røydalsvasane" />
		<tag k="place" v="locality" />
		<tag k="ssr:stedsnr" v="466120" />
	</node>
	<node lat="59.14927777492758" lon="8.789388885258969" id="-27068">
		<tag k="name" v="Snik" />
		<tag k="place" v="locality" />
		<tag k="ssr:stedsnr" v="466158" />
	</node>
	<node lat="59.023713891837616" lon="9.046538892158674" id="-27074">
		<tag k="name" v="Kringlemyr" />
		<tag k="natural" v="wetland" />
		<tag k="ssr:stedsnr" v="466871" />
	</node>
	<node lat="59.01296666701027" lon="9.039911106640355" id="-27075">
		<tag k="name" v="Grytingmyr" />
		<tag k="natural" v="wetland" />
		<tag k="ssr:stedsnr" v="466872" />
	</node>
	<node lat="59.0171499979484" lon="9.045336114329972" id="-27076">
		<tag k="name" v="Moltemyr" />
		<tag k="natural" v="wetland" />
		<tag k="ssr:stedsnr" v="466874" />
	</node>
	<node lat="59.03247500156624" lon="9.021663884564916" id="-27077">
		<tag k="name" v="Skottfjellmyra" />
		<tag k="natural" v="wetland" />
		<tag k="ssr:stedsnr" v="466881" />
	</node>
	<node lat="59.234474998881225" lon="8.816052776909224" id="-27078">
		<tag k="name" v="Lintjennliane" />
		<tag k="place" v="locality" />
		<tag k="ssr:stedsnr" v="467006" />
	</node>
	<node lat="59.22715277874121" lon="8.823458325697413" id="-27086">
		<tag k="name" v="Venliane" />
		<tag k="place" v="locality" />
		<tag k="ssr:stedsnr" v="480002" />
	</node>
	<node lat="58.981869444819296" lon="9.191597213934788" id="-27090">
		<tag k="name" v="Slåtta" />
		<tag k="natural" v="wetland" />
		<tag k="ssr:stedsnr" v="480314" />
	</node>
	<node lat="58.9810055599408" lon="9.169752774842378" id="-27092">
		<tag k="name" v="Lille Langemyr" />
		<tag k="natural" v="wetland" />
		<tag k="ssr:stedsnr" v="480276" />
	</node>
	<node lat="59.039402778642625" lon="8.845383341817024" id="-27099">
		<tag k="name" v="Greinane" />
		<tag k="natural" v="wetland" />
		<tag k="ssr:stedsnr" v="481308" />
	</node>
	<node lat="59.055086113142394" lon="8.842680562395802" id="-27100">
		<tag k="name" v="Sandstea" />
		<tag k="natural" v="wetland" />
		<tag k="ssr:stedsnr" v="481312" />
	</node>
	<node lat="59.10059166866704" lon="8.942069449563807" id="-27101">
		<tag k="name" v="Røsvolden" />
		<tag k="place" v="locality" />
		<tag k="ssr:stedsnr" v="481366" />
	</node>
	<node lat="59.042950004446936" lon="9.271041659070324" id="-27102">
		<tag k="name" v="Hanedalsmyra" />
		<tag k="natural" v="wetland" />
		<tag k="ssr:stedsnr" v="481712" />
	</node>
	<node lat="59.1066555570688" lon="8.797583340505959" id="-27103">
		<tag k="name" v="Nedre Bergslåttene" />
		<tag k="natural" v="wetland" />
		<tag k="ssr:stedsnr" v="481757" />
	</node>
	<node lat="59.23955555182788" lon="8.731138887037705" id="-27111">
		<tag k="name" v="Fattigen" />
		<tag k="place" v="locality" />
		<tag k="ssr:stedsnr" v="482113" />
	</node>
	<node lat="59.23074444006592" lon="8.743277779134427" id="-27112">
		<tag k="name" v="Drengstøl" />
		<tag k="place" v="locality" />
		<tag k="ssr:stedsnr" v="482114" />
	</node>
	<node lat="59.179544441026586" lon="9.153272227782914" id="-27114">
		<tag k="historic" v="shieling" />
		<tag k="name" v="Rolighetsseteren" />
		<tag k="place" v="locality" />
		<tag k="ssr:stedsnr" v="482202" />
	</node>
	<node lat="59.147433335644585" lon="9.077238887934527" id="-27120">
		<tag k="name" v="Heitjennåsane" />
		<tag k="place" v="locality" />
		<tag k="ssr:stedsnr" v="482227" />
	</node>
	<node lat="59.1943250034318" lon="8.7086027775646" id="-27122">
		<tag k="name" v="Skarkedalen" />
		<tag k="place" v="locality" />
		<tag k="ssr:stedsnr" v="482502" />
	</node>
	<node lat="59.18953611412662" lon="8.699147221478924" id="-27123">
		<tag k="name" v="Sjutjennmyra" />
		<tag k="natural" v="wetland" />
		<tag k="ssr:stedsnr" v="482506" />
	</node>
	<node lat="59.200969442413744" lon="8.714563890918305" id="-27124">
		<tag k="name" v="Torvildskås" />
		<tag k="place" v="locality" />
		<tag k="ssr:stedsnr" v="482514" />
	</node>
	<node lat="59.2073833338357" lon="8.687494442124594" id="-27126">
		<tag k="name" v="Halvronnmyra" />
		<tag k="natural" v="wetland" />
		<tag k="ssr:stedsnr" v="482418" />
	</node>
	<node lat="59.09618611215587" lon="8.980019442659737" id="-27130">
		<tag k="name" v="Melandsmoen" />
		<tag k="place" v="locality" />
		<tag k="ssr:stedsnr" v="482721" />
	</node>
	<node lat="59.17936111429187" lon="9.06112499552916" id="-27136">
		<tag k="name" v="Saumyr" />
		<tag k="natural" v="wetland" />
		<tag k="ssr:stedsnr" v="483199" />
	</node>
	<node lat="59.06351666288006" lon="8.734525000254349" id="-27141">
		<tag k="name" v="Fandensdal" />
		<tag k="place" v="locality" />
		<tag k="ssr:stedsnr" v="483675" />
	</node>
	<node lat="59.21698333384833" lon="8.786172215987344" id="-27143">
		<tag k="name" v="Lonekåsene" />
		<tag k="place" v="locality" />
		<tag k="ssr:stedsnr" v="484039" />
	</node>
	<node lat="59.137933253295095" lon="8.845826592045446" id="-27151">
		<tag k="name" v="Stårrfeta" />
		<tag k="natural" v="wetland" />
		<tag k="ssr:stedsnr" v="484216" />
	</node>
	<node lat="58.94266110728832" lon="9.127980550156202" id="-27175">
		<tag k="alt_name" v="Langmyr" />
		<tag k="name" v="Langemyr" />
		<tag k="natural" v="wetland" />
		<tag k="ssr:stedsnr" v="486816" />
	</node>
	<node lat="59.14589999736639" lon="8.982530550793001" id="-27185">
		<tag k="alt_name" v="Stormyr" />
		<tag k="name" v="Storemyra" />
		<tag k="natural" v="wetland" />
		<tag k="ssr:stedsnr" v="487324" />
	</node>
	<node lat="58.9169333331351" lon="9.139919436363751" id="-27205">
		<tag k="name" v="Folmyra" />
		<tag k="natural" v="wetland" />
		<tag k="ssr:stedsnr" v="524167" />
	</node>
	<node lat="59.037116663279186" lon="9.064091661707522" id="-27214">
		<tag k="name" v="Eggedalsmyrane" />
		<tag k="natural" v="wetland" />
		<tag k="ssr:stedsnr" v="525459" />
	</node>
	<node lat="58.96472499783859" lon="9.096641674194796" id="-27223">
		<tag k="name" v="Kjørrgranmyr" />
		<tag k="natural" v="wetland" />
		<tag k="ssr:stedsnr" v="525867" />
	</node>
	<node lat="58.981052776583745" lon="9.037655556175352" id="-27224">
		<tag k="name" v="Fjellmyr" />
		<tag k="natural" v="wetland" />
		<tag k="ssr:stedsnr" v="525871" />
	</node>
	<node lat="59.00568610968552" lon="9.27057222351207" id="-27227">
		<tag k="name" v="Stormyr" />
		<tag k="natural" v="wetland" />
		<tag k="ssr:stedsnr" v="526064" />
	</node>
	<node lat="58.997550000401716" lon="9.269650001398103" id="-27228">
		<tag k="name" v="Brattskot" />
		<tag k="place" v="locality" />
		<tag k="ssr:stedsnr" v="526065" />
	</node>
	<node lat="59.02294999663859" lon="9.143977784233591" id="-27231">
		<tag k="name" v="Tekslemarka" />
		<tag k="place" v="locality" />
		<tag k="ssr:stedsnr" v="526464" />
	</node>
	<node lat="58.91001666456966" lon="9.149941671950629" id="-27234">
		<tag k="name" v="Storrkjerr" />
		<tag k="natural" v="wetland" />
		<tag k="ssr:stedsnr" v="526482" />
	</node>
	<node lat="58.97563333728605" lon="9.073000003076732" id="-27237">
		<tag k="name" v="Nedre fjellmyr" />
		<tag k="natural" v="wetland" />
		<tag k="ssr:stedsnr" v="526694" />
	</node>
	<node lat="59.02137499809534" lon="9.292180563913831" id="-27238">
		<tag k="name" v="Skrekkens gru" />
		<tag k="place" v="locality" />
		<tag k="ssr:stedsnr" v="526778" />
	</node>
	<node lat="59.03325833512962" lon="9.017497218022807" id="-27239">
		<tag k="name" v="Store Skottfjellmyra" />
		<tag k="natural" v="wetland" />
		<tag k="ssr:stedsnr" v="526871" />
	</node>
	<node lat="59.17370000418086" lon="8.784602772659444" id="-27246">
		<tag k="name" v="Steinarskås" />
		<tag k="place" v="locality" />
		<tag k="ssr:stedsnr" v="527906" />
	</node>
	<node lat="59.171355556879384" lon="8.791202780690014" id="-27247">
		<tag k="name" v="Eikestuven" />
		<tag k="place" v="locality" />
		<tag k="ssr:stedsnr" v="527908" />
	</node>
	<node lat="59.2177805576138" lon="8.801100004185828" id="-27250">
		<tag k="name" v="Standaren" />
		<tag k="place" v="locality" />
		<tag k="ssr:stedsnr" v="540002" />
	</node>
	<node lat="59.18946111317359" lon="8.819672223200383" id="-27256">
		<tag k="historic" v="shieling" />
		<tag k="name" v="Jonskås" />
		<tag k="place" v="locality" />
		<tag k="ssr:stedsnr" v="540964" />
	</node>
	<node lat="59.19107222288421" lon="8.79341111445406" id="-27257">
		<tag k="name" v="Lillehei" />
		<tag k="place" v="locality" />
		<tag k="ssr:stedsnr" v="540975" />
	</node>
	<node lat="58.9208194431766" lon="9.18583611181998" id="-27263">
		<tag k="name" v="Helgeroa" />
		<tag k="natural" v="wetland" />
		<tag k="ssr:stedsnr" v="541425" />
	</node>
	<node lat="59.25010555184626" lon="8.795375004633524" id="-27265">
		<tag k="name" v="Djupmyr" />
		<tag k="natural" v="wetland" />
		<tag k="ssr:stedsnr" v="542067" />
	</node>
	<node lat="59.25666944792339" lon="8.743144453032862" id="-27267">
		<tag k="name" v="Øvre Djupmyr" />
		<tag k="natural" v="wetland" />
		<tag k="ssr:stedsnr" v="542081" />
	</node>
	<node lat="59.258766667517406" lon="8.744338888842266" id="-27268">
		<tag k="name" v="Den Ronne Kollen" />
		<tag k="place" v="locality" />
		<tag k="ssr:stedsnr" v="542083" />
	</node>
	<node lat="59.25790555570601" lon="8.730988885996135" id="-27269">
		<tag k="name" v="Dritermyr" />
		<tag k="natural" v="wetland" />
		<tag k="ssr:stedsnr" v="542087" />
	</node>
	<node lat="59.158027780094514" lon="9.059938886895663" id="-27272">
		<tag k="name" v="Slipra" />
		<tag k="natural" v="wetland" />
		<tag k="ssr:stedsnr" v="542221" />
	</node>
	<node lat="59.09508611494284" lon="9.067080563400065" id="-27275">
		<tag k="name" v="Oddeåsen" />
		<tag k="place" v="locality" />
		<tag k="ssr:stedsnr" v="542376" />
	</node>
	<node lat="59.23320000421154" lon="8.96098332851675" id="-27276">
		<tag k="name" v="Høymyrane" />
		<tag k="natural" v="wetland" />
		<tag k="ssr:stedsnr" v="542522" />
	</node>
	<node lat="59.141236110693356" lon="8.715411119206447" id="-27277">
		<tag k="name" v="Bestemors myrer" />
		<tag k="natural" v="wetland" />
		<tag k="ssr:stedsnr" v="542265" />
	</node>
	<node lat="58.99416666400957" lon="9.130088885875558" id="-27278">
		<tag k="name" v="Brennvinsteinen" />
		<tag k="natural" v="stone" />
		<tag k="ssr:stedsnr" v="542465" />
	</node>
	<node lat="59.14958611393028" lon="8.69941388858965" id="-27281">
		<tag k="name" v="Tverrli" />
		<tag k="place" v="locality" />
		<tag k="ssr:stedsnr" v="542482" />
	</node>
	<node lat="59.02608055986593" lon="9.255005559189538" id="-27285">
		<tag k="name" v="Grønmyr" />
		<tag k="natural" v="wetland" />
		<tag k="ssr:stedsnr" v="542915" />
	</node>
	<node lat="59.024250001876325" lon="9.179022215619005" id="-27291">
		<tag k="name" v="Langmyr" />
		<tag k="natural" v="wetland" />
		<tag k="ssr:stedsnr" v="542881" />
	</node>
	<node lat="59.23963610997276" lon="8.763641670274401" id="-27295">
		<tag k="name" v="Skurvåsane" />
		<tag k="place" v="locality" />
		<tag k="ssr:stedsnr" v="543108" />
	</node>
	<node lat="59.04338889175699" lon="8.745072215299443" id="-27297">
		<tag k="name" v="Granslåtten" />
		<tag k="place" v="locality" />
		<tag k="ssr:stedsnr" v="543606" />
	</node>
	<node lat="59.068711107008944" lon="9.191377775243417" id="-27298">
		<tag k="name" v="Avonskjerra" />
		<tag k="natural" v="wetland" />
		<tag k="ssr:stedsnr" v="543766" />
	</node>
	<node lat="59.04402777718045" lon="9.112522224759914" id="-27299">
		<tag k="landuse" v="meadow" />
		<tag k="name" v="Kåsa" />
		<tag k="ssr:stedsnr" v="543965" />
	</node>
	<node lat="59.07654999620237" lon="8.89808611817649" id="-27300">
		<tag k="name" v="Stallane" />
		<tag k="place" v="locality" />
		<tag k="ssr:stedsnr" v="544275" />
	</node>
	<node lat="58.9900277781813" lon="8.854991670838631" id="-27303">
		<tag k="name" v="Venemyr" />
		<tag k="natural" v="wetland" />
		<tag k="ssr:stedsnr" v="544184" />
	</node>
	<node lat="59.079411112136235" lon="9.131491669611496" id="-27304">
		<tag k="name" v="Tiurleikmyra" />
		<tag k="natural" v="wetland" />
		<tag k="ssr:stedsnr" v="544379" />
	</node>
	<node lat="59.14955000281938" lon="8.860672220422774" id="-27305">
		<tag k="name" v="Nedre Geitdalen" />
		<tag k="place" v="locality" />
		<tag k="ssr:stedsnr" v="544505" />
	</node>
	<node lat="59.23323889070052" lon="8.67855834158251" id="-27306">
		<tag k="name" v="Gunnleiksås" />
		<tag k="place" v="locality" />
		<tag k="ssr:stedsnr" v="544519" />
	</node>
	<node lat="59.09760555598459" lon="8.82823610253175" id="-27310">
		<tag k="name" v="Øvlandsrenna" />
		<tag k="place" v="locality" />
		<tag k="ssr:stedsnr" v="544739" />
	</node>
	<node lat="59.07023611184419" lon="8.99519444080621" id="-27311">
		<tag k="historic" v="shieling" />
		<tag k="name" v="Husdalseteren" />
		<tag k="place" v="locality" />
		<tag k="ssr:stedsnr" v="544773" />
	</node>
	<node lat="59.19634444708526" lon="8.833197216048974" id="-27315">
		<tag k="name" v="Tjærhjellmyra" />
		<tag k="natural" v="wetland" />
		<tag k="ssr:stedsnr" v="544981" />
	</node>
</osm>
