<?xml version="1.0" encoding="UTF-8"?>
<osm version="0.6" generator="osmapis">
	<node lat="59.052819440660706" lon="9.196008339770733" id="-20517">
		<tag k="name" v="Oddnes" />
		<tag k="place" v="farm" />
		<tag k="ssr:stedsnr" v="1090" />
	</node>
	<node lat="59.05903889313818" lon="9.129102785495116" id="-20518">
		<tag k="alt_name" v="Straume, østre" />
		<tag k="fixme" v="consider place=hamlet" />
		<tag k="name" v="Østre Straume" />
		<tag k="place" v="farm" />
		<tag k="ssr:stedsnr" v="1096" />
	</node>
	<node lat="59.07792778225989" lon="8.778022218453206" id="-20531">
		<tag k="name" v="Dalen" />
		<tag k="place" v="locality" />
		<tag k="ssr:stedsnr" v="1623" />
	</node>
	<node lat="59.243863887629736" lon="8.918666674401265" id="-20532">
		<tag k="name" v="Dalsbu" />
		<tag k="place" v="locality" />
		<tag k="ssr:stedsnr" v="1390" />
	</node>
	<node lat="59.15154999870172" lon="8.803272221022876" id="-20534">
		<tag k="name" v="Åsheim" />
		<tag k="place" v="farm" />
		<tag k="ssr:stedsnr" v="1732" />
	</node>
	<node lat="59.22537221861781" lon="8.666530561337723" id="-20535">
		<tag k="name" v="Holmane" />
		<tag k="place" v="farm" />
		<tag k="ssr:stedsnr" v="1930" />
	</node>
	<node lat="59.192055558481464" lon="8.80280276949666" id="-20538">
		<tag k="alt_name" v="Lohne buhaugen" />
		<tag k="name" v="Buhaug" />
		<tag k="place" v="farm" />
		<tag k="ssr:stedsnr" v="1830" />
	</node>
	<node lat="59.0674305531515" lon="8.721158328348448" id="-20546">
		<tag k="name" v="Langmyrhovet" />
		<tag k="place" v="isolated_dwelling" />
		<tag k="ssr:stedsnr" v="2605" />
	</node>
	<node lat="59.213280556796285" lon="8.720772215570465" id="-20552">
		<tag k="alt_name" v="Lien" />
		<tag k="name" v="Lia" />
		<tag k="place" v="farm" />
		<tag k="ssr:stedsnr" v="2905" />
	</node>
	<node lat="59.02559722116525" lon="9.34923332509946" id="-20578">
		<tag k="name" v="Skarelvholet" />
		<tag k="place" v="locality" />
		<tag k="ssr:stedsnr" v="40760" />
	</node>
	<node lat="58.96058611534813" lon="9.143155563734478" id="-20602">
		<tag k="name" v="Linås" />
		<tag k="place" v="farm" />
		<tag k="ssr:stedsnr" v="41793" />
	</node>
	<node lat="59.184408330503686" lon="8.802727769319116" id="-20613">
		<tag k="name" v="Haugen" />
		<tag k="place" v="locality" />
		<tag k="ssr:stedsnr" v="42878" />
	</node>
	<node lat="58.9106416684685" lon="9.175308337118963" id="-20627">
		<tag k="name" v="Måbuholta" />
		<tag k="place" v="farm" />
		<tag k="ssr:stedsnr" v="238460" />
	</node>
	<node lat="59.191891669420244" lon="9.15876388922666" id="-20634">
		<tag k="name" v="Lille Høydalen" />
		<tag k="place" v="locality" />
		<tag k="ssr:stedsnr" v="239066" />
	</node>
	<node lat="59.13956944048592" lon="9.140658338072335" id="-20642">
		<tag k="name" v="Bjortjennstua" />
		<tag k="place" v="locality" />
		<tag k="ssr:stedsnr" v="239204" />
	</node>
	<node lat="59.07253888484614" lon="8.757438894684425" id="-20653">
		<tag k="name" v="Saga" />
		<tag k="place" v="locality" />
		<tag k="ssr:stedsnr" v="239640" />
	</node>
	<node lat="58.99741944574509" lon="9.021502783645515" id="-20656">
		<tag k="fixme" v="consider tourism=alpine_hut or tourism=chalet" />
		<tag k="name" v="Fesetstua" />
		<tag k="ssr:stedsnr" v="239670" />
		<tag k="tourism" v="wilderness_hut" />
	</node>
	<node lat="59.117302776201235" lon="9.23862499642395" id="-20659">
		<tag k="name" v="Ellingseter" />
		<tag k="place" v="isolated_dwelling" />
		<tag k="ssr:stedsnr" v="239690" />
	</node>
	<node lat="59.223647221691394" lon="8.805566672422618" id="-20661">
		<tag k="name" v="Blomstad" />
		<tag k="place" v="locality" />
		<tag k="ssr:stedsnr" v="55007" />
	</node>
	<node lat="59.04773055153754" lon="9.194424997159183" id="-20674">
		<tag k="name" v="Høgbråten" />
		<tag k="place" v="isolated_dwelling" />
		<tag k="ssr:stedsnr" v="239965" />
	</node>
	<node lat="59.0601027736763" lon="9.118247225993903" id="-20695">
		<tag k="name" v="Sandåsen" />
		<tag k="place" v="isolated_dwelling" />
		<tag k="ssr:stedsnr" v="57412" />
	</node>
	<node lat="59.06448888492769" lon="9.199194436179543" id="-20702">
		<tag k="name" v="Røysland" />
		<tag k="place" v="isolated_dwelling" />
		<tag k="ssr:stedsnr" v="57786" />
	</node>
</osm>
