<?xml version="1.0" encoding="UTF-8"?>
<osm version="0.6" generator="osmapis">
	<node lat="58.950894441071924" lon="9.131830556051217" id="-25621">
		<tag k="bridge" v="yes" />
		<tag k="layer" v="1" />
		<tag k="name" v="Fosstveit" />
		<tag k="ssr:stedsnr" v="46306" />
	</node>
	<node lat="59.203363884883096" lon="8.79124166092793" id="-25622">
		<tag k="bridge" v="yes" />
		<tag k="layer" v="1" />
		<tag k="name" v="Holtane" />
		<tag k="ssr:stedsnr" v="46313" />
	</node>
	<node lat="59.002666671042725" lon="9.141252778793852" id="-25648">
		<tag k="bridge" v="yes" />
		<tag k="layer" v="1" />
		<tag k="name" v="Kloppa" />
		<tag k="ssr:stedsnr" v="239514" />
	</node>
	<node lat="59.08005555367245" lon="8.897405562908464" id="-25688">
		<tag k="highway" v="path" />
		<tag k="name" v="Aslaksmyrstigen" />
		<tag k="ssr:stedsnr" v="57219" />
	</node>
	<node lat="59.09160555733683" lon="8.978458326429308" id="-25741">
		<tag k="name" v="Hestevelta" />
		<tag k="place" v="locality" />
		<tag k="ssr:stedsnr" v="240752" />
	</node>
	<node lat="59.185791665331244" lon="9.08799999393951" id="-25862">
		<tag k="name" v="Nakksjø" />
		<tag k="railway" v="halt" />
		<tag k="ssr:stedsnr" v="244375" />
		<tag k="train" v="yes" />
	</node>
	<node lat="58.94188611004316" lon="9.135972222284662" id="-25897">
		<tag k="name" v="Brøsjø stasjon" />
		<tag k="old_name" v="Brøsjø" />
		<tag k="railway" v="halt" />
		<tag k="ssr:stedsnr" v="100426" />
		<tag k="train" v="yes" />
	</node>
	<node lat="59.247055552222854" lon="8.661150005800776" id="-25915">
		<tag k="name" v="Sagvelta" />
		<tag k="place" v="locality" />
		<tag k="ssr:stedsnr" v="101526" />
	</node>
	<node lat="59.06237500348981" lon="9.07298888715339" id="-25941">
		<tag k="bridge" v="yes" />
		<tag k="layer" v="1" />
		<tag k="name" v="Voje nordre" />
		<tag k="old_name" v="Nordre Våje bru" />
		<tag k="ssr:stedsnr" v="107272" />
	</node>
	<node lat="58.93948333261373" lon="9.137466672180258" id="-25942">
		<tag k="bridge" v="yes" />
		<tag k="layer" v="1" />
		<tag k="name" v="Brøsjø bru" />
		<tag k="ssr:stedsnr" v="107293" />
	</node>
	<node lat="59.13021111472036" lon="9.093466672584988" id="-26058">
		<tag k="name" v="Kjosen" />
		<tag k="railway" v="halt" />
		<tag k="ssr:stedsnr" v="145112" />
		<tag k="train" v="yes" />
	</node>
	<node lat="59.26827499883003" lon="8.78701666806521" id="-26115">
		<tag k="ford" v="yes" />
		<tag k="name" v="Tremyrvadet" />
		<tag k="place" v="locality" />
		<tag k="ssr:stedsnr" v="178167" />
	</node>
	<node lat="59.06438055957059" lon="9.213347216062825" id="-26127">
		<tag k="ford" v="yes" />
		<tag k="name" v="Vadet" />
		<tag k="place" v="locality" />
		<tag k="ssr:stedsnr" v="178771" />
	</node>
	<node lat="59.1395694469569" lon="9.107427785206275" id="-26132">
		<tag k="name" v="Velta" />
		<tag k="place" v="locality" />
		<tag k="ssr:stedsnr" v="179225" />
	</node>
	<node lat="59.14890555203943" lon="8.772700008306234" id="-26181">
		<tag k="fixme" v="multiple name tags, choose one and add the other to alt_name" />
		<tag k="landuse" v="industrial" />
		<tag k="name" v="Kleiv;Suvdøla" />
		<tag k="power" v="plant" />
		<tag k="ssr:stedsnr" v="183690" />
	</node>
	<node lat="59.11215833600851" lon="9.101236113817555" id="-26268">
		<tag k="bridge" v="yes" />
		<tag k="layer" v="1" />
		<tag k="name" v="Vierbekk" />
		<tag k="ssr:stedsnr" v="228285" />
	</node>
	<node lat="59.038408337794834" lon="8.839638891051242" id="-26291">
		<tag k="bridge" v="yes" />
		<tag k="layer" v="1" />
		<tag k="name" v="Ondehommsbrua" />
		<tag k="ssr:stedsnr" v="239283" />
	</node>
	<node lat="59.07405278020936" lon="8.742252782488851" id="-26299">
		<tag k="fixme" v="verify maritime location" />
		<tag k="mooring" v="yes" />
		<tag k="name" v="Eikestøa" />
		<tag k="place" v="locality" />
		<tag k="ssr:stedsnr" v="239634" />
	</node>
	<node lat="59.098711113549776" lon="8.789461108739197" id="-26327">
		<tag k="man_made" v="cairn" />
		<tag k="name" v="Varden" />
		<tag k="place" v="locality" />
		<tag k="ssr:stedsnr" v="241731" />
	</node>
	<node lat="59.19112500380803" lon="8.772872216563302" id="-26410">
		<tag k="man_made" v="cairn" />
		<tag k="name" v="Varden" />
		<tag k="place" v="locality" />
		<tag k="ssr:stedsnr" v="283973" />
	</node>
	<node lat="59.20831666958503" lon="8.716452773972554" id="-26422">
		<tag k="bridge" v="yes" />
		<tag k="layer" v="1" />
		<tag k="name" v="Vintervadbrua" />
		<tag k="ssr:stedsnr" v="284429" />
	</node>
	<node lat="59.14616666310924" lon="8.817505548050944" id="-26436">
		<tag k="bridge" v="yes" />
		<tag k="layer" v="1" />
		<tag k="name" v="Grave" />
		<tag k="ssr:stedsnr" v="289278" />
	</node>
	<node lat="59.223533335109394" lon="8.676838896270157" id="-26610">
		<tag k="bridge" v="yes" />
		<tag k="layer" v="1" />
		<tag k="name" v="Heibekk" />
		<tag k="ssr:stedsnr" v="471283" />
	</node>
	<node lat="59.10343889316841" lon="8.885988891302103" id="-26611">
		<tag k="alt_name" v="Bustrakbrua" />
		<tag k="bridge" v="yes" />
		<tag k="layer" v="1" />
		<tag k="name" v="Bostrak" />
		<tag k="old_name" v="Bostrakbrua" />
		<tag k="ssr:stedsnr" v="334706" />
	</node>
	<node lat="59.0279861145071" lon="9.277274995914363" id="-26622">
		<tag k="fixme" v="verify maritime location" />
		<tag k="mooring" v="yes" />
		<tag k="name" v="Røsla" />
		<tag k="place" v="locality" />
		<tag k="ssr:stedsnr" v="343772" />
	</node>
	<node lat="59.129980552478855" lon="9.09414722899569" id="-26697">
		<tag k="name" v="Kjosen" />
		<tag k="railway" v="station" />
		<tag k="ssr:stedsnr" v="366193" />
		<tag k="train" v="yes" />
	</node>
	<node lat="59.04577777839586" lon="8.74181111741948" id="-26875">
		<tag k="fixme" v="multiple name tags, choose one and add the other to alt_name" />
		<tag k="man_made" v="cairn" />
		<tag k="name" v="Blekvarden;Nonsåsheivarden" />
		<tag k="place" v="locality" />
		<tag k="ssr:stedsnr" v="486552" />
	</node>
	<node lat="59.214744442665875" lon="8.724283338386478" id="-26889">
		<tag k="bridge" v="yes" />
		<tag k="layer" v="1" />
		<tag k="name" v="Brosdal" />
		<tag k="ssr:stedsnr" v="410306" />
	</node>
	<node lat="59.043052780844555" lon="9.106449992983704" id="-26890">
		<tag k="bridge" v="yes" />
		<tag k="layer" v="1" />
		<tag k="name" v="Ringnes" />
		<tag k="ssr:stedsnr" v="410311" />
	</node>
	<node lat="58.97134166507241" lon="9.156255557710729" id="-26996">
		<tag k="name" v="Neslandsvatn" />
		<tag k="railway" v="station" />
		<tag k="ssr:stedsnr" v="425897" />
		<tag k="train" v="yes" />
	</node>
	<node lat="59.21431666885491" lon="8.736833336624231" id="-27085">
		<tag k="bridge" v="yes" />
		<tag k="layer" v="1" />
		<tag k="name" v="Austad" />
		<tag k="ssr:stedsnr" v="471310" />
	</node>
	<node lat="58.91725832926238" lon="9.187194448311798" id="-27093">
		<tag k="highway" v="path" />
		<tag k="name" v="Bustien" />
		<tag k="ssr:stedsnr" v="480410" />
	</node>
	<node lat="59.088372219257785" lon="8.99467777917414" id="-27105">
		<tag k="highway" v="path" />
		<tag k="name" v="Stigen" />
		<tag k="ssr:stedsnr" v="481778" />
	</node>
	<node lat="58.95549444034498" lon="9.093558334761168" id="-27229">
		<tag k="ford" v="yes" />
		<tag k="name" v="Steinbekkvadet" />
		<tag k="place" v="locality" />
		<tag k="ssr:stedsnr" v="526318" />
	</node>
	<node lat="59.11465833579697" lon="8.873549993832025" id="-27248">
		<tag k="bridge" v="yes" />
		<tag k="layer" v="1" />
		<tag k="name" v="Grotbekk" />
		<tag k="ssr:stedsnr" v="532275" />
	</node>
	<node lat="59.236766668978106" lon="8.779647222181577" id="-27249">
		<tag k="bridge" v="yes" />
		<tag k="layer" v="1" />
		<tag k="name" v="Stigbekk" />
		<tag k="ssr:stedsnr" v="532279" />
	</node>
	<node lat="59.11574444560092" lon="8.799716667903528" id="-27284">
		<tag k="man_made" v="cairn" />
		<tag k="name" v="Vestlivarden" />
		<tag k="place" v="locality" />
		<tag k="ssr:stedsnr" v="542776" />
	</node>
	<node lat="59.16604722379429" lon="9.061441666949207" id="-27302">
		<tag k="fixme" v="verify maritime location" />
		<tag k="mooring" v="yes" />
		<tag k="name" v="Eggestø" />
		<tag k="place" v="locality" />
		<tag k="ssr:stedsnr" v="544173" />
	</node>
</osm>
