<?xml version="1.0" encoding="UTF-8"?>
<osm generator="osmapis" version="0.6">
	<node id="-515072" lat="61.1667361152" lon="7.00348611939">
		<tag k="bay" v="fjord" />
		<tag k="name" v="Sogndalsfjorden" />
		<tag k="natural" v="bay" />
		<tag k="ssr:stedsnr" v="859025" />
	</node>
	<node id="-514043" lat="61.4146861069" lon="6.76000277296">
		<tag k="name" v="Stølaviki" />
		<tag k="natural" v="bay" />
		<tag k="ssr:stedsnr" v="236751" />
	</node>
	<node id="-514040" lat="61.4103739433" lon="6.74405565025">
		<tag k="name" v="Labergneset" />
		<tag k="natural" v="cape" />
		<tag k="ssr:stedsnr" v="236043" />
	</node>
	<node id="-514551" lat="61.3483944469" lon="6.71615278398">
		<tag k="name" v="Bukkhaldsneset" />
		<tag k="natural" v="cape" />
		<tag k="ssr:stedsnr" v="614949" />
	</node>
	<node id="-514032" lat="61.1936277816" lon="7.07156667278">
		<tag k="name" v="Venesvikbukti" />
		<tag k="natural" v="bay" />
		<tag k="ssr:stedsnr" v="215622" />
	</node>
	<node id="-514539" lat="61.191841666" lon="7.03263610626">
		<tag k="bay" v="fjord" />
		<tag k="name" v="Norafjorden" />
		<tag k="natural" v="bay" />
		<tag k="ssr:stedsnr" v="614471" />
	</node>
	<node id="-514022" lat="61.3049527736" lon="6.66294443844">
		<tag k="name" v="Øyri" />
		<tag k="natural" v="bay" />
		<tag k="ssr:stedsnr" v="214995" />
	</node>
	<node id="-513734" lat="61.2639277742" lon="7.1623138917">
		<tag k="name" v="Røysaneset" />
		<tag k="natural" v="cape" />
		<tag k="ssr:stedsnr" v="93370" />
	</node>
	<node id="-513495" lat="61.4052000033" lon="6.75851666038">
		<tag k="name" v="Tunga" />
		<tag k="natural" v="cape" />
		<tag k="ssr:stedsnr" v="883965" />
	</node>
	<node id="-515022" lat="61.4125805548" lon="6.74401944697">
		<tag k="alt_name" v="Uraviki" />
		<tag k="name" v="Urabukti" />
		<tag k="natural" v="bay" />
		<tag k="ssr:stedsnr" v="822964" />
	</node>
	<node id="-514508" lat="61.4076666625" lon="6.74386666219">
		<tag k="name" v="Sandaneset" />
		<tag k="natural" v="cape" />
		<tag k="ssr:stedsnr" v="602054" />
	</node>
	<node id="-515063" lat="61.2637944404" lon="7.16474444096">
		<tag k="name" v="Bogen" />
		<tag k="natural" v="bay" />
		<tag k="ssr:stedsnr" v="858359" />
	</node>
	<node id="-513480" lat="61.2488527815" lon="7.14415833034">
		<tag k="name" v="Kobbalåten" />
		<tag k="natural" v="cape" />
		<tag k="ssr:stedsnr" v="882901" />
	</node>
	<node id="-513479" lat="61.324094441" lon="6.70428332514">
		<tag k="name" v="Gloppeskredneset" />
		<tag k="natural" v="cape" />
		<tag k="ssr:stedsnr" v="882875" />
	</node>
	<node id="-515010" lat="61.2529166664" lon="7.12969165801">
		<tag k="name" v="Vetlasundet" />
		<tag k="natural" v="strait" />
		<tag k="ssr:stedsnr" v="822541" />
	</node>
	<node id="-515004" lat="61.2337916639" lon="7.12529722097">
		<tag k="name" v="Smieneset" />
		<tag k="natural" v="cape" />
		<tag k="ssr:stedsnr" v="822430" />
	</node>
	<node id="-514489" lat="61.3582750015" lon="6.72278611701">
		<tag k="fixme" v="consider seamark:type=rock or natural=shoal" />
		<tag k="name" v="Kviteskjeri" />
		<tag k="place" v="islet" />
		<tag k="ssr:stedsnr" v="578929" />
	</node>
	<node id="-513464" lat="61.3990500017" lon="6.75603888702">
		<tag k="name" v="Mundalsstrondi" />
		<tag k="natural" v="beach" />
		<tag k="place" v="locality" />
		<tag k="ssr:stedsnr" v="882494" />
	</node>
	<node id="-513973" lat="61.1945138858" lon="7.06856944932">
		<tag k="name" v="Lindborgbukti" />
		<tag k="natural" v="bay" />
		<tag k="ssr:stedsnr" v="192041" />
	</node>
	<node id="-513970" lat="61.1588055573" lon="7.17582778037">
		<tag k="name" v="Rudsviki" />
		<tag k="natural" v="bay" />
		<tag k="ssr:stedsnr" v="192023" />
	</node>
	<node id="-513969" lat="61.1559972243" lon="6.99816111254">
		<tag k="name" v="Nornessundet" />
		<tag k="natural" v="strait" />
		<tag k="ssr:stedsnr" v="192020" />
	</node>
	<node id="-513960" lat="61.1597361069" lon="6.92215554684">
		<tag k="name" v="Saltskjer" />
		<tag k="natural" v="cape" />
		<tag k="ssr:stedsnr" v="191798" />
	</node>
	<node id="-513435" lat="61.4163055537" lon="6.75971945101">
		<tag k="name" v="Storaneset" />
		<tag k="natural" v="cape" />
		<tag k="ssr:stedsnr" v="397960" />
	</node>
	<node id="-514458" lat="61.3947277808" lon="6.73911667271">
		<tag k="name" v="Kvina" />
		<tag k="natural" v="beach" />
		<tag k="place" v="locality" />
		<tag k="ssr:stedsnr" v="578502" />
	</node>
	<node id="-514457" lat="61.158030553" lon="6.98222499267">
		<tag k="name" v="Ingebrigtsneset" />
		<tag k="natural" v="cape" />
		<tag k="ssr:stedsnr" v="578498" />
	</node>
	<node id="-514958" lat="61.2131444425" lon="7.09437221895">
		<tag k="alt_name" v="Skjersneset" />
		<tag k="name" v="Skjersnes" />
		<tag k="natural" v="cape" />
		<tag k="ssr:stedsnr" v="799073" />
	</node>
	<node id="-514285" lat="61.155719443" lon="7.00427500538">
		<tag k="name" v="Hagastrondi" />
		<tag k="natural" v="beach" />
		<tag k="place" v="locality" />
		<tag k="ssr:stedsnr" v="495031" />
	</node>
	<node id="-513415" lat="61.3476722232" lon="6.71463611002">
		<tag k="name" v="Leirviki" />
		<tag k="natural" v="bay" />
		<tag k="ssr:stedsnr" v="396929" />
	</node>
	<node id="-514950" lat="61.1719749965" lon="7.02955833497">
		<tag k="name" v="Fagersand" />
		<tag k="natural" v="beach" />
		<tag k="place" v="locality" />
		<tag k="ssr:stedsnr" v="799006" />
	</node>
	<node id="-513458" lat="61.1219916701" lon="7.00235833485">
		<tag k="name" v="Leirståi" />
		<tag k="natural" v="bay" />
		<tag k="ssr:stedsnr" v="882458" />
	</node>
	<node id="-514947" lat="61.161463886" lon="6.91075834017">
		<tag k="name" v="Fiksnes" />
		<tag k="natural" v="cape" />
		<tag k="ssr:stedsnr" v="798795" />
	</node>
	<node id="-514946" lat="61.1458138903" lon="6.93146945049">
		<tag k="name" v="Kvitholmen" />
		<tag k="natural" v="shoal" />
		<tag k="place" v="locality" />
		<tag k="ssr:stedsnr" v="798789" />
	</node>
	<node id="-513918" lat="61.1508722249" lon="6.99467778116">
		<tag k="name" v="Indrebogen" />
		<tag k="natural" v="bay" />
		<tag k="ssr:stedsnr" v="177018" />
	</node>
	<node id="-514429" lat="61.23759722" lon="7.13176110464">
		<tag k="name" v="Skrivarholmen" />
		<tag k="natural" v="cape" />
		<tag k="ssr:stedsnr" v="556134" />
	</node>
	<node id="-513916" lat="61.3195500037" lon="6.67352222506">
		<tag k="name" v="Skarskredgrunnen" />
		<tag k="natural" v="shoal" />
		<tag k="place" v="locality" />
		<tag k="ssr:stedsnr" v="175480" />
	</node>
	<node id="-513403" lat="61.2901444409" lon="6.68294445108">
		<tag k="name" v="Sandskredsneset" />
		<tag k="natural" v="cape" />
		<tag k="ssr:stedsnr" v="396716" />
	</node>
	<node id="-514415" lat="61.1808499997" lon="7.0334333362">
		<tag k="alt_name" v="Venesholmane" />
		<tag k="name" v="Vinesholmane" />
		<tag k="place" v="islet" />
		<tag k="ssr:stedsnr" v="555051" />
	</node>
	<node id="-514923" lat="61.2527972251" lon="7.13343332914">
		<tag k="alt_name" v="Storøyna" />
		<tag k="name" v="Øyna" />
		<tag k="place" v="islet" />
		<tag k="ssr:stedsnr" v="797261" />
	</node>
	<node id="-514410" lat="61.1997416682" lon="7.05432778113">
		<tag k="alt_name" v="Ryggneset" />
		<tag k="name" v="Ryggsneset" />
		<tag k="natural" v="cape" />
		<tag k="ssr:stedsnr" v="555032" />
	</node>
	<node id="-514921" lat="61.2495972233" lon="7.15526945064">
		<tag k="name" v="Vikastrondi" />
		<tag k="natural" v="beach" />
		<tag k="place" v="locality" />
		<tag k="ssr:stedsnr" v="797254" />
	</node>
	<node id="-513893" lat="61.2618805568" lon="7.17342499264">
		<tag k="name" v="Bjørgi" />
		<tag k="natural" v="beach" />
		<tag k="place" v="locality" />
		<tag k="ssr:stedsnr" v="154503" />
	</node>
	<node id="-513917" lat="61.2088333348" lon="7.14733610697">
		<tag k="name" v="Hærnesbukti" />
		<tag k="natural" v="bay" />
		<tag k="ssr:stedsnr" v="176054" />
	</node>
	<node id="-513367" lat="61.2355416658" lon="7.11749999562">
		<tag k="name" v="Kløvhola" />
		<tag k="natural" v="bay" />
		<tag k="ssr:stedsnr" v="374124" />
	</node>
	<node id="-514902" lat="61.1587222194" lon="6.92683332544">
		<tag k="name" v="Lundagrunnen" />
		<tag k="natural" v="shoal" />
		<tag k="place" v="locality" />
		<tag k="ssr:stedsnr" v="783594" />
	</node>
	<node id="-514901" lat="61.1418555537" lon="6.92857222275">
		<tag k="name" v="Meisaneset" />
		<tag k="natural" v="cape" />
		<tag k="ssr:stedsnr" v="783331" />
	</node>
	<node id="-514373" lat="61.3980777779" lon="6.73912778103">
		<tag k="name" v="Pålsneset" />
		<tag k="natural" v="cape" />
		<tag k="ssr:stedsnr" v="541050" />
	</node>
	<node id="-514883" lat="61.2506305542" lon="7.13840833459">
		<tag k="name" v="Risaneset" />
		<tag k="natural" v="cape" />
		<tag k="ssr:stedsnr" v="761545" />
	</node>
	<node id="-514370" lat="61.1585722237" lon="6.9212111032">
		<tag k="name" v="Saltskjerflua" />
		<tag k="natural" v="shoal" />
		<tag k="place" v="locality" />
		<tag k="ssr:stedsnr" v="540595" />
	</node>
	<node id="-514368" lat="61.1573250029" lon="6.96365554956">
		<tag k="name" v="Flesen" />
		<tag k="natural" v="shoal" />
		<tag k="place" v="locality" />
		<tag k="ssr:stedsnr" v="540392" />
	</node>
	<node id="-514367" lat="61.1540916654" lon="6.96070278191">
		<tag k="name" v="Grunnane" />
		<tag k="natural" v="shoal" />
		<tag k="place" v="locality" />
		<tag k="ssr:stedsnr" v="540390" />
	</node>
	<node id="-514875" lat="61.3488194444" lon="6.71741389101">
		<tag k="alt_name" v="Bukkehaldviki" />
		<tag k="name" v="Bukkhaldviki" />
		<tag k="natural" v="bay" />
		<tag k="ssr:stedsnr" v="760933" />
	</node>
	<node id="-513834" lat="61.1618472255" lon="6.95101667203">
		<tag k="alt_name" v="Slindeviki" />
		<tag k="name" v="Slindaviki" />
		<tag k="natural" v="bay" />
		<tag k="ssr:stedsnr" v="130801" />
	</node>
	<node id="-515207" lat="61.1590916707" lon="6.96889445022">
		<tag k="alt_name" v="Flesaskjeret" />
		<tag k="name" v="Fleskaskjeret" />
		<tag k="natural" v="cape" />
		<tag k="ssr:stedsnr" v="942546" />
	</node>
	<node id="-513308" lat="61.2422888926" lon="7.13005000434">
		<tag k="fixme" v="consider seamark:type=rock or natural=shoal" />
		<tag k="name" v="Håvardskjeret" />
		<tag k="place" v="islet" />
		<tag k="ssr:stedsnr" v="358054" />
	</node>
	<node id="-514331" lat="61.2560388884" lon="7.13238888534">
		<tag k="name" v="Porsnes" />
		<tag k="natural" v="cape" />
		<tag k="ssr:stedsnr" v="518478" />
	</node>
	<node id="-514903" lat="61.1719583325" lon="7.25180833049">
		<tag k="name" v="Kaupangsmynnet" />
		<tag k="natural" v="strait" />
		<tag k="ssr:stedsnr" v="785850" />
	</node>
	<node id="-514833" lat="61.2067555516" lon="7.064302772">
		<tag k="name" v="Bondeviki" />
		<tag k="natural" v="bay" />
		<tag k="ssr:stedsnr" v="738104" />
	</node>
	<node id="-513293" lat="61.3402416657" lon="6.6982388807">
		<tag k="alt_name" v="Fiskhaldneset" />
		<tag k="name" v="Fiskehaldneset" />
		<tag k="natural" v="cape" />
		<tag k="ssr:stedsnr" v="336880" />
	</node>
	<node id="-514828" lat="61.1787749993" lon="7.25061111572">
		<tag k="name" v="Amlabukti" />
		<tag k="natural" v="bay" />
		<tag k="ssr:stedsnr" v="738005" />
	</node>
	<node id="-515210" lat="61.1498722227" lon="6.98491943522">
		<tag k="name" v="Oksahaugen" />
		<tag k="natural" v="cape" />
		<tag k="ssr:stedsnr" v="942606" />
	</node>
	<node id="-515031" lat="61.1514999972" lon="6.97478888287">
		<tag k="name" v="Buatangen" />
		<tag k="natural" v="cape" />
		<tag k="ssr:stedsnr" v="845014" />
	</node>
	<node id="-514823" lat="61.1124777779" lon="6.94667776885">
		<tag k="name" v="Hønsaneset" />
		<tag k="natural" v="cape" />
		<tag k="ssr:stedsnr" v="737797" />
	</node>
	<node id="-513284" lat="61.2934611086" lon="6.65630277018">
		<tag k="name" v="Nausthaugviki" />
		<tag k="natural" v="bay" />
		<tag k="ssr:stedsnr" v="336752" />
	</node>
	<node id="-514306" lat="61.1074194444" lon="6.99136111956">
		<tag k="name" v="Gagersnes" />
		<tag k="natural" v="cape" />
		<tag k="ssr:stedsnr" v="511783" />
	</node>
	<node id="-513792" lat="61.4103777757" lon="6.75954444447">
		<tag k="name" v="Moshammarneset" />
		<tag k="natural" v="cape" />
		<tag k="ssr:stedsnr" v="115724" />
	</node>
	<node id="-513791" lat="61.161782568" lon="7.33914985978">
		<tag k="name" v="Hansaholet" />
		<tag k="natural" v="bay" />
		<tag k="ssr:stedsnr" v="115353" />
	</node>
	<node id="-513749" lat="61.1585611067" lon="7.22626943737">
		<tag k="bay" v="fjord" />
		<tag k="name" v="Sognefjorden" />
		<tag k="natural" v="bay" />
		<tag k="ssr:stedsnr" v="93524" />
	</node>
	<node id="-513274" lat="61.1627722261" lon="7.28183332519">
		<tag k="name" v="Heggebakkneset" />
		<tag k="natural" v="cape" />
		<tag k="ssr:stedsnr" v="336529" />
	</node>
	<node id="-513273" lat="61.3966222237" lon="6.7391388808">
		<tag k="name" v="Nesaviki" />
		<tag k="natural" v="bay" />
		<tag k="ssr:stedsnr" v="336519" />
	</node>
	<node id="-514295" lat="61.2345638926" lon="7.12998612007">
		<tag k="name" v="Døviki" />
		<tag k="natural" v="bay" />
		<tag k="ssr:stedsnr" v="495132" />
	</node>
	<node id="-514801" lat="61.151763886" lon="6.95397777809">
		<tag k="fixme" v="consider seamark:type=rock or natural=shoal" />
		<tag k="name" v="Påskasteinen" />
		<tag k="place" v="islet" />
		<tag k="ssr:stedsnr" v="723006" />
	</node>
	<node id="-514798" lat="61.2203583376" lon="7.10283888722">
		<tag k="name" v="Stedjebukti" />
		<tag k="natural" v="bay" />
		<tag k="ssr:stedsnr" v="722068" />
	</node>
	<node id="-514797" lat="61.2575000018" lon="7.13766667301">
		<tag k="fixme" v="consider seamark:type=rock or natural=shoal" />
		<tag k="name" v="Lyraskjera" />
		<tag k="place" v="islet" />
		<tag k="ssr:stedsnr" v="722063" />
	</node>
	<node id="-513234" lat="61.1413555554" lon="7.16578056049">
		<tag k="alt_name" v="Klovstein" />
		<tag k="name" v="Klovsteinen" />
		<tag k="natural" v="cape" />
		<tag k="ssr:stedsnr" v="313477" />
	</node>
	<node id="-513770" lat="61.3324861142" lon="6.68686110215">
		<tag k="name" v="Øyri" />
		<tag k="natural" v="cape" />
		<tag k="ssr:stedsnr" v="93905" />
	</node>
	<node id="-514793" lat="61.3537194467" lon="6.72195832562">
		<tag k="name" v="Lyngsetneset" />
		<tag k="natural" v="cape" />
		<tag k="ssr:stedsnr" v="721018" />
	</node>
	<node id="-514277" lat="61.1366194429" lon="6.93324165944">
		<tag k="alt_name" v="Meisaviki" />
		<tag k="name" v="Meisavika" />
		<tag k="natural" v="bay" />
		<tag k="ssr:stedsnr" v="494748" />
	</node>
	<node id="-513146" lat="61.3146527813" lon="6.69761111517">
		<tag k="name" v="Ospeneset" />
		<tag k="natural" v="cape" />
		<tag k="ssr:stedsnr" v="275987" />
	</node>
	<node id="-513241" lat="61.3448722233" lon="6.70646388624">
		<tag k="name" v="Heimstaneset" />
		<tag k="natural" v="cape" />
		<tag k="ssr:stedsnr" v="324637" />
	</node>
	<node id="-514773" lat="61.2803944418" lon="6.68018333013">
		<tag k="name" v="Lasseløa" />
		<tag k="natural" v="beach" />
		<tag k="place" v="locality" />
		<tag k="ssr:stedsnr" v="700765" />
	</node>
	<node id="-513746" lat="61.1510388843" lon="6.99275277071">
		<tag k="name" v="Hundaholmen" />
		<tag k="place" v="islet" />
		<tag k="ssr:stedsnr" v="93553" />
	</node>
	<node id="-513735" lat="61.259130556" lon="7.14978889761">
		<tag k="name" v="Sundhella" />
		<tag k="natural" v="cape" />
		<tag k="ssr:stedsnr" v="93381" />
	</node>
	<node id="-514246" lat="61.3019527817" lon="6.68498334063">
		<tag k="name" v="Karihamn" />
		<tag k="natural" v="cape" />
		<tag k="ssr:stedsnr" v="493238" />
	</node>
	<node id="-513217" lat="61.1529333361" lon="6.97094166898">
		<tag k="alt_name" v="Tangen" />
		<tag k="name" v="Gjerlogtangen" />
		<tag k="natural" v="cape" />
		<tag k="ssr:stedsnr" v="313025" />
	</node>
	<node id="-515261" lat="61.253972226" lon="7.12935554818">
		<tag k="name" v="Kvamsviki" />
		<tag k="natural" v="bay" />
		<tag k="ssr:stedsnr" v="965067" />
	</node>
	<node id="-515260" lat="61.2461638846" lon="7.11341667556">
		<tag k="name" v="Kvamsbukti" />
		<tag k="natural" v="bay" />
		<tag k="ssr:stedsnr" v="965065" />
	</node>
	<node id="-514738" lat="61.1498916691" lon="6.97658055216">
		<tag k="name" v="Kvammen" />
		<tag k="natural" v="cape" />
		<tag k="ssr:stedsnr" v="699584" />
	</node>
	<node id="-515245" lat="61.3783805553" lon="6.73144444412">
		<tag k="name" v="Nausthaugkvina" />
		<tag k="natural" v="beach" />
		<tag k="place" v="locality" />
		<tag k="ssr:stedsnr" v="943592" />
	</node>
	<node id="-513706" lat="61.1602305581" lon="6.94450556229">
		<tag k="name" v="Hoppeneset" />
		<tag k="natural" v="cape" />
		<tag k="ssr:stedsnr" v="70819" />
	</node>
	<node id="-514727" lat="61.1201777821" lon="7.00146665784">
		<tag k="name" v="Hyttedalsbukti" />
		<tag k="natural" v="bay" />
		<tag k="ssr:stedsnr" v="678488" />
	</node>
	<node id="-514211" lat="61.3175055536" lon="6.6989555482">
		<tag k="name" v="Perneset" />
		<tag k="natural" v="cape" />
		<tag k="ssr:stedsnr" v="457904" />
	</node>
	<node id="-513695" lat="61.2502305586" lon="7.13807777534">
		<tag k="name" v="Barsnes" />
		<tag k="natural" v="cape" />
		<tag k="ssr:stedsnr" v="69297" />
	</node>
	<node id="-515226" lat="61.2437333364" lon="7.11066111778">
		<tag k="name" v="Strondi" />
		<tag k="natural" v="beach" />
		<tag k="place" v="locality" />
		<tag k="ssr:stedsnr" v="942991" />
	</node>
	<node id="-514712" lat="61.4042138907" lon="6.75170555767">
		<tag k="bay" v="fjord" />
		<tag k="name" v="Fjærlandsfjorden" />
		<tag k="natural" v="bay" />
		<tag k="ssr:stedsnr" v="676692" />
	</node>
	<node id="-514199" lat="61.2277472215" lon="7.10267778377">
		<tag k="name" v="Granden" />
		<tag k="natural" v="cape" />
		<tag k="ssr:stedsnr" v="457743" />
	</node>
	<node id="-514198" lat="61.1723999986" lon="7.00017222861">
		<tag k="name" v="Buviki" />
		<tag k="natural" v="bay" />
		<tag k="ssr:stedsnr" v="457670" />
	</node>
	<node id="-513167" lat="61.389180557" lon="6.74104445066">
		<tag k="name" v="Homraneset" />
		<tag k="natural" v="cape" />
		<tag k="ssr:stedsnr" v="296029" />
	</node>
	<node id="-515213" lat="61.169111113" lon="6.99544444996">
		<tag k="name" v="Ølmheimsbukti" />
		<tag k="natural" v="bay" />
		<tag k="ssr:stedsnr" v="942707" />
	</node>
	<node id="-514186" lat="61.208616666" lon="7.14215555082">
		<tag k="name" v="Hærnes" />
		<tag k="natural" v="cape" />
		<tag k="ssr:stedsnr" v="457509" />
	</node>
	<node id="-513673" lat="61.2005250037" lon="7.1368805485">
		<tag k="alt_name" v="Langenes" />
		<tag k="name" v="Langaneset" />
		<tag k="natural" v="cape" />
		<tag k="ssr:stedsnr" v="68482" />
	</node>
	<node id="-514183" lat="61.2528138867" lon="7.16876111594">
		<tag k="alt_name" v="Skogdølneset" />
		<tag k="name" v="Skoddelneset" />
		<tag k="natural" v="cape" />
		<tag k="ssr:stedsnr" v="457393" />
	</node>
	<node id="-514172" lat="61.241572222" lon="7.13210277466">
		<tag k="name" v="Vandaneset" />
		<tag k="natural" v="cape" />
		<tag k="ssr:stedsnr" v="435119" />
	</node>
	<node id="-513658" lat="61.3854166625" lon="6.75346667213">
		<tag k="name" v="Perneset" />
		<tag k="natural" v="cape" />
		<tag k="ssr:stedsnr" v="54041" />
	</node>
	<node id="-513143" lat="61.3294055589" lon="6.68323332428">
		<tag k="name" v="Hesjasvåi" />
		<tag k="natural" v="beach" />
		<tag k="place" v="locality" />
		<tag k="ssr:stedsnr" v="275935" />
	</node>
	<node id="-514166" lat="61.1790277774" lon="7.01795832584">
		<tag k="name" v="Ylvesåkneset" />
		<tag k="natural" v="cape" />
		<tag k="ssr:stedsnr" v="435072" />
	</node>
	<node id="-514677" lat="61.2560361087" lon="7.15216667528">
		<tag k="alt_name" v="Barsnefjorden" />
		<tag k="bay" v="fjord" />
		<tag k="name" v="Barsnesfjorden" />
		<tag k="natural" v="bay" />
		<tag k="ssr:stedsnr" v="675305" />
	</node>
	<node id="-514154" lat="61.1747861093" lon="7.26158055005">
		<tag k="alt_name" v="Amlaneset" />
		<tag k="name" v="Neset" />
		<tag k="natural" v="cape" />
		<tag k="ssr:stedsnr" v="435012" />
	</node>
	<node id="-515176" lat="61.2051055592" lon="7.13826667296">
		<tag k="bay" v="fjord" />
		<tag k="name" v="Eidsfjorden" />
		<tag k="natural" v="bay" />
		<tag k="ssr:stedsnr" v="920099" />
	</node>
	<node id="-515171" lat="61.1976861106" lon="7.07706666373">
		<tag k="name" v="Pallaneset" />
		<tag k="natural" v="cape" />
		<tag k="ssr:stedsnr" v="920036" />
	</node>
	<node id="-514658" lat="61.1516694481" lon="6.9904250027">
		<tag k="name" v="Storeholmen" />
		<tag k="place" v="islet" />
		<tag k="ssr:stedsnr" v="677025" />
	</node>
	<node id="-515167" lat="61.1658777764" lon="6.99465277876">
		<tag k="alt_name" v="Kobbaskjeret" />
		<tag k="fixme" v="consider seamark:type=rock or natural=shoal" />
		<tag k="name" v="Kobbaskjer" />
		<tag k="place" v="islet" />
		<tag k="ssr:stedsnr" v="920014" />
	</node>
	<node id="-515166" lat="61.1645222177" lon="7.01362777063">
		<tag k="name" v="Vines" />
		<tag k="natural" v="cape" />
		<tag k="ssr:stedsnr" v="920012" />
	</node>
	<node id="-514653" lat="61.4089333371" lon="6.7438500059">
		<tag k="name" v="Kobbasteinen" />
		<tag k="natural" v="cape" />
		<tag k="ssr:stedsnr" v="663048" />
	</node>
	<node id="-515158" lat="61.1510861112" lon="6.9297111068">
		<tag k="bay" v="fjord" />
		<tag k="name" v="Norafjorden" />
		<tag k="natural" v="bay" />
		<tag k="ssr:stedsnr" v="919800" />
	</node>
	<node id="-514645" lat="61.3518388908" lon="6.72147221727">
		<tag k="name" v="Ramsagrø" />
		<tag k="natural" v="bay" />
		<tag k="ssr:stedsnr" v="639953" />
	</node>
	<node id="-515156" lat="61.1678916647" lon="7.3630749958">
		<tag k="alt_name" v="Grasskorneset" />
		<tag k="name" v="Grasskornes" />
		<tag k="natural" v="cape" />
		<tag k="ssr:stedsnr" v="919373" />
	</node>
	<node id="-513618" lat="61.1610750015" lon="6.99360834111">
		<tag k="name" v="Leirviki" />
		<tag k="natural" v="bay" />
		<tag k="ssr:stedsnr" v="32503" />
	</node>
	<node id="-513615" lat="61.2511444484" lon="7.13384167141">
		<tag k="name" v="Storasundet" />
		<tag k="natural" v="strait" />
		<tag k="ssr:stedsnr" v="32454" />
	</node>
	<node id="-514626" lat="61.2502555514" lon="7.12801944207">
		<tag k="name" v="Vetleøyna" />
		<tag k="place" v="islet" />
		<tag k="ssr:stedsnr" v="639515" />
	</node>
	<node id="-514794" lat="61.3696333346" lon="6.74728332554">
		<tag k="name" v="Raudboteklubben" />
		<tag k="natural" v="cape" />
		<tag k="ssr:stedsnr" v="721028" />
	</node>
	<node id="-514108" lat="61.1415805579" lon="6.92732500287">
		<tag k="name" v="Meisen" />
		<tag k="natural" v="cape" />
		<tag k="ssr:stedsnr" v="421837" />
	</node>
	<node id="-514107" lat="61.1365527812" lon="7.10268611228">
		<tag k="name" v="Futaspranget" />
		<tag k="natural" v="cape" />
		<tag k="ssr:stedsnr" v="420017" />
	</node>
	<node id="-513589" lat="61.1794083304" lon="7.03493610851">
		<tag k="name" v="Klingenbergodden" />
		<tag k="natural" v="cape" />
		<tag k="ssr:stedsnr" v="10052" />
	</node>
	<node id="-514654" lat="61.1719055519" lon="7.24554444592">
		<tag k="name" v="Kaupangsneset" />
		<tag k="natural" v="cape" />
		<tag k="ssr:stedsnr" v="663855" />
	</node>
	<node id="-513585" lat="61.1680027743" lon="7.21311389128">
		<tag k="name" v="Lauvgjerdsneset" />
		<tag k="natural" v="cape" />
		<tag k="ssr:stedsnr" v="10023" />
	</node>
	<node id="-514096" lat="61.1512527743" lon="6.98231111517">
		<tag k="alt_name" v="Vetleholmen" />
		<tag k="name" v="Vesleholmen" />
		<tag k="place" v="islet" />
		<tag k="ssr:stedsnr" v="253024" />
	</node>
	<node id="-514095" lat="61.1315694419" lon="6.93891944605">
		<tag k="name" v="Haugaviki" />
		<tag k="natural" v="bay" />
		<tag k="ssr:stedsnr" v="252750" />
	</node>
	<node id="-515117" lat="61.4046111104" lon="6.75841944993">
		<tag k="name" v="Toskeskredneset" />
		<tag k="natural" v="cape" />
		<tag k="ssr:stedsnr" v="904743" />
	</node>
	<node id="-515116" lat="61.1655583309" lon="6.90585833822">
		<tag k="name" v="Strondi" />
		<tag k="natural" v="beach" />
		<tag k="place" v="locality" />
		<tag k="ssr:stedsnr" v="904561" />
	</node>
	<node id="-515115" lat="61.2948944439" lon="6.68123054667">
		<tag k="name" v="Ramsneset" />
		<tag k="natural" v="cape" />
		<tag k="ssr:stedsnr" v="904460" />
	</node>
	<node id="-514090" lat="61.2489722192" lon="7.16036945222">
		<tag k="name" v="Vikalandet" />
		<tag k="natural" v="beach" />
		<tag k="place" v="locality" />
		<tag k="ssr:stedsnr" v="252109" />
	</node>
	<node id="-515113" lat="61.1596444467" lon="6.99508611807">
		<tag k="name" v="Nornes" />
		<tag k="natural" v="cape" />
		<tag k="ssr:stedsnr" v="904366" />
	</node>
	<node id="-515111" lat="61.203774998" lon="7.16288055576">
		<tag k="name" v="Eidsneset" />
		<tag k="natural" v="cape" />
		<tag k="ssr:stedsnr" v="904039" />
	</node>
	<node id="-515109" lat="61.3777166699" lon="6.73213610646">
		<tag k="name" v="Skredneset" />
		<tag k="natural" v="cape" />
		<tag k="ssr:stedsnr" v="903039" />
	</node>
	<node id="-514080" lat="61.3649444486" lon="6.72413332485">
		<tag k="name" v="Uranakken" />
		<tag k="natural" v="cape" />
		<tag k="ssr:stedsnr" v="250996" />
	</node>
	<node id="-514589" lat="61.1571888905" lon="7.32810000252">
		<tag k="alt_name" v="Luklaholsnes" />
		<tag k="name" v="Luklaholneset" />
		<tag k="natural" v="cape" />
		<tag k="ssr:stedsnr" v="617517" />
	</node>
	<node id="-514583" lat="61.1135722204" lon="6.95906389177">
		<tag k="alt_name" v="Kjøtsibukti" />
		<tag k="name" v="Kjøtsidbukti" />
		<tag k="natural" v="bay" />
		<tag k="ssr:stedsnr" v="616815" />
	</node>
	<node id="-514573" lat="61.1846861154" lon="7.03903611205">
		<tag k="alt_name" v="Skoltknubben" />
		<tag k="name" v="Skolt" />
		<tag k="natural" v="cape" />
		<tag k="ssr:stedsnr" v="616037" />
	</node>
	<node id="-515081" lat="61.2488833291" lon="7.12059722656">
		<tag k="name" v="Bryddaviki" />
		<tag k="natural" v="bay" />
		<tag k="ssr:stedsnr" v="859129" />
	</node>
</osm>
