<?xml version="1.0" encoding="UTF-8"?>
<osm generator="osmapis" version="0.6">
	<node id="-514048" lat="61.287889042" lon="7.00857681894">
		<tag k="historic" v="shieling" />
		<tag k="name" v="Gurvinstølen" />
		<tag k="place" v="locality" />
		<tag k="ssr:stedsnr" v="371394" />
	</node>
	<node id="-514047" lat="61.2686472257" lon="7.0442666677">
		<tag k="historic" v="shieling" />
		<tag k="name" v="Kråi" />
		<tag k="place" v="locality" />
		<tag k="ssr:stedsnr" v="371354" />
	</node>
	<node id="-514045" lat="61.2675067651" lon="7.1613500914">
		<tag k="fixme" v="consider place=hamlet" />
		<tag k="name" v="Nagløyri" />
		<tag k="place" v="farm" />
		<tag k="ssr:stedsnr" v="371342" />
	</node>
	<node id="-514044" lat="61.2572711854" lon="7.00731097393">
		<tag k="fixme" v="consider place=hamlet" />
		<tag k="name" v="Resaland" />
		<tag k="place" v="farm" />
		<tag k="ssr:stedsnr" v="371338" />
	</node>
	<node id="-514043" lat="61.2580666647" lon="7.01760555859">
		<tag k="name" v="Kalbakken" />
		<tag k="place" v="farm" />
		<tag k="ssr:stedsnr" v="371337" />
	</node>
	<node id="-514041" lat="61.27639969" lon="7.00778033465">
		<tag k="alt_name" v="Legsvoll" />
		<tag k="fixme" v="consider place=hamlet" />
		<tag k="name" v="Gjesthaug" />
		<tag k="place" v="farm" />
		<tag k="ssr:stedsnr" v="371320" />
	</node>
	<node id="-514040" lat="61.2808666658" lon="7.13518054702">
		<tag k="historic" v="shieling" />
		<tag k="name" v="Ølnesstølen" />
		<tag k="old_name" v="Ølnesstølan" />
		<tag k="place" v="locality" />
		<tag k="ssr:stedsnr" v="371314" />
	</node>
	<node id="-514035" lat="61.1898333334" lon="7.21240000595">
		<tag k="name" v="Søre Bjørk" />
		<tag k="place" v="farm" />
		<tag k="ssr:stedsnr" v="358328" />
	</node>
	<node id="-514033" lat="61.1859694479" lon="7.21970554927">
		<tag k="name" v="Kaupanger" />
		<tag k="place" v="quarter" />
		<tag k="ssr:stedsnr" v="356640" />
	</node>
	<node id="-514006" lat="61.2035333303" lon="7.04433610343">
		<tag k="name" v="Haugane" />
		<tag k="place" v="farm" />
		<tag k="ssr:stedsnr" v="336563" />
	</node>
	<node id="-514003" lat="61.2047111088" lon="7.17965555043">
		<tag k="name" v="Hola" />
		<tag k="place" v="farm" />
		<tag k="ssr:stedsnr" v="336539" />
	</node>
	<node id="-513993" lat="61.1864833375" lon="7.23034165991">
		<tag k="name" v="Teigen" />
		<tag k="place" v="farm" />
		<tag k="ssr:stedsnr" v="336171" />
	</node>
	<node id="-513989" lat="61.28343056" lon="7.02872222278">
		<tag k="name" v="Kraksete" />
		<tag k="place" v="locality" />
		<tag k="ssr:stedsnr" v="335889" />
	</node>
	<node id="-513977" lat="61.2189444485" lon="7.00106388402">
		<tag k="historic" v="shieling" />
		<tag k="name" v="Haugsstølen" />
		<tag k="place" v="locality" />
		<tag k="ssr:stedsnr" v="335514" />
	</node>
	<node id="-513964" lat="61.2349305595" lon="6.94615277731">
		<tag k="alt_name" v="Gautestølen" />
		<tag k="historic" v="shieling" />
		<tag k="name" v="Gautastølen" />
		<tag k="place" v="locality" />
		<tag k="ssr:stedsnr" v="313967" />
	</node>
	<node id="-513962" lat="61.1540361101" lon="7.12005278497">
		<tag k="name" v="Øvstajordi" />
		<tag k="place" v="locality" />
		<tag k="ssr:stedsnr" v="313488" />
	</node>
	<node id="-513955" lat="61.2321530171" lon="7.12670627843">
		<tag k="fixme" v="consider place=hamlet" />
		<tag k="name" v="Loftesnes" />
		<tag k="place" v="farm" />
		<tag k="ssr:stedsnr" v="313127" />
	</node>
	<node id="-516002" lat="61.1596216086" lon="7.17426942035">
		<tag k="name" v="Rudsvik" />
		<tag k="place" v="locality" />
		<tag k="ssr:stedsnr" v="979964" />
	</node>
	<node id="-516001" lat="61.1461126722" lon="7.10279226071">
		<tag k="fixme" v="consider place=hamlet" />
		<tag k="name" v="Haukåsen" />
		<tag k="place" v="farm" />
		<tag k="ssr:stedsnr" v="979962" />
	</node>
	<node id="-516000" lat="61.1612569942" lon="6.93931027829">
		<tag k="fixme" v="consider place=hamlet" />
		<tag k="name" v="Slinda" />
		<tag k="place" v="farm" />
		<tag k="ssr:stedsnr" v="979937" />
	</node>
	<node id="-515999" lat="61.2074261377" lon="7.05773156972">
		<tag k="fixme" v="consider place=hamlet" />
		<tag k="name" v="Bondeviki" />
		<tag k="place" v="farm" />
		<tag k="ssr:stedsnr" v="979932" />
	</node>
	<node id="-515998" lat="61.2259839742" lon="7.09849504538">
		<tag k="fixme" v="consider place=hamlet" />
		<tag k="name" v="Stedje" />
		<tag k="place" v="farm" />
		<tag k="ssr:stedsnr" v="979930" />
	</node>
	<node id="-515997" lat="61.2315490119" lon="7.04398458226">
		<tag k="name" v="Stigen" />
		<tag k="place" v="locality" />
		<tag k="ssr:stedsnr" v="979928" />
	</node>
	<node id="-515996" lat="61.2296618644" lon="7.09878567349">
		<tag k="name" v="Bahus" />
		<tag k="place" v="locality" />
		<tag k="ssr:stedsnr" v="979877" />
	</node>
	<node id="-515995" lat="61.2328644178" lon="7.10303931286">
		<tag k="name" v="Årvoll" />
		<tag k="place" v="locality" />
		<tag k="ssr:stedsnr" v="979871" />
	</node>
	<node id="-515994" lat="61.2318045676" lon="7.10756989812">
		<tag k="alt_name" v="Hofslund" />
		<tag k="name" v="Hovslund" />
		<tag k="place" v="locality" />
		<tag k="ssr:stedsnr" v="979870" />
	</node>
	<node id="-515993" lat="61.2322817389" lon="7.11126437277">
		<tag k="name" v="Grøt" />
		<tag k="place" v="locality" />
		<tag k="ssr:stedsnr" v="979867" />
	</node>
	<node id="-513942" lat="61.1596805553" lon="7.15707778571">
		<tag k="alt_name" v="Vikastølen" />
		<tag k="historic" v="shieling" />
		<tag k="name" v="Rudsvikstølen" />
		<tag k="place" v="locality" />
		<tag k="ssr:stedsnr" v="313022" />
	</node>
	<node id="-515988" lat="61.2888638912" lon="6.97402221529">
		<tag k="historic" v="shieling" />
		<tag k="name" v="Fosskamben" />
		<tag k="place" v="locality" />
		<tag k="ssr:stedsnr" v="970643" />
	</node>
	<node id="-513939" lat="61.1597972243" lon="6.93841667189">
		<tag k="name" v="Kleivane" />
		<tag k="place" v="isolated_dwelling" />
		<tag k="ssr:stedsnr" v="312821" />
	</node>
	<node id="-513936" lat="61.388551739" lon="6.74106706455">
		<tag k="fixme" v="consider place=hamlet" />
		<tag k="name" v="Homrane" />
		<tag k="place" v="farm" />
		<tag k="ssr:stedsnr" v="311983" />
	</node>
	<node id="-513935" lat="61.3329250032" lon="6.72232777088">
		<tag k="name" v="Tråna" />
		<tag k="place" v="farm" />
		<tag k="ssr:stedsnr" v="311981" />
	</node>
	<node id="-513934" lat="61.3447166648" lon="6.92306943541">
		<tag k="historic" v="shieling" />
		<tag k="name" v="Øyestølen" />
		<tag k="place" v="locality" />
		<tag k="ssr:stedsnr" v="311977" />
	</node>
	<node id="-513933" lat="61.3460222217" lon="6.89952222547">
		<tag k="alt_name" v="Skinnstad" />
		<tag k="historic" v="shieling" />
		<tag k="name" v="Skinstå" />
		<tag k="place" v="locality" />
		<tag k="ssr:stedsnr" v="311973" />
	</node>
	<node id="-513915" lat="61.2670093195" lon="7.03652699509">
		<tag k="alt_name" v="Hillestad" />
		<tag k="fixme" v="consider place=hamlet" />
		<tag k="name" v="Hildestad" />
		<tag k="place" v="farm" />
		<tag k="ssr:stedsnr" v="311425" />
	</node>
	<node id="-513912" lat="61.2813250041" lon="7.04530555387">
		<tag k="historic" v="shieling" />
		<tag k="name" v="Djupadal" />
		<tag k="place" v="locality" />
		<tag k="ssr:stedsnr" v="311385" />
	</node>
	<node id="-513911" lat="61.2520154721" lon="7.03732090661">
		<tag k="fixme" v="consider place=hamlet" />
		<tag k="name" v="Vikheim" />
		<tag k="place" v="farm" />
		<tag k="ssr:stedsnr" v="311343" />
	</node>
	<node id="-513910" lat="61.2508111136" lon="7.01075556246">
		<tag k="historic" v="shieling" />
		<tag k="name" v="Teig" />
		<tag k="place" v="locality" />
		<tag k="ssr:stedsnr" v="311341" />
	</node>
	<node id="-513906" lat="61.3225555554" lon="6.95091944888">
		<tag k="historic" v="shieling" />
		<tag k="name" v="Teigane" />
		<tag k="place" v="locality" />
		<tag k="ssr:stedsnr" v="311274" />
	</node>
	<node id="-515953" lat="61.2552027787" lon="7.04638889511">
		<tag k="historic" v="shieling" />
		<tag k="name" v="Loftenesøygarden" />
		<tag k="place" v="locality" />
		<tag k="ssr:stedsnr" v="942998" />
	</node>
	<node id="-513901" lat="61.2889750008" lon="6.9591750013">
		<tag k="name" v="Stedjekammen" />
		<tag k="place" v="isolated_dwelling" />
		<tag k="ssr:stedsnr" v="311158" />
	</node>
	<node id="-515947" lat="61.2546888894" lon="7.01536665941">
		<tag k="name" v="Haukereid" />
		<tag k="place" v="farm" />
		<tag k="ssr:stedsnr" v="942948" />
	</node>
	<node id="-513880" lat="61.1763333315" lon="7.27317778585">
		<tag k="name" v="Bakkateigen" />
		<tag k="place" v="farm" />
		<tag k="ssr:stedsnr" v="276589" />
	</node>
	<node id="-513874" lat="61.1892722243" lon="7.23276944516">
		<tag k="name" v="Mårkjettehola" />
		<tag k="place" v="farm" />
		<tag k="ssr:stedsnr" v="276218" />
	</node>
	<node id="-515921" lat="61.2971699548" lon="6.96804575601">
		<tag k="alt_name" v="Rindestølen" />
		<tag k="historic" v="shieling" />
		<tag k="name" v="Rindastølen" />
		<tag k="place" v="locality" />
		<tag k="ssr:stedsnr" v="942113" />
	</node>
	<node id="-513868" lat="61.3362083369" lon="6.69082221956">
		<tag k="name" v="Bergheim" />
		<tag k="place" v="farm" />
		<tag k="ssr:stedsnr" v="275931" />
	</node>
	<node id="-515909" lat="61.2459444451" lon="6.99262777053">
		<tag k="historic" v="shieling" />
		<tag k="name" v="Nystølen" />
		<tag k="place" v="locality" />
		<tag k="ssr:stedsnr" v="920145" />
	</node>
	<node id="-515908" lat="61.2246333348" lon="6.97932778692">
		<tag k="historic" v="shieling" />
		<tag k="name" v="Siplingane" />
		<tag k="place" v="locality" />
		<tag k="ssr:stedsnr" v="920131" />
	</node>
	<node id="-515907" lat="61.2385916625" lon="7.27589166505">
		<tag k="historic" v="shieling" />
		<tag k="name" v="Vassløysa" />
		<tag k="place" v="locality" />
		<tag k="ssr:stedsnr" v="920128" />
	</node>
	<node id="-515906" lat="61.2274250015" lon="7.04535277833">
		<tag k="name" v="Kvålsøvrehagane" />
		<tag k="place" v="farm" />
		<tag k="ssr:stedsnr" v="920127" />
	</node>
	<node id="-515905" lat="61.2318510723" lon="7.07411150992">
		<tag k="fixme" v="consider place=hamlet" />
		<tag k="name" v="Kvåle" />
		<tag k="place" v="farm" />
		<tag k="ssr:stedsnr" v="920124" />
	</node>
	<node id="-515904" lat="61.2358888924" lon="6.99522499565">
		<tag k="alt_name" v="Lerheimstølen" />
		<tag k="historic" v="shieling" />
		<tag k="name" v="Lereimsstølen" />
		<tag k="place" v="locality" />
		<tag k="ssr:stedsnr" v="920114" />
	</node>
	<node id="-515901" lat="61.203634717" lon="7.22449837945">
		<tag k="fixme" v="consider place=hamlet" />
		<tag k="name" v="Vangestad" />
		<tag k="place" v="farm" />
		<tag k="ssr:stedsnr" v="920092" />
	</node>
	<node id="-515900" lat="61.2200805595" lon="7.08504999159">
		<tag k="historic" v="shieling" />
		<tag k="name" v="Stedjåsen" />
		<tag k="place" v="locality" />
		<tag k="ssr:stedsnr" v="920074" />
	</node>
	<node id="-515899" lat="61.2261000018" lon="7.25480277466">
		<tag k="historic" v="shieling" />
		<tag k="name" v="Syresete" />
		<tag k="place" v="locality" />
		<tag k="ssr:stedsnr" v="920069" />
	</node>
	<node id="-515898" lat="61.1959305542" lon="7.07658055421">
		<tag k="name" v="Lindborg" />
		<tag k="place" v="farm" />
		<tag k="ssr:stedsnr" v="920037" />
	</node>
	<node id="-515895" lat="61.1627916699" lon="7.08095833822">
		<tag k="historic" v="shieling" />
		<tag k="name" v="Lingesete" />
		<tag k="place" v="locality" />
		<tag k="ssr:stedsnr" v="920026" />
	</node>
	<node id="-515894" lat="61.1666244373" lon="7.16794544279">
		<tag k="fixme" v="consider place=hamlet" />
		<tag k="name" v="Rud" />
		<tag k="place" v="farm" />
		<tag k="ssr:stedsnr" v="920025" />
	</node>
	<node id="-513844" lat="61.2002916647" lon="7.01330277724">
		<tag k="name" v="Brekkedal" />
		<tag k="place" v="farm" />
		<tag k="ssr:stedsnr" v="275738" />
	</node>
	<node id="-515891" lat="61.1783138912" lon="7.23436388354">
		<tag k="alt_name" v="Havnen" />
		<tag k="name" v="Hamnen" />
		<tag k="place" v="farm" />
		<tag k="ssr:stedsnr" v="920002" />
	</node>
	<node id="-515887" lat="61.1682888925" lon="6.91473055511">
		<tag k="name" v="Engi" />
		<tag k="place" v="locality" />
		<tag k="ssr:stedsnr" v="919906" />
	</node>
	<node id="-513835" lat="61.1656222182" lon="6.91429722063">
		<tag k="name" v="Samteigane" />
		<tag k="place" v="locality" />
		<tag k="ssr:stedsnr" v="275582" />
	</node>
	<node id="-513832" lat="61.1973444468" lon="7.08838888086">
		<tag k="name" v="Torstein-teigen" />
		<tag k="place" v="locality" />
		<tag k="ssr:stedsnr" v="275536" />
	</node>
	<node id="-515879" lat="61.3575611153" lon="6.91254444837">
		<tag k="name" v="Vetlegarden" />
		<tag k="place" v="locality" />
		<tag k="ssr:stedsnr" v="918954" />
	</node>
	<node id="-513830" lat="61.198044445" lon="7.17421110534">
		<tag k="name" v="Skakkateigen" />
		<tag k="place" v="locality" />
		<tag k="ssr:stedsnr" v="275521" />
	</node>
	<node id="-513829" lat="61.1960277803" lon="7.13729443675">
		<tag k="name" v="Årvollsteigen" />
		<tag k="place" v="locality" />
		<tag k="ssr:stedsnr" v="275519" />
	</node>
	<node id="-515868" lat="61.2682416704" lon="6.99071944122">
		<tag k="historic" v="shieling" />
		<tag k="name" v="Reppastølen" />
		<tag k="place" v="locality" />
		<tag k="ssr:stedsnr" v="918422" />
	</node>
	<node id="-515866" lat="61.2713759768" lon="7.02744750359">
		<tag k="fixme" v="consider place=hamlet" />
		<tag k="name" v="Fretland" />
		<tag k="place" v="farm" />
		<tag k="ssr:stedsnr" v="918418" />
	</node>
	<node id="-515864" lat="61.2595666804" lon="7.03542694982">
		<tag k="fixme" v="consider place=hamlet" />
		<tag k="name" v="Elvagjeng" />
		<tag k="place" v="farm" />
		<tag k="ssr:stedsnr" v="918407" />
	</node>
	<node id="-515863" lat="61.2562203007" lon="7.03243386892">
		<tag k="alt_name" v="Uglum" />
		<tag k="fixme" v="consider place=hamlet" />
		<tag k="name" v="Ugla" />
		<tag k="place" v="farm" />
		<tag k="ssr:stedsnr" v="918406" />
	</node>
	<node id="-515862" lat="61.2611054814" lon="7.00809047561">
		<tag k="fixme" v="consider place=hamlet" />
		<tag k="name" v="Reppen" />
		<tag k="place" v="farm" />
		<tag k="ssr:stedsnr" v="918401" />
	</node>
	<node id="-515860" lat="61.2578138908" lon="7.1163916751">
		<tag k="historic" v="shieling" />
		<tag k="name" v="Krosskleivane" />
		<tag k="place" v="locality" />
		<tag k="ssr:stedsnr" v="918395" />
	</node>
	<node id="-515859" lat="61.2873694402" lon="7.15899999821">
		<tag k="name" v="Myrhaug" />
		<tag k="place" v="farm" />
		<tag k="ssr:stedsnr" v="918393" />
	</node>
	<node id="-515858" lat="61.2829111125" lon="7.13838056321">
		<tag k="historic" v="shieling" />
		<tag k="name" v="Steigstølen" />
		<tag k="place" v="locality" />
		<tag k="ssr:stedsnr" v="918373" />
	</node>
	<node id="-515853" lat="61.3229555548" lon="6.87984999875">
		<tag k="historic" v="shieling" />
		<tag k="name" v="Reset" />
		<tag k="place" v="locality" />
		<tag k="ssr:stedsnr" v="918244" />
	</node>
	<node id="-515848" lat="61.4346141899" lon="6.7720664398">
		<tag k="fixme" v="consider place=hamlet" />
		<tag k="name" v="Skarestad" />
		<tag k="place" v="farm" />
		<tag k="ssr:stedsnr" v="917916" />
	</node>
	<node id="-515838" lat="61.1933249973" lon="7.2129472185">
		<tag k="name" v="Nordre Bjørk" />
		<tag k="place" v="farm" />
		<tag k="ssr:stedsnr" v="904337" />
	</node>
	<node id="-515831" lat="61.1357583359" lon="7.05070833805">
		<tag k="name" v="Sleipi" />
		<tag k="place" v="locality" />
		<tag k="ssr:stedsnr" v="860519" />
	</node>
	<node id="-515830" lat="61.2177695555" lon="6.97411010437">
		<tag k="alt_name" v="Mansverk" />
		<tag k="fixme" v="consider place=hamlet" />
		<tag k="name" v="Mannsverk" />
		<tag k="place" v="farm" />
		<tag k="ssr:stedsnr" v="860143" />
	</node>
	<node id="-515829" lat="61.230981881" lon="7.09266948607">
		<tag k="fixme" v="consider place=hamlet" />
		<tag k="name" v="Foss" />
		<tag k="place" v="farm" />
		<tag k="ssr:stedsnr" v="860137" />
	</node>
	<node id="-515826" lat="61.2286666674" lon="7.03743332999">
		<tag k="alt_name" v="Fugleheimshaugen" />
		<tag k="name" v="Flugheimshaugen" />
		<tag k="place" v="farm" />
		<tag k="ssr:stedsnr" v="860116" />
	</node>
	<node id="-515824" lat="61.2159333363" lon="7.22771389431">
		<tag k="historic" v="shieling" />
		<tag k="name" v="Ospesete" />
		<tag k="place" v="locality" />
		<tag k="ssr:stedsnr" v="860100" />
	</node>
	<node id="-515823" lat="61.2068273369" lon="7.00494565189">
		<tag k="fixme" v="consider place=hamlet" />
		<tag k="name" v="Vatlestad" />
		<tag k="place" v="farm" />
		<tag k="ssr:stedsnr" v="860097" />
	</node>
	<node id="-515806" lat="61.2459722243" lon="7.05739722046">
		<tag k="alt_name" v="Eggastølen" />
		<tag k="historic" v="shieling" />
		<tag k="name" v="Eggjastølen" />
		<tag k="place" v="locality" />
		<tag k="ssr:stedsnr" v="859121" />
	</node>
	<node id="-515805" lat="61.2489273239" lon="7.03816529853">
		<tag k="fixme" v="consider place=hamlet" />
		<tag k="name" v="Ormalseng" />
		<tag k="place" v="farm" />
		<tag k="ssr:stedsnr" v="859119" />
	</node>
	<node id="-515804" lat="61.2390824806" lon="7.05186488326">
		<tag k="alt_name" v="Eggum" />
		<tag k="fixme" v="consider place=hamlet" />
		<tag k="name" v="Eggja" />
		<tag k="place" v="farm" />
		<tag k="ssr:stedsnr" v="859087" />
	</node>
	<node id="-515801" lat="61.1834055518" lon="7.05611667115">
		<tag k="alt_name" v="Venesstølen" />
		<tag k="historic" v="shieling" />
		<tag k="name" v="Vinesstølen" />
		<tag k="place" v="locality" />
		<tag k="ssr:stedsnr" v="859042" />
	</node>
	<node id="-515800" lat="61.2019543027" lon="7.2363310883">
		<tag k="fixme" v="consider place=hamlet" />
		<tag k="name" v="Olstad" />
		<tag k="place" v="farm" />
		<tag k="ssr:stedsnr" v="859031" />
	</node>
	<node id="-515799" lat="61.2033987179" lon="7.17680480422">
		<tag k="fixme" v="consider place=hamlet" />
		<tag k="name" v="Eide" />
		<tag k="place" v="farm" />
		<tag k="ssr:stedsnr" v="859028" />
	</node>
	<node id="-515796" lat="61.4472388856" lon="6.74841666583">
		<tag k="historic" v="shieling" />
		<tag k="name" v="Hjellene" />
		<tag k="place" v="locality" />
		<tag k="ssr:stedsnr" v="858913" />
	</node>
	<node id="-515795" lat="61.4428722577" lon="6.74806248623">
		<tag k="alt_name" v="Øyarane" />
		<tag k="fixme" v="consider place=hamlet" />
		<tag k="name" v="Øyjarane" />
		<tag k="place" v="farm" />
		<tag k="ssr:stedsnr" v="858911" />
	</node>
	<node id="-515790" lat="61.3060194439" lon="7.06518889346">
		<tag k="historic" v="shieling" />
		<tag k="name" v="Turrli" />
		<tag k="place" v="locality" />
		<tag k="ssr:stedsnr" v="858447" />
	</node>
	<node id="-515788" lat="61.2651249983" lon="7.18553611219">
		<tag k="historic" v="shieling" />
		<tag k="name" v="Dal" />
		<tag k="place" v="locality" />
		<tag k="ssr:stedsnr" v="858357" />
	</node>
	<node id="-515787" lat="61.2547194469" lon="7.11471110705">
		<tag k="historic" v="shieling" />
		<tag k="name" v="Vetlestølen" />
		<tag k="place" v="locality" />
		<tag k="ssr:stedsnr" v="858283" />
	</node>
	<node id="-515783" lat="61.4238750036" lon="6.77263332388">
		<tag k="name" v="Haugen" />
		<tag k="place" v="farm" />
		<tag k="ssr:stedsnr" v="857926" />
	</node>
	<node id="-515780" lat="61.4033735402" lon="6.7351627979">
		<tag k="name" v="Mundal" />
		<tag k="place" v="hamlet" />
		<tag k="ssr:stedsnr" v="857899" />
	</node>
	<node id="-515779" lat="61.402072219" lon="6.72617221895">
		<tag k="name" v="Øyna" />
		<tag k="place" v="farm" />
		<tag k="ssr:stedsnr" v="857893" />
	</node>
	<node id="-515778" lat="61.4230055539" lon="6.80606388492">
		<tag k="historic" v="shieling" />
		<tag k="name" v="Blåbærstølen" />
		<tag k="place" v="locality" />
		<tag k="ssr:stedsnr" v="857885" />
	</node>
	<node id="-515772" lat="61.4727666668" lon="6.73986943522">
		<tag k="historic" v="shieling" />
		<tag k="name" v="Bøyafjellstølen" />
		<tag k="place" v="locality" />
		<tag k="ssr:stedsnr" v="857810" />
	</node>
	<node id="-515768" lat="61.2709527811" lon="7.20513889144">
		<tag k="historic" v="shieling" />
		<tag k="name" v="Helgasete" />
		<tag k="place" v="locality" />
		<tag k="ssr:stedsnr" v="857392" />
	</node>
	<node id="-515767" lat="61.2639361143" lon="7.06333889168">
		<tag k="name" v="Nystølshola" />
		<tag k="place" v="isolated_dwelling" />
		<tag k="ssr:stedsnr" v="857378" />
	</node>
	<node id="-515766" lat="61.2823861085" lon="7.1399777787">
		<tag k="historic" v="shieling" />
		<tag k="name" v="Bergastølen" />
		<tag k="place" v="locality" />
		<tag k="ssr:stedsnr" v="857348" />
	</node>
	<node id="-515765" lat="61.2787083316" lon="7.13500832677">
		<tag k="historic" v="shieling" />
		<tag k="name" v="Surnali" />
		<tag k="place" v="locality" />
		<tag k="ssr:stedsnr" v="857342" />
	</node>
	<node id="-515763" lat="61.3162833377" lon="6.7321111017">
		<tag k="historic" v="shieling" />
		<tag k="name" v="Breisete" />
		<tag k="place" v="locality" />
		<tag k="ssr:stedsnr" v="857237" />
	</node>
	<node id="-515760" lat="61.3399750003" lon="6.92644999626">
		<tag k="name" v="Bøen" />
		<tag k="place" v="farm" />
		<tag k="ssr:stedsnr" v="857203" />
	</node>
	<node id="-515755" lat="61.2331937532" lon="7.10538524104">
		<tag k="fixme" v="consider place=hamlet" />
		<tag k="name" v="Hove" />
		<tag k="place" v="farm" />
		<tag k="ssr:stedsnr" v="844067" />
	</node>
	<node id="-515754" lat="61.3116666708" lon="6.66469166528">
		<tag k="fixme" v="consider place=hamlet" />
		<tag k="name" v="Knorren" />
		<tag k="place" v="farm" />
		<tag k="ssr:stedsnr" v="843478" />
	</node>
	<node id="-515747" lat="61.4201638862" lon="6.76658888097">
		<tag k="name" v="Hola" />
		<tag k="place" v="farm" />
		<tag k="ssr:stedsnr" v="822960" />
	</node>
	<node id="-515701" lat="61.1599055523" lon="6.97966111062">
		<tag k="name" v="Myri" />
		<tag k="place" v="farm" />
		<tag k="ssr:stedsnr" v="821541" />
	</node>
	<node id="-515700" lat="61.3894916712" lon="6.71652777839">
		<tag k="name" v="Vårstølen" />
		<tag k="place" v="locality" />
		<tag k="ssr:stedsnr" v="821533" />
	</node>
	<node id="-515699" lat="61.2141578471" lon="6.98277017448">
		<tag k="fixme" v="consider place=hamlet" />
		<tag k="name" v="Rusti" />
		<tag k="place" v="farm" />
		<tag k="ssr:stedsnr" v="821484" />
	</node>
	<node id="-515692" lat="61.190269448" lon="7.0767388968">
		<tag k="name" v="Djupevikteigen" />
		<tag k="place" v="locality" />
		<tag k="ssr:stedsnr" v="820579" />
	</node>
	<node id="-515688" lat="61.2255722222" lon="7.09684445243">
		<tag k="fixme" v="consider place=suburb, village or hamlet" />
		<tag k="name" v="Stedje" />
		<tag k="place" v="quarter" />
		<tag k="ssr:stedsnr" v="799127" />
	</node>
	<node id="-515686" lat="61.2387632876" lon="7.09968155411">
		<tag k="alt_name" v="Åberge" />
		<tag k="fixme" v="consider place=hamlet" />
		<tag k="name" v="Åbyrge" />
		<tag k="place" v="farm" />
		<tag k="ssr:stedsnr" v="799109" />
	</node>
	<node id="-515685" lat="61.2394143651" lon="7.04289589185">
		<tag k="fixme" v="consider place=hamlet" />
		<tag k="name" v="Hausa" />
		<tag k="place" v="farm" />
		<tag k="ssr:stedsnr" v="799106" />
	</node>
	<node id="-515683" lat="61.2288316584" lon="7.09645219678">
		<tag k="fixme" v="consider place=suburb, village or hamlet" />
		<tag k="name" v="Sogndalsfjøra" />
		<tag k="place" v="quarter" />
		<tag k="ssr:stedsnr" v="799066" />
	</node>
	<node id="-515681" lat="61.2164361141" lon="7.00372500595">
		<tag k="historic" v="shieling" />
		<tag k="name" v="Teigsstølen" />
		<tag k="place" v="locality" />
		<tag k="ssr:stedsnr" v="799053" />
	</node>
	<node id="-515678" lat="61.1543980826" lon="7.0022795077">
		<tag k="name" v="Klubben" />
		<tag k="place" v="farm" />
		<tag k="ssr:stedsnr" v="799026" />
	</node>
	<node id="-515675" lat="61.2197972182" lon="6.95142222102">
		<tag k="historic" v="shieling" />
		<tag k="name" v="Bjørndal" />
		<tag k="place" v="locality" />
		<tag k="ssr:stedsnr" v="798994" />
	</node>
	<node id="-515671" lat="61.1706544642" lon="6.93405180301">
		<tag k="fixme" v="consider place=hamlet" />
		<tag k="name" v="Melås" />
		<tag k="place" v="farm" />
		<tag k="ssr:stedsnr" v="798894" />
	</node>
	<node id="-515668" lat="61.2034055598" lon="7.04870555678">
		<tag k="alt_name" v="Timberlid" />
		<tag k="name" v="Timmerli" />
		<tag k="place" v="farm" />
		<tag k="ssr:stedsnr" v="798091" />
	</node>
	<node id="-515667" lat="61.2066472246" lon="7.04863333689">
		<tag k="alt_name" v="Brekkeflat" />
		<tag k="name" v="Brekkeflaten" />
		<tag k="place" v="farm" />
		<tag k="ssr:stedsnr" v="798089" />
	</node>
	<node id="-515666" lat="61.2093861134" lon="7.2078444362">
		<tag k="name" v="Dalen" />
		<tag k="place" v="farm" />
		<tag k="ssr:stedsnr" v="798083" />
	</node>
	<node id="-515664" lat="61.1985388364" lon="7.10062693128">
		<tag k="alt_name" v="Meisterplassen" />
		<tag k="fixme" v="consider place=hamlet" />
		<tag k="name" v="Meistarplass" />
		<tag k="place" v="farm" />
		<tag k="ssr:stedsnr" v="798039" />
	</node>
	<node id="-515663" lat="61.2021714656" lon="7.04183964322">
		<tag k="fixme" v="consider place=hamlet" />
		<tag k="name" v="Øyre" />
		<tag k="place" v="farm" />
		<tag k="ssr:stedsnr" v="798037" />
	</node>
	<node id="-515654" lat="61.4406197569" lon="6.75857483698">
		<tag k="alt_name" v="Skeie" />
		<tag k="fixme" v="consider place=hamlet" />
		<tag k="name" v="Skeide" />
		<tag k="place" v="farm" />
		<tag k="ssr:stedsnr" v="797896" />
	</node>
	<node id="-515653" lat="61.3177638911" lon="6.98616665908">
		<tag k="alt_name" v="Kokstad" />
		<tag k="historic" v="shieling" />
		<tag k="name" v="Kokkstad" />
		<tag k="place" v="locality" />
		<tag k="ssr:stedsnr" v="797472" />
	</node>
	<node id="-515650" lat="61.2997305522" lon="6.98962222547">
		<tag k="historic" v="shieling" />
		<tag k="name" v="Vasslitråna" />
		<tag k="place" v="locality" />
		<tag k="ssr:stedsnr" v="797374" />
	</node>
	<node id="-515648" lat="61.251104778" lon="7.12268411063">
		<tag k="fixme" v="consider place=hamlet" />
		<tag k="name" v="Kvam" />
		<tag k="place" v="farm" />
		<tag k="ssr:stedsnr" v="797259" />
	</node>
	<node id="-515626" lat="61.2618527772" lon="7.155944449">
		<tag k="name" v="Sva" />
		<tag k="place" v="farm" />
		<tag k="ssr:stedsnr" v="782850" />
	</node>
	<node id="-515620" lat="61.4734583338" lon="6.72982778113">
		<tag k="name" v="Joslåtten" />
		<tag k="place" v="locality" />
		<tag k="ssr:stedsnr" v="761881" />
	</node>
	<node id="-515608" lat="61.2020722265" lon="7.23161110582">
		<tag k="name" v="Treet" />
		<tag k="place" v="farm" />
		<tag k="ssr:stedsnr" v="761192" />
	</node>
	<node id="-515604" lat="61.2351083326" lon="7.11167499906">
		<tag k="name" v="Navarsete" />
		<tag k="place" v="farm" />
		<tag k="ssr:stedsnr" v="760993" />
	</node>
	<node id="-515599" lat="61.3346500006" lon="6.66458333789">
		<tag k="historic" v="shieling" />
		<tag k="name" v="Fjellstølen" />
		<tag k="place" v="locality" />
		<tag k="ssr:stedsnr" v="760922" />
	</node>
	<node id="-515590" lat="61.2040027816" lon="7.00993610844">
		<tag k="name" v="Hagen" />
		<tag k="place" v="farm" />
		<tag k="ssr:stedsnr" v="760752" />
	</node>
	<node id="-515586" lat="61.222313893" lon="7.12630277007">
		<tag k="name" v="Hagen" />
		<tag k="place" v="farm" />
		<tag k="ssr:stedsnr" v="760534" />
	</node>
	<node id="-515584" lat="61.1577888859" lon="6.99237777288">
		<tag k="name" v="Naglatun" />
		<tag k="place" v="locality" />
		<tag k="ssr:stedsnr" v="760528" />
	</node>
	<node id="-515578" lat="61.2545361148" lon="6.98327777738">
		<tag k="historic" v="shieling" />
		<tag k="name" v="Haugastølen" />
		<tag k="place" v="locality" />
		<tag k="ssr:stedsnr" v="760398" />
	</node>
	<node id="-515566" lat="61.46420833" lon="6.78965278217">
		<tag k="historic" v="shieling" />
		<tag k="name" v="Tunga" />
		<tag k="place" v="locality" />
		<tag k="ssr:stedsnr" v="749665" />
	</node>
	<node id="-515565" lat="61.2105571419" lon="7.11996707091">
		<tag k="fixme" v="consider place=hamlet" />
		<tag k="name" v="Kjørnes" />
		<tag k="place" v="farm" />
		<tag k="ssr:stedsnr" v="748483" />
	</node>
	<node id="-515562" lat="61.2373000021" lon="7.23564166702">
		<tag k="alt_name" v="Øyestølen" />
		<tag k="historic" v="shieling" />
		<tag k="name" v="Øydestølen" />
		<tag k="place" v="locality" />
		<tag k="ssr:stedsnr" v="738127" />
	</node>
	<node id="-515561" lat="61.2329805536" lon="7.03457500887">
		<tag k="name" v="Rygg" />
		<tag k="place" v="farm" />
		<tag k="ssr:stedsnr" v="738119" />
	</node>
	<node id="-515556" lat="61.2165559701" lon="6.98391584377">
		<tag k="fixme" v="consider place=hamlet" />
		<tag k="name" v="Øvretun" />
		<tag k="place" v="farm" />
		<tag k="ssr:stedsnr" v="738070" />
	</node>
	<node id="-515553" lat="61.1728499962" lon="6.93399445289">
		<tag k="name" v="Melåsstølen" />
		<tag k="place" v="locality" />
		<tag k="ssr:stedsnr" v="737917" />
	</node>
	<node id="-515552" lat="61.1714666697" lon="6.94524166755">
		<tag k="historic" v="shieling" />
		<tag k="name" v="Orrabru" />
		<tag k="place" v="locality" />
		<tag k="ssr:stedsnr" v="737911" />
	</node>
	<node id="-515548" lat="61.1773500003" lon="7.38205554819">
		<tag k="alt_name" v="Pallane" />
		<tag k="name" v="Storepallen" />
		<tag k="place" v="locality" />
		<tag k="ssr:stedsnr" v="737355" />
	</node>
	<node id="-515543" lat="61.3903472268" lon="6.71951389199">
		<tag k="historic" v="shieling" />
		<tag k="name" v="Hamrastølen" />
		<tag k="place" v="locality" />
		<tag k="ssr:stedsnr" v="736896" />
	</node>
	<node id="-515542" lat="61.418097222" lon="6.74688055556">
		<tag k="name" v="Mundalsskreda" />
		<tag k="place" v="farm" />
		<tag k="ssr:stedsnr" v="736888" />
	</node>
	<node id="-515538" lat="61.4697583327" lon="6.74267777356">
		<tag k="historic" v="shieling" />
		<tag k="name" v="Skeisstølen" />
		<tag k="place" v="locality" />
		<tag k="ssr:stedsnr" v="736831" />
	</node>
	<node id="-515537" lat="61.2990094227" lon="6.99963985546">
		<tag k="fixme" v="consider place=hamlet" />
		<tag k="name" v="Vassli" />
		<tag k="place" v="farm" />
		<tag k="ssr:stedsnr" v="736381" />
	</node>
	<node id="-515536" lat="61.2515675617" lon="7.11471407477">
		<tag k="fixme" v="consider place=hamlet" />
		<tag k="name" v="Flåten" />
		<tag k="place" v="farm" />
		<tag k="ssr:stedsnr" v="736287" />
	</node>
	<node id="-515534" lat="61.3244944448" lon="6.73648888769">
		<tag k="historic" v="shieling" />
		<tag k="name" v="Røysete" />
		<tag k="place" v="locality" />
		<tag k="ssr:stedsnr" v="736216" />
	</node>
	<node id="-515533" lat="61.3355972262" lon="6.92154167289">
		<tag k="name" v="Stomnasete" />
		<tag k="place" v="isolated_dwelling" />
		<tag k="ssr:stedsnr" v="736206" />
	</node>
	<node id="-515531" lat="61.2799000027" lon="7.15260834164">
		<tag k="name" v="Berget" />
		<tag k="place" v="farm" />
		<tag k="ssr:stedsnr" v="735333" />
	</node>
	<node id="-515526" lat="61.173947226" lon="7.00336667206">
		<tag k="name" v="Lasteberget" />
		<tag k="place" v="locality" />
		<tag k="ssr:stedsnr" v="722457" />
	</node>
	<node id="-513953" lat="61.2341150128" lon="7.06339193298">
		<tag k="alt_name" v="Bjelle" />
		<tag k="fixme" v="consider place=hamlet" />
		<tag k="name" v="Bjella" />
		<tag k="place" v="farm" />
		<tag k="ssr:stedsnr" v="313115" />
	</node>
	<node id="-513952" lat="61.2093435652" lon="7.13151706124">
		<tag k="alt_name" v="Vedlegjerdet" />
		<tag k="name" v="Vellegjerdet" />
		<tag k="place" v="farm" />
		<tag k="ssr:stedsnr" v="313104" />
	</node>
	<node id="-515512" lat="61.3284472242" lon="6.7315277765">
		<tag k="name" v="Dalen" />
		<tag k="place" v="farm" />
		<tag k="ssr:stedsnr" v="700956" />
	</node>
	<node id="-513949" lat="61.2150388934" lon="7.22109722428">
		<tag k="alt_name" v="Anfinnstølen" />
		<tag k="historic" v="shieling" />
		<tag k="name" v="Arnfinnsstølen" />
		<tag k="place" v="locality" />
		<tag k="ssr:stedsnr" v="313097" />
	</node>
	<node id="-515490" lat="61.1666500032" lon="7.29465556219">
		<tag k="barrier" v="fence" />
		<tag k="name" v="Festingdalsgjerdet" />
		<tag k="ssr:stedsnr" v="700556" />
	</node>
	<node id="-515477" lat="61.2464638895" lon="7.09636944135">
		<tag k="name" v="Lysegalden" />
		<tag k="place" v="locality" />
		<tag k="ssr:stedsnr" v="699991" />
	</node>
	<node id="-515472" lat="61.2330916657" lon="7.03872777409">
		<tag k="fixme" v="consider place=hamlet" />
		<tag k="name" v="Stigen" />
		<tag k="place" v="farm" />
		<tag k="ssr:stedsnr" v="699914" />
	</node>
	<node id="-515465" lat="61.1758416634" lon="6.972191673">
		<tag k="name" v="Frulauposete" />
		<tag k="place" v="locality" />
		<tag k="ssr:stedsnr" v="699634" />
	</node>
	<node id="-515462" lat="61.1953333295" lon="7.11726111108">
		<tag k="name" v="Åabergeteigen" />
		<tag k="place" v="locality" />
		<tag k="ssr:stedsnr" v="699544" />
	</node>
	<node id="-515454" lat="61.1312027799" lon="7.03198888169">
		<tag k="alt_name" v="Galdarap" />
		<tag k="name" v="Galdarabb" />
		<tag k="place" v="locality" />
		<tag k="ssr:stedsnr" v="678493" />
	</node>
	<node id="-515452" lat="61.2349444424" lon="6.93709443958">
		<tag k="historic" v="shieling" />
		<tag k="name" v="Furesete" />
		<tag k="place" v="locality" />
		<tag k="ssr:stedsnr" v="677976" />
	</node>
	<node id="-515449" lat="61.2074833331" lon="7.20875278628">
		<tag k="alt_name" v="Hammarvoll" />
		<tag k="name" v="Hammarvollen" />
		<tag k="place" v="farm" />
		<tag k="ssr:stedsnr" v="677095" />
	</node>
	<node id="-515447" lat="61.2130916635" lon="7.04156943762">
		<tag k="alt_name" v="Øyrahagstølen" />
		<tag k="historic" v="shieling" />
		<tag k="name" v="Øyrahagestølen" />
		<tag k="place" v="locality" />
		<tag k="ssr:stedsnr" v="677084" />
	</node>
	<node id="-515445" lat="61.180797221" lon="7.22726944041">
		<tag k="name" v="Hagahaugen" />
		<tag k="place" v="farm" />
		<tag k="ssr:stedsnr" v="677059" />
	</node>
	<node id="-515435" lat="61.3351491305" lon="6.68737864422">
		<tag k="fixme" v="consider place=hamlet" />
		<tag k="name" v="Jordal" />
		<tag k="place" v="farm" />
		<tag k="ssr:stedsnr" v="675978" />
	</node>
	<node id="-515433" lat="61.3443194415" lon="6.92408611714">
		<tag k="historic" v="shieling" />
		<tag k="name" v="Beitahaugane" />
		<tag k="place" v="locality" />
		<tag k="ssr:stedsnr" v="675972" />
	</node>
	<node id="-515432" lat="61.3436666709" lon="6.66937499676">
		<tag k="name" v="Vårstølen" />
		<tag k="place" v="locality" />
		<tag k="ssr:stedsnr" v="675963" />
	</node>
	<node id="-515420" lat="61.4503805547" lon="6.74552500012">
		<tag k="alt_name" v="Bykse" />
		<tag k="historic" v="shieling" />
		<tag k="name" v="Bykset" />
		<tag k="place" v="locality" />
		<tag k="ssr:stedsnr" v="675843" />
	</node>
	<node id="-515418" lat="61.4795027795" lon="6.74854722941">
		<tag k="name" v="Grandane" />
		<tag k="place" v="locality" />
		<tag k="ssr:stedsnr" v="675841" />
	</node>
	<node id="-515415" lat="61.2924829348" lon="6.99102484845">
		<tag k="fixme" v="consider place=hamlet" />
		<tag k="name" v="Hollekve" />
		<tag k="place" v="farm" />
		<tag k="ssr:stedsnr" v="675453" />
	</node>
	<node id="-515413" lat="61.3007611116" lon="7.02000833477">
		<tag k="historic" v="shieling" />
		<tag k="name" v="Stepin" />
		<tag k="place" v="locality" />
		<tag k="ssr:stedsnr" v="675447" />
	</node>
	<node id="-515412" lat="61.2678004469" lon="7.0301484337">
		<tag k="alt_name" v="Ruggeseter" />
		<tag k="fixme" v="consider place=hamlet" />
		<tag k="name" v="Ruggesete" />
		<tag k="place" v="farm" />
		<tag k="ssr:stedsnr" v="675400" />
	</node>
	<node id="-515411" lat="61.2758472189" lon="7.1431833254">
		<tag k="name" v="Kleivane" />
		<tag k="place" v="locality" />
		<tag k="ssr:stedsnr" v="675396" />
	</node>
	<node id="-515408" lat="61.2566027801" lon="7.08879444625">
		<tag k="alt_name" v="Hylsete" />
		<tag k="historic" v="shieling" />
		<tag k="name" v="Hølsete" />
		<tag k="place" v="locality" />
		<tag k="ssr:stedsnr" v="675375" />
	</node>
	<node id="-515407" lat="61.2647208451" lon="7.13875625374">
		<tag k="fixme" v="consider place=hamlet" />
		<tag k="name" v="England" />
		<tag k="place" v="farm" />
		<tag k="ssr:stedsnr" v="675373" />
	</node>
	<node id="-515406" lat="61.2800833355" lon="6.99584167525">
		<tag k="name" v="Kollsete" />
		<tag k="place" v="farm" />
		<tag k="ssr:stedsnr" v="675361" />
	</node>
	<node id="-515405" lat="61.2791972266" lon="6.97380554912">
		<tag k="historic" v="shieling" />
		<tag k="name" v="Kollsetestølen" />
		<tag k="place" v="locality" />
		<tag k="ssr:stedsnr" v="675358" />
	</node>
	<node id="-515401" lat="61.2935500003" lon="6.6814972147">
		<tag k="name" v="Ramsnes" />
		<tag k="place" v="locality" />
		<tag k="ssr:stedsnr" v="675277" />
	</node>
	<node id="-515400" lat="61.284881658" lon="6.64866990049">
		<tag k="fixme" v="consider place=hamlet" />
		<tag k="name" v="Hammarsnes" />
		<tag k="place" v="farm" />
		<tag k="ssr:stedsnr" v="675276" />
	</node>
	<node id="-515397" lat="61.3144805525" lon="6.91608333121">
		<tag k="name" v="Soleisete" />
		<tag k="place" v="locality" />
		<tag k="ssr:stedsnr" v="675262" />
	</node>
	<node id="-515396" lat="61.310342937" lon="6.66466384484">
		<tag k="fixme" v="consider place=hamlet" />
		<tag k="name" v="Teigen" />
		<tag k="place" v="farm" />
		<tag k="ssr:stedsnr" v="675255" />
	</node>
	<node id="-515394" lat="61.3236365354" lon="6.9320771522">
		<tag k="fixme" v="consider place=hamlet" />
		<tag k="name" v="Gunvordal" />
		<tag k="place" v="farm" />
		<tag k="ssr:stedsnr" v="675247" />
	</node>
	<node id="-515393" lat="61.3217305522" lon="6.91685555195">
		<tag k="historic" v="shieling" />
		<tag k="name" v="Gunvordalsstølen" />
		<tag k="place" v="locality" />
		<tag k="ssr:stedsnr" v="675245" />
	</node>
	<node id="-515392" lat="61.3277255699" lon="6.96493930732">
		<tag k="fixme" v="consider place=hamlet" />
		<tag k="name" v="Kvam" />
		<tag k="place" v="farm" />
		<tag k="ssr:stedsnr" v="675238" />
	</node>
	<node id="-515391" lat="61.323855557" lon="6.72735833826">
		<tag k="historic" v="shieling" />
		<tag k="name" v="Nyanstølen" />
		<tag k="place" v="locality" />
		<tag k="ssr:stedsnr" v="675230" />
	</node>
	<node id="-515387" lat="61.2039666628" lon="7.21706944307">
		<tag k="name" v="Hola" />
		<tag k="place" v="farm" />
		<tag k="ssr:stedsnr" v="677034" />
	</node>
	<node id="-515386" lat="61.1984138859" lon="7.20589999318">
		<tag k="name" v="Haugen" />
		<tag k="place" v="farm" />
		<tag k="ssr:stedsnr" v="677032" />
	</node>
	<node id="-515385" lat="61.1519111093" lon="6.99821389116">
		<tag k="name" v="Øygarden" />
		<tag k="place" v="farm" />
		<tag k="ssr:stedsnr" v="677027" />
	</node>
	<node id="-515382" lat="61.1837194466" lon="7.25510000758">
		<tag k="name" v="Løypet" />
		<tag k="place" v="farm" />
		<tag k="ssr:stedsnr" v="677005" />
	</node>
	<node id="-515376" lat="61.2132805529" lon="7.12983334124">
		<tag k="name" v="Kjørnes" />
		<tag k="place" v="quarter" />
		<tag k="ssr:stedsnr" v="660642" />
	</node>
	<node id="-515373" lat="61.4104833334" lon="6.74343056075">
		<tag k="name" v="Laberg" />
		<tag k="place" v="farm" />
		<tag k="ssr:stedsnr" v="640945" />
	</node>
	<node id="-515372" lat="61.3498944469" lon="6.75148056259">
		<tag k="historic" v="shieling" />
		<tag k="name" v="Vikastølen" />
		<tag k="place" v="locality" />
		<tag k="ssr:stedsnr" v="639958" />
	</node>
	<node id="-515362" lat="61.2001694455" lon="7.1358194385">
		<tag k="name" v="Kvamsteigen" />
		<tag k="place" v="locality" />
		<tag k="ssr:stedsnr" v="639578" />
	</node>
	<node id="-515359" lat="61.2062805514" lon="7.17773888426">
		<tag k="name" v="Ålsberg" />
		<tag k="place" v="farm" />
		<tag k="ssr:stedsnr" v="639574" />
	</node>
	<node id="-515333" lat="61.2015249999" lon="7.01649999489">
		<tag k="name" v="Altona" />
		<tag k="place" v="farm" />
		<tag k="ssr:stedsnr" v="638758" />
	</node>
	<node id="-515329" lat="61.1712638909" lon="6.92329444095">
		<tag k="name" v="Engamarki" />
		<tag k="place" v="locality" />
		<tag k="ssr:stedsnr" v="638633" />
	</node>
	<node id="-515324" lat="61.2110640157" lon="6.99603445408">
		<tag k="fixme" v="consider place=hamlet" />
		<tag k="name" v="Teigen" />
		<tag k="place" v="farm" />
		<tag k="ssr:stedsnr" v="638524" />
	</node>
	<node id="-515313" lat="61.1397583366" lon="7.01273054908">
		<tag k="alt_name" v="Dueskar" />
		<tag k="historic" v="shieling" />
		<tag k="name" v="Dueskard" />
		<tag k="place" v="locality" />
		<tag k="ssr:stedsnr" v="617515" />
	</node>
	<node id="-515308" lat="61.2482138903" lon="6.9780000074">
		<tag k="alt_name" v="Drevdalen" />
		<tag k="historic" v="shieling" />
		<tag k="name" v="Drivdal" />
		<tag k="place" v="locality" />
		<tag k="ssr:stedsnr" v="616137" />
	</node>
	<node id="-515305" lat="61.2107002872" lon="7.14035804312">
		<tag k="alt_name" v="Hagen" />
		<tag k="fixme" v="consider place=hamlet" />
		<tag k="name" v="Vikane" />
		<tag k="place" v="farm" />
		<tag k="ssr:stedsnr" v="616080" />
	</node>
	<node id="-515304" lat="61.2076793815" lon="7.19980507087">
		<tag k="fixme" v="consider place=hamlet" />
		<tag k="name" v="Vestreim" />
		<tag k="place" v="farm" />
		<tag k="ssr:stedsnr" v="616076" />
	</node>
	<node id="-515303" lat="61.2082555561" lon="7.19301667029">
		<tag k="name" v="Hjellabøen" />
		<tag k="place" v="farm" />
		<tag k="ssr:stedsnr" v="616075" />
	</node>
	<node id="-515302" lat="61.2062864116" lon="7.21426096022">
		<tag k="fixme" v="consider place=hamlet" />
		<tag k="name" v="Hovland" />
		<tag k="place" v="farm" />
		<tag k="ssr:stedsnr" v="616073" />
	</node>
	<node id="-515298" lat="61.1970277814" lon="7.28320278505">
		<tag k="historic" v="shieling" />
		<tag k="name" v="Hungerhaug" />
		<tag k="place" v="locality" />
		<tag k="ssr:stedsnr" v="616034" />
	</node>
	<node id="-515296" lat="61.198807152" lon="7.02064564146">
		<tag k="alt_name" v="Oppheim;Uppeim" />
		<tag k="name" v="Uppheim" />
		<tag k="place" v="farm" />
		<tag k="ssr:stedsnr" v="616026" />
	</node>
	<node id="-515293" lat="61.1779351389" lon="7.27217749687">
		<tag k="name" v="Amla" />
		<tag k="place" v="hamlet" />
		<tag k="ssr:stedsnr" v="616004" />
	</node>
	<node id="-515292" lat="61.1701109634" lon="6.99292098475">
		<tag k="alt_name" v="Ylmeim" />
		<tag k="fixme" v="consider place=hamlet" />
		<tag k="loc_name" v="Ølmheim" />
		<tag k="name" v="Ylmheim" />
		<tag k="place" v="farm" />
		<tag k="ssr:stedsnr" v="616003" />
	</node>
	<node id="-515288" lat="61.1879805546" lon="6.93445555408">
		<tag k="name" v="Honnsete" />
		<tag k="place" v="locality" />
		<tag k="ssr:stedsnr" v="615922" />
	</node>
	<node id="-515287" lat="61.1736555582" lon="6.95149722718">
		<tag k="name" v="Hola" />
		<tag k="place" v="isolated_dwelling" />
		<tag k="ssr:stedsnr" v="615912" />
	</node>
	<node id="-515286" lat="61.1755722192" lon="6.95890555188">
		<tag k="alt_name" v="Breidesete" />
		<tag k="historic" v="shieling" />
		<tag k="name" v="Breiesete" />
		<tag k="place" v="locality" />
		<tag k="ssr:stedsnr" v="615913" />
	</node>
	<node id="-515283" lat="61.3804162595" lon="6.7551941551">
		<tag k="fixme" v="consider place=hamlet" />
		<tag k="name" v="Berge" />
		<tag k="place" v="farm" />
		<tag k="ssr:stedsnr" v="614979" />
	</node>
	<node id="-515280" lat="61.346994448" lon="6.87179166936">
		<tag k="historic" v="shieling" />
		<tag k="name" v="Frudalen" />
		<tag k="place" v="locality" />
		<tag k="ssr:stedsnr" v="614961" />
	</node>
	<node id="-515279" lat="61.347572219" lon="6.87354721637">
		<tag k="historic" v="shieling" />
		<tag k="name" v="Kupa" />
		<tag k="place" v="locality" />
		<tag k="ssr:stedsnr" v="614960" />
	</node>
	<node id="-515275" lat="61.4284305579" lon="6.75582777701">
		<tag k="name" v="Bakkane" />
		<tag k="place" v="farm" />
		<tag k="ssr:stedsnr" v="614932" />
	</node>
	<node id="-515266" lat="61.3237630246" lon="6.99011065224">
		<tag k="fixme" v="consider place=hamlet" />
		<tag k="name" v="Svedal" />
		<tag k="place" v="farm" />
		<tag k="ssr:stedsnr" v="614478" />
	</node>
	<node id="-515262" lat="61.296555556" lon="7.01017500094">
		<tag k="historic" v="shieling" />
		<tag k="name" v="Kleiv" />
		<tag k="place" v="locality" />
		<tag k="ssr:stedsnr" v="614434" />
	</node>
	<node id="-515260" lat="61.2930888919" lon="7.08362500868">
		<tag k="alt_name" v="Havarleite" />
		<tag k="name" v="Håvardleite" />
		<tag k="place" v="locality" />
		<tag k="ssr:stedsnr" v="614411" />
	</node>
	<node id="-515259" lat="61.3129777794" lon="7.00259445207">
		<tag k="historic" v="shieling" />
		<tag k="name" v="Nerestad" />
		<tag k="place" v="locality" />
		<tag k="ssr:stedsnr" v="614404" />
	</node>
	<node id="-515258" lat="61.3170434694" lon="6.99854169687">
		<tag k="fixme" v="consider place=hamlet" />
		<tag k="name" v="Litlabø" />
		<tag k="place" v="farm" />
		<tag k="ssr:stedsnr" v="614398" />
	</node>
	<node id="-515257" lat="61.3038666631" lon="7.00709722369">
		<tag k="historic" v="shieling" />
		<tag k="name" v="Binesete" />
		<tag k="place" v="locality" />
		<tag k="ssr:stedsnr" v="614381" />
	</node>
	<node id="-515255" lat="61.2627944456" lon="7.03317777246">
		<tag k="name" v="Rusti" />
		<tag k="place" v="farm" />
		<tag k="ssr:stedsnr" v="614351" />
	</node>
	<node id="-515252" lat="61.2757733463" lon="7.01330470948">
		<tag k="alt_name" v="Hildeskår" />
		<tag k="fixme" v="consider place=hamlet" />
		<tag k="name" v="Hilleskor" />
		<tag k="place" v="farm" />
		<tag k="ssr:stedsnr" v="614330" />
	</node>
	<node id="-515247" lat="61.2846388905" lon="6.62283610598">
		<tag k="historic" v="shieling" />
		<tag k="name" v="Heimastølen" />
		<tag k="place" v="locality" />
		<tag k="ssr:stedsnr" v="614250" />
	</node>
	<node id="-515233" lat="61.3049472235" lon="6.66248333079">
		<tag k="name" v="Øyri" />
		<tag k="place" v="locality" />
		<tag k="ssr:stedsnr" v="600477" />
	</node>
	<node id="-515226" lat="61.17325038" lon="7.34723470756">
		<tag k="historic" v="shieling" />
		<tag k="name" v="Djupedalsstølen" />
		<tag k="place" v="locality" />
		<tag k="ssr:stedsnr" v="579657" />
	</node>
	<node id="-515219" lat="61.213194442" lon="7.24892221575">
		<tag k="historic" v="shieling" />
		<tag k="name" v="Goro" />
		<tag k="place" v="locality" />
		<tag k="ssr:stedsnr" v="579084" />
	</node>
	<node id="-515214" lat="61.3284527783" lon="6.68175556403">
		<tag k="name" v="Haugen" />
		<tag k="place" v="farm" />
		<tag k="ssr:stedsnr" v="578927" />
	</node>
	<node id="-515211" lat="61.2290750035" lon="7.05025834153">
		<tag k="name" v="Nedre Kvålshagane" />
		<tag k="place" v="farm" />
		<tag k="ssr:stedsnr" v="578896" />
	</node>
	<node id="-515192" lat="61.1479666638" lon="7.12489721824">
		<tag k="name" v="Indre Haukås" />
		<tag k="place" v="farm" />
		<tag k="ssr:stedsnr" v="578583" />
	</node>
	<node id="-515189" lat="61.2480750004" lon="7.20592500597">
		<tag k="name" v="Skogasetbøen" />
		<tag k="place" v="locality" />
		<tag k="ssr:stedsnr" v="578571" />
	</node>
	<node id="-515188" lat="61.195250001" lon="7.11091666053">
		<tag k="name" v="Kvaaleteigen" />
		<tag k="place" v="locality" />
		<tag k="ssr:stedsnr" v="578547" />
	</node>
	<node id="-515187" lat="61.2016833322" lon="7.17460000367">
		<tag k="name" v="Eidsbakken" />
		<tag k="place" v="farm" />
		<tag k="ssr:stedsnr" v="578532" />
	</node>
	<node id="-515180" lat="61.215446714" lon="6.98815318331">
		<tag k="fixme" v="consider place=hamlet" />
		<tag k="name" v="Midtun" />
		<tag k="place" v="farm" />
		<tag k="ssr:stedsnr" v="578457" />
	</node>
	<node id="-515163" lat="61.3063916671" lon="6.64390832601">
		<tag k="historic" v="shieling" />
		<tag k="name" v="Bjørnahaug" />
		<tag k="place" v="locality" />
		<tag k="ssr:stedsnr" v="566656" />
	</node>
	<node id="-515162" lat="61.1424361125" lon="6.99511667078">
		<tag k="alt_name" v="Nyasæl" />
		<tag k="historic" v="shieling" />
		<tag k="name" v="Nyasel" />
		<tag k="place" v="locality" />
		<tag k="ssr:stedsnr" v="556531" />
	</node>
	<node id="-515161" lat="61.1449861116" lon="7.10539444672">
		<tag k="alt_name" v="Haukåsen, nedre;Haukås Nedste" />
		<tag k="name" v="Nedste Haukåsen" />
		<tag k="place" v="farm" />
		<tag k="ssr:stedsnr" v="556527" />
	</node>
	<node id="-515159" lat="61.1355339913" lon="7.08932002202">
		<tag k="fixme" v="consider place=hamlet" />
		<tag k="name" v="Tingastad" />
		<tag k="place" v="farm" />
		<tag k="ssr:stedsnr" v="556521" />
	</node>
	<node id="-515158" lat="61.1236361099" lon="7.00646665932">
		<tag k="name" v="Humlaposen" />
		<tag k="place" v="locality" />
		<tag k="ssr:stedsnr" v="556519" />
	</node>
	<node id="-515154" lat="61.2162805598" lon="7.1935611096">
		<tag k="alt_name" v="Vestreim vårstøl" />
		<tag k="historic" v="shieling" />
		<tag k="name" v="Vestreimsstølen" />
		<tag k="place" v="locality" />
		<tag k="ssr:stedsnr" v="556094" />
	</node>
	<node id="-515153" lat="61.2147500022" lon="7.05140833439">
		<tag k="alt_name" v="Skarsbøstølen" />
		<tag k="historic" v="shieling" />
		<tag k="name" v="Skardsbøstølen" />
		<tag k="place" v="locality" />
		<tag k="ssr:stedsnr" v="556083" />
	</node>
	<node id="-515152" lat="61.2117747448" lon="7.05847881279">
		<tag k="alt_name" v="Skarsbø" />
		<tag k="fixme" v="consider place=hamlet" />
		<tag k="name" v="Skardsbø" />
		<tag k="place" v="farm" />
		<tag k="ssr:stedsnr" v="556076" />
	</node>
	<node id="-515150" lat="61.1492033515" lon="6.98143598755">
		<tag k="fixme" v="consider place=hamlet" />
		<tag k="name" v="Haug" />
		<tag k="place" v="farm" />
		<tag k="ssr:stedsnr" v="556023" />
	</node>
	<node id="-515143" lat="61.2368777817" lon="7.03692221433">
		<tag k="name" v="Ågardane" />
		<tag k="place" v="farm" />
		<tag k="ssr:stedsnr" v="555085" />
	</node>
	<node id="-515142" lat="61.2460999981" lon="7.03888055689">
		<tag k="name" v="Dalen" />
		<tag k="place" v="farm" />
		<tag k="ssr:stedsnr" v="555082" />
	</node>
	<node id="-515140" lat="61.182067403" lon="7.0153956068">
		<tag k="alt_name" v="Ylvesåker" />
		<tag k="fixme" v="consider place=hamlet" />
		<tag k="name" v="Ylvisåker" />
		<tag k="place" v="farm" />
		<tag k="ssr:stedsnr" v="555049" />
	</node>
	<node id="-515137" lat="61.2009594482" lon="7.1804859842">
		<tag k="alt_name" v="Engseter" />
		<tag k="fixme" v="consider place=hamlet" />
		<tag k="name" v="Engjasete" />
		<tag k="place" v="farm" />
		<tag k="ssr:stedsnr" v="555036" />
	</node>
	<node id="-515120" lat="61.350332022" lon="6.74543291153">
		<tag k="fixme" v="consider place=hamlet" />
		<tag k="name" v="Viki" />
		<tag k="place" v="farm" />
		<tag k="ssr:stedsnr" v="553939" />
	</node>
	<node id="-515115" lat="61.4259611096" lon="6.81099443567">
		<tag k="name" v="Dalakvina" />
		<tag k="place" v="locality" />
		<tag k="ssr:stedsnr" v="553892" />
	</node>
	<node id="-515109" lat="61.2708416669" lon="7.05069444329">
		<tag k="alt_name" v="Uglaåsen" />
		<tag k="historic" v="shieling" />
		<tag k="name" v="Uglåsen" />
		<tag k="place" v="locality" />
		<tag k="ssr:stedsnr" v="553363" />
	</node>
	<node id="-515107" lat="61.2542543153" lon="7.02288662714">
		<tag k="fixme" v="consider place=hamlet" />
		<tag k="name" v="Notsete" />
		<tag k="place" v="farm" />
		<tag k="ssr:stedsnr" v="553345" />
	</node>
	<node id="-515106" lat="61.2723416693" lon="7.01545556008">
		<tag k="alt_name" v="Hundershagen" />
		<tag k="name" v="Hundærshagen" />
		<tag k="place" v="farm" />
		<tag k="ssr:stedsnr" v="553321" />
	</node>
	<node id="-515104" lat="61.2869083377" lon="6.70615832807">
		<tag k="historic" v="shieling" />
		<tag k="name" v="Svingen" />
		<tag k="place" v="locality" />
		<tag k="ssr:stedsnr" v="553231" />
	</node>
	<node id="-515103" lat="61.2931694439" lon="6.64018888679">
		<tag k="historic" v="shieling" />
		<tag k="name" v="Fjellstølen" />
		<tag k="place" v="locality" />
		<tag k="ssr:stedsnr" v="553228" />
	</node>
	<node id="-515102" lat="61.3352245756" lon="6.93387523004">
		<tag k="fixme" v="consider place=hamlet" />
		<tag k="name" v="Selseng" />
		<tag k="place" v="farm" />
		<tag k="ssr:stedsnr" v="553178" />
	</node>
	<node id="-515098" lat="61.1609833363" lon="6.96577777918">
		<tag k="name" v="Gamleplassen" />
		<tag k="place" v="isolated_dwelling" />
		<tag k="ssr:stedsnr" v="541017" />
	</node>
	<node id="-515097" lat="61.2877888868" lon="7.15942500494">
		<tag k="name" v="Maurahagen" />
		<tag k="place" v="farm" />
		<tag k="ssr:stedsnr" v="540633" />
	</node>
	<node id="-515095" lat="61.2083833325" lon="6.99465000633">
		<tag k="name" v="Hjelmasete" />
		<tag k="place" v="farm" />
		<tag k="ssr:stedsnr" v="540437" />
	</node>
	<node id="-516003" lat="61.4454402716" lon="6.74985388758">
		<tag k="name" v="Vårstølen" />
		<tag k="place" v="farm" />
		<tag k="ssr:stedsnr" v="980018" />
	</node>
	<node id="-515086" lat="61.423236108" lon="6.74320556431">
		<tag k="historic" v="shieling" />
		<tag k="name" v="Øyestølen" />
		<tag k="place" v="locality" />
		<tag k="ssr:stedsnr" v="519965" />
	</node>
	<node id="-515067" lat="61.1885638857" lon="7.07073333513">
		<tag k="name" v="Øyrateigen" />
		<tag k="place" v="locality" />
		<tag k="ssr:stedsnr" v="518563" />
	</node>
	<node id="-515063" lat="61.1961000002" lon="7.13058333665">
		<tag k="name" v="Flugeimsteigen" />
		<tag k="place" v="locality" />
		<tag k="ssr:stedsnr" v="518537" />
	</node>
	<node id="-515049" lat="61.2342635178" lon="7.09029956224">
		<tag k="fixme" v="consider place=hamlet" />
		<tag k="name" v="Rutlin" />
		<tag k="place" v="farm" />
		<tag k="ssr:stedsnr" v="517999" />
	</node>
	<node id="-515042" lat="61.1192027749" lon="6.98657778091">
		<tag k="name" v="Tretteteigen" />
		<tag k="place" v="locality" />
		<tag k="ssr:stedsnr" v="517860" />
	</node>
	<node id="-515037" lat="61.3659666698" lon="6.70829167312">
		<tag k="historic" v="shieling" />
		<tag k="name" v="Gamlestølen" />
		<tag k="place" v="locality" />
		<tag k="ssr:stedsnr" v="517552" />
	</node>
	<node id="-515036" lat="61.3199611093" lon="6.99370554964">
		<tag k="name" v="Solhaug" />
		<tag k="place" v="farm" />
		<tag k="ssr:stedsnr" v="517243" />
	</node>
	<node id="-515031" lat="61.3292888873" lon="6.72256111716">
		<tag k="historic" v="shieling" />
		<tag k="name" v="Jensdalen" />
		<tag k="place" v="locality" />
		<tag k="ssr:stedsnr" v="506655" />
	</node>
	<node id="-515026" lat="61.1556722256" lon="7.10791111341">
		<tag k="historic" v="shieling" />
		<tag k="name" v="Skogasete" />
		<tag k="place" v="locality" />
		<tag k="ssr:stedsnr" v="495486" />
	</node>
	<node id="-515022" lat="61.2352154787" lon="7.11106672706">
		<tag k="fixme" v="consider place=hamlet" />
		<tag k="name" v="Navarsete" />
		<tag k="place" v="farm" />
		<tag k="ssr:stedsnr" v="495139" />
	</node>
	<node id="-515020" lat="61.2334106339" lon="7.11574606024">
		<tag k="fixme" v="consider place=hamlet" />
		<tag k="name" v="Nes" />
		<tag k="place" v="farm" />
		<tag k="ssr:stedsnr" v="495133" />
	</node>
	<node id="-515018" lat="61.2052472376" lon="7.01170643411">
		<tag k="fixme" v="consider place=hamlet" />
		<tag k="name" v="Uglane" />
		<tag k="place" v="farm" />
		<tag k="ssr:stedsnr" v="495101" />
	</node>
	<node id="-515017" lat="61.2088527809" lon="7.05093611682">
		<tag k="alt_name" v="Øyrehagen" />
		<tag k="name" v="Øyrahagen" />
		<tag k="place" v="farm" />
		<tag k="ssr:stedsnr" v="495094" />
	</node>
	<node id="-515016" lat="61.2169083341" lon="7.12444443923">
		<tag k="name" v="Hagalandet" />
		<tag k="place" v="farm" />
		<tag k="ssr:stedsnr" v="495091" />
	</node>
	<node id="-515015" lat="61.2206111077" lon="7.17500833234">
		<tag k="historic" v="shieling" />
		<tag k="name" v="Valebergstølen" />
		<tag k="place" v="locality" />
		<tag k="ssr:stedsnr" v="495087" />
	</node>
	<node id="-515013" lat="61.1786611103" lon="6.99138610434">
		<tag k="alt_name" v="Sitjane" />
		<tag k="historic" v="shieling" />
		<tag k="name" v="Sikjane" />
		<tag k="place" v="locality" />
		<tag k="ssr:stedsnr" v="495066" />
	</node>
	<node id="-515009" lat="61.1605041922" lon="6.9887965499">
		<tag k="fixme" v="consider place=hamlet" />
		<tag k="name" v="Nornes" />
		<tag k="place" v="farm" />
		<tag k="ssr:stedsnr" v="495025" />
	</node>
	<node id="-515007" lat="61.1801166669" lon="7.2704027859">
		<tag k="fixme" v="consider place=hamlet" />
		<tag k="name" v="Amla" />
		<tag k="place" v="village" />
		<tag k="ssr:stedsnr" v="495001" />
	</node>
	<node id="-514999" lat="61.3705333353" lon="6.64572222597">
		<tag k="name" v="Bjørkehaugane" />
		<tag k="place" v="locality" />
		<tag k="ssr:stedsnr" v="493985" />
	</node>
	<node id="-514997" lat="61.3462861125" lon="6.90469444699">
		<tag k="historic" v="shieling" />
		<tag k="name" v="Frudalsvollen" />
		<tag k="place" v="locality" />
		<tag k="ssr:stedsnr" v="493960" />
	</node>
	<node id="-513954" lat="61.2475444443" lon="7.26123611548">
		<tag k="alt_name" v="Breidesete" />
		<tag k="historic" v="shieling" />
		<tag k="name" v="Breisete" />
		<tag k="place" v="locality" />
		<tag k="ssr:stedsnr" v="313121" />
	</node>
	<node id="-514995" lat="61.3471388902" lon="6.66664721429">
		<tag k="historic" v="shieling" />
		<tag k="name" v="Heimastølen" />
		<tag k="place" v="locality" />
		<tag k="ssr:stedsnr" v="493957" />
	</node>
	<node id="-514991" lat="61.4729222198" lon="6.74119166441">
		<tag k="historic" v="shieling" />
		<tag k="name" v="Holten" />
		<tag k="place" v="locality" />
		<tag k="ssr:stedsnr" v="493835" />
	</node>
	<node id="-514981" lat="61.3290250022" lon="7.0049944467">
		<tag k="historic" v="shieling" />
		<tag k="name" v="Navarsete" />
		<tag k="place" v="locality" />
		<tag k="ssr:stedsnr" v="493486" />
	</node>
	<node id="-514980" lat="61.3382909015" lon="6.99164557776">
		<tag k="historic" v="shieling" />
		<tag k="name" v="Grøssete" />
		<tag k="place" v="locality" />
		<tag k="ssr:stedsnr" v="493433" />
	</node>
	<node id="-514979" lat="61.2964361129" lon="6.98682500778">
		<tag k="historic" v="shieling" />
		<tag k="name" v="Hollekvestølen" />
		<tag k="place" v="locality" />
		<tag k="ssr:stedsnr" v="493420" />
	</node>
	<node id="-514977" lat="61.3139861138" lon="6.97481111914">
		<tag k="name" v="Håvardstølen" />
		<tag k="place" v="locality" />
		<tag k="ssr:stedsnr" v="493393" />
	</node>
	<node id="-514975" lat="61.2754527776" lon="7.02854445218">
		<tag k="name" v="Tråna" />
		<tag k="place" v="isolated_dwelling" />
		<tag k="ssr:stedsnr" v="493340" />
	</node>
	<node id="-514971" lat="61.3087888924" lon="6.65618055456">
		<tag k="historic" v="shieling" />
		<tag k="name" v="Åsen" />
		<tag k="place" v="locality" />
		<tag k="ssr:stedsnr" v="493230" />
	</node>
	<node id="-514970" lat="61.3165833363" lon="6.73657221903">
		<tag k="historic" v="shieling" />
		<tag k="name" v="Myrsete" />
		<tag k="place" v="locality" />
		<tag k="ssr:stedsnr" v="493216" />
	</node>
	<node id="-514967" lat="61.2872222259" lon="7.01668055063">
		<tag k="alt_name" v="Orrestadstølen" />
		<tag k="historic" v="shieling" />
		<tag k="name" v="Orrastadstølen" />
		<tag k="place" v="locality" />
		<tag k="ssr:stedsnr" v="492395" />
	</node>
	<node id="-514966" lat="61.3983638896" lon="6.73644723019">
		<tag k="name" v="Haugtun" />
		<tag k="place" v="farm" />
		<tag k="ssr:stedsnr" v="481048" />
	</node>
	<node id="-514951" lat="61.1860055523" lon="7.3516611118">
		<tag k="historic" v="shieling" />
		<tag k="name" v="Padlastølen" />
		<tag k="place" v="locality" />
		<tag k="ssr:stedsnr" v="458626" />
	</node>
	<node id="-514920" lat="61.1714888853" lon="6.9397472141">
		<tag k="historic" v="shieling" />
		<tag k="name" v="Øyestølen" />
		<tag k="place" v="locality" />
		<tag k="ssr:stedsnr" v="457618" />
	</node>
	<node id="-514914" lat="61.2110967857" lon="7.1659002198">
		<tag k="name" v="Kyrkjeteigen" />
		<tag k="place" v="locality" />
		<tag k="ssr:stedsnr" v="457535" />
	</node>
	<node id="-514911" lat="61.2122583361" lon="7.13236388272">
		<tag k="name" v="Stølen" />
		<tag k="place" v="farm" />
		<tag k="ssr:stedsnr" v="457510" />
	</node>
	<node id="-514910" lat="61.251377777" lon="7.16701388175">
		<tag k="name" v="Teigen" />
		<tag k="place" v="farm" />
		<tag k="ssr:stedsnr" v="457394" />
	</node>
	<node id="-514906" lat="61.1990305542" lon="7.03024444337">
		<tag k="name" v="Alpedal" />
		<tag k="place" v="farm" />
		<tag k="ssr:stedsnr" v="457318" />
	</node>
	<node id="-514901" lat="61.3101750025" lon="6.65483333819">
		<tag k="historic" v="shieling" />
		<tag k="name" v="Heimastølen" />
		<tag k="place" v="locality" />
		<tag k="ssr:stedsnr" v="446665" />
	</node>
	<node id="-514897" lat="61.248224999" lon="7.11472221339">
		<tag k="name" v="Kvam" />
		<tag k="place" v="farm" />
		<tag k="ssr:stedsnr" v="435117" />
	</node>
	<node id="-514891" lat="61.1941941304" lon="7.23200102757">
		<tag k="fixme" v="consider place=hamlet" />
		<tag k="name" v="Kjøpstad" />
		<tag k="place" v="farm" />
		<tag k="ssr:stedsnr" v="435071" />
	</node>
	<node id="-514890" lat="61.1893472267" lon="7.20068611523">
		<tag k="alt_name" v="Bjørka-vårstøl" />
		<tag k="historic" v="shieling" />
		<tag k="name" v="Bjørkestølen" />
		<tag k="place" v="locality" />
		<tag k="ssr:stedsnr" v="435068" />
	</node>
	<node id="-514885" lat="61.1601300637" lon="6.97013455959">
		<tag k="fixme" v="consider place=hamlet" />
		<tag k="name" v="Lomelde" />
		<tag k="place" v="farm" />
		<tag k="ssr:stedsnr" v="435027" />
	</node>
	<node id="-514880" lat="61.1815444448" lon="7.26407222534">
		<tag k="name" v="Nybø" />
		<tag k="place" v="farm" />
		<tag k="ssr:stedsnr" v="435005" />
	</node>
	<node id="-514876" lat="61.1619361065" lon="6.94147499137">
		<tag k="alt_name" v="Slinda, indre;Indre Slinde" />
		<tag k="name" v="Indre Slinda" />
		<tag k="place" v="locality" />
		<tag k="ssr:stedsnr" v="434799" />
	</node>
	<node id="-514872" lat="61.2089527747" lon="7.02858889148">
		<tag k="historic" v="shieling" />
		<tag k="name" v="Alpastølen" />
		<tag k="place" v="locality" />
		<tag k="ssr:stedsnr" v="434065" />
	</node>
	<node id="-514865" lat="61.3533027803" lon="6.65992221746">
		<tag k="name" v="Gamlegarden" />
		<tag k="place" v="locality" />
		<tag k="ssr:stedsnr" v="433935" />
	</node>
	<node id="-514859" lat="61.3024472211" lon="7.00696110553">
		<tag k="name" v="Vassenden" />
		<tag k="place" v="farm" />
		<tag k="ssr:stedsnr" v="433413" />
	</node>
	<node id="-514857" lat="61.2521666662" lon="6.99305276935">
		<tag k="historic" v="shieling" />
		<tag k="name" v="Hausastølen" />
		<tag k="place" v="locality" />
		<tag k="ssr:stedsnr" v="433268" />
	</node>
	<node id="-514854" lat="61.3180333373" lon="6.95599722395">
		<tag k="historic" v="shieling" />
		<tag k="name" v="Øvste Teigane" />
		<tag k="place" v="locality" />
		<tag k="ssr:stedsnr" v="433214" />
	</node>
	<node id="-514853" lat="61.3118249996" lon="6.64590555916">
		<tag k="historic" v="shieling" />
		<tag k="name" v="Teigastølen" />
		<tag k="place" v="locality" />
		<tag k="ssr:stedsnr" v="433203" />
	</node>
	<node id="-514849" lat="61.346622226" lon="6.87426666093">
		<tag k="historic" v="shieling" />
		<tag k="name" v="Haugen" />
		<tag k="place" v="locality" />
		<tag k="ssr:stedsnr" v="432956" />
	</node>
	<node id="-514844" lat="61.2894214825" lon="7.00005448027">
		<tag k="historic" v="shieling" />
		<tag k="name" v="Hyljarvollen" />
		<tag k="place" v="locality" />
		<tag k="ssr:stedsnr" v="432395" />
	</node>
	<node id="-514841" lat="61.2690999963" lon="7.12069444359">
		<tag k="alt_name" v="Imesdal-stølen" />
		<tag k="historic" v="shieling" />
		<tag k="name" v="Imesdal" />
		<tag k="place" v="locality" />
		<tag k="ssr:stedsnr" v="432342" />
	</node>
	<node id="-514839" lat="61.2562865746" lon="6.99559790192">
		<tag k="fixme" v="consider place=hamlet" />
		<tag k="name" v="Geirane" />
		<tag k="place" v="farm" />
		<tag k="ssr:stedsnr" v="432321" />
	</node>
	<node id="-514838" lat="61.2793666708" lon="7.02859721801">
		<tag k="historic" v="shieling" />
		<tag k="name" v="Stokksete" />
		<tag k="place" v="locality" />
		<tag k="ssr:stedsnr" v="432310" />
	</node>
	<node id="-514837" lat="61.2681777765" lon="6.95037776907">
		<tag k="name" v="Fagreggi" />
		<tag k="place" v="isolated_dwelling" />
		<tag k="ssr:stedsnr" v="432149" />
	</node>
	<node id="-514836" lat="61.2793888849" lon="6.93289166771">
		<tag k="name" v="Rysete" />
		<tag k="place" v="locality" />
		<tag k="ssr:stedsnr" v="432125" />
	</node>
	<node id="-514833" lat="61.23098056" lon="7.07902221735">
		<tag k="leisure" v="pitch" />
		<tag k="name" v="Kvåle stadion" />
		<tag k="ssr:stedsnr" v="418982" />
	</node>
	<node id="-514830" lat="61.4307444452" lon="6.76325000924">
		<tag k="name" v="Bruvoll" />
		<tag k="place" v="farm" />
		<tag k="ssr:stedsnr" v="263671" />
	</node>
	<node id="-515883" lat="61.1725381461" lon="7.35789206113">
		<tag k="alt_name" v="Ombandstølen" />
		<tag k="historic" v="shieling" />
		<tag k="name" v="Ombandsstølen" />
		<tag k="place" v="locality" />
		<tag k="ssr:stedsnr" v="919375" />
	</node>
	<node id="-514816" lat="61.2073169934" lon="7.17176835686">
		<tag k="fixme" v="consider place=hamlet" />
		<tag k="name" v="Valeberg" />
		<tag k="place" v="farm" />
		<tag k="ssr:stedsnr" v="252083" />
	</node>
	<node id="-514815" lat="61.178361108" lon="7.21063056397">
		<tag k="name" v="Holten" />
		<tag k="place" v="locality" />
		<tag k="ssr:stedsnr" v="252058" />
	</node>
	<node id="-514813" lat="61.1918194415" lon="7.0231499988">
		<tag k="fixme" v="consider place=hamlet" />
		<tag k="name" v="Fardal" />
		<tag k="place" v="village" />
		<tag k="ssr:stedsnr" v="252044" />
	</node>
	<node id="-514805" lat="61.3725999981" lon="6.88565832425">
		<tag k="name" v="Tuftahaug" />
		<tag k="place" v="locality" />
		<tag k="ssr:stedsnr" v="250986" />
	</node>
	<node id="-514802" lat="61.38394205" lon="6.73451538306">
		<tag k="fixme" v="consider place=hamlet" />
		<tag k="name" v="Hatlestad" />
		<tag k="place" v="farm" />
		<tag k="ssr:stedsnr" v="250967" />
	</node>
	<node id="-514797" lat="61.4227643909" lon="6.78119353731">
		<tag k="fixme" v="consider place=hamlet" />
		<tag k="name" v="Horpedalen" />
		<tag k="place" v="farm" />
		<tag k="ssr:stedsnr" v="250916" />
	</node>
	<node id="-514796" lat="61.4332416622" lon="6.78098610759">
		<tag k="name" v="Grandavollen" />
		<tag k="place" v="locality" />
		<tag k="ssr:stedsnr" v="250911" />
	</node>
	<node id="-514792" lat="61.4080361085" lon="6.66944999658">
		<tag k="historic" v="shieling" />
		<tag k="name" v="Holten" />
		<tag k="place" v="locality" />
		<tag k="ssr:stedsnr" v="250871" />
	</node>
	<node id="-514790" lat="61.4577361074" lon="6.82000554865">
		<tag k="historic" v="shieling" />
		<tag k="name" v="Heimastølen" />
		<tag k="place" v="locality" />
		<tag k="ssr:stedsnr" v="250816" />
	</node>
	<node id="-514789" lat="61.4483694411" lon="6.70566388332">
		<tag k="fixme" v="multiple name tags, choose one and add the other to alt_name" />
		<tag k="historic" v="shieling" />
		<tag k="name" v="Tverrdalen;Tverrdalsstølen" />
		<tag k="place" v="locality" />
		<tag k="ssr:stedsnr" v="250814" />
	</node>
	<node id="-514788" lat="61.449325003" lon="6.71608889722">
		<tag k="name" v="Skipet" />
		<tag k="place" v="locality" />
		<tag k="ssr:stedsnr" v="250810" />
	</node>
	<node id="-514783" lat="61.2611555538" lon="7.15965833063">
		<tag k="name" v="Brattland" />
		<tag k="place" v="farm" />
		<tag k="ssr:stedsnr" v="250351" />
	</node>
	<node id="-514782" lat="61.2840569977" lon="7.15609478129">
		<tag k="alt_name" v="Dvergedal" />
		<tag k="fixme" v="consider place=hamlet" />
		<tag k="name" v="Dvergadal" />
		<tag k="place" v="farm" />
		<tag k="ssr:stedsnr" v="250332" />
	</node>
	<node id="-514778" lat="61.2844776384" lon="6.68288906129">
		<tag k="fixme" v="consider place=hamlet" />
		<tag k="name" v="Romøyri" />
		<tag k="place" v="farm" />
		<tag k="ssr:stedsnr" v="250257" />
	</node>
	<node id="-514776" lat="61.3287241772" lon="6.95393018601">
		<tag k="fixme" v="consider place=hamlet" />
		<tag k="name" v="Torstad" />
		<tag k="place" v="farm" />
		<tag k="ssr:stedsnr" v="250219" />
	</node>
	<node id="-514769" lat="61.1884611096" lon="7.02068056425">
		<tag k="name" v="Sageviki" />
		<tag k="place" v="locality" />
		<tag k="ssr:stedsnr" v="236416" />
	</node>
	<node id="-514763" lat="61.3380635716" lon="6.98997313036">
		<tag k="fixme" v="consider tourism=alpine_hut or tourism=chalet" />
		<tag k="name" v="Grøssete" />
		<tag k="ssr:stedsnr" v="216478" />
		<tag k="tourism" v="wilderness_hut" />
	</node>
	<node id="-514754" lat="61.1863444405" lon="7.22382777764">
		<tag k="name" v="Brekka" />
		<tag k="place" v="farm" />
		<tag k="ssr:stedsnr" v="215526" />
	</node>
	<node id="-514750" lat="61.2422944446" lon="7.08667777616">
		<tag k="historic" v="shieling" />
		<tag k="name" v="Trona" />
		<tag k="place" v="locality" />
		<tag k="ssr:stedsnr" v="215000" />
	</node>
	<node id="-514746" lat="61.2551861088" lon="7.00628889381">
		<tag k="name" v="Øygarden" />
		<tag k="place" v="farm" />
		<tag k="ssr:stedsnr" v="214942" />
	</node>
	<node id="-514735" lat="61.1944366668" lon="7.02184846804">
		<tag k="fixme" v="consider place=hamlet" />
		<tag k="name" v="Fardal" />
		<tag k="place" v="farm" />
		<tag k="ssr:stedsnr" v="214793" />
	</node>
	<node id="-514731" lat="61.1541861101" lon="7.00196666434">
		<tag k="name" v="Nordheim" />
		<tag k="place" v="farm" />
		<tag k="ssr:stedsnr" v="214605" />
	</node>
	<node id="-514730" lat="61.1452472253" lon="6.97733888634">
		<tag k="name" v="Simongjerteigen" />
		<tag k="place" v="locality" />
		<tag k="ssr:stedsnr" v="214586" />
	</node>
	<node id="-514714" lat="61.1435249971" lon="7.17423889104">
		<tag k="name" v="Holm" />
		<tag k="place" v="locality" />
		<tag k="ssr:stedsnr" v="192509" />
	</node>
	<node id="-514712" lat="61.2441333337" lon="6.99406667337">
		<tag k="historic" v="shieling" />
		<tag k="name" v="Tyldestølen" />
		<tag k="place" v="locality" />
		<tag k="ssr:stedsnr" v="192170" />
	</node>
	<node id="-514711" lat="61.2456264156" lon="7.02594003798">
		<tag k="fixme" v="consider place=hamlet" />
		<tag k="name" v="Ospesete" />
		<tag k="place" v="farm" />
		<tag k="ssr:stedsnr" v="192168" />
	</node>
	<node id="-514710" lat="61.2240611102" lon="6.98787778635">
		<tag k="alt_name" v="Midtunskamben" />
		<tag k="historic" v="shieling" />
		<tag k="name" v="Kamben" />
		<tag k="place" v="locality" />
		<tag k="ssr:stedsnr" v="192142" />
	</node>
	<node id="-514708" lat="61.2345961143" lon="7.05371393124">
		<tag k="alt_name" v="Stenehjem;Stenajeim" />
		<tag k="fixme" v="consider place=hamlet" />
		<tag k="name" v="Stenageim" />
		<tag k="place" v="farm" />
		<tag k="ssr:stedsnr" v="192115" />
	</node>
	<node id="-514707" lat="61.2391888878" lon="6.99904166055">
		<tag k="alt_name" v="Ospesetølen" />
		<tag k="historic" v="shieling" />
		<tag k="name" v="Ospesetestølen" />
		<tag k="place" v="locality" />
		<tag k="ssr:stedsnr" v="192110" />
	</node>
	<node id="-514706" lat="61.2441819904" lon="7.04802332805">
		<tag k="alt_name" v="Hofslundsengen" />
		<tag k="fixme" v="consider place=hamlet" />
		<tag k="name" v="Hovslundengi" />
		<tag k="place" v="farm" />
		<tag k="ssr:stedsnr" v="192107" />
	</node>
	<node id="-514705" lat="61.2480989512" lon="7.1366848345">
		<tag k="fixme" v="consider place=hamlet" />
		<tag k="name" v="Barsnes" />
		<tag k="place" v="farm" />
		<tag k="ssr:stedsnr" v="192102" />
	</node>
	<node id="-514701" lat="61.1987789006" lon="7.24191315688">
		<tag k="fixme" v="consider place=hamlet" />
		<tag k="name" v="Hauståker" />
		<tag k="place" v="farm" />
		<tag k="ssr:stedsnr" v="192045" />
	</node>
	<node id="-514699" lat="61.1990666693" lon="7.02637777211">
		<tag k="name" v="Alpen" />
		<tag k="place" v="farm" />
		<tag k="ssr:stedsnr" v="192037" />
	</node>
	<node id="-514698" lat="61.1489611098" lon="6.99003888829">
		<tag k="name" v="Haugen" />
		<tag k="place" v="farm" />
		<tag k="ssr:stedsnr" v="192028" />
	</node>
	<node id="-514694" lat="61.1718611117" lon="6.99494167181">
		<tag k="alt_name" v="Norum" />
		<tag k="name" v="Norane" />
		<tag k="place" v="farm" />
		<tag k="ssr:stedsnr" v="192007" />
	</node>
	<node id="-514693" lat="61.2146305531" lon="6.96622499487">
		<tag k="historic" v="shieling" />
		<tag k="name" v="Kinn" />
		<tag k="place" v="locality" />
		<tag k="ssr:stedsnr" v="191958" />
	</node>
	<node id="-514682" lat="61.3645333348" lon="6.70290832643">
		<tag k="historic" v="shieling" />
		<tag k="name" v="Distadfjellstølen" />
		<tag k="place" v="locality" />
		<tag k="ssr:stedsnr" v="190989" />
	</node>
	<node id="-514681" lat="61.36426389" lon="6.65450000669">
		<tag k="historic" v="shieling" />
		<tag k="name" v="Brekka" />
		<tag k="place" v="locality" />
		<tag k="ssr:stedsnr" v="190985" />
	</node>
	<node id="-514677" lat="61.3529472257" lon="6.72089167101">
		<tag k="name" v="Lyngsete" />
		<tag k="place" v="isolated_dwelling" />
		<tag k="ssr:stedsnr" v="190944" />
	</node>
	<node id="-514676" lat="61.3653861133" lon="6.9080194438">
		<tag k="historic" v="shieling" />
		<tag k="name" v="Anestølen" />
		<tag k="place" v="locality" />
		<tag k="ssr:stedsnr" v="190939" />
	</node>
	<node id="-514672" lat="61.412050002" lon="6.79390277682">
		<tag k="historic" v="shieling" />
		<tag k="name" v="Endrestølen" />
		<tag k="place" v="locality" />
		<tag k="ssr:stedsnr" v="190907" />
	</node>
	<node id="-514669" lat="61.4187333357" lon="6.82690833699">
		<tag k="historic" v="shieling" />
		<tag k="name" v="Steindalen" />
		<tag k="place" v="locality" />
		<tag k="ssr:stedsnr" v="190894" />
	</node>
	<node id="-514665" lat="61.4554747581" lon="6.80541283273">
		<tag k="alt_name" v="Supphellen" />
		<tag k="fixme" v="consider place=hamlet" />
		<tag k="name" v="Supphella" />
		<tag k="place" v="farm" />
		<tag k="ssr:stedsnr" v="190861" />
	</node>
	<node id="-514664" lat="61.4480694402" lon="6.73942499634">
		<tag k="alt_name" v="Heimastølen" />
		<tag k="historic" v="shieling" />
		<tag k="name" v="Bøyaheimastølen" />
		<tag k="place" v="locality" />
		<tag k="ssr:stedsnr" v="190856" />
	</node>
	<node id="-514663" lat="61.4838694485" lon="6.86192499502">
		<tag k="name" v="Gamlestølen" />
		<tag k="place" v="locality" />
		<tag k="ssr:stedsnr" v="190852" />
	</node>
	<node id="-514659" lat="61.2726760269" lon="7.15861369801">
		<tag k="fixme" v="consider place=hamlet" />
		<tag k="name" v="Årøy" />
		<tag k="place" v="farm" />
		<tag k="ssr:stedsnr" v="190368" />
	</node>
	<node id="-514658" lat="61.2610111075" lon="7.10734166258">
		<tag k="alt_name" v="Øygardane" />
		<tag k="historic" v="shieling" />
		<tag k="name" v="Øygarden" />
		<tag k="place" v="locality" />
		<tag k="ssr:stedsnr" v="190351" />
	</node>
	<node id="-514656" lat="61.323913885" lon="6.88671666208">
		<tag k="historic" v="shieling" />
		<tag k="name" v="Laugi" />
		<tag k="place" v="locality" />
		<tag k="ssr:stedsnr" v="190221" />
	</node>
	<node id="-514655" lat="61.3319388857" lon="6.92606389052">
		<tag k="name" v="Steinane" />
		<tag k="place" v="isolated_dwelling" />
		<tag k="ssr:stedsnr" v="190210" />
	</node>
	<node id="-514653" lat="61.3258936277" lon="6.67887556978">
		<tag k="fixme" v="consider place=hamlet" />
		<tag k="name" v="Raudboti" />
		<tag k="place" v="farm" />
		<tag k="ssr:stedsnr" v="190206" />
	</node>
	<node id="-514650" lat="61.4121249973" lon="6.68479166011">
		<tag k="historic" v="shieling" />
		<tag k="name" v="Heimastølen" />
		<tag k="place" v="locality" />
		<tag k="ssr:stedsnr" v="189871" />
	</node>
	<node id="-514649" lat="61.2854527804" lon="7.10075554678">
		<tag k="historic" v="shieling" />
		<tag k="name" v="Kvamsnystølen" />
		<tag k="place" v="locality" />
		<tag k="ssr:stedsnr" v="189315" />
	</node>
	<node id="-514648" lat="61.282058331" lon="7.1693888802">
		<tag k="alt_name" v="Skrestølen" />
		<tag k="historic" v="shieling" />
		<tag k="name" v="Skredstølen" />
		<tag k="place" v="locality" />
		<tag k="ssr:stedsnr" v="189283" />
	</node>
	<node id="-514647" lat="61.2774583363" lon="7.15603610578">
		<tag k="name" v="Steig" />
		<tag k="place" v="farm" />
		<tag k="ssr:stedsnr" v="189281" />
	</node>
	<node id="-514626" lat="61.2730972215" lon="7.14369444545">
		<tag k="historic" v="shieling" />
		<tag k="name" v="Brunastølen" />
		<tag k="place" v="locality" />
		<tag k="ssr:stedsnr" v="154627" />
	</node>
	<node id="-514625" lat="61.4301250019" lon="6.75967500533">
		<tag k="name" v="Sjurgarden" />
		<tag k="place" v="farm" />
		<tag k="ssr:stedsnr" v="154615" />
	</node>
	<node id="-514599" lat="61.196097224" lon="7.1240750091">
		<tag k="name" v="Sjellestadteigen" />
		<tag k="place" v="locality" />
		<tag k="ssr:stedsnr" v="153570" />
	</node>
	<node id="-514595" lat="61.2633249997" lon="7.18862778181">
		<tag k="name" v="Allmorki" />
		<tag k="place" v="locality" />
		<tag k="ssr:stedsnr" v="153530" />
	</node>
	<node id="-514594" lat="61.2140951021" lon="6.99212856173">
		<tag k="fixme" v="consider place=hamlet" />
		<tag k="name" v="Haugen" />
		<tag k="place" v="farm" />
		<tag k="ssr:stedsnr" v="153510" />
	</node>
	<node id="-514593" lat="61.2579805557" lon="6.98773889431">
		<tag k="historic" v="shieling" />
		<tag k="name" v="Tranene" />
		<tag k="place" v="locality" />
		<tag k="ssr:stedsnr" v="153402" />
	</node>
	<node id="-514590" lat="61.2822027818" lon="6.96522222238">
		<tag k="historic" v="shieling" />
		<tag k="name" v="Øyestølen" />
		<tag k="place" v="locality" />
		<tag k="ssr:stedsnr" v="153367" />
	</node>
	<node id="-514579" lat="61.2955305543" lon="6.63912221575">
		<tag k="historic" v="shieling" />
		<tag k="name" v="Svalåndalsstølen" />
		<tag k="place" v="locality" />
		<tag k="ssr:stedsnr" v="142653" />
	</node>
	<node id="-514575" lat="61.228840789" lon="7.06813740738">
		<tag k="fixme" v="consider place=hamlet" />
		<tag k="name" v="Skjeldestad" />
		<tag k="place" v="farm" />
		<tag k="ssr:stedsnr" v="131127" />
	</node>
	<node id="-514574" lat="61.232079915" lon="7.06066908308">
		<tag k="fixme" v="consider place=hamlet" />
		<tag k="name" v="Flugheim" />
		<tag k="place" v="farm" />
		<tag k="ssr:stedsnr" v="131118" />
	</node>
	<node id="-514572" lat="61.2368582203" lon="7.03070359218">
		<tag k="fixme" v="consider place=hamlet" />
		<tag k="name" v="Lereim" />
		<tag k="place" v="farm" />
		<tag k="ssr:stedsnr" v="131109" />
	</node>
	<node id="-514570" lat="61.2314972248" lon="7.2837138834">
		<tag k="historic" v="shieling" />
		<tag k="name" v="Vatnasete" />
		<tag k="place" v="locality" />
		<tag k="ssr:stedsnr" v="131069" />
	</node>
	<node id="-514569" lat="61.1803194413" lon="7.17051111422">
		<tag k="alt_name" v="Bjørkastølen" />
		<tag k="historic" v="shieling" />
		<tag k="name" v="Bjørkestølen" />
		<tag k="place" v="locality" />
		<tag k="ssr:stedsnr" v="131060" />
	</node>
	<node id="-514568" lat="61.1654361154" lon="7.2945916616">
		<tag k="alt_name" v="Festingsdalen" />
		<tag k="historic" v="shieling" />
		<tag k="name" v="Festingdalen" />
		<tag k="place" v="locality" />
		<tag k="ssr:stedsnr" v="131036" />
	</node>
	<node id="-514565" lat="61.2198694404" lon="6.96337499787">
		<tag k="historic" v="shieling" />
		<tag k="name" v="Gardsel" />
		<tag k="place" v="locality" />
		<tag k="ssr:stedsnr" v="130997" />
	</node>
	<node id="-514559" lat="61.2433277758" lon="6.92791665937">
		<tag k="historic" v="shieling" />
		<tag k="name" v="Myrbeinsete" />
		<tag k="place" v="locality" />
		<tag k="ssr:stedsnr" v="130523" />
	</node>
	<node id="-514557" lat="61.345897219" lon="6.9098055603">
		<tag k="historic" v="shieling" />
		<tag k="name" v="Nysete" />
		<tag k="place" v="locality" />
		<tag k="ssr:stedsnr" v="129950" />
	</node>
	<node id="-514554" lat="61.4626361128" lon="6.82094167325">
		<tag k="historic" v="shieling" />
		<tag k="name" v="Fjellstølen" />
		<tag k="place" v="locality" />
		<tag k="ssr:stedsnr" v="129841" />
	</node>
	<node id="-514550" lat="61.3686305561" lon="6.77695833364">
		<tag k="historic" v="shieling" />
		<tag k="name" v="Fjellstølen" />
		<tag k="place" v="locality" />
		<tag k="ssr:stedsnr" v="129985" />
	</node>
	<node id="-514549" lat="61.3751513143" lon="6.72776267644">
		<tag k="fixme" v="consider place=hamlet" />
		<tag k="name" v="Distad" />
		<tag k="place" v="farm" />
		<tag k="ssr:stedsnr" v="129984" />
	</node>
	<node id="-514540" lat="61.2621111129" lon="7.0449888908">
		<tag k="alt_name" v="Elvagjengåsen" />
		<tag k="historic" v="shieling" />
		<tag k="name" v="Elvagjengsåsen" />
		<tag k="place" v="locality" />
		<tag k="ssr:stedsnr" v="129353" />
	</node>
	<node id="-514539" lat="61.2637694444" lon="7.11392778482">
		<tag k="historic" v="shieling" />
		<tag k="name" v="Galden" />
		<tag k="place" v="locality" />
		<tag k="ssr:stedsnr" v="129348" />
	</node>
	<node id="-514538" lat="61.2519777779" lon="7.02604444427">
		<tag k="name" v="Øyna" />
		<tag k="place" v="farm" />
		<tag k="ssr:stedsnr" v="129288" />
	</node>
	<node id="-514535" lat="61.316558336" lon="7.01460277648">
		<tag k="historic" v="shieling" />
		<tag k="name" v="Spe" />
		<tag k="place" v="locality" />
		<tag k="ssr:stedsnr" v="129404" />
	</node>
	<node id="-514532" lat="61.3260694438" lon="6.9093166694">
		<tag k="name" v="Vetlaberg" />
		<tag k="place" v="locality" />
		<tag k="ssr:stedsnr" v="129226" />
	</node>
	<node id="-514531" lat="61.3336707435" lon="6.9377189946">
		<tag k="alt_name" v="Kalvskinn" />
		<tag k="fixme" v="consider place=hamlet" />
		<tag k="name" v="Heimdal" />
		<tag k="place" v="farm" />
		<tag k="ssr:stedsnr" v="129222" />
	</node>
	<node id="-514528" lat="61.4397277737" lon="6.78932222735">
		<tag k="alt_name" v="Raunehaug" />
		<tag k="historic" v="shieling" />
		<tag k="name" v="Raunehaugen" />
		<tag k="place" v="locality" />
		<tag k="ssr:stedsnr" v="128920" />
	</node>
	<node id="-514525" lat="61.2864583302" lon="7.14416111927">
		<tag k="historic" v="shieling" />
		<tag k="name" v="Dvergadalsstølen" />
		<tag k="place" v="locality" />
		<tag k="ssr:stedsnr" v="128310" />
	</node>
	<node id="-514523" lat="61.2765611102" lon="6.98425555345">
		<tag k="historic" v="shieling" />
		<tag k="name" v="Skirsete" />
		<tag k="place" v="locality" />
		<tag k="ssr:stedsnr" v="128304" />
	</node>
	<node id="-514507" lat="61.1801046223" lon="7.26817336488">
		<tag k="alt_name" v="Amle Øvre" />
		<tag k="fixme" v="consider place=hamlet" />
		<tag k="name" v="Øvre Amla" />
		<tag k="place" v="farm" />
		<tag k="ssr:stedsnr" v="94606" />
	</node>
	<node id="-514485" lat="61.4370499998" lon="6.75679721652">
		<tag k="name" v="Bøyum" />
		<tag k="place" v="farm" />
		<tag k="ssr:stedsnr" v="93699" />
	</node>
	<node id="-514480" lat="61.1552277748" lon="7.00559999424">
		<tag k="name" v="Uglateigen" />
		<tag k="place" v="locality" />
		<tag k="ssr:stedsnr" v="93543" />
	</node>
	<node id="-514472" lat="61.2029888846" lon="7.17842222253">
		<tag k="name" v="Eidshagen" />
		<tag k="place" v="farm" />
		<tag k="ssr:stedsnr" v="93482" />
	</node>
	<node id="-514465" lat="61.2153470622" lon="6.97989085114">
		<tag k="fixme" v="consider place=hamlet" />
		<tag k="name" v="Brusegard" />
		<tag k="place" v="farm" />
		<tag k="ssr:stedsnr" v="93438" />
	</node>
	<node id="-514452" lat="61.403911113" lon="6.74007222594">
		<tag k="fixme" v="consider place=hamlet" />
		<tag k="name" v="Fjærland" />
		<tag k="place" v="village" />
		<tag k="ssr:stedsnr" v="87769" />
	</node>
	<node id="-514448" lat="61.1473000008" lon="7.1001083248">
		<tag k="alt_name" v="Haukåsen, øvre;Øvre Haukåsen;Haukås Øvste" />
		<tag k="name" v="Øvste Haukåsen" />
		<tag k="place" v="farm" />
		<tag k="ssr:stedsnr" v="71526" />
	</node>
	<node id="-514447" lat="61.1478299296" lon="7.12517324764">
		<tag k="name" v="Jordi" />
		<tag k="place" v="farm" />
		<tag k="ssr:stedsnr" v="71520" />
	</node>
	<node id="-514444" lat="61.178377776" lon="7.22829721392">
		<tag k="name" v="Hagen" />
		<tag k="place" v="farm" />
		<tag k="ssr:stedsnr" v="71056" />
	</node>
	<node id="-514443" lat="61.1824722188" lon="7.22488611839">
		<tag k="name" v="Kvamshagen" />
		<tag k="place" v="farm" />
		<tag k="ssr:stedsnr" v="71054" />
	</node>
	<node id="-514442" lat="61.1590972208" lon="7.0080749929">
		<tag k="name" v="Høl" />
		<tag k="place" v="farm" />
		<tag k="ssr:stedsnr" v="71016" />
	</node>
	<node id="-514439" lat="61.1705944433" lon="7.16508611596">
		<tag k="alt_name" v="Rudstølen" />
		<tag k="historic" v="shieling" />
		<tag k="name" v="Rudsstølen" />
		<tag k="place" v="locality" />
		<tag k="ssr:stedsnr" v="71011" />
	</node>
	<node id="-514437" lat="61.178063892" lon="6.96343055766">
		<tag k="alt_name" v="Ølmedalstølen" />
		<tag k="historic" v="shieling" />
		<tag k="name" v="Ylmedal" />
		<tag k="place" v="locality" />
		<tag k="ssr:stedsnr" v="70910" />
	</node>
	<node id="-514435" lat="61.161205555" lon="6.92771111787">
		<tag k="alt_name" v="Slinda;Slinda, ytre;Ytre Slinde" />
		<tag k="name" v="Ytre Slinda" />
		<tag k="place" v="locality" />
		<tag k="ssr:stedsnr" v="70823" />
	</node>
	<node id="-514432" lat="61.245969444" lon="7.06528334085">
		<tag k="historic" v="shieling" />
		<tag k="name" v="Bjellastølen" />
		<tag k="place" v="locality" />
		<tag k="ssr:stedsnr" v="70129" />
	</node>
	<node id="-514431" lat="61.449009854" lon="6.79907638225">
		<tag k="fixme" v="multiple name tags, choose one and add the other to alt_name; consider place=hamlet" />
		<tag k="name" v="Rødseter;Øygarden" />
		<tag k="place" v="farm" />
		<tag k="ssr:stedsnr" v="69931" />
	</node>
	<node id="-514429" lat="61.4526472181" lon="6.78853889168">
		<tag k="historic" v="shieling" />
		<tag k="name" v="Øygardsstølen" />
		<tag k="place" v="locality" />
		<tag k="ssr:stedsnr" v="69860" />
	</node>
	<node id="-514427" lat="61.1757277732" lon="7.00609721461">
		<tag k="alt_name" v="Uraplassen" />
		<tag k="name" v="Urdaplassen" />
		<tag k="place" v="locality" />
		<tag k="ssr:stedsnr" v="70046" />
	</node>
	<node id="-514426" lat="61.1845277811" lon="7.24251944036">
		<tag k="name" v="Kaupanger" />
		<tag k="place" v="village" />
		<tag k="ssr:stedsnr" v="70043" />
	</node>
	<node id="-514425" lat="61.1997666627" lon="7.11068333686">
		<tag k="alt_name" v="Djupevik" />
		<tag k="name" v="Djupeviki" />
		<tag k="place" v="farm" />
		<tag k="ssr:stedsnr" v="70032" />
	</node>
	<node id="-514412" lat="61.4023888918" lon="6.78504999352">
		<tag k="name" v="Gamlestølskrærne" />
		<tag k="place" v="locality" />
		<tag k="ssr:stedsnr" v="68896" />
	</node>
	<node id="-514410" lat="61.4298944484" lon="6.81823888039">
		<tag k="name" v="Blombakkaneset" />
		<tag k="place" v="locality" />
		<tag k="ssr:stedsnr" v="68878" />
	</node>
	<node id="-514407" lat="61.4827611151" lon="6.75134999054">
		<tag k="fixme" v="consider tourism=alpine_hut or tourism=chalet" />
		<tag k="name" v="Brevasshytta" />
		<tag k="ssr:stedsnr" v="68815" />
		<tag k="tourism" v="wilderness_hut" />
	</node>
	<node id="-514404" lat="61.4305315829" lon="6.77517427521">
		<tag k="fixme" v="consider place=hamlet" />
		<tag k="name" v="Våtviki" />
		<tag k="place" v="farm" />
		<tag k="ssr:stedsnr" v="68919" />
	</node>
	<node id="-514403" lat="61.437536111" lon="6.75358055659">
		<tag k="name" v="Tuftene" />
		<tag k="place" v="farm" />
		<tag k="ssr:stedsnr" v="68913" />
	</node>
	<node id="-514397" lat="61.2651904861" lon="7.02661518879">
		<tag k="alt_name" v="Hundere" />
		<tag k="fixme" v="consider place=hamlet" />
		<tag k="name" v="Hundæri" />
		<tag k="place" v="farm" />
		<tag k="ssr:stedsnr" v="68391" />
	</node>
	<node id="-514396" lat="61.2581511218" lon="7.03062877171">
		<tag k="name" v="Skardet" />
		<tag k="place" v="farm" />
		<tag k="ssr:stedsnr" v="68370" />
	</node>
	<node id="-514395" lat="61.2594111082" lon="6.98015278655">
		<tag k="historic" v="shieling" />
		<tag k="name" v="Liastølen" />
		<tag k="place" v="locality" />
		<tag k="ssr:stedsnr" v="68367" />
	</node>
	<node id="-514390" lat="61.3414527808" lon="6.92575277982">
		<tag k="historic" v="shieling" />
		<tag k="name" v="Tråna" />
		<tag k="place" v="locality" />
		<tag k="ssr:stedsnr" v="68193" />
	</node>
	<node id="-514387" lat="61.3390972229" lon="6.73057500398">
		<tag k="name" v="Storesteinneset" />
		<tag k="place" v="farm" />
		<tag k="ssr:stedsnr" v="54489" />
	</node>
	<node id="-514380" lat="61.1843861152" lon="7.2208916717">
		<tag k="name" v="Brubakk" />
		<tag k="place" v="farm" />
		<tag k="ssr:stedsnr" v="33536" />
	</node>
	<node id="-514370" lat="61.2641055566" lon="7.02903611608">
		<tag k="name" v="Bergheim" />
		<tag k="place" v="farm" />
		<tag k="ssr:stedsnr" v="32974" />
	</node>
	<node id="-514369" lat="61.268325002" lon="7.02262499864">
		<tag k="name" v="Nyheim" />
		<tag k="place" v="farm" />
		<tag k="ssr:stedsnr" v="32972" />
	</node>
	<node id="-514352" lat="61.1672166698" lon="6.92186389129">
		<tag k="name" v="Kolshagane" />
		<tag k="place" v="locality" />
		<tag k="ssr:stedsnr" v="32625" />
	</node>
	<node id="-514335" lat="61.3197333355" lon="6.96000000608">
		<tag k="name" v="Samteigane" />
		<tag k="place" v="locality" />
		<tag k="ssr:stedsnr" v="32146" />
	</node>
	<node id="-514323" lat="61.247825004" lon="7.04565276872">
		<tag k="name" v="Skori" />
		<tag k="place" v="farm" />
		<tag k="ssr:stedsnr" v="10151" />
	</node>
	<node id="-514322" lat="61.2361524619" lon="7.07202390843">
		<tag k="fixme" v="consider place=hamlet" />
		<tag k="name" v="Gorvin" />
		<tag k="place" v="farm" />
		<tag k="ssr:stedsnr" v="10124" />
	</node>
	<node id="-514319" lat="61.2091666689" lon="7.05337500728">
		<tag k="name" v="Skolt" />
		<tag k="place" v="farm" />
		<tag k="ssr:stedsnr" v="10087" />
	</node>
	<node id="-514315" lat="61.1981833184" lon="7.04932426834">
		<tag k="alt_name" v="Øskjestrond;Eskestrand" />
		<tag k="fixme" v="consider place=hamlet" />
		<tag k="name" v="Eskestrond" />
		<tag k="place" v="farm" />
		<tag k="ssr:stedsnr" v="10035" />
	</node>
	<node id="-514312" lat="61.1753526721" lon="7.26595674328">
		<tag k="alt_name" v="Amla, nedre;Amla;Amle Nedre" />
		<tag k="fixme" v="consider place=hamlet" />
		<tag k="name" v="Nedre Amla" />
		<tag k="place" v="farm" />
		<tag k="ssr:stedsnr" v="10018" />
	</node>
	<node id="-514308" lat="61.1800861084" lon="7.27581388997">
		<tag k="alt_name" v="Timmerli" />
		<tag k="name" v="Timberlid" />
		<tag k="place" v="farm" />
		<tag k="ssr:stedsnr" v="10004" />
	</node>
	<node id="-514307" lat="61.1790611104" lon="6.90341666493">
		<tag k="name" v="Kråkesete" />
		<tag k="place" v="isolated_dwelling" />
		<tag k="ssr:stedsnr" v="9910" />
	</node>
	<node id="-514305" lat="61.1593833298" lon="6.93677222238">
		<tag k="name" v="Lunden" />
		<tag k="ssr:stedsnr" v="9826" />
		<tag k="tourism" v="guest_house" />
	</node>
	<node id="-514296" lat="61.3825305589" lon="6.77188889194">
		<tag k="historic" v="shieling" />
		<tag k="name" v="Heimastølen" />
		<tag k="place" v="locality" />
		<tag k="ssr:stedsnr" v="8980" />
	</node>
	<node id="-514294" lat="61.3866694479" lon="6.79928888812">
		<tag k="historic" v="shieling" />
		<tag k="name" v="Fjellstølen" />
		<tag k="place" v="locality" />
		<tag k="ssr:stedsnr" v="8975" />
	</node>
	<node id="-514288" lat="61.4738777756" lon="6.79544167437">
		<tag k="fixme" v="consider tourism=alpine_hut or tourism=chalet" />
		<tag k="name" v="Flatbrehytta" />
		<tag k="ssr:stedsnr" v="8838" />
		<tag k="tourism" v="wilderness_hut" />
	</node>
	<node id="-514287" lat="61.4718972218" lon="6.8390416667">
		<tag k="historic" v="shieling" />
		<tag k="name" v="Fjellstølen" />
		<tag k="place" v="locality" />
		<tag k="ssr:stedsnr" v="8677" />
	</node>
	<node id="-514282" lat="61.262672218" lon="6.98818610261">
		<tag k="alt_name" v="Tuftastølen" />
		<tag k="historic" v="shieling" />
		<tag k="name" v="Tuftestølen" />
		<tag k="place" v="locality" />
		<tag k="ssr:stedsnr" v="8377" />
	</node>
	<node id="-514281" lat="61.2595835219" lon="7.00197312145">
		<tag k="fixme" v="consider place=hamlet" />
		<tag k="name" v="Tuftene" />
		<tag k="place" v="farm" />
		<tag k="ssr:stedsnr" v="8371" />
	</node>
	<node id="-514280" lat="61.2627366735" lon="7.15434707948">
		<tag k="fixme" v="consider place=hamlet" />
		<tag k="name" v="Ølnes" />
		<tag k="place" v="farm" />
		<tag k="ssr:stedsnr" v="8368" />
	</node>
	<node id="-514278" lat="61.2539166672" lon="7.05150278626">
		<tag k="alt_name" v="Årvollsåsen" />
		<tag k="historic" v="shieling" />
		<tag k="name" v="Åsen" />
		<tag k="place" v="locality" />
		<tag k="ssr:stedsnr" v="8313" />
	</node>
	<node id="-514277" lat="61.253947223" lon="7.18452221338">
		<tag k="alt_name" v="Heggarusti" />
		<tag k="name" v="Heggerusti" />
		<tag k="place" v="locality" />
		<tag k="ssr:stedsnr" v="8306" />
	</node>
	<node id="-514275" lat="61.3166749991" lon="6.89465832442">
		<tag k="name" v="Blåsvoi" />
		<tag k="place" v="locality" />
		<tag k="ssr:stedsnr" v="8246" />
	</node>
	<node id="-514271" lat="61.329683329" lon="6.92718611437">
		<tag k="name" v="Vatnasete" />
		<tag k="place" v="farm" />
		<tag k="ssr:stedsnr" v="8224" />
	</node>
	<node id="-514269" lat="61.331401464" lon="6.94126983264">
		<tag k="fixme" v="consider place=hamlet" />
		<tag k="name" v="Flatland" />
		<tag k="place" v="farm" />
		<tag k="ssr:stedsnr" v="8220" />
	</node>
	<node id="-514266" lat="61.3352222253" lon="6.66560833554">
		<tag k="historic" v="shieling" />
		<tag k="name" v="Skardet" />
		<tag k="place" v="locality" />
		<tag k="ssr:stedsnr" v="7971" />
	</node>
	<node id="-514262" lat="61.4242444401" lon="6.66657222294">
		<tag k="alt_name" v="Mundalsfjellstølen" />
		<tag k="historic" v="shieling" />
		<tag k="name" v="Fjellstølen" />
		<tag k="place" v="locality" />
		<tag k="ssr:stedsnr" v="7936" />
	</node>
	<node id="-514260" lat="61.4312888865" lon="6.72788889611">
		<tag k="historic" v="shieling" />
		<tag k="name" v="Geitabotn" />
		<tag k="place" v="locality" />
		<tag k="ssr:stedsnr" v="7919" />
	</node>
	<node id="-514258" lat="61.4187723962" lon="6.76402987597">
		<tag k="fixme" v="consider place=hamlet" />
		<tag k="name" v="Stølen" />
		<tag k="place" v="farm" />
		<tag k="ssr:stedsnr" v="7893" />
	</node>
	<node id="-514256" lat="61.284744379" lon="7.00532375838">
		<tag k="alt_name" v="Orrestad" />
		<tag k="fixme" v="consider place=hamlet" />
		<tag k="name" v="Orrastad" />
		<tag k="place" v="farm" />
		<tag k="ssr:stedsnr" v="7415" />
	</node>
	<node id="-514224" lat="61.4047194488" lon="6.71306944417">
		<tag k="name" v="Øygardane" />
		<tag k="place" v="locality" />
		<tag k="ssr:stedsnr" v="883980" />
	</node>
	<node id="-514215" lat="61.1791027772" lon="7.28142778059">
		<tag k="name" v="Furehaugen" />
		<tag k="place" v="farm" />
		<tag k="ssr:stedsnr" v="883603" />
	</node>
	<node id="-514211" lat="61.2718280299" lon="7.0225060087">
		<tag k="fixme" v="consider place=hamlet" />
		<tag k="name" v="Stavateig" />
		<tag k="place" v="farm" />
		<tag k="ssr:stedsnr" v="882957" />
	</node>
	<node id="-514176" lat="61.2411388892" lon="7.13317499882">
		<tag k="name" v="Vandanes" />
		<tag k="place" v="locality" />
		<tag k="ssr:stedsnr" v="882343" />
	</node>
	<node id="-514171" lat="61.3104777788" lon="6.94528611131">
		<tag k="name" v="Middagshola" />
		<tag k="place" v="locality" />
		<tag k="ssr:stedsnr" v="882125" />
	</node>
	<node id="-514169" lat="61.2356076325" lon="7.07616919455">
		<tag k="fixme" v="consider place=hamlet" />
		<tag k="name" v="Haug" />
		<tag k="place" v="farm" />
		<tag k="ssr:stedsnr" v="479052" />
	</node>
	<node id="-514162" lat="61.423644446" lon="6.75319721718">
		<tag k="name" v="Svalunden" />
		<tag k="place" v="farm" />
		<tag k="ssr:stedsnr" v="397968" />
	</node>
	<node id="-514152" lat="61.1832817984" lon="7.23632046903">
		<tag k="alt_name" v="Kaupanger hovedgård" />
		<tag k="fixme" v="consider place=hamlet" />
		<tag k="name" v="Kaupanger herregard" />
		<tag k="place" v="farm" />
		<tag k="ssr:stedsnr" v="397569" />
	</node>
	<node id="-514142" lat="61.3194166692" lon="6.86631943677">
		<tag k="historic" v="shieling" />
		<tag k="name" v="Nystølen" />
		<tag k="place" v="locality" />
		<tag k="ssr:stedsnr" v="396941" />
	</node>
	<node id="-514128" lat="61.1289694471" lon="6.9810027707">
		<tag k="historic" v="shieling" />
		<tag k="name" v="Åsstølen" />
		<tag k="place" v="locality" />
		<tag k="ssr:stedsnr" v="396699" />
	</node>
	<node id="-514102" lat="61.3251222251" lon="6.98176111055">
		<tag k="name" v="Kvamshagen" />
		<tag k="place" v="farm" />
		<tag k="ssr:stedsnr" v="396225" />
	</node>
	<node id="-514099" lat="61.4250972188" lon="6.75462499334">
		<tag k="name" v="Kråna" />
		<tag k="place" v="farm" />
		<tag k="ssr:stedsnr" v="391192" />
	</node>
	<node id="-514095" lat="61.2487234822" lon="7.13695536942">
		<tag k="loc_name" v="Skakhaugen" />
		<tag k="name" v="Skakkhaugen" />
		<tag k="place" v="farm" />
		<tag k="ssr:stedsnr" v="374169" />
	</node>
	<node id="-514094" lat="61.2242249965" lon="7.02601388888">
		<tag k="historic" v="shieling" />
		<tag k="name" v="Slakken" />
		<tag k="place" v="locality" />
		<tag k="ssr:stedsnr" v="374130" />
	</node>
	<node id="-514091" lat="61.2102888889" lon="7.0137416721">
		<tag k="historic" v="shieling" />
		<tag k="name" v="Vatlestadstølen" />
		<tag k="place" v="locality" />
		<tag k="ssr:stedsnr" v="374086" />
	</node>
	<node id="-514090" lat="61.2290749963" lon="7.0967444396">
		<tag k="name" v="Sogndal" />
		<tag k="place" v="village" />
		<tag k="ssr:stedsnr" v="374075" />
	</node>
	<node id="-514088" lat="61.1919625456" lon="7.21087679582">
		<tag k="fixme" v="consider place=hamlet" />
		<tag k="name" v="Bjørk" />
		<tag k="place" v="farm" />
		<tag k="ssr:stedsnr" v="374060" />
	</node>
	<node id="-514087" lat="61.1905402634" lon="7.04993312527">
		<tag k="alt_name" v="Venes" />
		<tag k="fixme" v="consider place=hamlet" />
		<tag k="name" v="Vines" />
		<tag k="place" v="farm" />
		<tag k="ssr:stedsnr" v="374051" />
	</node>
	<node id="-514081" lat="61.1516229784" lon="6.96453134055">
		<tag k="fixme" v="consider place=hamlet" />
		<tag k="name" v="Fimreite" />
		<tag k="place" v="farm" />
		<tag k="ssr:stedsnr" v="373822" />
	</node>
	<node id="-514079" lat="61.2042975583" lon="7.24078182669">
		<tag k="fixme" v="consider place=hamlet" />
		<tag k="name" v="Dalåker" />
		<tag k="place" v="farm" />
		<tag k="ssr:stedsnr" v="373070" />
	</node>
	<node id="-514078" lat="61.2072666673" lon="7.04492778686">
		<tag k="name" v="Viland" />
		<tag k="place" v="farm" />
		<tag k="ssr:stedsnr" v="373065" />
	</node>
	<node id="-514077" lat="61.2101083303" lon="7.05631388003">
		<tag k="alt_name" v="Vetlehagen" />
		<tag k="name" v="Veslehagen" />
		<tag k="place" v="farm" />
		<tag k="ssr:stedsnr" v="373063" />
	</node>
	<node id="-514073" lat="61.3777402922" lon="6.75107451981">
		<tag k="fixme" v="consider place=hamlet" />
		<tag k="name" v="Bjåstad" />
		<tag k="place" v="farm" />
		<tag k="ssr:stedsnr" v="372977" />
	</node>
	<node id="-514069" lat="61.4831166639" lon="6.84843889131">
		<tag k="historic" v="shieling" />
		<tag k="name" v="Mikjelsstølen" />
		<tag k="place" v="locality" />
		<tag k="ssr:stedsnr" v="372842" />
	</node>
	<node id="-514065" lat="61.2635638867" lon="7.02867222371">
		<tag k="name" v="Middalen" />
		<tag k="place" v="farm" />
		<tag k="ssr:stedsnr" v="372379" />
	</node>
	<node id="-514064" lat="61.2496736048" lon="7.02205942607">
		<tag k="alt_name" v="Tylden" />
		<tag k="fixme" v="consider place=hamlet" />
		<tag k="name" v="Tylda" />
		<tag k="place" v="farm" />
		<tag k="ssr:stedsnr" v="372303" />
	</node>
	<node id="-514054" lat="61.3354353357" lon="6.71978095634">
		<tag k="fixme" v="consider place=hamlet" />
		<tag k="name" v="Lidal" />
		<tag k="place" v="farm" />
		<tag k="ssr:stedsnr" v="371965" />
	</node>
	<node id="-514053" lat="61.436765354" lon="6.75529857675">
		<tag k="fixme" v="consider place=hamlet" />
		<tag k="name" v="Bøyum" />
		<tag k="place" v="farm" />
		<tag k="ssr:stedsnr" v="371932" />
	</node>
	<node id="-514049" lat="61.1497305538" lon="6.97295000781">
		<tag k="name" v="Fimreite" />
		<tag k="place" v="farm" />
		<tag k="ssr:stedsnr" v="371443" />
	</node>
</osm>
