<?xml version="1.0" encoding="UTF-8"?>
<osm generator="osmapis" version="0.6">
	<node id="-513849" lat="61.2265166691" lon="7.09574167089">
		<tag k="alt_name" v="Stedje" />
		<tag k="amenity" v="place_of_worship" />
		<tag k="denomination" v="lutheran" />
		<tag k="name" v="Stedje kyrkje" />
		<tag k="religion" v="christian" />
		<tag k="ssr:stedsnr" v="131126" />
	</node>
	<node id="-514358" lat="61.4480638861" lon="6.72245555974">
		<tag k="name" v="Knuthansløa" />
		<tag k="place" v="locality" />
		<tag k="ssr:stedsnr" v="519829" />
	</node>
	<node id="-514261" lat="61.403511115" lon="6.73923889473">
		<tag k="alt_name" v="Fjærland" />
		<tag k="amenity" v="place_of_worship" />
		<tag k="denomination" v="lutheran" />
		<tag k="name" v="Fjærland kyrkje" />
		<tag k="religion" v="christian" />
		<tag k="ssr:stedsnr" v="493908" />
	</node>
	<node id="-513172" lat="61.2375222204" lon="7.11594721469">
		<tag k="name" v="Krossen" />
		<tag k="place" v="locality" />
		<tag k="ssr:stedsnr" v="71127" />
	</node>
	<node id="-514163" lat="61.1839027789" lon="7.07085555051">
		<tag k="name" v="Øygarden" />
		<tag k="place" v="locality" />
		<tag k="ssr:stedsnr" v="435065" />
	</node>
	<node id="-513523" lat="61.1842079651" lon="7.23339968501">
		<tag k="amenity" v="place_of_worship" />
		<tag k="denomination" v="lutheran" />
		<tag k="name" v="Kaupanger stavkyrkje" />
		<tag k="religion" v="christian" />
		<tag k="ssr:stedsnr" v="991242" />
	</node>
	<node id="-514155" lat="61.1706611144" lon="6.99444167349">
		<tag k="alt_name" v="Norum kyrkje" />
		<tag k="amenity" v="place_of_worship" />
		<tag k="denomination" v="lutheran" />
		<tag k="name" v="Ølmheim kyrkje" />
		<tag k="religion" v="christian" />
		<tag k="ssr:stedsnr" v="435011" />
	</node>
	<node id="-515082" lat="61.1745305566" lon="7.37814999871">
		<tag k="name" v="Vetlepallen" />
		<tag k="place" v="locality" />
		<tag k="ssr:stedsnr" v="859346" />
	</node>
	<node id="-513993" lat="61.4234194482" lon="6.76288333149">
		<tag k="name" v="Norsk Bremuseum" />
		<tag k="ssr:stedsnr" v="209141" />
		<tag k="tourism" v="museum" />
	</node>
</osm>
