<?xml version="1.0" encoding="UTF-8"?>
<osm generator="osmapis" version="0.6">
	<node id="-515840" lat="61.1910083306" lon="7.02228888522">
		<tag k="alt_name" v="Fardals-stoi" />
		<tag k="fixme" v="verify maritime location" />
		<tag k="mooring" v="yes" />
		<tag k="name" v="Fardalståi" />
		<tag k="place" v="locality" />
		<tag k="ssr:stedsnr" v="904425" />
	</node>
	<node id="-514517" lat="61.16270833" lon="6.95301388042">
		<tag k="bridge" v="yes" />
		<tag k="layer" v="1" />
		<tag k="name" v="Slinde" />
		<tag k="ssr:stedsnr" v="107455" />
	</node>
	<node id="-514168" lat="61.1747583303" lon="6.88841389412">
		<tag k="layer" v="-1" />
		<tag k="name" v="Fatlatunnelen" />
		<tag k="ssr:stedsnr" v="413153" />
		<tag k="tunnel" v="yes" />
	</node>
	<node id="-514167" lat="61.2529722179" lon="7.01276388315">
		<tag k="bridge" v="yes" />
		<tag k="layer" v="1" />
		<tag k="name" v="Drivdal Kulvert" />
		<tag k="ssr:stedsnr" v="410475" />
	</node>
	<node id="-514166" lat="61.3417916657" lon="6.91619445296">
		<tag k="bridge" v="yes" />
		<tag k="layer" v="1" />
		<tag k="name" v="Kolda Kulvert" />
		<tag k="ssr:stedsnr" v="410459" />
	</node>
	<node id="-514165" lat="61.2683805548" lon="7.15920555999">
		<tag k="alt_name" v="Årøy" />
		<tag k="layer" v="-1" />
		<tag k="name" v="Årøytunnelen" />
		<tag k="ssr:stedsnr" v="408225" />
		<tag k="tunnel" v="yes" />
	</node>
	<node id="-514164" lat="61.1608611102" lon="7.33667778544">
		<tag k="layer" v="-1" />
		<tag k="name" v="Amla" />
		<tag k="ssr:stedsnr" v="408084" />
		<tag k="tunnel" v="yes" />
	</node>
	<node id="-514451" lat="61.3629305548" lon="6.82208333197">
		<tag k="layer" v="-1" />
		<tag k="name" v="Frudalstunnelen" />
		<tag k="ssr:stedsnr" v="82483" />
		<tag k="tunnel" v="yes" />
	</node>
	<node id="-514032" lat="61.324061107" lon="6.92687778583">
		<tag k="bridge" v="yes" />
		<tag k="layer" v="1" />
		<tag k="name" v="Gunnvordal Kulvert" />
		<tag k="ssr:stedsnr" v="349531" />
	</node>
	<node id="-514031" lat="61.1639166697" lon="7.33647221297">
		<tag k="bridge" v="yes" />
		<tag k="layer" v="1" />
		<tag k="name" v="Fjellhall bru" />
		<tag k="ssr:stedsnr" v="349522" />
	</node>
	<node id="-514030" lat="61.2055666625" lon="7.19955554822">
		<tag k="bridge" v="yes" />
		<tag k="layer" v="1" />
		<tag k="name" v="Vesterheim" />
		<tag k="ssr:stedsnr" v="349509" />
	</node>
	<node id="-514029" lat="61.3436888895" lon="6.90931111316">
		<tag k="bridge" v="yes" />
		<tag k="layer" v="1" />
		<tag k="name" v="Nysete Kulvert" />
		<tag k="ssr:stedsnr" v="349503" />
	</node>
	<node id="-514028" lat="61.2461333316" lon="7.11177777918">
		<tag k="bridge" v="yes" />
		<tag k="layer" v="1" />
		<tag k="name" v="Kvam" />
		<tag k="ssr:stedsnr" v="349498" />
	</node>
	<node id="-514962" lat="61.191311109" lon="7.22200000833">
		<tag k="bridge" v="yes" />
		<tag k="layer" v="1" />
		<tag k="name" v="Kaupangsenteret bru" />
		<tag k="ssr:stedsnr" v="470450" />
	</node>
	<node id="-514641" lat="61.3459361139" lon="6.90250832799">
		<tag k="bridge" v="yes" />
		<tag k="layer" v="1" />
		<tag k="name" v="Skinnstad Kulvert" />
		<tag k="ssr:stedsnr" v="167474" />
	</node>
	<node id="-513892" lat="61.2139000014" lon="7.08538889201">
		<tag k="layer" v="-1" />
		<tag k="name" v="Stedjebergtunnelen" />
		<tag k="ssr:stedsnr" v="291138" />
		<tag k="tunnel" v="yes" />
	</node>
	<node id="-513890" lat="61.3243944458" lon="6.92626388092">
		<tag k="bridge" v="yes" />
		<tag k="layer" v="1" />
		<tag k="name" v="Gunnvordalselvi" />
		<tag k="ssr:stedsnr" v="289492" />
	</node>
	<node id="-513889" lat="61.3796277752" lon="6.7682833338">
		<tag k="layer" v="-1" />
		<tag k="name" v="Frudal" />
		<tag k="ssr:stedsnr" v="287575" />
		<tag k="tunnel" v="yes" />
	</node>
	<node id="-515088" lat="61.3285500017" lon="6.96018056424">
		<tag k="bridge" v="yes" />
		<tag k="layer" v="1" />
		<tag k="name" v="Torstadhagen" />
		<tag k="ssr:stedsnr" v="531467" />
	</node>
	<node id="-515033" lat="61.4905583365" lon="6.70111111442">
		<tag k="layer" v="-1" />
		<tag k="name" v="Fjærlandstunnelen" />
		<tag k="ssr:stedsnr" v="513196" />
		<tag k="tunnel" v="yes" />
	</node>
	<node id="-515984" lat="61.1936444442" lon="7.22149722726">
		<tag k="bridge" v="yes" />
		<tag k="layer" v="1" />
		<tag k="name" v="Vekti" />
		<tag k="ssr:stedsnr" v="956482" />
	</node>
	<node id="-515030" lat="61.3236305531" lon="6.96444999554">
		<tag k="bridge" v="yes" />
		<tag k="layer" v="1" />
		<tag k="name" v="Gunvordalsbrui" />
		<tag k="ssr:stedsnr" v="506504" />
	</node>
	<node id="-515029" lat="61.3956694408" lon="6.76369166597">
		<tag k="layer" v="-1" />
		<tag k="name" v="Bergstunnelen" />
		<tag k="ssr:stedsnr" v="506454" />
		<tag k="tunnel" v="yes" />
	</node>
	<node id="-514642" lat="61.1722294329" lon="6.99790685354">
		<tag k="bridge" v="yes" />
		<tag k="layer" v="1" />
		<tag k="name" v="Ølmheim" />
		<tag k="ssr:stedsnr" v="167483" />
	</node>
	<node id="-514385" lat="61.4174722242" lon="6.76156944078">
		<tag k="bridge" v="yes" />
		<tag k="layer" v="1" />
		<tag k="name" v="Fjærland Undergang" />
		<tag k="ssr:stedsnr" v="46500" />
	</node>
	<node id="-514640" lat="61.3273833313" lon="6.92520832589">
		<tag k="bridge" v="yes" />
		<tag k="layer" v="1" />
		<tag k="name" v="Laugadalen Kulvert" />
		<tag k="ssr:stedsnr" v="167469" />
	</node>
	<node id="-514639" lat="61.4812749985" lon="6.74110554704">
		<tag k="layer" v="-1" />
		<tag k="name" v="Fjærland" />
		<tag k="ssr:stedsnr" v="165420" />
		<tag k="tunnel" v="yes" />
	</node>
	<node id="-514766" lat="61.2326638916" lon="7.04582499397">
		<tag k="bridge" v="yes" />
		<tag k="layer" v="1" />
		<tag k="name" v="Kleiv Kulvert" />
		<tag k="ssr:stedsnr" v="228521" />
	</node>
	<node id="-514765" lat="61.1841111083" lon="7.22608332554">
		<tag k="bridge" v="yes" />
		<tag k="layer" v="1" />
		<tag k="name" v="Kaupanger" />
		<tag k="ssr:stedsnr" v="228520" />
	</node>
	<node id="-514764" lat="61.4229138867" lon="6.75874722856">
		<tag k="bridge" v="yes" />
		<tag k="layer" v="1" />
		<tag k="name" v="Grunska" />
		<tag k="ssr:stedsnr" v="228513" />
	</node>
	<node id="-514117" lat="61.4022281548" lon="6.73947660467">
		<tag k="man_made" v="quay" />
		<tag k="name" v="Torbryggja" />
		<tag k="place" v="locality" />
		<tag k="ssr:stedsnr" v="396535" />
	</node>
	<node id="-515753" lat="61.1915305583" lon="7.02282777657">
		<tag k="bridge" v="yes" />
		<tag k="layer" v="1" />
		<tag k="name" v="Fardal" />
		<tag k="ssr:stedsnr" v="835508" />
	</node>
	<node id="-513976" lat="61.1556499978" lon="7.1357833334">
		<tag k="aeroway" v="aerodrome" />
		<tag k="alt_name" v="Haukåsen" />
		<tag k="name" v="Sogndal lufthamn, Haukåsen" />
		<tag k="old_name" v="Sogndal Lufthamn" />
		<tag k="ssr:stedsnr" v="335509" />
	</node>
	<node id="-515087" lat="61.2381333299" lon="7.03132778262">
		<tag k="bridge" v="yes" />
		<tag k="layer" v="1" />
		<tag k="name" v="Lerheim" />
		<tag k="ssr:stedsnr" v="531462" />
	</node>
	<node id="-515375" lat="61.4149416642" lon="6.76214444298">
		<tag k="layer" v="-1" />
		<tag k="name" v="Holmahaug" />
		<tag k="ssr:stedsnr" v="651523" />
		<tag k="tunnel" v="yes" />
	</node>
	<node id="-515625" lat="61.2293555574" lon="7.08665277429">
		<tag k="bridge" v="yes" />
		<tag k="layer" v="1" />
		<tag k="name" v="Nedrehagen bru" />
		<tag k="ssr:stedsnr" v="774488" />
	</node>
	<node id="-515624" lat="61.3240000008" lon="6.98522500695">
		<tag k="bridge" v="yes" />
		<tag k="layer" v="1" />
		<tag k="name" v="Litlebø" />
		<tag k="ssr:stedsnr" v="774478" />
	</node>
	<node id="-514082" lat="61.1437194454" lon="6.94188055815">
		<tag k="highway" v="path" />
		<tag k="name" v="Galdkleivane" />
		<tag k="ssr:stedsnr" v="373873" />
	</node>
	<node id="-514961" lat="61.3474222224" lon="6.87394443979">
		<tag k="layer" v="-1" />
		<tag k="name" v="Frudal" />
		<tag k="ssr:stedsnr" v="469472" />
		<tag k="tunnel" v="yes" />
	</node>
	<node id="-515230" lat="61.339416669" lon="6.92451389449">
		<tag k="bridge" v="yes" />
		<tag k="layer" v="1" />
		<tag k="name" v="Selseng" />
		<tag k="ssr:stedsnr" v="592475" />
	</node>
	<node id="-515229" lat="61.2297277736" lon="7.09700556021">
		<tag k="bridge" v="yes" />
		<tag k="layer" v="1" />
		<tag k="name" v="Stedje" />
		<tag k="ssr:stedsnr" v="592471" />
	</node>
	<node id="-515992" lat="61.4015646028" lon="6.73938542012">
		<tag k="amenity" v="ferry_terminal" />
		<tag k="name" v="Fjærland ferjekai" />
		<tag k="ssr:stedsnr" v="978656" />
	</node>
	<node id="-515991" lat="61.1828890535" lon="7.25042003885">
		<tag k="amenity" v="ferry_terminal" />
		<tag k="name" v="Kaupanger ferjekai" />
		<tag k="ssr:stedsnr" v="978650" />
	</node>
	<node id="-514326" lat="61.4157138899" lon="6.76203889611">
		<tag k="layer" v="-1" />
		<tag k="name" v="Holmahaugtunnelen" />
		<tag k="ssr:stedsnr" v="21478" />
		<tag k="tunnel" v="yes" />
	</node>
	<node id="-515732" lat="61.2633999958" lon="7.14654444013">
		<tag k="highway" v="path" />
		<tag k="name" v="Lønnestigen" />
		<tag k="ssr:stedsnr" v="822487" />
	</node>
	<node id="-514963" lat="61.2945555538" lon="7.00266945206">
		<tag k="bridge" v="yes" />
		<tag k="layer" v="1" />
		<tag k="name" v="Hodlekve kulvert" />
		<tag k="ssr:stedsnr" v="470453" />
	</node>
	<node id="-515090" lat="61.1778555542" lon="7.18020832591">
		<tag k="bridge" v="yes" />
		<tag k="layer" v="1" />
		<tag k="name" v="Haukåsen" />
		<tag k="ssr:stedsnr" v="531501" />
	</node>
	<node id="-515089" lat="61.2121805557" lon="7.13420833653">
		<tag k="bridge" v="yes" />
		<tag k="layer" v="1" />
		<tag k="name" v="Kjørnes undergang" />
		<tag k="ssr:stedsnr" v="531498" />
	</node>
	<node id="-514960" lat="61.3833250018" lon="6.757555563">
		<tag k="layer" v="-1" />
		<tag k="name" v="Berg" />
		<tag k="ssr:stedsnr" v="469132" />
		<tag k="tunnel" v="yes" />
	</node>
	<node id="-515983" lat="61.1921444406" lon="7.22209166081">
		<tag k="bridge" v="yes" />
		<tag k="layer" v="1" />
		<tag k="name" v="Skogly" />
		<tag k="ssr:stedsnr" v="956471" />
	</node>
	<node id="-515982" lat="61.2772055516" lon="7.00289443953">
		<tag k="bridge" v="yes" />
		<tag k="layer" v="1" />
		<tag k="name" v="Kollsete Kulvert" />
		<tag k="ssr:stedsnr" v="956470" />
	</node>
	<node id="-515592" lat="61.1603013338" lon="7.33685909629">
		<tag k="amenity" v="ferry_terminal" />
		<tag k="name" v="Mannheller ferjekai" />
		<tag k="ssr:stedsnr" v="760846" />
	</node>
	<node id="-515832" lat="61.1618583345" lon="7.33777499691">
		<tag k="layer" v="-1" />
		<tag k="name" v="Amlatunnelen" />
		<tag k="ssr:stedsnr" v="870500" />
		<tag k="tunnel" v="yes" />
	</node>
	<node id="-514027" lat="61.2309166684" lon="7.12253889808">
		<tag k="bridge" v="yes" />
		<tag k="layer" v="1" />
		<tag k="name" v="Loftesnes" />
		<tag k="ssr:stedsnr" v="349495" />
	</node>
</osm>
