<?xml version="1.0" encoding="UTF-8"?>
<osm generator="osmapis" version="0.6">
	<node id="-514048" lat="61.3398111105" lon="6.91636389646">
		<tag k="name" v="Kolda" />
		<tag k="ssr:stedsnr" v="250196" />
		<tag k="waterway" v="stream" />
	</node>
	<node id="-514047" lat="61.2585527797" lon="6.95477222773">
		<tag k="name" v="Bollesteinsvatnet" />
		<tag k="natural" v="water" />
		<tag k="ssr:stedsnr" v="250160" />
	</node>
	<node id="-514046" lat="61.2666611069" lon="6.96055000063">
		<tag k="name" v="Nipevatnet" />
		<tag k="natural" v="water" />
		<tag k="ssr:stedsnr" v="250158" />
	</node>
	<node id="-513533" lat="61.4344694402" lon="6.83308889243">
		<tag k="name" v="Småfessene" />
		<tag k="ssr:stedsnr" v="7922" />
		<tag k="waterway" v="stream" />
	</node>
	<node id="-514044" lat="61.2799250043" lon="6.94559999246">
		<tag k="name" v="Skavassgrovi" />
		<tag k="ssr:stedsnr" v="250138" />
		<tag k="waterway" v="stream" />
	</node>
	<node id="-513194" lat="61.4603527741" lon="6.67791110281">
		<tag k="name" v="Tverrdalsvatnet" />
		<tag k="natural" v="water" />
		<tag k="ssr:stedsnr" v="311867" />
	</node>
	<node id="-515065" lat="61.3466416655" lon="6.64927499199">
		<tag k="name" v="Tverrelvi" />
		<tag k="ssr:stedsnr" v="858539" />
		<tag k="waterway" v="stream" />
	</node>
	<node id="-514217" lat="61.2180085709" lon="7.29807910066">
		<tag k="name" v="Trehovevatnet" />
		<tag k="natural" v="water" />
		<tag k="ssr:stedsnr" v="458089" />
		<tag k="water" v="lake" />
	</node>
	<node id="-515060" lat="61.3640055517" lon="6.71089999123">
		<tag k="name" v="Lammadrepa" />
		<tag k="ssr:stedsnr" v="857994" />
		<tag k="waterway" v="stream" />
	</node>
	<node id="-515077" lat="61.1742388929" lon="7.09292500862">
		<tag k="alt_name" v="Plassavatni" />
		<tag k="name" v="Plassavotni" />
		<tag k="natural" v="water" />
		<tag k="ssr:stedsnr" v="859047" />
	</node>
	<node id="-515056" lat="61.4267250024" lon="6.76465834097">
		<tag k="name" v="Storelvi" />
		<tag k="ssr:stedsnr" v="857927" />
		<tag k="waterway" v="river" />
	</node>
	<node id="-513789" lat="61.4110972218" lon="6.67165278711">
		<tag k="name" v="Leirgrøvene" />
		<tag k="ssr:stedsnr" v="94988" />
		<tag k="waterway" v="stream" />
	</node>
	<node id="-514028" lat="61.2807999967" lon="7.16798055614">
		<tag k="name" v="St. Olavskjelda" />
		<tag k="natural" v="spring" />
		<tag k="ssr:stedsnr" v="215547" />
	</node>
	<node id="-515051" lat="61.424447222" lon="6.80298333992">
		<tag k="name" v="Horpedalselvi" />
		<tag k="ssr:stedsnr" v="857883" />
		<tag k="waterway" v="river" />
	</node>
	<node id="-514215" lat="61.3538666673" lon="6.90502221493">
		<tag k="name" v="Ekra" />
		<tag k="natural" v="bay" />
		<tag k="ssr:stedsnr" v="457937" />
	</node>
	<node id="-514024" lat="61.223772219" lon="7.25043888345">
		<tag k="name" v="Titl-tatl" />
		<tag k="ssr:stedsnr" v="215069" />
		<tag k="waterway" v="stream" />
	</node>
	<node id="-514535" lat="61.3086222195" lon="7.05882778585">
		<tag k="name" v="Nosfossen" />
		<tag k="natural" v="waterfall" />
		<tag k="ssr:stedsnr" v="614429" />
	</node>
	<node id="-515045" lat="61.3140055594" lon="6.99466666037">
		<tag k="name" v="Sumnes" />
		<tag k="natural" v="cape" />
		<tag k="ssr:stedsnr" v="857427" />
	</node>
	<node id="-514528" lat="61.2605388891" lon="7.24867778621">
		<tag k="name" v="Prestavatnet" />
		<tag k="natural" v="water" />
		<tag k="ssr:stedsnr" v="614343" />
	</node>
	<node id="-514015" lat="61.3618611133" lon="6.90389167248">
		<tag k="name" v="Tryteneset" />
		<tag k="natural" v="cape" />
		<tag k="ssr:stedsnr" v="214899" />
	</node>
	<node id="-515038" lat="61.2929500003" lon="6.95122778621">
		<tag k="name" v="Kambagrovi" />
		<tag k="ssr:stedsnr" v="857277" />
		<tag k="waterway" v="stream" />
	</node>
	<node id="-514525" lat="61.275302775" lon="7.06502777996">
		<tag k="name" v="Halsavatnet" />
		<tag k="natural" v="water" />
		<tag k="ssr:stedsnr" v="614321" />
		<tag k="water" v="lake" />
	</node>
	<node id="-513137" lat="61.2740499966" lon="7.01642499775">
		<tag k="name" v="Hagagrovi" />
		<tag k="ssr:stedsnr" v="275887" />
		<tag k="waterway" v="stream" />
	</node>
	<node id="-515033" lat="61.2695138909" lon="6.95383611771">
		<tag k="name" v="Fagreggjevatnet" />
		<tag k="natural" v="water" />
		<tag k="ssr:stedsnr" v="857166" />
	</node>
	<node id="-514520" lat="61.3065305517" lon="6.92001110244">
		<tag k="name" v="Kviletjørni" />
		<tag k="natural" v="water" />
		<tag k="ssr:stedsnr" v="614246" />
	</node>
	<node id="-514297" lat="61.1312694411" lon="7.00347778464">
		<tag k="name" v="Krågrovi" />
		<tag k="ssr:stedsnr" v="495474" />
		<tag k="waterway" v="stream" />
	</node>
	<node id="-513491" lat="61.1900138888" lon="7.28871389586">
		<tag k="name" v="Fosselvi" />
		<tag k="ssr:stedsnr" v="883625" />
		<tag k="waterway" v="stream" />
	</node>
	<node id="-514001" lat="61.214250002" lon="7.19933056074">
		<tag k="name" v="Stølsgrovi" />
		<tag k="ssr:stedsnr" v="214545" />
		<tag k="waterway" v="stream" />
	</node>
	<node id="-515023" lat="61.4109861151" lon="6.68419445048">
		<tag k="name" v="Stølsøyane" />
		<tag k="place" v="island" />
		<tag k="ssr:stedsnr" v="822982" />
	</node>
	<node id="-515020" lat="61.4004111116" lon="6.70006110569">
		<tag k="name" v="Rindeskreda" />
		<tag k="ssr:stedsnr" v="822918" />
		<tag k="waterway" v="stream" />
	</node>
	<node id="-515012" lat="61.432338891" lon="6.73184443887">
		<tag k="name" v="Tverrgrovi" />
		<tag k="ssr:stedsnr" v="822562" />
		<tag k="waterway" v="stream" />
	</node>
	<node id="-513270" lat="61.4867055571" lon="6.86490556434">
		<tag k="name" v="Storfossen" />
		<tag k="natural" v="waterfall" />
		<tag k="ssr:stedsnr" v="336373" />
	</node>
	<node id="-513474" lat="61.4780666652" lon="6.74694722405">
		<tag k="name" v="Hestaplan" />
		<tag k="natural" v="cape" />
		<tag k="ssr:stedsnr" v="882796" />
	</node>
	<node id="-515009" lat="61.2508654292" lon="7.2206608671">
		<tag k="name" v="Vesle Fagerlivatnet" />
		<tag k="natural" v="water" />
		<tag k="ssr:stedsnr" v="822510" />
		<tag k="water" v="lake" />
	</node>
	<node id="-515232" lat="61.2139973888" lon="7.30786790541">
		<tag k="name" v="Hestevatnet" />
		<tag k="natural" v="water" />
		<tag k="ssr:stedsnr" v="943126" />
		<tag k="water" v="lake" />
	</node>
	<node id="-513982" lat="61.2336249966" lon="7.28873888511">
		<tag k="name" v="Stølsvatnet" />
		<tag k="natural" v="water" />
		<tag k="ssr:stedsnr" v="192138" />
	</node>
	<node id="-515005" lat="61.2648500017" lon="7.16150833121">
		<tag k="name" v="Hopen" />
		<tag k="natural" v="strait" />
		<tag k="ssr:stedsnr" v="822484" />
	</node>
	<node id="-513467" lat="61.1456638868" lon="6.98709721723">
		<tag k="name" v="Duegrovi" />
		<tag k="ssr:stedsnr" v="882540" />
		<tag k="waterway" v="stream" />
	</node>
	<node id="-515002" lat="61.22056667" lon="7.21947499126">
		<tag k="name" v="Berentskjelda" />
		<tag k="natural" v="spring" />
		<tag k="ssr:stedsnr" v="822094" />
	</node>
	<node id="-513977" lat="61.2205194405" lon="7.30554165786">
		<tag k="name" v="Nordredemma" />
		<tag k="natural" v="water" />
		<tag k="ssr:stedsnr" v="192094" />
	</node>
	<node id="-513976" lat="61.2298916675" lon="7.16858333198">
		<tag k="name" v="Fagerlivatnet" />
		<tag k="natural" v="water" />
		<tag k="ssr:stedsnr" v="192078" />
	</node>
	<node id="-514548" lat="61.4384555528" lon="6.85914443664">
		<tag k="name" v="Nedra Fessadalsvatnet" />
		<tag k="natural" v="water" />
		<tag k="ssr:stedsnr" v="614924" />
	</node>
	<node id="-513462" lat="61.2126666663" lon="7.18894721508">
		<tag k="name" v="Hjellabøgrovi" />
		<tag k="ssr:stedsnr" v="882489" />
		<tag k="waterway" v="stream" />
	</node>
	<node id="-514829" lat="61.1498916702" lon="7.0252694404">
		<tag k="name" v="Kalvavatnet" />
		<tag k="natural" v="water" />
		<tag k="ssr:stedsnr" v="738030" />
	</node>
	<node id="-514994" lat="61.363705556" lon="6.90456111302">
		<tag k="name" v="Vellene" />
		<tag k="natural" v="cape" />
		<tag k="ssr:stedsnr" v="821889" />
	</node>
	<node id="-513988" lat="61.1493722236" lon="7.07441388002">
		<tag k="name" v="Flatagrovi" />
		<tag k="ssr:stedsnr" v="192518" />
		<tag k="waterway" v="stream" />
	</node>
	<node id="-514992" lat="61.2847638848" lon="6.70346943625">
		<tag k="name" v="Romfossen" />
		<tag k="natural" v="waterfall" />
		<tag k="ssr:stedsnr" v="821802" />
	</node>
	<node id="-514479" lat="61.11997131" lon="6.98179982966">
		<tag k="name" v="Gagersnesvatnet" />
		<tag k="natural" v="water" />
		<tag k="ssr:stedsnr" v="578803" />
		<tag k="water" v="lake" />
	</node>
	<node id="-514477" lat="61.4493888878" lon="6.71391667153">
		<tag k="name" v="Resagrovi" />
		<tag k="ssr:stedsnr" v="578793" />
		<tag k="waterway" v="stream" />
	</node>
	<node id="-513964" lat="61.2025833352" lon="6.94987778468">
		<tag k="name" v="Skriksvatnet" />
		<tag k="natural" v="water" />
		<tag k="ssr:stedsnr" v="191867" />
	</node>
	<node id="-513958" lat="61.1801083361" lon="7.35896389753">
		<tag k="alt_name" v="Kyndilstjørn" />
		<tag k="name" v="Kyndilstjørni" />
		<tag k="natural" v="water" />
		<tag k="ssr:stedsnr" v="191346" />
	</node>
	<node id="-513444" lat="61.323161108" lon="6.91412499897">
		<tag k="name" v="Langøyna" />
		<tag k="place" v="island" />
		<tag k="ssr:stedsnr" v="882085" />
	</node>
	<node id="-514152" lat="61.2084972239" lon="6.91490278415">
		<tag k="alt_name" v="Havrevatnet" />
		<tag k="name" v="Havravotni" />
		<tag k="natural" v="water" />
		<tag k="ssr:stedsnr" v="434982" />
	</node>
	<node id="-514977" lat="61.2247166682" lon="7.20324721503">
		<tag k="name" v="Svartadalsgrovi" />
		<tag k="ssr:stedsnr" v="821548" />
		<tag k="waterway" v="stream" />
	</node>
	<node id="-513948" lat="61.4494583321" lon="6.85193610303">
		<tag k="name" v="Ryssenipvatnet" />
		<tag k="natural" v="water" />
		<tag k="ssr:stedsnr" v="190921" />
	</node>
	<node id="-514584" lat="61.1391249977" lon="6.95334443856">
		<tag k="alt_name" v="Skatjørn" />
		<tag k="name" v="Skadtjørni" />
		<tag k="natural" v="water" />
		<tag k="ssr:stedsnr" v="616889" />
	</node>
	<node id="-514969" lat="61.3288916681" lon="6.94816110715">
		<tag k="name" v="Jakobsviki" />
		<tag k="natural" v="bay" />
		<tag k="ssr:stedsnr" v="821175" />
	</node>
	<node id="-514968" lat="61.3312722221" lon="6.93547222739">
		<tag k="name" v="Holeneset" />
		<tag k="natural" v="cape" />
		<tag k="ssr:stedsnr" v="821075" />
	</node>
	<node id="-513943" lat="61.4184750039" lon="6.7814166647">
		<tag k="name" v="Storskreda" />
		<tag k="ssr:stedsnr" v="190896" />
		<tag k="waterway" v="stream" />
	</node>
	<node id="-513632" lat="61.4265535853" lon="6.80892818457">
		<tag k="name" v="Dalavatnet" />
		<tag k="natural" v="water" />
		<tag k="ssr:stedsnr" v="32851" />
		<tag k="water" v="lake" />
	</node>
	<node id="-513429" lat="61.1995944445" lon="7.29812778382">
		<tag k="name" v="Søredemma-elvi" />
		<tag k="ssr:stedsnr" v="397596" />
		<tag k="waterway" v="stream" />
	</node>
	<node id="-514964" lat="61.3629749995" lon="6.72291945255">
		<tag k="name" v="Distadelvi" />
		<tag k="ssr:stedsnr" v="810736" />
		<tag k="waterway" v="river" />
	</node>
	<node id="-514449" lat="61.2886555515" lon="6.9864666596">
		<tag k="name" v="Reipefossen" />
		<tag k="natural" v="waterfall" />
		<tag k="ssr:stedsnr" v="578309" />
	</node>
	<node id="-513422" lat="61.2206240166" lon="7.2966636901">
		<tag k="name" v="Fagerlivatn" />
		<tag k="natural" v="water" />
		<tag k="ssr:stedsnr" v="397093" />
		<tag k="water" v="lake" />
	</node>
	<node id="-514956" lat="61.2271305581" lon="7.27782222682">
		<tag k="name" v="Klypevatnet" />
		<tag k="natural" v="water" />
		<tag k="ssr:stedsnr" v="799060" />
	</node>
	<node id="-514954" lat="61.2245925174" lon="7.2907948209">
		<tag k="fixme" v="multiple name tags, choose one and add the other to alt_name" />
		<tag k="name" v="Storavatnet;Store Vatnasetevatn" />
		<tag k="natural" v="water" />
		<tag k="ssr:stedsnr" v="799052" />
		<tag k="water" v="lake" />
	</node>
	<node id="-514951" lat="61.163899996" lon="7.16350556051">
		<tag k="alt_name" v="Ytste Rudselvi" />
		<tag k="name" v="Ytstrudsbekken" />
		<tag k="ssr:stedsnr" v="799018" />
		<tag k="waterway" v="stream" />
	</node>
	<node id="-513924" lat="61.431186109" lon="6.70348333581">
		<tag k="name" v="Botnavatnet" />
		<tag k="natural" v="water" />
		<tag k="ssr:stedsnr" v="189909" />
	</node>
	<node id="-513174" lat="61.2837916691" lon="7.07340556355">
		<tag k="name" v="Holmavatnet" />
		<tag k="natural" v="water" />
		<tag k="ssr:stedsnr" v="310344" />
	</node>
	<node id="-513408" lat="61.4402388921" lon="6.80048056458">
		<tag k="name" v="Kvannskreda" />
		<tag k="ssr:stedsnr" v="396812" />
		<tag k="waterway" v="stream" />
	</node>
	<node id="-513625" lat="61.2817388848" lon="6.69611667546">
		<tag k="name" v="Saueriselvi" />
		<tag k="ssr:stedsnr" v="32727" />
		<tag k="waterway" v="river" />
	</node>
	<node id="-514425" lat="61.1521638901" lon="7.05753610302">
		<tag k="alt_name" v="Gjelvatnet" />
		<tag k="name" v="Gilsvatnet" />
		<tag k="natural" v="water" />
		<tag k="ssr:stedsnr" v="556026" />
	</node>
	<node id="-514452" lat="61.2869305584" lon="6.96520832605">
		<tag k="name" v="Stedjekamfossen" />
		<tag k="natural" v="waterfall" />
		<tag k="ssr:stedsnr" v="578354" />
	</node>
	<node id="-514422" lat="61.1339666672" lon="6.9448388972">
		<tag k="alt_name" v="Annfinndøla" />
		<tag k="name" v="Arnfinndøla" />
		<tag k="ssr:stedsnr" v="555745" />
		<tag k="waterway" v="stream" />
	</node>
	<node id="-513850" lat="61.1313500025" lon="6.96954166939">
		<tag k="name" v="Lomstjørni, nordre" />
		<tag k="natural" v="water" />
		<tag k="ssr:stedsnr" v="131461" />
	</node>
	<node id="-513908" lat="61.4084805527" lon="6.71494443993">
		<tag k="name" v="Skaskredgrovi" />
		<tag k="ssr:stedsnr" v="154963" />
		<tag k="waterway" v="stream" />
	</node>
	<node id="-514419" lat="61.2432138882" lon="6.94989721374">
		<tag k="alt_name" v="Vetlavatnet" />
		<tag k="name" v="Veslavatnet" />
		<tag k="natural" v="water" />
		<tag k="ssr:stedsnr" v="555490" />
	</node>
	<node id="-513906" lat="61.4006805577" lon="6.69239444966">
		<tag k="name" v="Kolgrovi" />
		<tag k="ssr:stedsnr" v="154913" />
		<tag k="waterway" v="stream" />
	</node>
	<node id="-514929" lat="61.450472218" lon="6.81253888982">
		<tag k="name" v="Daurmåla" />
		<tag k="ssr:stedsnr" v="797897" />
		<tag k="waterway" v="stream" />
	</node>
	<node id="-514280" lat="61.1763222203" lon="6.91453611955">
		<tag k="name" v="Lomstjørni" />
		<tag k="natural" v="water" />
		<tag k="ssr:stedsnr" v="494914" />
	</node>
	<node id="-514413" lat="61.1874388875" lon="7.08838889768">
		<tag k="name" v="Plassagrovi" />
		<tag k="ssr:stedsnr" v="555043" />
		<tag k="waterway" v="stream" />
	</node>
	<node id="-513386" lat="61.260991663" lon="7.13239165904">
		<tag k="name" v="Englandselvi" />
		<tag k="ssr:stedsnr" v="396480" />
		<tag k="waterway" v="stream" />
	</node>
	<node id="-513383" lat="61.2537833288" lon="6.95668610327">
		<tag k="name" v="Tøldetjørni" />
		<tag k="natural" v="water" />
		<tag k="ssr:stedsnr" v="396375" />
	</node>
	<node id="-513894" lat="61.2658000027" lon="7.16716944361">
		<tag k="name" v="Brandskjerøyri" />
		<tag k="natural" v="cape" />
		<tag k="ssr:stedsnr" v="154527" />
	</node>
	<node id="-514917" lat="61.3349972262" lon="6.83488333323">
		<tag k="name" v="Tungelvi" />
		<tag k="ssr:stedsnr" v="797194" />
		<tag k="waterway" v="stream" />
	</node>
	<node id="-514404" lat="61.2968944445" lon="6.63740833274">
		<tag k="name" v="Svalåna" />
		<tag k="ssr:stedsnr" v="554255" />
		<tag k="waterway" v="stream" />
	</node>
	<node id="-513891" lat="61.2557222194" lon="7.1811611097">
		<tag k="name" v="Sauragrovi" />
		<tag k="ssr:stedsnr" v="154492" />
		<tag k="waterway" v="stream" />
	</node>
	<node id="-514402" lat="61.3214083332" lon="6.86947222032">
		<tag k="name" v="Nystøltjørni" />
		<tag k="natural" v="water" />
		<tag k="ssr:stedsnr" v="554224" />
	</node>
	<node id="-514913" lat="61.3900277762" lon="6.63187500022">
		<tag k="name" v="Jordalsvatnet" />
		<tag k="natural" v="water" />
		<tag k="ssr:stedsnr" v="796918" />
	</node>
	<node id="-514399" lat="61.3792722235" lon="6.72054723069">
		<tag k="name" v="Merkeskreda" />
		<tag k="ssr:stedsnr" v="553968" />
		<tag k="waterway" v="stream" />
	</node>
	<node id="-513885" lat="61.3631249981" lon="6.90856389759">
		<tag k="name" v="Løkene" />
		<tag k="ssr:stedsnr" v="153910" />
		<tag k="waterway" v="river" />
	</node>
	<node id="-514396" lat="61.3462249998" lon="6.88169723081">
		<tag k="name" v="Frudalselvi" />
		<tag k="ssr:stedsnr" v="553952" />
		<tag k="waterway" v="river" />
	</node>
	<node id="-514395" lat="61.3484916695" lon="6.91434721627">
		<tag k="name" v="Blåhølen" />
		<tag k="place" v="locality" />
		<tag k="ssr:stedsnr" v="553949" />
	</node>
	<node id="-514905" lat="61.2867972226" lon="6.95646110705">
		<tag k="name" v="Reipa" />
		<tag k="ssr:stedsnr" v="796116" />
		<tag k="waterway" v="river" />
	</node>
	<node id="-514391" lat="61.4030750043" lon="6.93556666385">
		<tag k="name" v="Stora Tverrdalsvatnet" />
		<tag k="natural" v="water" />
		<tag k="ssr:stedsnr" v="553914" />
	</node>
	<node id="-514390" lat="61.4027500008" lon="6.72426944884">
		<tag k="name" v="Mundalselvi" />
		<tag k="ssr:stedsnr" v="553894" />
		<tag k="waterway" v="river" />
	</node>
	<node id="-513086" lat="61.3016194423" lon="7.00375833879">
		<tag k="name" v="Purlesete" />
		<tag k="natural" v="bay" />
		<tag k="ssr:stedsnr" v="275173" />
	</node>
	<node id="-513363" lat="61.2267694431" lon="7.24699722447">
		<tag k="name" v="Lomstjørni" />
		<tag k="natural" v="water" />
		<tag k="ssr:stedsnr" v="374073" />
	</node>
	<node id="-514386" lat="61.4800222185" lon="6.72942499324">
		<tag k="name" v="Oksafossen" />
		<tag k="natural" v="waterfall" />
		<tag k="ssr:stedsnr" v="553826" />
	</node>
	<node id="-514897" lat="61.4078861128" lon="6.67731945171">
		<tag k="name" v="Holtagrovi" />
		<tag k="ssr:stedsnr" v="761978" />
		<tag k="waterway" v="stream" />
	</node>
	<node id="-513360" lat="61.1591722183" lon="7.01491111848">
		<tag k="alt_name" v="Tallberggrovi;Hølagrovi" />
		<tag k="name" v="Hølelvi" />
		<tag k="ssr:stedsnr" v="374021" />
		<tag k="waterway" v="stream" />
	</node>
	<node id="-513359" lat="61.1764527802" lon="6.94653610281">
		<tag k="name" v="Krokelvi" />
		<tag k="ssr:stedsnr" v="373922" />
		<tag k="waterway" v="stream" />
	</node>
	<node id="-513358" lat="61.1647416687" lon="6.95241111723">
		<tag k="name" v="Gautefossen" />
		<tag k="natural" v="waterfall" />
		<tag k="ssr:stedsnr" v="373914" />
	</node>
	<node id="-513677" lat="61.4234611105" lon="6.74163889587">
		<tag k="name" v="Høyskreda" />
		<tag k="ssr:stedsnr" v="68921" />
		<tag k="waterway" v="stream" />
	</node>
	<node id="-514379" lat="61.2806861138" lon="7.11819166539">
		<tag k="name" v="Kyrauga" />
		<tag k="place" v="locality" />
		<tag k="ssr:stedsnr" v="553307" />
	</node>
	<node id="-513349" lat="61.3709166688" lon="6.90854722039">
		<tag k="name" v="Sauagrøvene" />
		<tag k="ssr:stedsnr" v="372988" />
		<tag k="waterway" v="stream" />
	</node>
	<node id="-513524" lat="61.285711112" lon="6.93350276886">
		<tag k="alt_name" v="Kupeelvi" />
		<tag k="name" v="Kupelvi" />
		<tag k="ssr:stedsnr" v="7139" />
		<tag k="waterway" v="stream" />
	</node>
	<node id="-513345" lat="61.4548361152" lon="6.68836110912">
		<tag k="name" v="Tverrgrovi" />
		<tag k="ssr:stedsnr" v="372849" />
		<tag k="waterway" v="stream" />
	</node>
	<node id="-513856" lat="61.3328861073" lon="6.93189167439">
		<tag k="name" v="Søylene" />
		<tag k="natural" v="bay" />
		<tag k="ssr:stedsnr" v="153082" />
	</node>
	<node id="-514877" lat="61.2974944436" lon="6.65302222649">
		<tag k="name" v="Inste Svalåna" />
		<tag k="ssr:stedsnr" v="760979" />
		<tag k="waterway" v="stream" />
	</node>
	<node id="-513340" lat="61.3293583366" lon="6.9885638894">
		<tag k="name" v="Svedalselvi" />
		<tag k="ssr:stedsnr" v="372511" />
		<tag k="waterway" v="stream" />
	</node>
	<node id="-513930" lat="61.315961112" lon="6.96283888856">
		<tag k="name" v="Sandsteigelvi" />
		<tag k="ssr:stedsnr" v="190223" />
		<tag k="waterway" v="stream" />
	</node>
	<node id="-514874" lat="61.350102774" lon="6.90979721328">
		<tag k="name" v="Løken" />
		<tag k="natural" v="cape" />
		<tag k="ssr:stedsnr" v="760929" />
	</node>
	<node id="-513337" lat="61.2576138845" lon="7.24261389067">
		<tag k="name" v="Langedalsvatnet" />
		<tag k="natural" v="water" />
		<tag k="ssr:stedsnr" v="372297" />
	</node>
	<node id="-513336" lat="61.3133888923" lon="6.95644999167">
		<tag k="name" v="Larsgrovi" />
		<tag k="ssr:stedsnr" v="372236" />
		<tag k="waterway" v="stream" />
	</node>
	<node id="-514359" lat="61.4478194431" lon="6.72993055493">
		<tag k="name" v="Tverrdalsfossen" />
		<tag k="natural" v="waterfall" />
		<tag k="ssr:stedsnr" v="519835" />
	</node>
	<node id="-514581" lat="61.2250777761" lon="7.03273889043">
		<tag k="alt_name" v="Skaggagrovi" />
		<tag k="name" v="Slakkagrovi" />
		<tag k="ssr:stedsnr" v="616114" />
		<tag k="waterway" v="stream" />
	</node>
	<node id="-513333" lat="61.309052775" lon="6.69865277448">
		<tag k="alt_name" v="Algøya" />
		<tag k="name" v="Allgøya" />
		<tag k="ssr:stedsnr" v="372225" />
		<tag k="waterway" v="stream" />
	</node>
	<node id="-513844" lat="61.2167083367" lon="7.27964167066">
		<tag k="name" v="Grønamyrvatnet" />
		<tag k="natural" v="water" />
		<tag k="ssr:stedsnr" v="131081" />
	</node>
	<node id="-514865" lat="61.4446361151" lon="6.77516665931">
		<tag k="name" v="Sæbøskredene" />
		<tag k="ssr:stedsnr" v="760810" />
		<tag k="waterway" v="stream" />
	</node>
	<node id="-514641" lat="61.2302906452" lon="7.28278247533">
		<tag k="name" v="Vetlevatnet" />
		<tag k="natural" v="water" />
		<tag k="ssr:stedsnr" v="639735" />
		<tag k="water" v="lake" />
	</node>
	<node id="-514863" lat="61.2811527817" lon="6.68327499537">
		<tag k="name" v="Uragota" />
		<tag k="ssr:stedsnr" v="760747" />
		<tag k="waterway" v="stream" />
	</node>
	<node id="-513326" lat="61.4323888858" lon="6.74211667099">
		<tag k="name" v="Botna" />
		<tag k="ssr:stedsnr" v="371925" />
		<tag k="waterway" v="stream" />
	</node>
	<node id="-513837" lat="61.2069305538" lon="6.96421111963">
		<tag k="name" v="Kinnsgrovi" />
		<tag k="ssr:stedsnr" v="130973" />
		<tag k="waterway" v="stream" />
	</node>
	<node id="-514348" lat="61.2819166697" lon="6.69253889331">
		<tag k="name" v="Sauerisfossen" />
		<tag k="natural" v="waterfall" />
		<tag k="ssr:stedsnr" v="518748" />
	</node>
	<node id="-513835" lat="61.1971222216" lon="6.93031944136">
		<tag k="name" v="Kalvavatnet" />
		<tag k="natural" v="water" />
		<tag k="ssr:stedsnr" v="130858" />
	</node>
	<node id="-513927" lat="61.3216111155" lon="6.7494777761">
		<tag k="name" v="Kvanndøla" />
		<tag k="ssr:stedsnr" v="190209" />
		<tag k="waterway" v="stream" />
	</node>
	<node id="-513130" lat="61.4750249989" lon="6.73988056293">
		<tag k="name" v="Koppagrovi" />
		<tag k="ssr:stedsnr" v="275839" />
		<tag k="waterway" v="stream" />
	</node>
	<node id="-513829" lat="61.3544444461" lon="6.87027500838">
		<tag k="name" v="Tverrelvi" />
		<tag k="ssr:stedsnr" v="129943" />
		<tag k="waterway" v="stream" />
	</node>
	<node id="-513316" lat="61.2837611094" lon="7.16439999503">
		<tag k="alt_name" v="Årøyelvi" />
		<tag k="name" v="Arøyelvi" />
		<tag k="ssr:stedsnr" v="371328" />
		<tag k="waterway" v="river" />
	</node>
	<node id="-515215" lat="61.4170055564" lon="6.83077500634">
		<tag k="name" v="Steindalselvi" />
		<tag k="ssr:stedsnr" v="942767" />
		<tag k="waterway" v="river" />
	</node>
	<node id="-514848" lat="61.4542250012" lon="6.7977583242">
		<tag k="name" v="Vasstaket" />
		<tag k="place" v="locality" />
		<tag k="ssr:stedsnr" v="760341" />
	</node>
	<node id="-513311" lat="61.2736555516" lon="6.95636388857">
		<tag k="name" v="Kollsetevatnet" />
		<tag k="natural" v="water" />
		<tag k="ssr:stedsnr" v="371154" />
	</node>
	<node id="-513820" lat="61.3920555527" lon="6.90316665897">
		<tag k="name" v="Tverrdalsvotni" />
		<tag k="natural" v="water" />
		<tag k="ssr:stedsnr" v="129971" />
	</node>
	<node id="-514843" lat="61.3108555568" lon="6.998530547">
		<tag k="name" v="Nerestadnes" />
		<tag k="natural" v="cape" />
		<tag k="ssr:stedsnr" v="760197" />
	</node>
	<node id="-513839" lat="61.1707472233" lon="7.18653610997">
		<tag k="alt_name" v="Inste Rudselvi" />
		<tag k="name" v="Instrudsbekken" />
		<tag k="ssr:stedsnr" v="131018" />
		<tag k="waterway" v="stream" />
	</node>
	<node id="-513815" lat="61.3791750001" lon="6.90898888059">
		<tag k="name" v="Tverrdalselvi" />
		<tag k="ssr:stedsnr" v="129506" />
		<tag k="waterway" v="river" />
	</node>
	<node id="-513814" lat="61.2548361084" lon="6.97876666756">
		<tag k="name" v="Slumpa" />
		<tag k="ssr:stedsnr" v="129352" />
		<tag k="waterway" v="stream" />
	</node>
	<node id="-514009" lat="61.3532499985" lon="6.87089444314">
		<tag k="name" v="Frudalsfossen" />
		<tag k="natural" v="waterfall" />
		<tag k="ssr:stedsnr" v="214806" />
	</node>
	<node id="-513299" lat="61.4447555546" lon="6.69526110947">
		<tag k="name" v="Farleggrøvene" />
		<tag k="ssr:stedsnr" v="337076" />
		<tag k="waterway" v="stream" />
	</node>
	<node id="-513297" lat="61.3270361117" lon="6.73009444297">
		<tag k="name" v="Tunga" />
		<tag k="natural" v="cape" />
		<tag k="ssr:stedsnr" v="336952" />
	</node>
	<node id="-514832" lat="61.2220000001" lon="7.13179166851">
		<tag k="name" v="Hagagrovi" />
		<tag k="ssr:stedsnr" v="738078" />
		<tag k="waterway" v="stream" />
	</node>
	<node id="-513496" lat="61.4164972256" lon="6.76936944712">
		<tag k="name" v="Stølafossen" />
		<tag k="natural" v="waterfall" />
		<tag k="ssr:stedsnr" v="883967" />
	</node>
	<node id="-513806" lat="61.2566694451" lon="6.94898333956">
		<tag k="name" v="Jardbruvotni" />
		<tag k="natural" v="water" />
		<tag k="ssr:stedsnr" v="129178" />
	</node>
	<node id="-514349" lat="61.4736499998" lon="6.84347777601">
		<tag k="name" v="Storegranden" />
		<tag k="natural" v="cape" />
		<tag k="ssr:stedsnr" v="518786" />
	</node>
	<node id="-513803" lat="61.3397472232" lon="6.83253611781">
		<tag k="name" v="Botnaelvi" />
		<tag k="ssr:stedsnr" v="129206" />
		<tag k="waterway" v="stream" />
	</node>
	<node id="-513290" lat="61.4704138858" lon="6.72707777046">
		<tag k="name" v="Lambagrovi" />
		<tag k="ssr:stedsnr" v="336852" />
		<tag k="waterway" v="stream" />
	</node>
	<node id="-513800" lat="61.4336861073" lon="6.63398333019">
		<tag k="name" v="Fessene" />
		<tag k="ssr:stedsnr" v="128914" />
		<tag k="waterway" v="stream" />
	</node>
	<node id="-513836" lat="61.1891250039" lon="6.93240833882">
		<tag k="name" v="Honnsetevatnet" />
		<tag k="natural" v="water" />
		<tag k="ssr:stedsnr" v="130921" />
	</node>
	<node id="-513797" lat="61.2873972227" lon="7.05982221373">
		<tag k="name" v="Hundsvatnet" />
		<tag k="natural" v="water" />
		<tag k="ssr:stedsnr" v="128306" />
	</node>
	<node id="-514308" lat="61.3278916691" lon="6.95298888179">
		<tag k="alt_name" v="Kjørkjevikane" />
		<tag k="name" v="Kyrkjevikane" />
		<tag k="natural" v="bay" />
		<tag k="ssr:stedsnr" v="517177" />
	</node>
	<node id="-514819" lat="61.353005557" lon="6.80247777736">
		<tag k="name" v="Storavatnet" />
		<tag k="natural" v="water" />
		<tag k="ssr:stedsnr" v="736940" />
	</node>
	<node id="-513631" lat="61.4712916711" lon="6.83353055892">
		<tag k="name" v="Bruskreda" />
		<tag k="ssr:stedsnr" v="32792" />
		<tag k="waterway" v="stream" />
	</node>
	<node id="-514302" lat="61.2284611068" lon="6.93187500471">
		<tag k="alt_name" v="Tistelgrovi" />
		<tag k="name" v="Tistelegrovi" />
		<tag k="ssr:stedsnr" v="495964" />
		<tag k="waterway" v="stream" />
	</node>
	<node id="-514301" lat="61.2343694465" lon="6.95656666113">
		<tag k="name" v="Budeiegrovi" />
		<tag k="ssr:stedsnr" v="495957" />
		<tag k="waterway" v="stream" />
	</node>
	<node id="-514299" lat="61.131630555" lon="6.9907333287">
		<tag k="name" v="Kloppagrovi" />
		<tag k="ssr:stedsnr" v="495476" />
		<tag k="waterway" v="stream" />
	</node>
	<node id="-514809" lat="61.2516944473" lon="7.10120833969">
		<tag k="fixme" v="multiple name tags, choose one and add the other to alt_name" />
		<tag k="name" v="Bergelvi;Kvamselvi" />
		<tag k="ssr:stedsnr" v="736285" />
		<tag k="waterway" v="stream" />
	</node>
	<node id="-515090" lat="61.2316500032" lon="6.94001110319">
		<tag k="alt_name" v="Furesetgrovi" />
		<tag k="name" v="Furesetelvi" />
		<tag k="ssr:stedsnr" v="859937" />
		<tag k="waterway" v="stream" />
	</node>
	<node id="-514806" lat="61.4365416643" lon="6.89243332953">
		<tag k="name" v="Vetlavatnet" />
		<tag k="natural" v="water" />
		<tag k="ssr:stedsnr" v="735925" />
	</node>
	<node id="-513781" lat="61.2037277786" lon="7.29354722388">
		<tag k="name" v="Nordredemma-elvi" />
		<tag k="ssr:stedsnr" v="94605" />
		<tag k="waterway" v="river" />
	</node>
	<node id="-513779" lat="61.2363166697" lon="7.24341111392">
		<tag k="name" v="Kyrkjedalsgrovi" />
		<tag k="ssr:stedsnr" v="94531" />
		<tag k="waterway" v="stream" />
	</node>
	<node id="-514802" lat="61.283680559" lon="6.69373888329">
		<tag k="name" v="Rommedøla" />
		<tag k="ssr:stedsnr" v="735124" />
		<tag k="waterway" v="river" />
	</node>
	<node id="-513775" lat="61.2216888922" lon="7.22067222569">
		<tag k="name" v="Ospesettjørn" />
		<tag k="natural" v="water" />
		<tag k="ssr:stedsnr" v="94109" />
	</node>
	<node id="-514286" lat="61.2070361123" lon="7.30943055131">
		<tag k="name" v="Søredemma" />
		<tag k="natural" v="water" />
		<tag k="ssr:stedsnr" v="495039" />
	</node>
	<node id="-513661" lat="61.275555557" lon="6.9329555619">
		<tag k="fixme" v="multiple name tags, choose one and add the other to alt_name" />
		<tag k="name" v="Rysetevatnet;Skavatnet" />
		<tag k="natural" v="water" />
		<tag k="ssr:stedsnr" v="68138" />
	</node>
	<node id="-514872" lat="61.2532722216" lon="7.00645555966">
		<tag k="name" v="Sagelvi" />
		<tag k="ssr:stedsnr" v="760914" />
		<tag k="waterway" v="river" />
	</node>
	<node id="-514792" lat="61.4072472183" lon="6.76698610667">
		<tag k="name" v="Sandsskreda" />
		<tag k="ssr:stedsnr" v="701935" />
		<tag k="waterway" v="stream" />
	</node>
	<node id="-514791" lat="61.1834111112" lon="7.32526665827">
		<tag k="name" v="Svarteholstjørn" />
		<tag k="natural" v="water" />
		<tag k="ssr:stedsnr" v="701665" />
	</node>
	<node id="-514276" lat="61.2429545329" lon="6.95684100575">
		<tag k="alt_name" v="Drevdalsgrovi" />
		<tag k="name" v="Drivdalsgrovi" />
		<tag k="ssr:stedsnr" v="494534" />
		<tag k="waterway" v="stream" />
	</node>
	<node id="-514275" lat="61.3709333339" lon="6.77219166953">
		<tag k="name" v="Bjåstadelvi" />
		<tag k="ssr:stedsnr" v="493989" />
		<tag k="waterway" v="river" />
	</node>
	<node id="-513761" lat="61.2324305576" lon="6.99644165734">
		<tag k="name" v="Lerheimsgrovi" />
		<tag k="ssr:stedsnr" v="93844" />
		<tag k="waterway" v="stream" />
	</node>
	<node id="-513247" lat="61.3229694411" lon="6.96461111138">
		<tag k="name" v="Sandsteigneset" />
		<tag k="natural" v="cape" />
		<tag k="ssr:stedsnr" v="335165" />
	</node>
	<node id="-513583" lat="61.1690083297" lon="7.09268333491">
		<tag k="alt_name" v="Lingasetevatnet" />
		<tag k="name" v="Lingesetevatnet" />
		<tag k="natural" v="water" />
		<tag k="ssr:stedsnr" v="10017" />
	</node>
	<node id="-513999" lat="61.3851083377" lon="6.72266665876">
		<tag k="name" v="Kyrafossen" />
		<tag k="natural" v="waterfall" />
		<tag k="ssr:stedsnr" v="214540" />
	</node>
	<node id="-513751" lat="61.1518333338" lon="7.12293056379">
		<tag k="name" v="Reipa" />
		<tag k="ssr:stedsnr" v="93529" />
		<tag k="waterway" v="river" />
	</node>
	<node id="-513750" lat="61.1560055544" lon="7.13324999139">
		<tag k="name" v="Kjerringatjørni" />
		<tag k="natural" v="water" />
		<tag k="ssr:stedsnr" v="93526" />
	</node>
	<node id="-513237" lat="61.229466664" lon="6.96387222133">
		<tag k="alt_name" v="Svartevatnet" />
		<tag k="name" v="Svartavatnet" />
		<tag k="natural" v="water" />
		<tag k="ssr:stedsnr" v="313964" />
	</node>
	<node id="-514258" lat="61.4646166633" lon="6.78683333946">
		<tag k="name" v="Krokagilja" />
		<tag k="ssr:stedsnr" v="493861" />
		<tag k="waterway" v="stream" />
	</node>
	<node id="-513883" lat="61.4330694458" lon="6.78198333855">
		<tag k="name" v="Grandafossen" />
		<tag k="natural" v="waterfall" />
		<tag k="ssr:stedsnr" v="153846" />
	</node>
	<node id="-513476" lat="61.4859916671" lon="6.76264722219">
		<tag k="name" v="Grovi som kjem ut or fjellet" />
		<tag k="ssr:stedsnr" v="882834" />
		<tag k="waterway" v="stream" />
	</node>
	<node id="-514252" lat="61.2998277736" lon="7.04678610265">
		<tag k="name" v="Svartavatnet" />
		<tag k="natural" v="water" />
		<tag k="ssr:stedsnr" v="493418" />
	</node>
	<node id="-514082" lat="61.3084805592" lon="6.6499083377">
		<tag k="name" v="Teigaelvi" />
		<tag k="ssr:stedsnr" v="251244" />
		<tag k="waterway" v="stream" />
	</node>
	<node id="-514250" lat="61.2871916654" lon="7.12644445333">
		<tag k="name" v="Fårleggrovi" />
		<tag k="ssr:stedsnr" v="493343" />
		<tag k="waterway" v="stream" />
	</node>
	<node id="-513225" lat="61.211652781" lon="7.2067472295">
		<tag k="name" v="Krokagrovi" />
		<tag k="ssr:stedsnr" v="313099" />
		<tag k="waterway" v="stream" />
	</node>
	<node id="-514248" lat="61.2745833362" lon="7.03113611499">
		<tag k="name" v="Spøna" />
		<tag k="ssr:stedsnr" v="493330" />
		<tag k="waterway" v="stream" />
	</node>
	<node id="-513569" lat="61.3734444436" lon="6.71734166961">
		<tag k="name" v="Bakkaskreda" />
		<tag k="ssr:stedsnr" v="8987" />
		<tag k="waterway" v="stream" />
	</node>
	<node id="-514755" lat="61.3253583341" lon="6.93556666746">
		<tag k="name" v="Årenes" />
		<tag k="natural" v="cape" />
		<tag k="ssr:stedsnr" v="700197" />
	</node>
	<node id="-513312" lat="61.2650972263" lon="6.95634167465">
		<tag k="name" v="Rundavatnet" />
		<tag k="natural" v="water" />
		<tag k="ssr:stedsnr" v="371160" />
	</node>
	<node id="-513214" lat="61.1640944465" lon="6.92225833113">
		<tag k="alt_name" v="Skråtlagrovi" />
		<tag k="name" v="Skrollegrovi" />
		<tag k="ssr:stedsnr" v="312904" />
		<tag k="waterway" v="stream" />
	</node>
	<node id="-514748" lat="61.2554861099" lon="7.02085000661">
		<tag k="name" v="Rustagrovi" />
		<tag k="ssr:stedsnr" v="699945" />
		<tag k="waterway" v="stream" />
	</node>
	<node id="-513211" lat="61.3754888877" lon="6.88374166676">
		<tag k="name" v="Langedalselvi" />
		<tag k="ssr:stedsnr" v="311993" />
		<tag k="waterway" v="river" />
	</node>
	<node id="-513366" lat="61.2198111069" lon="7.24140555602">
		<tag k="name" v="Kaupangselvi" />
		<tag k="ssr:stedsnr" v="374092" />
		<tag k="waterway" v="river" />
	</node>
	<node id="-514232" lat="61.4213555517" lon="6.67342778495">
		<tag k="name" v="Kvannskreda" />
		<tag k="ssr:stedsnr" v="459000" />
		<tag k="waterway" v="stream" />
	</node>
	<node id="-514230" lat="61.4092111132" lon="6.71966110171">
		<tag k="name" v="Stormofossen" />
		<tag k="natural" v="waterfall" />
		<tag k="ssr:stedsnr" v="458967" />
	</node>
	<node id="-514227" lat="61.4185499962" lon="6.75598888161">
		<tag k="name" v="Tangane" />
		<tag k="natural" v="cape" />
		<tag k="ssr:stedsnr" v="458958" />
	</node>
	<node id="-515250" lat="61.4126388853" lon="6.69507222507">
		<tag k="name" v="Hestaskredfossen" />
		<tag k="natural" v="waterfall" />
		<tag k="ssr:stedsnr" v="943957" />
	</node>
	<node id="-515247" lat="61.4689722214" lon="6.84046945132">
		<tag k="name" v="Kvernhusgrovi" />
		<tag k="ssr:stedsnr" v="943771" />
		<tag k="waterway" v="stream" />
	</node>
	<node id="-514077" lat="61.3713944401" lon="6.71243611524">
		<tag k="name" v="Distadfossen" />
		<tag k="natural" v="waterfall" />
		<tag k="ssr:stedsnr" v="250978" />
	</node>
	<node id="-514220" lat="61.2644305539" lon="7.22544167204">
		<tag k="name" v="Sagelvi" />
		<tag k="ssr:stedsnr" v="458537" />
		<tag k="waterway" v="stream" />
	</node>
	<node id="-514218" lat="61.2113138913" lon="7.2665083409">
		<tag k="name" v="Dalaker-vasstak" />
		<tag k="place" v="locality" />
		<tag k="ssr:stedsnr" v="458090" />
	</node>
	<node id="-514729" lat="61.4624500041" lon="6.79167776882">
		<tag k="name" v="Tverrdøla" />
		<tag k="ssr:stedsnr" v="688666" />
		<tag k="waterway" v="river" />
	</node>
	<node id="-513192" lat="61.3461055581" lon="6.99388333856">
		<tag k="name" v="Stenageimsvatnet" />
		<tag k="natural" v="water" />
		<tag k="ssr:stedsnr" v="311508" />
	</node>
	<node id="-515239" lat="61.2772499957" lon="7.16181389244">
		<tag k="name" v="Helvetesfossen" />
		<tag k="natural" v="waterfall" />
		<tag k="ssr:stedsnr" v="943541" />
	</node>
	<node id="-514161" lat="61.1859472255" lon="7.05735555549">
		<tag k="alt_name" v="Venesvikelvi" />
		<tag k="name" v="Vinesvikelvi" />
		<tag k="ssr:stedsnr" v="435061" />
		<tag k="waterway" v="stream" />
	</node>
	<node id="-514143" lat="61.3596416705" lon="6.75306944415">
		<tag k="name" v="Migandefossen" />
		<tag k="natural" v="waterfall" />
		<tag k="ssr:stedsnr" v="433994" />
	</node>
	<node id="-515235" lat="61.2479388919" lon="7.13281943838">
		<tag k="name" v="Vetleskjer" />
		<tag k="place" v="islet" />
		<tag k="ssr:stedsnr" v="943411" />
	</node>
	<node id="-514722" lat="61.217591667" lon="7.03544167468">
		<tag k="alt_name" v="Lomtjørn" />
		<tag k="name" v="Lomtjørni" />
		<tag k="natural" v="water" />
		<tag k="ssr:stedsnr" v="677085" />
	</node>
	<node id="-513819" lat="61.3443083339" lon="6.91802777431">
		<tag k="name" v="Selsengselvi" />
		<tag k="ssr:stedsnr" v="129959" />
		<tag k="waterway" v="stream" />
	</node>
	<node id="-514720" lat="61.1995249963" lon="7.01093889307">
		<tag k="name" v="Fardalselvi" />
		<tag k="ssr:stedsnr" v="677083" />
		<tag k="waterway" v="river" />
	</node>
	<node id="-513694" lat="61.3198750041" lon="6.9364638898">
		<tag k="alt_name" v="Kongsteigelvi" />
		<tag k="name" v="Kongsteiggrovi" />
		<tag k="ssr:stedsnr" v="69219" />
		<tag k="waterway" v="stream" />
	</node>
	<node id="-513693" lat="61.3418527818" lon="6.67259443566">
		<tag k="name" v="Jordalselvi" />
		<tag k="ssr:stedsnr" v="68944" />
		<tag k="waterway" v="river" />
	</node>
	<node id="-513692" lat="61.3546305537" lon="6.90890555752">
		<tag k="name" v="Anestølsvatnet" />
		<tag k="natural" v="water" />
		<tag k="ssr:stedsnr" v="68940" />
		<tag k="water" v="lake" />
	</node>
	<node id="-513691" lat="61.3523555591" lon="6.86763056461">
		<tag k="name" v="Fossane" />
		<tag k="natural" v="waterfall" />
		<tag k="ssr:stedsnr" v="68932" />
	</node>
	<node id="-513177" lat="61.334569445" lon="6.92665554695">
		<tag k="name" v="Stilla" />
		<tag k="natural" v="bay" />
		<tag k="ssr:stedsnr" v="311255" />
	</node>
	<node id="-513187" lat="61.2827111141" lon="7.10956111059">
		<tag k="alt_name" v="Honningtjørni" />
		<tag k="name" v="Honningatjørni" />
		<tag k="natural" v="water" />
		<tag k="ssr:stedsnr" v="311387" />
	</node>
	<node id="-513686" lat="61.385455554" lon="6.8493111023">
		<tag k="name" v="Skardvatnet" />
		<tag k="natural" v="water" />
		<tag k="ssr:stedsnr" v="68970" />
	</node>
	<node id="-513173" lat="61.2904027739" lon="7.10674721584">
		<tag k="name" v="Svartaholgrovi" />
		<tag k="ssr:stedsnr" v="310345" />
		<tag k="waterway" v="stream" />
	</node>
	<node id="-513169" lat="61.2296444404" lon="6.99308888869">
		<tag k="fixme" v="multiple name tags, choose one and add the other to alt_name" />
		<tag k="name" v="Kamsvatnet;Veslavatnet" />
		<tag k="natural" v="water" />
		<tag k="ssr:stedsnr" v="71103" />
	</node>
	<node id="-514072" lat="61.3511499962" lon="6.75107777893">
		<tag k="name" v="Tyfossa" />
		<tag k="natural" v="waterfall" />
		<tag k="ssr:stedsnr" v="250932" />
	</node>
	<node id="-515214" lat="61.41741111" lon="6.78811945035">
		<tag k="name" v="Hestagara" />
		<tag k="ssr:stedsnr" v="942763" />
		<tag k="waterway" v="stream" />
	</node>
	<node id="-514701" lat="61.4359944411" lon="6.78071666271">
		<tag k="name" v="Supphelleelvi" />
		<tag k="ssr:stedsnr" v="675938" />
		<tag k="waterway" v="river" />
	</node>
	<node id="-513674" lat="61.3280444464" lon="6.98528332822">
		<tag k="name" v="Fessene" />
		<tag k="natural" v="waterfall" />
		<tag k="ssr:stedsnr" v="68507" />
	</node>
	<node id="-515209" lat="61.184216665" lon="7.01074999393">
		<tag k="name" v="Fjellgrovi" />
		<tag k="ssr:stedsnr" v="942566" />
		<tag k="waterway" v="stream" />
	</node>
	<node id="-515208" lat="61.2004333345" lon="6.98650278575">
		<tag k="name" v="Kløvergjelgrovi" />
		<tag k="ssr:stedsnr" v="942553" />
		<tag k="waterway" v="river" />
	</node>
	<node id="-513671" lat="61.3375944467" lon="7.00867222425">
		<tag k="name" v="Navarsetvatnet" />
		<tag k="natural" v="water" />
		<tag k="ssr:stedsnr" v="68466" />
	</node>
	<node id="-514497" lat="61.2005222233" lon="7.26603888948">
		<tag k="name" v="Svartetjørn" />
		<tag k="natural" v="water" />
		<tag k="ssr:stedsnr" v="579613" />
	</node>
	<node id="-515204" lat="61.2732361093" lon="6.99408333761">
		<tag k="name" v="Ambergrovi" />
		<tag k="ssr:stedsnr" v="942404" />
		<tag k="waterway" v="stream" />
	</node>
	<node id="-513666" lat="61.287155554" lon="7.06670555883">
		<tag k="name" v="Kyrauga" />
		<tag k="natural" v="water" />
		<tag k="ssr:stedsnr" v="68351" />
	</node>
	<node id="-513665" lat="61.2663222239" lon="6.98714999142">
		<tag k="name" v="Senda" />
		<tag k="ssr:stedsnr" v="68330" />
		<tag k="waterway" v="stream" />
	</node>
	<node id="-513663" lat="61.2965694462" lon="6.96026943739">
		<tag k="name" v="Botnagrovi" />
		<tag k="ssr:stedsnr" v="68252" />
		<tag k="waterway" v="stream" />
	</node>
	<node id="-514919" lat="61.3224055567" lon="6.8977500071">
		<tag k="fixme" v="multiple name tags, choose one and add the other to alt_name" />
		<tag k="name" v="Gunvordalselvi;Laugi" />
		<tag k="ssr:stedsnr" v="797218" />
		<tag k="waterway" v="river" />
	</node>
	<node id="-515197" lat="61.3070972181" lon="6.99931389353">
		<tag k="name" v="Torvnes" />
		<tag k="natural" v="cape" />
		<tag k="ssr:stedsnr" v="942184" />
	</node>
	<node id="-514684" lat="61.258291668" lon="7.08503611562">
		<tag k="name" v="Liagrovi" />
		<tag k="ssr:stedsnr" v="675378" />
		<tag k="waterway" v="stream" />
	</node>
	<node id="-513147" lat="61.2124555564" lon="7.24102222081">
		<tag k="name" v="Kolagrovi" />
		<tag k="ssr:stedsnr" v="276200" />
		<tag k="waterway" v="stream" />
	</node>
	<node id="-514097" lat="61.2278750034" lon="7.29976388448">
		<tag k="name" v="Botnavatnet" />
		<tag k="natural" v="water" />
		<tag k="ssr:stedsnr" v="253058" />
	</node>
	<node id="-514169" lat="61.1758333371" lon="7.03978888297">
		<tag k="alt_name" v="Klåbakgrovi" />
		<tag k="name" v="Klåbakkgrovi" />
		<tag k="ssr:stedsnr" v="435083" />
		<tag k="waterway" v="stream" />
	</node>
	<node id="-513807" lat="61.328722222" lon="6.94137777141">
		<tag k="fixme" v="multiple name tags, choose one and add the other to alt_name" />
		<tag k="name" v="Dalavatnet;Sogndalsvatnet" />
		<tag k="natural" v="water" />
		<tag k="ssr:stedsnr" v="129230" />
		<tag k="water" v="lake" />
	</node>
	<node id="-515187" lat="61.2369611075" lon="6.96469166571">
		<tag k="name" v="Hellegrovi" />
		<tag k="ssr:stedsnr" v="920959" />
		<tag k="waterway" v="stream" />
	</node>
	<node id="-515185" lat="61.1229111143" lon="6.95366943768">
		<tag k="alt_name" v="Søstragrovi" />
		<tag k="name" v="Systragrovi" />
		<tag k="ssr:stedsnr" v="920761" />
		<tag k="waterway" v="stream" />
	</node>
	<node id="-514511" lat="61.2600944483" lon="6.9473055586">
		<tag k="name" v="Storavatnet" />
		<tag k="natural" v="water" />
		<tag k="ssr:stedsnr" v="614156" />
	</node>
	<node id="-513135" lat="61.3691944472" lon="6.90796388668">
		<tag k="name" v="Stavagrøvene" />
		<tag k="ssr:stedsnr" v="275872" />
		<tag k="waterway" v="stream" />
	</node>
	<node id="-513646" lat="61.2182108323" lon="7.29576620201">
		<tag k="name" v="Hundsvatnet" />
		<tag k="natural" v="water" />
		<tag k="ssr:stedsnr" v="33092" />
		<tag k="water" v="lake" />
	</node>
	<node id="-514156" lat="61.1781194478" lon="7.28358610311">
		<tag k="alt_name" v="Svarteholsgrovi" />
		<tag k="name" v="Svartaholsgrovi" />
		<tag k="ssr:stedsnr" v="435017" />
		<tag k="waterway" v="stream" />
	</node>
	<node id="-513131" lat="61.3614527796" lon="6.91584722431">
		<tag k="name" v="Løkagrovi" />
		<tag k="ssr:stedsnr" v="275848" />
		<tag k="waterway" v="stream" />
	</node>
	<node id="-514831" lat="61.2130888888" lon="7.15792222626">
		<tag k="name" v="Migandegrovi" />
		<tag k="ssr:stedsnr" v="738075" />
		<tag k="waterway" v="stream" />
	</node>
	<node id="-514407" lat="61.319424998" lon="7.01036944551">
		<tag k="name" v="Storagrovi" />
		<tag k="ssr:stedsnr" v="554509" />
		<tag k="waterway" v="stream" />
	</node>
	<node id="-514664" lat="61.3350527819" lon="6.96266389557">
		<tag k="name" v="Kvamselvi" />
		<tag k="ssr:stedsnr" v="675220" />
		<tag k="waterway" v="stream" />
	</node>
	<node id="-514663" lat="61.2771305543" lon="6.96343332867">
		<tag k="name" v="Kollsetegrovi" />
		<tag k="ssr:stedsnr" v="675169" />
		<tag k="waterway" v="stream" />
	</node>
	<node id="-514150" lat="61.224941668" lon="6.95555833525">
		<tag k="alt_name" v="Svartevassgrovi" />
		<tag k="name" v="Svartavassgrovi" />
		<tag k="ssr:stedsnr" v="434949" />
		<tag k="waterway" v="stream" />
	</node>
	<node id="-513125" lat="61.4449944453" lon="6.80852499058">
		<tag k="name" v="Tjønnaskreda" />
		<tag k="ssr:stedsnr" v="275808" />
		<tag k="waterway" v="stream" />
	</node>
	<node id="-513126" lat="61.4598666699" lon="6.74018610758">
		<tag k="name" v="Lubakkneset" />
		<tag k="natural" v="cape" />
		<tag k="ssr:stedsnr" v="275812" />
	</node>
	<node id="-514144" lat="61.3607333294" lon="6.78728611159">
		<tag k="fixme" v="multiple name tags, choose one and add the other to alt_name" />
		<tag k="name" v="Tellanvatnet;Vetlavatnet" />
		<tag k="natural" v="water" />
		<tag k="ssr:stedsnr" v="433998" />
		<tag k="water" v="lake" />
	</node>
	<node id="-513296" lat="61.4175055551" lon="6.66132777036">
		<tag k="name" v="Botnagrovi" />
		<tag k="ssr:stedsnr" v="336939" />
		<tag k="waterway" v="stream" />
	</node>
	<node id="-514405" lat="61.3040916623" lon="6.65327778027">
		<tag k="name" v="Halsbrota" />
		<tag k="ssr:stedsnr" v="554258" />
		<tag k="waterway" v="stream" />
	</node>
	<node id="-514137" lat="61.4475694441" lon="6.72766110292">
		<tag k="name" v="Tverrdalselvi" />
		<tag k="ssr:stedsnr" v="433911" />
		<tag k="waterway" v="river" />
	</node>
	<node id="-514312" lat="61.1741916658" lon="6.98370277674">
		<tag k="name" v="Ølmheimselvi" />
		<tag k="ssr:stedsnr" v="517718" />
		<tag k="waterway" v="stream" />
	</node>
	<node id="-513380" lat="61.2820944422" lon="6.94761388654">
		<tag k="name" v="Rysetegrovi" />
		<tag k="ssr:stedsnr" v="396316" />
		<tag k="waterway" v="stream" />
	</node>
	<node id="-513548" lat="61.3143777735" lon="6.82875832618">
		<tag k="name" v="Styggebotngrovi" />
		<tag k="ssr:stedsnr" v="8255" />
		<tag k="waterway" v="stream" />
	</node>
	<node id="-513619" lat="61.382991663" lon="6.72628888934">
		<tag k="name" v="Svartegrovi" />
		<tag k="ssr:stedsnr" v="32516" />
		<tag k="waterway" v="stream" />
	</node>
	<node id="-515154" lat="61.3812333317" lon="6.77441667061">
		<tag k="name" v="Besselvi" />
		<tag k="ssr:stedsnr" v="918980" />
		<tag k="waterway" v="river" />
	</node>
	<node id="-514129" lat="61.3113472202" lon="6.87844721633">
		<tag k="name" v="Resavatnet" />
		<tag k="natural" v="water" />
		<tag k="ssr:stedsnr" v="433224" />
	</node>
	<node id="-514128" lat="61.3136111131" lon="6.84313888001">
		<tag k="name" v="Laugavatnet" />
		<tag k="natural" v="water" />
		<tag k="ssr:stedsnr" v="433221" />
	</node>
	<node id="-514590" lat="61.1517416632" lon="7.09411665838">
		<tag k="alt_name" v="Klaraelv" />
		<tag k="name" v="Klarelvi" />
		<tag k="ssr:stedsnr" v="617521" />
		<tag k="waterway" v="river" />
	</node>
	<node id="-513102" lat="61.267216671" lon="7.2134472275">
		<tag k="name" v="Fossane" />
		<tag k="natural" v="waterfall" />
		<tag k="ssr:stedsnr" v="275511" />
	</node>
	<node id="-513613" lat="61.2615665437" lon="6.96432246579">
		<tag k="name" v="Kalvavatnet" />
		<tag k="natural" v="water" />
		<tag k="ssr:stedsnr" v="32374" />
		<tag k="water" v="lake" />
	</node>
	<node id="-513612" lat="61.2576666674" lon="6.94624999483">
		<tag k="name" v="Langavatnet" />
		<tag k="natural" v="water" />
		<tag k="ssr:stedsnr" v="32370" />
		<tag k="water" v="lake" />
	</node>
	<node id="-514635" lat="61.2078361134" lon="7.17853888764">
		<tag k="name" v="Ålsberggrovi" />
		<tag k="ssr:stedsnr" v="639576" />
		<tag k="waterway" v="stream" />
	</node>
	<node id="-513610" lat="61.3041250006" lon="6.98813889351">
		<tag k="name" v="Gjelgrovi" />
		<tag k="ssr:stedsnr" v="32175" />
		<tag k="waterway" v="stream" />
	</node>
	<node id="-514121" lat="61.3454555587" lon="6.81050555484">
		<tag k="name" v="Frudalsvatnet" />
		<tag k="natural" v="water" />
		<tag k="ssr:stedsnr" v="432949" />
	</node>
	<node id="-513608" lat="61.2978666677" lon="7.00517499876">
		<tag k="name" v="Osen" />
		<tag k="natural" v="bay" />
		<tag k="ssr:stedsnr" v="32155" />
	</node>
	<node id="-515084" lat="61.1292527814" lon="6.96690832805">
		<tag k="name" v="Lomstjørnane" />
		<tag k="natural" v="water" />
		<tag k="ssr:stedsnr" v="859746" />
	</node>
	<node id="-514118" lat="61.4044861089" lon="6.68605277277">
		<tag k="name" v="Tverrelvi" />
		<tag k="ssr:stedsnr" v="432891" />
		<tag k="waterway" v="stream" />
	</node>
	<node id="-513092" lat="61.3280416644" lon="6.98677776952">
		<tag k="name" v="Svedalsfossen" />
		<tag k="natural" v="waterfall" />
		<tag k="ssr:stedsnr" v="275341" />
	</node>
	<node id="-515139" lat="61.2660611123" lon="7.12706945165">
		<tag k="name" v="Seldøla" />
		<tag k="ssr:stedsnr" v="918409" />
		<tag k="waterway" v="stream" />
	</node>
	<node id="-514113" lat="61.2708694458" lon="7.20236389411">
		<tag k="name" v="Skuregrovi" />
		<tag k="ssr:stedsnr" v="432331" />
		<tag k="waterway" v="stream" />
	</node>
	<node id="-513087" lat="61.3130638934" lon="6.99848611583">
		<tag k="name" v="Plitten" />
		<tag k="natural" v="cape" />
		<tag k="ssr:stedsnr" v="275178" />
	</node>
	<node id="-515135" lat="61.2597805547" lon="7.179597217">
		<tag k="name" v="Sagelvi" />
		<tag k="ssr:stedsnr" v="918399" />
		<tag k="waterway" v="stream" />
	</node>
	<node id="-513084" lat="61.3320888914" lon="6.92992777681">
		<tag k="name" v="Odden" />
		<tag k="natural" v="cape" />
		<tag k="ssr:stedsnr" v="275072" />
	</node>
	<node id="-515131" lat="61.2530027746" lon="7.21555833942">
		<tag k="alt_name" v="Fagervatnet" />
		<tag k="name" v="Fagerlivatnet" />
		<tag k="natural" v="water" />
		<tag k="ssr:stedsnr" v="918317" />
	</node>
	<node id="-515129" lat="61.3079222203" lon="6.88164999464">
		<tag k="name" v="Breavatnet" />
		<tag k="natural" v="water" />
		<tag k="ssr:stedsnr" v="918262" />
	</node>
	<node id="-515126" lat="61.3172416692" lon="6.91408889095">
		<tag k="name" v="Stølsgrøvene" />
		<tag k="ssr:stedsnr" v="918240" />
		<tag k="waterway" v="stream" />
	</node>
	<node id="-514100" lat="61.242397925" lon="7.26055218845">
		<tag k="alt_name" v="Breidesetevatnet;Breisetevatn" />
		<tag k="name" v="Breisetevatnet" />
		<tag k="natural" v="water" />
		<tag k="ssr:stedsnr" v="253120" />
		<tag k="water" v="lake" />
	</node>
	<node id="-513873" lat="61.1963833303" lon="6.99724444188">
		<tag k="name" v="Skurvegrovi" />
		<tag k="ssr:stedsnr" v="153573" />
		<tag k="waterway" v="stream" />
	</node>
	<node id="-513191" lat="61.2717472204" lon="7.07453610497">
		<tag k="name" v="Vetlavatnet" />
		<tag k="natural" v="water" />
		<tag k="ssr:stedsnr" v="311431" />
	</node>
	<node id="-515121" lat="61.4403027798" lon="6.83964445068">
		<tag k="name" v="Tverrgrovi" />
		<tag k="ssr:stedsnr" v="917912" />
		<tag k="waterway" v="stream" />
	</node>
	<node id="-515120" lat="61.2841416703" lon="7.0619083259">
		<tag k="name" v="Kiggavatnet" />
		<tag k="natural" v="water" />
		<tag k="ssr:stedsnr" v="917311" />
	</node>
	<node id="-513288" lat="61.4435527819" lon="6.80474166906">
		<tag k="name" v="Knutskreda" />
		<tag k="ssr:stedsnr" v="336820" />
		<tag k="waterway" v="stream" />
	</node>
	<node id="-514623" lat="61.245570708" lon="7.22191288176">
		<tag k="name" v="Kyrkjedalsvatni" />
		<tag k="natural" v="water" />
		<tag k="ssr:stedsnr" v="639484" />
		<tag k="water" v="lake" />
	</node>
	<node id="-513578" lat="61.1741944454" lon="6.93970833645">
		<tag k="alt_name" v="Lundaelvi;Lundeelvi" />
		<tag k="name" v="Lundelvi" />
		<tag k="ssr:stedsnr" v="9904" />
		<tag k="waterway" v="stream" />
	</node>
	<node id="-514601" lat="61.3795972239" lon="6.72870276886">
		<tag k="name" v="Helleskreda" />
		<tag k="ssr:stedsnr" v="638585" />
		<tag k="waterway" v="stream" />
	</node>
	<node id="-514084" lat="61.1786944403" lon="7.29558612013">
		<tag k="name" v="Turrligrovi" />
		<tag k="ssr:stedsnr" v="252004" />
		<tag k="waterway" v="stream" />
	</node>
	<node id="-514060" lat="61.4847416704" lon="6.75701388656">
		<tag k="name" v="Brevatnet" />
		<tag k="natural" v="water" />
		<tag k="ssr:stedsnr" v="250808" />
	</node>
	<node id="-514594" lat="61.3094611136" lon="7.00164166312">
		<tag k="name" v="Årenes" />
		<tag k="natural" v="cape" />
		<tag k="ssr:stedsnr" v="638177" />
	</node>
	<node id="-514081" lat="61.1827750041" lon="7.28604722249">
		<tag k="fixme" v="multiple name tags, choose one and add the other to alt_name" />
		<tag k="name" v="Amlaelvi;Tverrelvi" />
		<tag k="ssr:stedsnr" v="251001" />
		<tag k="waterway" v="stream" />
	</node>
	<node id="-514079" lat="61.374461115" lon="6.87186944244">
		<tag k="alt_name" v="Tverråna" />
		<tag k="name" v="Tverråni" />
		<tag k="ssr:stedsnr" v="250987" />
		<tag k="waterway" v="stream" />
	</node>
	<node id="-515102" lat="61.2472833328" lon="7.0306083327">
		<tag k="name" v="Sogndalselvi" />
		<tag k="ssr:stedsnr" v="860135" />
		<tag k="waterway" v="river" />
	</node>
	<node id="-515101" lat="61.2464861098" lon="7.18989167049">
		<tag k="alt_name" v="Skoddøla" />
		<tag k="name" v="Skogdøla" />
		<tag k="ssr:stedsnr" v="860121" />
		<tag k="waterway" v="stream" />
	</node>
	<node id="-513564" lat="61.3962361086" lon="6.87226110867">
		<tag k="name" v="Langedalsvatnet" />
		<tag k="natural" v="water" />
		<tag k="ssr:stedsnr" v="8904" />
	</node>
	<node id="-513193" lat="61.4783166663" lon="6.73610556492">
		<tag k="alt_name" v="Jakobbakka" />
		<tag k="name" v="Jakopbakka" />
		<tag k="ssr:stedsnr" v="311849" />
		<tag k="waterway" v="river" />
	</node>
	<node id="-514586" lat="61.1297416623" lon="6.96838054956">
		<tag k="name" v="Lomstjørni, s" />
		<tag k="natural" v="water" />
		<tag k="ssr:stedsnr" v="617505" />
	</node>
	<node id="-515096" lat="61.2127388907" lon="7.03019444331">
		<tag k="name" v="Røysetevatnet" />
		<tag k="natural" v="water" />
		<tag k="ssr:stedsnr" v="860091" />
	</node>
	<node id="-514052" lat="61.254127777" lon="7.24519445105">
		<tag k="name" v="Lommagrovi" />
		<tag k="ssr:stedsnr" v="250272" />
		<tag k="waterway" v="stream" />
	</node>
	<node id="-513558" lat="61.3120027751" lon="7.04221944609">
		<tag k="name" v="Volane" />
		<tag k="natural" v="water" />
		<tag k="ssr:stedsnr" v="8427" />
		<tag k="water" v="lake" />
	</node>
	<node id="-515093" lat="61.1505055555" lon="7.04583889178">
		<tag k="name" v="Midtvatnet" />
		<tag k="natural" v="water" />
		<tag k="ssr:stedsnr" v="860031" />
	</node>
	<node id="-514068" lat="61.3877694475" lon="6.72588332672">
		<tag k="name" v="Hatlestadelvi" />
		<tag k="ssr:stedsnr" v="250887" />
		<tag k="waterway" v="stream" />
	</node>
	<node id="-514067" lat="61.4176250004" lon="6.79266665893">
		<tag k="name" v="Fjellgrovi" />
		<tag k="ssr:stedsnr" v="250882" />
		<tag k="waterway" v="stream" />
	</node>
	<node id="-514608" lat="61.4376805533" lon="6.79035555883">
		<tag k="name" v="Raunehaugsskreda" />
		<tag k="ssr:stedsnr" v="638834" />
		<tag k="waterway" v="stream" />
	</node>
	<node id="-514622" lat="61.2605638851" lon="7.14339167457">
		<tag k="name" v="Fossane" />
		<tag k="natural" v="waterfall" />
		<tag k="ssr:stedsnr" v="639472" />
	</node>
	<node id="-513105" lat="61.1940805511" lon="6.99925832881">
		<tag k="name" v="Midtgilja" />
		<tag k="ssr:stedsnr" v="275522" />
		<tag k="waterway" v="stream" />
	</node>
	<node id="-513453" lat="61.2587916665" lon="6.96456388735">
		<tag k="name" v="Kyrauga" />
		<tag k="natural" v="water" />
		<tag k="ssr:stedsnr" v="882358" />
	</node>
	<node id="-514123" lat="61.3482722182" lon="6.91855000225">
		<tag k="name" v="Fossagrovi" />
		<tag k="ssr:stedsnr" v="432964" />
		<tag k="waterway" v="stream" />
	</node>
	<node id="-514568" lat="61.167352777" lon="7.07649722028">
		<tag k="name" v="Demmene" />
		<tag k="natural" v="water" />
		<tag k="ssr:stedsnr" v="616006" />
	</node>
	<node id="-513708" lat="61.1437944462" lon="6.9611416757">
		<tag k="name" v="Hovdagrovi" />
		<tag k="ssr:stedsnr" v="70849" />
		<tag k="waterway" v="stream" />
	</node>
	<node id="-514054" lat="61.2753333314" lon="7.0395222248">
		<tag k="name" v="Hundøla" />
		<tag k="ssr:stedsnr" v="250320" />
		<tag k="waterway" v="stream" />
	</node>
	<node id="-513452" lat="61.27031765" lon="6.95809438548">
		<tag k="name" v="Kyrauga" />
		<tag k="natural" v="water" />
		<tag k="ssr:stedsnr" v="882357" />
		<tag k="water" v="lake" />
	</node>
	<node id="-515076" lat="61.1773583304" lon="7.04520000783">
		<tag k="name" v="Vidjåna" />
		<tag k="ssr:stedsnr" v="859048" />
		<tag k="waterway" v="stream" />
	</node>
	<node id="-514563" lat="61.212608333" lon="6.92939721448">
		<tag k="name" v="Havragrovi" />
		<tag k="ssr:stedsnr" v="615974" />
		<tag k="waterway" v="stream" />
	</node>
	<node id="-515150" lat="61.4082222204" lon="6.94165833835">
		<tag k="name" v="Steindalsvotni" />
		<tag k="natural" v="water" />
		<tag k="ssr:stedsnr" v="918919" />
	</node>
</osm>
