<?xml version="1.0" encoding="UTF-8"?>
<osm generator="osmapis" version="0.6">
	<node id="-515072" lat="61.361619449" lon="6.72164167146">
		<tag k="name" v="Myri" />
		<tag k="natural" v="wetland" />
		<tag k="ssr:stedsnr" v="518584" />
	</node>
	<node id="-515583" lat="61.1492111099" lon="6.94686944739">
		<tag k="name" v="Tuskorane" />
		<tag k="natural" v="scree" />
		<tag k="ssr:stedsnr" v="760526" />
	</node>
	<node id="-515070" lat="61.1849583376" lon="7.19470000367">
		<tag k="name" v="Storemyri" />
		<tag k="natural" v="wetland" />
		<tag k="ssr:stedsnr" v="518575" />
	</node>
	<node id="-515069" lat="61.2055444429" lon="7.19083055043">
		<tag k="name" v="Vestreimsmyrane" />
		<tag k="natural" v="wetland" />
		<tag k="ssr:stedsnr" v="518574" />
	</node>
	<node id="-514302" lat="61.5021805588" lon="6.7266444455">
		<tag k="name" v="Vetlebreen" />
		<tag k="natural" v="glacier" />
		<tag k="ssr:stedsnr" v="9759" />
	</node>
	<node id="-514543" lat="61.4883916705" lon="6.81194444886">
		<tag k="name" v="Flatbreen" />
		<tag k="natural" v="glacier" />
		<tag k="ssr:stedsnr" v="129862" />
	</node>
	<node id="-515050" lat="61.1921111101" lon="7.22328055113">
		<tag k="name" v="Myrane" />
		<tag k="natural" v="wetland" />
		<tag k="ssr:stedsnr" v="518175" />
	</node>
	<node id="-514983" lat="61.4642888931" lon="6.87608610213">
		<tag k="name" v="Stølsbotnbreen" />
		<tag k="natural" v="glacier" />
		<tag k="ssr:stedsnr" v="493859" />
	</node>
	<node id="-515043" lat="61.4287000042" lon="6.81941110445">
		<tag k="name" v="Koppaholuri" />
		<tag k="natural" v="scree" />
		<tag k="ssr:stedsnr" v="517881" />
	</node>
	<node id="-515041" lat="61.440558332" lon="6.78071666826">
		<tag k="name" v="Myrane" />
		<tag k="natural" v="wetland" />
		<tag k="ssr:stedsnr" v="517830" />
	</node>
	<node id="-514005" lat="61.1862111156" lon="7.30992777761">
		<tag k="name" v="Fjelluri" />
		<tag k="natural" v="scree" />
		<tag k="ssr:stedsnr" v="336544" />
	</node>
	<node id="-515540" lat="61.499419449" lon="6.73224167293">
		<tag k="name" v="Vetlebreen" />
		<tag k="natural" v="glacier" />
		<tag k="ssr:stedsnr" v="736877" />
	</node>
	<node id="-514001" lat="61.2584861151" lon="7.20267221971">
		<tag k="name" v="Leinurane" />
		<tag k="natural" v="scree" />
		<tag k="ssr:stedsnr" v="336536" />
	</node>
	<node id="-514512" lat="61.2008777779" lon="7.27341945068">
		<tag k="name" v="Dyresteinane" />
		<tag k="natural" v="stone" />
		<tag k="ssr:stedsnr" v="94599" />
	</node>
	<node id="-513998" lat="61.2855944484" lon="7.1754222293">
		<tag k="name" v="Storamyr" />
		<tag k="natural" v="wetland" />
		<tag k="ssr:stedsnr" v="336462" />
	</node>
	<node id="-515521" lat="61.300513886" lon="6.6580527865">
		<tag k="name" v="Kobbesteinen" />
		<tag k="natural" v="stone" />
		<tag k="ssr:stedsnr" v="721483" />
	</node>
	<node id="-514496" lat="61.2633916655" lon="7.01356388907">
		<tag k="name" v="Kveldsmyr" />
		<tag k="natural" v="wetland" />
		<tag k="ssr:stedsnr" v="93891" />
	</node>
	<node id="-513981" lat="61.2039249981" lon="6.99540556274">
		<tag k="name" v="Høygjerdet" />
		<tag k="place" v="locality" />
		<tag k="ssr:stedsnr" v="335563" />
	</node>
	<node id="-513979" lat="61.1522222211" lon="6.95583055271">
		<tag k="name" v="Killingurane" />
		<tag k="natural" v="scree" />
		<tag k="ssr:stedsnr" v="335547" />
	</node>
	<node id="-515509" lat="61.3588555517" lon="6.6563999926">
		<tag k="name" v="Kvilesteinen" />
		<tag k="natural" v="stone" />
		<tag k="ssr:stedsnr" v="700905" />
	</node>
	<node id="-514994" lat="61.3659111099" lon="6.95568055128">
		<tag k="name" v="Brattbreen" />
		<tag k="natural" v="glacier" />
		<tag k="ssr:stedsnr" v="493950" />
	</node>
	<node id="-514479" lat="61.1530444403" lon="7.00360277323">
		<tag k="name" v="Vatnsteinane" />
		<tag k="natural" v="stone" />
		<tag k="ssr:stedsnr" v="93538" />
	</node>
	<node id="-514471" lat="61.2060611144" lon="6.99420277185">
		<tag k="name" v="Knausgjerdet" />
		<tag k="place" v="locality" />
		<tag k="ssr:stedsnr" v="93481" />
	</node>
	<node id="-513958" lat="61.1203638868" lon="6.99358333955">
		<tag k="alt_name" v="Kvituri" />
		<tag k="name" v="Kviturdane" />
		<tag k="natural" v="scree" />
		<tag k="ssr:stedsnr" v="313465" />
	</node>
	<node id="-514464" lat="61.262486114" lon="7.00063888422">
		<tag k="name" v="Vintralimyrane" />
		<tag k="natural" v="wetland" />
		<tag k="ssr:stedsnr" v="93432" />
	</node>
	<node id="-514456" lat="61.2990888929" lon="6.97380832659">
		<tag k="name" v="Antunsmyri" />
		<tag k="natural" v="wetland" />
		<tag k="ssr:stedsnr" v="93198" />
	</node>
	<node id="-515985" lat="61.1990944483" lon="7.16409999435">
		<tag k="name" v="Storesteinen" />
		<tag k="natural" v="stone" />
		<tag k="ssr:stedsnr" v="964046" />
	</node>
	<node id="-515469" lat="61.2728166637" lon="7.06987499786">
		<tag k="name" v="Tretturi" />
		<tag k="natural" v="scree" />
		<tag k="ssr:stedsnr" v="699901" />
	</node>
	<node id="-515980" lat="61.438325001" lon="6.76707499102">
		<tag k="name" v="Lindesvoi" />
		<tag k="place" v="locality" />
		<tag k="ssr:stedsnr" v="944557" />
	</node>
	<node id="-515461" lat="61.2798055567" lon="7.00438611114">
		<tag k="name" v="Vollamyrane" />
		<tag k="natural" v="wetland" />
		<tag k="ssr:stedsnr" v="699367" />
	</node>
	<node id="-513907" lat="61.3110388934" lon="6.80098888727">
		<tag k="name" v="Gunvordalsbreen" />
		<tag k="natural" v="glacier" />
		<tag k="ssr:stedsnr" v="311282" />
	</node>
	<node id="-514926" lat="61.3457472232" lon="6.88290278639">
		<tag k="name" v="Rauamoldi" />
		<tag k="natural" v="wetland" />
		<tag k="ssr:stedsnr" v="457772" />
	</node>
	<node id="-514923" lat="61.1660361071" lon="6.96334166464">
		<tag k="name" v="Bjørnuri" />
		<tag k="natural" v="scree" />
		<tag k="ssr:stedsnr" v="457644" />
	</node>
	<node id="-514408" lat="61.4804111151" lon="6.80985833826">
		<tag k="name" v="Supphellebreen" />
		<tag k="natural" v="glacier" />
		<tag k="ssr:stedsnr" v="68823" />
	</node>
	<node id="-513894" lat="61.4065611128" lon="6.75901111454">
		<tag k="landuse" v="meadow" />
		<tag k="name" v="Moshammarteigen" />
		<tag k="ssr:stedsnr" v="297757" />
	</node>
	<node id="-514917" lat="61.1955916628" lon="7.20122222461">
		<tag k="name" v="Kjelkasteinen" />
		<tag k="natural" v="stone" />
		<tag k="ssr:stedsnr" v="457563" />
	</node>
	<node id="-515428" lat="61.4246083331" lon="6.75503334184">
		<tag k="alt_name" v="Fruhiller" />
		<tag k="name" v="Fruhilleren" />
		<tag k="natural" v="stone" />
		<tag k="ssr:stedsnr" v="675940" />
	</node>
	<node id="-515423" lat="61.4179111117" lon="6.75849721703">
		<tag k="name" v="Bøyaøyri" />
		<tag k="place" v="locality" />
		<tag k="ssr:stedsnr" v="675892" />
	</node>
	<node id="-514904" lat="61.3244055515" lon="6.93576388984">
		<tag k="landuse" v="meadow" />
		<tag k="name" v="Kongsteigen" />
		<tag k="ssr:stedsnr" v="457140" />
	</node>
	<node id="-514902" lat="61.2606027823" lon="6.99135834205">
		<tag k="name" v="Tuftamyrane" />
		<tag k="natural" v="wetland" />
		<tag k="ssr:stedsnr" v="456460" />
	</node>
	<node id="-514379" lat="61.1845888898" lon="7.29900555857">
		<tag k="alt_name" v="Dalsurane" />
		<tag k="name" v="Dalurane" />
		<tag k="natural" v="scree" />
		<tag k="ssr:stedsnr" v="33530" />
	</node>
	<node id="-513932" lat="61.3428111134" lon="6.84784166488">
		<tag k="name" v="Storestein" />
		<tag k="natural" v="stone" />
		<tag k="ssr:stedsnr" v="311968" />
	</node>
	<node id="-514529" lat="61.3395249959" lon="6.85025554943">
		<tag k="name" v="Tungene" />
		<tag k="place" v="locality" />
		<tag k="ssr:stedsnr" v="129203" />
	</node>
	<node id="-513854" lat="61.4659944491" lon="6.73495556317">
		<tag k="name" v="Fjellstølsuri" />
		<tag k="natural" v="scree" />
		<tag k="ssr:stedsnr" v="275826" />
	</node>
	<node id="-514873" lat="61.5141583329" lon="6.80786111851">
		<tag k="name" v="Supphellebreen" />
		<tag k="natural" v="glacier" />
		<tag k="old_name" v="Suphellebreen" />
		<tag k="ssr:stedsnr" v="434832" />
	</node>
	<node id="-515378" lat="61.1404388925" lon="7.12517221972">
		<tag k="name" v="Siki" />
		<tag k="place" v="locality" />
		<tag k="ssr:stedsnr" v="663021" />
	</node>
	<node id="-513841" lat="61.1414055517" lon="6.99296945006">
		<tag k="name" v="Øykjakrekmyri" />
		<tag k="natural" v="wetland" />
		<tag k="ssr:stedsnr" v="275698" />
	</node>
	<node id="-514858" lat="61.2575111133" lon="7.09395833186">
		<tag k="name" v="Grønmyr" />
		<tag k="natural" v="wetland" />
		<tag k="ssr:stedsnr" v="433331" />
	</node>
	<node id="-513824" lat="61.2788277821" lon="7.167666665">
		<tag k="name" v="Huldrestein" />
		<tag k="natural" v="stone" />
		<tag k="ssr:stedsnr" v="275440" />
	</node>
	<node id="-513822" lat="61.2772666709" lon="7.00170000632">
		<tag k="name" v="Stampestein" />
		<tag k="natural" v="stone" />
		<tag k="ssr:stedsnr" v="275364" />
	</node>
	<node id="-513820" lat="61.2789222237" lon="6.96299999607">
		<tag k="name" v="Stølsteigen" />
		<tag k="place" v="locality" />
		<tag k="ssr:stedsnr" v="275346" />
	</node>
	<node id="-514331" lat="61.3326472197" lon="6.91586110578">
		<tag k="landuse" v="meadow" />
		<tag k="name" v="Heimteigane" />
		<tag k="ssr:stedsnr" v="32076" />
	</node>
	<node id="-514329" lat="61.3331888911" lon="6.92648334194">
		<tag k="name" v="Storamyri" />
		<tag k="natural" v="wetland" />
		<tag k="ssr:stedsnr" v="32063" />
	</node>
	<node id="-515351" lat="61.1859111117" lon="7.21977778213">
		<tag k="name" v="Porsmyri" />
		<tag k="natural" v="wetland" />
		<tag k="ssr:stedsnr" v="639491" />
	</node>
	<node id="-514820" lat="61.1242611146" lon="6.9473611163">
		<tag k="alt_name" v="Søstrene" />
		<tag k="name" v="Systrene" />
		<tag k="place" v="locality" />
		<tag k="ssr:stedsnr" v="252743" />
	</node>
	<node id="-514304" lat="61.1461083351" lon="6.95545554927">
		<tag k="alt_name" v="Veslaurdi" />
		<tag k="name" v="Vetleuri" />
		<tag k="natural" v="scree" />
		<tag k="ssr:stedsnr" v="9810" />
	</node>
	<node id="-515005" lat="61.1393083312" lon="6.92933056355">
		<tag k="alt_name" v="Meisakyrkja" />
		<tag k="name" v="Meiskyrkja" />
		<tag k="natural" v="stone" />
		<tag k="ssr:stedsnr" v="494868" />
	</node>
	<node id="-514300" lat="61.3645250004" lon="6.82806943824">
		<tag k="name" v="Frudalsbreen" />
		<tag k="natural" v="glacier" />
		<tag k="ssr:stedsnr" v="8996" />
	</node>
	<node id="-515322" lat="61.3317027775" lon="6.98804445148">
		<tag k="name" v="Grøssetemyrane" />
		<tag k="natural" v="wetland" />
		<tag k="ssr:stedsnr" v="638330" />
	</node>
	<node id="-515815" lat="61.1730416701" lon="6.95728332529">
		<tag k="alt_name" v="Breidesetmyrane" />
		<tag k="name" v="Breiesetemyrane" />
		<tag k="natural" v="wetland" />
		<tag k="ssr:stedsnr" v="859903" />
	</node>
	<node id="-514780" lat="61.2515111136" lon="7.07118611837">
		<tag k="name" v="Brendemyrane" />
		<tag k="natural" v="wetland" />
		<tag k="ssr:stedsnr" v="250278" />
	</node>
	<node id="-514257" lat="61.4133694447" lon="6.87388889517">
		<tag k="name" v="Steindalsbreen" />
		<tag k="natural" v="glacier" />
		<tag k="ssr:stedsnr" v="7885" />
	</node>
	<node id="-514752" lat="61.4546500017" lon="6.75128611292">
		<tag k="name" v="Storsteinuri" />
		<tag k="natural" v="scree" />
		<tag k="ssr:stedsnr" v="215199" />
	</node>
	<node id="-515775" lat="61.4958083338" lon="6.76469166956">
		<tag k="name" v="Bøyabreen" />
		<tag k="natural" v="glacier" />
		<tag k="ssr:stedsnr" v="857873" />
	</node>
	<node id="-515249" lat="61.2787194467" lon="7.1835555541">
		<tag k="name" v="Kvernasteinane" />
		<tag k="natural" v="stone" />
		<tag k="ssr:stedsnr" v="614310" />
	</node>
	<node id="-515248" lat="61.2786416677" lon="7.17109722072">
		<tag k="name" v="Borgarholt" />
		<tag k="place" v="locality" />
		<tag k="ssr:stedsnr" v="614305" />
	</node>
	<node id="-514218" lat="61.1711305552" lon="7.3387833379">
		<tag k="name" v="Hardasleppmyri" />
		<tag k="natural" v="wetland" />
		<tag k="ssr:stedsnr" v="883702" />
	</node>
	<node id="-514727" lat="61.2054333319" lon="6.99675277463">
		<tag k="name" v="Korngjerdet" />
		<tag k="place" v="locality" />
		<tag k="ssr:stedsnr" v="214546" />
	</node>
	<node id="-514725" lat="61.2269166638" lon="6.93570000844">
		<tag k="name" v="Gråsteinen" />
		<tag k="natural" v="stone" />
		<tag k="ssr:stedsnr" v="214425" />
	</node>
	<node id="-515232" lat="61.3052888859" lon="6.68940833507">
		<tag k="name" v="Storura" />
		<tag k="natural" v="scree" />
		<tag k="ssr:stedsnr" v="600444" />
	</node>
	<node id="-514198" lat="61.1458138907" lon="6.93941943999">
		<tag k="name" v="Kvitormen" />
		<tag k="natural" v="scree" />
		<tag k="ssr:stedsnr" v="882725" />
	</node>
	<node id="-515216" lat="61.321241667" lon="6.86741110691">
		<tag k="name" v="Fiksemyrane" />
		<tag k="natural" v="wetland" />
		<tag k="ssr:stedsnr" v="578940" />
	</node>
	<node id="-514582" lat="61.3404722196" lon="6.92287499849">
		<tag k="name" v="Småteigane" />
		<tag k="place" v="locality" />
		<tag k="ssr:stedsnr" v="153024" />
	</node>
	<node id="-515751" lat="61.1736666634" lon="7.3343527704">
		<tag k="name" v="Gjertamyri" />
		<tag k="natural" v="wetland" />
		<tag k="ssr:stedsnr" v="823600" />
	</node>
	<node id="-514688" lat="61.5306250033" lon="6.83699999791">
		<tag k="name" v="Vetle Supphellebreen" />
		<tag k="natural" v="glacier" />
		<tag k="old_name" v="Vesle Suphellebreen" />
		<tag k="ssr:stedsnr" v="191828" />
	</node>
	<node id="-514686" lat="61.1715500012" lon="7.3706750074">
		<tag k="name" v="Skardurdi" />
		<tag k="natural" v="scree" />
		<tag k="ssr:stedsnr" v="191350" />
	</node>
	<node id="-515190" lat="61.1994472206" lon="7.03334445367">
		<tag k="name" v="Hjellsmyri" />
		<tag k="natural" v="wetland" />
		<tag k="ssr:stedsnr" v="578573" />
	</node>
	<node id="-515693" lat="61.3373305575" lon="6.92304999729">
		<tag k="name" v="Tangamyri" />
		<tag k="natural" v="wetland" />
		<tag k="ssr:stedsnr" v="821049" />
	</node>
	<node id="-514666" lat="61.4546888875" lon="6.74264444962">
		<tag k="name" v="Langemyri" />
		<tag k="natural" v="wetland" />
		<tag k="ssr:stedsnr" v="190862" />
	</node>
	<node id="-515171" lat="61.31649167" lon="6.98165555415">
		<tag k="name" v="Biskuri" />
		<tag k="natural" v="scree" />
		<tag k="ssr:stedsnr" v="578273" />
	</node>
	<node id="-515669" lat="61.510250002" lon="6.85340278457">
		<tag k="name" v="Vetlebreen" />
		<tag k="natural" v="glacier" />
		<tag k="ssr:stedsnr" v="798448" />
	</node>
	<node id="-514119" lat="61.1801444489" lon="7.0079305641">
		<tag k="name" v="Uri" />
		<tag k="natural" v="scree" />
		<tag k="ssr:stedsnr" v="396549" />
	</node>
	<node id="-514629" lat="61.1537083373" lon="7.12639167322">
		<tag k="name" v="Haukåsmyrane" />
		<tag k="natural" v="wetland" />
		<tag k="ssr:stedsnr" v="154673" />
	</node>
	<node id="-514107" lat="61.3305833321" lon="6.99161389293">
		<tag k="name" v="Svedalsmyrane" />
		<tag k="natural" v="wetland" />
		<tag k="ssr:stedsnr" v="396325" />
	</node>
	<node id="-514616" lat="61.2398222206" lon="7.1138805637">
		<tag k="name" v="Skjelestein" />
		<tag k="natural" v="stone" />
		<tag k="ssr:stedsnr" v="153999" />
	</node>
	<node id="-514101" lat="61.3303305581" lon="6.96956943729">
		<tag k="name" v="Steguri" />
		<tag k="natural" v="scree" />
		<tag k="ssr:stedsnr" v="396218" />
	</node>
	<node id="-515634" lat="61.2778527812" lon="7.12188888865">
		<tag k="name" v="Storamyr" />
		<tag k="natural" v="wetland" />
		<tag k="ssr:stedsnr" v="796330" />
	</node>
	<node id="-515632" lat="61.3362888868" lon="6.79061943591">
		<tag k="name" v="Bjåstadbreen" />
		<tag k="natural" v="glacier" />
		<tag k="ssr:stedsnr" v="796190" />
	</node>
	<node id="-514597" lat="61.2618111123" lon="7.19990556051">
		<tag k="name" v="Djupemyr" />
		<tag k="natural" v="wetland" />
		<tag k="ssr:stedsnr" v="153556" />
	</node>
	<node id="-515615" lat="61.2763194429" lon="7.21546110737">
		<tag k="name" v="Kyrkjemyr" />
		<tag k="natural" v="wetland" />
		<tag k="ssr:stedsnr" v="761600" />
	</node>
	<node id="-514588" lat="61.2865638848" lon="6.97963610618">
		<tag k="name" v="Tjørnmyri" />
		<tag k="natural" v="wetland" />
		<tag k="ssr:stedsnr" v="153306" />
	</node>
	<node id="-514586" lat="61.3191083341" lon="6.96883055162">
		<tag k="name" v="Sandsteigen" />
		<tag k="place" v="locality" />
		<tag k="ssr:stedsnr" v="153270" />
	</node>
	<node id="-515606" lat="61.4277638924" lon="6.6630638873">
		<tag k="name" v="Fjellstølsuri" />
		<tag k="natural" v="scree" />
		<tag k="ssr:stedsnr" v="761075" />
	</node>
	<node id="-515091" lat="61.3948888923" lon="6.73913332762">
		<tag k="name" v="Toskesvaet" />
		<tag k="place" v="locality" />
		<tag k="ssr:stedsnr" v="539024" />
	</node>
	<node id="-514392" lat="61.2747055582" lon="7.17487221676">
		<tag k="name" v="Munthemarki" />
		<tag k="place" v="locality" />
		<tag k="ssr:stedsnr" v="68317" />
	</node>
	<node id="-515597" lat="61.2904694444" lon="7.05427221709">
		<tag k="name" v="Hundersgjerdi" />
		<tag k="place" v="locality" />
		<tag k="ssr:stedsnr" v="760888" />
	</node>
</osm>
