<?xml version="1.0" encoding="UTF-8"?>
<osm generator="osmapis" version="0.6">
	<node id="-529051" lat="61.3638277765" lon="5.39811665762">
		<tag k="alt_name" v="Fjaler" />
		<tag k="name" v="Fjaler kommune" />
		<tag k="ssr:date" v="2019-08-14" />
		<tag k="ssr:gruppe" v="administrativeIndelinger" />
		<tag k="ssr:hovedgruppe" v="offentligAdministrasjon" />
		<tag k="ssr:stedsnr" v="146563" />
		<tag k="ssr:type" v="kommune" />
	</node>
	<node id="-530490" lat="61.3614051107" lon="5.33766298046">
		<tag k="name" v="Dalsøyna" />
		<tag k="ssr:date" v="2019-05-31" />
		<tag k="ssr:gruppe" v="veg" />
		<tag k="ssr:hovedgruppe" v="infrastruktur" />
		<tag k="ssr:stedsnr" v="971786" />
		<tag k="ssr:type" v="adressenavn" />
	</node>
	<node id="-530489" lat="61.2377106709" lon="5.5546651843">
		<tag k="name" v="Guddalsvegen" />
		<tag k="ssr:date" v="2019-05-31" />
		<tag k="ssr:gruppe" v="veg" />
		<tag k="ssr:hovedgruppe" v="infrastruktur" />
		<tag k="ssr:stedsnr" v="971720" />
		<tag k="ssr:type" v="adressenavn" />
	</node>
	<node id="-529171" lat="61.3081750009" lon="5.17556110987">
		<tag k="alt_name" v="Sveskjærene;Sveskjærene lykt" />
		<tag k="name" v="Sveskjera lykt" />
		<tag k="old_name" v="Svidskjera" />
		<tag k="ssr:date" v="2016-05-10" />
		<tag k="ssr:gruppe" v="navigasjon" />
		<tag k="ssr:hovedgruppe" v="infrastruktur" />
		<tag k="ssr:stedsnr" v="190460" />
		<tag k="ssr:type" v="fyrlykt" />
	</node>
	<node id="-528781" lat="61.3745750018" lon="5.53532500827">
		<tag k="alt_name" v="Halsnes" />
		<tag k="name" v="Halsnes lykt" />
		<tag k="ssr:date" v="2016-05-10" />
		<tag k="ssr:gruppe" v="navigasjon" />
		<tag k="ssr:hovedgruppe" v="infrastruktur" />
		<tag k="ssr:stedsnr" v="8966" />
		<tag k="ssr:type" v="fyrlykt" />
	</node>
	<node id="-528746" lat="61.3044999987" lon="5.05643612062">
		<tag k="alt_name" v="Vilnesfjord" />
		<tag k="name" v="Vilnesfjord lykt" />
		<tag k="ssr:date" v="2016-05-10" />
		<tag k="ssr:gruppe" v="navigasjon" />
		<tag k="ssr:hovedgruppe" v="infrastruktur" />
		<tag k="ssr:stedsnr" v="8087" />
		<tag k="ssr:type" v="fyrlykt" />
	</node>
	<node id="-528712" lat="61.3650083289" lon="5.32976666597">
		<tag k="alt_name" v="Dalsøyna;Dalsøya;Dalsøya lykt" />
		<tag k="name" v="Dalsøyna lykt" />
		<tag k="ssr:date" v="2016-05-10" />
		<tag k="ssr:gruppe" v="navigasjon" />
		<tag k="ssr:hovedgruppe" v="infrastruktur" />
		<tag k="ssr:stedsnr" v="7179" />
		<tag k="ssr:type" v="fyrlykt" />
	</node>
	<node id="-530499" lat="60.8816104596" lon="6.30047518531">
		<tag k="name" v="Vestlandet" />
		<tag k="ssr:date" v="2019-01-06" />
		<tag k="ssr:gruppe" v="administrativeIndelinger" />
		<tag k="ssr:hovedgruppe" v="offentligAdministrasjon" />
		<tag k="ssr:stedsnr" v="974777" />
		<tag k="ssr:type" v="annenAdministrativInndeling" />
	</node>
</osm>
