<?xml version="1.0" encoding="UTF-8"?>
<osm generator="osmapis" version="0.6">
	<node changeset="69962493" id="6454044685" lat="59.62615" lon="10.7042917" timestamp="2019-05-07T07:16:10Z" uid="633013" user="Honning" version="1">
		<tag k="name" v="Moseby" />
		<tag k="place" v="locality" />
		<tag k="ssr:stedsnr" v="908181" />
	</node>
	<node changeset="69962493" id="6454044686" lat="59.6318667" lon="10.7889333" timestamp="2019-05-07T07:16:10Z" uid="633013" user="Honning" version="1">
		<tag k="alt_name" v="Tveiter, nordre;Tveiter nordre;Nordre Tveiter" />
		<tag k="name" v="Nordre Tveter" />
		<tag k="place" v="farm" />
		<tag k="ssr:stedsnr" v="913313" />
	</node>
	<node changeset="69962493" id="6454044687" lat="59.6215056" lon="10.7734472" timestamp="2019-05-07T07:16:10Z" uid="633013" user="Honning" version="1">
		<tag k="name" v="Østereng" />
		<tag k="place" v="farm" />
		<tag k="ssr:stedsnr" v="913329" />
	</node>
	<node changeset="69962493" id="6454044688" lat="59.6184667" lon="10.8006778" timestamp="2019-05-07T07:16:10Z" uid="633013" user="Honning" version="1">
		<tag k="name" v="Tannum" />
		<tag k="place" v="farm" />
		<tag k="ssr:stedsnr" v="913340" />
	</node>
	<node changeset="69962493" id="6454044689" lat="59.6072472" lon="10.7240806" timestamp="2019-05-07T07:16:10Z" uid="633013" user="Honning" version="1">
		<tag k="name" v="Vestbybråten" />
		<tag k="place" v="farm" />
		<tag k="ssr:stedsnr" v="913353" />
	</node>
	<node changeset="69962493" id="6454044690" lat="59.6321694" lon="10.7099305" timestamp="2019-05-07T07:16:10Z" uid="633013" user="Honning" version="1">
		<tag k="name" v="Ødegården" />
		<tag k="place" v="farm" />
		<tag k="ssr:stedsnr" v="913644" />
	</node>
	<node changeset="69962493" id="6454044691" lat="59.5583" lon="10.6497528" timestamp="2019-05-07T07:16:10Z" uid="633013" user="Honning" version="1">
		<tag k="name" v="Bølnes" />
		<tag k="place" v="farm" />
		<tag k="ssr:stedsnr" v="913657" />
	</node>
	<node changeset="69962493" id="6454044692" lat="59.5850889" lon="10.6610333" timestamp="2019-05-07T07:16:11Z" uid="633013" user="Honning" version="1">
		<tag k="name" v="Sagstua" />
		<tag k="place" v="isolated_dwelling" />
		<tag k="ssr:stedsnr" v="913711" />
	</node>
	<node changeset="69962493" id="6454044693" lat="59.5328889" lon="10.7595222" timestamp="2019-05-07T07:16:11Z" uid="633013" user="Honning" version="1">
		<tag k="name" v="Presterud" />
		<tag k="place" v="farm" />
		<tag k="ssr:stedsnr" v="914003" />
	</node>
	<node changeset="69962493" id="6454044694" lat="59.525475" lon="10.7616695" timestamp="2019-05-07T07:16:11Z" uid="633013" user="Honning" version="1">
		<tag k="alt_name" v="Østerud, nordre;Østerud nordre" />
		<tag k="name" v="Nordre Østerud" />
		<tag k="place" v="farm" />
		<tag k="ssr:stedsnr" v="914052" />
	</node>
	<node changeset="69962493" id="6454044695" lat="59.5806833" lon="10.8115306" timestamp="2019-05-07T07:16:11Z" uid="633013" user="Honning" version="1">
		<tag k="name" v="Hovum" />
		<tag k="place" v="farm" />
		<tag k="ssr:stedsnr" v="914165" />
	</node>
	<node changeset="69962493" id="6454044696" lat="59.5702864" lon="10.7724638" timestamp="2019-05-07T07:16:11Z" uid="633013" user="Honning" version="1">
		<tag k="alt_name" v="Rogsti, nordre" />
		<tag k="name" v="Nordre Rogsti" />
		<tag k="place" v="farm" />
		<tag k="ssr:stedsnr" v="914215" />
	</node>
	<node changeset="69962493" id="6454044697" lat="59.5676667" lon="10.7285694" timestamp="2019-05-07T07:16:11Z" uid="633013" user="Honning" version="1">
		<tag k="name" v="Skåka" />
		<tag k="place" v="farm" />
		<tag k="ssr:stedsnr" v="914223" />
	</node>
	<node changeset="69962493" id="6454044698" lat="59.5486667" lon="10.7220417" timestamp="2019-05-07T07:16:11Z" uid="633013" user="Honning" version="1">
		<tag k="alt_name" v="Håkonsbråten" />
		<tag k="name" v="Håkensbråten" />
		<tag k="place" v="farm" />
		<tag k="ssr:stedsnr" v="914245" />
	</node>
	<node changeset="69962493" id="6454044699" lat="59.550275" lon="10.7268306" timestamp="2019-05-07T07:16:11Z" uid="633013" user="Honning" version="1">
		<tag k="name" v="Karder" />
		<tag k="place" v="farm" />
		<tag k="ssr:stedsnr" v="914250" />
	</node>
	<node changeset="69962493" id="6454044700" lat="59.6092111" lon="10.668625" timestamp="2019-05-07T07:16:11Z" uid="633013" user="Honning" version="1">
		<tag k="alt_name" v="Lysdal;Østre Lysdal" />
		<tag k="name" v="Østre Lysedal" />
		<tag k="place" v="farm" />
		<tag k="ssr:stedsnr" v="914666" />
	</node>
	<node changeset="69962493" id="6454044701" lat="59.5679028" lon="10.7530528" timestamp="2019-05-07T07:16:11Z" uid="633013" user="Honning" version="1">
		<tag k="name" v="Øvre Langli" />
		<tag k="place" v="farm" />
		<tag k="ssr:stedsnr" v="933209" />
	</node>
	<node changeset="69962493" id="6454044702" lat="59.6171472" lon="10.7315389" timestamp="2019-05-07T07:16:11Z" uid="633013" user="Honning" version="1">
		<tag k="name" v="Libråten" />
		<tag k="place" v="farm" />
		<tag k="ssr:stedsnr" v="933217" />
	</node>
	<node changeset="69962493" id="6454044703" lat="59.5899889" lon="10.7701972" timestamp="2019-05-07T07:16:11Z" uid="633013" user="Honning" version="1">
		<tag k="name" v="Stavenga" />
		<tag k="place" v="locality" />
		<tag k="ssr:stedsnr" v="933176" />
	</node>
	<node changeset="69962493" id="6454044704" lat="59.5628611" lon="10.7978" timestamp="2019-05-07T07:16:11Z" uid="633013" user="Honning" version="1">
		<tag k="alt_name" v="Oksa øvre" />
		<tag k="name" v="Øvre Oksa" />
		<tag k="place" v="farm" />
		<tag k="ssr:stedsnr" v="933237" />
	</node>
	<node changeset="69962493" id="6454044705" lat="59.5616528" lon="10.6508028" timestamp="2019-05-07T07:16:11Z" uid="633013" user="Honning" version="1">
		<tag k="name" v="Snippen" />
		<tag k="place" v="farm" />
		<tag k="ssr:stedsnr" v="966268" />
	</node>
	<node changeset="69962493" id="6454044706" lat="59.5328167" lon="10.7030444" timestamp="2019-05-07T07:16:11Z" uid="633013" user="Honning" version="1">
		<tag k="name" v="Presteøgården" />
		<tag k="place" v="farm" />
		<tag k="ssr:stedsnr" v="966289" />
	</node>
	<node changeset="69962493" id="6454044707" lat="59.5215417" lon="10.7088028" timestamp="2019-05-07T07:16:11Z" uid="633013" user="Honning" version="1">
		<tag k="name" v="Skoglundåsen" />
		<tag k="place" v="quarter" />
		<tag k="ssr:stedsnr" v="966433" />
	</node>
	<node changeset="69962493" id="6454044708" lat="59.5216884" lon="10.6910971" timestamp="2019-05-07T07:16:11Z" uid="633013" user="Honning" version="1">
		<tag k="name" v="Alicenborg" />
		<tag k="old_name" v="Bråten" />
		<tag k="place" v="farm" />
		<tag k="ssr:stedsnr" v="966436" />
	</node>
	<node changeset="69962493" id="6454044709" lat="59.5229139" lon="10.6938111" timestamp="2019-05-07T07:16:12Z" uid="633013" user="Honning" version="1">
		<tag k="name" v="Bernhoffløkka" />
		<tag k="place" v="farm" />
		<tag k="ssr:stedsnr" v="966439" />
	</node>
	<node changeset="69962493" id="6454044710" lat="59.5239" lon="10.7070139" timestamp="2019-05-07T07:16:12Z" uid="633013" user="Honning" version="1">
		<tag k="name" v="Vollehagen" />
		<tag k="place" v="hamlet" />
		<tag k="ssr:stedsnr" v="966444" />
	</node>
	<node changeset="69962493" id="6454044711" lat="59.6023111" lon="10.6889806" timestamp="2019-05-07T07:16:12Z" uid="633013" user="Honning" version="1">
		<tag k="alt_name" v="Ugjestrud søndre" />
		<tag k="name" v="Søndre Ugjestrud" />
		<tag k="place" v="farm" />
		<tag k="ssr:stedsnr" v="967125" />
	</node>
	<node changeset="69962493" id="6454044712" lat="59.6020944" lon="10.6623889" timestamp="2019-05-07T07:16:12Z" uid="633013" user="Honning" version="1">
		<tag k="name" v="Knutehullet" />
		<tag k="place" v="locality" />
		<tag k="ssr:stedsnr" v="967127" />
	</node>
	<node changeset="69962493" id="6454044713" lat="59.6374556" lon="10.701725" timestamp="2019-05-07T07:16:12Z" uid="633013" user="Honning" version="1">
		<tag k="alt_name" v="Vastad nordre" />
		<tag k="name" v="Nordre Vastad" />
		<tag k="place" v="farm" />
		<tag k="ssr:stedsnr" v="968172" />
	</node>
	<node changeset="69962493" id="6454044714" lat="59.6397583" lon="10.686125" timestamp="2019-05-07T07:16:12Z" uid="633013" user="Honning" version="1">
		<tag k="name" v="Linnestadlund" />
		<tag k="place" v="locality" />
		<tag k="ssr:stedsnr" v="968543" />
	</node>
	<node changeset="69962493" id="6454044715" lat="59.5700361" lon="10.7155111" timestamp="2019-05-07T07:16:12Z" uid="633013" user="Honning" version="1">
		<tag k="name" v="Søndre Tømt" />
		<tag k="place" v="isolated_dwelling" />
		<tag k="ssr:stedsnr" v="968554" />
	</node>
	<node changeset="69962493" id="6454044716" lat="59.586625" lon="10.7005555" timestamp="2019-05-07T07:16:12Z" uid="633013" user="Honning" version="1">
		<tag k="name" v="Sandås" />
		<tag k="place" v="farm" />
		<tag k="ssr:stedsnr" v="968740" />
	</node>
	<node changeset="69962493" id="6454044717" lat="59.5904" lon="10.6569056" timestamp="2019-05-07T07:16:12Z" uid="633013" user="Honning" version="1">
		<tag k="name" v="Myra" />
		<tag k="place" v="farm" />
		<tag k="ssr:stedsnr" v="968758" />
	</node>
	<node changeset="69962493" id="6454044718" lat="59.5219867" lon="10.745045" timestamp="2019-05-07T07:16:12Z" uid="633013" user="Honning" version="1">
		<tag k="name" v="Eik" />
		<tag k="place" v="hamlet" />
		<tag k="ssr:stedsnr" v="974194" />
	</node>
	<node changeset="69962493" id="6454044719" lat="59.5697428" lon="10.7721538" timestamp="2019-05-07T07:16:12Z" uid="633013" user="Honning" version="1">
		<tag k="name" v="Rogsti" />
		<tag k="place" v="hamlet" />
		<tag k="ssr:stedsnr" v="977383" />
	</node>
	<node changeset="69962493" id="6454044720" lat="59.5610804" lon="10.775326" timestamp="2019-05-07T07:16:12Z" uid="633013" user="Honning" version="1">
		<tag k="name" v="Mellom-Rogsti" />
		<tag k="place" v="farm" />
		<tag k="ssr:stedsnr" v="977559" />
	</node>
	<node changeset="69962493" id="6454044721" lat="59.6146889" lon="10.6523417" timestamp="2019-05-07T07:16:12Z" uid="633013" user="Honning" version="1">
		<tag k="name" v="Elven" />
		<tag k="place" v="farm" />
		<tag k="ssr:stedsnr" v="299255" />
	</node>
	<node changeset="69962493" id="1722554418" lat="59.5892028" lon="10.692875" timestamp="2019-05-07T07:16:25Z" uid="633013" user="Honning" version="2">
		<tag k="name" v="Nordre Rønjul" />
		<tag k="place" v="farm" />
		<tag k="ssr:stedsnr" v="422696" />
	</node>
	<node changeset="69962493" id="6454044723" lat="59.5698222" lon="10.6569556" timestamp="2019-05-07T07:16:12Z" uid="633013" user="Honning" version="1">
		<tag k="name" v="Langbråten" />
		<tag k="place" v="farm" />
		<tag k="ssr:stedsnr" v="56225" />
	</node>
	<node changeset="69962493" id="6454044724" lat="59.591175" lon="10.7130972" timestamp="2019-05-07T07:16:12Z" uid="633013" user="Honning" version="1">
		<tag k="name" v="Mora" />
		<tag k="place" v="quarter" />
		<tag k="ssr:stedsnr" v="301698" />
	</node>
	<node changeset="69962493" id="6454044725" lat="59.631375" lon="10.7543333" timestamp="2019-05-07T07:16:12Z" uid="633013" user="Honning" version="1">
		<tag k="name" v="Nes" />
		<tag k="place" v="farm" />
		<tag k="ssr:stedsnr" v="306307" />
	</node>
	<node changeset="69962493" id="6454044726" lat="59.5013553" lon="10.6883787" timestamp="2019-05-07T07:16:12Z" uid="633013" user="Honning" version="1">
		<tag k="alt_name" v="Søndre Brevik" />
		<tag k="name" v="Store Brevik" />
		<tag k="place" v="farm" />
		<tag k="ssr:stedsnr" v="306477" />
	</node>
	<node changeset="69962493" id="6454044727" lat="59.5197333" lon="10.7130944" timestamp="2019-05-07T07:16:13Z" uid="633013" user="Honning" version="1">
		<tag k="name" v="Liabråten" />
		<tag k="place" v="farm" />
		<tag k="ssr:stedsnr" v="306487" />
	</node>
	<node changeset="69962493" id="6454044728" lat="59.5889333" lon="10.7080417" timestamp="2019-05-07T07:16:13Z" uid="633013" user="Honning" version="1">
		<tag k="name" v="Trollerud" />
		<tag k="place" v="farm" />
		<tag k="ssr:stedsnr" v="306725" />
	</node>
	<node changeset="69962493" id="6454044729" lat="59.5210778" lon="10.7446306" timestamp="2019-05-07T07:16:13Z" uid="633013" user="Honning" version="1">
		<tag k="alt_name" v="Ek;Ek søndre" />
		<tag k="name" v="Søndre Ek" />
		<tag k="place" v="farm" />
		<tag k="ssr:stedsnr" v="307039" />
	</node>
	<node changeset="69962493" id="6454044730" lat="59.5419083" lon="10.7222805" timestamp="2019-05-07T07:16:13Z" uid="633013" user="Honning" version="1">
		<tag k="name" v="Gjølstad" />
		<tag k="place" v="farm" />
		<tag k="ssr:stedsnr" v="307041" />
	</node>
	<node changeset="69962493" id="6454044731" lat="59.5010361" lon="10.7690472" timestamp="2019-05-07T07:16:13Z" uid="633013" user="Honning" version="1">
		<tag k="alt_name" v="Stubberud" />
		<tag k="name" v="Stubberød" />
		<tag k="place" v="farm" />
		<tag k="ssr:stedsnr" v="307083" />
	</node>
	<node changeset="69962493" id="6454044732" lat="59.5957722" lon="10.74095" timestamp="2019-05-07T07:16:13Z" uid="633013" user="Honning" version="1">
		<tag k="name" v="Deli" />
		<tag k="place" v="farm" />
		<tag k="ssr:stedsnr" v="307138" />
	</node>
	<node changeset="69962493" id="6454044733" lat="59.5871" lon="10.79225" timestamp="2019-05-07T07:16:13Z" uid="633013" user="Honning" version="1">
		<tag k="name" v="Tuftebråten" />
		<tag k="place" v="farm" />
		<tag k="ssr:stedsnr" v="307140" />
	</node>
	<node changeset="69962493" id="6454044734" lat="59.5916917" lon="10.781" timestamp="2019-05-07T07:16:13Z" uid="633013" user="Honning" version="1">
		<tag k="name" v="Engene" />
		<tag k="place" v="farm" />
		<tag k="ssr:stedsnr" v="307141" />
	</node>
	<node changeset="69962493" id="6454044735" lat="59.6033725" lon="10.7448337" timestamp="2019-05-07T07:16:13Z" uid="633013" user="Honning" version="1">
		<tag k="alt_name" v="Søndre Randem;Randum, søndre" />
		<tag k="name" v="Søndre Randum" />
		<tag k="place" v="farm" />
		<tag k="ssr:stedsnr" v="307153" />
	</node>
	<node changeset="69962493" id="6454044736" lat="59.581975" lon="10.7896972" timestamp="2019-05-07T07:16:13Z" uid="633013" user="Honning" version="1">
		<tag k="name" v="Rustad" />
		<tag k="place" v="farm" />
		<tag k="ssr:stedsnr" v="307181" />
	</node>
	<node changeset="69962493" id="6454044737" lat="59.5882167" lon="10.7259417" timestamp="2019-05-07T07:16:13Z" uid="633013" user="Honning" version="1">
		<tag k="name" v="Lybekk" />
		<tag k="place" v="farm" />
		<tag k="ssr:stedsnr" v="307194" />
	</node>
	<node changeset="69962493" id="6454044738" lat="59.5676504" lon="10.7726509" timestamp="2019-05-07T07:16:13Z" uid="633013" user="Honning" version="1">
		<tag k="alt_name" v="Rogsti, søndre" />
		<tag k="name" v="Søndre Rogsti" />
		<tag k="place" v="farm" />
		<tag k="ssr:stedsnr" v="307225" />
	</node>
	<node changeset="69962493" id="6454044739" lat="59.576525" lon="10.83355" timestamp="2019-05-07T07:16:13Z" uid="633013" user="Honning" version="1">
		<tag k="alt_name" v="Tom, nordre;Tom nordre;Tom;Tom lille;Lille Tom" />
		<tag k="name" v="Nordre Tom" />
		<tag k="place" v="farm" />
		<tag k="ssr:stedsnr" v="307244" />
	</node>
	<node changeset="69962493" id="6454044740" lat="59.5265667" lon="10.7248694" timestamp="2019-05-07T07:16:13Z" uid="633013" user="Honning" version="1">
		<tag k="name" v="Mortenshytta" />
		<tag k="place" v="isolated_dwelling" />
		<tag k="ssr:stedsnr" v="326111" />
	</node>
	<node changeset="69962493" id="6454044741" lat="59.5289472" lon="10.7459389" timestamp="2019-05-07T07:16:13Z" uid="633013" user="Honning" version="1">
		<tag k="alt_name" v="Skøyen søndre;Skøyen" />
		<tag k="name" v="Søndre Skøyen" />
		<tag k="place" v="farm" />
		<tag k="ssr:stedsnr" v="326142" />
	</node>
	<node changeset="69962493" id="6454044742" lat="59.529625" lon="10.7455861" timestamp="2019-05-07T07:16:13Z" uid="633013" user="Honning" version="1">
		<tag k="alt_name" v="Skøyen nordre" />
		<tag k="name" v="Nordre Skøyen" />
		<tag k="place" v="farm" />
		<tag k="ssr:stedsnr" v="326143" />
	</node>
	<node changeset="69962493" id="6454044743" lat="59.5786028" lon="10.8045917" timestamp="2019-05-07T07:16:13Z" uid="633013" user="Honning" version="1">
		<tag k="alt_name" v="Garder søndre" />
		<tag k="name" v="Søndre Garder" />
		<tag k="place" v="farm" />
		<tag k="ssr:stedsnr" v="326153" />
	</node>
	<node changeset="69962493" id="6454044744" lat="59.5775278" lon="10.8113722" timestamp="2019-05-07T07:16:14Z" uid="633013" user="Honning" version="1">
		<tag k="name" v="Solli" />
		<tag k="place" v="farm" />
		<tag k="ssr:stedsnr" v="326161" />
	</node>
	<node changeset="69962493" id="6454044745" lat="59.5543806" lon="10.7405278" timestamp="2019-05-07T07:16:14Z" uid="633013" user="Honning" version="1">
		<tag k="name" v="Bruerløkka" />
		<tag k="place" v="farm" />
		<tag k="ssr:stedsnr" v="326185" />
	</node>
	<node changeset="69962493" id="6454044746" lat="59.5587556" lon="10.7762583" timestamp="2019-05-07T07:16:14Z" uid="633013" user="Honning" version="1">
		<tag k="name" v="Bakketun" />
		<tag k="place" v="farm" />
		<tag k="ssr:stedsnr" v="326191" />
	</node>
	<node changeset="69962493" id="6454044747" lat="59.5874361" lon="10.8460972" timestamp="2019-05-07T07:16:14Z" uid="633013" user="Honning" version="1">
		<tag k="name" v="Hallehytta" />
		<tag k="place" v="farm" />
		<tag k="ssr:stedsnr" v="326769" />
	</node>
	<node changeset="69962493" id="6454044748" lat="59.6090139" lon="10.77915" timestamp="2019-05-07T07:16:14Z" uid="633013" user="Honning" version="1">
		<tag k="name" v="Juskerud" />
		<tag k="place" v="farm" />
		<tag k="ssr:stedsnr" v="326780" />
	</node>
	<node changeset="69962493" id="6454044749" lat="59.6003333" lon="10.7476944" timestamp="2019-05-07T07:16:14Z" uid="633013" user="Honning" version="1">
		<tag k="name" v="Nordby" />
		<tag k="place" v="farm" />
		<tag k="ssr:stedsnr" v="326802" />
	</node>
	<node changeset="69962493" id="6454044750" lat="59.530375" lon="10.7009917" timestamp="2019-05-07T07:16:14Z" uid="633013" user="Honning" version="1">
		<tag k="alt_name" v="Labo nordre;Nordre Labo" />
		<tag k="name" v="Nordre Labu" />
		<tag k="place" v="farm" />
		<tag k="ssr:stedsnr" v="359401" />
	</node>
	<node changeset="69962493" id="6454044751" lat="59.5785889" lon="10.7459944" timestamp="2019-05-07T07:16:14Z" uid="633013" user="Honning" version="1">
		<tag k="name" v="Vestby næringspark øst" />
		<tag k="place" v="quarter" />
		<tag k="ssr:stedsnr" v="359956" />
	</node>
	<node changeset="69962493" id="6454044752" lat="59.6050722" lon="10.7129194" timestamp="2019-05-07T07:16:14Z" uid="633013" user="Honning" version="1">
		<tag k="name" v="Skogmo" />
		<tag k="place" v="isolated_dwelling" />
		<tag k="ssr:stedsnr" v="360099" />
	</node>
	<node changeset="69962493" id="6454044753" lat="59.6226333" lon="10.6731389" timestamp="2019-05-07T07:16:14Z" uid="633013" user="Honning" version="1">
		<tag k="alt_name" v="Langebakk" />
		<tag k="name" v="Langbakke" />
		<tag k="place" v="locality" />
		<tag k="ssr:stedsnr" v="361175" />
	</node>
	<node changeset="69962493" id="6454044754" lat="59.5542639" lon="10.6633222" timestamp="2019-05-07T07:16:14Z" uid="633013" user="Honning" version="1">
		<tag k="name" v="Furubråten" />
		<tag k="place" v="locality" />
		<tag k="ssr:stedsnr" v="361556" />
	</node>
	<node changeset="69962493" id="6454044755" lat="59.5531333" lon="10.7435222" timestamp="2019-05-07T07:16:14Z" uid="633013" user="Honning" version="1">
		<tag k="name" v="Elvestad" />
		<tag k="place" v="farm" />
		<tag k="ssr:stedsnr" v="367190" />
	</node>
	<node changeset="69962493" id="6454044757" lat="59.5455472" lon="10.654525" timestamp="2019-05-07T07:16:14Z" uid="633013" user="Honning" version="1">
		<tag k="name" v="Holvik" />
		<tag k="place" v="isolated_dwelling" />
		<tag k="ssr:stedsnr" v="367487" />
	</node>
	<node changeset="69962493" id="6454044758" lat="59.5985194" lon="10.6715667" timestamp="2019-05-07T07:16:14Z" uid="633013" user="Honning" version="1">
		<tag k="name" v="Sekkebekk" />
		<tag k="place" v="farm" />
		<tag k="ssr:stedsnr" v="367604" />
	</node>
	<node changeset="69962493" id="6454044759" lat="59.5570059" lon="10.6938114" timestamp="2019-05-07T07:16:14Z" uid="633013" user="Honning" version="1">
		<tag k="name" v="Erikstad" />
		<tag k="place" v="hamlet" />
		<tag k="ssr:stedsnr" v="367677" />
	</node>
	<node changeset="69962493" id="6454044760" lat="59.5619139" lon="10.6663722" timestamp="2019-05-07T07:16:14Z" uid="633013" user="Honning" version="1">
		<tag k="name" v="Tørfest" />
		<tag k="place" v="farm" />
		<tag k="ssr:stedsnr" v="367696" />
	</node>
	<node changeset="69962493" id="6454044761" lat="59.5839389" lon="10.7033778" timestamp="2019-05-07T07:16:14Z" uid="633013" user="Honning" version="1">
		<tag k="name" v="Berg" />
		<tag k="place" v="farm" />
		<tag k="ssr:stedsnr" v="367719" />
	</node>
	<node changeset="69962493" id="6454044762" lat="59.5307861" lon="10.7721861" timestamp="2019-05-07T07:16:15Z" uid="633013" user="Honning" version="1">
		<tag k="alt_name" v="Fagerholt søndre" />
		<tag k="name" v="Søndre Fagerholt" />
		<tag k="old_name" v="Fagerli, søndre" />
		<tag k="place" v="farm" />
		<tag k="ssr:stedsnr" v="368003" />
	</node>
	<node changeset="69962493" id="6454044763" lat="59.5398361" lon="10.7391889" timestamp="2019-05-07T07:16:15Z" uid="633013" user="Honning" version="1">
		<tag k="name" v="Hølen" />
		<tag k="place" v="village" />
		<tag k="ssr:stedsnr" v="368022" />
	</node>
	<node changeset="69962493" id="6454044764" lat="59.5333917" lon="10.7520917" timestamp="2019-05-07T07:16:15Z" uid="633013" user="Honning" version="1">
		<tag k="alt_name" v="Vines, søndre;Vines søndre" />
		<tag k="name" v="Søndre Vines" />
		<tag k="place" v="farm" />
		<tag k="ssr:stedsnr" v="368025" />
	</node>
	<node changeset="69962493" id="6454044765" lat="59.5885333" lon="10.8332333" timestamp="2019-05-07T07:16:15Z" uid="633013" user="Honning" version="1">
		<tag k="alt_name" v="Hestvet;Hestvet vestre" />
		<tag k="name" v="Vestre Hestvet" />
		<tag k="place" v="farm" />
		<tag k="ssr:stedsnr" v="368027" />
	</node>
	<node changeset="69962493" id="6454044766" lat="59.5997722" lon="10.8338278" timestamp="2019-05-07T07:16:15Z" uid="633013" user="Honning" version="1">
		<tag k="alt_name" v="Topper, østre;Topper østre" />
		<tag k="name" v="Østre Topper" />
		<tag k="place" v="farm" />
		<tag k="ssr:stedsnr" v="368170" />
	</node>
	<node changeset="69962493" id="6454044767" lat="59.5737028" lon="10.7656528" timestamp="2019-05-07T07:16:15Z" uid="633013" user="Honning" version="1">
		<tag k="name" v="Toødegården" />
		<tag k="place" v="farm" />
		<tag k="ssr:stedsnr" v="368188" />
	</node>
	<node changeset="69962493" id="6454044768" lat="59.5435028" lon="10.7665139" timestamp="2019-05-07T07:16:15Z" uid="633013" user="Honning" version="1">
		<tag k="name" v="Slottet" />
		<tag k="place" v="farm" />
		<tag k="ssr:stedsnr" v="368240" />
	</node>
	<node changeset="69962493" id="6454044769" lat="59.548925" lon="10.7558833" timestamp="2019-05-07T07:16:15Z" uid="633013" user="Honning" version="1">
		<tag k="name" v="Grorud" />
		<tag k="place" v="farm" />
		<tag k="ssr:stedsnr" v="368242" />
	</node>
	<node changeset="69962493" id="6454044770" lat="59.5390278" lon="10.7730278" timestamp="2019-05-07T07:16:15Z" uid="633013" user="Honning" version="1">
		<tag k="name" v="Gjestvang" />
		<tag k="place" v="isolated_dwelling" />
		<tag k="ssr:stedsnr" v="386107" />
	</node>
	<node changeset="69962493" id="6454044771" lat="59.5478056" lon="10.7736556" timestamp="2019-05-07T07:16:15Z" uid="633013" user="Honning" version="1">
		<tag k="name" v="Slottebråten" />
		<tag k="place" v="farm" />
		<tag k="ssr:stedsnr" v="386124" />
	</node>
	<node changeset="70217030" id="6454044772" lat="59.5260306" lon="10.7523444" timestamp="2019-05-14T05:08:47Z" uid="3497659" user="NKA" version="3">
		<tag k="alt_name" v="Såner ungd.skole" />
		<tag k="name" v="Gamle Såner ungdomsskole" />
		<tag k="place" v="locality" />
		<tag k="ssr:stedsnr" v="386133" />
		<tag k="was:amenity" v="school" />
	</node>
	<node changeset="69962493" id="6454044773" lat="59.5826528" lon="10.8134667" timestamp="2019-05-07T07:16:15Z" uid="633013" user="Honning" version="1">
		<tag k="name" v="Hov" />
		<tag k="place" v="farm" />
		<tag k="ssr:stedsnr" v="386168" />
	</node>
	<node changeset="69962493" id="6454044774" lat="59.5794333" lon="10.8102917" timestamp="2019-05-07T07:16:15Z" uid="633013" user="Honning" version="1">
		<tag k="name" v="Enerås" />
		<tag k="place" v="isolated_dwelling" />
		<tag k="ssr:stedsnr" v="386209" />
	</node>
	<node changeset="69962493" id="6454044775" lat="59.5719417" lon="10.8262556" timestamp="2019-05-07T07:16:15Z" uid="633013" user="Honning" version="1">
		<tag k="alt_name" v="Tom lille" />
		<tag k="name" v="Lille Tom" />
		<tag k="place" v="farm" />
		<tag k="ssr:stedsnr" v="386235" />
	</node>
	<node changeset="69962493" id="6454044776" lat="59.5722167" lon="10.7976278" timestamp="2019-05-07T07:16:15Z" uid="633013" user="Honning" version="1">
		<tag k="alt_name" v="Jordebru nordre" />
		<tag k="name" v="Nordre Jordebru" />
		<tag k="place" v="farm" />
		<tag k="ssr:stedsnr" v="386240" />
	</node>
	<node changeset="69962493" id="6454044777" lat="59.5516083" lon="10.7476" timestamp="2019-05-07T07:16:15Z" uid="633013" user="Honning" version="1">
		<tag k="name" v="Bylterudmyra" />
		<tag k="place" v="farm" />
		<tag k="ssr:stedsnr" v="387137" />
	</node>
	<node changeset="69962493" id="6454044778" lat="59.6062306" lon="10.7418944" timestamp="2019-05-07T07:16:15Z" uid="633013" user="Honning" version="1">
		<tag k="alt_name" v="Øvre Randem;Randum, østre; Øvre Randum" />
		<tag k="name" v="Randum nordre med Østby-ødegården" />
		<tag k="old_name" v="Østre Randum" />
		<tag k="place" v="farm" />
		<tag k="ssr:stedsnr" v="478123" />
	</node>
	<node changeset="69962493" id="6454044779" lat="59.4858583" lon="10.7234387" timestamp="2019-05-07T07:16:16Z" uid="633013" user="Honning" version="1">
		<tag k="amenity" v="cafe" />
		<tag k="name" v="Ødemørk" />
		<tag k="ssr:stedsnr" v="988109" />
	</node>
	<node changeset="69962493" id="6454044780" lat="59.5027241" lon="10.6890562" timestamp="2019-05-07T07:16:16Z" uid="633013" user="Honning" version="1">
		<tag k="name" v="Brevik" />
		<tag k="place" v="hamlet" />
		<tag k="ssr:stedsnr" v="2920" />
	</node>
	<node changeset="69962493" id="6454044781" lat="59.62015" lon="10.7958222" timestamp="2019-05-07T07:16:16Z" uid="633013" user="Honning" version="1">
		<tag k="name" v="Hol" />
		<tag k="place" v="farm" />
		<tag k="ssr:stedsnr" v="3311" />
	</node>
	<node changeset="69962493" id="6454044782" lat="59.614725" lon="10.7937306" timestamp="2019-05-07T07:16:16Z" uid="633013" user="Honning" version="1">
		<tag k="alt_name" v="Lesteberg, østre;Lesteberg østre" />
		<tag k="name" v="Østre Lesteberg" />
		<tag k="place" v="farm" />
		<tag k="ssr:stedsnr" v="3313" />
	</node>
	<node changeset="69962493" id="6454044783" lat="59.5031667" lon="10.7158917" timestamp="2019-05-07T07:16:16Z" uid="633013" user="Honning" version="1">
		<tag k="name" v="Smørbekk" />
		<tag k="place" v="farm" />
		<tag k="ssr:stedsnr" v="3455" />
	</node>
	<node changeset="69962493" id="6454044784" lat="59.5138578" lon="10.6869679" timestamp="2019-05-07T07:16:16Z" uid="633013" user="Honning" version="1">
		<tag k="alt_name" v="Brevik, nordre" />
		<tag k="name" v="Nordre Brevik" />
		<tag k="place" v="hamlet" />
		<tag k="ssr:stedsnr" v="3481" />
	</node>
	<node changeset="69962493" id="1742719089" lat="59.5842444" lon="10.7722861" timestamp="2019-05-07T07:16:26Z" uid="633013" user="Honning" version="2">
		<tag k="alt_name" v="Grønlund nordre" />
		<tag k="name" v="Nordre Grønlund" />
		<tag k="place" v="farm" />
		<tag k="source:name" v="Privat skilt" />
		<tag k="ssr:stedsnr" v="750137" />
	</node>
	<node changeset="69962493" id="1742719090" lat="59.5909861" lon="10.81995" timestamp="2019-05-07T07:16:26Z" uid="633013" user="Honning" version="2">
		<tag k="name" v="Haug" />
		<tag k="place" v="farm" />
		<tag k="ssr:stedsnr" v="732025" />
	</node>
	<node changeset="69962493" id="1742719091" lat="59.6033278" lon="10.8387861" timestamp="2019-05-07T07:16:26Z" uid="633013" user="Honning" version="2">
		<tag k="alt_name" v="Topper, nordre;Topper nordre" />
		<tag k="name" v="Nordre Topper" />
		<tag k="place" v="farm" />
		<tag k="source:name" v="Privat skilt v/avkjørsel fra FV." />
		<tag k="ssr:stedsnr" v="550144" />
	</node>
	<node changeset="69962493" id="1742719092" lat="59.5763694" lon="10.7757305" timestamp="2019-05-07T07:16:26Z" uid="633013" user="Honning" version="2">
		<tag k="alt_name" v="Rustad, midtre" />
		<tag k="name" v="Midtre Rustad" />
		<tag k="place" v="farm" />
		<tag k="source:name" v="Privat skilt." />
		<tag k="ssr:stedsnr" v="186154" />
	</node>
	<node changeset="69962493" id="1742719093" lat="59.6012722" lon="10.8287528" timestamp="2019-05-07T07:16:26Z" uid="633013" user="Honning" version="3">
		<tag k="alt_name" v="Topper, vestre;Topper vestre" />
		<tag k="name" v="Vestre Topper" />
		<tag k="place" v="farm" />
		<tag k="source:name" v="Privat skilt." />
		<tag k="ssr:stedsnr" v="732161" />
	</node>
	<node changeset="69962493" id="1742719094" lat="59.5860611" lon="10.7913889" timestamp="2019-05-07T07:16:26Z" uid="633013" user="Honning" version="3">
		<tag k="alt_name" v="Tuft;Tuft vestre" />
		<tag k="name" v="Vestre Tuft" />
		<tag k="place" v="farm" />
		<tag k="source:name" v="Vegskilt" />
		<tag k="ssr:stedsnr" v="914183" />
	</node>
	<node changeset="69962493" id="2490894470" lat="59.5247861" lon="10.6766667" timestamp="2019-05-07T07:16:27Z" uid="633013" user="Honning" version="3">
		<tag k="name" v="Laksa" />
		<tag k="place" v="farm" />
		<tag k="source:name" v="Road sign" />
		<tag k="ssr:stedsnr" v="609485" />
	</node>
	<node changeset="69962493" id="1706258592" lat="59.6004583" lon="10.7334611" timestamp="2019-05-07T07:16:24Z" uid="633013" user="Honning" version="2">
		<tag k="name" v="Revhaug" />
		<tag k="place" v="farm" />
		<tag k="source:name" v="Privat skilt." />
		<tag k="ssr:stedsnr" v="368167" />
	</node>
	<node changeset="69962493" id="1706258595" lat="59.5747083" lon="10.7119944" timestamp="2019-05-07T07:16:24Z" uid="633013" user="Honning" version="2">
		<tag k="name" v="Svartedal" />
		<tag k="place" v="farm" />
		<tag k="source:name" v="Privat skilt." />
		<tag k="ssr:stedsnr" v="543754" />
	</node>
	<node changeset="69962493" id="1706258599" lat="59.6035111" lon="10.7335667" timestamp="2019-05-07T07:16:24Z" uid="633013" user="Honning" version="2">
		<tag k="name" v="Vestby Prestegård" />
		<tag k="place" v="farm" />
		<tag k="ssr:stedsnr" v="629772" />
		<tag k="website" v="http://www.vestbyprestegaard.no/" />
	</node>
	<node changeset="69962493" id="6454044885" lat="59.6220167" lon="10.6918667" timestamp="2019-05-07T07:16:16Z" uid="633013" user="Honning" version="1">
		<tag k="name" v="Frydenlund" />
		<tag k="place" v="farm" />
		<tag k="ssr:stedsnr" v="3618" />
	</node>
	<node changeset="69962493" id="1742719190" lat="59.5868528" lon="10.815325" timestamp="2019-05-07T07:16:26Z" uid="633013" user="Honning" version="2">
		<tag k="alt_name" v="Kjærstad østre" />
		<tag k="name" v="Østre Kjærstad" />
		<tag k="place" v="farm" />
		<tag k="source:name" v="Vegskilt" />
		<tag k="ssr:stedsnr" v="326149" />
	</node>
	<node changeset="69962493" id="6454044887" lat="59.5365306" lon="10.7410722" timestamp="2019-05-07T07:16:16Z" uid="633013" user="Honning" version="1">
		<tag k="name" v="Bommen" />
		<tag k="place" v="farm" />
		<tag k="ssr:stedsnr" v="4021" />
	</node>
	<node changeset="69962493" id="6454044888" lat="59.5381194" lon="10.7797861" timestamp="2019-05-07T07:16:16Z" uid="633013" user="Honning" version="1">
		<tag k="alt_name" v="Holm, søndre;Holm søndre" />
		<tag k="name" v="Søndre Holm" />
		<tag k="old_name" v="Nordre Holm" />
		<tag k="place" v="farm" />
		<tag k="ssr:stedsnr" v="4024" />
	</node>
	<node changeset="69962493" id="6454044889" lat="59.5239167" lon="10.7460667" timestamp="2019-05-07T07:16:16Z" uid="633013" user="Honning" version="1">
		<tag k="alt_name" v="Ek;Ek nordre" />
		<tag k="name" v="Nordre Ek" />
		<tag k="place" v="farm" />
		<tag k="ssr:stedsnr" v="4046" />
	</node>
	<node changeset="69962493" id="6454044890" lat="59.6040889" lon="10.7687583" timestamp="2019-05-07T07:16:16Z" uid="633013" user="Honning" version="1">
		<tag k="alt_name" v="Ålerød, søndre;Ålerud søndre" />
		<tag k="name" v="Søndre Ålerød" />
		<tag k="place" v="farm" />
		<tag k="ssr:stedsnr" v="4146" />
	</node>
	<node changeset="69962493" id="6454044891" lat="59.571375" lon="10.7492611" timestamp="2019-05-07T07:16:16Z" uid="633013" user="Honning" version="1">
		<tag k="name" v="Todammen" />
		<tag k="place" v="isolated_dwelling" />
		<tag k="ssr:stedsnr" v="4174" />
	</node>
	<node changeset="69962493" id="2490833116" lat="59.51825" lon="10.70565" timestamp="2019-05-07T07:16:27Z" uid="633013" user="Honning" version="2">
		<tag k="name" v="Sletta" />
		<tag k="place" v="farm" />
		<tag k="source:name" v="Road sign" />
		<tag k="ssr:stedsnr" v="609481" />
	</node>
	<node changeset="69962493" id="6454044893" lat="59.5732306" lon="10.8356583" timestamp="2019-05-07T07:16:16Z" uid="633013" user="Honning" version="1">
		<tag k="alt_name" v="Tom, søndre;Tom søndre;Lille Tom;Tom lille" />
		<tag k="name" v="Søndre Tom" />
		<tag k="place" v="farm" />
		<tag k="ssr:stedsnr" v="4212" />
	</node>
	<node changeset="69962493" id="6454044894" lat="59.5375" lon="10.7183056" timestamp="2019-05-07T07:16:16Z" uid="633013" user="Honning" version="1">
		<tag k="name" v="Øgården" />
		<tag k="place" v="farm" />
		<tag k="ssr:stedsnr" v="22097" />
	</node>
	<node changeset="69962493" id="6454044895" lat="59.5409833" lon="10.7208417" timestamp="2019-05-07T07:16:16Z" uid="633013" user="Honning" version="1">
		<tag k="alt_name" v="Gjølstad søndre" />
		<tag k="name" v="Søndre Gjølstad" />
		<tag k="place" v="farm" />
		<tag k="ssr:stedsnr" v="22098" />
	</node>
	<node changeset="69962493" id="6454044896" lat="59.5246722" lon="10.7195417" timestamp="2019-05-07T07:16:17Z" uid="633013" user="Honning" version="1">
		<tag k="name" v="Solvang" />
		<tag k="place" v="farm" />
		<tag k="ssr:stedsnr" v="22128" />
	</node>
	<node changeset="69962493" id="6454044897" lat="59.571375" lon="10.8039667" timestamp="2019-05-07T07:16:17Z" uid="633013" user="Honning" version="1">
		<tag k="name" v="Fjellberg" />
		<tag k="place" v="isolated_dwelling" />
		<tag k="ssr:stedsnr" v="22220" />
	</node>
	<node changeset="69962493" id="6454044898" lat="59.5517389" lon="10.7498944" timestamp="2019-05-07T07:16:17Z" uid="633013" user="Honning" version="1">
		<tag k="name" v="Fjell" />
		<tag k="place" v="farm" />
		<tag k="ssr:stedsnr" v="23131" />
	</node>
	<node changeset="69962493" id="6454044899" lat="59.5845639" lon="10.6567611" timestamp="2019-05-07T07:16:17Z" uid="633013" user="Honning" version="1">
		<tag k="name" v="Mølen" />
		<tag k="place" v="farm" />
		<tag k="ssr:stedsnr" v="26927" />
	</node>
	<node changeset="69962493" id="6454044900" lat="59.5474139" lon="10.6981528" timestamp="2019-05-07T07:16:17Z" uid="633013" user="Honning" version="1">
		<tag k="name" v="Villa Granholt" />
		<tag k="place" v="isolated_dwelling" />
		<tag k="ssr:stedsnr" v="56262" />
	</node>
	<node changeset="69962493" id="6454044901" lat="59.5204444" lon="10.7006167" timestamp="2019-05-07T07:16:17Z" uid="633013" user="Honning" version="1">
		<tag k="name" v="Solhøy" />
		<tag k="place" v="farm" />
		<tag k="ssr:stedsnr" v="56409" />
	</node>
	<node changeset="69962493" id="6454044902" lat="59.5228806" lon="10.6699444" timestamp="2019-05-07T07:16:17Z" uid="633013" user="Honning" version="1">
		<tag k="name" v="Blåstua" />
		<tag k="place" v="isolated_dwelling" />
		<tag k="ssr:stedsnr" v="56414" />
	</node>
	<node changeset="69962493" id="6454044903" lat="59.4971653" lon="10.6847516" timestamp="2019-05-07T07:16:17Z" uid="633013" user="Honning" version="1">
		<tag k="alt_name" v="Brevik vestre" />
		<tag k="name" v="Vestre Brevik" />
		<tag k="place" v="farm" />
		<tag k="ssr:stedsnr" v="56458" />
	</node>
	<node changeset="69962493" id="1734459624" lat="59.522725" lon="10.7532639" timestamp="2019-05-07T07:16:25Z" uid="633013" user="Honning" version="2">
		<tag k="name" v="Råer" />
		<tag k="place" v="farm" />
		<tag k="source:name" v="Privat skilt." />
		<tag k="ssr:stedsnr" v="854034" />
	</node>
	<node changeset="69962493" id="6454044905" lat="59.5978028" lon="10.7098361" timestamp="2019-05-07T07:16:17Z" uid="633013" user="Honning" version="1">
		<tag k="amenity" v="sports_centre" />
		<tag k="name" v="Vestbyhallen" />
		<tag k="ssr:stedsnr" v="57107" />
	</node>
	<node changeset="69962493" id="6454044906" lat="59.6085361" lon="10.6806972" timestamp="2019-05-07T07:16:17Z" uid="633013" user="Honning" version="1">
		<tag k="name" v="Nordre Knalstad" />
		<tag k="place" v="farm" />
		<tag k="ssr:stedsnr" v="57127" />
	</node>
	<node changeset="69962493" id="6454044907" lat="59.6153444" lon="10.7125556" timestamp="2019-05-07T07:16:17Z" uid="633013" user="Honning" version="1">
		<tag k="name" v="Tømmerås" />
		<tag k="place" v="locality" />
		<tag k="ssr:stedsnr" v="58166" />
	</node>
	<node changeset="69962493" id="6454044908" lat="59.6395472" lon="10.6934417" timestamp="2019-05-07T07:16:17Z" uid="633013" user="Honning" version="1">
		<tag k="name" v="Toje" />
		<tag k="place" v="isolated_dwelling" />
		<tag k="ssr:stedsnr" v="58548" />
	</node>
	<node changeset="69962493" id="6454044909" lat="59.5575417" lon="10.7141833" timestamp="2019-05-07T07:16:17Z" uid="633013" user="Honning" version="1">
		<tag k="name" v="Nordre Klokkerud" />
		<tag k="place" v="farm" />
		<tag k="ssr:stedsnr" v="58560" />
	</node>
	<node changeset="69962493" id="6454044910" lat="59.5554917" lon="10.7124694" timestamp="2019-05-07T07:16:17Z" uid="633013" user="Honning" version="1">
		<tag k="name" v="Søndre Klokkerud" />
		<tag k="place" v="farm" />
		<tag k="ssr:stedsnr" v="58561" />
	</node>
	<node changeset="69962493" id="6454044911" lat="59.5831556" lon="10.6564972" timestamp="2019-05-07T07:16:17Z" uid="633013" user="Honning" version="1">
		<tag k="name" v="Bråten" />
		<tag k="place" v="farm" />
		<tag k="ssr:stedsnr" v="58562" />
	</node>
	<node changeset="69962493" id="6454044912" lat="59.5925889" lon="10.6528333" timestamp="2019-05-07T07:16:17Z" uid="633013" user="Honning" version="1">
		<tag k="name" v="Katten" />
		<tag k="place" v="isolated_dwelling" />
		<tag k="ssr:stedsnr" v="63737" />
	</node>
	<node changeset="69962493" id="6454044913" lat="59.59405" lon="10.7363444" timestamp="2019-05-07T07:16:17Z" uid="633013" user="Honning" version="1">
		<tag k="alt_name" v="Rød;Rød nedre" />
		<tag k="name" v="Nedre Rød" />
		<tag k="place" v="farm" />
		<tag k="ssr:stedsnr" v="64028" />
	</node>
	<node changeset="69962493" id="6454044914" lat="59.5123778" lon="10.7442833" timestamp="2019-05-07T07:16:17Z" uid="633013" user="Honning" version="1">
		<tag k="alt_name" v="Langerød, nordre;Langerud nordre" />
		<tag k="name" v="Nordre Langerud" />
		<tag k="place" v="farm" />
		<tag k="ssr:stedsnr" v="64034" />
	</node>
	<node changeset="69962493" id="6454044915" lat="59.5672417" lon="10.749175" timestamp="2019-05-07T07:16:18Z" uid="633013" user="Honning" version="1">
		<tag k="name" v="Langeli" />
		<tag k="place" v="farm" />
		<tag k="ssr:stedsnr" v="64190" />
	</node>
	<node changeset="69962493" id="6454044916" lat="59.549925" lon="10.738525" timestamp="2019-05-07T07:16:18Z" uid="633013" user="Honning" version="1">
		<tag k="name" v="Andbekk" />
		<tag k="place" v="farm" />
		<tag k="ssr:stedsnr" v="64218" />
	</node>
	<node changeset="69962493" id="6454044917" lat="59.6305722" lon="10.7196389" timestamp="2019-05-07T07:16:18Z" uid="633013" user="Honning" version="1">
		<tag k="name" v="Hvitsten" />
		<tag k="place" v="farm" />
		<tag k="ssr:stedsnr" v="64316" />
	</node>
	<node changeset="69962493" id="6454044919" lat="59.530375" lon="10.7013417" timestamp="2019-05-07T07:16:18Z" uid="633013" user="Honning" version="1">
		<tag k="name" v="Labu" />
		<tag k="place" v="hamlet" />
		<tag k="ssr:stedsnr" v="64533" />
	</node>
	<node changeset="69962493" id="6454044920" lat="59.6065306" lon="10.7037944" timestamp="2019-05-07T07:16:18Z" uid="633013" user="Honning" version="1">
		<tag k="name" v="Pepperstad" />
		<tag k="place" v="farm" />
		<tag k="ssr:stedsnr" v="64618" />
	</node>
	<node changeset="69962493" id="6454044921" lat="59.6207194" lon="10.6831139" timestamp="2019-05-07T07:16:18Z" uid="633013" user="Honning" version="1">
		<tag k="name" v="Ørebekk" />
		<tag k="place" v="farm" />
		<tag k="ssr:stedsnr" v="64659" />
	</node>
	<node changeset="79875501" id="6454044922" lat="59.6369449" lon="10.7015846" timestamp="2020-01-21T19:59:13Z" uid="3497659" user="NKA" version="2">
		<tag k="name" v="Vastad" />
		<tag k="place" v="hamlet" />
		<tag k="ssr:stedsnr" v="64688" />
	</node>
	<node changeset="69962493" id="6454044923" lat="59.5636639" lon="10.6566528" timestamp="2019-05-07T07:16:18Z" uid="633013" user="Honning" version="1">
		<tag k="name" v="Kroken" />
		<tag k="place" v="farm" />
		<tag k="ssr:stedsnr" v="64713" />
	</node>
	<node changeset="69962493" id="6454044924" lat="59.53565" lon="10.7511305" timestamp="2019-05-07T07:16:18Z" uid="633013" user="Honning" version="1">
		<tag k="alt_name" v="Vines, nordre;Vines nordre" />
		<tag k="name" v="Nordre Vines" />
		<tag k="place" v="farm" />
		<tag k="ssr:stedsnr" v="65015" />
	</node>
	<node changeset="69962493" id="6454044925" lat="59.5837278" lon="10.8321861" timestamp="2019-05-07T07:16:18Z" uid="633013" user="Honning" version="1">
		<tag k="name" v="Grønlia" />
		<tag k="place" v="farm" />
		<tag k="ssr:stedsnr" v="65165" />
	</node>
	<node changeset="69962493" id="6454044926" lat="59.5596722" lon="10.7754917" timestamp="2019-05-07T07:16:18Z" uid="633013" user="Honning" version="1">
		<tag k="name" v="Bergli" />
		<tag k="place" v="hamlet" />
		<tag k="ssr:stedsnr" v="83176" />
	</node>
	<node changeset="69962493" id="6454044927" lat="59.5812639" lon="10.8078139" timestamp="2019-05-07T07:16:18Z" uid="633013" user="Honning" version="1">
		<tag k="amenity" v="nursing_home" />
		<tag k="name" v="Gardarheim" />
		<tag k="ssr:stedsnr" v="83186" />
	</node>
	<node changeset="69962493" id="6454044928" lat="59.6289056" lon="10.7325611" timestamp="2019-05-07T07:16:18Z" uid="633013" user="Honning" version="1">
		<tag k="name" v="Sørli" />
		<tag k="place" v="farm" />
		<tag k="ssr:stedsnr" v="83207" />
	</node>
	<node changeset="69962493" id="6454044929" lat="59.5868" lon="10.6559139" timestamp="2019-05-07T07:16:18Z" uid="633013" user="Honning" version="1">
		<tag k="name" v="Holen" />
		<tag k="place" v="neighbourhood" />
		<tag k="ssr:stedsnr" v="87927" />
	</node>
	<node changeset="69962493" id="6454044930" lat="59.5776333" lon="10.7743667" timestamp="2019-05-07T07:16:18Z" uid="633013" user="Honning" version="1">
		<tag k="name" v="Vestre Rustad" />
		<tag k="place" v="farm" />
		<tag k="ssr:stedsnr" v="102588" />
	</node>
	<node changeset="69962493" id="6454044931" lat="59.5288806" lon="10.6936861" timestamp="2019-05-07T07:16:18Z" uid="633013" user="Honning" version="1">
		<tag k="name" v="Verket" />
		<tag k="place" v="farm" />
		<tag k="ssr:stedsnr" v="117420" />
	</node>
	<node changeset="69962493" id="6454044932" lat="59.4945611" lon="10.708075" timestamp="2019-05-07T07:16:18Z" uid="633013" user="Honning" version="1">
		<tag k="alt_name" v="Rød søndre" />
		<tag k="name" v="Søndre Rød" />
		<tag k="place" v="farm" />
		<tag k="ssr:stedsnr" v="117628" />
	</node>
	<node changeset="69962493" id="6454044933" lat="59.6303111" lon="10.7122" timestamp="2019-05-07T07:16:19Z" uid="633013" user="Honning" version="1">
		<tag k="name" v="Hvitstenhytta" />
		<tag k="place" v="isolated_dwelling" />
		<tag k="ssr:stedsnr" v="119175" />
	</node>
	<node changeset="69962493" id="6454044934" lat="59.6246778" lon="10.7236083" timestamp="2019-05-07T07:16:19Z" uid="633013" user="Honning" version="1">
		<tag k="name" v="Smedsrud" />
		<tag k="place" v="farm" />
		<tag k="ssr:stedsnr" v="124260" />
	</node>
	<node changeset="69962493" id="6454044935" lat="59.6205028" lon="10.8183917" timestamp="2019-05-07T07:16:19Z" uid="633013" user="Honning" version="1">
		<tag k="name" v="Teigen" />
		<tag k="place" v="farm" />
		<tag k="ssr:stedsnr" v="124296" />
	</node>
	<node changeset="69962493" id="6454044936" lat="59.5231333" lon="10.6859194" timestamp="2019-05-07T07:16:19Z" uid="633013" user="Honning" version="1">
		<tag k="name" v="Son" />
		<tag k="place" v="village" />
		<tag k="ssr:stedsnr" v="124460" />
	</node>
	<node changeset="69962493" id="6454044937" lat="59.5407361" lon="10.7095083" timestamp="2019-05-07T07:16:19Z" uid="633013" user="Honning" version="1">
		<tag k="name" v="Finstad" />
		<tag k="place" v="farm" />
		<tag k="ssr:stedsnr" v="124476" />
	</node>
	<node changeset="69962493" id="6454044938" lat="59.5502917" lon="10.7165222" timestamp="2019-05-07T07:16:19Z" uid="633013" user="Honning" version="1">
		<tag k="name" v="Dyrendal" />
		<tag k="place" v="farm" />
		<tag k="ssr:stedsnr" v="124498" />
	</node>
	<node changeset="69962493" id="6454044939" lat="59.5526167" lon="10.7172611" timestamp="2019-05-07T07:16:19Z" uid="633013" user="Honning" version="1">
		<tag k="name" v="Kolåsbråten" />
		<tag k="place" v="farm" />
		<tag k="ssr:stedsnr" v="124628" />
	</node>
	<node changeset="69962493" id="6454044940" lat="59.4859066" lon="10.7234163" timestamp="2019-05-07T07:16:19Z" uid="633013" user="Honning" version="1">
		<tag k="name" v="Mørk" />
		<tag k="place" v="farm" />
		<tag k="ssr:stedsnr" v="124627" />
	</node>
	<node changeset="69962493" id="6454044941" lat="59.5927722" lon="10.6848" timestamp="2019-05-07T07:16:19Z" uid="633013" user="Honning" version="1">
		<tag k="name" v="Solberg" />
		<tag k="place" v="farm" />
		<tag k="ssr:stedsnr" v="124696" />
	</node>
	<node changeset="69962493" id="6454044942" lat="59.5057514" lon="10.7598636" timestamp="2019-05-07T07:16:19Z" uid="633013" user="Honning" version="1">
		<tag k="name" v="Vandrås" />
		<tag k="place" v="farm" />
		<tag k="ssr:stedsnr" v="125094" />
	</node>
	<node changeset="69962493" id="6454044943" lat="59.5918861" lon="10.7466083" timestamp="2019-05-07T07:16:19Z" uid="633013" user="Honning" version="1">
		<tag k="name" v="Sønsteby" />
		<tag k="place" v="farm" />
		<tag k="ssr:stedsnr" v="125134" />
	</node>
	<node changeset="69962493" id="6454044944" lat="59.5984111" lon="10.8407639" timestamp="2019-05-07T07:16:19Z" uid="633013" user="Honning" version="1">
		<tag k="name" v="Hestvetødegården" />
		<tag k="place" v="farm" />
		<tag k="ssr:stedsnr" v="125138" />
	</node>
	<node changeset="69962493" id="6454044945" lat="59.5828333" lon="10.7918139" timestamp="2019-05-07T07:16:19Z" uid="633013" user="Honning" version="1">
		<tag k="alt_name" v="Bjørkeskog;Bjerkeskog" />
		<tag k="name" v="Bjerkeskau" />
		<tag k="place" v="farm" />
		<tag k="ssr:stedsnr" v="125178" />
	</node>
	<node changeset="69962493" id="6454044946" lat="59.5782556" lon="10.7327444" timestamp="2019-05-07T07:16:19Z" uid="633013" user="Honning" version="1">
		<tag k="name" v="Rustad" />
		<tag k="place" v="farm" />
		<tag k="ssr:stedsnr" v="125194" />
	</node>
	<node changeset="69962493" id="6454044947" lat="59.5796" lon="10.7296083" timestamp="2019-05-07T07:16:19Z" uid="633013" user="Honning" version="1">
		<tag k="name" v="Rødsbråten" />
		<tag k="place" v="farm" />
		<tag k="ssr:stedsnr" v="125195" />
	</node>
	<node changeset="69962493" id="6454044948" lat="59.5618778" lon="10.7429361" timestamp="2019-05-07T07:16:19Z" uid="633013" user="Honning" version="1">
		<tag k="alt_name" v="Bylterud, søndre;Bylterød søndre" />
		<tag k="name" v="Søndre Bylterud" />
		<tag k="place" v="farm" />
		<tag k="ssr:stedsnr" v="125223" />
	</node>
	<node changeset="69962493" id="6454044949" lat="59.5829917" lon="10.7496444" timestamp="2019-05-07T07:16:19Z" uid="633013" user="Honning" version="1">
		<tag k="alt_name" v="Røddal vestre" />
		<tag k="name" v="Vestre Røddal" />
		<tag k="place" v="farm" />
		<tag k="ssr:stedsnr" v="143132" />
	</node>
	<node changeset="69962493" id="6454044950" lat="59.627025" lon="10.7288806" timestamp="2019-05-07T07:16:19Z" uid="633013" user="Honning" version="1">
		<tag k="name" v="Gyldendal" />
		<tag k="place" v="isolated_dwelling" />
		<tag k="ssr:stedsnr" v="143187" />
	</node>
	<node changeset="69962493" id="6454044951" lat="59.5690139" lon="10.8231083" timestamp="2019-05-07T07:16:20Z" uid="633013" user="Honning" version="1">
		<tag k="alt_name" v="Florud nedre;Flårud" />
		<tag k="name" v="Nedre Florud" />
		<tag k="place" v="farm" />
		<tag k="ssr:stedsnr" v="143206" />
	</node>
	<node changeset="69962493" id="6454044952" lat="59.5632528" lon="10.8006722" timestamp="2019-05-07T07:16:20Z" uid="633013" user="Honning" version="1">
		<tag k="alt_name" v="Oksa nedre" />
		<tag k="name" v="Nedre Oksa" />
		<tag k="place" v="farm" />
		<tag k="ssr:stedsnr" v="143213" />
	</node>
	<node changeset="69962493" id="6454044953" lat="59.6205194" lon="10.7396444" timestamp="2019-05-07T07:16:20Z" uid="633013" user="Honning" version="1">
		<tag k="name" v="Verpet" />
		<tag k="place" v="village" />
		<tag k="ssr:stedsnr" v="143216" />
	</node>
	<node changeset="69962493" id="6454044954" lat="59.5635056" lon="10.7367361" timestamp="2019-05-07T07:16:20Z" uid="633013" user="Honning" version="1">
		<tag k="name" v="Fløyta" />
		<tag k="old_name" v="Fløiten;Flöjta" />
		<tag k="place" v="farm" />
		<tag k="ssr:stedsnr" v="176234" />
	</node>
	<node changeset="69962493" id="6454044955" lat="59.5207194" lon="10.6842083" timestamp="2019-05-07T07:16:20Z" uid="633013" user="Honning" version="1">
		<tag k="name" v="Stenløkka" />
		<tag k="place" v="hamlet" />
		<tag k="ssr:stedsnr" v="177412" />
	</node>
	<node changeset="69962493" id="6454044956" lat="59.5045194" lon="10.6839667" timestamp="2019-05-07T07:16:20Z" uid="633013" user="Honning" version="1">
		<tag k="name" v="Sollia" />
		<tag k="place" v="hamlet" />
		<tag k="ssr:stedsnr" v="177454" />
	</node>
	<node changeset="69962493" id="6454044958" lat="59.5340667" lon="10.7058639" timestamp="2019-05-07T07:16:20Z" uid="633013" user="Honning" version="1">
		<tag k="name" v="Århus" />
		<tag k="place" v="hamlet" />
		<tag k="ssr:stedsnr" v="178272" />
	</node>
	<node changeset="69962493" id="6454044959" lat="59.4863889" lon="10.7168806" timestamp="2019-05-07T07:16:20Z" uid="633013" user="Honning" version="1">
		<tag k="name" v="Vestjordet" />
		<tag k="place" v="locality" />
		<tag k="ssr:stedsnr" v="178601" />
	</node>
	<node changeset="69963260" id="6454044960" lat="59.545207" lon="10.6568362" timestamp="2019-05-07T07:39:35Z" uid="633013" user="Honning" version="2" />
	<node changeset="76011763" id="6454044961" lat="59.5126037" lon="10.7360002" timestamp="2019-10-21T17:44:27Z" uid="633013" user="Honning" version="2" />
	<node changeset="69962493" id="6454044962" lat="59.6079889" lon="10.7276111" timestamp="2019-05-07T07:16:20Z" uid="633013" user="Honning" version="1">
		<tag k="name" v="Hagen" />
		<tag k="place" v="farm" />
		<tag k="ssr:stedsnr" v="185349" />
	</node>
	<node changeset="69962493" id="6454044963" lat="59.5377583" lon="10.6660806" timestamp="2019-05-07T07:16:20Z" uid="633013" user="Honning" version="1">
		<tag k="name" v="Kjøvangen" />
		<tag k="place" v="hamlet" />
		<tag k="ssr:stedsnr" v="185486" />
	</node>
	<node changeset="69962493" id="6454044964" lat="59.5467042" lon="10.6851792" timestamp="2019-05-07T07:16:20Z" uid="633013" user="Honning" version="1">
		<tag k="name" v="Roastad" />
		<tag k="place" v="farm" />
		<tag k="ssr:stedsnr" v="185501" />
	</node>
	<node changeset="69962493" id="6454044965" lat="59.6326167" lon="10.6952028" timestamp="2019-05-07T07:16:20Z" uid="633013" user="Honning" version="1">
		<tag k="name" v="Haugen" />
		<tag k="place" v="farm" />
		<tag k="ssr:stedsnr" v="185627" />
	</node>
	<node changeset="69962493" id="6454044966" lat="59.5952417" lon="10.7474167" timestamp="2019-05-07T07:16:20Z" uid="633013" user="Honning" version="1">
		<tag k="name" v="Søndre Sundby" />
		<tag k="place" v="isolated_dwelling" />
		<tag k="ssr:stedsnr" v="204126" />
	</node>
	<node changeset="69962493" id="1724369191" lat="59.6004472" lon="10.7235389" timestamp="2019-05-07T07:16:25Z" uid="633013" user="Honning" version="2">
		<tag k="name" v="Bjørlien" />
		<tag k="place" v="farm" />
		<tag k="source:name" v="Privat skilt." />
		<tag k="ssr:stedsnr" v="64138" />
	</node>
	<node changeset="69962493" id="6454044968" lat="59.5710917" lon="10.7960472" timestamp="2019-05-07T07:16:20Z" uid="633013" user="Honning" version="1">
		<tag k="alt_name" v="Jordebru søndre" />
		<tag k="name" v="Søndre Jordebru" />
		<tag k="place" v="farm" />
		<tag k="ssr:stedsnr" v="204203" />
	</node>
	<node changeset="69962493" id="6454044969" lat="59.5950056" lon="10.8247222" timestamp="2019-05-07T07:16:21Z" uid="633013" user="Honning" version="1">
		<tag k="name" v="Haug" />
		<tag k="place" v="isolated_dwelling" />
		<tag k="ssr:stedsnr" v="204819" />
	</node>
	<node changeset="69962493" id="6454044970" lat="59.5085361" lon="10.7204361" timestamp="2019-05-07T07:16:21Z" uid="633013" user="Honning" version="1">
		<tag k="name" v="Tegnebyengen" />
		<tag k="place" v="farm" />
		<tag k="ssr:stedsnr" v="205071" />
	</node>
	<node changeset="69962493" id="6454044971" lat="59.604575" lon="10.655175" timestamp="2019-05-07T07:16:21Z" uid="633013" user="Honning" version="1">
		<tag k="name" v="Rammebråten" />
		<tag k="place" v="farm" />
		<tag k="ssr:stedsnr" v="207006" />
	</node>
	<node changeset="69962493" id="6454044972" lat="59.5462861" lon="10.6950361" timestamp="2019-05-07T07:16:21Z" uid="633013" user="Honning" version="1">
		<tag k="name" v="Mellom-Mørk" />
		<tag k="place" v="farm" />
		<tag k="ssr:stedsnr" v="207178" />
	</node>
	<node changeset="69962493" id="6454044722" lat="59.4960944" lon="10.6923611" timestamp="2019-05-07T07:16:12Z" uid="633013" user="Honning" version="1">
		<tag k="name" v="Lundeåsen" />
		<tag k="place" v="quarter" />
		<tag k="ssr:stedsnr" v="299465" />
	</node>
	<node changeset="69962493" id="6454044974" lat="59.5661944" lon="10.6522389" timestamp="2019-05-07T07:16:21Z" uid="633013" user="Honning" version="1">
		<tag k="alt_name" v="Ingerløkka" />
		<tag k="name" v="Ingersløkka" />
		<tag k="place" v="farm" />
		<tag k="ssr:stedsnr" v="210883" />
	</node>
	<node changeset="69962493" id="6454044975" lat="59.53075" lon="10.6880333" timestamp="2019-05-07T07:16:21Z" uid="633013" user="Honning" version="1">
		<tag k="alt_name" v="Kålås nedre;Nedre Kålås" />
		<tag k="name" v="Nedre Kolås" />
		<tag k="place" v="farm" />
		<tag k="ssr:stedsnr" v="238407" />
	</node>
	<node changeset="75906820" id="6454044976" lat="59.4919715" lon="10.7027063" timestamp="2019-10-18T17:03:28Z" uid="633013" user="Honning" version="2">
		<tag k="name" v="Rødkind" />
		<tag k="place" v="isolated_dwelling" />
		<tag k="ssr:stedsnr" v="238630" />
	</node>
	<node changeset="69962493" id="1724369202" lat="59.6159972" lon="10.6934611" timestamp="2019-05-07T07:16:25Z" uid="633013" user="Honning" version="2">
		<tag k="name" v="Grønberg" />
		<tag k="place" v="farm" />
		<tag k="ssr:stedsnr" v="306611" />
	</node>
	<node changeset="69962493" id="6454044979" lat="59.6030111" lon="10.6658556" timestamp="2019-05-07T07:16:21Z" uid="633013" user="Honning" version="1">
		<tag k="name" v="Grinda" />
		<tag k="place" v="farm" />
		<tag k="ssr:stedsnr" v="239154" />
	</node>
	<node changeset="69962493" id="6454044980" lat="59.6359028" lon="10.7008305" timestamp="2019-05-07T07:16:21Z" uid="633013" user="Honning" version="1">
		<tag k="alt_name" v="Vastad søndre" />
		<tag k="name" v="Søndre Vastad" />
		<tag k="place" v="farm" />
		<tag k="ssr:stedsnr" v="240178" />
	</node>
	<node changeset="69962493" id="1724369205" lat="59.6095194" lon="10.7152139" timestamp="2019-05-07T07:16:25Z" uid="633013" user="Honning" version="2">
		<tag k="alt_name" v="Hannastad" />
		<tag k="name" v="Hannestad" />
		<tag k="place" v="farm" />
		<tag k="ssr:stedsnr" v="792620" />
	</node>
	<node changeset="69962493" id="6454044982" lat="59.5720889" lon="10.7193667" timestamp="2019-05-07T07:16:21Z" uid="633013" user="Honning" version="1">
		<tag k="name" v="Nordre Tømt" />
		<tag k="place" v="farm" />
		<tag k="ssr:stedsnr" v="240561" />
	</node>
	<node changeset="69962493" id="1724369207" lat="59.63045" lon="10.6912972" timestamp="2019-05-07T07:16:25Z" uid="633013" user="Honning" version="2">
		<tag k="name" v="Pyth" />
		<tag k="place" v="farm" />
		<tag k="source:name" v="Privat skilt." />
		<tag k="ssr:stedsnr" v="428642" />
	</node>
	<node changeset="69962493" id="6454044984" lat="59.5085546" lon="10.7034389" timestamp="2019-05-07T07:16:21Z" uid="633013" user="Honning" version="1">
		<tag k="name" v="Brevikbråten" />
		<tag k="place" v="farm" />
		<tag k="ssr:stedsnr" v="245508" />
	</node>
	<node changeset="69962493" id="6454044985" lat="59.4992162" lon="10.7090928" timestamp="2019-05-07T07:16:21Z" uid="633013" user="Honning" version="1">
		<tag k="name" v="Rød" />
		<tag k="place" v="hamlet" />
		<tag k="ssr:stedsnr" v="245914" />
	</node>
	<node changeset="69962493" id="6454044986" lat="59.5833861" lon="10.8165889" timestamp="2019-05-07T07:16:22Z" uid="633013" user="Honning" version="1">
		<tag k="alt_name" v="Hovum;Hovum nordre" />
		<tag k="name" v="Nordre Hovum" />
		<tag k="place" v="farm" />
		<tag k="ssr:stedsnr" v="246035" />
	</node>
	<node changeset="69962493" id="6454044987" lat="59.50745" lon="10.76725" timestamp="2019-05-07T07:16:22Z" uid="633013" user="Honning" version="1">
		<tag k="alt_name" v="Raknerud" />
		<tag k="name" v="Raknerød" />
		<tag k="place" v="farm" />
		<tag k="ssr:stedsnr" v="246044" />
	</node>
	<node changeset="69962493" id="6454044988" lat="59.5962" lon="10.7482667" timestamp="2019-05-07T07:16:22Z" uid="633013" user="Honning" version="1">
		<tag k="name" v="Sundby" />
		<tag k="place" v="farm" />
		<tag k="ssr:stedsnr" v="246132" />
	</node>
	<node changeset="70216862" id="6454044989" lat="59.5989417" lon="10.7536016" timestamp="2019-05-14T05:00:17Z" uid="3497659" user="NKA" version="2">
		<tag k="alt_name" v="Follo Folkehøgskole" />
		<tag k="amenity" v="school" />
		<tag k="name" v="Follo folkehøgskole" />
		<tag k="ssr:stedsnr" v="246143" />
	</node>
	<node changeset="69962493" id="6454044990" lat="59.5667806" lon="10.8055083" timestamp="2019-05-07T07:16:22Z" uid="633013" user="Honning" version="1">
		<tag k="name" v="Garderhagen" />
		<tag k="place" v="farm" />
		<tag k="ssr:stedsnr" v="246200" />
	</node>
	<node changeset="69962493" id="6454044991" lat="59.5641556" lon="10.7493889" timestamp="2019-05-07T07:16:22Z" uid="633013" user="Honning" version="1">
		<tag k="alt_name" v="Bylterud, østre;Bylterød østre;Bylterud østre" />
		<tag k="name" v="Østre Bylterud" />
		<tag k="place" v="farm" />
		<tag k="ssr:stedsnr" v="246209" />
	</node>
	<node changeset="69962493" id="6454044992" lat="59.5559806" lon="10.7722639" timestamp="2019-05-07T07:16:22Z" uid="633013" user="Honning" version="1">
		<tag k="name" v="Åmotbråten" />
		<tag k="old_name" v="Aamot store; Store Aamot" />
		<tag k="place" v="farm" />
		<tag k="ssr:stedsnr" v="246236" />
	</node>
	<node changeset="69962493" id="6454044993" lat="59.631225" lon="10.7626778" timestamp="2019-05-07T07:16:22Z" uid="633013" user="Honning" version="1">
		<tag k="alt_name" v="Støttumtangen" />
		<tag k="name" v="Tangen" />
		<tag k="place" v="farm" />
		<tag k="ssr:stedsnr" v="246298" />
	</node>
	<node changeset="69962493" id="6454044994" lat="59.5264278" lon="10.7012" timestamp="2019-05-07T07:16:22Z" uid="633013" user="Honning" version="1">
		<tag k="name" v="Strømbråten" />
		<tag k="place" v="village" />
		<tag k="ssr:stedsnr" v="246509" />
	</node>
	<node changeset="69962493" id="6454044995" lat="59.6072248" lon="10.6800608" timestamp="2019-05-07T07:16:22Z" uid="633013" user="Honning" version="1">
		<tag k="name" v="Knallstad" />
		<tag k="place" v="hamlet" />
		<tag k="ssr:stedsnr" v="246608" />
	</node>
	<node changeset="69962493" id="6454044996" lat="59.6228333" lon="10.7148167" timestamp="2019-05-07T07:16:22Z" uid="633013" user="Honning" version="1">
		<tag k="name" v="Slutningen" />
		<tag k="place" v="farm" />
		<tag k="ssr:stedsnr" v="246629" />
	</node>
	<node changeset="69962493" id="6454044997" lat="59.6397201" lon="10.6947927" timestamp="2019-05-07T07:16:22Z" uid="633013" user="Honning" version="1">
		<tag k="name" v="Linnestad" />
		<tag k="place" v="hamlet" />
		<tag k="ssr:stedsnr" v="246652" />
	</node>
	<node changeset="69962493" id="6454044998" lat="59.5664306" lon="10.7031611" timestamp="2019-05-07T07:16:22Z" uid="633013" user="Honning" version="1">
		<tag k="name" v="Dal" />
		<tag k="place" v="farm" />
		<tag k="ssr:stedsnr" v="246677" />
	</node>
	<node changeset="69962493" id="6454044999" lat="59.524175" lon="10.7775417" timestamp="2019-05-07T07:16:22Z" uid="633013" user="Honning" version="1">
		<tag k="name" v="Damnes" />
		<tag k="place" v="farm" />
		<tag k="ssr:stedsnr" v="247004" />
	</node>
	<node changeset="69962493" id="6454045000" lat="59.58725" lon="10.760625" timestamp="2019-05-07T07:16:22Z" uid="633013" user="Honning" version="1">
		<tag k="name" v="Bjørnerud" />
		<tag k="place" v="farm" />
		<tag k="ssr:stedsnr" v="247179" />
	</node>
	<node changeset="69962493" id="6454045001" lat="59.5778889" lon="10.7367417" timestamp="2019-05-07T07:16:22Z" uid="633013" user="Honning" version="1">
		<tag k="name" v="Vestli" />
		<tag k="place" v="isolated_dwelling" />
		<tag k="ssr:stedsnr" v="265177" />
	</node>
	<node changeset="69962493" id="6454045002" lat="59.5705388" lon="10.7758443" timestamp="2019-05-07T07:16:22Z" uid="633013" user="Honning" version="1">
		<tag k="name" v="Svinskau" />
		<tag k="place" v="farm" />
		<tag k="ssr:stedsnr" v="265251" />
	</node>
	<node changeset="69962493" id="6454045003" lat="59.6153528" lon="10.74535" timestamp="2019-05-07T07:16:22Z" uid="633013" user="Honning" version="1">
		<tag k="name" v="Randem skog" />
		<tag k="place" v="quarter" />
		<tag k="ssr:stedsnr" v="265809" />
	</node>
	<node changeset="69962493" id="6454045004" lat="59.59215" lon="10.7527555" timestamp="2019-05-07T07:16:23Z" uid="633013" user="Honning" version="1">
		<tag k="name" v="Furulund" />
		<tag k="place" v="hamlet" />
		<tag k="ssr:stedsnr" v="266147" />
	</node>
	<node changeset="69962493" id="6454045005" lat="59.542225" lon="10.7227806" timestamp="2019-05-07T07:16:23Z" uid="633013" user="Honning" version="1">
		<tag k="alt_name" v="Gjølstad nordre" />
		<tag k="name" v="Nordre Gjølstad" />
		<tag k="place" v="farm" />
		<tag k="ssr:stedsnr" v="267072" />
	</node>
	<node changeset="69962493" id="6454045006" lat="59.566175" lon="10.7359889" timestamp="2019-05-07T07:16:23Z" uid="633013" user="Honning" version="1">
		<tag k="name" v="Kjenn" />
		<tag k="place" v="hamlet" />
		<tag k="ssr:stedsnr" v="267712" />
	</node>
	<node changeset="69962493" id="6454045007" lat="59.57085" lon="10.8385667" timestamp="2019-05-07T07:16:23Z" uid="633013" user="Honning" version="1">
		<tag k="name" v="Pung" />
		<tag k="place" v="farm" />
		<tag k="ssr:stedsnr" v="429210" />
	</node>
	<node changeset="69962493" id="6454045008" lat="59.5390333" lon="10.760325" timestamp="2019-05-07T07:16:23Z" uid="633013" user="Honning" version="1">
		<tag k="alt_name" v="Auerød" />
		<tag k="name" v="Søndre Auerud" />
		<tag k="place" v="farm" />
		<tag k="ssr:stedsnr" v="418022" />
	</node>
	<node changeset="69962493" id="6454045009" lat="59.5747889" lon="10.831322" timestamp="2019-05-07T07:16:23Z" uid="633013" user="Honning" version="1">
		<tag k="name" v="Tom" />
		<tag k="place" v="hamlet" />
		<tag k="ssr:stedsnr" v="420284;299320" />
	</node>
	<node changeset="69962493" id="6454045010" lat="59.5254556" lon="10.7055" timestamp="2019-05-07T07:16:23Z" uid="633013" user="Honning" version="1">
		<tag k="name" v="Deør skog" />
		<tag k="place" v="quarter" />
		<tag k="ssr:stedsnr" v="420424" />
	</node>
	<node changeset="69962493" id="6454045011" lat="59.5070333" lon="10.6827667" timestamp="2019-05-07T07:16:23Z" uid="633013" user="Honning" version="1">
		<tag k="name" v="Bjerkebukta" />
		<tag k="place" v="farm" />
		<tag k="ssr:stedsnr" v="420458" />
	</node>
	<node changeset="69962493" id="6454045012" lat="59.6064694" lon="10.6516889" timestamp="2019-05-07T07:16:23Z" uid="633013" user="Honning" version="1">
		<tag k="name" v="Nedre Ramme" />
		<tag k="place" v="farm" />
		<tag k="ssr:stedsnr" v="421217" />
	</node>
	<node changeset="69962493" id="6454045013" lat="59.5667333" lon="10.6511917" timestamp="2019-05-07T07:16:23Z" uid="633013" user="Honning" version="1">
		<tag k="name" v="Svartåsen" />
		<tag k="place" v="isolated_dwelling" />
		<tag k="ssr:stedsnr" v="421267" />
	</node>
	<node changeset="69962493" id="2351368561" lat="59.5918417" lon="10.7012806" timestamp="2019-05-07T07:16:27Z" uid="633013" user="Honning" version="2">
		<tag k="alt_name" v="Bjørnstad" />
		<tag k="name" v="Bjørnestad" />
		<tag k="place" v="farm" />
		<tag k="ssr:stedsnr" v="488729" />
	</node>
	<node changeset="69962493" id="2351368562" lat="59.5913583" lon="10.6627639" timestamp="2019-05-07T07:16:27Z" uid="633013" user="Honning" version="2">
		<tag k="name" v="Strand" />
		<tag k="place" v="farm" />
		<tag k="ssr:stedsnr" v="913723" />
	</node>
	<node changeset="69962493" id="6454044395" lat="59.5657333" lon="10.8156139" timestamp="2019-05-07T07:16:05Z" uid="633013" user="Honning" version="1">
		<tag k="name" v="Gon" />
		<tag k="place" v="farm" />
		<tag k="ssr:stedsnr" v="671200" />
	</node>
	<node changeset="69962493" id="1758593434" lat="59.5602556" lon="10.7838222" timestamp="2019-05-07T07:16:26Z" uid="633013" user="Honning" version="2">
		<tag k="name" v="Kullebunn" />
		<tag k="place" v="farm" />
		<tag k="source:name" v="Privat skilt" />
		<tag k="ssr:stedsnr" v="143161" />
	</node>
	<node changeset="69962493" id="1758593442" lat="59.5715944" lon="10.7791278" timestamp="2019-05-07T07:16:27Z" uid="633013" user="Honning" version="2">
		<tag k="name" v="Svinskau" />
		<tag k="place" v="farm" />
		<tag k="ssr:stedsnr" v="83230" />
	</node>
	<node changeset="69962493" id="6454044407" lat="59.5326583" lon="10.7467472" timestamp="2019-05-07T07:16:06Z" uid="633013" user="Honning" version="1">
		<tag k="name" v="Vollebekk" />
		<tag k="place" v="farm" />
		<tag k="ssr:stedsnr" v="691141" />
	</node>
	<node changeset="69962493" id="6454044967" lat="59.5668083" lon="10.7495972" timestamp="2019-05-07T07:16:20Z" uid="633013" user="Honning" version="1">
		<tag k="name" v="Nedre Langli" />
		<tag k="place" v="farm" />
		<tag k="ssr:stedsnr" v="204145" />
	</node>
	<node changeset="69962493" id="1710567966" lat="59.5585278" lon="10.6825389" timestamp="2019-05-07T07:16:25Z" uid="633013" user="Honning" version="2">
		<tag k="alt_name" v="Karterød" />
		<tag k="name" v="Karterud" />
		<tag k="place" v="farm" />
		<tag k="ssr:stedsnr" v="367670" />
	</node>
	<node changeset="69962493" id="1710567976" lat="59.55745" lon="10.6874056" timestamp="2019-05-07T07:16:25Z" uid="633013" user="Honning" version="2">
		<tag k="name" v="Jonstad" />
		<tag k="place" v="farm" />
		<tag k="ssr:stedsnr" v="246661" />
	</node>
	<node changeset="69962493" id="1758650957" lat="59.557" lon="10.7784222" timestamp="2019-05-07T07:16:27Z" uid="633013" user="Honning" version="2">
		<tag k="name" v="Blådike" />
		<tag k="place" v="farm" />
		<tag k="source:name" v="Privat skilt v/FV4" />
		<tag k="ssr:stedsnr" v="246205" />
	</node>
	<node changeset="69962493" id="1758650958" lat="59.556175" lon="10.781725" timestamp="2019-05-07T07:16:27Z" uid="633013" user="Honning" version="2">
		<tag k="name" v="Oxane" />
		<tag k="place" v="farm" />
		<tag k="source:name" v="Privat skilt v/FV4" />
		<tag k="ssr:stedsnr" v="246203" />
	</node>
	<node changeset="69962493" id="6454044431" lat="59.5946222" lon="10.6939083" timestamp="2019-05-07T07:16:07Z" uid="633013" user="Honning" version="1">
		<tag k="name" v="Filtvet" />
		<tag k="place" v="farm" />
		<tag k="ssr:stedsnr" v="786744" />
	</node>
	<node changeset="76011763" id="6903532141" lat="59.5131044" lon="10.7362926" timestamp="2019-10-21T17:44:27Z" uid="633013" user="Honning" version="1" />
	<node changeset="76011763" id="6903532142" lat="59.5130241" lon="10.7367325" timestamp="2019-10-21T17:44:27Z" uid="633013" user="Honning" version="1" />
	<node changeset="76011763" id="6903532143" lat="59.5128949" lon="10.7372957" timestamp="2019-10-21T17:44:27Z" uid="633013" user="Honning" version="1" />
	<node changeset="76011763" id="6903532144" lat="59.5124635" lon="10.7385457" timestamp="2019-10-21T17:44:27Z" uid="633013" user="Honning" version="1" />
	<node changeset="76011763" id="6903532145" lat="59.5124295" lon="10.7373038" timestamp="2019-10-21T17:44:27Z" uid="633013" user="Honning" version="1" />
	<node changeset="76011763" id="6903532146" lat="59.5124649" lon="10.7363784" timestamp="2019-10-21T17:44:27Z" uid="633013" user="Honning" version="1" />
	<node changeset="76011763" id="6903532147" lat="59.5129711" lon="10.7358447" timestamp="2019-10-21T17:44:27Z" uid="633013" user="Honning" version="1" />
	<node changeset="76011763" id="6903532148" lat="59.5131657" lon="10.7357079" timestamp="2019-10-21T17:44:27Z" uid="633013" user="Honning" version="1" />
	<node changeset="69962493" id="1710539543" lat="59.5874917" lon="10.6827444" timestamp="2019-05-07T07:16:24Z" uid="633013" user="Honning" version="3">
		<tag k="name" v="Hauger" />
		<tag k="place" v="farm" />
		<tag k="ssr:stedsnr" v="428715" />
	</node>
	<node changeset="69962493" id="1710539544" lat="59.5820389" lon="10.6995972" timestamp="2019-05-07T07:16:24Z" uid="633013" user="Honning" version="3">
		<tag k="name" v="Mogholt" />
		<tag k="place" v="farm" />
		<tag k="ssr:stedsnr" v="543752" />
	</node>
	<node changeset="76011763" id="6903532199" lat="59.50854" lon="10.7446825" timestamp="2019-10-21T17:44:27Z" uid="633013" user="Honning" version="1" />
	<node changeset="76011763" id="6903532200" lat="59.5085427" lon="10.7449937" timestamp="2019-10-21T17:44:27Z" uid="633013" user="Honning" version="1" />
	<node changeset="76011763" id="6903532201" lat="59.5080365" lon="10.7452941" timestamp="2019-10-21T17:44:27Z" uid="633013" user="Honning" version="1" />
	<node changeset="76011763" id="6903532202" lat="59.5079031" lon="10.7458198" timestamp="2019-10-21T17:44:27Z" uid="633013" user="Honning" version="1" />
	<node changeset="76011763" id="6903532203" lat="59.5082134" lon="10.7460076" timestamp="2019-10-21T17:44:27Z" uid="633013" user="Honning" version="1" />
	<node changeset="76011763" id="6903532204" lat="59.5085945" lon="10.7452351" timestamp="2019-10-21T17:44:27Z" uid="633013" user="Honning" version="1" />
	<node changeset="76011763" id="6903532205" lat="59.5087605" lon="10.7440817" timestamp="2019-10-21T17:44:27Z" uid="633013" user="Honning" version="1" />
	<node changeset="76011763" id="6903532206" lat="59.5087132" lon="10.7439262" timestamp="2019-10-21T17:44:27Z" uid="633013" user="Honning" version="1" />
	<node changeset="76011763" id="6903532207" lat="59.5086834" lon="10.7438786" timestamp="2019-10-21T17:44:27Z" uid="633013" user="Honning" version="1" />
	<node changeset="76011763" id="6903532208" lat="59.5086326" lon="10.7438216" timestamp="2019-10-21T17:44:27Z" uid="633013" user="Honning" version="1" />
	<node changeset="76011763" id="6903532209" lat="59.5084298" lon="10.7437947" timestamp="2019-10-21T17:44:27Z" uid="633013" user="Honning" version="1" />
	<node changeset="19522025" id="2585709268" lat="59.5151456" lon="10.7213986" timestamp="2013-12-18T20:48:04Z" uid="522389" user="thohar" version="1" />
	<node changeset="19522025" id="2585709270" lat="59.5152841" lon="10.7210927" timestamp="2013-12-18T20:48:04Z" uid="522389" user="thohar" version="1" />
	<node changeset="19522025" id="2585709272" lat="59.5154202" lon="10.7209421" timestamp="2013-12-18T20:48:04Z" uid="522389" user="thohar" version="1" />
	<node changeset="76011763" id="6903532256" lat="59.5125737" lon="10.7264113" timestamp="2019-10-21T17:44:27Z" uid="633013" user="Honning" version="1" />
	<node changeset="76011763" id="6903532257" lat="59.5124662" lon="10.7265884" timestamp="2019-10-21T17:44:27Z" uid="633013" user="Honning" version="1" />
	<node changeset="76011763" id="6903532258" lat="59.5122757" lon="10.7264006" timestamp="2019-10-21T17:44:27Z" uid="633013" user="Honning" version="1" />
	<node changeset="19522025" id="2585709283" lat="59.5155562" lon="10.7206692" timestamp="2013-12-18T20:48:04Z" uid="522389" user="thohar" version="1" />
	<node changeset="76011763" id="6903532260" lat="59.5117055" lon="10.725545" timestamp="2019-10-21T17:44:27Z" uid="633013" user="Honning" version="1" />
	<node changeset="76011763" id="6903532261" lat="59.5119028" lon="10.7249388" timestamp="2019-10-21T17:44:27Z" uid="633013" user="Honning" version="1" />
	<node changeset="76011763" id="6903532262" lat="59.5121042" lon="10.7244882" timestamp="2019-10-21T17:44:27Z" uid="633013" user="Honning" version="1" />
	<node changeset="76011763" id="6903532263" lat="59.5122539" lon="10.7244265" timestamp="2019-10-21T17:44:27Z" uid="633013" user="Honning" version="1" />
	<node changeset="76011763" id="6903532264" lat="59.5123669" lon="10.7245526" timestamp="2019-10-21T17:44:27Z" uid="633013" user="Honning" version="1" />
	<node changeset="76011763" id="6903532265" lat="59.5127983" lon="10.725081" timestamp="2019-10-21T17:44:27Z" uid="633013" user="Honning" version="1" />
	<node changeset="19522025" id="2585709303" lat="59.5161079" lon="10.7197927" timestamp="2013-12-18T20:48:04Z" uid="522389" user="thohar" version="1" />
	<node changeset="69962493" id="1905169159" lat="59.6078559" lon="10.6541219" timestamp="2019-05-07T07:16:27Z" uid="633013" user="Honning" version="2">
		<tag k="name" v="Ramme" />
		<tag k="place" v="hamlet" />
		<tag k="ssr:stedsnr" v="124574" />
	</node>
	<node changeset="76011763" id="6903532298" lat="59.5107257" lon="10.7293028" timestamp="2019-10-21T17:44:27Z" uid="633013" user="Honning" version="1" />
	<node changeset="76011763" id="6903532299" lat="59.5107638" lon="10.7294878" timestamp="2019-10-21T17:44:27Z" uid="633013" user="Honning" version="1" />
	<node changeset="76011763" id="6903532300" lat="59.5107992" lon="10.729799" timestamp="2019-10-21T17:44:27Z" uid="633013" user="Honning" version="1" />
	<node changeset="76011763" id="6903532301" lat="59.5104834" lon="10.729917" timestamp="2019-10-21T17:44:27Z" uid="633013" user="Honning" version="1" />
	<node changeset="76011763" id="6903532302" lat="59.5101391" lon="10.7298392" timestamp="2019-10-21T17:44:27Z" uid="633013" user="Honning" version="1" />
	<node changeset="76011763" id="6903532303" lat="59.5097853" lon="10.7299036" timestamp="2019-10-21T17:44:27Z" uid="633013" user="Honning" version="1" />
	<node changeset="76011763" id="6903532304" lat="59.5095607" lon="10.7297748" timestamp="2019-10-21T17:44:27Z" uid="633013" user="Honning" version="1" />
	<node changeset="76011763" id="6903532305" lat="59.5095812" lon="10.729689" timestamp="2019-10-21T17:44:27Z" uid="633013" user="Honning" version="1" />
	<node changeset="76011763" id="6903532306" lat="59.5095226" lon="10.7294664" timestamp="2019-10-21T17:44:27Z" uid="633013" user="Honning" version="1" />
	<node changeset="76011763" id="6903532307" lat="59.5097363" lon="10.7294744" timestamp="2019-10-21T17:44:27Z" uid="633013" user="Honning" version="1" />
	<node changeset="76011763" id="6903532308" lat="59.5097758" lon="10.7293886" timestamp="2019-10-21T17:44:27Z" uid="633013" user="Honning" version="1" />
	<node changeset="76011763" id="6903532309" lat="59.5098588" lon="10.729292" timestamp="2019-10-21T17:44:27Z" uid="633013" user="Honning" version="1" />
	<node changeset="76011763" id="6903532310" lat="59.5103351" lon="10.7290506" timestamp="2019-10-21T17:44:27Z" uid="633013" user="Honning" version="1" />
	<node changeset="76011763" id="6903532311" lat="59.5104317" lon="10.7290319" timestamp="2019-10-21T17:44:27Z" uid="633013" user="Honning" version="1" />
	<node changeset="76011763" id="6903532312" lat="59.510659" lon="10.7290614" timestamp="2019-10-21T17:44:27Z" uid="633013" user="Honning" version="1" />
	<node changeset="76011763" id="6903532313" lat="59.5107434" lon="10.7292411" timestamp="2019-10-21T17:44:27Z" uid="633013" user="Honning" version="1" />
	<node changeset="69963260" id="6454090528" lat="59.5452179" lon="10.6567691" timestamp="2019-05-07T07:39:35Z" uid="633013" user="Honning" version="1" />
	<node changeset="69963260" id="6454090529" lat="59.5452015" lon="10.6569213" timestamp="2019-05-07T07:39:35Z" uid="633013" user="Honning" version="1" />
	<node changeset="69963260" id="6454090530" lat="59.5451924" lon="10.6569857" timestamp="2019-05-07T07:39:35Z" uid="633013" user="Honning" version="1" />
	<node changeset="69963260" id="6454090531" lat="59.5451699" lon="10.6570239" timestamp="2019-05-07T07:39:35Z" uid="633013" user="Honning" version="1" />
	<node changeset="69963260" id="6454090532" lat="59.5451968" lon="10.6570199" timestamp="2019-05-07T07:39:35Z" uid="633013" user="Honning" version="1" />
	<node changeset="69963260" id="6454090533" lat="59.5452199" lon="10.6568798" timestamp="2019-05-07T07:39:35Z" uid="633013" user="Honning" version="1" />
	<node changeset="69963260" id="6454090534" lat="59.5452294" lon="10.6567852" timestamp="2019-05-07T07:39:35Z" uid="633013" user="Honning" version="1" />
	<node changeset="69963260" id="6454090535" lat="59.5452172" lon="10.6567329" timestamp="2019-05-07T07:39:35Z" uid="633013" user="Honning" version="1" />
	<node changeset="69962493" id="1734519607" lat="59.4867864" lon="10.7224545" timestamp="2019-05-07T07:16:25Z" uid="633013" user="Honning" version="2">
		<tag k="name" v="Ødemørk" />
		<tag k="place" v="farm" />
		<tag k="ssr:stedsnr" v="872051" />
	</node>
	<node changeset="70216862" id="6454039864" lat="59.5971833" lon="10.7546139" timestamp="2019-05-14T05:00:17Z" uid="3497659" user="NKA" version="2">
		<tag k="leisure" v="sports_centre" />
		<tag k="name" v="Vestby arena" />
		<tag k="ssr:stedsnr" v="422066" />
	</node>
	<node changeset="69962493" id="1710482254" lat="59.5777806" lon="10.6864917" timestamp="2019-05-07T07:16:24Z" uid="633013" user="Honning" version="5">
		<tag k="abandoned" v="yes" />
		<tag k="comment:no" v="Tagget som 'fraflyttet husmannsplass', ref 'wiki/No:Map Features'." />
		<tag k="designation" v="Abandoned smallholding" />
		<tag k="historic" v="ruins" />
		<tag k="name" v="Stokkholm" />
		<tag k="place" v="isolated_dwelling" />
		<tag k="source" v="GPS" />
		<tag k="ssr:stedsnr" v="853704" />
	</node>
	<node changeset="69962493" id="1716298583" lat="59.6183194" lon="10.7251861" timestamp="2019-05-07T07:16:25Z" uid="633013" user="Honning" version="3">
		<tag k="loc_name" v="Jegstad" />
		<tag k="name" v="Jegstad" />
		<tag k="place" v="farm" />
		<tag k="source:name" v="Skilt" />
		<tag k="ssr:stedsnr" v="124287" />
		<tag k="website" v="https://www.jegstad.no/" />
	</node>
	<node changeset="69962493" id="1716298590" lat="59.6192444" lon="10.7114361" timestamp="2019-05-07T07:16:25Z" uid="633013" user="Honning" version="2">
		<tag k="alt_name" v="Skau" />
		<tag k="name" v="Skaug" />
		<tag k="place" v="farm" />
		<tag k="source:name" v="Skilt" />
		<tag k="ssr:stedsnr" v="306610" />
	</node>
	<node changeset="69962493" id="217711469" lat="59.50685" lon="10.693375" timestamp="2019-05-07T07:16:23Z" uid="633013" user="Honning" version="3">
		<tag k="name" v="Store Brevik" />
		<tag k="place" v="village" />
		<tag k="ssr:stedsnr" v="875489" />
	</node>
	<node changeset="69962493" id="6454044479" lat="59.6060583" lon="10.6805722" timestamp="2019-05-07T07:16:10Z" uid="633013" user="Honning" version="1">
		<tag k="name" v="Søndre Knalstad" />
		<tag k="place" v="farm" />
		<tag k="ssr:stedsnr" v="906130" />
	</node>
	<node changeset="69962493" id="1456710539" lat="59.6172" lon="10.7682028" timestamp="2019-05-07T07:16:23Z" uid="633013" user="Honning" version="2">
		<tag k="alt_name" v="Hamburg" />
		<tag k="name" v="Hamborg" />
		<tag k="place" v="farm" />
		<tag k="source:name" v="Privat skilt; Matr50" />
		<tag k="ssr:stedsnr" v="3312" />
	</node>
	<node changeset="69962493" id="1456710579" lat="59.6261917" lon="10.7629833" timestamp="2019-05-07T07:16:23Z" uid="633013" user="Honning" version="2">
		<tag k="alt_name" v="Øines" />
		<tag k="name" v="Øynes" />
		<tag k="old_name" v="Øde-Nes" />
		<tag k="place" v="farm" />
		<tag k="source:name" v="Privat skilt; Matr50; Gaardnavne @ dokpro" />
		<tag k="ssr:stedsnr" v="306314" />
	</node>
	<node changeset="69962493" id="1736076218" lat="59.5668583" lon="10.7656833" timestamp="2019-05-07T07:16:26Z" uid="633013" user="Honning" version="2">
		<tag k="comment:no" v="Navnekilde: Siden vegen heter Rokkerveien, og det finnes en Rokker Gård, antar at jeg den ligger her." />
		<tag k="name" v="Rokker" />
		<tag k="place" v="farm" />
		<tag k="ssr:stedsnr" v="3174" />
	</node>
	<node changeset="69962493" id="1710533663" lat="59.5863778" lon="10.692625" timestamp="2019-05-07T07:16:24Z" uid="633013" user="Honning" version="3">
		<tag k="alt_name" v="Rønjul mellom" />
		<tag k="name" v="Mellom Rønjul" />
		<tag k="place" v="farm" />
		<tag k="ssr:stedsnr" v="786719" />
	</node>
	<node changeset="69962493" id="1710535712" lat="59.5800028" lon="10.6777861" timestamp="2019-05-07T07:16:24Z" uid="633013" user="Honning" version="3">
		<tag k="name" v="Østre Torp" />
		<tag k="place" v="farm" />
		<tag k="ssr:stedsnr" v="604771" />
	</node>
	<node changeset="69962493" id="261072733" lat="59.5986278" lon="10.65545" timestamp="2019-05-07T07:16:23Z" uid="633013" user="Honning" version="3">
		<tag k="name" v="Hvitsten" />
		<tag k="note:no" v="Hvitsten er tettsted uten bystatus (&quot;village&quot;)" />
		<tag k="place" v="village" />
		<tag k="population" v="311" />
		<tag k="ssr:stedsnr" v="63738" />
	</node>
	<node changeset="69962493" id="1710611506" lat="59.5853361" lon="10.6918306" timestamp="2019-05-07T07:16:25Z" uid="633013" user="Honning" version="2">
		<tag k="name" v="Søndre Rønjul" />
		<tag k="place" v="farm" />
		<tag k="ssr:stedsnr" v="908735" />
	</node>
	<node changeset="64687216" id="6075692097" lat="59.5168173" lon="10.7191855" timestamp="2018-11-20T08:52:34Z" uid="4198735" user="michalzz" version="1" />
	<node changeset="64687216" id="6075692098" lat="59.5168196" lon="10.7196675" timestamp="2018-11-20T08:52:34Z" uid="4198735" user="michalzz" version="1" />
	<node changeset="64687216" id="6075692099" lat="59.5170143" lon="10.7198371" timestamp="2018-11-20T08:52:34Z" uid="4198735" user="michalzz" version="1" />
	<node changeset="64687216" id="6075692100" lat="59.5169985" lon="10.7199977" timestamp="2018-11-20T08:52:34Z" uid="4198735" user="michalzz" version="1" />
	<node changeset="64687216" id="6075692101" lat="59.5167472" lon="10.7203503" timestamp="2018-11-20T08:52:34Z" uid="4198735" user="michalzz" version="1" />
	<node changeset="64687216" id="6075692102" lat="59.5165683" lon="10.7208636" timestamp="2018-11-20T08:52:34Z" uid="4198735" user="michalzz" version="1" />
	<node changeset="64687216" id="6075692103" lat="59.5162649" lon="10.7209528" timestamp="2018-11-20T08:52:34Z" uid="4198735" user="michalzz" version="1" />
	<node changeset="64687216" id="6075692104" lat="59.5161608" lon="10.7211938" timestamp="2018-11-20T08:52:34Z" uid="4198735" user="michalzz" version="1" />
	<node changeset="64687216" id="6075692105" lat="59.5161268" lon="10.721716" timestamp="2018-11-20T08:52:34Z" uid="4198735" user="michalzz" version="1" />
	<node changeset="64687216" id="6075692106" lat="59.5156197" lon="10.7222337" timestamp="2018-11-20T08:52:34Z" uid="4198735" user="michalzz" version="1" />
	<node changeset="64687216" id="6075692107" lat="59.5153502" lon="10.7220373" timestamp="2018-11-20T08:52:34Z" uid="4198735" user="michalzz" version="1" />
	<node changeset="64687216" id="6075692108" lat="59.5150145" lon="10.7216474" timestamp="2018-11-20T08:52:34Z" uid="4198735" user="michalzz" version="1" />
	<node changeset="64687216" id="6075692110" lat="59.5162965" lon="10.7197995" timestamp="2018-11-20T08:52:34Z" uid="4198735" user="michalzz" version="1" />
	<node changeset="64687216" id="6075692111" lat="59.5164293" lon="10.7195615" timestamp="2018-11-20T08:52:34Z" uid="4198735" user="michalzz" version="1" />
	<node changeset="64687216" id="6075692112" lat="59.5164926" lon="10.7192978" timestamp="2018-11-20T08:52:34Z" uid="4198735" user="michalzz" version="1" />
	<node changeset="64687216" id="6075692113" lat="59.5164574" lon="10.7190916" timestamp="2018-11-20T08:52:34Z" uid="4198735" user="michalzz" version="1" />
	<node changeset="64687216" id="6075692114" lat="59.5166385" lon="10.7189428" timestamp="2018-11-20T08:52:34Z" uid="4198735" user="michalzz" version="1" />
	<node changeset="69962493" id="1710611542" lat="59.5874472" lon="10.6932111" timestamp="2019-05-07T07:16:25Z" uid="633013" user="Honning" version="3">
		<tag k="alt_name" v="Rønjul nedre" />
		<tag k="name" v="Nedre Rønjul" />
		<tag k="place" v="farm" />
		<tag k="ssr:stedsnr" v="361716" />
	</node>
	<node changeset="69962493" id="1710543965" lat="59.5769611" lon="10.6991472" timestamp="2019-05-07T07:16:24Z" uid="633013" user="Honning" version="2">
		<tag k="name" v="Nedre Stubberud" />
		<tag k="place" v="farm" />
		<tag k="ssr:stedsnr" v="604778" />
	</node>
	<node changeset="64687216" id="6075692128" lat="59.5168182" lon="10.7193768" timestamp="2018-11-20T08:52:34Z" uid="4198735" user="michalzz" version="1" />
	<node changeset="69962493" id="1462156503" lat="59.6254028" lon="10.7800253" timestamp="2019-05-07T07:16:24Z" uid="633013" user="Honning" version="3">
		<tag k="name" v="Tveter" />
		<tag k="place" v="hamlet" />
		<tag k="source:no" v="Skilt postkassestativ." />
		<tag k="ssr:stedsnr" v="422210" />
	</node>
	<node changeset="69962493" id="6454039878" lat="59.5619583" lon="10.77715" timestamp="2019-05-07T07:15:59Z" uid="633013" user="Honning" version="1">
		<tag k="name" v="Fjell" />
		<tag k="place" v="hamlet" />
		<tag k="ssr:stedsnr" v="447168" />
	</node>
	<node changeset="69962493" id="6454043885" lat="59.6004583" lon="10.7010417" timestamp="2019-05-07T07:15:59Z" uid="633013" user="Honning" version="1">
		<tag k="name" v="Habbelen" />
		<tag k="place" v="locality" />
		<tag k="ssr:stedsnr" v="481153" />
	</node>
	<node changeset="69962493" id="6454043886" lat="59.5292222" lon="10.6996972" timestamp="2019-05-07T07:15:59Z" uid="633013" user="Honning" version="1">
		<tag k="alt_name" v="Labo søndre" />
		<tag k="name" v="Søndre Labu" />
		<tag k="place" v="farm" />
		<tag k="ssr:stedsnr" v="481418" />
	</node>
	<node changeset="71897153" id="6454043887" lat="59.5151978" lon="10.6814853" timestamp="2019-07-04T13:21:19Z" uid="633013" user="Honning" version="2">
		<tag k="name" v="Villa Holland" />
		<tag k="place" v="isolated_dwelling" />
		<tag k="ssr:stedsnr" v="481448" />
	</node>
	<node changeset="69962493" id="6454043888" lat="59.5180528" lon="10.6966611" timestamp="2019-05-07T07:15:59Z" uid="633013" user="Honning" version="1">
		<tag k="leisure" v="pitch" />
		<tag k="name" v="Grevlingen" />
		<tag k="ssr:stedsnr" v="481450" />
	</node>
	<node changeset="69962493" id="6454043889" lat="59.6240917" lon="10.701475" timestamp="2019-05-07T07:15:59Z" uid="633013" user="Honning" version="1">
		<tag k="name" v="Galbybråten" />
		<tag k="place" v="locality" />
		<tag k="ssr:stedsnr" v="483169" />
	</node>
	<node changeset="69962493" id="6454043890" lat="59.61915" lon="10.7107444" timestamp="2019-05-07T07:15:59Z" uid="633013" user="Honning" version="1">
		<tag k="alt_name" v="Skau vestre;Vestre Skog" />
		<tag k="name" v="Vestre Skau" />
		<tag k="place" v="farm" />
		<tag k="ssr:stedsnr" v="483176" />
	</node>
	<node changeset="69962493" id="6454043891" lat="59.5776" lon="10.6518833" timestamp="2019-05-07T07:15:59Z" uid="633013" user="Honning" version="1">
		<tag k="name" v="Søndre Brånen" />
		<tag k="place" v="farm" />
		<tag k="ssr:stedsnr" v="483563" />
	</node>
	<node changeset="69962493" id="6454043892" lat="59.5790693" lon="10.6733608" timestamp="2019-05-07T07:15:59Z" uid="633013" user="Honning" version="1">
		<tag k="name" v="Torp" />
		<tag k="place" v="hamlet" />
		<tag k="ssr:stedsnr" v="483738" />
	</node>
	<node changeset="69962493" id="6454043893" lat="59.580325" lon="10.6701333" timestamp="2019-05-07T07:15:59Z" uid="633013" user="Honning" version="1">
		<tag k="name" v="Vestre Torp" />
		<tag k="place" v="farm" />
		<tag k="ssr:stedsnr" v="483798" />
	</node>
	<node changeset="69962493" id="6454043894" lat="59.619725" lon="10.6857056" timestamp="2019-05-07T07:16:00Z" uid="633013" user="Honning" version="1">
		<tag k="alt_name" v="Toverød" />
		<tag k="name" v="Øvre Toverud" />
		<tag k="place" v="farm" />
		<tag k="ssr:stedsnr" v="488629" />
	</node>
	<node changeset="69962493" id="6454043895" lat="59.6279035" lon="10.737981" timestamp="2019-05-07T07:16:00Z" uid="633013" user="Honning" version="1">
		<tag k="alt_name" v="Nordre Rød" />
		<tag k="name" v="Rød" />
		<tag k="place" v="hamlet" />
		<tag k="ssr:stedsnr" v="488285" />
	</node>
	<node changeset="69962493" id="6454043896" lat="59.6113222" lon="10.7384694" timestamp="2019-05-07T07:16:00Z" uid="633013" user="Honning" version="1">
		<tag k="name" v="Kleiver" />
		<tag k="place" v="farm" />
		<tag k="ssr:stedsnr" v="488339" />
	</node>
	<node changeset="75947248" id="6454043897" lat="59.4995584" lon="10.7103014" timestamp="2019-10-20T08:36:25Z" uid="633013" user="Honning" version="2">
		<tag k="alt_name" v="Rød, nordre;Rød nordre" />
		<tag k="name" v="Nordre Rød" />
		<tag k="place" v="farm" />
		<tag k="ssr:stedsnr" v="488473" />
	</node>
	<node changeset="69962493" id="6454043898" lat="59.6361444" lon="10.7124055" timestamp="2019-05-07T07:16:00Z" uid="633013" user="Honning" version="1">
		<tag k="name" v="Rustad" />
		<tag k="place" v="farm" />
		<tag k="ssr:stedsnr" v="488660" />
	</node>
	<node changeset="69962493" id="6454043899" lat="59.5526028" lon="10.6888917" timestamp="2019-05-07T07:16:00Z" uid="633013" user="Honning" version="1">
		<tag k="name" v="Arnestad" />
		<tag k="place" v="farm" />
		<tag k="ssr:stedsnr" v="488675" />
	</node>
	<node changeset="69962493" id="6454043900" lat="59.5617778" lon="10.7171944" timestamp="2019-05-07T07:16:00Z" uid="633013" user="Honning" version="1">
		<tag k="name" v="Tømtbråten" />
		<tag k="place" v="farm" />
		<tag k="ssr:stedsnr" v="488681" />
	</node>
	<node changeset="76011763" id="6454043901" lat="59.5101174" lon="10.7292142" timestamp="2019-10-21T17:44:27Z" uid="633013" user="Honning" version="2" />
	<node changeset="69962493" id="6454043902" lat="59.6067083" lon="10.7696611" timestamp="2019-05-07T07:16:00Z" uid="633013" user="Honning" version="1">
		<tag k="alt_name" v="Ålerød, nordre;Ålerud nordre" />
		<tag k="name" v="Nordre Ålerød" />
		<tag k="place" v="farm" />
		<tag k="ssr:stedsnr" v="489160" />
	</node>
	<node changeset="69962493" id="6454043903" lat="59.5913472" lon="10.8402083" timestamp="2019-05-07T07:16:00Z" uid="633013" user="Honning" version="1">
		<tag k="alt_name" v="Hestvet;Hestvet nordre" />
		<tag k="name" v="Nordre Hestvet" />
		<tag k="place" v="farm" />
		<tag k="ssr:stedsnr" v="489202" />
	</node>
	<node changeset="69962493" id="6454043904" lat="59.5952778" lon="10.8224028" timestamp="2019-05-07T07:16:00Z" uid="633013" user="Honning" version="1">
		<tag k="alt_name" v="Haug;Haug nordre" />
		<tag k="name" v="Nordre Haug" />
		<tag k="place" v="farm" />
		<tag k="ssr:stedsnr" v="489204" />
	</node>
	<node changeset="69962493" id="6454043905" lat="59.5195056" lon="10.7371778" timestamp="2019-05-07T07:16:00Z" uid="633013" user="Honning" version="1">
		<tag k="alt_name" v="Ulfski østre" />
		<tag k="name" v="Østre Ulfski" />
		<tag k="place" v="farm" />
		<tag k="ssr:stedsnr" v="508140" />
	</node>
	<node changeset="69962493" id="6454043906" lat="59.5290583" lon="10.754" timestamp="2019-05-07T07:16:00Z" uid="633013" user="Honning" version="1">
		<tag k="name" v="Såner" />
		<tag k="place" v="farm" />
		<tag k="ssr:stedsnr" v="508146" />
	</node>
	<node changeset="69962493" id="6454043907" lat="59.5816194" lon="10.8080639" timestamp="2019-05-07T07:16:00Z" uid="633013" user="Honning" version="1">
		<tag k="alt_name" v="Garder vestre" />
		<tag k="name" v="Vestre Garder" />
		<tag k="place" v="farm" />
		<tag k="ssr:stedsnr" v="508158" />
	</node>
	<node changeset="69962493" id="6454043908" lat="59.5752611" lon="10.8002944" timestamp="2019-05-07T07:16:00Z" uid="633013" user="Honning" version="1">
		<tag k="name" v="Skogheim" />
		<tag k="place" v="isolated_dwelling" />
		<tag k="ssr:stedsnr" v="508162" />
	</node>
	<node changeset="69962493" id="6454043909" lat="59.578475" lon="10.8086806" timestamp="2019-05-07T07:16:00Z" uid="633013" user="Honning" version="1">
		<tag k="name" v="Gardås" />
		<tag k="place" v="isolated_dwelling" />
		<tag k="ssr:stedsnr" v="508165" />
	</node>
	<node changeset="69962493" id="6454043910" lat="59.5768917" lon="10.8020222" timestamp="2019-05-07T07:16:00Z" uid="633013" user="Honning" version="1">
		<tag k="name" v="Vesterbøl" />
		<tag k="place" v="isolated_dwelling" />
		<tag k="ssr:stedsnr" v="508166" />
	</node>
	<node changeset="69962493" id="6454043911" lat="59.5758318" lon="10.7369683" timestamp="2019-05-07T07:16:00Z" uid="633013" user="Honning" version="1">
		<tag k="name" v="Bråten" />
		<tag k="place" v="farm" />
		<tag k="ssr:stedsnr" v="508167" />
	</node>
	<node changeset="69962493" id="6454043912" lat="59.5825778" lon="10.78665" timestamp="2019-05-07T07:16:01Z" uid="633013" user="Honning" version="1">
		<tag k="name" v="Glenne" />
		<tag k="place" v="hamlet" />
		<tag k="ssr:stedsnr" v="508180" />
	</node>
	<node changeset="69962493" id="6454043913" lat="59.6146833" lon="10.7408139" timestamp="2019-05-07T07:16:01Z" uid="633013" user="Honning" version="1">
		<tag k="name" v="Høgda" />
		<tag k="place" v="quarter" />
		<tag k="ssr:stedsnr" v="508783" />
	</node>
	<node changeset="69962493" id="6454043914" lat="59.5329825" lon="10.7729549" timestamp="2019-05-07T07:16:01Z" uid="633013" user="Honning" version="1">
		<tag k="alt_name" v="Fagerholt nordre" />
		<tag k="name" v="Nordre Fagerholt" />
		<tag k="old_name" v="Fagerli, nordre" />
		<tag k="place" v="farm" />
		<tag k="ssr:stedsnr" v="541025" />
	</node>
	<node changeset="69962493" id="6454043915" lat="59.5986556" lon="10.6553444" timestamp="2019-05-07T07:16:01Z" uid="633013" user="Honning" version="1">
		<tag k="name" v="Torvet" />
		<tag k="place" v="square" />
		<tag k="ssr:stedsnr" v="542232" />
	</node>
	<node changeset="69962493" id="6454043916" lat="59.5490972" lon="10.6866695" timestamp="2019-05-07T07:16:01Z" uid="633013" user="Honning" version="1">
		<tag k="name" v="Eikås" />
		<tag k="place" v="isolated_dwelling" />
		<tag k="ssr:stedsnr" v="542266" />
	</node>
	<node changeset="69962493" id="6454043917" lat="59.5241889" lon="10.7152306" timestamp="2019-05-07T07:16:01Z" uid="633013" user="Honning" version="1">
		<tag k="name" v="Stensli" />
		<tag k="place" v="farm" />
		<tag k="ssr:stedsnr" v="542415" />
	</node>
	<node changeset="69962493" id="6454043918" lat="59.6125417" lon="10.6785917" timestamp="2019-05-07T07:16:01Z" uid="633013" user="Honning" version="1">
		<tag k="alt_name" v="Øgård" />
		<tag k="name" v="Knalstadødegården" />
		<tag k="place" v="farm" />
		<tag k="ssr:stedsnr" v="543177" />
	</node>
	<node changeset="69962493" id="6454043919" lat="59.5949028" lon="10.7013278" timestamp="2019-05-07T07:16:01Z" uid="633013" user="Honning" version="1">
		<tag k="name" v="Solli" />
		<tag k="place" v="farm" />
		<tag k="ssr:stedsnr" v="543716" />
	</node>
	<node changeset="69962493" id="6454043920" lat="59.5880833" lon="10.6582972" timestamp="2019-05-07T07:16:01Z" uid="633013" user="Honning" version="1">
		<tag k="name" v="Utsikten" />
		<tag k="place" v="hamlet" />
		<tag k="ssr:stedsnr" v="543729" />
	</node>
	<node changeset="69962493" id="6454043921" lat="59.5858917" lon="10.655975" timestamp="2019-05-07T07:16:01Z" uid="633013" user="Honning" version="1">
		<tag k="name" v="Okseryggen" />
		<tag k="place" v="hamlet" />
		<tag k="ssr:stedsnr" v="543733" />
	</node>
	<node changeset="69962493" id="6454043922" lat="59.5636306" lon="10.7941528" timestamp="2019-05-07T07:16:01Z" uid="633013" user="Honning" version="1">
		<tag k="name" v="Flisebru" />
		<tag k="place" v="farm" />
		<tag k="ssr:stedsnr" v="549197" />
	</node>
	<node changeset="69962493" id="6454043923" lat="59.6068722" lon="10.7308861" timestamp="2019-05-07T07:16:01Z" uid="633013" user="Honning" version="1">
		<tag k="name" v="Nordli" />
		<tag k="place" v="farm" />
		<tag k="ssr:stedsnr" v="549364" />
	</node>
	<node changeset="69962493" id="6454043924" lat="59.6141389" lon="10.7986361" timestamp="2019-05-07T07:16:01Z" uid="633013" user="Honning" version="1">
		<tag k="name" v="Auten" />
		<tag k="place" v="farm" />
		<tag k="ssr:stedsnr" v="549368" />
	</node>
	<node changeset="69962493" id="6454043925" lat="59.611175" lon="10.7790722" timestamp="2019-05-07T07:16:01Z" uid="633013" user="Honning" version="1">
		<tag k="name" v="Kjenslimoen" />
		<tag k="place" v="farm" />
		<tag k="ssr:stedsnr" v="549369" />
	</node>
	<node changeset="69962493" id="6454043926" lat="59.5509" lon="10.6650278" timestamp="2019-05-07T07:16:01Z" uid="633013" user="Honning" version="1">
		<tag k="name" v="Furubråten" />
		<tag k="place" v="isolated_dwelling" />
		<tag k="ssr:stedsnr" v="549526" />
	</node>
	<node changeset="69962493" id="6454043927" lat="59.5564222" lon="10.7139667" timestamp="2019-05-07T07:16:01Z" uid="633013" user="Honning" version="1">
		<tag k="name" v="Klokkerud" />
		<tag k="place" v="hamlet" />
		<tag k="ssr:stedsnr" v="549677" />
	</node>
	<node changeset="69962493" id="6454043928" lat="59.5917528" lon="10.8120778" timestamp="2019-05-07T07:16:01Z" uid="633013" user="Honning" version="1">
		<tag k="alt_name" v="Kjærstad;Kjærstad nordre" />
		<tag k="name" v="Nordre Kjærstad" />
		<tag k="place" v="farm" />
		<tag k="ssr:stedsnr" v="550029" />
	</node>
	<node changeset="69962493" id="6454043929" lat="59.5218083" lon="10.7632111" timestamp="2019-05-07T07:16:01Z" uid="633013" user="Honning" version="1">
		<tag k="alt_name" v="Østerud, søndre" />
		<tag k="name" v="Søndre Østerud" />
		<tag k="place" v="farm" />
		<tag k="ssr:stedsnr" v="550051" />
	</node>
	<node changeset="69962493" id="6454043930" lat="59.5775944" lon="10.7739865" timestamp="2019-05-07T07:16:02Z" uid="633013" user="Honning" version="1">
		<tag k="alt_name" v="Rustad, nordre" />
		<tag k="name" v="Nordre Rustad" />
		<tag k="place" v="farm" />
		<tag k="ssr:stedsnr" v="550174" />
	</node>
	<node changeset="69962493" id="6454043931" lat="59.5762778" lon="10.7617861" timestamp="2019-05-07T07:16:02Z" uid="633013" user="Honning" version="1">
		<tag k="alt_name" v="Søndre To" />
		<tag k="name" v="To" />
		<tag k="place" v="farm" />
		<tag k="ssr:stedsnr" v="610190" />
	</node>
	<node changeset="69962493" id="6454043932" lat="59.5834088" lon="10.7511192" timestamp="2019-05-07T07:16:02Z" uid="633013" user="Honning" version="1">
		<tag k="name" v="Røddal" />
		<tag k="place" v="hamlet" />
		<tag k="ssr:stedsnr" v="610219" />
	</node>
	<node changeset="76011763" id="2490833114" lat="59.5159011" lon="10.7200295" timestamp="2019-10-21T17:44:27Z" uid="633013" user="Honning" version="3" />
	<node changeset="69962493" id="6454043934" lat="59.5122278" lon="10.7690111" timestamp="2019-05-07T07:16:02Z" uid="633013" user="Honning" version="1">
		<tag k="name" v="Borgerudbråten" />
		<tag k="place" v="locality" />
		<tag k="ssr:stedsnr" v="568123" />
	</node>
	<node changeset="76011763" id="6454043935" lat="59.5124921" lon="10.724861" timestamp="2019-10-21T17:44:27Z" uid="633013" user="Honning" version="2" />
	<node changeset="69962493" id="6454043936" lat="59.5890417" lon="10.8071333" timestamp="2019-05-07T07:16:02Z" uid="633013" user="Honning" version="1">
		<tag k="alt_name" v="Tuft øvre;Tuft" />
		<tag k="name" v="Øvre Tuft" />
		<tag k="place" v="farm" />
		<tag k="ssr:stedsnr" v="568156" />
	</node>
	<node changeset="69962493" id="6454043937" lat="59.5885528" lon="10.8118639" timestamp="2019-05-07T07:16:02Z" uid="633013" user="Honning" version="1">
		<tag k="alt_name" v="Kjærstad vestre" />
		<tag k="name" v="Vestre Kjærstad" />
		<tag k="place" v="farm" />
		<tag k="ssr:stedsnr" v="568158" />
	</node>
	<node changeset="69962493" id="6454043938" lat="59.5760917" lon="10.8013667" timestamp="2019-05-07T07:16:02Z" uid="633013" user="Honning" version="1">
		<tag k="name" v="Garderbråten" />
		<tag k="place" v="farm" />
		<tag k="ssr:stedsnr" v="568165" />
	</node>
	<node changeset="69962493" id="6454043939" lat="59.580025" lon="10.8027945" timestamp="2019-05-07T07:16:02Z" uid="633013" user="Honning" version="1">
		<tag k="name" v="Fjelltun" />
		<tag k="place" v="farm" />
		<tag k="ssr:stedsnr" v="568167" />
	</node>
	<node changeset="69962493" id="6454043940" lat="59.5590167" lon="10.7740528" timestamp="2019-05-07T07:16:02Z" uid="633013" user="Honning" version="1">
		<tag k="name" v="Slettebakke" />
		<tag k="place" v="farm" />
		<tag k="ssr:stedsnr" v="568195" />
	</node>
	<node changeset="69962493" id="6454043941" lat="59.5646861" lon="10.7259306" timestamp="2019-05-07T07:16:02Z" uid="633013" user="Honning" version="1">
		<tag k="loc_name" v="Opp-Kjenn;Oppkjenn" />
		<tag k="name" v="Øvre Kjenn" />
		<tag k="place" v="farm" />
		<tag k="ssr:stedsnr" v="568216" />
	</node>
	<node changeset="69962493" id="6454043942" lat="59.5647028" lon="10.8053917" timestamp="2019-05-07T07:16:02Z" uid="633013" user="Honning" version="1">
		<tag k="name" v="Bru" />
		<tag k="place" v="locality" />
		<tag k="ssr:stedsnr" v="568248" />
	</node>
	<node changeset="69962493" id="6454043943" lat="59.6091333" lon="10.81885" timestamp="2019-05-07T07:16:02Z" uid="633013" user="Honning" version="1">
		<tag k="name" v="Firemannsdelet" />
		<tag k="place" v="locality" />
		<tag k="ssr:stedsnr" v="568759" />
	</node>
	<node changeset="69962493" id="6454043944" lat="59.6237583" lon="10.777425" timestamp="2019-05-07T07:16:02Z" uid="633013" user="Honning" version="1">
		<tag k="name" v="Tveterengen" />
		<tag k="place" v="isolated_dwelling" />
		<tag k="ssr:stedsnr" v="568777" />
	</node>
	<node changeset="69962493" id="6454044892" lat="59.59075" lon="10.8503528" timestamp="2019-05-07T07:16:16Z" uid="633013" user="Honning" version="1">
		<tag k="name" v="Halle" />
		<tag k="place" v="farm" />
		<tag k="ssr:stedsnr" v="4191" />
	</node>
	<node changeset="69962493" id="6454043946" lat="59.5067028" lon="10.6880861" timestamp="2019-05-07T07:16:02Z" uid="633013" user="Honning" version="1">
		<tag k="name" v="Solåsen" />
		<tag k="place" v="farm" />
		<tag k="ssr:stedsnr" v="593277" />
	</node>
	<node changeset="69962493" id="6454043947" lat="59.5450361" lon="10.7614306" timestamp="2019-05-07T07:16:02Z" uid="633013" user="Honning" version="1">
		<tag k="alt_name" v="Auerød" />
		<tag k="name" v="Nordre Auerud" />
		<tag k="place" v="farm" />
		<tag k="ssr:stedsnr" v="599207" />
	</node>
	<node changeset="69962493" id="6454043948" lat="59.5514736" lon="10.7666464" timestamp="2019-05-07T07:16:03Z" uid="633013" user="Honning" version="1">
		<tag k="name" v="Åmot" />
		<tag k="place" v="hamlet" />
		<tag k="ssr:stedsnr" v="599376" />
	</node>
	<node changeset="69962493" id="6454043949" lat="59.6061889" lon="10.6583389" timestamp="2019-05-07T07:16:03Z" uid="633013" user="Honning" version="1">
		<tag k="name" v="Rugbråten" />
		<tag k="place" v="locality" />
		<tag k="ssr:stedsnr" v="602237" />
	</node>
	<node changeset="69962493" id="6454043950" lat="59.5486333" lon="10.6824167" timestamp="2019-05-07T07:16:03Z" uid="633013" user="Honning" version="1">
		<tag k="alt_name" v="Roastad øvre" />
		<tag k="name" v="Øvre Roastad" />
		<tag k="place" v="farm" />
		<tag k="ssr:stedsnr" v="602292" />
	</node>
	<node changeset="69962493" id="6454043951" lat="59.5242028" lon="10.6754" timestamp="2019-05-07T07:16:03Z" uid="633013" user="Honning" version="1">
		<tag k="name" v="Stamnes" />
		<tag k="place" v="farm" />
		<tag k="ssr:stedsnr" v="602426" />
	</node>
	<node changeset="69962493" id="6454043953" lat="59.6103222" lon="10.6947167" timestamp="2019-05-07T07:16:03Z" uid="633013" user="Honning" version="1">
		<tag k="name" v="Haugtun" />
		<tag k="place" v="isolated_dwelling" />
		<tag k="ssr:stedsnr" v="604162" />
	</node>
	<node changeset="69962493" id="6454043954" lat="59.5805944" lon="10.6524222" timestamp="2019-05-07T07:16:03Z" uid="633013" user="Honning" version="1">
		<tag k="name" v="Nordre Brånen" />
		<tag k="place" v="farm" />
		<tag k="ssr:stedsnr" v="604549" />
	</node>
	<node changeset="69962493" id="6454043955" lat="59.628375" lon="10.7683111" timestamp="2019-05-07T07:16:03Z" uid="633013" user="Honning" version="1">
		<tag k="name" v="Støttumtangen" />
		<tag k="place" v="farm" />
		<tag k="ssr:stedsnr" v="609323" />
	</node>
	<node changeset="69962493" id="6454043956" lat="59.6204889" lon="10.7374361" timestamp="2019-05-07T07:16:03Z" uid="633013" user="Honning" version="1">
		<tag k="name" v="Verpet" />
		<tag k="place" v="farm" />
		<tag k="ssr:stedsnr" v="609337" />
	</node>
	<node changeset="69962493" id="6454043957" lat="59.6242778" lon="10.689975" timestamp="2019-05-07T07:16:03Z" uid="633013" user="Honning" version="1">
		<tag k="name" v="Vernhus" />
		<tag k="place" v="farm" />
		<tag k="ssr:stedsnr" v="609639" />
	</node>
	<node changeset="69962493" id="6454039862" lat="59.5360278" lon="10.7158333" timestamp="2019-05-07T07:15:58Z" uid="633013" user="Honning" version="1">
		<tag k="name" v="Stavsenga" />
		<tag k="place" v="locality" />
		<tag k="ssr:stedsnr" v="421274" />
	</node>
	<node changeset="69962493" id="6454043959" lat="59.54105" lon="10.7790389" timestamp="2019-05-07T07:16:03Z" uid="633013" user="Honning" version="1">
		<tag k="alt_name" v="Holm, nordre;Holm nordre" />
		<tag k="name" v="Nordre Holm" />
		<tag k="place" v="farm" />
		<tag k="ssr:stedsnr" v="610026" />
	</node>
	<node changeset="69962493" id="6454043960" lat="59.5144417" lon="10.7486472" timestamp="2019-05-07T07:16:03Z" uid="633013" user="Honning" version="1">
		<tag k="alt_name" v="Burud" />
		<tag k="name" v="Burød" />
		<tag k="place" v="farm" />
		<tag k="ssr:stedsnr" v="610040" />
	</node>
	<node changeset="69962493" id="6454039865" lat="59.5593222" lon="10.7621917" timestamp="2019-05-07T07:15:58Z" uid="633013" user="Honning" version="1">
		<tag k="alt_name" v="Krafoss (nedl.)" />
		<tag k="name" v="Krafoss" />
		<tag k="place" v="locality" />
		<tag k="ssr:stedsnr" v="428175" />
	</node>
	<node changeset="69962493" id="6454043962" lat="59.5400333" lon="10.6871139" timestamp="2019-05-07T07:16:03Z" uid="633013" user="Honning" version="1">
		<tag k="name" v="Kinne" />
		<tag k="place" v="farm" />
		<tag k="ssr:stedsnr" v="610577" />
	</node>
	<node changeset="69962493" id="6454039867" lat="59.5366056" lon="10.7128194" timestamp="2019-05-07T07:15:58Z" uid="633013" user="Honning" version="1">
		<tag k="name" v="Dypendal" />
		<tag k="place" v="isolated_dwelling" />
		<tag k="ssr:stedsnr" v="428495" />
	</node>
	<node changeset="69962493" id="6454039868" lat="59.5333861" lon="10.6766833" timestamp="2019-05-07T07:15:58Z" uid="633013" user="Honning" version="1">
		<tag k="name" v="Stamnes" />
		<tag k="place" v="farm" />
		<tag k="ssr:stedsnr" v="428507" />
	</node>
	<node changeset="69962493" id="6454039869" lat="59.6020449" lon="10.689111" timestamp="2019-05-07T07:15:58Z" uid="633013" user="Honning" version="1">
		<tag k="name" v="Ugjestrød" />
		<tag k="place" v="farm" />
		<tag k="ssr:stedsnr" v="428593" />
	</node>
	<node changeset="69962493" id="6454043966" lat="59.5826889" lon="10.8175083" timestamp="2019-05-07T07:16:04Z" uid="633013" user="Honning" version="1">
		<tag k="name" v="Hovtun" />
		<tag k="place" v="farm" />
		<tag k="ssr:stedsnr" v="629164" />
	</node>
	<node changeset="69962493" id="6454039871" lat="59.5922861" lon="10.7076389" timestamp="2019-05-07T07:15:58Z" uid="633013" user="Honning" version="1">
		<tag k="name" v="Jonsrud" />
		<tag k="place" v="isolated_dwelling" />
		<tag k="ssr:stedsnr" v="428719" />
	</node>
	<node changeset="69962493" id="6454039872" lat="59.5913472" lon="10.6791111" timestamp="2019-05-07T07:15:58Z" uid="633013" user="Honning" version="1">
		<tag k="name" v="Strandsødegarden" />
		<tag k="place" v="farm" />
		<tag k="ssr:stedsnr" v="428733" />
	</node>
	<node changeset="69962493" id="6454039873" lat="59.5811167" lon="10.7605333" timestamp="2019-05-07T07:15:58Z" uid="633013" user="Honning" version="1">
		<tag k="alt_name" v="Vestre To" />
		<tag k="name" v="To" />
		<tag k="place" v="farm" />
		<tag k="ssr:stedsnr" v="429169" />
	</node>
	<node changeset="69962493" id="6454039874" lat="59.50035" lon="10.7584583" timestamp="2019-05-07T07:15:58Z" uid="633013" user="Honning" version="1">
		<tag k="name" v="Hansbråten" />
		<tag k="place" v="locality" />
		<tag k="ssr:stedsnr" v="447063" />
	</node>
	<node changeset="69962493" id="6454039875" lat="59.5406639" lon="10.7349694" timestamp="2019-05-07T07:15:59Z" uid="633013" user="Honning" version="1">
		<tag k="name" v="Elverhøy" />
		<tag k="place" v="farm" />
		<tag k="ssr:stedsnr" v="447097" />
	</node>
	<node changeset="69962493" id="6454039876" lat="59.5934694" lon="10.7485611" timestamp="2019-05-07T07:15:59Z" uid="633013" user="Honning" version="1">
		<tag k="name" v="Balserud" />
		<tag k="place" v="locality" />
		<tag k="ssr:stedsnr" v="447148" />
	</node>
	<node changeset="69962493" id="6454039877" lat="59.5946056" lon="10.7680528" timestamp="2019-05-07T07:15:59Z" uid="633013" user="Honning" version="1">
		<tag k="name" v="Børjaneset" />
		<tag k="place" v="locality" />
		<tag k="ssr:stedsnr" v="447149" />
	</node>
	<node changeset="69962493" id="6454043974" lat="59.5972083" lon="10.7680556" timestamp="2019-05-07T07:16:04Z" uid="633013" user="Honning" version="1">
		<tag k="name" v="Grøstaddalen" />
		<tag k="place" v="farm" />
		<tag k="ssr:stedsnr" v="629796" />
	</node>
	<node changeset="69962493" id="6454039879" lat="59.5934833" lon="10.8236667" timestamp="2019-05-07T07:15:59Z" uid="633013" user="Honning" version="1">
		<tag k="name" v="Bjørkelia" />
		<tag k="place" v="isolated_dwelling" />
		<tag k="ssr:stedsnr" v="447182" />
	</node>
	<node changeset="69962493" id="6454039880" lat="59.5759806" lon="10.818625" timestamp="2019-05-07T07:15:59Z" uid="633013" user="Honning" version="1">
		<tag k="name" v="Granlund" />
		<tag k="place" v="isolated_dwelling" />
		<tag k="ssr:stedsnr" v="447183" />
	</node>
	<node changeset="69962493" id="6454039881" lat="59.6269889" lon="10.7367861" timestamp="2019-05-07T07:15:59Z" uid="633013" user="Honning" version="1">
		<tag k="alt_name" v="Rød søndre" />
		<tag k="name" v="Søndre Rød" />
		<tag k="place" v="farm" />
		<tag k="ssr:stedsnr" v="447198" />
	</node>
	<node changeset="69962493" id="6454039882" lat="59.5429389" lon="10.7344472" timestamp="2019-05-07T07:15:59Z" uid="633013" user="Honning" version="1">
		<tag k="name" v="Muggestad" />
		<tag k="place" v="farm" />
		<tag k="ssr:stedsnr" v="448116" />
	</node>
	<node changeset="69962493" id="6454039883" lat="59.5919306" lon="10.7287778" timestamp="2019-05-07T07:15:59Z" uid="633013" user="Honning" version="1">
		<tag k="name" v="Sorgenfri" />
		<tag k="place" v="hamlet" />
		<tag k="ssr:stedsnr" v="448144" />
	</node>
	<node changeset="69962493" id="6454039884" lat="59.4975306" lon="10.7084556" timestamp="2019-05-07T07:15:59Z" uid="633013" user="Honning" version="1">
		<tag k="alt_name" v="Rød vestre; Vestre Rød" />
		<tag k="name" v="Opp-Rød" />
		<tag k="place" v="farm" />
		<tag k="ssr:stedsnr" v="480435" />
	</node>
	<node changeset="69962493" id="6454043981" lat="59.6282361" lon="10.7005306" timestamp="2019-05-07T07:16:04Z" uid="633013" user="Honning" version="1">
		<tag k="name" v="Evensgalby" />
		<tag k="place" v="locality" />
		<tag k="ssr:stedsnr" v="665169" />
	</node>
	<node changeset="69962493" id="6454043982" lat="59.6400278" lon="10.6952028" timestamp="2019-05-07T07:16:04Z" uid="633013" user="Honning" version="1">
		<tag k="name" v="Øvre Linnestad" />
		<tag k="place" v="farm" />
		<tag k="ssr:stedsnr" v="665565" />
	</node>
	<node changeset="69962493" id="6454043983" lat="59.62427" lon="10.7823858" timestamp="2019-05-07T07:16:04Z" uid="633013" user="Honning" version="1">
		<tag k="alt_name" v="Tveiter, søndre;Søndre Tveiter" />
		<tag k="name" v="Søndre Tveter" />
		<tag k="place" v="farm" />
		<tag k="ssr:stedsnr" v="670325" />
	</node>
	<node changeset="69962493" id="6454043984" lat="59.6280528" lon="10.772875" timestamp="2019-05-07T07:16:04Z" uid="633013" user="Honning" version="1">
		<tag k="name" v="Støttum" />
		<tag k="place" v="farm" />
		<tag k="ssr:stedsnr" v="670330" />
	</node>
	<node changeset="76011763" id="2490833124" lat="59.5157083" lon="10.7205406" timestamp="2019-10-21T17:44:27Z" uid="633013" user="Honning" version="2" />
	<node changeset="69962493" id="6454044904" lat="59.5193944" lon="10.6888778" timestamp="2019-05-07T07:16:17Z" uid="633013" user="Honning" version="1">
		<tag k="name" v="Midtskogen" />
		<tag k="place" v="isolated_dwelling" />
		<tag k="ssr:stedsnr" v="56725" />
	</node>
	<node changeset="69962493" id="1722015098" lat="59.5660528" lon="10.6883139" timestamp="2019-05-07T07:16:25Z" uid="633013" user="Honning" version="2">
		<tag k="alt_name" v="Nubsrud" />
		<tag k="name" v="Nubsrød" />
		<tag k="place" v="farm" />
		<tag k="ssr:stedsnr" v="549693" />
	</node>
	<node changeset="76011763" id="6903532259" lat="59.5118185" lon="10.7258159" timestamp="2019-10-21T17:44:27Z" uid="633013" user="Honning" version="1" />
	<node changeset="69962493" id="2898499014" lat="59.6225306" lon="10.7460528" timestamp="2019-05-07T07:16:27Z" uid="633013" user="Honning" version="2">
		<tag k="name" v="Revling" />
		<tag k="place" v="farm" />
		<tag k="ssr:stedsnr" v="731293" />
	</node>
	<node changeset="69962493" id="2898499015" lat="59.623875" lon="10.75265" timestamp="2019-05-07T07:16:27Z" uid="633013" user="Honning" version="2">
		<tag k="alt_name" v="Stubberud" />
		<tag k="name" v="Stubberød" />
		<tag k="place" v="farm" />
		<tag k="ssr:stedsnr" v="913316" />
	</node>
	<node changeset="69962493" id="6454044886" lat="59.5936056" lon="10.6781445" timestamp="2019-05-07T07:16:16Z" uid="633013" user="Honning" version="1">
		<tag k="name" v="Brattås" />
		<tag k="place" v="farm" />
		<tag k="ssr:stedsnr" v="3735" />
	</node>
	<node changeset="69962493" id="2481360449" lat="59.5812917" lon="10.6544167" timestamp="2019-05-07T07:16:27Z" uid="633013" user="Honning" version="2">
		<tag k="name" v="Emmerstad" />
		<tag k="place" v="farm" />
		<tag k="ssr:stedsnr" v="670717" />
	</node>
	<node changeset="69962493" id="6454044461" lat="59.5534722" lon="10.6543472" timestamp="2019-05-07T07:16:09Z" uid="633013" user="Honning" version="1">
		<tag k="name" v="Stjernåsen" />
		<tag k="place" v="hamlet" />
		<tag k="ssr:stedsnr" v="847970" />
	</node>
	<node changeset="69962493" id="6454043933" lat="59.545975" lon="10.75035" timestamp="2019-05-07T07:16:02Z" uid="633013" user="Honning" version="1">
		<tag k="name" v="Brandstad" />
		<tag k="place" v="farm" />
		<tag k="ssr:stedsnr" v="610268" />
	</node>
	<node changeset="71131427" id="6539095733" lat="59.499185" lon="10.749473" timestamp="2019-06-11T08:44:23Z" uid="4198735" user="michalzz" version="1" />
	<node changeset="71131427" id="6539095734" lat="59.4990829" lon="10.750293" timestamp="2019-06-11T08:44:23Z" uid="4198735" user="michalzz" version="1" />
	<node changeset="71131427" id="6539095735" lat="59.4987923" lon="10.7504528" timestamp="2019-06-11T08:44:23Z" uid="4198735" user="michalzz" version="1" />
	<node changeset="71131427" id="6539095736" lat="59.4985986" lon="10.7501744" timestamp="2019-06-11T08:44:23Z" uid="4198735" user="michalzz" version="1" />
	<node changeset="71131427" id="6539095737" lat="59.4981353" lon="10.7501795" timestamp="2019-06-11T08:44:23Z" uid="4198735" user="michalzz" version="1" />
	<node changeset="71131427" id="6539095739" lat="59.4984521" lon="10.748555" timestamp="2019-06-11T08:44:23Z" uid="4198735" user="michalzz" version="1" />
	<node changeset="71131427" id="6539095740" lat="59.4989206" lon="10.7489985" timestamp="2019-06-11T08:44:23Z" uid="4198735" user="michalzz" version="1" />
	<node changeset="69962493" id="1737324231" lat="59.5994028" lon="10.7926444" timestamp="2019-05-07T07:16:26Z" uid="633013" user="Honning" version="3">
		<tag k="alt_name" v="Jeksrud;Gjeksrud" />
		<tag k="name" v="Gjeksrød" />
		<tag k="place" v="farm" />
		<tag k="source:name" v="Vegskilt. Antar at Jeksrud ligger innerst." />
		<tag k="ssr:stedsnr" v="186144" />
	</node>
	<node changeset="69962493" id="1737324235" lat="59.6076472" lon="10.7864944" timestamp="2019-05-07T07:16:26Z" uid="633013" user="Honning" version="2">
		<tag k="name" v="Kalføss" />
		<tag k="place" v="farm" />
		<tag k="ssr:stedsnr" v="246360" />
	</node>
	<node changeset="69962493" id="1737324246" lat="59.61005" lon="10.769775" timestamp="2019-05-07T07:16:26Z" uid="633013" user="Honning" version="3">
		<tag k="name" v="Kjensli" />
		<tag k="place" v="farm" />
		<tag k="source:name" v="Stedsnavnskilt i krysset." />
		<tag k="ssr:stedsnr" v="488349" />
	</node>
	<node changeset="69962493" id="6454044385" lat="59.6313" lon="10.6836972" timestamp="2019-05-07T07:16:05Z" uid="633013" user="Honning" version="1">
		<tag k="alt_name" v="Galby, vestre" />
		<tag k="name" v="Vestre Galby" />
		<tag k="place" v="farm" />
		<tag k="ssr:stedsnr" v="670653" />
	</node>
	<node changeset="69962493" id="6454044386" lat="59.6303639" lon="10.6964889" timestamp="2019-05-07T07:16:05Z" uid="633013" user="Honning" version="1">
		<tag k="alt_name" v="Galby;Galby østre" />
		<tag k="name" v="Østre Galby" />
		<tag k="place" v="farm" />
		<tag k="ssr:stedsnr" v="670658" />
	</node>
	<node changeset="69962493" id="6454044387" lat="59.5604861" lon="10.6564611" timestamp="2019-05-07T07:16:05Z" uid="633013" user="Honning" version="1">
		<tag k="name" v="Kjære" />
		<tag k="place" v="farm" />
		<tag k="ssr:stedsnr" v="670674" />
	</node>
	<node changeset="69962493" id="6454044388" lat="59.570525" lon="10.6530417" timestamp="2019-05-07T07:16:05Z" uid="633013" user="Honning" version="1">
		<tag k="alt_name" v="Skjellvika" />
		<tag k="name" v="Skjelavika" />
		<tag k="place" v="isolated_dwelling" />
		<tag k="ssr:stedsnr" v="670693" />
	</node>
	<node changeset="69962493" id="6454044389" lat="59.5291889" lon="10.7615222" timestamp="2019-05-07T07:16:05Z" uid="633013" user="Honning" version="1">
		<tag k="name" v="Fosser" />
		<tag k="place" v="farm" />
		<tag k="ssr:stedsnr" v="671002" />
	</node>
	<node changeset="69962493" id="6454044390" lat="59.5210472" lon="10.771975" timestamp="2019-05-07T07:16:05Z" uid="633013" user="Honning" version="1">
		<tag k="name" v="Pusset" />
		<tag k="place" v="farm" />
		<tag k="ssr:stedsnr" v="671055" />
	</node>
	<node changeset="69962493" id="6454044391" lat="59.5951556" lon="10.7322028" timestamp="2019-05-07T07:16:05Z" uid="633013" user="Honning" version="1">
		<tag k="alt_name" v="Rød;Rød øvre" />
		<tag k="name" v="Øvre Rød" />
		<tag k="place" v="farm" />
		<tag k="ssr:stedsnr" v="671134" />
	</node>
	<node changeset="69962493" id="6454044392" lat="59.6051111" lon="10.752325" timestamp="2019-05-07T07:16:05Z" uid="633013" user="Honning" version="1">
		<tag k="name" v="Vestby" />
		<tag k="place" v="village" />
		<tag k="ssr:stedsnr" v="671145" />
	</node>
	<node changeset="69962493" id="6454044393" lat="59.5768556" lon="10.7822889" timestamp="2019-05-07T07:16:05Z" uid="633013" user="Honning" version="1">
		<tag k="alt_name" v="Rustad, østre;Rustad østre" />
		<tag k="name" v="Østre Rustad" />
		<tag k="place" v="farm" />
		<tag k="ssr:stedsnr" v="671161" />
	</node>
	<node changeset="69962493" id="6454044394" lat="59.5880361" lon="10.8117861" timestamp="2019-05-07T07:16:05Z" uid="633013" user="Honning" version="1">
		<tag k="name" v="Kjærstad" />
		<tag k="place" v="farm" />
		<tag k="ssr:stedsnr" v="671182" />
	</node>
	<node changeset="69962493" id="1737324267" lat="59.616325" lon="10.7883361" timestamp="2019-05-07T07:16:26Z" uid="633013" user="Honning" version="2">
		<tag k="alt_name" v="Lesteberg, vestre;Lesteberg vestre" />
		<tag k="name" v="Vestre Lesteberg" />
		<tag k="place" v="farm" />
		<tag k="ssr:stedsnr" v="670358" />
	</node>
	<node changeset="69962493" id="6454044396" lat="59.6053139" lon="10.6978139" timestamp="2019-05-07T07:16:05Z" uid="633013" user="Honning" version="1">
		<tag k="name" v="Løktås" />
		<tag k="place" v="farm" />
		<tag k="ssr:stedsnr" v="671633" />
	</node>
	<node changeset="69962493" id="6454044397" lat="59.6124444" lon="10.7072805" timestamp="2019-05-07T07:16:05Z" uid="633013" user="Honning" version="1">
		<tag k="name" v="Ekerholt" />
		<tag k="place" v="farm" />
		<tag k="ssr:stedsnr" v="671647" />
	</node>
	<node changeset="69962493" id="6454044398" lat="59.6349222" lon="10.68785" timestamp="2019-05-07T07:16:05Z" uid="633013" user="Honning" version="1">
		<tag k="name" v="Fuglegården" />
		<tag k="place" v="farm" />
		<tag k="ssr:stedsnr" v="671693" />
	</node>
	<node changeset="69962493" id="6454044399" lat="59.6146083" lon="10.6882139" timestamp="2019-05-07T07:16:05Z" uid="633013" user="Honning" version="1">
		<tag k="alt_name" v="Toverud, nedre" />
		<tag k="name" v="Nedre Toverud" />
		<tag k="place" v="farm" />
		<tag k="ssr:stedsnr" v="731597" />
	</node>
	<node changeset="69962493" id="6454044400" lat="59.5407778" lon="10.7448583" timestamp="2019-05-07T07:16:05Z" uid="633013" user="Honning" version="1">
		<tag k="name" v="Riulfsborg" />
		<tag k="place" v="isolated_dwelling" />
		<tag k="ssr:stedsnr" v="690098" />
	</node>
	<node changeset="69962493" id="6454044401" lat="59.5822722" lon="10.7235278" timestamp="2019-05-07T07:16:05Z" uid="633013" user="Honning" version="1">
		<tag k="name" v="Sollibråten" />
		<tag k="place" v="farm" />
		<tag k="ssr:stedsnr" v="690135" />
	</node>
	<node changeset="69962493" id="6454044402" lat="59.5761111" lon="10.79005" timestamp="2019-05-07T07:16:05Z" uid="633013" user="Honning" version="1">
		<tag k="name" v="Drømmerud" />
		<tag k="place" v="farm" />
		<tag k="ssr:stedsnr" v="690206" />
	</node>
	<node changeset="69962493" id="6454044403" lat="59.5881444" lon="10.8170889" timestamp="2019-05-07T07:16:06Z" uid="633013" user="Honning" version="1">
		<tag k="name" v="Åsly" />
		<tag k="place" v="isolated_dwelling" />
		<tag k="ssr:stedsnr" v="690236" />
	</node>
	<node changeset="69962493" id="6454044404" lat="59.6173083" lon="10.7698417" timestamp="2019-05-07T07:16:06Z" uid="633013" user="Honning" version="1">
		<tag k="name" v="Teipa" />
		<tag k="place" v="farm" />
		<tag k="ssr:stedsnr" v="690277" />
	</node>
	<node changeset="69962493" id="6454044405" lat="59.6087278" lon="10.7608083" timestamp="2019-05-07T07:16:06Z" uid="633013" user="Honning" version="1">
		<tag k="name" v="Volden" />
		<tag k="place" v="farm" />
		<tag k="ssr:stedsnr" v="690824" />
	</node>
	<node changeset="69962493" id="6454044406" lat="59.5505278" lon="10.7275945" timestamp="2019-05-07T07:16:06Z" uid="633013" user="Honning" version="1">
		<tag k="name" v="Nordre Karder" />
		<tag k="place" v="farm" />
		<tag k="ssr:stedsnr" v="691130" />
	</node>
	<node changeset="69962493" id="6454043945" lat="59.58415" lon="10.7456139" timestamp="2019-05-07T07:16:02Z" uid="633013" user="Honning" version="1">
		<tag k="name" v="Lureklo" />
		<tag k="place" v="farm" />
		<tag k="ssr:stedsnr" v="569185" />
	</node>
	<node changeset="69962493" id="6454044408" lat="59.5792194" lon="10.6517861" timestamp="2019-05-07T07:16:06Z" uid="633013" user="Honning" version="1">
		<tag k="alt_name" v="Brånen" />
		<tag k="name" v="Brånan" />
		<tag k="old_name" v="Braanen" />
		<tag k="place" v="farm" />
		<tag k="ssr:stedsnr" v="692922" />
	</node>
	<node changeset="69962493" id="6454044409" lat="59.6276333" lon="10.7823944" timestamp="2019-05-07T07:16:06Z" uid="633013" user="Honning" version="1">
		<tag k="alt_name" v="Tveiter mellem;Mellom Tveiter" />
		<tag k="name" v="Mellom-Tveter" />
		<tag k="place" v="farm" />
		<tag k="ssr:stedsnr" v="693307" />
	</node>
	<node changeset="69962493" id="6454044410" lat="59.5771562" lon="10.7014398" timestamp="2019-05-07T07:16:06Z" uid="633013" user="Honning" version="1">
		<tag k="name" v="Stubberud" />
		<tag k="place" v="hamlet" />
		<tag k="ssr:stedsnr" v="731683" />
	</node>
	<node changeset="69962493" id="6454044411" lat="59.5419806" lon="10.664575" timestamp="2019-05-07T07:16:06Z" uid="633013" user="Honning" version="1">
		<tag k="name" v="Sofienberg" />
		<tag k="place" v="isolated_dwelling" />
		<tag k="ssr:stedsnr" v="724237" />
	</node>
	<node changeset="75603948" id="6454044412" lat="59.5202086" lon="10.7023654" timestamp="2019-10-12T15:51:43Z" uid="633013" user="Honning" version="2">
		<tag k="name" v="Husjordet" />
		<tag k="place" v="farm" />
		<tag k="ssr:stedsnr" v="724386" />
	</node>
	<node changeset="69962493" id="6454044413" lat="59.6161639" lon="10.7292778" timestamp="2019-05-07T07:16:06Z" uid="633013" user="Honning" version="1">
		<tag k="name" v="Li" />
		<tag k="place" v="farm" />
		<tag k="ssr:stedsnr" v="731292" />
	</node>
	<node changeset="69962493" id="6454044414" lat="59.5869235" lon="10.6929147" timestamp="2019-05-07T07:16:06Z" uid="633013" user="Honning" version="1">
		<tag k="name" v="Rønjul" />
		<tag k="place" v="hamlet" />
		<tag k="ssr:stedsnr" v="731717" />
	</node>
	<node changeset="76011763" id="6454044415" lat="59.5082937" lon="10.7446852" timestamp="2019-10-21T17:44:27Z" uid="633013" user="Honning" version="2" />
	<node changeset="69962493" id="6454044416" lat="59.5704992" lon="10.7209302" timestamp="2019-05-07T07:16:06Z" uid="633013" user="Honning" version="1">
		<tag k="name" v="Tømt" />
		<tag k="place" v="hamlet" />
		<tag k="ssr:stedsnr" v="732176" />
	</node>
	<node changeset="69962493" id="6454044417" lat="59.5827167" lon="10.8355167" timestamp="2019-05-07T07:16:06Z" uid="633013" user="Honning" version="1">
		<tag k="name" v="Jonsrud" />
		<tag k="place" v="farm" />
		<tag k="ssr:stedsnr" v="732183" />
	</node>
	<node changeset="69962493" id="6454044418" lat="59.54595" lon="10.761925" timestamp="2019-05-07T07:16:06Z" uid="633013" user="Honning" version="1">
		<tag k="alt_name" v="Åmot lille" />
		<tag k="name" v="Lille Åmot" />
		<tag k="place" v="farm" />
		<tag k="ssr:stedsnr" v="750092" />
	</node>
	<node changeset="69962493" id="6454044419" lat="59.5746417" lon="10.7996639" timestamp="2019-05-07T07:16:06Z" uid="633013" user="Honning" version="1">
		<tag k="name" v="Bjerkelangen" />
		<tag k="place" v="isolated_dwelling" />
		<tag k="ssr:stedsnr" v="750128" />
	</node>
	<node changeset="69962493" id="6454044420" lat="59.583675" lon="10.7529083" timestamp="2019-05-07T07:16:06Z" uid="633013" user="Honning" version="1">
		<tag k="alt_name" v="Røddal østre" />
		<tag k="name" v="Østre Røddal" />
		<tag k="place" v="farm" />
		<tag k="ssr:stedsnr" v="750135" />
	</node>
	<node changeset="69962493" id="6454044421" lat="59.5634444" lon="10.7651528" timestamp="2019-05-07T07:16:07Z" uid="633013" user="Honning" version="1">
		<tag k="name" v="Bråten" />
		<tag k="place" v="farm" />
		<tag k="ssr:stedsnr" v="750156" />
	</node>
	<node changeset="69962493" id="6454044422" lat="59.5892528" lon="10.8568667" timestamp="2019-05-07T07:16:07Z" uid="633013" user="Honning" version="1">
		<tag k="alt_name" v="Halle østre" />
		<tag k="name" v="Østre Halle" />
		<tag k="place" v="farm" />
		<tag k="ssr:stedsnr" v="750744" />
	</node>
	<node changeset="69962493" id="6454044423" lat="59.5459222" lon="10.7295" timestamp="2019-05-07T07:16:07Z" uid="633013" user="Honning" version="1">
		<tag k="name" v="Søndre Karder" />
		<tag k="place" v="farm" />
		<tag k="ssr:stedsnr" v="751107" />
	</node>
	<node changeset="69962493" id="6454044424" lat="59.5501139" lon="10.746975" timestamp="2019-05-07T07:16:07Z" uid="633013" user="Honning" version="1">
		<tag k="name" v="Bylterudbråten" />
		<tag k="place" v="farm" />
		<tag k="ssr:stedsnr" v="751110" />
	</node>
	<node changeset="69962493" id="6454044425" lat="59.6034502" lon="10.7437668" timestamp="2019-05-07T07:16:07Z" uid="633013" user="Honning" version="1">
		<tag k="name" v="Randum" />
		<tag k="place" v="hamlet" />
		<tag k="ssr:stedsnr" v="782561" />
	</node>
	<node changeset="69962493" id="6454044426" lat="59.5469944" lon="10.6853778" timestamp="2019-05-07T07:16:07Z" uid="633013" user="Honning" version="1">
		<tag k="alt_name" v="Roastad nedre" />
		<tag k="name" v="Nedre Roastad" />
		<tag k="place" v="farm" />
		<tag k="ssr:stedsnr" v="784288" />
	</node>
	<node changeset="71897153" id="6454044427" lat="59.517591" lon="10.6834257" timestamp="2019-07-04T13:21:19Z" uid="633013" user="Honning" version="2">
		<tag k="name" v="Vestre Skog" />
		<tag k="place" v="isolated_dwelling" />
		<tag k="ssr:stedsnr" v="784714" />
	</node>
	<node changeset="69962493" id="6454044429" lat="59.6105056" lon="10.6936444" timestamp="2019-05-07T07:16:07Z" uid="633013" user="Honning" version="1">
		<tag k="name" v="Solheim" />
		<tag k="place" v="isolated_dwelling" />
		<tag k="ssr:stedsnr" v="786141" />
	</node>
	<node changeset="69962493" id="6454044430" lat="59.5578806" lon="10.6630056" timestamp="2019-05-07T07:16:07Z" uid="633013" user="Honning" version="1">
		<tag k="name" v="Snellum" />
		<tag k="place" v="locality" />
		<tag k="ssr:stedsnr" v="786547" />
	</node>
	<node changeset="69962493" id="6454044973" lat="59.5869833" lon="10.6663028" timestamp="2019-05-07T07:16:21Z" uid="633013" user="Honning" version="1">
		<tag k="name" v="Tolvstua" />
		<tag k="place" v="isolated_dwelling" />
		<tag k="ssr:stedsnr" v="208942" />
	</node>
	<node changeset="69962493" id="6454044432" lat="59.581475" lon="10.7082639" timestamp="2019-05-07T07:16:07Z" uid="633013" user="Honning" version="1">
		<tag k="name" v="Myra" />
		<tag k="place" v="isolated_dwelling" />
		<tag k="ssr:stedsnr" v="786759" />
	</node>
	<node changeset="69962493" id="6454044433" lat="59.5086611" lon="10.7349167" timestamp="2019-05-07T07:16:07Z" uid="633013" user="Honning" version="1">
		<tag k="alt_name" v="Tørbrekke" />
		<tag k="loc_name" v="Torbrekka" />
		<tag k="name" v="Torbrekke" />
		<tag k="place" v="farm" />
		<tag k="ssr:stedsnr" v="792051" />
	</node>
	<node changeset="69962493" id="6454044434" lat="59.6357333" lon="10.729125" timestamp="2019-05-07T07:16:07Z" uid="633013" user="Honning" version="1">
		<tag k="name" v="Jord" />
		<tag k="place" v="farm" />
		<tag k="ssr:stedsnr" v="791288" />
	</node>
	<node changeset="69962493" id="6454044435" lat="59.5937611" lon="10.7087417" timestamp="2019-05-07T07:16:07Z" uid="633013" user="Honning" version="1">
		<tag k="name" v="Filtvet" />
		<tag k="place" v="farm" />
		<tag k="ssr:stedsnr" v="791723" />
	</node>
	<node changeset="69962493" id="6454044436" lat="59.54445" lon="10.7443278" timestamp="2019-05-07T07:16:07Z" uid="633013" user="Honning" version="1">
		<tag k="name" v="Bruer" />
		<tag k="place" v="farm" />
		<tag k="ssr:stedsnr" v="792221" />
	</node>
	<node changeset="69962493" id="6454044437" lat="59.556575" lon="10.7285" timestamp="2019-05-07T07:16:07Z" uid="633013" user="Honning" version="1">
		<tag k="alt_name" v="Søndre Kjenn" />
		<tag k="name" v="Kjenn" />
		<tag k="place" v="farm" />
		<tag k="ssr:stedsnr" v="792234" />
	</node>
	<node changeset="70948068" id="6454044438" lat="59.5566873" lon="10.6535577" timestamp="2019-06-05T08:44:56Z" uid="4198735" user="michalzz" version="2">
		<tag k="name" v="Lunde" />
		<tag k="place" v="isolated_dwelling" />
		<tag k="ssr:stedsnr" v="792667" />
	</node>
	<node changeset="69962493" id="6454044439" lat="59.5195134" lon="10.732736" timestamp="2019-05-07T07:16:08Z" uid="633013" user="Honning" version="1">
		<tag k="name" v="Ulfski" />
		<tag k="place" v="hamlet" />
		<tag k="ssr:stedsnr" v="793045" />
	</node>
	<node changeset="69962493" id="6454044440" lat="59.5786222" lon="10.7970417" timestamp="2019-05-07T07:16:08Z" uid="633013" user="Honning" version="1">
		<tag k="name" v="Presterud" />
		<tag k="place" v="farm" />
		<tag k="ssr:stedsnr" v="793170" />
	</node>
	<node changeset="69962493" id="6454044441" lat="59.5827222" lon="10.7305111" timestamp="2019-05-07T07:16:08Z" uid="633013" user="Honning" version="1">
		<tag k="name" v="Rødshagen" />
		<tag k="place" v="farm" />
		<tag k="ssr:stedsnr" v="793188" />
	</node>
	<node changeset="69962493" id="6454044442" lat="59.5702667" lon="10.7268083" timestamp="2019-05-07T07:16:08Z" uid="633013" user="Honning" version="1">
		<tag k="alt_name" v="Glemme" />
		<tag k="name" v="Glenne" />
		<tag k="place" v="farm" />
		<tag k="ssr:stedsnr" v="793219" />
	</node>
	<node changeset="69962493" id="6454044443" lat="59.5742055" lon="10.8274808" timestamp="2019-05-07T07:16:08Z" uid="633013" user="Honning" version="1">
		<tag k="alt_name" v="Tom, store; Store Tom" />
		<tag k="name" v="Tom" />
		<tag k="place" v="farm" />
		<tag k="ssr:stedsnr" v="793228" />
	</node>
	<node changeset="69962493" id="6454044444" lat="59.5061278" lon="10.7623111" timestamp="2019-05-07T07:16:08Z" uid="633013" user="Honning" version="1">
		<tag k="alt_name" v="Vandrås østre" />
		<tag k="name" v="Østre Vandrås" />
		<tag k="place" v="farm" />
		<tag k="ssr:stedsnr" v="811070" />
	</node>
	<node changeset="69962493" id="6454044445" lat="59.5198306" lon="10.7343472" timestamp="2019-05-07T07:16:08Z" uid="633013" user="Honning" version="1">
		<tag k="alt_name" v="Ulfski midtre" />
		<tag k="name" v="Midtre Ulfski" />
		<tag k="place" v="farm" />
		<tag k="ssr:stedsnr" v="811146" />
	</node>
	<node changeset="69962493" id="6454044446" lat="59.5907528" lon="10.7899361" timestamp="2019-05-07T07:16:08Z" uid="633013" user="Honning" version="1">
		<tag k="name" v="Kullebunn" />
		<tag k="place" v="farm" />
		<tag k="ssr:stedsnr" v="811155" />
	</node>
	<node changeset="69962493" id="6454044447" lat="59.5817139" lon="10.8101583" timestamp="2019-05-07T07:16:08Z" uid="633013" user="Honning" version="1">
		<tag k="alt_name" v="Garder østre" />
		<tag k="name" v="Østre Garder" />
		<tag k="place" v="farm" />
		<tag k="ssr:stedsnr" v="811162" />
	</node>
	<node changeset="69962493" id="6454044448" lat="59.5730528" lon="10.7391194" timestamp="2019-05-07T07:16:08Z" uid="633013" user="Honning" version="1">
		<tag k="name" v="Svingen" />
		<tag k="place" v="farm" />
		<tag k="ssr:stedsnr" v="811181" />
	</node>
	<node changeset="69962493" id="6454044449" lat="59.5770694" lon="10.8128778" timestamp="2019-05-07T07:16:08Z" uid="633013" user="Honning" version="1">
		<tag k="name" v="Bjerkås" />
		<tag k="place" v="isolated_dwelling" />
		<tag k="ssr:stedsnr" v="811199" />
	</node>
	<node changeset="69962493" id="6454044450" lat="59.5682861" lon="10.7343361" timestamp="2019-05-07T07:16:08Z" uid="633013" user="Honning" version="1">
		<tag k="name" v="Ødegården" />
		<tag k="place" v="farm" />
		<tag k="ssr:stedsnr" v="811202" />
	</node>
	<node changeset="69962493" id="6454044451" lat="59.6283722" lon="10.7376" timestamp="2019-05-07T07:16:08Z" uid="633013" user="Honning" version="1">
		<tag k="alt_name" v="Rød nordre" />
		<tag k="name" v="Nordre Rød" />
		<tag k="place" v="farm" />
		<tag k="ssr:stedsnr" v="811214" />
	</node>
	<node changeset="69962493" id="6454044452" lat="59.5389944" lon="10.7430639" timestamp="2019-05-07T07:16:08Z" uid="633013" user="Honning" version="1">
		<tag k="name" v="Sandengen" />
		<tag k="place" v="farm" />
		<tag k="ssr:stedsnr" v="812124" />
	</node>
	<node changeset="69962493" id="6454044453" lat="59.537525" lon="10.7328056" timestamp="2019-05-07T07:16:08Z" uid="633013" user="Honning" version="1">
		<tag k="name" v="Knapstad" />
		<tag k="place" v="farm" />
		<tag k="ssr:stedsnr" v="812127" />
	</node>
	<node changeset="69962493" id="6454044454" lat="59.59405" lon="10.7040833" timestamp="2019-05-07T07:16:08Z" uid="633013" user="Honning" version="1">
		<tag k="name" v="Pepperstad skog" />
		<tag k="place" v="village" />
		<tag k="ssr:stedsnr" v="815132" />
	</node>
	<node changeset="69962493" id="6454044455" lat="59.529125" lon="10.6885167" timestamp="2019-05-07T07:16:08Z" uid="633013" user="Honning" version="1">
		<tag k="name" v="Øra" />
		<tag k="place" v="farm" />
		<tag k="ssr:stedsnr" v="817884" />
	</node>
	<node changeset="69962493" id="6454044456" lat="59.6035667" lon="10.7595" timestamp="2019-05-07T07:16:08Z" uid="633013" user="Honning" version="1">
		<tag k="name" v="Sole skog" />
		<tag k="place" v="quarter" />
		<tag k="ssr:stedsnr" v="845957" />
	</node>
	<node changeset="69962493" id="6454044457" lat="59.5366778" lon="10.67685" timestamp="2019-05-07T07:16:09Z" uid="633013" user="Honning" version="1">
		<tag k="name" v="Stamneslund" />
		<tag k="place" v="farm" />
		<tag k="ssr:stedsnr" v="846271" />
	</node>
	<node changeset="69962493" id="6454044458" lat="59.6191528" lon="10.7118278" timestamp="2019-05-07T07:16:09Z" uid="633013" user="Honning" version="1">
		<tag k="alt_name" v="Skau østre;Østre Skog" />
		<tag k="name" v="Østre Skau" />
		<tag k="place" v="farm" />
		<tag k="ssr:stedsnr" v="847159" />
	</node>
	<node changeset="69962493" id="6454044459" lat="59.6316778" lon="10.7024972" timestamp="2019-05-07T07:16:09Z" uid="633013" user="Honning" version="1">
		<tag k="name" v="Hagen" />
		<tag k="place" v="locality" />
		<tag k="ssr:stedsnr" v="847183" />
	</node>
	<node changeset="69962493" id="6454044460" lat="59.62455" lon="10.6981833" timestamp="2019-05-07T07:16:09Z" uid="633013" user="Honning" version="1">
		<tag k="name" v="Steinbråten" />
		<tag k="place" v="locality" />
		<tag k="ssr:stedsnr" v="847193" />
	</node>
	<node changeset="69962493" id="6454044978" lat="59.6049194" lon="10.6901194" timestamp="2019-05-07T07:16:21Z" uid="633013" user="Honning" version="1">
		<tag k="alt_name" v="Ugjestrud nordre" />
		<tag k="name" v="Nordre Ugjestrud" />
		<tag k="place" v="farm" />
		<tag k="ssr:stedsnr" v="239148" />
	</node>
	<node changeset="69962493" id="6454044462" lat="59.5967278" lon="10.7745333" timestamp="2019-05-07T07:16:09Z" uid="633013" user="Honning" version="1">
		<tag k="alt_name" v="Borgen" />
		<tag k="name" v="Borga" />
		<tag k="place" v="farm" />
		<tag k="ssr:stedsnr" v="853114" />
	</node>
	<node changeset="69962493" id="6454044463" lat="59.5630774" lon="10.7991738" timestamp="2019-05-07T07:16:09Z" uid="633013" user="Honning" version="1">
		<tag k="name" v="Oksa" />
		<tag k="place" v="farm" />
		<tag k="ssr:stedsnr" v="853167" />
	</node>
	<node changeset="69962493" id="6454044464" lat="59.5437472" lon="10.7154639" timestamp="2019-05-07T07:16:09Z" uid="633013" user="Honning" version="1">
		<tag k="name" v="Gjølstad" />
		<tag k="place" v="farm" />
		<tag k="ssr:stedsnr" v="853535" />
	</node>
	<node changeset="69962493" id="6454044465" lat="59.573825" lon="10.7900583" timestamp="2019-05-07T07:16:09Z" uid="633013" user="Honning" version="1">
		<tag k="alt_name" v="Drømmerud" />
		<tag k="name" v="Drømmerød" />
		<tag k="place" v="farm" />
		<tag k="ssr:stedsnr" v="854157" />
	</node>
	<node changeset="69962493" id="6454044466" lat="59.5946028" lon="10.8342833" timestamp="2019-05-07T07:16:09Z" uid="633013" user="Honning" version="1">
		<tag k="alt_name" v="Tønnum" />
		<tag k="name" v="Tannum" />
		<tag k="place" v="farm" />
		<tag k="ssr:stedsnr" v="854171" />
	</node>
	<node changeset="69962493" id="6454044467" lat="59.5711778" lon="10.7953361" timestamp="2019-05-07T07:16:09Z" uid="633013" user="Honning" version="1">
		<tag k="name" v="Jordebru" />
		<tag k="place" v="farm" />
		<tag k="ssr:stedsnr" v="854199" />
	</node>
	<node changeset="69962493" id="6454044468" lat="59.5495093" lon="10.763044" timestamp="2019-05-07T07:16:09Z" uid="633013" user="Honning" version="1">
		<tag k="alt_name" v="Åmot, s;Åmot store" />
		<tag k="name" v="Store Åmot" />
		<tag k="place" v="farm" />
		<tag k="ssr:stedsnr" v="854205" />
	</node>
	<node changeset="69962493" id="6454044469" lat="59.5908361" lon="10.7879" timestamp="2019-05-07T07:16:09Z" uid="633013" user="Honning" version="1">
		<tag k="name" v="Knatten" />
		<tag k="place" v="isolated_dwelling" />
		<tag k="ssr:stedsnr" v="872168" />
	</node>
	<node changeset="69962493" id="6454044470" lat="59.57375" lon="10.770925" timestamp="2019-05-07T07:16:09Z" uid="633013" user="Honning" version="1">
		<tag k="name" v="Grønlundødegården (nedl.)" />
		<tag k="place" v="locality" />
		<tag k="ssr:stedsnr" v="872178" />
	</node>
	<node changeset="69962493" id="6454044471" lat="59.5824083" lon="10.8249611" timestamp="2019-05-07T07:16:09Z" uid="633013" user="Honning" version="1">
		<tag k="name" v="Fjellvang" />
		<tag k="place" v="isolated_dwelling" />
		<tag k="ssr:stedsnr" v="872220" />
	</node>
	<node changeset="69962493" id="6454044472" lat="59.590275" lon="10.8030806" timestamp="2019-05-07T07:16:09Z" uid="633013" user="Honning" version="1">
		<tag k="name" v="Solås" />
		<tag k="place" v="isolated_dwelling" />
		<tag k="ssr:stedsnr" v="872218" />
	</node>
	<node changeset="69962493" id="6454044473" lat="59.5716944" lon="10.8048222" timestamp="2019-05-07T07:16:09Z" uid="633013" user="Honning" version="1">
		<tag k="name" v="Fjellbu" />
		<tag k="place" v="isolated_dwelling" />
		<tag k="ssr:stedsnr" v="872244" />
	</node>
	<node changeset="69962493" id="6454044474" lat="59.6022472" lon="10.7478611" timestamp="2019-05-07T07:16:09Z" uid="633013" user="Honning" version="1">
		<tag k="amenity" v="townhall" />
		<tag k="name" v="Herredshus" />
		<tag k="ssr:stedsnr" v="872774" />
	</node>
	<node changeset="69962493" id="6454044476" lat="59.588575" lon="10.807075" timestamp="2019-05-07T07:16:10Z" uid="633013" user="Honning" version="1">
		<tag k="alt_name" v="Tuft nedre" />
		<tag k="name" v="Nedre Tuft" />
		<tag k="place" v="farm" />
		<tag k="ssr:stedsnr" v="873173" />
	</node>
	<node changeset="69962493" id="6454044477" lat="59.6113944" lon="10.6535611" timestamp="2019-05-07T07:16:10Z" uid="633013" user="Honning" version="1">
		<tag k="name" v="Pyttskog" />
		<tag k="place" v="neighbourhood" />
		<tag k="ssr:stedsnr" v="874548" />
	</node>
	<node changeset="69962493" id="6454044478" lat="59.5537639" lon="10.7738361" timestamp="2019-05-07T07:16:10Z" uid="633013" user="Honning" version="1">
		<tag k="alt_name" v="Åmot store;Åmot, nordre; Store Åmot" />
		<tag k="name" v="Nordre Åmot" />
		<tag k="place" v="farm" />
		<tag k="ssr:stedsnr" v="903226" />
	</node>
	<node changeset="69962493" id="6454044981" lat="59.6451417" lon="10.6857556" timestamp="2019-05-07T07:16:21Z" uid="633013" user="Honning" version="1">
		<tag k="name" v="Nedre Linnestad" />
		<tag k="place" v="farm" />
		<tag k="ssr:stedsnr" v="240550" />
	</node>
	<node changeset="69962493" id="6454044480" lat="59.5458472" lon="10.710175" timestamp="2019-05-07T07:16:10Z" uid="633013" user="Honning" version="1">
		<tag k="alt_name" v="Tugelite" />
		<tag k="loc_name" v="Tugulite" />
		<tag k="name" v="Mørkbråten" />
		<tag k="place" v="farm" />
		<tag k="ssr:stedsnr" v="906279" />
	</node>
	<node changeset="69962493" id="6454044481" lat="59.5335472" lon="10.6834694" timestamp="2019-05-07T07:16:10Z" uid="633013" user="Honning" version="1">
		<tag k="alt_name" v="Kålås øvre;Øvre Kålås" />
		<tag k="name" v="Øvre Kolås" />
		<tag k="place" v="farm" />
		<tag k="ssr:stedsnr" v="906303" />
	</node>
	<node changeset="75947248" id="6454044482" lat="59.4984263" lon="10.7105144" timestamp="2019-10-20T08:36:25Z" uid="633013" user="Honning" version="2">
		<tag k="alt_name" v="Rød østre" />
		<tag k="name" v="Østre Rød" />
		<tag k="place" v="farm" />
		<tag k="ssr:stedsnr" v="906466" />
	</node>
	<node changeset="69962493" id="6454044483" lat="59.4932" lon="10.6926583" timestamp="2019-05-07T07:16:10Z" uid="633013" user="Honning" version="1">
		<tag k="alt_name" v="Brevik søndre" />
		<tag k="name" v="Søndre Brevik" />
		<tag k="place" v="farm" />
		<tag k="ssr:stedsnr" v="906639" />
	</node>
	<node changeset="69962493" id="6454044484" lat="59.4917639" lon="10.6932556" timestamp="2019-05-07T07:16:10Z" uid="633013" user="Honning" version="1">
		<tag k="name" v="Haslebakke" />
		<tag k="place" v="isolated_dwelling" />
		<tag k="ssr:stedsnr" v="906642" />
	</node>
	<node changeset="69962493" id="6454043958" lat="59.5320132" lon="10.7733997" timestamp="2019-05-07T07:16:03Z" uid="633013" user="Honning" version="1">
		<tag k="name" v="Fagerholt" />
		<tag k="place" v="hamlet" />
		<tag k="ssr:stedsnr" v="610002" />
	</node>
	<node changeset="69962493" id="6454044983" lat="59.571564" lon="10.7780106" timestamp="2019-05-07T07:16:21Z" uid="633013" user="Honning" version="1">
		<tag k="name" v="Svinskau" />
		<tag k="place" v="hamlet" />
		<tag k="ssr:stedsnr" v="242786" />
	</node>
	<node changeset="69962493" id="1375995192" lat="59.5449343" lon="10.6951552" timestamp="2019-05-07T07:16:23Z" uid="633013" user="Honning" version="2">
		<tag k="name" v="Mørk" />
		<tag k="place" v="hamlet" />
		<tag k="ssr:stedsnr" v="299297" />
	</node>
	<node changeset="69962493" id="6454043961" lat="59.516275" lon="10.771575" timestamp="2019-05-07T07:16:03Z" uid="633013" user="Honning" version="1">
		<tag k="alt_name" v="Borgerud" />
		<tag k="name" v="Borgerød" />
		<tag k="place" v="farm" />
		<tag k="ssr:stedsnr" v="610056" />
	</node>
	<node changeset="69962493" id="6454039866" lat="59.5638806" lon="10.7464889" timestamp="2019-05-07T07:15:58Z" uid="633013" user="Honning" version="1">
		<tag k="alt_name" v="Bylterud, m;Bylterød vestre" />
		<tag k="name" v="Vestre Bylterud" />
		<tag k="place" v="farm" />
		<tag k="ssr:stedsnr" v="428180" />
	</node>
	<node changeset="69962493" id="6454043963" lat="59.5451583" lon="10.6933361" timestamp="2019-05-07T07:16:03Z" uid="633013" user="Honning" version="1">
		<tag k="name" v="Søndre Mørk" />
		<tag k="place" v="farm" />
		<tag k="ssr:stedsnr" v="610593" />
	</node>
	<node changeset="69962493" id="261072740" lat="59.5642139" lon="10.6514944" timestamp="2019-05-07T07:16:23Z" uid="633013" user="Honning" version="2">
		<tag k="name" v="Krokstrand" />
		<tag k="place" v="isolated_dwelling" />
		<tag k="ssr:stedsnr" v="609677" />
	</node>
	<node changeset="69962493" id="6454043964" lat="59.5630028" lon="10.73085" timestamp="2019-05-07T07:16:03Z" uid="633013" user="Honning" version="1">
		<tag k="alt_name" v="Nordre Kjenn" />
		<tag k="name" v="Kjenn" />
		<tag k="place" v="farm" />
		<tag k="ssr:stedsnr" v="611200" />
	</node>
	<node changeset="69962493" id="6454043965" lat="59.5809528" lon="10.8119417" timestamp="2019-05-07T07:16:03Z" uid="633013" user="Honning" version="1">
		<tag k="alt_name" v="Hovum vestre" />
		<tag k="name" v="Vestre Hovum" />
		<tag k="place" v="farm" />
		<tag k="ssr:stedsnr" v="629161" />
	</node>
	<node changeset="70109567" id="1710583667" lat="59.5654946" lon="10.6919708" timestamp="2019-05-10T13:17:27Z" uid="8650769" user="Viki_travel_weak" version="4">
		<tag k="alt_name" v="Nygård" />
		<tag k="name" v="Nygard" />
		<tag k="place" v="farm" />
		<tag k="ssr:stedsnr" v="185675" />
	</node>
	<node changeset="76011763" id="6454039870" lat="59.4981013" lon="10.7499784" timestamp="2019-10-21T17:44:27Z" uid="633013" user="Honning" version="2" />
	<node changeset="69962493" id="6454043967" lat="59.5805944" lon="10.8132167" timestamp="2019-05-07T07:16:04Z" uid="633013" user="Honning" version="1">
		<tag k="alt_name" v="Hovum østre" />
		<tag k="name" v="Østre Hovum" />
		<tag k="place" v="farm" />
		<tag k="ssr:stedsnr" v="629166" />
	</node>
	<node changeset="69962493" id="6454043968" lat="59.5850972" lon="10.8032889" timestamp="2019-05-07T07:16:04Z" uid="633013" user="Honning" version="1">
		<tag k="name" v="Haga" />
		<tag k="place" v="farm" />
		<tag k="ssr:stedsnr" v="629168" />
	</node>
	<node changeset="69962493" id="6454043969" lat="59.5830639" lon="10.77095" timestamp="2019-05-07T07:16:04Z" uid="633013" user="Honning" version="1">
		<tag k="alt_name" v="Grønlund søndre;Grønlund" />
		<tag k="name" v="Søndre Grønlund" />
		<tag k="place" v="farm" />
		<tag k="ssr:stedsnr" v="629174" />
	</node>
	<node changeset="69962493" id="6454043970" lat="59.5816972" lon="10.7838111" timestamp="2019-05-07T07:16:04Z" uid="633013" user="Honning" version="1">
		<tag k="name" v="Rustadbråten" />
		<tag k="place" v="farm" />
		<tag k="ssr:stedsnr" v="629185" />
	</node>
	<node changeset="69962493" id="6454043971" lat="59.5684833" lon="10.8199305" timestamp="2019-05-07T07:16:04Z" uid="633013" user="Honning" version="1">
		<tag k="alt_name" v="Florud øvre" />
		<tag k="name" v="Øvre Florud" />
		<tag k="place" v="farm" />
		<tag k="ssr:stedsnr" v="629225" />
	</node>
	<node changeset="69962493" id="6454043972" lat="59.5984917" lon="10.7257306" timestamp="2019-05-07T07:16:04Z" uid="633013" user="Honning" version="1">
		<tag k="name" v="Krusebyen" />
		<tag k="place" v="hamlet" />
		<tag k="ssr:stedsnr" v="629769" />
	</node>
	<node changeset="69962493" id="6454043973" lat="59.6320417" lon="10.7883083" timestamp="2019-05-07T07:16:04Z" uid="633013" user="Honning" version="1">
		<tag k="alt_name" v="Tveter nordre" />
		<tag k="name" v="Nordre Tveter" />
		<tag k="place" v="farm" />
		<tag k="ssr:stedsnr" v="629781" />
	</node>
	<node changeset="69962493" id="1710555045" lat="59.5553861" lon="10.6941861" timestamp="2019-05-07T07:16:24Z" uid="633013" user="Honning" version="3">
		<tag k="name" v="Søndre Erikstad" />
		<tag k="place" v="farm" />
		<tag k="ssr:stedsnr" v="361561" />
	</node>
	<node changeset="69962493" id="1710555050" lat="59.5744056" lon="10.7055528" timestamp="2019-05-07T07:16:24Z" uid="633013" user="Honning" version="3">
		<tag k="name" v="Erikstadbråten" />
		<tag k="place" v="farm" />
		<tag k="ssr:stedsnr" v="3687" />
	</node>
	<node changeset="69962493" id="6454043975" lat="59.6070778" lon="10.8394639" timestamp="2019-05-07T07:16:04Z" uid="633013" user="Honning" version="1">
		<tag k="name" v="Villumstad" />
		<tag k="place" v="farm" />
		<tag k="ssr:stedsnr" v="629867" />
	</node>
	<node changeset="69962493" id="1710555054" lat="59.5611472" lon="10.6932167" timestamp="2019-05-07T07:16:24Z" uid="633013" user="Honning" version="2">
		<tag k="name" v="Nordre Erikstad" />
		<tag k="place" v="farm" />
		<tag k="ssr:stedsnr" v="58558" />
	</node>
	<node changeset="69962493" id="6454043976" lat="59.5490056" lon="10.6979694" timestamp="2019-05-07T07:16:04Z" uid="633013" user="Honning" version="1">
		<tag k="name" v="Nordre Mørk" />
		<tag k="place" v="farm" />
		<tag k="ssr:stedsnr" v="731517" />
	</node>
	<node changeset="69962493" id="6454043977" lat="59.6077111" lon="10.6543028" timestamp="2019-05-07T07:16:04Z" uid="633013" user="Honning" version="1">
		<tag k="name" v="Øvre Ramme" />
		<tag k="place" v="farm" />
		<tag k="ssr:stedsnr" v="663230" />
	</node>
	<node changeset="69962493" id="6454043978" lat="59.5090333" lon="10.6947944" timestamp="2019-05-07T07:16:04Z" uid="633013" user="Honning" version="1">
		<tag k="name" v="Brevikmyra" />
		<tag k="place" v="quarter" />
		<tag k="ssr:stedsnr" v="663407" />
	</node>
	<node changeset="69962493" id="1710555073" lat="59.5566194" lon="10.694" timestamp="2019-05-07T07:16:24Z" uid="633013" user="Honning" version="3">
		<tag k="name" v="Mellom-Erikstad" />
		<tag k="place" v="farm" />
		<tag k="ssr:stedsnr" v="786552" />
	</node>
	<node changeset="69962493" id="6454043979" lat="59.5027139" lon="10.7130111" timestamp="2019-05-07T07:16:04Z" uid="633013" user="Honning" version="1">
		<tag k="name" v="Smørbekk" />
		<tag k="place" v="hamlet" />
		<tag k="ssr:stedsnr" v="663420" />
	</node>
	<node changeset="69962493" id="6454043980" lat="59.5879333" lon="10.6706528" timestamp="2019-05-07T07:16:04Z" uid="633013" user="Honning" version="1">
		<tag k="name" v="Solbakken" />
		<tag k="place" v="isolated_dwelling" />
		<tag k="ssr:stedsnr" v="664683" />
	</node>
	<node changeset="69962493" id="1710536651" lat="59.5816667" lon="10.6783278" timestamp="2019-05-07T07:16:24Z" uid="633013" user="Honning" version="2">
		<tag k="name" v="Nyheim" />
		<tag k="place" v="farm" />
		<tag k="ssr:stedsnr" v="301702" />
	</node>
	<node changeset="69962493" id="1710542801" lat="59.5782944" lon="10.7021528" timestamp="2019-05-07T07:16:24Z" uid="633013" user="Honning" version="2">
		<tag k="name" v="Øvre Stubberud" />
		<tag k="place" v="farm" />
		<tag k="ssr:stedsnr" v="604779" />
	</node>
	<node changeset="69962493" id="2898515955" lat="59.6102778" lon="10.75815" timestamp="2019-05-07T07:16:27Z" uid="633013" user="Honning" version="2">
		<tag k="name" v="Krom" />
		<tag k="place" v="farm" />
		<tag k="ssr:stedsnr" v="731318" />
	</node>
	<way changeset="76011763" id="737367397" timestamp="2019-10-21T17:44:27Z" uid="633013" user="Honning" version="1">
		<tag k="landuse" v="farmyard" />
		<tag k="name" v="Tegneby" />
		<tag k="place" v="farm" />
		<tag k="ssr:stedsnr" v="185039" />
		<nd ref="6903532148" />
		<nd ref="6903532147" />
		<nd ref="6454044961" />
		<nd ref="6903532146" />
		<nd ref="6903532145" />
		<nd ref="6903532144" />
		<nd ref="6903532143" />
		<nd ref="6903532142" />
		<nd ref="6903532141" />
		<nd ref="6903532148" />
	</way>
	<way changeset="76011763" id="737367405" timestamp="2019-10-21T17:44:27Z" uid="633013" user="Honning" version="1">
		<tag k="alt_name" v="Langerød, søndre;Langerud søndre;Søndre Langerød" />
		<tag k="landuse" v="farmyard" />
		<tag k="name" v="Søndre Langerud" />
		<tag k="place" v="farm" />
		<tag k="ssr:stedsnr" v="732042" />
		<nd ref="6454044415" />
		<nd ref="6903532209" />
		<nd ref="6903532208" />
		<nd ref="6903532207" />
		<nd ref="6903532206" />
		<nd ref="6903532205" />
		<nd ref="6903532204" />
		<nd ref="6903532203" />
		<nd ref="6903532202" />
		<nd ref="6903532201" />
		<nd ref="6903532200" />
		<nd ref="6903532199" />
		<nd ref="6454044415" />
	</way>
	<way changeset="76011763" id="646759440" timestamp="2019-10-21T17:44:27Z" uid="633013" user="Honning" version="2">
		<tag k="alt_name" v="Grimsrud" />
		<tag k="landuse" v="farmyard" />
		<tag k="name" v="Grimsrød" />
		<tag k="place" v="farm" />
		<tag k="source:name" v="Private sign" />
		<tag k="ssr:stedsnr" v="367025" />
		<nd ref="6075692097" />
		<nd ref="6075692128" />
		<nd ref="6075692098" />
		<nd ref="6075692099" />
		<nd ref="6075692100" />
		<nd ref="6075692101" />
		<nd ref="6075692102" />
		<nd ref="6075692103" />
		<nd ref="6075692104" />
		<nd ref="6075692105" />
		<nd ref="6075692106" />
		<nd ref="6075692107" />
		<nd ref="6075692108" />
		<nd ref="2585709268" />
		<nd ref="2585709270" />
		<nd ref="2585709272" />
		<nd ref="2585709283" />
		<nd ref="2490833124" />
		<nd ref="2490833114" />
		<nd ref="2585709303" />
		<nd ref="6075692110" />
		<nd ref="6075692111" />
		<nd ref="6075692112" />
		<nd ref="6075692113" />
		<nd ref="6075692114" />
		<nd ref="6075692097" />
	</way>
	<way changeset="76011763" id="737367413" timestamp="2019-10-21T17:44:27Z" uid="633013" user="Honning" version="1">
		<tag k="landuse" v="farmyard" />
		<tag k="name" v="Gateengen" />
		<tag k="place" v="farm" />
		<tag k="ssr:stedsnr" v="568144" />
		<nd ref="6903532265" />
		<nd ref="6454043935" />
		<nd ref="6903532264" />
		<nd ref="6903532263" />
		<nd ref="6903532262" />
		<nd ref="6903532261" />
		<nd ref="6903532260" />
		<nd ref="6903532259" />
		<nd ref="6903532258" />
		<nd ref="6903532257" />
		<nd ref="6903532256" />
		<nd ref="6903532265" />
	</way>
	<way changeset="76011763" id="696332726" timestamp="2019-10-21T17:44:27Z" uid="633013" user="Honning" version="2">
		<tag k="alt_name" v="Grefsrud" />
		<tag k="landuse" v="farmyard" />
		<tag k="name" v="Grefsrød" />
		<tag k="place" v="farm" />
		<tag k="ssr:stedsnr" v="428662" />
		<nd ref="6539095733" />
		<nd ref="6539095734" />
		<nd ref="6539095735" />
		<nd ref="6539095736" />
		<nd ref="6539095737" />
		<nd ref="6454039870" />
		<nd ref="6539095739" />
		<nd ref="6539095740" />
		<nd ref="6539095733" />
	</way>
	<way changeset="69963260" id="688312055" timestamp="2019-05-07T07:39:35Z" uid="633013" user="Honning" version="1">
		<tag k="leisure" v="swimming_area" />
		<tag k="name" v="Holvik" />
		<tag k="natural" v="beach" />
		<tag k="ssr:stedsnr" v="179975" />
		<tag k="surface" v="sand" />
		<nd ref="6454090535" />
		<nd ref="6454090534" />
		<nd ref="6454090533" />
		<nd ref="6454090532" />
		<nd ref="6454090531" />
		<nd ref="6454090530" />
		<nd ref="6454090529" />
		<nd ref="6454044960" />
		<nd ref="6454090528" />
		<nd ref="6454090535" />
	</way>
	<way changeset="76011763" id="737367418" timestamp="2019-10-21T17:44:27Z" uid="633013" user="Honning" version="1">
		<tag k="landuse" v="farmyard" />
		<tag k="name" v="Gate" />
		<tag k="place" v="farm" />
		<tag k="ssr:stedsnr" v="489046" />
		<nd ref="6903532313" />
		<nd ref="6903532312" />
		<nd ref="6903532311" />
		<nd ref="6903532310" />
		<nd ref="6454043901" />
		<nd ref="6903532309" />
		<nd ref="6903532308" />
		<nd ref="6903532307" />
		<nd ref="6903532306" />
		<nd ref="6903532305" />
		<nd ref="6903532304" />
		<nd ref="6903532303" />
		<nd ref="6903532302" />
		<nd ref="6903532301" />
		<nd ref="6903532300" />
		<nd ref="6903532299" />
		<nd ref="6903532298" />
		<nd ref="6903532313" />
	</way>
</osm>
