<?xml version="1.0" encoding="UTF-8"?>
<osm version="0.6" generator="osmapis">
	<node id="884410251" lat="68.5660774" lon="16.25338" version="3" timestamp="2019-04-15T06:18:11Z" changeset="69222075" uid="715936" user="Gazer75">
		<tag k="name" v="Kongsvika" />
		<tag k="name:ru" v="Конгсвик" />
		<tag k="place" v="village" />
		<tag k="ssr:stedsnr" v="837113" />
	</node>
	<node id="2106838661" lat="68.564182" lon="16.2393536" version="3" timestamp="2015-08-03T20:39:19Z" changeset="33081902" uid="2383827" user="Messy Unicorn_import" />
	<node id="2106838663" lat="68.5642947" lon="16.2398388" version="4" timestamp="2015-08-03T20:39:19Z" changeset="33081902" uid="2383827" user="Messy Unicorn_import" />
	<node id="1581586356" lat="68.5063677" lon="16.4464726" version="3" timestamp="2015-01-02T22:13:10Z" changeset="27874878" uid="1972338" user="Messy Unicorn" />
	<node id="123985221" lat="68.5074155" lon="16.4515912" version="3" timestamp="2015-01-02T22:13:09Z" changeset="27874878" uid="1972338" user="Messy Unicorn" />
	<node id="9435813883" lat="68.5350402" lon="16.76594" version="1" timestamp="2022-01-21T07:34:53Z" changeset="116415921" uid="3497659" user="NKA" />
	<node id="9435813884" lat="68.5350461" lon="16.7661157" version="1" timestamp="2022-01-21T07:34:53Z" changeset="116415921" uid="3497659" user="NKA" />
	<node id="243890" lat="68.6292206" lon="16.5674207" version="8" timestamp="2018-07-23T11:45:15Z" changeset="60983687" uid="8470372" user="Entur AS | Angie Torres" />
	<node id="5779125492" lat="68.6292431" lon="16.5672157" version="1" timestamp="2018-07-23T11:39:25Z" changeset="60983484" uid="8470372" user="Entur AS | Angie Torres" />
	<node id="2367294618" lat="68.6291877" lon="16.5677726" version="2" timestamp="2018-07-23T11:47:09Z" changeset="60983687" uid="8470372" user="Entur AS | Angie Torres" />
	<node id="9448191264" lat="68.6282162" lon="16.5792857" version="1" timestamp="2022-01-25T18:21:17Z" changeset="116596754" uid="3497659" user="NKA">
		<tag k="bridge:support" v="pylon" />
	</node>
	<node id="9448191263" lat="68.6276298" lon="16.586234" version="1" timestamp="2022-01-25T18:21:17Z" changeset="116596754" uid="3497659" user="NKA">
		<tag k="bridge:support" v="pylon" />
	</node>
	<node id="243893" lat="68.6273229" lon="16.5898707" version="7" timestamp="2018-07-26T11:37:47Z" changeset="61085867" uid="8470372" user="Entur AS | Angie Torres" />
	<node id="2090517574" lat="68.6272495" lon="16.5907131" version="4" timestamp="2018-07-26T11:38:19Z" changeset="61085867" uid="8470372" user="Entur AS | Angie Torres" />
	<node id="5787026736" lat="68.6272094" lon="16.5910909" version="2" timestamp="2020-09-29T09:19:25Z" changeset="91694515" uid="5198133" user="Wulfmorn" />
	<node id="5787032129" lat="68.6271789" lon="16.5913055" version="1" timestamp="2018-07-26T11:36:09Z" changeset="61085769" uid="8470372" user="Entur AS | Angie Torres" />
	<node id="5787015406" lat="68.6731923" lon="17.1113431" version="1" timestamp="2018-07-26T11:33:56Z" changeset="61085769" uid="8470372" user="Entur AS | Angie Torres" />
	<node id="5787022930" lat="68.6728373" lon="17.1155833" version="1" timestamp="2018-07-26T11:34:41Z" changeset="61085769" uid="8470372" user="Entur AS | Angie Torres" />
	<way id="24998908" version="16" timestamp="2022-01-25T18:21:17Z" changeset="116596754" uid="3497659" user="NKA">
		<tag k="bridge" v="yes" />
		<tag k="bridge:structure" v="suspension" />
		<tag k="highway" v="trunk" />
		<tag k="lanes" v="2" />
		<tag k="layer" v="1" />
		<tag k="lit" v="yes" />
		<tag k="maxspeed" v="80" />
		<tag k="name" v="Tjeldsundbrua" />
		<tag k="ref" v="E 10" />
		<tag k="sidewalk" v="none" />
		<tag k="source:maxspeed" v="NO:rural" />
		<tag k="ssr:stedsnr" v="323250" />
		<tag k="surface" v="asphalt" />
		<tag k="width" v="7" />
		<tag k="wikidata" v="Q3314901" />
		<nd ref="5787032129" />
		<nd ref="5787026736" />
		<nd ref="2090517574" />
		<nd ref="243893" />
		<nd ref="9448191263" />
		<nd ref="9448191264" />
		<nd ref="2367294618" />
		<nd ref="243890" />
		<nd ref="5779125492" />
	</way>
	<way id="144635520" version="9" timestamp="2022-01-25T18:21:17Z" changeset="116596754" uid="3497659" user="NKA">
		<tag k="bridge" v="yes" />
		<tag k="bridge:structure" v="beam" />
		<tag k="highway" v="secondary" />
		<tag k="layer" v="1" />
		<tag k="loc_name:se" v="Rápmanuoršaldi" />
		<tag k="maxspeed" v="80" />
		<tag k="name" v="Ramsundbrua" />
		<tag k="name:no" v="Ramsundbrua" />
		<tag k="old_ref" v="711" />
		<tag k="ref" v="7548" />
		<tag k="ssr:stedsnr" v="1076350" />
		<tag k="wikidata" v="Q4586024" />
		<nd ref="123985221" />
		<nd ref="1581586356" />
	</way>
	<way id="200717772" version="5" timestamp="2022-01-25T18:21:17Z" changeset="116596754" uid="3497659" user="NKA">
		<tag k="bridge" v="yes" />
		<tag k="highway" v="trunk" />
		<tag k="lanes" v="2" />
		<tag k="layer" v="1" />
		<tag k="lit" v="yes" />
		<tag k="maxspeed" v="60" />
		<tag k="name" v="Kongsvikelvbrua" />
		<tag k="ref" v="E 10" />
		<tag k="sidewalk" v="none" />
		<tag k="source:maxspeed" v="sign" />
		<tag k="ssr:stedsnr" v="1073177" />
		<tag k="surface" v="asphalt" />
		<tag k="width" v="7" />
		<nd ref="2106838661" />
		<nd ref="2106838663" />
	</way>
	<way id="228096846" version="5" timestamp="2022-01-21T07:16:18Z" changeset="116415148" uid="3497659" user="NKA">
		<tag k="bridge" v="yes" />
		<tag k="bridge:structure" v="beam" />
		<tag k="destination:forward" v="Harstad" />
		<tag k="highway" v="primary" />
		<tag k="layer" v="1" />
		<tag k="lit" v="yes" />
		<tag k="maxspeed" v="50" />
		<tag k="name" v="Grovfjordbrua" />
		<tag k="ref" v="825" />
		<tag k="sidewalk" v="none" />
		<tag k="source:maxspeed" v="sign" />
		<tag k="ssr:stedsnr" v="1076502" />
		<tag k="surface" v="asphalt" />
		<tag k="width" v="6" />
		<nd ref="5787015406" />
		<nd ref="5787022930" />
	</way>
	<way id="1023147758" version="1" timestamp="2022-01-21T07:34:53Z" changeset="116415921" uid="3497659" user="NKA">
		<tag k="bridge" v="yes" />
		<tag k="highway" v="track" />
		<tag k="layer" v="1" />
		<tag k="loc_name:no" v="Kvitforsbrua" />
		<tag k="name" v="Jonnerovvi" />
		<tag k="name:se" v="Jonnerovvi" />
		<tag k="ssr:stedsnr" v="300434" />
		<nd ref="9435813884" />
		<nd ref="9435813883" />
	</way>
</osm>
