<?xml version="1.0" encoding="UTF-8"?>
<osm version="0.6" generator="osmapis">
	<node lat="61.52979722486875" lon="10.141802778834359" id="-43493">
		<tag k="name" v="Ringebu kommune" />
		<tag k="ssr:date" v="2019-12-27" />
		<tag k="ssr:gruppe" v="administrativeIndelinger" />
		<tag k="ssr:hovedgruppe" v="offentligAdministrasjon" />
		<tag k="ssr:stedsnr" v="450476" />
		<tag k="ssr:type" v="kommune" />
	</node>
	<node lat="61.66323055727462" lon="10.473361106124846" id="-43880">
		<tag k="name" v="Friisvegen" />
		<tag k="ssr:date" v="2019-12-27" />
		<tag k="ssr:gruppe" v="veg" />
		<tag k="ssr:hovedgruppe" v="infrastruktur" />
		<tag k="ssr:stedsnr" v="813534" />
		<tag k="ssr:type" v="vegstrekning" />
	</node>
	<node lat="61.37103333512529" lon="10.220636102983208" id="-43923">
		<tag k="name" v="Veslesætervegen" />
		<tag k="ssr:date" v="2019-12-27" />
		<tag k="ssr:gruppe" v="veg" />
		<tag k="ssr:hovedgruppe" v="infrastruktur" />
		<tag k="ssr:stedsnr" v="828809" />
		<tag k="ssr:type" v="vegstrekning" />
	</node>
	<node lat="61.38663913650524" lon="10.257104851304083" id="-45020">
		<tag k="name" v="Bjørgevegen" />
		<tag k="ssr:date" v="2019-12-27" />
		<tag k="ssr:gruppe" v="veg" />
		<tag k="ssr:hovedgruppe" v="infrastruktur" />
		<tag k="ssr:stedsnr" v="978779" />
		<tag k="ssr:type" v="adressenavn" />
	</node>
	<node lat="61.43266683207906" lon="10.178372581599305" id="-45021">
		<tag k="name" v="Linvikshaugen" />
		<tag k="ssr:date" v="2019-12-27" />
		<tag k="ssr:gruppe" v="veg" />
		<tag k="ssr:hovedgruppe" v="infrastruktur" />
		<tag k="ssr:stedsnr" v="978780" />
		<tag k="ssr:type" v="adressenavn" />
	</node>
	<node lat="61.514298973345745" lon="10.193236375072274" id="-45023">
		<tag k="name" v="Brandstadkampvegen" />
		<tag k="ssr:date" v="2019-12-27" />
		<tag k="ssr:gruppe" v="veg" />
		<tag k="ssr:hovedgruppe" v="infrastruktur" />
		<tag k="ssr:stedsnr" v="978782" />
		<tag k="ssr:type" v="adressenavn" />
	</node>
	<node lat="61.648619110891644" lon="10.103011000438457" id="-45025">
		<tag k="name" v="Venabuvegen" />
		<tag k="ssr:date" v="2019-12-27" />
		<tag k="ssr:gruppe" v="veg" />
		<tag k="ssr:hovedgruppe" v="infrastruktur" />
		<tag k="ssr:stedsnr" v="978784" />
		<tag k="ssr:type" v="adressenavn" />
	</node>
	<node lat="61.70040566508682" lon="9.996777932573572" id="-45028">
		<tag k="name" v="Kloppbekkvegen" />
		<tag k="ssr:date" v="2019-12-27" />
		<tag k="ssr:gruppe" v="veg" />
		<tag k="ssr:hovedgruppe" v="infrastruktur" />
		<tag k="ssr:stedsnr" v="978787" />
		<tag k="ssr:type" v="adressenavn" />
	</node>
	<node lat="61.454045550706844" lon="10.19183590996459" id="-45029">
		<tag k="name" v="Tromsavegen" />
		<tag k="ssr:date" v="2019-12-27" />
		<tag k="ssr:gruppe" v="veg" />
		<tag k="ssr:hovedgruppe" v="infrastruktur" />
		<tag k="ssr:stedsnr" v="978788" />
		<tag k="ssr:type" v="adressenavn" />
	</node>
	<node lat="61.41901754698734" lon="10.380065612422918" id="-45032">
		<tag k="name" v="Syltgeilen" />
		<tag k="ssr:date" v="2019-12-27" />
		<tag k="ssr:gruppe" v="veg" />
		<tag k="ssr:hovedgruppe" v="infrastruktur" />
		<tag k="ssr:stedsnr" v="978791" />
		<tag k="ssr:type" v="adressenavn" />
	</node>
	<node lat="61.55275464269746" lon="10.08752308385504" id="-45036">
		<tag k="name" v="Lille-Nordrumsvegen" />
		<tag k="ssr:date" v="2019-12-27" />
		<tag k="ssr:gruppe" v="veg" />
		<tag k="ssr:hovedgruppe" v="infrastruktur" />
		<tag k="ssr:stedsnr" v="978795" />
		<tag k="ssr:type" v="adressenavn" />
	</node>
	<node lat="61.534766828078105" lon="10.129136995952976" id="-45037">
		<tag k="name" v="Ulbergtoppen" />
		<tag k="ssr:date" v="2019-12-27" />
		<tag k="ssr:gruppe" v="veg" />
		<tag k="ssr:hovedgruppe" v="infrastruktur" />
		<tag k="ssr:stedsnr" v="978796" />
		<tag k="ssr:type" v="adressenavn" />
	</node>
	<node lat="61.401311648104624" lon="10.301787214071515" id="-45038">
		<tag k="name" v="Rolldalen" />
		<tag k="ssr:date" v="2019-12-27" />
		<tag k="ssr:gruppe" v="veg" />
		<tag k="ssr:hovedgruppe" v="infrastruktur" />
		<tag k="ssr:stedsnr" v="978797" />
		<tag k="ssr:type" v="adressenavn" />
	</node>
	<node lat="61.53835792601537" lon="10.134899387253245" id="-45351">
		<tag k="name" v="Damvegen" />
		<tag k="ssr:date" v="2019-12-27" />
		<tag k="ssr:gruppe" v="veg" />
		<tag k="ssr:hovedgruppe" v="infrastruktur" />
		<tag k="ssr:stedsnr" v="1019801" />
		<tag k="ssr:type" v="adressenavn" />
	</node>
	<node lat="61.53698922817086" lon="10.136696895356147" id="-45352">
		<tag k="name" v="Uglevegen" />
		<tag k="ssr:date" v="2019-12-27" />
		<tag k="ssr:gruppe" v="veg" />
		<tag k="ssr:hovedgruppe" v="infrastruktur" />
		<tag k="ssr:stedsnr" v="1019802" />
		<tag k="ssr:type" v="adressenavn" />
	</node>
	<node lat="61.53949603027534" lon="10.132715728370044" id="-45353">
		<tag k="name" v="Stulsvegen" />
		<tag k="ssr:date" v="2019-12-27" />
		<tag k="ssr:gruppe" v="veg" />
		<tag k="ssr:hovedgruppe" v="infrastruktur" />
		<tag k="ssr:stedsnr" v="1019803" />
		<tag k="ssr:type" v="adressenavn" />
	</node>
	<node lat="61.54099446762893" lon="10.133893261181699" id="-45354">
		<tag k="name" v="Rødalsvegen" />
		<tag k="ssr:date" v="2019-12-27" />
		<tag k="ssr:gruppe" v="veg" />
		<tag k="ssr:hovedgruppe" v="infrastruktur" />
		<tag k="ssr:stedsnr" v="1019804" />
		<tag k="ssr:type" v="adressenavn" />
	</node>
	<node lat="61.5348957530697" lon="10.13766938702047" id="-45355">
		<tag k="name" v="Røyvegen" />
		<tag k="ssr:date" v="2019-12-27" />
		<tag k="ssr:gruppe" v="veg" />
		<tag k="ssr:hovedgruppe" v="infrastruktur" />
		<tag k="ssr:stedsnr" v="1019805" />
		<tag k="ssr:type" v="adressenavn" />
	</node>
	<node lat="61.534301538940156" lon="10.13924164018863" id="-45356">
		<tag k="name" v="Storfuglvegen" />
		<tag k="ssr:date" v="2019-12-27" />
		<tag k="ssr:gruppe" v="veg" />
		<tag k="ssr:hovedgruppe" v="infrastruktur" />
		<tag k="ssr:stedsnr" v="1019806" />
		<tag k="ssr:type" v="adressenavn" />
	</node>
	<node lat="61.53644813746809" lon="10.137186849880257" id="-45357">
		<tag k="name" v="Orrevegen" />
		<tag k="ssr:date" v="2019-12-27" />
		<tag k="ssr:gruppe" v="veg" />
		<tag k="ssr:hovedgruppe" v="infrastruktur" />
		<tag k="ssr:stedsnr" v="1019807" />
		<tag k="ssr:type" v="adressenavn" />
	</node>
	<node lat="61.535576320665484" lon="10.137357358748861" id="-45358">
		<tag k="name" v="Tiurvegen" />
		<tag k="ssr:date" v="2019-12-27" />
		<tag k="ssr:gruppe" v="veg" />
		<tag k="ssr:hovedgruppe" v="infrastruktur" />
		<tag k="ssr:stedsnr" v="1019808" />
		<tag k="ssr:type" v="adressenavn" />
	</node>
	<node lat="61.533524675655016" lon="10.137654867226862" id="-45359">
		<tag k="name" v="Høystadvegen" />
		<tag k="ssr:date" v="2019-12-27" />
		<tag k="ssr:gruppe" v="veg" />
		<tag k="ssr:hovedgruppe" v="infrastruktur" />
		<tag k="ssr:stedsnr" v="1019809" />
		<tag k="ssr:type" v="adressenavn" />
	</node>
	<node lat="61.54296423978576" lon="10.120589322758804" id="-45360">
		<tag k="name" v="Smiubakken" />
		<tag k="ssr:date" v="2019-12-27" />
		<tag k="ssr:gruppe" v="veg" />
		<tag k="ssr:hovedgruppe" v="infrastruktur" />
		<tag k="ssr:stedsnr" v="1019810" />
		<tag k="ssr:type" v="adressenavn" />
	</node>
	<node lat="61.54135595261323" lon="10.12089126462532" id="-45361">
		<tag k="name" v="Vinkelvegen" />
		<tag k="ssr:date" v="2019-12-27" />
		<tag k="ssr:gruppe" v="veg" />
		<tag k="ssr:hovedgruppe" v="infrastruktur" />
		<tag k="ssr:stedsnr" v="1019811" />
		<tag k="ssr:type" v="adressenavn" />
	</node>
	<node lat="61.54228437038731" lon="10.117957621401919" id="-45362">
		<tag k="name" v="Gunstadvegen" />
		<tag k="ssr:date" v="2019-12-27" />
		<tag k="ssr:gruppe" v="veg" />
		<tag k="ssr:hovedgruppe" v="infrastruktur" />
		<tag k="ssr:stedsnr" v="1019812" />
		<tag k="ssr:type" v="adressenavn" />
	</node>
	<node lat="61.53902750188258" lon="10.124242588199492" id="-45363">
		<tag k="name" v="Åkervegen" />
		<tag k="ssr:date" v="2019-12-27" />
		<tag k="ssr:gruppe" v="veg" />
		<tag k="ssr:hovedgruppe" v="infrastruktur" />
		<tag k="ssr:stedsnr" v="1019813" />
		<tag k="ssr:type" v="adressenavn" />
	</node>
	<node lat="61.542681635422284" lon="10.119329476247245" id="-45364">
		<tag k="name" v="Øvermovegen" />
		<tag k="ssr:date" v="2019-12-27" />
		<tag k="ssr:gruppe" v="veg" />
		<tag k="ssr:hovedgruppe" v="infrastruktur" />
		<tag k="ssr:stedsnr" v="1019814" />
		<tag k="ssr:type" v="adressenavn" />
	</node>
	<node lat="61.54178854728286" lon="10.12134153419931" id="-45365">
		<tag k="name" v="Sperrehaugen" />
		<tag k="ssr:date" v="2019-12-27" />
		<tag k="ssr:gruppe" v="veg" />
		<tag k="ssr:hovedgruppe" v="infrastruktur" />
		<tag k="ssr:stedsnr" v="1019815" />
		<tag k="ssr:type" v="adressenavn" />
	</node>
	<node lat="61.53930176955781" lon="10.127307212307084" id="-45366">
		<tag k="name" v="Spelmannsvegen" />
		<tag k="ssr:date" v="2019-12-27" />
		<tag k="ssr:gruppe" v="veg" />
		<tag k="ssr:hovedgruppe" v="infrastruktur" />
		<tag k="ssr:stedsnr" v="1019816" />
		<tag k="ssr:type" v="adressenavn" />
	</node>
	<node lat="61.53880481911497" lon="10.123266116677081" id="-45367">
		<tag k="name" v="Halvor Vekters veg" />
		<tag k="ssr:date" v="2019-12-27" />
		<tag k="ssr:gruppe" v="veg" />
		<tag k="ssr:hovedgruppe" v="infrastruktur" />
		<tag k="ssr:stedsnr" v="1019817" />
		<tag k="ssr:type" v="adressenavn" />
	</node>
	<node lat="61.53302689330829" lon="10.145062795458646" id="-45368">
		<tag k="name" v="Skalykkja" />
		<tag k="ssr:date" v="2019-12-27" />
		<tag k="ssr:gruppe" v="veg" />
		<tag k="ssr:hovedgruppe" v="infrastruktur" />
		<tag k="ssr:stedsnr" v="1019818" />
		<tag k="ssr:type" v="adressenavn" />
	</node>
	<node lat="61.53470942307429" lon="10.145667136084905" id="-45369">
		<tag k="name" v="Kvenndalsvegen" />
		<tag k="ssr:date" v="2019-12-27" />
		<tag k="ssr:gruppe" v="veg" />
		<tag k="ssr:hovedgruppe" v="infrastruktur" />
		<tag k="ssr:stedsnr" v="1019819" />
		<tag k="ssr:type" v="adressenavn" />
	</node>
	<node lat="61.532350700412536" lon="10.147368302291786" id="-45370">
		<tag k="name" v="Rognvegen" />
		<tag k="ssr:date" v="2019-12-27" />
		<tag k="ssr:gruppe" v="veg" />
		<tag k="ssr:hovedgruppe" v="infrastruktur" />
		<tag k="ssr:stedsnr" v="1019820" />
		<tag k="ssr:type" v="adressenavn" />
	</node>
	<node lat="61.47159920239909" lon="10.221381367914082" id="-45371">
		<tag k="name" v="Vekkomsvegen" />
		<tag k="ssr:date" v="2019-12-27" />
		<tag k="ssr:gruppe" v="veg" />
		<tag k="ssr:hovedgruppe" v="infrastruktur" />
		<tag k="ssr:stedsnr" v="1019822" />
		<tag k="ssr:type" v="adressenavn" />
	</node>
	<node lat="61.53282542149912" lon="10.131490934015089" id="-45377">
		<tag k="name" v="Elgfaret" />
		<tag k="ssr:date" v="2019-12-27" />
		<tag k="ssr:gruppe" v="veg" />
		<tag k="ssr:hovedgruppe" v="infrastruktur" />
		<tag k="ssr:stedsnr" v="1019832" />
		<tag k="ssr:type" v="adressenavn" />
	</node>
	<node lat="61.53189388031826" lon="10.139213956165412" id="-45378">
		<tag k="name" v="Kjønnåsvegen" />
		<tag k="ssr:date" v="2019-12-27" />
		<tag k="ssr:gruppe" v="veg" />
		<tag k="ssr:hovedgruppe" v="infrastruktur" />
		<tag k="ssr:stedsnr" v="1019833" />
		<tag k="ssr:type" v="adressenavn" />
	</node>
	<node lat="61.52962832709119" lon="10.13886352162333" id="-45379">
		<tag k="name" v="Jernbanegata" />
		<tag k="ssr:date" v="2019-12-27" />
		<tag k="ssr:gruppe" v="veg" />
		<tag k="ssr:hovedgruppe" v="infrastruktur" />
		<tag k="ssr:stedsnr" v="1019834" />
		<tag k="ssr:type" v="adressenavn" />
	</node>
	<node lat="61.530511559638505" lon="10.135805853447499" id="-45380">
		<tag k="name" v="Nymogata" />
		<tag k="ssr:date" v="2019-12-27" />
		<tag k="ssr:gruppe" v="veg" />
		<tag k="ssr:hovedgruppe" v="infrastruktur" />
		<tag k="ssr:stedsnr" v="1019835" />
		<tag k="ssr:type" v="adressenavn" />
	</node>
	<node lat="61.52952845830161" lon="10.140140672885078" id="-45381">
		<tag k="name" v="Ole Steigs gate" />
		<tag k="ssr:date" v="2019-12-27" />
		<tag k="ssr:gruppe" v="veg" />
		<tag k="ssr:hovedgruppe" v="infrastruktur" />
		<tag k="ssr:stedsnr" v="1019836" />
		<tag k="ssr:type" v="adressenavn" />
	</node>
	<node lat="61.52978064580392" lon="10.137498805387267" id="-45382">
		<tag k="name" v="Tomtegata" />
		<tag k="ssr:date" v="2019-12-27" />
		<tag k="ssr:gruppe" v="veg" />
		<tag k="ssr:hovedgruppe" v="infrastruktur" />
		<tag k="ssr:stedsnr" v="1019837" />
		<tag k="ssr:type" v="adressenavn" />
	</node>
	<node lat="61.53019204770627" lon="10.14040889552318" id="-45383">
		<tag k="name" v="Hanstadgata" />
		<tag k="ssr:date" v="2019-12-27" />
		<tag k="ssr:gruppe" v="veg" />
		<tag k="ssr:hovedgruppe" v="infrastruktur" />
		<tag k="ssr:stedsnr" v="1019838" />
		<tag k="ssr:type" v="adressenavn" />
	</node>
	<node lat="61.529116085208194" lon="10.145655000850942" id="-45384">
		<tag k="name" v="Brugata" />
		<tag k="ssr:date" v="2019-12-27" />
		<tag k="ssr:gruppe" v="veg" />
		<tag k="ssr:hovedgruppe" v="infrastruktur" />
		<tag k="ssr:stedsnr" v="1019839" />
		<tag k="ssr:type" v="adressenavn" />
	</node>
	<node lat="61.531411153634224" lon="10.140865981012666" id="-45385">
		<tag k="name" v="Torggata" />
		<tag k="ssr:date" v="2019-12-27" />
		<tag k="ssr:gruppe" v="veg" />
		<tag k="ssr:hovedgruppe" v="infrastruktur" />
		<tag k="ssr:stedsnr" v="1019840" />
		<tag k="ssr:type" v="adressenavn" />
	</node>
	<node lat="61.52860993138951" lon="10.137210816325535" id="-45386">
		<tag k="name" v="Randkleivgata" />
		<tag k="ssr:date" v="2019-12-27" />
		<tag k="ssr:gruppe" v="veg" />
		<tag k="ssr:hovedgruppe" v="infrastruktur" />
		<tag k="ssr:stedsnr" v="1019841" />
		<tag k="ssr:type" v="adressenavn" />
	</node>
	<node lat="61.526144479129634" lon="10.132604897117789" id="-45387">
		<tag k="name" v="Strandgata" />
		<tag k="ssr:date" v="2019-12-27" />
		<tag k="ssr:gruppe" v="veg" />
		<tag k="ssr:hovedgruppe" v="infrastruktur" />
		<tag k="ssr:stedsnr" v="1019842" />
		<tag k="ssr:type" v="adressenavn" />
	</node>
	<node lat="61.5289222305155" lon="10.133740616503717" id="-45388">
		<tag k="name" v="Bølundgata" />
		<tag k="ssr:date" v="2019-12-27" />
		<tag k="ssr:gruppe" v="veg" />
		<tag k="ssr:hovedgruppe" v="infrastruktur" />
		<tag k="ssr:stedsnr" v="1019843" />
		<tag k="ssr:type" v="adressenavn" />
	</node>
	<node lat="61.52774375737149" lon="10.13511142907256" id="-45389">
		<tag k="name" v="Bjørgemogata" />
		<tag k="ssr:date" v="2019-12-27" />
		<tag k="ssr:gruppe" v="veg" />
		<tag k="ssr:hovedgruppe" v="infrastruktur" />
		<tag k="ssr:stedsnr" v="1019844" />
		<tag k="ssr:type" v="adressenavn" />
	</node>
	<node lat="61.527240922395585" lon="10.136707486368648" id="-45390">
		<tag k="name" v="Nils Halds gate" />
		<tag k="ssr:date" v="2019-12-27" />
		<tag k="ssr:gruppe" v="veg" />
		<tag k="ssr:hovedgruppe" v="infrastruktur" />
		<tag k="ssr:stedsnr" v="1019845" />
		<tag k="ssr:type" v="adressenavn" />
	</node>
	<node lat="61.52808994424461" lon="10.135208845487911" id="-45391">
		<tag k="name" v="Iver Våles gate" />
		<tag k="ssr:date" v="2019-12-27" />
		<tag k="ssr:gruppe" v="veg" />
		<tag k="ssr:hovedgruppe" v="infrastruktur" />
		<tag k="ssr:stedsnr" v="1019846" />
		<tag k="ssr:type" v="adressenavn" />
	</node>
	<node lat="61.526552185231125" lon="10.136387738452761" id="-45392">
		<tag k="name" v="Vålemogata" />
		<tag k="ssr:date" v="2019-12-27" />
		<tag k="ssr:gruppe" v="veg" />
		<tag k="ssr:hovedgruppe" v="infrastruktur" />
		<tag k="ssr:stedsnr" v="1019847" />
		<tag k="ssr:type" v="adressenavn" />
	</node>
	<node lat="61.52780174095905" lon="10.130301023162959" id="-45393">
		<tag k="name" v="Evjevegen" />
		<tag k="ssr:date" v="2019-12-27" />
		<tag k="ssr:gruppe" v="veg" />
		<tag k="ssr:hovedgruppe" v="infrastruktur" />
		<tag k="ssr:stedsnr" v="1019848" />
		<tag k="ssr:type" v="adressenavn" />
	</node>
	<node lat="61.52823610458072" lon="10.14127835910153" id="-45394">
		<tag k="name" v="Grubbegata" />
		<tag k="ssr:date" v="2019-12-27" />
		<tag k="ssr:gruppe" v="veg" />
		<tag k="ssr:hovedgruppe" v="infrastruktur" />
		<tag k="ssr:stedsnr" v="1019849" />
		<tag k="ssr:type" v="adressenavn" />
	</node>
	<node lat="61.52905395122621" lon="10.132014954543212" id="-45396">
		<tag k="name" v="Vollgata" />
		<tag k="ssr:date" v="2019-12-27" />
		<tag k="ssr:gruppe" v="veg" />
		<tag k="ssr:hovedgruppe" v="infrastruktur" />
		<tag k="ssr:stedsnr" v="1019854" />
		<tag k="ssr:type" v="adressenavn" />
	</node>
	<node lat="61.52510037301048" lon="10.146395478919208" id="-45398">
		<tag k="name" v="Bekkevegen" />
		<tag k="ssr:date" v="2019-12-27" />
		<tag k="ssr:gruppe" v="veg" />
		<tag k="ssr:hovedgruppe" v="infrastruktur" />
		<tag k="ssr:stedsnr" v="1019856" />
		<tag k="ssr:type" v="adressenavn" />
	</node>
	<node lat="61.5266327242616" lon="10.150710228721078" id="-45399">
		<tag k="name" v="Laugvegen" />
		<tag k="ssr:date" v="2019-12-27" />
		<tag k="ssr:gruppe" v="veg" />
		<tag k="ssr:hovedgruppe" v="infrastruktur" />
		<tag k="ssr:stedsnr" v="1019857" />
		<tag k="ssr:type" v="adressenavn" />
	</node>
	<node lat="61.527033983348296" lon="10.147826319439531" id="-45400">
		<tag k="name" v="Skolevegen" />
		<tag k="ssr:date" v="2019-12-27" />
		<tag k="ssr:gruppe" v="veg" />
		<tag k="ssr:hovedgruppe" v="infrastruktur" />
		<tag k="ssr:stedsnr" v="1019858" />
		<tag k="ssr:type" v="adressenavn" />
	</node>
	<node lat="61.525401619780006" lon="10.14659514664494" id="-45401">
		<tag k="name" v="Åvegen" />
		<tag k="ssr:date" v="2019-12-27" />
		<tag k="ssr:gruppe" v="veg" />
		<tag k="ssr:hovedgruppe" v="infrastruktur" />
		<tag k="ssr:stedsnr" v="1019859" />
		<tag k="ssr:type" v="adressenavn" />
	</node>
	<node lat="61.526028151816014" lon="10.146911650593566" id="-45402">
		<tag k="name" v="Elvevegen" />
		<tag k="ssr:date" v="2019-12-27" />
		<tag k="ssr:gruppe" v="veg" />
		<tag k="ssr:hovedgruppe" v="infrastruktur" />
		<tag k="ssr:stedsnr" v="1019860" />
		<tag k="ssr:type" v="adressenavn" />
	</node>
	<node lat="61.422434138837794" lon="10.223359046848923" id="-45404">
		<tag k="name" v="Tromsnesvegen" />
		<tag k="ssr:date" v="2019-12-27" />
		<tag k="ssr:gruppe" v="veg" />
		<tag k="ssr:hovedgruppe" v="infrastruktur" />
		<tag k="ssr:stedsnr" v="1027290" />
		<tag k="ssr:type" v="adressenavn" />
	</node>
	<node lat="61.453136057743265" lon="10.201684715301125" id="-45405">
		<tag k="name" v="Gamlevegen" />
		<tag k="ssr:date" v="2019-12-27" />
		<tag k="ssr:gruppe" v="veg" />
		<tag k="ssr:hovedgruppe" v="infrastruktur" />
		<tag k="ssr:stedsnr" v="1027263" />
		<tag k="ssr:type" v="adressenavn" />
	</node>
	<node lat="61.45213095020004" lon="10.200933777391747" id="-45406">
		<tag k="name" v="Linåkervegen" />
		<tag k="ssr:date" v="2019-12-27" />
		<tag k="ssr:gruppe" v="veg" />
		<tag k="ssr:hovedgruppe" v="infrastruktur" />
		<tag k="ssr:stedsnr" v="1027264" />
		<tag k="ssr:type" v="adressenavn" />
	</node>
	<node lat="61.45410887303621" lon="10.199467361503313" id="-45407">
		<tag k="name" v="Rostadvegen" />
		<tag k="ssr:date" v="2019-12-27" />
		<tag k="ssr:gruppe" v="veg" />
		<tag k="ssr:hovedgruppe" v="infrastruktur" />
		<tag k="ssr:stedsnr" v="1027265" />
		<tag k="ssr:type" v="adressenavn" />
	</node>
	<node lat="61.45523832632197" lon="10.20279083945312" id="-45408">
		<tag k="name" v="Kneiken" />
		<tag k="ssr:date" v="2019-12-27" />
		<tag k="ssr:gruppe" v="veg" />
		<tag k="ssr:hovedgruppe" v="infrastruktur" />
		<tag k="ssr:stedsnr" v="1027266" />
		<tag k="ssr:type" v="adressenavn" />
	</node>
	<node lat="61.45507739640508" lon="10.201464904975033" id="-45409">
		<tag k="name" v="Jomfruvegen" />
		<tag k="ssr:date" v="2019-12-27" />
		<tag k="ssr:gruppe" v="veg" />
		<tag k="ssr:hovedgruppe" v="infrastruktur" />
		<tag k="ssr:stedsnr" v="1027267" />
		<tag k="ssr:type" v="adressenavn" />
	</node>
	<node lat="61.45463350772503" lon="10.204663948761953" id="-45410">
		<tag k="name" v="Tjyrudalen" />
		<tag k="ssr:date" v="2019-12-27" />
		<tag k="ssr:gruppe" v="veg" />
		<tag k="ssr:hovedgruppe" v="infrastruktur" />
		<tag k="ssr:stedsnr" v="1027269" />
		<tag k="ssr:type" v="adressenavn" />
	</node>
	<node lat="61.45364445069168" lon="10.197018796054609" id="-45411">
		<tag k="name" v="Sandmovegen" />
		<tag k="ssr:date" v="2019-12-27" />
		<tag k="ssr:gruppe" v="veg" />
		<tag k="ssr:hovedgruppe" v="infrastruktur" />
		<tag k="ssr:stedsnr" v="1027270" />
		<tag k="ssr:type" v="adressenavn" />
	</node>
	<node lat="61.45551616574547" lon="10.196299542979467" id="-45412">
		<tag k="name" v="Smiuvegen" />
		<tag k="ssr:date" v="2019-12-27" />
		<tag k="ssr:gruppe" v="veg" />
		<tag k="ssr:hovedgruppe" v="infrastruktur" />
		<tag k="ssr:stedsnr" v="1027271" />
		<tag k="ssr:type" v="adressenavn" />
	</node>
	<node lat="61.45425990446496" lon="10.201799102916663" id="-45413">
		<tag k="name" v="Damsvingen" />
		<tag k="ssr:date" v="2019-12-27" />
		<tag k="ssr:gruppe" v="veg" />
		<tag k="ssr:hovedgruppe" v="infrastruktur" />
		<tag k="ssr:stedsnr" v="1027273" />
		<tag k="ssr:type" v="adressenavn" />
	</node>
	<node lat="61.45629634031932" lon="10.197292208513376" id="-45414">
		<tag k="name" v="Fossvegen" />
		<tag k="ssr:date" v="2019-12-27" />
		<tag k="ssr:gruppe" v="veg" />
		<tag k="ssr:hovedgruppe" v="infrastruktur" />
		<tag k="ssr:stedsnr" v="1027275" />
		<tag k="ssr:type" v="adressenavn" />
	</node>
	<node lat="61.45463218932258" lon="10.193143785507319" id="-45415">
		<tag k="name" v="Trimvegen" />
		<tag k="ssr:date" v="2019-12-27" />
		<tag k="ssr:gruppe" v="veg" />
		<tag k="ssr:hovedgruppe" v="infrastruktur" />
		<tag k="ssr:stedsnr" v="1027278" />
		<tag k="ssr:type" v="adressenavn" />
	</node>
	<node lat="61.39065979882995" lon="10.240894252842404" id="-45417">
		<tag k="name" v="Fåvangvegen" />
		<tag k="ssr:date" v="2019-12-27" />
		<tag k="ssr:gruppe" v="veg" />
		<tag k="ssr:hovedgruppe" v="infrastruktur" />
		<tag k="ssr:stedsnr" v="1027282" />
		<tag k="ssr:type" v="adressenavn" />
	</node>
	<node lat="61.44455868310977" lon="10.185702287618184" id="-45418">
		<tag k="name" v="Stasjonsvegen" />
		<tag k="ssr:date" v="2019-12-27" />
		<tag k="ssr:gruppe" v="veg" />
		<tag k="ssr:hovedgruppe" v="infrastruktur" />
		<tag k="ssr:stedsnr" v="1027285" />
		<tag k="ssr:type" v="adressenavn" />
	</node>
	<node lat="61.44804822757605" lon="10.204396426632364" id="-45419">
		<tag k="name" v="Lundjordvegen" />
		<tag k="ssr:date" v="2019-12-27" />
		<tag k="ssr:gruppe" v="veg" />
		<tag k="ssr:hovedgruppe" v="infrastruktur" />
		<tag k="ssr:stedsnr" v="1029155" />
		<tag k="ssr:type" v="adressenavn" />
	</node>
	<node lat="61.463353667340684" lon="10.19712089440778" id="-45420">
		<tag k="name" v="Flymoen" />
		<tag k="ssr:date" v="2019-12-27" />
		<tag k="ssr:gruppe" v="veg" />
		<tag k="ssr:hovedgruppe" v="infrastruktur" />
		<tag k="ssr:stedsnr" v="1029087" />
		<tag k="ssr:type" v="adressenavn" />
	</node>
	<node lat="61.463079656730805" lon="10.198179429786235" id="-45421">
		<tag k="name" v="Flymovegen" />
		<tag k="ssr:date" v="2019-12-27" />
		<tag k="ssr:gruppe" v="veg" />
		<tag k="ssr:hovedgruppe" v="infrastruktur" />
		<tag k="ssr:stedsnr" v="1029090" />
		<tag k="ssr:type" v="adressenavn" />
	</node>
	<node lat="61.45998265684676" lon="10.1946803660057" id="-45423">
		<tag k="name" v="Nergruva" />
		<tag k="ssr:date" v="2019-12-27" />
		<tag k="ssr:gruppe" v="veg" />
		<tag k="ssr:hovedgruppe" v="infrastruktur" />
		<tag k="ssr:stedsnr" v="1029097" />
		<tag k="ssr:type" v="adressenavn" />
	</node>
	<node lat="61.460759419651474" lon="10.196528591434317" id="-45425">
		<tag k="name" v="Øvergruva" />
		<tag k="ssr:date" v="2019-12-27" />
		<tag k="ssr:gruppe" v="veg" />
		<tag k="ssr:hovedgruppe" v="infrastruktur" />
		<tag k="ssr:stedsnr" v="1029102" />
		<tag k="ssr:type" v="adressenavn" />
	</node>
	<node lat="61.45986824260891" lon="10.194776987776173" id="-45426">
		<tag k="name" v="Knausen" />
		<tag k="ssr:date" v="2019-12-27" />
		<tag k="ssr:gruppe" v="veg" />
		<tag k="ssr:hovedgruppe" v="infrastruktur" />
		<tag k="ssr:stedsnr" v="1029106" />
		<tag k="ssr:type" v="adressenavn" />
	</node>
	<node lat="61.46264840649975" lon="10.191417149167618" id="-45427">
		<tag k="name" v="Lindalsvegen" />
		<tag k="ssr:date" v="2019-12-27" />
		<tag k="ssr:gruppe" v="veg" />
		<tag k="ssr:hovedgruppe" v="infrastruktur" />
		<tag k="ssr:stedsnr" v="1029109" />
		<tag k="ssr:type" v="adressenavn" />
	</node>
	<node lat="61.46433414725606" lon="10.190175420709922" id="-45428">
		<tag k="name" v="Furubakken" />
		<tag k="ssr:date" v="2019-12-27" />
		<tag k="ssr:gruppe" v="veg" />
		<tag k="ssr:hovedgruppe" v="infrastruktur" />
		<tag k="ssr:stedsnr" v="1029111" />
		<tag k="ssr:type" v="adressenavn" />
	</node>
	<node lat="61.45866897418919" lon="10.196499583380797" id="-45429">
		<tag k="name" v="Kongsvegen" />
		<tag k="ssr:date" v="2019-12-27" />
		<tag k="ssr:gruppe" v="veg" />
		<tag k="ssr:hovedgruppe" v="infrastruktur" />
		<tag k="ssr:stedsnr" v="1029113" />
		<tag k="ssr:type" v="adressenavn" />
	</node>
	<node lat="61.45891105173126" lon="10.189582746686801" id="-45430">
		<tag k="name" v="Skogvegen" />
		<tag k="ssr:date" v="2019-12-27" />
		<tag k="ssr:gruppe" v="veg" />
		<tag k="ssr:hovedgruppe" v="infrastruktur" />
		<tag k="ssr:stedsnr" v="1029115" />
		<tag k="ssr:type" v="adressenavn" />
	</node>
	<node lat="61.462156446455815" lon="10.19088406529841" id="-45431">
		<tag k="name" v="Baglervegen" />
		<tag k="ssr:date" v="2019-12-27" />
		<tag k="ssr:gruppe" v="veg" />
		<tag k="ssr:hovedgruppe" v="infrastruktur" />
		<tag k="ssr:stedsnr" v="1029119" />
		<tag k="ssr:type" v="adressenavn" />
	</node>
	<node lat="61.46073912672035" lon="10.19012740387821" id="-45432">
		<tag k="name" v="Dalvegen" />
		<tag k="ssr:date" v="2019-12-27" />
		<tag k="ssr:gruppe" v="veg" />
		<tag k="ssr:hovedgruppe" v="infrastruktur" />
		<tag k="ssr:stedsnr" v="1029122" />
		<tag k="ssr:type" v="adressenavn" />
	</node>
	<node lat="61.456765438881305" lon="10.19290264723617" id="-45433">
		<tag k="name" v="Brekkomsvegen" />
		<tag k="ssr:date" v="2019-12-27" />
		<tag k="ssr:gruppe" v="veg" />
		<tag k="ssr:hovedgruppe" v="infrastruktur" />
		<tag k="ssr:stedsnr" v="1029127" />
		<tag k="ssr:type" v="adressenavn" />
	</node>
	<node lat="61.603307495406284" lon="10.06873268942904" id="-45435">
		<tag k="name" v="Rondevegen" />
		<tag k="ssr:date" v="2019-12-27" />
		<tag k="ssr:gruppe" v="veg" />
		<tag k="ssr:hovedgruppe" v="infrastruktur" />
		<tag k="ssr:stedsnr" v="1073532" />
		<tag k="ssr:type" v="vegstrekning" />
	</node>
</osm>
