<?xml version="1.0" encoding="UTF-8"?>
<osm generator="osmapis" version="0.6">
	<node id="-20480" lat="59.4897749968" lon="10.9180305469">
		<tag k="name" v="Skogly" />
		<tag k="place" v="farm" />
		<tag k="ssr:stedsnr" v="629933" />
	</node>
	<node id="-20479" lat="59.496287645" lon="10.8338840568">
		<tag k="alt_name" v="Kåbbel nordre" />
		<tag k="name" v="Nordre Kåbbel" />
		<tag k="place" v="farm" />
		<tag k="ssr:stedsnr" v="629897" />
	</node>
	<node id="-20478" lat="59.4973027784" lon="10.8402194393">
		<tag k="name" v="Torsheim" />
		<tag k="place" v="isolated_dwelling" />
		<tag k="ssr:stedsnr" v="629895" />
	</node>
	<node id="-20477" lat="59.4997000008" lon="10.9572055619">
		<tag k="alt_name" v="Femtegjelbekken" />
		<tag k="name" v="Femtegjeldbekken" />
		<tag k="ssr:stedsnr" v="628949" />
		<tag k="waterway" v="stream" />
	</node>
	<node id="-20476" lat="59.4924277755" lon="10.9826472147">
		<tag k="name" v="Langemyr" />
		<tag k="natural" v="wetland" />
		<tag k="ssr:stedsnr" v="628923" />
	</node>
	<node id="-20475" lat="59.5299388912" lon="10.9168249948">
		<tag k="alt_name" v="Veidalelva" />
		<tag k="name" v="Veidalselva" />
		<tag k="ssr:stedsnr" v="611056" />
		<tag k="waterway" v="stream" />
	</node>
	<node id="-20474" lat="59.5012333303" lon="10.8966861058">
		<tag k="alt_name" v="Bredengen" />
		<tag k="name" v="Breidenga" />
		<tag k="place" v="farm" />
		<tag k="ssr:stedsnr" v="610107" />
	</node>
	<node id="-20473" lat="59.503261112" lon="10.8992749971">
		<tag k="name" v="Holmen" />
		<tag k="place" v="farm" />
		<tag k="ssr:stedsnr" v="610106" />
	</node>
	<node id="-20472" lat="59.4999222233" lon="11.0472277805">
		<tag k="name" v="Holter" />
		<tag k="place" v="farm" />
		<tag k="ssr:stedsnr" v="610096" />
	</node>
	<node id="-20471" lat="59.5177499971" lon="10.8157555481">
		<tag k="name" v="Boslangen" />
		<tag k="place" v="farm" />
		<tag k="ssr:stedsnr" v="610053" />
	</node>
	<node id="-20470" lat="59.4555583363" lon="10.9592416614">
		<tag k="fixme" v="consider natural=peak for the most distinct mountains in the district" />
		<tag k="name" v="Dælingåsen" />
		<tag k="natural" v="hill" />
		<tag k="place" v="locality" />
		<tag k="ssr:stedsnr" v="609699" />
	</node>
	<node id="-20469" lat="59.4926999995" lon="11.0099611109">
		<tag k="name" v="Ødemark" />
		<tag k="place" v="farm" />
		<tag k="ssr:stedsnr" v="609662" />
	</node>
	<node id="-20468" lat="59.4343500042" lon="10.7833388893">
		<tag k="name" v="Sønsterød" />
		<tag k="place" v="farm" />
		<tag k="ssr:stedsnr" v="609352" />
	</node>
	<node id="-20467" lat="59.4656277789" lon="10.9501972246">
		<tag k="fixme" v="consider natural=peak for the most distinct mountains in the district" />
		<tag k="name" v="Torebråte" />
		<tag k="natural" v="hill" />
		<tag k="place" v="locality" />
		<tag k="ssr:stedsnr" v="608781" />
	</node>
	<node id="-20466" lat="59.4680750021" lon="10.8363555576">
		<tag k="name" v="Solheim" />
		<tag k="place" v="farm" />
		<tag k="ssr:stedsnr" v="608741" />
	</node>
	<node id="-20465" lat="59.4378111105" lon="11.0529305629">
		<tag k="alt_name" v="Rødsekk" />
		<tag k="name" v="Røsek" />
		<tag k="place" v="farm" />
		<tag k="ssr:stedsnr" v="608364" />
	</node>
	<node id="-20464" lat="59.4140361125" lon="11.0135638905">
		<tag k="name" v="Myre" />
		<tag k="place" v="farm" />
		<tag k="ssr:stedsnr" v="608337" />
	</node>
	<node id="-20463" lat="59.4235444435" lon="11.0412277746">
		<tag k="alt_name" v="Løkeberg" />
		<tag k="name" v="Lokoberg" />
		<tag k="place" v="isolated_dwelling" />
		<tag k="ssr:stedsnr" v="600350" />
	</node>
	<node id="-20462" lat="59.4029972218" lon="10.7978499938">
		<tag k="name" v="Åboren" />
		<tag k="place" v="islet" />
		<tag k="ssr:stedsnr" v="598865" />
	</node>
	<node id="-20461" lat="59.4842555596" lon="10.9168611115">
		<tag k="name" v="Bjerke" />
		<tag k="place" v="farm" />
		<tag k="ssr:stedsnr" v="598604" />
	</node>
	<node id="-20460" lat="59.4717916658" lon="10.8975833387">
		<tag k="name" v="Haugerelva" />
		<tag k="ssr:stedsnr" v="598583" />
		<tag k="waterway" v="river" />
	</node>
	<node id="-20459" lat="59.4843083291" lon="10.9503111141">
		<tag k="name" v="Nordli" />
		<tag k="place" v="farm" />
		<tag k="ssr:stedsnr" v="598114" />
	</node>
	<node id="-20458" lat="59.4852027742" lon="10.8964638953">
		<tag k="bridge" v="yes" />
		<tag k="layer" v="1" />
		<tag k="name" v="Holm" />
		<tag k="ssr:stedsnr" v="592484" />
	</node>
	<node id="-20457" lat="59.4173855445" lon="10.8221706667">
		<tag k="alt_name" v="Kjernes" />
		<tag k="name" v="Kjærnes" />
		<tag k="place" v="farm" />
		<tag k="ssr:stedsnr" v="584347" />
	</node>
	<node id="-20456" lat="59.4998749969" lon="10.8171194462">
		<tag k="name" v="Koto" />
		<tag k="place" v="farm" />
		<tag k="ssr:stedsnr" v="569846" />
	</node>
	<node id="-20455" lat="59.4314916621" lon="10.9665277837">
		<tag k="name" v="Unumselva" />
		<tag k="ssr:stedsnr" v="569833" />
		<tag k="waterway" v="river" />
	</node>
	<node id="-20454" lat="59.4623250025" lon="10.8109249948">
		<tag k="name" v="Roan" />
		<tag k="place" v="farm" />
		<tag k="ssr:stedsnr" v="569829" />
	</node>
	<node id="-20453" lat="59.4629416673" lon="10.9755722148">
		<tag k="name" v="Lunderbekken" />
		<tag k="ssr:stedsnr" v="569820" />
		<tag k="waterway" v="stream" />
	</node>
	<node id="-20452" lat="59.4599361077" lon="11.0499055545">
		<tag k="name" v="Reverumpemyra" />
		<tag k="natural" v="wetland" />
		<tag k="ssr:stedsnr" v="569811" />
	</node>
	<node id="-20451" lat="59.5061333377" lon="10.9580527832">
		<tag k="name" v="Nygårdsbingen" />
		<tag k="place" v="locality" />
		<tag k="ssr:stedsnr" v="569802" />
	</node>
	<node id="-20450" lat="59.5025416651" lon="11.0083000014">
		<tag k="name" v="Føterbekken" />
		<tag k="ssr:stedsnr" v="569799" />
		<tag k="waterway" v="stream" />
	</node>
	<node id="-20449" lat="59.5106777755" lon="10.9696638911">
		<tag k="name" v="Belgemosen" />
		<tag k="natural" v="wetland" />
		<tag k="ssr:stedsnr" v="569780" />
	</node>
	<node id="-20448" lat="59.4264166665" lon="11.1205694501">
		<tag k="fixme" v="consider natural=peak for the most distinct mountains in the district" />
		<tag k="name" v="Tyrihjell" />
		<tag k="natural" v="hill" />
		<tag k="place" v="locality" />
		<tag k="ssr:stedsnr" v="569774" />
	</node>
	<node id="-20447" lat="59.4739305524" lon="11.0601611058">
		<tag k="name" v="Langerødbekken" />
		<tag k="ssr:stedsnr" v="569772" />
		<tag k="waterway" v="stream" />
	</node>
	<node id="-20446" lat="59.4520277786" lon="11.0858805624">
		<tag k="name" v="Tatermyr" />
		<tag k="place" v="locality" />
		<tag k="ssr:stedsnr" v="569766" />
	</node>
	<node id="-20445" lat="59.5021472209" lon="10.9163472137">
		<tag k="name" v="Svartedal" />
		<tag k="natural" v="valley" />
		<tag k="place" v="locality" />
		<tag k="ssr:stedsnr" v="569757" />
	</node>
	<node id="-20444" lat="59.4719138935" lon="10.9152138836">
		<tag k="name" v="Navestadhytta" />
		<tag k="place" v="isolated_dwelling" />
		<tag k="ssr:stedsnr" v="569741" />
	</node>
	<node id="-20443" lat="59.4889999976" lon="10.9214999922">
		<tag k="name" v="Nordbyelva" />
		<tag k="ssr:stedsnr" v="568878" />
		<tag k="waterway" v="river" />
	</node>
	<node id="-20442" lat="59.4214006475" lon="11.0753372326">
		<tag k="name" v="Østenrød" />
		<tag k="place" v="farm" />
		<tag k="ssr:stedsnr" v="568699" />
	</node>
	<node id="-20441" lat="59.5079083377" lon="10.9678194481">
		<tag k="name" v="Belgeskogen" />
		<tag k="place" v="farm" />
		<tag k="ssr:stedsnr" v="567974" />
	</node>
	<node id="-20440" lat="59.524541667" lon="10.8226694411">
		<tag k="alt_name" v="Stensrød søndre" />
		<tag k="name" v="Søndre Stensrød" />
		<tag k="place" v="farm" />
		<tag k="ssr:stedsnr" v="567911" />
	</node>
	<node id="-20439" lat="59.5016749991" lon="10.9266416699">
		<tag k="fixme" v="multiple name tags, choose one and add the other to alt_name" />
		<tag k="name" v="Mørkelva;Trollhetta" />
		<tag k="ssr:stedsnr" v="550093" />
		<tag k="waterway" v="stream" />
	</node>
	<node id="-20438" lat="59.5190583321" lon="10.9367888817">
		<tag k="alt_name" v="Høyden" />
		<tag k="name" v="Høgda" />
		<tag k="place" v="farm" />
		<tag k="ssr:stedsnr" v="550066" />
	</node>
	<node id="-20437" lat="59.5230249959" lon="10.937777777">
		<tag k="name" v="Bråten" />
		<tag k="place" v="isolated_dwelling" />
		<tag k="ssr:stedsnr" v="550012" />
	</node>
	<node id="-20436" lat="59.4830194487" lon="10.8863472294">
		<tag k="name" v="Vestland" />
		<tag k="place" v="farm" />
		<tag k="ssr:stedsnr" v="549699" />
	</node>
	<node id="-20435" lat="59.4799833364" lon="10.8553805545">
		<tag k="name" v="Tangen" />
		<tag k="place" v="farm" />
		<tag k="ssr:stedsnr" v="549669" />
	</node>
	<node id="-20434" lat="59.4526777753" lon="10.8926777802">
		<tag k="fixme" v="multiple name tags, choose one and add the other to alt_name" />
		<tag k="name" v="Brattenga;Bratterøddalen" />
		<tag k="place" v="farm" />
		<tag k="ssr:stedsnr" v="548722" />
	</node>
	<node id="-20433" lat="59.4689388863" lon="10.9193638967">
		<tag k="name" v="Lunder" />
		<tag k="place" v="farm" />
		<tag k="ssr:stedsnr" v="548718" />
	</node>
	<node id="-20432" lat="59.4696249988" lon="11.0016916634">
		<tag k="name" v="Lunder" />
		<tag k="place" v="farm" />
		<tag k="ssr:stedsnr" v="548711" />
	</node>
	<node id="-20431" lat="59.4531444426" lon="10.84350555">
		<tag k="alt_name" v="Pålshus nordre" />
		<tag k="name" v="Nordre Paulshus" />
		<tag k="place" v="farm" />
		<tag k="ssr:stedsnr" v="548393" />
	</node>
	<node id="-20430" lat="59.4143861123" lon="11.0836527714">
		<tag k="name" v="Langebråte" />
		<tag k="place" v="farm" />
		<tag k="ssr:stedsnr" v="548346" />
	</node>
	<node id="-20429" lat="59.4410421307" lon="11.1048779828">
		<tag k="alt_name" v="Bjerketvedt;Bjerketvet" />
		<tag k="name" v="Bjørketvet" />
		<tag k="place" v="farm" />
		<tag k="ssr:stedsnr" v="548200" />
	</node>
	<node id="-20428" lat="59.5182638894" lon="10.9442638894">
		<tag k="alt_name" v="Tveter" />
		<tag k="name" v="Tveiter" />
		<tag k="place" v="farm" />
		<tag k="ssr:stedsnr" v="543069" />
	</node>
	<node id="-20427" lat="59.4056000003" lon="10.7954500013">
		<tag k="fixme" v="consider natural=peak for the most distinct mountains in the district" />
		<tag k="name" v="Skolemesteren" />
		<tag k="natural" v="hill" />
		<tag k="place" v="locality" />
		<tag k="ssr:stedsnr" v="538885" />
	</node>
	<node id="-20426" lat="59.4597055574" lon="10.8060305618">
		<tag k="fixme" v="consider natural=peak for the most distinct mountains in the district" />
		<tag k="name" v="Bergeråsen" />
		<tag k="natural" v="hill" />
		<tag k="place" v="locality" />
		<tag k="ssr:stedsnr" v="538758" />
	</node>
	<node id="-20425" lat="59.4141777819" lon="10.8024611177">
		<tag k="name" v="Kuholmen" />
		<tag k="place" v="islet" />
		<tag k="ssr:stedsnr" v="538665" />
	</node>
	<node id="-20424" lat="59.4740527754" lon="11.0482305529">
		<tag k="name" v="Tømmermosen" />
		<tag k="natural" v="wetland" />
		<tag k="ssr:stedsnr" v="538122" />
	</node>
	<node id="-20423" lat="59.4503722254" lon="11.0200694413">
		<tag k="alt_name" v="Sukke nordre" />
		<tag k="name" v="Nordre Sukke" />
		<tag k="place" v="farm" />
		<tag k="ssr:stedsnr" v="538103" />
	</node>
	<node id="-20422" lat="59.4523027776" lon="11.050672228">
		<tag k="name" v="Kulpedalen" />
		<tag k="natural" v="valley" />
		<tag k="place" v="locality" />
		<tag k="ssr:stedsnr" v="538095" />
	</node>
	<node id="-20421" lat="59.4577112602" lon="11.0133731994">
		<tag k="alt_name" v="Bråte vestre" />
		<tag k="name" v="Vestre Bråte" />
		<tag k="place" v="farm" />
		<tag k="ssr:stedsnr" v="538091" />
	</node>
	<node id="-20420" lat="59.4584854875" lon="11.016872291">
		<tag k="alt_name" v="Bråte østre" />
		<tag k="name" v="Østre Bråte" />
		<tag k="place" v="farm" />
		<tag k="ssr:stedsnr" v="538089" />
	</node>
	<node id="-20419" lat="59.4576671927" lon="11.0150147843">
		<tag k="name" v="Bråte" />
		<tag k="place" v="hamlet" />
		<tag k="ssr:stedsnr" v="538087" />
	</node>
	<node id="-20418" lat="59.3917388872" lon="11.060450006">
		<tag k="fixme" v="consider natural=peak for the most distinct mountains in the district" />
		<tag k="name" v="Haukåsen" />
		<tag k="natural" v="hill" />
		<tag k="place" v="locality" />
		<tag k="ssr:stedsnr" v="538056" />
	</node>
	<node id="-20417" lat="59.4512055578" lon="10.8351805546">
		<tag k="name" v="Syverød" />
		<tag k="place" v="farm" />
		<tag k="ssr:stedsnr" v="537594" />
	</node>
	<node id="-20416" lat="59.456547219" lon="11.0147750047">
		<tag k="bridge" v="yes" />
		<tag k="layer" v="1" />
		<tag k="name" v="Bråte" />
		<tag k="ssr:stedsnr" v="531468" />
	</node>
	<node id="-20415" lat="59.4940437234" lon="10.8328862378">
		<tag k="alt_name" v="Kåbbel" />
		<tag k="name" v="Kåbøl" />
		<tag k="old_name" v="Østre Kaabøl" />
		<tag k="place" v="farm" />
		<tag k="ssr:stedsnr" v="526104" />
	</node>
	<node id="-20414" lat="59.4920999994" lon="10.8743222181">
		<tag k="name" v="Kirkebygda" />
		<tag k="place" v="village" />
		<tag k="ssr:stedsnr" v="513364" />
	</node>
	<node id="-20413" lat="59.4905527743" lon="10.8683833415">
		<tag k="name" v="Kjos ( Våler prestegård )" />
		<tag k="place" v="farm" />
		<tag k="ssr:stedsnr" v="510682" />
	</node>
	<node id="-20412" lat="59.4785361138" lon="10.9580638862">
		<tag k="fixme" v="consider natural=peak for the most distinct mountains in the district" />
		<tag k="name" v="Gunnersås" />
		<tag k="natural" v="hill" />
		<tag k="place" v="locality" />
		<tag k="ssr:stedsnr" v="509830" />
	</node>
	<node id="-20411" lat="59.4209472205" lon="11.0400944486">
		<tag k="alt_name" v="Vastvet øvre;Vastvedt øvre" />
		<tag k="name" v="Øvre Vastvet" />
		<tag k="place" v="farm" />
		<tag k="ssr:stedsnr" v="509810" />
	</node>
	<node id="-20410" lat="59.4073194427" lon="11.0338194409">
		<tag k="name" v="Demme" />
		<tag k="place" v="locality" />
		<tag k="ssr:stedsnr" v="509802" />
	</node>
	<node id="-20409" lat="59.4566333299" lon="11.0180277711">
		<tag k="name" v="Leikvoll" />
		<tag k="place" v="locality" />
		<tag k="ssr:stedsnr" v="509798" />
	</node>
	<node id="-20408" lat="59.4232500043" lon="10.9513555595">
		<tag k="fixme" v="consider natural=peak for the most distinct mountains in the district" />
		<tag k="name" v="Grindalsåsen" />
		<tag k="natural" v="hill" />
		<tag k="place" v="locality" />
		<tag k="ssr:stedsnr" v="509791" />
	</node>
	<node id="-20407" lat="59.4871888867" lon="10.9592694473">
		<tag k="name" v="Ås" />
		<tag k="place" v="farm" />
		<tag k="ssr:stedsnr" v="509772" />
	</node>
	<node id="-20406" lat="59.4875472262" lon="10.9060416658">
		<tag k="name" v="Trudvang" />
		<tag k="place" v="farm" />
		<tag k="ssr:stedsnr" v="509739" />
	</node>
	<node id="-20405" lat="59.5052416699" lon="10.8752055488">
		<tag k="name" v="Potetbråten" />
		<tag k="place" v="locality" />
		<tag k="ssr:stedsnr" v="509737" />
	</node>
	<node id="-20404" lat="59.4348083366" lon="10.8498861117">
		<tag k="name" v="Havnåsen" />
		<tag k="natural" v="hill" />
		<tag k="place" v="locality" />
		<tag k="ssr:stedsnr" v="509733" />
	</node>
	<node id="-20403" lat="59.4448111133" lon="10.9036388854">
		<tag k="alt_name" v="Ros mellom" />
		<tag k="name" v="Mellom-Ros" />
		<tag k="place" v="farm" />
		<tag k="ssr:stedsnr" v="509731" />
	</node>
	<node id="-20402" lat="59.474452779" lon="10.9332861168">
		<tag k="name" v="Lunderdalen" />
		<tag k="natural" v="valley" />
		<tag k="place" v="locality" />
		<tag k="ssr:stedsnr" v="509723" />
	</node>
	<node id="-20401" lat="59.4067416659" lon="10.9411027747">
		<tag k="name" v="Langmyr" />
		<tag k="natural" v="wetland" />
		<tag k="ssr:stedsnr" v="509721" />
	</node>
	<node id="-20400" lat="59.4386138874" lon="11.1202472143">
		<tag k="alt_name" v="Bjerketvet" />
		<tag k="name" v="Bjørketvet" />
		<tag k="place" v="farm" />
		<tag k="ssr:stedsnr" v="508975" />
	</node>
	<node id="-20399" lat="59.4881222181" lon="10.8617333249">
		<tag k="name" v="Storengen" />
		<tag k="place" v="farm" />
		<tag k="ssr:stedsnr" v="508899" />
	</node>
	<node id="-20398" lat="59.4967916636" lon="10.8419805526">
		<tag k="name" v="Strømnes" />
		<tag k="place" v="farm" />
		<tag k="ssr:stedsnr" v="508892" />
	</node>
	<node id="-20397" lat="59.4997277753" lon="10.8882638958">
		<tag k="alt_name" v="Bergskogen" />
		<tag k="name" v="Bergskog" />
		<tag k="place" v="farm" />
		<tag k="ssr:stedsnr" v="489108" />
	</node>
	<node id="-20396" lat="59.505758332" lon="11.0144861137">
		<tag k="name" v="Bråtenes" />
		<tag k="place" v="farm" />
		<tag k="ssr:stedsnr" v="489103" />
	</node>
	<node id="-20395" lat="59.5236083315" lon="10.8400999962">
		<tag k="name" v="Kure" />
		<tag k="place" v="farm" />
		<tag k="ssr:stedsnr" v="489010" />
	</node>
	<node id="-20394" lat="59.4528666658" lon="11.0594666741">
		<tag k="alt_name" v="Lie" />
		<tag k="name" v="Li" />
		<tag k="place" v="farm" />
		<tag k="ssr:stedsnr" v="488731" />
	</node>
	<node id="-20393" lat="59.4821861145" lon="10.8955888956">
		<tag k="name" v="Stanger" />
		<tag k="place" v="farm" />
		<tag k="ssr:stedsnr" v="488708" />
	</node>
	<node id="-20392" lat="59.4802527814" lon="11.0567750029">
		<tag k="name" v="Morttjernet" />
		<tag k="natural" v="water" />
		<tag k="ssr:stedsnr" v="488699" />
	</node>
	<node id="-20391" lat="59.4742555565" lon="10.7982805616">
		<tag k="name" v="Hellerød" />
		<tag k="place" v="isolated_dwelling" />
		<tag k="ssr:stedsnr" v="488690" />
	</node>
	<node id="-20390" lat="59.4954500035" lon="10.8649722139">
		<tag k="name" v="Ulvestad" />
		<tag k="place" v="farm" />
		<tag k="ssr:stedsnr" v="488686" />
	</node>
	<node id="-20389" lat="59.4869472234" lon="10.8760361183">
		<tag k="fixme" v="consider place=hamlet" />
		<tag k="name" v="Berg" />
		<tag k="place" v="farm" />
		<tag k="ssr:stedsnr" v="488683" />
	</node>
	<node id="-20388" lat="59.4929027818" lon="11.0313833268">
		<tag k="alt_name" v="Moertjern" />
		<tag k="name" v="Moatjernet" />
		<tag k="natural" v="water" />
		<tag k="ssr:stedsnr" v="488677" />
	</node>
	<node id="-20387" lat="59.4965555577" lon="10.8890750009">
		<tag k="name" v="Bjørnstad" />
		<tag k="place" v="farm" />
		<tag k="ssr:stedsnr" v="488666" />
	</node>
	<node id="-20386" lat="59.4992027778" lon="10.9467111155">
		<tag k="name" v="Bråten" />
		<tag k="place" v="farm" />
		<tag k="ssr:stedsnr" v="488663" />
	</node>
	<node id="-20385" lat="59.4976138878" lon="10.8403277796">
		<tag k="name" v="Kåbøl" />
		<tag k="place" v="isolated_dwelling" />
		<tag k="ssr:stedsnr" v="488657" />
	</node>
	<node id="-20384" lat="59.4408611149" lon="10.8997500003">
		<tag k="alt_name" v="Ros søndre" />
		<tag k="name" v="Søndre Ros" />
		<tag k="place" v="farm" />
		<tag k="ssr:stedsnr" v="488342" />
	</node>
	<node id="-20383" lat="59.4415784874" lon="10.848002023">
		<tag k="fixme" v="consider place=hamlet" />
		<tag k="name" v="Bjørnerød" />
		<tag k="place" v="farm" />
		<tag k="ssr:stedsnr" v="488331" />
	</node>
	<node id="-20382" lat="59.4584805574" lon="11.0096249954">
		<tag k="alt_name" v="Sandem" />
		<tag k="name" v="Sandum" />
		<tag k="place" v="farm" />
		<tag k="ssr:stedsnr" v="487771" />
	</node>
	<node id="-20381" lat="59.4746138917" lon="10.9916249974">
		<tag k="name" v="Ulfsrød" />
		<tag k="place" v="farm" />
		<tag k="ssr:stedsnr" v="487754" />
	</node>
	<node id="-20380" lat="59.4760888857" lon="10.9791555631">
		<tag k="fixme" v="multiple name tags, choose one and add the other to alt_name" />
		<tag k="name" v="Grimsrød;Solheim" />
		<tag k="place" v="farm" />
		<tag k="ssr:stedsnr" v="487753" />
	</node>
	<node id="-20379" lat="59.423028158" lon="11.0481480996">
		<tag k="alt_name" v="Vasstvet;Vastvedt nordre;Vastvet, n" />
		<tag k="fixme" v="consider place=hamlet" />
		<tag k="name" v="Nordre Vasstvet" />
		<tag k="place" v="farm" />
		<tag k="ssr:stedsnr" v="487413" />
	</node>
	<node id="-20378" lat="59.4311888895" lon="10.7886916603">
		<tag k="name" v="Svellebråten" />
		<tag k="place" v="locality" />
		<tag k="ssr:stedsnr" v="487370" />
	</node>
	<node id="-20377" lat="59.4115249967" lon="10.8741055497">
		<tag k="name" v="Dyrholmene" />
		<tag k="place" v="islet" />
		<tag k="ssr:stedsnr" v="487336" />
	</node>
	<node id="-20376" lat="59.394339965" lon="11.0353323549">
		<tag k="fixme" v="multiple name tags, choose one and add the other to alt_name" />
		<tag k="name" v="Agnalttjern;Vasstvettjernet" />
		<tag k="natural" v="water" />
		<tag k="ssr:stedsnr" v="487327" />
	</node>
	<node id="-20375" lat="59.3954177631" lon="11.0663631806">
		<tag k="fixme" v="consider natural=peak for the most distinct mountains in the district" />
		<tag k="name" v="Kallen" />
		<tag k="natural" v="hill" />
		<tag k="place" v="locality" />
		<tag k="ssr:stedsnr" v="487312" />
	</node>
	<node id="-20374" lat="59.4186499969" lon="11.1009749941">
		<tag k="alt_name" v="Rusviktjern" />
		<tag k="name" v="Rusviktjernet" />
		<tag k="natural" v="water" />
		<tag k="ssr:stedsnr" v="487118" />
	</node>
	<node id="-20373" lat="59.5167833339" lon="10.8325333325">
		<tag k="fixme" v="consider place=hamlet" />
		<tag k="loc_name" v="Flakastad" />
		<tag k="name" v="Flakestad" />
		<tag k="place" v="farm" />
		<tag k="ssr:stedsnr" v="464870" />
	</node>
	<node id="-20372" lat="59.443030553" lon="11.0865805612">
		<tag k="name" v="Nordbyhytta" />
		<tag k="place" v="locality" />
		<tag k="ssr:stedsnr" v="448879" />
	</node>
	<node id="-20371" lat="59.509691663" lon="10.809850006">
		<tag k="alt_name" v="Gylder søndre" />
		<tag k="name" v="Søndre Gylder" />
		<tag k="place" v="farm" />
		<tag k="ssr:stedsnr" v="448864" />
	</node>
	<node id="-20370" lat="59.4574694451" lon="10.9941055516">
		<tag k="name" v="Frubekk" />
		<tag k="ssr:stedsnr" v="448859" />
		<tag k="waterway" v="stream" />
	</node>
	<node id="-20369" lat="59.4395416624" lon="11.0149055505">
		<tag k="name" v="Fokohytta" />
		<tag k="place" v="locality" />
		<tag k="ssr:stedsnr" v="448850" />
	</node>
	<node id="-20368" lat="59.4235944423" lon="11.016586114">
		<tag k="name" v="Svinndal" />
		<tag k="place" v="village" />
		<tag k="ssr:stedsnr" v="448847" />
	</node>
	<node id="-20367" lat="59.4259388871" lon="11.0316250016">
		<tag k="name" v="Oreholtet" />
		<tag k="place" v="locality" />
		<tag k="ssr:stedsnr" v="448841" />
	</node>
	<node id="-20366" lat="59.4854583325" lon="10.9695027698">
		<tag k="loc_name" v="Sandbunnleina" />
		<tag k="name" v="Sandbunnleima" />
		<tag k="place" v="locality" />
		<tag k="ssr:stedsnr" v="448831" />
	</node>
	<node id="-20365" lat="59.5174833372" lon="10.9559805486">
		<tag k="name" v="Torget" />
		<tag k="place" v="locality" />
		<tag k="ssr:stedsnr" v="448827" />
	</node>
	<node id="-20364" lat="59.5281694455" lon="10.979169444">
		<tag k="name" v="Nordmørkelva" />
		<tag k="ssr:stedsnr" v="448826" />
		<tag k="waterway" v="stream" />
	</node>
	<node id="-20363" lat="59.5137972228" lon="10.9784777737">
		<tag k="name" v="Havnedalen" />
		<tag k="place" v="farm" />
		<tag k="ssr:stedsnr" v="448825" />
	</node>
	<node id="-20362" lat="59.4714666637" lon="11.0680444458">
		<tag k="name" v="Langerødåsen" />
		<tag k="natural" v="valley" />
		<tag k="place" v="locality" />
		<tag k="ssr:stedsnr" v="448823" />
	</node>
	<node id="-20361" lat="59.5168416649" lon="10.905563883">
		<tag k="alt_name" v="Veidal mellem" />
		<tag k="name" v="Mellom-Veidal" />
		<tag k="place" v="farm" />
		<tag k="ssr:stedsnr" v="448811" />
	</node>
	<node id="-20360" lat="59.4696527762" lon="10.8751916655">
		<tag k="name" v="Flesbergmosen" />
		<tag k="natural" v="wetland" />
		<tag k="ssr:stedsnr" v="448808" />
	</node>
	<node id="-20359" lat="59.4220416655" lon="10.8523388954">
		<tag k="name" v="Mosserosflasken" />
		<tag k="natural" v="strait" />
		<tag k="ssr:stedsnr" v="448785" />
	</node>
	<node id="-20358" lat="59.5020138919" lon="11.0207638895">
		<tag k="alt_name" v="Vildskog" />
		<tag k="name" v="Villskog" />
		<tag k="place" v="farm" />
		<tag k="ssr:stedsnr" v="429075" />
	</node>
	<node id="-20357" lat="59.5018527767" lon="10.9930749915">
		<tag k="alt_name" v="Setra" />
		<tag k="name" v="Sætra" />
		<tag k="place" v="farm" />
		<tag k="ssr:stedsnr" v="429074" />
	</node>
	<node id="-20356" lat="59.5377250009" lon="10.9859722225">
		<tag k="fixme" v="consider natural=peak for the most distinct mountains in the district" />
		<tag k="name" v="Lommetjernåsen" />
		<tag k="natural" v="hill" />
		<tag k="place" v="locality" />
		<tag k="ssr:stedsnr" v="429024" />
	</node>
	<node id="-20355" lat="59.5305777756" lon="10.8810999922">
		<tag k="alt_name" v="Askerødtjern" />
		<tag k="name" v="Askerødtjernet" />
		<tag k="natural" v="water" />
		<tag k="ssr:stedsnr" v="429009" />
	</node>
	<node id="-20354" lat="59.5257161192" lon="10.860735089">
		<tag k="alt_name" v="Ombustvedt" />
		<tag k="name" v="Ødegård" />
		<tag k="old_name" v="Ødegaarden" />
		<tag k="place" v="farm" />
		<tag k="ssr:stedsnr" v="429003" />
	</node>
	<node id="-20353" lat="59.4776388907" lon="10.9932194522">
		<tag k="name" v="Solberg" />
		<tag k="place" v="farm" />
		<tag k="ssr:stedsnr" v="428691" />
	</node>
	<node id="-20352" lat="59.4889364956" lon="10.9250088542">
		<tag k="alt_name" v="Nordbyødegård" />
		<tag k="name" v="Nordbyødegården" />
		<tag k="place" v="farm" />
		<tag k="ssr:stedsnr" v="428680" />
	</node>
	<node id="-20351" lat="59.4795694426" lon="10.8477666749">
		<tag k="alt_name" v="Risheim" />
		<tag k="name" v="Risum" />
		<tag k="place" v="farm" />
		<tag k="ssr:stedsnr" v="428664" />
	</node>
	<node id="-20350" lat="59.4978027821" lon="10.8792527765">
		<tag k="alt_name" v="Orskaug" />
		<tag k="name" v="Orskog" />
		<tag k="place" v="farm" />
		<tag k="ssr:stedsnr" v="428660" />
	</node>
	<node id="-20349" lat="59.5109167721" lon="10.9352801739">
		<tag k="fixme" v="consider place=hamlet" />
		<tag k="name" v="Frosterød" />
		<tag k="place" v="farm" />
		<tag k="ssr:stedsnr" v="428049" />
	</node>
	<node id="-20348" lat="59.5133305546" lon="10.8382999963">
		<tag k="alt_name" v="Strøm, nordre;Strøm" />
		<tag k="name" v="Nordre Strøm" />
		<tag k="place" v="farm" />
		<tag k="ssr:stedsnr" v="428045" />
	</node>
	<node id="-20347" lat="59.5082055577" lon="10.8017777748">
		<tag k="alt_name" v="Gylderdammen søndre;Dammen" />
		<tag k="name" v="Søndre Gylderdammen" />
		<tag k="place" v="farm" />
		<tag k="ssr:stedsnr" v="428042" />
	</node>
	<node id="-20346" lat="59.4631555581" lon="11.0592999966">
		<tag k="alt_name" v="Langerød" />
		<tag k="name" v="Langrød" />
		<tag k="place" v="farm" />
		<tag k="ssr:stedsnr" v="427712" />
	</node>
	<node id="-20345" lat="59.4586416667" lon="10.9542138926">
		<tag k="name" v="Høybråten" />
		<tag k="place" v="farm" />
		<tag k="ssr:stedsnr" v="427710" />
	</node>
	<node id="-20344" lat="59.4545611093" lon="10.8636583311">
		<tag k="alt_name" v="Fjeld" />
		<tag k="name" v="Fjell" />
		<tag k="place" v="farm" />
		<tag k="ssr:stedsnr" v="427708" />
	</node>
	<node id="-20343" lat="59.4570583296" lon="10.9703166741">
		<tag k="alt_name" v="Spjøter store" />
		<tag k="name" v="Store Spjøter" />
		<tag k="place" v="farm" />
		<tag k="ssr:stedsnr" v="427709" />
	</node>
	<node id="-20342" lat="59.4702055536" lon="10.8540722201">
		<tag k="name" v="Bakketun" />
		<tag k="place" v="farm" />
		<tag k="ssr:stedsnr" v="427693" />
	</node>
	<node id="-20341" lat="59.4303055593" lon="10.8277138947">
		<tag k="name" v="Grepperødfjorden" />
		<tag k="natural" v="bay" />
		<tag k="ssr:stedsnr" v="427373" />
	</node>
	<node id="-20340" lat="59.4241694426" lon="11.0108555577">
		<tag k="name" v="Gunnerød" />
		<tag k="place" v="farm" />
		<tag k="ssr:stedsnr" v="427371" />
	</node>
	<node id="-20339" lat="59.4302944466" lon="11.0107055584">
		<tag k="alt_name" v="Bøgle" />
		<tag k="name" v="Bøle" />
		<tag k="place" v="farm" />
		<tag k="ssr:stedsnr" v="427369" />
	</node>
	<node id="-20338" lat="59.4161222254" lon="10.83585278">
		<tag k="alt_name" v="Rødsengen" />
		<tag k="name" v="Rødsenga" />
		<tag k="place" v="farm" />
		<tag k="ssr:stedsnr" v="427359" />
	</node>
	<node id="-20337" lat="59.4170305534" lon="10.9715333352">
		<tag k="name" v="Boslangen" />
		<tag k="place" v="farm" />
		<tag k="ssr:stedsnr" v="427354" />
	</node>
	<node id="-20336" lat="59.404921056" lon="10.9722262293">
		<tag k="name" v="Sjursbråten" />
		<tag k="place" v="isolated_dwelling" />
		<tag k="ssr:stedsnr" v="427336" />
	</node>
	<node id="-20335" lat="59.4233750019" lon="11.1309722135">
		<tag k="name" v="Stokkebekk" />
		<tag k="place" v="farm" />
		<tag k="ssr:stedsnr" v="427182" />
	</node>
	<node id="-20334" lat="59.4085972223" lon="10.820786105">
		<tag k="name" v="Holmefjorden" />
		<tag k="natural" v="water" />
		<tag k="ssr:stedsnr" v="417706" />
	</node>
	<node id="-20333" lat="59.4175222237" lon="10.8211777721">
		<tag k="name" v="Kjærnes" />
		<tag k="place" v="farm" />
		<tag k="ssr:stedsnr" v="417704" />
	</node>
	<node id="-20332" lat="59.4369249967" lon="10.8241777723">
		<tag k="name" v="Tokerød" />
		<tag k="place" v="farm" />
		<tag k="ssr:stedsnr" v="417683" />
	</node>
	<node id="-20331" lat="59.4377666701" lon="10.7899944494">
		<tag k="fixme" v="consider natural=peak for the most distinct mountains in the district" />
		<tag k="name" v="Sønsterudåsen" />
		<tag k="natural" v="hill" />
		<tag k="place" v="locality" />
		<tag k="ssr:stedsnr" v="417676" />
	</node>
	<node id="-20330" lat="59.4748388905" lon="10.9559777831">
		<tag k="name" v="Struthullet" />
		<tag k="place" v="locality" />
		<tag k="ssr:stedsnr" v="417121" />
	</node>
	<node id="-20329" lat="59.4613805523" lon="11.0227916656">
		<tag k="name" v="Nygård" />
		<tag k="place" v="farm" />
		<tag k="ssr:stedsnr" v="417074" />
	</node>
	<node id="-20328" lat="59.4182833328" lon="11.03698333">
		<tag k="name" v="Åsen" />
		<tag k="place" v="locality" />
		<tag k="ssr:stedsnr" v="266853" />
	</node>
	<node id="-20327" lat="59.4149527798" lon="11.0085666581">
		<tag k="alt_name" v="Bakkon" />
		<tag k="name" v="Bakken" />
		<tag k="place" v="farm" />
		<tag k="ssr:stedsnr" v="266852" />
	</node>
	<node id="-20326" lat="59.423296484" lon="11.0485413917">
		<tag k="alt_name" v="Vastvet nordre" />
		<tag k="loc_name" v="Nordre Vasstvet" />
		<tag k="name" v="Nordre Vastvet" />
		<tag k="place" v="farm" />
		<tag k="ssr:stedsnr" v="266843" />
	</node>
	<node id="-20325" lat="59.4387194459" lon="11.0226833372">
		<tag k="name" v="Huklabekken" />
		<tag k="ssr:stedsnr" v="266828" />
		<tag k="waterway" v="stream" />
	</node>
	<node id="-20324" lat="59.506294448" lon="10.9487722173">
		<tag k="name" v="Gurødhytta" />
		<tag k="place" v="locality" />
		<tag k="ssr:stedsnr" v="266826" />
	</node>
	<node id="-20323" lat="59.4890333348" lon="11.0446055509">
		<tag k="fixme" v="consider natural=peak for the most distinct mountains in the district" />
		<tag k="name" v="Regina" />
		<tag k="natural" v="hill" />
		<tag k="place" v="locality" />
		<tag k="ssr:stedsnr" v="266819" />
	</node>
	<node id="-20322" lat="59.4941055546" lon="11.0479416619">
		<tag k="name" v="Slora" />
		<tag k="ssr:stedsnr" v="266818" />
		<tag k="waterway" v="river" />
	</node>
	<node id="-20321" lat="59.5267444431" lon="10.9482611055">
		<tag k="name" v="Bekkhus" />
		<tag k="place" v="locality" />
		<tag k="ssr:stedsnr" v="266804" />
	</node>
	<node id="-20320" lat="59.4410000024" lon="11.0588194419">
		<tag k="name" v="Kirkerødhytta" />
		<tag k="place" v="locality" />
		<tag k="ssr:stedsnr" v="266797" />
	</node>
	<node id="-20319" lat="59.5209305597" lon="10.9391055629">
		<tag k="name" v="Stein" />
		<tag k="place" v="farm" />
		<tag k="ssr:stedsnr" v="266791" />
	</node>
	<node id="-20318" lat="59.5194111118" lon="10.9040611098">
		<tag k="alt_name" v="Veidal nordre;Veidal" />
		<tag k="name" v="Nordre Veidal" />
		<tag k="place" v="farm" />
		<tag k="ssr:stedsnr" v="266788" />
	</node>
	<node id="-20317" lat="59.5139333358" lon="10.9279083248">
		<tag k="name" v="Langemyr" />
		<tag k="natural" v="wetland" />
		<tag k="ssr:stedsnr" v="266786" />
	</node>
	<node id="-20316" lat="59.4981138853" lon="10.9220972207">
		<tag k="name" v="Rasa" />
		<tag k="place" v="locality" />
		<tag k="ssr:stedsnr" v="266778" />
	</node>
	<node id="-20315" lat="59.4900222243" lon="10.8582305638">
		<tag k="alt_name" v="Kirkebygden skole" />
		<tag k="amenity" v="school" />
		<tag k="name" v="Kirkebygda skole" />
		<tag k="ssr:stedsnr" v="266775" />
	</node>
	<node id="-20314" lat="59.4875055589" lon="10.8629166734">
		<tag k="amenity" v="community_centre" />
		<tag k="name" v="Solvang" />
		<tag k="ssr:stedsnr" v="266765" />
	</node>
	<node id="-20313" lat="59.470102782" lon="10.9027083355">
		<tag k="name" v="Lahellklypa" />
		<tag k="place" v="locality" />
		<tag k="ssr:stedsnr" v="266763" />
	</node>
	<node id="-20312" lat="59.4150416685" lon="10.8519222296">
		<tag k="name" v="Gjeddesund" />
		<tag k="natural" v="strait" />
		<tag k="ssr:stedsnr" v="266752" />
	</node>
	<node id="-20311" lat="59.509501282" lon="10.9563166903">
		<tag k="alt_name" v="Belgen mellem" />
		<tag k="name" v="Mellom-Belgen" />
		<tag k="place" v="farm" />
		<tag k="ssr:stedsnr" v="264998" />
	</node>
	<node id="-20310" lat="59.5113555595" lon="10.9750999966">
		<tag k="name" v="Havnås" />
		<tag k="place" v="isolated_dwelling" />
		<tag k="ssr:stedsnr" v="264992" />
	</node>
	<node id="-20309" lat="59.5077261802" lon="10.9549853428">
		<tag k="alt_name" v="Belgen søndre" />
		<tag k="name" v="Søndre Belgen" />
		<tag k="place" v="farm" />
		<tag k="ssr:stedsnr" v="264967" />
	</node>
	<node id="-20308" lat="59.4999722201" lon="10.9709694509">
		<tag k="name" v="Kasteneset" />
		<tag k="natural" v="cape" />
		<tag k="ssr:stedsnr" v="264964" />
	</node>
	<node id="-20307" lat="59.5051527759" lon="11.0130333323">
		<tag k="name" v="Bråtenes" />
		<tag k="place" v="farm" />
		<tag k="ssr:stedsnr" v="264937" />
	</node>
	<node id="-20306" lat="59.4916888903" lon="11.0049833284">
		<tag k="name" v="Fløterbekken" />
		<tag k="ssr:stedsnr" v="264938" />
		<tag k="waterway" v="stream" />
	</node>
	<node id="-20305" lat="59.5170083314" lon="10.7841638882">
		<tag k="alt_name" v="Kåter vestre;Kåter" />
		<tag k="name" v="Vestre Kåter" />
		<tag k="place" v="farm" />
		<tag k="ssr:stedsnr" v="247045" />
	</node>
	<node id="-20304" lat="59.5339111108" lon="10.8978861044">
		<tag k="name" v="Fjærmosan" />
		<tag k="natural" v="wetland" />
		<tag k="ssr:stedsnr" v="247024" />
	</node>
	<node id="-20303" lat="59.5203666623" lon="10.9514194428">
		<tag k="alt_name" v="Tveiter, østre;Tveter nordre;Tveter østre;Tveiter østre;Tveiter" />
		<tag k="name" v="Østre Tveiter" />
		<tag k="place" v="farm" />
		<tag k="ssr:stedsnr" v="247014" />
	</node>
	<node id="-20302" lat="59.4966777777" lon="10.9060250043">
		<tag k="name" v="Nybråten" />
		<tag k="place" v="isolated_dwelling" />
		<tag k="ssr:stedsnr" v="246656" />
	</node>
	<node id="-20301" lat="59.5114416667" lon="10.8023555545">
		<tag k="alt_name" v="Gylderdammen nordre;Gylderdammen" />
		<tag k="name" v="Nordre Gylderdammen" />
		<tag k="place" v="farm" />
		<tag k="ssr:stedsnr" v="246042" />
	</node>
	<node id="-20300" lat="59.4609611128" lon="10.9057083279">
		<tag k="alt_name" v="Hauger;Hauger søndre" />
		<tag k="name" v="Søndre Hauger" />
		<tag k="place" v="farm" />
		<tag k="ssr:stedsnr" v="245720" />
	</node>
	<node id="-20299" lat="59.4619999975" lon="10.8041555489">
		<tag k="name" v="Dammyr" />
		<tag k="place" v="farm" />
		<tag k="ssr:stedsnr" v="245689" />
	</node>
	<node id="-20298" lat="59.4568083322" lon="11.0653888945">
		<tag k="alt_name" v="Sandaker" />
		<tag k="name" v="Sandåker" />
		<tag k="place" v="farm" />
		<tag k="ssr:stedsnr" v="245355" />
	</node>
	<node id="-20297" lat="59.39823889" lon="10.8708500047">
		<tag k="name" v="Østenrødøya" />
		<tag k="place" v="island" />
		<tag k="ssr:stedsnr" v="245296" />
	</node>
	<node id="-20296" lat="59.4385805598" lon="11.096347227">
		<tag k="name" v="Nordby" />
		<tag k="place" v="farm" />
		<tag k="ssr:stedsnr" v="245178" />
	</node>
	<node id="-20295" lat="59.4011861133" lon="10.8060499945">
		<tag k="name" v="Sundkjeften" />
		<tag k="natural" v="strait" />
		<tag k="ssr:stedsnr" v="235888" />
	</node>
	<node id="-20294" lat="59.404861113" lon="10.8526666605">
		<tag k="alt_name" v="Kreierten nordre" />
		<tag k="name" v="Nordre Kreierten" />
		<tag k="place" v="islet" />
		<tag k="ssr:stedsnr" v="235747" />
	</node>
	<node id="-20293" lat="59.4121416697" lon="10.7919194495">
		<tag k="name" v="Marsholmene" />
		<tag k="place" v="islet" />
		<tag k="ssr:stedsnr" v="235700" />
	</node>
	<node id="-20292" lat="59.4626416656" lon="10.9927055583">
		<tag k="alt_name" v="Lundemødegården" />
		<tag k="loc_name" v="Rud" />
		<tag k="name" v="Ruud" />
		<tag k="place" v="farm" />
		<tag k="ssr:stedsnr" v="235188" />
	</node>
	<node id="-20291" lat="59.4769277759" lon="10.9865722213">
		<tag k="name" v="Grimsrød" />
		<tag k="place" v="farm" />
		<tag k="ssr:stedsnr" v="235139" />
	</node>
	<node id="-20290" lat="59.4703138877" lon="10.9814361188">
		<tag k="name" v="Lunderdalen" />
		<tag k="natural" v="valley" />
		<tag k="place" v="locality" />
		<tag k="ssr:stedsnr" v="235079" />
	</node>
	<node id="-20289" lat="59.4215750034" lon="11.0246972234">
		<tag k="alt_name" v="Onsaker søndre" />
		<tag k="name" v="Søndre Onsaker" />
		<tag k="place" v="farm" />
		<tag k="ssr:stedsnr" v="235568" />
	</node>
	<node id="-20288" lat="59.4255058105" lon="11.0172458325">
		<tag k="name" v="Ingulstad" />
		<tag k="place" v="farm" />
		<tag k="ssr:stedsnr" v="235561" />
	</node>
	<node id="-20287" lat="59.4344333299" lon="10.9210249972">
		<tag k="name" v="Bjerkedaldalen" />
		<tag k="place" v="farm" />
		<tag k="ssr:stedsnr" v="234513" />
	</node>
	<node id="-20286" lat="59.4532555533" lon="10.8897888968">
		<tag k="name" v="Kilen" />
		<tag k="place" v="farm" />
		<tag k="ssr:stedsnr" v="234489" />
	</node>
	<node id="-20285" lat="59.4591916658" lon="10.873108338">
		<tag k="fixme" v="consider natural=peak for the most distinct mountains in the district" />
		<tag k="name" v="Bratterødåsen" />
		<tag k="natural" v="hill" />
		<tag k="place" v="locality" />
		<tag k="ssr:stedsnr" v="234609" />
	</node>
	<node id="-20284" lat="59.5284138901" lon="10.8401611193">
		<tag k="bridge" v="yes" />
		<tag k="layer" v="1" />
		<tag k="name" v="Kure" />
		<tag k="ssr:stedsnr" v="228489" />
	</node>
	<node id="-20283" lat="59.4074888851" lon="10.7922805512">
		<tag k="name" v="Store Tømmerøya" />
		<tag k="place" v="island" />
		<tag k="ssr:stedsnr" v="205892" />
	</node>
	<node id="-20282" lat="59.3994416669" lon="10.8213944447">
		<tag k="name" v="Virebukt" />
		<tag k="natural" v="bay" />
		<tag k="ssr:stedsnr" v="205891" />
	</node>
	<node id="-20281" lat="59.4202499957" lon="11.0409694487">
		<tag k="alt_name" v="Vastvet nedre;Vastvedt nedre" />
		<tag k="name" v="Nedre Vastvet" />
		<tag k="place" v="farm" />
		<tag k="ssr:stedsnr" v="205887" />
	</node>
	<node id="-20280" lat="59.4252777767" lon="11.1151833321">
		<tag k="name" v="Bergemellom" />
		<tag k="place" v="locality" />
		<tag k="ssr:stedsnr" v="205883" />
	</node>
	<node id="-20279" lat="59.3993055549" lon="10.8785555593">
		<tag k="name" v="Tellebergsund" />
		<tag k="natural" v="strait" />
		<tag k="ssr:stedsnr" v="205875" />
	</node>
	<node id="-20278" lat="59.4435194466" lon="10.9251416642">
		<tag k="name" v="Høljeren" />
		<tag k="natural" v="water" />
		<tag k="ssr:stedsnr" v="205874" />
	</node>
	<node id="-20277" lat="59.4767472207" lon="10.9690444417">
		<tag k="name" v="Skubakkene" />
		<tag k="place" v="locality" />
		<tag k="ssr:stedsnr" v="205832" />
	</node>
	<node id="-20276" lat="59.479235173" lon="11.0718350904">
		<tag k="name" v="Svarttjern" />
		<tag k="natural" v="water" />
		<tag k="ssr:stedsnr" v="205817" />
	</node>
	<node id="-20275" lat="59.4457583344" lon="10.9086027799">
		<tag k="alt_name" v="Ros nordre;Ros, nordre" />
		<tag k="name" v="Nordre Ros" />
		<tag k="place" v="farm" />
		<tag k="ssr:stedsnr" v="205800" />
	</node>
	<node id="-20274" lat="59.4381638933" lon="11.1045000002">
		<tag k="alt_name" v="Bjerketvet" />
		<tag k="name" v="Bjørketvet" />
		<tag k="place" v="farm" />
		<tag k="ssr:stedsnr" v="204972" />
	</node>
	<node id="-20273" lat="59.4928916674" lon="11.0056166649">
		<tag k="name" v="Ødemark" />
		<tag k="place" v="farm" />
		<tag k="ssr:stedsnr" v="204946" />
	</node>
	<node id="-20271" lat="59.494516671" lon="10.8442777804">
		<tag k="alt_name" v="Torsnes" />
		<tag k="name" v="Søndre Torsnes" />
		<tag k="place" v="farm" />
		<tag k="ssr:stedsnr" v="204879" />
	</node>
	<node id="-20270" lat="59.429299996" lon="11.1046944514">
		<tag k="alt_name" v="Skaug" />
		<tag k="name" v="Skog" />
		<tag k="place" v="farm" />
		<tag k="ssr:stedsnr" v="191771" />
	</node>
	<node id="-20269" lat="59.5015222224" lon="10.8868611149">
		<tag k="name" v="Hagen" />
		<tag k="place" v="farm" />
		<tag k="ssr:stedsnr" v="186086" />
	</node>
	<node id="-20268" lat="59.5152999987" lon="10.9516333264">
		<tag k="name" v="Brårød" />
		<tag k="place" v="farm" />
		<tag k="ssr:stedsnr" v="186065" />
	</node>
	<node id="-20267" lat="59.4986861069" lon="11.0531666652">
		<tag k="alt_name" v="Bergsjøtjern" />
		<tag k="name" v="Bergsjøtjernet" />
		<tag k="natural" v="water" />
		<tag k="ssr:stedsnr" v="185634" />
	</node>
	<node id="-20266" lat="59.4711027788" lon="10.8096749965">
		<tag k="name" v="Kjuksrød" />
		<tag k="place" v="farm" />
		<tag k="ssr:stedsnr" v="185668" />
	</node>
	<node id="-20265" lat="59.4875527788" lon="11.0626916739">
		<tag k="name" v="Svarttjernet" />
		<tag k="natural" v="water" />
		<tag k="ssr:stedsnr" v="185657" />
	</node>
	<node id="-20264" lat="59.4465750022" lon="11.0319055624">
		<tag k="name" v="Sukkebråten" />
		<tag k="place" v="farm" />
		<tag k="ssr:stedsnr" v="185348" />
	</node>
	<node id="-20263" lat="59.5088000004" lon="11.015797231">
		<tag k="name" v="Muskedalen" />
		<tag k="place" v="farm" />
		<tag k="ssr:stedsnr" v="185079" />
	</node>
	<node id="-20262" lat="59.5067833306" lon="10.9743611111">
		<tag k="alt_name" v="Belgeskogen" />
		<tag k="name" v="Belgskogen" />
		<tag k="place" v="farm" />
		<tag k="ssr:stedsnr" v="185078" />
	</node>
	<node id="-20261" lat="59.4520333368" lon="10.7862500019">
		<tag k="alt_name" v="Sperbundbukta" />
		<tag k="loc_name" v="Sperrebunnbukta" />
		<tag k="name" v="Sperrebotn" />
		<tag k="natural" v="bay" />
		<tag k="ssr:stedsnr" v="184379" />
	</node>
	<node id="-20260" lat="59.4506444485" lon="10.9054444524">
		<tag k="name" v="Tiurøya" />
		<tag k="place" v="islet" />
		<tag k="ssr:stedsnr" v="184369" />
	</node>
	<node id="-20259" lat="59.4416444463" lon="10.9583611063">
		<tag k="name" v="Flesjø" />
		<tag k="place" v="farm" />
		<tag k="ssr:stedsnr" v="184368" />
	</node>
	<node id="-20258" lat="59.443694444" lon="10.8926249944">
		<tag k="alt_name" v="Rosfjorden" />
		<tag k="name" v="Rosefjorden" />
		<tag k="natural" v="bay" />
		<tag k="ssr:stedsnr" v="184366" />
	</node>
	<node id="-20257" lat="59.4231081671" lon="11.0425307996">
		<tag k="fixme" v="multiple name tags, choose one and add the other to alt_name" />
		<tag k="name" v="Høyda;Løkeberg" />
		<tag k="place" v="farm" />
		<tag k="ssr:stedsnr" v="184337" />
	</node>
	<node id="-20256" lat="59.4252555535" lon="11.0399138944">
		<tag k="name" v="Lokoberg" />
		<tag k="place" v="isolated_dwelling" />
		<tag k="ssr:stedsnr" v="184336" />
	</node>
	<node id="-20255" lat="59.4027399151" lon="11.0006632803">
		<tag k="alt_name" v="Ravnsjø" />
		<tag k="name" v="Ravnsjøen" />
		<tag k="natural" v="water" />
		<tag k="ssr:stedsnr" v="184307" />
	</node>
	<node id="-20254" lat="59.4039249998" lon="11.0041777699">
		<tag k="fixme" v="consider tourism=alpine_hut or tourism=chalet" />
		<tag k="name" v="Ravnsjøhytta" />
		<tag k="ssr:stedsnr" v="179760" />
		<tag k="tourism" v="wilderness_hut" />
	</node>
	<node id="-20253" lat="59.5143444448" lon="10.8541972288">
		<tag k="alt_name" v="Ombåstvet, søndre;Ombustvedt søndre" />
		<tag k="name" v="Søndre Ombåstvet" />
		<tag k="place" v="farm" />
		<tag k="ssr:stedsnr" v="179065" />
	</node>
	<node id="-20252" lat="59.4226500031" lon="11.0977277729">
		<tag k="fixme" v="consider natural=peak for the most distinct mountains in the district" />
		<tag k="name" v="Grøttvetåsen" />
		<tag k="natural" v="hill" />
		<tag k="old_name" v="Grøtvetåsen" />
		<tag k="place" v="locality" />
		<tag k="ssr:stedsnr" v="175157" />
	</node>
	<node id="-20251" lat="59.399594443" lon="10.8471666662">
		<tag k="alt_name" v="Kreierten søndre" />
		<tag k="name" v="Søndre Kreierten" />
		<tag k="place" v="islet" />
		<tag k="ssr:stedsnr" v="174750" />
	</node>
	<node id="-20250" lat="59.4265833318" lon="11.0359805513">
		<tag k="name" v="Fossum" />
		<tag k="place" v="farm" />
		<tag k="ssr:stedsnr" v="174566" />
	</node>
	<node id="-20249" lat="59.437083331" lon="10.9769166671">
		<tag k="name" v="Eng" />
		<tag k="place" v="farm" />
		<tag k="ssr:stedsnr" v="174564" />
	</node>
	<node id="-20248" lat="59.4702083357" lon="10.7823027702">
		<tag k="alt_name" v="Augerød søndre" />
		<tag k="name" v="Søndre Augerød" />
		<tag k="place" v="farm" />
		<tag k="ssr:stedsnr" v="174760" />
	</node>
	<node id="-20247" lat="59.4283250005" lon="10.8180027704">
		<tag k="name" v="Brønnerød" />
		<tag k="place" v="farm" />
		<tag k="ssr:stedsnr" v="174678" />
	</node>
	<node id="-20246" lat="59.4350249997" lon="11.0128583258">
		<tag k="name" v="Sukkebekken" />
		<tag k="ssr:stedsnr" v="174550" />
		<tag k="waterway" v="stream" />
	</node>
	<node id="-20245" lat="59.4603277789" lon="10.9044777739">
		<tag k="name" v="Haugerelva" />
		<tag k="ssr:stedsnr" v="173456" />
		<tag k="waterway" v="river" />
	</node>
	<node id="-20244" lat="59.4850222222" lon="10.9727666693">
		<tag k="name" v="Lua" />
		<tag k="place" v="locality" />
		<tag k="ssr:stedsnr" v="144867" />
	</node>
	<node id="-20243" lat="59.4662638898" lon="10.814286116">
		<tag k="amenity" v="place_of_worship" />
		<tag k="fixme" v="specify religion=*, denomination=*, building=* etc" />
		<tag k="name" v="Varna" />
		<tag k="ssr:stedsnr" v="144847" />
	</node>
	<node id="-20242" lat="59.4942138922" lon="10.9785833305">
		<tag k="fixme" v="consider natural=peak for the most distinct mountains in the district" />
		<tag k="name" v="Rørmyråsen" />
		<tag k="natural" v="hill" />
		<tag k="place" v="locality" />
		<tag k="ssr:stedsnr" v="144821" />
	</node>
	<node id="-20241" lat="59.5026555514" lon="11.0023916622">
		<tag k="name" v="Føterbråten" />
		<tag k="place" v="locality" />
		<tag k="ssr:stedsnr" v="144818" />
	</node>
	<node id="-20240" lat="59.4752027735" lon="10.9808972199">
		<tag k="name" v="Svaehagen" />
		<tag k="place" v="locality" />
		<tag k="ssr:stedsnr" v="144816" />
	</node>
	<node id="-20239" lat="59.4770694429" lon="11.0095805625">
		<tag k="name" v="Bjørneklevmyra" />
		<tag k="natural" v="wetland" />
		<tag k="ssr:stedsnr" v="144810" />
	</node>
	<node id="-20238" lat="59.4686138862" lon="11.0627361181">
		<tag k="name" v="Tjernøyet" />
		<tag k="natural" v="water" />
		<tag k="ssr:stedsnr" v="144799" />
	</node>
	<node id="-20237" lat="59.4357166693" lon="11.0688472223">
		<tag k="name" v="Kirkerødbekken" />
		<tag k="ssr:stedsnr" v="144795" />
		<tag k="waterway" v="stream" />
	</node>
	<node id="-20236" lat="59.5295777821" lon="10.9327999928">
		<tag k="name" v="Breimosen" />
		<tag k="natural" v="wetland" />
		<tag k="ssr:stedsnr" v="144789" />
	</node>
	<node id="-20235" lat="59.5117638922" lon="10.9361833272">
		<tag k="alt_name" v="Frosterød nordre;Frosterud nordre" />
		<tag k="name" v="Nordre Frosterød" />
		<tag k="place" v="farm" />
		<tag k="ssr:stedsnr" v="143925" />
	</node>
	<node id="-20234" lat="59.4947805587" lon="10.8251305556">
		<tag k="name" v="Kåbbel" />
		<tag k="place" v="farm" />
		<tag k="ssr:stedsnr" v="143887" />
	</node>
	<node id="-20233" lat="59.4047222181" lon="11.0819499922">
		<tag k="alt_name" v="Svartetjern" />
		<tag k="name" v="Svarttjernet" />
		<tag k="natural" v="water" />
		<tag k="ssr:stedsnr" v="130781" />
	</node>
	<node id="-20232" lat="59.4818444436" lon="10.9309527734">
		<tag k="alt_name" v="Skovdal" />
		<tag k="name" v="Skavdalen" />
		<tag k="place" v="farm" />
		<tag k="ssr:stedsnr" v="124664" />
	</node>
	<node id="-20231" lat="59.484430559" lon="10.9875611189">
		<tag k="alt_name" v="Grimsrødødegård" />
		<tag k="name" v="Grimsrødødegården" />
		<tag k="place" v="farm" />
		<tag k="ssr:stedsnr" v="124663" />
	</node>
	<node id="-20230" lat="59.4734194403" lon="10.7914194392">
		<tag k="alt_name" v="Auerød;Augerød nordre" />
		<tag k="name" v="Nordre Auerød" />
		<tag k="place" v="farm" />
		<tag k="ssr:stedsnr" v="124653" />
	</node>
	<node id="-20229" lat="59.491858333" lon="10.9859249918">
		<tag k="fixme" v="consider natural=peak for the most distinct mountains in the district" />
		<tag k="name" v="Brannåsen" />
		<tag k="natural" v="hill" />
		<tag k="place" v="locality" />
		<tag k="ssr:stedsnr" v="124636" />
	</node>
	<node id="-20228" lat="59.4899749965" lon="11.0106638934">
		<tag k="name" v="Ås" />
		<tag k="place" v="farm" />
		<tag k="ssr:stedsnr" v="124632" />
	</node>
	<node id="-20227" lat="59.4908777796" lon="11.0637083286">
		<tag k="name" v="Høymyr" />
		<tag k="natural" v="wetland" />
		<tag k="ssr:stedsnr" v="124634" />
	</node>
	<node id="-20226" lat="59.4515777756" lon="11.0763277818">
		<tag k="name" v="Ørebru" />
		<tag k="place" v="locality" />
		<tag k="ssr:stedsnr" v="124316" />
	</node>
	<node id="-20225" lat="59.4431694434" lon="10.8304416662">
		<tag k="name" v="Guthus" />
		<tag k="place" v="farm" />
		<tag k="ssr:stedsnr" v="124313" />
	</node>
	<node id="-20224" lat="59.4399527789" lon="11.0752472209">
		<tag k="name" v="Vestereng" />
		<tag k="place" v="farm" />
		<tag k="ssr:stedsnr" v="124311" />
	</node>
	<node id="-20223" lat="59.4338111097" lon="10.8022638906">
		<tag k="alt_name" v="Brønnerødtjernet" />
		<tag k="name" v="Brønnerødtjern" />
		<tag k="natural" v="water" />
		<tag k="ssr:stedsnr" v="124306" />
	</node>
	<node id="-20222" lat="59.4452277752" lon="10.8438499932">
		<tag k="name" v="Hobølelva" />
		<tag k="ssr:stedsnr" v="123762" />
		<tag k="waterway" v="river" />
	</node>
	<node id="-20221" lat="59.4229944446" lon="10.9028555563">
		<tag k="fixme" v="consider natural=peak for the most distinct mountains in the district" />
		<tag k="name" v="Marbukollen" />
		<tag k="natural" v="hill" />
		<tag k="place" v="locality" />
		<tag k="ssr:stedsnr" v="123375" />
	</node>
	<node id="-20220" lat="59.4263956679" lon="10.8443856468">
		<tag k="fixme" v="consider place=hamlet" />
		<tag k="name" v="Mosseros" />
		<tag k="place" v="farm" />
		<tag k="ssr:stedsnr" v="123374" />
	</node>
	<node id="-20219" lat="59.414763885" lon="11.0543888873">
		<tag k="alt_name" v="Enga" />
		<tag k="name" v="Engen" />
		<tag k="place" v="farm" />
		<tag k="ssr:stedsnr" v="123356" />
	</node>
	<node id="-20218" lat="59.4140166626" lon="11.0675055523">
		<tag k="fixme" v="consider natural=peak for the most distinct mountains in the district" />
		<tag k="name" v="Hustangåsen" />
		<tag k="natural" v="hill" />
		<tag k="place" v="locality" />
		<tag k="ssr:stedsnr" v="123354" />
	</node>
	<node id="-20217" lat="59.4190527736" lon="11.0608333419">
		<tag k="name" v="Tangen" />
		<tag k="place" v="farm" />
		<tag k="ssr:stedsnr" v="123352" />
	</node>
	<node id="-20216" lat="59.4101861122" lon="10.8102611095">
		<tag k="alt_name" v="Bliksøen" />
		<tag k="name" v="Bliksøya" />
		<tag k="place" v="farm" />
		<tag k="ssr:stedsnr" v="123347" />
	</node>
	<node id="-20215" lat="59.4093138872" lon="11.0813166708">
		<tag k="fixme" v="consider natural=peak for the most distinct mountains in the district" />
		<tag k="name" v="Skinnstakken" />
		<tag k="natural" v="hill" />
		<tag k="place" v="locality" />
		<tag k="ssr:stedsnr" v="123342" />
	</node>
	<node id="-20214" lat="59.3957861135" lon="11.0665527823">
		<tag k="fixme" v="multiple name tags, choose one and add the other to alt_name; consider natural=peak for the most distinct mountains in the district" />
		<tag k="name" v="Haukåsen;Kallen" />
		<tag k="natural" v="hill" />
		<tag k="place" v="locality" />
		<tag k="ssr:stedsnr" v="123338" />
	</node>
	<node id="-20213" lat="59.3991694423" lon="11.0658472237">
		<tag k="name" v="Grasmyra" />
		<tag k="natural" v="wetland" />
		<tag k="ssr:stedsnr" v="123337" />
	</node>
	<node id="-20212" lat="59.43971111" lon="11.1180916685">
		<tag k="alt_name" v="Bjerketvet;Bjerketvedt" />
		<tag k="fixme" v="consider place=hamlet" />
		<tag k="name" v="Bjørketvet" />
		<tag k="place" v="farm" />
		<tag k="ssr:stedsnr" v="117425" />
	</node>
	<node id="-20211" lat="59.4049611073" lon="10.8136861115">
		<tag k="name" v="Båtålen" />
		<tag k="natural" v="strait" />
		<tag k="ssr:stedsnr" v="114885" />
	</node>
	<node id="-20210" lat="59.4118944436" lon="10.8495083312">
		<tag k="name" v="Brasenbogen" />
		<tag k="natural" v="bay" />
		<tag k="ssr:stedsnr" v="114735" />
	</node>
	<node id="-20209" lat="59.4112666624" lon="10.7967361081">
		<tag k="name" v="Lille Tømmerøya" />
		<tag k="place" v="island" />
		<tag k="ssr:stedsnr" v="114677" />
	</node>
	<node id="-20208" lat="59.4187472208" lon="10.8111611109">
		<tag k="name" v="Jonsholmen" />
		<tag k="natural" v="cape" />
		<tag k="ssr:stedsnr" v="114672" />
	</node>
	<node id="-20207" lat="59.4346611151" lon="11.0031916651">
		<tag k="name" v="Mellegårdsbingen" />
		<tag k="place" v="locality" />
		<tag k="ssr:stedsnr" v="114534" />
	</node>
	<node id="-20206" lat="59.4554583377" lon="10.9670861032">
		<tag k="name" v="Spjøterbekken" />
		<tag k="ssr:stedsnr" v="114156" />
		<tag k="waterway" v="stream" />
	</node>
	<node id="-20205" lat="59.4486194413" lon="10.9090222281">
		<tag k="name" v="Neset" />
		<tag k="natural" v="cape" />
		<tag k="ssr:stedsnr" v="113498" />
	</node>
	<node id="-20204" lat="59.4483611128" lon="10.8585388871">
		<tag k="alt_name" v="Jonsrød nordre" />
		<tag k="name" v="Nordre Jonsrød" />
		<tag k="place" v="farm" />
		<tag k="ssr:stedsnr" v="113477" />
	</node>
	<node id="-20203" lat="59.4755083316" lon="10.9758250068">
		<tag k="name" v="Solheimtoppen" />
		<tag k="place" v="locality" />
		<tag k="ssr:stedsnr" v="113116" />
	</node>
	<node id="-20202" lat="59.4770583325" lon="11.0363888907">
		<tag k="fixme" v="consider natural=peak for the most distinct mountains in the district" />
		<tag k="name" v="Pelsrødåsen" />
		<tag k="natural" v="hill" />
		<tag k="place" v="locality" />
		<tag k="ssr:stedsnr" v="113110" />
	</node>
	<node id="-20201" lat="59.4664583332" lon="11.0085499917">
		<tag k="alt_name" v="Lundem nordre" />
		<tag k="name" v="Nordre Lundem" />
		<tag k="place" v="farm" />
		<tag k="ssr:stedsnr" v="113105" />
	</node>
	<node id="-20200" lat="59.4561578742" lon="11.0117465752">
		<tag k="alt_name" v="Bråte søndre" />
		<tag k="name" v="Søndre Bråte" />
		<tag k="place" v="farm" />
		<tag k="ssr:stedsnr" v="113074" />
	</node>
	<node id="-20199" lat="59.4456833309" lon="10.9225972247">
		<tag k="name" v="Frølandshagen" />
		<tag k="place" v="locality" />
		<tag k="ssr:stedsnr" v="113048" />
	</node>
	<node id="-20198" lat="59.4934578405" lon="10.82469397">
		<tag k="fixme" v="consider place=hamlet" />
		<tag k="name" v="Søndre Kåbøl" />
		<tag k="place" v="farm" />
		<tag k="ssr:stedsnr" v="102098" />
	</node>
	<node id="-20197" lat="59.4823222204" lon="10.9950583334">
		<tag k="fixme" v="consider natural=peak for the most distinct mountains in the district" />
		<tag k="name" v="Orrhaneåsen" />
		<tag k="natural" v="hill" />
		<tag k="place" v="locality" />
		<tag k="ssr:stedsnr" v="84835" />
	</node>
	<node id="-20196" lat="59.4853638887" lon="10.9442083249">
		<tag k="fixme" v="consider natural=peak for the most distinct mountains in the district" />
		<tag k="name" v="Leinaåsen" />
		<tag k="natural" v="hill" />
		<tag k="place" v="locality" />
		<tag k="ssr:stedsnr" v="84829" />
	</node>
	<node id="-20195" lat="59.4823138863" lon="11.0201555634">
		<tag k="name" v="Langemyr" />
		<tag k="natural" v="wetland" />
		<tag k="ssr:stedsnr" v="84825" />
	</node>
	<node id="-20194" lat="59.5343444401" lon="10.9432555478">
		<tag k="fixme" v="consider natural=peak for the most distinct mountains in the district" />
		<tag k="name" v="Festningen" />
		<tag k="natural" v="hill" />
		<tag k="place" v="locality" />
		<tag k="ssr:stedsnr" v="84820" />
	</node>
	<node id="-20193" lat="59.441069448" lon="11.1144055528">
		<tag k="name" v="Grønli" />
		<tag k="place" v="farm" />
		<tag k="ssr:stedsnr" v="84819" />
	</node>
	<node id="-20192" lat="59.4351638857" lon="11.0747527726">
		<tag k="name" v="Drillestadholtet" />
		<tag k="place" v="locality" />
		<tag k="ssr:stedsnr" v="84816" />
	</node>
	<node id="-20191" lat="59.4245388905" lon="11.0635000016">
		<tag k="name" v="Kongehaugen" />
		<tag k="place" v="locality" />
		<tag k="ssr:stedsnr" v="84812" />
	</node>
	<node id="-20190" lat="59.486472223" lon="10.8758638935">
		<tag k="alt_name" v="Berg østre" />
		<tag k="name" v="Østre Berg" />
		<tag k="place" v="farm" />
		<tag k="ssr:stedsnr" v="84803" />
	</node>
	<node id="-20189" lat="59.4657638852" lon="10.7872944527">
		<tag k="name" v="Augerødmosen" />
		<tag k="natural" v="wetland" />
		<tag k="ssr:stedsnr" v="84865" />
	</node>
	<node id="-20188" lat="59.4568111155" lon="11.0241249957">
		<tag k="name" v="Fjellbo" />
		<tag k="place" v="locality" />
		<tag k="ssr:stedsnr" v="84853" />
	</node>
	<node id="-20187" lat="59.4346944429" lon="11.0965250067">
		<tag k="name" v="Nordby" />
		<tag k="place" v="farm" />
		<tag k="ssr:stedsnr" v="83966" />
	</node>
	<node id="-20186" lat="59.4952472186" lon="10.8891527746">
		<tag k="name" v="Bjørnstad" />
		<tag k="place" v="isolated_dwelling" />
		<tag k="ssr:stedsnr" v="83889" />
	</node>
	<node id="-20185" lat="59.4875666665" lon="10.9480388856">
		<tag k="name" v="Leina" />
		<tag k="place" v="isolated_dwelling" />
		<tag k="ssr:stedsnr" v="82957" />
	</node>
	<node id="-20184" lat="59.523200004" lon="10.9481722213">
		<tag k="alt_name" v="Tveiter, vestre;Tveter vestre" />
		<tag k="name" v="Vestre Tveiter" />
		<tag k="place" v="farm" />
		<tag k="ssr:stedsnr" v="65007" />
	</node>
	<node id="-20183" lat="59.530466667" lon="10.8190555625">
		<tag k="fixme" v="consider natural=peak for the most distinct mountains in the district" />
		<tag k="name" v="Ravnåsen" />
		<tag k="natural" v="hill" />
		<tag k="place" v="locality" />
		<tag k="ssr:stedsnr" v="65004" />
	</node>
	<node id="-20182" lat="59.4710527746" lon="10.8622027754">
		<tag k="name" v="Røstad" />
		<tag k="place" v="farm" />
		<tag k="ssr:stedsnr" v="64744" />
	</node>
	<node id="-20181" lat="59.4883888858" lon="10.8967777761">
		<tag k="alt_name" v="Holm nordre" />
		<tag k="name" v="Nordre Holm" />
		<tag k="place" v="farm" />
		<tag k="ssr:stedsnr" v="64727" />
	</node>
	<node id="-20180" lat="59.481844446" lon="10.9499916695">
		<tag k="alt_name" v="Skjønnerød" />
		<tag k="name" v="Sjønnerød" />
		<tag k="place" v="farm" />
		<tag k="ssr:stedsnr" v="64717" />
	</node>
	<node id="-20179" lat="59.4788611142" lon="11.025263882">
		<tag k="name" v="Pelsrød" />
		<tag k="place" v="farm" />
		<tag k="ssr:stedsnr" v="64715" />
	</node>
	<node id="-20178" lat="59.471033336" lon="10.8447444485">
		<tag k="name" v="Eng" />
		<tag k="place" v="farm" />
		<tag k="ssr:stedsnr" v="64706" />
	</node>
	<node id="-20177" lat="59.4851055566" lon="10.8606277733">
		<tag k="name" v="Løken" />
		<tag k="place" v="farm" />
		<tag k="ssr:stedsnr" v="64691" />
	</node>
	<node id="-20176" lat="59.4952500012" lon="11.0182916676">
		<tag k="name" v="Ås" />
		<tag k="place" v="farm" />
		<tag k="ssr:stedsnr" v="64667" />
	</node>
	<node id="-20175" lat="59.5060166629" lon="10.7787777844">
		<tag k="name" v="Grav" />
		<tag k="place" v="farm" />
		<tag k="ssr:stedsnr" v="64080" />
	</node>
	<node id="-20174" lat="59.5093224661" lon="10.9562015206">
		<tag k="fixme" v="consider place=hamlet" />
		<tag k="name" v="Belgen" />
		<tag k="place" v="farm" />
		<tag k="ssr:stedsnr" v="64038" />
	</node>
	<node id="-20173" lat="59.5060916697" lon="10.9004583339">
		<tag k="name" v="Voll" />
		<tag k="place" v="farm" />
		<tag k="ssr:stedsnr" v="64039" />
	</node>
	<node id="-20172" lat="59.5087305594" lon="10.8388166729">
		<tag k="alt_name" v="Strøm, søndre;Strøm søndre" />
		<tag k="name" v="Søndre Strøm" />
		<tag k="place" v="farm" />
		<tag k="ssr:stedsnr" v="64037" />
	</node>
	<node id="-20171" lat="59.4546722212" lon="10.9914166615">
		<tag k="name" v="Dammen" />
		<tag k="place" v="locality" />
		<tag k="ssr:stedsnr" v="63724" />
	</node>
	<node id="-20170" lat="59.4744416633" lon="10.9194777816">
		<tag k="name" v="Tangen" />
		<tag k="place" v="farm" />
		<tag k="ssr:stedsnr" v="63722" />
	</node>
	<node id="-20169" lat="59.4430999991" lon="10.8667833271">
		<tag k="name" v="Østenrød" />
		<tag k="place" v="farm" />
		<tag k="ssr:stedsnr" v="63388" />
	</node>
	<node id="-20168" lat="59.4475861115" lon="11.0138694435">
		<tag k="name" v="Sandbråten" />
		<tag k="place" v="farm" />
		<tag k="ssr:stedsnr" v="63384" />
	</node>
	<node id="-20167" lat="59.4409999965" lon="11.0132666741">
		<tag k="name" v="Sukkehagen" />
		<tag k="place" v="farm" />
		<tag k="ssr:stedsnr" v="63383" />
	</node>
	<node id="-20166" lat="59.4286305523" lon="10.9822777694">
		<tag k="name" v="Sæbyvannet" />
		<tag k="natural" v="water" />
		<tag k="ssr:stedsnr" v="63367" />
		<tag k="water" v="lake" />
	</node>
	<node id="-20165" lat="59.4209666696" lon="11.0399972268">
		<tag k="alt_name" v="Vasstvet;Vastvedt søndre;Vastvet, s" />
		<tag k="fixme" v="consider place=hamlet" />
		<tag k="name" v="Søndre Vasstvet" />
		<tag k="place" v="farm" />
		<tag k="ssr:stedsnr" v="63361" />
	</node>
	<node id="-20164" lat="59.4063416709" lon="11.0402027732">
		<tag k="fixme" v="consider natural=peak for the most distinct mountains in the district" />
		<tag k="name" v="Damås" />
		<tag k="natural" v="hill" />
		<tag k="place" v="locality" />
		<tag k="ssr:stedsnr" v="63344" />
	</node>
	<node id="-20163" lat="59.4047666654" lon="10.8043388872">
		<tag k="name" v="Såstadbingen" />
		<tag k="place" v="locality" />
		<tag k="ssr:stedsnr" v="53902" />
	</node>
	<node id="-20162" lat="59.4069277737" lon="10.7868888902">
		<tag k="name" v="Mjøsund" />
		<tag k="natural" v="strait" />
		<tag k="ssr:stedsnr" v="53899" />
	</node>
	<node id="-20161" lat="59.3984666698" lon="10.8265833291">
		<tag k="name" v="Haratangen" />
		<tag k="natural" v="cape" />
		<tag k="ssr:stedsnr" v="53894" />
	</node>
	<node id="-20160" lat="59.4417611121" lon="10.7875444425">
		<tag k="name" v="Bjerkeli" />
		<tag k="place" v="farm" />
		<tag k="ssr:stedsnr" v="53660" />
	</node>
	<node id="-20159" lat="59.4790777757" lon="10.8757805543">
		<tag k="junction" v="yes" />
		<tag k="name" v="Flesberg" />
		<tag k="place" v="locality" />
		<tag k="ssr:stedsnr" v="53652" />
	</node>
	<node id="-20158" lat="59.3959638844" lon="10.9540916737">
		<tag k="name" v="Vetretjerna" />
		<tag k="natural" v="water" />
		<tag k="ssr:stedsnr" v="53558" />
	</node>
	<node id="-20157" lat="59.4097027747" lon="11.0087833398">
		<tag k="fixme" v="consider natural=peak for the most distinct mountains in the district" />
		<tag k="name" v="Myreåsen" />
		<tag k="natural" v="hill" />
		<tag k="place" v="locality" />
		<tag k="ssr:stedsnr" v="53545" />
	</node>
	<node id="-20156" lat="59.4407138861" lon="10.9773416594">
		<tag k="name" v="Engsbekken" />
		<tag k="ssr:stedsnr" v="53533" />
		<tag k="waterway" v="stream" />
	</node>
	<node id="-20155" lat="59.4812694412" lon="10.9475916676">
		<tag k="name" v="Skjønnerød" />
		<tag k="place" v="locality" />
		<tag k="ssr:stedsnr" v="53127" />
	</node>
	<node id="-20154" lat="59.4607749981" lon="11.0166138915">
		<tag k="alt_name" v="Bråte nordre" />
		<tag k="name" v="Nordre Bråte" />
		<tag k="place" v="farm" />
		<tag k="ssr:stedsnr" v="53085" />
	</node>
	<node id="-20153" lat="59.4757027756" lon="10.8667333262">
		<tag k="name" v="Turen" />
		<tag k="place" v="farm" />
		<tag k="ssr:stedsnr" v="52580" />
	</node>
	<node id="-20152" lat="59.4613805528" lon="10.9099361089">
		<tag k="name" v="Lunderbogen" />
		<tag k="place" v="locality" />
		<tag k="ssr:stedsnr" v="52457" />
	</node>
	<node id="-20151" lat="59.4840305562" lon="10.8837555544">
		<tag k="bridge" v="yes" />
		<tag k="layer" v="1" />
		<tag k="name" v="Vestland" />
		<tag k="ssr:stedsnr" v="46485" />
	</node>
	<node id="-20150" lat="59.4899472228" lon="10.9230250039">
		<tag k="bridge" v="yes" />
		<tag k="layer" v="1" />
		<tag k="name" v="Nordby" />
		<tag k="ssr:stedsnr" v="46481" />
	</node>
	<node id="-20149" lat="59.53033611" lon="10.8300000076">
		<tag k="alt_name" v="Høgås" />
		<tag k="name" v="Høyås" />
		<tag k="old_name" v="Vestre Heiaas;Nordre Høiaas" />
		<tag k="place" v="farm" />
		<tag k="ssr:stedsnr" v="39180" />
	</node>
	<node id="-20148" lat="59.4289416686" lon="10.7761777865">
		<tag k="name" v="Finkastet" />
		<tag k="place" v="isolated_dwelling" />
		<tag k="ssr:stedsnr" v="23891" />
	</node>
	<node id="-20147" lat="59.4764583315" lon="10.8328333256">
		<tag k="fixme" v="consider natural=peak for the most distinct mountains in the district" />
		<tag k="name" v="Bjørnåsen" />
		<tag k="natural" v="hill" />
		<tag k="place" v="locality" />
		<tag k="ssr:stedsnr" v="23887" />
	</node>
	<node id="-20146" lat="59.5156388877" lon="10.9479666578">
		<tag k="name" v="Brårødelva" />
		<tag k="ssr:stedsnr" v="23882" />
		<tag k="waterway" v="river" />
	</node>
	<node id="-20145" lat="59.4555861103" lon="10.9924083276">
		<tag k="name" v="Sandemdammen" />
		<tag k="place" v="locality" />
		<tag k="ssr:stedsnr" v="23867" />
	</node>
	<node id="-20144" lat="59.4370055533" lon="11.0338055536">
		<tag k="name" v="Bjørnemyr" />
		<tag k="place" v="locality" />
		<tag k="ssr:stedsnr" v="23857" />
	</node>
	<node id="-20143" lat="59.5044388915" lon="11.0001694436">
		<tag k="name" v="Bekakoia" />
		<tag k="place" v="locality" />
		<tag k="ssr:stedsnr" v="23854" />
	</node>
	<node id="-20142" lat="59.4660694456" lon="11.0218166616">
		<tag k="name" v="Bråteødegård" />
		<tag k="place" v="farm" />
		<tag k="ssr:stedsnr" v="23844" />
	</node>
	<node id="-20141" lat="59.4685666685" lon="11.0541611158">
		<tag k="name" v="Drøkkenbekken" />
		<tag k="ssr:stedsnr" v="23834" />
		<tag k="waterway" v="stream" />
	</node>
	<node id="-20140" lat="59.4898805552" lon="10.8471722238">
		<tag k="name" v="Folkestadhøgda" />
		<tag k="place" v="locality" />
		<tag k="ssr:stedsnr" v="23821" />
	</node>
	<node id="-20139" lat="59.496011113" lon="10.8673944399">
		<tag k="name" v="Folkestadbekken" />
		<tag k="ssr:stedsnr" v="23809" />
		<tag k="waterway" v="stream" />
	</node>
	<node id="-20138" lat="59.4096777742" lon="10.8936944527">
		<tag k="alt_name" v="Tomnøya" />
		<tag k="name" v="Tombøya" />
		<tag k="place" v="island" />
		<tag k="ssr:stedsnr" v="23795" />
	</node>
	<node id="-20137" lat="59.4436027745" lon="10.9342861173">
		<tag k="name" v="Stareng" />
		<tag k="place" v="locality" />
		<tag k="ssr:stedsnr" v="23792" />
	</node>
	<node id="-20136" lat="59.4969027822" lon="10.9584416587">
		<tag k="alt_name" v="Femtegjeld nedre" />
		<tag k="name" v="Nedre Femtegjeld" />
		<tag k="place" v="farm" />
		<tag k="ssr:stedsnr" v="22963" />
	</node>
	<node id="-20135" lat="59.510149996" lon="10.7923861149">
		<tag k="fixme" v="consider natural=peak for the most distinct mountains in the district" />
		<tag k="name" v="Gylderåsen" />
		<tag k="natural" v="hill" />
		<tag k="place" v="locality" />
		<tag k="ssr:stedsnr" v="22894" />
	</node>
	<node id="-20134" lat="59.5257527776" lon="10.825236108">
		<tag k="alt_name" v="Stensrød nordre" />
		<tag k="name" v="Nordre Stensrød" />
		<tag k="place" v="farm" />
		<tag k="ssr:stedsnr" v="22892" />
	</node>
	<node id="-20133" lat="59.4991805569" lon="10.8700472277">
		<tag k="name" v="Potetbråten" />
		<tag k="place" v="islet" />
		<tag k="ssr:stedsnr" v="22872" />
	</node>
	<node id="-20132" lat="59.5288888899" lon="10.9089555616">
		<tag k="name" v="Enden" />
		<tag k="place" v="farm" />
		<tag k="ssr:stedsnr" v="4006" />
	</node>
	<node id="-20131" lat="59.4836694441" lon="10.894347218">
		<tag k="alt_name" v="Holm søndre" />
		<tag k="name" v="Søndre Holm" />
		<tag k="place" v="farm" />
		<tag k="ssr:stedsnr" v="3692" />
	</node>
	<node id="-20130" lat="59.4791500024" lon="10.8905805555">
		<tag k="name" v="Haug" />
		<tag k="place" v="farm" />
		<tag k="ssr:stedsnr" v="3690" />
	</node>
	<node id="-20129" lat="59.4810250022" lon="11.0463166588">
		<tag k="alt_name" v="Igletjern" />
		<tag k="name" v="Igletjernet" />
		<tag k="natural" v="water" />
		<tag k="ssr:stedsnr" v="3684" />
	</node>
	<node id="-20128" lat="59.4799694463" lon="11.0445083407">
		<tag k="alt_name" v="Igletjernmosen" />
		<tag k="name" v="Igletjernmosan" />
		<tag k="natural" v="wetland" />
		<tag k="ssr:stedsnr" v="3682" />
	</node>
	<node id="-20127" lat="59.4810138876" lon="11.0684388963">
		<tag k="fixme" v="consider natural=peak for the most distinct mountains in the district" />
		<tag k="name" v="Taraldrudåsen" />
		<tag k="natural" v="hill" />
		<tag k="place" v="locality" />
		<tag k="ssr:stedsnr" v="3680" />
	</node>
	<node id="-20126" lat="59.4912722184" lon="10.9559333407">
		<tag k="name" v="Holen" />
		<tag k="place" v="farm" />
		<tag k="ssr:stedsnr" v="3668" />
	</node>
	<node id="-20125" lat="59.4862470354" lon="10.9470469826">
		<tag k="fixme" v="multiple name tags, choose one and add the other to alt_name; consider natural=peak for the most distinct mountains in the district" />
		<tag k="name" v="Leinaåsen;Moneåsen" />
		<tag k="natural" v="hill" />
		<tag k="place" v="locality" />
		<tag k="ssr:stedsnr" v="3666" />
	</node>
	<node id="-20124" lat="59.4846555573" lon="10.8320333347">
		<tag k="alt_name" v="Våler varde" />
		<tag k="fixme" v="consider natural=peak for the most distinct mountains in the district" />
		<tag k="name" v="Vålervarden" />
		<tag k="natural" v="hill" />
		<tag k="place" v="locality" />
		<tag k="ssr:stedsnr" v="3656" />
	</node>
	<node id="-20123" lat="59.4024388892" lon="11.0948166661">
		<tag k="name" v="Allerno" />
		<tag k="place" v="locality" />
		<tag k="ssr:stedsnr" v="2819" />
	</node>
	<node id="-20122" lat="59.4603250006" lon="10.9715833318">
		<tag k="alt_name" v="Spjøter vesle" />
		<tag k="name" v="Vesle Spjøter" />
		<tag k="place" v="farm" />
		<tag k="ssr:stedsnr" v="2740" />
	</node>
	<node id="-20121" lat="59.4565750029" lon="10.7840500002">
		<tag k="alt_name" v="Texsnæs" />
		<tag k="name" v="Teksnes" />
		<tag k="place" v="farm" />
		<tag k="ssr:stedsnr" v="2738" />
	</node>
	<node id="-20120" lat="59.4535444478" lon="11.0267111191">
		<tag k="name" v="Tveter" />
		<tag k="place" v="farm" />
		<tag k="ssr:stedsnr" v="2729" />
	</node>
	<node id="-20119" lat="59.4503249999" lon="10.9754277733">
		<tag k="alt_name" v="Tjernsrød" />
		<tag k="name" v="Kjernsrød" />
		<tag k="place" v="farm" />
		<tag k="ssr:stedsnr" v="2727" />
	</node>
	<node id="-20118" lat="59.4636916629" lon="10.7738027714">
		<tag k="alt_name" v="Rød søndre" />
		<tag k="name" v="Søndre Rød" />
		<tag k="place" v="farm" />
		<tag k="ssr:stedsnr" v="2719" />
	</node>
	<node id="-20117" lat="59.4621611135" lon="10.831555547">
		<tag k="name" v="Sanderød" />
		<tag k="place" v="farm" />
		<tag k="ssr:stedsnr" v="2710" />
	</node>
	<node id="-20116" lat="59.4474555582" lon="10.8584722239">
		<tag k="name" v="Jonsrød" />
		<tag k="place" v="farm" />
		<tag k="ssr:stedsnr" v="2390" />
	</node>
	<node id="-20115" lat="59.4360555519" lon="10.9912999987">
		<tag k="name" v="Frøland" />
		<tag k="place" v="farm" />
		<tag k="ssr:stedsnr" v="2376" />
	</node>
	<node id="-20114" lat="59.432074999" lon="11.0690500025">
		<tag k="name" v="Drillestad" />
		<tag k="place" v="farm" />
		<tag k="ssr:stedsnr" v="2372" />
	</node>
	<node id="-20113" lat="59.4240666696" lon="11.0162444385">
		<tag k="amenity" v="place_of_worship" />
		<tag k="denomination" v="lutheran" />
		<tag k="name" v="Svinndal kirke" />
		<tag k="religion" v="christian" />
		<tag k="ssr:stedsnr" v="2364" />
	</node>
	<node id="-20112" lat="59.4199166644" lon="10.9010250013">
		<tag k="alt_name" v="Gjertebråten" />
		<tag k="name" v="Hjertebråten" />
		<tag k="place" v="farm" />
		<tag k="ssr:stedsnr" v="2352" />
	</node>
	<node id="-20111" lat="59.4115361143" lon="11.0396388875">
		<tag k="name" v="Åsheim" />
		<tag k="place" v="farm" />
		<tag k="ssr:stedsnr" v="2340" />
	</node>
	<node id="-20110" lat="59.3970250007" lon="11.0516111124">
		<tag k="fixme" v="consider natural=peak for the most distinct mountains in the district" />
		<tag k="name" v="Tjernåsen" />
		<tag k="natural" v="hill" />
		<tag k="place" v="locality" />
		<tag k="ssr:stedsnr" v="2335" />
	</node>
	<node id="-20109" lat="59.3974305599" lon="11.0454972227">
		<tag k="alt_name" v="Fisketjern" />
		<tag k="name" v="Fisketjernet" />
		<tag k="natural" v="water" />
		<tag k="ssr:stedsnr" v="2334" />
	</node>
	<node id="-20108" lat="59.4010743394" lon="10.966186721">
		<tag k="alt_name" v="Sjursbråtetjern;Sjursbråtetjern" />
		<tag k="fixme" v="multiple name tags, choose one and add the other to alt_name" />
		<tag k="name" v="Sjursbråtatjerna;Tostentjern" />
		<tag k="natural" v="water" />
		<tag k="ssr:stedsnr" v="2331" />
	</node>
	<node id="-20107" lat="59.4252000026" lon="11.1102749978">
		<tag k="alt_name" v="Skaug" />
		<tag k="name" v="Skog" />
		<tag k="place" v="farm" />
		<tag k="ssr:stedsnr" v="2172" />
	</node>
	<node id="-20106" lat="59.4992722248" lon="11.0310222304">
		<tag k="fixme" v="consider natural=peak for the most distinct mountains in the district" />
		<tag k="name" v="Fagerås" />
		<tag k="natural" v="hill" />
		<tag k="place" v="locality" />
		<tag k="ssr:stedsnr" v="266867" />
	</node>
	<node id="-20098" lat="60.6727003293" lon="11.8362081041">
		<tag k="amenity" v="place_of_worship" />
		<tag k="denomination" v="lutheran" />
		<tag k="name" v="Våler nye kirke" />
		<tag k="religion" v="christian" />
		<tag k="ssr:stedsnr" v="991033" />
	</node>
	<node id="-20097" lat="60.7232001125" lon="11.7934641179">
		<tag k="name" v="Braskereidfoss stasjon" />
		<tag k="railway" v="station" />
		<tag k="ssr:stedsnr" v="990105" />
		<tag k="train" v="yes" />
	</node>
	<node id="-20096" lat="59.4029536561" lon="10.8533860497">
		<tag k="name" v="Gudøyhuken" />
		<tag k="place" v="locality" />
		<tag k="ssr:stedsnr" v="989271" />
	</node>
	<node id="-20095" lat="59.4724916657" lon="11.0744666741">
		<tag k="alt_name" v="Langetjern" />
		<tag k="name" v="Langtjernet" />
		<tag k="natural" v="water" />
		<tag k="ssr:stedsnr" v="123750" />
	</node>
	<node id="-20094" lat="59.4788142372" lon="11.0727454448">
		<tag k="fixme" v="multiple name tags, choose one and add the other to alt_name" />
		<tag k="name" v="Mortetjern;Trolltjernet" />
		<tag k="natural" v="water" />
		<tag k="ssr:stedsnr" v="428688" />
	</node>
	<node id="-20093" lat="59.4295972218" lon="11.0022083419">
		<tag k="bridge" v="yes" />
		<tag k="layer" v="1" />
		<tag k="name" v="Fosseberget" />
		<tag k="ssr:stedsnr" v="896463" />
	</node>
	<node id="-20092" lat="59.4853111134" lon="10.9129638913">
		<tag k="name" v="Veli" />
		<tag k="place" v="farm" />
		<tag k="ssr:stedsnr" v="891145" />
	</node>
	<node id="-20088" lat="59.4588791832" lon="10.7891804358">
		<tag k="loc_name" v="Teksneslia" />
		<tag k="name" v="Texnæslia" />
		<tag k="natural" v="slope" />
		<tag k="place" v="locality" />
		<tag k="ssr:stedsnr" v="478743" />
	</node>
	<node id="-20087" lat="59.4100888905" lon="10.8019972206">
		<tag k="name" v="Grådalen" />
		<tag k="natural" v="valley" />
		<tag k="place" v="locality" />
		<tag k="ssr:stedsnr" v="478671" />
	</node>
	<node id="-20086" lat="59.4153444481" lon="10.803877776">
		<tag k="name" v="Ramsund" />
		<tag k="natural" v="strait" />
		<tag k="ssr:stedsnr" v="478660" />
	</node>
	<node id="-20085" lat="59.4319472203" lon="10.8230277797">
		<tag k="name" v="Brønnerød" />
		<tag k="place" v="farm" />
		<tag k="ssr:stedsnr" v="478656" />
	</node>
	<node id="-20084" lat="59.4866916688" lon="10.8665444383">
		<tag k="alt_name" v="Flesberg nordre;Flesberg" />
		<tag k="name" v="Nordre Flesberg" />
		<tag k="place" v="farm" />
		<tag k="ssr:stedsnr" v="478640" />
	</node>
	<node id="-20083" lat="59.4827194453" lon="10.9033361104">
		<tag k="alt_name" v="Hauger nordre" />
		<tag k="name" v="Nordre Hauger" />
		<tag k="place" v="farm" />
		<tag k="ssr:stedsnr" v="477657" />
	</node>
	<node id="-20082" lat="59.4780694459" lon="10.9524749988">
		<tag k="name" v="Skjønnerøddalen" />
		<tag k="place" v="farm" />
		<tag k="ssr:stedsnr" v="477113" />
	</node>
	<node id="-20081" lat="59.4408888901" lon="10.846330562">
		<tag k="name" v="Bjørnerød" />
		<tag k="place" v="farm" />
		<tag k="ssr:stedsnr" v="476532" />
	</node>
	<node id="-20080" lat="59.4488361097" lon="10.8409083251">
		<tag k="alt_name" v="Pålhus søndre" />
		<tag k="name" v="Søndre Paulshus" />
		<tag k="place" v="farm" />
		<tag k="ssr:stedsnr" v="245351" />
	</node>
	<node id="-20079" lat="59.4300527754" lon="10.820558335">
		<tag k="fixme" v="consider place=hamlet" />
		<tag k="name" v="Brønnerød" />
		<tag k="place" v="farm" />
		<tag k="ssr:stedsnr" v="245336" />
	</node>
	<node id="-20078" lat="59.4303805543" lon="11.0167055557">
		<tag k="name" v="Foko" />
		<tag k="place" v="farm" />
		<tag k="ssr:stedsnr" v="245331" />
	</node>
	<node id="-20077" lat="59.4331499965" lon="10.837438887">
		<tag k="name" v="Grepperød" />
		<tag k="place" v="farm" />
		<tag k="ssr:stedsnr" v="245332" />
	</node>
	<node id="-20076" lat="59.426716665" lon="11.0309250074">
		<tag k="name" v="Svinna" />
		<tag k="ssr:stedsnr" v="245327" />
		<tag k="waterway" v="stream" />
	</node>
	<node id="-20075" lat="59.4301333291" lon="11.0535611076">
		<tag k="name" v="Havoll" />
		<tag k="place" v="farm" />
		<tag k="ssr:stedsnr" v="245325" />
	</node>
	<node id="-20074" lat="59.442672222" lon="10.806880547">
		<tag k="name" v="Hasseldalen" />
		<tag k="natural" v="valley" />
		<tag k="place" v="locality" />
		<tag k="ssr:stedsnr" v="387871" />
	</node>
	<node id="-20073" lat="59.4390722204" lon="11.0741500021">
		<tag k="name" v="Drillestadhytta" />
		<tag k="place" v="locality" />
		<tag k="ssr:stedsnr" v="387863" />
	</node>
	<node id="-20072" lat="59.4644583376" lon="10.836769441">
		<tag k="name" v="Kolsrød" />
		<tag k="place" v="isolated_dwelling" />
		<tag k="ssr:stedsnr" v="387767" />
	</node>
	<node id="-20071" lat="59.4985750021" lon="11.0177388866">
		<tag k="name" v="Fløterneset" />
		<tag k="place" v="farm" />
		<tag k="ssr:stedsnr" v="386939" />
	</node>
	<node id="-20070" lat="59.5104277815" lon="10.9759972138">
		<tag k="landuse" v="meadow" />
		<tag k="name" v="Roligheten" />
		<tag k="ssr:stedsnr" v="385983" />
	</node>
	<node id="-20069" lat="59.5020277787" lon="11.0401472253">
		<tag k="name" v="Holterdalen" />
		<tag k="place" v="isolated_dwelling" />
		<tag k="ssr:stedsnr" v="368106" />
	</node>
	<node id="-20068" lat="59.5154277797" lon="10.832727773">
		<tag k="alt_name" v="Flakstad søndre" />
		<tag k="name" v="Søndre Flakestad" />
		<tag k="place" v="farm" />
		<tag k="ssr:stedsnr" v="368070" />
	</node>
	<node id="-20067" lat="59.5209972224" lon="10.9102249918">
		<tag k="name" v="Enga" />
		<tag k="place" v="farm" />
		<tag k="ssr:stedsnr" v="368068" />
	</node>
	<node id="-20066" lat="59.4817972249" lon="10.919830551">
		<tag k="name" v="Bjerke" />
		<tag k="place" v="farm" />
		<tag k="ssr:stedsnr" v="367702" />
	</node>
	<node id="-20065" lat="59.4926000006" lon="10.8151111151">
		<tag k="alt_name" v="Voldengen" />
		<tag k="name" v="Voldenga" />
		<tag k="place" v="farm" />
		<tag k="ssr:stedsnr" v="367661" />
	</node>
	<node id="-20064" lat="59.4904166632" lon="10.8068166684">
		<tag k="name" v="Klypen" />
		<tag k="place" v="farm" />
		<tag k="ssr:stedsnr" v="367660" />
	</node>
	<node id="-20063" lat="59.5033861136" lon="10.9726500085">
		<tag k="name" v="Keiserdalen" />
		<tag k="place" v="farm" />
		<tag k="ssr:stedsnr" v="367063" />
	</node>
	<node id="-20062" lat="59.5058166666" lon="10.8128888834">
		<tag k="name" v="Gyldermyra" />
		<tag k="place" v="farm" />
		<tag k="ssr:stedsnr" v="367034" />
	</node>
	<node id="-20061" lat="59.4636519491" lon="10.9828729017">
		<tag k="fixme" v="consider natural=peak for the most distinct mountains in the district" />
		<tag k="name" v="Svinndalvarden" />
		<tag k="natural" v="hill" />
		<tag k="place" v="locality" />
		<tag k="ssr:stedsnr" v="366739" />
	</node>
	<node id="-20060" lat="59.4642083349" lon="11.0067555557">
		<tag k="alt_name" v="Lundem" />
		<tag k="name" v="Lundum" />
		<tag k="place" v="farm" />
		<tag k="ssr:stedsnr" v="366737" />
	</node>
	<node id="-20059" lat="59.4627444471" lon="10.9642777859">
		<tag k="alt_name" v="Aspjøt" />
		<tag k="name" v="Åspjøt" />
		<tag k="place" v="farm" />
		<tag k="ssr:stedsnr" v="366734" />
	</node>
	<node id="-20058" lat="59.4579222192" lon="11.0751972232">
		<tag k="alt_name" v="Nybråte" />
		<tag k="name" v="Nybråten" />
		<tag k="place" v="farm" />
		<tag k="ssr:stedsnr" v="366731" />
	</node>
	<node id="-20057" lat="59.4707166661" lon="11.0583305515">
		<tag k="name" v="Svartedal" />
		<tag k="place" v="isolated_dwelling" />
		<tag k="ssr:stedsnr" v="366722" />
	</node>
	<node id="-20056" lat="59.4685805588" lon="10.8999611087">
		<tag k="alt_name" v="Lahella" />
		<tag k="name" v="Lahelle" />
		<tag k="place" v="farm" />
		<tag k="ssr:stedsnr" v="366715" />
	</node>
	<node id="-20055" lat="59.446558333" lon="10.8658666617">
		<tag k="name" v="Skirød" />
		<tag k="place" v="farm" />
		<tag k="ssr:stedsnr" v="366385" />
	</node>
	<node id="-20054" lat="59.4409111105" lon="10.9530305594">
		<tag k="name" v="Flesjøvannet" />
		<tag k="natural" v="water" />
		<tag k="ssr:stedsnr" v="366372" />
	</node>
	<node id="-20053" lat="59.4389166693" lon="10.9670750088">
		<tag k="name" v="Vestli" />
		<tag k="place" v="farm" />
		<tag k="ssr:stedsnr" v="366370" />
	</node>
	<node id="-20052" lat="59.4354916688" lon="10.8214388816">
		<tag k="name" v="Tokerød" />
		<tag k="place" v="farm" />
		<tag k="ssr:stedsnr" v="366364" />
	</node>
	<node id="-20051" lat="59.4377333334" lon="11.0441416598">
		<tag k="name" v="Røstad" />
		<tag k="place" v="farm" />
		<tag k="ssr:stedsnr" v="366362" />
	</node>
	<node id="-20050" lat="59.4378888845" lon="10.9782861169">
		<tag k="name" v="Eng" />
		<tag k="place" v="farm" />
		<tag k="ssr:stedsnr" v="366357" />
	</node>
	<node id="-20049" lat="59.431988887" lon="11.0760416612">
		<tag k="name" v="Solvang" />
		<tag k="place" v="farm" />
		<tag k="ssr:stedsnr" v="366352" />
	</node>
	<node id="-20048" lat="59.4266611132" lon="10.9686944378">
		<tag k="name" v="Unum" />
		<tag k="place" v="farm" />
		<tag k="ssr:stedsnr" v="366351" />
	</node>
	<node id="-20047" lat="59.4218595621" lon="10.943777857">
		<tag k="alt_name" v="Røstadtjern;Rødstadtjern" />
		<tag k="fixme" v="multiple name tags, choose one and add the other to alt_name" />
		<tag k="name" v="Røstadtjernet;Vettretjern" />
		<tag k="natural" v="water" />
		<tag k="ssr:stedsnr" v="366334" />
	</node>
	<node id="-20046" lat="59.4196166672" lon="10.9834027775">
		<tag k="name" v="Ertnes" />
		<tag k="place" v="farm" />
		<tag k="ssr:stedsnr" v="366332" />
	</node>
	<node id="-20045" lat="59.4183138902" lon="11.0525416617">
		<tag k="alt_name" v="Måleng" />
		<tag k="name" v="Målenga" />
		<tag k="place" v="farm" />
		<tag k="ssr:stedsnr" v="366326" />
	</node>
	<node id="-20044" lat="59.4135805599" lon="10.8408083255">
		<tag k="alt_name" v="Tollengen" />
		<tag k="name" v="Tålenga" />
		<tag k="place" v="farm" />
		<tag k="ssr:stedsnr" v="366318" />
	</node>
	<node id="-20043" lat="59.4897353937" lon="10.9335448923">
		<tag k="fixme" v="consider place=hamlet" />
		<tag k="name" v="Guttulsrød" />
		<tag k="place" v="farm" />
		<tag k="ssr:stedsnr" v="363679" />
	</node>
	<node id="-20042" lat="59.5182916679" lon="10.8581972172">
		<tag k="alt_name" v="Ombåstvet, nordre;Ombustvedt nordre" />
		<tag k="name" v="Nordre Ombåstvet" />
		<tag k="place" v="farm" />
		<tag k="ssr:stedsnr" v="361063" />
	</node>
	<node id="-20041" lat="59.4023527749" lon="10.8014805544">
		<tag k="name" v="Furuholmen" />
		<tag k="place" v="islet" />
		<tag k="ssr:stedsnr" v="356869" />
	</node>
	<node id="-20040" lat="59.4575444468" lon="10.809708328">
		<tag k="loc_name" v="Sperrebunn" />
		<tag k="name" v="Sperbund" />
		<tag k="place" v="farm" />
		<tag k="ssr:stedsnr" v="356740" />
	</node>
	<node id="-20039" lat="59.4112666689" lon="10.8227444493">
		<tag k="name" v="Kjærnestangen" />
		<tag k="natural" v="cape" />
		<tag k="ssr:stedsnr" v="356664" />
	</node>
	<node id="-20038" lat="59.4175138877" lon="10.8074666634">
		<tag k="name" v="Marikova" />
		<tag k="natural" v="bay" />
		<tag k="ssr:stedsnr" v="356660" />
	</node>
	<node id="-20037" lat="59.4301722194" lon="11.0018499996">
		<tag k="fixme" v="consider place=suburb, village or hamlet" />
		<tag k="name" v="Fosseberget" />
		<tag k="place" v="quarter" />
		<tag k="ssr:stedsnr" v="356516" />
	</node>
	<node id="-20036" lat="59.466738891" lon="10.962994448">
		<tag k="alt_name" v="Haugen søndre" />
		<tag k="name" v="Søndre Haugen" />
		<tag k="place" v="farm" />
		<tag k="ssr:stedsnr" v="356072" />
	</node>
	<node id="-20035" lat="59.4702055516" lon="10.9664861197">
		<tag k="bridge" v="yes" />
		<tag k="layer" v="1" />
		<tag k="name" v="Haugen" />
		<tag k="ssr:stedsnr" v="349508" />
	</node>
	<node id="-20034" lat="59.4294722225" lon="10.8524555555">
		<tag k="name" v="Mosserosenga" />
		<tag k="place" v="farm" />
		<tag k="ssr:stedsnr" v="427375" />
	</node>
	<node id="-20033" lat="59.4238888893" lon="10.7928027815">
		<tag k="name" v="Vesetrød" />
		<tag k="place" v="farm" />
		<tag k="ssr:stedsnr" v="327796" />
	</node>
	<node id="-20032" lat="59.4025694416" lon="10.9454194414">
		<tag k="alt_name" v="Haukelia" />
		<tag k="name" v="Hauklia" />
		<tag k="place" v="locality" />
		<tag k="ssr:stedsnr" v="327794" />
	</node>
	<node id="-20031" lat="59.4319083348" lon="11.0157750063">
		<tag k="name" v="Vårli" />
		<tag k="place" v="farm" />
		<tag k="ssr:stedsnr" v="327779" />
	</node>
	<node id="-20030" lat="59.4843638889" lon="10.9555944448">
		<tag k="fixme" v="consider natural=peak for the most distinct mountains in the district" />
		<tag k="name" v="Skjønnerødåsen" />
		<tag k="natural" v="hill" />
		<tag k="place" v="locality" />
		<tag k="ssr:stedsnr" v="327766" />
	</node>
	<node id="-20029" lat="59.4337194407" lon="10.8887833416">
		<tag k="name" v="Angelsprett" />
		<tag k="place" v="island" />
		<tag k="ssr:stedsnr" v="327723" />
	</node>
	<node id="-20028" lat="59.4334638914" lon="11.1049027826">
		<tag k="alt_name" v="Ødegaarden, Kirkerød lille" />
		<tag k="name" v="Ødegård" />
		<tag k="place" v="farm" />
		<tag k="ssr:stedsnr" v="326971" />
	</node>
	<node id="-20027" lat="59.4398888135" lon="11.1182864866">
		<tag k="alt_name" v="Bjørketvet lille;Bjerketvet" />
		<tag k="name" v="Lille Bjørketvet" />
		<tag k="place" v="farm" />
		<tag k="ssr:stedsnr" v="326968" />
	</node>
	<node id="-20026" lat="59.4390166664" lon="11.1127055538">
		<tag k="alt_name" v="Bjerketvet" />
		<tag k="name" v="Bjørketvet" />
		<tag k="place" v="farm" />
		<tag k="ssr:stedsnr" v="326966" />
	</node>
	<node id="-20025" lat="59.491783332" lon="10.9379277775">
		<tag k="alt_name" v="Guttulsrød nordre" />
		<tag k="name" v="Nordre Guttulsrød" />
		<tag k="place" v="farm" />
		<tag k="ssr:stedsnr" v="326893" />
	</node>
	<node id="-20024" lat="59.5173027806" lon="10.8482249915">
		<tag k="alt_name" v="Ombustvedt vestre" />
		<tag k="loc_name" v="Ombustvedt, vestre" />
		<tag k="name" v="Vestre Ombåstvet" />
		<tag k="place" v="farm" />
		<tag k="ssr:stedsnr" v="325921" />
	</node>
	<node id="-20023" lat="59.4980666659" lon="10.8197305504">
		<tag k="name" v="Bråtenes" />
		<tag k="place" v="locality" />
		<tag k="ssr:stedsnr" v="325873" />
	</node>
	<node id="-20022" lat="59.5098888849" lon="10.9426805577">
		<tag k="alt_name" v="Gurød" />
		<tag k="name" v="Gurrød" />
		<tag k="place" v="farm" />
		<tag k="ssr:stedsnr" v="307049" />
	</node>
	<node id="-20021" lat="59.5073999962" lon="10.8335250074">
		<tag k="alt_name" v="Såstad søndre;Såstad" />
		<tag k="name" v="Søndre Såstad" />
		<tag k="place" v="farm" />
		<tag k="ssr:stedsnr" v="307045" />
	</node>
	<node id="-20020" lat="59.5301194482" lon="10.9441083307">
		<tag k="alt_name" v="Bergby" />
		<tag k="name" v="Berby" />
		<tag k="place" v="farm" />
		<tag k="ssr:stedsnr" v="307016" />
	</node>
	<node id="-20019" lat="59.5228555545" lon="10.9123333378">
		<tag k="name" v="Daler" />
		<tag k="place" v="farm" />
		<tag k="ssr:stedsnr" v="307008" />
	</node>
	<node id="-20018" lat="59.4553833335" lon="10.9026611185">
		<tag k="alt_name" v="Bratterød søndre;Bratterød" />
		<tag k="name" v="Søndre Bratterød" />
		<tag k="place" v="farm" />
		<tag k="ssr:stedsnr" v="306719" />
	</node>
	<node id="-20017" lat="59.4543777755" lon="11.0361472308">
		<tag k="name" v="Lunden" />
		<tag k="place" v="isolated_dwelling" />
		<tag k="ssr:stedsnr" v="306709" />
	</node>
	<node id="-20016" lat="59.478619443" lon="10.9623027846">
		<tag k="alt_name" v="Helgedal" />
		<tag k="name" v="Helgedalen" />
		<tag k="place" v="farm" />
		<tag k="ssr:stedsnr" v="306688" />
	</node>
	<node id="-20015" lat="59.4902388867" lon="10.9526777839">
		<tag k="alt_name" v="Vesleengen" />
		<tag k="name" v="Vesleenga" />
		<tag k="place" v="farm" />
		<tag k="ssr:stedsnr" v="306670" />
	</node>
	<node id="-20014" lat="59.4860611155" lon="11.000527779">
		<tag k="alt_name" v="Ulfsrødtjern" />
		<tag k="name" v="Ulfsrødtjernet" />
		<tag k="natural" v="water" />
		<tag k="ssr:stedsnr" v="306666" />
	</node>
	<node id="-20013" lat="59.4899499983" lon="10.7876638934">
		<tag k="name" v="Lødeng" />
		<tag k="place" v="farm" />
		<tag k="ssr:stedsnr" v="306640" />
	</node>
	<node id="-20012" lat="59.4956222253" lon="11.0240555596">
		<tag k="alt_name" v="Kjernsbekk" />
		<tag k="name" v="Tjernsbekk" />
		<tag k="place" v="farm" />
		<tag k="ssr:stedsnr" v="306635" />
	</node>
	<node id="-20011" lat="59.450741671" lon="10.8549777866">
		<tag k="name" v="Botner" />
		<tag k="place" v="farm" />
		<tag k="ssr:stedsnr" v="306360" />
	</node>
	<node id="-20010" lat="59.4543666675" lon="11.0613222159">
		<tag k="name" v="Langerødødegården" />
		<tag k="place" v="farm" />
		<tag k="ssr:stedsnr" v="306361" />
	</node>
	<node id="-20009" lat="59.4326749955" lon="11.0933972307">
		<tag k="name" v="Hammersborg" />
		<tag k="place" v="farm" />
		<tag k="ssr:stedsnr" v="306207" />
	</node>
	<node id="-20008" lat="59.4696055527" lon="10.897708335">
		<tag k="name" v="Ringvoll" />
		<tag k="place" v="farm" />
		<tag k="ssr:stedsnr" v="305735" />
	</node>
	<node id="-20007" lat="59.4698833345" lon="11.0689777697">
		<tag k="fixme" v="consider natural=peak for the most distinct mountains in the district" />
		<tag k="name" v="Grevlingåsen" />
		<tag k="natural" v="hill" />
		<tag k="place" v="locality" />
		<tag k="ssr:stedsnr" v="305733" />
	</node>
	<node id="-20006" lat="59.4672138908" lon="10.8008722206">
		<tag k="name" v="Våk" />
		<tag k="place" v="farm" />
		<tag k="ssr:stedsnr" v="305724" />
	</node>
	<node id="-20005" lat="59.4346805593" lon="10.9964694503">
		<tag k="alt_name" v="Mellegård" />
		<tag k="name" v="Mellegarden" />
		<tag k="place" v="farm" />
		<tag k="ssr:stedsnr" v="305368" />
	</node>
	<node id="-20004" lat="59.4290055548" lon="11.0044916634">
		<tag k="name" v="Elvestad" />
		<tag k="place" v="farm" />
		<tag k="ssr:stedsnr" v="305357" />
	</node>
	<node id="-20003" lat="59.427775002" lon="11.0854000083">
		<tag k="name" v="Berg" />
		<tag k="place" v="farm" />
		<tag k="ssr:stedsnr" v="305345" />
	</node>
	<node id="-20002" lat="59.4244000006" lon="10.7746027822">
		<tag k="name" v="Ånnerød" />
		<tag k="place" v="locality" />
		<tag k="ssr:stedsnr" v="305343" />
	</node>
	<node id="-20001" lat="59.4184722193" lon="10.7886777825">
		<tag k="alt_name" v="Kjersund" />
		<tag k="name" v="Kjærsund" />
		<tag k="place" v="farm" />
		<tag k="ssr:stedsnr" v="305342" />
	</node>
	<node id="-20000" lat="59.414597225" lon="10.7956611051">
		<tag k="name" v="Ødegårdssletta" />
		<tag k="place" v="farm" />
		<tag k="ssr:stedsnr" v="305333" />
	</node>
	<node id="-19999" lat="59.4064444487" lon="10.9083361152">
		<tag k="name" v="Sandå" />
		<tag k="place" v="farm" />
		<tag k="ssr:stedsnr" v="305332" />
	</node>
	<node id="-19998" lat="59.5116944463" lon="10.8105750072">
		<tag k="fixme" v="consider place=hamlet" />
		<tag k="name" v="Gylder" />
		<tag k="place" v="farm" />
		<tag k="ssr:stedsnr" v="297323" />
	</node>
	<node id="-19997" lat="59.4135032853" lon="10.8307052244">
		<tag k="name" v="Rødsengkilen" />
		<tag k="natural" v="bay" />
		<tag k="ssr:stedsnr" v="296650" />
	</node>
	<node id="-19996" lat="59.4840249959" lon="10.9056694476">
		<tag k="name" v="Navestad" />
		<tag k="place" v="farm" />
		<tag k="ssr:stedsnr" v="296636" />
	</node>
	<node id="-19995" lat="59.4813583346" lon="10.8781694522">
		<tag k="name" v="Flesbergtjern" />
		<tag k="natural" v="water" />
		<tag k="ssr:stedsnr" v="296607" />
	</node>
	<node id="-19994" lat="59.4415611086" lon="10.9473888848">
		<tag k="name" v="Klypa" />
		<tag k="place" v="locality" />
		<tag k="ssr:stedsnr" v="295528" />
	</node>
	<node id="-19993" lat="59.456186113" lon="11.0551583398">
		<tag k="name" v="Tveterhytta" />
		<tag k="place" v="isolated_dwelling" />
		<tag k="ssr:stedsnr" v="295082" />
	</node>
	<node id="-19992" lat="59.4593972189" lon="11.0301194409">
		<tag k="name" v="Kuhagen" />
		<tag k="place" v="locality" />
		<tag k="ssr:stedsnr" v="295079" />
	</node>
	<node id="-19991" lat="59.5035194426" lon="10.8952111189">
		<tag k="alt_name" v="Lille Sjulerød;Syverud;Syverøe" />
		<tag k="name" v="Sjulerød" />
		<tag k="place" v="farm" />
		<tag k="ssr:stedsnr" v="282099" />
	</node>
	<node id="-20694" lat="59.405608336" lon="10.8110416613">
		<tag k="name" v="Danielbakken" />
		<tag k="natural" v="slope" />
		<tag k="place" v="locality" />
		<tag k="ssr:stedsnr" v="963902" />
	</node>
	<node id="-20693" lat="59.425916666" lon="10.8444583372">
		<tag k="name" v="Mosseros" />
		<tag k="place" v="farm" />
		<tag k="ssr:stedsnr" v="963694" />
	</node>
	<node id="-20692" lat="59.4397277758" lon="10.8255444504">
		<tag k="alt_name" v="Guthus søndre" />
		<tag k="name" v="Søndre Guthus" />
		<tag k="place" v="farm" />
		<tag k="ssr:stedsnr" v="963681" />
	</node>
	<node id="-20691" lat="59.4493611137" lon="11.019319452">
		<tag k="name" v="Sukke" />
		<tag k="place" v="farm" />
		<tag k="ssr:stedsnr" v="963094" />
	</node>
	<node id="-20690" lat="59.4943138849" lon="10.8400805584">
		<tag k="alt_name" v="Torsnes" />
		<tag k="name" v="Søndre Torsnes" />
		<tag k="old_name" v="S Tosnes" />
		<tag k="place" v="farm" />
		<tag k="ssr:stedsnr" v="951124" />
	</node>
	<node id="-20689" lat="59.4283444408" lon="11.0682250051">
		<tag k="alt_name" v="Skotvedt" />
		<tag k="fixme" v="consider place=hamlet" />
		<tag k="name" v="Skotvet" />
		<tag k="place" v="farm" />
		<tag k="ssr:stedsnr" v="937376" />
	</node>
	<node id="-20687" lat="59.431783331" lon="10.8083749992">
		<tag k="name" v="Brønnerødbekken" />
		<tag k="ssr:stedsnr" v="934827" />
		<tag k="waterway" v="stream" />
	</node>
	<node id="-20686" lat="59.414124996" lon="10.9602861123">
		<tag k="name" v="Bråtan" />
		<tag k="place" v="locality" />
		<tag k="ssr:stedsnr" v="934818" />
	</node>
	<node id="-20685" lat="59.4902416658" lon="10.9304305486">
		<tag k="name" v="Brennheit" />
		<tag k="place" v="locality" />
		<tag k="ssr:stedsnr" v="934756" />
	</node>
	<node id="-20684" lat="59.4349083364" lon="10.8591000059">
		<tag k="name" v="Oremyr" />
		<tag k="natural" v="wetland" />
		<tag k="ssr:stedsnr" v="934746" />
	</node>
	<node id="-20683" lat="59.4896333373" lon="10.9338416755">
		<tag k="name" v="Søndre Guttulsrød" />
		<tag k="place" v="farm" />
		<tag k="ssr:stedsnr" v="933933" />
	</node>
	<node id="-20682" lat="59.4939055569" lon="10.8776527701">
		<tag k="fixme" v="consider natural=peak for the most distinct mountains in the district" />
		<tag k="name" v="Sandås" />
		<tag k="natural" v="hill" />
		<tag k="place" v="locality" />
		<tag k="ssr:stedsnr" v="933907" />
	</node>
	<node id="-20681" lat="59.4985055576" lon="10.8409027807">
		<tag k="alt_name" v="Torsnes" />
		<tag k="name" v="Nordre Torsnes" />
		<tag k="old_name" v="N Tosnes" />
		<tag k="place" v="farm" />
		<tag k="ssr:stedsnr" v="933905" />
	</node>
	<node id="-20680" lat="59.4158194458" lon="11.1091250018">
		<tag k="fixme" v="consider natural=peak for the most distinct mountains in the district" />
		<tag k="name" v="Tjernsåsen" />
		<tag k="natural" v="hill" />
		<tag k="place" v="locality" />
		<tag k="ssr:stedsnr" v="933742" />
	</node>
	<node id="-20679" lat="59.5102966868" lon="10.9562171816">
		<tag k="alt_name" v="Belgen nordre" />
		<tag k="name" v="Nordre Belgen" />
		<tag k="place" v="farm" />
		<tag k="ssr:stedsnr" v="932982" />
	</node>
	<node id="-20678" lat="59.4935722222" lon="11.01376945">
		<tag k="name" v="Fløtermosen" />
		<tag k="natural" v="wetland" />
		<tag k="ssr:stedsnr" v="932934" />
	</node>
	<node id="-20677" lat="59.5072333317" lon="10.8074861094">
		<tag k="name" v="Kaspertomta" />
		<tag k="place" v="locality" />
		<tag k="ssr:stedsnr" v="932884" />
	</node>
	<node id="-20676" lat="59.5364416661" lon="10.9622888805">
		<tag k="name" v="Breidmosan" />
		<tag k="natural" v="wetland" />
		<tag k="ssr:stedsnr" v="914224" />
	</node>
	<node id="-20675" lat="59.5204500013" lon="10.8331750049">
		<tag k="alt_name" v="Flakstad nordre" />
		<tag k="name" v="Nordre Flakestad" />
		<tag k="place" v="farm" />
		<tag k="ssr:stedsnr" v="914056" />
	</node>
	<node id="-20674" lat="59.5108138919" lon="10.8788972184">
		<tag k="alt_name" v="Preståsene" />
		<tag k="fixme" v="consider natural=peak for the most distinct mountains in the district" />
		<tag k="name" v="Preståsen" />
		<tag k="natural" v="hill" />
		<tag k="place" v="locality" />
		<tag k="ssr:stedsnr" v="914049" />
	</node>
	<node id="-20673" lat="59.4530111082" lon="11.0442166706">
		<tag k="name" v="Vang" />
		<tag k="place" v="farm" />
		<tag k="ssr:stedsnr" v="913715" />
	</node>
	<node id="-20672" lat="59.4801491007" lon="11.064956002">
		<tag k="name" v="Blektjernet" />
		<tag k="natural" v="water" />
		<tag k="ssr:stedsnr" v="913681" />
	</node>
	<node id="-20671" lat="59.4949789845" lon="10.8307098599">
		<tag k="name" v="Kåbøl" />
		<tag k="old_name" v="Kaabøl;Kaabel" />
		<tag k="place" v="hamlet" />
		<tag k="ssr:stedsnr" v="913651" />
	</node>
	<node id="-20670" lat="59.4943138849" lon="10.8400805584">
		<tag k="alt_name" v="Tosnes" />
		<tag k="fixme" v="consider place=hamlet" />
		<tag k="name" v="Torsnes" />
		<tag k="place" v="farm" />
		<tag k="ssr:stedsnr" v="913650" />
	</node>
	<node id="-20669" lat="59.4456027771" lon="11.0415277737">
		<tag k="fixme" v="consider natural=peak for the most distinct mountains in the district" />
		<tag k="name" v="Kattekloåsen" />
		<tag k="natural" v="hill" />
		<tag k="place" v="locality" />
		<tag k="ssr:stedsnr" v="913354" />
	</node>
	<node id="-20668" lat="59.4407416643" lon="10.8216333359">
		<tag k="name" v="Toverød" />
		<tag k="place" v="farm" />
		<tag k="ssr:stedsnr" v="913348" />
	</node>
	<node id="-20667" lat="59.4664750001" lon="11.0023500004">
		<tag k="alt_name" v="Bjerkeli" />
		<tag k="name" v="Bjørkelia" />
		<tag k="place" v="farm" />
		<tag k="ssr:stedsnr" v="912752" />
	</node>
	<node id="-20666" lat="59.4725611137" lon="10.9058361185">
		<tag k="alt_name" v="Grønnæs" />
		<tag k="name" v="Grønnes" />
		<tag k="place" v="farm" />
		<tag k="ssr:stedsnr" v="912737" />
	</node>
	<node id="-20665" lat="59.4701333341" lon="11.0462916613">
		<tag k="alt_name" v="Breimosen" />
		<tag k="name" v="Breidmosan" />
		<tag k="natural" v="wetland" />
		<tag k="ssr:stedsnr" v="912730" />
	</node>
	<node id="-20664" lat="59.438863892" lon="10.9374999946">
		<tag k="alt_name" v="Bjerkedal" />
		<tag k="name" v="Bjørkedal" />
		<tag k="place" v="farm" />
		<tag k="ssr:stedsnr" v="912368" />
	</node>
	<node id="-20663" lat="59.4379000027" lon="11.0647472209">
		<tag k="name" v="Kirkerød" />
		<tag k="place" v="farm" />
		<tag k="ssr:stedsnr" v="912358" />
	</node>
	<node id="-20662" lat="59.4311305598" lon="10.9441944448">
		<tag k="name" v="Røstad" />
		<tag k="place" v="farm" />
		<tag k="ssr:stedsnr" v="912357" />
	</node>
	<node id="-20661" lat="59.4253331756" lon="11.017979055">
		<tag k="fixme" v="consider place=hamlet" />
		<tag k="name" v="Ingulstad" />
		<tag k="place" v="farm" />
		<tag k="ssr:stedsnr" v="912350" />
	</node>
	<node id="-20660" lat="59.4213527821" lon="10.8828972307">
		<tag k="name" v="Gressøya" />
		<tag k="place" v="island" />
		<tag k="ssr:stedsnr" v="912342" />
	</node>
	<node id="-20659" lat="59.4182055552" lon="10.8601944496">
		<tag k="name" v="Groholmen" />
		<tag k="place" v="islet" />
		<tag k="ssr:stedsnr" v="912341" />
	</node>
	<node id="-20658" lat="59.4127916659" lon="11.0011583389">
		<tag k="alt_name" v="Bunnåsen" />
		<tag k="fixme" v="consider natural=peak for the most distinct mountains in the district" />
		<tag k="name" v="Båndåsen" />
		<tag k="natural" v="hill" />
		<tag k="place" v="locality" />
		<tag k="ssr:stedsnr" v="912331" />
	</node>
	<node id="-20657" lat="59.4436444242" lon="10.9032264513">
		<tag k="fixme" v="consider place=hamlet" />
		<tag k="name" v="Ros" />
		<tag k="place" v="farm" />
		<tag k="ssr:stedsnr" v="904311" />
	</node>
	<node id="-20656" lat="59.412555557" lon="10.8146388839">
		<tag k="name" v="Brattholmen" />
		<tag k="natural" v="cape" />
		<tag k="ssr:stedsnr" v="903643" />
	</node>
	<node id="-20655" lat="59.4298611121" lon="10.8442499938">
		<tag k="name" v="Mosseros" />
		<tag k="place" v="farm" />
		<tag k="ssr:stedsnr" v="903523" />
	</node>
	<node id="-20654" lat="59.4085916677" lon="11.0444861185">
		<tag k="fixme" v="consider natural=peak for the most distinct mountains in the district" />
		<tag k="name" v="Kompås" />
		<tag k="natural" v="hill" />
		<tag k="place" v="locality" />
		<tag k="ssr:stedsnr" v="902563" />
	</node>
	<node id="-20653" lat="59.4199277785" lon="10.963069445">
		<tag k="fixme" v="consider natural=peak for the most distinct mountains in the district" />
		<tag k="name" v="Boslangåsen" />
		<tag k="natural" v="hill" />
		<tag k="place" v="locality" />
		<tag k="ssr:stedsnr" v="902554" />
	</node>
	<node id="-20652" lat="59.417080559" lon="10.9762444417">
		<tag k="name" v="Ertnesberget" />
		<tag k="place" v="isolated_dwelling" />
		<tag k="ssr:stedsnr" v="902555" />
	</node>
	<node id="-20651" lat="59.4582975875" lon="10.9701341759">
		<tag k="fixme" v="consider place=hamlet" />
		<tag k="name" v="Spjøter" />
		<tag k="place" v="farm" />
		<tag k="ssr:stedsnr" v="902094" />
	</node>
	<node id="-20650" lat="59.4693166647" lon="10.9611305592">
		<tag k="alt_name" v="Haugen nordre" />
		<tag k="name" v="Nordre Haugen" />
		<tag k="place" v="farm" />
		<tag k="ssr:stedsnr" v="902066" />
	</node>
	<node id="-20649" lat="59.4153166691" lon="10.8124583294">
		<tag k="name" v="Svalahella" />
		<tag k="natural" v="cape" />
		<tag k="ssr:stedsnr" v="901550" />
	</node>
	<node id="-20648" lat="59.4291083317" lon="10.8968166709">
		<tag k="name" v="Gjøvik" />
		<tag k="place" v="locality" />
		<tag k="ssr:stedsnr" v="901536" />
	</node>
	<node id="-20647" lat="59.4520750019" lon="10.8907111097">
		<tag k="name" v="Stangerengen" />
		<tag k="place" v="isolated_dwelling" />
		<tag k="ssr:stedsnr" v="901510" />
	</node>
	<node id="-20646" lat="59.4283500011" lon="11.089400008">
		<tag k="alt_name" v="Grøttvedt" />
		<tag k="fixme" v="consider place=hamlet" />
		<tag k="name" v="Grøttvet" />
		<tag k="place" v="farm" />
		<tag k="ssr:stedsnr" v="877366" />
	</node>
	<node id="-20645" lat="59.4496305598" lon="10.991491672">
		<tag k="name" v="Frølandshytta" />
		<tag k="place" v="locality" />
		<tag k="ssr:stedsnr" v="873817" />
	</node>
	<node id="-20644" lat="59.4727111125" lon="10.949797229">
		<tag k="name" v="Furumoen" />
		<tag k="place" v="locality" />
		<tag k="ssr:stedsnr" v="873793" />
	</node>
	<node id="-20643" lat="59.4222356361" lon="11.0716827973">
		<tag k="name" v="Østenrød" />
		<tag k="place" v="farm" />
		<tag k="ssr:stedsnr" v="873783" />
	</node>
	<node id="-20642" lat="59.4420111126" lon="11.0818611128">
		<tag k="fixme" v="consider natural=peak for the most distinct mountains in the district" />
		<tag k="name" v="Brannås" />
		<tag k="natural" v="hill" />
		<tag k="place" v="locality" />
		<tag k="ssr:stedsnr" v="873774" />
	</node>
	<node id="-20641" lat="59.4963361096" lon="10.8763916722">
		<tag k="name" v="Syverstua" />
		<tag k="place" v="locality" />
		<tag k="ssr:stedsnr" v="873746" />
	</node>
	<node id="-20640" lat="59.4832749959" lon="10.9329472176">
		<tag k="name" v="Skovdal" />
		<tag k="place" v="isolated_dwelling" />
		<tag k="ssr:stedsnr" v="873737" />
	</node>
	<node id="-20639" lat="59.4532694461" lon="10.88646945">
		<tag k="name" v="Kilen" />
		<tag k="place" v="isolated_dwelling" />
		<tag k="ssr:stedsnr" v="873738" />
	</node>
	<node id="-20638" lat="59.5210388847" lon="10.9641000031">
		<tag k="name" v="Stallheim" />
		<tag k="place" v="farm" />
		<tag k="ssr:stedsnr" v="873692" />
	</node>
	<node id="-20637" lat="59.5181833326" lon="10.933655551">
		<tag k="name" v="Bukkesvingen" />
		<tag k="place" v="locality" />
		<tag k="ssr:stedsnr" v="871922" />
	</node>
	<node id="-20636" lat="59.4774638916" lon="10.785102776">
		<tag k="name" v="Kjesebotn" />
		<tag k="place" v="farm" />
		<tag k="ssr:stedsnr" v="853692" />
	</node>
	<node id="-20635" lat="59.4887749994" lon="10.8567472215">
		<tag k="name" v="Folkestad" />
		<tag k="place" v="farm" />
		<tag k="ssr:stedsnr" v="853687" />
	</node>
	<node id="-20634" lat="59.4929333333" lon="10.9358055613">
		<tag k="alt_name" v="Veliødegard" />
		<tag k="name" v="Ødegården" />
		<tag k="place" v="farm" />
		<tag k="ssr:stedsnr" v="853685" />
	</node>
	<node id="-20633" lat="59.4971555568" lon="10.9581305621">
		<tag k="name" v="Femtegjeld" />
		<tag k="place" v="farm" />
		<tag k="ssr:stedsnr" v="853665" />
	</node>
	<node id="-20632" lat="59.4890833294" lon="10.836749994">
		<tag k="name" v="Solli" />
		<tag k="place" v="farm" />
		<tag k="ssr:stedsnr" v="853660" />
	</node>
	<node id="-20631" lat="59.4961888876" lon="11.0135500032">
		<tag k="name" v="Fløter" />
		<tag k="place" v="farm" />
		<tag k="ssr:stedsnr" v="853657" />
	</node>
	<node id="-20630" lat="59.5032500031" lon="10.9501777775">
		<tag k="alt_name" v="Nesset" />
		<tag k="name" v="Neset" />
		<tag k="place" v="farm" />
		<tag k="ssr:stedsnr" v="853064" />
	</node>
	<node id="-20629" lat="59.5070805588" lon="10.8829499959">
		<tag k="alt_name" v="Vilskog" />
		<tag k="name" v="Villskog" />
		<tag k="place" v="isolated_dwelling" />
		<tag k="ssr:stedsnr" v="853043" />
	</node>
	<node id="-20628" lat="59.4561611074" lon="10.8024527726">
		<tag k="loc_name" v="Sperrebunn" />
		<tag k="name" v="Sperbund" />
		<tag k="place" v="farm" />
		<tag k="ssr:stedsnr" v="852709" />
	</node>
	<node id="-20627" lat="59.4593055562" lon="10.90246112">
		<tag k="alt_name" v="Bratterød nordre;Bratterød" />
		<tag k="name" v="Nordre Bratterød" />
		<tag k="place" v="farm" />
		<tag k="ssr:stedsnr" v="852699" />
	</node>
	<node id="-20626" lat="59.4660277796" lon="10.775941662">
		<tag k="alt_name" v="Rød nordre" />
		<tag k="name" v="Nordre Rød" />
		<tag k="place" v="farm" />
		<tag k="ssr:stedsnr" v="852687" />
	</node>
	<node id="-20625" lat="59.4451916671" lon="10.7871527766">
		<tag k="name" v="Bjerkeli" />
		<tag k="place" v="farm" />
		<tag k="ssr:stedsnr" v="852375" />
	</node>
	<node id="-20624" lat="59.4448805524" lon="10.9490416646">
		<tag k="alt_name" v="Gjerredalen" />
		<tag k="name" v="Gjerdalen" />
		<tag k="place" v="farm" />
		<tag k="ssr:stedsnr" v="852369" />
	</node>
	<node id="-20623" lat="59.4177059812" lon="10.986275118">
		<tag k="fixme" v="multiple name tags, choose one and add the other to alt_name" />
		<tag k="name" v="Berget;Holbakken" />
		<tag k="place" v="farm" />
		<tag k="ssr:stedsnr" v="852331" />
	</node>
	<node id="-20622" lat="59.4125388886" lon="11.0767555494">
		<tag k="alt_name" v="Sverigetjern" />
		<tag k="name" v="Sverigetjernet" />
		<tag k="natural" v="water" />
		<tag k="ssr:stedsnr" v="852326" />
	</node>
	<node id="-20621" lat="59.404227776" lon="11.050877779">
		<tag k="alt_name" v="Svarttjern" />
		<tag k="name" v="Svarttjernet" />
		<tag k="natural" v="water" />
		<tag k="ssr:stedsnr" v="852322" />
	</node>
	<node id="-20620" lat="59.4625972245" lon="10.7745249938">
		<tag k="name" v="Rød" />
		<tag k="place" v="hamlet" />
		<tag k="ssr:stedsnr" v="842743" />
	</node>
	<node id="-20619" lat="59.4847555529" lon="10.8744194409">
		<tag k="name" v="Kirkeelva" />
		<tag k="ssr:stedsnr" v="842641" />
		<tag k="waterway" v="river" />
	</node>
	<node id="-20618" lat="59.4843805556" lon="10.8426305525">
		<tag k="name" v="Elvestad" />
		<tag k="place" v="isolated_dwelling" />
		<tag k="ssr:stedsnr" v="842634" />
	</node>
	<node id="-20617" lat="59.427585768" lon="10.9953509345">
		<tag k="name" v="Sæby" />
		<tag k="place" v="farm" />
		<tag k="ssr:stedsnr" v="842524" />
	</node>
	<node id="-20616" lat="59.457336112" lon="11.010075003">
		<tag k="name" v="Bråtetjern" />
		<tag k="natural" v="water" />
		<tag k="ssr:stedsnr" v="842082" />
	</node>
	<node id="-20615" lat="59.4371416627" lon="10.9345805558">
		<tag k="name" v="Bjerkedalsbingen" />
		<tag k="place" v="farm" />
		<tag k="ssr:stedsnr" v="841513" />
	</node>
	<node id="-20614" lat="59.4598222236" lon="10.8923083358">
		<tag k="fixme" v="consider natural=peak for the most distinct mountains in the district" />
		<tag k="name" v="Munkekirkeås" />
		<tag k="natural" v="hill" />
		<tag k="place" v="locality" />
		<tag k="ssr:stedsnr" v="841493" />
	</node>
	<node id="-20613" lat="59.4520750019" lon="10.8907111097">
		<tag k="name" v="Stangerengen" />
		<tag k="place" v="isolated_dwelling" />
		<tag k="ssr:stedsnr" v="841485" />
	</node>
	<node id="-20612" lat="59.5182916679" lon="10.8581972172">
		<tag k="fixme" v="consider place=hamlet" />
		<tag k="name" v="Ombåstvet" />
		<tag k="old_name" v="Ombaastvet;Ombudstvet" />
		<tag k="place" v="farm" />
		<tag k="ssr:stedsnr" v="830864" />
	</node>
	<node id="-20611" lat="59.4866805584" lon="10.8665972291">
		<tag k="fixme" v="consider place=hamlet" />
		<tag k="name" v="Flesberg" />
		<tag k="place" v="farm" />
		<tag k="ssr:stedsnr" v="830090" />
	</node>
	<node id="-20610" lat="59.4537527761" lon="11.0728333254">
		<tag k="name" v="Orebru" />
		<tag k="place" v="locality" />
		<tag k="ssr:stedsnr" v="812874" />
	</node>
	<node id="-20609" lat="59.4456833365" lon="10.9182944512">
		<tag k="name" v="Neselva" />
		<tag k="ssr:stedsnr" v="812867" />
		<tag k="waterway" v="river" />
	</node>
	<node id="-20608" lat="59.4529861115" lon="11.0050166699">
		<tag k="name" v="Bratteflau" />
		<tag k="natural" v="cliff" />
		<tag k="ssr:stedsnr" v="812854" />
	</node>
	<node id="-20607" lat="59.4964527784" lon="10.9824027853">
		<tag k="name" v="Rørmyr" />
		<tag k="natural" v="wetland" />
		<tag k="ssr:stedsnr" v="812840" />
	</node>
	<node id="-20606" lat="59.4860694443" lon="10.9616611195">
		<tag k="name" v="Futemyra" />
		<tag k="natural" v="wetland" />
		<tag k="ssr:stedsnr" v="812828" />
	</node>
	<node id="-20605" lat="59.5229722235" lon="10.9128777845">
		<tag k="name" v="Daler" />
		<tag k="place" v="locality" />
		<tag k="ssr:stedsnr" v="812801" />
	</node>
	<node id="-20604" lat="59.3982916651" lon="10.8534333409">
		<tag k="name" v="Paradisbukta" />
		<tag k="natural" v="bay" />
		<tag k="ssr:stedsnr" v="812782" />
	</node>
	<node id="-20603" lat="59.4422111125" lon="11.1072361199">
		<tag k="alt_name" v="Bjerketvet" />
		<tag k="name" v="Bjørketvet" />
		<tag k="place" v="farm" />
		<tag k="ssr:stedsnr" v="811965" />
	</node>
	<node id="-20602" lat="59.5099166623" lon="10.9346638973">
		<tag k="alt_name" v="Frosterød søndre" />
		<tag k="name" v="Søndre Frosterød" />
		<tag k="place" v="farm" />
		<tag k="ssr:stedsnr" v="811962" />
	</node>
	<node id="-20601" lat="59.4345916706" lon="11.104974997">
		<tag k="name" v="Ødegård" />
		<tag k="place" v="farm" />
		<tag k="ssr:stedsnr" v="811960" />
	</node>
	<node id="-20600" lat="59.5018833367" lon="10.9574888933">
		<tag k="name" v="Nordengen" />
		<tag k="place" v="locality" />
		<tag k="ssr:stedsnr" v="811958" />
	</node>
	<node id="-20599" lat="59.5028805568" lon="11.0565694521">
		<tag k="name" v="Knatten" />
		<tag k="place" v="farm" />
		<tag k="ssr:stedsnr" v="811932" />
	</node>
	<node id="-20598" lat="59.518527778" lon="10.8614027774">
		<tag k="name" v="Folkestadbråten" />
		<tag k="place" v="isolated_dwelling" />
		<tag k="ssr:stedsnr" v="793053" />
	</node>
	<node id="-20597" lat="59.4717972258" lon="10.8584499945">
		<tag k="name" v="Kalverød" />
		<tag k="place" v="farm" />
		<tag k="ssr:stedsnr" v="792716" />
	</node>
	<node id="-20596" lat="59.4865111124" lon="10.8997999997">
		<tag k="name" v="Navestad" />
		<tag k="place" v="isolated_dwelling" />
		<tag k="ssr:stedsnr" v="792706" />
	</node>
	<node id="-20595" lat="59.487911113" lon="10.9183500025">
		<tag k="name" v="Nordby" />
		<tag k="place" v="farm" />
		<tag k="ssr:stedsnr" v="792680" />
	</node>
	<node id="-20594" lat="59.4848250042" lon="10.8645333409">
		<tag k="name" v="Ven" />
		<tag k="place" v="farm" />
		<tag k="ssr:stedsnr" v="792668" />
	</node>
	<node id="-20593" lat="59.507011115" lon="11.0211333413">
		<tag k="alt_name" v="Nordengen" />
		<tag k="name" v="Nordeng" />
		<tag k="place" v="farm" />
		<tag k="ssr:stedsnr" v="792085" />
	</node>
	<node id="-20592" lat="59.441141664" lon="10.8793750075">
		<tag k="alt_name" v="Brattengen" />
		<tag k="name" v="Brattenga" />
		<tag k="place" v="farm" />
		<tag k="ssr:stedsnr" v="791339" />
	</node>
	<node id="-20591" lat="59.431680558" lon="11.0390555538">
		<tag k="fixme" v="consider natural=peak for the most distinct mountains in the district" />
		<tag k="name" v="Onsakeråsen" />
		<tag k="natural" v="hill" />
		<tag k="place" v="locality" />
		<tag k="ssr:stedsnr" v="791337" />
	</node>
	<node id="-20590" lat="59.4333999957" lon="11.1050972255">
		<tag k="name" v="Kirkerød" />
		<tag k="place" v="farm" />
		<tag k="ssr:stedsnr" v="791214" />
	</node>
	<node id="-20589" lat="59.4218750013" lon="11.1108805473">
		<tag k="name" v="Tjernsbekk" />
		<tag k="place" v="farm" />
		<tag k="ssr:stedsnr" v="791164" />
	</node>
	<node id="-20588" lat="59.4504499992" lon="10.8324888885">
		<tag k="alt_name" v="Sjulerød;Store Syverød;Syverød" />
		<tag k="fixme" v="consider place=hamlet" />
		<tag k="name" v="Store Sjulerød" />
		<tag k="place" v="farm" />
		<tag k="ssr:stedsnr" v="786415" />
	</node>
	<node id="-20587" lat="59.4008" lon="10.8106083373">
		<tag k="name" v="Mortestein" />
		<tag k="place" v="islet" />
		<tag k="ssr:stedsnr" v="781883" />
	</node>
	<node id="-20586" lat="59.4837638893" lon="10.7874861193">
		<tag k="name" v="Hellhaugen" />
		<tag k="place" v="isolated_dwelling" />
		<tag k="ssr:stedsnr" v="781745" />
	</node>
	<node id="-20585" lat="59.4109833373" lon="10.8164750015">
		<tag k="name" v="Flåtastan" />
		<tag k="natural" v="bay" />
		<tag k="ssr:stedsnr" v="781672" />
	</node>
	<node id="-20584" lat="59.4054111151" lon="10.9709138831">
		<tag k="name" v="Sjurebråtetjern" />
		<tag k="natural" v="water" />
		<tag k="ssr:stedsnr" v="781546" />
	</node>
	<node id="-20583" lat="59.413291668" lon="11.020591666">
		<tag k="name" v="Prinsedalen" />
		<tag k="natural" v="valley" />
		<tag k="place" v="locality" />
		<tag k="ssr:stedsnr" v="781537" />
	</node>
	<node id="-20582" lat="59.4171888878" lon="10.993258325">
		<tag k="name" v="Sæbybunn" />
		<tag k="natural" v="bay" />
		<tag k="ssr:stedsnr" v="781523" />
	</node>
	<node id="-20581" lat="59.4782222201" lon="11.0012499974">
		<tag k="name" v="Brøndal" />
		<tag k="place" v="farm" />
		<tag k="ssr:stedsnr" v="781124" />
	</node>
	<node id="-20580" lat="59.4855250044" lon="10.9899916691">
		<tag k="name" v="Ramla" />
		<tag k="place" v="locality" />
		<tag k="ssr:stedsnr" v="781118" />
	</node>
	<node id="-20579" lat="59.4468555563" lon="11.0216222165">
		<tag k="name" v="Sukkedalen" />
		<tag k="natural" v="valley" />
		<tag k="place" v="locality" />
		<tag k="ssr:stedsnr" v="781091" />
	</node>
	<node id="-20578" lat="59.4523972225" lon="10.973999992">
		<tag k="name" v="Kjernsrød" />
		<tag k="place" v="farm" />
		<tag k="ssr:stedsnr" v="781090" />
	</node>
	<node id="-20577" lat="59.4236333378" lon="11.0389388855">
		<tag k="bridge" v="yes" />
		<tag k="layer" v="1" />
		<tag k="name" v="Løkkeberg" />
		<tag k="ssr:stedsnr" v="774489" />
	</node>
	<node id="-20576" lat="59.4977297509" lon="10.8343010048">
		<tag k="fixme" v="consider place=hamlet" />
		<tag k="name" v="Nordre Kåbøl" />
		<tag k="place" v="farm" />
		<tag k="ssr:stedsnr" v="769119" />
	</node>
	<node id="-20575" lat="59.4365777785" lon="10.9814611171">
		<tag k="name" v="Engsand" />
		<tag k="place" v="locality" />
		<tag k="ssr:stedsnr" v="751858" />
	</node>
	<node id="-20574" lat="59.4281999998" lon="11.0045194418">
		<tag k="junction" v="yes" />
		<tag k="name" v="Svinndalkrysset" />
		<tag k="place" v="locality" />
		<tag k="ssr:stedsnr" v="751856" />
	</node>
	<node id="-20573" lat="59.5090083289" lon="11.0148277784">
		<tag k="name" v="Muskedalen" />
		<tag k="natural" v="valley" />
		<tag k="place" v="locality" />
		<tag k="ssr:stedsnr" v="751836" />
	</node>
	<node id="-20572" lat="59.4985333359" lon="10.9434083419">
		<tag k="name" v="Skvalen" />
		<tag k="place" v="locality" />
		<tag k="ssr:stedsnr" v="751812" />
	</node>
	<node id="-20571" lat="59.5008555576" lon="10.8694055633">
		<tag k="name" v="Langebråte" />
		<tag k="place" v="locality" />
		<tag k="ssr:stedsnr" v="751809" />
	</node>
	<node id="-20570" lat="59.4288472255" lon="10.8625083268">
		<tag k="name" v="Stareng" />
		<tag k="place" v="farm" />
		<tag k="ssr:stedsnr" v="751804" />
	</node>
	<node id="-20569" lat="59.4979611154" lon="10.9940305492">
		<tag k="name" v="Setradalen" />
		<tag k="natural" v="valley" />
		<tag k="place" v="locality" />
		<tag k="ssr:stedsnr" v="750943" />
	</node>
	<node id="-20568" lat="59.4967388896" lon="10.9845833399">
		<tag k="name" v="Svartebekk" />
		<tag k="ssr:stedsnr" v="750939" />
		<tag k="waterway" v="stream" />
	</node>
	<node id="-20567" lat="59.4947416663" lon="11.0103055526">
		<tag k="name" v="Ødemark" />
		<tag k="place" v="farm" />
		<tag k="ssr:stedsnr" v="750933" />
	</node>
	<node id="-20566" lat="59.4115944421" lon="11.0852027803">
		<tag k="fixme" v="consider natural=peak for the most distinct mountains in the district" />
		<tag k="name" v="Skinnstakkåsen" />
		<tag k="natural" v="hill" />
		<tag k="place" v="locality" />
		<tag k="ssr:stedsnr" v="750687" />
	</node>
	<node id="-20565" lat="59.5000916644" lon="10.8363777861">
		<tag k="alt_name" v="Skårnæs" />
		<tag k="name" v="Skårnes" />
		<tag k="place" v="farm" />
		<tag k="ssr:stedsnr" v="732108" />
	</node>
	<node id="-20564" lat="59.501802775" lon="11.0105388831">
		<tag k="alt_name" v="Bråten" />
		<tag k="name" v="Fløterbråten" />
		<tag k="place" v="farm" />
		<tag k="ssr:stedsnr" v="732104" />
	</node>
	<node id="-20563" lat="59.5167833339" lon="10.8325333325">
		<tag k="alt_name" v="Flakstad mellom" />
		<tag k="name" v="Mellom-Flakestad" />
		<tag k="old_name" v="Flakestad mellem" />
		<tag k="place" v="farm" />
		<tag k="ssr:stedsnr" v="732065" />
	</node>
	<node id="-20562" lat="59.5123472202" lon="10.910536109">
		<tag k="alt_name" v="Veidal;Veidal østre" />
		<tag k="name" v="Østre Veidal" />
		<tag k="place" v="farm" />
		<tag k="ssr:stedsnr" v="732051" />
	</node>
	<node id="-20561" lat="59.511397222" lon="10.8106805594">
		<tag k="alt_name" v="Gylder, m;Gylder mellem" />
		<tag k="name" v="Mellom-Gylder" />
		<tag k="place" v="farm" />
		<tag k="ssr:stedsnr" v="732048" />
	</node>
	<node id="-20560" lat="59.5099250023" lon="10.8325111171">
		<tag k="alt_name" v="Såstad;Såstad nordre" />
		<tag k="name" v="Nordre Såstad" />
		<tag k="place" v="farm" />
		<tag k="ssr:stedsnr" v="732047" />
	</node>
	<node id="-20559" lat="59.5385749983" lon="10.9544472222">
		<tag k="fixme" v="consider natural=peak for the most distinct mountains in the district" />
		<tag k="name" v="Røysås" />
		<tag k="natural" v="hill" />
		<tag k="place" v="locality" />
		<tag k="ssr:stedsnr" v="732044" />
	</node>
	<node id="-20558" lat="59.5236166632" lon="10.8879027859">
		<tag k="fixme" v="consider natural=peak for the most distinct mountains in the district" />
		<tag k="name" v="Røysås" />
		<tag k="natural" v="hill" />
		<tag k="place" v="locality" />
		<tag k="ssr:stedsnr" v="732043" />
	</node>
	<node id="-20557" lat="59.536097226" lon="10.9449666582">
		<tag k="name" v="Slåttemyr" />
		<tag k="place" v="isolated_dwelling" />
		<tag k="ssr:stedsnr" v="732031" />
	</node>
	<node id="-20556" lat="59.53033611" lon="10.8300000076">
		<tag k="alt_name" v="Høgås" />
		<tag k="name" v="Høyås" />
		<tag k="old_name" v="Heiaas;Høiaas" />
		<tag k="place" v="hamlet" />
		<tag k="ssr:stedsnr" v="732003" />
	</node>
	<node id="-20555" lat="59.4500250037" lon="11.0190722232">
		<tag k="fixme" v="consider place=hamlet" />
		<tag k="name" v="Sukke" />
		<tag k="place" v="farm" />
		<tag k="ssr:stedsnr" v="731723" />
	</node>
	<node id="-20554" lat="59.4455222212" lon="10.8484527727">
		<tag k="alt_name" v="Bjørnrødvannet" />
		<tag k="name" v="Bjørnrødvann" />
		<tag k="natural" v="water" />
		<tag k="ssr:stedsnr" v="731328" />
	</node>
	<node id="-20553" lat="59.4501333329" lon="10.8896305501">
		<tag k="name" v="Kilebukta" />
		<tag k="natural" v="bay" />
		<tag k="ssr:stedsnr" v="731322" />
	</node>
	<node id="-20552" lat="59.4527472255" lon="10.7953750025">
		<tag k="alt_name" v="Veker" />
		<tag k="name" v="Hveker" />
		<tag k="place" v="farm" />
		<tag k="ssr:stedsnr" v="730783" />
	</node>
	<node id="-20551" lat="59.4659861135" lon="11.0223888924">
		<tag k="name" v="Bråtegarden" />
		<tag k="place" v="farm" />
		<tag k="ssr:stedsnr" v="730781" />
	</node>
	<node id="-20550" lat="59.4354361148" lon="10.9646888819">
		<tag k="name" v="Laksebekk" />
		<tag k="place" v="isolated_dwelling" />
		<tag k="ssr:stedsnr" v="730362" />
	</node>
	<node id="-20549" lat="59.4352388859" lon="11.0863999962">
		<tag k="alt_name" v="Brokhaug" />
		<tag k="name" v="Brokhaugen" />
		<tag k="place" v="farm" />
		<tag k="ssr:stedsnr" v="730358" />
	</node>
	<node id="-20548" lat="59.4281551419" lon="10.9949343214">
		<tag k="name" v="Sæby" />
		<tag k="place" v="hamlet" />
		<tag k="ssr:stedsnr" v="730346" />
	</node>
	<node id="-20547" lat="59.4209475426" lon="11.077028626">
		<tag k="name" v="Østenrød" />
		<tag k="place" v="farm" />
		<tag k="ssr:stedsnr" v="730324" />
	</node>
	<node id="-20546" lat="59.4039194488" lon="11.0059888889">
		<tag k="name" v="Fjellet" />
		<tag k="place" v="farm" />
		<tag k="ssr:stedsnr" v="730306" />
	</node>
	<node id="-20545" lat="59.4166999961" lon="11.0986249948">
		<tag k="name" v="Rusvik" />
		<tag k="place" v="locality" />
		<tag k="ssr:stedsnr" v="730117" />
	</node>
	<node id="-20544" lat="59.4833805562" lon="10.8718888933">
		<tag k="alt_name" v="Flesberg;Flesberg søndre" />
		<tag k="name" v="Søndre Flesberg" />
		<tag k="place" v="farm" />
		<tag k="ssr:stedsnr" v="731694" />
	</node>
	<node id="-20543" lat="59.4852611149" lon="10.9146749935">
		<tag k="alt_name" v="Væli" />
		<tag k="fixme" v="consider place=hamlet" />
		<tag k="name" v="Veli" />
		<tag k="place" v="farm" />
		<tag k="ssr:stedsnr" v="731684" />
	</node>
	<node id="-20542" lat="59.4885972267" lon="10.8681305476">
		<tag k="amenity" v="place_of_worship" />
		<tag k="denomination" v="lutheran" />
		<tag k="name" v="Våler kirke" />
		<tag k="religion" v="christian" />
		<tag k="ssr:stedsnr" v="731675" />
	</node>
	<node id="-20541" lat="59.4939111111" lon="10.9797388956">
		<tag k="fixme" v="consider natural=peak for the most distinct mountains in the district" />
		<tag k="name" v="Femtegjeldåsen" />
		<tag k="natural" v="hill" />
		<tag k="place" v="locality" />
		<tag k="ssr:stedsnr" v="731670" />
	</node>
	<node id="-20540" lat="59.48623611" lon="10.994975006">
		<tag k="alt_name" v="Solbergtjern" />
		<tag k="name" v="Solbergtjernet" />
		<tag k="natural" v="water" />
		<tag k="ssr:stedsnr" v="731665" />
	</node>
	<node id="-20539" lat="59.4973611147" lon="10.7876333367">
		<tag k="name" v="Lødengtjernet" />
		<tag k="natural" v="water" />
		<tag k="ssr:stedsnr" v="731648" />
	</node>
	<node id="-20538" lat="59.4958527744" lon="11.0535888815">
		<tag k="name" v="Bergsjø" />
		<tag k="place" v="farm" />
		<tag k="ssr:stedsnr" v="731641" />
	</node>
	<node id="-20537" lat="59.4981500021" lon="10.9958000077">
		<tag k="name" v="Sperredalen" />
		<tag k="place" v="farm" />
		<tag k="ssr:stedsnr" v="731637" />
	</node>
	<node id="-20536" lat="59.410594446" lon="10.7960500004">
		<tag k="name" v="Veslenaveren" />
		<tag k="natural" v="strait" />
		<tag k="ssr:stedsnr" v="721642" />
	</node>
	<node id="-20535" lat="59.4582722236" lon="10.8069611106">
		<tag k="name" v="Våk" />
		<tag k="place" v="locality" />
		<tag k="ssr:stedsnr" v="721703" />
	</node>
	<node id="-20534" lat="59.4112916623" lon="11.0325972202">
		<tag k="name" v="Ekornmyr" />
		<tag k="place" v="farm" />
		<tag k="ssr:stedsnr" v="720543" />
	</node>
	<node id="-20533" lat="59.4120333325" lon="11.0055722213">
		<tag k="name" v="Moen" />
		<tag k="place" v="locality" />
		<tag k="ssr:stedsnr" v="720541" />
	</node>
	<node id="-20532" lat="59.4173638852" lon="10.9883861146">
		<tag k="name" v="Bustein" />
		<tag k="place" v="farm" />
		<tag k="ssr:stedsnr" v="720531" />
	</node>
	<node id="-20531" lat="59.4553805552" lon="11.0082277792">
		<tag k="name" v="Bråtetjern" />
		<tag k="natural" v="water" />
		<tag k="ssr:stedsnr" v="720134" />
	</node>
	<node id="-20530" lat="59.5168972178" lon="10.9529611099">
		<tag k="bridge" v="yes" />
		<tag k="layer" v="1" />
		<tag k="name" v="Landsbrua" />
		<tag k="ssr:stedsnr" v="713458" />
	</node>
	<node id="-20529" lat="59.4584583309" lon="10.794741666">
		<tag k="name" v="Teksnes" />
		<tag k="place" v="village" />
		<tag k="ssr:stedsnr" v="692120" />
	</node>
	<node id="-20528" lat="59.4314722213" lon="10.8061277771">
		<tag k="name" v="Brønnerødmosen" />
		<tag k="natural" v="wetland" />
		<tag k="ssr:stedsnr" v="691850" />
	</node>
	<node id="-20527" lat="59.4214472191" lon="10.9955583274">
		<tag k="name" v="Grønnebakke" />
		<tag k="place" v="locality" />
		<tag k="ssr:stedsnr" v="691833" />
	</node>
	<node id="-20526" lat="59.4610472226" lon="10.9988194381">
		<tag k="name" v="Granli" />
		<tag k="place" v="farm" />
		<tag k="ssr:stedsnr" v="691831" />
	</node>
	<node id="-20525" lat="59.4669416709" lon="10.9879555542">
		<tag k="name" v="Kølabunn" />
		<tag k="place" v="locality" />
		<tag k="ssr:stedsnr" v="691803" />
	</node>
	<node id="-20524" lat="59.4680638855" lon="11.0429249994">
		<tag k="name" v="Mørkemyr" />
		<tag k="natural" v="wetland" />
		<tag k="ssr:stedsnr" v="691795" />
	</node>
	<node id="-20523" lat="59.4258444469" lon="10.8784500062">
		<tag k="name" v="Grønnlokk" />
		<tag k="place" v="locality" />
		<tag k="ssr:stedsnr" v="691754" />
	</node>
	<node id="-20522" lat="59.449799998" lon="10.9137250053">
		<tag k="name" v="Nesfossen" />
		<tag k="natural" v="waterfall" />
		<tag k="ssr:stedsnr" v="691751" />
	</node>
	<node id="-20521" lat="59.4458527799" lon="10.8602750081">
		<tag k="name" v="Skirødbekken" />
		<tag k="ssr:stedsnr" v="691750" />
		<tag k="waterway" v="stream" />
	</node>
	<node id="-20520" lat="59.4771416698" lon="10.8540472249">
		<tag k="name" v="Lødeng" />
		<tag k="place" v="farm" />
		<tag k="ssr:stedsnr" v="671728" />
	</node>
	<node id="-20519" lat="59.5022583322" lon="10.9765361061">
		<tag k="name" v="Kastet" />
		<tag k="place" v="farm" />
		<tag k="ssr:stedsnr" v="671092" />
	</node>
	<node id="-20518" lat="59.522513891" lon="10.8180972193">
		<tag k="alt_name" v="Høyås" />
		<tag k="name" v="Ødegården" />
		<tag k="place" v="farm" />
		<tag k="ssr:stedsnr" v="671053" />
	</node>
	<node id="-20517" lat="59.5148305573" lon="10.7890333361">
		<tag k="alt_name" v="Kåter østre;Kåter" />
		<tag k="name" v="Østre Kåter" />
		<tag k="place" v="farm" />
		<tag k="ssr:stedsnr" v="671052" />
	</node>
	<node id="-20516" lat="59.5111277812" lon="10.8569305482">
		<tag k="name" v="Fjellstad" />
		<tag k="place" v="farm" />
		<tag k="ssr:stedsnr" v="671049" />
	</node>
	<node id="-20515" lat="59.509552779" lon="10.8118888845">
		<tag k="alt_name" v="Gylder, østre;Gylder østre" />
		<tag k="name" v="Østre Gylder" />
		<tag k="place" v="farm" />
		<tag k="ssr:stedsnr" v="671045" />
	</node>
	<node id="-20514" lat="59.5140500008" lon="10.8100444453">
		<tag k="alt_name" v="Gylder nordre" />
		<tag k="name" v="Nordre Gylder" />
		<tag k="place" v="farm" />
		<tag k="ssr:stedsnr" v="671046" />
	</node>
	<node id="-20513" lat="59.5241138934" lon="10.8219666632">
		<tag k="name" v="Steinsrud" />
		<tag k="place" v="farm" />
		<tag k="ssr:stedsnr" v="671008" />
	</node>
	<node id="-20512" lat="59.4563458949" lon="11.0091485172">
		<tag k="name" v="Bråtatjerna" />
		<tag k="natural" v="water" />
		<tag k="ssr:stedsnr" v="670722" />
		<tag k="water" v="lake" />
	</node>
	<node id="-20511" lat="59.481280554" lon="10.9029027804">
		<tag k="name" v="Hauger" />
		<tag k="place" v="farm" />
		<tag k="ssr:stedsnr" v="670704" />
	</node>
	<node id="-20510" lat="59.4916583316" lon="10.8746416598">
		<tag k="name" v="Prestegården" />
		<tag k="place" v="farm" />
		<tag k="ssr:stedsnr" v="670685" />
	</node>
	<node id="-20509" lat="59.4739638884" lon="10.8626999958">
		<tag k="name" v="Skallerød" />
		<tag k="place" v="farm" />
		<tag k="ssr:stedsnr" v="669722" />
	</node>
	<node id="-20508" lat="59.4697138857" lon="10.9611805537">
		<tag k="fixme" v="consider place=hamlet" />
		<tag k="name" v="Haugen" />
		<tag k="place" v="farm" />
		<tag k="ssr:stedsnr" v="669716" />
	</node>
	<node id="-20507" lat="59.4687055534" lon="10.7794666644">
		<tag k="name" v="Gjestvang" />
		<tag k="place" v="locality" />
		<tag k="ssr:stedsnr" v="669714" />
	</node>
	<node id="-20506" lat="59.4367611079" lon="11.0365222239">
		<tag k="name" v="Myrvoll" />
		<tag k="place" v="farm" />
		<tag k="ssr:stedsnr" v="669336" />
	</node>
	<node id="-20505" lat="59.4246777771" lon="11.0236444506">
		<tag k="alt_name" v="Onsåker" />
		<tag k="name" v="Onsaker" />
		<tag k="place" v="farm" />
		<tag k="ssr:stedsnr" v="669320" />
	</node>
	<node id="-20504" lat="59.4218527823" lon="11.067722216">
		<tag k="name" v="Furuset" />
		<tag k="place" v="farm" />
		<tag k="ssr:stedsnr" v="669315" />
	</node>
	<node id="-20503" lat="59.4108222251" lon="11.0957916651">
		<tag k="alt_name" v="Langemyr" />
		<tag k="name" v="Langmyra" />
		<tag k="natural" v="wetland" />
		<tag k="ssr:stedsnr" v="669125" />
	</node>
	<node id="-20502" lat="59.4070166652" lon="11.069199999">
		<tag k="fixme" v="consider natural=peak for the most distinct mountains in the district" />
		<tag k="name" v="Hagaåsen" />
		<tag k="natural" v="hill" />
		<tag k="place" v="locality" />
		<tag k="ssr:stedsnr" v="669296" />
	</node>
	<node id="-20501" lat="59.4009111081" lon="10.8544777827">
		<tag k="name" v="Gudøya" />
		<tag k="place" v="islet" />
		<tag k="ssr:stedsnr" v="669282" />
	</node>
	<node id="-20500" lat="59.4075249981" lon="10.7925333287">
		<tag k="name" v="Tømmerøya" />
		<tag k="place" v="islet" />
		<tag k="ssr:stedsnr" v="669281" />
	</node>
	<node id="-20499" lat="59.4088444472" lon="10.8166583319">
		<tag k="name" v="Grannestein" />
		<tag k="natural" v="stone" />
		<tag k="ssr:stedsnr" v="660664" />
	</node>
	<node id="-20498" lat="59.4865777788" lon="10.8726305607">
		<tag k="alt_name" v="Berg vestre" />
		<tag k="name" v="Vestre Berg" />
		<tag k="place" v="farm" />
		<tag k="ssr:stedsnr" v="660639" />
	</node>
	<node id="-20497" lat="59.4258972191" lon="10.8571833291">
		<tag k="landuse" v="meadow" />
		<tag k="name" v="Stareng" />
		<tag k="ssr:stedsnr" v="660546" />
	</node>
	<node id="-20496" lat="59.4062916648" lon="10.7992388953">
		<tag k="name" v="Vaktmesteren" />
		<tag k="place" v="islet" />
		<tag k="ssr:stedsnr" v="659891" />
	</node>
	<node id="-20495" lat="59.4110249994" lon="11.0519111144">
		<tag k="name" v="Struten" />
		<tag k="natural" v="valley" />
		<tag k="place" v="locality" />
		<tag k="ssr:stedsnr" v="659526" />
	</node>
	<node id="-20494" lat="59.4293666676" lon="10.9951749986">
		<tag k="name" v="Sæby" />
		<tag k="place" v="farm" />
		<tag k="ssr:stedsnr" v="659522" />
	</node>
	<node id="-20493" lat="59.4222944421" lon="10.98181944">
		<tag k="name" v="Ertnestangen" />
		<tag k="natural" v="cape" />
		<tag k="ssr:stedsnr" v="659521" />
	</node>
	<node id="-20492" lat="59.4046083368" lon="10.9953750058">
		<tag k="name" v="Lungedalen" />
		<tag k="place" v="locality" />
		<tag k="ssr:stedsnr" v="659516" />
	</node>
	<node id="-20491" lat="59.483933334" lon="11.0614722195">
		<tag k="fixme" v="consider natural=peak for the most distinct mountains in the district" />
		<tag k="name" v="Tveitåsen" />
		<tag k="natural" v="hill" />
		<tag k="place" v="locality" />
		<tag k="ssr:stedsnr" v="659132" />
	</node>
	<node id="-20490" lat="59.4481499989" lon="11.0196722166">
		<tag k="alt_name" v="Sukke søndre" />
		<tag k="name" v="Søndre Sukke" />
		<tag k="place" v="farm" />
		<tag k="ssr:stedsnr" v="659112" />
	</node>
	<node id="-20489" lat="59.4424444414" lon="10.8488499975">
		<tag k="name" v="Bjørnerød" />
		<tag k="place" v="farm" />
		<tag k="ssr:stedsnr" v="658541" />
	</node>
	<node id="-20488" lat="59.4959361107" lon="10.8379027766">
		<tag k="bridge" v="yes" />
		<tag k="layer" v="1" />
		<tag k="name" v="Kobbøl" />
		<tag k="ssr:stedsnr" v="652425" />
	</node>
	<node id="-20487" lat="59.4442250032" lon="10.8543555497">
		<tag k="alt_name" v="Jonsrød søndre" />
		<tag k="name" v="Søndre Jonsrød" />
		<tag k="place" v="farm" />
		<tag k="ssr:stedsnr" v="630819" />
	</node>
	<node id="-20486" lat="59.4772361124" lon="11.0723027818">
		<tag k="name" v="Streperthølet" />
		<tag k="natural" v="bay" />
		<tag k="ssr:stedsnr" v="630817" />
	</node>
	<node id="-20485" lat="59.5288916667" lon="10.8389444357">
		<tag k="name" v="Kurefossen" />
		<tag k="natural" v="waterfall" />
		<tag k="ssr:stedsnr" v="630813" />
	</node>
	<node id="-20484" lat="59.4613999989" lon="10.799222219">
		<tag k="amenity" v="school" />
		<tag k="name" v="Våk skole" />
		<tag k="ssr:stedsnr" v="630803" />
	</node>
	<node id="-20483" lat="59.4071138914" lon="10.809238883">
		<tag k="name" v="Bliksøya" />
		<tag k="place" v="island" />
		<tag k="ssr:stedsnr" v="630797" />
	</node>
	<node id="-20482" lat="59.4409111153" lon="10.9481277757">
		<tag k="name" v="Fossli" />
		<tag k="place" v="locality" />
		<tag k="ssr:stedsnr" v="630789" />
	</node>
	<node id="-20481" lat="59.4709333345" lon="11.0184805596">
		<tag k="bridge" v="yes" />
		<tag k="layer" v="1" />
		<tag k="name" v="Kvernhusbrua" />
		<tag k="ssr:stedsnr" v="630762" />
	</node>
</osm>
