<?xml version="1.0" encoding="UTF-8"?>
<osm generator="osmapis" version="0.6">
	<node id="-20512" lat="59.5168972178" lon="10.9529611099">
		<tag k="bridge" v="yes" />
		<tag k="layer" v="1" />
		<tag k="name" v="Landsbrua" />
		<tag k="ssr:stedsnr" v="713458" />
	</node>
	<node id="-20559" lat="59.4236333378" lon="11.0389388855">
		<tag k="bridge" v="yes" />
		<tag k="layer" v="1" />
		<tag k="name" v="Løkkeberg" />
		<tag k="ssr:stedsnr" v="774489" />
	</node>
	<node id="-20079" lat="60.7232001125" lon="11.7934641179">
		<tag k="name" v="Braskereidfoss stasjon" />
		<tag k="railway" v="station" />
		<tag k="ssr:stedsnr" v="990105" />
		<tag k="train" v="yes" />
	</node>
	<node id="-20440" lat="59.4852027742" lon="10.8964638953">
		<tag k="bridge" v="yes" />
		<tag k="layer" v="1" />
		<tag k="name" v="Holm" />
		<tag k="ssr:stedsnr" v="592484" />
	</node>
	<node id="-20470" lat="59.4959361107" lon="10.8379027766">
		<tag k="bridge" v="yes" />
		<tag k="layer" v="1" />
		<tag k="name" v="Kobbøl" />
		<tag k="ssr:stedsnr" v="652425" />
	</node>
	<node id="-20014" lat="59.4702055516" lon="10.9664861197">
		<tag k="bridge" v="yes" />
		<tag k="layer" v="1" />
		<tag k="name" v="Haugen" />
		<tag k="ssr:stedsnr" v="349508" />
	</node>
	<node id="-20463" lat="59.4709333345" lon="11.0184805596">
		<tag k="bridge" v="yes" />
		<tag k="layer" v="1" />
		<tag k="name" v="Kvernhusbrua" />
		<tag k="ssr:stedsnr" v="630762" />
	</node>
	<node id="-20398" lat="59.456547219" lon="11.0147750047">
		<tag k="bridge" v="yes" />
		<tag k="layer" v="1" />
		<tag k="name" v="Bråte" />
		<tag k="ssr:stedsnr" v="531468" />
	</node>
	<node id="-20141" lat="59.4790777757" lon="10.8757805543">
		<tag k="junction" v="yes" />
		<tag k="name" v="Flesberg" />
		<tag k="place" v="locality" />
		<tag k="ssr:stedsnr" v="53652" />
	</node>
	<node id="-20556" lat="59.4281999998" lon="11.0045194418">
		<tag k="junction" v="yes" />
		<tag k="name" v="Svinndalkrysset" />
		<tag k="place" v="locality" />
		<tag k="ssr:stedsnr" v="751856" />
	</node>
	<node id="-20266" lat="59.5284138901" lon="10.8401611193">
		<tag k="bridge" v="yes" />
		<tag k="layer" v="1" />
		<tag k="name" v="Kure" />
		<tag k="ssr:stedsnr" v="228489" />
	</node>
	<node id="-20072" lat="59.4295972218" lon="11.0022083419">
		<tag k="bridge" v="yes" />
		<tag k="layer" v="1" />
		<tag k="name" v="Fosseberget" />
		<tag k="ssr:stedsnr" v="896463" />
	</node>
	<node id="-20133" lat="59.4840305562" lon="10.8837555544">
		<tag k="bridge" v="yes" />
		<tag k="layer" v="1" />
		<tag k="name" v="Vestland" />
		<tag k="ssr:stedsnr" v="46485" />
	</node>
	<node id="-20132" lat="59.4899472228" lon="10.9230250039">
		<tag k="bridge" v="yes" />
		<tag k="layer" v="1" />
		<tag k="name" v="Nordby" />
		<tag k="ssr:stedsnr" v="46481" />
	</node>
</osm>
