<?xml version="1.0" encoding="UTF-8"?>
<osm generator="osmapis" version="0.6">
	<node id="-20477" lat="59.4997000008" lon="10.9572055619">
		<tag k="alt_name" v="Femtegjelbekken" />
		<tag k="name" v="Femtegjeldbekken" />
		<tag k="ssr:stedsnr" v="628949" />
		<tag k="waterway" v="stream" />
	</node>
	<node id="-20475" lat="59.5299388912" lon="10.9168249948">
		<tag k="alt_name" v="Veidalelva" />
		<tag k="name" v="Veidalselva" />
		<tag k="ssr:stedsnr" v="611056" />
		<tag k="waterway" v="stream" />
	</node>
	<node id="-20462" lat="59.4029972218" lon="10.7978499938">
		<tag k="name" v="Åboren" />
		<tag k="place" v="islet" />
		<tag k="ssr:stedsnr" v="598865" />
	</node>
	<node id="-20460" lat="59.4717916658" lon="10.8975833387">
		<tag k="name" v="Haugerelva" />
		<tag k="ssr:stedsnr" v="598583" />
		<tag k="waterway" v="river" />
	</node>
	<node id="-20455" lat="59.4314916621" lon="10.9665277837">
		<tag k="name" v="Unumselva" />
		<tag k="ssr:stedsnr" v="569833" />
		<tag k="waterway" v="river" />
	</node>
	<node id="-20453" lat="59.4629416673" lon="10.9755722148">
		<tag k="name" v="Lunderbekken" />
		<tag k="ssr:stedsnr" v="569820" />
		<tag k="waterway" v="stream" />
	</node>
	<node id="-20450" lat="59.5025416651" lon="11.0083000014">
		<tag k="name" v="Føterbekken" />
		<tag k="ssr:stedsnr" v="569799" />
		<tag k="waterway" v="stream" />
	</node>
	<node id="-20447" lat="59.4739305524" lon="11.0601611058">
		<tag k="name" v="Langerødbekken" />
		<tag k="ssr:stedsnr" v="569772" />
		<tag k="waterway" v="stream" />
	</node>
	<node id="-20443" lat="59.4889999976" lon="10.9214999922">
		<tag k="name" v="Nordbyelva" />
		<tag k="ssr:stedsnr" v="568878" />
		<tag k="waterway" v="river" />
	</node>
	<node id="-20439" lat="59.5016749991" lon="10.9266416699">
		<tag k="fixme" v="multiple name tags, choose one and add the other to alt_name" />
		<tag k="name" v="Mørkelva;Trollhetta" />
		<tag k="ssr:stedsnr" v="550093" />
		<tag k="waterway" v="stream" />
	</node>
	<node id="-20425" lat="59.4141777819" lon="10.8024611177">
		<tag k="name" v="Kuholmen" />
		<tag k="place" v="islet" />
		<tag k="ssr:stedsnr" v="538665" />
	</node>
	<node id="-20553" lat="59.4501333329" lon="10.8896305501">
		<tag k="name" v="Kilebukta" />
		<tag k="natural" v="bay" />
		<tag k="ssr:stedsnr" v="731322" />
	</node>
	<node id="-20392" lat="59.4802527814" lon="11.0567750029">
		<tag k="name" v="Morttjernet" />
		<tag k="natural" v="water" />
		<tag k="ssr:stedsnr" v="488699" />
	</node>
	<node id="-20388" lat="59.4929027818" lon="11.0313833268">
		<tag k="alt_name" v="Moertjern" />
		<tag k="name" v="Moatjernet" />
		<tag k="natural" v="water" />
		<tag k="ssr:stedsnr" v="488677" />
	</node>
	<node id="-20377" lat="59.4115249967" lon="10.8741055497">
		<tag k="name" v="Dyrholmene" />
		<tag k="place" v="islet" />
		<tag k="ssr:stedsnr" v="487336" />
	</node>
	<node id="-20376" lat="59.394339965" lon="11.0353323549">
		<tag k="fixme" v="multiple name tags, choose one and add the other to alt_name" />
		<tag k="name" v="Agnalttjern;Vasstvettjernet" />
		<tag k="natural" v="water" />
		<tag k="ssr:stedsnr" v="487327" />
	</node>
	<node id="-20374" lat="59.4186499969" lon="11.1009749941">
		<tag k="alt_name" v="Rusviktjern" />
		<tag k="name" v="Rusviktjernet" />
		<tag k="natural" v="water" />
		<tag k="ssr:stedsnr" v="487118" />
	</node>
	<node id="-20370" lat="59.4574694451" lon="10.9941055516">
		<tag k="name" v="Frubekk" />
		<tag k="ssr:stedsnr" v="448859" />
		<tag k="waterway" v="stream" />
	</node>
	<node id="-20364" lat="59.5281694455" lon="10.979169444">
		<tag k="name" v="Nordmørkelva" />
		<tag k="ssr:stedsnr" v="448826" />
		<tag k="waterway" v="stream" />
	</node>
	<node id="-20359" lat="59.4220416655" lon="10.8523388954">
		<tag k="name" v="Mosserosflasken" />
		<tag k="natural" v="strait" />
		<tag k="ssr:stedsnr" v="448785" />
	</node>
	<node id="-20355" lat="59.5305777756" lon="10.8810999922">
		<tag k="alt_name" v="Askerødtjern" />
		<tag k="name" v="Askerødtjernet" />
		<tag k="natural" v="water" />
		<tag k="ssr:stedsnr" v="429009" />
	</node>
	<node id="-20341" lat="59.4303055593" lon="10.8277138947">
		<tag k="name" v="Grepperødfjorden" />
		<tag k="natural" v="bay" />
		<tag k="ssr:stedsnr" v="427373" />
	</node>
	<node id="-20334" lat="59.4085972223" lon="10.820786105">
		<tag k="name" v="Holmefjorden" />
		<tag k="natural" v="water" />
		<tag k="ssr:stedsnr" v="417706" />
	</node>
	<node id="-20325" lat="59.4387194459" lon="11.0226833372">
		<tag k="name" v="Huklabekken" />
		<tag k="ssr:stedsnr" v="266828" />
		<tag k="waterway" v="stream" />
	</node>
	<node id="-20322" lat="59.4941055546" lon="11.0479416619">
		<tag k="name" v="Slora" />
		<tag k="ssr:stedsnr" v="266818" />
		<tag k="waterway" v="river" />
	</node>
	<node id="-20312" lat="59.4150416685" lon="10.8519222296">
		<tag k="name" v="Gjeddesund" />
		<tag k="natural" v="strait" />
		<tag k="ssr:stedsnr" v="266752" />
	</node>
	<node id="-20308" lat="59.4999722201" lon="10.9709694509">
		<tag k="name" v="Kasteneset" />
		<tag k="natural" v="cape" />
		<tag k="ssr:stedsnr" v="264964" />
	</node>
	<node id="-20306" lat="59.4916888903" lon="11.0049833284">
		<tag k="name" v="Fløterbekken" />
		<tag k="ssr:stedsnr" v="264938" />
		<tag k="waterway" v="stream" />
	</node>
	<node id="-20621" lat="59.404227776" lon="11.050877779">
		<tag k="alt_name" v="Svarttjern" />
		<tag k="name" v="Svarttjernet" />
		<tag k="natural" v="water" />
		<tag k="ssr:stedsnr" v="852322" />
	</node>
	<node id="-20297" lat="59.39823889" lon="10.8708500047">
		<tag k="name" v="Østenrødøya" />
		<tag k="place" v="island" />
		<tag k="ssr:stedsnr" v="245296" />
	</node>
	<node id="-20295" lat="59.4011861133" lon="10.8060499945">
		<tag k="name" v="Sundkjeften" />
		<tag k="natural" v="strait" />
		<tag k="ssr:stedsnr" v="235888" />
	</node>
	<node id="-20294" lat="59.404861113" lon="10.8526666605">
		<tag k="alt_name" v="Kreierten nordre" />
		<tag k="name" v="Nordre Kreierten" />
		<tag k="place" v="islet" />
		<tag k="ssr:stedsnr" v="235747" />
	</node>
	<node id="-20293" lat="59.4121416697" lon="10.7919194495">
		<tag k="name" v="Marsholmene" />
		<tag k="place" v="islet" />
		<tag k="ssr:stedsnr" v="235700" />
	</node>
	<node id="-20283" lat="59.4074888851" lon="10.7922805512">
		<tag k="name" v="Store Tømmerøya" />
		<tag k="place" v="island" />
		<tag k="ssr:stedsnr" v="205892" />
	</node>
	<node id="-20282" lat="59.3994416669" lon="10.8213944447">
		<tag k="name" v="Virebukt" />
		<tag k="natural" v="bay" />
		<tag k="ssr:stedsnr" v="205891" />
	</node>
	<node id="-20279" lat="59.3993055549" lon="10.8785555593">
		<tag k="name" v="Tellebergsund" />
		<tag k="natural" v="strait" />
		<tag k="ssr:stedsnr" v="205875" />
	</node>
	<node id="-20278" lat="59.4435194466" lon="10.9251416642">
		<tag k="name" v="Høljeren" />
		<tag k="natural" v="water" />
		<tag k="ssr:stedsnr" v="205874" />
	</node>
	<node id="-20276" lat="59.479235173" lon="11.0718350904">
		<tag k="name" v="Svarttjern" />
		<tag k="natural" v="water" />
		<tag k="ssr:stedsnr" v="205817" />
	</node>
	<node id="-20267" lat="59.4986861069" lon="11.0531666652">
		<tag k="alt_name" v="Bergsjøtjern" />
		<tag k="name" v="Bergsjøtjernet" />
		<tag k="natural" v="water" />
		<tag k="ssr:stedsnr" v="185634" />
	</node>
	<node id="-20265" lat="59.4875527788" lon="11.0626916739">
		<tag k="name" v="Svarttjernet" />
		<tag k="natural" v="water" />
		<tag k="ssr:stedsnr" v="185657" />
	</node>
	<node id="-20261" lat="59.4520333368" lon="10.7862500019">
		<tag k="alt_name" v="Sperbundbukta" />
		<tag k="loc_name" v="Sperrebunnbukta" />
		<tag k="name" v="Sperrebotn" />
		<tag k="natural" v="bay" />
		<tag k="ssr:stedsnr" v="184379" />
	</node>
	<node id="-20260" lat="59.4506444485" lon="10.9054444524">
		<tag k="name" v="Tiurøya" />
		<tag k="place" v="islet" />
		<tag k="ssr:stedsnr" v="184369" />
	</node>
	<node id="-20258" lat="59.443694444" lon="10.8926249944">
		<tag k="alt_name" v="Rosfjorden" />
		<tag k="name" v="Rosefjorden" />
		<tag k="natural" v="bay" />
		<tag k="ssr:stedsnr" v="184366" />
	</node>
	<node id="-20255" lat="59.4027399151" lon="11.0006632803">
		<tag k="alt_name" v="Ravnsjø" />
		<tag k="name" v="Ravnsjøen" />
		<tag k="natural" v="water" />
		<tag k="ssr:stedsnr" v="184307" />
	</node>
	<node id="-20251" lat="59.399594443" lon="10.8471666662">
		<tag k="alt_name" v="Kreierten søndre" />
		<tag k="name" v="Søndre Kreierten" />
		<tag k="place" v="islet" />
		<tag k="ssr:stedsnr" v="174750" />
	</node>
	<node id="-20246" lat="59.4350249997" lon="11.0128583258">
		<tag k="name" v="Sukkebekken" />
		<tag k="ssr:stedsnr" v="174550" />
		<tag k="waterway" v="stream" />
	</node>
	<node id="-20245" lat="59.4603277789" lon="10.9044777739">
		<tag k="name" v="Haugerelva" />
		<tag k="ssr:stedsnr" v="173456" />
		<tag k="waterway" v="river" />
	</node>
	<node id="-20238" lat="59.4686138862" lon="11.0627361181">
		<tag k="name" v="Tjernøyet" />
		<tag k="natural" v="water" />
		<tag k="ssr:stedsnr" v="144799" />
	</node>
	<node id="-20237" lat="59.4357166693" lon="11.0688472223">
		<tag k="name" v="Kirkerødbekken" />
		<tag k="ssr:stedsnr" v="144795" />
		<tag k="waterway" v="stream" />
	</node>
	<node id="-20233" lat="59.4047222181" lon="11.0819499922">
		<tag k="alt_name" v="Svartetjern" />
		<tag k="name" v="Svarttjernet" />
		<tag k="natural" v="water" />
		<tag k="ssr:stedsnr" v="130781" />
	</node>
	<node id="-20223" lat="59.4338111097" lon="10.8022638906">
		<tag k="alt_name" v="Brønnerødtjernet" />
		<tag k="name" v="Brønnerødtjern" />
		<tag k="natural" v="water" />
		<tag k="ssr:stedsnr" v="124306" />
	</node>
	<node id="-20222" lat="59.4452277752" lon="10.8438499932">
		<tag k="name" v="Hobølelva" />
		<tag k="ssr:stedsnr" v="123762" />
		<tag k="waterway" v="river" />
	</node>
	<node id="-20211" lat="59.4049611073" lon="10.8136861115">
		<tag k="name" v="Båtålen" />
		<tag k="natural" v="strait" />
		<tag k="ssr:stedsnr" v="114885" />
	</node>
	<node id="-20210" lat="59.4118944436" lon="10.8495083312">
		<tag k="name" v="Brasenbogen" />
		<tag k="natural" v="bay" />
		<tag k="ssr:stedsnr" v="114735" />
	</node>
	<node id="-20209" lat="59.4112666624" lon="10.7967361081">
		<tag k="name" v="Lille Tømmerøya" />
		<tag k="place" v="island" />
		<tag k="ssr:stedsnr" v="114677" />
	</node>
	<node id="-20208" lat="59.4187472208" lon="10.8111611109">
		<tag k="name" v="Jonsholmen" />
		<tag k="natural" v="cape" />
		<tag k="ssr:stedsnr" v="114672" />
	</node>
	<node id="-20206" lat="59.4554583377" lon="10.9670861032">
		<tag k="name" v="Spjøterbekken" />
		<tag k="ssr:stedsnr" v="114156" />
		<tag k="waterway" v="stream" />
	</node>
	<node id="-20205" lat="59.4486194413" lon="10.9090222281">
		<tag k="name" v="Neset" />
		<tag k="natural" v="cape" />
		<tag k="ssr:stedsnr" v="113498" />
	</node>
	<node id="-20687" lat="59.431783331" lon="10.8083749992">
		<tag k="name" v="Brønnerødbekken" />
		<tag k="ssr:stedsnr" v="934827" />
		<tag k="waterway" v="stream" />
	</node>
	<node id="-20166" lat="59.4286305523" lon="10.9822777694">
		<tag k="name" v="Sæbyvannet" />
		<tag k="natural" v="water" />
		<tag k="ssr:stedsnr" v="63367" />
		<tag k="water" v="lake" />
	</node>
	<node id="-20162" lat="59.4069277737" lon="10.7868888902">
		<tag k="name" v="Mjøsund" />
		<tag k="natural" v="strait" />
		<tag k="ssr:stedsnr" v="53899" />
	</node>
	<node id="-20161" lat="59.3984666698" lon="10.8265833291">
		<tag k="name" v="Haratangen" />
		<tag k="natural" v="cape" />
		<tag k="ssr:stedsnr" v="53894" />
	</node>
	<node id="-20672" lat="59.4801491007" lon="11.064956002">
		<tag k="name" v="Blektjernet" />
		<tag k="natural" v="water" />
		<tag k="ssr:stedsnr" v="913681" />
	</node>
	<node id="-20158" lat="59.3959638844" lon="10.9540916737">
		<tag k="name" v="Vetretjerna" />
		<tag k="natural" v="water" />
		<tag k="ssr:stedsnr" v="53558" />
	</node>
	<node id="-20156" lat="59.4407138861" lon="10.9773416594">
		<tag k="name" v="Engsbekken" />
		<tag k="ssr:stedsnr" v="53533" />
		<tag k="waterway" v="stream" />
	</node>
	<node id="-20660" lat="59.4213527821" lon="10.8828972307">
		<tag k="name" v="Gressøya" />
		<tag k="place" v="island" />
		<tag k="ssr:stedsnr" v="912342" />
	</node>
	<node id="-20659" lat="59.4182055552" lon="10.8601944496">
		<tag k="name" v="Groholmen" />
		<tag k="place" v="islet" />
		<tag k="ssr:stedsnr" v="912341" />
	</node>
	<node id="-20146" lat="59.5156388877" lon="10.9479666578">
		<tag k="name" v="Brårødelva" />
		<tag k="ssr:stedsnr" v="23882" />
		<tag k="waterway" v="river" />
	</node>
	<node id="-20656" lat="59.412555557" lon="10.8146388839">
		<tag k="name" v="Brattholmen" />
		<tag k="natural" v="cape" />
		<tag k="ssr:stedsnr" v="903643" />
	</node>
	<node id="-20141" lat="59.4685666685" lon="11.0541611158">
		<tag k="name" v="Drøkkenbekken" />
		<tag k="ssr:stedsnr" v="23834" />
		<tag k="waterway" v="stream" />
	</node>
	<node id="-20139" lat="59.496011113" lon="10.8673944399">
		<tag k="name" v="Folkestadbekken" />
		<tag k="ssr:stedsnr" v="23809" />
		<tag k="waterway" v="stream" />
	</node>
	<node id="-20138" lat="59.4096777742" lon="10.8936944527">
		<tag k="alt_name" v="Tomnøya" />
		<tag k="name" v="Tombøya" />
		<tag k="place" v="island" />
		<tag k="ssr:stedsnr" v="23795" />
	</node>
	<node id="-20649" lat="59.4153166691" lon="10.8124583294">
		<tag k="name" v="Svalahella" />
		<tag k="natural" v="cape" />
		<tag k="ssr:stedsnr" v="901550" />
	</node>
	<node id="-20133" lat="59.4991805569" lon="10.8700472277">
		<tag k="name" v="Potetbråten" />
		<tag k="place" v="islet" />
		<tag k="ssr:stedsnr" v="22872" />
	</node>
	<node id="-20129" lat="59.4810250022" lon="11.0463166588">
		<tag k="alt_name" v="Igletjern" />
		<tag k="name" v="Igletjernet" />
		<tag k="natural" v="water" />
		<tag k="ssr:stedsnr" v="3684" />
	</node>
	<node id="-20622" lat="59.4125388886" lon="11.0767555494">
		<tag k="alt_name" v="Sverigetjern" />
		<tag k="name" v="Sverigetjernet" />
		<tag k="natural" v="water" />
		<tag k="ssr:stedsnr" v="852326" />
	</node>
	<node id="-20109" lat="59.3974305599" lon="11.0454972227">
		<tag k="alt_name" v="Fisketjern" />
		<tag k="name" v="Fisketjernet" />
		<tag k="natural" v="water" />
		<tag k="ssr:stedsnr" v="2334" />
	</node>
	<node id="-20108" lat="59.4010743394" lon="10.966186721">
		<tag k="alt_name" v="Sjursbråtetjern;Sjursbråtetjern" />
		<tag k="fixme" v="multiple name tags, choose one and add the other to alt_name" />
		<tag k="name" v="Sjursbråtatjerna;Tostentjern" />
		<tag k="natural" v="water" />
		<tag k="ssr:stedsnr" v="2331" />
	</node>
	<node id="-20619" lat="59.4847555529" lon="10.8744194409">
		<tag k="name" v="Kirkeelva" />
		<tag k="ssr:stedsnr" v="842641" />
		<tag k="waterway" v="river" />
	</node>
	<node id="-20616" lat="59.457336112" lon="11.010075003">
		<tag k="name" v="Bråtetjern" />
		<tag k="natural" v="water" />
		<tag k="ssr:stedsnr" v="842082" />
	</node>
	<node id="-20609" lat="59.4456833365" lon="10.9182944512">
		<tag k="name" v="Neselva" />
		<tag k="ssr:stedsnr" v="812867" />
		<tag k="waterway" v="river" />
	</node>
	<node id="-20095" lat="59.4724916657" lon="11.0744666741">
		<tag k="alt_name" v="Langetjern" />
		<tag k="name" v="Langtjernet" />
		<tag k="natural" v="water" />
		<tag k="ssr:stedsnr" v="123750" />
	</node>
	<node id="-20094" lat="59.4788142372" lon="11.0727454448">
		<tag k="fixme" v="multiple name tags, choose one and add the other to alt_name" />
		<tag k="name" v="Mortetjern;Trolltjernet" />
		<tag k="natural" v="water" />
		<tag k="ssr:stedsnr" v="428688" />
	</node>
	<node id="-20604" lat="59.3982916651" lon="10.8534333409">
		<tag k="name" v="Paradisbukta" />
		<tag k="natural" v="bay" />
		<tag k="ssr:stedsnr" v="812782" />
	</node>
	<node id="-20086" lat="59.4153444481" lon="10.803877776">
		<tag k="name" v="Ramsund" />
		<tag k="natural" v="strait" />
		<tag k="ssr:stedsnr" v="478660" />
	</node>
	<node id="-20076" lat="59.426716665" lon="11.0309250074">
		<tag k="name" v="Svinna" />
		<tag k="ssr:stedsnr" v="245327" />
		<tag k="waterway" v="stream" />
	</node>
	<node id="-20587" lat="59.4008" lon="10.8106083373">
		<tag k="name" v="Mortestein" />
		<tag k="place" v="islet" />
		<tag k="ssr:stedsnr" v="781883" />
	</node>
	<node id="-20585" lat="59.4109833373" lon="10.8164750015">
		<tag k="name" v="Flåtastan" />
		<tag k="natural" v="bay" />
		<tag k="ssr:stedsnr" v="781672" />
	</node>
	<node id="-20584" lat="59.4054111151" lon="10.9709138831">
		<tag k="name" v="Sjurebråtetjern" />
		<tag k="natural" v="water" />
		<tag k="ssr:stedsnr" v="781546" />
	</node>
	<node id="-20582" lat="59.4171888878" lon="10.993258325">
		<tag k="name" v="Sæbybunn" />
		<tag k="natural" v="bay" />
		<tag k="ssr:stedsnr" v="781523" />
	</node>
	<node id="-20568" lat="59.4967388896" lon="10.9845833399">
		<tag k="name" v="Svartebekk" />
		<tag k="ssr:stedsnr" v="750939" />
		<tag k="waterway" v="stream" />
	</node>
	<node id="-20054" lat="59.4409111105" lon="10.9530305594">
		<tag k="name" v="Flesjøvannet" />
		<tag k="natural" v="water" />
		<tag k="ssr:stedsnr" v="366372" />
	</node>
	<node id="-20047" lat="59.4218595621" lon="10.943777857">
		<tag k="alt_name" v="Røstadtjern;Rødstadtjern" />
		<tag k="fixme" v="multiple name tags, choose one and add the other to alt_name" />
		<tag k="name" v="Røstadtjernet;Vettretjern" />
		<tag k="natural" v="water" />
		<tag k="ssr:stedsnr" v="366334" />
	</node>
	<node id="-20554" lat="59.4455222212" lon="10.8484527727">
		<tag k="alt_name" v="Bjørnrødvannet" />
		<tag k="name" v="Bjørnrødvann" />
		<tag k="natural" v="water" />
		<tag k="ssr:stedsnr" v="731328" />
	</node>
	<node id="-20041" lat="59.4023527749" lon="10.8014805544">
		<tag k="name" v="Furuholmen" />
		<tag k="place" v="islet" />
		<tag k="ssr:stedsnr" v="356869" />
	</node>
	<node id="-20039" lat="59.4112666689" lon="10.8227444493">
		<tag k="name" v="Kjærnestangen" />
		<tag k="natural" v="cape" />
		<tag k="ssr:stedsnr" v="356664" />
	</node>
	<node id="-20038" lat="59.4175138877" lon="10.8074666634">
		<tag k="name" v="Marikova" />
		<tag k="natural" v="bay" />
		<tag k="ssr:stedsnr" v="356660" />
	</node>
	<node id="-20029" lat="59.4337194407" lon="10.8887833416">
		<tag k="name" v="Angelsprett" />
		<tag k="place" v="island" />
		<tag k="ssr:stedsnr" v="327723" />
	</node>
	<node id="-20540" lat="59.48623611" lon="10.994975006">
		<tag k="alt_name" v="Solbergtjern" />
		<tag k="name" v="Solbergtjernet" />
		<tag k="natural" v="water" />
		<tag k="ssr:stedsnr" v="731665" />
	</node>
	<node id="-20539" lat="59.4973611147" lon="10.7876333367">
		<tag k="name" v="Lødengtjernet" />
		<tag k="natural" v="water" />
		<tag k="ssr:stedsnr" v="731648" />
	</node>
	<node id="-20536" lat="59.410594446" lon="10.7960500004">
		<tag k="name" v="Veslenaveren" />
		<tag k="natural" v="strait" />
		<tag k="ssr:stedsnr" v="721642" />
	</node>
	<node id="-20531" lat="59.4553805552" lon="11.0082277792">
		<tag k="name" v="Bråtetjern" />
		<tag k="natural" v="water" />
		<tag k="ssr:stedsnr" v="720134" />
	</node>
	<node id="-20014" lat="59.4860611155" lon="11.000527779">
		<tag k="alt_name" v="Ulfsrødtjern" />
		<tag k="name" v="Ulfsrødtjernet" />
		<tag k="natural" v="water" />
		<tag k="ssr:stedsnr" v="306666" />
	</node>
	<node id="-20522" lat="59.449799998" lon="10.9137250053">
		<tag k="name" v="Nesfossen" />
		<tag k="natural" v="waterfall" />
		<tag k="ssr:stedsnr" v="691751" />
	</node>
	<node id="-20521" lat="59.4458527799" lon="10.8602750081">
		<tag k="name" v="Skirødbekken" />
		<tag k="ssr:stedsnr" v="691750" />
		<tag k="waterway" v="stream" />
	</node>
	<node id="-20512" lat="59.4563458949" lon="11.0091485172">
		<tag k="name" v="Bråtatjerna" />
		<tag k="natural" v="water" />
		<tag k="ssr:stedsnr" v="670722" />
		<tag k="water" v="lake" />
	</node>
	<node id="-19997" lat="59.4135032853" lon="10.8307052244">
		<tag k="name" v="Rødsengkilen" />
		<tag k="natural" v="bay" />
		<tag k="ssr:stedsnr" v="296650" />
	</node>
	<node id="-19995" lat="59.4813583346" lon="10.8781694522">
		<tag k="name" v="Flesbergtjern" />
		<tag k="natural" v="water" />
		<tag k="ssr:stedsnr" v="296607" />
	</node>
	<node id="-19994" lat="59.4415611086" lon="10.9473888848">
		<tag k="name" v="Klypa" />
		<tag k="place" v="locality" />
		<tag k="ssr:stedsnr" v="295528" />
	</node>
	<node id="-20501" lat="59.4009111081" lon="10.8544777827">
		<tag k="name" v="Gudøya" />
		<tag k="place" v="islet" />
		<tag k="ssr:stedsnr" v="669282" />
	</node>
	<node id="-20500" lat="59.4075249981" lon="10.7925333287">
		<tag k="name" v="Tømmerøya" />
		<tag k="place" v="islet" />
		<tag k="ssr:stedsnr" v="669281" />
	</node>
	<node id="-20496" lat="59.4062916648" lon="10.7992388953">
		<tag k="name" v="Vaktmesteren" />
		<tag k="place" v="islet" />
		<tag k="ssr:stedsnr" v="659891" />
	</node>
	<node id="-20493" lat="59.4222944421" lon="10.98181944">
		<tag k="name" v="Ertnestangen" />
		<tag k="natural" v="cape" />
		<tag k="ssr:stedsnr" v="659521" />
	</node>
	<node id="-20486" lat="59.4772361124" lon="11.0723027818">
		<tag k="name" v="Streperthølet" />
		<tag k="natural" v="bay" />
		<tag k="ssr:stedsnr" v="630817" />
	</node>
	<node id="-20485" lat="59.5288916667" lon="10.8389444357">
		<tag k="name" v="Kurefossen" />
		<tag k="natural" v="waterfall" />
		<tag k="ssr:stedsnr" v="630813" />
	</node>
	<node id="-20483" lat="59.4071138914" lon="10.809238883">
		<tag k="name" v="Bliksøya" />
		<tag k="place" v="island" />
		<tag k="ssr:stedsnr" v="630797" />
	</node>
</osm>
