<?xml version="1.0" encoding="UTF-8"?>
<osm version="0.6" generator="osmapis">
	<node id="31264084" lat="67.2588591" lon="15.3945952" version="15" timestamp="2022-07-15T05:10:13Z" changeset="123633651" uid="3497659" user="NKA">
		<tag k="name" v="Fauske - Fuossko" />
		<tag k="name:no" v="Fauske" />
		<tag k="name:ru" v="Фёуске" />
		<tag k="name:se" v="Fuoisku" />
		<tag k="name:smj" v="Fuossko" />
		<tag k="place" v="town" />
		<tag k="population" v="6310" />
		<tag k="population:date" v="2021-01-01" />
		<tag k="ref:ssb_tettsted" v="7692" />
		<tag k="source:population" v="SSB - befolkning i tettstedet" />
		<tag k="ssr:stedsnr" v="805748" />
		<tag k="wikidata" v="Q4952910" />
	</node>
	<node id="2561169674" lat="67.0952625" lon="16.0058758" version="3" timestamp="2022-07-15T05:10:13Z" changeset="123633651" uid="3497659" user="NKA">
		<tag k="name" v="Jakobsbakken" />
		<tag k="place" v="hamlet" />
		<tag k="ssr:stedsnr" v="562184" />
	</node>
	<node id="2561169675" lat="67.1329051" lon="16.0773781" version="6" timestamp="2022-07-15T05:10:13Z" changeset="123633651" uid="3497659" user="NKA">
		<tag k="name" v="Sulitjelma - Sulisjielmmá" />
		<tag k="name:no" v="Sulitjelma" />
		<tag k="name:smj" v="Sulisjielmmá" />
		<tag k="name:sv" v="Sulitelma" />
		<tag k="old_name:smj" v="Sulečielbma" />
		<tag k="place" v="village" />
		<tag k="population" v="387" />
		<tag k="population:date" v="2021-01-01" />
		<tag k="ref:ssb_tettsted" v="7691" />
		<tag k="source:population" v="SSB - befolkning i tettstedet" />
		<tag k="ssr:stedsnr" v="501208" />
	</node>
	<node id="3397478793" lat="67.3291846" lon="15.1750251" version="2" timestamp="2022-07-15T05:10:13Z" changeset="123633651" uid="3497659" user="NKA">
		<tag k="alt_name" v="Nordvika" />
		<tag k="name" v="Nordvik" />
		<tag k="place" v="hamlet" />
		<tag k="ssr:stedsnr" v="263740" />
	</node>
	<node id="3400330312" lat="67.2654589" lon="15.3131804" version="2" timestamp="2022-07-15T05:10:13Z" changeset="123633651" uid="3497659" user="NKA">
		<tag k="loc_name:smj" v="Loaŋŋga" />
		<tag k="name" v="Klungset" />
		<tag k="name:no" v="Klungset" />
		<tag k="place" v="hamlet" />
		<tag k="ssr:stedsnr" v="119655" />
	</node>
	<node id="3402086742" lat="67.2550214" lon="15.4338362" version="2" timestamp="2022-07-15T05:10:13Z" changeset="123633651" uid="3497659" user="NKA">
		<tag k="loc_name:smj" v="Finnájdde" />
		<tag k="name" v="Finneid" />
		<tag k="name:no" v="Finneid" />
		<tag k="place" v="suburb" />
		<tag k="ssr:stedsnr" v="16747" />
	</node>
	<node id="6205774435" lat="67.3002071" lon="15.1850258" version="6" timestamp="2022-07-15T05:10:13Z" changeset="123633651" uid="3497659" user="NKA">
		<tag k="alt_name" v="Strømsnes" />
		<tag k="name" v="Valnesfjord" />
		<tag k="place" v="village" />
		<tag k="population" v="469" />
		<tag k="population:date" v="2021-01-01" />
		<tag k="ref:ssb_tettsted" v="7693" />
		<tag k="source:population" v="SSB - befolkning i tettstedet" />
		<tag k="ssr:stedsnr" v="566687" />
	</node>
	<node id="7292573307" lat="67.083534" lon="16.043122" version="2" timestamp="2022-01-26T06:22:04Z" changeset="116610177" uid="3497659" user="NKA">
		<tag k="junction" v="yes" />
		<tag k="name" v="Kjellvasskrysset" />
		<tag k="ssr:stedsnr" v="905781" />
	</node>
	<node id="7292574751" lat="67.0849662" lon="16.0271467" version="2" timestamp="2022-01-26T06:22:04Z" changeset="116610177" uid="3497659" user="NKA">
		<tag k="junction" v="yes" />
		<tag k="name" v="Såkikrysset" />
		<tag k="ssr:stedsnr" v="420786" />
	</node>
	<node id="9427514701" lat="67.2240507" lon="15.4144865" version="1" timestamp="2022-01-18T07:49:55Z" changeset="116285062" uid="3497659" user="NKA">
		<tag k="name" v="Tuva leirsted" />
		<tag k="place" v="locality" />
		<tag k="ssr:stedsnr" v="420354" />
	</node>
	<node id="9888885853" lat="67.3212589" lon="15.1741277" version="1" timestamp="2022-07-15T05:10:13Z" changeset="123633651" uid="3497659" user="NKA">
		<tag k="alt_name" v="Nordvik" />
		<tag k="name" v="Stauran" />
		<tag k="place" v="farm" />
		<tag k="ssr:stedsnr" v="389593" />
	</node>
	<node id="9888885854" lat="67.3522833" lon="15.2865917" version="1" timestamp="2022-07-15T05:10:13Z" changeset="123633651" uid="3497659" user="NKA">
		<tag k="name" v="Myrbakk" />
		<tag k="place" v="farm" />
		<tag k="ssr:stedsnr" v="866900" />
	</node>
	<node id="9888885855" lat="67.205828" lon="15.6297231" version="1" timestamp="2022-07-15T05:10:13Z" changeset="123633651" uid="3497659" user="NKA">
		<tag k="alt_name:no" v="Storvik" />
		<tag k="loc_name:smj" v="Stáhpe" />
		<tag k="name" v="Storvika" />
		<tag k="name:no" v="Storvika" />
		<tag k="place" v="hamlet" />
		<tag k="ssr:stedsnr" v="137963" />
	</node>
	<node id="9888885856" lat="67.2250254" lon="15.4060321" version="1" timestamp="2022-07-15T05:10:13Z" changeset="123633651" uid="3497659" user="NKA">
		<tag k="name" v="Vika" />
		<tag k="place" v="hamlet" />
		<tag k="ssr:stedsnr" v="77947" />
	</node>
	<node id="9888885857" lat="67.3458104" lon="15.2835572" version="1" timestamp="2022-07-15T05:10:13Z" changeset="123633651" uid="3497659" user="NKA">
		<tag k="name" v="Telegrafhytta" />
		<tag k="place" v="isolated_dwelling" />
		<tag k="ssr:stedsnr" v="631206" />
	</node>
	<node id="9888885858" lat="67.3731347" lon="15.3074238" version="1" timestamp="2022-07-15T05:10:13Z" changeset="123633651" uid="3497659" user="NKA">
		<tag k="name" v="Forsbakk" />
		<tag k="place" v="farm" />
		<tag k="ssr:stedsnr" v="631837" />
	</node>
	<node id="9888885859" lat="67.3507416" lon="15.2707028" version="1" timestamp="2022-07-15T05:10:13Z" changeset="123633651" uid="3497659" user="NKA">
		<tag k="name" v="Engerud" />
		<tag k="place" v="farm" />
		<tag k="ssr:stedsnr" v="622907" />
	</node>
	<node id="9888885860" lat="67.2586053" lon="15.3678864" version="1" timestamp="2022-07-15T05:10:13Z" changeset="123633651" uid="3497659" user="NKA">
		<tag k="name" v="Erikstad" />
		<tag k="place" v="suburb" />
		<tag k="ssr:stedsnr" v="813217" />
	</node>
	<node id="9888885861" lat="67.3525929" lon="15.2476747" version="1" timestamp="2022-07-15T05:10:13Z" changeset="123633651" uid="3497659" user="NKA">
		<tag k="name" v="Bringsli" />
		<tag k="place" v="hamlet" />
		<tag k="ssr:stedsnr" v="198887" />
	</node>
	<node id="9888885862" lat="67.3654639" lon="15.2524056" version="1" timestamp="2022-07-15T05:10:13Z" changeset="123633651" uid="3497659" user="NKA">
		<tag k="name" v="Bringneslimo" />
		<tag k="place" v="farm" />
		<tag k="ssr:stedsnr" v="849466" />
	</node>
	<node id="9888885863" lat="67.2642833" lon="15.3545723" version="1" timestamp="2022-07-15T05:10:13Z" changeset="123633651" uid="3497659" user="NKA">
		<tag k="name" v="Skogholt" />
		<tag k="place" v="farm" />
		<tag k="ssr:stedsnr" v="327244" />
	</node>
	<node id="9888885864" lat="67.3399836" lon="15.2604692" version="1" timestamp="2022-07-15T05:10:13Z" changeset="123633651" uid="3497659" user="NKA">
		<tag k="name" v="Holmen" />
		<tag k="place" v="farm" />
		<tag k="ssr:stedsnr" v="206151" />
	</node>
	<node id="9888885865" lat="67.2224571" lon="15.3664206" version="1" timestamp="2022-07-15T05:10:13Z" changeset="123633651" uid="3497659" user="NKA">
		<tag k="name" v="Bratteng" />
		<tag k="place" v="farm" />
		<tag k="ssr:stedsnr" v="28821" />
	</node>
	<node id="9888885866" lat="67.2601639" lon="15.3684638" version="1" timestamp="2022-07-15T05:10:13Z" changeset="123633651" uid="3497659" user="NKA">
		<tag k="name" v="Nordbakk" />
		<tag k="place" v="farm" />
		<tag k="ssr:stedsnr" v="788613" />
	</node>
	<node id="9888885867" lat="67.2354362" lon="15.3159755" version="1" timestamp="2022-07-15T05:10:13Z" changeset="123633651" uid="3497659" user="NKA">
		<tag k="name" v="Knurvik" />
		<tag k="place" v="farm" />
		<tag k="ssr:stedsnr" v="242451" />
	</node>
	<node id="9888885868" lat="67.2480889" lon="15.3444362" version="1" timestamp="2022-07-15T05:10:13Z" changeset="123633651" uid="3497659" user="NKA">
		<tag k="name" v="Lundeidet" />
		<tag k="place" v="farm" />
		<tag k="ssr:stedsnr" v="866930" />
	</node>
	<node id="9888885869" lat="67.2344856" lon="15.3170035" version="1" timestamp="2022-07-15T05:10:13Z" changeset="123633651" uid="3497659" user="NKA">
		<tag k="name" v="Knurvika" />
		<tag k="place" v="hamlet" />
		<tag k="ssr:stedsnr" v="77931" />
	</node>
	<node id="9888885870" lat="67.3716659" lon="15.2655773" version="1" timestamp="2022-07-15T05:10:13Z" changeset="123633651" uid="3497659" user="NKA">
		<tag k="name" v="Solstad" />
		<tag k="place" v="farm" />
		<tag k="ssr:stedsnr" v="570877" />
	</node>
	<node id="9888885871" lat="67.2419358" lon="15.3376476" version="1" timestamp="2022-07-15T05:10:13Z" changeset="123633651" uid="3497659" user="NKA">
		<tag k="name" v="Lund vestre" />
		<tag k="place" v="farm" />
		<tag k="ssr:stedsnr" v="786906" />
	</node>
	<node id="9888885872" lat="67.2514384" lon="15.3542006" version="1" timestamp="2022-07-15T05:10:13Z" changeset="123633651" uid="3497659" user="NKA">
		<tag k="loc_name:smj" v="Ærstáde" />
		<tag k="name" v="Erikstad" />
		<tag k="name:no" v="Erikstad" />
		<tag k="place" v="hamlet" />
		<tag k="ssr:stedsnr" v="562761" />
	</node>
	<node id="9888885873" lat="67.2232058" lon="15.359648" version="1" timestamp="2022-07-15T05:10:13Z" changeset="123633651" uid="3497659" user="NKA">
		<tag k="alt_name" v="Øvre Nygård" />
		<tag k="name" v="Nygård" />
		<tag k="place" v="farm" />
		<tag k="ssr:stedsnr" v="684950" />
	</node>
	<node id="9888885874" lat="67.2698061" lon="15.3328067" version="1" timestamp="2022-07-15T05:10:13Z" changeset="123633651" uid="3497659" user="NKA">
		<tag k="name" v="Sommerlia" />
		<tag k="place" v="farm" />
		<tag k="ssr:stedsnr" v="206255" />
	</node>
	<node id="9888885875" lat="67.2336028" lon="15.3126888" version="1" timestamp="2022-07-15T05:10:13Z" changeset="123633651" uid="3497659" user="NKA">
		<tag k="name" v="Ørbansplassen" />
		<tag k="place" v="locality" />
		<tag k="ssr:stedsnr" v="177690" />
	</node>
	<node id="9888885876" lat="67.30355" lon="15.2449167" version="1" timestamp="2022-07-15T05:10:13Z" changeset="123633651" uid="3497659" user="NKA">
		<tag k="historic" v="shieling" />
		<tag k="name" v="Rabbseteren" />
		<tag k="place" v="isolated_dwelling" />
		<tag k="ssr:stedsnr" v="632333" />
	</node>
	<node id="9888885877" lat="67.3610428" lon="15.2480033" version="1" timestamp="2022-07-15T05:10:13Z" changeset="123633651" uid="3497659" user="NKA">
		<tag k="name" v="Nordli" />
		<tag k="place" v="farm" />
		<tag k="ssr:stedsnr" v="561875" />
	</node>
	<node id="9888885878" lat="67.3237189" lon="15.5272045" version="1" timestamp="2022-07-15T05:10:13Z" changeset="123633651" uid="3497659" user="NKA">
		<tag k="name" v="Hestmoen" />
		<tag k="place" v="farm" />
		<tag k="ssr:stedsnr" v="783034" />
	</node>
	<node id="9888885879" lat="67.3710193" lon="15.2657057" version="1" timestamp="2022-07-15T05:10:13Z" changeset="123633651" uid="3497659" user="NKA">
		<tag k="name" v="Forsheim" />
		<tag k="place" v="farm" />
		<tag k="ssr:stedsnr" v="630875" />
	</node>
	<node id="9888885880" lat="67.3531306" lon="15.5073806" version="1" timestamp="2022-07-15T05:10:13Z" changeset="123633651" uid="3497659" user="NKA">
		<tag k="name" v="Høghaugen" />
		<tag k="place" v="farm" />
		<tag k="ssr:stedsnr" v="756845" />
	</node>
	<node id="9888885881" lat="67.3784518" lon="15.283759" version="1" timestamp="2022-07-15T05:10:13Z" changeset="123633651" uid="3497659" user="NKA">
		<tag k="name" v="Korsberget" />
		<tag k="place" v="isolated_dwelling" />
		<tag k="ssr:stedsnr" v="630897" />
	</node>
	<node id="9888885882" lat="67.3280528" lon="15.1833805" version="1" timestamp="2022-07-15T05:10:13Z" changeset="123633651" uid="3497659" user="NKA">
		<tag k="name" v="Nordgård" />
		<tag k="place" v="farm" />
		<tag k="ssr:stedsnr" v="626760" />
	</node>
	<node id="9888885883" lat="67.2456854" lon="15.4615829" version="1" timestamp="2022-07-15T05:10:13Z" changeset="123633651" uid="3497659" user="NKA">
		<tag k="name" v="Vatnvika" />
		<tag k="place" v="farm" />
		<tag k="ssr:stedsnr" v="744918" />
	</node>
	<node id="9888885884" lat="67.285619" lon="15.1784188" version="1" timestamp="2022-07-15T05:10:13Z" changeset="123633651" uid="3497659" user="NKA">
		<tag k="name" v="Brynsmoen" />
		<tag k="place" v="isolated_dwelling" />
		<tag k="ssr:stedsnr" v="420721" />
	</node>
	<node id="9888885885" lat="67.3196444" lon="15.5213251" version="1" timestamp="2022-07-15T05:10:13Z" changeset="123633651" uid="3497659" user="NKA">
		<tag k="name" v="Nygård" />
		<tag k="place" v="farm" />
		<tag k="ssr:stedsnr" v="602043" />
	</node>
	<node id="9888885886" lat="67.3685939" lon="15.2915415" version="1" timestamp="2022-07-15T05:10:13Z" changeset="123633651" uid="3497659" user="NKA">
		<tag k="name" v="Nygård" />
		<tag k="place" v="farm" />
		<tag k="ssr:stedsnr" v="449777" />
	</node>
	<node id="9888885887" lat="67.3434416" lon="15.2545128" version="1" timestamp="2022-07-15T05:10:13Z" changeset="123633651" uid="3497659" user="NKA">
		<tag k="name" v="Laksåbakkan" />
		<tag k="place" v="farm" />
		<tag k="ssr:stedsnr" v="622926" />
	</node>
	<node id="9888885888" lat="67.3851614" lon="15.3482801" version="1" timestamp="2022-07-15T05:10:13Z" changeset="123633651" uid="3497659" user="NKA">
		<tag k="name" v="Østerkløft" />
		<tag k="place" v="hamlet" />
		<tag k="ssr:stedsnr" v="809944" />
	</node>
	<node id="9888885889" lat="67.3337611" lon="15.2759279" version="1" timestamp="2022-07-15T05:10:13Z" changeset="123633651" uid="3497659" user="NKA">
		<tag k="name" v="Skjåvoll" />
		<tag k="place" v="farm" />
		<tag k="ssr:stedsnr" v="359118" />
	</node>
	<node id="9888885890" lat="67.3815983" lon="15.3360723" version="1" timestamp="2022-07-15T05:10:13Z" changeset="123633651" uid="3497659" user="NKA">
		<tag k="name" v="Hopeng" />
		<tag k="place" v="isolated_dwelling" />
		<tag k="ssr:stedsnr" v="723249" />
	</node>
	<node id="9888885891" lat="67.3186787" lon="15.2637253" version="1" timestamp="2022-07-15T05:10:13Z" changeset="123633651" uid="3497659" user="NKA">
		<tag k="name" v="Hammerhøy" />
		<tag k="place" v="farm" />
		<tag k="ssr:stedsnr" v="284716" />
	</node>
	<node id="9888885892" lat="67.3783802" lon="15.2799487" version="1" timestamp="2022-07-15T05:10:13Z" changeset="123633651" uid="3497659" user="NKA">
		<tag k="name" v="Nordmo" />
		<tag k="place" v="farm" />
		<tag k="ssr:stedsnr" v="145910" />
	</node>
	<node id="9888885893" lat="67.2847889" lon="15.4155112" version="1" timestamp="2022-07-15T05:10:13Z" changeset="123633651" uid="3497659" user="NKA">
		<tag k="name" v="Engstad" />
		<tag k="place" v="farm" />
		<tag k="ssr:stedsnr" v="817849" />
	</node>
	<node id="9888885894" lat="67.2883062" lon="15.1586157" version="1" timestamp="2022-07-15T05:10:13Z" changeset="123633651" uid="3497659" user="NKA">
		<tag k="alt_name" v="Heimegarden" />
		<tag k="name" v="Stokland" />
		<tag k="place" v="farm" />
		<tag k="ssr:stedsnr" v="784266" />
	</node>
	<node id="9888885895" lat="67.3748022" lon="15.2653364" version="1" timestamp="2022-07-15T05:10:13Z" changeset="123633651" uid="3497659" user="NKA">
		<tag k="name" v="Haugen" />
		<tag k="place" v="isolated_dwelling" />
		<tag k="ssr:stedsnr" v="145890" />
	</node>
	<node id="9888885896" lat="67.3481656" lon="15.2584718" version="1" timestamp="2022-07-15T05:10:13Z" changeset="123633651" uid="3497659" user="NKA">
		<tag k="name" v="Forsbakk" />
		<tag k="place" v="farm" />
		<tag k="ssr:stedsnr" v="145144" />
	</node>
	<node id="9888885897" lat="67.2868704" lon="15.1406608" version="1" timestamp="2022-07-15T05:10:13Z" changeset="123633651" uid="3497659" user="NKA">
		<tag k="name" v="Brårud" />
		<tag k="place" v="farm" />
		<tag k="ssr:stedsnr" v="752623" />
	</node>
	<node id="9888885898" lat="67.3045361" lon="15.1958471" version="1" timestamp="2022-07-15T05:10:13Z" changeset="123633651" uid="3497659" user="NKA">
		<tag k="name" v="Nerigården" />
		<tag k="place" v="farm" />
		<tag k="ssr:stedsnr" v="145175" />
	</node>
	<node id="9888885899" lat="67.2574129" lon="15.1714432" version="1" timestamp="2022-07-15T05:10:13Z" changeset="123633651" uid="3497659" user="NKA">
		<tag k="name" v="Venset" />
		<tag k="place" v="hamlet" />
		<tag k="ssr:stedsnr" v="748418" />
	</node>
	<node id="9888885900" lat="67.2880649" lon="15.1637498" version="1" timestamp="2022-07-15T05:10:13Z" changeset="123633651" uid="3497659" user="NKA">
		<tag k="loc_name" v="Raudvoll" />
		<tag k="name" v="Rugvoll" />
		<tag k="place" v="farm" />
		<tag k="ssr:stedsnr" v="723251" />
	</node>
	<node id="9888885901" lat="67.2655483" lon="15.3634506" version="1" timestamp="2022-07-15T05:10:13Z" changeset="123633651" uid="3497659" user="NKA">
		<tag k="name" v="Vestmyra" />
		<tag k="place" v="neighbourhood" />
		<tag k="ssr:stedsnr" v="744736" />
	</node>
	<node id="9888885902" lat="67.2961045" lon="15.1886786" version="1" timestamp="2022-07-15T05:10:13Z" changeset="123633651" uid="3497659" user="NKA">
		<tag k="name" v="Øverland" />
		<tag k="place" v="farm" />
		<tag k="ssr:stedsnr" v="89251" />
	</node>
	<node id="9888885903" lat="67.2963935" lon="15.1818223" version="1" timestamp="2022-07-15T05:10:13Z" changeset="123633651" uid="3497659" user="NKA">
		<tag k="name" v="Løkås" />
		<tag k="place" v="hamlet" />
		<tag k="ssr:stedsnr" v="89247" />
	</node>
	<node id="9888885904" lat="67.292027" lon="15.1732096" version="1" timestamp="2022-07-15T05:10:13Z" changeset="123633651" uid="3497659" user="NKA">
		<tag k="name" v="Haug" />
		<tag k="place" v="hamlet" />
		<tag k="ssr:stedsnr" v="687694" />
	</node>
	<node id="9888885905" lat="67.294435" lon="15.1836064" version="1" timestamp="2022-07-15T05:10:13Z" changeset="123633651" uid="3497659" user="NKA">
		<tag k="name" v="Vestre Løkås" />
		<tag k="place" v="farm" />
		<tag k="ssr:stedsnr" v="89243" />
	</node>
	<node id="9888885906" lat="67.3676515" lon="15.2925439" version="1" timestamp="2022-07-15T05:10:13Z" changeset="123633651" uid="3497659" user="NKA">
		<tag k="name" v="Bakken" />
		<tag k="place" v="farm" />
		<tag k="ssr:stedsnr" v="85792" />
	</node>
	<node id="9888885907" lat="67.29245" lon="15.3895355" version="1" timestamp="2022-07-15T05:10:13Z" changeset="123633651" uid="3497659" user="NKA">
		<tag k="alt_name" v="Tortenli" />
		<tag k="name" v="Tortenlia" />
		<tag k="place" v="hamlet" />
		<tag k="ssr:stedsnr" v="683816" />
	</node>
	<node id="9888885908" lat="67.2445242" lon="15.3356196" version="1" timestamp="2022-07-15T05:10:13Z" changeset="123633651" uid="3497659" user="NKA">
		<tag k="name" v="Øvre Lund" />
		<tag k="place" v="farm" />
		<tag k="ssr:stedsnr" v="662677" />
	</node>
	<node id="9888885909" lat="67.3319024" lon="15.2740797" version="1" timestamp="2022-07-15T05:10:13Z" changeset="123633651" uid="3497659" user="NKA">
		<tag k="name" v="Gammelgården" />
		<tag k="place" v="farm" />
		<tag k="ssr:stedsnr" v="85347" />
	</node>
	<node id="9888885910" lat="67.2863648" lon="15.1561814" version="1" timestamp="2022-07-15T05:10:13Z" changeset="123633651" uid="3497659" user="NKA">
		<tag k="alt_name" v="Moland" />
		<tag k="name" v="Meland" />
		<tag k="place" v="farm" />
		<tag k="ssr:stedsnr" v="601231" />
	</node>
	<node id="9888885911" lat="67.2047723" lon="15.7145289" version="1" timestamp="2022-07-15T05:10:13Z" changeset="123633651" uid="3497659" user="NKA">
		<tag k="name" v="Sjønstå gård" />
		<tag k="place" v="farm" />
		<tag k="ssr:stedsnr" v="1079909" />
	</node>
	<node id="9888885912" lat="67.3741746" lon="15.2717983" version="1" timestamp="2022-07-15T05:10:13Z" changeset="123633651" uid="3497659" user="NKA">
		<tag k="alt_name" v="Selbu" />
		<tag k="name" v="Solbu" />
		<tag k="place" v="farm" />
		<tag k="ssr:stedsnr" v="24907" />
	</node>
	<node id="9888885913" lat="67.2989584" lon="15.4687222" version="1" timestamp="2022-07-15T05:10:13Z" changeset="123633651" uid="3497659" user="NKA">
		<tag k="name" v="Lindstad" />
		<tag k="place" v="farm" />
		<tag k="ssr:stedsnr" v="258840" />
	</node>
	<node id="9888885914" lat="67.17085" lon="15.8930583" version="1" timestamp="2022-07-15T05:10:13Z" changeset="123633651" uid="3497659" user="NKA">
		<tag k="name" v="Hellarmo" />
		<tag k="place" v="isolated_dwelling" />
		<tag k="ssr:stedsnr" v="744189" />
	</node>
	<node id="9888885915" lat="67.2880773" lon="15.1765351" version="1" timestamp="2022-07-15T05:10:13Z" changeset="123633651" uid="3497659" user="NKA">
		<tag k="name" v="Haukland" />
		<tag k="place" v="hamlet" />
		<tag k="ssr:stedsnr" v="20699" />
	</node>
	<node id="9888885916" lat="67.3013283" lon="15.1781993" version="1" timestamp="2022-07-15T05:10:13Z" changeset="123633651" uid="3497659" user="NKA">
		<tag k="name" v="Furnesstrand" />
		<tag k="place" v="neighbourhood" />
		<tag k="ssr:stedsnr" v="505652" />
	</node>
	<node id="9888893517" lat="67.2781118" lon="15.1227773" version="1" timestamp="2022-07-15T05:10:13Z" changeset="123633651" uid="3497659" user="NKA">
		<tag k="name" v="Vollan" />
		<tag k="place" v="farm" />
		<tag k="ssr:stedsnr" v="809685" />
	</node>
	<node id="9888893518" lat="67.2821424" lon="15.1455595" version="1" timestamp="2022-07-15T05:10:13Z" changeset="123633651" uid="3497659" user="NKA">
		<tag k="name" v="Bjøllstikkmoen" />
		<tag k="place" v="farm" />
		<tag k="ssr:stedsnr" v="24656" />
	</node>
	<node id="9888893519" lat="67.2564179" lon="15.1755321" version="1" timestamp="2022-07-15T05:10:13Z" changeset="123633651" uid="3497659" user="NKA">
		<tag k="name" v="Vollen" />
		<tag k="place" v="farm" />
		<tag k="ssr:stedsnr" v="206700" />
	</node>
	<node id="9888893520" lat="67.1104738" lon="16.2584329" version="1" timestamp="2022-07-15T05:10:13Z" changeset="123633651" uid="3497659" user="NKA">
		<tag k="name" v="Korsvikhytta" />
		<tag k="place" v="isolated_dwelling" />
		<tag k="ssr:stedsnr" v="723798" />
	</node>
	<node id="9888893521" lat="67.2553444" lon="15.3575194" version="1" timestamp="2022-07-15T05:10:13Z" changeset="123633651" uid="3497659" user="NKA">
		<tag k="name" v="Stranda" />
		<tag k="place" v="suburb" />
		<tag k="ssr:stedsnr" v="926760" />
	</node>
	<node id="9888893522" lat="67.267733" lon="15.3827648" version="1" timestamp="2022-07-15T05:10:13Z" changeset="123633651" uid="3497659" user="NKA">
		<tag k="name" v="Vestre Fauske" />
		<tag k="place" v="locality" />
		<tag k="ssr:stedsnr" v="1075653" />
	</node>
	<node id="9888893523" lat="67.2313833" lon="15.39215" version="1" timestamp="2022-07-15T05:10:13Z" changeset="123633651" uid="3497659" user="NKA">
		<tag k="alt_name" v="Vestgård" />
		<tag k="name" v="Westgård" />
		<tag k="place" v="farm" />
		<tag k="ssr:stedsnr" v="866931" />
	</node>
	<node id="9888893524" lat="67.2671911" lon="15.3098185" version="1" timestamp="2022-07-15T05:10:13Z" changeset="123633651" uid="3497659" user="NKA">
		<tag k="name" v="Moen" />
		<tag k="place" v="farm" />
		<tag k="ssr:stedsnr" v="207334" />
	</node>
	<node id="9888893525" lat="67.3662628" lon="15.2918126" version="1" timestamp="2022-07-15T05:10:13Z" changeset="123633651" uid="3497659" user="NKA">
		<tag k="alt_name:no" v="Bjørnbakk" />
		<tag k="loc_name:smj" v="Biernnabuollda" />
		<tag k="name" v="Bjørnbakkan" />
		<tag k="name:no" v="Bjørnbakkan" />
		<tag k="place" v="hamlet" />
		<tag k="ssr:stedsnr" v="683987" />
	</node>
	<node id="9888893526" lat="67.2854929" lon="15.3758061" version="1" timestamp="2022-07-15T05:10:13Z" changeset="123633651" uid="3497659" user="NKA">
		<tag k="alt_name" v="Lauvgavlen;Løgavlen" />
		<tag k="name" v="Løvgavlen" />
		<tag k="place" v="neighbourhood" />
		<tag k="ssr:stedsnr" v="198865" />
	</node>
	<node id="9888893527" lat="67.2502501" lon="15.3521044" version="1" timestamp="2022-07-15T05:10:13Z" changeset="123633651" uid="3497659" user="NKA">
		<tag k="name" v="Stranda" />
		<tag k="place" v="farm" />
		<tag k="ssr:stedsnr" v="845683" />
	</node>
	<node id="9888893528" lat="67.3640031" lon="15.2852696" version="1" timestamp="2022-07-15T05:10:13Z" changeset="123633651" uid="3497659" user="NKA">
		<tag k="name" v="Åsheim" />
		<tag k="place" v="farm" />
		<tag k="ssr:stedsnr" v="683985" />
	</node>
	<node id="9888893529" lat="67.1405971" lon="16.0312729" version="1" timestamp="2022-07-15T05:10:13Z" changeset="123633651" uid="3497659" user="NKA">
		<tag k="name" v="Furulund" />
		<tag k="place" v="neighbourhood" />
		<tag k="ssr:stedsnr" v="441208" />
	</node>
	<node id="9888893530" lat="67.2812222" lon="15.3702028" version="1" timestamp="2022-07-15T05:10:13Z" changeset="123633651" uid="3497659" user="NKA">
		<tag k="name" v="Lundeng" />
		<tag k="place" v="farm" />
		<tag k="ssr:stedsnr" v="845673" />
	</node>
	<node id="9888893531" lat="67.3174666" lon="15.5178612" version="1" timestamp="2022-07-15T05:10:13Z" changeset="123633651" uid="3497659" user="NKA">
		<tag k="name" v="Steinteigen" />
		<tag k="place" v="farm" />
		<tag k="ssr:stedsnr" v="966088" />
	</node>
	<node id="9888893532" lat="67.2677346" lon="15.3259753" version="1" timestamp="2022-07-15T05:10:13Z" changeset="123633651" uid="3497659" user="NKA">
		<tag k="name" v="Engellia" />
		<tag k="place" v="farm" />
		<tag k="ssr:stedsnr" v="570228" />
	</node>
	<node id="9888893533" lat="67.1575448" lon="15.9762652" version="1" timestamp="2022-07-15T05:10:13Z" changeset="123633651" uid="3497659" user="NKA">
		<tag k="name" v="Grønli" />
		<tag k="place" v="hamlet" />
		<tag k="ssr:stedsnr" v="380216" />
	</node>
	<node id="9888893534" lat="67.3807045" lon="15.3325081" version="1" timestamp="2022-07-15T05:10:13Z" changeset="123633651" uid="3497659" user="NKA">
		<tag k="name" v="Bjerke" />
		<tag k="place" v="farm" />
		<tag k="ssr:stedsnr" v="905240" />
	</node>
	<node id="9888893535" lat="67.268316" lon="15.3108715" version="1" timestamp="2022-07-15T05:10:13Z" changeset="123633651" uid="3497659" user="NKA">
		<tag k="name" v="Ytter-Klungset" />
		<tag k="place" v="farm" />
		<tag k="ssr:stedsnr" v="969854" />
	</node>
	<node id="9888893536" lat="67.1762647" lon="15.8256077" version="1" timestamp="2022-07-15T05:10:13Z" changeset="123633651" uid="3497659" user="NKA">
		<tag k="name" v="Bjørnmyr" />
		<tag k="place" v="farm" />
		<tag k="ssr:stedsnr" v="320262" />
	</node>
	<node id="9888893537" lat="67.2889738" lon="15.421839" version="1" timestamp="2022-07-15T05:10:13Z" changeset="123633651" uid="3497659" user="NKA">
		<tag k="name" v="Bjerkmo" />
		<tag k="place" v="farm" />
		<tag k="ssr:stedsnr" v="574859" />
	</node>
	<node id="9888893538" lat="67.2378696" lon="15.6988761" version="1" timestamp="2022-07-15T05:10:13Z" changeset="123633651" uid="3497659" user="NKA">
		<tag k="name" v="Lakså - Láksoavvo" />
		<tag k="name:no" v="Lakså" />
		<tag k="name:smj" v="Láksoavvo" />
		<tag k="place" v="hamlet" />
		<tag k="ssr:stedsnr" v="805930" />
	</node>
	<node id="9888893539" lat="67.1291888" lon="16.0911223" version="1" timestamp="2022-07-15T05:10:13Z" changeset="123633651" uid="3497659" user="NKA">
		<tag k="name" v="Sandnes" />
		<tag k="place" v="farm" />
		<tag k="ssr:stedsnr" v="56872" />
	</node>
	<node id="9888893540" lat="67.3855282" lon="15.3495412" version="1" timestamp="2022-07-15T05:10:13Z" changeset="123633651" uid="3497659" user="NKA">
		<tag k="name" v="Salbakk" />
		<tag k="place" v="farm" />
		<tag k="ssr:stedsnr" v="744978" />
	</node>
	<node id="9888893541" lat="67.2861198" lon="15.1332028" version="1" timestamp="2022-07-15T05:10:13Z" changeset="123633651" uid="3497659" user="NKA">
		<tag k="name" v="Stemland" />
		<tag k="place" v="hamlet" />
		<tag k="ssr:stedsnr" v="566670" />
	</node>
	<node id="9888893542" lat="67.2966502" lon="15.1896497" version="1" timestamp="2022-07-15T05:10:13Z" changeset="123633651" uid="3497659" user="NKA">
		<tag k="name" v="Gjerde" />
		<tag k="place" v="farm" />
		<tag k="ssr:stedsnr" v="513261" />
	</node>
	<node id="9888893543" lat="67.1390011" lon="16.0911309" version="1" timestamp="2022-07-15T05:10:13Z" changeset="123633651" uid="3497659" user="NKA">
		<tag k="name" v="Sulitjelma" />
		<tag k="place" v="locality" />
		<tag k="ssr:stedsnr" v="1075696" />
	</node>
	<node id="9888893544" lat="67.35265" lon="15.334689" version="1" timestamp="2022-07-15T05:10:13Z" changeset="123633651" uid="3497659" user="NKA">
		<tag k="name" v="Petter-Joheimen" />
		<tag k="place" v="locality" />
		<tag k="ssr:stedsnr" v="510332" />
	</node>
	<node id="9888893545" lat="67.3228944" lon="15.5174195" version="1" timestamp="2022-07-15T05:10:13Z" changeset="123633651" uid="3497659" user="NKA">
		<tag k="name" v="Finnskjeggmoen" />
		<tag k="place" v="farm" />
		<tag k="ssr:stedsnr" v="481034" />
	</node>
	<node id="9888893546" lat="67.3546055" lon="15.2877139" version="1" timestamp="2022-07-15T05:10:13Z" changeset="123633651" uid="3497659" user="NKA">
		<tag k="alt_name" v="Medli" />
		<tag k="name" v="Medlia" />
		<tag k="place" v="farm" />
		<tag k="ssr:stedsnr" v="501854" />
	</node>
	<node id="9888893547" lat="67.3659584" lon="15.2961528" version="1" timestamp="2022-07-15T05:10:13Z" changeset="123633651" uid="3497659" user="NKA">
		<tag k="name" v="Moen" />
		<tag k="place" v="farm" />
		<tag k="ssr:stedsnr" v="328826" />
	</node>
	<node id="9888893548" lat="67.1297305" lon="16.0927738" version="1" timestamp="2022-07-15T05:10:13Z" changeset="123633651" uid="3497659" user="NKA">
		<tag k="name" v="Lomi" />
		<tag k="place" v="neighbourhood" />
		<tag k="ssr:stedsnr" v="845881" />
	</node>
	<node id="9888893549" lat="67.3434027" lon="15.2296941" version="1" timestamp="2022-07-15T05:10:13Z" changeset="123633651" uid="3497659" user="NKA">
		<tag k="name" v="Veslegård" />
		<tag k="place" v="farm" />
		<tag k="ssr:stedsnr" v="449175" />
	</node>
	<node id="9888893550" lat="67.2682951" lon="15.3316441" version="1" timestamp="2022-07-15T05:10:13Z" changeset="123633651" uid="3497659" user="NKA">
		<tag k="alt_name:no" v="Klungset, in" />
		<tag k="loc_name:smj" v="Sisŋep-Loaŋŋga" />
		<tag k="name" v="Indre Klungset" />
		<tag k="name:no" v="Indre Klungset" />
		<tag k="place" v="farm" />
		<tag k="ssr:stedsnr" v="441765" />
	</node>
	<node id="9888893551" lat="67.1504233" lon="15.9788335" version="1" timestamp="2022-07-15T05:10:13Z" changeset="123633651" uid="3497659" user="NKA">
		<tag k="name" v="Storli" />
		<tag k="place" v="farm" />
		<tag k="ssr:stedsnr" v="501207" />
	</node>
	<node id="9888893552" lat="67.2967177" lon="15.4328893" version="1" timestamp="2022-07-15T05:10:13Z" changeset="123633651" uid="3497659" user="NKA">
		<tag k="name" v="Medås" />
		<tag k="place" v="farm" />
		<tag k="ssr:stedsnr" v="440836" />
	</node>
	<node id="9888893553" lat="67.3067222" lon="15.4974444" version="1" timestamp="2022-07-15T05:10:13Z" changeset="123633651" uid="3497659" user="NKA">
		<tag k="loc_name:smj" v="Hoallto" />
		<tag k="name" v="Holtan" />
		<tag k="name:no" v="Holtan" />
		<tag k="place" v="farm" />
		<tag k="ssr:stedsnr" v="440833" />
	</node>
	<node id="9888893554" lat="67.2933506" lon="15.4630675" version="1" timestamp="2022-07-15T05:10:13Z" changeset="123633651" uid="3497659" user="NKA">
		<tag k="name" v="Furutun" />
		<tag k="place" v="farm" />
		<tag k="ssr:stedsnr" v="440850" />
	</node>
	<node id="9888893555" lat="67.1540583" lon="15.974514" version="1" timestamp="2022-07-15T05:10:13Z" changeset="123633651" uid="3497659" user="NKA">
		<tag k="name" v="Furuhaugen" />
		<tag k="place" v="isolated_dwelling" />
		<tag k="ssr:stedsnr" v="623231" />
	</node>
	<node id="9888893556" lat="67.0846445" lon="15.9966333" version="1" timestamp="2022-07-15T05:10:13Z" changeset="123633651" uid="3497659" user="NKA">
		<tag k="name" v="Annabrakka" />
		<tag k="place" v="locality" />
		<tag k="ssr:stedsnr" v="420789" />
	</node>
	<node id="9888893557" lat="67.3819306" lon="15.2892449" version="1" timestamp="2022-07-15T05:10:13Z" changeset="123633651" uid="3497659" user="NKA">
		<tag k="name" v="Skytteli" />
		<tag k="place" v="farm" />
		<tag k="ssr:stedsnr" v="16971" />
	</node>
	<node id="9888893558" lat="67.3415014" lon="15.2742413" version="1" timestamp="2022-07-15T05:10:13Z" changeset="123633651" uid="3497659" user="NKA">
		<tag k="name" v="Skoglund" />
		<tag k="place" v="farm" />
		<tag k="ssr:stedsnr" v="388101" />
	</node>
	<node id="9888893559" lat="67.4192114" lon="15.386864" version="1" timestamp="2022-07-15T05:10:13Z" changeset="123633651" uid="3497659" user="NKA">
		<tag k="name" v="Halshaugen" />
		<tag k="place" v="locality" />
		<tag k="ssr:stedsnr" v="1075130" />
	</node>
	<node id="9888893560" lat="67.333258" lon="15.5561083" version="1" timestamp="2022-07-15T05:10:13Z" changeset="123633651" uid="3497659" user="NKA">
		<tag k="name" v="Stormoen" />
		<tag k="place" v="farm" />
		<tag k="ssr:stedsnr" v="319937" />
	</node>
	<node id="9888893561" lat="67.1214476" lon="16.0909992" version="1" timestamp="2022-07-15T05:10:13Z" changeset="123633651" uid="3497659" user="NKA">
		<tag k="name" v="Fagermoen" />
		<tag k="place" v="farm" />
		<tag k="ssr:stedsnr" v="177871" />
	</node>
	<node id="9888893562" lat="67.3073194" lon="15.2406889" version="1" timestamp="2022-07-15T05:10:13Z" changeset="123633651" uid="3497659" user="NKA">
		<tag k="name" v="Skarpmoen" />
		<tag k="place" v="farm" />
		<tag k="ssr:stedsnr" v="744816" />
	</node>
	<node id="9888893563" lat="67.3233666" lon="15.3179943" version="1" timestamp="2022-07-15T05:10:13Z" changeset="123633651" uid="3497659" user="NKA">
		<tag k="name" v="Øverhytta" />
		<tag k="place" v="isolated_dwelling" />
		<tag k="ssr:stedsnr" v="874377" />
	</node>
	<node id="9888893564" lat="67.262447" lon="15.4283258" version="1" timestamp="2022-07-15T05:10:13Z" changeset="123633651" uid="3497659" user="NKA">
		<tag k="name" v="Brekke" />
		<tag k="place" v="quarter" />
		<tag k="ssr:stedsnr" v="268871" />
	</node>
	<node id="9888893565" lat="67.4035121" lon="15.4011874" version="1" timestamp="2022-07-15T05:10:13Z" changeset="123633651" uid="3497659" user="NKA">
		<tag k="alt_name" v="Fridal" />
		<tag k="name" v="Fridalen" />
		<tag k="place" v="farm" />
		<tag k="ssr:stedsnr" v="622967" />
	</node>
	<node id="9888893566" lat="67.3508553" lon="15.2845065" version="1" timestamp="2022-07-15T05:10:13Z" changeset="123633651" uid="3497659" user="NKA">
		<tag k="name" v="Hagen" />
		<tag k="place" v="farm" />
		<tag k="ssr:stedsnr" v="267194" />
	</node>
	<node id="9888893567" lat="67.3443302" lon="15.4847772" version="1" timestamp="2022-07-15T05:10:13Z" changeset="123633651" uid="3497659" user="NKA">
		<tag k="name" v="Tofte" />
		<tag k="place" v="farm" />
		<tag k="ssr:stedsnr" v="259895" />
	</node>
	<node id="9888893568" lat="67.2700663" lon="15.4294764" version="1" timestamp="2022-07-15T05:10:13Z" changeset="123633651" uid="3497659" user="NKA">
		<tag k="name" v="Skjåheia" />
		<tag k="place" v="neighbourhood" />
		<tag k="ssr:stedsnr" v="259754" />
	</node>
	<node id="9888893569" lat="67.2959868" lon="15.1543754" version="1" timestamp="2022-07-15T05:10:13Z" changeset="123633651" uid="3497659" user="NKA">
		<tag k="name" v="Førrnes" />
		<tag k="place" v="farm" />
		<tag k="ssr:stedsnr" v="161767" />
	</node>
	<node id="9888893570" lat="67.4105357" lon="15.3198924" version="1" timestamp="2022-07-15T05:10:13Z" changeset="123633651" uid="3497659" user="NKA">
		<tag k="alt_name" v="Vestvatnli" />
		<tag k="name" v="Hola" />
		<tag k="place" v="hamlet" />
		<tag k="ssr:stedsnr" v="198951" />
	</node>
	<node id="9888893571" lat="67.3692805" lon="15.2960145" version="1" timestamp="2022-07-15T05:10:13Z" changeset="123633651" uid="3497659" user="NKA">
		<tag k="name" v="Rydningen" />
		<tag k="place" v="farm" />
		<tag k="ssr:stedsnr" v="570793" />
	</node>
	<node id="9888893572" lat="67.2560472" lon="15.1704999" version="1" timestamp="2022-07-15T05:10:13Z" changeset="123633651" uid="3497659" user="NKA">
		<tag k="name" v="Molandsplassen" />
		<tag k="place" v="farm" />
		<tag k="ssr:stedsnr" v="631720" />
	</node>
	<node id="9888893573" lat="67.2823667" lon="15.1365277" version="1" timestamp="2022-07-15T05:10:13Z" changeset="123633651" uid="3497659" user="NKA">
		<tag k="name" v="Lillestorkarsmoen" />
		<tag k="place" v="farm" />
		<tag k="ssr:stedsnr" v="267595" />
	</node>
	<node id="9888893574" lat="67.3856583" lon="15.3602444" version="1" timestamp="2022-07-15T05:10:13Z" changeset="123633651" uid="3497659" user="NKA">
		<tag k="alt_name" v="Nordbakk" />
		<tag k="name" v="Nordbakken" />
		<tag k="place" v="farm" />
		<tag k="ssr:stedsnr" v="570751" />
	</node>
	<node id="9888893575" lat="67.341925" lon="15.3859721" version="1" timestamp="2022-07-15T05:10:13Z" changeset="123633651" uid="3497659" user="NKA">
		<tag k="name" v="Gammplassen" />
		<tag k="place" v="locality" />
		<tag k="ssr:stedsnr" v="509312" />
	</node>
	<node id="9888893576" lat="67.3565389" lon="15.2472583" version="1" timestamp="2022-07-15T05:10:13Z" changeset="123633651" uid="3497659" user="NKA">
		<tag k="name" v="Lien" />
		<tag k="place" v="farm" />
		<tag k="ssr:stedsnr" v="117650" />
	</node>
	<node id="9888893577" lat="67.2616945" lon="15.1591557" version="1" timestamp="2022-07-15T05:10:13Z" changeset="123633651" uid="3497659" user="NKA">
		<tag k="name" v="Øverland" />
		<tag k="place" v="farm" />
		<tag k="ssr:stedsnr" v="85691" />
	</node>
	<node id="9888893578" lat="67.2767333" lon="15.1046249" version="1" timestamp="2022-07-15T05:10:13Z" changeset="123633651" uid="3497659" user="NKA">
		<tag k="alt_name" v="Lundbakkan" />
		<tag k="name" v="Lundbakk" />
		<tag k="place" v="farm" />
		<tag k="ssr:stedsnr" v="81685" />
	</node>
	<node id="9888893579" lat="67.3117334" lon="15.4193222" version="1" timestamp="2022-07-15T05:10:13Z" changeset="123633651" uid="3497659" user="NKA">
		<tag k="name" v="Nordhus" />
		<tag k="place" v="farm" />
		<tag k="ssr:stedsnr" v="562827" />
	</node>
	<node id="9888893580" lat="67.3210528" lon="15.5074805" version="1" timestamp="2022-07-15T05:10:13Z" changeset="123633651" uid="3497659" user="NKA">
		<tag k="name" v="Solvoll" />
		<tag k="place" v="farm" />
		<tag k="ssr:stedsnr" v="137799" />
	</node>
	<node id="9888893581" lat="67.2975541" lon="15.395611" version="1" timestamp="2022-07-15T05:10:13Z" changeset="123633651" uid="3497659" user="NKA">
		<tag k="name" v="Rugås" />
		<tag k="place" v="farm" />
		<tag k="ssr:stedsnr" v="561847" />
	</node>
	<node id="9888893582" lat="67.2485093" lon="15.494312" version="1" timestamp="2022-07-15T05:10:13Z" changeset="123633651" uid="3497659" user="NKA">
		<tag k="name" v="Mosti" />
		<tag k="place" v="farm" />
		<tag k="ssr:stedsnr" v="926924" />
	</node>
	<node id="9888893583" lat="67.3844323" lon="15.3227465" version="1" timestamp="2022-07-15T05:10:13Z" changeset="123633651" uid="3497659" user="NKA">
		<tag k="name" v="Lilleli" />
		<tag k="place" v="isolated_dwelling" />
		<tag k="ssr:stedsnr" v="541354" />
	</node>
	<node id="9888893584" lat="67.3267139" lon="15.4164943" version="1" timestamp="2022-07-15T05:10:13Z" changeset="123633651" uid="3497659" user="NKA">
		<tag k="name" v="Larshytta" />
		<tag k="place" v="isolated_dwelling" />
		<tag k="ssr:stedsnr" v="420019" />
	</node>
	<node id="9888893585" lat="67.3781858" lon="15.3185977" version="1" timestamp="2022-07-15T05:10:13Z" changeset="123633651" uid="3497659" user="NKA">
		<tag k="name" v="Trudvang" />
		<tag k="place" v="farm" />
		<tag k="ssr:stedsnr" v="541267" />
	</node>
	<node id="9888893586" lat="67.2391748" lon="15.5009497" version="1" timestamp="2022-07-15T05:10:13Z" changeset="123633651" uid="3497659" user="NKA">
		<tag k="loc_name:se" v="Muvvo" />
		<tag k="name" v="Moen" />
		<tag k="name:no" v="Moen" />
		<tag k="place" v="hamlet" />
		<tag k="ssr:stedsnr" v="441940" />
	</node>
	<node id="9888893587" lat="67.2658222" lon="15.3412362" version="1" timestamp="2022-07-15T05:10:13Z" changeset="123633651" uid="3497659" user="NKA">
		<tag k="name" v="Gåseskogan" />
		<tag k="place" v="farm" />
		<tag k="ssr:stedsnr" v="449257" />
	</node>
	<node id="9888893588" lat="67.3104111" lon="15.4175112" version="1" timestamp="2022-07-15T05:10:13Z" changeset="123633651" uid="3497659" user="NKA">
		<tag k="name" v="Tråvollen" />
		<tag k="place" v="farm" />
		<tag k="ssr:stedsnr" v="137802" />
	</node>
	<node id="9888893589" lat="67.2692805" lon="15.2267417" version="1" timestamp="2022-07-15T05:10:13Z" changeset="123633651" uid="3497659" user="NKA">
		<tag k="name" v="Granli" />
		<tag k="place" v="farm" />
		<tag k="ssr:stedsnr" v="441760" />
	</node>
	<node id="9888893590" lat="67.384394" lon="15.3114772" version="1" timestamp="2022-07-15T05:10:13Z" changeset="123633651" uid="3497659" user="NKA">
		<tag k="name" v="Gamhaugen" />
		<tag k="place" v="farm" />
		<tag k="ssr:stedsnr" v="177321" />
	</node>
	<node id="9888893591" lat="67.2691278" lon="15.4210888" version="1" timestamp="2022-07-15T05:10:13Z" changeset="123633651" uid="3497659" user="NKA">
		<tag k="name" v="Storsteinen" />
		<tag k="place" v="quarter" />
		<tag k="ssr:stedsnr" v="390922" />
	</node>
	<node id="9888893592" lat="67.4030522" lon="15.3204965" version="1" timestamp="2022-07-15T05:10:13Z" changeset="123633651" uid="3497659" user="NKA">
		<tag k="name" v="Eidet" />
		<tag k="place" v="farm" />
		<tag k="ssr:stedsnr" v="116270" />
	</node>
	<node id="9888893593" lat="67.3393181" lon="15.2308896" version="1" timestamp="2022-07-15T05:10:13Z" changeset="123633651" uid="3497659" user="NKA">
		<tag k="name" v="Vangen" />
		<tag k="place" v="farm" />
		<tag k="ssr:stedsnr" v="319922" />
	</node>
	<node id="9888893594" lat="67.2485173" lon="15.4792225" version="1" timestamp="2022-07-15T05:10:13Z" changeset="123633651" uid="3497659" user="NKA">
		<tag k="name" v="Vatnan" />
		<tag k="place" v="hamlet" />
		<tag k="ssr:stedsnr" v="562914" />
	</node>
	<node id="9888893595" lat="67.3790389" lon="15.3136138" version="1" timestamp="2022-07-15T05:10:13Z" changeset="123633651" uid="3497659" user="NKA">
		<tag k="name" v="Skogmo" />
		<tag k="place" v="farm" />
		<tag k="ssr:stedsnr" v="85787" />
	</node>
	<node id="9888893596" lat="67.3055785" lon="15.2182646" version="1" timestamp="2022-07-15T05:10:13Z" changeset="123633651" uid="3497659" user="NKA">
		<tag k="alt_name" v="Osphaugen" />
		<tag k="name" v="Asphaug" />
		<tag k="place" v="farm" />
		<tag k="ssr:stedsnr" v="259846" />
	</node>
	<node id="9888893597" lat="67.2897453" lon="15.4237501" version="1" timestamp="2022-07-15T05:10:13Z" changeset="123633651" uid="3497659" user="NKA">
		<tag k="name" v="Solvang" />
		<tag k="place" v="farm" />
		<tag k="ssr:stedsnr" v="938828" />
	</node>
	<node id="9888893598" lat="67.2960839" lon="15.4336625" version="1" timestamp="2022-07-15T05:10:13Z" changeset="123633651" uid="3497659" user="NKA">
		<tag k="name" v="Heimvoll" />
		<tag k="place" v="farm" />
		<tag k="ssr:stedsnr" v="210820" />
	</node>
	<node id="9888893599" lat="67.394885" lon="15.3800067" version="1" timestamp="2022-07-15T05:10:13Z" changeset="123633651" uid="3497659" user="NKA">
		<tag k="name" v="Reingjerde" />
		<tag k="place" v="locality" />
		<tag k="ssr:stedsnr" v="238340" />
	</node>
	<node id="9888893600" lat="67.2686666" lon="15.4185195" version="1" timestamp="2022-07-15T05:10:13Z" changeset="123633651" uid="3497659" user="NKA">
		<tag k="name" v="Lithaugen" />
		<tag k="place" v="neighbourhood" />
		<tag k="ssr:stedsnr" v="693916" />
	</node>
	<node id="9888893601" lat="67.2525311" lon="15.7362753" version="1" timestamp="2022-07-15T05:10:13Z" changeset="123633651" uid="3497659" user="NKA">
		<tag k="name" v="Nordal" />
		<tag k="place" v="farm" />
		<tag k="ssr:stedsnr" v="77336" />
	</node>
	<node id="9888893602" lat="67.2434677" lon="15.5117534" version="1" timestamp="2022-07-15T05:10:13Z" changeset="123633651" uid="3497659" user="NKA">
		<tag k="alt_name" v="Gjemgang;Gjemgam" />
		<tag k="name" v="Hjemgam" />
		<tag k="place" v="hamlet" />
		<tag k="ssr:stedsnr" v="137926" />
	</node>
	<node id="9888893603" lat="67.2793611" lon="15.3802806" version="1" timestamp="2022-07-15T05:10:13Z" changeset="123633651" uid="3497659" user="NKA">
		<tag k="name" v="Molund" />
		<tag k="place" v="farm" />
		<tag k="ssr:stedsnr" v="501848" />
	</node>
	<node id="9888893604" lat="67.2617162" lon="15.3984377" version="1" timestamp="2022-07-15T05:10:13Z" changeset="123633651" uid="3497659" user="NKA">
		<tag k="name" v="Moen" />
		<tag k="place" v="neighbourhood" />
		<tag k="ssr:stedsnr" v="662631" />
	</node>
	<node id="9888893605" lat="67.2413625" lon="15.4270201" version="1" timestamp="2022-07-15T05:10:13Z" changeset="123633651" uid="3497659" user="NKA">
		<tag k="alt_name" v="Vaskardmoen" />
		<tag k="name" v="Vaskarmoen" />
		<tag k="place" v="farm" />
		<tag k="ssr:stedsnr" v="259922" />
	</node>
	<node id="9888893606" lat="67.2591072" lon="15.3643185" version="1" timestamp="2022-07-15T05:10:13Z" changeset="123633651" uid="3497659" user="NKA">
		<tag k="name" v="Lynghaug" />
		<tag k="place" v="farm" />
		<tag k="ssr:stedsnr" v="60615" />
	</node>
	<node id="9888893607" lat="67.282879" lon="15.4114478" version="1" timestamp="2022-07-15T05:10:13Z" changeset="123633651" uid="3497659" user="NKA">
		<tag k="name" v="Kjeldås" />
		<tag k="place" v="farm" />
		<tag k="ssr:stedsnr" v="137848" />
	</node>
	<node id="9888893608" lat="67.236888" lon="15.256066" version="1" timestamp="2022-07-15T05:10:13Z" changeset="123633651" uid="3497659" user="NKA">
		<tag k="name" v="Øynes" />
		<tag k="place" v="hamlet" />
		<tag k="ssr:stedsnr" v="77937" />
	</node>
	<node id="9888893609" lat="67.3209153" lon="15.5228568" version="1" timestamp="2022-07-15T05:10:13Z" changeset="123633651" uid="3497659" user="NKA">
		<tag k="name" v="Bonjord" />
		<tag k="place" v="farm" />
		<tag k="ssr:stedsnr" v="602045" />
	</node>
	<node id="9888893610" lat="67.2111972" lon="15.533575" version="1" timestamp="2022-07-15T05:10:13Z" changeset="123633651" uid="3497659" user="NKA">
		<tag k="name" v="Pålheimen" />
		<tag k="place" v="isolated_dwelling" />
		<tag k="ssr:stedsnr" v="359340" />
	</node>
	<node id="9888893611" lat="67.2998305" lon="15.4392472" version="1" timestamp="2022-07-15T05:10:13Z" changeset="123633651" uid="3497659" user="NKA">
		<tag k="name" v="Åsbakk" />
		<tag k="place" v="farm" />
		<tag k="ssr:stedsnr" v="101997" />
	</node>
	<node id="9888893612" lat="67.2870379" lon="15.4193669" version="1" timestamp="2022-07-15T05:10:13Z" changeset="123633651" uid="3497659" user="NKA">
		<tag k="name" v="Aasen" />
		<tag k="place" v="farm" />
		<tag k="ssr:stedsnr" v="878839" />
	</node>
	<node id="9888893613" lat="67.2891273" lon="15.429134" version="1" timestamp="2022-07-15T05:10:13Z" changeset="123633651" uid="3497659" user="NKA">
		<tag k="name" v="Heimås" />
		<tag k="place" v="farm" />
		<tag k="ssr:stedsnr" v="1075654" />
	</node>
	<node id="9888893614" lat="67.2707666" lon="15.3906111" version="1" timestamp="2022-07-15T05:10:13Z" changeset="123633651" uid="3497659" user="NKA">
		<tag k="name" v="Søbbesva" />
		<tag k="place" v="neighbourhood" />
		<tag k="ssr:stedsnr" v="875274" />
	</node>
	<node id="9888893615" lat="67.2927639" lon="15.4272778" version="1" timestamp="2022-07-15T05:10:13Z" changeset="123633651" uid="3497659" user="NKA">
		<tag k="name" v="Aldersletten" />
		<tag k="place" v="farm" />
		<tag k="ssr:stedsnr" v="878833" />
	</node>
	<node id="9888893616" lat="67.2417557" lon="15.5147258" version="1" timestamp="2022-07-15T05:10:13Z" changeset="123633651" uid="3497659" user="NKA">
		<tag k="loc_name:no" v="Gjemgam" />
		<tag k="name" v="Hjemgam - Jiemgábmá" />
		<tag k="name:no" v="Hjemgam" />
		<tag k="name:se" v="Jiemgábmá" />
		<tag k="place" v="farm" />
		<tag k="ssr:stedsnr" v="222701" />
	</node>
	<node id="9888893617" lat="67.228712" lon="15.3926082" version="1" timestamp="2022-07-15T05:10:13Z" changeset="123633651" uid="3497659" user="NKA">
		<tag k="name" v="Haugen" />
		<tag k="place" v="farm" />
		<tag k="ssr:stedsnr" v="756809" />
	</node>
	<node id="9888893618" lat="67.2259305" lon="15.3891847" version="1" timestamp="2022-07-15T05:10:13Z" changeset="123633651" uid="3497659" user="NKA">
		<tag k="name" v="Nylend" />
		<tag k="place" v="farm" />
		<tag k="ssr:stedsnr" v="756810" />
	</node>
	<node id="9888893619" lat="67.3003928" lon="15.4284995" version="1" timestamp="2022-07-15T05:10:13Z" changeset="123633651" uid="3497659" user="NKA">
		<tag k="alt_name" v="Åsbakk" />
		<tag k="name" v="Åsbakken" />
		<tag k="place" v="farm" />
		<tag k="ssr:stedsnr" v="865840" />
	</node>
	<node id="9888893620" lat="67.2152" lon="15.4036416" version="1" timestamp="2022-07-15T05:10:13Z" changeset="123633651" uid="3497659" user="NKA">
		<tag k="name" v="Sandsæte" />
		<tag k="place" v="isolated_dwelling" />
		<tag k="ssr:stedsnr" v="710552" />
	</node>
	<node id="9888893621" lat="67.2724555" lon="15.0449499" version="1" timestamp="2022-07-15T05:10:13Z" changeset="123633651" uid="3497659" user="NKA">
		<tag k="name" v="Ytterteigen" />
		<tag k="place" v="isolated_dwelling" />
		<tag k="ssr:stedsnr" v="238726" />
	</node>
	<node id="9888893622" lat="67.1802843" lon="15.7235452" version="1" timestamp="2022-07-15T05:10:13Z" changeset="123633651" uid="3497659" user="NKA">
		<tag k="alt_name" v="Stormo" />
		<tag k="name" v="Stormoen" />
		<tag k="place" v="hamlet" />
		<tag k="ssr:stedsnr" v="380237" />
	</node>
	<node id="9888893623" lat="67.2451702" lon="15.3387556" version="1" timestamp="2022-07-15T05:10:13Z" changeset="123633651" uid="3497659" user="NKA">
		<tag k="loc_name:smj" v="Lunnda" />
		<tag k="name" v="Lund" />
		<tag k="name:no" v="Lund" />
		<tag k="place" v="hamlet" />
		<tag k="ssr:stedsnr" v="967861" />
	</node>
	<node id="9888893624" lat="67.2971864" lon="15.1534317" version="1" timestamp="2022-07-15T05:10:13Z" changeset="123633651" uid="3497659" user="NKA">
		<tag k="alt_name" v="Forrnes" />
		<tag k="name" v="Furnes" />
		<tag k="place" v="hamlet" />
		<tag k="ssr:stedsnr" v="263697" />
	</node>
	<node id="9888893625" lat="67.2235075" lon="15.3836637" version="1" timestamp="2022-07-15T05:10:13Z" changeset="123633651" uid="3497659" user="NKA">
		<tag k="name" v="Pederstallen" />
		<tag k="place" v="locality" />
		<tag k="ssr:stedsnr" v="634810" />
	</node>
	<node id="9888893626" lat="67.2460009" lon="15.4648525" version="1" timestamp="2022-07-15T05:10:13Z" changeset="123633651" uid="3497659" user="NKA">
		<tag k="name" v="Storsteinnes" />
		<tag k="place" v="farm" />
		<tag k="ssr:stedsnr" v="562913" />
	</node>
	<node id="9888893627" lat="67.2859445" lon="15.4463027" version="1" timestamp="2022-07-15T05:10:13Z" changeset="123633651" uid="3497659" user="NKA">
		<tag k="name" v="Svenning" />
		<tag k="place" v="farm" />
		<tag k="ssr:stedsnr" v="501836" />
	</node>
	<node id="9888893628" lat="67.1875581" lon="15.7137495" version="1" timestamp="2022-07-15T05:10:13Z" changeset="123633651" uid="3497659" user="NKA">
		<tag k="name" v="Tveråmoen" />
		<tag k="old_name" v="Tverråmoen" />
		<tag k="place" v="farm" />
		<tag k="ssr:stedsnr" v="527671" />
	</node>
	<node id="9888893629" lat="67.3030077" lon="15.4054983" version="1" timestamp="2022-07-15T05:10:13Z" changeset="123633651" uid="3497659" user="NKA">
		<tag k="name" v="Valders" />
		<tag k="place" v="farm" />
		<tag k="ssr:stedsnr" v="561831" />
	</node>
	<node id="9888893630" lat="67.2056076" lon="15.6284552" version="1" timestamp="2022-07-15T05:10:13Z" changeset="123633651" uid="3497659" user="NKA">
		<tag k="name" v="Storvik" />
		<tag k="place" v="farm" />
		<tag k="ssr:stedsnr" v="527948" />
	</node>
	<node id="9888893631" lat="67.2160278" lon="15.4030777" version="1" timestamp="2022-07-15T05:10:13Z" changeset="123633651" uid="3497659" user="NKA">
		<tag k="name" v="Sanneset" />
		<tag k="place" v="isolated_dwelling" />
		<tag k="ssr:stedsnr" v="420422" />
	</node>
	<node id="9888893632" lat="67.1987528" lon="15.4618001" version="1" timestamp="2022-07-15T05:10:13Z" changeset="123633651" uid="3497659" user="NKA">
		<tag k="loc_name" v="Kvenfloget" />
		<tag k="name" v="Kvænfloget" />
		<tag k="place" v="farm" />
		<tag k="ssr:stedsnr" v="513978" />
	</node>
	<node id="9888893633" lat="67.2652667" lon="15.1528529" version="1" timestamp="2022-07-15T05:10:13Z" changeset="123633651" uid="3497659" user="NKA">
		<tag k="name" v="Jodal" />
		<tag k="place" v="hamlet" />
		<tag k="ssr:stedsnr" v="870438" />
	</node>
	<node id="9888893634" lat="67.2739194" lon="15.0440722" version="1" timestamp="2022-07-15T05:10:13Z" changeset="123633651" uid="3497659" user="NKA">
		<tag k="name" v="Skar" />
		<tag k="place" v="isolated_dwelling" />
		<tag k="ssr:stedsnr" v="845760" />
	</node>
	<node id="9888893635" lat="67.2047242" lon="15.7149141" version="1" timestamp="2022-07-15T05:10:13Z" changeset="123633651" uid="3497659" user="NKA">
		<tag k="alt_name" v="Skjønstå" />
		<tag k="name" v="Sjønstå" />
		<tag k="place" v="farm" />
		<tag k="ssr:stedsnr" v="480194" />
	</node>
	<node id="9888893636" lat="67.2059933" lon="15.7132544" version="1" timestamp="2022-07-15T05:10:13Z" changeset="123633651" uid="3497659" user="NKA">
		<tag k="name" v="Sjønstå - Sjenståhka" />
		<tag k="name:no" v="Sjønstå" />
		<tag k="name:smj" v="Sjenståhka" />
		<tag k="place" v="hamlet" />
		<tag k="ssr:stedsnr" v="501960" />
	</node>
	<node id="9888893637" lat="67.2846011" lon="15.4114507" version="1" timestamp="2022-07-15T05:10:13Z" changeset="123633651" uid="3497659" user="NKA">
		<tag k="name" v="Åseng" />
		<tag k="place" v="farm" />
		<tag k="ssr:stedsnr" v="259870" />
	</node>
	<node id="9888893638" lat="67.2401577" lon="15.417721" version="1" timestamp="2022-07-15T05:10:13Z" changeset="123633651" uid="3497659" user="NKA">
		<tag k="name" v="Skysselvik" />
		<tag k="place" v="hamlet" />
		<tag k="ssr:stedsnr" v="744919" />
	</node>
	<node id="9888893639" lat="67.2135857" lon="15.4190936" version="1" timestamp="2022-07-15T05:10:13Z" changeset="123633651" uid="3497659" user="NKA">
		<tag k="name" v="Gylskjer" />
		<tag k="place" v="isolated_dwelling" />
		<tag k="ssr:stedsnr" v="286522" />
	</node>
	<node id="9888893640" lat="67.2601861" lon="15.4092111" version="1" timestamp="2022-07-15T05:10:13Z" changeset="123633651" uid="3497659" user="NKA">
		<tag k="name" v="Ankerske Steinindustri" />
		<tag k="place" v="neighbourhood" />
		<tag k="ssr:stedsnr" v="116392" />
	</node>
	<node id="9888893641" lat="67.2906306" lon="15.4173882" version="1" timestamp="2022-07-15T05:10:13Z" changeset="123633651" uid="3497659" user="NKA">
		<tag k="name" v="Lofthus" />
		<tag k="place" v="farm" />
		<tag k="ssr:stedsnr" v="501815" />
	</node>
	<node id="9888893642" lat="67.287477" lon="15.4215559" version="1" timestamp="2022-07-15T05:10:13Z" changeset="123633651" uid="3497659" user="NKA">
		<tag k="name" v="Solvoll" />
		<tag k="place" v="farm" />
		<tag k="ssr:stedsnr" v="905417" />
	</node>
	<node id="9888893643" lat="67.3052952" lon="15.4557965" version="1" timestamp="2022-07-15T05:10:13Z" changeset="123633651" uid="3497659" user="NKA">
		<tag k="name" v="Eidheim" />
		<tag k="place" v="farm" />
		<tag k="ssr:stedsnr" v="177070" />
	</node>
	<node id="9888893644" lat="67.2307022" lon="15.4005046" version="1" timestamp="2022-07-15T05:10:13Z" changeset="123633651" uid="3497659" user="NKA">
		<tag k="loc_name:smj" v="Levsæhtta" />
		<tag k="name" v="Leivset" />
		<tag k="name:no" v="Leivset" />
		<tag k="place" v="hamlet" />
		<tag k="ssr:stedsnr" v="441954" />
	</node>
	<node id="9888893645" lat="67.2968111" lon="15.4374777" version="1" timestamp="2022-07-15T05:10:13Z" changeset="123633651" uid="3497659" user="NKA">
		<tag k="name" v="Vangen" />
		<tag k="place" v="farm" />
		<tag k="ssr:stedsnr" v="149815" />
	</node>
	<node id="9888893646" lat="67.3481034" lon="15.4852832" version="1" timestamp="2022-07-15T05:10:13Z" changeset="123633651" uid="3497659" user="NKA">
		<tag k="name" v="Rekmo" />
		<tag k="place" v="farm" />
		<tag k="ssr:stedsnr" v="149874" />
	</node>
	<node id="9888893647" lat="67.290439" lon="15.4239541" version="1" timestamp="2022-07-15T05:10:13Z" changeset="123633651" uid="3497659" user="NKA">
		<tag k="name" v="Mo" />
		<tag k="place" v="farm" />
		<tag k="ssr:stedsnr" v="55382" />
	</node>
	<node id="9888893648" lat="67.264208" lon="15.1484752" version="1" timestamp="2022-07-15T05:10:13Z" changeset="123633651" uid="3497659" user="NKA">
		<tag k="name" v="Einevoll" />
		<tag k="place" v="farm" />
		<tag k="ssr:stedsnr" v="874738" />
	</node>
	<node id="9888893649" lat="67.3039261" lon="15.2173066" version="1" timestamp="2022-07-15T05:10:13Z" changeset="123633651" uid="3497659" user="NKA">
		<tag k="loc_name" v="Hellskog" />
		<tag k="name" v="Helskog" />
		<tag k="place" v="hamlet" />
		<tag k="ssr:stedsnr" v="384636" />
	</node>
	<node id="9888893650" lat="67.1461278" lon="16.0057066" version="1" timestamp="2022-07-15T05:10:13Z" changeset="123633651" uid="3497659" user="NKA">
		<tag k="name" v="Glasstunes" />
		<tag k="place" v="neighbourhood" />
		<tag k="ssr:stedsnr" v="926225" />
	</node>
	<node id="9888893651" lat="67.1251028" lon="16.0955723" version="1" timestamp="2022-07-15T05:10:13Z" changeset="123633651" uid="3497659" user="NKA">
		<tag k="name" v="Reinhagen" />
		<tag k="place" v="farm" />
		<tag k="ssr:stedsnr" v="956596" />
	</node>
	<node id="9888893652" lat="67.3868055" lon="15.3971092" version="1" timestamp="2022-07-15T05:10:13Z" changeset="123633651" uid="3497659" user="NKA">
		<tag k="name" v="Hanshytta" />
		<tag k="place" v="isolated_dwelling" />
		<tag k="ssr:stedsnr" v="753567" />
	</node>
	<node id="9888893653" lat="67.4080418" lon="15.4053433" version="1" timestamp="2022-07-15T05:10:13Z" changeset="123633651" uid="3497659" user="NKA">
		<tag k="name" v="Fagermo" />
		<tag k="place" v="farm" />
		<tag k="ssr:stedsnr" v="926939" />
	</node>
	<node id="9888893654" lat="67.2492834" lon="15.7182278" version="1" timestamp="2022-07-15T05:10:13Z" changeset="123633651" uid="3497659" user="NKA">
		<tag k="name" v="Nord-Lakså" />
		<tag k="place" v="farm" />
		<tag k="ssr:stedsnr" v="525918" />
	</node>
	<node id="9888893655" lat="67.1360056" lon="16.0540903" version="1" timestamp="2022-07-15T05:10:13Z" changeset="123633651" uid="3497659" user="NKA">
		<tag k="name" v="Charlotta" />
		<tag k="place" v="neighbourhood" />
		<tag k="ssr:stedsnr" v="561229" />
	</node>
	<node id="9888893656" lat="67.3836601" lon="15.3090802" version="1" timestamp="2022-07-15T05:10:13Z" changeset="123633651" uid="3497659" user="NKA">
		<tag k="alt_name" v="Jordbru" />
		<tag k="name" v="Jordbrua" />
		<tag k="place" v="farm" />
		<tag k="ssr:stedsnr" v="744983" />
	</node>
	<node id="9888893657" lat="67.2305884" lon="15.6726672" version="1" timestamp="2022-07-15T05:10:13Z" changeset="123633651" uid="3497659" user="NKA">
		<tag k="alt_name" v="Skones" />
		<tag k="name" v="Skognes" />
		<tag k="place" v="locality" />
		<tag k="ssr:stedsnr" v="77942" />
	</node>
	<node id="9888893658" lat="67.1567691" lon="15.986845" version="1" timestamp="2022-07-15T05:10:13Z" changeset="123633651" uid="3497659" user="NKA">
		<tag k="name" v="Bursimarka" />
		<tag k="place" v="neighbourhood" />
		<tag k="ssr:stedsnr" v="77226" />
	</node>
	<node id="9888893659" lat="67.1717213" lon="15.7902889" version="1" timestamp="2022-07-15T05:10:13Z" changeset="123633651" uid="3497659" user="NKA">
		<tag k="name" v="Sjønstådalen" />
		<tag k="place" v="farm" />
		<tag k="ssr:stedsnr" v="1079296" />
	</node>
	<node id="9888893660" lat="67.1763656" lon="15.7896731" version="1" timestamp="2022-07-15T05:10:13Z" changeset="123633651" uid="3497659" user="NKA">
		<tag k="name" v="Fjell" />
		<tag k="place" v="farm" />
		<tag k="ssr:stedsnr" v="77251" />
	</node>
	<node id="9888893661" lat="67.2572484" lon="15.7518453" version="1" timestamp="2022-07-15T05:10:13Z" changeset="123633651" uid="3497659" user="NKA">
		<tag k="name" v="Nord-Lakså" />
		<tag k="old_name" v="Lakså nordre" />
		<tag k="place" v="farm" />
		<tag k="ssr:stedsnr" v="1075789" />
	</node>
	<node id="9888893662" lat="67.204527" lon="15.7154402" version="1" timestamp="2022-07-15T05:10:13Z" changeset="123633651" uid="3497659" user="NKA">
		<tag k="name" v="Sjønståstranda" />
		<tag k="old_name" v="Sjønståstrand" />
		<tag k="place" v="farm" />
		<tag k="ssr:stedsnr" v="1075894" />
	</node>
	<node id="9888893663" lat="67.2872932" lon="15.1756189" version="1" timestamp="2022-07-15T05:10:13Z" changeset="123633651" uid="3497659" user="NKA">
		<tag k="name" v="Brattland" />
		<tag k="place" v="farm" />
		<tag k="ssr:stedsnr" v="238710" />
	</node>
	<node id="9888893664" lat="67.1882804" lon="15.7170633" version="1" timestamp="2022-07-15T05:10:13Z" changeset="123633651" uid="3497659" user="NKA">
		<tag k="name" v="Tverråmoen" />
		<tag k="place" v="hamlet" />
		<tag k="ssr:stedsnr" v="1072352" />
	</node>
	<node id="9888893665" lat="67.2987668" lon="15.1813111" version="1" timestamp="2022-07-15T05:10:13Z" changeset="123633651" uid="3497659" user="NKA">
		<tag k="name" v="Tjeldnes" />
		<tag k="place" v="isolated_dwelling" />
		<tag k="ssr:stedsnr" v="210267" />
	</node>
	<node id="9888893666" lat="67.3227028" lon="15.5126055" version="1" timestamp="2022-07-15T05:10:13Z" changeset="123633651" uid="3497659" user="NKA">
		<tag k="name" v="Slettli" />
		<tag k="place" v="farm" />
		<tag k="ssr:stedsnr" v="238039" />
	</node>
	<node id="9888893667" lat="67.2220722" lon="15.6010584" version="1" timestamp="2022-07-15T05:10:13Z" changeset="123633651" uid="3497659" user="NKA">
		<tag k="alt_name" v="Møllenbukt" />
		<tag k="name" v="Mølnbukta" />
		<tag k="place" v="farm" />
		<tag k="ssr:stedsnr" v="198947" />
	</node>
	<node id="9888893668" lat="67.3112528" lon="15.5022111" version="1" timestamp="2022-07-15T05:10:13Z" changeset="123633651" uid="3497659" user="NKA">
		<tag k="name" v="Myrvang" />
		<tag k="place" v="farm" />
		<tag k="ssr:stedsnr" v="77824" />
	</node>
	<node id="9888893669" lat="67.1825598" lon="15.7406442" version="1" timestamp="2022-07-15T05:10:13Z" changeset="123633651" uid="3497659" user="NKA">
		<tag k="name" v="Lyngås" />
		<tag k="place" v="farm" />
		<tag k="ssr:stedsnr" v="502234" />
	</node>
	<node id="9888893670" lat="67.2880358" lon="15.4200668" version="1" timestamp="2022-07-15T05:10:13Z" changeset="123633651" uid="3497659" user="NKA">
		<tag k="name" v="Birkelund" />
		<tag k="place" v="farm" />
		<tag k="ssr:stedsnr" v="28857" />
	</node>
	<node id="9888893671" lat="67.3076423" lon="15.4150511" version="1" timestamp="2022-07-15T05:10:13Z" changeset="123633651" uid="3497659" user="NKA">
		<tag k="name" v="Labakk" />
		<tag k="place" v="farm" />
		<tag k="ssr:stedsnr" v="76815" />
	</node>
	<node id="9888893672" lat="67.2261363" lon="15.6960817" version="1" timestamp="2022-07-15T05:10:13Z" changeset="123633651" uid="3497659" user="NKA">
		<tag k="name" v="Nakken" />
		<tag k="old_name" v="Eldhusmark" />
		<tag k="place" v="locality" />
		<tag k="ssr:stedsnr" v="541216" />
	</node>
	<node id="9888893673" lat="67.3815721" lon="15.3322583" version="1" timestamp="2022-07-15T05:10:13Z" changeset="123633651" uid="3497659" user="NKA">
		<tag k="name" v="Svingen" />
		<tag k="place" v="farm" />
		<tag k="ssr:stedsnr" v="116234" />
	</node>
	<node id="9888893674" lat="67.2291525" lon="15.6105149" version="1" timestamp="2022-07-15T05:10:13Z" changeset="123633651" uid="3497659" user="NKA">
		<tag k="name" v="Stifjell" />
		<tag k="old_name" v="Stifjellet" />
		<tag k="place" v="farm" />
		<tag k="ssr:stedsnr" v="623946" />
	</node>
	<node id="9888893675" lat="67.2295666" lon="15.6976806" version="1" timestamp="2022-07-15T05:10:13Z" changeset="123633651" uid="3497659" user="NKA">
		<tag k="name" v="Lægda" />
		<tag k="place" v="isolated_dwelling" />
		<tag k="ssr:stedsnr" v="420212" />
	</node>
	<node id="9888893676" lat="67.2605833" lon="15.5459167" version="1" timestamp="2022-07-15T05:10:13Z" changeset="123633651" uid="3497659" user="NKA">
		<tag k="name" v="Lappgamman" />
		<tag k="place" v="locality" />
		<tag k="ssr:stedsnr" v="966535" />
	</node>
	<node id="9888893677" lat="67.2867716" lon="15.1789343" version="1" timestamp="2022-07-15T05:10:13Z" changeset="123633651" uid="3497659" user="NKA">
		<tag k="name" v="Reitsletten" />
		<tag k="place" v="farm" />
		<tag k="ssr:stedsnr" v="56731" />
	</node>
	<node id="9888893678" lat="67.3739541" lon="15.308274" version="1" timestamp="2022-07-15T05:10:13Z" changeset="123633651" uid="3497659" user="NKA">
		<tag k="name" v="Sandmo" />
		<tag k="place" v="farm" />
		<tag k="ssr:stedsnr" v="935820" />
	</node>
	<node id="9888893679" lat="67.170325" lon="15.7919861" version="1" timestamp="2022-07-15T05:10:13Z" changeset="123633651" uid="3497659" user="NKA">
		<tag k="name" v="Fjellmo" />
		<tag k="place" v="isolated_dwelling" />
		<tag k="ssr:stedsnr" v="359249" />
	</node>
	<node id="9888893680" lat="67.2470438" lon="15.5105026" version="1" timestamp="2022-07-15T05:10:13Z" changeset="123633651" uid="3497659" user="NKA">
		<tag k="name" v="Os" />
		<tag k="place" v="farm" />
		<tag k="ssr:stedsnr" v="744922" />
	</node>
	<node id="9888893681" lat="67.1677222" lon="15.7773972" version="1" timestamp="2022-07-15T05:10:13Z" changeset="123633651" uid="3497659" user="NKA">
		<tag k="name" v="Fjellheim" />
		<tag k="place" v="isolated_dwelling" />
		<tag k="ssr:stedsnr" v="177232" />
	</node>
	<node id="9888893682" lat="67.2775833" lon="15.1472001" version="1" timestamp="2022-07-15T05:10:13Z" changeset="123633651" uid="3497659" user="NKA">
		<tag k="name" v="Medberget" />
		<tag k="place" v="farm" />
		<tag k="ssr:stedsnr" v="328619" />
	</node>
	<node id="9888893683" lat="67.2573555" lon="15.1620972" version="1" timestamp="2022-07-15T05:10:13Z" changeset="123633651" uid="3497659" user="NKA">
		<tag k="name" v="Vensetbergan" />
		<tag k="place" v="farm" />
		<tag k="ssr:stedsnr" v="809455" />
	</node>
	<node id="9888893684" lat="67.3027209" lon="15.1956606" version="1" timestamp="2022-07-15T05:10:13Z" changeset="123633651" uid="3497659" user="NKA">
		<tag k="name" v="Bjønnsletta" />
		<tag k="place" v="farm" />
		<tag k="ssr:stedsnr" v="509195" />
	</node>
	<node id="9888893685" lat="67.2992486" lon="15.1870628" version="1" timestamp="2022-07-15T05:10:13Z" changeset="123633651" uid="3497659" user="NKA">
		<tag k="alt_name" v="Strømsnes" />
		<tag k="name" v="Straumsnes" />
		<tag k="place" v="neighbourhood" />
		<tag k="ssr:stedsnr" v="505656" />
	</node>
	<node id="9888893686" lat="67.2577166" lon="15.1655611" version="1" timestamp="2022-07-15T05:10:13Z" changeset="123633651" uid="3497659" user="NKA">
		<tag k="name" v="Sjøvoll" />
		<tag k="place" v="farm" />
		<tag k="ssr:stedsnr" v="328711" />
	</node>
	<node id="9888893687" lat="67.2750345" lon="15.1202397" version="1" timestamp="2022-07-15T05:10:13Z" changeset="123633651" uid="3497659" user="NKA">
		<tag k="name" v="Hestekker" />
		<tag k="place" v="farm" />
		<tag k="ssr:stedsnr" v="445685" />
	</node>
	<node id="9888893688" lat="67.2229285" lon="15.3896515" version="1" timestamp="2022-07-15T05:10:13Z" changeset="123633651" uid="3497659" user="NKA">
		<tag k="name" v="Nerigarden" />
		<tag k="place" v="farm" />
		<tag k="ssr:stedsnr" v="392880" />
	</node>
	<node id="9888893689" lat="67.2638805" lon="15.3902667" version="1" timestamp="2022-07-15T05:10:13Z" changeset="123633651" uid="3497659" user="NKA">
		<tag k="name" v="Olderen" />
		<tag k="place" v="neighbourhood" />
		<tag k="ssr:stedsnr" v="875256" />
	</node>
	<node id="9888893690" lat="67.278427" lon="15.1530554" version="1" timestamp="2022-07-15T05:10:13Z" changeset="123633651" uid="3497659" user="NKA">
		<tag k="name" v="Meby" />
		<tag k="place" v="farm" />
		<tag k="ssr:stedsnr" v="202438" />
	</node>
	<node id="9888893691" lat="67.331325" lon="15.1601778" version="1" timestamp="2022-07-15T05:10:13Z" changeset="123633651" uid="3497659" user="NKA">
		<tag k="name" v="Kaggstranda" />
		<tag k="place" v="farm" />
		<tag k="ssr:stedsnr" v="202750" />
	</node>
	<node id="9888893692" lat="67.2960576" lon="15.1781216" version="1" timestamp="2022-07-15T05:10:13Z" changeset="123633651" uid="3497659" user="NKA">
		<tag k="name" v="Bjørkås" />
		<tag k="place" v="farm" />
		<tag k="ssr:stedsnr" v="890947" />
	</node>
	<node id="9888893693" lat="67.2774345" lon="15.1129811" version="1" timestamp="2022-07-15T05:10:13Z" changeset="123633651" uid="3497659" user="NKA">
		<tag k="name" v="Nes" />
		<tag k="place" v="hamlet" />
		<tag k="ssr:stedsnr" v="202681" />
	</node>
	<node id="9888893694" lat="67.3001561" lon="15.1629006" version="1" timestamp="2022-07-15T05:10:13Z" changeset="123633651" uid="3497659" user="NKA">
		<tag k="name" v="Lundskog" />
		<tag k="place" v="farm" />
		<tag k="ssr:stedsnr" v="1074539" />
	</node>
	<node id="9888893695" lat="67.3536167" lon="15.2399389" version="1" timestamp="2022-07-15T05:10:13Z" changeset="123633651" uid="3497659" user="NKA">
		<tag k="name" v="Utigård" />
		<tag k="place" v="farm" />
		<tag k="ssr:stedsnr" v="511892" />
	</node>
	<node id="9888893696" lat="67.3006161" lon="15.1923459" version="1" timestamp="2022-07-15T05:10:13Z" changeset="123633651" uid="3497659" user="NKA">
		<tag k="name" v="Tretteng" />
		<tag k="place" v="farm" />
		<tag k="ssr:stedsnr" v="570163" />
	</node>
	<node id="9888893697" lat="67.3055704" lon="15.1837402" version="1" timestamp="2022-07-15T05:10:13Z" changeset="123633651" uid="3497659" user="NKA">
		<tag k="name" v="Gavlen" />
		<tag k="place" v="farm" />
		<tag k="ssr:stedsnr" v="267133" />
	</node>
	<node id="9888893698" lat="67.2762711" lon="15.1441985" version="1" timestamp="2022-07-15T05:10:13Z" changeset="123633651" uid="3497659" user="NKA">
		<tag k="name" v="Litlemedberget" />
		<tag k="place" v="farm" />
		<tag k="ssr:stedsnr" v="449604" />
	</node>
	<node id="9888893699" lat="67.2884695" lon="15.2047584" version="1" timestamp="2022-07-15T05:10:13Z" changeset="123633651" uid="3497659" user="NKA">
		<tag k="historic" v="shieling" />
		<tag k="name" v="Nordseter" />
		<tag k="place" v="isolated_dwelling" />
		<tag k="ssr:stedsnr" v="480707" />
	</node>
	<node id="9888893700" lat="67.3027236" lon="15.212461" version="1" timestamp="2022-07-15T05:10:13Z" changeset="123633651" uid="3497659" user="NKA">
		<tag k="name" v="Lavik" />
		<tag k="place" v="farm" />
		<tag k="ssr:stedsnr" v="28269" />
	</node>
	<node id="9888893701" lat="67.3010272" lon="15.1944853" version="1" timestamp="2022-07-15T05:10:13Z" changeset="123633651" uid="3497659" user="NKA">
		<tag k="alt_name" v="Hagnes" />
		<tag k="name" v="Hagenes" />
		<tag k="place" v="farm" />
		<tag k="ssr:stedsnr" v="870637" />
	</node>
	<node id="9888893702" lat="67.3468396" lon="15.2223597" version="1" timestamp="2022-07-15T05:10:13Z" changeset="123633651" uid="3497659" user="NKA">
		<tag k="name" v="Myra" />
		<tag k="place" v="farm" />
		<tag k="ssr:stedsnr" v="875880" />
	</node>
	<node id="9888893703" lat="67.2808777" lon="15.1367056" version="1" timestamp="2022-07-15T05:10:13Z" changeset="123633651" uid="3497659" user="NKA">
		<tag k="name" v="Storkarsmoen" />
		<tag k="place" v="farm" />
		<tag k="ssr:stedsnr" v="449603" />
	</node>
	<node id="9888893704" lat="67.3042666" lon="15.4847582" version="1" timestamp="2022-07-15T05:10:13Z" changeset="123633651" uid="3497659" user="NKA">
		<tag k="name" v="Bjørbu" />
		<tag k="place" v="farm" />
		<tag k="ssr:stedsnr" v="440831" />
	</node>
	<node id="9888893705" lat="67.2209266" lon="15.5872235" version="1" timestamp="2022-07-15T05:10:13Z" changeset="123633651" uid="3497659" user="NKA">
		<tag k="alt_name" v="Soløyvik" />
		<tag k="name" v="Solvik" />
		<tag k="place" v="hamlet" />
		<tag k="ssr:stedsnr" v="380941" />
	</node>
	<node id="9888893706" lat="67.2723472" lon="15.2401306" version="1" timestamp="2022-07-15T05:10:13Z" changeset="123633651" uid="3497659" user="NKA">
		<tag k="name" v="Vestre Røvika" />
		<tag k="place" v="farm" />
		<tag k="ssr:stedsnr" v="848805" />
	</node>
	<node id="9888893707" lat="67.3049167" lon="15.2330694" version="1" timestamp="2022-07-15T05:10:13Z" changeset="123633651" uid="3497659" user="NKA">
		<tag k="name" v="Hagen" />
		<tag k="place" v="farm" />
		<tag k="ssr:stedsnr" v="623857" />
	</node>
	<node id="9888893708" lat="67.295461" lon="15.1845929" version="1" timestamp="2022-07-15T05:10:13Z" changeset="123633651" uid="3497659" user="NKA">
		<tag k="name" v="Hammer" />
		<tag k="place" v="farm" />
		<tag k="ssr:stedsnr" v="453259" />
	</node>
	<node id="9888893709" lat="67.2910294" lon="15.4268938" version="1" timestamp="2022-07-15T05:10:13Z" changeset="123633651" uid="3497659" user="NKA">
		<tag k="name" v="Hjemås" />
		<tag k="place" v="hamlet" />
		<tag k="ssr:stedsnr" v="258845" />
	</node>
	<node id="9888893710" lat="67.3811671" lon="15.2865626" version="1" timestamp="2022-07-15T05:10:13Z" changeset="123633651" uid="3497659" user="NKA">
		<tag k="name" v="Bjørkvang" />
		<tag k="place" v="farm" />
		<tag k="ssr:stedsnr" v="206908" />
	</node>
	<node id="9888893711" lat="67.3582723" lon="15.2449727" version="1" timestamp="2022-07-15T05:10:13Z" changeset="123633651" uid="3497659" user="NKA">
		<tag k="name" v="Solvang" />
		<tag k="place" v="farm" />
		<tag k="ssr:stedsnr" v="258886" />
	</node>
	<node id="9888893712" lat="67.3348398" lon="15.5586343" version="1" timestamp="2022-07-15T05:10:13Z" changeset="123633651" uid="3497659" user="NKA">
		<tag k="name" v="Rødås" />
		<tag k="place" v="hamlet" />
		<tag k="ssr:stedsnr" v="319916" />
	</node>
	<node id="9888893713" lat="67.3498361" lon="15.2865168" version="1" timestamp="2022-07-15T05:10:13Z" changeset="123633651" uid="3497659" user="NKA">
		<tag k="name" v="Hegge" />
		<tag k="place" v="farm" />
		<tag k="ssr:stedsnr" v="137887" />
	</node>
	<node id="9888893714" lat="67.2952606" lon="15.4318125" version="1" timestamp="2022-07-15T05:10:13Z" changeset="123633651" uid="3497659" user="NKA">
		<tag k="alt_name" v="Megården" />
		<tag k="name" v="Megård" />
		<tag k="place" v="farm" />
		<tag k="ssr:stedsnr" v="926830" />
	</node>
	<node id="9888893715" lat="67.2036638" lon="15.7324584" version="1" timestamp="2022-07-15T05:10:13Z" changeset="123633651" uid="3497659" user="NKA">
		<tag k="name" v="Ballstadheimen" />
		<tag k="place" v="locality" />
		<tag k="ssr:stedsnr" v="966227" />
	</node>
	<node id="9888893716" lat="67.2588497" lon="15.1690186" version="1" timestamp="2022-07-15T05:10:13Z" changeset="123633651" uid="3497659" user="NKA">
		<tag k="name" v="Fagerheim" />
		<tag k="place" v="farm" />
		<tag k="ssr:stedsnr" v="935730" />
	</node>
	<node id="9888893717" lat="67.340428" lon="15.2299863" version="1" timestamp="2022-07-15T05:10:13Z" changeset="123633651" uid="3497659" user="NKA">
		<tag k="name" v="Strømhaug" />
		<tag k="place" v="farm" />
		<tag k="ssr:stedsnr" v="936871" />
	</node>
	<node id="9888893718" lat="67.3742529" lon="15.3101665" version="1" timestamp="2022-07-15T05:10:13Z" changeset="123633651" uid="3497659" user="NKA">
		<tag k="alt_name" v="Tverrelva" />
		<tag k="name" v="Tverelv" />
		<tag k="place" v="farm" />
		<tag k="ssr:stedsnr" v="805994" />
	</node>
	<node id="9888893719" lat="67.259142" lon="15.220203" version="1" timestamp="2022-07-15T05:10:13Z" changeset="123633651" uid="3497659" user="NKA">
		<tag k="name" v="Holstad" />
		<tag k="place" v="hamlet" />
		<tag k="ssr:stedsnr" v="926764" />
	</node>
	<node id="9888893720" lat="67.3514554" lon="15.2483891" version="1" timestamp="2022-07-15T05:10:13Z" changeset="123633651" uid="3497659" user="NKA">
		<tag k="alt_name" v="Bringslimoen" />
		<tag k="name" v="Bringslimo" />
		<tag k="place" v="farm" />
		<tag k="ssr:stedsnr" v="805895" />
	</node>
	<node id="9888893721" lat="67.3798827" lon="15.2913898" version="1" timestamp="2022-07-15T05:10:13Z" changeset="123633651" uid="3497659" user="NKA">
		<tag k="name" v="Asplund" />
		<tag k="place" v="farm" />
		<tag k="ssr:stedsnr" v="805995" />
	</node>
	<node id="9888893722" lat="67.2070583" lon="15.5238389" version="1" timestamp="2022-07-15T05:10:13Z" changeset="123633651" uid="3497659" user="NKA">
		<tag k="name" v="Solvikmarka" />
		<tag k="place" v="isolated_dwelling" />
		<tag k="ssr:stedsnr" v="380953" />
	</node>
	<node id="9888893723" lat="67.3520414" lon="15.4958409" version="1" timestamp="2022-07-15T05:10:13Z" changeset="123633651" uid="3497659" user="NKA">
		<tag k="name" v="Nordeng" />
		<tag k="place" v="farm" />
		<tag k="ssr:stedsnr" v="805889" />
	</node>
	<node id="9888893724" lat="67.4051167" lon="15.4253" version="1" timestamp="2022-07-15T05:10:13Z" changeset="123633651" uid="3497659" user="NKA">
		<tag k="name" v="Husa-Petterheim" />
		<tag k="place" v="locality" />
		<tag k="ssr:stedsnr" v="56091" />
	</node>
	<node id="9888893725" lat="67.3151084" lon="15.4294139" version="1" timestamp="2022-07-15T05:10:13Z" changeset="123633651" uid="3497659" user="NKA">
		<tag k="name" v="Nymoen" />
		<tag k="place" v="farm" />
		<tag k="ssr:stedsnr" v="137808" />
	</node>
	<node id="9888893726" lat="67.2939472" lon="15.4289472" version="1" timestamp="2022-07-15T05:10:13Z" changeset="123633651" uid="3497659" user="NKA">
		<tag k="name" v="Voll" />
		<tag k="place" v="farm" />
		<tag k="ssr:stedsnr" v="76836" />
	</node>
	<node id="9888893727" lat="67.2873321" lon="15.1557917" version="1" timestamp="2022-07-15T05:10:13Z" changeset="123633651" uid="3497659" user="NKA">
		<tag k="alt_name" v="Stokland" />
		<tag k="name" v="Stokkland" />
		<tag k="place" v="hamlet" />
		<tag k="ssr:stedsnr" v="688682" />
	</node>
	<node id="9888893728" lat="67.2594873" lon="15.4350859" version="1" timestamp="2022-07-15T05:10:13Z" changeset="123633651" uid="3497659" user="NKA">
		<tag k="name" v="Østre Fauske" />
		<tag k="place" v="locality" />
		<tag k="ssr:stedsnr" v="1075649" />
	</node>
	<node id="9888893729" lat="67.264179" lon="15.1428491" version="1" timestamp="2022-07-15T05:10:13Z" changeset="123633651" uid="3497659" user="NKA">
		<tag k="name" v="Hundholmen" />
		<tag k="place" v="locality" />
		<tag k="ssr:stedsnr" v="809454" />
	</node>
	<node id="9888893730" lat="67.3038357" lon="15.2144523" version="1" timestamp="2022-07-15T05:10:13Z" changeset="123633651" uid="3497659" user="NKA">
		<tag k="name" v="Berg" />
		<tag k="place" v="farm" />
		<tag k="ssr:stedsnr" v="817264" />
	</node>
	<node id="9888893731" lat="67.3355172" lon="15.5680474" version="1" timestamp="2022-07-15T05:10:13Z" changeset="123633651" uid="3497659" user="NKA">
		<tag k="name" v="Nystad" />
		<tag k="place" v="farm" />
		<tag k="ssr:stedsnr" v="926909" />
	</node>
	<node id="9888893732" lat="67.3449053" lon="15.5284055" version="1" timestamp="2022-07-15T05:10:13Z" changeset="123633651" uid="3497659" user="NKA">
		<tag k="name" v="Rørvik" />
		<tag k="place" v="farm" />
		<tag k="ssr:stedsnr" v="815180" />
	</node>
	<node id="9888893733" lat="67.2239578" lon="15.3862296" version="1" timestamp="2022-07-15T05:10:13Z" changeset="123633651" uid="3497659" user="NKA">
		<tag k="name" v="Inner-Leivset" />
		<tag k="place" v="farm" />
		<tag k="ssr:stedsnr" v="974805" />
	</node>
	<node id="9888893734" lat="67.3557111" lon="15.2720971" version="1" timestamp="2022-07-15T05:10:13Z" changeset="123633651" uid="3497659" user="NKA">
		<tag k="name" v="Solhaug" />
		<tag k="place" v="farm" />
		<tag k="ssr:stedsnr" v="935110" />
	</node>
	<node id="9888893735" lat="67.3488972" lon="15.4806362" version="1" timestamp="2022-07-15T05:10:13Z" changeset="123633651" uid="3497659" user="NKA">
		<tag k="name" v="Kvitblik" />
		<tag k="place" v="farm" />
		<tag k="ssr:stedsnr" v="527688" />
	</node>
	<node id="9888893736" lat="67.3297278" lon="15.2746722" version="1" timestamp="2022-07-15T05:10:13Z" changeset="123633651" uid="3497659" user="NKA">
		<tag k="name" v="Skogsvoll" />
		<tag k="place" v="farm" />
		<tag k="ssr:stedsnr" v="805923" />
	</node>
	<node id="9888893737" lat="67.3532367" lon="15.2692217" version="1" timestamp="2022-07-15T05:10:13Z" changeset="123633651" uid="3497659" user="NKA">
		<tag k="name" v="Nordås" />
		<tag k="place" v="farm" />
		<tag k="ssr:stedsnr" v="935114" />
	</node>
	<node id="9888893738" lat="67.3030889" lon="15.4887056" version="1" timestamp="2022-07-15T05:10:13Z" changeset="123633651" uid="3497659" user="NKA">
		<tag k="name" v="Sør-Holtan" />
		<tag k="place" v="farm" />
		<tag k="ssr:stedsnr" v="237091" />
	</node>
	<node id="9888893739" lat="67.2972944" lon="15.4288916" version="1" timestamp="2022-07-15T05:10:13Z" changeset="123633651" uid="3497659" user="NKA">
		<tag k="alt_name" v="Unnlendbakk" />
		<tag k="name" v="Unnlendbakken" />
		<tag k="place" v="farm" />
		<tag k="ssr:stedsnr" v="258847" />
	</node>
	<node id="9888893740" lat="67.3048196" lon="15.4168711" version="1" timestamp="2022-07-15T05:10:13Z" changeset="123633651" uid="3497659" user="NKA">
		<tag k="name" v="Tverrå" />
		<tag k="place" v="hamlet" />
		<tag k="ssr:stedsnr" v="1076559" />
	</node>
	<node id="9888893741" lat="67.3581305" lon="15.2872667" version="1" timestamp="2022-07-15T05:10:13Z" changeset="123633651" uid="3497659" user="NKA">
		<tag k="name" v="Granheim" />
		<tag k="place" v="farm" />
		<tag k="ssr:stedsnr" v="683861" />
	</node>
	<node id="9888893742" lat="67.3440898" lon="15.4807497" version="1" timestamp="2022-07-15T05:10:13Z" changeset="123633651" uid="3497659" user="NKA">
		<tag k="name" v="Kvitblik" />
		<tag k="place" v="farm" />
		<tag k="ssr:stedsnr" v="892674" />
	</node>
	<node id="9888893743" lat="67.3510333" lon="15.5308611" version="1" timestamp="2022-07-15T05:10:13Z" changeset="123633651" uid="3497659" user="NKA">
		<tag k="name" v="Djupdal" />
		<tag k="place" v="farm" />
		<tag k="ssr:stedsnr" v="934139" />
	</node>
	<node id="9888893744" lat="67.3226198" lon="15.0888543" version="1" timestamp="2022-07-15T05:10:13Z" changeset="123633651" uid="3497659" user="NKA">
		<tag k="name" v="Kistrand" />
		<tag k="place" v="hamlet" />
		<tag k="ssr:stedsnr" v="814393" />
	</node>
	<node id="9888893745" lat="67.3462198" lon="15.4806675" version="1" timestamp="2022-07-15T05:10:13Z" changeset="123633651" uid="3497659" user="NKA">
		<tag k="name" v="Forsbakk" />
		<tag k="place" v="farm" />
		<tag k="ssr:stedsnr" v="866893" />
	</node>
	<node id="9888893746" lat="67.3467782" lon="15.4967951" version="1" timestamp="2022-07-15T05:10:13Z" changeset="123633651" uid="3497659" user="NKA">
		<tag k="name" v="Kvitblik" />
		<tag k="place" v="hamlet" />
		<tag k="ssr:stedsnr" v="866891" />
	</node>
	<node id="9888893747" lat="67.3234879" lon="15.1779487" version="1" timestamp="2022-07-15T05:10:13Z" changeset="123633651" uid="3497659" user="NKA">
		<tag k="name" v="Smiberget" />
		<tag k="place" v="farm" />
		<tag k="ssr:stedsnr" v="390514" />
	</node>
	<node id="9888893748" lat="67.3421111" lon="15.4726556" version="1" timestamp="2022-07-15T05:10:13Z" changeset="123633651" uid="3497659" user="NKA">
		<tag k="name" v="Ytterenget" />
		<tag k="place" v="farm" />
		<tag k="ssr:stedsnr" v="622910" />
	</node>
	<node id="9888893749" lat="67.3221361" lon="15.5246805" version="1" timestamp="2022-07-15T05:10:13Z" changeset="123633651" uid="3497659" user="NKA">
		<tag k="name" v="Bjørnkjerr" />
		<tag k="place" v="farm" />
		<tag k="ssr:stedsnr" v="845055" />
	</node>
	<node id="9888893750" lat="67.2838629" lon="15.1761948" version="1" timestamp="2022-07-15T05:10:13Z" changeset="123633651" uid="3497659" user="NKA">
		<tag k="name" v="Åsheim" />
		<tag k="place" v="farm" />
		<tag k="ssr:stedsnr" v="298677" />
	</node>
	<node id="9888893751" lat="67.3364083" lon="15.557339" version="1" timestamp="2022-07-15T05:10:13Z" changeset="123633651" uid="3497659" user="NKA">
		<tag k="name" v="Storli" />
		<tag k="place" v="farm" />
		<tag k="ssr:stedsnr" v="562899" />
	</node>
	<node id="9888893752" lat="67.3393222" lon="15.4670471" version="1" timestamp="2022-07-15T05:10:13Z" changeset="123633651" uid="3497659" user="NKA">
		<tag k="name" v="Yttergården" />
		<tag k="place" v="farm" />
		<tag k="ssr:stedsnr" v="562897" />
	</node>
	<node id="9888893753" lat="67.324723" lon="15.444717" version="1" timestamp="2022-07-15T05:10:13Z" changeset="123633651" uid="3497659" user="NKA">
		<tag k="name" v="Brynsli" />
		<tag k="place" v="farm" />
		<tag k="ssr:stedsnr" v="420022" />
	</node>
	<node id="9888893754" lat="67.3247793" lon="15.5283831" version="1" timestamp="2022-07-15T05:10:13Z" changeset="123633651" uid="3497659" user="NKA">
		<tag k="loc_name:se" v="Ruonásse" />
		<tag k="name" v="Grønåsen" />
		<tag k="name:no" v="Grønåsen" />
		<tag k="place" v="hamlet" />
		<tag k="ssr:stedsnr" v="562822" />
	</node>
	<node id="9888893755" lat="67.2771583" lon="15.1092334" version="1" timestamp="2022-07-15T05:10:13Z" changeset="123633651" uid="3497659" user="NKA">
		<tag k="name" v="Slettnes" />
		<tag k="place" v="farm" />
		<tag k="ssr:stedsnr" v="449696" />
	</node>
	<node id="9888893756" lat="67.3233175" lon="15.5186028" version="1" timestamp="2022-07-15T05:10:13Z" changeset="123633651" uid="3497659" user="NKA">
		<tag k="name" v="Soldal" />
		<tag k="place" v="farm" />
		<tag k="ssr:stedsnr" v="541040" />
	</node>
	<node id="9888893757" lat="67.3442" lon="15.4760751" version="1" timestamp="2022-07-15T05:10:13Z" changeset="123633651" uid="3497659" user="NKA">
		<tag k="name" v="Moan" />
		<tag k="place" v="farm" />
		<tag k="ssr:stedsnr" v="622893" />
	</node>
	<node id="9888893758" lat="67.2837123" lon="15.1276396" version="1" timestamp="2022-07-15T05:10:13Z" changeset="123633651" uid="3497659" user="NKA">
		<tag k="name" v="Jensvoll" />
		<tag k="place" v="farm" />
		<tag k="ssr:stedsnr" v="328632" />
	</node>
	<node id="9888893759" lat="67.3235542" lon="15.5232791" version="1" timestamp="2022-07-15T05:10:13Z" changeset="123633651" uid="3497659" user="NKA">
		<tag k="name" v="Gammelgården" />
		<tag k="place" v="farm" />
		<tag k="ssr:stedsnr" v="359039" />
	</node>
	<node id="9888893760" lat="67.3511861" lon="15.5392278" version="1" timestamp="2022-07-15T05:10:13Z" changeset="123633651" uid="3497659" user="NKA">
		<tag k="alt_name" v="Seljåsen, øvre" />
		<tag k="name" v="Øvre Seljåsen" />
		<tag k="place" v="farm" />
		<tag k="ssr:stedsnr" v="622899" />
	</node>
	<node id="9888893761" lat="67.2718472" lon="15.0457388" version="1" timestamp="2022-07-15T05:10:13Z" changeset="123633651" uid="3497659" user="NKA">
		<tag k="name" v="Innerteigen" />
		<tag k="place" v="isolated_dwelling" />
		<tag k="ssr:stedsnr" v="359724" />
	</node>
	<node id="9888893762" lat="67.2731773" lon="15.047814" version="1" timestamp="2022-07-15T05:10:13Z" changeset="123633651" uid="3497659" user="NKA">
		<tag k="name" v="Alvenes" />
		<tag k="place" v="hamlet" />
		<tag k="ssr:stedsnr" v="505675" />
	</node>
	<node id="9888893763" lat="67.3093721" lon="15.4976034" version="1" timestamp="2022-07-15T05:10:13Z" changeset="123633651" uid="3497659" user="NKA">
		<tag k="alt_name" v="Korsåga gård" />
		<tag k="name" v="Korså" />
		<tag k="place" v="farm" />
		<tag k="ssr:stedsnr" v="198819" />
	</node>
	<node id="9888893764" lat="67.3231547" lon="15.0919437" version="1" timestamp="2022-07-15T05:10:13Z" changeset="123633651" uid="3497659" user="NKA">
		<tag k="name" v="Utheim" />
		<tag k="place" v="isolated_dwelling" />
		<tag k="ssr:stedsnr" v="25321" />
	</node>
	<node id="9888893765" lat="67.3275111" lon="15.4338278" version="1" timestamp="2022-07-15T05:10:13Z" changeset="123633651" uid="3497659" user="NKA">
		<tag k="name" v="Karengammen" />
		<tag k="place" v="locality" />
		<tag k="ssr:stedsnr" v="177024" />
	</node>
	<node id="9888893766" lat="67.2227976" lon="15.3722211" version="1" timestamp="2022-07-15T05:10:13Z" changeset="123633651" uid="3497659" user="NKA">
		<tag k="name" v="Ytter-Leivset" />
		<tag k="place" v="farm" />
		<tag k="ssr:stedsnr" v="974804" />
	</node>
	<node id="9888893767" lat="67.3522257" lon="15.2495228" version="1" timestamp="2022-07-15T05:10:13Z" changeset="123633651" uid="3497659" user="NKA">
		<tag k="name" v="Moan" />
		<tag k="place" v="farm" />
		<tag k="ssr:stedsnr" v="934134" />
	</node>
	<node id="9888893768" lat="67.1856326" lon="15.72083" version="1" timestamp="2022-07-15T05:10:13Z" changeset="123633651" uid="3497659" user="NKA">
		<tag k="name" v="Kallmo" />
		<tag k="place" v="farm" />
		<tag k="ssr:stedsnr" v="1079298" />
	</node>
	<node id="9888893769" lat="67.1898339" lon="15.7529223" version="1" timestamp="2022-07-15T05:10:13Z" changeset="123633651" uid="3497659" user="NKA">
		<tag k="name" v="Tverråmoen" />
		<tag k="old_name" v="Tveråmoen" />
		<tag k="place" v="farm" />
		<tag k="ssr:stedsnr" v="1079291" />
	</node>
	<node id="9888893770" lat="67.34656" lon="15.2671866" version="1" timestamp="2022-07-15T05:10:13Z" changeset="123633651" uid="3497659" user="NKA">
		<tag k="alt_name" v="Kosmo" />
		<tag k="name" v="Kosmoen" />
		<tag k="place" v="hamlet" />
		<tag k="ssr:stedsnr" v="744898" />
	</node>
	<node id="9888893771" lat="67.1996084" lon="15.4541166" version="1" timestamp="2022-07-15T05:10:13Z" changeset="123633651" uid="3497659" user="NKA">
		<tag k="name" v="Kvenflogsetra" />
		<tag k="place" v="locality" />
		<tag k="ssr:stedsnr" v="849531" />
	</node>
	<node id="9888893772" lat="67.3044166" lon="15.1989221" version="1" timestamp="2022-07-15T05:10:13Z" changeset="123633651" uid="3497659" user="NKA">
		<tag k="name" v="Oppigård" />
		<tag k="place" v="farm" />
		<tag k="ssr:stedsnr" v="691219" />
	</node>
	<node id="9888893773" lat="67.3414171" lon="15.2696649" version="1" timestamp="2022-07-15T05:10:13Z" changeset="123633651" uid="3497659" user="NKA">
		<tag k="name" v="Slettvoll" />
		<tag k="place" v="farm" />
		<tag k="ssr:stedsnr" v="744914" />
	</node>
	<node id="9888893775" lat="67.2651222" lon="15.2908751" version="1" timestamp="2022-07-15T05:10:13Z" changeset="123633651" uid="3497659" user="NKA">
		<tag k="name" v="Lilleeng" />
		<tag k="place" v="isolated_dwelling" />
		<tag k="ssr:stedsnr" v="510349" />
	</node>
	<node id="9888893776" lat="67.3469906" lon="15.2692229" version="1" timestamp="2022-07-15T05:10:13Z" changeset="123633651" uid="3497659" user="NKA">
		<tag k="name" v="Utsikten" />
		<tag k="place" v="farm" />
		<tag k="ssr:stedsnr" v="449113" />
	</node>
	<node id="9888893777" lat="67.2717268" lon="15.3380408" version="1" timestamp="2022-07-15T05:10:13Z" changeset="123633651" uid="3497659" user="NKA">
		<tag k="name" v="Inner-Klungset" />
		<tag k="place" v="farm" />
		<tag k="ssr:stedsnr" v="483943" />
	</node>
	<node id="9888893778" lat="67.3325972" lon="15.5674362" version="1" timestamp="2022-07-15T05:10:13Z" changeset="123633651" uid="3497659" user="NKA">
		<tag k="name" v="Gardsmoen" />
		<tag k="place" v="farm" />
		<tag k="ssr:stedsnr" v="77920" />
	</node>
	<node id="9888893779" lat="67.3764963" lon="15.2726364" version="1" timestamp="2022-07-15T05:10:13Z" changeset="123633651" uid="3497659" user="NKA">
		<tag k="alt_name" v="Bringslimark" />
		<tag k="name" v="Bringslimarka" />
		<tag k="place" v="hamlet" />
		<tag k="ssr:stedsnr" v="380995" />
	</node>
	<node id="9888893780" lat="67.2681584" lon="15.3043976" version="1" timestamp="2022-07-15T05:10:13Z" changeset="123633651" uid="3497659" user="NKA">
		<tag k="name" v="Elvebakk" />
		<tag k="place" v="farm" />
		<tag k="ssr:stedsnr" v="935343" />
	</node>
	<node id="9888893781" lat="67.2653056" lon="15.2956862" version="1" timestamp="2022-07-15T05:10:13Z" changeset="123633651" uid="3497659" user="NKA">
		<tag k="name" v="Raset" />
		<tag k="place" v="isolated_dwelling" />
		<tag k="ssr:stedsnr" v="198742" />
	</node>
	<node id="9888893782" lat="67.264664" lon="15.2802484" version="1" timestamp="2022-07-15T05:10:13Z" changeset="123633651" uid="3497659" user="NKA">
		<tag k="name" v="Halsan" />
		<tag k="place" v="farm" />
		<tag k="ssr:stedsnr" v="866739" />
	</node>
	<node id="9888893783" lat="67.3323067" lon="15.277285" version="1" timestamp="2022-07-15T05:10:13Z" changeset="123633651" uid="3497659" user="NKA">
		<tag k="name" v="Storåkeren" />
		<tag k="place" v="farm" />
		<tag k="ssr:stedsnr" v="259930" />
	</node>
	<node id="9888893784" lat="67.2710602" lon="15.257626" version="1" timestamp="2022-07-15T05:10:13Z" changeset="123633651" uid="3497659" user="NKA">
		<tag k="name" v="Frydensjø" />
		<tag k="place" v="farm" />
		<tag k="ssr:stedsnr" v="561751" />
	</node>
	<node id="9888893785" lat="67.2728019" lon="15.23813" version="1" timestamp="2022-07-15T05:10:13Z" changeset="123633651" uid="3497659" user="NKA">
		<tag k="name" v="Røvika - Rudda" />
		<tag k="name:no" v="Røvika" />
		<tag k="name:smj" v="Rudda" />
		<tag k="place" v="farm" />
		<tag k="ssr:stedsnr" v="239818" />
	</node>
	<node id="9888893786" lat="67.3794605" lon="15.3247073" version="1" timestamp="2022-07-15T05:10:13Z" changeset="123633651" uid="3497659" user="NKA">
		<tag k="name" v="Stangsethaug" />
		<tag k="place" v="farm" />
		<tag k="ssr:stedsnr" v="116237" />
	</node>
	<node id="9888893787" lat="67.2660656" lon="15.3007843" version="1" timestamp="2022-07-15T05:10:13Z" changeset="123633651" uid="3497659" user="NKA">
		<tag k="alt_name:no" v="Klungset, yt" />
		<tag k="loc_name:smj" v="Davve-Loaŋŋga" />
		<tag k="name" v="Ytre Klungset" />
		<tag k="name:no" v="Ytre Klungset" />
		<tag k="place" v="farm" />
		<tag k="ssr:stedsnr" v="622747" />
	</node>
	<node id="9888893788" lat="67.2615277" lon="15.1544612" version="1" timestamp="2022-07-15T05:10:13Z" changeset="123633651" uid="3497659" user="NKA">
		<tag k="name" v="Gammelgården" />
		<tag k="place" v="farm" />
		<tag k="ssr:stedsnr" v="267700" />
	</node>
	<node id="9888893789" lat="67.2225128" lon="15.3638665" version="1" timestamp="2022-07-15T05:10:13Z" changeset="123633651" uid="3497659" user="NKA">
		<tag k="name" v="Nedre Nygård" />
		<tag k="place" v="farm" />
		<tag k="ssr:stedsnr" v="89790" />
	</node>
	<node id="9888893790" lat="67.3937345" lon="15.3395742" version="1" timestamp="2022-07-15T05:10:13Z" changeset="123633651" uid="3497659" user="NKA">
		<tag k="alt_name" v="Neverhaug" />
		<tag k="name" v="Neverhaugen" />
		<tag k="place" v="farm" />
		<tag k="ssr:stedsnr" v="77955" />
	</node>
	<node id="9888893791" lat="67.2554406" lon="15.3704047" version="1" timestamp="2022-07-15T05:10:13Z" changeset="123633651" uid="3497659" user="NKA">
		<tag k="name" v="Aure" />
		<tag k="place" v="farm" />
		<tag k="ssr:stedsnr" v="1083315" />
	</node>
	<node id="9888893792" lat="67.3426806" lon="15.2281778" version="1" timestamp="2022-07-15T05:10:13Z" changeset="123633651" uid="3497659" user="NKA">
		<tag k="name" v="Myrvang" />
		<tag k="place" v="farm" />
		<tag k="ssr:stedsnr" v="24159" />
	</node>
	<node id="9888893793" lat="67.364644" lon="15.2550125" version="1" timestamp="2022-07-15T05:10:13Z" changeset="123633651" uid="3497659" user="NKA">
		<tag k="name" v="Hanshaugen" />
		<tag k="place" v="farm" />
		<tag k="ssr:stedsnr" v="926986" />
	</node>
	<node id="9888893794" lat="67.2592305" lon="15.1653805" version="1" timestamp="2022-07-15T05:10:13Z" changeset="123633651" uid="3497659" user="NKA">
		<tag k="name" v="Solbakken" />
		<tag k="place" v="farm" />
		<tag k="ssr:stedsnr" v="85685" />
	</node>
	<node id="9888893795" lat="67.270845" lon="15.2353036" version="1" timestamp="2022-07-15T05:10:13Z" changeset="123633651" uid="3497659" user="NKA">
		<tag k="alt_name" v="Røvik" />
		<tag k="name" v="Røvika" />
		<tag k="place" v="hamlet" />
		<tag k="ssr:stedsnr" v="16866" />
	</node>
	<node id="9888893796" lat="67.3177428" lon="15.2656989" version="1" timestamp="2022-07-15T05:10:13Z" changeset="123633651" uid="3497659" user="NKA">
		<tag k="name" v="Djuposen" />
		<tag k="place" v="hamlet" />
		<tag k="ssr:stedsnr" v="16916" />
	</node>
	<node id="9888893797" lat="67.3444154" lon="15.2763824" version="1" timestamp="2022-07-15T05:10:13Z" changeset="123633651" uid="3497659" user="NKA">
		<tag k="name" v="Nordeng" />
		<tag k="place" v="farm" />
		<tag k="ssr:stedsnr" v="805916" />
	</node>
	<node id="9888893798" lat="67.3397861" lon="15.2715666" version="1" timestamp="2022-07-15T05:10:13Z" changeset="123633651" uid="3497659" user="NKA">
		<tag k="name" v="Solbakk" />
		<tag k="place" v="farm" />
		<tag k="ssr:stedsnr" v="449111" />
	</node>
	<node id="9888893799" lat="67.3175361" lon="15.2638667" version="1" timestamp="2022-07-15T05:10:13Z" changeset="123633651" uid="3497659" user="NKA">
		<tag k="alt_name" v="Djuposvollen" />
		<tag k="name" v="Voll" />
		<tag k="place" v="farm" />
		<tag k="ssr:stedsnr" v="683918" />
	</node>
	<node id="9888893800" lat="67.3246278" lon="15.2721751" version="1" timestamp="2022-07-15T05:10:13Z" changeset="123633651" uid="3497659" user="NKA">
		<tag k="name" v="Storskogen" />
		<tag k="place" v="farm" />
		<tag k="ssr:stedsnr" v="320931" />
	</node>
	<node id="9888893801" lat="67.2670778" lon="15.2229861" version="1" timestamp="2022-07-15T05:10:13Z" changeset="123633651" uid="3497659" user="NKA">
		<tag k="name" v="Solbakk" />
		<tag k="place" v="farm" />
		<tag k="ssr:stedsnr" v="866735" />
	</node>
	<node id="9888893802" lat="67.2935278" lon="15.1726001" version="1" timestamp="2022-07-15T05:10:13Z" changeset="123633651" uid="3497659" user="NKA">
		<tag k="name" v="Kvitberget" />
		<tag k="place" v="farm" />
		<tag k="ssr:stedsnr" v="570625" />
	</node>
	<node id="9888893803" lat="67.2882139" lon="15.1869999" version="1" timestamp="2022-07-15T05:10:13Z" changeset="123633651" uid="3497659" user="NKA">
		<tag k="name" v="Trøa" />
		<tag k="place" v="locality" />
		<tag k="ssr:stedsnr" v="298681" />
	</node>
	<node id="9888893804" lat="67.3220389" lon="15.2552528" version="1" timestamp="2022-07-15T05:10:13Z" changeset="123633651" uid="3497659" user="NKA">
		<tag k="name" v="Bølsnes" />
		<tag k="place" v="farm" />
		<tag k="ssr:stedsnr" v="259926" />
	</node>
	<node id="9888893805" lat="67.2473846" lon="15.4674952" version="1" timestamp="2022-07-15T05:10:13Z" changeset="123633651" uid="3497659" user="NKA">
		<tag k="name" v="Melkran" />
		<tag k="place" v="isolated_dwelling" />
		<tag k="ssr:stedsnr" v="815919" />
	</node>
	<node id="9888893806" lat="67.3058372" lon="15.4531326" version="1" timestamp="2022-07-15T05:10:13Z" changeset="123633651" uid="3497659" user="NKA">
		<tag k="name" v="Ny Jord" />
		<tag k="place" v="farm" />
		<tag k="ssr:stedsnr" v="137825" />
	</node>
	<node id="9888893807" lat="67.2910917" lon="15.456125" version="1" timestamp="2022-07-15T05:10:13Z" changeset="123633651" uid="3497659" user="NKA">
		<tag k="name" v="Austerli" />
		<tag k="place" v="farm" />
		<tag k="ssr:stedsnr" v="258857" />
	</node>
	<node id="9888893808" lat="67.3517416" lon="15.2707028" version="1" timestamp="2022-07-15T05:10:13Z" changeset="123633651" uid="3497659" user="NKA">
		<tag k="name" v="Åsen" />
		<tag k="place" v="farm" />
		<tag k="ssr:stedsnr" v="137883" />
	</node>
	<node id="9888893809" lat="67.3755361" lon="15.2703111" version="1" timestamp="2022-07-15T05:10:13Z" changeset="123633651" uid="3497659" user="NKA">
		<tag k="name" v="Lægda" />
		<tag k="place" v="farm" />
		<tag k="ssr:stedsnr" v="77999" />
	</node>
	<node id="9888893810" lat="67.3309831" lon="15.2719527" version="1" timestamp="2022-07-15T05:10:13Z" changeset="123633651" uid="3497659" user="NKA">
		<tag k="name" v="Reitan" />
		<tag k="place" v="farm" />
		<tag k="ssr:stedsnr" v="26838" />
	</node>
	<node id="9888893811" lat="67.2302912" lon="15.4149361" version="1" timestamp="2022-07-15T05:10:13Z" changeset="123633651" uid="3497659" user="NKA">
		<tag k="name" v="Bådsvik" />
		<tag k="place" v="farm" />
		<tag k="ssr:stedsnr" v="502940" />
	</node>
	<node id="9888893812" lat="67.3329756" lon="15.2639366" version="1" timestamp="2022-07-15T05:10:13Z" changeset="123633651" uid="3497659" user="NKA">
		<tag k="name" v="Liskytjemarka" />
		<tag k="place" v="farm" />
		<tag k="ssr:stedsnr" v="24489" />
	</node>
	<node id="9888893813" lat="67.3301106" lon="15.2694978" version="1" timestamp="2022-07-15T05:10:13Z" changeset="123633651" uid="3497659" user="NKA">
		<tag k="name" v="Nystad" />
		<tag k="place" v="farm" />
		<tag k="ssr:stedsnr" v="805913" />
	</node>
	<node id="9888893814" lat="67.3499173" lon="15.2457596" version="1" timestamp="2022-07-15T05:10:13Z" changeset="123633651" uid="3497659" user="NKA">
		<tag k="name" v="Nymo" />
		<tag k="place" v="farm" />
		<tag k="ssr:stedsnr" v="24118" />
	</node>
	<node id="9888893815" lat="67.3462754" lon="15.2649199" version="1" timestamp="2022-07-15T05:10:13Z" changeset="123633651" uid="3497659" user="NKA">
		<tag k="loc_name:smj" v="Kosmåhka;Kåsmåhka" />
		<tag k="name" v="Kosmo" />
		<tag k="name:no" v="Kosmo" />
		<tag k="place" v="farm" />
		<tag k="ssr:stedsnr" v="889924" />
	</node>
	<node id="9888893816" lat="67.3560376" lon="15.2408964" version="1" timestamp="2022-07-15T05:10:13Z" changeset="123633651" uid="3497659" user="NKA">
		<tag k="name" v="Heimegård" />
		<tag k="place" v="farm" />
		<tag k="ssr:stedsnr" v="815908" />
	</node>
	<node id="9888893817" lat="67.3399648" lon="15.2543135" version="1" timestamp="2022-07-15T05:10:13Z" changeset="123633651" uid="3497659" user="NKA">
		<tag k="name" v="Flatøy" />
		<tag k="place" v="farm" />
		<tag k="ssr:stedsnr" v="874146" />
	</node>
	<node id="9888893818" lat="67.3178667" lon="15.2593862" version="1" timestamp="2022-07-15T05:10:13Z" changeset="123633651" uid="3497659" user="NKA">
		<tag k="name" v="Gammelgården" />
		<tag k="place" v="farm" />
		<tag k="ssr:stedsnr" v="874432" />
	</node>
	<node id="7292535544" lat="67.350989" lon="15.262011" version="1" timestamp="2020-03-13T17:24:49Z" changeset="82174515" uid="3497659" user="NKA" />
	<node id="7292540464" lat="67.350932" lon="15.262393" version="1" timestamp="2020-03-13T17:24:49Z" changeset="82174515" uid="3497659" user="NKA" />
	<node id="7292575238" lat="67.351007" lon="15.261884" version="1" timestamp="2020-03-13T17:31:13Z" changeset="82174516" uid="3497659" user="NKA" />
	<node id="7292540221" lat="67.40688" lon="15.319429" version="1" timestamp="2020-03-13T17:24:49Z" changeset="82174515" uid="3497659" user="NKA" />
	<node id="7292572831" lat="67.406787" lon="15.319396" version="1" timestamp="2020-03-13T17:31:13Z" changeset="82174516" uid="3497659" user="NKA" />
	<node id="7292572832" lat="67.398601" lon="15.387415" version="1" timestamp="2020-03-13T17:31:13Z" changeset="82174516" uid="3497659" user="NKA" />
	<node id="7292572833" lat="67.39853" lon="15.38716" version="1" timestamp="2020-03-13T17:31:13Z" changeset="82174516" uid="3497659" user="NKA" />
	<node id="1402769513" lat="67.155519" lon="15.972911" version="3" timestamp="2020-03-13T17:31:13Z" changeset="82174516" uid="3497659" user="NKA">
		<tag k="barrier" v="gate" />
	</node>
	<node id="7292575416" lat="67.15518" lon="15.972226" version="1" timestamp="2020-03-13T17:31:13Z" changeset="82174516" uid="3497659" user="NKA" />
	<way id="131384499" version="4" timestamp="2022-01-24T06:56:00Z" changeset="116526664" uid="3497659" user="NKA">
		<tag k="bridge" v="yes" />
		<tag k="bridge:structure" v="beam" />
		<tag k="highway" v="residential" />
		<tag k="layer" v="1" />
		<tag k="maxspeed" v="50" />
		<tag k="name" v="Avilonbrua" />
		<tag k="ssr:stedsnr" v="530792" />
		<nd ref="7292575416" />
		<nd ref="1402769513" />
	</way>
	<way id="636804486" version="4" timestamp="2022-01-24T06:56:00Z" changeset="116526664" uid="3497659" user="NKA">
		<tag k="bridge" v="yes" />
		<tag k="highway" v="unclassified" />
		<tag k="layer" v="1" />
		<tag k="name" v="Nybrua" />
		<tag k="ssr:stedsnr" v="541296" />
		<nd ref="7292572831" />
		<nd ref="7292540221" />
	</way>
	<way id="781022988" version="2" timestamp="2022-01-24T06:56:00Z" changeset="116526664" uid="3497659" user="NKA">
		<tag k="bridge" v="yes" />
		<tag k="highway" v="service" />
		<tag k="layer" v="1" />
		<tag k="name" v="Fridalbrua" />
		<tag k="ssr:stedsnr" v="85762" />
		<nd ref="7292572833" />
		<nd ref="7292572832" />
	</way>
	<way id="781024245" version="2" timestamp="2022-01-24T06:56:00Z" changeset="116526664" uid="3497659" user="NKA">
		<tag k="bridge" v="yes" />
		<tag k="highway" v="secondary" />
		<tag k="layer" v="1" />
		<tag k="maxspeed" v="60" />
		<tag k="name" v="Lakselvbrua" />
		<tag k="ref" v="7472" />
		<tag k="ssr:stedsnr" v="328106" />
		<tag k="surface" v="asphalt" />
		<nd ref="7292575238" />
		<nd ref="7292535544" />
		<nd ref="7292540464" />
	</way>
</osm>
