<?xml version="1.0" encoding="UTF-8"?>
<osm generator="osmapis" version="0.6">
	<node id="-33019" lat="59.7866694425" lon="11.2699444354">
		<tag k="amenity" v="community_centre" />
		<tag k="name" v="Neset grendehus" />
		<tag k="ssr:stedsnr" v="707307" />
	</node>
	<node id="-32631" lat="59.8639500045" lon="11.2267216907">
		<tag k="alt_name" v="Dalen kapell" />
		<tag k="amenity" v="place_of_worship" />
		<tag k="denomination" v="lutheran" />
		<tag k="name" v="Dalen kirke" />
		<tag k="religion" v="christian" />
		<tag k="ssr:stedsnr" v="125718" />
	</node>
	<node id="-33258" lat="59.8721083349" lon="11.2478416756">
		<tag k="name" v="Aslakken" />
		<tag k="place" v="locality" />
		<tag k="ssr:stedsnr" v="950600" />
	</node>
	<node id="-32874" lat="59.9590536081" lon="11.1804734815">
		<tag k="amenity" v="community_centre" />
		<tag k="name" v="Håpets dør" />
		<tag k="ssr:stedsnr" v="540875" />
	</node>
	<node id="-32615" lat="59.8896055528" lon="11.2341861154">
		<tag k="name" v="Sakrissen" />
		<tag k="place" v="locality" />
		<tag k="ssr:stedsnr" v="118498" />
	</node>
	<node id="-32358" lat="59.9428944467" lon="11.1209666672">
		<tag k="name" v="Nergård" />
		<tag k="place" v="locality" />
		<tag k="ssr:stedsnr" v="302850" />
	</node>
	<node id="-32721" lat="59.8488944427" lon="11.2830000051">
		<tag k="name" v="Kaståsen" />
		<tag k="place" v="locality" />
		<tag k="ssr:stedsnr" v="223345" />
	</node>
	<node id="-33119" lat="59.9413722187" lon="11.1223388939">
		<tag k="name" v="Ek" />
		<tag k="place" v="locality" />
		<tag k="ssr:stedsnr" v="787855" />
	</node>
	<node id="-32733" lat="59.9384944406" lon="11.1347222187">
		<tag k="name" v="Tienenga" />
		<tag k="place" v="locality" />
		<tag k="ssr:stedsnr" v="239667" />
	</node>
	<node id="-32598" lat="59.8609666675" lon="11.2190138853">
		<tag k="name" v="Gansbruket" />
		<tag k="ssr:stedsnr" v="102399" />
		<tag k="tourism" v="museum" />
	</node>
	<node id="-32724" lat="59.8580277735" lon="11.2380861112">
		<tag k="name" v="Tyrihjellen" />
		<tag k="place" v="locality" />
		<tag k="ssr:stedsnr" v="237123" />
	</node>
	<node id="-32654" lat="59.9223916627" lon="11.2060638858">
		<tag k="name" v="Dulpen" />
		<tag k="place" v="locality" />
		<tag k="ssr:stedsnr" v="161831" />
	</node>
	<node id="-32977" lat="59.9523724274" lon="11.1482950412">
		<tag k="name" v="Tårnet" />
		<tag k="place" v="locality" />
		<tag k="ssr:stedsnr" v="661739" />
	</node>
	<node id="-33103" lat="59.9593527759" lon="11.2056722163">
		<tag k="name" v="Olberg" />
		<tag k="place" v="locality" />
		<tag k="ssr:stedsnr" v="783880" />
	</node>
	<node id="-32583" lat="59.7780805538" lon="11.3270666693">
		<tag k="name" v="Breilivangen" />
		<tag k="place" v="locality" />
		<tag k="ssr:stedsnr" v="100251" />
	</node>
	<node id="-32357" lat="59.9359444475" lon="11.1964749965">
		<tag k="name" v="Guriholtet" />
		<tag k="place" v="locality" />
		<tag k="ssr:stedsnr" v="302820" />
	</node>
	<node id="-32447" lat="59.909825003" lon="11.1720499966">
		<tag k="name" v="Jaerhaugen" />
		<tag k="place" v="locality" />
		<tag k="ssr:stedsnr" v="406685" />
	</node>
	<node id="-32991" lat="59.9312694472" lon="11.1427750011">
		<tag k="name" v="Hovinhøgda" />
		<tag k="place" v="locality" />
		<tag k="ssr:stedsnr" v="664681" />
	</node>
	<node id="-33204" lat="59.9143111136" lon="11.1657972189">
		<tag k="alt_name" v="Fet" />
		<tag k="amenity" v="place_of_worship" />
		<tag k="denomination" v="lutheran" />
		<tag k="name" v="Fet kirke" />
		<tag k="religion" v="christian" />
		<tag k="ssr:stedsnr" v="854587" />
	</node>
	<node id="-32806" lat="59.8557055582" lon="11.3014500016">
		<tag k="name" v="Elgsgrava" />
		<tag k="place" v="locality" />
		<tag k="ssr:stedsnr" v="465619" />
	</node>
	<node id="-33183" lat="59.9665944415" lon="11.1741361058">
		<tag k="name" v="Gravene" />
		<tag k="place" v="locality" />
		<tag k="ssr:stedsnr" v="844899" />
	</node>
	<node id="-32409" lat="59.9051972217" lon="11.235486118">
		<tag k="name" v="Tjennsbonn" />
		<tag k="place" v="locality" />
		<tag k="ssr:stedsnr" v="360619" />
	</node>
	<node id="-33170" lat="59.9016666632" lon="11.1650083257">
		<tag k="name" v="Kløyva" />
		<tag k="place" v="locality" />
		<tag k="ssr:stedsnr" v="831648" />
	</node>
	<node id="-32526" lat="59.9076916642" lon="11.1514500016">
		<tag k="name" v="Jaerstranda" />
		<tag k="place" v="locality" />
		<tag k="ssr:stedsnr" v="42652" />
	</node>
	<node id="-33159" lat="59.7802111133" lon="11.3050500031">
		<tag k="name" v="Elgegravene" />
		<tag k="place" v="locality" />
		<tag k="ssr:stedsnr" v="828247" />
	</node>
	<node id="-32900" lat="59.875161112" lon="11.2188527696">
		<tag k="amenity" v="community_centre" />
		<tag k="name" v="Dalheim" />
		<tag k="ssr:stedsnr" v="550659" />
	</node>
	<node id="-32515" lat="59.9095472178" lon="11.1904555638">
		<tag k="name" v="Løken varde" />
		<tag k="place" v="locality" />
		<tag k="ssr:stedsnr" v="21011" />
	</node>
</osm>
