<?xml version="1.0" encoding="UTF-8"?>
<osm generator="osmapis" version="0.6">
	<node id="-33270" lat="59.8564361081" lon="11.339625">
		<tag k="bridge" v="yes" />
		<tag k="layer" v="1" />
		<tag k="name" v="Midtskog" />
		<tag k="ssr:stedsnr" v="956044" />
	</node>
	<node id="-32616" lat="59.961352781" lon="11.1376777784">
		<tag k="highway" v="path" />
		<tag k="name" v="Midtskogvegen" />
		<tag k="ssr:stedsnr" v="116885" />
	</node>
	<node id="-32743" lat="59.9270305546" lon="11.1624194411">
		<tag k="name" v="Fetsund stasjon" />
		<tag k="railway" v="station" />
		<tag k="ssr:stedsnr" v="239695" />
		<tag k="train" v="yes" />
	</node>
	<node id="-32353" lat="59.9749833355" lon="11.1660138907">
		<tag k="fixme" v="consider highway=path" />
		<tag k="highway" v="track" />
		<tag k="name" v="Kongsrudmåsavegen" />
		<tag k="ssr:stedsnr" v="298884" />
	</node>
	<node id="-32608" lat="59.9377722257" lon="11.1341361092">
		<tag k="bridge" v="yes" />
		<tag k="layer" v="1" />
		<tag k="name" v="Bråten" />
		<tag k="ssr:stedsnr" v="107038" />
	</node>
	<node id="-32607" lat="59.8625472261" lon="11.2257805534">
		<tag k="bridge" v="yes" />
		<tag k="layer" v="1" />
		<tag k="name" v="Gan" />
		<tag k="ssr:stedsnr" v="107037" />
	</node>
	<node id="-32476" lat="59.9229722183" lon="11.1690972231">
		<tag k="bridge" v="yes" />
		<tag k="layer" v="1" />
		<tag k="name" v="Fetsund øst" />
		<tag k="ssr:stedsnr" v="896027" />
	</node>
	<node id="-32475" lat="59.9315055566" lon="11.1852888841">
		<tag k="bridge" v="yes" />
		<tag k="layer" v="1" />
		<tag k="name" v="Varå" />
		<tag k="ssr:stedsnr" v="896025" />
	</node>
	<node id="-32729" lat="59.9326166637" lon="11.1383027792">
		<tag k="bridge" v="yes" />
		<tag k="layer" v="1" />
		<tag k="name" v="Hovinbakken" />
		<tag k="ssr:stedsnr" v="228043" />
	</node>
	<node id="-32600" lat="59.9236499968" lon="11.1919916679">
		<tag k="junction" v="yes" />
		<tag k="name" v="Ramstad" />
		<tag k="place" v="locality" />
		<tag k="ssr:stedsnr" v="101860" />
	</node>
	<node id="-32333" lat="59.8153666671" lon="11.2439638964">
		<tag k="highway" v="path" />
		<tag k="name" v="Maristigen" />
		<tag k="ssr:stedsnr" v="282222" />
	</node>
	<node id="-32698" lat="59.9357750007" lon="11.1942083282">
		<tag k="junction" v="yes" />
		<tag k="name" v="Falla" />
		<tag k="place" v="locality" />
		<tag k="ssr:stedsnr" v="180855" />
	</node>
	<node id="-32442" lat="59.9429333333" lon="11.1027972157">
		<tag k="alt_name" v="Tuen" />
		<tag k="name" v="Tuen holdeplass" />
		<tag k="railway" v="halt" />
		<tag k="ssr:stedsnr" v="389982" />
		<tag k="train" v="yes" />
	</node>
	<node id="-32950" lat="59.9365527763" lon="11.1885666587">
		<tag k="junction" v="yes" />
		<tag k="name" v="Fråstad" />
		<tag k="place" v="locality" />
		<tag k="ssr:stedsnr" v="605866" />
	</node>
	<node id="-32820" lat="59.9239166686" lon="11.1580277739">
		<tag k="bridge" v="yes" />
		<tag k="layer" v="1" />
		<tag k="name" v="Nedrum" />
		<tag k="ssr:stedsnr" v="471029" />
	</node>
	<node id="-32819" lat="59.8445972265" lon="11.2439833391">
		<tag k="bridge" v="yes" />
		<tag k="layer" v="1" />
		<tag k="name" v="Ulverud" />
		<tag k="ssr:stedsnr" v="471027" />
	</node>
	<node id="-32684" lat="59.9229505701" lon="11.1410571119">
		<tag k="name" v="Nerdrum holdeplass" />
		<tag k="railway" v="halt" />
		<tag k="ssr:stedsnr" v="178639" />
		<tag k="train" v="yes" />
	</node>
	<node id="-32678" lat="59.9686305526" lon="11.1749861109">
		<tag k="fixme" v="consider highway=path" />
		<tag k="highway" v="track" />
		<tag k="name" v="Nybudalsvegen" />
		<tag k="ssr:stedsnr" v="176874" />
	</node>
	<node id="-33188" lat="59.9674222221" lon="11.1167138898">
		<tag k="fixme" v="consider highway=path" />
		<tag k="highway" v="track" />
		<tag k="name" v="Steindalsvegen" />
		<tag k="ssr:stedsnr" v="844892" />
	</node>
	<node id="-32669" lat="59.9302750036" lon="11.1464027826">
		<tag k="bridge" v="yes" />
		<tag k="layer" v="1" />
		<tag k="name" v="Gardertoppen" />
		<tag k="ssr:stedsnr" v="167034" />
	</node>
	<node id="-32668" lat="59.860908336" lon="11.3154000077">
		<tag k="bridge" v="yes" />
		<tag k="layer" v="1" />
		<tag k="name" v="Saga" />
		<tag k="ssr:stedsnr" v="167032" />
	</node>
	<node id="-32409" lat="59.9658361103" lon="11.1651999987">
		<tag k="fixme" v="consider highway=path" />
		<tag k="highway" v="track" />
		<tag k="name" v="Jasemyrvegen" />
		<tag k="ssr:stedsnr" v="358883" />
	</node>
	<node id="-32535" lat="59.9243916622" lon="11.1586166663">
		<tag k="bridge" v="yes" />
		<tag k="layer" v="1" />
		<tag k="name" v="Fetsund" />
		<tag k="ssr:stedsnr" v="46035" />
	</node>
	<node id="-32406" lat="59.9193416661" lon="11.1833916621">
		<tag k="bridge" v="yes" />
		<tag k="layer" v="1" />
		<tag k="name" v="Kringen" />
		<tag k="ssr:stedsnr" v="349047" />
	</node>
	<node id="-32533" lat="59.9428194449" lon="11.1284416663">
		<tag k="bridge" v="yes" />
		<tag k="layer" v="1" />
		<tag k="name" v="Merkja" />
		<tag k="ssr:stedsnr" v="46029" />
	</node>
</osm>
