<?xml version="1.0" encoding="UTF-8"?>
<osm generator="osmapis" version="0.6">
	<node id="-32853" lat="59.7886611138" lon="11.3162000028">
		<tag k="alt_name" v="Bjørnebraate Tj" />
		<tag k="fixme" v="multiple name tags, choose one and add the other to alt_name" />
		<tag k="name" v="Bjørnebråtetjern;Dalatjern" />
		<tag k="natural" v="water" />
		<tag k="ssr:stedsnr" v="490866" />
	</node>
	<node id="-32761" lat="59.9110694435" lon="11.2629055476">
		<tag k="name" v="Tretysjøen" />
		<tag k="natural" v="water" />
		<tag k="ssr:stedsnr" v="248643" />
	</node>
	<node id="-33272" lat="59.9419527785" lon="11.1786444412">
		<tag k="name" v="Finsnes" />
		<tag k="natural" v="cape" />
		<tag k="ssr:stedsnr" v="965872" />
	</node>
	<node id="-32759" lat="59.9570499976" lon="11.1042111146">
		<tag k="name" v="Jølsenbekken" />
		<tag k="ssr:stedsnr" v="248516" />
		<tag k="waterway" v="stream" />
	</node>
	<node id="-32757" lat="59.7741305554" lon="11.3362666652">
		<tag k="name" v="Sloretjern" />
		<tag k="natural" v="water" />
		<tag k="ssr:stedsnr" v="247892" />
	</node>
	<node id="-33268" lat="59.9170249966" lon="11.146919445">
		<tag k="name" v="Lund lenseanlegg" />
		<tag k="place" v="locality" />
		<tag k="ssr:stedsnr" v="952721" />
	</node>
	<node id="-32755" lat="59.8005499956" lon="11.2832777777">
		<tag k="alt_name" v="Bråtatjenn" />
		<tag k="name" v="Bråtatjern" />
		<tag k="natural" v="water" />
		<tag k="ssr:stedsnr" v="247815" />
	</node>
	<node id="-32754" lat="59.839633335" lon="11.3025166587">
		<tag k="name" v="Svarttjern" />
		<tag k="natural" v="water" />
		<tag k="ssr:stedsnr" v="247736" />
	</node>
	<node id="-32753" lat="59.8566749966" lon="11.2229416637">
		<tag k="name" v="Østanesåa" />
		<tag k="natural" v="bay" />
		<tag k="ssr:stedsnr" v="247709" />
	</node>
	<node id="-32752" lat="59.8603166645" lon="11.3032694491">
		<tag k="alt_name" v="Lintjenn" />
		<tag k="name" v="Lintjern" />
		<tag k="natural" v="water" />
		<tag k="ssr:stedsnr" v="247695" />
	</node>
	<node id="-32750" lat="59.9035361126" lon="11.2300777737">
		<tag k="alt_name" v="Lintjenn" />
		<tag k="name" v="Lintjern" />
		<tag k="natural" v="water" />
		<tag k="ssr:stedsnr" v="247617" />
	</node>
	<node id="-33256" lat="59.775802779" lon="11.2442638831">
		<tag k="name" v="Søndre Melnesvika" />
		<tag k="natural" v="bay" />
		<tag k="ssr:stedsnr" v="950300" />
	</node>
	<node id="-33255" lat="59.7872972191" lon="11.2855805594">
		<tag k="name" v="Vintervika" />
		<tag k="natural" v="bay" />
		<tag k="ssr:stedsnr" v="950299" />
	</node>
	<node id="-32849" lat="59.8707999989" lon="11.3221805571">
		<tag k="alt_name" v="Rundtjenn" />
		<tag k="name" v="Rundtjern" />
		<tag k="natural" v="water" />
		<tag k="ssr:stedsnr" v="490688" />
	</node>
	<node id="-33252" lat="59.7922472214" lon="11.2840472207">
		<tag k="name" v="Kavringen" />
		<tag k="place" v="islet" />
		<tag k="ssr:stedsnr" v="950281" />
	</node>
	<node id="-32732" lat="59.9627305535" lon="11.0869444477">
		<tag k="name" v="Rottebekken" />
		<tag k="ssr:stedsnr" v="237875" />
		<tag k="waterway" v="stream" />
	</node>
	<node id="-33243" lat="59.9021500004" lon="11.2587416676">
		<tag k="alt_name" v="Sjølstjennet" />
		<tag k="name" v="Sjølstjernet" />
		<tag k="natural" v="water" />
		<tag k="ssr:stedsnr" v="915616" />
	</node>
	<node id="-33242" lat="59.9131527769" lon="11.1243111088">
		<tag k="name" v="Øya" />
		<tag k="place" v="island" />
		<tag k="ssr:stedsnr" v="915591" />
	</node>
	<node id="-32847" lat="59.8896222226" lon="11.2803249972">
		<tag k="name" v="Tosken" />
		<tag k="natural" v="water" />
		<tag k="ssr:stedsnr" v="490657" />
	</node>
	<node id="-32723" lat="59.7739388858" lon="11.2544888976">
		<tag k="name" v="Melnesåa" />
		<tag k="ssr:stedsnr" v="221280" />
		<tag k="waterway" v="stream" />
	</node>
	<node id="-33228" lat="59.8945805596" lon="11.1709999999">
		<tag k="name" v="Purka" />
		<tag k="place" v="islet" />
		<tag k="ssr:stedsnr" v="907484" />
	</node>
	<node id="-32710" lat="59.9287679182" lon="11.2210938725">
		<tag k="name" v="Heia" />
		<tag k="natural" v="water" />
		<tag k="ssr:stedsnr" v="187550" />
		<tag k="water" v="lake" />
	</node>
	<node id="-32706" lat="59.9209833365" lon="11.2296361067">
		<tag k="name" v="Slora" />
		<tag k="natural" v="bay" />
		<tag k="ssr:stedsnr" v="187573" />
	</node>
	<node id="-32705" lat="59.7767916673" lon="11.2394138819">
		<tag k="name" v="Melnesholmen" />
		<tag k="place" v="islet" />
		<tag k="ssr:stedsnr" v="186900" />
	</node>
	<node id="-32704" lat="59.7831388915" lon="11.2364527725">
		<tag k="name" v="Ringstadnebben" />
		<tag k="natural" v="cape" />
		<tag k="ssr:stedsnr" v="186866" />
	</node>
	<node id="-33213" lat="59.8786138856" lon="11.1879888874">
		<tag k="name" v="Karte" />
		<tag k="place" v="islet" />
		<tag k="ssr:stedsnr" v="854659" />
	</node>
	<node id="-33212" lat="59.8817000002" lon="11.3235666603">
		<tag k="name" v="Slordammen" />
		<tag k="natural" v="water" />
		<tag k="old_name" v="Stordammen" />
		<tag k="ssr:stedsnr" v="854651" />
		<tag k="water" v="lake" />
	</node>
	<node id="-33211" lat="59.8865583308" lon="11.1615583294">
		<tag k="alt_name" v="Rosholmen" />
		<tag k="name" v="Rossholmen" />
		<tag k="place" v="islet" />
		<tag k="ssr:stedsnr" v="854631" />
	</node>
	<node id="-32692" lat="59.8398416646" lon="11.2999083304">
		<tag k="name" v="Snatatangen" />
		<tag k="natural" v="cape" />
		<tag k="ssr:stedsnr" v="180347" />
	</node>
	<node id="-32691" lat="59.8437055533" lon="11.30028333">
		<tag k="name" v="Stutøye" />
		<tag k="natural" v="water" />
		<tag k="ssr:stedsnr" v="180337" />
		<tag k="water" v="pond" />
	</node>
	<node id="-33196" lat="59.9330249985" lon="11.1666055493">
		<tag k="name" v="Holsevja" />
		<tag k="natural" v="bay" />
		<tag k="ssr:stedsnr" v="846641" />
	</node>
	<node id="-33195" lat="59.9104944425" lon="11.2371833344">
		<tag k="name" v="Kariholmen" />
		<tag k="place" v="islet" />
		<tag k="ssr:stedsnr" v="846624" />
	</node>
	<node id="-33193" lat="59.8672888865" lon="11.3043777739">
		<tag k="name" v="Bikkjetjenn" />
		<tag k="natural" v="water" />
		<tag k="ssr:stedsnr" v="846599" />
	</node>
	<node id="-33265" lat="59.8647527777" lon="11.2084944355">
		<tag k="name" v="Brågårdhalsen" />
		<tag k="natural" v="strait" />
		<tag k="ssr:stedsnr" v="952335" />
	</node>
	<node id="-32676" lat="59.9641666685" lon="11.1123305601">
		<tag k="name" v="Steindalsbekken" />
		<tag k="ssr:stedsnr" v="176871" />
		<tag k="waterway" v="stream" />
	</node>
	<node id="-32675" lat="59.968969442" lon="11.1024944373">
		<tag k="name" v="Jølsensvingen" />
		<tag k="place" v="locality" />
		<tag k="ssr:stedsnr" v="176866" />
	</node>
	<node id="-33186" lat="59.9032861069" lon="11.2087111173">
		<tag k="name" v="Gransdammen" />
		<tag k="natural" v="water" />
		<tag k="ssr:stedsnr" v="831699" />
	</node>
	<node id="-32666" lat="59.9150777764" lon="11.1313749999">
		<tag k="name" v="Merkja" />
		<tag k="natural" v="strait" />
		<tag k="ssr:stedsnr" v="163683" />
	</node>
	<node id="-33169" lat="59.7598527821" lon="11.3363055568">
		<tag k="name" v="Søndre Huldertjenn" />
		<tag k="natural" v="water" />
		<tag k="ssr:stedsnr" v="828291" />
		<tag k="water" v="pond" />
	</node>
	<node id="-32920" lat="59.7840583358" lon="11.2368722186">
		<tag k="name" v="Verkensvika" />
		<tag k="natural" v="bay" />
		<tag k="ssr:stedsnr" v="585257" />
	</node>
	<node id="-33164" lat="59.7903972245" lon="11.2401305621">
		<tag k="name" v="Nørstevika" />
		<tag k="natural" v="bay" />
		<tag k="ssr:stedsnr" v="828244" />
	</node>
	<node id="-32651" lat="59.8113944453" lon="11.243002774">
		<tag k="name" v="Marikjeldstranda" />
		<tag k="natural" v="beach" />
		<tag k="ssr:stedsnr" v="161263" />
	</node>
	<node id="-33162" lat="59.7892083339" lon="11.285247229">
		<tag k="name" v="Det smale sundet" />
		<tag k="natural" v="strait" />
		<tag k="ssr:stedsnr" v="828237" />
	</node>
	<node id="-33161" lat="59.7948472238" lon="11.2426027769">
		<tag k="name" v="Vikalandet" />
		<tag k="natural" v="beach" />
		<tag k="ssr:stedsnr" v="828230" />
	</node>
	<node id="-33160" lat="59.7904777784" lon="11.2958861035">
		<tag k="name" v="De hvite skjæra" />
		<tag k="place" v="islet" />
		<tag k="ssr:stedsnr" v="828222" />
	</node>
	<node id="-32647" lat="59.8844055526" lon="11.15489444">
		<tag k="name" v="Bukkesand" />
		<tag k="place" v="islet" />
		<tag k="ssr:stedsnr" v="142111" />
	</node>
	<node id="-33158" lat="59.8099250009" lon="11.2401750078">
		<tag k="name" v="Sandemsnebben" />
		<tag k="natural" v="cape" />
		<tag k="ssr:stedsnr" v="828213" />
	</node>
	<node id="-33157" lat="59.7929777782" lon="11.3023305596">
		<tag k="alt_name" v="Åbortjenn" />
		<tag k="name" v="Åbortjern" />
		<tag k="natural" v="water" />
		<tag k="ssr:stedsnr" v="794810" />
	</node>
	<node id="-33156" lat="59.8385638853" lon="11.2636749951">
		<tag k="alt_name" v="Rosstjenn" />
		<tag k="name" v="Rosstjern" />
		<tag k="natural" v="water" />
		<tag k="ssr:stedsnr" v="794773" />
	</node>
	<node id="-33153" lat="59.9568222207" lon="11.1845472188">
		<tag k="name" v="Skårersand" />
		<tag k="place" v="islet" />
		<tag k="ssr:stedsnr" v="794514" />
	</node>
	<node id="-33146" lat="59.8047527822" lon="11.2915694382">
		<tag k="name" v="Blytetjern" />
		<tag k="natural" v="water" />
		<tag k="ssr:stedsnr" v="793805" />
	</node>
	<node id="-32629" lat="59.8532000032" lon="11.2085500014">
		<tag k="name" v="Jonsnabben" />
		<tag k="natural" v="cape" />
		<tag k="ssr:stedsnr" v="120343" />
	</node>
	<node id="-32627" lat="59.9147222257" lon="11.2569138808">
		<tag k="name" v="Butteltjenn" />
		<tag k="natural" v="water" />
		<tag k="ssr:stedsnr" v="118653" />
	</node>
	<node id="-33137" lat="59.8869611129" lon="11.1791722297">
		<tag k="name" v="Furusand" />
		<tag k="natural" v="cape" />
		<tag k="ssr:stedsnr" v="793686" />
	</node>
	<node id="-32623" lat="59.8790750003" lon="11.2648416745">
		<tag k="name" v="Rødbekkbekken" />
		<tag k="ssr:stedsnr" v="118507" />
		<tag k="waterway" v="stream" />
	</node>
	<node id="-33134" lat="59.8999833354" lon="11.1564777741">
		<tag k="name" v="Kusandråka" />
		<tag k="natural" v="strait" />
		<tag k="ssr:stedsnr" v="793662" />
	</node>
	<node id="-33132" lat="59.9221277789" lon="11.2036111054">
		<tag k="name" v="Gransbekken" />
		<tag k="ssr:stedsnr" v="793627" />
		<tag k="waterway" v="stream" />
	</node>
	<node id="-32619" lat="59.8945472215" lon="11.165261114">
		<tag k="name" v="Jørholmvika" />
		<tag k="natural" v="bay" />
		<tag k="ssr:stedsnr" v="118481" />
	</node>
	<node id="-32613" lat="59.971700003" lon="11.0951250091">
		<tag k="name" v="Myrbosvingen" />
		<tag k="place" v="locality" />
		<tag k="ssr:stedsnr" v="116874" />
	</node>
	<node id="-33115" lat="59.8787527788" lon="11.2819944372">
		<tag k="name" v="Toskåa" />
		<tag k="ssr:stedsnr" v="785522" />
		<tag k="waterway" v="stream" />
	</node>
	<node id="-33108" lat="59.9539944423" lon="11.1783611066">
		<tag k="name" v="Vestelva" />
		<tag k="natural" v="strait" />
		<tag k="ssr:stedsnr" v="783879" />
	</node>
	<node id="-32910" lat="59.822150002" lon="11.2706444504">
		<tag k="alt_name" v="Vindlandstjenn" />
		<tag k="name" v="Vindlandstjernet" />
		<tag k="natural" v="water" />
		<tag k="ssr:stedsnr" v="550761" />
	</node>
	<node id="-33105" lat="59.9835361072" lon="11.1880611133">
		<tag k="name" v="Skjortebytta" />
		<tag k="natural" v="water" />
		<tag k="ssr:stedsnr" v="793497" />
	</node>
	<node id="-33104" lat="59.9096805533" lon="11.1263777768">
		<tag k="name" v="Rudsholmen" />
		<tag k="natural" v="cape" />
		<tag k="ssr:stedsnr" v="770683" />
	</node>
	<node id="-33103" lat="59.9036527773" lon="11.1134555518">
		<tag k="name" v="Kavringen" />
		<tag k="place" v="islet" />
		<tag k="ssr:stedsnr" v="770674" />
	</node>
	<node id="-32584" lat="59.8017416685" lon="11.2459722174">
		<tag k="name" v="Ersrudvika" />
		<tag k="natural" v="bay" />
		<tag k="ssr:stedsnr" v="100227" />
	</node>
	<node id="-32583" lat="59.7931861107" lon="11.2915444481">
		<tag k="name" v="Store Saueholmen" />
		<tag k="place" v="islet" />
		<tag k="ssr:stedsnr" v="100224" />
	</node>
	<node id="-32582" lat="59.7904777778" lon="11.2907888802">
		<tag k="name" v="Kjonestein" />
		<tag k="place" v="islet" />
		<tag k="ssr:stedsnr" v="100221" />
	</node>
	<node id="-32581" lat="59.8129388921" lon="11.2709111175">
		<tag k="name" v="Finnsbergtjenn" />
		<tag k="natural" v="water" />
		<tag k="ssr:stedsnr" v="100215" />
	</node>
	<node id="-33092" lat="59.7908083299" lon="11.285141672">
		<tag k="name" v="Det breie sundet" />
		<tag k="natural" v="strait" />
		<tag k="ssr:stedsnr" v="767254" />
	</node>
	<node id="-32579" lat="59.7691250021" lon="11.3178222188">
		<tag k="alt_name" v="Gravtjern, søndre;Søndre Gravtjenn" />
		<tag k="name" v="Søndre Gravtjern" />
		<tag k="natural" v="water" />
		<tag k="ssr:stedsnr" v="65921" />
	</node>
	<node id="-33090" lat="59.7929833341" lon="11.2939527845">
		<tag k="name" v="Seterlandet" />
		<tag k="natural" v="beach" />
		<tag k="ssr:stedsnr" v="767239" />
	</node>
	<node id="-32572" lat="59.8436388862" lon="11.3030444505">
		<tag k="alt_name" v="Holmetjenn" />
		<tag k="name" v="Holmetjern" />
		<tag k="natural" v="water" />
		<tag k="ssr:stedsnr" v="65746" />
	</node>
	<node id="-33080" lat="59.8458388848" lon="11.2206138806">
		<tag k="name" v="Lindjulsvika" />
		<tag k="natural" v="bay" />
		<tag k="ssr:stedsnr" v="733708" />
	</node>
	<node id="-33072" lat="59.9046388872" lon="11.1230694388">
		<tag k="alt_name" v="Rusholet" />
		<tag k="name" v="Rudsholet" />
		<tag k="natural" v="strait" />
		<tag k="ssr:stedsnr" v="733580" />
	</node>
	<node id="-33070" lat="59.9263611156" lon="11.2538750018">
		<tag k="alt_name" v="Abbortjernet" />
		<tag k="name" v="Abbortjern" />
		<tag k="natural" v="water" />
		<tag k="ssr:stedsnr" v="733568" />
	</node>
	<node id="-32557" lat="59.8600444481" lon="11.320841662">
		<tag k="name" v="Kattfossen" />
		<tag k="natural" v="waterfall" />
		<tag k="ssr:stedsnr" v="57576" />
	</node>
	<node id="-32556" lat="59.8614249976" lon="11.3336916667">
		<tag k="name" v="Midtskogdammen" />
		<tag k="natural" v="water" />
		<tag k="ssr:stedsnr" v="57575" />
	</node>
	<node id="-32554" lat="59.869538892" lon="11.3361194485">
		<tag k="name" v="Støttebergdammen" />
		<tag k="ssr:stedsnr" v="57563" />
		<tag k="waterway" v="dam" />
	</node>
	<node id="-32903" lat="59.895336112" lon="11.1429805598">
		<tag k="name" v="Sniksand" />
		<tag k="natural" v="cape" />
		<tag k="ssr:stedsnr" v="550620" />
	</node>
	<node id="-33064" lat="59.787919441" lon="11.2859055514">
		<tag k="alt_name" v="Lintjenn" />
		<tag k="name" v="Lintjernet" />
		<tag k="natural" v="water" />
		<tag k="ssr:stedsnr" v="733508" />
	</node>
	<node id="-33063" lat="59.7687916648" lon="11.3290361188">
		<tag k="alt_name" v="Hansketjenn" />
		<tag k="name" v="Hansketjern" />
		<tag k="natural" v="water" />
		<tag k="ssr:stedsnr" v="733507" />
	</node>
	<node id="-33062" lat="59.7765305582" lon="11.3135972229">
		<tag k="alt_name" v="Gravtjern, nordre;Nordre Gravtjenn" />
		<tag k="name" v="Nordre Gravtjern" />
		<tag k="natural" v="water" />
		<tag k="ssr:stedsnr" v="732846" />
	</node>
	<node id="-33059" lat="59.8661527753" lon="11.3411138914">
		<tag k="alt_name" v="Bjønntjenn" />
		<tag k="name" v="Bjørntjern" />
		<tag k="natural" v="water" />
		<tag k="ssr:stedsnr" v="732707" />
	</node>
	<node id="-33057" lat="59.9068694447" lon="11.1456749992">
		<tag k="alt_name" v="Jushaugsandråka" />
		<tag k="name" v="Gjushaugsandråka" />
		<tag k="ssr:stedsnr" v="732660" />
		<tag k="waterway" v="stream" />
	</node>
	<node id="-33054" lat="59.8410361134" lon="11.2485305613">
		<tag k="name" v="Ulverudåa" />
		<tag k="ssr:stedsnr" v="727366" />
		<tag k="waterway" v="river" />
	</node>
	<node id="-32986" lat="59.9457972253" lon="11.2382555579">
		<tag k="name" v="Tofsrudnebben" />
		<tag k="natural" v="cape" />
		<tag k="ssr:stedsnr" v="661889" />
	</node>
	<node id="-32538" lat="59.9584666665" lon="11.1953138847">
		<tag k="name" v="Hareholmen" />
		<tag k="natural" v="cape" />
		<tag k="ssr:stedsnr" v="55874" />
	</node>
	<node id="-33050" lat="59.9385194458" lon="11.1656555532">
		<tag k="name" v="Varåa" />
		<tag k="ssr:stedsnr" v="725607" />
		<tag k="waterway" v="stream" />
	</node>
	<node id="-32900" lat="59.9432016253" lon="11.2493966941">
		<tag k="name" v="Varsjøen" />
		<tag k="natural" v="water" />
		<tag k="ssr:stedsnr" v="550538" />
		<tag k="water" v="lake" />
	</node>
	<node id="-32534" lat="59.7621694436" lon="11.2467138842">
		<tag k="name" v="Hunesnebben" />
		<tag k="place" v="islet" />
		<tag k="ssr:stedsnr" v="46031" />
	</node>
	<node id="-32529" lat="59.9268555565" lon="11.2177944458">
		<tag k="name" v="Ramstadvika" />
		<tag k="natural" v="bay" />
		<tag k="ssr:stedsnr" v="40850" />
	</node>
	<node id="-32527" lat="59.7672833291" lon="11.241733331">
		<tag k="name" v="Sulusand" />
		<tag k="place" v="islet" />
		<tag k="ssr:stedsnr" v="39255" />
	</node>
	<node id="-32526" lat="59.775408329" lon="11.2993027798">
		<tag k="name" v="Karustjenn" />
		<tag k="natural" v="water" />
		<tag k="ssr:stedsnr" v="39231" />
	</node>
	<node id="-32524" lat="59.7955972228" lon="11.2830277727">
		<tag k="name" v="Ulsrudhellholmen" />
		<tag k="place" v="islet" />
		<tag k="ssr:stedsnr" v="39212" />
	</node>
	<node id="-32523" lat="59.7963944439" lon="11.2419944457">
		<tag k="name" v="Skjærabergene" />
		<tag k="natural" v="cape" />
		<tag k="ssr:stedsnr" v="39207" />
	</node>
	<node id="-33031" lat="59.8690027774" lon="11.2671944459">
		<tag k="name" v="Hagendammen" />
		<tag k="natural" v="water" />
		<tag k="ssr:stedsnr" v="707621" />
	</node>
	<node id="-32516" lat="59.7781888921" lon="11.3015250082">
		<tag k="alt_name" v="Igletjenn" />
		<tag k="name" v="Igletjern" />
		<tag k="natural" v="water" />
		<tag k="ssr:stedsnr" v="4869" />
	</node>
	<node id="-32515" lat="59.8220472207" lon="11.2575222289">
		<tag k="name" v="Opptjern" />
		<tag k="natural" v="water" />
		<tag k="ssr:stedsnr" v="4835" />
	</node>
	<node id="-33026" lat="59.7762388898" lon="11.2737250018">
		<tag k="name" v="Kvernhusbekken" />
		<tag k="ssr:stedsnr" v="707313" />
		<tag k="waterway" v="stream" />
	</node>
	<node id="-32513" lat="59.8266055521" lon="11.2752999992">
		<tag k="alt_name" v="Lomtjenn" />
		<tag k="name" v="Lomtjern" />
		<tag k="natural" v="water" />
		<tag k="ssr:stedsnr" v="4782" />
	</node>
	<node id="-32512" lat="59.8247805587" lon="11.2878444407">
		<tag k="alt_name" v="Mjøsjøen, s;Mjøsjøen" />
		<tag k="name" v="Søndre Mjøsjøen" />
		<tag k="natural" v="water" />
		<tag k="ssr:stedsnr" v="4780" />
		<tag k="water" v="lake" />
	</node>
	<node id="-33018" lat="59.7934525879" lon="11.2872675354">
		<tag k="name" v="Bølertjern" />
		<tag k="natural" v="water" />
		<tag k="old_name" v="Bølertjenn" />
		<tag k="ssr:stedsnr" v="672839" />
		<tag k="water" v="lake" />
	</node>
	<node id="-33016" lat="59.8658611098" lon="11.2061916746">
		<tag k="name" v="Blesavika" />
		<tag k="natural" v="bay" />
		<tag k="ssr:stedsnr" v="672679" />
	</node>
	<node id="-33010" lat="59.9160333301" lon="11.2437444465">
		<tag k="alt_name" v="Svarttjenn" />
		<tag k="name" v="Svarttjern" />
		<tag k="natural" v="water" />
		<tag k="ssr:stedsnr" v="672593" />
	</node>
	<node id="-33003" lat="59.9355611078" lon="11.0783888957">
		<tag k="fixme" v="multiple name tags, choose one and add the other to alt_name" />
		<tag k="name" v="Sundtangen;Tutangen" />
		<tag k="natural" v="cape" />
		<tag k="ssr:stedsnr" v="672062" />
	</node>
	<node id="-32996" lat="59.9231194466" lon="11.1328555618">
		<tag k="name" v="Hovinstrand" />
		<tag k="natural" v="beach" />
		<tag k="ssr:stedsnr" v="664667" />
	</node>
	<node id="-32995" lat="59.92717222" lon="11.1299666748">
		<tag k="name" v="Elvestrand" />
		<tag k="natural" v="beach" />
		<tag k="ssr:stedsnr" v="664663" />
	</node>
	<node id="-32987" lat="59.943577775" lon="11.244122229">
		<tag k="name" v="Mattisnebben" />
		<tag k="natural" v="cape" />
		<tag k="ssr:stedsnr" v="661891" />
	</node>
	<node id="-32474" lat="59.9098055593" lon="11.1518555548">
		<tag k="name" v="Hovsevja" />
		<tag k="natural" v="bay" />
		<tag k="ssr:stedsnr" v="892680" />
	</node>
	<node id="-32471" lat="59.8595583346" lon="11.2130249977">
		<tag k="name" v="Galgetangen" />
		<tag k="natural" v="cape" />
		<tag k="ssr:stedsnr" v="891380" />
	</node>
	<node id="-32466" lat="59.823522223" lon="11.2541111133">
		<tag k="name" v="Vesle Opptjenn" />
		<tag k="natural" v="water" />
		<tag k="ssr:stedsnr" v="889363" />
	</node>
	<node id="-32462" lat="59.8037833374" lon="11.245825004">
		<tag k="name" v="Smekka" />
		<tag k="natural" v="bay" />
		<tag k="ssr:stedsnr" v="889264" />
	</node>
	<node id="-32458" lat="59.9687972259" lon="11.2027694423">
		<tag k="name" v="Strandevja" />
		<tag k="natural" v="bay" />
		<tag k="ssr:stedsnr" v="479127" />
	</node>
	<node id="-32969" lat="59.7766766309" lon="11.2418284276">
		<tag k="name" v="Nordre Melnesvika" />
		<tag k="natural" v="bay" />
		<tag k="ssr:stedsnr" v="646291" />
	</node>
	<node id="-32454" lat="59.9160138896" lon="11.1240638864">
		<tag k="alt_name" v="Vestvolden" />
		<tag k="name" v="Vestvollen" />
		<tag k="natural" v="beach" />
		<tag k="ssr:stedsnr" v="406727" />
	</node>
	<node id="-32965" lat="59.7947111084" lon="11.2848583375">
		<tag k="name" v="Adams baderi" />
		<tag k="place" v="islet" />
		<tag k="ssr:stedsnr" v="646266" />
	</node>
	<node id="-32445" lat="59.8047638909" lon="11.2441777814">
		<tag k="name" v="Kreppanebben" />
		<tag k="natural" v="cape" />
		<tag k="ssr:stedsnr" v="403241" />
	</node>
	<node id="-32955" lat="59.899552781" lon="11.1711805578">
		<tag k="name" v="Monsrudvika" />
		<tag k="natural" v="bay" />
		<tag k="ssr:stedsnr" v="611665" />
	</node>
	<node id="-32954" lat="59.9120472255" lon="11.2372166604">
		<tag k="alt_name" v="Hvalstjenn" />
		<tag k="name" v="Hvalstjern" />
		<tag k="natural" v="water" />
		<tag k="ssr:stedsnr" v="611625" />
	</node>
	<node id="-32439" lat="59.905066667" lon="11.1547472236">
		<tag k="name" v="Feta" />
		<tag k="natural" v="bay" />
		<tag k="ssr:stedsnr" v="369562" />
	</node>
	<node id="-32437" lat="59.7745416626" lon="11.2442111195">
		<tag k="name" v="Melnesvika" />
		<tag k="natural" v="bay" />
		<tag k="ssr:stedsnr" v="368899" />
	</node>
	<node id="-32430" lat="59.8950527817" lon="11.1601805583">
		<tag k="name" v="Jørholmen" />
		<tag k="place" v="islet" />
		<tag k="ssr:stedsnr" v="368676" />
	</node>
	<node id="-32429" lat="59.9039611092" lon="11.139405549">
		<tag k="alt_name" v="Jushaugsand" />
		<tag k="name" v="Gjushaugsand" />
		<tag k="place" v="islet" />
		<tag k="ssr:stedsnr" v="368673" />
	</node>
	<node id="-32882" lat="59.9655083371" lon="11.0975472236">
		<tag k="name" v="Jølsengrunna" />
		<tag k="natural" v="shoal" />
		<tag k="place" v="locality" />
		<tag k="ssr:stedsnr" v="540885" />
	</node>
	<node id="-32424" lat="59.94681667" lon="11.1454611138">
		<tag k="alt_name" v="Tientjennet" />
		<tag k="name" v="Tientjernet" />
		<tag k="natural" v="water" />
		<tag k="ssr:stedsnr" v="368586" />
	</node>
	<node id="-32928" lat="59.9062055601" lon="11.189805554">
		<tag k="name" v="Valrossdam" />
		<tag k="natural" v="water" />
		<tag k="ssr:stedsnr" v="588742" />
	</node>
	<node id="-32978" lat="59.9067638907" lon="11.1476888951">
		<tag k="name" v="Veslesand" />
		<tag k="natural" v="beach" />
		<tag k="ssr:stedsnr" v="648695" />
	</node>
	<node id="-32411" lat="59.8897527807" lon="11.166216675">
		<tag k="name" v="Rosholmråka" />
		<tag k="natural" v="strait" />
		<tag k="ssr:stedsnr" v="360491" />
	</node>
	<node id="-32922" lat="59.7614027795" lon="11.3389944455">
		<tag k="name" v="Nordre Huldertjenn" />
		<tag k="natural" v="water" />
		<tag k="ssr:stedsnr" v="585263" />
	</node>
	<node id="-32408" lat="59.9399999958" lon="11.2499833297">
		<tag k="name" v="Korsvika" />
		<tag k="natural" v="bay" />
		<tag k="ssr:stedsnr" v="358869" />
	</node>
	<node id="-32403" lat="59.9164111071" lon="11.1526944407">
		<tag k="name" v="Prestestranda" />
		<tag k="natural" v="beach" />
		<tag k="ssr:stedsnr" v="345681" />
	</node>
	<node id="-32402" lat="59.9027444423" lon="11.1727305474">
		<tag k="name" v="Råsokstranda" />
		<tag k="natural" v="beach" />
		<tag k="ssr:stedsnr" v="345675" />
	</node>
	<node id="-32398" lat="59.8740277747" lon="11.2736833358">
		<tag k="name" v="Skjatvetdammen" />
		<tag k="natural" v="water" />
		<tag k="ssr:stedsnr" v="343642" />
	</node>
	<node id="-32908" lat="59.8618777787" lon="11.2128388951">
		<tag k="name" v="Gansvika" />
		<tag k="natural" v="bay" />
		<tag k="ssr:stedsnr" v="550694" />
	</node>
	<node id="-33216" lat="59.8034361097" lon="11.2691222278">
		<tag k="alt_name" v="Lintjenn" />
		<tag k="name" v="Lintjernet" />
		<tag k="natural" v="water" />
		<tag k="ssr:stedsnr" v="854774" />
	</node>
	<node id="-32620" lat="59.8950583325" lon="11.1460916643">
		<tag k="name" v="Sniksandråka" />
		<tag k="natural" v="strait" />
		<tag k="ssr:stedsnr" v="118483" />
	</node>
	<node id="-32388" lat="59.7919944443" lon="11.2908555541">
		<tag k="name" v="Vesle Saueholmen" />
		<tag k="place" v="islet" />
		<tag k="ssr:stedsnr" v="342229" />
	</node>
	<node id="-32386" lat="59.8005388879" lon="11.2740583316">
		<tag k="alt_name" v="Langtjenn" />
		<tag k="name" v="Langtjernet" />
		<tag k="natural" v="water" />
		<tag k="ssr:stedsnr" v="308832" />
	</node>
	<node id="-32385" lat="59.8419361087" lon="11.3126361068">
		<tag k="name" v="Brutjern" />
		<tag k="natural" v="water" />
		<tag k="ssr:stedsnr" v="308719" />
	</node>
	<node id="-32383" lat="59.8586361157" lon="11.2062305492">
		<tag k="name" v="Tjuvholmen" />
		<tag k="place" v="islet" />
		<tag k="ssr:stedsnr" v="308690" />
	</node>
	<node id="-32382" lat="59.8612861151" lon="11.3526138815">
		<tag k="name" v="Holmetjern" />
		<tag k="natural" v="water" />
		<tag k="ssr:stedsnr" v="308681" />
	</node>
	<node id="-32893" lat="59.8345611129" lon="11.2551611116">
		<tag k="name" v="Jordsdammen" />
		<tag k="ssr:stedsnr" v="544367" />
		<tag k="waterway" v="dam" />
	</node>
	<node id="-32379" lat="59.9074083323" lon="11.2000777845">
		<tag k="alt_name" v="Knappentjennet" />
		<tag k="name" v="Knappentjernet" />
		<tag k="natural" v="water" />
		<tag k="ssr:stedsnr" v="308594" />
	</node>
	<node id="-32886" lat="59.8795194457" lon="11.2588861156">
		<tag k="name" v="Lintjenn" />
		<tag k="natural" v="water" />
		<tag k="ssr:stedsnr" v="543530" />
	</node>
	<node id="-32885" lat="59.8840916637" lon="11.1483333296">
		<tag k="name" v="Storsandråka" />
		<tag k="natural" v="strait" />
		<tag k="ssr:stedsnr" v="543517" />
	</node>
	<node id="-32372" lat="59.959336111" lon="11.1317444497">
		<tag k="name" v="Bergerbekken" />
		<tag k="ssr:stedsnr" v="308462" />
		<tag k="waterway" v="stream" />
	</node>
	<node id="-32371" lat="59.9848861152" lon="11.1862000056">
		<tag k="alt_name" v="Agntjennet" />
		<tag k="name" v="Agnetjernet" />
		<tag k="natural" v="water" />
		<tag k="ssr:stedsnr" v="308414" />
	</node>
	<node id="-32370" lat="59.9744722188" lon="11.1635916599">
		<tag k="alt_name" v="Småtjern" />
		<tag k="name" v="Småtjerna" />
		<tag k="natural" v="water" />
		<tag k="ssr:stedsnr" v="308397" />
	</node>
	<node id="-32881" lat="59.9628055594" lon="11.0906388918">
		<tag k="name" v="Nesa" />
		<tag k="natural" v="cape" />
		<tag k="ssr:stedsnr" v="540884" />
	</node>
	<node id="-32367" lat="59.9544249981" lon="11.0819027803">
		<tag k="name" v="Langtangen" />
		<tag k="natural" v="cape" />
		<tag k="ssr:stedsnr" v="307541" />
	</node>
	<node id="-32957" lat="59.8886694402" lon="11.2737888909">
		<tag k="alt_name" v="Breidmåsatjernet" />
		<tag k="name" v="Breimåsatjennet" />
		<tag k="natural" v="water" />
		<tag k="ssr:stedsnr" v="611678" />
	</node>
	<node id="-32876" lat="59.9145055595" lon="11.2258444416">
		<tag k="name" v="Kloterudbekken" />
		<tag k="ssr:stedsnr" v="527752" />
		<tag k="waterway" v="stream" />
	</node>
	<node id="-32874" lat="59.911388892" lon="11.150633327">
		<tag k="name" v="Hovsand" />
		<tag k="natural" v="cape" />
		<tag k="ssr:stedsnr" v="527697" />
	</node>
	<node id="-32873" lat="59.8967194403" lon="11.1653833325">
		<tag k="name" v="Svineskinna" />
		<tag k="natural" v="cape" />
		<tag k="ssr:stedsnr" v="527686" />
	</node>
	<node id="-32360" lat="59.9213944423" lon="11.1549666631">
		<tag k="name" v="Fetsund lense" />
		<tag k="place" v="locality" />
		<tag k="ssr:stedsnr" v="300683" />
	</node>
	<node id="-32871" lat="59.863944448" lon="11.2446472219">
		<tag k="name" v="Høldammen" />
		<tag k="natural" v="water" />
		<tag k="ssr:stedsnr" v="527602" />
		<tag k="water" v="lake" />
	</node>
	<node id="-32357" lat="59.886919446" lon="11.1844777723">
		<tag k="name" v="Kvernhammervika" />
		<tag k="natural" v="bay" />
		<tag k="ssr:stedsnr" v="300562" />
	</node>
	<node id="-32356" lat="59.8834472189" lon="11.2111833268">
		<tag k="name" v="Svendalsbekken" />
		<tag k="ssr:stedsnr" v="300556" />
		<tag k="waterway" v="stream" />
	</node>
	<node id="-32351" lat="59.9619250036" lon="11.1876611084">
		<tag k="name" v="Holmen" />
		<tag k="place" v="islet" />
		<tag k="ssr:stedsnr" v="298130" />
	</node>
	<node id="-32349" lat="59.9138000029" lon="11.1332416659">
		<tag k="name" v="Fråstadeng" />
		<tag k="natural" v="cape" />
		<tag k="ssr:stedsnr" v="285677" />
	</node>
	<node id="-32348" lat="59.9125666711" lon="11.1327527804">
		<tag k="name" v="Leirtangen" />
		<tag k="natural" v="cape" />
		<tag k="ssr:stedsnr" v="285676" />
	</node>
	<node id="-32855" lat="59.7987416639" lon="11.2841000035">
		<tag k="name" v="Bråtatjennsundet" />
		<tag k="natural" v="strait" />
		<tag k="ssr:stedsnr" v="525290" />
	</node>
	<node id="-32341" lat="59.7802249958" lon="11.2837583326">
		<tag k="name" v="Svartdalbekken" />
		<tag k="ssr:stedsnr" v="282258" />
		<tag k="waterway" v="stream" />
	</node>
	<node id="-32340" lat="59.7866444456" lon="11.2589638866">
		<tag k="name" v="Skredderstadbekken" />
		<tag k="ssr:stedsnr" v="282255" />
		<tag k="waterway" v="stream" />
	</node>
	<node id="-33038" lat="59.9105777816" lon="11.1251666649">
		<tag k="name" v="Balnesevja" />
		<tag k="natural" v="bay" />
		<tag k="ssr:stedsnr" v="709685" />
	</node>
	<node id="-32337" lat="59.7968250018" lon="11.2795638889">
		<tag k="name" v="Hella" />
		<tag k="natural" v="cape" />
		<tag k="ssr:stedsnr" v="282235" />
	</node>
	<node id="-32335" lat="59.7905472184" lon="11.3042833293">
		<tag k="name" v="Bånntjenn" />
		<tag k="natural" v="bay" />
		<tag k="ssr:stedsnr" v="282226" />
	</node>
	<node id="-32846" lat="59.8873000017" lon="11.1448944487">
		<tag k="name" v="Storsand" />
		<tag k="place" v="islet" />
		<tag k="ssr:stedsnr" v="490647" />
	</node>
	<node id="-32845" lat="59.8979972217" lon="11.2354444373">
		<tag k="name" v="Gjæsstjernet" />
		<tag k="natural" v="water" />
		<tag k="ssr:stedsnr" v="490637" />
	</node>
	<node id="-32842" lat="59.9277638854" lon="11.1220527823">
		<tag k="alt_name" v="Svellet" />
		<tag k="name" v="Svelle" />
		<tag k="natural" v="water" />
		<tag k="ssr:stedsnr" v="490560" />
	</node>
	<node id="-32831" lat="59.9321888922" lon="11.1236833297">
		<tag k="name" v="Balnesstrand" />
		<tag k="natural" v="beach" />
		<tag k="ssr:stedsnr" v="482661" />
	</node>
	<node id="-32828" lat="59.8854694454" lon="11.1869194397">
		<tag k="name" v="Laure" />
		<tag k="natural" v="shoal" />
		<tag k="place" v="locality" />
		<tag k="ssr:stedsnr" v="482563" />
	</node>
	<node id="-32826" lat="59.8950055532" lon="11.1994722255">
		<tag k="name" v="Tolerudbekken" />
		<tag k="ssr:stedsnr" v="482558" />
		<tag k="waterway" v="stream" />
	</node>
	<node id="-32823" lat="59.8920249989" lon="11.1641305507">
		<tag k="name" v="Langvarpet" />
		<tag k="natural" v="bay" />
		<tag k="ssr:stedsnr" v="482529" />
	</node>
	<node id="-32816" lat="59.9000611073" lon="11.1517611112">
		<tag k="name" v="Kusandflæra" />
		<tag k="natural" v="bay" />
		<tag k="ssr:stedsnr" v="466725" />
	</node>
	<node id="-32815" lat="59.9309361122" lon="11.2172444425">
		<tag k="name" v="Vestheia" />
		<tag k="place" v="islet" />
		<tag k="ssr:stedsnr" v="465873" />
	</node>
	<node id="-32813" lat="59.9282666643" lon="11.2284111051">
		<tag k="name" v="Tangen" />
		<tag k="natural" v="cape" />
		<tag k="ssr:stedsnr" v="465848" />
	</node>
	<node id="-32810" lat="59.8684694485" lon="11.2798777815">
		<tag k="name" v="Svenskerudbekken" />
		<tag k="ssr:stedsnr" v="465609" />
		<tag k="waterway" v="stream" />
	</node>
	<node id="-32808" lat="59.8196277792" lon="11.2553472273">
		<tag k="name" v="Møkkhølet" />
		<tag k="natural" v="water" />
		<tag k="ssr:stedsnr" v="464377" />
	</node>
	<node id="-32806" lat="59.7694611105" lon="11.2437333377">
		<tag k="name" v="Hunesholmene" />
		<tag k="place" v="islet" />
		<tag k="ssr:stedsnr" v="464302" />
	</node>
	<node id="-32804" lat="59.7778472239" lon="11.2407138901">
		<tag k="name" v="Holtvika" />
		<tag k="natural" v="bay" />
		<tag k="ssr:stedsnr" v="464287" />
	</node>
	<node id="-32774" lat="59.9358388912" lon="11.1273000029">
		<tag k="name" v="Merkja" />
		<tag k="natural" v="bay" />
		<tag k="ssr:stedsnr" v="421658" />
	</node>
	<node id="-32801" lat="59.7846138924" lon="11.3018805559">
		<tag k="name" v="Kolåsbekken" />
		<tag k="ssr:stedsnr" v="464275" />
		<tag k="waterway" v="stream" />
	</node>
	<node id="-32800" lat="59.7921277787" lon="11.2790111096">
		<tag k="alt_name" v="Orlokstjenn" />
		<tag k="name" v="Orlokstjern" />
		<tag k="natural" v="water" />
		<tag k="ssr:stedsnr" v="430810" />
	</node>
	<node id="-32797" lat="59.9649777805" lon="11.1207138873">
		<tag k="alt_name" v="Hotvettjennet" />
		<tag k="name" v="Hotvettjernet" />
		<tag k="natural" v="water" />
		<tag k="ssr:stedsnr" v="430479" />
	</node>
	<node id="-32791" lat="59.8899444482" lon="11.1780444421">
		<tag k="alt_name" v="Skjeret" />
		<tag k="name" v="Skjæret" />
		<tag k="natural" v="shoal" />
		<tag k="place" v="locality" />
		<tag k="ssr:stedsnr" v="429646" />
	</node>
	<node id="-32789" lat="59.8985111149" lon="11.1496583302">
		<tag k="name" v="Kusand" />
		<tag k="place" v="islet" />
		<tag k="ssr:stedsnr" v="429613" />
	</node>
	<node id="-33027" lat="59.8461194408" lon="11.2157583357">
		<tag k="name" v="Delingstangen" />
		<tag k="natural" v="cape" />
		<tag k="ssr:stedsnr" v="707361" />
	</node>
	<node id="-33286" lat="59.8487722227" lon="11.2594444383">
		<tag k="name" v="Bjørndalsbekken" />
		<tag k="ssr:stedsnr" v="969360" />
		<tag k="waterway" v="stream" />
	</node>
</osm>
