<?xml version="1.0" encoding="UTF-8"?>
<osm generator="osmapis" version="0.6">
	<node id="-33278" lat="59.8792527765" lon="11.2982194356">
		<tag k="name" v="Matheamyr" />
		<tag k="natural" v="wetland" />
		<tag k="ssr:stedsnr" v="967669" />
	</node>
	<node id="-32763" lat="59.9509833373" lon="11.1713583388">
		<tag k="alt_name" v="Fallerhagen" />
		<tag k="name" v="Fallerhagan" />
		<tag k="place" v="locality" />
		<tag k="ssr:stedsnr" v="419849" />
	</node>
	<node id="-33270" lat="59.8776305525" lon="11.3021972154">
		<tag k="name" v="Tørrhjellmåsan" />
		<tag k="natural" v="wetland" />
		<tag k="ssr:stedsnr" v="967508" />
	</node>
	<node id="-32681" lat="59.890749999" lon="11.2541055563">
		<tag k="name" v="Oppegårdsmyra" />
		<tag k="natural" v="wetland" />
		<tag k="ssr:stedsnr" v="179527" />
	</node>
	<node id="-32756" lat="59.9115027762" lon="11.2051444355">
		<tag k="name" v="Balrusmyra" />
		<tag k="natural" v="wetland" />
		<tag k="ssr:stedsnr" v="248648" />
	</node>
	<node id="-33265" lat="59.9731111137" lon="11.1836666696">
		<tag k="name" v="Blåbærmåsan" />
		<tag k="natural" v="wetland" />
		<tag k="ssr:stedsnr" v="965122" />
	</node>
	<node id="-33257" lat="59.8246777768" lon="11.2532444451">
		<tag k="name" v="Opptjennmyra" />
		<tag k="natural" v="wetland" />
		<tag k="ssr:stedsnr" v="950354" />
	</node>
	<node id="-33248" lat="59.7849527776" lon="11.2933499937">
		<tag k="name" v="Kannemåsan" />
		<tag k="natural" v="wetland" />
		<tag k="ssr:stedsnr" v="950284" />
	</node>
	<node id="-32731" lat="59.8766166636" lon="11.2161083364">
		<tag k="name" v="Snippen" />
		<tag k="place" v="locality" />
		<tag k="ssr:stedsnr" v="239507" />
	</node>
	<node id="-32730" lat="59.960075" lon="11.1411083338">
		<tag k="name" v="Damsletta" />
		<tag k="place" v="locality" />
		<tag k="ssr:stedsnr" v="237998" />
	</node>
	<node id="-32728" lat="59.9792611075" lon="11.1714527709">
		<tag k="name" v="Slåttemyra" />
		<tag k="natural" v="wetland" />
		<tag k="ssr:stedsnr" v="237904" />
	</node>
	<node id="-33239" lat="59.8853472194" lon="11.2362944376">
		<tag k="alt_name" v="Haremyra" />
		<tag k="name" v="Haramyra" />
		<tag k="natural" v="wetland" />
		<tag k="ssr:stedsnr" v="915657" />
	</node>
	<node id="-32722" lat="59.9091666649" lon="11.2269527796">
		<tag k="name" v="Kumyra" />
		<tag k="natural" v="wetland" />
		<tag k="ssr:stedsnr" v="224727" />
	</node>
	<node id="-32715" lat="59.7827361144" lon="11.2630833313">
		<tag k="name" v="Einerhagan" />
		<tag k="place" v="locality" />
		<tag k="ssr:stedsnr" v="221271" />
	</node>
	<node id="-33226" lat="59.8500499997" lon="11.2842777827">
		<tag k="name" v="Øvre Høgmyr" />
		<tag k="natural" v="wetland" />
		<tag k="ssr:stedsnr" v="909345" />
	</node>
	<node id="-32713" lat="59.7744944462" lon="11.2995611148">
		<tag k="name" v="Ødebymyrene" />
		<tag k="natural" v="wetland" />
		<tag k="ssr:stedsnr" v="221259" />
	</node>
	<node id="-32712" lat="59.7792694461" lon="11.3136805508">
		<tag k="name" v="Øvre Stordalsmyra" />
		<tag k="natural" v="wetland" />
		<tag k="ssr:stedsnr" v="221246" />
	</node>
	<node id="-33221" lat="59.9776055562" lon="11.1709861039">
		<tag k="name" v="Torvmåsan" />
		<tag k="natural" v="wetland" />
		<tag k="ssr:stedsnr" v="904919" />
	</node>
	<node id="-33220" lat="59.9700194459" lon="11.1707249926">
		<tag k="name" v="Stordammen" />
		<tag k="natural" v="wetland" />
		<tag k="ssr:stedsnr" v="904905" />
	</node>
	<node id="-32707" lat="59.8484972259" lon="11.3245722156">
		<tag k="name" v="Bjørkmyra" />
		<tag k="natural" v="wetland" />
		<tag k="ssr:stedsnr" v="187713" />
	</node>
	<node id="-32687" lat="59.8426277777" lon="11.2740388971">
		<tag k="name" v="Rompemyra" />
		<tag k="natural" v="wetland" />
		<tag k="ssr:stedsnr" v="180353" />
	</node>
	<node id="-33197" lat="59.9448555587" lon="11.1546277822">
		<tag k="name" v="Breimåsan" />
		<tag k="natural" v="wetland" />
		<tag k="ssr:stedsnr" v="848861" />
	</node>
	<node id="-33194" lat="59.8489277766" lon="11.3323527758">
		<tag k="name" v="Badstumåsan" />
		<tag k="natural" v="wetland" />
		<tag k="ssr:stedsnr" v="848366" />
	</node>
	<node id="-33193" lat="59.8827305576" lon="11.3002444488">
		<tag k="name" v="Vangsmåsan" />
		<tag k="natural" v="wetland" />
		<tag k="ssr:stedsnr" v="846701" />
	</node>
	<node id="-33188" lat="59.9110527747" lon="11.2518527783">
		<tag k="name" v="Breimåsan" />
		<tag k="natural" v="wetland" />
		<tag k="ssr:stedsnr" v="846619" />
	</node>
	<node id="-32673" lat="59.9663361121" lon="11.1416916605">
		<tag k="name" v="Vinsnesskogen" />
		<tag k="place" v="locality" />
		<tag k="ssr:stedsnr" v="176875" />
	</node>
	<node id="-32671" lat="59.9638916662" lon="11.165933334">
		<tag k="name" v="Jasemyra" />
		<tag k="natural" v="wetland" />
		<tag k="ssr:stedsnr" v="176872" />
	</node>
	<node id="-33178" lat="59.859941669" lon="11.2867416682">
		<tag k="name" v="Gullerudmyra" />
		<tag k="natural" v="wetland" />
		<tag k="ssr:stedsnr" v="831319" />
	</node>
	<node id="-33172" lat="59.9114999981" lon="11.1553111153">
		<tag k="name" v="Ballenga" />
		<tag k="place" v="locality" />
		<tag k="ssr:stedsnr" v="831653" />
	</node>
	<node id="-33169" lat="59.8564805548" lon="11.3064333246">
		<tag k="name" v="Saghølet" />
		<tag k="natural" v="wetland" />
		<tag k="ssr:stedsnr" v="829621" />
	</node>
	<node id="-33165" lat="59.7616944426" lon="11.3190166713">
		<tag k="name" v="Håkonsetermoen" />
		<tag k="place" v="locality" />
		<tag k="ssr:stedsnr" v="828304" />
	</node>
	<node id="-33157" lat="59.7873416706" lon="11.3067888938">
		<tag k="name" v="Kolåsvangen" />
		<tag k="place" v="locality" />
		<tag k="ssr:stedsnr" v="828242" />
	</node>
	<node id="-32642" lat="59.8640888926" lon="11.3084416732">
		<tag k="name" v="Sagmåsan" />
		<tag k="natural" v="wetland" />
		<tag k="ssr:stedsnr" v="142130" />
	</node>
	<node id="-33153" lat="59.8053611122" lon="11.2716611168">
		<tag k="name" v="Rønningen" />
		<tag k="place" v="locality" />
		<tag k="ssr:stedsnr" v="828223" />
	</node>
	<node id="-33149" lat="59.9087111087" lon="11.2236500011">
		<tag k="name" v="Postmyra" />
		<tag k="natural" v="wetland" />
		<tag k="ssr:stedsnr" v="794636" />
	</node>
	<node id="-33145" lat="59.769461112" lon="11.2987333414">
		<tag k="alt_name" v="Mærramyra" />
		<tag k="name" v="Merramyra" />
		<tag k="natural" v="wetland" />
		<tag k="ssr:stedsnr" v="793910" />
	</node>
	<node id="-32625" lat="59.8348527738" lon="11.2902833395">
		<tag k="name" v="Nedre Halvheklemyr" />
		<tag k="natural" v="wetland" />
		<tag k="ssr:stedsnr" v="120349" />
	</node>
	<node id="-33136" lat="59.863566664" lon="11.3162111042">
		<tag k="name" v="Bråtemåsan" />
		<tag k="natural" v="wetland" />
		<tag k="ssr:stedsnr" v="793735" />
	</node>
	<node id="-32608" lat="59.9641000027" lon="11.1081166708">
		<tag k="name" v="Barkebråtfløtten" />
		<tag k="place" v="locality" />
		<tag k="ssr:stedsnr" v="116876" />
	</node>
	<node id="-33116" lat="59.8462694414" lon="11.27734167">
		<tag k="name" v="Tiurmyra" />
		<tag k="natural" v="wetland" />
		<tag k="ssr:stedsnr" v="787371" />
	</node>
	<node id="-33115" lat="59.8424250014" lon="11.2779333406">
		<tag k="name" v="Martemyra" />
		<tag k="natural" v="wetland" />
		<tag k="ssr:stedsnr" v="787361" />
	</node>
	<node id="-33108" lat="59.8867222213" lon="11.2480250031">
		<tag k="name" v="Ekebergholmen" />
		<tag k="place" v="locality" />
		<tag k="ssr:stedsnr" v="785520" />
	</node>
	<node id="-32591" lat="59.8364472239" lon="11.2854499942">
		<tag k="name" v="Nordre Halvheklemyr" />
		<tag k="natural" v="wetland" />
		<tag k="ssr:stedsnr" v="100316" />
	</node>
	<node id="-32653" lat="59.8537666692" lon="11.304530554">
		<tag k="name" v="Snikestykket" />
		<tag k="place" v="locality" />
		<tag k="ssr:stedsnr" v="161593" />
	</node>
	<node id="-32587" lat="59.7585861125" lon="11.3448861145">
		<tag k="name" v="Korpefløget" />
		<tag k="place" v="locality" />
		<tag k="ssr:stedsnr" v="100281" />
	</node>
	<node id="-32585" lat="59.7826805584" lon="11.2840333283">
		<tag k="name" v="Tøysemyrene" />
		<tag k="natural" v="wetland" />
		<tag k="ssr:stedsnr" v="100269" />
	</node>
	<node id="-32580" lat="59.7954916676" lon="11.2756416683">
		<tag k="name" v="Breimåsan" />
		<tag k="natural" v="wetland" />
		<tag k="ssr:stedsnr" v="100235" />
	</node>
	<node id="-33088" lat="59.7690333337" lon="11.3327944497">
		<tag k="name" v="Hansketjennmoen" />
		<tag k="place" v="locality" />
		<tag k="ssr:stedsnr" v="767273" />
	</node>
	<node id="-33083" lat="59.8191194477" lon="11.2489083298">
		<tag k="name" v="Legermoen" />
		<tag k="place" v="locality" />
		<tag k="ssr:stedsnr" v="767360" />
	</node>
	<node id="-33082" lat="59.8262583319" lon="11.2865361066">
		<tag k="name" v="Bognemyra" />
		<tag k="natural" v="wetland" />
		<tag k="ssr:stedsnr" v="767354" />
	</node>
	<node id="-33081" lat="59.8370583337" lon="11.2791027816">
		<tag k="name" v="Skjærsmåsan" />
		<tag k="natural" v="wetland" />
		<tag k="ssr:stedsnr" v="767335" />
	</node>
	<node id="-33076" lat="59.8445777771" lon="11.2905777721">
		<tag k="alt_name" v="Heiremåsan" />
		<tag k="name" v="Heirmåsan" />
		<tag k="natural" v="wetland" />
		<tag k="ssr:stedsnr" v="733719" />
	</node>
	<node id="-32565" lat="59.8463083371" lon="11.2713972245">
		<tag k="alt_name" v="Veslemåsan" />
		<tag k="name" v="Veslemyra" />
		<tag k="natural" v="wetland" />
		<tag k="ssr:stedsnr" v="65740" />
	</node>
	<node id="-32564" lat="59.8503916693" lon="11.318705554">
		<tag k="name" v="Geitlimåsan" />
		<tag k="natural" v="wetland" />
		<tag k="ssr:stedsnr" v="65726" />
	</node>
	<node id="-32562" lat="59.8696472256" lon="11.3030750016">
		<tag k="name" v="Vegmåsan" />
		<tag k="natural" v="wetland" />
		<tag k="ssr:stedsnr" v="65710" />
	</node>
	<node id="-32557" lat="59.967874996" lon="11.159097226">
		<tag k="alt_name" v="Rakkermåsan" />
		<tag k="name" v="Rakkemåsan" />
		<tag k="natural" v="wetland" />
		<tag k="ssr:stedsnr" v="65517" />
	</node>
	<node id="-33067" lat="59.8823444419" lon="11.2723027722">
		<tag k="alt_name" v="Breidmåsan" />
		<tag k="name" v="Breimåsan" />
		<tag k="natural" v="wetland" />
		<tag k="ssr:stedsnr" v="733648" />
	</node>
	<node id="-32553" lat="59.9243888927" lon="11.2383861123">
		<tag k="name" v="Setermyra" />
		<tag k="natural" v="wetland" />
		<tag k="ssr:stedsnr" v="59832" />
	</node>
	<node id="-32542" lat="59.9038000032" lon="11.2494472264">
		<tag k="name" v="Villmåsan" />
		<tag k="natural" v="wetland" />
		<tag k="ssr:stedsnr" v="57611" />
	</node>
	<node id="-32541" lat="59.8956611138" lon="11.2182527835">
		<tag k="name" v="Askedalsmyra" />
		<tag k="natural" v="wetland" />
		<tag k="ssr:stedsnr" v="57524" />
	</node>
	<node id="-32537" lat="59.8936194482" lon="11.2768277836">
		<tag k="name" v="Vegamåsan" />
		<tag k="natural" v="wetland" />
		<tag k="ssr:stedsnr" v="57499" />
	</node>
	<node id="-32535" lat="59.9730555515" lon="11.1702222267">
		<tag k="name" v="Vesledammen" />
		<tag k="natural" v="wetland" />
		<tag k="ssr:stedsnr" v="55892" />
	</node>
	<node id="-32534" lat="59.9491805517" lon="11.1521166742">
		<tag k="name" v="Veståsen" />
		<tag k="place" v="locality" />
		<tag k="ssr:stedsnr" v="55844" />
	</node>
	<node id="-32533" lat="59.9548472239" lon="11.1426861147">
		<tag k="name" v="Berger skog" />
		<tag k="place" v="locality" />
		<tag k="ssr:stedsnr" v="55738" />
	</node>
	<node id="-33043" lat="59.8698083298" lon="11.2972972229">
		<tag k="name" v="Olahølsmyra" />
		<tag k="natural" v="wetland" />
		<tag k="ssr:stedsnr" v="725544" />
	</node>
	<node id="-33035" lat="59.9711916638" lon="11.1873027833">
		<tag k="name" v="Setermåsan" />
		<tag k="natural" v="wetland" />
		<tag k="ssr:stedsnr" v="722140" />
	</node>
	<node id="-32522" lat="59.7549555514" lon="11.3352499938">
		<tag k="name" v="Østre Midtfjellmyra" />
		<tag k="natural" v="wetland" />
		<tag k="ssr:stedsnr" v="39256" />
	</node>
	<node id="-32519" lat="59.7834527812" lon="11.3097638818">
		<tag k="name" v="Nordre Dritermåsan" />
		<tag k="natural" v="wetland" />
		<tag k="ssr:stedsnr" v="39220" />
	</node>
	<node id="-33029" lat="59.8622416689" lon="11.2497111109">
		<tag k="name" v="Gjestadhagen" />
		<tag k="place" v="locality" />
		<tag k="ssr:stedsnr" v="709601" />
	</node>
	<node id="-32516" lat="59.8099805554" lon="11.2768250039">
		<tag k="name" v="Ulsrudbrenninga" />
		<tag k="place" v="locality" />
		<tag k="ssr:stedsnr" v="39202" />
	</node>
	<node id="-33017" lat="59.7673444408" lon="11.3190361111">
		<tag k="name" v="Gravtjennmåsan" />
		<tag k="natural" v="wetland" />
		<tag k="ssr:stedsnr" v="707299" />
	</node>
	<node id="-33015" lat="59.7976027766" lon="11.2652499996">
		<tag k="name" v="Dammyra" />
		<tag k="natural" v="wetland" />
		<tag k="ssr:stedsnr" v="707285" />
	</node>
	<node id="-33014" lat="59.7953055587" lon="11.2978027822">
		<tag k="name" v="Ingermåsan" />
		<tag k="natural" v="wetland" />
		<tag k="ssr:stedsnr" v="707277" />
	</node>
	<node id="-32500" lat="59.8914805571" lon="11.2227472141">
		<tag k="name" v="Kinnsmåsan" />
		<tag k="natural" v="wetland" />
		<tag k="ssr:stedsnr" v="4658" />
	</node>
	<node id="-33011" lat="59.8522888887" lon="11.2768055503">
		<tag k="name" v="Karimåsan" />
		<tag k="natural" v="wetland" />
		<tag k="ssr:stedsnr" v="672716" />
	</node>
	<node id="-32988" lat="59.8625416692" lon="11.2988861186">
		<tag k="name" v="Langmyrene" />
		<tag k="natural" v="wetland" />
		<tag k="ssr:stedsnr" v="664584" />
	</node>
	<node id="-32982" lat="59.9726416645" lon="11.1121888974">
		<tag k="name" v="Jølsen skog" />
		<tag k="place" v="locality" />
		<tag k="ssr:stedsnr" v="661902" />
	</node>
	<node id="-32974" lat="59.906888887" lon="11.2071083386">
		<tag k="name" v="Løkenmåsan" />
		<tag k="natural" v="wetland" />
		<tag k="ssr:stedsnr" v="648728" />
	</node>
	<node id="-32461" lat="59.8536138849" lon="11.3264666583">
		<tag k="name" v="Timbermåsan" />
		<tag k="natural" v="wetland" />
		<tag k="ssr:stedsnr" v="890638" />
	</node>
	<node id="-32458" lat="59.7639361076" lon="11.3345249978">
		<tag k="name" v="Søndre Høgmåsan" />
		<tag k="natural" v="wetland" />
		<tag k="ssr:stedsnr" v="889306" />
	</node>
	<node id="-32457" lat="59.7708000026" lon="11.3126138836">
		<tag k="name" v="Lauvhersja" />
		<tag k="place" v="locality" />
		<tag k="ssr:stedsnr" v="889284" />
	</node>
	<node id="-32455" lat="59.7885000022" lon="11.2918472229">
		<tag k="name" v="Drypilen" />
		<tag k="natural" v="wetland" />
		<tag k="ssr:stedsnr" v="889262" />
	</node>
	<node id="-32454" lat="59.8078388882" lon="11.2707055614">
		<tag k="name" v="Bjønnemyra" />
		<tag k="natural" v="wetland" />
		<tag k="ssr:stedsnr" v="889260" />
	</node>
	<node id="-32965" lat="59.8329222251" lon="11.2866555621">
		<tag k="name" v="Lauvmoen" />
		<tag k="place" v="locality" />
		<tag k="ssr:stedsnr" v="646325" />
	</node>
	<node id="-32960" lat="59.7801833336" lon="11.3184111051">
		<tag k="name" v="Midtre Stordalsmyra" />
		<tag k="natural" v="wetland" />
		<tag k="ssr:stedsnr" v="646273" />
	</node>
	<node id="-32440" lat="59.8246166711" lon="11.275522227">
		<tag k="name" v="Lille Fuglemyr" />
		<tag k="natural" v="wetland" />
		<tag k="ssr:stedsnr" v="403332" />
	</node>
	<node id="-32438" lat="59.794816666" lon="11.2954527779">
		<tag k="name" v="Taskemåsan" />
		<tag k="natural" v="wetland" />
		<tag k="ssr:stedsnr" v="403236" />
	</node>
	<node id="-33047" lat="59.844958337" lon="11.2502944467">
		<tag k="name" v="Ersrudhagen" />
		<tag k="place" v="locality" />
		<tag k="ssr:stedsnr" v="727348" />
	</node>
	<node id="-32940" lat="59.8489194455" lon="11.3031611109">
		<tag k="name" v="Øvre Torsmyr" />
		<tag k="natural" v="wetland" />
		<tag k="ssr:stedsnr" v="605363" />
	</node>
	<node id="-32939" lat="59.9222972212" lon="11.2154499997">
		<tag k="name" v="Hagenmåsan" />
		<tag k="natural" v="wetland" />
		<tag k="ssr:stedsnr" v="603808" />
	</node>
	<node id="-32926" lat="59.9616638922" lon="11.1082138956">
		<tag k="name" v="Sommerfjøssletta" />
		<tag k="place" v="locality" />
		<tag k="ssr:stedsnr" v="600892" />
	</node>
	<node id="-32413" lat="59.8519583363" lon="11.264783331">
		<tag k="name" v="Østhagen" />
		<tag k="place" v="locality" />
		<tag k="ssr:stedsnr" v="362366" />
	</node>
	<node id="-32411" lat="59.8443138882" lon="11.3086611135">
		<tag k="name" v="Furutoppmyra" />
		<tag k="natural" v="wetland" />
		<tag k="ssr:stedsnr" v="362354" />
	</node>
	<node id="-33219" lat="59.9613888894" lon="11.1001888957">
		<tag k="name" v="Nyryddingen" />
		<tag k="place" v="locality" />
		<tag k="ssr:stedsnr" v="904898" />
	</node>
	<node id="-32912" lat="59.7804388926" lon="11.3232055528">
		<tag k="name" v="Nedre Stordalsmyra" />
		<tag k="natural" v="wetland" />
		<tag k="ssr:stedsnr" v="585242" />
	</node>
	<node id="-32393" lat="59.8546250002" lon="11.2995555579">
		<tag k="name" v="Tisteldalsmyra" />
		<tag k="natural" v="wetland" />
		<tag k="ssr:stedsnr" v="343649" />
	</node>
	<node id="-32901" lat="59.8734527761" lon="11.3047666623">
		<tag k="alt_name" v="Storemåsan" />
		<tag k="name" v="Sloremåsan" />
		<tag k="natural" v="wetland" />
		<tag k="ssr:stedsnr" v="550678" />
	</node>
	<node id="-32383" lat="59.7840750019" lon="11.297280557">
		<tag k="name" v="Høgmåsan" />
		<tag k="natural" v="wetland" />
		<tag k="ssr:stedsnr" v="342253" />
	</node>
	<node id="-32891" lat="59.979319447" lon="11.17634722">
		<tag k="name" v="Kumyra" />
		<tag k="natural" v="wetland" />
		<tag k="ssr:stedsnr" v="550450" />
	</node>
	<node id="-32885" lat="59.8862055554" lon="11.1966027763">
		<tag k="name" v="Svindalshagen" />
		<tag k="place" v="locality" />
		<tag k="ssr:stedsnr" v="543560" />
	</node>
	<node id="-32882" lat="59.8893500015" lon="11.2843277851">
		<tag k="name" v="Bysetermyra" />
		<tag k="natural" v="wetland" />
		<tag k="ssr:stedsnr" v="543542" />
	</node>
	<node id="-32925" lat="59.950419448" lon="11.2204083335">
		<tag k="name" v="Nordmoen" />
		<tag k="natural" v="wetland" />
		<tag k="ssr:stedsnr" v="600883" />
	</node>
	<node id="-32355" lat="59.8504861156" lon="11.3009305484">
		<tag k="name" v="Snikestykket" />
		<tag k="place" v="locality" />
		<tag k="ssr:stedsnr" v="302355" />
	</node>
	<node id="-32349" lat="59.8803333332" lon="11.2492027726">
		<tag k="name" v="Høymyrene" />
		<tag k="natural" v="wetland" />
		<tag k="ssr:stedsnr" v="300546" />
	</node>
	<node id="-32346" lat="59.9505722183" lon="11.1193638887">
		<tag k="name" v="Fløtti" />
		<tag k="place" v="locality" />
		<tag k="ssr:stedsnr" v="298820" />
	</node>
	<node id="-32344" lat="59.9010333307" lon="11.1778777738">
		<tag k="name" v="Råsokhagen" />
		<tag k="place" v="locality" />
		<tag k="ssr:stedsnr" v="285718" />
	</node>
	<node id="-32340" lat="59.8713305552" lon="11.209966662">
		<tag k="alt_name" v="Blesahagen" />
		<tag k="name" v="Blesahagan" />
		<tag k="place" v="locality" />
		<tag k="ssr:stedsnr" v="284334" />
	</node>
	<node id="-32338" lat="59.8583500021" lon="11.257147227">
		<tag k="name" v="Ingerhølet" />
		<tag k="natural" v="wetland" />
		<tag k="ssr:stedsnr" v="284609" />
	</node>
	<node id="-32337" lat="59.8469194454" lon="11.2241305603">
		<tag k="name" v="Østaneshagen" />
		<tag k="place" v="locality" />
		<tag k="ssr:stedsnr" v="282316" />
	</node>
	<node id="-32848" lat="59.8100555549" lon="11.2619750053">
		<tag k="name" v="Postmyra" />
		<tag k="natural" v="wetland" />
		<tag k="ssr:stedsnr" v="525278" />
	</node>
	<node id="-32952" lat="59.8705361107" lon="11.3122138808">
		<tag k="name" v="Fuglemåsan" />
		<tag k="natural" v="wetland" />
		<tag k="ssr:stedsnr" v="611693" />
	</node>
	<node id="-32333" lat="59.7691694427" lon="11.3072111095">
		<tag k="name" v="Løytnantmyra" />
		<tag k="natural" v="wetland" />
		<tag k="ssr:stedsnr" v="282256" />
	</node>
	<node id="-32842" lat="59.8898833311" lon="11.2438583357">
		<tag k="name" v="Fuglemåsan" />
		<tag k="natural" v="wetland" />
		<tag k="ssr:stedsnr" v="490662" />
	</node>
	<node id="-32328" lat="59.8080500042" lon="11.2766750071">
		<tag k="name" v="Høgmåsan" />
		<tag k="natural" v="wetland" />
		<tag k="ssr:stedsnr" v="282227" />
	</node>
	<node id="-32326" lat="59.7985472245" lon="11.2963138968">
		<tag k="name" v="Seterskogen" />
		<tag k="place" v="locality" />
		<tag k="ssr:stedsnr" v="282220" />
	</node>
	<node id="-33034" lat="59.9056222231" lon="11.2273777768">
		<tag k="name" v="Lintjennmåsan" />
		<tag k="natural" v="wetland" />
		<tag k="ssr:stedsnr" v="709729" />
	</node>
	<node id="-32826" lat="59.8496861115" lon="11.3070888883">
		<tag k="name" v="Nedre Torsmyr" />
		<tag k="natural" v="wetland" />
		<tag k="ssr:stedsnr" v="484310" />
	</node>
	<node id="-32923" lat="59.9110277808" lon="11.2291166695">
		<tag k="name" v="Blåbærmyra" />
		<tag k="natural" v="wetland" />
		<tag k="ssr:stedsnr" v="588745" />
	</node>
	<node id="-32801" lat="59.8340083308" lon="11.2638666583">
		<tag k="name" v="Breimyra" />
		<tag k="natural" v="wetland" />
		<tag k="ssr:stedsnr" v="464358" />
	</node>
	<node id="-32797" lat="59.7691166648" lon="11.3128000058">
		<tag k="name" v="Kollemyra" />
		<tag k="natural" v="wetland" />
		<tag k="ssr:stedsnr" v="464283" />
	</node>
	<node id="-32796" lat="59.7812527743" lon="11.3117861038">
		<tag k="name" v="Søndre Dritermåsan" />
		<tag k="natural" v="wetland" />
		<tag k="ssr:stedsnr" v="464278" />
	</node>
	<node id="-32792" lat="59.8329305537" lon="11.2779111089">
		<tag k="name" v="Fuglemåsan" />
		<tag k="natural" v="wetland" />
		<tag k="ssr:stedsnr" v="430770" />
	</node>
	<node id="-32776" lat="59.8521138875" lon="11.2593833332">
		<tag k="name" v="Vesthagen" />
		<tag k="place" v="locality" />
		<tag k="ssr:stedsnr" v="423390" />
	</node>
	<node id="-32774" lat="59.8836055517" lon="11.2411472253">
		<tag k="name" v="Rundmyrene" />
		<tag k="natural" v="wetland" />
		<tag k="ssr:stedsnr" v="422558" />
	</node>
</osm>
