<?xml version="1.0" encoding="UTF-8"?>
<osm generator="osmapis" version="0.6">
	<node id="-33279" lat="59.8443305542" lon="11.2480222262">
		<tag k="name" v="Ersrudlia" />
		<tag k="natural" v="slope" />
		<tag k="place" v="locality" />
		<tag k="ssr:stedsnr" v="969354" />
	</node>
	<node id="-32765" lat="59.9711944416" lon="11.1076000028">
		<tag k="name" v="Kleiva" />
		<tag k="natural" v="slope" />
		<tag k="place" v="locality" />
		<tag k="ssr:stedsnr" v="419874" />
	</node>
	<node id="-33276" lat="59.8630750003" lon="11.3414527697">
		<tag k="name" v="Engadalen" />
		<tag k="natural" v="valley" />
		<tag k="place" v="locality" />
		<tag k="ssr:stedsnr" v="967573" />
	</node>
	<node id="-33275" lat="59.8697972247" lon="11.3343138962">
		<tag k="name" v="Festningen" />
		<tag k="natural" v="hill" />
		<tag k="place" v="locality" />
		<tag k="ssr:stedsnr" v="967567" />
	</node>
	<node id="-33274" lat="59.8845027765" lon="11.2215666747">
		<tag k="name" v="Fjellsrudåsen" />
		<tag k="natural" v="hill" />
		<tag k="place" v="locality" />
		<tag k="ssr:stedsnr" v="967537" />
	</node>
	<node id="-32760" lat="59.9537694414" lon="11.206983342">
		<tag k="name" v="Dypdalen" />
		<tag k="natural" v="valley" />
		<tag k="place" v="locality" />
		<tag k="ssr:stedsnr" v="479889" />
	</node>
	<node id="-33271" lat="59.8916611076" lon="11.238025008">
		<tag k="name" v="Gjesstjerndalen" />
		<tag k="natural" v="valley" />
		<tag k="place" v="locality" />
		<tag k="ssr:stedsnr" v="967509" />
	</node>
	<node id="-33269" lat="59.9611861082" lon="11.1234805491">
		<tag k="fixme" v="consider natural=peak for the most distinct mountains in the district" />
		<tag k="name" v="Smedsbergåsen" />
		<tag k="natural" v="hill" />
		<tag k="place" v="locality" />
		<tag k="ssr:stedsnr" v="965998" />
	</node>
	<node id="-33267" lat="59.942958331" lon="11.238816672">
		<tag k="name" v="Delingsdalen" />
		<tag k="natural" v="valley" />
		<tag k="place" v="locality" />
		<tag k="ssr:stedsnr" v="965878" />
	</node>
	<node id="-33253" lat="59.8344000001" lon="11.26878333">
		<tag k="name" v="Fuglemåsalia" />
		<tag k="natural" v="slope" />
		<tag k="place" v="locality" />
		<tag k="ssr:stedsnr" v="950340" />
	</node>
	<node id="-32738" lat="59.836916665" lon="11.258230553">
		<tag k="fixme" v="consider natural=peak for the most distinct mountains in the district" />
		<tag k="name" v="Holeåsen" />
		<tag k="natural" v="hill" />
		<tag k="place" v="locality" />
		<tag k="ssr:stedsnr" v="241361" />
	</node>
	<node id="-33247" lat="59.7894694418" lon="11.263930555">
		<tag k="fixme" v="consider natural=peak for the most distinct mountains in the district" />
		<tag k="name" v="Skredderåsen" />
		<tag k="natural" v="hill" />
		<tag k="place" v="locality" />
		<tag k="ssr:stedsnr" v="950282" />
	</node>
	<node id="-32727" lat="59.9616833371" lon="11.1449027783">
		<tag k="name" v="Sagholslia" />
		<tag k="natural" v="slope" />
		<tag k="place" v="locality" />
		<tag k="ssr:stedsnr" v="237888" />
	</node>
	<node id="-32719" lat="59.8738027804" lon="11.2784555553">
		<tag k="name" v="Stokkedalen" />
		<tag k="natural" v="valley" />
		<tag k="place" v="locality" />
		<tag k="ssr:stedsnr" v="222578" />
	</node>
	<node id="-33227" lat="59.9232277816" lon="11.240705562">
		<tag k="fixme" v="consider natural=peak for the most distinct mountains in the district" />
		<tag k="name" v="Seteråsen" />
		<tag k="natural" v="hill" />
		<tag k="place" v="locality" />
		<tag k="ssr:stedsnr" v="909846" />
	</node>
	<node id="-33225" lat="59.8683805575" lon="11.2952888961">
		<tag k="name" v="Olahølet" />
		<tag k="natural" v="valley" />
		<tag k="place" v="locality" />
		<tag k="ssr:stedsnr" v="907566" />
	</node>
	<node id="-33224" lat="59.8890138898" lon="11.2781750047">
		<tag k="fixme" v="consider natural=peak for the most distinct mountains in the district" />
		<tag k="name" v="Toskeåsen" />
		<tag k="natural" v="hill" />
		<tag k="place" v="locality" />
		<tag k="ssr:stedsnr" v="907501" />
	</node>
	<node id="-32711" lat="59.7966749969" lon="11.2449555622">
		<tag k="name" v="Syltedalen" />
		<tag k="natural" v="valley" />
		<tag k="place" v="locality" />
		<tag k="ssr:stedsnr" v="221223" />
	</node>
	<node id="-33216" lat="59.9804888906" lon="11.1797611036">
		<tag k="fixme" v="consider natural=peak for the most distinct mountains in the district" />
		<tag k="name" v="Ravnåsen" />
		<tag k="natural" v="hill" />
		<tag k="place" v="locality" />
		<tag k="ssr:stedsnr" v="904128" />
	</node>
	<node id="-33215" lat="59.9106064738" lon="11.1916413137">
		<tag k="fixme" v="consider natural=peak for the most distinct mountains in the district" />
		<tag k="name" v="Løkenåsen" />
		<tag k="natural" v="hill" />
		<tag k="place" v="locality" />
		<tag k="ssr:stedsnr" v="870008" />
	</node>
	<node id="-32691" lat="59.9335472186" lon="11.2449638831">
		<tag k="name" v="Brattåsmoen" />
		<tag k="place" v="locality" />
		<tag k="ssr:stedsnr" v="180847" />
	</node>
	<node id="-32689" lat="59.8452055557" lon="11.2828916755">
		<tag k="name" v="Rogndalslia" />
		<tag k="natural" v="slope" />
		<tag k="place" v="locality" />
		<tag k="ssr:stedsnr" v="180368" />
	</node>
	<node id="-32688" lat="59.8467805552" lon="11.2659666711">
		<tag k="name" v="Rossdallia" />
		<tag k="natural" v="slope" />
		<tag k="place" v="locality" />
		<tag k="ssr:stedsnr" v="180362" />
	</node>
	<node id="-33198" lat="59.9699166629" lon="11.1353749946">
		<tag k="fixme" v="consider natural=peak for the most distinct mountains in the district" />
		<tag k="name" v="Rudskulen" />
		<tag k="natural" v="hill" />
		<tag k="place" v="locality" />
		<tag k="ssr:stedsnr" v="854496" />
	</node>
	<node id="-32684" lat="59.8884749964" lon="11.2305194526">
		<tag k="name" v="Kartedalen" />
		<tag k="natural" v="valley" />
		<tag k="place" v="locality" />
		<tag k="ssr:stedsnr" v="179539" />
	</node>
	<node id="-32683" lat="59.8910944426" lon="11.2653916611">
		<tag k="name" v="Kudalen" />
		<tag k="natural" v="valley" />
		<tag k="place" v="locality" />
		<tag k="ssr:stedsnr" v="179529" />
	</node>
	<node id="-32682" lat="59.8946999958" lon="11.2563416715">
		<tag k="fixme" v="consider natural=peak for the most distinct mountains in the district" />
		<tag k="name" v="Veslesjølen" />
		<tag k="natural" v="hill" />
		<tag k="place" v="locality" />
		<tag k="ssr:stedsnr" v="179530" />
	</node>
	<node id="-32680" lat="59.8805611071" lon="11.3148916648">
		<tag k="name" v="Borgendalen" />
		<tag k="natural" v="valley" />
		<tag k="place" v="locality" />
		<tag k="ssr:stedsnr" v="179523" />
	</node>
	<node id="-32677" lat="59.8536583335" lon="11.3482194398">
		<tag k="name" v="Nordstigdalen" />
		<tag k="natural" v="valley" />
		<tag k="place" v="locality" />
		<tag k="ssr:stedsnr" v="178582" />
	</node>
	<node id="-32675" lat="59.9627305543" lon="11.1561305492">
		<tag k="name" v="Rakkermåsalia" />
		<tag k="natural" v="slope" />
		<tag k="place" v="locality" />
		<tag k="ssr:stedsnr" v="176881" />
	</node>
	<node id="-33185" lat="59.8776583296" lon="11.2768250008">
		<tag k="name" v="Lorthullet" />
		<tag k="place" v="locality" />
		<tag k="ssr:stedsnr" v="846543" />
	</node>
	<node id="-33184" lat="59.9757527755" lon="11.1749527704">
		<tag k="name" v="Nordre Ravnåsen" />
		<tag k="natural" v="hill" />
		<tag k="place" v="locality" />
		<tag k="ssr:stedsnr" v="844910" />
	</node>
	<node id="-33093" lat="59.8603000019" lon="11.2810138968">
		<tag k="name" v="Svenskerudlia" />
		<tag k="natural" v="slope" />
		<tag k="place" v="locality" />
		<tag k="ssr:stedsnr" v="769324" />
	</node>
	<node id="-32661" lat="59.8981055523" lon="11.1772749971">
		<tag k="name" v="Brudeberget" />
		<tag k="natural" v="cliff" />
		<tag k="ssr:stedsnr" v="163736" />
	</node>
	<node id="-32657" lat="59.8996472248" lon="11.1599416591">
		<tag k="name" v="Bjaneshaugen" />
		<tag k="natural" v="hill" />
		<tag k="place" v="locality" />
		<tag k="ssr:stedsnr" v="163670" />
	</node>
	<node id="-32656" lat="59.8595444422" lon="11.269763883">
		<tag k="name" v="Østbylia" />
		<tag k="natural" v="slope" />
		<tag k="place" v="locality" />
		<tag k="ssr:stedsnr" v="163566" />
	</node>
	<node id="-33167" lat="59.832675" lon="11.2740194387">
		<tag k="name" v="Smaldalen" />
		<tag k="natural" v="valley" />
		<tag k="place" v="locality" />
		<tag k="ssr:stedsnr" v="828347" />
	</node>
	<node id="-32652" lat="59.8388833343" lon="11.2661277845">
		<tag k="name" v="Rosstjennlia" />
		<tag k="natural" v="slope" />
		<tag k="place" v="locality" />
		<tag k="ssr:stedsnr" v="161340" />
	</node>
	<node id="-32650" lat="59.7833305535" lon="11.2703222197">
		<tag k="name" v="Melnesåsen" />
		<tag k="natural" v="hill" />
		<tag k="place" v="locality" />
		<tag k="ssr:stedsnr" v="161302" />
	</node>
	<node id="-32919" lat="59.8273388928" lon="11.2853805599">
		<tag k="fixme" v="consider natural=peak for the most distinct mountains in the district" />
		<tag k="name" v="Bognemyrhøgda" />
		<tag k="natural" v="hill" />
		<tag k="place" v="locality" />
		<tag k="ssr:stedsnr" v="585318" />
	</node>
	<node id="-32648" lat="59.767830554" lon="11.3230944439">
		<tag k="fixme" v="consider natural=peak for the most distinct mountains in the district" />
		<tag k="name" v="Gravtjennhøgda" />
		<tag k="natural" v="hill" />
		<tag k="place" v="locality" />
		<tag k="ssr:stedsnr" v="161291" />
	</node>
	<node id="-32646" lat="59.7913861127" lon="11.3102250001">
		<tag k="name" v="Tjurukleiva" />
		<tag k="natural" v="slope" />
		<tag k="place" v="locality" />
		<tag k="ssr:stedsnr" v="161266" />
	</node>
	<node id="-32643" lat="59.7725027793" lon="11.2496194467">
		<tag k="fixme" v="consider natural=peak for the most distinct mountains in the district" />
		<tag k="name" v="Hunesåsen" />
		<tag k="natural" v="hill" />
		<tag k="place" v="locality" />
		<tag k="ssr:stedsnr" v="160269" />
	</node>
	<node id="-33173" lat="59.9061861155" lon="11.2173111144">
		<tag k="name" v="Låkelia" />
		<tag k="natural" v="slope" />
		<tag k="place" v="locality" />
		<tag k="ssr:stedsnr" v="831696" />
	</node>
	<node id="-32626" lat="59.84772222" lon="11.2754055505">
		<tag k="fixme" v="consider natural=peak for the most distinct mountains in the district" />
		<tag k="name" v="Veslemåsahøgda" />
		<tag k="natural" v="hill" />
		<tag k="place" v="locality" />
		<tag k="ssr:stedsnr" v="120356" />
	</node>
	<node id="-32620" lat="59.9393444427" lon="11.1516222202">
		<tag k="name" v="Vitåsen" />
		<tag k="natural" v="hill" />
		<tag k="place" v="locality" />
		<tag k="ssr:stedsnr" v="118631" />
	</node>
	<node id="-32619" lat="59.8899722209" lon="11.2097944416">
		<tag k="name" v="Staurdalen" />
		<tag k="natural" v="valley" />
		<tag k="place" v="locality" />
		<tag k="ssr:stedsnr" v="118513" />
	</node>
	<node id="-32618" lat="59.888008334" lon="11.2176527732">
		<tag k="fixme" v="consider natural=peak for the most distinct mountains in the district" />
		<tag k="name" v="Ormåsen" />
		<tag k="natural" v="hill" />
		<tag k="place" v="locality" />
		<tag k="ssr:stedsnr" v="118509" />
	</node>
	<node id="-33129" lat="59.8971888896" lon="11.2229500029">
		<tag k="fixme" v="consider natural=peak for the most distinct mountains in the district" />
		<tag k="name" v="Kinnåsen" />
		<tag k="natural" v="hill" />
		<tag k="place" v="locality" />
		<tag k="ssr:stedsnr" v="793671" />
	</node>
	<node id="-32616" lat="59.8828416695" lon="11.2626333368">
		<tag k="fixme" v="consider natural=peak for the most distinct mountains in the district" />
		<tag k="name" v="Rødbekkåsen" />
		<tag k="natural" v="hill" />
		<tag k="place" v="locality" />
		<tag k="ssr:stedsnr" v="118503" />
	</node>
	<node id="-33168" lat="59.8326694489" lon="11.2674361086">
		<tag k="name" v="Knutsdalen" />
		<tag k="natural" v="valley" />
		<tag k="place" v="locality" />
		<tag k="ssr:stedsnr" v="828348" />
	</node>
	<node id="-33118" lat="59.9241916693" lon="11.2457111028">
		<tag k="name" v="Elgelia" />
		<tag k="natural" v="slope" />
		<tag k="place" v="locality" />
		<tag k="ssr:stedsnr" v="787841" />
	</node>
	<node id="-32604" lat="59.9846638894" lon="11.1803583289">
		<tag k="name" v="Agntjennslia" />
		<tag k="natural" v="slope" />
		<tag k="place" v="locality" />
		<tag k="ssr:stedsnr" v="116120" />
	</node>
	<node id="-33114" lat="59.8733833355" lon="11.3271138813">
		<tag k="alt_name" v="Spjeldsmyrdalen" />
		<tag k="name" v="Spjellmyrdalen" />
		<tag k="natural" v="valley" />
		<tag k="place" v="locality" />
		<tag k="ssr:stedsnr" v="787055" />
	</node>
	<node id="-33111" lat="59.8652555515" lon="11.3009138945">
		<tag k="fixme" v="consider natural=peak for the most distinct mountains in the district" />
		<tag k="name" v="Lintjennåsen" />
		<tag k="natural" v="hill" />
		<tag k="place" v="locality" />
		<tag k="ssr:stedsnr" v="785580" />
	</node>
	<node id="-32593" lat="59.8182194458" lon="11.2464027814">
		<tag k="name" v="Rådsdalen" />
		<tag k="natural" v="valley" />
		<tag k="place" v="locality" />
		<tag k="ssr:stedsnr" v="100342" />
	</node>
	<node id="-32592" lat="59.8250805583" lon="11.2726111119">
		<tag k="fixme" v="consider natural=peak for the most distinct mountains in the district" />
		<tag k="name" v="Vindlandsåsen" />
		<tag k="natural" v="hill" />
		<tag k="place" v="locality" />
		<tag k="ssr:stedsnr" v="100337" />
	</node>
	<node id="-32590" lat="59.7670111069" lon="11.3109805637">
		<tag k="fixme" v="consider natural=peak for the most distinct mountains in the district" />
		<tag k="name" v="Steindalshøgdene" />
		<tag k="natural" v="hill" />
		<tag k="place" v="locality" />
		<tag k="ssr:stedsnr" v="100286" />
	</node>
	<node id="-32586" lat="59.765188888" lon="11.3261694389">
		<tag k="name" v="Hansketjenndalen" />
		<tag k="natural" v="valley" />
		<tag k="place" v="locality" />
		<tag k="ssr:stedsnr" v="100279" />
	</node>
	<node id="-32584" lat="59.7702861112" lon="11.3152499969">
		<tag k="name" v="Søndre Minjarudkollen" />
		<tag k="natural" v="hill" />
		<tag k="place" v="locality" />
		<tag k="ssr:stedsnr" v="100267" />
	</node>
	<node id="-33095" lat="59.8596750021" lon="11.2415916629">
		<tag k="name" v="Bjønnhaugen" />
		<tag k="natural" v="hill" />
		<tag k="place" v="locality" />
		<tag k="ssr:stedsnr" v="769601" />
	</node>
	<node id="-32582" lat="59.79335" lon="11.2481722142">
		<tag k="fixme" v="consider natural=peak for the most distinct mountains in the district" />
		<tag k="name" v="Rudsåsen" />
		<tag k="natural" v="hill" />
		<tag k="place" v="locality" />
		<tag k="ssr:stedsnr" v="100245" />
	</node>
	<node id="-32581" lat="59.7889611133" lon="11.2771916711">
		<tag k="name" v="Kvernhusåsen" />
		<tag k="natural" v="hill" />
		<tag k="place" v="locality" />
		<tag k="ssr:stedsnr" v="100240" />
	</node>
	<node id="-33087" lat="59.7783944413" lon="11.3088083342">
		<tag k="name" v="Stordalhalsen" />
		<tag k="natural" v="valley" />
		<tag k="place" v="locality" />
		<tag k="ssr:stedsnr" v="767267" />
	</node>
	<node id="-32572" lat="59.78517222" lon="11.2847194485">
		<tag k="fixme" v="consider natural=peak for the most distinct mountains in the district" />
		<tag k="name" v="Bøleråsen" />
		<tag k="natural" v="hill" />
		<tag k="place" v="locality" />
		<tag k="ssr:stedsnr" v="65864" />
	</node>
	<node id="-33080" lat="59.8336055583" lon="11.2732083393">
		<tag k="name" v="Harehøgda" />
		<tag k="natural" v="hill" />
		<tag k="place" v="locality" />
		<tag k="ssr:stedsnr" v="767336" />
	</node>
	<node id="-33079" lat="59.8027027808" lon="11.261619441">
		<tag k="fixme" v="consider natural=peak for the most distinct mountains in the district" />
		<tag k="name" v="Høgås" />
		<tag k="natural" v="hill" />
		<tag k="place" v="locality" />
		<tag k="ssr:stedsnr" v="733823" />
	</node>
	<node id="-33075" lat="59.8460166702" lon="11.3147916745">
		<tag k="fixme" v="consider natural=peak for the most distinct mountains in the district" />
		<tag k="name" v="Geitskinnet" />
		<tag k="natural" v="hill" />
		<tag k="place" v="locality" />
		<tag k="ssr:stedsnr" v="733715" />
	</node>
	<node id="-32559" lat="59.9453444475" lon="11.1729583263">
		<tag k="fixme" v="consider natural=peak for the most distinct mountains in the district" />
		<tag k="name" v="Falleråsen" />
		<tag k="natural" v="hill" />
		<tag k="place" v="locality" />
		<tag k="ssr:stedsnr" v="65544" />
	</node>
	<node id="-32558" lat="59.9424111127" lon="11.163186114">
		<tag k="name" v="Falldalen" />
		<tag k="natural" v="valley" />
		<tag k="place" v="locality" />
		<tag k="ssr:stedsnr" v="65542" />
	</node>
	<node id="-32552" lat="59.8525083342" lon="11.2714805626">
		<tag k="name" v="Karimåsalia" />
		<tag k="natural" v="slope" />
		<tag k="place" v="locality" />
		<tag k="ssr:stedsnr" v="59351" />
	</node>
	<node id="-32549" lat="59.8627222205" lon="11.3482333348">
		<tag k="name" v="Småtjerndalen" />
		<tag k="natural" v="valley" />
		<tag k="place" v="locality" />
		<tag k="ssr:stedsnr" v="57571" />
	</node>
	<node id="-33060" lat="59.9528501084" lon="11.1481702646">
		<tag k="fixme" v="consider natural=peak for the most distinct mountains in the district" />
		<tag k="name" v="Bergeråsen" />
		<tag k="natural" v="hill" />
		<tag k="place" v="locality" />
		<tag k="ssr:stedsnr" v="733515" />
	</node>
	<node id="-32547" lat="59.9122472239" lon="11.2566722205">
		<tag k="fixme" v="consider natural=peak for the most distinct mountains in the district" />
		<tag k="name" v="Tretysjøåsen" />
		<tag k="natural" v="hill" />
		<tag k="place" v="locality" />
		<tag k="ssr:stedsnr" v="57647" />
	</node>
	<node id="-33272" lat="59.893288891" lon="11.2600166732">
		<tag k="name" v="Kubrudalen" />
		<tag k="natural" v="valley" />
		<tag k="place" v="locality" />
		<tag k="ssr:stedsnr" v="967512" />
	</node>
	<node id="-33071" lat="59.8565194411" lon="11.2960416607">
		<tag k="alt_name" v="Tisteldalen" />
		<tag k="name" v="Tistedalen" />
		<tag k="natural" v="valley" />
		<tag k="place" v="locality" />
		<tag k="ssr:stedsnr" v="733677" />
	</node>
	<node id="-32536" lat="59.9717277751" lon="11.1733805525">
		<tag k="name" v="Søndre Ravnåsen" />
		<tag k="natural" v="hill" />
		<tag k="place" v="locality" />
		<tag k="ssr:stedsnr" v="55893" />
	</node>
	<node id="-32531" lat="59.9547972258" lon="11.2117083384">
		<tag k="name" v="Korpefjella" />
		<tag k="natural" v="hill" />
		<tag k="place" v="locality" />
		<tag k="ssr:stedsnr" v="55866" />
	</node>
	<node id="-33042" lat="59.8897861087" lon="11.2124638903">
		<tag k="name" v="Svendalen" />
		<tag k="natural" v="valley" />
		<tag k="place" v="locality" />
		<tag k="ssr:stedsnr" v="725497" />
	</node>
	<node id="-33041" lat="59.8760083312" lon="11.3009416623">
		<tag k="name" v="Stulterhølet" />
		<tag k="place" v="locality" />
		<tag k="ssr:stedsnr" v="725485" />
	</node>
	<node id="-33039" lat="59.9598749983" lon="11.1528444489">
		<tag k="name" v="Bjønndalen" />
		<tag k="natural" v="valley" />
		<tag k="place" v="locality" />
		<tag k="ssr:stedsnr" v="722998" />
	</node>
	<node id="-33033" lat="59.9155055577" lon="11.1695416652">
		<tag k="name" v="Ridderhaugen" />
		<tag k="natural" v="hill" />
		<tag k="place" v="locality" />
		<tag k="ssr:stedsnr" v="709694" />
	</node>
	<node id="-32514" lat="59.8442333374" lon="11.2978194438">
		<tag k="alt_name" v="Merradalen" />
		<tag k="name" v="Mærradalen" />
		<tag k="natural" v="valley" />
		<tag k="place" v="locality" />
		<tag k="ssr:stedsnr" v="5729" />
	</node>
	<node id="-32512" lat="59.8422027747" lon="11.2642805517">
		<tag k="name" v="Rossdalen" />
		<tag k="natural" v="valley" />
		<tag k="place" v="locality" />
		<tag k="ssr:stedsnr" v="5722" />
	</node>
	<node id="-33023" lat="59.8172527759" lon="11.2603055513">
		<tag k="fixme" v="consider natural=peak for the most distinct mountains in the district" />
		<tag k="name" v="Kreppahøgdene" />
		<tag k="natural" v="hill" />
		<tag k="place" v="locality" />
		<tag k="ssr:stedsnr" v="707379" />
	</node>
	<node id="-33016" lat="59.7717611129" lon="11.3089916587">
		<tag k="fixme" v="consider natural=peak for the most distinct mountains in the district" />
		<tag k="name" v="Nordre Minjarudkollen" />
		<tag k="natural" v="hill" />
		<tag k="place" v="locality" />
		<tag k="ssr:stedsnr" v="707297" />
	</node>
	<node id="-32497" lat="59.9691583317" lon="11.1777972263">
		<tag k="name" v="Stordalen" />
		<tag k="natural" v="valley" />
		<tag k="place" v="locality" />
		<tag k="ssr:stedsnr" v="4506" />
	</node>
	<node id="-33070" lat="59.8642666706" lon="11.2389361127">
		<tag k="alt_name" v="Borghaugen" />
		<tag k="name" v="Borghaug" />
		<tag k="natural" v="hill" />
		<tag k="place" v="locality" />
		<tag k="ssr:stedsnr" v="733675" />
	</node>
	<node id="-32992" lat="59.8791916706" lon="11.2940666671">
		<tag k="name" v="Bleikehjellen" />
		<tag k="natural" v="hill" />
		<tag k="place" v="locality" />
		<tag k="ssr:stedsnr" v="664699" />
	</node>
	<node id="-32987" lat="59.8698083307" lon="11.3407277724">
		<tag k="fixme" v="consider natural=peak for the most distinct mountains in the district" />
		<tag k="name" v="Tyrihjellhøgdene" />
		<tag k="natural" v="hill" />
		<tag k="place" v="locality" />
		<tag k="ssr:stedsnr" v="664575" />
	</node>
	<node id="-32984" lat="59.966119443" lon="11.1238499927">
		<tag k="name" v="Askedalen" />
		<tag k="natural" v="valley" />
		<tag k="place" v="locality" />
		<tag k="ssr:stedsnr" v="661915" />
	</node>
	<node id="-32979" lat="59.9607416678" lon="11.1508583331">
		<tag k="fixme" v="consider natural=peak for the most distinct mountains in the district" />
		<tag k="name" v="Nordre Veståsen" />
		<tag k="natural" v="hill" />
		<tag k="place" v="locality" />
		<tag k="ssr:stedsnr" v="661882" />
	</node>
	<node id="-32978" lat="59.9459277774" lon="11.1416805606">
		<tag k="name" v="Tienåsen" />
		<tag k="natural" v="hill" />
		<tag k="place" v="locality" />
		<tag k="ssr:stedsnr" v="661862" />
	</node>
	<node id="-33059" lat="59.9598611095" lon="11.2134805554">
		<tag k="fixme" v="consider natural=peak for the most distinct mountains in the district" />
		<tag k="name" v="Piggåsen" />
		<tag k="natural" v="hill" />
		<tag k="place" v="locality" />
		<tag k="ssr:stedsnr" v="733512" />
	</node>
	<node id="-32973" lat="59.915441665" lon="11.1603611073">
		<tag k="name" v="Kjempehaugen" />
		<tag k="natural" v="hill" />
		<tag k="place" v="locality" />
		<tag k="ssr:stedsnr" v="648697" />
	</node>
	<node id="-32971" lat="59.8576888863" lon="11.2631916704">
		<tag k="fixme" v="consider natural=peak for the most distinct mountains in the district" />
		<tag k="name" v="Vestbyåsen" />
		<tag k="natural" v="hill" />
		<tag k="place" v="locality" />
		<tag k="ssr:stedsnr" v="648612" />
	</node>
	<node id="-32968" lat="59.7661583334" lon="11.2841166642">
		<tag k="fixme" v="consider natural=peak for the most distinct mountains in the district" />
		<tag k="name" v="Kjellåsen" />
		<tag k="natural" v="hill" />
		<tag k="place" v="locality" />
		<tag k="ssr:stedsnr" v="646466" />
	</node>
	<node id="-32964" lat="59.7770416643" lon="11.283933325">
		<tag k="name" v="Ertekleivlia" />
		<tag k="natural" v="slope" />
		<tag k="place" v="locality" />
		<tag k="ssr:stedsnr" v="646293" />
	</node>
	<node id="-32451" lat="59.9753472223" lon="11.1815555614">
		<tag k="name" v="Nybrudalen" />
		<tag k="natural" v="valley" />
		<tag k="place" v="locality" />
		<tag k="ssr:stedsnr" v="479124" />
	</node>
	<node id="-32449" lat="59.915777776" lon="11.2041388976">
		<tag k="name" v="Bjørndalen" />
		<tag k="natural" v="valley" />
		<tag k="place" v="locality" />
		<tag k="ssr:stedsnr" v="406744" />
	</node>
	<node id="-32446" lat="59.8594694475" lon="11.2740805494">
		<tag k="name" v="Høgåsen" />
		<tag k="natural" v="hill" />
		<tag k="place" v="locality" />
		<tag k="ssr:stedsnr" v="405625" />
	</node>
	<node id="-32445" lat="59.8540722247" lon="11.2729111104">
		<tag k="name" v="Holtedalsåsen" />
		<tag k="natural" v="hill" />
		<tag k="place" v="locality" />
		<tag k="ssr:stedsnr" v="405340" />
	</node>
	<node id="-32955" lat="59.8022110912" lon="11.3051378327">
		<tag k="name" v="Korsdalen" />
		<tag k="natural" v="valley" />
		<tag k="place" v="locality" />
		<tag k="ssr:stedsnr" v="611848" />
	</node>
	<node id="-32442" lat="59.8666583349" lon="11.2383111051">
		<tag k="name" v="Tølleren" />
		<tag k="natural" v="hill" />
		<tag k="place" v="locality" />
		<tag k="ssr:stedsnr" v="404615" />
	</node>
	<node id="-32441" lat="59.8737972216" lon="11.2766500017">
		<tag k="name" v="Skjatvetåsen" />
		<tag k="natural" v="hill" />
		<tag k="place" v="locality" />
		<tag k="ssr:stedsnr" v="404600" />
	</node>
	<node id="-32437" lat="59.8015944448" lon="11.2925833381">
		<tag k="name" v="Rølliksdalen" />
		<tag k="natural" v="valley" />
		<tag k="place" v="locality" />
		<tag k="ssr:stedsnr" v="403233" />
	</node>
	<node id="-32945" lat="59.9605305597" lon="11.1627583294">
		<tag k="fixme" v="consider natural=peak for the most distinct mountains in the district" />
		<tag k="name" v="Holtåsen" />
		<tag k="natural" v="hill" />
		<tag k="place" v="locality" />
		<tag k="ssr:stedsnr" v="611527" />
	</node>
	<node id="-32432" lat="59.9723972244" lon="11.1893361039">
		<tag k="fixme" v="consider natural=peak for the most distinct mountains in the district" />
		<tag k="name" v="Seteråsen" />
		<tag k="natural" v="hill" />
		<tag k="place" v="locality" />
		<tag k="ssr:stedsnr" v="369470" />
	</node>
	<node id="-32430" lat="59.7848388899" lon="11.3096111138">
		<tag k="fixme" v="consider natural=peak for the most distinct mountains in the district" />
		<tag k="name" v="Kolåshøgda" />
		<tag k="natural" v="hill" />
		<tag k="place" v="locality" />
		<tag k="ssr:stedsnr" v="368874" />
	</node>
	<node id="-32429" lat="59.8476666693" lon="11.2911111058">
		<tag k="fixme" v="consider natural=peak for the most distinct mountains in the district" />
		<tag k="name" v="Kaståsen" />
		<tag k="natural" v="hill" />
		<tag k="place" v="locality" />
		<tag k="ssr:stedsnr" v="368769" />
	</node>
	<node id="-32427" lat="59.8658694481" lon="11.3534722289">
		<tag k="fixme" v="consider natural=peak for the most distinct mountains in the district" />
		<tag k="name" v="Engahøgda" />
		<tag k="natural" v="hill" />
		<tag k="place" v="locality" />
		<tag k="ssr:stedsnr" v="368744" />
	</node>
	<node id="-32426" lat="59.8567527782" lon="11.2842055489">
		<tag k="name" v="Kleivdalen" />
		<tag k="natural" v="valley" />
		<tag k="place" v="locality" />
		<tag k="ssr:stedsnr" v="368739" />
	</node>
	<node id="-33223" lat="59.8749250031" lon="11.2939166667">
		<tag k="fixme" v="consider natural=peak for the most distinct mountains in the district" />
		<tag k="name" v="Hvilesteinsåsen" />
		<tag k="natural" v="hill" />
		<tag k="place" v="locality" />
		<tag k="ssr:stedsnr" v="907497" />
	</node>
	<node id="-32931" lat="59.8722000029" lon="11.335019446">
		<tag k="name" v="Sleipkleivdalen" />
		<tag k="natural" v="valley" />
		<tag k="place" v="locality" />
		<tag k="ssr:stedsnr" v="603578" />
	</node>
	<node id="-32928" lat="59.9621472231" lon="11.1528500038">
		<tag k="fixme" v="consider natural=peak for the most distinct mountains in the district" />
		<tag k="name" v="Damsåsen" />
		<tag k="natural" v="hill" />
		<tag k="place" v="locality" />
		<tag k="ssr:stedsnr" v="600902" />
	</node>
	<node id="-32414" lat="59.8425583291" lon="11.2697500084">
		<tag k="name" v="Rompemyrlia" />
		<tag k="natural" v="slope" />
		<tag k="place" v="locality" />
		<tag k="ssr:stedsnr" v="362369" />
	</node>
	<node id="-32407" lat="59.8595083296" lon="11.3252527716">
		<tag k="fixme" v="consider natural=peak for the most distinct mountains in the district" />
		<tag k="name" v="Tjoneåsen" />
		<tag k="natural" v="hill" />
		<tag k="place" v="locality" />
		<tag k="ssr:stedsnr" v="360586" />
	</node>
	<node id="-32406" lat="59.8822833334" lon="11.2846833281">
		<tag k="name" v="Kråkehalsen" />
		<tag k="natural" v="valley" />
		<tag k="place" v="locality" />
		<tag k="ssr:stedsnr" v="360516" />
	</node>
	<node id="-32917" lat="59.7622583339" lon="11.3190916636">
		<tag k="name" v="Steindalen" />
		<tag k="natural" v="valley" />
		<tag k="place" v="locality" />
		<tag k="ssr:stedsnr" v="585270" />
	</node>
	<node id="-32404" lat="59.9557499995" lon="11.1556750053">
		<tag k="name" v="Kjellerholen" />
		<tag k="place" v="locality" />
		<tag k="ssr:stedsnr" v="358998" />
	</node>
	<node id="-32913" lat="59.768597219" lon="11.2901416721">
		<tag k="name" v="Kloropplia" />
		<tag k="natural" v="slope" />
		<tag k="place" v="locality" />
		<tag k="ssr:stedsnr" v="585249" />
	</node>
	<node id="-32909" lat="59.8428138884" lon="11.3173750011">
		<tag k="name" v="Delingsdalen" />
		<tag k="natural" v="valley" />
		<tag k="place" v="locality" />
		<tag k="ssr:stedsnr" v="551748" />
	</node>
	<node id="-32905" lat="59.8137749988" lon="11.2519555538">
		<tag k="name" v="Marikjelddalen" />
		<tag k="natural" v="valley" />
		<tag k="place" v="locality" />
		<tag k="ssr:stedsnr" v="550807" />
	</node>
	<node id="-32387" lat="59.855738888" lon="11.3311861036">
		<tag k="name" v="Badstudalen" />
		<tag k="natural" v="valley" />
		<tag k="place" v="locality" />
		<tag k="ssr:stedsnr" v="343627" />
	</node>
	<node id="-32384" lat="59.7702611126" lon="11.2951027735">
		<tag k="fixme" v="consider natural=peak for the most distinct mountains in the district" />
		<tag k="name" v="Merramyrhøgda" />
		<tag k="natural" v="hill" />
		<tag k="place" v="locality" />
		<tag k="ssr:stedsnr" v="342267" />
	</node>
	<node id="-32895" lat="59.9356999963" lon="11.2371444398">
		<tag k="fixme" v="consider natural=peak for the most distinct mountains in the district" />
		<tag k="name" v="Brattåsen" />
		<tag k="natural" v="hill" />
		<tag k="place" v="locality" />
		<tag k="ssr:stedsnr" v="550553" />
	</node>
	<node id="-32378" lat="59.8569361139" lon="11.253369442">
		<tag k="fixme" v="multiple name tags, choose one and add the other to alt_name; consider natural=peak for the most distinct mountains in the district" />
		<tag k="name" v="Skinnerudåsen;Torudåsen" />
		<tag k="natural" v="hill" />
		<tag k="place" v="locality" />
		<tag k="ssr:stedsnr" v="308694" />
	</node>
	<node id="-32888" lat="59.8400499984" lon="11.2399499955">
		<tag k="fixme" v="consider natural=peak for the most distinct mountains in the district" />
		<tag k="name" v="Barkenesåsen" />
		<tag k="natural" v="hill" />
		<tag k="place" v="locality" />
		<tag k="ssr:stedsnr" v="544370" />
	</node>
	<node id="-32886" lat="59.8518749964" lon="11.3353805519">
		<tag k="fixme" v="consider natural=peak for the most distinct mountains in the district" />
		<tag k="name" v="Badstuåsen" />
		<tag k="natural" v="hill" />
		<tag k="place" v="locality" />
		<tag k="ssr:stedsnr" v="544332" />
	</node>
	<node id="-32883" lat="59.8817722238" lon="11.2595583293">
		<tag k="name" v="Lintjenndalen" />
		<tag k="natural" v="valley" />
		<tag k="place" v="locality" />
		<tag k="ssr:stedsnr" v="543545" />
	</node>
	<node id="-32957" lat="59.772063893" lon="11.3094194449">
		<tag k="alt_name" v="Minjarud Kollene" />
		<tag k="fixme" v="consider natural=peak for the most distinct mountains in the district" />
		<tag k="name" v="Minjarudkollen" />
		<tag k="natural" v="hill" />
		<tag k="place" v="locality" />
		<tag k="ssr:stedsnr" v="611919" />
	</node>
	<node id="-32363" lat="59.902516665" lon="11.1994333307">
		<tag k="fixme" v="consider natural=peak for the most distinct mountains in the district" />
		<tag k="name" v="Råsåkhøgda" />
		<tag k="natural" v="hill" />
		<tag k="place" v="locality" />
		<tag k="ssr:stedsnr" v="307660" />
	</node>
	<node id="-32356" lat="59.8435416708" lon="11.2804194406">
		<tag k="name" v="Rogndalen" />
		<tag k="natural" v="valley" />
		<tag k="place" v="locality" />
		<tag k="ssr:stedsnr" v="302383" />
	</node>
	<node id="-32352" lat="59.8727888933" lon="11.3240722241">
		<tag k="fixme" v="consider natural=peak for the most distinct mountains in the district" />
		<tag k="name" v="Rundtjennåsen" />
		<tag k="natural" v="hill" />
		<tag k="place" v="locality" />
		<tag k="ssr:stedsnr" v="300604" />
	</node>
	<node id="-32857" lat="59.8300555519" lon="11.2507888826">
		<tag k="fixme" v="consider natural=peak for the most distinct mountains in the district" />
		<tag k="name" v="Moltemyrås" />
		<tag k="natural" v="hill" />
		<tag k="place" v="locality" />
		<tag k="ssr:stedsnr" v="525371" />
	</node>
	<node id="-32856" lat="59.8265944428" lon="11.2409194495">
		<tag k="name" v="Bukkedalen" />
		<tag k="natural" v="valley" />
		<tag k="place" v="locality" />
		<tag k="ssr:stedsnr" v="525369" />
	</node>
	<node id="-32341" lat="59.9072305582" lon="11.1510805505">
		<tag k="name" v="Jushaugen" />
		<tag k="natural" v="hill" />
		<tag k="place" v="locality" />
		<tag k="ssr:stedsnr" v="285671" />
	</node>
	<node id="-32852" lat="59.7798611118" lon="11.3202944527">
		<tag k="name" v="Stordalen" />
		<tag k="natural" v="valley" />
		<tag k="place" v="locality" />
		<tag k="ssr:stedsnr" v="525299" />
	</node>
	<node id="-32850" lat="59.7969472259" lon="11.248519439">
		<tag k="name" v="Nygårdsåsen" />
		<tag k="natural" v="hill" />
		<tag k="place" v="locality" />
		<tag k="ssr:stedsnr" v="525293" />
	</node>
	<node id="-32330" lat="59.8006111105" lon="11.2485888961">
		<tag k="name" v="Korsveiåsen" />
		<tag k="natural" v="hill" />
		<tag k="place" v="locality" />
		<tag k="ssr:stedsnr" v="282230" />
	</node>
	<node id="-32838" lat="59.9100250031" lon="11.2261861116">
		<tag k="fixme" v="consider natural=peak for the most distinct mountains in the district" />
		<tag k="name" v="Poståsen" />
		<tag k="natural" v="hill" />
		<tag k="place" v="locality" />
		<tag k="ssr:stedsnr" v="490625" />
	</node>
	<node id="-32835" lat="59.9452416626" lon="11.1556194494">
		<tag k="fixme" v="consider natural=peak for the most distinct mountains in the district" />
		<tag k="name" v="Garderåsen" />
		<tag k="natural" v="hill" />
		<tag k="place" v="locality" />
		<tag k="ssr:stedsnr" v="490544" />
	</node>
	<node id="-32830" lat="59.9634000028" lon="11.1209527791">
		<tag k="fixme" v="consider natural=peak for the most distinct mountains in the district" />
		<tag k="name" v="Jølsenåsen" />
		<tag k="natural" v="hill" />
		<tag k="place" v="locality" />
		<tag k="ssr:stedsnr" v="490481" />
	</node>
	<node id="-33094" lat="59.8616833301" lon="11.2873611121">
		<tag k="name" v="Orrhønedalen" />
		<tag k="natural" v="valley" />
		<tag k="place" v="locality" />
		<tag k="ssr:stedsnr" v="769326" />
	</node>
	<node id="-32824" lat="59.856780555" lon="11.298597221">
		<tag k="fixme" v="consider natural=peak for the most distinct mountains in the district" />
		<tag k="name" v="Lauvåsen" />
		<tag k="natural" v="hill" />
		<tag k="place" v="locality" />
		<tag k="ssr:stedsnr" v="482599" />
	</node>
	<node id="-32819" lat="59.8952944481" lon="11.2530194365">
		<tag k="name" v="Svartputtdalen" />
		<tag k="natural" v="valley" />
		<tag k="place" v="locality" />
		<tag k="ssr:stedsnr" v="482548" />
	</node>
	<node id="-32775" lat="59.8953555549" lon="11.2282972293">
		<tag k="fixme" v="consider natural=peak for the most distinct mountains in the district" />
		<tag k="name" v="Kinnshøgda" />
		<tag k="natural" v="hill" />
		<tag k="place" v="locality" />
		<tag k="ssr:stedsnr" v="422567" />
	</node>
	<node id="-32805" lat="59.8531944414" lon="11.2986888964">
		<tag k="name" v="Bjørkedråga" />
		<tag k="natural" v="valley" />
		<tag k="place" v="locality" />
		<tag k="ssr:stedsnr" v="465617" />
	</node>
	<node id="-32942" lat="59.9382083307" lon="11.2158500065">
		<tag k="name" v="Engerhøgda" />
		<tag k="natural" v="hill" />
		<tag k="place" v="locality" />
		<tag k="ssr:stedsnr" v="605847" />
	</node>
	<node id="-32784" lat="59.8949055517" lon="11.2653666709">
		<tag k="fixme" v="consider natural=peak for the most distinct mountains in the district" />
		<tag k="name" v="Sjølen" />
		<tag k="natural" v="hill" />
		<tag k="place" v="locality" />
		<tag k="ssr:stedsnr" v="429624" />
	</node>
	<node id="-32941" lat="59.8520166664" lon="11.2550388818">
		<tag k="name" v="Bergerudåsen" />
		<tag k="natural" v="hill" />
		<tag k="place" v="locality" />
		<tag k="ssr:stedsnr" v="605368" />
	</node>
	<node id="-33196" lat="59.8410944411" lon="11.2613333297">
		<tag k="fixme" v="consider natural=peak for the most distinct mountains in the district" />
		<tag k="name" v="Duerudåsen" />
		<tag k="natural" v="hill" />
		<tag k="place" v="locality" />
		<tag k="ssr:stedsnr" v="848381" />
	</node>
	<node id="-33285" lat="59.9200083308" lon="11.2534444357">
		<tag k="name" v="Svarttjenndalen" />
		<tag k="natural" v="valley" />
		<tag k="place" v="locality" />
		<tag k="ssr:stedsnr" v="969846" />
	</node>
	<node id="-32772" lat="59.9166277818" lon="11.2531777764">
		<tag k="fixme" v="consider natural=peak for the most distinct mountains in the district" />
		<tag k="name" v="Svarttjennsåsen" />
		<tag k="natural" v="hill" />
		<tag k="place" v="locality" />
		<tag k="ssr:stedsnr" v="421668" />
	</node>
	<node id="-33195" lat="59.8335305595" lon="11.2950472242">
		<tag k="name" v="Mjøsjødalen" />
		<tag k="natural" v="valley" />
		<tag k="place" v="locality" />
		<tag k="ssr:stedsnr" v="848378" />
	</node>
</osm>
