<?xml version="1.0" encoding="UTF-8"?>
<osm generator="osmapis" version="0.6">
	<node id="-32768" lat="59.964358329" lon="11.1845249988">
		<tag k="name" v="Sollia" />
		<tag k="place" v="locality" />
		<tag k="ssr:stedsnr" v="479904" />
	</node>
	<node id="-32767" lat="59.9614277746" lon="11.1128916629">
		<tag k="name" v="Nordre Hagen" />
		<tag k="place" v="locality" />
		<tag k="ssr:stedsnr" v="479897" />
	</node>
	<node id="-32766" lat="59.9537694414" lon="11.206983342">
		<tag k="name" v="Dypdalen" />
		<tag k="natural" v="valley" />
		<tag k="place" v="locality" />
		<tag k="ssr:stedsnr" v="479889" />
	</node>
	<node id="-32765" lat="59.9403250036" lon="11.2074861191">
		<tag k="name" v="Åsen" />
		<tag k="place" v="isolated_dwelling" />
		<tag k="ssr:stedsnr" v="479883" />
	</node>
	<node id="-32764" lat="59.9487388872" lon="11.1221999961">
		<tag k="name" v="Nordre Skjelver" />
		<tag k="place" v="farm" />
		<tag k="ssr:stedsnr" v="479874" />
	</node>
	<node id="-32763" lat="59.9494361118" lon="11.1313944384">
		<tag k="name" v="Leirdal" />
		<tag k="place" v="locality" />
		<tag k="ssr:stedsnr" v="479869" />
	</node>
	<node id="-32762" lat="59.9115027762" lon="11.2051444355">
		<tag k="name" v="Balrusmyra" />
		<tag k="natural" v="wetland" />
		<tag k="ssr:stedsnr" v="248648" />
	</node>
	<node id="-32761" lat="59.9110694435" lon="11.2629055476">
		<tag k="name" v="Tretysjøen" />
		<tag k="natural" v="water" />
		<tag k="ssr:stedsnr" v="248643" />
	</node>
	<node id="-32760" lat="59.9528833368" lon="11.1662888912">
		<tag k="name" v="Holt" />
		<tag k="place" v="farm" />
		<tag k="ssr:stedsnr" v="248551" />
	</node>
	<node id="-32759" lat="59.9570499976" lon="11.1042111146">
		<tag k="name" v="Jølsenbekken" />
		<tag k="ssr:stedsnr" v="248516" />
		<tag k="waterway" v="stream" />
	</node>
	<node id="-32758" lat="59.7656694472" lon="11.2493888898">
		<tag k="alt_name" v="Hunes, søndre" />
		<tag k="name" v="Søndre Hunes" />
		<tag k="place" v="farm" />
		<tag k="ssr:stedsnr" v="247898" />
	</node>
	<node id="-32757" lat="59.7741305554" lon="11.3362666652">
		<tag k="name" v="Sloretjern" />
		<tag k="natural" v="water" />
		<tag k="ssr:stedsnr" v="247892" />
	</node>
	<node id="-32756" lat="59.7802388868" lon="11.2803027794">
		<tag k="name" v="Olberg" />
		<tag k="place" v="isolated_dwelling" />
		<tag k="ssr:stedsnr" v="247843" />
	</node>
	<node id="-32755" lat="59.8005499956" lon="11.2832777777">
		<tag k="alt_name" v="Bråtatjenn" />
		<tag k="name" v="Bråtatjern" />
		<tag k="natural" v="water" />
		<tag k="ssr:stedsnr" v="247815" />
	</node>
	<node id="-32754" lat="59.839633335" lon="11.3025166587">
		<tag k="name" v="Svarttjern" />
		<tag k="natural" v="water" />
		<tag k="ssr:stedsnr" v="247736" />
	</node>
	<node id="-32753" lat="59.8566749966" lon="11.2229416637">
		<tag k="name" v="Østanesåa" />
		<tag k="natural" v="bay" />
		<tag k="ssr:stedsnr" v="247709" />
	</node>
	<node id="-32752" lat="59.8603166645" lon="11.3032694491">
		<tag k="alt_name" v="Lintjenn" />
		<tag k="name" v="Lintjern" />
		<tag k="natural" v="water" />
		<tag k="ssr:stedsnr" v="247695" />
	</node>
	<node id="-32751" lat="59.8928166667" lon="11.1819333292">
		<tag k="alt_name" v="Råsok" />
		<tag k="name" v="Råsåk" />
		<tag k="place" v="farm" />
		<tag k="ssr:stedsnr" v="247642" />
	</node>
	<node id="-32750" lat="59.9035361126" lon="11.2300777737">
		<tag k="alt_name" v="Lintjenn" />
		<tag k="name" v="Lintjern" />
		<tag k="natural" v="water" />
		<tag k="ssr:stedsnr" v="247617" />
	</node>
	<node id="-32749" lat="59.9211027779" lon="11.1507249941">
		<tag k="name" v="Lund" />
		<tag k="place" v="isolated_dwelling" />
		<tag k="ssr:stedsnr" v="247582" />
	</node>
	<node id="-32748" lat="59.9283916701" lon="11.1538638957">
		<tag k="name" v="Vilberg" />
		<tag k="place" v="farm" />
		<tag k="ssr:stedsnr" v="247551" />
	</node>
	<node id="-32747" lat="59.9458777817" lon="11.1168583299">
		<tag k="name" v="Vinsnes" />
		<tag k="place" v="farm" />
		<tag k="ssr:stedsnr" v="247534" />
	</node>
	<node id="-32746" lat="59.9435777792" lon="11.1282083366">
		<tag k="name" v="Skjelverhaugen" />
		<tag k="place" v="farm" />
		<tag k="ssr:stedsnr" v="247530" />
	</node>
	<node id="-32745" lat="59.9724777739" lon="11.1206916731">
		<tag k="name" v="Steindalen" />
		<tag k="place" v="isolated_dwelling" />
		<tag k="ssr:stedsnr" v="247491" />
	</node>
	<node id="-32744" lat="59.836916665" lon="11.258230553">
		<tag k="fixme" v="consider natural=peak for the most distinct mountains in the district" />
		<tag k="name" v="Holeåsen" />
		<tag k="natural" v="hill" />
		<tag k="place" v="locality" />
		<tag k="ssr:stedsnr" v="241361" />
	</node>
	<node id="-32743" lat="59.9270305546" lon="11.1624194411">
		<tag k="name" v="Fetsund stasjon" />
		<tag k="railway" v="station" />
		<tag k="ssr:stedsnr" v="239695" />
		<tag k="train" v="yes" />
	</node>
	<node id="-32742" lat="59.9209222187" lon="11.1634888808">
		<tag k="name" v="Strandenga" />
		<tag k="place" v="farm" />
		<tag k="ssr:stedsnr" v="239689" />
	</node>
	<node id="-32741" lat="59.9286388876" lon="11.1331583376">
		<tag k="name" v="Hovinåsen" />
		<tag k="place" v="quarter" />
		<tag k="ssr:stedsnr" v="239681" />
	</node>
	<node id="-32740" lat="59.9249999978" lon="11.1510138933">
		<tag k="name" v="Holen" />
		<tag k="place" v="farm" />
		<tag k="ssr:stedsnr" v="239679" />
	</node>
	<node id="-32739" lat="59.9384944406" lon="11.1347222187">
		<tag k="name" v="Tienenga" />
		<tag k="place" v="locality" />
		<tag k="ssr:stedsnr" v="239667" />
	</node>
	<node id="-32738" lat="59.8848166651" lon="11.2136333364">
		<tag k="name" v="Løkkeberg" />
		<tag k="place" v="farm" />
		<tag k="ssr:stedsnr" v="239564" />
	</node>
	<node id="-32737" lat="59.8766166636" lon="11.2161083364">
		<tag k="name" v="Snippen" />
		<tag k="place" v="locality" />
		<tag k="ssr:stedsnr" v="239507" />
	</node>
	<node id="-32736" lat="59.960075" lon="11.1411083338">
		<tag k="name" v="Damsletta" />
		<tag k="place" v="locality" />
		<tag k="ssr:stedsnr" v="237998" />
	</node>
	<node id="-32735" lat="59.9656277798" lon="11.133797223">
		<tag k="name" v="Ødegården" />
		<tag k="place" v="locality" />
		<tag k="ssr:stedsnr" v="237905" />
	</node>
	<node id="-32734" lat="59.9792611075" lon="11.1714527709">
		<tag k="name" v="Slåttemyra" />
		<tag k="natural" v="wetland" />
		<tag k="ssr:stedsnr" v="237904" />
	</node>
	<node id="-32733" lat="59.9616833371" lon="11.1449027783">
		<tag k="name" v="Sagholslia" />
		<tag k="natural" v="slope" />
		<tag k="place" v="locality" />
		<tag k="ssr:stedsnr" v="237888" />
	</node>
	<node id="-32732" lat="59.9627305535" lon="11.0869444477">
		<tag k="name" v="Rottebekken" />
		<tag k="ssr:stedsnr" v="237875" />
		<tag k="waterway" v="stream" />
	</node>
	<node id="-32731" lat="59.9429916708" lon="11.1901888835">
		<tag k="name" v="Søndre Kjustad" />
		<tag k="place" v="farm" />
		<tag k="ssr:stedsnr" v="237858" />
	</node>
	<node id="-32730" lat="59.8580277735" lon="11.2380861112">
		<tag k="name" v="Tyrihjellen" />
		<tag k="place" v="locality" />
		<tag k="ssr:stedsnr" v="237123" />
	</node>
	<node id="-32729" lat="59.9326166637" lon="11.1383027792">
		<tag k="bridge" v="yes" />
		<tag k="layer" v="1" />
		<tag k="name" v="Hovinbakken" />
		<tag k="ssr:stedsnr" v="228043" />
	</node>
	<node id="-32728" lat="59.9091666649" lon="11.2269527796">
		<tag k="name" v="Kumyra" />
		<tag k="natural" v="wetland" />
		<tag k="ssr:stedsnr" v="224727" />
	</node>
	<node id="-32727" lat="59.8488944427" lon="11.2830000051">
		<tag k="name" v="Kaståsen" />
		<tag k="place" v="locality" />
		<tag k="ssr:stedsnr" v="223345" />
	</node>
	<node id="-32726" lat="59.9262083378" lon="11.187222217">
		<tag k="name" v="Fjerdingen" />
		<tag k="place" v="farm" />
		<tag k="ssr:stedsnr" v="222821" />
	</node>
	<node id="-32725" lat="59.8738027804" lon="11.2784555553">
		<tag k="name" v="Stokkedalen" />
		<tag k="natural" v="valley" />
		<tag k="place" v="locality" />
		<tag k="ssr:stedsnr" v="222578" />
	</node>
	<node id="-32724" lat="59.8230333335" lon="11.2437833305">
		<tag k="name" v="Stigløkka" />
		<tag k="place" v="locality" />
		<tag k="ssr:stedsnr" v="221350" />
	</node>
	<node id="-32723" lat="59.7739388858" lon="11.2544888976">
		<tag k="name" v="Melnesåa" />
		<tag k="ssr:stedsnr" v="221280" />
		<tag k="waterway" v="stream" />
	</node>
	<node id="-32722" lat="59.7682694463" lon="11.2685861039">
		<tag k="name" v="Søndre Teig" />
		<tag k="old_name" v="Bakken og Teig mellem" />
		<tag k="place" v="farm" />
		<tag k="ssr:stedsnr" v="221278" />
	</node>
	<node id="-32721" lat="59.7827361144" lon="11.2630833313">
		<tag k="name" v="Einerhagan" />
		<tag k="place" v="locality" />
		<tag k="ssr:stedsnr" v="221271" />
	</node>
	<node id="-32720" lat="59.7848111105" lon="11.2750750043">
		<tag k="alt_name" v="Bøler nordre" />
		<tag k="name" v="Nordre Bøler" />
		<tag k="place" v="farm" />
		<tag k="ssr:stedsnr" v="221266" />
	</node>
	<node id="-32719" lat="59.7744944462" lon="11.2995611148">
		<tag k="name" v="Ødebymyrene" />
		<tag k="natural" v="wetland" />
		<tag k="ssr:stedsnr" v="221259" />
	</node>
	<node id="-32718" lat="59.7792694461" lon="11.3136805508">
		<tag k="name" v="Øvre Stordalsmyra" />
		<tag k="natural" v="wetland" />
		<tag k="ssr:stedsnr" v="221246" />
	</node>
	<node id="-32717" lat="59.7966749969" lon="11.2449555622">
		<tag k="name" v="Syltedalen" />
		<tag k="natural" v="valley" />
		<tag k="place" v="locality" />
		<tag k="ssr:stedsnr" v="221223" />
	</node>
	<node id="-32716" lat="59.8337083302" lon="11.2447166747">
		<tag k="alt_name" v="Bjørkeflåtten nordre" />
		<tag k="name" v="Nordre Bjørkeflåtten" />
		<tag k="place" v="farm" />
		<tag k="ssr:stedsnr" v="221340" />
	</node>
	<node id="-32715" lat="59.837797224" lon="11.2476694443">
		<tag k="name" v="Ulverud" />
		<tag k="place" v="isolated_dwelling" />
		<tag k="ssr:stedsnr" v="187761" />
	</node>
	<node id="-32714" lat="59.8406750011" lon="11.2584472271">
		<tag k="name" v="Duerud" />
		<tag k="place" v="farm" />
		<tag k="ssr:stedsnr" v="187759" />
	</node>
	<node id="-32713" lat="59.8484972259" lon="11.3245722156">
		<tag k="name" v="Bjørkmyra" />
		<tag k="natural" v="wetland" />
		<tag k="ssr:stedsnr" v="187713" />
	</node>
	<node id="-32712" lat="59.8702333289" lon="11.237119452">
		<tag k="name" v="Nordli" />
		<tag k="place" v="farm" />
		<tag k="ssr:stedsnr" v="187650" />
	</node>
	<node id="-32711" lat="59.8709001212" lon="11.2258587175">
		<tag k="name" v="By" />
		<tag k="place" v="hamlet" />
		<tag k="ssr:stedsnr" v="187644" />
	</node>
	<node id="-32710" lat="59.9287679182" lon="11.2210938725">
		<tag k="name" v="Heia" />
		<tag k="natural" v="water" />
		<tag k="ssr:stedsnr" v="187550" />
		<tag k="water" v="lake" />
	</node>
	<node id="-32709" lat="59.7704972186" lon="11.2767694462">
		<tag k="name" v="Teig" />
		<tag k="place" v="farm" />
		<tag k="ssr:stedsnr" v="187509" />
	</node>
	<node id="-32708" lat="59.8720277782" lon="11.27271945">
		<tag k="fixme" v="consider place=hamlet" />
		<tag k="name" v="Skjatvet" />
		<tag k="place" v="farm" />
		<tag k="ssr:stedsnr" v="187653" />
	</node>
	<node id="-32707" lat="59.9035027785" lon="11.2352277823">
		<tag k="name" v="Skogheim" />
		<tag k="place" v="isolated_dwelling" />
		<tag k="ssr:stedsnr" v="187579" />
	</node>
	<node id="-32706" lat="59.9209833365" lon="11.2296361067">
		<tag k="name" v="Slora" />
		<tag k="natural" v="bay" />
		<tag k="ssr:stedsnr" v="187573" />
	</node>
	<node id="-32705" lat="59.7767916673" lon="11.2394138819">
		<tag k="name" v="Melnesholmen" />
		<tag k="place" v="islet" />
		<tag k="ssr:stedsnr" v="186900" />
	</node>
	<node id="-32704" lat="59.7831388915" lon="11.2364527725">
		<tag k="name" v="Ringstadnebben" />
		<tag k="natural" v="cape" />
		<tag k="ssr:stedsnr" v="186866" />
	</node>
	<node id="-32703" lat="59.7679083341" lon="11.2690805468">
		<tag k="fixme" v="consider place=hamlet" />
		<tag k="name" v="Teig" />
		<tag k="place" v="farm" />
		<tag k="ssr:stedsnr" v="186908" />
	</node>
	<node id="-32702" lat="59.9373333354" lon="11.2288777771">
		<tag k="name" v="Nygård" />
		<tag k="place" v="farm" />
		<tag k="ssr:stedsnr" v="186612" />
	</node>
	<node id="-32701" lat="59.9367111151" lon="11.2084999985">
		<tag k="fixme" v="consider place=hamlet" />
		<tag k="name" v="Tofsrud" />
		<tag k="place" v="farm" />
		<tag k="ssr:stedsnr" v="186606" />
	</node>
	<node id="-32700" lat="59.9383166649" lon="11.1954499964">
		<tag k="name" v="Karlsrud" />
		<tag k="place" v="farm" />
		<tag k="ssr:stedsnr" v="186607" />
	</node>
	<node id="-32699" lat="59.9436500012" lon="11.209336114">
		<tag k="name" v="Sørli" />
		<tag k="place" v="farm" />
		<tag k="ssr:stedsnr" v="186601" />
	</node>
	<node id="-32698" lat="59.9357750007" lon="11.1942083282">
		<tag k="junction" v="yes" />
		<tag k="name" v="Falla" />
		<tag k="place" v="locality" />
		<tag k="ssr:stedsnr" v="180855" />
	</node>
	<node id="-32697" lat="59.9335472186" lon="11.2449638831">
		<tag k="name" v="Brattåsmoen" />
		<tag k="place" v="locality" />
		<tag k="ssr:stedsnr" v="180847" />
	</node>
	<node id="-32696" lat="59.936933337" lon="11.2082833388">
		<tag k="name" v="Søndre Tofsrud" />
		<tag k="place" v="farm" />
		<tag k="ssr:stedsnr" v="180839" />
	</node>
	<node id="-32695" lat="59.8452055557" lon="11.2828916755">
		<tag k="name" v="Rogndalslia" />
		<tag k="natural" v="slope" />
		<tag k="place" v="locality" />
		<tag k="ssr:stedsnr" v="180368" />
	</node>
	<node id="-32694" lat="59.8467805552" lon="11.2659666711">
		<tag k="name" v="Rossdallia" />
		<tag k="natural" v="slope" />
		<tag k="place" v="locality" />
		<tag k="ssr:stedsnr" v="180362" />
	</node>
	<node id="-32693" lat="59.8426277777" lon="11.2740388971">
		<tag k="name" v="Rompemyra" />
		<tag k="natural" v="wetland" />
		<tag k="ssr:stedsnr" v="180353" />
	</node>
	<node id="-32692" lat="59.8398416646" lon="11.2999083304">
		<tag k="name" v="Snatatangen" />
		<tag k="natural" v="cape" />
		<tag k="ssr:stedsnr" v="180347" />
	</node>
	<node id="-32691" lat="59.8437055533" lon="11.30028333">
		<tag k="name" v="Stutøye" />
		<tag k="natural" v="water" />
		<tag k="ssr:stedsnr" v="180337" />
		<tag k="water" v="pond" />
	</node>
	<node id="-32690" lat="59.8884749964" lon="11.2305194526">
		<tag k="name" v="Kartedalen" />
		<tag k="natural" v="valley" />
		<tag k="place" v="locality" />
		<tag k="ssr:stedsnr" v="179539" />
	</node>
	<node id="-32689" lat="59.8910944426" lon="11.2653916611">
		<tag k="name" v="Kudalen" />
		<tag k="natural" v="valley" />
		<tag k="place" v="locality" />
		<tag k="ssr:stedsnr" v="179529" />
	</node>
	<node id="-32688" lat="59.8946999958" lon="11.2563416715">
		<tag k="fixme" v="consider natural=peak for the most distinct mountains in the district" />
		<tag k="name" v="Veslesjølen" />
		<tag k="natural" v="hill" />
		<tag k="place" v="locality" />
		<tag k="ssr:stedsnr" v="179530" />
	</node>
	<node id="-32687" lat="59.890749999" lon="11.2541055563">
		<tag k="name" v="Oppegårdsmyra" />
		<tag k="natural" v="wetland" />
		<tag k="ssr:stedsnr" v="179527" />
	</node>
	<node id="-32686" lat="59.8805611071" lon="11.3148916648">
		<tag k="name" v="Borgendalen" />
		<tag k="natural" v="valley" />
		<tag k="place" v="locality" />
		<tag k="ssr:stedsnr" v="179523" />
	</node>
	<node id="-32685" lat="59.9242000019" lon="11.1465083413">
		<tag k="name" v="Nordre Nerdrum" />
		<tag k="place" v="farm" />
		<tag k="ssr:stedsnr" v="178648" />
	</node>
	<node id="-32684" lat="59.9229505701" lon="11.1410571119">
		<tag k="name" v="Nerdrum holdeplass" />
		<tag k="railway" v="halt" />
		<tag k="ssr:stedsnr" v="178639" />
		<tag k="train" v="yes" />
	</node>
	<node id="-32683" lat="59.8536583335" lon="11.3482194398">
		<tag k="name" v="Nordstigdalen" />
		<tag k="natural" v="valley" />
		<tag k="place" v="locality" />
		<tag k="ssr:stedsnr" v="178582" />
	</node>
	<node id="-32682" lat="59.9556722226" lon="11.1736361117">
		<tag k="name" v="Skårer" />
		<tag k="place" v="farm" />
		<tag k="ssr:stedsnr" v="176993" />
	</node>
	<node id="-32681" lat="59.9627305543" lon="11.1561305492">
		<tag k="name" v="Rakkermåsalia" />
		<tag k="natural" v="slope" />
		<tag k="place" v="locality" />
		<tag k="ssr:stedsnr" v="176881" />
	</node>
	<node id="-32680" lat="59.9625722224" lon="11.1494722232">
		<tag k="name" v="Stubberud" />
		<tag k="place" v="locality" />
		<tag k="ssr:stedsnr" v="176880" />
	</node>
	<node id="-32679" lat="59.9663361121" lon="11.1416916605">
		<tag k="name" v="Vinsnesskogen" />
		<tag k="place" v="locality" />
		<tag k="ssr:stedsnr" v="176875" />
	</node>
	<node id="-32678" lat="59.9686305526" lon="11.1749861109">
		<tag k="fixme" v="consider highway=path" />
		<tag k="highway" v="track" />
		<tag k="name" v="Nybudalsvegen" />
		<tag k="ssr:stedsnr" v="176874" />
	</node>
	<node id="-32677" lat="59.9638916662" lon="11.165933334">
		<tag k="name" v="Jasemyra" />
		<tag k="natural" v="wetland" />
		<tag k="ssr:stedsnr" v="176872" />
	</node>
	<node id="-32676" lat="59.9641666685" lon="11.1123305601">
		<tag k="name" v="Steindalsbekken" />
		<tag k="ssr:stedsnr" v="176871" />
		<tag k="waterway" v="stream" />
	</node>
	<node id="-32675" lat="59.968969442" lon="11.1024944373">
		<tag k="name" v="Jølsensvingen" />
		<tag k="place" v="locality" />
		<tag k="ssr:stedsnr" v="176866" />
	</node>
	<node id="-32674" lat="59.956955553" lon="11.1985277775">
		<tag k="name" v="Bjønnbakken" />
		<tag k="place" v="locality" />
		<tag k="ssr:stedsnr" v="176862" />
	</node>
	<node id="-32673" lat="59.9591666687" lon="11.2045138843">
		<tag k="name" v="Smedsrud" />
		<tag k="place" v="farm" />
		<tag k="ssr:stedsnr" v="176860" />
	</node>
	<node id="-32672" lat="59.9500611103" lon="11.1935222291">
		<tag k="name" v="Holter" />
		<tag k="place" v="farm" />
		<tag k="ssr:stedsnr" v="176859" />
	</node>
	<node id="-32671" lat="59.9454944404" lon="11.1228888847">
		<tag k="name" v="Søndre Skjelver" />
		<tag k="place" v="farm" />
		<tag k="ssr:stedsnr" v="176835" />
	</node>
	<node id="-32670" lat="59.9681555589" lon="11.2041444514">
		<tag k="name" v="Ødegård" />
		<tag k="place" v="farm" />
		<tag k="ssr:stedsnr" v="176143" />
	</node>
	<node id="-32669" lat="59.9302750036" lon="11.1464027826">
		<tag k="bridge" v="yes" />
		<tag k="layer" v="1" />
		<tag k="name" v="Gardertoppen" />
		<tag k="ssr:stedsnr" v="167034" />
	</node>
	<node id="-32668" lat="59.860908336" lon="11.3154000077">
		<tag k="bridge" v="yes" />
		<tag k="layer" v="1" />
		<tag k="name" v="Saga" />
		<tag k="ssr:stedsnr" v="167032" />
	</node>
	<node id="-32667" lat="59.8981055523" lon="11.1772749971">
		<tag k="name" v="Brudeberget" />
		<tag k="natural" v="cliff" />
		<tag k="ssr:stedsnr" v="163736" />
	</node>
	<node id="-32666" lat="59.9150777764" lon="11.1313749999">
		<tag k="name" v="Merkja" />
		<tag k="natural" v="strait" />
		<tag k="ssr:stedsnr" v="163683" />
	</node>
	<node id="-32665" lat="59.9040194434" lon="11.158455553">
		<tag k="name" v="Stensrud" />
		<tag k="place" v="locality" />
		<tag k="ssr:stedsnr" v="163680" />
	</node>
	<node id="-32664" lat="59.9050583323" lon="11.1751194374">
		<tag k="name" v="Solvang" />
		<tag k="place" v="farm" />
		<tag k="ssr:stedsnr" v="163676" />
	</node>
	<node id="-32663" lat="59.8996472248" lon="11.1599416591">
		<tag k="name" v="Bjaneshaugen" />
		<tag k="natural" v="hill" />
		<tag k="place" v="locality" />
		<tag k="ssr:stedsnr" v="163670" />
	</node>
	<node id="-32662" lat="59.8595444422" lon="11.269763883">
		<tag k="name" v="Østbylia" />
		<tag k="natural" v="slope" />
		<tag k="place" v="locality" />
		<tag k="ssr:stedsnr" v="163566" />
	</node>
	<node id="-32661" lat="59.860783335" lon="11.2249833301">
		<tag k="name" v="Haugen" />
		<tag k="place" v="farm" />
		<tag k="ssr:stedsnr" v="163306" />
	</node>
	<node id="-32660" lat="59.9223916627" lon="11.2060638858">
		<tag k="name" v="Dulpen" />
		<tag k="place" v="locality" />
		<tag k="ssr:stedsnr" v="161831" />
	</node>
	<node id="-32659" lat="59.8537666692" lon="11.304530554">
		<tag k="name" v="Snikestykket" />
		<tag k="place" v="locality" />
		<tag k="ssr:stedsnr" v="161593" />
	</node>
	<node id="-32658" lat="59.8388833343" lon="11.2661277845">
		<tag k="name" v="Rosstjennlia" />
		<tag k="natural" v="slope" />
		<tag k="place" v="locality" />
		<tag k="ssr:stedsnr" v="161340" />
	</node>
	<node id="-32657" lat="59.7814861071" lon="11.2746861081">
		<tag k="name" v="Skrabben" />
		<tag k="place" v="farm" />
		<tag k="ssr:stedsnr" v="161303" />
	</node>
	<node id="-32656" lat="59.7833305535" lon="11.2703222197">
		<tag k="name" v="Melnesåsen" />
		<tag k="natural" v="hill" />
		<tag k="place" v="locality" />
		<tag k="ssr:stedsnr" v="161302" />
	</node>
	<node id="-32655" lat="59.7861805518" lon="11.2666305523">
		<tag k="name" v="Lybekk" />
		<tag k="place" v="farm" />
		<tag k="ssr:stedsnr" v="161295" />
	</node>
	<node id="-32654" lat="59.767830554" lon="11.3230944439">
		<tag k="fixme" v="consider natural=peak for the most distinct mountains in the district" />
		<tag k="name" v="Gravtjennhøgda" />
		<tag k="natural" v="hill" />
		<tag k="place" v="locality" />
		<tag k="ssr:stedsnr" v="161291" />
	</node>
	<node id="-32653" lat="59.7912666623" lon="11.245516673">
		<tag k="name" v="Raskerud" />
		<tag k="place" v="locality" />
		<tag k="ssr:stedsnr" v="161280" />
	</node>
	<node id="-32652" lat="59.7913861127" lon="11.3102250001">
		<tag k="name" v="Tjurukleiva" />
		<tag k="natural" v="slope" />
		<tag k="place" v="locality" />
		<tag k="ssr:stedsnr" v="161266" />
	</node>
	<node id="-32651" lat="59.8113944453" lon="11.243002774">
		<tag k="name" v="Marikjeldstranda" />
		<tag k="natural" v="beach" />
		<tag k="ssr:stedsnr" v="161263" />
	</node>
	<node id="-32650" lat="59.7591611136" lon="11.3078194493">
		<tag k="name" v="Klypen" />
		<tag k="place" v="isolated_dwelling" />
		<tag k="ssr:stedsnr" v="160278" />
	</node>
	<node id="-32649" lat="59.7725027793" lon="11.2496194467">
		<tag k="fixme" v="consider natural=peak for the most distinct mountains in the district" />
		<tag k="name" v="Hunesåsen" />
		<tag k="natural" v="hill" />
		<tag k="place" v="locality" />
		<tag k="ssr:stedsnr" v="160269" />
	</node>
	<node id="-32648" lat="59.8640888926" lon="11.3084416732">
		<tag k="name" v="Sagmåsan" />
		<tag k="natural" v="wetland" />
		<tag k="ssr:stedsnr" v="142130" />
	</node>
	<node id="-32647" lat="59.8844055526" lon="11.15489444">
		<tag k="name" v="Bukkesand" />
		<tag k="place" v="islet" />
		<tag k="ssr:stedsnr" v="142111" />
	</node>
	<node id="-32646" lat="59.8445722231" lon="11.2279361102">
		<tag k="name" v="Holt" />
		<tag k="place" v="farm" />
		<tag k="ssr:stedsnr" v="126700" />
	</node>
	<node id="-32645" lat="59.8003638911" lon="11.2562388858">
		<tag k="name" v="Sletta" />
		<tag k="place" v="farm" />
		<tag k="ssr:stedsnr" v="126817" />
	</node>
	<node id="-32644" lat="59.9635833348" lon="11.2034999959">
		<tag k="name" v="Guttarsrud" />
		<tag k="old_name" v="Guttersrud" />
		<tag k="place" v="farm" />
		<tag k="ssr:stedsnr" v="126525" />
	</node>
	<node id="-32643" lat="59.9067134216" lon="11.1667445329">
		<tag k="name" v="Bleike" />
		<tag k="place" v="farm" />
		<tag k="ssr:stedsnr" v="126602" />
	</node>
	<node id="-32642" lat="59.9244722258" lon="11.2009055604">
		<tag k="name" v="Granerud" />
		<tag k="place" v="farm" />
		<tag k="ssr:stedsnr" v="126580" />
	</node>
	<node id="-32641" lat="59.9255500013" lon="11.1954472206">
		<tag k="name" v="Visperud" />
		<tag k="place" v="farm" />
		<tag k="ssr:stedsnr" v="126578" />
	</node>
	<node id="-32640" lat="59.9241269493" lon="11.1473421881">
		<tag k="fixme" v="consider place=hamlet" />
		<tag k="name" v="Nerdrum" />
		<tag k="place" v="farm" />
		<tag k="ssr:stedsnr" v="126574" />
	</node>
	<node id="-32639" lat="59.762547226" lon="11.2914388878">
		<tag k="name" v="Smådal" />
		<tag k="place" v="farm" />
		<tag k="ssr:stedsnr" v="125897" />
	</node>
	<node id="-32638" lat="59.7787694462" lon="11.2488833367">
		<tag k="alt_name" v="Melnes, vestre" />
		<tag k="name" v="Vestre Melnes" />
		<tag k="place" v="farm" />
		<tag k="ssr:stedsnr" v="125866" />
	</node>
	<node id="-32637" lat="59.8639500045" lon="11.2267216907">
		<tag k="alt_name" v="Dalen kapell" />
		<tag k="amenity" v="place_of_worship" />
		<tag k="denomination" v="lutheran" />
		<tag k="name" v="Dalen kirke" />
		<tag k="religion" v="christian" />
		<tag k="ssr:stedsnr" v="125718" />
	</node>
	<node id="-32636" lat="59.8925194419" lon="11.1922999977">
		<tag k="name" v="Ås" />
		<tag k="place" v="farm" />
		<tag k="ssr:stedsnr" v="125680" />
	</node>
	<node id="-32635" lat="59.8877499967" lon="11.2035694502">
		<tag k="name" v="Norddal" />
		<tag k="place" v="farm" />
		<tag k="ssr:stedsnr" v="125678" />
	</node>
	<node id="-32634" lat="59.9428388901" lon="11.1002861109">
		<tag k="alt_name" v="Tuen bruk" />
		<tag k="name" v="Tuen" />
		<tag k="place" v="quarter" />
		<tag k="ssr:stedsnr" v="125579" />
	</node>
	<node id="-32633" lat="59.9311444485" lon="11.2341361196">
		<tag k="name" v="Torud" />
		<tag k="place" v="locality" />
		<tag k="ssr:stedsnr" v="120841" />
	</node>
	<node id="-32632" lat="59.84772222" lon="11.2754055505">
		<tag k="fixme" v="consider natural=peak for the most distinct mountains in the district" />
		<tag k="name" v="Veslemåsahøgda" />
		<tag k="natural" v="hill" />
		<tag k="place" v="locality" />
		<tag k="ssr:stedsnr" v="120356" />
	</node>
	<node id="-32631" lat="59.8348527738" lon="11.2902833395">
		<tag k="name" v="Nedre Halvheklemyr" />
		<tag k="natural" v="wetland" />
		<tag k="ssr:stedsnr" v="120349" />
	</node>
	<node id="-32630" lat="59.8472944409" lon="11.23852777">
		<tag k="name" v="Dammerud" />
		<tag k="place" v="farm" />
		<tag k="ssr:stedsnr" v="120347" />
	</node>
	<node id="-32629" lat="59.8532000032" lon="11.2085500014">
		<tag k="name" v="Jonsnabben" />
		<tag k="natural" v="cape" />
		<tag k="ssr:stedsnr" v="120343" />
	</node>
	<node id="-32628" lat="59.9210444415" lon="11.1675583403">
		<tag k="amenity" v="school" />
		<tag k="name" v="Østersund ungdomsskole" />
		<tag k="ssr:stedsnr" v="118656" />
	</node>
	<node id="-32627" lat="59.9147222257" lon="11.2569138808">
		<tag k="name" v="Butteltjenn" />
		<tag k="natural" v="water" />
		<tag k="ssr:stedsnr" v="118653" />
	</node>
	<node id="-32626" lat="59.9393444427" lon="11.1516222202">
		<tag k="name" v="Vitåsen" />
		<tag k="natural" v="hill" />
		<tag k="place" v="locality" />
		<tag k="ssr:stedsnr" v="118631" />
	</node>
	<node id="-32625" lat="59.8899722209" lon="11.2097944416">
		<tag k="name" v="Staurdalen" />
		<tag k="natural" v="valley" />
		<tag k="place" v="locality" />
		<tag k="ssr:stedsnr" v="118513" />
	</node>
	<node id="-32624" lat="59.888008334" lon="11.2176527732">
		<tag k="fixme" v="consider natural=peak for the most distinct mountains in the district" />
		<tag k="name" v="Ormåsen" />
		<tag k="natural" v="hill" />
		<tag k="place" v="locality" />
		<tag k="ssr:stedsnr" v="118509" />
	</node>
	<node id="-32623" lat="59.8790750003" lon="11.2648416745">
		<tag k="name" v="Rødbekkbekken" />
		<tag k="ssr:stedsnr" v="118507" />
		<tag k="waterway" v="stream" />
	</node>
	<node id="-32622" lat="59.8828416695" lon="11.2626333368">
		<tag k="fixme" v="consider natural=peak for the most distinct mountains in the district" />
		<tag k="name" v="Rødbekkåsen" />
		<tag k="natural" v="hill" />
		<tag k="place" v="locality" />
		<tag k="ssr:stedsnr" v="118503" />
	</node>
	<node id="-32621" lat="59.8896055528" lon="11.2341861154">
		<tag k="name" v="Sakrissen" />
		<tag k="place" v="locality" />
		<tag k="ssr:stedsnr" v="118498" />
	</node>
	<node id="-32620" lat="59.8950583325" lon="11.1460916643">
		<tag k="name" v="Sniksandråka" />
		<tag k="natural" v="strait" />
		<tag k="ssr:stedsnr" v="118483" />
	</node>
	<node id="-32619" lat="59.8945472215" lon="11.165261114">
		<tag k="name" v="Jørholmvika" />
		<tag k="natural" v="bay" />
		<tag k="ssr:stedsnr" v="118481" />
	</node>
	<node id="-32618" lat="59.8815416677" lon="11.2187416649">
		<tag k="name" v="Nord Kinn" />
		<tag k="place" v="farm" />
		<tag k="ssr:stedsnr" v="118477" />
	</node>
	<node id="-32617" lat="59.8872722244" lon="11.2069166618">
		<tag k="landuse" v="military" />
		<tag k="name" v="Høgåsbatteriet" />
		<tag k="old_name" v="Høgaasbatteriet" />
		<tag k="ssr:stedsnr" v="117871" />
	</node>
	<node id="-32616" lat="59.961352781" lon="11.1376777784">
		<tag k="highway" v="path" />
		<tag k="name" v="Midtskogvegen" />
		<tag k="ssr:stedsnr" v="116885" />
	</node>
	<node id="-32615" lat="59.9622361147" lon="11.11288889">
		<tag k="name" v="Barkebråten" />
		<tag k="place" v="farm" />
		<tag k="ssr:stedsnr" v="116878" />
	</node>
	<node id="-32614" lat="59.9641000027" lon="11.1081166708">
		<tag k="name" v="Barkebråtfløtten" />
		<tag k="place" v="locality" />
		<tag k="ssr:stedsnr" v="116876" />
	</node>
	<node id="-32613" lat="59.971700003" lon="11.0951250091">
		<tag k="name" v="Myrbosvingen" />
		<tag k="place" v="locality" />
		<tag k="ssr:stedsnr" v="116874" />
	</node>
	<node id="-32612" lat="59.9657027805" lon="11.1787527865">
		<tag k="name" v="Kvernholen" />
		<tag k="place" v="locality" />
		<tag k="ssr:stedsnr" v="116124" />
	</node>
	<node id="-32611" lat="59.975580559" lon="11.1923416741">
		<tag k="name" v="Setra" />
		<tag k="place" v="locality" />
		<tag k="ssr:stedsnr" v="116122" />
	</node>
	<node id="-32610" lat="59.9846638894" lon="11.1803583289">
		<tag k="name" v="Agntjennslia" />
		<tag k="natural" v="slope" />
		<tag k="place" v="locality" />
		<tag k="ssr:stedsnr" v="116120" />
	</node>
	<node id="-32609" lat="59.9571277799" lon="11.1724583368">
		<tag k="name" v="Skårer" />
		<tag k="place" v="farm" />
		<tag k="ssr:stedsnr" v="116993" />
	</node>
	<node id="-32608" lat="59.9377722257" lon="11.1341361092">
		<tag k="bridge" v="yes" />
		<tag k="layer" v="1" />
		<tag k="name" v="Bråten" />
		<tag k="ssr:stedsnr" v="107038" />
	</node>
	<node id="-32607" lat="59.8625472261" lon="11.2257805534">
		<tag k="bridge" v="yes" />
		<tag k="layer" v="1" />
		<tag k="name" v="Gan" />
		<tag k="ssr:stedsnr" v="107037" />
	</node>
	<node id="-32606" lat="59.8594138915" lon="11.235822225">
		<tag k="name" v="Bjerkenes" />
		<tag k="place" v="farm" />
		<tag k="ssr:stedsnr" v="102654" />
	</node>
	<node id="-32605" lat="59.8585694471" lon="11.2284972221">
		<tag k="alt_name" v="Gjestad søndre" />
		<tag k="name" v="Søndre Gjestad" />
		<tag k="place" v="farm" />
		<tag k="ssr:stedsnr" v="102406" />
	</node>
	<node id="-32604" lat="59.8609666675" lon="11.2190138853">
		<tag k="name" v="Gansbruket" />
		<tag k="ssr:stedsnr" v="102399" />
		<tag k="tourism" v="museum" />
	</node>
	<node id="-32603" lat="59.8693361075" lon="11.2250194361">
		<tag k="alt_name" v="By, søndre;By søndre" />
		<tag k="name" v="Søndre By" />
		<tag k="place" v="farm" />
		<tag k="ssr:stedsnr" v="102386" />
	</node>
	<node id="-32602" lat="59.9302305526" lon="11.1943944366">
		<tag k="name" v="Berget" />
		<tag k="place" v="quarter" />
		<tag k="ssr:stedsnr" v="101888" />
	</node>
	<node id="-32601" lat="59.9276638912" lon="11.176850003">
		<tag k="name" v="Hval" />
		<tag k="place" v="farm" />
		<tag k="ssr:stedsnr" v="101867" />
	</node>
	<node id="-32600" lat="59.9236499968" lon="11.1919916679">
		<tag k="junction" v="yes" />
		<tag k="name" v="Ramstad" />
		<tag k="place" v="locality" />
		<tag k="ssr:stedsnr" v="101860" />
	</node>
	<node id="-32599" lat="59.8182194458" lon="11.2464027814">
		<tag k="name" v="Rådsdalen" />
		<tag k="natural" v="valley" />
		<tag k="place" v="locality" />
		<tag k="ssr:stedsnr" v="100342" />
	</node>
	<node id="-32598" lat="59.8250805583" lon="11.2726111119">
		<tag k="fixme" v="consider natural=peak for the most distinct mountains in the district" />
		<tag k="name" v="Vindlandsåsen" />
		<tag k="natural" v="hill" />
		<tag k="place" v="locality" />
		<tag k="ssr:stedsnr" v="100337" />
	</node>
	<node id="-32597" lat="59.8364472239" lon="11.2854499942">
		<tag k="name" v="Nordre Halvheklemyr" />
		<tag k="natural" v="wetland" />
		<tag k="ssr:stedsnr" v="100316" />
	</node>
	<node id="-32596" lat="59.7670111069" lon="11.3109805637">
		<tag k="fixme" v="consider natural=peak for the most distinct mountains in the district" />
		<tag k="name" v="Steindalshøgdene" />
		<tag k="natural" v="hill" />
		<tag k="place" v="locality" />
		<tag k="ssr:stedsnr" v="100286" />
	</node>
	<node id="-32595" lat="59.760638887" lon="11.3253722209">
		<tag k="name" v="Håkonseter" />
		<tag k="place" v="locality" />
		<tag k="ssr:stedsnr" v="100285" />
	</node>
	<node id="-32594" lat="59.7623777772" lon="11.2897888836">
		<tag k="name" v="Løkka" />
		<tag k="place" v="farm" />
		<tag k="ssr:stedsnr" v="100283" />
	</node>
	<node id="-32593" lat="59.7585861125" lon="11.3448861145">
		<tag k="name" v="Korpefløget" />
		<tag k="place" v="locality" />
		<tag k="ssr:stedsnr" v="100281" />
	</node>
	<node id="-32592" lat="59.765188888" lon="11.3261694389">
		<tag k="name" v="Hansketjenndalen" />
		<tag k="natural" v="valley" />
		<tag k="place" v="locality" />
		<tag k="ssr:stedsnr" v="100279" />
	</node>
	<node id="-32591" lat="59.7826805584" lon="11.2840333283">
		<tag k="name" v="Tøysemyrene" />
		<tag k="natural" v="wetland" />
		<tag k="ssr:stedsnr" v="100269" />
	</node>
	<node id="-32590" lat="59.7702861112" lon="11.3152499969">
		<tag k="name" v="Søndre Minjarudkollen" />
		<tag k="natural" v="hill" />
		<tag k="place" v="locality" />
		<tag k="ssr:stedsnr" v="100267" />
	</node>
	<node id="-32589" lat="59.7780805538" lon="11.3270666693">
		<tag k="name" v="Breilivangen" />
		<tag k="place" v="locality" />
		<tag k="ssr:stedsnr" v="100251" />
	</node>
	<node id="-32588" lat="59.79335" lon="11.2481722142">
		<tag k="fixme" v="consider natural=peak for the most distinct mountains in the district" />
		<tag k="name" v="Rudsåsen" />
		<tag k="natural" v="hill" />
		<tag k="place" v="locality" />
		<tag k="ssr:stedsnr" v="100245" />
	</node>
	<node id="-32587" lat="59.7889611133" lon="11.2771916711">
		<tag k="name" v="Kvernhusåsen" />
		<tag k="natural" v="hill" />
		<tag k="place" v="locality" />
		<tag k="ssr:stedsnr" v="100240" />
	</node>
	<node id="-32586" lat="59.7954916676" lon="11.2756416683">
		<tag k="name" v="Breimåsan" />
		<tag k="natural" v="wetland" />
		<tag k="ssr:stedsnr" v="100235" />
	</node>
	<node id="-32585" lat="59.7981638885" lon="11.2603861038">
		<tag k="name" v="Bråtan" />
		<tag k="place" v="locality" />
		<tag k="ssr:stedsnr" v="100229" />
	</node>
	<node id="-32584" lat="59.8017416685" lon="11.2459722174">
		<tag k="name" v="Ersrudvika" />
		<tag k="natural" v="bay" />
		<tag k="ssr:stedsnr" v="100227" />
	</node>
	<node id="-32583" lat="59.7931861107" lon="11.2915444481">
		<tag k="name" v="Store Saueholmen" />
		<tag k="place" v="islet" />
		<tag k="ssr:stedsnr" v="100224" />
	</node>
	<node id="-32582" lat="59.7904777778" lon="11.2907888802">
		<tag k="name" v="Kjonestein" />
		<tag k="place" v="islet" />
		<tag k="ssr:stedsnr" v="100221" />
	</node>
	<node id="-32581" lat="59.8129388921" lon="11.2709111175">
		<tag k="name" v="Finnsbergtjenn" />
		<tag k="natural" v="water" />
		<tag k="ssr:stedsnr" v="100215" />
	</node>
	<node id="-32580" lat="59.9540333345" lon="11.1252777712">
		<tag k="alt_name" v="Berger, søndre" />
		<tag k="name" v="Søndre Berger" />
		<tag k="place" v="farm" />
		<tag k="ssr:stedsnr" v="66525" />
	</node>
	<node id="-32579" lat="59.7691250021" lon="11.3178222188">
		<tag k="alt_name" v="Gravtjern, søndre;Søndre Gravtjenn" />
		<tag k="name" v="Søndre Gravtjern" />
		<tag k="natural" v="water" />
		<tag k="ssr:stedsnr" v="65921" />
	</node>
	<node id="-32578" lat="59.78517222" lon="11.2847194485">
		<tag k="fixme" v="consider natural=peak for the most distinct mountains in the district" />
		<tag k="name" v="Bøleråsen" />
		<tag k="natural" v="hill" />
		<tag k="place" v="locality" />
		<tag k="ssr:stedsnr" v="65864" />
	</node>
	<node id="-32577" lat="59.7986999977" lon="11.2567499986">
		<tag k="name" v="Svarterud" />
		<tag k="place" v="hamlet" />
		<tag k="ssr:stedsnr" v="65839" />
	</node>
	<node id="-32576" lat="59.7959444439" lon="11.2534611096">
		<tag k="alt_name" v="Taje" />
		<tag k="name" v="Tajet" />
		<tag k="place" v="farm" />
		<tag k="ssr:stedsnr" v="65827" />
	</node>
	<node id="-32575" lat="59.7863944423" lon="11.2531555558">
		<tag k="alt_name" v="Ødeby, nordre" />
		<tag k="name" v="Nordre Ødeby" />
		<tag k="place" v="farm" />
		<tag k="ssr:stedsnr" v="65821" />
	</node>
	<node id="-32574" lat="59.7927111142" lon="11.2508194524">
		<tag k="name" v="Rud" />
		<tag k="place" v="farm" />
		<tag k="ssr:stedsnr" v="65817" />
	</node>
	<node id="-32573" lat="59.8296694453" lon="11.2626805513">
		<tag k="name" v="Vindland" />
		<tag k="place" v="farm" />
		<tag k="ssr:stedsnr" v="65774" />
	</node>
	<node id="-32572" lat="59.8436388862" lon="11.3030444505">
		<tag k="alt_name" v="Holmetjenn" />
		<tag k="name" v="Holmetjern" />
		<tag k="natural" v="water" />
		<tag k="ssr:stedsnr" v="65746" />
	</node>
	<node id="-32571" lat="59.8463083371" lon="11.2713972245">
		<tag k="alt_name" v="Veslemåsan" />
		<tag k="name" v="Veslemyra" />
		<tag k="natural" v="wetland" />
		<tag k="ssr:stedsnr" v="65740" />
	</node>
	<node id="-32570" lat="59.8503916693" lon="11.318705554">
		<tag k="name" v="Geitlimåsan" />
		<tag k="natural" v="wetland" />
		<tag k="ssr:stedsnr" v="65726" />
	</node>
	<node id="-32569" lat="59.8485611068" lon="11.2364694367">
		<tag k="name" v="Foss" />
		<tag k="place" v="isolated_dwelling" />
		<tag k="ssr:stedsnr" v="65722" />
	</node>
	<node id="-32568" lat="59.8696472256" lon="11.3030750016">
		<tag k="name" v="Vegmåsan" />
		<tag k="natural" v="wetland" />
		<tag k="ssr:stedsnr" v="65710" />
	</node>
	<node id="-32567" lat="59.8668361077" lon="11.2320888908">
		<tag k="name" v="Bråten" />
		<tag k="place" v="farm" />
		<tag k="ssr:stedsnr" v="65704" />
	</node>
	<node id="-32566" lat="59.9253694438" lon="11.1758916587">
		<tag k="name" v="Hval" />
		<tag k="place" v="farm" />
		<tag k="ssr:stedsnr" v="65566" />
	</node>
	<node id="-32565" lat="59.9453444475" lon="11.1729583263">
		<tag k="fixme" v="consider natural=peak for the most distinct mountains in the district" />
		<tag k="name" v="Falleråsen" />
		<tag k="natural" v="hill" />
		<tag k="place" v="locality" />
		<tag k="ssr:stedsnr" v="65544" />
	</node>
	<node id="-32564" lat="59.9424111127" lon="11.163186114">
		<tag k="name" v="Falldalen" />
		<tag k="natural" v="valley" />
		<tag k="place" v="locality" />
		<tag k="ssr:stedsnr" v="65542" />
	</node>
	<node id="-32563" lat="59.967874996" lon="11.159097226">
		<tag k="alt_name" v="Rakkermåsan" />
		<tag k="name" v="Rakkemåsan" />
		<tag k="natural" v="wetland" />
		<tag k="ssr:stedsnr" v="65517" />
	</node>
	<node id="-32562" lat="59.9636527754" lon="11.1351777754">
		<tag k="alt_name" v="Ødegården" />
		<tag k="name" v="Øgarden" />
		<tag k="place" v="farm" />
		<tag k="ssr:stedsnr" v="65494" />
	</node>
	<node id="-32561" lat="59.9316470603" lon="11.1543092421">
		<tag k="fixme" v="consider place=hamlet" />
		<tag k="name" v="Gardertoppen" />
		<tag k="place" v="village" />
		<tag k="ssr:stedsnr" v="60429" />
	</node>
	<node id="-32560" lat="59.9408472205" lon="11.119763895">
		<tag k="name" v="Einerhaugen" />
		<tag k="place" v="isolated_dwelling" />
		<tag k="ssr:stedsnr" v="59857" />
	</node>
	<node id="-32559" lat="59.9243888927" lon="11.2383861123">
		<tag k="name" v="Setermyra" />
		<tag k="natural" v="wetland" />
		<tag k="ssr:stedsnr" v="59832" />
	</node>
	<node id="-32558" lat="59.8525083342" lon="11.2714805626">
		<tag k="name" v="Karimåsalia" />
		<tag k="natural" v="slope" />
		<tag k="place" v="locality" />
		<tag k="ssr:stedsnr" v="59351" />
	</node>
	<node id="-32557" lat="59.8600444481" lon="11.320841662">
		<tag k="name" v="Kattfossen" />
		<tag k="natural" v="waterfall" />
		<tag k="ssr:stedsnr" v="57576" />
	</node>
	<node id="-32556" lat="59.8614249976" lon="11.3336916667">
		<tag k="name" v="Midtskogdammen" />
		<tag k="natural" v="water" />
		<tag k="ssr:stedsnr" v="57575" />
	</node>
	<node id="-32555" lat="59.8627222205" lon="11.3482333348">
		<tag k="name" v="Småtjerndalen" />
		<tag k="natural" v="valley" />
		<tag k="place" v="locality" />
		<tag k="ssr:stedsnr" v="57571" />
	</node>
	<node id="-32554" lat="59.869538892" lon="11.3361194485">
		<tag k="name" v="Støttebergdammen" />
		<tag k="ssr:stedsnr" v="57563" />
		<tag k="waterway" v="dam" />
	</node>
	<node id="-32553" lat="59.9122472239" lon="11.2566722205">
		<tag k="fixme" v="consider natural=peak for the most distinct mountains in the district" />
		<tag k="name" v="Tretysjøåsen" />
		<tag k="natural" v="hill" />
		<tag k="place" v="locality" />
		<tag k="ssr:stedsnr" v="57647" />
	</node>
	<node id="-32552" lat="59.9254250013" lon="11.1721222279">
		<tag k="name" v="Tangen" />
		<tag k="place" v="hamlet" />
		<tag k="ssr:stedsnr" v="57644" />
	</node>
	<node id="-32551" lat="59.9250277801" lon="11.1403694518">
		<tag k="amenity" v="nursing_home" />
		<tag k="name" v="Fet aldershjem" />
		<tag k="ssr:stedsnr" v="57642" />
	</node>
	<node id="-32550" lat="59.9367972257" lon="11.1574000011">
		<tag k="name" v="Garderhavna" />
		<tag k="place" v="quarter" />
		<tag k="ssr:stedsnr" v="57631" />
	</node>
	<node id="-32549" lat="59.9339444471" lon="11.1461888975">
		<tag k="name" v="Nordre Støvin" />
		<tag k="place" v="farm" />
		<tag k="ssr:stedsnr" v="57626" />
	</node>
	<node id="-32548" lat="59.9038000032" lon="11.2494472264">
		<tag k="name" v="Villmåsan" />
		<tag k="natural" v="wetland" />
		<tag k="ssr:stedsnr" v="57611" />
	</node>
	<node id="-32547" lat="59.8956611138" lon="11.2182527835">
		<tag k="name" v="Askedalsmyra" />
		<tag k="natural" v="wetland" />
		<tag k="ssr:stedsnr" v="57524" />
	</node>
	<node id="-32546" lat="59.8937222216" lon="11.1789000032">
		<tag k="fixme" v="consider boundary=protected_area and relevant protect_class if not nature reserve" />
		<tag k="leisure" v="nature_reserve" />
		<tag k="name" v="Råsok naturreservat" />
		<tag k="ssr:stedsnr" v="57521" />
	</node>
	<node id="-32545" lat="59.8842972266" lon="11.271541662">
		<tag k="fixme" v="consider boundary=protected_area and relevant protect_class if not nature reserve" />
		<tag k="leisure" v="nature_reserve" />
		<tag k="name" v="Breimosen" />
		<tag k="ssr:stedsnr" v="57507" />
	</node>
	<node id="-32544" lat="59.8808777739" lon="11.2345138926">
		<tag k="name" v="Nygård" />
		<tag k="place" v="farm" />
		<tag k="ssr:stedsnr" v="57506" />
	</node>
	<node id="-32543" lat="59.8936194482" lon="11.2768277836">
		<tag k="name" v="Vegamåsan" />
		<tag k="natural" v="wetland" />
		<tag k="ssr:stedsnr" v="57499" />
	</node>
	<node id="-32542" lat="59.9717277751" lon="11.1733805525">
		<tag k="name" v="Søndre Ravnåsen" />
		<tag k="natural" v="hill" />
		<tag k="place" v="locality" />
		<tag k="ssr:stedsnr" v="55893" />
	</node>
	<node id="-32541" lat="59.9730555515" lon="11.1702222267">
		<tag k="name" v="Vesledammen" />
		<tag k="natural" v="wetland" />
		<tag k="ssr:stedsnr" v="55892" />
	</node>
	<node id="-32540" lat="59.9491805517" lon="11.1521166742">
		<tag k="name" v="Veståsen" />
		<tag k="place" v="locality" />
		<tag k="ssr:stedsnr" v="55844" />
	</node>
	<node id="-32539" lat="59.9548472239" lon="11.1426861147">
		<tag k="name" v="Berger skog" />
		<tag k="place" v="locality" />
		<tag k="ssr:stedsnr" v="55738" />
	</node>
	<node id="-32538" lat="59.9584666665" lon="11.1953138847">
		<tag k="name" v="Hareholmen" />
		<tag k="natural" v="cape" />
		<tag k="ssr:stedsnr" v="55874" />
	</node>
	<node id="-32537" lat="59.9547972258" lon="11.2117083384">
		<tag k="name" v="Korpefjella" />
		<tag k="natural" v="hill" />
		<tag k="place" v="locality" />
		<tag k="ssr:stedsnr" v="55866" />
	</node>
	<node id="-32535" lat="59.9243916622" lon="11.1586166663">
		<tag k="bridge" v="yes" />
		<tag k="layer" v="1" />
		<tag k="name" v="Fetsund" />
		<tag k="ssr:stedsnr" v="46035" />
	</node>
	<node id="-32534" lat="59.7621694436" lon="11.2467138842">
		<tag k="name" v="Hunesnebben" />
		<tag k="place" v="islet" />
		<tag k="ssr:stedsnr" v="46031" />
	</node>
	<node id="-32533" lat="59.9428194449" lon="11.1284416663">
		<tag k="bridge" v="yes" />
		<tag k="layer" v="1" />
		<tag k="name" v="Merkja" />
		<tag k="ssr:stedsnr" v="46029" />
	</node>
	<node id="-32532" lat="59.9076916642" lon="11.1514500016">
		<tag k="name" v="Jaerstranda" />
		<tag k="place" v="locality" />
		<tag k="ssr:stedsnr" v="42652" />
	</node>
	<node id="-32531" lat="59.926222221" lon="11.1886194418">
		<tag k="name" v="Nordre Ramstad" />
		<tag k="place" v="farm" />
		<tag k="ssr:stedsnr" v="40868" />
	</node>
	<node id="-32530" lat="59.9289000013" lon="11.1945222182">
		<tag k="name" v="Øvre Ramstad" />
		<tag k="place" v="farm" />
		<tag k="ssr:stedsnr" v="40851" />
	</node>
	<node id="-32529" lat="59.9268555565" lon="11.2177944458">
		<tag k="name" v="Ramstadvika" />
		<tag k="natural" v="bay" />
		<tag k="ssr:stedsnr" v="40850" />
	</node>
	<node id="-32528" lat="59.7549555514" lon="11.3352499938">
		<tag k="name" v="Østre Midtfjellmyra" />
		<tag k="natural" v="wetland" />
		<tag k="ssr:stedsnr" v="39256" />
	</node>
	<node id="-32527" lat="59.7672833291" lon="11.241733331">
		<tag k="name" v="Sulusand" />
		<tag k="place" v="islet" />
		<tag k="ssr:stedsnr" v="39255" />
	</node>
	<node id="-32526" lat="59.775408329" lon="11.2993027798">
		<tag k="name" v="Karustjenn" />
		<tag k="natural" v="water" />
		<tag k="ssr:stedsnr" v="39231" />
	</node>
	<node id="-32525" lat="59.7834527812" lon="11.3097638818">
		<tag k="name" v="Nordre Dritermåsan" />
		<tag k="natural" v="wetland" />
		<tag k="ssr:stedsnr" v="39220" />
	</node>
	<node id="-32524" lat="59.7955972228" lon="11.2830277727">
		<tag k="name" v="Ulsrudhellholmen" />
		<tag k="place" v="islet" />
		<tag k="ssr:stedsnr" v="39212" />
	</node>
	<node id="-32523" lat="59.7963944439" lon="11.2419944457">
		<tag k="name" v="Skjærabergene" />
		<tag k="natural" v="cape" />
		<tag k="ssr:stedsnr" v="39207" />
	</node>
	<node id="-32522" lat="59.8099805554" lon="11.2768250039">
		<tag k="name" v="Ulsrudbrenninga" />
		<tag k="place" v="locality" />
		<tag k="ssr:stedsnr" v="39202" />
	</node>
	<node id="-32521" lat="59.9095472178" lon="11.1904555638">
		<tag k="name" v="Løken varde" />
		<tag k="place" v="locality" />
		<tag k="ssr:stedsnr" v="21011" />
	</node>
	<node id="-32520" lat="59.8442333374" lon="11.2978194438">
		<tag k="alt_name" v="Merradalen" />
		<tag k="name" v="Mærradalen" />
		<tag k="natural" v="valley" />
		<tag k="place" v="locality" />
		<tag k="ssr:stedsnr" v="5729" />
	</node>
	<node id="-32519" lat="59.8475138857" lon="11.2410583401">
		<tag k="name" v="Enger" />
		<tag k="place" v="farm" />
		<tag k="ssr:stedsnr" v="5724" />
	</node>
	<node id="-32518" lat="59.8422027747" lon="11.2642805517">
		<tag k="name" v="Rossdalen" />
		<tag k="natural" v="valley" />
		<tag k="place" v="locality" />
		<tag k="ssr:stedsnr" v="5722" />
	</node>
	<node id="-32517" lat="59.8746483148" lon="11.2245368346">
		<tag k="fixme" v="consider place=hamlet" />
		<tag k="name" v="Sofsrud" />
		<tag k="place" v="farm" />
		<tag k="ssr:stedsnr" v="5658" />
	</node>
	<node id="-32516" lat="59.7781888921" lon="11.3015250082">
		<tag k="alt_name" v="Igletjenn" />
		<tag k="name" v="Igletjern" />
		<tag k="natural" v="water" />
		<tag k="ssr:stedsnr" v="4869" />
	</node>
	<node id="-32515" lat="59.8220472207" lon="11.2575222289">
		<tag k="name" v="Opptjern" />
		<tag k="natural" v="water" />
		<tag k="ssr:stedsnr" v="4835" />
	</node>
	<node id="-32514" lat="59.8077111105" lon="11.2492805513">
		<tag k="name" v="Kreppa" />
		<tag k="place" v="farm" />
		<tag k="ssr:stedsnr" v="4813" />
	</node>
	<node id="-32513" lat="59.8266055521" lon="11.2752999992">
		<tag k="alt_name" v="Lomtjenn" />
		<tag k="name" v="Lomtjern" />
		<tag k="natural" v="water" />
		<tag k="ssr:stedsnr" v="4782" />
	</node>
	<node id="-32512" lat="59.8247805587" lon="11.2878444407">
		<tag k="alt_name" v="Mjøsjøen, s;Mjøsjøen" />
		<tag k="name" v="Søndre Mjøsjøen" />
		<tag k="natural" v="water" />
		<tag k="ssr:stedsnr" v="4780" />
		<tag k="water" v="lake" />
	</node>
	<node id="-32511" lat="59.8534555542" lon="11.2406138829">
		<tag k="fixme" v="consider place=hamlet" />
		<tag k="name" v="Torud" />
		<tag k="place" v="farm" />
		<tag k="ssr:stedsnr" v="4736" />
	</node>
	<node id="-32510" lat="59.8644861142" lon="11.2580805492">
		<tag k="name" v="Høybråten" />
		<tag k="place" v="farm" />
		<tag k="ssr:stedsnr" v="4717" />
	</node>
	<node id="-32509" lat="59.8616222188" lon="11.2584555512">
		<tag k="name" v="Vestby" />
		<tag k="place" v="farm" />
		<tag k="ssr:stedsnr" v="4709" />
	</node>
	<node id="-32508" lat="59.8807750011" lon="11.2092361089">
		<tag k="name" v="Nitteberg" />
		<tag k="place" v="farm" />
		<tag k="ssr:stedsnr" v="4679" />
	</node>
	<node id="-32507" lat="59.8786026451" lon="11.2208109476">
		<tag k="fixme" v="consider place=hamlet" />
		<tag k="name" v="Kinn" />
		<tag k="place" v="farm" />
		<tag k="ssr:stedsnr" v="4678" />
	</node>
	<node id="-32506" lat="59.8914805571" lon="11.2227472141">
		<tag k="name" v="Kinnsmåsan" />
		<tag k="natural" v="wetland" />
		<tag k="ssr:stedsnr" v="4658" />
	</node>
	<node id="-32505" lat="59.9341388865" lon="11.1334916662">
		<tag k="name" v="Foss" />
		<tag k="place" v="isolated_dwelling" />
		<tag k="ssr:stedsnr" v="4573" />
	</node>
	<node id="-32504" lat="59.9418166711" lon="11.1178916631">
		<tag k="name" v="Åkrane" />
		<tag k="place" v="hamlet" />
		<tag k="ssr:stedsnr" v="4568" />
	</node>
	<node id="-32503" lat="59.9691583317" lon="11.1777972263">
		<tag k="name" v="Stordalen" />
		<tag k="natural" v="valley" />
		<tag k="place" v="locality" />
		<tag k="ssr:stedsnr" v="4506" />
	</node>
	<node id="-32485" lat="59.9222752005" lon="11.2240628051">
		<tag k="leisure" v="pitch" />
		<tag k="name" v="Fet skistadion" />
		<tag k="ssr:stedsnr" v="981680" />
	</node>
	<node id="-32484" lat="59.9214989847" lon="11.2143394254">
		<tag k="name" v="Heia" />
		<tag k="place" v="quarter" />
		<tag k="ssr:stedsnr" v="981678" />
	</node>
	<node id="-32483" lat="59.9267424211" lon="11.1992052579">
		<tag k="name" v="Ramstadskogen" />
		<tag k="place" v="quarter" />
		<tag k="ssr:stedsnr" v="981677" />
	</node>
	<node id="-32482" lat="59.9315479228" lon="11.1872675415">
		<tag k="name" v="Sagdalen" />
		<tag k="place" v="quarter" />
		<tag k="ssr:stedsnr" v="981676" />
	</node>
	<node id="-32481" lat="59.934281154" lon="11.1902539712">
		<tag k="name" v="Ekebergåsen" />
		<tag k="place" v="quarter" />
		<tag k="ssr:stedsnr" v="981675" />
	</node>
	<node id="-32476" lat="59.9229722183" lon="11.1690972231">
		<tag k="bridge" v="yes" />
		<tag k="layer" v="1" />
		<tag k="name" v="Fetsund øst" />
		<tag k="ssr:stedsnr" v="896027" />
	</node>
	<node id="-32475" lat="59.9315055566" lon="11.1852888841">
		<tag k="bridge" v="yes" />
		<tag k="layer" v="1" />
		<tag k="name" v="Varå" />
		<tag k="ssr:stedsnr" v="896025" />
	</node>
	<node id="-32474" lat="59.9098055593" lon="11.1518555548">
		<tag k="name" v="Hovsevja" />
		<tag k="natural" v="bay" />
		<tag k="ssr:stedsnr" v="892680" />
	</node>
	<node id="-32473" lat="59.9060972195" lon="11.1681583268">
		<tag k="name" v="Monsrud" />
		<tag k="place" v="locality" />
		<tag k="ssr:stedsnr" v="892679" />
	</node>
	<node id="-32472" lat="59.9064305541" lon="11.1752444494">
		<tag k="name" v="Sørby" />
		<tag k="place" v="farm" />
		<tag k="ssr:stedsnr" v="892676" />
	</node>
	<node id="-32471" lat="59.8595583346" lon="11.2130249977">
		<tag k="name" v="Galgetangen" />
		<tag k="natural" v="cape" />
		<tag k="ssr:stedsnr" v="891380" />
	</node>
	<node id="-32470" lat="59.9293166704" lon="11.2044999919">
		<tag k="alt_name" v="Tingsrud mellem" />
		<tag k="name" v="Mellom-Tingsrud" />
		<tag k="place" v="farm" />
		<tag k="ssr:stedsnr" v="890879" />
	</node>
	<node id="-32469" lat="59.9270361092" lon="11.1839833386">
		<tag k="name" v="Stubberud" />
		<tag k="place" v="farm" />
		<tag k="ssr:stedsnr" v="890858" />
	</node>
	<node id="-32468" lat="59.9263722218" lon="11.203338885">
		<tag k="name" v="Åserud" />
		<tag k="place" v="farm" />
		<tag k="ssr:stedsnr" v="890850" />
	</node>
	<node id="-32467" lat="59.8536138849" lon="11.3264666583">
		<tag k="name" v="Timbermåsan" />
		<tag k="natural" v="wetland" />
		<tag k="ssr:stedsnr" v="890638" />
	</node>
	<node id="-32466" lat="59.823522223" lon="11.2541111133">
		<tag k="name" v="Vesle Opptjenn" />
		<tag k="natural" v="water" />
		<tag k="ssr:stedsnr" v="889363" />
	</node>
	<node id="-32465" lat="59.8392111139" lon="11.2263472204">
		<tag k="alt_name" v="Barkenes nordre" />
		<tag k="name" v="Nordre Barkenes" />
		<tag k="place" v="farm" />
		<tag k="ssr:stedsnr" v="889339" />
	</node>
	<node id="-32464" lat="59.7639361076" lon="11.3345249978">
		<tag k="name" v="Søndre Høgmåsan" />
		<tag k="natural" v="wetland" />
		<tag k="ssr:stedsnr" v="889306" />
	</node>
	<node id="-32463" lat="59.7708000026" lon="11.3126138836">
		<tag k="name" v="Lauvhersja" />
		<tag k="place" v="locality" />
		<tag k="ssr:stedsnr" v="889284" />
	</node>
	<node id="-32462" lat="59.8037833374" lon="11.245825004">
		<tag k="name" v="Smekka" />
		<tag k="natural" v="bay" />
		<tag k="ssr:stedsnr" v="889264" />
	</node>
	<node id="-32461" lat="59.7885000022" lon="11.2918472229">
		<tag k="name" v="Drypilen" />
		<tag k="natural" v="wetland" />
		<tag k="ssr:stedsnr" v="889262" />
	</node>
	<node id="-32460" lat="59.8078388882" lon="11.2707055614">
		<tag k="name" v="Bjønnemyra" />
		<tag k="natural" v="wetland" />
		<tag k="ssr:stedsnr" v="889260" />
	</node>
	<node id="-32459" lat="59.7964694444" lon="11.2923027716">
		<tag k="historic" v="shieling" />
		<tag k="name" v="Bølersetra" />
		<tag k="place" v="locality" />
		<tag k="ssr:stedsnr" v="889256" />
	</node>
	<node id="-32458" lat="59.9687972259" lon="11.2027694423">
		<tag k="name" v="Strandevja" />
		<tag k="natural" v="bay" />
		<tag k="ssr:stedsnr" v="479127" />
	</node>
	<node id="-32457" lat="59.9753472223" lon="11.1815555614">
		<tag k="name" v="Nybrudalen" />
		<tag k="natural" v="valley" />
		<tag k="place" v="locality" />
		<tag k="ssr:stedsnr" v="479124" />
	</node>
	<node id="-32456" lat="59.9706861112" lon="11.188058336">
		<tag k="historic" v="shieling" />
		<tag k="name" v="Seterheim" />
		<tag k="place" v="locality" />
		<tag k="ssr:stedsnr" v="479122" />
	</node>
	<node id="-32455" lat="59.915777776" lon="11.2041388976">
		<tag k="name" v="Bjørndalen" />
		<tag k="natural" v="valley" />
		<tag k="place" v="locality" />
		<tag k="ssr:stedsnr" v="406744" />
	</node>
	<node id="-32454" lat="59.9160138896" lon="11.1240638864">
		<tag k="alt_name" v="Vestvolden" />
		<tag k="name" v="Vestvollen" />
		<tag k="natural" v="beach" />
		<tag k="ssr:stedsnr" v="406727" />
	</node>
	<node id="-32453" lat="59.909825003" lon="11.1720499966">
		<tag k="name" v="Jaerhaugen" />
		<tag k="place" v="locality" />
		<tag k="ssr:stedsnr" v="406685" />
	</node>
	<node id="-32452" lat="59.8594694475" lon="11.2740805494">
		<tag k="name" v="Høgåsen" />
		<tag k="natural" v="hill" />
		<tag k="place" v="locality" />
		<tag k="ssr:stedsnr" v="405625" />
	</node>
	<node id="-32451" lat="59.8540722247" lon="11.2729111104">
		<tag k="name" v="Holtedalsåsen" />
		<tag k="natural" v="hill" />
		<tag k="place" v="locality" />
		<tag k="ssr:stedsnr" v="405340" />
	</node>
	<node id="-32450" lat="59.9248916688" lon="11.1891583313">
		<tag k="name" v="Søndre Ramstad" />
		<tag k="place" v="farm" />
		<tag k="ssr:stedsnr" v="404837" />
	</node>
	<node id="-32449" lat="59.9269555537" lon="11.2075472289">
		<tag k="name" v="Nørup" />
		<tag k="place" v="farm" />
		<tag k="ssr:stedsnr" v="404823" />
	</node>
	<node id="-32448" lat="59.8666583349" lon="11.2383111051">
		<tag k="name" v="Tølleren" />
		<tag k="natural" v="hill" />
		<tag k="place" v="locality" />
		<tag k="ssr:stedsnr" v="404615" />
	</node>
	<node id="-32447" lat="59.8737972216" lon="11.2766500017">
		<tag k="name" v="Skjatvetåsen" />
		<tag k="natural" v="hill" />
		<tag k="place" v="locality" />
		<tag k="ssr:stedsnr" v="404600" />
	</node>
	<node id="-32446" lat="59.8246166711" lon="11.275522227">
		<tag k="name" v="Lille Fuglemyr" />
		<tag k="natural" v="wetland" />
		<tag k="ssr:stedsnr" v="403332" />
	</node>
	<node id="-32445" lat="59.8047638909" lon="11.2441777814">
		<tag k="name" v="Kreppanebben" />
		<tag k="natural" v="cape" />
		<tag k="ssr:stedsnr" v="403241" />
	</node>
	<node id="-32444" lat="59.794816666" lon="11.2954527779">
		<tag k="name" v="Taskemåsan" />
		<tag k="natural" v="wetland" />
		<tag k="ssr:stedsnr" v="403236" />
	</node>
	<node id="-32443" lat="59.8015944448" lon="11.2925833381">
		<tag k="name" v="Rølliksdalen" />
		<tag k="natural" v="valley" />
		<tag k="place" v="locality" />
		<tag k="ssr:stedsnr" v="403233" />
	</node>
	<node id="-32442" lat="59.9429333333" lon="11.1027972157">
		<tag k="alt_name" v="Tuen" />
		<tag k="name" v="Tuen holdeplass" />
		<tag k="railway" v="halt" />
		<tag k="ssr:stedsnr" v="389982" />
		<tag k="train" v="yes" />
	</node>
	<node id="-32441" lat="59.8335742601" lon="11.2440557318">
		<tag k="fixme" v="consider place=hamlet" />
		<tag k="name" v="Bjørkeflåtten" />
		<tag k="place" v="farm" />
		<tag k="ssr:stedsnr" v="369723" />
	</node>
	<node id="-32440" lat="59.9082305588" lon="11.1747138933">
		<tag k="name" v="Nordby" />
		<tag k="place" v="farm" />
		<tag k="ssr:stedsnr" v="369577" />
	</node>
	<node id="-32439" lat="59.905066667" lon="11.1547472236">
		<tag k="name" v="Feta" />
		<tag k="natural" v="bay" />
		<tag k="ssr:stedsnr" v="369562" />
	</node>
	<node id="-32438" lat="59.9723972244" lon="11.1893361039">
		<tag k="fixme" v="consider natural=peak for the most distinct mountains in the district" />
		<tag k="name" v="Seteråsen" />
		<tag k="natural" v="hill" />
		<tag k="place" v="locality" />
		<tag k="ssr:stedsnr" v="369470" />
	</node>
	<node id="-32437" lat="59.7745416626" lon="11.2442111195">
		<tag k="name" v="Melnesvika" />
		<tag k="natural" v="bay" />
		<tag k="ssr:stedsnr" v="368899" />
	</node>
	<node id="-32436" lat="59.7848388899" lon="11.3096111138">
		<tag k="fixme" v="consider natural=peak for the most distinct mountains in the district" />
		<tag k="name" v="Kolåshøgda" />
		<tag k="natural" v="hill" />
		<tag k="place" v="locality" />
		<tag k="ssr:stedsnr" v="368874" />
	</node>
	<node id="-32435" lat="59.8476666693" lon="11.2911111058">
		<tag k="fixme" v="consider natural=peak for the most distinct mountains in the district" />
		<tag k="name" v="Kaståsen" />
		<tag k="natural" v="hill" />
		<tag k="place" v="locality" />
		<tag k="ssr:stedsnr" v="368769" />
	</node>
	<node id="-32434" lat="59.8546222178" lon="11.2653555537">
		<tag k="name" v="Holtedal" />
		<tag k="place" v="farm" />
		<tag k="ssr:stedsnr" v="368754" />
	</node>
	<node id="-32433" lat="59.8658694481" lon="11.3534722289">
		<tag k="fixme" v="consider natural=peak for the most distinct mountains in the district" />
		<tag k="name" v="Engahøgda" />
		<tag k="natural" v="hill" />
		<tag k="place" v="locality" />
		<tag k="ssr:stedsnr" v="368744" />
	</node>
	<node id="-32432" lat="59.8567527782" lon="11.2842055489">
		<tag k="name" v="Kleivdalen" />
		<tag k="natural" v="valley" />
		<tag k="place" v="locality" />
		<tag k="ssr:stedsnr" v="368739" />
	</node>
	<node id="-32431" lat="59.8660611091" lon="11.2552027783">
		<tag k="name" v="Enga" />
		<tag k="place" v="farm" />
		<tag k="ssr:stedsnr" v="368738" />
	</node>
	<node id="-32430" lat="59.8950527817" lon="11.1601805583">
		<tag k="name" v="Jørholmen" />
		<tag k="place" v="islet" />
		<tag k="ssr:stedsnr" v="368676" />
	</node>
	<node id="-32429" lat="59.9039611092" lon="11.139405549">
		<tag k="alt_name" v="Jushaugsand" />
		<tag k="name" v="Gjushaugsand" />
		<tag k="place" v="islet" />
		<tag k="ssr:stedsnr" v="368673" />
	</node>
	<node id="-32428" lat="59.929160532" lon="11.207803111">
		<tag k="fixme" v="consider place=hamlet" />
		<tag k="name" v="Tingsrud" />
		<tag k="place" v="farm" />
		<tag k="ssr:stedsnr" v="368616" />
	</node>
	<node id="-32427" lat="59.9248346405" lon="11.1898515546">
		<tag k="fixme" v="consider place=hamlet" />
		<tag k="name" v="Ramstad" />
		<tag k="place" v="farm" />
		<tag k="ssr:stedsnr" v="368614" />
	</node>
	<node id="-32426" lat="59.9314333375" lon="11.1557805582">
		<tag k="name" v="Garder" />
		<tag k="place" v="farm" />
		<tag k="ssr:stedsnr" v="368612" />
	</node>
	<node id="-32425" lat="59.9472736851" lon="11.1239115732">
		<tag k="fixme" v="consider place=hamlet" />
		<tag k="name" v="Skjelver" />
		<tag k="place" v="farm" />
		<tag k="ssr:stedsnr" v="368591" />
	</node>
	<node id="-32424" lat="59.94681667" lon="11.1454611138">
		<tag k="alt_name" v="Tientjennet" />
		<tag k="name" v="Tientjernet" />
		<tag k="natural" v="water" />
		<tag k="ssr:stedsnr" v="368586" />
	</node>
	<node id="-32423" lat="59.9708749994" lon="11.1101777754">
		<tag k="alt_name" v="Løkka" />
		<tag k="name" v="Lykkja" />
		<tag k="place" v="isolated_dwelling" />
		<tag k="ssr:stedsnr" v="368540" />
	</node>
	<node id="-32422" lat="59.9420861128" lon="11.1320166656">
		<tag k="building" v="commercial" />
		<tag k="name" v="Bråten" />
		<tag k="ssr:stedsnr" v="362869" />
	</node>
	<node id="-32420" lat="59.8425583291" lon="11.2697500084">
		<tag k="name" v="Rompemyrlia" />
		<tag k="natural" v="slope" />
		<tag k="place" v="locality" />
		<tag k="ssr:stedsnr" v="362369" />
	</node>
	<node id="-32419" lat="59.8519583363" lon="11.264783331">
		<tag k="name" v="Østhagen" />
		<tag k="place" v="locality" />
		<tag k="ssr:stedsnr" v="362366" />
	</node>
	<node id="-32418" lat="59.8526722185" lon="11.2339777817">
		<tag k="name" v="Harerud" />
		<tag k="place" v="farm" />
		<tag k="ssr:stedsnr" v="362361" />
	</node>
	<node id="-32417" lat="59.8443138882" lon="11.3086611135">
		<tag k="name" v="Furutoppmyra" />
		<tag k="natural" v="wetland" />
		<tag k="ssr:stedsnr" v="362354" />
	</node>
	<node id="-32416" lat="59.9330249956" lon="11.1458055517">
		<tag k="name" v="Søndre Støvin" />
		<tag k="place" v="farm" />
		<tag k="ssr:stedsnr" v="360635" />
	</node>
	<node id="-32415" lat="59.9051972217" lon="11.235486118">
		<tag k="name" v="Tjennsbonn" />
		<tag k="place" v="locality" />
		<tag k="ssr:stedsnr" v="360619" />
	</node>
	<node id="-32414" lat="59.8631388903" lon="11.3261861171">
		<tag k="name" v="Sotbråten" />
		<tag k="old_name" v="Braathen" />
		<tag k="place" v="locality" />
		<tag k="ssr:stedsnr" v="360591" />
	</node>
	<node id="-32413" lat="59.8595083296" lon="11.3252527716">
		<tag k="fixme" v="consider natural=peak for the most distinct mountains in the district" />
		<tag k="name" v="Tjoneåsen" />
		<tag k="natural" v="hill" />
		<tag k="place" v="locality" />
		<tag k="ssr:stedsnr" v="360586" />
	</node>
	<node id="-32412" lat="59.8822833334" lon="11.2846833281">
		<tag k="name" v="Kråkehalsen" />
		<tag k="natural" v="valley" />
		<tag k="place" v="locality" />
		<tag k="ssr:stedsnr" v="360516" />
	</node>
	<node id="-32411" lat="59.8897527807" lon="11.166216675">
		<tag k="name" v="Rosholmråka" />
		<tag k="natural" v="strait" />
		<tag k="ssr:stedsnr" v="360491" />
	</node>
	<node id="-32410" lat="59.9557499995" lon="11.1556750053">
		<tag k="name" v="Kjellerholen" />
		<tag k="place" v="locality" />
		<tag k="ssr:stedsnr" v="358998" />
	</node>
	<node id="-32409" lat="59.9658361103" lon="11.1651999987">
		<tag k="fixme" v="consider highway=path" />
		<tag k="highway" v="track" />
		<tag k="name" v="Jasemyrvegen" />
		<tag k="ssr:stedsnr" v="358883" />
	</node>
	<node id="-32408" lat="59.9399999958" lon="11.2499833297">
		<tag k="name" v="Korsvika" />
		<tag k="natural" v="bay" />
		<tag k="ssr:stedsnr" v="358869" />
	</node>
	<node id="-32407" lat="59.9658499997" lon="11.2109416753">
		<tag k="name" v="Tyskerud" />
		<tag k="place" v="farm" />
		<tag k="ssr:stedsnr" v="358136" />
	</node>
	<node id="-32406" lat="59.9193416661" lon="11.1833916621">
		<tag k="bridge" v="yes" />
		<tag k="layer" v="1" />
		<tag k="name" v="Kringen" />
		<tag k="ssr:stedsnr" v="349047" />
	</node>
	<node id="-32405" lat="59.91538344" lon="11.1774756184">
		<tag k="fixme" v="consider place=hamlet" />
		<tag k="name" v="Søndre Løken" />
		<tag k="place" v="farm" />
		<tag k="ssr:stedsnr" v="345724" />
	</node>
	<node id="-32404" lat="59.9159999998" lon="11.1354750059">
		<tag k="name" v="Banken" />
		<tag k="place" v="hamlet" />
		<tag k="ssr:stedsnr" v="345717" />
	</node>
	<node id="-32403" lat="59.9164111071" lon="11.1526944407">
		<tag k="name" v="Prestestranda" />
		<tag k="natural" v="beach" />
		<tag k="ssr:stedsnr" v="345681" />
	</node>
	<node id="-32402" lat="59.9027444423" lon="11.1727305474">
		<tag k="name" v="Råsokstranda" />
		<tag k="natural" v="beach" />
		<tag k="ssr:stedsnr" v="345675" />
	</node>
	<node id="-32401" lat="59.8744444409" lon="11.2054388884">
		<tag k="name" v="Kroken" />
		<tag k="place" v="isolated_dwelling" />
		<tag k="ssr:stedsnr" v="345304" />
	</node>
	<node id="-32400" lat="59.8617722202" lon="11.2334972236">
		<tag k="name" v="Autenenga" />
		<tag k="place" v="farm" />
		<tag k="ssr:stedsnr" v="343663" />
	</node>
	<node id="-32399" lat="59.8546250002" lon="11.2995555579">
		<tag k="name" v="Tisteldalsmyra" />
		<tag k="natural" v="wetland" />
		<tag k="ssr:stedsnr" v="343649" />
	</node>
	<node id="-32398" lat="59.8740277747" lon="11.2736833358">
		<tag k="name" v="Skjatvetdammen" />
		<tag k="natural" v="water" />
		<tag k="ssr:stedsnr" v="343642" />
	</node>
	<node id="-32397" lat="59.8731694483" lon="11.2735166673">
		<tag k="name" v="Vestre Skjatvet" />
		<tag k="place" v="locality" />
		<tag k="ssr:stedsnr" v="343640" />
	</node>
	<node id="-32396" lat="59.8692416663" lon="11.2479333381">
		<tag k="name" v="Kvernbråtan" />
		<tag k="place" v="farm" />
		<tag k="ssr:stedsnr" v="343637" />
	</node>
	<node id="-32395" lat="59.8661250027" lon="11.2484916652">
		<tag k="name" v="Snørsrud" />
		<tag k="place" v="locality" />
		<tag k="ssr:stedsnr" v="343636" />
	</node>
	<node id="-32394" lat="59.8575944453" lon="11.3389611066">
		<tag k="name" v="Enga" />
		<tag k="place" v="locality" />
		<tag k="ssr:stedsnr" v="343626" />
	</node>
	<node id="-32393" lat="59.855738888" lon="11.3311861036">
		<tag k="name" v="Badstudalen" />
		<tag k="natural" v="valley" />
		<tag k="place" v="locality" />
		<tag k="ssr:stedsnr" v="343627" />
	</node>
	<node id="-32392" lat="59.8524305594" lon="11.2186055593">
		<tag k="alt_name" v="Østanes nordre" />
		<tag k="name" v="Nordre Østanes" />
		<tag k="place" v="farm" />
		<tag k="ssr:stedsnr" v="342329" />
	</node>
	<node id="-32391" lat="59.7757583318" lon="11.2625388891">
		<tag k="alt_name" v="Melnes søndre" />
		<tag k="name" v="Søndre Melnes" />
		<tag k="place" v="farm" />
		<tag k="ssr:stedsnr" v="342279" />
	</node>
	<node id="-32390" lat="59.7702611126" lon="11.2951027735">
		<tag k="fixme" v="consider natural=peak for the most distinct mountains in the district" />
		<tag k="name" v="Merramyrhøgda" />
		<tag k="natural" v="hill" />
		<tag k="place" v="locality" />
		<tag k="ssr:stedsnr" v="342267" />
	</node>
	<node id="-32389" lat="59.7840750019" lon="11.297280557">
		<tag k="name" v="Høgmåsan" />
		<tag k="natural" v="wetland" />
		<tag k="ssr:stedsnr" v="342253" />
	</node>
	<node id="-32388" lat="59.7919944443" lon="11.2908555541">
		<tag k="name" v="Vesle Saueholmen" />
		<tag k="place" v="islet" />
		<tag k="ssr:stedsnr" v="342229" />
	</node>
	<node id="-32387" lat="59.7704138899" lon="11.2613222248">
		<tag k="name" v="Hestehagen" />
		<tag k="place" v="farm" />
		<tag k="ssr:stedsnr" v="308904" />
	</node>
	<node id="-32386" lat="59.8005388879" lon="11.2740583316">
		<tag k="alt_name" v="Langtjenn" />
		<tag k="name" v="Langtjernet" />
		<tag k="natural" v="water" />
		<tag k="ssr:stedsnr" v="308832" />
	</node>
	<node id="-32385" lat="59.8419361087" lon="11.3126361068">
		<tag k="name" v="Brutjern" />
		<tag k="natural" v="water" />
		<tag k="ssr:stedsnr" v="308719" />
	</node>
	<node id="-32384" lat="59.8569361139" lon="11.253369442">
		<tag k="fixme" v="multiple name tags, choose one and add the other to alt_name; consider natural=peak for the most distinct mountains in the district" />
		<tag k="name" v="Skinnerudåsen;Torudåsen" />
		<tag k="natural" v="hill" />
		<tag k="place" v="locality" />
		<tag k="ssr:stedsnr" v="308694" />
	</node>
	<node id="-32383" lat="59.8586361157" lon="11.2062305492">
		<tag k="name" v="Tjuvholmen" />
		<tag k="place" v="islet" />
		<tag k="ssr:stedsnr" v="308690" />
	</node>
	<node id="-32382" lat="59.8612861151" lon="11.3526138815">
		<tag k="name" v="Holmetjern" />
		<tag k="natural" v="water" />
		<tag k="ssr:stedsnr" v="308681" />
	</node>
	<node id="-32381" lat="59.8645694406" lon="11.2864111072">
		<tag k="fixme" v="consider place=hamlet" />
		<tag k="name" v="Gullerud" />
		<tag k="place" v="farm" />
		<tag k="ssr:stedsnr" v="308674" />
	</node>
	<node id="-32380" lat="59.8815163445" lon="11.2015607071">
		<tag k="fixme" v="consider place=hamlet" />
		<tag k="name" v="Svindal" />
		<tag k="place" v="farm" />
		<tag k="ssr:stedsnr" v="308649" />
	</node>
	<node id="-32379" lat="59.9074083323" lon="11.2000777845">
		<tag k="alt_name" v="Knappentjennet" />
		<tag k="name" v="Knappentjernet" />
		<tag k="natural" v="water" />
		<tag k="ssr:stedsnr" v="308594" />
	</node>
	<node id="-32378" lat="59.9413416709" lon="11.1707611096">
		<tag k="fixme" v="consider place=hamlet" />
		<tag k="name" v="Faller" />
		<tag k="place" v="farm" />
		<tag k="ssr:stedsnr" v="308552" />
	</node>
	<node id="-32377" lat="59.9387888888" lon="11.1399138883">
		<tag k="name" v="Tien" />
		<tag k="place" v="farm" />
		<tag k="ssr:stedsnr" v="308547" />
	</node>
	<node id="-32376" lat="59.9342685822" lon="11.1985280752">
		<tag k="fixme" v="consider place=hamlet" />
		<tag k="name" v="Falla" />
		<tag k="place" v="farm" />
		<tag k="ssr:stedsnr" v="308533" />
	</node>
	<node id="-32375" lat="59.9494861123" lon="11.2154916583">
		<tag k="name" v="Nordli" />
		<tag k="place" v="farm" />
		<tag k="ssr:stedsnr" v="308513" />
	</node>
	<node id="-32374" lat="59.9622611068" lon="11.2084999972">
		<tag k="name" v="Sletta" />
		<tag k="place" v="farm" />
		<tag k="ssr:stedsnr" v="308492" />
	</node>
	<node id="-32373" lat="59.9562583327" lon="11.1277500088">
		<tag k="alt_name" v="Berger, nordre" />
		<tag k="name" v="Nordre Berger" />
		<tag k="place" v="farm" />
		<tag k="ssr:stedsnr" v="308481" />
	</node>
	<node id="-32372" lat="59.959336111" lon="11.1317444497">
		<tag k="name" v="Bergerbekken" />
		<tag k="ssr:stedsnr" v="308462" />
		<tag k="waterway" v="stream" />
	</node>
	<node id="-32371" lat="59.9848861152" lon="11.1862000056">
		<tag k="alt_name" v="Agntjennet" />
		<tag k="name" v="Agnetjernet" />
		<tag k="natural" v="water" />
		<tag k="ssr:stedsnr" v="308414" />
	</node>
	<node id="-32370" lat="59.9744722188" lon="11.1635916599">
		<tag k="alt_name" v="Småtjern" />
		<tag k="name" v="Småtjerna" />
		<tag k="natural" v="water" />
		<tag k="ssr:stedsnr" v="308397" />
	</node>
	<node id="-32369" lat="59.902516665" lon="11.1994333307">
		<tag k="fixme" v="consider natural=peak for the most distinct mountains in the district" />
		<tag k="name" v="Råsåkhøgda" />
		<tag k="natural" v="hill" />
		<tag k="place" v="locality" />
		<tag k="ssr:stedsnr" v="307660" />
	</node>
	<node id="-32368" lat="59.9482989612" lon="11.1185208374">
		<tag k="alt_name" v="Vestre Løken" />
		<tag k="fixme" v="consider place=hamlet" />
		<tag k="name" v="Løken" />
		<tag k="place" v="farm" />
		<tag k="ssr:stedsnr" v="307570" />
	</node>
	<node id="-32367" lat="59.9544249981" lon="11.0819027803">
		<tag k="name" v="Langtangen" />
		<tag k="natural" v="cape" />
		<tag k="ssr:stedsnr" v="307541" />
	</node>
	<node id="-32366" lat="59.9398472194" lon="11.1547861022">
		<tag k="name" v="Furukollen" />
		<tag k="place" v="quarter" />
		<tag k="ssr:stedsnr" v="302864" />
	</node>
	<node id="-32365" lat="59.9414722215" lon="11.1719194381">
		<tag k="name" v="Nordre Faller" />
		<tag k="place" v="farm" />
		<tag k="ssr:stedsnr" v="302860" />
	</node>
	<node id="-32364" lat="59.9428944467" lon="11.1209666672">
		<tag k="name" v="Nergård" />
		<tag k="place" v="locality" />
		<tag k="ssr:stedsnr" v="302850" />
	</node>
	<node id="-32363" lat="59.9359444475" lon="11.1964749965">
		<tag k="name" v="Guriholtet" />
		<tag k="place" v="locality" />
		<tag k="ssr:stedsnr" v="302820" />
	</node>
	<node id="-32362" lat="59.8435416708" lon="11.2804194406">
		<tag k="name" v="Rogndalen" />
		<tag k="natural" v="valley" />
		<tag k="place" v="locality" />
		<tag k="ssr:stedsnr" v="302383" />
	</node>
	<node id="-32361" lat="59.8504861156" lon="11.3009305484">
		<tag k="name" v="Snikestykket" />
		<tag k="place" v="locality" />
		<tag k="ssr:stedsnr" v="302355" />
	</node>
	<node id="-32360" lat="59.9213944423" lon="11.1549666631">
		<tag k="name" v="Fetsund lense" />
		<tag k="place" v="locality" />
		<tag k="ssr:stedsnr" v="300683" />
	</node>
	<node id="-32359" lat="59.9350111121" lon="11.1307555583">
		<tag k="name" v="Tomta" />
		<tag k="place" v="isolated_dwelling" />
		<tag k="ssr:stedsnr" v="300671" />
	</node>
	<node id="-32358" lat="59.8727888933" lon="11.3240722241">
		<tag k="fixme" v="consider natural=peak for the most distinct mountains in the district" />
		<tag k="name" v="Rundtjennåsen" />
		<tag k="natural" v="hill" />
		<tag k="place" v="locality" />
		<tag k="ssr:stedsnr" v="300604" />
	</node>
	<node id="-32357" lat="59.886919446" lon="11.1844777723">
		<tag k="name" v="Kvernhammervika" />
		<tag k="natural" v="bay" />
		<tag k="ssr:stedsnr" v="300562" />
	</node>
	<node id="-32356" lat="59.8834472189" lon="11.2111833268">
		<tag k="name" v="Svendalsbekken" />
		<tag k="ssr:stedsnr" v="300556" />
		<tag k="waterway" v="stream" />
	</node>
	<node id="-32355" lat="59.8803333332" lon="11.2492027726">
		<tag k="name" v="Høymyrene" />
		<tag k="natural" v="wetland" />
		<tag k="ssr:stedsnr" v="300546" />
	</node>
	<node id="-32354" lat="59.8812666636" lon="11.2018888829">
		<tag k="alt_name" v="Svindal mellom" />
		<tag k="name" v="Mellom-Svindal" />
		<tag k="place" v="farm" />
		<tag k="ssr:stedsnr" v="300528" />
	</node>
	<node id="-32353" lat="59.9749833355" lon="11.1660138907">
		<tag k="fixme" v="consider highway=path" />
		<tag k="highway" v="track" />
		<tag k="name" v="Kongsrudmåsavegen" />
		<tag k="ssr:stedsnr" v="298884" />
	</node>
	<node id="-32352" lat="59.9505722183" lon="11.1193638887">
		<tag k="name" v="Fløtti" />
		<tag k="place" v="locality" />
		<tag k="ssr:stedsnr" v="298820" />
	</node>
	<node id="-32351" lat="59.9619250036" lon="11.1876611084">
		<tag k="name" v="Holmen" />
		<tag k="place" v="islet" />
		<tag k="ssr:stedsnr" v="298130" />
	</node>
	<node id="-32350" lat="59.9010333307" lon="11.1778777738">
		<tag k="name" v="Råsokhagen" />
		<tag k="place" v="locality" />
		<tag k="ssr:stedsnr" v="285718" />
	</node>
	<node id="-32349" lat="59.9138000029" lon="11.1332416659">
		<tag k="name" v="Fråstadeng" />
		<tag k="natural" v="cape" />
		<tag k="ssr:stedsnr" v="285677" />
	</node>
	<node id="-32348" lat="59.9125666711" lon="11.1327527804">
		<tag k="name" v="Leirtangen" />
		<tag k="natural" v="cape" />
		<tag k="ssr:stedsnr" v="285676" />
	</node>
	<node id="-32347" lat="59.9072305582" lon="11.1510805505">
		<tag k="name" v="Jushaugen" />
		<tag k="natural" v="hill" />
		<tag k="place" v="locality" />
		<tag k="ssr:stedsnr" v="285671" />
	</node>
	<node id="-32346" lat="59.8713305552" lon="11.209966662">
		<tag k="alt_name" v="Blesahagen" />
		<tag k="name" v="Blesahagan" />
		<tag k="place" v="locality" />
		<tag k="ssr:stedsnr" v="284334" />
	</node>
	<node id="-32345" lat="59.8643166673" lon="11.2649444519">
		<tag k="name" v="Østby" />
		<tag k="place" v="locality" />
		<tag k="ssr:stedsnr" v="284612" />
	</node>
	<node id="-32344" lat="59.8583500021" lon="11.257147227">
		<tag k="name" v="Ingerhølet" />
		<tag k="natural" v="wetland" />
		<tag k="ssr:stedsnr" v="284609" />
	</node>
	<node id="-32343" lat="59.8469194454" lon="11.2241305603">
		<tag k="name" v="Østaneshagen" />
		<tag k="place" v="locality" />
		<tag k="ssr:stedsnr" v="282316" />
	</node>
	<node id="-32342" lat="59.787791668" lon="11.2690222266">
		<tag k="name" v="Langerud" />
		<tag k="place" v="farm" />
		<tag k="ssr:stedsnr" v="282265" />
	</node>
	<node id="-32341" lat="59.7802249958" lon="11.2837583326">
		<tag k="name" v="Svartdalbekken" />
		<tag k="ssr:stedsnr" v="282258" />
		<tag k="waterway" v="stream" />
	</node>
	<node id="-32340" lat="59.7866444456" lon="11.2589638866">
		<tag k="name" v="Skredderstadbekken" />
		<tag k="ssr:stedsnr" v="282255" />
		<tag k="waterway" v="stream" />
	</node>
	<node id="-32339" lat="59.7691694427" lon="11.3072111095">
		<tag k="name" v="Løytnantmyra" />
		<tag k="natural" v="wetland" />
		<tag k="ssr:stedsnr" v="282256" />
	</node>
	<node id="-32338" lat="59.7738666676" lon="11.3214999918">
		<tag k="name" v="Breilihytta" />
		<tag k="place" v="isolated_dwelling" />
		<tag k="ssr:stedsnr" v="282253" />
	</node>
	<node id="-32337" lat="59.7968250018" lon="11.2795638889">
		<tag k="name" v="Hella" />
		<tag k="natural" v="cape" />
		<tag k="ssr:stedsnr" v="282235" />
	</node>
	<node id="-32336" lat="59.8006111105" lon="11.2485888961">
		<tag k="name" v="Korsveiåsen" />
		<tag k="natural" v="hill" />
		<tag k="place" v="locality" />
		<tag k="ssr:stedsnr" v="282230" />
	</node>
	<node id="-32335" lat="59.7905472184" lon="11.3042833293">
		<tag k="name" v="Bånntjenn" />
		<tag k="natural" v="bay" />
		<tag k="ssr:stedsnr" v="282226" />
	</node>
	<node id="-32334" lat="59.8080500042" lon="11.2766750071">
		<tag k="name" v="Høgmåsan" />
		<tag k="natural" v="wetland" />
		<tag k="ssr:stedsnr" v="282227" />
	</node>
	<node id="-32333" lat="59.8153666671" lon="11.2439638964">
		<tag k="highway" v="path" />
		<tag k="name" v="Maristigen" />
		<tag k="ssr:stedsnr" v="282222" />
	</node>
	<node id="-32332" lat="59.7985472245" lon="11.2963138968">
		<tag k="name" v="Seterskogen" />
		<tag k="place" v="locality" />
		<tag k="ssr:stedsnr" v="282220" />
	</node>
	<node id="-32331" lat="59.9239388925" lon="11.1476999993">
		<tag k="alt_name" v="Søndre Nedrum" />
		<tag k="name" v="Søndre Nerdrum" />
		<tag k="place" v="farm" />
		<tag k="ssr:stedsnr" v="279311" />
	</node>
	<node id="-33292" lat="59.9428083311" lon="11.1556055634">
		<tag k="name" v="Bjørketunet" />
		<tag k="place" v="quarter" />
		<tag k="ssr:stedsnr" v="969871" />
	</node>
	<node id="-33291" lat="59.9200083308" lon="11.2534444357">
		<tag k="name" v="Svarttjenndalen" />
		<tag k="natural" v="valley" />
		<tag k="place" v="locality" />
		<tag k="ssr:stedsnr" v="969846" />
	</node>
	<node id="-33290" lat="59.9367000027" lon="11.2018944386">
		<tag k="name" v="Granlund" />
		<tag k="place" v="isolated_dwelling" />
		<tag k="ssr:stedsnr" v="969841" />
	</node>
	<node id="-33289" lat="59.9373527782" lon="11.2084000068">
		<tag k="name" v="Nordre Tofsrud" />
		<tag k="place" v="farm" />
		<tag k="ssr:stedsnr" v="969842" />
	</node>
	<node id="-33288" lat="59.937111115" lon="11.1939361167">
		<tag k="name" v="Laget" />
		<tag k="place" v="farm" />
		<tag k="ssr:stedsnr" v="969838" />
	</node>
	<node id="-33287" lat="59.8354388847" lon="11.2474750033">
		<tag k="name" v="Nordby" />
		<tag k="place" v="farm" />
		<tag k="ssr:stedsnr" v="969381" />
	</node>
	<node id="-33286" lat="59.8487722227" lon="11.2594444383">
		<tag k="name" v="Bjørndalsbekken" />
		<tag k="ssr:stedsnr" v="969360" />
		<tag k="waterway" v="stream" />
	</node>
	<node id="-33285" lat="59.8443305542" lon="11.2480222262">
		<tag k="name" v="Ersrudlia" />
		<tag k="natural" v="slope" />
		<tag k="place" v="locality" />
		<tag k="ssr:stedsnr" v="969354" />
	</node>
	<node id="-33284" lat="59.8792527765" lon="11.2982194356">
		<tag k="name" v="Matheamyr" />
		<tag k="natural" v="wetland" />
		<tag k="ssr:stedsnr" v="967669" />
	</node>
	<node id="-33283" lat="59.9334555589" lon="11.1286166584">
		<tag k="name" v="Balnes" />
		<tag k="place" v="quarter" />
		<tag k="ssr:stedsnr" v="967640" />
	</node>
	<node id="-33282" lat="59.8630750003" lon="11.3414527697">
		<tag k="name" v="Engadalen" />
		<tag k="natural" v="valley" />
		<tag k="place" v="locality" />
		<tag k="ssr:stedsnr" v="967573" />
	</node>
	<node id="-33281" lat="59.8697972247" lon="11.3343138962">
		<tag k="name" v="Festningen" />
		<tag k="natural" v="hill" />
		<tag k="place" v="locality" />
		<tag k="ssr:stedsnr" v="967567" />
	</node>
	<node id="-33280" lat="59.8845027765" lon="11.2215666747">
		<tag k="name" v="Fjellsrudåsen" />
		<tag k="natural" v="hill" />
		<tag k="place" v="locality" />
		<tag k="ssr:stedsnr" v="967537" />
	</node>
	<node id="-33279" lat="59.8800749982" lon="11.2389972295">
		<tag k="name" v="Asplund" />
		<tag k="place" v="farm" />
		<tag k="ssr:stedsnr" v="967514" />
	</node>
	<node id="-33278" lat="59.893288891" lon="11.2600166732">
		<tag k="name" v="Kubrudalen" />
		<tag k="natural" v="valley" />
		<tag k="place" v="locality" />
		<tag k="ssr:stedsnr" v="967512" />
	</node>
	<node id="-33277" lat="59.8916611076" lon="11.238025008">
		<tag k="name" v="Gjesstjerndalen" />
		<tag k="natural" v="valley" />
		<tag k="place" v="locality" />
		<tag k="ssr:stedsnr" v="967509" />
	</node>
	<node id="-33276" lat="59.8776305525" lon="11.3021972154">
		<tag k="name" v="Tørrhjellmåsan" />
		<tag k="natural" v="wetland" />
		<tag k="ssr:stedsnr" v="967508" />
	</node>
	<node id="-33275" lat="59.9611861082" lon="11.1234805491">
		<tag k="fixme" v="consider natural=peak for the most distinct mountains in the district" />
		<tag k="name" v="Smedsbergåsen" />
		<tag k="natural" v="hill" />
		<tag k="place" v="locality" />
		<tag k="ssr:stedsnr" v="965998" />
	</node>
	<node id="-33274" lat="59.9670833323" lon="11.098488894">
		<tag k="fixme" v="consider boundary=protected_area and relevant protect_class if not nature reserve" />
		<tag k="leisure" v="nature_reserve" />
		<tag k="name" v="Holmen naturreservat" />
		<tag k="ssr:stedsnr" v="965885" />
	</node>
	<node id="-33273" lat="59.942958331" lon="11.238816672">
		<tag k="name" v="Delingsdalen" />
		<tag k="natural" v="valley" />
		<tag k="place" v="locality" />
		<tag k="ssr:stedsnr" v="965878" />
	</node>
	<node id="-33272" lat="59.9419527785" lon="11.1786444412">
		<tag k="name" v="Finsnes" />
		<tag k="natural" v="cape" />
		<tag k="ssr:stedsnr" v="965872" />
	</node>
	<node id="-33271" lat="59.9731111137" lon="11.1836666696">
		<tag k="name" v="Blåbærmåsan" />
		<tag k="natural" v="wetland" />
		<tag k="ssr:stedsnr" v="965122" />
	</node>
	<node id="-33270" lat="59.8564361081" lon="11.339625">
		<tag k="bridge" v="yes" />
		<tag k="layer" v="1" />
		<tag k="name" v="Midtskog" />
		<tag k="ssr:stedsnr" v="956044" />
	</node>
	<node id="-33269" lat="59.9163527073" lon="11.1767626836">
		<tag k="fixme" v="consider place=hamlet" />
		<tag k="name" v="Nordre Løken" />
		<tag k="place" v="farm" />
		<tag k="ssr:stedsnr" v="952726" />
	</node>
	<node id="-33268" lat="59.9170249966" lon="11.146919445">
		<tag k="name" v="Lund lenseanlegg" />
		<tag k="place" v="locality" />
		<tag k="ssr:stedsnr" v="952721" />
	</node>
	<node id="-33267" lat="59.8642416655" lon="11.2863388909">
		<tag k="alt_name" v="Gullerud søndre" />
		<tag k="name" v="Søndre Gullerud" />
		<tag k="place" v="farm" />
		<tag k="ssr:stedsnr" v="952581" />
	</node>
	<node id="-33266" lat="59.871449997" lon="11.227430563">
		<tag k="alt_name" v="By nedre" />
		<tag k="name" v="Nedre By" />
		<tag k="place" v="farm" />
		<tag k="ssr:stedsnr" v="952338" />
	</node>
	<node id="-33265" lat="59.8647527777" lon="11.2084944355">
		<tag k="name" v="Brågårdhalsen" />
		<tag k="natural" v="strait" />
		<tag k="ssr:stedsnr" v="952335" />
	</node>
	<node id="-33264" lat="59.8721083349" lon="11.2478416756">
		<tag k="name" v="Aslakken" />
		<tag k="place" v="locality" />
		<tag k="ssr:stedsnr" v="950600" />
	</node>
	<node id="-33263" lat="59.8246777768" lon="11.2532444451">
		<tag k="name" v="Opptjennmyra" />
		<tag k="natural" v="wetland" />
		<tag k="ssr:stedsnr" v="950354" />
	</node>
	<node id="-33262" lat="59.8321694466" lon="11.2416333299">
		<tag k="name" v="Enga" />
		<tag k="place" v="farm" />
		<tag k="ssr:stedsnr" v="950349" />
	</node>
	<node id="-33261" lat="59.8334555516" lon="11.2447166632">
		<tag k="alt_name" v="Bjørkeflåtten søndre" />
		<tag k="name" v="Søndre Bjørkeflåtten" />
		<tag k="place" v="farm" />
		<tag k="ssr:stedsnr" v="950348" />
	</node>
	<node id="-33260" lat="59.8455833314" lon="11.2303250079">
		<tag k="name" v="Hvitås" />
		<tag k="place" v="farm" />
		<tag k="ssr:stedsnr" v="950345" />
	</node>
	<node id="-33259" lat="59.8344000001" lon="11.26878333">
		<tag k="name" v="Fuglemåsalia" />
		<tag k="natural" v="slope" />
		<tag k="place" v="locality" />
		<tag k="ssr:stedsnr" v="950340" />
	</node>
	<node id="-33258" lat="59.7713611117" lon="11.2575916725">
		<tag k="name" v="Sagstua" />
		<tag k="place" v="locality" />
		<tag k="ssr:stedsnr" v="950310" />
	</node>
	<node id="-33257" lat="59.7678916682" lon="11.2742777755">
		<tag k="alt_name" v="Teig mellom" />
		<tag k="name" v="Mellom-Teig" />
		<tag k="place" v="farm" />
		<tag k="ssr:stedsnr" v="950306" />
	</node>
	<node id="-33256" lat="59.775802779" lon="11.2442638831">
		<tag k="name" v="Søndre Melnesvika" />
		<tag k="natural" v="bay" />
		<tag k="ssr:stedsnr" v="950300" />
	</node>
	<node id="-33255" lat="59.7872972191" lon="11.2855805594">
		<tag k="name" v="Vintervika" />
		<tag k="natural" v="bay" />
		<tag k="ssr:stedsnr" v="950299" />
	</node>
	<node id="-33254" lat="59.7849527776" lon="11.2933499937">
		<tag k="name" v="Kannemåsan" />
		<tag k="natural" v="wetland" />
		<tag k="ssr:stedsnr" v="950284" />
	</node>
	<node id="-33253" lat="59.7894694418" lon="11.263930555">
		<tag k="fixme" v="consider natural=peak for the most distinct mountains in the district" />
		<tag k="name" v="Skredderåsen" />
		<tag k="natural" v="hill" />
		<tag k="place" v="locality" />
		<tag k="ssr:stedsnr" v="950282" />
	</node>
	<node id="-33252" lat="59.7922472214" lon="11.2840472207">
		<tag k="name" v="Kavringen" />
		<tag k="place" v="islet" />
		<tag k="ssr:stedsnr" v="950281" />
	</node>
	<node id="-33251" lat="59.8447611105" lon="11.2589749964">
		<tag k="name" v="Bjørndalen" />
		<tag k="place" v="farm" />
		<tag k="ssr:stedsnr" v="915721" />
	</node>
	<node id="-33250" lat="59.849438888" lon="11.3414749958">
		<tag k="alt_name" v="Jørgensbråten" />
		<tag k="name" v="Jørgensbråtan" />
		<tag k="place" v="farm" />
		<tag k="ssr:stedsnr" v="915710" />
	</node>
	<node id="-33249" lat="59.8655499989" lon="11.2807472164">
		<tag k="name" v="Svenskerud" />
		<tag k="place" v="farm" />
		<tag k="ssr:stedsnr" v="915688" />
	</node>
	<node id="-33248" lat="59.8672194488" lon="11.2626944531">
		<tag k="name" v="Sanderud" />
		<tag k="place" v="farm" />
		<tag k="ssr:stedsnr" v="915686" />
	</node>
	<node id="-33247" lat="59.8640055528" lon="11.2304166682">
		<tag k="name" v="Auten" />
		<tag k="place" v="farm" />
		<tag k="ssr:stedsnr" v="915681" />
	</node>
	<node id="-33246" lat="59.8780055551" lon="11.2622666653">
		<tag k="name" v="Rødbekken" />
		<tag k="place" v="farm" />
		<tag k="ssr:stedsnr" v="915658" />
	</node>
	<node id="-33245" lat="59.8853472194" lon="11.2362944376">
		<tag k="alt_name" v="Haremyra" />
		<tag k="name" v="Haramyra" />
		<tag k="natural" v="wetland" />
		<tag k="ssr:stedsnr" v="915657" />
	</node>
	<node id="-33244" lat="59.8941166646" lon="11.1964611093">
		<tag k="name" v="Tolerud" />
		<tag k="place" v="farm" />
		<tag k="ssr:stedsnr" v="915639" />
	</node>
	<node id="-33243" lat="59.9021500004" lon="11.2587416676">
		<tag k="alt_name" v="Sjølstjennet" />
		<tag k="name" v="Sjølstjernet" />
		<tag k="natural" v="water" />
		<tag k="ssr:stedsnr" v="915616" />
	</node>
	<node id="-33242" lat="59.9131527769" lon="11.1243111088">
		<tag k="name" v="Øya" />
		<tag k="place" v="island" />
		<tag k="ssr:stedsnr" v="915591" />
	</node>
	<node id="-33241" lat="59.9087194486" lon="11.1637861138">
		<tag k="name" v="Jaer" />
		<tag k="place" v="farm" />
		<tag k="ssr:stedsnr" v="915590" />
	</node>
	<node id="-33240" lat="59.9407346037" lon="11.1491652049">
		<tag k="fixme" v="consider place=suburb, village or hamlet" />
		<tag k="name" v="Vitåsen" />
		<tag k="place" v="quarter" />
		<tag k="ssr:stedsnr" v="915551" />
	</node>
	<node id="-33239" lat="59.9321611101" lon="11.2083944529">
		<tag k="name" v="Harastad" />
		<tag k="place" v="farm" />
		<tag k="ssr:stedsnr" v="915548" />
	</node>
	<node id="-33238" lat="59.9401722207" lon="11.22693334">
		<tag k="name" v="Kvernstua" />
		<tag k="place" v="farm" />
		<tag k="ssr:stedsnr" v="915535" />
	</node>
	<node id="-33237" lat="59.9408916645" lon="11.1710916746">
		<tag k="name" v="Søndre Faller" />
		<tag k="place" v="farm" />
		<tag k="ssr:stedsnr" v="909883" />
	</node>
	<node id="-33236" lat="59.9495805594" lon="11.1173472277">
		<tag k="name" v="Vangen" />
		<tag k="place" v="hamlet" />
		<tag k="ssr:stedsnr" v="909875" />
	</node>
	<node id="-33235" lat="59.9571055554" lon="11.1135833386">
		<tag k="name" v="Hotvet" />
		<tag k="place" v="farm" />
		<tag k="ssr:stedsnr" v="909873" />
	</node>
	<node id="-33234" lat="59.9348777733" lon="11.2054611171">
		<tag k="name" v="Falla" />
		<tag k="place" v="farm" />
		<tag k="ssr:stedsnr" v="909861" />
	</node>
	<node id="-33233" lat="59.9232277816" lon="11.240705562">
		<tag k="fixme" v="consider natural=peak for the most distinct mountains in the district" />
		<tag k="name" v="Seteråsen" />
		<tag k="natural" v="hill" />
		<tag k="place" v="locality" />
		<tag k="ssr:stedsnr" v="909846" />
	</node>
	<node id="-33232" lat="59.8500499997" lon="11.2842777827">
		<tag k="name" v="Øvre Høgmyr" />
		<tag k="natural" v="wetland" />
		<tag k="ssr:stedsnr" v="909345" />
	</node>
	<node id="-33231" lat="59.8683805575" lon="11.2952888961">
		<tag k="name" v="Olahølet" />
		<tag k="natural" v="valley" />
		<tag k="place" v="locality" />
		<tag k="ssr:stedsnr" v="907566" />
	</node>
	<node id="-33230" lat="59.8890138898" lon="11.2781750047">
		<tag k="fixme" v="consider natural=peak for the most distinct mountains in the district" />
		<tag k="name" v="Toskeåsen" />
		<tag k="natural" v="hill" />
		<tag k="place" v="locality" />
		<tag k="ssr:stedsnr" v="907501" />
	</node>
	<node id="-33229" lat="59.8749250031" lon="11.2939166667">
		<tag k="fixme" v="consider natural=peak for the most distinct mountains in the district" />
		<tag k="name" v="Hvilesteinsåsen" />
		<tag k="natural" v="hill" />
		<tag k="place" v="locality" />
		<tag k="ssr:stedsnr" v="907497" />
	</node>
	<node id="-33228" lat="59.8945805596" lon="11.1709999999">
		<tag k="name" v="Purka" />
		<tag k="place" v="islet" />
		<tag k="ssr:stedsnr" v="907484" />
	</node>
	<node id="-33227" lat="59.9776055562" lon="11.1709861039">
		<tag k="name" v="Torvmåsan" />
		<tag k="natural" v="wetland" />
		<tag k="ssr:stedsnr" v="904919" />
	</node>
	<node id="-33226" lat="59.9700194459" lon="11.1707249926">
		<tag k="name" v="Stordammen" />
		<tag k="natural" v="wetland" />
		<tag k="ssr:stedsnr" v="904905" />
	</node>
	<node id="-33225" lat="59.9613888894" lon="11.1001888957">
		<tag k="name" v="Nyryddingen" />
		<tag k="place" v="locality" />
		<tag k="ssr:stedsnr" v="904898" />
	</node>
	<node id="-33224" lat="59.9591833329" lon="11.179652774">
		<tag k="name" v="Skårer" />
		<tag k="place" v="farm" />
		<tag k="ssr:stedsnr" v="904883" />
	</node>
	<node id="-33223" lat="59.940224999" lon="11.2042222252">
		<tag k="name" v="Myra" />
		<tag k="place" v="farm" />
		<tag k="ssr:stedsnr" v="904877" />
	</node>
	<node id="-33222" lat="59.9804888906" lon="11.1797611036">
		<tag k="fixme" v="consider natural=peak for the most distinct mountains in the district" />
		<tag k="name" v="Ravnåsen" />
		<tag k="natural" v="hill" />
		<tag k="place" v="locality" />
		<tag k="ssr:stedsnr" v="904128" />
	</node>
	<node id="-33221" lat="59.9106064738" lon="11.1916413137">
		<tag k="fixme" v="consider natural=peak for the most distinct mountains in the district" />
		<tag k="name" v="Løkenåsen" />
		<tag k="natural" v="hill" />
		<tag k="place" v="locality" />
		<tag k="ssr:stedsnr" v="870008" />
	</node>
	<node id="-33220" lat="59.9132111147" lon="11.1659750018">
		<tag k="name" v="Øverby" />
		<tag k="place" v="farm" />
		<tag k="ssr:stedsnr" v="855618" />
	</node>
	<node id="-33219" lat="59.9539722198" lon="11.2023944446">
		<tag k="name" v="Løvås" />
		<tag k="place" v="isolated_dwelling" />
		<tag k="ssr:stedsnr" v="855540" />
	</node>
	<node id="-33218" lat="59.7605722194" lon="11.3026444466">
		<tag k="name" v="Myrer" />
		<tag k="place" v="farm" />
		<tag k="ssr:stedsnr" v="854888" />
	</node>
	<node id="-33217" lat="59.7777666627" lon="11.2704777801">
		<tag k="name" v="Mungerud" />
		<tag k="place" v="farm" />
		<tag k="ssr:stedsnr" v="854848" />
	</node>
	<node id="-33216" lat="59.8034361097" lon="11.2691222278">
		<tag k="alt_name" v="Lintjenn" />
		<tag k="name" v="Lintjernet" />
		<tag k="natural" v="water" />
		<tag k="ssr:stedsnr" v="854774" />
	</node>
	<node id="-33215" lat="59.8504027778" lon="11.2416444464">
		<tag k="name" v="Ersrud" />
		<tag k="place" v="farm" />
		<tag k="ssr:stedsnr" v="854698" />
	</node>
	<node id="-33214" lat="59.8713666704" lon="11.2695166625">
		<tag k="name" v="Tunnerud" />
		<tag k="place" v="farm" />
		<tag k="ssr:stedsnr" v="854668" />
	</node>
	<node id="-33213" lat="59.8786138856" lon="11.1879888874">
		<tag k="name" v="Karte" />
		<tag k="place" v="islet" />
		<tag k="ssr:stedsnr" v="854659" />
	</node>
	<node id="-33212" lat="59.8817000002" lon="11.3235666603">
		<tag k="name" v="Slordammen" />
		<tag k="natural" v="water" />
		<tag k="old_name" v="Stordammen" />
		<tag k="ssr:stedsnr" v="854651" />
		<tag k="water" v="lake" />
	</node>
	<node id="-33211" lat="59.8865583308" lon="11.1615583294">
		<tag k="alt_name" v="Rosholmen" />
		<tag k="name" v="Rossholmen" />
		<tag k="place" v="islet" />
		<tag k="ssr:stedsnr" v="854631" />
	</node>
	<node id="-33210" lat="59.9143111136" lon="11.1657972189">
		<tag k="alt_name" v="Fet" />
		<tag k="amenity" v="place_of_worship" />
		<tag k="denomination" v="lutheran" />
		<tag k="name" v="Fet kirke" />
		<tag k="religion" v="christian" />
		<tag k="ssr:stedsnr" v="854587" />
	</node>
	<node id="-33209" lat="59.919894443" lon="11.205038886">
		<tag k="name" v="Langerud" />
		<tag k="place" v="isolated_dwelling" />
		<tag k="ssr:stedsnr" v="854584" />
	</node>
	<node id="-33208" lat="59.9387916707" lon="11.2050750056">
		<tag k="name" v="Myrvoll" />
		<tag k="place" v="farm" />
		<tag k="ssr:stedsnr" v="854558" />
	</node>
	<node id="-33207" lat="59.9327777789" lon="11.1452000088">
		<tag k="fixme" v="consider place=hamlet" />
		<tag k="name" v="Støvin" />
		<tag k="place" v="farm" />
		<tag k="ssr:stedsnr" v="854556" />
	</node>
	<node id="-33206" lat="59.93543056" lon="11.2307888873">
		<tag k="name" v="Uriansrud" />
		<tag k="place" v="farm" />
		<tag k="ssr:stedsnr" v="854542" />
	</node>
	<node id="-33205" lat="59.9615111124" lon="11.202861119">
		<tag k="name" v="Flaen" />
		<tag k="place" v="farm" />
		<tag k="ssr:stedsnr" v="854507" />
	</node>
	<node id="-33204" lat="59.9699166629" lon="11.1353749946">
		<tag k="fixme" v="consider natural=peak for the most distinct mountains in the district" />
		<tag k="name" v="Rudskulen" />
		<tag k="natural" v="hill" />
		<tag k="place" v="locality" />
		<tag k="ssr:stedsnr" v="854496" />
	</node>
	<node id="-33203" lat="59.9448555587" lon="11.1546277822">
		<tag k="name" v="Breimåsan" />
		<tag k="natural" v="wetland" />
		<tag k="ssr:stedsnr" v="848861" />
	</node>
	<node id="-33202" lat="59.8410944411" lon="11.2613333297">
		<tag k="fixme" v="consider natural=peak for the most distinct mountains in the district" />
		<tag k="name" v="Duerudåsen" />
		<tag k="natural" v="hill" />
		<tag k="place" v="locality" />
		<tag k="ssr:stedsnr" v="848381" />
	</node>
	<node id="-33201" lat="59.8335305595" lon="11.2950472242">
		<tag k="name" v="Mjøsjødalen" />
		<tag k="natural" v="valley" />
		<tag k="place" v="locality" />
		<tag k="ssr:stedsnr" v="848378" />
	</node>
	<node id="-33200" lat="59.8489277766" lon="11.3323527758">
		<tag k="name" v="Badstumåsan" />
		<tag k="natural" v="wetland" />
		<tag k="ssr:stedsnr" v="848366" />
	</node>
	<node id="-33199" lat="59.8827305576" lon="11.3002444488">
		<tag k="name" v="Vangsmåsan" />
		<tag k="natural" v="wetland" />
		<tag k="ssr:stedsnr" v="846701" />
	</node>
	<node id="-33198" lat="59.92958611" lon="11.1395166657">
		<tag k="name" v="Nordre Hovin" />
		<tag k="place" v="isolated_dwelling" />
		<tag k="ssr:stedsnr" v="846673" />
	</node>
	<node id="-33197" lat="59.9291972178" lon="11.1606638878">
		<tag k="name" v="Hauger" />
		<tag k="place" v="quarter" />
		<tag k="ssr:stedsnr" v="846651" />
	</node>
	<node id="-33196" lat="59.9330249985" lon="11.1666055493">
		<tag k="name" v="Holsevja" />
		<tag k="natural" v="bay" />
		<tag k="ssr:stedsnr" v="846641" />
	</node>
	<node id="-33195" lat="59.9104944425" lon="11.2371833344">
		<tag k="name" v="Kariholmen" />
		<tag k="place" v="islet" />
		<tag k="ssr:stedsnr" v="846624" />
	</node>
	<node id="-33194" lat="59.9110527747" lon="11.2518527783">
		<tag k="name" v="Breimåsan" />
		<tag k="natural" v="wetland" />
		<tag k="ssr:stedsnr" v="846619" />
	</node>
	<node id="-33193" lat="59.8672888865" lon="11.3043777739">
		<tag k="name" v="Bikkjetjenn" />
		<tag k="natural" v="water" />
		<tag k="ssr:stedsnr" v="846599" />
	</node>
	<node id="-33192" lat="59.859708332" lon="11.3313027863">
		<tag k="name" v="Søndre Midtskog" />
		<tag k="place" v="farm" />
		<tag k="ssr:stedsnr" v="846595" />
	</node>
	<node id="-33191" lat="59.8776583296" lon="11.2768250008">
		<tag k="name" v="Lorthullet" />
		<tag k="place" v="locality" />
		<tag k="ssr:stedsnr" v="846543" />
	</node>
	<node id="-33190" lat="59.9757527755" lon="11.1749527704">
		<tag k="name" v="Nordre Ravnåsen" />
		<tag k="natural" v="hill" />
		<tag k="place" v="locality" />
		<tag k="ssr:stedsnr" v="844910" />
	</node>
	<node id="-33189" lat="59.9665944415" lon="11.1741361058">
		<tag k="name" v="Gravene" />
		<tag k="place" v="locality" />
		<tag k="ssr:stedsnr" v="844899" />
	</node>
	<node id="-33188" lat="59.9674222221" lon="11.1167138898">
		<tag k="fixme" v="consider highway=path" />
		<tag k="highway" v="track" />
		<tag k="name" v="Steindalsvegen" />
		<tag k="ssr:stedsnr" v="844892" />
	</node>
	<node id="-33187" lat="59.9096611086" lon="11.1819111142">
		<tag k="name" v="Skjønhaug" />
		<tag k="place" v="farm" />
		<tag k="ssr:stedsnr" v="831701" />
	</node>
	<node id="-33186" lat="59.9032861069" lon="11.2087111173">
		<tag k="name" v="Gransdammen" />
		<tag k="natural" v="water" />
		<tag k="ssr:stedsnr" v="831699" />
	</node>
	<node id="-33185" lat="59.8563472181" lon="11.2344916739">
		<tag k="name" v="Sandsmoen" />
		<tag k="place" v="quarter" />
		<tag k="ssr:stedsnr" v="831543" />
	</node>
	<node id="-33184" lat="59.859941669" lon="11.2867416682">
		<tag k="name" v="Gullerudmyra" />
		<tag k="natural" v="wetland" />
		<tag k="ssr:stedsnr" v="831319" />
	</node>
	<node id="-33183" lat="59.8555750006" lon="11.2418500037">
		<tag k="name" v="Lunder" />
		<tag k="place" v="farm" />
		<tag k="ssr:stedsnr" v="831314" />
	</node>
	<node id="-33182" lat="59.8732388858" lon="11.2279611069">
		<tag k="name" v="Søndre Sofsrud" />
		<tag k="place" v="farm" />
		<tag k="ssr:stedsnr" v="831312" />
	</node>
	<node id="-33181" lat="59.9294416678" lon="11.1877944496">
		<tag k="name" v="Ramstadenga" />
		<tag k="place" v="farm" />
		<tag k="ssr:stedsnr" v="829844" />
	</node>
	<node id="-33180" lat="59.9274861139" lon="11.2065611054">
		<tag k="name" v="Søndre Tingsrud" />
		<tag k="place" v="farm" />
		<tag k="ssr:stedsnr" v="829840" />
	</node>
	<node id="-33179" lat="59.9061861155" lon="11.2173111144">
		<tag k="name" v="Låkelia" />
		<tag k="natural" v="slope" />
		<tag k="place" v="locality" />
		<tag k="ssr:stedsnr" v="831696" />
	</node>
	<node id="-33178" lat="59.9114999981" lon="11.1553111153">
		<tag k="name" v="Ballenga" />
		<tag k="place" v="locality" />
		<tag k="ssr:stedsnr" v="831653" />
	</node>
	<node id="-33177" lat="59.9062390663" lon="11.1622202017">
		<tag k="fixme" v="consider place=hamlet" />
		<tag k="name" v="Bjanes" />
		<tag k="place" v="farm" />
		<tag k="ssr:stedsnr" v="831650" />
	</node>
	<node id="-33176" lat="59.9016666632" lon="11.1650083257">
		<tag k="name" v="Kløyva" />
		<tag k="place" v="locality" />
		<tag k="ssr:stedsnr" v="831648" />
	</node>
	<node id="-33175" lat="59.8564805548" lon="11.3064333246">
		<tag k="name" v="Saghølet" />
		<tag k="natural" v="wetland" />
		<tag k="ssr:stedsnr" v="829621" />
	</node>
	<node id="-33174" lat="59.8326694489" lon="11.2674361086">
		<tag k="name" v="Knutsdalen" />
		<tag k="natural" v="valley" />
		<tag k="place" v="locality" />
		<tag k="ssr:stedsnr" v="828348" />
	</node>
	<node id="-33173" lat="59.832675" lon="11.2740194387">
		<tag k="name" v="Smaldalen" />
		<tag k="natural" v="valley" />
		<tag k="place" v="locality" />
		<tag k="ssr:stedsnr" v="828347" />
	</node>
	<node id="-33172" lat="59.8498305569" lon="11.2187527759">
		<tag k="alt_name" v="Østanes nedre" />
		<tag k="name" v="Nedre Østanes" />
		<tag k="place" v="farm" />
		<tag k="ssr:stedsnr" v="828345" />
	</node>
	<node id="-33171" lat="59.7616944426" lon="11.3190166713">
		<tag k="name" v="Håkonsetermoen" />
		<tag k="place" v="locality" />
		<tag k="ssr:stedsnr" v="828304" />
	</node>
	<node id="-33170" lat="59.7598250025" lon="11.3052999991">
		<tag k="name" v="Nistua" />
		<tag k="place" v="isolated_dwelling" />
		<tag k="ssr:stedsnr" v="828299" />
	</node>
	<node id="-33169" lat="59.7598527821" lon="11.3363055568">
		<tag k="name" v="Søndre Huldertjenn" />
		<tag k="natural" v="water" />
		<tag k="ssr:stedsnr" v="828291" />
		<tag k="water" v="pond" />
	</node>
	<node id="-33168" lat="59.7688583373" lon="11.2704249953">
		<tag k="alt_name" v="Teig nordre" />
		<tag k="name" v="Nordre Teig" />
		<tag k="place" v="locality" />
		<tag k="ssr:stedsnr" v="828283" />
	</node>
	<node id="-33167" lat="59.785433335" lon="11.2775944366">
		<tag k="building" v="industrial" />
		<tag k="industrial" v="factory" />
		<tag k="name" v="Bøler mølle" />
		<tag k="ssr:stedsnr" v="828273" />
	</node>
	<node id="-33166" lat="59.7860805568" lon="11.2388083357">
		<tag k="name" v="Kølabånn" />
		<tag k="place" v="locality" />
		<tag k="ssr:stedsnr" v="828265" />
	</node>
	<node id="-33165" lat="59.7802111133" lon="11.3050500031">
		<tag k="name" v="Elgegravene" />
		<tag k="place" v="locality" />
		<tag k="ssr:stedsnr" v="828247" />
	</node>
	<node id="-33164" lat="59.7903972245" lon="11.2401305621">
		<tag k="name" v="Nørstevika" />
		<tag k="natural" v="bay" />
		<tag k="ssr:stedsnr" v="828244" />
	</node>
	<node id="-33163" lat="59.7873416706" lon="11.3067888938">
		<tag k="name" v="Kolåsvangen" />
		<tag k="place" v="locality" />
		<tag k="ssr:stedsnr" v="828242" />
	</node>
	<node id="-33162" lat="59.7892083339" lon="11.285247229">
		<tag k="name" v="Det smale sundet" />
		<tag k="natural" v="strait" />
		<tag k="ssr:stedsnr" v="828237" />
	</node>
	<node id="-33161" lat="59.7948472238" lon="11.2426027769">
		<tag k="name" v="Vikalandet" />
		<tag k="natural" v="beach" />
		<tag k="ssr:stedsnr" v="828230" />
	</node>
	<node id="-33160" lat="59.7904777784" lon="11.2958861035">
		<tag k="name" v="De hvite skjæra" />
		<tag k="place" v="islet" />
		<tag k="ssr:stedsnr" v="828222" />
	</node>
	<node id="-33159" lat="59.8053611122" lon="11.2716611168">
		<tag k="name" v="Rønningen" />
		<tag k="place" v="locality" />
		<tag k="ssr:stedsnr" v="828223" />
	</node>
	<node id="-33158" lat="59.8099250009" lon="11.2401750078">
		<tag k="name" v="Sandemsnebben" />
		<tag k="natural" v="cape" />
		<tag k="ssr:stedsnr" v="828213" />
	</node>
	<node id="-33157" lat="59.7929777782" lon="11.3023305596">
		<tag k="alt_name" v="Åbortjenn" />
		<tag k="name" v="Åbortjern" />
		<tag k="natural" v="water" />
		<tag k="ssr:stedsnr" v="794810" />
	</node>
	<node id="-33156" lat="59.8385638853" lon="11.2636749951">
		<tag k="alt_name" v="Rosstjenn" />
		<tag k="name" v="Rosstjern" />
		<tag k="natural" v="water" />
		<tag k="ssr:stedsnr" v="794773" />
	</node>
	<node id="-33155" lat="59.9087111087" lon="11.2236500011">
		<tag k="name" v="Postmyra" />
		<tag k="natural" v="wetland" />
		<tag k="ssr:stedsnr" v="794636" />
	</node>
	<node id="-33154" lat="59.9560312895" lon="11.1732741909">
		<tag k="fixme" v="consider place=hamlet" />
		<tag k="name" v="Skårer" />
		<tag k="place" v="farm" />
		<tag k="ssr:stedsnr" v="794538" />
	</node>
	<node id="-33153" lat="59.9568222207" lon="11.1845472188">
		<tag k="name" v="Skårersand" />
		<tag k="place" v="islet" />
		<tag k="ssr:stedsnr" v="794514" />
	</node>
	<node id="-33152" lat="59.9541861073" lon="11.1215111168">
		<tag k="alt_name" v="Smedberg" />
		<tag k="name" v="Smedsberg" />
		<tag k="place" v="farm" />
		<tag k="ssr:stedsnr" v="794502" />
	</node>
	<node id="-33151" lat="59.769461112" lon="11.2987333414">
		<tag k="alt_name" v="Mærramyra" />
		<tag k="name" v="Merramyra" />
		<tag k="natural" v="wetland" />
		<tag k="ssr:stedsnr" v="793910" />
	</node>
	<node id="-33150" lat="59.7625638902" lon="11.2851333385">
		<tag k="alt_name" v="Prinsholen" />
		<tag k="name" v="Prinseholen" />
		<tag k="place" v="farm" />
		<tag k="ssr:stedsnr" v="793892" />
	</node>
	<node id="-33149" lat="59.7819944469" lon="11.2534638879">
		<tag k="alt_name" v="Ødeby, søndre;Ødeby" />
		<tag k="name" v="Søndre Ødeby" />
		<tag k="place" v="farm" />
		<tag k="ssr:stedsnr" v="793854" />
	</node>
	<node id="-33148" lat="59.8034527749" lon="11.2566944527">
		<tag k="name" v="Enger" />
		<tag k="place" v="farm" />
		<tag k="ssr:stedsnr" v="793836" />
	</node>
	<node id="-33147" lat="59.816094442" lon="11.2748694471">
		<tag k="name" v="Sludderud" />
		<tag k="place" v="farm" />
		<tag k="ssr:stedsnr" v="793823" />
	</node>
	<node id="-33146" lat="59.8047527822" lon="11.2915694382">
		<tag k="name" v="Blytetjern" />
		<tag k="natural" v="water" />
		<tag k="ssr:stedsnr" v="793805" />
	</node>
	<node id="-33145" lat="59.8558833364" lon="11.2432833374">
		<tag k="name" v="Lund" />
		<tag k="place" v="farm" />
		<tag k="ssr:stedsnr" v="793747" />
	</node>
	<node id="-33144" lat="59.8502583329" lon="11.259722225">
		<tag k="name" v="Bergerud" />
		<tag k="place" v="farm" />
		<tag k="ssr:stedsnr" v="793746" />
	</node>
	<node id="-33143" lat="59.8583894657" lon="11.2283763134">
		<tag k="fixme" v="consider place=hamlet" />
		<tag k="name" v="Gjestad" />
		<tag k="place" v="farm" />
		<tag k="ssr:stedsnr" v="793742" />
	</node>
	<node id="-33142" lat="59.863566664" lon="11.3162111042">
		<tag k="name" v="Bråtemåsan" />
		<tag k="natural" v="wetland" />
		<tag k="ssr:stedsnr" v="793735" />
	</node>
	<node id="-33141" lat="59.867791665" lon="11.2410805595">
		<tag k="name" v="Sørli" />
		<tag k="place" v="isolated_dwelling" />
		<tag k="ssr:stedsnr" v="793730" />
	</node>
	<node id="-33140" lat="59.8646250036" lon="11.2208277707">
		<tag k="name" v="Gan" />
		<tag k="place" v="farm" />
		<tag k="ssr:stedsnr" v="793723" />
	</node>
	<node id="-33139" lat="59.8709277766" lon="11.2861888904">
		<tag k="name" v="Sollia" />
		<tag k="place" v="farm" />
		<tag k="ssr:stedsnr" v="793712" />
	</node>
	<node id="-33138" lat="59.871399998" lon="11.2239972283">
		<tag k="alt_name" v="By, nordre;By nordre" />
		<tag k="name" v="Nordre By" />
		<tag k="place" v="farm" />
		<tag k="ssr:stedsnr" v="793701" />
	</node>
	<node id="-33137" lat="59.8869611129" lon="11.1791722297">
		<tag k="name" v="Furusand" />
		<tag k="natural" v="cape" />
		<tag k="ssr:stedsnr" v="793686" />
	</node>
	<node id="-33136" lat="59.8867888896" lon="11.1884194462">
		<tag k="alt_name" v="Kvernhamar" />
		<tag k="name" v="Kvernhammer" />
		<tag k="place" v="farm" />
		<tag k="ssr:stedsnr" v="793680" />
	</node>
	<node id="-33135" lat="59.8971888896" lon="11.2229500029">
		<tag k="fixme" v="consider natural=peak for the most distinct mountains in the district" />
		<tag k="name" v="Kinnåsen" />
		<tag k="natural" v="hill" />
		<tag k="place" v="locality" />
		<tag k="ssr:stedsnr" v="793671" />
	</node>
	<node id="-33134" lat="59.8999833354" lon="11.1564777741">
		<tag k="name" v="Kusandråka" />
		<tag k="natural" v="strait" />
		<tag k="ssr:stedsnr" v="793662" />
	</node>
	<node id="-33133" lat="59.9163666672" lon="11.1846027866">
		<tag k="name" v="Klokkerud" />
		<tag k="place" v="isolated_dwelling" />
		<tag k="ssr:stedsnr" v="793630" />
	</node>
	<node id="-33132" lat="59.9221277789" lon="11.2036111054">
		<tag k="name" v="Gransbekken" />
		<tag k="ssr:stedsnr" v="793627" />
		<tag k="waterway" v="stream" />
	</node>
	<node id="-33131" lat="59.9237777745" lon="11.2127027736">
		<tag k="name" v="Hagen" />
		<tag k="place" v="farm" />
		<tag k="ssr:stedsnr" v="793612" />
	</node>
	<node id="-33130" lat="59.9276500002" lon="11.1932361043">
		<tag k="fixme" v="multiple name tags, choose one and add the other to alt_name" />
		<tag k="name" v="Flaen;Jensrud" />
		<tag k="place" v="farm" />
		<tag k="ssr:stedsnr" v="793610" />
	</node>
	<node id="-33129" lat="59.9346388848" lon="11.1569916629">
		<tag k="name" v="Enger" />
		<tag k="place" v="farm" />
		<tag k="ssr:stedsnr" v="793602" />
	</node>
	<node id="-33128" lat="59.9481305548" lon="11.192727782">
		<tag k="fixme" v="consider place=hamlet" />
		<tag k="name" v="Holter" />
		<tag k="place" v="farm" />
		<tag k="ssr:stedsnr" v="793592" />
	</node>
	<node id="-33127" lat="59.9590277736" lon="11.1369388941">
		<tag k="name" v="Sagholen" />
		<tag k="place" v="isolated_dwelling" />
		<tag k="ssr:stedsnr" v="793533" />
	</node>
	<node id="-33126" lat="59.9656805569" lon="11.1031638899">
		<tag k="fixme" v="consider place=hamlet" />
		<tag k="name" v="Jølsen" />
		<tag k="place" v="farm" />
		<tag k="ssr:stedsnr" v="793531" />
	</node>
	<node id="-33125" lat="59.9413722187" lon="11.1223388939">
		<tag k="name" v="Ek" />
		<tag k="place" v="locality" />
		<tag k="ssr:stedsnr" v="787855" />
	</node>
	<node id="-33124" lat="59.9241916693" lon="11.2457111028">
		<tag k="name" v="Elgelia" />
		<tag k="natural" v="slope" />
		<tag k="place" v="locality" />
		<tag k="ssr:stedsnr" v="787841" />
	</node>
	<node id="-33123" lat="59.7847277786" lon="11.261202786">
		<tag k="alt_name" v="Neset" />
		<tag k="fixme" v="consider place=hamlet" />
		<tag k="name" v="Enebakkneset" />
		<tag k="old_name" v="Enebakneset" />
		<tag k="place" v="village" />
		<tag k="ssr:stedsnr" v="787793" />
	</node>
	<node id="-33122" lat="59.8462694414" lon="11.27734167">
		<tag k="name" v="Tiurmyra" />
		<tag k="natural" v="wetland" />
		<tag k="ssr:stedsnr" v="787371" />
	</node>
	<node id="-33121" lat="59.8424250014" lon="11.2779333406">
		<tag k="name" v="Martemyra" />
		<tag k="natural" v="wetland" />
		<tag k="ssr:stedsnr" v="787361" />
	</node>
	<node id="-33120" lat="59.8733833355" lon="11.3271138813">
		<tag k="alt_name" v="Spjeldsmyrdalen" />
		<tag k="name" v="Spjellmyrdalen" />
		<tag k="natural" v="valley" />
		<tag k="place" v="locality" />
		<tag k="ssr:stedsnr" v="787055" />
	</node>
	<node id="-33119" lat="59.9244944435" lon="11.1560277832">
		<tag k="amenity" v="townhall" />
		<tag k="name" v="Herredshuset" />
		<tag k="ssr:stedsnr" v="785639" />
	</node>
	<node id="-33118" lat="59.9095750022" lon="11.2569583309">
		<tag k="name" v="Tretysjøhytta" />
		<tag k="place" v="isolated_dwelling" />
		<tag k="ssr:stedsnr" v="785615" />
	</node>
	<node id="-33117" lat="59.8652555515" lon="11.3009138945">
		<tag k="fixme" v="consider natural=peak for the most distinct mountains in the district" />
		<tag k="name" v="Lintjennåsen" />
		<tag k="natural" v="hill" />
		<tag k="place" v="locality" />
		<tag k="ssr:stedsnr" v="785580" />
	</node>
	<node id="-33116" lat="59.8767500036" lon="11.2528555611">
		<tag k="name" v="Mo" />
		<tag k="place" v="hamlet" />
		<tag k="ssr:stedsnr" v="785536" />
	</node>
	<node id="-33115" lat="59.8787527788" lon="11.2819944372">
		<tag k="name" v="Toskåa" />
		<tag k="ssr:stedsnr" v="785522" />
		<tag k="waterway" v="stream" />
	</node>
	<node id="-33114" lat="59.8867222213" lon="11.2480250031">
		<tag k="name" v="Ekebergholmen" />
		<tag k="place" v="locality" />
		<tag k="ssr:stedsnr" v="785520" />
	</node>
	<node id="-33113" lat="59.8770749964" lon="11.2134222184">
		<tag k="name" v="Veiby" />
		<tag k="place" v="farm" />
		<tag k="ssr:stedsnr" v="785490" />
	</node>
	<node id="-33112" lat="59.8790305531" lon="11.216822229">
		<tag k="name" v="Nordre Kinn" />
		<tag k="place" v="farm" />
		<tag k="ssr:stedsnr" v="785485" />
	</node>
	<node id="-33111" lat="59.9715833291" lon="11.1012805565">
		<tag k="name" v="Myrbo" />
		<tag k="place" v="locality" />
		<tag k="ssr:stedsnr" v="783884" />
	</node>
	<node id="-33110" lat="59.9666027813" lon="11.1015944446">
		<tag k="name" v="Kjona" />
		<tag k="place" v="locality" />
		<tag k="ssr:stedsnr" v="783881" />
	</node>
	<node id="-33109" lat="59.9593527759" lon="11.2056722163">
		<tag k="name" v="Olberg" />
		<tag k="place" v="locality" />
		<tag k="ssr:stedsnr" v="783880" />
	</node>
	<node id="-33108" lat="59.9539944423" lon="11.1783611066">
		<tag k="name" v="Vestelva" />
		<tag k="natural" v="strait" />
		<tag k="ssr:stedsnr" v="783879" />
	</node>
	<node id="-33107" lat="59.9478333364" lon="11.1929083421">
		<tag k="name" v="Holter" />
		<tag k="place" v="farm" />
		<tag k="ssr:stedsnr" v="783869" />
	</node>
	<node id="-33106" lat="59.8746861083" lon="11.240474993">
		<tag k="name" v="Brovoll" />
		<tag k="place" v="farm" />
		<tag k="ssr:stedsnr" v="783103" />
	</node>
	<node id="-33105" lat="59.9835361072" lon="11.1880611133">
		<tag k="name" v="Skjortebytta" />
		<tag k="natural" v="water" />
		<tag k="ssr:stedsnr" v="793497" />
	</node>
	<node id="-33104" lat="59.9096805533" lon="11.1263777768">
		<tag k="name" v="Rudsholmen" />
		<tag k="natural" v="cape" />
		<tag k="ssr:stedsnr" v="770683" />
	</node>
	<node id="-33103" lat="59.9036527773" lon="11.1134555518">
		<tag k="name" v="Kavringen" />
		<tag k="place" v="islet" />
		<tag k="ssr:stedsnr" v="770674" />
	</node>
	<node id="-33102" lat="59.8901305516" lon="11.1575527832">
		<tag k="name" v="Oversand sameie" />
		<tag k="place" v="locality" />
		<tag k="ssr:stedsnr" v="770672" />
	</node>
	<node id="-33101" lat="59.8596750021" lon="11.2415916629">
		<tag k="name" v="Bjønnhaugen" />
		<tag k="natural" v="hill" />
		<tag k="place" v="locality" />
		<tag k="ssr:stedsnr" v="769601" />
	</node>
	<node id="-33100" lat="59.8616833301" lon="11.2873611121">
		<tag k="name" v="Orrhønedalen" />
		<tag k="natural" v="valley" />
		<tag k="place" v="locality" />
		<tag k="ssr:stedsnr" v="769326" />
	</node>
	<node id="-33099" lat="59.8603000019" lon="11.2810138968">
		<tag k="name" v="Svenskerudlia" />
		<tag k="natural" v="slope" />
		<tag k="place" v="locality" />
		<tag k="ssr:stedsnr" v="769324" />
	</node>
	<node id="-33098" lat="59.8630166623" lon="11.2210444458">
		<tag k="name" v="Hagen" />
		<tag k="place" v="farm" />
		<tag k="ssr:stedsnr" v="769322" />
	</node>
	<node id="-33097" lat="59.766166663" lon="11.27642223">
		<tag k="name" v="Teig" />
		<tag k="place" v="farm" />
		<tag k="ssr:stedsnr" v="767472" />
	</node>
	<node id="-33096" lat="59.7784000032" lon="11.2791277849">
		<tag k="building" v="industrial" />
		<tag k="name" v="Svartdal bruk" />
		<tag k="ssr:stedsnr" v="767285" />
	</node>
	<node id="-33095" lat="59.7773416636" lon="11.261274999">
		<tag k="alt_name" v="Melnes vestre" />
		<tag k="name" v="Vestre Melnes" />
		<tag k="place" v="farm" />
		<tag k="ssr:stedsnr" v="767283" />
	</node>
	<node id="-33094" lat="59.7690333337" lon="11.3327944497">
		<tag k="name" v="Hansketjennmoen" />
		<tag k="place" v="locality" />
		<tag k="ssr:stedsnr" v="767273" />
	</node>
	<node id="-33093" lat="59.7783944413" lon="11.3088083342">
		<tag k="name" v="Stordalhalsen" />
		<tag k="natural" v="valley" />
		<tag k="place" v="locality" />
		<tag k="ssr:stedsnr" v="767267" />
	</node>
	<node id="-33092" lat="59.7908083299" lon="11.285141672">
		<tag k="name" v="Det breie sundet" />
		<tag k="natural" v="strait" />
		<tag k="ssr:stedsnr" v="767254" />
	</node>
	<node id="-33091" lat="59.7949388914" lon="11.2509694494">
		<tag k="name" v="Berg" />
		<tag k="place" v="farm" />
		<tag k="ssr:stedsnr" v="767249" />
	</node>
	<node id="-33090" lat="59.7929833341" lon="11.2939527845">
		<tag k="name" v="Seterlandet" />
		<tag k="natural" v="beach" />
		<tag k="ssr:stedsnr" v="767239" />
	</node>
	<node id="-33089" lat="59.8191194477" lon="11.2489083298">
		<tag k="name" v="Legermoen" />
		<tag k="place" v="locality" />
		<tag k="ssr:stedsnr" v="767360" />
	</node>
	<node id="-33088" lat="59.8262583319" lon="11.2865361066">
		<tag k="name" v="Bognemyra" />
		<tag k="natural" v="wetland" />
		<tag k="ssr:stedsnr" v="767354" />
	</node>
	<node id="-33087" lat="59.8370583337" lon="11.2791027816">
		<tag k="name" v="Skjærsmåsan" />
		<tag k="natural" v="wetland" />
		<tag k="ssr:stedsnr" v="767335" />
	</node>
	<node id="-33086" lat="59.8336055583" lon="11.2732083393">
		<tag k="name" v="Harehøgda" />
		<tag k="natural" v="hill" />
		<tag k="place" v="locality" />
		<tag k="ssr:stedsnr" v="767336" />
	</node>
	<node id="-33085" lat="59.8027027808" lon="11.261619441">
		<tag k="fixme" v="consider natural=peak for the most distinct mountains in the district" />
		<tag k="name" v="Høgås" />
		<tag k="natural" v="hill" />
		<tag k="place" v="locality" />
		<tag k="ssr:stedsnr" v="733823" />
	</node>
	<node id="-33084" lat="59.8065666661" lon="11.2527527756">
		<tag k="name" v="Ersrud" />
		<tag k="place" v="farm" />
		<tag k="ssr:stedsnr" v="733770" />
	</node>
	<node id="-33083" lat="59.8380222194" lon="11.2560388885">
		<tag k="name" v="Holen" />
		<tag k="place" v="isolated_dwelling" />
		<tag k="ssr:stedsnr" v="733756" />
	</node>
	<node id="-33082" lat="59.8445777771" lon="11.2905777721">
		<tag k="alt_name" v="Heiremåsan" />
		<tag k="name" v="Heirmåsan" />
		<tag k="natural" v="wetland" />
		<tag k="ssr:stedsnr" v="733719" />
	</node>
	<node id="-33081" lat="59.8460166702" lon="11.3147916745">
		<tag k="fixme" v="consider natural=peak for the most distinct mountains in the district" />
		<tag k="name" v="Geitskinnet" />
		<tag k="natural" v="hill" />
		<tag k="place" v="locality" />
		<tag k="ssr:stedsnr" v="733715" />
	</node>
	<node id="-33080" lat="59.8458388848" lon="11.2206138806">
		<tag k="name" v="Lindjulsvika" />
		<tag k="natural" v="bay" />
		<tag k="ssr:stedsnr" v="733708" />
	</node>
	<node id="-33079" lat="59.8456444437" lon="11.2325777843">
		<tag k="name" v="Utsikt" />
		<tag k="place" v="farm" />
		<tag k="ssr:stedsnr" v="733709" />
	</node>
	<node id="-33078" lat="59.859927781" lon="11.3312972152">
		<tag k="fixme" v="consider place=hamlet" />
		<tag k="name" v="Midtskog" />
		<tag k="place" v="farm" />
		<tag k="ssr:stedsnr" v="733680" />
	</node>
	<node id="-33077" lat="59.8565194411" lon="11.2960416607">
		<tag k="alt_name" v="Tisteldalen" />
		<tag k="name" v="Tistedalen" />
		<tag k="natural" v="valley" />
		<tag k="place" v="locality" />
		<tag k="ssr:stedsnr" v="733677" />
	</node>
	<node id="-33076" lat="59.8642666706" lon="11.2389361127">
		<tag k="alt_name" v="Borghaugen" />
		<tag k="name" v="Borghaug" />
		<tag k="natural" v="hill" />
		<tag k="place" v="locality" />
		<tag k="ssr:stedsnr" v="733675" />
	</node>
	<node id="-33075" lat="59.8685138922" lon="11.2694111106">
		<tag k="name" v="Hagen" />
		<tag k="place" v="farm" />
		<tag k="ssr:stedsnr" v="733670" />
	</node>
	<node id="-33074" lat="59.8698722268" lon="11.2150861065">
		<tag k="fixme" v="consider place=hamlet" />
		<tag k="name" v="Blesa" />
		<tag k="place" v="farm" />
		<tag k="ssr:stedsnr" v="733657" />
	</node>
	<node id="-33073" lat="59.8823444419" lon="11.2723027722">
		<tag k="alt_name" v="Breidmåsan" />
		<tag k="name" v="Breimåsan" />
		<tag k="natural" v="wetland" />
		<tag k="ssr:stedsnr" v="733648" />
	</node>
	<node id="-33072" lat="59.9046388872" lon="11.1230694388">
		<tag k="alt_name" v="Rusholet" />
		<tag k="name" v="Rudsholet" />
		<tag k="natural" v="strait" />
		<tag k="ssr:stedsnr" v="733580" />
	</node>
	<node id="-33071" lat="59.9134555557" lon="11.1597638964">
		<tag k="name" v="Hov" />
		<tag k="place" v="farm" />
		<tag k="ssr:stedsnr" v="733577" />
	</node>
	<node id="-33070" lat="59.9263611156" lon="11.2538750018">
		<tag k="alt_name" v="Abbortjernet" />
		<tag k="name" v="Abbortjern" />
		<tag k="natural" v="water" />
		<tag k="ssr:stedsnr" v="733568" />
	</node>
	<node id="-33069" lat="59.92257222" lon="11.168125002">
		<tag k="name" v="Sundet" />
		<tag k="place" v="farm" />
		<tag k="ssr:stedsnr" v="733566" />
	</node>
	<node id="-33068" lat="59.9157584582" lon="11.1776222135">
		<tag k="name" v="Løken" />
		<tag k="place" v="hamlet" />
		<tag k="ssr:stedsnr" v="733565" />
	</node>
	<node id="-33067" lat="59.9341194466" lon="11.2114388864">
		<tag k="name" v="Hestebråten" />
		<tag k="place" v="farm" />
		<tag k="ssr:stedsnr" v="733532" />
	</node>
	<node id="-33066" lat="59.9528501084" lon="11.1481702646">
		<tag k="fixme" v="consider natural=peak for the most distinct mountains in the district" />
		<tag k="name" v="Bergeråsen" />
		<tag k="natural" v="hill" />
		<tag k="place" v="locality" />
		<tag k="ssr:stedsnr" v="733515" />
	</node>
	<node id="-33065" lat="59.9598611095" lon="11.2134805554">
		<tag k="fixme" v="consider natural=peak for the most distinct mountains in the district" />
		<tag k="name" v="Piggåsen" />
		<tag k="natural" v="hill" />
		<tag k="place" v="locality" />
		<tag k="ssr:stedsnr" v="733512" />
	</node>
	<node id="-33064" lat="59.787919441" lon="11.2859055514">
		<tag k="alt_name" v="Lintjenn" />
		<tag k="name" v="Lintjernet" />
		<tag k="natural" v="water" />
		<tag k="ssr:stedsnr" v="733508" />
	</node>
	<node id="-33063" lat="59.7687916648" lon="11.3290361188">
		<tag k="alt_name" v="Hansketjenn" />
		<tag k="name" v="Hansketjern" />
		<tag k="natural" v="water" />
		<tag k="ssr:stedsnr" v="733507" />
	</node>
	<node id="-33062" lat="59.7765305582" lon="11.3135972229">
		<tag k="alt_name" v="Gravtjern, nordre;Nordre Gravtjenn" />
		<tag k="name" v="Nordre Gravtjern" />
		<tag k="natural" v="water" />
		<tag k="ssr:stedsnr" v="732846" />
	</node>
	<node id="-33061" lat="59.8228555515" lon="11.2383666743">
		<tag k="alt_name" v="Fugli" />
		<tag k="name" v="Fuglli" />
		<tag k="place" v="farm" />
		<tag k="ssr:stedsnr" v="732765" />
	</node>
	<node id="-33060" lat="59.8573583293" lon="11.2329694379">
		<tag k="fixme" v="consider place=hamlet" />
		<tag k="name" v="Gansdalen" />
		<tag k="place" v="village" />
		<tag k="ssr:stedsnr" v="732717" />
	</node>
	<node id="-33059" lat="59.8661527753" lon="11.3411138914">
		<tag k="alt_name" v="Bjønntjenn" />
		<tag k="name" v="Bjørntjern" />
		<tag k="natural" v="water" />
		<tag k="ssr:stedsnr" v="732707" />
	</node>
	<node id="-33058" lat="59.9008277812" lon="11.1624333371">
		<tag k="alt_name" v="Bjanes, søndre" />
		<tag k="name" v="Søndre Bjanes" />
		<tag k="place" v="locality" />
		<tag k="ssr:stedsnr" v="732674" />
	</node>
	<node id="-33057" lat="59.9068694447" lon="11.1456749992">
		<tag k="alt_name" v="Jushaugsandråka" />
		<tag k="name" v="Gjushaugsandråka" />
		<tag k="ssr:stedsnr" v="732660" />
		<tag k="waterway" v="stream" />
	</node>
	<node id="-33056" lat="59.9311555519" lon="11.1943111198">
		<tag k="name" v="Bakås" />
		<tag k="place" v="farm" />
		<tag k="ssr:stedsnr" v="732596" />
	</node>
	<node id="-33055" lat="59.9440388857" lon="11.1912749976">
		<tag k="fixme" v="consider place=hamlet" />
		<tag k="name" v="Kjustad" />
		<tag k="place" v="farm" />
		<tag k="ssr:stedsnr" v="732592" />
	</node>
	<node id="-33054" lat="59.8410361134" lon="11.2485305613">
		<tag k="name" v="Ulverudåa" />
		<tag k="ssr:stedsnr" v="727366" />
		<tag k="waterway" v="river" />
	</node>
	<node id="-33053" lat="59.844958337" lon="11.2502944467">
		<tag k="name" v="Ersrudhagen" />
		<tag k="place" v="locality" />
		<tag k="ssr:stedsnr" v="727348" />
	</node>
	<node id="-33052" lat="59.9184750004" lon="11.170880564">
		<tag k="name" v="Sundhagen" />
		<tag k="place" v="quarter" />
		<tag k="ssr:stedsnr" v="725636" />
	</node>
	<node id="-33051" lat="59.9197166627" lon="11.1784750071">
		<tag k="name" v="Bakkeli" />
		<tag k="place" v="farm" />
		<tag k="ssr:stedsnr" v="725623" />
	</node>
	<node id="-33050" lat="59.9385194458" lon="11.1656555532">
		<tag k="name" v="Varåa" />
		<tag k="ssr:stedsnr" v="725607" />
		<tag k="waterway" v="stream" />
	</node>
	<node id="-33049" lat="59.8698083298" lon="11.2972972229">
		<tag k="name" v="Olahølsmyra" />
		<tag k="natural" v="wetland" />
		<tag k="ssr:stedsnr" v="725544" />
	</node>
	<node id="-33048" lat="59.8897861087" lon="11.2124638903">
		<tag k="name" v="Svendalen" />
		<tag k="natural" v="valley" />
		<tag k="place" v="locality" />
		<tag k="ssr:stedsnr" v="725497" />
	</node>
	<node id="-33047" lat="59.8760083312" lon="11.3009416623">
		<tag k="name" v="Stulterhølet" />
		<tag k="place" v="locality" />
		<tag k="ssr:stedsnr" v="725485" />
	</node>
	<node id="-33046" lat="59.8824472255" lon="11.2022333386">
		<tag k="name" v="Nordre Svindal" />
		<tag k="place" v="farm" />
		<tag k="ssr:stedsnr" v="725469" />
	</node>
	<node id="-33045" lat="59.9598749983" lon="11.1528444489">
		<tag k="name" v="Bjønndalen" />
		<tag k="natural" v="valley" />
		<tag k="place" v="locality" />
		<tag k="ssr:stedsnr" v="722998" />
	</node>
	<node id="-33044" lat="59.9399333343" lon="11.1974722141">
		<tag k="name" v="Karlsrud" />
		<tag k="place" v="farm" />
		<tag k="ssr:stedsnr" v="722896" />
	</node>
	<node id="-33043" lat="59.9429583329" lon="11.1236027802">
		<tag k="name" v="Vestre Enga" />
		<tag k="place" v="quarter" />
		<tag k="ssr:stedsnr" v="722888" />
	</node>
	<node id="-33042" lat="59.9426694456" lon="11.1248555554">
		<tag k="name" v="Østre Enga" />
		<tag k="place" v="quarter" />
		<tag k="ssr:stedsnr" v="722889" />
	</node>
	<node id="-33041" lat="59.9711916638" lon="11.1873027833">
		<tag k="name" v="Setermåsan" />
		<tag k="natural" v="wetland" />
		<tag k="ssr:stedsnr" v="722140" />
	</node>
	<node id="-33040" lat="59.9056222231" lon="11.2273777768">
		<tag k="name" v="Lintjennmåsan" />
		<tag k="natural" v="wetland" />
		<tag k="ssr:stedsnr" v="709729" />
	</node>
	<node id="-33039" lat="59.9155055577" lon="11.1695416652">
		<tag k="name" v="Ridderhaugen" />
		<tag k="natural" v="hill" />
		<tag k="place" v="locality" />
		<tag k="ssr:stedsnr" v="709694" />
	</node>
	<node id="-33038" lat="59.9105777816" lon="11.1251666649">
		<tag k="name" v="Balnesevja" />
		<tag k="natural" v="bay" />
		<tag k="ssr:stedsnr" v="709685" />
	</node>
	<node id="-33037" lat="59.9082722225" lon="11.1576055604">
		<tag k="name" v="Solheim" />
		<tag k="place" v="isolated_dwelling" />
		<tag k="ssr:stedsnr" v="709683" />
	</node>
	<node id="-33036" lat="59.9032750026" lon="11.1622861142">
		<tag k="name" v="Vestre Bjanes" />
		<tag k="place" v="farm" />
		<tag k="ssr:stedsnr" v="709675" />
	</node>
	<node id="-33035" lat="59.8622416689" lon="11.2497111109">
		<tag k="name" v="Gjestadhagen" />
		<tag k="place" v="locality" />
		<tag k="ssr:stedsnr" v="709601" />
	</node>
	<node id="-33034" lat="59.8596527782" lon="11.2381972156">
		<tag k="name" v="Kilde" />
		<tag k="place" v="farm" />
		<tag k="ssr:stedsnr" v="709599" />
	</node>
	<node id="-33032" lat="59.9281250007" lon="11.1994833292">
		<tag k="name" v="Løkka" />
		<tag k="place" v="farm" />
		<tag k="ssr:stedsnr" v="707837" />
	</node>
	<node id="-33031" lat="59.8690027774" lon="11.2671944459">
		<tag k="name" v="Hagendammen" />
		<tag k="natural" v="water" />
		<tag k="ssr:stedsnr" v="707621" />
	</node>
	<node id="-33030" lat="59.869463887" lon="11.2554333415">
		<tag k="name" v="Sverterud" />
		<tag k="place" v="farm" />
		<tag k="ssr:stedsnr" v="707620" />
	</node>
	<node id="-33029" lat="59.8172527759" lon="11.2603055513">
		<tag k="fixme" v="consider natural=peak for the most distinct mountains in the district" />
		<tag k="name" v="Kreppahøgdene" />
		<tag k="natural" v="hill" />
		<tag k="place" v="locality" />
		<tag k="ssr:stedsnr" v="707379" />
	</node>
	<node id="-33028" lat="59.8517194437" lon="11.2181999965">
		<tag k="alt_name" v="Østanes øvre" />
		<tag k="name" v="Øvre Østanes" />
		<tag k="place" v="farm" />
		<tag k="ssr:stedsnr" v="707367" />
	</node>
	<node id="-33027" lat="59.8461194408" lon="11.2157583357">
		<tag k="name" v="Delingstangen" />
		<tag k="natural" v="cape" />
		<tag k="ssr:stedsnr" v="707361" />
	</node>
	<node id="-33026" lat="59.7762388898" lon="11.2737250018">
		<tag k="name" v="Kvernhusbekken" />
		<tag k="ssr:stedsnr" v="707313" />
		<tag k="waterway" v="stream" />
	</node>
	<node id="-33025" lat="59.7866694425" lon="11.2699444354">
		<tag k="amenity" v="community_centre" />
		<tag k="name" v="Neset grendehus" />
		<tag k="ssr:stedsnr" v="707307" />
	</node>
	<node id="-33024" lat="59.7841305566" lon="11.274011103">
		<tag k="alt_name" v="Bøler søndre" />
		<tag k="name" v="Søndre Bøler" />
		<tag k="place" v="farm" />
		<tag k="ssr:stedsnr" v="707303" />
	</node>
	<node id="-33023" lat="59.7673444408" lon="11.3190361111">
		<tag k="name" v="Gravtjennmåsan" />
		<tag k="natural" v="wetland" />
		<tag k="ssr:stedsnr" v="707299" />
	</node>
	<node id="-33022" lat="59.7717611129" lon="11.3089916587">
		<tag k="fixme" v="consider natural=peak for the most distinct mountains in the district" />
		<tag k="name" v="Nordre Minjarudkollen" />
		<tag k="natural" v="hill" />
		<tag k="place" v="locality" />
		<tag k="ssr:stedsnr" v="707297" />
	</node>
	<node id="-33021" lat="59.7976027766" lon="11.2652499996">
		<tag k="name" v="Dammyra" />
		<tag k="natural" v="wetland" />
		<tag k="ssr:stedsnr" v="707285" />
	</node>
	<node id="-33020" lat="59.7953055587" lon="11.2978027822">
		<tag k="name" v="Ingermåsan" />
		<tag k="natural" v="wetland" />
		<tag k="ssr:stedsnr" v="707277" />
	</node>
	<node id="-33019" lat="59.8099055515" lon="11.246130552">
		<tag k="name" v="Marikjelda" />
		<tag k="place" v="locality" />
		<tag k="ssr:stedsnr" v="707271" />
	</node>
	<node id="-33018" lat="59.7934525879" lon="11.2872675354">
		<tag k="name" v="Bølertjern" />
		<tag k="natural" v="water" />
		<tag k="old_name" v="Bølertjenn" />
		<tag k="ssr:stedsnr" v="672839" />
		<tag k="water" v="lake" />
	</node>
	<node id="-33017" lat="59.8522888887" lon="11.2768055503">
		<tag k="name" v="Karimåsan" />
		<tag k="natural" v="wetland" />
		<tag k="ssr:stedsnr" v="672716" />
	</node>
	<node id="-33016" lat="59.8658611098" lon="11.2061916746">
		<tag k="name" v="Blesavika" />
		<tag k="natural" v="bay" />
		<tag k="ssr:stedsnr" v="672679" />
	</node>
	<node id="-33015" lat="59.8769388867" lon="11.2474527773">
		<tag k="alt_name" v="Stensrud" />
		<tag k="name" v="Steinsrud" />
		<tag k="place" v="isolated_dwelling" />
		<tag k="ssr:stedsnr" v="672670" />
	</node>
	<node id="-33014" lat="59.8766444404" lon="11.2043527745">
		<tag k="name" v="Hagen" />
		<tag k="place" v="farm" />
		<tag k="ssr:stedsnr" v="672665" />
	</node>
	<node id="-33013" lat="59.8741111144" lon="11.2330749984">
		<tag k="name" v="Ånnerud" />
		<tag k="place" v="farm" />
		<tag k="ssr:stedsnr" v="672659" />
	</node>
	<node id="-33012" lat="59.8887527814" lon="11.2011333286">
		<tag k="name" v="Gaukerud" />
		<tag k="place" v="farm" />
		<tag k="ssr:stedsnr" v="672638" />
	</node>
	<node id="-33011" lat="59.9062777807" lon="11.1833361058">
		<tag k="name" v="Hellerud" />
		<tag k="place" v="farm" />
		<tag k="ssr:stedsnr" v="672599" />
	</node>
	<node id="-33010" lat="59.9160333301" lon="11.2437444465">
		<tag k="alt_name" v="Svarttjenn" />
		<tag k="name" v="Svarttjern" />
		<tag k="natural" v="water" />
		<tag k="ssr:stedsnr" v="672593" />
	</node>
	<node id="-33009" lat="59.9218972232" lon="11.1989972167">
		<tag k="name" v="Gran" />
		<tag k="place" v="farm" />
		<tag k="ssr:stedsnr" v="672571" />
	</node>
	<node id="-33008" lat="59.923125003" lon="11.1406249992">
		<tag k="fixme" v="consider place=suburb, village or hamlet" />
		<tag k="name" v="Nerdrum" />
		<tag k="place" v="quarter" />
		<tag k="ssr:stedsnr" v="672564" />
	</node>
	<node id="-33007" lat="59.9246305569" lon="11.1571111131">
		<tag k="name" v="Fetsund" />
		<tag k="place" v="village" />
		<tag k="ssr:stedsnr" v="672544" />
	</node>
	<node id="-33006" lat="59.9492277774" lon="11.2119611108">
		<tag k="name" v="Kroken" />
		<tag k="place" v="farm" />
		<tag k="ssr:stedsnr" v="672508" />
	</node>
	<node id="-33005" lat="59.9524166667" lon="11.1130861125">
		<tag k="name" v="Borgen" />
		<tag k="place" v="farm" />
		<tag k="ssr:stedsnr" v="672482" />
	</node>
	<node id="-33004" lat="59.9663305591" lon="11.1369972176">
		<tag k="name" v="Skogen" />
		<tag k="place" v="farm" />
		<tag k="ssr:stedsnr" v="672459" />
	</node>
	<node id="-33003" lat="59.9355611078" lon="11.0783888957">
		<tag k="fixme" v="multiple name tags, choose one and add the other to alt_name" />
		<tag k="name" v="Sundtangen;Tutangen" />
		<tag k="natural" v="cape" />
		<tag k="ssr:stedsnr" v="672062" />
	</node>
	<node id="-33002" lat="59.7840333354" lon="11.2452083396">
		<tag k="name" v="Ringstad" />
		<tag k="place" v="farm" />
		<tag k="ssr:stedsnr" v="671870" />
	</node>
	<node id="-33001" lat="59.7847756342" lon="11.2745591321">
		<tag k="fixme" v="consider place=hamlet" />
		<tag k="name" v="Bøler" />
		<tag k="place" v="farm" />
		<tag k="ssr:stedsnr" v="671851" />
	</node>
	<node id="-33000" lat="59.8202333335" lon="11.268105547">
		<tag k="alt_name" v="Trætta" />
		<tag k="name" v="Tretta" />
		<tag k="place" v="farm" />
		<tag k="ssr:stedsnr" v="671805" />
	</node>
	<node id="-32999" lat="59.9365194456" lon="11.246024995">
		<tag k="name" v="Brattås" />
		<tag k="place" v="locality" />
		<tag k="ssr:stedsnr" v="666830" />
	</node>
	<node id="-32998" lat="59.8791916706" lon="11.2940666671">
		<tag k="name" v="Bleikehjellen" />
		<tag k="natural" v="hill" />
		<tag k="place" v="locality" />
		<tag k="ssr:stedsnr" v="664699" />
	</node>
	<node id="-32997" lat="59.9312694472" lon="11.1427750011">
		<tag k="name" v="Hovinhøgda" />
		<tag k="place" v="locality" />
		<tag k="ssr:stedsnr" v="664681" />
	</node>
	<node id="-32996" lat="59.9231194466" lon="11.1328555618">
		<tag k="name" v="Hovinstrand" />
		<tag k="natural" v="beach" />
		<tag k="ssr:stedsnr" v="664667" />
	</node>
	<node id="-32995" lat="59.92717222" lon="11.1299666748">
		<tag k="name" v="Elvestrand" />
		<tag k="natural" v="beach" />
		<tag k="ssr:stedsnr" v="664663" />
	</node>
	<node id="-32994" lat="59.8625416692" lon="11.2988861186">
		<tag k="name" v="Langmyrene" />
		<tag k="natural" v="wetland" />
		<tag k="ssr:stedsnr" v="664584" />
	</node>
	<node id="-32993" lat="59.8698083307" lon="11.3407277724">
		<tag k="fixme" v="consider natural=peak for the most distinct mountains in the district" />
		<tag k="name" v="Tyrihjellhøgdene" />
		<tag k="natural" v="hill" />
		<tag k="place" v="locality" />
		<tag k="ssr:stedsnr" v="664575" />
	</node>
	<node id="-32991" lat="59.8786972216" lon="11.2216250015">
		<tag k="name" v="Nedre Kinn" />
		<tag k="place" v="farm" />
		<tag k="ssr:stedsnr" v="664495" />
	</node>
	<node id="-32990" lat="59.966119443" lon="11.1238499927">
		<tag k="name" v="Askedalen" />
		<tag k="natural" v="valley" />
		<tag k="place" v="locality" />
		<tag k="ssr:stedsnr" v="661915" />
	</node>
	<node id="-32989" lat="59.9628777822" lon="11.1805749955">
		<tag k="name" v="Engerdal" />
		<tag k="place" v="isolated_dwelling" />
		<tag k="ssr:stedsnr" v="661911" />
	</node>
	<node id="-32988" lat="59.9726416645" lon="11.1121888974">
		<tag k="name" v="Jølsen skog" />
		<tag k="place" v="locality" />
		<tag k="ssr:stedsnr" v="661902" />
	</node>
	<node id="-32987" lat="59.943577775" lon="11.244122229">
		<tag k="name" v="Mattisnebben" />
		<tag k="natural" v="cape" />
		<tag k="ssr:stedsnr" v="661891" />
	</node>
	<node id="-32986" lat="59.9457972253" lon="11.2382555579">
		<tag k="name" v="Tofsrudnebben" />
		<tag k="natural" v="cape" />
		<tag k="ssr:stedsnr" v="661889" />
	</node>
	<node id="-32985" lat="59.9607416678" lon="11.1508583331">
		<tag k="fixme" v="consider natural=peak for the most distinct mountains in the district" />
		<tag k="name" v="Nordre Veståsen" />
		<tag k="natural" v="hill" />
		<tag k="place" v="locality" />
		<tag k="ssr:stedsnr" v="661882" />
	</node>
	<node id="-32984" lat="59.9459277774" lon="11.1416805606">
		<tag k="name" v="Tienåsen" />
		<tag k="natural" v="hill" />
		<tag k="place" v="locality" />
		<tag k="ssr:stedsnr" v="661862" />
	</node>
	<node id="-32983" lat="59.9523724274" lon="11.1482950412">
		<tag k="name" v="Tårnet" />
		<tag k="place" v="locality" />
		<tag k="ssr:stedsnr" v="661739" />
	</node>
	<node id="-32982" lat="59.9178388904" lon="11.1828249944">
		<tag k="name" v="Klokkerud" />
		<tag k="place" v="farm" />
		<tag k="ssr:stedsnr" v="661111" />
	</node>
	<node id="-32981" lat="59.7657861152" lon="11.3476527832">
		<tag k="historic" v="shieling" />
		<tag k="name" v="Lindebergsetra" />
		<tag k="place" v="locality" />
		<tag k="ssr:stedsnr" v="661108" />
	</node>
	<node id="-32980" lat="59.906888887" lon="11.2071083386">
		<tag k="name" v="Løkenmåsan" />
		<tag k="natural" v="wetland" />
		<tag k="ssr:stedsnr" v="648728" />
	</node>
	<node id="-32979" lat="59.915441665" lon="11.1603611073">
		<tag k="name" v="Kjempehaugen" />
		<tag k="natural" v="hill" />
		<tag k="place" v="locality" />
		<tag k="ssr:stedsnr" v="648697" />
	</node>
	<node id="-32978" lat="59.9067638907" lon="11.1476888951">
		<tag k="name" v="Veslesand" />
		<tag k="natural" v="beach" />
		<tag k="ssr:stedsnr" v="648695" />
	</node>
	<node id="-32977" lat="59.8576888863" lon="11.2631916704">
		<tag k="fixme" v="consider natural=peak for the most distinct mountains in the district" />
		<tag k="name" v="Vestbyåsen" />
		<tag k="natural" v="hill" />
		<tag k="place" v="locality" />
		<tag k="ssr:stedsnr" v="648612" />
	</node>
	<node id="-32976" lat="59.8593416675" lon="11.2273361189">
		<tag k="alt_name" v="Gjestad nordre" />
		<tag k="name" v="Nordre Gjestad" />
		<tag k="place" v="farm" />
		<tag k="ssr:stedsnr" v="648358" />
	</node>
	<node id="-32975" lat="59.9285444406" lon="11.1984722234">
		<tag k="name" v="Saga" />
		<tag k="place" v="isolated_dwelling" />
		<tag k="ssr:stedsnr" v="646821" />
	</node>
	<node id="-32974" lat="59.7661583334" lon="11.2841166642">
		<tag k="fixme" v="consider natural=peak for the most distinct mountains in the district" />
		<tag k="name" v="Kjellåsen" />
		<tag k="natural" v="hill" />
		<tag k="place" v="locality" />
		<tag k="ssr:stedsnr" v="646466" />
	</node>
	<node id="-32973" lat="59.8378222246" lon="11.2272888825">
		<tag k="alt_name" v="Barkenes søndre" />
		<tag k="name" v="Søndre Barkenes" />
		<tag k="place" v="farm" />
		<tag k="ssr:stedsnr" v="646347" />
	</node>
	<node id="-32972" lat="59.8276000015" lon="11.2420750085">
		<tag k="name" v="Olberg" />
		<tag k="place" v="locality" />
		<tag k="ssr:stedsnr" v="646345" />
	</node>
	<node id="-32971" lat="59.8329222251" lon="11.2866555621">
		<tag k="name" v="Lauvmoen" />
		<tag k="place" v="locality" />
		<tag k="ssr:stedsnr" v="646325" />
	</node>
	<node id="-32970" lat="59.7770416643" lon="11.283933325">
		<tag k="name" v="Ertekleivlia" />
		<tag k="natural" v="slope" />
		<tag k="place" v="locality" />
		<tag k="ssr:stedsnr" v="646293" />
	</node>
	<node id="-32969" lat="59.7766766309" lon="11.2418284276">
		<tag k="name" v="Nordre Melnesvika" />
		<tag k="natural" v="bay" />
		<tag k="ssr:stedsnr" v="646291" />
	</node>
	<node id="-32968" lat="59.7776500027" lon="11.2621694438">
		<tag k="alt_name" v="Melnes nordre" />
		<tag k="name" v="Nordre Melnes" />
		<tag k="place" v="farm" />
		<tag k="ssr:stedsnr" v="646288" />
	</node>
	<node id="-32967" lat="59.7817694424" lon="11.2524527783">
		<tag k="name" v="Nistua" />
		<tag k="place" v="locality" />
		<tag k="ssr:stedsnr" v="646286" />
	</node>
	<node id="-32966" lat="59.7801833336" lon="11.3184111051">
		<tag k="name" v="Midtre Stordalsmyra" />
		<tag k="natural" v="wetland" />
		<tag k="ssr:stedsnr" v="646273" />
	</node>
	<node id="-32965" lat="59.7947111084" lon="11.2848583375">
		<tag k="name" v="Adams baderi" />
		<tag k="place" v="islet" />
		<tag k="ssr:stedsnr" v="646266" />
	</node>
	<node id="-32963" lat="59.772063893" lon="11.3094194449">
		<tag k="alt_name" v="Minjarud Kollene" />
		<tag k="fixme" v="consider natural=peak for the most distinct mountains in the district" />
		<tag k="name" v="Minjarudkollen" />
		<tag k="natural" v="hill" />
		<tag k="place" v="locality" />
		<tag k="ssr:stedsnr" v="611919" />
	</node>
	<node id="-32962" lat="59.7951250036" lon="11.256180552">
		<tag k="fixme" v="consider place=hamlet" />
		<tag k="name" v="Ulsrud" />
		<tag k="place" v="farm" />
		<tag k="ssr:stedsnr" v="611853" />
	</node>
	<node id="-32961" lat="59.8022110912" lon="11.3051378327">
		<tag k="name" v="Korsdalen" />
		<tag k="natural" v="valley" />
		<tag k="place" v="locality" />
		<tag k="ssr:stedsnr" v="611848" />
	</node>
	<node id="-32960" lat="59.8612027789" lon="11.3142972301">
		<tag k="name" v="Saga" />
		<tag k="place" v="farm" />
		<tag k="ssr:stedsnr" v="611716" />
	</node>
	<node id="-32959" lat="59.8614083349" lon="11.255763891">
		<tag k="name" v="Skinnerud" />
		<tag k="place" v="farm" />
		<tag k="ssr:stedsnr" v="611705" />
	</node>
	<node id="-32958" lat="59.8705361107" lon="11.3122138808">
		<tag k="name" v="Fuglemåsan" />
		<tag k="natural" v="wetland" />
		<tag k="ssr:stedsnr" v="611693" />
	</node>
	<node id="-32957" lat="59.8886694402" lon="11.2737888909">
		<tag k="alt_name" v="Breidmåsatjernet" />
		<tag k="name" v="Breimåsatjennet" />
		<tag k="natural" v="water" />
		<tag k="ssr:stedsnr" v="611678" />
	</node>
	<node id="-32956" lat="59.8966527742" lon="11.1926611175">
		<tag k="name" v="Råmyra" />
		<tag k="place" v="isolated_dwelling" />
		<tag k="ssr:stedsnr" v="611670" />
	</node>
	<node id="-32955" lat="59.899552781" lon="11.1711805578">
		<tag k="name" v="Monsrudvika" />
		<tag k="natural" v="bay" />
		<tag k="ssr:stedsnr" v="611665" />
	</node>
	<node id="-32954" lat="59.9120472255" lon="11.2372166604">
		<tag k="alt_name" v="Hvalstjenn" />
		<tag k="name" v="Hvalstjern" />
		<tag k="natural" v="water" />
		<tag k="ssr:stedsnr" v="611625" />
	</node>
	<node id="-32953" lat="59.9370499996" lon="11.1867555572">
		<tag k="name" v="Fråstad" />
		<tag k="place" v="farm" />
		<tag k="ssr:stedsnr" v="611577" />
	</node>
	<node id="-32952" lat="59.9469249996" lon="11.2075111149">
		<tag k="fixme" v="multiple name tags, choose one and add the other to alt_name" />
		<tag k="name" v="Holtersletta;Sletta" />
		<tag k="place" v="isolated_dwelling" />
		<tag k="ssr:stedsnr" v="611560" />
	</node>
	<node id="-32951" lat="59.9605305597" lon="11.1627583294">
		<tag k="fixme" v="consider natural=peak for the most distinct mountains in the district" />
		<tag k="name" v="Holtåsen" />
		<tag k="natural" v="hill" />
		<tag k="place" v="locality" />
		<tag k="ssr:stedsnr" v="611527" />
	</node>
	<node id="-32950" lat="59.9365527763" lon="11.1885666587">
		<tag k="junction" v="yes" />
		<tag k="name" v="Fråstad" />
		<tag k="place" v="locality" />
		<tag k="ssr:stedsnr" v="605866" />
	</node>
	<node id="-32949" lat="59.9297305518" lon="11.200661108">
		<tag k="name" v="Fossen" />
		<tag k="place" v="isolated_dwelling" />
		<tag k="ssr:stedsnr" v="605864" />
	</node>
	<node id="-32948" lat="59.9382083307" lon="11.2158500065">
		<tag k="name" v="Engerhøgda" />
		<tag k="natural" v="hill" />
		<tag k="place" v="locality" />
		<tag k="ssr:stedsnr" v="605847" />
	</node>
	<node id="-32947" lat="59.8520166664" lon="11.2550388818">
		<tag k="name" v="Bergerudåsen" />
		<tag k="natural" v="hill" />
		<tag k="place" v="locality" />
		<tag k="ssr:stedsnr" v="605368" />
	</node>
	<node id="-32946" lat="59.8489194455" lon="11.3031611109">
		<tag k="name" v="Øvre Torsmyr" />
		<tag k="natural" v="wetland" />
		<tag k="ssr:stedsnr" v="605363" />
	</node>
	<node id="-32945" lat="59.9222972212" lon="11.2154499997">
		<tag k="name" v="Hagenmåsan" />
		<tag k="natural" v="wetland" />
		<tag k="ssr:stedsnr" v="603808" />
	</node>
	<node id="-32944" lat="59.9317197241" lon="11.1480225948">
		<tag k="name" v="Støvinåsen" />
		<tag k="place" v="quarter" />
		<tag k="ssr:stedsnr" v="603659" />
	</node>
	<node id="-32943" lat="59.932419446" lon="11.1416499934">
		<tag k="amenity" v="school" />
		<tag k="name" v="Hovinhøgda skole" />
		<tag k="ssr:stedsnr" v="603656" />
	</node>
	<node id="-32942" lat="59.9274611083" lon="11.1739555595">
		<tag k="name" v="Rosenlund" />
		<tag k="place" v="isolated_dwelling" />
		<tag k="ssr:stedsnr" v="603653" />
	</node>
	<node id="-32941" lat="59.9216138876" lon="11.1869027863">
		<tag k="name" v="Berg" />
		<tag k="place" v="farm" />
		<tag k="ssr:stedsnr" v="603638" />
	</node>
	<node id="-32940" lat="59.9204333369" lon="11.1854999934">
		<tag k="name" v="Løkenhagen" />
		<tag k="place" v="farm" />
		<tag k="ssr:stedsnr" v="603637" />
	</node>
	<node id="-32939" lat="59.9215944444" lon="11.1806027816">
		<tag k="name" v="Kringen" />
		<tag k="place" v="farm" />
		<tag k="ssr:stedsnr" v="603634" />
	</node>
	<node id="-32938" lat="59.9138166644" lon="11.238391666">
		<tag k="name" v="Hvalsetra" />
		<tag k="place" v="locality" />
		<tag k="ssr:stedsnr" v="603611" />
	</node>
	<node id="-32937" lat="59.8722000029" lon="11.335019446">
		<tag k="name" v="Sleipkleivdalen" />
		<tag k="natural" v="valley" />
		<tag k="place" v="locality" />
		<tag k="ssr:stedsnr" v="603578" />
	</node>
	<node id="-32936" lat="59.8809305594" lon="11.1967361102">
		<tag k="name" v="Vestre Svindal" />
		<tag k="place" v="farm" />
		<tag k="ssr:stedsnr" v="603512" />
	</node>
	<node id="-32935" lat="59.965183335" lon="11.1873555495">
		<tag k="name" v="Åslia" />
		<tag k="place" v="locality" />
		<tag k="ssr:stedsnr" v="600907" />
	</node>
	<node id="-32934" lat="59.9621472231" lon="11.1528500038">
		<tag k="fixme" v="consider natural=peak for the most distinct mountains in the district" />
		<tag k="name" v="Damsåsen" />
		<tag k="natural" v="hill" />
		<tag k="place" v="locality" />
		<tag k="ssr:stedsnr" v="600902" />
	</node>
	<node id="-32933" lat="59.9641194485" lon="11.1482111144">
		<tag k="name" v="Dammen" />
		<tag k="place" v="locality" />
		<tag k="ssr:stedsnr" v="600900" />
	</node>
	<node id="-32932" lat="59.9616638922" lon="11.1082138956">
		<tag k="name" v="Sommerfjøssletta" />
		<tag k="place" v="locality" />
		<tag k="ssr:stedsnr" v="600892" />
	</node>
	<node id="-32931" lat="59.950419448" lon="11.2204083335">
		<tag k="name" v="Nordmoen" />
		<tag k="natural" v="wetland" />
		<tag k="ssr:stedsnr" v="600883" />
	</node>
	<node id="-32930" lat="59.9292944456" lon="11.1553361145">
		<tag k="alt_name" v="Fetsund batteri;Skansen" />
		<tag k="landuse" v="military" />
		<tag k="loc_name" v="Vilberg skanse" />
		<tag k="name" v="Fetsundbatteriet" />
		<tag k="ssr:stedsnr" v="600876" />
	</node>
	<node id="-32929" lat="59.9110277808" lon="11.2291166695">
		<tag k="name" v="Blåbærmyra" />
		<tag k="natural" v="wetland" />
		<tag k="ssr:stedsnr" v="588745" />
	</node>
	<node id="-32928" lat="59.9062055601" lon="11.189805554">
		<tag k="name" v="Valrossdam" />
		<tag k="natural" v="water" />
		<tag k="ssr:stedsnr" v="588742" />
	</node>
	<node id="-32927" lat="59.8616249961" lon="11.2261833274">
		<tag k="name" v="Løkka" />
		<tag k="place" v="farm" />
		<tag k="ssr:stedsnr" v="587365" />
	</node>
	<node id="-32926" lat="59.874277778" lon="11.2375361117">
		<tag k="name" v="Haug" />
		<tag k="place" v="isolated_dwelling" />
		<tag k="ssr:stedsnr" v="586621" />
	</node>
	<node id="-32925" lat="59.8273388928" lon="11.2853805599">
		<tag k="fixme" v="consider natural=peak for the most distinct mountains in the district" />
		<tag k="name" v="Bognemyrhøgda" />
		<tag k="natural" v="hill" />
		<tag k="place" v="locality" />
		<tag k="ssr:stedsnr" v="585318" />
	</node>
	<node id="-32924" lat="59.8494138913" lon="11.2121388941">
		<tag k="name" v="Gudmundsrud" />
		<tag k="place" v="isolated_dwelling" />
		<tag k="ssr:stedsnr" v="585308" />
	</node>
	<node id="-32923" lat="59.7622583339" lon="11.3190916636">
		<tag k="name" v="Steindalen" />
		<tag k="natural" v="valley" />
		<tag k="place" v="locality" />
		<tag k="ssr:stedsnr" v="585270" />
	</node>
	<node id="-32922" lat="59.7614027795" lon="11.3389944455">
		<tag k="name" v="Nordre Huldertjenn" />
		<tag k="natural" v="water" />
		<tag k="ssr:stedsnr" v="585263" />
	</node>
	<node id="-32921" lat="59.775761115" lon="11.2754027759">
		<tag k="name" v="Lindeberg" />
		<tag k="place" v="farm" />
		<tag k="ssr:stedsnr" v="585258" />
	</node>
	<node id="-32920" lat="59.7840583358" lon="11.2368722186">
		<tag k="name" v="Verkensvika" />
		<tag k="natural" v="bay" />
		<tag k="ssr:stedsnr" v="585257" />
	</node>
	<node id="-32919" lat="59.768597219" lon="11.2901416721">
		<tag k="name" v="Kloropplia" />
		<tag k="natural" v="slope" />
		<tag k="place" v="locality" />
		<tag k="ssr:stedsnr" v="585249" />
	</node>
	<node id="-32918" lat="59.7804388926" lon="11.3232055528">
		<tag k="name" v="Nedre Stordalsmyra" />
		<tag k="natural" v="wetland" />
		<tag k="ssr:stedsnr" v="585242" />
	</node>
	<node id="-32917" lat="59.7860611087" lon="11.2781361027">
		<tag k="name" v="Solberg" />
		<tag k="place" v="farm" />
		<tag k="ssr:stedsnr" v="551838" />
	</node>
	<node id="-32916" lat="59.8355194461" lon="11.2527277772">
		<tag k="name" v="Kverne" />
		<tag k="place" v="farm" />
		<tag k="ssr:stedsnr" v="551807" />
	</node>
	<node id="-32915" lat="59.8428138884" lon="11.3173750011">
		<tag k="name" v="Delingsdalen" />
		<tag k="natural" v="valley" />
		<tag k="place" v="locality" />
		<tag k="ssr:stedsnr" v="551748" />
	</node>
	<node id="-32914" lat="59.9601347075" lon="11.2203379399">
		<tag k="name" v="Lystadmoen" />
		<tag k="place" v="hamlet" />
		<tag k="ssr:stedsnr" v="551518" />
	</node>
	<node id="-32913" lat="59.7688333289" lon="11.2488000016">
		<tag k="alt_name" v="Hunes, nordre" />
		<tag k="name" v="Nordre Hunes" />
		<tag k="place" v="farm" />
		<tag k="ssr:stedsnr" v="550904" />
	</node>
	<node id="-32912" lat="59.7770333325" lon="11.2607861048">
		<tag k="fixme" v="consider place=hamlet" />
		<tag k="name" v="Melnes" />
		<tag k="place" v="farm" />
		<tag k="ssr:stedsnr" v="550891" />
	</node>
	<node id="-32911" lat="59.8137749988" lon="11.2519555538">
		<tag k="name" v="Marikjelddalen" />
		<tag k="natural" v="valley" />
		<tag k="place" v="locality" />
		<tag k="ssr:stedsnr" v="550807" />
	</node>
	<node id="-32910" lat="59.822150002" lon="11.2706444504">
		<tag k="alt_name" v="Vindlandstjenn" />
		<tag k="name" v="Vindlandstjernet" />
		<tag k="natural" v="water" />
		<tag k="ssr:stedsnr" v="550761" />
	</node>
	<node id="-32909" lat="59.8489555557" lon="11.23019445">
		<tag k="name" v="Solberg" />
		<tag k="place" v="farm" />
		<tag k="ssr:stedsnr" v="550716" />
	</node>
	<node id="-32908" lat="59.8618777787" lon="11.2128388951">
		<tag k="name" v="Gansvika" />
		<tag k="natural" v="bay" />
		<tag k="ssr:stedsnr" v="550694" />
	</node>
	<node id="-32907" lat="59.8734527761" lon="11.3047666623">
		<tag k="alt_name" v="Storemåsan" />
		<tag k="name" v="Sloremåsan" />
		<tag k="natural" v="wetland" />
		<tag k="ssr:stedsnr" v="550678" />
	</node>
	<node id="-32906" lat="59.875161112" lon="11.2188527696">
		<tag k="amenity" v="community_centre" />
		<tag k="name" v="Dalheim" />
		<tag k="ssr:stedsnr" v="550659" />
	</node>
	<node id="-32905" lat="59.8818055526" lon="11.2088222167">
		<tag k="alt_name" v="Østegarden" />
		<tag k="name" v="Østegard" />
		<tag k="place" v="farm" />
		<tag k="ssr:stedsnr" v="550655" />
	</node>
	<node id="-32904" lat="59.8795000033" lon="11.2278444481">
		<tag k="alt_name" v="Ås, søndre" />
		<tag k="name" v="Søndre Ås" />
		<tag k="place" v="farm" />
		<tag k="ssr:stedsnr" v="550653" />
	</node>
	<node id="-32903" lat="59.895336112" lon="11.1429805598">
		<tag k="name" v="Sniksand" />
		<tag k="natural" v="cape" />
		<tag k="ssr:stedsnr" v="550620" />
	</node>
	<node id="-32902" lat="59.9321638867" lon="11.1881305497">
		<tag k="name" v="Varåa" />
		<tag k="place" v="village" />
		<tag k="ssr:stedsnr" v="550567" />
	</node>
	<node id="-32901" lat="59.9356999963" lon="11.2371444398">
		<tag k="fixme" v="consider natural=peak for the most distinct mountains in the district" />
		<tag k="name" v="Brattåsen" />
		<tag k="natural" v="hill" />
		<tag k="place" v="locality" />
		<tag k="ssr:stedsnr" v="550553" />
	</node>
	<node id="-32900" lat="59.9432016253" lon="11.2493966941">
		<tag k="name" v="Varsjøen" />
		<tag k="natural" v="water" />
		<tag k="ssr:stedsnr" v="550538" />
		<tag k="water" v="lake" />
	</node>
	<node id="-32899" lat="59.9455194408" lon="11.2270277865">
		<tag k="name" v="Holterhuset" />
		<tag k="place" v="farm" />
		<tag k="ssr:stedsnr" v="550535" />
	</node>
	<node id="-32898" lat="59.9459694431" lon="11.2067166668">
		<tag k="name" v="Vestby" />
		<tag k="place" v="locality" />
		<tag k="ssr:stedsnr" v="550534" />
	</node>
	<node id="-32897" lat="59.979319447" lon="11.17634722">
		<tag k="name" v="Kumyra" />
		<tag k="natural" v="wetland" />
		<tag k="ssr:stedsnr" v="550450" />
	</node>
	<node id="-32896" lat="59.9344944425" lon="11.2186444522">
		<tag k="name" v="Delerud" />
		<tag k="place" v="locality" />
		<tag k="ssr:stedsnr" v="544858" />
	</node>
	<node id="-32895" lat="59.935605559" lon="11.1925138969">
		<tag k="name" v="Fallaenga" />
		<tag k="place" v="farm" />
		<tag k="ssr:stedsnr" v="544856" />
	</node>
	<node id="-32894" lat="59.8400499984" lon="11.2399499955">
		<tag k="fixme" v="consider natural=peak for the most distinct mountains in the district" />
		<tag k="name" v="Barkenesåsen" />
		<tag k="natural" v="hill" />
		<tag k="place" v="locality" />
		<tag k="ssr:stedsnr" v="544370" />
	</node>
	<node id="-32893" lat="59.8345611129" lon="11.2551611116">
		<tag k="name" v="Jordsdammen" />
		<tag k="ssr:stedsnr" v="544367" />
		<tag k="waterway" v="dam" />
	</node>
	<node id="-32892" lat="59.8518749964" lon="11.3353805519">
		<tag k="fixme" v="consider natural=peak for the most distinct mountains in the district" />
		<tag k="name" v="Badstuåsen" />
		<tag k="natural" v="hill" />
		<tag k="place" v="locality" />
		<tag k="ssr:stedsnr" v="544332" />
	</node>
	<node id="-32891" lat="59.8862055554" lon="11.1966027763">
		<tag k="name" v="Svindalshagen" />
		<tag k="place" v="locality" />
		<tag k="ssr:stedsnr" v="543560" />
	</node>
	<node id="-32890" lat="59.8848833348" lon="11.2106722292">
		<tag k="name" v="Fjellberg" />
		<tag k="place" v="isolated_dwelling" />
		<tag k="ssr:stedsnr" v="543555" />
	</node>
	<node id="-32889" lat="59.8817722238" lon="11.2595583293">
		<tag k="name" v="Lintjenndalen" />
		<tag k="natural" v="valley" />
		<tag k="place" v="locality" />
		<tag k="ssr:stedsnr" v="543545" />
	</node>
	<node id="-32888" lat="59.8893500015" lon="11.2843277851">
		<tag k="name" v="Bysetermyra" />
		<tag k="natural" v="wetland" />
		<tag k="ssr:stedsnr" v="543542" />
	</node>
	<node id="-32887" lat="59.8780194424" lon="11.2447749981">
		<tag k="name" v="Sletner" />
		<tag k="place" v="hamlet" />
		<tag k="ssr:stedsnr" v="543531" />
	</node>
	<node id="-32886" lat="59.8795194457" lon="11.2588861156">
		<tag k="name" v="Lintjenn" />
		<tag k="natural" v="water" />
		<tag k="ssr:stedsnr" v="543530" />
	</node>
	<node id="-32885" lat="59.8840916637" lon="11.1483333296">
		<tag k="name" v="Storsandråka" />
		<tag k="natural" v="strait" />
		<tag k="ssr:stedsnr" v="543517" />
	</node>
	<node id="-32884" lat="59.8764194453" lon="11.2199194511">
		<tag k="amenity" v="school" />
		<tag k="name" v="Dalen skole" />
		<tag k="ssr:stedsnr" v="543506" />
	</node>
	<node id="-32883" lat="59.9290499962" lon="11.1410944404">
		<tag k="name" v="Søndre Hovin" />
		<tag k="place" v="farm" />
		<tag k="ssr:stedsnr" v="542680" />
	</node>
	<node id="-32882" lat="59.9655083371" lon="11.0975472236">
		<tag k="name" v="Jølsengrunna" />
		<tag k="natural" v="shoal" />
		<tag k="place" v="locality" />
		<tag k="ssr:stedsnr" v="540885" />
	</node>
	<node id="-32881" lat="59.9628055594" lon="11.0906388918">
		<tag k="name" v="Nesa" />
		<tag k="natural" v="cape" />
		<tag k="ssr:stedsnr" v="540884" />
	</node>
	<node id="-32880" lat="59.9590536081" lon="11.1804734815">
		<tag k="amenity" v="community_centre" />
		<tag k="name" v="Håpets dør" />
		<tag k="ssr:stedsnr" v="540875" />
	</node>
	<node id="-32879" lat="59.9443805536" lon="11.1979638957">
		<tag k="name" v="Ekeberg" />
		<tag k="place" v="farm" />
		<tag k="ssr:stedsnr" v="540866" />
	</node>
	<node id="-32878" lat="59.9445444416" lon="11.1909194417">
		<tag k="name" v="Nordre Kjustad" />
		<tag k="place" v="farm" />
		<tag k="ssr:stedsnr" v="540863" />
	</node>
	<node id="-32877" lat="59.9477444409" lon="11.1220305489">
		<tag k="name" v="Midtre Skjelver" />
		<tag k="place" v="farm" />
		<tag k="ssr:stedsnr" v="540849" />
	</node>
	<node id="-32876" lat="59.9145055595" lon="11.2258444416">
		<tag k="name" v="Kloterudbekken" />
		<tag k="ssr:stedsnr" v="527752" />
		<tag k="waterway" v="stream" />
	</node>
	<node id="-32875" lat="59.9152361154" lon="11.1657833331">
		<tag k="name" v="Fet prestegård" />
		<tag k="place" v="farm" />
		<tag k="ssr:stedsnr" v="527706" />
	</node>
	<node id="-32874" lat="59.911388892" lon="11.150633327">
		<tag k="name" v="Hovsand" />
		<tag k="natural" v="cape" />
		<tag k="ssr:stedsnr" v="527697" />
	</node>
	<node id="-32873" lat="59.8967194403" lon="11.1653833325">
		<tag k="name" v="Svineskinna" />
		<tag k="natural" v="cape" />
		<tag k="ssr:stedsnr" v="527686" />
	</node>
	<node id="-32872" lat="59.8650416635" lon="11.287358334">
		<tag k="alt_name" v="Gullerud nordre" />
		<tag k="name" v="Nordre Gullerud" />
		<tag k="place" v="farm" />
		<tag k="ssr:stedsnr" v="527604" />
	</node>
	<node id="-32871" lat="59.863944448" lon="11.2446472219">
		<tag k="name" v="Høldammen" />
		<tag k="natural" v="water" />
		<tag k="ssr:stedsnr" v="527602" />
		<tag k="water" v="lake" />
	</node>
	<node id="-32870" lat="59.8636722252" lon="11.2043861177">
		<tag k="name" v="Brågården" />
		<tag k="place" v="locality" />
		<tag k="ssr:stedsnr" v="527336" />
	</node>
	<node id="-32869" lat="59.8531583329" lon="11.2408305573">
		<tag k="alt_name" v="Torud øvre" />
		<tag k="name" v="Øvre Torud" />
		<tag k="place" v="farm" />
		<tag k="ssr:stedsnr" v="527320" />
	</node>
	<node id="-32868" lat="59.9297112438" lon="11.2056713196">
		<tag k="name" v="Nordre Tingsrud" />
		<tag k="place" v="farm" />
		<tag k="ssr:stedsnr" v="525845" />
	</node>
	<node id="-32867" lat="59.9253277805" lon="11.1883805472">
		<tag k="name" v="Vestre Ramstad" />
		<tag k="place" v="farm" />
		<tag k="ssr:stedsnr" v="525824" />
	</node>
	<node id="-32866" lat="59.868191668" lon="11.2432194506">
		<tag k="name" v="Sørlimoen" />
		<tag k="place" v="locality" />
		<tag k="ssr:stedsnr" v="525628" />
	</node>
	<node id="-32865" lat="59.8698027803" lon="11.2791472169">
		<tag k="name" v="Østre Skjatvet" />
		<tag k="place" v="farm" />
		<tag k="ssr:stedsnr" v="525614" />
	</node>
	<node id="-32864" lat="59.7651388851" lon="11.2813750043">
		<tag k="name" v="Nygård" />
		<tag k="place" v="locality" />
		<tag k="ssr:stedsnr" v="525470" />
	</node>
	<node id="-32863" lat="59.8300555519" lon="11.2507888826">
		<tag k="fixme" v="consider natural=peak for the most distinct mountains in the district" />
		<tag k="name" v="Moltemyrås" />
		<tag k="natural" v="hill" />
		<tag k="place" v="locality" />
		<tag k="ssr:stedsnr" v="525371" />
	</node>
	<node id="-32862" lat="59.8265944428" lon="11.2409194495">
		<tag k="name" v="Bukkedalen" />
		<tag k="natural" v="valley" />
		<tag k="place" v="locality" />
		<tag k="ssr:stedsnr" v="525369" />
	</node>
	<node id="-32861" lat="59.822938886" lon="11.2723749922">
		<tag k="name" v="Libråtan" />
		<tag k="place" v="farm" />
		<tag k="ssr:stedsnr" v="525363" />
	</node>
	<node id="-32860" lat="59.8493472185" lon="11.2181499998">
		<tag k="alt_name" v="Østanes søndre" />
		<tag k="name" v="Søndre Østanes" />
		<tag k="place" v="farm" />
		<tag k="ssr:stedsnr" v="525358" />
	</node>
	<node id="-32859" lat="59.772463891" lon="11.2758722297">
		<tag k="name" v="Skogheim" />
		<tag k="place" v="farm" />
		<tag k="ssr:stedsnr" v="525319" />
	</node>
	<node id="-32858" lat="59.7798611118" lon="11.3202944527">
		<tag k="name" v="Stordalen" />
		<tag k="natural" v="valley" />
		<tag k="place" v="locality" />
		<tag k="ssr:stedsnr" v="525299" />
	</node>
	<node id="-32857" lat="59.7882638851" lon="11.2719055502">
		<tag k="name" v="Moen" />
		<tag k="place" v="farm" />
		<tag k="ssr:stedsnr" v="525296" />
	</node>
	<node id="-32856" lat="59.7969472259" lon="11.248519439">
		<tag k="name" v="Nygårdsåsen" />
		<tag k="natural" v="hill" />
		<tag k="place" v="locality" />
		<tag k="ssr:stedsnr" v="525293" />
	</node>
	<node id="-32855" lat="59.7987416639" lon="11.2841000035">
		<tag k="name" v="Bråtatjennsundet" />
		<tag k="natural" v="strait" />
		<tag k="ssr:stedsnr" v="525290" />
	</node>
	<node id="-32854" lat="59.8100555549" lon="11.2619750053">
		<tag k="name" v="Postmyra" />
		<tag k="natural" v="wetland" />
		<tag k="ssr:stedsnr" v="525278" />
	</node>
	<node id="-32853" lat="59.7886611138" lon="11.3162000028">
		<tag k="alt_name" v="Bjørnebraate Tj" />
		<tag k="fixme" v="multiple name tags, choose one and add the other to alt_name" />
		<tag k="name" v="Bjørnebråtetjern;Dalatjern" />
		<tag k="natural" v="water" />
		<tag k="ssr:stedsnr" v="490866" />
	</node>
	<node id="-32852" lat="59.8387246775" lon="11.2271673066">
		<tag k="fixme" v="consider place=hamlet" />
		<tag k="name" v="Barkenes" />
		<tag k="place" v="farm" />
		<tag k="ssr:stedsnr" v="490760" />
	</node>
	<node id="-32851" lat="59.8422333299" lon="11.2314194419">
		<tag k="name" v="Logn" />
		<tag k="place" v="farm" />
		<tag k="ssr:stedsnr" v="490749" />
	</node>
	<node id="-32850" lat="59.8518275764" lon="11.2187437979">
		<tag k="fixme" v="consider place=hamlet" />
		<tag k="name" v="Østanes" />
		<tag k="place" v="farm" />
		<tag k="ssr:stedsnr" v="490725" />
	</node>
	<node id="-32849" lat="59.8707999989" lon="11.3221805571">
		<tag k="alt_name" v="Rundtjenn" />
		<tag k="name" v="Rundtjern" />
		<tag k="natural" v="water" />
		<tag k="ssr:stedsnr" v="490688" />
	</node>
	<node id="-32848" lat="59.8898833311" lon="11.2438583357">
		<tag k="name" v="Fuglemåsan" />
		<tag k="natural" v="wetland" />
		<tag k="ssr:stedsnr" v="490662" />
	</node>
	<node id="-32847" lat="59.8896222226" lon="11.2803249972">
		<tag k="name" v="Tosken" />
		<tag k="natural" v="water" />
		<tag k="ssr:stedsnr" v="490657" />
	</node>
	<node id="-32846" lat="59.8873000017" lon="11.1448944487">
		<tag k="name" v="Storsand" />
		<tag k="place" v="islet" />
		<tag k="ssr:stedsnr" v="490647" />
	</node>
	<node id="-32845" lat="59.8979972217" lon="11.2354444373">
		<tag k="name" v="Gjæsstjernet" />
		<tag k="natural" v="water" />
		<tag k="ssr:stedsnr" v="490637" />
	</node>
	<node id="-32844" lat="59.9100250031" lon="11.2261861116">
		<tag k="fixme" v="consider natural=peak for the most distinct mountains in the district" />
		<tag k="name" v="Poståsen" />
		<tag k="natural" v="hill" />
		<tag k="place" v="locality" />
		<tag k="ssr:stedsnr" v="490625" />
	</node>
	<node id="-32843" lat="59.925555555" lon="11.2288750043">
		<tag k="name" v="Heia" />
		<tag k="place" v="locality" />
		<tag k="ssr:stedsnr" v="490566" />
	</node>
	<node id="-32842" lat="59.9277638854" lon="11.1220527823">
		<tag k="alt_name" v="Svellet" />
		<tag k="name" v="Svelle" />
		<tag k="natural" v="water" />
		<tag k="ssr:stedsnr" v="490560" />
	</node>
	<node id="-32841" lat="59.9452416626" lon="11.1556194494">
		<tag k="fixme" v="consider natural=peak for the most distinct mountains in the district" />
		<tag k="name" v="Garderåsen" />
		<tag k="natural" v="hill" />
		<tag k="place" v="locality" />
		<tag k="ssr:stedsnr" v="490544" />
	</node>
	<node id="-32840" lat="59.9424999981" lon="11.2244805618">
		<tag k="name" v="Dammen" />
		<tag k="place" v="farm" />
		<tag k="ssr:stedsnr" v="490542" />
	</node>
	<node id="-32839" lat="59.9409138877" lon="11.1882277836">
		<tag k="name" v="Haga" />
		<tag k="place" v="farm" />
		<tag k="ssr:stedsnr" v="490540" />
	</node>
	<node id="-32838" lat="59.9582166625" lon="11.11660834">
		<tag k="name" v="Hotvet" />
		<tag k="place" v="hamlet" />
		<tag k="ssr:stedsnr" v="490511" />
	</node>
	<node id="-32837" lat="59.9674472185" lon="11.2066416707">
		<tag k="alt_name" v="Enerud" />
		<tag k="name" v="Enderud" />
		<tag k="place" v="farm" />
		<tag k="ssr:stedsnr" v="490507" />
	</node>
	<node id="-32836" lat="59.9634000028" lon="11.1209527791">
		<tag k="fixme" v="consider natural=peak for the most distinct mountains in the district" />
		<tag k="name" v="Jølsenåsen" />
		<tag k="natural" v="hill" />
		<tag k="place" v="locality" />
		<tag k="ssr:stedsnr" v="490481" />
	</node>
	<node id="-32835" lat="59.9048024029" lon="11.1613210894">
		<tag k="alt_name" v="Bjanes, nordre" />
		<tag k="name" v="Nordre Bjanes" />
		<tag k="place" v="farm" />
		<tag k="ssr:stedsnr" v="489678" />
	</node>
	<node id="-32834" lat="59.9015944441" lon="11.1836194474">
		<tag k="name" v="Holtet" />
		<tag k="place" v="farm" />
		<tag k="ssr:stedsnr" v="489676" />
	</node>
	<node id="-32833" lat="59.9341777787" lon="11.1920250012">
		<tag k="name" v="Fallahaugen" />
		<tag k="place" v="farm" />
		<tag k="ssr:stedsnr" v="484840" />
	</node>
	<node id="-32832" lat="59.8496861115" lon="11.3070888883">
		<tag k="name" v="Nedre Torsmyr" />
		<tag k="natural" v="wetland" />
		<tag k="ssr:stedsnr" v="484310" />
	</node>
	<node id="-32831" lat="59.9321888922" lon="11.1236833297">
		<tag k="name" v="Balnesstrand" />
		<tag k="natural" v="beach" />
		<tag k="ssr:stedsnr" v="482661" />
	</node>
	<node id="-32830" lat="59.856780555" lon="11.298597221">
		<tag k="fixme" v="consider natural=peak for the most distinct mountains in the district" />
		<tag k="name" v="Lauvåsen" />
		<tag k="natural" v="hill" />
		<tag k="place" v="locality" />
		<tag k="ssr:stedsnr" v="482599" />
	</node>
	<node id="-32829" lat="59.861636115" lon="11.3279388828">
		<tag k="name" v="Nordre Midtskog" />
		<tag k="place" v="farm" />
		<tag k="ssr:stedsnr" v="482597" />
	</node>
	<node id="-32828" lat="59.8854694454" lon="11.1869194397">
		<tag k="name" v="Laure" />
		<tag k="natural" v="shoal" />
		<tag k="place" v="locality" />
		<tag k="ssr:stedsnr" v="482563" />
	</node>
	<node id="-32827" lat="59.8840500004" lon="11.1814666619">
		<tag k="name" v="Furu" />
		<tag k="place" v="isolated_dwelling" />
		<tag k="ssr:stedsnr" v="482562" />
	</node>
	<node id="-32826" lat="59.8950055532" lon="11.1994722255">
		<tag k="name" v="Tolerudbekken" />
		<tag k="ssr:stedsnr" v="482558" />
		<tag k="waterway" v="stream" />
	</node>
	<node id="-32825" lat="59.8952944481" lon="11.2530194365">
		<tag k="name" v="Svartputtdalen" />
		<tag k="natural" v="valley" />
		<tag k="place" v="locality" />
		<tag k="ssr:stedsnr" v="482548" />
	</node>
	<node id="-32823" lat="59.8920249989" lon="11.1641305507">
		<tag k="name" v="Langvarpet" />
		<tag k="natural" v="bay" />
		<tag k="ssr:stedsnr" v="482529" />
	</node>
	<node id="-32822" lat="59.8784833308" lon="11.1995972228">
		<tag k="name" v="Søndre Svindal" />
		<tag k="place" v="farm" />
		<tag k="ssr:stedsnr" v="482526" />
	</node>
	<node id="-32821" lat="59.8748194491" lon="11.2242249936">
		<tag k="name" v="Nordre Sofsrud" />
		<tag k="place" v="farm" />
		<tag k="ssr:stedsnr" v="482523" />
	</node>
	<node id="-32820" lat="59.9239166686" lon="11.1580277739">
		<tag k="bridge" v="yes" />
		<tag k="layer" v="1" />
		<tag k="name" v="Nedrum" />
		<tag k="ssr:stedsnr" v="471029" />
	</node>
	<node id="-32819" lat="59.8445972265" lon="11.2439833391">
		<tag k="bridge" v="yes" />
		<tag k="layer" v="1" />
		<tag k="name" v="Ulverud" />
		<tag k="ssr:stedsnr" v="471027" />
	</node>
	<node id="-32818" lat="59.9162444474" lon="11.1694472168">
		<tag k="amenity" v="school" />
		<tag k="name" v="Riddersand skole" />
		<tag k="ssr:stedsnr" v="466770" />
	</node>
	<node id="-32817" lat="59.9155166635" lon="11.1364111127">
		<tag k="name" v="Glomstua" />
		<tag k="place" v="isolated_dwelling" />
		<tag k="ssr:stedsnr" v="466739" />
	</node>
	<node id="-32816" lat="59.9000611073" lon="11.1517611112">
		<tag k="name" v="Kusandflæra" />
		<tag k="natural" v="bay" />
		<tag k="ssr:stedsnr" v="466725" />
	</node>
	<node id="-32815" lat="59.9309361122" lon="11.2172444425">
		<tag k="name" v="Vestheia" />
		<tag k="place" v="islet" />
		<tag k="ssr:stedsnr" v="465873" />
	</node>
	<node id="-32814" lat="59.9312944475" lon="11.1919611034">
		<tag k="name" v="Knatribakken" />
		<tag k="place" v="farm" />
		<tag k="ssr:stedsnr" v="465856" />
	</node>
	<node id="-32813" lat="59.9282666643" lon="11.2284111051">
		<tag k="name" v="Tangen" />
		<tag k="natural" v="cape" />
		<tag k="ssr:stedsnr" v="465848" />
	</node>
	<node id="-32812" lat="59.8557055582" lon="11.3014500016">
		<tag k="name" v="Elgsgrava" />
		<tag k="place" v="locality" />
		<tag k="ssr:stedsnr" v="465619" />
	</node>
	<node id="-32811" lat="59.8531944414" lon="11.2986888964">
		<tag k="name" v="Bjørkedråga" />
		<tag k="natural" v="valley" />
		<tag k="place" v="locality" />
		<tag k="ssr:stedsnr" v="465617" />
	</node>
	<node id="-32810" lat="59.8684694485" lon="11.2798777815">
		<tag k="name" v="Svenskerudbekken" />
		<tag k="ssr:stedsnr" v="465609" />
		<tag k="waterway" v="stream" />
	</node>
	<node id="-32809" lat="59.9320138853" lon="11.1821999925">
		<tag k="building" v="industrial" />
		<tag k="industrial" v="factory" />
		<tag k="name" v="Vårå mølle" />
		<tag k="ssr:stedsnr" v="465855" />
	</node>
	<node id="-32808" lat="59.8196277792" lon="11.2553472273">
		<tag k="name" v="Møkkhølet" />
		<tag k="natural" v="water" />
		<tag k="ssr:stedsnr" v="464377" />
	</node>
	<node id="-32807" lat="59.8340083308" lon="11.2638666583">
		<tag k="name" v="Breimyra" />
		<tag k="natural" v="wetland" />
		<tag k="ssr:stedsnr" v="464358" />
	</node>
	<node id="-32806" lat="59.7694611105" lon="11.2437333377">
		<tag k="name" v="Hunesholmene" />
		<tag k="place" v="islet" />
		<tag k="ssr:stedsnr" v="464302" />
	</node>
	<node id="-32805" lat="59.7823583342" lon="11.2370083359">
		<tag k="name" v="Tingstad" />
		<tag k="place" v="locality" />
		<tag k="ssr:stedsnr" v="464288" />
	</node>
	<node id="-32804" lat="59.7778472239" lon="11.2407138901">
		<tag k="name" v="Holtvika" />
		<tag k="natural" v="bay" />
		<tag k="ssr:stedsnr" v="464287" />
	</node>
	<node id="-32803" lat="59.7691166648" lon="11.3128000058">
		<tag k="name" v="Kollemyra" />
		<tag k="natural" v="wetland" />
		<tag k="ssr:stedsnr" v="464283" />
	</node>
	<node id="-32802" lat="59.7812527743" lon="11.3117861038">
		<tag k="name" v="Søndre Dritermåsan" />
		<tag k="natural" v="wetland" />
		<tag k="ssr:stedsnr" v="464278" />
	</node>
	<node id="-32801" lat="59.7846138924" lon="11.3018805559">
		<tag k="name" v="Kolåsbekken" />
		<tag k="ssr:stedsnr" v="464275" />
		<tag k="waterway" v="stream" />
	</node>
	<node id="-32800" lat="59.7921277787" lon="11.2790111096">
		<tag k="alt_name" v="Orlokstjenn" />
		<tag k="name" v="Orlokstjern" />
		<tag k="natural" v="water" />
		<tag k="ssr:stedsnr" v="430810" />
	</node>
	<node id="-32799" lat="59.7937083325" lon="11.2643777819">
		<tag k="name" v="Linderud" />
		<tag k="place" v="isolated_dwelling" />
		<tag k="ssr:stedsnr" v="430807" />
	</node>
	<node id="-32798" lat="59.8329305537" lon="11.2779111089">
		<tag k="name" v="Fuglemåsan" />
		<tag k="natural" v="wetland" />
		<tag k="ssr:stedsnr" v="430770" />
	</node>
	<node id="-32797" lat="59.9649777805" lon="11.1207138873">
		<tag k="alt_name" v="Hotvettjennet" />
		<tag k="name" v="Hotvettjernet" />
		<tag k="natural" v="water" />
		<tag k="ssr:stedsnr" v="430479" />
	</node>
	<node id="-32796" lat="59.774030558" lon="11.2741611076">
		<tag k="name" v="Furuholen" />
		<tag k="place" v="farm" />
		<tag k="ssr:stedsnr" v="429896" />
	</node>
	<node id="-32795" lat="59.8619499995" lon="11.2035194445">
		<tag k="name" v="Brågarden" />
		<tag k="place" v="isolated_dwelling" />
		<tag k="ssr:stedsnr" v="429696" />
	</node>
	<node id="-32794" lat="59.8736916626" lon="11.2451055634">
		<tag k="name" v="Myrvoll" />
		<tag k="place" v="farm" />
		<tag k="ssr:stedsnr" v="429675" />
	</node>
	<node id="-32793" lat="59.8720527739" lon="11.2394222308">
		<tag k="name" v="Hauger" />
		<tag k="place" v="farm" />
		<tag k="ssr:stedsnr" v="429664" />
	</node>
	<node id="-32792" lat="59.882725003" lon="11.2193916583">
		<tag k="name" v="Fjellsrud" />
		<tag k="place" v="hamlet" />
		<tag k="ssr:stedsnr" v="429659" />
	</node>
	<node id="-32791" lat="59.8899444482" lon="11.1780444421">
		<tag k="alt_name" v="Skjeret" />
		<tag k="name" v="Skjæret" />
		<tag k="natural" v="shoal" />
		<tag k="place" v="locality" />
		<tag k="ssr:stedsnr" v="429646" />
	</node>
	<node id="-32790" lat="59.8949055517" lon="11.2653666709">
		<tag k="fixme" v="consider natural=peak for the most distinct mountains in the district" />
		<tag k="name" v="Sjølen" />
		<tag k="natural" v="hill" />
		<tag k="place" v="locality" />
		<tag k="ssr:stedsnr" v="429624" />
	</node>
	<node id="-32789" lat="59.8985111149" lon="11.1496583302">
		<tag k="name" v="Kusand" />
		<tag k="place" v="islet" />
		<tag k="ssr:stedsnr" v="429613" />
	</node>
	<node id="-32788" lat="59.9226694483" lon="11.2295583254">
		<tag k="name" v="Skogen" />
		<tag k="place" v="isolated_dwelling" />
		<tag k="ssr:stedsnr" v="429569" />
	</node>
	<node id="-32787" lat="59.9284138882" lon="11.137186117">
		<tag k="fixme" v="consider place=suburb, village or hamlet" />
		<tag k="name" v="Hovin" />
		<tag k="place" v="quarter" />
		<tag k="ssr:stedsnr" v="429557" />
	</node>
	<node id="-32786" lat="59.9329888907" lon="11.2098972245">
		<tag k="name" v="Nyland" />
		<tag k="place" v="isolated_dwelling" />
		<tag k="ssr:stedsnr" v="429542" />
	</node>
	<node id="-32785" lat="59.9485222247" lon="11.1658805609">
		<tag k="name" v="Tveiter" />
		<tag k="place" v="farm" />
		<tag k="ssr:stedsnr" v="429532" />
	</node>
	<node id="-32784" lat="59.9129777816" lon="11.23785834">
		<tag k="name" v="Hvalsetra" />
		<tag k="place" v="isolated_dwelling" />
		<tag k="ssr:stedsnr" v="430621" />
	</node>
	<node id="-32783" lat="59.934144442" lon="11.1983416685">
		<tag k="name" v="Falla" />
		<tag k="place" v="farm" />
		<tag k="ssr:stedsnr" v="423874" />
	</node>
	<node id="-32782" lat="59.8521138875" lon="11.2593833332">
		<tag k="name" v="Vesthagen" />
		<tag k="place" v="locality" />
		<tag k="ssr:stedsnr" v="423390" />
	</node>
	<node id="-32781" lat="59.8953555549" lon="11.2282972293">
		<tag k="fixme" v="consider natural=peak for the most distinct mountains in the district" />
		<tag k="name" v="Kinnshøgda" />
		<tag k="natural" v="hill" />
		<tag k="place" v="locality" />
		<tag k="ssr:stedsnr" v="422567" />
	</node>
	<node id="-32780" lat="59.8836055517" lon="11.2411472253">
		<tag k="name" v="Rundmyrene" />
		<tag k="natural" v="wetland" />
		<tag k="ssr:stedsnr" v="422558" />
	</node>
	<node id="-32779" lat="59.8798944443" lon="11.2412555504">
		<tag k="name" v="Rud" />
		<tag k="place" v="isolated_dwelling" />
		<tag k="ssr:stedsnr" v="422555" />
	</node>
	<node id="-32778" lat="59.9166277818" lon="11.2531777764">
		<tag k="fixme" v="consider natural=peak for the most distinct mountains in the district" />
		<tag k="name" v="Svarttjennsåsen" />
		<tag k="natural" v="hill" />
		<tag k="place" v="locality" />
		<tag k="ssr:stedsnr" v="421668" />
	</node>
	<node id="-32777" lat="59.9253083354" lon="11.1381138886">
		<tag k="name" v="Burås" />
		<tag k="place" v="quarter" />
		<tag k="ssr:stedsnr" v="421665" />
	</node>
	<node id="-32776" lat="59.9210472221" lon="11.1912666685">
		<tag k="name" v="Granåsen" />
		<tag k="place" v="quarter" />
		<tag k="ssr:stedsnr" v="421662" />
	</node>
	<node id="-32775" lat="59.9209949903" lon="11.1873209484">
		<tag k="name" v="Granshagen" />
		<tag k="place" v="quarter" />
		<tag k="ssr:stedsnr" v="421661" />
	</node>
	<node id="-32774" lat="59.9358388912" lon="11.1273000029">
		<tag k="name" v="Merkja" />
		<tag k="natural" v="bay" />
		<tag k="ssr:stedsnr" v="421658" />
	</node>
	<node id="-32773" lat="59.9380805526" lon="11.1705500084">
		<tag k="name" v="Rogner" />
		<tag k="place" v="farm" />
		<tag k="ssr:stedsnr" v="421652" />
	</node>
	<node id="-32772" lat="59.9651500018" lon="11.2118638977">
		<tag k="name" v="Svensrud" />
		<tag k="place" v="farm" />
		<tag k="ssr:stedsnr" v="419892" />
	</node>
	<node id="-32771" lat="59.9711944416" lon="11.1076000028">
		<tag k="name" v="Kleiva" />
		<tag k="natural" v="slope" />
		<tag k="place" v="locality" />
		<tag k="ssr:stedsnr" v="419874" />
	</node>
	<node id="-32770" lat="59.9689861092" lon="11.0985555472">
		<tag k="fixme" v="consider boundary=protected_area and relevant protect_class if not nature reserve" />
		<tag k="leisure" v="nature_reserve" />
		<tag k="name" v="Jølsen naturreservat" />
		<tag k="ssr:stedsnr" v="419873" />
	</node>
	<node id="-32769" lat="59.9509833373" lon="11.1713583388">
		<tag k="alt_name" v="Fallerhagen" />
		<tag k="name" v="Fallerhagan" />
		<tag k="place" v="locality" />
		<tag k="ssr:stedsnr" v="419849" />
	</node>
</osm>
