<?xml version="1.0" encoding="UTF-8"?>
<osm generator="osmapis" version="0.6">
	<node id="-32767" lat="59.9380805526" lon="11.1705500084">
		<tag k="name" v="Rogner" />
		<tag k="place" v="farm" />
		<tag k="ssr:stedsnr" v="421652" />
	</node>
	<node id="-32766" lat="59.9651500018" lon="11.2118638977">
		<tag k="name" v="Svensrud" />
		<tag k="place" v="farm" />
		<tag k="ssr:stedsnr" v="419892" />
	</node>
	<node id="-32762" lat="59.964358329" lon="11.1845249988">
		<tag k="name" v="Sollia" />
		<tag k="place" v="locality" />
		<tag k="ssr:stedsnr" v="479904" />
	</node>
	<node id="-32761" lat="59.9614277746" lon="11.1128916629">
		<tag k="name" v="Nordre Hagen" />
		<tag k="place" v="locality" />
		<tag k="ssr:stedsnr" v="479897" />
	</node>
	<node id="-32759" lat="59.9403250036" lon="11.2074861191">
		<tag k="name" v="Åsen" />
		<tag k="place" v="isolated_dwelling" />
		<tag k="ssr:stedsnr" v="479883" />
	</node>
	<node id="-32758" lat="59.9487388872" lon="11.1221999961">
		<tag k="name" v="Nordre Skjelver" />
		<tag k="place" v="farm" />
		<tag k="ssr:stedsnr" v="479874" />
	</node>
	<node id="-32757" lat="59.9494361118" lon="11.1313944384">
		<tag k="name" v="Leirdal" />
		<tag k="place" v="locality" />
		<tag k="ssr:stedsnr" v="479869" />
	</node>
	<node id="-32754" lat="59.9528833368" lon="11.1662888912">
		<tag k="name" v="Holt" />
		<tag k="place" v="farm" />
		<tag k="ssr:stedsnr" v="248551" />
	</node>
	<node id="-32752" lat="59.7656694472" lon="11.2493888898">
		<tag k="alt_name" v="Hunes, søndre" />
		<tag k="name" v="Søndre Hunes" />
		<tag k="place" v="farm" />
		<tag k="ssr:stedsnr" v="247898" />
	</node>
	<node id="-32750" lat="59.7802388868" lon="11.2803027794">
		<tag k="name" v="Olberg" />
		<tag k="place" v="isolated_dwelling" />
		<tag k="ssr:stedsnr" v="247843" />
	</node>
	<node id="-32745" lat="59.8928166667" lon="11.1819333292">
		<tag k="alt_name" v="Råsok" />
		<tag k="name" v="Råsåk" />
		<tag k="place" v="farm" />
		<tag k="ssr:stedsnr" v="247642" />
	</node>
	<node id="-32743" lat="59.9211027779" lon="11.1507249941">
		<tag k="name" v="Lund" />
		<tag k="place" v="isolated_dwelling" />
		<tag k="ssr:stedsnr" v="247582" />
	</node>
	<node id="-32742" lat="59.9283916701" lon="11.1538638957">
		<tag k="name" v="Vilberg" />
		<tag k="place" v="farm" />
		<tag k="ssr:stedsnr" v="247551" />
	</node>
	<node id="-32741" lat="59.9458777817" lon="11.1168583299">
		<tag k="name" v="Vinsnes" />
		<tag k="place" v="farm" />
		<tag k="ssr:stedsnr" v="247534" />
	</node>
	<node id="-32740" lat="59.9435777792" lon="11.1282083366">
		<tag k="name" v="Skjelverhaugen" />
		<tag k="place" v="farm" />
		<tag k="ssr:stedsnr" v="247530" />
	</node>
	<node id="-32739" lat="59.9724777739" lon="11.1206916731">
		<tag k="name" v="Steindalen" />
		<tag k="place" v="isolated_dwelling" />
		<tag k="ssr:stedsnr" v="247491" />
	</node>
	<node id="-32736" lat="59.9209222187" lon="11.1634888808">
		<tag k="name" v="Strandenga" />
		<tag k="place" v="farm" />
		<tag k="ssr:stedsnr" v="239689" />
	</node>
	<node id="-32735" lat="59.9286388876" lon="11.1331583376">
		<tag k="name" v="Hovinåsen" />
		<tag k="place" v="quarter" />
		<tag k="ssr:stedsnr" v="239681" />
	</node>
	<node id="-32734" lat="59.9249999978" lon="11.1510138933">
		<tag k="name" v="Holen" />
		<tag k="place" v="farm" />
		<tag k="ssr:stedsnr" v="239679" />
	</node>
	<node id="-32732" lat="59.8848166651" lon="11.2136333364">
		<tag k="name" v="Løkkeberg" />
		<tag k="place" v="farm" />
		<tag k="ssr:stedsnr" v="239564" />
	</node>
	<node id="-32729" lat="59.9656277798" lon="11.133797223">
		<tag k="name" v="Ødegården" />
		<tag k="place" v="locality" />
		<tag k="ssr:stedsnr" v="237905" />
	</node>
	<node id="-32725" lat="59.9429916708" lon="11.1901888835">
		<tag k="name" v="Søndre Kjustad" />
		<tag k="place" v="farm" />
		<tag k="ssr:stedsnr" v="237858" />
	</node>
	<node id="-32720" lat="59.9262083378" lon="11.187222217">
		<tag k="name" v="Fjerdingen" />
		<tag k="place" v="farm" />
		<tag k="ssr:stedsnr" v="222821" />
	</node>
	<node id="-32718" lat="59.8230333335" lon="11.2437833305">
		<tag k="name" v="Stigløkka" />
		<tag k="place" v="locality" />
		<tag k="ssr:stedsnr" v="221350" />
	</node>
	<node id="-32716" lat="59.7682694463" lon="11.2685861039">
		<tag k="name" v="Søndre Teig" />
		<tag k="old_name" v="Bakken og Teig mellem" />
		<tag k="place" v="farm" />
		<tag k="ssr:stedsnr" v="221278" />
	</node>
	<node id="-32714" lat="59.7848111105" lon="11.2750750043">
		<tag k="alt_name" v="Bøler nordre" />
		<tag k="name" v="Nordre Bøler" />
		<tag k="place" v="farm" />
		<tag k="ssr:stedsnr" v="221266" />
	</node>
	<node id="-32710" lat="59.8337083302" lon="11.2447166747">
		<tag k="alt_name" v="Bjørkeflåtten nordre" />
		<tag k="name" v="Nordre Bjørkeflåtten" />
		<tag k="place" v="farm" />
		<tag k="ssr:stedsnr" v="221340" />
	</node>
	<node id="-32709" lat="59.837797224" lon="11.2476694443">
		<tag k="name" v="Ulverud" />
		<tag k="place" v="isolated_dwelling" />
		<tag k="ssr:stedsnr" v="187761" />
	</node>
	<node id="-32708" lat="59.8406750011" lon="11.2584472271">
		<tag k="name" v="Duerud" />
		<tag k="place" v="farm" />
		<tag k="ssr:stedsnr" v="187759" />
	</node>
	<node id="-32706" lat="59.8702333289" lon="11.237119452">
		<tag k="name" v="Nordli" />
		<tag k="place" v="farm" />
		<tag k="ssr:stedsnr" v="187650" />
	</node>
	<node id="-32705" lat="59.8709001212" lon="11.2258587175">
		<tag k="name" v="By" />
		<tag k="place" v="hamlet" />
		<tag k="ssr:stedsnr" v="187644" />
	</node>
	<node id="-32703" lat="59.7704972186" lon="11.2767694462">
		<tag k="name" v="Teig" />
		<tag k="place" v="farm" />
		<tag k="ssr:stedsnr" v="187509" />
	</node>
	<node id="-32702" lat="59.8720277782" lon="11.27271945">
		<tag k="fixme" v="consider place=hamlet" />
		<tag k="name" v="Skjatvet" />
		<tag k="place" v="farm" />
		<tag k="ssr:stedsnr" v="187653" />
	</node>
	<node id="-32701" lat="59.9035027785" lon="11.2352277823">
		<tag k="name" v="Skogheim" />
		<tag k="place" v="isolated_dwelling" />
		<tag k="ssr:stedsnr" v="187579" />
	</node>
	<node id="-32697" lat="59.7679083341" lon="11.2690805468">
		<tag k="fixme" v="consider place=hamlet" />
		<tag k="name" v="Teig" />
		<tag k="place" v="farm" />
		<tag k="ssr:stedsnr" v="186908" />
	</node>
	<node id="-32696" lat="59.9373333354" lon="11.2288777771">
		<tag k="name" v="Nygård" />
		<tag k="place" v="farm" />
		<tag k="ssr:stedsnr" v="186612" />
	</node>
	<node id="-32695" lat="59.9367111151" lon="11.2084999985">
		<tag k="fixme" v="consider place=hamlet" />
		<tag k="name" v="Tofsrud" />
		<tag k="place" v="farm" />
		<tag k="ssr:stedsnr" v="186606" />
	</node>
	<node id="-32694" lat="59.9383166649" lon="11.1954499964">
		<tag k="name" v="Karlsrud" />
		<tag k="place" v="farm" />
		<tag k="ssr:stedsnr" v="186607" />
	</node>
	<node id="-32693" lat="59.9436500012" lon="11.209336114">
		<tag k="name" v="Sørli" />
		<tag k="place" v="farm" />
		<tag k="ssr:stedsnr" v="186601" />
	</node>
	<node id="-32690" lat="59.936933337" lon="11.2082833388">
		<tag k="name" v="Søndre Tofsrud" />
		<tag k="place" v="farm" />
		<tag k="ssr:stedsnr" v="180839" />
	</node>
	<node id="-32679" lat="59.9242000019" lon="11.1465083413">
		<tag k="name" v="Nordre Nerdrum" />
		<tag k="place" v="farm" />
		<tag k="ssr:stedsnr" v="178648" />
	</node>
	<node id="-32676" lat="59.9556722226" lon="11.1736361117">
		<tag k="name" v="Skårer" />
		<tag k="place" v="farm" />
		<tag k="ssr:stedsnr" v="176993" />
	</node>
	<node id="-32674" lat="59.9625722224" lon="11.1494722232">
		<tag k="name" v="Stubberud" />
		<tag k="place" v="locality" />
		<tag k="ssr:stedsnr" v="176880" />
	</node>
	<node id="-32668" lat="59.956955553" lon="11.1985277775">
		<tag k="name" v="Bjønnbakken" />
		<tag k="place" v="locality" />
		<tag k="ssr:stedsnr" v="176862" />
	</node>
	<node id="-32667" lat="59.9591666687" lon="11.2045138843">
		<tag k="name" v="Smedsrud" />
		<tag k="place" v="farm" />
		<tag k="ssr:stedsnr" v="176860" />
	</node>
	<node id="-32666" lat="59.9500611103" lon="11.1935222291">
		<tag k="name" v="Holter" />
		<tag k="place" v="farm" />
		<tag k="ssr:stedsnr" v="176859" />
	</node>
	<node id="-32665" lat="59.9454944404" lon="11.1228888847">
		<tag k="name" v="Søndre Skjelver" />
		<tag k="place" v="farm" />
		<tag k="ssr:stedsnr" v="176835" />
	</node>
	<node id="-32664" lat="59.9681555589" lon="11.2041444514">
		<tag k="name" v="Ødegård" />
		<tag k="place" v="farm" />
		<tag k="ssr:stedsnr" v="176143" />
	</node>
	<node id="-32659" lat="59.9040194434" lon="11.158455553">
		<tag k="name" v="Stensrud" />
		<tag k="place" v="locality" />
		<tag k="ssr:stedsnr" v="163680" />
	</node>
	<node id="-32658" lat="59.9050583323" lon="11.1751194374">
		<tag k="name" v="Solvang" />
		<tag k="place" v="farm" />
		<tag k="ssr:stedsnr" v="163676" />
	</node>
	<node id="-32655" lat="59.860783335" lon="11.2249833301">
		<tag k="name" v="Haugen" />
		<tag k="place" v="farm" />
		<tag k="ssr:stedsnr" v="163306" />
	</node>
	<node id="-32651" lat="59.7814861071" lon="11.2746861081">
		<tag k="name" v="Skrabben" />
		<tag k="place" v="farm" />
		<tag k="ssr:stedsnr" v="161303" />
	</node>
	<node id="-32649" lat="59.7861805518" lon="11.2666305523">
		<tag k="name" v="Lybekk" />
		<tag k="place" v="farm" />
		<tag k="ssr:stedsnr" v="161295" />
	</node>
	<node id="-32647" lat="59.7912666623" lon="11.245516673">
		<tag k="name" v="Raskerud" />
		<tag k="place" v="locality" />
		<tag k="ssr:stedsnr" v="161280" />
	</node>
	<node id="-32644" lat="59.7591611136" lon="11.3078194493">
		<tag k="name" v="Klypen" />
		<tag k="place" v="isolated_dwelling" />
		<tag k="ssr:stedsnr" v="160278" />
	</node>
	<node id="-32640" lat="59.8445722231" lon="11.2279361102">
		<tag k="name" v="Holt" />
		<tag k="place" v="farm" />
		<tag k="ssr:stedsnr" v="126700" />
	</node>
	<node id="-32639" lat="59.8003638911" lon="11.2562388858">
		<tag k="name" v="Sletta" />
		<tag k="place" v="farm" />
		<tag k="ssr:stedsnr" v="126817" />
	</node>
	<node id="-32638" lat="59.9635833348" lon="11.2034999959">
		<tag k="name" v="Guttarsrud" />
		<tag k="old_name" v="Guttersrud" />
		<tag k="place" v="farm" />
		<tag k="ssr:stedsnr" v="126525" />
	</node>
	<node id="-32637" lat="59.9067134216" lon="11.1667445329">
		<tag k="name" v="Bleike" />
		<tag k="place" v="farm" />
		<tag k="ssr:stedsnr" v="126602" />
	</node>
	<node id="-32636" lat="59.9244722258" lon="11.2009055604">
		<tag k="name" v="Granerud" />
		<tag k="place" v="farm" />
		<tag k="ssr:stedsnr" v="126580" />
	</node>
	<node id="-32635" lat="59.9255500013" lon="11.1954472206">
		<tag k="name" v="Visperud" />
		<tag k="place" v="farm" />
		<tag k="ssr:stedsnr" v="126578" />
	</node>
	<node id="-32634" lat="59.9241269493" lon="11.1473421881">
		<tag k="fixme" v="consider place=hamlet" />
		<tag k="name" v="Nerdrum" />
		<tag k="place" v="farm" />
		<tag k="ssr:stedsnr" v="126574" />
	</node>
	<node id="-32633" lat="59.762547226" lon="11.2914388878">
		<tag k="name" v="Smådal" />
		<tag k="place" v="farm" />
		<tag k="ssr:stedsnr" v="125897" />
	</node>
	<node id="-32632" lat="59.7787694462" lon="11.2488833367">
		<tag k="alt_name" v="Melnes, vestre" />
		<tag k="name" v="Vestre Melnes" />
		<tag k="place" v="farm" />
		<tag k="ssr:stedsnr" v="125866" />
	</node>
	<node id="-32630" lat="59.8925194419" lon="11.1922999977">
		<tag k="name" v="Ås" />
		<tag k="place" v="farm" />
		<tag k="ssr:stedsnr" v="125680" />
	</node>
	<node id="-32629" lat="59.8877499967" lon="11.2035694502">
		<tag k="name" v="Norddal" />
		<tag k="place" v="farm" />
		<tag k="ssr:stedsnr" v="125678" />
	</node>
	<node id="-32628" lat="59.9428388901" lon="11.1002861109">
		<tag k="alt_name" v="Tuen bruk" />
		<tag k="name" v="Tuen" />
		<tag k="place" v="quarter" />
		<tag k="ssr:stedsnr" v="125579" />
	</node>
	<node id="-32627" lat="59.9311444485" lon="11.2341361196">
		<tag k="name" v="Torud" />
		<tag k="place" v="locality" />
		<tag k="ssr:stedsnr" v="120841" />
	</node>
	<node id="-32624" lat="59.8472944409" lon="11.23852777">
		<tag k="name" v="Dammerud" />
		<tag k="place" v="farm" />
		<tag k="ssr:stedsnr" v="120347" />
	</node>
	<node id="-32622" lat="59.9210444415" lon="11.1675583403">
		<tag k="amenity" v="school" />
		<tag k="name" v="Østersund ungdomsskole" />
		<tag k="ssr:stedsnr" v="118656" />
	</node>
	<node id="-32612" lat="59.8815416677" lon="11.2187416649">
		<tag k="name" v="Nord Kinn" />
		<tag k="place" v="farm" />
		<tag k="ssr:stedsnr" v="118477" />
	</node>
	<node id="-32611" lat="59.8872722244" lon="11.2069166618">
		<tag k="landuse" v="military" />
		<tag k="name" v="Høgåsbatteriet" />
		<tag k="old_name" v="Høgaasbatteriet" />
		<tag k="ssr:stedsnr" v="117871" />
	</node>
	<node id="-32609" lat="59.9622361147" lon="11.11288889">
		<tag k="name" v="Barkebråten" />
		<tag k="place" v="farm" />
		<tag k="ssr:stedsnr" v="116878" />
	</node>
	<node id="-32606" lat="59.9657027805" lon="11.1787527865">
		<tag k="name" v="Kvernholen" />
		<tag k="place" v="locality" />
		<tag k="ssr:stedsnr" v="116124" />
	</node>
	<node id="-32605" lat="59.975580559" lon="11.1923416741">
		<tag k="name" v="Setra" />
		<tag k="place" v="locality" />
		<tag k="ssr:stedsnr" v="116122" />
	</node>
	<node id="-32603" lat="59.9571277799" lon="11.1724583368">
		<tag k="name" v="Skårer" />
		<tag k="place" v="farm" />
		<tag k="ssr:stedsnr" v="116993" />
	</node>
	<node id="-32600" lat="59.8594138915" lon="11.235822225">
		<tag k="name" v="Bjerkenes" />
		<tag k="place" v="farm" />
		<tag k="ssr:stedsnr" v="102654" />
	</node>
	<node id="-32599" lat="59.8585694471" lon="11.2284972221">
		<tag k="alt_name" v="Gjestad søndre" />
		<tag k="name" v="Søndre Gjestad" />
		<tag k="place" v="farm" />
		<tag k="ssr:stedsnr" v="102406" />
	</node>
	<node id="-32597" lat="59.8693361075" lon="11.2250194361">
		<tag k="alt_name" v="By, søndre;By søndre" />
		<tag k="name" v="Søndre By" />
		<tag k="place" v="farm" />
		<tag k="ssr:stedsnr" v="102386" />
	</node>
	<node id="-32596" lat="59.9302305526" lon="11.1943944366">
		<tag k="name" v="Berget" />
		<tag k="place" v="quarter" />
		<tag k="ssr:stedsnr" v="101888" />
	</node>
	<node id="-32595" lat="59.9276638912" lon="11.176850003">
		<tag k="name" v="Hval" />
		<tag k="place" v="farm" />
		<tag k="ssr:stedsnr" v="101867" />
	</node>
	<node id="-32589" lat="59.760638887" lon="11.3253722209">
		<tag k="name" v="Håkonseter" />
		<tag k="place" v="locality" />
		<tag k="ssr:stedsnr" v="100285" />
	</node>
	<node id="-32588" lat="59.7623777772" lon="11.2897888836">
		<tag k="name" v="Løkka" />
		<tag k="place" v="farm" />
		<tag k="ssr:stedsnr" v="100283" />
	</node>
	<node id="-32579" lat="59.7981638885" lon="11.2603861038">
		<tag k="name" v="Bråtan" />
		<tag k="place" v="locality" />
		<tag k="ssr:stedsnr" v="100229" />
	</node>
	<node id="-32574" lat="59.9540333345" lon="11.1252777712">
		<tag k="alt_name" v="Berger, søndre" />
		<tag k="name" v="Søndre Berger" />
		<tag k="place" v="farm" />
		<tag k="ssr:stedsnr" v="66525" />
	</node>
	<node id="-32571" lat="59.7986999977" lon="11.2567499986">
		<tag k="name" v="Svarterud" />
		<tag k="place" v="hamlet" />
		<tag k="ssr:stedsnr" v="65839" />
	</node>
	<node id="-32570" lat="59.7959444439" lon="11.2534611096">
		<tag k="alt_name" v="Taje" />
		<tag k="name" v="Tajet" />
		<tag k="place" v="farm" />
		<tag k="ssr:stedsnr" v="65827" />
	</node>
	<node id="-32569" lat="59.7863944423" lon="11.2531555558">
		<tag k="alt_name" v="Ødeby, nordre" />
		<tag k="name" v="Nordre Ødeby" />
		<tag k="place" v="farm" />
		<tag k="ssr:stedsnr" v="65821" />
	</node>
	<node id="-32568" lat="59.7927111142" lon="11.2508194524">
		<tag k="name" v="Rud" />
		<tag k="place" v="farm" />
		<tag k="ssr:stedsnr" v="65817" />
	</node>
	<node id="-32567" lat="59.8296694453" lon="11.2626805513">
		<tag k="name" v="Vindland" />
		<tag k="place" v="farm" />
		<tag k="ssr:stedsnr" v="65774" />
	</node>
	<node id="-32563" lat="59.8485611068" lon="11.2364694367">
		<tag k="name" v="Foss" />
		<tag k="place" v="isolated_dwelling" />
		<tag k="ssr:stedsnr" v="65722" />
	</node>
	<node id="-32561" lat="59.8668361077" lon="11.2320888908">
		<tag k="name" v="Bråten" />
		<tag k="place" v="farm" />
		<tag k="ssr:stedsnr" v="65704" />
	</node>
	<node id="-32560" lat="59.9253694438" lon="11.1758916587">
		<tag k="name" v="Hval" />
		<tag k="place" v="farm" />
		<tag k="ssr:stedsnr" v="65566" />
	</node>
	<node id="-32556" lat="59.9636527754" lon="11.1351777754">
		<tag k="alt_name" v="Ødegården" />
		<tag k="name" v="Øgarden" />
		<tag k="place" v="farm" />
		<tag k="ssr:stedsnr" v="65494" />
	</node>
	<node id="-32555" lat="59.9317355274" lon="11.1543000002">
		<tag k="name" v="Gardertoppen" />
		<tag k="place" v="hamlet" />
		<tag k="ssr:stedsnr" v="60429" />
	</node>
	<node id="-32554" lat="59.9408472205" lon="11.119763895">
		<tag k="name" v="Einerhaugen" />
		<tag k="place" v="isolated_dwelling" />
		<tag k="ssr:stedsnr" v="59857" />
	</node>
	<node id="-32546" lat="59.9254250013" lon="11.1721222279">
		<tag k="name" v="Tangen" />
		<tag k="place" v="hamlet" />
		<tag k="ssr:stedsnr" v="57644" />
	</node>
	<node id="-32545" lat="59.9250277801" lon="11.1403694518">
		<tag k="amenity" v="nursing_home" />
		<tag k="name" v="Fet aldershjem" />
		<tag k="ssr:stedsnr" v="57642" />
	</node>
	<node id="-32544" lat="59.9367972257" lon="11.1574000011">
		<tag k="name" v="Garderhavna" />
		<tag k="place" v="quarter" />
		<tag k="ssr:stedsnr" v="57631" />
	</node>
	<node id="-32543" lat="59.9339444471" lon="11.1461888975">
		<tag k="name" v="Nordre Støvin" />
		<tag k="place" v="farm" />
		<tag k="ssr:stedsnr" v="57626" />
	</node>
	<node id="-32538" lat="59.8808777739" lon="11.2345138926">
		<tag k="name" v="Nygård" />
		<tag k="place" v="farm" />
		<tag k="ssr:stedsnr" v="57506" />
	</node>
	<node id="-32525" lat="59.926222221" lon="11.1886194418">
		<tag k="name" v="Nordre Ramstad" />
		<tag k="place" v="farm" />
		<tag k="ssr:stedsnr" v="40868" />
	</node>
	<node id="-32524" lat="59.9289000013" lon="11.1945222182">
		<tag k="name" v="Øvre Ramstad" />
		<tag k="place" v="farm" />
		<tag k="ssr:stedsnr" v="40851" />
	</node>
	<node id="-32513" lat="59.8475138857" lon="11.2410583401">
		<tag k="name" v="Enger" />
		<tag k="place" v="farm" />
		<tag k="ssr:stedsnr" v="5724" />
	</node>
	<node id="-32511" lat="59.8746483148" lon="11.2245368346">
		<tag k="fixme" v="consider place=hamlet" />
		<tag k="name" v="Sofsrud" />
		<tag k="place" v="farm" />
		<tag k="ssr:stedsnr" v="5658" />
	</node>
	<node id="-32508" lat="59.8077111105" lon="11.2492805513">
		<tag k="name" v="Kreppa" />
		<tag k="place" v="farm" />
		<tag k="ssr:stedsnr" v="4813" />
	</node>
	<node id="-32505" lat="59.8534555542" lon="11.2406138829">
		<tag k="fixme" v="consider place=hamlet" />
		<tag k="name" v="Torud" />
		<tag k="place" v="farm" />
		<tag k="ssr:stedsnr" v="4736" />
	</node>
	<node id="-32504" lat="59.8644861142" lon="11.2580805492">
		<tag k="name" v="Høybråten" />
		<tag k="place" v="farm" />
		<tag k="ssr:stedsnr" v="4717" />
	</node>
	<node id="-32503" lat="59.8616222188" lon="11.2584555512">
		<tag k="name" v="Vestby" />
		<tag k="place" v="farm" />
		<tag k="ssr:stedsnr" v="4709" />
	</node>
	<node id="-32502" lat="59.8807750011" lon="11.2092361089">
		<tag k="name" v="Nitteberg" />
		<tag k="place" v="farm" />
		<tag k="ssr:stedsnr" v="4679" />
	</node>
	<node id="-32501" lat="59.8786026451" lon="11.2208109476">
		<tag k="fixme" v="consider place=hamlet" />
		<tag k="name" v="Kinn" />
		<tag k="place" v="farm" />
		<tag k="ssr:stedsnr" v="4678" />
	</node>
	<node id="-32499" lat="59.9341388865" lon="11.1334916662">
		<tag k="name" v="Foss" />
		<tag k="place" v="isolated_dwelling" />
		<tag k="ssr:stedsnr" v="4573" />
	</node>
	<node id="-32498" lat="59.9418166711" lon="11.1178916631">
		<tag k="name" v="Åkrane" />
		<tag k="place" v="hamlet" />
		<tag k="ssr:stedsnr" v="4568" />
	</node>
	<node id="-32479" lat="59.9222752005" lon="11.2240628051">
		<tag k="leisure" v="pitch" />
		<tag k="name" v="Fet skistadion" />
		<tag k="ssr:stedsnr" v="981680" />
	</node>
	<node id="-32478" lat="59.9214989847" lon="11.2143394254">
		<tag k="name" v="Heia" />
		<tag k="place" v="quarter" />
		<tag k="ssr:stedsnr" v="981678" />
	</node>
	<node id="-32477" lat="59.9267424211" lon="11.1992052579">
		<tag k="name" v="Ramstadskogen" />
		<tag k="place" v="quarter" />
		<tag k="ssr:stedsnr" v="981677" />
	</node>
	<node id="-32476" lat="59.9315479228" lon="11.1872675415">
		<tag k="name" v="Sagdalen" />
		<tag k="place" v="quarter" />
		<tag k="ssr:stedsnr" v="981676" />
	</node>
	<node id="-32475" lat="59.934281154" lon="11.1902539712">
		<tag k="name" v="Ekebergåsen" />
		<tag k="place" v="quarter" />
		<tag k="ssr:stedsnr" v="981675" />
	</node>
	<node id="-32467" lat="59.9060972195" lon="11.1681583268">
		<tag k="name" v="Monsrud" />
		<tag k="place" v="locality" />
		<tag k="ssr:stedsnr" v="892679" />
	</node>
	<node id="-32466" lat="59.9064305541" lon="11.1752444494">
		<tag k="name" v="Sørby" />
		<tag k="place" v="farm" />
		<tag k="ssr:stedsnr" v="892676" />
	</node>
	<node id="-32464" lat="59.9293166704" lon="11.2044999919">
		<tag k="alt_name" v="Tingsrud mellem" />
		<tag k="name" v="Mellom-Tingsrud" />
		<tag k="place" v="farm" />
		<tag k="ssr:stedsnr" v="890879" />
	</node>
	<node id="-32463" lat="59.9270361092" lon="11.1839833386">
		<tag k="name" v="Stubberud" />
		<tag k="place" v="farm" />
		<tag k="ssr:stedsnr" v="890858" />
	</node>
	<node id="-32462" lat="59.9263722218" lon="11.203338885">
		<tag k="name" v="Åserud" />
		<tag k="place" v="farm" />
		<tag k="ssr:stedsnr" v="890850" />
	</node>
	<node id="-32459" lat="59.8392111139" lon="11.2263472204">
		<tag k="alt_name" v="Barkenes nordre" />
		<tag k="name" v="Nordre Barkenes" />
		<tag k="place" v="farm" />
		<tag k="ssr:stedsnr" v="889339" />
	</node>
	<node id="-32453" lat="59.7964694444" lon="11.2923027716">
		<tag k="historic" v="shieling" />
		<tag k="name" v="Bølersetra" />
		<tag k="place" v="locality" />
		<tag k="ssr:stedsnr" v="889256" />
	</node>
	<node id="-32450" lat="59.9706861112" lon="11.188058336">
		<tag k="historic" v="shieling" />
		<tag k="name" v="Seterheim" />
		<tag k="place" v="locality" />
		<tag k="ssr:stedsnr" v="479122" />
	</node>
	<node id="-32444" lat="59.9248916688" lon="11.1891583313">
		<tag k="name" v="Søndre Ramstad" />
		<tag k="place" v="farm" />
		<tag k="ssr:stedsnr" v="404837" />
	</node>
	<node id="-32443" lat="59.9269555537" lon="11.2075472289">
		<tag k="name" v="Nørup" />
		<tag k="place" v="farm" />
		<tag k="ssr:stedsnr" v="404823" />
	</node>
	<node id="-32435" lat="59.8335742601" lon="11.2440557318">
		<tag k="fixme" v="consider place=hamlet" />
		<tag k="name" v="Bjørkeflåtten" />
		<tag k="place" v="farm" />
		<tag k="ssr:stedsnr" v="369723" />
	</node>
	<node id="-32434" lat="59.9082305588" lon="11.1747138933">
		<tag k="name" v="Nordby" />
		<tag k="place" v="farm" />
		<tag k="ssr:stedsnr" v="369577" />
	</node>
	<node id="-32428" lat="59.8546222178" lon="11.2653555537">
		<tag k="name" v="Holtedal" />
		<tag k="place" v="farm" />
		<tag k="ssr:stedsnr" v="368754" />
	</node>
	<node id="-32425" lat="59.8660611091" lon="11.2552027783">
		<tag k="name" v="Enga" />
		<tag k="place" v="farm" />
		<tag k="ssr:stedsnr" v="368738" />
	</node>
	<node id="-32422" lat="59.929160532" lon="11.207803111">
		<tag k="fixme" v="consider place=hamlet" />
		<tag k="name" v="Tingsrud" />
		<tag k="place" v="farm" />
		<tag k="ssr:stedsnr" v="368616" />
	</node>
	<node id="-32421" lat="59.9248346405" lon="11.1898515546">
		<tag k="fixme" v="consider place=hamlet" />
		<tag k="name" v="Ramstad" />
		<tag k="place" v="farm" />
		<tag k="ssr:stedsnr" v="368614" />
	</node>
	<node id="-32420" lat="59.9314333375" lon="11.1557805582">
		<tag k="name" v="Garder" />
		<tag k="place" v="farm" />
		<tag k="ssr:stedsnr" v="368612" />
	</node>
	<node id="-32419" lat="59.9472736851" lon="11.1239115732">
		<tag k="fixme" v="consider place=hamlet" />
		<tag k="name" v="Skjelver" />
		<tag k="place" v="farm" />
		<tag k="ssr:stedsnr" v="368591" />
	</node>
	<node id="-32417" lat="59.9708749994" lon="11.1101777754">
		<tag k="alt_name" v="Løkka" />
		<tag k="name" v="Lykkja" />
		<tag k="place" v="isolated_dwelling" />
		<tag k="ssr:stedsnr" v="368540" />
	</node>
	<node id="-32416" lat="59.9420861128" lon="11.1320166656">
		<tag k="building" v="commercial" />
		<tag k="name" v="Bråten" />
		<tag k="ssr:stedsnr" v="362869" />
	</node>
	<node id="-32412" lat="59.8526722185" lon="11.2339777817">
		<tag k="name" v="Harerud" />
		<tag k="place" v="farm" />
		<tag k="ssr:stedsnr" v="362361" />
	</node>
	<node id="-32410" lat="59.9330249956" lon="11.1458055517">
		<tag k="name" v="Søndre Støvin" />
		<tag k="place" v="farm" />
		<tag k="ssr:stedsnr" v="360635" />
	</node>
	<node id="-32408" lat="59.8631388903" lon="11.3261861171">
		<tag k="name" v="Sotbråten" />
		<tag k="old_name" v="Braathen" />
		<tag k="place" v="locality" />
		<tag k="ssr:stedsnr" v="360591" />
	</node>
	<node id="-32401" lat="59.9658499997" lon="11.2109416753">
		<tag k="name" v="Tyskerud" />
		<tag k="place" v="farm" />
		<tag k="ssr:stedsnr" v="358136" />
	</node>
	<node id="-32399" lat="59.91538344" lon="11.1774756184">
		<tag k="fixme" v="consider place=hamlet" />
		<tag k="name" v="Søndre Løken" />
		<tag k="place" v="farm" />
		<tag k="ssr:stedsnr" v="345724" />
	</node>
	<node id="-32398" lat="59.9159999998" lon="11.1354750059">
		<tag k="name" v="Banken" />
		<tag k="place" v="hamlet" />
		<tag k="ssr:stedsnr" v="345717" />
	</node>
	<node id="-32395" lat="59.8744444409" lon="11.2054388884">
		<tag k="name" v="Kroken" />
		<tag k="place" v="isolated_dwelling" />
		<tag k="ssr:stedsnr" v="345304" />
	</node>
	<node id="-32394" lat="59.8617722202" lon="11.2334972236">
		<tag k="name" v="Autenenga" />
		<tag k="place" v="farm" />
		<tag k="ssr:stedsnr" v="343663" />
	</node>
	<node id="-32391" lat="59.8731694483" lon="11.2735166673">
		<tag k="name" v="Vestre Skjatvet" />
		<tag k="place" v="locality" />
		<tag k="ssr:stedsnr" v="343640" />
	</node>
	<node id="-32390" lat="59.8692416663" lon="11.2479333381">
		<tag k="name" v="Kvernbråtan" />
		<tag k="place" v="farm" />
		<tag k="ssr:stedsnr" v="343637" />
	</node>
	<node id="-32389" lat="59.8661250027" lon="11.2484916652">
		<tag k="name" v="Snørsrud" />
		<tag k="place" v="locality" />
		<tag k="ssr:stedsnr" v="343636" />
	</node>
	<node id="-32388" lat="59.8575944453" lon="11.3389611066">
		<tag k="name" v="Enga" />
		<tag k="place" v="locality" />
		<tag k="ssr:stedsnr" v="343626" />
	</node>
	<node id="-32386" lat="59.8524305594" lon="11.2186055593">
		<tag k="alt_name" v="Østanes nordre" />
		<tag k="name" v="Nordre Østanes" />
		<tag k="place" v="farm" />
		<tag k="ssr:stedsnr" v="342329" />
	</node>
	<node id="-32385" lat="59.7757583318" lon="11.2625388891">
		<tag k="alt_name" v="Melnes søndre" />
		<tag k="name" v="Søndre Melnes" />
		<tag k="place" v="farm" />
		<tag k="ssr:stedsnr" v="342279" />
	</node>
	<node id="-32381" lat="59.7704138899" lon="11.2613222248">
		<tag k="name" v="Hestehagen" />
		<tag k="place" v="farm" />
		<tag k="ssr:stedsnr" v="308904" />
	</node>
	<node id="-32375" lat="59.8645694406" lon="11.2864111072">
		<tag k="fixme" v="consider place=hamlet" />
		<tag k="name" v="Gullerud" />
		<tag k="place" v="farm" />
		<tag k="ssr:stedsnr" v="308674" />
	</node>
	<node id="-32374" lat="59.8815163445" lon="11.2015607071">
		<tag k="fixme" v="consider place=hamlet" />
		<tag k="name" v="Svindal" />
		<tag k="place" v="farm" />
		<tag k="ssr:stedsnr" v="308649" />
	</node>
	<node id="-32372" lat="59.9413416709" lon="11.1707611096">
		<tag k="fixme" v="consider place=hamlet" />
		<tag k="name" v="Faller" />
		<tag k="place" v="farm" />
		<tag k="ssr:stedsnr" v="308552" />
	</node>
	<node id="-32371" lat="59.9387888888" lon="11.1399138883">
		<tag k="name" v="Tien" />
		<tag k="place" v="farm" />
		<tag k="ssr:stedsnr" v="308547" />
	</node>
	<node id="-32370" lat="59.9342685822" lon="11.1985280752">
		<tag k="fixme" v="consider place=hamlet" />
		<tag k="name" v="Falla" />
		<tag k="place" v="farm" />
		<tag k="ssr:stedsnr" v="308533" />
	</node>
	<node id="-32369" lat="59.9494861123" lon="11.2154916583">
		<tag k="name" v="Nordli" />
		<tag k="place" v="farm" />
		<tag k="ssr:stedsnr" v="308513" />
	</node>
	<node id="-32368" lat="59.9622611068" lon="11.2084999972">
		<tag k="name" v="Sletta" />
		<tag k="place" v="farm" />
		<tag k="ssr:stedsnr" v="308492" />
	</node>
	<node id="-32367" lat="59.9562583327" lon="11.1277500088">
		<tag k="alt_name" v="Berger, nordre" />
		<tag k="name" v="Nordre Berger" />
		<tag k="place" v="farm" />
		<tag k="ssr:stedsnr" v="308481" />
	</node>
	<node id="-32362" lat="59.9482989612" lon="11.1185208374">
		<tag k="alt_name" v="Vestre Løken" />
		<tag k="fixme" v="consider place=hamlet" />
		<tag k="name" v="Løken" />
		<tag k="place" v="farm" />
		<tag k="ssr:stedsnr" v="307570" />
	</node>
	<node id="-32360" lat="59.9398472194" lon="11.1547861022">
		<tag k="name" v="Furukollen" />
		<tag k="place" v="quarter" />
		<tag k="ssr:stedsnr" v="302864" />
	</node>
	<node id="-32359" lat="59.9414722215" lon="11.1719194381">
		<tag k="name" v="Nordre Faller" />
		<tag k="place" v="farm" />
		<tag k="ssr:stedsnr" v="302860" />
	</node>
	<node id="-32353" lat="59.9350111121" lon="11.1307555583">
		<tag k="name" v="Tomta" />
		<tag k="place" v="isolated_dwelling" />
		<tag k="ssr:stedsnr" v="300671" />
	</node>
	<node id="-32348" lat="59.8812666636" lon="11.2018888829">
		<tag k="alt_name" v="Svindal mellom" />
		<tag k="name" v="Mellom-Svindal" />
		<tag k="place" v="farm" />
		<tag k="ssr:stedsnr" v="300528" />
	</node>
	<node id="-32339" lat="59.8643166673" lon="11.2649444519">
		<tag k="name" v="Østby" />
		<tag k="place" v="locality" />
		<tag k="ssr:stedsnr" v="284612" />
	</node>
	<node id="-32336" lat="59.787791668" lon="11.2690222266">
		<tag k="name" v="Langerud" />
		<tag k="place" v="farm" />
		<tag k="ssr:stedsnr" v="282265" />
	</node>
	<node id="-32332" lat="59.7738666676" lon="11.3214999918">
		<tag k="name" v="Breilihytta" />
		<tag k="place" v="isolated_dwelling" />
		<tag k="ssr:stedsnr" v="282253" />
	</node>
	<node id="-32325" lat="59.9239388925" lon="11.1476999993">
		<tag k="alt_name" v="Søndre Nedrum" />
		<tag k="name" v="Søndre Nerdrum" />
		<tag k="place" v="farm" />
		<tag k="ssr:stedsnr" v="279311" />
	</node>
	<node id="-33286" lat="59.9428083311" lon="11.1556055634">
		<tag k="name" v="Bjørketunet" />
		<tag k="place" v="quarter" />
		<tag k="ssr:stedsnr" v="969871" />
	</node>
	<node id="-33284" lat="59.9367000027" lon="11.2018944386">
		<tag k="name" v="Granlund" />
		<tag k="place" v="isolated_dwelling" />
		<tag k="ssr:stedsnr" v="969841" />
	</node>
	<node id="-33283" lat="59.9373527782" lon="11.2084000068">
		<tag k="name" v="Nordre Tofsrud" />
		<tag k="place" v="farm" />
		<tag k="ssr:stedsnr" v="969842" />
	</node>
	<node id="-33282" lat="59.937111115" lon="11.1939361167">
		<tag k="name" v="Laget" />
		<tag k="place" v="farm" />
		<tag k="ssr:stedsnr" v="969838" />
	</node>
	<node id="-33281" lat="59.8354388847" lon="11.2474750033">
		<tag k="name" v="Nordby" />
		<tag k="place" v="farm" />
		<tag k="ssr:stedsnr" v="969381" />
	</node>
	<node id="-33277" lat="59.9334555589" lon="11.1286166584">
		<tag k="name" v="Balnes" />
		<tag k="place" v="quarter" />
		<tag k="ssr:stedsnr" v="967640" />
	</node>
	<node id="-33273" lat="59.8800749982" lon="11.2389972295">
		<tag k="name" v="Asplund" />
		<tag k="place" v="farm" />
		<tag k="ssr:stedsnr" v="967514" />
	</node>
	<node id="-33263" lat="59.9163527073" lon="11.1767626836">
		<tag k="fixme" v="consider place=hamlet" />
		<tag k="name" v="Nordre Løken" />
		<tag k="place" v="farm" />
		<tag k="ssr:stedsnr" v="952726" />
	</node>
	<node id="-33261" lat="59.8642416655" lon="11.2863388909">
		<tag k="alt_name" v="Gullerud søndre" />
		<tag k="name" v="Søndre Gullerud" />
		<tag k="place" v="farm" />
		<tag k="ssr:stedsnr" v="952581" />
	</node>
	<node id="-33260" lat="59.871449997" lon="11.227430563">
		<tag k="alt_name" v="By nedre" />
		<tag k="name" v="Nedre By" />
		<tag k="place" v="farm" />
		<tag k="ssr:stedsnr" v="952338" />
	</node>
	<node id="-33256" lat="59.8321694466" lon="11.2416333299">
		<tag k="name" v="Enga" />
		<tag k="place" v="farm" />
		<tag k="ssr:stedsnr" v="950349" />
	</node>
	<node id="-33255" lat="59.8334555516" lon="11.2447166632">
		<tag k="alt_name" v="Bjørkeflåtten søndre" />
		<tag k="name" v="Søndre Bjørkeflåtten" />
		<tag k="place" v="farm" />
		<tag k="ssr:stedsnr" v="950348" />
	</node>
	<node id="-33254" lat="59.8455833314" lon="11.2303250079">
		<tag k="name" v="Hvitås" />
		<tag k="place" v="farm" />
		<tag k="ssr:stedsnr" v="950345" />
	</node>
	<node id="-33252" lat="59.7713611117" lon="11.2575916725">
		<tag k="name" v="Sagstua" />
		<tag k="place" v="locality" />
		<tag k="ssr:stedsnr" v="950310" />
	</node>
	<node id="-33251" lat="59.7678916682" lon="11.2742777755">
		<tag k="alt_name" v="Teig mellom" />
		<tag k="name" v="Mellom-Teig" />
		<tag k="place" v="farm" />
		<tag k="ssr:stedsnr" v="950306" />
	</node>
	<node id="-33245" lat="59.8447611105" lon="11.2589749964">
		<tag k="name" v="Bjørndalen" />
		<tag k="place" v="farm" />
		<tag k="ssr:stedsnr" v="915721" />
	</node>
	<node id="-33244" lat="59.849438888" lon="11.3414749958">
		<tag k="alt_name" v="Jørgensbråten" />
		<tag k="name" v="Jørgensbråtan" />
		<tag k="place" v="farm" />
		<tag k="ssr:stedsnr" v="915710" />
	</node>
	<node id="-33243" lat="59.8655499989" lon="11.2807472164">
		<tag k="name" v="Svenskerud" />
		<tag k="place" v="farm" />
		<tag k="ssr:stedsnr" v="915688" />
	</node>
	<node id="-33242" lat="59.8672194488" lon="11.2626944531">
		<tag k="name" v="Sanderud" />
		<tag k="place" v="farm" />
		<tag k="ssr:stedsnr" v="915686" />
	</node>
	<node id="-33241" lat="59.8640055528" lon="11.2304166682">
		<tag k="name" v="Auten" />
		<tag k="place" v="farm" />
		<tag k="ssr:stedsnr" v="915681" />
	</node>
	<node id="-33240" lat="59.8780055551" lon="11.2622666653">
		<tag k="name" v="Rødbekken" />
		<tag k="place" v="farm" />
		<tag k="ssr:stedsnr" v="915658" />
	</node>
	<node id="-33238" lat="59.8941166646" lon="11.1964611093">
		<tag k="name" v="Tolerud" />
		<tag k="place" v="farm" />
		<tag k="ssr:stedsnr" v="915639" />
	</node>
	<node id="-33235" lat="59.9087194486" lon="11.1637861138">
		<tag k="name" v="Jaer" />
		<tag k="place" v="farm" />
		<tag k="ssr:stedsnr" v="915590" />
	</node>
	<node id="-33234" lat="59.9407346037" lon="11.1491652049">
		<tag k="fixme" v="consider place=suburb, village or hamlet" />
		<tag k="name" v="Vitåsen" />
		<tag k="place" v="quarter" />
		<tag k="ssr:stedsnr" v="915551" />
	</node>
	<node id="-33233" lat="59.9321611101" lon="11.2083944529">
		<tag k="name" v="Harastad" />
		<tag k="place" v="farm" />
		<tag k="ssr:stedsnr" v="915548" />
	</node>
	<node id="-33232" lat="59.9401722207" lon="11.22693334">
		<tag k="name" v="Kvernstua" />
		<tag k="place" v="farm" />
		<tag k="ssr:stedsnr" v="915535" />
	</node>
	<node id="-33231" lat="59.9408916645" lon="11.1710916746">
		<tag k="name" v="Søndre Faller" />
		<tag k="place" v="farm" />
		<tag k="ssr:stedsnr" v="909883" />
	</node>
	<node id="-33230" lat="59.9495805594" lon="11.1173472277">
		<tag k="name" v="Vangen" />
		<tag k="place" v="hamlet" />
		<tag k="ssr:stedsnr" v="909875" />
	</node>
	<node id="-33229" lat="59.9571055554" lon="11.1135833386">
		<tag k="name" v="Hotvet" />
		<tag k="place" v="farm" />
		<tag k="ssr:stedsnr" v="909873" />
	</node>
	<node id="-33228" lat="59.9348777733" lon="11.2054611171">
		<tag k="name" v="Falla" />
		<tag k="place" v="farm" />
		<tag k="ssr:stedsnr" v="909861" />
	</node>
	<node id="-33218" lat="59.9591833329" lon="11.179652774">
		<tag k="name" v="Skårer" />
		<tag k="place" v="farm" />
		<tag k="ssr:stedsnr" v="904883" />
	</node>
	<node id="-33217" lat="59.940224999" lon="11.2042222252">
		<tag k="name" v="Myra" />
		<tag k="place" v="farm" />
		<tag k="ssr:stedsnr" v="904877" />
	</node>
	<node id="-33214" lat="59.9132111147" lon="11.1659750018">
		<tag k="name" v="Øverby" />
		<tag k="place" v="farm" />
		<tag k="ssr:stedsnr" v="855618" />
	</node>
	<node id="-33213" lat="59.9539722198" lon="11.2023944446">
		<tag k="name" v="Løvås" />
		<tag k="place" v="isolated_dwelling" />
		<tag k="ssr:stedsnr" v="855540" />
	</node>
	<node id="-33212" lat="59.7605722194" lon="11.3026444466">
		<tag k="name" v="Myrer" />
		<tag k="place" v="farm" />
		<tag k="ssr:stedsnr" v="854888" />
	</node>
	<node id="-33211" lat="59.7777666627" lon="11.2704777801">
		<tag k="name" v="Mungerud" />
		<tag k="place" v="farm" />
		<tag k="ssr:stedsnr" v="854848" />
	</node>
	<node id="-33209" lat="59.8504027778" lon="11.2416444464">
		<tag k="name" v="Ersrud" />
		<tag k="place" v="farm" />
		<tag k="ssr:stedsnr" v="854698" />
	</node>
	<node id="-33208" lat="59.8713666704" lon="11.2695166625">
		<tag k="name" v="Tunnerud" />
		<tag k="place" v="farm" />
		<tag k="ssr:stedsnr" v="854668" />
	</node>
	<node id="-33203" lat="59.919894443" lon="11.205038886">
		<tag k="name" v="Langerud" />
		<tag k="place" v="isolated_dwelling" />
		<tag k="ssr:stedsnr" v="854584" />
	</node>
	<node id="-33202" lat="59.9387916707" lon="11.2050750056">
		<tag k="name" v="Myrvoll" />
		<tag k="place" v="farm" />
		<tag k="ssr:stedsnr" v="854558" />
	</node>
	<node id="-33201" lat="59.9327777789" lon="11.1452000088">
		<tag k="fixme" v="consider place=hamlet" />
		<tag k="name" v="Støvin" />
		<tag k="place" v="farm" />
		<tag k="ssr:stedsnr" v="854556" />
	</node>
	<node id="-33200" lat="59.93543056" lon="11.2307888873">
		<tag k="name" v="Uriansrud" />
		<tag k="place" v="farm" />
		<tag k="ssr:stedsnr" v="854542" />
	</node>
	<node id="-33199" lat="59.9615111124" lon="11.202861119">
		<tag k="name" v="Flaen" />
		<tag k="place" v="farm" />
		<tag k="ssr:stedsnr" v="854507" />
	</node>
	<node id="-33192" lat="59.92958611" lon="11.1395166657">
		<tag k="name" v="Nordre Hovin" />
		<tag k="place" v="isolated_dwelling" />
		<tag k="ssr:stedsnr" v="846673" />
	</node>
	<node id="-33191" lat="59.9291972178" lon="11.1606638878">
		<tag k="name" v="Hauger" />
		<tag k="place" v="quarter" />
		<tag k="ssr:stedsnr" v="846651" />
	</node>
	<node id="-33186" lat="59.859708332" lon="11.3313027863">
		<tag k="name" v="Søndre Midtskog" />
		<tag k="place" v="farm" />
		<tag k="ssr:stedsnr" v="846595" />
	</node>
	<node id="-33181" lat="59.9096611086" lon="11.1819111142">
		<tag k="name" v="Skjønhaug" />
		<tag k="place" v="farm" />
		<tag k="ssr:stedsnr" v="831701" />
	</node>
	<node id="-33179" lat="59.8563472181" lon="11.2344916739">
		<tag k="name" v="Sandsmoen" />
		<tag k="place" v="quarter" />
		<tag k="ssr:stedsnr" v="831543" />
	</node>
	<node id="-33177" lat="59.8555750006" lon="11.2418500037">
		<tag k="name" v="Lunder" />
		<tag k="place" v="farm" />
		<tag k="ssr:stedsnr" v="831314" />
	</node>
	<node id="-33176" lat="59.8732388858" lon="11.2279611069">
		<tag k="name" v="Søndre Sofsrud" />
		<tag k="place" v="farm" />
		<tag k="ssr:stedsnr" v="831312" />
	</node>
	<node id="-33175" lat="59.9294416678" lon="11.1877944496">
		<tag k="name" v="Ramstadenga" />
		<tag k="place" v="farm" />
		<tag k="ssr:stedsnr" v="829844" />
	</node>
	<node id="-33174" lat="59.9274861139" lon="11.2065611054">
		<tag k="name" v="Søndre Tingsrud" />
		<tag k="place" v="farm" />
		<tag k="ssr:stedsnr" v="829840" />
	</node>
	<node id="-33171" lat="59.9062390663" lon="11.1622202017">
		<tag k="fixme" v="consider place=hamlet" />
		<tag k="name" v="Bjanes" />
		<tag k="place" v="farm" />
		<tag k="ssr:stedsnr" v="831650" />
	</node>
	<node id="-33166" lat="59.8498305569" lon="11.2187527759">
		<tag k="alt_name" v="Østanes nedre" />
		<tag k="name" v="Nedre Østanes" />
		<tag k="place" v="farm" />
		<tag k="ssr:stedsnr" v="828345" />
	</node>
	<node id="-33164" lat="59.7598250025" lon="11.3052999991">
		<tag k="name" v="Nistua" />
		<tag k="place" v="isolated_dwelling" />
		<tag k="ssr:stedsnr" v="828299" />
	</node>
	<node id="-33162" lat="59.7688583373" lon="11.2704249953">
		<tag k="alt_name" v="Teig nordre" />
		<tag k="name" v="Nordre Teig" />
		<tag k="place" v="locality" />
		<tag k="ssr:stedsnr" v="828283" />
	</node>
	<node id="-33161" lat="59.785433335" lon="11.2775944366">
		<tag k="building" v="industrial" />
		<tag k="industrial" v="factory" />
		<tag k="name" v="Bøler mølle" />
		<tag k="ssr:stedsnr" v="828273" />
	</node>
	<node id="-33160" lat="59.7860805568" lon="11.2388083357">
		<tag k="name" v="Kølabånn" />
		<tag k="place" v="locality" />
		<tag k="ssr:stedsnr" v="828265" />
	</node>
	<node id="-33148" lat="59.9560312895" lon="11.1732741909">
		<tag k="fixme" v="consider place=hamlet" />
		<tag k="name" v="Skårer" />
		<tag k="place" v="farm" />
		<tag k="ssr:stedsnr" v="794538" />
	</node>
	<node id="-33146" lat="59.9541861073" lon="11.1215111168">
		<tag k="alt_name" v="Smedberg" />
		<tag k="name" v="Smedsberg" />
		<tag k="place" v="farm" />
		<tag k="ssr:stedsnr" v="794502" />
	</node>
	<node id="-33144" lat="59.7625638902" lon="11.2851333385">
		<tag k="alt_name" v="Prinsholen" />
		<tag k="name" v="Prinseholen" />
		<tag k="place" v="farm" />
		<tag k="ssr:stedsnr" v="793892" />
	</node>
	<node id="-33143" lat="59.7819944469" lon="11.2534638879">
		<tag k="alt_name" v="Ødeby, søndre;Ødeby" />
		<tag k="name" v="Søndre Ødeby" />
		<tag k="place" v="farm" />
		<tag k="ssr:stedsnr" v="793854" />
	</node>
	<node id="-33142" lat="59.8034527749" lon="11.2566944527">
		<tag k="name" v="Enger" />
		<tag k="place" v="farm" />
		<tag k="ssr:stedsnr" v="793836" />
	</node>
	<node id="-33141" lat="59.816094442" lon="11.2748694471">
		<tag k="name" v="Sludderud" />
		<tag k="place" v="farm" />
		<tag k="ssr:stedsnr" v="793823" />
	</node>
	<node id="-33139" lat="59.8558833364" lon="11.2432833374">
		<tag k="name" v="Lund" />
		<tag k="place" v="farm" />
		<tag k="ssr:stedsnr" v="793747" />
	</node>
	<node id="-33138" lat="59.8502583329" lon="11.259722225">
		<tag k="name" v="Bergerud" />
		<tag k="place" v="farm" />
		<tag k="ssr:stedsnr" v="793746" />
	</node>
	<node id="-33137" lat="59.8583894657" lon="11.2283763134">
		<tag k="fixme" v="consider place=hamlet" />
		<tag k="name" v="Gjestad" />
		<tag k="place" v="farm" />
		<tag k="ssr:stedsnr" v="793742" />
	</node>
	<node id="-33135" lat="59.867791665" lon="11.2410805595">
		<tag k="name" v="Sørli" />
		<tag k="place" v="isolated_dwelling" />
		<tag k="ssr:stedsnr" v="793730" />
	</node>
	<node id="-33134" lat="59.8646250036" lon="11.2208277707">
		<tag k="name" v="Gan" />
		<tag k="place" v="farm" />
		<tag k="ssr:stedsnr" v="793723" />
	</node>
	<node id="-33133" lat="59.8709277766" lon="11.2861888904">
		<tag k="name" v="Sollia" />
		<tag k="place" v="farm" />
		<tag k="ssr:stedsnr" v="793712" />
	</node>
	<node id="-33132" lat="59.871399998" lon="11.2239972283">
		<tag k="alt_name" v="By, nordre;By nordre" />
		<tag k="name" v="Nordre By" />
		<tag k="place" v="farm" />
		<tag k="ssr:stedsnr" v="793701" />
	</node>
	<node id="-33130" lat="59.8867888896" lon="11.1884194462">
		<tag k="alt_name" v="Kvernhamar" />
		<tag k="name" v="Kvernhammer" />
		<tag k="place" v="farm" />
		<tag k="ssr:stedsnr" v="793680" />
	</node>
	<node id="-33127" lat="59.9163666672" lon="11.1846027866">
		<tag k="name" v="Klokkerud" />
		<tag k="place" v="isolated_dwelling" />
		<tag k="ssr:stedsnr" v="793630" />
	</node>
	<node id="-33125" lat="59.9237777745" lon="11.2127027736">
		<tag k="name" v="Hagen" />
		<tag k="place" v="farm" />
		<tag k="ssr:stedsnr" v="793612" />
	</node>
	<node id="-33124" lat="59.9276500002" lon="11.1932361043">
		<tag k="fixme" v="multiple name tags, choose one and add the other to alt_name" />
		<tag k="name" v="Flaen;Jensrud" />
		<tag k="place" v="farm" />
		<tag k="ssr:stedsnr" v="793610" />
	</node>
	<node id="-33123" lat="59.9346388848" lon="11.1569916629">
		<tag k="name" v="Enger" />
		<tag k="place" v="farm" />
		<tag k="ssr:stedsnr" v="793602" />
	</node>
	<node id="-33122" lat="59.9481305548" lon="11.192727782">
		<tag k="fixme" v="consider place=hamlet" />
		<tag k="name" v="Holter" />
		<tag k="place" v="farm" />
		<tag k="ssr:stedsnr" v="793592" />
	</node>
	<node id="-33121" lat="59.9590277736" lon="11.1369388941">
		<tag k="name" v="Sagholen" />
		<tag k="place" v="isolated_dwelling" />
		<tag k="ssr:stedsnr" v="793533" />
	</node>
	<node id="-33120" lat="59.9656805569" lon="11.1031638899">
		<tag k="fixme" v="consider place=hamlet" />
		<tag k="name" v="Jølsen" />
		<tag k="place" v="farm" />
		<tag k="ssr:stedsnr" v="793531" />
	</node>
	<node id="-33117" lat="59.7847277786" lon="11.261202786">
		<tag k="alt_name" v="Neset" />
		<tag k="fixme" v="consider place=hamlet" />
		<tag k="name" v="Enebakkneset" />
		<tag k="old_name" v="Enebakneset" />
		<tag k="place" v="village" />
		<tag k="ssr:stedsnr" v="787793" />
	</node>
	<node id="-33113" lat="59.9244944435" lon="11.1560277832">
		<tag k="amenity" v="townhall" />
		<tag k="name" v="Herredshuset" />
		<tag k="ssr:stedsnr" v="785639" />
	</node>
	<node id="-33112" lat="59.9095750022" lon="11.2569583309">
		<tag k="name" v="Tretysjøhytta" />
		<tag k="place" v="isolated_dwelling" />
		<tag k="ssr:stedsnr" v="785615" />
	</node>
	<node id="-33110" lat="59.8767500036" lon="11.2528555611">
		<tag k="name" v="Mo" />
		<tag k="place" v="hamlet" />
		<tag k="ssr:stedsnr" v="785536" />
	</node>
	<node id="-33107" lat="59.8770749964" lon="11.2134222184">
		<tag k="name" v="Veiby" />
		<tag k="place" v="farm" />
		<tag k="ssr:stedsnr" v="785490" />
	</node>
	<node id="-33106" lat="59.8790305531" lon="11.216822229">
		<tag k="name" v="Nordre Kinn" />
		<tag k="place" v="farm" />
		<tag k="ssr:stedsnr" v="785485" />
	</node>
	<node id="-33105" lat="59.9715833291" lon="11.1012805565">
		<tag k="name" v="Myrbo" />
		<tag k="place" v="locality" />
		<tag k="ssr:stedsnr" v="783884" />
	</node>
	<node id="-33104" lat="59.9666027813" lon="11.1015944446">
		<tag k="name" v="Kjona" />
		<tag k="place" v="locality" />
		<tag k="ssr:stedsnr" v="783881" />
	</node>
	<node id="-33101" lat="59.9478333364" lon="11.1929083421">
		<tag k="name" v="Holter" />
		<tag k="place" v="farm" />
		<tag k="ssr:stedsnr" v="783869" />
	</node>
	<node id="-33100" lat="59.8746861083" lon="11.240474993">
		<tag k="name" v="Brovoll" />
		<tag k="place" v="farm" />
		<tag k="ssr:stedsnr" v="783103" />
	</node>
	<node id="-33096" lat="59.8901305516" lon="11.1575527832">
		<tag k="name" v="Oversand sameie" />
		<tag k="place" v="locality" />
		<tag k="ssr:stedsnr" v="770672" />
	</node>
	<node id="-33092" lat="59.8630166623" lon="11.2210444458">
		<tag k="name" v="Hagen" />
		<tag k="place" v="farm" />
		<tag k="ssr:stedsnr" v="769322" />
	</node>
	<node id="-33091" lat="59.766166663" lon="11.27642223">
		<tag k="name" v="Teig" />
		<tag k="place" v="farm" />
		<tag k="ssr:stedsnr" v="767472" />
	</node>
	<node id="-33090" lat="59.7784000032" lon="11.2791277849">
		<tag k="building" v="industrial" />
		<tag k="name" v="Svartdal bruk" />
		<tag k="ssr:stedsnr" v="767285" />
	</node>
	<node id="-33089" lat="59.7773416636" lon="11.261274999">
		<tag k="alt_name" v="Melnes vestre" />
		<tag k="name" v="Vestre Melnes" />
		<tag k="place" v="farm" />
		<tag k="ssr:stedsnr" v="767283" />
	</node>
	<node id="-33085" lat="59.7949388914" lon="11.2509694494">
		<tag k="name" v="Berg" />
		<tag k="place" v="farm" />
		<tag k="ssr:stedsnr" v="767249" />
	</node>
	<node id="-33078" lat="59.8065666661" lon="11.2527527756">
		<tag k="name" v="Ersrud" />
		<tag k="place" v="farm" />
		<tag k="ssr:stedsnr" v="733770" />
	</node>
	<node id="-33077" lat="59.8380222194" lon="11.2560388885">
		<tag k="name" v="Holen" />
		<tag k="place" v="isolated_dwelling" />
		<tag k="ssr:stedsnr" v="733756" />
	</node>
	<node id="-33073" lat="59.8456444437" lon="11.2325777843">
		<tag k="name" v="Utsikt" />
		<tag k="place" v="farm" />
		<tag k="ssr:stedsnr" v="733709" />
	</node>
	<node id="-33072" lat="59.859927781" lon="11.3312972152">
		<tag k="fixme" v="consider place=hamlet" />
		<tag k="name" v="Midtskog" />
		<tag k="place" v="farm" />
		<tag k="ssr:stedsnr" v="733680" />
	</node>
	<node id="-33069" lat="59.8685138922" lon="11.2694111106">
		<tag k="name" v="Hagen" />
		<tag k="place" v="farm" />
		<tag k="ssr:stedsnr" v="733670" />
	</node>
	<node id="-33068" lat="59.8698722268" lon="11.2150861065">
		<tag k="fixme" v="consider place=hamlet" />
		<tag k="name" v="Blesa" />
		<tag k="place" v="farm" />
		<tag k="ssr:stedsnr" v="733657" />
	</node>
	<node id="-33065" lat="59.9134555557" lon="11.1597638964">
		<tag k="name" v="Hov" />
		<tag k="place" v="farm" />
		<tag k="ssr:stedsnr" v="733577" />
	</node>
	<node id="-33063" lat="59.92257222" lon="11.168125002">
		<tag k="name" v="Sundet" />
		<tag k="place" v="farm" />
		<tag k="ssr:stedsnr" v="733566" />
	</node>
	<node id="-33062" lat="59.9157584582" lon="11.1776222135">
		<tag k="name" v="Løken" />
		<tag k="place" v="hamlet" />
		<tag k="ssr:stedsnr" v="733565" />
	</node>
	<node id="-33061" lat="59.9341194466" lon="11.2114388864">
		<tag k="name" v="Hestebråten" />
		<tag k="place" v="farm" />
		<tag k="ssr:stedsnr" v="733532" />
	</node>
	<node id="-33055" lat="59.8228555515" lon="11.2383666743">
		<tag k="alt_name" v="Fugli" />
		<tag k="name" v="Fuglli" />
		<tag k="place" v="farm" />
		<tag k="ssr:stedsnr" v="732765" />
	</node>
	<node id="-33054" lat="59.8573583293" lon="11.2329694379">
		<tag k="fixme" v="consider place=hamlet" />
		<tag k="name" v="Gansdalen" />
		<tag k="place" v="village" />
		<tag k="ssr:stedsnr" v="732717" />
	</node>
	<node id="-33052" lat="59.9008277812" lon="11.1624333371">
		<tag k="alt_name" v="Bjanes, søndre" />
		<tag k="name" v="Søndre Bjanes" />
		<tag k="place" v="locality" />
		<tag k="ssr:stedsnr" v="732674" />
	</node>
	<node id="-33050" lat="59.9311555519" lon="11.1943111198">
		<tag k="name" v="Bakås" />
		<tag k="place" v="farm" />
		<tag k="ssr:stedsnr" v="732596" />
	</node>
	<node id="-33049" lat="59.9440388857" lon="11.1912749976">
		<tag k="fixme" v="consider place=hamlet" />
		<tag k="name" v="Kjustad" />
		<tag k="place" v="farm" />
		<tag k="ssr:stedsnr" v="732592" />
	</node>
	<node id="-33046" lat="59.9184750004" lon="11.170880564">
		<tag k="name" v="Sundhagen" />
		<tag k="place" v="quarter" />
		<tag k="ssr:stedsnr" v="725636" />
	</node>
	<node id="-33045" lat="59.9197166627" lon="11.1784750071">
		<tag k="name" v="Bakkeli" />
		<tag k="place" v="farm" />
		<tag k="ssr:stedsnr" v="725623" />
	</node>
	<node id="-33040" lat="59.8824472255" lon="11.2022333386">
		<tag k="name" v="Nordre Svindal" />
		<tag k="place" v="farm" />
		<tag k="ssr:stedsnr" v="725469" />
	</node>
	<node id="-33038" lat="59.9399333343" lon="11.1974722141">
		<tag k="name" v="Karlsrud" />
		<tag k="place" v="farm" />
		<tag k="ssr:stedsnr" v="722896" />
	</node>
	<node id="-33037" lat="59.9429583329" lon="11.1236027802">
		<tag k="name" v="Vestre Enga" />
		<tag k="place" v="quarter" />
		<tag k="ssr:stedsnr" v="722888" />
	</node>
	<node id="-33036" lat="59.9426694456" lon="11.1248555554">
		<tag k="name" v="Østre Enga" />
		<tag k="place" v="quarter" />
		<tag k="ssr:stedsnr" v="722889" />
	</node>
	<node id="-33031" lat="59.9082722225" lon="11.1576055604">
		<tag k="name" v="Solheim" />
		<tag k="place" v="isolated_dwelling" />
		<tag k="ssr:stedsnr" v="709683" />
	</node>
	<node id="-33030" lat="59.9032750026" lon="11.1622861142">
		<tag k="name" v="Vestre Bjanes" />
		<tag k="place" v="farm" />
		<tag k="ssr:stedsnr" v="709675" />
	</node>
	<node id="-33028" lat="59.8596527782" lon="11.2381972156">
		<tag k="name" v="Kilde" />
		<tag k="place" v="farm" />
		<tag k="ssr:stedsnr" v="709599" />
	</node>
	<node id="-33026" lat="59.9281250007" lon="11.1994833292">
		<tag k="name" v="Løkka" />
		<tag k="place" v="farm" />
		<tag k="ssr:stedsnr" v="707837" />
	</node>
	<node id="-33024" lat="59.869463887" lon="11.2554333415">
		<tag k="name" v="Sverterud" />
		<tag k="place" v="farm" />
		<tag k="ssr:stedsnr" v="707620" />
	</node>
	<node id="-33022" lat="59.8517194437" lon="11.2181999965">
		<tag k="alt_name" v="Østanes øvre" />
		<tag k="name" v="Øvre Østanes" />
		<tag k="place" v="farm" />
		<tag k="ssr:stedsnr" v="707367" />
	</node>
	<node id="-33018" lat="59.7841305566" lon="11.274011103">
		<tag k="alt_name" v="Bøler søndre" />
		<tag k="name" v="Søndre Bøler" />
		<tag k="place" v="farm" />
		<tag k="ssr:stedsnr" v="707303" />
	</node>
	<node id="-33013" lat="59.8099055515" lon="11.246130552">
		<tag k="name" v="Marikjelda" />
		<tag k="place" v="locality" />
		<tag k="ssr:stedsnr" v="707271" />
	</node>
	<node id="-33009" lat="59.8769388867" lon="11.2474527773">
		<tag k="alt_name" v="Stensrud" />
		<tag k="name" v="Steinsrud" />
		<tag k="place" v="isolated_dwelling" />
		<tag k="ssr:stedsnr" v="672670" />
	</node>
	<node id="-33008" lat="59.8766444404" lon="11.2043527745">
		<tag k="name" v="Hagen" />
		<tag k="place" v="farm" />
		<tag k="ssr:stedsnr" v="672665" />
	</node>
	<node id="-33007" lat="59.8741111144" lon="11.2330749984">
		<tag k="name" v="Ånnerud" />
		<tag k="place" v="farm" />
		<tag k="ssr:stedsnr" v="672659" />
	</node>
	<node id="-33006" lat="59.8887527814" lon="11.2011333286">
		<tag k="name" v="Gaukerud" />
		<tag k="place" v="farm" />
		<tag k="ssr:stedsnr" v="672638" />
	</node>
	<node id="-33005" lat="59.9062777807" lon="11.1833361058">
		<tag k="name" v="Hellerud" />
		<tag k="place" v="farm" />
		<tag k="ssr:stedsnr" v="672599" />
	</node>
	<node id="-33003" lat="59.9218972232" lon="11.1989972167">
		<tag k="name" v="Gran" />
		<tag k="place" v="farm" />
		<tag k="ssr:stedsnr" v="672571" />
	</node>
	<node id="-33002" lat="59.923125003" lon="11.1406249992">
		<tag k="fixme" v="consider place=suburb, village or hamlet" />
		<tag k="name" v="Nerdrum" />
		<tag k="place" v="quarter" />
		<tag k="ssr:stedsnr" v="672564" />
	</node>
	<node id="-33001" lat="59.9246305569" lon="11.1571111131">
		<tag k="name" v="Fetsund" />
		<tag k="place" v="village" />
		<tag k="ssr:stedsnr" v="672544" />
	</node>
	<node id="-33000" lat="59.9492277774" lon="11.2119611108">
		<tag k="name" v="Kroken" />
		<tag k="place" v="farm" />
		<tag k="ssr:stedsnr" v="672508" />
	</node>
	<node id="-32999" lat="59.9524166667" lon="11.1130861125">
		<tag k="name" v="Borgen" />
		<tag k="place" v="farm" />
		<tag k="ssr:stedsnr" v="672482" />
	</node>
	<node id="-32998" lat="59.9663305591" lon="11.1369972176">
		<tag k="name" v="Skogen" />
		<tag k="place" v="farm" />
		<tag k="ssr:stedsnr" v="672459" />
	</node>
	<node id="-32996" lat="59.7840333354" lon="11.2452083396">
		<tag k="name" v="Ringstad" />
		<tag k="place" v="farm" />
		<tag k="ssr:stedsnr" v="671870" />
	</node>
	<node id="-32995" lat="59.7847756342" lon="11.2745591321">
		<tag k="fixme" v="consider place=hamlet" />
		<tag k="name" v="Bøler" />
		<tag k="place" v="farm" />
		<tag k="ssr:stedsnr" v="671851" />
	</node>
	<node id="-32994" lat="59.8202333335" lon="11.268105547">
		<tag k="alt_name" v="Trætta" />
		<tag k="name" v="Tretta" />
		<tag k="place" v="farm" />
		<tag k="ssr:stedsnr" v="671805" />
	</node>
	<node id="-32993" lat="59.9365194456" lon="11.246024995">
		<tag k="name" v="Brattås" />
		<tag k="place" v="locality" />
		<tag k="ssr:stedsnr" v="666830" />
	</node>
	<node id="-32985" lat="59.8786972216" lon="11.2216250015">
		<tag k="name" v="Nedre Kinn" />
		<tag k="place" v="farm" />
		<tag k="ssr:stedsnr" v="664495" />
	</node>
	<node id="-32983" lat="59.9628777822" lon="11.1805749955">
		<tag k="name" v="Engerdal" />
		<tag k="place" v="isolated_dwelling" />
		<tag k="ssr:stedsnr" v="661911" />
	</node>
	<node id="-32976" lat="59.9178388904" lon="11.1828249944">
		<tag k="name" v="Klokkerud" />
		<tag k="place" v="farm" />
		<tag k="ssr:stedsnr" v="661111" />
	</node>
	<node id="-32975" lat="59.7657861152" lon="11.3476527832">
		<tag k="historic" v="shieling" />
		<tag k="name" v="Lindebergsetra" />
		<tag k="place" v="locality" />
		<tag k="ssr:stedsnr" v="661108" />
	</node>
	<node id="-32970" lat="59.8593416675" lon="11.2273361189">
		<tag k="alt_name" v="Gjestad nordre" />
		<tag k="name" v="Nordre Gjestad" />
		<tag k="place" v="farm" />
		<tag k="ssr:stedsnr" v="648358" />
	</node>
	<node id="-32969" lat="59.9285444406" lon="11.1984722234">
		<tag k="name" v="Saga" />
		<tag k="place" v="isolated_dwelling" />
		<tag k="ssr:stedsnr" v="646821" />
	</node>
	<node id="-32967" lat="59.8378222246" lon="11.2272888825">
		<tag k="alt_name" v="Barkenes søndre" />
		<tag k="name" v="Søndre Barkenes" />
		<tag k="place" v="farm" />
		<tag k="ssr:stedsnr" v="646347" />
	</node>
	<node id="-32966" lat="59.8276000015" lon="11.2420750085">
		<tag k="name" v="Olberg" />
		<tag k="place" v="locality" />
		<tag k="ssr:stedsnr" v="646345" />
	</node>
	<node id="-32962" lat="59.7776500027" lon="11.2621694438">
		<tag k="alt_name" v="Melnes nordre" />
		<tag k="name" v="Nordre Melnes" />
		<tag k="place" v="farm" />
		<tag k="ssr:stedsnr" v="646288" />
	</node>
	<node id="-32961" lat="59.7817694424" lon="11.2524527783">
		<tag k="name" v="Nistua" />
		<tag k="place" v="locality" />
		<tag k="ssr:stedsnr" v="646286" />
	</node>
	<node id="-32956" lat="59.7951250036" lon="11.256180552">
		<tag k="fixme" v="consider place=hamlet" />
		<tag k="name" v="Ulsrud" />
		<tag k="place" v="farm" />
		<tag k="ssr:stedsnr" v="611853" />
	</node>
	<node id="-32954" lat="59.8612027789" lon="11.3142972301">
		<tag k="name" v="Saga" />
		<tag k="place" v="farm" />
		<tag k="ssr:stedsnr" v="611716" />
	</node>
	<node id="-32953" lat="59.8614083349" lon="11.255763891">
		<tag k="name" v="Skinnerud" />
		<tag k="place" v="farm" />
		<tag k="ssr:stedsnr" v="611705" />
	</node>
	<node id="-32950" lat="59.8966527742" lon="11.1926611175">
		<tag k="name" v="Råmyra" />
		<tag k="place" v="isolated_dwelling" />
		<tag k="ssr:stedsnr" v="611670" />
	</node>
	<node id="-32947" lat="59.9370499996" lon="11.1867555572">
		<tag k="name" v="Fråstad" />
		<tag k="place" v="farm" />
		<tag k="ssr:stedsnr" v="611577" />
	</node>
	<node id="-32946" lat="59.9469249996" lon="11.2075111149">
		<tag k="fixme" v="multiple name tags, choose one and add the other to alt_name" />
		<tag k="name" v="Holtersletta;Sletta" />
		<tag k="place" v="isolated_dwelling" />
		<tag k="ssr:stedsnr" v="611560" />
	</node>
	<node id="-32943" lat="59.9297305518" lon="11.200661108">
		<tag k="name" v="Fossen" />
		<tag k="place" v="isolated_dwelling" />
		<tag k="ssr:stedsnr" v="605864" />
	</node>
	<node id="-32938" lat="59.9317197241" lon="11.1480225948">
		<tag k="name" v="Støvinåsen" />
		<tag k="place" v="quarter" />
		<tag k="ssr:stedsnr" v="603659" />
	</node>
	<node id="-32937" lat="59.932419446" lon="11.1416499934">
		<tag k="amenity" v="school" />
		<tag k="name" v="Hovinhøgda skole" />
		<tag k="ssr:stedsnr" v="603656" />
	</node>
	<node id="-32936" lat="59.9274611083" lon="11.1739555595">
		<tag k="name" v="Rosenlund" />
		<tag k="place" v="isolated_dwelling" />
		<tag k="ssr:stedsnr" v="603653" />
	</node>
	<node id="-32935" lat="59.9216138876" lon="11.1869027863">
		<tag k="name" v="Berg" />
		<tag k="place" v="farm" />
		<tag k="ssr:stedsnr" v="603638" />
	</node>
	<node id="-32934" lat="59.9204333369" lon="11.1854999934">
		<tag k="name" v="Løkenhagen" />
		<tag k="place" v="farm" />
		<tag k="ssr:stedsnr" v="603637" />
	</node>
	<node id="-32933" lat="59.9215944444" lon="11.1806027816">
		<tag k="name" v="Kringen" />
		<tag k="place" v="farm" />
		<tag k="ssr:stedsnr" v="603634" />
	</node>
	<node id="-32932" lat="59.9138166644" lon="11.238391666">
		<tag k="name" v="Hvalsetra" />
		<tag k="place" v="locality" />
		<tag k="ssr:stedsnr" v="603611" />
	</node>
	<node id="-32930" lat="59.8809305594" lon="11.1967361102">
		<tag k="name" v="Vestre Svindal" />
		<tag k="place" v="farm" />
		<tag k="ssr:stedsnr" v="603512" />
	</node>
	<node id="-32929" lat="59.965183335" lon="11.1873555495">
		<tag k="name" v="Åslia" />
		<tag k="place" v="locality" />
		<tag k="ssr:stedsnr" v="600907" />
	</node>
	<node id="-32927" lat="59.9641194485" lon="11.1482111144">
		<tag k="name" v="Dammen" />
		<tag k="place" v="locality" />
		<tag k="ssr:stedsnr" v="600900" />
	</node>
	<node id="-32924" lat="59.9292944456" lon="11.1553361145">
		<tag k="alt_name" v="Fetsund batteri;Skansen" />
		<tag k="landuse" v="military" />
		<tag k="loc_name" v="Vilberg skanse" />
		<tag k="name" v="Fetsundbatteriet" />
		<tag k="ssr:stedsnr" v="600876" />
	</node>
	<node id="-32921" lat="59.8616249961" lon="11.2261833274">
		<tag k="name" v="Løkka" />
		<tag k="place" v="farm" />
		<tag k="ssr:stedsnr" v="587365" />
	</node>
	<node id="-32920" lat="59.874277778" lon="11.2375361117">
		<tag k="name" v="Haug" />
		<tag k="place" v="isolated_dwelling" />
		<tag k="ssr:stedsnr" v="586621" />
	</node>
	<node id="-32918" lat="59.8494138913" lon="11.2121388941">
		<tag k="name" v="Gudmundsrud" />
		<tag k="place" v="isolated_dwelling" />
		<tag k="ssr:stedsnr" v="585308" />
	</node>
	<node id="-32915" lat="59.775761115" lon="11.2754027759">
		<tag k="name" v="Lindeberg" />
		<tag k="place" v="farm" />
		<tag k="ssr:stedsnr" v="585258" />
	</node>
	<node id="-32911" lat="59.7860611087" lon="11.2781361027">
		<tag k="name" v="Solberg" />
		<tag k="place" v="farm" />
		<tag k="ssr:stedsnr" v="551838" />
	</node>
	<node id="-32910" lat="59.8355194461" lon="11.2527277772">
		<tag k="name" v="Kverne" />
		<tag k="place" v="farm" />
		<tag k="ssr:stedsnr" v="551807" />
	</node>
	<node id="-32908" lat="59.9601347075" lon="11.2203379399">
		<tag k="name" v="Lystadmoen" />
		<tag k="place" v="hamlet" />
		<tag k="ssr:stedsnr" v="551518" />
	</node>
	<node id="-32907" lat="59.7688333289" lon="11.2488000016">
		<tag k="alt_name" v="Hunes, nordre" />
		<tag k="name" v="Nordre Hunes" />
		<tag k="place" v="farm" />
		<tag k="ssr:stedsnr" v="550904" />
	</node>
	<node id="-32906" lat="59.7770333325" lon="11.2607861048">
		<tag k="fixme" v="consider place=hamlet" />
		<tag k="name" v="Melnes" />
		<tag k="place" v="farm" />
		<tag k="ssr:stedsnr" v="550891" />
	</node>
	<node id="-32903" lat="59.8489555557" lon="11.23019445">
		<tag k="name" v="Solberg" />
		<tag k="place" v="farm" />
		<tag k="ssr:stedsnr" v="550716" />
	</node>
	<node id="-32899" lat="59.8818055526" lon="11.2088222167">
		<tag k="alt_name" v="Østegarden" />
		<tag k="name" v="Østegard" />
		<tag k="place" v="farm" />
		<tag k="ssr:stedsnr" v="550655" />
	</node>
	<node id="-32898" lat="59.8795000033" lon="11.2278444481">
		<tag k="alt_name" v="Ås, søndre" />
		<tag k="name" v="Søndre Ås" />
		<tag k="place" v="farm" />
		<tag k="ssr:stedsnr" v="550653" />
	</node>
	<node id="-32896" lat="59.9321638867" lon="11.1881305497">
		<tag k="name" v="Varåa" />
		<tag k="place" v="village" />
		<tag k="ssr:stedsnr" v="550567" />
	</node>
	<node id="-32893" lat="59.9455194408" lon="11.2270277865">
		<tag k="name" v="Holterhuset" />
		<tag k="place" v="farm" />
		<tag k="ssr:stedsnr" v="550535" />
	</node>
	<node id="-32892" lat="59.9459694431" lon="11.2067166668">
		<tag k="name" v="Vestby" />
		<tag k="place" v="locality" />
		<tag k="ssr:stedsnr" v="550534" />
	</node>
	<node id="-32890" lat="59.9344944425" lon="11.2186444522">
		<tag k="name" v="Delerud" />
		<tag k="place" v="locality" />
		<tag k="ssr:stedsnr" v="544858" />
	</node>
	<node id="-32889" lat="59.935605559" lon="11.1925138969">
		<tag k="name" v="Fallaenga" />
		<tag k="place" v="farm" />
		<tag k="ssr:stedsnr" v="544856" />
	</node>
	<node id="-32884" lat="59.8848833348" lon="11.2106722292">
		<tag k="name" v="Fjellberg" />
		<tag k="place" v="isolated_dwelling" />
		<tag k="ssr:stedsnr" v="543555" />
	</node>
	<node id="-32881" lat="59.8780194424" lon="11.2447749981">
		<tag k="name" v="Sletner" />
		<tag k="place" v="hamlet" />
		<tag k="ssr:stedsnr" v="543531" />
	</node>
	<node id="-32878" lat="59.8764194453" lon="11.2199194511">
		<tag k="amenity" v="school" />
		<tag k="name" v="Dalen skole" />
		<tag k="ssr:stedsnr" v="543506" />
	</node>
	<node id="-32877" lat="59.9290499962" lon="11.1410944404">
		<tag k="name" v="Søndre Hovin" />
		<tag k="place" v="farm" />
		<tag k="ssr:stedsnr" v="542680" />
	</node>
	<node id="-32873" lat="59.9443805536" lon="11.1979638957">
		<tag k="name" v="Ekeberg" />
		<tag k="place" v="farm" />
		<tag k="ssr:stedsnr" v="540866" />
	</node>
	<node id="-32872" lat="59.9445444416" lon="11.1909194417">
		<tag k="name" v="Nordre Kjustad" />
		<tag k="place" v="farm" />
		<tag k="ssr:stedsnr" v="540863" />
	</node>
	<node id="-32871" lat="59.9477444409" lon="11.1220305489">
		<tag k="name" v="Midtre Skjelver" />
		<tag k="place" v="farm" />
		<tag k="ssr:stedsnr" v="540849" />
	</node>
	<node id="-32869" lat="59.9152361154" lon="11.1657833331">
		<tag k="name" v="Fet prestegård" />
		<tag k="place" v="farm" />
		<tag k="ssr:stedsnr" v="527706" />
	</node>
	<node id="-32866" lat="59.8650416635" lon="11.287358334">
		<tag k="alt_name" v="Gullerud nordre" />
		<tag k="name" v="Nordre Gullerud" />
		<tag k="place" v="farm" />
		<tag k="ssr:stedsnr" v="527604" />
	</node>
	<node id="-32864" lat="59.8636722252" lon="11.2043861177">
		<tag k="name" v="Brågården" />
		<tag k="place" v="locality" />
		<tag k="ssr:stedsnr" v="527336" />
	</node>
	<node id="-32863" lat="59.8531583329" lon="11.2408305573">
		<tag k="alt_name" v="Torud øvre" />
		<tag k="name" v="Øvre Torud" />
		<tag k="place" v="farm" />
		<tag k="ssr:stedsnr" v="527320" />
	</node>
	<node id="-32862" lat="59.9297112438" lon="11.2056713196">
		<tag k="name" v="Nordre Tingsrud" />
		<tag k="place" v="farm" />
		<tag k="ssr:stedsnr" v="525845" />
	</node>
	<node id="-32861" lat="59.9253277805" lon="11.1883805472">
		<tag k="name" v="Vestre Ramstad" />
		<tag k="place" v="farm" />
		<tag k="ssr:stedsnr" v="525824" />
	</node>
	<node id="-32860" lat="59.868191668" lon="11.2432194506">
		<tag k="name" v="Sørlimoen" />
		<tag k="place" v="locality" />
		<tag k="ssr:stedsnr" v="525628" />
	</node>
	<node id="-32859" lat="59.8698027803" lon="11.2791472169">
		<tag k="name" v="Østre Skjatvet" />
		<tag k="place" v="farm" />
		<tag k="ssr:stedsnr" v="525614" />
	</node>
	<node id="-32858" lat="59.7651388851" lon="11.2813750043">
		<tag k="name" v="Nygård" />
		<tag k="place" v="locality" />
		<tag k="ssr:stedsnr" v="525470" />
	</node>
	<node id="-32855" lat="59.822938886" lon="11.2723749922">
		<tag k="name" v="Libråtan" />
		<tag k="place" v="farm" />
		<tag k="ssr:stedsnr" v="525363" />
	</node>
	<node id="-32854" lat="59.8493472185" lon="11.2181499998">
		<tag k="alt_name" v="Østanes søndre" />
		<tag k="name" v="Søndre Østanes" />
		<tag k="place" v="farm" />
		<tag k="ssr:stedsnr" v="525358" />
	</node>
	<node id="-32853" lat="59.772463891" lon="11.2758722297">
		<tag k="name" v="Skogheim" />
		<tag k="place" v="farm" />
		<tag k="ssr:stedsnr" v="525319" />
	</node>
	<node id="-32851" lat="59.7882638851" lon="11.2719055502">
		<tag k="name" v="Moen" />
		<tag k="place" v="farm" />
		<tag k="ssr:stedsnr" v="525296" />
	</node>
	<node id="-32846" lat="59.8387246775" lon="11.2271673066">
		<tag k="fixme" v="consider place=hamlet" />
		<tag k="name" v="Barkenes" />
		<tag k="place" v="farm" />
		<tag k="ssr:stedsnr" v="490760" />
	</node>
	<node id="-32845" lat="59.8422333299" lon="11.2314194419">
		<tag k="name" v="Logn" />
		<tag k="place" v="farm" />
		<tag k="ssr:stedsnr" v="490749" />
	</node>
	<node id="-32844" lat="59.8518275764" lon="11.2187437979">
		<tag k="fixme" v="consider place=hamlet" />
		<tag k="name" v="Østanes" />
		<tag k="place" v="farm" />
		<tag k="ssr:stedsnr" v="490725" />
	</node>
	<node id="-32837" lat="59.925555555" lon="11.2288750043">
		<tag k="name" v="Heia" />
		<tag k="place" v="locality" />
		<tag k="ssr:stedsnr" v="490566" />
	</node>
	<node id="-32834" lat="59.9424999981" lon="11.2244805618">
		<tag k="name" v="Dammen" />
		<tag k="place" v="farm" />
		<tag k="ssr:stedsnr" v="490542" />
	</node>
	<node id="-32833" lat="59.9409138877" lon="11.1882277836">
		<tag k="name" v="Haga" />
		<tag k="place" v="farm" />
		<tag k="ssr:stedsnr" v="490540" />
	</node>
	<node id="-32832" lat="59.9582166625" lon="11.11660834">
		<tag k="name" v="Hotvet" />
		<tag k="place" v="hamlet" />
		<tag k="ssr:stedsnr" v="490511" />
	</node>
	<node id="-32831" lat="59.9674472185" lon="11.2066416707">
		<tag k="alt_name" v="Enerud" />
		<tag k="name" v="Enderud" />
		<tag k="place" v="farm" />
		<tag k="ssr:stedsnr" v="490507" />
	</node>
	<node id="-32829" lat="59.9048024029" lon="11.1613210894">
		<tag k="alt_name" v="Bjanes, nordre" />
		<tag k="name" v="Nordre Bjanes" />
		<tag k="place" v="farm" />
		<tag k="ssr:stedsnr" v="489678" />
	</node>
	<node id="-32828" lat="59.9015944441" lon="11.1836194474">
		<tag k="name" v="Holtet" />
		<tag k="place" v="farm" />
		<tag k="ssr:stedsnr" v="489676" />
	</node>
	<node id="-32827" lat="59.9341777787" lon="11.1920250012">
		<tag k="name" v="Fallahaugen" />
		<tag k="place" v="farm" />
		<tag k="ssr:stedsnr" v="484840" />
	</node>
	<node id="-32823" lat="59.861636115" lon="11.3279388828">
		<tag k="name" v="Nordre Midtskog" />
		<tag k="place" v="farm" />
		<tag k="ssr:stedsnr" v="482597" />
	</node>
	<node id="-32821" lat="59.8840500004" lon="11.1814666619">
		<tag k="name" v="Furu" />
		<tag k="place" v="isolated_dwelling" />
		<tag k="ssr:stedsnr" v="482562" />
	</node>
	<node id="-32816" lat="59.8784833308" lon="11.1995972228">
		<tag k="name" v="Søndre Svindal" />
		<tag k="place" v="farm" />
		<tag k="ssr:stedsnr" v="482526" />
	</node>
	<node id="-32815" lat="59.8748194491" lon="11.2242249936">
		<tag k="name" v="Nordre Sofsrud" />
		<tag k="place" v="farm" />
		<tag k="ssr:stedsnr" v="482523" />
	</node>
	<node id="-32812" lat="59.9162444474" lon="11.1694472168">
		<tag k="amenity" v="school" />
		<tag k="name" v="Riddersand skole" />
		<tag k="ssr:stedsnr" v="466770" />
	</node>
	<node id="-32811" lat="59.9155166635" lon="11.1364111127">
		<tag k="name" v="Glomstua" />
		<tag k="place" v="isolated_dwelling" />
		<tag k="ssr:stedsnr" v="466739" />
	</node>
	<node id="-32808" lat="59.9312944475" lon="11.1919611034">
		<tag k="name" v="Knatribakken" />
		<tag k="place" v="farm" />
		<tag k="ssr:stedsnr" v="465856" />
	</node>
	<node id="-32803" lat="59.9320138853" lon="11.1821999925">
		<tag k="building" v="industrial" />
		<tag k="industrial" v="factory" />
		<tag k="name" v="Vårå mølle" />
		<tag k="ssr:stedsnr" v="465855" />
	</node>
	<node id="-32799" lat="59.7823583342" lon="11.2370083359">
		<tag k="name" v="Tingstad" />
		<tag k="place" v="locality" />
		<tag k="ssr:stedsnr" v="464288" />
	</node>
	<node id="-32793" lat="59.7937083325" lon="11.2643777819">
		<tag k="name" v="Linderud" />
		<tag k="place" v="isolated_dwelling" />
		<tag k="ssr:stedsnr" v="430807" />
	</node>
	<node id="-32790" lat="59.774030558" lon="11.2741611076">
		<tag k="name" v="Furuholen" />
		<tag k="place" v="farm" />
		<tag k="ssr:stedsnr" v="429896" />
	</node>
	<node id="-32789" lat="59.8619499995" lon="11.2035194445">
		<tag k="name" v="Brågarden" />
		<tag k="place" v="isolated_dwelling" />
		<tag k="ssr:stedsnr" v="429696" />
	</node>
	<node id="-32788" lat="59.8736916626" lon="11.2451055634">
		<tag k="name" v="Myrvoll" />
		<tag k="place" v="farm" />
		<tag k="ssr:stedsnr" v="429675" />
	</node>
	<node id="-32787" lat="59.8720527739" lon="11.2394222308">
		<tag k="name" v="Hauger" />
		<tag k="place" v="farm" />
		<tag k="ssr:stedsnr" v="429664" />
	</node>
	<node id="-32786" lat="59.882725003" lon="11.2193916583">
		<tag k="name" v="Fjellsrud" />
		<tag k="place" v="hamlet" />
		<tag k="ssr:stedsnr" v="429659" />
	</node>
	<node id="-32782" lat="59.9226694483" lon="11.2295583254">
		<tag k="name" v="Skogen" />
		<tag k="place" v="isolated_dwelling" />
		<tag k="ssr:stedsnr" v="429569" />
	</node>
	<node id="-32781" lat="59.9284138882" lon="11.137186117">
		<tag k="fixme" v="consider place=suburb, village or hamlet" />
		<tag k="name" v="Hovin" />
		<tag k="place" v="quarter" />
		<tag k="ssr:stedsnr" v="429557" />
	</node>
	<node id="-32780" lat="59.9329888907" lon="11.2098972245">
		<tag k="name" v="Nyland" />
		<tag k="place" v="isolated_dwelling" />
		<tag k="ssr:stedsnr" v="429542" />
	</node>
	<node id="-32779" lat="59.9485222247" lon="11.1658805609">
		<tag k="name" v="Tveiter" />
		<tag k="place" v="farm" />
		<tag k="ssr:stedsnr" v="429532" />
	</node>
	<node id="-32778" lat="59.9129777816" lon="11.23785834">
		<tag k="name" v="Hvalsetra" />
		<tag k="place" v="isolated_dwelling" />
		<tag k="ssr:stedsnr" v="430621" />
	</node>
	<node id="-32777" lat="59.934144442" lon="11.1983416685">
		<tag k="name" v="Falla" />
		<tag k="place" v="farm" />
		<tag k="ssr:stedsnr" v="423874" />
	</node>
	<node id="-32773" lat="59.8798944443" lon="11.2412555504">
		<tag k="name" v="Rud" />
		<tag k="place" v="isolated_dwelling" />
		<tag k="ssr:stedsnr" v="422555" />
	</node>
	<node id="-32771" lat="59.9253083354" lon="11.1381138886">
		<tag k="name" v="Burås" />
		<tag k="place" v="quarter" />
		<tag k="ssr:stedsnr" v="421665" />
	</node>
	<node id="-32770" lat="59.9210472221" lon="11.1912666685">
		<tag k="name" v="Granåsen" />
		<tag k="place" v="quarter" />
		<tag k="ssr:stedsnr" v="421662" />
	</node>
	<node id="-32769" lat="59.9209949903" lon="11.1873209484">
		<tag k="name" v="Granshagen" />
		<tag k="place" v="quarter" />
		<tag k="ssr:stedsnr" v="421661" />
	</node>
</osm>
