<?xml version="1.0" encoding="UTF-8"?>
<osm generator="osmapis" version="0.6">
	<node id="-102910" lat="67.2865722257" lon="14.395816658">
		<tag k="alt_name:no" v="Jernbanestasjon" />
		<tag k="fixme" v="multiple name tags, choose one and add the other to alt_name" />
		<tag k="name" v="Bodø stasjon - Bådåddjo;Bådådjo ruovdderahtestasjåvnnå" />
		<tag k="name:no" v="Bodø stasjon" />
		<tag k="name:smj" v="Bådåddjo;Bådådjo ruovdderahtestasjåvnnå" />
		<tag k="railway" v="station" />
		<tag k="ssr:stedsnr" v="845199" />
		<tag k="train" v="yes" />
	</node>
	<node id="-102908" lat="67.2802388925" lon="14.3695555594">
		<tag k="man_made" v="quay" />
		<tag k="name" v="Gjestebrygge" />
		<tag k="place" v="locality" />
		<tag k="ssr:stedsnr" v="845195" />
	</node>
	<node id="-102011" lat="67.1511944462" lon="15.1512833426">
		<tag k="highway" v="path" />
		<tag k="name" v="Gammelvegen" />
		<tag k="ssr:stedsnr" v="571650" />
	</node>
	<node id="-99519" lat="67.4705861155" lon="14.8007388799">
		<tag k="landuse" v="industrial" />
		<tag k="name" v="Undfossen kraftstasjon" />
		<tag k="power" v="plant" />
		<tag k="ssr:stedsnr" v="890121" />
	</node>
	<node id="-98674" lat="67.561922221" lon="15.1090527751">
		<tag k="highway" v="path" />
		<tag k="name" v="Gunnelvegen" />
		<tag k="ssr:stedsnr" v="420808" />
	</node>
	<node id="-99562" lat="67.0372527789" lon="15.0203277835">
		<tag k="junction" v="yes" />
		<tag k="name" v="Kurven" />
		<tag k="place" v="locality" />
		<tag k="ssr:stedsnr" v="723031" />
	</node>
	<node id="-102503" lat="67.0260361131" lon="15.0241027667">
		<tag k="highway" v="path" />
		<tag k="name" v="Lappvegen" />
		<tag k="ssr:stedsnr" v="753310" />
	</node>
	<node id="-101224" lat="67.1988055548" lon="15.1449388912">
		<tag k="ford" v="yes" />
		<tag k="name" v="Stormovadet" />
		<tag k="place" v="locality" />
		<tag k="ssr:stedsnr" v="215657" />
	</node>
	<node id="-101863" lat="67.5607111081" lon="15.1118416766">
		<tag k="highway" v="path" />
		<tag k="name" v="Mølnvegen" />
		<tag k="ssr:stedsnr" v="541800" />
	</node>
	<node id="-100838" lat="67.2712055565" lon="14.3644305469">
		<tag k="aeroway" v="aerodrome" />
		<tag k="alt_name:no" v="Bodø" />
		<tag k="fixme" v="multiple name tags, choose one and add the other to alt_name" />
		<tag k="name" v="Bodø lufthavn - Bådåddjo;Bådådjo girddesalljo" />
		<tag k="name:no" v="Bodø lufthavn" />
		<tag k="name:smj" v="Bådåddjo;Bådådjo girddesalljo" />
		<tag k="old_name:no" v="Bodø lufthamn" />
		<tag k="ssr:stedsnr" v="137692" />
	</node>
	<node id="-102500" lat="67.0910833357" lon="14.9087833277">
		<tag k="ford" v="yes" />
		<tag k="name" v="Hellvadet" />
		<tag k="place" v="locality" />
		<tag k="ssr:stedsnr" v="753296" />
	</node>
	<node id="-102243" lat="67.5430583378" lon="15.1057305519">
		<tag k="highway" v="path" />
		<tag k="name" v="Movikstia" />
		<tag k="ssr:stedsnr" v="623104" />
	</node>
	<node id="-102623" lat="67.2876805597" lon="14.39154999">
		<tag k="amenity" v="ferry_terminal" />
		<tag k="name" v="Jernbanekaien" />
		<tag k="ssr:stedsnr" v="784200" />
	</node>
	<node id="-102622" lat="67.2869638882" lon="14.3895250042">
		<tag k="amenity" v="ferry_terminal" />
		<tag k="name" v="Gamle fergekai" />
		<tag k="ssr:stedsnr" v="784195" />
	</node>
	<node id="-98640" lat="67.129569447" lon="14.9553833273">
		<tag k="landuse" v="industrial" />
		<tag k="name" v="Oldereid kraftstasjon" />
		<tag k="power" v="plant" />
		<tag k="ssr:stedsnr" v="510345" />
	</node>
	<node id="-100429" lat="67.4034638929" lon="14.3800805569">
		<tag k="highway" v="path" />
		<tag k="name" v="Fjellvegen" />
		<tag k="ssr:stedsnr" v="56467" />
	</node>
	<node id="-100033" lat="67.2981749997" lon="14.8771361007">
		<tag k="amenity" v="ferry_terminal" />
		<tag k="name" v="Vågan fergeleie" />
		<tag k="ssr:stedsnr" v="943189" />
	</node>
	<node id="-97855" lat="67.2903726127" lon="14.397562572">
		<tag k="landuse" v="harbour" />
		<tag k="name" v="Bodøterminalen" />
		<tag k="seamark:type" v="harbour" />
		<tag k="ssr:stedsnr" v="177170" />
	</node>
	<node id="-101002" lat="67.0564222216" lon="14.99388612">
		<tag k="ford" v="yes" />
		<tag k="name" v="Finnvadet" />
		<tag k="place" v="locality" />
		<tag k="ssr:stedsnr" v="177219" />
	</node>
	<node id="-101044" lat="67.3107444488" lon="14.6807999972">
		<tag k="highway" v="path" />
		<tag k="name" v="Malmvegen" />
		<tag k="ssr:stedsnr" v="198227" />
	</node>
	<node id="-98228" lat="67.5135861067" lon="15.1263027841">
		<tag k="highway" v="path" />
		<tag k="name" v="Herdastigen" />
		<tag k="ssr:stedsnr" v="259122" />
	</node>
	<node id="-100138" lat="67.1971166676" lon="14.9109333255">
		<tag k="highway" v="path" />
		<tag k="name" v="Hammarvegen" />
		<tag k="ssr:stedsnr" v="966426" />
	</node>
	<node id="-100134" lat="67.2884111123" lon="14.3957638782">
		<tag k="amenity" v="ferry_terminal" />
		<tag k="name" v="Fergekai" />
		<tag k="ssr:stedsnr" v="966169" />
	</node>
	<node id="-101669" lat="67.1885388899" lon="15.3029333237">
		<tag k="highway" v="path" />
		<tag k="name" v="Moldvegan" />
		<tag k="ssr:stedsnr" v="389642" />
	</node>
	<node id="-101411" lat="67.2145083344" lon="14.6298750072">
		<tag k="highway" v="path" />
		<tag k="name" v="Trodalsvegen" />
		<tag k="ssr:stedsnr" v="335382" />
	</node>
	<node id="-98337" lat="67.0659388925" lon="15.023663887">
		<tag k="ford" v="yes" />
		<tag k="name" v="Heivadet" />
		<tag k="place" v="locality" />
		<tag k="ssr:stedsnr" v="275671" />
	</node>
	<node id="-101664" lat="67.0317999995" lon="15.0322694347">
		<tag k="highway" v="path" />
		<tag k="name" v="Rondvegen" />
		<tag k="ssr:stedsnr" v="389243" />
	</node>
	<node id="-100635" lat="67.1011194453" lon="15.0205027781">
		<tag k="highway" v="path" />
		<tag k="name" v="Stien og Storsvaet" />
		<tag k="ssr:stedsnr" v="93307" />
	</node>
	<node id="-98331" lat="67.2382249977" lon="15.0009416629">
		<tag k="man_made" v="quay" />
		<tag k="name" v="Ljønesgradden" />
		<tag k="place" v="locality" />
		<tag k="ssr:stedsnr" v="275520" />
	</node>
	<node id="-103184" lat="67.2838485749" lon="14.5559874608">
		<tag k="name" v="Mørkved holdeplass" />
		<tag k="railway" v="halt" />
		<tag k="ssr:stedsnr" v="976618" />
		<tag k="train" v="yes" />
	</node>
	<node id="-103183" lat="67.3012628959" lon="14.7464216006">
		<tag k="name" v="Tverlandet holdeplass" />
		<tag k="railway" v="halt" />
		<tag k="ssr:stedsnr" v="976617" />
		<tag k="train" v="yes" />
	</node>
	<node id="-103182" lat="67.2991770571" lon="14.8708511615">
		<tag k="name" v="Oteråga stasjon" />
		<tag k="railway" v="station" />
		<tag k="ssr:stedsnr" v="976616" />
		<tag k="train" v="yes" />
	</node>
	<node id="-102285" lat="67.2585416676" lon="14.7725944547">
		<tag k="fixme" v="verify maritime location" />
		<tag k="mooring" v="yes" />
		<tag k="name" v="Gangstøa" />
		<tag k="place" v="locality" />
		<tag k="ssr:stedsnr" v="626461" />
	</node>
	<node id="-98279" lat="67.0686388913" lon="15.0140527675">
		<tag k="ford" v="yes" />
		<tag k="name" v="Blomlivadet" />
		<tag k="place" v="locality" />
		<tag k="ssr:stedsnr" v="457667" />
	</node>
	<node id="-101258" lat="67.3916222245" lon="14.6439138813">
		<tag k="ford" v="yes" />
		<tag k="name" v="Maritvadet" />
		<tag k="place" v="locality" />
		<tag k="ssr:stedsnr" v="319375" />
	</node>
	<node id="-101769" lat="67.1927722199" lon="14.3793055644">
		<tag k="junction" v="yes" />
		<tag k="name" v="Ersvikkrysset" />
		<tag k="place" v="locality" />
		<tag k="ssr:stedsnr" v="420193" />
	</node>
	<node id="-100871" lat="67.415405554" lon="14.5680055497">
		<tag k="name" v="Hovdleia" />
		<tag k="place" v="locality" />
		<tag k="ssr:stedsnr" v="145050" />
	</node>
</osm>
