<?xml version="1.0" encoding="UTF-8"?>
<osm version="0.6" generator="osmapis">
	<node lat="67.38908889222432" lon="14.695255551959916" id="-11607">
		<tag k="name" v="Tonvatnet" />
		<tag k="natural" v="water" />
		<tag k="ssr:stedsnr" v="16308" />
	</node>
	<node lat="67.39648333466175" lon="14.301605559207795" id="-11608">
		<tag k="name" v="Klevikelva" />
		<tag k="ssr:stedsnr" v="16404" />
		<tag k="waterway" v="stream" />
	</node>
	<node lat="67.16065000285043" lon="14.447463887015594" id="-11618">
		<tag k="name" v="Storholmen" />
		<tag k="place" v="islet" />
		<tag k="ssr:stedsnr" v="16353" />
	</node>
	<node lat="67.15748610886352" lon="14.436791660814954" id="-11619">
		<tag k="name" v="Vintervika" />
		<tag k="natural" v="bay" />
		<tag k="ssr:stedsnr" v="16355" />
	</node>
	<node lat="67.12181110711087" lon="14.921549995774678" id="-11624">
		<tag k="name" v="Livatnet" />
		<tag k="natural" v="water" />
		<tag k="ssr:stedsnr" v="16517" />
	</node>
	<node lat="67.06472222130125" lon="15.047186099322424" id="-11630">
		<tag k="alt_name" v="Storheivatnet, in" />
		<tag k="name" v="Innerstorheivatnet" />
		<tag k="natural" v="water" />
		<tag k="ssr:stedsnr" v="16574" />
	</node>
	<node lat="67.20861944562017" lon="15.235261109052221" id="-11636">
		<tag k="name" v="Fjellnestjønna" />
		<tag k="natural" v="water" />
		<tag k="ssr:stedsnr" v="16954" />
	</node>
	<node lat="67.03690277758696" lon="14.99494721813654" id="-11638">
		<tag k="alt_name" v="Refselva" />
		<tag k="name" v="Revselva" />
		<tag k="ssr:stedsnr" v="16884" />
		<tag k="waterway" v="river" />
	</node>
	<node lat="67.36431944743131" lon="14.75037777038435" id="-11645">
		<tag k="name" v="Svartvasselva" />
		<tag k="ssr:stedsnr" v="20742" />
		<tag k="waterway" v="stream" />
	</node>
	<node lat="67.41454166941271" lon="14.770400006302538" id="-11677">
		<tag k="name" v="Strinnan" />
		<tag k="natural" v="strait" />
		<tag k="ssr:stedsnr" v="32065" />
	</node>
	<node lat="67.11311666789483" lon="15.012869452885273" id="-11680">
		<tag k="name" v="Skjerdalelva" />
		<tag k="ssr:stedsnr" v="32367" />
		<tag k="waterway" v="stream" />
	</node>
	<node lat="67.54741110704519" lon="14.850886101485466" id="-11690">
		<tag k="name" v="Øvdalselva" />
		<tag k="ssr:stedsnr" v="32876" />
		<tag k="waterway" v="stream" />
	</node>
	<node lat="67.43298610958783" lon="14.756563883100696" id="-11695">
		<tag k="name" v="Storfossen" />
		<tag k="natural" v="waterfall" />
		<tag k="ssr:stedsnr" v="32925" />
	</node>
	<node lat="67.09329722581263" lon="14.97106111117652" id="-11725">
		<tag k="name" v="Brunes" />
		<tag k="natural" v="cape" />
		<tag k="ssr:stedsnr" v="238349" />
	</node>
	<node lat="67.16130555629424" lon="14.446147232306743" id="-11729">
		<tag k="name" v="Nordvikholman" />
		<tag k="place" v="islet" />
		<tag k="ssr:stedsnr" v="238493" />
	</node>
	<node lat="67.19280833090193" lon="14.774069446538471" id="-11735">
		<tag k="name" v="Hellvaddammen" />
		<tag k="natural" v="water" />
		<tag k="ssr:stedsnr" v="238863" />
		<tag k="water" v="lake" />
	</node>
	<node lat="67.48865833032866" lon="14.806508339258446" id="-11741">
		<tag k="name" v="Merrnes" />
		<tag k="natural" v="cape" />
		<tag k="ssr:stedsnr" v="56097" />
	</node>
	<node lat="67.19542221912067" lon="14.685286119405486" id="-11748">
		<tag k="name" v="Tverrbergtjønna" />
		<tag k="natural" v="water" />
		<tag k="ssr:stedsnr" v="56386" />
	</node>
	<node lat="67.17840000349635" lon="14.581447211897041" id="-11758">
		<tag k="name" v="Oselva" />
		<tag k="ssr:stedsnr" v="56417" />
		<tag k="waterway" v="stream" />
	</node>
	<node lat="67.15264999621161" lon="14.449161112181937" id="-11764">
		<tag k="name" v="Spillerneset" />
		<tag k="natural" v="cape" />
		<tag k="ssr:stedsnr" v="56483" />
	</node>
	<node lat="67.1938638901767" lon="14.777619451821108" id="-11767">
		<tag k="name" v="Langdammen" />
		<tag k="natural" v="water" />
		<tag k="ssr:stedsnr" v="56876" />
		<tag k="water" v="lake" />
	</node>
	<node lat="67.13944444187126" lon="14.486991675786486" id="-11772">
		<tag k="name" v="Storlivatnet" />
		<tag k="natural" v="water" />
		<tag k="ssr:stedsnr" v="76501" />
	</node>
	<node lat="67.14548333495384" lon="14.525186105237898" id="-11773">
		<tag k="fixme" v="multiple name tags, choose one and add the other to alt_name" />
		<tag k="name" v="Innervatnet;Øvre Falkflogvatnet" />
		<tag k="natural" v="water" />
		<tag k="ssr:stedsnr" v="76499" />
	</node>
	<node lat="67.32267499737381" lon="14.487252787364064" id="-11791">
		<tag k="name" v="Løpselva" />
		<tag k="ssr:stedsnr" v="77298" />
		<tag k="waterway" v="stream" />
	</node>
	<node lat="67.15581944140126" lon="14.47694998995419" id="-11794">
		<tag k="name" v="Falkflogvika" />
		<tag k="natural" v="bay" />
		<tag k="ssr:stedsnr" v="77411" />
	</node>
	<node lat="67.15238611136816" lon="14.458330553351221" id="-11795">
		<tag k="name" v="Valnesvatnet" />
		<tag k="natural" v="water" />
		<tag k="ssr:stedsnr" v="77417" />
		<tag k="water" v="lake" />
	</node>
	<node lat="67.36247500398561" lon="14.70411388940848" id="-11798">
		<tag k="name" v="Langvatnet" />
		<tag k="natural" v="water" />
		<tag k="ssr:stedsnr" v="77352" />
	</node>
	<node lat="67.1233999963808" lon="15.105811119192568" id="-11800">
		<tag k="name" v="Lomtjønna" />
		<tag k="natural" v="water" />
		<tag k="ssr:stedsnr" v="77550" />
	</node>
	<node lat="67.13476666628578" lon="14.51711945494571" id="-11802">
		<tag k="name" v="Snokkivatnet" />
		<tag k="natural" v="water" />
		<tag k="ssr:stedsnr" v="77503" />
	</node>
	<node lat="67.2200583298675" lon="15.03102776916834" id="-11812">
		<tag k="name" v="Halselva" />
		<tag k="ssr:stedsnr" v="77671" />
		<tag k="waterway" v="stream" />
	</node>
	<node lat="67.09264999694514" lon="15.0313083373218" id="-11813">
		<tag k="alt_name" v="Storvatnet, øvre" />
		<tag k="name" v="Øverstorvatnet" />
		<tag k="natural" v="water" />
		<tag k="ssr:stedsnr" v="77597" />
	</node>
	<node lat="67.42421944290284" lon="14.95104445480797" id="-11831">
		<tag k="name" v="Storelva" />
		<tag k="ssr:stedsnr" v="80558" />
		<tag k="waterway" v="stream" />
	</node>
	<node lat="67.36992777346106" lon="14.811288887116717" id="-11833">
		<tag k="name" v="Kristivatnet" />
		<tag k="natural" v="water" />
		<tag k="ssr:stedsnr" v="81732" />
	</node>
	<node lat="67.0741000031828" lon="15.017461103697608" id="-11879">
		<tag k="name" v="Storkvannmoelva" />
		<tag k="ssr:stedsnr" v="93608" />
		<tag k="waterway" v="stream" />
	</node>
	<node lat="67.20036944464003" lon="14.93726388939585" id="-11882">
		<tag k="name" v="Vassmuselva" />
		<tag k="ssr:stedsnr" v="93661" />
		<tag k="waterway" v="stream" />
	</node>
	<node lat="67.3364249981361" lon="14.527444446642264" id="-11891">
		<tag k="name" v="Strandelva" />
		<tag k="ssr:stedsnr" v="93885" />
		<tag k="waterway" v="stream" />
	</node>
	<node lat="67.37470277896942" lon="14.710275004675047" id="-11939">
		<tag k="name" v="Rundvatnet" />
		<tag k="natural" v="water" />
		<tag k="ssr:stedsnr" v="137345" />
	</node>
	<node lat="67.11996388491129" lon="15.034877784767584" id="-11948">
		<tag k="name" v="Mølnelva" />
		<tag k="ssr:stedsnr" v="137522" />
		<tag k="waterway" v="stream" />
	</node>
	<node lat="67.13268888841466" lon="15.011483321980029" id="-11949">
		<tag k="name" v="Høgsetelva" />
		<tag k="ssr:stedsnr" v="137524" />
		<tag k="waterway" v="stream" />
	</node>
	<node lat="67.11810277368551" lon="15.224358337506152" id="-11963">
		<tag k="name" v="Krokvatnet" />
		<tag k="natural" v="water" />
		<tag k="ssr:stedsnr" v="137743" />
		<tag k="water" v="lake" />
	</node>
	<node lat="67.29551666761566" lon="14.850205550394305" id="-11988">
		<tag k="name" v="Osen" />
		<tag k="natural" v="bay" />
		<tag k="ssr:stedsnr" v="153165" />
	</node>
	<node lat="67.26906388644281" lon="14.723627785234859" id="-11992">
		<tag k="name" v="Djupgrøva" />
		<tag k="ssr:stedsnr" v="153563" />
		<tag k="waterway" v="stream" />
	</node>
	<node lat="67.3011027796838" lon="14.44642777528323" id="-12011">
		<tag k="alt_name" v="Vollvatnet, nedre" />
		<tag k="name" v="Nedre Vollvatnet" />
		<tag k="natural" v="water" />
		<tag k="ssr:stedsnr" v="258275" />
	</node>
	<node lat="67.30359444880916" lon="14.450944447236976" id="-12012">
		<tag k="alt_name" v="Vollvatnet, øvre" />
		<tag k="fixme" v="multiple name tags, choose one and add the other to alt_name" />
		<tag k="name" v="Vollvatnet;Øvre Vollvatnet" />
		<tag k="natural" v="water" />
		<tag k="ssr:stedsnr" v="258277" />
	</node>
	<node lat="67.49321666392203" lon="14.792191668756482" id="-12035">
		<tag k="alt_name" v="Ørnes" />
		<tag k="name" v="Aurnes" />
		<tag k="natural" v="cape" />
		<tag k="ssr:stedsnr" v="258651" />
	</node>
	<node lat="67.17890555591578" lon="14.614686111184023" id="-12057">
		<tag k="alt_name" v="Åselivatnet, nedre" />
		<tag k="name" v="Nedre Åselivatnet" />
		<tag k="natural" v="water" />
		<tag k="ssr:stedsnr" v="259367" />
		<tag k="water" v="lake" />
	</node>
	<node lat="67.1321888856119" lon="14.543149998385438" id="-12073">
		<tag k="name" v="Tverrlitjønnan" />
		<tag k="natural" v="water" />
		<tag k="ssr:stedsnr" v="259438" />
		<tag k="water" v="lake" />
	</node>
	<node lat="67.49012221878797" lon="14.926855555577855" id="-12082">
		<tag k="name" v="Laksøyra" />
		<tag k="natural" v="bay" />
		<tag k="ssr:stedsnr" v="162170" />
	</node>
	<node lat="67.1904166641873" lon="14.803541671163975" id="-12112">
		<tag k="alt_name" v="Geitholvatnet" />
		<tag k="name" v="Geithølvatnet" />
		<tag k="natural" v="water" />
		<tag k="ssr:stedsnr" v="259735" />
	</node>
	<node lat="67.52558333529063" lon="14.837302778910754" id="-12129">
		<tag k="name" v="Mølnelva" />
		<tag k="ssr:stedsnr" v="260192" />
		<tag k="waterway" v="stream" />
	</node>
	<node lat="67.5637166684316" lon="15.10802778036642" id="-12151">
		<tag k="name" v="Mølnelva" />
		<tag k="ssr:stedsnr" v="177958" />
		<tag k="waterway" v="stream" />
	</node>
	<node lat="67.33923333616272" lon="14.82013888317701" id="-12152">
		<tag k="name" v="Åmelva" />
		<tag k="ssr:stedsnr" v="177959" />
		<tag k="waterway" v="stream" />
	</node>
	<node lat="67.35832222602693" lon="14.752397231130267" id="-12166">
		<tag k="alt_name" v="Svartvatnet, l" />
		<tag k="fixme" v="multiple name tags, choose one and add the other to alt_name" />
		<tag k="name" v="Svartvatnet;Litle Svartvatnet" />
		<tag k="natural" v="water" />
		<tag k="ssr:stedsnr" v="263721" />
		<tag k="water" v="lake" />
	</node>
	<node lat="67.22273610714618" lon="14.500911119124323" id="-12177">
		<tag k="fixme" v="multiple name tags, choose one and add the other to alt_name" />
		<tag k="name" v="Durmålsvatnet;Dugurdsvatnet" />
		<tag k="natural" v="water" />
		<tag k="ssr:stedsnr" v="198005" />
	</node>
	<node lat="67.36870000062842" lon="14.699850010968511" id="-12189">
		<tag k="name" v="Rundvasstjønna" />
		<tag k="natural" v="water" />
		<tag k="ssr:stedsnr" v="198277" />
	</node>
	<node lat="67.42686388730091" lon="14.694838898053586" id="-12201">
		<tag k="fixme" v="multiple name tags, choose one and add the other to alt_name" />
		<tag k="name" v="Danmarkselva;Tverrelva" />
		<tag k="ssr:stedsnr" v="198455" />
		<tag k="waterway" v="stream" />
	</node>
	<node lat="67.48702778104459" lon="14.806849991410658" id="-12214">
		<tag k="name" v="Vassholmbukta" />
		<tag k="natural" v="bay" />
		<tag k="ssr:stedsnr" v="198624" />
	</node>
	<node lat="67.40135277873593" lon="14.71757222865989" id="-12218">
		<tag k="name" v="Småvatnan" />
		<tag k="natural" v="water" />
		<tag k="ssr:stedsnr" v="198356" />
		<tag k="water" v="lake" />
	</node>
	<node lat="67.15540555339663" lon="14.504497217491863" id="-12222">
		<tag k="fixme" v="multiple name tags, choose one and add the other to alt_name" />
		<tag k="name" v="Litlvatnet;Nedre Falkflogvatnet" />
		<tag k="natural" v="water" />
		<tag k="ssr:stedsnr" v="198367" />
		<tag k="water" v="lake" />
	</node>
	<node lat="67.08997777998262" lon="15.027869450310638" id="-12225">
		<tag k="alt_name" v="Storvatnet, nedre" />
		<tag k="name" v="Nerstorvatnet" />
		<tag k="natural" v="water" />
		<tag k="ssr:stedsnr" v="198563" />
	</node>
	<node lat="67.20747499563228" lon="14.900683341886282" id="-12230">
		<tag k="name" v="Mølnelvvatnet" />
		<tag k="natural" v="water" />
		<tag k="ssr:stedsnr" v="198712" />
	</node>
	<node lat="67.01723333713903" lon="14.93991666468435" id="-12231">
		<tag k="name" v="Mølnelva" />
		<tag k="ssr:stedsnr" v="198912" />
		<tag k="waterway" v="stream" />
	</node>
	<node lat="67.51584722300068" lon="14.76693054608037" id="-12295">
		<tag k="name" v="Mølnelva" />
		<tag k="ssr:stedsnr" v="214883" />
		<tag k="waterway" v="stream" />
	</node>
	<node lat="67.40454444734318" lon="14.369930549498815" id="-12342">
		<tag k="name" v="Holmen" />
		<tag k="place" v="islet" />
		<tag k="ssr:stedsnr" v="238393" />
	</node>
	<node lat="67.15380832943562" lon="14.861166676123341" id="-12356">
		<tag k="name" v="Skredelva" />
		<tag k="ssr:stedsnr" v="501489" />
		<tag k="waterway" v="river" />
	</node>
	<node lat="67.20316666757483" lon="14.386277775001822" id="-12359">
		<tag k="name" v="Seinesvatnet" />
		<tag k="natural" v="water" />
		<tag k="ssr:stedsnr" v="258109" />
	</node>
	<node lat="67.2149666681452" lon="14.629266662342506" id="-12361">
		<tag k="name" v="Tuvelva" />
		<tag k="ssr:stedsnr" v="258120" />
		<tag k="waterway" v="stream" />
	</node>
	<node lat="67.22330833308013" lon="14.658152782781741" id="-12363">
		<tag k="name" v="Sveet" />
		<tag k="natural" v="strait" />
		<tag k="ssr:stedsnr" v="258137" />
	</node>
	<node lat="67.22156666743103" lon="14.44290832577335" id="-12364">
		<tag k="name" v="Gangvatnet" />
		<tag k="natural" v="water" />
		<tag k="ssr:stedsnr" v="258003" />
	</node>
	<node lat="67.12854167050975" lon="15.203333324999985" id="-12371">
		<tag k="name" v="Grønvatnet" />
		<tag k="natural" v="water" />
		<tag k="ssr:stedsnr" v="258539" />
	</node>
	<node lat="67.49439722372645" lon="14.847011102735747" id="-12377">
		<tag k="name" v="Liatjønna" />
		<tag k="natural" v="water" />
		<tag k="ssr:stedsnr" v="258657" />
	</node>
	<node lat="67.47488403046663" lon="14.75718156083427" id="-12380">
		<tag k="name" v="Heimsdalselva" />
		<tag k="ssr:stedsnr" v="258673" />
		<tag k="waterway" v="stream" />
	</node>
	<node lat="67.19607499641748" lon="14.378788892136606" id="-12394">
		<tag k="fixme" v="multiple name tags, choose one and add the other to alt_name" />
		<tag k="name" v="Mølnelva;Møllvollelva" />
		<tag k="ssr:stedsnr" v="259063" />
		<tag k="waterway" v="stream" />
	</node>
	<node lat="67.51014166327451" lon="15.010847226358182" id="-12404">
		<tag k="alt_name" v="Bjønnelva" />
		<tag k="name" v="Bjørnelva" />
		<tag k="ssr:stedsnr" v="259116" />
		<tag k="waterway" v="stream" />
	</node>
	<node lat="67.08579721866144" lon="15.196830558758743" id="-12409">
		<tag k="fixme" v="multiple name tags, choose one and add the other to alt_name" />
		<tag k="name" v="Krokvasselva;Krokdalselva" />
		<tag k="ssr:stedsnr" v="259128" />
		<tag k="waterway" v="river" />
	</node>
	<node lat="67.09705833371582" lon="14.712066666567152" id="-12412">
		<tag k="name" v="Kjerringvatnet" />
		<tag k="natural" v="water" />
		<tag k="ssr:stedsnr" v="259272" />
		<tag k="water" v="lake" />
	</node>
	<node lat="67.18830832916547" lon="15.175066660005596" id="-12438">
		<tag k="name" v="Klemetskarelva" />
		<tag k="ssr:stedsnr" v="457491" />
		<tag k="waterway" v="stream" />
	</node>
	<node lat="67.33578610792384" lon="14.801791660356578" id="-12442">
		<tag k="name" v="Gamlibukta" />
		<tag k="natural" v="bay" />
		<tag k="ssr:stedsnr" v="262707" />
	</node>
	<node lat="67.07794444285823" lon="14.993680550957958" id="-12445">
		<tag k="name" v="Langnes" />
		<tag k="natural" v="cape" />
		<tag k="ssr:stedsnr" v="457648" />
	</node>
	<node lat="67.40197777578445" lon="14.646605544781092" id="-12448">
		<tag k="name" v="Fagervikelva" />
		<tag k="ssr:stedsnr" v="457856" />
		<tag k="waterway" v="river" />
	</node>
	<node lat="67.4398888876343" lon="14.828955559235078" id="-12518">
		<tag k="name" v="Målforelva" />
		<tag k="ssr:stedsnr" v="298093" />
		<tag k="waterway" v="stream" />
	</node>
	<node lat="67.1687027819123" lon="14.458147230319904" id="-12522">
		<tag k="name" v="Garnholmen" />
		<tag k="place" v="islet" />
		<tag k="ssr:stedsnr" v="298422" />
	</node>
	<node lat="67.36606388459526" lon="14.75222221858142" id="-12534">
		<tag k="name" v="Lapptjønna" />
		<tag k="natural" v="water" />
		<tag k="ssr:stedsnr" v="298921" />
	</node>
	<node lat="67.40289444551867" lon="13.91032498890769" id="-12543">
		<tag k="name" v="Storvatnet" />
		<tag k="natural" v="water" />
		<tag k="ssr:stedsnr" v="465858" />
	</node>
	<node lat="67.33514999897709" lon="14.689405557819624" id="-12557">
		<tag k="name" v="Tussvatnet" />
		<tag k="natural" v="water" />
		<tag k="ssr:stedsnr" v="319286" />
		<tag k="water" v="lake" />
	</node>
	<node lat="67.07136666396968" lon="15.002552775706114" id="-12561">
		<tag k="alt_name" v="Brekkelva" />
		<tag k="name" v="Brekke elva" />
		<tag k="ssr:stedsnr" v="319141" />
		<tag k="waterway" v="river" />
	</node>
	<node lat="67.13932778207162" lon="15.005586107478472" id="-12567">
		<tag k="name" v="Gardselva" />
		<tag k="ssr:stedsnr" v="319538" />
		<tag k="waterway" v="stream" />
	</node>
	<node lat="67.05452777630394" lon="14.972830551037763" id="-12571">
		<tag k="name" v="Tverrelva" />
		<tag k="ssr:stedsnr" v="319597" />
		<tag k="waterway" v="stream" />
	</node>
	<node lat="67.2119972205123" lon="14.90974722559299" id="-12578">
		<tag k="name" v="Kollvatnet" />
		<tag k="natural" v="water" />
		<tag k="ssr:stedsnr" v="319643" />
	</node>
	<node lat="67.16748611362338" lon="14.684788879390588" id="-12600">
		<tag k="name" v="Skavlhaugelva" />
		<tag k="ssr:stedsnr" v="320390" />
		<tag k="waterway" v="stream" />
	</node>
	<node lat="67.20705277957643" lon="15.119497228844239" id="-12604">
		<tag k="fixme" v="multiple name tags, choose one and add the other to alt_name" />
		<tag k="name" v="Utvikelva;Fargerielva" />
		<tag k="ssr:stedsnr" v="320689" />
		<tag k="waterway" v="river" />
	</node>
	<node lat="67.3595833330792" lon="14.778311118779923" id="-12610">
		<tag k="name" v="Storelva" />
		<tag k="ssr:stedsnr" v="323425" />
		<tag k="waterway" v="river" />
	</node>
	<node lat="67.32378055163619" lon="14.771930544109201" id="-12614">
		<tag k="name" v="Tverråga" />
		<tag k="ssr:stedsnr" v="323735" />
		<tag k="waterway" v="stream" />
	</node>
	<node lat="67.39696388812422" lon="14.759750008947211" id="-12632">
		<tag k="name" v="Helgebukta" />
		<tag k="natural" v="bay" />
		<tag k="ssr:stedsnr" v="335004" />
	</node>
	<node lat="67.31754444179798" lon="14.741175006575913" id="-12645">
		<tag k="name" v="Hopsfossen" />
		<tag k="natural" v="waterfall" />
		<tag k="ssr:stedsnr" v="335613" />
	</node>
	<node lat="67.05769722283294" lon="15.000477775374785" id="-12654">
		<tag k="name" v="Tjønna" />
		<tag k="natural" v="water" />
		<tag k="ssr:stedsnr" v="336648" />
	</node>
	<node lat="67.19621944800852" lon="14.975808335722402" id="-12657">
		<tag k="name" v="Støvsetelva" />
		<tag k="ssr:stedsnr" v="336714" />
		<tag k="waterway" v="stream" />
	</node>
	<node lat="67.42027777772552" lon="14.397450011193998" id="-12662">
		<tag k="name" v="Mølnelva" />
		<tag k="ssr:stedsnr" v="344107" />
		<tag k="waterway" v="stream" />
	</node>
	<node lat="67.49338333576512" lon="14.811269435763064" id="-12678">
		<tag k="name" v="Lilleelva" />
		<tag k="ssr:stedsnr" v="359059" />
		<tag k="waterway" v="stream" />
	</node>
	<node lat="67.40248333285834" lon="14.376772220311933" id="-12688">
		<tag k="name" v="Littj-vatnet" />
		<tag k="natural" v="water" />
		<tag k="ssr:stedsnr" v="359465" />
	</node>
	<node lat="67.34946111394237" lon="14.837233338392796" id="-12694">
		<tag k="name" v="Rødbergodden" />
		<tag k="natural" v="cape" />
		<tag k="ssr:stedsnr" v="359963" />
	</node>
	<node lat="67.39647744410735" lon="14.363871742493524" id="-12707">
		<tag k="name" v="Dalelva" />
		<tag k="ssr:stedsnr" v="480342" />
		<tag k="waterway" v="stream" />
	</node>
	<node lat="67.17488055825534" lon="14.76347221890708" id="-12717">
		<tag k="name" v="Vasshauholmen" />
		<tag k="place" v="islet" />
		<tag k="ssr:stedsnr" v="480834" />
	</node>
	<node lat="67.35623611394138" lon="14.808627780115227" id="-12724">
		<tag k="name" v="Langnesodden" />
		<tag k="natural" v="cape" />
		<tag k="ssr:stedsnr" v="480947" />
	</node>
	<node lat="67.3053666671098" lon="14.458336105369408" id="-12727">
		<tag k="name" v="Svartvatnet" />
		<tag k="natural" v="water" />
		<tag k="ssr:stedsnr" v="379266" />
	</node>
	<node lat="67.16668889138498" lon="15.182247228729805" id="-12729">
		<tag k="name" v="Småvatnan" />
		<tag k="natural" v="water" />
		<tag k="ssr:stedsnr" v="379503" />
	</node>
	<node lat="67.14153333566352" lon="14.532877781496984" id="-12731">
		<tag k="alt_name" v="Tverrlivatnet, nordre" />
		<tag k="name" v="Nordtverrlivatnet" />
		<tag k="natural" v="water" />
		<tag k="ssr:stedsnr" v="379463" />
	</node>
	<node lat="67.14115277785493" lon="14.551366672791055" id="-12732">
		<tag k="name" v="Stabburdalvatnet" />
		<tag k="natural" v="water" />
		<tag k="ssr:stedsnr" v="379467" />
	</node>
	<node lat="67.15639999874989" lon="14.473875005710864" id="-12744">
		<tag k="name" v="Ospvika" />
		<tag k="natural" v="bay" />
		<tag k="ssr:stedsnr" v="380102" />
	</node>
	<node lat="67.20208055957315" lon="14.367177772770464" id="-12745">
		<tag k="name" v="Storelva" />
		<tag k="ssr:stedsnr" v="380104" />
		<tag k="waterway" v="stream" />
	</node>
	<node lat="67.32866388829319" lon="14.671144436262193" id="-12757">
		<tag k="name" v="Tussvasselva" />
		<tag k="ssr:stedsnr" v="380283" />
		<tag k="waterway" v="stream" />
	</node>
	<node lat="67.2240305544776" lon="14.782919433721027" id="-12770">
		<tag k="alt_name" v="Evensetvatnet, l" />
		<tag k="fixme" v="multiple name tags, choose one and add the other to alt_name" />
		<tag k="name" v="Lillevatnet;Litle Evensetvatnet" />
		<tag k="natural" v="water" />
		<tag k="ssr:stedsnr" v="380710" />
		<tag k="water" v="lake" />
	</node>
	<node lat="67.22332499991009" lon="14.885988894841507" id="-12771">
		<tag k="name" v="Kvervelelva" />
		<tag k="ssr:stedsnr" v="380711" />
		<tag k="waterway" v="stream" />
	</node>
	<node lat="67.10536110765081" lon="15.20749165819822" id="-12772">
		<tag k="name" v="Rundvatnet" />
		<tag k="natural" v="water" />
		<tag k="ssr:stedsnr" v="380609" />
		<tag k="water" v="lake" />
	</node>
	<node lat="67.19361666619889" lon="15.27198888456117" id="-12780">
		<tag k="name" v="Storvikbekken" />
		<tag k="ssr:stedsnr" v="380959" />
		<tag k="waterway" v="stream" />
	</node>
	<node lat="67.36362500103506" lon="14.80579721503374" id="-12787">
		<tag k="name" v="Sagelva" />
		<tag k="ssr:stedsnr" v="384714" />
		<tag k="waterway" v="stream" />
	</node>
	<node lat="67.3092111080684" lon="14.790744436173002" id="-12788">
		<tag k="name" v="Sjurnakkvatnet" />
		<tag k="natural" v="water" />
		<tag k="ssr:stedsnr" v="384724" />
	</node>
	<node lat="67.0822083307468" lon="15.03018888177111" id="-12818">
		<tag k="name" v="Raulielva" />
		<tag k="ssr:stedsnr" v="396382" />
		<tag k="waterway" v="stream" />
	</node>
	<node lat="67.54033333733481" lon="14.880397214545583" id="-12819">
		<tag k="name" v="Modalselva" />
		<tag k="ssr:stedsnr" v="396502" />
		<tag k="waterway" v="stream" />
	</node>
	<node lat="67.21834166811341" lon="14.434050002207721" id="-12849">
		<tag k="name" v="Langvasselva" />
		<tag k="ssr:stedsnr" v="420087" />
		<tag k="waterway" v="stream" />
	</node>
	<node lat="67.15226111389183" lon="14.442869443492965" id="-12854">
		<tag k="name" v="Oksvika" />
		<tag k="natural" v="bay" />
		<tag k="ssr:stedsnr" v="420499" />
	</node>
	<node lat="67.14154722004409" lon="14.412294440113223" id="-12856">
		<tag k="name" v="Frosktjønna" />
		<tag k="natural" v="water" />
		<tag k="ssr:stedsnr" v="420541" />
	</node>
	<node lat="67.31882500387815" lon="14.724058333673554" id="-12857">
		<tag k="name" v="Nattmålselva" />
		<tag k="ssr:stedsnr" v="420905" />
		<tag k="waterway" v="stream" />
	</node>
	<node lat="67.13742777386942" lon="14.524447212399393" id="-12865">
		<tag k="alt_name" v="Tverrlivatnet, s" />
		<tag k="name" v="Sørtverrlivatnet" />
		<tag k="natural" v="water" />
		<tag k="ssr:stedsnr" v="440494" />
	</node>
	<node lat="67.18169722117428" lon="14.76254999883025" id="-12880">
		<tag k="name" v="Mølnelva" />
		<tag k="ssr:stedsnr" v="441143" />
		<tag k="waterway" v="stream" />
	</node>
	<node lat="67.18455555466267" lon="14.453469438203765" id="-12889">
		<tag k="name" v="Lomstjønna" />
		<tag k="natural" v="water" />
		<tag k="ssr:stedsnr" v="441413" />
	</node>
	<node lat="67.13062499612155" lon="14.688130565361389" id="-12893">
		<tag k="name" v="Skarvatnet" />
		<tag k="natural" v="water" />
		<tag k="ssr:stedsnr" v="441440" />
	</node>
	<node lat="67.1589166633963" lon="14.46809999250069" id="-12900">
		<tag k="name" v="Rotnes" />
		<tag k="natural" v="cape" />
		<tag k="ssr:stedsnr" v="441386" />
	</node>
	<node lat="67.15274722537643" lon="14.398983334101812" id="-12901">
		<tag k="name" v="Langvatnet" />
		<tag k="natural" v="water" />
		<tag k="ssr:stedsnr" v="441393" />
		<tag k="water" v="lake" />
	</node>
	<node lat="67.20420555788738" lon="14.907286103066799" id="-12911">
		<tag k="name" v="Mølnelva" />
		<tag k="ssr:stedsnr" v="441723" />
		<tag k="waterway" v="stream" />
	</node>
	<node lat="67.22384999564346" lon="14.823208337358682" id="-12917">
		<tag k="name" v="Innervikelva" />
		<tag k="ssr:stedsnr" v="441690" />
		<tag k="waterway" v="stream" />
	</node>
	<node lat="67.48335832914528" lon="14.895075009383774" id="-12918">
		<tag k="name" v="Farheimelva" />
		<tag k="ssr:stedsnr" v="441691" />
		<tag k="waterway" v="stream" />
	</node>
	<node lat="67.41529166634017" lon="15.060377772772862" id="-12924">
		<tag k="name" v="Bogvatnet" />
		<tag k="natural" v="water" />
		<tag k="ssr:stedsnr" v="445573" />
		<tag k="water" v="lake" />
	</node>
	<node lat="67.4085777742287" lon="14.724788877475167" id="-12957">
		<tag k="name" v="Vasshaug" />
		<tag k="natural" v="bay" />
		<tag k="ssr:stedsnr" v="457062" />
	</node>
	<node lat="67.49542778075335" lon="14.918363887860208" id="-12984">
		<tag k="name" v="Tverrelva" />
		<tag k="ssr:stedsnr" v="465168" />
		<tag k="waterway" v="stream" />
	</node>
	<node lat="67.365616667311" lon="14.639180545260619" id="-12990">
		<tag k="name" v="Kløkstadvatnan" />
		<tag k="natural" v="water" />
		<tag k="ssr:stedsnr" v="466650" />
		<tag k="water" v="lake" />
	</node>
	<node lat="67.55457500200131" lon="14.918277787982865" id="-13001">
		<tag k="name" v="Låtervatnan" />
		<tag k="natural" v="water" />
		<tag k="ssr:stedsnr" v="480172" />
		<tag k="water" v="lake" />
	</node>
	<node lat="67.17847777954881" lon="14.449680556684394" id="-13006">
		<tag k="name" v="Russholen" />
		<tag k="natural" v="water" />
		<tag k="ssr:stedsnr" v="480215" />
		<tag k="water" v="lake" />
	</node>
	<node lat="67.06962500392119" lon="14.940750003949026" id="-13033">
		<tag k="name" v="Merrashaugvatnet" />
		<tag k="natural" v="water" />
		<tag k="ssr:stedsnr" v="501133" />
	</node>
	<node lat="67.03380555870179" lon="15.112886119672932" id="-13034">
		<tag k="name" v="Østerdalselva" />
		<tag k="ssr:stedsnr" v="501135" />
		<tag k="waterway" v="river" />
	</node>
	<node lat="67.31581110790924" lon="14.569441656003946" id="-13041">
		<tag k="name" v="Slankneset" />
		<tag k="natural" v="cape" />
		<tag k="ssr:stedsnr" v="501244" />
	</node>
	<node lat="67.4181333348635" lon="14.346561113696433" id="-13045">
		<tag k="name" v="Ramsvikvatnet" />
		<tag k="natural" v="water" />
		<tag k="ssr:stedsnr" v="501436" />
	</node>
	<node lat="67.40126944831053" lon="15.054861106489664" id="-13080">
		<tag k="name" v="Bogvasselva" />
		<tag k="ssr:stedsnr" v="505566" />
		<tag k="waterway" v="stream" />
	</node>
	<node lat="67.33628888864583" lon="14.825277785423973" id="-13081">
		<tag k="fixme" v="multiple name tags, choose one and add the other to alt_name" />
		<tag k="name" v="Gløsvatnet;Åmvatnet" />
		<tag k="natural" v="water" />
		<tag k="ssr:stedsnr" v="505707" />
	</node>
	<node lat="67.1497527821366" lon="14.91387777699368" id="-13109">
		<tag k="name" v="Brutjønna" />
		<tag k="natural" v="water" />
		<tag k="ssr:stedsnr" v="683484" />
		<tag k="water" v="lake" />
	</node>
	<node lat="67.12621110838145" lon="14.618244443143821" id="-13111">
		<tag k="name" v="Kjerkesteinvatnet" />
		<tag k="natural" v="water" />
		<tag k="ssr:stedsnr" v="683420" />
	</node>
	<node lat="67.14488333419553" lon="14.421350004570236" id="-13119">
		<tag k="name" v="Mølnvika" />
		<tag k="natural" v="bay" />
		<tag k="ssr:stedsnr" v="683449" />
	</node>
	<node lat="67.12537499716157" lon="14.75904723084107" id="-13120">
		<tag k="name" v="Lomtjønna" />
		<tag k="natural" v="water" />
		<tag k="ssr:stedsnr" v="683511" />
	</node>
	<node lat="67.06571666695775" lon="15.023919439573477" id="-13121">
		<tag k="name" v="Vørselelva" />
		<tag k="ssr:stedsnr" v="683569" />
		<tag k="waterway" v="stream" />
	</node>
	<node lat="67.05966110973192" lon="15.00675832432519" id="-13123">
		<tag k="name" v="Russlielva" />
		<tag k="ssr:stedsnr" v="683584" />
		<tag k="waterway" v="stream" />
	</node>
	<node lat="67.48570277592438" lon="14.738572211419088" id="-13125">
		<tag k="fixme" v="multiple name tags, choose one and add the other to alt_name" />
		<tag k="name" v="Tverråga;Mølnelva" />
		<tag k="ssr:stedsnr" v="683596" />
		<tag k="waterway" v="stream" />
	</node>
	<node lat="67.28014444791391" lon="14.44053055207121" id="-13135">
		<tag k="name" v="Bodøgårdselva" />
		<tag k="ssr:stedsnr" v="683681" />
		<tag k="waterway" v="stream" />
	</node>
	<node lat="67.51093888677389" lon="14.847605559112752" id="-13138">
		<tag k="name" v="Kvarvtjønna" />
		<tag k="natural" v="water" />
		<tag k="ssr:stedsnr" v="684138" />
	</node>
	<node lat="67.53400555840328" lon="14.89914165938403" id="-13143">
		<tag k="name" v="Krokelva" />
		<tag k="ssr:stedsnr" v="684098" />
		<tag k="waterway" v="river" />
	</node>
	<node lat="67.3322750018082" lon="14.683336119664306" id="-13151">
		<tag k="name" v="Vasshauet" />
		<tag k="natural" v="bay" />
		<tag k="ssr:stedsnr" v="517184" />
	</node>
	<node lat="67.33371110956335" lon="14.635005563196332" id="-13152">
		<tag k="name" v="Nøkktjønna" />
		<tag k="natural" v="water" />
		<tag k="ssr:stedsnr" v="517186" />
	</node>
	<node lat="67.17018889174797" lon="14.458983322379174" id="-13155">
		<tag k="name" v="Sandvika" />
		<tag k="natural" v="bay" />
		<tag k="ssr:stedsnr" v="684386" />
	</node>
	<node lat="67.20333333594485" lon="14.994502776123857" id="-13174">
		<tag k="name" v="Kantsteinelva" />
		<tag k="ssr:stedsnr" v="684674" />
		<tag k="waterway" v="stream" />
	</node>
	<node lat="67.41905000112665" lon="14.385744435813796" id="-13184">
		<tag k="name" v="Makkos-elva" />
		<tag k="ssr:stedsnr" v="526122" />
		<tag k="waterway" v="stream" />
	</node>
	<node lat="67.18921944305995" lon="14.74780001073506" id="-13215">
		<tag k="name" v="Førrneset" />
		<tag k="natural" v="cape" />
		<tag k="ssr:stedsnr" v="541805" />
	</node>
	<node lat="67.32202499606292" lon="14.756047218270162" id="-13219">
		<tag k="name" v="Belsvikholmen" />
		<tag k="place" v="islet" />
		<tag k="ssr:stedsnr" v="541968" />
	</node>
	<node lat="67.41692778159334" lon="14.751499994728139" id="-13222">
		<tag k="fixme" v="multiple name tags, choose one and add the other to alt_name" />
		<tag k="name" v="Skarrvatnet;Skarvvatnet" />
		<tag k="natural" v="water" />
		<tag k="ssr:stedsnr" v="687510" />
	</node>
	<node lat="67.31154166958588" lon="14.90014723140255" id="-13230">
		<tag k="name" v="Oteråvatnan" />
		<tag k="natural" v="water" />
		<tag k="ssr:stedsnr" v="687732" />
	</node>
	<node lat="67.28689166803349" lon="14.764433336254921" id="-13232">
		<tag k="name" v="Ersvikvatnet" />
		<tag k="natural" v="water" />
		<tag k="ssr:stedsnr" v="687677" />
	</node>
	<node lat="67.2204805590862" lon="14.485983322788547" id="-13235">
		<tag k="name" v="Middagsvatnet" />
		<tag k="natural" v="water" />
		<tag k="ssr:stedsnr" v="561004" />
	</node>
	<node lat="67.22507500048195" lon="14.458500009837604" id="-13250">
		<tag k="name" v="Gangvasselva" />
		<tag k="ssr:stedsnr" v="692318" />
		<tag k="waterway" v="river" />
	</node>
	<node lat="67.16982222020337" lon="14.752436113071537" id="-13251">
		<tag k="name" v="Lillestorvika" />
		<tag k="natural" v="bay" />
		<tag k="ssr:stedsnr" v="692170" />
	</node>
	<node lat="67.4251083311768" lon="14.81642777936245" id="-13257">
		<tag k="name" v="Småvatnan" />
		<tag k="natural" v="water" />
		<tag k="ssr:stedsnr" v="565502" />
	</node>
	<node lat="67.38383610929583" lon="14.738658330964396" id="-13287">
		<tag k="name" v="Tindvatnet" />
		<tag k="natural" v="water" />
		<tag k="ssr:stedsnr" v="578110" />
	</node>
	<node lat="67.48533055752209" lon="15.007183332117405" id="-13318">
		<tag k="name" v="Storelva" />
		<tag k="ssr:stedsnr" v="587254" />
		<tag k="waterway" v="stream" />
	</node>
	<node lat="67.10783333570188" lon="14.970944444869376" id="-13349">
		<tag k="name" v="Skjepselva" />
		<tag k="ssr:stedsnr" v="699702" />
		<tag k="waterway" v="stream" />
	</node>
	<node lat="67.31747499620936" lon="14.538588882868495" id="-13352">
		<tag k="name" v="Skarelva" />
		<tag k="ssr:stedsnr" v="699753" />
		<tag k="waterway" v="stream" />
	</node>
	<node lat="67.19781388442004" lon="15.166450003217935" id="-13374">
		<tag k="name" v="Skarselva" />
		<tag k="ssr:stedsnr" v="700545" />
		<tag k="waterway" v="stream" />
	</node>
	<node lat="67.49964999583365" lon="14.708447226154147" id="-13382">
		<tag k="name" v="Fjærvikelva" />
		<tag k="ssr:stedsnr" v="700828" />
		<tag k="waterway" v="stream" />
	</node>
	<node lat="67.14905555888521" lon="14.716261103649776" id="-13408">
		<tag k="alt_name" v="Tindvatnet, øvre" />
		<tag k="name" v="Øvre Tindvatnet" />
		<tag k="natural" v="water" />
		<tag k="ssr:stedsnr" v="622469" />
	</node>
	<node lat="67.11214722663398" lon="14.823849995344744" id="-13424">
		<tag k="name" v="Mangevatnet" />
		<tag k="natural" v="water" />
		<tag k="ssr:stedsnr" v="622576" />
		<tag k="water" v="lake" />
	</node>
	<node lat="67.55209166608739" lon="15.096852775596519" id="-13438">
		<tag k="name" v="Movikvatnet" />
		<tag k="natural" v="water" />
		<tag k="ssr:stedsnr" v="623106" />
	</node>
	<node lat="67.19063888562052" lon="14.76204722521289" id="-13458">
		<tag k="name" v="Hogndalselva" />
		<tag k="ssr:stedsnr" v="623713" />
		<tag k="waterway" v="river" />
	</node>
	<node lat="67.39718610873855" lon="14.821233342766368" id="-13463">
		<tag k="name" v="Neverelva" />
		<tag k="ssr:stedsnr" v="626557" />
		<tag k="waterway" v="stream" />
	</node>
	<node lat="67.39623055461558" lon="14.777019443527905" id="-13476">
		<tag k="name" v="Austerkråga" />
		<tag k="ssr:stedsnr" v="638012" />
		<tag k="waterway" v="stream" />
	</node>
	<node lat="67.40331666710036" lon="14.77636388520798" id="-13477">
		<tag k="name" v="Holmen" />
		<tag k="place" v="islet" />
		<tag k="ssr:stedsnr" v="638020" />
	</node>
	<node lat="67.3989083340677" lon="14.739150002620379" id="-13480">
		<tag k="name" v="Steigtindelva" />
		<tag k="ssr:stedsnr" v="638033" />
		<tag k="waterway" v="stream" />
	</node>
	<node lat="67.16154999735332" lon="14.886186099988265" id="-13488">
		<tag k="name" v="Beinvikelva" />
		<tag k="ssr:stedsnr" v="638480" />
		<tag k="waterway" v="stream" />
	</node>
	<node lat="67.1494027818788" lon="14.901777786000398" id="-13492">
		<tag k="name" v="Sanielva" />
		<tag k="ssr:stedsnr" v="638527" />
		<tag k="waterway" v="stream" />
	</node>
	<node lat="67.11515278041587" lon="15.002513881982242" id="-13508">
		<tag k="name" v="Nesan" />
		<tag k="natural" v="cape" />
		<tag k="ssr:stedsnr" v="639423" />
	</node>
	<node lat="67.47760833533819" lon="14.785522220463111" id="-13544">
		<tag k="name" v="Kvitheines" />
		<tag k="natural" v="cape" />
		<tag k="ssr:stedsnr" v="662097" />
	</node>
	<node lat="67.1762694426217" lon="14.3969638928736" id="-13546">
		<tag k="name" v="Dalelva" />
		<tag k="ssr:stedsnr" v="662203" />
		<tag k="waterway" v="stream" />
	</node>
	<node lat="67.2028166688707" lon="14.50544167218369" id="-13548">
		<tag k="name" v="Kaldvatnet" />
		<tag k="natural" v="water" />
		<tag k="ssr:stedsnr" v="662253" />
		<tag k="water" v="pond" />
	</node>
	<node lat="67.09055000185252" lon="14.96153332857464" id="-13553">
		<tag k="name" v="Skarsimoelva" />
		<tag k="ssr:stedsnr" v="662314" />
		<tag k="waterway" v="stream" />
	</node>
	<node lat="67.5036833367128" lon="15.012458343657206" id="-13565">
		<tag k="name" v="Bjørnelva" />
		<tag k="ssr:stedsnr" v="709250" />
		<tag k="waterway" v="stream" />
	</node>
	<node lat="67.36540555578893" lon="14.81647221344478" id="-13572">
		<tag k="name" v="Klubbvassosen" />
		<tag k="natural" v="bay" />
		<tag k="ssr:stedsnr" v="662932" />
	</node>
	<node lat="67.53899721960991" lon="14.858544452785594" id="-13590">
		<tag k="name" v="Strandåelva" />
		<tag k="ssr:stedsnr" v="891134" />
		<tag k="waterway" v="river" />
	</node>
	<node lat="67.2167999975154" lon="14.449361115386921" id="-13596">
		<tag k="name" v="Langvatnet" />
		<tag k="natural" v="water" />
		<tag k="ssr:stedsnr" v="683109" />
	</node>
	<node lat="67.31261944664253" lon="14.627175010649253" id="-13598">
		<tag k="fixme" v="multiple name tags, choose one and add the other to alt_name" />
		<tag k="name" v="Frosktjønna;Froskvatnet" />
		<tag k="natural" v="water" />
		<tag k="ssr:stedsnr" v="683242" />
	</node>
	<node lat="67.31468333228713" lon="14.589897215017368" id="-13599">
		<tag k="name" v="Soløyvatnet" />
		<tag k="natural" v="water" />
		<tag k="ssr:stedsnr" v="683243" />
		<tag k="water" v="lake" />
	</node>
	<node lat="67.30004166682814" lon="14.557824997192514" id="-13602">
		<tag k="name" v="Messiosen" />
		<tag k="natural" v="bay" />
		<tag k="ssr:stedsnr" v="683261" />
	</node>
	<node lat="67.3820916695947" lon="14.650488898807817" id="-13608">
		<tag k="name" v="Mølnelva" />
		<tag k="ssr:stedsnr" v="683317" />
		<tag k="waterway" v="stream" />
	</node>
	<node lat="67.47557234273506" lon="14.775586952603529" id="-13629">
		<tag k="name" v="Sørvatnet" />
		<tag k="natural" v="water" />
		<tag k="ssr:stedsnr" v="683654" />
		<tag k="water" v="lake" />
	</node>
	<node lat="67.47010555126784" lon="14.939661120421539" id="-13630">
		<tag k="name" v="Trolltindvatnet" />
		<tag k="natural" v="water" />
		<tag k="ssr:stedsnr" v="683656" />
		<tag k="water" v="lake" />
	</node>
	<node lat="67.52962777904666" lon="14.892780559555892" id="-13651">
		<tag k="name" v="Skyttelva" />
		<tag k="ssr:stedsnr" v="684153" />
		<tag k="waterway" v="stream" />
	</node>
	<node lat="67.52934167117598" lon="14.917566666546504" id="-13652">
		<tag k="name" v="Storvatnet" />
		<tag k="natural" v="water" />
		<tag k="ssr:stedsnr" v="684154" />
		<tag k="water" v="lake" />
	</node>
	<node lat="67.32468055957524" lon="14.702511102158036" id="-13660">
		<tag k="name" v="Ørntuvvatnet" />
		<tag k="natural" v="water" />
		<tag k="ssr:stedsnr" v="684305" />
	</node>
	<node lat="67.34825833001088" lon="14.853100008472236" id="-13672">
		<tag k="name" v="Raudbergodden" />
		<tag k="natural" v="cape" />
		<tag k="ssr:stedsnr" v="688707" />
	</node>
	<node lat="67.35385000231335" lon="14.799152771011258" id="-13673">
		<tag k="name" v="Innervatnet" />
		<tag k="natural" v="water" />
		<tag k="ssr:stedsnr" v="688709" />
	</node>
	<node lat="67.2074888892302" lon="14.83743056570238" id="-13750">
		<tag k="name" v="Lomtjønna" />
		<tag k="natural" v="water" />
		<tag k="ssr:stedsnr" v="723837" />
	</node>
	<node lat="67.215163888297" lon="14.514952782431465" id="-13769">
		<tag k="name" v="Skivikvatnet" />
		<tag k="natural" v="water" />
		<tag k="ssr:stedsnr" v="744081" />
	</node>
	<node lat="67.30823611092316" lon="14.473627776906646" id="-13778">
		<tag k="name" v="Kretjønna" />
		<tag k="natural" v="water" />
		<tag k="ssr:stedsnr" v="744195" />
	</node>
	<node lat="67.17083055630171" lon="15.141652768803107" id="-13795">
		<tag k="name" v="Gørrholelva" />
		<tag k="ssr:stedsnr" v="744481" />
		<tag k="waterway" v="stream" />
	</node>
	<node lat="67.36118055426181" lon="14.621133339054923" id="-13799">
		<tag k="fixme" v="multiple name tags, choose one and add the other to alt_name" />
		<tag k="name" v="Sandjordvatnan;Kløkstadvatnet" />
		<tag k="natural" v="water" />
		<tag k="ssr:stedsnr" v="744331" />
		<tag k="water" v="lake" />
	</node>
	<node lat="67.17238888866304" lon="14.44748611141448" id="-13800">
		<tag k="alt_name" v="Valnesfossen" />
		<tag k="name" v="Valnesforsen" />
		<tag k="ssr:stedsnr" v="744338" />
		<tag k="waterway" v="river" />
	</node>
	<node lat="67.19779444715901" lon="14.87465555437059" id="-13817">
		<tag k="name" v="Stordalsvatnan" />
		<tag k="natural" v="water" />
		<tag k="ssr:stedsnr" v="744674" />
	</node>
	<node lat="67.42472500330213" lon="14.773700008525168" id="-13829">
		<tag k="name" v="Svartvatnet" />
		<tag k="natural" v="water" />
		<tag k="ssr:stedsnr" v="747483" />
	</node>
	<node lat="67.22384999951994" lon="14.495611112757626" id="-13856">
		<tag k="name" v="Tverrelva" />
		<tag k="ssr:stedsnr" v="905035" />
		<tag k="waterway" v="stream" />
	</node>
	<node lat="67.05556666527768" lon="15.031744449437822" id="-13857">
		<tag k="name" v="Ruslielva" />
		<tag k="ssr:stedsnr" v="905038" />
		<tag k="waterway" v="stream" />
	</node>
	<node lat="67.1607611142334" lon="14.42939723307946" id="-13876">
		<tag k="name" v="Litlvatnet" />
		<tag k="natural" v="water" />
		<tag k="ssr:stedsnr" v="905490" />
	</node>
	<node lat="67.39659167138777" lon="14.377530548005513" id="-13877">
		<tag k="name" v="Kvigelva-Mølnelva" />
		<tag k="ssr:stedsnr" v="905447" />
		<tag k="waterway" v="stream" />
	</node>
	<node lat="67.41879166848764" lon="14.76472500259869" id="-13880">
		<tag k="name" v="Kristibukta" />
		<tag k="natural" v="bay" />
		<tag k="ssr:stedsnr" v="760096" />
	</node>
	<node lat="67.14853055315389" lon="14.91149998876242" id="-13889">
		<tag k="name" v="Gjerdelva" />
		<tag k="ssr:stedsnr" v="760545" />
		<tag k="waterway" v="stream" />
	</node>
	<node lat="67.13120555924556" lon="14.917875008638864" id="-13896">
		<tag k="name" v="Liforsen" />
		<tag k="natural" v="waterfall" />
		<tag k="ssr:stedsnr" v="760694" />
	</node>
	<node lat="67.5539194482542" lon="14.920016670958226" id="-13920">
		<tag k="alt_name" v="Låtervatnet, yt" />
		<tag k="name" v="Ytre Låtervatnet" />
		<tag k="natural" v="water" />
		<tag k="ssr:stedsnr" v="783108" />
	</node>
	<node lat="67.4830166651983" lon="14.75978055025862" id="-13922">
		<tag k="name" v="Gammelteingarn" />
		<tag k="natural" v="cape" />
		<tag k="ssr:stedsnr" v="784108" />
	</node>
	<node lat="67.28439721931633" lon="13.996008340043595" id="-13936">
		<tag k="name" v="Oddvatnet" />
		<tag k="natural" v="water" />
		<tag k="ssr:stedsnr" v="805009" />
	</node>
	<node lat="67.22547499892153" lon="14.487913892511292" id="-13947">
		<tag k="name" v="Husvatnet" />
		<tag k="natural" v="water" />
		<tag k="ssr:stedsnr" v="805002" />
	</node>
	<node lat="67.42590555435339" lon="14.743011118798252" id="-13952">
		<tag k="fixme" v="multiple name tags, choose one and add the other to alt_name" />
		<tag k="name" v="Nonsvatnet;Nonshaugvatnet" />
		<tag k="natural" v="water" />
		<tag k="ssr:stedsnr" v="808519" />
	</node>
	<node lat="67.31838055521501" lon="14.99268610609653" id="-13953">
		<tag k="name" v="Trolldalselva" />
		<tag k="ssr:stedsnr" v="809744" />
		<tag k="waterway" v="stream" />
	</node>
	<node lat="67.23188888711194" lon="14.62825277259943" id="-13964">
		<tag k="name" v="Ekkerelva" />
		<tag k="ssr:stedsnr" v="820377" />
		<tag k="waterway" v="river" />
	</node>
	<node lat="67.33590833730378" lon="14.699955559126465" id="-13967">
		<tag k="name" v="Gamstøelva" />
		<tag k="ssr:stedsnr" v="821182" />
		<tag k="waterway" v="stream" />
	</node>
	<node lat="67.28854444136931" lon="14.789222230244198" id="-13983">
		<tag k="name" v="Botnelva" />
		<tag k="ssr:stedsnr" v="821708" />
		<tag k="waterway" v="stream" />
	</node>
	<node lat="67.11876944217568" lon="14.96408333404485" id="-13988">
		<tag k="name" v="Svaelva" />
		<tag k="ssr:stedsnr" v="821726" />
		<tag k="waterway" v="river" />
	</node>
	<node lat="67.23084999933552" lon="14.910888893430025" id="-13989">
		<tag k="name" v="Kvikstadelva" />
		<tag k="ssr:stedsnr" v="821728" />
		<tag k="waterway" v="stream" />
	</node>
	<node lat="67.52964166381757" lon="14.831591672003823" id="-13992">
		<tag k="name" v="Vedsetelva" />
		<tag k="ssr:stedsnr" v="821824" />
		<tag k="waterway" v="stream" />
	</node>
	<node lat="67.31023889255685" lon="14.456019439623246" id="-14001">
		<tag k="name" v="Mølnelva" />
		<tag k="ssr:stedsnr" v="821975" />
		<tag k="waterway" v="stream" />
	</node>
	<node lat="67.16675277725263" lon="14.465188890978181" id="-14034">
		<tag k="name" v="Ørnliholmen" />
		<tag k="place" v="islet" />
		<tag k="ssr:stedsnr" v="845489" />
	</node>
	<node lat="67.166463893085" lon="14.470483327303864" id="-14035">
		<tag k="name" v="Ørnlivika" />
		<tag k="natural" v="bay" />
		<tag k="ssr:stedsnr" v="845493" />
	</node>
	<node lat="67.0910083370926" lon="14.968047224544257" id="-14037">
		<tag k="name" v="Hølnelva" />
		<tag k="ssr:stedsnr" v="845324" />
		<tag k="waterway" v="stream" />
	</node>
	<node lat="67.3907277807106" lon="14.665350004755659" id="-14057">
		<tag k="name" v="Gårdselva" />
		<tag k="ssr:stedsnr" v="926385" />
		<tag k="waterway" v="stream" />
	</node>
	<node lat="67.1562361112645" lon="14.699716662509475" id="-14065">
		<tag k="alt_name" v="Tindvatnet, nedre" />
		<tag k="name" v="Nedre Tindvatnet" />
		<tag k="natural" v="water" />
		<tag k="ssr:stedsnr" v="926448" />
		<tag k="water" v="lake" />
	</node>
	<node lat="67.13965833585598" lon="15.108575002129724" id="-14066">
		<tag k="name" v="Brillevatnet" />
		<tag k="natural" v="water" />
		<tag k="ssr:stedsnr" v="926539" />
	</node>
	<node lat="67.14667777955277" lon="14.918091662577982" id="-14069">
		<tag k="alt_name" v="Lillevatnet" />
		<tag k="name" v="Litlvatnet" />
		<tag k="natural" v="water" />
		<tag k="ssr:stedsnr" v="926550" />
	</node>
	<node lat="67.11856666615851" lon="15.194763886633487" id="-14072">
		<tag k="name" v="Sandvatnet" />
		<tag k="natural" v="water" />
		<tag k="ssr:stedsnr" v="926572" />
		<tag k="water" v="lake" />
	</node>
	<node lat="67.06736667048757" lon="14.979991676270549" id="-14073">
		<tag k="alt_name" v="Innervatn" />
		<tag k="name" v="Innervatnet" />
		<tag k="natural" v="water" />
		<tag k="ssr:stedsnr" v="926593" />
	</node>
	<node lat="67.45988333355083" lon="15.050675007865962" id="-14077">
		<tag k="name" v="Stokkelva" />
		<tag k="ssr:stedsnr" v="926651" />
		<tag k="waterway" v="stream" />
	</node>
	<node lat="67.2249083294694" lon="14.798536115795525" id="-14083">
		<tag k="alt_name" v="Evensetvatnet, store" />
		<tag k="fixme" v="multiple name tags, choose one and add the other to alt_name" />
		<tag k="name" v="Storvatnet;Store Evensetvatnet" />
		<tag k="natural" v="water" />
		<tag k="ssr:stedsnr" v="926679" />
		<tag k="water" v="lake" />
	</node>
	<node lat="67.3087694419572" lon="14.667141656823233" id="-14112">
		<tag k="name" v="Tverrelva" />
		<tag k="ssr:stedsnr" v="927341" />
		<tag k="waterway" v="stream" />
	</node>
	<node lat="67.20959444805287" lon="14.913641667606553" id="-14122">
		<tag k="name" v="Sandvatnet" />
		<tag k="natural" v="water" />
		<tag k="ssr:stedsnr" v="927716" />
	</node>
	<node lat="67.20076666872164" lon="15.146222229029322" id="-14125">
		<tag k="name" v="Mølnelva" />
		<tag k="ssr:stedsnr" v="927738" />
		<tag k="waterway" v="river" />
	</node>
	<node lat="67.30033333199677" lon="14.947497214149788" id="-14128">
		<tag k="name" v="Middagsvatnet" />
		<tag k="natural" v="water" />
		<tag k="ssr:stedsnr" v="930658" />
	</node>
	<node lat="67.40029444586396" lon="14.914958324819633" id="-14136">
		<tag k="alt_name" v="Tverrelvvatnet, store" />
		<tag k="name" v="Store Tverrelvvatnet" />
		<tag k="natural" v="water" />
		<tag k="ssr:stedsnr" v="930588" />
		<tag k="water" v="lake" />
	</node>
	<node lat="67.35149721762313" lon="14.878827783537826" id="-14139">
		<tag k="name" v="Heggmoelva" />
		<tag k="ssr:stedsnr" v="930721" />
		<tag k="waterway" v="river" />
	</node>
	<node lat="67.36599999544553" lon="14.826597227406923" id="-14141">
		<tag k="name" v="Klubbvatnet" />
		<tag k="natural" v="water" />
		<tag k="ssr:stedsnr" v="930737" />
		<tag k="water" v="lake" />
	</node>
	<node lat="67.30565277727891" lon="14.964619445990115" id="-14142">
		<tag k="name" v="Vardvatnet" />
		<tag k="natural" v="water" />
		<tag k="ssr:stedsnr" v="930661" />
	</node>
	<node lat="67.39573889186308" lon="14.750883324990411" id="-14161">
		<tag k="name" v="Lillevatnet" />
		<tag k="natural" v="water" />
		<tag k="ssr:stedsnr" v="882017" />
	</node>
	<node lat="67.18002778036004" lon="14.899866673530653" id="-14167">
		<tag k="name" v="Bustranda" />
		<tag k="natural" v="beach" />
		<tag k="ssr:stedsnr" v="882551" />
	</node>
	<node lat="67.52495555452654" lon="14.848077773897497" id="-14168">
		<tag k="name" v="Blomlielva" />
		<tag k="ssr:stedsnr" v="882747" />
		<tag k="waterway" v="stream" />
	</node>
	<node lat="67.07303333542987" lon="15.030930544773234" id="-14169">
		<tag k="name" v="Lillekvannmoelva" />
		<tag k="ssr:stedsnr" v="882604" />
		<tag k="waterway" v="stream" />
	</node>
	<node lat="67.061630559093" lon="15.038358335920881" id="-14170">
		<tag k="name" v="Ågnesan" />
		<tag k="natural" v="cape" />
		<tag k="ssr:stedsnr" v="882614" />
	</node>
	<node lat="67.29415833510133" lon="14.81392500602515" id="-14172">
		<tag k="name" v="Fribakkelva" />
		<tag k="ssr:stedsnr" v="882620" />
		<tag k="waterway" v="stream" />
	</node>
	<node lat="67.53280833482984" lon="14.9261833451327" id="-14179">
		<tag k="name" v="Måløken" />
		<tag k="ssr:stedsnr" v="882955" />
		<tag k="waterway" v="stream" />
	</node>
	<node lat="67.42066944117889" lon="14.422930550053083" id="-14184">
		<tag k="name" v="Bjørnøysund" />
		<tag k="natural" v="strait" />
		<tag k="ssr:stedsnr" v="934830" />
	</node>
	<node lat="67.15371944207214" lon="14.504322229806528" id="-14220">
		<tag k="name" v="Øverholmen" />
		<tag k="place" v="islet" />
		<tag k="ssr:stedsnr" v="905459" />
	</node>
	<node lat="67.12778333408365" lon="14.413988882330912" id="-14223">
		<tag k="name" v="Elvkjefthola" />
		<tag k="natural" v="water" />
		<tag k="ssr:stedsnr" v="905499" />
		<tag k="water" v="lake" />
	</node>
	<node lat="67.19596666640464" lon="14.822986113244228" id="-14226">
		<tag k="name" v="Middagstjønna" />
		<tag k="natural" v="water" />
		<tag k="ssr:stedsnr" v="905855" />
	</node>
	<node lat="67.19747499860796" lon="14.794258335514904" id="-14229">
		<tag k="name" v="Skansdammen" />
		<tag k="natural" v="water" />
		<tag k="ssr:stedsnr" v="905859" />
		<tag k="water" v="lake" />
	</node>
	<node lat="67.19982778187756" lon="14.797105564294377" id="-14232">
		<tag k="name" v="Dalaelva" />
		<tag k="ssr:stedsnr" v="905871" />
		<tag k="waterway" v="stream" />
	</node>
	<node lat="67.17143333624529" lon="14.700069445886157" id="-14254">
		<tag k="name" v="Trolldalselva" />
		<tag k="ssr:stedsnr" v="926369" />
		<tag k="waterway" v="stream" />
	</node>
	<node lat="67.17342222056088" lon="15.051624988782192" id="-14259">
		<tag k="name" v="Reinvatnet" />
		<tag k="natural" v="water" />
		<tag k="ssr:stedsnr" v="926510" />
	</node>
	<node lat="67.48604166871306" lon="14.78649722545148" id="-14273">
		<tag k="alt_name" v="Storsengnes" />
		<tag k="name" v="Storsengneset" />
		<tag k="natural" v="cape" />
		<tag k="ssr:stedsnr" v="926614" />
	</node>
	<node lat="67.48743333302698" lon="14.801183332210579" id="-14277">
		<tag k="name" v="Vassholmen" />
		<tag k="place" v="islet" />
		<tag k="ssr:stedsnr" v="926630" />
	</node>
	<node lat="67.1768944478817" lon="15.150236111032035" id="-14282">
		<tag k="name" v="Svartvatnet" />
		<tag k="natural" v="water" />
		<tag k="ssr:stedsnr" v="926721" />
		<tag k="water" v="lake" />
	</node>
	<node lat="67.16497777965091" lon="14.434538897006858" id="-14556">
		<tag k="name" v="Lomtjønna" />
		<tag k="natural" v="water" />
		<tag k="ssr:stedsnr" v="16340" />
	</node>
	<node lat="67.14171944110245" lon="14.469088876823022" id="-14566">
		<tag k="name" v="Urskarvatnet" />
		<tag k="natural" v="water" />
		<tag k="ssr:stedsnr" v="16448" />
	</node>
	<node lat="67.50081666521416" lon="15.035149996442959" id="-14579">
		<tag k="name" v="Bukkelva" />
		<tag k="ssr:stedsnr" v="16160" />
		<tag k="waterway" v="stream" />
	</node>
	<node lat="67.30431389160513" lon="14.407924990503151" id="-14580">
		<tag k="name" v="Pallvatnet" />
		<tag k="natural" v="water" />
		<tag k="ssr:stedsnr" v="16233" />
	</node>
	<node lat="67.07755555334256" lon="14.973288891641015" id="-14592">
		<tag k="fixme" v="multiple name tags, choose one and add the other to alt_name" />
		<tag k="name" v="Middagsvatnet;Yttervatnet" />
		<tag k="natural" v="water" />
		<tag k="ssr:stedsnr" v="16579" />
	</node>
	<node lat="67.07677500182344" lon="14.991291659862714" id="-14593">
		<tag k="name" v="Loddvatnet" />
		<tag k="natural" v="water" />
		<tag k="ssr:stedsnr" v="16582" />
	</node>
	<node lat="67.1008111068924" lon="14.805652781098312" id="-14614">
		<tag k="name" v="Skorrigorrivatnet" />
		<tag k="natural" v="water" />
		<tag k="ssr:stedsnr" v="16541" />
		<tag k="water" v="lake" />
	</node>
	<node lat="67.45664444830602" lon="14.91971388148326" id="-14617">
		<tag k="name" v="Finnskarelva" />
		<tag k="ssr:stedsnr" v="16622" />
		<tag k="waterway" v="stream" />
	</node>
	<node lat="67.21011666755538" lon="14.839336107963831" id="-14620">
		<tag k="name" v="Lomtjønna" />
		<tag k="natural" v="water" />
		<tag k="ssr:stedsnr" v="16635" />
	</node>
	<node lat="67.1720333341028" lon="14.870536107365496" id="-14626">
		<tag k="name" v="Stappelva" />
		<tag k="ssr:stedsnr" v="16716" />
		<tag k="waterway" v="stream" />
	</node>
	<node lat="67.4207444449499" lon="14.773619435628687" id="-14640">
		<tag k="name" v="Nordlivatnet" />
		<tag k="natural" v="water" />
		<tag k="ssr:stedsnr" v="20522" />
	</node>
	<node lat="67.43276388622917" lon="14.746125009941121" id="-14641">
		<tag k="name" v="Husvatnet" />
		<tag k="natural" v="water" />
		<tag k="ssr:stedsnr" v="20548" />
	</node>
	<node lat="67.38085833043472" lon="15.14916110491995" id="-14643">
		<tag k="name" v="Kvalhornvatnet" />
		<tag k="natural" v="water" />
		<tag k="ssr:stedsnr" v="20560" />
	</node>
	<node lat="67.33959166987292" lon="14.81338889692097" id="-14652">
		<tag k="name" v="Strupen" />
		<tag k="natural" v="strait" />
		<tag k="ssr:stedsnr" v="20711" />
	</node>
	<node lat="67.34959722454916" lon="14.799094441005554" id="-14655">
		<tag k="name" v="Hestsundet" />
		<tag k="natural" v="strait" />
		<tag k="ssr:stedsnr" v="20720" />
	</node>
	<node lat="67.1236416687656" lon="15.002286103216475" id="-14682">
		<tag k="name" v="Osen" />
		<tag k="natural" v="bay" />
		<tag k="ssr:stedsnr" v="32436" />
	</node>
	<node lat="67.19535000040145" lon="14.927566667325065" id="-14689">
		<tag k="name" v="Leiteelva" />
		<tag k="ssr:stedsnr" v="32691" />
		<tag k="waterway" v="river" />
	</node>
	<node lat="67.49799722501338" lon="14.745425011986839" id="-14704">
		<tag k="name" v="Djupnes" />
		<tag k="natural" v="cape" />
		<tag k="ssr:stedsnr" v="32941" />
	</node>
	<node lat="67.50239166746874" lon="14.988361120354918" id="-14771">
		<tag k="name" v="Hestvikelva" />
		<tag k="ssr:stedsnr" v="77138" />
		<tag k="waterway" v="stream" />
	</node>
	<node lat="67.09130000258865" lon="14.972849995328037" id="-14773">
		<tag k="name" v="Lakselva" />
		<tag k="ssr:stedsnr" v="77146" />
		<tag k="waterway" v="river" />
	</node>
	<node lat="67.197502776694" lon="14.407869448208018" id="-14776">
		<tag k="name" v="Svartvatnet" />
		<tag k="natural" v="water" />
		<tag k="ssr:stedsnr" v="77078" />
	</node>
	<node lat="67.17630833704989" lon="14.59049444361599" id="-14800">
		<tag k="name" v="Osvatnet" />
		<tag k="natural" v="water" />
		<tag k="ssr:stedsnr" v="77446" />
	</node>
	<node lat="67.47189999657203" lon="14.836138880789347" id="-14804">
		<tag k="name" v="Durmålsvatnet" />
		<tag k="natural" v="water" />
		<tag k="ssr:stedsnr" v="77682" />
		<tag k="water" v="lake" />
	</node>
	<node lat="67.41791944640416" lon="14.400241667484927" id="-14807">
		<tag k="name" v="Sandeidvatnet" />
		<tag k="natural" v="water" />
		<tag k="ssr:stedsnr" v="77468" />
	</node>
	<node lat="67.0288694490493" lon="14.94097221634593" id="-14823">
		<tag k="alt_name" v="Grønnlihaugvatn, nedre" />
		<tag k="name" v="Nedre Grønnlihaugvatn" />
		<tag k="natural" v="water" />
		<tag k="ssr:stedsnr" v="77887" />
	</node>
	<node lat="67.41186111394957" lon="14.767144451443539" id="-14834">
		<tag k="name" v="Småvatnan" />
		<tag k="natural" v="water" />
		<tag k="ssr:stedsnr" v="81450" />
	</node>
	<node lat="67.30433333639478" lon="14.87693332361692" id="-14842">
		<tag k="alt_name" v="Rismålsvatnet" />
		<tag k="name" v="Reismålsvatnet" />
		<tag k="natural" v="water" />
		<tag k="ssr:stedsnr" v="81673" />
	</node>
	<node lat="66.98308889314104" lon="15.009327777596388" id="-14874">
		<tag k="name" v="Filipvatnet" />
		<tag k="natural" v="water" />
		<tag k="ssr:stedsnr" v="92687" />
	</node>
	<node lat="67.39863611157382" lon="14.74906388662874" id="-14876">
		<tag k="name" v="Steigtindneset" />
		<tag k="natural" v="cape" />
		<tag k="ssr:stedsnr" v="93028" />
	</node>
	<node lat="67.11379722414053" lon="15.018747214512931" id="-14882">
		<tag k="name" v="Hemigardselva" />
		<tag k="ssr:stedsnr" v="93337" />
		<tag k="waterway" v="stream" />
	</node>
	<node lat="67.1047027771516" lon="15.030463892717037" id="-14884">
		<tag k="name" v="Brattlielva" />
		<tag k="ssr:stedsnr" v="93306" />
		<tag k="waterway" v="stream" />
	</node>
	<node lat="67.23559166800277" lon="14.652405551305362" id="-14893">
		<tag k="name" v="Moelva" />
		<tag k="ssr:stedsnr" v="93479" />
		<tag k="waterway" v="river" />
	</node>
	<node lat="67.23432777908485" lon="14.917872214017772" id="-14898">
		<tag k="name" v="Haugåga" />
		<tag k="ssr:stedsnr" v="93653" />
		<tag k="waterway" v="stream" />
	</node>
	<node lat="67.53371110991215" lon="14.880730560923567" id="-14907">
		<tag k="name" v="Lomtjønnan" />
		<tag k="natural" v="water" />
		<tag k="ssr:stedsnr" v="93934" />
		<tag k="water" v="lake" />
	</node>
	<node lat="67.49577777717442" lon="14.73736945188168" id="-14911">
		<tag k="name" v="Lomtjønna" />
		<tag k="natural" v="water" />
		<tag k="ssr:stedsnr" v="93909" />
	</node>
	<node lat="67.48976944623136" lon="14.921494444070092" id="-14920">
		<tag k="name" v="Tverrbakkhola" />
		<tag k="natural" v="water" />
		<tag k="ssr:stedsnr" v="102198" />
		<tag k="water" v="lake" />
	</node>
	<node lat="67.28726389169795" lon="13.99407778860423" id="-14927">
		<tag k="name" v="Oddtjønna" />
		<tag k="natural" v="water" />
		<tag k="ssr:stedsnr" v="109798" />
	</node>
	<node lat="67.36965278018901" lon="14.82074721491361" id="-14956">
		<tag k="name" v="Strinden" />
		<tag k="natural" v="strait" />
		<tag k="ssr:stedsnr" v="116938" />
	</node>
	<node lat="67.33502777625995" lon="14.764844432975712" id="-14958">
		<tag k="name" v="Dyrhaugbukta" />
		<tag k="natural" v="bay" />
		<tag k="ssr:stedsnr" v="116884" />
	</node>
	<node lat="67.34252222158473" lon="14.780033331347465" id="-14964">
		<tag k="name" v="Kalvmesteren" />
		<tag k="place" v="islet" />
		<tag k="ssr:stedsnr" v="117959" />
	</node>
	<node lat="67.14999722027761" lon="14.460091656218006" id="-14983">
		<tag k="name" v="Urskarholman" />
		<tag k="place" v="islet" />
		<tag k="ssr:stedsnr" v="137384" />
	</node>
	<node lat="67.3361166700606" lon="14.663688881792915" id="-15001">
		<tag k="name" v="Tverrelva" />
		<tag k="ssr:stedsnr" v="137254" />
		<tag k="waterway" v="stream" />
	</node>
	<node lat="67.32518611507818" lon="14.570299996225494" id="-15002">
		<tag k="alt_name" v="Svennselva" />
		<tag k="name" v="Svenselva" />
		<tag k="ssr:stedsnr" v="137263" />
		<tag k="waterway" v="stream" />
	</node>
	<node lat="67.3244250037089" lon="14.54028610025735" id="-15003">
		<tag k="alt_name" v="Skarddalselva" />
		<tag k="name" v="Skardalelva" />
		<tag k="ssr:stedsnr" v="137270" />
		<tag k="waterway" v="stream" />
	</node>
	<node lat="67.48590000181017" lon="14.755724990948968" id="-15017">
		<tag k="alt_name" v="Mjåsundan" />
		<tag k="name" v="Mjåsundet" />
		<tag k="natural" v="strait" />
		<tag k="ssr:stedsnr" v="137603" />
	</node>
	<node lat="67.49423888581839" lon="14.795455549930523" id="-15021">
		<tag k="name" v="Litlelva" />
		<tag k="ssr:stedsnr" v="137610" />
		<tag k="waterway" v="stream" />
	</node>
	<node lat="67.29415277560823" lon="14.541655559299972" id="-15029">
		<tag k="name" v="Kretjønna" />
		<tag k="natural" v="water" />
		<tag k="ssr:stedsnr" v="137674" />
	</node>
	<node lat="67.20826944261708" lon="14.796897211939466" id="-15031">
		<tag k="fixme" v="multiple name tags, choose one and add the other to alt_name" />
		<tag k="name" v="Sendvatnet;Evensetvatnet" />
		<tag k="natural" v="water" />
		<tag k="ssr:stedsnr" v="137679" />
	</node>
	<node lat="67.38520278050339" lon="15.029811108940605" id="-15050">
		<tag k="name" v="Småelvan" />
		<tag k="ssr:stedsnr" v="141554" />
		<tag k="waterway" v="river" />
	</node>
	<node lat="67.4235638848399" lon="14.830950009331156" id="-15052">
		<tag k="name" v="Svadelva" />
		<tag k="ssr:stedsnr" v="141525" />
		<tag k="waterway" v="stream" />
	</node>
	<node lat="67.31019721927942" lon="14.968341666269417" id="-15053">
		<tag k="name" v="Langvatnet" />
		<tag k="natural" v="water" />
		<tag k="ssr:stedsnr" v="141648" />
	</node>
	<node lat="67.40306666547006" lon="14.760233328485763" id="-15056">
		<tag k="name" v="Steigtindvatnet" />
		<tag k="natural" v="water" />
		<tag k="ssr:stedsnr" v="141570" />
		<tag k="water" v="lake" />
	</node>
	<node lat="67.34646666889597" lon="14.868733332458193" id="-15058">
		<tag k="name" v="Allmenningselva" />
		<tag k="ssr:stedsnr" v="141673" />
		<tag k="waterway" v="river" />
	</node>
	<node lat="67.33772222093442" lon="14.619638876944535" id="-15098">
		<tag k="name" v="Brattforsan" />
		<tag k="natural" v="waterfall" />
		<tag k="ssr:stedsnr" v="153180" />
	</node>
	<node lat="67.27724444040732" lon="14.566638894025647" id="-15110">
		<tag k="name" v="Skagen" />
		<tag k="natural" v="cape" />
		<tag k="ssr:stedsnr" v="153340" />
	</node>
	<node lat="67.19380277556061" lon="15.142752784886055" id="-15138">
		<tag k="name" v="Vassosen" />
		<tag k="natural" v="bay" />
		<tag k="ssr:stedsnr" v="154684" />
	</node>
	<node lat="67.2414916631433" lon="14.961552773974216" id="-15140">
		<tag k="name" v="Langelva" />
		<tag k="ssr:stedsnr" v="154764" />
		<tag k="waterway" v="stream" />
	</node>
	<node lat="67.20633610971717" lon="14.629444454559765" id="-15163">
		<tag k="name" v="Trodalselva" />
		<tag k="ssr:stedsnr" v="177389" />
		<tag k="waterway" v="stream" />
	</node>
	<node lat="67.04761111523042" lon="14.938161105638617" id="-15170">
		<tag k="name" v="Merrashaugvatnet" />
		<tag k="natural" v="water" />
		<tag k="ssr:stedsnr" v="177290" />
	</node>
	<node lat="67.18379166968444" lon="14.74298055180421" id="-15190">
		<tag k="name" v="Nessan" />
		<tag k="natural" v="cape" />
		<tag k="ssr:stedsnr" v="177842" />
	</node>
	<node lat="67.21202499830895" lon="14.478491675917573" id="-15197">
		<tag k="name" v="Rangsettjønna" />
		<tag k="natural" v="water" />
		<tag k="ssr:stedsnr" v="198098" />
	</node>
	<node lat="67.17877222556497" lon="15.042349991738236" id="-15199">
		<tag k="name" v="Merskarvatnet" />
		<tag k="natural" v="water" />
		<tag k="ssr:stedsnr" v="198717" />
	</node>
	<node lat="67.1472166632139" lon="15.094658335775998" id="-15220">
		<tag k="alt_name" v="Lomvatnan, øvre" />
		<tag k="name" v="Øvre Lomvatnan" />
		<tag k="natural" v="water" />
		<tag k="ssr:stedsnr" v="198487" />
		<tag k="water" v="lake" />
	</node>
	<node lat="67.14908888873984" lon="14.983705558043962" id="-15221">
		<tag k="name" v="Makkinelva" />
		<tag k="ssr:stedsnr" v="198490" />
		<tag k="waterway" v="stream" />
	</node>
	<node lat="67.12682777431421" lon="14.47384721235388" id="-15233">
		<tag k="name" v="Geitkoppitjønna" />
		<tag k="natural" v="water" />
		<tag k="ssr:stedsnr" v="198436" />
	</node>
	<node lat="67.12503333492029" lon="14.42818332930382" id="-15234">
		<tag k="name" v="Allmenningsvatnet" />
		<tag k="natural" v="water" />
		<tag k="ssr:stedsnr" v="198437" />
	</node>
	<node lat="67.49394722058317" lon="14.757163893192278" id="-15243">
		<tag k="name" v="Kattroa" />
		<tag k="natural" v="strait" />
		<tag k="ssr:stedsnr" v="198633" />
	</node>
	<node lat="67.4852805583994" lon="14.874705550309397" id="-15249">
		<tag k="name" v="Liaholmen" />
		<tag k="place" v="islet" />
		<tag k="ssr:stedsnr" v="198670" />
	</node>
	<node lat="67.20469999845922" lon="15.015950005352249" id="-15250">
		<tag k="alt_name" v="Tappstadelva" />
		<tag k="name" v="Tapstadelva" />
		<tag k="ssr:stedsnr" v="198675" />
		<tag k="waterway" v="stream" />
	</node>
	<node lat="67.39565555268416" lon="14.89147778356627" id="-15270">
		<tag k="name" v="Tverrelvvatnet" />
		<tag k="natural" v="water" />
		<tag k="ssr:stedsnr" v="202557" />
	</node>
	<node lat="67.34580555217514" lon="14.733611120955581" id="-15278">
		<tag k="fixme" v="multiple name tags, choose one and add the other to alt_name" />
		<tag k="name" v="Kalkfjellvatnet;Johanvatnet" />
		<tag k="natural" v="water" />
		<tag k="ssr:stedsnr" v="202718" />
	</node>
	<node lat="67.35556944597323" lon="14.812241672225035" id="-15279">
		<tag k="alt_name" v="Sørkrykjen" />
		<tag k="name" v="Sørkryken" />
		<tag k="natural" v="bay" />
		<tag k="ssr:stedsnr" v="202726" />
	</node>
	<node lat="67.36105277481023" lon="14.79228889136024" id="-15280">
		<tag k="name" v="Lomtjønna" />
		<tag k="natural" v="water" />
		<tag k="ssr:stedsnr" v="202729" />
	</node>
	<node lat="67.32710555487276" lon="14.729797215232422" id="-15288">
		<tag k="name" v="Fjellvegelva" />
		<tag k="ssr:stedsnr" v="202754" />
		<tag k="waterway" v="stream" />
	</node>
	<node lat="67.2785249987778" lon="14.810383337748691" id="-15337">
		<tag k="name" v="Bjørkåselva" />
		<tag k="ssr:stedsnr" v="214738" />
		<tag k="waterway" v="river" />
	</node>
	<node lat="67.28557499654136" lon="14.754219448141377" id="-15343">
		<tag k="name" v="Ersvikelva" />
		<tag k="ssr:stedsnr" v="214758" />
		<tag k="waterway" v="stream" />
	</node>
	<node lat="67.52553888938743" lon="14.803702768011282" id="-15345">
		<tag k="name" v="Alsoselva" />
		<tag k="ssr:stedsnr" v="214849" />
		<tag k="waterway" v="stream" />
	</node>
	<node lat="67.23036389023216" lon="15.035877778567409" id="-15350">
		<tag k="name" v="Austerelva" />
		<tag k="ssr:stedsnr" v="215596" />
		<tag k="waterway" v="river" />
	</node>
	<node lat="67.11192777997591" lon="15.00282777900957" id="-15352">
		<tag k="name" v="Gropelva" />
		<tag k="ssr:stedsnr" v="215454" />
		<tag k="waterway" v="stream" />
	</node>
	<node lat="67.42308888988622" lon="14.384541666656965" id="-15358">
		<tag k="name" v="Tømmerbakkelva" />
		<tag k="ssr:stedsnr" v="223117" />
		<tag k="waterway" v="stream" />
	</node>
	<node lat="67.29895555231649" lon="14.861377779404942" id="-15382">
		<tag k="name" v="Oselva" />
		<tag k="ssr:stedsnr" v="275130" />
		<tag k="waterway" v="stream" />
	</node>
	<node lat="67.09396666517277" lon="14.991238883099582" id="-15388">
		<tag k="name" v="Sjølielva" />
		<tag k="ssr:stedsnr" v="275422" />
		<tag k="waterway" v="stream" />
	</node>
	<node lat="67.49124722046858" lon="14.6983888833925" id="-15408">
		<tag k="name" v="Heimerosen" />
		<tag k="ssr:stedsnr" v="275813" />
		<tag k="waterway" v="river" />
	</node>
	<node lat="67.50349444182334" lon="14.718544435029543" id="-15414">
		<tag k="name" v="Fjærelva" />
		<tag k="ssr:stedsnr" v="275946" />
		<tag k="waterway" v="river" />
	</node>
	<node lat="67.15442500269204" lon="14.459505544948243" id="-15445">
		<tag k="name" v="Brurtoppen" />
		<tag k="place" v="islet" />
		<tag k="ssr:stedsnr" v="298408" />
	</node>
	<node lat="67.16789444492791" lon="14.460522227856767" id="-15447">
		<tag k="name" v="Småskjæran" />
		<tag k="place" v="islet" />
		<tag k="ssr:stedsnr" v="298420" />
	</node>
	<node lat="67.14913055743864" lon="14.435647225301143" id="-15454">
		<tag k="name" v="Frostmovika" />
		<tag k="natural" v="bay" />
		<tag k="ssr:stedsnr" v="298433" />
	</node>
	<node lat="67.1597916682692" lon="14.462872218063803" id="-15461">
		<tag k="name" v="Andreasskjæret" />
		<tag k="place" v="islet" />
		<tag k="ssr:stedsnr" v="298451" />
	</node>
	<node lat="67.49475555500446" lon="15.029311104558692" id="-15472">
		<tag k="name" v="Naustelva" />
		<tag k="ssr:stedsnr" v="299058" />
		<tag k="waterway" v="stream" />
	</node>
	<node lat="67.20196944129945" lon="14.67955833304363" id="-15497">
		<tag k="name" v="Gillesvågelva" />
		<tag k="ssr:stedsnr" v="319082" />
		<tag k="waterway" v="stream" />
	</node>
	<node lat="67.30327222608292" lon="14.501188882168975" id="-15500">
		<tag k="name" v="Vågøyvatnet" />
		<tag k="natural" v="water" />
		<tag k="ssr:stedsnr" v="319259" />
		<tag k="water" v="lake" />
	</node>
	<node lat="67.30518333382065" lon="14.600663880725081" id="-15502">
		<tag k="name" v="Vasshauet" />
		<tag k="natural" v="bay" />
		<tag k="ssr:stedsnr" v="319273" />
	</node>
	<node lat="67.30202499620997" lon="14.626063896508246" id="-15503">
		<tag k="name" v="Futelva" />
		<tag k="ssr:stedsnr" v="319274" />
		<tag k="waterway" v="stream" />
	</node>
	<node lat="67.16683333046322" lon="14.439022230470172" id="-15507">
		<tag k="name" v="Djupvatnet" />
		<tag k="natural" v="water" />
		<tag k="ssr:stedsnr" v="319360" />
	</node>
	<node lat="67.43132499628842" lon="14.692283333250066" id="-15515">
		<tag k="name" v="Yttermarkelva" />
		<tag k="ssr:stedsnr" v="319454" />
		<tag k="waterway" v="stream" />
	</node>
	<node lat="67.13130278126026" lon="14.414766667902372" id="-15522">
		<tag k="fixme" v="multiple name tags, choose one and add the other to alt_name" />
		<tag k="name" v="Nordtjønnan;Daudmannskarvatnet" />
		<tag k="natural" v="water" />
		<tag k="ssr:stedsnr" v="319480" />
	</node>
	<node lat="67.49207499645269" lon="14.77071388968452" id="-15535">
		<tag k="fixme" v="multiple name tags, choose one and add the other to alt_name" />
		<tag k="name" v="Indre Fjærvatn;Fjærvatnet" />
		<tag k="natural" v="water" />
		<tag k="ssr:stedsnr" v="319629" />
		<tag k="water" v="lake" />
	</node>
	<node lat="67.03761111188543" lon="15.026391668659691" id="-15539">
		<tag k="name" v="Nesan" />
		<tag k="natural" v="cape" />
		<tag k="ssr:stedsnr" v="319880" />
	</node>
	<node lat="67.40487778030821" lon="14.370133340346962" id="-15552">
		<tag k="alt_name" v="Kvivatnet" />
		<tag k="name" v="Kvigvatnet" />
		<tag k="natural" v="water" />
		<tag k="ssr:stedsnr" v="320424" />
	</node>
	<node lat="67.18335555295943" lon="14.744302788001276" id="-15557">
		<tag k="name" v="Børelva" />
		<tag k="ssr:stedsnr" v="320722" />
		<tag k="waterway" v="river" />
	</node>
	<node lat="67.42068333552865" lon="14.746600006423842" id="-15560">
		<tag k="name" v="Langvatnet" />
		<tag k="natural" v="water" />
		<tag k="ssr:stedsnr" v="323526" />
	</node>
	<node lat="67.3917833304073" lon="14.929666669932223" id="-15562">
		<tag k="name" v="Storelvvatnet" />
		<tag k="natural" v="water" />
		<tag k="ssr:stedsnr" v="323547" />
		<tag k="water" v="lake" />
	</node>
	<node lat="67.37895833109648" lon="14.966824999443896" id="-15564">
		<tag k="name" v="Heggmovatnet" />
		<tag k="natural" v="water" />
		<tag k="ssr:stedsnr" v="323553" />
		<tag k="water" v="lake" />
	</node>
	<node lat="67.29962222425334" lon="14.797538893381462" id="-15569">
		<tag k="name" v="Ysvågelva" />
		<tag k="ssr:stedsnr" v="323642" />
		<tag k="waterway" v="river" />
	</node>
	<node lat="67.33940277351905" lon="14.781294439541746" id="-15575">
		<tag k="alt_name" v="Lilleøya" />
		<tag k="name" v="Litløya" />
		<tag k="place" v="islet" />
		<tag k="ssr:stedsnr" v="323703" />
	</node>
	<node lat="67.36267778177786" lon="14.870988893960783" id="-15576">
		<tag k="name" v="Eidet" />
		<tag k="place" v="locality" />
		<tag k="ssr:stedsnr" v="323711" />
	</node>
	<node lat="67.36922500365407" lon="15.108088888589622" id="-15577">
		<tag k="name" v="Småvatnan" />
		<tag k="natural" v="water" />
		<tag k="ssr:stedsnr" v="323714" />
		<tag k="water" v="lake" />
	</node>
	<node lat="67.48748333655945" lon="15.008449993869702" id="-15647">
		<tag k="name" v="Loftbakkvatnet" />
		<tag k="natural" v="water" />
		<tag k="ssr:stedsnr" v="344227" />
	</node>
	<node lat="67.4911555556684" lon="14.913813884796594" id="-15653">
		<tag k="name" v="Tverrbakkelva" />
		<tag k="ssr:stedsnr" v="344169" />
		<tag k="waterway" v="stream" />
	</node>
	<node lat="67.14545277713208" lon="14.541847217367245" id="-15670">
		<tag k="name" v="Elven" />
		<tag k="ssr:stedsnr" v="359271" />
		<tag k="waterway" v="stream" />
	</node>
	<node lat="67.19151110916468" lon="14.604427777409803" id="-15673">
		<tag k="name" v="Åselielva" />
		<tag k="ssr:stedsnr" v="359394" />
		<tag k="waterway" v="stream" />
	</node>
	<node lat="67.43265278211754" lon="14.364188883350023" id="-15674">
		<tag k="name" v="Asplivatnet" />
		<tag k="natural" v="water" />
		<tag k="ssr:stedsnr" v="359432" />
	</node>
	<node lat="67.16929722096273" lon="14.45127499014478" id="-15680">
		<tag k="name" v="Vasshauet" />
		<tag k="natural" v="bay" />
		<tag k="ssr:stedsnr" v="359498" />
	</node>
	<node lat="67.14336666649821" lon="14.406897221461545" id="-15681">
		<tag k="name" v="Hestneset" />
		<tag k="natural" v="cape" />
		<tag k="ssr:stedsnr" v="359518" />
	</node>
	<node lat="67.14488333395681" lon="14.409766672493083" id="-15682">
		<tag k="name" v="Damneset" />
		<tag k="natural" v="cape" />
		<tag k="ssr:stedsnr" v="359520" />
	</node>
	<node lat="67.37407221846517" lon="14.825441661907703" id="-15685">
		<tag k="name" v="Sørbladtjønna" />
		<tag k="natural" v="water" />
		<tag k="ssr:stedsnr" v="359930" />
	</node>
	<node lat="67.56361111314527" lon="15.117747233664716" id="-15686">
		<tag k="name" v="Oselva" />
		<tag k="ssr:stedsnr" v="359969" />
		<tag k="waterway" v="stream" />
	</node>
	<node lat="67.32199444169693" lon="14.753841676164134" id="-15687">
		<tag k="name" v="Belsvikbukta" />
		<tag k="natural" v="bay" />
		<tag k="ssr:stedsnr" v="359971" />
	</node>
	<node lat="67.50592777674908" lon="14.800044455693731" id="-15690">
		<tag k="name" v="Heggoelva" />
		<tag k="ssr:stedsnr" v="379633" />
		<tag k="waterway" v="stream" />
	</node>
	<node lat="67.16029722621737" lon="14.8486111210107" id="-15695">
		<tag k="name" v="Svenskelva" />
		<tag k="ssr:stedsnr" v="379496" />
		<tag k="waterway" v="stream" />
	</node>
	<node lat="67.18148610886814" lon="15.151788879326288" id="-15697">
		<tag k="fixme" v="multiple name tags, choose one and add the other to alt_name" />
		<tag k="name" v="Lillevatnet;Litltjønna" />
		<tag k="natural" v="water" />
		<tag k="ssr:stedsnr" v="379696" />
	</node>
	<node lat="67.13890000013879" lon="14.468419451571068" id="-15699">
		<tag k="fixme" v="multiple name tags, choose one and add the other to alt_name" />
		<tag k="name" v="Litlvatnet;Isvikvatnet" />
		<tag k="natural" v="water" />
		<tag k="ssr:stedsnr" v="379454" />
	</node>
	<node lat="67.19733055600567" lon="14.815555561236634" id="-15722">
		<tag k="name" v="Tverrelva" />
		<tag k="ssr:stedsnr" v="380148" />
		<tag k="waterway" v="river" />
	</node>
	<node lat="67.14929999907804" lon="14.552619452217401" id="-15742">
		<tag k="name" v="Snøskavlbekken" />
		<tag k="ssr:stedsnr" v="380493" />
		<tag k="waterway" v="stream" />
	</node>
	<node lat="67.14318610671606" lon="14.833275003518493" id="-15749">
		<tag k="name" v="Skredvatnet" />
		<tag k="natural" v="water" />
		<tag k="ssr:stedsnr" v="380601" />
		<tag k="water" v="lake" />
	</node>
	<node lat="67.19814167085121" lon="14.82676389780306" id="-15759">
		<tag k="name" v="Middagselva" />
		<tag k="ssr:stedsnr" v="380730" />
		<tag k="waterway" v="stream" />
	</node>
	<node lat="67.19471944132871" lon="14.80073333209416" id="-15760">
		<tag k="fixme" v="multiple name tags, choose one and add the other to alt_name" />
		<tag k="name" v="Omdalselva;Omnidalselva" />
		<tag k="ssr:stedsnr" v="380732" />
		<tag k="waterway" v="stream" />
	</node>
	<node lat="67.2806138910683" lon="14.804127785186928" id="-15773">
		<tag k="name" v="Holandselva" />
		<tag k="ssr:stedsnr" v="384670" />
		<tag k="waterway" v="stream" />
	</node>
	<node lat="67.41782222636385" lon="14.81028888347955" id="-15776">
		<tag k="name" v="Svadelvvatnet" />
		<tag k="natural" v="water" />
		<tag k="ssr:stedsnr" v="383533" />
	</node>
	<node lat="67.31404166828673" lon="14.734283343721627" id="-15777">
		<tag k="name" v="Hestsundet" />
		<tag k="natural" v="strait" />
		<tag k="ssr:stedsnr" v="384426" />
	</node>
	<node lat="67.57032777626213" lon="14.931897220842616" id="-15819">
		<tag k="name" v="Eirvikelva" />
		<tag k="ssr:stedsnr" v="396362" />
		<tag k="waterway" v="stream" />
	</node>
	<node lat="67.26594444885276" lon="14.726558330381284" id="-15825">
		<tag k="name" v="Oselva" />
		<tag k="ssr:stedsnr" v="396520" />
		<tag k="waterway" v="river" />
	</node>
	<node lat="67.08465833670716" lon="15.013458324246722" id="-15827">
		<tag k="name" v="Stolpelva" />
		<tag k="ssr:stedsnr" v="396448" />
		<tag k="waterway" v="stream" />
	</node>
	<node lat="67.53684722634407" lon="14.837402788528294" id="-15843">
		<tag k="name" v="Lilleelva" />
		<tag k="ssr:stedsnr" v="396861" />
		<tag k="waterway" v="stream" />
	</node>
	<node lat="67.419983335812" lon="14.384016662315899" id="-15856">
		<tag k="name" v="Skipselva" />
		<tag k="ssr:stedsnr" v="405098" />
		<tag k="waterway" v="stream" />
	</node>
	<node lat="67.21471666757407" lon="14.382788885212774" id="-15882">
		<tag k="name" v="Kvalvikelva" />
		<tag k="ssr:stedsnr" v="420219" />
		<tag k="waterway" v="stream" />
	</node>
	<node lat="67.37884722506782" lon="14.24903611724871" id="-15886">
		<tag k="name" v="Lomstjønna" />
		<tag k="natural" v="water" />
		<tag k="ssr:stedsnr" v="420180" />
	</node>
	<node lat="67.14329166239658" lon="14.542327781084689" id="-15887">
		<tag k="name" v="Stabbursdalselva" />
		<tag k="ssr:stedsnr" v="420263" />
		<tag k="waterway" v="stream" />
	</node>
	<node lat="67.17545833097019" lon="14.759608321649004" id="-15912">
		<tag k="name" v="Vasshauet" />
		<tag k="natural" v="cape" />
		<tag k="ssr:stedsnr" v="420844" />
	</node>
	<node lat="67.3468416665011" lon="14.752911101576803" id="-15916">
		<tag k="name" v="Nattmålselva" />
		<tag k="ssr:stedsnr" v="420960" />
		<tag k="waterway" v="stream" />
	</node>
	<node lat="67.34945832978968" lon="14.782341654537497" id="-15917">
		<tag k="name" v="Holmen" />
		<tag k="place" v="islet" />
		<tag k="ssr:stedsnr" v="420968" />
	</node>
	<node lat="67.31030833254884" lon="14.61202500928617" id="-15923">
		<tag k="name" v="Svarthamran" />
		<tag k="natural" v="cape" />
		<tag k="ssr:stedsnr" v="440286" />
	</node>
	<node lat="67.13926666459004" lon="14.421138896823573" id="-15931">
		<tag k="name" v="Storneset" />
		<tag k="natural" v="cape" />
		<tag k="ssr:stedsnr" v="440474" />
	</node>
	<node lat="67.37755277724668" lon="14.6805611200833" id="-15962">
		<tag k="alt_name" v="Skauskardvatnet;Skaugskarvatnet" />
		<tag k="name" v="Skauskarvatnet" />
		<tag k="natural" v="water" />
		<tag k="ssr:stedsnr" v="441363" />
	</node>
	<node lat="67.17528055369523" lon="14.548419439353674" id="-15965">
		<tag k="name" v="Mølnelva" />
		<tag k="ssr:stedsnr" v="441436" />
		<tag k="waterway" v="stream" />
	</node>
	<node lat="67.14066944381868" lon="15.001024998939418" id="-15971">
		<tag k="name" v="Hovlielva" />
		<tag k="ssr:stedsnr" v="441555" />
		<tag k="waterway" v="stream" />
	</node>
	<node lat="67.14166389145917" lon="14.921422233027918" id="-15973">
		<tag k="name" v="Oldereidvatnet" />
		<tag k="natural" v="water" />
		<tag k="ssr:stedsnr" v="441560" />
		<tag k="water" v="lake" />
	</node>
	<node lat="67.15307777864324" lon="14.87750554626144" id="-15976">
		<tag k="name" v="Lielva" />
		<tag k="ssr:stedsnr" v="441512" />
		<tag k="waterway" v="stream" />
	</node>
	<node lat="67.48040833173842" lon="14.722347223258982" id="-15979">
		<tag k="fixme" v="multiple name tags, choose one and add the other to alt_name" />
		<tag k="name" v="Litlvatnet;Mølnvatnet" />
		<tag k="natural" v="water" />
		<tag k="ssr:stedsnr" v="441637" />
	</node>
	<node lat="67.06920000147075" lon="15.046461114634448" id="-15985">
		<tag k="alt_name" v="Storheivatnet, yt" />
		<tag k="name" v="Ytrestorheivatnet" />
		<tag k="natural" v="water" />
		<tag k="ssr:stedsnr" v="441613" />
	</node>
	<node lat="67.07974167059801" lon="14.935158344243641" id="-15986">
		<tag k="name" v="Merrashaugvatnet" />
		<tag k="natural" v="water" />
		<tag k="ssr:stedsnr" v="441619" />
	</node>
	<node lat="67.07825555910112" lon="15.12565277668505" id="-15988">
		<tag k="name" v="Charlesvatnan" />
		<tag k="natural" v="water" />
		<tag k="ssr:stedsnr" v="441626" />
		<tag k="water" v="lake" />
	</node>
	<node lat="67.5172750038981" lon="14.916399996357141" id="-15993">
		<tag k="name" v="Djupåga" />
		<tag k="ssr:stedsnr" v="442172" />
		<tag k="waterway" v="stream" />
	</node>
	<node lat="67.32194167009756" lon="14.730622233200894" id="-15996">
		<tag k="name" v="Storelva" />
		<tag k="ssr:stedsnr" v="444737" />
		<tag k="waterway" v="stream" />
	</node>
	<node lat="67.31863888606776" lon="15.011716657779274" id="-15999">
		<tag k="name" v="Sagelva" />
		<tag k="ssr:stedsnr" v="445444" />
		<tag k="waterway" v="river" />
	</node>
	<node lat="67.36076110768984" lon="14.81094445284165" id="-16001">
		<tag k="alt_name" v="Nordkrykjen" />
		<tag k="name" v="Nordkryken" />
		<tag k="natural" v="bay" />
		<tag k="ssr:stedsnr" v="445729" />
	</node>
	<node lat="67.42493611370942" lon="14.997411119087916" id="-16005">
		<tag k="name" v="Anderselvvatnet" />
		<tag k="natural" v="water" />
		<tag k="ssr:stedsnr" v="445561" />
	</node>
	<node lat="67.20481111236543" lon="14.64880555636903" id="-16024">
		<tag k="name" v="Tuvfjellvatnet" />
		<tag k="natural" v="water" />
		<tag k="ssr:stedsnr" v="501095" />
	</node>
	<node lat="67.08856944163803" lon="14.91773332811204" id="-16058">
		<tag k="alt_name" v="Svartvatn" />
		<tag k="name" v="Svartvatnet" />
		<tag k="natural" v="water" />
		<tag k="ssr:stedsnr" v="501546" />
	</node>
	<node lat="67.08340833434585" lon="14.991850008677865" id="-16059">
		<tag k="name" v="Skarsvatnet" />
		<tag k="natural" v="water" />
		<tag k="ssr:stedsnr" v="501549" />
		<tag k="water" v="lake" />
	</node>
	<node lat="67.29318611036497" lon="14.604188899140391" id="-16064">
		<tag k="name" v="Breivadelva" />
		<tag k="ssr:stedsnr" v="501678" />
		<tag k="waterway" v="river" />
	</node>
	<node lat="67.29829166885334" lon="14.666175002590835" id="-16066">
		<tag k="name" v="Kvalvågelva" />
		<tag k="ssr:stedsnr" v="501691" />
		<tag k="waterway" v="stream" />
	</node>
	<node lat="67.19955555178701" lon="15.069886104127415" id="-16085">
		<tag k="name" v="Grønlivatnan" />
		<tag k="natural" v="water" />
		<tag k="ssr:stedsnr" v="502753" />
	</node>
	<node lat="67.19001666798631" lon="15.151841660245145" id="-16088">
		<tag k="name" v="Gardsvatnet" />
		<tag k="natural" v="water" />
		<tag k="ssr:stedsnr" v="502767" />
		<tag k="water" v="lake" />
	</node>
	<node lat="67.42188055481894" lon="14.73499166635759" id="-16090">
		<tag k="alt_name" v="Mjeldvatnet" />
		<tag k="name" v="Mjellevatnet" />
		<tag k="natural" v="water" />
		<tag k="ssr:stedsnr" v="505512" />
	</node>
	<node lat="67.43027221995293" lon="14.758722230065828" id="-16092">
		<tag k="name" v="Storelva" />
		<tag k="ssr:stedsnr" v="505535" />
		<tag k="waterway" v="stream" />
	</node>
	<node lat="67.38576389099461" lon="14.88248055404267" id="-16093">
		<tag k="name" v="Storvikelva" />
		<tag k="ssr:stedsnr" v="505546" />
		<tag k="waterway" v="stream" />
	</node>
	<node lat="67.38166944412974" lon="14.857780563575384" id="-16094">
		<tag k="name" v="Vikelva" />
		<tag k="ssr:stedsnr" v="505548" />
		<tag k="waterway" v="stream" />
	</node>
	<node lat="67.40899444894224" lon="14.83252777536231" id="-16095">
		<tag k="name" v="Spjutarvatnet" />
		<tag k="natural" v="water" />
		<tag k="ssr:stedsnr" v="505556" />
	</node>
	<node lat="67.36873611356668" lon="14.734658326609239" id="-16098">
		<tag k="name" v="Langvasselva" />
		<tag k="ssr:stedsnr" v="505729" />
		<tag k="waterway" v="stream" />
	</node>
	<node lat="67.31048056005027" lon="14.540930554520191" id="-16133">
		<tag k="name" v="Svartelva" />
		<tag k="ssr:stedsnr" v="517787" />
		<tag k="waterway" v="river" />
	</node>
	<node lat="67.34074999905687" lon="14.548702772449175" id="-16140">
		<tag k="name" v="Bertnesskarelva" />
		<tag k="ssr:stedsnr" v="517942" />
		<tag k="waterway" v="stream" />
	</node>
	<node lat="67.49961944713036" lon="14.747705562280222" id="-16141">
		<tag k="name" v="Nedre Fjærvatn" />
		<tag k="natural" v="water" />
		<tag k="ssr:stedsnr" v="517945" />
		<tag k="water" v="lake" />
	</node>
	<node lat="67.53898333162655" lon="14.870194450659088" id="-16142">
		<tag k="name" v="Skinnbergfossen" />
		<tag k="natural" v="waterfall" />
		<tag k="ssr:stedsnr" v="517950" />
	</node>
	<node lat="67.26788888800962" lon="14.706413885679718" id="-16158">
		<tag k="name" v="Drangen" />
		<tag k="place" v="island" />
		<tag k="ssr:stedsnr" v="518531" />
	</node>
	<node lat="67.27879999935898" lon="14.824816665220093" id="-16161">
		<tag k="name" v="Elstadvadelva" />
		<tag k="ssr:stedsnr" v="518693" />
		<tag k="waterway" v="stream" />
	</node>
	<node lat="67.52878611311826" lon="14.888380546790703" id="-16182">
		<tag k="name" v="Bondalelva" />
		<tag k="ssr:stedsnr" v="541196" />
		<tag k="waterway" v="stream" />
	</node>
	<node lat="67.1567666633025" lon="14.446641659202681" id="-16185">
		<tag k="name" v="Juliusvika" />
		<tag k="natural" v="bay" />
		<tag k="ssr:stedsnr" v="541470" />
	</node>
	<node lat="67.14871111045005" lon="14.436074999650591" id="-16195">
		<tag k="name" v="Skolhusodden" />
		<tag k="natural" v="cape" />
		<tag k="ssr:stedsnr" v="541487" />
	</node>
	<node lat="67.16286667035526" lon="14.438513892055944" id="-16196">
		<tag k="name" v="Skikvika" />
		<tag k="natural" v="bay" />
		<tag k="ssr:stedsnr" v="541489" />
	</node>
	<node lat="67.13167777457981" lon="14.401627780021434" id="-16197">
		<tag k="name" v="Rundtjønna" />
		<tag k="natural" v="water" />
		<tag k="ssr:stedsnr" v="541501" />
	</node>
	<node lat="67.12913055611381" lon="14.409205557826295" id="-16204">
		<tag k="name" v="Sørtjønnan" />
		<tag k="natural" v="water" />
		<tag k="ssr:stedsnr" v="541536" />
	</node>
	<node lat="67.37554444845794" lon="14.819772216551938" id="-16207">
		<tag k="name" v="Nordbladtjønna" />
		<tag k="natural" v="water" />
		<tag k="ssr:stedsnr" v="541946" />
	</node>
	<node lat="67.30653889013126" lon="14.597041659447967" id="-16213">
		<tag k="name" v="Myrneset" />
		<tag k="natural" v="cape" />
		<tag k="ssr:stedsnr" v="561295" />
	</node>
	<node lat="67.31439166524157" lon="14.546961114714149" id="-16214">
		<tag k="name" v="Osan" />
		<tag k="natural" v="bay" />
		<tag k="ssr:stedsnr" v="561261" />
	</node>
	<node lat="67.12348333067062" lon="15.022797211849062" id="-16236">
		<tag k="name" v="Hellforselva" />
		<tag k="ssr:stedsnr" v="561535" />
		<tag k="waterway" v="stream" />
	</node>
	<node lat="67.0628277810544" lon="15.004599991102072" id="-16244">
		<tag k="alt_name" v="Kiskvatn" />
		<tag k="name" v="Kiskvatnet" />
		<tag k="natural" v="water" />
		<tag k="ssr:stedsnr" v="561607" />
	</node>
	<node lat="67.4849472245979" lon="14.881658335153768" id="-16250">
		<tag k="alt_name" v="Ryeholmen" />
		<tag k="name" v="Ryholmen" />
		<tag k="place" v="islet" />
		<tag k="ssr:stedsnr" v="561696" />
	</node>
	<node lat="67.14953333393704" lon="14.481133336736924" id="-16288">
		<tag k="name" v="Lomtjønna" />
		<tag k="natural" v="water" />
		<tag k="ssr:stedsnr" v="562391" />
	</node>
	<node lat="67.32838888470157" lon="14.600880548432752" id="-16296">
		<tag k="name" v="Sagelva" />
		<tag k="ssr:stedsnr" v="562269" />
		<tag k="waterway" v="stream" />
	</node>
	<node lat="67.44678055180432" lon="14.989491656598576" id="-16313">
		<tag k="name" v="Tenørelva" />
		<tag k="ssr:stedsnr" v="562592" />
		<tag k="waterway" v="stream" />
	</node>
	<node lat="67.21550555295599" lon="14.933380554970654" id="-16317">
		<tag k="alt_name" v="Feskelva" />
		<tag k="name" v="Fiskelva" />
		<tag k="ssr:stedsnr" v="562659" />
		<tag k="waterway" v="stream" />
	</node>
	<node lat="67.17586388963636" lon="14.736519444560205" id="-16323">
		<tag k="name" v="Tverrelva" />
		<tag k="ssr:stedsnr" v="562700" />
		<tag k="waterway" v="stream" />
	</node>
	<node lat="67.19125278124126" lon="14.790241672565704" id="-16327">
		<tag k="alt_name" v="Geitholbekken" />
		<tag k="name" v="Geithølbekken" />
		<tag k="ssr:stedsnr" v="562720" />
		<tag k="waterway" v="stream" />
	</node>
	<node lat="67.03804722483719" lon="15.041369455450392" id="-16328">
		<tag k="name" v="Snelifossen" />
		<tag k="natural" v="waterfall" />
		<tag k="ssr:stedsnr" v="562874" />
	</node>
	<node lat="67.53855833019773" lon="14.911511106115706" id="-16332">
		<tag k="name" v="Opplielva" />
		<tag k="ssr:stedsnr" v="563112" />
		<tag k="waterway" v="stream" />
	</node>
	<node lat="67.42717777728194" lon="14.964744438024098" id="-16340">
		<tag k="name" v="Anderselva" />
		<tag k="ssr:stedsnr" v="565485" />
		<tag k="waterway" v="stream" />
	</node>
	<node lat="67.43324166987685" lon="15.019316661538923" id="-16341">
		<tag k="name" v="Tullelvvatnet" />
		<tag k="natural" v="water" />
		<tag k="ssr:stedsnr" v="565486" />
		<tag k="water" v="lake" />
	</node>
	<node lat="67.32074444332495" lon="14.969388883608218" id="-16345">
		<tag k="name" v="Trolldalsvatnan" />
		<tag k="natural" v="water" />
		<tag k="ssr:stedsnr" v="565740" />
	</node>
	<node lat="67.32992222013984" lon="14.764616663733898" id="-16346">
		<tag k="name" v="Odden" />
		<tag k="natural" v="cape" />
		<tag k="ssr:stedsnr" v="565761" />
	</node>
	<node lat="67.41636944074217" lon="14.777905557618213" id="-16347">
		<tag k="name" v="Husvatnet" />
		<tag k="natural" v="water" />
		<tag k="ssr:stedsnr" v="566427" />
	</node>
	<node lat="67.37503055504654" lon="14.793841675135486" id="-16350">
		<tag k="name" v="Djupdalstjønna" />
		<tag k="natural" v="water" />
		<tag k="ssr:stedsnr" v="566542" />
	</node>
	<node lat="67.29914999622216" lon="14.87729443564655" id="-16353">
		<tag k="alt_name" v="Raudbergselva" />
		<tag k="name" v="Rauberselva" />
		<tag k="ssr:stedsnr" v="566739" />
		<tag k="waterway" v="stream" />
	</node>
	<node lat="67.17852778052044" lon="14.451436100921999" id="-16370">
		<tag k="name" v="Valneselva" />
		<tag k="ssr:stedsnr" v="571368" />
		<tag k="waterway" v="river" />
	</node>
	<node lat="67.31057499602747" lon="14.802566665689028" id="-16403">
		<tag k="name" v="Nakvasselva" />
		<tag k="ssr:stedsnr" v="578068" />
		<tag k="waterway" v="stream" />
	</node>
	<node lat="67.3212361105717" lon="14.623947216396557" id="-16410">
		<tag k="name" v="Gjerdelva" />
		<tag k="ssr:stedsnr" v="578169" />
		<tag k="waterway" v="stream" />
	</node>
	<node lat="67.30350000378876" lon="13.72785832947993" id="-16451">
		<tag k="name" v="Salttjønna" />
		<tag k="natural" v="water" />
		<tag k="ssr:stedsnr" v="589138" />
	</node>
	<node lat="67.21830277344681" lon="14.454047220261005" id="-16469">
		<tag k="name" v="Langneset" />
		<tag k="natural" v="cape" />
		<tag k="ssr:stedsnr" v="601100" />
	</node>
	<node lat="67.52873610724131" lon="14.907183337820639" id="-16471">
		<tag k="name" v="Lilleåga" />
		<tag k="ssr:stedsnr" v="601178" />
		<tag k="waterway" v="stream" />
	</node>
	<node lat="67.23008055266645" lon="14.497658331418375" id="-16477">
		<tag k="name" v="Seivågelva" />
		<tag k="ssr:stedsnr" v="601028" />
		<tag k="waterway" v="stream" />
	</node>
	<node lat="67.14762500149783" lon="14.430422215908418" id="-16482">
		<tag k="name" v="Sandvika" />
		<tag k="natural" v="bay" />
		<tag k="ssr:stedsnr" v="601483" />
	</node>
	<node lat="67.29988610816113" lon="14.542011106133115" id="-16499">
		<tag k="name" v="Langvatnet" />
		<tag k="natural" v="water" />
		<tag k="ssr:stedsnr" v="622706" />
	</node>
	<node lat="67.16193333012087" lon="14.860847222939547" id="-16508">
		<tag k="name" v="Tverrelva" />
		<tag k="ssr:stedsnr" v="622147" />
		<tag k="waterway" v="stream" />
	</node>
	<node lat="67.12606666576146" lon="14.529211114817594" id="-16521">
		<tag k="name" v="Skuttivatnet" />
		<tag k="natural" v="water" />
		<tag k="ssr:stedsnr" v="622449" />
	</node>
	<node lat="67.13695277753564" lon="15.008594433414792" id="-16527">
		<tag k="name" v="Gauslibekken" />
		<tag k="ssr:stedsnr" v="622538" />
		<tag k="waterway" v="stream" />
	</node>
	<node lat="67.07704444561529" lon="14.762838899111834" id="-16530">
		<tag k="name" v="Tindvatnet" />
		<tag k="natural" v="water" />
		<tag k="ssr:stedsnr" v="622558" />
		<tag k="water" v="lake" />
	</node>
	<node lat="67.49144722655005" lon="14.821866656800864" id="-16536">
		<tag k="name" v="Botnåga" />
		<tag k="ssr:stedsnr" v="622647" />
		<tag k="waterway" v="stream" />
	</node>
	<node lat="67.40190278251475" lon="14.673144438562613" id="-16580">
		<tag k="name" v="Gjerdselva" />
		<tag k="ssr:stedsnr" v="623443" />
		<tag k="waterway" v="stream" />
	</node>
	<node lat="67.53968333351236" lon="14.874044452559385" id="-16581">
		<tag k="name" v="Storelva" />
		<tag k="ssr:stedsnr" v="623756" />
		<tag k="waterway" v="river" />
	</node>
	<node lat="67.42853611344572" lon="15.079555559051427" id="-16583">
		<tag k="name" v="Tindvatnet" />
		<tag k="natural" v="water" />
		<tag k="ssr:stedsnr" v="626538" />
		<tag k="water" v="lake" />
	</node>
	<node lat="67.38003055386784" lon="14.820227777011747" id="-16584">
		<tag k="name" v="Langvatnet" />
		<tag k="natural" v="water" />
		<tag k="ssr:stedsnr" v="626568" />
	</node>
	<node lat="67.34067499836998" lon="14.802030563905724" id="-16587">
		<tag k="alt_name" v="Øspenes" />
		<tag k="name" v="Ospenes" />
		<tag k="natural" v="cape" />
		<tag k="ssr:stedsnr" v="626712" />
	</node>
	<node lat="67.34054722434084" lon="14.83915556180233" id="-16588">
		<tag k="name" v="Skveira" />
		<tag k="ssr:stedsnr" v="626716" />
		<tag k="waterway" v="stream" />
	</node>
	<node lat="67.34778889162568" lon="14.787638899130188" id="-16589">
		<tag k="name" v="Storøya" />
		<tag k="place" v="islet" />
		<tag k="ssr:stedsnr" v="626718" />
	</node>
	<node lat="67.08079444199795" lon="14.986641655339053" id="-16647">
		<tag k="name" v="Halsdrangen" />
		<tag k="natural" v="cape" />
		<tag k="ssr:stedsnr" v="639482" />
	</node>
	<node lat="67.23598055591782" lon="14.545102784058322" id="-16671">
		<tag k="name" v="Hellevikelva" />
		<tag k="ssr:stedsnr" v="647347" />
		<tag k="waterway" v="stream" />
	</node>
	<node lat="67.28639166973127" lon="13.985225001990731" id="-16678">
		<tag k="name" v="Kvalviktjønna" />
		<tag k="natural" v="water" />
		<tag k="ssr:stedsnr" v="655818" />
	</node>
	<node lat="67.17069722239474" lon="14.448933341376723" id="-16695">
		<tag k="name" v="Kulpen" />
		<tag k="natural" v="water" />
		<tag k="ssr:stedsnr" v="662242" />
		<tag k="water" v="lake" />
	</node>
	<node lat="67.14401388849339" lon="14.531699997630733" id="-16696">
		<tag k="name" v="Tretnes" />
		<tag k="natural" v="cape" />
		<tag k="ssr:stedsnr" v="662243" />
	</node>
	<node lat="67.20655277968642" lon="14.603211119265007" id="-16700">
		<tag k="name" v="Nepbritelva" />
		<tag k="ssr:stedsnr" v="662364" />
		<tag k="waterway" v="stream" />
	</node>
	<node lat="67.16270555945474" lon="14.45202498927419" id="-16705">
		<tag k="name" v="Nervatnet" />
		<tag k="natural" v="water" />
		<tag k="ssr:stedsnr" v="662471" />
		<tag k="water" v="lake" />
	</node>
	<node lat="67.20156388978057" lon="14.814597218961698" id="-16707">
		<tag k="name" v="Mølndammen" />
		<tag k="natural" v="water" />
		<tag k="ssr:stedsnr" v="662855" />
		<tag k="water" v="lake" />
	</node>
	<node lat="67.07334166485745" lon="15.003566666749697" id="-16720">
		<tag k="name" v="Nesan" />
		<tag k="natural" v="cape" />
		<tag k="ssr:stedsnr" v="723208" />
	</node>
	<node lat="67.57784444025599" lon="14.997038898923167" id="-16722">
		<tag k="name" v="Kringelelva" />
		<tag k="ssr:stedsnr" v="723211" />
		<tag k="waterway" v="stream" />
	</node>
	<node lat="67.1596888901715" lon="14.440272210933047" id="-16735">
		<tag k="name" v="Storneset" />
		<tag k="natural" v="cape" />
		<tag k="ssr:stedsnr" v="723473" />
	</node>
	<node lat="67.14671388576403" lon="14.427166672860324" id="-16736">
		<tag k="name" v="Veskvika" />
		<tag k="natural" v="bay" />
		<tag k="ssr:stedsnr" v="723494" />
	</node>
	<node lat="67.13970277356498" lon="14.43826667353466" id="-16740">
		<tag k="name" v="Øvervatnet" />
		<tag k="natural" v="water" />
		<tag k="ssr:stedsnr" v="723500" />
		<tag k="water" v="lake" />
	</node>
	<node lat="67.19041944062168" lon="14.75932222006341" id="-16742">
		<tag k="name" v="Skakkøra" />
		<tag k="natural" v="cape" />
		<tag k="ssr:stedsnr" v="723767" />
	</node>
	<node lat="67.24757499703703" lon="14.713452778164628" id="-16743">
		<tag k="name" v="Sjøelva" />
		<tag k="ssr:stedsnr" v="723787" />
		<tag k="waterway" v="stream" />
	</node>
	<node lat="67.17349444824508" lon="14.75997499654425" id="-16744">
		<tag k="name" v="Langneset" />
		<tag k="natural" v="cape" />
		<tag k="ssr:stedsnr" v="723792" />
	</node>
	<node lat="67.33098610913419" lon="14.636213878593301" id="-16755">
		<tag k="name" v="Sandjordelva" />
		<tag k="ssr:stedsnr" v="744236" />
		<tag k="waterway" v="stream" />
	</node>
	<node lat="67.35881666854235" lon="14.58544167012309" id="-16759">
		<tag k="name" v="Fallselva" />
		<tag k="ssr:stedsnr" v="744266" />
		<tag k="waterway" v="stream" />
	</node>
	<node lat="67.14422500433456" lon="14.408652772727942" id="-16766">
		<tag k="name" v="Mølnvatnet" />
		<tag k="natural" v="water" />
		<tag k="ssr:stedsnr" v="744436" />
	</node>
	<node lat="67.44742499873277" lon="15.024649992519157" id="-16788">
		<tag k="name" v="Tullelva" />
		<tag k="ssr:stedsnr" v="744557" />
		<tag k="waterway" v="stream" />
	</node>
	<node lat="67.55797221911385" lon="14.897630553378683" id="-16806">
		<tag k="name" v="Låterelva" />
		<tag k="ssr:stedsnr" v="745151" />
		<tag k="waterway" v="stream" />
	</node>
	<node lat="67.34426110852742" lon="14.761358335365578" id="-16811">
		<tag k="name" v="Mølnelva" />
		<tag k="ssr:stedsnr" v="748427" />
		<tag k="waterway" v="stream" />
	</node>
	<node lat="67.30536944565948" lon="14.76873610218093" id="-16812">
		<tag k="name" v="Storelva" />
		<tag k="ssr:stedsnr" v="748401" />
		<tag k="waterway" v="river" />
	</node>
	<node lat="67.42516388640242" lon="14.79476944410534" id="-16813">
		<tag k="name" v="Dyrlivatnet" />
		<tag k="natural" v="water" />
		<tag k="ssr:stedsnr" v="748527" />
	</node>
	<node lat="67.39658611395576" lon="15.169075004531443" id="-16814">
		<tag k="name" v="Rundvatnet" />
		<tag k="natural" v="water" />
		<tag k="ssr:stedsnr" v="748555" />
	</node>
	<node lat="67.39149999975542" lon="14.887666667100019" id="-16815">
		<tag k="name" v="Tverrelva" />
		<tag k="ssr:stedsnr" v="748557" />
		<tag k="waterway" v="stream" />
	</node>
	<node lat="67.29813055441903" lon="14.817033333425195" id="-16817">
		<tag k="name" v="Fribakkelva" />
		<tag k="ssr:stedsnr" v="748650" />
		<tag k="waterway" v="stream" />
	</node>
	<node lat="67.30925277637668" lon="14.818297212059502" id="-16821">
		<tag k="alt_name" v="Nakkvatnet" />
		<tag k="name" v="Nakvatnet" />
		<tag k="natural" v="water" />
		<tag k="ssr:stedsnr" v="748745" />
	</node>
	<node lat="67.56514722009717" lon="14.901486105771445" id="-16858">
		<tag k="name" v="Sjurvikelva" />
		<tag k="ssr:stedsnr" v="760385" />
		<tag k="waterway" v="stream" />
	</node>
	<node lat="67.4334555576473" lon="14.7307250026273" id="-16875">
		<tag k="name" v="Skyttelva" />
		<tag k="ssr:stedsnr" v="760886" />
		<tag k="waterway" v="stream" />
	</node>
	<node lat="67.49337778037528" lon="14.759030547998162" id="-16878">
		<tag k="name" v="Kattrones" />
		<tag k="natural" v="cape" />
		<tag k="ssr:stedsnr" v="760938" />
	</node>
	<node lat="67.4334027752138" lon="14.70526387857867" id="-16904">
		<tag k="name" v="Markelva" />
		<tag k="ssr:stedsnr" v="784777" />
		<tag k="waterway" v="stream" />
	</node>
	<node lat="67.1465638919924" lon="14.52016112223281" id="-16922">
		<tag k="name" v="Langnestangen" />
		<tag k="natural" v="cape" />
		<tag k="ssr:stedsnr" v="784284" />
	</node>
	<node lat="67.08204166303993" lon="14.921230546415433" id="-16923">
		<tag k="name" v="Djupelva" />
		<tag k="ssr:stedsnr" v="784376" />
		<tag k="waterway" v="stream" />
	</node>
	<node lat="67.15524444548578" lon="14.501799998562403" id="-16939">
		<tag k="name" v="Nerholmen" />
		<tag k="place" v="islet" />
		<tag k="ssr:stedsnr" v="784486" />
	</node>
	<node lat="67.15036666956043" lon="14.437280561239852" id="-16943">
		<tag k="name" v="Malmvika" />
		<tag k="natural" v="bay" />
		<tag k="ssr:stedsnr" v="784503" />
	</node>
	<node lat="67.34476666202833" lon="14.77645278737098" id="-16948">
		<tag k="name" v="Ytterneset" />
		<tag k="natural" v="cape" />
		<tag k="ssr:stedsnr" v="784971" />
	</node>
	<node lat="67.20771666892429" lon="14.556252767577272" id="-16952">
		<tag k="name" v="Storelva" />
		<tag k="ssr:stedsnr" v="805088" />
		<tag k="waterway" v="stream" />
	</node>
	<node lat="67.55488610994563" lon="15.100000010170977" id="-16953">
		<tag k="name" v="Movikeidet" />
		<tag k="place" v="locality" />
		<tag k="ssr:stedsnr" v="805094" />
	</node>
	<node lat="67.13813055760724" lon="14.57091944050783" id="-16967">
		<tag k="name" v="Dalsvatnan" />
		<tag k="natural" v="water" />
		<tag k="ssr:stedsnr" v="805500" />
		<tag k="water" v="lake" />
	</node>
	<node lat="67.31672777562623" lon="14.561119449275372" id="-16979">
		<tag k="name" v="Kalvøya" />
		<tag k="place" v="islet" />
		<tag k="ssr:stedsnr" v="805290" />
	</node>
	<node lat="67.16301111222192" lon="14.46076111478228" id="-16988">
		<tag k="fixme" v="multiple name tags, choose one and add the other to alt_name" />
		<tag k="name" v="Gamholmen;Møsholmen" />
		<tag k="place" v="islet" />
		<tag k="ssr:stedsnr" v="805390" />
	</node>
	<node lat="67.16132499698544" lon="14.625838895138747" id="-16990">
		<tag k="alt_name" v="Åselivatnet, øvre" />
		<tag k="name" v="Øvre Åselivatnet" />
		<tag k="natural" v="water" />
		<tag k="ssr:stedsnr" v="805398" />
		<tag k="water" v="lake" />
	</node>
	<node lat="67.35586944048228" lon="14.723094451490663" id="-16996">
		<tag k="alt_name" v="Svartvatnet, store" />
		<tag k="name" v="Store Svartvatnet" />
		<tag k="natural" v="water" />
		<tag k="old_name" v="Svartvatnet" />
		<tag k="ssr:stedsnr" v="805328" />
	</node>
	<node lat="67.33954444487604" lon="14.628686114149625" id="-16998">
		<tag k="name" v="Langlivatnet" />
		<tag k="natural" v="water" />
		<tag k="ssr:stedsnr" v="805337" />
	</node>
	<node lat="67.12535000178052" lon="14.518055555271541" id="-17016">
		<tag k="name" v="Snokkitjønna" />
		<tag k="natural" v="water" />
		<tag k="ssr:stedsnr" v="805504" />
	</node>
	<node lat="67.17390555337106" lon="15.171305543397397" id="-17019">
		<tag k="alt_name" v="Kjevivatnet" />
		<tag k="name" v="Kjævvivatnet" />
		<tag k="natural" v="water" />
		<tag k="ssr:stedsnr" v="805531" />
	</node>
	<node lat="67.44480555506098" lon="15.078258344156215" id="-17021">
		<tag k="name" v="Litlvatnet" />
		<tag k="natural" v="water" />
		<tag k="ssr:stedsnr" v="805601" />
	</node>
	<node lat="67.23018055342216" lon="14.794858323729102" id="-17027">
		<tag k="name" v="Storelva" />
		<tag k="ssr:stedsnr" v="805628" />
		<tag k="waterway" v="stream" />
	</node>
	<node lat="67.49542777980245" lon="15.031419438489111" id="-17028">
		<tag k="name" v="Mølnelva" />
		<tag k="ssr:stedsnr" v="805632" />
		<tag k="waterway" v="stream" />
	</node>
	<node lat="67.20887222246296" lon="14.765297215006147" id="-17035">
		<tag k="name" v="Bjørndalsvatnet" />
		<tag k="natural" v="water" />
		<tag k="ssr:stedsnr" v="805709" />
	</node>
	<node lat="67.4336472236405" lon="14.807727767771427" id="-17039">
		<tag k="name" v="Innervatnet" />
		<tag k="natural" v="water" />
		<tag k="ssr:stedsnr" v="805576" />
	</node>
	<node lat="67.11398333457797" lon="14.941241676612014" id="-17045">
		<tag k="name" v="Litlskarvatnet" />
		<tag k="natural" v="water" />
		<tag k="ssr:stedsnr" v="805598" />
	</node>
	<node lat="67.11371666555122" lon="15.136069437105812" id="-17046">
		<tag k="name" v="Tirifjellvatnan" />
		<tag k="natural" v="water" />
		<tag k="ssr:stedsnr" v="805599" />
		<tag k="water" v="lake" />
	</node>
	<node lat="67.47087047016227" lon="14.796520907367501" id="-17051">
		<tag k="name" v="Undfossen" />
		<tag k="natural" v="waterfall" />
		<tag k="ssr:stedsnr" v="805660" />
	</node>
	<node lat="67.19161110944127" lon="14.977861106496206" id="-17059">
		<tag k="name" v="Støvsetvatnet" />
		<tag k="natural" v="water" />
		<tag k="ssr:stedsnr" v="805734" />
	</node>
	<node lat="67.52237777371248" lon="15.131475009513707" id="-17070">
		<tag k="name" v="Skarelva" />
		<tag k="ssr:stedsnr" v="806128" />
		<tag k="waterway" v="stream" />
	</node>
	<node lat="67.30593888648133" lon="14.891363899035984" id="-17084">
		<tag k="name" v="Oteråga" />
		<tag k="ssr:stedsnr" v="809668" />
		<tag k="waterway" v="stream" />
	</node>
	<node lat="67.30357500446878" lon="14.959983332531852" id="-17085">
		<tag k="name" v="Mjøneselva" />
		<tag k="ssr:stedsnr" v="809671" />
		<tag k="waterway" v="river" />
	</node>
	<node lat="67.11421666909584" lon="14.983386102824065" id="-17115">
		<tag k="name" v="Ystnes" />
		<tag k="natural" v="cape" />
		<tag k="ssr:stedsnr" v="820691" />
	</node>
	<node lat="67.31251110712046" lon="15.01076111174362" id="-17117">
		<tag k="name" v="Øyjordselva" />
		<tag k="ssr:stedsnr" v="821459" />
		<tag k="waterway" v="stream" />
	</node>
	<node lat="67.26533055216163" lon="14.73139166913845" id="-17119">
		<tag k="name" v="Mølnbekken" />
		<tag k="ssr:stedsnr" v="821540" />
		<tag k="waterway" v="stream" />
	</node>
	<node lat="67.39526666713327" lon="14.668780557228496" id="-17140">
		<tag k="name" v="Maritelva" />
		<tag k="ssr:stedsnr" v="821869" />
		<tag k="waterway" v="river" />
	</node>
	<node lat="67.5186888879138" lon="14.76439722849108" id="-17141">
		<tag k="name" v="Kjerkelva" />
		<tag k="ssr:stedsnr" v="821871" />
		<tag k="waterway" v="stream" />
	</node>
	<node lat="67.34854999985633" lon="14.575497232094277" id="-17144">
		<tag k="name" v="Rødflogelva" />
		<tag k="ssr:stedsnr" v="821895" />
		<tag k="waterway" v="stream" />
	</node>
	<node lat="67.09758333319984" lon="14.95947221847579" id="-17195">
		<tag k="name" v="Storelva" />
		<tag k="ssr:stedsnr" v="845323" />
		<tag k="waterway" v="stream" />
	</node>
	<node lat="67.14117777502831" lon="14.457750005437422" id="-17201">
		<tag k="name" v="Båtvika" />
		<tag k="natural" v="bay" />
		<tag k="ssr:stedsnr" v="845520" />
	</node>
	<node lat="67.08354722303741" lon="14.981475005218446" id="-17204">
		<tag k="name" v="Dammen" />
		<tag k="natural" v="cape" />
		<tag k="ssr:stedsnr" v="845339" />
	</node>
	<node lat="67.43368055643488" lon="14.39830276765299" id="-17207">
		<tag k="name" v="Breivikelva" />
		<tag k="ssr:stedsnr" v="845444" />
		<tag k="waterway" v="stream" />
	</node>
	<node lat="67.14836388745398" lon="14.519594440588278" id="-17211">
		<tag k="name" v="Osan" />
		<tag k="natural" v="bay" />
		<tag k="ssr:stedsnr" v="845543" />
	</node>
	<node lat="67.20045833231259" lon="14.711166656436623" id="-17215">
		<tag k="name" v="Bjørndalselva" />
		<tag k="ssr:stedsnr" v="845853" />
		<tag k="waterway" v="stream" />
	</node>
	<node lat="67.33638333206738" lon="14.78397223230209" id="-17220">
		<tag k="name" v="Drangan" />
		<tag k="natural" v="cape" />
		<tag k="ssr:stedsnr" v="845985" />
	</node>
	<node lat="67.206661112385" lon="14.357702766791972" id="-17226">
		<tag k="name" v="Osen" />
		<tag k="natural" v="water" />
		<tag k="ssr:stedsnr" v="865134" />
	</node>
	<node lat="67.30858888432634" lon="14.659033341477041" id="-17232">
		<tag k="alt_name" v="Nesielva" />
		<tag k="name" v="Nessielva" />
		<tag k="ssr:stedsnr" v="865301" />
		<tag k="waterway" v="river" />
	</node>
	<node lat="67.31473888810564" lon="14.553949993880666" id="-17233">
		<tag k="name" v="Musøya" />
		<tag k="place" v="islet" />
		<tag k="ssr:stedsnr" v="865307" />
	</node>
	<node lat="67.1270583298178" lon="14.916586099519327" id="-17239">
		<tag k="name" v="Oldereidelva" />
		<tag k="ssr:stedsnr" v="865573" />
		<tag k="waterway" v="river" />
	</node>
	<node lat="67.49057778068465" lon="14.88074166321808" id="-17245">
		<tag k="alt_name" v="Ryevatnet" />
		<tag k="name" v="Ryvatnet" />
		<tag k="natural" v="water" />
		<tag k="ssr:stedsnr" v="865673" />
		<tag k="water" v="lake" />
	</node>
	<node lat="67.15635277889334" lon="14.984547213862774" id="-17282">
		<tag k="name" v="Mølnelva" />
		<tag k="ssr:stedsnr" v="866117" />
		<tag k="waterway" v="stream" />
	</node>
	<node lat="67.16673333217926" lon="14.456600009975245" id="-17291">
		<tag k="name" v="Liknesodden" />
		<tag k="natural" v="cape" />
		<tag k="ssr:stedsnr" v="866361" />
	</node>
	<node lat="67.48193333471364" lon="15.010124991217467" id="-17300">
		<tag k="name" v="Mølnelva" />
		<tag k="ssr:stedsnr" v="866299" />
		<tag k="waterway" v="river" />
	</node>
	<node lat="67.28283055796643" lon="14.005355562862801" id="-17321">
		<tag k="name" v="Svartvatnet" />
		<tag k="natural" v="water" />
		<tag k="ssr:stedsnr" v="866456" />
	</node>
	<node lat="67.13015833132252" lon="14.500008333815616" id="-17326">
		<tag k="name" v="Firampivatnet" />
		<tag k="natural" v="water" />
		<tag k="ssr:stedsnr" v="866470" />
		<tag k="water" v="lake" />
	</node>
	<node lat="67.22952777883559" lon="14.828513889112056" id="-17336">
		<tag k="name" v="Yttervikelva" />
		<tag k="ssr:stedsnr" v="866618" />
		<tag k="waterway" v="stream" />
	</node>
	<node lat="67.18519166767459" lon="15.14055833494218" id="-17337">
		<tag k="alt_name" v="Devatn" />
		<tag k="name" v="Devatnet" />
		<tag k="natural" v="water" />
		<tag k="ssr:stedsnr" v="866732" />
	</node>
	<node lat="67.0270388915712" lon="14.931422225172266" id="-17339">
		<tag k="alt_name" v="Grønnlihaugvatn, øvre" />
		<tag k="name" v="Øvre Grønnlihaugvatn" />
		<tag k="natural" v="water" />
		<tag k="ssr:stedsnr" v="866885" />
	</node>
	<node lat="67.23060277474289" lon="15.09011944625199" id="-17347">
		<tag k="name" v="Sandneselva" />
		<tag k="ssr:stedsnr" v="866663" />
		<tag k="waterway" v="stream" />
	</node>
	<node lat="67.18452499828007" lon="14.887277784680423" id="-17367">
		<tag k="name" v="Hølbeselva" />
		<tag k="ssr:stedsnr" v="866722" />
		<tag k="waterway" v="stream" />
	</node>
	<node lat="67.04373055463455" lon="14.989866676101565" id="-17371">
		<tag k="alt_name" v="Kjukkelvatnet" />
		<tag k="name" v="Kykkelvatnet" />
		<tag k="natural" v="water" />
		<tag k="ssr:stedsnr" v="866872" />
	</node>
	<node lat="67.37432499597709" lon="14.825227776873907" id="-17382">
		<tag k="name" v="Bladtjønnan" />
		<tag k="natural" v="water" />
		<tag k="ssr:stedsnr" v="870726" />
		<tag k="water" v="lake" />
	</node>
	<node lat="67.41650833664353" lon="14.76999166081582" id="-17433">
		<tag k="name" v="Møllevatnet" />
		<tag k="natural" v="water" />
		<tag k="ssr:stedsnr" v="882073" />
	</node>
	<node lat="67.06033888765388" lon="15.003155566356305" id="-17445">
		<tag k="name" v="Ruslinesan" />
		<tag k="natural" v="cape" />
		<tag k="ssr:stedsnr" v="882585" />
	</node>
	<node lat="67.40017221797297" lon="14.747738884675245" id="-17486">
		<tag k="name" v="Steigtindsanden" />
		<tag k="natural" v="beach" />
		<tag k="ssr:stedsnr" v="942024" />
	</node>
	<node lat="67.39094166550888" lon="14.754947224809527" id="-17528">
		<tag k="name" v="Forsan" />
		<tag k="natural" v="waterfall" />
		<tag k="ssr:stedsnr" v="943017" />
	</node>
	<node lat="67.18729721996182" lon="15.141472225209457" id="-17544">
		<tag k="name" v="Devasselva" />
		<tag k="ssr:stedsnr" v="943604" />
		<tag k="waterway" v="stream" />
	</node>
	<node lat="67.06749166267252" lon="15.006027768828439" id="-17546">
		<tag k="name" v="Stornes" />
		<tag k="natural" v="cape" />
		<tag k="ssr:stedsnr" v="943664" />
	</node>
	<node lat="67.4242666676134" lon="14.33530555878447" id="-17552">
		<tag k="name" v="Ramsvikelva" />
		<tag k="ssr:stedsnr" v="951102" />
		<tag k="waterway" v="stream" />
	</node>
	<node lat="67.49144166411402" lon="14.911774996931316" id="-17559">
		<tag k="name" v="Vasshaug" />
		<tag k="natural" v="bay" />
		<tag k="ssr:stedsnr" v="951175" />
	</node>
	<node lat="67.1168833336151" lon="14.996658321900691" id="-17563">
		<tag k="name" v="Menes" />
		<tag k="natural" v="cape" />
		<tag k="ssr:stedsnr" v="965030" />
	</node>
	<node lat="67.13298888820124" lon="14.402241662287173" id="-17588">
		<tag k="name" v="Djuposen" />
		<tag k="natural" v="water" />
		<tag k="ssr:stedsnr" v="966514" />
		<tag k="water" v="lake" />
	</node>
	<node lat="67.14164166502898" lon="14.459491654906463" id="-17593">
		<tag k="name" v="Sandvika" />
		<tag k="natural" v="bay" />
		<tag k="ssr:stedsnr" v="966530" />
	</node>
	<node lat="67.19075555908655" lon="14.739138891145359" id="-17595">
		<tag k="name" v="Hestdikelva" />
		<tag k="ssr:stedsnr" v="966825" />
		<tag k="waterway" v="stream" />
	</node>
</osm>
