<?xml version="1.0" encoding="UTF-8"?>
<osm version="0.6" generator="osmapis">
	<node lat="67.5106249993439" lon="14.742558343355903" id="-5918">
		<tag k="name" v="Vikan" />
		<tag k="place" v="locality" />
		<tag k="ssr:stedsnr" v="17154" />
	</node>
	<node lat="67.16204722349455" lon="15.17797778354385" id="-5939">
		<tag k="name" v="Gaupmyra" />
		<tag k="natural" v="wetland" />
		<tag k="ssr:stedsnr" v="25681" />
	</node>
	<node lat="67.2209055590463" lon="15.216191670356281" id="-5942">
		<tag k="name" v="Ytterjorda" />
		<tag k="place" v="locality" />
		<tag k="ssr:stedsnr" v="25996" />
	</node>
	<node lat="67.17057222119723" lon="14.860227770990626" id="-5947">
		<tag k="name" v="Kvitura" />
		<tag k="natural" v="scree" />
		<tag k="ssr:stedsnr" v="31504" />
	</node>
	<node lat="67.1498861148339" lon="14.889005551748998" id="-5949">
		<tag k="name" v="Marenslotto" />
		<tag k="place" v="locality" />
		<tag k="ssr:stedsnr" v="31563" />
	</node>
	<node lat="67.13405833489027" lon="14.93131109993455" id="-5952">
		<tag k="name" v="Skogstad" />
		<tag k="place" v="locality" />
		<tag k="ssr:stedsnr" v="31707" />
	</node>
	<node lat="67.12502500388139" lon="14.90686111594118" id="-5953">
		<tag k="name" v="Eidesmarka" />
		<tag k="place" v="locality" />
		<tag k="ssr:stedsnr" v="31710" />
	</node>
	<node lat="67.1041444480922" lon="15.006838883347749" id="-5958">
		<tag k="name" v="Opplimyran" />
		<tag k="natural" v="wetland" />
		<tag k="ssr:stedsnr" v="32348" />
	</node>
	<node lat="67.48867777683392" lon="14.950686102533881" id="-5983">
		<tag k="name" v="Storura" />
		<tag k="natural" v="scree" />
		<tag k="ssr:stedsnr" v="41217" />
	</node>
	<node lat="67.40599166531307" lon="14.309222232311448" id="-5988">
		<tag k="name" v="Melkasteinen" />
		<tag k="natural" v="stone" />
		<tag k="ssr:stedsnr" v="41420" />
	</node>
	<node lat="67.28787221984066" lon="14.583438892886651" id="-6009">
		<tag k="name" v="Stormyra" />
		<tag k="natural" v="wetland" />
		<tag k="ssr:stedsnr" v="238641" />
	</node>
	<node lat="67.38928611492416" lon="14.332152776742033" id="-6030">
		<tag k="name" v="Hjulsteinen" />
		<tag k="natural" v="stone" />
		<tag k="ssr:stedsnr" v="56390" />
	</node>
	<node lat="67.17855000063702" lon="14.583499994795366" id="-6038">
		<tag k="name" v="Osmyra" />
		<tag k="natural" v="wetland" />
		<tag k="ssr:stedsnr" v="56421" />
	</node>
	<node lat="67.15416388874574" lon="14.440977778439464" id="-6042">
		<tag k="name" v="Vardhågmyran" />
		<tag k="natural" v="wetland" />
		<tag k="ssr:stedsnr" v="56482" />
	</node>
	<node lat="67.10576110984667" lon="14.983133324700868" id="-6084">
		<tag k="name" v="Jansmyra" />
		<tag k="natural" v="wetland" />
		<tag k="ssr:stedsnr" v="77614" />
	</node>
	<node lat="67.16440833683703" lon="14.86299444062948" id="-6135">
		<tag k="name" v="Stormyra" />
		<tag k="natural" v="wetland" />
		<tag k="ssr:stedsnr" v="92518" />
	</node>
	<node lat="67.45356667090347" lon="14.746194450651616" id="-6138">
		<tag k="name" v="Laukstellura" />
		<tag k="natural" v="scree" />
		<tag k="ssr:stedsnr" v="93015" />
	</node>
	<node lat="67.4097277812271" lon="14.661436113776935" id="-6140">
		<tag k="name" v="Geitura" />
		<tag k="natural" v="scree" />
		<tag k="ssr:stedsnr" v="93213" />
	</node>
	<node lat="67.12224722428218" lon="15.020275006417542" id="-6146">
		<tag k="name" v="Einvollen" />
		<tag k="place" v="locality" />
		<tag k="ssr:stedsnr" v="93428" />
	</node>
	<node lat="67.32592222126733" lon="14.616838882646327" id="-6147">
		<tag k="name" v="Tømmermomyra" />
		<tag k="natural" v="wetland" />
		<tag k="ssr:stedsnr" v="93166" />
	</node>
	<node lat="67.5495916663132" lon="14.871269434293119" id="-6173">
		<tag k="name" v="Sandgraven" />
		<tag k="natural" v="beach" />
		<tag k="ssr:stedsnr" v="95983" />
		<tag k="surface" v="sand" />
	</node>
	<node lat="67.58569444905862" lon="15.009330546697308" id="-6184">
		<tag k="name" v="Åmyra" />
		<tag k="natural" v="wetland" />
		<tag k="ssr:stedsnr" v="116211" />
	</node>
	<node lat="67.18890000202623" lon="14.914686103408716" id="-6193">
		<tag k="name" v="Skytten" />
		<tag k="place" v="locality" />
		<tag k="ssr:stedsnr" v="116373" />
	</node>
	<node lat="67.17803055209592" lon="14.570477788142538" id="-6194">
		<tag k="name" v="Oldervikmyra" />
		<tag k="natural" v="wetland" />
		<tag k="ssr:stedsnr" v="116382" />
	</node>
	<node lat="67.19636667012362" lon="14.724741656040006" id="-6199">
		<tag k="name" v="Innermyran" />
		<tag k="natural" v="wetland" />
		<tag k="ssr:stedsnr" v="116785" />
	</node>
	<node lat="67.30893610948026" lon="14.6480694389248" id="-6215">
		<tag k="name" v="Arlimyra" />
		<tag k="natural" v="wetland" />
		<tag k="ssr:stedsnr" v="137220" />
	</node>
	<node lat="67.32996666418745" lon="14.871275003126792" id="-6251">
		<tag k="name" v="Hans Jensenskogen" />
		<tag k="place" v="locality" />
		<tag k="ssr:stedsnr" v="140738" />
	</node>
	<node lat="67.03773610865666" lon="15.06701666019559" id="-6261">
		<tag k="name" v="Krangelmoen" />
		<tag k="place" v="locality" />
		<tag k="ssr:stedsnr" v="146906" />
	</node>
	<node lat="67.13465000171142" lon="14.90601110357861" id="-6276">
		<tag k="name" v="Urmariteigen" />
		<tag k="place" v="locality" />
		<tag k="ssr:stedsnr" v="153710" />
	</node>
	<node lat="67.20313055289563" lon="15.008711119685033" id="-6287">
		<tag k="name" v="Nakkmyra" />
		<tag k="natural" v="wetland" />
		<tag k="ssr:stedsnr" v="154548" />
	</node>
	<node lat="67.41105000253702" lon="14.714400009738345" id="-6348">
		<tag k="name" v="Vasslimyra" />
		<tag k="natural" v="wetland" />
		<tag k="ssr:stedsnr" v="259434" />
	</node>
	<node lat="67.41034999998473" lon="14.280027774644571" id="-6364">
		<tag k="name" v="Kjerkura" />
		<tag k="natural" v="scree" />
		<tag k="ssr:stedsnr" v="162100" />
	</node>
	<node lat="67.23263055340897" lon="14.929649996962057" id="-6376">
		<tag k="name" v="Ljønesmyra" />
		<tag k="natural" v="wetland" />
		<tag k="ssr:stedsnr" v="259667" />
	</node>
	<node lat="67.22759166872494" lon="14.479650002809269" id="-6409">
		<tag k="name" v="Stormyra" />
		<tag k="natural" v="wetland" />
		<tag k="ssr:stedsnr" v="177015" />
	</node>
	<node lat="67.4001999966941" lon="14.305752774836925" id="-6418">
		<tag k="name" v="Dalsteinan" />
		<tag k="natural" v="stone" />
		<tag k="ssr:stedsnr" v="177413" />
	</node>
	<node lat="67.08400555250846" lon="14.976938892083973" id="-6420">
		<tag k="name" v="Dammyra" />
		<tag k="natural" v="wetland" />
		<tag k="ssr:stedsnr" v="177322" />
	</node>
	<node lat="67.14910832890493" lon="14.745811114535641" id="-6513">
		<tag k="name" v="Storura" />
		<tag k="natural" v="scree" />
		<tag k="ssr:stedsnr" v="267147" />
	</node>
	<node lat="67.13659722533505" lon="15.088699993132511" id="-6516">
		<tag k="name" v="Låskjelda" />
		<tag k="natural" v="wetland" />
		<tag k="ssr:stedsnr" v="267525" />
	</node>
	<node lat="67.0286694480141" lon="15.030863893277862" id="-6526">
		<tag k="name" v="Senmyra" />
		<tag k="natural" v="wetland" />
		<tag k="ssr:stedsnr" v="268347" />
	</node>
	<node lat="67.1316555595896" lon="15.055519448499357" id="-6539">
		<tag k="name" v="Einpålmyra" />
		<tag k="natural" v="wetland" />
		<tag k="ssr:stedsnr" v="207537" />
	</node>
	<node lat="67.02139722367666" lon="15.0649833254827" id="-6544">
		<tag k="name" v="Stormyra" />
		<tag k="natural" v="wetland" />
		<tag k="ssr:stedsnr" v="268973" />
	</node>
	<node lat="67.26961389019887" lon="14.782502784973254" id="-6559">
		<tag k="name" v="Kvitbergmyran" />
		<tag k="natural" v="wetland" />
		<tag k="ssr:stedsnr" v="214512" />
	</node>
	<node lat="67.07944444367767" lon="14.9847249986433" id="-6576">
		<tag k="name" v="Halsan" />
		<tag k="place" v="locality" />
		<tag k="ssr:stedsnr" v="215524" />
	</node>
	<node lat="67.07527500125681" lon="15.004000001252564" id="-6579">
		<tag k="name" v="Myra" />
		<tag k="place" v="locality" />
		<tag k="ssr:stedsnr" v="215714" />
	</node>
	<node lat="67.20806944383382" lon="15.20829443773688" id="-6606">
		<tag k="name" v="Luggmyra" />
		<tag k="natural" v="wetland" />
		<tag k="ssr:stedsnr" v="450673" />
	</node>
	<node lat="67.22256666828257" lon="14.43871944481535" id="-6609">
		<tag k="name" v="Gangvassmyra" />
		<tag k="natural" v="wetland" />
		<tag k="ssr:stedsnr" v="238096" />
	</node>
	<node lat="67.20487500174696" lon="14.551983336015903" id="-6621">
		<tag k="name" v="Olderskogen" />
		<tag k="place" v="locality" />
		<tag k="ssr:stedsnr" v="238520" />
	</node>
	<node lat="67.23992222482958" lon="14.702436121595468" id="-6711">
		<tag k="name" v="Bonstøvollen" />
		<tag k="place" v="locality" />
		<tag k="ssr:stedsnr" v="457453" />
	</node>
	<node lat="67.43109444583473" lon="14.722380560816664" id="-6725">
		<tag k="name" v="Baklimyra" />
		<tag k="natural" v="wetland" />
		<tag k="ssr:stedsnr" v="457890" />
	</node>
	<node lat="67.13360277382552" lon="15.051819434989117" id="-6733">
		<tag k="name" v="Bertelkjerran" />
		<tag k="place" v="locality" />
		<tag k="ssr:stedsnr" v="267509" />
	</node>
	<node lat="67.13065555212766" lon="15.064586103791504" id="-6734">
		<tag k="name" v="Langmyra" />
		<tag k="natural" v="wetland" />
		<tag k="ssr:stedsnr" v="267519" />
	</node>
	<node lat="67.14656666314183" lon="14.910672217831804" id="-6752">
		<tag k="name" v="Nesan" />
		<tag k="place" v="locality" />
		<tag k="ssr:stedsnr" v="274526" />
	</node>
	<node lat="67.12498888579118" lon="14.914605557310672" id="-6753">
		<tag k="name" v="Oldereidmarka" />
		<tag k="place" v="locality" />
		<tag k="ssr:stedsnr" v="274671" />
	</node>
	<node lat="67.2008972207825" lon="15.021588885666405" id="-6759">
		<tag k="name" v="Tapstadmyran" />
		<tag k="natural" v="wetland" />
		<tag k="ssr:stedsnr" v="275503" />
	</node>
	<node lat="67.19987777375839" lon="15.009280556357146" id="-6760">
		<tag k="name" v="Reiteigan" />
		<tag k="place" v="locality" />
		<tag k="ssr:stedsnr" v="275506" />
	</node>
	<node lat="67.19095000075191" lon="15.163561106203437" id="-6762">
		<tag k="name" v="Brenna" />
		<tag k="place" v="locality" />
		<tag k="ssr:stedsnr" v="275482" />
	</node>
	<node lat="67.28103333712339" lon="14.782116659068523" id="-6767">
		<tag k="name" v="Stormyra" />
		<tag k="natural" v="wetland" />
		<tag k="ssr:stedsnr" v="275679" />
	</node>
	<node lat="67.20749999761087" lon="15.163575006147248" id="-6768">
		<tag k="name" v="Storåkeren" />
		<tag k="place" v="locality" />
		<tag k="ssr:stedsnr" v="275573" />
	</node>
	<node lat="67.30784166663766" lon="14.76615277947684" id="-6769">
		<tag k="name" v="Toppskogen" />
		<tag k="place" v="locality" />
		<tag k="ssr:stedsnr" v="275587" />
	</node>
	<node lat="67.1988611131648" lon="14.923952787350055" id="-6771">
		<tag k="name" v="Skjellamyra" />
		<tag k="natural" v="wetland" />
		<tag k="ssr:stedsnr" v="275702" />
	</node>
	<node lat="67.28090278225143" lon="14.433105548697997" id="-6776">
		<tag k="name" v="Hesthagen" />
		<tag k="place" v="locality" />
		<tag k="ssr:stedsnr" v="275986" />
	</node>
	<node lat="67.37528333663018" lon="14.535838884641036" id="-6797">
		<tag k="name" v="Øyra" />
		<tag k="place" v="locality" />
		<tag k="ssr:stedsnr" v="298280" />
	</node>
	<node lat="67.13628610778837" lon="14.410947231516056" id="-6800">
		<tag k="name" v="Uran" />
		<tag k="natural" v="scree" />
		<tag k="ssr:stedsnr" v="298473" />
	</node>
	<node lat="67.33113333393406" lon="14.751583322882258" id="-6809">
		<tag k="name" v="Ølmyra" />
		<tag k="natural" v="wetland" />
		<tag k="ssr:stedsnr" v="298872" />
	</node>
	<node lat="67.34293888507771" lon="14.746319440987552" id="-6811">
		<tag k="name" v="Gjerdmarkmyran" />
		<tag k="natural" v="wetland" />
		<tag k="ssr:stedsnr" v="298939" />
	</node>
	<node lat="67.39015278044286" lon="13.877430546336065" id="-6820">
		<tag k="name" v="Oterura" />
		<tag k="natural" v="scree" />
		<tag k="ssr:stedsnr" v="465849" />
	</node>
	<node lat="67.05533611292593" lon="14.941591671641033" id="-6846">
		<tag k="name" v="Mellommyran" />
		<tag k="natural" v="wetland" />
		<tag k="ssr:stedsnr" v="319595" />
	</node>
	<node lat="67.40240000013205" lon="14.690536104062161" id="-6874">
		<tag k="name" v="Stråmyran" />
		<tag k="natural" v="wetland" />
		<tag k="ssr:stedsnr" v="320385" />
	</node>
	<node lat="67.14061388609731" lon="15.089186111142283" id="-6891">
		<tag k="name" v="Nordhøla" />
		<tag k="natural" v="wetland" />
		<tag k="ssr:stedsnr" v="327557" />
	</node>
	<node lat="67.12050277597487" lon="15.13424445038588" id="-6905">
		<tag k="name" v="Helgageiren" />
		<tag k="natural" v="wetland" />
		<tag k="ssr:stedsnr" v="329665" />
	</node>
	<node lat="67.10792221986253" lon="14.966897229556762" id="-6915">
		<tag k="name" v="Myran" />
		<tag k="natural" v="wetland" />
		<tag k="ssr:stedsnr" v="335744" />
	</node>
	<node lat="67.08396944646334" lon="15.01723611772953" id="-6925">
		<tag k="name" v="Uran" />
		<tag k="natural" v="scree" />
		<tag k="ssr:stedsnr" v="336398" />
	</node>
	<node lat="67.09891389229969" lon="14.994041677648257" id="-6928">
		<tag k="name" v="Nettlimyran" />
		<tag k="natural" v="wetland" />
		<tag k="ssr:stedsnr" v="336425" />
	</node>
	<node lat="67.07558055781382" lon="14.996727787331649" id="-6931">
		<tag k="name" v="Kalvgarden" />
		<tag k="place" v="locality" />
		<tag k="ssr:stedsnr" v="336649" />
	</node>
	<node lat="67.37518611399811" lon="14.54574166912541" id="-6958">
		<tag k="name" v="Nyland" />
		<tag k="place" v="locality" />
		<tag k="ssr:stedsnr" v="359315" />
	</node>
	<node lat="67.38299722354078" lon="14.238372216198725" id="-6971">
		<tag k="name" v="Myran" />
		<tag k="natural" v="wetland" />
		<tag k="ssr:stedsnr" v="480154" />
	</node>
	<node lat="67.20111667049487" lon="14.708291678401935" id="-6989">
		<tag k="name" v="Yttermyran" />
		<tag k="natural" v="wetland" />
		<tag k="ssr:stedsnr" v="480819" />
	</node>
	<node lat="67.21296111342951" lon="14.719300010832917" id="-6990">
		<tag k="name" v="Uran" />
		<tag k="natural" v="scree" />
		<tag k="ssr:stedsnr" v="480822" />
	</node>
	<node lat="67.13960832942936" lon="15.170133325928777" id="-7042">
		<tag k="name" v="Doretmyra" />
		<tag k="natural" v="wetland" />
		<tag k="ssr:stedsnr" v="380578" />
	</node>
	<node lat="67.52503610859692" lon="14.937483343380574" id="-7059">
		<tag k="name" v="Vassbotnmyra" />
		<tag k="natural" v="wetland" />
		<tag k="ssr:stedsnr" v="381168" />
	</node>
	<node lat="67.35782499910707" lon="14.841124988600622" id="-7061">
		<tag k="name" v="Stormyra" />
		<tag k="natural" v="wetland" />
		<tag k="ssr:stedsnr" v="384710" />
	</node>
	<node lat="67.13630833761749" lon="15.06321389342235" id="-7067">
		<tag k="name" v="Tokjeldmyra" />
		<tag k="natural" v="wetland" />
		<tag k="ssr:stedsnr" v="388545" />
	</node>
	<node lat="67.1483083323397" lon="14.744077768740935" id="-7073">
		<tag k="name" v="Litlura" />
		<tag k="natural" v="scree" />
		<tag k="ssr:stedsnr" v="389190" />
	</node>
	<node lat="67.18651110722128" lon="15.322822217462827" id="-7078">
		<tag k="name" v="Hageruphøgget" />
		<tag k="place" v="locality" />
		<tag k="ssr:stedsnr" v="389629" />
	</node>
	<node lat="67.14492222644643" lon="15.13563054862737" id="-7081">
		<tag k="name" v="Lomstjønnmyra" />
		<tag k="natural" v="wetland" />
		<tag k="ssr:stedsnr" v="389692" />
	</node>
	<node lat="67.53364999553095" lon="14.858311115556688" id="-7112">
		<tag k="name" v="Nilslimyra" />
		<tag k="natural" v="wetland" />
		<tag k="ssr:stedsnr" v="396891" />
	</node>
	<node lat="67.27584166557912" lon="14.426605549454164" id="-7113">
		<tag k="name" v="Albertmyra" />
		<tag k="natural" v="wetland" />
		<tag k="ssr:stedsnr" v="396898" />
	</node>
	<node lat="67.38400277405513" lon="14.265697219583492" id="-7117">
		<tag k="name" v="Kolsmyra" />
		<tag k="natural" v="wetland" />
		<tag k="ssr:stedsnr" v="405083" />
	</node>
	<node lat="67.21877777420809" lon="14.420408334166442" id="-7123">
		<tag k="name" v="Tennsvikmyra" />
		<tag k="natural" v="wetland" />
		<tag k="ssr:stedsnr" v="420086" />
	</node>
	<node lat="67.43328889203156" lon="14.391961104067322" id="-7127">
		<tag k="name" v="Kotmyra" />
		<tag k="natural" v="wetland" />
		<tag k="ssr:stedsnr" v="420437" />
	</node>
	<node lat="67.21362777323553" lon="14.9472222303732" id="-7128">
		<tag k="name" v="Sanduran" />
		<tag k="natural" v="scree" />
		<tag k="ssr:stedsnr" v="420485" />
	</node>
	<node lat="67.43194166344763" lon="14.645488889209311" id="-7209">
		<tag k="name" v="Rødura" />
		<tag k="natural" v="scree" />
		<tag k="ssr:stedsnr" v="450174" />
	</node>
	<node lat="67.10353611503373" lon="15.002486102489332" id="-7234">
		<tag k="name" v="Myran" />
		<tag k="natural" v="wetland" />
		<tag k="ssr:stedsnr" v="457420" />
	</node>
	<node lat="67.5536222235071" lon="14.882702775558727" id="-7239">
		<tag k="name" v="Hundpålsteinen" />
		<tag k="natural" v="stone" />
		<tag k="ssr:stedsnr" v="457361" />
	</node>
	<node lat="67.39483333428318" lon="14.656561117310002" id="-7249">
		<tag k="name" v="Kleivmyran" />
		<tag k="natural" v="wetland" />
		<tag k="ssr:stedsnr" v="457834" />
	</node>
	<node lat="67.52288333496158" lon="14.773011119845432" id="-7251">
		<tag k="name" v="Hesthagen" />
		<tag k="place" v="locality" />
		<tag k="ssr:stedsnr" v="457844" />
	</node>
	<node lat="67.27887222458135" lon="14.769372214811852" id="-7254">
		<tag k="name" v="Stormyra" />
		<tag k="natural" v="wetland" />
		<tag k="ssr:stedsnr" v="457709" />
	</node>
	<node lat="67.32814999714812" lon="14.753613884477472" id="-7292">
		<tag k="name" v="Stormyra" />
		<tag k="natural" v="wetland" />
		<tag k="ssr:stedsnr" v="480905" />
	</node>
	<node lat="67.32401110752471" lon="14.751611106333307" id="-7295">
		<tag k="name" v="Olamyra" />
		<tag k="natural" v="wetland" />
		<tag k="ssr:stedsnr" v="480981" />
	</node>
	<node lat="67.08583611453328" lon="14.847991677353374" id="-7362">
		<tag k="name" v="Nilsgamman" />
		<tag k="place" v="locality" />
		<tag k="ssr:stedsnr" v="510308" />
	</node>
	<node lat="67.03383611496754" lon="15.026747220038146" id="-7375">
		<tag k="name" v="Langkista" />
		<tag k="natural" v="stone" />
		<tag k="ssr:stedsnr" v="511350" />
	</node>
	<node lat="67.05480555125216" lon="14.966691667251132" id="-7396">
		<tag k="name" v="Stormyra" />
		<tag k="natural" v="wetland" />
		<tag k="ssr:stedsnr" v="683576" />
	</node>
	<node lat="67.46413888696578" lon="14.689341669353153" id="-7439">
		<tag k="name" v="Attlatsteinen" />
		<tag k="natural" v="stone" />
		<tag k="ssr:stedsnr" v="517862" />
	</node>
	<node lat="67.20377778089227" lon="14.948005565621568" id="-7450">
		<tag k="name" v="Holten" />
		<tag k="place" v="locality" />
		<tag k="ssr:stedsnr" v="518716" />
	</node>
	<node lat="67.41838611017938" lon="14.37217778353209" id="-7457">
		<tag k="name" v="Vedsteinen" />
		<tag k="natural" v="stone" />
		<tag k="ssr:stedsnr" v="526114" />
	</node>
	<node lat="67.3052999973207" lon="13.728716667125042" id="-7467">
		<tag k="name" v="Littj-myra" />
		<tag k="natural" v="wetland" />
		<tag k="ssr:stedsnr" v="529113" />
	</node>
	<node lat="67.15713333754857" lon="15.000391656345844" id="-7470">
		<tag k="name" v="Storskogen" />
		<tag k="place" v="locality" />
		<tag k="ssr:stedsnr" v="541016" />
	</node>
	<node lat="67.1845055541699" lon="15.290533328265365" id="-7516">
		<tag k="name" v="Skytjemyra" />
		<tag k="natural" v="wetland" />
		<tag k="ssr:stedsnr" v="692590" />
	</node>
	<node lat="67.1370305582039" lon="15.079305557142055" id="-7529">
		<tag k="name" v="Skildiket" />
		<tag k="natural" v="wetland" />
		<tag k="ssr:stedsnr" v="692537" />
	</node>
	<node lat="67.20989167041859" lon="15.208675008034623" id="-7542">
		<tag k="name" v="Stortrelia" />
		<tag k="place" v="locality" />
		<tag k="ssr:stedsnr" v="570952" />
	</node>
	<node lat="67.03449999880685" lon="15.020436113704204" id="-7545">
		<tag k="name" v="Holmen" />
		<tag k="place" v="locality" />
		<tag k="ssr:stedsnr" v="571350" />
	</node>
	<node lat="67.22940555632533" lon="14.5786527752058" id="-7569">
		<tag k="name" v="Aspen" />
		<tag k="place" v="locality" />
		<tag k="ssr:stedsnr" v="578413" />
	</node>
	<node lat="67.12311944790318" lon="15.008008336102343" id="-7571">
		<tag k="name" v="Øyran" />
		<tag k="place" v="locality" />
		<tag k="ssr:stedsnr" v="578428" />
	</node>
	<node lat="67.12938055288582" lon="15.019216659650946" id="-7574">
		<tag k="name" v="Heikjerran" />
		<tag k="place" v="locality" />
		<tag k="ssr:stedsnr" v="578451" />
	</node>
	<node lat="67.53267561242484" lon="14.848273828416664" id="-7582">
		<tag k="name" v="Digerholtmyra" />
		<tag k="natural" v="wetland" />
		<tag k="ssr:stedsnr" v="578844" />
	</node>
	<node lat="67.41487777863976" lon="14.293450000836975" id="-7590">
		<tag k="name" v="Kattura" />
		<tag k="natural" v="scree" />
		<tag k="ssr:stedsnr" v="587119" />
	</node>
	<node lat="67.40628611401979" lon="14.384113890087285" id="-7603">
		<tag k="name" v="Toppskogan" />
		<tag k="place" v="locality" />
		<tag k="ssr:stedsnr" v="601416" />
	</node>
	<node lat="67.51207778214308" lon="14.774952770855617" id="-7629">
		<tag k="name" v="Mølndalmyra" />
		<tag k="natural" v="wetland" />
		<tag k="ssr:stedsnr" v="699859" />
	</node>
	<node lat="67.49229166901834" lon="14.756013890669921" id="-7637">
		<tag k="name" v="Falkmyra" />
		<tag k="natural" v="wetland" />
		<tag k="ssr:stedsnr" v="699949" />
	</node>
	<node lat="67.37743055452155" lon="14.61247778888997" id="-7640">
		<tag k="landuse" v="meadow" />
		<tag k="name" v="Nordmarka" />
		<tag k="ssr:stedsnr" v="700039" />
	</node>
	<node lat="67.53193055521452" lon="14.902083321894942" id="-7658">
		<tag k="name" v="Krokelvmyra" />
		<tag k="natural" v="wetland" />
		<tag k="ssr:stedsnr" v="700957" />
	</node>
	<node lat="67.32967499984453" lon="14.494811109236428" id="-7672">
		<tag k="name" v="Stallmyra" />
		<tag k="natural" v="wetland" />
		<tag k="ssr:stedsnr" v="622293" />
	</node>
	<node lat="67.03440833425434" lon="14.99012223110692" id="-7703">
		<tag k="name" v="Tverrbrennmyran" />
		<tag k="natural" v="wetland" />
		<tag k="ssr:stedsnr" v="622886" />
	</node>
	<node lat="67.54401944875704" lon="15.088172211531441" id="-7710">
		<tag k="name" v="Raudsteinen" />
		<tag k="natural" v="stone" />
		<tag k="ssr:stedsnr" v="623105" />
	</node>
	<node lat="67.52103332981261" lon="14.796630550544153" id="-7720">
		<tag k="name" v="Kråkåsmyra" />
		<tag k="natural" v="wetland" />
		<tag k="ssr:stedsnr" v="623161" />
	</node>
	<node lat="67.13836111122691" lon="15.059161110909464" id="-7744">
		<tag k="name" v="Øverhøyladen" />
		<tag k="place" v="locality" />
		<tag k="ssr:stedsnr" v="631593" />
	</node>
	<node lat="67.4947333331982" lon="14.725202773071839" id="-7770">
		<tag k="name" v="Holten" />
		<tag k="place" v="locality" />
		<tag k="ssr:stedsnr" v="638934" />
	</node>
	<node lat="67.29780555757658" lon="14.978708335166022" id="-7782">
		<tag k="loc_name" v="Stauravollen" />
		<tag k="name" v="Stauravold" />
		<tag k="place" v="locality" />
		<tag k="ssr:stedsnr" v="639529" />
	</node>
	<node lat="67.28070277406191" lon="13.990733322097999" id="-7804">
		<tag k="name" v="Galamyra" />
		<tag k="natural" v="wetland" />
		<tag k="ssr:stedsnr" v="655811" />
	</node>
	<node lat="67.08251944477007" lon="14.911241663593712" id="-7828">
		<tag k="name" v="Gjømmervassmyra" />
		<tag k="natural" v="wetland" />
		<tag k="ssr:stedsnr" v="662321" />
	</node>
	<node lat="67.43082221856436" lon="14.391347222677055" id="-7831">
		<tag k="name" v="Langmyra" />
		<tag k="natural" v="wetland" />
		<tag k="ssr:stedsnr" v="662404" />
	</node>
	<node lat="67.15310833588659" lon="14.492655551237661" id="-7837">
		<tag k="name" v="Nordmarka" />
		<tag k="place" v="locality" />
		<tag k="ssr:stedsnr" v="662444" />
	</node>
	<node lat="67.48101944411906" lon="14.874424995443825" id="-7839">
		<tag k="name" v="Lars-Nilsoenga" />
		<tag k="place" v="locality" />
		<tag k="ssr:stedsnr" v="709253" />
	</node>
	<node lat="67.49343333708832" lon="14.91155832725466" id="-7851">
		<tag k="name" v="Skyttmoa" />
		<tag k="place" v="locality" />
		<tag k="ssr:stedsnr" v="890179" />
	</node>
	<node lat="67.1513888915798" lon="14.746486101217428" id="-7949">
		<tag k="name" v="Kristianslåtta" />
		<tag k="place" v="locality" />
		<tag k="ssr:stedsnr" v="692183" />
	</node>
	<node lat="67.27786666763883" lon="14.005505553293048" id="-7955">
		<tag k="name" v="Kvernsteinen" />
		<tag k="natural" v="stone" />
		<tag k="ssr:stedsnr" v="693469" />
	</node>
	<node lat="67.10431666778008" lon="15.073111111259431" id="-7958">
		<tag k="name" v="Jonsendalen" />
		<tag k="place" v="locality" />
		<tag k="ssr:stedsnr" v="693623" />
	</node>
	<node lat="67.13444721910741" lon="14.891030551363897" id="-7974">
		<tag k="name" v="Stormyra" />
		<tag k="natural" v="wetland" />
		<tag k="ssr:stedsnr" v="699668" />
	</node>
	<node lat="67.1308444430955" lon="14.914761102309733" id="-7975">
		<tag k="name" v="Pålheim" />
		<tag k="place" v="locality" />
		<tag k="ssr:stedsnr" v="699671" />
	</node>
	<node lat="67.28717777678817" lon="14.456580546418886" id="-7982">
		<tag k="name" v="Vågøya" />
		<tag k="place" v="locality" />
		<tag k="ssr:stedsnr" v="699979" />
	</node>
	<node lat="67.33971110858019" lon="14.508602775442204" id="-7983">
		<tag k="name" v="Geitvågmyra" />
		<tag k="natural" v="wetland" />
		<tag k="ssr:stedsnr" v="699981" />
	</node>
	<node lat="67.40434166930382" lon="14.30934167384024" id="-8000">
		<tag k="name" v="Dalmyra" />
		<tag k="natural" v="wetland" />
		<tag k="ssr:stedsnr" v="708428" />
	</node>
	<node lat="67.48828055695924" lon="14.74151667746398" id="-8012">
		<tag k="name" v="Breimyra" />
		<tag k="natural" v="wetland" />
		<tag k="ssr:stedsnr" v="723113" />
	</node>
	<node lat="67.18943889365478" lon="14.776044437637067" id="-8022">
		<tag k="name" v="Davidteigen" />
		<tag k="place" v="locality" />
		<tag k="ssr:stedsnr" v="723831" />
	</node>
	<node lat="67.35266110750922" lon="14.862997227885582" id="-8027">
		<tag k="name" v="Stormyra" />
		<tag k="natural" v="wetland" />
		<tag k="ssr:stedsnr" v="723944" />
	</node>
	<node lat="67.22782777939193" lon="15.106191659171374" id="-8122">
		<tag k="name" v="Rødura" />
		<tag k="natural" v="scree" />
		<tag k="ssr:stedsnr" v="753660" />
	</node>
	<node lat="67.17417777918882" lon="14.589119444097015" id="-8144">
		<tag k="name" v="Kjerksteinuran" />
		<tag k="natural" v="scree" />
		<tag k="ssr:stedsnr" v="905398" />
	</node>
	<node lat="67.43999166719924" lon="14.361938896753975" id="-8147">
		<tag k="name" v="Kresten-Hansa-steinen" />
		<tag k="natural" v="stone" />
		<tag k="ssr:stedsnr" v="905426" />
	</node>
	<node lat="67.3285222226711" lon="14.655547224427659" id="-8155">
		<tag k="name" v="Hestmomyran" />
		<tag k="natural" v="wetland" />
		<tag k="ssr:stedsnr" v="760202" />
	</node>
	<node lat="67.29043611082967" lon="14.456577778546448" id="-8174">
		<tag k="name" v="Skålvollen" />
		<tag k="place" v="locality" />
		<tag k="ssr:stedsnr" v="760994" />
	</node>
	<node lat="67.3825638883361" lon="14.289113883081077" id="-8182">
		<tag k="name" v="Toftåkeren" />
		<tag k="place" v="locality" />
		<tag k="ssr:stedsnr" v="769094" />
	</node>
	<node lat="67.1305500041927" lon="15.070405559012041" id="-8230">
		<tag k="name" v="Nils Balserso-myra" />
		<tag k="natural" v="wetland" />
		<tag k="ssr:stedsnr" v="814597" />
	</node>
	<node lat="67.12978055693299" lon="15.073600007087757" id="-8231">
		<tag k="name" v="Tjuvmyra" />
		<tag k="natural" v="wetland" />
		<tag k="ssr:stedsnr" v="814598" />
	</node>
	<node lat="67.32661111301834" lon="14.678302781793755" id="-8241">
		<tag k="name" v="Trettmyra" />
		<tag k="natural" v="wetland" />
		<tag k="ssr:stedsnr" v="821186" />
	</node>
	<node lat="67.16043055853568" lon="14.866858332579618" id="-8248">
		<tag k="name" v="Baklimyra" />
		<tag k="natural" v="wetland" />
		<tag k="ssr:stedsnr" v="821513" />
	</node>
	<node lat="67.12614722044135" lon="14.899955559934734" id="-8255">
		<tag k="name" v="Eidesmyra" />
		<tag k="natural" v="wetland" />
		<tag k="ssr:stedsnr" v="821707" />
	</node>
	<node lat="67.4982805569237" lon="14.96883610531253" id="-8281">
		<tag k="name" v="Nordmarka" />
		<tag k="place" v="locality" />
		<tag k="ssr:stedsnr" v="830188" />
	</node>
	<node lat="67.49107777575631" lon="14.837363880070665" id="-8296">
		<tag k="name" v="Strupmyra" />
		<tag k="natural" v="wetland" />
		<tag k="ssr:stedsnr" v="845079" />
	</node>
	<node lat="67.20809444107356" lon="14.405722214248776" id="-8298">
		<tag k="name" v="Stormyra" />
		<tag k="natural" v="wetland" />
		<tag k="ssr:stedsnr" v="845211" />
	</node>
	<node lat="67.3972361142947" lon="14.302994455054748" id="-8303">
		<tag k="name" v="Dalmyra" />
		<tag k="natural" v="wetland" />
		<tag k="ssr:stedsnr" v="845428" />
	</node>
	<node lat="67.23113333417894" lon="14.982797224871724" id="-8344">
		<tag k="name" v="Ljønesuran" />
		<tag k="natural" v="scree" />
		<tag k="ssr:stedsnr" v="926661" />
	</node>
	<node lat="67.35604444430659" lon="14.766569443904702" id="-8405">
		<tag k="name" v="Småbakkmyran" />
		<tag k="natural" v="wetland" />
		<tag k="ssr:stedsnr" v="870710" />
	</node>
	<node lat="67.16253055153513" lon="15.24376110742946" id="-8425">
		<tag k="name" v="Stormyra" />
		<tag k="natural" v="wetland" />
		<tag k="ssr:stedsnr" v="875663" />
	</node>
	<node lat="67.40253888513394" lon="14.737397215399438" id="-8433">
		<tag k="name" v="Davidura" />
		<tag k="natural" v="scree" />
		<tag k="ssr:stedsnr" v="882012" />
	</node>
	<node lat="67.2894333356453" lon="14.57664721115045" id="-8436">
		<tag k="name" v="Trollmyra" />
		<tag k="natural" v="wetland" />
		<tag k="ssr:stedsnr" v="882324" />
	</node>
	<node lat="67.5413916679305" lon="14.861894448440221" id="-8453">
		<tag k="name" v="Slåttmyra" />
		<tag k="natural" v="wetland" />
		<tag k="ssr:stedsnr" v="882848" />
	</node>
	<node lat="67.22062499696865" lon="14.47220832783764" id="-8481">
		<tag k="name" v="Langvassmyra" />
		<tag k="natural" v="wetland" />
		<tag k="ssr:stedsnr" v="905020" />
	</node>
	<node lat="67.39184722335754" lon="14.311566677978403" id="-8489">
		<tag k="name" v="Nebbsteinen" />
		<tag k="natural" v="stone" />
		<tag k="ssr:stedsnr" v="905385" />
	</node>
	<node lat="67.13064722388839" lon="15.075794438585374" id="-8570">
		<tag k="name" v="Gravkjerran" />
		<tag k="place" v="locality" />
		<tag k="ssr:stedsnr" v="934536" />
	</node>
	<node lat="67.22163055497528" lon="15.09648889922027" id="-8579">
		<tag k="name" v="Størkerlimyra" />
		<tag k="natural" v="wetland" />
		<tag k="ssr:stedsnr" v="936697" />
	</node>
	<node lat="67.49459722372642" lon="14.92606944684048" id="-8583">
		<tag k="name" v="Sennmyra" />
		<tag k="natural" v="wetland" />
		<tag k="ssr:stedsnr" v="951178" />
	</node>
	<node lat="67.26831667000535" lon="13.957299994973118" id="-8590">
		<tag k="name" v="Littj-jorda" />
		<tag k="place" v="locality" />
		<tag k="ssr:stedsnr" v="951593" />
	</node>
	<node lat="67.26735555536689" lon="13.950569455928132" id="-8591">
		<tag k="name" v="Storjorda" />
		<tag k="place" v="locality" />
		<tag k="ssr:stedsnr" v="951595" />
	</node>
	<node lat="67.22631388806403" lon="14.472363890088188" id="-8600">
		<tag k="name" v="Skagvikmyra" />
		<tag k="natural" v="wetland" />
		<tag k="ssr:stedsnr" v="966097" />
	</node>
	<node lat="67.5326277784597" lon="14.879544450188556" id="-8689">
		<tag k="alt_name" v="Lomstjørnmyra" />
		<tag k="name" v="Lomtjønnmyran" />
		<tag k="natural" v="wetland" />
		<tag k="ssr:stedsnr" v="17121" />
	</node>
	<node lat="67.19866110802074" lon="15.001411119188662" id="-8708">
		<tag k="name" v="Skarsmyra" />
		<tag k="natural" v="wetland" />
		<tag k="ssr:stedsnr" v="16720" />
	</node>
	<node lat="67.3171111127342" lon="14.767969441609528" id="-8729">
		<tag k="name" v="Tranmyran" />
		<tag k="natural" v="wetland" />
		<tag k="ssr:stedsnr" v="20752" />
	</node>
	<node lat="67.0257861132294" lon="15.031155548544056" id="-8743">
		<tag k="name" v="Stormyra" />
		<tag k="natural" v="wetland" />
		<tag k="ssr:stedsnr" v="25248" />
	</node>
	<node lat="67.41021944720735" lon="14.74187499293745" id="-8757">
		<tag k="name" v="Valvikbrenna" />
		<tag k="natural" v="wetland" />
		<tag k="ssr:stedsnr" v="32055" />
	</node>
	<node lat="67.29390555357557" lon="14.729477786396709" id="-8772">
		<tag k="landuse" v="meadow" />
		<tag k="name" v="Engmark" />
		<tag k="ssr:stedsnr" v="32710" />
	</node>
	<node lat="67.2212972186671" lon="15.113283329865205" id="-8773">
		<tag k="name" v="Rødura" />
		<tag k="natural" v="scree" />
		<tag k="ssr:stedsnr" v="32529" />
	</node>
	<node lat="67.49513055519186" lon="14.74711389319872" id="-8785">
		<tag k="name" v="Elvgårdsmyra" />
		<tag k="natural" v="wetland" />
		<tag k="ssr:stedsnr" v="32948" />
	</node>
	<node lat="67.401558333049" lon="14.388900004820242" id="-8810">
		<tag k="name" v="Hamnvikmyra" />
		<tag k="natural" v="wetland" />
		<tag k="ssr:stedsnr" v="56459" />
	</node>
	<node lat="67.04830000017252" lon="14.963988893084014" id="-8818">
		<tag k="name" v="Flatlimyran" />
		<tag k="natural" v="wetland" />
		<tag k="ssr:stedsnr" v="56296" />
	</node>
	<node lat="67.17443055735488" lon="14.76770555237442" id="-8826">
		<tag k="name" v="Vasshauura" />
		<tag k="natural" v="scree" />
		<tag k="ssr:stedsnr" v="56829" />
	</node>
</osm>
