<?xml version="1.0" encoding="UTF-8"?>
<osm generator="osmapis" version="0.6">
	<node id="-619898" lat="67.2798388887" lon="14.85636112">
		<tag k="name" v="Nedre Naurstad" />
		<tag k="place" v="farm" />
		<tag k="ssr:stedsnr" v="942207" />
	</node>
	<node id="-618481" lat="67.3980083354" lon="14.6532305674">
		<tag k="fixme" v="consider place=hamlet" />
		<tag k="name" v="Valvika" />
		<tag k="place" v="village" />
		<tag k="ssr:stedsnr" v="693525" />
	</node>
	<node id="-616432" lat="67.3695861152" lon="14.8247305527">
		<tag k="name" v="Strinda" />
		<tag k="place" v="isolated_dwelling" />
		<tag k="ssr:stedsnr" v="202730" />
	</node>
	<node id="-618479" lat="67.1081500044" lon="14.9006638845">
		<tag k="historic" v="shieling" />
		<tag k="name" v="Børnupsætra" />
		<tag k="place" v="locality" />
		<tag k="ssr:stedsnr" v="692288" />
	</node>
	<node id="-616425" lat="67.3068972268" lon="14.7474916596">
		<tag k="name" v="Kjerringlia" />
		<tag k="place" v="farm" />
		<tag k="ssr:stedsnr" v="202679" />
	</node>
	<node id="-616423" lat="67.2934055545" lon="14.7248833381">
		<tag k="name" v="Fitjan" />
		<tag k="place" v="farm" />
		<tag k="ssr:stedsnr" v="202666" />
	</node>
	<node id="-614371" lat="67.3088055514" lon="14.5300861138">
		<tag k="name" v="Tronstad" />
		<tag k="place" v="farm" />
		<tag k="ssr:stedsnr" v="319243" />
	</node>
	<node id="-618465" lat="67.3758333335" lon="14.8134805633">
		<tag k="alt_name" v="Skelet" />
		<tag k="name" v="Skjellet" />
		<tag k="place" v="isolated_dwelling" />
		<tag k="ssr:stedsnr" v="687725" />
	</node>
	<node id="-618464" lat="67.3373583347" lon="14.763219439">
		<tag k="alt_name" v="Engmark" />
		<tag k="name" v="Engmarka" />
		<tag k="place" v="isolated_dwelling" />
		<tag k="ssr:stedsnr" v="687704" />
	</node>
	<node id="-614736" lat="67.2286305582" lon="14.4880666569">
		<tag k="name" v="Seivåg" />
		<tag k="place" v="farm" />
		<tag k="ssr:stedsnr" v="380021" />
	</node>
	<node id="-618462" lat="67.2955861125" lon="15.0283472132">
		<tag k="alt_name" v="Litløya" />
		<tag k="name" v="Lilleøya" />
		<tag k="place" v="farm" />
		<tag k="ssr:stedsnr" v="687688" />
	</node>
	<node id="-618457" lat="67.2956305581" lon="14.8361361118">
		<tag k="name" v="Koløyra" />
		<tag k="place" v="farm" />
		<tag k="ssr:stedsnr" v="687629" />
	</node>
	<node id="-616406" lat="67.5273083315" lon="14.8118916739">
		<tag k="name" v="Bakken" />
		<tag k="place" v="farm" />
		<tag k="ssr:stedsnr" v="199171" />
	</node>
	<node id="-614354" lat="67.1924611091" lon="14.5094916587">
		<tag k="alt_name" v="Stensøy" />
		<tag k="name" v="Steinsøya" />
		<tag k="place" v="isolated_dwelling" />
		<tag k="ssr:stedsnr" v="319067" />
	</node>
	<node id="-618447" lat="67.2006250012" lon="15.1644666735">
		<tag k="alt_name" v="Skardnov" />
		<tag k="name" v="Skarnøv" />
		<tag k="place" v="farm" />
		<tag k="ssr:stedsnr" v="684678" />
	</node>
	<node id="-615074" lat="67.2076083378" lon="14.9452000007">
		<tag k="name" v="Sand" />
		<tag k="place" v="farm" />
		<tag k="ssr:stedsnr" v="889962" />
	</node>
	<node id="-616394" lat="67.5399333373" lon="14.8609083307">
		<tag k="name" v="Myran" />
		<tag k="place" v="farm" />
		<tag k="ssr:stedsnr" v="199127" />
	</node>
	<node id="-616393" lat="67.5416388874" lon="14.864344441">
		<tag k="fixme" v="consider place=hamlet" />
		<tag k="name" v="Strandå" />
		<tag k="place" v="village" />
		<tag k="ssr:stedsnr" v="199123" />
	</node>
	<node id="-614344" lat="67.1722333311" lon="14.3581416756">
		<tag k="name" v="Haugen" />
		<tag k="place" v="isolated_dwelling" />
		<tag k="ssr:stedsnr" v="56212" />
	</node>
	<node id="-616391" lat="67.1998722257" lon="15.1722555647">
		<tag k="name" v="Åsmoen" />
		<tag k="place" v="farm" />
		<tag k="ssr:stedsnr" v="198728" />
	</node>
	<node id="-618438" lat="67.190572222" lon="14.3764027794">
		<tag k="alt_name" v="Ersvik" />
		<tag k="name" v="Ersvika" />
		<tag k="place" v="farm" />
		<tag k="ssr:stedsnr" v="684409" />
	</node>
	<node id="-616389" lat="67.2737555543" lon="14.4692555505">
		<tag k="name" v="Alstad" />
		<tag k="place" v="suburb" />
		<tag k="ssr:stedsnr" v="198724" />
	</node>
	<node id="-618435" lat="67.3892277776" lon="14.3137361111">
		<tag k="name" v="Jansmoen" />
		<tag k="place" v="isolated_dwelling" />
		<tag k="ssr:stedsnr" v="684379" />
	</node>
	<node id="-618434" lat="67.3455611095" lon="14.5352972275">
		<tag k="name" v="Stranda" />
		<tag k="place" v="farm" />
		<tag k="ssr:stedsnr" v="684328" />
	</node>
	<node id="-618433" lat="67.3210666641" lon="14.6213972126">
		<tag k="name" v="Heia" />
		<tag k="place" v="farm" />
		<tag k="ssr:stedsnr" v="684311" />
	</node>
	<node id="-618432" lat="67.324099999" lon="14.7059277857">
		<tag k="name" v="Ørnvasshytta" />
		<tag k="place" v="isolated_dwelling" />
		<tag k="ssr:stedsnr" v="684308" />
	</node>
	<node id="-618428" lat="67.3231027788" lon="14.5364777703">
		<tag k="name" v="Skarddalen" />
		<tag k="place" v="farm" />
		<tag k="ssr:stedsnr" v="684295" />
	</node>
	<node id="-616378" lat="67.2957805548" lon="14.4408611201">
		<tag k="name" v="Vollen" />
		<tag k="place" v="quarter" />
		<tag k="ssr:stedsnr" v="198699" />
	</node>
	<node id="-615071" lat="67.5066027734" lon="14.7284583328">
		<tag k="name" v="Åsvik" />
		<tag k="place" v="farm" />
		<tag k="ssr:stedsnr" v="883303" />
	</node>
	<node id="-616376" lat="67.2849611141" lon="14.5835916597">
		<tag k="name" v="Skeid" />
		<tag k="place" v="farm" />
		<tag k="ssr:stedsnr" v="198677" />
	</node>
	<node id="-614326" lat="67.5650944434" lon="14.7020305441">
		<tag k="name" v="Nordgård" />
		<tag k="place" v="farm" />
		<tag k="ssr:stedsnr" v="298748" />
	</node>
	<node id="-615070" lat="67.2931861081" lon="14.4240888788">
		<tag k="name" v="Einmoen" />
		<tag k="place" v="farm" />
		<tag k="ssr:stedsnr" v="882996" />
	</node>
	<node id="-614319" lat="67.1400416672" lon="14.414822216">
		<tag k="name" v="Gammelheimen" />
		<tag k="place" v="locality" />
		<tag k="ssr:stedsnr" v="298483" />
	</node>
	<node id="-616366" lat="67.4923250017" lon="14.9023861137">
		<tag k="name" v="Ryet" />
		<tag k="place" v="hamlet" />
		<tag k="ssr:stedsnr" v="198634" />
	</node>
	<node id="-616361" lat="67.0776833293" lon="15.0034499914">
		<tag k="fixme" v="consider place=hamlet" />
		<tag k="loc_name:smj" v="Bráhkko" />
		<tag k="name" v="Brekke" />
		<tag k="name:no" v="Brekke" />
		<tag k="place" v="farm" />
		<tag k="ssr:stedsnr" v="198615" />
	</node>
	<node id="-616358" lat="67.4360000037" lon="14.769080567">
		<tag k="fixme" v="consider place=suburb, village or hamlet" />
		<tag k="name" v="Festvåg" />
		<tag k="place" v="quarter" />
		<tag k="ssr:stedsnr" v="198586" />
	</node>
	<node id="-614385" lat="67.3715638859" lon="14.5355194498">
		<tag k="name" v="Vågøya" />
		<tag k="place" v="farm" />
		<tag k="ssr:stedsnr" v="319345" />
	</node>
	<node id="-617798" lat="67.1181416698" lon="15.0144861206">
		<tag k="name" v="Toftbakk" />
		<tag k="place" v="farm" />
		<tag k="ssr:stedsnr" v="578372" />
	</node>
	<node id="-616354" lat="67.1308888864" lon="15.0419166704">
		<tag k="alt_name" v="Litlkvannmoen" />
		<tag k="name" v="Lisskvannmoen" />
		<tag k="place" v="locality" />
		<tag k="ssr:stedsnr" v="198535" />
	</node>
	<node id="-618400" lat="67.2966277807" lon="14.4191777678">
		<tag k="alt_name" v="Rønvik nedre" />
		<tag k="name" v="Rønvik" />
		<tag k="place" v="suburb" />
		<tag k="ssr:stedsnr" v="683706" />
	</node>
	<node id="-616347" lat="67.4098499988" lon="14.6285500006">
		<tag k="alt_name" v="Mjelde" />
		<tag k="name" v="Mjelle" />
		<tag k="place" v="farm" />
		<tag k="ssr:stedsnr" v="198379" />
	</node>
	<node id="-616345" lat="67.1522166694" lon="14.508461103">
		<tag k="alt_name" v="Falkflåget" />
		<tag k="name" v="Falkflog" />
		<tag k="place" v="isolated_dwelling" />
		<tag k="ssr:stedsnr" v="198376" />
	</node>
	<node id="-618392" lat="67.2199638891" lon="15.1265277761">
		<tag k="alt_name" v="Utvikli" />
		<tag k="name" v="Utviklia" />
		<tag k="place" v="farm" />
		<tag k="ssr:stedsnr" v="683650" />
	</node>
	<node id="-614295" lat="67.389972224" lon="14.3157694404">
		<tag k="name" v="Skjågvollen" />
		<tag k="place" v="isolated_dwelling" />
		<tag k="ssr:stedsnr" v="298346" />
	</node>
	<node id="-616342" lat="67.4049805582" lon="14.6491722278">
		<tag k="name" v="Mulstranda" />
		<tag k="place" v="farm" />
		<tag k="ssr:stedsnr" v="198359" />
	</node>
	<node id="-618386" lat="67.4980361137" lon="14.85122501">
		<tag k="alt_name" v="Fjærli" />
		<tag k="name" v="Fjærlia" />
		<tag k="place" v="farm" />
		<tag k="ssr:stedsnr" v="683624" />
	</node>
	<node id="-618385" lat="67.4937694433" lon="15.0206944452">
		<tag k="alt_name" v="Strømsnes" />
		<tag k="name" v="Straumsnes" />
		<tag k="place" v="farm" />
		<tag k="ssr:stedsnr" v="683612" />
	</node>
	<node id="-618381" lat="67.236505721" lon="14.8186663682">
		<tag k="alt_name:no" v="Nedre Kvalnes;Kvalnes, nedre" />
		<tag k="fixme" v="consider place=hamlet" />
		<tag k="loc_name:smj" v="Sválesnjárgga" />
		<tag k="name" v="Kvalnes" />
		<tag k="name:no" v="Kvalnes" />
		<tag k="place" v="farm" />
		<tag k="ssr:stedsnr" v="683605" />
	</node>
	<node id="-618379" lat="67.083341669" lon="15.0051333367">
		<tag k="name" v="Stolpe" />
		<tag k="place" v="farm" />
		<tag k="ssr:stedsnr" v="683593" />
	</node>
	<node id="-616330" lat="67.3376361144" lon="14.6899305486">
		<tag k="name" v="Tussvatnet" />
		<tag k="place" v="isolated_dwelling" />
		<tag k="ssr:stedsnr" v="198243" />
	</node>
	<node id="-618373" lat="67.1018472222" lon="14.969713891">
		<tag k="loc_name:smj" v="Kárbbil" />
		<tag k="name" v="Karbøl" />
		<tag k="name:no" v="Karbøl" />
		<tag k="old_name:no" v="Korbøl" />
		<tag k="place" v="hamlet" />
		<tag k="ssr:stedsnr" v="683546" />
	</node>
	<node id="-618366" lat="67.1402055535" lon="14.7606055436">
		<tag k="name" v="Børvatnet" />
		<tag k="place" v="isolated_dwelling" />
		<tag k="ssr:stedsnr" v="683474" />
	</node>
	<node id="-614268" lat="67.2797861141" lon="14.3889583417">
		<tag k="amenity" v="school" />
		<tag k="name" v="Bankgata skole" />
		<tag k="ssr:stedsnr" v="284279" />
	</node>
	<node id="-616311" lat="67.1991444417" lon="14.6699583277">
		<tag k="name" v="Gillesvåg" />
		<tag k="place" v="hamlet" />
		<tag k="ssr:stedsnr" v="198078" />
	</node>
	<node id="-614262" lat="67.0774222197" lon="15.0020249914">
		<tag k="name" v="Brekke" />
		<tag k="place" v="farm" />
		<tag k="ssr:stedsnr" v="283974" />
	</node>
	<node id="-614258" lat="67.494422222" lon="14.9149249989">
		<tag k="name" v="Nytra" />
		<tag k="place" v="isolated_dwelling" />
		<tag k="ssr:stedsnr" v="283138" />
	</node>
	<node id="-614257" lat="67.4942388927" lon="14.908463896">
		<tag k="name" v="Nyheim" />
		<tag k="place" v="isolated_dwelling" />
		<tag k="ssr:stedsnr" v="283134" />
	</node>
	<node id="-614255" lat="67.2787861128" lon="13.9883083264">
		<tag k="name" v="Heimegarden" />
		<tag k="place" v="farm" />
		<tag k="ssr:stedsnr" v="283099" />
	</node>
	<node id="-616298" lat="67.147900004" lon="14.7649833257">
		<tag k="name" v="Malmskardet" />
		<tag k="place" v="isolated_dwelling" />
		<tag k="ssr:stedsnr" v="198498" />
	</node>
	<node id="-614375" lat="67.3080111125" lon="14.4319249908">
		<tag k="name" v="Skivika" />
		<tag k="place" v="village" />
		<tag k="ssr:stedsnr" v="319260" />
	</node>
	<node id="-618341" lat="67.3418444423" lon="14.5129222309">
		<tag k="name" v="Geitvågen" />
		<tag k="ssr:stedsnr" v="683306" />
		<tag k="tourism" v="camp_site" />
	</node>
	<node id="-618340" lat="67.3277194483" lon="14.4906805646">
		<tag k="name" v="Løp" />
		<tag k="place" v="farm" />
		<tag k="ssr:stedsnr" v="683270" />
	</node>
	<node id="-614233" lat="67.3967416638" lon="14.6481222181">
		<tag k="name" v="Kleiva" />
		<tag k="place" v="farm" />
		<tag k="ssr:stedsnr" v="275846" />
	</node>
	<node id="-616277" lat="67.4567916698" lon="14.7128277725">
		<tag k="fixme" v="consider place=hamlet" />
		<tag k="name" v="Misten" />
		<tag k="place" v="farm" />
		<tag k="ssr:stedsnr" v="198426" />
	</node>
	<node id="-618323" lat="67.2361083316" lon="14.692397224">
		<tag k="alt_name" v="Godøy" />
		<tag k="name" v="Godøya" />
		<tag k="place" v="farm" />
		<tag k="ssr:stedsnr" v="683008" />
	</node>
	<node id="-618321" lat="67.3215416649" lon="14.7496138872">
		<tag k="name" v="Sjurlundan" />
		<tag k="place" v="isolated_dwelling" />
		<tag k="ssr:stedsnr" v="662977" />
	</node>
	<node id="-618320" lat="67.5677055599" lon="15.1260111089">
		<tag k="name" v="Nerigården" />
		<tag k="place" v="farm" />
		<tag k="ssr:stedsnr" v="662970" />
	</node>
	<node id="-616269" lat="67.5674805554" lon="15.1252583239">
		<tag k="name" v="Mellogården" />
		<tag k="place" v="farm" />
		<tag k="ssr:stedsnr" v="177962" />
	</node>
	<node id="-617983" lat="67.1312055526" lon="14.9968805481">
		<tag k="name" v="Høgset" />
		<tag k="place" v="farm" />
		<tag k="ssr:stedsnr" v="622535" />
	</node>
	<node id="-614217" lat="67.0726500028" lon="15.0125027821">
		<tag k="name" v="Gardan" />
		<tag k="place" v="farm" />
		<tag k="ssr:stedsnr" v="275649" />
	</node>
	<node id="-616417" lat="67.388238889" lon="14.871186119">
		<tag k="name" v="Storvika" />
		<tag k="place" v="locality" />
		<tag k="ssr:stedsnr" v="202568" />
	</node>
	<node id="-614209" lat="67.2667222246" lon="14.7460583451">
		<tag k="name" v="Gjerdeslett" />
		<tag k="place" v="farm" />
		<tag k="ssr:stedsnr" v="275524" />
	</node>
	<node id="-618287" lat="67.2036666648" lon="14.6897583407">
		<tag k="name" v="Moen" />
		<tag k="place" v="isolated_dwelling" />
		<tag k="ssr:stedsnr" v="662359" />
	</node>
	<node id="-618279" lat="67.0491194447" lon="14.991266656">
		<tag k="name" v="Moen" />
		<tag k="place" v="farm" />
		<tag k="ssr:stedsnr" v="662278" />
	</node>
	<node id="-618274" lat="67.0475777768" lon="15.0041361202">
		<tag k="name" v="Engstad" />
		<tag k="place" v="isolated_dwelling" />
		<tag k="ssr:stedsnr" v="662204" />
	</node>
	<node id="-618270" lat="67.2091500037" lon="14.3814972302">
		<tag k="name" v="Mevoll" />
		<tag k="place" v="isolated_dwelling" />
		<tag k="ssr:stedsnr" v="662183" />
	</node>
	<node id="-615386" lat="67.1403361149" lon="14.760919454">
		<tag k="name" v="Neri Gården" />
		<tag k="place" v="farm" />
		<tag k="ssr:stedsnr" v="27196" />
	</node>
	<node id="-616218" lat="67.2323944403" lon="14.5485750057">
		<tag k="name" v="Ytter Hellevika" />
		<tag k="place" v="farm" />
		<tag k="ssr:stedsnr" v="177026" />
	</node>
	<node id="-618264" lat="67.3984138897" lon="14.7430722237">
		<tag k="name" v="Steigtind" />
		<tag k="place" v="isolated_dwelling" />
		<tag k="ssr:stedsnr" v="662067" />
	</node>
	<node id="-616205" lat="67.1012805537" lon="14.9688861012">
		<tag k="name" v="Karbøl vestre" />
		<tag k="place" v="farm" />
		<tag k="ssr:stedsnr" v="163985" />
	</node>
	<node id="-616198" lat="67.2784611131" lon="14.3805027792">
		<tag k="amenity" v="school" />
		<tag k="name" v="Aspåsen skole" />
		<tag k="ssr:stedsnr" v="162248" />
	</node>
	<node id="-619478" lat="67.3242166667" lon="14.6507972132">
		<tag k="alt_name" v="Kolhus" />
		<tag k="name" v="Kålhus" />
		<tag k="place" v="farm" />
		<tag k="ssr:stedsnr" v="866278" />
	</node>
	<node id="-616193" lat="67.4233638924" lon="13.9829694349">
		<tag k="name" v="Gården" />
		<tag k="place" v="farm" />
		<tag k="ssr:stedsnr" v="162178" />
	</node>
	<node id="-618231" lat="67.4926833304" lon="14.9012361055">
		<tag k="name" v="Ryegård" />
		<tag k="place" v="isolated_dwelling" />
		<tag k="ssr:stedsnr" v="647191" />
	</node>
	<node id="-616179" lat="67.0768222254" lon="15.002669443">
		<tag k="name" v="Brekke" />
		<tag k="place" v="farm" />
		<tag k="ssr:stedsnr" v="161959" />
	</node>
	<node id="-618222" lat="67.2921694491" lon="14.4112777709">
		<tag k="building" v="industrial" />
		<tag k="industrial" v="factory" />
		<tag k="name" v="Bodø teglverk" />
		<tag k="ssr:stedsnr" v="647003" />
	</node>
	<node id="-618221" lat="67.2068833362" lon="15.1599749921">
		<tag k="name" v="Breivik øvre" />
		<tag k="place" v="farm" />
		<tag k="ssr:stedsnr" v="646950" />
	</node>
	<node id="-618220" lat="67.5204666666" lon="14.7721277705">
		<tag k="name" v="Fredheim" />
		<tag k="place" v="farm" />
		<tag k="ssr:stedsnr" v="640959" />
	</node>
	<node id="-616157" lat="67.2045861072" lon="15.1621388765">
		<tag k="name" v="Volden" />
		<tag k="place" v="farm" />
		<tag k="ssr:stedsnr" v="154672" />
	</node>
	<node id="-616144" lat="67.2758055533" lon="14.4584333327">
		<tag k="name" v="Alsgård" />
		<tag k="place" v="farm" />
		<tag k="ssr:stedsnr" v="153928" />
	</node>
	<node id="-614346" lat="67.2197805536" lon="14.6077388838">
		<tag k="name" v="Laukeng" />
		<tag k="place" v="isolated_dwelling" />
		<tag k="ssr:stedsnr" v="319006" />
	</node>
	<node id="-616122" lat="67.2691527764" lon="14.7424777862">
		<tag k="name" v="Storteig" />
		<tag k="place" v="farm" />
		<tag k="ssr:stedsnr" v="153572" />
	</node>
	<node id="-616120" lat="67.2335583341" lon="14.5937444548">
		<tag k="name" v="Solvoll" />
		<tag k="place" v="farm" />
		<tag k="ssr:stedsnr" v="153557" />
	</node>
	<node id="-616119" lat="67.2400749999" lon="14.6194361075">
		<tag k="name" v="Juvik" />
		<tag k="place" v="farm" />
		<tag k="ssr:stedsnr" v="153555" />
	</node>
	<node id="-616118" lat="67.2966999997" lon="14.9730305592">
		<tag k="name" v="Øspen" />
		<tag k="place" v="farm" />
		<tag k="ssr:stedsnr" v="153505" />
	</node>
	<node id="-616734" lat="67.1869916705" lon="14.374438898">
		<tag k="alt_name" v="Lilleviken" />
		<tag k="name" v="Litlevika" />
		<tag k="place" v="isolated_dwelling" />
		<tag k="ssr:stedsnr" v="259400" />
	</node>
	<node id="-618154" lat="67.3005527809" lon="14.6940777783">
		<tag k="name" v="Hauglandsvik" />
		<tag k="place" v="farm" />
		<tag k="ssr:stedsnr" v="638078" />
	</node>
	<node id="-618151" lat="67.3812000024" lon="14.6187666625">
		<tag k="name" v="Vollan" />
		<tag k="place" v="farm" />
		<tag k="ssr:stedsnr" v="638025" />
	</node>
	<node id="-618147" lat="67.1383750031" lon="14.76519999">
		<tag k="name" v="Borti Gården" />
		<tag k="place" v="farm" />
		<tag k="ssr:stedsnr" v="633234" />
	</node>
	<node id="-616082" lat="67.2410305597" lon="14.6268666639">
		<tag k="name" v="Nordre Knaplund" />
		<tag k="place" v="farm" />
		<tag k="ssr:stedsnr" v="146885" />
	</node>
	<node id="-616061" lat="67.2993944473" lon="14.3947722316">
		<tag k="name" v="Mælen" />
		<tag k="place" v="quarter" />
		<tag k="ssr:stedsnr" v="146348" />
	</node>
	<node id="-616046" lat="67.2967059557" lon="14.8494435865">
		<tag k="fixme" v="consider place=hamlet" />
		<tag k="loc_name:smj" v="Voakko" />
		<tag k="name" v="Vågan" />
		<tag k="name:no" v="Vågan" />
		<tag k="place" v="farm" />
		<tag k="ssr:stedsnr" v="141637" />
	</node>
	<node id="-618090" lat="67.2786694459" lon="14.4441361065">
		<tag k="name" v="Skeid" />
		<tag k="place" v="isolated_dwelling" />
		<tag k="ssr:stedsnr" v="623758" />
	</node>
	<node id="-616040" lat="67.3264888882" lon="14.9971500007">
		<tag k="name" v="Lappheim" />
		<tag k="place" v="locality" />
		<tag k="ssr:stedsnr" v="141706" />
	</node>
	<node id="-618084" lat="67.207319447" lon="14.9966472122">
		<tag k="alt_name" v="Tappstad" />
		<tag k="name" v="Tapstad" />
		<tag k="place" v="farm" />
		<tag k="ssr:stedsnr" v="623705" />
	</node>
	<node id="-616035" lat="67.2942638928" lon="15.0113249981">
		<tag k="name" v="Mellomøya" />
		<tag k="place" v="farm" />
		<tag k="ssr:stedsnr" v="141661" />
	</node>
	<node id="-618070" lat="67.4547833306" lon="14.7185555539">
		<tag k="name" v="Misten" />
		<tag k="place" v="farm" />
		<tag k="ssr:stedsnr" v="623326" />
	</node>
	<node id="-618068" lat="67.323080552" lon="14.6120194468">
		<tag k="name" v="Soløya" />
		<tag k="place" v="farm" />
		<tag k="ssr:stedsnr" v="623307" />
	</node>
	<node id="-618061" lat="67.5041527816" lon="14.7377388959">
		<tag k="alt_name" v="Fjær" />
		<tag k="name" v="Fjære" />
		<tag k="place" v="farm" />
		<tag k="ssr:stedsnr" v="623148" />
	</node>
	<node id="-616011" lat="67.1849666667" lon="14.9454138936">
		<tag k="name" v="Urdset" />
		<tag k="place" v="isolated_dwelling" />
		<tag k="ssr:stedsnr" v="137713" />
	</node>
	<node id="-618053" lat="67.4345916636" lon="13.9804888773">
		<tag k="name" v="Kvalvika" />
		<tag k="place" v="farm" />
		<tag k="ssr:stedsnr" v="623131" />
	</node>
	<node id="-618050" lat="67.547636109" lon="14.8598999998">
		<tag k="name" v="Storeinan" />
		<tag k="place" v="farm" />
		<tag k="ssr:stedsnr" v="623124" />
	</node>
	<node id="-616000" lat="67.1989861132" lon="14.9682055641">
		<tag k="alt_name" v="Støvset øvre;Støvset, øvre" />
		<tag k="name" v="Øvre Støvset" />
		<tag k="old_name" v="Støvset" />
		<tag k="place" v="farm" />
		<tag k="ssr:stedsnr" v="137654" />
	</node>
	<node id="-615989" lat="67.4979777819" lon="15.0080777838">
		<tag k="alt_name" v="Øyjord" />
		<tag k="name" v="Øyjorda" />
		<tag k="place" v="farm" />
		<tag k="ssr:stedsnr" v="137608" />
	</node>
	<node id="-618034" lat="67.2343166695" lon="14.5415500068">
		<tag k="alt_name" v="Hellevik, store" />
		<tag k="fixme" v="multiple name tags, choose one and add the other to alt_name" />
		<tag k="name" v="Hellevik;Store Hellevik" />
		<tag k="place" v="farm" />
		<tag k="ssr:stedsnr" v="623031" />
	</node>
	<node id="-615985" lat="67.0705500017" lon="14.9730666662">
		<tag k="alt_name" v="Vestvatnet, øvre" />
		<tag k="name" v="Øvre Vestvatnet" />
		<tag k="old_name" v="Vestvatnet" />
		<tag k="place" v="farm" />
		<tag k="ssr:stedsnr" v="137585" />
	</node>
	<node id="-618027" lat="67.1837944447" lon="15.3065194366">
		<tag k="name" v="Bufjellsætra" />
		<tag k="place" v="locality" />
		<tag k="ssr:stedsnr" v="622968" />
	</node>
	<node id="-618026" lat="67.1964166701" lon="15.2918361083">
		<tag k="alt_name" v="Vika, yt" />
		<tag k="name" v="Ytre Vika" />
		<tag k="place" v="farm" />
		<tag k="ssr:stedsnr" v="622965" />
	</node>
	<node id="-615977" lat="67.138750002" lon="14.7653249981">
		<tag k="name" v="Børli austre" />
		<tag k="place" v="isolated_dwelling" />
		<tag k="ssr:stedsnr" v="137534" />
	</node>
	<node id="-615976" lat="67.1380944438" lon="14.9211722224">
		<tag k="alt_name" v="Koven" />
		<tag k="name" v="Køven" />
		<tag k="place" v="locality" />
		<tag k="ssr:stedsnr" v="137527" />
	</node>
	<node id="-618023" lat="67.0384277813" lon="15.008108338">
		<tag k="alt_name" v="Kosmo" />
		<tag k="name" v="Kåsmo" />
		<tag k="place" v="farm" />
		<tag k="ssr:stedsnr" v="622887" />
	</node>
	<node id="-618019" lat="67.0464027807" lon="14.9993805558">
		<tag k="name" v="Sandvika" />
		<tag k="place" v="isolated_dwelling" />
		<tag k="ssr:stedsnr" v="622868" />
	</node>
	<node id="-615970" lat="67.1629972219" lon="14.933949999">
		<tag k="fixme" v="consider place=hamlet" />
		<tag k="loc_name:smj" v="Svárbbe" />
		<tag k="name" v="Kvarv" />
		<tag k="name:no" v="Kvarv" />
		<tag k="place" v="farm" />
		<tag k="ssr:stedsnr" v="137502" />
	</node>
	<node id="-618016" lat="67.1716111099" lon="14.7672250069">
		<tag k="name" v="Vasshaudurda" />
		<tag k="place" v="isolated_dwelling" />
		<tag k="ssr:stedsnr" v="622730" />
	</node>
	<node id="-618014" lat="67.2925750025" lon="14.4589249988">
		<tag k="name" v="Maskinisten" />
		<tag k="place" v="isolated_dwelling" />
		<tag k="ssr:stedsnr" v="622712" />
	</node>
	<node id="-615685" lat="67.2746305584" lon="14.8373694372">
		<tag k="name" v="Naurstad" />
		<tag k="place" v="farm" />
		<tag k="ssr:stedsnr" v="81684" />
	</node>
	<node id="-618012" lat="67.2947749986" lon="14.662486111">
		<tag k="name" v="Høglia" />
		<tag k="place" v="farm" />
		<tag k="ssr:stedsnr" v="622701" />
	</node>
	<node id="-618007" lat="67.2108750031" lon="14.9484333447">
		<tag k="alt_name" v="Vassnes" />
		<tag k="name" v="Vassneset" />
		<tag k="place" v="locality" />
		<tag k="ssr:stedsnr" v="622667" />
	</node>
	<node id="-615949" lat="67.1852972222" lon="14.3768611048">
		<tag k="alt_name" v="Storviken" />
		<tag k="name" v="Storevika" />
		<tag k="place" v="isolated_dwelling" />
		<tag k="ssr:stedsnr" v="137394" />
	</node>
	<node id="-617996" lat="67.0489583375" lon="14.9871305506">
		<tag k="name" v="Haugen" />
		<tag k="place" v="farm" />
		<tag k="ssr:stedsnr" v="622594" />
	</node>
	<node id="-617994" lat="67.1123249992" lon="14.9979944447">
		<tag k="name" v="Skjelbrekka" />
		<tag k="place" v="isolated_dwelling" />
		<tag k="ssr:stedsnr" v="622579" />
	</node>
	<node id="-615945" lat="67.4013277748" lon="14.6479444542">
		<tag k="name" v="Fagervik" />
		<tag k="place" v="farm" />
		<tag k="ssr:stedsnr" v="137371" />
	</node>
	<node id="-617992" lat="67.1066555569" lon="15.0025805577">
		<tag k="alt_name" v="Oppli" />
		<tag k="name" v="Opplia" />
		<tag k="place" v="farm" />
		<tag k="ssr:stedsnr" v="622571" />
	</node>
	<node id="-615943" lat="67.3891277787" lon="14.3132305449">
		<tag k="alt_name" v="Sandvik" />
		<tag k="name" v="Sandvika" />
		<tag k="place" v="isolated_dwelling" />
		<tag k="ssr:stedsnr" v="137365" />
	</node>
	<node id="-617989" lat="67.1060361143" lon="14.9710166718">
		<tag k="alt_name" v="Glemmen" />
		<tag k="name" v="Glemman" />
		<tag k="place" v="farm" />
		<tag k="ssr:stedsnr" v="622566" />
	</node>
	<node id="-620035" lat="67.2942266821" lon="14.8191719591">
		<tag k="name" v="Rotnes" />
		<tag k="place" v="farm" />
		<tag k="ssr:stedsnr" v="975850" />
	</node>
	<node id="-620034" lat="67.0348627269" lon="14.9694530099">
		<tag k="alt_name:no" v="Vesterlien" />
		<tag k="loc_name:smj" v="Viestabuollda" />
		<tag k="name" v="Vesterlia" />
		<tag k="name:no" v="Vesterlia" />
		<tag k="place" v="hamlet" />
		<tag k="ssr:stedsnr" v="971170" />
	</node>
	<node id="-617985" lat="67.1458194437" lon="15.1555555595">
		<tag k="name" v="Kvannåsen" />
		<tag k="place" v="isolated_dwelling" />
		<tag k="ssr:stedsnr" v="622541" />
	</node>
	<node id="-615935" lat="67.3481638858" lon="14.5516527704">
		<tag k="name" v="Myklebostad" />
		<tag k="place" v="farm" />
		<tag k="ssr:stedsnr" v="137307" />
	</node>
	<node id="-617979" lat="67.4961527751" lon="14.7173166706">
		<tag k="name" v="Fjær" />
		<tag k="place" v="farm" />
		<tag k="ssr:stedsnr" v="622492" />
	</node>
	<node id="-615930" lat="67.3208861066" lon="14.6445000017">
		<tag k="name" v="Bakken" />
		<tag k="place" v="farm" />
		<tag k="ssr:stedsnr" v="137281" />
	</node>
	<node id="-620025" lat="67.2348027736" lon="14.6308361094">
		<tag k="name" v="Straumen prestegård" />
		<tag k="place" v="isolated_dwelling" />
		<tag k="ssr:stedsnr" v="966559" />
	</node>
	<node id="-615924" lat="67.3165388872" lon="14.4551222174">
		<tag k="name" v="Storvollen" />
		<tag k="place" v="village" />
		<tag k="ssr:stedsnr" v="137216" />
	</node>
	<node id="-620014" lat="67.3980333379" lon="14.3813166568">
		<tag k="name" v="Sørgården" />
		<tag k="place" v="farm" />
		<tag k="ssr:stedsnr" v="966469" />
	</node>
	<node id="-617961" lat="67.1734055545" lon="14.5273888909">
		<tag k="name" v="Fjell" />
		<tag k="place" v="farm" />
		<tag k="ssr:stedsnr" v="622423" />
	</node>
	<node id="-615912" lat="67.202550003" lon="14.440249996">
		<tag k="name" v="Hella" />
		<tag k="place" v="isolated_dwelling" />
		<tag k="ssr:stedsnr" v="137067" />
	</node>
	<node id="-617955" lat="67.3724888879" lon="14.5939583354">
		<tag k="name" v="Feta" />
		<tag k="place" v="farm" />
		<tag k="ssr:stedsnr" v="622351" />
	</node>
	<node id="-615902" lat="67.2299388873" lon="14.6234027858">
		<tag k="name" v="Ripnes" />
		<tag k="place" v="isolated_dwelling" />
		<tag k="ssr:stedsnr" v="137010" />
	</node>
	<node id="-615901" lat="67.2370111098" lon="14.590758328">
		<tag k="name" v="Straum" />
		<tag k="place" v="farm" />
		<tag k="ssr:stedsnr" v="137008" />
	</node>
	<node id="-617948" lat="67.3143166662" lon="14.6453749999">
		<tag k="name" v="Kvæleng" />
		<tag k="place" v="isolated_dwelling" />
		<tag k="ssr:stedsnr" v="622275" />
	</node>
	<node id="-615898" lat="67.1605333325" lon="14.4680083244">
		<tag k="name" v="Rotnes" />
		<tag k="place" v="isolated_dwelling" />
		<tag k="ssr:stedsnr" v="128488" />
	</node>
	<node id="-615897" lat="67.3399333369" lon="14.7637277761">
		<tag k="name" v="Perplassen" />
		<tag k="place" v="farm" />
		<tag k="ssr:stedsnr" v="117963" />
	</node>
	<node id="-617941" lat="67.2075500027" lon="14.4841555558">
		<tag k="alt_name" v="Staurvika" />
		<tag k="name" v="Staurvik" />
		<tag k="place" v="isolated_dwelling" />
		<tag k="ssr:stedsnr" v="622108" />
	</node>
	<node id="-614989" lat="67.1374416629" lon="14.9994916697">
		<tag k="name" v="Klette" />
		<tag k="place" v="farm" />
		<tag k="ssr:stedsnr" v="404969" />
	</node>
	<node id="-617930" lat="67.3498527765" lon="14.770191659">
		<tag k="amenity" v="school" />
		<tag k="name" v="Vatnlia leirskole" />
		<tag k="ssr:stedsnr" v="604285" />
	</node>
	<node id="-617928" lat="67.3031249959" lon="14.7385444406">
		<tag k="amenity" v="school" />
		<tag k="name" v="Løding skole" />
		<tag k="ssr:stedsnr" v="601987" />
	</node>
	<node id="-615877" lat="67.3985499967" lon="14.3827972274">
		<tag k="name" v="Oppigården" />
		<tag k="place" v="farm" />
		<tag k="ssr:stedsnr" v="116426" />
	</node>
	<node id="-617912" lat="67.2095277773" lon="14.9500555606">
		<tag k="name" v="Ytternaustan" />
		<tag k="place" v="locality" />
		<tag k="ssr:stedsnr" v="601422" />
	</node>
	<node id="-619955" lat="67.1992999996" lon="14.939938879">
		<tag k="name" v="Hosetsjyen" />
		<tag k="place" v="locality" />
		<tag k="ssr:stedsnr" v="943701" />
	</node>
	<node id="-615858" lat="67.1901638864" lon="14.4262277656">
		<tag k="name" v="Aspåsen" />
		<tag k="place" v="isolated_dwelling" />
		<tag k="ssr:stedsnr" v="116233" />
	</node>
	<node id="-614643" lat="67.4919361148" lon="14.9164333285">
		<tag k="name" v="Myra" />
		<tag k="place" v="isolated_dwelling" />
		<tag k="ssr:stedsnr" v="344170" />
	</node>
	<node id="-617901" lat="67.1948083301" lon="14.674175004">
		<tag k="name" v="Gammelsteinnaust" />
		<tag k="place" v="locality" />
		<tag k="ssr:stedsnr" v="601354" />
	</node>
	<node id="-619948" lat="67.2644305577" lon="14.7449499977">
		<tag k="name" v="Sjøvegen" />
		<tag k="place" v="farm" />
		<tag k="ssr:stedsnr" v="943567" />
	</node>
	<node id="-619933" lat="67.2968805523" lon="14.4204777747">
		<tag k="name" v="Oldran" />
		<tag k="place" v="farm" />
		<tag k="ssr:stedsnr" v="942968" />
	</node>
	<node id="-615828" lat="67.2879166651" lon="14.4112888837">
		<tag k="name" v="Leite" />
		<tag k="place" v="farm" />
		<tag k="ssr:stedsnr" v="102002" />
	</node>
	<node id="-617874" lat="67.0339305574" lon="15.0175333425">
		<tag k="name" v="Skogmoen" />
		<tag k="place" v="farm" />
		<tag k="ssr:stedsnr" v="597339" />
	</node>
	<node id="-616195" lat="67.498686114" lon="14.9964638852">
		<tag k="name" v="Holmvik" />
		<tag k="place" v="isolated_dwelling" />
		<tag k="ssr:stedsnr" v="162203" />
	</node>
	<node id="-617866" lat="67.233025001" lon="14.6036527845">
		<tag k="name" v="Skjelvik" />
		<tag k="place" v="isolated_dwelling" />
		<tag k="ssr:stedsnr" v="588645" />
	</node>
	<node id="-615815" lat="67.2797833312" lon="14.5354999908">
		<tag k="name" v="Gården" />
		<tag k="place" v="farm" />
		<tag k="ssr:stedsnr" v="93947" />
	</node>
	<node id="-619908" lat="67.1496972232" lon="14.9098861201">
		<tag k="name" v="Øvre Gjerde" />
		<tag k="place" v="farm" />
		<tag k="ssr:stedsnr" v="942538" />
	</node>
	<node id="-619906" lat="67.2153722205" lon="14.6765999905">
		<tag k="name" v="Kleivan" />
		<tag k="place" v="farm" />
		<tag k="ssr:stedsnr" v="942358" />
	</node>
	<node id="-615803" lat="67.4619333368" lon="14.6989722161">
		<tag k="name" v="Oldervika" />
		<tag k="place" v="isolated_dwelling" />
		<tag k="ssr:stedsnr" v="93797" />
	</node>
	<node id="-617850" lat="67.1370666629" lon="14.998038883">
		<tag k="name" v="Klette" />
		<tag k="place" v="farm" />
		<tag k="ssr:stedsnr" v="585955" />
	</node>
	<node id="-617849" lat="67.1364194453" lon="14.9946944499">
		<tag k="name" v="Klette" />
		<tag k="place" v="farm" />
		<tag k="ssr:stedsnr" v="585954" />
	</node>
	<node id="-617848" lat="67.2280472214" lon="14.6543000081">
		<tag k="name" v="Henningsvik" />
		<tag k="place" v="isolated_dwelling" />
		<tag k="ssr:stedsnr" v="585682" />
	</node>
	<node id="-617364" lat="67.1865361127" lon="14.7482444439">
		<tag k="name" v="Furunes" />
		<tag k="place" v="locality" />
		<tag k="ssr:stedsnr" v="502755" />
	</node>
	<node id="-619894" lat="67.2989611118" lon="14.893188897">
		<tag k="name" v="Per Jonsovika" />
		<tag k="place" v="isolated_dwelling" />
		<tag k="ssr:stedsnr" v="942124" />
	</node>
	<node id="-617840" lat="67.2746472257" lon="14.491191659">
		<tag k="name" v="Stokkvika" />
		<tag k="place" v="farm" />
		<tag k="ssr:stedsnr" v="578880" />
	</node>
	<node id="-617833" lat="67.5211555584" lon="14.7764138904">
		<tag k="name" v="Prestegården" />
		<tag k="place" v="farm" />
		<tag k="ssr:stedsnr" v="578828" />
	</node>
	<node id="-615784" lat="67.2917583322" lon="14.8311416626">
		<tag k="name" v="Roven" />
		<tag k="place" v="farm" />
		<tag k="ssr:stedsnr" v="93625" />
	</node>
	<node id="-619872" lat="67.2395777738" lon="14.6329888937">
		<tag k="name" v="Nordre Knaplund" />
		<tag k="place" v="farm" />
		<tag k="ssr:stedsnr" v="935900" />
	</node>
	<node id="-619871" lat="67.2418083295" lon="14.6228527846">
		<tag k="name" v="Nordre Knaplund" />
		<tag k="place" v="farm" />
		<tag k="ssr:stedsnr" v="935895" />
	</node>
	<node id="-617821" lat="67.2981222238" lon="14.3914194482">
		<tag k="amenity" v="school" />
		<tag k="name" v="Sjøguttskolen" />
		<tag k="ssr:stedsnr" v="578596" />
	</node>
	<node id="-615769" lat="67.1360944479" lon="15.0002972275">
		<tag k="name" v="Solberg" />
		<tag k="place" v="farm" />
		<tag k="ssr:stedsnr" v="93417" />
	</node>
	<node id="-614628" lat="67.2781527819" lon="14.8475027697">
		<tag k="name" v="Øvereng" />
		<tag k="place" v="farm" />
		<tag k="ssr:stedsnr" v="336688" />
	</node>
	<node id="-619861" lat="67.2869749979" lon="14.5981222233">
		<tag k="name" v="Kløfta" />
		<tag k="place" v="farm" />
		<tag k="ssr:stedsnr" v="935388" />
	</node>
	<node id="-619860" lat="67.2343027738" lon="14.6018722272">
		<tag k="alt_name" v="Strømvik" />
		<tag k="name" v="Straumvik" />
		<tag k="place" v="farm" />
		<tag k="ssr:stedsnr" v="935386" />
	</node>
	<node id="-619855" lat="67.073088889" lon="14.8847833383">
		<tag k="name" v="Oddbjørnhytta" />
		<tag k="place" v="isolated_dwelling" />
		<tag k="ssr:stedsnr" v="935297" />
	</node>
	<node id="-616674" lat="67.2924222195" lon="14.6447611123">
		<tag k="name" v="Valle" />
		<tag k="place" v="farm" />
		<tag k="ssr:stedsnr" v="258714" />
	</node>
	<node id="-619846" lat="67.2405305544" lon="14.625674988">
		<tag k="name" v="Nordre Knaplund" />
		<tag k="place" v="farm" />
		<tag k="ssr:stedsnr" v="935604" />
	</node>
	<node id="-619840" lat="67.3552111109" lon="14.8582805476">
		<tag k="name" v="Heggmoen" />
		<tag k="place" v="isolated_dwelling" />
		<tag k="ssr:stedsnr" v="930722" />
	</node>
	<node id="-619838" lat="67.2948694466" lon="14.9907611041">
		<tag k="name" v="Storøya" />
		<tag k="place" v="farm" />
		<tag k="ssr:stedsnr" v="930694" />
	</node>
	<node id="-619835" lat="67.2830194439" lon="14.7360722178">
		<tag k="alt_name" v="Ersvik" />
		<tag k="name" v="Ersvika" />
		<tag k="place" v="farm" />
		<tag k="ssr:stedsnr" v="930682" />
	</node>
	<node id="-615738" lat="67.2912027789" lon="14.4334666557">
		<tag k="fixme" v="consider place=suburb, village or hamlet" />
		<tag k="name" v="Kleiva" />
		<tag k="place" v="quarter" />
		<tag k="ssr:stedsnr" v="92011" />
	</node>
	<node id="-614621" lat="67.2336583327" lon="15.0299444547">
		<tag k="name" v="Oppegården" />
		<tag k="place" v="farm" />
		<tag k="ssr:stedsnr" v="336541" />
	</node>
	<node id="-617771" lat="67.2902333311" lon="14.4222361154">
		<tag k="name" v="Øvre Rønvik" />
		<tag k="place" v="suburb" />
		<tag k="ssr:stedsnr" v="577347" />
	</node>
	<node id="-619817" lat="67.2018861149" lon="15.1427083392">
		<tag k="name" v="Moan" />
		<tag k="place" v="locality" />
		<tag k="ssr:stedsnr" v="927692" />
	</node>
	<node id="-615717" lat="67.2287583368" lon="14.623427776">
		<tag k="name" v="Søndre Knaplund" />
		<tag k="place" v="farm" />
		<tag k="ssr:stedsnr" v="86599" />
	</node>
	<node id="-615713" lat="67.2400722209" lon="14.8083027811">
		<tag k="name" v="Ytre Kvalneshaugen" />
		<tag k="place" v="locality" />
		<tag k="ssr:stedsnr" v="86426" />
	</node>
	<node id="-617750" lat="67.3030083339" lon="14.7435611029">
		<tag k="name" v="Kringla" />
		<tag k="place" v="farm" />
		<tag k="ssr:stedsnr" v="571429" />
	</node>
	<node id="-614617" lat="67.1322777738" lon="14.9958194521">
		<tag k="name" v="Dølsvold" />
		<tag k="place" v="farm" />
		<tag k="ssr:stedsnr" v="336471" />
	</node>
	<node id="-617748" lat="67.3854222247" lon="14.6323444425">
		<tag k="name" v="Nyhaven" />
		<tag k="place" v="farm" />
		<tag k="ssr:stedsnr" v="571401" />
	</node>
	<node id="-619794" lat="67.5665305582" lon="15.1200111121">
		<tag k="fixme" v="consider place=hamlet" />
		<tag k="name" v="Tårnvika" />
		<tag k="place" v="village" />
		<tag k="ssr:stedsnr" v="927098" />
	</node>
	<node id="-619788" lat="67.2352833318" lon="14.5644277678">
		<tag k="alt_name" v="Hellevik, l" />
		<tag k="name" v="Litle Hellevik" />
		<tag k="place" v="isolated_dwelling" />
		<tag k="ssr:stedsnr" v="927024" />
	</node>
	<node id="-615686" lat="67.2935777744" lon="14.9926861005">
		<tag k="name" v="Jensvoll" />
		<tag k="place" v="farm" />
		<tag k="ssr:stedsnr" v="81703" />
	</node>
	<node id="-619781" lat="67.0427861117" lon="15.0936916716">
		<tag k="name" v="Solli" />
		<tag k="place" v="farm" />
		<tag k="ssr:stedsnr" v="926873" />
	</node>
	<node id="-615679" lat="67.2629722176" lon="14.7487194541">
		<tag k="alt_name" v="Gjerde, l" />
		<tag k="fixme" v="multiple name tags, choose one and add the other to alt_name" />
		<tag k="name" v="Lillegjær;Litle Gjerde" />
		<tag k="place" v="farm" />
		<tag k="ssr:stedsnr" v="81455" />
	</node>
	<node id="-619774" lat="67.2128749977" lon="15.1292888933">
		<tag k="name" v="Utvik" />
		<tag k="place" v="farm" />
		<tag k="ssr:stedsnr" v="926702" />
	</node>
	<node id="-619773" lat="67.291405554" lon="14.6088527782">
		<tag k="name" v="Støver" />
		<tag k="place" v="farm" />
		<tag k="ssr:stedsnr" v="926697" />
	</node>
	<node id="-619772" lat="67.282669442" lon="14.3751277783">
		<tag k="name" v="Bodø - Bådåddjo" />
		<tag k="name:no" v="Bodø" />
		<tag k="name:smj" v="Bådåddjo" />
		<tag k="place" v="town" />
		<tag k="ssr:stedsnr" v="926688" />
	</node>
	<node id="-619771" lat="67.285658337" lon="14.4519916697">
		<tag k="name" v="Vågøynes" />
		<tag k="place" v="farm" />
		<tag k="ssr:stedsnr" v="926687" />
	</node>
	<node id="-615672" lat="67.4177722221" lon="14.7804583382">
		<tag k="name" v="Stordalen" />
		<tag k="place" v="farm" />
		<tag k="ssr:stedsnr" v="80516" />
	</node>
	<node id="-619764" lat="67.2242305578" lon="15.0230083262">
		<tag k="name" v="Bråten" />
		<tag k="place" v="farm" />
		<tag k="ssr:stedsnr" v="926645" />
	</node>
	<node id="-615666" lat="67.521627774" lon="14.7819833309">
		<tag k="name" v="Nygård" />
		<tag k="place" v="farm" />
		<tag k="ssr:stedsnr" v="78147" />
	</node>
	<node id="-619761" lat="67.2320249977" lon="14.7730305535">
		<tag k="name" v="Evenset" />
		<tag k="place" v="farm" />
		<tag k="ssr:stedsnr" v="926625" />
	</node>
	<node id="-615664" lat="67.5364111103" lon="14.8263111135">
		<tag k="name" v="Løvollen" />
		<tag k="place" v="farm" />
		<tag k="ssr:stedsnr" v="78108" />
	</node>
	<node id="-615661" lat="67.2167361122" lon="15.2367999889">
		<tag k="name" v="Fjellnes" />
		<tag k="place" v="farm" />
		<tag k="ssr:stedsnr" v="77956" />
	</node>
	<node id="-619756" lat="67.2433388878" lon="14.9632138986">
		<tag k="name" v="Ljønes" />
		<tag k="place" v="farm" />
		<tag k="ssr:stedsnr" v="926610" />
	</node>
	<node id="-619755" lat="67.2386055566" lon="14.98612501">
		<tag k="name" v="Bjerkli" />
		<tag k="place" v="farm" />
		<tag k="ssr:stedsnr" v="926606" />
	</node>
	<node id="-615655" lat="67.0427527794" lon="15.0761611014">
		<tag k="name" v="Nymo" />
		<tag k="place" v="farm" />
		<tag k="ssr:stedsnr" v="77869" />
	</node>
	<node id="-619750" lat="67.1151777792" lon="14.9891694529">
		<tag k="name" v="Menes" />
		<tag k="place" v="farm" />
		<tag k="ssr:stedsnr" v="926568" />
	</node>
	<node id="-615652" lat="67.1893499969" lon="14.7581777762">
		<tag k="alt_name" v="Børelv" />
		<tag k="name" v="Børelva" />
		<tag k="place" v="farm" />
		<tag k="ssr:stedsnr" v="77751" />
	</node>
	<node id="-615651" lat="67.1964555569" lon="14.9595722285">
		<tag k="name" v="Åkervik" />
		<tag k="place" v="farm" />
		<tag k="ssr:stedsnr" v="77745" />
	</node>
	<node id="-615649" lat="67.2803222245" lon="14.5610638991">
		<tag k="fixme" v="consider place=hamlet" />
		<tag k="name" v="Mørkved" />
		<tag k="place" v="farm" />
		<tag k="ssr:stedsnr" v="77737" />
	</node>
	<node id="-615647" lat="67.180772223" lon="14.8984250055">
		<tag k="name" v="Skytten" />
		<tag k="place" v="locality" />
		<tag k="ssr:stedsnr" v="77726" />
	</node>
	<node id="-619742" lat="67.1445888857" lon="15.1692083349">
		<tag k="name" v="Killægda" />
		<tag k="place" v="isolated_dwelling" />
		<tag k="ssr:stedsnr" v="926528" />
	</node>
	<node id="-615644" lat="67.2091055516" lon="14.9466305522">
		<tag k="fixme" v="consider place=hamlet" />
		<tag k="loc_name:smj" v="Sátto" />
		<tag k="name" v="Sand" />
		<tag k="name:no" v="Sand" />
		<tag k="place" v="farm" />
		<tag k="ssr:stedsnr" v="77721" />
	</node>
	<node id="-617691" lat="67.1770722225" lon="14.8969138878">
		<tag k="alt_name" v="Bu" />
		<tag k="name" v="Bue" />
		<tag k="place" v="farm" />
		<tag k="ssr:stedsnr" v="562704" />
	</node>
	<node id="-619737" lat="67.1203749989" lon="14.9158027689">
		<tag k="name" v="Lia" />
		<tag k="place" v="farm" />
		<tag k="ssr:stedsnr" v="926515" />
	</node>
	<node id="-617686" lat="67.2916055598" lon="14.636066659">
		<tag k="name" v="Nystad" />
		<tag k="place" v="farm" />
		<tag k="ssr:stedsnr" v="562684" />
	</node>
	<node id="-619726" lat="67.4374250009" lon="14.391763881">
		<tag k="name" v="Selnes" />
		<tag k="place" v="isolated_dwelling" />
		<tag k="ssr:stedsnr" v="926418" />
	</node>
	<node id="-615971" lat="67.1583916635" lon="14.8964194515">
		<tag k="alt_name" v="Strand" />
		<tag k="name" v="Stranden" />
		<tag k="place" v="farm" />
		<tag k="ssr:stedsnr" v="137504" />
	</node>
	<node id="-617678" lat="67.5026472236" lon="14.7171444374">
		<tag k="name" v="Fjær" />
		<tag k="place" v="farm" />
		<tag k="ssr:stedsnr" v="562485" />
	</node>
	<node id="-615643" lat="67.2176638893" lon="15.0127499969">
		<tag k="name" v="Juvika" />
		<tag k="place" v="farm" />
		<tag k="ssr:stedsnr" v="77711" />
	</node>
	<node id="-619720" lat="67.3831861102" lon="14.2920333316">
		<tag k="alt_name" v="Klevik" />
		<tag k="name" v="Klevika" />
		<tag k="place" v="isolated_dwelling" />
		<tag k="ssr:stedsnr" v="926381" />
	</node>
	<node id="-615623" lat="67.1412916714" lon="14.9456749907">
		<tag k="name" v="Makkinstrand" />
		<tag k="place" v="farm" />
		<tag k="ssr:stedsnr" v="77592" />
	</node>
	<node id="-615622" lat="67.1357055586" lon="14.9959361007">
		<tag k="fixme" v="consider place=hamlet" />
		<tag k="loc_name:smj" v="Klæhtta" />
		<tag k="name" v="Klette" />
		<tag k="name:no" v="Klette" />
		<tag k="place" v="farm" />
		<tag k="ssr:stedsnr" v="77578" />
	</node>
	<node id="-615620" lat="67.1223138875" lon="15.0160722186">
		<tag k="name" v="Hellan" />
		<tag k="place" v="farm" />
		<tag k="ssr:stedsnr" v="77560" />
	</node>
	<node id="-619715" lat="67.3865444478" lon="14.636047213">
		<tag k="alt_name" v="Skaug" />
		<tag k="fixme" v="consider place=hamlet" />
		<tag k="name" v="Skau" />
		<tag k="place" v="village" />
		<tag k="ssr:stedsnr" v="926339" />
	</node>
	<node id="-615618" lat="67.1503805596" lon="14.9774916562">
		<tag k="fixme" v="consider place=hamlet" />
		<tag k="loc_name:smj" v="Suhpenjárgga" />
		<tag k="name" v="Espenes" />
		<tag k="name:no" v="Espenes" />
		<tag k="place" v="farm" />
		<tag k="ssr:stedsnr" v="77517" />
	</node>
	<node id="-619711" lat="67.3068944489" lon="14.5615972185">
		<tag k="name" v="Mjåvasslia" />
		<tag k="place" v="isolated_dwelling" />
		<tag k="ssr:stedsnr" v="926277" />
	</node>
	<node id="-615614" lat="67.5593638924" lon="14.6881111031">
		<tag k="name" v="Åkervika" />
		<tag k="place" v="farm" />
		<tag k="ssr:stedsnr" v="77495" />
	</node>
	<node id="-615610" lat="67.4231499956" lon="14.4154916659">
		<tag k="alt_name" v="Sandeide" />
		<tag k="name" v="Sandeidet" />
		<tag k="place" v="isolated_dwelling" />
		<tag k="ssr:stedsnr" v="77471" />
	</node>
	<node id="-619704" lat="67.2180972204" lon="14.6292638979">
		<tag k="name" v="Tuvlia" />
		<tag k="place" v="farm" />
		<tag k="ssr:stedsnr" v="926120" />
	</node>
	<node id="-617650" lat="67.3188333338" lon="14.4613805614">
		<tag k="name" v="Kleiva" />
		<tag k="place" v="isolated_dwelling" />
		<tag k="ssr:stedsnr" v="562278" />
	</node>
	<node id="-619697" lat="67.2055194444" lon="14.6079166734">
		<tag k="alt_name" v="Stoksjord" />
		<tag k="name" v="Stokkjord" />
		<tag k="place" v="farm" />
		<tag k="ssr:stedsnr" v="926087" />
	</node>
	<node id="-615597" lat="67.3984805543" lon="14.6496416624">
		<tag k="alt_name" v="Valvik" />
		<tag k="name" v="Valvika" />
		<tag k="place" v="farm" />
		<tag k="ssr:stedsnr" v="77418" />
	</node>
	<node id="-619684" lat="67.5663277815" lon="15.1196166762">
		<tag k="name" v="Osbakken" />
		<tag k="place" v="locality" />
		<tag k="ssr:stedsnr" v="905966" />
	</node>
	<node id="-619666" lat="67.2295444459" lon="14.9147277778">
		<tag k="name" v="Øvre Kvikstad" />
		<tag k="place" v="farm" />
		<tag k="ssr:stedsnr" v="905436" />
	</node>
	<node id="-617614" lat="67.2327277806" lon="14.9140666735">
		<tag k="alt_name" v="Kvikstad, øvre" />
		<tag k="name" v="Øvre Kvikstad" />
		<tag k="place" v="farm" />
		<tag k="ssr:stedsnr" v="561688" />
	</node>
	<node id="-617613" lat="67.2270944413" lon="15.0266499999">
		<tag k="name" v="Stranda" />
		<tag k="place" v="farm" />
		<tag k="ssr:stedsnr" v="561686" />
	</node>
	<node id="-617609" lat="67.235486108" lon="14.7768194382">
		<tag k="name" v="Enes" />
		<tag k="place" v="isolated_dwelling" />
		<tag k="ssr:stedsnr" v="561649" />
	</node>
	<node id="-615559" lat="67.5455888884" lon="15.1247805468">
		<tag k="name" v="Øygården" />
		<tag k="place" v="farm" />
		<tag k="ssr:stedsnr" v="77063" />
	</node>
	<node id="-615558" lat="67.5471194461" lon="15.1440027737">
		<tag k="name" v="Lappvika" />
		<tag k="place" v="farm" />
		<tag k="ssr:stedsnr" v="77062" />
	</node>
	<node id="-617598" lat="67.150783333" lon="14.9116361149">
		<tag k="alt_name" v="Gjerde" />
		<tag k="name" v="Gjerdet" />
		<tag k="place" v="farm" />
		<tag k="ssr:stedsnr" v="561511" />
	</node>
	<node id="-617595" lat="67.1376138881" lon="14.4087472176">
		<tag k="name" v="Sørvika" />
		<tag k="place" v="isolated_dwelling" />
		<tag k="ssr:stedsnr" v="561495" />
	</node>
	<node id="-617593" lat="67.1390638899" lon="14.4632416719">
		<tag k="name" v="Isvika" />
		<tag k="place" v="isolated_dwelling" />
		<tag k="ssr:stedsnr" v="561482" />
	</node>
	<node id="-615273" lat="67.0497388876" lon="15.0047361118">
		<tag k="name" v="Savjord" />
		<tag k="place" v="farm" />
		<tag k="ssr:stedsnr" v="16561" />
	</node>
	<node id="-617581" lat="67.3115444481" lon="14.5698083294">
		<tag k="name" v="Svartnes" />
		<tag k="place" v="locality" />
		<tag k="ssr:stedsnr" v="561277" />
	</node>
	<node id="-615531" lat="67.1630249981" lon="14.9435249923">
		<tag k="name" v="Kvarv" />
		<tag k="place" v="farm" />
		<tag k="ssr:stedsnr" v="59972" />
	</node>
	<node id="-617576" lat="67.2069833342" lon="14.472763886">
		<tag k="name" v="Rangset" />
		<tag k="place" v="isolated_dwelling" />
		<tag k="ssr:stedsnr" v="561101" />
	</node>
	<node id="-619615" lat="67.0350944414" lon="15.1046499987">
		<tag k="name" v="Petter Erik-heimen" />
		<tag k="place" v="locality" />
		<tag k="ssr:stedsnr" v="875884" />
	</node>
	<node id="-614245" lat="67.292938888" lon="14.4194666642">
		<tag k="name" v="Kongsparten" />
		<tag k="place" v="farm" />
		<tag k="ssr:stedsnr" v="275969" />
	</node>
	<node id="-617658" lat="67.1745444424" lon="14.3550083358">
		<tag k="name" v="Skånland" />
		<tag k="place" v="farm" />
		<tag k="ssr:stedsnr" v="562361" />
	</node>
	<node id="-617561" lat="67.2032083303" lon="14.8192333252">
		<tag k="name" v="Myrsletten" />
		<tag k="place" v="farm" />
		<tag k="ssr:stedsnr" v="541887" />
	</node>
	<node id="-619604" lat="67.2794666656" lon="14.5838388852">
		<tag k="name" v="Kalvhagen" />
		<tag k="place" v="farm" />
		<tag k="ssr:stedsnr" v="875430" />
	</node>
	<node id="-615500" lat="67.2127916628" lon="14.3860777723">
		<tag k="name" v="Blokkebærmoen" />
		<tag k="old_name" v="Blåkkebærmoen" />
		<tag k="place" v="farm" />
		<tag k="ssr:stedsnr" v="56193" />
	</node>
	<node id="-615498" lat="67.209274997" lon="14.3762888843">
		<tag k="name" v="Bakken" />
		<tag k="place" v="isolated_dwelling" />
		<tag k="ssr:stedsnr" v="56186" />
	</node>
	<node id="-617313" lat="67.4982361111" lon="14.9838194328">
		<tag k="alt_name" v="Hestvik" />
		<tag k="name" v="Hestvika" />
		<tag k="place" v="farm" />
		<tag k="ssr:stedsnr" v="501615" />
	</node>
	<node id="-617275" lat="67.3642722219" lon="14.5734694554">
		<tag k="name" v="Skjelstad" />
		<tag k="place" v="farm" />
		<tag k="ssr:stedsnr" v="501356" />
	</node>
	<node id="-615483" lat="67.2289055547" lon="14.4937999884">
		<tag k="fixme" v="consider place=hamlet" />
		<tag k="name" v="Seivåg" />
		<tag k="place" v="village" />
		<tag k="ssr:stedsnr" v="56018" />
	</node>
	<node id="-614342" lat="67.2086027771" lon="14.376583329">
		<tag k="name" v="Seines" />
		<tag k="place" v="hamlet" />
		<tag k="ssr:stedsnr" v="299214" />
	</node>
	<node id="-614578" lat="67.2842250045" lon="14.4030027759">
		<tag k="leisure" v="park" />
		<tag k="name" v="Rensåsparken" />
		<tag k="ssr:stedsnr" v="335510" />
	</node>
	<node id="-615601" lat="67.1820416681" lon="14.4801944383">
		<tag k="name" v="Øyjorda" />
		<tag k="place" v="isolated_dwelling" />
		<tag k="ssr:stedsnr" v="77432" />
	</node>
	<node id="-617506" lat="67.102266668" lon="14.9684000028">
		<tag k="name" v="Karbøl vestre" />
		<tag k="place" v="farm" />
		<tag k="ssr:stedsnr" v="527981" />
	</node>
	<node id="-617505" lat="67.1855694458" lon="14.7494333393">
		<tag k="name" v="Elva" />
		<tag k="place" v="farm" />
		<tag k="ssr:stedsnr" v="527729" />
	</node>
	<node id="-620037" lat="67.2891539849" lon="14.5608538176">
		<tag k="amenity" v="university" />
		<tag k="name" v="Nord universitet" />
		<tag k="ssr:stedsnr" v="976203" />
	</node>
	<node id="-615452" lat="67.1323222199" lon="14.9956888869">
		<tag k="name" v="Klette" />
		<tag k="place" v="farm" />
		<tag k="ssr:stedsnr" v="40974" />
	</node>
	<node id="-615451" lat="67.1359361152" lon="14.9980638859">
		<tag k="name" v="Klette" />
		<tag k="place" v="farm" />
		<tag k="ssr:stedsnr" v="40973" />
	</node>
	<node id="-619546" lat="67.2025194419" lon="14.9392694389">
		<tag k="name" v="Sandkollen" />
		<tag k="place" v="farm" />
		<tag k="ssr:stedsnr" v="866699" />
	</node>
	<node id="-615448" lat="67.537627774" lon="14.8232555552">
		<tag k="name" v="Stranda" />
		<tag k="place" v="farm" />
		<tag k="ssr:stedsnr" v="34996" />
	</node>
	<node id="-619538" lat="67.1984222222" lon="14.7928388942">
		<tag k="fixme" v="multiple name tags, choose one and add the other to alt_name" />
		<tag k="name" v="Dalan;Dalmoen" />
		<tag k="place" v="farm" />
		<tag k="ssr:stedsnr" v="866680" />
	</node>
	<node id="-619536" lat="67.1912722206" lon="14.7588722275">
		<tag k="name" v="Skattøra" />
		<tag k="place" v="farm" />
		<tag k="ssr:stedsnr" v="866675" />
	</node>
	<node id="-619535" lat="67.2048666644" lon="15.157833343">
		<tag k="name" v="Oppigard" />
		<tag k="place" v="farm" />
		<tag k="ssr:stedsnr" v="866671" />
	</node>
	<node id="-620033" lat="67.0337555376" lon="14.9988071387">
		<tag k="fixme" v="consider place=hamlet" />
		<tag k="name" v="Vesterlien øvre" />
		<tag k="place" v="farm" />
		<tag k="ssr:stedsnr" v="971169" />
	</node>
	<node id="-619350" lat="67.564555558" lon="15.1279194396">
		<tag k="name" v="Krekvollen" />
		<tag k="place" v="farm" />
		<tag k="ssr:stedsnr" v="844792" />
	</node>
	<node id="-617466" lat="67.5061472248" lon="15.0212194485">
		<tag k="name" v="Bjønnelvnes" />
		<tag k="place" v="locality" />
		<tag k="ssr:stedsnr" v="518413" />
	</node>
	<node id="-617465" lat="67.0788777806" lon="15.0003083425">
		<tag k="name" v="Ytterhaugen" />
		<tag k="place" v="farm" />
		<tag k="ssr:stedsnr" v="518407" />
	</node>
	<node id="-615412" lat="67.2069083352" lon="14.9947500078">
		<tag k="name" v="Bergli" />
		<tag k="place" v="isolated_dwelling" />
		<tag k="ssr:stedsnr" v="32443" />
	</node>
	<node id="-619488" lat="67.3761166654" lon="14.5996277813">
		<tag k="name" v="Kløkstad" />
		<tag k="place" v="farm" />
		<tag k="ssr:stedsnr" v="866336" />
	</node>
	<node id="-617437" lat="67.3080083322" lon="14.721038883">
		<tag k="name" v="Hamn" />
		<tag k="place" v="farm" />
		<tag k="ssr:stedsnr" v="517602" />
	</node>
	<node id="-617434" lat="67.2639611106" lon="14.7401833428">
		<tag k="name" v="Volden" />
		<tag k="place" v="farm" />
		<tag k="ssr:stedsnr" v="517558" />
	</node>
	<node id="-617430" lat="67.2791916661" lon="14.3734388775">
		<tag k="name" v="Vestbyen" />
		<tag k="place" v="suburb" />
		<tag k="ssr:stedsnr" v="517495" />
	</node>
	<node id="-617429" lat="67.2800677385" lon="14.4085606945">
		<tag k="name" v="Østbyen" />
		<tag k="place" v="suburb" />
		<tag k="ssr:stedsnr" v="517493" />
	</node>
	<node id="-619474" lat="67.3137611124" lon="14.4486611103">
		<tag k="fixme" v="consider place=suburb, village or hamlet" />
		<tag k="name" v="Løpsmarka" />
		<tag k="place" v="quarter" />
		<tag k="ssr:stedsnr" v="866224" />
	</node>
	<node id="-617419" lat="67.3058472256" lon="14.6311138791">
		<tag k="name" v="Engan" />
		<tag k="place" v="farm" />
		<tag k="ssr:stedsnr" v="517075" />
	</node>
	<node id="-617412" lat="67.2869805535" lon="14.7186666608">
		<tag k="name" v="Oddsjøen" />
		<tag k="place" v="isolated_dwelling" />
		<tag k="ssr:stedsnr" v="511425" />
	</node>
	<node id="-619457" lat="67.1978611122" lon="14.4212583264">
		<tag k="alt_name" v="Snekkvik" />
		<tag k="name" v="Snekkvika" />
		<tag k="place" v="farm" />
		<tag k="ssr:stedsnr" v="866048" />
	</node>
	<node id="-614611" lat="67.119463891" lon="15.0019333401">
		<tag k="name" v="Moen" />
		<tag k="place" v="farm" />
		<tag k="ssr:stedsnr" v="336386" />
	</node>
	<node id="-619445" lat="67.2356638865" lon="14.4956194375">
		<tag k="name" v="Skagen" />
		<tag k="place" v="farm" />
		<tag k="ssr:stedsnr" v="866011" />
	</node>
	<node id="-619439" lat="67.1203888903" lon="15.0225888901">
		<tag k="name" v="Oppegård" />
		<tag k="place" v="farm" />
		<tag k="ssr:stedsnr" v="865610" />
	</node>
	<node id="-617388" lat="67.075116663" lon="14.8866472319">
		<tag k="name" v="Kraftlagshytta" />
		<tag k="place" v="isolated_dwelling" />
		<tag k="ssr:stedsnr" v="510292" />
	</node>
	<node id="-619433" lat="67.1535611126" lon="14.9031055498">
		<tag k="name" v="Haugen" />
		<tag k="place" v="farm" />
		<tag k="ssr:stedsnr" v="865532" />
	</node>
	<node id="-619432" lat="67.1527861121" lon="14.9072694433">
		<tag k="alt_name" v="Heimegard" />
		<tag k="name" v="Heimigard" />
		<tag k="place" v="farm" />
		<tag k="ssr:stedsnr" v="865531" />
	</node>
	<node id="-619428" lat="67.380224996" lon="14.2561805472">
		<tag k="name" v="Myra" />
		<tag k="place" v="farm" />
		<tag k="ssr:stedsnr" v="865438" />
	</node>
	<node id="-615427" lat="67.1993250016" lon="14.9798499936">
		<tag k="name" v="Røaker" />
		<tag k="place" v="farm" />
		<tag k="ssr:stedsnr" v="32708" />
	</node>
	<node id="-619422" lat="67.220413892" lon="14.6485027743">
		<tag k="name" v="Buberget" />
		<tag k="place" v="farm" />
		<tag k="ssr:stedsnr" v="865156" />
	</node>
	<node id="-617365" lat="67.1890000036" lon="14.9184999924">
		<tag k="name" v="Skyttervoll" />
		<tag k="place" v="farm" />
		<tag k="ssr:stedsnr" v="502763" />
	</node>
	<node id="-619412" lat="67.1633388906" lon="14.9392527759">
		<tag k="name" v="Kvarv" />
		<tag k="place" v="farm" />
		<tag k="ssr:stedsnr" v="848972" />
	</node>
	<node id="-617362" lat="67.2047666642" lon="14.8242166632">
		<tag k="alt_name" v="Hogndal" />
		<tag k="name" v="Hogndalen" />
		<tag k="place" v="farm" />
		<tag k="ssr:stedsnr" v="502724" />
	</node>
	<node id="-617356" lat="67.1619805544" lon="14.4318611089">
		<tag k="name" v="Nordvika" />
		<tag k="place" v="isolated_dwelling" />
		<tag k="ssr:stedsnr" v="502397" />
	</node>
	<node id="-619403" lat="67.5010250035" lon="14.7127861044">
		<tag k="name" v="Sjøhaugen" />
		<tag k="place" v="farm" />
		<tag k="ssr:stedsnr" v="845794" />
	</node>
	<node id="-619398" lat="67.2059583342" lon="14.5458944345">
		<tag k="fixme" v="consider place=hamlet" />
		<tag k="name" v="Evjen" />
		<tag k="place" v="village" />
		<tag k="ssr:stedsnr" v="845535" />
	</node>
	<node id="-617349" lat="67.5571750016" lon="15.0127111109">
		<tag k="barrier" v="fence" />
		<tag k="name" v="Lappgjerdet" />
		<tag k="ssr:stedsnr" v="502108" />
	</node>
	<node id="-615290" lat="67.2075194414" lon="15.1587611191">
		<tag k="fixme" v="consider place=hamlet" />
		<tag k="loc_name:smj" v="Gåbddåluokta" />
		<tag k="name" v="Breivik" />
		<tag k="name:no" v="Breivik" />
		<tag k="old_name:no" v="Breidvik" />
		<tag k="place" v="village" />
		<tag k="ssr:stedsnr" v="16687" />
	</node>
	<node id="-615289" lat="67.2909611082" lon="14.6174611093">
		<tag k="fixme" v="multiple name tags, choose one and add the other to alt_name" />
		<tag k="name" v="Åsen;Åsen vestre" />
		<tag k="place" v="farm" />
		<tag k="ssr:stedsnr" v="16682" />
	</node>
	<node id="-615286" lat="67.2053833351" lon="15.1692638804">
		<tag k="name" v="Nerigard" />
		<tag k="place" v="farm" />
		<tag k="ssr:stedsnr" v="16671" />
	</node>
	<node id="-617333" lat="67.0026666637" lon="15.0874138878">
		<tag k="name" v="Stormoen" />
		<tag k="place" v="isolated_dwelling" />
		<tag k="ssr:stedsnr" v="501906" />
	</node>
	<node id="-617332" lat="67.0416416702" lon="15.0707361181">
		<tag k="name" v="Grønli" />
		<tag k="place" v="farm" />
		<tag k="ssr:stedsnr" v="501866" />
	</node>
	<node id="-617330" lat="67.2514861104" lon="14.7038333358">
		<tag k="alt_name" v="Øyjorda" />
		<tag k="name" v="Øyjord" />
		<tag k="place" v="farm" />
		<tag k="ssr:stedsnr" v="501714" />
	</node>
	<node id="-615280" lat="67.0735555565" lon="14.9773638895">
		<tag k="alt_name" v="Vestvatnet, nedre" />
		<tag k="name" v="Nedre Vestvatnet" />
		<tag k="place" v="farm" />
		<tag k="ssr:stedsnr" v="16589" />
	</node>
	<node id="-619370" lat="67.1944055539" lon="14.4699166726">
		<tag k="amenity" v="school" />
		<tag k="name" v="Valnes skole" />
		<tag k="ssr:stedsnr" v="845285" />
	</node>
	<node id="-617321" lat="67.2954722182" lon="14.6610583388">
		<tag k="name" v="Kvalvåg" />
		<tag k="place" v="farm" />
		<tag k="ssr:stedsnr" v="501675" />
	</node>
	<node id="-615266" lat="67.1375777819" lon="14.7669055487">
		<tag k="name" v="Moen" />
		<tag k="place" v="farm" />
		<tag k="ssr:stedsnr" v="16532" />
	</node>
	<node id="-619323" lat="67.2835055511" lon="14.4048527853">
		<tag k="amenity" v="sports_centre" />
		<tag k="name" v="Bodø svømmehall" />
		<tag k="ssr:stedsnr" v="830005" />
	</node>
	<node id="-617312" lat="67.4986777809" lon="14.9992749995">
		<tag k="alt_name" v="Øyjordvik" />
		<tag k="name" v="Øyjordvika" />
		<tag k="place" v="farm" />
		<tag k="ssr:stedsnr" v="501613" />
	</node>
	<node id="-615254" lat="67.4281777804" lon="14.3241527855">
		<tag k="alt_name" v="Ramsvik" />
		<tag k="name" v="Ramsvika" />
		<tag k="place" v="isolated_dwelling" />
		<tag k="ssr:stedsnr" v="16436" />
	</node>
	<node id="-619349" lat="67.3541055544" lon="14.5541694433">
		<tag k="name" v="Belgen" />
		<tag k="place" v="farm" />
		<tag k="ssr:stedsnr" v="844265" />
	</node>
	<node id="-617299" lat="67.1596083374" lon="14.9678277706">
		<tag k="alt_name" v="Gård" />
		<tag k="name" v="Gåre" />
		<tag k="place" v="farm" />
		<tag k="ssr:stedsnr" v="501497" />
	</node>
	<node id="-617295" lat="67.1506805548" lon="14.9436083428">
		<tag k="name" v="Solbakken" />
		<tag k="place" v="farm" />
		<tag k="ssr:stedsnr" v="501483" />
	</node>
	<node id="-617294" lat="67.1483777784" lon="14.9212222296">
		<tag k="name" v="Nygård" />
		<tag k="place" v="farm" />
		<tag k="ssr:stedsnr" v="501481" />
	</node>
	<node id="-619340" lat="67.2929916683" lon="14.8263111169">
		<tag k="name" v="Vågan" />
		<tag k="place" v="farm" />
		<tag k="ssr:stedsnr" v="831990" />
	</node>
	<node id="-619339" lat="67.0886250022" lon="14.9447333225">
		<tag k="name" v="Karbøl vestre" />
		<tag k="place" v="farm" />
		<tag k="ssr:stedsnr" v="831976" />
	</node>
	<node id="-615239" lat="67.2444611132" lon="14.7229416589">
		<tag k="name" v="Brenna" />
		<tag k="place" v="farm" />
		<tag k="ssr:stedsnr" v="16616" />
	</node>
	<node id="-619334" lat="67.2843249975" lon="14.3908861169">
		<tag k="name" v="Østre skolepark" />
		<tag k="place" v="square" />
		<tag k="ssr:stedsnr" v="830216" />
	</node>
	<node id="-617284" lat="67.4329416679" lon="14.3983222185">
		<tag k="alt_name" v="Breidvika" />
		<tag k="name" v="Breivika" />
		<tag k="place" v="isolated_dwelling" />
		<tag k="ssr:stedsnr" v="501417" />
	</node>
	<node id="-617270" lat="67.3177694427" lon="14.6395972268">
		<tag k="name" v="Sandjorda" />
		<tag k="place" v="farm" />
		<tag k="ssr:stedsnr" v="501293" />
	</node>
	<node id="-617280" lat="67.3905999977" lon="14.6436027817">
		<tag k="name" v="Kvanngletta" />
		<tag k="place" v="farm" />
		<tag k="ssr:stedsnr" v="501375" />
	</node>
	<node id="-615231" lat="67.5116944429" lon="15.0997027831">
		<tag k="name" v="Nevelen" />
		<tag k="place" v="farm" />
		<tag k="ssr:stedsnr" v="16112" />
	</node>
	<node id="-615227" lat="67.1490499978" lon="14.432627782">
		<tag k="name" v="Frostmoen" />
		<tag k="place" v="isolated_dwelling" />
		<tag k="ssr:stedsnr" v="16367" />
	</node>
	<node id="-615225" lat="67.3834277739" lon="14.2546472286">
		<tag k="fixme" v="consider place=hamlet" />
		<tag k="name" v="Fenes" />
		<tag k="place" v="village" />
		<tag k="ssr:stedsnr" v="16361" />
	</node>
	<node id="-619318" lat="67.2332694431" lon="15.0253111191">
		<tag k="fixme" v="consider place=hamlet" />
		<tag k="loc_name:smj" v="Skierrestáde" />
		<tag k="name" v="Skjerstad" />
		<tag k="name:no" v="Skjerstad" />
		<tag k="place" v="village" />
		<tag k="ssr:stedsnr" v="822605" />
	</node>
	<node id="-617269" lat="67.3213111088" lon="14.6630416756">
		<tag k="name" v="Baglia" />
		<tag k="place" v="farm" />
		<tag k="ssr:stedsnr" v="501291" />
	</node>
	<node id="-617267" lat="67.3212027774" lon="14.5338888801">
		<tag k="name" v="Skardstad" />
		<tag k="place" v="farm" />
		<tag k="ssr:stedsnr" v="501281" />
	</node>
	<node id="-615219" lat="67.3712250027" lon="14.5743694483">
		<tag k="name" v="Hestnes" />
		<tag k="place" v="isolated_dwelling" />
		<tag k="ssr:stedsnr" v="16334" />
	</node>
	<node id="-615211" lat="67.2038638895" lon="14.5968472279">
		<tag k="name" v="Marvoll" />
		<tag k="place" v="farm" />
		<tag k="ssr:stedsnr" v="16076" />
	</node>
	<node id="-619302" lat="67.3384472269" lon="14.519138881">
		<tag k="name" v="Fjelltun" />
		<tag k="place" v="farm" />
		<tag k="ssr:stedsnr" v="821936" />
	</node>
	<node id="-619298" lat="67.5064166637" lon="14.7352861023">
		<tag k="name" v="Brekka" />
		<tag k="place" v="isolated_dwelling" />
		<tag k="ssr:stedsnr" v="821897" />
	</node>
	<node id="-617246" lat="67.2058111085" lon="14.5434999961">
		<tag k="alt_name" v="Evja" />
		<tag k="name" v="Evjen" />
		<tag k="place" v="farm" />
		<tag k="ssr:stedsnr" v="501102" />
	</node>
	<node id="-615196" lat="67.2385194428" lon="14.6136166557">
		<tag k="alt_name" v="Kapstø" />
		<tag k="name" v="Kappstøa" />
		<tag k="place" v="isolated_dwelling" />
		<tag k="ssr:stedsnr" v="16018" />
	</node>
	<node id="-617946" lat="67.307102781" lon="14.5246138967">
		<tag k="name" v="Tronli" />
		<tag k="place" v="farm" />
		<tag k="ssr:stedsnr" v="622261" />
	</node>
	<node id="-616239" lat="67.2094888866" lon="14.6772138923">
		<tag k="name" v="Steinbakken" />
		<tag k="place" v="farm" />
		<tag k="ssr:stedsnr" v="177377" />
	</node>
	<node id="-615191" lat="67.5043638854" lon="14.7194666736">
		<tag k="name" v="Fjærstranda" />
		<tag k="place" v="farm" />
		<tag k="ssr:stedsnr" v="16111" />
	</node>
	<node id="-617231" lat="67.1495694418" lon="14.9774555494">
		<tag k="name" v="Espenes" />
		<tag k="place" v="farm" />
		<tag k="ssr:stedsnr" v="484974" />
	</node>
	<node id="-619274" lat="67.2750999985" lon="14.838780548">
		<tag k="name" v="Øvre Naurstad" />
		<tag k="place" v="farm" />
		<tag k="ssr:stedsnr" v="821721" />
	</node>
	<node id="-619257" lat="67.2376666655" lon="14.7053250035">
		<tag k="fixme" v="consider place=hamlet" />
		<tag k="name" v="Godøya" />
		<tag k="place" v="village" />
		<tag k="ssr:stedsnr" v="821529" />
	</node>
	<node id="-617200" lat="67.2353277776" lon="14.6366638991">
		<tag k="name" v="Nordre Knaplund" />
		<tag k="place" v="farm" />
		<tag k="ssr:stedsnr" v="480381" />
	</node>
	<node id="-619243" lat="67.2180027808" lon="14.6481249992">
		<tag k="name" v="Innertuv" />
		<tag k="place" v="farm" />
		<tag k="ssr:stedsnr" v="821393" />
	</node>
	<node id="-617194" lat="67.3700083331" lon="14.5235972318">
		<tag k="name" v="Sørteigen" />
		<tag k="place" v="isolated_dwelling" />
		<tag k="ssr:stedsnr" v="480262" />
	</node>
	<node id="-619643" lat="67.054602774" lon="14.9908972098">
		<tag k="name" v="Eliheimen" />
		<tag k="place" v="locality" />
		<tag k="ssr:stedsnr" v="905220" />
	</node>
	<node id="-617171" lat="67.4160055583" lon="13.8964472118">
		<tag k="name" v="Gården" />
		<tag k="place" v="farm" />
		<tag k="ssr:stedsnr" v="465802" />
	</node>
	<node id="-619206" lat="67.2952444406" lon="14.7418111106">
		<tag k="name" v="Sørgjerdet" />
		<tag k="place" v="farm" />
		<tag k="ssr:stedsnr" v="814454" />
	</node>
	<node id="-617157" lat="67.2785777763" lon="14.5265861149">
		<tag k="name" v="Lille Hunstad" />
		<tag k="place" v="farm" />
		<tag k="ssr:stedsnr" v="457943" />
	</node>
	<node id="-619204" lat="67.1969916639" lon="14.4818138976">
		<tag k="name" v="Sandnes" />
		<tag k="place" v="isolated_dwelling" />
		<tag k="ssr:stedsnr" v="814399" />
	</node>
	<node id="-615099" lat="67.2829444488" lon="14.3964916615">
		<tag k="amenity" v="hospital" />
		<tag k="name" v="Nordland sentralsykehus" />
		<tag k="ssr:stedsnr" v="891294" />
	</node>
	<node id="-619189" lat="67.2837166704" lon="14.8347083228">
		<tag k="name" v="Holand" />
		<tag k="place" v="farm" />
		<tag k="ssr:stedsnr" v="809701" />
	</node>
	<node id="-619188" lat="67.290052778" lon="14.7260361039">
		<tag k="fixme" v="consider place=suburb, village or hamlet" />
		<tag k="name" v="Oddan" />
		<tag k="place" v="quarter" />
		<tag k="ssr:stedsnr" v="809700" />
	</node>
	<node id="-615091" lat="67.2897138915" lon="14.4323916562">
		<tag k="amenity" v="school" />
		<tag k="name" v="Saltvern skole" />
		<tag k="ssr:stedsnr" v="891008" />
	</node>
	<node id="-615088" lat="67.4049944409" lon="13.8990222174">
		<tag k="fixme" v="consider place=hamlet" />
		<tag k="name" v="Sørvær" />
		<tag k="place" v="village" />
		<tag k="ssr:stedsnr" v="890868" />
	</node>
	<node id="-619180" lat="67.2679694446" lon="14.7487527748">
		<tag k="name" v="Støvran" />
		<tag k="place" v="farm" />
		<tag k="ssr:stedsnr" v="809461" />
	</node>
	<node id="-619178" lat="67.2681916673" lon="14.7370222173">
		<tag k="fixme" v="consider place=hamlet" />
		<tag k="name" v="Godøynes" />
		<tag k="place" v="village" />
		<tag k="ssr:stedsnr" v="809451" />
	</node>
	<node id="-619170" lat="67.535966663" lon="14.8503527656">
		<tag k="name" v="Finnkonvollen" />
		<tag k="place" v="farm" />
		<tag k="ssr:stedsnr" v="806095" />
	</node>
	<node id="-617243" lat="67.1931083296" lon="14.4677250098">
		<tag k="name" v="Valnes" />
		<tag k="place" v="farm" />
		<tag k="ssr:stedsnr" v="501082" />
	</node>
	<node id="-619168" lat="67.5783638917" lon="14.9973444477">
		<tag k="alt_name" v="Eide" />
		<tag k="name" v="Eidet" />
		<tag k="place" v="farm" />
		<tag k="ssr:stedsnr" v="806073" />
	</node>
	<node id="-617119" lat="67.2990972222" lon="14.403858341">
		<tag k="alt_name" v="Lagård" />
		<tag k="name" v="Lagården" />
		<tag k="place" v="quarter" />
		<tag k="ssr:stedsnr" v="457337" />
	</node>
	<node id="-619166" lat="67.1918388915" lon="15.303569453">
		<tag k="alt_name" v="Vika, in" />
		<tag k="name" v="Indre Vika" />
		<tag k="place" v="locality" />
		<tag k="ssr:stedsnr" v="805966" />
	</node>
	<node id="-619157" lat="67.1756638907" lon="14.7660750031">
		<tag k="name" v="Børvassurda" />
		<tag k="place" v="isolated_dwelling" />
		<tag k="ssr:stedsnr" v="805711" />
	</node>
	<node id="-617108" lat="67.2882361071" lon="14.4044333392">
		<tag k="name" v="Solvoll" />
		<tag k="place" v="locality" />
		<tag k="ssr:stedsnr" v="456536" />
	</node>
	<node id="-619152" lat="67.2852750035" lon="14.6165888852">
		<tag k="name" v="Fenes" />
		<tag k="place" v="farm" />
		<tag k="ssr:stedsnr" v="805679" />
	</node>
	<node id="-619148" lat="67.2298500023" lon="14.899908338">
		<tag k="alt_name" v="Kvikstad, yt" />
		<tag k="name" v="Ytre Kvikstad" />
		<tag k="place" v="farm" />
		<tag k="ssr:stedsnr" v="805664" />
	</node>
	<node id="-614669" lat="67.501644448" lon="15.0159944475">
		<tag k="building" v="commercial" />
		<tag k="name" v="Nevelsfjord handel" />
		<tag k="ssr:stedsnr" v="359052" />
	</node>
	<node id="-619132" lat="67.0752777741" lon="15.0137111155">
		<tag k="name" v="Nesan" />
		<tag k="place" v="isolated_dwelling" />
		<tag k="ssr:stedsnr" v="805608" />
	</node>
	<node id="-615025" lat="67.1168638918" lon="15.0147611004">
		<tag k="name" v="Nesbakk" />
		<tag k="place" v="farm" />
		<tag k="ssr:stedsnr" v="882356" />
	</node>
	<node id="-619120" lat="67.117155559" lon="14.7451277743">
		<tag k="fixme" v="consider tourism=alpine_hut or tourism=chalet" />
		<tag k="name" v="Lurfjellhytta" />
		<tag k="ssr:stedsnr" v="805539" />
		<tag k="tourism" v="wilderness_hut" />
	</node>
	<node id="-615020" lat="67.2928944419" lon="14.6285111177">
		<tag k="name" v="Åsen Østre" />
		<tag k="place" v="farm" />
		<tag k="ssr:stedsnr" v="882260" />
	</node>
	<node id="-617061" lat="67.3487944436" lon="14.7761361026">
		<tag k="name" v="Vatnet" />
		<tag k="place" v="farm" />
		<tag k="ssr:stedsnr" v="445714" />
	</node>
	<node id="-619108" lat="67.2771944409" lon="14.0035722176">
		<tag k="fixme" v="consider place=hamlet" />
		<tag k="name" v="Bliksvær" />
		<tag k="place" v="village" />
		<tag k="ssr:stedsnr" v="805486" />
	</node>
	<node id="-617059" lat="67.2785027736" lon="14.7336388902">
		<tag k="name" v="Ilstad" />
		<tag k="place" v="farm" />
		<tag k="ssr:stedsnr" v="445694" />
	</node>
	<node id="-617057" lat="67.3097250039" lon="15.0039499995">
		<tag k="name" v="Halsan" />
		<tag k="place" v="isolated_dwelling" />
		<tag k="ssr:stedsnr" v="445673" />
	</node>
	<node id="-617055" lat="67.2925527762" lon="14.9353027746">
		<tag k="alt_name" v="Gamøyran" />
		<tag k="name" v="Gamøran" />
		<tag k="place" v="isolated_dwelling" />
		<tag k="ssr:stedsnr" v="445652" />
	</node>
	<node id="-619100" lat="67.181452774" lon="14.467288888">
		<tag k="name" v="Skjågan" />
		<tag k="place" v="isolated_dwelling" />
		<tag k="ssr:stedsnr" v="805447" />
	</node>
	<node id="-619095" lat="67.1904805538" lon="14.7050916598">
		<tag k="alt_name" v="Røyrvika" />
		<tag k="name" v="Rørvik" />
		<tag k="place" v="isolated_dwelling" />
		<tag k="ssr:stedsnr" v="805432" />
	</node>
	<node id="-619092" lat="67.1886444464" lon="14.4276749997">
		<tag k="alt_name" v="Gjela" />
		<tag k="name" v="Gjælen" />
		<tag k="place" v="hamlet" />
		<tag k="ssr:stedsnr" v="805423" />
	</node>
	<node id="-614990" lat="67.2848222211" lon="14.4093472265">
		<tag k="building" v="commercial" />
		<tag k="name" v="Bodin herredshus" />
		<tag k="ssr:stedsnr" v="405007" />
	</node>
	<node id="-617037" lat="67.0185444434" lon="15.0867583434">
		<tag k="historic" v="shieling" />
		<tag k="name" v="Vestermosætra" />
		<tag k="place" v="locality" />
		<tag k="ssr:stedsnr" v="441917" />
	</node>
	<node id="-614984" lat="67.2887500008" lon="14.4171694463">
		<tag k="name" v="Bjerkeng" />
		<tag k="place" v="farm" />
		<tag k="ssr:stedsnr" v="396975" />
	</node>
	<node id="-619075" lat="67.341922219" lon="14.5265999953">
		<tag k="alt_name" v="Hystadvolden" />
		<tag k="name" v="Hystadvollen" />
		<tag k="place" v="isolated_dwelling" />
		<tag k="ssr:stedsnr" v="805339" />
	</node>
	<node id="-614977" lat="67.2759361084" lon="14.4492694416">
		<tag k="name" v="Skeid" />
		<tag k="place" v="farm" />
		<tag k="ssr:stedsnr" v="396908" />
	</node>
	<node id="-614496" lat="67.4293361115" lon="14.9575305582">
		<tag k="name" v="Breivika" />
		<tag k="place" v="locality" />
		<tag k="ssr:stedsnr" v="323520" />
	</node>
	<node id="-617021" lat="67.2351277806" lon="14.9971249998">
		<tag k="name" v="Kalvhagen" />
		<tag k="place" v="locality" />
		<tag k="ssr:stedsnr" v="441677" />
	</node>
	<node id="-619065" lat="67.3166249969" lon="14.5360916598">
		<tag k="name" v="Skardmoen" />
		<tag k="place" v="farm" />
		<tag k="ssr:stedsnr" v="805274" />
	</node>
	<node id="-619064" lat="67.3230583291" lon="14.5646499954">
		<tag k="name" v="Steinmoen" />
		<tag k="place" v="farm" />
		<tag k="ssr:stedsnr" v="805275" />
	</node>
	<node id="-614836" lat="67.2749055573" lon="14.4796555513">
		<tag k="name" v="Jensvoll" />
		<tag k="place" v="suburb" />
		<tag k="ssr:stedsnr" v="380760" />
	</node>
	<node id="-617010" lat="67.1113111089" lon="15.0172277782">
		<tag k="name" v="Repp" />
		<tag k="place" v="locality" />
		<tag k="ssr:stedsnr" v="441588" />
	</node>
	<node id="-619057" lat="67.2067055566" lon="14.3752222236">
		<tag k="name" v="Seines" />
		<tag k="place" v="farm" />
		<tag k="ssr:stedsnr" v="805100" />
	</node>
	<node id="-617001" lat="67.126680558" lon="15.0853222318">
		<tag k="name" v="Kvannlia" />
		<tag k="place" v="isolated_dwelling" />
		<tag k="ssr:stedsnr" v="441531" />
	</node>
	<node id="-614950" lat="67.2341444431" lon="15.0114777733">
		<tag k="name" v="Gradden" />
		<tag k="place" v="farm" />
		<tag k="ssr:stedsnr" v="396524" />
	</node>
	<node id="-614941" lat="67.1276694474" lon="14.9989861061">
		<tag k="name" v="Nylend" />
		<tag k="place" v="farm" />
		<tag k="ssr:stedsnr" v="396466" />
	</node>
	<node id="-619036" lat="67.2358888849" lon="14.6798277657">
		<tag k="alt_name" v="Knapplundsøya" />
		<tag k="fixme" v="consider place=hamlet" />
		<tag k="name" v="Knaplundsøya" />
		<tag k="place" v="village" />
		<tag k="ssr:stedsnr" v="805008" />
	</node>
	<node id="-614939" lat="67.1266527777" lon="15.0001777794">
		<tag k="name" v="Halsan" />
		<tag k="place" v="farm" />
		<tag k="ssr:stedsnr" v="396453" />
	</node>
	<node id="-616983" lat="67.173844442" lon="14.3439638859">
		<tag k="alt_name" v="Leirvik" />
		<tag k="name" v="Leirvika" />
		<tag k="place" v="isolated_dwelling" />
		<tag k="ssr:stedsnr" v="441425" />
	</node>
	<node id="-614933" lat="67.1193333333" lon="15.0144361127">
		<tag k="alt_name" v="Fastvold" />
		<tag k="name" v="Fastvoll" />
		<tag k="place" v="farm" />
		<tag k="ssr:stedsnr" v="396376" />
	</node>
	<node id="-616977" lat="67.1847638882" lon="14.4226249901">
		<tag k="name" v="Ryddeng" />
		<tag k="place" v="farm" />
		<tag k="ssr:stedsnr" v="441410" />
	</node>
	<node id="-616969" lat="67.3513611131" lon="14.6884888927">
		<tag k="name" v="Erlingbu" />
		<tag k="place" v="isolated_dwelling" />
		<tag k="ssr:stedsnr" v="441337" />
	</node>
	<node id="-619016" lat="67.2042972248" lon="14.5540055447">
		<tag k="name" v="Vikan" />
		<tag k="place" v="isolated_dwelling" />
		<tag k="ssr:stedsnr" v="784519" />
	</node>
	<node id="-614917" lat="67.1369555514" lon="14.9488388848">
		<tag k="name" v="Rye" />
		<tag k="place" v="isolated_dwelling" />
		<tag k="ssr:stedsnr" v="395712" />
	</node>
	<node id="-616963" lat="67.3246583357" lon="14.4941444531">
		<tag k="name" v="Øvermarka" />
		<tag k="place" v="farm" />
		<tag k="ssr:stedsnr" v="441280" />
	</node>
	<node id="-614914" lat="67.5194861148" lon="14.7642861113">
		<tag k="name" v="Kjerringøy" />
		<tag k="place" v="hamlet" />
		<tag k="ssr:stedsnr" v="390657" />
	</node>
	<node id="-616951" lat="67.2022805537" lon="14.5980638875">
		<tag k="name" v="Sjøhaugen" />
		<tag k="place" v="locality" />
		<tag k="ssr:stedsnr" v="441083" />
	</node>
	<node id="-614893" lat="67.3012972231" lon="14.3457972311">
		<tag k="name" v="Hjartøy" />
		<tag k="place" v="locality" />
		<tag k="ssr:stedsnr" v="389444" />
	</node>
	<node id="-614482" lat="67.2032416669" lon="14.9724000009">
		<tag k="alt_name" v="Støvset nedre;Støvset, nedre" />
		<tag k="name" v="Nedre Støvset" />
		<tag k="place" v="farm" />
		<tag k="ssr:stedsnr" v="320682" />
	</node>
	<node id="-618986" lat="67.2144805557" lon="14.3908472272">
		<tag k="name" v="Dalmo" />
		<tag k="place" v="isolated_dwelling" />
		<tag k="ssr:stedsnr" v="784235" />
	</node>
	<node id="-614887" lat="67.0778555538" lon="14.8827388804">
		<tag k="name" v="Skarhytta" />
		<tag k="place" v="isolated_dwelling" />
		<tag k="ssr:stedsnr" v="389329" />
	</node>
	<node id="-615959" lat="67.4169027741" lon="14.3806583345">
		<tag k="name" v="Kjelbotn" />
		<tag k="place" v="isolated_dwelling" />
		<tag k="ssr:stedsnr" v="137441" />
	</node>
	<node id="-616923" lat="67.4959083332" lon="14.7319055531">
		<tag k="alt_name" v="Fjære" />
		<tag k="name" v="Fjær" />
		<tag k="place" v="hamlet" />
		<tag k="ssr:stedsnr" v="440633" />
	</node>
	<node id="-616921" lat="67.2378972178" lon="14.8113305648">
		<tag k="alt_name" v="Kvalnes, øvre" />
		<tag k="name" v="Øvre Kvalnes" />
		<tag k="place" v="farm" />
		<tag k="ssr:stedsnr" v="440613" />
	</node>
	<node id="-618968" lat="67.1541888899" lon="14.9047444535">
		<tag k="name" v="Oldereid" />
		<tag k="place" v="farm" />
		<tag k="ssr:stedsnr" v="770999" />
	</node>
	<node id="-618967" lat="67.0976027767" lon="14.9700194332">
		<tag k="name" v="Karbøl østre" />
		<tag k="place" v="farm" />
		<tag k="ssr:stedsnr" v="770971" />
	</node>
	<node id="-618966" lat="67.2041805573" lon="14.5847472156">
		<tag k="name" v="Vik" />
		<tag k="place" v="farm" />
		<tag k="ssr:stedsnr" v="770617" />
	</node>
	<node id="-618965" lat="67.5806611111" lon="14.9855500091">
		<tag k="name" v="Indre Eidet" />
		<tag k="place" v="farm" />
		<tag k="ssr:stedsnr" v="770505" />
	</node>
	<node id="-616910" lat="67.2209416676" lon="14.6147527718">
		<tag k="fixme" v="consider place=hamlet" />
		<tag k="name" v="Tuv" />
		<tag k="place" v="village" />
		<tag k="ssr:stedsnr" v="440161" />
	</node>
	<node id="-614861" lat="67.3011500043" lon="14.8633166655">
		<tag k="landuse" v="military" />
		<tag k="name" v="Reitan" />
		<tag k="ssr:stedsnr" v="384646" />
	</node>
	<node id="-616900" lat="67.5806972213" lon="14.9888166743">
		<tag k="name" v="Ytre Eidet" />
		<tag k="place" v="farm" />
		<tag k="ssr:stedsnr" v="480173" />
	</node>
	<node id="-614848" lat="67.5293972206" lon="14.811711122">
		<tag k="name" v="Respilen" />
		<tag k="place" v="farm" />
		<tag k="ssr:stedsnr" v="381164" />
	</node>
	<node id="-616895" lat="67.2367055595" lon="14.8195138875">
		<tag k="name" v="Kvalnes" />
		<tag k="place" v="farm" />
		<tag k="ssr:stedsnr" v="423981" />
	</node>
	<node id="-616894" lat="67.238716668" lon="14.821816673">
		<tag k="name" v="Kvalnes" />
		<tag k="place" v="hamlet" />
		<tag k="ssr:stedsnr" v="423980" />
	</node>
	<node id="-614845" lat="67.5383388904" lon="14.8342972179">
		<tag k="name" v="Os" />
		<tag k="place" v="hamlet" />
		<tag k="ssr:stedsnr" v="381126" />
	</node>
	<node id="-616891" lat="67.5678999961" lon="15.1171361094">
		<tag k="name" v="Nylende" />
		<tag k="place" v="farm" />
		<tag k="ssr:stedsnr" v="420969" />
	</node>
	<node id="-614838" lat="67.034013885" lon="15.1103083276">
		<tag k="name" v="Austerheim" />
		<tag k="place" v="farm" />
		<tag k="ssr:stedsnr" v="380879" />
	</node>
	<node id="-618932" lat="67.2859805564" lon="14.4101861139">
		<tag k="leisure" v="park" />
		<tag k="name" v="Reinparken" />
		<tag k="ssr:stedsnr" v="760960" />
	</node>
	<node id="-616883" lat="67.1855249962" lon="14.7503333426">
		<tag k="name" v="Børelv" />
		<tag k="place" v="farm" />
		<tag k="ssr:stedsnr" v="420845" />
	</node>
	<node id="-616878" lat="67.2337749981" lon="14.6290694421">
		<tag k="amenity" v="school" />
		<tag k="name" v="Knaplund skole" />
		<tag k="ssr:stedsnr" v="420578" />
	</node>
	<node id="-614829" lat="67.1961888869" lon="14.9321583394">
		<tag k="name" v="Leite" />
		<tag k="place" v="farm" />
		<tag k="ssr:stedsnr" v="380725" />
	</node>
	<node id="-614828" lat="67.1995194423" lon="14.9307888988">
		<tag k="name" v="Hoset" />
		<tag k="place" v="farm" />
		<tag k="ssr:stedsnr" v="380726" />
	</node>
	<node id="-616874" lat="67.211308336" lon="14.562713881">
		<tag k="name" v="Brattlia" />
		<tag k="place" v="isolated_dwelling" />
		<tag k="ssr:stedsnr" v="420519" />
	</node>
	<node id="-618919" lat="67.5257138904" lon="14.7938694471">
		<tag k="name" v="Moen" />
		<tag k="place" v="farm" />
		<tag k="ssr:stedsnr" v="760824" />
	</node>
	<node id="-614821" lat="67.2294777752" lon="14.907202783">
		<tag k="alt_name" v="Kvikstad, nedre" />
		<tag k="fixme" v="multiple name tags, choose one and add the other to alt_name" />
		<tag k="name" v="Kvikstad;Nedre Kvikstad" />
		<tag k="place" v="farm" />
		<tag k="ssr:stedsnr" v="380707" />
	</node>
	<node id="-614815" lat="67.0422027741" lon="14.9778055528">
		<tag k="name" v="Åsen" />
		<tag k="place" v="farm" />
		<tag k="ssr:stedsnr" v="380647" />
	</node>
	<node id="-616851" lat="67.0955500033" lon="14.971955551">
		<tag k="name" v="Karbøl" />
		<tag k="place" v="farm" />
		<tag k="ssr:stedsnr" v="420329" />
	</node>
	<node id="-618898" lat="67.1252999969" lon="15.0015083371">
		<tag k="name" v="Høymo" />
		<tag k="place" v="farm" />
		<tag k="ssr:stedsnr" v="760462" />
	</node>
	<node id="-616849" lat="67.2100222262" lon="14.5000638935">
		<tag k="name" v="Skivik" />
		<tag k="place" v="isolated_dwelling" />
		<tag k="ssr:stedsnr" v="420271" />
	</node>
	<node id="-614791" lat="67.1747833291" lon="14.3622138902">
		<tag k="name" v="Langnes" />
		<tag k="place" v="isolated_dwelling" />
		<tag k="ssr:stedsnr" v="380455" />
	</node>
	<node id="-618886" lat="67.4009388882" lon="14.7783083298">
		<tag k="name" v="Granheim" />
		<tag k="place" v="isolated_dwelling" />
		<tag k="ssr:stedsnr" v="760029" />
	</node>
	<node id="-616834" lat="67.0510666688" lon="14.9922555477">
		<tag k="name" v="Asphaug" />
		<tag k="place" v="isolated_dwelling" />
		<tag k="ssr:stedsnr" v="419233" />
	</node>
	<node id="-616830" lat="67.0358000029" lon="15.0206027848">
		<tag k="name" v="Bjørnli" />
		<tag k="place" v="isolated_dwelling" />
		<tag k="ssr:stedsnr" v="480025" />
	</node>
	<node id="-614781" lat="67.3815333296" lon="14.6216499905">
		<tag k="name" v="Skaumyra" />
		<tag k="place" v="farm" />
		<tag k="ssr:stedsnr" v="380361" />
	</node>
	<node id="-616827" lat="67.0428444464" lon="15.0951194439">
		<tag k="name" v="Binatomta" />
		<tag k="place" v="locality" />
		<tag k="ssr:stedsnr" v="268877" />
	</node>
	<node id="-614777" lat="67.3271111094" lon="14.5896388937">
		<tag k="name" v="Engan" />
		<tag k="place" v="farm" />
		<tag k="ssr:stedsnr" v="380282" />
	</node>
	<node id="-614775" lat="67.3312694461" lon="14.6161889004">
		<tag k="name" v="Karisetlia" />
		<tag k="place" v="isolated_dwelling" />
		<tag k="ssr:stedsnr" v="380279" />
	</node>
	<node id="-614773" lat="67.331627774" lon="14.4928111065">
		<tag k="alt_name" v="Grava" />
		<tag k="name" v="Graven" />
		<tag k="place" v="farm" />
		<tag k="ssr:stedsnr" v="380273" />
	</node>
	<node id="-618866" lat="67.1575999957" lon="15.1638416747">
		<tag k="name" v="Ner-Kvannåsen" />
		<tag k="place" v="locality" />
		<tag k="ssr:stedsnr" v="753640" />
	</node>
	<node id="-614803" lat="67.1541583351" lon="14.7535944525">
		<tag k="name" v="Gammelheimen" />
		<tag k="place" v="isolated_dwelling" />
		<tag k="ssr:stedsnr" v="380545" />
	</node>
	<node id="-618855" lat="67.2972555521" lon="14.6778444431">
		<tag k="name" v="Grina" />
		<tag k="place" v="isolated_dwelling" />
		<tag k="ssr:stedsnr" v="753373" />
	</node>
	<node id="-616804" lat="67.3043611128" lon="14.7375083315">
		<tag k="alt_name" v="Løding, østre" />
		<tag k="fixme" v="consider place=suburb, village or hamlet" />
		<tag k="name" v="Østre Løding" />
		<tag k="place" v="quarter" />
		<tag k="ssr:stedsnr" v="263661" />
	</node>
	<node id="-618851" lat="67.2865055546" lon="14.4359944409">
		<tag k="amenity" v="hospital" />
		<tag k="name" v="Rønvik sykehus" />
		<tag k="ssr:stedsnr" v="753328" />
	</node>
	<node id="-616802" lat="67.2979666649" lon="14.7304500032">
		<tag k="alt_name" v="Løding, vestre;Løding vestre" />
		<tag k="fixme" v="multiple name tags, choose one and add the other to alt_name; consider place=suburb, village or hamlet" />
		<tag k="name" v="Tverrlandet;Vestre Løding" />
		<tag k="place" v="quarter" />
		<tag k="ssr:stedsnr" v="263660" />
	</node>
	<node id="-616800" lat="67.2632416647" lon="14.7539555443">
		<tag k="alt_name" v="Gjerde, store" />
		<tag k="fixme" v="multiple name tags, choose one and add the other to alt_name" />
		<tag k="name" v="Gjerdet;Storgjær;Store Gjerde" />
		<tag k="place" v="farm" />
		<tag k="ssr:stedsnr" v="263450" />
	</node>
	<node id="-614727" lat="67.2454361069" lon="14.7261972249">
		<tag k="alt_name" v="Skålbones" />
		<tag k="name" v="Skålbunes" />
		<tag k="place" v="farm" />
		<tag k="ssr:stedsnr" v="379639" />
	</node>
	<node id="-616789" lat="67.0402055583" lon="15.0097166714">
		<tag k="alt_name" v="Kåsmoli" />
		<tag k="name" v="Kåsmolia" />
		<tag k="place" v="farm" />
		<tag k="ssr:stedsnr" v="259883" />
	</node>
	<node id="-618832" lat="67.3163361122" lon="14.7319388858">
		<tag k="fixme" v="consider place=suburb, village or hamlet" />
		<tag k="name" v="Hopen" />
		<tag k="place" v="quarter" />
		<tag k="ssr:stedsnr" v="748746" />
	</node>
	<node id="-614734" lat="67.2393250014" lon="14.6212583415">
		<tag k="alt_name" v="Knapplund" />
		<tag k="fixme" v="consider place=hamlet" />
		<tag k="name" v="Knaplund" />
		<tag k="place" v="village" />
		<tag k="ssr:stedsnr" v="380018" />
	</node>
	<node id="-618829" lat="67.298075828" lon="14.9746351863">
		<tag k="fixme" v="consider place=hamlet" />
		<tag k="loc_name:smj" v="Mævva" />
		<tag k="name" v="Mjønes" />
		<tag k="name:no" v="Mjønes" />
		<tag k="place" v="farm" />
		<tag k="ssr:stedsnr" v="748703" />
	</node>
	<node id="-618828" lat="67.2800361118" lon="14.7224388815">
		<tag k="name" v="Ilstadsjøen" />
		<tag k="place" v="farm" />
		<tag k="ssr:stedsnr" v="748693" />
	</node>
	<node id="-618826" lat="67.2986583356" lon="14.8036444516">
		<tag k="name" v="Lian" />
		<tag k="place" v="isolated_dwelling" />
		<tag k="ssr:stedsnr" v="748649" />
	</node>
	<node id="-616775" lat="67.1927055549" lon="14.9250444534">
		<tag k="name" v="Grytnes" />
		<tag k="place" v="farm" />
		<tag k="ssr:stedsnr" v="259689" />
	</node>
	<node id="-614719" lat="67.1559583312" lon="14.90327501">
		<tag k="fixme" v="consider place=hamlet" />
		<tag k="loc_name:smj" v="Ålleriddja" />
		<tag k="name" v="Oldereid" />
		<tag k="name:no" v="Oldereid" />
		<tag k="place" v="farm" />
		<tag k="ssr:stedsnr" v="379494" />
	</node>
	<node id="-616765" lat="67.0746916664" lon="14.992616662">
		<tag k="alt_name" v="Dalmoen" />
		<tag k="name" v="Dalmo" />
		<tag k="place" v="farm" />
		<tag k="ssr:stedsnr" v="259596" />
	</node>
	<node id="-614711" lat="67.3113222188" lon="14.5321972271">
		<tag k="name" v="Tronheim" />
		<tag k="place" v="farm" />
		<tag k="ssr:stedsnr" v="379252" />
	</node>
	<node id="-614710" lat="67.2112166648" lon="14.3683249961">
		<tag k="name" v="Steinvollen" />
		<tag k="place" v="farm" />
		<tag k="ssr:stedsnr" v="379130" />
	</node>
	<node id="-618803" lat="67.0379694452" lon="15.1498916751">
		<tag k="historic" v="shieling" />
		<tag k="loc_name" v="Ljøsenhammerstua" />
		<tag k="name" v="Ljøsnehammarsæter" />
		<tag k="place" v="locality" />
		<tag k="ssr:stedsnr" v="744865" />
	</node>
	<node id="-618798" lat="67.2717666675" lon="14.4316166752">
		<tag k="name" v="Bodøgård" />
		<tag k="place" v="farm" />
		<tag k="ssr:stedsnr" v="744716" />
	</node>
	<node id="-618797" lat="67.2728861148" lon="14.422397223">
		<tag k="name" v="Mostad" />
		<tag k="place" v="farm" />
		<tag k="ssr:stedsnr" v="744717" />
	</node>
	<node id="-618796" lat="67.2018500019" lon="14.980172216">
		<tag k="alt_name" v="Demmoen" />
		<tag k="name" v="Demmo" />
		<tag k="place" v="farm" />
		<tag k="ssr:stedsnr" v="744714" />
	</node>
	<node id="-618795" lat="67.2807305577" lon="14.5896416575">
		<tag k="name" v="Bertnes" />
		<tag k="place" v="farm" />
		<tag k="ssr:stedsnr" v="744712" />
	</node>
	<node id="-618792" lat="67.2995749958" lon="14.6886583402">
		<tag k="alt_name" v="Vikan, yt" />
		<tag k="fixme" v="multiple name tags, choose one and add the other to alt_name" />
		<tag k="name" v="Vikan;Ytre Vikan" />
		<tag k="place" v="isolated_dwelling" />
		<tag k="ssr:stedsnr" v="744693" />
	</node>
	<node id="-618782" lat="67.2462805577" lon="14.9714888918">
		<tag k="name" v="Stranda" />
		<tag k="place" v="farm" />
		<tag k="ssr:stedsnr" v="744611" />
	</node>
	<node id="-618780" lat="67.2459583306" lon="14.9771888997">
		<tag k="name" v="Haugan" />
		<tag k="place" v="farm" />
		<tag k="ssr:stedsnr" v="744607" />
	</node>
	<node id="-614682" lat="67.1985277782" lon="14.6682277858">
		<tag k="name" v="Øyran" />
		<tag k="place" v="isolated_dwelling" />
		<tag k="ssr:stedsnr" v="359388" />
	</node>
	<node id="-618777" lat="67.4981694462" lon="14.9598194456">
		<tag k="alt_name" v="Storli" />
		<tag k="name" v="Storlia" />
		<tag k="place" v="farm" />
		<tag k="ssr:stedsnr" v="744598" />
	</node>
	<node id="-618772" lat="67.0519698453" lon="14.9896405558">
		<tag k="alt_name:no" v="Vesterlien nedre" />
		<tag k="fixme" v="consider place=hamlet" />
		<tag k="loc_name:smj" v="Viestabuollda" />
		<tag k="name" v="Vesterli Nedre" />
		<tag k="name:no" v="Vesterli Nedre" />
		<tag k="old_name:no" v="Vesterli;Vesterlia" />
		<tag k="place" v="farm" />
		<tag k="ssr:stedsnr" v="744575" />
	</node>
	<node id="-618771" lat="67.0510583305" lon="14.9827638816">
		<tag k="alt_name" v="Slåttkjer" />
		<tag k="name" v="Slåttkjær" />
		<tag k="place" v="farm" />
		<tag k="ssr:stedsnr" v="744574" />
	</node>
	<node id="-618770" lat="67.0461583354" lon="14.9795722139">
		<tag k="alt_name" v="Stenbakk" />
		<tag k="name" v="Steinbakk" />
		<tag k="place" v="farm" />
		<tag k="ssr:stedsnr" v="744560" />
	</node>
	<node id="-618768" lat="67.4364305568" lon="14.7816638793">
		<tag k="name" v="Engan" />
		<tag k="place" v="farm" />
		<tag k="ssr:stedsnr" v="744554" />
	</node>
	<node id="-618765" lat="67.1083472238" lon="14.8991666563">
		<tag k="historic" v="shieling" />
		<tag k="name" v="Kvannåssæter" />
		<tag k="place" v="locality" />
		<tag k="ssr:stedsnr" v="744542" />
	</node>
	<node id="-617858" lat="67.4034638879" lon="13.8845027745">
		<tag k="name" v="Gården" />
		<tag k="place" v="farm" />
		<tag k="ssr:stedsnr" v="586860" />
	</node>
	<node id="-618754" lat="67.1639888882" lon="14.8855472109">
		<tag k="name" v="Skred" />
		<tag k="place" v="locality" />
		<tag k="ssr:stedsnr" v="744470" />
	</node>
	<node id="-616695" lat="67.1945083347" lon="14.4519499956">
		<tag k="fixme" v="multiple name tags, choose one and add the other to alt_name" />
		<tag k="name" v="Kobbosen;Ytre Kobbosen" />
		<tag k="place" v="isolated_dwelling" />
		<tag k="ssr:stedsnr" v="259056" />
	</node>
	<node id="-616693" lat="67.1932750032" lon="14.6033361012">
		<tag k="name" v="Åseli" />
		<tag k="place" v="isolated_dwelling" />
		<tag k="ssr:stedsnr" v="259054" />
	</node>
	<node id="-618740" lat="67.177619447" lon="14.4555222174">
		<tag k="alt_name" v="Skålmo" />
		<tag k="name" v="Skålmoen" />
		<tag k="place" v="farm" />
		<tag k="ssr:stedsnr" v="744396" />
	</node>
	<node id="-618739" lat="67.3989750048" lon="14.381316659">
		<tag k="alt_name" v="Kvi" />
		<tag k="name" v="Kvig" />
		<tag k="place" v="farm" />
		<tag k="ssr:stedsnr" v="744387" />
	</node>
	<node id="-614641" lat="67.4929583364" lon="14.8976999937">
		<tag k="name" v="Yttermark" />
		<tag k="place" v="isolated_dwelling" />
		<tag k="ssr:stedsnr" v="344164" />
	</node>
	<node id="-616686" lat="67.2490083369" lon="14.7084444412">
		<tag k="name" v="Øyjorda" />
		<tag k="place" v="isolated_dwelling" />
		<tag k="ssr:stedsnr" v="259015" />
	</node>
	<node id="-616676" lat="67.3031749967" lon="14.7053555509">
		<tag k="alt_name" v="Vikan, in" />
		<tag k="name" v="Indre Vikan" />
		<tag k="place" v="farm" />
		<tag k="ssr:stedsnr" v="258725" />
	</node>
	<node id="-619565" lat="67.5230416638" lon="14.807144451">
		<tag k="name" v="Alsos" />
		<tag k="place" v="farm" />
		<tag k="ssr:stedsnr" v="867183" />
	</node>
	<node id="-616673" lat="67.4834277803" lon="14.9008999991">
		<tag k="name" v="Farheim" />
		<tag k="place" v="locality" />
		<tag k="ssr:stedsnr" v="258686" />
	</node>
	<node id="-616669" lat="67.2459583361" lon="14.7328388965">
		<tag k="alt_name" v="Steinvolden" />
		<tag k="name" v="Steinvollen" />
		<tag k="place" v="farm" />
		<tag k="ssr:stedsnr" v="258658" />
	</node>
	<node id="-618716" lat="67.3260166712" lon="14.5818444372">
		<tag k="name" v="Mosti" />
		<tag k="place" v="farm" />
		<tag k="ssr:stedsnr" v="744241" />
	</node>
	<node id="-616667" lat="67.490944449" lon="14.9193388805">
		<tag k="alt_name" v="Tverrbakken" />
		<tag k="name" v="Tverrbakkan" />
		<tag k="place" v="farm" />
		<tag k="ssr:stedsnr" v="258644" />
	</node>
	<node id="-616665" lat="67.1171583374" lon="15.0745222137">
		<tag k="name" v="Godmoan" />
		<tag k="place" v="isolated_dwelling" />
		<tag k="ssr:stedsnr" v="258593" />
	</node>
	<node id="-616663" lat="67.1156861146" lon="14.984438887">
		<tag k="name" v="Mohus" />
		<tag k="place" v="farm" />
		<tag k="ssr:stedsnr" v="258582" />
	</node>
	<node id="-616659" lat="67.1187472243" lon="14.999174989">
		<tag k="fixme" v="consider place=hamlet" />
		<tag k="loc_name:smj" v="Medasværdda" />
		<tag k="name" v="Misvær" />
		<tag k="name:no" v="Misvær" />
		<tag k="place" v="village" />
		<tag k="ssr:stedsnr" v="258534" />
	</node>
	<node id="-614608" lat="67.3276222201" lon="14.4907305625">
		<tag k="name" v="Larshaugen" />
		<tag k="place" v="farm" />
		<tag k="ssr:stedsnr" v="335958" />
	</node>
	<node id="-614606" lat="67.2787416715" lon="14.4933222119">
		<tag k="name" v="Stille Dal" />
		<tag k="place" v="farm" />
		<tag k="ssr:stedsnr" v="335955" />
	</node>
	<node id="-614605" lat="67.4307944434" lon="14.7531055543">
		<tag k="name" v="Rydning" />
		<tag k="place" v="farm" />
		<tag k="ssr:stedsnr" v="335942" />
	</node>
	<node id="-615458" lat="67.2736416643" lon="14.4252777806">
		<tag k="name" v="Bodin prestegård" />
		<tag k="place" v="isolated_dwelling" />
		<tag k="ssr:stedsnr" v="41182" />
	</node>
	<node id="-618698" lat="67.2128777742" lon="14.5043777681">
		<tag k="alt_name" v="Skivik" />
		<tag k="name" v="Skivika" />
		<tag k="place" v="locality" />
		<tag k="ssr:stedsnr" v="744083" />
	</node>
	<node id="-618696" lat="67.4320583291" lon="13.9817833295">
		<tag k="name" v="Høyvika" />
		<tag k="place" v="farm" />
		<tag k="ssr:stedsnr" v="744074" />
	</node>
	<node id="-618695" lat="67.2112063084" lon="14.6765837372">
		<tag k="alt_name" v="Kodvåg" />
		<tag k="fixme" v="consider place=hamlet" />
		<tag k="name" v="Koddvåg" />
		<tag k="place" v="farm" />
		<tag k="ssr:stedsnr" v="744073" />
	</node>
	<node id="-616644" lat="67.3000972198" lon="14.6154333437">
		<tag k="alt_name" v="Breidvad" />
		<tag k="name" v="Breiva" />
		<tag k="place" v="farm" />
		<tag k="ssr:stedsnr" v="258289" />
	</node>
	<node id="-618690" lat="67.1970861117" lon="14.4773249934">
		<tag k="alt_name" v="Skutvik" />
		<tag k="name" v="Skutvika" />
		<tag k="place" v="isolated_dwelling" />
		<tag k="ssr:stedsnr" v="744050" />
	</node>
	<node id="-614587" lat="67.2858638883" lon="14.4014055637">
		<tag k="name" v="Snippen" />
		<tag k="place" v="suburb" />
		<tag k="ssr:stedsnr" v="335590" />
	</node>
	<node id="-614585" lat="67.2766472257" lon="14.3845861069">
		<tag k="leisure" v="pitch" />
		<tag k="name" v="Aspmyra stadion" />
		<tag k="ssr:stedsnr" v="335580" />
	</node>
	<node id="-614583" lat="67.287233332" lon="14.3986583271">
		<tag k="name" v="Kortneset" />
		<tag k="place" v="suburb" />
		<tag k="ssr:stedsnr" v="335573" />
	</node>
	<node id="-616626" lat="67.1485111155" lon="14.976994443">
		<tag k="name" v="Espenes" />
		<tag k="place" v="farm" />
		<tag k="ssr:stedsnr" v="241977" />
	</node>
	<node id="-614573" lat="67.3029777817" lon="14.399516671">
		<tag k="alt_name" v="Kvalvik" />
		<tag k="fixme" v="consider place=suburb, village or hamlet" />
		<tag k="name" v="Kvalvika" />
		<tag k="place" v="quarter" />
		<tag k="ssr:stedsnr" v="335341" />
	</node>
	<node id="-618667" lat="67.5656861099" lon="15.125930557">
		<tag k="name" v="Tårnvik" />
		<tag k="place" v="farm" />
		<tag k="ssr:stedsnr" v="723947" />
	</node>
	<node id="-616618" lat="67.5626666712" lon="14.6993361105">
		<tag k="name" v="Gammelgården" />
		<tag k="place" v="locality" />
		<tag k="ssr:stedsnr" v="238804" />
	</node>
	<node id="-616614" lat="67.2073805595" lon="14.5975750066">
		<tag k="name" v="Engan" />
		<tag k="place" v="farm" />
		<tag k="ssr:stedsnr" v="238521" />
	</node>
	<node id="-618656" lat="67.2362222242" lon="14.6167805581">
		<tag k="name" v="Saltstraumen Turiststasjon" />
		<tag k="ssr:stedsnr" v="723409" />
		<tag k="tourism" v="guest_house" />
	</node>
	<node id="-616607" lat="67.1711888847" lon="14.4587611142">
		<tag k="name" v="Sandvik" />
		<tag k="place" v="isolated_dwelling" />
		<tag k="ssr:stedsnr" v="238262" />
	</node>
	<node id="-615450" lat="67.2995972246" lon="14.9790555541">
		<tag k="name" v="Mjønes" />
		<tag k="place" v="farm" />
		<tag k="ssr:stedsnr" v="40972" />
	</node>
	<node id="-616602" lat="67.2073888917" lon="14.3756888793">
		<tag k="name" v="Opphaug" />
		<tag k="place" v="isolated_dwelling" />
		<tag k="ssr:stedsnr" v="238191" />
	</node>
	<node id="-614553" lat="67.30055" lon="14.7385250103">
		<tag k="name" v="Løding" />
		<tag k="place" v="village" />
		<tag k="ssr:stedsnr" v="329513" />
	</node>
	<node id="-616600" lat="67.5033305536" lon="15.0173083338">
		<tag k="name" v="Straumheim" />
		<tag k="place" v="isolated_dwelling" />
		<tag k="ssr:stedsnr" v="238123" />
	</node>
	<node id="-616596" lat="67.5656694432" lon="15.1240749958">
		<tag k="name" v="Øvergården" />
		<tag k="place" v="farm" />
		<tag k="ssr:stedsnr" v="237966" />
	</node>
	<node id="-618640" lat="67.0388354586" lon="14.9774853375">
		<tag k="loc_name" v="Nygård" />
		<tag k="name" v="Nygård" />
		<tag k="place" v="farm" />
		<tag k="ssr:stedsnr" v="723303" />
	</node>
	<node id="-618639" lat="67.212294442" lon="14.3798888808">
		<tag k="name" v="Nordkleiv" />
		<tag k="place" v="isolated_dwelling" />
		<tag k="ssr:stedsnr" v="723197" />
	</node>
	<node id="-618637" lat="67.0766499969" lon="14.9868388779">
		<tag k="name" v="Vestvatn Nedre" />
		<tag k="place" v="farm" />
		<tag k="ssr:stedsnr" v="723218" />
	</node>
	<node id="-618623" lat="67.2959222199" lon="14.7326555496">
		<tag k="name" v="Engmoen" />
		<tag k="place" v="isolated_dwelling" />
		<tag k="ssr:stedsnr" v="710717" />
	</node>
	<node id="-616571" lat="67.5662972204" lon="15.124877782">
		<tag k="name" v="Myra" />
		<tag k="place" v="farm" />
		<tag k="ssr:stedsnr" v="225550" />
	</node>
	<node id="-616390" lat="67.2762222183" lon="14.5082694388">
		<tag k="name" v="Hunstadmoen" />
		<tag k="place" v="suburb" />
		<tag k="ssr:stedsnr" v="198727" />
	</node>
	<node id="-616568" lat="67.2998777799" lon="14.7337249936">
		<tag k="name" v="Haug" />
		<tag k="place" v="isolated_dwelling" />
		<tag k="ssr:stedsnr" v="224725" />
	</node>
	<node id="-614174" lat="67.2895805519" lon="14.4298833224">
		<tag k="fixme" v="consider place=suburb, village or hamlet" />
		<tag k="name" v="Myrvoll" />
		<tag k="place" v="quarter" />
		<tag k="ssr:stedsnr" v="274303" />
	</node>
	<node id="-614517" lat="67.3235388886" lon="15.0470472143">
		<tag k="name" v="Kleivberget" />
		<tag k="place" v="isolated_dwelling" />
		<tag k="ssr:stedsnr" v="323731" />
	</node>
	<node id="-614516" lat="67.3215888929" lon="15.0477389004">
		<tag k="name" v="Kalvhaugberget" />
		<tag k="place" v="isolated_dwelling" />
		<tag k="ssr:stedsnr" v="323730" />
	</node>
	<node id="-618605" lat="67.4938222214" lon="14.9032916746">
		<tag k="name" v="Bakken" />
		<tag k="place" v="isolated_dwelling" />
		<tag k="ssr:stedsnr" v="708181" />
	</node>
	<node id="-614507" lat="67.2929862544" lon="14.8261022983">
		<tag k="alt_name" v="Mevågen" />
		<tag k="name" v="Mevåg" />
		<tag k="place" v="farm" />
		<tag k="ssr:stedsnr" v="323645" />
	</node>
	<node id="-616554" lat="67.2798944431" lon="14.4129250028">
		<tag k="leisure" v="pitch" />
		<tag k="name" v="Bodø stadion" />
		<tag k="ssr:stedsnr" v="223012" />
	</node>
	<node id="-616807" lat="67.2761805557" lon="14.8517416703">
		<tag k="name" v="Skjåberget" />
		<tag k="place" v="farm" />
		<tag k="ssr:stedsnr" v="263677" />
	</node>
	<node id="-616550" lat="67.2853111098" lon="14.3877388885">
		<tag k="leisure" v="park" />
		<tag k="name" v="Anna Benoni-parken" />
		<tag k="ssr:stedsnr" v="220954" />
	</node>
	<node id="-616547" lat="67.2057472219" lon="14.9517305575">
		<tag k="name" v="Gammelnaustan" />
		<tag k="place" v="locality" />
		<tag k="ssr:stedsnr" v="215769" />
	</node>
	<node id="-616544" lat="67.2662500008" lon="14.3699805637">
		<tag k="name" v="Indre Hernes" />
		<tag k="place" v="farm" />
		<tag k="ssr:stedsnr" v="215618" />
	</node>
	<node id="-614491" lat="67.2788250013" lon="14.5270305517">
		<tag k="fixme" v="consider place=hamlet" />
		<tag k="name" v="Hunstad" />
		<tag k="place" v="farm" />
		<tag k="ssr:stedsnr" v="320744" />
	</node>
	<node id="-614756" lat="67.1950638859" lon="14.3785972106">
		<tag k="alt_name" v="Møllevold" />
		<tag k="name" v="Mølnvollen" />
		<tag k="place" v="farm" />
		<tag k="ssr:stedsnr" v="380075" />
	</node>
	<node id="-614485" lat="67.2067888889" lon="15.1823083253">
		<tag k="name" v="Stormyra" />
		<tag k="place" v="farm" />
		<tag k="ssr:stedsnr" v="320695" />
	</node>
	<node id="-618579" lat="67.2043083336" lon="15.1595416624">
		<tag k="name" v="Skåka" />
		<tag k="place" v="farm" />
		<tag k="ssr:stedsnr" v="700618" />
	</node>
	<node id="-618578" lat="67.2625611123" lon="14.737266656">
		<tag k="name" v="Sørmyra" />
		<tag k="place" v="farm" />
		<tag k="ssr:stedsnr" v="700584" />
	</node>
	<node id="-614476" lat="67.402813889" lon="14.6264444548">
		<tag k="name" v="Finnvika" />
		<tag k="place" v="farm" />
		<tag k="ssr:stedsnr" v="320423" />
	</node>
	<node id="-618568" lat="67.1178194443" lon="15.0176194501">
		<tag k="name" v="Engesbakk" />
		<tag k="place" v="farm" />
		<tag k="ssr:stedsnr" v="700422" />
	</node>
	<node id="-614469" lat="67.3681722209" lon="14.5904472312">
		<tag k="name" v="Munarvollen" />
		<tag k="place" v="isolated_dwelling" />
		<tag k="ssr:stedsnr" v="320374" />
	</node>
	<node id="-614445" lat="67.0332138914" lon="15.024747234">
		<tag k="name" v="Bjørnlia" />
		<tag k="place" v="farm" />
		<tag k="ssr:stedsnr" v="319883" />
	</node>
	<node id="-616513" lat="67.2942250028" lon="14.8180666714">
		<tag k="alt_name" v="Ende" />
		<tag k="name" v="Enge" />
		<tag k="place" v="farm" />
		<tag k="ssr:stedsnr" v="214716" />
	</node>
	<node id="-614459" lat="67.5487194464" lon="14.8676361173">
		<tag k="name" v="Sjøvegan" />
		<tag k="place" v="farm" />
		<tag k="ssr:stedsnr" v="320101" />
	</node>
	<node id="-616503" lat="67.2713944449" lon="14.8395944343">
		<tag k="name" v="Vika" />
		<tag k="place" v="farm" />
		<tag k="ssr:stedsnr" v="214508" />
	</node>
	<node id="-614409" lat="67.1386722197" lon="14.7374111133">
		<tag k="name" v="Vetlbakken" />
		<tag k="place" v="locality" />
		<tag k="ssr:stedsnr" v="319488" />
	</node>
	<node id="-615773" lat="67.2377861127" lon="14.6932694362">
		<tag k="name" v="Høyskar" />
		<tag k="place" v="farm" />
		<tag k="ssr:stedsnr" v="93471" />
	</node>
	<node id="-618532" lat="67.1449972225" lon="14.9198833383">
		<tag k="name" v="Gaukstad" />
		<tag k="place" v="farm" />
		<tag k="ssr:stedsnr" v="699534" />
	</node>
	<node id="-618530" lat="67.1560305589" lon="14.9027249976">
		<tag k="name" v="Naustvoll" />
		<tag k="place" v="farm" />
		<tag k="ssr:stedsnr" v="699511" />
	</node>
	<node id="-616481" lat="67.3709194433" lon="14.6054305492">
		<tag k="name" v="Moan" />
		<tag k="place" v="farm" />
		<tag k="ssr:stedsnr" v="214022" />
	</node>
	<node id="-616475" lat="67.18402778" lon="14.4115138874">
		<tag k="fixme" v="consider tourism=alpine_hut or tourism=chalet" />
		<tag k="name" v="Gjælentunet" />
		<tag k="ssr:stedsnr" v="208062" />
		<tag k="tourism" v="wilderness_hut" />
	</node>
	<node id="-618521" lat="67.2873675666" lon="14.4114600229">
		<tag k="fixme" v="consider place=suburb, village or hamlet" />
		<tag k="name" v="Reinsletta" />
		<tag k="place" v="quarter" />
		<tag k="ssr:stedsnr" v="699015" />
	</node>
	<node id="-614424" lat="67.2419611127" lon="14.9691916648">
		<tag k="name" v="Nyheim" />
		<tag k="place" v="farm" />
		<tag k="ssr:stedsnr" v="319612" />
	</node>
	<node id="-616471" lat="67.0361944478" lon="15.1084277869">
		<tag k="name" v="Lia" />
		<tag k="place" v="isolated_dwelling" />
		<tag k="ssr:stedsnr" v="207875" />
	</node>
	<node id="-616468" lat="67.1598472209" lon="15.171069451">
		<tag k="name" v="Jensenplassen" />
		<tag k="place" v="locality" />
		<tag k="ssr:stedsnr" v="207661" />
	</node>
	<node id="-614418" lat="67.1047722256" lon="14.8786138881">
		<tag k="historic" v="shieling" />
		<tag k="name" v="Svartvassætra" />
		<tag k="place" v="locality" />
		<tag k="ssr:stedsnr" v="319568" />
	</node>
	<node id="-614417" lat="67.0870027745" lon="14.987433323">
		<tag k="alt_name" v="Skard" />
		<tag k="name" v="Skar" />
		<tag k="place" v="farm" />
		<tag k="ssr:stedsnr" v="319552" />
	</node>
	<node id="-614416" lat="67.1431361091" lon="14.9449888874">
		<tag k="alt_name" v="Klettenget" />
		<tag k="name" v="Kletteng" />
		<tag k="place" v="farm" />
		<tag k="ssr:stedsnr" v="319544" />
	</node>
	<node id="-614414" lat="67.1338638934" lon="14.9476499952">
		<tag k="alt_name" v="Enget" />
		<tag k="name" v="Enge" />
		<tag k="place" v="farm" />
		<tag k="ssr:stedsnr" v="319533" />
	</node>
	<node id="-614412" lat="67.1631694406" lon="14.7666583296">
		<tag k="name" v="Stornes" />
		<tag k="place" v="isolated_dwelling" />
		<tag k="ssr:stedsnr" v="319515" />
	</node>
	<node id="-616459" lat="67.1850555565" lon="15.3162638938">
		<tag k="name" v="Bufjellplassen" />
		<tag k="place" v="locality" />
		<tag k="ssr:stedsnr" v="207590" />
	</node>
	<node id="-616458" lat="67.2386416671" lon="14.6189638918">
		<tag k="name" v="Søndre Knaplund" />
		<tag k="place" v="farm" />
		<tag k="ssr:stedsnr" v="207583" />
	</node>
	<node id="-618505" lat="67.3107444425" lon="14.7402722229">
		<tag k="name" v="Steinvollen" />
		<tag k="place" v="farm" />
		<tag k="ssr:stedsnr" v="693444" />
	</node>
	<node id="-618504" lat="67.4372083366" lon="14.7658694457">
		<tag k="name" v="Myran" />
		<tag k="place" v="farm" />
		<tag k="ssr:stedsnr" v="693410" />
	</node>
	<node id="-618497" lat="67.2160749997" lon="15.2399666765">
		<tag k="name" v="Sjøen" />
		<tag k="place" v="locality" />
		<tag k="ssr:stedsnr" v="692984" />
	</node>
</osm>
