<?xml version="1.0" encoding="UTF-8"?>
<<<<<<< HEAD
<osm version="0.6" generator="osmapis">
	<node lat="67.27261111043347" lon="14.382486108739396" id="-9205">
=======
<osm generator="osmapis" version="0.6">
	<node id="-109824" lat="67.2726111104" lon="14.3824861087">
>>>>>>> e1d4bc35ff8a6074a6f2e91616a996b547c36f15
		<tag k="cemetery" v="grave" />
		<tag k="name" v="Bodø kirkegård" />
		<tag k="place" v="locality" />
		<tag k="ssr:stedsnr" v="32878" />
	</node>
<<<<<<< HEAD
	<node lat="67.29842777690455" lon="14.739941674583408" id="-9510">
		<tag k="amenity" v="community_centre" />
		<tag k="name" v="Tverrlandet samfunnshus" />
		<tag k="ssr:stedsnr" v="153621" />
	</node>
	<node lat="67.51887778083619" lon="14.758644437649131" id="-9640">
		<tag k="alt_name" v="Kjerringøy" />
		<tag k="amenity" v="place_of_worship" />
		<tag k="denomination" v="lutheran" />
		<tag k="name" v="Kjerringøy  kirke" />
		<tag k="religion" v="christian" />
		<tag k="ssr:stedsnr" v="260185" />
	</node>
	<node lat="67.422966667977" lon="13.932238894430702" id="-9693">
		<tag k="alt_name" v="Helligvær" />
		<tag k="amenity" v="place_of_worship" />
		<tag k="denomination" v="lutheran" />
		<tag k="name" v="Helligvær kapell" />
		<tag k="religion" v="christian" />
		<tag k="ssr:stedsnr" v="198075" />
	</node>
	<node lat="67.23349722009915" lon="14.625436101468141" id="-10370">
=======
	<node id="-111226" lat="67.2116583364" lon="14.3854111039">
		<tag k="amenity" v="place_of_worship" />
		<tag k="fixme" v="specify religion=*, denomination=*, building=* etc" />
		<tag k="name" v="Seines bedehus" />
		<tag k="ssr:stedsnr" v="420195" />
	</node>
	<node id="-106870" lat="67.2740527813" lon="14.4348027877">
>>>>>>> e1d4bc35ff8a6074a6f2e91616a996b547c36f15
		<tag k="amenity" v="place_of_worship" />
		<tag k="denomination" v="lutheran" />
		<tag k="name" v="Saltstraumen kirke" />
		<tag k="religion" v="christian" />
<<<<<<< HEAD
		<tag k="ssr:stedsnr" v="440017" />
	</node>
	<node lat="67.12029166915946" lon="14.99612777636717" id="-10708">
=======
		<tag k="ssr:stedsnr" v="16717" />
	</node>
	<node id="-108788" lat="67.2278555579" lon="14.4617944481">
		<tag k="cemetery" v="grave" />
		<tag k="name" v="Seivåg kirkegård" />
		<tag k="place" v="locality" />
		<tag k="ssr:stedsnr" v="662087" />
	</node>
	<node id="-110957" lat="67.2971749981" lon="14.7365888854">
>>>>>>> e1d4bc35ff8a6074a6f2e91616a996b547c36f15
		<tag k="amenity" v="place_of_worship" />
		<tag k="denomination" v="lutheran" />
		<tag k="name" v="Misvær kirke" />
		<tag k="religion" v="christian" />
		<tag k="ssr:stedsnr" v="541024" />
	</node>
	<node lat="67.23553888899349" lon="14.616211109157348" id="-10761">
		<tag k="name" v="Oscar II Støtte" />
		<tag k="ssr:stedsnr" v="692361" />
		<tag k="tourism" v="attraction" />
	</node>
<<<<<<< HEAD
	<node lat="67.21609850042935" lon="15.239494367346614" id="-10767">
=======
	<node id="-109545" lat="67.5663277815" lon="15.1196166762">
		<tag k="name" v="Osbakken" />
		<tag k="place" v="locality" />
		<tag k="ssr:stedsnr" v="905966" />
	</node>
	<node id="-108516" lat="67.2160985004" lon="15.2394943673">
>>>>>>> e1d4bc35ff8a6074a6f2e91616a996b547c36f15
		<tag k="name" v="Sjøen" />
		<tag k="place" v="locality" />
		<tag k="ssr:stedsnr" v="692984" />
	</node>
<<<<<<< HEAD
	<node lat="67.21087500313952" lon="14.94843334466507" id="-10924">
		<tag k="alt_name" v="Vassnes" />
		<tag k="name" v="Vassneset" />
=======
	<node id="-110179" lat="67.23306389" lon="14.5410361168">
		<tag k="amenity" v="place_of_worship" />
		<tag k="fixme" v="specify religion=*, denomination=*, building=* etc" />
		<tag k="name" v="Hellevik bedehus" />
		<tag k="ssr:stedsnr" v="116033" />
	</node>
	<node id="-110430" lat="67.3802111124" lon="14.2743888905">
		<tag k="cemetery" v="grave" />
		<tag k="name" v="Einvollan kirkegård" />
		<tag k="place" v="locality" />
		<tag k="ssr:stedsnr" v="162089" />
	</node>
	<node id="-110683" lat="67.2059623684" lon="14.9514757259">
		<tag k="name" v="Gammelnaustan" />
>>>>>>> e1d4bc35ff8a6074a6f2e91616a996b547c36f15
		<tag k="place" v="locality" />
		<tag k="ssr:stedsnr" v="622667" />
	</node>
<<<<<<< HEAD
	<node lat="67.2278555578525" lon="14.461794448054107" id="-11050">
		<tag k="cemetery" v="grave" />
		<tag k="name" v="Seivåg kirkegård" />
		<tag k="place" v="locality" />
		<tag k="ssr:stedsnr" v="662087" />
	</node>
	<node lat="67.28239721954216" lon="14.382138888336344" id="-11663">
=======
	<node id="-107469" lat="67.2334972201" lon="14.6254361015">
>>>>>>> e1d4bc35ff8a6074a6f2e91616a996b547c36f15
		<tag k="amenity" v="place_of_worship" />
		<tag k="denomination" v="lutheran" />
		<tag k="name" v="Bodø domkirke" />
		<tag k="religion" v="christian" />
		<tag k="ssr:stedsnr" v="881467" />
	</node>
<<<<<<< HEAD
	<node lat="67.2903916701464" lon="14.449041678950804" id="-11706">
=======
	<node id="-108991" lat="67.2903916701" lon="14.449041679">
>>>>>>> e1d4bc35ff8a6074a6f2e91616a996b547c36f15
		<tag k="name" v="Hellmyrbruddet" />
		<tag k="place" v="locality" />
		<tag k="ssr:stedsnr" v="891021" />
	</node>
<<<<<<< HEAD
	<node lat="67.56632778147933" lon="15.119616676212981" id="-11741">
		<tag k="name" v="Osbakken" />
=======
	<node id="-107581" lat="67.2351277806" lon="14.9971249998">
		<tag k="name" v="Kalvhagen" />
>>>>>>> e1d4bc35ff8a6074a6f2e91616a996b547c36f15
		<tag k="place" v="locality" />
		<tag k="ssr:stedsnr" v="905966" />
	</node>
<<<<<<< HEAD
	<node lat="67.27405278133087" lon="14.434802787747703" id="-11942">
		<tag k="amenity" v="place_of_worship" />
		<tag k="denomination" v="lutheran" />
		<tag k="name" v="Bodin kirke" />
		<tag k="religion" v="christian" />
		<tag k="ssr:stedsnr" v="16717" />
	</node>
	<node lat="67.18077222301221" lon="14.898425005497076" id="-12131">
=======
	<node id="-112699" lat="67.2739796981" lon="14.4286611991">
		<tag k="name" v="Nordland kultursenter" />
		<tag k="ssr:stedsnr" v="1072855" />
		<tag k="tourism" v="museum" />
	</node>
	<node id="-110007" lat="67.180772223" lon="14.8984250055">
>>>>>>> e1d4bc35ff8a6074a6f2e91616a996b547c36f15
		<tag k="name" v="Skytten" />
		<tag k="place" v="locality" />
		<tag k="ssr:stedsnr" v="77726" />
	</node>
<<<<<<< HEAD
	<node lat="67.23306388995613" lon="14.541036116848444" id="-12249">
=======
	<node id="-111286" lat="67.1202916692" lon="14.9961277764">
>>>>>>> e1d4bc35ff8a6074a6f2e91616a996b547c36f15
		<tag k="amenity" v="place_of_worship" />
		<tag k="fixme" v="specify religion=*, denomination=*, building=* etc" />
		<tag k="name" v="Hellevik bedehus" />
		<tag k="ssr:stedsnr" v="116033" />
	</node>
<<<<<<< HEAD
	<node lat="67.38021111238656" lon="14.274388890455635" id="-12460">
		<tag k="cemetery" v="grave" />
		<tag k="name" v="Einvollan kirkegård" />
=======
	<node id="-111663" lat="67.2108750031" lon="14.9484333447">
		<tag k="alt_name" v="Vassnes" />
		<tag k="name" v="Vassneset" />
>>>>>>> e1d4bc35ff8a6074a6f2e91616a996b547c36f15
		<tag k="place" v="locality" />
		<tag k="ssr:stedsnr" v="162089" />
	</node>
<<<<<<< HEAD
	<node lat="67.26819444161531" lon="14.426963889383755" id="-12464">
		<tag k="name" v="Nordland Fylkesmuseum" />
		<tag k="ssr:stedsnr" v="162174" />
		<tag k="tourism" v="museum" />
	</node>
	<node lat="67.27528055639497" lon="14.435100008493114" id="-12465">
		<tag k="cemetery" v="grave" />
		<tag k="name" v="Bodin kirkegård" />
		<tag k="place" v="locality" />
		<tag k="ssr:stedsnr" v="162177" />
	</node>
	<node lat="67.20596236839877" lon="14.951475725854555" id="-12670">
		<tag k="name" v="Gammelnaustan" />
		<tag k="place" v="locality" />
		<tag k="ssr:stedsnr" v="215769" />
	</node>
	<node lat="67.4109222226212" lon="13.970108339522026" id="-12784">
		<tag k="cemetery" v="grave" />
		<tag k="name" v="Kjerkgården" />
		<tag k="place" v="locality" />
		<tag k="ssr:stedsnr" v="299201" />
	</node>
	<node lat="67.23426666608938" lon="15.021097223817497" id="-12793">
		<tag k="amenity" v="place_of_worship" />
		<tag k="denomination" v="lutheran" />
		<tag k="name" v="Skjerstad kirke" />
		<tag k="religion" v="christian" />
		<tag k="ssr:stedsnr" v="319660" />
	</node>
	<node lat="67.29717499814473" lon="14.736588885423915" id="-13003">
=======
	<node id="-110380" lat="67.2984277769" lon="14.7399416746">
		<tag k="amenity" v="community_centre" />
		<tag k="name" v="Tverrlandet samfunnshus" />
		<tag k="ssr:stedsnr" v="153621" />
	</node>
	<node id="-109607" lat="67.2951448324" lon="14.4162568856">
>>>>>>> e1d4bc35ff8a6074a6f2e91616a996b547c36f15
		<tag k="amenity" v="place_of_worship" />
		<tag k="denomination" v="lutheran" />
		<tag k="name" v="Tverrlandet kirke" />
		<tag k="religion" v="christian" />
		<tag k="ssr:stedsnr" v="359985" />
	</node>
<<<<<<< HEAD
	<node lat="67.21165833637245" lon="14.385411103904607" id="-13194">
=======
	<node id="-110757" lat="67.2342666661" lon="15.0210972238">
>>>>>>> e1d4bc35ff8a6074a6f2e91616a996b547c36f15
		<tag k="amenity" v="place_of_worship" />
		<tag k="fixme" v="specify religion=*, denomination=*, building=* etc" />
		<tag k="name" v="Seines bedehus" />
		<tag k="ssr:stedsnr" v="420195" />
	</node>
<<<<<<< HEAD
	<node lat="67.23512778058748" lon="14.997124999780501" id="-13296">
		<tag k="name" v="Kalvhagen" />
=======
	<node id="-108190" lat="67.4109222226" lon="13.9701083395">
		<tag k="cemetery" v="grave" />
		<tag k="name" v="Kjerkgården" />
>>>>>>> e1d4bc35ff8a6074a6f2e91616a996b547c36f15
		<tag k="place" v="locality" />
		<tag k="ssr:stedsnr" v="441677" />
	</node>
<<<<<<< HEAD
	<node lat="67.28234151313893" lon="14.541711666023579" id="-14918">
=======
	<node id="-110488" lat="67.422966668" lon="13.9322388944">
>>>>>>> e1d4bc35ff8a6074a6f2e91616a996b547c36f15
		<tag k="amenity" v="place_of_worship" />
		<tag k="denomination" v="lutheran" />
		<tag k="name" v="Hunstad kirke" />
		<tag k="religion" v="christian" />
		<tag k="ssr:stedsnr" v="990269" />
	</node>
	<node lat="67.29514483241843" lon="14.41625688556041" id="-14919">
		<tag k="amenity" v="place_of_worship" />
		<tag k="denomination" v="lutheran" />
		<tag k="name" v="Rønvik kirke" />
		<tag k="religion" v="christian" />
		<tag k="ssr:stedsnr" v="990300" />
	</node>
	<node lat="67.27397969806279" lon="14.428661199142585" id="-14973">
		<tag k="name" v="Nordland kultursenter" />
		<tag k="ssr:stedsnr" v="1072855" />
		<tag k="tourism" v="museum" />
	</node>
	<node id="-107279" lat="67.2752805564" lon="14.4351000085">
		<tag k="cemetery" v="grave" />
		<tag k="name" v="Bodin kirkegård" />
		<tag k="place" v="locality" />
		<tag k="ssr:stedsnr" v="162177" />
	</node>
	<node id="-107278" lat="67.2681944416" lon="14.4269638894">
		<tag k="name" v="Nordland Fylkesmuseum" />
		<tag k="ssr:stedsnr" v="162174" />
		<tag k="tourism" v="museum" />
	</node>
	<node id="-107117" lat="67.5188777808" lon="14.7586444376">
		<tag k="alt_name" v="Kjerringøy" />
		<tag k="amenity" v="place_of_worship" />
		<tag k="denomination" v="lutheran" />
		<tag k="name" v="Kjerringøy  kirke" />
		<tag k="religion" v="christian" />
		<tag k="ssr:stedsnr" v="260185" />
	</node>
	<node id="-108811" lat="67.2823972195" lon="14.3821388883">
		<tag k="amenity" v="place_of_worship" />
		<tag k="denomination" v="lutheran" />
		<tag k="name" v="Bodø domkirke" />
		<tag k="religion" v="christian" />
		<tag k="ssr:stedsnr" v="881467" />
	</node>
	<node id="-108933" lat="67.235538889" lon="14.6162111092">
		<tag k="name" v="Oscar II Støtte" />
		<tag k="ssr:stedsnr" v="692361" />
		<tag k="tourism" v="attraction" />
	</node>
	<node id="-112642" lat="67.2823415131" lon="14.541711666">
		<tag k="amenity" v="place_of_worship" />
		<tag k="denomination" v="lutheran" />
		<tag k="name" v="Hunstad kirke" />
		<tag k="religion" v="christian" />
		<tag k="ssr:stedsnr" v="990269" />
	</node>
</osm>
