<?xml version="1.0" encoding="UTF-8"?>
<osm version="0.6" generator="osmapis">
	<node lat="67.30971944282028" lon="14.200141662370958" id="-5869">
		<tag k="name" v="Kalvøygrunnen" />
		<tag k="natural" v="shoal" />
		<tag k="place" v="locality" />
		<tag k="ssr:stedsnr" v="16001" />
	</node>
	<node lat="67.24571666684727" lon="14.703580544553956" id="-5871">
		<tag k="alt_name" v="Skålbonesleira" />
		<tag k="name" v="Skålbunesleira" />
		<tag k="natural" v="bay" />
		<tag k="ssr:stedsnr" v="16011" />
	</node>
	<node lat="67.19766666841403" lon="14.5104722280762" id="-5874">
		<tag k="alt_name" v="Leirvik" />
		<tag k="name" v="Leirvika" />
		<tag k="natural" v="bay" />
		<tag k="ssr:stedsnr" v="16051" />
	</node>
	<node lat="67.43737499620019" lon="14.10394999156501" id="-5876">
		<tag k="alt_name" v="Mannholmgrunnen, nordre" />
		<tag k="name" v="Nordre Mannholmgrunnen" />
		<tag k="natural" v="shoal" />
		<tag k="place" v="locality" />
		<tag k="ssr:stedsnr" v="16065" />
	</node>
	<node lat="67.42941111004852" lon="13.967933337930154" id="-5878">
		<tag k="alt_name" v="Leiro" />
		<tag k="name" v="Leira" />
		<tag k="natural" v="bay" />
		<tag k="ssr:stedsnr" v="16069" />
	</node>
	<node lat="67.42953888465217" lon="13.995838888849265" id="-5879">
		<tag k="name" v="Lamholmen" />
		<tag k="place" v="islet" />
		<tag k="ssr:stedsnr" v="16070" />
	</node>
	<node lat="67.46251110889878" lon="14.09273055642276" id="-5881">
		<tag k="alt_name" v="Kvannøya, l" />
		<tag k="name" v="Litle Kvannøya" />
		<tag k="place" v="islet" />
		<tag k="ssr:stedsnr" v="16105" />
	</node>
	<node lat="67.50911944611309" lon="15.047952775462855" id="-5883">
		<tag k="name" v="Ånvika" />
		<tag k="natural" v="bay" />
		<tag k="ssr:stedsnr" v="16109" />
	</node>
	<node lat="67.4400638898778" lon="14.655986110803232" id="-5888">
		<tag k="alt_name" v="Bremnesvika, in" />
		<tag k="name" v="Indre Bremnesvika" />
		<tag k="natural" v="bay" />
		<tag k="ssr:stedsnr" v="16413" />
	</node>
	<node lat="67.4577972183065" lon="14.648791655788909" id="-5890">
		<tag k="name" v="Skjærodden" />
		<tag k="place" v="islet" />
		<tag k="ssr:stedsnr" v="16419" />
	</node>
	<node lat="67.44781944047827" lon="14.383880552473892" id="-5891">
		<tag k="fixme" v="consider seamark:type=rock or natural=shoal" />
		<tag k="name" v="Slåskjæret" />
		<tag k="place" v="islet" />
		<tag k="ssr:stedsnr" v="16423" />
	</node>
	<node lat="67.25598888883921" lon="13.958130557291454" id="-5895">
		<tag k="fixme" v="consider seamark:type=rock or natural=shoal" />
		<tag k="name" v="Skarvskjæret" />
		<tag k="place" v="islet" />
		<tag k="ssr:stedsnr" v="16466" />
	</node>
	<node lat="67.44486944195853" lon="14.794180555359226" id="-5904">
		<tag k="name" v="Finnkonneset" />
		<tag k="natural" v="cape" />
		<tag k="ssr:stedsnr" v="16550" />
	</node>
	<node lat="67.23487499965967" lon="13.958088883163438" id="-5911">
		<tag k="alt_name" v="Burøya, l" />
		<tag k="name" v="Litle Burøya" />
		<tag k="place" v="island" />
		<tag k="ssr:stedsnr" v="16930" />
	</node>
	<node lat="67.20970555421415" lon="13.97732222601653" id="-5912">
		<tag k="name" v="Mesjøgrunnen" />
		<tag k="natural" v="shoal" />
		<tag k="place" v="locality" />
		<tag k="ssr:stedsnr" v="16938" />
	</node>
	<node lat="67.22758333672896" lon="13.963222224107556" id="-5913">
		<tag k="name" v="Slåttøya" />
		<tag k="place" v="islet" />
		<tag k="ssr:stedsnr" v="16940" />
	</node>
	<node lat="67.22299722450674" lon="13.977638892340014" id="-5914">
		<tag k="alt_name" v="Ekholmen, store" />
		<tag k="name" v="Store Eikholmen" />
		<tag k="place" v="islet" />
		<tag k="ssr:stedsnr" v="16941" />
	</node>
	<node lat="67.53208611052331" lon="15.154219439750172" id="-5919">
		<tag k="alt_name" v="Kalvoneset" />
		<tag k="name" v="Kalvbunesodden" />
		<tag k="natural" v="cape" />
		<tag k="ssr:stedsnr" v="17160" />
	</node>
	<node lat="67.52228611590695" lon="14.603108323436938" id="-5922">
		<tag k="name" v="Ramnøya" />
		<tag k="place" v="island" />
		<tag k="ssr:stedsnr" v="17507" />
	</node>
	<node lat="67.52824722058338" lon="14.462897213159033" id="-5923">
		<tag k="name" v="Øyholmen" />
		<tag k="place" v="islet" />
		<tag k="ssr:stedsnr" v="17513" />
	</node>
	<node lat="67.3522611153945" lon="14.259224998198063" id="-5925">
		<tag k="name" v="Kvitingsflua" />
		<tag k="natural" v="shoal" />
		<tag k="place" v="locality" />
		<tag k="ssr:stedsnr" v="24050" />
	</node>
	<node lat="67.44738611109189" lon="14.359838877093027" id="-5929">
		<tag k="name" v="Storbøen" />
		<tag k="place" v="locality" />
		<tag k="seamark:type" v="rock" />
		<tag k="ssr:stedsnr" v="25401" />
	</node>
	<node lat="67.44427499914185" lon="14.362897231137545" id="-5930">
		<tag k="name" v="Busketaren" />
		<tag k="place" v="locality" />
		<tag k="seamark:type" v="rock" />
		<tag k="ssr:stedsnr" v="25402" />
	</node>
	<node lat="67.28972222609148" lon="14.648166659200019" id="-5931">
		<tag k="fixme" v="consider seamark:type=rock or natural=shoal" />
		<tag k="name" v="Valleskjæran" />
		<tag k="place" v="islet" />
		<tag k="ssr:stedsnr" v="25415" />
	</node>
	<node lat="67.21876666878026" lon="15.22603610352259" id="-5941">
		<tag k="name" v="Vassvika" />
		<tag k="natural" v="bay" />
		<tag k="ssr:stedsnr" v="25991" />
	</node>
	<node lat="67.29299444215094" lon="14.86630833037953" id="-5954">
		<tag k="fixme" v="consider seamark:type=rock or natural=shoal" />
		<tag k="name" v="Rødskjæret" />
		<tag k="place" v="islet" />
		<tag k="ssr:stedsnr" v="32104" />
	</node>
	<node lat="67.2938388890742" lon="14.861538887180918" id="-5955">
		<tag k="loc_name" v="Kåløyra" />
		<tag k="name" v="Kaløyra" />
		<tag k="natural" v="cape" />
		<tag k="ssr:stedsnr" v="32105" />
	</node>
	<node lat="67.2270166657035" lon="14.634497220032896" id="-5960">
		<tag k="name" v="Vestvika" />
		<tag k="natural" v="bay" />
		<tag k="ssr:stedsnr" v="32375" />
	</node>
	<node lat="67.24071111473494" lon="14.613866662636022" id="-5965">
		<tag k="name" v="Buberget" />
		<tag k="natural" v="cape" />
		<tag k="ssr:stedsnr" v="32514" />
	</node>
	<node lat="67.50704722309017" lon="14.72253888536759" id="-5972">
		<tag k="fixme" v="consider seamark:type=rock or natural=shoal" />
		<tag k="name" v="Storsteinskjæret" />
		<tag k="place" v="islet" />
		<tag k="ssr:stedsnr" v="32888" />
	</node>
	<node lat="67.27618610797862" lon="14.522099993245188" id="-5973">
		<tag k="name" v="Berteusvika" />
		<tag k="natural" v="bay" />
		<tag k="ssr:stedsnr" v="32902" />
	</node>
	<node lat="67.40646666510033" lon="13.905358325304157" id="-5981">
		<tag k="name" v="Grindneset" />
		<tag k="natural" v="cape" />
		<tag k="ssr:stedsnr" v="40862" />
	</node>
	<node lat="67.49386944624865" lon="14.948661107297374" id="-5982">
		<tag k="fixme" v="consider seamark:type=rock or natural=shoal" />
		<tag k="name" v="Lilletennsteinen" />
		<tag k="place" v="islet" />
		<tag k="ssr:stedsnr" v="41215" />
	</node>
	<node lat="67.4940249972611" lon="14.958399990003944" id="-5985">
		<tag k="name" v="Storholmen" />
		<tag k="place" v="islet" />
		<tag k="ssr:stedsnr" v="41228" />
	</node>
	<node lat="67.49706388516069" lon="14.993958330577858" id="-5986">
		<tag k="name" v="Øyjordvikholmen" />
		<tag k="natural" v="cape" />
		<tag k="ssr:stedsnr" v="41229" />
	</node>
	<node lat="67.49438332938624" lon="14.951516673885564" id="-5987">
		<tag k="fixme" v="consider seamark:type=rock or natural=shoal" />
		<tag k="name" v="Storetennsteinen" />
		<tag k="place" v="islet" />
		<tag k="ssr:stedsnr" v="41212" />
	</node>
	<node lat="67.38939999741761" lon="13.845786110241383" id="-5989">
		<tag k="name" v="Gryttøya" />
		<tag k="place" v="islet" />
		<tag k="ssr:stedsnr" v="41785" />
	</node>
	<node lat="67.41403610977537" lon="13.906130552853334" id="-5990">
		<tag k="fixme" v="consider seamark:type=rock or natural=shoal" />
		<tag k="name" v="Brønnøyskjæran" />
		<tag k="place" v="islet" />
		<tag k="ssr:stedsnr" v="41792" />
	</node>
	<node lat="67.41368333261181" lon="13.919330544256155" id="-5991">
		<tag k="fixme" v="consider seamark:type=rock or natural=shoal" />
		<tag k="name" v="Galten" />
		<tag k="place" v="islet" />
		<tag k="ssr:stedsnr" v="41798" />
	</node>
	<node lat="67.39178610813008" lon="14.249747225400359" id="-6003">
		<tag k="name" v="Valen" />
		<tag k="natural" v="bay" />
		<tag k="ssr:stedsnr" v="238199" />
	</node>
	<node lat="67.43176111090122" lon="14.334186111565725" id="-6005">
		<tag k="name" v="Storsteinbakkvika" />
		<tag k="natural" v="bay" />
		<tag k="ssr:stedsnr" v="238456" />
	</node>
	<node lat="67.34403332997812" lon="14.51874166211731" id="-6007">
		<tag k="name" v="Geitvågen" />
		<tag k="natural" v="bay" />
		<tag k="ssr:stedsnr" v="238469" />
	</node>
	<node lat="67.42921944411776" lon="14.644952773273507" id="-6010">
		<tag k="name" v="Kvannholmsundet" />
		<tag k="natural" v="strait" />
		<tag k="ssr:stedsnr" v="238774" />
	</node>
	<node lat="67.37412499694791" lon="14.246316659491889" id="-6023">
		<tag k="name" v="Oksbåsen" />
		<tag k="natural" v="bay" />
		<tag k="ssr:stedsnr" v="56173" />
	</node>
	<node lat="67.3618583301366" lon="14.521897217328283" id="-6040">
		<tag k="fixme" v="consider seamark:type=rock or natural=shoal" />
		<tag k="name" v="Bjørnholmen" />
		<tag k="place" v="islet" />
		<tag k="ssr:stedsnr" v="56470" />
	</node>
	<node lat="67.35976666976589" lon="14.512836100638195" id="-6041">
		<tag k="fixme" v="consider seamark:type=rock or natural=shoal" />
		<tag k="name" v="Sprengen" />
		<tag k="place" v="islet" />
		<tag k="ssr:stedsnr" v="56479" />
	</node>
	<node lat="67.36760833188691" lon="14.534402776494762" id="-6045">
		<tag k="name" v="Vedstøa" />
		<tag k="natural" v="bay" />
		<tag k="ssr:stedsnr" v="56486" />
	</node>
	<node lat="67.57014444219399" lon="14.692899999545798" id="-6047">
		<tag k="fixme" v="consider seamark:type=rock or natural=shoal" />
		<tag k="name" v="Brannen" />
		<tag k="place" v="islet" />
		<tag k="ssr:stedsnr" v="56722" />
	</node>
	<node lat="67.25813889191545" lon="14.356675003767146" id="-6053">
		<tag k="name" v="Buholmen" />
		<tag k="place" v="islet" />
		<tag k="ssr:stedsnr" v="76659" />
	</node>
	<node lat="67.28803611493629" lon="13.974455554330351" id="-6054">
		<tag k="alt_name" v="Måla" />
		<tag k="name" v="Molla" />
		<tag k="natural" v="cape" />
		<tag k="ssr:stedsnr" v="77008" />
	</node>
	<node lat="67.31612499618204" lon="14.02164445460369" id="-6055">
		<tag k="fixme" v="consider seamark:type=rock or natural=shoal" />
		<tag k="name" v="Petterskjæran" />
		<tag k="place" v="islet" />
		<tag k="ssr:stedsnr" v="77014" />
	</node>
	<node lat="67.23729167038425" lon="14.487238887423539" id="-6056">
		<tag k="fixme" v="consider seamark:type=rock or natural=shoal" />
		<tag k="name" v="Bjørnskjæran" />
		<tag k="place" v="islet" />
		<tag k="ssr:stedsnr" v="77018" />
	</node>
	<node lat="67.39217778188424" lon="13.947463884525364" id="-6058">
		<tag k="name" v="Prestøya" />
		<tag k="place" v="island" />
		<tag k="ssr:stedsnr" v="77025" />
	</node>
	<node lat="67.39488889222567" lon="14.143938888366458" id="-6059">
		<tag k="fixme" v="consider seamark:type=rock or natural=shoal" />
		<tag k="name" v="Skrælingskjæret" />
		<tag k="place" v="islet" />
		<tag k="ssr:stedsnr" v="77027" />
	</node>
	<node lat="67.3876277762924" lon="13.84696667303733" id="-6060">
		<tag k="fixme" v="consider seamark:type=rock or natural=shoal" />
		<tag k="name" v="Kammarskjæret" />
		<tag k="place" v="islet" />
		<tag k="ssr:stedsnr" v="77049" />
	</node>
	<node lat="67.40265833325593" lon="14.01190000864974" id="-6062">
		<tag k="name" v="Kvitingan" />
		<tag k="place" v="islet" />
		<tag k="ssr:stedsnr" v="77052" />
	</node>
	<node lat="67.39323333635537" lon="13.919788890668341" id="-6063">
		<tag k="alt_name" v="Kvannøya, store" />
		<tag k="fixme" v="multiple name tags, choose one and add the other to alt_name" />
		<tag k="name" v="Kvannøya;Store Kvannøya" />
		<tag k="place" v="islet" />
		<tag k="ssr:stedsnr" v="77053" />
	</node>
	<node lat="67.43352777843727" lon="13.950461101302311" id="-6066">
		<tag k="name" v="Færøya" />
		<tag k="place" v="island" />
		<tag k="ssr:stedsnr" v="77109" />
	</node>
	<node lat="67.30041389186611" lon="13.680177780462715" id="-6067">
		<tag k="alt_name" v="Måsskjeret, store;Stormåsskjeret" />
		<tag k="fixme" v="consider seamark:type=rock or natural=shoal" />
		<tag k="name" v="Store Måsskjæret" />
		<tag k="place" v="islet" />
		<tag k="ssr:stedsnr" v="77110" />
	</node>
	<node lat="67.3816472241633" lon="14.364794443685962" id="-6071">
		<tag k="name" v="Reinsøyan" />
		<tag k="place" v="island" />
		<tag k="ssr:stedsnr" v="77407" />
	</node>
	<node lat="67.38314721796277" lon="14.310047221198893" id="-6072">
		<tag k="name" v="Nonsholmen" />
		<tag k="place" v="islet" />
		<tag k="ssr:stedsnr" v="77410" />
	</node>
	<node lat="67.22786666483674" lon="14.751238882365463" id="-6088">
		<tag k="name" v="Flogneset" />
		<tag k="natural" v="cape" />
		<tag k="ssr:stedsnr" v="77654" />
	</node>
	<node lat="67.27590277884542" lon="14.77633889420848" id="-6099">
		<tag k="name" v="Tverrlandet" />
		<tag k="natural" v="cape" />
		<tag k="ssr:stedsnr" v="77757" />
	</node>
	<node lat="67.22331666745228" lon="13.991050011257052" id="-6102">
		<tag k="alt_name" v="Ekholmskjera" />
		<tag k="fixme" v="consider seamark:type=rock or natural=shoal" />
		<tag k="name" v="Eikholmskjæran" />
		<tag k="place" v="islet" />
		<tag k="ssr:stedsnr" v="77949" />
	</node>
	<node lat="67.51974166596277" lon="14.747422227918003" id="-6104">
		<tag k="alt_name" v="Kjerringøya, store;Storekjerringøy" />
		<tag k="name" v="Store Kjerringøya" />
		<tag k="place" v="island" />
		<tag k="ssr:stedsnr" v="78146" />
	</node>
	<node lat="67.53101389025781" lon="14.801255546171022" id="-6106">
		<tag k="name" v="Sildkipodden" />
		<tag k="natural" v="cape" />
		<tag k="ssr:stedsnr" v="78152" />
	</node>
	<node lat="67.52913611346355" lon="14.798972217221053" id="-6107">
		<tag k="name" v="Storodden" />
		<tag k="natural" v="cape" />
		<tag k="ssr:stedsnr" v="78153" />
	</node>
	<node lat="67.43156667124559" lon="14.868183331112911" id="-6108">
		<tag k="alt_name" v="Badneset" />
		<tag k="name" v="Bagneset" />
		<tag k="natural" v="cape" />
		<tag k="ssr:stedsnr" v="80503" />
	</node>
	<node lat="67.26690833203035" lon="14.441122222755657" id="-6114">
		<tag k="name" v="Alstadbøen" />
		<tag k="natural" v="shoal" />
		<tag k="place" v="locality" />
		<tag k="ssr:stedsnr" v="85308" />
	</node>
	<node lat="67.43511389051041" lon="14.409758328560917" id="-6115">
		<tag k="name" v="Arkulbøen" />
		<tag k="place" v="locality" />
		<tag k="seamark:type" v="rock" />
		<tag k="ssr:stedsnr" v="85324" />
	</node>
	<node lat="67.42203333183338" lon="14.587863886346247" id="-6116">
		<tag k="name" v="Skolten" />
		<tag k="natural" v="shoal" />
		<tag k="place" v="locality" />
		<tag k="ssr:stedsnr" v="85325" />
	</node>
	<node lat="67.2189027811449" lon="15.20214721322674" id="-6118">
		<tag k="fixme" v="consider seamark:type=rock or natural=shoal" />
		<tag k="name" v="Geitryggen" />
		<tag k="place" v="islet" />
		<tag k="ssr:stedsnr" v="85976" />
	</node>
	<node lat="67.21764444298452" lon="15.23217776808308" id="-6119">
		<tag k="name" v="Kjerringvika" />
		<tag k="natural" v="bay" />
		<tag k="ssr:stedsnr" v="85999" />
	</node>
	<node lat="67.27860000200843" lon="14.01471943542475" id="-6120">
		<tag k="name" v="Taterskjærflua" />
		<tag k="natural" v="shoal" />
		<tag k="place" v="locality" />
		<tag k="ssr:stedsnr" v="86277" />
	</node>
	<node lat="67.24916666878957" lon="14.02067777404405" id="-6121">
		<tag k="name" v="Indre Drivskjærgrunnen" />
		<tag k="natural" v="shoal" />
		<tag k="ssr:stedsnr" v="86284" />
	</node>
	<node lat="67.19413055519716" lon="14.433972224636362" id="-6124">
		<tag k="name" v="Gjælengalten" />
		<tag k="natural" v="shoal" />
		<tag k="place" v="locality" />
		<tag k="ssr:stedsnr" v="86370" />
	</node>
	<node lat="67.23896666605408" lon="14.526030550722542" id="-6125">
		<tag k="name" v="Litlgrunnen" />
		<tag k="natural" v="shoal" />
		<tag k="place" v="locality" />
		<tag k="ssr:stedsnr" v="86376" />
	</node>
	<node lat="67.44615555278632" lon="14.670644439405022" id="-6171">
		<tag k="name" v="Kvannholmen" />
		<tag k="place" v="islet" />
		<tag k="ssr:stedsnr" v="95605" />
	</node>
	<node lat="67.60264444681611" lon="14.698027773899724" id="-6172">
		<tag k="fixme" v="consider seamark:type=rock or natural=shoal" />
		<tag k="name" v="Enokskjæret" />
		<tag k="place" v="islet" />
		<tag k="ssr:stedsnr" v="95883" />
	</node>
	<node lat="67.26798889350913" lon="13.921411105025316" id="-6174">
		<tag k="name" v="Fjellneset" />
		<tag k="natural" v="cape" />
		<tag k="ssr:stedsnr" v="101565" />
	</node>
	<node lat="67.3899972208342" lon="13.909538885053633" id="-6175">
		<tag k="fixme" v="consider seamark:type=rock or natural=shoal" />
		<tag k="name" v="Kvannøyskjæran" />
		<tag k="place" v="islet" />
		<tag k="ssr:stedsnr" v="101832" />
	</node>
	<node lat="67.27557222053257" lon="14.559363885982409" id="-6179">
		<tag k="name" v="Johannavika" />
		<tag k="natural" v="bay" />
		<tag k="ssr:stedsnr" v="102720" />
	</node>
	<node lat="67.40148611354675" lon="13.824747222319097" id="-6180">
		<tag k="name" v="Flåsundet" />
		<tag k="natural" v="strait" />
		<tag k="ssr:stedsnr" v="102816" />
	</node>
	<node lat="67.58804444925589" lon="15.013419435987341" id="-6181">
		<tag k="fixme" v="consider seamark:type=rock or natural=shoal" />
		<tag k="name" v="Grytvikskjæran" />
		<tag k="place" v="islet" />
		<tag k="ssr:stedsnr" v="103524" />
	</node>
	<node lat="67.56936666358366" lon="15.121722223232084" id="-6182">
		<tag k="fixme" v="consider seamark:type=rock or natural=shoal" />
		<tag k="name" v="Kobbskjæret" />
		<tag k="place" v="islet" />
		<tag k="ssr:stedsnr" v="104509" />
	</node>
	<node lat="67.3804777743446" lon="14.551955558263154" id="-6187">
		<tag k="fixme" v="consider seamark:type=rock or natural=shoal" />
		<tag k="name" v="Buskjæret" />
		<tag k="place" v="islet" />
		<tag k="ssr:stedsnr" v="116281" />
	</node>
	<node lat="67.5631611101496" lon="14.680875008376308" id="-6196">
		<tag k="name" v="Småholmen" />
		<tag k="place" v="islet" />
		<tag k="ssr:stedsnr" v="116780" />
	</node>
	<node lat="67.33556388600812" lon="13.598233321132533" id="-6201">
		<tag k="alt_name" v="Krabbgrunnen, in" />
		<tag k="name" v="Indre Krabbgrunnen" />
		<tag k="natural" v="shoal" />
		<tag k="place" v="locality" />
		<tag k="ssr:stedsnr" v="137103" />
	</node>
	<node lat="67.5058027791828" lon="15.041761109386094" id="-6202">
		<tag k="name" v="Sommarsetvika" />
		<tag k="natural" v="bay" />
		<tag k="ssr:stedsnr" v="137150" />
	</node>
	<node lat="67.29905000002664" lon="13.95585277467578" id="-6203">
		<tag k="name" v="Faksen" />
		<tag k="natural" v="shoal" />
		<tag k="place" v="locality" />
		<tag k="ssr:stedsnr" v="137004" />
	</node>
	<node lat="67.22199166613467" lon="14.611636115111757" id="-6204">
		<tag k="name" v="Storskjæret" />
		<tag k="natural" v="cape" />
		<tag k="ssr:stedsnr" v="137007" />
	</node>
	<node lat="67.30116111484703" lon="14.041650005975052" id="-6207">
		<tag k="name" v="Litle Terranuken" />
		<tag k="place" v="islet" />
		<tag k="ssr:stedsnr" v="137013" />
	</node>
	<node lat="67.3212694416277" lon="14.012169443929073" id="-6208">
		<tag k="fixme" v="consider seamark:type=rock or natural=shoal" />
		<tag k="name" v="Kløpparskjæret" />
		<tag k="place" v="islet" />
		<tag k="ssr:stedsnr" v="137015" />
	</node>
	<node lat="67.33277777894936" lon="14.204227767899434" id="-6209">
		<tag k="fixme" v="consider seamark:type=rock or natural=shoal" />
		<tag k="name" v="Gåsskjærflua" />
		<tag k="place" v="islet" />
		<tag k="ssr:stedsnr" v="137016" />
	</node>
	<node lat="67.32899166778138" lon="14.129911112068141" id="-6210">
		<tag k="fixme" v="consider seamark:type=rock or natural=shoal" />
		<tag k="name" v="Bleika" />
		<tag k="place" v="islet" />
		<tag k="ssr:stedsnr" v="137017" />
	</node>
	<node lat="67.38905555673914" lon="13.884569436255369" id="-6211">
		<tag k="alt_name" v="Valløya" />
		<tag k="name" v="Valøya" />
		<tag k="place" v="island" />
		<tag k="ssr:stedsnr" v="137024" />
	</node>
	<node lat="67.30535833763797" lon="13.715280550477114" id="-6212">
		<tag k="name" v="Svinøya" />
		<tag k="place" v="islet" />
		<tag k="ssr:stedsnr" v="137090" />
	</node>
	<node lat="67.36947221876125" lon="14.500644444794386" id="-6218">
		<tag k="alt_name" v="Torskjer" />
		<tag k="fixme" v="multiple name tags, choose one and add the other to alt_name; consider seamark:type=rock or natural=shoal" />
		<tag k="name" v="Torøyskjæret;Torskjæret" />
		<tag k="place" v="islet" />
		<tag k="ssr:stedsnr" v="137346" />
	</node>
	<node lat="67.39785277813526" lon="14.614555563617262" id="-6219">
		<tag k="name" v="Kappholmen" />
		<tag k="place" v="islet" />
		<tag k="ssr:stedsnr" v="137356" />
	</node>
	<node lat="67.38939999716872" lon="14.580758327690809" id="-6220">
		<tag k="fixme" v="consider seamark:type=rock or natural=shoal" />
		<tag k="name" v="Kuvan" />
		<tag k="place" v="islet" />
		<tag k="ssr:stedsnr" v="137358" />
	</node>
	<node lat="67.3940138901351" lon="14.381163887317136" id="-6221">
		<tag k="name" v="Skjåvika" />
		<tag k="natural" v="bay" />
		<tag k="ssr:stedsnr" v="137362" />
	</node>
	<node lat="67.2651361125415" lon="13.993497232669846" id="-6231">
		<tag k="fixme" v="multiple name tags, choose one and add the other to alt_name" />
		<tag k="name" v="Sanderøya;Teistholmen" />
		<tag k="place" v="islet" />
		<tag k="ssr:stedsnr" v="137297" />
	</node>
	<node lat="67.56126389260044" lon="14.445874991978792" id="-6234">
		<tag k="alt_name" v="Torgereggen" />
		<tag k="name" v="Torgeregga" />
		<tag k="natural" v="shoal" />
		<tag k="place" v="locality" />
		<tag k="ssr:stedsnr" v="137447" />
	</node>
	<node lat="67.42652500251543" lon="14.417977781218003" id="-6235">
		<tag k="fixme" v="consider seamark:type=rock or natural=shoal" />
		<tag k="name" v="Seiskjæret" />
		<tag k="place" v="islet" />
		<tag k="ssr:stedsnr" v="137454" />
	</node>
	<node lat="67.59574722055177" lon="14.682619453345186" id="-6236">
		<tag k="name" v="Flakholmsundet" />
		<tag k="natural" v="strait" />
		<tag k="ssr:stedsnr" v="137460" />
	</node>
	<node lat="67.27540555646281" lon="14.010302773234427" id="-6237">
		<tag k="name" v="Hamnvikholmen" />
		<tag k="place" v="islet" />
		<tag k="ssr:stedsnr" v="137462" />
	</node>
	<node lat="67.5451388912503" lon="14.659424997343507" id="-6238">
		<tag k="fixme" v="multiple name tags, choose one and add the other to alt_name" />
		<tag k="name" v="Hjelløykalven;Sør-Kalven" />
		<tag k="place" v="island" />
		<tag k="ssr:stedsnr" v="137467" />
	</node>
	<node lat="67.28622222226772" lon="14.021516668673604" id="-6239">
		<tag k="name" v="Kvitvarden" />
		<tag k="natural" v="cape" />
		<tag k="ssr:stedsnr" v="137469" />
	</node>
	<node lat="67.55480556032049" lon="14.538808325615328" id="-6240">
		<tag k="fixme" v="consider seamark:type=rock or natural=shoal" />
		<tag k="name" v="Litl-Lørva" />
		<tag k="place" v="islet" />
		<tag k="ssr:stedsnr" v="137473" />
	</node>
	<node lat="67.53119166969164" lon="14.592744448428306" id="-6248">
		<tag k="fixme" v="consider seamark:type=rock or natural=shoal" />
		<tag k="name" v="Husøyskjæran" />
		<tag k="place" v="islet" />
		<tag k="ssr:stedsnr" v="138491" />
	</node>
	<node lat="67.24473888478613" lon="13.956433327611732" id="-6258">
		<tag k="fixme" v="consider seamark:type=rock or natural=shoal" />
		<tag k="name" v="Trekta" />
		<tag k="place" v="islet" />
		<tag k="ssr:stedsnr" v="146409" />
	</node>
	<node lat="67.3551388922777" lon="14.156441672158039" id="-6259">
		<tag k="name" v="Ytre Langtaren" />
		<tag k="natural" v="shoal" />
		<tag k="place" v="locality" />
		<tag k="ssr:stedsnr" v="146436" />
	</node>
	<node lat="67.23044444401151" lon="14.610419436901175" id="-6273">
		<tag k="name" v="Storholmen" />
		<tag k="place" v="islet" />
		<tag k="ssr:stedsnr" v="153463" />
	</node>
	<node lat="67.40999722521305" lon="14.601811112859243" id="-6281">
		<tag k="fixme" v="consider seamark:type=rock or natural=shoal" />
		<tag k="name" v="Hesttangsjeret" />
		<tag k="place" v="islet" />
		<tag k="ssr:stedsnr" v="153831" />
	</node>
	<node lat="67.5004000003846" lon="14.682052768548406" id="-6282">
		<tag k="name" v="Lille Lamholmen" />
		<tag k="place" v="islet" />
		<tag k="ssr:stedsnr" v="153860" />
	</node>
	<node lat="67.49626944651007" lon="14.69304166155597" id="-6283">
		<tag k="name" v="Mesanden" />
		<tag k="natural" v="bay" />
		<tag k="ssr:stedsnr" v="153861" />
	</node>
	<node lat="67.55017500223434" lon="14.477713898382165" id="-6293">
		<tag k="name" v="Kjerringøybreigrunnen" />
		<tag k="natural" v="shoal" />
		<tag k="place" v="locality" />
		<tag k="ssr:stedsnr" v="154920" />
	</node>
	<node lat="67.48708333563674" lon="14.009969454415181" id="-6294">
		<tag k="name" v="Kjengskallen" />
		<tag k="natural" v="shoal" />
		<tag k="place" v="locality" />
		<tag k="ssr:stedsnr" v="155601" />
	</node>
	<node lat="67.55312222668303" lon="14.551202773560565" id="-6295">
		<tag k="name" v="Stabben" />
		<tag k="natural" v="shoal" />
		<tag k="place" v="locality" />
		<tag k="ssr:stedsnr" v="155820" />
	</node>
	<node lat="67.22756944848074" lon="14.651652771735304" id="-6296">
		<tag k="alt_name" v="Henningsvika" />
		<tag k="name" v="Henningvika" />
		<tag k="natural" v="bay" />
		<tag k="ssr:stedsnr" v="258139" />
	</node>
	<node lat="67.41985555882064" lon="13.951961118743867" id="-6297">
		<tag k="alt_name" v="Verholman" />
		<tag k="name" v="Værholman" />
		<tag k="place" v="islet" />
		<tag k="ssr:stedsnr" v="258075" />
	</node>
	<node lat="67.46921666793223" lon="14.430130551998234" id="-6298">
		<tag k="alt_name" v="Skallen, midtre" />
		<tag k="name" v="Midterskallen" />
		<tag k="natural" v="shoal" />
		<tag k="place" v="locality" />
		<tag k="ssr:stedsnr" v="258480" />
	</node>
	<node lat="67.2553638891713" lon="13.910477770535055" id="-6299">
		<tag k="fixme" v="consider seamark:type=rock or natural=shoal" />
		<tag k="name" v="Sasponen" />
		<tag k="place" v="islet" />
		<tag k="ssr:stedsnr" v="258483" />
	</node>
	<node lat="67.26471111385602" lon="14.049444440597002" id="-6300">
		<tag k="fixme" v="consider seamark:type=rock or natural=shoal" />
		<tag k="name" v="Skinnbrokskjæret" />
		<tag k="place" v="islet" />
		<tag k="ssr:stedsnr" v="258485" />
	</node>
	<node lat="67.26641388612666" lon="14.033130548101314" id="-6301">
		<tag k="fixme" v="consider seamark:type=rock or natural=shoal" />
		<tag k="name" v="Komlingan" />
		<tag k="place" v="islet" />
		<tag k="ssr:stedsnr" v="258487" />
	</node>
	<node lat="67.49492500293518" lon="14.69783055201845" id="-6302">
		<tag k="alt_name" v="Kroksviken" />
		<tag k="fixme" v="multiple name tags, choose one and add the other to alt_name" />
		<tag k="name" v="Lysvika;Kroksvika" />
		<tag k="natural" v="bay" />
		<tag k="ssr:stedsnr" v="258489" />
	</node>
	<node lat="67.38878611402795" lon="14.384005545703738" id="-6308">
		<tag k="fixme" v="multiple name tags, choose one and add the other to alt_name" />
		<tag k="name" v="Trøholmen;Korsholmen" />
		<tag k="place" v="islet" />
		<tag k="ssr:stedsnr" v="258388" />
	</node>
	<node lat="67.60523332898089" lon="14.684480556420295" id="-6309">
		<tag k="name" v="Ingerøya" />
		<tag k="place" v="island" />
		<tag k="ssr:stedsnr" v="258430" />
	</node>
	<node lat="67.6107722257505" lon="14.71658056312432" id="-6310">
		<tag k="fixme" v="consider seamark:type=rock or natural=shoal" />
		<tag k="name" v="Kløftskjæret" />
		<tag k="place" v="islet" />
		<tag k="ssr:stedsnr" v="258432" />
	</node>
	<node lat="67.24049722672585" lon="14.825741656941169" id="-6311">
		<tag k="name" v="Kvalnesodden" />
		<tag k="natural" v="cape" />
		<tag k="ssr:stedsnr" v="258638" />
	</node>
	<node lat="67.29645555650592" lon="14.328794447000345" id="-6314">
		<tag k="alt_name" v="Hjartøya, store" />
		<tag k="name" v="Store Hjartøya" />
		<tag k="place" v="island" />
		<tag k="ssr:stedsnr" v="258723" />
	</node>
	<node lat="67.20006666979504" lon="15.271669444345957" id="-6317">
		<tag k="name" v="Storvika" />
		<tag k="natural" v="bay" />
		<tag k="ssr:stedsnr" v="258964" />
	</node>
	<node lat="67.5417333371626" lon="14.839691656664971" id="-6318">
		<tag k="name" v="Tranvika" />
		<tag k="natural" v="bay" />
		<tag k="ssr:stedsnr" v="259083" />
	</node>
	<node lat="67.3072777807534" lon="14.010913898899961" id="-6321">
		<tag k="alt_name" v="Kviga, store" />
		<tag k="fixme" v="multiple name tags, choose one and add the other to alt_name; consider seamark:type=rock or natural=shoal" />
		<tag k="name" v="Kvia;Store Kviga" />
		<tag k="place" v="islet" />
		<tag k="ssr:stedsnr" v="259016" />
	</node>
	<node lat="67.31677777758343" lon="14.056127770504158" id="-6322">
		<tag k="name" v="Terra" />
		<tag k="place" v="island" />
		<tag k="ssr:stedsnr" v="259020" />
	</node>
	<node lat="67.31785555718338" lon="14.16546111548698" id="-6323">
		<tag k="name" v="Gammøya" />
		<tag k="place" v="island" />
		<tag k="ssr:stedsnr" v="259021" />
	</node>
	<node lat="67.31704722594688" lon="14.054158333638165" id="-6324">
		<tag k="alt_name" v="Sanderøya, store" />
		<tag k="name" v="Store Sanderøya" />
		<tag k="place" v="islet" />
		<tag k="ssr:stedsnr" v="259023" />
	</node>
	<node lat="67.380536109514" lon="13.878133332558797" id="-6325">
		<tag k="fixme" v="consider seamark:type=rock or natural=shoal" />
		<tag k="name" v="Valøyskjæret" />
		<tag k="place" v="islet" />
		<tag k="ssr:stedsnr" v="259025" />
	</node>
	<node lat="67.38115833359173" lon="14.212263898882329" id="-6326">
		<tag k="alt_name" v="Skollerøya, store" />
		<tag k="fixme" v="multiple name tags, choose one and add the other to alt_name" />
		<tag k="name" v="Skollerøya;Store Skollerøya" />
		<tag k="place" v="island" />
		<tag k="ssr:stedsnr" v="259035" />
	</node>
	<node lat="67.39606666563665" lon="14.197830547877338" id="-6327">
		<tag k="alt_name" v="Fonten" />
		<tag k="name" v="Fanten" />
		<tag k="place" v="islet" />
		<tag k="ssr:stedsnr" v="259043" />
	</node>
	<node lat="67.17694722488588" lon="14.368066663316986" id="-6329">
		<tag k="alt_name" v="Langnes" />
		<tag k="name" v="Langnesodden" />
		<tag k="natural" v="cape" />
		<tag k="ssr:stedsnr" v="259144" />
	</node>
	<node lat="67.44379722398945" lon="14.073491675922051" id="-6330">
		<tag k="name" v="Slupsholman" />
		<tag k="place" v="islet" />
		<tag k="ssr:stedsnr" v="259090" />
	</node>
	<node lat="67.43546389053787" lon="13.931383326856146" id="-6331">
		<tag k="fixme" v="consider seamark:type=rock or natural=shoal" />
		<tag k="name" v="Færøygrunnskjæran" />
		<tag k="place" v="islet" />
		<tag k="ssr:stedsnr" v="259092" />
	</node>
	<node lat="67.29603055194481" lon="13.611674998861137" id="-6332">
		<tag k="name" v="Yttermesjøen" />
		<tag k="natural" v="shoal" />
		<tag k="place" v="locality" />
		<tag k="ssr:stedsnr" v="259095" />
	</node>
	<node lat="67.29914444756956" lon="13.568288889129342" id="-6333">
		<tag k="fixme" v="consider seamark:type=rock or natural=shoal" />
		<tag k="name" v="Ausa" />
		<tag k="place" v="islet" />
		<tag k="ssr:stedsnr" v="259100" />
	</node>
	<node lat="67.2701666677565" lon="13.941166662470202" id="-6340">
		<tag k="name" v="Vestervågen" />
		<tag k="natural" v="bay" />
		<tag k="ssr:stedsnr" v="259469" />
	</node>
	<node lat="67.52551944391884" lon="14.587708327585407" id="-6341">
		<tag k="name" v="Husøya" />
		<tag k="place" v="island" />
		<tag k="ssr:stedsnr" v="259480" />
	</node>
	<node lat="67.33920555655868" lon="14.49148332567412" id="-6342">
		<tag k="alt_name" v="Mauren, l" />
		<tag k="name" v="Lillemauren" />
		<tag k="place" v="islet" />
		<tag k="ssr:stedsnr" v="259331" />
	</node>
	<node lat="67.37424999873478" lon="14.226911108635184" id="-6344">
		<tag k="alt_name" v="Juvika, l;Littj-Juvika" />
		<tag k="name" v="Litle Juvika" />
		<tag k="natural" v="bay" />
		<tag k="ssr:stedsnr" v="259343" />
	</node>
	<node lat="67.37723610863378" lon="14.243819445176552" id="-6345">
		<tag k="alt_name" v="Arhulvika" />
		<tag k="name" v="Arkulvika" />
		<tag k="natural" v="bay" />
		<tag k="ssr:stedsnr" v="259345" />
	</node>
	<node lat="67.17996111452327" lon="14.55081666547208" id="-6346">
		<tag k="name" v="Mølnbukta" />
		<tag k="natural" v="bay" />
		<tag k="ssr:stedsnr" v="259430" />
	</node>
	<node lat="67.43800555562319" lon="14.356761120401279" id="-6349">
		<tag k="name" v="Høgsetvika" />
		<tag k="natural" v="bay" />
		<tag k="ssr:stedsnr" v="259435" />
	</node>
	<node lat="67.424175003568" lon="14.307038898163194" id="-6350">
		<tag k="alt_name" v="Juldagan" />
		<tag k="name" v="Juldagen" />
		<tag k="natural" v="cape" />
		<tag k="ssr:stedsnr" v="259437" />
	</node>
	<node lat="67.42588889264917" lon="14.408958340348926" id="-6356">
		<tag k="name" v="Langnesodden" />
		<tag k="natural" v="cape" />
		<tag k="ssr:stedsnr" v="162117" />
	</node>
	<node lat="67.27546389303932" lon="13.993852785716275" id="-6357">
		<tag k="name" v="Brattstøvågen" />
		<tag k="natural" v="bay" />
		<tag k="ssr:stedsnr" v="162125" />
	</node>
	<node lat="67.27079721834501" lon="13.98759999739295" id="-6358">
		<tag k="name" v="Kraksøya" />
		<tag k="place" v="island" />
		<tag k="ssr:stedsnr" v="162148" />
	</node>
	<node lat="67.18021111059284" lon="14.541258328900195" id="-6362">
		<tag k="name" v="Elbenes" />
		<tag k="natural" v="cape" />
		<tag k="ssr:stedsnr" v="162311" />
	</node>
	<node lat="67.40893055484678" lon="14.273633325336348" id="-6363">
		<tag k="name" v="Nord-kortvika" />
		<tag k="natural" v="bay" />
		<tag k="ssr:stedsnr" v="162098" />
	</node>
	<node lat="67.49543888667485" lon="15.009152770951653" id="-6368">
		<tag k="fixme" v="consider seamark:type=rock or natural=shoal" />
		<tag k="name" v="Skarvsteinen" />
		<tag k="place" v="islet" />
		<tag k="ssr:stedsnr" v="162214" />
	</node>
	<node lat="67.25339444184817" lon="14.308680560051798" id="-6369">
		<tag k="fixme" v="consider seamark:type=rock or natural=shoal" />
		<tag k="name" v="Skagskjæran" />
		<tag k="place" v="islet" />
		<tag k="ssr:stedsnr" v="259631" />
	</node>
	<node lat="67.4542444419605" lon="15.054513880706622" id="-6372">
		<tag k="name" v="Sørbukta" />
		<tag k="natural" v="bay" />
		<tag k="ssr:stedsnr" v="259649" />
	</node>
	<node lat="67.22061111232293" lon="15.211852783613761" id="-6373">
		<tag k="name" v="Kjettneset" />
		<tag k="natural" v="cape" />
		<tag k="ssr:stedsnr" v="259660" />
	</node>
	<node lat="67.41043055803277" lon="13.929113898055752" id="-6374">
		<tag k="name" v="Øksnøyholman" />
		<tag k="place" v="islet" />
		<tag k="ssr:stedsnr" v="162820" />
	</node>
	<node lat="67.39858333114304" lon="13.870622214921342" id="-6375">
		<tag k="name" v="Tjønnøya" />
		<tag k="place" v="island" />
		<tag k="ssr:stedsnr" v="162856" />
	</node>
	<node lat="67.28177222108313" lon="14.331177788208665" id="-6379">
		<tag k="name" v="Eholmen" />
		<tag k="place" v="islet" />
		<tag k="ssr:stedsnr" v="259685" />
	</node>
	<node lat="67.29056944760758" lon="14.651066661659508" id="-6382">
		<tag k="fixme" v="consider seamark:type=rock or natural=shoal" />
		<tag k="name" v="Storskjæret" />
		<tag k="place" v="islet" />
		<tag k="ssr:stedsnr" v="259690" />
	</node>
	<node lat="67.21513055102821" lon="14.963416670974075" id="-6383">
		<tag k="alt_name" v="Sandøya, l" />
		<tag k="fixme" v="multiple name tags, choose one and add the other to alt_name" />
		<tag k="name" v="Litle Sandøya;Lilleøya" />
		<tag k="place" v="island" />
		<tag k="ssr:stedsnr" v="259695" />
	</node>
	<node lat="67.26384444579524" lon="14.291852766529875" id="-6386">
		<tag k="name" v="Røssøya" />
		<tag k="place" v="islet" />
		<tag k="ssr:stedsnr" v="259718" />
	</node>
	<node lat="67.18406666391688" lon="14.93894444729944" id="-6391">
		<tag k="name" v="Ursetodden" />
		<tag k="natural" v="cape" />
		<tag k="ssr:stedsnr" v="259739" />
	</node>
	<node lat="67.2575138862634" lon="14.698149987885442" id="-6392">
		<tag k="fixme" v="multiple name tags, choose one and add the other to alt_name" />
		<tag k="name" v="Kvitnesodden;Storsandvikodden;Sandvikodden" />
		<tag k="natural" v="cape" />
		<tag k="ssr:stedsnr" v="259740" />
	</node>
	<node lat="67.25618333147615" lon="14.697333340671848" id="-6393">
		<tag k="alt_name" v="Sandvika, store" />
		<tag k="name" v="Storsandvika" />
		<tag k="natural" v="bay" />
		<tag k="ssr:stedsnr" v="259742" />
	</node>
	<node lat="67.21564444011004" lon="14.7006194466846" id="-6394">
		<tag k="alt_name" v="Bunesodden" />
		<tag k="name" v="Buneset" />
		<tag k="natural" v="cape" />
		<tag k="ssr:stedsnr" v="163718" />
	</node>
	<node lat="67.2866472202335" lon="14.716605564848555" id="-6395">
		<tag k="name" v="Oddholmen" />
		<tag k="place" v="islet" />
		<tag k="ssr:stedsnr" v="259746" />
	</node>
	<node lat="67.51594999913122" lon="14.740411116670845" id="-6404">
		<tag k="name" v="Kårholmen" />
		<tag k="place" v="islet" />
		<tag k="ssr:stedsnr" v="260181" />
	</node>
	<node lat="67.37615555208232" lon="14.494797217715766" id="-6408">
		<tag k="fixme" v="consider seamark:type=rock or natural=shoal" />
		<tag k="name" v="Svartskjæret" />
		<tag k="place" v="islet" />
		<tag k="ssr:stedsnr" v="176258" />
	</node>
	<node lat="67.2018111138556" lon="14.525905567616483" id="-6416">
		<tag k="name" v="Lille Gyltvik" />
		<tag k="natural" v="bay" />
		<tag k="ssr:stedsnr" v="177267" />
	</node>
	<node lat="67.29228055167317" lon="14.915838878627111" id="-6434">
		<tag k="name" v="Sandvika" />
		<tag k="natural" v="bay" />
		<tag k="ssr:stedsnr" v="263428" />
	</node>
	<node lat="67.29958055600544" lon="14.994636115305925" id="-6436">
		<tag k="name" v="Mjønesosen" />
		<tag k="natural" v="bay" />
		<tag k="ssr:stedsnr" v="263649" />
	</node>
	<node lat="67.30319166941088" lon="14.997455567595763" id="-6440">
		<tag k="fixme" v="consider seamark:type=rock or natural=shoal" />
		<tag k="name" v="Kobbskjæran" />
		<tag k="place" v="islet" />
		<tag k="ssr:stedsnr" v="263667" />
	</node>
	<node lat="67.3060333313721" lon="15.003511109114722" id="-6441">
		<tag k="name" v="Mariholmen" />
		<tag k="place" v="islet" />
		<tag k="ssr:stedsnr" v="263668" />
	</node>
	<node lat="67.39359722362069" lon="14.373133322638619" id="-6446">
		<tag k="name" v="Holmen" />
		<tag k="place" v="islet" />
		<tag k="ssr:stedsnr" v="267353" />
	</node>
	<node lat="67.41242778133855" lon="14.261697219254554" id="-6447">
		<tag k="name" v="Kalvøytaran" />
		<tag k="place" v="locality" />
		<tag k="seamark:type" v="rock" />
		<tag k="ssr:stedsnr" v="267356" />
	</node>
	<node lat="67.44648611182554" lon="14.648841665928352" id="-6448">
		<tag k="name" v="Kvannholmskallan" />
		<tag k="place" v="locality" />
		<tag k="seamark:type" v="rock" />
		<tag k="ssr:stedsnr" v="267362" />
	</node>
	<node lat="67.45791110843294" lon="14.686541659980975" id="-6449">
		<tag k="fixme" v="consider seamark:type=rock or natural=shoal" />
		<tag k="name" v="Øyskjæret" />
		<tag k="place" v="islet" />
		<tag k="ssr:stedsnr" v="267366" />
	</node>
	<node lat="67.37089166485505" lon="14.556466677122808" id="-6450">
		<tag k="name" v="Namsosgrunnen" />
		<tag k="natural" v="shoal" />
		<tag k="place" v="locality" />
		<tag k="ssr:stedsnr" v="267371" />
	</node>
	<node lat="67.31501110973088" lon="14.169438886371214" id="-6452">
		<tag k="name" v="Tjønnøya" />
		<tag k="place" v="islet" />
		<tag k="ssr:stedsnr" v="198002" />
	</node>
	<node lat="67.4358416659" lon="14.084183334716206" id="-6457">
		<tag k="name" v="Mannholmen" />
		<tag k="place" v="islet" />
		<tag k="ssr:stedsnr" v="198071" />
	</node>
	<node lat="67.45993333308567" lon="14.039316675053117" id="-6462">
		<tag k="name" v="Skarvan" />
		<tag k="place" v="islet" />
		<tag k="ssr:stedsnr" v="198083" />
	</node>
	<node lat="67.2198305524867" lon="14.69448054313074" id="-6468">
		<tag k="bay" v="fjord" />
		<tag k="name" v="Svefjorden" />
		<tag k="natural" v="bay" />
		<tag k="ssr:stedsnr" v="198105" />
	</node>
	<node lat="67.4587638866864" lon="14.073783339368502" id="-6469">
		<tag k="alt_name" v="Kvannøya, store" />
		<tag k="fixme" v="multiple name tags, choose one and add the other to alt_name" />
		<tag k="name" v="Kvannøya;Store Kvannøya" />
		<tag k="place" v="islet" />
		<tag k="ssr:stedsnr" v="198106" />
	</node>
	<node lat="67.46215833558115" lon="14.066233341674822" id="-6470">
		<tag k="fixme" v="consider seamark:type=rock or natural=shoal" />
		<tag k="name" v="Godfarskjæret" />
		<tag k="place" v="islet" />
		<tag k="ssr:stedsnr" v="198108" />
	</node>
	<node lat="67.31874999745676" lon="13.542713883622682" id="-6471">
		<tag k="fixme" v="consider seamark:type=rock or natural=shoal" />
		<tag k="name" v="Store Lysbøskjæret" />
		<tag k="place" v="islet" />
		<tag k="ssr:stedsnr" v="198115" />
	</node>
	<node lat="67.38288055582683" lon="14.614930559027988" id="-6472">
		<tag k="alt_name" v="Buholmen, store" />
		<tag k="fixme" v="multiple name tags, choose one and add the other to alt_name" />
		<tag k="name" v="Buholmen;Store Buholmen" />
		<tag k="natural" v="cape" />
		<tag k="ssr:stedsnr" v="198314" />
	</node>
	<node lat="67.37571666870035" lon="14.296936111205765" id="-6473">
		<tag k="fixme" v="consider seamark:type=rock or natural=shoal" />
		<tag k="name" v="Flatskjæret" />
		<tag k="place" v="islet" />
		<tag k="ssr:stedsnr" v="198317" />
	</node>
	<node lat="67.37713332947696" lon="14.519052783846819" id="-6474">
		<tag k="name" v="Sanderøya" />
		<tag k="place" v="islet" />
		<tag k="ssr:stedsnr" v="198324" />
	</node>
	<node lat="67.40124722143307" lon="14.25458056260171" id="-6476">
		<tag k="name" v="Småholman" />
		<tag k="place" v="islet" />
		<tag k="ssr:stedsnr" v="198411" />
	</node>
	<node lat="67.59235833590158" lon="14.65033334420102" id="-6477">
		<tag k="name" v="Sloværsklubben" />
		<tag k="place" v="islet" />
		<tag k="ssr:stedsnr" v="198415" />
	</node>
	<node lat="67.59187222109006" lon="14.700130554998452" id="-6479">
		<tag k="name" v="Flagholmen" />
		<tag k="place" v="islet" />
		<tag k="ssr:stedsnr" v="198456" />
	</node>
	<node lat="67.27660000420725" lon="13.970419441375897" id="-6480">
		<tag k="name" v="Breiosen" />
		<tag k="natural" v="bay" />
		<tag k="ssr:stedsnr" v="198457" />
	</node>
	<node lat="67.28359722213584" lon="14.102105559634758" id="-6483">
		<tag k="name" v="Flesan" />
		<tag k="place" v="islet" />
		<tag k="ssr:stedsnr" v="198467" />
	</node>
	<node lat="67.55406666366976" lon="14.600002787958749" id="-6484">
		<tag k="name" v="Grønholmsundet" />
		<tag k="natural" v="strait" />
		<tag k="ssr:stedsnr" v="198469" />
	</node>
	<node lat="67.4711305537759" lon="14.411188888040822" id="-6485">
		<tag k="alt_name" v="Skallen, yt" />
		<tag k="name" v="Ytterskallen" />
		<tag k="natural" v="shoal" />
		<tag k="place" v="locality" />
		<tag k="ssr:stedsnr" v="198473" />
	</node>
	<node lat="67.4740749998061" lon="14.41324443277259" id="-6486">
		<tag k="alt_name" v="Skallen, l" />
		<tag k="name" v="Litl Skallen" />
		<tag k="natural" v="shoal" />
		<tag k="place" v="locality" />
		<tag k="ssr:stedsnr" v="198474" />
	</node>
	<node lat="67.47020000253933" lon="14.649299992299666" id="-6487">
		<tag k="name" v="Hårkallholmen" />
		<tag k="place" v="islet" />
		<tag k="ssr:stedsnr" v="198475" />
	</node>
	<node lat="67.23833888538341" lon="14.990572226868554" id="-6490">
		<tag k="name" v="Ljønesgradden" />
		<tag k="natural" v="cape" />
		<tag k="ssr:stedsnr" v="198620" />
	</node>
	<node lat="67.22916944201185" lon="14.843975004604687" id="-6492">
		<tag k="name" v="Krakvika" />
		<tag k="natural" v="bay" />
		<tag k="ssr:stedsnr" v="198627" />
	</node>
	<node lat="67.39100555765465" lon="14.2270194473659" id="-6496">
		<tag k="fixme" v="multiple name tags, choose one and add the other to alt_name" />
		<tag k="name" v="Sandholman;Månen" />
		<tag k="place" v="islet" />
		<tag k="ssr:stedsnr" v="198357" />
	</node>
	<node lat="67.38759444162747" lon="14.454416658077614" id="-6498">
		<tag k="alt_name" v="Sveen" />
		<tag k="fixme" v="consider seamark:type=rock or natural=shoal" />
		<tag k="name" v="Svean" />
		<tag k="place" v="islet" />
		<tag k="ssr:stedsnr" v="198362" />
	</node>
	<node lat="67.16179722337722" lon="14.891011116183906" id="-6500">
		<tag k="name" v="Beinvika" />
		<tag k="natural" v="bay" />
		<tag k="ssr:stedsnr" v="198506" />
	</node>
	<node lat="67.29127778173374" lon="14.38113610165151" id="-6503">
		<tag k="name" v="Burøya" />
		<tag k="natural" v="cape" />
		<tag k="ssr:stedsnr" v="198702" />
	</node>
	<node lat="67.290791669757" lon="14.347474990869522" id="-6504">
		<tag k="name" v="Samuelsvika" />
		<tag k="natural" v="bay" />
		<tag k="ssr:stedsnr" v="198705" />
	</node>
	<node lat="67.5298333301564" lon="14.440188898119985" id="-6512">
		<tag k="name" v="Storskallen" />
		<tag k="natural" v="shoal" />
		<tag k="place" v="locality" />
		<tag k="ssr:stedsnr" v="199455" />
	</node>
	<node lat="67.39977500095617" lon="14.842275009515046" id="-6522">
		<tag k="name" v="Nordvika" />
		<tag k="natural" v="bay" />
		<tag k="ssr:stedsnr" v="202597" />
	</node>
	<node lat="67.40473333764176" lon="14.856155550076402" id="-6523">
		<tag k="fixme" v="consider seamark:type=rock or natural=shoal" />
		<tag k="name" v="Skjæran" />
		<tag k="place" v="islet" />
		<tag k="ssr:stedsnr" v="202599" />
	</node>
	<node lat="67.26795277918123" lon="14.009102777723408" id="-6525">
		<tag k="name" v="Tossholman" />
		<tag k="place" v="islet" />
		<tag k="ssr:stedsnr" v="268263" />
	</node>
	<node lat="67.2077333367098" lon="14.347644434456097" id="-6538">
		<tag k="fixme" v="consider seamark:type=rock or natural=shoal" />
		<tag k="name" v="Rotsteinen" />
		<tag k="place" v="islet" />
		<tag k="ssr:stedsnr" v="207344" />
	</node>
	<node lat="67.19830555801063" lon="15.276719452481524" id="-6540">
		<tag k="name" v="Matvika" />
		<tag k="natural" v="bay" />
		<tag k="ssr:stedsnr" v="207607" />
	</node>
	<node lat="67.56992499564434" lon="14.994650002733033" id="-6545">
		<tag k="name" v="Kroken" />
		<tag k="natural" v="bay" />
		<tag k="ssr:stedsnr" v="269057" />
	</node>
	<node lat="67.38168888843504" lon="14.565888882449054" id="-6549">
		<tag k="fixme" v="consider seamark:type=rock or natural=shoal" />
		<tag k="name" v="Vågøyskaftet" />
		<tag k="place" v="islet" />
		<tag k="ssr:stedsnr" v="214015" />
	</node>
	<node lat="67.29154166678879" lon="14.854605557602406" id="-6553">
		<tag k="fixme" v="consider seamark:type=rock or natural=shoal" />
		<tag k="name" v="Koløyskjæret" />
		<tag k="place" v="islet" />
		<tag k="ssr:stedsnr" v="214115" />
	</node>
	<node lat="67.27848055305883" lon="14.595788885233079" id="-6555">
		<tag k="name" v="Mattisstøa" />
		<tag k="natural" v="bay" />
		<tag k="ssr:stedsnr" v="214328" />
	</node>
	<node lat="67.26653055640246" lon="14.822786108538917" id="-6556">
		<tag k="name" v="Langstranda" />
		<tag k="natural" v="beach" />
		<tag k="ssr:stedsnr" v="214507" />
	</node>
	<node lat="67.26114166452335" lon="14.779783342099282" id="-6560">
		<tag k="name" v="Gangstø" />
		<tag k="natural" v="beach" />
		<tag k="ssr:stedsnr" v="214514" />
	</node>
	<node lat="67.2877444463022" lon="14.368633337787214" id="-6562">
		<tag k="name" v="Nyholmen" />
		<tag k="place" v="islet" />
		<tag k="ssr:stedsnr" v="214483" />
	</node>
	<node lat="67.26582500015508" lon="14.308663895354822" id="-6563">
		<tag k="name" v="Røssøyleia" />
		<tag k="natural" v="strait" />
		<tag k="ssr:stedsnr" v="214484" />
	</node>
	<node lat="67.2814055599742" lon="14.371305555681698" id="-6566">
		<tag k="name" v="Molobukta" />
		<tag k="natural" v="bay" />
		<tag k="ssr:stedsnr" v="214492" />
	</node>
	<node lat="67.52427500200965" lon="14.762533337355476" id="-6570">
		<tag k="name" v="Galgodden" />
		<tag k="natural" v="cape" />
		<tag k="ssr:stedsnr" v="214874" />
	</node>
	<node lat="67.51852500422713" lon="14.751288890415058" id="-6573">
		<tag k="fixme" v="consider seamark:type=rock or natural=shoal" />
		<tag k="name" v="Smiskjæret" />
		<tag k="place" v="islet" />
		<tag k="ssr:stedsnr" v="214887" />
	</node>
	<node lat="67.52075833114013" lon="14.733224989970678" id="-6574">
		<tag k="fixme" v="consider seamark:type=rock or natural=shoal" />
		<tag k="name" v="Lillebranddalk" />
		<tag k="place" v="islet" />
		<tag k="ssr:stedsnr" v="214892" />
	</node>
	<node lat="67.29003611036393" lon="14.38096944411372" id="-6578">
		<tag k="name" v="Kvitberget" />
		<tag k="natural" v="cape" />
		<tag k="ssr:stedsnr" v="215580" />
	</node>
	<node lat="67.5239277759882" lon="14.471541668951636" id="-6580">
		<tag k="name" v="Indre Holmskallen" />
		<tag k="natural" v="shoal" />
		<tag k="place" v="locality" />
		<tag k="ssr:stedsnr" v="215929" />
	</node>
	<node lat="67.26519999671085" lon="13.974988893967549" id="-6584">
		<tag k="name" v="Ytter-Sanderøya" />
		<tag k="place" v="islet" />
		<tag k="ssr:stedsnr" v="223193" />
	</node>
	<node lat="67.41858888556624" lon="13.932458335145556" id="-6586">
		<tag k="fixme" v="consider seamark:type=rock or natural=shoal" />
		<tag k="name" v="Hestøyskjæret" />
		<tag k="place" v="islet" />
		<tag k="ssr:stedsnr" v="223833" />
	</node>
	<node lat="67.29406389182877" lon="14.697041676961115" id="-6587">
		<tag k="fixme" v="consider seamark:type=rock or natural=shoal" />
		<tag k="name" v="Mefallskjæret" />
		<tag k="place" v="islet" />
		<tag k="ssr:stedsnr" v="225727" />
	</node>
	<node lat="67.22926111469903" lon="14.996319455226136" id="-6588">
		<tag k="name" v="Grytgrunnen" />
		<tag k="natural" v="shoal" />
		<tag k="place" v="locality" />
		<tag k="ssr:stedsnr" v="225629" />
	</node>
	<node lat="67.21797777415485" lon="15.237383323154694" id="-6596">
		<tag k="name" v="Nedneset" />
		<tag k="natural" v="cape" />
		<tag k="ssr:stedsnr" v="449995" />
	</node>
	<node lat="67.18268333160204" lon="14.569286104345327" id="-6610">
		<tag k="name" v="Mikkelosen" />
		<tag k="natural" v="bay" />
		<tag k="ssr:stedsnr" v="238405" />
	</node>
	<node lat="67.20337221781762" lon="14.623708339362315" id="-6612">
		<tag k="name" v="Trodalsneset" />
		<tag k="natural" v="cape" />
		<tag k="ssr:stedsnr" v="238411" />
	</node>
	<node lat="67.36864166931785" lon="14.517011121848885" id="-6618">
		<tag k="fixme" v="consider seamark:type=rock or natural=shoal" />
		<tag k="name" v="Litl-Klubbskjæret" />
		<tag k="place" v="islet" />
		<tag k="ssr:stedsnr" v="238312" />
	</node>
	<node lat="67.55849444811506" lon="14.653355551097635" id="-6626">
		<tag k="fixme" v="consider seamark:type=rock or natural=shoal" />
		<tag k="name" v="Tørrkjerringa" />
		<tag k="place" v="islet" />
		<tag k="ssr:stedsnr" v="238702" />
	</node>
	<node lat="67.2040694431676" lon="14.516216657623458" id="-6635">
		<tag k="alt_name" v="Evjeholet" />
		<tag k="name" v="Evjesundet" />
		<tag k="natural" v="strait" />
		<tag k="ssr:stedsnr" v="258104" />
	</node>
	<node lat="67.21338055629879" lon="14.362161113571513" id="-6639">
		<tag k="fixme" v="consider seamark:type=rock or natural=shoal" />
		<tag k="name" v="Gåsskjæret" />
		<tag k="place" v="islet" />
		<tag k="ssr:stedsnr" v="258136" />
	</node>
	<node lat="67.42956666775726" lon="13.9141944436799" id="-6644">
		<tag k="name" v="Flatholmen" />
		<tag k="place" v="islet" />
		<tag k="ssr:stedsnr" v="258096" />
	</node>
	<node lat="67.27282777363301" lon="14.019919449313408" id="-6650">
		<tag k="name" v="Lamholmen" />
		<tag k="place" v="islet" />
		<tag k="ssr:stedsnr" v="258463" />
	</node>
	<node lat="67.2693555561541" lon="14.021477786789724" id="-6651">
		<tag k="alt_name" v="Tåsholmen, n" />
		<tag k="name" v="Nordre Tåsholmen" />
		<tag k="place" v="islet" />
		<tag k="ssr:stedsnr" v="258469" />
	</node>
	<node lat="67.48663055137521" lon="14.653711110266501" id="-6652">
		<tag k="name" v="Vardholmen" />
		<tag k="place" v="islet" />
		<tag k="ssr:stedsnr" v="258475" />
	</node>
	<node lat="67.47399722126134" lon="14.64422499556375" id="-6653">
		<tag k="name" v="Stegerøya" />
		<tag k="place" v="island" />
		<tag k="ssr:stedsnr" v="258479" />
	</node>
	<node lat="67.257388888293" lon="14.329027771445437" id="-6656">
		<tag k="name" v="Melkvika" />
		<tag k="natural" v="bay" />
		<tag k="ssr:stedsnr" v="258666" />
	</node>
	<node lat="67.31136944610903" lon="14.062763898039247" id="-6659">
		<tag k="name" v="Blåmåsøya" />
		<tag k="place" v="islet" />
		<tag k="ssr:stedsnr" v="259004" />
	</node>
	<node lat="67.29846388500832" lon="14.137919435778821" id="-6660">
		<tag k="fixme" v="consider seamark:type=rock or natural=shoal" />
		<tag k="name" v="Kvitingskjæran" />
		<tag k="place" v="islet" />
		<tag k="ssr:stedsnr" v="259006" />
	</node>
	<node lat="67.33185000034727" lon="14.178397213179382" id="-6661">
		<tag k="fixme" v="consider seamark:type=rock or natural=shoal" />
		<tag k="name" v="Skarvskjæran" />
		<tag k="place" v="islet" />
		<tag k="ssr:stedsnr" v="259010" />
	</node>
	<node lat="67.31746944596726" lon="13.73481110092354" id="-6662">
		<tag k="alt_name" v="Flatskjeret" />
		<tag k="fixme" v="multiple name tags, choose one and add the other to alt_name; consider seamark:type=rock or natural=shoal" />
		<tag k="name" v="Flatskjæret;Trollskjæret" />
		<tag k="place" v="islet" />
		<tag k="ssr:stedsnr" v="259012" />
	</node>
	<node lat="67.59214444365477" lon="15.047413882370098" id="-6665">
		<tag k="name" v="Finnkonvika" />
		<tag k="natural" v="bay" />
		<tag k="ssr:stedsnr" v="259057" />
	</node>
	<node lat="67.58387222298146" lon="14.987522224863458" id="-6666">
		<tag k="name" v="Storviksanden" />
		<tag k="natural" v="beach" />
		<tag k="ssr:stedsnr" v="259059" />
	</node>
	<node lat="67.43765277591099" lon="14.072930543932875" id="-6667">
		<tag k="fixme" v="consider seamark:type=rock or natural=shoal" />
		<tag k="name" v="Lisbetskjæret" />
		<tag k="place" v="islet" />
		<tag k="ssr:stedsnr" v="259060" />
	</node>
	<node lat="67.43465555542367" lon="14.056625000669422" id="-6668">
		<tag k="fixme" v="consider seamark:type=rock or natural=shoal" />
		<tag k="name" v="Jakobskjæret" />
		<tag k="place" v="islet" />
		<tag k="ssr:stedsnr" v="259061" />
	</node>
	<node lat="67.20328055845671" lon="14.579511109524534" id="-6672">
		<tag k="name" v="Yttervika" />
		<tag k="natural" v="bay" />
		<tag k="ssr:stedsnr" v="259077" />
	</node>
	<node lat="67.56157778158263" lon="14.896113884365336" id="-6677">
		<tag k="name" v="Låter" />
		<tag k="natural" v="beach" />
		<tag k="ssr:stedsnr" v="259102" />
	</node>
	<node lat="67.57707778175764" lon="15.020900008156648" id="-6678">
		<tag k="name" v="Størkvika" />
		<tag k="natural" v="bay" />
		<tag k="ssr:stedsnr" v="259106" />
	</node>
	<node lat="67.55980277554846" lon="15.034508333642608" id="-6679">
		<tag k="bay" v="fjord" />
		<tag k="name" v="Eidekjosen" />
		<tag k="natural" v="bay" />
		<tag k="ssr:stedsnr" v="259108" />
	</node>
	<node lat="67.3024194407174" lon="13.498788894963875" id="-6681">
		<tag k="alt_name" v="Tennholmen, l" />
		<tag k="name" v="Litle Tennholmen" />
		<tag k="place" v="islet" />
		<tag k="ssr:stedsnr" v="259119" />
	</node>
	<node lat="67.30293055752358" lon="13.50440277096788" id="-6682">
		<tag k="alt_name" v="Tennholmen, l" />
		<tag k="name" v="Litle Tennholmen" />
		<tag k="place" v="islet" />
		<tag k="ssr:stedsnr" v="259121" />
	</node>
	<node lat="67.30201110908867" lon="13.491566667914832" id="-6684">
		<tag k="name" v="Vomma" />
		<tag k="place" v="islet" />
		<tag k="ssr:stedsnr" v="259123" />
	</node>
	<node lat="67.33425000197113" lon="14.489588894714359" id="-6686">
		<tag k="name" v="Storausa" />
		<tag k="natural" v="bay" />
		<tag k="ssr:stedsnr" v="259256" />
	</node>
	<node lat="67.41304166476236" lon="14.246397227149883" id="-6691">
		<tag k="fixme" v="consider seamark:type=rock or natural=shoal" />
		<tag k="name" v="Nattmålsskjæret" />
		<tag k="place" v="islet" />
		<tag k="ssr:stedsnr" v="259404" />
	</node>
	<node lat="67.17576388871994" lon="14.348138885178066" id="-6694">
		<tag k="alt_name" v="Skånlandssundet" />
		<tag k="name" v="Skånlandsundet" />
		<tag k="natural" v="strait" />
		<tag k="ssr:stedsnr" v="259419" />
	</node>
	<node lat="67.40101110955219" lon="14.405236105629454" id="-6695">
		<tag k="name" v="Langholmen" />
		<tag k="place" v="islet" />
		<tag k="ssr:stedsnr" v="259421" />
	</node>
	<node lat="67.56773055515175" lon="14.683138878031976" id="-6697">
		<tag k="name" v="Nordøysundet" />
		<tag k="natural" v="strait" />
		<tag k="ssr:stedsnr" v="259447" />
	</node>
	<node lat="67.56218610706986" lon="14.65931110459587" id="-6698">
		<tag k="name" v="Lågøya" />
		<tag k="place" v="island" />
		<tag k="ssr:stedsnr" v="259448" />
	</node>
	<node lat="67.5726444431894" lon="14.700411108193286" id="-6699">
		<tag k="name" v="Oksøyvær" />
		<tag k="place" v="island" />
		<tag k="ssr:stedsnr" v="259454" />
	</node>
	<node lat="67.57079444734889" lon="14.63114721434153" id="-6700">
		<tag k="alt_name" v="Kvitholmen, yt;Ytre Kvitholman" />
		<tag k="name" v="Ytre Kvitholmen" />
		<tag k="place" v="islet" />
		<tag k="ssr:stedsnr" v="259456" />
	</node>
	<node lat="67.27552221835602" lon="13.981438882145858" id="-6701">
		<tag k="name" v="Nonskarvågen" />
		<tag k="natural" v="bay" />
		<tag k="ssr:stedsnr" v="259460" />
	</node>
	<node lat="67.55343888528762" lon="14.652416663405127" id="-6702">
		<tag k="alt_name" v="Rolsøysundet" />
		<tag k="name" v="Rolvsøysundet" />
		<tag k="natural" v="strait" />
		<tag k="ssr:stedsnr" v="259466" />
	</node>
	<node lat="67.43746666675551" lon="14.741227784565512" id="-6704">
		<tag k="alt_name" v="Ytreosen" />
		<tag k="name" v="Ytterosen" />
		<tag k="natural" v="bay" />
		<tag k="ssr:stedsnr" v="259569" />
	</node>
	<node lat="67.22665555976774" lon="13.941722221855942" id="-6706">
		<tag k="name" v="Trolløya" />
		<tag k="place" v="islet" />
		<tag k="ssr:stedsnr" v="259948" />
	</node>
	<node lat="67.22785000237313" lon="14.608419433300856" id="-6709">
		<tag k="name" v="Lusvika" />
		<tag k="natural" v="bay" />
		<tag k="ssr:stedsnr" v="457436" />
	</node>
	<node lat="67.23517500118037" lon="14.721844438510855" id="-6710">
		<tag k="name" v="Hestvika" />
		<tag k="natural" v="bay" />
		<tag k="ssr:stedsnr" v="457452" />
	</node>
	<node lat="67.25878889020576" lon="14.710424995836" id="-6713">
		<tag k="name" v="Skutvika" />
		<tag k="natural" v="bay" />
		<tag k="ssr:stedsnr" v="457481" />
	</node>
	<node lat="67.27219444344384" lon="14.848311113942088" id="-6715">
		<tag k="name" v="Osen" />
		<tag k="natural" v="bay" />
		<tag k="ssr:stedsnr" v="457495" />
	</node>
	<node lat="67.3331611153979" lon="14.486188878926356" id="-6730">
		<tag k="name" v="Rødodden" />
		<tag k="natural" v="cape" />
		<tag k="ssr:stedsnr" v="457981" />
	</node>
	<node lat="67.18358333386847" lon="14.52887500617672" id="-6731">
		<tag k="name" v="Galten" />
		<tag k="natural" v="shoal" />
		<tag k="place" v="locality" />
		<tag k="ssr:stedsnr" v="267322" />
	</node>
	<node lat="67.51863055541862" lon="14.609341658806862" id="-6748">
		<tag k="name" v="Ramnøygrunnen" />
		<tag k="natural" v="shoal" />
		<tag k="place" v="locality" />
		<tag k="ssr:stedsnr" v="458895" />
	</node>
	<node lat="67.21724166902682" lon="14.385986105652329" id="-6749">
		<tag k="name" v="Ytter Tennsvika" />
		<tag k="natural" v="bay" />
		<tag k="ssr:stedsnr" v="459054" />
	</node>
	<node lat="67.44226944846588" lon="13.90516110648669" id="-6750">
		<tag k="fixme" v="consider seamark:type=rock or natural=shoal" />
		<tag k="name" v="Midtre Remskjæran" />
		<tag k="place" v="islet" />
		<tag k="ssr:stedsnr" v="459301" />
	</node>
	<node lat="67.4940055543031" lon="14.668625006061431" id="-6754">
		<tag k="name" v="Vikbøen" />
		<tag k="place" v="locality" />
		<tag k="seamark:type" v="rock" />
		<tag k="ssr:stedsnr" v="459446" />
	</node>
	<node lat="67.54153611350603" lon="14.48876667000419" id="-6775">
		<tag k="name" v="Fjærbreigrunnen" />
		<tag k="natural" v="shoal" />
		<tag k="place" v="locality" />
		<tag k="ssr:stedsnr" v="275906" />
	</node>
	<node lat="67.50419444586178" lon="14.019680544748537" id="-6777">
		<tag k="name" v="Naustbakgrunnen" />
		<tag k="natural" v="shoal" />
		<tag k="place" v="locality" />
		<tag k="ssr:stedsnr" v="277616" />
	</node>
	<node lat="67.61218888931576" lon="14.77538332899095" id="-6778">
		<tag k="fixme" v="consider seamark:type=rock or natural=shoal" />
		<tag k="name" v="Helløyskjæret" />
		<tag k="place" v="islet" />
		<tag k="ssr:stedsnr" v="277902" />
	</node>
	<node lat="67.49455555773791" lon="14.960200008869396" id="-6780">
		<tag k="fixme" v="consider seamark:type=rock or natural=shoal" />
		<tag k="name" v="Skarvsteinan" />
		<tag k="place" v="islet" />
		<tag k="ssr:stedsnr" v="284223" />
	</node>
	<node lat="67.42517778068346" lon="13.974536113779633" id="-6786">
		<tag k="name" v="Hamran" />
		<tag k="natural" v="strait" />
		<tag k="ssr:stedsnr" v="284191" />
	</node>
	<node lat="67.42271389020493" lon="13.939136108620906" id="-6789">
		<tag k="name" v="Røyrn" />
		<tag k="place" v="islet" />
		<tag k="ssr:stedsnr" v="284826" />
	</node>
	<node lat="67.41165000407959" lon="13.915641669526877" id="-6790">
		<tag k="name" v="Bulåtholmen" />
		<tag k="place" v="islet" />
		<tag k="ssr:stedsnr" v="284833" />
	</node>
	<node lat="67.3959944486715" lon="14.38785276806366" id="-6807">
		<tag k="name" v="Nord-Sjåvika" />
		<tag k="natural" v="bay" />
		<tag k="ssr:stedsnr" v="298380" />
	</node>
	<node lat="67.41811944601774" lon="13.96496665806229" id="-6816">
		<tag k="name" v="Leiro" />
		<tag k="natural" v="bay" />
		<tag k="ssr:stedsnr" v="299203" />
	</node>
	<node lat="67.39551666497641" lon="13.882122225381238" id="-6821">
		<tag k="name" v="Medragan" />
		<tag k="natural" v="cape" />
		<tag k="ssr:stedsnr" v="465852" />
	</node>
	<node lat="67.3268805535226" lon="14.201916671620646" id="-6826">
		<tag k="fixme" v="consider seamark:type=rock or natural=shoal" />
		<tag k="name" v="Gåsskjæret" />
		<tag k="place" v="islet" />
		<tag k="ssr:stedsnr" v="319019" />
	</node>
	<node lat="67.3950750001171" lon="13.831172231307196" id="-6827">
		<tag k="fixme" v="multiple name tags, choose one and add the other to alt_name" />
		<tag k="name" v="Klubben;Grønøy-Grytøya;Brynnøy-Gryttøy" />
		<tag k="place" v="island" />
		<tag k="ssr:stedsnr" v="319041" />
	</node>
	<node lat="67.42388888660396" lon="13.929372224191198" id="-6829">
		<tag k="alt_name" v="Sørøya, store;Storsørøya;Stor-Sørøya" />
		<tag k="name" v="Store Sørøya" />
		<tag k="place" v="island" />
		<tag k="ssr:stedsnr" v="319091" />
	</node>
	<node lat="67.60360277974945" lon="14.708800011654208" id="-6835">
		<tag k="name" v="Forholmen" />
		<tag k="place" v="islet" />
		<tag k="ssr:stedsnr" v="319418" />
	</node>
	<node lat="67.37345555183009" lon="14.313261113267364" id="-6842">
		<tag k="alt_name" v="Bullerskjeret;Bulderskjeret" />
		<tag k="fixme" v="consider seamark:type=rock or natural=shoal" />
		<tag k="name" v="Bullerskjæret" />
		<tag k="place" v="islet" />
		<tag k="ssr:stedsnr" v="319339" />
	</node>
	<node lat="67.26215555945157" lon="14.38789999925698" id="-6851">
		<tag k="fixme" v="consider seamark:type=rock or natural=shoal" />
		<tag k="name" v="Ebbskjæret" />
		<tag k="place" v="islet" />
		<tag k="ssr:stedsnr" v="319635" />
	</node>
	<node lat="67.22493611265493" lon="15.010516671655873" id="-6852">
		<tag k="alt_name" v="Kvitingen" />
		<tag k="fixme" v="consider seamark:type=rock or natural=shoal" />
		<tag k="name" v="Kvittingen" />
		<tag k="place" v="islet" />
		<tag k="ssr:stedsnr" v="319640" />
	</node>
	<node lat="67.22400833591303" lon="14.953983337730122" id="-6853">
		<tag k="name" v="Viknesodden" />
		<tag k="natural" v="cape" />
		<tag k="ssr:stedsnr" v="319642" />
	</node>
	<node lat="67.43290000398262" lon="14.04843054788046" id="-6859">
		<tag k="fixme" v="consider seamark:type=rock or natural=shoal" />
		<tag k="name" v="Langskjæran" />
		<tag k="place" v="islet" />
		<tag k="ssr:stedsnr" v="320107" />
	</node>
	<node lat="67.53513055929226" lon="14.813633333945745" id="-6860">
		<tag k="name" v="Hestnakkstranda" />
		<tag k="natural" v="beach" />
		<tag k="ssr:stedsnr" v="320108" />
	</node>
	<node lat="67.55560000440481" lon="15.029372220801168" id="-6862">
		<tag k="name" v="Holmnesbogodden" />
		<tag k="natural" v="cape" />
		<tag k="ssr:stedsnr" v="320121" />
	</node>
	<node lat="67.30876388916498" lon="14.129555554704172" id="-6865">
		<tag k="alt_name" v="Vardskjeret, yt" />
		<tag k="fixme" v="consider seamark:type=rock or natural=shoal" />
		<tag k="name" v="Ytre Vardeskjæret" />
		<tag k="place" v="islet" />
		<tag k="ssr:stedsnr" v="320007" />
	</node>
	<node lat="67.24434444199247" lon="14.702461113788914" id="-6866">
		<tag k="name" v="Skarvskjæret" />
		<tag k="place" v="islet" />
		<tag k="ssr:stedsnr" v="320018" />
	</node>
	<node lat="67.58363610878122" lon="15.10074165536922" id="-6867">
		<tag k="name" v="Ospvika" />
		<tag k="natural" v="bay" />
		<tag k="ssr:stedsnr" v="320072" />
	</node>
	<node lat="67.44228889073129" lon="14.090738899438582" id="-6868">
		<tag k="name" v="Helsingøya" />
		<tag k="place" v="islet" />
		<tag k="ssr:stedsnr" v="320076" />
	</node>
	<node lat="67.43261666663463" lon="14.103349995669802" id="-6869">
		<tag k="alt_name" v="Mannholmgrunnen, s" />
		<tag k="name" v="Søre Mannholmgrunnen" />
		<tag k="natural" v="shoal" />
		<tag k="place" v="locality" />
		<tag k="ssr:stedsnr" v="320080" />
	</node>
	<node lat="67.56919166290837" lon="15.103872214629712" id="-6871">
		<tag k="name" v="Hamnvika" />
		<tag k="natural" v="bay" />
		<tag k="ssr:stedsnr" v="320092" />
	</node>
	<node lat="67.44086389354645" lon="14.013422214151207" id="-6872">
		<tag k="name" v="Seigrunnen" />
		<tag k="natural" v="shoal" />
		<tag k="place" v="locality" />
		<tag k="ssr:stedsnr" v="320098" />
	</node>
	<node lat="67.26561666930778" lon="14.301758336118871" id="-6878">
		<tag k="fixme" v="consider seamark:type=rock or natural=shoal" />
		<tag k="name" v="Røssøyskjæret" />
		<tag k="place" v="islet" />
		<tag k="ssr:stedsnr" v="468054" />
	</node>
	<node lat="67.53229166475137" lon="14.628155556271187" id="-6882">
		<tag k="name" v="Engøya" />
		<tag k="place" v="island" />
		<tag k="ssr:stedsnr" v="320736" />
	</node>
	<node lat="67.26620277646457" lon="14.267908331652105" id="-6883">
		<tag k="alt_name" v="Slottøya" />
		<tag k="name" v="Slåttøya" />
		<tag k="place" v="islet" />
		<tag k="ssr:stedsnr" v="320737" />
	</node>
	<node lat="67.29224999575432" lon="15.022169445925073" id="-6892">
		<tag k="name" v="Vika" />
		<tag k="natural" v="bay" />
		<tag k="ssr:stedsnr" v="327930" />
	</node>
	<node lat="67.41231389217457" lon="14.408149991314033" id="-6893">
		<tag k="alt_name" v="Strytjevika" />
		<tag k="name" v="Strykevika" />
		<tag k="natural" v="bay" />
		<tag k="ssr:stedsnr" v="328367" />
	</node>
	<node lat="67.44470555321998" lon="14.336183321453618" id="-6894">
		<tag k="name" v="Klavesgrunnen" />
		<tag k="natural" v="shoal" />
		<tag k="place" v="locality" />
		<tag k="ssr:stedsnr" v="328376" />
	</node>
	<node lat="67.29197222056504" lon="13.801022213407741" id="-6900">
		<tag k="name" v="Midtskallen" />
		<tag k="natural" v="shoal" />
		<tag k="place" v="locality" />
		<tag k="ssr:stedsnr" v="329266" />
	</node>
	<node lat="67.29312222608098" lon="13.695927780240407" id="-6901">
		<tag k="name" v="Brokholmskallen" />
		<tag k="natural" v="shoal" />
		<tag k="ssr:stedsnr" v="329269" />
	</node>
	<node lat="67.2377749968193" lon="14.598850001200645" id="-6902">
		<tag k="name" v="Kvitberget" />
		<tag k="natural" v="cape" />
		<tag k="ssr:stedsnr" v="329423" />
	</node>
	<node lat="67.39377221901398" lon="13.788500007203172" id="-6903">
		<tag k="name" v="Gangvadgrunnen" />
		<tag k="natural" v="shoal" />
		<tag k="place" v="locality" />
		<tag k="ssr:stedsnr" v="329462" />
	</node>
	<node lat="67.27315000401454" lon="14.332830552585875" id="-6910">
		<tag k="name" v="Kvitrøskallen" />
		<tag k="natural" v="shoal" />
		<tag k="place" v="locality" />
		<tag k="ssr:stedsnr" v="335505" />
	</node>
	<node lat="67.23678055678648" lon="14.558663891046178" id="-6911">
		<tag k="name" v="Innerodden" />
		<tag k="natural" v="cape" />
		<tag k="ssr:stedsnr" v="335544" />
	</node>
	<node lat="67.24069721982728" lon="14.724972211005113" id="-6929">
		<tag k="name" v="Lauvfetholmen" />
		<tag k="place" v="islet" />
		<tag k="ssr:stedsnr" v="336449" />
	</node>
	<node lat="67.22187221934593" lon="14.407697211181997" id="-6934">
		<tag k="alt_name" v="Indre Tennvika" />
		<tag k="name" v="Inner Tennsvika" />
		<tag k="natural" v="bay" />
		<tag k="ssr:stedsnr" v="337047" />
	</node>
	<node lat="67.27179166784745" lon="13.984611102433021" id="-6940">
		<tag k="name" v="Kraksøyvalen" />
		<tag k="natural" v="strait" />
		<tag k="ssr:stedsnr" v="344118" />
	</node>
	<node lat="67.4249055586592" lon="13.969644455959395" id="-6942">
		<tag k="name" v="Sørskivika" />
		<tag k="natural" v="bay" />
		<tag k="ssr:stedsnr" v="344185" />
	</node>
	<node lat="67.26322500067616" lon="13.970805547296802" id="-6943">
		<tag k="name" v="Hestøysundet" />
		<tag k="natural" v="strait" />
		<tag k="ssr:stedsnr" v="344191" />
	</node>
	<node lat="67.41450555381573" lon="14.03769444334785" id="-6946">
		<tag k="name" v="Lynnesøya" />
		<tag k="place" v="islet" />
		<tag k="ssr:stedsnr" v="347065" />
	</node>
	<node lat="67.30561944532893" lon="13.730580550480163" id="-6947">
		<tag k="name" v="Avløysa" />
		<tag k="natural" v="cape" />
		<tag k="ssr:stedsnr" v="347116" />
	</node>
	<node lat="67.37745555339852" lon="14.536658331305404" id="-6956">
		<tag k="fixme" v="consider seamark:type=rock or natural=shoal" />
		<tag k="name" v="Stor-Litlvågøyskjæret" />
		<tag k="place" v="islet" />
		<tag k="ssr:stedsnr" v="359306" />
	</node>
	<node lat="67.37765277642863" lon="14.542525007408837" id="-6957">
		<tag k="name" v="Hanskjellvika" />
		<tag k="natural" v="bay" />
		<tag k="ssr:stedsnr" v="359309" />
	</node>
	<node lat="67.37594999964136" lon="14.524527767412192" id="-6973">
		<tag k="fixme" v="consider seamark:type=rock or natural=shoal" />
		<tag k="name" v="Klubbskjæret" />
		<tag k="place" v="islet" />
		<tag k="ssr:stedsnr" v="480251" />
	</node>
	<node lat="67.56228055429129" lon="14.703850006067238" id="-6975">
		<tag k="name" v="Keilo" />
		<tag k="natural" v="bay" />
		<tag k="ssr:stedsnr" v="480787" />
	</node>
	<node lat="67.37428610869463" lon="14.523744455346558" id="-6981">
		<tag k="fixme" v="consider seamark:type=rock or natural=shoal" />
		<tag k="name" v="Seingskjæret" />
		<tag k="place" v="islet" />
		<tag k="ssr:stedsnr" v="480254" />
	</node>
	<node lat="67.40245833515056" lon="14.39388889018512" id="-6983">
		<tag k="name" v="Hamnvika" />
		<tag k="natural" v="bay" />
		<tag k="ssr:stedsnr" v="480427" />
	</node>
	<node lat="67.37069166418294" lon="14.549366661829701" id="-6986">
		<tag k="name" v="Brattholmvalen" />
		<tag k="natural" v="strait" />
		<tag k="ssr:stedsnr" v="480448" />
	</node>
	<node lat="67.55432777464516" lon="14.668061117113082" id="-6988">
		<tag k="name" v="Dragan" />
		<tag k="place" v="islet" />
		<tag k="ssr:stedsnr" v="480734" />
	</node>
	<node lat="67.22866389046494" lon="14.622063891517561" id="-6993">
		<tag k="name" v="Ripnes" />
		<tag k="natural" v="cape" />
		<tag k="ssr:stedsnr" v="480539" />
	</node>
	<node lat="67.5569805582528" lon="14.679877769813306" id="-6995">
		<tag k="name" v="Frøvika" />
		<tag k="natural" v="bay" />
		<tag k="ssr:stedsnr" v="480799" />
	</node>
	<node lat="67.55601944401013" lon="14.684844444028151" id="-6996">
		<tag k="fixme" v="consider seamark:type=rock or natural=shoal" />
		<tag k="name" v="Frøvikskjæran" />
		<tag k="place" v="islet" />
		<tag k="ssr:stedsnr" v="480800" />
	</node>
	<node lat="67.30176666209235" lon="14.385938894597" id="-7003">
		<tag k="name" v="Kvalvikodden" />
		<tag k="natural" v="cape" />
		<tag k="ssr:stedsnr" v="379267" />
	</node>
	<node lat="67.23808610891398" lon="14.899008335870777" id="-7009">
		<tag k="name" v="Kvikstadholmen" />
		<tag k="place" v="islet" />
		<tag k="ssr:stedsnr" v="379619" />
	</node>
	<node lat="67.27956388960106" lon="13.978088893720402" id="-7011">
		<tag k="alt_name" v="Briksvær" />
		<tag k="name" v="Bliksvær" />
		<tag k="place" v="island" />
		<tag k="ssr:stedsnr" v="380006" />
	</node>
	<node lat="67.28472500393136" lon="13.954958332457027" id="-7012">
		<tag k="alt_name" v="Stangerøya, in" />
		<tag k="fixme" v="multiple name tags, choose one and add the other to alt_name" />
		<tag k="name" v="Store Stongerøya;Indre Stangerøya" />
		<tag k="place" v="island" />
		<tag k="ssr:stedsnr" v="380010" />
	</node>
	<node lat="67.30278055593564" lon="14.050536118747441" id="-7013">
		<tag k="name" v="Store Terranuken" />
		<tag k="place" v="islet" />
		<tag k="ssr:stedsnr" v="380016" />
	</node>
	<node lat="67.30436389226753" lon="14.072972227045975" id="-7014">
		<tag k="fixme" v="consider seamark:type=rock or natural=shoal" />
		<tag k="name" v="Svartskjærdragan" />
		<tag k="place" v="islet" />
		<tag k="ssr:stedsnr" v="380017" />
	</node>
	<node lat="67.23866944206155" lon="14.507877781180529" id="-7017">
		<tag k="name" v="Skagodden" />
		<tag k="natural" v="cape" />
		<tag k="ssr:stedsnr" v="380026" />
	</node>
	<node lat="67.3108277820389" lon="13.738088886436989" id="-7018">
		<tag k="alt_name" v="Tjønnøydrangen;Tjønnøydrangan" />
		<tag k="fixme" v="consider seamark:type=rock or natural=shoal" />
		<tag k="name" v="Tjørnøydrangan" />
		<tag k="place" v="islet" />
		<tag k="ssr:stedsnr" v="380028" />
	</node>
	<node lat="67.45914721784555" lon="14.049488887209371" id="-7021">
		<tag k="fixme" v="consider seamark:type=rock or natural=shoal" />
		<tag k="name" v="Kvannøyskjæran" />
		<tag k="place" v="islet" />
		<tag k="ssr:stedsnr" v="380124" />
	</node>
	<node lat="67.41810832868778" lon="13.995702786032838" id="-7025">
		<tag k="alt_name" v="Lyngesøyskjera;Lynnesøyskjeran" />
		<tag k="fixme" v="consider seamark:type=rock or natural=shoal" />
		<tag k="name" v="Lyngesøyskjæra" />
		<tag k="place" v="islet" />
		<tag k="ssr:stedsnr" v="380061" />
	</node>
	<node lat="67.41965000167622" lon="14.047586110428316" id="-7026">
		<tag k="name" v="Brattøya" />
		<tag k="place" v="islet" />
		<tag k="ssr:stedsnr" v="380063" />
	</node>
	<node lat="67.57398611113508" lon="14.719230546882201" id="-7027">
		<tag k="name" v="Hamnøyodden" />
		<tag k="natural" v="cape" />
		<tag k="ssr:stedsnr" v="380064" />
	</node>
	<node lat="67.33199444510974" lon="14.470919445289203" id="-7029">
		<tag k="name" v="Kalvholmen" />
		<tag k="place" v="islet" />
		<tag k="ssr:stedsnr" v="380278" />
	</node>
	<node lat="67.38369167019721" lon="14.296630555938627" id="-7035">
		<tag k="name" v="Naustvika" />
		<tag k="natural" v="bay" />
		<tag k="ssr:stedsnr" v="380412" />
	</node>
	<node lat="67.39225555440386" lon="14.62602500178618" id="-7037">
		<tag k="alt_name" v="Gjerdsosen" />
		<tag k="name" v="Gjersosen" />
		<tag k="natural" v="bay" />
		<tag k="ssr:stedsnr" v="380420" />
	</node>
	<node lat="67.52805833248827" lon="14.620986122080566" id="-7039">
		<tag k="fixme" v="multiple name tags, choose one and add the other to alt_name" />
		<tag k="name" v="Fjærkvitingan;Kvitingan" />
		<tag k="place" v="islet" />
		<tag k="ssr:stedsnr" v="380515" />
	</node>
	<node lat="67.27601944809994" lon="14.559330565004904" id="-7052">
		<tag k="name" v="Skagen" />
		<tag k="natural" v="cape" />
		<tag k="ssr:stedsnr" v="380759" />
	</node>
	<node lat="67.62106389316496" lon="14.624158335374531" id="-7057">
		<tag k="alt_name" v="Råholmskallan, in" />
		<tag k="name" v="Indre Råholmskallan" />
		<tag k="natural" v="shoal" />
		<tag k="place" v="locality" />
		<tag k="ssr:stedsnr" v="381074" />
	</node>
	<node lat="67.21181389141854" lon="15.252172229988904" id="-7069">
		<tag k="fixme" v="consider seamark:type=rock or natural=shoal" />
		<tag k="name" v="Inste Skjæret" />
		<tag k="place" v="islet" />
		<tag k="ssr:stedsnr" v="388994" />
	</node>
	<node lat="67.41483611414108" lon="13.847238881007193" id="-7077">
		<tag k="name" v="Oddtaren" />
		<tag k="natural" v="shoal" />
		<tag k="place" v="locality" />
		<tag k="ssr:stedsnr" v="389294" />
	</node>
	<node lat="67.1380388864155" lon="14.950761110485105" id="-7088">
		<tag k="fixme" v="consider seamark:type=rock or natural=shoal" />
		<tag k="name" v="Engelåtran" />
		<tag k="place" v="islet" />
		<tag k="ssr:stedsnr" v="395713" />
	</node>
	<node lat="67.37512777970426" lon="14.585619438726694" id="-7089">
		<tag k="name" v="Kløftingshaugen" />
		<tag k="place" v="islet" />
		<tag k="ssr:stedsnr" v="396004" />
	</node>
	<node lat="67.29622777837965" lon="14.370105555452488" id="-7090">
		<tag k="name" v="Nordodden" />
		<tag k="natural" v="cape" />
		<tag k="ssr:stedsnr" v="396215" />
	</node>
	<node lat="67.23979166490605" lon="15.005458325489315" id="-7097">
		<tag k="name" v="Ljønesodden" />
		<tag k="natural" v="cape" />
		<tag k="ssr:stedsnr" v="396534" />
	</node>
	<node lat="67.38800277928054" lon="14.61835556646776" id="-7102">
		<tag k="alt_name" v="Skaugnesodden" />
		<tag k="name" v="Skaunesodden" />
		<tag k="natural" v="cape" />
		<tag k="ssr:stedsnr" v="396733" />
	</node>
	<node lat="67.50966667011791" lon="14.738841673703291" id="-7110">
		<tag k="name" v="Vikasanden" />
		<tag k="natural" v="beach" />
		<tag k="ssr:stedsnr" v="396882" />
	</node>
	<node lat="67.5253805529469" lon="14.60358055247753" id="-7114">
		<tag k="name" v="Tverramnøya" />
		<tag k="place" v="island" />
		<tag k="ssr:stedsnr" v="397829" />
	</node>
	<node lat="67.39452778044782" lon="13.876641675362702" id="-7120">
		<tag k="name" v="Hamnholmen" />
		<tag k="place" v="islet" />
		<tag k="ssr:stedsnr" v="405853" />
	</node>
	<node lat="67.28818611114083" lon="14.01681112243311" id="-7121">
		<tag k="name" v="Inner-Teistholmen" />
		<tag k="place" v="islet" />
		<tag k="ssr:stedsnr" v="413147" />
	</node>
	<node lat="67.37342777360153" lon="14.214777777253296" id="-7125">
		<tag k="fixme" v="consider seamark:type=rock or natural=shoal" />
		<tag k="name" v="Skagskjæret" />
		<tag k="place" v="islet" />
		<tag k="ssr:stedsnr" v="420186" />
	</node>
	<node lat="67.43489166505962" lon="14.405558328809235" id="-7126">
		<tag k="fixme" v="consider seamark:type=rock or natural=shoal" />
		<tag k="name" v="Breivikskjæret" />
		<tag k="place" v="islet" />
		<tag k="ssr:stedsnr" v="420435" />
	</node>
	<node lat="67.36638889313457" lon="14.534077782216281" id="-7130">
		<tag k="fixme" v="consider seamark:type=rock or natural=shoal" />
		<tag k="name" v="Kvitskjæret" />
		<tag k="place" v="islet" />
		<tag k="ssr:stedsnr" v="420501" />
	</node>
	<node lat="67.21312500416788" lon="14.36919165927199" id="-7136">
		<tag k="name" v="Seinesvika" />
		<tag k="natural" v="bay" />
		<tag k="ssr:stedsnr" v="440152" />
	</node>
	<node lat="67.28949722248925" lon="13.80061388013208" id="-7144">
		<tag k="name" v="Sørfallet" />
		<tag k="natural" v="shoal" />
		<tag k="place" v="locality" />
		<tag k="ssr:stedsnr" v="441002" />
	</node>
	<node lat="67.28669166918579" lon="13.732705560596967" id="-7145">
		<tag k="name" v="Revet" />
		<tag k="natural" v="shoal" />
		<tag k="place" v="locality" />
		<tag k="ssr:stedsnr" v="441009" />
	</node>
	<node lat="67.31737222032031" lon="14.003919453308582" id="-7146">
		<tag k="fixme" v="consider seamark:type=rock or natural=shoal" />
		<tag k="name" v="Kløpparen" />
		<tag k="place" v="islet" />
		<tag k="ssr:stedsnr" v="441012" />
	</node>
	<node lat="67.23561388599117" lon="14.502752781048246" id="-7147">
		<tag k="name" v="Seivågen" />
		<tag k="natural" v="bay" />
		<tag k="ssr:stedsnr" v="441018" />
	</node>
	<node lat="67.40014167070575" lon="13.854830550064012" id="-7148">
		<tag k="name" v="Nettøya" />
		<tag k="place" v="islet" />
		<tag k="ssr:stedsnr" v="441045" />
	</node>
	<node lat="67.41324185029804" lon="13.885980038956703" id="-7149">
		<tag k="name" v="Brønnøya" />
		<tag k="place" v="island" />
		<tag k="ssr:stedsnr" v="441052" />
	</node>
	<node lat="67.43890555204827" lon="13.89130556349251" id="-7151">
		<tag k="fixme" v="consider seamark:type=rock or natural=shoal" />
		<tag k="name" v="Gjelten" />
		<tag k="place" v="islet" />
		<tag k="ssr:stedsnr" v="441093" />
	</node>
	<node lat="67.20682222508373" lon="14.355233335421007" id="-7152">
		<tag k="name" v="Seinesrognan" />
		<tag k="natural" v="beach" />
		<tag k="ssr:stedsnr" v="441097" />
	</node>
	<node lat="67.44625277832529" lon="14.090269446149357" id="-7153">
		<tag k="fixme" v="consider seamark:type=rock or natural=shoal" />
		<tag k="name" v="Helsingøyskjæret" />
		<tag k="place" v="islet" />
		<tag k="ssr:stedsnr" v="441099" />
	</node>
	<node lat="67.29555277954142" lon="13.668511119645109" id="-7154">
		<tag k="alt_name" v="Valbeinskjeret;Vallbeinskjeret" />
		<tag k="fixme" v="consider seamark:type=rock or natural=shoal" />
		<tag k="name" v="Valbeinskjæret" />
		<tag k="place" v="islet" />
		<tag k="ssr:stedsnr" v="441108" />
	</node>
	<node lat="67.35971389172838" lon="14.512722211698769" id="-7157">
		<tag k="name" v="Kjerringholmen" />
		<tag k="place" v="islet" />
		<tag k="ssr:stedsnr" v="441312" />
	</node>
	<node lat="67.34015833797264" lon="14.402624989328821" id="-7158">
		<tag k="name" v="Løpsholmen" />
		<tag k="place" v="islet" />
		<tag k="ssr:stedsnr" v="441335" />
	</node>
	<node lat="67.3086805530174" lon="14.422522217118283" id="-7161">
		<tag k="name" v="Skivika" />
		<tag k="natural" v="bay" />
		<tag k="ssr:stedsnr" v="441240" />
	</node>
	<node lat="67.18589166541501" lon="14.5074583234019" id="-7166">
		<tag k="fixme" v="multiple name tags, choose one and add the other to alt_name" />
		<tag k="name" v="Fjellholmen;Storholmen" />
		<tag k="place" v="islet" />
		<tag k="ssr:stedsnr" v="441416" />
	</node>
	<node lat="67.45986944644922" lon="14.666575011878962" id="-7169">
		<tag k="fixme" v="multiple name tags, choose one and add the other to alt_name" />
		<tag k="name" v="Møsterøya;Misterøya;Store Misterøya" />
		<tag k="place" v="island" />
		<tag k="ssr:stedsnr" v="441442" />
	</node>
	<node lat="67.42876666470076" lon="14.408683342207375" id="-7170">
		<tag k="name" v="Sandholmen" />
		<tag k="place" v="islet" />
		<tag k="ssr:stedsnr" v="441456" />
	</node>
	<node lat="67.51953055506644" lon="14.592219443582742" id="-7171">
		<tag k="alt_name" v="Vasskjeran;Vaskjeran" />
		<tag k="fixme" v="consider seamark:type=rock or natural=shoal" />
		<tag k="name" v="Vasskjæran" />
		<tag k="place" v="islet" />
		<tag k="ssr:stedsnr" v="441491" />
	</node>
	<node lat="67.52712778152376" lon="14.591625006711023" id="-7172">
		<tag k="name" v="Fjærvær" />
		<tag k="place" v="island" />
		<tag k="ssr:stedsnr" v="441493" />
	</node>
	<node lat="67.53079444200921" lon="14.602225008941355" id="-7174">
		<tag k="name" v="Oterøya" />
		<tag k="place" v="island" />
		<tag k="ssr:stedsnr" v="441496" />
	</node>
	<node lat="67.44616388572163" lon="14.810733341040649" id="-7179">
		<tag k="name" v="Karivika" />
		<tag k="natural" v="bay" />
		<tag k="ssr:stedsnr" v="441586" />
	</node>
	<node lat="67.21165277707692" lon="15.003238880949814" id="-7184">
		<tag k="name" v="Rotnesodden" />
		<tag k="natural" v="cape" />
		<tag k="ssr:stedsnr" v="441714" />
	</node>
	<node lat="67.299255553727" lon="14.696552774363829" id="-7185">
		<tag k="fixme" v="consider seamark:type=rock or natural=shoal" />
		<tag k="name" v="Tronkliskjæret" />
		<tag k="place" v="islet" />
		<tag k="ssr:stedsnr" v="441722" />
	</node>
	<node lat="67.26651666397458" lon="14.302822216517713" id="-7187">
		<tag k="alt_name" v="Gåseskjeret;Gåsskjeret" />
		<tag k="fixme" v="consider seamark:type=rock or natural=shoal" />
		<tag k="name" v="Gåseskjæret" />
		<tag k="place" v="islet" />
		<tag k="ssr:stedsnr" v="441732" />
	</node>
	<node lat="67.27531667019234" lon="14.561547223094106" id="-7190">
		<tag k="name" v="Mørkvedodden" />
		<tag k="natural" v="cape" />
		<tag k="ssr:stedsnr" v="441739" />
	</node>
	<node lat="67.22218889216549" lon="14.739608330641481" id="-7194">
		<tag k="alt_name" v="Vedviknes" />
		<tag k="name" v="Vedvikneset" />
		<tag k="natural" v="cape" />
		<tag k="ssr:stedsnr" v="441696" />
	</node>
	<node lat="67.55844999545056" lon="15.056783342403099" id="-7198">
		<tag k="name" v="Smalvika" />
		<tag k="natural" v="bay" />
		<tag k="ssr:stedsnr" v="442134" />
	</node>
	<node lat="67.28403333471972" lon="14.86591943710403" id="-7202">
		<tag k="alt_name" v="Vågsnes" />
		<tag k="name" v="Vågsneset" />
		<tag k="natural" v="cape" />
		<tag k="ssr:stedsnr" v="445691" />
	</node>
	<node lat="67.43403889093358" lon="14.949805551886303" id="-7204">
		<tag k="name" v="Odden" />
		<tag k="natural" v="cape" />
		<tag k="ssr:stedsnr" v="449370" />
	</node>
	<node lat="67.42968610716285" lon="14.316219435067621" id="-7205">
		<tag k="name" v="Ramsvikbøan" />
		<tag k="natural" v="shoal" />
		<tag k="place" v="locality" />
		<tag k="ssr:stedsnr" v="449374" />
	</node>
	<node lat="67.459483335701" lon="14.63696110762678" id="-7212">
		<tag k="name" v="Misterøybøen" />
		<tag k="place" v="locality" />
		<tag k="seamark:type" v="rock" />
		<tag k="ssr:stedsnr" v="450408" />
	</node>
	<node lat="67.25887778161594" lon="14.365305551099256" id="-7216">
		<tag k="fixme" v="consider seamark:type=rock or natural=shoal" />
		<tag k="name" v="Rotskjæret" />
		<tag k="place" v="islet" />
		<tag k="ssr:stedsnr" v="450373" />
	</node>
	<node lat="67.23800832907529" lon="14.668702775149029" id="-7217">
		<tag k="name" v="Rotneset" />
		<tag k="natural" v="cape" />
		<tag k="ssr:stedsnr" v="450377" />
	</node>
	<node lat="67.29720833518616" lon="14.860261120779395" id="-7227">
		<tag k="name" v="Kåløyrosen" />
		<tag k="natural" v="beach" />
		<tag k="ssr:stedsnr" v="457128" />
	</node>
	<node lat="67.3802805591804" lon="14.612588896133767" id="-7230">
		<tag k="name" v="Kvannvika" />
		<tag k="natural" v="bay" />
		<tag k="ssr:stedsnr" v="457017" />
	</node>
	<node lat="67.28302777664956" lon="14.326802769656398" id="-7237">
		<tag k="name" v="Sørodden" />
		<tag k="natural" v="cape" />
		<tag k="ssr:stedsnr" v="457466" />
	</node>
	<node lat="67.21047222266786" lon="15.13577499705698" id="-7243">
		<tag k="name" v="Kleivan" />
		<tag k="natural" v="beach" />
		<tag k="ssr:stedsnr" v="457605" />
	</node>
	<node lat="67.3070111129146" lon="14.422658326337176" id="-7246">
		<tag k="name" v="Vikran" />
		<tag k="natural" v="bay" />
		<tag k="ssr:stedsnr" v="457814" />
	</node>
	<node lat="67.50198611117972" lon="14.68633332451384" id="-7247">
		<tag k="name" v="Lamholmen" />
		<tag k="place" v="islet" />
		<tag k="ssr:stedsnr" v="457816" />
	</node>
	<node lat="67.52489444125882" lon="14.777480564469617" id="-7252">
		<tag k="fixme" v="consider seamark:type=rock or natural=shoal" />
		<tag k="name" v="Geitskjæret" />
		<tag k="place" v="islet" />
		<tag k="ssr:stedsnr" v="457845" />
	</node>
	<node lat="67.51535277713491" lon="14.751083333760509" id="-7253">
		<tag k="name" v="Leirholmen" />
		<tag k="natural" v="cape" />
		<tag k="ssr:stedsnr" v="457858" />
	</node>
	<node lat="67.42659999960387" lon="14.40438889829512" id="-7258">
		<tag k="name" v="Sandholmen" />
		<tag k="place" v="islet" />
		<tag k="ssr:stedsnr" v="465116" />
	</node>
	<node lat="67.41661944628628" lon="13.92339721476328" id="-7263">
		<tag k="fixme" v="consider seamark:type=rock or natural=shoal" />
		<tag k="name" v="Hestøygalten" />
		<tag k="place" v="islet" />
		<tag k="ssr:stedsnr" v="465818" />
	</node>
	<node lat="67.38510555306873" lon="14.317005551931503" id="-7264">
		<tag k="fixme" v="consider seamark:type=rock or natural=shoal" />
		<tag k="name" v="Langskjæret" />
		<tag k="place" v="islet" />
		<tag k="ssr:stedsnr" v="466108" />
	</node>
	<node lat="67.29673055544939" lon="13.675225006526027" id="-7266">
		<tag k="fixme" v="consider seamark:type=rock or natural=shoal" />
		<tag k="name" v="Hoftaskjæret" />
		<tag k="place" v="islet" />
		<tag k="ssr:stedsnr" v="468020" />
	</node>
	<node lat="67.43144444751115" lon="13.98386388206764" id="-7273">
		<tag k="name" v="Kultodden" />
		<tag k="natural" v="cape" />
		<tag k="ssr:stedsnr" v="480161" />
	</node>
	<node lat="67.43504444405886" lon="13.967197222083328" id="-7274">
		<tag k="name" v="Godstøneset" />
		<tag k="natural" v="cape" />
		<tag k="ssr:stedsnr" v="480162" />
	</node>
	<node lat="67.37447778012388" lon="14.507038893093393" id="-7283">
		<tag k="fixme" v="consider seamark:type=rock or natural=shoal" />
		<tag k="name" v="Helløyskjæret" />
		<tag k="place" v="islet" />
		<tag k="ssr:stedsnr" v="480259" />
	</node>
	<node lat="67.44043888964096" lon="14.394302780948278" id="-7287">
		<tag k="name" v="Skjåvika" />
		<tag k="natural" v="bay" />
		<tag k="ssr:stedsnr" v="480412" />
	</node>
	<node lat="67.5601666683796" lon="14.650749999768976" id="-7288">
		<tag k="name" v="Stongholmen" />
		<tag k="place" v="islet" />
		<tag k="ssr:stedsnr" v="480710" />
	</node>
	<node lat="67.45927777575137" lon="14.703119435061405" id="-7291">
		<tag k="name" v="Stian" />
		<tag k="natural" v="cape" />
		<tag k="ssr:stedsnr" v="480761" />
	</node>
	<node lat="67.20399999736253" lon="14.521005565138498" id="-7298">
		<tag k="fixme" v="multiple name tags, choose one and add the other to alt_name" />
		<tag k="name" v="Gyltvika;Store Gyltvik" />
		<tag k="natural" v="bay" />
		<tag k="ssr:stedsnr" v="744065" />
	</node>
	<node lat="67.37339166688292" lon="14.570133336884282" id="-7299">
		<tag k="name" v="Øyrholmen" />
		<tag k="place" v="islet" />
		<tag k="ssr:stedsnr" v="744310" />
	</node>
	<node lat="67.21258611425434" lon="14.682747224251871" id="-7301">
		<tag k="name" v="Koddvågen" />
		<tag k="natural" v="bay" />
		<tag k="ssr:stedsnr" v="501107" />
	</node>
	<node lat="67.29535555787773" lon="13.54223054771785" id="-7304">
		<tag k="alt_name" v="Skarvan, i" />
		<tag k="fixme" v="consider seamark:type=rock or natural=shoal" />
		<tag k="name" v="Innerskarvan" />
		<tag k="place" v="islet" />
		<tag k="ssr:stedsnr" v="501112" />
	</node>
	<node lat="67.28748889183792" lon="13.647202780559745" id="-7305">
		<tag k="alt_name" v="Kvisgrunnen" />
		<tag k="name" v="Kvigsgrunnen" />
		<tag k="natural" v="shoal" />
		<tag k="place" v="locality" />
		<tag k="ssr:stedsnr" v="501115" />
	</node>
	<node lat="67.22461666679791" lon="14.617625009242207" id="-7306">
		<tag k="name" v="Rundholmen" />
		<tag k="place" v="islet" />
		<tag k="ssr:stedsnr" v="501117" />
	</node>
	<node lat="67.14586388538062" lon="14.971530557750839" id="-7309">
		<tag k="name" v="Halsodden" />
		<tag k="natural" v="cape" />
		<tag k="ssr:stedsnr" v="501140" />
	</node>
	<node lat="67.37330833403242" lon="14.246158326451521" id="-7310">
		<tag k="name" v="Tiriholmen" />
		<tag k="place" v="islet" />
		<tag k="ssr:stedsnr" v="501330" />
	</node>
	<node lat="67.3719527792547" lon="14.474602773188982" id="-7311">
		<tag k="fixme" v="consider seamark:type=rock or natural=shoal" />
		<tag k="name" v="Svartbakskjæret" />
		<tag k="place" v="islet" />
		<tag k="ssr:stedsnr" v="501337" />
	</node>
	<node lat="67.37193055632278" lon="14.509699991396216" id="-7312">
		<tag k="name" v="Torøya" />
		<tag k="place" v="islet" />
		<tag k="ssr:stedsnr" v="501338" />
	</node>
	<node lat="67.19871110824114" lon="14.550527774226614" id="-7313">
		<tag k="name" v="Salbunesodden" />
		<tag k="natural" v="cape" />
		<tag k="ssr:stedsnr" v="501079" />
	</node>
	<node lat="67.55206666761416" lon="14.685555546300716" id="-7317">
		<tag k="name" v="Karlsøyvær" />
		<tag k="place" v="island" />
		<tag k="ssr:stedsnr" v="501434" />
	</node>
	<node lat="67.42303333279037" lon="14.390986121881385" id="-7318">
		<tag k="name" v="Kjelbotn" />
		<tag k="natural" v="bay" />
		<tag k="ssr:stedsnr" v="501435" />
	</node>
	<node lat="67.41845833395227" lon="14.615722229353734" id="-7320">
		<tag k="fixme" v="consider seamark:type=rock or natural=shoal" />
		<tag k="name" v="Flatskjæret" />
		<tag k="place" v="islet" />
		<tag k="ssr:stedsnr" v="501437" />
	</node>
	<node lat="67.24010000011133" lon="14.801166677305325" id="-7321">
		<tag k="alt_name" v="Soldbonden" />
		<tag k="name" v="Sollbonen" />
		<tag k="natural" v="beach" />
		<tag k="ssr:stedsnr" v="501605" />
	</node>
	<node lat="67.23401389008485" lon="14.84482222678787" id="-7322">
		<tag k="alt_name" v="Krakvikodden" />
		<tag k="name" v="Krakviknes" />
		<tag k="natural" v="cape" />
		<tag k="ssr:stedsnr" v="501609" />
	</node>
	<node lat="67.25484167008437" lon="14.24263055978579" id="-7325">
		<tag k="alt_name" v="Fiskgrunnen" />
		<tag k="name" v="Fiskegrunnen" />
		<tag k="natural" v="shoal" />
		<tag k="place" v="locality" />
		<tag k="ssr:stedsnr" v="501622" />
	</node>
	<node lat="67.23345833360028" lon="15.00395833486256" id="-7328">
		<tag k="name" v="Graddstraumen" />
		<tag k="natural" v="strait" />
		<tag k="ssr:stedsnr" v="501639" />
	</node>
	<node lat="67.25214999999103" lon="14.694833322746522" id="-7333">
		<tag k="alt_name" v="Skålbonesodden" />
		<tag k="name" v="Skålbunesodden" />
		<tag k="natural" v="cape" />
		<tag k="ssr:stedsnr" v="501712" />
	</node>
	<node lat="67.23085832998271" lon="14.605752768594389" id="-7335">
		<tag k="alt_name" v="Skjelbukta" />
		<tag k="name" v="Skjellbukta" />
		<tag k="natural" v="bay" />
		<tag k="ssr:stedsnr" v="502009" />
	</node>
	<node lat="67.30168055849173" lon="14.071077769762324" id="-7336">
		<tag k="fixme" v="consider seamark:type=rock or natural=shoal" />
		<tag k="name" v="Svartskjæret" />
		<tag k="place" v="islet" />
		<tag k="ssr:stedsnr" v="502017" />
	</node>
	<node lat="67.30201388916117" lon="14.147066658979295" id="-7337">
		<tag k="name" v="Kvitingan" />
		<tag k="place" v="islet" />
		<tag k="ssr:stedsnr" v="502018" />
	</node>
	<node lat="67.30100277839806" lon="13.720077776295495" id="-7339">
		<tag k="fixme" v="consider seamark:type=rock or natural=shoal" />
		<tag k="name" v="Leiskjæran" />
		<tag k="place" v="islet" />
		<tag k="ssr:stedsnr" v="502001" />
	</node>
	<node lat="67.53771944100585" lon="15.129475000452063" id="-7342">
		<tag k="name" v="Øygårdsskallen" />
		<tag k="natural" v="shoal" />
		<tag k="place" v="locality" />
		<tag k="ssr:stedsnr" v="502078" />
	</node>
	<node lat="67.55323055151209" lon="15.151036112590928" id="-7343">
		<tag k="name" v="Buksvika" />
		<tag k="natural" v="bay" />
		<tag k="ssr:stedsnr" v="502081" />
	</node>
	<node lat="67.54309444577825" lon="15.097661113566597" id="-7344">
		<tag k="name" v="Movika" />
		<tag k="natural" v="bay" />
		<tag k="ssr:stedsnr" v="502082" />
	</node>
	<node lat="67.18607222652015" lon="14.36396944981564" id="-7345">
		<tag k="name" v="Bjørnhammaren" />
		<tag k="natural" v="cape" />
		<tag k="ssr:stedsnr" v="502413" />
	</node>
	<node lat="67.45202500232094" lon="14.999869455383918" id="-7347">
		<tag k="bay" v="fjord" />
		<tag k="name" v="Nordfjorden" />
		<tag k="natural" v="bay" />
		<tag k="ssr:stedsnr" v="502306" />
	</node>
	<node lat="67.28301944567711" lon="14.132883340670109" id="-7350">
		<tag k="name" v="Grønholmrevet" />
		<tag k="natural" v="shoal" />
		<tag k="place" v="locality" />
		<tag k="ssr:stedsnr" v="502480" />
	</node>
	<node lat="67.31207222590936" lon="15.019463896899792" id="-7358">
		<tag k="name" v="Øyjordholmen" />
		<tag k="place" v="islet" />
		<tag k="ssr:stedsnr" v="505669" />
	</node>
	<node lat="67.5944583351894" lon="14.740605566851963" id="-7359">
		<tag k="fixme" v="consider seamark:type=rock or natural=shoal" />
		<tag k="name" v="Anders Persaskjæret" />
		<tag k="place" v="islet" />
		<tag k="ssr:stedsnr" v="684069" />
	</node>
	<node lat="67.24330277528446" lon="13.985305550440867" id="-7360">
		<tag k="name" v="Sanderøytaren" />
		<tag k="natural" v="shoal" />
		<tag k="ssr:stedsnr" v="510468" />
	</node>
	<node lat="67.19787499725177" lon="14.343055547180622" id="-7363">
		<tag k="name" v="Steingrunnen" />
		<tag k="natural" v="shoal" />
		<tag k="place" v="locality" />
		<tag k="ssr:stedsnr" v="510354" />
	</node>
	<node lat="67.32589722002902" lon="14.465708331425233" id="-7364">
		<tag k="fixme" v="consider seamark:type=rock or natural=shoal" />
		<tag k="name" v="Store Hysa" />
		<tag k="place" v="islet" />
		<tag k="ssr:stedsnr" v="510361" />
	</node>
	<node lat="67.19808888558168" lon="15.284777783446767" id="-7367">
		<tag k="name" v="Torrvika" />
		<tag k="natural" v="bay" />
		<tag k="ssr:stedsnr" v="510652" />
	</node>
	<node lat="67.42176389087719" lon="13.948725010194787" id="-7368">
		<tag k="alt_name" v="Øyskaftet" />
		<tag k="name" v="Øyneset" />
		<tag k="natural" v="cape" />
		<tag k="ssr:stedsnr" v="683087" />
	</node>
	<node lat="67.4273972239079" lon="14.049813881952005" id="-7370">
		<tag k="name" v="Lyngværsøya" />
		<tag k="place" v="islet" />
		<tag k="ssr:stedsnr" v="683089" />
	</node>
	<node lat="67.43063611321571" lon="14.064924989920517" id="-7371">
		<tag k="name" v="Ramnholmen" />
		<tag k="place" v="islet" />
		<tag k="ssr:stedsnr" v="683091" />
	</node>
	<node lat="67.21555555168952" lon="14.553844453559064" id="-7372">
		<tag k="alt_name" v="Sundan, indre" />
		<tag k="bay" v="fjord" />
		<tag k="name" v="Indre Sundan" />
		<tag k="natural" v="bay" />
		<tag k="ssr:stedsnr" v="683100" />
	</node>
	<node lat="67.45234166583248" lon="14.101777767516715" id="-7378">
		<tag k="fixme" v="consider seamark:type=rock or natural=shoal" />
		<tag k="name" v="Breigrunnskjæret" />
		<tag k="place" v="islet" />
		<tag k="ssr:stedsnr" v="511394" />
	</node>
	<node lat="67.38347499699633" lon="14.200324996932506" id="-7379">
		<tag k="fixme" v="consider seamark:type=rock or natural=shoal" />
		<tag k="name" v="Laskjæret" />
		<tag k="place" v="islet" />
		<tag k="ssr:stedsnr" v="683038" />
	</node>
	<node lat="67.3987416635776" lon="13.937311121339711" id="-7380">
		<tag k="name" v="Mannholmen" />
		<tag k="place" v="islet" />
		<tag k="ssr:stedsnr" v="683048" />
	</node>
	<node lat="67.15418055283135" lon="14.97541943346428" id="-7382">
		<tag k="fixme" v="multiple name tags, choose one and add the other to alt_name" />
		<tag k="name" v="Mølnbukta;Bjørndalbukta" />
		<tag k="natural" v="bay" />
		<tag k="ssr:stedsnr" v="683482" />
	</node>
	<node lat="67.61040000164061" lon="14.671894449376515" id="-7384">
		<tag k="alt_name" v="Råholmen, in" />
		<tag k="name" v="Indre Råholmen" />
		<tag k="place" v="islet" />
		<tag k="ssr:stedsnr" v="683414" />
	</node>
	<node lat="67.42075555626508" lon="14.272088888991147" id="-7387">
		<tag k="name" v="Juvikgrunnen" />
		<tag k="natural" v="shoal" />
		<tag k="place" v="locality" />
		<tag k="ssr:stedsnr" v="683433" />
	</node>
	<node lat="67.57066111075957" lon="14.647047232433433" id="-7388">
		<tag k="alt_name" v="Moldforholmen, yt;Ytter-Moldforholmen" />
		<tag k="name" v="Ytre Moldforholmen" />
		<tag k="place" v="islet" />
		<tag k="ssr:stedsnr" v="683434" />
	</node>
	<node lat="67.56986111375817" lon="14.66683611149715" id="-7389">
		<tag k="alt_name" v="Moldforholmen, in;Inner-Moldforholmen" />
		<tag k="name" v="Indre Moldforholmen" />
		<tag k="place" v="islet" />
		<tag k="ssr:stedsnr" v="683435" />
	</node>
	<node lat="67.27623611071766" lon="14.065947216148937" id="-7390">
		<tag k="fixme" v="consider seamark:type=rock or natural=shoal" />
		<tag k="name" v="Skjoldsholmskjæran" />
		<tag k="place" v="islet" />
		<tag k="ssr:stedsnr" v="683445" />
	</node>
	<node lat="67.27284444364781" lon="14.15754721042944" id="-7391">
		<tag k="name" v="Grønholmen" />
		<tag k="place" v="islet" />
		<tag k="ssr:stedsnr" v="683446" />
	</node>
	<node lat="67.2635250009315" lon="14.02607501021814" id="-7392">
		<tag k="alt_name" v="Grønøya" />
		<tag k="name" v="Grønnøya" />
		<tag k="place" v="islet" />
		<tag k="ssr:stedsnr" v="683447" />
	</node>
	<node lat="67.45086111528173" lon="14.923688880254932" id="-7404">
		<tag k="name" v="Nova" />
		<tag k="place" v="locality" />
		<tag k="ssr:stedsnr" v="683548" />
	</node>
	<node lat="67.28366388530603" lon="14.363844446009004" id="-7410">
		<tag k="name" v="Rundholmen" />
		<tag k="place" v="islet" />
		<tag k="ssr:stedsnr" v="683682" />
	</node>
	<node lat="67.54538055497277" lon="15.030052780858867" id="-7414">
		<tag k="name" v="Holmnesbogen" />
		<tag k="natural" v="bay" />
		<tag k="ssr:stedsnr" v="684090" />
	</node>
	<node lat="67.45562778123502" lon="14.014036105402932" id="-7415">
		<tag k="fixme" v="multiple name tags, choose one and add the other to alt_name; consider seamark:type=rock or natural=shoal" />
		<tag k="name" v="Litle Kjengskjæret;Bukkskjæret" />
		<tag k="place" v="islet" />
		<tag k="ssr:stedsnr" v="684092" />
	</node>
	<node lat="67.44883888879549" lon="14.13692221072521" id="-7416">
		<tag k="name" v="Breigrunnen" />
		<tag k="natural" v="shoal" />
		<tag k="place" v="locality" />
		<tag k="ssr:stedsnr" v="684096" />
	</node>
	<node lat="67.28913611047636" lon="14.37765277394117" id="-7419">
		<tag k="fixme" v="consider seamark:type=rock or natural=shoal" />
		<tag k="name" v="Bekskjæret" />
		<tag k="place" v="islet" />
		<tag k="ssr:stedsnr" v="517021" />
	</node>
	<node lat="67.28618610737037" lon="14.863752768219097" id="-7422">
		<tag k="name" v="Kjærberget" />
		<tag k="natural" v="cape" />
		<tag k="ssr:stedsnr" v="517112" />
	</node>
	<node lat="67.29010833137804" lon="14.647116670073066" id="-7427">
		<tag k="name" v="Bryggeskjæret" />
		<tag k="place" v="islet" />
		<tag k="ssr:stedsnr" v="517270" />
	</node>
	<node lat="67.27461110953479" lon="14.712919446547097" id="-7432">
		<tag k="name" v="Gressholmen" />
		<tag k="place" v="islet" />
		<tag k="ssr:stedsnr" v="517542" />
	</node>
	<node lat="67.21499444444079" lon="15.130536112829358" id="-7433">
		<tag k="name" v="Åkervika" />
		<tag k="natural" v="bay" />
		<tag k="ssr:stedsnr" v="517566" />
	</node>
	<node lat="67.53662222293094" lon="14.432080558775283" id="-7435">
		<tag k="fixme" v="consider seamark:type=rock or natural=shoal" />
		<tag k="name" v="Øyholmflesa" />
		<tag k="place" v="islet" />
		<tag k="ssr:stedsnr" v="684468" />
	</node>
	<node lat="67.50789166458506" lon="14.691983337494083" id="-7438">
		<tag k="fixme" v="consider seamark:type=rock or natural=shoal" />
		<tag k="name" v="Storfluen" />
		<tag k="place" v="islet" />
		<tag k="ssr:stedsnr" v="517848" />
	</node>
	<node lat="67.38771388724543" lon="14.62986943303522" id="-7440">
		<tag k="name" v="Sofieskjæret" />
		<tag k="natural" v="cape" />
		<tag k="ssr:stedsnr" v="517778" />
	</node>
	<node lat="67.27039444055866" lon="13.922972210557473" id="-7441">
		<tag k="name" v="Kvitholmen" />
		<tag k="place" v="islet" />
		<tag k="ssr:stedsnr" v="684473" />
	</node>
	<node lat="67.52543888711566" lon="14.620902777122724" id="-7442">
		<tag k="alt_name" v="Kvitingen, l;Litl Kvitingen;Littj Kvitingen" />
		<tag k="name" v="Litle Kvitingen" />
		<tag k="place" v="islet" />
		<tag k="ssr:stedsnr" v="684484" />
	</node>
	<node lat="67.52580555736834" lon="14.69137778567871" id="-7443">
		<tag k="bay" v="fjord" />
		<tag k="name" v="Karlsøyfjorden" />
		<tag k="natural" v="bay" />
		<tag k="ssr:stedsnr" v="684489" />
	</node>
	<node lat="67.12120833182942" lon="14.987863883682563" id="-7445">
		<tag k="name" v="Vika" />
		<tag k="natural" v="bay" />
		<tag k="ssr:stedsnr" v="518384" />
	</node>
	<node lat="67.53105833650632" lon="14.469225001586032" id="-7453">
		<tag k="name" v="Nordre Holmskallen" />
		<tag k="natural" v="shoal" />
		<tag k="place" v="locality" />
		<tag k="ssr:stedsnr" v="518911" />
	</node>
	<node lat="67.18972221859086" lon="14.946697228231825" id="-7455">
		<tag k="name" v="Ursetvika" />
		<tag k="natural" v="bay" />
		<tag k="ssr:stedsnr" v="684742" />
	</node>
	<node lat="67.18234722529021" lon="14.514224997363154" id="-7461">
		<tag k="name" v="Tjønnes" />
		<tag k="natural" v="cape" />
		<tag k="ssr:stedsnr" v="526303" />
	</node>
	<node lat="67.30366944791609" lon="13.729986117844279" id="-7466">
		<tag k="name" v="Skjågan" />
		<tag k="natural" v="cape" />
		<tag k="ssr:stedsnr" v="529108" />
	</node>
	<node lat="67.23285555453435" lon="14.490305558944948" id="-7472">
		<tag k="name" v="Seivågosen" />
		<tag k="natural" v="bay" />
		<tag k="ssr:stedsnr" v="541023" />
	</node>
	<node lat="67.25841666671036" lon="14.325799990113648" id="-7474">
		<tag k="name" v="Sørskagen" />
		<tag k="natural" v="cape" />
		<tag k="ssr:stedsnr" v="541033" />
	</node>
	<node lat="67.3956888882235" lon="14.257319438866839" id="-7476">
		<tag k="name" v="Osan" />
		<tag k="natural" v="bay" />
		<tag k="ssr:stedsnr" v="541203" />
	</node>
	<node lat="67.21205000259678" lon="14.363677777660875" id="-7477">
		<tag k="name" v="Purka" />
		<tag k="natural" v="cape" />
		<tag k="ssr:stedsnr" v="541208" />
	</node>
	<node lat="67.18211389140559" lon="14.468799998623135" id="-7479">
		<tag k="name" v="Sandvik" />
		<tag k="natural" v="bay" />
		<tag k="ssr:stedsnr" v="541268" />
	</node>
	<node lat="67.43134444648965" lon="14.404177773965127" id="-7485">
		<tag k="fixme" v="consider seamark:type=rock or natural=shoal" />
		<tag k="name" v="Grønnvikskjæret" />
		<tag k="place" v="islet" />
		<tag k="ssr:stedsnr" v="541424" />
	</node>
	<node lat="67.56671944149711" lon="14.665516673925467" id="-7490">
		<tag k="fixme" v="consider seamark:type=rock or natural=shoal" />
		<tag k="name" v="Geitskjæret" />
		<tag k="place" v="islet" />
		<tag k="ssr:stedsnr" v="541714" />
	</node>
	<node lat="67.23719166528103" lon="13.85955556233169" id="-7493">
		<tag k="fixme" v="consider seamark:type=rock or natural=shoal" />
		<tag k="name" v="Ellevskjæran" />
		<tag k="place" v="islet" />
		<tag k="ssr:stedsnr" v="545570" />
	</node>
	<node lat="67.38645277491433" lon="14.848616660180562" id="-7498">
		<tag k="name" v="Tømmervika" />
		<tag k="natural" v="bay" />
		<tag k="ssr:stedsnr" v="687546" />
	</node>
	<node lat="67.30981110661834" lon="15.008333337949045" id="-7504">
		<tag k="name" v="Halsvika" />
		<tag k="natural" v="bay" />
		<tag k="ssr:stedsnr" v="687657" />
	</node>
	<node lat="67.4999638866691" lon="14.704600010770218" id="-7506">
		<tag k="name" v="Fjærvika" />
		<tag k="natural" v="bay" />
		<tag k="ssr:stedsnr" v="760831" />
	</node>
	<node lat="67.41799166494215" lon="13.928883342181681" id="-7509">
		<tag k="name" v="Øksnessveet" />
		<tag k="natural" v="strait" />
		<tag k="ssr:stedsnr" v="561069" />
	</node>
	<node lat="67.41427777470759" lon="13.979997210095279" id="-7510">
		<tag k="alt_name" v="Lyngesøya, l;Littj-Lynnesøya" />
		<tag k="name" v="Litle Lyngesøya" />
		<tag k="place" v="islet" />
		<tag k="ssr:stedsnr" v="561074" />
	</node>
	<node lat="67.40313333786246" lon="13.819233328712091" id="-7511">
		<tag k="name" v="Flåa" />
		<tag k="place" v="islet" />
		<tag k="ssr:stedsnr" v="561077" />
	</node>
	<node lat="67.4121694408308" lon="13.873619435281002" id="-7512">
		<tag k="alt_name" v="Stolsøya, nordre;Nord-Stolsøya" />
		<tag k="name" v="Nordre Stolsøya" />
		<tag k="place" v="islet" />
		<tag k="ssr:stedsnr" v="561080" />
	</node>
	<node lat="67.42641389141949" lon="13.994325008415506" id="-7513">
		<tag k="alt_name" v="Nautskjera" />
		<tag k="fixme" v="multiple name tags, choose one and add the other to alt_name; consider seamark:type=rock or natural=shoal" />
		<tag k="name" v="Naustskjeran;Nautskjæra" />
		<tag k="place" v="islet" />
		<tag k="ssr:stedsnr" v="561094" />
	</node>
	<node lat="67.26554444234257" lon="14.704958334113151" id="-7540">
		<tag k="name" v="Stabben" />
		<tag k="natural" v="shoal" />
		<tag k="place" v="locality" />
		<tag k="ssr:stedsnr" v="570331" />
	</node>
	<node lat="67.27831666374742" lon="14.607638877455827" id="-7541">
		<tag k="name" v="Møkkalasset" />
		<tag k="natural" v="shoal" />
		<tag k="place" v="locality" />
		<tag k="ssr:stedsnr" v="570334" />
	</node>
	<node lat="67.45929166521907" lon="14.815069451864483" id="-7546">
		<tag k="name" v="Fjæreidbukta" />
		<tag k="natural" v="bay" />
		<tag k="ssr:stedsnr" v="571407" />
	</node>
	<node lat="67.40171389059483" lon="13.948838897745926" id="-7547">
		<tag k="alt_name" v="Vardholmen" />
		<tag k="name" v="Vardeholmen" />
		<tag k="place" v="islet" />
		<tag k="ssr:stedsnr" v="571456" />
	</node>
	<node lat="67.25741388638008" lon="14.30939166245826" id="-7555">
		<tag k="name" v="Båtleia" />
		<tag k="natural" v="strait" />
		<tag k="ssr:stedsnr" v="577500" />
	</node>
	<node lat="67.2640944478367" lon="14.716105549638124" id="-7564">
		<tag k="fixme" v="consider seamark:type=rock or natural=shoal" />
		<tag k="name" v="Osskjæret" />
		<tag k="place" v="islet" />
		<tag k="ssr:stedsnr" v="578518" />
	</node>
	<node lat="67.25262222101625" lon="14.687677775852134" id="-7573">
		<tag k="fixme" v="consider seamark:type=rock or natural=shoal" />
		<tag k="name" v="Kvitskjæret" />
		<tag k="place" v="islet" />
		<tag k="ssr:stedsnr" v="578493" />
	</node>
	<node lat="67.4010611105174" lon="14.595330564964115" id="-7575">
		<tag k="name" v="Rørvikholmen" />
		<tag k="place" v="islet" />
		<tag k="ssr:stedsnr" v="578715" />
	</node>
	<node lat="67.51407499756813" lon="14.715930562226152" id="-7581">
		<tag k="name" v="Kvitskjærbøen" />
		<tag k="place" v="locality" />
		<tag k="seamark:type" v="rock" />
		<tag k="ssr:stedsnr" v="578838" />
	</node>
	<node lat="67.43446110826062" lon="13.967338888442985" id="-7592">
		<tag k="name" v="Littjvika" />
		<tag k="natural" v="bay" />
		<tag k="ssr:stedsnr" v="589076" />
	</node>
	<node lat="67.2891777790691" lon="13.996180564047423" id="-7593">
		<tag k="name" v="Tverrliholmen" />
		<tag k="place" v="islet" />
		<tag k="ssr:stedsnr" v="594807" />
	</node>
	<node lat="67.44137222364412" lon="14.368349993670387" id="-7613">
		<tag k="fixme" v="consider seamark:type=rock or natural=shoal" />
		<tag k="name" v="Buskuskjæran" />
		<tag k="place" v="islet" />
		<tag k="ssr:stedsnr" v="601401" />
	</node>
	<node lat="67.52622222184729" lon="14.787880563507533" id="-7627">
		<tag k="name" v="Kråkholmbukta" />
		<tag k="natural" v="bay" />
		<tag k="ssr:stedsnr" v="699849" />
	</node>
	<node lat="67.52380555875425" lon="14.772300008191628" id="-7628">
		<tag k="fixme" v="consider seamark:type=rock or natural=shoal" />
		<tag k="name" v="Bukkskjæret" />
		<tag k="place" v="islet" />
		<tag k="ssr:stedsnr" v="699850" />
	</node>
	<node lat="67.54719167088307" lon="14.84699999550262" id="-7634">
		<tag k="name" v="Langvika" />
		<tag k="natural" v="bay" />
		<tag k="ssr:stedsnr" v="699878" />
	</node>
	<node lat="67.24052500357027" lon="14.713708336380975" id="-7648">
		<tag k="name" v="Brottet" />
		<tag k="place" v="locality" />
		<tag k="ssr:stedsnr" v="700496" />
	</node>
	<node lat="67.20456666909556" lon="14.982036117883851" id="-7654">
		<tag k="name" v="Neset" />
		<tag k="natural" v="cape" />
		<tag k="ssr:stedsnr" v="700745" />
	</node>
	<node lat="67.52802222134973" lon="14.531305566330445" id="-7659">
		<tag k="name" v="Arøyskallen" />
		<tag k="natural" v="shoal" />
		<tag k="place" v="locality" />
		<tag k="ssr:stedsnr" v="701851" />
	</node>
	<node lat="67.52333055267064" lon="14.563813887713936" id="-7660">
		<tag k="name" v="Husøybøen" />
		<tag k="natural" v="shoal" />
		<tag k="place" v="locality" />
		<tag k="ssr:stedsnr" v="701852" />
	</node>
	<node lat="67.22788889216042" lon="14.711347211463478" id="-7661">
		<tag k="name" v="Vikran" />
		<tag k="natural" v="bay" />
		<tag k="ssr:stedsnr" v="622013" />
	</node>
	<node lat="67.20124166304377" lon="14.592522212251202" id="-7663">
		<tag k="fixme" v="consider seamark:type=rock or natural=shoal" />
		<tag k="name" v="Kobbskjæret" />
		<tag k="place" v="islet" />
		<tag k="ssr:stedsnr" v="622105" />
	</node>
	<node lat="67.20181944690904" lon="14.47036945318583" id="-7665">
		<tag k="alt_name" v="Sundan, ytre" />
		<tag k="bay" v="fjord" />
		<tag k="name" v="Ytre Sundan" />
		<tag k="natural" v="bay" />
		<tag k="ssr:stedsnr" v="622109" />
	</node>
	<node lat="67.41949444287704" lon="14.015961117417342" id="-7666">
		<tag k="name" v="Steinskjærgrunnen" />
		<tag k="natural" v="shoal" />
		<tag k="place" v="locality" />
		<tag k="ssr:stedsnr" v="622075" />
	</node>
	<node lat="67.44201388665805" lon="13.895288877296903" id="-7667">
		<tag k="name" v="Helligvær" />
		<tag k="place" v="island" />
		<tag k="ssr:stedsnr" v="622078" />
	</node>
	<node lat="67.4092583290686" lon="13.856119451249347" id="-7668">
		<tag k="fixme" v="consider seamark:type=rock or natural=shoal" />
		<tag k="name" v="Tommeskjæret" />
		<tag k="place" v="islet" />
		<tag k="ssr:stedsnr" v="622081" />
	</node>
	<node lat="67.29850277816908" lon="14.320538894651234" id="-7671">
		<tag k="name" v="Skipsholmsundet" />
		<tag k="natural" v="strait" />
		<tag k="ssr:stedsnr" v="622284" />
	</node>
	<node lat="67.39501111127807" lon="14.608055548301014" id="-7675">
		<tag k="name" v="Litlholmen" />
		<tag k="place" v="islet" />
		<tag k="ssr:stedsnr" v="622365" />
	</node>
	<node lat="67.57251667119222" lon="14.641172219859333" id="-7677">
		<tag k="alt_name" v="Kvitholmen, in;Indre Kvitholman" />
		<tag k="name" v="Indre Kvitholmen" />
		<tag k="place" v="islet" />
		<tag k="ssr:stedsnr" v="622462" />
	</node>
	<node lat="67.59237222517908" lon="14.716883344915052" id="-7678">
		<tag k="name" v="Helløya" />
		<tag k="place" v="island" />
		<tag k="ssr:stedsnr" v="622464" />
	</node>
	<node lat="67.4293499986518" lon="14.4551444479329" id="-7679">
		<tag k="name" v="Mistgrunnen" />
		<tag k="natural" v="shoal" />
		<tag k="place" v="locality" />
		<tag k="ssr:stedsnr" v="622467" />
	</node>
	<node lat="67.27137500199163" lon="14.005249997151338" id="-7682">
		<tag k="name" v="Straumsholmen" />
		<tag k="place" v="islet" />
		<tag k="ssr:stedsnr" v="622470" />
	</node>
	<node lat="67.55382777728803" lon="14.62781944825743" id="-7683">
		<tag k="alt_name" v="Verholmen" />
		<tag k="name" v="Værholmen" />
		<tag k="place" v="islet" />
		<tag k="ssr:stedsnr" v="622479" />
	</node>
	<node lat="67.47593888740649" lon="14.650794453589992" id="-7684">
		<tag k="alt_name" v="Stegerøysund" />
		<tag k="name" v="Stegerøysundet" />
		<tag k="natural" v="strait" />
		<tag k="ssr:stedsnr" v="622484" />
	</node>
	<node lat="67.25866388858165" lon="13.982547233455726" id="-7685">
		<tag k="name" v="Tørrisøya" />
		<tag k="place" v="island" />
		<tag k="ssr:stedsnr" v="622489" />
	</node>
	<node lat="67.44825832946722" lon="14.977808330377904" id="-7693">
		<tag k="alt_name" v="Steinneset" />
		<tag k="name" v="Steinodden" />
		<tag k="natural" v="cape" />
		<tag k="ssr:stedsnr" v="622565" />
	</node>
	<node lat="67.24920555465125" lon="13.96317498999144" id="-7707">
		<tag k="alt_name" v="Eggeløysa" />
		<tag k="name" v="Eggløysa" />
		<tag k="place" v="islet" />
		<tag k="ssr:stedsnr" v="622941" />
	</node>
	<node lat="67.60831111455668" lon="14.759116675788515" id="-7708">
		<tag k="name" v="Utrorholmen" />
		<tag k="place" v="islet" />
		<tag k="ssr:stedsnr" v="623080" />
	</node>
	<node lat="67.45124722545496" lon="14.078483334492123" id="-7713">
		<tag k="fixme" v="consider seamark:type=rock or natural=shoal" />
		<tag k="name" v="Trollskjæret" />
		<tag k="place" v="islet" />
		<tag k="ssr:stedsnr" v="623113" />
	</node>
	<node lat="67.5415583296383" lon="14.834672230439093" id="-7715">
		<tag k="name" v="Osvika" />
		<tag k="natural" v="bay" />
		<tag k="ssr:stedsnr" v="623115" />
	</node>
	<node lat="67.52369999897645" lon="14.744244433988918" id="-7719">
		<tag k="fixme" v="consider seamark:type=rock or natural=shoal" />
		<tag k="name" v="Hysskjæret" />
		<tag k="place" v="islet" />
		<tag k="ssr:stedsnr" v="623159" />
	</node>
	<node lat="67.52982777841758" lon="15.080019440001292" id="-7721">
		<tag k="name" v="Ørnneset" />
		<tag k="natural" v="cape" />
		<tag k="ssr:stedsnr" v="623173" />
	</node>
	<node lat="67.53559444651975" lon="14.57409443687704" id="-7728">
		<tag k="name" v="Hinderøya" />
		<tag k="place" v="island" />
		<tag k="ssr:stedsnr" v="623479" />
	</node>
	<node lat="67.50320833508209" lon="14.681330548919984" id="-7729">
		<tag k="alt_name" v="Lamholman, s" />
		<tag k="fixme" v="multiple name tags, choose one and add the other to alt_name" />
		<tag k="name" v="Nedre Lamholmen;Søre Lamholman" />
		<tag k="place" v="islet" />
		<tag k="ssr:stedsnr" v="623508" />
	</node>
	<node lat="67.18885833503877" lon="14.736883336203416" id="-7733">
		<tag k="bay" v="fjord" />
		<tag k="name" v="Leira" />
		<tag k="natural" v="bay" />
		<tag k="ssr:stedsnr" v="623761" />
	</node>
	<node lat="67.19149722574183" lon="14.942763881594647" id="-7734">
		<tag k="name" v="Drevnesodden" />
		<tag k="natural" v="cape" />
		<tag k="ssr:stedsnr" v="623767" />
	</node>
	<node lat="67.43021667003383" lon="14.035144442437387" id="-7740">
		<tag k="fixme" v="consider seamark:type=rock or natural=shoal" />
		<tag k="name" v="Tennskjæret" />
		<tag k="place" v="islet" />
		<tag k="ssr:stedsnr" v="630074" />
	</node>
	<node lat="67.22178889241451" lon="14.62059721388292" id="-7742">
		<tag k="name" v="Laukenggrunnen" />
		<tag k="natural" v="shoal" />
		<tag k="place" v="locality" />
		<tag k="ssr:stedsnr" v="631337" />
	</node>
	<node lat="67.44809166922006" lon="14.70786388640064" id="-7743">
		<tag k="name" v="Storskjærbøen" />
		<tag k="place" v="locality" />
		<tag k="seamark:type" v="rock" />
		<tag k="ssr:stedsnr" v="631389" />
	</node>
	<node lat="67.28736110638242" lon="14.85833334278039" id="-7754">
		<tag k="name" v="Hamn" />
		<tag k="natural" v="bay" />
		<tag k="ssr:stedsnr" v="638108" />
	</node>
	<node lat="67.29187499610853" lon="14.910605562278057" id="-7755">
		<tag k="fixme" v="consider seamark:type=rock or natural=shoal" />
		<tag k="name" v="Storskjæret" />
		<tag k="place" v="islet" />
		<tag k="ssr:stedsnr" v="638116" />
	</node>
	<node lat="67.22670000284187" lon="14.612216664681837" id="-7757">
		<tag k="name" v="Oksbåsen" />
		<tag k="natural" v="bay" />
		<tag k="ssr:stedsnr" v="638409" />
	</node>
	<node lat="67.28844166721109" lon="14.618963889590352" id="-7760">
		<tag k="name" v="Åsleira" />
		<tag k="natural" v="bay" />
		<tag k="ssr:stedsnr" v="638315" />
	</node>
	<node lat="67.40995278134918" lon="14.584736100740834" id="-7769">
		<tag k="name" v="Stokkvika" />
		<tag k="natural" v="bay" />
		<tag k="ssr:stedsnr" v="638933" />
	</node>
	<node lat="67.50812778109669" lon="14.72675278711515" id="-7776">
		<tag k="fixme" v="consider seamark:type=rock or natural=shoal" />
		<tag k="name" v="Åsvikskjæret" />
		<tag k="place" v="islet" />
		<tag k="ssr:stedsnr" v="638882" />
	</node>
	<node lat="67.43903611513647" lon="14.752422221052301" id="-7778">
		<tag k="name" v="Gjømmerholmen" />
		<tag k="place" v="islet" />
		<tag k="ssr:stedsnr" v="638888" />
	</node>
	<node lat="67.44103888896441" lon="14.74839166711097" id="-7780">
		<tag k="name" v="Slåttvik" />
		<tag k="natural" v="bay" />
		<tag k="ssr:stedsnr" v="638892" />
	</node>
	<node lat="67.53107777913598" lon="14.482966662006415" id="-7784">
		<tag k="name" v="Nyskallen" />
		<tag k="natural" v="shoal" />
		<tag k="place" v="locality" />
		<tag k="ssr:stedsnr" v="639928" />
	</node>
	<node lat="67.26279722407295" lon="14.311438888159968" id="-7785">
		<tag k="fixme" v="consider seamark:type=rock or natural=shoal" />
		<tag k="name" v="Skagen" />
		<tag k="place" v="islet" />
		<tag k="ssr:stedsnr" v="647024" />
	</node>
	<node lat="67.41466388728028" lon="13.960472221902924" id="-7793">
		<tag k="name" v="Austerøyodden" />
		<tag k="natural" v="cape" />
		<tag k="ssr:stedsnr" v="647795" />
	</node>
	<node lat="67.30671388992577" lon="13.722577771334407" id="-7794">
		<tag k="fixme" v="consider seamark:type=rock or natural=shoal" />
		<tag k="name" v="Tennskjæret" />
		<tag k="place" v="islet" />
		<tag k="ssr:stedsnr" v="650103" />
	</node>
	<node lat="67.27004722547832" lon="13.991180563786676" id="-7800">
		<tag k="name" v="Kjelsholmen" />
		<tag k="place" v="islet" />
		<tag k="ssr:stedsnr" v="708175" />
	</node>
	<node lat="67.42919166652808" lon="13.940294452430745" id="-7803">
		<tag k="name" v="Hestøya" />
		<tag k="place" v="island" />
		<tag k="ssr:stedsnr" v="655803" />
	</node>
	<node lat="67.42968888949626" lon="13.949286115933125" id="-7806">
		<tag k="name" v="Tvillingsholman" />
		<tag k="place" v="islet" />
		<tag k="ssr:stedsnr" v="655802" />
	</node>
	<node lat="67.3991111101875" lon="13.894897216562049" id="-7807">
		<tag k="name" v="Meøya" />
		<tag k="place" v="island" />
		<tag k="ssr:stedsnr" v="708820" />
	</node>
	<node lat="67.41016389190926" lon="13.901547230246944" id="-7808">
		<tag k="name" v="Storholmen" />
		<tag k="place" v="islet" />
		<tag k="ssr:stedsnr" v="708796" />
	</node>
	<node lat="67.39760555288835" lon="13.875519437001804" id="-7809">
		<tag k="name" v="Kalven" />
		<tag k="natural" v="cape" />
		<tag k="ssr:stedsnr" v="708829" />
	</node>
	<node lat="67.40609999961376" lon="13.901430544923553" id="-7811">
		<tag k="name" v="Oppsåttet" />
		<tag k="natural" v="bay" />
		<tag k="ssr:stedsnr" v="708834" />
	</node>
	<node lat="67.38878889186918" lon="14.245738897543946" id="-7823">
		<tag k="name" v="Leirvika" />
		<tag k="natural" v="bay" />
		<tag k="ssr:stedsnr" v="662191" />
	</node>
	<node lat="67.39041388807293" lon="14.24226110534528" id="-7824">
		<tag k="fixme" v="consider seamark:type=rock or natural=shoal" />
		<tag k="name" v="Tjeldskjæret" />
		<tag k="place" v="islet" />
		<tag k="ssr:stedsnr" v="662194" />
	</node>
	<node lat="67.17918333029482" lon="14.561633339630365" id="-7840">
		<tag k="name" v="Førrøytjønna" />
		<tag k="natural" v="bay" />
		<tag k="ssr:stedsnr" v="662390" />
	</node>
	<node lat="67.55673333099658" lon="14.655494451041472" id="-7842">
		<tag k="name" v="Dragsundet" />
		<tag k="natural" v="strait" />
		<tag k="ssr:stedsnr" v="662710" />
	</node>
	<node lat="67.5458138928158" lon="14.654644438870275" id="-7843">
		<tag k="name" v="Hjelløyvalen" />
		<tag k="natural" v="strait" />
		<tag k="ssr:stedsnr" v="662711" />
	</node>
	<node lat="67.56484166986063" lon="14.665075008464434" id="-7844">
		<tag k="name" v="Sandvika" />
		<tag k="natural" v="bay" />
		<tag k="ssr:stedsnr" v="662719" />
	</node>
	<node lat="67.42589166771324" lon="13.985383324295038" id="-7852">
		<tag k="name" v="Kalvholmen" />
		<tag k="place" v="islet" />
		<tag k="ssr:stedsnr" v="890188" />
	</node>
	<node lat="67.40666666812787" lon="13.863941658142414" id="-7856">
		<tag k="name" v="Munkholmen" />
		<tag k="place" v="islet" />
		<tag k="ssr:stedsnr" v="890875" />
	</node>
	<node lat="67.39025833726113" lon="13.93530834365999" id="-7857">
		<tag k="fixme" v="consider seamark:type=rock or natural=shoal" />
		<tag k="name" v="Prestøyskjæret" />
		<tag k="place" v="islet" />
		<tag k="ssr:stedsnr" v="890837" />
	</node>
	<node lat="67.39803333720852" lon="13.909172212258042" id="-7858">
		<tag k="name" v="Oterholmen" />
		<tag k="place" v="islet" />
		<tag k="ssr:stedsnr" v="890839" />
	</node>
	<node lat="67.26025000117295" lon="14.30766389616828" id="-7859">
		<tag k="name" v="Nordskagen" />
		<tag k="natural" v="strait" />
		<tag k="ssr:stedsnr" v="891037" />
	</node>
	<node lat="67.18869721891075" lon="14.50189443983195" id="-7866">
		<tag k="name" v="Sørvika" />
		<tag k="natural" v="bay" />
		<tag k="ssr:stedsnr" v="891320" />
	</node>
	<node lat="67.3301861084414" lon="14.481188890792232" id="-7876">
		<tag k="name" v="Gravodden" />
		<tag k="natural" v="cape" />
		<tag k="ssr:stedsnr" v="683267" />
	</node>
	<node lat="67.34072222241191" lon="14.49609444618838" id="-7879">
		<tag k="alt_name" v="Mauren, store" />
		<tag k="fixme" v="multiple name tags, choose one and add the other to alt_name" />
		<tag k="name" v="Mauren;Store Mauren" />
		<tag k="place" v="islet" />
		<tag k="ssr:stedsnr" v="683307" />
	</node>
	<node lat="67.3750666631678" lon="14.251738886047056" id="-7882">
		<tag k="name" v="Fatvåg" />
		<tag k="natural" v="bay" />
		<tag k="ssr:stedsnr" v="683324" />
	</node>
	<node lat="67.3957027764083" lon="14.455013896279583" id="-7883">
		<tag k="alt_name" v="Bringholmen, yt" />
		<tag k="name" v="Ytre Bringholmen" />
		<tag k="place" v="islet" />
		<tag k="ssr:stedsnr" v="683356" />
	</node>
	<node lat="67.39379444341537" lon="14.384738887346805" id="-7885">
		<tag k="name" v="Kvia" />
		<tag k="natural" v="cape" />
		<tag k="ssr:stedsnr" v="683358" />
	</node>
	<node lat="67.38659721997253" lon="14.309155550754658" id="-7886">
		<tag k="name" v="Tennholmen" />
		<tag k="place" v="islet" />
		<tag k="ssr:stedsnr" v="683365" />
	</node>
	<node lat="67.2573055578952" lon="13.918661120945458" id="-7889">
		<tag k="fixme" v="consider seamark:type=rock or natural=shoal" />
		<tag k="name" v="Ausa" />
		<tag k="place" v="islet" />
		<tag k="ssr:stedsnr" v="683459" />
	</node>
	<node lat="67.49876944891652" lon="14.67411666123911" id="-7890">
		<tag k="fixme" v="consider seamark:type=rock or natural=shoal" />
		<tag k="name" v="Skarvskjæret" />
		<tag k="place" v="islet" />
		<tag k="ssr:stedsnr" v="683461" />
	</node>
	<node lat="67.24116110847675" lon="14.744986107940386" id="-7895">
		<tag k="bay" v="fjord" />
		<tag k="name" v="Skjerstadfjorden" />
		<tag k="natural" v="bay" />
		<tag k="ssr:stedsnr" v="683607" />
	</node>
	<node lat="67.23912777554688" lon="14.720361103504864" id="-7896">
		<tag k="loc_name:smj" v="Gåddjåstrávve" />
		<tag k="name" v="Godøystraumen" />
		<tag k="name:no" v="Godøystraumen" />
		<tag k="natural" v="bay" />
		<tag k="ssr:stedsnr" v="683608" />
	</node>
	<node lat="67.24886111275369" lon="14.992725007244463" id="-7900">
		<tag k="name" v="Flua" />
		<tag k="natural" v="shoal" />
		<tag k="place" v="locality" />
		<tag k="ssr:stedsnr" v="683626" />
	</node>
	<node lat="67.24744722544578" lon="14.74455277594877" id="-7901">
		<tag k="name" v="Tekkelvika" />
		<tag k="natural" v="bay" />
		<tag k="ssr:stedsnr" v="683628" />
	</node>
	<node lat="67.28968611203031" lon="14.651763888809159" id="-7905">
		<tag k="fixme" v="consider seamark:type=rock or natural=shoal" />
		<tag k="name" v="Sandskjæret" />
		<tag k="place" v="islet" />
		<tag k="ssr:stedsnr" v="683669" />
	</node>
	<node lat="67.31294444867602" lon="14.047930554587053" id="-7910">
		<tag k="name" v="Pungholmen" />
		<tag k="place" v="islet" />
		<tag k="ssr:stedsnr" v="684004" />
	</node>
	<node lat="67.31359722532919" lon="14.052333335841361" id="-7911">
		<tag k="name" v="Tjørnøya" />
		<tag k="place" v="islet" />
		<tag k="ssr:stedsnr" v="684005" />
	</node>
	<node lat="67.3071888915953" lon="14.05445000619116" id="-7912">
		<tag k="name" v="Tvillingøya" />
		<tag k="place" v="islet" />
		<tag k="ssr:stedsnr" v="684007" />
	</node>
	<node lat="67.24085000362383" lon="14.685558324710005" id="-7913">
		<tag k="alt_name" v="Attholmen" />
		<tag k="name" v="Åttholmen" />
		<tag k="place" v="islet" />
		<tag k="ssr:stedsnr" v="684015" />
	</node>
	<node lat="67.3117888842686" lon="13.972280565917941" id="-7915">
		<tag k="name" v="Langbøen" />
		<tag k="natural" v="shoal" />
		<tag k="place" v="locality" />
		<tag k="ssr:stedsnr" v="684020" />
	</node>
	<node lat="67.2359805553282" lon="14.554669436570633" id="-7916">
		<tag k="alt_name" v="Storhellvika;Hellevika, store" />
		<tag k="name" v="Store Hellevika" />
		<tag k="natural" v="bay" />
		<tag k="ssr:stedsnr" v="684025" />
	</node>
	<node lat="67.60057777988604" lon="14.753566670777118" id="-7917">
		<tag k="name" v="Nordodden" />
		<tag k="natural" v="cape" />
		<tag k="ssr:stedsnr" v="684060" />
	</node>
	<node lat="67.5706555517179" lon="15.038563892638605" id="-7921">
		<tag k="name" v="Langstranda" />
		<tag k="natural" v="beach" />
		<tag k="ssr:stedsnr" v="684112" />
	</node>
	<node lat="67.30219999851452" lon="13.695666664671752" id="-7922">
		<tag k="alt_name" v="Kvannøya, store;Kvannøya" />
		<tag k="name" v="Store Kvannøya" />
		<tag k="place" v="islet" />
		<tag k="ssr:stedsnr" v="684124" />
	</node>
	<node lat="67.32117499845923" lon="14.457624998815836" id="-7927">
		<tag k="alt_name" v="Brømnes;Bremneset" />
		<tag k="name" v="Brømneset" />
		<tag k="natural" v="cape" />
		<tag k="ssr:stedsnr" v="684300" />
	</node>
	<node lat="67.18556111320174" lon="14.636627771548564" id="-7931">
		<tag k="name" v="Trollhola" />
		<tag k="natural" v="bay" />
		<tag k="ssr:stedsnr" v="684418" />
	</node>
	<node lat="67.28717221922494" lon="14.80849999007788" id="-7939">
		<tag k="alt_name" v="Varbeinsodden" />
		<tag k="name" v="Varbenesodden" />
		<tag k="natural" v="cape" />
		<tag k="ssr:stedsnr" v="687686" />
	</node>
	<node lat="67.26915555269947" lon="14.842530560116986" id="-7943">
		<tag k="fixme" v="consider seamark:type=rock or natural=shoal" />
		<tag k="name" v="Storskjæret" />
		<tag k="place" v="islet" />
		<tag k="ssr:stedsnr" v="688442" />
	</node>
	<node lat="67.43403333252134" lon="13.999141662429595" id="-7950">
		<tag k="alt_name" v="Unnersholmen" />
		<tag k="name" v="Undersholmen" />
		<tag k="place" v="islet" />
		<tag k="ssr:stedsnr" v="692426" />
	</node>
	<node lat="67.19435833544873" lon="14.51451667470652" id="-7951">
		<tag k="name" v="Vågen" />
		<tag k="natural" v="bay" />
		<tag k="ssr:stedsnr" v="692324" />
	</node>
	<node lat="67.24883333686546" lon="14.005836118454905" id="-7953">
		<tag k="name" v="Ytre Drivskjærgrunnen" />
		<tag k="natural" v="shoal" />
		<tag k="ssr:stedsnr" v="693324" />
	</node>
	<node lat="67.42132222260379" lon="13.86047777919738" id="-7956">
		<tag k="name" v="Teistholmen" />
		<tag k="place" v="islet" />
		<tag k="ssr:stedsnr" v="693470" />
	</node>
	<node lat="67.28302777769899" lon="14.305686110381638" id="-7967">
		<tag k="name" v="Innstranda" />
		<tag k="natural" v="beach" />
		<tag k="ssr:stedsnr" v="699021" />
	</node>
	<node lat="67.27192777930443" lon="14.343580553285507" id="-7971">
		<tag k="name" v="Kvithammaren" />
		<tag k="natural" v="cape" />
		<tag k="ssr:stedsnr" v="699470" />
	</node>
	<node lat="67.26299166695405" lon="14.234741667634875" id="-7972">
		<tag k="name" v="Store Svartoksen" />
		<tag k="place" v="islet" />
		<tag k="ssr:stedsnr" v="699477" />
	</node>
	<node lat="67.2923944474203" lon="15.004247227967994" id="-7979">
		<tag k="name" v="Storøya" />
		<tag k="natural" v="cape" />
		<tag k="ssr:stedsnr" v="699776" />
	</node>
	<node lat="67.56520832890524" lon="14.899072223558298" id="-7985">
		<tag k="name" v="Sjurvika" />
		<tag k="natural" v="bay" />
		<tag k="ssr:stedsnr" v="700413" />
	</node>
	<node lat="67.24242499711255" lon="14.704213886039934" id="-7988">
		<tag k="fixme" v="consider seamark:type=rock or natural=shoal" />
		<tag k="name" v="Eskjæret" />
		<tag k="place" v="islet" />
		<tag k="ssr:stedsnr" v="700503" />
	</node>
	<node lat="67.4765305518962" lon="14.65306666771358" id="-7993">
		<tag k="name" v="Ruskeilo" />
		<tag k="natural" v="bay" />
		<tag k="ssr:stedsnr" v="700806" />
	</node>
	<node lat="67.48836666619027" lon="14.663100000782459" id="-7994">
		<tag k="fixme" v="consider seamark:type=rock or natural=shoal" />
		<tag k="name" v="Kløftskjæran" />
		<tag k="place" v="islet" />
		<tag k="ssr:stedsnr" v="700817" />
	</node>
	<node lat="67.49205555693939" lon="14.661327770546638" id="-7995">
		<tag k="fixme" v="consider seamark:type=rock or natural=shoal" />
		<tag k="name" v="Brattholmskjæran" />
		<tag k="place" v="islet" />
		<tag k="ssr:stedsnr" v="700823" />
	</node>
	<node lat="67.38187222014125" lon="14.288622219342333" id="-7998">
		<tag k="name" v="Klevikodden" />
		<tag k="natural" v="cape" />
		<tag k="ssr:stedsnr" v="708125" />
	</node>
	<node lat="67.23909166406705" lon="14.513450009328398" id="-8002">
		<tag k="fixme" v="consider seamark:type=rock or natural=shoal" />
		<tag k="name" v="Litleskjæret" />
		<tag k="place" v="islet" />
		<tag k="ssr:stedsnr" v="708320" />
	</node>
	<node lat="67.28019722454997" lon="13.938591659241835" id="-8004">
		<tag k="name" v="Kleven" />
		<tag k="place" v="island" />
		<tag k="ssr:stedsnr" v="708567" />
	</node>
	<node lat="67.2685472204057" lon="13.929919452693488" id="-8005">
		<tag k="name" v="Nord-Otervika" />
		<tag k="natural" v="bay" />
		<tag k="ssr:stedsnr" v="708571" />
	</node>
	<node lat="67.41823611245376" lon="13.960736105481319" id="-8006">
		<tag k="name" v="Kalvvika" />
		<tag k="natural" v="bay" />
		<tag k="ssr:stedsnr" v="708774" />
	</node>
	<node lat="67.20437499810993" lon="14.485752773309429" id="-8007">
		<tag k="bay" v="fjord" />
		<tag k="name" v="Sundan" />
		<tag k="natural" v="bay" />
		<tag k="ssr:stedsnr" v="711582" />
	</node>
	<node lat="67.28800278112156" lon="14.00314721790427" id="-8008">
		<tag k="name" v="Oddholmen" />
		<tag k="natural" v="cape" />
		<tag k="ssr:stedsnr" v="899142" />
	</node>
	<node lat="67.4297638919991" lon="13.93207501009665" id="-8009">
		<tag k="name" v="Littj-Sørøyrøyra" />
		<tag k="place" v="islet" />
		<tag k="ssr:stedsnr" v="899827" />
	</node>
	<node lat="67.19531388701522" lon="14.415863881033369" id="-8016">
		<tag k="name" v="Lappvik" />
		<tag k="natural" v="bay" />
		<tag k="ssr:stedsnr" v="723270" />
	</node>
	<node lat="67.42931388844043" lon="14.327855552954867" id="-8018">
		<tag k="name" v="Smalskjærvika" />
		<tag k="natural" v="bay" />
		<tag k="ssr:stedsnr" v="723414" />
	</node>
	<node lat="67.22862499726189" lon="14.446702770411052" id="-8029">
		<tag k="name" v="Kvalholmen" />
		<tag k="natural" v="cape" />
		<tag k="ssr:stedsnr" v="744009" />
	</node>
	<node lat="67.24211388811673" lon="14.694224995850812" id="-8030">
		<tag k="name" v="Nerholmen" />
		<tag k="place" v="islet" />
		<tag k="ssr:stedsnr" v="744011" />
	</node>
	<node lat="67.30626110917567" lon="13.72956665881324" id="-8031">
		<tag k="name" v="Husøya" />
		<tag k="place" v="island" />
		<tag k="ssr:stedsnr" v="744014" />
	</node>
	<node lat="67.3831111145111" lon="13.907302774658717" id="-8032">
		<tag k="fixme" v="consider seamark:type=rock or natural=shoal" />
		<tag k="name" v="Svartbakskjæret" />
		<tag k="place" v="islet" />
		<tag k="ssr:stedsnr" v="744020" />
	</node>
	<node lat="67.37453333217992" lon="14.202580554121443" id="-8033">
		<tag k="alt_name" v="Odden, in;Innerodden" />
		<tag k="name" v="Indre Odden" />
		<tag k="place" v="islet" />
		<tag k="ssr:stedsnr" v="744026" />
	</node>
	<node lat="67.40128055481985" lon="13.929058322905284" id="-8034">
		<tag k="name" v="Røssøya" />
		<tag k="place" v="islet" />
		<tag k="ssr:stedsnr" v="744037" />
	</node>
	<node lat="67.19488888928339" lon="14.668511112565778" id="-8035">
		<tag k="fixme" v="multiple name tags, choose one and add the other to alt_name" />
		<tag k="name" v="Gillesvågen;Gillesvågvika" />
		<tag k="natural" v="bay" />
		<tag k="ssr:stedsnr" v="744045" />
	</node>
	<node lat="67.42141666627678" lon="14.20536110303397" id="-8036">
		<tag k="name" v="Revet" />
		<tag k="natural" v="shoal" />
		<tag k="place" v="locality" />
		<tag k="ssr:stedsnr" v="744046" />
	</node>
	<node lat="67.20104166799972" lon="14.528974993541514" id="-8037">
		<tag k="alt_name" v="Evjenes" />
		<tag k="name" v="Evjeneset" />
		<tag k="natural" v="cape" />
		<tag k="ssr:stedsnr" v="744048" />
	</node>
	<node lat="67.53544444593437" lon="15.121586108223713" id="-8039">
		<tag k="fixme" v="consider seamark:type=rock or natural=shoal" />
		<tag k="name" v="Øygårdsskjæret" />
		<tag k="place" v="islet" />
		<tag k="ssr:stedsnr" v="744055" />
	</node>
	<node lat="67.42235000120706" lon="13.906097230564118" id="-8040">
		<tag k="name" v="Kalven" />
		<tag k="place" v="island" />
		<tag k="ssr:stedsnr" v="744057" />
	</node>
	<node lat="67.28518610886411" lon="13.509669454117315" id="-8044">
		<tag k="name" v="Tverskallan" />
		<tag k="natural" v="shoal" />
		<tag k="place" v="locality" />
		<tag k="ssr:stedsnr" v="744084" />
	</node>
	<node lat="67.21200833024844" lon="14.35289445475965" id="-8045">
		<tag k="name" v="Galten" />
		<tag k="natural" v="shoal" />
		<tag k="place" v="locality" />
		<tag k="ssr:stedsnr" v="744087" />
	</node>
	<node lat="67.46017222063296" lon="14.126783341960495" id="-8046">
		<tag k="fixme" v="consider seamark:type=rock or natural=shoal" />
		<tag k="name" v="Oddskjæran" />
		<tag k="place" v="islet" />
		<tag k="ssr:stedsnr" v="744089" />
	</node>
	<node lat="67.30578889012826" lon="13.703322220534004" id="-8047">
		<tag k="fixme" v="consider seamark:type=rock or natural=shoal" />
		<tag k="name" v="Kobbskjæret" />
		<tag k="place" v="islet" />
		<tag k="ssr:stedsnr" v="744095" />
	</node>
	<node lat="67.29526388525358" lon="13.485019439622027" id="-8048">
		<tag k="name" v="Brosmenes" />
		<tag k="place" v="islet" />
		<tag k="ssr:stedsnr" v="744096" />
	</node>
	<node lat="67.3042583356223" lon="13.683869445104214" id="-8049">
		<tag k="name" v="Seingsdrangen" />
		<tag k="place" v="islet" />
		<tag k="ssr:stedsnr" v="744099" />
	</node>
	<node lat="67.3495138914106" lon="14.535708330027404" id="-8056">
		<tag k="name" v="Stonga" />
		<tag k="natural" v="cape" />
		<tag k="ssr:stedsnr" v="744274" />
	</node>
	<node lat="67.33555833312242" lon="14.488558331017078" id="-8057">
		<tag k="name" v="Storausodden" />
		<tag k="natural" v="cape" />
		<tag k="ssr:stedsnr" v="744278" />
	</node>
	<node lat="67.3776222191921" lon="14.24033611963507" id="-8060">
		<tag k="name" v="Nilsvika" />
		<tag k="natural" v="bay" />
		<tag k="ssr:stedsnr" v="744296" />
	</node>
	<node lat="67.55438333636262" lon="14.46922223152611" id="-8061">
		<tag k="name" v="Ytstskallen" />
		<tag k="natural" v="shoal" />
		<tag k="place" v="locality" />
		<tag k="ssr:stedsnr" v="744416" />
	</node>
	<node lat="67.56535555574858" lon="14.679155564269456" id="-8062">
		<tag k="name" v="Nordøya" />
		<tag k="place" v="island" />
		<tag k="ssr:stedsnr" v="744417" />
	</node>
	<node lat="67.57160555709598" lon="14.442016678628107" id="-8063">
		<tag k="name" v="Torgerskallen" />
		<tag k="natural" v="shoal" />
		<tag k="place" v="locality" />
		<tag k="ssr:stedsnr" v="744427" />
	</node>
	<node lat="67.58583610805076" lon="14.684427782637034" id="-8066">
		<tag k="fixme" v="consider seamark:type=rock or natural=shoal" />
		<tag k="name" v="Småseiskjæran" />
		<tag k="place" v="islet" />
		<tag k="ssr:stedsnr" v="744431" />
	</node>
	<node lat="67.37930278015277" lon="14.291822228025469" id="-8070">
		<tag k="name" v="Klevikholmen" />
		<tag k="place" v="islet" />
		<tag k="ssr:stedsnr" v="744304" />
	</node>
	<node lat="67.14565833155332" lon="14.975555548233508" id="-8080">
		<tag k="name" v="Halsbukta" />
		<tag k="natural" v="bay" />
		<tag k="ssr:stedsnr" v="744520" />
	</node>
	<node lat="67.25661388853507" lon="14.347430551981029" id="-8087">
		<tag k="name" v="Langholmen" />
		<tag k="place" v="islet" />
		<tag k="ssr:stedsnr" v="744612" />
	</node>
	<node lat="67.22980832886762" lon="15.01895834188267" id="-8088">
		<tag k="name" v="Leira" />
		<tag k="natural" v="bay" />
		<tag k="ssr:stedsnr" v="744623" />
	</node>
	<node lat="67.29037500264936" lon="14.354222231478483" id="-8092">
		<tag k="alt_name" v="Hjartøya, l" />
		<tag k="name" v="Litle Hjartøya" />
		<tag k="place" v="island" />
		<tag k="ssr:stedsnr" v="744691" />
	</node>
	<node lat="67.20863333727499" lon="14.953108325309637" id="-8094">
		<tag k="name" v="Sandsund" />
		<tag k="natural" v="strait" />
		<tag k="ssr:stedsnr" v="744695" />
	</node>
	<node lat="67.27059166957747" lon="14.509380557437007" id="-8098">
		<tag k="name" v="Innstranda" />
		<tag k="natural" v="beach" />
		<tag k="ssr:stedsnr" v="744722" />
	</node>
	<node lat="67.61096944464664" lon="14.746922218834895" id="-8101">
		<tag k="name" v="Bestemorholmen" />
		<tag k="place" v="islet" />
		<tag k="ssr:stedsnr" v="745085" />
	</node>
	<node lat="67.30406388898578" lon="14.730891672578354" id="-8106">
		<tag k="name" v="Holmen" />
		<tag k="natural" v="cape" />
		<tag k="ssr:stedsnr" v="748674" />
	</node>
	<node lat="67.19141944810629" lon="14.646016664294947" id="-8107">
		<tag k="name" v="Bjorvika" />
		<tag k="natural" v="bay" />
		<tag k="ssr:stedsnr" v="905358" />
	</node>
	<node lat="67.29732222206711" lon="13.702711112132809" id="-8109">
		<tag k="name" v="Vestre Belsbøen" />
		<tag k="place" v="locality" />
		<tag k="seamark:type" v="rock" />
		<tag k="ssr:stedsnr" v="753206" />
	</node>
	<node lat="67.27721111563245" lon="13.96088055291955" id="-8110">
		<tag k="name" v="Tørsivika" />
		<tag k="natural" v="bay" />
		<tag k="ssr:stedsnr" v="753216" />
	</node>
	<node lat="67.20409167121036" lon="14.545197217933447" id="-8135">
		<tag k="name" v="Skjågbergodden" />
		<tag k="natural" v="cape" />
		<tag k="ssr:stedsnr" v="905237" />
	</node>
	<node lat="67.3739194470467" lon="14.491561118335232" id="-8138">
		<tag k="name" v="Ytter-Grasøya" />
		<tag k="place" v="island" />
		<tag k="ssr:stedsnr" v="905272" />
	</node>
	<node lat="67.37643333314878" lon="14.50117498965254" id="-8139">
		<tag k="fixme" v="consider seamark:type=rock or natural=shoal" />
		<tag k="name" v="Helvetet" />
		<tag k="place" v="islet" />
		<tag k="ssr:stedsnr" v="905281" />
	</node>
	<node lat="67.38003333714332" lon="14.55361666511929" id="-8141">
		<tag k="name" v="Buskjærvågen" />
		<tag k="natural" v="bay" />
		<tag k="ssr:stedsnr" v="905290" />
	</node>
	<node lat="67.38122221926874" lon="14.552522225143345" id="-8146">
		<tag k="fixme" v="consider seamark:type=rock or natural=shoal" />
		<tag k="name" v="Buskjærhella" />
		<tag k="place" v="islet" />
		<tag k="ssr:stedsnr" v="966328" />
	</node>
	<node lat="67.56526666215875" lon="14.708108335662317" id="-8151">
		<tag k="name" v="Nordodden" />
		<tag k="natural" v="cape" />
		<tag k="ssr:stedsnr" v="905783" />
	</node>
	<node lat="67.24071111473494" lon="14.613866662636022" id="-8163">
		<tag k="name" v="Danielberget" />
		<tag k="natural" v="cape" />
		<tag k="ssr:stedsnr" v="760591" />
	</node>
	<node lat="67.32924444552633" lon="14.483074993343953" id="-8166">
		<tag k="name" v="Gravsanden" />
		<tag k="natural" v="beach" />
		<tag k="ssr:stedsnr" v="760946" />
	</node>
	<node lat="67.31974722038873" lon="14.458397223679832" id="-8170">
		<tag k="name" v="Brømnessanden" />
		<tag k="natural" v="beach" />
		<tag k="ssr:stedsnr" v="760849" />
	</node>
	<node lat="67.52966111234774" lon="14.627002774642785" id="-8177">
		<tag k="name" v="Engøysundet" />
		<tag k="natural" v="strait" />
		<tag k="ssr:stedsnr" v="761416" />
	</node>
	<node lat="67.36977500063642" lon="14.549080566048795" id="-8180">
		<tag k="name" v="Brattholmen" />
		<tag k="place" v="islet" />
		<tag k="ssr:stedsnr" v="935430" />
	</node>
	<node lat="67.4957583295546" lon="14.97204721206275" id="-8183">
		<tag k="name" v="Storlisjøen" />
		<tag k="natural" v="bay" />
		<tag k="ssr:stedsnr" v="769218" />
	</node>
	<node lat="67.40073333626053" lon="13.889505545583216" id="-8185">
		<tag k="name" v="Nattmålsvika" />
		<tag k="natural" v="bay" />
		<tag k="ssr:stedsnr" v="769823" />
	</node>
	<node lat="67.4040749985763" lon="13.841694436919811" id="-8187">
		<tag k="fixme" v="consider seamark:type=rock or natural=shoal" />
		<tag k="name" v="Klubbskjæret" />
		<tag k="place" v="islet" />
		<tag k="ssr:stedsnr" v="769841" />
	</node>
	<node lat="67.23159444840527" lon="14.482944447079678" id="-8194">
		<tag k="name" v="Buvika" />
		<tag k="natural" v="bay" />
		<tag k="ssr:stedsnr" v="784020" />
	</node>
	<node lat="67.37817778259127" lon="14.532591656730418" id="-8197">
		<tag k="fixme" v="consider seamark:type=rock or natural=shoal" />
		<tag k="name" v="Taren" />
		<tag k="place" v="islet" />
		<tag k="ssr:stedsnr" v="784329" />
	</node>
	<node lat="67.57156944435833" lon="14.706152770680786" id="-8201">
		<tag k="name" v="Oksøy hamna" />
		<tag k="natural" v="strait" />
		<tag k="ssr:stedsnr" v="784712" />
	</node>
	<node lat="67.2255055594585" lon="14.613802781913883" id="-8205">
		<tag k="alt_name" v="Ørnes" />
		<tag k="name" v="Ørnneset" />
		<tag k="natural" v="cape" />
		<tag k="ssr:stedsnr" v="805005" />
	</node>
	<node lat="67.30874722340496" lon="14.05352222094585" id="-8206">
		<tag k="name" v="Slåttøya" />
		<tag k="place" v="islet" />
		<tag k="ssr:stedsnr" v="805006" />
	</node>
	<node lat="67.28348055805259" lon="13.947186100671253" id="-8207">
		<tag k="alt_name" v="Stangerøya, yt" />
		<tag k="fixme" v="multiple name tags, choose one and add the other to alt_name" />
		<tag k="name" v="Litle Stongerøya;Ytre Stangerøya" />
		<tag k="place" v="island" />
		<tag k="ssr:stedsnr" v="805007" />
	</node>
	<node lat="67.31442221931934" lon="14.008263885064203" id="-8211">
		<tag k="fixme" v="consider seamark:type=rock or natural=shoal" />
		<tag k="name" v="Indre floskjæret" />
		<tag k="place" v="islet" />
		<tag k="ssr:stedsnr" v="805012" />
	</node>
	<node lat="67.39370000369733" lon="13.841125001305663" id="-8213">
		<tag k="alt_name" v="Grytøya, l;Littj Gryttøya" />
		<tag k="name" v="Litle Grytøya" />
		<tag k="place" v="islet" />
		<tag k="ssr:stedsnr" v="805054" />
	</node>
	<node lat="67.1974527790287" lon="14.631869441669254" id="-8214">
		<tag k="name" v="Åselistraumen" />
		<tag k="natural" v="strait" />
		<tag k="ssr:stedsnr" v="805059" />
	</node>
	<node lat="67.40175278011408" lon="13.837888900512208" id="-8215">
		<tag k="name" v="Klubben" />
		<tag k="place" v="islet" />
		<tag k="ssr:stedsnr" v="805066" />
	</node>
	<node lat="67.41133055401761" lon="13.9227499996124" id="-8216">
		<tag k="name" v="Øksnøya" />
		<tag k="place" v="island" />
		<tag k="ssr:stedsnr" v="805070" />
	</node>
	<node lat="67.19071944370903" lon="14.483008335168005" id="-8217">
		<tag k="name" v="Sandnesholet" />
		<tag k="natural" v="strait" />
		<tag k="ssr:stedsnr" v="805071" />
	</node>
	<node lat="67.43393055287943" lon="14.072197216663142" id="-8218">
		<tag k="name" v="Store Tjønnøya" />
		<tag k="place" v="islet" />
		<tag k="ssr:stedsnr" v="805073" />
	</node>
	<node lat="67.46366944299199" lon="14.076263891457822" id="-8221">
		<tag k="name" v="Seingsdrangen" />
		<tag k="place" v="islet" />
		<tag k="ssr:stedsnr" v="805109" />
	</node>
	<node lat="67.30229167101069" lon="13.546361105742811" id="-8222">
		<tag k="name" v="Langskarven" />
		<tag k="place" v="islet" />
		<tag k="ssr:stedsnr" v="805119" />
	</node>
	<node lat="67.28747778173647" lon="14.876730545700145" id="-8227">
		<tag k="name" v="Storholmen" />
		<tag k="place" v="islet" />
		<tag k="ssr:stedsnr" v="809694" />
	</node>
	<node lat="67.26161110693714" lon="13.952697225165512" id="-8228">
		<tag k="name" v="Hjelmøya" />
		<tag k="place" v="island" />
		<tag k="ssr:stedsnr" v="814310" />
	</node>
	<node lat="67.28067222119279" lon="14.325430565460218" id="-8243">
		<tag k="name" v="Eholmskallen" />
		<tag k="natural" v="shoal" />
		<tag k="place" v="locality" />
		<tag k="ssr:stedsnr" v="821472" />
	</node>
	<node lat="67.27095000089656" lon="14.844555562577051" id="-8249">
		<tag k="name" v="Osbukta" />
		<tag k="natural" v="bay" />
		<tag k="ssr:stedsnr" v="821515" />
	</node>
	<node lat="67.25326666673395" lon="14.689805563743258" id="-8250">
		<tag k="fixme" v="consider seamark:type=rock or natural=shoal" />
		<tag k="name" v="Hans Johan skjæret" />
		<tag k="place" v="islet" />
		<tag k="ssr:stedsnr" v="821528" />
	</node>
	<node lat="67.29345000419988" lon="14.84080555376905" id="-8253">
		<tag k="name" v="Osen" />
		<tag k="natural" v="bay" />
		<tag k="ssr:stedsnr" v="821705" />
	</node>
	<node lat="67.1425444434299" lon="14.978222228219416" id="-8258">
		<tag k="fixme" v="multiple name tags, choose one and add the other to alt_name" />
		<tag k="name" v="Nesodden;Klettnesodden" />
		<tag k="natural" v="cape" />
		<tag k="ssr:stedsnr" v="821717" />
	</node>
	<node lat="67.5047388918207" lon="14.679622224484284" id="-8267">
		<tag k="fixme" v="consider seamark:type=rock or natural=shoal" />
		<tag k="name" v="Storbøen" />
		<tag k="place" v="islet" />
		<tag k="ssr:stedsnr" v="821828" />
	</node>
	<node lat="67.4575805560754" lon="14.707208342849492" id="-8269">
		<tag k="name" v="Båtbergsanden" />
		<tag k="natural" v="bay" />
		<tag k="ssr:stedsnr" v="821849" />
	</node>
	<node lat="67.51896389012808" lon="14.750472223331277" id="-8270">
		<tag k="name" v="Kjerringøysundet" />
		<tag k="natural" v="strait" />
		<tag k="ssr:stedsnr" v="821874" />
	</node>
	<node lat="67.53393611031329" lon="14.807147232939919" id="-8271">
		<tag k="name" v="Hestnakkosen" />
		<tag k="natural" v="bay" />
		<tag k="ssr:stedsnr" v="821885" />
	</node>
	<node lat="67.47783055118872" lon="14.638202788337141" id="-8279">
		<tag k="name" v="Nautbøan" />
		<tag k="place" v="locality" />
		<tag k="seamark:type" v="rock" />
		<tag k="ssr:stedsnr" v="823470" />
	</node>
	<node lat="67.41135277884287" lon="13.906183340244533" id="-8282">
		<tag k="name" v="Littjholmen" />
		<tag k="place" v="islet" />
		<tag k="ssr:stedsnr" v="830809" />
	</node>
	<node lat="67.39486666947633" lon="13.947041676654573" id="-8283">
		<tag k="name" v="Prestøydraget" />
		<tag k="natural" v="cape" />
		<tag k="ssr:stedsnr" v="830827" />
	</node>
	<node lat="67.40128055852054" lon="13.95956388606257" id="-8284">
		<tag k="fixme" v="consider seamark:type=rock or natural=shoal" />
		<tag k="name" v="Bogøyskjæret" />
		<tag k="place" v="islet" />
		<tag k="ssr:stedsnr" v="830829" />
	</node>
	<node lat="67.39856111126012" lon="13.89961111413367" id="-8285">
		<tag k="name" v="Fevika" />
		<tag k="natural" v="bay" />
		<tag k="ssr:stedsnr" v="830830" />
	</node>
	<node lat="67.30160833612197" lon="13.725891670932771" id="-8287">
		<tag k="fixme" v="consider seamark:type=rock or natural=shoal" />
		<tag k="name" v="Tennskjæret" />
		<tag k="place" v="islet" />
		<tag k="ssr:stedsnr" v="833013" />
	</node>
	<node lat="67.39136111140719" lon="14.246777774878831" id="-8300">
		<tag k="name" v="Inner-Bonklubben" />
		<tag k="natural" v="cape" />
		<tag k="ssr:stedsnr" v="845218" />
	</node>
	<node lat="67.20314444611053" lon="14.462183323078088" id="-8301">
		<tag k="name" v="Tømmervik" />
		<tag k="natural" v="bay" />
		<tag k="ssr:stedsnr" v="845282" />
	</node>
	<node lat="67.29263889092671" lon="14.860322214407466" id="-8305">
		<tag k="fixme" v="consider seamark:type=rock or natural=shoal" />
		<tag k="name" v="Langskjæret" />
		<tag k="place" v="islet" />
		<tag k="ssr:stedsnr" v="845481" />
	</node>
	<node lat="67.5655166707132" lon="14.65233887845179" id="-8313">
		<tag k="name" v="Nordøyodden" />
		<tag k="natural" v="cape" />
		<tag k="ssr:stedsnr" v="845727" />
	</node>
	<node lat="67.31414166614246" lon="13.99988888514187" id="-8316">
		<tag k="fixme" v="consider seamark:type=rock or natural=shoal" />
		<tag k="name" v="Ytre Floskjæret" />
		<tag k="place" v="islet" />
		<tag k="ssr:stedsnr" v="926018" />
	</node>
	<node lat="67.32351110779454" lon="14.017277783332199" id="-8317">
		<tag k="alt_name" v="Ertnøytaran" />
		<tag k="name" v="Ertnøytaren" />
		<tag k="natural" v="shoal" />
		<tag k="place" v="locality" />
		<tag k="ssr:stedsnr" v="926031" />
	</node>
	<node lat="67.39345277787963" lon="13.807183324933815" id="-8319">
		<tag k="name" v="Litlbøen" />
		<tag k="natural" v="shoal" />
		<tag k="place" v="locality" />
		<tag k="ssr:stedsnr" v="926047" />
	</node>
	<node lat="67.40394444640397" lon="13.937130545704099" id="-8320">
		<tag k="name" v="Sandøya" />
		<tag k="place" v="islet" />
		<tag k="ssr:stedsnr" v="926053" />
	</node>
	<node lat="67.3277555571515" lon="13.56080000228528" id="-8321">
		<tag k="name" v="Svarvskallen" />
		<tag k="natural" v="shoal" />
		<tag k="place" v="locality" />
		<tag k="ssr:stedsnr" v="926136" />
	</node>
	<node lat="67.6406666625269" lon="12.919197231179043" id="-8322">
		<tag k="name" v="Vestfjorden" />
		<tag k="place" v="sea" />
		<tag k="ssr:stedsnr" v="926139" />
	</node>
	<node lat="67.34221111164824" lon="13.588438877569292" id="-8323">
		<tag k="alt_name" v="Krabbgrunnen yt" />
		<tag k="name" v="Ytre Krabbgrunnen" />
		<tag k="natural" v="shoal" />
		<tag k="place" v="locality" />
		<tag k="ssr:stedsnr" v="926140" />
	</node>
	<node lat="67.32634999822112" lon="14.47711111743572" id="-8326">
		<tag k="alt_name" v="Storskjeret" />
		<tag k="fixme" v="multiple name tags, choose one and add the other to alt_name; consider seamark:type=rock or natural=shoal" />
		<tag k="name" v="Sørskjæret;Storskjæret" />
		<tag k="place" v="islet" />
		<tag k="ssr:stedsnr" v="926278" />
	</node>
	<node lat="67.3833166689823" lon="14.620363883821476" id="-8327">
		<tag k="alt_name" v="Buholmen, l" />
		<tag k="name" v="Lille Buholmen" />
		<tag k="natural" v="cape" />
		<tag k="ssr:stedsnr" v="926336" />
	</node>
	<node lat="67.41228611143082" lon="14.61875834206056" id="-8331">
		<tag k="name" v="Fiskbergan" />
		<tag k="natural" v="cape" />
		<tag k="ssr:stedsnr" v="926388" />
	</node>
	<node lat="67.55836388960888" lon="14.599822218155738" id="-8334">
		<tag k="name" v="Osvær" />
		<tag k="place" v="island" />
		<tag k="ssr:stedsnr" v="926436" />
	</node>
	<node lat="67.55964166972032" lon="14.535516661748701" id="-8335">
		<tag k="fixme" v="consider seamark:type=rock or natural=shoal" />
		<tag k="name" v="Nøkkelbøen" />
		<tag k="place" v="islet" />
		<tag k="ssr:stedsnr" v="926438" />
	</node>
	<node lat="67.58022500394063" lon="14.661641662963339" id="-8336">
		<tag k="fixme" v="consider seamark:type=rock or natural=shoal" />
		<tag k="name" v="Seiskjæran" />
		<tag k="place" v="islet" />
		<tag k="ssr:stedsnr" v="926443" />
	</node>
	<node lat="67.26110277473288" lon="14.315894440334105" id="-8348">
		<tag k="name" v="Lyngholmen" />
		<tag k="place" v="islet" />
		<tag k="ssr:stedsnr" v="926641" />
	</node>
	<node lat="67.27346388837874" lon="14.34721387861023" id="-8351">
		<tag k="alt_name" v="Hammarvika" />
		<tag k="name" v="Hammervika" />
		<tag k="natural" v="bay" />
		<tag k="ssr:stedsnr" v="926734" />
	</node>
	<node lat="67.26344166627774" lon="14.71535000603127" id="-8352">
		<tag k="name" v="Godøynesvika" />
		<tag k="natural" v="bay" />
		<tag k="ssr:stedsnr" v="926739" />
	</node>
	<node lat="67.21667777975698" lon="15.00124722862562" id="-8360">
		<tag k="name" v="Halsodden" />
		<tag k="natural" v="cape" />
		<tag k="ssr:stedsnr" v="926701" />
	</node>
	<node lat="67.27488611473898" lon="14.712958345634517" id="-8362">
		<tag k="name" v="Grasholmen" />
		<tag k="place" v="islet" />
		<tag k="ssr:stedsnr" v="926747" />
	</node>
	<node lat="67.36261944903795" lon="14.529216659199038" id="-8363">
		<tag k="name" v="Bjørnholmen" />
		<tag k="place" v="islet" />
		<tag k="ssr:stedsnr" v="927384" />
	</node>
	<node lat="67.36673888770628" lon="14.560244442978746" id="-8364">
		<tag k="name" v="Skjelstadsundet" />
		<tag k="natural" v="strait" />
		<tag k="ssr:stedsnr" v="927388" />
	</node>
	<node lat="67.24407499985467" lon="13.888752775806957" id="-8365">
		<tag k="alt_name" v="Ellevskjeret, nordre;Ellevskjæret, nordre" />
		<tag k="fixme" v="multiple name tags, choose one and add the other to alt_name; consider seamark:type=rock or natural=shoal" />
		<tag k="name" v="Store Ellevskjæret;Nordre Ellevskjæret" />
		<tag k="place" v="islet" />
		<tag k="ssr:stedsnr" v="926935" />
	</node>
	<node lat="67.21903333666951" lon="13.93602500383618" id="-8366">
		<tag k="name" v="Vågsholmen" />
		<tag k="place" v="islet" />
		<tag k="ssr:stedsnr" v="926949" />
	</node>
	<node lat="67.24198888917893" lon="14.61737777851937" id="-8369">
		<tag k="name" v="Knaplundbukta" />
		<tag k="natural" v="bay" />
		<tag k="ssr:stedsnr" v="927035" />
	</node>
	<node lat="67.55208055611591" lon="14.852199990592913" id="-8372">
		<tag k="fixme" v="multiple name tags, choose one and add the other to alt_name; consider seamark:type=rock or natural=shoal" />
		<tag k="name" v="Skata;Skatskjæret" />
		<tag k="place" v="islet" />
		<tag k="ssr:stedsnr" v="927135" />
	</node>
	<node lat="67.55153055578607" lon="15.069774988533174" id="-8376">
		<tag k="name" v="Storflogvika" />
		<tag k="natural" v="bay" />
		<tag k="ssr:stedsnr" v="927088" />
	</node>
	<node lat="67.56501389033076" lon="15.147294449172797" id="-8378">
		<tag k="name" v="Rotneset" />
		<tag k="natural" v="cape" />
		<tag k="ssr:stedsnr" v="927096" />
	</node>
	<node lat="67.345863886767" lon="14.463316664927403" id="-8383">
		<tag k="name" v="Færøybøan" />
		<tag k="place" v="locality" />
		<tag k="seamark:type" v="rock" />
		<tag k="ssr:stedsnr" v="927332" />
	</node>
	<node lat="67.18564999592121" lon="14.661402782659431" id="-8388">
		<tag k="alt_name" v="Elvfjorden" />
		<tag k="bay" v="fjord" />
		<tag k="name" v="Elvefjorden" />
		<tag k="natural" v="bay" />
		<tag k="ssr:stedsnr" v="927430" />
	</node>
	<node lat="67.28327500085042" lon="14.072019450924312" id="-8389">
		<tag k="name" v="Flesgrunnan" />
		<tag k="natural" v="shoal" />
		<tag k="place" v="locality" />
		<tag k="ssr:stedsnr" v="927486" />
	</node>
	<node lat="67.28420278219261" lon="14.170233325010521" id="-8390">
		<tag k="name" v="Sjursholmen" />
		<tag k="old_name" v="Sjurshlolmen" />
		<tag k="place" v="islet" />
		<tag k="ssr:stedsnr" v="927490" />
	</node>
	<node lat="67.25812500244417" lon="14.225105563429857" id="-8392">
		<tag k="name" v="Kjerkgrunnen" />
		<tag k="natural" v="shoal" />
		<tag k="place" v="locality" />
		<tag k="ssr:stedsnr" v="927645" />
	</node>
	<node lat="67.27903888645335" lon="14.599969432177827" id="-8396">
		<tag k="name" v="Perbukta" />
		<tag k="natural" v="bay" />
		<tag k="ssr:stedsnr" v="927725" />
	</node>
	<node lat="67.51132778043741" lon="15.062091673536937" id="-8397">
		<tag k="name" v="Hamnvika" />
		<tag k="natural" v="bay" />
		<tag k="ssr:stedsnr" v="927732" />
	</node>
	<node lat="67.2353083345872" lon="13.93508054637256" id="-8400">
		<tag k="name" v="Langtaren" />
		<tag k="natural" v="shoal" />
		<tag k="place" v="locality" />
		<tag k="ssr:stedsnr" v="935481" />
	</node>
	<node lat="67.29613889269915" lon="14.89963056702668" id="-8404">
		<tag k="name" v="Langstranda" />
		<tag k="natural" v="beach" />
		<tag k="ssr:stedsnr" v="870632" />
	</node>
	<node lat="67.41281111432208" lon="14.867419435519718" id="-8406">
		<tag k="bay" v="fjord" />
		<tag k="name" v="Sørfjorden" />
		<tag k="natural" v="bay" />
		<tag k="ssr:stedsnr" v="930433" />
	</node>
	<node lat="67.28754444608654" lon="14.866544453933034" id="-8417">
		<tag k="name" v="Korsholmen" />
		<tag k="place" v="islet" />
		<tag k="ssr:stedsnr" v="930685" />
	</node>
	<node lat="67.28932500014483" lon="14.812658338465955" id="-8418">
		<tag k="name" v="Vågsbotn" />
		<tag k="natural" v="bay" />
		<tag k="ssr:stedsnr" v="930687" />
	</node>
	<node lat="67.30873889271564" lon="14.727555556619818" id="-8419">
		<tag k="name" v="Hopen" />
		<tag k="natural" v="bay" />
		<tag k="ssr:stedsnr" v="930760" />
	</node>
	<node lat="67.2779083377498" lon="14.360702776513387" id="-8427">
		<tag k="fixme" v="consider seamark:type=rock or natural=shoal" />
		<tag k="name" v="Breivikskjæret" />
		<tag k="place" v="islet" />
		<tag k="ssr:stedsnr" v="881466" />
	</node>
	<node lat="67.45658055907779" lon="14.664238889955115" id="-8447">
		<tag k="name" v="Steinvika" />
		<tag k="natural" v="bay" />
		<tag k="ssr:stedsnr" v="882803" />
	</node>
	<node lat="67.46143333630042" lon="14.694419451010575" id="-8449">
		<tag k="name" v="Olderviksanden" />
		<tag k="natural" v="bay" />
		<tag k="ssr:stedsnr" v="882799" />
	</node>
	<node lat="67.54908610862034" lon="14.847527765411238" id="-8455">
		<tag k="name" v="Nellavika" />
		<tag k="natural" v="bay" />
		<tag k="ssr:stedsnr" v="882850" />
	</node>
	<node lat="67.23365833295362" lon="14.606538894144638" id="-8459">
		<tag k="fixme" v="consider seamark:type=rock or natural=shoal" />
		<tag k="name" v="Kobbskjæret" />
		<tag k="place" v="islet" />
		<tag k="ssr:stedsnr" v="935357" />
	</node>
	<node lat="67.27940000214643" lon="14.614350002663759" id="-8462">
		<tag k="name" v="Skinka" />
		<tag k="natural" v="shoal" />
		<tag k="place" v="locality" />
		<tag k="ssr:stedsnr" v="935391" />
	</node>
	<node lat="67.38932777930158" lon="14.554283343254786" id="-8463">
		<tag k="name" v="Barskjærbøen" />
		<tag k="natural" v="shoal" />
		<tag k="place" v="locality" />
		<tag k="ssr:stedsnr" v="935392" />
	</node>
	<node lat="67.39310833212184" lon="14.569411119831898" id="-8464">
		<tag k="name" v="Kuvgrunnen" />
		<tag k="natural" v="shoal" />
		<tag k="place" v="locality" />
		<tag k="ssr:stedsnr" v="935394" />
	</node>
	<node lat="67.40673333318395" lon="14.558483332723767" id="-8465">
		<tag k="name" v="Fattiggrunnan" />
		<tag k="place" v="locality" />
		<tag k="seamark:type" v="rock" />
		<tag k="ssr:stedsnr" v="935395" />
	</node>
	<node lat="67.3971083302476" lon="13.88139444832282" id="-8468">
		<tag k="name" v="Stor-Vardnes" />
		<tag k="natural" v="cape" />
		<tag k="ssr:stedsnr" v="890852" />
	</node>
	<node lat="67.1840111152009" lon="14.500905561030532" id="-8473">
		<tag k="name" v="Seljedalsosen" />
		<tag k="natural" v="bay" />
		<tag k="ssr:stedsnr" v="891352" />
	</node>
	<node lat="67.41846110908351" lon="13.944530550845412" id="-8475">
		<tag k="fixme" v="consider seamark:type=rock or natural=shoal" />
		<tag k="name" v="Verholmskjæret" />
		<tag k="place" v="islet" />
		<tag k="ssr:stedsnr" v="891817" />
	</node>
	<node lat="67.30703888896902" lon="13.719330556102475" id="-8476">
		<tag k="fixme" v="consider seamark:type=rock or natural=shoal" />
		<tag k="name" v="Høgskjæret" />
		<tag k="place" v="islet" />
		<tag k="ssr:stedsnr" v="893110" />
	</node>
	<node lat="67.30403889242541" lon="13.720072234290777" id="-8477">
		<tag k="name" v="Burøya" />
		<tag k="place" v="island" />
		<tag k="ssr:stedsnr" v="893111" />
	</node>
	<node lat="67.29775277758469" lon="13.691519439617933" id="-8478">
		<tag k="fixme" v="consider seamark:type=rock or natural=shoal" />
		<tag k="name" v="Smørstabben" />
		<tag k="place" v="islet" />
		<tag k="ssr:stedsnr" v="893114" />
	</node>
	<node lat="67.42417221995906" lon="13.903424999547239" id="-8479">
		<tag k="name" v="Sør-Låkksøya" />
		<tag k="place" v="islet" />
		<tag k="ssr:stedsnr" v="899814" />
	</node>
	<node lat="67.19982222275236" lon="14.359005562503633" id="-8485">
		<tag k="name" v="Seinesstranda" />
		<tag k="natural" v="beach" />
		<tag k="ssr:stedsnr" v="905201" />
	</node>
	<node lat="67.42963889121634" lon="14.399083331958577" id="-8490">
		<tag k="name" v="Grønnvika" />
		<tag k="natural" v="bay" />
		<tag k="ssr:stedsnr" v="905399" />
	</node>
	<node lat="67.42881111080509" lon="14.408161117999322" id="-8491">
		<tag k="name" v="Botnholmen" />
		<tag k="place" v="islet" />
		<tag k="ssr:stedsnr" v="905401" />
	</node>
	<node lat="67.36971111001067" lon="14.54537776714212" id="-8494">
		<tag k="name" v="Gangstøa" />
		<tag k="natural" v="bay" />
		<tag k="ssr:stedsnr" v="905460" />
	</node>
	<node lat="67.18021944471172" lon="14.709399995782805" id="-8501">
		<tag k="fixme" v="consider seamark:type=rock or natural=shoal" />
		<tag k="name" v="Kobbskjæret" />
		<tag k="place" v="islet" />
		<tag k="ssr:stedsnr" v="905857" />
	</node>
	<node lat="67.5682499982514" lon="15.128972229939283" id="-8507">
		<tag k="name" v="Naustodden" />
		<tag k="natural" v="cape" />
		<tag k="ssr:stedsnr" v="905969" />
	</node>
	<node lat="67.56847777488247" lon="15.124888883926223" id="-8508">
		<tag k="name" v="Åborneset" />
		<tag k="natural" v="cape" />
		<tag k="ssr:stedsnr" v="905970" />
	</node>
	<node lat="67.28028611123264" lon="13.488961110145635" id="-8511">
		<tag k="name" v="Sørbøen" />
		<tag k="natural" v="shoal" />
		<tag k="place" v="locality" />
		<tag k="ssr:stedsnr" v="926109" />
	</node>
	<node lat="67.30186388590501" lon="13.711494432746946" id="-8512">
		<tag k="name" v="Munkholmen" />
		<tag k="place" v="islet" />
		<tag k="ssr:stedsnr" v="926114" />
	</node>
	<node lat="67.2971944457644" lon="13.679333330655819" id="-8514">
		<tag k="alt_name" v="Måsskjeret, l;Littj-Måsskjeret" />
		<tag k="fixme" v="consider seamark:type=rock or natural=shoal" />
		<tag k="name" v="Litle Måsskjæret" />
		<tag k="place" v="islet" />
		<tag k="ssr:stedsnr" v="926117" />
	</node>
	<node lat="67.22726666445948" lon="14.628097232735358" id="-8515">
		<tag k="alt_name" v="Åburdneset" />
		<tag k="name" v="Åbornes" />
		<tag k="natural" v="cape" />
		<tag k="ssr:stedsnr" v="926119" />
	</node>
	<node lat="67.30401666629766" lon="13.530955554329632" id="-8517">
		<tag k="alt_name" v="Skarven, store" />
		<tag k="name" v="Storskarven" />
		<tag k="place" v="islet" />
		<tag k="ssr:stedsnr" v="926124" />
	</node>
	<node lat="67.31180833467376" lon="13.68446110339732" id="-8518">
		<tag k="fixme" v="consider seamark:type=rock or natural=shoal" />
		<tag k="name" v="Djupbøen" />
		<tag k="place" v="islet" />
		<tag k="ssr:stedsnr" v="926127" />
	</node>
	<node lat="67.21599444495422" lon="14.379286106215805" id="-8520">
		<tag k="name" v="Kvalvika" />
		<tag k="natural" v="bay" />
		<tag k="ssr:stedsnr" v="926015" />
	</node>
	<node lat="67.41307777333236" lon="13.911936116725395" id="-8521">
		<tag k="name" v="Grisholmen" />
		<tag k="place" v="islet" />
		<tag k="ssr:stedsnr" v="926063" />
	</node>
	<node lat="67.19605278069285" lon="14.627361108571673" id="-8522">
		<tag k="alt_name" v="Strømsnes" />
		<tag k="name" v="Straumsneset" />
		<tag k="natural" v="cape" />
		<tag k="ssr:stedsnr" v="926066" />
	</node>
	<node lat="67.4214055532867" lon="14.055283321875077" id="-8523">
		<tag k="name" v="Hammarøya" />
		<tag k="place" v="islet" />
		<tag k="ssr:stedsnr" v="926071" />
	</node>
	<node lat="67.34107777805588" lon="14.472463879033112" id="-8526">
		<tag k="name" v="Skarpholmen" />
		<tag k="place" v="islet" />
		<tag k="ssr:stedsnr" v="926322" />
	</node>
	<node lat="67.38806388588979" lon="14.476152776142207" id="-8528">
		<tag k="fixme" v="consider seamark:type=rock or natural=shoal" />
		<tag k="name" v="Bringholmskjæran" />
		<tag k="place" v="islet" />
		<tag k="ssr:stedsnr" v="926378" />
	</node>
	<node lat="67.38653610848361" lon="14.381188890702175" id="-8529">
		<tag k="fixme" v="consider seamark:type=rock or natural=shoal" />
		<tag k="name" v="Kariskjæret" />
		<tag k="place" v="islet" />
		<tag k="ssr:stedsnr" v="926379" />
	</node>
	<node lat="67.38706944375238" lon="14.342563894977681" id="-8530">
		<tag k="name" v="Tennesvika" />
		<tag k="natural" v="bay" />
		<tag k="ssr:stedsnr" v="926380" />
	</node>
	<node lat="67.12375555882726" lon="15.000511119751414" id="-8535">
		<tag k="name" v="Øyra" />
		<tag k="natural" v="bay" />
		<tag k="ssr:stedsnr" v="926516" />
	</node>
	<node lat="67.44158055292564" lon="14.371263882405502" id="-8539">
		<tag k="alt_name" v="Buskuvika" />
		<tag k="name" v="Buskevika" />
		<tag k="natural" v="bay" />
		<tag k="ssr:stedsnr" v="926416" />
	</node>
	<node lat="67.59831666593638" lon="14.673280561879745" id="-8540">
		<tag k="name" v="Langvågen" />
		<tag k="place" v="island" />
		<tag k="ssr:stedsnr" v="926417" />
	</node>
	<node lat="67.5577277740665" lon="14.67303888665096" id="-8542">
		<tag k="name" v="Sørøya" />
		<tag k="place" v="island" />
		<tag k="ssr:stedsnr" v="926462" />
	</node>
	<node lat="67.23091944443226" lon="14.904847219096396" id="-8547">
		<tag k="name" v="Osen" />
		<tag k="natural" v="bay" />
		<tag k="ssr:stedsnr" v="926619" />
	</node>
	<node lat="67.49484166339846" lon="14.95877222911101" id="-8548">
		<tag k="name" v="Hellarvika" />
		<tag k="natural" v="bay" />
		<tag k="ssr:stedsnr" v="926621" />
	</node>
	<node lat="67.29233333130777" lon="14.373316660000818" id="-8554">
		<tag k="name" v="Nyholmsundet" />
		<tag k="natural" v="strait" />
		<tag k="ssr:stedsnr" v="926709" />
	</node>
	<node lat="67.43845000431457" lon="13.888869446496324" id="-8561">
		<tag k="fixme" v="consider seamark:type=rock or natural=shoal" />
		<tag k="name" v="Gjeltskjæret" />
		<tag k="place" v="islet" />
		<tag k="ssr:stedsnr" v="927109" />
	</node>
	<node lat="67.43917778099048" lon="14.002500007788269" id="-8562">
		<tag k="fixme" v="consider seamark:type=rock or natural=shoal" />
		<tag k="name" v="Seiskjæret" />
		<tag k="place" v="islet" />
		<tag k="ssr:stedsnr" v="927114" />
	</node>
	<node lat="67.40091110848186" lon="14.634355545223489" id="-8563">
		<tag k="fixme" v="consider seamark:type=rock or natural=shoal" />
		<tag k="name" v="Reinskjæret" />
		<tag k="place" v="islet" />
		<tag k="ssr:stedsnr" v="927410" />
	</node>
	<node lat="67.29321666803864" lon="14.974602770422148" id="-8566">
		<tag k="alt_name" v="Lønbåen" />
		<tag k="name" v="Løndbøen" />
		<tag k="natural" v="shoal" />
		<tag k="place" v="locality" />
		<tag k="ssr:stedsnr" v="930649" />
	</node>
	<node lat="67.21168611125668" lon="15.25287500470995" id="-8578">
		<tag k="fixme" v="consider seamark:type=rock or natural=shoal" />
		<tag k="name" v="Kjettnesskjæret" />
		<tag k="place" v="islet" />
		<tag k="ssr:stedsnr" v="935993" />
	</node>
	<node lat="67.49098333259326" lon="14.950633325668665" id="-8582">
		<tag k="name" v="Kvalryggen" />
		<tag k="natural" v="shoal" />
		<tag k="place" v="locality" />
		<tag k="ssr:stedsnr" v="951208" />
	</node>
	<node lat="67.26249444711281" lon="13.974177782621593" id="-8586">
		<tag k="name" v="Hestøydrangen" />
		<tag k="place" v="islet" />
		<tag k="ssr:stedsnr" v="951190" />
	</node>
	<node lat="67.2632833330443" lon="14.0097833303426" id="-8587">
		<tag k="fixme" v="consider seamark:type=rock or natural=shoal" />
		<tag k="name" v="Tossholmskjæret" />
		<tag k="place" v="islet" />
		<tag k="ssr:stedsnr" v="951191" />
	</node>
	<node lat="67.23591388649605" lon="14.512402787791682" id="-8588">
		<tag k="name" v="Notneset" />
		<tag k="natural" v="cape" />
		<tag k="ssr:stedsnr" v="951310" />
	</node>
	<node lat="67.42175277923471" lon="13.96779722942273" id="-8592">
		<tag k="name" v="Vesterøya" />
		<tag k="place" v="island" />
		<tag k="ssr:stedsnr" v="951796" />
	</node>
	<node lat="67.56588610859694" lon="15.133469450447551" id="-8595">
		<tag k="name" v="Johannes-Jonsovika" />
		<tag k="natural" v="bay" />
		<tag k="ssr:stedsnr" v="965788" />
	</node>
	<node lat="67.22686944433592" lon="14.440586102802595" id="-8596">
		<tag k="name" v="Tjuvhola" />
		<tag k="natural" v="bay" />
		<tag k="ssr:stedsnr" v="966105" />
	</node>
	<node lat="67.44614444377646" lon="14.795266656576684" id="-8599">
		<tag k="name" v="Nordsjøen" />
		<tag k="natural" v="beach" />
		<tag k="ssr:stedsnr" v="966084" />
	</node>
	<node lat="67.39136111100284" lon="14.36158332673677" id="-8637">
		<tag k="name" v="Bunessanden" />
		<tag k="natural" v="beach" />
		<tag k="ssr:stedsnr" v="16341" />
	</node>
	<node lat="67.56200555378624" lon="14.612677777032474" id="-8640">
		<tag k="name" v="Trollholman" />
		<tag k="place" v="islet" />
		<tag k="ssr:stedsnr" v="16429" />
	</node>
	<node lat="67.56988055936529" lon="14.704952778146788" id="-8641">
		<tag k="name" v="Oksøya" />
		<tag k="place" v="island" />
		<tag k="ssr:stedsnr" v="16432" />
	</node>
	<node lat="67.4281777803993" lon="14.324152785539269" id="-8643">
		<tag k="alt_name" v="Smalskjeret" />
		<tag k="fixme" v="multiple name tags, choose one and add the other to alt_name; consider seamark:type=rock or natural=shoal" />
		<tag k="name" v="Smalskjæret;Langskjæret" />
		<tag k="place" v="islet" />
		<tag k="ssr:stedsnr" v="16437" />
	</node>
	<node lat="67.28447499648217" lon="14.053377765447452" id="-8645">
		<tag k="fixme" v="consider seamark:type=rock or natural=shoal" />
		<tag k="name" v="Knurrbøen" />
		<tag k="place" v="islet" />
		<tag k="ssr:stedsnr" v="16447" />
	</node>
	<node lat="67.19673610698281" lon="14.468847226408808" id="-8647">
		<tag k="name" v="Valnesvika" />
		<tag k="natural" v="bay" />
		<tag k="ssr:stedsnr" v="16080" />
	</node>
	<node lat="67.44641111154887" lon="14.048349994464127" id="-8648">
		<tag k="fixme" v="consider seamark:type=rock or natural=shoal" />
		<tag k="name" v="Svartskjæran" />
		<tag k="place" v="islet" />
		<tag k="ssr:stedsnr" v="16081" />
	</node>
	<node lat="67.4299500030819" lon="13.883661107360401" id="-8649">
		<tag k="alt_name" v="Ertnskjeret;Ertenøyskjeret" />
		<tag k="fixme" v="multiple name tags, choose one and add the other to alt_name; consider seamark:type=rock or natural=shoal" />
		<tag k="name" v="Ertnøyskjæret;Ertnskjæret" />
		<tag k="place" v="islet" />
		<tag k="ssr:stedsnr" v="16084" />
	</node>
	<node lat="67.32411111567754" lon="14.04746943465662" id="-8651">
		<tag k="fixme" v="consider seamark:type=rock or natural=shoal" />
		<tag k="name" v="Soldaterskjæret" />
		<tag k="place" v="islet" />
		<tag k="ssr:stedsnr" v="16029" />
	</node>
	<node lat="67.40613333753096" lon="13.971691674076773" id="-8653">
		<tag k="alt_name" v="Inner-Bogøya;Bogøya, in" />
		<tag k="name" v="Inner Bogøya" />
		<tag k="place" v="island" />
		<tag k="ssr:stedsnr" v="16035" />
	</node>
	<node lat="67.38881944060866" lon="13.805488895878328" id="-8654">
		<tag k="name" v="Storbøen" />
		<tag k="natural" v="shoal" />
		<tag k="place" v="locality" />
		<tag k="ssr:stedsnr" v="16039" />
	</node>
	<node lat="67.39549444616736" lon="13.936219439252394" id="-8655">
		<tag k="alt_name" v="Kvannøya, l" />
		<tag k="fixme" v="multiple name tags, choose one and add the other to alt_name" />
		<tag k="name" v="Inner-Kvannøya;Litle Kvannøya" />
		<tag k="place" v="islet" />
		<tag k="ssr:stedsnr" v="16041" />
	</node>
	<node lat="67.41526388973267" lon="13.989897229506859" id="-8657">
		<tag k="fixme" v="multiple name tags, choose one and add the other to alt_name" />
		<tag k="name" v="Vardholmen;Oterholmen" />
		<tag k="place" v="islet" />
		<tag k="ssr:stedsnr" v="16048" />
	</node>
	<node lat="67.36137500169842" lon="14.563441675012148" id="-8664">
		<tag k="name" v="Olderåsvika" />
		<tag k="natural" v="bay" />
		<tag k="ssr:stedsnr" v="16286" />
	</node>
	<node lat="67.34159166757742" lon="14.286825004204994" id="-8665">
		<tag k="name" v="Kvitingsrevet" />
		<tag k="natural" v="shoal" />
		<tag k="place" v="locality" />
		<tag k="ssr:stedsnr" v="16295" />
	</node>
	<node lat="67.40961388697868" lon="14.611383326025791" id="-8666">
		<tag k="name" v="Saltvika" />
		<tag k="natural" v="bay" />
		<tag k="ssr:stedsnr" v="16372" />
	</node>
	<node lat="67.18837777585685" lon="14.365872230522772" id="-8667">
		<tag k="name" v="Ersvika" />
		<tag k="natural" v="bay" />
		<tag k="ssr:stedsnr" v="16374" />
	</node>
	<node lat="67.40023611229398" lon="14.609880547401497" id="-8669">
		<tag k="name" v="Melgrovneset" />
		<tag k="natural" v="cape" />
		<tag k="ssr:stedsnr" v="16391" />
	</node>
	<node lat="67.23740277342527" lon="14.826799999329634" id="-8676">
		<tag k="name" v="Kvalnesbukta" />
		<tag k="natural" v="bay" />
		<tag k="ssr:stedsnr" v="16595" />
	</node>
	<node lat="67.48924166569134" lon="14.946377787349954" id="-8677">
		<tag k="name" v="Merrhellaren" />
		<tag k="natural" v="cape" />
		<tag k="ssr:stedsnr" v="16599" />
	</node>
	<node lat="67.21506110889659" lon="15.007369450005942" id="-8681">
		<tag k="name" v="Juvika" />
		<tag k="natural" v="bay" />
		<tag k="ssr:stedsnr" v="16681" />
	</node>
	<node lat="67.26838333431607" lon="14.411144450946267" id="-8686">
		<tag k="name" v="Hangåsbukta" />
		<tag k="natural" v="bay" />
		<tag k="ssr:stedsnr" v="16696" />
	</node>
	<node lat="67.55893055629681" lon="14.872838896193057" id="-8690">
		<tag k="fixme" v="consider seamark:type=rock or natural=shoal" />
		<tag k="name" v="Oterskjæret" />
		<tag k="place" v="islet" />
		<tag k="ssr:stedsnr" v="17126" />
	</node>
	<node lat="67.5623166712411" lon="15.014813880095897" id="-8691">
		<tag k="name" v="Holmen" />
		<tag k="place" v="islet" />
		<tag k="ssr:stedsnr" v="17128" />
	</node>
	<node lat="67.20900277591335" lon="14.963658341323121" id="-8698">
		<tag k="alt_name" v="Sandøya, store" />
		<tag k="fixme" v="multiple name tags, choose one and add the other to alt_name" />
		<tag k="name" v="Store Sandøya;Storøya" />
		<tag k="place" v="island" />
		<tag k="ssr:stedsnr" v="16630" />
	</node>
	<node lat="67.2316388885244" lon="15.002783328381348" id="-8701">
		<tag k="name" v="Graddholmen" />
		<tag k="place" v="islet" />
		<tag k="ssr:stedsnr" v="16639" />
	</node>
	<node lat="67.26827778071716" lon="14.306113892519058" id="-8703">
		<tag k="name" v="Schønninggrunnen" />
		<tag k="natural" v="shoal" />
		<tag k="place" v="locality" />
		<tag k="ssr:stedsnr" v="16703" />
	</node>
	<node lat="67.18140833079114" lon="14.909733343218527" id="-8704">
		<tag k="name" v="Rundholmen" />
		<tag k="place" v="islet" />
		<tag k="ssr:stedsnr" v="16705" />
	</node>
	<node lat="67.27634166282981" lon="14.52742776999855" id="-8709">
		<tag k="name" v="Hundstadbukta" />
		<tag k="natural" v="bay" />
		<tag k="ssr:stedsnr" v="16722" />
	</node>
	<node lat="67.27642499656105" lon="14.357136100176954" id="-8710">
		<tag k="name" v="Breivika" />
		<tag k="natural" v="bay" />
		<tag k="ssr:stedsnr" v="16725" />
	</node>
	<node lat="67.27164444803414" lon="14.706577782877813" id="-8711">
		<tag k="alt_name" v="Hans Alsoskjeret;Hans Alsoskjæret" />
		<tag k="fixme" v="consider seamark:type=rock or natural=shoal" />
		<tag k="name" v="Hansalsoskjeret" />
		<tag k="place" v="islet" />
		<tag k="ssr:stedsnr" v="16729" />
	</node>
	<node lat="67.54260833804352" lon="15.11526943432254" id="-8713">
		<tag k="name" v="Monsvika" />
		<tag k="natural" v="bay" />
		<tag k="ssr:stedsnr" v="17095" />
	</node>
	<node lat="67.5200583308991" lon="14.505561104399941" id="-8716">
		<tag k="name" v="Øyholmbøen" />
		<tag k="natural" v="shoal" />
		<tag k="place" v="locality" />
		<tag k="ssr:stedsnr" v="17514" />
	</node>
	<node lat="67.5237638860163" lon="14.233908343157967" id="-8717">
		<tag k="name" v="Småskallan" />
		<tag k="natural" v="shoal" />
		<tag k="place" v="locality" />
		<tag k="ssr:stedsnr" v="17485" />
	</node>
	<node lat="67.42994999720071" lon="14.948286115325496" id="-8719">
		<tag k="name" v="Breivika" />
		<tag k="natural" v="bay" />
		<tag k="ssr:stedsnr" v="20510" />
	</node>
	<node lat="67.4005277798472" lon="14.862866662562892" id="-8725">
		<tag k="name" v="Skjelvika" />
		<tag k="natural" v="bay" />
		<tag k="ssr:stedsnr" v="20584" />
	</node>
	<node lat="67.30363333365077" lon="15.070336121668324" id="-8726">
		<tag k="bay" v="fjord" />
		<tag k="name" v="Valnesfjorden" />
		<tag k="natural" v="bay" />
		<tag k="ssr:stedsnr" v="20670" />
	</node>
	<node lat="67.31597499869449" lon="15.026816662114056" id="-8728">
		<tag k="fixme" v="consider seamark:type=rock or natural=shoal" />
		<tag k="name" v="Sagelvskjæran" />
		<tag k="place" v="islet" />
		<tag k="ssr:stedsnr" v="20682" />
	</node>
	<node lat="67.19255277628312" lon="14.587188887699144" id="-8741">
		<tag k="fixme" v="consider seamark:type=rock or natural=shoal" />
		<tag k="name" v="Åseliskjæran" />
		<tag k="place" v="islet" />
		<tag k="ssr:stedsnr" v="25384" />
	</node>
	<node lat="67.40251111404447" lon="14.54986110721535" id="-8742">
		<tag k="name" v="Hovdgrunnen" />
		<tag k="place" v="locality" />
		<tag k="seamark:type" v="rock" />
		<tag k="ssr:stedsnr" v="25391" />
	</node>
	<node lat="67.28864722413024" lon="13.668569439325756" id="-8744">
		<tag k="name" v="Kviskallen" />
		<tag k="natural" v="shoal" />
		<tag k="place" v="locality" />
		<tag k="ssr:stedsnr" v="25255" />
	</node>
	<node lat="67.19714166644656" lon="15.291222219234127" id="-8746">
		<tag k="name" v="Yttersjøen" />
		<tag k="natural" v="bay" />
		<tag k="ssr:stedsnr" v="25640" />
	</node>
	<node lat="67.2010444413653" lon="15.265619446426781" id="-8748">
		<tag k="fixme" v="consider seamark:type=rock or natural=shoal" />
		<tag k="name" v="Bjønnskjæret" />
		<tag k="place" v="islet" />
		<tag k="ssr:stedsnr" v="25646" />
	</node>
	<node lat="67.24140277892444" lon="13.915652776831672" id="-8750">
		<tag k="name" v="Ytre Teistholmtaren" />
		<tag k="natural" v="shoal" />
		<tag k="place" v="locality" />
		<tag k="ssr:stedsnr" v="25467" />
	</node>
	<node lat="67.5519361105966" lon="15.069877782030584" id="-8754">
		<tag k="name" v="Storflogvika" />
		<tag k="natural" v="bay" />
		<tag k="ssr:stedsnr" v="27049" />
	</node>
	<node lat="67.19771944196101" lon="14.93756111814232" id="-8768">
		<tag k="name" v="Repp" />
		<tag k="natural" v="beach" />
		<tag k="ssr:stedsnr" v="32689" />
	</node>
	<node lat="67.35557499697795" lon="14.541338898859161" id="-8771">
		<tag k="fixme" v="consider seamark:type=rock or natural=shoal" />
		<tag k="name" v="Kobbskjæret" />
		<tag k="place" v="islet" />
		<tag k="ssr:stedsnr" v="32709" />
	</node>
	<node lat="67.41309721961589" lon="14.618530555308533" id="-8779">
		<tag k="name" v="Silsandodden" />
		<tag k="natural" v="cape" />
		<tag k="ssr:stedsnr" v="32795" />
	</node>
	<node lat="67.4933972257623" lon="14.651336123334733" id="-8781">
		<tag k="fixme" v="consider seamark:type=rock or natural=shoal" />
		<tag k="name" v="Skoskjæret" />
		<tag k="place" v="islet" />
		<tag k="ssr:stedsnr" v="32821" />
	</node>
	<node lat="67.46768333656308" lon="14.679302773257628" id="-8782">
		<tag k="alt_name" v="Karsviksanden" />
		<tag k="name" v="Korsviksanden" />
		<tag k="natural" v="bay" />
		<tag k="ssr:stedsnr" v="32837" />
	</node>
	<node lat="67.39011111302217" lon="13.901047229216411" id="-8790">
		<tag k="fixme" v="consider seamark:type=rock or natural=shoal" />
		<tag k="name" v="Tennskjæret" />
		<tag k="place" v="islet" />
		<tag k="ssr:stedsnr" v="40840" />
	</node>
	<node lat="67.39617777328502" lon="13.883350005429726" id="-8791">
		<tag k="name" v="Murvikran" />
		<tag k="natural" v="bay" />
		<tag k="ssr:stedsnr" v="40853" />
	</node>
	<node lat="67.4055777818121" lon="13.922636115979113" id="-8792">
		<tag k="name" v="Jærbuholmen" />
		<tag k="place" v="islet" />
		<tag k="ssr:stedsnr" v="40860" />
	</node>
	<node lat="67.40591389270242" lon="13.85541667417015" id="-8793">
		<tag k="fixme" v="consider seamark:type=rock or natural=shoal" />
		<tag k="name" v="Skarvholmskjæret" />
		<tag k="place" v="islet" />
		<tag k="ssr:stedsnr" v="40882" />
	</node>
	<node lat="67.30024166902898" lon="13.707569445178342" id="-8798">
		<tag k="fixme" v="consider seamark:type=rock or natural=shoal" />
		<tag k="name" v="Verskjæret" />
		<tag k="place" v="islet" />
		<tag k="ssr:stedsnr" v="43017" />
	</node>
	<node lat="67.30318333024593" lon="13.721930549050997" id="-8799">
		<tag k="name" v="Littj-Burøya" />
		<tag k="place" v="island" />
		<tag k="ssr:stedsnr" v="43092" />
	</node>
	<node lat="67.16968888992102" lon="14.887986105606187" id="-8801">
		<tag k="name" v="Skredbukta" />
		<tag k="natural" v="bay" />
		<tag k="ssr:stedsnr" v="43665" />
	</node>
	<node lat="67.42630555424037" lon="13.911005551275437" id="-8803">
		<tag k="name" v="Nord-Låkksøya" />
		<tag k="place" v="islet" />
		<tag k="ssr:stedsnr" v="49801" />
	</node>
	<node lat="67.430261108068" lon="13.921544433333564" id="-8804">
		<tag k="name" v="Grasholmen" />
		<tag k="place" v="islet" />
		<tag k="ssr:stedsnr" v="49804" />
	</node>
	<node lat="67.42100555612451" lon="13.912555553865035" id="-8805">
		<tag k="name" v="Inner-Buholmen" />
		<tag k="place" v="islet" />
		<tag k="ssr:stedsnr" v="49805" />
	</node>
	<node lat="67.43049444067776" lon="13.939513892310988" id="-8806">
		<tag k="name" v="Stokkholmrøyra" />
		<tag k="place" v="islet" />
		<tag k="ssr:stedsnr" v="49809" />
	</node>
	<node lat="67.43418055911506" lon="14.402236103884754" id="-8809">
		<tag k="name" v="Breivika" />
		<tag k="natural" v="bay" />
		<tag k="ssr:stedsnr" v="56427" />
	</node>
	<node lat="67.39499722462179" lon="14.238011100687439" id="-8816">
		<tag k="fixme" v="consider seamark:type=rock or natural=shoal" />
		<tag k="name" v="Kjiskjæret" />
		<tag k="place" v="islet" />
		<tag k="ssr:stedsnr" v="56197" />
	</node>
	<node lat="67.37285555651864" lon="14.52496111706488" id="-8817">
		<tag k="name" v="Klubbvika" />
		<tag k="natural" v="bay" />
		<tag k="ssr:stedsnr" v="56292" />
	</node>
	<node lat="67.39566666552383" lon="13.904172213872922" id="-8831">
		<tag k="fixme" v="consider seamark:type=rock or natural=shoal" />
		<tag k="name" v="Røyrskjæran" />
		<tag k="place" v="islet" />
		<tag k="ssr:stedsnr" v="77055" />
	</node>
	<node lat="67.54864444575774" lon="15.15007777737427" id="-8835">
		<tag k="alt_name" v="Forneset" />
		<tag k="name" v="Fornesodden" />
		<tag k="natural" v="cape" />
		<tag k="ssr:stedsnr" v="77065" />
	</node>
	<node lat="67.57520277641981" lon="14.931805549975005" id="-8836">
		<tag k="name" v="Sandeidet" />
		<tag k="natural" v="cape" />
		<tag k="ssr:stedsnr" v="77071" />
	</node>
	<node lat="67.59077778034931" lon="14.721213895128523" id="-8838">
		<tag k="name" v="Storvika" />
		<tag k="natural" v="bay" />
		<tag k="ssr:stedsnr" v="77074" />
	</node>
	<node lat="67.3866416635259" lon="13.895574997549646" id="-8844">
		<tag k="name" v="Eklubben" />
		<tag k="place" v="islet" />
		<tag k="ssr:stedsnr" v="77028" />
	</node>
	<node lat="67.38771111502291" lon="13.92743332766496" id="-8845">
		<tag k="fixme" v="consider seamark:type=rock or natural=shoal" />
		<tag k="name" v="Svartskjæret" />
		<tag k="place" v="islet" />
		<tag k="ssr:stedsnr" v="77029" />
	</node>
	<node lat="67.38893055938067" lon="13.951522218973713" id="-8846">
		<tag k="fixme" v="multiple name tags, choose one and add the other to alt_name; consider seamark:type=rock or natural=shoal" />
		<tag k="name" v="Mågeskjæret;Mågøyskjæret" />
		<tag k="place" v="islet" />
		<tag k="ssr:stedsnr" v="77030" />
	</node>
	<node lat="67.39185833550425" lon="13.8957444506388" id="-8847">
		<tag k="alt_name" v="Valløyholmen" />
		<tag k="name" v="Valøyholmen" />
		<tag k="place" v="islet" />
		<tag k="ssr:stedsnr" v="77031" />
	</node>
	<node lat="67.35424999880438" lon="14.158005546297016" id="-8848">
		<tag k="name" v="Flatskjærtaren" />
		<tag k="natural" v="shoal" />
		<tag k="place" v="locality" />
		<tag k="ssr:stedsnr" v="77033" />
	</node>
</osm>
