<?xml version="1.0" encoding="UTF-8"?>
<osm generator="osmapis" version="0.6">
	<node id="-267325" lat="59.7231521907" lon="8.12832013615">
		<tag k="name" v="Nordre Krossbakk" />
		<tag k="ssr:date" v="2018-08-31" />
		<tag k="ssr:gruppe" v="veg" />
		<tag k="ssr:hovedgruppe" v="infrastruktur" />
		<tag k="ssr:stedsnr" v="986521" />
		<tag k="ssr:type" v="adressenavn" />
	</node>
	<node id="-267336" lat="59.6640044016" lon="8.00053064269">
		<tag k="name" v="Øvre Briskevegen" />
		<tag k="ssr:date" v="2019-05-31" />
		<tag k="ssr:gruppe" v="veg" />
		<tag k="ssr:hovedgruppe" v="infrastruktur" />
		<tag k="ssr:stedsnr" v="990291" />
		<tag k="ssr:type" v="adressenavn" />
	</node>
	<node id="-267335" lat="59.6642489941" lon="7.99610358533">
		<tag k="name" v="Nedre Kloppemyrvegen" />
		<tag k="ssr:date" v="2019-05-31" />
		<tag k="ssr:gruppe" v="veg" />
		<tag k="ssr:hovedgruppe" v="infrastruktur" />
		<tag k="ssr:stedsnr" v="990289" />
		<tag k="ssr:type" v="adressenavn" />
	</node>
	<node id="-267334" lat="59.6637856758" lon="8.00011115538">
		<tag k="name" v="Nedre Briskevegen" />
		<tag k="ssr:date" v="2019-05-31" />
		<tag k="ssr:gruppe" v="veg" />
		<tag k="ssr:hovedgruppe" v="infrastruktur" />
		<tag k="ssr:stedsnr" v="990288" />
		<tag k="ssr:type" v="adressenavn" />
	</node>
	<node id="-267333" lat="59.6641982212" lon="7.99768486105">
		<tag k="name" v="Kjerrevegen" />
		<tag k="ssr:date" v="2019-05-31" />
		<tag k="ssr:gruppe" v="veg" />
		<tag k="ssr:hovedgruppe" v="infrastruktur" />
		<tag k="ssr:stedsnr" v="990287" />
		<tag k="ssr:type" v="adressenavn" />
	</node>
	<node id="-267332" lat="59.7405027513" lon="8.20641180946">
		<tag k="name" v="Sigrids veg" />
		<tag k="ssr:date" v="2019-05-31" />
		<tag k="ssr:gruppe" v="veg" />
		<tag k="ssr:hovedgruppe" v="infrastruktur" />
		<tag k="ssr:stedsnr" v="990286" />
		<tag k="ssr:type" v="adressenavn" />
	</node>
	<node id="-267331" lat="59.5896211407" lon="8.20686991792">
		<tag k="name" v="Sosåsvegen" />
		<tag k="ssr:date" v="2019-05-31" />
		<tag k="ssr:gruppe" v="veg" />
		<tag k="ssr:hovedgruppe" v="infrastruktur" />
		<tag k="ssr:stedsnr" v="990283" />
		<tag k="ssr:type" v="adressenavn" />
	</node>
	<node id="-267330" lat="59.6639231994" lon="7.99343308174">
		<tag k="name" v="Øvre Kloppemyrvegen" />
		<tag k="ssr:date" v="2019-05-31" />
		<tag k="ssr:gruppe" v="veg" />
		<tag k="ssr:hovedgruppe" v="infrastruktur" />
		<tag k="ssr:stedsnr" v="990280" />
		<tag k="ssr:type" v="adressenavn" />
	</node>
	<node id="-267329" lat="59.6630718802" lon="7.99601452473">
		<tag k="name" v="Tømmervegen" />
		<tag k="ssr:date" v="2019-05-31" />
		<tag k="ssr:gruppe" v="veg" />
		<tag k="ssr:hovedgruppe" v="infrastruktur" />
		<tag k="ssr:stedsnr" v="990281" />
		<tag k="ssr:type" v="adressenavn" />
	</node>
	<node id="-267328" lat="59.9364691749" lon="8.072550648">
		<tag k="name" v="Vårli" />
		<tag k="ssr:date" v="2019-05-31" />
		<tag k="ssr:gruppe" v="veg" />
		<tag k="ssr:hovedgruppe" v="infrastruktur" />
		<tag k="ssr:stedsnr" v="990246" />
		<tag k="ssr:type" v="adressenavn" />
	</node>
	<node id="-267327" lat="59.7364676371" lon="8.13889541043">
		<tag k="name" v="Vesle Kjelingnuten" />
		<tag k="ssr:date" v="2019-05-31" />
		<tag k="ssr:gruppe" v="veg" />
		<tag k="ssr:hovedgruppe" v="infrastruktur" />
		<tag k="ssr:stedsnr" v="990233" />
		<tag k="ssr:type" v="adressenavn" />
	</node>
	<node id="-267326" lat="59.8005640642" lon="8.05469076273">
		<tag k="name" v="Russbu" />
		<tag k="ssr:date" v="2019-05-31" />
		<tag k="ssr:gruppe" v="veg" />
		<tag k="ssr:hovedgruppe" v="infrastruktur" />
		<tag k="ssr:stedsnr" v="990052" />
		<tag k="ssr:type" v="adressenavn" />
	</node>
	<node id="-269885" lat="59.5692527762" lon="7.9889861136">
		<tag k="name" v="Vinje kommune" />
		<tag k="ssr:date" v="2016-05-10" />
		<tag k="ssr:gruppe" v="administrativeIndelinger" />
		<tag k="ssr:hovedgruppe" v="offentligAdministrasjon" />
		<tag k="ssr:stedsnr" v="631035" />
		<tag k="ssr:type" v="kommune" />
	</node>
	<node id="-267324" lat="59.9210931274" lon="8.04330527887">
		<tag k="name" v="Nordli" />
		<tag k="ssr:date" v="2019-05-31" />
		<tag k="ssr:gruppe" v="veg" />
		<tag k="ssr:hovedgruppe" v="infrastruktur" />
		<tag k="ssr:stedsnr" v="986520" />
		<tag k="ssr:type" v="adressenavn" />
	</node>
	<node id="-267323" lat="59.8740379378" lon="8.10729812621">
		<tag k="name" v="Nord Vågen" />
		<tag k="ssr:date" v="2019-05-31" />
		<tag k="ssr:gruppe" v="veg" />
		<tag k="ssr:hovedgruppe" v="infrastruktur" />
		<tag k="ssr:stedsnr" v="986519" />
		<tag k="ssr:type" v="adressenavn" />
	</node>
	<node id="-267322" lat="59.6164903234" lon="7.87859358805">
		<tag k="name" v="Nestestogvegen" />
		<tag k="ssr:date" v="2019-05-31" />
		<tag k="ssr:gruppe" v="veg" />
		<tag k="ssr:hovedgruppe" v="infrastruktur" />
		<tag k="ssr:stedsnr" v="986518" />
		<tag k="ssr:type" v="adressenavn" />
	</node>
	<node id="-267321" lat="59.9236949089" lon="8.04793502798">
		<tag k="name" v="Kovesand" />
		<tag k="ssr:date" v="2019-05-31" />
		<tag k="ssr:gruppe" v="veg" />
		<tag k="ssr:hovedgruppe" v="infrastruktur" />
		<tag k="ssr:stedsnr" v="986393" />
		<tag k="ssr:type" v="adressenavn" />
	</node>
	<node id="-267320" lat="59.9697883611" lon="7.99573870167">
		<tag k="name" v="Juve" />
		<tag k="ssr:date" v="2019-05-31" />
		<tag k="ssr:gruppe" v="veg" />
		<tag k="ssr:hovedgruppe" v="infrastruktur" />
		<tag k="ssr:stedsnr" v="986373" />
		<tag k="ssr:type" v="adressenavn" />
	</node>
	<node id="-267319" lat="59.960959479" lon="8.01459499742">
		<tag k="name" v="Juvik" />
		<tag k="ssr:date" v="2019-05-31" />
		<tag k="ssr:gruppe" v="veg" />
		<tag k="ssr:hovedgruppe" v="infrastruktur" />
		<tag k="ssr:stedsnr" v="986374" />
		<tag k="ssr:type" v="adressenavn" />
	</node>
	<node id="-267318" lat="59.825090493" lon="8.29403974881">
		<tag k="name" v="Holvik vestre" />
		<tag k="ssr:date" v="2019-05-31" />
		<tag k="ssr:gruppe" v="veg" />
		<tag k="ssr:hovedgruppe" v="infrastruktur" />
		<tag k="ssr:stedsnr" v="986350" />
		<tag k="ssr:type" v="adressenavn" />
	</node>
	<node id="-267317" lat="59.8241956637" lon="8.2963058205">
		<tag k="name" v="Holvik austre" />
		<tag k="ssr:date" v="2019-05-31" />
		<tag k="ssr:gruppe" v="veg" />
		<tag k="ssr:hovedgruppe" v="infrastruktur" />
		<tag k="ssr:stedsnr" v="986349" />
		<tag k="ssr:type" v="adressenavn" />
	</node>
	<node id="-267316" lat="59.8836776634" lon="8.05635158619">
		<tag k="name" v="Galar" />
		<tag k="ssr:date" v="2019-05-31" />
		<tag k="ssr:gruppe" v="veg" />
		<tag k="ssr:hovedgruppe" v="infrastruktur" />
		<tag k="ssr:stedsnr" v="986309" />
		<tag k="ssr:type" v="adressenavn" />
	</node>
	<node id="-271556" lat="60.5908609473" lon="9.63819281559">
		<tag k="fixme" v="multiple name tags, choose one and add the other to alt_name" />
		<tag k="name" v="Austlandet;Østlandet" />
		<tag k="ssr:date" v="2018-01-09" />
		<tag k="ssr:gruppe" v="administrativeIndelinger" />
		<tag k="ssr:hovedgruppe" v="offentligAdministrasjon" />
		<tag k="ssr:stedsnr" v="974775" />
		<tag k="ssr:type" v="annenAdministrativInndeling" />
	</node>
	<node id="-267279" lat="59.7354176039" lon="8.13371576606">
		<tag k="name" v="Thorsvegen" />
		<tag k="ssr:date" v="2019-12-13" />
		<tag k="ssr:gruppe" v="veg" />
		<tag k="ssr:hovedgruppe" v="infrastruktur" />
		<tag k="ssr:stedsnr" v="1074282" />
		<tag k="ssr:type" v="adressenavn" />
	</node>
</osm>
