<?xml version="1.0" encoding="UTF-8"?>
<osm generator="osmapis" version="0.6">
	<node id="-72320" lat="63.7606898965" lon="8.31313763342">
		<tag k="name" v="Synnkya" />
		<tag k="ssr:date" v="2020-09-10" />
		<tag k="ssr:gruppe" v="navigasjon" />
		<tag k="ssr:hovedgruppe" v="infrastruktur" />
		<tag k="ssr:stedsnr" v="335993" />
		<tag k="ssr:type" v="fyrlykt" />
	</node>
	<node id="-71679" lat="63.6645916664" lon="8.28957221675">
		<tag k="name" v="Sildholmen" />
		<tag k="ssr:date" v="2018-01-09" />
		<tag k="ssr:gruppe" v="navigasjon" />
		<tag k="ssr:hovedgruppe" v="infrastruktur" />
		<tag k="ssr:stedsnr" v="31085" />
		<tag k="ssr:type" v="fyrlykt" />
	</node>
	<node id="-71175" lat="63.8498222237" lon="8.42270277762">
		<tag k="name" v="Kallholmen" />
		<tag k="ssr:date" v="2018-01-09" />
		<tag k="ssr:gruppe" v="navigasjon" />
		<tag k="ssr:hovedgruppe" v="infrastruktur" />
		<tag k="ssr:stedsnr" v="660533" />
		<tag k="ssr:type" v="fyrlykt" />
	</node>
	<node id="-70908" lat="63.8768833364" lon="8.64746388238">
		<tag k="name" v="Landbøtskjær" />
		<tag k="ssr:date" v="2018-01-09" />
		<tag k="ssr:gruppe" v="navigasjon" />
		<tag k="ssr:hovedgruppe" v="infrastruktur" />
		<tag k="ssr:stedsnr" v="660536" />
		<tag k="ssr:type" v="fyrlykt" />
	</node>
	<node id="-73083" lat="63.8941524327" lon="8.76222299845">
		<tag k="name" v="Austre Skoddskjæret" />
		<tag k="ssr:date" v="2020-09-10" />
		<tag k="ssr:gruppe" v="navigasjon" />
		<tag k="ssr:hovedgruppe" v="infrastruktur" />
		<tag k="ssr:stedsnr" v="753225" />
		<tag k="ssr:type" v="fyrlykt" />
	</node>
	<node id="-73082" lat="63.9943147303" lon="9.18078495761">
		<tag k="name" v="Sauøya austre" />
		<tag k="ssr:date" v="2020-09-10" />
		<tag k="ssr:gruppe" v="navigasjon" />
		<tag k="ssr:hovedgruppe" v="infrastruktur" />
		<tag k="ssr:stedsnr" v="753221" />
		<tag k="ssr:type" v="fyrlykt" />
	</node>
	<node id="-71417" lat="64.172005554" lon="9.37746666209">
		<tag k="name" v="Kvitingen" />
		<tag k="ssr:date" v="2018-01-09" />
		<tag k="ssr:gruppe" v="navigasjon" />
		<tag k="ssr:hovedgruppe" v="infrastruktur" />
		<tag k="ssr:stedsnr" v="924916" />
		<tag k="ssr:type" v="fyrlykt" />
	</node>
	<node id="-70885" lat="63.8111971301" lon="8.58256653195">
		<tag k="name" v="Sulsleikua" />
		<tag k="ssr:date" v="2020-09-10" />
		<tag k="ssr:gruppe" v="navigasjon" />
		<tag k="ssr:hovedgruppe" v="infrastruktur" />
		<tag k="ssr:stedsnr" v="512332" />
		<tag k="ssr:type" v="fyrlykt" />
	</node>
	<node id="-71159" lat="63.8662888933" lon="8.65968333258">
		<tag k="name" v="Mausund" />
		<tag k="ssr:date" v="2018-01-09" />
		<tag k="ssr:gruppe" v="administrativeIndelinger" />
		<tag k="ssr:hovedgruppe" v="offentligAdministrasjon" />
		<tag k="ssr:stedsnr" v="629556" />
		<tag k="ssr:type" v="poststed" />
	</node>
	<node id="-70768" lat="63.842099479" lon="8.63292012439">
		<tag k="name" v="Skogsøya" />
		<tag k="old_name" v="Skogsøy" />
		<tag k="ssr:date" v="2020-09-10" />
		<tag k="ssr:gruppe" v="navigasjon" />
		<tag k="ssr:hovedgruppe" v="infrastruktur" />
		<tag k="ssr:stedsnr" v="329349" />
		<tag k="ssr:type" v="fyrlykt" />
	</node>
	<node id="-70767" lat="63.7657103271" lon="8.59477218627">
		<tag k="name" v="Skarvøya" />
		<tag k="old_name" v="Skarvøy" />
		<tag k="ssr:date" v="2020-09-01" />
		<tag k="ssr:gruppe" v="navigasjon" />
		<tag k="ssr:hovedgruppe" v="infrastruktur" />
		<tag k="ssr:stedsnr" v="329339" />
		<tag k="ssr:type" v="lanterne" />
	</node>
	<node id="-72302" lat="63.9160462559" lon="8.67427542083">
		<tag k="name" v="Vingleia fyr" />
		<tag k="ssr:date" v="2019-02-12" />
		<tag k="ssr:gruppe" v="navigasjon" />
		<tag k="ssr:hovedgruppe" v="infrastruktur" />
		<tag k="ssr:stedsnr" v="328897" />
		<tag k="ssr:type" v="fyrstasjon" />
	</node>
	<node id="-72300" lat="63.7746798421" lon="8.82339545172">
		<tag k="name" v="Kalvholmskjæret" />
		<tag k="ssr:date" v="2020-09-10" />
		<tag k="ssr:gruppe" v="navigasjon" />
		<tag k="ssr:hovedgruppe" v="infrastruktur" />
		<tag k="ssr:stedsnr" v="328234" />
		<tag k="ssr:type" v="fyrlykt" />
	</node>
	<node id="-72722" lat="63.7607944485" lon="8.8771333233">
		<tag k="name" v="Kamholmen" />
		<tag k="ssr:date" v="2018-01-09" />
		<tag k="ssr:gruppe" v="navigasjon" />
		<tag k="ssr:hovedgruppe" v="infrastruktur" />
		<tag k="ssr:stedsnr" v="539479" />
		<tag k="ssr:type" v="fyrlykt" />
	</node>
	<node id="-71784" lat="63.8081261658" lon="8.8199266101">
		<tag k="name" v="Dolsøya" />
		<tag k="ssr:date" v="2019-05-28" />
		<tag k="ssr:gruppe" v="navigasjon" />
		<tag k="ssr:hovedgruppe" v="infrastruktur" />
		<tag k="ssr:stedsnr" v="73786" />
		<tag k="ssr:type" v="fyrlykt" />
	</node>
	<node id="-71014" lat="63.7320861083" lon="8.60166666429">
		<tag k="name" v="Håksteinøyskjær" />
		<tag k="ssr:date" v="2018-01-09" />
		<tag k="ssr:gruppe" v="navigasjon" />
		<tag k="ssr:hovedgruppe" v="infrastruktur" />
		<tag k="ssr:stedsnr" v="545608" />
		<tag k="ssr:type" v="lanterne" />
	</node>
	<node id="-72721" lat="63.6553027801" lon="8.49036110381">
		<tag k="name" v="Frøyfjorden" />
		<tag k="ssr:date" v="2018-01-09" />
		<tag k="ssr:gruppe" v="navigasjon" />
		<tag k="ssr:hovedgruppe" v="infrastruktur" />
		<tag k="ssr:stedsnr" v="539246" />
		<tag k="ssr:type" v="fyrlykt" />
	</node>
	<node id="-71570" lat="63.7234083351" lon="8.82664166619">
		<tag k="name" v="Blokkbærstien" />
		<tag k="ssr:date" v="2019-05-30" />
		<tag k="ssr:gruppe" v="veg" />
		<tag k="ssr:hovedgruppe" v="infrastruktur" />
		<tag k="ssr:stedsnr" v="908336" />
		<tag k="ssr:type" v="adressenavn" />
	</node>
	<node id="-72443" lat="63.7204709887" lon="8.55510530731">
		<tag k="name" v="Gulholmen" />
		<tag k="ssr:date" v="2019-03-05" />
		<tag k="ssr:gruppe" v="navigasjon" />
		<tag k="ssr:hovedgruppe" v="infrastruktur" />
		<tag k="ssr:stedsnr" v="377838" />
		<tag k="ssr:type" v="fyrlykt" />
	</node>
	<node id="-70394" lat="63.8165500012" lon="8.72548610194">
		<tag k="name" v="Lyngøyholmen" />
		<tag k="ssr:date" v="2018-01-09" />
		<tag k="ssr:gruppe" v="navigasjon" />
		<tag k="ssr:hovedgruppe" v="infrastruktur" />
		<tag k="ssr:stedsnr" v="255783" />
		<tag k="ssr:type" v="fyrlykt" />
	</node>
	<node id="-73181" lat="63.6767981919" lon="8.81530408818">
		<tag k="name" v="Flesa" />
		<tag k="ssr:date" v="2020-09-10" />
		<tag k="ssr:gruppe" v="navigasjon" />
		<tag k="ssr:hovedgruppe" v="infrastruktur" />
		<tag k="ssr:stedsnr" v="802712" />
		<tag k="ssr:type" v="fyrlykt" />
	</node>
	<node id="-71290" lat="63.7089583376" lon="8.8781472297">
		<tag k="name" v="Ballen" />
		<tag k="ssr:date" v="2018-01-09" />
		<tag k="ssr:gruppe" v="navigasjon" />
		<tag k="ssr:hovedgruppe" v="infrastruktur" />
		<tag k="ssr:stedsnr" v="904278" />
		<tag k="ssr:type" v="lanterne" />
	</node>
	<node id="-70884" lat="63.7579611118" lon="8.41703333543">
		<tag k="name" v="Humlingsværet" />
		<tag k="ssr:date" v="2018-01-09" />
		<tag k="ssr:gruppe" v="navigasjon" />
		<tag k="ssr:hovedgruppe" v="infrastruktur" />
		<tag k="ssr:stedsnr" v="511325" />
		<tag k="ssr:type" v="fyrlykt" />
	</node>
	<node id="-70869" lat="63.8704694458" lon="8.65613332315">
		<tag k="name" v="Belgen" />
		<tag k="ssr:date" v="2018-01-09" />
		<tag k="ssr:gruppe" v="navigasjon" />
		<tag k="ssr:hovedgruppe" v="infrastruktur" />
		<tag k="ssr:stedsnr" v="396544" />
		<tag k="ssr:type" v="lanterne" />
	</node>
	<node id="-73299" lat="63.775200909" lon="8.6157782524">
		<tag k="name" v="Håholmen" />
		<tag k="ssr:date" v="2020-09-10" />
		<tag k="ssr:gruppe" v="navigasjon" />
		<tag k="ssr:hovedgruppe" v="infrastruktur" />
		<tag k="ssr:stedsnr" v="843510" />
		<tag k="ssr:type" v="fyrlykt" />
	</node>
	<node id="-70610" lat="63.7738749958" lon="8.31197499251">
		<tag k="name" v="Kya" />
		<tag k="ssr:date" v="2018-01-09" />
		<tag k="ssr:gruppe" v="navigasjon" />
		<tag k="ssr:hovedgruppe" v="infrastruktur" />
		<tag k="ssr:stedsnr" v="451356" />
		<tag k="ssr:type" v="fyrlykt" />
	</node>
	<node id="-73425" lat="63.7788417949" lon="8.62001226929">
		<tag k="name" v="Huskassøyan" />
		<tag k="ssr:date" v="2019-05-30" />
		<tag k="ssr:gruppe" v="veg" />
		<tag k="ssr:hovedgruppe" v="infrastruktur" />
		<tag k="ssr:stedsnr" v="1034984" />
		<tag k="ssr:type" v="adressenavn" />
	</node>
	<node id="-73424" lat="63.7582214507" lon="8.66850579633">
		<tag k="name" v="Litlsauholmen" />
		<tag k="ssr:date" v="2019-05-30" />
		<tag k="ssr:gruppe" v="veg" />
		<tag k="ssr:hovedgruppe" v="infrastruktur" />
		<tag k="ssr:stedsnr" v="1034981" />
		<tag k="ssr:type" v="adressenavn" />
	</node>
	<node id="-73423" lat="63.7532678953" lon="8.64965518675">
		<tag k="name" v="Soløya" />
		<tag k="ssr:date" v="2019-05-30" />
		<tag k="ssr:gruppe" v="veg" />
		<tag k="ssr:hovedgruppe" v="infrastruktur" />
		<tag k="ssr:stedsnr" v="1034980" />
		<tag k="ssr:type" v="adressenavn" />
	</node>
	<node id="-72782" lat="64.1715777777" lon="9.40973611314">
		<tag k="name" v="Skanken" />
		<tag k="ssr:date" v="2018-01-09" />
		<tag k="ssr:gruppe" v="navigasjon" />
		<tag k="ssr:hovedgruppe" v="infrastruktur" />
		<tag k="ssr:stedsnr" v="574812" />
		<tag k="ssr:type" v="fyrlykt" />
	</node>
	<node id="-73421" lat="63.7546297773" lon="8.65997474254">
		<tag k="name" v="Storsauholmen" />
		<tag k="ssr:date" v="2019-05-30" />
		<tag k="ssr:gruppe" v="veg" />
		<tag k="ssr:hovedgruppe" v="infrastruktur" />
		<tag k="ssr:stedsnr" v="1034978" />
		<tag k="ssr:type" v="adressenavn" />
	</node>
	<node id="-73420" lat="63.7543483202" lon="8.6401364375">
		<tag k="name" v="Langøya" />
		<tag k="ssr:date" v="2019-05-30" />
		<tag k="ssr:gruppe" v="veg" />
		<tag k="ssr:hovedgruppe" v="infrastruktur" />
		<tag k="ssr:stedsnr" v="1034976" />
		<tag k="ssr:type" v="adressenavn" />
	</node>
	<node id="-73419" lat="63.7564409746" lon="8.4161677961">
		<tag k="name" v="Humlingsværet" />
		<tag k="ssr:date" v="2019-05-30" />
		<tag k="ssr:gruppe" v="veg" />
		<tag k="ssr:hovedgruppe" v="infrastruktur" />
		<tag k="ssr:stedsnr" v="1034975" />
		<tag k="ssr:type" v="adressenavn" />
	</node>
	<node id="-73418" lat="63.7510015318" lon="8.58711522578">
		<tag k="name" v="Vågøya" />
		<tag k="ssr:date" v="2019-05-30" />
		<tag k="ssr:gruppe" v="veg" />
		<tag k="ssr:hovedgruppe" v="infrastruktur" />
		<tag k="ssr:stedsnr" v="1034970" />
		<tag k="ssr:type" v="adressenavn" />
	</node>
	<node id="-72777" lat="63.9959472201" lon="9.15791389851">
		<tag k="name" v="Sauøya vestre" />
		<tag k="ssr:date" v="2018-01-09" />
		<tag k="ssr:gruppe" v="navigasjon" />
		<tag k="ssr:hovedgruppe" v="infrastruktur" />
		<tag k="ssr:stedsnr" v="570219" />
		<tag k="ssr:type" v="fyrlykt" />
	</node>
	<node id="-71112" lat="63.6625583327" lon="8.29580277649">
		<tag k="name" v="Titran" />
		<tag k="ssr:date" v="2018-01-09" />
		<tag k="ssr:gruppe" v="navigasjon" />
		<tag k="ssr:hovedgruppe" v="infrastruktur" />
		<tag k="ssr:stedsnr" v="705025" />
		<tag k="ssr:type" v="fyrlykt" />
	</node>
	<node id="-70476" lat="63.7300444412" lon="8.82427222059">
		<tag k="name" v="Frøya kommune" />
		<tag k="ssr:date" v="2018-01-09" />
		<tag k="ssr:gruppe" v="administrativeIndelinger" />
		<tag k="ssr:hovedgruppe" v="offentligAdministrasjon" />
		<tag k="ssr:stedsnr" v="268916" />
		<tag k="ssr:type" v="kommune" />
	</node>
	<node id="-71366" lat="63.8006835411" lon="8.87402270148">
		<tag k="name" v="Nordran" />
		<tag k="ssr:date" v="2020-09-15" />
		<tag k="ssr:gruppe" v="navigasjon" />
		<tag k="ssr:hovedgruppe" v="infrastruktur" />
		<tag k="ssr:stedsnr" v="923797" />
		<tag k="ssr:type" v="fyrlykt" />
	</node>
	<node id="-70979" lat="64.0252402666" lon="9.09598657987">
		<tag k="name" v="Bleika" />
		<tag k="ssr:date" v="2020-09-10" />
		<tag k="ssr:gruppe" v="navigasjon" />
		<tag k="ssr:hovedgruppe" v="infrastruktur" />
		<tag k="ssr:stedsnr" v="681894" />
		<tag k="ssr:type" v="fyrlykt" />
	</node>
	<node id="-71874" lat="63.9280333352" lon="8.90735834098">
		<tag k="name" v="Gjæsingen" />
		<tag k="ssr:date" v="2018-01-09" />
		<tag k="ssr:gruppe" v="navigasjon" />
		<tag k="ssr:hovedgruppe" v="infrastruktur" />
		<tag k="ssr:stedsnr" v="85493" />
		<tag k="ssr:type" v="fyrlykt" />
	</node>
	<node id="-71617" lat="63.9632267995" lon="9.01175165049">
		<tag k="name" v="Torvholmen" />
		<tag k="ssr:date" v="2020-09-10" />
		<tag k="ssr:gruppe" v="navigasjon" />
		<tag k="ssr:hovedgruppe" v="infrastruktur" />
		<tag k="ssr:stedsnr" v="13949" />
		<tag k="ssr:type" v="fyrlykt" />
	</node>
	<node id="-70325" lat="63.8661444428" lon="8.6380555501">
		<tag k="name" v="Kuøya" />
		<tag k="ssr:date" v="2019-05-30" />
		<tag k="ssr:gruppe" v="veg" />
		<tag k="ssr:hovedgruppe" v="infrastruktur" />
		<tag k="ssr:stedsnr" v="242925" />
		<tag k="ssr:type" v="adressenavn" />
	</node>
	<node id="-72266" lat="63.7051846432" lon="8.44227183871">
		<tag k="name" v="Kvisten" />
		<tag k="ssr:date" v="2020-09-10" />
		<tag k="ssr:gruppe" v="navigasjon" />
		<tag k="ssr:hovedgruppe" v="infrastruktur" />
		<tag k="ssr:stedsnr" v="317778" />
		<tag k="ssr:type" v="fyrlykt" />
	</node>
	<node id="-73146" lat="63.7133499978" lon="8.87286389397">
		<tag k="name" v="Toholmen" />
		<tag k="ssr:date" v="2018-01-09" />
		<tag k="ssr:gruppe" v="navigasjon" />
		<tag k="ssr:hovedgruppe" v="infrastruktur" />
		<tag k="ssr:stedsnr" v="782252" />
		<tag k="ssr:type" v="lanterne" />
	</node>
	<node id="-72118" lat="63.8532305545" lon="8.45600555786">
		<tag k="name" v="Maltsekken" />
		<tag k="old_name" v="Maltsækken" />
		<tag k="ssr:date" v="2018-01-09" />
		<tag k="ssr:gruppe" v="navigasjon" />
		<tag k="ssr:hovedgruppe" v="infrastruktur" />
		<tag k="ssr:stedsnr" v="175507" />
		<tag k="ssr:type" v="fyrlykt" />
	</node>
	<node id="-70837" lat="63.6554884455" lon="8.49051244181">
		<tag k="name" v="Flesa" />
		<tag k="ssr:date" v="2020-09-10" />
		<tag k="ssr:gruppe" v="navigasjon" />
		<tag k="ssr:hovedgruppe" v="infrastruktur" />
		<tag k="ssr:stedsnr" v="498989" />
		<tag k="ssr:type" v="fyrlykt" />
	</node>
	<node id="-72187" lat="64.1379722212" lon="9.32386945374">
		<tag k="name" v="Keilskjæret" />
		<tag k="ssr:date" v="2018-01-09" />
		<tag k="ssr:gruppe" v="navigasjon" />
		<tag k="ssr:hovedgruppe" v="infrastruktur" />
		<tag k="ssr:stedsnr" v="196953" />
		<tag k="ssr:type" v="fyrlykt" />
	</node>
	<node id="-71856" lat="64.1729194407" lon="9.40543610679">
		<tag k="name" v="Halten fyr" />
		<tag k="old_name" v="Halten" />
		<tag k="ssr:date" v="2018-01-09" />
		<tag k="ssr:gruppe" v="navigasjon" />
		<tag k="ssr:hovedgruppe" v="infrastruktur" />
		<tag k="ssr:stedsnr" v="74923" />
		<tag k="ssr:type" v="fyrstasjon" />
	</node>
	<node id="-72493" lat="63.8592287239" lon="8.50656278099">
		<tag k="name" v="Leiholmtaren" />
		<tag k="ssr:date" v="2020-09-10" />
		<tag k="ssr:gruppe" v="navigasjon" />
		<tag k="ssr:hovedgruppe" v="infrastruktur" />
		<tag k="ssr:stedsnr" v="390330" />
		<tag k="ssr:type" v="fyrlykt" />
	</node>
	<node id="-71596" lat="63.9291105051" lon="8.89534226537">
		<tag k="name" v="Vardøya" />
		<tag k="ssr:date" v="2019-05-30" />
		<tag k="ssr:gruppe" v="veg" />
		<tag k="ssr:hovedgruppe" v="infrastruktur" />
		<tag k="ssr:stedsnr" v="1034951" />
		<tag k="ssr:type" v="adressenavn" />
	</node>
	<node id="-71595" lat="63.869965999" lon="8.54201370545">
		<tag k="name" v="Korsvaløya" />
		<tag k="ssr:date" v="2019-05-30" />
		<tag k="ssr:gruppe" v="veg" />
		<tag k="ssr:hovedgruppe" v="infrastruktur" />
		<tag k="ssr:stedsnr" v="1034938" />
		<tag k="ssr:type" v="adressenavn" />
	</node>
	<node id="-71593" lat="64.0144468016" lon="11.4818866293">
		<tag k="name" v="Trøndelag fylke - Trööndelagen fylhke" />
		<tag k="name:no" v="Trøndelag fylke" />
		<tag k="name:sma" v="Trööndelagen fylhke" />
		<tag k="ssr:date" v="2020-01-13" />
		<tag k="ssr:gruppe" v="administrativeIndelinger" />
		<tag k="ssr:hovedgruppe" v="offentligAdministrasjon" />
		<tag k="ssr:stedsnr" v="980645" />
		<tag k="ssr:type" v="fylke" />
	</node>
	<node id="-71336" lat="63.6767888873" lon="8.81530556355">
		<tag k="name" v="Flesa" />
		<tag k="ssr:date" v="2019-12-27" />
		<tag k="ssr:gruppe" v="navigasjon" />
		<tag k="ssr:hovedgruppe" v="infrastruktur" />
		<tag k="ssr:stedsnr" v="774003" />
		<tag k="ssr:type" v="fyrlykt" />
	</node>
	<node id="-70949" lat="63.730980998" lon="8.59355694167">
		<tag k="name" v="Hågsteinøya" />
		<tag k="old_name" v="Håksteinøya" />
		<tag k="ssr:date" v="2020-09-10" />
		<tag k="ssr:gruppe" v="navigasjon" />
		<tag k="ssr:hovedgruppe" v="infrastruktur" />
		<tag k="ssr:stedsnr" v="498873" />
		<tag k="ssr:type" v="fyrlykt" />
	</node>
	<node id="-71837" lat="64.0425452476" lon="9.17504543321">
		<tag k="name" v="Kunna" />
		<tag k="ssr:date" v="2020-09-10" />
		<tag k="ssr:gruppe" v="navigasjon" />
		<tag k="ssr:hovedgruppe" v="infrastruktur" />
		<tag k="ssr:stedsnr" v="74875" />
		<tag k="ssr:type" v="fyrlykt" />
	</node>
	<node id="-71844" lat="64.0125611095" lon="9.17866666147">
		<tag k="name" v="Tjæreskjæret" />
		<tag k="ssr:date" v="2018-01-09" />
		<tag k="ssr:gruppe" v="navigasjon" />
		<tag k="ssr:hovedgruppe" v="infrastruktur" />
		<tag k="ssr:stedsnr" v="74889" />
		<tag k="ssr:type" v="fyrlykt" />
	</node>
	<node id="-72198" lat="63.8355579535" lon="8.49901504088">
		<tag k="name" v="Håskjæret" />
		<tag k="ssr:date" v="2019-03-04" />
		<tag k="ssr:gruppe" v="navigasjon" />
		<tag k="ssr:hovedgruppe" v="infrastruktur" />
		<tag k="ssr:stedsnr" v="208321" />
		<tag k="ssr:type" v="fyrlykt" />
	</node>
	<node id="-71967" lat="63.6661518901" lon="8.26244695993">
		<tag k="name" v="Slettringen fyr" />
		<tag k="ssr:date" v="2019-02-12" />
		<tag k="ssr:gruppe" v="navigasjon" />
		<tag k="ssr:hovedgruppe" v="infrastruktur" />
		<tag k="ssr:stedsnr" v="134763" />
		<tag k="ssr:type" v="fyrstasjon" />
	</node>
	<node id="-72605" lat="63.8475188674" lon="8.45283856679">
		<tag k="name" v="Sula fyr" />
		<tag k="ssr:date" v="2019-02-12" />
		<tag k="ssr:gruppe" v="navigasjon" />
		<tag k="ssr:hovedgruppe" v="infrastruktur" />
		<tag k="ssr:stedsnr" v="438037" />
		<tag k="ssr:type" v="fyrstasjon" />
	</node>
	<node id="-71833" lat="64.0440271636" lon="9.19508740905">
		<tag k="name" v="Nordbuen" />
		<tag k="ssr:date" v="2020-09-10" />
		<tag k="ssr:gruppe" v="navigasjon" />
		<tag k="ssr:hovedgruppe" v="infrastruktur" />
		<tag k="ssr:stedsnr" v="74856" />
		<tag k="ssr:type" v="fyrlykt" />
	</node>
	<node id="-72472" lat="63.6638351188" lon="8.35913881869">
		<tag k="name" v="Håvika" />
		<tag k="ssr:date" v="2020-09-10" />
		<tag k="ssr:gruppe" v="navigasjon" />
		<tag k="ssr:hovedgruppe" v="infrastruktur" />
		<tag k="ssr:stedsnr" v="377970" />
		<tag k="ssr:type" v="fyrlykt" />
	</node>
	<node id="-72727" lat="63.8733527775" lon="8.62394167105">
		<tag k="name" v="Laksholmen" />
		<tag k="ssr:date" v="2019-05-30" />
		<tag k="ssr:gruppe" v="veg" />
		<tag k="ssr:hovedgruppe" v="infrastruktur" />
		<tag k="ssr:stedsnr" v="545911" />
		<tag k="ssr:type" v="adressenavn" />
	</node>
	<node id="-73422" lat="63.7983063269" lon="8.41901489725">
		<tag k="name" v="Vågsværet" />
		<tag k="ssr:date" v="2019-05-30" />
		<tag k="ssr:gruppe" v="veg" />
		<tag k="ssr:hovedgruppe" v="infrastruktur" />
		<tag k="ssr:stedsnr" v="1034979" />
		<tag k="ssr:type" v="adressenavn" />
	</node>
	<node id="-70903" lat="63.7708262087" lon="8.3190977844">
		<tag k="name" v="Litlleiskjæret" />
		<tag k="ssr:date" v="2020-09-10" />
		<tag k="ssr:gruppe" v="navigasjon" />
		<tag k="ssr:hovedgruppe" v="infrastruktur" />
		<tag k="ssr:stedsnr" v="517996" />
		<tag k="ssr:type" v="fyrlykt" />
	</node>
	<node id="-72850" lat="63.719152775" lon="8.87670555885">
		<tag k="name" v="Inntian molo" />
		<tag k="ssr:date" v="2018-01-09" />
		<tag k="ssr:gruppe" v="navigasjon" />
		<tag k="ssr:hovedgruppe" v="infrastruktur" />
		<tag k="ssr:stedsnr" v="600275" />
		<tag k="ssr:type" v="lanterne" />
	</node>
	<node id="-72849" lat="63.6899361096" lon="8.84393333576">
		<tag k="name" v="Ragnhildskjærene" />
		<tag k="ssr:date" v="2018-01-09" />
		<tag k="ssr:gruppe" v="navigasjon" />
		<tag k="ssr:hovedgruppe" v="infrastruktur" />
		<tag k="ssr:stedsnr" v="600273" />
		<tag k="ssr:type" v="lanterne" />
	</node>
	<node id="-70927" lat="63.7116416712" lon="8.8785805526">
		<tag k="name" v="Meholmen" />
		<tag k="old_name" v="Medholmen" />
		<tag k="ssr:date" v="2018-01-09" />
		<tag k="ssr:gruppe" v="navigasjon" />
		<tag k="ssr:hovedgruppe" v="infrastruktur" />
		<tag k="ssr:stedsnr" v="680748" />
		<tag k="ssr:type" v="fyrlykt" />
	</node>
	<node id="-70670" lat="63.8603555522" lon="8.64421388494">
		<tag k="name" v="Vassøyskjæret" />
		<tag k="ssr:date" v="2018-01-09" />
		<tag k="ssr:gruppe" v="navigasjon" />
		<tag k="ssr:hovedgruppe" v="infrastruktur" />
		<tag k="ssr:stedsnr" v="269359" />
		<tag k="ssr:type" v="lanterne" />
	</node>
	<node id="-71437" lat="64.0692361129" lon="9.11049167646">
		<tag k="name" v="Finnværet fyr" />
		<tag k="ssr:date" v="2018-01-09" />
		<tag k="ssr:gruppe" v="navigasjon" />
		<tag k="ssr:hovedgruppe" v="infrastruktur" />
		<tag k="ssr:stedsnr" v="814663" />
		<tag k="ssr:type" v="fyrstasjon" />
	</node>
	<node id="-71948" lat="63.8725805529" lon="8.63500277743">
		<tag k="name" v="Spåholet" />
		<tag k="ssr:date" v="2019-05-30" />
		<tag k="ssr:gruppe" v="veg" />
		<tag k="ssr:hovedgruppe" v="infrastruktur" />
		<tag k="ssr:stedsnr" v="120934" />
		<tag k="ssr:type" v="adressenavn" />
	</node>
	<node id="-71435" lat="64.1134802366" lon="9.40389469586">
		<tag k="name" v="Gimsan" />
		<tag k="ssr:date" v="2020-09-10" />
		<tag k="ssr:gruppe" v="navigasjon" />
		<tag k="ssr:hovedgruppe" v="infrastruktur" />
		<tag k="ssr:stedsnr" v="803960" />
		<tag k="ssr:type" v="fyrlykt" />
	</node>
	<node id="-73226" lat="63.8586583342" lon="8.65475277427">
		<tag k="name" v="Måøya" />
		<tag k="ssr:date" v="2018-01-09" />
		<tag k="ssr:gruppe" v="navigasjon" />
		<tag k="ssr:hovedgruppe" v="infrastruktur" />
		<tag k="ssr:stedsnr" v="815339" />
		<tag k="ssr:type" v="fyrlykt" />
	</node>
	<node id="-73223" lat="63.9294993866" lon="8.95508292938">
		<tag k="name" v="Gjæsingbogen" />
		<tag k="ssr:date" v="2020-09-10" />
		<tag k="ssr:gruppe" v="navigasjon" />
		<tag k="ssr:hovedgruppe" v="infrastruktur" />
		<tag k="ssr:stedsnr" v="814317" />
		<tag k="ssr:type" v="fyrlykt" />
	</node>
	<node id="-73222" lat="64.092559382" lon="9.32228230094">
		<tag k="name" v="Kristianskjæra" />
		<tag k="ssr:date" v="2020-09-10" />
		<tag k="ssr:gruppe" v="navigasjon" />
		<tag k="ssr:hovedgruppe" v="infrastruktur" />
		<tag k="ssr:stedsnr" v="803950" />
		<tag k="ssr:type" v="fyrlykt" />
	</node>
	<node id="-72451" lat="63.7473749964" lon="8.64727777109">
		<tag k="name" v="Urdsvikholmen" />
		<tag k="ssr:date" v="2018-01-09" />
		<tag k="ssr:gruppe" v="navigasjon" />
		<tag k="ssr:hovedgruppe" v="infrastruktur" />
		<tag k="ssr:stedsnr" v="377858" />
		<tag k="ssr:type" v="fyrlykt" />
	</node>
	<node id="-72299" lat="63.9757250003" lon="9.08628333462">
		<tag k="name" v="Flyndreskjæret" />
		<tag k="ssr:date" v="2018-01-09" />
		<tag k="ssr:gruppe" v="navigasjon" />
		<tag k="ssr:hovedgruppe" v="infrastruktur" />
		<tag k="ssr:stedsnr" v="328230" />
		<tag k="ssr:type" v="fyrlykt" />
	</node>
</osm>
