<?xml version="1.0" encoding="UTF-8"?>
<osm version="0.6" generator="osmapis">
	<node lat="61.37393055480987" lon="7.326738889296242" id="-28473">
		<tag k="name" v="Øy" />
		<tag k="place" v="farm" />
		<tag k="ssr:stedsnr" v="7057" />
	</node>
	<node lat="61.36991944359463" lon="7.313180554059635" id="-28474">
		<tag k="historic" v="shieling" />
		<tag k="name" v="Dalastølen" />
		<tag k="place" v="isolated_dwelling" />
		<tag k="ssr:stedsnr" v="7060" />
	</node>
	<node lat="61.3593694486118" lon="7.400222213179576" id="-28486">
		<tag k="alt_name" v="Dulsvik" />
		<tag k="name" v="Dulsviki" />
		<tag k="place" v="farm" />
		<tag k="ssr:stedsnr" v="7657" />
	</node>
	<node lat="61.37959721914291" lon="7.218586114810574" id="-28488">
		<tag k="name" v="Oksestølen" />
		<tag k="place" v="locality" />
		<tag k="ssr:stedsnr" v="8045" />
	</node>
	<node lat="61.499990540492384" lon="7.713319698015275" id="-28491">
		<tag k="alt_name" v="Saue" />
		<tag k="fixme" v="consider place=hamlet" />
		<tag k="name" v="Saude" />
		<tag k="place" v="farm" />
		<tag k="ssr:stedsnr" v="8295" />
	</node>
	<node lat="61.34619444485513" lon="7.394761109034962" id="-28499">
		<tag k="alt_name" v="Sagen" />
		<tag k="name" v="Sagi" />
		<tag k="place" v="farm" />
		<tag k="ssr:stedsnr" v="8644" />
	</node>
	<node lat="61.33516388540622" lon="7.400372215389526" id="-28501">
		<tag k="alt_name" v="Aspelund" />
		<tag k="name" v="Ospelund" />
		<tag k="place" v="farm" />
		<tag k="ssr:stedsnr" v="8656" />
	</node>
	<node lat="61.27699166893701" lon="7.3834277785737275" id="-28503">
		<tag k="name" v="Plassen" />
		<tag k="place" v="farm" />
		<tag k="ssr:stedsnr" v="8598" />
	</node>
	<node lat="61.43586699185473" lon="7.498339879754172" id="-28505">
		<tag k="fixme" v="consider place=hamlet" />
		<tag k="name" v="Sande" />
		<tag k="place" v="farm" />
		<tag k="ssr:stedsnr" v="8772" />
	</node>
	<node lat="61.50473333473248" lon="7.790336120154845" id="-28509">
		<tag k="historic" v="shieling" />
		<tag k="loc_name" v="Gjessingane;Gjessingadn;Gjæsingane" />
		<tag k="name" v="Gjesingane" />
		<tag k="place" v="isolated_dwelling" />
		<tag k="ssr:stedsnr" v="10323" />
	</node>
	<node lat="61.512749996504866" lon="7.313055563272631" id="-28517">
		<tag k="name" v="Syneshaug" />
		<tag k="place" v="farm" />
		<tag k="ssr:stedsnr" v="10636" />
	</node>
	<node lat="61.55766111465457" lon="7.558077774225035" id="-28520">
		<tag k="name" v="Lambakråi" />
		<tag k="place" v="locality" />
		<tag k="ssr:stedsnr" v="10534" />
	</node>
	<node lat="61.58493056003434" lon="7.64320833129819" id="-28521">
		<tag k="historic" v="shieling" />
		<tag k="name" v="Liane" />
		<tag k="place" v="isolated_dwelling" />
		<tag k="ssr:stedsnr" v="10548" />
	</node>
	<node lat="61.69628333367717" lon="7.319680549938693" id="-28528">
		<tag k="historic" v="shieling" />
		<tag k="name" v="Bjørnstegane" />
		<tag k="place" v="isolated_dwelling" />
		<tag k="ssr:stedsnr" v="10716" />
	</node>
	<node lat="61.311088811041195" lon="7.1836598716282" id="-28543">
		<tag k="fixme" v="consider place=hamlet" />
		<tag k="name" v="Hafslo prestegard" />
		<tag k="place" v="farm" />
		<tag k="ssr:stedsnr" v="25909" />
	</node>
	<node lat="61.486325004243525" lon="7.435591659752175" id="-28554">
		<tag k="historic" v="shieling" />
		<tag k="name" v="Vårstøl" />
		<tag k="place" v="isolated_dwelling" />
		<tag k="ssr:stedsnr" v="26415" />
	</node>
	<node lat="61.41965665960844" lon="7.434800629186229" id="-28565">
		<tag k="fixme" v="consider place=hamlet" />
		<tag k="name" v="Hengesteg" />
		<tag k="place" v="farm" />
		<tag k="ssr:stedsnr" v="26907" />
	</node>
	<node lat="61.740430553921406" lon="7.487336111061893" id="-28570">
		<tag k="fixme" v="consider tourism=alpine_hut or tourism=chalet" />
		<tag k="name" v="Sprongdalshytta" />
		<tag k="ssr:stedsnr" v="27269" />
		<tag k="tourism" v="wilderness_hut" />
	</node>
	<node lat="61.664141665963754" lon="7.280574995370798" id="-28575">
		<tag k="name" v="Langeteigen" />
		<tag k="place" v="locality" />
		<tag k="ssr:stedsnr" v="28419" />
	</node>
	<node lat="61.364216784920394" lon="7.269162423583045" id="-28577">
		<tag k="fixme" v="consider place=hamlet" />
		<tag k="name" v="Josvanger" />
		<tag k="place" v="farm" />
		<tag k="ssr:stedsnr" v="28620" />
	</node>
	<node lat="61.300069443193614" lon="7.313947227455935" id="-28581">
		<tag k="name" v="Nedre Ornes" />
		<tag k="place" v="farm" />
		<tag k="ssr:stedsnr" v="237218" />
	</node>
	<node lat="61.343545456206996" lon="7.267149129270514" id="-28594">
		<tag k="alt_name" v="Morken" />
		<tag k="fixme" v="consider place=hamlet" />
		<tag k="name" v="Morki" />
		<tag k="place" v="farm" />
		<tag k="ssr:stedsnr" v="68502" />
	</node>
	<node lat="61.449005556980495" lon="7.4527694493008" id="-28597">
		<tag k="name" v="Hestaskår" />
		<tag k="place" v="farm" />
		<tag k="ssr:stedsnr" v="68285" />
	</node>
	<node lat="61.32365342921082" lon="7.28102040184064" id="-28600">
		<tag k="alt_name" v="Modland" />
		<tag k="fixme" v="consider place=hamlet" />
		<tag k="name" v="Molland" />
		<tag k="place" v="farm" />
		<tag k="ssr:stedsnr" v="68410" />
	</node>
	<node lat="61.27083888820108" lon="7.379455547573834" id="-28602">
		<tag k="name" v="Botnen" />
		<tag k="place" v="farm" />
		<tag k="ssr:stedsnr" v="68587" />
	</node>
	<node lat="61.34980277915565" lon="7.394558328667969" id="-28603">
		<tag k="name" v="Teigen" />
		<tag k="place" v="farm" />
		<tag k="ssr:stedsnr" v="68704" />
	</node>
	<node lat="61.46305555910164" lon="7.035711106120334" id="-28605">
		<tag k="historic" v="shieling" />
		<tag k="name" v="Elda" />
		<tag k="place" v="isolated_dwelling" />
		<tag k="ssr:stedsnr" v="69083" />
	</node>
	<node lat="61.50458401700228" lon="6.985772550216598" id="-28606">
		<tag k="fixme" v="consider place=hamlet" />
		<tag k="name" v="Veitastrond" />
		<tag k="place" v="village" />
		<tag k="ssr:stedsnr" v="69194" />
	</node>
	<node lat="61.319903195947305" lon="7.279387335130475" id="-28608">
		<tag k="alt_name" v="Råum" />
		<tag k="fixme" v="consider place=hamlet" />
		<tag k="name" v="Røym" />
		<tag k="place" v="farm" />
		<tag k="ssr:stedsnr" v="69395" />
	</node>
	<node lat="61.32019166592349" lon="7.05091944127145" id="-28609">
		<tag k="name" v="Sjautuft" />
		<tag k="place" v="locality" />
		<tag k="ssr:stedsnr" v="69516" />
	</node>
	<node lat="61.4971027771809" lon="7.745130552222064" id="-28611">
		<tag k="alt_name" v="Dokki" />
		<tag k="name" v="Sprekla" />
		<tag k="place" v="isolated_dwelling" />
		<tag k="ssr:stedsnr" v="69631" />
	</node>
	<node lat="61.712449998773025" lon="7.352063892569648" id="-28616">
		<tag k="historic" v="shieling" />
		<tag k="name" v="Fåbergstølen" />
		<tag k="place" v="isolated_dwelling" />
		<tag k="ssr:stedsnr" v="70500" />
	</node>
	<node lat="61.59371111218061" lon="7.278124998848253" id="-28618">
		<tag k="name" v="Øvregard" />
		<tag k="place" v="farm" />
		<tag k="ssr:stedsnr" v="70633" />
	</node>
	<node lat="61.50821666209364" lon="7.4639788975147585" id="-28622">
		<tag k="alt_name" v="Hornane, øvre;Hodnane;Hornane;Øvre Hornane" />
		<tag k="historic" v="shieling" />
		<tag k="name" v="Øvre Hodnane" />
		<tag k="place" v="isolated_dwelling" />
		<tag k="ssr:stedsnr" v="71420" />
	</node>
	<node lat="61.5140638857478" lon="7.60949444779704" id="-28623">
		<tag k="name" v="Heltnehagen" />
		<tag k="place" v="farm" />
		<tag k="ssr:stedsnr" v="71421" />
	</node>
	<node lat="61.57342778021315" lon="7.536875008545823" id="-28632">
		<tag k="fixme" v="consider tourism=alpine_hut or tourism=chalet" />
		<tag k="name" v="Fast" />
		<tag k="ssr:stedsnr" v="71582" />
		<tag k="tourism" v="wilderness_hut" />
	</node>
	<node lat="61.611727781220644" lon="7.282891658558183" id="-28635">
		<tag k="name" v="Hesjevoll" />
		<tag k="place" v="farm" />
		<tag k="ssr:stedsnr" v="71701" />
	</node>
	<node lat="61.520224999998334" lon="7.31340278492418" id="-28639">
		<tag k="historic" v="shieling" />
		<tag k="name" v="Nosi" />
		<tag k="place" v="isolated_dwelling" />
		<tag k="ssr:stedsnr" v="71617" />
	</node>
	<node lat="61.315116724060246" lon="7.2195627520399865" id="-28657">
		<tag k="name" v="Hillestadhaugen" />
		<tag k="place" v="farm" />
		<tag k="ssr:stedsnr" v="86623" />
	</node>
	<node lat="61.44431904647473" lon="7.997173146291195" id="-28671">
		<tag k="fixme" v="consider tourism=alpine_hut or tourism=chalet" />
		<tag k="name" v="Vormeli" />
		<tag k="ssr:stedsnr" v="87514" />
		<tag k="tourism" v="wilderness_hut" />
	</node>
	<node lat="61.334380555283325" lon="7.281569444192864" id="-28680">
		<tag k="historic" v="shieling" />
		<tag k="name" v="Batastølen" />
		<tag k="place" v="isolated_dwelling" />
		<tag k="ssr:stedsnr" v="87721" />
	</node>
	<node lat="61.4915611101118" lon="7.420997226592144" id="-28681">
		<tag k="historic" v="shieling" />
		<tag k="name" v="Kvaalstølen" />
		<tag k="place" v="isolated_dwelling" />
		<tag k="ssr:stedsnr" v="87908" />
	</node>
	<node lat="61.46358888771846" lon="7.018019449619184" id="-28688">
		<tag k="name" v="Gropateigen" />
		<tag k="place" v="locality" />
		<tag k="ssr:stedsnr" v="89156" />
	</node>
	<node lat="61.37098611040179" lon="7.288688897798842" id="-28691">
		<tag k="name" v="Harberg" />
		<tag k="place" v="farm" />
		<tag k="ssr:stedsnr" v="89624" />
	</node>
	<node lat="61.3850277806948" lon="7.121769435195464" id="-28697">
		<tag k="alt_name" v="Hongi, vetla" />
		<tag k="historic" v="shieling" />
		<tag k="name" v="Vetla Hongi" />
		<tag k="place" v="isolated_dwelling" />
		<tag k="ssr:stedsnr" v="250017" />
	</node>
	<node lat="61.49554155285434" lon="6.993244727071055" id="-28703">
		<tag k="fixme" v="consider place=hamlet" />
		<tag k="name" v="Neset" />
		<tag k="place" v="farm" />
		<tag k="ssr:stedsnr" v="250172" />
	</node>
	<node lat="61.48332956013372" lon="7.565193967153364" id="-28706">
		<tag k="fixme" v="consider place=hamlet" />
		<tag k="name" v="Fjøsne" />
		<tag k="place" v="farm" />
		<tag k="ssr:stedsnr" v="250302" />
	</node>
	<node lat="61.280402775435725" lon="7.2782444494453244" id="-28707">
		<tag k="name" v="Sanden" />
		<tag k="place" v="isolated_dwelling" />
		<tag k="ssr:stedsnr" v="250319" />
	</node>
	<node lat="61.313438807994714" lon="7.182760127630965" id="-28708">
		<tag k="fixme" v="consider place=hamlet" />
		<tag k="name" v="Holsete" />
		<tag k="place" v="farm" />
		<tag k="ssr:stedsnr" v="250377" />
	</node>
	<node lat="61.31501552037055" lon="7.206614249710221" id="-28709">
		<tag k="fixme" v="consider place=hamlet" />
		<tag k="name" v="Mo" />
		<tag k="place" v="farm" />
		<tag k="ssr:stedsnr" v="250382" />
	</node>
	<node lat="61.35538055488972" lon="7.124380562481321" id="-28713">
		<tag k="historic" v="shieling" />
		<tag k="name" v="Fossen" />
		<tag k="place" v="isolated_dwelling" />
		<tag k="ssr:stedsnr" v="250454" />
	</node>
	<node lat="61.36423579084769" lon="7.263247640738952" id="-28720">
		<tag k="fixme" v="consider place=hamlet" />
		<tag k="name" v="Fet" />
		<tag k="place" v="farm" />
		<tag k="ssr:stedsnr" v="250458" />
	</node>
	<node lat="61.32365191647206" lon="7.141081519206221" id="-28722">
		<tag k="alt_name" v="Vetlestøl" />
		<tag k="historic" v="shieling" />
		<tag k="name" v="Vetlestølen" />
		<tag k="place" v="isolated_dwelling" />
		<tag k="ssr:stedsnr" v="250477" />
	</node>
	<node lat="61.46315000083512" lon="8.013999993543038" id="-28726">
		<tag k="fixme" v="consider tourism=alpine_hut or tourism=chalet" />
		<tag k="name" v="Skogadalsbøen" />
		<tag k="old_name" v="Skogadalsbøen turisthotell" />
		<tag k="ssr:stedsnr" v="250538" />
		<tag k="tourism" v="wilderness_hut" />
	</node>
	<node lat="61.49636388578421" lon="7.758052778152301" id="-28729">
		<tag k="name" v="Farningane" />
		<tag k="place" v="isolated_dwelling" />
		<tag k="ssr:stedsnr" v="250572" />
	</node>
	<node lat="61.420799995952535" lon="7.499011112079078" id="-28732">
		<tag k="name" v="Hovland" />
		<tag k="place" v="farm" />
		<tag k="ssr:stedsnr" v="250691" />
	</node>
	<node lat="61.419833959188864" lon="7.431765140789729" id="-28733">
		<tag k="fixme" v="consider place=hamlet" />
		<tag k="name" v="Skildheim" />
		<tag k="place" v="farm" />
		<tag k="ssr:stedsnr" v="250694" />
	</node>
	<node lat="61.37004166887183" lon="6.996541674420685" id="-28748">
		<tag k="historic" v="shieling" />
		<tag k="name" v="Fjellstølen" />
		<tag k="place" v="isolated_dwelling" />
		<tag k="ssr:stedsnr" v="251066" />
	</node>
	<node lat="61.46849722602699" lon="7.323524994370069" id="-28750">
		<tag k="historic" v="shieling" />
		<tag k="name" v="Våg" />
		<tag k="place" v="isolated_dwelling" />
		<tag k="ssr:stedsnr" v="251080" />
	</node>
	<node lat="61.54394722583398" lon="6.971777782146958" id="-28751">
		<tag k="fixme" v="consider tourism=alpine_hut or tourism=chalet" />
		<tag k="name" v="Tungestølen turisthytte" />
		<tag k="ssr:stedsnr" v="120719" />
		<tag k="tourism" v="wilderness_hut" />
	</node>
	<node lat="61.49797222426409" lon="7.41016945269743" id="-28752">
		<tag k="historic" v="shieling" />
		<tag k="name" v="Bringestølen" />
		<tag k="place" v="isolated_dwelling" />
		<tag k="ssr:stedsnr" v="251286" />
	</node>
	<node lat="61.36948067298753" lon="7.2557008090381485" id="-28755">
		<tag k="fixme" v="consider place=hamlet" />
		<tag k="name" v="Høgi" />
		<tag k="place" v="farm" />
		<tag k="ssr:stedsnr" v="128041" />
	</node>
	<node lat="61.490963889947096" lon="7.4639472291378075" id="-28757">
		<tag k="name" v="Hersethovden" />
		<tag k="place" v="locality" />
		<tag k="ssr:stedsnr" v="128235" />
	</node>
	<node lat="61.490961109088424" lon="7.60008610400985" id="-28758">
		<tag k="name" v="Skjolden" />
		<tag k="place" v="village" />
		<tag k="ssr:stedsnr" v="128237" />
	</node>
	<node lat="61.289427781667804" lon="7.241747217630113" id="-28759">
		<tag k="historic" v="shieling" />
		<tag k="name" v="Setålen" />
		<tag k="place" v="isolated_dwelling" />
		<tag k="ssr:stedsnr" v="128300" />
	</node>
	<node lat="61.21820555450023" lon="7.344688885161583" id="-28763">
		<tag k="name" v="Fureneset" />
		<tag k="place" v="isolated_dwelling" />
		<tag k="ssr:stedsnr" v="252347" />
	</node>
	<node lat="61.35506667065159" lon="7.082349994436123" id="-28764">
		<tag k="alt_name" v="Holen" />
		<tag k="name" v="Hola" />
		<tag k="place" v="farm" />
		<tag k="ssr:stedsnr" v="128434" />
	</node>
	<node lat="61.40350278121312" lon="7.485683326486251" id="-28765">
		<tag k="historic" v="shieling" />
		<tag k="name" v="Li" />
		<tag k="place" v="isolated_dwelling" />
		<tag k="ssr:stedsnr" v="128696" />
	</node>
	<node lat="61.407176657093935" lon="7.302417013689621" id="-28769">
		<tag k="alt_name" v="Tandle" />
		<tag k="fixme" v="consider place=hamlet" />
		<tag k="name" v="Tandla" />
		<tag k="place" v="farm" />
		<tag k="ssr:stedsnr" v="129005" />
	</node>
	<node lat="61.40746389181922" lon="7.199088895508048" id="-28771">
		<tag k="name" v="Geitshillerane" />
		<tag k="place" v="locality" />
		<tag k="ssr:stedsnr" v="129009" />
	</node>
	<node lat="61.407491663848525" lon="7.234119450739753" id="-28772">
		<tag k="fixme" v="multiple name tags, choose one and add the other to alt_name" />
		<tag k="historic" v="shieling" />
		<tag k="name" v="Klonk;Folabrekka" />
		<tag k="place" v="isolated_dwelling" />
		<tag k="ssr:stedsnr" v="129010" />
	</node>
	<node lat="61.4077916686434" lon="7.097769435090464" id="-28773">
		<tag k="alt_name" v="Uksabåsen" />
		<tag k="name" v="Oksebåsen" />
		<tag k="place" v="locality" />
		<tag k="ssr:stedsnr" v="129013" />
	</node>
	<node lat="61.38153611237387" lon="7.256344445785212" id="-28776">
		<tag k="alt_name" v="Ulvongo" />
		<tag k="historic" v="shieling" />
		<tag k="name" v="Ulvungo" />
		<tag k="place" v="isolated_dwelling" />
		<tag k="ssr:stedsnr" v="129046" />
	</node>
	<node lat="61.367261106833084" lon="7.0318972312206425" id="-28778">
		<tag k="historic" v="shieling" />
		<tag k="name" v="Vårstølen" />
		<tag k="place" v="isolated_dwelling" />
		<tag k="ssr:stedsnr" v="129082" />
	</node>
	<node lat="61.49656667026748" lon="7.414261107315362" id="-28781">
		<tag k="historic" v="shieling" />
		<tag k="name" v="Flikkistølen" />
		<tag k="place" v="isolated_dwelling" />
		<tag k="ssr:stedsnr" v="129281" />
	</node>
	<node lat="61.326644653985696" lon="7.211763645172798" id="-28786">
		<tag k="fixme" v="consider place=hamlet" />
		<tag k="name" v="Solvi" />
		<tag k="place" v="farm" />
		<tag k="ssr:stedsnr" v="129392" />
	</node>
	<node lat="61.31722777638218" lon="7.081261112563412" id="-28787">
		<tag k="historic" v="shieling" />
		<tag k="name" v="Simosete" />
		<tag k="place" v="isolated_dwelling" />
		<tag k="ssr:stedsnr" v="129398" />
	</node>
	<node lat="61.33611388860189" lon="7.412511120156258" id="-28791">
		<tag k="historic" v="shieling" />
		<tag k="name" v="Surnasete" />
		<tag k="place" v="isolated_dwelling" />
		<tag k="ssr:stedsnr" v="129627" />
	</node>
	<node lat="61.35764722554919" lon="7.404930548483258" id="-28793">
		<tag k="alt_name" v="Lingjerdet, nedre" />
		<tag k="name" v="Nedre Lingjerdet" />
		<tag k="place" v="farm" />
		<tag k="ssr:stedsnr" v="129703" />
	</node>
	<node lat="61.447450741223406" lon="7.477863170574369" id="-28796">
		<tag k="alt_name" v="Kvålsvik" />
		<tag k="fixme" v="consider place=hamlet" />
		<tag k="name" v="Kvålsviki" />
		<tag k="place" v="farm" />
		<tag k="ssr:stedsnr" v="129747" />
	</node>
	<node lat="61.54524721849123" lon="7.25051111891639" id="-28799">
		<tag k="historic" v="shieling" />
		<tag k="name" v="Vassdalen" />
		<tag k="place" v="isolated_dwelling" />
		<tag k="ssr:stedsnr" v="252631" />
	</node>
	<node lat="61.59990000152982" lon="7.320286103283842" id="-28808">
		<tag k="historic" v="shieling" />
		<tag k="name" v="Vanndalen" />
		<tag k="place" v="isolated_dwelling" />
		<tag k="ssr:stedsnr" v="252590" />
	</node>
	<node lat="61.50946389117993" lon="7.2830472295108954" id="-28814">
		<tag k="name" v="Li" />
		<tag k="place" v="farm" />
		<tag k="ssr:stedsnr" v="131608" />
	</node>
	<node lat="61.51567778095488" lon="7.262513879846398" id="-28815">
		<tag k="historic" v="shieling" />
		<tag k="name" v="Myten" />
		<tag k="place" v="isolated_dwelling" />
		<tag k="ssr:stedsnr" v="131620" />
	</node>
	<node lat="61.705038885873066" lon="7.871863895793065" id="-28819">
		<tag k="alt_name" v="Middalsbu" />
		<tag k="fixme" v="consider tourism=alpine_hut or tourism=chalet" />
		<tag k="name" v="Medalsbu" />
		<tag k="ssr:stedsnr" v="131369" />
		<tag k="tourism" v="wilderness_hut" />
	</node>
	<node lat="61.54968055721608" lon="7.6233527693205865" id="-28822">
		<tag k="alt_name" v="Hødnevollen" />
		<tag k="historic" v="shieling" />
		<tag k="name" v="Hyrnavollen" />
		<tag k="place" v="isolated_dwelling" />
		<tag k="ssr:stedsnr" v="131517" />
	</node>
	<node lat="61.52019999708271" lon="7.725702779945386" id="-28840">
		<tag k="historic" v="shieling" />
		<tag k="name" v="Steinanosi" />
		<tag k="place" v="isolated_dwelling" />
		<tag k="ssr:stedsnr" v="253371" />
	</node>
	<node lat="61.51839444406367" lon="7.588916670284933" id="-28844">
		<tag k="name" v="Persli" />
		<tag k="place" v="locality" />
		<tag k="ssr:stedsnr" v="253477" />
	</node>
	<node lat="61.51653611241231" lon="7.705441666781414" id="-28846">
		<tag k="alt_name" v="Bruhaug" />
		<tag k="name" v="Bruhaugen" />
		<tag k="place" v="farm" />
		<tag k="ssr:stedsnr" v="253480" />
	</node>
	<node lat="61.53467232268833" lon="7.607941790280413" id="-28848">
		<tag k="fixme" v="consider place=hamlet" />
		<tag k="name" v="Moen" />
		<tag k="place" v="farm" />
		<tag k="ssr:stedsnr" v="253465" />
	</node>
	<node lat="61.57403888845867" lon="7.637813887001196" id="-28857">
		<tag k="name" v="Knivabakkli" />
		<tag k="place" v="locality" />
		<tag k="ssr:stedsnr" v="253564" />
	</node>
	<node lat="61.67286666256067" lon="7.327661106297265" id="-28859">
		<tag k="name" v="Åreteig" />
		<tag k="place" v="farm" />
		<tag k="ssr:stedsnr" v="253756" />
	</node>
	<node lat="61.67023888935692" lon="7.326955555296016" id="-28860">
		<tag k="alt_name" v="Torstad, øvre" />
		<tag k="name" v="Øvre Torstad" />
		<tag k="place" v="farm" />
		<tag k="ssr:stedsnr" v="253758" />
	</node>
	<node lat="61.31800833725967" lon="7.212186120187586" id="-28866">
		<tag k="name" v="Modal" />
		<tag k="place" v="farm" />
		<tag k="ssr:stedsnr" v="146425" />
	</node>
	<node lat="61.432610205271075" lon="7.3408935729007245" id="-28876">
		<tag k="fixme" v="consider tourism=alpine_hut or tourism=chalet" />
		<tag k="name" v="Navarsete" />
		<tag k="ssr:stedsnr" v="147110" />
		<tag k="tourism" v="wilderness_hut" />
	</node>
	<node lat="61.349977778498925" lon="7.08010832415521" id="-28898">
		<tag k="name" v="Holøygarden" />
		<tag k="place" v="locality" />
		<tag k="ssr:stedsnr" v="147572" />
	</node>
	<node lat="61.30128333678217" lon="7.247472219979211" id="-28922">
		<tag k="name" v="Solvorn" />
		<tag k="place" v="village" />
		<tag k="ssr:stedsnr" v="189382" />
	</node>
	<node lat="61.47413888756511" lon="7.623897231091729" id="-28924">
		<tag k="alt_name" v="Liingane" />
		<tag k="historic" v="shieling" />
		<tag k="name" v="Lingane" />
		<tag k="place" v="isolated_dwelling" />
		<tag k="ssr:stedsnr" v="189265" />
	</node>
	<node lat="61.38173055615386" lon="7.3581999976380414" id="-28926">
		<tag k="alt_name" v="Skarhaug" />
		<tag k="name" v="Skardhaug" />
		<tag k="place" v="farm" />
		<tag k="ssr:stedsnr" v="189613" />
	</node>
	<node lat="61.402428720870944" lon="7.394942542245767" id="-28927">
		<tag k="alt_name" v="Høyheim, nedre" />
		<tag k="name" v="Nedre Høyheim" />
		<tag k="place" v="farm" />
		<tag k="ssr:stedsnr" v="189669" />
	</node>
	<node lat="61.395847222098055" lon="7.3047416720744005" id="-28928">
		<tag k="name" v="Hotla" />
		<tag k="place" v="farm" />
		<tag k="ssr:stedsnr" v="190020" />
	</node>
	<node lat="61.28249721995943" lon="7.392605546724278" id="-28932">
		<tag k="name" v="Hagen" />
		<tag k="place" v="farm" />
		<tag k="ssr:stedsnr" v="190614" />
	</node>
	<node lat="61.35430555866555" lon="7.533147226196307" id="-28933">
		<tag k="historic" v="shieling" />
		<tag k="name" v="Åsete" />
		<tag k="place" v="isolated_dwelling" />
		<tag k="ssr:stedsnr" v="190624" />
	</node>
	<node lat="61.32987222238228" lon="7.128211108585046" id="-28935">
		<tag k="alt_name" v="Halvrunn" />
		<tag k="historic" v="shieling" />
		<tag k="name" v="Halrunn" />
		<tag k="place" v="isolated_dwelling" />
		<tag k="ssr:stedsnr" v="190506" />
	</node>
	<node lat="61.33009722626085" lon="7.199402777819954" id="-28936">
		<tag k="historic" v="shieling" />
		<tag k="name" v="Nyre" />
		<tag k="place" v="isolated_dwelling" />
		<tag k="ssr:stedsnr" v="190513" />
	</node>
	<node lat="61.497947226129874" lon="7.729158333707174" id="-28938">
		<tag k="name" v="Flaten" />
		<tag k="place" v="isolated_dwelling" />
		<tag k="ssr:stedsnr" v="190582" />
	</node>
	<node lat="61.35338611550685" lon="7.409683324671585" id="-28939">
		<tag k="alt_name" v="Hestedal" />
		<tag k="name" v="Hestadalen" />
		<tag k="place" v="farm" />
		<tag k="ssr:stedsnr" v="190704" />
	</node>
	<node lat="61.333477781906275" lon="7.27109443769798" id="-28944">
		<tag k="historic" v="shieling" />
		<tag k="name" v="Tverbergstølen" />
		<tag k="place" v="isolated_dwelling" />
		<tag k="ssr:stedsnr" v="268710" />
	</node>
	<node lat="61.51411666428563" lon="7.465013890535666" id="-28971">
		<tag k="historic" v="shieling" />
		<tag k="name" v="Skarstøl" />
		<tag k="place" v="isolated_dwelling" />
		<tag k="ssr:stedsnr" v="268543" />
	</node>
	<node lat="61.311208334184975" lon="7.164352782438201" id="-28982">
		<tag k="name" v="Klokkargarden" />
		<tag k="place" v="farm" />
		<tag k="ssr:stedsnr" v="268904" />
	</node>
	<node lat="61.67660833363554" lon="7.348761117543648" id="-28994">
		<tag k="historic" v="shieling" />
		<tag k="name" v="Vetlestølen" />
		<tag k="place" v="isolated_dwelling" />
		<tag k="ssr:stedsnr" v="208135" />
	</node>
	<node lat="61.54974444184392" lon="7.618641659159234" id="-29017">
		<tag k="name" v="Øygarden" />
		<tag k="place" v="isolated_dwelling" />
		<tag k="ssr:stedsnr" v="208604" />
	</node>
	<node lat="61.647858329562204" lon="7.285891658506737" id="-29021">
		<tag k="name" v="Ytstøygarden" />
		<tag k="place" v="locality" />
		<tag k="ssr:stedsnr" v="208833" />
	</node>
	<node lat="61.4330111137597" lon="7.504869447601989" id="-29026">
		<tag k="historic" v="shieling" />
		<tag k="name" v="Storøygarden" />
		<tag k="place" v="isolated_dwelling" />
		<tag k="ssr:stedsnr" v="208984" />
	</node>
	<node lat="61.427030555560194" lon="7.325263886722996" id="-29045">
		<tag k="name" v="Mytagjerdet" />
		<tag k="place" v="locality" />
		<tag k="ssr:stedsnr" v="269553" />
	</node>
	<node lat="61.59156944667432" lon="7.286994443177085" id="-29049">
		<tag k="historic" v="shieling" />
		<tag k="name" v="Gamleheimsstølen" />
		<tag k="place" v="isolated_dwelling" />
		<tag k="ssr:stedsnr" v="269505" />
	</node>
	<node lat="61.29039444175538" lon="7.190686110868242" id="-29054">
		<tag k="historic" v="shieling" />
		<tag k="name" v="Oklevikstølen" />
		<tag k="place" v="isolated_dwelling" />
		<tag k="ssr:stedsnr" v="269764" />
	</node>
	<node lat="61.5248499984283" lon="7.272002773239494" id="-29061">
		<tag k="name" v="Øyen" />
		<tag k="place" v="farm" />
		<tag k="ssr:stedsnr" v="269892" />
	</node>
	<node lat="61.37268888857949" lon="7.2940111090039155" id="-29074">
		<tag k="name" v="Stokkebø" />
		<tag k="place" v="farm" />
		<tag k="ssr:stedsnr" v="271656" />
	</node>
	<node lat="61.63145833570366" lon="7.2301333304104345" id="-29096">
		<tag k="historic" v="shieling" />
		<tag k="name" v="Stølsgjerdet" />
		<tag k="place" v="isolated_dwelling" />
		<tag k="ssr:stedsnr" v="450676" />
	</node>
	<node lat="61.47327500046835" lon="8.001758340941867" id="-29102">
		<tag k="alt_name" v="Jervvassbøen" />
		<tag k="name" v="Gjertvassbøen" />
		<tag k="place" v="locality" />
		<tag k="ssr:stedsnr" v="450564" />
	</node>
	<node lat="61.63197500259506" lon="7.280622213522168" id="-29103">
		<tag k="historic" v="shieling" />
		<tag k="name" v="Espenystøl" />
		<tag k="place" v="isolated_dwelling" />
		<tag k="ssr:stedsnr" v="450633" />
	</node>
	<node lat="61.557297823729186" lon="7.767164572508388" id="-29108">
		<tag k="fixme" v="consider place=hamlet" />
		<tag k="loc_name" v="Ormelii;Ormelid" />
		<tag k="name" v="Ormeli" />
		<tag k="place" v="farm" />
		<tag k="ssr:stedsnr" v="240278" />
	</node>
	<node lat="61.50711666358613" lon="6.988127784799178" id="-29123">
		<tag k="historic" v="shieling" />
		<tag k="name" v="Nesastølen" />
		<tag k="place" v="isolated_dwelling" />
		<tag k="ssr:stedsnr" v="451192" />
	</node>
	<node lat="61.37880278020858" lon="7.2819250026198805" id="-29135">
		<tag k="name" v="Haugen" />
		<tag k="place" v="farm" />
		<tag k="ssr:stedsnr" v="451695" />
	</node>
	<node lat="61.625566663094666" lon="7.207358325384037" id="-29139">
		<tag k="name" v="Halvfargarden" />
		<tag k="place" v="locality" />
		<tag k="ssr:stedsnr" v="451963" />
	</node>
	<node lat="61.55594786536293" lon="7.753358602813199" id="-29167">
		<tag k="fixme" v="consider place=hamlet" />
		<tag k="name" v="Øyane" />
		<tag k="place" v="farm" />
		<tag k="ssr:stedsnr" v="253301" />
	</node>
	<node lat="61.57450000426948" lon="7.776325008096786" id="-29171">
		<tag k="alt_name" v="Nyasetli" />
		<tag k="historic" v="shieling" />
		<tag k="name" v="Nyasetlii" />
		<tag k="place" v="isolated_dwelling" />
		<tag k="ssr:stedsnr" v="253340" />
	</node>
	<node lat="61.52822777710286" lon="7.286413891822222" id="-29174">
		<tag k="name" v="Knippa" />
		<tag k="place" v="farm" />
		<tag k="ssr:stedsnr" v="253605" />
	</node>
	<node lat="61.6644615700349" lon="7.295121580185465" id="-29180">
		<tag k="alt_name" v="Lidi" />
		<tag k="fixme" v="consider place=hamlet" />
		<tag k="name" v="Li" />
		<tag k="place" v="farm" />
		<tag k="ssr:stedsnr" v="253755" />
	</node>
	<node lat="61.31285833720621" lon="7.375433335716522" id="-29183">
		<tag k="historic" v="shieling" />
		<tag k="name" v="Flatastølen" />
		<tag k="place" v="isolated_dwelling" />
		<tag k="ssr:stedsnr" v="268234" />
	</node>
	<node lat="61.626849999494226" lon="7.295655559031915" id="-29196">
		<tag k="historic" v="shieling" />
		<tag k="name" v="Øystølen" />
		<tag k="place" v="isolated_dwelling" />
		<tag k="ssr:stedsnr" v="268829" />
	</node>
	<node lat="61.432916666370616" lon="7.528627786537631" id="-29201">
		<tag k="historic" v="shieling" />
		<tag k="name" v="Navarsete" />
		<tag k="place" v="isolated_dwelling" />
		<tag k="ssr:stedsnr" v="268994" />
	</node>
	<node lat="61.29988888741933" lon="7.319091665282171" id="-29227">
		<tag k="name" v="Heggteig" />
		<tag k="place" v="farm" />
		<tag k="ssr:stedsnr" v="310434" />
	</node>
	<node lat="61.44156557977798" lon="7.100113555917298" id="-29230">
		<tag k="fixme" v="consider place=hamlet" />
		<tag k="name" v="Kvam" />
		<tag k="place" v="farm" />
		<tag k="ssr:stedsnr" v="311132" />
	</node>
	<node lat="61.480088891258376" lon="7.23868332628285" id="-29235">
		<tag k="alt_name" v="Dueskard" />
		<tag k="historic" v="shieling" />
		<tag k="name" v="Dueskaret" />
		<tag k="place" v="isolated_dwelling" />
		<tag k="ssr:stedsnr" v="311086" />
	</node>
	<node lat="61.483877776159424" lon="8.018577771072657" id="-29239">
		<tag k="name" v="Lusahaugane" />
		<tag k="place" v="locality" />
		<tag k="ssr:stedsnr" v="311571" />
	</node>
	<node lat="61.37913333727707" lon="7.5133638922591" id="-29244">
		<tag k="historic" v="shieling" />
		<tag k="name" v="Feigedalen" />
		<tag k="place" v="isolated_dwelling" />
		<tag k="ssr:stedsnr" v="311717" />
	</node>
	<node lat="61.44210555106537" lon="7.442177770680858" id="-29251">
		<tag k="name" v="Lauvhjell" />
		<tag k="place" v="farm" />
		<tag k="ssr:stedsnr" v="311772" />
	</node>
	<node lat="61.44568675913599" lon="7.534010643812086" id="-29253">
		<tag k="fixme" v="consider place=hamlet" />
		<tag k="name" v="Øygarden" />
		<tag k="place" v="farm" />
		<tag k="ssr:stedsnr" v="311776" />
	</node>
	<node lat="61.43850189390326" lon="7.4493465099879845" id="-29254">
		<tag k="alt_name" v="Døsen" />
		<tag k="fixme" v="consider place=hamlet" />
		<tag k="name" v="Døsi" />
		<tag k="place" v="farm" />
		<tag k="ssr:stedsnr" v="311782" />
	</node>
	<node lat="61.22121111562915" lon="7.391330563684768" id="-29255">
		<tag k="alt_name" v="Trondskog" />
		<tag k="name" v="Trondskogen" />
		<tag k="place" v="isolated_dwelling" />
		<tag k="ssr:stedsnr" v="312366" />
	</node>
	<node lat="61.511074996384224" lon="7.723088896853953" id="-29258">
		<tag k="historic" v="shieling" />
		<tag k="name" v="Nausanosi" />
		<tag k="place" v="isolated_dwelling" />
		<tag k="ssr:stedsnr" v="313320" />
	</node>
	<node lat="61.770219443265766" lon="7.488572214578996" id="-29265">
		<tag k="fixme" v="consider tourism=alpine_hut or tourism=chalet" />
		<tag k="name" v="Styggevasshytta" />
		<tag k="ssr:stedsnr" v="313506" />
		<tag k="tourism" v="wilderness_hut" />
	</node>
	<node lat="61.55793611085287" lon="7.302911102741834" id="-29274">
		<tag k="name" v="Stølen" />
		<tag k="place" v="farm" />
		<tag k="ssr:stedsnr" v="313668" />
	</node>
	<node lat="61.54782500008575" lon="7.283583336846935" id="-29275">
		<tag k="name" v="Dalen" />
		<tag k="place" v="farm" />
		<tag k="ssr:stedsnr" v="313671" />
	</node>
	<node lat="61.54661944043517" lon="7.628755561143704" id="-29281">
		<tag k="historic" v="shieling" />
		<tag k="name" v="Dalen" />
		<tag k="place" v="isolated_dwelling" />
		<tag k="ssr:stedsnr" v="314467" />
	</node>
	<node lat="61.35392499580618" lon="7.4840111178104385" id="-29291">
		<tag k="historic" v="shieling" />
		<tag k="name" v="Ormsete" />
		<tag k="place" v="isolated_dwelling" />
		<tag k="ssr:stedsnr" v="329366" />
	</node>
	<node lat="61.49769167015599" lon="7.718419443736839" id="-29295">
		<tag k="name" v="Kvernolane" />
		<tag k="place" v="locality" />
		<tag k="ssr:stedsnr" v="329509" />
	</node>
	<node lat="61.30225897064648" lon="7.245376665407494" id="-29301">
		<tag k="alt_name" v="Walaker;Valaker" />
		<tag k="name" v="Vollåker" />
		<tag k="place" v="hamlet" />
		<tag k="ssr:stedsnr" v="329802" />
	</node>
	<node lat="61.478130553672464" lon="7.029108340970819" id="-29324">
		<tag k="name" v="Molland" />
		<tag k="place" v="farm" />
		<tag k="ssr:stedsnr" v="271958" />
	</node>
	<node lat="61.314207951105665" lon="7.363132086685687" id="-29325">
		<tag k="name" v="Ytre Loi" />
		<tag k="place" v="farm" />
		<tag k="ssr:stedsnr" v="479238" />
	</node>
	<node lat="61.43673888763251" lon="7.288586102620589" id="-29326">
		<tag k="historic" v="shieling" />
		<tag k="name" v="Golt" />
		<tag k="place" v="isolated_dwelling" />
		<tag k="ssr:stedsnr" v="371113" />
	</node>
	<node lat="61.43165598333456" lon="7.338969460521908" id="-29328">
		<tag k="historic" v="shieling" />
		<tag k="name" v="Navarsete" />
		<tag k="place" v="isolated_dwelling" />
		<tag k="ssr:stedsnr" v="371117" />
	</node>
	<node lat="61.48958055882397" lon="7.6603444420107865" id="-29332">
		<tag k="name" v="Dregnisøyane" />
		<tag k="place" v="locality" />
		<tag k="ssr:stedsnr" v="371244" />
	</node>
	<node lat="61.29355555317261" lon="7.324636117242587" id="-29334">
		<tag k="name" v="Hatlevoll" />
		<tag k="place" v="farm" />
		<tag k="ssr:stedsnr" v="371318" />
	</node>
	<node lat="61.311605554497945" lon="7.095719442947419" id="-29335">
		<tag k="historic" v="shieling" />
		<tag k="name" v="Svinakleiv" />
		<tag k="place" v="isolated_dwelling" />
		<tag k="ssr:stedsnr" v="371378" />
	</node>
	<node lat="61.348766666736736" lon="7.397211110120563" id="-29338">
		<tag k="name" v="Ekrene" />
		<tag k="place" v="farm" />
		<tag k="ssr:stedsnr" v="371623" />
	</node>
	<node lat="61.39605000019502" lon="7.3572972138493755" id="-29341">
		<tag k="alt_name" v="Haldesås" />
		<tag k="historic" v="shieling" />
		<tag k="name" v="Hallesåsen" />
		<tag k="place" v="isolated_dwelling" />
		<tag k="ssr:stedsnr" v="371712" />
	</node>
	<node lat="61.37208055520306" lon="7.41316666239851" id="-29343">
		<tag k="name" v="Rusti" />
		<tag k="place" v="farm" />
		<tag k="ssr:stedsnr" v="371660" />
	</node>
	<node lat="61.49057221937151" lon="7.014666663057949" id="-29346">
		<tag k="alt_name" v="Øygarden" />
		<tag k="name" v="Øygard" />
		<tag k="place" v="farm" />
		<tag k="ssr:stedsnr" v="372176" />
	</node>
	<node lat="61.468900003980906" lon="7.197455554571259" id="-29347">
		<tag k="historic" v="shieling" />
		<tag k="name" v="Øystølsreset" />
		<tag k="place" v="isolated_dwelling" />
		<tag k="ssr:stedsnr" v="372065" />
	</node>
	<node lat="61.335889226652206" lon="7.241074306995704" id="-29351">
		<tag k="alt_name" v="Alfsteig" />
		<tag k="fixme" v="consider place=hamlet" />
		<tag k="name" v="Alvsteigen" />
		<tag k="place" v="farm" />
		<tag k="ssr:stedsnr" v="372520" />
	</node>
	<node lat="61.507918523647426" lon="7.613282666640963" id="-29361">
		<tag k="fixme" v="consider place=hamlet" />
		<tag k="name" v="Heltne" />
		<tag k="place" v="farm" />
		<tag k="ssr:stedsnr" v="374392" />
	</node>
	<node lat="61.54015000351696" lon="7.693116674571927" id="-29363">
		<tag k="historic" v="shieling" />
		<tag k="name" v="Bruhaugstølen" />
		<tag k="place" v="isolated_dwelling" />
		<tag k="ssr:stedsnr" v="374413" />
	</node>
	<node lat="61.656122223105406" lon="7.288588886355164" id="-29368">
		<tag k="name" v="Kastet" />
		<tag k="place" v="farm" />
		<tag k="ssr:stedsnr" v="374748" />
	</node>
	<node lat="61.63421817503785" lon="7.235009490747521" id="-29370">
		<tag k="fixme" v="consider place=hamlet" />
		<tag k="name" v="Kruna" />
		<tag k="place" v="farm" />
		<tag k="ssr:stedsnr" v="374637" />
	</node>
	<node lat="61.68215555478051" lon="7.310488894606897" id="-29371">
		<tag k="name" v="Buhaug" />
		<tag k="place" v="locality" />
		<tag k="ssr:stedsnr" v="374691" />
	</node>
	<node lat="61.372391670278134" lon="7.09597221399315" id="-29376">
		<tag k="historic" v="shieling" />
		<tag k="name" v="Vikastølen" />
		<tag k="place" v="isolated_dwelling" />
		<tag k="ssr:stedsnr" v="388905" />
	</node>
	<node lat="61.29739563679812" lon="7.2132501605979815" id="-29414">
		<tag k="alt_name" v="Øvrabøstølen" />
		<tag k="historic" v="shieling" />
		<tag k="name" v="Øvrebøstølen" />
		<tag k="place" v="isolated_dwelling" />
		<tag k="ssr:stedsnr" v="432385" />
	</node>
	<node lat="61.465711109463996" lon="8.054599990997497" id="-29417">
		<tag k="name" v="Hyttebøen" />
		<tag k="place" v="locality" />
		<tag k="ssr:stedsnr" v="432519" />
	</node>
	<node lat="61.33703888637796" lon="7.214349990874783" id="-29421">
		<tag k="historic" v="shieling" />
		<tag k="name" v="Nygardstræ" />
		<tag k="old_name" v="Nygardstra" />
		<tag k="place" v="isolated_dwelling" />
		<tag k="ssr:stedsnr" v="432432" />
	</node>
	<node lat="61.39582744801972" lon="7.316947460151268" id="-29429">
		<tag k="alt_name" v="Røym" />
		<tag k="fixme" v="consider place=hamlet" />
		<tag k="loc_name" v="Råane" />
		<tag k="name" v="Råum" />
		<tag k="place" v="farm" />
		<tag k="ssr:stedsnr" v="433025" />
	</node>
	<node lat="61.477294447122105" lon="7.234391672817671" id="-29433">
		<tag k="name" v="Kleivi" />
		<tag k="place" v="farm" />
		<tag k="ssr:stedsnr" v="433078" />
	</node>
	<node lat="61.419013890699034" lon="7.3761611118659385" id="-29436">
		<tag k="historic" v="shieling" />
		<tag k="name" v="Eggastølen" />
		<tag k="place" v="isolated_dwelling" />
		<tag k="ssr:stedsnr" v="433705" />
	</node>
	<node lat="61.40781166662289" lon="7.42227775345165" id="-29438">
		<tag k="alt_name" v="Talle" />
		<tag k="fixme" v="consider place=hamlet" />
		<tag k="name" v="Talla" />
		<tag k="place" v="farm" />
		<tag k="ssr:stedsnr" v="433710" />
	</node>
	<node lat="61.30241389302692" lon="7.393416657833205" id="-29439">
		<tag k="historic" v="shieling" />
		<tag k="name" v="Nystølen" />
		<tag k="place" v="isolated_dwelling" />
		<tag k="ssr:stedsnr" v="433580" />
	</node>
	<node lat="61.502544441895516" lon="7.655911108485808" id="-29440">
		<tag k="name" v="Liasete" />
		<tag k="place" v="locality" />
		<tag k="ssr:stedsnr" v="434334" />
	</node>
	<node lat="61.47984166658583" lon="7.434036102519227" id="-29443">
		<tag k="historic" v="shieling" />
		<tag k="name" v="Tallagjerdet" />
		<tag k="place" v="isolated_dwelling" />
		<tag k="ssr:stedsnr" v="492210" />
	</node>
	<node lat="61.4818942358626" lon="7.436782688322653" id="-29444">
		<tag k="fixme" v="consider place=hamlet" />
		<tag k="name" v="Sage" />
		<tag k="place" v="farm" />
		<tag k="ssr:stedsnr" v="492211" />
	</node>
	<node lat="61.489072226215995" lon="7.683861112034252" id="-29445">
		<tag k="name" v="Legene" />
		<tag k="place" v="farm" />
		<tag k="ssr:stedsnr" v="492217" />
	</node>
	<node lat="61.500215888170416" lon="7.724616668322077" id="-29446">
		<tag k="fixme" v="consider place=hamlet" />
		<tag k="name" v="Opptun" />
		<tag k="place" v="farm" />
		<tag k="ssr:stedsnr" v="435376" />
	</node>
	<node lat="61.51647409355924" lon="7.611258907081737" id="-29450">
		<tag k="alt_name" v="Skåri" />
		<tag k="fixme" v="consider place=hamlet" />
		<tag k="name" v="Skori" />
		<tag k="place" v="farm" />
		<tag k="ssr:stedsnr" v="435467" />
	</node>
	<node lat="61.52993889093228" lon="7.698774994181514" id="-29453">
		<tag k="historic" v="shieling" />
		<tag k="name" v="Vetlestølen" />
		<tag k="place" v="isolated_dwelling" />
		<tag k="ssr:stedsnr" v="435482" />
	</node>
	<node lat="61.73803889275612" lon="7.438174998995173" id="-29458">
		<tag k="name" v="Viva" />
		<tag k="place" v="locality" />
		<tag k="ssr:stedsnr" v="435624" />
	</node>
	<node lat="61.57322499826115" lon="7.644191660134074" id="-29459">
		<tag k="historic" v="shieling" />
		<tag k="name" v="Dulsete" />
		<tag k="place" v="isolated_dwelling" />
		<tag k="ssr:stedsnr" v="435566" />
	</node>
	<node lat="61.57458610840898" lon="7.3165333421919625" id="-29463">
		<tag k="historic" v="shieling" />
		<tag k="name" v="Skåldalen" />
		<tag k="place" v="isolated_dwelling" />
		<tag k="ssr:stedsnr" v="435707" />
	</node>
	<node lat="61.39189964509996" lon="7.202549343204795" id="-29468">
		<tag k="historic" v="shieling" />
		<tag k="name" v="Saupsete" />
		<tag k="place" v="isolated_dwelling" />
		<tag k="ssr:stedsnr" v="493054" />
	</node>
	<node lat="61.38427222596216" lon="7.234944442244138" id="-29469">
		<tag k="historic" v="shieling" />
		<tag k="name" v="Midtstølen" />
		<tag k="place" v="isolated_dwelling" />
		<tag k="ssr:stedsnr" v="493055" />
	</node>
	<node lat="61.37324933468328" lon="7.32413904437171" id="-29470">
		<tag k="name" v="Stølen" />
		<tag k="place" v="farm" />
		<tag k="ssr:stedsnr" v="493058" />
	</node>
	<node lat="61.366774515860264" lon="7.284645998086109" id="-29471">
		<tag k="alt_name" v="Sviggum" />
		<tag k="fixme" v="consider place=hamlet" />
		<tag k="name" v="Sviggo" />
		<tag k="place" v="farm" />
		<tag k="ssr:stedsnr" v="493059" />
	</node>
	<node lat="61.372004560584614" lon="7.329748772273077" id="-29472">
		<tag k="name" v="Dalen" />
		<tag k="place" v="farm" />
		<tag k="ssr:stedsnr" v="493061" />
	</node>
	<node lat="61.48392713801689" lon="7.691191351441272" id="-29477">
		<tag k="alt_name" v="Fuglastig" />
		<tag k="fixme" v="consider place=hamlet" />
		<tag k="name" v="Fuglesteg" />
		<tag k="place" v="farm" />
		<tag k="ssr:stedsnr" v="493309" />
	</node>
	<node lat="61.362155554508966" lon="7.229455553063381" id="-29480">
		<tag k="name" v="Heltane" />
		<tag k="place" v="isolated_dwelling" />
		<tag k="ssr:stedsnr" v="493453" />
	</node>
	<node lat="61.36271111025578" lon="7.276922218149647" id="-29481">
		<tag k="alt_name" v="Prinsehaug" />
		<tag k="name" v="Prinsehaugen" />
		<tag k="place" v="farm" />
		<tag k="ssr:stedsnr" v="493456" />
	</node>
	<node lat="61.35744999712082" lon="7.304669441708914" id="-29483">
		<tag k="alt_name" v="Svolesete" />
		<tag k="historic" v="shieling" />
		<tag k="name" v="Svolsete" />
		<tag k="place" v="isolated_dwelling" />
		<tag k="ssr:stedsnr" v="493460" />
	</node>
	<node lat="61.34668562131434" lon="7.346416011426646" id="-29487">
		<tag k="fixme" v="consider place=hamlet" />
		<tag k="name" v="Vedvik" />
		<tag k="place" v="farm" />
		<tag k="ssr:stedsnr" v="493634" />
	</node>
	<node lat="61.338774995958794" lon="7.402002784830568" id="-29488">
		<tag k="name" v="Veberg" />
		<tag k="place" v="farm" />
		<tag k="ssr:stedsnr" v="493643" />
	</node>
	<node lat="61.329284906919874" lon="7.3886185657323376" id="-29489">
		<tag k="alt_name" v="Bjørkenes" />
		<tag k="name" v="Bjørkeneset" />
		<tag k="place" v="farm" />
		<tag k="ssr:stedsnr" v="493653" />
	</node>
	<node lat="61.317041670707795" lon="7.367897220893363" id="-29492">
		<tag k="name" v="Almelund" />
		<tag k="place" v="farm" />
		<tag k="ssr:stedsnr" v="493662" />
	</node>
	<node lat="61.443864197067036" lon="7.461985394215605" id="-29494">
		<tag k="fixme" v="consider place=hamlet" />
		<tag k="name" v="Dalsøyri" />
		<tag k="place" v="farm" />
		<tag k="ssr:stedsnr" v="493738" />
	</node>
	<node lat="61.50469167067414" lon="7.275102769085737" id="-29531">
		<tag k="name" v="Bruhaug" />
		<tag k="place" v="farm" />
		<tag k="ssr:stedsnr" v="452015" />
	</node>
	<node lat="61.37756188327886" lon="7.266607858973833" id="-29535">
		<tag k="alt_name" v="Opheim" />
		<tag k="fixme" v="consider place=hamlet" />
		<tag k="name" v="Oppheim" />
		<tag k="place" v="farm" />
		<tag k="ssr:stedsnr" v="675041" />
	</node>
	<node lat="61.422911114135125" lon="7.332158339000456" id="-29536">
		<tag k="alt_name" v="Li" />
		<tag k="historic" v="shieling" />
		<tag k="name" v="Liane" />
		<tag k="place" v="isolated_dwelling" />
		<tag k="ssr:stedsnr" v="675127" />
	</node>
	<node lat="61.42846666376736" lon="7.331280561605851" id="-29537">
		<tag k="historic" v="shieling" />
		<tag k="name" v="Mytane" />
		<tag k="place" v="isolated_dwelling" />
		<tag k="ssr:stedsnr" v="675129" />
	</node>
	<node lat="61.44796666933504" lon="7.266458332691487" id="-29539">
		<tag k="name" v="Hurrene" />
		<tag k="place" v="locality" />
		<tag k="ssr:stedsnr" v="675094" />
	</node>
	<node lat="61.43415832925979" lon="7.278024993352886" id="-29542">
		<tag k="historic" v="shieling" />
		<tag k="name" v="Havåsen" />
		<tag k="place" v="isolated_dwelling" />
		<tag k="ssr:stedsnr" v="675141" />
	</node>
	<node lat="61.48126956550897" lon="7.6630975263823125" id="-29545">
		<tag k="alt_name" v="Furås" />
		<tag k="fixme" v="consider place=hamlet" />
		<tag k="name" v="Furåsen" />
		<tag k="place" v="farm" />
		<tag k="ssr:stedsnr" v="675331" />
	</node>
	<node lat="61.47991944467101" lon="7.550544441366501" id="-29546">
		<tag k="alt_name" v="Fjøsnestølen" />
		<tag k="name" v="Fjøsnastølen" />
		<tag k="place" v="locality" />
		<tag k="ssr:stedsnr" v="675332" />
	</node>
	<node lat="61.48005555921157" lon="8.011208325427399" id="-29552">
		<tag k="name" v="Hysebøen" />
		<tag k="place" v="locality" />
		<tag k="ssr:stedsnr" v="675565" />
	</node>
	<node lat="61.271805559484754" lon="7.372552778054438" id="-29553">
		<tag k="name" v="Bakken" />
		<tag k="place" v="farm" />
		<tag k="ssr:stedsnr" v="675591" />
	</node>
	<node lat="61.38485684456218" lon="7.358913418125227" id="-29556">
		<tag k="name" v="Nes" />
		<tag k="place" v="farm" />
		<tag k="ssr:stedsnr" v="675729" />
	</node>
	<node lat="61.444091666436115" lon="7.348449997118223" id="-29557">
		<tag k="alt_name" v="Heggdalen" />
		<tag k="historic" v="shieling" />
		<tag k="name" v="Heggedalen" />
		<tag k="place" v="isolated_dwelling" />
		<tag k="ssr:stedsnr" v="675737" />
	</node>
	<node lat="61.384615868939434" lon="7.426654118531258" id="-29559">
		<tag k="alt_name" v="Feigum" />
		<tag k="fixme" v="consider place=hamlet" />
		<tag k="name" v="Feigom" />
		<tag k="place" v="farm" />
		<tag k="ssr:stedsnr" v="675685" />
	</node>
	<node lat="61.42420277718585" lon="7.439975008469426" id="-29560">
		<tag k="alt_name" v="Løvoll" />
		<tag k="name" v="Løvollen" />
		<tag k="place" v="farm" />
		<tag k="ssr:stedsnr" v="675765" />
	</node>
	<node lat="61.54231306070137" lon="7.73656912680775" id="-29564">
		<tag k="alt_name" v="Svensøy" />
		<tag k="fixme" v="consider place=hamlet" />
		<tag k="name" v="Sveinsøy" />
		<tag k="place" v="farm" />
		<tag k="ssr:stedsnr" v="677252" />
	</node>
	<node lat="61.50440833731057" lon="7.80166665982867" id="-29569">
		<tag k="name" v="Turtagrø hotell" />
		<tag k="ssr:stedsnr" v="677305" />
		<tag k="tourism" v="hotel" />
	</node>
	<node lat="61.50530555527886" lon="7.826166669620968" id="-29570">
		<tag k="historic" v="shieling" />
		<tag k="name" v="Helgedalen" />
		<tag k="place" v="isolated_dwelling" />
		<tag k="ssr:stedsnr" v="677318" />
	</node>
	<node lat="61.52041666416439" lon="7.270655556868197" id="-29583">
		<tag k="name" v="Øy" />
		<tag k="place" v="farm" />
		<tag k="ssr:stedsnr" v="677557" />
	</node>
	<node lat="61.519711114591125" lon="7.268888897827698" id="-29585">
		<tag k="name" v="Nygard" />
		<tag k="place" v="farm" />
		<tag k="ssr:stedsnr" v="677561" />
	</node>
	<node lat="61.52511388847058" lon="7.281524993024156" id="-29586">
		<tag k="alt_name" v="Ormbergstøl" />
		<tag k="name" v="Ormbergstølen" />
		<tag k="place" v="farm" />
		<tag k="ssr:stedsnr" v="677563" />
	</node>
	<node lat="61.63632813304717" lon="7.2161196487036365" id="-29592">
		<tag k="fixme" v="consider place=hamlet" />
		<tag k="name" v="Snøtun" />
		<tag k="place" v="farm" />
		<tag k="ssr:stedsnr" v="677723" />
	</node>
	<node lat="61.30167777498462" lon="7.228049998188009" id="-29602">
		<tag k="name" v="Kjelda" />
		<tag k="place" v="farm" />
		<tag k="ssr:stedsnr" v="492389" />
	</node>
	<node lat="61.38991666367904" lon="7.1246027842551864" id="-29606">
		<tag k="historic" v="shieling" />
		<tag k="name" v="Hongi" />
		<tag k="place" v="isolated_dwelling" />
		<tag k="ssr:stedsnr" v="493022" />
	</node>
	<node lat="61.45337777657598" lon="6.993369440745671" id="-29609">
		<tag k="alt_name" v="Eldedalstølen" />
		<tag k="historic" v="shieling" />
		<tag k="name" v="Eldedalen" />
		<tag k="place" v="isolated_dwelling" />
		<tag k="ssr:stedsnr" v="493078" />
	</node>
	<node lat="61.46240277576901" lon="7.462388885317911" id="-29615">
		<tag k="name" v="Urdheim" />
		<tag k="place" v="farm" />
		<tag k="ssr:stedsnr" v="493302" />
	</node>
	<node lat="61.31365509325963" lon="7.1790122195127255" id="-29616">
		<tag k="fixme" v="consider place=hamlet" />
		<tag k="name" v="Alme" />
		<tag k="place" v="farm" />
		<tag k="ssr:stedsnr" v="493373" />
	</node>
	<node lat="61.34079503143377" lon="7.263942516179643" id="-29618">
		<tag k="fixme" v="consider place=hamlet" />
		<tag k="name" v="Flåten" />
		<tag k="place" v="farm" />
		<tag k="ssr:stedsnr" v="493480" />
	</node>
	<node lat="61.2853972240722" lon="7.398633336958258" id="-29620">
		<tag k="name" v="Dalen" />
		<tag k="place" v="farm" />
		<tag k="ssr:stedsnr" v="493618" />
	</node>
	<node lat="61.40585000210054" lon="7.403594450602172" id="-29621">
		<tag k="name" v="Øygarden" />
		<tag k="place" v="farm" />
		<tag k="ssr:stedsnr" v="493713" />
	</node>
	<node lat="61.42592021266249" lon="7.43700549811317" id="-29622">
		<tag k="fixme" v="consider place=hamlet" />
		<tag k="name" v="Hæri" />
		<tag k="place" v="farm" />
		<tag k="ssr:stedsnr" v="493766" />
	</node>
	<node lat="61.51556944716635" lon="7.824674991877601" id="-29627">
		<tag k="name" v="Huldehaughytta" />
		<tag k="place" v="isolated_dwelling" />
		<tag k="ssr:stedsnr" v="495313" />
	</node>
	<node lat="61.527416671164566" lon="7.276569452179117" id="-29638">
		<tag k="alt_name" v="Myklemyr, nedre" />
		<tag k="name" v="Nedre Myklemyr" />
		<tag k="place" v="farm" />
		<tag k="ssr:stedsnr" v="495563" />
	</node>
	<node lat="61.52181110795475" lon="7.2687527870719295" id="-29639">
		<tag k="name" v="Tunvoll" />
		<tag k="place" v="farm" />
		<tag k="ssr:stedsnr" v="495571" />
	</node>
	<node lat="61.506544447755275" lon="7.274649992248028" id="-29640">
		<tag k="name" v="Husøy" />
		<tag k="place" v="farm" />
		<tag k="ssr:stedsnr" v="495617" />
	</node>
	<node lat="61.55549999650394" lon="7.297147219408109" id="-29641">
		<tag k="alt_name" v="Sperleøyane" />
		<tag k="name" v="Sperløy" />
		<tag k="place" v="farm" />
		<tag k="ssr:stedsnr" v="495666" />
	</node>
	<node lat="61.55930555554451" lon="7.268658330043251" id="-29642">
		<tag k="historic" v="shieling" />
		<tag k="name" v="Sperlestølen" />
		<tag k="place" v="isolated_dwelling" />
		<tag k="ssr:stedsnr" v="495668" />
	</node>
	<node lat="61.392486114226244" lon="7.372897214861364" id="-29699">
		<tag k="name" v="Nesløyfti" />
		<tag k="place" v="isolated_dwelling" />
		<tag k="ssr:stedsnr" v="540612" />
	</node>
	<node lat="61.64046344137798" lon="7.556033714858743" id="-29700">
		<tag k="historic" v="shieling" />
		<tag k="name" v="Rausdalsete" />
		<tag k="place" v="isolated_dwelling" />
		<tag k="ssr:stedsnr" v="540782" />
	</node>
	<node lat="61.41808889344527" lon="7.332488892073092" id="-29702">
		<tag k="alt_name" v="Håvardsete" />
		<tag k="historic" v="shieling" />
		<tag k="name" v="Håasete" />
		<tag k="place" v="isolated_dwelling" />
		<tag k="ssr:stedsnr" v="553008" />
	</node>
	<node lat="61.418563884729856" lon="7.3234888948865065" id="-29703">
		<tag k="historic" v="shieling" />
		<tag k="name" v="Steinkjelen" />
		<tag k="place" v="isolated_dwelling" />
		<tag k="ssr:stedsnr" v="553010" />
	</node>
	<node lat="61.462386111793975" lon="7.430955551285414" id="-29706">
		<tag k="alt_name" v="Åsastøl" />
		<tag k="historic" v="shieling" />
		<tag k="name" v="Åsastølen" />
		<tag k="place" v="isolated_dwelling" />
		<tag k="ssr:stedsnr" v="553280" />
	</node>
	<node lat="61.29491389180083" lon="7.3242277700686085" id="-29709">
		<tag k="name" v="Vollen" />
		<tag k="place" v="farm" />
		<tag k="ssr:stedsnr" v="553408" />
	</node>
	<node lat="61.4005305539466" lon="7.396319444353615" id="-29714">
		<tag k="fixme" v="consider place=hamlet" />
		<tag k="name" v="Høyheimsvik" />
		<tag k="place" v="village" />
		<tag k="ssr:stedsnr" v="553730" />
	</node>
	<node lat="61.448307698143296" lon="7.459695997060772" id="-29715">
		<tag k="fixme" v="consider place=hamlet" />
		<tag k="name" v="Flikki" />
		<tag k="place" v="farm" />
		<tag k="ssr:stedsnr" v="553738" />
	</node>
	<node lat="61.37852793218023" lon="7.416141302281893" id="-29719">
		<tag k="alt_name" v="Hagenes" />
		<tag k="fixme" v="consider place=hamlet" />
		<tag k="name" v="Haganes" />
		<tag k="place" v="farm" />
		<tag k="ssr:stedsnr" v="553681" />
	</node>
	<node lat="61.389714629099274" lon="7.070443775750275" id="-29722">
		<tag k="name" v="Kjerringnes" />
		<tag k="place" v="locality" />
		<tag k="ssr:stedsnr" v="554012" />
	</node>
	<node lat="61.464358332015685" lon="7.196291663395753" id="-29724">
		<tag k="historic" v="shieling" />
		<tag k="name" v="Fjellstølen" />
		<tag k="place" v="isolated_dwelling" />
		<tag k="ssr:stedsnr" v="554081" />
	</node>
	<node lat="61.31875716445786" lon="7.272697890676037" id="-29725">
		<tag k="alt_name" v="Side" />
		<tag k="fixme" v="consider place=hamlet" />
		<tag k="name" v="Sie" />
		<tag k="place" v="farm" />
		<tag k="ssr:stedsnr" v="554397" />
	</node>
	<node lat="61.33640000053499" lon="7.275322212873894" id="-29726">
		<tag k="name" v="Lisete" />
		<tag k="place" v="locality" />
		<tag k="ssr:stedsnr" v="554504" />
	</node>
	<node lat="61.49715833245256" lon="7.654963896632606" id="-29728">
		<tag k="historic" v="shieling" />
		<tag k="name" v="Ruskesete" />
		<tag k="place" v="isolated_dwelling" />
		<tag k="ssr:stedsnr" v="554279" />
	</node>
	<node lat="61.48593055509345" lon="7.424005553481663" id="-29730">
		<tag k="alt_name" v="Sausskreda" />
		<tag k="historic" v="shieling" />
		<tag k="name" v="Saudesskreda" />
		<tag k="place" v="isolated_dwelling" />
		<tag k="ssr:stedsnr" v="554284" />
	</node>
	<node lat="61.3160444417404" lon="7.28673333332256" id="-29731">
		<tag k="name" v="Lægene" />
		<tag k="place" v="locality" />
		<tag k="ssr:stedsnr" v="554402" />
	</node>
	<node lat="61.494916663147066" lon="7.781574996121698" id="-29733">
		<tag k="alt_name" v="Ringstølen" />
		<tag k="historic" v="shieling" />
		<tag k="name" v="Ringane" />
		<tag k="place" v="isolated_dwelling" />
		<tag k="ssr:stedsnr" v="554621" />
	</node>
	<node lat="61.42472445133625" lon="7.493117216455494" id="-29736">
		<tag k="fixme" v="consider place=hamlet" />
		<tag k="name" v="Leri" />
		<tag k="place" v="farm" />
		<tag k="ssr:stedsnr" v="554775" />
	</node>
	<node lat="61.6427499973368" lon="7.790158342459372" id="-29742">
		<tag k="fixme" v="consider tourism=alpine_hut or tourism=chalet" />
		<tag k="name" v="Nørdstedalseter" />
		<tag k="ssr:stedsnr" v="555431" />
		<tag k="tourism" v="wilderness_hut" />
	</node>
	<node lat="61.54501399271609" lon="7.284611789274807" id="-29755">
		<tag k="fixme" v="consider place=hamlet" />
		<tag k="name" v="Fossen" />
		<tag k="place" v="farm" />
		<tag k="ssr:stedsnr" v="556623" />
	</node>
	<node lat="61.53979722337092" lon="7.599169453660519" id="-29763">
		<tag k="historic" v="shieling" />
		<tag k="name" v="Berget" />
		<tag k="place" v="isolated_dwelling" />
		<tag k="ssr:stedsnr" v="693244" />
	</node>
	<node lat="61.5099777814392" lon="7.811738882803505" id="-29768">
		<tag k="name" v="Oskarhaughytta" />
		<tag k="place" v="isolated_dwelling" />
		<tag k="ssr:stedsnr" v="693527" />
	</node>
	<node lat="61.58625219710064" lon="7.282639505339606" id="-29771">
		<tag k="fixme" v="consider place=hamlet" />
		<tag k="name" v="Jostedal prestegard" />
		<tag k="place" v="farm" />
		<tag k="ssr:stedsnr" v="693533" />
	</node>
	<node lat="61.56186944112597" lon="7.2890888928139805" id="-29780">
		<tag k="historic" v="shieling" />
		<tag k="name" v="Sperlevårstølen" />
		<tag k="place" v="isolated_dwelling" />
		<tag k="ssr:stedsnr" v="693777" />
	</node>
	<node lat="61.53839444246028" lon="7.72437500131542" id="-29788">
		<tag k="name" v="Bondøy" />
		<tag k="place" v="farm" />
		<tag k="ssr:stedsnr" v="571531" />
	</node>
	<node lat="61.31919722558604" lon="7.2662083258459" id="-29803">
		<tag k="historic" v="shieling" />
		<tag k="name" v="Siestølen" />
		<tag k="place" v="isolated_dwelling" />
		<tag k="ssr:stedsnr" v="571683" />
	</node>
	<node lat="61.45891388665425" lon="7.570069436351016" id="-29807">
		<tag k="historic" v="shieling" />
		<tag k="name" v="Teigastølen" />
		<tag k="place" v="isolated_dwelling" />
		<tag k="ssr:stedsnr" v="571600" />
	</node>
	<node lat="61.439549499695936" lon="7.450439647892595" id="-29817">
		<tag k="fixme" v="consider place=hamlet" />
		<tag k="name" v="Nygard" />
		<tag k="place" v="farm" />
		<tag k="ssr:stedsnr" v="572448" />
	</node>
	<node lat="61.39293333240427" lon="7.439544444829778" id="-29822">
		<tag k="historic" v="shieling" />
		<tag k="name" v="Buskori" />
		<tag k="place" v="isolated_dwelling" />
		<tag k="ssr:stedsnr" v="572648" />
	</node>
	<node lat="61.37966978832291" lon="7.292124568721896" id="-29833">
		<tag k="alt_name" v="Joranger nedre" />
		<tag k="fixme" v="consider place=hamlet" />
		<tag k="name" v="Nedre Joranger" />
		<tag k="place" v="farm" />
		<tag k="ssr:stedsnr" v="572697" />
	</node>
	<node lat="61.377157065657734" lon="7.276271145759307" id="-29851">
		<tag k="fixme" v="consider place=hamlet" />
		<tag k="name" v="Øvre Joranger" />
		<tag k="place" v="farm" />
		<tag k="ssr:stedsnr" v="574653" />
	</node>
	<node lat="61.49518333214054" lon="7.796180564609057" id="-29871">
		<tag k="alt_name" v="Skarstølen" />
		<tag k="historic" v="shieling" />
		<tag k="name" v="Skagastølen" />
		<tag k="place" v="isolated_dwelling" />
		<tag k="ssr:stedsnr" v="585714" />
	</node>
	<node lat="61.410894444220055" lon="7.25138888934051" id="-29876">
		<tag k="name" v="Rakefes" />
		<tag k="place" v="locality" />
		<tag k="ssr:stedsnr" v="614006" />
	</node>
	<node lat="61.37019095944133" lon="7.277675207681745" id="-29878">
		<tag k="fixme" v="consider place=hamlet" />
		<tag k="name" v="Kjørlaug" />
		<tag k="place" v="farm" />
		<tag k="ssr:stedsnr" v="614065" />
	</node>
	<node lat="61.46591395223431" lon="7.249610929908446" id="-29879">
		<tag k="fixme" v="consider place=hamlet" />
		<tag k="name" v="Leirmo" />
		<tag k="place" v="farm" />
		<tag k="ssr:stedsnr" v="614074" />
	</node>
	<node lat="61.33684166995366" lon="7.301877775122038" id="-29887">
		<tag k="historic" v="shieling" />
		<tag k="name" v="Svarthiller" />
		<tag k="place" v="isolated_dwelling" />
		<tag k="ssr:stedsnr" v="614474" />
	</node>
	<node lat="61.411449995883785" lon="7.402541670316519" id="-29897">
		<tag k="name" v="Langen" />
		<tag k="place" v="farm" />
		<tag k="ssr:stedsnr" v="614720" />
	</node>
	<node lat="61.39822221965393" lon="7.455205560289315" id="-29898">
		<tag k="alt_name" v="Talsete" />
		<tag k="name" v="Tallsete" />
		<tag k="place" v="farm" />
		<tag k="ssr:stedsnr" v="614751" />
	</node>
	<node lat="61.57152499692965" lon="7.571633336826662" id="-29908">
		<tag k="historic" v="shieling" />
		<tag k="name" v="Åsete" />
		<tag k="place" v="isolated_dwelling" />
		<tag k="ssr:stedsnr" v="616523" />
	</node>
	<node lat="61.61695833772448" lon="7.5944749922149315" id="-29913">
		<tag k="historic" v="shieling" />
		<tag k="name" v="Fjellsli" />
		<tag k="place" v="isolated_dwelling" />
		<tag k="ssr:stedsnr" v="616539" />
	</node>
	<node lat="61.618500000313226" lon="7.6204277798129905" id="-29914">
		<tag k="historic" v="shieling" />
		<tag k="name" v="Nobbi" />
		<tag k="place" v="isolated_dwelling" />
		<tag k="ssr:stedsnr" v="616540" />
	</node>
	<node lat="61.61051389253677" lon="7.613808331496" id="-29915">
		<tag k="name" v="Fossen" />
		<tag k="place" v="locality" />
		<tag k="ssr:stedsnr" v="616549" />
	</node>
	<node lat="61.671413892955165" lon="7.325022225579111" id="-29924">
		<tag k="alt_name" v="Torstad, nedre" />
		<tag k="name" v="Nedre Torstad" />
		<tag k="place" v="farm" />
		<tag k="ssr:stedsnr" v="616743" />
	</node>
	<node lat="61.61628286183494" lon="7.297249294117601" id="-29928">
		<tag k="alt_name" v="Kreken" />
		<tag k="fixme" v="consider place=hamlet" />
		<tag k="name" v="Kriken" />
		<tag k="place" v="farm" />
		<tag k="ssr:stedsnr" v="617633" />
	</node>
	<node lat="61.29025555835082" lon="7.334358326452533" id="-29933">
		<tag k="name" v="Lauvhesjebøen" />
		<tag k="place" v="locality" />
		<tag k="ssr:stedsnr" v="632405" />
	</node>
	<node lat="61.370219772990296" lon="7.333071141878256" id="-29940">
		<tag k="fixme" v="consider place=hamlet" />
		<tag k="name" v="Dvergsdalane" />
		<tag k="place" v="farm" />
		<tag k="ssr:stedsnr" v="632456" />
	</node>
	<node lat="61.503850003138545" lon="7.5943805590903875" id="-29956">
		<tag k="historic" v="shieling" />
		<tag k="name" v="Hagen" />
		<tag k="place" v="isolated_dwelling" />
		<tag k="ssr:stedsnr" v="632997" />
	</node>
	<node lat="61.40179166612106" lon="7.0961999986287765" id="-29965">
		<tag k="name" v="Hesjateigen" />
		<tag k="place" v="locality" />
		<tag k="ssr:stedsnr" v="633614" />
	</node>
	<node lat="61.406350000837804" lon="7.2988138970337" id="-29988">
		<tag k="name" v="Tandlerud" />
		<tag k="place" v="farm" />
		<tag k="ssr:stedsnr" v="675003" />
	</node>
	<node lat="61.4136388918248" lon="7.318166666897435" id="-29990">
		<tag k="historic" v="shieling" />
		<tag k="name" v="Einehaugen" />
		<tag k="place" v="isolated_dwelling" />
		<tag k="ssr:stedsnr" v="675011" />
	</node>
	<node lat="61.39719933048233" lon="7.303316060919683" id="-29992">
		<tag k="fixme" v="consider place=hamlet" />
		<tag k="name" v="Sandvik" />
		<tag k="place" v="farm" />
		<tag k="ssr:stedsnr" v="675023" />
	</node>
	<node lat="61.401391664067404" lon="7.282938898123875" id="-29993">
		<tag k="name" v="Lundane" />
		<tag k="place" v="farm" />
		<tag k="ssr:stedsnr" v="675024" />
	</node>
	<node lat="61.371732147232635" lon="7.329068733293669" id="-29994">
		<tag k="name" v="Teigen" />
		<tag k="place" v="farm" />
		<tag k="ssr:stedsnr" v="675056" />
	</node>
	<node lat="61.49763945264309" lon="7.611907025431939" id="-29998">
		<tag k="name" v="Bolstad" />
		<tag k="place" v="farm" />
		<tag k="ssr:stedsnr" v="675302" />
	</node>
	<node lat="61.312016669086326" lon="7.163458328856142" id="-29999">
		<tag k="name" v="Kongsekra" />
		<tag k="place" v="farm" />
		<tag k="ssr:stedsnr" v="675406" />
	</node>
	<node lat="61.32487104753188" lon="7.218272921475682" id="-30000">
		<tag k="fixme" v="consider place=hamlet" />
		<tag k="name" v="Sterri" />
		<tag k="place" v="farm" />
		<tag k="ssr:stedsnr" v="675421" />
	</node>
	<node lat="61.32115690276484" lon="7.222694426148142" id="-30001">
		<tag k="alt_name" v="Hillestad" />
		<tag k="fixme" v="consider place=hamlet" />
		<tag k="name" v="Hildestad" />
		<tag k="place" v="farm" />
		<tag k="ssr:stedsnr" v="675422" />
	</node>
	<node lat="61.31351666910358" lon="7.080958330329937" id="-30002">
		<tag k="historic" v="shieling" />
		<tag k="name" v="Lyst" />
		<tag k="place" v="isolated_dwelling" />
		<tag k="ssr:stedsnr" v="675423" />
	</node>
	<node lat="61.2903499979188" lon="7.325480548745548" id="-30005">
		<tag k="name" v="Træ" />
		<tag k="place" v="isolated_dwelling" />
		<tag k="ssr:stedsnr" v="675357" />
	</node>
	<node lat="61.33053308986189" lon="7.292188759805429" id="-30007">
		<tag k="alt_name" v="Store - Baten" />
		<tag k="fixme" v="consider place=hamlet" />
		<tag k="name" v="Baten" />
		<tag k="place" v="farm" />
		<tag k="ssr:stedsnr" v="675497" />
	</node>
	<node lat="61.34697778086609" lon="7.418616667852297" id="-30008">
		<tag k="historic" v="shieling" />
		<tag k="name" v="Vassløysa" />
		<tag k="place" v="isolated_dwelling" />
		<tag k="ssr:stedsnr" v="675648" />
	</node>
	<node lat="61.414850002302046" lon="7.353986109571475" id="-30014">
		<tag k="historic" v="shieling" />
		<tag k="name" v="Flatningane" />
		<tag k="place" v="isolated_dwelling" />
		<tag k="ssr:stedsnr" v="675710" />
	</node>
	<node lat="61.60424166350191" lon="7.27950000563036" id="-30028">
		<tag k="name" v="Instegard" />
		<tag k="place" v="farm" />
		<tag k="ssr:stedsnr" v="677633" />
	</node>
	<node lat="61.60385961848054" lon="7.297108139671926" id="-30029">
		<tag k="fixme" v="consider place=hamlet" />
		<tag k="name" v="Vamberg" />
		<tag k="place" v="farm" />
		<tag k="ssr:stedsnr" v="677635" />
	</node>
	<node lat="61.598124999059564" lon="7.245852769546286" id="-30030">
		<tag k="historic" v="shieling" />
		<tag k="name" v="Bakkedalen" />
		<tag k="place" v="isolated_dwelling" />
		<tag k="ssr:stedsnr" v="677636" />
	</node>
	<node lat="61.666122220449374" lon="7.300766673635167" id="-30033">
		<tag k="name" v="Leteigen" />
		<tag k="place" v="farm" />
		<tag k="ssr:stedsnr" v="677735" />
	</node>
	<node lat="61.468269447215114" lon="7.19889999704187" id="-30042">
		<tag k="historic" v="shieling" />
		<tag k="name" v="Vårstølen" />
		<tag k="place" v="isolated_dwelling" />
		<tag k="ssr:stedsnr" v="692481" />
	</node>
	<node lat="61.48704877943307" lon="7.656299552316883" id="-30095">
		<tag k="name" v="Grøt" />
		<tag k="place" v="farm" />
		<tag k="ssr:stedsnr" v="735312" />
	</node>
	<node lat="61.289713892526606" lon="7.160466675575395" id="-30096">
		<tag k="name" v="Vinjahola" />
		<tag k="place" v="isolated_dwelling" />
		<tag k="ssr:stedsnr" v="735343" />
	</node>
	<node lat="61.41919166755445" lon="7.310427780171126" id="-30099">
		<tag k="alt_name" v="Krekane" />
		<tag k="historic" v="shieling" />
		<tag k="name" v="Krikane" />
		<tag k="place" v="isolated_dwelling" />
		<tag k="ssr:stedsnr" v="736015" />
	</node>
	<node lat="61.31818055216332" lon="7.202608342513601" id="-30105">
		<tag k="name" v="Bakken" />
		<tag k="place" v="farm" />
		<tag k="ssr:stedsnr" v="736366" />
	</node>
	<node lat="61.315526770923846" lon="7.162536887672111" id="-30106">
		<tag k="fixme" v="consider place=hamlet" />
		<tag k="name" v="Skjervo" />
		<tag k="place" v="farm" />
		<tag k="ssr:stedsnr" v="736373" />
	</node>
	<node lat="61.31823595386125" lon="7.258872315616064" id="-30107">
		<tag k="fixme" v="consider place=hamlet" />
		<tag k="name" v="Resaland" />
		<tag k="place" v="farm" />
		<tag k="ssr:stedsnr" v="736376" />
	</node>
	<node lat="61.314045179268334" lon="7.266916998861333" id="-30108">
		<tag k="alt_name" v="Øygard" />
		<tag k="fixme" v="consider place=hamlet" />
		<tag k="name" v="Øygardane" />
		<tag k="place" v="farm" />
		<tag k="ssr:stedsnr" v="736379" />
	</node>
	<node lat="61.31305699426278" lon="7.204673794339714" id="-30109">
		<tag k="fixme" v="consider place=hamlet" />
		<tag k="name" v="Tang" />
		<tag k="place" v="farm" />
		<tag k="ssr:stedsnr" v="736384" />
	</node>
	<node lat="61.32213443300442" lon="7.276660000984486" id="-30110">
		<tag k="alt_name" v="Modlandsmarki" />
		<tag k="fixme" v="consider place=hamlet" />
		<tag k="name" v="Mollandsmarki" />
		<tag k="place" v="village" />
		<tag k="ssr:stedsnr" v="736389" />
	</node>
	<node lat="61.33062223725906" lon="7.326732512843373" id="-30111">
		<tag k="alt_name" v="Eikjo, ytre;Ytre Eikjum" />
		<tag k="fixme" v="consider place=hamlet" />
		<tag k="name" v="Ytre Eikjo" />
		<tag k="place" v="farm" />
		<tag k="ssr:stedsnr" v="736391" />
	</node>
	<node lat="61.33431388488299" lon="7.306575005263224" id="-30112">
		<tag k="historic" v="shieling" />
		<tag k="name" v="Skåro" />
		<tag k="place" v="isolated_dwelling" />
		<tag k="ssr:stedsnr" v="736467" />
	</node>
	<node lat="61.33699444073714" lon="7.251624993449441" id="-30113">
		<tag k="name" v="Øyna" />
		<tag k="place" v="farm" />
		<tag k="ssr:stedsnr" v="736469" />
	</node>
	<node lat="61.34148888450042" lon="7.4486916600144015" id="-30114">
		<tag k="historic" v="shieling" />
		<tag k="name" v="Sippelhaug" />
		<tag k="place" v="isolated_dwelling" />
		<tag k="ssr:stedsnr" v="736620" />
	</node>
	<node lat="61.41520603575858" lon="7.4266072130256635" id="-30117">
		<tag k="alt_name" v="Saue" />
		<tag k="fixme" v="consider place=hamlet" />
		<tag k="name" v="Saude" />
		<tag k="place" v="farm" />
		<tag k="ssr:stedsnr" v="736719" />
	</node>
	<node lat="61.414769446693015" lon="7.5083138930095314" id="-30118">
		<tag k="historic" v="shieling" />
		<tag k="name" v="Hankabrekka" />
		<tag k="place" v="isolated_dwelling" />
		<tag k="ssr:stedsnr" v="736724" />
	</node>
	<node lat="61.56821678595859" lon="7.812893430738562" id="-30128">
		<tag k="historic" v="shieling" />
		<tag k="name" v="Stølsdalen" />
		<tag k="place" v="isolated_dwelling" />
		<tag k="ssr:stedsnr" v="738322" />
	</node>
	<node lat="61.53932777854231" lon="7.853927777199761" id="-30131">
		<tag k="name" v="Galgeberghytta" />
		<tag k="place" v="isolated_dwelling" />
		<tag k="ssr:stedsnr" v="738364" />
	</node>
	<node lat="61.50547499899202" lon="6.976283335433493" id="-30139">
		<tag k="historic" v="shieling" />
		<tag k="name" v="Vårstølen" />
		<tag k="place" v="isolated_dwelling" />
		<tag k="ssr:stedsnr" v="738555" />
	</node>
	<node lat="61.52119999549051" lon="7.268147214165158" id="-30140">
		<tag k="name" v="Teigen" />
		<tag k="place" v="farm" />
		<tag k="ssr:stedsnr" v="738563" />
	</node>
	<node lat="61.532630654770315" lon="7.292839534343539" id="-30141">
		<tag k="fixme" v="consider place=hamlet" />
		<tag k="name" v="Ormberg" />
		<tag k="place" v="farm" />
		<tag k="ssr:stedsnr" v="738570" />
	</node>
	<node lat="61.28512028326423" lon="7.398309338084671" id="-30163">
		<tag k="fixme" v="consider place=hamlet" />
		<tag k="name" v="Kinsedal" />
		<tag k="place" v="farm" />
		<tag k="ssr:stedsnr" v="754357" />
	</node>
	<node lat="61.41046111418267" lon="7.283819435178535" id="-30209">
		<tag k="name" v="Ekrene" />
		<tag k="place" v="farm" />
		<tag k="ssr:stedsnr" v="796008" />
	</node>
	<node lat="61.426333337758926" lon="7.306274992636549" id="-30213">
		<tag k="historic" v="shieling" />
		<tag k="name" v="Jargolane" />
		<tag k="place" v="isolated_dwelling" />
		<tag k="ssr:stedsnr" v="796112" />
	</node>
	<node lat="61.29960128594612" lon="7.243869213214204" id="-30215">
		<tag k="fixme" v="consider place=hamlet" />
		<tag k="name" v="Sjøtun" />
		<tag k="place" v="farm" />
		<tag k="ssr:stedsnr" v="796410" />
	</node>
	<node lat="61.29546388878788" lon="7.317069449042378" id="-30216">
		<tag k="name" v="Bøen" />
		<tag k="place" v="farm" />
		<tag k="ssr:stedsnr" v="796416" />
	</node>
	<node lat="61.29974694259588" lon="7.313907597398978" id="-30217">
		<tag k="alt_name" v="Urnes" />
		<tag k="fixme" v="consider place=hamlet" />
		<tag k="name" v="Ornes" />
		<tag k="place" v="farm" />
		<tag k="ssr:stedsnr" v="796418" />
	</node>
	<node lat="61.28846666335613" lon="7.4083305576721346" id="-30219">
		<tag k="name" v="Vetlestølen" />
		<tag k="place" v="locality" />
		<tag k="ssr:stedsnr" v="796626" />
	</node>
	<node lat="61.36865083013928" lon="7.4064661173992565" id="-30222">
		<tag k="alt_name" v="Stokkenes" />
		<tag k="fixme" v="consider place=hamlet" />
		<tag k="name" v="Stokkanes" />
		<tag k="place" v="farm" />
		<tag k="ssr:stedsnr" v="796673" />
	</node>
	<node lat="61.431095667624646" lon="7.447347635318463" id="-30224">
		<tag k="alt_name" v="Fuhr" />
		<tag k="fixme" v="consider place=hamlet" />
		<tag k="name" v="For" />
		<tag k="place" v="farm" />
		<tag k="ssr:stedsnr" v="796761" />
	</node>
	<node lat="61.49231944718707" lon="7.007586110554051" id="-30225">
		<tag k="alt_name" v="Brendøyna" />
		<tag k="name" v="Brendøy" />
		<tag k="place" v="farm" />
		<tag k="ssr:stedsnr" v="797169" />
	</node>
	<node lat="61.41035735791654" lon="7.297009531127617" id="-30227">
		<tag k="alt_name" v="Øvrebø" />
		<tag k="fixme" v="consider place=hamlet" />
		<tag k="name" v="Øvrabø" />
		<tag k="place" v="farm" />
		<tag k="ssr:stedsnr" v="797012" />
	</node>
	<node lat="61.331994443865334" lon="7.1440833286221785" id="-30232">
		<tag k="alt_name" v="Håvardseter" />
		<tag k="historic" v="shieling" />
		<tag k="name" v="Håvardsete" />
		<tag k="place" v="isolated_dwelling" />
		<tag k="ssr:stedsnr" v="797497" />
	</node>
	<node lat="61.4954652309359" lon="7.691225245905496" id="-30235">
		<tag k="fixme" v="consider place=hamlet" />
		<tag k="name" v="Fortun" />
		<tag k="place" v="farm" />
		<tag k="ssr:stedsnr" v="798344" />
	</node>
	<node lat="61.640622223924915" lon="7.555750001077747" id="-30249">
		<tag k="fixme" v="consider tourism=alpine_hut or tourism=chalet" />
		<tag k="name" v="Arentzbu" />
		<tag k="ssr:stedsnr" v="799507" />
		<tag k="tourism" v="wilderness_hut" />
	</node>
	<node lat="61.5227055595768" lon="7.692513894352972" id="-30255">
		<tag k="historic" v="shieling" />
		<tag k="name" v="Ospesete" />
		<tag k="place" v="isolated_dwelling" />
		<tag k="ssr:stedsnr" v="799435" />
	</node>
	<node lat="61.39591389050075" lon="7.35041389424956" id="-30264">
		<tag k="historic" v="shieling" />
		<tag k="name" v="Hovden" />
		<tag k="place" v="isolated_dwelling" />
		<tag k="ssr:stedsnr" v="917685" />
	</node>
	<node lat="61.48620123833614" lon="7.606353709021376" id="-30265">
		<tag k="fixme" v="consider place=hamlet" />
		<tag k="name" v="Eide" />
		<tag k="place" v="farm" />
		<tag k="ssr:stedsnr" v="917278" />
	</node>
	<node lat="61.297191665612225" lon="7.3245555589681315" id="-30267">
		<tag k="name" v="Solberg" />
		<tag k="place" v="farm" />
		<tag k="ssr:stedsnr" v="917377" />
	</node>
	<node lat="61.3802525986779" lon="7.299604885192682" id="-30268">
		<tag k="fixme" v="consider place=hamlet" />
		<tag k="name" v="La" />
		<tag k="place" v="farm" />
		<tag k="ssr:stedsnr" v="918031" />
	</node>
	<node lat="61.36110832907813" lon="7.261672230964323" id="-30271">
		<tag k="alt_name" v="Hafslo, indre" />
		<tag k="fixme" v="consider place=hamlet" />
		<tag k="name" v="Indre Hafslo" />
		<tag k="place" v="village" />
		<tag k="ssr:stedsnr" v="918055" />
	</node>
	<node lat="61.366441669726406" lon="7.2438555603110375" id="-30272">
		<tag k="name" v="Fodnastølen" />
		<tag k="place" v="locality" />
		<tag k="ssr:stedsnr" v="918056" />
	</node>
	<node lat="61.36908363438104" lon="7.063793353223421" id="-30276">
		<tag k="fixme" v="consider place=hamlet" />
		<tag k="name" v="Yngsdalen" />
		<tag k="place" v="farm" />
		<tag k="ssr:stedsnr" v="918068" />
	</node>
	<node lat="61.44818888816461" lon="7.057983335969368" id="-30281">
		<tag k="name" v="Hermundteigen" />
		<tag k="place" v="locality" />
		<tag k="ssr:stedsnr" v="918094" />
	</node>
	<node lat="61.4487027737743" lon="7.060719451236675" id="-30282">
		<tag k="name" v="Blomteigen" />
		<tag k="place" v="locality" />
		<tag k="ssr:stedsnr" v="918095" />
	</node>
	<node lat="61.44486666932451" lon="7.3035249975361225" id="-30283">
		<tag k="historic" v="shieling" />
		<tag k="name" v="Seljesete" />
		<tag k="place" v="isolated_dwelling" />
		<tag k="ssr:stedsnr" v="918097" />
	</node>
	<node lat="61.478652780424184" lon="7.071438887176289" id="-30287">
		<tag k="name" v="Nesdalen" />
		<tag k="place" v="locality" />
		<tag k="ssr:stedsnr" v="918197" />
	</node>
	<node lat="61.45959643479101" lon="7.520909302109104" id="-30289">
		<tag k="alt_name" v="Havhella, yt" />
		<tag k="name" v="Ytre Havhella" />
		<tag k="place" v="farm" />
		<tag k="ssr:stedsnr" v="918333" />
	</node>
	<node lat="61.46153022148469" lon="7.527527964714436" id="-30290">
		<tag k="alt_name" v="Havhella, in" />
		<tag k="name" v="Indre Havhella" />
		<tag k="place" v="locality" />
		<tag k="ssr:stedsnr" v="918336" />
	</node>
	<node lat="61.461201997372555" lon="7.455859738877423" id="-30291">
		<tag k="fixme" v="consider place=hamlet" />
		<tag k="name" v="Dalen" />
		<tag k="place" v="farm" />
		<tag k="ssr:stedsnr" v="918339" />
	</node>
	<node lat="61.29518333742818" lon="7.187161102988696" id="-30296">
		<tag k="alt_name" v="Kvamshaugen" />
		<tag k="name" v="Kvamshaug" />
		<tag k="place" v="farm" />
		<tag k="ssr:stedsnr" v="918466" />
	</node>
	<node lat="61.310197220032585" lon="7.165749993511078" id="-30297">
		<tag k="name" v="Stein" />
		<tag k="place" v="farm" />
		<tag k="ssr:stedsnr" v="918481" />
	</node>
	<node lat="61.35543333010025" lon="7.259591663282009" id="-30298">
		<tag k="name" v="Lundshaugen" />
		<tag k="place" v="farm" />
		<tag k="ssr:stedsnr" v="918495" />
	</node>
	<node lat="61.35062758226642" lon="7.277023662140127" id="-30299">
		<tag k="fixme" v="consider place=hamlet" />
		<tag k="name" v="Li" />
		<tag k="place" v="farm" />
		<tag k="ssr:stedsnr" v="918497" />
	</node>
	<node lat="61.35226944119291" lon="7.283386113817848" id="-30300">
		<tag k="alt_name" v="Ellingset" />
		<tag k="name" v="Ellingsete" />
		<tag k="place" v="farm" />
		<tag k="ssr:stedsnr" v="918498" />
	</node>
	<node lat="61.31488913345242" lon="7.185091433181645" id="-30316">
		<tag k="alt_name" v="Lad" />
		<tag k="fixme" v="consider place=hamlet" />
		<tag k="name" v="La" />
		<tag k="place" v="farm" />
		<tag k="ssr:stedsnr" v="918428" />
	</node>
	<node lat="61.3235459819485" lon="7.208349326215672" id="-30320">
		<tag k="fixme" v="consider place=hamlet" />
		<tag k="name" v="Sætre" />
		<tag k="place" v="farm" />
		<tag k="ssr:stedsnr" v="918448" />
	</node>
	<node lat="61.5939972227044" lon="7.635416664255609" id="-30334">
		<tag k="historic" v="shieling" />
		<tag k="name" v="Vetlestølen" />
		<tag k="place" v="isolated_dwelling" />
		<tag k="ssr:stedsnr" v="815250" />
	</node>
	<node lat="61.419663889641996" lon="7.290177783098412" id="-30335">
		<tag k="name" v="Sjåheim" />
		<tag k="place" v="locality" />
		<tag k="ssr:stedsnr" v="815253" />
	</node>
	<node lat="61.46730000358118" lon="7.4424305610559065" id="-30340">
		<tag k="historic" v="shieling" />
		<tag k="name" v="Åsen vårstøl" />
		<tag k="place" v="isolated_dwelling" />
		<tag k="ssr:stedsnr" v="815408" />
	</node>
	<node lat="61.45182140114046" lon="7.545598519529984" id="-30351">
		<tag k="name" v="Mårdøla" />
		<tag k="place" v="locality" />
		<tag k="ssr:stedsnr" v="815588" />
	</node>
	<node lat="61.33669444486997" lon="7.273572221784047" id="-30358">
		<tag k="historic" v="shieling" />
		<tag k="name" v="Øvrelistøl" />
		<tag k="place" v="isolated_dwelling" />
		<tag k="ssr:stedsnr" v="815818" />
	</node>
	<node lat="61.29999916924599" lon="7.240061871883204" id="-30359">
		<tag k="fixme" v="consider place=hamlet" />
		<tag k="name" v="Elvatun" />
		<tag k="place" v="farm" />
		<tag k="ssr:stedsnr" v="815871" />
	</node>
	<node lat="61.58258889038509" lon="7.749930549305802" id="-30378">
		<tag k="historic" v="shieling" />
		<tag k="name" v="Klepp" />
		<tag k="place" v="isolated_dwelling" />
		<tag k="ssr:stedsnr" v="920280" />
	</node>
	<node lat="61.51582221887553" lon="7.291349997352559" id="-30383">
		<tag k="name" v="Kråi" />
		<tag k="place" v="farm" />
		<tag k="ssr:stedsnr" v="920621" />
	</node>
	<node lat="61.60896752935704" lon="7.29842934505434" id="-30386">
		<tag k="alt_name" v="Yttre" />
		<tag k="fixme" v="consider place=hamlet" />
		<tag k="name" v="Ytri" />
		<tag k="place" v="farm" />
		<tag k="ssr:stedsnr" v="920630" />
	</node>
	<node lat="61.40471666889675" lon="7.294577768423851" id="-30405">
		<tag k="name" v="Gaupne" />
		<tag k="place" v="village" />
		<tag k="ssr:stedsnr" v="857015" />
	</node>
	<node lat="61.36704721974606" lon="7.338163894723834" id="-30408">
		<tag k="name" v="Svåi" />
		<tag k="place" v="farm" />
		<tag k="ssr:stedsnr" v="857045" />
	</node>
	<node lat="61.37420863517552" lon="7.2691131877677115" id="-30409">
		<tag k="fixme" v="consider place=hamlet" />
		<tag k="name" v="Tørvi" />
		<tag k="place" v="farm" />
		<tag k="ssr:stedsnr" v="857051" />
	</node>
	<node lat="61.36474444603351" lon="7.132994445079053" id="-30410">
		<tag k="historic" v="shieling" />
		<tag k="name" v="Skogo" />
		<tag k="place" v="isolated_dwelling" />
		<tag k="ssr:stedsnr" v="857055" />
	</node>
	<node lat="61.43217777918916" lon="7.264861114526004" id="-30411">
		<tag k="historic" v="shieling" />
		<tag k="name" v="Venåsen" />
		<tag k="place" v="isolated_dwelling" />
		<tag k="ssr:stedsnr" v="857111" />
	</node>
	<node lat="61.45689999627865" lon="7.4776694404715585" id="-30415">
		<tag k="historic" v="shieling" />
		<tag k="name" v="Ferestad" />
		<tag k="place" v="isolated_dwelling" />
		<tag k="ssr:stedsnr" v="857305" />
	</node>
	<node lat="61.481577775089875" lon="7.469816667366151" id="-30416">
		<tag k="historic" v="shieling" />
		<tag k="name" v="Hersete" />
		<tag k="place" v="isolated_dwelling" />
		<tag k="ssr:stedsnr" v="857330" />
	</node>
	<node lat="61.2945691777092" lon="7.207573778143792" id="-30420">
		<tag k="alt_name" v="Tangstølen" />
		<tag k="historic" v="shieling" />
		<tag k="name" v="Tangsstølen" />
		<tag k="place" v="isolated_dwelling" />
		<tag k="ssr:stedsnr" v="857431" />
	</node>
	<node lat="61.273342568893554" lon="7.377805740981692" id="-30422">
		<tag k="name" v="Haugen" />
		<tag k="place" v="farm" />
		<tag k="ssr:stedsnr" v="857590" />
	</node>
	<node lat="61.27993333347322" lon="7.393033339915268" id="-30425">
		<tag k="name" v="Nygard" />
		<tag k="place" v="farm" />
		<tag k="ssr:stedsnr" v="857622" />
	</node>
	<node lat="61.348241664915214" lon="7.412233339832116" id="-30426">
		<tag k="name" v="Holten" />
		<tag k="place" v="locality" />
		<tag k="ssr:stedsnr" v="857630" />
	</node>
	<node lat="61.470646228818715" lon="7.0482328165000085" id="-30430">
		<tag k="fixme" v="consider place=hamlet" />
		<tag k="name" v="Nes" />
		<tag k="place" v="farm" />
		<tag k="ssr:stedsnr" v="858073" />
	</node>
	<node lat="61.55016388734292" lon="7.925561104338576" id="-30436">
		<tag k="name" v="Prestesteinshytta" />
		<tag k="old_name" v="Preststeinhytta" />
		<tag k="place" v="isolated_dwelling" />
		<tag k="ssr:stedsnr" v="859307" />
	</node>
	<node lat="61.538566871437006" lon="7.613555260475028" id="-30448">
		<tag k="alt_name" v="Mørkrid" />
		<tag k="fixme" v="consider place=hamlet" />
		<tag k="name" v="Mørkri" />
		<tag k="place" v="farm" />
		<tag k="ssr:stedsnr" v="860470" />
	</node>
	<node lat="61.532580551387206" lon="7.690536108219016" id="-30449">
		<tag k="historic" v="shieling" />
		<tag k="name" v="Stokkastølen" />
		<tag k="place" v="isolated_dwelling" />
		<tag k="ssr:stedsnr" v="860473" />
	</node>
	<node lat="61.534163890956506" lon="7.6492416707976565" id="-30450">
		<tag k="historic" v="shieling" />
		<tag k="name" v="Myrasete" />
		<tag k="place" v="isolated_dwelling" />
		<tag k="ssr:stedsnr" v="860475" />
	</node>
	<node lat="61.6127492463576" lon="7.301415824881465" id="-30455">
		<tag k="fixme" v="consider place=hamlet" />
		<tag k="name" v="Kjervik" />
		<tag k="place" v="farm" />
		<tag k="ssr:stedsnr" v="860676" />
	</node>
	<node lat="61.662247220897406" lon="7.278655564843098" id="-30457">
		<tag k="name" v="Kleivi" />
		<tag k="place" v="farm" />
		<tag k="ssr:stedsnr" v="860765" />
	</node>
	<node lat="61.48544444839753" lon="8.005272228524516" id="-30494">
		<tag k="historic" v="shieling" />
		<tag k="name" v="Guridalen" />
		<tag k="place" v="isolated_dwelling" />
		<tag k="ssr:stedsnr" v="917512" />
	</node>
	<node lat="61.41461666860924" lon="7.3310833302338585" id="-30501">
		<tag k="historic" v="shieling" />
		<tag k="name" v="Vassvollane" />
		<tag k="place" v="isolated_dwelling" />
		<tag k="ssr:stedsnr" v="918010" />
	</node>
	<node lat="61.47828344198907" lon="7.042931292264761" id="-30504">
		<tag k="fixme" v="consider place=hamlet" />
		<tag k="name" v="Hilleren" />
		<tag k="place" v="farm" />
		<tag k="ssr:stedsnr" v="918209" />
	</node>
	<node lat="61.36072499974969" lon="7.273066665921373" id="-30507">
		<tag k="name" v="Vad" />
		<tag k="place" v="farm" />
		<tag k="ssr:stedsnr" v="918525" />
	</node>
	<node lat="61.34962221961152" lon="7.402047231413912" id="-30511">
		<tag k="name" v="Soldalen" />
		<tag k="place" v="farm" />
		<tag k="ssr:stedsnr" v="918687" />
	</node>
	<node lat="61.43249722128494" lon="7.423325008057649" id="-30515">
		<tag k="historic" v="shieling" />
		<tag k="name" v="Jøng" />
		<tag k="place" v="isolated_dwelling" />
		<tag k="ssr:stedsnr" v="918798" />
	</node>
	<node lat="61.515233331155585" lon="7.614855558423844" id="-30519">
		<tag k="name" v="Flaten" />
		<tag k="place" v="farm" />
		<tag k="ssr:stedsnr" v="920397" />
	</node>
	<node lat="61.53678333028398" lon="7.276891661055128" id="-30530">
		<tag k="historic" v="shieling" />
		<tag k="name" v="Hovden" />
		<tag k="place" v="isolated_dwelling" />
		<tag k="ssr:stedsnr" v="920592" />
	</node>
	<node lat="61.631969796255106" lon="7.26507708676343" id="-30536">
		<tag k="name" v="Gjerde" />
		<tag k="place" v="farm" />
		<tag k="ssr:stedsnr" v="920644" />
	</node>
	<node lat="61.570833330522795" lon="7.283288892592885" id="-30537">
		<tag k="name" v="Gardshaug" />
		<tag k="place" v="farm" />
		<tag k="ssr:stedsnr" v="920690" />
	</node>
	<node lat="61.404152775913225" lon="7.294322219829356" id="-30543">
		<tag k="name" v="Valde" />
		<tag k="place" v="locality" />
		<tag k="ssr:stedsnr" v="936220" />
	</node>
	<node lat="61.39026666494505" lon="7.094022231519162" id="-30566">
		<tag k="name" v="Bukkskinnsteigen" />
		<tag k="place" v="locality" />
		<tag k="ssr:stedsnr" v="937625" />
	</node>
	<node lat="61.567890764582955" lon="7.813278333452096" id="-30575">
		<tag k="fixme" v="consider tourism=alpine_hut or tourism=chalet" />
		<tag k="name" v="Stølsdalen" />
		<tag k="ssr:stedsnr" v="938518" />
		<tag k="tourism" v="wilderness_hut" />
	</node>
	<node lat="61.6670666626229" lon="7.417127785058393" id="-30578">
		<tag k="fixme" v="consider tourism=alpine_hut or tourism=chalet" />
		<tag k="name" v="Holmevasshytta" />
		<tag k="ssr:stedsnr" v="960188" />
		<tag k="tourism" v="wilderness_hut" />
	</node>
	<node lat="61.483612901236505" lon="7.691092515900126" id="-30580">
		<tag k="fixme" v="consider tourism=alpine_hut or tourism=chalet" />
		<tag k="name" v="Fuglesteg" />
		<tag k="ssr:stedsnr" v="978996" />
		<tag k="tourism" v="wilderness_hut" />
	</node>
	<node lat="61.49071019957926" lon="7.598878799566424" id="-30581">
		<tag k="fixme" v="consider place=hamlet" />
		<tag k="name" v="Skjolden" />
		<tag k="place" v="farm" />
		<tag k="ssr:stedsnr" v="979000" />
	</node>
	<node lat="61.513000765678164" lon="7.303531302435734" id="-30582">
		<tag k="fixme" v="consider place=hamlet" />
		<tag k="name" v="Vigdal" />
		<tag k="place" v="farm" />
		<tag k="ssr:stedsnr" v="979007" />
	</node>
	<node lat="61.441759757090615" lon="7.455057401283844" id="-30583">
		<tag k="fixme" v="consider place=hamlet" />
		<tag k="name" v="Dale" />
		<tag k="place" v="farm" />
		<tag k="ssr:stedsnr" v="979035" />
	</node>
	<node lat="61.409306731822596" lon="7.292354294035898" id="-30584">
		<tag k="name" v="Drevdal" />
		<tag k="place" v="hamlet" />
		<tag k="ssr:stedsnr" v="979090" />
	</node>
	<node lat="61.409163066844876" lon="7.2888072949563965" id="-30585">
		<tag k="fixme" v="consider place=hamlet" />
		<tag k="name" v="Haugen" />
		<tag k="place" v="farm" />
		<tag k="ssr:stedsnr" v="979091" />
	</node>
	<node lat="61.67045811838398" lon="7.3294966831242325" id="-30587">
		<tag k="fixme" v="consider place=hamlet" />
		<tag k="name" v="Øvre Fåberg" />
		<tag k="place" v="farm" />
		<tag k="ssr:stedsnr" v="979195" />
	</node>
	<node lat="61.408061617136944" lon="7.2926237093808455" id="-30588">
		<tag k="fixme" v="consider place=hamlet" />
		<tag k="name" v="Svangstun" />
		<tag k="place" v="farm" />
		<tag k="ssr:stedsnr" v="979086" />
	</node>
	<node lat="61.40909352233915" lon="7.297231566147398" id="-30589">
		<tag k="fixme" v="consider place=hamlet" />
		<tag k="name" v="Flattun" />
		<tag k="place" v="farm" />
		<tag k="ssr:stedsnr" v="979087" />
	</node>
	<node lat="61.41029072041508" lon="7.293642644813006" id="-30590">
		<tag k="fixme" v="consider place=hamlet" />
		<tag k="name" v="Bulungberg" />
		<tag k="place" v="farm" />
		<tag k="ssr:stedsnr" v="979088" />
	</node>
	<node lat="61.39886224819258" lon="7.286685971164378" id="-30592">
		<tag k="loc_name" v="Røneidsgrandane" />
		<tag k="name" v="Røneidgrandane" />
		<tag k="place" v="quarter" />
		<tag k="ssr:stedsnr" v="986811" />
	</node>
	<node lat="61.40031434536517" lon="7.295747127398841" id="-30593">
		<tag k="name" v="Gaupnegrandane" />
		<tag k="place" v="quarter" />
		<tag k="ssr:stedsnr" v="986812" />
	</node>
	<node lat="61.45676666565005" lon="7.197913885115601" id="-30601">
		<tag k="historic" v="shieling" />
		<tag k="name" v="Nonhaug" />
		<tag k="place" v="isolated_dwelling" />
		<tag k="ssr:stedsnr" v="7099" />
	</node>
	<node lat="61.39167378516333" lon="7.441796823654997" id="-30602">
		<tag k="fixme" v="consider place=hamlet" />
		<tag k="name" v="Bergheim" />
		<tag k="place" v="farm" />
		<tag k="ssr:stedsnr" v="7635" />
	</node>
	<node lat="61.482444441070605" lon="8.003886102926316" id="-30605">
		<tag k="name" v="Øysteinbøen" />
		<tag k="place" v="isolated_dwelling" />
		<tag k="ssr:stedsnr" v="7542" />
	</node>
	<node lat="61.40172221796634" lon="7.472600001608943" id="-30606">
		<tag k="name" v="Berteig" />
		<tag k="place" v="farm" />
		<tag k="ssr:stedsnr" v="7688" />
	</node>
	<node lat="61.380422218590354" lon="7.447063893528092" id="-30607">
		<tag k="name" v="Øystølen" />
		<tag k="place" v="locality" />
		<tag k="ssr:stedsnr" v="7641" />
	</node>
	<node lat="61.43769444473351" lon="6.951505557743854" id="-30611">
		<tag k="historic" v="shieling" />
		<tag k="name" v="Tuftene" />
		<tag k="place" v="isolated_dwelling" />
		<tag k="ssr:stedsnr" v="7940" />
	</node>
	<node lat="61.39624167084736" lon="7.2537083278304015" id="-30612">
		<tag k="historic" v="shieling" />
		<tag k="name" v="Røyteholet" />
		<tag k="place" v="isolated_dwelling" />
		<tag k="ssr:stedsnr" v="8032" />
	</node>
	<node lat="61.4068666676462" lon="7.315908327712277" id="-30614">
		<tag k="name" v="Trædene" />
		<tag k="place" v="isolated_dwelling" />
		<tag k="ssr:stedsnr" v="8038" />
	</node>
	<node lat="61.378285694183425" lon="7.303148876242948" id="-30616">
		<tag k="fixme" v="consider place=hamlet" />
		<tag k="name" v="Marheim" />
		<tag k="place" v="farm" />
		<tag k="ssr:stedsnr" v="8041" />
	</node>
	<node lat="61.41071667060344" lon="7.191030556511295" id="-30617">
		<tag k="historic" v="shieling" />
		<tag k="name" v="Fodnastølen" />
		<tag k="place" v="isolated_dwelling" />
		<tag k="ssr:stedsnr" v="8124" />
	</node>
	<node lat="61.453280610691486" lon="7.497598275951986" id="-30623">
		<tag k="alt_name" v="Ottum" />
		<tag k="fixme" v="consider place=hamlet" />
		<tag k="name" v="Ottom" />
		<tag k="place" v="farm" />
		<tag k="ssr:stedsnr" v="8316" />
	</node>
	<node lat="61.309236106909545" lon="7.05529722811175" id="-30624">
		<tag k="historic" v="shieling" />
		<tag k="name" v="Nos" />
		<tag k="place" v="isolated_dwelling" />
		<tag k="ssr:stedsnr" v="8426" />
	</node>
	<node lat="61.30771093231246" lon="7.246522590245073" id="-30629">
		<tag k="alt_name" v="Fevoll" />
		<tag k="fixme" v="consider place=hamlet" />
		<tag k="name" v="Feivall" />
		<tag k="place" v="farm" />
		<tag k="ssr:stedsnr" v="8467" />
	</node>
	<node lat="61.26966389009316" lon="7.3773527717084395" id="-30630">
		<tag k="fixme" v="consider place=hamlet" />
		<tag k="name" v="Kinsedalen" />
		<tag k="place" v="village" />
		<tag k="ssr:stedsnr" v="8586" />
	</node>
	<node lat="61.269350003188855" lon="7.386338885633324" id="-30631">
		<tag k="alt_name" v="Hamrane" />
		<tag k="name" v="Hamaren" />
		<tag k="place" v="farm" />
		<tag k="ssr:stedsnr" v="8599" />
	</node>
	<node lat="61.42119397506728" lon="7.492656917350736" id="-30635">
		<tag k="fixme" v="consider place=hamlet" />
		<tag k="name" v="Sørheim" />
		<tag k="place" v="farm" />
		<tag k="ssr:stedsnr" v="8730" />
	</node>
	<node lat="61.41575659283286" lon="7.495395157907377" id="-30636">
		<tag k="alt_name" v="Havreberg" />
		<tag k="fixme" v="consider place=hamlet" />
		<tag k="name" v="Havraberg" />
		<tag k="place" v="farm" />
		<tag k="ssr:stedsnr" v="8736" />
	</node>
	<node lat="61.4170750029342" lon="7.523794453179984" id="-30639">
		<tag k="historic" v="shieling" />
		<tag k="name" v="Lambamyri" />
		<tag k="place" v="isolated_dwelling" />
		<tag k="ssr:stedsnr" v="8751" />
	</node>
	<node lat="61.53421944514172" lon="7.378180556660951" id="-30644">
		<tag k="name" v="Vierøy" />
		<tag k="place" v="locality" />
		<tag k="ssr:stedsnr" v="10413" />
	</node>
	<node lat="61.54705000362678" lon="7.71335276918142" id="-30645">
		<tag k="alt_name" v="Fagerhaug" />
		<tag k="historic" v="shieling" />
		<tag k="name" v="Grimo" />
		<tag k="place" v="isolated_dwelling" />
		<tag k="ssr:stedsnr" v="10415" />
	</node>
	<node lat="61.506728260268" lon="7.69501222074079" id="-30646">
		<tag k="alt_name" v="Yttri" />
		<tag k="fixme" v="consider place=hamlet" />
		<tag k="name" v="Ytri" />
		<tag k="place" v="farm" />
		<tag k="ssr:stedsnr" v="10375" />
	</node>
	<node lat="61.5008361067218" lon="7.45637499527195" id="-30647">
		<tag k="historic" v="shieling" />
		<tag k="name" v="Lø" />
		<tag k="place" v="isolated_dwelling" />
		<tag k="ssr:stedsnr" v="10376" />
	</node>
	<node lat="61.60730833627525" lon="7.3158888973157685" id="-30655">
		<tag k="historic" v="shieling" />
		<tag k="name" v="Myri" />
		<tag k="place" v="isolated_dwelling" />
		<tag k="ssr:stedsnr" v="10648" />
	</node>
	<node lat="61.607158329853235" lon="7.296608326750455" id="-30656">
		<tag k="name" v="Nyheim" />
		<tag k="place" v="farm" />
		<tag k="ssr:stedsnr" v="10650" />
	</node>
	<node lat="61.57033889101694" lon="7.3135472223304285" id="-30658">
		<tag k="historic" v="shieling" />
		<tag k="name" v="Skurahamar" />
		<tag k="place" v="isolated_dwelling" />
		<tag k="ssr:stedsnr" v="10677" />
	</node>
	<node lat="61.550166670782794" lon="7.295391668996295" id="-30663">
		<tag k="alt_name" v="Fossøy" />
		<tag k="name" v="Fossøyane" />
		<tag k="place" v="farm" />
		<tag k="ssr:stedsnr" v="10685" />
	</node>
	<node lat="61.579474996791554" lon="7.282172229655134" id="-30666">
		<tag k="name" v="Halvveg" />
		<tag k="place" v="farm" />
		<tag k="ssr:stedsnr" v="10698" />
	</node>
	<node lat="61.674311111885174" lon="7.331399991190503" id="-30668">
		<tag k="name" v="Berget" />
		<tag k="place" v="farm" />
		<tag k="ssr:stedsnr" v="10747" />
	</node>
	<node lat="61.36918055912864" lon="7.215644446587583" id="-30674">
		<tag k="historic" v="shieling" />
		<tag k="name" v="Fettroi" />
		<tag k="place" v="isolated_dwelling" />
		<tag k="ssr:stedsnr" v="24653" />
	</node>
	<node lat="61.63816111406669" lon="7.258116660809546" id="-30696">
		<tag k="historic" v="shieling" />
		<tag k="name" v="Stølsgjerde" />
		<tag k="place" v="isolated_dwelling" />
		<tag k="ssr:stedsnr" v="25846" />
	</node>
	<node lat="61.4217583313859" lon="7.311299998927489" id="-30717">
		<tag k="historic" v="shieling" />
		<tag k="name" v="Raudaberg" />
		<tag k="place" v="isolated_dwelling" />
		<tag k="ssr:stedsnr" v="26529" />
	</node>
	<node lat="61.310672221078676" lon="7.260091659728476" id="-30728">
		<tag k="name" v="Sie-Øygarden" />
		<tag k="place" v="isolated_dwelling" />
		<tag k="ssr:stedsnr" v="26841" />
	</node>
	<node lat="61.441524108751516" lon="7.453070746944407" id="-30733">
		<tag k="fixme" v="consider place=hamlet" />
		<tag k="name" v="Heltne" />
		<tag k="place" v="farm" />
		<tag k="ssr:stedsnr" v="26887" />
	</node>
	<node lat="61.44160833616405" lon="7.456680561014155" id="-30734">
		<tag k="name" v="Dale" />
		<tag k="place" v="hamlet" />
		<tag k="ssr:stedsnr" v="26891" />
	</node>
	<node lat="61.63551111410612" lon="7.210369449170981" id="-30739">
		<tag k="name" v="Bakkane" />
		<tag k="place" v="farm" />
		<tag k="ssr:stedsnr" v="26964" />
	</node>
	<node lat="61.29735833238737" lon="7.126566671224183" id="-30756">
		<tag k="historic" v="shieling" />
		<tag k="name" v="Lastølen" />
		<tag k="place" v="isolated_dwelling" />
		<tag k="ssr:stedsnr" v="28915" />
	</node>
	<node lat="61.411371283592224" lon="7.2693842030971325" id="-30760">
		<tag k="fixme" v="consider place=hamlet" />
		<tag k="name" v="Kalhagen" />
		<tag k="place" v="farm" />
		<tag k="ssr:stedsnr" v="68017" />
	</node>
	<node lat="61.37347777335867" lon="7.2971861124620645" id="-30761">
		<tag k="name" v="Grindhaug" />
		<tag k="place" v="farm" />
		<tag k="ssr:stedsnr" v="68047" />
	</node>
	<node lat="61.367947224228914" lon="7.0773305590343005" id="-30762">
		<tag k="alt_name" v="Aspeholen" />
		<tag k="name" v="Osphola" />
		<tag k="place" v="farm" />
		<tag k="ssr:stedsnr" v="68054" />
	</node>
	<node lat="61.4592416664192" lon="7.256319449552358" id="-30764">
		<tag k="name" v="Øyagjerdet" />
		<tag k="place" v="locality" />
		<tag k="ssr:stedsnr" v="68083" />
	</node>
	<node lat="61.43486111389627" lon="7.1050472284897745" id="-30766">
		<tag k="historic" v="shieling" />
		<tag k="name" v="Nedregardstølen" />
		<tag k="place" v="isolated_dwelling" />
		<tag k="ssr:stedsnr" v="68098" />
	</node>
	<node lat="61.424286108525536" lon="7.3231055543489605" id="-30767">
		<tag k="historic" v="shieling" />
		<tag k="name" v="Engjadalen" />
		<tag k="place" v="isolated_dwelling" />
		<tag k="ssr:stedsnr" v="68112" />
	</node>
	<node lat="61.433252778083585" lon="7.5194499906892975" id="-30773">
		<tag k="historic" v="shieling" />
		<tag k="name" v="Hovden" />
		<tag k="place" v="isolated_dwelling" />
		<tag k="ssr:stedsnr" v="68755" />
	</node>
	<node lat="61.49767778093442" lon="7.253866657449544" id="-30775">
		<tag k="name" v="Flåi" />
		<tag k="place" v="locality" />
		<tag k="ssr:stedsnr" v="68173" />
	</node>
	<node lat="61.494096839369746" lon="7.682121268637424" id="-30778">
		<tag k="alt_name" v="Drægni" />
		<tag k="fixme" v="consider place=hamlet" />
		<tag k="name" v="Dregni" />
		<tag k="place" v="farm" />
		<tag k="ssr:stedsnr" v="68257" />
	</node>
	<node lat="61.495093193657716" lon="7.688784211100901" id="-30779">
		<tag k="fixme" v="consider place=hamlet" />
		<tag k="name" v="Fortun" />
		<tag k="place" v="village" />
		<tag k="ssr:stedsnr" v="68261" />
	</node>
	<node lat="61.45099719391032" lon="7.541132287084292" id="-30781">
		<tag k="name" v="Bakken" />
		<tag k="place" v="farm" />
		<tag k="ssr:stedsnr" v="68280" />
	</node>
	<node lat="61.34955833623507" lon="7.211766659196294" id="-30782">
		<tag k="alt_name" v="Sønnesynstøl;Sønnesyn fjellstøl" />
		<tag k="historic" v="shieling" />
		<tag k="name" v="Sønnesynstølen" />
		<tag k="place" v="isolated_dwelling" />
		<tag k="ssr:stedsnr" v="68460" />
	</node>
	<node lat="61.3417804552963" lon="7.399022262591294" id="-30788">
		<tag k="alt_name" v="Kroken, ytre" />
		<tag k="fixme" v="consider place=hamlet" />
		<tag k="name" v="Ytre Kroken" />
		<tag k="place" v="farm" />
		<tag k="ssr:stedsnr" v="68637" />
	</node>
	<node lat="61.402092717778665" lon="7.387909006853205" id="-30789">
		<tag k="alt_name" v="Høyheim, øvre" />
		<tag k="name" v="Øvre Høyheim" />
		<tag k="place" v="farm" />
		<tag k="ssr:stedsnr" v="68720" />
	</node>
	<node lat="61.38122222117232" lon="7.306452776168838" id="-30794">
		<tag k="fixme" v="consider place=suburb, village or hamlet" />
		<tag k="name" v="Marifjøra" />
		<tag k="place" v="quarter" />
		<tag k="ssr:stedsnr" v="69028" />
	</node>
	<node lat="61.263436109733355" lon="7.33041945034512" id="-30795">
		<tag k="name" v="Skophamar" />
		<tag k="place" v="farm" />
		<tag k="ssr:stedsnr" v="69358" />
	</node>
	<node lat="61.31029444417845" lon="7.179497226075747" id="-30796">
		<tag k="alt_name" v="Smedegård" />
		<tag k="name" v="Smeagarden" />
		<tag k="place" v="farm" />
		<tag k="ssr:stedsnr" v="69453" />
	</node>
	<node lat="61.30766388880266" lon="7.35054999829563" id="-30797">
		<tag k="alt_name" v="Orneskroken;Urneskroken" />
		<tag k="name" v="Kroken" />
		<tag k="place" v="farm" />
		<tag k="ssr:stedsnr" v="69647" />
	</node>
	<node lat="61.54234688621812" lon="7.729340415484127" id="-30799">
		<tag k="fixme" v="consider place=hamlet" />
		<tag k="name" v="Bjørk" />
		<tag k="place" v="farm" />
		<tag k="ssr:stedsnr" v="70255" />
	</node>
	<node lat="61.5016694414374" lon="7.691705549477158" id="-30801">
		<tag k="name" v="Øygarden" />
		<tag k="place" v="farm" />
		<tag k="ssr:stedsnr" v="70350" />
	</node>
	<node lat="61.56050555907113" lon="7.778263891767639" id="-30808">
		<tag k="historic" v="shieling" />
		<tag k="name" v="Nedstestølen" />
		<tag k="place" v="isolated_dwelling" />
		<tag k="ssr:stedsnr" v="71279" />
	</node>
	<node lat="61.621486109655635" lon="7.290538893892433" id="-30814">
		<tag k="name" v="Borgi" />
		<tag k="place" v="farm" />
		<tag k="ssr:stedsnr" v="71697" />
	</node>
	<node lat="61.62290058373211" lon="7.2888627113978375" id="-30815">
		<tag k="fixme" v="consider place=hamlet" />
		<tag k="name" v="Espe" />
		<tag k="place" v="farm" />
		<tag k="ssr:stedsnr" v="71698" />
	</node>
	<node lat="61.52158055914204" lon="7.579999992635959" id="-30823">
		<tag k="historic" v="shieling" />
		<tag k="name" v="Gurosete" />
		<tag k="place" v="isolated_dwelling" />
		<tag k="ssr:stedsnr" v="71451" />
	</node>
	<node lat="61.52832528462141" lon="7.714697524276598" id="-30825">
		<tag k="fixme" v="consider place=hamlet" />
		<tag k="name" v="Steig" />
		<tag k="place" v="farm" />
		<tag k="ssr:stedsnr" v="71458" />
	</node>
	<node lat="61.65950555426603" lon="7.274102776499104" id="-30828">
		<tag k="name" v="Bjørkhaug" />
		<tag k="place" v="farm" />
		<tag k="ssr:stedsnr" v="71762" />
	</node>
	<node lat="61.65915277893933" lon="7.279091657671105" id="-30829">
		<tag k="name" v="Pikhaug" />
		<tag k="place" v="farm" />
		<tag k="ssr:stedsnr" v="71763" />
	</node>
	<node lat="61.45860555626306" lon="7.522994447777319" id="-30832">
		<tag k="name" v="Skåri" />
		<tag k="place" v="isolated_dwelling" />
		<tag k="ssr:stedsnr" v="72541" />
	</node>
	<node lat="61.51514166432374" lon="7.60078333132233" id="-30833">
		<tag k="historic" v="shieling" />
		<tag k="name" v="Øyastølen" />
		<tag k="place" v="isolated_dwelling" />
		<tag k="ssr:stedsnr" v="87040" />
	</node>
	<node lat="61.35556944436462" lon="7.272661107732344" id="-30866">
		<tag k="name" v="Liholet" />
		<tag k="place" v="farm" />
		<tag k="ssr:stedsnr" v="86798" />
	</node>
	<node lat="61.35893888788503" lon="7.45417777335727" id="-30884">
		<tag k="historic" v="shieling" />
		<tag k="name" v="Nosastøl" />
		<tag k="place" v="isolated_dwelling" />
		<tag k="ssr:stedsnr" v="87663" />
	</node>
	<node lat="61.43670000081117" lon="7.102444450841865" id="-30915">
		<tag k="alt_name" v="Tråi" />
		<tag k="name" v="Trodi" />
		<tag k="place" v="farm" />
		<tag k="ssr:stedsnr" v="128079" />
	</node>
	<node lat="61.29485833288098" lon="7.3191888822304945" id="-30916">
		<tag k="name" v="Bakkane" />
		<tag k="place" v="farm" />
		<tag k="ssr:stedsnr" v="128400" />
	</node>
	<node lat="61.46149166762605" lon="7.714091675035583" id="-30919">
		<tag k="historic" v="shieling" />
		<tag k="name" v="Berdalen" />
		<tag k="place" v="isolated_dwelling" />
		<tag k="ssr:stedsnr" v="128260" />
	</node>
	<node lat="61.47748055838898" lon="7.669030557808279" id="-30921">
		<tag k="historic" v="shieling" />
		<tag k="name" v="Hovden" />
		<tag k="place" v="isolated_dwelling" />
		<tag k="ssr:stedsnr" v="128276" />
	</node>
	<node lat="61.48398055185423" lon="7.684694442236246" id="-30922">
		<tag k="alt_name" v="Vetlåsen" />
		<tag k="historic" v="shieling" />
		<tag k="name" v="Vetleåsen" />
		<tag k="place" v="isolated_dwelling" />
		<tag k="ssr:stedsnr" v="128280" />
	</node>
	<node lat="61.48466944403055" lon="7.569269453410846" id="-30923">
		<tag k="name" v="Nygard" />
		<tag k="place" v="farm" />
		<tag k="ssr:stedsnr" v="128283" />
	</node>
	<node lat="61.393130553285104" lon="7.33067499554995" id="-30930">
		<tag k="name" v="Langavik" />
		<tag k="place" v="farm" />
		<tag k="ssr:stedsnr" v="129057" />
	</node>
	<node lat="61.38880000022299" lon="7.241277781329156" id="-30932">
		<tag k="historic" v="shieling" />
		<tag k="name" v="Brekka" />
		<tag k="place" v="isolated_dwelling" />
		<tag k="ssr:stedsnr" v="129068" />
	</node>
	<node lat="61.265063891941686" lon="7.410447230897899" id="-30939">
		<tag k="historic" v="shieling" />
		<tag k="name" v="Øystølen" />
		<tag k="place" v="isolated_dwelling" />
		<tag k="ssr:stedsnr" v="129559" />
	</node>
	<node lat="61.346797218382946" lon="7.244569452778788" id="-30940">
		<tag k="name" v="Bruheim" />
		<tag k="place" v="farm" />
		<tag k="ssr:stedsnr" v="129487" />
	</node>
	<node lat="61.331691665792455" lon="7.240688887810345" id="-30941">
		<tag k="alt_name" v="Hillestadstølen" />
		<tag k="historic" v="shieling" />
		<tag k="name" v="Hildestadstølen" />
		<tag k="place" v="isolated_dwelling" />
		<tag k="ssr:stedsnr" v="129493" />
	</node>
	<node lat="61.51982925360649" lon="7.614938297287483" id="-30948">
		<tag k="fixme" v="consider place=hamlet" />
		<tag k="name" v="Rebni" />
		<tag k="place" v="farm" />
		<tag k="ssr:stedsnr" v="131397" />
	</node>
	<node lat="61.519663889087404" lon="7.705894444308509" id="-30949">
		<tag k="alt_name" v="Nyløy" />
		<tag k="name" v="Nyløøyi" />
		<tag k="place" v="farm" />
		<tag k="ssr:stedsnr" v="131403" />
	</node>
	<node lat="61.52736379261981" lon="7.7077296370976285" id="-30950">
		<tag k="name" v="Huken" />
		<tag k="place" v="farm" />
		<tag k="ssr:stedsnr" v="131413" />
	</node>
	<node lat="61.55468888668178" lon="7.770763896985209" id="-30955">
		<tag k="historic" v="shieling" />
		<tag k="name" v="Flåteigen" />
		<tag k="place" v="isolated_dwelling" />
		<tag k="ssr:stedsnr" v="131253" />
	</node>
	<node lat="61.547836111807634" lon="7.874291674656204" id="-30959">
		<tag k="name" v="Hervabui" />
		<tag k="place" v="locality" />
		<tag k="ssr:stedsnr" v="131334" />
	</node>
	<node lat="61.5006194425603" lon="7.716361117856936" id="-30964">
		<tag k="name" v="Øverland" />
		<tag k="place" v="farm" />
		<tag k="ssr:stedsnr" v="131359" />
	</node>
	<node lat="61.60172189922317" lon="7.293131226478089" id="-30969">
		<tag k="fixme" v="consider place=hamlet" />
		<tag k="name" v="Bjørk" />
		<tag k="place" v="farm" />
		<tag k="ssr:stedsnr" v="131641" />
	</node>
	<node lat="61.59929335016924" lon="7.278725578921585" id="-30970">
		<tag k="fixme" v="consider place=hamlet" />
		<tag k="name" v="Bakken" />
		<tag k="place" v="farm" />
		<tag k="ssr:stedsnr" v="131645" />
	</node>
	<node lat="61.52741110982782" lon="7.268494436335674" id="-30972">
		<tag k="name" v="Øvre Myklemyr" />
		<tag k="place" v="farm" />
		<tag k="ssr:stedsnr" v="131560" />
	</node>
	<node lat="61.57837500013825" lon="7.270630564142485" id="-30974">
		<tag k="alt_name" v="Vindolen" />
		<tag k="name" v="Vindholen" />
		<tag k="place" v="isolated_dwelling" />
		<tag k="ssr:stedsnr" v="131696" />
	</node>
	<node lat="61.64769999622114" lon="7.278291663771885" id="-30975">
		<tag k="name" v="Hellebø" />
		<tag k="place" v="farm" />
		<tag k="ssr:stedsnr" v="131732" />
	</node>
	<node lat="61.648552776627504" lon="7.283647228469785" id="-30977">
		<tag k="name" v="Nyegjerdet" />
		<tag k="place" v="locality" />
		<tag k="ssr:stedsnr" v="131739" />
	</node>
	<node lat="61.315444442457235" lon="7.381666662978991" id="-30995">
		<tag k="historic" v="shieling" />
		<tag k="name" v="Lostølen" />
		<tag k="place" v="isolated_dwelling" />
		<tag k="ssr:stedsnr" v="146547" />
	</node>
	<node lat="61.50046666373949" lon="7.401763880623571" id="-31031">
		<tag k="barrier" v="fence" />
		<tag k="name" v="Heggeholsgjerdet" />
		<tag k="ssr:stedsnr" v="147898" />
	</node>
	<node lat="61.52302777817076" lon="7.442224997518994" id="-31034">
		<tag k="historic" v="shieling" />
		<tag k="name" v="Presthaug" />
		<tag k="place" v="isolated_dwelling" />
		<tag k="ssr:stedsnr" v="147941" />
	</node>
	<node lat="61.3804416687906" lon="7.555786106350438" id="-31051">
		<tag k="historic" v="shieling" />
		<tag k="name" v="Sørheims-Feigedalen" />
		<tag k="place" v="isolated_dwelling" />
		<tag k="ssr:stedsnr" v="189625" />
	</node>
	<node lat="61.45625277691434" lon="7.259374999182257" id="-31057">
		<tag k="alt_name" v="Ytamo" />
		<tag k="name" v="Ytamoen" />
		<tag k="place" v="locality" />
		<tag k="ssr:stedsnr" v="189086" />
	</node>
	<node lat="61.45391110850244" lon="7.305097213969049" id="-31058">
		<tag k="historic" v="shieling" />
		<tag k="name" v="Rysete" />
		<tag k="place" v="isolated_dwelling" />
		<tag k="ssr:stedsnr" v="189091" />
	</node>
	<node lat="61.370763889780875" lon="7.2965944455073455" id="-31059">
		<tag k="name" v="Hagen" />
		<tag k="place" v="farm" />
		<tag k="ssr:stedsnr" v="189048" />
	</node>
	<node lat="61.36871535631812" lon="7.092924797272884" id="-31060">
		<tag k="fixme" v="consider place=hamlet" />
		<tag k="name" v="Ugulsvik" />
		<tag k="place" v="farm" />
		<tag k="ssr:stedsnr" v="189054" />
	</node>
	<node lat="61.43669721870965" lon="7.103416662098299" id="-31062">
		<tag k="name" v="Fredheim" />
		<tag k="place" v="farm" />
		<tag k="ssr:stedsnr" v="189099" />
	</node>
	<node lat="61.360763892719746" lon="7.262841665123332" id="-31064">
		<tag k="name" v="Vinda" />
		<tag k="place" v="farm" />
		<tag k="ssr:stedsnr" v="189434" />
	</node>
	<node lat="61.36442777695037" lon="7.276227772866889" id="-31065">
		<tag k="name" v="Furehaugen" />
		<tag k="place" v="farm" />
		<tag k="ssr:stedsnr" v="189440" />
	</node>
	<node lat="61.453151593556484" lon="7.456150085143079" id="-31067">
		<tag k="alt_name" v="Skår" />
		<tag k="fixme" v="consider place=hamlet" />
		<tag k="name" v="Skor" />
		<tag k="place" v="farm" />
		<tag k="ssr:stedsnr" v="189250" />
	</node>
	<node lat="61.471005558834676" lon="8.274033332139954" id="-31071">
		<tag k="fixme" v="consider tourism=alpine_hut or tourism=chalet" />
		<tag k="name" v="Olavsbu" />
		<tag k="old_name" v="Olavsbu turisthotell" />
		<tag k="ssr:stedsnr" v="189851" />
		<tag k="tourism" v="wilderness_hut" />
	</node>
	<node lat="61.41067222277131" lon="7.318497224023515" id="-31074">
		<tag k="name" v="Hyllerhaug" />
		<tag k="place" v="isolated_dwelling" />
		<tag k="ssr:stedsnr" v="190036" />
	</node>
	<node lat="61.39215833516963" lon="7.260188891587645" id="-31076">
		<tag k="name" v="Lyngsete" />
		<tag k="place" v="locality" />
		<tag k="ssr:stedsnr" v="190054" />
	</node>
	<node lat="61.319799999471925" lon="7.227416673999886" id="-31080">
		<tag k="name" v="Fredtun" />
		<tag k="place" v="farm" />
		<tag k="ssr:stedsnr" v="190405" />
	</node>
	<node lat="61.29716111314822" lon="7.126558327729903" id="-31081">
		<tag k="name" v="Labøen" />
		<tag k="place" v="locality" />
		<tag k="ssr:stedsnr" v="190432" />
	</node>
	<node lat="61.33043611244341" lon="7.300241664150412" id="-31082">
		<tag k="name" v="Flæto" />
		<tag k="place" v="farm" />
		<tag k="ssr:stedsnr" v="190492" />
	</node>
	<node lat="61.33968888661114" lon="7.293255563932363" id="-31083">
		<tag k="alt_name" v="Vinsete" />
		<tag k="historic" v="shieling" />
		<tag k="name" v="Vindsete" />
		<tag k="place" v="isolated_dwelling" />
		<tag k="ssr:stedsnr" v="190495" />
	</node>
	<node lat="61.49790833013458" lon="7.740408325385159" id="-31084">
		<tag k="name" v="Egg" />
		<tag k="place" v="locality" />
		<tag k="ssr:stedsnr" v="190589" />
	</node>
	<node lat="61.42065606744937" lon="7.438129053682493" id="-31086">
		<tag k="fixme" v="consider place=hamlet" />
		<tag k="name" v="Lavoll" />
		<tag k="place" v="farm" />
		<tag k="ssr:stedsnr" v="190714" />
	</node>
	<node lat="61.422267528133894" lon="7.497867391327851" id="-31087">
		<tag k="name" v="Haugtun" />
		<tag k="place" v="isolated_dwelling" />
		<tag k="ssr:stedsnr" v="190716" />
	</node>
	<node lat="61.40530555720212" lon="7.374147214982219" id="-31089">
		<tag k="historic" v="shieling" />
		<tag k="name" v="Kolstad" />
		<tag k="place" v="isolated_dwelling" />
		<tag k="ssr:stedsnr" v="190722" />
	</node>
	<node lat="61.44850555247922" lon="7.4544611103393565" id="-31090">
		<tag k="alt_name" v="Bøen" />
		<tag k="name" v="Bringebøen" />
		<tag k="place" v="farm" />
		<tag k="ssr:stedsnr" v="190741" />
	</node>
	<node lat="61.50402429592218" lon="7.37986872410237" id="-31107">
		<tag k="fixme" v="consider place=hamlet" />
		<tag k="name" v="Kilen" />
		<tag k="place" v="farm" />
		<tag k="ssr:stedsnr" v="192404" />
	</node>
	<node lat="61.55033333771524" lon="7.5827694449101966" id="-31112">
		<tag k="historic" v="shieling" />
		<tag k="name" v="Osen" />
		<tag k="place" v="isolated_dwelling" />
		<tag k="ssr:stedsnr" v="192562" />
	</node>
	<node lat="61.50492890375137" lon="6.985877140128416" id="-31116">
		<tag k="name" v="Stølen" />
		<tag k="place" v="farm" />
		<tag k="ssr:stedsnr" v="192588" />
	</node>
	<node lat="61.52623333609796" lon="7.62021389248021" id="-31118">
		<tag k="alt_name" v="Rebnisli" />
		<tag k="historic" v="shieling" />
		<tag k="name" v="Rebnislii" />
		<tag k="place" v="isolated_dwelling" />
		<tag k="ssr:stedsnr" v="192455" />
	</node>
	<node lat="61.52161389329679" lon="7.441091674537374" id="-31119">
		<tag k="alt_name" v="Kringla" />
		<tag k="historic" v="shieling" />
		<tag k="name" v="Kringlo" />
		<tag k="place" v="isolated_dwelling" />
		<tag k="ssr:stedsnr" v="192460" />
	</node>
	<node lat="61.51284999734874" lon="7.242199990959221" id="-31133">
		<tag k="alt_name" v="Humpedalen" />
		<tag k="historic" v="shieling" />
		<tag k="name" v="Hompedalen" />
		<tag k="place" v="isolated_dwelling" />
		<tag k="ssr:stedsnr" v="192659" />
	</node>
	<node lat="61.60785555365544" lon="7.297663896294079" id="-31135">
		<tag k="name" v="Nybø" />
		<tag k="place" v="farm" />
		<tag k="ssr:stedsnr" v="192671" />
	</node>
	<node lat="61.59524999755168" lon="7.27764166310529" id="-31136">
		<tag k="name" v="Sagarøy" />
		<tag k="place" v="farm" />
		<tag k="ssr:stedsnr" v="192678" />
	</node>
	<node lat="61.5882555573336" lon="7.285077776935066" id="-31140">
		<tag k="name" v="Moen" />
		<tag k="place" v="farm" />
		<tag k="ssr:stedsnr" v="192713" />
	</node>
	<node lat="61.651575001628906" lon="7.279499999311946" id="-31143">
		<tag k="historic" v="shieling" />
		<tag k="name" v="Berget" />
		<tag k="place" v="isolated_dwelling" />
		<tag k="ssr:stedsnr" v="192746" />
	</node>
	<node lat="61.66006258486462" lon="7.279197455569311" id="-31145">
		<tag k="alt_name" v="Mjelvær" />
		<tag k="fixme" v="consider place=hamlet" />
		<tag k="name" v="Mjølver" />
		<tag k="place" v="farm" />
		<tag k="ssr:stedsnr" v="192765" />
	</node>
	<node lat="61.41352222033924" lon="7.494150003878701" id="-31168">
		<tag k="name" v="Øygarden" />
		<tag k="place" v="farm" />
		<tag k="ssr:stedsnr" v="207864" />
	</node>
	<node lat="61.661474999048885" lon="7.281733336213071" id="-31218">
		<tag k="historic" v="shieling" />
		<tag k="name" v="Gardstølane" />
		<tag k="place" v="isolated_dwelling" />
		<tag k="ssr:stedsnr" v="210422" />
	</node>
	<node lat="61.299802782114305" lon="7.198900000852539" id="-31230">
		<tag k="name" v="Hestnes" />
		<tag k="place" v="quarter" />
		<tag k="ssr:stedsnr" v="296000" />
	</node>
	<node lat="61.40455238919434" lon="7.407552090451023" id="-31232">
		<tag k="name" v="Hagen" />
		<tag k="place" v="isolated_dwelling" />
		<tag k="ssr:stedsnr" v="297591" />
	</node>
	<node lat="61.39822777655124" lon="7.3867944426164724" id="-31233">
		<tag k="name" v="Rappatun" />
		<tag k="place" v="isolated_dwelling" />
		<tag k="ssr:stedsnr" v="297593" />
	</node>
	<node lat="61.495752998089635" lon="7.356680569786819" id="-31235">
		<tag k="historic" v="shieling" />
		<tag k="name" v="Fivla" />
		<tag k="place" v="isolated_dwelling" />
		<tag k="ssr:stedsnr" v="311334" />
	</node>
	<node lat="61.4053757546624" lon="7.281375119148334" id="-31241">
		<tag k="alt_name" v="Røneid;Ronnei;Rønnei;Rønneid" />
		<tag k="fixme" v="consider place=hamlet" />
		<tag k="loc_name" v="Ronnøy;Rånøy" />
		<tag k="name" v="Rånnøy" />
		<tag k="place" v="farm" />
		<tag k="ssr:stedsnr" v="311001" />
	</node>
	<node lat="61.45607222446525" lon="7.286141665545866" id="-31246">
		<tag k="historic" v="shieling" />
		<tag k="name" v="Rydalen" />
		<tag k="place" v="isolated_dwelling" />
		<tag k="ssr:stedsnr" v="311114" />
	</node>
	<node lat="61.32186944653299" lon="7.204541669933546" id="-31250">
		<tag k="name" v="Nondal" />
		<tag k="place" v="farm" />
		<tag k="ssr:stedsnr" v="311442" />
	</node>
	<node lat="61.35772222644211" lon="7.221344436634465" id="-31255">
		<tag k="historic" v="shieling" />
		<tag k="name" v="Skisete" />
		<tag k="place" v="isolated_dwelling" />
		<tag k="ssr:stedsnr" v="311499" />
	</node>
	<node lat="61.29778333118111" lon="7.425108331785915" id="-31261">
		<tag k="alt_name" v="Dalastøl" />
		<tag k="historic" v="shieling" />
		<tag k="name" v="Dalastølen" />
		<tag k="place" v="isolated_dwelling" />
		<tag k="ssr:stedsnr" v="311631" />
	</node>
	<node lat="61.349541670052254" lon="7.393583336056521" id="-31265">
		<tag k="fixme" v="consider place=hamlet" />
		<tag k="name" v="Kroken" />
		<tag k="place" v="village" />
		<tag k="ssr:stedsnr" v="311666" />
	</node>
	<node lat="61.355372855665" lon="7.397141313146698" id="-31266">
		<tag k="alt_name" v="Låven" />
		<tag k="fixme" v="consider place=hamlet" />
		<tag k="name" v="Låen" />
		<tag k="place" v="farm" />
		<tag k="ssr:stedsnr" v="311737" />
	</node>
	<node lat="61.416572223785536" lon="7.439308338748452" id="-31267">
		<tag k="name" v="Myrheim" />
		<tag k="place" v="farm" />
		<tag k="ssr:stedsnr" v="311739" />
	</node>
	<node lat="61.403824796652124" lon="7.400515815531683" id="-31269">
		<tag k="fixme" v="consider place=hamlet" />
		<tag k="name" v="Urdi" />
		<tag k="place" v="farm" />
		<tag k="ssr:stedsnr" v="311766" />
	</node>
	<node lat="61.54623889335445" lon="7.890983336642583" id="-31283">
		<tag k="historic" v="shieling" />
		<tag k="name" v="Korpen" />
		<tag k="place" v="isolated_dwelling" />
		<tag k="ssr:stedsnr" v="313344" />
	</node>
	<node lat="61.53235401073362" lon="7.720906294594938" id="-31284">
		<tag k="alt_name" v="Holmestad" />
		<tag k="fixme" v="consider place=hamlet" />
		<tag k="name" v="Holmastad" />
		<tag k="place" v="farm" />
		<tag k="ssr:stedsnr" v="313352" />
	</node>
	<node lat="61.53995833636058" lon="7.7198138937787" id="-31285">
		<tag k="name" v="Bjørk" />
		<tag k="place" v="farm" />
		<tag k="ssr:stedsnr" v="313354" />
	</node>
	<node lat="61.522658103790256" lon="7.26820513480896" id="-31293">
		<tag k="fixme" v="consider place=hamlet" />
		<tag k="name" v="Myklemyr" />
		<tag k="place" v="farm" />
		<tag k="ssr:stedsnr" v="313572" />
	</node>
	<node lat="61.671640842618295" lon="7.3269297411857535" id="-31298">
		<tag k="alt_name" v="Nedre Fåberg" />
		<tag k="fixme" v="consider place=hamlet" />
		<tag k="name" v="Fåberg" />
		<tag k="place" v="farm" />
		<tag k="ssr:stedsnr" v="313740" />
	</node>
	<node lat="61.66914999722436" lon="7.308063896618243" id="-31299">
		<tag k="historic" v="shieling" />
		<tag k="name" v="Liastølen" />
		<tag k="place" v="isolated_dwelling" />
		<tag k="ssr:stedsnr" v="313742" />
	</node>
	<node lat="61.597363884449415" lon="7.289511105795892" id="-31301">
		<tag k="name" v="Nystøl" />
		<tag k="place" v="farm" />
		<tag k="ssr:stedsnr" v="313646" />
	</node>
	<node lat="61.56638611101984" lon="6.9092305601177335" id="-31305">
		<tag k="alt_name" v="Breateigen" />
		<tag k="name" v="Breateigane" />
		<tag k="place" v="locality" />
		<tag k="ssr:stedsnr" v="313896" />
	</node>
	<node lat="61.516477774462004" lon="7.673263897642054" id="-31306">
		<tag k="historic" v="shieling" />
		<tag k="name" v="Lønningane" />
		<tag k="place" v="isolated_dwelling" />
		<tag k="ssr:stedsnr" v="314480" />
	</node>
	<node lat="61.516377777151476" lon="7.366194444789549" id="-31307">
		<tag k="alt_name" v="Breisete" />
		<tag k="historic" v="shieling" />
		<tag k="name" v="Breidsete" />
		<tag k="place" v="isolated_dwelling" />
		<tag k="ssr:stedsnr" v="314486" />
	</node>
	<node lat="61.53591388711623" lon="7.715105547536935" id="-31308">
		<tag k="name" v="Bjørkahaugen" />
		<tag k="place" v="farm" />
		<tag k="ssr:stedsnr" v="314453" />
	</node>
	<node lat="61.348625001271685" lon="7.338738885705417" id="-31334">
		<tag k="historic" v="shieling" />
		<tag k="name" v="Eikjastølen" />
		<tag k="place" v="isolated_dwelling" />
		<tag k="ssr:stedsnr" v="329527" />
	</node>
	<node lat="61.41559760214586" lon="7.314645855137309" id="-31335">
		<tag k="fixme" v="consider place=hamlet" />
		<tag k="name" v="Belgen" />
		<tag k="place" v="farm" />
		<tag k="ssr:stedsnr" v="329535" />
	</node>
	<node lat="61.33488333308792" lon="7.292350006374515" id="-31342">
		<tag k="historic" v="shieling" />
		<tag k="name" v="Gardstølen" />
		<tag k="place" v="isolated_dwelling" />
		<tag k="ssr:stedsnr" v="329650" />
	</node>
	<node lat="61.29952828156575" lon="7.231580772830171" id="-31377">
		<tag k="alt_name" v="Bjørntun" />
		<tag k="fixme" v="consider place=hamlet" />
		<tag k="name" v="Bjørnetun" />
		<tag k="place" v="farm" />
		<tag k="ssr:stedsnr" v="330885" />
	</node>
	<node lat="61.407058333620775" lon="7.41453334078562" id="-31394">
		<tag k="name" v="Øvreng" />
		<tag k="place" v="isolated_dwelling" />
		<tag k="ssr:stedsnr" v="358639" />
	</node>
	<node lat="61.36546388869988" lon="7.215844452950291" id="-31395">
		<tag k="historic" v="shieling" />
		<tag k="name" v="Dale" />
		<tag k="place" v="isolated_dwelling" />
		<tag k="ssr:stedsnr" v="371049" />
	</node>
	<node lat="61.35103095679692" lon="7.346103413230251" id="-31396">
		<tag k="alt_name" v="Eikjo, in" />
		<tag k="fixme" v="consider place=hamlet" />
		<tag k="name" v="Indre Eikjo" />
		<tag k="place" v="farm" />
		<tag k="ssr:stedsnr" v="371676" />
	</node>
	<node lat="61.46760000158584" lon="7.4590166678551535" id="-31399">
		<tag k="name" v="Øygarden" />
		<tag k="place" v="farm" />
		<tag k="ssr:stedsnr" v="371286" />
	</node>
	<node lat="61.48520833299653" lon="7.451074992191165" id="-31400">
		<tag k="historic" v="shieling" />
		<tag k="name" v="Bjørnskori" />
		<tag k="place" v="isolated_dwelling" />
		<tag k="ssr:stedsnr" v="371298" />
	</node>
	<node lat="61.49543462070553" lon="7.594259901417539" id="-31401">
		<tag k="fixme" v="consider place=hamlet" />
		<tag k="name" v="Hauge" />
		<tag k="place" v="farm" />
		<tag k="ssr:stedsnr" v="371248" />
	</node>
	<node lat="61.35304302908687" lon="7.247958039326747" id="-31402">
		<tag k="fixme" v="consider place=hamlet" />
		<tag k="name" v="Sønnesyn" />
		<tag k="place" v="farm" />
		<tag k="ssr:stedsnr" v="371420" />
	</node>
	<node lat="61.36062310087138" lon="7.258208188676051" id="-31404">
		<tag k="fixme" v="consider place=hamlet" />
		<tag k="name" v="Lunde" />
		<tag k="place" v="farm" />
		<tag k="ssr:stedsnr" v="371438" />
	</node>
	<node lat="61.48524319200589" lon="7.440731871463263" id="-31411">
		<tag k="fixme" v="consider place=hamlet" />
		<tag k="name" v="Kolstad" />
		<tag k="place" v="farm" />
		<tag k="ssr:stedsnr" v="372285" />
	</node>
	<node lat="61.31726975167547" lon="7.229712042886784" id="-31416">
		<tag k="fixme" v="consider place=hamlet" />
		<tag k="name" v="Kjos" />
		<tag k="place" v="farm" />
		<tag k="ssr:stedsnr" v="372404" />
	</node>
	<node lat="61.31855105785692" lon="7.24917883187274" id="-31417">
		<tag k="fixme" v="consider place=hamlet" />
		<tag k="name" v="Vetleskog" />
		<tag k="place" v="farm" />
		<tag k="ssr:stedsnr" v="372407" />
	</node>
	<node lat="61.31049546718009" lon="7.169235944265288" id="-31418">
		<tag k="alt_name" v="Båsåker" />
		<tag k="fixme" v="consider place=hamlet" />
		<tag k="name" v="Bårsko" />
		<tag k="place" v="farm" />
		<tag k="ssr:stedsnr" v="372394" />
	</node>
	<node lat="61.30231687110688" lon="7.232536590748017" id="-31419">
		<tag k="alt_name" v="Øvrebø" />
		<tag k="fixme" v="consider place=hamlet" />
		<tag k="name" v="Øvrabø" />
		<tag k="place" v="farm" />
		<tag k="ssr:stedsnr" v="372452" />
	</node>
	<node lat="61.335658331809746" lon="7.26438889108637" id="-31420">
		<tag k="alt_name" v="Tverberg" />
		<tag k="name" v="Tverrberg" />
		<tag k="place" v="farm" />
		<tag k="ssr:stedsnr" v="372497" />
	</node>
	<node lat="61.31550555612543" lon="7.236847228203333" id="-31421">
		<tag k="alt_name" v="Kjosastølen" />
		<tag k="historic" v="shieling" />
		<tag k="name" v="Kjosstølen" />
		<tag k="place" v="isolated_dwelling" />
		<tag k="ssr:stedsnr" v="372412" />
	</node>
	<node lat="61.23633611211395" lon="7.384988881259969" id="-31428">
		<tag k="name" v="Kvalen" />
		<tag k="place" v="locality" />
		<tag k="ssr:stedsnr" v="373376" />
	</node>
	<node lat="61.21548611420654" lon="7.419161108777643" id="-31430">
		<tag k="alt_name" v="Trondskogstøl" />
		<tag k="historic" v="shieling" />
		<tag k="name" v="Trondskogstølen" />
		<tag k="place" v="isolated_dwelling" />
		<tag k="ssr:stedsnr" v="373383" />
	</node>
	<node lat="61.55383888629957" lon="7.75957499494717" id="-31439">
		<tag k="historic" v="shieling" />
		<tag k="name" v="Sveinsøystølen" />
		<tag k="place" v="isolated_dwelling" />
		<tag k="ssr:stedsnr" v="374281" />
	</node>
	<node lat="61.56533889258084" lon="7.776474999945422" id="-31440">
		<tag k="historic" v="shieling" />
		<tag k="name" v="Øvstestølen" />
		<tag k="place" v="isolated_dwelling" />
		<tag k="ssr:stedsnr" v="374331" />
	</node>
	<node lat="61.550611110479" lon="7.7019527816689966" id="-31443">
		<tag k="historic" v="shieling" />
		<tag k="name" v="Smole" />
		<tag k="place" v="isolated_dwelling" />
		<tag k="ssr:stedsnr" v="374517" />
	</node>
	<node lat="61.551724995652336" lon="7.710338886326389" id="-31444">
		<tag k="historic" v="shieling" />
		<tag k="name" v="Nysethaugen" />
		<tag k="place" v="isolated_dwelling" />
		<tag k="ssr:stedsnr" v="374519" />
	</node>
	<node lat="61.51148888806554" lon="7.334852781239201" id="-31446">
		<tag k="historic" v="shieling" />
		<tag k="name" v="Vårstølen" />
		<tag k="place" v="isolated_dwelling" />
		<tag k="ssr:stedsnr" v="374599" />
	</node>
	<node lat="61.566852078392806" lon="7.305879627611079" id="-31456">
		<tag k="fixme" v="consider place=hamlet" />
		<tag k="name" v="Åsen" />
		<tag k="place" v="farm" />
		<tag k="ssr:stedsnr" v="374661" />
	</node>
	<node lat="61.557105555930846" lon="7.305150002027542" id="-31458">
		<tag k="name" v="Neset" />
		<tag k="place" v="farm" />
		<tag k="ssr:stedsnr" v="374673" />
	</node>
	<node lat="61.495503622316754" lon="7.355839176909785" id="-31460">
		<tag k="fixme" v="consider tourism=alpine_hut or tourism=chalet" />
		<tag k="name" v="Fivla" />
		<tag k="ssr:stedsnr" v="388131" />
		<tag k="tourism" v="wilderness_hut" />
	</node>
	<node lat="61.50691389190523" lon="7.878575000317919" id="-31495">
		<tag k="name" v="Ekrehytta" />
		<tag k="place" v="isolated_dwelling" />
		<tag k="ssr:stedsnr" v="495338" />
	</node>
	<node lat="61.31895555755072" lon="7.227269448029489" id="-31500">
		<tag k="name" v="Grøteig" />
		<tag k="place" v="farm" />
		<tag k="ssr:stedsnr" v="389635" />
	</node>
	<node lat="61.63514444502883" lon="7.220030547134687" id="-31503">
		<tag k="amenity" v="school" />
		<tag k="name" v="Krundalen skule" />
		<tag k="ssr:stedsnr" v="389661" />
	</node>
	<node lat="61.494180556389516" lon="7.003155557227682" id="-31520">
		<tag k="name" v="Teigen" />
		<tag k="place" v="farm" />
		<tag k="ssr:stedsnr" v="390178" />
	</node>
	<node lat="61.4000166643151" lon="7.388227776742612" id="-31532">
		<tag k="name" v="Lindheim" />
		<tag k="place" v="farm" />
		<tag k="ssr:stedsnr" v="390668" />
	</node>
	<node lat="61.63156944563528" lon="7.211788891299877" id="-31545">
		<tag k="historic" v="shieling" />
		<tag k="name" v="Snøtunstølen" />
		<tag k="place" v="isolated_dwelling" />
		<tag k="ssr:stedsnr" v="390973" />
	</node>
	<node lat="61.315394446799026" lon="7.201086118653189" id="-31548">
		<tag k="fixme" v="consider place=hamlet" />
		<tag k="name" v="Hafslo" />
		<tag k="place" v="village" />
		<tag k="ssr:stedsnr" v="391958" />
	</node>
	<node lat="61.35790277588518" lon="7.264544450104679" id="-31549">
		<tag k="name" v="Moseng" />
		<tag k="place" v="farm" />
		<tag k="ssr:stedsnr" v="392670" />
	</node>
	<node lat="61.412919533036955" lon="7.309886470776974" id="-31560">
		<tag k="alt_name" v="Åberge" />
		<tag k="fixme" v="consider place=hamlet" />
		<tag k="name" v="Åbyrge" />
		<tag k="place" v="farm" />
		<tag k="ssr:stedsnr" v="433021" />
	</node>
	<node lat="61.322761113932906" lon="7.203352778944483" id="-31564">
		<tag k="name" v="Stemmingo" />
		<tag k="place" v="farm" />
		<tag k="ssr:stedsnr" v="432461" />
	</node>
	<node lat="61.3298166647974" lon="7.325411111461361" id="-31568">
		<tag k="name" v="Eikjavarden" />
		<tag k="place" v="farm" />
		<tag k="ssr:stedsnr" v="432364" />
	</node>
	<node lat="61.32619791968858" lon="7.205847021514093" id="-31569">
		<tag k="alt_name" v="Hauge" />
		<tag k="fixme" v="consider place=hamlet" />
		<tag k="name" v="Haugo" />
		<tag k="place" v="farm" />
		<tag k="ssr:stedsnr" v="432368" />
	</node>
	<node lat="61.338205553462785" lon="7.209547218246755" id="-31572">
		<tag k="historic" v="shieling" />
		<tag k="name" v="Modvo" />
		<tag k="place" v="isolated_dwelling" />
		<tag k="ssr:stedsnr" v="433486" />
	</node>
	<node lat="61.35516701717207" lon="7.345523922002799" id="-31573">
		<tag k="fixme" v="consider place=hamlet" />
		<tag k="name" v="Notedal" />
		<tag k="place" v="farm" />
		<tag k="ssr:stedsnr" v="432656" />
	</node>
	<node lat="61.34957514247035" lon="7.397846593704596" id="-31574">
		<tag k="alt_name" v="Kroken, indre" />
		<tag k="fixme" v="consider place=hamlet" />
		<tag k="name" v="Indre Kroken" />
		<tag k="place" v="farm" />
		<tag k="ssr:stedsnr" v="432670" />
	</node>
	<node lat="61.31459044020308" lon="7.364306724189112" id="-31582">
		<tag k="name" v="Loi" />
		<tag k="place" v="farm" />
		<tag k="ssr:stedsnr" v="433639" />
	</node>
	<node lat="61.48397222462013" lon="7.184244439376282" id="-31583">
		<tag k="name" v="Vasstølen" />
		<tag k="place" v="locality" />
		<tag k="ssr:stedsnr" v="433169" />
	</node>
	<node lat="61.4881385254462" lon="7.26140443720306" id="-31585">
		<tag k="fixme" v="consider place=hamlet" />
		<tag k="name" v="Alsmo" />
		<tag k="place" v="farm" />
		<tag k="ssr:stedsnr" v="433173" />
	</node>
	<node lat="61.4928861113915" lon="7.417677786509679" id="-31586">
		<tag k="alt_name" v="Skaarstølen" />
		<tag k="historic" v="shieling" />
		<tag k="name" v="Skorastølen" />
		<tag k="place" v="isolated_dwelling" />
		<tag k="ssr:stedsnr" v="433253" />
	</node>
	<node lat="61.31239444085776" lon="7.3755916661346586" id="-31589">
		<tag k="historic" v="shieling" />
		<tag k="name" v="Lindeflaten" />
		<tag k="place" v="isolated_dwelling" />
		<tag k="ssr:stedsnr" v="433590" />
	</node>
	<node lat="61.55603611059924" lon="7.767691667948247" id="-31599">
		<tag k="alt_name" v="Ormelii, nedre;Nedre Ormelii;Nedre Ormeli" />
		<tag k="name" v="Nedreli" />
		<tag k="place" v="farm" />
		<tag k="ssr:stedsnr" v="435289" />
	</node>
	<node lat="61.559108329889725" lon="7.766972220528107" id="-31600">
		<tag k="alt_name" v="Ormelii, øvre;Øvre Ormelii;Øvre Ormeli" />
		<tag k="name" v="Øvreli" />
		<tag k="place" v="farm" />
		<tag k="ssr:stedsnr" v="435290" />
	</node>
</osm>
