<?xml version="1.0" encoding="UTF-8"?>
<osm version="0.6" generator="osmapis">
	<node lat="61.44063333310813" lon="7.093930562464653" id="-31052">
		<tag k="name" v="Holmen" />
		<tag k="place" v="islet" />
		<tag k="ssr:stedsnr" v="7119" />
	</node>
	<node lat="61.474577778508404" lon="7.469408324622451" id="-31053">
		<tag k="name" v="Hersetelvi" />
		<tag k="ssr:stedsnr" v="7299" />
		<tag k="waterway" v="stream" />
	</node>
	<node lat="61.41614002622137" lon="7.030847451696129" id="-31063">
		<tag k="name" v="Kjerringvatni" />
		<tag k="natural" v="water" />
		<tag k="ssr:stedsnr" v="8121" />
		<tag k="water" v="lake" />
	</node>
	<node lat="61.34398611143174" lon="7.573394437319535" id="-31073">
		<tag k="name" v="Tverrelvane" />
		<tag k="ssr:stedsnr" v="8648" />
		<tag k="waterway" v="river" />
	</node>
	<node lat="61.52868611317708" lon="7.990066665145417" id="-31085">
		<tag k="name" v="Tægja" />
		<tag k="natural" v="water" />
		<tag k="ssr:stedsnr" v="10345" />
	</node>
	<node lat="61.63987777476986" lon="7.792800004545835" id="-31086">
		<tag k="name" v="Vetledøla" />
		<tag k="ssr:stedsnr" v="10443" />
		<tag k="waterway" v="stream" />
	</node>
	<node lat="61.659111114478115" lon="7.75015000092251" id="-31087">
		<tag k="name" v="Fivlemyrane" />
		<tag k="natural" v="water" />
		<tag k="ssr:stedsnr" v="10483" />
		<tag k="water" v="lake" />
	</node>
	<node lat="61.68049444093514" lon="7.395419440481116" id="-31091">
		<tag k="name" v="Bymannsfossen" />
		<tag k="natural" v="waterfall" />
		<tag k="ssr:stedsnr" v="10502" />
	</node>
	<node lat="61.460202779416036" lon="7.200761107981403" id="-31107">
		<tag k="name" v="Lammaholsgrovi" />
		<tag k="ssr:stedsnr" v="24990" />
		<tag k="waterway" v="stream" />
	</node>
	<node lat="61.74053055625062" lon="7.339516664088376" id="-31108">
		<tag k="name" v="Øykeskredneset" />
		<tag k="natural" v="cape" />
		<tag k="ssr:stedsnr" v="25178" />
	</node>
	<node lat="61.620230559833324" lon="7.28224999890929" id="-31114">
		<tag k="name" v="Johansøy" />
		<tag k="natural" v="cape" />
		<tag k="ssr:stedsnr" v="25629" />
	</node>
	<node lat="61.22614444237429" lon="7.335569446530384" id="-31128">
		<tag k="name" v="Ytre Rettarhamngrovi" />
		<tag k="ssr:stedsnr" v="26420" />
		<tag k="waterway" v="stream" />
	</node>
	<node lat="61.22815555589665" lon="7.336544453535144" id="-31129">
		<tag k="name" v="Indre Rettarhamngrovi" />
		<tag k="ssr:stedsnr" v="26426" />
		<tag k="waterway" v="stream" />
	</node>
	<node lat="61.41298333738605" lon="7.228413892560602" id="-31130">
		<tag k="name" v="Kammagrovi" />
		<tag k="ssr:stedsnr" v="26486" />
		<tag k="waterway" v="stream" />
	</node>
	<node lat="61.665341666689926" lon="7.2879472234529805" id="-31144">
		<tag k="name" v="Slipesteingrovi" />
		<tag k="ssr:stedsnr" v="27514" />
		<tag k="waterway" v="stream" />
	</node>
	<node lat="61.2606527787247" lon="7.392044452839339" id="-31155">
		<tag k="name" v="Vetlemannsgjeli" />
		<tag k="ssr:stedsnr" v="237221" />
		<tag k="waterway" v="stream" />
	</node>
	<node lat="61.40745000286118" lon="7.24127778665962" id="-31165">
		<tag k="alt_name" v="Gaupneelvi;Vårstølselvi" />
		<tag k="name" v="Kvernelvi" />
		<tag k="ssr:stedsnr" v="68001" />
		<tag k="waterway" v="stream" />
	</node>
	<node lat="61.31033611248954" lon="7.082180553496451" id="-31174">
		<tag k="name" v="Noselvi" />
		<tag k="ssr:stedsnr" v="68419" />
		<tag k="waterway" v="stream" />
	</node>
	<node lat="61.684272226096844" lon="7.492238894779387" id="-31187">
		<tag k="name" v="Greindøla" />
		<tag k="ssr:stedsnr" v="70493" />
		<tag k="waterway" v="river" />
	</node>
	<node lat="61.69397500289613" lon="7.768924991975324" id="-31197">
		<tag k="name" v="Illvasselvi" />
		<tag k="ssr:stedsnr" v="71430" />
		<tag k="waterway" v="stream" />
	</node>
	<node lat="61.72835743719543" lon="7.785865290266877" id="-31198">
		<tag k="name" v="Illvatnet" />
		<tag k="natural" v="water" />
		<tag k="ssr:stedsnr" v="71441" />
		<tag k="water" v="lake" />
	</node>
	<node lat="61.540399995768446" lon="7.462969447696781" id="-31199">
		<tag k="name" v="Kongsdalsvatnet" />
		<tag k="natural" v="water" />
		<tag k="ssr:stedsnr" v="71446" />
	</node>
	<node lat="61.68515555548346" lon="7.7512722212702725" id="-31201">
		<tag k="name" v="Nørdstedøla" />
		<tag k="ssr:stedsnr" v="71512" />
		<tag k="waterway" v="river" />
	</node>
	<node lat="61.66137499879406" lon="7.896224996753339" id="-31202">
		<tag k="name" v="Blankåtjørni" />
		<tag k="natural" v="water" />
		<tag k="ssr:stedsnr" v="71521" />
	</node>
	<node lat="61.633486109682586" lon="7.575136112102626" id="-31203">
		<tag k="alt_name" v="Rausdalsvatnet, heimsta" />
		<tag k="name" v="Heimsta Rausdalsvatnet" />
		<tag k="natural" v="water" />
		<tag k="ssr:stedsnr" v="71535" />
	</node>
	<node lat="61.65883400357514" lon="7.511467266027179" id="-31204">
		<tag k="name" v="Martadalsvatnet" />
		<tag k="natural" v="water" />
		<tag k="ssr:stedsnr" v="71547" />
		<tag k="water" v="lake" />
	</node>
	<node lat="61.60175664440013" lon="7.549640059804542" id="-31207">
		<tag k="name" v="Austratjørnene" />
		<tag k="natural" v="water" />
		<tag k="ssr:stedsnr" v="71593" />
		<tag k="water" v="lake" />
	</node>
	<node lat="61.55522500389458" lon="7.264261102146921" id="-31211">
		<tag k="name" v="Vassdøla" />
		<tag k="ssr:stedsnr" v="71708" />
		<tag k="waterway" v="stream" />
	</node>
	<node lat="61.728541665218444" lon="7.350047223134456" id="-31221">
		<tag k="name" v="Saltkjerneset" />
		<tag k="natural" v="cape" />
		<tag k="ssr:stedsnr" v="86192" />
	</node>
	<node lat="61.47901944749746" lon="7.2244222290997575" id="-31224">
		<tag k="name" v="Kloppegrovi" />
		<tag k="ssr:stedsnr" v="86326" />
		<tag k="waterway" v="stream" />
	</node>
	<node lat="61.69598333124337" lon="7.299602771384523" id="-31229">
		<tag k="name" v="Rømmesvagrovi" />
		<tag k="ssr:stedsnr" v="86610" />
		<tag k="waterway" v="river" />
	</node>
	<node lat="61.45653889200934" lon="7.4951222189675475" id="-31242">
		<tag k="name" v="Ottagrovi" />
		<tag k="ssr:stedsnr" v="86883" />
		<tag k="waterway" v="stream" />
	</node>
	<node lat="61.40925277589193" lon="7.358358331275163" id="-31245">
		<tag k="name" v="Høyheimstjørni" />
		<tag k="natural" v="water" />
		<tag k="ssr:stedsnr" v="87516" />
	</node>
	<node lat="61.37093333501055" lon="7.283769444017442" id="-31263">
		<tag k="name" v="Geitaneset" />
		<tag k="natural" v="cape" />
		<tag k="ssr:stedsnr" v="89622" />
	</node>
	<node lat="61.447444448513124" lon="7.099597222093603" id="-31273">
		<tag k="name" v="Svori" />
		<tag k="ssr:stedsnr" v="250083" />
		<tag k="waterway" v="stream" />
	</node>
	<node lat="61.328661111243484" lon="7.2334750001145816" id="-31283">
		<tag k="alt_name" v="Ildretjørni" />
		<tag k="name" v="Ildritjørni" />
		<tag k="natural" v="water" />
		<tag k="ssr:stedsnr" v="250386" />
	</node>
	<node lat="61.30665277845708" lon="7.103030555116081" id="-31287">
		<tag k="name" v="Timmeråsgrovi" />
		<tag k="ssr:stedsnr" v="250415" />
		<tag k="waterway" v="stream" />
	</node>
	<node lat="61.350036899773364" lon="7.154014214344908" id="-31289">
		<tag k="name" v="Kommetjørni" />
		<tag k="natural" v="water" />
		<tag k="ssr:stedsnr" v="250430" />
	</node>
	<node lat="61.45239722396393" lon="8.007136119159675" id="-31291">
		<tag k="name" v="Uradøla" />
		<tag k="ssr:stedsnr" v="250497" />
		<tag k="waterway" v="stream" />
	</node>
	<node lat="61.444286112976265" lon="8.042083336207016" id="-31292">
		<tag k="name" v="Hurrungbrestvatnet" />
		<tag k="natural" v="water" />
		<tag k="ssr:stedsnr" v="250498" />
	</node>
	<node lat="61.32492221916178" lon="7.050194447584287" id="-31294">
		<tag k="name" v="Småtjørn" />
		<tag k="natural" v="water" />
		<tag k="ssr:stedsnr" v="250471" />
	</node>
	<node lat="61.461333330642425" lon="7.7338000019200095" id="-31297">
		<tag k="name" v="Tverrelvi" />
		<tag k="ssr:stedsnr" v="250546" />
		<tag k="waterway" v="stream" />
	</node>
	<node lat="61.30741389295686" lon="7.369219453108327" id="-31304">
		<tag k="name" v="Logrovi" />
		<tag k="ssr:stedsnr" v="250606" />
		<tag k="waterway" v="stream" />
	</node>
	<node lat="61.48188901147617" lon="8.204167434313819" id="-31315">
		<tag k="name" v="Rauddalsvatnet" />
		<tag k="natural" v="water" />
		<tag k="ssr:stedsnr" v="250849" />
		<tag k="water" v="lake" />
	</node>
	<node lat="61.483436113854154" lon="6.957927781179939" id="-31316">
		<tag k="name" v="Svardøla" />
		<tag k="ssr:stedsnr" v="250804" />
		<tag k="waterway" v="river" />
	</node>
	<node lat="61.44159802064327" lon="8.208329015539976" id="-31317">
		<tag k="alt_name" v="Mjølkedalsvatnet, øvre" />
		<tag k="name" v="Øvre Mjølkedalsvatnet" />
		<tag k="natural" v="water" />
		<tag k="ssr:stedsnr" v="250830" />
		<tag k="water" v="lake" />
	</node>
	<node lat="61.43644444853966" lon="6.941330559463885" id="-31318">
		<tag k="name" v="Tufteelvi" />
		<tag k="ssr:stedsnr" v="250910" />
		<tag k="waterway" v="stream" />
	</node>
	<node lat="61.293986114499575" lon="7.166599995508182" id="-31329">
		<tag k="name" v="Osen" />
		<tag k="natural" v="bay" />
		<tag k="ssr:stedsnr" v="128313" />
	</node>
	<node lat="61.47834166463256" lon="7.839880547067436" id="-31333">
		<tag k="alt_name" v="Heimste Skarstølsvatnet" />
		<tag k="name" v="Heimste Skagastølsvatnet" />
		<tag k="natural" v="water" />
		<tag k="ssr:stedsnr" v="128519" />
	</node>
	<node lat="61.464461111128784" lon="7.994983332272109" id="-31334">
		<tag k="name" v="Kalvedøla" />
		<tag k="ssr:stedsnr" v="128533" />
		<tag k="waterway" v="stream" />
	</node>
	<node lat="61.59696111301722" lon="7.746775007582987" id="-31341">
		<tag k="name" v="Åseteelvi" />
		<tag k="ssr:stedsnr" v="252430" />
		<tag k="waterway" v="stream" />
	</node>
	<node lat="61.405283334624706" lon="7.253502770440176" id="-31343">
		<tag k="name" v="Strupagrovi" />
		<tag k="ssr:stedsnr" v="129006" />
		<tag k="waterway" v="stream" />
	</node>
	<node lat="61.3970972267515" lon="7.076094450566753" id="-31347">
		<tag k="name" v="Trånes" />
		<tag k="natural" v="cape" />
		<tag k="ssr:stedsnr" v="129041" />
	</node>
	<node lat="61.37546111278036" lon="7.258169449588617" id="-31350">
		<tag k="alt_name" v="Tverelvi" />
		<tag k="name" v="Tverrelvi" />
		<tag k="ssr:stedsnr" v="129051" />
		<tag k="waterway" v="stream" />
	</node>
	<node lat="61.472961109031914" lon="7.220124993469826" id="-31352">
		<tag k="name" v="Leirdøla" />
		<tag k="ssr:stedsnr" v="129084" />
		<tag k="waterway" v="river" />
	</node>
	<node lat="61.617174999873285" lon="7.768752780398524" id="-31353">
		<tag k="name" v="Kongsøyane" />
		<tag k="place" v="island" />
		<tag k="ssr:stedsnr" v="252402" />
	</node>
	<node lat="61.65650832889091" lon="7.456036103379996" id="-31363">
		<tag k="name" v="Klauvvatnet" />
		<tag k="natural" v="water" />
		<tag k="ssr:stedsnr" v="252462" />
	</node>
	<node lat="61.44566388683452" lon="7.983302774016967" id="-31365">
		<tag k="name" v="Maradøla" />
		<tag k="ssr:stedsnr" v="129518" />
		<tag k="waterway" v="stream" />
	</node>
	<node lat="61.4078222254887" lon="7.550963894842365" id="-31367">
		<tag k="alt_name" v="Sørheimselvvatnet, øvre" />
		<tag k="name" v="Øvsta Sørheimselvvatnet" />
		<tag k="natural" v="water" />
		<tag k="ssr:stedsnr" v="129727" />
	</node>
	<node lat="61.550141669232325" lon="7.251349997790689" id="-31371">
		<tag k="name" v="Vassdalsvatnet" />
		<tag k="natural" v="water" />
		<tag k="ssr:stedsnr" v="252630" />
	</node>
	<node lat="61.542955555361154" lon="6.93098611767801" id="-31376">
		<tag k="name" v="Sagafossen" />
		<tag k="natural" v="waterfall" />
		<tag k="ssr:stedsnr" v="130841" />
	</node>
	<node lat="61.51393055905291" lon="7.726002777188182" id="-31379">
		<tag k="name" v="Nausagrovi" />
		<tag k="ssr:stedsnr" v="131313" />
		<tag k="waterway" v="stream" />
	</node>
	<node lat="61.51238888451019" lon="7.255191670638001" id="-31389">
		<tag k="alt_name" v="Humpedøla" />
		<tag k="name" v="Hompedøla" />
		<tag k="ssr:stedsnr" v="131622" />
		<tag k="waterway" v="stream" />
	</node>
	<node lat="61.57093333723557" lon="7.045608332718361" id="-31391">
		<tag k="name" v="Røysedalsvatnet" />
		<tag k="natural" v="water" />
		<tag k="ssr:stedsnr" v="252639" />
	</node>
	<node lat="61.52109444329189" lon="7.252275008704854" id="-31404">
		<tag k="alt_name" v="Kvernadøla" />
		<tag k="name" v="Kvernelvi" />
		<tag k="ssr:stedsnr" v="252739" />
		<tag k="waterway" v="stream" />
	</node>
	<node lat="61.56966666550446" lon="7.8184249954288525" id="-31407">
		<tag k="name" v="Stølsdøla" />
		<tag k="ssr:stedsnr" v="253351" />
		<tag k="waterway" v="stream" />
	</node>
	<node lat="61.56555000001076" lon="7.916974997146182" id="-31410">
		<tag k="name" v="Tunga" />
		<tag k="natural" v="water" />
		<tag k="ssr:stedsnr" v="253289" />
	</node>
	<node lat="61.53498226953464" lon="8.00000588628912" id="-31415">
		<tag k="name" v="Hontrodi" />
		<tag k="natural" v="water" />
		<tag k="ssr:stedsnr" v="253424" />
	</node>
	<node lat="61.526658329866706" lon="7.990188883836491" id="-31416">
		<tag k="name" v="Kista" />
		<tag k="natural" v="water" />
		<tag k="ssr:stedsnr" v="253425" />
	</node>
	<node lat="61.54374166692487" lon="7.492174990888023" id="-31422">
		<tag k="name" v="Kaldrasvatnet" />
		<tag k="natural" v="water" />
		<tag k="ssr:stedsnr" v="253469" />
	</node>
	<node lat="61.517286110905225" lon="7.614325005578736" id="-31437">
		<tag k="alt_name" v="Skåragrovi" />
		<tag k="name" v="Skoragrovi" />
		<tag k="ssr:stedsnr" v="146117" />
		<tag k="waterway" v="stream" />
	</node>
	<node lat="61.28068055396597" lon="7.404666666040456" id="-31452">
		<tag k="name" v="Åsagrøvene" />
		<tag k="ssr:stedsnr" v="147308" />
		<tag k="waterway" v="stream" />
	</node>
	<node lat="61.21654166689617" lon="7.335347220014296" id="-31461">
		<tag k="name" v="Svagrovi" />
		<tag k="ssr:stedsnr" v="147409" />
		<tag k="waterway" v="stream" />
	</node>
	<node lat="61.444633334571996" lon="7.413583337747855" id="-31470">
		<tag k="name" v="Røssetelvi" />
		<tag k="ssr:stedsnr" v="147564" />
		<tag k="waterway" v="river" />
	</node>
	<node lat="61.49946944136069" lon="7.273097214794527" id="-31475">
		<tag k="name" v="Svagruineset" />
		<tag k="natural" v="cape" />
		<tag k="ssr:stedsnr" v="148008" />
	</node>
	<node lat="61.62728611377834" lon="7.210986104725266" id="-31479">
		<tag k="name" v="Leitegrovi" />
		<tag k="ssr:stedsnr" v="147964" />
		<tag k="waterway" v="stream" />
	</node>
	<node lat="61.393808331118684" lon="7.192077784194603" id="-31483">
		<tag k="name" v="Stora Saupsetelvi" />
		<tag k="ssr:stedsnr" v="148768" />
		<tag k="waterway" v="stream" />
	</node>
	<node lat="61.37455555534357" lon="7.0971666626016585" id="-31524">
		<tag k="name" v="Vikaelvi" />
		<tag k="ssr:stedsnr" v="267922" />
		<tag k="waterway" v="river" />
	</node>
	<node lat="61.60296667093444" lon="7.622738894685733" id="-31529">
		<tag k="name" v="Grasøygrovi" />
		<tag k="ssr:stedsnr" v="268271" />
		<tag k="waterway" v="stream" />
	</node>
	<node lat="61.414644445949264" lon="7.339911111932319" id="-31533">
		<tag k="name" v="Vassvollagrovi" />
		<tag k="ssr:stedsnr" v="268519" />
		<tag k="waterway" v="stream" />
	</node>
	<node lat="61.292963887300196" lon="7.367544437664192" id="-31536">
		<tag k="name" v="Kjøadalstjørni" />
		<tag k="natural" v="water" />
		<tag k="ssr:stedsnr" v="268349" />
	</node>
	<node lat="61.325013891243216" lon="7.106388886273153" id="-31548">
		<tag k="name" v="Telgneset" />
		<tag k="natural" v="cape" />
		<tag k="ssr:stedsnr" v="206883" />
	</node>
	<node lat="61.62386666656158" lon="7.296197228646928" id="-31560">
		<tag k="name" v="Stampegrovi" />
		<tag k="ssr:stedsnr" v="268833" />
		<tag k="waterway" v="stream" />
	</node>
	<node lat="61.75279999778969" lon="7.309355551645748" id="-31562">
		<tag k="name" v="Lodalsbreelvi" />
		<tag k="ssr:stedsnr" v="208033" />
		<tag k="waterway" v="river" />
	</node>
	<node lat="61.528674996268286" lon="7.727219439726567" id="-31569">
		<tag k="name" v="Holmastadgrovi" />
		<tag k="ssr:stedsnr" v="208334" />
		<tag k="waterway" v="stream" />
	</node>
	<node lat="61.43734722114496" lon="7.245391660791566" id="-31571">
		<tag k="name" v="Langedøla" />
		<tag k="ssr:stedsnr" v="208285" />
		<tag k="waterway" v="river" />
	</node>
	<node lat="61.28103610912883" lon="7.4077027753094375" id="-31572">
		<tag k="name" v="Mosahauggrovi" />
		<tag k="ssr:stedsnr" v="208297" />
		<tag k="waterway" v="stream" />
	</node>
	<node lat="61.414666662694124" lon="7.323055555300006" id="-31581">
		<tag k="name" v="Tverrelvi" />
		<tag k="ssr:stedsnr" v="208531" />
		<tag k="waterway" v="stream" />
	</node>
	<node lat="61.41913888862844" lon="7.322863889583401" id="-31582">
		<tag k="alt_name" v="Gaupneelvi" />
		<tag k="name" v="Engedalselvi" />
		<tag k="ssr:stedsnr" v="208533" />
		<tag k="waterway" v="river" />
	</node>
	<node lat="61.34744722535358" lon="7.332186110620569" id="-31585">
		<tag k="name" v="Stølsfossen" />
		<tag k="natural" v="waterfall" />
		<tag k="ssr:stedsnr" v="208540" />
	</node>
	<node lat="61.615033330593214" lon="7.2673611055163505" id="-31588">
		<tag k="name" v="Øyagjerdsgrovi" />
		<tag k="ssr:stedsnr" v="208713" />
		<tag k="waterway" v="stream" />
	</node>
	<node lat="61.36319722188695" lon="7.183152774726147" id="-31592">
		<tag k="name" v="Dalselvi" />
		<tag k="ssr:stedsnr" v="208680" />
		<tag k="waterway" v="river" />
	</node>
	<node lat="61.305661114053734" lon="7.208725002760766" id="-31595">
		<tag k="name" v="Gangsto" />
		<tag k="natural" v="cape" />
		<tag k="ssr:stedsnr" v="208903" />
	</node>
	<node lat="61.61051944694172" lon="7.295172230364487" id="-31605">
		<tag k="name" v="Geistdøla" />
		<tag k="ssr:stedsnr" v="209724" />
		<tag k="waterway" v="river" />
	</node>
	<node lat="61.50648333704831" lon="7.278349997917197" id="-31607">
		<tag k="name" v="Kvernhusfoss" />
		<tag k="natural" v="waterfall" />
		<tag k="ssr:stedsnr" v="210013" />
	</node>
	<node lat="61.2924444428565" lon="7.404163894839469" id="-31610">
		<tag k="name" v="Fjellgrovi" />
		<tag k="ssr:stedsnr" v="269313" />
		<tag k="waterway" v="stream" />
	</node>
	<node lat="61.48694444838229" lon="7.679341665431185" id="-31612">
		<tag k="name" v="Legeelvi" />
		<tag k="ssr:stedsnr" v="269357" />
		<tag k="waterway" v="river" />
	</node>
	<node lat="61.35147222517462" lon="7.345974994505886" id="-31617">
		<tag k="name" v="Eikjastrondi" />
		<tag k="natural" v="beach" />
		<tag k="ssr:stedsnr" v="269542" />
	</node>
	<node lat="61.48935000189045" lon="7.6270277763723415" id="-31624">
		<tag k="name" v="Djupeviki" />
		<tag k="natural" v="bay" />
		<tag k="ssr:stedsnr" v="269699" />
	</node>
	<node lat="61.547663891451336" lon="7.295033328428517" id="-31637">
		<tag k="name" v="Fossøygranden" />
		<tag k="natural" v="cape" />
		<tag k="ssr:stedsnr" v="269957" />
	</node>
	<node lat="61.379597220381434" lon="7.060405562512991" id="-31648">
		<tag k="name" v="Kvitaberga" />
		<tag k="ssr:stedsnr" v="271740" />
		<tag k="waterway" v="stream" />
	</node>
	<node lat="61.385622223970834" lon="7.254049996294107" id="-31649">
		<tag k="name" v="Røysagrovi" />
		<tag k="ssr:stedsnr" v="271757" />
		<tag k="waterway" v="stream" />
	</node>
	<node lat="61.40565278114254" lon="7.105352770438335" id="-31652">
		<tag k="name" v="Uksabåsfossane" />
		<tag k="natural" v="waterfall" />
		<tag k="ssr:stedsnr" v="449748" />
	</node>
	<node lat="61.529741663009915" lon="7.599402783137365" id="-31686">
		<tag k="name" v="Moøyane" />
		<tag k="place" v="island" />
		<tag k="ssr:stedsnr" v="451044" />
	</node>
	<node lat="61.571291662669395" lon="7.63051389178891" id="-31694">
		<tag k="name" v="Bølifossen" />
		<tag k="natural" v="waterfall" />
		<tag k="ssr:stedsnr" v="451281" />
	</node>
	<node lat="61.47650833561305" lon="7.2591750081154425" id="-31732">
		<tag k="name" v="Bergsnes" />
		<tag k="natural" v="cape" />
		<tag k="ssr:stedsnr" v="452122" />
	</node>
	<node lat="61.57200277391118" lon="7.942224995974901" id="-31745">
		<tag k="name" v="Lona" />
		<tag k="natural" v="water" />
		<tag k="ssr:stedsnr" v="253344" />
	</node>
	<node lat="61.5262527766683" lon="7.833555561077889" id="-31746">
		<tag k="alt_name" v="Gjuvvatnet, nedste" />
		<tag k="name" v="Nedste Gjuvvatnet" />
		<tag k="natural" v="water" />
		<tag k="ssr:stedsnr" v="253428" />
	</node>
	<node lat="61.640999997178525" lon="7.202125003822551" id="-31751">
		<tag k="name" v="Storesvagrovi" />
		<tag k="ssr:stedsnr" v="253726" />
		<tag k="waterway" v="stream" />
	</node>
	<node lat="61.55508332945781" lon="7.5718361068014755" id="-31757">
		<tag k="name" v="Migande" />
		<tag k="ssr:stedsnr" v="268177" />
		<tag k="waterway" v="stream" />
	</node>
	<node lat="61.43432500228191" lon="7.291394451344643" id="-31761">
		<tag k="name" v="Øvringagrovi" />
		<tag k="ssr:stedsnr" v="268428" />
		<tag k="waterway" v="stream" />
	</node>
	<node lat="61.62254444630769" lon="7.2783833259991875" id="-31762">
		<tag k="name" v="Espeøyane" />
		<tag k="natural" v="cape" />
		<tag k="ssr:stedsnr" v="268625" />
	</node>
	<node lat="61.34049999790387" lon="7.286761118563097" id="-31768">
		<tag k="name" v="Spildrefossen" />
		<tag k="natural" v="waterfall" />
		<tag k="ssr:stedsnr" v="268792" />
	</node>
	<node lat="61.35432500049567" lon="7.44271666744269" id="-31778">
		<tag k="name" v="Dregegrovi" />
		<tag k="ssr:stedsnr" v="269380" />
		<tag k="waterway" v="stream" />
	</node>
	<node lat="61.338516667922725" lon="7.394841665225845" id="-31782">
		<tag k="name" v="Vågi" />
		<tag k="natural" v="bay" />
		<tag k="ssr:stedsnr" v="269626" />
	</node>
	<node lat="61.370188886139715" lon="7.417480554932711" id="-31784">
		<tag k="name" v="Merkesgrovi" />
		<tag k="ssr:stedsnr" v="269696" />
		<tag k="waterway" v="stream" />
	</node>
	<node lat="61.47844722101631" lon="7.263324991187286" id="-31791">
		<tag k="name" v="Viki" />
		<tag k="natural" v="bay" />
		<tag k="ssr:stedsnr" v="270209" />
	</node>
	<node lat="61.46504444149097" lon="7.056686115790207" id="-31794">
		<tag k="name" v="Klubben" />
		<tag k="natural" v="bay" />
		<tag k="ssr:stedsnr" v="271886" />
	</node>
	<node lat="61.47559444164227" lon="7.445722215454777" id="-31804">
		<tag k="name" v="Dalsdalselvi" />
		<tag k="ssr:stedsnr" v="311319" />
		<tag k="waterway" v="river" />
	</node>
	<node lat="61.4893611146037" lon="7.554444447569557" id="-31806">
		<tag k="name" v="Sagagrovi" />
		<tag k="ssr:stedsnr" v="311325" />
		<tag k="waterway" v="stream" />
	</node>
	<node lat="61.48563889052372" lon="7.446236113560419" id="-31807">
		<tag k="name" v="Kolstadelvi" />
		<tag k="ssr:stedsnr" v="311326" />
		<tag k="waterway" v="stream" />
	</node>
	<node lat="61.4787500024788" lon="7.78714166806157" id="-31819">
		<tag k="name" v="Ringselvi" />
		<tag k="ssr:stedsnr" v="311606" />
		<tag k="waterway" v="river" />
	</node>
	<node lat="61.745557958500406" lon="7.736127424376649" id="-31833">
		<tag k="name" v="Sveintjørni" />
		<tag k="natural" v="water" />
		<tag k="ssr:stedsnr" v="313383" />
	</node>
	<node lat="61.72670171881595" lon="7.609805177890717" id="-31840">
		<tag k="name" v="Isvatnet" />
		<tag k="natural" v="water" />
		<tag k="ssr:stedsnr" v="313518" />
		<tag k="water" v="lake" />
	</node>
	<node lat="61.7188850757204" lon="7.488928759428496" id="-31841">
		<tag k="name" v="Gluggevardvatnet" />
		<tag k="natural" v="water" />
		<tag k="ssr:stedsnr" v="313519" />
		<tag k="water" v="lake" />
	</node>
	<node lat="61.54298333666444" lon="7.4338638962264305" id="-31842">
		<tag k="alt_name" v="Hammardalsvatnet" />
		<tag k="name" v="Hamarsdalsvatnet" />
		<tag k="natural" v="water" />
		<tag k="ssr:stedsnr" v="313528" />
	</node>
	<node lat="61.651750003346216" lon="7.156411116132773" id="-31852">
		<tag k="alt_name" v="Saueelvane" />
		<tag k="name" v="Sauelvi" />
		<tag k="ssr:stedsnr" v="313760" />
		<tag k="waterway" v="stream" />
	</node>
	<node lat="61.5377555529775" lon="7.633136119797782" id="-31853">
		<tag k="alt_name" v="Brattegrovi" />
		<tag k="name" v="Brattagrovi" />
		<tag k="ssr:stedsnr" v="314456" />
		<tag k="waterway" v="stream" />
	</node>
	<node lat="61.50655833617783" lon="7.333255557520083" id="-31855">
		<tag k="name" v="Storøykroken" />
		<tag k="place" v="locality" />
		<tag k="ssr:stedsnr" v="314625" />
	</node>
	<node lat="61.49836944752925" lon="7.785261105938919" id="-31866">
		<tag k="name" v="Ringselvi" />
		<tag k="ssr:stedsnr" v="329506" />
		<tag k="waterway" v="river" />
	</node>
	<node lat="61.625161109745555" lon="7.289950006280558" id="-31876">
		<tag k="name" v="Espegrovi" />
		<tag k="ssr:stedsnr" v="329815" />
		<tag k="waterway" v="stream" />
	</node>
	<node lat="61.612361113804376" lon="7.2911361197571924" id="-31887">
		<tag k="name" v="Vikøyane" />
		<tag k="natural" v="cape" />
		<tag k="ssr:stedsnr" v="330760" />
	</node>
	<node lat="61.2565777796852" lon="7.3252833412404845" id="-31891">
		<tag k="name" v="Skogjelet" />
		<tag k="ssr:stedsnr" v="331572" />
		<tag k="waterway" v="stream" />
	</node>
	<node lat="61.29483889187528" lon="7.176425001314492" id="-31893">
		<tag k="name" v="Klokkarstoi" />
		<tag k="natural" v="bay" />
		<tag k="ssr:stedsnr" v="331916" />
	</node>
	<node lat="61.42253055538974" lon="7.074286116714638" id="-31900">
		<tag k="name" v="Vikane" />
		<tag k="natural" v="bay" />
		<tag k="ssr:stedsnr" v="371116" />
	</node>
	<node lat="61.4452527741459" lon="7.262827785715912" id="-31904">
		<tag k="alt_name" v="Bjørnsøy" />
		<tag k="name" v="Bjørnøy" />
		<tag k="natural" v="cape" />
		<tag k="ssr:stedsnr" v="371085" />
	</node>
	<node lat="61.3371861110605" lon="7.466083326085464" id="-31913">
		<tag k="name" v="Stillene" />
		<tag k="ssr:stedsnr" v="371633" />
		<tag k="waterway" v="stream" />
	</node>
	<node lat="61.383091669773044" lon="7.083358326861942" id="-31918">
		<tag k="name" v="Langaneset" />
		<tag k="natural" v="cape" />
		<tag k="ssr:stedsnr" v="372016" />
	</node>
	<node lat="61.321687548315445" lon="7.110933000153405" id="-31922">
		<tag k="name" v="Soget" />
		<tag k="natural" v="strait" />
		<tag k="ssr:stedsnr" v="372505" />
	</node>
	<node lat="61.73400555456338" lon="7.430824998362305" id="-31927">
		<tag k="alt_name" v="Sprongdøla, vetle" />
		<tag k="name" v="Vetle Sprongdøla" />
		<tag k="ssr:stedsnr" v="373618" />
		<tag k="waterway" v="stream" />
	</node>
	<node lat="61.59579166551605" lon="7.258141666543759" id="-31928">
		<tag k="alt_name" v="Sagerøyelvi" />
		<tag k="name" v="Sagarøyelvi" />
		<tag k="ssr:stedsnr" v="373654" />
		<tag k="waterway" v="stream" />
	</node>
	<node lat="61.50505833665453" lon="7.929033330738808" id="-31930">
		<tag k="name" v="Fannaråkfossen" />
		<tag k="natural" v="waterfall" />
		<tag k="ssr:stedsnr" v="374203" />
	</node>
	<node lat="61.67137222515298" lon="7.232213893853569" id="-31940">
		<tag k="alt_name" v="Brevatnet" />
		<tag k="name" v="Nigardsbrevatnet" />
		<tag k="natural" v="water" />
		<tag k="ssr:stedsnr" v="374739" />
		<tag k="water" v="lake" />
	</node>
	<node lat="61.446758337059535" lon="7.207111113882596" id="-31945">
		<tag k="name" v="Daudmannstjørni" />
		<tag k="natural" v="water" />
		<tag k="ssr:stedsnr" v="388443" />
	</node>
	<node lat="61.47156666854573" lon="7.209019453001195" id="-31948">
		<tag k="name" v="Løken" />
		<tag k="ssr:stedsnr" v="388471" />
		<tag k="waterway" v="river" />
	</node>
	<node lat="61.32308055969113" lon="7.110358341508569" id="-31952">
		<tag k="name" v="Sogelvi" />
		<tag k="ssr:stedsnr" v="388889" />
		<tag k="waterway" v="river" />
	</node>
	<node lat="61.28489999874202" lon="7.406452786378778" id="-31966">
		<tag k="name" v="Nyløegrovi" />
		<tag k="ssr:stedsnr" v="390293" />
		<tag k="waterway" v="stream" />
	</node>
	<node lat="61.35540832992554" lon="7.07379999917544" id="-31970">
		<tag k="name" v="Vetlatjørn" />
		<tag k="natural" v="water" />
		<tag k="ssr:stedsnr" v="390591" />
	</node>
	<node lat="61.67124444425278" lon="7.245619451050664" id="-31977">
		<tag k="name" v="Bjørnligrovi" />
		<tag k="ssr:stedsnr" v="391414" />
		<tag k="waterway" v="stream" />
	</node>
	<node lat="61.4873194433737" lon="7.655183339294051" id="-31986">
		<tag k="alt_name" v="Fortundalselva;Fortundalselvi" />
		<tag k="name" v="Fortunselvi" />
		<tag k="ssr:stedsnr" v="432241" />
		<tag k="waterway" v="river" />
	</node>
	<node lat="61.4700781797181" lon="7.84072613267001" id="-31988">
		<tag k="alt_name" v="Fremste Skarstølsvatnet" />
		<tag k="name" v="Skagastølsvatnet" />
		<tag k="natural" v="water" />
		<tag k="ssr:stedsnr" v="432509" />
		<tag k="water" v="lake" />
	</node>
	<node lat="61.39456389042487" lon="7.584513881359431" id="-31999">
		<tag k="name" v="Dyrdalsvatnet" />
		<tag k="natural" v="water" />
		<tag k="ssr:stedsnr" v="432689" />
		<tag k="water" v="lake" />
	</node>
	<node lat="61.39568333783581" lon="7.088447225363292" id="-32001">
		<tag k="alt_name" v="Veitastrondavatnet;Veitastrondvatnet" />
		<tag k="name" v="Veitastrondsvatnet" />
		<tag k="natural" v="water" />
		<tag k="ssr:stedsnr" v="433016" />
		<tag k="water" v="lake" />
	</node>
	<node lat="61.29871110723702" lon="7.17709722789546" id="-32007">
		<tag k="name" v="Stuttholmen" />
		<tag k="place" v="islet" />
		<tag k="ssr:stedsnr" v="433386" />
	</node>
	<node lat="61.49372222273271" lon="6.985830563974125" id="-32008">
		<tag k="name" v="Storelvi" />
		<tag k="ssr:stedsnr" v="433511" />
		<tag k="waterway" v="river" />
	</node>
	<node lat="61.29106388442345" lon="7.247663887363646" id="-32048">
		<tag k="name" v="Mosavikgrovi" />
		<tag k="ssr:stedsnr" v="493335" />
		<tag k="waterway" v="stream" />
	</node>
	<node lat="61.37684166372483" lon="7.501700000151238" id="-32064">
		<tag k="name" v="Drivandefossen" />
		<tag k="natural" v="waterfall" />
		<tag k="ssr:stedsnr" v="493701" />
	</node>
	<node lat="61.40339781207914" lon="7.6290959134136465" id="-32066">
		<tag k="alt_name" v="Kupevatnet, øvre;Kupevatnet" />
		<tag k="name" v="Øvsta Kupevatnet" />
		<tag k="natural" v="water" />
		<tag k="ssr:stedsnr" v="493730" />
		<tag k="water" v="lake" />
	</node>
	<node lat="61.44800278135641" lon="7.690994446731064" id="-32068">
		<tag k="name" v="Nonhaugsvatnet" />
		<tag k="natural" v="water" />
		<tag k="ssr:stedsnr" v="493741" />
	</node>
	<node lat="61.4330749987109" lon="7.2004416757122085" id="-32072">
		<tag k="name" v="Finnabølselvi" />
		<tag k="ssr:stedsnr" v="449590" />
		<tag k="waterway" v="river" />
	</node>
	<node lat="61.281727781890794" lon="7.27118055596143" id="-32079">
		<tag k="name" v="Nysteinsgrovi" />
		<tag k="ssr:stedsnr" v="450887" />
		<tag k="waterway" v="stream" />
	</node>
	<node lat="61.51520832949917" lon="7.354186102127888" id="-32100">
		<tag k="name" v="Fossane" />
		<tag k="natural" v="waterfall" />
		<tag k="ssr:stedsnr" v="451615" />
	</node>
	<node lat="61.56304166646761" lon="7.00015555050478" id="-32105">
		<tag k="name" v="Kvitaelvi" />
		<tag k="ssr:stedsnr" v="453811" />
		<tag k="waterway" v="river" />
	</node>
	<node lat="61.48980555846577" lon="7.178588898022205" id="-32116">
		<tag k="name" v="Øyelvi" />
		<tag k="ssr:stedsnr" v="675191" />
		<tag k="waterway" v="stream" />
	</node>
	<node lat="61.29004166364266" lon="7.4079888930714075" id="-32127">
		<tag k="alt_name" v="Kinsedalselv" />
		<tag k="name" v="Kinsedalselvi" />
		<tag k="ssr:stedsnr" v="675616" />
		<tag k="waterway" v="river" />
	</node>
	<node lat="61.41217499650288" lon="7.543191661128426" id="-32128">
		<tag k="alt_name" v="Sørheimselvvatnet, nedre" />
		<tag k="name" v="Nedsta Sørheimselvvatnet" />
		<tag k="natural" v="water" />
		<tag k="ssr:stedsnr" v="675721" />
	</node>
	<node lat="61.457327779802746" lon="7.652947222374171" id="-32134">
		<tag k="name" v="Svartavatnet" />
		<tag k="natural" v="water" />
		<tag k="ssr:stedsnr" v="675741" />
	</node>
	<node lat="61.52892671564178" lon="8.235100524835573" id="-32135">
		<tag k="name" v="Gravdalstjørnene" />
		<tag k="natural" v="water" />
		<tag k="ssr:stedsnr" v="677115" />
		<tag k="water" v="lake" />
	</node>
	<node lat="61.58310277855669" lon="7.779163886285081" id="-32138">
		<tag k="name" v="Spitarfossen" />
		<tag k="natural" v="waterfall" />
		<tag k="ssr:stedsnr" v="677261" />
	</node>
	<node lat="61.515191667294424" lon="7.8137277776578475" id="-32141">
		<tag k="name" v="Rya" />
		<tag k="ssr:stedsnr" v="677289" />
		<tag k="waterway" v="stream" />
	</node>
	<node lat="61.626074999623484" lon="7.646444442633885" id="-32147">
		<tag k="name" v="Nobbelvi" />
		<tag k="ssr:stedsnr" v="677499" />
		<tag k="waterway" v="river" />
	</node>
	<node lat="61.56724999876295" lon="7.56403332514538" id="-32150">
		<tag k="alt_name" v="Åsetvatnet;Åsetvatn" />
		<tag k="name" v="Åsetevatnet" />
		<tag k="natural" v="water" />
		<tag k="ssr:stedsnr" v="677526" />
		<tag k="water" v="lake" />
	</node>
	<node lat="61.60903537141563" lon="7.9109687260737225" id="-32152">
		<tag k="name" v="Moldskredvatnet" />
		<tag k="natural" v="water" />
		<tag k="ssr:stedsnr" v="677458" />
		<tag k="water" v="lake" />
	</node>
	<node lat="61.60802778196526" lon="7.353713883687947" id="-32154">
		<tag k="name" v="Geisdøla" />
		<tag k="ssr:stedsnr" v="677548" />
		<tag k="waterway" v="stream" />
	</node>
	<node lat="61.520566665203255" lon="7.479049992087453" id="-32171">
		<tag k="name" v="Hornagrovi" />
		<tag k="ssr:stedsnr" v="678463" />
		<tag k="waterway" v="stream" />
	</node>
	<node lat="61.618613890750794" lon="7.1976527799220005" id="-32172">
		<tag k="alt_name" v="Røykjegrovi" />
		<tag k="name" v="Røykjedøla" />
		<tag k="ssr:stedsnr" v="678652" />
		<tag k="waterway" v="stream" />
	</node>
	<node lat="61.46023889086018" lon="7.02995555073881" id="-32183">
		<tag k="alt_name" v="Eldedøla;Eldeelvi" />
		<tag k="name" v="Eldelvi" />
		<tag k="ssr:stedsnr" v="493081" />
		<tag k="waterway" v="river" />
	</node>
	<node lat="61.4348416711792" lon="7.070430557521025" id="-32184">
		<tag k="name" v="Lysa" />
		<tag k="ssr:stedsnr" v="493108" />
		<tag k="waterway" v="stream" />
	</node>
	<node lat="61.45321388644811" lon="7.337347224832737" id="-32185">
		<tag k="name" v="Heggedalsvatnet" />
		<tag k="natural" v="water" />
		<tag k="ssr:stedsnr" v="493112" />
	</node>
	<node lat="61.31384166938307" lon="7.10598610390374" id="-32190">
		<tag k="alt_name" v="Tverbergvatnet;Tverbergsvatnet" />
		<tag k="name" v="Tverrbergvatnet" />
		<tag k="natural" v="water" />
		<tag k="ssr:stedsnr" v="493390" />
	</node>
	<node lat="61.332938886100884" lon="7.070686109670909" id="-32192">
		<tag k="name" v="Askjavikelvi" />
		<tag k="ssr:stedsnr" v="493491" />
		<tag k="waterway" v="stream" />
	</node>
	<node lat="61.226874999359865" lon="7.403186114902377" id="-32196">
		<tag k="alt_name" v="Våterøvi" />
		<tag k="name" v="Våterauvi" />
		<tag k="ssr:stedsnr" v="494361" />
		<tag k="waterway" v="stream" />
	</node>
	<node lat="61.51543888758716" lon="7.7897333290112" id="-32203">
		<tag k="alt_name" v="Gjesingagrovi" />
		<tag k="loc_name" v="Gjæsinga" />
		<tag k="name" v="Gjesingeelvi" />
		<tag k="ssr:stedsnr" v="495320" />
		<tag k="waterway" v="stream" />
	</node>
	<node lat="61.523527776804215" lon="7.978708333890298" id="-32205">
		<tag k="alt_name" v="Steindalsvatnet, øvre" />
		<tag k="name" v="Øvre Steindalsvatnet" />
		<tag k="natural" v="water" />
		<tag k="ssr:stedsnr" v="495328" />
	</node>
	<node lat="61.54145868794604" lon="7.999358356191112" id="-32207">
		<tag k="loc_name" v="Rundhaugstjørn" />
		<tag k="name" v="Rundhaugstjønne" />
		<tag k="natural" v="water" />
		<tag k="ssr:stedsnr" v="495362" />
	</node>
	<node lat="61.57021389042724" lon="7.655808340912362" id="-32209">
		<tag k="name" v="Råselvi" />
		<tag k="ssr:stedsnr" v="495527" />
		<tag k="waterway" v="stream" />
	</node>
	<node lat="61.51228888780766" lon="7.105066664252013" id="-32210">
		<tag k="name" v="Skrukleelvane" />
		<tag k="ssr:stedsnr" v="495561" />
		<tag k="waterway" v="stream" />
	</node>
	<node lat="61.400108704441784" lon="6.959053292289227" id="-32217">
		<tag k="name" v="Skarvatnet" />
		<tag k="natural" v="water" />
		<tag k="ssr:stedsnr" v="506726" />
		<tag k="water" v="lake" />
	</node>
	<node lat="61.68281389287998" lon="7.309613894156811" id="-32232">
		<tag k="name" v="Geitasvaøyane" />
		<tag k="place" v="island" />
		<tag k="ssr:stedsnr" v="511544" />
	</node>
	<node lat="61.56928055578398" lon="7.291436115923838" id="-32237">
		<tag k="name" v="Maurøyneset" />
		<tag k="natural" v="cape" />
		<tag k="ssr:stedsnr" v="511753" />
	</node>
	<node lat="61.45356666752685" lon="7.090088895596594" id="-32268">
		<tag k="name" v="Utladøla" />
		<tag k="ssr:stedsnr" v="513867" />
		<tag k="waterway" v="river" />
	</node>
	<node lat="61.49244166822582" lon="7.453783341020724" id="-32274">
		<tag k="name" v="Petersfossen" />
		<tag k="natural" v="waterfall" />
		<tag k="ssr:stedsnr" v="753484" />
	</node>
	<node lat="61.40117777810354" lon="6.982672215706311" id="-32277">
		<tag k="name" v="Botnatjørni" />
		<tag k="natural" v="water" />
		<tag k="ssr:stedsnr" v="553023" />
	</node>
	<node lat="61.29585277783152" lon="7.193486119409037" id="-32281">
		<tag k="name" v="Oklevikbukti" />
		<tag k="natural" v="bay" />
		<tag k="ssr:stedsnr" v="553402" />
	</node>
	<node lat="61.37902500243543" lon="7.632305553858078" id="-32293">
		<tag k="alt_name" v="Langedalsvatnet, midtre" />
		<tag k="name" v="Midtra Langedalsvatnet" />
		<tag k="natural" v="water" />
		<tag k="ssr:stedsnr" v="553693" />
		<tag k="water" v="lake" />
	</node>
	<node lat="61.41735555119961" lon="7.507552774994767" id="-32307">
		<tag k="name" v="Sørheimselvi" />
		<tag k="ssr:stedsnr" v="554722" />
		<tag k="waterway" v="stream" />
	</node>
	<node lat="61.616691670687274" lon="7.5653083362590055" id="-32312">
		<tag k="name" v="Fjellslitjørni" />
		<tag k="natural" v="water" />
		<tag k="ssr:stedsnr" v="555503" />
	</node>
	<node lat="61.505025516388756" lon="7.915681146695074" id="-32321">
		<tag k="name" v="Illvatnet" />
		<tag k="natural" v="water" />
		<tag k="ssr:stedsnr" v="556404" />
	</node>
	<node lat="61.51572850462806" lon="7.107191098145064" id="-32323">
		<tag k="name" v="Tverradalselvi" />
		<tag k="ssr:stedsnr" v="556608" />
		<tag k="waterway" v="stream" />
	</node>
	<node lat="61.44196110973186" lon="7.066461112201283" id="-32330">
		<tag k="name" v="Kvitaberga" />
		<tag k="ssr:stedsnr" v="691759" />
		<tag k="waterway" v="stream" />
	</node>
	<node lat="61.424333334666045" lon="7.262861116291304" id="-32337">
		<tag k="name" v="Venåsgrovi" />
		<tag k="ssr:stedsnr" v="693330" />
		<tag k="waterway" v="river" />
	</node>
	<node lat="61.51192777379813" lon="7.669802781758212" id="-32345">
		<tag k="name" v="Lønningagrovi" />
		<tag k="ssr:stedsnr" v="693536" />
		<tag k="waterway" v="stream" />
	</node>
	<node lat="61.75487778100898" lon="7.334358327929072" id="-32351">
		<tag k="name" v="Stegaholtbreelvi" />
		<tag k="ssr:stedsnr" v="571016" />
		<tag k="waterway" v="river" />
	</node>
	<node lat="61.506391666332654" lon="7.459444435250098" id="-32354">
		<tag k="name" v="Hodnafossen" />
		<tag k="natural" v="waterfall" />
		<tag k="ssr:stedsnr" v="571547" />
	</node>
	<node lat="61.47513333063888" lon="7.46283889182521" id="-32367">
		<tag k="name" v="Sauagrovi" />
		<tag k="ssr:stedsnr" v="571405" />
		<tag k="waterway" v="stream" />
	</node>
	<node lat="61.64932777980961" lon="7.301180546961284" id="-32369">
		<tag k="name" v="Ytsteflatgrovi" />
		<tag k="ssr:stedsnr" v="571457" />
		<tag k="waterway" v="stream" />
	</node>
	<node lat="61.560725002445686" lon="7.260538887226055" id="-32373">
		<tag k="name" v="Grøndøla" />
		<tag k="ssr:stedsnr" v="693765" />
		<tag k="waterway" v="stream" />
	</node>
	<node lat="61.47208611180352" lon="7.592080560881987" id="-32383">
		<tag k="name" v="Merkesgrovi" />
		<tag k="ssr:stedsnr" v="571704" />
		<tag k="waterway" v="stream" />
	</node>
	<node lat="61.485708329662096" lon="7.410380560884604" id="-32392">
		<tag k="name" v="Bringestølsgrovi" />
		<tag k="ssr:stedsnr" v="572613" />
		<tag k="waterway" v="stream" />
	</node>
	<node lat="61.50024166906515" lon="7.20129443883738" id="-32393">
		<tag k="name" v="Krokgjelsgrovi" />
		<tag k="ssr:stedsnr" v="572624" />
		<tag k="waterway" v="stream" />
	</node>
	<node lat="61.45765000404483" lon="7.041688890910556" id="-32443">
		<tag k="name" v="Eldebukti" />
		<tag k="natural" v="bay" />
		<tag k="ssr:stedsnr" v="696147" />
	</node>
	<node lat="61.28136388832611" lon="7.357902783382219" id="-32448">
		<tag k="name" v="Kjøagjeli" />
		<tag k="ssr:stedsnr" v="600254" />
		<tag k="waterway" v="stream" />
	</node>
	<node lat="61.28333332913236" lon="7.264313879800849" id="-32455">
		<tag k="name" v="Storagrovi" />
		<tag k="ssr:stedsnr" v="614314" />
		<tag k="waterway" v="stream" />
	</node>
	<node lat="61.349243728834104" lon="7.0241406748941415" id="-32459">
		<tag k="name" v="Peisavatni" />
		<tag k="natural" v="water" />
		<tag k="ssr:stedsnr" v="614473" />
		<tag k="water" v="lake" />
	</node>
	<node lat="61.30208888854191" lon="7.38575832657436" id="-32462">
		<tag k="name" v="Nystølstjørni" />
		<tag k="natural" v="water" />
		<tag k="ssr:stedsnr" v="614612" />
	</node>
	<node lat="61.51305277474747" lon="8.199475007817082" id="-32474">
		<tag k="name" v="Simledøla" />
		<tag k="ssr:stedsnr" v="616090" />
		<tag k="waterway" v="stream" />
	</node>
	<node lat="61.56605833008131" lon="7.518825001033703" id="-32482">
		<tag k="name" v="Kjervafosso" />
		<tag k="natural" v="waterfall" />
		<tag k="ssr:stedsnr" v="616530" />
	</node>
	<node lat="61.774435139729064" lon="7.448551729919449" id="-32489">
		<tag k="name" v="Styggevatnet" />
		<tag k="natural" v="water" />
		<tag k="ssr:stedsnr" v="616611" />
		<tag k="water" v="lake" />
	</node>
	<node lat="61.55056667093093" lon="6.983122221502976" id="-32490">
		<tag k="name" v="Austerdalselvi" />
		<tag k="ssr:stedsnr" v="616652" />
		<tag k="waterway" v="river" />
	</node>
	<node lat="61.51474167068808" lon="8.008430549833651" id="-32492">
		<tag k="name" v="Steindøla" />
		<tag k="ssr:stedsnr" v="616818" />
		<tag k="waterway" v="stream" />
	</node>
	<node lat="61.66123889228509" lon="7.254349995796539" id="-32498">
		<tag k="name" v="Breelvi" />
		<tag k="ssr:stedsnr" v="616748" />
		<tag k="waterway" v="river" />
	</node>
	<node lat="61.53774444455765" lon="7.526813895058872" id="-32500">
		<tag k="name" v="Ofsarvatnet" />
		<tag k="natural" v="water" />
		<tag k="ssr:stedsnr" v="617434" />
		<tag k="water" v="lake" />
	</node>
	<node lat="61.26862221802957" lon="7.3997111189844595" id="-32509">
		<tag k="name" v="Gruvlegrov" />
		<tag k="ssr:stedsnr" v="632416" />
		<tag k="waterway" v="stream" />
	</node>
	<node lat="61.47691110911191" lon="7.239974997078708" id="-32515">
		<tag k="name" v="Merkesgrovi" />
		<tag k="ssr:stedsnr" v="632343" />
		<tag k="waterway" v="stream" />
	</node>
	<node lat="61.48431666375965" lon="7.627075008883466" id="-32524">
		<tag k="name" v="Grønnane" />
		<tag k="natural" v="cape" />
		<tag k="ssr:stedsnr" v="632690" />
	</node>
	<node lat="61.501327774327166" lon="7.596002777901918" id="-32530">
		<tag k="name" v="Sværa" />
		<tag k="ssr:stedsnr" v="632998" />
		<tag k="waterway" v="stream" />
	</node>
	<node lat="61.4574277793076" lon="7.237586108259876" id="-32550">
		<tag k="name" v="Hausafjellstjørni" />
		<tag k="natural" v="water" />
		<tag k="ssr:stedsnr" v="634134" />
	</node>
	<node lat="61.49002777750854" lon="7.247722224754363" id="-32570">
		<tag k="name" v="Kvernelvi" />
		<tag k="ssr:stedsnr" v="675203" />
		<tag k="waterway" v="stream" />
	</node>
	<node lat="61.350508335922065" lon="7.189233334561351" id="-32576">
		<tag k="alt_name" v="Fjellstølstjørni" />
		<tag k="name" v="Fjellstolstjørni" />
		<tag k="natural" v="water" />
		<tag k="ssr:stedsnr" v="675459" />
	</node>
	<node lat="61.329088885820845" lon="7.477391664231631" id="-32582">
		<tag k="name" v="Tinghaugsvatnet" />
		<tag k="natural" v="water" />
		<tag k="ssr:stedsnr" v="675666" />
	</node>
	<node lat="61.38144078127115" lon="7.607887222665139" id="-32583">
		<tag k="alt_name" v="Langedalsvatnet, heimsta" />
		<tag k="name" v="Heimsta Langedalsvatnet" />
		<tag k="natural" v="water" />
		<tag k="ssr:stedsnr" v="675692" />
		<tag k="water" v="lake" />
	</node>
	<node lat="61.527911846114485" lon="7.839032882226664" id="-32595">
		<tag k="name" v="Gjuvvatnet" />
		<tag k="natural" v="water" />
		<tag k="ssr:stedsnr" v="677349" />
		<tag k="water" v="lake" />
	</node>
	<node lat="61.503500002382175" lon="7.57646389556105" id="-32596">
		<tag k="alt_name" v="Kjeberga" />
		<tag k="name" v="Klebergrovi" />
		<tag k="ssr:stedsnr" v="677352" />
		<tag k="waterway" v="stream" />
	</node>
	<node lat="61.7188861088541" lon="7.405988890895226" id="-32597">
		<tag k="name" v="Båtedalsvatnet" />
		<tag k="natural" v="water" />
		<tag k="ssr:stedsnr" v="677508" />
	</node>
	<node lat="61.56530833138261" lon="7.707458336460737" id="-32600">
		<tag k="name" v="Smolsvatnet" />
		<tag k="natural" v="water" />
		<tag k="ssr:stedsnr" v="677517" />
	</node>
	<node lat="61.55937499774604" lon="7.943688894974492" id="-32609">
		<tag k="name" v="Kummen" />
		<tag k="natural" v="water" />
		<tag k="ssr:stedsnr" v="678288" />
	</node>
	<node lat="61.4716527769143" lon="7.440786115413534" id="-32620">
		<tag k="name" v="Kvannagrovi" />
		<tag k="ssr:stedsnr" v="693421" />
		<tag k="waterway" v="stream" />
	</node>
	<node lat="61.485399126514366" lon="7.446306566009176" id="-32627">
		<tag k="name" v="Galdelvi" />
		<tag k="ssr:stedsnr" v="693570" />
		<tag k="waterway" v="river" />
	</node>
	<node lat="61.480580555420985" lon="7.9783194402097015" id="-32628">
		<tag k="alt_name" v="Jervvasselvi" />
		<tag k="name" v="Gjertvasselvi" />
		<tag k="ssr:stedsnr" v="693572" />
		<tag k="waterway" v="river" />
	</node>
	<node lat="61.54165555708558" lon="7.626699992341349" id="-32645">
		<tag k="name" v="Larsamoøy" />
		<tag k="place" v="island" />
		<tag k="ssr:stedsnr" v="694615" />
	</node>
	<node lat="61.35610833512112" lon="7.0752416750799165" id="-32646">
		<tag k="name" v="Holeelvi" />
		<tag k="ssr:stedsnr" v="694619" />
		<tag k="waterway" v="river" />
	</node>
	<node lat="61.49499721933213" lon="7.752041674748069" id="-32689">
		<tag k="alt_name" v="Skjemminggrovi" />
		<tag k="name" v="Skjemmingagrovi" />
		<tag k="ssr:stedsnr" v="736565" />
		<tag k="waterway" v="stream" />
	</node>
	<node lat="61.57050277789241" lon="7.914974995388139" id="-32695">
		<tag k="name" v="Dyrhaugsvatnet" />
		<tag k="natural" v="water" />
		<tag k="ssr:stedsnr" v="738304" />
	</node>
	<node lat="61.50070832949051" lon="7.889391668122512" id="-32702">
		<tag k="name" v="Skautevatnet" />
		<tag k="natural" v="water" />
		<tag k="ssr:stedsnr" v="738352" />
	</node>
	<node lat="61.542555552198465" lon="7.669213890041562" id="-32709">
		<tag k="name" v="Skurvenosvatnet" />
		<tag k="natural" v="water" />
		<tag k="ssr:stedsnr" v="738417" />
	</node>
	<node lat="61.515586111579005" lon="7.450566665483821" id="-32710">
		<tag k="name" v="Kringlevatnet" />
		<tag k="natural" v="water" />
		<tag k="ssr:stedsnr" v="738421" />
		<tag k="water" v="lake" />
	</node>
	<node lat="61.69505000383594" lon="7.421058331797896" id="-32711">
		<tag k="name" v="Slirevotni" />
		<tag k="natural" v="water" />
		<tag k="ssr:stedsnr" v="738517" />
		<tag k="water" v="lake" />
	</node>
	<node lat="61.56689722444166" lon="7.295708337805707" id="-32727">
		<tag k="name" v="Giljeelvi" />
		<tag k="ssr:stedsnr" v="753753" />
		<tag k="waterway" v="river" />
	</node>
	<node lat="61.482727781722126" lon="7.631591662551991" id="-32745">
		<tag k="name" v="Liingaelvi" />
		<tag k="ssr:stedsnr" v="754713" />
		<tag k="waterway" v="stream" />
	</node>
	<node lat="61.33699722243579" lon="7.102941663224941" id="-32747">
		<tag k="name" v="Buhillerviki" />
		<tag k="natural" v="bay" />
		<tag k="ssr:stedsnr" v="754604" />
	</node>
	<node lat="61.32608611048804" lon="7.3965333327539176" id="-32749">
		<tag k="name" v="Bjørkenesgrovi" />
		<tag k="old_name" v="Brørkenesgrovi" />
		<tag k="ssr:stedsnr" v="754617" />
		<tag k="waterway" v="stream" />
	</node>
	<node lat="61.53050833646824" lon="7.129038891470252" id="-32757">
		<tag k="alt_name" v="Vesle Brimkjelsgrovi" />
		<tag k="name" v="Vetla Brimkjelsgrovi" />
		<tag k="ssr:stedsnr" v="754948" />
		<tag k="waterway" v="river" />
	</node>
	<node lat="61.525091662748544" lon="7.44239444664326" id="-32758">
		<tag k="name" v="Kringleelvi" />
		<tag k="ssr:stedsnr" v="754951" />
		<tag k="waterway" v="river" />
	</node>
	<node lat="61.45268611021495" lon="7.290586109022436" id="-32763">
		<tag k="name" v="Viergrovi" />
		<tag k="ssr:stedsnr" v="755268" />
		<tag k="waterway" v="stream" />
	</node>
	<node lat="61.40335833651072" lon="7.201449997664095" id="-32769">
		<tag k="name" v="Fallgrovi" />
		<tag k="ssr:stedsnr" v="755752" />
		<tag k="waterway" v="stream" />
	</node>
	<node lat="61.599141670698856" lon="7.260936107969897" id="-32770">
		<tag k="name" v="Oksaskargrovi" />
		<tag k="ssr:stedsnr" v="755753" />
		<tag k="waterway" v="stream" />
	</node>
	<node lat="61.333924999954604" lon="7.468202786692624" id="-32777">
		<tag k="name" v="Rundhaugsvatnet" />
		<tag k="natural" v="water" />
		<tag k="ssr:stedsnr" v="918696" />
	</node>
	<node lat="61.40723055733017" lon="7.498763896594569" id="-32778">
		<tag k="name" v="Øykjagrovi" />
		<tag k="ssr:stedsnr" v="918773" />
		<tag k="waterway" v="stream" />
	</node>
	<node lat="61.487978151588685" lon="7.621139572652414" id="-32787">
		<tag k="name" v="Eidsvatnet" />
		<tag k="natural" v="water" />
		<tag k="ssr:stedsnr" v="796259" />
		<tag k="water" v="lake" />
	</node>
	<node lat="61.387852289512146" lon="7.650723432601452" id="-32796">
		<tag k="alt_name" v="Langedalsvatnet, fremsta" />
		<tag k="name" v="Fremsta Langedalsvatnet" />
		<tag k="natural" v="water" />
		<tag k="ssr:stedsnr" v="796675" />
		<tag k="water" v="lake" />
	</node>
	<node lat="61.30509120118382" lon="7.203600860925051" id="-32802">
		<tag k="name" v="Langholmen" />
		<tag k="place" v="islet" />
		<tag k="ssr:stedsnr" v="797410" />
	</node>
	<node lat="61.30059444233508" lon="7.169558338649155" id="-32803">
		<tag k="name" v="Hafslovatnet" />
		<tag k="natural" v="water" />
		<tag k="ssr:stedsnr" v="797415" />
		<tag k="water" v="lake" />
	</node>
	<node lat="61.493399998190874" lon="7.756630546259699" id="-32807">
		<tag k="alt_name" v="Farningagrovi" />
		<tag k="name" v="Farningselvi" />
		<tag k="ssr:stedsnr" v="797597" />
		<tag k="waterway" v="stream" />
	</node>
	<node lat="61.58002778033838" lon="7.884783332952377" id="-32813">
		<tag k="name" v="Storvasselvi" />
		<tag k="ssr:stedsnr" v="799311" />
		<tag k="waterway" v="river" />
	</node>
	<node lat="61.52004999982198" lon="7.992077775959953" id="-32819">
		<tag k="alt_name" v="Steindalsvatnet, nedre" />
		<tag k="name" v="Nedre Steindalsvatnet" />
		<tag k="natural" v="water" />
		<tag k="ssr:stedsnr" v="799345" />
	</node>
	<node lat="61.5304346179461" lon="7.431413600779883" id="-32820">
		<tag k="alt_name" v="Smørvivatn" />
		<tag k="name" v="Smørvevatnet" />
		<tag k="natural" v="water" />
		<tag k="ssr:stedsnr" v="799405" />
		<tag k="water" v="lake" />
	</node>
	<node lat="61.69842777578485" lon="7.5549138919056045" id="-32825">
		<tag k="name" v="Tverrbotnvatnet" />
		<tag k="natural" v="water" />
		<tag k="old_name" v="Toerrbotnvatnet" />
		<tag k="ssr:stedsnr" v="799548" />
	</node>
	<node lat="61.65090277674334" lon="7.729299996629327" id="-32831">
		<tag k="name" v="Gravdalsvatnet" />
		<tag k="natural" v="water" />
		<tag k="ssr:stedsnr" v="799499" />
		<tag k="water" v="lake" />
	</node>
	<node lat="61.67889999646655" lon="7.823416657595573" id="-32833">
		<tag k="name" v="Middøla" />
		<tag k="ssr:stedsnr" v="799781" />
		<tag k="waterway" v="river" />
	</node>
	<node lat="61.299722225956465" lon="7.197483330595492" id="-32839">
		<tag k="name" v="Hestneset" />
		<tag k="natural" v="cape" />
		<tag k="ssr:stedsnr" v="917374" />
	</node>
	<node lat="61.46593333505567" lon="7.152919446533077" id="-32850">
		<tag k="alt_name" v="Hestagrovi" />
		<tag k="name" v="Hesthauggrovi" />
		<tag k="ssr:stedsnr" v="918069" />
		<tag k="waterway" v="stream" />
	</node>
	<node lat="61.45775278099359" lon="7.17160277071433" id="-32853">
		<tag k="name" v="Skargrøvene" />
		<tag k="ssr:stedsnr" v="918092" />
		<tag k="waterway" v="stream" />
	</node>
	<node lat="61.488472222756336" lon="7.167641671128284" id="-32859">
		<tag k="alt_name" v="Telasandgrovi" />
		<tag k="name" v="Telesandgrovi" />
		<tag k="ssr:stedsnr" v="918195" />
		<tag k="waterway" v="stream" />
	</node>
	<node lat="61.485461111173514" lon="7.275397218216027" id="-32861">
		<tag k="name" v="Morkateiggrøvene" />
		<tag k="ssr:stedsnr" v="918200" />
		<tag k="waterway" v="stream" />
	</node>
	<node lat="61.46011111053237" lon="7.379277780564214" id="-32865">
		<tag k="name" v="Hellesetvatnet" />
		<tag k="natural" v="water" />
		<tag k="ssr:stedsnr" v="918345" />
		<tag k="water" v="lake" />
	</node>
	<node lat="61.48152500192268" lon="7.656577768956522" id="-32868">
		<tag k="name" v="Åselvi" />
		<tag k="ssr:stedsnr" v="918353" />
		<tag k="waterway" v="stream" />
	</node>
	<node lat="61.324388891599305" lon="7.159891663122372" id="-32877">
		<tag k="name" v="Hagagrovi" />
		<tag k="ssr:stedsnr" v="918547" />
		<tag k="waterway" v="stream" />
	</node>
	<node lat="61.335061108149354" lon="7.090555549047532" id="-32878">
		<tag k="alt_name" v="Steminganeset" />
		<tag k="name" v="Stemminganeset" />
		<tag k="natural" v="cape" />
		<tag k="ssr:stedsnr" v="918553" />
	</node>
	<node lat="61.49046111303659" lon="7.750644451694609" id="-32885">
		<tag k="name" v="Ilagsgrovi" />
		<tag k="ssr:stedsnr" v="918643" />
		<tag k="waterway" v="stream" />
	</node>
	<node lat="61.726261112517456" lon="7.811074998589299" id="-32886">
		<tag k="name" v="Stillgrovi" />
		<tag k="ssr:stedsnr" v="920363" />
		<tag k="waterway" v="stream" />
	</node>
	<node lat="61.69639999668107" lon="7.817724993533876" id="-32888">
		<tag k="name" v="Løyfttjørni" />
		<tag k="natural" v="water" />
		<tag k="ssr:stedsnr" v="920462" />
	</node>
	<node lat="61.3103305536601" lon="7.12086110442965" id="-32890">
		<tag k="name" v="Straumavatnet" />
		<tag k="natural" v="water" />
		<tag k="ssr:stedsnr" v="918430" />
		<tag k="water" v="lake" />
	</node>
	<node lat="61.728672221630305" lon="7.362861110937002" id="-32892">
		<tag k="name" v="Kvannøy" />
		<tag k="place" v="island" />
		<tag k="ssr:stedsnr" v="814212" />
	</node>
	<node lat="61.37661748213115" lon="7.5343476715262785" id="-32894">
		<tag k="name" v="Feigedalsvatnet" />
		<tag k="natural" v="water" />
		<tag k="ssr:stedsnr" v="918736" />
		<tag k="water" v="lake" />
	</node>
	<node lat="61.44429444212648" lon="7.426388885333315" id="-32897">
		<tag k="name" v="Døsagrovi" />
		<tag k="ssr:stedsnr" v="918790" />
		<tag k="waterway" v="stream" />
	</node>
	<node lat="61.64252500404931" lon="7.298980562585107" id="-32899">
		<tag k="name" v="Øygardsgrovi" />
		<tag k="ssr:stedsnr" v="814596" />
		<tag k="waterway" v="stream" />
	</node>
	<node lat="61.40572777949749" lon="7.294738896702962" id="-32906">
		<tag k="name" v="Skjersgrovi" />
		<tag k="ssr:stedsnr" v="815242" />
		<tag k="waterway" v="stream" />
	</node>
	<node lat="61.38074722326005" lon="7.464655559905794" id="-32916">
		<tag k="name" v="Surnakvam" />
		<tag k="ssr:stedsnr" v="815604" />
		<tag k="waterway" v="stream" />
	</node>
	<node lat="61.486516669921905" lon="7.618191659056304" id="-32926">
		<tag k="name" v="Galdaneset" />
		<tag k="natural" v="cape" />
		<tag k="ssr:stedsnr" v="815709" />
	</node>
	<node lat="61.34984166637919" lon="7.273802783457084" id="-32930">
		<tag k="name" v="Lifossen" />
		<tag k="natural" v="waterfall" />
		<tag k="ssr:stedsnr" v="815814" />
	</node>
	<node lat="61.5004638866559" lon="7.601744445320049" id="-32938">
		<tag k="name" v="Kvernøyane" />
		<tag k="place" v="island" />
		<tag k="ssr:stedsnr" v="815991" />
	</node>
	<node lat="61.28965277398772" lon="7.164113889490865" id="-32944">
		<tag k="name" v="Stupshølen" />
		<tag k="place" v="locality" />
		<tag k="ssr:stedsnr" v="817928" />
	</node>
	<node lat="61.51033611052752" lon="7.879900008217205" id="-32946">
		<tag k="name" v="Steindøla" />
		<tag k="ssr:stedsnr" v="920322" />
		<tag k="waterway" v="stream" />
	</node>
	<node lat="61.501675004450014" lon="7.867455548654768" id="-32947">
		<tag k="name" v="Skautefossen" />
		<tag k="natural" v="waterfall" />
		<tag k="ssr:stedsnr" v="920325" />
	</node>
	<node lat="61.54647777505461" lon="7.902525008897341" id="-32948">
		<tag k="name" v="Silja" />
		<tag k="natural" v="water" />
		<tag k="ssr:stedsnr" v="920332" />
	</node>
	<node lat="61.55903611201873" lon="7.319577773900823" id="-32964">
		<tag k="name" v="Gravdøla" />
		<tag k="ssr:stedsnr" v="920668" />
		<tag k="waterway" v="stream" />
	</node>
	<node lat="61.64394722553989" lon="7.198499994368891" id="-32968">
		<tag k="alt_name" v="Øygardsgrovi" />
		<tag k="name" v="Bøgardsgrovi" />
		<tag k="ssr:stedsnr" v="920718" />
		<tag k="waterway" v="stream" />
	</node>
	<node lat="61.59973333605404" lon="7.644636113232546" id="-32972">
		<tag k="name" v="Vedagrovi" />
		<tag k="ssr:stedsnr" v="920760" />
		<tag k="waterway" v="stream" />
	</node>
	<node lat="61.396711114527264" lon="7.092769445378995" id="-32980">
		<tag k="name" v="Kjenganeset" />
		<tag k="natural" v="cape" />
		<tag k="ssr:stedsnr" v="857030" />
	</node>
	<node lat="61.40408055696018" lon="7.285358338140172" id="-32986">
		<tag k="name" v="Jostedøla" />
		<tag k="ssr:stedsnr" v="857131" />
		<tag k="waterway" v="river" />
	</node>
	<node lat="61.49468055195816" lon="7.183133324237542" id="-32987">
		<tag k="name" v="Storegrandane" />
		<tag k="natural" v="shoal" />
		<tag k="ssr:stedsnr" v="857177" />
	</node>
	<node lat="61.48151944719185" lon="7.539952782107543" id="-32990">
		<tag k="name" v="Mjølkåi" />
		<tag k="ssr:stedsnr" v="857332" />
		<tag k="waterway" v="stream" />
	</node>
	<node lat="61.34414444478771" lon="7.440688897744407" id="-33000">
		<tag k="alt_name" v="Sippelhaugelva" />
		<tag k="name" v="Sippelhaugselvi" />
		<tag k="ssr:stedsnr" v="857632" />
		<tag k="waterway" v="stream" />
	</node>
	<node lat="61.32515555496756" lon="7.0753888968393985" id="-33005">
		<tag k="alt_name" v="Markaåi" />
		<tag k="name" v="Markagrovi" />
		<tag k="ssr:stedsnr" v="858508" />
		<tag k="waterway" v="stream" />
	</node>
	<node lat="61.53703610842454" lon="7.57944444340613" id="-33019">
		<tag k="name" v="Gurosetelvi" />
		<tag k="ssr:stedsnr" v="860467" />
		<tag k="waterway" v="stream" />
	</node>
	<node lat="61.654716663375225" lon="7.2337750013312565" id="-33031">
		<tag k="name" v="Svarteløken" />
		<tag k="natural" v="water" />
		<tag k="ssr:stedsnr" v="860778" />
	</node>
	<node lat="61.42436110762422" lon="7.500533331271102" id="-33042">
		<tag k="name" v="Lerisgrovi" />
		<tag k="ssr:stedsnr" v="875989" />
		<tag k="waterway" v="stream" />
	</node>
	<node lat="61.28795555641907" lon="7.389644445123656" id="-33045">
		<tag k="name" v="Dalastøygytta" />
		<tag k="ssr:stedsnr" v="876301" />
		<tag k="waterway" v="stream" />
	</node>
	<node lat="61.34683611216905" lon="7.2401777773744245" id="-33047">
		<tag k="name" v="Solvornsvad" />
		<tag k="natural" v="water" />
		<tag k="ssr:stedsnr" v="876869" />
		<tag k="water" v="lake" />
	</node>
	<node lat="61.59974999764625" lon="7.256119447031494" id="-33051">
		<tag k="name" v="Vassdøla" />
		<tag k="ssr:stedsnr" v="876764" />
		<tag k="waterway" v="river" />
	</node>
	<node lat="61.55219722069584" lon="7.301649993687255" id="-33052">
		<tag k="name" v="Bruaneset" />
		<tag k="natural" v="cape" />
		<tag k="ssr:stedsnr" v="876969" />
	</node>
	<node lat="61.48818332919695" lon="7.2784555600563925" id="-33054">
		<tag k="name" v="Markagrøvene" />
		<tag k="ssr:stedsnr" v="877007" />
		<tag k="waterway" v="river" />
	</node>
	<node lat="61.438575001836426" lon="7.105897226526002" id="-33057">
		<tag k="name" v="Grøndøla" />
		<tag k="ssr:stedsnr" v="877829" />
		<tag k="waterway" v="river" />
	</node>
	<node lat="61.47394444592284" lon="7.033441661791049" id="-33059">
		<tag k="name" v="Krokelvi" />
		<tag k="ssr:stedsnr" v="878956" />
		<tag k="waterway" v="river" />
	</node>
	<node lat="61.45430277562731" lon="7.197880553544478" id="-33060">
		<tag k="name" v="Nonhauggrovi" />
		<tag k="ssr:stedsnr" v="934458" />
		<tag k="waterway" v="stream" />
	</node>
	<node lat="61.22862221986381" lon="7.3295833378762465" id="-33066">
		<tag k="name" v="Rettarskreda" />
		<tag k="ssr:stedsnr" v="904518" />
		<tag k="waterway" v="stream" />
	</node>
	<node lat="61.49122778067315" lon="7.96799444024207" id="-33069">
		<tag k="name" v="Storegrovi" />
		<tag k="ssr:stedsnr" v="917521" />
		<tag k="waterway" v="stream" />
	</node>
	<node lat="61.413380557875556" lon="7.1888527742502015" id="-33076">
		<tag k="name" v="Skutgrovi" />
		<tag k="ssr:stedsnr" v="918119" />
		<tag k="waterway" v="stream" />
	</node>
	<node lat="61.36325278151468" lon="7.251094444975249" id="-33079">
		<tag k="name" v="Lundsgrovi" />
		<tag k="ssr:stedsnr" v="918514" />
		<tag k="waterway" v="stream" />
	</node>
	<node lat="61.320997220341155" lon="7.462969450587191" id="-33082">
		<tag k="name" v="Ingebjørgsvatnet" />
		<tag k="natural" v="water" />
		<tag k="ssr:stedsnr" v="918712" />
	</node>
	<node lat="61.38063949752738" lon="7.442336435755376" id="-33083">
		<tag k="alt_name" v="Feigumfossen" />
		<tag k="name" v="Feigefossen" />
		<tag k="natural" v="waterfall" />
		<tag k="ssr:stedsnr" v="918728" />
	</node>
	<node lat="61.34995278212697" lon="7.44617777777733" id="-33085">
		<tag k="alt_name" v="Krokelvi;Krokelva" />
		<tag k="name" v="Krokadalselvi" />
		<tag k="ssr:stedsnr" v="918688" />
		<tag k="waterway" v="river" />
	</node>
	<node lat="61.43832222507431" lon="7.716508339904399" id="-33086">
		<tag k="name" v="Holevatnet" />
		<tag k="natural" v="water" />
		<tag k="ssr:stedsnr" v="918804" />
	</node>
	<node lat="61.534255559465706" lon="7.990399999703295" id="-33090">
		<tag k="name" v="Bøla" />
		<tag k="natural" v="water" />
		<tag k="ssr:stedsnr" v="920337" />
	</node>
	<node lat="61.53609444859637" lon="7.41318333345119" id="-33091">
		<tag k="name" v="Grasøyvatnet" />
		<tag k="natural" v="water" />
		<tag k="ssr:stedsnr" v="920386" />
	</node>
	<node lat="61.55418333729382" lon="7.709483330260956" id="-33093">
		<tag k="alt_name" v="Smola" />
		<tag k="name" v="Smolsgrovi" />
		<tag k="ssr:stedsnr" v="920517" />
		<tag k="waterway" v="stream" />
	</node>
	<node lat="61.56890350024776" lon="7.8603355796417835" id="-33095">
		<tag k="name" v="Skålavatnet" />
		<tag k="natural" v="water" />
		<tag k="ssr:stedsnr" v="920299" />
		<tag k="water" v="lake" />
	</node>
	<node lat="61.50538055975044" lon="7.3257499976995675" id="-33100">
		<tag k="alt_name" v="Svartatjørni" />
		<tag k="name" v="Svartatjørn" />
		<tag k="natural" v="water" />
		<tag k="ssr:stedsnr" v="920607" />
	</node>
	<node lat="61.529011107372355" lon="7.161549994939658" id="-33101">
		<tag k="name" v="Haugakupegrovi" />
		<tag k="ssr:stedsnr" v="920585" />
		<tag k="waterway" v="stream" />
	</node>
	<node lat="61.527377780722205" lon="6.976761112208841" id="-33102">
		<tag k="name" v="Elvakroken" />
		<tag k="natural" v="cape" />
		<tag k="ssr:stedsnr" v="920588" />
	</node>
	<node lat="61.664874996839146" lon="7.325999992749012" id="-33106">
		<tag k="name" v="Flatelvi" />
		<tag k="ssr:stedsnr" v="920741" />
		<tag k="waterway" v="stream" />
	</node>
	<node lat="61.71517221939555" lon="7.357261120618923" id="-33114">
		<tag k="name" v="Svinøy" />
		<tag k="place" v="island" />
		<tag k="ssr:stedsnr" v="936205" />
	</node>
	<node lat="61.29387499700035" lon="7.418030549723222" id="-33118">
		<tag k="name" v="Steingrov" />
		<tag k="ssr:stedsnr" v="936229" />
		<tag k="waterway" v="stream" />
	</node>
	<node lat="61.47428889332177" lon="7.525852774785974" id="-33133">
		<tag k="name" v="Skavikgrovi" />
		<tag k="ssr:stedsnr" v="936892" />
		<tag k="waterway" v="stream" />
	</node>
	<node lat="61.37984444566091" lon="7.084697222868697" id="-33138">
		<tag k="name" v="Kvalen" />
		<tag k="natural" v="cape" />
		<tag k="ssr:stedsnr" v="937624" />
	</node>
	<node lat="61.55142499906297" lon="7.760930547349762" id="-33182">
		<tag k="alt_name" v="Granfasta" />
		<tag k="name" v="Grandfasta" />
		<tag k="ssr:stedsnr" v="10271" />
		<tag k="waterway" v="river" />
	</node>
	<node lat="61.421691667836235" lon="7.096286112556472" id="-33192">
		<tag k="name" v="Stølsneset" />
		<tag k="natural" v="cape" />
		<tag k="ssr:stedsnr" v="8130" />
	</node>
	<node lat="61.47529444114621" lon="7.06899999950335" id="-33193">
		<tag k="alt_name" v="Røytevikselvi" />
		<tag k="name" v="Røytvikelvi" />
		<tag k="ssr:stedsnr" v="8195" />
		<tag k="waterway" v="stream" />
	</node>
	<node lat="61.50624166505649" lon="7.183933331358623" id="-33194">
		<tag k="name" v="Tunsbergdalsvatnet" />
		<tag k="natural" v="water" />
		<tag k="ssr:stedsnr" v="8078" />
		<tag k="water" v="lake" />
	</node>
	<node lat="61.302527778527356" lon="7.120227773101995" id="-33201">
		<tag k="alt_name" v="Tubbagrovi" />
		<tag k="name" v="Tubbegrovi" />
		<tag k="ssr:stedsnr" v="8440" />
		<tag k="waterway" v="stream" />
	</node>
	<node lat="61.30655833630793" lon="7.406033338571573" id="-33206">
		<tag k="name" v="Kvekelvi" />
		<tag k="ssr:stedsnr" v="8620" />
		<tag k="waterway" v="stream" />
	</node>
	<node lat="61.56329999618018" lon="6.896638892684336" id="-33216">
		<tag k="name" v="Langedøla" />
		<tag k="ssr:stedsnr" v="9856" />
		<tag k="waterway" v="river" />
	</node>
	<node lat="61.65810555484444" lon="7.842074997490521" id="-33223">
		<tag k="name" v="Kyrningsvatni" />
		<tag k="natural" v="water" />
		<tag k="ssr:stedsnr" v="10477" />
	</node>
	<node lat="61.56240833385148" lon="7.69168889534418" id="-33234">
		<tag k="name" v="Vardavatnet" />
		<tag k="natural" v="water" />
		<tag k="ssr:stedsnr" v="10520" />
	</node>
	<node lat="61.56369999615957" lon="7.276830549498735" id="-33240">
		<tag k="name" v="Sperleelvi" />
		<tag k="ssr:stedsnr" v="10700" />
		<tag k="waterway" v="river" />
	</node>
	<node lat="61.30996111448296" lon="7.461941672399495" id="-33242">
		<tag k="name" v="Stillene" />
		<tag k="ssr:stedsnr" v="10757" />
		<tag k="waterway" v="stream" />
	</node>
	<node lat="61.47320833373184" lon="7.206022215345807" id="-33246">
		<tag k="name" v="Klaragrovi" />
		<tag k="ssr:stedsnr" v="24573" />
		<tag k="waterway" v="stream" />
	</node>
	<node lat="61.62647500387378" lon="7.280366671124841" id="-33254">
		<tag k="name" v="Vetleøyneset" />
		<tag k="natural" v="cape" />
		<tag k="ssr:stedsnr" v="25639" />
	</node>
	<node lat="61.56161389010431" lon="7.270619436486387" id="-33256">
		<tag k="name" v="Uksagjelsfossen" />
		<tag k="natural" v="waterfall" />
		<tag k="ssr:stedsnr" v="25758" />
	</node>
	<node lat="61.30946110969837" lon="7.375888894711271" id="-33285">
		<tag k="name" v="Raudbergsgrovi" />
		<tag k="ssr:stedsnr" v="26283" />
		<tag k="waterway" v="stream" />
	</node>
	<node lat="61.29764999714271" lon="7.41938888152588" id="-33288">
		<tag k="name" v="Gruvlehauggrovi" />
		<tag k="ssr:stedsnr" v="26300" />
		<tag k="waterway" v="stream" />
	</node>
	<node lat="61.43836110744328" lon="7.349788892499659" id="-33292">
		<tag k="name" v="Djuragrovi" />
		<tag k="ssr:stedsnr" v="26547" />
		<tag k="waterway" v="river" />
	</node>
	<node lat="61.43311628249697" lon="7.342592551590333" id="-33293">
		<tag k="name" v="Navarsetelvi" />
		<tag k="ssr:stedsnr" v="26556" />
		<tag k="waterway" v="river" />
	</node>
	<node lat="61.37136944185691" lon="7.0710444431765715" id="-33304">
		<tag k="name" v="Tråneset" />
		<tag k="natural" v="cape" />
		<tag k="ssr:stedsnr" v="26882" />
	</node>
	<node lat="61.49773055960464" lon="7.600594451670903" id="-33315">
		<tag k="name" v="Bruøy" />
		<tag k="natural" v="cape" />
		<tag k="ssr:stedsnr" v="26993" />
	</node>
	<node lat="61.48840000184007" lon="7.255166657535844" id="-33317">
		<tag k="name" v="Sagelvi" />
		<tag k="ssr:stedsnr" v="27059" />
		<tag k="waterway" v="stream" />
	</node>
	<node lat="61.762910641848" lon="7.467385984201071" id="-33322">
		<tag k="name" v="Styggevassdammen" />
		<tag k="ssr:stedsnr" v="27736" />
		<tag k="waterway" v="dam" />
	</node>
	<node lat="61.47894722663485" lon="7.632091663362715" id="-33342">
		<tag k="name" v="Kveåi" />
		<tag k="ssr:stedsnr" v="68311" />
		<tag k="waterway" v="stream" />
	</node>
	<node lat="61.46051388928514" lon="7.714055563945831" id="-33344">
		<tag k="name" v="Berdalsvatnet" />
		<tag k="natural" v="water" />
		<tag k="ssr:stedsnr" v="68747" />
	</node>
	<node lat="61.44758055305676" lon="7.550130560771929" id="-33345">
		<tag k="alt_name" v="Mårdøleelvi" />
		<tag k="loc_name" v="Mordøla" />
		<tag k="name" v="Mordalselvi" />
		<tag k="ssr:stedsnr" v="68754" />
		<tag k="waterway" v="river" />
	</node>
	<node lat="61.356713888989354" lon="7.069091673531546" id="-33357">
		<tag k="alt_name" v="Holetjørna" />
		<tag k="name" v="Holetjørni" />
		<tag k="natural" v="water" />
		<tag k="ssr:stedsnr" v="68476" />
	</node>
	<node lat="61.498636112566246" lon="7.996419436329386" id="-33358">
		<tag k="name" v="Kongsdøla" />
		<tag k="ssr:stedsnr" v="68558" />
		<tag k="waterway" v="stream" />
	</node>
	<node lat="61.456161769868885" lon="8.22946830869955" id="-33363">
		<tag k="name" v="Mjølkedalstjørni" />
		<tag k="natural" v="water" />
		<tag k="ssr:stedsnr" v="68842" />
		<tag k="water" v="lake" />
	</node>
	<node lat="61.224486108260955" lon="7.437277769641909" id="-33376">
		<tag k="name" v="Langeborvatnet" />
		<tag k="natural" v="water" />
		<tag k="ssr:stedsnr" v="70363" />
	</node>
	<node lat="61.784850002845026" lon="7.407769450301394" id="-33377">
		<tag k="name" v="Austdalsvatnet" />
		<tag k="natural" v="water" />
		<tag k="ssr:stedsnr" v="70602" />
		<tag k="water" v="lake" />
	</node>
	<node lat="61.5922916652709" lon="7.360352769316062" id="-33384">
		<tag k="name" v="Vanndalsvatnet" />
		<tag k="natural" v="water" />
		<tag k="ssr:stedsnr" v="71599" />
	</node>
	<node lat="61.50694166649324" lon="6.9711000056145735" id="-33385">
		<tag k="name" v="Kvernelvane" />
		<tag k="ssr:stedsnr" v="71604" />
		<tag k="waterway" v="stream" />
	</node>
	<node lat="61.51476014482869" lon="7.417326723574188" id="-33397">
		<tag k="name" v="Kvigevotni" />
		<tag k="natural" v="water" />
		<tag k="ssr:stedsnr" v="71452" />
		<tag k="water" v="lake" />
	</node>
	<node lat="61.7160750021983" lon="7.366147225651646" id="-33413">
		<tag k="name" v="Båtedøla" />
		<tag k="ssr:stedsnr" v="86240" />
		<tag k="waterway" v="stream" />
	</node>
	<node lat="61.53798333048974" lon="7.598475006902809" id="-33415">
		<tag k="name" v="Krekafossen" />
		<tag k="natural" v="waterfall" />
		<tag k="ssr:stedsnr" v="86209" />
	</node>
	<node lat="61.486136113223836" lon="7.573286109502719" id="-33434">
		<tag k="name" v="Jervaneset" />
		<tag k="natural" v="cape" />
		<tag k="ssr:stedsnr" v="86768" />
	</node>
	<node lat="61.65262222546172" lon="7.250772216792926" id="-33436">
		<tag k="name" v="Heimstegrovi" />
		<tag k="ssr:stedsnr" v="86847" />
		<tag k="waterway" v="stream" />
	</node>
	<node lat="61.5317333376624" lon="7.713641658601315" id="-33447">
		<tag k="name" v="Øygardane" />
		<tag k="natural" v="cape" />
		<tag k="ssr:stedsnr" v="87301" />
	</node>
	<node lat="61.49809722374799" lon="7.179958328526364" id="-33456">
		<tag k="name" v="Kveaodden" />
		<tag k="natural" v="cape" />
		<tag k="ssr:stedsnr" v="87662" />
	</node>
	<node lat="61.43096944248076" lon="7.111188881616351" id="-33471">
		<tag k="name" v="Hattabergi" />
		<tag k="ssr:stedsnr" v="88797" />
		<tag k="waterway" v="stream" />
	</node>
	<node lat="61.3786111138754" lon="7.056352768337199" id="-33473">
		<tag k="name" v="Kvitaberga" />
		<tag k="ssr:stedsnr" v="88700" />
		<tag k="waterway" v="stream" />
	</node>
	<node lat="61.45129444263635" lon="7.278186117769704" id="-33487">
		<tag k="alt_name" v="Ryefossen" />
		<tag k="name" v="Ryfossen" />
		<tag k="natural" v="waterfall" />
		<tag k="ssr:stedsnr" v="128061" />
	</node>
	<node lat="61.451316668835915" lon="7.477772214105447" id="-33490">
		<tag k="name" v="Holegrovi" />
		<tag k="ssr:stedsnr" v="128256" />
		<tag k="waterway" v="stream" />
	</node>
	<node lat="61.387245314855726" lon="7.554373406284401" id="-33497">
		<tag k="name" v="Husadalsvatnet" />
		<tag k="natural" v="water" />
		<tag k="ssr:stedsnr" v="128629" />
	</node>
	<node lat="61.37149722149271" lon="7.008949993036288" id="-33506">
		<tag k="alt_name" v="Løken" />
		<tag k="name" v="Løkene" />
		<tag k="ssr:stedsnr" v="129079" />
		<tag k="waterway" v="stream" />
	</node>
	<node lat="61.41559721982152" lon="7.063491671310746" id="-33507">
		<tag k="alt_name" v="Bratteteiga" />
		<tag k="name" v="Bratteiga" />
		<tag k="ssr:stedsnr" v="129144" />
		<tag k="waterway" v="stream" />
	</node>
	<node lat="61.496066664964644" lon="7.015252786337848" id="-33509">
		<tag k="name" v="Brendøygilet" />
		<tag k="ssr:stedsnr" v="129192" />
		<tag k="waterway" v="stream" />
	</node>
	<node lat="61.32251388846259" lon="7.168074990807957" id="-33510">
		<tag k="name" v="Skjervelvi" />
		<tag k="ssr:stedsnr" v="129482" />
		<tag k="waterway" v="stream" />
	</node>
	<node lat="61.5675305524451" lon="7.938761116668743" id="-33519">
		<tag k="name" v="Krongeltjerni" />
		<tag k="natural" v="water" />
		<tag k="ssr:stedsnr" v="131238" />
	</node>
	<node lat="61.54795000344177" lon="7.682833332993505" id="-33520">
		<tag k="name" v="Lambagrovi" />
		<tag k="ssr:stedsnr" v="131393" />
		<tag k="waterway" v="stream" />
	</node>
	<node lat="61.58109999928549" lon="7.647991665116815" id="-33525">
		<tag k="alt_name" v="Vetlefosso" />
		<tag k="name" v="Vetlafossa" />
		<tag k="natural" v="waterfall" />
		<tag k="ssr:stedsnr" v="131529" />
	</node>
	<node lat="61.61728888895283" lon="7.588950005505296" id="-33526">
		<tag k="name" v="Fjellsligrovi" />
		<tag k="ssr:stedsnr" v="131533" />
		<tag k="waterway" v="stream" />
	</node>
	<node lat="61.60770277732465" lon="7.653580553041344" id="-33527">
		<tag k="alt_name" v="Svaidalselvi" />
		<tag k="name" v="Sveidøla" />
		<tag k="ssr:stedsnr" v="131536" />
		<tag k="waterway" v="stream" />
	</node>
	<node lat="61.543790956392655" lon="7.9459993261441735" id="-33531">
		<tag k="name" v="Prestesteinsvatnet" />
		<tag k="natural" v="water" />
		<tag k="old_name" v="Presteinvatnet" />
		<tag k="ssr:stedsnr" v="131331" />
		<tag k="water" v="lake" />
	</node>
	<node lat="61.67086388873263" lon="7.727775004014114" id="-33540">
		<tag k="name" v="Steindalselvi" />
		<tag k="ssr:stedsnr" v="131445" />
		<tag k="waterway" v="stream" />
	</node>
	<node lat="61.67125555666887" lon="7.335858329571203" id="-33552">
		<tag k="alt_name" v="Bruvollselvi" />
		<tag k="name" v="Bruvollelvi" />
		<tag k="ssr:stedsnr" v="131754" />
		<tag k="waterway" v="river" />
	</node>
	<node lat="61.49818611136999" lon="7.762661112163506" id="-33553">
		<tag k="name" v="Bergselvi" />
		<tag k="ssr:stedsnr" v="131759" />
		<tag k="waterway" v="river" />
	</node>
	<node lat="61.26895555985192" lon="7.2931222273224146" id="-33555">
		<tag k="name" v="Nonsgjelet" />
		<tag k="ssr:stedsnr" v="137533" />
		<tag k="waterway" v="stream" />
	</node>
	<node lat="61.41182222659306" lon="7.102452772500604" id="-33558">
		<tag k="name" v="Skjermelteigneset" />
		<tag k="natural" v="cape" />
		<tag k="ssr:stedsnr" v="145757" />
	</node>
	<node lat="61.293021398751854" lon="7.163539842100165" id="-33560">
		<tag k="name" v="Vetlavatnet" />
		<tag k="natural" v="water" />
		<tag k="ssr:stedsnr" v="146887" />
		<tag k="water" v="lake" />
	</node>
	<node lat="61.52624721804499" lon="7.599002780751022" id="-33577">
		<tag k="name" v="Storøyane" />
		<tag k="place" v="island" />
		<tag k="ssr:stedsnr" v="147039" />
	</node>
	<node lat="61.56390000211283" lon="7.640338890065133" id="-33583">
		<tag k="loc_name" v="Djupatjørni" />
		<tag k="name" v="Djupetjørni" />
		<tag k="natural" v="water" />
		<tag k="ssr:stedsnr" v="147249" />
	</node>
	<node lat="61.396550004446425" lon="7.456438888752731" id="-33600">
		<tag k="name" v="Talsetegrovi" />
		<tag k="ssr:stedsnr" v="147690" />
		<tag k="waterway" v="stream" />
	</node>
	<node lat="61.307541664195554" lon="7.124674998216687" id="-33617">
		<tag k="name" v="Straumholmen" />
		<tag k="place" v="islet" />
		<tag k="ssr:stedsnr" v="148870" />
	</node>
	<node lat="61.52818610957282" lon="7.287113897330479" id="-33618">
		<tag k="name" v="Knippeneset" />
		<tag k="natural" v="cape" />
		<tag k="ssr:stedsnr" v="149089" />
	</node>
	<node lat="61.36202500195449" lon="7.092600006512195" id="-33619">
		<tag k="name" v="Holmane" />
		<tag k="place" v="islet" />
		<tag k="ssr:stedsnr" v="148942" />
	</node>
	<node lat="61.384802777874384" lon="7.520413887020542" id="-33625">
		<tag k="name" v="Rindagrovi" />
		<tag k="ssr:stedsnr" v="189626" />
		<tag k="waterway" v="stream" />
	</node>
	<node lat="61.376424995833396" lon="7.470016659002167" id="-33627">
		<tag k="name" v="Hanafossen" />
		<tag k="natural" v="waterfall" />
		<tag k="ssr:stedsnr" v="189644" />
	</node>
	<node lat="61.46061111243193" lon="7.040066668888835" id="-33651">
		<tag k="alt_name" v="Eldeøyna" />
		<tag k="name" v="Eldøyna" />
		<tag k="place" v="islet" />
		<tag k="ssr:stedsnr" v="190098" />
	</node>
	<node lat="61.45573333128812" lon="7.700483329019466" id="-33664">
		<tag k="name" v="Kvannagrovi" />
		<tag k="ssr:stedsnr" v="190742" />
		<tag k="waterway" v="stream" />
	</node>
	<node lat="61.51345555369014" lon="7.721286110019991" id="-33670">
		<tag k="name" v="Seljeskårgrovi" />
		<tag k="ssr:stedsnr" v="192356" />
		<tag k="waterway" v="stream" />
	</node>
	<node lat="61.53682499947673" lon="7.950680562105005" id="-33676">
		<tag k="name" v="Stilla" />
		<tag k="natural" v="water" />
		<tag k="ssr:stedsnr" v="192389" />
	</node>
	<node lat="61.56376388777714" lon="7.837927770879788" id="-33677">
		<tag k="alt_name" v="Skålavatnet, nedre" />
		<tag k="loc_name" v="Nedste Skålavatnet" />
		<tag k="name" v="Nedre Skålavatnet" />
		<tag k="natural" v="water" />
		<tag k="ssr:stedsnr" v="192335" />
	</node>
	<node lat="61.623901361478566" lon="7.698313767032494" id="-33688">
		<tag k="name" v="Svartedalsvotni" />
		<tag k="natural" v="water" />
		<tag k="ssr:stedsnr" v="192579" />
		<tag k="water" v="lake" />
	</node>
	<node lat="61.52370000253714" lon="7.653230548545369" id="-33693">
		<tag k="fixme" v="multiple name tags, choose one and add the other to alt_name" />
		<tag k="name" v="Tussavatnet;Myrasetvatnet" />
		<tag k="natural" v="water" />
		<tag k="ssr:stedsnr" v="192462" />
	</node>
	<node lat="61.698199995936356" lon="7.875605555483426" id="-33696">
		<tag k="name" v="Middalsvatnet" />
		<tag k="natural" v="water" />
		<tag k="ssr:stedsnr" v="192504" />
	</node>
	<node lat="61.50749999875302" lon="7.285772223207896" id="-33705">
		<tag k="name" v="Håvardsfossen" />
		<tag k="natural" v="waterfall" />
		<tag k="ssr:stedsnr" v="192639" />
	</node>
	<node lat="61.67915000413124" lon="7.236311118126949" id="-33715">
		<tag k="name" v="Seljeskredgrovi" />
		<tag k="ssr:stedsnr" v="192737" />
		<tag k="waterway" v="stream" />
	</node>
	<node lat="61.63901666486367" lon="7.127438882715936" id="-33717">
		<tag k="name" v="Vetledøla" />
		<tag k="ssr:stedsnr" v="192759" />
		<tag k="waterway" v="stream" />
	</node>
	<node lat="61.41354166456422" lon="7.256077786839707" id="-33724">
		<tag k="name" v="Kverna-grovi" />
		<tag k="ssr:stedsnr" v="208361" />
		<tag k="waterway" v="stream" />
	</node>
	<node lat="61.73916388487034" lon="7.333308338580257" id="-33727">
		<tag k="name" v="Øykeskredgrovi" />
		<tag k="ssr:stedsnr" v="207175" />
		<tag k="waterway" v="stream" />
	</node>
	<node lat="61.32881389070331" lon="7.210191671264568" id="-33728">
		<tag k="name" v="Modvagrovi" />
		<tag k="ssr:stedsnr" v="207450" />
		<tag k="waterway" v="stream" />
	</node>
	<node lat="61.48024999888462" lon="7.64943055686382" id="-33772">
		<tag k="name" v="Vassbakkgrovi" />
		<tag k="ssr:stedsnr" v="208724" />
		<tag k="waterway" v="stream" />
	</node>
	<node lat="61.614333329553524" lon="7.285411107695679" id="-33778">
		<tag k="name" v="Hendrikodden" />
		<tag k="natural" v="cape" />
		<tag k="ssr:stedsnr" v="209725" />
	</node>
	<node lat="61.61110555344803" lon="7.275066673735115" id="-33781">
		<tag k="name" v="Kvernagrovi" />
		<tag k="ssr:stedsnr" v="209735" />
		<tag k="waterway" v="stream" />
	</node>
	<node lat="61.35210277667125" lon="7.1060083365570295" id="-33799">
		<tag k="name" v="Breiviki" />
		<tag k="natural" v="bay" />
		<tag k="ssr:stedsnr" v="280487" />
	</node>
	<node lat="61.29040277394786" lon="7.106747215837843" id="-33813">
		<tag k="name" v="Svartaholgrovi" />
		<tag k="ssr:stedsnr" v="310345" />
		<tag k="waterway" v="stream" />
	</node>
	<node lat="61.38221111126619" lon="6.9985333386788025" id="-33815">
		<tag k="name" v="Løkatjørn" />
		<tag k="natural" v="water" />
		<tag k="ssr:stedsnr" v="311023" />
	</node>
	<node lat="61.493261107689825" lon="6.985233329658492" id="-33822">
		<tag k="name" v="Sumelvi" />
		<tag k="ssr:stedsnr" v="311239" />
		<tag k="waterway" v="river" />
	</node>
	<node lat="61.285547225204304" lon="7.421355554477363" id="-33837">
		<tag k="alt_name" v="Vetlestølselv" />
		<tag k="name" v="Vetlestølselvi" />
		<tag k="ssr:stedsnr" v="311651" />
		<tag k="waterway" v="stream" />
	</node>
	<node lat="61.56293333548958" lon="7.944583342540694" id="-33844">
		<tag k="name" v="Mefjellsvatnet" />
		<tag k="natural" v="water" />
		<tag k="ssr:stedsnr" v="313248" />
	</node>
	<node lat="61.7337638905586" lon="7.395338883841203" id="-33850">
		<tag k="alt_name" v="Sjursdøla" />
		<tag k="name" v="Sprongdøla" />
		<tag k="ssr:stedsnr" v="313615" />
		<tag k="waterway" v="river" />
	</node>
	<node lat="61.54503888690863" lon="7.992155556142671" id="-33859">
		<tag k="name" v="Rundhaugelvi" />
		<tag k="ssr:stedsnr" v="313358" />
		<tag k="waterway" v="stream" />
	</node>
	<node lat="61.536608333352596" lon="7.997916657842602" id="-33860">
		<tag k="name" v="Bytta" />
		<tag k="natural" v="water" />
		<tag k="ssr:stedsnr" v="313360" />
	</node>
	<node lat="61.623191665071126" lon="7.571158341061992" id="-33863">
		<tag k="name" v="Kvitene" />
		<tag k="ssr:stedsnr" v="313494" />
		<tag k="waterway" v="stream" />
	</node>
	<node lat="61.65372499919217" lon="7.884550000754774" id="-33883">
		<tag k="alt_name" v="Grønevatnet, øvre" />
		<tag k="name" v="Øvre Grønevatnet" />
		<tag k="natural" v="water" />
		<tag k="ssr:stedsnr" v="314535" />
	</node>
	<node lat="61.60847742092979" lon="7.218743573268906" id="-33886">
		<tag k="name" v="Småvatni" />
		<tag k="natural" v="water" />
		<tag k="ssr:stedsnr" v="314670" />
		<tag k="water" v="lake" />
	</node>
	<node lat="61.46961944882498" lon="7.21316945112409" id="-33887">
		<tag k="name" v="Moaløken" />
		<tag k="natural" v="water" />
		<tag k="ssr:stedsnr" v="327530" />
		<tag k="water" v="lake" />
	</node>
	<node lat="61.74149999835918" lon="7.352125007494198" id="-33896">
		<tag k="name" v="Sandskreda" />
		<tag k="ssr:stedsnr" v="329241" />
		<tag k="waterway" v="stream" />
	</node>
	<node lat="61.42305833598021" lon="7.252713888803695" id="-33898">
		<tag k="name" v="Mardøla" />
		<tag k="ssr:stedsnr" v="329293" />
		<tag k="waterway" v="stream" />
	</node>
	<node lat="61.40216666508883" lon="7.329608333529052" id="-33909">
		<tag k="name" v="Raudbergsgrovi" />
		<tag k="ssr:stedsnr" v="329539" />
		<tag k="waterway" v="stream" />
	</node>
	<node lat="61.62738888476349" lon="7.271502768881576" id="-33911">
		<tag k="name" v="Storøy" />
		<tag k="natural" v="cape" />
		<tag k="ssr:stedsnr" v="329614" />
	</node>
	<node lat="61.51223333382464" lon="7.34590833743615" id="-33922">
		<tag k="name" v="Vigdalselvi" />
		<tag k="ssr:stedsnr" v="330920" />
		<tag k="waterway" v="river" />
	</node>
	<node lat="61.36187777853516" lon="7.071636106548368" id="-33923">
		<tag k="name" v="Lånene" />
		<tag k="natural" v="water" />
		<tag k="ssr:stedsnr" v="330935" />
		<tag k="water" v="lake" />
	</node>
	<node lat="61.510180558472165" lon="7.370227780044871" id="-33925">
		<tag k="name" v="Drivandegrovi" />
		<tag k="ssr:stedsnr" v="329930" />
		<tag k="waterway" v="river" />
	</node>
	<node lat="61.5147472260203" lon="7.444655557858711" id="-33928">
		<tag k="name" v="Ågotbukti" />
		<tag k="natural" v="bay" />
		<tag k="ssr:stedsnr" v="329965" />
	</node>
	<node lat="61.64443611119536" lon="7.098047218156453" id="-33932">
		<tag k="name" v="Slanaelvi" />
		<tag k="ssr:stedsnr" v="329981" />
		<tag k="waterway" v="river" />
	</node>
	<node lat="61.27370555562322" lon="7.403044447738719" id="-33934">
		<tag k="name" v="Brattebakkgrøvene" />
		<tag k="ssr:stedsnr" v="330318" />
		<tag k="waterway" v="stream" />
	</node>
	<node lat="61.56091388769317" lon="7.631494438759743" id="-33936">
		<tag k="loc_name" v="Storatjørni" />
		<tag k="name" v="Storetjørni" />
		<tag k="natural" v="water" />
		<tag k="ssr:stedsnr" v="330275" />
	</node>
	<node lat="61.469688892759926" lon="7.463344435588774" id="-33938">
		<tag k="name" v="Tverrelvi" />
		<tag k="ssr:stedsnr" v="330469" />
		<tag k="waterway" v="river" />
	</node>
	<node lat="61.4424805561847" lon="7.350561105037846" id="-33941">
		<tag k="name" v="Svartavatnelvi" />
		<tag k="ssr:stedsnr" v="330601" />
		<tag k="waterway" v="river" />
	</node>
	<node lat="61.48057777931462" lon="7.413647215130255" id="-33942">
		<tag k="name" v="Pergrovi" />
		<tag k="ssr:stedsnr" v="330656" />
		<tag k="waterway" v="stream" />
	</node>
	<node lat="61.51473889091985" lon="7.122313897897347" id="-33946">
		<tag k="name" v="Bruastø" />
		<tag k="natural" v="cape" />
		<tag k="ssr:stedsnr" v="330710" />
	</node>
	<node lat="61.45233889338943" lon="7.386980561429795" id="-33970">
		<tag k="name" v="Osane" />
		<tag k="natural" v="water" />
		<tag k="ssr:stedsnr" v="371268" />
	</node>
	<node lat="61.357980556996196" lon="7.151280550091196" id="-33976">
		<tag k="name" v="Svortediket" />
		<tag k="natural" v="water" />
		<tag k="ssr:stedsnr" v="371433" />
	</node>
	<node lat="61.3800277774964" lon="7.453613886539294" id="-33981">
		<tag k="alt_name" v="Feigedalselvi;Feigumelva" />
		<tag k="name" v="Feigeelvi" />
		<tag k="ssr:stedsnr" v="371653" />
		<tag k="waterway" v="river" />
	</node>
	<node lat="61.43812221806136" lon="7.373930559370068" id="-33985">
		<tag k="name" v="Skabakkvatnet" />
		<tag k="natural" v="water" />
		<tag k="ssr:stedsnr" v="371750" />
	</node>
	<node lat="61.42423333042704" lon="6.932669437028984" id="-33988">
		<tag k="name" v="Kvitaelvi" />
		<tag k="ssr:stedsnr" v="371882" />
		<tag k="waterway" v="stream" />
	</node>
	<node lat="61.5478333361282" lon="7.860674998211547" id="-33998">
		<tag k="alt_name" v="Hervavatnet, nedste" />
		<tag k="name" v="Nedste Hervavatnet" />
		<tag k="natural" v="water" />
		<tag k="ssr:stedsnr" v="373337" />
	</node>
	<node lat="61.53729444206746" lon="6.935613888008494" id="-34005">
		<tag k="name" v="Greinene" />
		<tag k="ssr:stedsnr" v="373868" />
		<tag k="waterway" v="stream" />
	</node>
	<node lat="61.57506389255774" lon="7.316713887967336" id="-34009">
		<tag k="name" v="Skåldalstjørni" />
		<tag k="natural" v="water" />
		<tag k="ssr:stedsnr" v="373693" />
	</node>
	<node lat="61.50971944066375" lon="6.940505552115947" id="-34011">
		<tag k="alt_name" v="Sauedøla" />
		<tag k="name" v="Snauedøla" />
		<tag k="ssr:stedsnr" v="374774" />
		<tag k="waterway" v="river" />
	</node>
	<node lat="61.52306110972732" lon="7.505002775511346" id="-34015">
		<tag k="name" v="Midtfjellsvotni" />
		<tag k="natural" v="water" />
		<tag k="ssr:stedsnr" v="374434" />
		<tag k="water" v="lake" />
	</node>
	<node lat="61.51218611170594" lon="7.300961112376038" id="-34020">
		<tag k="name" v="Vigdøla" />
		<tag k="ssr:stedsnr" v="374601" />
		<tag k="waterway" v="stream" />
	</node>
	<node lat="61.61057500228125" lon="7.309733331968719" id="-34022">
		<tag k="alt_name" v="Geisdalsfossen" />
		<tag k="name" v="Geisfossen" />
		<tag k="natural" v="waterfall" />
		<tag k="ssr:stedsnr" v="374610" />
	</node>
	<node lat="61.67394999630176" lon="7.8739361057237405" id="-34025">
		<tag k="name" v="Namnlausvatnet" />
		<tag k="natural" v="water" />
		<tag k="ssr:stedsnr" v="374462" />
	</node>
	<node lat="61.597805553626095" lon="7.618013896791018" id="-34045">
		<tag k="name" v="Sværene" />
		<tag k="ssr:stedsnr" v="389183" />
		<tag k="waterway" v="stream" />
	</node>
	<node lat="61.425652773509846" lon="7.222594446615753" id="-34047">
		<tag k="name" v="Veltevad" />
		<tag k="natural" v="water" />
		<tag k="ssr:stedsnr" v="389360" />
		<tag k="water" v="lake" />
	</node>
	<node lat="61.42934444448386" lon="7.282372219196117" id="-34053">
		<tag k="name" v="Skårselvi" />
		<tag k="ssr:stedsnr" v="389459" />
		<tag k="waterway" v="river" />
	</node>
	<node lat="61.64402499653897" lon="7.300852768930565" id="-34063">
		<tag k="name" v="Buskredgrovi" />
		<tag k="ssr:stedsnr" v="389590" />
		<tag k="waterway" v="stream" />
	</node>
	<node lat="61.51308333334855" lon="8.146677776574254" id="-34065">
		<tag k="name" v="Gravdalsdammen" />
		<tag k="natural" v="water" />
		<tag k="ssr:stedsnr" v="495148" />
		<tag k="water" v="lake" />
	</node>
	<node lat="61.52612500196306" lon="8.145663894233762" id="-34067">
		<tag k="name" v="Sandelvi" />
		<tag k="ssr:stedsnr" v="495152" />
		<tag k="waterway" v="stream" />
	</node>
	<node lat="61.38302222110288" lon="7.222574995373109" id="-34075">
		<tag k="name" v="Midtstølselvi" />
		<tag k="ssr:stedsnr" v="389643" />
		<tag k="waterway" v="river" />
	</node>
	<node lat="61.50398333504827" lon="7.605638892521978" id="-34080">
		<tag k="name" v="Floane" />
		<tag k="ssr:stedsnr" v="389683" />
		<tag k="waterway" v="river" />
	</node>
	<node lat="61.47278610965852" lon="7.600727778344108" id="-34082">
		<tag k="loc_name" v="Bjørnatjørni" />
		<tag k="name" v="Bjørnetjørni" />
		<tag k="natural" v="water" />
		<tag k="ssr:stedsnr" v="389736" />
	</node>
	<node lat="61.46106111355929" lon="7.48681389414002" id="-34089">
		<tag k="name" v="Børesteingrovi" />
		<tag k="ssr:stedsnr" v="389868" />
		<tag k="waterway" v="stream" />
	</node>
	<node lat="61.56623888816149" lon="7.641569453857327" id="-34094">
		<tag k="loc_name" v="Svinatjørni" />
		<tag k="name" v="Svinetjørni" />
		<tag k="natural" v="water" />
		<tag k="ssr:stedsnr" v="390251" />
	</node>
	<node lat="61.51437222514745" lon="7.1650083259356085" id="-34119">
		<tag k="name" v="Styrpet" />
		<tag k="natural" v="cape" />
		<tag k="ssr:stedsnr" v="390974" />
	</node>
	<node lat="61.23237499976751" lon="7.3941027720162555" id="-34130">
		<tag k="name" v="Kvalagjeli" />
		<tag k="ssr:stedsnr" v="419236" />
		<tag k="waterway" v="stream" />
	</node>
	<node lat="61.33787500106323" lon="7.099497221266831" id="-34136">
		<tag k="alt_name" v="Kalvaskinnet" />
		<tag k="name" v="Kalvskinnet" />
		<tag k="natural" v="cape" />
		<tag k="ssr:stedsnr" v="432428" />
	</node>
	<node lat="61.43735278027993" lon="7.986783332870368" id="-34138">
		<tag k="name" v="Utla" />
		<tag k="ssr:stedsnr" v="432479" />
		<tag k="waterway" v="river" />
	</node>
	<node lat="61.373302776646405" lon="7.118786119404664" id="-34150">
		<tag k="name" v="Uratjørni" />
		<tag k="natural" v="water" />
		<tag k="ssr:stedsnr" v="433039" />
	</node>
	<node lat="61.43256111035056" lon="7.587144446814719" id="-34164">
		<tag k="name" v="Svartholsvatnet" />
		<tag k="natural" v="water" />
		<tag k="ssr:stedsnr" v="433742" />
	</node>
	<node lat="61.50169726942602" lon="7.534865353439097" id="-34165">
		<tag k="alt_name" v="Nedste Sagavatnet;Øvste Sagavatnet" />
		<tag k="name" v="Sagavotni" />
		<tag k="natural" v="water" />
		<tag k="ssr:stedsnr" v="434350" />
		<tag k="water" v="lake" />
	</node>
	<node lat="61.51510000436491" lon="8.177622220672957" id="-34167">
		<tag k="name" v="Storutla" />
		<tag k="ssr:stedsnr" v="435154" />
		<tag k="waterway" v="river" />
	</node>
	<node lat="61.57986388555363" lon="7.165616661638125" id="-34169">
		<tag k="name" v="Kyrkjedalsvatnet" />
		<tag k="natural" v="water" />
		<tag k="ssr:stedsnr" v="434654" />
	</node>
	<node lat="61.50012778128649" lon="7.872033329662464" id="-34174">
		<tag k="name" v="Skauta" />
		<tag k="ssr:stedsnr" v="435386" />
		<tag k="waterway" v="stream" />
	</node>
	<node lat="61.55304999592037" lon="7.948250008635979" id="-34176">
		<tag k="name" v="Simla" />
		<tag k="natural" v="water" />
		<tag k="ssr:stedsnr" v="435392" />
	</node>
</osm>
