<?xml version="1.0" encoding="UTF-8"?>
<<<<<<< HEAD
<osm version="0.6" generator="osmapis">
	<node lat="61.65022777363228" lon="7.067811113450019" id="-28529">
		<tag k="alt_name" v="Bergsetbre" />
		<tag k="name" v="Bergsetbreen" />
		<tag k="natural" v="glacier" />
		<tag k="ssr:stedsnr" v="10732" />
	</node>
	<node lat="61.60966944822936" lon="7.276158337159145" id="-28537">
=======
<osm generator="osmapis" version="0.6">
	<node id="-681983" lat="61.4007333303" lon="7.21705832881">
		<tag k="name" v="Storamyri" />
		<tag k="natural" v="wetland" />
		<tag k="ssr:stedsnr" v="27761" />
	</node>
	<node id="-682324" lat="61.6468361117" lon="7.14939443734">
		<tag k="name" v="Lauvsteinen" />
		<tag k="natural" v="stone" />
		<tag k="ssr:stedsnr" v="147943" />
	</node>
	<node id="-683509" lat="61.4777694435" lon="7.4152527865">
		<tag k="name" v="Gråuri" />
		<tag k="natural" v="scree" />
		<tag k="ssr:stedsnr" v="755624" />
	</node>
	<node id="-681969" lat="61.6436916625" lon="7.14409444412">
		<tag k="name" v="Kolasteinen" />
		<tag k="natural" v="stone" />
		<tag k="ssr:stedsnr" v="26944" />
	</node>
	<node id="-681455" lat="61.8191305546" lon="7.34765832979">
		<tag k="name" v="Austdalsbreen" />
		<tag k="natural" v="glacier" />
		<tag k="ssr:stedsnr" v="920622" />
	</node>
	<node id="-681453" lat="61.504675004" lon="7.18721111997">
		<tag k="name" v="Løkjafari" />
		<tag k="place" v="locality" />
		<tag k="ssr:stedsnr" v="920614" />
	</node>
	<node id="-681451" lat="61.7327888903" lon="7.68933889715">
		<tag k="name" v="Fortundalsbreen" />
		<tag k="natural" v="glacier" />
		<tag k="ssr:stedsnr" v="920600" />
	</node>
	<node id="-680615" lat="61.376677777" lon="7.47571388118">
		<tag k="name" v="Hanafossmyrane" />
		<tag k="natural" v="wetland" />
		<tag k="ssr:stedsnr" v="371657" />
	</node>
	<node id="-681446" lat="61.5228666671" lon="6.99257222396">
		<tag k="name" v="Røysane" />
		<tag k="natural" v="stone" />
		<tag k="ssr:stedsnr" v="920579" />
	</node>
	<node id="-681445" lat="61.7845416666" lon="7.32730555701">
		<tag k="name" v="Stigaholtbreen" />
		<tag k="natural" v="glacier" />
		<tag k="ssr:stedsnr" v="920555" />
	</node>
	<node id="-681069" lat="61.7839555552" lon="7.24073611077">
		<tag k="name" v="Lodalsbreen" />
		<tag k="natural" v="glacier" />
		<tag k="ssr:stedsnr" v="555514" />
	</node>
	<node id="-682466" lat="61.7123972211" lon="7.34324445292">
		<tag k="name" v="Storemyri" />
		<tag k="natural" v="wetland" />
		<tag k="ssr:stedsnr" v="208249" />
	</node>
	<node id="-680929" lat="61.6031555517" lon="7.4858000039">
		<tag k="name" v="Spørteggbreen" />
		<tag k="natural" v="glacier" />
		<tag k="ssr:stedsnr" v="677546" />
	</node>
	<node id="-682464" lat="61.7191333357" lon="7.36739443534">
		<tag k="name" v="Follasteinen" />
		<tag k="natural" v="stone" />
		<tag k="ssr:stedsnr" v="208244" />
	</node>
	<node id="-680411" lat="61.6412805565" lon="7.17953332926">
		<tag k="name" v="Myrane" />
		<tag k="natural" v="wetland" />
		<tag k="ssr:stedsnr" v="269971" />
	</node>
	<node id="-679898" lat="61.4716305598" lon="7.12948889332">
		<tag k="name" v="Hestbreen" />
		<tag k="natural" v="glacier" />
		<tag k="ssr:stedsnr" v="250184" />
	</node>
	<node id="-681945" lat="61.4822194422" lon="7.67425277057">
		<tag k="name" v="Åsamarki" />
		<tag k="place" v="locality" />
		<tag k="ssr:stedsnr" v="26347" />
	</node>
	<node id="-681944" lat="61.4394333321" lon="7.2812694393">
		<tag k="name" v="Langamyri" />
		<tag k="natural" v="wetland" />
		<tag k="ssr:stedsnr" v="26319" />
	</node>
	<node id="-681431" lat="61.7687055518" lon="7.39497777823">
		<tag k="name" v="Vivakulen" />
		<tag k="natural" v="glacier" />
		<tag k="ssr:stedsnr" v="920490" />
	</node>
	<node id="-679894" lat="61.4123166679" lon="7.20475556421">
		<tag k="alt_name" v="Fuglamyri" />
		<tag k="name" v="Fuglemyr" />
		<tag k="natural" v="wetland" />
		<tag k="ssr:stedsnr" v="250117" />
	</node>
	<node id="-683475" lat="61.3797750035" lon="7.27150555372">
		<tag k="name" v="Storteig" />
		<tag k="place" v="locality" />
		<tag k="ssr:stedsnr" v="754684" />
	</node>
	<node id="-680401" lat="61.4225416711" lon="7.33999166602">
		<tag k="name" v="Langesmyr" />
		<tag k="natural" v="wetland" />
		<tag k="ssr:stedsnr" v="269566" />
	</node>
	<node id="-683470" lat="61.3855249974" lon="7.24443055418">
		<tag k="name" v="Raudbergsteigen" />
		<tag k="place" v="locality" />
		<tag k="ssr:stedsnr" v="754639" />
	</node>
	<node id="-682444" lat="61.6501638906" lon="7.26571666555">
		<tag k="name" v="Storskogen" />
		<tag k="place" v="locality" />
		<tag k="ssr:stedsnr" v="207802" />
	</node>
	<node id="-682440" lat="61.604411112" lon="7.27487776979">
		<tag k="name" v="Instegardsuri" />
		<tag k="natural" v="scree" />
		<tag k="ssr:stedsnr" v="207692" />
	</node>
	<node id="-682439" lat="61.6353972252" lon="7.23218888096">
		<tag k="name" v="Storesteinen" />
		<tag k="natural" v="stone" />
		<tag k="ssr:stedsnr" v="207624" />
	</node>
	<node id="-679878" lat="61.5128499976" lon="7.15358610246">
		<tag k="alt_name" v="Vedasteinane" />
		<tag k="name" v="Veasteinane" />
		<tag k="natural" v="stone" />
		<tag k="ssr:stedsnr" v="71609" />
	</node>
	<node id="-682436" lat="61.4725611152" lon="7.21245277543">
		<tag k="name" v="Grautamyri" />
		<tag k="natural" v="wetland" />
		<tag k="ssr:stedsnr" v="207488" />
	</node>
	<node id="-680899" lat="61.455719443" lon="7.91799166305">
		<tag k="name" v="Maradalsbreen" />
		<tag k="natural" v="glacier" />
		<tag k="ssr:stedsnr" v="675530" />
	</node>
	<node id="-682431" lat="61.734905556" lon="7.3649999953">
		<tag k="name" v="Geitasteinen" />
		<tag k="natural" v="stone" />
		<tag k="ssr:stedsnr" v="207161" />
	</node>
	<node id="-680382" lat="61.4100944441" lon="7.21892499082">
		<tag k="name" v="Dretdiket" />
		<tag k="natural" v="wetland" />
		<tag k="ssr:stedsnr" v="268458" />
	</node>
	<node id="-683452" lat="61.579213892" lon="7.2696527787">
		<tag k="name" v="Kolsetemyrane" />
		<tag k="natural" v="wetland" />
		<tag k="ssr:stedsnr" v="754538" />
	</node>
	<node id="-679867" lat="61.594705554" lon="7.17962776863">
		<tag k="name" v="Røykjedalsbreen" />
		<tag k="natural" v="glacier" />
		<tag k="ssr:stedsnr" v="70631" />
	</node>
	<node id="-682426" lat="61.6608472207" lon="7.30661110899">
		<tag k="historic" v="shieling" />
		<tag k="name" v="Myrvollen" />
		<tag k="place" v="locality" />
		<tag k="ssr:stedsnr" v="192768" />
	</node>
	<node id="-680377" lat="61.4086083301" lon="7.34410000571">
		<tag k="name" v="Svartamyr" />
		<tag k="natural" v="wetland" />
		<tag k="ssr:stedsnr" v="268522" />
	</node>
	<node id="-681911" lat="61.5219861088" lon="7.43364723172">
		<tag k="name" v="Geithillerkyrkja" />
		<tag k="natural" v="stone" />
		<tag k="ssr:stedsnr" v="25951" />
	</node>
	<node id="-681545" lat="61.4837249963" lon="7.03729721586">
		<tag k="name" v="Uri" />
		<tag k="natural" v="scree" />
		<tag k="ssr:stedsnr" v="817974" />
	</node>
	<node id="-682932" lat="61.8080388896" lon="7.44619166188">
		<tag k="name" v="Kupbreen" />
		<tag k="natural" v="glacier" />
		<tag k="ssr:stedsnr" v="435647" />
	</node>
	<node id="-681395" lat="61.4261472217" lon="7.01034166702">
		<tag k="name" v="Lysebreen" />
		<tag k="natural" v="glacier" />
		<tag k="ssr:stedsnr" v="918099" />
	</node>
	<node id="-682930" lat="61.789791667" lon="7.36406389352">
		<tag k="name" v="Austdalsnuten" />
		<tag k="natural" v="glacier" />
		<tag k="ssr:stedsnr" v="435644" />
	</node>
	<node id="-683441" lat="61.4234861121" lon="7.27635554964">
		<tag k="name" v="Kolamyri" />
		<tag k="natural" v="wetland" />
		<tag k="ssr:stedsnr" v="754354" />
	</node>
	<node id="-680367" lat="61.4340361124" lon="7.20980833785">
		<tag k="name" v="Skårmyri" />
		<tag k="natural" v="wetland" />
		<tag k="ssr:stedsnr" v="267570" />
	</node>
	<node id="-680588" lat="61.5711833368" lon="6.98852500543">
		<tag k="name" v="Breasandane" />
		<tag k="natural" v="beach" />
		<tag k="ssr:stedsnr" v="495688" />
		<tag k="surface" v="sand" />
	</node>
	<node id="-681898" lat="61.6096694482" lon="7.27615833716">
>>>>>>> e1d4bc35ff8a6074a6f2e91616a996b547c36f15
		<tag k="name" v="Grovasteinen" />
		<tag k="natural" v="stone" />
		<tag k="ssr:stedsnr" v="25712" />
	</node>
<<<<<<< HEAD
	<node lat="61.43943333207248" lon="7.281269439298619" id="-28548">
		<tag k="name" v="Langamyri" />
		<tag k="natural" v="wetland" />
		<tag k="ssr:stedsnr" v="26319" />
	</node>
	<node lat="61.476241664177884" lon="7.276075003746818" id="-28574">
		<tag k="name" v="Steinane" />
		<tag k="natural" v="stone" />
		<tag k="ssr:stedsnr" v="28205" />
	</node>
	<node lat="61.436350002166726" lon="7.0122805604057215" id="-28593">
=======
	<node id="-679849" lat="61.4363500022" lon="7.01228056041">
>>>>>>> e1d4bc35ff8a6074a6f2e91616a996b547c36f15
		<tag k="name" v="Bukkabreen" />
		<tag k="natural" v="glacier" />
		<tag k="ssr:stedsnr" v="68103" />
	</node>
<<<<<<< HEAD
	<node lat="61.5947055539966" lon="7.179627768627403" id="-28617">
		<tag k="name" v="Røykjedalsbreen" />
=======
	<node id="-681384" lat="61.4950361147" lon="8.19787499715">
		<tag k="name" v="Alvbreen" />
>>>>>>> e1d4bc35ff8a6074a6f2e91616a996b547c36f15
		<tag k="natural" v="glacier" />
		<tag k="ssr:stedsnr" v="70631" />
	</node>
<<<<<<< HEAD
	<node lat="61.466647225043545" lon="7.192200007353327" id="-28642">
		<tag k="name" v="Øystølsmyri" />
=======
	<node id="-680355" lat="61.5119833358" lon="7.30830555689">
		<tag k="name" v="Myrteigen" />
>>>>>>> e1d4bc35ff8a6074a6f2e91616a996b547c36f15
		<tag k="natural" v="wetland" />
		<tag k="ssr:stedsnr" v="85428" />
	</node>
<<<<<<< HEAD
	<node lat="61.27747777958818" lon="7.359533339584212" id="-28653">
		<tag k="name" v="Skreppurane" />
=======
	<node id="-680864" lat="61.5370083301" lon="7.62016388922">
		<tag k="name" v="Bratturane" />
>>>>>>> e1d4bc35ff8a6074a6f2e91616a996b547c36f15
		<tag k="natural" v="scree" />
		<tag k="ssr:stedsnr" v="86379" />
	</node>
<<<<<<< HEAD
	<node lat="61.36778333261724" lon="7.053425001637773" id="-28687">
		<tag k="name" v="Pepparmyri" />
		<tag k="natural" v="wetland" />
		<tag k="ssr:stedsnr" v="88676" />
	</node>
	<node lat="61.41231666791901" lon="7.2047555642070344" id="-28701">
		<tag k="alt_name" v="Fuglamyri" />
		<tag k="name" v="Fuglemyr" />
		<tag k="natural" v="wetland" />
		<tag k="ssr:stedsnr" v="250117" />
	</node>
	<node lat="61.47163055979742" lon="7.1294888933240586" id="-28705">
		<tag k="name" v="Hestbreen" />
=======
	<node id="-681885" lat="61.6502277736" lon="7.06781111345">
		<tag k="alt_name" v="Bergsetbre" />
		<tag k="name" v="Bergsetbreen" />
>>>>>>> e1d4bc35ff8a6074a6f2e91616a996b547c36f15
		<tag k="natural" v="glacier" />
		<tag k="ssr:stedsnr" v="250184" />
	</node>
<<<<<<< HEAD
	<node lat="61.373508334558494" lon="7.186630558301763" id="-28747">
		<tag k="name" v="Hjortastein" />
=======
	<node id="-680858" lat="61.486333337" lon="7.44902221367">
		<tag k="name" v="Kjerringstein" />
>>>>>>> e1d4bc35ff8a6074a6f2e91616a996b547c36f15
		<tag k="natural" v="stone" />
		<tag k="ssr:stedsnr" v="251036" />
	</node>
<<<<<<< HEAD
	<node lat="61.53928333670315" lon="6.977983331038044" id="-28810">
		<tag k="name" v="Sandane" />
		<tag k="natural" v="beach" />
		<tag k="ssr:stedsnr" v="252623" />
		<tag k="surface" v="sand" />
	</node>
	<node lat="61.72294444228509" lon="7.528049995848832" id="-28820">
		<tag k="name" v="Greinbreen" />
=======
	<node id="-683417" lat="61.4036138885" lon="7.38922223159">
		<tag k="name" v="Bustein" />
		<tag k="natural" v="stone" />
		<tag k="ssr:stedsnr" v="753665" />
	</node>
	<node id="-682390" lat="61.4216694403" lon="6.8983472247">
		<tag k="name" v="Tuftabreen" />
>>>>>>> e1d4bc35ff8a6074a6f2e91616a996b547c36f15
		<tag k="natural" v="glacier" />
		<tag k="ssr:stedsnr" v="131502" />
	</node>
<<<<<<< HEAD
	<node lat="61.71266111432162" lon="7.266350005912523" id="-28827">
		<tag k="name" v="Fåbergstølsbreen" />
		<tag k="natural" v="glacier" />
		<tag k="ssr:stedsnr" v="252653" />
	</node>
	<node lat="61.73339999949379" lon="7.854958332420379" id="-28830">
		<tag k="name" v="Holåbreen" />
		<tag k="natural" v="glacier" />
		<tag k="ssr:stedsnr" v="131772" />
	</node>
	<node lat="61.50492499916691" lon="7.355388883112955" id="-28841">
		<tag k="alt_name" v="Likholsmyrane" />
		<tag k="name" v="Likholmyri" />
=======
	<node id="-683413" lat="61.4748361113" lon="7.19685000307">
		<tag k="name" v="Languri" />
		<tag k="natural" v="scree" />
		<tag k="ssr:stedsnr" v="753489" />
	</node>
	<node id="-681873" lat="61.5069249966" lon="7.32008055462">
		<tag k="name" v="Skitnamyri" />
>>>>>>> e1d4bc35ff8a6074a6f2e91616a996b547c36f15
		<tag k="natural" v="wetland" />
		<tag k="ssr:stedsnr" v="253439" />
	</node>
<<<<<<< HEAD
	<node lat="61.52112222173467" lon="7.050466665645853" id="-28853">
		<tag k="alt_name" v="Tverrdalsbreen" />
		<tag k="name" v="Tverradalsbreen" />
		<tag k="natural" v="glacier" />
		<tag k="ssr:stedsnr" v="253598" />
	</node>
	<node lat="61.521591664934185" lon="7.444061106212028" id="-28873">
		<tag k="name" v="Kringlemyrane" />
		<tag k="natural" v="wetland" />
		<tag k="ssr:stedsnr" v="146938" />
	</node>
	<node lat="61.47178055427084" lon="7.906549994193095" id="-28896">
		<tag k="alt_name" v="Jervvassbreen" />
		<tag k="name" v="Gjertvassbreen" />
=======
	<node id="-681360" lat="61.3788138883" lon="7.45220278166">
		<tag k="name" v="Øystølsmyrane" />
		<tag k="natural" v="wetland" />
		<tag k="ssr:stedsnr" v="694653" />
	</node>
	<node id="-680846" lat="61.500708335" lon="7.47372221842">
		<tag k="name" v="Kvamsmyrane" />
		<tag k="natural" v="wetland" />
		<tag k="ssr:stedsnr" v="450541" />
	</node>
	<node id="-680845" lat="61.5202000001" lon="7.68359445376">
		<tag k="name" v="Ormasetmarki" />
		<tag k="place" v="locality" />
		<tag k="ssr:stedsnr" v="450525" />
	</node>
	<node id="-681868" lat="61.7828499983" lon="7.20943610583">
		<tag k="name" v="Småttene" />
>>>>>>> e1d4bc35ff8a6074a6f2e91616a996b547c36f15
		<tag k="natural" v="glacier" />
		<tag k="ssr:stedsnr" v="147529" />
	</node>
<<<<<<< HEAD
	<node lat="61.30198888778014" lon="7.137827774245205" id="-28912">
		<tag k="name" v="Kalbakkamyri" />
		<tag k="natural" v="wetland" />
		<tag k="ssr:stedsnr" v="148902" />
	</node>
	<node lat="61.56263055878041" lon="6.85079443603432" id="-28942">
		<tag k="name" v="Bjørnakyrkjebreen" />
=======
	<node id="-683397" lat="61.5821416685" lon="7.13096667115">
		<tag k="name" v="Tunsbergdalsbreen" />
>>>>>>> e1d4bc35ff8a6074a6f2e91616a996b547c36f15
		<tag k="natural" v="glacier" />
		<tag k="ssr:stedsnr" v="191810" />
	</node>
<<<<<<< HEAD
	<node lat="61.434036112377356" lon="7.209808337848426" id="-28948">
		<tag k="name" v="Skårmyri" />
		<tag k="natural" v="wetland" />
		<tag k="ssr:stedsnr" v="267570" />
	</node>
	<node lat="61.66458333351427" lon="7.314047212991139" id="-28952">
		<tag k="name" v="Ulvemyri" />
=======
	<node id="-680833" lat="61.6526818407" lon="7.27993660531">
		<tag k="name" v="Berggjerdet" />
		<tag k="place" v="locality" />
		<tag k="ssr:stedsnr" v="435736" />
	</node>
	<node id="-679807" lat="61.4529083298" lon="7.43217221507">
		<tag k="name" v="Nipemyrane" />
>>>>>>> e1d4bc35ff8a6074a6f2e91616a996b547c36f15
		<tag k="natural" v="wetland" />
		<tag k="ssr:stedsnr" v="268139" />
	</node>
<<<<<<< HEAD
	<node lat="61.573613890612684" lon="7.276436104420525" id="-28957">
		<tag k="name" v="Foresteinuri" />
		<tag k="natural" v="scree" />
		<tag k="ssr:stedsnr" v="268494" />
	</node>
	<node lat="61.40860833012691" lon="7.344100005707186" id="-28961">
		<tag k="name" v="Svartamyr" />
		<tag k="natural" v="wetland" />
		<tag k="ssr:stedsnr" v="268522" />
	</node>
	<node lat="61.41009444408047" lon="7.218924990818879" id="-28967">
		<tag k="name" v="Dretdiket" />
		<tag k="natural" v="wetland" />
		<tag k="ssr:stedsnr" v="268458" />
	</node>
	<node lat="61.40615555735147" lon="7.327150007310922" id="-28969">
		<tag k="name" v="Lysemyr" />
=======
	<node id="-679806" lat="61.4954944442" lon="7.46486665763">
		<tag k="name" v="Løstein" />
		<tag k="natural" v="stone" />
		<tag k="ssr:stedsnr" v="25512" />
	</node>
	<node id="-681877" lat="61.6184381196" lon="7.12983960197">
		<tag k="name" v="Tverradalsbreen" />
		<tag k="natural" v="glacier" />
		<tag k="ssr:stedsnr" v="10667" />
	</node>
	<node id="-680316" lat="61.6778111072" lon="7.30925832738">
		<tag k="name" v="Storesteinen" />
		<tag k="natural" v="stone" />
		<tag k="ssr:stedsnr" v="451166" />
	</node>
	<node id="-681279" lat="61.3693749973" lon="7.23763612012">
		<tag k="name" v="Martamyr" />
>>>>>>> e1d4bc35ff8a6074a6f2e91616a996b547c36f15
		<tag k="natural" v="wetland" />
		<tag k="ssr:stedsnr" v="268534" />
	</node>
<<<<<<< HEAD
	<node lat="61.49548611434457" lon="7.456886116754927" id="-28972">
		<tag k="name" v="Lømyrane" />
		<tag k="natural" v="wetland" />
		<tag k="ssr:stedsnr" v="268546" />
	</node>
	<node lat="61.63539722521141" lon="7.232188880957003" id="-28985">
		<tag k="name" v="Storesteinen" />
=======
	<node id="-683383" lat="61.6427305529" lon="7.48286389375">
		<tag k="name" v="Leirbotnbreen" />
		<tag k="natural" v="glacier" />
		<tag k="ssr:stedsnr" v="738483" />
	</node>
	<node id="-681334" lat="61.65464444" lon="7.2534916613">
		<tag k="name" v="Homannsteinen" />
>>>>>>> e1d4bc35ff8a6074a6f2e91616a996b547c36f15
		<tag k="natural" v="stone" />
		<tag k="ssr:stedsnr" v="207624" />
	</node>
<<<<<<< HEAD
	<node lat="61.60441111201914" lon="7.274877769791397" id="-28986">
		<tag k="name" v="Instegardsuri" />
		<tag k="natural" v="scree" />
		<tag k="ssr:stedsnr" v="207692" />
	</node>
	<node lat="61.462655554977985" lon="7.565427779143815" id="-29018">
		<tag k="name" v="Skjoldateigen" />
		<tag k="place" v="locality" />
		<tag k="ssr:stedsnr" v="208608" />
	</node>
	<node lat="61.4716888926819" lon="7.525466667635192" id="-29025">
		<tag k="name" v="Ørnskarmarki" />
		<tag k="place" v="locality" />
		<tag k="ssr:stedsnr" v="208911" />
	</node>
	<node lat="61.422541671111766" lon="7.339991666021177" id="-29048">
		<tag k="name" v="Langesmyr" />
		<tag k="natural" v="wetland" />
		<tag k="ssr:stedsnr" v="269566" />
	</node>
	<node lat="61.64279999905545" lon="7.154702786092421" id="-29063">
		<tag k="name" v="Setresteinen" />
		<tag k="natural" v="stone" />
		<tag k="ssr:stedsnr" v="269953" />
	</node>
	<node lat="61.477186115607395" lon="7.187347222552136" id="-29082">
		<tag k="name" v="Vassuri" />
=======
	<node id="-683375" lat="61.5413861121" lon="7.52305000504">
		<tag k="name" v="Kvitene" />
		<tag k="natural" v="wetland" />
		<tag k="ssr:stedsnr" v="738412" />
	</node>
	<node id="-681838" lat="61.3309333319" lon="7.12054166425">
		<tag k="name" v="Stemmingamarki" />
		<tag k="place" v="locality" />
		<tag k="ssr:stedsnr" v="8522" />
	</node>
	<node id="-682860" lat="61.4613777771" lon="7.43888334077">
		<tag k="name" v="Brennesteinane" />
		<tag k="natural" v="stone" />
		<tag k="ssr:stedsnr" v="432272" />
	</node>
	<node id="-681323" lat="61.5064472221" lon="7.2669444483">
		<tag k="name" v="Bjørnamyri" />
		<tag k="natural" v="wetland" />
		<tag k="ssr:stedsnr" v="678609" />
	</node>
	<node id="-683882" lat="61.4584916662" lon="7.87892499555">
		<tag k="name" v="Slingsbybreen" />
		<tag k="natural" v="glacier" />
		<tag k="ssr:stedsnr" v="432523" />
	</node>
	<node id="-680252" lat="61.4663666686" lon="7.45555834042">
		<tag k="name" v="Grindavoll" />
		<tag k="place" v="locality" />
		<tag k="ssr:stedsnr" v="208429" />
	</node>
	<node id="-681361" lat="61.4875944477" lon="7.18231943782">
		<tag k="name" v="Storamyri" />
		<tag k="natural" v="wetland" />
		<tag k="ssr:stedsnr" v="694657" />
	</node>
	<node id="-681316" lat="61.5731472201" lon="7.18797499388">
		<tag k="name" v="Breakulen" />
		<tag k="natural" v="glacier" />
		<tag k="ssr:stedsnr" v="677667" />
	</node>
	<node id="-680934" lat="61.5325972249" lon="6.87013610624">
		<tag k="name" v="Opptakshaugane" />
		<tag k="natural" v="glacier" />
		<tag k="ssr:stedsnr" v="677880" />
	</node>
	<node id="-682337" lat="61.3247722251" lon="7.38270555502">
		<tag k="name" v="Almeskreda" />
>>>>>>> e1d4bc35ff8a6074a6f2e91616a996b547c36f15
		<tag k="natural" v="scree" />
		<tag k="ssr:stedsnr" v="449985" />
	</node>
<<<<<<< HEAD
	<node lat="61.7334777795639" lon="7.379111116057981" id="-29088">
		<tag k="name" v="Storemyri" />
		<tag k="natural" v="wetland" />
		<tag k="ssr:stedsnr" v="450158" />
	</node>
	<node lat="61.52020000005512" lon="7.683594453761407" id="-29094">
		<tag k="name" v="Ormasetmarki" />
		<tag k="place" v="locality" />
		<tag k="ssr:stedsnr" v="450525" />
	</node>
	<node lat="61.50070833498422" lon="7.473722218424315" id="-29097">
		<tag k="name" v="Kvamsmyrane" />
		<tag k="natural" v="wetland" />
		<tag k="ssr:stedsnr" v="450541" />
	</node>
	<node lat="61.48633333697139" lon="7.449022213669256" id="-29126">
		<tag k="name" v="Kjerringstein" />
		<tag k="natural" v="stone" />
		<tag k="ssr:stedsnr" v="451423" />
	</node>
	<node lat="61.511983335807464" lon="7.308305556889968" id="-29137">
		<tag k="name" v="Myrteigen" />
=======
	<node id="-681307" lat="61.7330777769" lon="7.80417222763">
		<tag k="name" v="Illvassuri" />
		<tag k="natural" v="scree" />
		<tag k="ssr:stedsnr" v="677375" />
	</node>
	<node id="-683354" lat="61.7106138871" lon="6.92420555188">
		<tag k="name" v="Jostedalsbreen" />
		<tag k="natural" v="glacier" />
		<tag k="ssr:stedsnr" v="737912" />
	</node>
	<node id="-683353" lat="61.613424997" lon="6.96013610813">
		<tag k="name" v="Torsbreen" />
		<tag k="natural" v="glacier" />
		<tag k="ssr:stedsnr" v="737846" />
	</node>
	<node id="-680830" lat="61.7321194438" lon="7.34976389361">
		<tag k="alt_name" v="Storedalsgrandane" />
		<tag k="name" v="Fåbergstølsgrandane" />
		<tag k="natural" v="beach" />
		<tag k="ssr:stedsnr" v="435615" />
		<tag k="surface" v="sand" />
	</node>
	<node id="-680277" lat="61.7334777796" lon="7.37911111606">
		<tag k="name" v="Storemyri" />
>>>>>>> e1d4bc35ff8a6074a6f2e91616a996b547c36f15
		<tag k="natural" v="wetland" />
		<tag k="ssr:stedsnr" v="451899" />
	</node>
<<<<<<< HEAD
	<node lat="61.51453610696367" lon="8.26017777196944" id="-29166">
		<tag k="name" v="Høgvaglbreen" />
		<tag k="natural" v="glacier" />
		<tag k="ssr:stedsnr" v="253104" />
	</node>
	<node lat="61.47819722646439" lon="7.534483332287203" id="-29199">
		<tag k="name" v="Fjøsnamarki" />
		<tag k="place" v="locality" />
		<tag k="ssr:stedsnr" v="268898" />
	</node>
	<node lat="61.6412805564797" lon="7.179533329259069" id="-29219">
		<tag k="name" v="Myrane" />
=======
	<node id="-682836" lat="61.3982388933" lon="7.3642083363">
		<tag k="name" v="Stupuri" />
		<tag k="natural" v="scree" />
		<tag k="ssr:stedsnr" v="390717" />
	</node>
	<node id="-682321" lat="61.5410638921" lon="7.28326389098">
		<tag k="name" v="Grisuri" />
		<tag k="natural" v="scree" />
		<tag k="ssr:stedsnr" v="147931" />
	</node>
	<node id="-680784" lat="61.4103777819" lon="7.20574999863">
		<tag k="name" v="Kloppemyrane" />
>>>>>>> e1d4bc35ff8a6074a6f2e91616a996b547c36f15
		<tag k="natural" v="wetland" />
		<tag k="ssr:stedsnr" v="269971" />
	</node>
<<<<<<< HEAD
	<node lat="61.64426111116675" lon="7.282694452295694" id="-29302">
		<tag k="name" v="Skålemyri" />
		<tag k="natural" v="wetland" />
		<tag k="ssr:stedsnr" v="329808" />
	</node>
	<node lat="61.61509721778365" lon="7.297127771375275" id="-29315">
		<tag k="name" v="Lussiuri" />
=======
	<node id="-681806" lat="61.4482083366" lon="8.0214305512">
		<tag k="name" v="Storuri" />
>>>>>>> e1d4bc35ff8a6074a6f2e91616a996b547c36f15
		<tag k="natural" v="scree" />
		<tag k="ssr:stedsnr" v="330767" />
	</node>
<<<<<<< HEAD
	<node lat="61.37667777699115" lon="7.475713881177381" id="-29342">
		<tag k="name" v="Hanafossmyrane" />
		<tag k="natural" v="wetland" />
		<tag k="ssr:stedsnr" v="371657" />
	</node>
	<node lat="61.49713611491643" lon="8.189611117002448" id="-29344">
		<tag k="name" v="Kristenbreen" />
		<tag k="natural" v="glacier" />
		<tag k="ssr:stedsnr" v="371864" />
	</node>
	<node lat="61.47078333476736" lon="7.2060083312675935" id="-29374">
		<tag k="name" v="Myri" />
=======
	<node id="-682827" lat="61.4236055515" lon="7.44358054784">
		<tag k="name" v="Myrane" />
>>>>>>> e1d4bc35ff8a6074a6f2e91616a996b547c36f15
		<tag k="natural" v="wetland" />
		<tag k="ssr:stedsnr" v="388470" />
	</node>
<<<<<<< HEAD
	<node lat="61.66094999936091" lon="7.31288054771687" id="-29378">
		<tag k="name" v="Jørstokkmyri" />
		<tag k="natural" v="wetland" />
		<tag k="ssr:stedsnr" v="389139" />
	</node>
	<node lat="61.34738610686875" lon="7.131958342102208" id="-29382">
		<tag k="name" v="Merkesmyrane" />
		<tag k="natural" v="wetland" />
		<tag k="ssr:stedsnr" v="389623" />
	</node>
	<node lat="61.55502500188874" lon="7.288780555612582" id="-29388">
		<tag k="name" v="Tranebergmyri" />
		<tag k="natural" v="wetland" />
		<tag k="ssr:stedsnr" v="389744" />
	</node>
	<node lat="61.42360555149666" lon="7.443580547844361" id="-29395">
		<tag k="name" v="Myrane" />
=======
	<node id="-681290" lat="61.3422833375" lon="7.12307777655">
		<tag k="name" v="Båreimsmarki" />
		<tag k="place" v="locality" />
		<tag k="ssr:stedsnr" v="675473" />
	</node>
	<node id="-682823" lat="61.6147833322" lon="7.30210833348">
		<tag k="name" v="Budeiesteinen" />
		<tag k="natural" v="stone" />
		<tag k="ssr:stedsnr" v="390122" />
	</node>
	<node id="-683845" lat="61.4945166665" lon="7.59151110177">
		<tag k="name" v="Notasvaet" />
		<tag k="place" v="locality" />
		<tag k="ssr:stedsnr" v="965531" />
	</node>
	<node id="-680771" lat="61.4122138898" lon="7.35956944563">
		<tag k="name" v="Høyheimsmyrane" />
>>>>>>> e1d4bc35ff8a6074a6f2e91616a996b547c36f15
		<tag k="natural" v="wetland" />
		<tag k="ssr:stedsnr" v="390399" />
	</node>
<<<<<<< HEAD
	<node lat="61.54746944523851" lon="6.856849997379233" id="-29407">
		<tag k="name" v="Opptaksbreen" />
=======
	<node id="-681678" lat="61.4512722263" lon="6.91776389155">
		<tag k="name" v="Kvitlabreen" />
>>>>>>> e1d4bc35ff8a6074a6f2e91616a996b547c36f15
		<tag k="natural" v="glacier" />
		<tag k="ssr:stedsnr" v="858916" />
	</node>
<<<<<<< HEAD
	<node lat="61.45849166621178" lon="7.8789249955545255" id="-29418">
		<tag k="name" v="Slingsbybreen" />
		<tag k="natural" v="glacier" />
		<tag k="ssr:stedsnr" v="432523" />
	</node>
	<node lat="61.72905000091558" lon="7.574680549728485" id="-29454">
		<tag k="name" v="Tverrbotnbreen" />
		<tag k="natural" v="glacier" />
		<tag k="ssr:stedsnr" v="435612" />
	</node>
	<node lat="61.732119443797295" lon="7.3497638936087455" id="-29455">
		<tag k="alt_name" v="Storedalsgrandane" />
		<tag k="name" v="Fåbergstølsgrandane" />
		<tag k="natural" v="beach" />
		<tag k="ssr:stedsnr" v="435615" />
		<tag k="surface" v="sand" />
	</node>
	<node lat="61.40067222239391" lon="7.248252786137062" id="-29467">
		<tag k="name" v="Skiftingsmyr" />
		<tag k="natural" v="wetland" />
		<tag k="ssr:stedsnr" v="493037" />
	</node>
	<node lat="61.51781666416578" lon="7.449980564925155" id="-29511">
		<tag k="name" v="Kringlestein" />
		<tag k="natural" v="stone" />
		<tag k="ssr:stedsnr" v="450972" />
	</node>
	<node lat="61.677811107237005" lon="7.309258327384767" id="-29514">
		<tag k="name" v="Storesteinen" />
		<tag k="natural" v="stone" />
		<tag k="ssr:stedsnr" v="451166" />
	</node>
	<node lat="61.53700833013387" lon="7.620163889221005" id="-29529">
		<tag k="name" v="Bratturane" />
=======
	<node id="-680257" lat="61.3057333376" lon="7.33930000081">
		<tag k="name" v="Orneshagane" />
		<tag k="place" v="locality" />
		<tag k="ssr:stedsnr" v="297241" />
	</node>
	<node id="-682815" lat="61.5550250019" lon="7.28878055561">
		<tag k="name" v="Tranebergmyri" />
		<tag k="natural" v="wetland" />
		<tag k="ssr:stedsnr" v="389744" />
	</node>
	<node id="-682302" lat="61.4717805543" lon="7.90654999419">
		<tag k="alt_name" v="Jervvassbreen" />
		<tag k="name" v="Gjertvassbreen" />
		<tag k="natural" v="glacier" />
		<tag k="ssr:stedsnr" v="147529" />
	</node>
	<node id="-682812" lat="61.5699888916" lon="7.26328610372">
		<tag k="name" v="Høgerabburi" />
		<tag k="natural" v="scree" />
		<tag k="ssr:stedsnr" v="389735" />
	</node>
	<node id="-683323" lat="61.318641663" lon="7.28339722666">
		<tag k="alt_name" v="Mollandsmarki" />
		<tag k="name" v="Modlandsmarki" />
		<tag k="place" v="locality" />
		<tag k="ssr:stedsnr" v="736389" />
	</node>
	<node id="-680073" lat="61.7229444423" lon="7.52804999585">
		<tag k="name" v="Greinbreen" />
		<tag k="natural" v="glacier" />
		<tag k="ssr:stedsnr" v="131502" />
	</node>
	<node id="-681778" lat="61.3272861124" lon="7.15300555205">
		<tag k="name" v="Torvmyrane" />
		<tag k="natural" v="wetland" />
		<tag k="ssr:stedsnr" v="936925" />
	</node>
	<node id="-680753" lat="61.6304444485" lon="7.29402778185">
		<tag k="name" v="Folluri" />
		<tag k="natural" v="scree" />
		<tag k="ssr:stedsnr" v="511821" />
	</node>
	<node id="-682288" lat="61.6121750022" lon="7.33849444156">
		<tag k="name" v="Saltsteinane" />
		<tag k="natural" v="stone" />
		<tag k="ssr:stedsnr" v="147028" />
	</node>
	<node id="-682287" lat="61.5215916649" lon="7.44406110621">
		<tag k="name" v="Kringlemyrane" />
		<tag k="natural" v="wetland" />
		<tag k="ssr:stedsnr" v="146938" />
	</node>
	<node id="-682798" lat="61.3822750007" lon="7.21876944403">
		<tag k="name" v="Gråuri" />
		<tag k="natural" v="scree" />
		<tag k="ssr:stedsnr" v="389634" />
	</node>
	<node id="-682285" lat="61.4905611069" lon="7.5715694403">
		<tag k="name" v="Sandamyrane" />
		<tag k="natural" v="wetland" />
		<tag k="ssr:stedsnr" v="147053" />
	</node>
	<node id="-682284" lat="61.4416611093" lon="7.51021945212">
		<tag k="name" v="Sandsuri" />
>>>>>>> e1d4bc35ff8a6074a6f2e91616a996b547c36f15
		<tag k="natural" v="scree" />
		<tag k="ssr:stedsnr" v="451620" />
	</node>
<<<<<<< HEAD
	<node lat="61.34228333747982" lon="7.123077776548862" id="-29548">
		<tag k="name" v="Båreimsmarki" />
		<tag k="place" v="locality" />
		<tag k="ssr:stedsnr" v="675473" />
	</node>
	<node lat="61.45571944300895" lon="7.917991663048077" id="-29550">
		<tag k="name" v="Maradalsbreen" />
=======
	<node id="-683307" lat="61.2933277786" lon="7.13710000706">
		<tag k="name" v="Lassemyrane" />
		<tag k="natural" v="wetland" />
		<tag k="ssr:stedsnr" v="634940" />
	</node>
	<node id="-681255" lat="61.662666668" lon="7.08120278384">
		<tag k="name" v="Baklibreen" />
>>>>>>> e1d4bc35ff8a6074a6f2e91616a996b547c36f15
		<tag k="natural" v="glacier" />
		<tag k="ssr:stedsnr" v="675530" />
	</node>
<<<<<<< HEAD
	<node lat="61.733077776920844" lon="7.804172227628546" id="-29573">
		<tag k="name" v="Illvassuri" />
		<tag k="natural" v="scree" />
		<tag k="ssr:stedsnr" v="677375" />
	</node>
	<node lat="61.60315555165109" lon="7.485800003896674" id="-29578">
		<tag k="name" v="Spørteggbreen" />
		<tag k="natural" v="glacier" />
		<tag k="ssr:stedsnr" v="677546" />
	</node>
	<node lat="61.5102111123341" lon="7.080475007280007" id="-29582">
		<tag k="name" v="Skruklebreen" />
		<tag k="natural" v="glacier" />
		<tag k="ssr:stedsnr" v="677555" />
	</node>
	<node lat="61.57314722005756" lon="7.1879749938787105" id="-29590">
		<tag k="name" v="Breakulen" />
=======
	<node id="-680230" lat="61.5223611088" lon="7.91922500275">
		<tag k="name" v="Fannaråkbreen" />
		<tag k="natural" v="glacier" />
		<tag k="ssr:stedsnr" v="192340" />
	</node>
	<node id="-683301" lat="61.4468555583" lon="7.295136113">
		<tag k="name" v="Seljesetmyrane" />
		<tag k="natural" v="wetland" />
		<tag k="ssr:stedsnr" v="634278" />
	</node>
	<node id="-680227" lat="61.53668333" lon="8.17110277279">
		<tag k="name" v="Surtningsbreen" />
		<tag k="natural" v="glacier" />
		<tag k="ssr:stedsnr" v="192129" />
	</node>
	<node id="-682274" lat="61.5001388911" lon="7.67835833222">
		<tag k="name" v="Breimyri" />
		<tag k="natural" v="wetland" />
		<tag k="ssr:stedsnr" v="146444" />
	</node>
	<node id="-682783" lat="61.6609499994" lon="7.31288054772">
		<tag k="name" v="Jørstokkmyri" />
		<tag k="natural" v="wetland" />
		<tag k="ssr:stedsnr" v="389139" />
	</node>
	<node id="-682270" lat="61.6027444421" lon="7.83679444748">
		<tag k="name" v="Liabreen" />
		<tag k="natural" v="glacier" />
		<tag k="ssr:stedsnr" v="145601" />
	</node>
	<node id="-683293" lat="61.410944446" lon="7.21404999914">
		<tag k="name" v="Dretdikehalli" />
		<tag k="natural" v="wetland" />
		<tag k="ssr:stedsnr" v="633791" />
	</node>
	<node id="-680943" lat="61.5474694452" lon="6.85684999738">
		<tag k="name" v="Opptaksbreen" />
		<tag k="natural" v="glacier" />
		<tag k="ssr:stedsnr" v="494869" />
	</node>
	<node id="-682458" lat="61.6630666693" lon="7.30216666854">
		<tag k="name" v="Myrmyrane" />
		<tag k="natural" v="wetland" />
		<tag k="ssr:stedsnr" v="208143" />
	</node>
	<node id="-682776" lat="61.4707833348" lon="7.20600833127">
		<tag k="name" v="Myri" />
		<tag k="natural" v="wetland" />
		<tag k="ssr:stedsnr" v="388470" />
	</node>
	<node id="-681239" lat="61.4164611147" lon="7.23335834243">
		<tag k="name" v="Jordamyrane" />
		<tag k="natural" v="wetland" />
		<tag k="ssr:stedsnr" v="876496" />
	</node>
	<node id="-680665" lat="61.4305055572" lon="7.28817222596">
		<tag k="name" v="Dukamyri" />
		<tag k="natural" v="wetland" />
		<tag k="ssr:stedsnr" v="389458" />
	</node>
	<node id="-682772" lat="61.7927416653" lon="7.20999999196">
		<tag k="name" v="Hanken" />
>>>>>>> e1d4bc35ff8a6074a6f2e91616a996b547c36f15
		<tag k="natural" v="glacier" />
		<tag k="ssr:stedsnr" v="677667" />
	</node>
<<<<<<< HEAD
	<node lat="61.70814722385734" lon="7.347605563804642" id="-29649">
		<tag k="name" v="Røykuri" />
		<tag k="natural" v="scree" />
		<tag k="ssr:stedsnr" v="511224" />
	</node>
	<node lat="61.46933055901291" lon="7.4378861200391" id="-29653">
=======
	<node id="-683283" lat="61.583611111" lon="7.29447499783">
		<tag k="name" v="Kveastein" />
		<tag k="natural" v="stone" />
		<tag k="ssr:stedsnr" v="633542" />
	</node>
	<node id="-680720" lat="61.469330559" lon="7.43788612004">
>>>>>>> e1d4bc35ff8a6074a6f2e91616a996b547c36f15
		<tag k="name" v="Åsamarki" />
		<tag k="place" v="locality" />
		<tag k="ssr:stedsnr" v="511403" />
	</node>
<<<<<<< HEAD
	<node lat="61.64604444764561" lon="7.276972222898023" id="-29665">
		<tag k="name" v="Hellemyrane" />
=======
	<node id="-682766" lat="61.5518888877" lon="7.19301667332">
		<tag k="name" v="Vassdalsbreen" />
		<tag k="natural" v="glacier" />
		<tag k="ssr:stedsnr" v="374668" />
	</node>
	<node id="-680205" lat="61.3019888878" lon="7.13782777425">
		<tag k="name" v="Kalbakkamyri" />
		<tag k="natural" v="wetland" />
		<tag k="ssr:stedsnr" v="148902" />
	</node>
	<node id="-683276" lat="61.5823305588" lon="7.65009445215">
		<tag k="name" v="Snerpesteinmyrane" />
>>>>>>> e1d4bc35ff8a6074a6f2e91616a996b547c36f15
		<tag k="natural" v="wetland" />
		<tag k="ssr:stedsnr" v="511813" />
	</node>
<<<<<<< HEAD
	<node lat="61.6304444485072" lon="7.2940277818478405" id="-29666">
		<tag k="name" v="Folluri" />
=======
	<node id="-680714" lat="61.7081472239" lon="7.3476055638">
		<tag k="name" v="Røykuri" />
>>>>>>> e1d4bc35ff8a6074a6f2e91616a996b547c36f15
		<tag k="natural" v="scree" />
		<tag k="ssr:stedsnr" v="511821" />
	</node>
<<<<<<< HEAD
	<node lat="61.41037778189427" lon="7.205749998634084" id="-29682">
		<tag k="name" v="Kloppemyrane" />
=======
	<node id="-682221" lat="61.3668027795" lon="7.32120833428">
		<tag k="name" v="Dalamarki" />
		<tag k="place" v="locality" />
		<tag k="ssr:stedsnr" v="129473" />
	</node>
	<node id="-681539" lat="61.4614722223" lon="7.07241944375">
		<tag k="name" v="Snauurane" />
		<tag k="natural" v="scree" />
		<tag k="ssr:stedsnr" v="816867" />
	</node>
	<node id="-683270" lat="61.4165166625" lon="7.44086944255">
		<tag k="name" v="Myrane" />
>>>>>>> e1d4bc35ff8a6074a6f2e91616a996b547c36f15
		<tag k="natural" v="wetland" />
		<tag k="ssr:stedsnr" v="512786" />
	</node>
<<<<<<< HEAD
	<node lat="61.445886111328576" lon="7.230400003420574" id="-29689">
		<tag k="name" v="Kalhagen" />
=======
	<node id="-683781" lat="61.3102277814" lon="7.07670277433">
		<tag k="alt_name" v="Torske-marki" />
		<tag k="name" v="Toskemarki" />
		<tag k="old_name" v="Toskeinarki" />
>>>>>>> e1d4bc35ff8a6074a6f2e91616a996b547c36f15
		<tag k="place" v="locality" />
		<tag k="ssr:stedsnr" v="513274" />
	</node>
<<<<<<< HEAD
	<node lat="61.3221722209997" lon="7.375536104731821" id="-29697">
		<tag k="name" v="Steinajerven" />
		<tag k="natural" v="scree" />
		<tag k="ssr:stedsnr" v="539202" />
	</node>
	<node lat="61.78395555521886" lon="7.24073611077007" id="-29740">
		<tag k="name" v="Lodalsbreen" />
		<tag k="natural" v="glacier" />
		<tag k="ssr:stedsnr" v="555514" />
	</node>
	<node lat="61.51959722465897" lon="7.2792222163085025" id="-29759">
		<tag k="name" v="Mannuri" />
		<tag k="natural" v="wetland" />
		<tag k="ssr:stedsnr" v="693095" />
	</node>
	<node lat="61.41266110843413" lon="7.292336119145851" id="-29766">
		<tag k="name" v="Alfstein" />
=======
	<node id="-682795" lat="61.3473861069" lon="7.1319583421">
		<tag k="name" v="Merkesmyrane" />
		<tag k="natural" v="wetland" />
		<tag k="ssr:stedsnr" v="389623" />
	</node>
	<node id="-681266" lat="61.6667972202" lon="7.27361943793">
		<tag k="name" v="Storuri" />
		<tag k="natural" v="scree" />
		<tag k="ssr:stedsnr" v="877408" />
	</node>
	<node id="-682112" lat="61.5729888923" lon="7.28209723129">
		<tag k="name" v="Gardsmyrane" />
		<tag k="natural" v="wetland" />
		<tag k="ssr:stedsnr" v="86499" />
	</node>
	<node id="-681213" lat="61.4460249965" lon="7.06495555691">
		<tag k="name" v="Vetlur" />
		<tag k="natural" v="scree" />
		<tag k="ssr:stedsnr" v="735072" />
	</node>
	<node id="-681317" lat="61.5102111123" lon="7.08047500728">
		<tag k="name" v="Skruklebreen" />
		<tag k="natural" v="glacier" />
		<tag k="ssr:stedsnr" v="677555" />
	</node>
	<node id="-683259" lat="61.6247222234" lon="7.26579722078">
		<tag k="name" v="Buskredsteinen" />
>>>>>>> e1d4bc35ff8a6074a6f2e91616a996b547c36f15
		<tag k="natural" v="stone" />
		<tag k="ssr:stedsnr" v="693287" />
	</node>
<<<<<<< HEAD
	<node lat="61.473038890472864" lon="7.464883327837707" id="-29767">
		<tag k="name" v="Vedhoggeteigen" />
=======
	<node id="-681210" lat="61.2968083352" lon="7.13263055137">
		<tag k="name" v="Purkeflaten" />
>>>>>>> e1d4bc35ff8a6074a6f2e91616a996b547c36f15
		<tag k="place" v="locality" />
		<tag k="ssr:stedsnr" v="693432" />
	</node>
<<<<<<< HEAD
	<node lat="61.389013887287014" lon="7.225194449091086" id="-29775">
		<tag k="name" v="Klovsteinane" />
		<tag k="natural" v="stone" />
		<tag k="ssr:stedsnr" v="693640" />
	</node>
	<node lat="61.46557499656186" lon="7.571572216871126" id="-29790">
		<tag k="name" v="Presteteigen" />
=======
	<node id="-683255" lat="61.4852416633" lon="7.62146945236">
		<tag k="name" v="Valburstein" />
		<tag k="natural" v="stone" />
		<tag k="ssr:stedsnr" v="632688" />
	</node>
	<node id="-683251" lat="61.4590055545" lon="7.45824722891">
		<tag k="name" v="Kyrkjeteigen" />
>>>>>>> e1d4bc35ff8a6074a6f2e91616a996b547c36f15
		<tag k="place" v="locality" />
		<tag k="ssr:stedsnr" v="693660" />
	</node>
<<<<<<< HEAD
	<node lat="61.390263893149516" lon="7.220769444148062" id="-29801">
		<tag k="name" v="Skarsmyri" />
		<tag k="natural" v="wetland" />
		<tag k="ssr:stedsnr" v="571603" />
	</node>
	<node lat="61.60781388920622" lon="7.282947230163321" id="-29804">
		<tag k="name" v="Kvilesteinen" />
		<tag k="natural" v="stone" />
		<tag k="ssr:stedsnr" v="571685" />
	</node>
	<node lat="61.65175555887843" lon="7.291633341310161" id="-29809">
		<tag k="name" v="Ulveskogen" />
		<tag k="place" v="locality" />
		<tag k="ssr:stedsnr" v="571749" />
	</node>
	<node lat="61.30182500440622" lon="7.214536104078872" id="-29825">
		<tag k="name" v="Øvrabømyri" />
=======
	<node id="-680690" lat="61.5137277753" lon="7.33614445215">
		<tag k="name" v="Storurane" />
		<tag k="natural" v="scree" />
		<tag k="ssr:stedsnr" v="390881" />
	</node>
	<node id="-680689" lat="61.5228388846" lon="7.25999166096">
		<tag k="name" v="Høystein" />
		<tag k="natural" v="stone" />
		<tag k="ssr:stedsnr" v="390876" />
	</node>
	<node id="-680829" lat="61.7290500009" lon="7.57468054973">
		<tag k="name" v="Tverrbotnbreen" />
		<tag k="natural" v="glacier" />
		<tag k="ssr:stedsnr" v="435612" />
	</node>
	<node id="-682219" lat="61.4656638878" lon="7.02861944626">
		<tag k="name" v="Høgemyri" />
>>>>>>> e1d4bc35ff8a6074a6f2e91616a996b547c36f15
		<tag k="natural" v="wetland" />
		<tag k="ssr:stedsnr" v="693930" />
	</node>
<<<<<<< HEAD
	<node lat="61.32836944711312" lon="7.1407916713005095" id="-29841">
		<tag k="name" v="Kilsmyr" />
		<tag k="natural" v="wetland" />
		<tag k="ssr:stedsnr" v="572953" />
	</node>
	<node lat="61.62253333635388" lon="7.300591671418016" id="-29847">
		<tag k="name" v="Vasstakuri" />
		<tag k="natural" v="scree" />
		<tag k="ssr:stedsnr" v="694102" />
	</node>
	<node lat="61.56012777929866" lon="7.625769452965318" id="-29850">
		<tag k="name" v="Uri" />
=======
	<node id="-681705" lat="61.6451555544" lon="7.17842777422">
		<tag k="name" v="Kjøslesteinen" />
		<tag k="natural" v="stone" />
		<tag k="ssr:stedsnr" v="875957" />
	</node>
	<node id="-681192" lat="61.4217333375" lon="7.44250555842">
		<tag k="name" v="Markstein" />
		<tag k="natural" v="stone" />
		<tag k="ssr:stedsnr" v="632866" />
	</node>
	<node id="-681191" lat="61.4903277796" lon="7.23789443715">
		<tag k="name" v="Blåuri" />
>>>>>>> e1d4bc35ff8a6074a6f2e91616a996b547c36f15
		<tag k="natural" v="scree" />
		<tag k="ssr:stedsnr" v="694242" />
	</node>
	<node lat="61.3128305553337" lon="7.111825001099042" id="-29853">
		<tag k="name" v="Gjøhellermyr" />
		<tag k="natural" v="wetland" />
		<tag k="ssr:stedsnr" v="574894" />
	</node>
<<<<<<< HEAD
	<node lat="61.378813888286594" lon="7.4522027816630265" id="-29858">
		<tag k="name" v="Øystølsmyrane" />
=======
	<node id="-683238" lat="61.4831416697" lon="7.55271945348">
		<tag k="name" v="Stølsmyri" />
>>>>>>> e1d4bc35ff8a6074a6f2e91616a996b547c36f15
		<tag k="natural" v="wetland" />
		<tag k="ssr:stedsnr" v="694653" />
	</node>
<<<<<<< HEAD
	<node lat="61.487594447679214" lon="7.182319437819972" id="-29859">
		<tag k="name" v="Storamyri" />
=======
	<node id="-680709" lat="61.6764388876" lon="7.33910277417">
		<tag k="name" v="Gjelstein" />
		<tag k="natural" v="stone" />
		<tag k="ssr:stedsnr" v="511156" />
	</node>
	<node id="-680676" lat="61.5709245458" lon="7.29683419328">
		<tag k="name" v="Storemyri" />
>>>>>>> e1d4bc35ff8a6074a6f2e91616a996b547c36f15
		<tag k="natural" v="wetland" />
		<tag k="ssr:stedsnr" v="694657" />
	</node>
<<<<<<< HEAD
	<node lat="61.459283335881594" lon="7.844527784519499" id="-29893">
		<tag k="alt_name" v="Skarstølsbreen" />
		<tag k="name" v="Skagastølsbreen" />
		<tag k="natural" v="glacier" />
		<tag k="ssr:stedsnr" v="614560" />
	</node>
	<node lat="61.6044499999369" lon="7.698477772107676" id="-29911">
		<tag k="name" v="Sveidalsbreen" />
		<tag k="natural" v="glacier" />
		<tag k="ssr:stedsnr" v="616532" />
	</node>
	<node lat="61.54268888819426" lon="6.977741662550463" id="-29929">
=======
	<node id="-680673" lat="61.4056166659" lon="7.48034444324">
		<tag k="name" v="Flaskuri" />
		<tag k="natural" v="scree" />
		<tag k="ssr:stedsnr" v="389867" />
	</node>
	<node id="-683230" lat="61.3643055534" lon="7.20103055447">
		<tag k="name" v="Ekremyrane" />
		<tag k="natural" v="wetland" />
		<tag k="ssr:stedsnr" v="631650" />
	</node>
	<node id="-683229" lat="61.5426888882" lon="6.97774166255">
>>>>>>> e1d4bc35ff8a6074a6f2e91616a996b547c36f15
		<tag k="name" v="Jarvamyri" />
		<tag k="natural" v="wetland" />
		<tag k="ssr:stedsnr" v="630717" />
	</node>
<<<<<<< HEAD
	<node lat="61.18443611269697" lon="7.377680562274325" id="-29934">
=======
	<node id="-683771" lat="61.3977895054" lon="7.38566324653">
		<tag k="name" v="Vikane" />
		<tag k="place" v="locality" />
		<tag k="ssr:stedsnr" v="857733" />
	</node>
	<node id="-681178" lat="61.4787833347" lon="7.42777778362">
		<tag k="name" v="Gråuri" />
		<tag k="natural" v="scree" />
		<tag k="ssr:stedsnr" v="632412" />
	</node>
	<node id="-681177" lat="61.1844361127" lon="7.37768056227">
>>>>>>> e1d4bc35ff8a6074a6f2e91616a996b547c36f15
		<tag k="name" v="Riddarteigen" />
		<tag k="place" v="locality" />
		<tag k="ssr:stedsnr" v="632406" />
	</node>
<<<<<<< HEAD
	<node lat="61.4787833347201" lon="7.427777783617385" id="-29935">
		<tag k="name" v="Gråuri" />
		<tag k="natural" v="scree" />
		<tag k="ssr:stedsnr" v="632412" />
	</node>
	<node lat="61.45900555446374" lon="7.458247228909833" id="-29944">
		<tag k="name" v="Kyrkjeteigen" />
		<tag k="place" v="locality" />
		<tag k="ssr:stedsnr" v="632520" />
	</node>
	<node lat="61.624722223351746" lon="7.265797220780249" id="-29946">
		<tag k="name" v="Buskredsteinen" />
		<tag k="natural" v="stone" />
		<tag k="ssr:stedsnr" v="632611" />
	</node>
	<node lat="61.48524166325603" lon="7.621469452358606" id="-29950">
		<tag k="name" v="Valburstein" />
		<tag k="natural" v="stone" />
		<tag k="ssr:stedsnr" v="632688" />
	</node>
	<node lat="61.416516662489705" lon="7.440869442552513" id="-29952">
		<tag k="name" v="Myrane" />
		<tag k="natural" v="wetland" />
		<tag k="ssr:stedsnr" v="632915" />
	</node>
	<node lat="61.58233055879113" lon="7.650094452150337" id="-29959">
		<tag k="name" v="Snerpesteinmyrane" />
		<tag k="natural" v="wetland" />
		<tag k="ssr:stedsnr" v="633293" />
	</node>
	<node lat="61.410944445969506" lon="7.214049999144623" id="-29974">
		<tag k="name" v="Dretdikehalli" />
		<tag k="natural" v="wetland" />
		<tag k="ssr:stedsnr" v="633791" />
	</node>
	<node lat="61.44685555834176" lon="7.29513611300142" id="-29982">
		<tag k="name" v="Seljesetmyrane" />
		<tag k="natural" v="wetland" />
		<tag k="ssr:stedsnr" v="634278" />
	</node>
	<node lat="61.3693749972507" lon="7.237636120122515" id="-29995">
		<tag k="name" v="Martamyr" />
		<tag k="natural" v="wetland" />
		<tag k="ssr:stedsnr" v="675064" />
	</node>
	<node lat="61.53259722488176" lon="6.870136106244779" id="-30034">
		<tag k="name" v="Opptakshaugane" />
=======
	<node id="-681173" lat="61.3794429375" lon="7.31196422894">
		<tag k="name" v="Myri" />
		<tag k="place" v="locality" />
		<tag k="ssr:stedsnr" v="722665" />
	</node>
	<node id="-681934" lat="61.5942916644" lon="7.62465555225">
		<tag k="name" v="Daluri" />
		<tag k="natural" v="scree" />
		<tag k="ssr:stedsnr" v="26281" />
	</node>
	<node id="-681682" lat="61.6090249982" lon="6.93461111872">
		<tag k="name" v="Odinsbreen" />
		<tag k="natural" v="glacier" />
		<tag k="ssr:stedsnr" v="859811" />
	</node>
	<node id="-682193" lat="61.3743222207" lon="7.22463055342">
		<tag k="name" v="Holemyr" />
		<tag k="natural" v="wetland" />
		<tag k="ssr:stedsnr" v="128047" />
	</node>
	<node id="-680429" lat="61.5331638861" lon="8.22943888044">
		<tag k="name" v="Gravdalsfonni" />
		<tag k="place" v="locality" />
		<tag k="ssr:stedsnr" v="313123" />
	</node>
	<node id="-682702" lat="61.4881555529" lon="7.24920833496">
		<tag k="name" v="Myrane" />
		<tag k="natural" v="wetland" />
		<tag k="ssr:stedsnr" v="331056" />
	</node>
	<node id="-680226" lat="61.5626305588" lon="6.85079443603">
		<tag k="name" v="Bjørnakyrkjebreen" />
		<tag k="natural" v="glacier" />
		<tag k="ssr:stedsnr" v="191810" />
	</node>
	<node id="-680311" lat="61.5178166642" lon="7.44998056493">
		<tag k="name" v="Kringlestein" />
		<tag k="natural" v="stone" />
		<tag k="ssr:stedsnr" v="450972" />
	</node>
	<node id="-683208" lat="61.5762249985" lon="7.2102472171">
		<tag k="name" v="Liastølbreen" />
		<tag k="natural" v="glacier" />
		<tag k="old_name" v="Liastølsbreen" />
		<tag k="ssr:stedsnr" v="616670" />
	</node>
	<node id="-683717" lat="61.6428805527" lon="7.18874166933">
		<tag k="name" v="Rabbane" />
		<tag k="natural" v="scree" />
		<tag k="ssr:stedsnr" v="815983" />
	</node>
	<node id="-683203" lat="61.6044499999" lon="7.69847777211">
		<tag k="name" v="Sveidalsbreen" />
		<tag k="natural" v="glacier" />
		<tag k="ssr:stedsnr" v="616532" />
	</node>
	<node id="-682690" lat="61.3366194406" lon="7.33366945248">
		<tag k="name" v="Eikuri" />
		<tag k="natural" v="scree" />
		<tag k="ssr:stedsnr" v="330597" />
	</node>
	<node id="-681149" lat="61.4592833359" lon="7.84452778452">
		<tag k="alt_name" v="Skarstølsbreen" />
		<tag k="name" v="Skagastølsbreen" />
>>>>>>> e1d4bc35ff8a6074a6f2e91616a996b547c36f15
		<tag k="natural" v="glacier" />
		<tag k="ssr:stedsnr" v="677880" />
	</node>
<<<<<<< HEAD
	<node lat="61.50644722210339" lon="7.2669444483035734" id="-30038">
		<tag k="name" v="Bjørnamyri" />
		<tag k="natural" v="wetland" />
		<tag k="ssr:stedsnr" v="678609" />
	</node>
	<node lat="61.388552773964356" lon="7.343686111534096" id="-30052">
		<tag k="name" v="Atlaseturi" />
		<tag k="natural" v="scree" />
		<tag k="ssr:stedsnr" v="693523" />
	</node>
	<node lat="61.65464444003499" lon="7.253491661301189" id="-30058">
		<tag k="name" v="Homannsteinen" />
		<tag k="natural" v="stone" />
		<tag k="ssr:stedsnr" v="693816" />
	</node>
	<node lat="61.563094448826526" lon="6.882719438695728" id="-30085">
		<tag k="name" v="Breasandane" />
		<tag k="natural" v="scree" />
		<tag k="ssr:stedsnr" v="695430" />
	</node>
	<node lat="61.613424997032574" lon="6.96013610812502" id="-30119">
		<tag k="name" v="Torsbreen" />
		<tag k="natural" v="glacier" />
		<tag k="ssr:stedsnr" v="737846" />
	</node>
	<node lat="61.71061388714826" lon="6.924205551876885" id="-30120">
		<tag k="name" v="Jostedalsbreen" />
		<tag k="natural" v="glacier" />
		<tag k="ssr:stedsnr" v="737912" />
	</node>
	<node lat="61.541386112080595" lon="7.5230500050431806" id="-30134">
		<tag k="name" v="Kvitene" />
=======
	<node id="-682172" lat="61.3677833326" lon="7.05342500164">
		<tag k="name" v="Pepparmyri" />
		<tag k="natural" v="wetland" />
		<tag k="ssr:stedsnr" v="88676" />
	</node>
	<node id="-680634" lat="61.5985555585" lon="6.9325166626">
		<tag k="name" v="Lokebreen" />
		<tag k="natural" v="glacier" />
		<tag k="ssr:stedsnr" v="373858" />
	</node>
	<node id="-682680" lat="61.5242416647" lon="7.70891667464">
		<tag k="name" v="Eidsøy" />
		<tag k="place" v="locality" />
		<tag k="ssr:stedsnr" v="330339" />
	</node>
	<node id="-681654" lat="61.4517777792" lon="7.25979444245">
		<tag k="name" v="Timmermyri" />
		<tag k="natural" v="wetland" />
		<tag k="ssr:stedsnr" v="857085" />
	</node>
	<node id="-683721" lat="61.4896749976" lon="7.25914167161">
		<tag k="name" v="Grovistein" />
		<tag k="natural" v="stone" />
		<tag k="ssr:stedsnr" v="816032" />
	</node>
	<node id="-680752" lat="61.6460444476" lon="7.2769722229">
		<tag k="name" v="Hellemyrane" />
		<tag k="natural" v="wetland" />
		<tag k="ssr:stedsnr" v="511813" />
	</node>
	<node id="-681758" lat="61.672624996" lon="7.11094999658">
		<tag k="name" v="Tuftebreen" />
		<tag k="natural" v="glacier" />
		<tag k="ssr:stedsnr" v="920698" />
	</node>
	<node id="-683698" lat="61.4890638906" lon="7.65414167081">
		<tag k="name" v="Bjørnstein" />
		<tag k="natural" v="stone" />
		<tag k="ssr:stedsnr" v="815609" />
	</node>
	<node id="-680112" lat="61.4781972265" lon="7.53448333229">
		<tag k="name" v="Fjøsnamarki" />
		<tag k="place" v="locality" />
		<tag k="ssr:stedsnr" v="268898" />
	</node>
	<node id="-682696" lat="61.6150972178" lon="7.29712777138">
		<tag k="name" v="Lussiuri" />
		<tag k="natural" v="scree" />
		<tag k="ssr:stedsnr" v="330767" />
	</node>
	<node id="-683693" lat="61.4269055545" lon="7.29130833598">
		<tag k="name" v="Trolldalsmyri" />
>>>>>>> e1d4bc35ff8a6074a6f2e91616a996b547c36f15
		<tag k="natural" v="wetland" />
		<tag k="ssr:stedsnr" v="738412" />
	</node>
<<<<<<< HEAD
	<node lat="61.496494446221554" lon="7.460291668135597" id="-30150">
		<tag k="name" v="Krunestein" />
		<tag k="natural" v="stone" />
		<tag k="ssr:stedsnr" v="753468" />
	</node>
	<node lat="61.42348611211351" lon="7.2763555496428305" id="-30161">
		<tag k="name" v="Kolamyri" />
=======
	<node id="-680409" lat="61.6427999991" lon="7.15470278609">
		<tag k="name" v="Setresteinen" />
		<tag k="natural" v="stone" />
		<tag k="ssr:stedsnr" v="269953" />
	</node>
	<node id="-682153" lat="61.3532416711" lon="7.40419999756">
		<tag k="name" v="Tubbemyra" />
>>>>>>> e1d4bc35ff8a6074a6f2e91616a996b547c36f15
		<tag k="natural" v="wetland" />
		<tag k="ssr:stedsnr" v="754354" />
	</node>
<<<<<<< HEAD
	<node lat="61.50506666303592" lon="7.744661114842022" id="-30244">
		<tag k="name" v="Knektemyrane" />
		<tag k="natural" v="wetland" />
		<tag k="ssr:stedsnr" v="799339" />
	</node>
	<node lat="61.426147221704895" lon="7.010341667020178" id="-30284">
		<tag k="name" v="Lysebreen" />
		<tag k="natural" v="glacier" />
		<tag k="ssr:stedsnr" v="918099" />
	</node>
	<node lat="61.489063890595006" lon="7.654141670810958" id="-30344">
		<tag k="name" v="Bjørnstein" />
		<tag k="natural" v="stone" />
		<tag k="ssr:stedsnr" v="815609" />
	</node>
	<node lat="61.468290951345914" lon="7.57545106439277" id="-30354">
		<tag k="name" v="Haugsteigen" />
		<tag k="place" v="locality" />
		<tag k="ssr:stedsnr" v="815780" />
	</node>
	<node lat="61.64288055269477" lon="7.188741669326608" id="-30363">
		<tag k="name" v="Rabbane" />
=======
	<node id="-682151" lat="61.444599999" lon="7.40428334144">
		<tag k="name" v="Røssetmyrane" />
		<tag k="natural" v="wetland" />
		<tag k="ssr:stedsnr" v="87559" />
	</node>
	<node id="-680100" lat="61.4954861143" lon="7.45688611675">
		<tag k="name" v="Lømyrane" />
		<tag k="natural" v="wetland" />
		<tag k="ssr:stedsnr" v="268546" />
	</node>
	<node id="-680276" lat="61.4771861156" lon="7.18734722255">
		<tag k="name" v="Vassuri" />
		<tag k="natural" v="scree" />
		<tag k="ssr:stedsnr" v="449985" />
	</node>
	<node id="-680096" lat="61.4061555574" lon="7.32715000731">
		<tag k="name" v="Lysemyr" />
		<tag k="natural" v="wetland" />
		<tag k="ssr:stedsnr" v="268534" />
	</node>
	<node id="-680094" lat="61.5736138906" lon="7.27643610442">
		<tag k="name" v="Foresteinuri" />
>>>>>>> e1d4bc35ff8a6074a6f2e91616a996b547c36f15
		<tag k="natural" v="scree" />
		<tag k="ssr:stedsnr" v="815983" />
	</node>
<<<<<<< HEAD
	<node lat="61.483724996347135" lon="7.037297215857062" id="-30372">
		<tag k="name" v="Uri" />
		<tag k="natural" v="scree" />
		<tag k="ssr:stedsnr" v="817974" />
	</node>
	<node lat="61.50467500404898" lon="7.187211119967705" id="-30382">
		<tag k="name" v="Løkjafari" />
=======
	<node id="-682693" lat="61.3528499989" lon="7.51093610613">
		<tag k="name" v="Storemyri" />
		<tag k="natural" v="wetland" />
		<tag k="ssr:stedsnr" v="330750" />
	</node>
	<node id="-681627" lat="61.4077194415" lon="7.19970000838">
		<tag k="name" v="Tjørningahalli" />
>>>>>>> e1d4bc35ff8a6074a6f2e91616a996b547c36f15
		<tag k="place" v="locality" />
		<tag k="ssr:stedsnr" v="920614" />
	</node>
<<<<<<< HEAD
	<node lat="61.819130554586174" lon="7.347658329790225" id="-30384">
		<tag k="name" v="Austdalsbreen" />
		<tag k="natural" v="glacier" />
		<tag k="ssr:stedsnr" v="920622" />
	</node>
	<node lat="61.78454166661591" lon="7.327305557008732" id="-30387">
		<tag k="name" v="Stigaholtbreen" />
		<tag k="natural" v="glacier" />
		<tag k="ssr:stedsnr" v="920555" />
	</node>
	<node lat="61.522866667141535" lon="6.992572223959567" id="-30388">
		<tag k="name" v="Røysane" />
=======
	<node id="-682351" lat="61.2914444431" lon="7.20038611457">
		<tag k="name" v="Tangsmarki" />
		<tag k="place" v="locality" />
		<tag k="ssr:stedsnr" v="189304" />
	</node>
	<node id="-681623" lat="61.4103638897" lon="7.19011389118">
		<tag k="name" v="Holestein" />
>>>>>>> e1d4bc35ff8a6074a6f2e91616a996b547c36f15
		<tag k="natural" v="stone" />
		<tag k="ssr:stedsnr" v="920579" />
	</node>
	<node lat="61.39778950538272" lon="7.38566324652992" id="-30423">
		<tag k="name" v="Vikane" />
		<tag k="place" v="locality" />
		<tag k="ssr:stedsnr" v="857733" />
	</node>
<<<<<<< HEAD
	<node lat="61.4512722263261" lon="6.917763891554456" id="-30435">
		<tag k="name" v="Kvitlabreen" />
=======
	<node id="-680598" lat="61.6044499966" lon="6.97226388931">
		<tag k="alt_name" v="Austedalsbreen" />
		<tag k="name" v="Austerdalsbreen" />
>>>>>>> e1d4bc35ff8a6074a6f2e91616a996b547c36f15
		<tag k="natural" v="glacier" />
		<tag k="ssr:stedsnr" v="858916" />
	</node>
<<<<<<< HEAD
	<node lat="61.62035277651721" lon="7.862144439701865" id="-30437">
		<tag k="name" v="Liabreen" />
		<tag k="natural" v="glacier" />
		<tag k="ssr:stedsnr" v="859411" />
	</node>
	<node lat="61.609024998223056" lon="6.934611118718045" id="-30440">
		<tag k="name" v="Odinsbreen" />
		<tag k="natural" v="glacier" />
		<tag k="ssr:stedsnr" v="859811" />
	</node>
	<node lat="61.64515555440158" lon="7.17842777421508" id="-30466">
		<tag k="name" v="Kjøslesteinen" />
		<tag k="natural" v="stone" />
		<tag k="ssr:stedsnr" v="875957" />
	</node>
	<node lat="61.666797220175944" lon="7.273619437928703" id="-30483">
		<tag k="name" v="Storuri" />
		<tag k="natural" v="scree" />
		<tag k="ssr:stedsnr" v="877408" />
	</node>
	<node lat="61.49503611466225" lon="8.197874997145282" id="-30499">
		<tag k="name" v="Alvbreen" />
		<tag k="natural" v="glacier" />
		<tag k="ssr:stedsnr" v="917870" />
	</node>
	<node lat="61.768705551797616" lon="7.394977778231152" id="-30525">
		<tag k="name" v="Vivakulen" />
		<tag k="natural" v="glacier" />
		<tag k="ssr:stedsnr" v="920490" />
	</node>
	<node lat="61.73278889031838" lon="7.689338897153334" id="-30532">
		<tag k="name" v="Fortundalsbreen" />
		<tag k="natural" v="glacier" />
		<tag k="ssr:stedsnr" v="920600" />
	</node>
	<node lat="61.67262499603805" lon="7.1109499965801755" id="-30538">
		<tag k="name" v="Tuftebreen" />
		<tag k="natural" v="glacier" />
		<tag k="ssr:stedsnr" v="920698" />
	</node>
	<node lat="61.40096388617971" lon="7.230994445912115" id="-30564">
		<tag k="name" v="Timmermyrane" />
		<tag k="natural" v="wetland" />
		<tag k="ssr:stedsnr" v="937491" />
	</node>
	<node lat="61.41036388973098" lon="7.190113891181608" id="-30571">
		<tag k="name" v="Holestein" />
=======
	<node id="-681621" lat="61.3668750007" lon="7.41873889777">
		<tag k="name" v="Brannmyrane" />
		<tag k="natural" v="wetland" />
		<tag k="ssr:stedsnr" v="937723" />
	</node>
	<node id="-680591" lat="61.6924111123" lon="7.18168333381">
		<tag k="name" v="Nigardsbreen" />
		<tag k="natural" v="glacier" />
		<tag k="ssr:stedsnr" v="495699" />
	</node>
	<node id="-683661" lat="61.4934611072" lon="7.64488611006">
		<tag k="name" v="Bolstadmarki" />
		<tag k="place" v="locality" />
		<tag k="ssr:stedsnr" v="814642" />
	</node>
	<node id="-681100" lat="61.6517555589" lon="7.29163334131">
		<tag k="name" v="Ulveskogen" />
		<tag k="place" v="locality" />
		<tag k="ssr:stedsnr" v="571749" />
	</node>
	<node id="-682635" lat="61.3275333298" lon="7.18838889032">
		<tag k="name" v="Kveuri" />
		<tag k="natural" v="scree" />
		<tag k="ssr:stedsnr" v="328446" />
	</node>
	<node id="-681610" lat="61.5197083305" lon="7.70969166128">
		<tag k="name" v="Stein" />
>>>>>>> e1d4bc35ff8a6074a6f2e91616a996b547c36f15
		<tag k="natural" v="stone" />
		<tag k="ssr:stedsnr" v="937739" />
	</node>
<<<<<<< HEAD
	<node lat="61.44820833663934" lon="8.021430551204782" id="-30604">
		<tag k="name" v="Storuri" />
=======
	<node id="-683657" lat="61.4558305585" lon="7.45191667104">
		<tag k="name" v="Skårahelvete" />
>>>>>>> e1d4bc35ff8a6074a6f2e91616a996b547c36f15
		<tag k="natural" v="scree" />
		<tag k="ssr:stedsnr" v="7486" />
	</node>
<<<<<<< HEAD
	<node lat="61.330933331939505" lon="7.120541664248124" id="-30625">
		<tag k="name" v="Stemmingamarki" />
		<tag k="place" v="locality" />
		<tag k="ssr:stedsnr" v="8522" />
	</node>
	<node lat="61.78284999827285" lon="7.209436105832456" id="-30654">
		<tag k="name" v="Småttene" />
		<tag k="natural" v="glacier" />
		<tag k="ssr:stedsnr" v="10580" />
	</node>
	<node lat="61.61843811961855" lon="7.129839601969217" id="-30657">
		<tag k="name" v="Tverradalsbreen" />
=======
	<node id="-681262" lat="61.5682666702" lon="7.3012777812">
		<tag k="name" v="Grisastein" />
		<tag k="natural" v="stone" />
		<tag k="ssr:stedsnr" v="876986" />
	</node>
	<node id="-683143" lat="61.3128305553" lon="7.1118250011">
		<tag k="name" v="Gjøhellermyr" />
		<tag k="natural" v="wetland" />
		<tag k="ssr:stedsnr" v="574894" />
	</node>
	<node id="-682029" lat="61.4407527748" lon="8.13393888715">
		<tag k="name" v="Skogadalsbreen" />
		<tag k="natural" v="glacier" />
		<tag k="ssr:stedsnr" v="68848" />
	</node>
	<node id="-682624" lat="61.6977499978" lon="7.26181389342">
		<tag k="name" v="Storefonnbreen" />
>>>>>>> e1d4bc35ff8a6074a6f2e91616a996b547c36f15
		<tag k="natural" v="glacier" />
		<tag k="ssr:stedsnr" v="10667" />
	</node>
<<<<<<< HEAD
	<node lat="61.5069249965574" lon="7.320080554619234" id="-30662">
		<tag k="name" v="Skitnamyri" />
=======
	<node id="-681599" lat="61.6479277757" lon="7.16641388206">
		<tag k="name" v="Storehilleruri" />
>>>>>>> e1d4bc35ff8a6074a6f2e91616a996b547c36f15
		<tag k="natural" v="wetland" />
		<tag k="ssr:stedsnr" v="10628" />
	</node>
<<<<<<< HEAD
	<node lat="61.49549444417398" lon="7.464866657626251" id="-30678">
		<tag k="name" v="Løstein" />
		<tag k="natural" v="stone" />
		<tag k="ssr:stedsnr" v="25512" />
	</node>
	<node lat="61.45290832979106" lon="7.4321722150701" id="-30679">
		<tag k="name" v="Nipemyrane" />
		<tag k="natural" v="wetland" />
		<tag k="ssr:stedsnr" v="25516" />
	</node>
	<node lat="61.65261666950502" lon="7.260527777796628" id="-30691">
		<tag k="name" v="Merkessteinane" />
		<tag k="natural" v="stone" />
		<tag k="ssr:stedsnr" v="25817" />
	</node>
	<node lat="61.52198610876754" lon="7.433647231722046" id="-30698">
		<tag k="name" v="Geithillerkyrkja" />
		<tag k="natural" v="stone" />
		<tag k="ssr:stedsnr" v="25951" />
	</node>
	<node lat="61.482219442195024" lon="7.674252770565485" id="-30708">
		<tag k="name" v="Åsamarki" />
		<tag k="place" v="locality" />
		<tag k="ssr:stedsnr" v="26347" />
	</node>
	<node lat="61.59429166438146" lon="7.624655552253263" id="-30711">
		<tag k="name" v="Daluri" />
		<tag k="natural" v="scree" />
		<tag k="ssr:stedsnr" v="26281" />
	</node>
	<node lat="61.643691662454906" lon="7.144094444116928" id="-30737">
		<tag k="name" v="Kolasteinen" />
		<tag k="natural" v="stone" />
		<tag k="ssr:stedsnr" v="26944" />
	</node>
	<node lat="61.4007333303127" lon="7.217058328809828" id="-30750">
		<tag k="name" v="Storamyri" />
		<tag k="natural" v="wetland" />
		<tag k="ssr:stedsnr" v="27761" />
	</node>
	<node lat="61.44075277478077" lon="8.133938887146474" id="-30792">
		<tag k="name" v="Skogadalsbreen" />
		<tag k="natural" v="glacier" />
		<tag k="ssr:stedsnr" v="68848" />
	</node>
	<node lat="61.460205555467056" lon="6.893180547037033" id="-30798">
		<tag k="name" v="Svardalsbreen" />
		<tag k="natural" v="glacier" />
		<tag k="ssr:stedsnr" v="69853" />
	</node>
	<node lat="61.512849997615426" lon="7.153586102461248" id="-30813">
		<tag k="alt_name" v="Vedasteinane" />
		<tag k="name" v="Veasteinane" />
		<tag k="natural" v="stone" />
		<tag k="ssr:stedsnr" v="71609" />
	</node>
	<node lat="61.588708334979685" lon="6.86029999870843" id="-30822">
		<tag k="name" v="Langedalsbreen" />
		<tag k="natural" v="glacier" />
		<tag k="ssr:stedsnr" v="71730" />
	</node>
	<node lat="61.677071042117326" lon="7.319804231708955" id="-30827">
=======
	<node id="-683134" lat="61.3283694471" lon="7.1407916713">
		<tag k="name" v="Kilsmyr" />
		<tag k="natural" v="wetland" />
		<tag k="ssr:stedsnr" v="572953" />
	</node>
	<node id="-680085" lat="61.6645833335" lon="7.31404721299">
		<tag k="name" v="Ulvemyri" />
		<tag k="natural" v="wetland" />
		<tag k="ssr:stedsnr" v="268139" />
	</node>
	<node id="-680724" lat="61.4802083303" lon="7.65684166091">
		<tag k="name" v="Åsateigen" />
		<tag k="place" v="locality" />
		<tag k="ssr:stedsnr" v="511668" />
	</node>
	<node id="-682101" lat="61.2774777796" lon="7.35953333958">
		<tag k="name" v="Skreppurane" />
		<tag k="natural" v="scree" />
		<tag k="ssr:stedsnr" v="86379" />
	</node>
	<node id="-683795" lat="61.5272500023" lon="6.92226667576">
		<tag k="name" v="Nystølsbreen" />
		<tag k="natural" v="glacier" />
		<tag k="ssr:stedsnr" v="859843" />
	</node>
	<node id="-682267" lat="61.7333999995" lon="7.85495833242">
		<tag k="name" v="Holåbreen" />
		<tag k="natural" v="glacier" />
		<tag k="ssr:stedsnr" v="131772" />
	</node>
	<node id="-681580" lat="61.3485944482" lon="7.14588332856">
		<tag k="name" v="Breimyrane" />
		<tag k="natural" v="wetland" />
		<tag k="ssr:stedsnr" v="936662" />
	</node>
	<node id="-680576" lat="61.6784138888" lon="7.65303610609">
		<tag k="name" v="Harbardsbreen" />
		<tag k="natural" v="glacier" />
		<tag k="ssr:stedsnr" v="495500" />
	</node>
	<node id="-683409" lat="61.4964944462" lon="7.46029166814">
		<tag k="name" v="Krunestein" />
		<tag k="natural" v="stone" />
		<tag k="ssr:stedsnr" v="753468" />
	</node>
	<node id="-681571" lat="61.5524027759" lon="7.28485833373">
		<tag k="name" v="Ospesvaet" />
		<tag k="place" v="locality" />
		<tag k="ssr:stedsnr" v="936729" />
	</node>
	<node id="-683618" lat="61.5416333351" lon="7.03697223092">
		<tag k="name" v="Kvitekoll" />
		<tag k="natural" v="glacier" />
		<tag k="ssr:stedsnr" v="799701" />
	</node>
	<node id="-681915" lat="61.6526166695" lon="7.2605277778">
		<tag k="name" v="Merkessteinane" />
		<tag k="natural" v="stone" />
		<tag k="ssr:stedsnr" v="25817" />
	</node>
	<node id="-681055" lat="61.5630944488" lon="6.8827194387">
		<tag k="name" v="Breasandane" />
		<tag k="natural" v="scree" />
		<tag k="ssr:stedsnr" v="695430" />
	</node>
	<node id="-681566" lat="61.4165611123" lon="7.21936943642">
		<tag k="name" v="Storebakkmyri" />
		<tag k="natural" v="wetland" />
		<tag k="ssr:stedsnr" v="936469" />
	</node>
	<node id="-682085" lat="61.466647225" lon="7.19220000735">
		<tag k="name" v="Øystølsmyri" />
		<tag k="natural" v="wetland" />
		<tag k="ssr:stedsnr" v="85428" />
	</node>
	<node id="-682074" lat="61.6770710421" lon="7.31980423171">
>>>>>>> e1d4bc35ff8a6074a6f2e91616a996b547c36f15
		<tag k="alt_name" v="Troi" />
		<tag k="name" v="Trodi" />
		<tag k="place" v="locality" />
		<tag k="ssr:stedsnr" v="71757" />
	</node>
<<<<<<< HEAD
	<node lat="61.57298889227226" lon="7.282097231285302" id="-30849">
		<tag k="name" v="Gardsmyrane" />
		<tag k="natural" v="wetland" />
		<tag k="ssr:stedsnr" v="86499" />
	</node>
	<node lat="61.444599999036484" lon="7.404283341435482" id="-30879">
		<tag k="name" v="Røssetmyrane" />
		<tag k="natural" v="wetland" />
		<tag k="ssr:stedsnr" v="87559" />
	</node>
	<node lat="61.35324167113988" lon="7.404199997556395" id="-30881">
		<tag k="name" v="Tubbemyra" />
=======
	<node id="-680975" lat="61.5711861082" lon="7.64044722967">
		<tag k="name" v="Råsamyri" />
		<tag k="natural" v="wetland" />
		<tag k="ssr:stedsnr" v="512261" />
	</node>
	<node id="-682072" lat="61.588708335" lon="6.86029999871">
		<tag k="name" v="Langedalsbreen" />
		<tag k="natural" v="glacier" />
		<tag k="ssr:stedsnr" v="71730" />
	</node>
	<node id="-683790" lat="61.6203527765" lon="7.8621444397">
		<tag k="name" v="Liabreen" />
		<tag k="natural" v="glacier" />
		<tag k="ssr:stedsnr" v="859411" />
	</node>
	<node id="-681041" lat="61.5601277793" lon="7.62576945297">
		<tag k="name" v="Uri" />
		<tag k="natural" v="scree" />
		<tag k="ssr:stedsnr" v="694242" />
	</node>
	<node id="-683088" lat="61.3902638931" lon="7.22076944415">
		<tag k="name" v="Skarsmyri" />
>>>>>>> e1d4bc35ff8a6074a6f2e91616a996b547c36f15
		<tag k="natural" v="wetland" />
		<tag k="ssr:stedsnr" v="87569" />
	</node>
<<<<<<< HEAD
	<node lat="61.37432222067171" lon="7.224630553420916" id="-30913">
		<tag k="name" v="Holemyr" />
		<tag k="natural" v="wetland" />
		<tag k="ssr:stedsnr" v="128047" />
	</node>
	<node lat="61.465663887790726" lon="7.028619446256259" id="-30929">
		<tag k="name" v="Høgemyri" />
		<tag k="natural" v="wetland" />
		<tag k="ssr:stedsnr" v="129099" />
	</node>
	<node lat="61.36680277953423" lon="7.321208334275451" id="-30938">
		<tag k="name" v="Dalamarki" />
		<tag k="place" v="locality" />
		<tag k="ssr:stedsnr" v="129473" />
	</node>
	<node lat="61.455497220373765" lon="6.946416665104862" id="-30945">
		<tag k="name" v="Eldedalsbreen" />
=======
	<node id="-680015" lat="61.5211222217" lon="7.05046666565">
		<tag k="alt_name" v="Tverrdalsbreen" />
		<tag k="name" v="Tverradalsbreen" />
		<tag k="natural" v="glacier" />
		<tag k="ssr:stedsnr" v="253598" />
	</node>
	<node id="-681038" lat="61.6225333364" lon="7.30059167142">
		<tag k="name" v="Vasstakuri" />
		<tag k="natural" v="scree" />
		<tag k="ssr:stedsnr" v="694102" />
	</node>
	<node id="-682570" lat="61.4451250022" lon="7.79803056376">
		<tag k="name" v="Ringsbreen" />
>>>>>>> e1d4bc35ff8a6074a6f2e91616a996b547c36f15
		<tag k="natural" v="glacier" />
		<tag k="ssr:stedsnr" v="129913" />
	</node>
<<<<<<< HEAD
	<node lat="61.65890555848153" lon="7.015236106709929" id="-30978">
		<tag k="name" v="Kvitekulen" />
=======
	<node id="-682569" lat="61.4405750028" lon="7.78279444795">
		<tag k="name" v="Berdalsbreen" />
>>>>>>> e1d4bc35ff8a6074a6f2e91616a996b547c36f15
		<tag k="natural" v="glacier" />
		<tag k="ssr:stedsnr" v="131745" />
	</node>
<<<<<<< HEAD
	<node lat="61.602744442055304" lon="7.836794447477669" id="-30984">
		<tag k="name" v="Liabreen" />
		<tag k="natural" v="glacier" />
		<tag k="ssr:stedsnr" v="145601" />
	</node>
	<node lat="61.44166110930869" lon="7.510219452119033" id="-30991">
		<tag k="name" v="Sandsuri" />
		<tag k="natural" v="scree" />
		<tag k="ssr:stedsnr" v="147000" />
	</node>
	<node lat="61.500138891114936" lon="7.678358332215884" id="-30994">
		<tag k="name" v="Breimyri" />
		<tag k="natural" v="wetland" />
		<tag k="ssr:stedsnr" v="146444" />
	</node>
	<node lat="61.612175002195634" lon="7.338494441557417" id="-31003">
		<tag k="name" v="Saltsteinane" />
		<tag k="natural" v="stone" />
		<tag k="ssr:stedsnr" v="147028" />
	</node>
	<node lat="61.49056110685719" lon="7.571569440297845" id="-31005">
		<tag k="name" v="Sandamyrane" />
		<tag k="natural" v="wetland" />
		<tag k="ssr:stedsnr" v="147053" />
	</node>
	<node lat="61.541063892086676" lon="7.283263890983" id="-31032">
		<tag k="name" v="Grisuri" />
		<tag k="natural" v="scree" />
		<tag k="ssr:stedsnr" v="147931" />
	</node>
	<node lat="61.646836111715864" lon="7.149394437343586" id="-31035">
		<tag k="name" v="Lauvsteinen" />
		<tag k="natural" v="stone" />
		<tag k="ssr:stedsnr" v="147943" />
	</node>
	<node lat="61.32477222514012" lon="7.382705555021903" id="-31048">
		<tag k="name" v="Almeskreda" />
=======
	<node id="-680519" lat="61.4006722224" lon="7.24825278614">
		<tag k="name" v="Skiftingsmyr" />
		<tag k="natural" v="wetland" />
		<tag k="ssr:stedsnr" v="493037" />
	</node>
	<node id="-681030" lat="61.3018250044" lon="7.21453610408">
		<tag k="name" v="Øvrabømyri" />
		<tag k="natural" v="wetland" />
		<tag k="ssr:stedsnr" v="693930" />
	</node>
	<node id="-683587" lat="61.4664111083" lon="6.96998889169">
		<tag k="alt_name" v="Eldedalsbreen" />
		<tag k="name" v="Eldalsbreen" />
		<tag k="natural" v="glacier" />
		<tag k="ssr:stedsnr" v="797082" />
	</node>
	<node id="-683074" lat="61.6078138892" lon="7.28294723016">
		<tag k="name" v="Kvilesteinen" />
		<tag k="natural" v="stone" />
		<tag k="ssr:stedsnr" v="571685" />
	</node>
	<node id="-680001" lat="61.5049249992" lon="7.35538888311">
		<tag k="alt_name" v="Likholsmyrane" />
		<tag k="name" v="Likholmyri" />
		<tag k="natural" v="wetland" />
		<tag k="ssr:stedsnr" v="253439" />
	</node>
	<node id="-682045" lat="61.4602055555" lon="6.89318054704">
		<tag k="name" v="Svardalsbreen" />
		<tag k="natural" v="glacier" />
		<tag k="ssr:stedsnr" v="69853" />
	</node>
	<node id="-682706" lat="61.2965111102" lon="7.14178055795">
		<tag k="name" v="Kalbakkamarki" />
		<tag k="place" v="locality" />
		<tag k="ssr:stedsnr" v="331940" />
	</node>
	<node id="-681016" lat="61.3890138873" lon="7.22519444909">
		<tag k="name" v="Klovsteinane" />
		<tag k="natural" v="stone" />
		<tag k="ssr:stedsnr" v="693640" />
	</node>
	<node id="-680476" lat="61.627847223" lon="7.24310277202">
		<tag k="name" v="Geituri" />
		<tag k="natural" v="scree" />
		<tag k="ssr:stedsnr" v="329626" />
	</node>
	<node id="-683060" lat="61.7367777745" lon="7.4124472147">
		<tag k="name" v="Vardesteinen" />
		<tag k="natural" v="stone" />
		<tag k="ssr:stedsnr" v="571183" />
	</node>
	<node id="-683571" lat="61.4780194484" lon="7.88471944873">
		<tag k="name" v="Styggedalsbreen" />
		<tag k="natural" v="glacier" />
		<tag k="ssr:stedsnr" v="796534" />
	</node>
	<node id="-680497" lat="61.5783111125" lon="7.30109722942">
		<tag k="name" v="Nyuri" />
>>>>>>> e1d4bc35ff8a6074a6f2e91616a996b547c36f15
		<tag k="natural" v="scree" />
		<tag k="ssr:stedsnr" v="175229" />
	</node>
<<<<<<< HEAD
	<node lat="61.291444443149636" lon="7.2003861145697625" id="-31063">
		<tag k="name" v="Tangsmarki" />
		<tag k="place" v="locality" />
		<tag k="ssr:stedsnr" v="189304" />
	</node>
	<node lat="61.42166944028131" lon="6.8983472246954145" id="-31093">
		<tag k="name" v="Tuftabreen" />
		<tag k="natural" v="glacier" />
		<tag k="ssr:stedsnr" v="190895" />
	</node>
	<node lat="61.53668332999059" lon="8.171102772794935" id="-31095">
		<tag k="name" v="Surtningsbreen" />
		<tag k="natural" v="glacier" />
		<tag k="ssr:stedsnr" v="192129" />
	</node>
	<node lat="61.52236110884262" lon="7.919225002751903" id="-31105">
		<tag k="name" v="Fannaråkbreen" />
=======
	<node id="-681008" lat="61.388552774" lon="7.34368611153">
		<tag k="name" v="Atlaseturi" />
		<tag k="natural" v="scree" />
		<tag k="ssr:stedsnr" v="693523" />
	</node>
	<node id="-679983" lat="61.514536107" lon="8.26017777197">
		<tag k="name" v="Høgvaglbreen" />
		<tag k="natural" v="glacier" />
		<tag k="ssr:stedsnr" v="253104" />
	</node>
	<node id="-682541" lat="61.3807499972" lon="7.24375277214">
		<tag k="name" v="Raudgotemyr" />
		<tag k="natural" v="wetland" />
		<tag k="ssr:stedsnr" v="311050" />
	</node>
	<node id="-681004" lat="61.4730388905" lon="7.46488332784">
		<tag k="name" v="Vedhoggeteigen" />
		<tag k="place" v="locality" />
		<tag k="ssr:stedsnr" v="693432" />
	</node>
	<node id="-679978" lat="61.7126611143" lon="7.26635000591">
		<tag k="name" v="Fåbergstølsbreen" />
>>>>>>> e1d4bc35ff8a6074a6f2e91616a996b547c36f15
		<tag k="natural" v="glacier" />
		<tag k="ssr:stedsnr" v="192340" />
	</node>
<<<<<<< HEAD
	<node lat="61.66084722074494" lon="7.306611108985689" id="-31146">
		<tag k="historic" v="shieling" />
		<tag k="name" v="Myrvollen" />
		<tag k="place" v="locality" />
		<tag k="ssr:stedsnr" v="192768" />
	</node>
	<node lat="61.73490555603707" lon="7.364999995303685" id="-31153">
		<tag k="name" v="Geitasteinen" />
		<tag k="natural" v="stone" />
		<tag k="ssr:stedsnr" v="207161" />
	</node>
	<node lat="61.472561115246194" lon="7.212452775430905" id="-31158">
		<tag k="name" v="Grautamyri" />
=======
	<node id="-681001" lat="61.4126611084" lon="7.29233611915">
		<tag k="name" v="Alfstein" />
		<tag k="natural" v="stone" />
		<tag k="ssr:stedsnr" v="693287" />
	</node>
	<node id="-680487" lat="61.6442611112" lon="7.2826944523">
		<tag k="name" v="Skålemyri" />
		<tag k="natural" v="wetland" />
		<tag k="ssr:stedsnr" v="329808" />
	</node>
	<node id="-682534" lat="61.3595999978" lon="7.23387500289">
		<tag k="name" v="Langamyr" />
>>>>>>> e1d4bc35ff8a6074a6f2e91616a996b547c36f15
		<tag k="natural" v="wetland" />
		<tag k="ssr:stedsnr" v="207488" />
	</node>
<<<<<<< HEAD
	<node lat="61.65016389063317" lon="7.265716665547519" id="-31167">
		<tag k="name" v="Storskogen" />
		<tag k="place" v="locality" />
		<tag k="ssr:stedsnr" v="207802" />
	</node>
	<node lat="61.66306666929502" lon="7.302166668539194" id="-31174">
		<tag k="name" v="Myrmyrane" />
=======
	<node id="-679973" lat="61.5392833367" lon="6.97798333104">
		<tag k="name" v="Sandane" />
		<tag k="natural" v="beach" />
		<tag k="ssr:stedsnr" v="252623" />
		<tag k="surface" v="sand" />
	</node>
	<node id="-682532" lat="61.3589138873" lon="7.27707222647">
		<tag k="name" v="Porsmyr" />
>>>>>>> e1d4bc35ff8a6074a6f2e91616a996b547c36f15
		<tag k="natural" v="wetland" />
		<tag k="ssr:stedsnr" v="208143" />
	</node>
<<<<<<< HEAD
	<node lat="61.71913333569237" lon="7.367394435338082" id="-31180">
		<tag k="name" v="Follasteinen" />
		<tag k="natural" v="stone" />
		<tag k="ssr:stedsnr" v="208244" />
	</node>
	<node lat="61.71239722109466" lon="7.3432444529204135" id="-31182">
		<tag k="name" v="Storemyri" />
=======
	<node id="-683043" lat="61.502547226" lon="7.73684166429">
		<tag k="name" v="Storeurdi" />
		<tag k="natural" v="scree" />
		<tag k="ssr:stedsnr" v="556397" />
	</node>
	<node id="-680993" lat="61.5195972247" lon="7.27922221631">
		<tag k="name" v="Mannuri" />
>>>>>>> e1d4bc35ff8a6074a6f2e91616a996b547c36f15
		<tag k="natural" v="wetland" />
		<tag k="ssr:stedsnr" v="208249" />
	</node>
<<<<<<< HEAD
	<node lat="61.46636666858421" lon="7.455558340420031" id="-31184">
		<tag k="name" v="Grindavoll" />
		<tag k="place" v="locality" />
		<tag k="ssr:stedsnr" v="208429" />
	</node>
	<node lat="61.500827776224845" lon="7.255347223092768" id="-31211">
=======
	<node id="-680990" lat="61.322172221" lon="7.37553610473">
		<tag k="name" v="Steinajerven" />
		<tag k="natural" v="scree" />
		<tag k="ssr:stedsnr" v="539202" />
	</node>
	<node id="-682525" lat="61.5008277762" lon="7.25534722309">
>>>>>>> e1d4bc35ff8a6074a6f2e91616a996b547c36f15
		<tag k="name" v="Skarmyri" />
		<tag k="natural" v="wetland" />
		<tag k="ssr:stedsnr" v="210028" />
	</node>
<<<<<<< HEAD
	<node lat="61.35959999782738" lon="7.233875002894104" id="-31220">
		<tag k="name" v="Langamyr" />
		<tag k="natural" v="wetland" />
		<tag k="ssr:stedsnr" v="210642" />
	</node>
	<node lat="61.358913887292736" lon="7.27707222646702" id="-31222">
		<tag k="name" v="Porsmyr" />
		<tag k="natural" v="wetland" />
		<tag k="ssr:stedsnr" v="210622" />
	</node>
	<node lat="61.30573333757672" lon="7.339300000808741" id="-31229">
		<tag k="name" v="Orneshagane" />
		<tag k="place" v="locality" />
		<tag k="ssr:stedsnr" v="297241" />
	</node>
	<node lat="61.3807499972433" lon="7.243752772141002" id="-31245">
		<tag k="name" v="Raudgotemyr" />
		<tag k="natural" v="wetland" />
		<tag k="ssr:stedsnr" v="311050" />
	</node>
	<node lat="61.44057500280739" lon="7.782794447948713" id="-31259">
		<tag k="name" v="Berdalsbreen" />
		<tag k="natural" v="glacier" />
		<tag k="ssr:stedsnr" v="311541" />
	</node>
	<node lat="61.445125002209245" lon="7.79803056375565" id="-31260">
		<tag k="name" v="Ringsbreen" />
		<tag k="natural" v="glacier" />
		<tag k="ssr:stedsnr" v="311549" />
	</node>
	<node lat="61.53316388608549" lon="8.229438880444736" id="-31273">
		<tag k="name" v="Gravdalsfonni" />
		<tag k="place" v="locality" />
		<tag k="ssr:stedsnr" v="313123" />
	</node>
	<node lat="61.69774999781548" lon="7.261813893423248" id="-31302">
		<tag k="name" v="Storefonnbreen" />
		<tag k="natural" v="glacier" />
		<tag k="ssr:stedsnr" v="313692" />
	</node>
	<node lat="61.62937778060636" lon="7.094699997774756" id="-31311">
		<tag k="name" v="Vetledalsbreen" />
		<tag k="natural" v="glacier" />
		<tag k="ssr:stedsnr" v="314661" />
	</node>
	<node lat="61.32753332984343" lon="7.188388890322985" id="-31320">
		<tag k="name" v="Kveuri" />
		<tag k="natural" v="scree" />
		<tag k="ssr:stedsnr" v="328446" />
	</node>
	<node lat="61.627847223020986" lon="7.243102772021333" id="-31340">
		<tag k="name" v="Geituri" />
		<tag k="natural" v="scree" />
		<tag k="ssr:stedsnr" v="329626" />
	</node>
	<node lat="61.5242416646763" lon="7.708916674642994" id="-31362">
		<tag k="name" v="Eidsøy" />
		<tag k="place" v="locality" />
		<tag k="ssr:stedsnr" v="330339" />
	</node>
	<node lat="61.33661944064905" lon="7.33366945247816" id="-31367">
		<tag k="name" v="Eikuri" />
		<tag k="natural" v="scree" />
		<tag k="ssr:stedsnr" v="330597" />
	</node>
	<node lat="61.57831111249874" lon="7.3010972294247845" id="-31376">
		<tag k="name" v="Nyuri" />
		<tag k="natural" v="scree" />
		<tag k="ssr:stedsnr" v="330826" />
	</node>
	<node lat="61.352849998918735" lon="7.51093610612568" id="-31379">
		<tag k="name" v="Storemyri" />
		<tag k="natural" v="wetland" />
		<tag k="ssr:stedsnr" v="330750" />
	</node>
	<node lat="61.488155552949586" lon="7.2492083349567835" id="-31383">
		<tag k="name" v="Myrane" />
		<tag k="natural" v="wetland" />
		<tag k="ssr:stedsnr" v="331056" />
	</node>
	<node lat="61.29651111020286" lon="7.141780557952476" id="-31389">
		<tag k="name" v="Kalbakkamarki" />
		<tag k="place" v="locality" />
		<tag k="ssr:stedsnr" v="331940" />
	</node>
	<node lat="61.598555558549684" lon="6.932516662604707" id="-31431">
		<tag k="name" v="Lokebreen" />
		<tag k="natural" v="glacier" />
		<tag k="ssr:stedsnr" v="373858" />
	</node>
	<node lat="61.55188888774085" lon="7.193016673316053" id="-31457">
		<tag k="name" v="Vassdalsbreen" />
		<tag k="natural" v="glacier" />
		<tag k="ssr:stedsnr" v="374668" />
	</node>
	<node lat="61.79274166534046" lon="7.209999991955264" id="-31459">
		<tag k="name" v="Hanken" />
		<tag k="natural" v="glacier" />
		<tag k="ssr:stedsnr" v="384476" />
	</node>
	<node lat="61.43050555719587" lon="7.288172225963957" id="-31479">
		<tag k="name" v="Dukamyri" />
		<tag k="natural" v="wetland" />
		<tag k="ssr:stedsnr" v="389458" />
	</node>
	<node lat="61.38227500068372" lon="7.218769444028872" id="-31499">
		<tag k="name" v="Gråuri" />
		<tag k="natural" v="scree" />
		<tag k="ssr:stedsnr" v="389634" />
	</node>
	<node lat="61.56998889159225" lon="7.263286103724203" id="-31508">
		<tag k="name" v="Høgerabburi" />
		<tag k="natural" v="scree" />
		<tag k="ssr:stedsnr" v="389735" />
	</node>
	<node lat="61.57092454576848" lon="7.296834193284397" id="-31510">
		<tag k="name" v="Storemyri" />
		<tag k="natural" v="wetland" />
		<tag k="ssr:stedsnr" v="389766" />
	</node>
	<node lat="61.61478333218234" lon="7.302108333476804" id="-31513">
		<tag k="name" v="Budeiesteinen" />
		<tag k="natural" v="stone" />
		<tag k="ssr:stedsnr" v="390122" />
	</node>
	<node lat="61.4056166659228" lon="7.480344443243724" id="-31515">
		<tag k="name" v="Flaskuri" />
		<tag k="natural" v="scree" />
		<tag k="ssr:stedsnr" v="389867" />
	</node>
	<node lat="61.3982388932817" lon="7.364208336302491" id="-31525">
		<tag k="name" v="Stupuri" />
		<tag k="natural" v="scree" />
		<tag k="ssr:stedsnr" v="390717" />
	</node>
	<node lat="61.52283888457951" lon="7.259991660962602" id="-31538">
		<tag k="name" v="Høystein" />
		<tag k="natural" v="stone" />
		<tag k="ssr:stedsnr" v="390876" />
	</node>
	<node lat="61.513727775329954" lon="7.3361444521532135" id="-31539">
		<tag k="name" v="Storurane" />
		<tag k="natural" v="scree" />
		<tag k="ssr:stedsnr" v="390881" />
	</node>
	<node lat="61.46137777705128" lon="7.4388833407741695" id="-31561">
		<tag k="name" v="Brennesteinane" />
		<tag k="natural" v="stone" />
		<tag k="ssr:stedsnr" v="432272" />
=======
	<node id="-680053" lat="61.4554972204" lon="6.9464166651">
		<tag k="name" v="Eldedalsbreen" />
		<tag k="natural" v="glacier" />
		<tag k="ssr:stedsnr" v="129913" />
	</node>
	<node id="-680982" lat="61.3658361112" lon="7.0485027852">
		<tag k="name" v="Stormyr" />
		<tag k="natural" v="wetland" />
		<tag k="ssr:stedsnr" v="513732" />
	</node>
	<node id="-680793" lat="61.4458861113" lon="7.23040000342">
		<tag k="name" v="Kalhagen" />
		<tag k="place" v="locality" />
		<tag k="ssr:stedsnr" v="513274" />
	</node>
	<node id="-682264" lat="61.6589055585" lon="7.01523610671">
		<tag k="name" v="Kvitekulen" />
		<tag k="natural" v="glacier" />
		<tag k="ssr:stedsnr" v="131745" />
	</node>
	<node id="-682733" lat="61.4971361149" lon="8.189611117">
		<tag k="name" v="Kristenbreen" />
		<tag k="natural" v="glacier" />
		<tag k="ssr:stedsnr" v="371864" />
	</node>
	<node id="-679953" lat="61.3735083346" lon="7.1866305583">
		<tag k="name" v="Hjortastein" />
		<tag k="natural" v="stone" />
		<tag k="ssr:stedsnr" v="251036" />
	</node>
	<node id="-683608" lat="61.505066663" lon="7.74466111484">
		<tag k="name" v="Knektemyrane" />
		<tag k="natural" v="wetland" />
		<tag k="ssr:stedsnr" v="799339" />
	</node>
	<node id="-682510" lat="61.4716888927" lon="7.52546666764">
		<tag k="name" v="Ørnskarmarki" />
		<tag k="place" v="locality" />
		<tag k="ssr:stedsnr" v="208911" />
	</node>
	<node id="-680461" lat="61.6293777806" lon="7.09469999777">
		<tag k="name" v="Vetledalsbreen" />
		<tag k="natural" v="glacier" />
		<tag k="ssr:stedsnr" v="314661" />
	</node>
	<node id="-681986" lat="61.4762416642" lon="7.27607500375">
		<tag k="name" v="Steinane" />
		<tag k="natural" v="stone" />
		<tag k="ssr:stedsnr" v="28205" />
	</node>
	<node id="-683018" lat="61.3336472244" lon="7.21648610588">
		<tag k="name" v="Heggmyrane" />
		<tag k="natural" v="wetland" />
		<tag k="ssr:stedsnr" v="554541" />
	</node>
	<node id="-681615" lat="61.4009638862" lon="7.23099444591">
		<tag k="name" v="Timmermyrane" />
		<tag k="natural" v="wetland" />
		<tag k="ssr:stedsnr" v="937491" />
>>>>>>> e1d4bc35ff8a6074a6f2e91616a996b547c36f15
	</node>
</osm>
