<?xml version="1.0" encoding="UTF-8"?>
<<<<<<< HEAD
<osm version="0.6" generator="osmapis">
	<node lat="61.470988893217644" lon="7.045369442698433" id="-28585">
		<tag k="bridge" v="yes" />
		<tag k="layer" v="1" />
		<tag k="name" v="Røytevik" />
		<tag k="ssr:stedsnr" v="46277" />
	</node>
	<node lat="61.34678333391957" lon="7.399672216357263" id="-28586">
		<tag k="bridge" v="yes" />
		<tag k="layer" v="1" />
		<tag k="name" v="Kroken" />
		<tag k="ssr:stedsnr" v="46281" />
	</node>
	<node lat="61.61069722598549" lon="7.30018889577771" id="-28587">
		<tag k="bridge" v="yes" />
		<tag k="layer" v="1" />
		<tag k="name" v="Geisdøla" />
		<tag k="ssr:stedsnr" v="46283" />
	</node>
	<node lat="61.401930555171504" lon="7.296400006021413" id="-28588">
		<tag k="bridge" v="yes" />
		<tag k="layer" v="1" />
		<tag k="name" v="Hauga" />
		<tag k="ssr:stedsnr" v="46285" />
	</node>
	<node lat="61.505272220322354" lon="7.359688895009642" id="-28662">
		<tag k="highway" v="path" />
		<tag k="name" v="Storhaugveg" />
		<tag k="ssr:stedsnr" v="86906" />
	</node>
	<node lat="61.498055556396984" lon="7.718574999790107" id="-28692">
		<tag k="bridge" v="yes" />
		<tag k="layer" v="1" />
		<tag k="name" v="Berge" />
		<tag k="ssr:stedsnr" v="107278" />
	</node>
	<node lat="61.52455833654964" lon="7.092322218459313" id="-28854">
		<tag k="ford" v="yes" />
		<tag k="name" v="Kyravad" />
		<tag k="place" v="locality" />
		<tag k="ssr:stedsnr" v="253601" />
	</node>
	<node lat="61.41032777420188" lon="7.341569447290753" id="-28893">
		<tag k="highway" v="path" />
		<tag k="name" v="Skarvegen" />
		<tag k="ssr:stedsnr" v="147508" />
	</node>
	<node lat="61.50531389139893" lon="7.699261119907057" id="-28919">
=======
<osm generator="osmapis" version="0.6">
	<node id="-680186" lat="61.4103277742" lon="7.34156944729">
		<tag k="highway" v="path" />
		<tag k="name" v="Skarvegen" />
		<tag k="ssr:stedsnr" v="147508" />
	</node>
	<node id="-680423" lat="61.4458000043" lon="7.46245554679">
		<tag k="bridge" v="yes" />
		<tag k="layer" v="1" />
		<tag k="name" v="Kvåle" />
		<tag k="ssr:stedsnr" v="470249" />
	</node>
	<node id="-680422" lat="61.5001833324" lon="7.78375277245">
		<tag k="bridge" v="yes" />
		<tag k="layer" v="1" />
		<tag k="name" v="Rings" />
		<tag k="ssr:stedsnr" v="470247" />
	</node>
	<node id="-682852" lat="61.5986305584" lon="7.28530554626">
		<tag k="bridge" v="yes" />
		<tag k="layer" v="1" />
		<tag k="name" v="Høga" />
		<tag k="ssr:stedsnr" v="410291" />
	</node>
	<node id="-680028" lat="61.4911777735" lon="7.59962777969">
		<tag k="bridge" v="yes" />
		<tag k="layer" v="1" />
		<tag k="name" v="Skjolden" />
		<tag k="ssr:stedsnr" v="107258" />
	</node>
	<node id="-681991" lat="61.4709888932" lon="7.0453694427">
		<tag k="bridge" v="yes" />
		<tag k="layer" v="1" />
		<tag k="name" v="Røytevik" />
		<tag k="ssr:stedsnr" v="46277" />
	</node>
	<node id="-683736" lat="61.4901250001" lon="7.60265000307">
		<tag k="bridge" v="yes" />
		<tag k="layer" v="1" />
		<tag k="name" v="Hauge" />
		<tag k="ssr:stedsnr" v="835291" />
	</node>
	<node id="-683735" lat="61.6524250021" lon="7.28142221894">
		<tag k="bridge" v="yes" />
		<tag k="layer" v="1" />
		<tag k="name" v="Kroken" />
		<tag k="ssr:stedsnr" v="835284" />
	</node>
	<node id="-683734" lat="61.381433335" lon="7.30544166198">
>>>>>>> e1d4bc35ff8a6074a6f2e91616a996b547c36f15
		<tag k="bridge" v="yes" />
		<tag k="layer" v="1" />
		<tag k="name" v="Marifjøra" />
		<tag k="ssr:stedsnr" v="835282" />
	</node>
<<<<<<< HEAD
	<node lat="61.665477774801005" lon="7.3172833379919515" id="-29077">
		<tag k="bridge" v="yes" />
		<tag k="layer" v="1" />
		<tag k="name" v="Flatelvi" />
		<tag k="ssr:stedsnr" v="228288" />
	</node>
	<node lat="61.507372220265694" lon="7.250130556946688" id="-29152">
		<tag k="highway" v="path" />
		<tag k="name" v="Humpedalsveg" />
		<tag k="ssr:stedsnr" v="452023" />
	</node>
	<node lat="61.50018333241807" lon="7.783752772447952" id="-29285">
		<tag k="bridge" v="yes" />
		<tag k="layer" v="1" />
		<tag k="name" v="Rings" />
		<tag k="ssr:stedsnr" v="470247" />
	</node>
	<node lat="61.44580000425285" lon="7.462455546794001" id="-29286">
		<tag k="bridge" v="yes" />
		<tag k="layer" v="1" />
		<tag k="name" v="Kvåle" />
		<tag k="ssr:stedsnr" v="470249" />
	</node>
	<node lat="61.502083331666206" lon="7.795913893837087" id="-29321">
		<tag k="bridge" v="yes" />
		<tag k="layer" v="1" />
		<tag k="name" v="Skagastøl" />
		<tag k="ssr:stedsnr" v="349312" />
	</node>
	<node lat="61.47659166314154" lon="7.555605551559962" id="-29322">
		<tag k="bridge" v="yes" />
		<tag k="layer" v="1" />
		<tag k="name" v="Melkå" />
		<tag k="ssr:stedsnr" v="349324" />
	</node>
	<node lat="61.33298055232933" lon="7.267450004799607" id="-29385">
		<tag k="junction" v="yes" />
		<tag k="name" v="Krossen" />
		<tag k="place" v="locality" />
		<tag k="ssr:stedsnr" v="389711" />
	</node>
	<node lat="61.33347500044145" lon="7.2584083324595605" id="-29802">
		<tag k="junction" v="yes" />
		<tag k="name" v="Tverbergsvegskil" />
		<tag k="place" v="locality" />
		<tag k="ssr:stedsnr" v="571681" />
	</node>
	<node lat="61.36866110735183" lon="7.338994441580923" id="-29984">
		<tag k="bridge" v="yes" />
		<tag k="layer" v="1" />
		<tag k="name" v="Eikum" />
		<tag k="ssr:stedsnr" v="652248" />
	</node>
	<node lat="61.66729999999891" lon="7.32075834148486" id="-29985">
		<tag k="bridge" v="yes" />
		<tag k="layer" v="1" />
		<tag k="name" v="Ysteelvi" />
		<tag k="ssr:stedsnr" v="653245" />
	</node>
	<node lat="61.49741666727938" lon="7.716591669514362" id="-30089">
		<tag k="bridge" v="yes" />
		<tag k="layer" v="1" />
		<tag k="name" v="Kvernola" />
		<tag k="ssr:stedsnr" v="896285" />
	</node>
	<node lat="61.535197221944884" lon="7.605441664870195" id="-30090">
		<tag k="bridge" v="yes" />
		<tag k="layer" v="1" />
		<tag k="name" v="Mo" />
		<tag k="ssr:stedsnr" v="713274" />
	</node>
	<node lat="61.48942222600535" lon="7.681122213414166" id="-30206">
		<tag k="bridge" v="yes" />
		<tag k="layer" v="1" />
		<tag k="name" v="Læge" />
		<tag k="ssr:stedsnr" v="774303" />
	</node>
	<node lat="61.41631111080985" lon="7.261430548169912" id="-30207">
		<tag k="bridge" v="yes" />
		<tag k="layer" v="1" />
		<tag k="name" v="Kvernelv" />
		<tag k="ssr:stedsnr" v="774305" />
	</node>
	<node lat="61.43706944654991" lon="7.102327786799277" id="-30208">
		<tag k="bridge" v="yes" />
		<tag k="layer" v="1" />
		<tag k="name" v="Grøndøla" />
		<tag k="ssr:stedsnr" v="774309" />
	</node>
	<node lat="61.38143333504714" lon="7.305441661982538" id="-30400">
=======
	<node id="-682709" lat="61.4765916631" lon="7.55560555156">
		<tag k="bridge" v="yes" />
		<tag k="layer" v="1" />
		<tag k="name" v="Melkå" />
		<tag k="ssr:stedsnr" v="349324" />
	</node>
	<node id="-681683" lat="61.6013638893" lon="6.94729722987">
		<tag k="man_made" v="cairn" />
		<tag k="name" v="Kvitesteinsvarden" />
		<tag k="place" v="locality" />
		<tag k="ssr:stedsnr" v="859812" />
	</node>
	<node id="-681379" lat="61.4370694465" lon="7.1023277868">
		<tag k="bridge" v="yes" />
		<tag k="layer" v="1" />
		<tag k="name" v="Grøndøla" />
		<tag k="ssr:stedsnr" v="774309" />
	</node>
	<node id="-680016" lat="61.5245583365" lon="7.09232221846">
		<tag k="ford" v="yes" />
		<tag k="name" v="Kyravad" />
		<tag k="place" v="locality" />
		<tag k="ssr:stedsnr" v="253601" />
	</node>
	<node id="-682188" lat="61.7905166629" lon="7.20474443823">
		<tag k="man_made" v="cairn" />
		<tag k="name" v="Lodalskåpa" />
		<tag k="place" v="locality" />
		<tag k="ssr:stedsnr" v="112293" />
	</node>
	<node id="-682955" lat="61.5484944423" lon="7.8703277771">
		<tag k="bridge" v="yes" />
		<tag k="layer" v="1" />
		<tag k="name" v="Herva" />
		<tag k="ssr:stedsnr" v="531296" />
	</node>
	<node id="-682954" lat="61.3139499997" lon="7.22725833589">
		<tag k="bridge" v="yes" />
		<tag k="layer" v="1" />
		<tag k="name" v="Hillestad undergang" />
		<tag k="ssr:stedsnr" v="531282" />
	</node>
	<node id="-682953" lat="61.4994611137" lon="7.7674499907">
		<tag k="bridge" v="yes" />
		<tag k="layer" v="1" />
		<tag k="name" v="Simo" />
		<tag k="ssr:stedsnr" v="531276" />
	</node>
	<node id="-682952" lat="61.5154833374" lon="7.70781111308">
		<tag k="bridge" v="yes" />
		<tag k="layer" v="1" />
		<tag k="name" v="Skagen Lille" />
		<tag k="ssr:stedsnr" v="531275" />
	</node>
	<node id="-682951" lat="61.5651083321" lon="7.29366110769">
		<tag k="bridge" v="yes" />
		<tag k="layer" v="1" />
		<tag k="name" v="Sperle" />
		<tag k="ssr:stedsnr" v="531273" />
	</node>
	<node id="-680420" lat="61.5998777793" lon="7.28999166815">
		<tag k="bridge" v="yes" />
		<tag k="layer" v="1" />
		<tag k="name" v="Vanndøla" />
		<tag k="ssr:stedsnr" v="290257" />
	</node>
	<node id="-682187" lat="61.3426949624" lon="7.25948130425">
		<tag k="bridge" v="yes" />
		<tag k="layer" v="1" />
		<tag k="name" v="Ugulen jordbruksundergang" />
		<tag k="ssr:stedsnr" v="108268" />
	</node>
	<node id="-683072" lat="61.3334750004" lon="7.25840833246">
		<tag k="junction" v="yes" />
		<tag k="name" v="Tverbergsvegskil" />
		<tag k="place" v="locality" />
		<tag k="ssr:stedsnr" v="571681" />
	</node>
	<node id="-682810" lat="61.3329805523" lon="7.2674500048">
		<tag k="junction" v="yes" />
		<tag k="name" v="Krossen" />
		<tag k="place" v="locality" />
		<tag k="ssr:stedsnr" v="389711" />
	</node>
	<node id="-681631" lat="61.6324555581" lon="7.26310555843">
		<tag k="bridge" v="yes" />
		<tag k="layer" v="1" />
		<tag k="name" v="Snåpe" />
		<tag k="ssr:stedsnr" v="835272" />
	</node>
	<node id="-680504" lat="61.5020833317" lon="7.79591389384">
		<tag k="bridge" v="yes" />
		<tag k="layer" v="1" />
		<tag k="name" v="Skagastøl" />
		<tag k="ssr:stedsnr" v="349312" />
	</node>
	<node id="-682185" lat="61.4980555564" lon="7.71857499979">
		<tag k="bridge" v="yes" />
		<tag k="layer" v="1" />
		<tag k="name" v="Berge" />
		<tag k="ssr:stedsnr" v="107278" />
	</node>
	<node id="-682184" lat="61.4829555524" lon="7.63114444256">
		<tag k="bridge" v="yes" />
		<tag k="layer" v="1" />
		<tag k="name" v="Linga" />
		<tag k="ssr:stedsnr" v="107270" />
	</node>
	<node id="-683848" lat="61.2993359803" lon="7.31243954297">
		<tag k="amenity" v="ferry_terminal" />
		<tag k="name" v="Ornes ferjekai" />
		<tag k="ssr:stedsnr" v="978655" />
	</node>
	<node id="-683310" lat="61.6673" lon="7.32075834148">
		<tag k="bridge" v="yes" />
		<tag k="layer" v="1" />
		<tag k="name" v="Ysteelvi" />
		<tag k="ssr:stedsnr" v="653245" />
	</node>
	<node id="-681133" lat="61.485413886" lon="7.65087222729">
		<tag k="bridge" v="yes" />
		<tag k="layer" v="1" />
		<tag k="name" v="Vassbakke" />
		<tag k="ssr:stedsnr" v="593245" />
	</node>
	<node id="-681132" lat="61.5351972219" lon="7.60544166487">
		<tag k="bridge" v="yes" />
		<tag k="layer" v="1" />
		<tag k="name" v="Mo" />
		<tag k="ssr:stedsnr" v="713274" />
	</node>
	<node id="-683309" lat="61.3686611074" lon="7.33899444158">
		<tag k="bridge" v="yes" />
		<tag k="layer" v="1" />
		<tag k="name" v="Eikum" />
		<tag k="ssr:stedsnr" v="652248" />
	</node>
	<node id="-683847" lat="61.3013574252" lon="7.24866196091">
		<tag k="amenity" v="ferry_terminal" />
		<tag k="name" v="Solvorn ferjekai" />
		<tag k="ssr:stedsnr" v="978654" />
	</node>
	<node id="-680867" lat="61.5073722203" lon="7.25013055695">
		<tag k="highway" v="path" />
		<tag k="name" v="Humpedalsveg" />
		<tag k="ssr:stedsnr" v="452023" />
	</node>
	<node id="-681378" lat="61.4163111108" lon="7.26143054817">
		<tag k="bridge" v="yes" />
		<tag k="layer" v="1" />
		<tag k="name" v="Kvernelv" />
		<tag k="ssr:stedsnr" v="774305" />
	</node>
	<node id="-681377" lat="61.489422226" lon="7.68112221341">
>>>>>>> e1d4bc35ff8a6074a6f2e91616a996b547c36f15
		<tag k="bridge" v="yes" />
		<tag k="layer" v="1" />
		<tag k="name" v="Læge" />
		<tag k="ssr:stedsnr" v="774303" />
	</node>
<<<<<<< HEAD
	<node lat="61.65242500214274" lon="7.281422218943184" id="-30401">
		<tag k="bridge" v="yes" />
		<tag k="layer" v="1" />
		<tag k="name" v="Kroken" />
		<tag k="ssr:stedsnr" v="835284" />
	</node>
	<node lat="61.6013638892993" lon="6.947297229873043" id="-30441">
		<tag k="man_made" v="cairn" />
		<tag k="name" v="Kvitesteinsvarden" />
		<tag k="place" v="locality" />
		<tag k="ssr:stedsnr" v="859812" />
	</node>
	<node lat="61.55651944103898" lon="7.947227784052358" id="-30490">
		<tag k="bridge" v="yes" />
		<tag k="layer" v="1" />
		<tag k="name" v="Midtfjell" />
		<tag k="ssr:stedsnr" v="896279" />
	</node>
	<node lat="61.48174167062791" lon="7.257983333208405" id="-30757">
		<tag k="bridge" v="yes" />
		<tag k="layer" v="1" />
		<tag k="name" v="Alsmo kulvert" />
		<tag k="ssr:stedsnr" v="46290" />
	</node>
	<node lat="61.3730555563673" lon="7.094052771999057" id="-30758">
		<tag k="bridge" v="yes" />
		<tag k="layer" v="1" />
		<tag k="name" v="Ugelsvik" />
		<tag k="ssr:stedsnr" v="47279" />
	</node>
	<node lat="61.491177773489134" lon="7.599627779690742" id="-30904">
		<tag k="bridge" v="yes" />
		<tag k="layer" v="1" />
		<tag k="name" v="Skjolden" />
		<tag k="ssr:stedsnr" v="107258" />
	</node>
	<node lat="61.31597222245408" lon="7.2046083242811205" id="-30905">
=======
	<node id="-679840" lat="61.4387527748" lon="7.45086667246">
		<tag k="bridge" v="yes" />
		<tag k="layer" v="1" />
		<tag k="name" v="Døsen" />
		<tag k="ssr:stedsnr" v="228298" />
	</node>
	<node id="-679839" lat="61.4887888888" lon="7.67425554852">
		<tag k="bridge" v="yes" />
		<tag k="layer" v="1" />
		<tag k="name" v="Haga" />
		<tag k="ssr:stedsnr" v="228293" />
	</node>
	<node id="-679838" lat="61.6654777748" lon="7.31728333799">
		<tag k="bridge" v="yes" />
		<tag k="layer" v="1" />
		<tag k="name" v="Flatelvi" />
		<tag k="ssr:stedsnr" v="228288" />
	</node>
	<node id="-681371" lat="61.4974166673" lon="7.71659166951">
		<tag k="bridge" v="yes" />
		<tag k="layer" v="1" />
		<tag k="name" v="Kvernola" />
		<tag k="ssr:stedsnr" v="896285" />
	</node>
	<node id="-681370" lat="61.556519441" lon="7.94722778405">
		<tag k="bridge" v="yes" />
		<tag k="layer" v="1" />
		<tag k="name" v="Midtfjell" />
		<tag k="ssr:stedsnr" v="896279" />
	</node>
	<node id="-681135" lat="61.4831222204" lon="7.03300556317">
		<tag k="bridge" v="yes" />
		<tag k="layer" v="1" />
		<tag k="name" v="Storakloppi" />
		<tag k="ssr:stedsnr" v="715298" />
	</node>
	<node id="-679937" lat="61.5052722203" lon="7.35968889501">
		<tag k="highway" v="path" />
		<tag k="name" v="Storhaugveg" />
		<tag k="ssr:stedsnr" v="86906" />
	</node>
	<node id="-682183" lat="61.3159722225" lon="7.20460832428">
>>>>>>> e1d4bc35ff8a6074a6f2e91616a996b547c36f15
		<tag k="bridge" v="yes" />
		<tag k="layer" v="1" />
		<tag k="name" v="Mo" />
		<tag k="ssr:stedsnr" v="107266" />
	</node>
<<<<<<< HEAD
	<node lat="61.482955552434156" lon="7.631144442556812" id="-30906">
		<tag k="bridge" v="yes" />
		<tag k="layer" v="1" />
		<tag k="name" v="Linga" />
		<tag k="ssr:stedsnr" v="107270" />
	</node>
	<node lat="61.34269496242346" lon="7.259481304254319" id="-30908">
		<tag k="bridge" v="yes" />
		<tag k="layer" v="1" />
		<tag k="name" v="Ugulen jordbruksundergang" />
		<tag k="ssr:stedsnr" v="108268" />
	</node>
	<node lat="61.79051666291214" lon="7.204744438234243" id="-30909">
		<tag k="man_made" v="cairn" />
		<tag k="name" v="Lodalskåpa" />
		<tag k="place" v="locality" />
		<tag k="ssr:stedsnr" v="112293" />
	</node>
	<node lat="61.48878888879241" lon="7.674255548520651" id="-31224">
=======
	<node id="-680210" lat="61.5053138914" lon="7.69926111991">
		<tag k="bridge" v="yes" />
		<tag k="layer" v="1" />
		<tag k="name" v="Skagen" />
		<tag k="ssr:stedsnr" v="167270" />
	</node>
	<node id="-683533" lat="61.4519083345" lon="7.54364166474">
		<tag k="bridge" v="yes" />
		<tag k="layer" v="1" />
		<tag k="name" v="Murdalseva" />
		<tag k="ssr:stedsnr" v="774299" />
	</node>
	<node id="-683532" lat="61.4873194439" lon="7.02135278417">
		<tag k="bridge" v="yes" />
		<tag k="layer" v="1" />
		<tag k="name" v="Skredkloppi" />
		<tag k="ssr:stedsnr" v="774290" />
	</node>
	<node id="-683842" lat="61.3380611117" lon="7.24004722643">
		<tag k="bridge" v="yes" />
		<tag k="layer" v="1" />
		<tag k="name" v="Veum" />
		<tag k="ssr:stedsnr" v="958287" />
	</node>
	<node id="-681994" lat="61.4019305552" lon="7.29640000602">
		<tag k="bridge" v="yes" />
		<tag k="layer" v="1" />
		<tag k="name" v="Hauga" />
		<tag k="ssr:stedsnr" v="46285" />
	</node>
	<node id="-681993" lat="61.610697226" lon="7.30018889578">
		<tag k="bridge" v="yes" />
		<tag k="layer" v="1" />
		<tag k="name" v="Geisdøla" />
		<tag k="ssr:stedsnr" v="46283" />
	</node>
	<node id="-681992" lat="61.3467833339" lon="7.39967221636">
		<tag k="bridge" v="yes" />
		<tag k="layer" v="1" />
		<tag k="name" v="Kroken" />
		<tag k="ssr:stedsnr" v="46281" />
	</node>
	<node id="-683308" lat="61.5941611145" lon="7.28066666775">
>>>>>>> e1d4bc35ff8a6074a6f2e91616a996b547c36f15
		<tag k="bridge" v="yes" />
		<tag k="layer" v="1" />
		<tag k="name" v="Haga" />
		<tag k="ssr:stedsnr" v="228293" />
	</node>
<<<<<<< HEAD
	<node lat="61.43875277479471" lon="7.450866672460522" id="-31225">
		<tag k="bridge" v="yes" />
		<tag k="layer" v="1" />
		<tag k="name" v="Døsen" />
		<tag k="ssr:stedsnr" v="228298" />
	</node>
	<node lat="61.59987777928169" lon="7.289991668154808" id="-31228">
		<tag k="bridge" v="yes" />
		<tag k="layer" v="1" />
		<tag k="name" v="Vanndøla" />
		<tag k="ssr:stedsnr" v="290257" />
	</node>
	<node lat="61.489899996665194" lon="7.603327775912431" id="-31390">
=======
	<node id="-681995" lat="61.4817416706" lon="7.25798333321">
		<tag k="bridge" v="yes" />
		<tag k="layer" v="1" />
		<tag k="name" v="Alsmo kulvert" />
		<tag k="ssr:stedsnr" v="46290" />
	</node>
	<node id="-681134" lat="61.4107000031" lon="7.10106667241">
		<tag k="bridge" v="yes" />
		<tag k="layer" v="1" />
		<tag k="name" v="Uksabåsen" />
		<tag k="ssr:stedsnr" v="715295" />
	</node>
	<node id="-682710" lat="61.4898999967" lon="7.60332777591">
>>>>>>> e1d4bc35ff8a6074a6f2e91616a996b547c36f15
		<tag k="bridge" v="yes" />
		<tag k="layer" v="1" />
		<tag k="name" v="Eide" />
		<tag k="ssr:stedsnr" v="349342" />
	</node>
<<<<<<< HEAD
	<node lat="61.5986305583821" lon="7.285305546263018" id="-31552">
		<tag k="bridge" v="yes" />
		<tag k="layer" v="1" />
		<tag k="name" v="Høga" />
		<tag k="ssr:stedsnr" v="410291" />
=======
	<node id="-681996" lat="61.3730555564" lon="7.094052772">
		<tag k="bridge" v="yes" />
		<tag k="layer" v="1" />
		<tag k="name" v="Ugelsvik" />
		<tag k="ssr:stedsnr" v="47279" />
>>>>>>> e1d4bc35ff8a6074a6f2e91616a996b547c36f15
	</node>
</osm>
