<?xml version="1.0" encoding="UTF-8"?>
<<<<<<< HEAD
<osm version="0.6" generator="osmapis">
	<node lat="61.67348888683193" lon="7.241116665312896" id="-29070">
		<tag k="name" v="Grande allmenning" />
		<tag k="place" v="locality" />
		<tag k="ssr:stedsnr" v="270417" />
	</node>
	<node lat="61.33561388608614" lon="7.8991527709848395" id="-30091">
		<tag k="fixme" v="consider boundary=protected_area and relevant protect_class if not nature reserve" />
		<tag k="leisure" v="nature_reserve" />
		<tag k="name" v="Utladalen landskapsvernområde" />
		<tag k="ssr:stedsnr" v="714994" />
	</node>
	<node lat="61.570247218047605" lon="6.808722228278396" id="-30275">
		<tag k="historic" v="boundary_stone" />
		<tag k="loc_name" v="Øygardsvarden" />
		<tag k="man_made" v="cairn" />
		<tag k="name" v="Grensevarden" />
		<tag k="place" v="locality" />
		<tag k="ssr:stedsnr" v="810603" />
	</node>
	<node lat="61.29350833680284" lon="7.173225005656416" id="-30370">
		<tag k="name" v="Almenningen" />
		<tag k="place" v="locality" />
		<tag k="ssr:stedsnr" v="817922" />
	</node>
	<node lat="61.47825555361081" lon="7.944022213612817" id="-30500">
=======
<osm generator="osmapis" version="0.6">
	<node id="-680256" lat="61.2401166643" lon="7.32908054984">
		<tag k="name" v="Luster Almenning" />
		<tag k="place" v="locality" />
		<tag k="ssr:stedsnr" v="208469" />
	</node>
	<node id="-683743" lat="61.6852944478" lon="7.65404444751">
		<tag k="fixme" v="consider boundary=protected_area and relevant protect_class if not nature reserve" />
		<tag k="leisure" v="nature_reserve" />
		<tag k="name" v="Breheimen nasjonalpark" />
		<tag k="ssr:stedsnr" v="846262" />
	</node>
	<node id="-681788" lat="61.5086505948" lon="7.67172862568">
>>>>>>> e1d4bc35ff8a6074a6f2e91616a996b547c36f15
		<tag k="fixme" v="consider boundary=protected_area and relevant protect_class if not nature reserve" />
		<tag k="leisure" v="nature_reserve" />
		<tag k="name" v="Jotunheimen nasjonalpark" />
		<tag k="ssr:stedsnr" v="917874" />
	</node>
<<<<<<< HEAD
	<node lat="61.29064166603626" lon="7.171686115814725" id="-30577">
		<tag k="name" v="Hafslo bygdeallmenning" />
=======
	<node id="-683066" lat="61.1839972245" lon="7.36632221497">
		<tag k="name" v="Luster allmenning" />
>>>>>>> e1d4bc35ff8a6074a6f2e91616a996b547c36f15
		<tag k="place" v="locality" />
		<tag k="ssr:stedsnr" v="938917" />
	</node>
<<<<<<< HEAD
	<node lat="61.50865059478782" lon="7.671728625676708" id="-30579">
		<tag k="fixme" v="consider boundary=protected_area and relevant protect_class if not nature reserve" />
		<tag k="leisure" v="nature_reserve" />
		<tag k="name" v="Drægnismorki-Yttrismorki naturreservat" />
		<tag k="ssr:stedsnr" v="971503" />
	</node>
	<node lat="61.240116664278965" lon="7.329080549842859" id="-31188">
		<tag k="name" v="Luster Almenning" />
=======
	<node id="-683864" lat="61.4799469104" lon="7.26163160944">
		<tag k="fixme" v="consider boundary=protected_area and relevant protect_class if not nature reserve" />
		<tag k="leisure" v="nature_reserve" />
		<tag k="name" v="Ytamo naturreservat" />
		<tag k="ssr:stedsnr" v="981072" />
	</node>
	<node id="-680148" lat="61.6734888868" lon="7.24111666531">
		<tag k="name" v="Grande allmenning" />
		<tag k="place" v="locality" />
		<tag k="ssr:stedsnr" v="270417" />
	</node>
	<node id="-683731" lat="61.2935083368" lon="7.17322500566">
		<tag k="name" v="Almenningen" />
>>>>>>> e1d4bc35ff8a6074a6f2e91616a996b547c36f15
		<tag k="place" v="locality" />
		<tag k="ssr:stedsnr" v="208469" />
	</node>
	<node id="-681643" lat="61.290641666" lon="7.17168611581">
		<tag k="name" v="Hafslo bygdeallmenning" />
		<tag k="place" v="locality" />
		<tag k="ssr:stedsnr" v="938917" />
	</node>
	<node id="-681385" lat="61.4782555536" lon="7.94402221361">
		<tag k="fixme" v="consider boundary=protected_area and relevant protect_class if not nature reserve" />
		<tag k="leisure" v="nature_reserve" />
		<tag k="name" v="Jotunheimen nasjonalpark" />
		<tag k="ssr:stedsnr" v="917874" />
	</node>
	<node id="-683880" lat="61.570247218" lon="6.80872222828">
		<tag k="historic" v="boundary_stone" />
		<tag k="man_made" v="cairn" />
		<tag k="name" v="Grensevarden" />
		<tag k="place" v="locality" />
		<tag k="ssr:stedsnr" v="810603" />
	</node>
	<node id="-680166" lat="61.6597805544" lon="7.24678334274">
		<tag k="name" v="Allmenning" />
		<tag k="place" v="locality" />
		<tag k="ssr:stedsnr" v="146812" />
	</node>
</osm>
