<?xml version="1.0" encoding="UTF-8"?>
<osm version="0.6" generator="osmapis">
	<node lat="61.30050833456999" lon="7.237524998872834" id="-28481">
		<tag k="alt_name" v="Solvorn" />
		<tag k="amenity" v="place_of_worship" />
		<tag k="denomination" v="lutheran" />
		<tag k="name" v="Solvorn kyrkje" />
		<tag k="religion" v="christian" />
		<tag k="ssr:stedsnr" v="7408" />
	</node>
	<node lat="61.409888887631425" lon="7.28732778318782" id="-28590">
		<tag k="alt_name" v="Gaupne" />
		<tag k="amenity" v="place_of_worship" />
		<tag k="denomination" v="lutheran" />
		<tag k="name" v="Gaupne kyrkje" />
		<tag k="religion" v="christian" />
		<tag k="ssr:stedsnr" v="55615" />
	</node>
	<node lat="61.29820555946409" lon="7.3230944400175195" id="-28925">
		<tag k="amenity" v="place_of_worship" />
		<tag k="denomination" v="lutheran" />
		<tag k="name" v="Urnes stavkyrkje" />
		<tag k="religion" v="christian" />
		<tag k="ssr:stedsnr" v="189403" />
	</node>
	<node lat="61.386909841400666" lon="7.36757782248108" id="-29411">
		<tag k="alt_name" v="Nes" />
		<tag k="amenity" v="place_of_worship" />
		<tag k="denomination" v="lutheran" />
		<tag k="name" v="Nes kyrkje" />
		<tag k="religion" v="christian" />
		<tag k="ssr:stedsnr" v="492697" />
	</node>
	<node lat="61.65134722226283" lon="7.275433335818055" id="-29864">
		<tag k="name" v="Breheimsenteret" />
		<tag k="ssr:stedsnr" v="694894" />
		<tag k="tourism" v="museum" />
	</node>
	<node lat="61.30749722067991" lon="7.215058342562648" id="-30103">
		<tag k="amenity" v="community_centre" />
		<tag k="name" v="Lyngmo" />
		<tag k="ssr:stedsnr" v="736417" />
	</node>
	<node lat="61.226250002216254" lon="7.391025005211249" id="-30369">
		<tag k="name" v="Ulvenes" />
		<tag k="place" v="locality" />
		<tag k="ssr:stedsnr" v="919382" />
	</node>
	<node lat="61.58747221899305" lon="7.283255547099948" id="-30664">
		<tag k="alt_name" v="Jostedal" />
		<tag k="amenity" v="place_of_worship" />
		<tag k="denomination" v="lutheran" />
		<tag k="name" v="Jostedal kyrkje" />
		<tag k="religion" v="christian" />
		<tag k="ssr:stedsnr" v="10690" />
	</node>
	<node lat="61.49316388686697" lon="7.686633331588182" id="-30780">
		<tag k="alt_name" v="Fortun" />
		<tag k="amenity" v="place_of_worship" />
		<tag k="denomination" v="lutheran" />
		<tag k="name" v="Fortun kyrkje" />
		<tag k="religion" v="christian" />
		<tag k="ssr:stedsnr" v="68262" />
	</node>
	<node lat="61.37814721807757" lon="7.288747214789571" id="-31244">
		<tag k="alt_name" v="Joranger" />
		<tag k="amenity" v="place_of_worship" />
		<tag k="denomination" v="lutheran" />
		<tag k="name" v="Joranger kyrkje" />
		<tag k="religion" v="christian" />
		<tag k="ssr:stedsnr" v="311042" />
	</node>
	<node lat="61.31091389197404" lon="7.185597230549079" id="-31251">
		<tag k="alt_name" v="Hafslo;Hafslo kirke" />
		<tag k="amenity" v="place_of_worship" />
		<tag k="denomination" v="lutheran" />
		<tag k="name" v="Hafslo kyrkje" />
		<tag k="religion" v="christian" />
		<tag k="ssr:stedsnr" v="311466" />
	</node>
</osm>
