<?xml version="1.0" encoding="UTF-8"?>
<osm generator="osmapis" version="0.6">
	<node id="-862688" lat="63.3473222206" lon="9.77493610134">
		<tag k="name" v="Fjellkjøsvegen" />
		<tag k="ssr:date" v="2018-01-09" />
		<tag k="ssr:gruppe" v="veg" />
		<tag k="ssr:hovedgruppe" v="infrastruktur" />
		<tag k="ssr:stedsnr" v="276167" />
		<tag k="ssr:type" v="vegstrekning" />
	</node>
	<node id="-863839" lat="63.2998888848" lon="9.84365278393">
		<tag k="name" v="Orkdal kommune" />
		<tag k="ssr:date" v="2018-01-09" />
		<tag k="ssr:gruppe" v="administrativeIndelinger" />
		<tag k="ssr:hovedgruppe" v="offentligAdministrasjon" />
		<tag k="ssr:stedsnr" v="753629" />
		<tag k="ssr:type" v="kommune" />
	</node>
	<node id="-861109" lat="63.4271027811" lon="9.95433888443">
		<tag k="name" v="Bessmorvegen" />
		<tag k="ssr:date" v="2018-01-09" />
		<tag k="ssr:gruppe" v="veg" />
		<tag k="ssr:hovedgruppe" v="infrastruktur" />
		<tag k="ssr:stedsnr" v="519743" />
		<tag k="ssr:type" v="vegstrekning" />
	</node>
	<node id="-863295" lat="63.35015" lon="9.88939723103">
		<tag k="name" v="Åsavegen" />
		<tag k="ssr:date" v="2018-01-09" />
		<tag k="ssr:gruppe" v="veg" />
		<tag k="ssr:hovedgruppe" v="infrastruktur" />
		<tag k="ssr:stedsnr" v="397441" />
		<tag k="ssr:type" v="vegstrekning" />
	</node>
	<node id="-863289" lat="63.1933305569" lon="9.75627500352">
		<tag k="name" v="Brattlimarka" />
		<tag k="ssr:date" v="2018-01-09" />
		<tag k="ssr:gruppe" v="veg" />
		<tag k="ssr:hovedgruppe" v="infrastruktur" />
		<tag k="ssr:stedsnr" v="586819" />
		<tag k="ssr:type" v="vegstrekning" />
	</node>
	<node id="-861684" lat="63.1691666677" lon="9.74821943997">
		<tag k="name" v="Neråkervegen" />
		<tag k="ssr:date" v="2018-01-09" />
		<tag k="ssr:gruppe" v="veg" />
		<tag k="ssr:hovedgruppe" v="infrastruktur" />
		<tag k="ssr:stedsnr" v="642362" />
		<tag k="ssr:type" v="vegstrekning" />
	</node>
	<node id="-863694" lat="63.3616944448" lon="9.88728611105">
		<tag k="name" v="Husdalsvegen" />
		<tag k="ssr:date" v="2018-01-09" />
		<tag k="ssr:gruppe" v="veg" />
		<tag k="ssr:hovedgruppe" v="infrastruktur" />
		<tag k="ssr:stedsnr" v="823369" />
		<tag k="ssr:type" v="vegstrekning" />
	</node>
	<node id="-863885" lat="63.3307821215" lon="9.78351533331">
		<tag k="name" v="Melandssætren" />
		<tag k="ssr:date" v="2019-05-30" />
		<tag k="ssr:gruppe" v="veg" />
		<tag k="ssr:hovedgruppe" v="infrastruktur" />
		<tag k="ssr:stedsnr" v="1023792" />
		<tag k="ssr:type" v="adressenavn" />
	</node>
	<node id="-863884" lat="63.3028672045" lon="9.84671444949">
		<tag k="name" v="Kari Gravroks gate" />
		<tag k="ssr:date" v="2019-05-30" />
		<tag k="ssr:gruppe" v="veg" />
		<tag k="ssr:hovedgruppe" v="infrastruktur" />
		<tag k="ssr:stedsnr" v="1021887" />
		<tag k="ssr:type" v="adressenavn" />
	</node>
	<node id="-863883" lat="63.3350790453" lon="9.73049298544">
		<tag k="name" v="Dyndalsslættet" />
		<tag k="ssr:date" v="2019-05-30" />
		<tag k="ssr:gruppe" v="veg" />
		<tag k="ssr:hovedgruppe" v="infrastruktur" />
		<tag k="ssr:stedsnr" v="1021083" />
		<tag k="ssr:type" v="adressenavn" />
	</node>
	<node id="-863336" lat="63.2368750038" lon="9.77876944515">
		<tag k="name" v="Blåsmovegen" />
		<tag k="ssr:date" v="2018-01-09" />
		<tag k="ssr:gruppe" v="veg" />
		<tag k="ssr:hovedgruppe" v="infrastruktur" />
		<tag k="ssr:stedsnr" v="525433" />
		<tag k="ssr:type" v="vegstrekning" />
	</node>
	<node id="-863161" lat="63.3673666694" lon="9.86598056197">
		<tag k="name" v="Almenningsvegen" />
		<tag k="ssr:date" v="2018-01-09" />
		<tag k="ssr:gruppe" v="veg" />
		<tag k="ssr:hovedgruppe" v="infrastruktur" />
		<tag k="ssr:stedsnr" v="701671" />
		<tag k="ssr:type" v="vegstrekning" />
	</node>
	<node id="-863874" lat="63.5169210211" lon="10.4860505232">
		<tag k="name" v="Trøndelag fylke - Trööndelagen fylhke" />
		<tag k="name:no" v="Trøndelag fylke" />
		<tag k="name:sma" v="Trööndelagen fylhke" />
		<tag k="ssr:date" v="2018-06-27" />
		<tag k="ssr:gruppe" v="administrativeIndelinger" />
		<tag k="ssr:hovedgruppe" v="offentligAdministrasjon" />
		<tag k="ssr:stedsnr" v="980645" />
		<tag k="ssr:type" v="fylke" />
	</node>
	<node id="-863435" lat="63.236700001" lon="9.86422222992">
		<tag k="name" v="Gammelbyvegen" />
		<tag k="ssr:date" v="2018-01-09" />
		<tag k="ssr:gruppe" v="veg" />
		<tag k="ssr:hovedgruppe" v="infrastruktur" />
		<tag k="ssr:stedsnr" v="883397" />
		<tag k="ssr:type" v="vegstrekning" />
	</node>
</osm>
