<?xml version="1.0" encoding="UTF-8"?>
<osm version="0.6" generator="osmapis">
	<node lat="57.98575277443689" lon="7.604919451974873" id="-26734">
		<tag k="name" v="Brattholmen" />
		<tag k="place" v="islet" />
		<tag k="ssr:stedsnr" v="50" />
	</node>
	<node lat="57.96189722036592" lon="7.565069452252735" id="-26738">
		<tag k="name" v="Odd" />
		<tag k="place" v="islet" />
		<tag k="ssr:stedsnr" v="65" />
	</node>
	<node lat="58.03743055305651" lon="7.125041660275505" id="-26756">
		<tag k="name" v="Lervika" />
		<tag k="natural" v="bay" />
		<tag k="ssr:stedsnr" v="21087" />
	</node>
	<node lat="58.02680555715994" lon="7.122302771738748" id="-26757">
		<tag k="name" v="Tronesvika" />
		<tag k="natural" v="bay" />
		<tag k="ssr:stedsnr" v="21095" />
	</node>
	<node lat="58.02133333349227" lon="7.03809444842037" id="-26759">
		<tag k="name" v="Launes" />
		<tag k="natural" v="cape" />
		<tag k="ssr:stedsnr" v="21216" />
	</node>
	<node lat="58.01954166428595" lon="7.112933328616055" id="-26762">
		<tag k="name" v="Høylandsstranda" />
		<tag k="natural" v="bay" />
		<tag k="ssr:stedsnr" v="21101" />
	</node>
	<node lat="57.9896833328945" lon="7.064819436475275" id="-26766">
		<tag k="name" v="Auster Kilen" />
		<tag k="natural" v="bay" />
		<tag k="ssr:stedsnr" v="21410" />
	</node>
	<node lat="58.00120833319205" lon="7.196402777001844" id="-26790">
		<tag k="name" v="Rabnøy" />
		<tag k="place" v="island" />
		<tag k="ssr:stedsnr" v="22340" />
	</node>
	<node lat="58.10788055897129" lon="7.186249996474069" id="-26827">
		<tag k="name" v="Fiskerhola" />
		<tag k="natural" v="bay" />
		<tag k="ssr:stedsnr" v="22902" />
	</node>
	<node lat="58.10900555585266" lon="7.187461104436191" id="-26828">
		<tag k="name" v="Einerbakkodden" />
		<tag k="natural" v="cape" />
		<tag k="ssr:stedsnr" v="22903" />
	</node>
	<node lat="58.043736113326055" lon="7.24571388099532" id="-26845">
		<tag k="fixme" v="consider seamark:type=rock or natural=shoal" />
		<tag k="name" v="Seilskjæran" />
		<tag k="place" v="islet" />
		<tag k="ssr:stedsnr" v="22989" />
	</node>
	<node lat="57.99123611106379" lon="7.551986106204856" id="-26859">
		<tag k="name" v="Rennesodden" />
		<tag k="natural" v="cape" />
		<tag k="ssr:stedsnr" v="24049" />
	</node>
	<node lat="57.99074721998719" lon="7.550324996367417" id="-26860">
		<tag k="name" v="Ellingsodden" />
		<tag k="natural" v="cape" />
		<tag k="ssr:stedsnr" v="24051" />
	</node>
	<node lat="57.99782778231308" lon="7.659183339572614" id="-26861">
		<tag k="name" v="Sandkilen" />
		<tag k="natural" v="bay" />
		<tag k="ssr:stedsnr" v="24304" />
	</node>
	<node lat="57.99685277384574" lon="7.648802774854591" id="-26862">
		<tag k="fixme" v="consider seamark:type=rock or natural=shoal" />
		<tag k="name" v="Skomakerskjær" />
		<tag k="place" v="islet" />
		<tag k="ssr:stedsnr" v="24307" />
	</node>
	<node lat="57.99276388474224" lon="7.640383338434483" id="-26863">
		<tag k="name" v="Valløyodden" />
		<tag k="natural" v="cape" />
		<tag k="ssr:stedsnr" v="24329" />
	</node>
	<node lat="58.00050277584444" lon="7.5332527724456195" id="-26864">
		<tag k="name" v="Bergstøholmen" />
		<tag k="place" v="islet" />
		<tag k="ssr:stedsnr" v="24406" />
	</node>
	<node lat="58.00028333528777" lon="7.540849999714257" id="-26865">
		<tag k="name" v="Høgeholmen" />
		<tag k="place" v="islet" />
		<tag k="ssr:stedsnr" v="24413" />
	</node>
	<node lat="58.025208335855964" lon="7.360052778088948" id="-26872">
		<tag k="alt_name" v="Sjøbodvik" />
		<tag k="name" v="Sjøbuvika" />
		<tag k="natural" v="bay" />
		<tag k="ssr:stedsnr" v="24702" />
	</node>
	<node lat="58.02686110829963" lon="7.672436118346024" id="-26875">
		<tag k="name" v="Fuvikbukta" />
		<tag k="natural" v="bay" />
		<tag k="ssr:stedsnr" v="24605" />
	</node>
	<node lat="58.03168611378454" lon="7.671391673621205" id="-26876">
		<tag k="name" v="Rona" />
		<tag k="natural" v="bay" />
		<tag k="ssr:stedsnr" v="24607" />
	</node>
	<node lat="58.022119447617115" lon="7.664324997855355" id="-26877">
		<tag k="name" v="Lammeholmen" />
		<tag k="place" v="islet" />
		<tag k="ssr:stedsnr" v="24627" />
	</node>
	<node lat="57.98470555786125" lon="7.0692611138808505" id="-26890">
		<tag k="name" v="Vareholmen" />
		<tag k="place" v="islet" />
		<tag k="ssr:stedsnr" v="24945" />
	</node>
	<node lat="57.98978888979278" lon="7.118716660855736" id="-26901">
		<tag k="name" v="Sørgrunnen" />
		<tag k="natural" v="shoal" />
		<tag k="place" v="locality" />
		<tag k="ssr:stedsnr" v="25013" />
	</node>
	<node lat="58.007972222012384" lon="7.484863883558608" id="-26902">
		<tag k="name" v="Stusøysundet" />
		<tag k="natural" v="strait" />
		<tag k="ssr:stedsnr" v="25022" />
	</node>
	<node lat="57.995719447303" lon="7.177355550000406" id="-26903">
		<tag k="name" v="Grundflua" />
		<tag k="place" v="locality" />
		<tag k="seamark:type" v="rock" />
		<tag k="ssr:stedsnr" v="25092" />
	</node>
	<node lat="57.98771388962339" lon="7.572508337513182" id="-26905">
		<tag k="name" v="Krossvika" />
		<tag k="natural" v="bay" />
		<tag k="ssr:stedsnr" v="25106" />
	</node>
	<node lat="58.007253173375375" lon="7.6025657898247845" id="-26907">
		<tag k="alt_name" v="Nordre Lille Ørpholmen" />
		<tag k="name" v="Nordre Lille Ørpeholmen" />
		<tag k="place" v="islet" />
		<tag k="ssr:stedsnr" v="25289" />
	</node>
	<node lat="58.00263333573052" lon="7.4009027749056" id="-26908">
		<tag k="name" v="Gunningsholman" />
		<tag k="place" v="islet" />
		<tag k="ssr:stedsnr" v="25730" />
	</node>
	<node lat="57.9957611129201" lon="7.424747227454634" id="-26909">
		<tag k="fixme" v="consider seamark:type=rock or natural=shoal" />
		<tag k="name" v="Manneværskjæran" />
		<tag k="place" v="islet" />
		<tag k="ssr:stedsnr" v="25801" />
	</node>
	<node lat="57.984086110922114" lon="7.4488305596535564" id="-26910">
		<tag k="fixme" v="consider seamark:type=rock or natural=shoal" />
		<tag k="name" v="Springen" />
		<tag k="place" v="islet" />
		<tag k="ssr:stedsnr" v="25806" />
	</node>
	<node lat="58.003322224488244" lon="7.504430555452003" id="-26911">
		<tag k="name" v="Breibyggodden" />
		<tag k="natural" v="cape" />
		<tag k="ssr:stedsnr" v="26025" />
	</node>
	<node lat="57.98584444168495" lon="7.596302770451528" id="-26918">
		<tag k="name" v="Prestholmsundet" />
		<tag k="natural" v="strait" />
		<tag k="ssr:stedsnr" v="26422" />
	</node>
	<node lat="57.984555552041705" lon="7.632369436693923" id="-26921">
		<tag k="alt_name" v="Nordreskjæran" />
		<tag k="name" v="Nordreskjeran" />
		<tag k="place" v="islet" />
		<tag k="ssr:stedsnr" v="26621" />
	</node>
	<node lat="57.99041666894068" lon="7.349061119328074" id="-26925">
		<tag k="fixme" v="consider seamark:type=rock or natural=shoal" />
		<tag k="name" v="Hålet" />
		<tag k="place" v="islet" />
		<tag k="ssr:stedsnr" v="26913" />
	</node>
	<node lat="58.006808335984765" lon="7.555447219075932" id="-26926">
		<tag k="name" v="Bjørholmen" />
		<tag k="place" v="islet" />
		<tag k="ssr:stedsnr" v="26919" />
	</node>
	<node lat="58.001055551279684" lon="7.536858329268443" id="-26927">
		<tag k="name" v="Raunholmen" />
		<tag k="place" v="islet" />
		<tag k="ssr:stedsnr" v="26920" />
	</node>
	<node lat="58.00102777712104" lon="7.572222213841839" id="-26928">
		<tag k="name" v="Langøyholmen" />
		<tag k="place" v="islet" />
		<tag k="ssr:stedsnr" v="26921" />
	</node>
	<node lat="57.991091662543795" lon="7.382822228600862" id="-26930">
		<tag k="name" v="Naudsundet" />
		<tag k="natural" v="strait" />
		<tag k="ssr:stedsnr" v="26870" />
	</node>
	<node lat="57.969661115598335" lon="7.540294452296077" id="-26979">
		<tag k="name" v="Lille Vengelsholman" />
		<tag k="place" v="islet" />
		<tag k="ssr:stedsnr" v="238840" />
	</node>
	<node lat="58.00186666366013" lon="7.342808330987773" id="-27041">
		<tag k="alt_name" v="Meavra" />
		<tag k="fixme" v="consider seamark:type=rock or natural=shoal" />
		<tag k="name" v="Meavraskjer" />
		<tag k="place" v="islet" />
		<tag k="ssr:stedsnr" v="61615" />
	</node>
	<node lat="57.996072217764855" lon="7.388197220631252" id="-27063">
		<tag k="bay" v="fjord" />
		<tag k="name" v="Tungefjorden" />
		<tag k="natural" v="bay" />
		<tag k="ssr:stedsnr" v="242028" />
	</node>
	<node lat="57.99356666275143" lon="7.545022217313743" id="-27064">
		<tag k="name" v="Bergeneset" />
		<tag k="natural" v="cape" />
		<tag k="ssr:stedsnr" v="242038" />
	</node>
	<node lat="57.97455278081394" lon="7.498936114500128" id="-27079">
		<tag k="bay" v="fjord" />
		<tag k="name" v="Eigelandsrenna" />
		<tag k="natural" v="bay" />
		<tag k="ssr:stedsnr" v="243044" />
	</node>
	<node lat="57.98098333496262" lon="7.2043861039916255" id="-27082">
		<tag k="name" v="Smellodden" />
		<tag k="natural" v="cape" />
		<tag k="ssr:stedsnr" v="243019" />
	</node>
	<node lat="58.03120278060853" lon="7.240886114125509" id="-27095">
		<tag k="alt_name" v="Håbåane" />
		<tag k="fixme" v="consider seamark:type=rock or natural=shoal" />
		<tag k="name" v="Håboan" />
		<tag k="place" v="islet" />
		<tag k="ssr:stedsnr" v="243696" />
	</node>
	<node lat="58.02617500249435" lon="7.277916673801702" id="-27096">
		<tag k="name" v="Fløyholmen" />
		<tag k="place" v="islet" />
		<tag k="ssr:stedsnr" v="243698" />
	</node>
	<node lat="58.02269444466387" lon="7.659019446983058" id="-27116">
		<tag k="bay" v="fjord" />
		<tag k="name" v="Dalskilen" />
		<tag k="natural" v="bay" />
		<tag k="ssr:stedsnr" v="243951" />
	</node>
	<node lat="57.981258334142225" lon="7.213713892920459" id="-27135">
		<tag k="name" v="Kaddanvika" />
		<tag k="natural" v="bay" />
		<tag k="ssr:stedsnr" v="82303" />
	</node>
	<node lat="58.034158330407074" lon="7.189000007451856" id="-27137">
		<tag k="name" v="Nodevika" />
		<tag k="natural" v="bay" />
		<tag k="ssr:stedsnr" v="82315" />
	</node>
	<node lat="58.02753889181391" lon="7.183788892268886" id="-27139">
		<tag k="name" v="Langevika" />
		<tag k="natural" v="bay" />
		<tag k="ssr:stedsnr" v="82346" />
	</node>
	<node lat="58.00606666357852" lon="7.034161109807285" id="-27147">
		<tag k="name" v="Kolnesodden" />
		<tag k="natural" v="cape" />
		<tag k="ssr:stedsnr" v="82411" />
	</node>
	<node lat="58.052955556138755" lon="7.18186666465594" id="-27152">
		<tag k="name" v="Heptevika" />
		<tag k="natural" v="bay" />
		<tag k="ssr:stedsnr" v="83028" />
	</node>
	<node lat="58.04144166821441" lon="7.169816673363482" id="-27153">
		<tag k="name" v="Stamsnes" />
		<tag k="natural" v="cape" />
		<tag k="ssr:stedsnr" v="83040" />
	</node>
	<node lat="57.978174998516494" lon="7.539141668330458" id="-27265">
		<tag k="name" v="Jyvikodden" />
		<tag k="natural" v="cape" />
		<tag k="ssr:stedsnr" v="85078" />
	</node>
	<node lat="57.978877773672195" lon="7.526161104434499" id="-27266">
		<tag k="name" v="Torjushola" />
		<tag k="natural" v="bay" />
		<tag k="ssr:stedsnr" v="85079" />
	</node>
	<node lat="57.95850555808025" lon="7.564524997189187" id="-27268">
		<tag k="fixme" v="consider seamark:type=rock or natural=shoal" />
		<tag k="name" v="Pysen" />
		<tag k="place" v="islet" />
		<tag k="ssr:stedsnr" v="85089" />
	</node>
	<node lat="58.00791111490895" lon="7.585836114939663" id="-27270">
		<tag k="name" v="Skogøysundet" />
		<tag k="natural" v="strait" />
		<tag k="ssr:stedsnr" v="85205" />
	</node>
	<node lat="58.00415833517395" lon="7.654336108103476" id="-27274">
		<tag k="fixme" v="consider seamark:type=rock or natural=shoal" />
		<tag k="name" v="Selbryden" />
		<tag k="place" v="islet" />
		<tag k="ssr:stedsnr" v="85606" />
	</node>
	<node lat="57.975438891026194" lon="7.526005552877486" id="-27279">
		<tag k="alt_name" v="Nodeviga" />
		<tag k="fixme" v="multiple name tags, choose one and add the other to alt_name" />
		<tag k="name" v="Skiftenesvika;Nodevika" />
		<tag k="natural" v="bay" />
		<tag k="ssr:stedsnr" v="85577" />
	</node>
	<node lat="58.01939721882067" lon="7.630013893339738" id="-27280">
		<tag k="bay" v="fjord" />
		<tag k="name" v="Havnefjorden" />
		<tag k="natural" v="bay" />
		<tag k="ssr:stedsnr" v="85579" />
	</node>
	<node lat="58.008708329261296" lon="7.660333326840247" id="-27281">
		<tag k="name" v="Stolsboen" />
		<tag k="place" v="locality" />
		<tag k="seamark:type" v="rock" />
		<tag k="ssr:stedsnr" v="85592" />
	</node>
	<node lat="58.000652776355956" lon="7.33337500205726" id="-27284">
		<tag k="name" v="Grunnesund" />
		<tag k="natural" v="strait" />
		<tag k="ssr:stedsnr" v="85802" />
	</node>
	<node lat="57.9987916633496" lon="7.33364721407246" id="-27291">
		<tag k="name" v="Yste Avra" />
		<tag k="natural" v="cape" />
		<tag k="ssr:stedsnr" v="85776" />
	</node>
	<node lat="57.981380552763554" lon="7.0888277856883395" id="-27295">
		<tag k="fixme" v="consider seamark:type=rock or natural=shoal" />
		<tag k="name" v="Amiensflua" />
		<tag k="place" v="islet" />
		<tag k="ssr:stedsnr" v="85923" />
	</node>
	<node lat="57.98406944875491" lon="7.574247228196975" id="-27307">
		<tag k="name" v="Sekkebukta" />
		<tag k="natural" v="bay" />
		<tag k="ssr:stedsnr" v="87386" />
	</node>
	<node lat="57.98420833618224" lon="7.382411107685615" id="-27309">
		<tag k="name" v="Tungeskjerboen" />
		<tag k="natural" v="shoal" />
		<tag k="place" v="locality" />
		<tag k="ssr:stedsnr" v="87476" />
	</node>
	<node lat="57.98263888678743" lon="7.429158341862244" id="-27310">
		<tag k="fixme" v="consider seamark:type=rock or natural=shoal" />
		<tag k="name" v="Bryden" />
		<tag k="place" v="islet" />
		<tag k="ssr:stedsnr" v="87482" />
	</node>
	<node lat="58.010352779659534" lon="7.451233339172642" id="-27311">
		<tag k="name" v="Buskeboen" />
		<tag k="place" v="locality" />
		<tag k="seamark:type" v="rock" />
		<tag k="ssr:stedsnr" v="87489" />
	</node>
	<node lat="57.98205000383124" lon="7.42309722685428" id="-27313">
		<tag k="name" v="Svartskjerflakket" />
		<tag k="place" v="locality" />
		<tag k="seamark:type" v="rock" />
		<tag k="ssr:stedsnr" v="87491" />
	</node>
	<node lat="57.95759999677391" lon="7.408097227306723" id="-27314">
		<tag k="name" v="Tungegrunnen" />
		<tag k="natural" v="shoal" />
		<tag k="place" v="locality" />
		<tag k="ssr:stedsnr" v="87493" />
	</node>
	<node lat="57.99857777628761" lon="7.499355554555572" id="-27315">
		<tag k="name" v="Skarnes" />
		<tag k="natural" v="cape" />
		<tag k="ssr:stedsnr" v="87691" />
	</node>
	<node lat="58.037608337238204" lon="7.3351277858973125" id="-27348">
		<tag k="name" v="Lundevig" />
		<tag k="natural" v="bay" />
		<tag k="ssr:stedsnr" v="117177" />
	</node>
	<node lat="58.022666662258565" lon="7.23935554939446" id="-27372">
		<tag k="alt_name" v="Olavskjæran" />
		<tag k="fixme" v="consider seamark:type=rock or natural=shoal" />
		<tag k="name" v="Olavsskjeran" />
		<tag k="place" v="islet" />
		<tag k="ssr:stedsnr" v="121677" />
	</node>
	<node lat="58.01981944168044" lon="7.351916659623472" id="-27384">
		<tag k="alt_name" v="Nakøy" />
		<tag k="name" v="Nakkøya" />
		<tag k="place" v="island" />
		<tag k="ssr:stedsnr" v="121972" />
	</node>
	<node lat="58.03557499697486" lon="7.115119446520305" id="-27398">
		<tag k="name" v="Grønnavika" />
		<tag k="natural" v="bay" />
		<tag k="ssr:stedsnr" v="142088" />
	</node>
	<node lat="58.034355559643224" lon="7.1298666736881575" id="-27399">
		<tag k="fixme" v="consider seamark:type=rock or natural=shoal" />
		<tag k="name" v="Skarveskjær" />
		<tag k="place" v="islet" />
		<tag k="ssr:stedsnr" v="142091" />
	</node>
	<node lat="58.026627780896696" lon="7.107647229790807" id="-27400">
		<tag k="name" v="Indrestø" />
		<tag k="natural" v="bay" />
		<tag k="ssr:stedsnr" v="142103" />
	</node>
	<node lat="57.988833332651716" lon="7.0383472248763" id="-27406">
		<tag k="name" v="Suleba" />
		<tag k="natural" v="bay" />
		<tag k="ssr:stedsnr" v="142414" />
	</node>
	<node lat="58.010261110885914" lon="7.19821111355748" id="-27414">
		<tag k="name" v="Bjorvika" />
		<tag k="natural" v="bay" />
		<tag k="ssr:stedsnr" v="143314" />
	</node>
	<node lat="58.015230555596716" lon="7.1984083400678776" id="-27417">
		<tag k="bay" v="fjord" />
		<tag k="name" v="Vårefjorden" />
		<tag k="natural" v="bay" />
		<tag k="ssr:stedsnr" v="143319" />
	</node>
	<node lat="58.00099722150971" lon="7.201124997332481" id="-27420">
		<tag k="name" v="Flåholmen" />
		<tag k="place" v="island" />
		<tag k="ssr:stedsnr" v="143326" />
	</node>
	<node lat="58.033352777823566" lon="7.256783334982528" id="-27486">
		<tag k="alt_name" v="Breivika" />
		<tag k="name" v="Breiviga" />
		<tag k="natural" v="bay" />
		<tag k="ssr:stedsnr" v="143982" />
	</node>
	<node lat="58.0429388859502" lon="7.239147224018874" id="-27487">
		<tag k="name" v="Russevika" />
		<tag k="natural" v="bay" />
		<tag k="ssr:stedsnr" v="143984" />
	</node>
	<node lat="58.04376944485264" lon="7.242419449808" id="-27488">
		<tag k="name" v="Langvika" />
		<tag k="natural" v="bay" />
		<tag k="ssr:stedsnr" v="143985" />
	</node>
	<node lat="57.96418610977573" lon="7.529925001883914" id="-27497">
		<tag k="name" v="Fiskodden" />
		<tag k="natural" v="cape" />
		<tag k="ssr:stedsnr" v="145076" />
	</node>
	<node lat="57.9802194483406" lon="7.557550001715817" id="-27498">
		<tag k="name" v="Havnen" />
		<tag k="natural" v="bay" />
		<tag k="ssr:stedsnr" v="145104" />
	</node>
	<node lat="57.98116666416418" lon="7.5367722205561565" id="-27499">
		<tag k="name" v="Kommodeskuffa" />
		<tag k="natural" v="bay" />
		<tag k="ssr:stedsnr" v="145111" />
	</node>
	<node lat="57.98500555202352" lon="7.5414472197701885" id="-27500">
		<tag k="name" v="Hellesdalsodden" />
		<tag k="natural" v="cape" />
		<tag k="ssr:stedsnr" v="145113" />
	</node>
	<node lat="57.9864333312002" lon="7.64485832879616" id="-27501">
		<tag k="name" v="Svartodden" />
		<tag k="natural" v="cape" />
		<tag k="ssr:stedsnr" v="145325" />
	</node>
	<node lat="57.97595555603993" lon="7.613405559937659" id="-27502">
		<tag k="name" v="Flatodden" />
		<tag k="natural" v="cape" />
		<tag k="ssr:stedsnr" v="145329" />
	</node>
	<node lat="58.00573889012365" lon="7.552613886347883" id="-27504">
		<tag k="name" v="Kverna" />
		<tag k="natural" v="shoal" />
		<tag k="place" v="locality" />
		<tag k="ssr:stedsnr" v="145384" />
	</node>
	<node lat="58.023616665570266" lon="7.665783325300121" id="-27510">
		<tag k="name" v="Østerstranda" />
		<tag k="natural" v="bay" />
		<tag k="ssr:stedsnr" v="145611" />
	</node>
	<node lat="58.01688610945311" lon="7.638491672162691" id="-27511">
		<tag k="name" v="Audevikboen" />
		<tag k="place" v="locality" />
		<tag k="seamark:type" v="rock" />
		<tag k="ssr:stedsnr" v="145654" />
	</node>
	<node lat="58.01773055684815" lon="7.632230548994665" id="-27512">
		<tag k="name" v="Årvika" />
		<tag k="natural" v="bay" />
		<tag k="ssr:stedsnr" v="145656" />
	</node>
	<node lat="58.01422499925686" lon="7.639444436369751" id="-27513">
		<tag k="name" v="Stangholmsundet" />
		<tag k="natural" v="strait" />
		<tag k="ssr:stedsnr" v="145658" />
	</node>
	<node lat="57.99655833025882" lon="7.493775002602893" id="-27537">
		<tag k="name" v="Færøybukta" />
		<tag k="natural" v="bay" />
		<tag k="ssr:stedsnr" v="146016" />
	</node>
	<node lat="57.997474997684996" lon="7.103847229458174" id="-27538">
		<tag k="name" v="Ytre Hammerflua" />
		<tag k="place" v="locality" />
		<tag k="seamark:type" v="rock" />
		<tag k="ssr:stedsnr" v="146085" />
	</node>
	<node lat="58.01165277751243" lon="7.37458610731056" id="-27541">
		<tag k="alt_name" v="Hegreskjær" />
		<tag k="fixme" v="consider seamark:type=rock or natural=shoal" />
		<tag k="name" v="Hegreskjeran" />
		<tag k="place" v="islet" />
		<tag k="ssr:stedsnr" v="146721" />
	</node>
	<node lat="58.03556111198556" lon="7.620191661126841" id="-27544">
		<tag k="name" v="Leiran" />
		<tag k="natural" v="bay" />
		<tag k="ssr:stedsnr" v="147307" />
	</node>
	<node lat="57.973047219969686" lon="7.6034055565292356" id="-27548">
		<tag k="alt_name" v="Syskjær" />
		<tag k="fixme" v="consider seamark:type=rock or natural=shoal" />
		<tag k="name" v="Syvskjer" />
		<tag k="place" v="islet" />
		<tag k="ssr:stedsnr" v="147621" />
	</node>
	<node lat="58.02567221781838" lon="7.653116658399327" id="-27549">
		<tag k="name" v="Skjevika" />
		<tag k="natural" v="bay" />
		<tag k="ssr:stedsnr" v="147623" />
	</node>
	<node lat="58.00642222444737" lon="7.528847213923788" id="-27551">
		<tag k="name" v="Store Kigeholmen" />
		<tag k="place" v="islet" />
		<tag k="ssr:stedsnr" v="147645" />
	</node>
	<node lat="58.02596666434106" lon="7.625252778552549" id="-27552">
		<tag k="name" v="Støa" />
		<tag k="natural" v="bay" />
		<tag k="ssr:stedsnr" v="147357" />
	</node>
	<node lat="58.01839444372653" lon="7.334800002486376" id="-27553">
		<tag k="fixme" v="consider seamark:type=rock or natural=shoal" />
		<tag k="name" v="Skarveskjær" />
		<tag k="place" v="islet" />
		<tag k="ssr:stedsnr" v="147872" />
	</node>
	<node lat="58.033369447832705" lon="7.332497223038316" id="-27555">
		<tag k="name" v="Flatodden" />
		<tag k="natural" v="cape" />
		<tag k="ssr:stedsnr" v="147915" />
	</node>
	<node lat="58.03575555293741" lon="7.334255547650226" id="-27556">
		<tag k="alt_name" v="Melkevig" />
		<tag k="name" v="Melkevika" />
		<tag k="natural" v="bay" />
		<tag k="ssr:stedsnr" v="147917" />
	</node>
	<node lat="58.00695555167914" lon="7.1102861139098446" id="-27572">
		<tag k="name" v="Seikilen" />
		<tag k="natural" v="bay" />
		<tag k="ssr:stedsnr" v="325337" />
	</node>
	<node lat="58.011527774856276" lon="7.035308329025006" id="-27586">
		<tag k="name" v="Fluviga" />
		<tag k="natural" v="bay" />
		<tag k="ssr:stedsnr" v="177011" />
	</node>
	<node lat="58.00245000049194" lon="7.5563805499293775" id="-27595">
		<tag k="alt_name" v="Tregde Buøy;Buøy" />
		<tag k="name" v="Buøya" />
		<tag k="place" v="island" />
		<tag k="ssr:stedsnr" v="182056" />
	</node>
	<node lat="57.974952776200624" lon="7.681819440838657" id="-27596">
		<tag k="fixme" v="consider seamark:type=rock or natural=shoal" />
		<tag k="name" v="Vestre Ballastskjeran" />
		<tag k="place" v="islet" />
		<tag k="ssr:stedsnr" v="182057" />
	</node>
	<node lat="58.00815555146887" lon="7.431630563270709" id="-27600">
		<tag k="alt_name" v="Risøy" />
		<tag k="name" v="Risøya" />
		<tag k="place" v="islet" />
		<tag k="ssr:stedsnr" v="182066" />
	</node>
	<node lat="58.01273055140728" lon="7.474486109724521" id="-27626">
		<tag k="name" v="Gismerøya" />
		<tag k="place" v="island" />
		<tag k="ssr:stedsnr" v="182933" />
	</node>
	<node lat="58.07412500162759" lon="7.150613882391011" id="-27628">
		<tag k="fixme" v="consider seamark:type=rock or natural=shoal" />
		<tag k="name" v="Holmeskjæret" />
		<tag k="place" v="islet" />
		<tag k="ssr:stedsnr" v="264006" />
	</node>
	<node lat="58.06088332890497" lon="7.144480551779457" id="-27629">
		<tag k="name" v="Husnesodden" />
		<tag k="natural" v="cape" />
		<tag k="ssr:stedsnr" v="264023" />
	</node>
	<node lat="58.004100001739914" lon="7.107519440187043" id="-27631">
		<tag k="name" v="Hammeren" />
		<tag k="natural" v="cape" />
		<tag k="ssr:stedsnr" v="264329" />
	</node>
	<node lat="57.98196944282431" lon="7.053986106114069" id="-27634">
		<tag k="name" v="Danehavn" />
		<tag k="natural" v="bay" />
		<tag k="ssr:stedsnr" v="264432" />
	</node>
	<node lat="58.02686110788529" lon="7.278622227400922" id="-27664">
		<tag k="name" v="Fløyholmsundet" />
		<tag k="natural" v="strait" />
		<tag k="ssr:stedsnr" v="265964" />
	</node>
	<node lat="58.02634444116052" lon="7.295602781734074" id="-27665">
		<tag k="name" v="Krægan" />
		<tag k="place" v="island" />
		<tag k="ssr:stedsnr" v="265966" />
	</node>
	<node lat="58.04532221944925" lon="7.257899995763303" id="-27671">
		<tag k="name" v="Furuholmsundet" />
		<tag k="natural" v="strait" />
		<tag k="ssr:stedsnr" v="264777" />
	</node>
	<node lat="58.04848610708955" lon="7.14588610692661" id="-27718">
		<tag k="name" v="Høllebukta" />
		<tag k="natural" v="bay" />
		<tag k="ssr:stedsnr" v="265031" />
	</node>
	<node lat="58.029761114598884" lon="7.220005552862427" id="-27728">
		<tag k="name" v="Spelsvika" />
		<tag k="natural" v="bay" />
		<tag k="ssr:stedsnr" v="265295" />
	</node>
	<node lat="58.03352778151654" lon="7.224925002659995" id="-27742">
		<tag k="name" v="Elsvika" />
		<tag k="natural" v="bay" />
		<tag k="ssr:stedsnr" v="265284" />
	</node>
	<node lat="58.02610555204802" lon="7.215486119069655" id="-27752">
		<tag k="name" v="Skarvøysundet" />
		<tag k="natural" v="strait" />
		<tag k="ssr:stedsnr" v="265367" />
	</node>
	<node lat="58.00709722209948" lon="7.187294448327829" id="-27754">
		<tag k="fixme" v="consider seamark:type=rock or natural=shoal" />
		<tag k="name" v="Badstuen" />
		<tag k="place" v="islet" />
		<tag k="ssr:stedsnr" v="265372" />
	</node>
	<node lat="58.00980277673917" lon="7.191194450056225" id="-27755">
		<tag k="name" v="Svensvika" />
		<tag k="natural" v="bay" />
		<tag k="ssr:stedsnr" v="265374" />
	</node>
	<node lat="58.00703055949184" lon="7.1887805557296085" id="-27759">
		<tag k="name" v="Kjerkesundet" />
		<tag k="natural" v="strait" />
		<tag k="ssr:stedsnr" v="265381" />
	</node>
	<node lat="58.007977774690765" lon="7.542175007285431" id="-27788">
		<tag k="name" v="Neset" />
		<tag k="natural" v="cape" />
		<tag k="ssr:stedsnr" v="267364" />
	</node>
	<node lat="57.994397218437236" lon="7.544186110269196" id="-27797">
		<tag k="name" v="Nordre Nesestranda" />
		<tag k="natural" v="bay" />
		<tag k="ssr:stedsnr" v="267045" />
	</node>
	<node lat="57.96538610798126" lon="7.548177782030337" id="-27799">
		<tag k="name" v="Kongshavnsodden" />
		<tag k="natural" v="cape" />
		<tag k="ssr:stedsnr" v="267053" />
	</node>
	<node lat="57.967205555737934" lon="7.547797229470537" id="-27800">
		<tag k="fixme" v="consider seamark:type=rock or natural=shoal" />
		<tag k="name" v="Pepperskjær" />
		<tag k="place" v="islet" />
		<tag k="ssr:stedsnr" v="267055" />
	</node>
	<node lat="57.9984527809328" lon="7.663194442727292" id="-27803">
		<tag k="name" v="Andershol" />
		<tag k="natural" v="bay" />
		<tag k="ssr:stedsnr" v="267284" />
	</node>
	<node lat="58.04468055471015" lon="7.62084166027247" id="-27805">
		<tag k="name" v="Storenåva" />
		<tag k="natural" v="cape" />
		<tag k="ssr:stedsnr" v="267288" />
	</node>
	<node lat="58.02418888453078" lon="7.676161108732825" id="-27818">
		<tag k="name" v="Benkan" />
		<tag k="natural" v="cape" />
		<tag k="ssr:stedsnr" v="267597" />
	</node>
	<node lat="58.003430553546885" lon="7.660558326563681" id="-27819">
		<tag k="fixme" v="consider seamark:type=rock or natural=shoal" />
		<tag k="name" v="Østre Stolen" />
		<tag k="place" v="islet" />
		<tag k="ssr:stedsnr" v="267651" />
	</node>
	<node lat="58.0131916633299" lon="7.62840277139093" id="-27832">
		<tag k="name" v="Kisteholmen" />
		<tag k="place" v="islet" />
		<tag k="ssr:stedsnr" v="267660" />
	</node>
	<node lat="58.011394448627044" lon="7.035588882676504" id="-27838">
		<tag k="name" v="Fluvika" />
		<tag k="natural" v="bay" />
		<tag k="ssr:stedsnr" v="203442" />
	</node>
	<node lat="57.99920277973637" lon="7.355283325503642" id="-27839">
		<tag k="name" v="Insteholmen" />
		<tag k="place" v="islet" />
		<tag k="ssr:stedsnr" v="267799" />
	</node>
	<node lat="57.99701666688966" lon="7.354888888377116" id="-27840">
		<tag k="name" v="Ysteholmen" />
		<tag k="place" v="islet" />
		<tag k="ssr:stedsnr" v="267801" />
	</node>
	<node lat="58.025483335287035" lon="7.184119445181618" id="-27846">
		<tag k="name" v="Kokholmen" />
		<tag k="place" v="island" />
		<tag k="ssr:stedsnr" v="203390" />
	</node>
	<node lat="58.02595555152406" lon="7.167994441924178" id="-27847">
		<tag k="name" v="Lille Kjeholmen" />
		<tag k="place" v="island" />
		<tag k="ssr:stedsnr" v="203392" />
	</node>
	<node lat="57.981438889208185" lon="7.057519444258621" id="-27848">
		<tag k="fixme" v="consider seamark:type=rock or natural=shoal" />
		<tag k="name" v="Nodeskjær" />
		<tag k="place" v="islet" />
		<tag k="ssr:stedsnr" v="203397" />
	</node>
	<node lat="58.00319444518341" lon="7.37044166334275" id="-27857">
		<tag k="name" v="Kammershammeren" />
		<tag k="natural" v="cape" />
		<tag k="ssr:stedsnr" v="267873" />
	</node>
	<node lat="57.99508888922897" lon="7.487825000498806" id="-27867">
		<tag k="name" v="Steinevika" />
		<tag k="natural" v="bay" />
		<tag k="ssr:stedsnr" v="268024" />
	</node>
	<node lat="58.042999999698644" lon="7.154908335275733" id="-27868">
		<tag k="name" v="Krågevika" />
		<tag k="natural" v="bay" />
		<tag k="ssr:stedsnr" v="204037" />
	</node>
	<node lat="58.019697224712935" lon="7.622394445006911" id="-27882">
		<tag k="name" v="Strømsneset" />
		<tag k="natural" v="cape" />
		<tag k="ssr:stedsnr" v="267963" />
	</node>
	<node lat="57.96351111035241" lon="7.566097222306653" id="-27906">
		<tag k="name" v="Indre Odd" />
		<tag k="natural" v="cape" />
		<tag k="ssr:stedsnr" v="268045" />
	</node>
	<node lat="57.96846389082899" lon="7.532933339262197" id="-27907">
		<tag k="name" v="Old Harbour" />
		<tag k="natural" v="bay" />
		<tag k="ssr:stedsnr" v="268047" />
	</node>
	<node lat="57.966772223847684" lon="7.491913887834256" id="-27919">
		<tag k="name" v="Krågehola" />
		<tag k="natural" v="bay" />
		<tag k="ssr:stedsnr" v="268057" />
	</node>
	<node lat="57.96353332909839" lon="7.499900002488673" id="-27920">
		<tag k="name" v="Hegermannsodden" />
		<tag k="natural" v="cape" />
		<tag k="ssr:stedsnr" v="268061" />
	</node>
	<node lat="57.96658611227499" lon="7.495044449289674" id="-27921">
		<tag k="name" v="Bomullshola" />
		<tag k="natural" v="bay" />
		<tag k="ssr:stedsnr" v="268068" />
	</node>
	<node lat="58.04478055462014" lon="7.195408341231818" id="-27931">
		<tag k="name" v="Heptevika store" />
		<tag k="natural" v="bay" />
		<tag k="ssr:stedsnr" v="204916" />
	</node>
	<node lat="58.04807777791208" lon="7.195813881587872" id="-27934">
		<tag k="name" v="Makrellodden" />
		<tag k="natural" v="cape" />
		<tag k="ssr:stedsnr" v="204926" />
	</node>
	<node lat="58.11062499584561" lon="7.185891668385477" id="-27936">
		<tag k="fixme" v="consider seamark:type=rock or natural=shoal" />
		<tag k="name" v="Skjæran" />
		<tag k="place" v="islet" />
		<tag k="ssr:stedsnr" v="204935" />
	</node>
	<node lat="57.995447223925" lon="7.5578249931383725" id="-27940">
		<tag k="fixme" v="consider seamark:type=rock or natural=shoal" />
		<tag k="name" v="Gulholmen" />
		<tag k="place" v="islet" />
		<tag k="ssr:stedsnr" v="268072" />
	</node>
	<node lat="57.97036667059394" lon="7.610147228379973" id="-27970">
		<tag k="name" v="Sjurstøholmen" />
		<tag k="place" v="islet" />
		<tag k="ssr:stedsnr" v="206103" />
	</node>
	<node lat="57.99171389263885" lon="7.541727783381206" id="-27971">
		<tag k="name" v="Søndre Nesestranda" />
		<tag k="natural" v="bay" />
		<tag k="ssr:stedsnr" v="206075" />
	</node>
	<node lat="57.997661112847574" lon="7.632461108392147" id="-27973">
		<tag k="name" v="Nordre Valløyboen" />
		<tag k="natural" v="shoal" />
		<tag k="place" v="locality" />
		<tag k="ssr:stedsnr" v="268350" />
	</node>
	<node lat="57.990744448816464" lon="7.6050861104406655" id="-27981">
		<tag k="name" v="Dragodden" />
		<tag k="natural" v="cape" />
		<tag k="ssr:stedsnr" v="206348" />
	</node>
	<node lat="58.012891665623314" lon="7.668130551079655" id="-27982">
		<tag k="fixme" v="consider seamark:type=rock or natural=shoal" />
		<tag k="name" v="Bjønneraua" />
		<tag k="place" v="islet" />
		<tag k="ssr:stedsnr" v="206637" />
	</node>
	<node lat="58.012769441832084" lon="7.646919442049921" id="-27983">
		<tag k="fixme" v="consider seamark:type=rock or natural=shoal" />
		<tag k="name" v="Ladderudskjæran" />
		<tag k="place" v="islet" />
		<tag k="ssr:stedsnr" v="206645" />
	</node>
	<node lat="58.01368333435913" lon="7.6431777812838595" id="-27984">
		<tag k="fixme" v="consider seamark:type=rock or natural=shoal" />
		<tag k="name" v="Skarveskjær" />
		<tag k="place" v="islet" />
		<tag k="ssr:stedsnr" v="206646" />
	</node>
	<node lat="58.001322222903454" lon="7.33978055395766" id="-27991">
		<tag k="name" v="Drasvikholmen" />
		<tag k="natural" v="cape" />
		<tag k="ssr:stedsnr" v="206832" />
	</node>
	<node lat="58.01195555298812" lon="7.344680549297986" id="-27992">
		<tag k="name" v="Vestvågsholmen" />
		<tag k="natural" v="cape" />
		<tag k="ssr:stedsnr" v="206833" />
	</node>
	<node lat="57.99885000322858" lon="7.378361103486341" id="-27993">
		<tag k="bay" v="fjord" />
		<tag k="name" v="Tungefjorden" />
		<tag k="natural" v="bay" />
		<tag k="ssr:stedsnr" v="206843" />
	</node>
	<node lat="57.98572499844368" lon="7.51223333302072" id="-27994">
		<tag k="name" v="Torjusodden" />
		<tag k="natural" v="cape" />
		<tag k="ssr:stedsnr" v="207004" />
	</node>
	<node lat="58.010080559132014" lon="7.487413883726025" id="-27995">
		<tag k="name" v="Lille Brattholmen" />
		<tag k="place" v="islet" />
		<tag k="ssr:stedsnr" v="207016" />
	</node>
	<node lat="57.962511115235934" lon="7.5670305620794664" id="-27996">
		<tag k="name" v="Teistebukta" />
		<tag k="natural" v="cape" />
		<tag k="ssr:stedsnr" v="207022" />
	</node>
	<node lat="57.96271666282707" lon="7.568208330596812" id="-27997">
		<tag k="name" v="Odden" />
		<tag k="natural" v="cape" />
		<tag k="ssr:stedsnr" v="207024" />
	</node>
	<node lat="57.97060278194963" lon="7.541466664680816" id="-27998">
		<tag k="name" v="Nordostebukta" />
		<tag k="natural" v="bay" />
		<tag k="ssr:stedsnr" v="207038" />
	</node>
	<node lat="57.99434444118968" lon="7.308680557942128" id="-28000">
		<tag k="name" v="Ånensboen" />
		<tag k="natural" v="shoal" />
		<tag k="place" v="locality" />
		<tag k="ssr:stedsnr" v="269484" />
	</node>
	<node lat="58.0260722259997" lon="7.335994437714188" id="-28008">
		<tag k="name" v="Gulholmen" />
		<tag k="place" v="islet" />
		<tag k="ssr:stedsnr" v="268860" />
	</node>
	<node lat="58.03009166364587" lon="7.61995277793009" id="-28013">
		<tag k="name" v="Fureholmen" />
		<tag k="place" v="islet" />
		<tag k="ssr:stedsnr" v="208308" />
	</node>
	<node lat="58.03640277691038" lon="7.619613889429998" id="-28016">
		<tag k="name" v="Harkmarksvika" />
		<tag k="natural" v="bay" />
		<tag k="ssr:stedsnr" v="208296" />
	</node>
	<node lat="58.037722221015" lon="7.620958332028087" id="-28017">
		<tag k="name" v="Kanelsholmen" />
		<tag k="place" v="islet" />
		<tag k="ssr:stedsnr" v="208301" />
	</node>
	<node lat="57.97988055596175" lon="7.6094666630385435" id="-28018">
		<tag k="name" v="Høllen" />
		<tag k="natural" v="bay" />
		<tag k="ssr:stedsnr" v="208404" />
	</node>
	<node lat="57.984186111828095" lon="7.416288883705821" id="-28019">
		<tag k="name" v="Saltskjerboen" />
		<tag k="place" v="locality" />
		<tag k="seamark:type" v="rock" />
		<tag k="ssr:stedsnr" v="208475" />
	</node>
	<node lat="58.04916111333573" lon="7.190188881266144" id="-28032">
		<tag k="name" v="Trelsnesboen" />
		<tag k="place" v="locality" />
		<tag k="seamark:type" v="rock" />
		<tag k="ssr:stedsnr" v="269231" />
	</node>
	<node lat="57.98405833694853" lon="7.58640278496111" id="-28034">
		<tag k="name" v="Trevika" />
		<tag k="natural" v="bay" />
		<tag k="ssr:stedsnr" v="269412" />
	</node>
	<node lat="58.02414999609245" lon="7.3057666652051285" id="-28035">
		<tag k="fixme" v="consider seamark:type=rock or natural=shoal" />
		<tag k="name" v="Føllet" />
		<tag k="place" v="islet" />
		<tag k="ssr:stedsnr" v="269469" />
	</node>
	<node lat="57.997833329304925" lon="7.441083336930125" id="-28037">
		<tag k="fixme" v="consider seamark:type=rock or natural=shoal" />
		<tag k="name" v="Bjørnen" />
		<tag k="place" v="islet" />
		<tag k="ssr:stedsnr" v="269701" />
	</node>
	<node lat="58.011316668721356" lon="7.425686106354058" id="-28038">
		<tag k="name" v="Hobdeodden" />
		<tag k="natural" v="cape" />
		<tag k="ssr:stedsnr" v="269656" />
	</node>
	<node lat="58.016566666620335" lon="7.421002776107821" id="-28041">
		<tag k="name" v="Hekkholmen" />
		<tag k="place" v="islet" />
		<tag k="ssr:stedsnr" v="269752" />
	</node>
	<node lat="58.033022222584144" lon="7.332847226845816" id="-28042">
		<tag k="name" v="Hagansbukta" />
		<tag k="natural" v="bay" />
		<tag k="ssr:stedsnr" v="269889" />
	</node>
	<node lat="58.01438611071528" lon="7.390619442479001" id="-28044">
		<tag k="name" v="Juviksodden" />
		<tag k="natural" v="cape" />
		<tag k="ssr:stedsnr" v="269864" />
	</node>
	<node lat="58.017713890076315" lon="7.361622216604664" id="-28045">
		<tag k="name" v="Husholmen" />
		<tag k="place" v="islet" />
		<tag k="ssr:stedsnr" v="269893" />
	</node>
	<node lat="58.008047220944064" lon="7.428869446474745" id="-28047">
		<tag k="name" v="Østre Leisundet" />
		<tag k="natural" v="strait" />
		<tag k="ssr:stedsnr" v="269985" />
	</node>
	<node lat="58.016322226396376" lon="7.494938885334086" id="-28048">
		<tag k="name" v="Saltnes" />
		<tag k="natural" v="cape" />
		<tag k="ssr:stedsnr" v="269947" />
	</node>
	<node lat="58.00744444390524" lon="7.583038890092693" id="-28080">
		<tag k="name" v="Meet" />
		<tag k="natural" v="cape" />
		<tag k="ssr:stedsnr" v="449251" />
	</node>
	<node lat="58.01115833289552" lon="7.618988895117239" id="-28081">
		<tag k="name" v="Kalsneset" />
		<tag k="natural" v="cape" />
		<tag k="ssr:stedsnr" v="449264" />
	</node>
	<node lat="58.031263887430995" lon="7.672888891419124" id="-28088">
		<tag k="name" v="Fugløyholmen" />
		<tag k="place" v="islet" />
		<tag k="ssr:stedsnr" v="449596" />
	</node>
	<node lat="58.01647499730348" lon="7.629363882136081" id="-28092">
		<tag k="name" v="Langetangen" />
		<tag k="natural" v="cape" />
		<tag k="ssr:stedsnr" v="449630" />
	</node>
	<node lat="58.01350278123121" lon="7.667983334977002" id="-28095">
		<tag k="name" v="Vrengen" />
		<tag k="natural" v="strait" />
		<tag k="ssr:stedsnr" v="449644" />
	</node>
	<node lat="58.01326111072114" lon="7.640038892833289" id="-28096">
		<tag k="name" v="Ufredsundholmen" />
		<tag k="place" v="islet" />
		<tag k="ssr:stedsnr" v="449649" />
	</node>
	<node lat="57.96530833751593" lon="7.565058326582898" id="-28123">
		<tag k="name" v="Svartodd" />
		<tag k="natural" v="cape" />
		<tag k="ssr:stedsnr" v="450026" />
	</node>
	<node lat="57.987575000503774" lon="7.512511115655563" id="-28126">
		<tag k="name" v="Bagstøvåg" />
		<tag k="natural" v="bay" />
		<tag k="ssr:stedsnr" v="450001" />
	</node>
	<node lat="57.99924166818493" lon="7.498494446811551" id="-28128">
		<tag k="name" v="Skarnesodden" />
		<tag k="natural" v="cape" />
		<tag k="ssr:stedsnr" v="450012" />
	</node>
	<node lat="57.962358332862124" lon="7.563013881437105" id="-28129">
		<tag k="name" v="Smakkeraua" />
		<tag k="natural" v="bay" />
		<tag k="ssr:stedsnr" v="450075" />
	</node>
	<node lat="57.96946666901162" lon="7.5405111108830205" id="-28130">
		<tag k="name" v="Lille Vengelsholmen" />
		<tag k="place" v="island" />
		<tag k="ssr:stedsnr" v="450032" />
	</node>
	<node lat="57.99578611134731" lon="7.559897228421748" id="-28131">
		<tag k="name" v="Ytre Galtevik" />
		<tag k="natural" v="bay" />
		<tag k="ssr:stedsnr" v="450051" />
	</node>
	<node lat="57.97836666500299" lon="7.692447229779798" id="-28152">
		<tag k="fixme" v="consider seamark:type=rock or natural=shoal" />
		<tag k="name" v="Midtboen" />
		<tag k="place" v="islet" />
		<tag k="ssr:stedsnr" v="450393" />
	</node>
	<node lat="57.962241662906855" lon="7.511791663133033" id="-28153">
		<tag k="fixme" v="consider seamark:type=rock or natural=shoal" />
		<tag k="name" v="Saltboen" />
		<tag k="place" v="islet" />
		<tag k="ssr:stedsnr" v="450363" />
	</node>
	<node lat="58.000008334153335" lon="7.557769443269027" id="-28155">
		<tag k="name" v="Buøysundet" />
		<tag k="natural" v="strait" />
		<tag k="ssr:stedsnr" v="450434" />
	</node>
	<node lat="58.024902781078" lon="7.147083334226081" id="-28167">
		<tag k="name" v="Store Viggeskjer" />
		<tag k="place" v="islet" />
		<tag k="ssr:stedsnr" v="238036" />
	</node>
	<node lat="57.991527775607366" lon="7.4338055578916125" id="-28169">
		<tag k="fixme" v="consider seamark:type=rock or natural=shoal" />
		<tag k="name" v="Daleren" />
		<tag k="place" v="islet" />
		<tag k="ssr:stedsnr" v="450795" />
	</node>
	<node lat="58.003186110001224" lon="7.447655549665986" id="-28172">
		<tag k="name" v="Hattholmsundet" />
		<tag k="natural" v="strait" />
		<tag k="ssr:stedsnr" v="450761" />
	</node>
	<node lat="57.99216110718281" lon="7.336530557529451" id="-28175">
		<tag k="fixme" v="consider seamark:type=rock or natural=shoal" />
		<tag k="name" v="Skipperskjær" />
		<tag k="place" v="islet" />
		<tag k="ssr:stedsnr" v="450940" />
	</node>
	<node lat="58.02057777390625" lon="7.624997223951549" id="-28187">
		<tag k="name" v="Skjellholmen" />
		<tag k="natural" v="cape" />
		<tag k="ssr:stedsnr" v="451358" />
	</node>
	<node lat="58.012991663326765" lon="7.327402774745437" id="-28188">
		<tag k="name" v="Søndre Klauholmsboen" />
		<tag k="place" v="locality" />
		<tag k="seamark:type" v="rock" />
		<tag k="ssr:stedsnr" v="451486" />
	</node>
	<node lat="58.03078888774097" lon="7.332183325227739" id="-28192">
		<tag k="name" v="Smørholmen" />
		<tag k="place" v="islet" />
		<tag k="ssr:stedsnr" v="451894" />
	</node>
	<node lat="58.02078055416174" lon="7.428366665289088" id="-28194">
		<tag k="name" v="Svineholman" />
		<tag k="place" v="islet" />
		<tag k="ssr:stedsnr" v="451646" />
	</node>
	<node lat="57.989422219935456" lon="7.589608335178164" id="-28195">
		<tag k="name" v="Meodden" />
		<tag k="natural" v="cape" />
		<tag k="ssr:stedsnr" v="451654" />
	</node>
	<node lat="58.013644448668956" lon="7.402347227602745" id="-28197">
		<tag k="name" v="Kalvehaven" />
		<tag k="natural" v="cape" />
		<tag k="ssr:stedsnr" v="451860" />
	</node>
	<node lat="58.000641670415135" lon="7.305786104462546" id="-28198">
		<tag k="name" v="Kjorten" />
		<tag k="place" v="islet" />
		<tag k="ssr:stedsnr" v="243636" />
	</node>
	<node lat="58.01246110808338" lon="7.423780558790527" id="-28203">
		<tag k="name" v="Marvika" />
		<tag k="natural" v="bay" />
		<tag k="ssr:stedsnr" v="451982" />
	</node>
	<node lat="58.07239999683946" lon="7.146016660451458" id="-28217">
		<tag k="name" v="Jåsundet" />
		<tag k="natural" v="strait" />
		<tag k="ssr:stedsnr" v="264003" />
	</node>
	<node lat="58.034644444262256" lon="7.14602500585574" id="-28231">
		<tag k="name" v="Regevika" />
		<tag k="natural" v="bay" />
		<tag k="ssr:stedsnr" v="264316" />
	</node>
	<node lat="58.010430552378125" lon="7.112325004531761" id="-28232">
		<tag k="name" v="Store Kalsvika" />
		<tag k="natural" v="bay" />
		<tag k="ssr:stedsnr" v="264324" />
	</node>
	<node lat="58.009424995743345" lon="7.112158325300665" id="-28233">
		<tag k="name" v="Lille Kalsvika" />
		<tag k="natural" v="bay" />
		<tag k="ssr:stedsnr" v="264327" />
	</node>
	<node lat="57.99454166780839" lon="7.2024999962697995" id="-28235">
		<tag k="name" v="Hesten" />
		<tag k="place" v="island" />
		<tag k="ssr:stedsnr" v="264339" />
	</node>
	<node lat="58.04131388611433" lon="7.155516669798363" id="-28248">
		<tag k="name" v="Bjoholmen" />
		<tag k="place" v="islet" />
		<tag k="ssr:stedsnr" v="265038" />
	</node>
	<node lat="57.98769444687967" lon="7.077713892105083" id="-28268">
		<tag k="name" v="Vestre Saltholmen" />
		<tag k="natural" v="cape" />
		<tag k="ssr:stedsnr" v="265402" />
	</node>
	<node lat="58.0339249978993" lon="7.211405553943692" id="-28285">
		<tag k="name" v="Lussevika" />
		<tag k="natural" v="bay" />
		<tag k="ssr:stedsnr" v="265391" />
	</node>
	<node lat="58.03055555459484" lon="7.190177782496788" id="-28286">
		<tag k="name" v="Beinstad" />
		<tag k="natural" v="cape" />
		<tag k="ssr:stedsnr" v="265393" />
	</node>
	<node lat="57.98406944209714" lon="7.057247224786453" id="-28290">
		<tag k="name" v="Vragevika" />
		<tag k="natural" v="bay" />
		<tag k="ssr:stedsnr" v="265400" />
	</node>
	<node lat="58.02549444186868" lon="7.263375002596058" id="-28347">
		<tag k="fixme" v="consider seamark:type=rock or natural=shoal" />
		<tag k="name" v="Nodeskjæran" />
		<tag k="place" v="islet" />
		<tag k="ssr:stedsnr" v="265939" />
	</node>
	<node lat="58.01065555473792" lon="7.621605560080038" id="-28354">
		<tag k="name" v="Mikkelshola" />
		<tag k="natural" v="bay" />
		<tag k="ssr:stedsnr" v="267221" />
	</node>
	<node lat="58.00937222176694" lon="7.597138881092826" id="-28355">
		<tag k="name" v="Gulholmen" />
		<tag k="place" v="islet" />
		<tag k="ssr:stedsnr" v="267234" />
	</node>
	<node lat="58.01831111262878" lon="7.665652777506399" id="-28358">
		<tag k="name" v="Sandvaholmen" />
		<tag k="natural" v="cape" />
		<tag k="ssr:stedsnr" v="267305" />
	</node>
	<node lat="57.97571666475733" lon="7.603980547578632" id="-28359">
		<tag k="name" v="Breivika" />
		<tag k="natural" v="bay" />
		<tag k="ssr:stedsnr" v="267320" />
	</node>
	<node lat="57.98945555842381" lon="7.604000003842067" id="-28360">
		<tag k="name" v="Strømsund" />
		<tag k="natural" v="strait" />
		<tag k="ssr:stedsnr" v="267327" />
	</node>
	<node lat="58.01500277950697" lon="7.6479722201269755" id="-28366">
		<tag k="name" v="Grasdalsodden" />
		<tag k="natural" v="cape" />
		<tag k="ssr:stedsnr" v="267616" />
	</node>
	<node lat="58.0153416630676" lon="7.635022225952497" id="-28367">
		<tag k="name" v="Sandsundet" />
		<tag k="natural" v="strait" />
		<tag k="ssr:stedsnr" v="267620" />
	</node>
	<node lat="58.018302781197264" lon="7.628749994454329" id="-28368">
		<tag k="fixme" v="consider seamark:type=rock or natural=shoal" />
		<tag k="name" v="Gryteskjæran" />
		<tag k="place" v="islet" />
		<tag k="ssr:stedsnr" v="267623" />
	</node>
	<node lat="58.04325833289914" lon="7.630827778367508" id="-28371">
		<tag k="name" v="Holmesundet" />
		<tag k="natural" v="strait" />
		<tag k="ssr:stedsnr" v="267703" />
	</node>
	<node lat="58.004938891353426" lon="7.339624997639123" id="-28383">
		<tag k="fixme" v="consider seamark:type=rock or natural=shoal" />
		<tag k="name" v="Meavraskjær" />
		<tag k="place" v="islet" />
		<tag k="ssr:stedsnr" v="267832" />
	</node>
	<node lat="58.00231389150999" lon="7.339177784984758" id="-28384">
		<tag k="fixme" v="consider seamark:type=rock or natural=shoal" />
		<tag k="name" v="Selskjær" />
		<tag k="place" v="islet" />
		<tag k="ssr:stedsnr" v="267834" />
	</node>
	<node lat="58.00174721838224" lon="7.34037777673611" id="-28385">
		<tag k="name" v="Selskjærbukta" />
		<tag k="natural" v="bay" />
		<tag k="ssr:stedsnr" v="267835" />
	</node>
	<node lat="57.98287777784651" lon="7.4966166740399" id="-28393">
		<tag k="fixme" v="consider seamark:type=rock or natural=shoal" />
		<tag k="name" v="Guleskjær" />
		<tag k="place" v="islet" />
		<tag k="ssr:stedsnr" v="268004" />
	</node>
	<node lat="57.97616944152884" lon="7.20898888616451" id="-28400">
		<tag k="name" v="Udvårflua" />
		<tag k="place" v="locality" />
		<tag k="seamark:type" v="rock" />
		<tag k="ssr:stedsnr" v="268104" />
	</node>
	<node lat="58.01369999756478" lon="7.502569442928312" id="-28401">
		<tag k="name" v="Homsvika" />
		<tag k="natural" v="bay" />
		<tag k="ssr:stedsnr" v="268205" />
	</node>
	<node lat="58.017911113397695" lon="7.477202771114647" id="-28403">
		<tag k="name" v="Sauholman" />
		<tag k="place" v="island" />
		<tag k="ssr:stedsnr" v="268226" />
	</node>
	<node lat="58.00897777861608" lon="7.66615000299993" id="-28409">
		<tag k="name" v="Gjeideryggen" />
		<tag k="place" v="locality" />
		<tag k="seamark:type" v="rock" />
		<tag k="ssr:stedsnr" v="268379" />
	</node>
	<node lat="57.95823610958998" lon="7.571450001726896" id="-28410">
		<tag k="name" v="Oddhausen" />
		<tag k="place" v="locality" />
		<tag k="seamark:type" v="rock" />
		<tag k="ssr:stedsnr" v="268393" />
	</node>
	<node lat="57.98528611400353" lon="7.554641668882882" id="-28411">
		<tag k="fixme" v="consider seamark:type=rock or natural=shoal" />
		<tag k="name" v="Vestre Hellersøyboen" />
		<tag k="place" v="islet" />
		<tag k="ssr:stedsnr" v="268397" />
	</node>
	<node lat="57.974302777825606" lon="7.58384444080735" id="-28412">
		<tag k="name" v="Lasseboen" />
		<tag k="natural" v="shoal" />
		<tag k="place" v="locality" />
		<tag k="ssr:stedsnr" v="268398" />
	</node>
	<node lat="58.01518055975905" lon="7.409941661334765" id="-28415">
		<tag k="name" v="Øya" />
		<tag k="place" v="island" />
		<tag k="ssr:stedsnr" v="268585" />
	</node>
	<node lat="58.02602500148029" lon="7.339094451007161" id="-28416">
		<tag k="name" v="Vestre Gjallaråsholmen" />
		<tag k="place" v="islet" />
		<tag k="ssr:stedsnr" v="268865" />
	</node>
	<node lat="58.02393055275402" lon="7.350966664405279" id="-28417">
		<tag k="fixme" v="consider seamark:type=rock or natural=shoal" />
		<tag k="name" v="Dyna" />
		<tag k="place" v="islet" />
		<tag k="ssr:stedsnr" v="268867" />
	</node>
	<node lat="57.99533611296573" lon="7.374841669099844" id="-28418">
		<tag k="name" v="Tungebukta" />
		<tag k="natural" v="bay" />
		<tag k="ssr:stedsnr" v="268880" />
	</node>
	<node lat="57.99329999818021" lon="7.373680558799507" id="-28419">
		<tag k="name" v="Vraklandet" />
		<tag k="natural" v="cape" />
		<tag k="ssr:stedsnr" v="268891" />
	</node>
	<node lat="57.99184444159043" lon="7.387249998045367" id="-28420">
		<tag k="name" v="Tungeodden" />
		<tag k="natural" v="cape" />
		<tag k="ssr:stedsnr" v="268895" />
	</node>
	<node lat="58.024608335506514" lon="7.6585527710201" id="-28423">
		<tag k="name" v="Launeskilen" />
		<tag k="natural" v="bay" />
		<tag k="ssr:stedsnr" v="269672" />
	</node>
	<node lat="58.02208333654689" lon="7.622013894324877" id="-28424">
		<tag k="name" v="Prikkmannsholmen" />
		<tag k="place" v="islet" />
		<tag k="ssr:stedsnr" v="269673" />
	</node>
	<node lat="58.02580833637005" lon="7.65925556070934" id="-28425">
		<tag k="name" v="Søylekilen" />
		<tag k="natural" v="bay" />
		<tag k="ssr:stedsnr" v="269674" />
	</node>
	<node lat="57.96402222012864" lon="7.524988890170573" id="-28426">
		<tag k="alt_name" v="Flateskjær" />
		<tag k="fixme" v="consider seamark:type=rock or natural=shoal" />
		<tag k="name" v="Fladskjer" />
		<tag k="place" v="islet" />
		<tag k="ssr:stedsnr" v="269686" />
	</node>
	<node lat="57.98393889079191" lon="7.431166668107056" id="-28463">
		<tag k="fixme" v="consider seamark:type=rock or natural=shoal" />
		<tag k="name" v="Svartskjer" />
		<tag k="place" v="islet" />
		<tag k="ssr:stedsnr" v="299803" />
	</node>
	<node lat="58.00321111073637" lon="7.398891673217832" id="-28469">
		<tag k="name" v="Vestre Gunningsholmen" />
		<tag k="place" v="islet" />
		<tag k="ssr:stedsnr" v="302102" />
	</node>
	<node lat="58.00449166564595" lon="7.3822555483006544" id="-28475">
		<tag k="alt_name" v="Langøy" />
		<tag k="name" v="Langøya" />
		<tag k="place" v="islet" />
		<tag k="ssr:stedsnr" v="303073" />
	</node>
	<node lat="57.98855231898605" lon="7.091588151324248" id="-28493">
		<tag k="alt_name" v="Store Hillegarn" />
		<tag k="name" v="Store Hillegarden" />
		<tag k="place" v="islet" />
		<tag k="ssr:stedsnr" v="304026" />
	</node>
	<node lat="57.983491662497094" lon="7.142163883927656" id="-28494">
		<tag k="name" v="Langebåane" />
		<tag k="natural" v="shoal" />
		<tag k="place" v="locality" />
		<tag k="ssr:stedsnr" v="304027" />
	</node>
	<node lat="57.952030552130125" lon="7.203263888327728" id="-28495">
		<tag k="name" v="Kletten" />
		<tag k="natural" v="shoal" />
		<tag k="place" v="locality" />
		<tag k="ssr:stedsnr" v="304030" />
	</node>
	<node lat="57.99233055629071" lon="7.205994442176843" id="-28496">
		<tag k="alt_name" v="Lefsøy, store" />
		<tag k="name" v="Store Lefsøy" />
		<tag k="place" v="island" />
		<tag k="ssr:stedsnr" v="304034" />
	</node>
	<node lat="58.036102773556266" lon="7.23209443849847" id="-28532">
		<tag k="name" v="Syrdalsflua" />
		<tag k="place" v="locality" />
		<tag k="seamark:type" v="rock" />
		<tag k="ssr:stedsnr" v="511435" />
	</node>
	<node lat="58.05190555669785" lon="7.084691672339845" id="-28542">
		<tag k="name" v="Sillestø" />
		<tag k="natural" v="bay" />
		<tag k="ssr:stedsnr" v="325108" />
	</node>
	<node lat="58.01085833709218" lon="7.034436112989985" id="-28590">
		<tag k="name" v="Fluodden" />
		<tag k="natural" v="cape" />
		<tag k="ssr:stedsnr" v="325421" />
	</node>
	<node lat="58.01696111240627" lon="7.038144445082778" id="-28593">
		<tag k="name" v="Jørstadstrand" />
		<tag k="natural" v="bay" />
		<tag k="ssr:stedsnr" v="325426" />
	</node>
	<node lat="57.995427774651475" lon="7.098558340823825" id="-28595">
		<tag k="fixme" v="consider seamark:type=rock or natural=shoal" />
		<tag k="name" v="Dropskjæret" />
		<tag k="place" v="islet" />
		<tag k="ssr:stedsnr" v="325428" />
	</node>
	<node lat="57.99234444309575" lon="7.086494446709279" id="-28596">
		<tag k="name" v="Mallasvik" />
		<tag k="natural" v="bay" />
		<tag k="ssr:stedsnr" v="325429" />
	</node>
	<node lat="58.02751944588802" lon="7.13856667208044" id="-28598">
		<tag k="fixme" v="multiple name tags, choose one and add the other to alt_name" />
		<tag k="name" v="Store Bratholmen;Bratholmen" />
		<tag k="place" v="island" />
		<tag k="ssr:stedsnr" v="325369" />
	</node>
	<node lat="58.02924444097708" lon="7.139486111720739" id="-28599">
		<tag k="name" v="Brattholmvika" />
		<tag k="natural" v="bay" />
		<tag k="ssr:stedsnr" v="325370" />
	</node>
	<node lat="58.03058610805014" lon="7.202805554512862" id="-28601">
		<tag k="name" v="Småsundan" />
		<tag k="natural" v="strait" />
		<tag k="ssr:stedsnr" v="325375" />
	</node>
	<node lat="57.98823610819605" lon="7.07554721792044" id="-28607">
		<tag k="name" v="Steinvika" />
		<tag k="natural" v="bay" />
		<tag k="ssr:stedsnr" v="325385" />
	</node>
	<node lat="58.042888885813916" lon="7.192469442764315" id="-28635">
		<tag k="fixme" v="consider seamark:type=rock or natural=shoal" />
		<tag k="name" v="Buanskjæran" />
		<tag k="place" v="islet" />
		<tag k="ssr:stedsnr" v="325911" />
	</node>
	<node lat="57.978824998716895" lon="7.551952773655444" id="-28660">
		<tag k="name" v="Seilskjær" />
		<tag k="natural" v="cape" />
		<tag k="ssr:stedsnr" v="327102" />
	</node>
	<node lat="57.99324166939195" lon="7.354019439279794" id="-28661">
		<tag k="alt_name" v="Flatskjær" />
		<tag k="fixme" v="consider seamark:type=rock or natural=shoal" />
		<tag k="name" v="Fladskjer" />
		<tag k="place" v="islet" />
		<tag k="ssr:stedsnr" v="327265" />
	</node>
	<node lat="57.99606111277531" lon="7.340188890009849" id="-28669">
		<tag k="name" v="Yste Avra" />
		<tag k="natural" v="cape" />
		<tag k="ssr:stedsnr" v="327957" />
	</node>
	<node lat="57.99441666983341" lon="7.334369443175349" id="-28670">
		<tag k="name" v="Skarvedreda" />
		<tag k="natural" v="cape" />
		<tag k="ssr:stedsnr" v="327959" />
	</node>
	<node lat="57.98387500005609" lon="7.093261113170308" id="-28671">
		<tag k="name" v="Mellomkletten" />
		<tag k="natural" v="shoal" />
		<tag k="place" v="locality" />
		<tag k="ssr:stedsnr" v="327914" />
	</node>
	<node lat="58.0161555514926" lon="7.621147220777047" id="-28672">
		<tag k="fixme" v="consider seamark:type=rock or natural=shoal" />
		<tag k="name" v="Monseskjæran" />
		<tag k="place" v="islet" />
		<tag k="ssr:stedsnr" v="328215" />
	</node>
	<node lat="57.97685833337049" lon="7.68452221819342" id="-28677">
		<tag k="fixme" v="consider seamark:type=rock or natural=shoal" />
		<tag k="name" v="Langøyboen" />
		<tag k="place" v="islet" />
		<tag k="ssr:stedsnr" v="328368" />
	</node>
	<node lat="57.96220555164875" lon="7.575280560693963" id="-28678">
		<tag k="name" v="Småboan" />
		<tag k="place" v="locality" />
		<tag k="seamark:type" v="rock" />
		<tag k="ssr:stedsnr" v="328371" />
	</node>
	<node lat="58.01647778124082" lon="7.463683334361885" id="-28681">
		<tag k="name" v="Hengestabben" />
		<tag k="natural" v="cape" />
		<tag k="ssr:stedsnr" v="328721" />
	</node>
	<node lat="58.01526110960197" lon="7.659977778955892" id="-28692">
		<tag k="name" v="Langvika" />
		<tag k="natural" v="bay" />
		<tag k="ssr:stedsnr" v="328654" />
	</node>
	<node lat="58.014333330727574" lon="7.633469446880131" id="-28694">
		<tag k="name" v="Brødøysundet" />
		<tag k="natural" v="strait" />
		<tag k="ssr:stedsnr" v="328672" />
	</node>
	<node lat="57.96014721799414" lon="7.5626944446934266" id="-28699">
		<tag k="fixme" v="consider seamark:type=rock or natural=shoal" />
		<tag k="name" v="Oddskjær" />
		<tag k="place" v="islet" />
		<tag k="ssr:stedsnr" v="329108" />
	</node>
	<node lat="57.98931666430069" lon="7.536036111210001" id="-28700">
		<tag k="name" v="Austerodden" />
		<tag k="natural" v="cape" />
		<tag k="ssr:stedsnr" v="329123" />
	</node>
	<node lat="57.98423610893158" lon="7.498511114770396" id="-28701">
		<tag k="fixme" v="consider seamark:type=rock or natural=shoal" />
		<tag k="name" v="Sokkeleggen" />
		<tag k="place" v="islet" />
		<tag k="ssr:stedsnr" v="329006" />
	</node>
	<node lat="57.98507777792987" lon="7.497863886476487" id="-28702">
		<tag k="fixme" v="consider seamark:type=rock or natural=shoal" />
		<tag k="name" v="Insteskjær" />
		<tag k="place" v="islet" />
		<tag k="ssr:stedsnr" v="329008" />
	</node>
	<node lat="57.991469443164405" lon="7.49256666724061" id="-28703">
		<tag k="name" v="Lammevika" />
		<tag k="natural" v="bay" />
		<tag k="ssr:stedsnr" v="329014" />
	</node>
	<node lat="57.98533333306255" lon="7.505997218903521" id="-28704">
		<tag k="name" v="Rossvikodden" />
		<tag k="natural" v="cape" />
		<tag k="ssr:stedsnr" v="329019" />
	</node>
	<node lat="58.00242222147093" lon="7.504097223797517" id="-28706">
		<tag k="name" v="Breivika" />
		<tag k="natural" v="bay" />
		<tag k="ssr:stedsnr" v="329021" />
	</node>
	<node lat="58.00344166271255" lon="7.501027773089806" id="-28707">
		<tag k="name" v="Østre Havneholmen" />
		<tag k="place" v="islet" />
		<tag k="ssr:stedsnr" v="329028" />
	</node>
	<node lat="57.97209721871021" lon="7.546077783095377" id="-28708">
		<tag k="fixme" v="consider seamark:type=rock or natural=shoal" />
		<tag k="name" v="Svartskjær" />
		<tag k="place" v="islet" />
		<tag k="ssr:stedsnr" v="329054" />
	</node>
	<node lat="57.97195277559942" lon="7.49585555931068" id="-28709">
		<tag k="name" v="Rossneshola" />
		<tag k="natural" v="bay" />
		<tag k="ssr:stedsnr" v="329056" />
	</node>
	<node lat="57.96395833209484" lon="7.495380553584748" id="-28710">
		<tag k="name" v="Teistebukta" />
		<tag k="natural" v="bay" />
		<tag k="ssr:stedsnr" v="329074" />
	</node>
	<node lat="58.02796536022557" lon="7.675113982325987" id="-28722">
		<tag k="name" v="Gillerneset" />
		<tag k="natural" v="cape" />
		<tag k="ssr:stedsnr" v="329603" />
	</node>
	<node lat="58.0253277786451" lon="7.353822219498451" id="-28724">
		<tag k="fixme" v="consider seamark:type=rock or natural=shoal" />
		<tag k="name" v="Rottesteinen" />
		<tag k="place" v="islet" />
		<tag k="ssr:stedsnr" v="329862" />
	</node>
	<node lat="58.02709722668553" lon="7.349252781108354" id="-28725">
		<tag k="name" v="Skodbukta" />
		<tag k="natural" v="bay" />
		<tag k="ssr:stedsnr" v="329867" />
	</node>
	<node lat="58.034319440332816" lon="7.332197220619207" id="-28726">
		<tag k="name" v="Notodden" />
		<tag k="natural" v="cape" />
		<tag k="ssr:stedsnr" v="329926" />
	</node>
	<node lat="57.97933888902793" lon="7.679402779715561" id="-28756">
		<tag k="name" v="Valløyboen" />
		<tag k="natural" v="shoal" />
		<tag k="place" v="locality" />
		<tag k="ssr:stedsnr" v="358951" />
	</node>
	<node lat="57.99577499725334" lon="7.363297222569933" id="-28771">
		<tag k="name" v="Røyrholmen" />
		<tag k="place" v="islet" />
		<tag k="ssr:stedsnr" v="364026" />
	</node>
	<node lat="58.013525001641014" lon="7.193088896518077" id="-28774">
		<tag k="fixme" v="consider seamark:type=rock or natural=shoal" />
		<tag k="name" v="Disken" />
		<tag k="place" v="islet" />
		<tag k="ssr:stedsnr" v="364647" />
	</node>
	<node lat="58.02918333443014" lon="7.225297215780971" id="-28780">
		<tag k="name" v="Svinør" />
		<tag k="place" v="island" />
		<tag k="ssr:stedsnr" v="364700" />
	</node>
	<node lat="58.014566667613956" lon="7.61748055795799" id="-28798">
		<tag k="name" v="Selvågen" />
		<tag k="natural" v="bay" />
		<tag k="ssr:stedsnr" v="479999" />
	</node>
	<node lat="58.00911666848581" lon="7.036169448148703" id="-28799">
		<tag k="name" v="Indre Steinvika" />
		<tag k="natural" v="bay" />
		<tag k="ssr:stedsnr" v="481524" />
	</node>
	<node lat="57.99868888764274" lon="7.199083330684995" id="-28800">
		<tag k="name" v="Lamholmen" />
		<tag k="place" v="islet" />
		<tag k="ssr:stedsnr" v="481232" />
	</node>
	<node lat="58.005222218332946" lon="7.108886109507074" id="-28801">
		<tag k="name" v="Notholmen" />
		<tag k="place" v="islet" />
		<tag k="ssr:stedsnr" v="481251" />
	</node>
	<node lat="57.97303055424845" lon="7.419486106061854" id="-28802">
		<tag k="alt_name" v="Steinsbåane" />
		<tag k="name" v="Steinsboan" />
		<tag k="place" v="locality" />
		<tag k="seamark:type" v="rock" />
		<tag k="ssr:stedsnr" v="481828" />
	</node>
	<node lat="58.02088610839177" lon="7.3256388833271116" id="-28803">
		<tag k="name" v="Klauholmen" />
		<tag k="place" v="islet" />
		<tag k="ssr:stedsnr" v="481831" />
	</node>
	<node lat="58.03219722418263" lon="7.121272214709819" id="-28810">
		<tag k="name" v="Trones" />
		<tag k="natural" v="cape" />
		<tag k="ssr:stedsnr" v="385098" />
	</node>
	<node lat="58.03278888511429" lon="7.181277776216409" id="-28818">
		<tag k="name" v="Imsøysundet" />
		<tag k="natural" v="strait" />
		<tag k="ssr:stedsnr" v="385365" />
	</node>
	<node lat="58.01496666614146" lon="7.115658327226621" id="-28822">
		<tag k="name" v="Eivardshola" />
		<tag k="natural" v="bay" />
		<tag k="ssr:stedsnr" v="385409" />
	</node>
	<node lat="58.00716389063719" lon="7.034841668143146" id="-28823">
		<tag k="name" v="Pannevika" />
		<tag k="natural" v="bay" />
		<tag k="ssr:stedsnr" v="385419" />
	</node>
	<node lat="57.986444445443496" lon="7.089069437869819" id="-28824">
		<tag k="fixme" v="consider seamark:type=rock or natural=shoal" />
		<tag k="name" v="Havskjæret" />
		<tag k="place" v="islet" />
		<tag k="ssr:stedsnr" v="385423" />
	</node>
	<node lat="58.04358333402331" lon="7.157933333727377" id="-28836">
		<tag k="fixme" v="consider seamark:type=rock or natural=shoal" />
		<tag k="name" v="Njervesskjæran" />
		<tag k="place" v="islet" />
		<tag k="ssr:stedsnr" v="386055" />
	</node>
	<node lat="58.0347666630014" lon="7.227291663087322" id="-28847">
		<tag k="name" v="Håga" />
		<tag k="natural" v="cape" />
		<tag k="ssr:stedsnr" v="386261" />
	</node>
	<node lat="57.9826305538151" lon="7.537769452151876" id="-28927">
		<tag k="name" v="Indre Nodevika" />
		<tag k="natural" v="bay" />
		<tag k="ssr:stedsnr" v="388090" />
	</node>
	<node lat="58.021813887890744" lon="7.657983327714753" id="-28929">
		<tag k="name" v="Svineholmsundet" />
		<tag k="natural" v="strait" />
		<tag k="ssr:stedsnr" v="388305" />
	</node>
	<node lat="57.980052778444076" lon="7.636608340957746" id="-28930">
		<tag k="fixme" v="multiple name tags, choose one and add the other to alt_name" />
		<tag k="name" v="Østre Fiskeodden;Fiskeodden" />
		<tag k="natural" v="cape" />
		<tag k="ssr:stedsnr" v="388312" />
	</node>
	<node lat="57.989277779879664" lon="7.652341666540316" id="-28931">
		<tag k="name" v="Kollholman" />
		<tag k="place" v="island" />
		<tag k="ssr:stedsnr" v="388317" />
	</node>
	<node lat="57.99053610961308" lon="7.644908325631589" id="-28932">
		<tag k="name" v="Valløyvåa" />
		<tag k="natural" v="bay" />
		<tag k="ssr:stedsnr" v="388321" />
	</node>
	<node lat="57.997861107468346" lon="7.647530555004226" id="-28933">
		<tag k="name" v="Steinbukta" />
		<tag k="natural" v="bay" />
		<tag k="ssr:stedsnr" v="388290" />
	</node>
	<node lat="57.97653610701854" lon="7.631105556562333" id="-28934">
		<tag k="name" v="Vestre Fiskeodden" />
		<tag k="natural" v="cape" />
		<tag k="ssr:stedsnr" v="388298" />
	</node>
	<node lat="57.99960277628243" lon="7.5304305612419205" id="-28938">
		<tag k="name" v="Grønvika" />
		<tag k="natural" v="bay" />
		<tag k="ssr:stedsnr" v="388390" />
	</node>
	<node lat="58.02181667067313" lon="7.675802776737509" id="-28942">
		<tag k="name" v="Stokken" />
		<tag k="natural" v="cape" />
		<tag k="ssr:stedsnr" v="388597" />
	</node>
	<node lat="58.04298055246034" lon="7.629650007661634" id="-28943">
		<tag k="name" v="Elgjarnes" />
		<tag k="natural" v="cape" />
		<tag k="ssr:stedsnr" v="388704" />
	</node>
	<node lat="58.01244721923872" lon="7.628519440319427" id="-28949">
		<tag k="name" v="Kåløysundet" />
		<tag k="natural" v="strait" />
		<tag k="ssr:stedsnr" v="388642" />
	</node>
	<node lat="57.997869442200304" lon="7.326286118110339" id="-28955">
		<tag k="name" v="Kubramssundet" />
		<tag k="natural" v="strait" />
		<tag k="ssr:stedsnr" v="388798" />
	</node>
	<node lat="58.03146388861273" lon="7.670211117761821" id="-28956">
		<tag k="name" v="Bertelsodden" />
		<tag k="natural" v="cape" />
		<tag k="ssr:stedsnr" v="388947" />
	</node>
	<node lat="58.016863893163055" lon="7.409027770376535" id="-28958">
		<tag k="name" v="Sundet" />
		<tag k="natural" v="strait" />
		<tag k="ssr:stedsnr" v="388999" />
	</node>
	<node lat="57.980752779465" lon="7.1402472289960395" id="-28959">
		<tag k="name" v="Makrellflua" />
		<tag k="place" v="locality" />
		<tag k="seamark:type" v="rock" />
		<tag k="ssr:stedsnr" v="389102" />
	</node>
	<node lat="57.98730555169307" lon="7.545175007463373" id="-28960">
		<tag k="fixme" v="consider seamark:type=rock or natural=shoal" />
		<tag k="name" v="Katteryggen" />
		<tag k="place" v="islet" />
		<tag k="ssr:stedsnr" v="389115" />
	</node>
	<node lat="57.983669442455344" lon="7.499572215183559" id="-28966">
		<tag k="fixme" v="consider seamark:type=rock or natural=shoal" />
		<tag k="name" v="Flaseskjær" />
		<tag k="place" v="islet" />
		<tag k="ssr:stedsnr" v="389006" />
	</node>
	<node lat="57.969786114840375" lon="7.500591663046949" id="-28967">
		<tag k="name" v="Nedvika" />
		<tag k="natural" v="bay" />
		<tag k="ssr:stedsnr" v="389040" />
	</node>
	<node lat="57.97812222440916" lon="7.51527500491215" id="-28968">
		<tag k="name" v="Holmen" />
		<tag k="place" v="islet" />
		<tag k="ssr:stedsnr" v="389045" />
	</node>
	<node lat="57.98155833520577" lon="7.499202781714033" id="-28969">
		<tag k="fixme" v="consider seamark:type=rock or natural=shoal" />
		<tag k="name" v="Havneskjær" />
		<tag k="place" v="islet" />
		<tag k="ssr:stedsnr" v="389046" />
	</node>
	<node lat="58.01212777660286" lon="7.499966673063499" id="-28970">
		<tag k="name" v="Melkevika" />
		<tag k="natural" v="bay" />
		<tag k="ssr:stedsnr" v="389204" />
	</node>
	<node lat="57.99117222627831" lon="7.627819447426017" id="-28973">
		<tag k="name" v="Rubben" />
		<tag k="place" v="locality" />
		<tag k="seamark:type" v="rock" />
		<tag k="ssr:stedsnr" v="389389" />
	</node>
	<node lat="58.01306388719245" lon="7.381786106547006" id="-28974">
		<tag k="alt_name" v="Skarveskjæret" />
		<tag k="fixme" v="consider seamark:type=rock or natural=shoal" />
		<tag k="name" v="Skarveskjer" />
		<tag k="place" v="islet" />
		<tag k="ssr:stedsnr" v="389723" />
	</node>
	<node lat="58.00620833177839" lon="7.409324997196301" id="-28975">
		<tag k="name" v="Bauholmen" />
		<tag k="place" v="islet" />
		<tag k="ssr:stedsnr" v="389726" />
	</node>
	<node lat="58.008105555538876" lon="7.412880551920185" id="-28976">
		<tag k="fixme" v="consider seamark:type=rock or natural=shoal" />
		<tag k="name" v="Segill" />
		<tag k="place" v="islet" />
		<tag k="ssr:stedsnr" v="389746" />
	</node>
	<node lat="58.0022833309787" lon="7.4468833413447655" id="-28977">
		<tag k="name" v="Ytre Hattholmen" />
		<tag k="place" v="islet" />
		<tag k="ssr:stedsnr" v="389753" />
	</node>
	<node lat="58.03819167029815" lon="7.627313894285724" id="-28981">
		<tag k="name" v="Dostadkilen" />
		<tag k="natural" v="bay" />
		<tag k="ssr:stedsnr" v="390299" />
	</node>
	<node lat="57.99484167072753" lon="7.323238884560149" id="-28982">
		<tag k="fixme" v="consider seamark:type=rock or natural=shoal" />
		<tag k="name" v="Smelflua" />
		<tag k="place" v="islet" />
		<tag k="ssr:stedsnr" v="390445" />
	</node>
	<node lat="57.97735277916424" lon="7.412244452732297" id="-28983">
		<tag k="name" v="Steinan" />
		<tag k="natural" v="shoal" />
		<tag k="place" v="locality" />
		<tag k="ssr:stedsnr" v="390448" />
	</node>
	<node lat="58.004513886308686" lon="7.296574995412054" id="-28985">
		<tag k="name" v="Persflua" />
		<tag k="place" v="locality" />
		<tag k="seamark:type" v="rock" />
		<tag k="ssr:stedsnr" v="390452" />
	</node>
	<node lat="58.02036388951695" lon="7.6259916638266825" id="-28986">
		<tag k="name" v="Strømmen" />
		<tag k="natural" v="strait" />
		<tag k="ssr:stedsnr" v="390637" />
	</node>
	<node lat="57.962108336764224" lon="7.538080559830439" id="-28987">
		<tag k="alt_name" v="Timannsskjær" />
		<tag k="fixme" v="consider seamark:type=rock or natural=shoal" />
		<tag k="name" v="Timannsskjer" />
		<tag k="place" v="islet" />
		<tag k="ssr:stedsnr" v="390651" />
	</node>
	<node lat="57.96619722255522" lon="7.532294442840449" id="-28990">
		<tag k="name" v="Tåa" />
		<tag k="natural" v="cape" />
		<tag k="ssr:stedsnr" v="390945" />
	</node>
	<node lat="58.02999166678864" lon="7.306572228992041" id="-28996">
		<tag k="name" v="Skangholmen" />
		<tag k="place" v="islet" />
		<tag k="ssr:stedsnr" v="484474" />
	</node>
	<node lat="57.9838222256242" lon="7.431100006899555" id="-29003">
		<tag k="alt_name" v="Svartskjær" />
		<tag k="fixme" v="consider seamark:type=rock or natural=shoal" />
		<tag k="name" v="Svarteskjer" />
		<tag k="place" v="islet" />
		<tag k="ssr:stedsnr" v="485040" />
	</node>
	<node lat="58.028774997664435" lon="7.21435277373483" id="-29009">
		<tag k="name" v="Einerholmen" />
		<tag k="place" v="islet" />
		<tag k="ssr:stedsnr" v="485584" />
	</node>
	<node lat="58.005121851786434" lon="7.597827340945233" id="-29031">
		<tag k="name" v="Ørpeholmen" />
		<tag k="old_name" v="Skogsøy" />
		<tag k="place" v="island" />
		<tag k="ssr:stedsnr" v="485686" />
	</node>
	<node lat="58.0440694420833" lon="7.4145138829781025" id="-29040">
		<tag k="bay" v="fjord" />
		<tag k="name" v="Skogsfjorden" />
		<tag k="natural" v="bay" />
		<tag k="ssr:stedsnr" v="485993" />
	</node>
	<node lat="57.98187499802316" lon="7.30790833426238" id="-29078">
		<tag k="name" v="Tvisteinen" />
		<tag k="place" v="islet" />
		<tag k="ssr:stedsnr" v="425008" />
	</node>
	<node lat="58.00059444894391" lon="7.3852583363537185" id="-29079">
		<tag k="fixme" v="consider seamark:type=rock or natural=shoal" />
		<tag k="name" v="Steinsøyskjeran" />
		<tag k="place" v="islet" />
		<tag k="ssr:stedsnr" v="425020" />
	</node>
	<node lat="57.993647223461814" lon="7.3768166731855045" id="-29080">
		<tag k="alt_name" v="Hilletunga" />
		<tag k="name" v="Tunga" />
		<tag k="natural" v="cape" />
		<tag k="ssr:stedsnr" v="425022" />
	</node>
	<node lat="57.99398611321941" lon="7.404099999027293" id="-29081">
		<tag k="name" v="Disken" />
		<tag k="place" v="islet" />
		<tag k="ssr:stedsnr" v="425025" />
	</node>
	<node lat="57.96819167083034" lon="7.548091665369979" id="-29082">
		<tag k="alt_name" v="Skjøringen" />
		<tag k="name" v="Skjøringa" />
		<tag k="place" v="island" />
		<tag k="ssr:stedsnr" v="425049" />
	</node>
	<node lat="57.96602221834906" lon="7.52905278297446" id="-29083">
		<tag k="alt_name" v="Store Vengelsholmen" />
		<tag k="name" v="Vengelsholmane" />
		<tag k="old_name" v="Vengels-holmane" />
		<tag k="place" v="islet" />
		<tag k="ssr:stedsnr" v="425051" />
	</node>
	<node lat="57.96011944730604" lon="7.569480558210353" id="-29084">
		<tag k="alt_name" v="Ytre Odd" />
		<tag k="name" v="Litleodd" />
		<tag k="place" v="islet" />
		<tag k="ssr:stedsnr" v="425055" />
	</node>
	<node lat="58.00400555357297" lon="7.545155548271842" id="-29085">
		<tag k="alt_name" v="Lyngøy" />
		<tag k="name" v="Lyngøya" />
		<tag k="place" v="island" />
		<tag k="ssr:stedsnr" v="425059" />
	</node>
	<node lat="58.00603611451646" lon="7.611091671103962" id="-29086">
		<tag k="alt_name" v="Torskholman" />
		<tag k="name" v="Torskeholman" />
		<tag k="place" v="islet" />
		<tag k="ssr:stedsnr" v="425062" />
	</node>
	<node lat="58.029144448109726" lon="7.188102771427805" id="-29132">
		<tag k="name" v="Lonkarshola" />
		<tag k="natural" v="bay" />
		<tag k="ssr:stedsnr" v="446385" />
	</node>
	<node lat="58.05025277453096" lon="7.188644438430073" id="-29135">
		<tag k="name" v="Trelsnes" />
		<tag k="natural" v="cape" />
		<tag k="ssr:stedsnr" v="447030" />
	</node>
	<node lat="58.033669444523056" lon="7.191266672863043" id="-29185">
		<tag k="name" v="Nododden" />
		<tag k="natural" v="cape" />
		<tag k="ssr:stedsnr" v="447340" />
	</node>
	<node lat="58.02180833657068" lon="7.658561108273648" id="-29250">
		<tag k="name" v="Svineholmen" />
		<tag k="place" v="islet" />
		<tag k="ssr:stedsnr" v="449318" />
	</node>
	<node lat="58.019544441279194" lon="7.663005550111479" id="-29251">
		<tag k="name" v="Skudvardodden" />
		<tag k="natural" v="cape" />
		<tag k="ssr:stedsnr" v="449320" />
	</node>
	<node lat="58.00573889229464" lon="7.3707749968324645" id="-29260">
		<tag k="name" v="Varmekroa" />
		<tag k="natural" v="bay" />
		<tag k="ssr:stedsnr" v="449825" />
	</node>
	<node lat="57.99798333731451" lon="7.3282277752541365" id="-29266">
		<tag k="name" v="Leistebukta" />
		<tag k="natural" v="bay" />
		<tag k="ssr:stedsnr" v="449788" />
	</node>
	<node lat="58.00659444518058" lon="7.035408334925076" id="-29268">
		<tag k="name" v="Kolnes" />
		<tag k="natural" v="cape" />
		<tag k="ssr:stedsnr" v="449917" />
	</node>
	<node lat="57.97168055589746" lon="7.561786104587509" id="-29271">
		<tag k="name" v="Eidbukta" />
		<tag k="natural" v="bay" />
		<tag k="ssr:stedsnr" v="450023" />
	</node>
	<node lat="58.01331388501635" lon="7.479822218452965" id="-29275">
		<tag k="name" v="Moldodden" />
		<tag k="natural" v="cape" />
		<tag k="ssr:stedsnr" v="450222" />
	</node>
	<node lat="58.03813055411421" lon="7.327074994524761" id="-29277">
		<tag k="alt_name" v="Klådervik" />
		<tag k="name" v="Klådervig" />
		<tag k="natural" v="bay" />
		<tag k="ssr:stedsnr" v="450238" />
	</node>
	<node lat="57.98223888829633" lon="7.601119438467835" id="-29281">
		<tag k="name" v="Strømflakket" />
		<tag k="place" v="locality" />
		<tag k="seamark:type" v="rock" />
		<tag k="ssr:stedsnr" v="450603" />
	</node>
	<node lat="57.99667499698109" lon="7.666336106299159" id="-29283">
		<tag k="name" v="Hærholmboen" />
		<tag k="place" v="locality" />
		<tag k="seamark:type" v="rock" />
		<tag k="ssr:stedsnr" v="450371" />
	</node>
	<node lat="58.02106944259163" lon="7.345838887301224" id="-29284">
		<tag k="name" v="Lille Nakøy" />
		<tag k="place" v="islet" />
		<tag k="ssr:stedsnr" v="450869" />
	</node>
	<node lat="57.98130833457903" lon="7.593324991821872" id="-29289">
		<tag k="name" v="Brattholmsundet" />
		<tag k="natural" v="strait" />
		<tag k="ssr:stedsnr" v="451410" />
	</node>
	<node lat="57.98445833495107" lon="7.608994439929516" id="-29290">
		<tag k="name" v="Gillerøysundet" />
		<tag k="natural" v="strait" />
		<tag k="ssr:stedsnr" v="451415" />
	</node>
	<node lat="57.998377774275056" lon="7.462377779370936" id="-29291">
		<tag k="name" v="Hattholmboen" />
		<tag k="place" v="locality" />
		<tag k="seamark:type" v="rock" />
		<tag k="ssr:stedsnr" v="451504" />
	</node>
	<node lat="57.980208331999506" lon="7.422280563526924" id="-29292">
		<tag k="name" v="Fjeldet" />
		<tag k="natural" v="shoal" />
		<tag k="place" v="locality" />
		<tag k="ssr:stedsnr" v="451510" />
	</node>
	<node lat="58.01228333646377" lon="7.483988885291822" id="-29294">
		<tag k="alt_name" v="Moldeskjæran" />
		<tag k="fixme" v="consider seamark:type=rock or natural=shoal" />
		<tag k="name" v="Moldskjeran" />
		<tag k="place" v="islet" />
		<tag k="ssr:stedsnr" v="451712" />
	</node>
	<node lat="57.97878610955699" lon="7.536947227508483" id="-29296">
		<tag k="name" v="Jyvika" />
		<tag k="natural" v="bay" />
		<tag k="ssr:stedsnr" v="451942" />
	</node>
	<node lat="58.01730000357678" lon="7.037855563294062" id="-29317">
		<tag k="name" v="Jørstadbukta" />
		<tag k="natural" v="bay" />
		<tag k="ssr:stedsnr" v="481008" />
	</node>
	<node lat="57.99117778102664" lon="7.333786118727068" id="-29318">
		<tag k="name" v="Åskod" />
		<tag k="place" v="island" />
		<tag k="ssr:stedsnr" v="481823" />
	</node>
	<node lat="57.98710000363246" lon="7.057586107138803" id="-29320">
		<tag k="alt_name" v="Vestre Kilen" />
		<tag k="name" v="Vestrekilen" />
		<tag k="natural" v="bay" />
		<tag k="ssr:stedsnr" v="485016" />
	</node>
	<node lat="57.99466388706073" lon="7.208149996341943" id="-29321">
		<tag k="alt_name" v="Lefsøy, l" />
		<tag k="name" v="Lille Lefsøy" />
		<tag k="place" v="islet" />
		<tag k="ssr:stedsnr" v="485024" />
	</node>
	<node lat="57.98415000220512" lon="7.205930551417342" id="-29322">
		<tag k="alt_name" v="Mittinga" />
		<tag k="name" v="Mittingen" />
		<tag k="place" v="islet" />
		<tag k="ssr:stedsnr" v="485026" />
	</node>
	<node lat="57.98676944781039" lon="7.551633340856496" id="-29323">
		<tag k="alt_name" v="Hellersøyfjorden" />
		<tag k="bay" v="fjord" />
		<tag k="name" v="Hellefjorden" />
		<tag k="natural" v="bay" />
		<tag k="ssr:stedsnr" v="485060" />
	</node>
	<node lat="58.00090833642418" lon="7.615433326148615" id="-29324">
		<tag k="name" v="Lindholman" />
		<tag k="place" v="islet" />
		<tag k="ssr:stedsnr" v="485076" />
	</node>
	<node lat="58.0604361099269" lon="7.141791664160703" id="-29366">
		<tag k="alt_name" v="Lindalsvika" />
		<tag k="name" v="Lindalsviga" />
		<tag k="natural" v="bay" />
		<tag k="ssr:stedsnr" v="507021" />
	</node>
	<node lat="58.05738055451413" lon="7.144061110426554" id="-29370">
		<tag k="name" v="Kvistesnes" />
		<tag k="natural" v="cape" />
		<tag k="ssr:stedsnr" v="507030" />
	</node>
	<node lat="58.03880277492974" lon="7.127494439754642" id="-29371">
		<tag k="name" v="Bjørkholmen" />
		<tag k="place" v="island" />
		<tag k="ssr:stedsnr" v="507058" />
	</node>
	<node lat="58.024380559369085" lon="7.112961104065529" id="-29375">
		<tag k="fixme" v="consider seamark:type=rock or natural=shoal" />
		<tag k="name" v="Kjerringskjæret" />
		<tag k="place" v="islet" />
		<tag k="ssr:stedsnr" v="507067" />
	</node>
	<node lat="57.99114722158435" lon="7.093852770474422" id="-29426">
		<tag k="fixme" v="consider seamark:type=rock or natural=shoal" />
		<tag k="name" v="Småskjæran" />
		<tag k="place" v="islet" />
		<tag k="ssr:stedsnr" v="507403" />
	</node>
	<node lat="58.05169444426393" lon="7.285161112504694" id="-29453">
		<tag k="name" v="Sandodden" />
		<tag k="natural" v="cape" />
		<tag k="ssr:stedsnr" v="507784" />
	</node>
	<node lat="58.10456389300223" lon="7.176861103431413" id="-29456">
		<tag k="name" v="Hagenes" />
		<tag k="natural" v="cape" />
		<tag k="ssr:stedsnr" v="507908" />
	</node>
	<node lat="58.051033335822545" lon="7.195713887784884" id="-29459">
		<tag k="name" v="Søyla" />
		<tag k="natural" v="bay" />
		<tag k="ssr:stedsnr" v="507925" />
	</node>
	<node lat="57.99815000412514" lon="7.543824997319044" id="-29482">
		<tag k="name" v="Spegelaksen" />
		<tag k="natural" v="cape" />
		<tag k="ssr:stedsnr" v="509289" />
	</node>
	<node lat="57.95306389029548" lon="7.213386117510443" id="-29489">
		<tag k="name" v="Ameflua" />
		<tag k="natural" v="shoal" />
		<tag k="place" v="locality" />
		<tag k="ssr:stedsnr" v="510022" />
	</node>
	<node lat="57.96568055859335" lon="7.525075007618513" id="-29491">
		<tag k="name" v="Ytre Kvelerodden" />
		<tag k="natural" v="cape" />
		<tag k="ssr:stedsnr" v="510074" />
	</node>
	<node lat="57.967725000216376" lon="7.547530558184507" id="-29492">
		<tag k="name" v="Pepperskjærbukta" />
		<tag k="natural" v="bay" />
		<tag k="ssr:stedsnr" v="510076" />
	</node>
	<node lat="58.009588886887194" lon="7.594155550515581" id="-29494">
		<tag k="name" v="Langholman" />
		<tag k="place" v="island" />
		<tag k="ssr:stedsnr" v="510259" />
	</node>
	<node lat="58.003336108357495" lon="7.5420305493264665" id="-29498">
		<tag k="name" v="Lyngholmen" />
		<tag k="place" v="islet" />
		<tag k="ssr:stedsnr" v="510416" />
	</node>
	<node lat="58.00199722052442" lon="7.524538894233121" id="-29499">
		<tag k="name" v="Juvikholmen" />
		<tag k="place" v="islet" />
		<tag k="ssr:stedsnr" v="510423" />
	</node>
	<node lat="57.995605558522875" lon="7.661205558705586" id="-29500">
		<tag k="fixme" v="consider seamark:type=rock or natural=shoal" />
		<tag k="name" v="Morteskjær" />
		<tag k="place" v="islet" />
		<tag k="ssr:stedsnr" v="510310" />
	</node>
	<node lat="58.00011667056542" lon="7.643544444871743" id="-29501">
		<tag k="name" v="Glefsa" />
		<tag k="natural" v="cape" />
		<tag k="ssr:stedsnr" v="510312" />
	</node>
	<node lat="57.99865832929517" lon="7.409066670300733" id="-29504">
		<tag k="name" v="Fudeholmen" />
		<tag k="place" v="islet" />
		<tag k="ssr:stedsnr" v="510705" />
	</node>
	<node lat="58.01106111034152" lon="7.400900004252315" id="-29505">
		<tag k="name" v="Dørje" />
		<tag k="natural" v="beach" />
		<tag k="ssr:stedsnr" v="510751" />
	</node>
	<node lat="58.01304722648308" lon="7.3768250073172625" id="-29506">
		<tag k="fixme" v="consider seamark:type=rock or natural=shoal" />
		<tag k="name" v="Glåna" />
		<tag k="place" v="islet" />
		<tag k="ssr:stedsnr" v="510756" />
	</node>
	<node lat="58.01394444827963" lon="7.4122027837874125" id="-29510">
		<tag k="name" v="Rona" />
		<tag k="natural" v="bay" />
		<tag k="ssr:stedsnr" v="510770" />
	</node>
	<node lat="58.016036111743155" lon="7.629747214841464" id="-29512">
		<tag k="name" v="Smalsundet" />
		<tag k="natural" v="strait" />
		<tag k="ssr:stedsnr" v="510673" />
	</node>
	<node lat="57.994858335963904" lon="7.433480561864096" id="-29515">
		<tag k="name" v="Storøyhavnen" />
		<tag k="natural" v="bay" />
		<tag k="ssr:stedsnr" v="510820" />
	</node>
	<node lat="57.99297500147935" lon="7.426936115310332" id="-29516">
		<tag k="name" v="Indre Vrakkroa" />
		<tag k="natural" v="bay" />
		<tag k="ssr:stedsnr" v="510825" />
	</node>
	<node lat="57.99042222140421" lon="7.436322218862484" id="-29517">
		<tag k="name" v="Kongshavn" />
		<tag k="natural" v="bay" />
		<tag k="ssr:stedsnr" v="510826" />
	</node>
	<node lat="57.98996388644478" lon="7.535008335658222" id="-29523">
		<tag k="name" v="Rosnesvågen" />
		<tag k="natural" v="bay" />
		<tag k="ssr:stedsnr" v="511111" />
	</node>
	<node lat="57.984586112965516" lon="7.51130000054713" id="-29524">
		<tag k="name" v="Englevika" />
		<tag k="natural" v="bay" />
		<tag k="ssr:stedsnr" v="511002" />
	</node>
	<node lat="57.992680551624275" lon="7.4938194445147746" id="-29525">
		<tag k="name" v="Gillerodden" />
		<tag k="natural" v="cape" />
		<tag k="ssr:stedsnr" v="511013" />
	</node>
	<node lat="57.96909722583531" lon="7.5419055632828345" id="-29526">
		<tag k="name" v="Hesteraua" />
		<tag k="natural" v="cape" />
		<tag k="ssr:stedsnr" v="511049" />
	</node>
	<node lat="57.98680833273593" lon="7.581319448587656" id="-29530">
		<tag k="name" v="Kasterfjellholmen" />
		<tag k="place" v="islet" />
		<tag k="ssr:stedsnr" v="511390" />
	</node>
	<node lat="57.97835555238696" lon="7.600897216245506" id="-29532">
		<tag k="fixme" v="consider seamark:type=rock or natural=shoal" />
		<tag k="name" v="Knutskjæran" />
		<tag k="place" v="islet" />
		<tag k="ssr:stedsnr" v="511393" />
	</node>
	<node lat="58.01617499920304" lon="7.670419438526654" id="-29534">
		<tag k="name" v="Tånesholmen" />
		<tag k="place" v="islet" />
		<tag k="ssr:stedsnr" v="511606" />
	</node>
	<node lat="57.98452777817062" lon="7.619838882274532" id="-29536">
		<tag k="alt_name" v="Svartskjær" />
		<tag k="fixme" v="consider seamark:type=rock or natural=shoal" />
		<tag k="name" v="Svartskjer" />
		<tag k="place" v="islet" />
		<tag k="ssr:stedsnr" v="511609" />
	</node>
	<node lat="58.01118055935862" lon="7.605847227985384" id="-29538">
		<tag k="name" v="Rivenesholmen" />
		<tag k="place" v="islet" />
		<tag k="ssr:stedsnr" v="511589" />
	</node>
	<node lat="57.97395277916077" lon="7.5431972151450095" id="-29539">
		<tag k="name" v="Småholman" />
		<tag k="place" v="islet" />
		<tag k="ssr:stedsnr" v="511600" />
	</node>
	<node lat="58.02082221943266" lon="7.404833337340512" id="-29543">
		<tag k="name" v="Søylekilen" />
		<tag k="natural" v="bay" />
		<tag k="ssr:stedsnr" v="511802" />
	</node>
	<node lat="58.013352775371146" lon="7.406449999042959" id="-29544">
		<tag k="bay" v="fjord" />
		<tag k="name" v="Søndrekilen" />
		<tag k="natural" v="bay" />
		<tag k="ssr:stedsnr" v="511825" />
	</node>
	<node lat="58.02004722633399" lon="7.336638889780882" id="-29545">
		<tag k="name" v="Ramsøysundet" />
		<tag k="natural" v="strait" />
		<tag k="ssr:stedsnr" v="511868" />
	</node>
	<node lat="58.0387999958925" lon="7.324786109728763" id="-29547">
		<tag k="name" v="Skråodden" />
		<tag k="natural" v="cape" />
		<tag k="ssr:stedsnr" v="511910" />
	</node>
	<node lat="58.033958335246005" lon="7.333158327152686" id="-29548">
		<tag k="name" v="Flatebukta" />
		<tag k="natural" v="bay" />
		<tag k="ssr:stedsnr" v="511915" />
	</node>
	<node lat="57.99164166705573" lon="7.339894452616307" id="-29549">
		<tag k="name" v="Lille Åskot" />
		<tag k="place" v="islet" />
		<tag k="ssr:stedsnr" v="511925" />
	</node>
	<node lat="58.01707222481474" lon="7.3598111065702785" id="-29557">
		<tag k="name" v="Småholman" />
		<tag k="place" v="island" />
		<tag k="ssr:stedsnr" v="512912" />
	</node>
	<node lat="58.01681666715831" lon="7.385441666641714" id="-29558">
		<tag k="name" v="Kasseholmen" />
		<tag k="place" v="islet" />
		<tag k="ssr:stedsnr" v="512915" />
	</node>
	<node lat="58.01312950286327" lon="7.193971269685459" id="-29592">
		<tag k="name" v="Våreraua" />
		<tag k="natural" v="strait" />
		<tag k="ssr:stedsnr" v="541204" />
	</node>
	<node lat="57.99436944331072" lon="7.147083341031187" id="-29605">
		<tag k="name" v="Kviteflua" />
		<tag k="natural" v="shoal" />
		<tag k="place" v="locality" />
		<tag k="ssr:stedsnr" v="546032" />
	</node>
	<node lat="58.02993332929555" lon="7.108455563256482" id="-29610">
		<tag k="name" v="Ramslandsvågen" />
		<tag k="natural" v="bay" />
		<tag k="ssr:stedsnr" v="546616" />
	</node>
	<node lat="58.002377780776264" lon="7.3258999976596435" id="-29616">
		<tag k="name" v="Mauren" />
		<tag k="place" v="islet" />
		<tag k="ssr:stedsnr" v="546593" />
	</node>
	<node lat="58.07251388761605" lon="7.149294441701" id="-29640">
		<tag k="fixme" v="multiple name tags, choose one and add the other to alt_name" />
		<tag k="name" v="Holmen;Jåsundholmen" />
		<tag k="place" v="island" />
		<tag k="ssr:stedsnr" v="689001" />
	</node>
	<node lat="58.04281666502541" lon="7.1730999997409794" id="-29641">
		<tag k="fixme" v="consider seamark:type=rock or natural=shoal" />
		<tag k="name" v="Selvoien" />
		<tag k="place" v="islet" />
		<tag k="ssr:stedsnr" v="689052" />
	</node>
	<node lat="58.041963884599575" lon="7.146702772991711" id="-29646">
		<tag k="name" v="Store Båly" />
		<tag k="natural" v="beach" />
		<tag k="ssr:stedsnr" v="689057" />
	</node>
	<node lat="58.04029167070305" lon="7.126536117144082" id="-29656">
		<tag k="name" v="Saltholmen" />
		<tag k="place" v="island" />
		<tag k="ssr:stedsnr" v="689126" />
	</node>
	<node lat="57.98371389191712" lon="7.206777783766531" id="-29672">
		<tag k="name" v="Mittingsundet" />
		<tag k="natural" v="strait" />
		<tag k="ssr:stedsnr" v="689325" />
	</node>
	<node lat="58.03436388790559" lon="7.20474999932482" id="-29684">
		<tag k="name" v="Finnøysundet" />
		<tag k="natural" v="strait" />
		<tag k="ssr:stedsnr" v="689364" />
	</node>
	<node lat="58.028563884551005" lon="7.200591669865282" id="-29685">
		<tag k="fixme" v="consider seamark:type=rock or natural=shoal" />
		<tag k="name" v="Flyndra" />
		<tag k="place" v="islet" />
		<tag k="ssr:stedsnr" v="689366" />
	</node>
	<node lat="58.032225002207745" lon="7.299474999021207" id="-29750">
		<tag k="fixme" v="consider seamark:type=rock or natural=shoal" />
		<tag k="name" v="Tjømshalen" />
		<tag k="place" v="islet" />
		<tag k="ssr:stedsnr" v="689960" />
	</node>
	<node lat="57.995136113189346" lon="7.597705560266478" id="-29799">
		<tag k="fixme" v="consider seamark:type=rock or natural=shoal" />
		<tag k="name" v="Brønnesheiskjæran" />
		<tag k="place" v="islet" />
		<tag k="ssr:stedsnr" v="692329" />
	</node>
	<node lat="57.96900000070932" lon="7.516483338808269" id="-29801">
		<tag k="fixme" v="consider seamark:type=rock or natural=shoal" />
		<tag k="name" v="Troneboen" />
		<tag k="place" v="islet" />
		<tag k="ssr:stedsnr" v="692332" />
	</node>
	<node lat="57.96246388864859" lon="7.539630553914558" id="-29803">
		<tag k="fixme" v="consider seamark:type=rock or natural=shoal" />
		<tag k="name" v="Enmannsskjær" />
		<tag k="place" v="islet" />
		<tag k="ssr:stedsnr" v="692070" />
	</node>
	<node lat="58.01211389165259" lon="7.607463896842101" id="-29806">
		<tag k="alt_name" v="Eikebrekksbukta" />
		<tag k="name" v="Eigebrekksbukta" />
		<tag k="natural" v="bay" />
		<tag k="ssr:stedsnr" v="692247" />
	</node>
	<node lat="58.018913889538176" lon="7.360002783570028" id="-29807">
		<tag k="name" v="Bastholmen" />
		<tag k="place" v="islet" />
		<tag k="ssr:stedsnr" v="692248" />
	</node>
	<node lat="58.01128055312422" lon="7.603727770682109" id="-29808">
		<tag k="name" v="Rivenes" />
		<tag k="natural" v="cape" />
		<tag k="ssr:stedsnr" v="692249" />
	</node>
	<node lat="58.0071500040736" lon="7.597661104159912" id="-29809">
		<tag k="name" v="Laksodden" />
		<tag k="natural" v="cape" />
		<tag k="ssr:stedsnr" v="692250" />
	</node>
	<node lat="58.003911107665594" lon="7.543638881075657" id="-29810">
		<tag k="name" v="Lyngøybukta" />
		<tag k="natural" v="bay" />
		<tag k="ssr:stedsnr" v="692402" />
	</node>
	<node lat="58.005244446535045" lon="7.658758329254849" id="-29811">
		<tag k="name" v="Stolsknatten" />
		<tag k="place" v="locality" />
		<tag k="seamark:type" v="rock" />
		<tag k="ssr:stedsnr" v="692362" />
	</node>
	<node lat="58.01600277399046" lon="7.66859166006255" id="-29814">
		<tag k="name" v="Tånessundet" />
		<tag k="natural" v="strait" />
		<tag k="ssr:stedsnr" v="692635" />
	</node>
	<node lat="58.01452777836276" lon="7.671802769642943" id="-29816">
		<tag k="fixme" v="consider seamark:type=rock or natural=shoal" />
		<tag k="name" v="Svarteskjær" />
		<tag k="place" v="islet" />
		<tag k="ssr:stedsnr" v="692654" />
	</node>
	<node lat="57.99828888786492" lon="7.346649998435921" id="-29818">
		<tag k="name" v="Persneset" />
		<tag k="natural" v="cape" />
		<tag k="ssr:stedsnr" v="692740" />
	</node>
	<node lat="57.998099999592135" lon="7.397102781577668" id="-29827">
		<tag k="name" v="Steinsøyhavnen" />
		<tag k="natural" v="bay" />
		<tag k="ssr:stedsnr" v="692854" />
	</node>
	<node lat="57.991291670708215" lon="7.0851055530633715" id="-29844">
		<tag k="name" v="Store Dulevika" />
		<tag k="natural" v="bay" />
		<tag k="ssr:stedsnr" v="567410" />
	</node>
	<node lat="57.99575277392717" lon="7.132097220438192" id="-29846">
		<tag k="fixme" v="consider seamark:type=rock or natural=shoal" />
		<tag k="name" v="Kleppeskjæran" />
		<tag k="place" v="islet" />
		<tag k="ssr:stedsnr" v="567418" />
	</node>
	<node lat="57.98007778180369" lon="7.210177780658543" id="-29850">
		<tag k="name" v="Bysvika" />
		<tag k="natural" v="bay" />
		<tag k="ssr:stedsnr" v="567307" />
	</node>
	<node lat="58.054869445601" lon="7.277349996319738" id="-29861">
		<tag k="name" v="Nodøy" />
		<tag k="place" v="island" />
		<tag k="ssr:stedsnr" v="567768" />
	</node>
	<node lat="58.02554721897338" lon="7.304769449630383" id="-29863">
		<tag k="name" v="Merra" />
		<tag k="place" v="islet" />
		<tag k="ssr:stedsnr" v="693032" />
	</node>
	<node lat="58.003297222183946" lon="7.484469447922549" id="-29864">
		<tag k="name" v="Svartebukta" />
		<tag k="natural" v="bay" />
		<tag k="ssr:stedsnr" v="693033" />
	</node>
	<node lat="57.97185000042506" lon="7.564316670091231" id="-29865">
		<tag k="name" v="Studehola" />
		<tag k="natural" v="bay" />
		<tag k="ssr:stedsnr" v="693040" />
	</node>
	<node lat="57.968836113333126" lon="7.529780556192519" id="-29866">
		<tag k="name" v="Nordvestebukta" />
		<tag k="natural" v="bay" />
		<tag k="ssr:stedsnr" v="693047" />
	</node>
	<node lat="58.02676944625827" lon="7.337905554854017" id="-29881">
		<tag k="fixme" v="consider seamark:type=rock or natural=shoal" />
		<tag k="name" v="Røysa" />
		<tag k="place" v="islet" />
		<tag k="ssr:stedsnr" v="692997" />
	</node>
	<node lat="57.98996388805452" lon="7.547180547513461" id="-29908">
		<tag k="fixme" v="consider seamark:type=rock or natural=shoal" />
		<tag k="name" v="Rasmusskjær" />
		<tag k="place" v="islet" />
		<tag k="ssr:stedsnr" v="693133" />
	</node>
	<node lat="58.001405552646794" lon="7.1777194495964265" id="-29911">
		<tag k="fixme" v="multiple name tags, choose one and add the other to alt_name; consider seamark:type=rock or natural=shoal" />
		<tag k="name" v="Svarteskjæran;Store Svarteskjeran" />
		<tag k="place" v="islet" />
		<tag k="ssr:stedsnr" v="568357" />
	</node>
	<node lat="58.00605278153907" lon="7.201288884069302" id="-29913">
		<tag k="name" v="Lengvoldstrand" />
		<tag k="natural" v="bay" />
		<tag k="ssr:stedsnr" v="568361" />
	</node>
	<node lat="58.00533610949852" lon="7.190341669102968" id="-29914">
		<tag k="name" v="Kjelløy" />
		<tag k="place" v="island" />
		<tag k="ssr:stedsnr" v="568363" />
	</node>
	<node lat="58.03178055115237" lon="7.169702776957768" id="-29919">
		<tag k="name" v="Knartholmen" />
		<tag k="place" v="island" />
		<tag k="ssr:stedsnr" v="568377" />
	</node>
	<node lat="57.98412222132464" lon="7.191863882020415" id="-29933">
		<tag k="name" v="Ryvingboen" />
		<tag k="natural" v="shoal" />
		<tag k="place" v="locality" />
		<tag k="ssr:stedsnr" v="693114" />
	</node>
	<node lat="57.98722500237969" lon="7.542849999356437" id="-29952">
		<tag k="name" v="Eldebrandshola" />
		<tag k="natural" v="bay" />
		<tag k="ssr:stedsnr" v="693139" />
	</node>
	<node lat="57.98430000234229" lon="7.561208334189512" id="-29954">
		<tag k="fixme" v="consider seamark:type=rock or natural=shoal" />
		<tag k="name" v="Juden" />
		<tag k="place" v="islet" />
		<tag k="ssr:stedsnr" v="693148" />
	</node>
	<node lat="57.9869388865932" lon="7.55842499569411" id="-29955">
		<tag k="fixme" v="consider seamark:type=rock or natural=shoal" />
		<tag k="name" v="Gjevekolla" />
		<tag k="place" v="islet" />
		<tag k="ssr:stedsnr" v="693149" />
	</node>
	<node lat="58.01660555410485" lon="7.503427780639198" id="-29982">
		<tag k="name" v="Lille Strømsvika" />
		<tag k="natural" v="bay" />
		<tag k="ssr:stedsnr" v="693252" />
	</node>
	<node lat="58.031827774519826" lon="7.621897226874594" id="-29989">
		<tag k="name" v="Krossholmen" />
		<tag k="place" v="islet" />
		<tag k="ssr:stedsnr" v="693363" />
	</node>
	<node lat="58.029162267189456" lon="7.176374667424139" id="-29990">
		<tag k="loc_name" v="Imsøyene" />
		<tag k="name" v="Imsøyane" />
		<tag k="place" v="island" />
		<tag k="ssr:stedsnr" v="570013" />
	</node>
	<node lat="57.993372220392494" lon="7.550819437010284" id="-29991">
		<tag k="name" v="Falskholmen" />
		<tag k="place" v="islet" />
		<tag k="ssr:stedsnr" v="570054" />
	</node>
	<node lat="58.00807500064854" lon="7.290769440457364" id="-29993">
		<tag k="name" v="Svartskjerflua" />
		<tag k="place" v="locality" />
		<tag k="seamark:type" v="rock" />
		<tag k="ssr:stedsnr" v="693441" />
	</node>
	<node lat="58.020885411488685" lon="7.303467179929606" id="-29994">
		<tag k="name" v="Følleflua" />
		<tag k="natural" v="shoal" />
		<tag k="place" v="locality" />
		<tag k="ssr:stedsnr" v="693443" />
	</node>
	<node lat="58.0107166689976" lon="7.612619441938797" id="-29995">
		<tag k="name" v="Daubukta" />
		<tag k="natural" v="bay" />
		<tag k="ssr:stedsnr" v="570220" />
	</node>
	<node lat="57.99471944260127" lon="7.6603111191624516" id="-29996">
		<tag k="fixme" v="consider seamark:type=rock or natural=shoal" />
		<tag k="name" v="Makrellskjær" />
		<tag k="place" v="islet" />
		<tag k="ssr:stedsnr" v="570301" />
	</node>
	<node lat="58.001230554848945" lon="7.557911104495397" id="-30001">
		<tag k="name" v="Ospodden" />
		<tag k="natural" v="cape" />
		<tag k="ssr:stedsnr" v="693451" />
	</node>
	<node lat="58.025199998056166" lon="7.67730832563571" id="-30010">
		<tag k="name" v="Brydodden" />
		<tag k="natural" v="cape" />
		<tag k="ssr:stedsnr" v="570562" />
	</node>
	<node lat="57.98894721984349" lon="7.533222228981675" id="-30021">
		<tag k="name" v="Stangeodden" />
		<tag k="natural" v="cape" />
		<tag k="ssr:stedsnr" v="571103" />
	</node>
	<node lat="57.98975555392742" lon="7.540286114153875" id="-30022">
		<tag k="name" v="Ytre Kopperholmen" />
		<tag k="place" v="islet" />
		<tag k="ssr:stedsnr" v="571109" />
	</node>
	<node lat="57.9822083338336" lon="7.501163890101906" id="-30027">
		<tag k="fixme" v="consider seamark:type=rock or natural=shoal" />
		<tag k="name" v="Vrageskjær" />
		<tag k="place" v="islet" />
		<tag k="ssr:stedsnr" v="571004" />
	</node>
	<node lat="58.00385000245348" lon="7.513297230462575" id="-30028">
		<tag k="name" v="Odden" />
		<tag k="natural" v="cape" />
		<tag k="ssr:stedsnr" v="571017" />
	</node>
	<node lat="58.005449999258666" lon="7.498002771176329" id="-30029">
		<tag k="name" v="Vestre Havneholmen" />
		<tag k="place" v="islet" />
		<tag k="ssr:stedsnr" v="571019" />
	</node>
	<node lat="58.00993611154462" lon="7.486013891018269" id="-30030">
		<tag k="name" v="Østre Brattholmen" />
		<tag k="place" v="islet" />
		<tag k="ssr:stedsnr" v="571028" />
	</node>
	<node lat="57.97889166688327" lon="7.5162222183777265" id="-30031">
		<tag k="name" v="Skjøllvika" />
		<tag k="natural" v="bay" />
		<tag k="ssr:stedsnr" v="571053" />
	</node>
	<node lat="57.990913887042225" lon="7.5466861069967095" id="-30032">
		<tag k="name" v="Knutsvika" />
		<tag k="natural" v="bay" />
		<tag k="ssr:stedsnr" v="571064" />
	</node>
	<node lat="58.002413891923155" lon="7.140799997133408" id="-30033">
		<tag k="fixme" v="consider seamark:type=rock or natural=shoal" />
		<tag k="name" v="Klippeskjersteinen" />
		<tag k="place" v="islet" />
		<tag k="ssr:stedsnr" v="571069" />
	</node>
	<node lat="58.003038888244674" lon="7.491452778939428" id="-30035">
		<tag k="alt_name" v="Kalkskjær" />
		<tag k="fixme" v="consider seamark:type=rock or natural=shoal" />
		<tag k="name" v="Kalkskjer" />
		<tag k="place" v="islet" />
		<tag k="ssr:stedsnr" v="693694" />
	</node>
	<node lat="58.01773333494692" lon="7.455216663491493" id="-30036">
		<tag k="fixme" v="consider seamark:type=rock or natural=shoal" />
		<tag k="name" v="Nua" />
		<tag k="place" v="islet" />
		<tag k="ssr:stedsnr" v="693695" />
	</node>
	<node lat="57.9801916693084" lon="7.625872216342158" id="-30037">
		<tag k="name" v="Kjellingøy" />
		<tag k="place" v="islet" />
		<tag k="ssr:stedsnr" v="693650" />
	</node>
	<node lat="57.989444442374406" lon="7.575313892006011" id="-30038">
		<tag k="fixme" v="consider seamark:type=rock or natural=shoal" />
		<tag k="name" v="Gulholmen" />
		<tag k="place" v="islet" />
		<tag k="ssr:stedsnr" v="693656" />
	</node>
	<node lat="57.96778610676666" lon="7.612841665918907" id="-30039">
		<tag k="fixme" v="consider seamark:type=rock or natural=shoal" />
		<tag k="name" v="Årsholmflaket" />
		<tag k="place" v="islet" />
		<tag k="ssr:stedsnr" v="571411" />
	</node>
	<node lat="58.01621110715992" lon="7.3813222245925525" id="-30042">
		<tag k="alt_name" v="Lammeskjæret" />
		<tag k="fixme" v="consider seamark:type=rock or natural=shoal" />
		<tag k="name" v="Lammeskjeret" />
		<tag k="place" v="islet" />
		<tag k="ssr:stedsnr" v="693751" />
	</node>
	<node lat="58.015780559288224" lon="7.367188889891847" id="-30043">
		<tag k="fixme" v="consider seamark:type=rock or natural=shoal" />
		<tag k="name" v="Røysa" />
		<tag k="place" v="islet" />
		<tag k="ssr:stedsnr" v="571701" />
	</node>
	<node lat="57.99413888562822" lon="7.335677769495532" id="-30045">
		<tag k="name" v="Smellen" />
		<tag k="natural" v="bay" />
		<tag k="ssr:stedsnr" v="571920" />
	</node>
	<node lat="58.015719445718936" lon="7.339191671218491" id="-30046">
		<tag k="name" v="Teistholmen" />
		<tag k="place" v="islet" />
		<tag k="ssr:stedsnr" v="571923" />
	</node>
	<node lat="58.040641666174295" lon="7.418416671185426" id="-30048">
		<tag k="name" v="Lille Valleholmen" />
		<tag k="place" v="islet" />
		<tag k="ssr:stedsnr" v="572216" />
	</node>
	<node lat="58.04593333111274" lon="7.196436114804101" id="-30050">
		<tag k="name" v="Hepteviga" />
		<tag k="natural" v="bay" />
		<tag k="ssr:stedsnr" v="572252" />
	</node>
	<node lat="57.97353055726614" lon="7.537869450233408" id="-30054">
		<tag k="fixme" v="consider seamark:type=rock or natural=shoal" />
		<tag k="name" v="Huseboan" />
		<tag k="place" v="islet" />
		<tag k="ssr:stedsnr" v="572409" />
	</node>
	<node lat="58.02483333428068" lon="7.265822216717092" id="-30055">
		<tag k="name" v="Underøyflua" />
		<tag k="place" v="locality" />
		<tag k="seamark:type" v="rock" />
		<tag k="ssr:stedsnr" v="572463" />
	</node>
	<node lat="58.01996110813425" lon="7.343991668769029" id="-30057">
		<tag k="fixme" v="consider seamark:type=rock or natural=shoal" />
		<tag k="name" v="Store Bordstolen" />
		<tag k="place" v="islet" />
		<tag k="ssr:stedsnr" v="693862" />
	</node>
	<node lat="57.99837221878927" lon="7.3135833409486395" id="-30059">
		<tag k="name" v="Kjorteboan" />
		<tag k="place" v="locality" />
		<tag k="seamark:type" v="rock" />
		<tag k="ssr:stedsnr" v="572508" />
	</node>
	<node lat="57.95945555613269" lon="7.339613883402748" id="-30062">
		<tag k="name" v="Åsgargrunnen" />
		<tag k="natural" v="shoal" />
		<tag k="place" v="locality" />
		<tag k="ssr:stedsnr" v="572516" />
	</node>
	<node lat="57.97670277387274" lon="7.610972215610348" id="-30064">
		<tag k="name" v="Grønvika" />
		<tag k="natural" v="bay" />
		<tag k="ssr:stedsnr" v="693948" />
	</node>
	<node lat="58.011969445351625" lon="7.41005833094842" id="-30065">
		<tag k="name" v="Indre Skjølvåg" />
		<tag k="natural" v="bay" />
		<tag k="ssr:stedsnr" v="572854" />
	</node>
	<node lat="57.97116111515508" lon="7.49937500803326" id="-30073">
		<tag k="name" v="Sandvika" />
		<tag k="natural" v="bay" />
		<tag k="ssr:stedsnr" v="572950" />
	</node>
	<node lat="58.01780833460154" lon="7.388155547799586" id="-30080">
		<tag k="name" v="Sævika" />
		<tag k="natural" v="bay" />
		<tag k="ssr:stedsnr" v="694896" />
	</node>
	<node lat="57.96684166377981" lon="7.529572217420478" id="-30122">
		<tag k="name" v="Store Vengelsholman" />
		<tag k="place" v="islet" />
		<tag k="ssr:stedsnr" v="602847" />
	</node>
	<node lat="57.99493888694484" lon="7.342386112902469" id="-30136">
		<tag k="name" v="Hille" />
		<tag k="place" v="island" />
		<tag k="ssr:stedsnr" v="606003" />
	</node>
	<node lat="57.98940000375558" lon="7.020530553056608" id="-30137">
		<tag k="name" v="Bysa" />
		<tag k="natural" v="shoal" />
		<tag k="place" v="locality" />
		<tag k="ssr:stedsnr" v="606005" />
	</node>
	<node lat="58.003322221315" lon="7.658761103481905" id="-30140">
		<tag k="alt_name" v="Vestre Stolen" />
		<tag k="name" v="Stolen" />
		<tag k="place" v="islet" />
		<tag k="ssr:stedsnr" v="606084" />
	</node>
	<node lat="58.07073333371578" lon="7.14438056077666" id="-30178">
		<tag k="name" v="Trøysvika" />
		<tag k="natural" v="bay" />
		<tag k="ssr:stedsnr" v="628009" />
	</node>
	<node lat="58.071294445004106" lon="7.160902785105497" id="-30190">
		<tag k="name" v="Launesodden" />
		<tag k="natural" v="cape" />
		<tag k="ssr:stedsnr" v="628001" />
	</node>
	<node lat="58.038572221424104" lon="7.223399996940041" id="-30215">
		<tag k="alt_name" v="Skoftevika" />
		<tag k="name" v="Skofteviga" />
		<tag k="natural" v="bay" />
		<tag k="ssr:stedsnr" v="628260" />
	</node>
	<node lat="57.99889166340513" lon="7.206597221640407" id="-30216">
		<tag k="name" v="Søndre Einerholmskjæran" />
		<tag k="place" v="island" />
		<tag k="ssr:stedsnr" v="628263" />
	</node>
	<node lat="58.02544721830698" lon="7.23246388251168" id="-30217">
		<tag k="name" v="Grydodden" />
		<tag k="natural" v="cape" />
		<tag k="ssr:stedsnr" v="628264" />
	</node>
	<node lat="57.988505556987015" lon="7.088899996967734" id="-30230">
		<tag k="name" v="Grodholmen" />
		<tag k="place" v="island" />
		<tag k="ssr:stedsnr" v="628414" />
	</node>
	<node lat="58.027080557809796" lon="7.187958337000966" id="-30245">
		<tag k="name" v="Fyrodden" />
		<tag k="natural" v="cape" />
		<tag k="ssr:stedsnr" v="628308" />
	</node>
	<node lat="58.03867222607125" lon="7.141616661484589" id="-30246">
		<tag k="name" v="Steinvika" />
		<tag k="natural" v="bay" />
		<tag k="ssr:stedsnr" v="628310" />
	</node>
	<node lat="58.038369446410115" lon="7.151808331520127" id="-30247">
		<tag k="name" v="Bålyhaue" />
		<tag k="natural" v="cape" />
		<tag k="ssr:stedsnr" v="628312" />
	</node>
	<node lat="58.0381000041264" lon="7.175152783069053" id="-30250">
		<tag k="name" v="Buvika" />
		<tag k="natural" v="bay" />
		<tag k="ssr:stedsnr" v="628315" />
	</node>
	<node lat="58.03443888682946" lon="7.143033336992133" id="-30251">
		<tag k="name" v="Nyresnes" />
		<tag k="natural" v="cape" />
		<tag k="ssr:stedsnr" v="628317" />
	</node>
	<node lat="58.02687499868102" lon="7.136908325489061" id="-30257">
		<tag k="name" v="Lille Bratholmen" />
		<tag k="place" v="island" />
		<tag k="ssr:stedsnr" v="628349" />
	</node>
	<node lat="58.027808331709245" lon="7.1432472268797955" id="-30258">
		<tag k="name" v="Nyresnesodden" />
		<tag k="natural" v="cape" />
		<tag k="ssr:stedsnr" v="628353" />
	</node>
	<node lat="58.028019441758275" lon="7.295575003789598" id="-30300">
		<tag k="name" v="Lille Bleikholmen" />
		<tag k="place" v="island" />
		<tag k="ssr:stedsnr" v="628951" />
	</node>
	<node lat="57.9674138915186" lon="7.608791658137962" id="-30310">
		<tag k="name" v="Sildehola" />
		<tag k="natural" v="bay" />
		<tag k="ssr:stedsnr" v="630105" />
	</node>
	<node lat="57.98004722050283" lon="7.5601583416524445" id="-30311">
		<tag k="name" v="Nordodden" />
		<tag k="natural" v="cape" />
		<tag k="ssr:stedsnr" v="630106" />
	</node>
	<node lat="57.99202500202115" lon="7.5742694386929585" id="-30312">
		<tag k="name" v="Østre Andholmbukta" />
		<tag k="natural" v="bay" />
		<tag k="ssr:stedsnr" v="630339" />
	</node>
	<node lat="57.99450277409254" lon="7.591277775087134" id="-30313">
		<tag k="name" v="Skaftenes" />
		<tag k="natural" v="cape" />
		<tag k="ssr:stedsnr" v="630345" />
	</node>
	<node lat="57.951450002597156" lon="7.204105559661736" id="-30317">
		<tag k="name" v="Midtre Kletten" />
		<tag k="natural" v="shoal" />
		<tag k="place" v="locality" />
		<tag k="ssr:stedsnr" v="631015" />
	</node>
	<node lat="58.009311112046774" lon="7.614833339542535" id="-30320">
		<tag k="fixme" v="consider seamark:type=rock or natural=shoal" />
		<tag k="name" v="Gjesberskjær" />
		<tag k="place" v="islet" />
		<tag k="ssr:stedsnr" v="631231" />
	</node>
	<node lat="58.00533611025345" lon="7.609488892619639" id="-30321">
		<tag k="fixme" v="consider seamark:type=rock or natural=shoal" />
		<tag k="name" v="Knubben" />
		<tag k="place" v="islet" />
		<tag k="ssr:stedsnr" v="631236" />
	</node>
	<node lat="58.00138333300863" lon="7.594455551850107" id="-30322">
		<tag k="name" v="Skjervika" />
		<tag k="natural" v="bay" />
		<tag k="ssr:stedsnr" v="631242" />
	</node>
	<node lat="58.00430555146259" lon="7.599430562515445" id="-30323">
		<tag k="name" v="Paltoskbukta" />
		<tag k="natural" v="bay" />
		<tag k="ssr:stedsnr" v="631243" />
	</node>
	<node lat="57.99694166667352" lon="7.6611638932896975" id="-30324">
		<tag k="name" v="Vrakebukta" />
		<tag k="natural" v="bay" />
		<tag k="ssr:stedsnr" v="631293" />
	</node>
	<node lat="57.99925000333568" lon="7.6519999945753865" id="-30325">
		<tag k="name" v="Soverholmen" />
		<tag k="place" v="islet" />
		<tag k="ssr:stedsnr" v="631296" />
	</node>
	<node lat="57.99774999555781" lon="7.653383331176267" id="-30326">
		<tag k="name" v="Soverholmen" />
		<tag k="place" v="islet" />
		<tag k="ssr:stedsnr" v="631297" />
	</node>
	<node lat="57.991100002584766" lon="7.646249992930089" id="-30327">
		<tag k="name" v="Jøden" />
		<tag k="place" v="islet" />
		<tag k="ssr:stedsnr" v="631332" />
	</node>
	<node lat="58.016288891018036" lon="7.372447227676899" id="-30328">
		<tag k="name" v="Fartøyholman" />
		<tag k="place" v="islet" />
		<tag k="ssr:stedsnr" v="631737" />
	</node>
	<node lat="57.99346944233968" lon="7.4934972200128245" id="-30340">
		<tag k="name" v="Benkehola" />
		<tag k="natural" v="bay" />
		<tag k="ssr:stedsnr" v="632011" />
	</node>
	<node lat="57.98933055901574" lon="7.505502780027411" id="-30341">
		<tag k="name" v="Valvikstranda" />
		<tag k="natural" v="bay" />
		<tag k="ssr:stedsnr" v="632022" />
	</node>
	<node lat="58.00844721860653" lon="7.486255558698772" id="-30343">
		<tag k="name" v="Stusøybukta" />
		<tag k="natural" v="bay" />
		<tag k="ssr:stedsnr" v="632040" />
	</node>
	<node lat="58.010383332060165" lon="7.4880500080323245" id="-30344">
		<tag k="fixme" v="consider seamark:type=rock or natural=shoal" />
		<tag k="name" v="Guleskjær" />
		<tag k="place" v="islet" />
		<tag k="ssr:stedsnr" v="632042" />
	</node>
	<node lat="57.96961666693803" lon="7.563488880987084" id="-30345">
		<tag k="name" v="Innvåa" />
		<tag k="natural" v="bay" />
		<tag k="ssr:stedsnr" v="632044" />
	</node>
	<node lat="57.964827774391466" lon="7.492536113554995" id="-30346">
		<tag k="name" v="Slettingsundet" />
		<tag k="natural" v="strait" />
		<tag k="ssr:stedsnr" v="632083" />
	</node>
	<node lat="57.9674305594179" lon="7.557388884518419" id="-30352">
		<tag k="name" v="Sandøybukta" />
		<tag k="natural" v="bay" />
		<tag k="ssr:stedsnr" v="632115" />
	</node>
	<node lat="57.99525555137769" lon="7.211674994552966" id="-30353">
		<tag k="name" v="Spekelaksen" />
		<tag k="natural" v="shoal" />
		<tag k="place" v="locality" />
		<tag k="ssr:stedsnr" v="632120" />
	</node>
	<node lat="57.99299166552287" lon="7.115861113307425" id="-30354">
		<tag k="name" v="Heddene" />
		<tag k="place" v="locality" />
		<tag k="seamark:type" v="rock" />
		<tag k="ssr:stedsnr" v="632127" />
	</node>
	<node lat="57.98887500058938" lon="7.573072226777976" id="-30355">
		<tag k="fixme" v="consider seamark:type=rock or natural=shoal" />
		<tag k="name" v="Krossvikskjæran" />
		<tag k="place" v="islet" />
		<tag k="ssr:stedsnr" v="632145" />
	</node>
	<node lat="57.98481666842045" lon="7.571594438508912" id="-30356">
		<tag k="name" v="Dublingvika" />
		<tag k="natural" v="bay" />
		<tag k="ssr:stedsnr" v="632146" />
	</node>
	<node lat="58.00191666703575" lon="7.536933334099183" id="-30360">
		<tag k="fixme" v="consider seamark:type=rock or natural=shoal" />
		<tag k="name" v="Torsteinholmboen" />
		<tag k="place" v="islet" />
		<tag k="ssr:stedsnr" v="632404" />
	</node>
	<node lat="57.98214166901335" lon="7.584400006417228" id="-30361">
		<tag k="name" v="Vestre Trevika" />
		<tag k="natural" v="bay" />
		<tag k="ssr:stedsnr" v="632413" />
	</node>
	<node lat="58.00149444599511" lon="7.406674999669859" id="-30366">
		<tag k="name" v="Brattholmen" />
		<tag k="place" v="islet" />
		<tag k="ssr:stedsnr" v="632699" />
	</node>
	<node lat="58.01637499622562" lon="7.405927769702137" id="-30367">
		<tag k="name" v="Øyodden" />
		<tag k="natural" v="cape" />
		<tag k="ssr:stedsnr" v="632811" />
	</node>
	<node lat="58.0091222184884" lon="7.43201945104916" id="-30368">
		<tag k="name" v="Vestre Holevika" />
		<tag k="natural" v="bay" />
		<tag k="ssr:stedsnr" v="632737" />
	</node>
	<node lat="57.98228333089659" lon="7.599830557130326" id="-30370">
		<tag k="name" v="Stangfjellsodden" />
		<tag k="natural" v="cape" />
		<tag k="ssr:stedsnr" v="632934" />
	</node>
	<node lat="58.01643055745434" lon="7.3428583318919065" id="-30373">
		<tag k="name" v="Ramsdalsvika" />
		<tag k="natural" v="bay" />
		<tag k="ssr:stedsnr" v="632925" />
	</node>
	<node lat="57.99334999647903" lon="7.424575006609792" id="-30429">
		<tag k="alt_name" v="Mannevær, ytre" />
		<tag k="name" v="Ytre Mannevær" />
		<tag k="place" v="island" />
		<tag k="ssr:stedsnr" v="667041" />
	</node>
	<node lat="58.02414444465716" lon="7.118049995704919" id="-30492">
		<tag k="fixme" v="multiple name tags, choose one and add the other to alt_name; consider seamark:type=rock or natural=shoal" />
		<tag k="name" v="Store Bessen;Bessen" />
		<tag k="place" v="islet" />
		<tag k="ssr:stedsnr" v="689082" />
	</node>
	<node lat="58.02931111315087" lon="7.143380560054807" id="-30522">
		<tag k="name" v="Oddevika" />
		<tag k="natural" v="bay" />
		<tag k="ssr:stedsnr" v="689330" />
	</node>
	<node lat="58.00009444127398" lon="7.101077772434229" id="-30523">
		<tag k="name" v="Trettevika" />
		<tag k="natural" v="bay" />
		<tag k="ssr:stedsnr" v="689336" />
	</node>
	<node lat="58.00066666914711" lon="7.1892305580373455" id="-30524">
		<tag k="name" v="Lille Havnerøy" />
		<tag k="place" v="island" />
		<tag k="ssr:stedsnr" v="689284" />
	</node>
	<node lat="57.99223610755629" lon="7.094333327387608" id="-30528">
		<tag k="name" v="Indre Guleholmen" />
		<tag k="place" v="island" />
		<tag k="ssr:stedsnr" v="689410" />
	</node>
	<node lat="58.041691663992005" lon="7.200022228425329" id="-30578">
		<tag k="name" v="Gullvika" />
		<tag k="natural" v="bay" />
		<tag k="ssr:stedsnr" v="689916" />
	</node>
	<node lat="58.02936944122404" lon="7.199177775260832" id="-30591">
		<tag k="name" v="Store Bjørnen" />
		<tag k="place" v="island" />
		<tag k="ssr:stedsnr" v="690390" />
	</node>
	<node lat="58.01157222265478" lon="7.201555563647722" id="-30592">
		<tag k="name" v="Kjørevika" />
		<tag k="natural" v="bay" />
		<tag k="ssr:stedsnr" v="690393" />
	</node>
	<node lat="57.96550278145255" lon="7.614880558227214" id="-30615">
		<tag k="fixme" v="consider seamark:type=rock or natural=shoal" />
		<tag k="name" v="Innerskjær" />
		<tag k="place" v="islet" />
		<tag k="ssr:stedsnr" v="692095" />
	</node>
	<node lat="58.00717512016533" lon="7.184615776328526" id="-30617">
		<tag k="name" v="Badstukletten" />
		<tag k="natural" v="shoal" />
		<tag k="place" v="locality" />
		<tag k="ssr:stedsnr" v="692105" />
	</node>
	<node lat="57.98832777577641" lon="7.642133330325108" id="-30618">
		<tag k="name" v="Breibukta" />
		<tag k="natural" v="bay" />
		<tag k="ssr:stedsnr" v="692307" />
	</node>
	<node lat="58.002819440930224" lon="7.545508327069028" id="-30620">
		<tag k="name" v="Magelausodden" />
		<tag k="natural" v="cape" />
		<tag k="ssr:stedsnr" v="692405" />
	</node>
	<node lat="58.00207222241079" lon="7.52634723015545" id="-30621">
		<tag k="name" v="Masseholmen" />
		<tag k="place" v="islet" />
		<tag k="ssr:stedsnr" v="692408" />
	</node>
	<node lat="57.97313055960916" lon="7.61243611858967" id="-30627">
		<tag k="name" v="Ravnevika" />
		<tag k="natural" v="bay" />
		<tag k="ssr:stedsnr" v="692321" />
	</node>
	<node lat="58.01454444025969" lon="7.67430278305954" id="-30629">
		<tag k="fixme" v="consider seamark:type=rock or natural=shoal" />
		<tag k="name" v="Tåna" />
		<tag k="place" v="islet" />
		<tag k="ssr:stedsnr" v="692372" />
	</node>
	<node lat="58.00558611559474" lon="7.548522220403435" id="-30632">
		<tag k="fixme" v="consider seamark:type=rock or natural=shoal" />
		<tag k="name" v="Hvalen" />
		<tag k="place" v="islet" />
		<tag k="ssr:stedsnr" v="692388" />
	</node>
	<node lat="57.98933333675469" lon="7.49148611413177" id="-30644">
		<tag k="name" v="Færøyraua" />
		<tag k="natural" v="cape" />
		<tag k="ssr:stedsnr" v="693008" />
	</node>
	<node lat="57.954380559123265" lon="7.20230278545281" id="-30645">
		<tag k="name" v="Indre Kletten" />
		<tag k="natural" v="shoal" />
		<tag k="place" v="locality" />
		<tag k="ssr:stedsnr" v="693022" />
	</node>
	<node lat="57.99436388589428" lon="7.569469442146462" id="-30647">
		<tag k="name" v="Lille Andholmen" />
		<tag k="place" v="islet" />
		<tag k="ssr:stedsnr" v="693078" />
	</node>
	<node lat="57.96558888897558" lon="7.602327785112469" id="-30657">
		<tag k="name" v="Brenneboan" />
		<tag k="place" v="locality" />
		<tag k="seamark:type" v="rock" />
		<tag k="ssr:stedsnr" v="693419" />
	</node>
	<node lat="57.98858610979866" lon="7.583822221680693" id="-30659">
		<tag k="alt_name" v="Ødøyfjorden" />
		<tag k="bay" v="fjord" />
		<tag k="name" v="Udøyfjorden" />
		<tag k="natural" v="bay" />
		<tag k="ssr:stedsnr" v="693610" />
	</node>
	<node lat="58.027813889456375" lon="7.340480556454839" id="-30660">
		<tag k="name" v="Bukta" />
		<tag k="natural" v="bay" />
		<tag k="ssr:stedsnr" v="693868" />
	</node>
	<node lat="57.99466666622179" lon="7.376213893386443" id="-30661">
		<tag k="name" v="Østre Glova" />
		<tag k="natural" v="bay" />
		<tag k="ssr:stedsnr" v="693875" />
	</node>
	<node lat="57.992458335913234" lon="7.385355548809271" id="-30662">
		<tag k="name" v="Tunga" />
		<tag k="natural" v="cape" />
		<tag k="ssr:stedsnr" v="693892" />
	</node>
	<node lat="58.0177638910003" lon="7.415161119145201" id="-30663">
		<tag k="name" v="Laugeberget" />
		<tag k="natural" v="cape" />
		<tag k="ssr:stedsnr" v="693771" />
	</node>
	<node lat="58.006733330727094" lon="7.426974999922363" id="-30664">
		<tag k="name" v="Leisundholmen" />
		<tag k="place" v="islet" />
		<tag k="ssr:stedsnr" v="693775" />
	</node>
	<node lat="57.97822500412882" lon="7.611963893615803" id="-30667">
		<tag k="name" v="Snerpesundet" />
		<tag k="natural" v="strait" />
		<tag k="ssr:stedsnr" v="694409" />
	</node>
	<node lat="57.97851388864558" lon="7.617913891554057" id="-30668">
		<tag k="name" v="Sydosterbukta" />
		<tag k="natural" v="bay" />
		<tag k="ssr:stedsnr" v="694411" />
	</node>
	<node lat="58.03233055333717" lon="7.332916666425585" id="-30671">
		<tag k="name" v="Leirkiltangen" />
		<tag k="natural" v="cape" />
		<tag k="ssr:stedsnr" v="694870" />
	</node>
	<node lat="57.990288886277156" lon="7.3446166658701095" id="-30715">
		<tag k="alt_name" v="Store Åskot" />
		<tag k="name" v="Åskot" />
		<tag k="place" v="islet" />
		<tag k="ssr:stedsnr" v="728012" />
	</node>
	<node lat="57.958536107945626" lon="7.056494439738596" id="-30716">
		<tag k="name" v="Neskletten" />
		<tag k="natural" v="shoal" />
		<tag k="place" v="locality" />
		<tag k="ssr:stedsnr" v="728022" />
	</node>
	<node lat="57.981019443345495" lon="7.21128333312333" id="-30719">
		<tag k="name" v="Udvåre" />
		<tag k="place" v="island" />
		<tag k="ssr:stedsnr" v="728028" />
	</node>
	<node lat="57.99887221860817" lon="7.0964222252091345" id="-30783">
		<tag k="name" v="Suggevika" />
		<tag k="natural" v="bay" />
		<tag k="ssr:stedsnr" v="749362" />
	</node>
	<node lat="57.990466668718696" lon="7.202552771835682" id="-30785">
		<tag k="fixme" v="consider seamark:type=rock or natural=shoal" />
		<tag k="name" v="Lefsøyskjæran" />
		<tag k="place" v="islet" />
		<tag k="ssr:stedsnr" v="749369" />
	</node>
	<node lat="58.179533335880514" lon="7.541430553641831" id="-30842">
		<tag k="name" v="Kjerreneset" />
		<tag k="natural" v="cape" />
		<tag k="ssr:stedsnr" v="750611" />
	</node>
	<node lat="58.11736944705349" lon="7.186844450821423" id="-30851">
		<tag k="name" v="Sandnesodden" />
		<tag k="natural" v="cape" />
		<tag k="ssr:stedsnr" v="750920" />
	</node>
	<node lat="58.026869446982474" lon="7.261944449841909" id="-30854">
		<tag k="name" v="Rundholmen" />
		<tag k="place" v="island" />
		<tag k="ssr:stedsnr" v="750930" />
	</node>
	<node lat="58.029377775231715" lon="7.256894441740472" id="-30855">
		<tag k="name" v="Gulholmen" />
		<tag k="place" v="island" />
		<tag k="ssr:stedsnr" v="750932" />
	</node>
	<node lat="57.99666110777659" lon="7.553686109143843" id="-30881">
		<tag k="fixme" v="consider seamark:type=rock or natural=shoal" />
		<tag k="name" v="Mittinga" />
		<tag k="place" v="islet" />
		<tag k="ssr:stedsnr" v="752054" />
	</node>
	<node lat="57.99181388824077" lon="7.6437833372610156" id="-30883">
		<tag k="fixme" v="consider seamark:type=rock or natural=shoal" />
		<tag k="name" v="Skarveskjæran" />
		<tag k="place" v="islet" />
		<tag k="ssr:stedsnr" v="752318" />
	</node>
	<node lat="58.009036113561514" lon="7.5444111078958525" id="-30886">
		<tag k="name" v="Ramsvågen" />
		<tag k="natural" v="bay" />
		<tag k="ssr:stedsnr" v="752369" />
	</node>
	<node lat="58.00908889291024" lon="7.402924997928275" id="-30900">
		<tag k="name" v="Vika" />
		<tag k="natural" v="bay" />
		<tag k="ssr:stedsnr" v="752723" />
	</node>
	<node lat="57.98693610716317" lon="7.697727775089852" id="-30901">
		<tag k="fixme" v="consider seamark:type=rock or natural=shoal" />
		<tag k="name" v="Øster Tønna" />
		<tag k="place" v="islet" />
		<tag k="ssr:stedsnr" v="752726" />
	</node>
	<node lat="58.014761110642965" lon="7.432711110700069" id="-30906">
		<tag k="alt_name" v="Hukkan" />
		<tag k="name" v="Hugan" />
		<tag k="natural" v="cape" />
		<tag k="ssr:stedsnr" v="752669" />
	</node>
	<node lat="58.00384999886748" lon="7.3415166702799715" id="-30911">
		<tag k="fixme" v="consider seamark:type=rock or natural=shoal" />
		<tag k="name" v="Tjoren" />
		<tag k="place" v="islet" />
		<tag k="ssr:stedsnr" v="752824" />
	</node>
	<node lat="58.00152778095325" lon="7.352963896193858" id="-30912">
		<tag k="name" v="Østre Dansvik" />
		<tag k="natural" v="bay" />
		<tag k="ssr:stedsnr" v="752826" />
	</node>
	<node lat="57.991052773889365" lon="7.499830555119412" id="-30917">
		<tag k="name" v="Tjønnevika" />
		<tag k="natural" v="bay" />
		<tag k="ssr:stedsnr" v="753005" />
	</node>
	<node lat="57.9927972190593" lon="7.5039444522899" id="-30918">
		<tag k="alt_name" v="Dyrestadvågen" />
		<tag k="name" v="Dyrstadvågen" />
		<tag k="natural" v="bay" />
		<tag k="ssr:stedsnr" v="753006" />
	</node>
	<node lat="58.00728055987906" lon="7.381877784673814" id="-30927">
		<tag k="name" v="Gressholmen" />
		<tag k="place" v="islet" />
		<tag k="ssr:stedsnr" v="753705" />
	</node>
	<node lat="58.0006888892093" lon="7.298091667648516" id="-30933">
		<tag k="fixme" v="consider seamark:type=rock or natural=shoal" />
		<tag k="name" v="Kjorteskjeret" />
		<tag k="place" v="islet" />
		<tag k="ssr:stedsnr" v="754511" />
	</node>
	<node lat="58.02442499576831" lon="7.6578638899778575" id="-30939">
		<tag k="name" v="Launesodden" />
		<tag k="natural" v="cape" />
		<tag k="ssr:stedsnr" v="754659" />
	</node>
	<node lat="58.02104444302756" lon="7.365875001435234" id="-30940">
		<tag k="name" v="Høksåsneset" />
		<tag k="natural" v="cape" />
		<tag k="ssr:stedsnr" v="754809" />
	</node>
	<node lat="58.03648611402618" lon="7.333777782853757" id="-30944">
		<tag k="name" v="Bugdeåsodden" />
		<tag k="natural" v="cape" />
		<tag k="ssr:stedsnr" v="754926" />
	</node>
	<node lat="58.025691665614985" lon="7.318358341766853" id="-30951">
		<tag k="name" v="Kåfjordneset" />
		<tag k="natural" v="cape" />
		<tag k="ssr:stedsnr" v="906145" />
	</node>
	<node lat="57.978942201483044" lon="7.0557668713776645" id="-30952">
		<tag k="name" v="Nesflua" />
		<tag k="natural" v="shoal" />
		<tag k="place" v="locality" />
		<tag k="ssr:stedsnr" v="906241" />
	</node>
	<node lat="57.98307222352659" lon="7.141447214774564" id="-30953">
		<tag k="fixme" v="consider seamark:type=rock or natural=shoal" />
		<tag k="name" v="Langeboan" />
		<tag k="place" v="islet" />
		<tag k="ssr:stedsnr" v="906244" />
	</node>
	<node lat="57.99266248595438" lon="7.099961152526604" id="-30996">
		<tag k="alt_name" v="Svarte Hillegarn" />
		<tag k="name" v="Svarte Hillegarden" />
		<tag k="place" v="islet" />
		<tag k="ssr:stedsnr" v="910027" />
	</node>
	<node lat="57.998461107344944" lon="7.422425001894081" id="-30997">
		<tag k="alt_name" v="Mannevær, indre" />
		<tag k="name" v="Indre Mannevær" />
		<tag k="place" v="island" />
		<tag k="ssr:stedsnr" v="910043" />
	</node>
	<node lat="57.99905555178187" lon="7.577019444768381" id="-30998">
		<tag k="name" v="Langøy" />
		<tag k="place" v="island" />
		<tag k="ssr:stedsnr" v="910046" />
	</node>
	<node lat="57.97884532316752" lon="7.632118496531944" id="-31001">
		<tag k="alt_name" v="Kniblingen" />
		<tag k="name" v="Kneblingen" />
		<tag k="place" v="island" />
		<tag k="ssr:stedsnr" v="910071" />
	</node>
	<node lat="57.97105000015342" lon="7.458233332822942" id="-31002">
		<tag k="name" v="Klevehausen" />
		<tag k="natural" v="shoal" />
		<tag k="place" v="locality" />
		<tag k="ssr:stedsnr" v="910075" />
	</node>
	<node lat="58.00622222519111" lon="7.602988887822244" id="-31003">
		<tag k="alt_name" v="Orpholmen;Søndre Lille Ørpholmen" />
		<tag k="name" v="Søndre Lille Ørpeholmen" />
		<tag k="place" v="islet" />
		<tag k="ssr:stedsnr" v="910082" />
	</node>
	<node lat="58.00438055515806" lon="7.369433337696397" id="-31004">
		<tag k="alt_name" v="Hillevåa" />
		<tag k="name" v="Hillevågen" />
		<tag k="natural" v="bay" />
		<tag k="ssr:stedsnr" v="910089" />
	</node>
	<node lat="58.03005277708207" lon="7.315216668066114" id="-31011">
		<tag k="name" v="Kvåfjordneset" />
		<tag k="natural" v="cape" />
		<tag k="ssr:stedsnr" v="910675" />
	</node>
	<node lat="57.97859999900122" lon="7.592147228483688" id="-31052">
		<tag k="alt_name" v="Udøy Brattholmen" />
		<tag k="name" v="Brattholmen" />
		<tag k="place" v="islet" />
		<tag k="ssr:stedsnr" v="788047" />
	</node>
	<node lat="57.99181666989323" lon="7.0946500033978905" id="-31059">
		<tag k="name" v="Guleholmane" />
		<tag k="place" v="islet" />
		<tag k="ssr:stedsnr" v="789014" />
	</node>
	<node lat="58.00396111221075" lon="7.515136111001513" id="-31060">
		<tag k="name" v="Skjernøysundet" />
		<tag k="natural" v="strait" />
		<tag k="old_name" v="Skjerøysundet" />
		<tag k="ssr:stedsnr" v="789057" />
	</node>
	<node lat="58.00513610734066" lon="7.588913891563651" id="-31061">
		<tag k="name" v="Skogsøy" />
		<tag k="place" v="island" />
		<tag k="ssr:stedsnr" v="789060" />
	</node>
	<node lat="58.02764999672048" lon="7.044830559816169" id="-31085">
		<tag k="name" v="Sandviga" />
		<tag k="natural" v="bay" />
		<tag k="ssr:stedsnr" v="810200" />
	</node>
	<node lat="58.03391666691767" lon="7.125658339753625" id="-31089">
		<tag k="name" v="Tangvika" />
		<tag k="natural" v="bay" />
		<tag k="ssr:stedsnr" v="810102" />
	</node>
	<node lat="58.0405055585008" lon="7.154513896276353" id="-31108">
		<tag k="alt_name" v="Tedneholmen" />
		<tag k="name" v="Terneholmen" />
		<tag k="place" v="islet" />
		<tag k="ssr:stedsnr" v="811057" />
	</node>
	<node lat="58.01379444832499" lon="7.2003694445174915" id="-31140">
		<tag k="name" v="Grunnsodden" />
		<tag k="natural" v="cape" />
		<tag k="ssr:stedsnr" v="811336" />
	</node>
	<node lat="58.036527775966015" lon="7.275738880982909" id="-31183">
		<tag k="name" v="Gjeidevika" />
		<tag k="natural" v="bay" />
		<tag k="ssr:stedsnr" v="811983" />
	</node>
	<node lat="57.991491663043504" lon="7.642591664569529" id="-31194">
		<tag k="name" v="Ravnebukta" />
		<tag k="natural" v="bay" />
		<tag k="ssr:stedsnr" v="813303" />
	</node>
	<node lat="58.000366662410094" lon="7.646347225607262" id="-31202">
		<tag k="name" v="Mergelbukta" />
		<tag k="natural" v="bay" />
		<tag k="ssr:stedsnr" v="813281" />
	</node>
	<node lat="58.04520277781482" lon="7.619730553365665" id="-31203">
		<tag k="name" v="Kavika" />
		<tag k="natural" v="bay" />
		<tag k="ssr:stedsnr" v="813284" />
	</node>
	<node lat="58.0004777799019" lon="7.64837222857133" id="-31222">
		<tag k="name" v="Merrevika" />
		<tag k="natural" v="bay" />
		<tag k="ssr:stedsnr" v="813945" />
	</node>
	<node lat="57.990788884753016" lon="7.489047221232268" id="-31231">
		<tag k="name" v="Styggevika" />
		<tag k="natural" v="bay" />
		<tag k="ssr:stedsnr" v="814006" />
	</node>
	<node lat="57.991152774186695" lon="7.503750000825159" id="-31232">
		<tag k="name" v="Våodden" />
		<tag k="natural" v="cape" />
		<tag k="ssr:stedsnr" v="814008" />
	</node>
	<node lat="57.995838888472086" lon="7.488499996892659" id="-31233">
		<tag k="name" v="Drammen" />
		<tag k="natural" v="bay" />
		<tag k="ssr:stedsnr" v="814025" />
	</node>
	<node lat="58.00371110981006" lon="7.5072972196102805" id="-31234">
		<tag k="fixme" v="consider seamark:type=rock or natural=shoal" />
		<tag k="name" v="Tjelden" />
		<tag k="place" v="islet" />
		<tag k="ssr:stedsnr" v="814028" />
	</node>
	<node lat="57.984741664124435" lon="7.430486102997036" id="-31241">
		<tag k="fixme" v="consider seamark:type=rock or natural=shoal" />
		<tag k="name" v="Slottet" />
		<tag k="place" v="islet" />
		<tag k="ssr:stedsnr" v="814805" />
	</node>
	<node lat="57.98992777343655" lon="7.656066659047931" id="-31244">
		<tag k="fixme" v="consider seamark:type=rock or natural=shoal" />
		<tag k="name" v="Valløytaklan" />
		<tag k="place" v="islet" />
		<tag k="ssr:stedsnr" v="815610" />
	</node>
	<node lat="58.00088888864088" lon="7.614319444158499" id="-31247">
		<tag k="name" v="Midtre Lindholmen" />
		<tag k="place" v="islet" />
		<tag k="ssr:stedsnr" v="815589" />
	</node>
	<node lat="58.00088611269588" lon="7.619836114115879" id="-31248">
		<tag k="name" v="Østre Lindholmen" />
		<tag k="place" v="islet" />
		<tag k="ssr:stedsnr" v="815590" />
	</node>
	<node lat="58.00539999750862" lon="7.443502769869156" id="-31249">
		<tag k="name" v="Hårkniba" />
		<tag k="place" v="islet" />
		<tag k="ssr:stedsnr" v="815772" />
	</node>
	<node lat="57.98768055324664" lon="7.388869447984645" id="-31257">
		<tag k="name" v="Tungeskjer Midtre" />
		<tag k="place" v="islet" />
		<tag k="ssr:stedsnr" v="815909" />
	</node>
	<node lat="57.98033333448741" lon="7.494549996069924" id="-31308">
		<tag k="name" v="Hjelmen" />
		<tag k="place" v="islet" />
		<tag k="ssr:stedsnr" v="849077" />
	</node>
	<node lat="58.01669999589096" lon="7.316575003875075" id="-31309">
		<tag k="fixme" v="consider seamark:type=rock or natural=shoal" />
		<tag k="name" v="Kråka, store" />
		<tag k="place" v="islet" />
		<tag k="ssr:stedsnr" v="849707" />
	</node>
	<node lat="57.988561113281804" lon="7.336536107904804" id="-31316">
		<tag k="fixme" v="consider seamark:type=rock or natural=shoal" />
		<tag k="name" v="Musa" />
		<tag k="place" v="islet" />
		<tag k="ssr:stedsnr" v="850008" />
	</node>
	<node lat="57.98655833104547" lon="7.018641658405874" id="-31317">
		<tag k="name" v="Sveinane" />
		<tag k="natural" v="shoal" />
		<tag k="place" v="locality" />
		<tag k="ssr:stedsnr" v="850011" />
	</node>
	<node lat="57.981404911840016" lon="7.077459979705242" id="-31318">
		<tag k="name" v="Kjerringflua" />
		<tag k="natural" v="shoal" />
		<tag k="place" v="locality" />
		<tag k="ssr:stedsnr" v="850014" />
	</node>
	<node lat="58.01196944521293" lon="7.442261112330328" id="-31337">
		<tag k="name" v="Aspholmen" />
		<tag k="place" v="islet" />
		<tag k="ssr:stedsnr" v="850934" />
	</node>
	<node lat="57.998466670502815" lon="7.100702784999965" id="-31350">
		<tag k="fixme" v="consider seamark:type=rock or natural=shoal" />
		<tag k="name" v="Trettevikskjæret" />
		<tag k="place" v="islet" />
		<tag k="ssr:stedsnr" v="871323" />
	</node>
	<node lat="57.982830557671335" lon="7.0492305553505075" id="-31361">
		<tag k="name" v="Staksvika" />
		<tag k="natural" v="bay" />
		<tag k="ssr:stedsnr" v="871410" />
	</node>
	<node lat="58.04493055331216" lon="7.196444452730231" id="-31379">
		<tag k="name" v="Heptevika lille" />
		<tag k="natural" v="bay" />
		<tag k="ssr:stedsnr" v="871909" />
	</node>
	<node lat="58.04623055755072" lon="7.197441670920768" id="-31380">
		<tag k="name" v="Erstøvika" />
		<tag k="natural" v="bay" />
		<tag k="ssr:stedsnr" v="871917" />
	</node>
	<node lat="58.031686107829636" lon="7.259341669841728" id="-31383">
		<tag k="name" v="Stranda" />
		<tag k="natural" v="beach" />
		<tag k="ssr:stedsnr" v="871980" />
	</node>
	<node lat="58.07296110715638" lon="7.162052777051626" id="-31398">
		<tag k="name" v="Kalsodden" />
		<tag k="natural" v="cape" />
		<tag k="ssr:stedsnr" v="932002" />
	</node>
	<node lat="58.055130556914015" lon="7.180433334082093" id="-31403">
		<tag k="name" v="Todevika" />
		<tag k="natural" v="bay" />
		<tag k="ssr:stedsnr" v="932032" />
	</node>
	<node lat="58.043000001871064" lon="7.132408337450003" id="-31408">
		<tag k="name" v="Draiet" />
		<tag k="natural" v="beach" />
		<tag k="ssr:stedsnr" v="932114" />
	</node>
	<node lat="58.034747220113054" lon="7.106844439357515" id="-31433">
		<tag k="name" v="Reierstø" />
		<tag k="natural" v="bay" />
		<tag k="ssr:stedsnr" v="932069" />
	</node>
	<node lat="58.03443055888669" lon="7.220144445932592" id="-31451">
		<tag k="name" v="Overstranda" />
		<tag k="natural" v="bay" />
		<tag k="ssr:stedsnr" v="932260" />
	</node>
	<node lat="57.99848888660957" lon="7.201144444295161" id="-31453">
		<tag k="name" v="Lammeholmen" />
		<tag k="place" v="island" />
		<tag k="ssr:stedsnr" v="932264" />
	</node>
	<node lat="58.00205277653819" lon="7.188711112253201" id="-31454">
		<tag k="fixme" v="consider seamark:type=rock or natural=shoal" />
		<tag k="name" v="Vrengskjæran" />
		<tag k="place" v="islet" />
		<tag k="ssr:stedsnr" v="932265" />
	</node>
	<node lat="58.001927777841026" lon="7.206399997288105" id="-31455">
		<tag k="fixme" v="multiple name tags, choose one and add the other to alt_name; consider seamark:type=rock or natural=shoal" />
		<tag k="name" v="Nord Einerholmskjæran;Laksesteinen" />
		<tag k="place" v="islet" />
		<tag k="ssr:stedsnr" v="932268" />
	</node>
	<node lat="58.01231944637581" lon="7.201450004741856" id="-31463">
		<tag k="name" v="Seikilen" />
		<tag k="natural" v="bay" />
		<tag k="ssr:stedsnr" v="932337" />
	</node>
	<node lat="57.98782221834211" lon="7.075202777910185" id="-31470">
		<tag k="name" v="Vestre Steinvikodden" />
		<tag k="natural" v="cape" />
		<tag k="ssr:stedsnr" v="932361" />
	</node>
	<node lat="57.998405556412884" lon="7.09798056389465" id="-31482">
		<tag k="fixme" v="consider seamark:type=rock or natural=shoal" />
		<tag k="name" v="Strandeskjæret" />
		<tag k="place" v="islet" />
		<tag k="ssr:stedsnr" v="932324" />
	</node>
	<node lat="58.001988890479936" lon="7.034638885218777" id="-31489">
		<tag k="name" v="Ytre Steinvika" />
		<tag k="natural" v="bay" />
		<tag k="ssr:stedsnr" v="932402" />
	</node>
	<node lat="57.99378055766897" lon="7.100133339080695" id="-31493">
		<tag k="alt_name" v="Hønseskjæret" />
		<tag k="fixme" v="multiple name tags, choose one and add the other to alt_name; consider seamark:type=rock or natural=shoal" />
		<tag k="name" v="Drabskjeret;Hønseskjeret" />
		<tag k="place" v="islet" />
		<tag k="ssr:stedsnr" v="932409" />
	</node>
	<node lat="57.991611107546575" lon="7.090863883987876" id="-31494">
		<tag k="fixme" v="consider seamark:type=rock or natural=shoal" />
		<tag k="name" v="Knobben" />
		<tag k="place" v="islet" />
		<tag k="ssr:stedsnr" v="932410" />
	</node>
	<node lat="57.995477782192665" lon="7.093652772460534" id="-31495">
		<tag k="name" v="Stolpevika" />
		<tag k="natural" v="bay" />
		<tag k="ssr:stedsnr" v="932412" />
	</node>
	<node lat="58.01381667034873" lon="7.428825007952662" id="-31560">
		<tag k="bay" v="fjord" />
		<tag k="name" v="Bankefjorden" />
		<tag k="natural" v="bay" />
		<tag k="ssr:stedsnr" v="875605" />
	</node>
	<node lat="57.965211115057194" lon="7.536941674470686" id="-31561">
		<tag k="alt_name" v="Terneskjæran" />
		<tag k="fixme" v="consider seamark:type=rock or natural=shoal" />
		<tag k="name" v="Terneskjer" />
		<tag k="place" v="islet" />
		<tag k="ssr:stedsnr" v="875618" />
	</node>
	<node lat="58.01237777440251" lon="7.3885083298559895" id="-31562">
		<tag k="name" v="Lande Kvistholman" />
		<tag k="place" v="islet" />
		<tag k="ssr:stedsnr" v="875808" />
	</node>
	<node lat="58.028811107424794" lon="7.416536116477828" id="-31563">
		<tag k="bay" v="fjord" />
		<tag k="name" v="Skjebstadkilen" />
		<tag k="natural" v="bay" />
		<tag k="ssr:stedsnr" v="875816" />
	</node>
	<node lat="58.00786944697091" lon="7.433661119396385" id="-31567">
		<tag k="name" v="Eid" />
		<tag k="place" v="locality" />
		<tag k="ssr:stedsnr" v="875985" />
	</node>
	<node lat="58.00891667105497" lon="7.4272222296101" id="-31568">
		<tag k="name" v="Hummerodden" />
		<tag k="natural" v="cape" />
		<tag k="ssr:stedsnr" v="875987" />
	</node>
	<node lat="58.04763611404271" lon="7.279816660418389" id="-31574">
		<tag k="name" v="Borvika" />
		<tag k="natural" v="bay" />
		<tag k="ssr:stedsnr" v="932749" />
	</node>
	<node lat="57.98151944383358" lon="7.582791670722958" id="-31586">
		<tag k="name" v="Naudskjærsundet" />
		<tag k="natural" v="strait" />
		<tag k="ssr:stedsnr" v="876405" />
	</node>
	<node lat="58.03890555395561" lon="7.235125000952754" id="-31587">
		<tag k="name" v="Kjerringa" />
		<tag k="natural" v="cape" />
		<tag k="ssr:stedsnr" v="932869" />
	</node>
	<node lat="58.048302782111875" lon="7.246241664125364" id="-31589">
		<tag k="name" v="Rauhåve" />
		<tag k="natural" v="cape" />
		<tag k="ssr:stedsnr" v="932878" />
	</node>
	<node lat="58.0501361073621" lon="7.24589167015573" id="-31590">
		<tag k="name" v="Lonebukta" />
		<tag k="natural" v="bay" />
		<tag k="ssr:stedsnr" v="932879" />
	</node>
	<node lat="58.03166944814259" lon="7.276388888270423" id="-31594">
		<tag k="name" v="Kattnes" />
		<tag k="natural" v="cape" />
		<tag k="ssr:stedsnr" v="932965" />
	</node>
	<node lat="58.043536107780284" lon="7.19405832504105" id="-31598">
		<tag k="fixme" v="consider seamark:type=rock or natural=shoal" />
		<tag k="name" v="Kotskjæret" />
		<tag k="place" v="islet" />
		<tag k="ssr:stedsnr" v="932911" />
	</node>
	<node lat="58.044127777014076" lon="7.194011109471132" id="-31599">
		<tag k="name" v="Hepteodden" />
		<tag k="natural" v="cape" />
		<tag k="ssr:stedsnr" v="932912" />
	</node>
	<node lat="58.04990278062473" lon="7.19635000111093" id="-31600">
		<tag k="name" v="Skudenes" />
		<tag k="natural" v="cape" />
		<tag k="ssr:stedsnr" v="932917" />
	</node>
	<node lat="57.98826110956435" lon="7.620188891536924" id="-31621">
		<tag k="name" v="Eggværsund" />
		<tag k="natural" v="strait" />
		<tag k="ssr:stedsnr" v="934350" />
	</node>
	<node lat="58.030158333252494" lon="7.6727416616860085" id="-31624">
		<tag k="name" v="Kaste" />
		<tag k="natural" v="bay" />
		<tag k="ssr:stedsnr" v="934564" />
	</node>
	<node lat="57.997976177280876" lon="7.153038995110227" id="-31636">
		<tag k="name" v="Kvitefluboen" />
		<tag k="place" v="locality" />
		<tag k="seamark:type" v="rock" />
		<tag k="ssr:stedsnr" v="935095" />
	</node>
	<node lat="58.01826666334864" lon="7.405775008548715" id="-31637">
		<tag k="name" v="Nesodden" />
		<tag k="natural" v="cape" />
		<tag k="ssr:stedsnr" v="934999" />
	</node>
	<node lat="57.99049999747129" lon="7.110272228641727" id="-31638">
		<tag k="name" v="Heddkletten" />
		<tag k="natural" v="shoal" />
		<tag k="place" v="locality" />
		<tag k="ssr:stedsnr" v="935013" />
	</node>
	<node lat="58.014461111671615" lon="7.621641669070312" id="-31642">
		<tag k="name" v="Kretturholmen" />
		<tag k="place" v="islet" />
		<tag k="ssr:stedsnr" v="935223" />
	</node>
	<node lat="58.016616662609366" lon="7.614219452058117" id="-31643">
		<tag k="name" v="Buvika" />
		<tag k="natural" v="bay" />
		<tag k="ssr:stedsnr" v="935233" />
	</node>
	<node lat="57.95287777841535" lon="7.478824993072728" id="-31644">
		<tag k="name" v="Ryvinggrunnen" />
		<tag k="natural" v="shoal" />
		<tag k="place" v="locality" />
		<tag k="ssr:stedsnr" v="935359" />
	</node>
	<node lat="57.96510277962159" lon="7.511286114444282" id="-31645">
		<tag k="name" v="Midtfjær" />
		<tag k="natural" v="shoal" />
		<tag k="place" v="locality" />
		<tag k="ssr:stedsnr" v="935361" />
	</node>
	<node lat="58.01921944878526" lon="7.464613887587045" id="-31673">
		<tag k="name" v="Geitevika" />
		<tag k="natural" v="bay" />
		<tag k="ssr:stedsnr" v="905123" />
	</node>
	<node lat="57.99792500241265" lon="7.196019449344306" id="-31691">
		<tag k="alt_name" v="Kiholmen" />
		<tag k="name" v="Kjeholmen" />
		<tag k="place" v="islet" />
		<tag k="ssr:stedsnr" v="910007" />
	</node>
	<node lat="57.99117778102664" lon="7.333786118727068" id="-31692">
		<tag k="name" v="Klubba" />
		<tag k="place" v="islet" />
		<tag k="ssr:stedsnr" v="910010" />
	</node>
	<node lat="58.02720000295393" lon="7.16443611001207" id="-31698">
		<tag k="name" v="Kjeholmen" />
		<tag k="place" v="islet" />
		<tag k="ssr:stedsnr" v="910656" />
	</node>
	<node lat="58.07504722496373" lon="7.1662527742761775" id="-31717">
		<tag k="name" v="Indre Odden" />
		<tag k="natural" v="cape" />
		<tag k="ssr:stedsnr" v="932007" />
	</node>
	<node lat="57.979577775647485" lon="7.215191668538289" id="-31740">
		<tag k="name" v="Østerhavn" />
		<tag k="natural" v="strait" />
		<tag k="ssr:stedsnr" v="932306" />
	</node>
	<node lat="58.009249996022426" lon="7.112969439151443" id="-31743">
		<tag k="name" v="Kalsvikholmen" />
		<tag k="place" v="island" />
		<tag k="ssr:stedsnr" v="932320" />
	</node>
	<node lat="58.04434166921044" lon="7.631752775855983" id="-31801">
		<tag k="name" v="Storeholmen" />
		<tag k="place" v="islet" />
		<tag k="ssr:stedsnr" v="934695" />
	</node>
	<node lat="57.96537499884266" lon="7.5397972215720115" id="-31809">
		<tag k="fixme" v="consider seamark:type=rock or natural=shoal" />
		<tag k="name" v="Mikkelskjær" />
		<tag k="place" v="islet" />
		<tag k="ssr:stedsnr" v="935063" />
	</node>
	<node lat="57.967488891910136" lon="7.5418416686252705" id="-31810">
		<tag k="name" v="Sydostebukta" />
		<tag k="natural" v="bay" />
		<tag k="ssr:stedsnr" v="935071" />
	</node>
	<node lat="58.000463887104694" lon="7.658588890368443" id="-31811">
		<tag k="name" v="Østre Sauodden" />
		<tag k="natural" v="cape" />
		<tag k="ssr:stedsnr" v="935309" />
	</node>
	<node lat="58.00275278108124" lon="7.522136108013947" id="-31813">
		<tag k="name" v="Sundsholmen" />
		<tag k="place" v="islet" />
		<tag k="ssr:stedsnr" v="935434" />
	</node>
	<node lat="58.00204166308496" lon="7.543413895858803" id="-31814">
		<tag k="name" v="Tjeldholmen" />
		<tag k="place" v="islet" />
		<tag k="ssr:stedsnr" v="935437" />
	</node>
	<node lat="58.014413890854" lon="7.442374996222691" id="-31816">
		<tag k="name" v="Stumpodden" />
		<tag k="natural" v="cape" />
		<tag k="ssr:stedsnr" v="935742" />
	</node>
	<node lat="57.99961944616618" lon="7.348566671408624" id="-31817">
		<tag k="name" v="Letterkilen" />
		<tag k="natural" v="bay" />
		<tag k="ssr:stedsnr" v="935806" />
	</node>
	<node lat="57.99985555521554" lon="7.403666669923358" id="-31820">
		<tag k="name" v="Steinsøysundet" />
		<tag k="natural" v="strait" />
		<tag k="ssr:stedsnr" v="935850" />
	</node>
	<node lat="57.998391663318905" lon="7.363747216712896" id="-31821">
		<tag k="name" v="Røyren" />
		<tag k="natural" v="bay" />
		<tag k="ssr:stedsnr" v="935858" />
	</node>
	<node lat="57.99829166862714" lon="7.404758328710672" id="-31822">
		<tag k="name" v="Griserompa" />
		<tag k="natural" v="cape" />
		<tag k="ssr:stedsnr" v="935859" />
	</node>
	<node lat="57.99237778020702" lon="7.43951667373287" id="-31824">
		<tag k="name" v="Østre Dalersbukta" />
		<tag k="natural" v="bay" />
		<tag k="ssr:stedsnr" v="935789" />
	</node>
	<node lat="57.98697778084663" lon="7.544986106408122" id="-31834">
		<tag k="fixme" v="consider seamark:type=rock or natural=shoal" />
		<tag k="name" v="Kollaskjær" />
		<tag k="place" v="islet" />
		<tag k="ssr:stedsnr" v="936109" />
	</node>
	<node lat="58.01973610774769" lon="7.456769439827083" id="-31835">
		<tag k="name" v="Torkelsnot" />
		<tag k="natural" v="cape" />
		<tag k="ssr:stedsnr" v="936115" />
	</node>
	<node lat="58.014644443867674" lon="7.471397228671435" id="-31839">
		<tag k="fixme" v="consider seamark:type=rock or natural=shoal" />
		<tag k="name" v="Ånenskjær" />
		<tag k="place" v="islet" />
		<tag k="ssr:stedsnr" v="936216" />
	</node>
	<node lat="58.03055833405218" lon="7.430852777709246" id="-31843">
		<tag k="name" v="Smalsund" />
		<tag k="natural" v="strait" />
		<tag k="ssr:stedsnr" v="936133" />
	</node>
	<node lat="58.01353055618752" lon="7.501641673834129" id="-31846">
		<tag k="name" v="Standholmen" />
		<tag k="place" v="islet" />
		<tag k="ssr:stedsnr" v="936190" />
	</node>
	<node lat="58.00482221802026" lon="7.517827781012035" id="-31847">
		<tag k="name" v="Smeodden" />
		<tag k="natural" v="cape" />
		<tag k="ssr:stedsnr" v="936199" />
	</node>
	<node lat="58.00492500270808" lon="7.511597214542159" id="-31848">
		<tag k="name" v="Langvika" />
		<tag k="natural" v="bay" />
		<tag k="ssr:stedsnr" v="936200" />
	</node>
	<node lat="58.01942222005303" lon="7.457791662770522" id="-31852">
		<tag k="name" v="Østerland" />
		<tag k="natural" v="cape" />
		<tag k="ssr:stedsnr" v="936741" />
	</node>
	<node lat="57.97492146055588" lon="7.6357114052697685" id="-31854">
		<tag k="alt_name" v="Kneblingskjæran" />
		<tag k="fixme" v="consider seamark:type=rock or natural=shoal" />
		<tag k="name" v="Kneblingskjeran" />
		<tag k="place" v="islet" />
		<tag k="ssr:stedsnr" v="936634" />
	</node>
	<node lat="58.00471666800997" lon="7.430458336043789" id="-31855">
		<tag k="name" v="Teistholman" />
		<tag k="place" v="islet" />
		<tag k="ssr:stedsnr" v="936699" />
	</node>
	<node lat="58.025847224273306" lon="7.111186115814156" id="-31885">
		<tag k="alt_name" v="Høylandskjæret" />
		<tag k="fixme" v="consider seamark:type=rock or natural=shoal" />
		<tag k="name" v="Høylandskjeret" />
		<tag k="place" v="islet" />
		<tag k="ssr:stedsnr" v="964038" />
	</node>
	<node lat="58.01785824405226" lon="7.47633197793368" id="-31889">
		<tag k="name" v="Sauholmen" />
		<tag k="natural" v="cape" />
		<tag k="ssr:stedsnr" v="965102" />
	</node>
	<node lat="58.00885002720555" lon="7.255912558391626" id="-31890">
		<tag k="alt_name" v="Grøningsbåen" />
		<tag k="name" v="Grønningboen" />
		<tag k="natural" v="shoal" />
		<tag k="place" v="locality" />
		<tag k="ssr:stedsnr" v="966205" />
	</node>
	<node lat="58.00293333263397" lon="7.190458325762669" id="-31891">
		<tag k="name" v="Store Havnerøy" />
		<tag k="place" v="island" />
		<tag k="ssr:stedsnr" v="966210" />
	</node>
</osm>
