<?xml version="1.0" encoding="UTF-8"?>
<osm version="0.6" generator="osmapis">
	<node lat="58.29931667005483" lon="7.449633335361129" id="-20040">
		<tag k="alt_name" v="Urevann" />
		<tag k="name" v="Urdevatn" />
		<tag k="natural" v="water" />
		<tag k="ssr:stedsnr" v="844" />
	</node>
	<node lat="58.29169166613488" lon="7.582555554154055" id="-20042">
		<tag k="alt_name" v="Finnsåna" />
		<tag k="name" v="Finså" />
		<tag k="ssr:stedsnr" v="750" />
		<tag k="waterway" v="river" />
	</node>
	<node lat="58.18348055533639" lon="7.430352783771345" id="-20056">
		<tag k="name" v="Hundstjønna" />
		<tag k="natural" v="water" />
		<tag k="ssr:stedsnr" v="21201" />
	</node>
	<node lat="58.227836111041356" lon="7.294969452091058" id="-20062">
		<tag k="name" v="Tjønna" />
		<tag k="natural" v="water" />
		<tag k="ssr:stedsnr" v="21291" />
	</node>
	<node lat="58.38196110789787" lon="7.605422214009257" id="-20072">
		<tag k="name" v="Askebekken" />
		<tag k="ssr:stedsnr" v="22036" />
		<tag k="waterway" v="stream" />
	</node>
	<node lat="58.36735278110312" lon="7.622991659486904" id="-20078">
		<tag k="name" v="Myrbetjønn" />
		<tag k="natural" v="water" />
		<tag k="ssr:stedsnr" v="22090" />
	</node>
	<node lat="58.16915000059581" lon="7.338369436460668" id="-20090">
		<tag k="alt_name" v="Krogetjønn" />
		<tag k="name" v="Krogtjønn" />
		<tag k="natural" v="water" />
		<tag k="ssr:stedsnr" v="22389" />
	</node>
	<node lat="58.219216670592736" lon="7.615980559099647" id="-20095">
		<tag k="name" v="Høyeelva" />
		<tag k="ssr:stedsnr" v="22516" />
		<tag k="waterway" v="river" />
	</node>
	<node lat="58.21814166393189" lon="7.662508337491616" id="-20101">
		<tag k="name" v="Skåretjønn" />
		<tag k="natural" v="water" />
		<tag k="ssr:stedsnr" v="22300" />
	</node>
	<node lat="58.43366944746334" lon="7.523897222130225" id="-20102">
		<tag k="name" v="Breiva" />
		<tag k="place" v="locality" />
		<tag k="ssr:stedsnr" v="22407" />
	</node>
	<node lat="58.160850000550504" lon="7.376336115422554" id="-20116">
		<tag k="name" v="Storebekken" />
		<tag k="ssr:stedsnr" v="22617" />
		<tag k="waterway" v="stream" />
	</node>
	<node lat="58.10528888503482" lon="7.369191662409958" id="-20117">
		<tag k="name" v="Fiskebekken" />
		<tag k="ssr:stedsnr" v="22703" />
		<tag k="waterway" v="stream" />
	</node>
	<node lat="58.10976944843196" lon="7.391122222523359" id="-20119">
		<tag k="name" v="Skårlona" />
		<tag k="natural" v="water" />
		<tag k="ssr:stedsnr" v="22705" />
		<tag k="water" v="lake" />
	</node>
	<node lat="58.164333334350424" lon="7.66756665852581" id="-20122">
		<tag k="name" v="Rønningstjønn" />
		<tag k="natural" v="water" />
		<tag k="ssr:stedsnr" v="22727" />
	</node>
	<node lat="58.07742221907871" lon="7.27446389381849" id="-20123">
		<tag k="name" v="Fisketjønna" />
		<tag k="natural" v="water" />
		<tag k="ssr:stedsnr" v="22798" />
	</node>
	<node lat="58.083841664713965" lon="7.189011118260634" id="-20136">
		<tag k="name" v="Storbekken" />
		<tag k="ssr:stedsnr" v="22893" />
		<tag k="waterway" v="stream" />
	</node>
	<node lat="58.11971388703111" lon="7.242150008181293" id="-20145">
		<tag k="name" v="Breiva" />
		<tag k="natural" v="water" />
		<tag k="ssr:stedsnr" v="22994" />
		<tag k="water" v="lake" />
	</node>
	<node lat="58.055949997691904" lon="7.324886108058768" id="-20155">
		<tag k="name" v="Åletjønna" />
		<tag k="natural" v="water" />
		<tag k="ssr:stedsnr" v="23738" />
	</node>
	<node lat="58.014161107008015" lon="7.557813882726431" id="-20165">
		<tag k="name" v="Tjønna" />
		<tag k="natural" v="water" />
		<tag k="ssr:stedsnr" v="24385" />
	</node>
	<node lat="58.074705559160066" lon="7.564849999337008" id="-20168">
		<tag k="name" v="Hellerlona" />
		<tag k="natural" v="water" />
		<tag k="ssr:stedsnr" v="24588" />
	</node>
	<node lat="58.081688889334295" lon="7.487361116710059" id="-20177">
		<tag k="name" v="Skalletjønn" />
		<tag k="natural" v="water" />
		<tag k="ssr:stedsnr" v="24681" />
	</node>
	<node lat="58.07897500253575" lon="7.484411109521667" id="-20178">
		<tag k="name" v="Tollakstjønn" />
		<tag k="natural" v="water" />
		<tag k="ssr:stedsnr" v="24684" />
	</node>
	<node lat="58.05851667111486" lon="7.391183334215194" id="-20180">
		<tag k="name" v="Lammetjønna" />
		<tag k="natural" v="water" />
		<tag k="ssr:stedsnr" v="24816" />
	</node>
	<node lat="58.12703610807724" lon="7.534702785577671" id="-20186">
		<tag k="name" v="Mikkelshola" />
		<tag k="natural" v="bay" />
		<tag k="ssr:stedsnr" v="24930" />
	</node>
	<node lat="58.079119445501924" lon="7.599544443753179" id="-20195">
		<tag k="name" v="Storbekken" />
		<tag k="ssr:stedsnr" v="24995" />
		<tag k="waterway" v="stream" />
	</node>
	<node lat="58.148547219234565" lon="7.551033328191559" id="-20198">
		<tag k="name" v="Skarprøyshølen" />
		<tag k="place" v="locality" />
		<tag k="ssr:stedsnr" v="24890" />
	</node>
	<node lat="58.042477774366326" lon="7.5642027718634335" id="-20204">
		<tag k="name" v="Roholmen" />
		<tag k="place" v="islet" />
		<tag k="ssr:stedsnr" v="25271" />
	</node>
	<node lat="58.04691666548493" lon="7.526811110237427" id="-20215">
		<tag k="name" v="Teinela" />
		<tag k="natural" v="bay" />
		<tag k="ssr:stedsnr" v="26502" />
	</node>
	<node lat="58.02897500075823" lon="7.5647166721546935" id="-20218">
		<tag k="name" v="Slåteodden" />
		<tag k="natural" v="cape" />
		<tag k="ssr:stedsnr" v="26492" />
	</node>
	<node lat="58.0351000003839" lon="7.648505548148829" id="-20220">
		<tag k="name" v="Ramsetjønn" />
		<tag k="natural" v="water" />
		<tag k="ssr:stedsnr" v="26625" />
	</node>
	<node lat="58.18017500410214" lon="7.306352773594304" id="-20322">
		<tag k="alt_name" v="Risdalsvannet" />
		<tag k="name" v="Risdalsvatnet" />
		<tag k="natural" v="water" />
		<tag k="ssr:stedsnr" v="60426" />
		<tag k="water" v="lake" />
	</node>
	<node lat="58.17392500408048" lon="7.278813893486869" id="-20323">
		<tag k="alt_name" v="Krogvannet" />
		<tag k="name" v="Krokevatnet" />
		<tag k="natural" v="water" />
		<tag k="ssr:stedsnr" v="60472" />
	</node>
	<node lat="58.17978333522883" lon="7.590950005495813" id="-20325">
		<tag k="alt_name" v="Ravnåsvann" />
		<tag k="name" v="Ramnåsvatnet" />
		<tag k="natural" v="water" />
		<tag k="ssr:stedsnr" v="60810" />
	</node>
	<node lat="58.16980278126401" lon="7.477505547184035" id="-20326">
		<tag k="alt_name" v="Stevlevann" />
		<tag k="name" v="Stevlvatnet" />
		<tag k="natural" v="water" />
		<tag k="ssr:stedsnr" v="60819" />
	</node>
	<node lat="57.99457500020348" lon="7.037977785173341" id="-20332">
		<tag k="alt_name" v="Sulebatjønna" />
		<tag k="name" v="Sulebartjerna" />
		<tag k="natural" v="water" />
		<tag k="ssr:stedsnr" v="61011" />
	</node>
	<node lat="58.209730142466555" lon="7.719612889379561" id="-20334">
		<tag k="alt_name" v="Stemtjønn" />
		<tag k="name" v="Stemtjørn" />
		<tag k="natural" v="water" />
		<tag k="ssr:stedsnr" v="61104" />
	</node>
	<node lat="58.23903611366897" lon="7.547750002937372" id="-20340">
		<tag k="alt_name" v="Kvasshammervann" />
		<tag k="name" v="Kvasshamarvatnet" />
		<tag k="natural" v="water" />
		<tag k="ssr:stedsnr" v="61623" />
	</node>
	<node lat="58.13540000345261" lon="7.271127775585637" id="-20341">
		<tag k="alt_name" v="Stilandsvannet" />
		<tag k="name" v="Stilandsvatnet" />
		<tag k="natural" v="water" />
		<tag k="ssr:stedsnr" v="61515" />
	</node>
	<node lat="58.16518889034363" lon="7.509030557965163" id="-20344">
		<tag k="alt_name" v="Josdalsvann" />
		<tag k="name" v="Jorsdalsvatnet" />
		<tag k="natural" v="water" />
		<tag k="ssr:stedsnr" v="61794" />
	</node>
	<node lat="58.37782153924318" lon="7.61345757681881" id="-20347">
		<tag k="alt_name" v="Geitetjønn" />
		<tag k="name" v="Geittjørn" />
		<tag k="natural" v="water" />
		<tag k="ssr:stedsnr" v="61943" />
	</node>
	<node lat="58.09867029333927" lon="7.462144190248398" id="-20352">
		<tag k="alt_name" v="Ljosevannet" />
		<tag k="name" v="Ljosevatnet" />
		<tag k="natural" v="water" />
		<tag k="ssr:stedsnr" v="61825" />
	</node>
	<node lat="58.06999166484276" lon="7.59315277083457" id="-20356">
		<tag k="alt_name" v="Skagestadvannet" />
		<tag k="name" v="Skagestadvatnet" />
		<tag k="natural" v="water" />
		<tag k="ssr:stedsnr" v="61897" />
		<tag k="water" v="lake" />
	</node>
	<node lat="58.31168289074479" lon="7.474964191442604" id="-20367">
		<tag k="alt_name" v="Lammetjønn" />
		<tag k="name" v="Lammetjørn" />
		<tag k="natural" v="water" />
		<tag k="ssr:stedsnr" v="242744" />
	</node>
	<node lat="58.384874997901456" lon="7.4853055550876775" id="-20379">
		<tag k="alt_name" v="Indrejordstjønna" />
		<tag k="name" v="Indrejordstjørni" />
		<tag k="natural" v="water" />
		<tag k="ssr:stedsnr" v="242995" />
	</node>
	<node lat="58.1474083333827" lon="7.275272214524369" id="-20381">
		<tag k="alt_name" v="Døblevannet" />
		<tag k="name" v="Døblevatnet" />
		<tag k="natural" v="water" />
		<tag k="ssr:stedsnr" v="243547" />
	</node>
	<node lat="58.20662777394852" lon="7.245199994289009" id="-20383">
		<tag k="alt_name" v="Langevannet" />
		<tag k="name" v="Langevatnet" />
		<tag k="natural" v="water" />
		<tag k="ssr:stedsnr" v="243412" />
	</node>
	<node lat="58.216300519987975" lon="7.24017504771145" id="-20384">
		<tag k="name" v="Sandtjørn" />
		<tag k="natural" v="water" />
		<tag k="ssr:stedsnr" v="243417" />
	</node>
	<node lat="58.22157222636656" lon="7.337994437691158" id="-20385">
		<tag k="alt_name" v="Audnedalselva" />
		<tag k="name" v="Audna" />
		<tag k="ssr:stedsnr" v="243429" />
		<tag k="waterway" v="river" />
	</node>
	<node lat="58.0648777805575" lon="7.257991668048556" id="-20389">
		<tag k="alt_name" v="Mågevannet" />
		<tag k="name" v="Mågetjern" />
		<tag k="natural" v="water" />
		<tag k="ssr:stedsnr" v="243578" />
	</node>
	<node lat="58.23428055750792" lon="7.436325007904008" id="-20391">
		<tag k="alt_name" v="Stokkevannet" />
		<tag k="name" v="Stokkevatnet" />
		<tag k="natural" v="water" />
		<tag k="ssr:stedsnr" v="243658" />
	</node>
	<node lat="58.19156111013276" lon="7.618924996244124" id="-20399">
		<tag k="alt_name" v="Stemtjønn" />
		<tag k="name" v="Stemmetjørna" />
		<tag k="natural" v="water" />
		<tag k="ssr:stedsnr" v="243722" />
	</node>
	<node lat="58.169752777752464" lon="7.422433337271082" id="-20400">
		<tag k="alt_name" v="Tjomslandsvannet" />
		<tag k="name" v="Tjomslandsvatnet" />
		<tag k="natural" v="water" />
		<tag k="ssr:stedsnr" v="243798" />
		<tag k="water" v="lake" />
	</node>
	<node lat="58.09789166843666" lon="7.58919167256507" id="-20405">
		<tag k="alt_name" v="Krogevannet" />
		<tag k="name" v="Krokvatnet" />
		<tag k="natural" v="water" />
		<tag k="ssr:stedsnr" v="243812" />
	</node>
	<node lat="58.093849997435804" lon="7.438199999502064" id="-20409">
		<tag k="alt_name" v="Møglandsvannet" />
		<tag k="name" v="Møglandsvatnet" />
		<tag k="natural" v="water" />
		<tag k="ssr:stedsnr" v="243829" />
		<tag k="water" v="lake" />
	</node>
	<node lat="58.41720277716721" lon="7.564038892970195" id="-20412">
		<tag k="alt_name" v="Jørensvatn" />
		<tag k="name" v="Jorunstjørn" />
		<tag k="natural" v="water" />
		<tag k="ssr:stedsnr" v="243878" />
	</node>
	<node lat="58.06934999897207" lon="7.398049992388955" id="-20416">
		<tag k="alt_name" v="Stuvannet" />
		<tag k="name" v="Stuvvatnet" />
		<tag k="natural" v="water" />
		<tag k="ssr:stedsnr" v="243905" />
	</node>
	<node lat="58.06246111348845" lon="7.376855561870875" id="-20417">
		<tag k="alt_name" v="Hegrestadvannet" />
		<tag k="name" v="Hegrestadvatnet" />
		<tag k="natural" v="water" />
		<tag k="ssr:stedsnr" v="243908" />
	</node>
	<node lat="58.02510555341903" lon="7.494500008146312" id="-20418">
		<tag k="alt_name" v="Stovetjønna" />
		<tag k="name" v="Jordtjørna" />
		<tag k="natural" v="water" />
		<tag k="ssr:stedsnr" v="243961" />
	</node>
	<node lat="58.446558331265464" lon="7.6295444472288425" id="-20423">
		<tag k="alt_name" v="Stemlona" />
		<tag k="name" v="Stemmeloni" />
		<tag k="natural" v="water" />
		<tag k="ssr:stedsnr" v="243920" />
		<tag k="water" v="lake" />
	</node>
	<node lat="58.44903481029914" lon="7.626088431734715" id="-20424">
		<tag k="alt_name" v="Knibetjønn" />
		<tag k="name" v="Kjærtjørn" />
		<tag k="natural" v="water" />
		<tag k="ssr:stedsnr" v="243921" />
	</node>
	<node lat="58.22706111347584" lon="7.296916664288882" id="-20443">
		<tag k="name" v="Rosseneset" />
		<tag k="natural" v="cape" />
		<tag k="ssr:stedsnr" v="82228" />
	</node>
	<node lat="58.143741664114415" lon="7.5918611058931225" id="-20464">
		<tag k="name" v="Kresjerstjønn" />
		<tag k="natural" v="water" />
		<tag k="ssr:stedsnr" v="83239" />
	</node>
	<node lat="58.14037777519508" lon="7.6052749938396875" id="-20466">
		<tag k="name" v="Homevann" />
		<tag k="natural" v="water" />
		<tag k="ssr:stedsnr" v="83242" />
		<tag k="water" v="lake" />
	</node>
	<node lat="58.17082222416585" lon="7.3288166648468005" id="-20475">
		<tag k="name" v="Stølstjønn" />
		<tag k="natural" v="water" />
		<tag k="ssr:stedsnr" v="83409" />
	</node>
	<node lat="58.129447221859884" lon="7.420616673030728" id="-20479">
		<tag k="name" v="Sandvannsbekken" />
		<tag k="ssr:stedsnr" v="83437" />
		<tag k="waterway" v="stream" />
	</node>
	<node lat="58.12960555689808" lon="7.453541663767241" id="-20480">
		<tag k="name" v="Åsetjønna" />
		<tag k="natural" v="water" />
		<tag k="ssr:stedsnr" v="83438" />
	</node>
	<node lat="58.288599997837274" lon="7.4060833332671425" id="-20487">
		<tag k="name" v="Sveinebekk" />
		<tag k="ssr:stedsnr" v="83307" />
		<tag k="waterway" v="stream" />
	</node>
	<node lat="58.27736111390024" lon="7.4769277819668725" id="-20491">
		<tag k="name" v="Tjovetjønn" />
		<tag k="natural" v="water" />
		<tag k="ssr:stedsnr" v="83336" />
	</node>
	<node lat="57.99573333498819" lon="7.074488896848882" id="-20499">
		<tag k="name" v="Tangebukta" />
		<tag k="natural" v="bay" />
		<tag k="ssr:stedsnr" v="83388" />
	</node>
	<node lat="58.143297220554004" lon="7.366436105178568" id="-20500">
		<tag k="name" v="Gaupefossen" />
		<tag k="natural" v="waterfall" />
		<tag k="ssr:stedsnr" v="83395" />
	</node>
	<node lat="58.16527777534478" lon="7.341758336656411" id="-20508">
		<tag k="name" v="Rasmuspaulen" />
		<tag k="natural" v="water" />
		<tag k="ssr:stedsnr" v="83487" />
	</node>
	<node lat="58.158827780381245" lon="7.399180553915422" id="-20509">
		<tag k="name" v="Svartetjønna" />
		<tag k="natural" v="water" />
		<tag k="ssr:stedsnr" v="83605" />
	</node>
	<node lat="58.07692777450779" lon="7.309183328002617" id="-20514">
		<tag k="name" v="Kiddelsbekken" />
		<tag k="ssr:stedsnr" v="83637" />
		<tag k="waterway" v="stream" />
	</node>
	<node lat="58.13629721822092" lon="7.267052783074908" id="-20527">
		<tag k="name" v="Stemlon" />
		<tag k="natural" v="water" />
		<tag k="ssr:stedsnr" v="83835" />
	</node>
	<node lat="58.226408334894224" lon="7.6193666711465" id="-20529">
		<tag k="name" v="Åsehølen" />
		<tag k="place" v="locality" />
		<tag k="ssr:stedsnr" v="83530" />
	</node>
	<node lat="58.16494166918195" lon="7.396377769503267" id="-20530">
		<tag k="name" v="Tjomslandsbekken" />
		<tag k="ssr:stedsnr" v="83587" />
		<tag k="waterway" v="stream" />
	</node>
	<node lat="58.15348055136156" lon="7.331011109053862" id="-20533">
		<tag k="name" v="Møgedalsodden" />
		<tag k="place" v="island" />
		<tag k="ssr:stedsnr" v="83598" />
	</node>
	<node lat="58.199172221640275" lon="7.663855552816673" id="-20534">
		<tag k="name" v="Styggetjønn" />
		<tag k="natural" v="water" />
		<tag k="ssr:stedsnr" v="83702" />
	</node>
	<node lat="58.11838889287898" lon="7.376569439885376" id="-20536">
		<tag k="name" v="Langetjønna" />
		<tag k="natural" v="water" />
		<tag k="ssr:stedsnr" v="83704" />
	</node>
	<node lat="58.155330556111565" lon="7.693019440374512" id="-20537">
		<tag k="name" v="Vårkilen" />
		<tag k="natural" v="bay" />
		<tag k="ssr:stedsnr" v="83705" />
	</node>
	<node lat="58.16486389082564" lon="7.703052785544774" id="-20539">
		<tag k="name" v="Spjottjønn" />
		<tag k="natural" v="water" />
		<tag k="ssr:stedsnr" v="83708" />
	</node>
	<node lat="58.104691666647426" lon="7.37777500415254" id="-20543">
		<tag k="name" v="Tjønna" />
		<tag k="natural" v="water" />
		<tag k="ssr:stedsnr" v="83716" />
	</node>
	<node lat="58.10897778221031" lon="7.384077774112736" id="-20544">
		<tag k="name" v="Skårvannet" />
		<tag k="natural" v="water" />
		<tag k="ssr:stedsnr" v="83720" />
		<tag k="water" v="lake" />
	</node>
	<node lat="58.1524916708337" lon="7.642861113018677" id="-20546">
		<tag k="name" v="Lille Tvitjønn" />
		<tag k="natural" v="water" />
		<tag k="ssr:stedsnr" v="83732" />
	</node>
	<node lat="58.1539388872337" lon="7.639411119200848" id="-20547">
		<tag k="name" v="Fosstjønn" />
		<tag k="natural" v="water" />
		<tag k="ssr:stedsnr" v="83733" />
	</node>
	<node lat="58.04997500343925" lon="7.329913889507845" id="-20548">
		<tag k="name" v="Longevann" />
		<tag k="natural" v="water" />
		<tag k="ssr:stedsnr" v="83735" />
		<tag k="water" v="lake" />
	</node>
	<node lat="58.21329722607903" lon="7.60828055411556" id="-20554">
		<tag k="name" v="Tømmerkilen" />
		<tag k="natural" v="bay" />
		<tag k="ssr:stedsnr" v="83932" />
	</node>
	<node lat="58.208425000685736" lon="7.621144438462327" id="-20555">
		<tag k="name" v="Leirkilen" />
		<tag k="natural" v="bay" />
		<tag k="ssr:stedsnr" v="83934" />
	</node>
	<node lat="58.153247224167224" lon="7.562177769911705" id="-20556">
		<tag k="name" v="Skaptet" />
		<tag k="natural" v="water" />
		<tag k="ssr:stedsnr" v="83981" />
		<tag k="water" v="lake" />
	</node>
	<node lat="58.112038886620766" lon="7.501538896400239" id="-20570">
		<tag k="name" v="Furomstjønn" />
		<tag k="natural" v="water" />
		<tag k="ssr:stedsnr" v="85405" />
	</node>
	<node lat="58.11668889025384" lon="7.451319439745936" id="-20573">
		<tag k="name" v="Mjåvannet" />
		<tag k="natural" v="water" />
		<tag k="ssr:stedsnr" v="85662" />
		<tag k="water" v="lake" />
	</node>
	<node lat="58.079441669373445" lon="7.566891662007192" id="-20575">
		<tag k="name" v="Kolbjørnstjønna" />
		<tag k="natural" v="water" />
		<tag k="ssr:stedsnr" v="85502" />
	</node>
	<node lat="58.12430000348822" lon="7.532511103114048" id="-20592">
		<tag k="name" v="Øya" />
		<tag k="place" v="island" />
		<tag k="ssr:stedsnr" v="85914" />
	</node>
	<node lat="58.04082222518498" lon="7.555572216662197" id="-20600">
		<tag k="name" v="Dybobukta" />
		<tag k="natural" v="bay" />
		<tag k="ssr:stedsnr" v="86436" />
	</node>
	<node lat="58.227791664831074" lon="7.270250008216976" id="-20655">
		<tag k="alt_name" v="Sandvannet" />
		<tag k="name" v="Sandvatnet" />
		<tag k="natural" v="water" />
		<tag k="ssr:stedsnr" v="121413" />
	</node>
	<node lat="58.11070833179114" lon="7.2821361161004825" id="-20656">
		<tag k="alt_name" v="Store Faksevann" />
		<tag k="name" v="Faksevatnet" />
		<tag k="natural" v="water" />
		<tag k="ssr:stedsnr" v="121511" />
	</node>
	<node lat="58.46363888856114" lon="7.540438883011872" id="-20658">
		<tag k="alt_name" v="Hestebekk" />
		<tag k="name" v="Hestbekken" />
		<tag k="ssr:stedsnr" v="121570" />
		<tag k="waterway" v="stream" />
	</node>
	<node lat="58.19109999922487" lon="7.684866661435768" id="-20664">
		<tag k="alt_name" v="Mjåvann" />
		<tag k="name" v="Mjåvatn" />
		<tag k="natural" v="water" />
		<tag k="ssr:stedsnr" v="121715" />
	</node>
	<node lat="58.2323888918663" lon="7.452036112296922" id="-20666">
		<tag k="alt_name" v="Sandvannet" />
		<tag k="name" v="Sandvatnet" />
		<tag k="natural" v="water" />
		<tag k="ssr:stedsnr" v="121722" />
		<tag k="water" v="lake" />
	</node>
	<node lat="58.064824998161875" lon="7.487249998552205" id="-20676">
		<tag k="name" v="Sodelandsbekken" />
		<tag k="ssr:stedsnr" v="121907" />
		<tag k="waterway" v="stream" />
	</node>
	<node lat="58.0361031372715" lon="7.609381311992483" id="-20681">
		<tag k="alt_name" v="Osnesvannet" />
		<tag k="name" v="Osnesvatnet" />
		<tag k="natural" v="water" />
		<tag k="ssr:stedsnr" v="121968" />
	</node>
	<node lat="58.03929722491534" lon="7.565358334275046" id="-20686">
		<tag k="alt_name" v="Dybovannet" />
		<tag k="name" v="Djubovatnet" />
		<tag k="natural" v="water" />
		<tag k="ssr:stedsnr" v="121980" />
		<tag k="water" v="lake" />
	</node>
	<node lat="58.43062777482116" lon="7.515538888101831" id="-20690">
		<tag k="alt_name" v="Fossetjønnan" />
		<tag k="name" v="Fosstjørn" />
		<tag k="natural" v="water" />
		<tag k="ssr:stedsnr" v="121879" />
	</node>
	<node lat="58.203366665782774" lon="7.311261104163888" id="-20703">
		<tag k="name" v="Mjåvannet" />
		<tag k="natural" v="water" />
		<tag k="ssr:stedsnr" v="142312" />
		<tag k="water" v="lake" />
	</node>
	<node lat="58.18373055130391" lon="7.614655554248961" id="-20708">
		<tag k="name" v="Måsetjønn" />
		<tag k="natural" v="water" />
		<tag k="ssr:stedsnr" v="143010" />
	</node>
	<node lat="58.2233750012836" lon="7.410236107077015" id="-20724">
		<tag k="name" v="Kjeddingsvannet" />
		<tag k="natural" v="water" />
		<tag k="ssr:stedsnr" v="143281" />
		<tag k="water" v="lake" />
	</node>
	<node lat="58.18261666977408" lon="7.307255551094123" id="-20728">
		<tag k="name" v="Brannsnesbukta" />
		<tag k="natural" v="bay" />
		<tag k="ssr:stedsnr" v="143403" />
	</node>
	<node lat="58.425513891992765" lon="7.534291673158783" id="-20732">
		<tag k="name" v="Eikenesan" />
		<tag k="natural" v="cape" />
		<tag k="ssr:stedsnr" v="143431" />
	</node>
	<node lat="58.40748888822547" lon="7.529852779398643" id="-20735">
		<tag k="name" v="Sundskilen" />
		<tag k="natural" v="bay" />
		<tag k="ssr:stedsnr" v="143439" />
	</node>
	<node lat="58.15531944889242" lon="7.404672220642793" id="-20744">
		<tag k="name" v="Mjåvannet" />
		<tag k="natural" v="water" />
		<tag k="ssr:stedsnr" v="143615" />
		<tag k="water" v="lake" />
	</node>
	<node lat="58.06171013654412" lon="7.33386456425834" id="-20750">
		<tag k="name" v="Krokevannet" />
		<tag k="natural" v="water" />
		<tag k="ssr:stedsnr" v="143642" />
		<tag k="water" v="lake" />
	</node>
	<node lat="58.23369166845797" lon="7.610866661017894" id="-20756">
		<tag k="name" v="Valleslåttjønn" />
		<tag k="natural" v="water" />
		<tag k="ssr:stedsnr" v="143540" />
	</node>
	<node lat="58.10499444864773" lon="7.31982222286996" id="-20765">
		<tag k="name" v="Hogsåna" />
		<tag k="ssr:stedsnr" v="143683" />
		<tag k="waterway" v="stream" />
	</node>
	<node lat="58.14370833134366" lon="7.274533327817979" id="-20770">
		<tag k="name" v="Skogkumstjønn" />
		<tag k="natural" v="water" />
		<tag k="ssr:stedsnr" v="143811" />
	</node>
	<node lat="58.15857222279316" lon="7.512344437334805" id="-20772">
		<tag k="name" v="Svartelona" />
		<tag k="natural" v="water" />
		<tag k="ssr:stedsnr" v="143832" />
	</node>
	<node lat="58.07496388559705" lon="7.253044443435173" id="-20780">
		<tag k="name" v="Stoa" />
		<tag k="natural" v="bay" />
		<tag k="ssr:stedsnr" v="143783" />
	</node>
	<node lat="58.101524998628975" lon="7.187024995420526" id="-20783">
		<tag k="name" v="Havelandstjønna" />
		<tag k="natural" v="water" />
		<tag k="ssr:stedsnr" v="143910" />
	</node>
	<node lat="58.277972225102495" lon="7.471686111889017" id="-20792">
		<tag k="name" v="Nertjønn" />
		<tag k="natural" v="water" />
		<tag k="ssr:stedsnr" v="144364" />
	</node>
	<node lat="58.01856944764049" lon="7.561805555423577" id="-20801">
		<tag k="name" v="Østre Vassbotten" />
		<tag k="natural" v="bay" />
		<tag k="ssr:stedsnr" v="145379" />
	</node>
	<node lat="58.037284777086775" lon="7.613621815484134" id="-20843">
		<tag k="name" v="Myranstjønna" />
		<tag k="natural" v="water" />
		<tag k="ssr:stedsnr" v="147313" />
	</node>
	<node lat="58.20332858875583" lon="7.29195403449229" id="-20902">
		<tag k="alt_name" v="Lelandsvannet" />
		<tag k="name" v="Lelandsvatnet" />
		<tag k="natural" v="water" />
		<tag k="ssr:stedsnr" v="182403" />
		<tag k="water" v="lake" />
	</node>
	<node lat="58.18281667023421" lon="7.258825002671996" id="-20903">
		<tag k="alt_name" v="Mjåvannet" />
		<tag k="name" v="Mjåvatnet" />
		<tag k="natural" v="water" />
		<tag k="ssr:stedsnr" v="182434" />
	</node>
	<node lat="58.18959722385646" lon="7.5102611183550065" id="-20911">
		<tag k="alt_name" v="Grimestadbekken" />
		<tag k="name" v="Grimstadbekken" />
		<tag k="ssr:stedsnr" v="182704" />
		<tag k="waterway" v="stream" />
	</node>
	<node lat="58.181205555176746" lon="7.45965277284405" id="-20912">
		<tag k="alt_name" v="Galtevann" />
		<tag k="name" v="Galtevatnet" />
		<tag k="natural" v="water" />
		<tag k="ssr:stedsnr" v="182695" />
	</node>
	<node lat="58.19037500438906" lon="7.668366660550655" id="-20913">
		<tag k="alt_name" v="Kringlevann" />
		<tag k="name" v="Kringlevatnet" />
		<tag k="natural" v="water" />
		<tag k="ssr:stedsnr" v="182701" />
	</node>
	<node lat="58.11834166446617" lon="7.462825007585696" id="-20917">
		<tag k="alt_name" v="Holbekkstjønn" />
		<tag k="name" v="Holbekktjørna" />
		<tag k="natural" v="water" />
		<tag k="ssr:stedsnr" v="182854" />
	</node>
	<node lat="58.07616666826359" lon="7.3945555612970075" id="-20923">
		<tag k="alt_name" v="Utjordsvannet" />
		<tag k="name" v="Utjordsvatnet" />
		<tag k="natural" v="water" />
		<tag k="ssr:stedsnr" v="182921" />
	</node>
	<node lat="58.13871388534319" lon="7.405124992615466" id="-20930">
		<tag k="name" v="Skuretjønna" />
		<tag k="natural" v="water" />
		<tag k="ssr:stedsnr" v="264397" />
	</node>
	<node lat="58.12515555836159" lon="7.429191669914358" id="-20935">
		<tag k="name" v="Søylevannet" />
		<tag k="natural" v="water" />
		<tag k="ssr:stedsnr" v="264135" />
		<tag k="water" v="lake" />
	</node>
	<node lat="58.13112222156839" lon="7.267602780079586" id="-20956">
		<tag k="name" v="Vollebekken" />
		<tag k="ssr:stedsnr" v="264831" />
		<tag k="waterway" v="stream" />
	</node>
	<node lat="58.06142221819211" lon="7.283874998476856" id="-20959">
		<tag k="name" v="Rødbergsøya" />
		<tag k="place" v="island" />
		<tag k="ssr:stedsnr" v="265952" />
	</node>
	<node lat="58.19084444707478" lon="7.293916669434113" id="-20968">
		<tag k="name" v="Fanteholmen" />
		<tag k="place" v="islet" />
		<tag k="ssr:stedsnr" v="264666" />
	</node>
	<node lat="58.09333055484906" lon="7.258508325888638" id="-20971">
		<tag k="name" v="Haugenestjønn" />
		<tag k="natural" v="water" />
		<tag k="ssr:stedsnr" v="264857" />
	</node>
	<node lat="58.150691662647546" lon="7.653191666777041" id="-20973">
		<tag k="name" v="Fosstjønn" />
		<tag k="natural" v="water" />
		<tag k="ssr:stedsnr" v="265758" />
	</node>
	<node lat="58.25913610893715" lon="7.551069438352108" id="-20975">
		<tag k="name" v="Småtjønnane" />
		<tag k="natural" v="water" />
		<tag k="ssr:stedsnr" v="265763" />
		<tag k="water" v="lake" />
	</node>
	<node lat="58.122697221791874" lon="7.312686105038776" id="-20976">
		<tag k="name" v="Morvannet" />
		<tag k="natural" v="water" />
		<tag k="ssr:stedsnr" v="265768" />
		<tag k="water" v="lake" />
	</node>
	<node lat="58.209127775518006" lon="7.4612055491642515" id="-20989">
		<tag k="name" v="Tosketjønn" />
		<tag k="natural" v="water" />
		<tag k="ssr:stedsnr" v="265856" />
	</node>
	<node lat="58.40649166732669" lon="7.651669448839712" id="-20995">
		<tag k="name" v="Bjortjønn" />
		<tag k="natural" v="water" />
		<tag k="ssr:stedsnr" v="265062" />
	</node>
	<node lat="58.380544444019726" lon="7.43811388255389" id="-21003">
		<tag k="name" v="Orlogstjønn" />
		<tag k="natural" v="water" />
		<tag k="ssr:stedsnr" v="265158" />
	</node>
	<node lat="58.32792777571647" lon="7.521513885760575" id="-21013">
		<tag k="name" v="Katteneset" />
		<tag k="natural" v="cape" />
		<tag k="ssr:stedsnr" v="265272" />
	</node>
	<node lat="58.385058334509225" lon="7.598774992280437" id="-21015">
		<tag k="name" v="Kolandsbekken" />
		<tag k="ssr:stedsnr" v="265030" />
		<tag k="waterway" v="stream" />
	</node>
	<node lat="58.31965277573418" lon="7.517247230361753" id="-21023">
		<tag k="name" v="Badstukilen" />
		<tag k="natural" v="bay" />
		<tag k="ssr:stedsnr" v="265289" />
	</node>
	<node lat="58.21854999922741" lon="7.689588895124535" id="-21041">
		<tag k="name" v="Ytre Blakstjønn" />
		<tag k="natural" v="water" />
		<tag k="ssr:stedsnr" v="265338" />
	</node>
	<node lat="58.21775277832109" lon="7.682755558278117" id="-21042">
		<tag k="name" v="Lavåsstø" />
		<tag k="natural" v="bay" />
		<tag k="ssr:stedsnr" v="265340" />
	</node>
	<node lat="58.22189722177869" lon="7.668952784120969" id="-21045">
		<tag k="name" v="Hestesundet" />
		<tag k="natural" v="strait" />
		<tag k="ssr:stedsnr" v="265346" />
	</node>
	<node lat="58.12765277455612" lon="7.361944451879019" id="-21064">
		<tag k="name" v="Regevigsbekken" />
		<tag k="ssr:stedsnr" v="265599" />
		<tag k="waterway" v="stream" />
	</node>
	<node lat="58.25288888667931" lon="7.450147224566335" id="-21071">
		<tag k="name" v="Bertordalsbukta" />
		<tag k="natural" v="bay" />
		<tag k="ssr:stedsnr" v="265476" />
	</node>
	<node lat="58.22536110713638" lon="7.643397225676414" id="-21082">
		<tag k="name" v="Perstjønn" />
		<tag k="natural" v="water" />
		<tag k="ssr:stedsnr" v="265666" />
	</node>
	<node lat="58.130188886679335" lon="7.500952784191143" id="-21090">
		<tag k="name" v="Surtetjønn" />
		<tag k="natural" v="water" />
		<tag k="ssr:stedsnr" v="267461" />
	</node>
	<node lat="58.20887500140281" lon="7.574750007924581" id="-21091">
		<tag k="name" v="Kattetjønn" />
		<tag k="natural" v="water" />
		<tag k="ssr:stedsnr" v="265930" />
	</node>
	<node lat="58.199149998304236" lon="7.575194438737802" id="-21092">
		<tag k="name" v="Rotjønn" />
		<tag k="natural" v="water" />
		<tag k="ssr:stedsnr" v="265933" />
	</node>
	<node lat="58.100047223300514" lon="7.474347227007567" id="-21108">
		<tag k="name" v="Grøssbrokktjønna" />
		<tag k="natural" v="water" />
		<tag k="ssr:stedsnr" v="267482" />
	</node>
	<node lat="58.05466666595816" lon="7.633111117889596" id="-21115">
		<tag k="name" v="Røyselandstjønna" />
		<tag k="natural" v="water" />
		<tag k="ssr:stedsnr" v="267593" />
	</node>
	<node lat="58.10233602174347" lon="7.453377255985903" id="-21119">
		<tag k="name" v="Skrøvjetjønna" />
		<tag k="natural" v="water" />
		<tag k="ssr:stedsnr" v="267697" />
	</node>
	<node lat="58.06196110706856" lon="7.162366664169883" id="-21122">
		<tag k="name" v="Vålandstjønna" />
		<tag k="natural" v="water" />
		<tag k="ssr:stedsnr" v="203029" />
	</node>
	<node lat="58.068680554392" lon="7.2072388862655" id="-21124">
		<tag k="name" v="Gåsesteintjønna" />
		<tag k="natural" v="water" />
		<tag k="ssr:stedsnr" v="203042" />
	</node>
	<node lat="58.103891666823316" lon="7.627880561152704" id="-21126">
		<tag k="name" v="Hellersheitjønn" />
		<tag k="natural" v="water" />
		<tag k="ssr:stedsnr" v="267744" />
	</node>
	<node lat="58.0788805520532" lon="7.637530562731869" id="-21127">
		<tag k="name" v="Naudevaet" />
		<tag k="place" v="locality" />
		<tag k="ssr:stedsnr" v="267747" />
	</node>
	<node lat="58.0213611149938" lon="7.0919666638570735" id="-21128">
		<tag k="name" v="Mågeholmen" />
		<tag k="natural" v="cape" />
		<tag k="ssr:stedsnr" v="203107" />
	</node>
	<node lat="58.0440527781021" lon="7.374466668336318" id="-21148">
		<tag k="name" v="Prestehov" />
		<tag k="natural" v="cape" />
		<tag k="ssr:stedsnr" v="267752" />
	</node>
	<node lat="58.04050833483582" lon="7.352199991770387" id="-21152">
		<tag k="name" v="Lundetjønna" />
		<tag k="natural" v="water" />
		<tag k="ssr:stedsnr" v="267766" />
	</node>
	<node lat="58.38123333296858" lon="7.422925003715214" id="-21161">
		<tag k="name" v="Sauehylen" />
		<tag k="place" v="locality" />
		<tag k="ssr:stedsnr" v="204107" />
	</node>
	<node lat="58.00224166991157" lon="7.510444446901635" id="-21164">
		<tag k="name" v="Nordre Tjønna" />
		<tag k="natural" v="water" />
		<tag k="ssr:stedsnr" v="268021" />
	</node>
	<node lat="58.16470555782976" lon="7.466730557114706" id="-21171">
		<tag k="name" v="Mjåvann" />
		<tag k="natural" v="water" />
		<tag k="ssr:stedsnr" v="204088" />
		<tag k="water" v="lake" />
	</node>
	<node lat="58.143316668677784" lon="7.5943361045558655" id="-21175">
		<tag k="name" v="Bjortjønn" />
		<tag k="natural" v="water" />
		<tag k="ssr:stedsnr" v="204202" />
	</node>
	<node lat="58.09198333206967" lon="7.472961103812982" id="-21177">
		<tag k="name" v="Nordtjønna" />
		<tag k="natural" v="water" />
		<tag k="ssr:stedsnr" v="267954" />
	</node>
	<node lat="58.40398611277578" lon="7.506458329066697" id="-21181">
		<tag k="name" v="Tangen" />
		<tag k="natural" v="cape" />
		<tag k="ssr:stedsnr" v="204302" />
	</node>
	<node lat="58.32762777775299" lon="7.462861116609257" id="-21183">
		<tag k="name" v="Lonen" />
		<tag k="natural" v="water" />
		<tag k="ssr:stedsnr" v="204304" />
		<tag k="water" v="lake" />
	</node>
	<node lat="58.455833332560196" lon="7.553030554814963" id="-21184">
		<tag k="name" v="Midtre Gytjønn" />
		<tag k="natural" v="water" />
		<tag k="ssr:stedsnr" v="204356" />
	</node>
	<node lat="58.44368889165089" lon="7.512969441182592" id="-21187">
		<tag k="name" v="Hommeneset" />
		<tag k="natural" v="cape" />
		<tag k="ssr:stedsnr" v="204361" />
	</node>
	<node lat="58.44887222660712" lon="7.585911109166224" id="-21189">
		<tag k="name" v="Myglevann" />
		<tag k="natural" v="water" />
		<tag k="ssr:stedsnr" v="204370" />
		<tag k="water" v="lake" />
	</node>
	<node lat="58.099847222603096" lon="7.379552784824466" id="-21201">
		<tag k="name" v="Langeholmen" />
		<tag k="place" v="islet" />
		<tag k="ssr:stedsnr" v="204513" />
	</node>
	<node lat="58.1308194413912" lon="7.524547229362204" id="-21203">
		<tag k="name" v="Smelandsstemmen" />
		<tag k="natural" v="water" />
		<tag k="ssr:stedsnr" v="267970" />
	</node>
	<node lat="58.18841389326002" lon="7.449880562180898" id="-21211">
		<tag k="name" v="Igletjønn" />
		<tag k="natural" v="water" />
		<tag k="ssr:stedsnr" v="204430" />
	</node>
	<node lat="58.27315278051584" lon="7.5297166626468925" id="-21214">
		<tag k="name" v="Fagertjønn" />
		<tag k="natural" v="water" />
		<tag k="ssr:stedsnr" v="204452" />
	</node>
	<node lat="58.173249999648505" lon="7.265313888188716" id="-21220">
		<tag k="name" v="Åltjønn" />
		<tag k="natural" v="water" />
		<tag k="ssr:stedsnr" v="204600" />
	</node>
	<node lat="58.134191666740904" lon="7.294622218608821" id="-21225">
		<tag k="name" v="Stemman" />
		<tag k="natural" v="water" />
		<tag k="ssr:stedsnr" v="204794" />
	</node>
	<node lat="58.10537777646879" lon="7.182047214599021" id="-21227">
		<tag k="name" v="Migeren" />
		<tag k="ssr:stedsnr" v="204906" />
		<tag k="waterway" v="stream" />
	</node>
	<node lat="58.195905559638526" lon="7.531211110088015" id="-21230">
		<tag k="name" v="Toppøy" />
		<tag k="place" v="islet" />
		<tag k="ssr:stedsnr" v="204917" />
	</node>
	<node lat="58.19834166480319" lon="7.532169442149132" id="-21231">
		<tag k="name" v="Regevika" />
		<tag k="natural" v="bay" />
		<tag k="ssr:stedsnr" v="204921" />
	</node>
	<node lat="58.20326944025324" lon="7.572933341713557" id="-21235">
		<tag k="name" v="Poddetjønn" />
		<tag k="natural" v="water" />
		<tag k="ssr:stedsnr" v="204939" />
	</node>
	<node lat="58.046644447411616" lon="7.216244449631008" id="-21236">
		<tag k="name" v="Storetjønna" />
		<tag k="natural" v="water" />
		<tag k="ssr:stedsnr" v="204940" />
	</node>
	<node lat="58.200497224693834" lon="7.581236112865624" id="-21237">
		<tag k="name" v="Illjerstjønn" />
		<tag k="natural" v="water" />
		<tag k="ssr:stedsnr" v="204941" />
	</node>
	<node lat="58.127722222528725" lon="7.257788888200219" id="-21241">
		<tag k="name" v="Lonan" />
		<tag k="natural" v="water" />
		<tag k="ssr:stedsnr" v="204808" />
		<tag k="water" v="lake" />
	</node>
	<node lat="58.19622643576913" lon="7.49565653073471" id="-21245">
		<tag k="name" v="Kårstjønn" />
		<tag k="natural" v="water" />
		<tag k="ssr:stedsnr" v="204844" />
	</node>
	<node lat="58.072277781053884" lon="7.380461112597309" id="-21261">
		<tag k="name" v="Drågtjønna" />
		<tag k="natural" v="water" />
		<tag k="ssr:stedsnr" v="205743" />
	</node>
	<node lat="58.19212221774258" lon="7.638524997148896" id="-21262">
		<tag k="name" v="Nordre Pottjønn" />
		<tag k="natural" v="water" />
		<tag k="ssr:stedsnr" v="205686" />
	</node>
	<node lat="58.18726388747385" lon="7.624130549921783" id="-21263">
		<tag k="name" v="Sautjønn" />
		<tag k="natural" v="water" />
		<tag k="ssr:stedsnr" v="205690" />
	</node>
	<node lat="58.240194445158046" lon="7.49215278029348" id="-21265">
		<tag k="name" v="Koltjønn" />
		<tag k="natural" v="water" />
		<tag k="ssr:stedsnr" v="205811" />
	</node>
	<node lat="58.0347833338712" lon="7.558877770139749" id="-21274">
		<tag k="name" v="Florsbukta" />
		<tag k="natural" v="bay" />
		<tag k="ssr:stedsnr" v="268446" />
	</node>
	<node lat="58.09043888852837" lon="7.428763889289408" id="-21287">
		<tag k="name" v="Nesetjønna" />
		<tag k="natural" v="bay" />
		<tag k="ssr:stedsnr" v="206726" />
	</node>
	<node lat="58.043438887581424" lon="7.459844441137135" id="-21309">
		<tag k="name" v="Slåttetjønna" />
		<tag k="natural" v="water" />
		<tag k="ssr:stedsnr" v="208186" />
	</node>
	<node lat="58.06311110796621" lon="7.5896972246570975" id="-21313">
		<tag k="name" v="Ingridsholmen" />
		<tag k="place" v="islet" />
		<tag k="ssr:stedsnr" v="208333" />
	</node>
	<node lat="58.057183333053295" lon="7.531577783505037" id="-21320">
		<tag k="name" v="Bulebukta" />
		<tag k="natural" v="bay" />
		<tag k="ssr:stedsnr" v="208483" />
	</node>
	<node lat="58.034119444394456" lon="7.383044441950779" id="-21326">
		<tag k="name" v="Bongstøvannet" />
		<tag k="natural" v="water" />
		<tag k="ssr:stedsnr" v="208996" />
		<tag k="water" v="lake" />
	</node>
	<node lat="58.058586114134265" lon="7.575772228454474" id="-21331">
		<tag k="name" v="Teinelagsneset" />
		<tag k="natural" v="cape" />
		<tag k="ssr:stedsnr" v="269351" />
	</node>
	<node lat="58.07154721978531" lon="7.5023750073977755" id="-21395">
		<tag k="name" v="Lilletjønna" />
		<tag k="natural" v="water" />
		<tag k="ssr:stedsnr" v="449654" />
	</node>
	<node lat="58.09568333727106" lon="7.434983338682512" id="-21400">
		<tag k="name" v="Eibukta" />
		<tag k="natural" v="bay" />
		<tag k="ssr:stedsnr" v="449694" />
	</node>
	<node lat="58.04051388578855" lon="7.324666668421545" id="-21406">
		<tag k="name" v="Vaddervika" />
		<tag k="natural" v="bay" />
		<tag k="ssr:stedsnr" v="449759" />
	</node>
	<node lat="58.06620833361265" lon="7.5953222267674825" id="-21420">
		<tag k="name" v="Savbekken" />
		<tag k="ssr:stedsnr" v="449939" />
		<tag k="waterway" v="stream" />
	</node>
	<node lat="58.045786109243814" lon="7.486944450879308" id="-21438">
		<tag k="name" v="Årekjerrsbekken" />
		<tag k="ssr:stedsnr" v="450148" />
		<tag k="waterway" v="stream" />
	</node>
	<node lat="58.046722224849816" lon="7.495963896541203" id="-21440">
		<tag k="name" v="Nodeodden" />
		<tag k="natural" v="cape" />
		<tag k="ssr:stedsnr" v="450150" />
	</node>
	<node lat="58.04574166781749" lon="7.516508339608305" id="-21447">
		<tag k="name" v="Svånes" />
		<tag k="natural" v="cape" />
		<tag k="ssr:stedsnr" v="450165" />
	</node>
	<node lat="58.047669446969735" lon="7.512024997328883" id="-21448">
		<tag k="name" v="Paulen" />
		<tag k="natural" v="water" />
		<tag k="ssr:stedsnr" v="450166" />
		<tag k="water" v="pond" />
	</node>
	<node lat="58.033672218849226" lon="7.528127784557794" id="-21456">
		<tag k="name" v="Storakertjønna" />
		<tag k="natural" v="water" />
		<tag k="ssr:stedsnr" v="450442" />
	</node>
	<node lat="58.03457778169688" lon="7.56890277900915" id="-21458">
		<tag k="name" v="Ramsdalsbukta" />
		<tag k="natural" v="bay" />
		<tag k="ssr:stedsnr" v="450446" />
	</node>
	<node lat="58.039222219181646" lon="7.573538893523679" id="-21461">
		<tag k="name" v="Andersodden" />
		<tag k="natural" v="cape" />
		<tag k="ssr:stedsnr" v="450450" />
	</node>
	<node lat="58.03567499891217" lon="7.563563882017108" id="-21462">
		<tag k="name" v="Dyboholmen" />
		<tag k="place" v="islet" />
		<tag k="ssr:stedsnr" v="450451" />
	</node>
	<node lat="58.020686111967315" lon="7.55072500184157" id="-21464">
		<tag k="name" v="Kringletjønna" />
		<tag k="natural" v="water" />
		<tag k="ssr:stedsnr" v="450463" />
	</node>
	<node lat="58.03472777392926" lon="7.344816660874845" id="-21472">
		<tag k="name" v="Myrtjønna" />
		<tag k="natural" v="water" />
		<tag k="ssr:stedsnr" v="450929" />
	</node>
	<node lat="58.25076667073808" lon="7.448413884712801" id="-21481">
		<tag k="alt_name" v="Eptevannet" />
		<tag k="name" v="Eptevatnet" />
		<tag k="natural" v="water" />
		<tag k="ssr:stedsnr" v="242195" />
	</node>
	<node lat="58.02545555915941" lon="7.557855562298046" id="-21487">
		<tag k="name" v="Tjønna" />
		<tag k="natural" v="water" />
		<tag k="ssr:stedsnr" v="451487" />
	</node>
	<node lat="58.35885000353276" lon="7.602011111150909" id="-21508">
		<tag k="alt_name" v="Kråketjønn" />
		<tag k="name" v="Kråketjørn" />
		<tag k="natural" v="water" />
		<tag k="ssr:stedsnr" v="243789" />
	</node>
	<node lat="58.081205557463576" lon="7.613883325058281" id="-21511">
		<tag k="alt_name" v="Suvassbekken" />
		<tag k="name" v="Suvatnebekken" />
		<tag k="ssr:stedsnr" v="243936" />
		<tag k="waterway" v="stream" />
	</node>
	<node lat="58.03120555376321" lon="7.104986105013655" id="-21516">
		<tag k="name" v="Bommen" />
		<tag k="natural" v="bay" />
		<tag k="ssr:stedsnr" v="264077" />
	</node>
	<node lat="58.18054722419299" lon="7.439388891854878" id="-21526">
		<tag k="name" v="Hestebekken" />
		<tag k="ssr:stedsnr" v="264188" />
		<tag k="waterway" v="stream" />
	</node>
	<node lat="58.17100277742714" lon="7.286372230678144" id="-21536">
		<tag k="name" v="Smalavannet" />
		<tag k="natural" v="water" />
		<tag k="ssr:stedsnr" v="264614" />
		<tag k="water" v="lake" />
	</node>
	<node lat="58.074205552034805" lon="7.272052774675065" id="-21540">
		<tag k="name" v="Gjedelandstjønna" />
		<tag k="natural" v="water" />
		<tag k="ssr:stedsnr" v="264806" />
	</node>
	<node lat="58.12602221939102" lon="7.231622229208157" id="-21541">
		<tag k="name" v="Storepytten" />
		<tag k="natural" v="water" />
		<tag k="ssr:stedsnr" v="264837" />
		<tag k="water" v="lake" />
	</node>
	<node lat="58.36702778148448" lon="7.605269443815229" id="-21550">
		<tag k="name" v="Jordstjønn" />
		<tag k="natural" v="water" />
		<tag k="ssr:stedsnr" v="265047" />
	</node>
	<node lat="58.40076820147791" lon="7.644109166119752" id="-21555">
		<tag k="name" v="Nedre Rendlevann" />
		<tag k="natural" v="water" />
		<tag k="ssr:stedsnr" v="265116" />
	</node>
	<node lat="58.25312500200183" lon="7.563488883458042" id="-21556">
		<tag k="name" v="Øvre Leintjønn" />
		<tag k="natural" v="water" />
		<tag k="ssr:stedsnr" v="265117" />
	</node>
	<node lat="58.161022226012015" lon="7.4872222166268525" id="-21557">
		<tag k="name" v="Holmen" />
		<tag k="natural" v="cape" />
		<tag k="ssr:stedsnr" v="265118" />
	</node>
	<node lat="58.14763333512293" lon="7.60151944189333" id="-21563">
		<tag k="name" v="Fiskevann" />
		<tag k="natural" v="water" />
		<tag k="ssr:stedsnr" v="265248" />
	</node>
	<node lat="58.168225004464176" lon="7.425536118069079" id="-21575">
		<tag k="name" v="Neset" />
		<tag k="natural" v="cape" />
		<tag k="ssr:stedsnr" v="265431" />
	</node>
	<node lat="58.087888887719394" lon="7.3639416683703365" id="-21596">
		<tag k="name" v="Storbekken" />
		<tag k="ssr:stedsnr" v="265525" />
		<tag k="waterway" v="stream" />
	</node>
	<node lat="58.0938444414932" lon="7.311369449424743" id="-21599">
		<tag k="name" v="Sevtorva" />
		<tag k="natural" v="cape" />
		<tag k="ssr:stedsnr" v="265540" />
	</node>
	<node lat="58.396148061758986" lon="7.546005983263148" id="-21602">
		<tag k="name" v="Nautårtjønn" />
		<tag k="natural" v="water" />
		<tag k="ssr:stedsnr" v="265496" />
	</node>
	<node lat="58.21134722064854" lon="7.439575007248125" id="-21604">
		<tag k="name" v="Røyrtjønna" />
		<tag k="natural" v="water" />
		<tag k="ssr:stedsnr" v="265498" />
	</node>
	<node lat="58.16448333558405" lon="7.389852785981904" id="-21610">
		<tag k="name" v="Stemmen" />
		<tag k="natural" v="water" />
		<tag k="ssr:stedsnr" v="265638" />
		<tag k="water" v="lake" />
	</node>
	<node lat="58.192980553833216" lon="7.251458328318157" id="-21616">
		<tag k="name" v="Maurtjønn" />
		<tag k="natural" v="water" />
		<tag k="ssr:stedsnr" v="265704" />
	</node>
	<node lat="58.15393889232546" lon="7.68966111592821" id="-21624">
		<tag k="name" v="Bjørndalstjønn" />
		<tag k="natural" v="water" />
		<tag k="ssr:stedsnr" v="265739" />
	</node>
	<node lat="58.11485277874062" lon="7.38048056143897" id="-21625">
		<tag k="name" v="Paultjønna" />
		<tag k="natural" v="water" />
		<tag k="ssr:stedsnr" v="265740" />
	</node>
	<node lat="58.11419444829241" lon="7.210780559629343" id="-21630">
		<tag k="name" v="Sandvika" />
		<tag k="natural" v="bay" />
		<tag k="ssr:stedsnr" v="265904" />
	</node>
	<node lat="58.10447222481607" lon="7.208847225979769" id="-21633">
		<tag k="name" v="Instetjønn" />
		<tag k="natural" v="water" />
		<tag k="ssr:stedsnr" v="265915" />
	</node>
	<node lat="58.181752774811976" lon="7.513391667799397" id="-21636">
		<tag k="name" v="Igletjønn" />
		<tag k="natural" v="water" />
		<tag k="ssr:stedsnr" v="265834" />
	</node>
	<node lat="58.19349444087906" lon="7.581047224470545" id="-21643">
		<tag k="name" v="Hudetjønn" />
		<tag k="natural" v="water" />
		<tag k="ssr:stedsnr" v="265891" />
	</node>
	<node lat="58.15138055946094" lon="7.609252772895421" id="-21644">
		<tag k="name" v="Børsvann" />
		<tag k="natural" v="water" />
		<tag k="ssr:stedsnr" v="265937" />
		<tag k="water" v="lake" />
	</node>
	<node lat="58.157613887130026" lon="7.551972221100379" id="-21646">
		<tag k="name" v="Nautøyre" />
		<tag k="place" v="islet" />
		<tag k="ssr:stedsnr" v="265988" />
	</node>
	<node lat="58.05886944429612" lon="7.373455560789909" id="-21678">
		<tag k="name" v="Hegrestadbekken" />
		<tag k="ssr:stedsnr" v="267809" />
		<tag k="waterway" v="stream" />
	</node>
	<node lat="58.11758055285798" lon="7.525497222117093" id="-21688">
		<tag k="name" v="Fuskelandshøllen" />
		<tag k="place" v="locality" />
		<tag k="ssr:stedsnr" v="267885" />
	</node>
	<node lat="58.07618611525592" lon="7.600236111631664" id="-21696">
		<tag k="name" v="Ørja" />
		<tag k="natural" v="bay" />
		<tag k="ssr:stedsnr" v="267992" />
	</node>
	<node lat="58.24589999815426" lon="7.457600003391793" id="-21779">
		<tag k="alt_name" v="Uglandsvann" />
		<tag k="name" v="Uglandsvatnet" />
		<tag k="natural" v="water" />
		<tag k="ssr:stedsnr" v="303631" />
	</node>
	<node lat="58.22774999572797" lon="7.429711110525234" id="-21782">
		<tag k="alt_name" v="Blavannet" />
		<tag k="name" v="Bladvatnet" />
		<tag k="natural" v="water" />
		<tag k="ssr:stedsnr" v="303716" />
	</node>
	<node lat="58.21619444294315" lon="7.3721944453068" id="-21789">
		<tag k="name" v="Auglandstjønn" />
		<tag k="natural" v="water" />
		<tag k="ssr:stedsnr" v="303893" />
	</node>
	<node lat="58.45614516893739" lon="7.547616750978186" id="-21798">
		<tag k="alt_name" v="Gytjønn" />
		<tag k="name" v="Gytjørnane" />
		<tag k="natural" v="water" />
		<tag k="ssr:stedsnr" v="303903" />
		<tag k="water" v="lake" />
	</node>
	<node lat="58.072602776276796" lon="7.393327776318853" id="-21805">
		<tag k="alt_name" v="Vassågervannet" />
		<tag k="name" v="Vassåkervatnet" />
		<tag k="natural" v="water" />
		<tag k="ssr:stedsnr" v="303934" />
	</node>
	<node lat="58.03702778181036" lon="7.5972861032800045" id="-21807">
		<tag k="alt_name" v="Jusvannet" />
		<tag k="name" v="Ljosvatnet" />
		<tag k="natural" v="water" />
		<tag k="old_name" v="Jusvatnet" />
		<tag k="ssr:stedsnr" v="303981" />
	</node>
	<node lat="58.04066111313412" lon="7.104483333531916" id="-21834">
		<tag k="name" v="Fugleneset" />
		<tag k="natural" v="cape" />
		<tag k="ssr:stedsnr" v="324111" />
	</node>
	<node lat="58.06263055891913" lon="7.208722225965857" id="-21839">
		<tag k="name" v="Gloppetjønna" />
		<tag k="natural" v="water" />
		<tag k="ssr:stedsnr" v="325024" />
	</node>
	<node lat="58.353930558650994" lon="7.488038887361506" id="-21867">
		<tag k="name" v="Refsbekken" />
		<tag k="ssr:stedsnr" v="325228" />
		<tag k="waterway" v="stream" />
	</node>
	<node lat="58.41146666503041" lon="7.4857916682124195" id="-21872">
		<tag k="name" v="Lilletjønn" />
		<tag k="natural" v="water" />
		<tag k="ssr:stedsnr" v="325238" />
	</node>
	<node lat="58.21745833607127" lon="7.277699991653972" id="-21876">
		<tag k="name" v="Oksetjønn" />
		<tag k="natural" v="water" />
		<tag k="ssr:stedsnr" v="325279" />
	</node>
	<node lat="58.31579166640124" lon="7.523147226640618" id="-21880">
		<tag k="name" v="Langeneset" />
		<tag k="natural" v="cape" />
		<tag k="ssr:stedsnr" v="325293" />
	</node>
	<node lat="58.445522219177576" lon="7.583941668323732" id="-21887">
		<tag k="name" v="Kvernhushølen" />
		<tag k="place" v="locality" />
		<tag k="ssr:stedsnr" v="325420" />
	</node>
	<node lat="58.39328333512417" lon="7.610719452371708" id="-21900">
		<tag k="name" v="Stemmen" />
		<tag k="natural" v="water" />
		<tag k="ssr:stedsnr" v="325378" />
	</node>
	<node lat="58.1704555510553" lon="7.337741662620194" id="-21909">
		<tag k="name" v="Lølandstem" />
		<tag k="natural" v="water" />
		<tag k="ssr:stedsnr" v="325389" />
	</node>
	<node lat="58.39479444120075" lon="7.600100003838925" id="-21911">
		<tag k="name" v="Langetjønn" />
		<tag k="natural" v="water" />
		<tag k="ssr:stedsnr" v="325391" />
	</node>
	<node lat="58.17586389337646" lon="7.65543611881235" id="-21926">
		<tag k="name" v="Slævetjønn" />
		<tag k="natural" v="water" />
		<tag k="ssr:stedsnr" v="325637" />
	</node>
	<node lat="58.15420555469082" lon="7.679133337899639" id="-21927">
		<tag k="name" v="Vestre Solåsvann" />
		<tag k="natural" v="water" />
		<tag k="ssr:stedsnr" v="325679" />
		<tag k="water" v="lake" />
	</node>
	<node lat="58.107838886179465" lon="7.385766670734633" id="-21929">
		<tag k="name" v="Kvernbekken" />
		<tag k="ssr:stedsnr" v="325693" />
		<tag k="waterway" v="stream" />
	</node>
	<node lat="58.16071944205845" lon="7.625475007990301" id="-21939">
		<tag k="name" v="Holevollstjønn" />
		<tag k="natural" v="water" />
		<tag k="ssr:stedsnr" v="325711" />
	</node>
	<node lat="58.06998333222276" lon="7.276541669867031" id="-21940">
		<tag k="name" v="Ravnåsbekken" />
		<tag k="ssr:stedsnr" v="325769" />
		<tag k="waterway" v="stream" />
	</node>
	<node lat="58.14010769189386" lon="7.234359482013681" id="-21947">
		<tag k="name" v="Mjåsund" />
		<tag k="place" v="locality" />
		<tag k="ssr:stedsnr" v="325821" />
	</node>
	<node lat="58.15375833534927" lon="7.4870277739780695" id="-21948">
		<tag k="name" v="Støtjønn" />
		<tag k="natural" v="water" />
		<tag k="ssr:stedsnr" v="325826" />
	</node>
	<node lat="58.152341668601835" lon="7.2559694506737396" id="-21949">
		<tag k="name" v="Engelstjønn" />
		<tag k="natural" v="water" />
		<tag k="ssr:stedsnr" v="325828" />
	</node>
	<node lat="58.203691662347644" lon="7.47578611356544" id="-21950">
		<tag k="name" v="Stemmen" />
		<tag k="ssr:stedsnr" v="325842" />
		<tag k="waterway" v="dam" />
	</node>
	<node lat="58.19004999658991" lon="7.565749997451856" id="-21952">
		<tag k="name" v="Hutjønn" />
		<tag k="natural" v="water" />
		<tag k="ssr:stedsnr" v="325870" />
	</node>
	<node lat="58.089894441772046" lon="7.634077769873277" id="-21980">
		<tag k="name" v="Trystjønn" />
		<tag k="natural" v="water" />
		<tag k="ssr:stedsnr" v="328725" />
	</node>
	<node lat="58.02596667021723" lon="7.603202782610911" id="-22014">
		<tag k="name" v="Teinelabekken" />
		<tag k="ssr:stedsnr" v="329322" />
		<tag k="waterway" v="stream" />
	</node>
	<node lat="58.02800833310213" lon="7.399869448847708" id="-22021">
		<tag k="name" v="Sandvika" />
		<tag k="natural" v="bay" />
		<tag k="ssr:stedsnr" v="329828" />
	</node>
	<node lat="58.058008330136715" lon="7.576633333410576" id="-22025">
		<tag k="name" v="Båtodden" />
		<tag k="natural" v="cape" />
		<tag k="ssr:stedsnr" v="330522" />
	</node>
	<node lat="58.20586388527265" lon="7.662261109365246" id="-22080">
		<tag k="name" v="Krosstjørna" />
		<tag k="natural" v="water" />
		<tag k="ssr:stedsnr" v="364704" />
	</node>
	<node lat="58.44505555869171" lon="7.643099996569416" id="-22127">
		<tag k="name" v="Lonan" />
		<tag k="natural" v="water" />
		<tag k="ssr:stedsnr" v="386121" />
		<tag k="water" v="lake" />
	</node>
	<node lat="58.380566666473584" lon="7.568391662865672" id="-22137">
		<tag k="name" v="Stedalstjønna" />
		<tag k="natural" v="water" />
		<tag k="ssr:stedsnr" v="386060" />
	</node>
	<node lat="58.39545833005066" lon="7.643986112868399" id="-22138">
		<tag k="name" v="Lonan" />
		<tag k="natural" v="water" />
		<tag k="ssr:stedsnr" v="386064" />
		<tag k="water" v="lake" />
	</node>
	<node lat="58.169661109832695" lon="7.510186106146159" id="-22140">
		<tag k="name" v="Fidjebekken" />
		<tag k="ssr:stedsnr" v="386095" />
		<tag k="waterway" v="stream" />
	</node>
	<node lat="58.0915305528135" lon="7.2223805637078025" id="-22142">
		<tag k="name" v="Stortjønna" />
		<tag k="natural" v="water" />
		<tag k="ssr:stedsnr" v="386246" />
	</node>
	<node lat="58.328630557158526" lon="7.527658333443601" id="-22144">
		<tag k="name" v="Kjeddingneset" />
		<tag k="natural" v="cape" />
		<tag k="ssr:stedsnr" v="386251" />
	</node>
	<node lat="58.32581666747831" lon="7.5236249986784225" id="-22146">
		<tag k="name" v="Lomsøy" />
		<tag k="place" v="islet" />
		<tag k="ssr:stedsnr" v="386267" />
	</node>
	<node lat="58.090227773942026" lon="7.336408328383579" id="-22166">
		<tag k="name" v="Søndre Krokevann" />
		<tag k="natural" v="water" />
		<tag k="ssr:stedsnr" v="386508" />
		<tag k="water" v="lake" />
	</node>
	<node lat="58.13395277916552" lon="7.325013883874601" id="-22171">
		<tag k="name" v="Smalsund" />
		<tag k="natural" v="strait" />
		<tag k="ssr:stedsnr" v="386545" />
	</node>
	<node lat="58.145947224737725" lon="7.32482500562115" id="-22173">
		<tag k="name" v="Røssetjønn" />
		<tag k="natural" v="water" />
		<tag k="ssr:stedsnr" v="386556" />
	</node>
	<node lat="58.180152776589495" lon="7.305313893109278" id="-22175">
		<tag k="name" v="Nesodden" />
		<tag k="natural" v="cape" />
		<tag k="ssr:stedsnr" v="386408" />
	</node>
	<node lat="58.41475555522942" lon="7.606166672220328" id="-22178">
		<tag k="name" v="Bjønnjordstjønna" />
		<tag k="natural" v="water" />
		<tag k="ssr:stedsnr" v="386445" />
	</node>
	<node lat="58.174999997469406" lon="7.524286112720801" id="-22184">
		<tag k="name" v="Varsbekken" />
		<tag k="ssr:stedsnr" v="386602" />
		<tag k="waterway" v="stream" />
	</node>
	<node lat="58.204802781316694" lon="7.269983335988494" id="-22188">
		<tag k="name" v="Bordstjønn" />
		<tag k="natural" v="water" />
		<tag k="ssr:stedsnr" v="386647" />
	</node>
	<node lat="58.1855805512337" lon="7.642724994384714" id="-22190">
		<tag k="name" v="Nordre Kalvetjønn" />
		<tag k="natural" v="water" />
		<tag k="ssr:stedsnr" v="386651" />
	</node>
	<node lat="58.10587222224174" lon="7.368394440133195" id="-22194">
		<tag k="name" v="Fiskehølen" />
		<tag k="place" v="locality" />
		<tag k="ssr:stedsnr" v="386702" />
	</node>
	<node lat="58.072083335568394" lon="7.383005557289031" id="-22196">
		<tag k="name" v="Store Drågtjønna" />
		<tag k="natural" v="water" />
		<tag k="ssr:stedsnr" v="386710" />
	</node>
	<node lat="58.10789166793381" lon="7.2860055535670005" id="-22200">
		<tag k="name" v="Lille Faksevann" />
		<tag k="natural" v="water" />
		<tag k="ssr:stedsnr" v="386747" />
		<tag k="water" v="lake" />
	</node>
	<node lat="58.24361111063536" lon="7.477991674462375" id="-22206">
		<tag k="name" v="Raunåstjønn" />
		<tag k="natural" v="water" />
		<tag k="ssr:stedsnr" v="386801" />
	</node>
	<node lat="58.075069442027555" lon="7.239447215945174" id="-22210">
		<tag k="name" v="Sandvika" />
		<tag k="natural" v="bay" />
		<tag k="ssr:stedsnr" v="386942" />
	</node>
	<node lat="58.208419448905055" lon="7.242941673310598" id="-22216">
		<tag k="name" v="Heptetjønn" />
		<tag k="natural" v="water" />
		<tag k="ssr:stedsnr" v="386812" />
	</node>
	<node lat="58.15948055982803" lon="7.2489083329518715" id="-22220">
		<tag k="name" v="Låmsskartjønn" />
		<tag k="natural" v="water" />
		<tag k="ssr:stedsnr" v="386857" />
	</node>
	<node lat="58.12730555846276" lon="7.501991666423847" id="-22235">
		<tag k="name" v="Svartetjønn" />
		<tag k="natural" v="water" />
		<tag k="ssr:stedsnr" v="388475" />
	</node>
	<node lat="58.108747219248016" lon="7.5351916640327365" id="-22252">
		<tag k="name" v="Nødingsfossen" />
		<tag k="natural" v="waterfall" />
		<tag k="ssr:stedsnr" v="388858" />
	</node>
	<node lat="58.06675833289009" lon="7.58717777112347" id="-22255">
		<tag k="name" v="Hepteodden" />
		<tag k="natural" v="cape" />
		<tag k="ssr:stedsnr" v="388952" />
	</node>
	<node lat="58.11184166722904" lon="7.589913891292954" id="-22276">
		<tag k="name" v="Tjønna" />
		<tag k="natural" v="water" />
		<tag k="ssr:stedsnr" v="389893" />
	</node>
	<node lat="58.0896083318499" lon="7.522494438701012" id="-22291">
		<tag k="name" v="Tuan" />
		<tag k="natural" v="cape" />
		<tag k="ssr:stedsnr" v="390900" />
	</node>
	<node lat="58.20878888891287" lon="7.6130805552594305" id="-22293">
		<tag k="alt_name" v="Høyevann" />
		<tag k="name" v="Høyevatnet" />
		<tag k="natural" v="water" />
		<tag k="ssr:stedsnr" v="546668" />
		<tag k="water" v="lake" />
	</node>
	<node lat="58.239129261865735" lon="7.409080139783571" id="-22296">
		<tag k="alt_name" v="Hunnsevannet" />
		<tag k="name" v="Hundsvatnet" />
		<tag k="natural" v="water" />
		<tag k="ssr:stedsnr" v="485612" />
	</node>
	<node lat="58.022994440615925" lon="7.085444437719857" id="-22297">
		<tag k="alt_name" v="Jørstadvannet" />
		<tag k="name" v="Jørenstadvatnet" />
		<tag k="natural" v="water" />
		<tag k="ssr:stedsnr" v="485614" />
	</node>
	<node lat="58.21206111523702" lon="7.251486114756909" id="-22303">
		<tag k="alt_name" v="Grønstjønn" />
		<tag k="name" v="Grøntjørn" />
		<tag k="natural" v="water" />
		<tag k="ssr:stedsnr" v="485346" />
	</node>
	<node lat="58.17380277669935" lon="7.253841661523683" id="-22305">
		<tag k="alt_name" v="Refsvannet" />
		<tag k="name" v="Revsvatnet" />
		<tag k="natural" v="water" />
		<tag k="ssr:stedsnr" v="485440" />
	</node>
	<node lat="58.20456389003021" lon="7.3956416645307215" id="-22317">
		<tag k="alt_name" v="Vasslandsvannet" />
		<tag k="name" v="Vasslandsvatnet" />
		<tag k="natural" v="water" />
		<tag k="ssr:stedsnr" v="485650" />
	</node>
	<node lat="58.16258888452672" lon="7.618738894165702" id="-22321">
		<tag k="alt_name" v="Birkelandsvann" />
		<tag k="name" v="Birkelandsvatnet" />
		<tag k="natural" v="water" />
		<tag k="ssr:stedsnr" v="485758" />
		<tag k="water" v="lake" />
	</node>
	<node lat="58.161111108001585" lon="7.4649749927980835" id="-22322">
		<tag k="name" v="Lomstjørnane" />
		<tag k="natural" v="water" />
		<tag k="ssr:stedsnr" v="485764" />
		<tag k="water" v="lake" />
	</node>
	<node lat="58.177383336309155" lon="7.453549992709956" id="-22323">
		<tag k="alt_name" v="Dørevann" />
		<tag k="name" v="Dørevatnet" />
		<tag k="natural" v="water" />
		<tag k="ssr:stedsnr" v="485775" />
	</node>
	<node lat="58.45725833693081" lon="7.521322224835886" id="-22330">
		<tag k="alt_name" v="Urdalsbekken" />
		<tag k="name" v="Urddalsbekken" />
		<tag k="ssr:stedsnr" v="485901" />
		<tag k="waterway" v="stream" />
	</node>
	<node lat="58.04187499595542" lon="7.583150004981608" id="-22332">
		<tag k="alt_name" v="Lonan" />
		<tag k="name" v="Lona" />
		<tag k="natural" v="bay" />
		<tag k="ssr:stedsnr" v="485988" />
	</node>
	<node lat="58.15108333554116" lon="7.288327777666061" id="-22388">
		<tag k="alt_name" v="Krovannet" />
		<tag k="name" v="Krokevatnet" />
		<tag k="natural" v="water" />
		<tag k="ssr:stedsnr" v="425460" />
	</node>
	<node lat="58.06653055827968" lon="7.227383337466742" id="-22393">
		<tag k="alt_name" v="Tarvannet;Turvatnet" />
		<tag k="name" v="Tarvatnet" />
		<tag k="natural" v="water" />
		<tag k="ssr:stedsnr" v="425607" />
		<tag k="water" v="lake" />
	</node>
	<node lat="58.24801110803048" lon="7.594188885801594" id="-22395">
		<tag k="alt_name" v="Hessvann" />
		<tag k="name" v="Hestvatnet" />
		<tag k="natural" v="water" />
		<tag k="ssr:stedsnr" v="425651" />
	</node>
	<node lat="58.16516666440509" lon="7.5835361064801825" id="-22397">
		<tag k="alt_name" v="Eiåna" />
		<tag k="name" v="Eidsåna" />
		<tag k="ssr:stedsnr" v="425803" />
		<tag k="waterway" v="stream" />
	</node>
	<node lat="58.15582500293127" lon="7.452000005965319" id="-22399">
		<tag k="alt_name" v="Sveinåsvannet" />
		<tag k="name" v="Sveinåsvatnet" />
		<tag k="natural" v="water" />
		<tag k="ssr:stedsnr" v="425808" />
	</node>
	<node lat="58.1739777814033" lon="7.582474997796617" id="-22400">
		<tag k="name" v="Høyeåna" />
		<tag k="ssr:stedsnr" v="425810" />
		<tag k="waterway" v="stream" />
	</node>
	<node lat="58.34479166853655" lon="7.59701666887423" id="-22401">
		<tag k="alt_name" v="Omsåna" />
		<tag k="name" v="Åmsåna" />
		<tag k="ssr:stedsnr" v="425819" />
		<tag k="waterway" v="river" />
	</node>
	<node lat="58.08213055898512" lon="7.589541667583352" id="-22404">
		<tag k="alt_name" v="Maurtjønna" />
		<tag k="name" v="Maurtjørna" />
		<tag k="natural" v="water" />
		<tag k="ssr:stedsnr" v="425843" />
	</node>
	<node lat="58.26428055222744" lon="7.465858331095636" id="-22407">
		<tag k="alt_name" v="Logåna" />
		<tag k="name" v="Lågåna" />
		<tag k="ssr:stedsnr" v="425847" />
		<tag k="waterway" v="stream" />
	</node>
	<node lat="58.21687777501821" lon="7.496649997000351" id="-22411">
		<tag k="name" v="Lindåna" />
		<tag k="ssr:stedsnr" v="425754" />
		<tag k="waterway" v="stream" />
	</node>
	<node lat="58.06953888780644" lon="7.445433330000881" id="-22413">
		<tag k="alt_name" v="Skadbergvannet" />
		<tag k="name" v="Skadbergvatnet" />
		<tag k="natural" v="water" />
		<tag k="ssr:stedsnr" v="425902" />
	</node>
	<node lat="58.45564166588059" lon="7.625574996074554" id="-22416">
		<tag k="alt_name" v="Vertjønn" />
		<tag k="name" v="Kallandstjørni" />
		<tag k="natural" v="water" />
		<tag k="ssr:stedsnr" v="425914" />
	</node>
	<node lat="58.37260428060183" lon="7.5868039180129" id="-22417">
		<tag k="alt_name" v="Homtjønn" />
		<tag k="name" v="Homtjørn" />
		<tag k="natural" v="water" />
		<tag k="ssr:stedsnr" v="425947" />
	</node>
	<node lat="58.230558333162605" lon="7.338919446724027" id="-22425">
		<tag k="name" v="Teinefoss" />
		<tag k="natural" v="waterfall" />
		<tag k="ssr:stedsnr" v="446272" />
	</node>
	<node lat="58.365863884944694" lon="7.586152784912417" id="-22440">
		<tag k="name" v="Lavåsbekken" />
		<tag k="ssr:stedsnr" v="447054" />
		<tag k="waterway" v="stream" />
	</node>
	<node lat="58.36308333728907" lon="7.573322228097933" id="-22441">
		<tag k="name" v="Stoldalsbekken" />
		<tag k="ssr:stedsnr" v="447055" />
		<tag k="waterway" v="stream" />
	</node>
	<node lat="58.22069166669178" lon="7.438883340776272" id="-22456">
		<tag k="name" v="Tvitjønnan" />
		<tag k="natural" v="water" />
		<tag k="ssr:stedsnr" v="447227" />
		<tag k="water" v="lake" />
	</node>
	<node lat="58.33740277575902" lon="7.529880561108944" id="-22460">
		<tag k="name" v="Straumsberget" />
		<tag k="ssr:stedsnr" v="447231" />
		<tag k="waterway" v="rapids" />
	</node>
	<node lat="58.22123610792681" lon="7.668833331785276" id="-22468">
		<tag k="name" v="Blikksteinsholtet" />
		<tag k="natural" v="cape" />
		<tag k="ssr:stedsnr" v="447291" />
	</node>
</osm>
