<?xml version="1.0" encoding="UTF-8"?>
<osm version="0.6" generator="osmapis">
	<node lat="58.056661112490104" lon="7.358386112450676" id="-39023">
		<tag k="name" v="Ramsen" />
		<tag k="place" v="locality" />
		<tag k="ssr:stedsnr" v="908" />
	</node>
	<node lat="58.07888055179485" lon="7.1999972179659375" id="-39030">
		<tag k="name" v="Stormyra" />
		<tag k="natural" v="wetland" />
		<tag k="ssr:stedsnr" v="21040" />
	</node>
	<node lat="58.32191389333082" lon="7.462033334884079" id="-39045">
		<tag k="name" v="Kartan" />
		<tag k="natural" v="wetland" />
		<tag k="ssr:stedsnr" v="22115" />
	</node>
	<node lat="58.382697219986575" lon="7.483719443101221" id="-39046">
		<tag k="name" v="Indrejordet" />
		<tag k="place" v="locality" />
		<tag k="ssr:stedsnr" v="22136" />
	</node>
	<node lat="58.37752777651118" lon="7.6039000070878355" id="-39049">
		<tag k="name" v="Sisremyr" />
		<tag k="natural" v="wetland" />
		<tag k="ssr:stedsnr" v="22035" />
	</node>
	<node lat="58.16817500237376" lon="7.488905551235631" id="-39054">
		<tag k="name" v="Toppansmyr" />
		<tag k="natural" v="wetland" />
		<tag k="ssr:stedsnr" v="22087" />
	</node>
	<node lat="58.3507916656991" lon="7.4596972203962295" id="-39058">
		<tag k="name" v="Ytre Fita" />
		<tag k="place" v="locality" />
		<tag k="ssr:stedsnr" v="22183" />
	</node>
	<node lat="58.36155555387893" lon="7.497999994507121" id="-39060">
		<tag k="name" v="Storemyr" />
		<tag k="natural" v="wetland" />
		<tag k="ssr:stedsnr" v="22190" />
	</node>
	<node lat="58.358688892872735" lon="7.502852785558101" id="-39061">
		<tag k="name" v="Liksteinen" />
		<tag k="natural" v="stone" />
		<tag k="ssr:stedsnr" v="22192" />
	</node>
	<node lat="58.31219444868256" lon="7.460061113840622" id="-39062">
		<tag k="name" v="Storemyr" />
		<tag k="natural" v="wetland" />
		<tag k="ssr:stedsnr" v="22308" />
	</node>
	<node lat="58.3090222263335" lon="7.501338885164982" id="-39064">
		<tag k="name" v="Ærkleivmyr" />
		<tag k="natural" v="wetland" />
		<tag k="ssr:stedsnr" v="22336" />
	</node>
	<node lat="58.22702222129278" lon="7.689013889728863" id="-39077">
		<tag k="name" v="Djupemyr" />
		<tag k="natural" v="wetland" />
		<tag k="ssr:stedsnr" v="22293" />
	</node>
	<node lat="58.433447226434815" lon="7.611936103548946" id="-39082">
		<tag k="name" v="Småmyran" />
		<tag k="natural" v="wetland" />
		<tag k="ssr:stedsnr" v="22409" />
	</node>
	<node lat="58.345322226198135" lon="7.5374472197953875" id="-39086">
		<tag k="name" v="Djupemyr" />
		<tag k="natural" v="wetland" />
		<tag k="ssr:stedsnr" v="22417" />
	</node>
	<node lat="58.153019441713376" lon="7.350911105045621" id="-39092">
		<tag k="name" v="Langemyr" />
		<tag k="natural" v="wetland" />
		<tag k="ssr:stedsnr" v="22499" />
	</node>
	<node lat="58.152874997727814" lon="7.668108329312669" id="-39098">
		<tag k="name" v="Løemyr" />
		<tag k="place" v="locality" />
		<tag k="ssr:stedsnr" v="22709" />
	</node>
	<node lat="58.078880559848955" lon="7.299480553664262" id="-39102">
		<tag k="name" v="Ytre Haven" />
		<tag k="place" v="locality" />
		<tag k="ssr:stedsnr" v="22800" />
	</node>
	<node lat="58.18157222383743" lon="7.497099994627235" id="-39105">
		<tag k="name" v="Volkesteinen" />
		<tag k="natural" v="stone" />
		<tag k="ssr:stedsnr" v="22806" />
	</node>
	<node lat="58.20319722674683" lon="7.510033340314121" id="-39111">
		<tag k="name" v="Stemkjerret" />
		<tag k="natural" v="wetland" />
		<tag k="ssr:stedsnr" v="22821" />
	</node>
	<node lat="58.15298889036756" lon="7.545922226355238" id="-39118">
		<tag k="name" v="Store myr" />
		<tag k="natural" v="wetland" />
		<tag k="ssr:stedsnr" v="22982" />
	</node>
	<node lat="58.12374444035176" lon="7.236822227774337" id="-39122">
		<tag k="name" v="Langemyra" />
		<tag k="natural" v="wetland" />
		<tag k="ssr:stedsnr" v="22991" />
	</node>
	<node lat="58.11827777832553" lon="7.24291943781024" id="-39124">
		<tag k="name" v="Timremyra" />
		<tag k="natural" v="wetland" />
		<tag k="ssr:stedsnr" v="22995" />
	</node>
	<node lat="58.12383333713679" lon="7.48308888488065" id="-39145">
		<tag k="name" v="Smaldalsmyra" />
		<tag k="natural" v="wetland" />
		<tag k="ssr:stedsnr" v="24501" />
	</node>
	<node lat="58.14281944184367" lon="7.504458329797663" id="-39150">
		<tag k="name" v="Kvidbergskårmyra" />
		<tag k="natural" v="wetland" />
		<tag k="ssr:stedsnr" v="24479" />
	</node>
	<node lat="58.098697220082435" lon="7.595769447411854" id="-39157">
		<tag k="name" v="Haumyra" />
		<tag k="natural" v="wetland" />
		<tag k="ssr:stedsnr" v="24802" />
	</node>
	<node lat="58.07199444425137" lon="7.600530556682018" id="-39167">
		<tag k="name" v="Bormyra" />
		<tag k="place" v="locality" />
		<tag k="ssr:stedsnr" v="24950" />
	</node>
	<node lat="58.13285278215577" lon="7.552302779826367" id="-39169">
		<tag k="name" v="Svomyra" />
		<tag k="natural" v="wetland" />
		<tag k="ssr:stedsnr" v="24976" />
	</node>
	<node lat="58.153980551556" lon="7.538847224738026" id="-39170">
		<tag k="name" v="Langekjerran" />
		<tag k="natural" v="wetland" />
		<tag k="ssr:stedsnr" v="24977" />
	</node>
	<node lat="58.15234444162483" lon="7.542436114178115" id="-39171">
		<tag k="name" v="Snømyr" />
		<tag k="natural" v="wetland" />
		<tag k="ssr:stedsnr" v="24988" />
	</node>
	<node lat="58.15022778189576" lon="7.541655556118679" id="-39172">
		<tag k="name" v="Hestekjerret" />
		<tag k="natural" v="wetland" />
		<tag k="ssr:stedsnr" v="24989" />
	</node>
	<node lat="58.0236611117028" lon="7.384791667309289" id="-39208">
		<tag k="name" v="Stormyr" />
		<tag k="natural" v="wetland" />
		<tag k="ssr:stedsnr" v="26823" />
	</node>
	<node lat="58.04416110856689" lon="7.073486106703678" id="-39416">
		<tag k="name" v="Veahogget" />
		<tag k="place" v="locality" />
		<tag k="ssr:stedsnr" v="82097" />
	</node>
	<node lat="58.17201110829217" lon="7.383930564067187" id="-39418">
		<tag k="name" v="Heddansmyra" />
		<tag k="natural" v="wetland" />
		<tag k="ssr:stedsnr" v="82210" />
	</node>
	<node lat="58.174650002733344" lon="7.588327778205532" id="-39424">
		<tag k="name" v="Laksesteinen" />
		<tag k="natural" v="stone" />
		<tag k="ssr:stedsnr" v="83006" />
	</node>
	<node lat="58.36544444748257" lon="7.589894450245145" id="-39430">
		<tag k="name" v="Slettebrokmyr" />
		<tag k="natural" v="wetland" />
		<tag k="ssr:stedsnr" v="83043" />
	</node>
	<node lat="58.30081944327221" lon="7.455125001588021" id="-39435">
		<tag k="name" v="Varåsmyra" />
		<tag k="natural" v="wetland" />
		<tag k="ssr:stedsnr" v="83126" />
	</node>
	<node lat="58.3505749959999" lon="7.473811117644464" id="-39438">
		<tag k="name" v="Stor-Stedjan" />
		<tag k="natural" v="wetland" />
		<tag k="ssr:stedsnr" v="83205" />
	</node>
	<node lat="58.240341667723754" lon="7.431269444849756" id="-39446">
		<tag k="name" v="Kaddansmyr" />
		<tag k="natural" v="wetland" />
		<tag k="ssr:stedsnr" v="83282" />
	</node>
	<node lat="58.2801583305444" lon="7.451752771941215" id="-39449">
		<tag k="name" v="Kyrdalsmyr" />
		<tag k="natural" v="wetland" />
		<tag k="ssr:stedsnr" v="83293" />
	</node>
	<node lat="58.28792499769737" lon="7.4191500053818915" id="-39450">
		<tag k="name" v="Svanemyr" />
		<tag k="natural" v="wetland" />
		<tag k="ssr:stedsnr" v="83301" />
	</node>
	<node lat="58.149733335369206" lon="7.431027784060819" id="-39454">
		<tag k="name" v="Teremyr" />
		<tag k="natural" v="wetland" />
		<tag k="ssr:stedsnr" v="83420" />
	</node>
	<node lat="58.44731111360624" lon="7.614786114293435" id="-39455">
		<tag k="name" v="Laudalslåtta" />
		<tag k="natural" v="wetland" />
		<tag k="ssr:stedsnr" v="83434" />
	</node>
	<node lat="58.35759444116917" lon="7.458402782689532" id="-39461">
		<tag k="name" v="Langemyr" />
		<tag k="natural" v="wetland" />
		<tag k="ssr:stedsnr" v="83188" />
	</node>
	<node lat="58.27282221862372" lon="7.4823555515067675" id="-39467">
		<tag k="name" v="Langemyr" />
		<tag k="natural" v="wetland" />
		<tag k="ssr:stedsnr" v="83331" />
	</node>
	<node lat="58.266880553002935" lon="7.425061111503078" id="-39468">
		<tag k="name" v="Torvmyr" />
		<tag k="natural" v="wetland" />
		<tag k="ssr:stedsnr" v="83334" />
	</node>
	<node lat="58.16124166627138" lon="7.363658341299047" id="-39488">
		<tag k="name" v="Myran" />
		<tag k="place" v="locality" />
		<tag k="ssr:stedsnr" v="83608" />
	</node>
	<node lat="58.153608334085575" lon="7.365391662884397" id="-39489">
		<tag k="name" v="Spillingsfidjan" />
		<tag k="place" v="locality" />
		<tag k="ssr:stedsnr" v="83613" />
	</node>
	<node lat="58.08113055684306" lon="7.334736117138984" id="-39493">
		<tag k="name" v="Heddermyra" />
		<tag k="natural" v="wetland" />
		<tag k="ssr:stedsnr" v="83638" />
	</node>
	<node lat="58.13874722355748" lon="7.2875972293228575" id="-39506">
		<tag k="name" v="Skrubbemyr" />
		<tag k="natural" v="wetland" />
		<tag k="ssr:stedsnr" v="83845" />
	</node>
	<node lat="58.259813892137984" lon="7.519958328591129" id="-39527">
		<tag k="name" v="Kvivollen" />
		<tag k="place" v="locality" />
		<tag k="ssr:stedsnr" v="83738" />
	</node>
	<node lat="58.09696944668258" lon="7.216677785172217" id="-39529">
		<tag k="name" v="Øygardsmyra" />
		<tag k="natural" v="wetland" />
		<tag k="ssr:stedsnr" v="83903" />
	</node>
	<node lat="58.18961111404878" lon="7.555383332494283" id="-39530">
		<tag k="name" v="Langemyr" />
		<tag k="natural" v="wetland" />
		<tag k="ssr:stedsnr" v="83891" />
	</node>
	<node lat="58.108219447505306" lon="7.231016660966902" id="-39539">
		<tag k="name" v="Gumpen" />
		<tag k="place" v="locality" />
		<tag k="ssr:stedsnr" v="84000" />
	</node>
	<node lat="58.07349721845477" lon="7.627730559639818" id="-39559">
		<tag k="name" v="Grimsmyra" />
		<tag k="natural" v="wetland" />
		<tag k="ssr:stedsnr" v="85712" />
	</node>
	<node lat="58.13260833207249" lon="7.568466668144932" id="-39562">
		<tag k="name" v="Tjødnemyra" />
		<tag k="natural" v="wetland" />
		<tag k="ssr:stedsnr" v="85865" />
	</node>
	<node lat="58.00892499612895" lon="7.506913897035836" id="-39575">
		<tag k="name" v="Geitemyra" />
		<tag k="natural" v="wetland" />
		<tag k="ssr:stedsnr" v="86227" />
	</node>
	<node lat="58.04858889044934" lon="7.579083338267242" id="-39576">
		<tag k="name" v="Stedjan" />
		<tag k="place" v="locality" />
		<tag k="ssr:stedsnr" v="86279" />
	</node>
	<node lat="58.378738892699545" lon="7.594233327934927" id="-39671">
		<tag k="name" v="Andersmyr" />
		<tag k="natural" v="wetland" />
		<tag k="ssr:stedsnr" v="265025" />
	</node>
	<node lat="58.174100003109245" lon="7.592202781226059" id="-39684">
		<tag k="name" v="Plomåskjerret" />
		<tag k="natural" v="wetland" />
		<tag k="ssr:stedsnr" v="143005" />
	</node>
	<node lat="58.05903333113183" lon="7.17780555426865" id="-39687">
		<tag k="landuse" v="meadow" />
		<tag k="name" v="Vrålsplassen" />
		<tag k="ssr:stedsnr" v="143031" />
	</node>
	<node lat="58.01241111118919" lon="7.194444450004405" id="-39694">
		<tag k="name" v="Diskeura" />
		<tag k="natural" v="scree" />
		<tag k="ssr:stedsnr" v="143320" />
	</node>
	<node lat="58.29543333000086" lon="7.455433331272314" id="-39704">
		<tag k="name" v="Krossløa" />
		<tag k="natural" v="wetland" />
		<tag k="ssr:stedsnr" v="143285" />
	</node>
	<node lat="58.18293333393665" lon="7.3188527714189835" id="-39707">
		<tag k="name" v="Storemyr" />
		<tag k="natural" v="wetland" />
		<tag k="ssr:stedsnr" v="143407" />
	</node>
	<node lat="58.275969444373835" lon="7.539630562952454" id="-39729">
		<tag k="name" v="Skremyr" />
		<tag k="natural" v="wetland" />
		<tag k="ssr:stedsnr" v="143504" />
	</node>
	<node lat="58.25141666870506" lon="7.524341673154962" id="-39738">
		<tag k="name" v="Heptekjerr" />
		<tag k="natural" v="wetland" />
		<tag k="ssr:stedsnr" v="143592" />
	</node>
	<node lat="58.25577777744314" lon="7.555769447726381" id="-39739">
		<tag k="name" v="Oljordsmyr" />
		<tag k="natural" v="wetland" />
		<tag k="ssr:stedsnr" v="143597" />
	</node>
	<node lat="58.14809999647056" lon="7.3500916721061955" id="-39740">
		<tag k="name" v="Skiftingsmyr" />
		<tag k="natural" v="wetland" />
		<tag k="ssr:stedsnr" v="143598" />
	</node>
	<node lat="58.11020000217818" lon="7.339127779943558" id="-39742">
		<tag k="name" v="Heimermonen" />
		<tag k="place" v="locality" />
		<tag k="ssr:stedsnr" v="143682" />
	</node>
	<node lat="58.09157499628059" lon="7.2032888813602" id="-39757">
		<tag k="name" v="Kringlemyra" />
		<tag k="natural" v="wetland" />
		<tag k="ssr:stedsnr" v="143892" />
	</node>
	<node lat="58.19002221832903" lon="7.508113895894931" id="-39760">
		<tag k="name" v="Trøkjerr" />
		<tag k="natural" v="wetland" />
		<tag k="ssr:stedsnr" v="143797" />
	</node>
	<node lat="58.28495000316761" lon="7.4528722269733985" id="-39767">
		<tag k="name" v="Sjendybel" />
		<tag k="natural" v="wetland" />
		<tag k="ssr:stedsnr" v="144311" />
	</node>
	<node lat="58.11843888611097" lon="7.488316664939013" id="-39783">
		<tag k="name" v="Stormyra" />
		<tag k="natural" v="wetland" />
		<tag k="ssr:stedsnr" v="145512" />
	</node>
	<node lat="58.096472220081715" lon="7.471624997564165" id="-39784">
		<tag k="name" v="Døblemyra" />
		<tag k="natural" v="wetland" />
		<tag k="ssr:stedsnr" v="145514" />
	</node>
	<node lat="58.085605557510846" lon="7.428675006905443" id="-39796">
		<tag k="name" v="Spanstøl" />
		<tag k="place" v="locality" />
		<tag k="ssr:stedsnr" v="145717" />
	</node>
	<node lat="58.12190000314262" lon="7.581611116656206" id="-39801">
		<tag k="name" v="Bumyr" />
		<tag k="natural" v="wetland" />
		<tag k="ssr:stedsnr" v="145728" />
	</node>
	<node lat="58.107383331447" lon="7.59961388823032" id="-39803">
		<tag k="name" v="Kringlemyr" />
		<tag k="natural" v="wetland" />
		<tag k="ssr:stedsnr" v="145762" />
	</node>
	<node lat="58.05526666885832" lon="7.351874996402637" id="-39811">
		<tag k="name" v="Langekjerr" />
		<tag k="natural" v="wetland" />
		<tag k="ssr:stedsnr" v="145793" />
	</node>
</osm>
