<?xml version="1.0" encoding="UTF-8"?>
<osm version="0.6" generator="osmapis">
	<node lat="57.98575277443689" lon="7.604919451974873" id="-39010">
		<tag k="name" v="Brattholmen" />
		<tag k="place" v="islet" />
		<tag k="ssr:stedsnr" v="50" />
	</node>
	<node lat="57.97004444620818" lon="7.4963111139402505" id="-39011">
		<tag k="name" v="Låven" />
		<tag k="place" v="locality" />
		<tag k="ssr:stedsnr" v="59" />
	</node>
	<node lat="58.00694444422989" lon="7.5047638806818915" id="-39013">
		<tag k="alt_name" v="Hobdeheia" />
		<tag k="name" v="Hovden" />
		<tag k="natural" v="hill" />
		<tag k="place" v="locality" />
		<tag k="ssr:stedsnr" v="63" />
	</node>
	<node lat="57.96189722036592" lon="7.565069452252735" id="-39014">
		<tag k="name" v="Odd" />
		<tag k="place" v="islet" />
		<tag k="ssr:stedsnr" v="65" />
	</node>
	<node lat="58.210563885649755" lon="7.308233328009721" id="-39015">
		<tag k="fixme" v="consider place=hamlet" />
		<tag k="name" v="Landås" />
		<tag k="place" v="farm" />
		<tag k="ssr:stedsnr" v="420" />
	</node>
	<node lat="58.179666662952535" lon="7.291722219700401" id="-39016">
		<tag k="alt_name" v="Fladen" />
		<tag k="fixme" v="consider place=hamlet" />
		<tag k="name" v="Flaten" />
		<tag k="place" v="farm" />
		<tag k="ssr:stedsnr" v="457" />
	</node>
	<node lat="58.078474998012126" lon="7.188550007693317" id="-39017">
		<tag k="fixme" v="consider place=hamlet" />
		<tag k="name" v="Hesteland" />
		<tag k="place" v="farm" />
		<tag k="ssr:stedsnr" v="602" />
	</node>
	<node lat="58.29931667005483" lon="7.449633335361129" id="-39018">
		<tag k="alt_name" v="Urevann" />
		<tag k="name" v="Urdevatn" />
		<tag k="natural" v="water" />
		<tag k="ssr:stedsnr" v="844" />
	</node>
	<node lat="58.340438884413146" lon="7.463711107335768" id="-39019">
		<tag k="alt_name" v="Hjemlestad" />
		<tag k="fixme" v="consider place=hamlet" />
		<tag k="name" v="Gjemlestad" />
		<tag k="place" v="farm" />
		<tag k="ssr:stedsnr" v="809" />
	</node>
	<node lat="58.29169166613488" lon="7.582555554154055" id="-39020">
		<tag k="alt_name" v="Finnsåna" />
		<tag k="name" v="Finså" />
		<tag k="ssr:stedsnr" v="750" />
		<tag k="waterway" v="river" />
	</node>
	<node lat="58.153013890567806" lon="7.4956916695515154" id="-39021">
		<tag k="fixme" v="consider place=hamlet" />
		<tag k="name" v="Listad" />
		<tag k="place" v="farm" />
		<tag k="ssr:stedsnr" v="797" />
	</node>
	<node lat="58.058541664003954" lon="7.447361109676423" id="-39022">
		<tag k="name" v="Løkke" />
		<tag k="place" v="farm" />
		<tag k="ssr:stedsnr" v="903" />
	</node>
	<node lat="58.056661112490104" lon="7.358386112450676" id="-39023">
		<tag k="name" v="Ramsen" />
		<tag k="place" v="locality" />
		<tag k="ssr:stedsnr" v="908" />
	</node>
	<node lat="58.06659166926952" lon="7.479649999378337" id="-39024">
		<tag k="alt_name" v="Helland" />
		<tag k="fixme" v="consider place=hamlet" />
		<tag k="name" v="Haddeland" />
		<tag k="place" v="farm" />
		<tag k="ssr:stedsnr" v="914" />
	</node>
	<node lat="58.08401666950049" lon="7.629880558344409" id="-39025">
		<tag k="alt_name" v="Blegeheia" />
		<tag k="name" v="Blekeheia" />
		<tag k="natural" v="hill" />
		<tag k="place" v="locality" />
		<tag k="ssr:stedsnr" v="939" />
	</node>
	<node lat="58.06277499940054" lon="7.574813897219851" id="-39026">
		<tag k="name" v="Skagestad" />
		<tag k="place" v="farm" />
		<tag k="ssr:stedsnr" v="893" />
	</node>
	<node lat="58.047680557227494" lon="7.584788893770129" id="-39027">
		<tag k="fixme" v="consider place=hamlet" />
		<tag k="name" v="Skeie" />
		<tag k="place" v="farm" />
		<tag k="ssr:stedsnr" v="994" />
	</node>
	<node lat="58.383938887072205" lon="7.5594361135784505" id="-39028">
		<tag k="alt_name" v="Sølvskar;Sølvskaret" />
		<tag k="fixme" v="consider place=hamlet" />
		<tag k="name" v="Sylvskardet" />
		<tag k="place" v="farm" />
		<tag k="ssr:stedsnr" v="998" />
	</node>
	<node lat="58.12539722409351" lon="7.347241673204021" id="-39029">
		<tag k="name" v="Melhus" />
		<tag k="place" v="farm" />
		<tag k="ssr:stedsnr" v="232567" />
	</node>
	<node lat="58.07888055179485" lon="7.1999972179659375" id="-39030">
		<tag k="name" v="Stormyra" />
		<tag k="natural" v="wetland" />
		<tag k="ssr:stedsnr" v="21040" />
	</node>
	<node lat="58.03878889321898" lon="7.101874999799514" id="-39031">
		<tag k="name" v="Skikleiva" />
		<tag k="natural" v="slope" />
		<tag k="place" v="locality" />
		<tag k="ssr:stedsnr" v="21085" />
	</node>
	<node lat="58.03743055305651" lon="7.125041660275505" id="-39032">
		<tag k="name" v="Lervika" />
		<tag k="natural" v="bay" />
		<tag k="ssr:stedsnr" v="21087" />
	</node>
	<node lat="58.02680555715994" lon="7.122302771738748" id="-39033">
		<tag k="name" v="Tronesvika" />
		<tag k="natural" v="bay" />
		<tag k="ssr:stedsnr" v="21095" />
	</node>
	<node lat="58.18348055533639" lon="7.430352783771345" id="-39034">
		<tag k="name" v="Hundstjønna" />
		<tag k="natural" v="water" />
		<tag k="ssr:stedsnr" v="21201" />
	</node>
	<node lat="58.02133333349227" lon="7.03809444842037" id="-39035">
		<tag k="name" v="Launes" />
		<tag k="natural" v="cape" />
		<tag k="ssr:stedsnr" v="21216" />
	</node>
	<node lat="58.18575278197511" lon="7.374691667270694" id="-39036">
		<tag k="name" v="Styggedalen" />
		<tag k="natural" v="valley" />
		<tag k="place" v="locality" />
		<tag k="ssr:stedsnr" v="21244" />
	</node>
	<node lat="58.22557500203109" lon="7.298291663972289" id="-39037">
		<tag k="fixme" v="consider natural=peak for the most distinct mountains in the district" />
		<tag k="name" v="Åsen" />
		<tag k="natural" v="hill" />
		<tag k="place" v="locality" />
		<tag k="ssr:stedsnr" v="21246" />
	</node>
	<node lat="58.01954166428595" lon="7.112933328616055" id="-39038">
		<tag k="name" v="Høylandsstranda" />
		<tag k="natural" v="bay" />
		<tag k="ssr:stedsnr" v="21101" />
	</node>
	<node lat="58.22813611076768" lon="7.400163882637264" id="-39039">
		<tag k="name" v="Kvasshammeren" />
		<tag k="natural" v="hill" />
		<tag k="place" v="locality" />
		<tag k="ssr:stedsnr" v="21285" />
	</node>
	<node lat="58.227836111041356" lon="7.294969452091058" id="-39040">
		<tag k="name" v="Tjønna" />
		<tag k="natural" v="water" />
		<tag k="ssr:stedsnr" v="21291" />
	</node>
	<node lat="57.996391667212066" lon="7.054533339475092" id="-39041">
		<tag k="name" v="Syrdalsheia" />
		<tag k="natural" v="hill" />
		<tag k="place" v="locality" />
		<tag k="ssr:stedsnr" v="21403" />
	</node>
	<node lat="57.9896833328945" lon="7.064819436475275" id="-39042">
		<tag k="name" v="Auster Kilen" />
		<tag k="natural" v="bay" />
		<tag k="ssr:stedsnr" v="21410" />
	</node>
	<node lat="58.01613888580079" lon="7.099333325170451" id="-39043">
		<tag k="name" v="Meheia" />
		<tag k="natural" v="hill" />
		<tag k="place" v="locality" />
		<tag k="ssr:stedsnr" v="21437" />
	</node>
	<node lat="58.16238888971053" lon="7.490983326128651" id="-39044">
		<tag k="name" v="Stampestemmen" />
		<tag k="place" v="locality" />
		<tag k="ssr:stedsnr" v="22107" />
	</node>
	<node lat="58.32191389333082" lon="7.462033334884079" id="-39045">
		<tag k="name" v="Kartan" />
		<tag k="natural" v="wetland" />
		<tag k="ssr:stedsnr" v="22115" />
	</node>
	<node lat="58.382697219986575" lon="7.483719443101221" id="-39046">
		<tag k="name" v="Indrejordet" />
		<tag k="place" v="locality" />
		<tag k="ssr:stedsnr" v="22136" />
	</node>
	<node lat="58.18136666355727" lon="7.573716662849833" id="-39047">
		<tag k="fixme" v="consider natural=peak for the most distinct mountains in the district" />
		<tag k="name" v="Ogneshei" />
		<tag k="natural" v="hill" />
		<tag k="place" v="locality" />
		<tag k="ssr:stedsnr" v="22002" />
	</node>
	<node lat="58.3816777751225" lon="7.598852778911115" id="-39048">
		<tag k="name" v="Smådalan" />
		<tag k="natural" v="valley" />
		<tag k="place" v="locality" />
		<tag k="ssr:stedsnr" v="22034" />
	</node>
	<node lat="58.37752777651118" lon="7.6039000070878355" id="-39049">
		<tag k="name" v="Sisremyr" />
		<tag k="natural" v="wetland" />
		<tag k="ssr:stedsnr" v="22035" />
	</node>
	<node lat="58.38196110789787" lon="7.605422214009257" id="-39050">
		<tag k="name" v="Askebekken" />
		<tag k="ssr:stedsnr" v="22036" />
		<tag k="waterway" v="stream" />
	</node>
	<node lat="58.362530555999484" lon="7.575511107373004" id="-39051">
		<tag k="fixme" v="consider natural=peak for the most distinct mountains in the district" />
		<tag k="name" v="Stolåsen" />
		<tag k="natural" v="hill" />
		<tag k="place" v="locality" />
		<tag k="ssr:stedsnr" v="22044" />
	</node>
	<node lat="58.38135278212349" lon="7.568730557096398" id="-39052">
		<tag k="name" v="Stedal" />
		<tag k="place" v="locality" />
		<tag k="ssr:stedsnr" v="22046" />
	</node>
	<node lat="58.3726749956743" lon="7.572086102968537" id="-39053">
		<tag k="fixme" v="consider natural=peak for the most distinct mountains in the district" />
		<tag k="name" v="Sigmundshei" />
		<tag k="natural" v="hill" />
		<tag k="place" v="locality" />
		<tag k="ssr:stedsnr" v="22047" />
	</node>
	<node lat="58.16817500237376" lon="7.488905551235631" id="-39054">
		<tag k="name" v="Toppansmyr" />
		<tag k="natural" v="wetland" />
		<tag k="ssr:stedsnr" v="22087" />
	</node>
	<node lat="58.36373610867737" lon="7.620622217258599" id="-39055">
		<tag k="name" v="Fuglehei" />
		<tag k="natural" v="hill" />
		<tag k="place" v="locality" />
		<tag k="ssr:stedsnr" v="22088" />
	</node>
	<node lat="58.36735278110312" lon="7.622991659486904" id="-39056">
		<tag k="name" v="Myrbetjønn" />
		<tag k="natural" v="water" />
		<tag k="ssr:stedsnr" v="22090" />
	</node>
	<node lat="58.22190277940637" lon="7.419038889738105" id="-39057">
		<tag k="name" v="Budalen" />
		<tag k="natural" v="valley" />
		<tag k="place" v="locality" />
		<tag k="ssr:stedsnr" v="22236" />
	</node>
	<node lat="58.3507916656991" lon="7.4596972203962295" id="-39058">
		<tag k="name" v="Ytre Fita" />
		<tag k="place" v="locality" />
		<tag k="ssr:stedsnr" v="22183" />
	</node>
	<node lat="58.35465000294854" lon="7.466530552184272" id="-39059">
		<tag k="name" v="Espeflaten" />
		<tag k="place" v="locality" />
		<tag k="ssr:stedsnr" v="22187" />
	</node>
	<node lat="58.36155555387893" lon="7.497999994507121" id="-39060">
		<tag k="name" v="Storemyr" />
		<tag k="natural" v="wetland" />
		<tag k="ssr:stedsnr" v="22190" />
	</node>
	<node lat="58.358688892872735" lon="7.502852785558101" id="-39061">
		<tag k="name" v="Liksteinen" />
		<tag k="natural" v="stone" />
		<tag k="ssr:stedsnr" v="22192" />
	</node>
	<node lat="58.31219444868256" lon="7.460061113840622" id="-39062">
		<tag k="name" v="Storemyr" />
		<tag k="natural" v="wetland" />
		<tag k="ssr:stedsnr" v="22308" />
	</node>
	<node lat="58.30877777631504" lon="7.466399994746624" id="-39063">
		<tag k="fixme" v="consider natural=peak for the most distinct mountains in the district" />
		<tag k="name" v="Skorshei" />
		<tag k="natural" v="hill" />
		<tag k="place" v="locality" />
		<tag k="ssr:stedsnr" v="22309" />
	</node>
	<node lat="58.3090222263335" lon="7.501338885164982" id="-39064">
		<tag k="name" v="Ærkleivmyr" />
		<tag k="natural" v="wetland" />
		<tag k="ssr:stedsnr" v="22336" />
	</node>
	<node lat="58.00747777651748" lon="7.202091662590691" id="-39065">
		<tag k="name" v="Nesfladebergan" />
		<tag k="natural" v="hill" />
		<tag k="place" v="locality" />
		<tag k="ssr:stedsnr" v="22337" />
	</node>
	<node lat="58.00120833319205" lon="7.196402777001844" id="-39066">
		<tag k="name" v="Rabnøy" />
		<tag k="place" v="island" />
		<tag k="ssr:stedsnr" v="22340" />
	</node>
	<node lat="58.132250000994176" lon="7.40347221740981" id="-39067">
		<tag k="name" v="Grodalen" />
		<tag k="natural" v="valley" />
		<tag k="place" v="locality" />
		<tag k="ssr:stedsnr" v="22387" />
	</node>
	<node lat="58.16915000059581" lon="7.338369436460668" id="-39068">
		<tag k="alt_name" v="Krogetjønn" />
		<tag k="name" v="Krogtjønn" />
		<tag k="natural" v="water" />
		<tag k="ssr:stedsnr" v="22389" />
	</node>
	<node lat="58.437936108425504" lon="7.51894443798076" id="-39069">
		<tag k="junction" v="yes" />
		<tag k="name" v="Brusletta" />
		<tag k="place" v="locality" />
		<tag k="ssr:stedsnr" v="22392" />
	</node>
	<node lat="58.44418889124893" lon="7.552216661625013" id="-39070">
		<tag k="name" v="Galne Rasmus" />
		<tag k="place" v="locality" />
		<tag k="ssr:stedsnr" v="22397" />
	</node>
	<node lat="58.29623055238213" lon="7.531480560383945" id="-39071">
		<tag k="name" v="Husefjellan" />
		<tag k="natural" v="hill" />
		<tag k="place" v="locality" />
		<tag k="ssr:stedsnr" v="22501" />
	</node>
	<node lat="58.2931972191518" lon="7.541827774266015" id="-39072">
		<tag k="name" v="Brendebakk" />
		<tag k="natural" v="slope" />
		<tag k="place" v="locality" />
		<tag k="ssr:stedsnr" v="22505" />
	</node>
	<node lat="58.219216670592736" lon="7.615980559099647" id="-39073">
		<tag k="name" v="Høyeelva" />
		<tag k="ssr:stedsnr" v="22516" />
		<tag k="waterway" v="river" />
	</node>
	<node lat="58.28246666559854" lon="7.424363888806247" id="-39074">
		<tag k="name" v="Rossedalen" />
		<tag k="natural" v="valley" />
		<tag k="place" v="locality" />
		<tag k="ssr:stedsnr" v="22286" />
	</node>
	<node lat="58.36174444422406" lon="7.526388883788264" id="-39075">
		<tag k="name" v="Lauvollen" />
		<tag k="place" v="locality" />
		<tag k="ssr:stedsnr" v="22287" />
	</node>
	<node lat="58.29755833345373" lon="7.446980549529078" id="-39076">
		<tag k="name" v="Urevannshei" />
		<tag k="natural" v="hill" />
		<tag k="place" v="locality" />
		<tag k="ssr:stedsnr" v="22288" />
	</node>
	<node lat="58.22702222129278" lon="7.689013889728863" id="-39077">
		<tag k="name" v="Djupemyr" />
		<tag k="natural" v="wetland" />
		<tag k="ssr:stedsnr" v="22293" />
	</node>
	<node lat="58.2234249972557" lon="7.668561109387078" id="-39078">
		<tag k="name" v="Høysnesdalen" />
		<tag k="natural" v="valley" />
		<tag k="place" v="locality" />
		<tag k="ssr:stedsnr" v="22297" />
	</node>
	<node lat="58.21814166393189" lon="7.662508337491616" id="-39079">
		<tag k="name" v="Skåretjønn" />
		<tag k="natural" v="water" />
		<tag k="ssr:stedsnr" v="22300" />
	</node>
	<node lat="58.43366944746334" lon="7.523897222130225" id="-39080">
		<tag k="name" v="Breiva" />
		<tag k="place" v="locality" />
		<tag k="ssr:stedsnr" v="22407" />
	</node>
	<node lat="58.181608335902624" lon="7.316405551292186" id="-39081">
		<tag k="name" v="Sollihei" />
		<tag k="natural" v="hill" />
		<tag k="place" v="locality" />
		<tag k="ssr:stedsnr" v="22408" />
	</node>
	<node lat="58.433447226434815" lon="7.611936103548946" id="-39082">
		<tag k="name" v="Småmyran" />
		<tag k="natural" v="wetland" />
		<tag k="ssr:stedsnr" v="22409" />
	</node>
	<node lat="58.1765694454821" lon="7.3019916692942575" id="-39083">
		<tag k="name" v="Lelandsbakken" />
		<tag k="natural" v="slope" />
		<tag k="place" v="locality" />
		<tag k="ssr:stedsnr" v="22410" />
	</node>
	<node lat="58.354797220624384" lon="7.523980562696035" id="-39084">
		<tag k="name" v="Dølda" />
		<tag k="natural" v="valley" />
		<tag k="place" v="locality" />
		<tag k="ssr:stedsnr" v="22414" />
	</node>
	<node lat="58.354230557371565" lon="7.5195694441348415" id="-39085">
		<tag k="name" v="Gyrodalen" />
		<tag k="natural" v="valley" />
		<tag k="place" v="locality" />
		<tag k="ssr:stedsnr" v="22415" />
	</node>
	<node lat="58.345322226198135" lon="7.5374472197953875" id="-39086">
		<tag k="name" v="Djupemyr" />
		<tag k="natural" v="wetland" />
		<tag k="ssr:stedsnr" v="22417" />
	</node>
	<node lat="58.41799999838332" lon="7.533216667801265" id="-39087">
		<tag k="name" v="Helvede" />
		<tag k="place" v="locality" />
		<tag k="ssr:stedsnr" v="22432" />
	</node>
	<node lat="58.41963888986279" lon="7.520038885422635" id="-39088">
		<tag k="name" v="Breiaskora" />
		<tag k="place" v="locality" />
		<tag k="ssr:stedsnr" v="22433" />
	</node>
	<node lat="58.427208329973" lon="7.571827778097298" id="-39089">
		<tag k="name" v="Dyråsen" />
		<tag k="natural" v="hill" />
		<tag k="place" v="locality" />
		<tag k="ssr:stedsnr" v="22434" />
	</node>
	<node lat="58.151797224550805" lon="7.4588694358646785" id="-39090">
		<tag k="name" v="Glugåsheia" />
		<tag k="natural" v="hill" />
		<tag k="place" v="locality" />
		<tag k="ssr:stedsnr" v="22438" />
	</node>
	<node lat="58.29726944353015" lon="7.524177775063011" id="-39091">
		<tag k="name" v="Makkhelleren" />
		<tag k="natural" v="gorge" />
		<tag k="ssr:stedsnr" v="22497" />
	</node>
	<node lat="58.153019441713376" lon="7.350911105045621" id="-39092">
		<tag k="name" v="Langemyr" />
		<tag k="natural" v="wetland" />
		<tag k="ssr:stedsnr" v="22499" />
	</node>
	<node lat="58.14988333229763" lon="7.323555554837387" id="-39093">
		<tag k="name" v="Sagebakken" />
		<tag k="natural" v="slope" />
		<tag k="place" v="locality" />
		<tag k="ssr:stedsnr" v="22601" />
	</node>
	<node lat="58.160850000550504" lon="7.376336115422554" id="-39094">
		<tag k="name" v="Storebekken" />
		<tag k="ssr:stedsnr" v="22617" />
		<tag k="waterway" v="stream" />
	</node>
	<node lat="58.10528888503482" lon="7.369191662409958" id="-39095">
		<tag k="name" v="Fiskebekken" />
		<tag k="ssr:stedsnr" v="22703" />
		<tag k="waterway" v="stream" />
	</node>
	<node lat="58.108458330021854" lon="7.380588891332919" id="-39096">
		<tag k="name" v="Rundåsen" />
		<tag k="natural" v="hill" />
		<tag k="place" v="locality" />
		<tag k="ssr:stedsnr" v="22704" />
	</node>
	<node lat="58.10976944843196" lon="7.391122222523359" id="-39097">
		<tag k="name" v="Skårlona" />
		<tag k="natural" v="water" />
		<tag k="ssr:stedsnr" v="22705" />
		<tag k="water" v="lake" />
	</node>
	<node lat="58.152874997727814" lon="7.668108329312669" id="-39098">
		<tag k="name" v="Løemyr" />
		<tag k="place" v="locality" />
		<tag k="ssr:stedsnr" v="22709" />
	</node>
	<node lat="58.260011111110025" lon="7.533447227311126" id="-39099">
		<tag k="alt_name" v="Norskogen" />
		<tag k="name" v="Nordskogen" />
		<tag k="natural" v="hill" />
		<tag k="place" v="locality" />
		<tag k="ssr:stedsnr" v="22721" />
	</node>
	<node lat="58.164333334350424" lon="7.66756665852581" id="-39100">
		<tag k="name" v="Rønningstjønn" />
		<tag k="natural" v="water" />
		<tag k="ssr:stedsnr" v="22727" />
	</node>
	<node lat="58.07742221907871" lon="7.27446389381849" id="-39101">
		<tag k="name" v="Fisketjønna" />
		<tag k="natural" v="water" />
		<tag k="ssr:stedsnr" v="22798" />
	</node>
	<node lat="58.078880559848955" lon="7.299480553664262" id="-39102">
		<tag k="name" v="Ytre Haven" />
		<tag k="place" v="locality" />
		<tag k="ssr:stedsnr" v="22800" />
	</node>
	<node lat="58.10788055897129" lon="7.186249996474069" id="-39103">
		<tag k="name" v="Fiskerhola" />
		<tag k="natural" v="bay" />
		<tag k="ssr:stedsnr" v="22902" />
	</node>
	<node lat="58.10900555585266" lon="7.187461104436191" id="-39104">
		<tag k="name" v="Einerbakkodden" />
		<tag k="natural" v="cape" />
		<tag k="ssr:stedsnr" v="22903" />
	</node>
	<node lat="58.18157222383743" lon="7.497099994627235" id="-39105">
		<tag k="name" v="Volkesteinen" />
		<tag k="natural" v="stone" />
		<tag k="ssr:stedsnr" v="22806" />
	</node>
	<node lat="58.182575004267576" lon="7.4972638807648755" id="-39106">
		<tag k="fixme" v="consider natural=peak for the most distinct mountains in the district" />
		<tag k="name" v="Sommeråsen" />
		<tag k="natural" v="hill" />
		<tag k="place" v="locality" />
		<tag k="ssr:stedsnr" v="22808" />
	</node>
	<node lat="58.21027499557571" lon="7.270705548922428" id="-39107">
		<tag k="name" v="Store Jernkleivdalen" />
		<tag k="natural" v="valley" />
		<tag k="place" v="locality" />
		<tag k="ssr:stedsnr" v="22812" />
	</node>
	<node lat="58.20717222466069" lon="7.275811109205652" id="-39108">
		<tag k="name" v="Jernkleivfjell" />
		<tag k="natural" v="hill" />
		<tag k="place" v="locality" />
		<tag k="ssr:stedsnr" v="22815" />
	</node>
	<node lat="58.18944444135779" lon="7.462600006459679" id="-39109">
		<tag k="name" v="Midringkleiv" />
		<tag k="natural" v="hill" />
		<tag k="place" v="locality" />
		<tag k="ssr:stedsnr" v="22816" />
	</node>
	<node lat="58.13376666668535" lon="7.284830557567775" id="-39110">
		<tag k="name" v="Lomshei" />
		<tag k="natural" v="hill" />
		<tag k="place" v="locality" />
		<tag k="ssr:stedsnr" v="22820" />
	</node>
	<node lat="58.20319722674683" lon="7.510033340314121" id="-39111">
		<tag k="name" v="Stemkjerret" />
		<tag k="natural" v="wetland" />
		<tag k="ssr:stedsnr" v="22821" />
	</node>
	<node lat="58.092622221890515" lon="7.189808337932257" id="-39112">
		<tag k="name" v="Tjortelandsheia" />
		<tag k="natural" v="hill" />
		<tag k="place" v="locality" />
		<tag k="ssr:stedsnr" v="22885" />
	</node>
	<node lat="58.18613889123261" lon="7.54357221390233" id="-39113">
		<tag k="name" v="Veådalen" />
		<tag k="natural" v="valley" />
		<tag k="place" v="locality" />
		<tag k="ssr:stedsnr" v="22891" />
	</node>
	<node lat="58.083841664713965" lon="7.189011118260634" id="-39114">
		<tag k="name" v="Storbekken" />
		<tag k="ssr:stedsnr" v="22893" />
		<tag k="waterway" v="stream" />
	</node>
	<node lat="58.14605000441036" lon="7.26206389413535" id="-39115">
		<tag k="name" v="Reet" />
		<tag k="natural" v="ridge" />
		<tag k="place" v="locality" />
		<tag k="ssr:stedsnr" v="22839" />
	</node>
	<node lat="58.125486113277745" lon="7.27641665870876" id="-39116">
		<tag k="name" v="Huseheia" />
		<tag k="natural" v="hill" />
		<tag k="place" v="locality" />
		<tag k="ssr:stedsnr" v="22840" />
	</node>
	<node lat="58.16520000088614" lon="7.577547213761768" id="-39117">
		<tag k="highway" v="path" />
		<tag k="name" v="Klubbestien" />
		<tag k="ssr:stedsnr" v="22943" />
	</node>
	<node lat="58.15298889036756" lon="7.545922226355238" id="-39118">
		<tag k="name" v="Store myr" />
		<tag k="natural" v="wetland" />
		<tag k="ssr:stedsnr" v="22982" />
	</node>
	<node lat="58.15548889318068" lon="7.543841670753826" id="-39119">
		<tag k="name" v="Støttåsen" />
		<tag k="natural" v="hill" />
		<tag k="place" v="locality" />
		<tag k="ssr:stedsnr" v="22983" />
	</node>
	<node lat="58.03831944709483" lon="7.266575006330821" id="-39120">
		<tag k="name" v="Mollsheia" />
		<tag k="natural" v="hill" />
		<tag k="place" v="locality" />
		<tag k="ssr:stedsnr" v="22984" />
	</node>
	<node lat="58.043736113326055" lon="7.24571388099532" id="-39121">
		<tag k="fixme" v="consider seamark:type=rock or natural=shoal" />
		<tag k="name" v="Seilskjæran" />
		<tag k="place" v="islet" />
		<tag k="ssr:stedsnr" v="22989" />
	</node>
	<node lat="58.12374444035176" lon="7.236822227774337" id="-39122">
		<tag k="name" v="Langemyra" />
		<tag k="natural" v="wetland" />
		<tag k="ssr:stedsnr" v="22991" />
	</node>
	<node lat="58.11971388703111" lon="7.242150008181293" id="-39123">
		<tag k="name" v="Breiva" />
		<tag k="natural" v="water" />
		<tag k="ssr:stedsnr" v="22994" />
		<tag k="water" v="lake" />
	</node>
	<node lat="58.11827777832553" lon="7.24291943781024" id="-39124">
		<tag k="name" v="Timremyra" />
		<tag k="natural" v="wetland" />
		<tag k="ssr:stedsnr" v="22995" />
	</node>
	<node lat="58.10970277936902" lon="7.239011119289903" id="-39125">
		<tag k="name" v="Hedderheia" />
		<tag k="natural" v="hill" />
		<tag k="place" v="locality" />
		<tag k="ssr:stedsnr" v="22999" />
	</node>
	<node lat="58.27847500134707" lon="7.434972218010193" id="-39126">
		<tag k="name" v="Kleivsdalen" />
		<tag k="natural" v="valley" />
		<tag k="place" v="locality" />
		<tag k="ssr:stedsnr" v="23335" />
	</node>
	<node lat="58.284536113941755" lon="7.439622219164199" id="-39127">
		<tag k="name" v="Stembakkan" />
		<tag k="natural" v="hill" />
		<tag k="place" v="locality" />
		<tag k="ssr:stedsnr" v="23336" />
	</node>
	<node lat="58.06332500224568" lon="7.532636114167952" id="-39128">
		<tag k="name" v="Fontedalen" />
		<tag k="natural" v="valley" />
		<tag k="place" v="locality" />
		<tag k="ssr:stedsnr" v="23602" />
	</node>
	<node lat="58.09607778126997" lon="7.526949995932896" id="-39129">
		<tag k="name" v="Laustø" />
		<tag k="natural" v="slope" />
		<tag k="place" v="locality" />
		<tag k="ssr:stedsnr" v="23604" />
	</node>
	<node lat="58.074338891196156" lon="7.524286114220777" id="-39130">
		<tag k="name" v="Linåsen" />
		<tag k="natural" v="hill" />
		<tag k="place" v="locality" />
		<tag k="ssr:stedsnr" v="23618" />
	</node>
	<node lat="58.1977388872341" lon="7.651663894067902" id="-39131">
		<tag k="name" v="Timra" />
		<tag k="place" v="locality" />
		<tag k="ssr:stedsnr" v="23708" />
	</node>
	<node lat="58.072705554967996" lon="7.369013889395411" id="-39132">
		<tag k="name" v="Skiftesheia" />
		<tag k="natural" v="hill" />
		<tag k="place" v="locality" />
		<tag k="ssr:stedsnr" v="23736" />
	</node>
	<node lat="58.055949997691904" lon="7.324886108058768" id="-39133">
		<tag k="name" v="Åletjønna" />
		<tag k="natural" v="water" />
		<tag k="ssr:stedsnr" v="23738" />
	</node>
	<node lat="58.250919443781065" lon="7.510447217781447" id="-39134">
		<tag k="name" v="Dyrdalen" />
		<tag k="natural" v="valley" />
		<tag k="place" v="locality" />
		<tag k="ssr:stedsnr" v="23805" />
	</node>
	<node lat="57.99123611106379" lon="7.551986106204856" id="-39135">
		<tag k="name" v="Rennesodden" />
		<tag k="natural" v="cape" />
		<tag k="ssr:stedsnr" v="24049" />
	</node>
	<node lat="57.99074721998719" lon="7.550324996367417" id="-39136">
		<tag k="name" v="Ellingsodden" />
		<tag k="natural" v="cape" />
		<tag k="ssr:stedsnr" v="24051" />
	</node>
	<node lat="57.99782778231308" lon="7.659183339572614" id="-39137">
		<tag k="name" v="Sandkilen" />
		<tag k="natural" v="bay" />
		<tag k="ssr:stedsnr" v="24304" />
	</node>
	<node lat="57.99685277384574" lon="7.648802774854591" id="-39138">
		<tag k="fixme" v="consider seamark:type=rock or natural=shoal" />
		<tag k="name" v="Skomakerskjær" />
		<tag k="place" v="islet" />
		<tag k="ssr:stedsnr" v="24307" />
	</node>
	<node lat="57.99276388474224" lon="7.640383338434483" id="-39139">
		<tag k="name" v="Valløyodden" />
		<tag k="natural" v="cape" />
		<tag k="ssr:stedsnr" v="24329" />
	</node>
	<node lat="58.00050277584444" lon="7.5332527724456195" id="-39140">
		<tag k="name" v="Bergstøholmen" />
		<tag k="place" v="islet" />
		<tag k="ssr:stedsnr" v="24406" />
	</node>
	<node lat="58.00028333528777" lon="7.540849999714257" id="-39141">
		<tag k="name" v="Høgeholmen" />
		<tag k="place" v="islet" />
		<tag k="ssr:stedsnr" v="24413" />
	</node>
	<node lat="58.01514722264088" lon="7.542477776309058" id="-39142">
		<tag k="name" v="Fureheia" />
		<tag k="natural" v="hill" />
		<tag k="place" v="locality" />
		<tag k="ssr:stedsnr" v="24378" />
	</node>
	<node lat="58.014161107008015" lon="7.557813882726431" id="-39143">
		<tag k="name" v="Tjønna" />
		<tag k="natural" v="water" />
		<tag k="ssr:stedsnr" v="24385" />
	</node>
	<node lat="58.00816389285379" lon="7.536300006052927" id="-39144">
		<tag k="leisure" v="marina" />
		<tag k="name" v="Åmlandsstranda" />
		<tag k="ssr:stedsnr" v="24391" />
	</node>
	<node lat="58.12383333713679" lon="7.48308888488065" id="-39145">
		<tag k="name" v="Smaldalsmyra" />
		<tag k="natural" v="wetland" />
		<tag k="ssr:stedsnr" v="24501" />
	</node>
	<node lat="58.074705559160066" lon="7.564849999337008" id="-39146">
		<tag k="name" v="Hellerlona" />
		<tag k="natural" v="water" />
		<tag k="ssr:stedsnr" v="24588" />
	</node>
	<node lat="58.08601944813127" lon="7.525258338212841" id="-39147">
		<tag k="name" v="Bjørkåsen" />
		<tag k="natural" v="hill" />
		<tag k="place" v="locality" />
		<tag k="ssr:stedsnr" v="24592" />
	</node>
	<node lat="58.025208335855964" lon="7.360052778088948" id="-39148">
		<tag k="alt_name" v="Sjøbodvik" />
		<tag k="name" v="Sjøbuvika" />
		<tag k="natural" v="bay" />
		<tag k="ssr:stedsnr" v="24702" />
	</node>
	<node lat="58.10163055911348" lon="7.436502776937061" id="-39149">
		<tag k="bridge" v="yes" />
		<tag k="layer" v="1" />
		<tag k="name" v="Ronebrua" />
		<tag k="ssr:stedsnr" v="24705" />
	</node>
	<node lat="58.14281944184367" lon="7.504458329797663" id="-39150">
		<tag k="name" v="Kvidbergskårmyra" />
		<tag k="natural" v="wetland" />
		<tag k="ssr:stedsnr" v="24479" />
	</node>
	<node lat="58.02686110829963" lon="7.672436118346024" id="-39151">
		<tag k="name" v="Fuvikbukta" />
		<tag k="natural" v="bay" />
		<tag k="ssr:stedsnr" v="24605" />
	</node>
	<node lat="58.03168611378454" lon="7.671391673621205" id="-39152">
		<tag k="name" v="Rona" />
		<tag k="natural" v="bay" />
		<tag k="ssr:stedsnr" v="24607" />
	</node>
	<node lat="58.022119447617115" lon="7.664324997855355" id="-39153">
		<tag k="name" v="Lammeholmen" />
		<tag k="place" v="islet" />
		<tag k="ssr:stedsnr" v="24627" />
	</node>
	<node lat="58.07549444613855" lon="7.478602774143534" id="-39154">
		<tag k="name" v="Djubedalen" />
		<tag k="natural" v="valley" />
		<tag k="place" v="locality" />
		<tag k="ssr:stedsnr" v="24677" />
	</node>
	<node lat="58.081688889334295" lon="7.487361116710059" id="-39155">
		<tag k="name" v="Skalletjønn" />
		<tag k="natural" v="water" />
		<tag k="ssr:stedsnr" v="24681" />
	</node>
	<node lat="58.07897500253575" lon="7.484411109521667" id="-39156">
		<tag k="name" v="Tollakstjønn" />
		<tag k="natural" v="water" />
		<tag k="ssr:stedsnr" v="24684" />
	</node>
	<node lat="58.098697220082435" lon="7.595769447411854" id="-39157">
		<tag k="name" v="Haumyra" />
		<tag k="natural" v="wetland" />
		<tag k="ssr:stedsnr" v="24802" />
	</node>
	<node lat="58.05851667111486" lon="7.391183334215194" id="-39158">
		<tag k="name" v="Lammetjønna" />
		<tag k="natural" v="water" />
		<tag k="ssr:stedsnr" v="24816" />
	</node>
	<node lat="58.08261110698995" lon="7.503763888607763" id="-39159">
		<tag k="fixme" v="consider natural=peak for the most distinct mountains in the district" />
		<tag k="name" v="Kolåsen" />
		<tag k="natural" v="hill" />
		<tag k="place" v="locality" />
		<tag k="ssr:stedsnr" v="24823" />
	</node>
	<node lat="58.10518055556039" lon="7.563636117032503" id="-39160">
		<tag k="name" v="Grindeskåra" />
		<tag k="place" v="locality" />
		<tag k="ssr:stedsnr" v="24904" />
	</node>
	<node lat="58.09793333724498" lon="7.53845277348829" id="-39161">
		<tag k="name" v="Vinterheia" />
		<tag k="natural" v="hill" />
		<tag k="place" v="locality" />
		<tag k="ssr:stedsnr" v="24910" />
	</node>
	<node lat="58.12109444351031" lon="7.528619449817937" id="-39162">
		<tag k="name" v="Nodebakken" />
		<tag k="natural" v="hill" />
		<tag k="place" v="locality" />
		<tag k="ssr:stedsnr" v="24912" />
	</node>
	<node lat="58.12118333187673" lon="7.558227776241572" id="-39163">
		<tag k="fixme" v="consider natural=peak for the most distinct mountains in the district" />
		<tag k="name" v="Buråsen" />
		<tag k="natural" v="hill" />
		<tag k="place" v="locality" />
		<tag k="ssr:stedsnr" v="24921" />
	</node>
	<node lat="58.12703610807724" lon="7.534702785577671" id="-39164">
		<tag k="name" v="Mikkelshola" />
		<tag k="natural" v="bay" />
		<tag k="ssr:stedsnr" v="24930" />
	</node>
	<node lat="58.08679999636285" lon="7.622580551171698" id="-39165">
		<tag k="name" v="Munkedalen" />
		<tag k="natural" v="valley" />
		<tag k="place" v="locality" />
		<tag k="ssr:stedsnr" v="24940" />
	</node>
	<node lat="57.98470555786125" lon="7.0692611138808505" id="-39166">
		<tag k="name" v="Vareholmen" />
		<tag k="place" v="islet" />
		<tag k="ssr:stedsnr" v="24945" />
	</node>
	<node lat="58.07199444425137" lon="7.600530556682018" id="-39167">
		<tag k="name" v="Bormyra" />
		<tag k="place" v="locality" />
		<tag k="ssr:stedsnr" v="24950" />
	</node>
	<node lat="58.12344166521657" lon="7.4610694482041415" id="-39168">
		<tag k="name" v="Nordstø" />
		<tag k="natural" v="hill" />
		<tag k="place" v="locality" />
		<tag k="ssr:stedsnr" v="24952" />
	</node>
	<node lat="58.13285278215577" lon="7.552302779826367" id="-39169">
		<tag k="name" v="Svomyra" />
		<tag k="natural" v="wetland" />
		<tag k="ssr:stedsnr" v="24976" />
	</node>
	<node lat="58.153980551556" lon="7.538847224738026" id="-39170">
		<tag k="name" v="Langekjerran" />
		<tag k="natural" v="wetland" />
		<tag k="ssr:stedsnr" v="24977" />
	</node>
	<node lat="58.15234444162483" lon="7.542436114178115" id="-39171">
		<tag k="name" v="Snømyr" />
		<tag k="natural" v="wetland" />
		<tag k="ssr:stedsnr" v="24988" />
	</node>
	<node lat="58.15022778189576" lon="7.541655556118679" id="-39172">
		<tag k="name" v="Hestekjerret" />
		<tag k="natural" v="wetland" />
		<tag k="ssr:stedsnr" v="24989" />
	</node>
	<node lat="58.079119445501924" lon="7.599544443753179" id="-39173">
		<tag k="name" v="Storbekken" />
		<tag k="ssr:stedsnr" v="24995" />
		<tag k="waterway" v="stream" />
	</node>
	<node lat="58.10806944742705" lon="7.536955558008784" id="-39174">
		<tag k="name" v="Skaran" />
		<tag k="place" v="locality" />
		<tag k="ssr:stedsnr" v="24875" />
	</node>
	<node lat="58.12877222121155" lon="7.583694448466616" id="-39175">
		<tag k="name" v="Bjønnåsen" />
		<tag k="natural" v="hill" />
		<tag k="place" v="locality" />
		<tag k="ssr:stedsnr" v="24883" />
	</node>
	<node lat="58.148547219234565" lon="7.551033328191559" id="-39176">
		<tag k="name" v="Skarprøyshølen" />
		<tag k="place" v="locality" />
		<tag k="ssr:stedsnr" v="24890" />
	</node>
	<node lat="57.98978888979278" lon="7.118716660855736" id="-39177">
		<tag k="name" v="Sørgrunnen" />
		<tag k="natural" v="shoal" />
		<tag k="place" v="locality" />
		<tag k="ssr:stedsnr" v="25013" />
	</node>
	<node lat="58.007972222012384" lon="7.484863883558608" id="-39178">
		<tag k="name" v="Stusøysundet" />
		<tag k="natural" v="strait" />
		<tag k="ssr:stedsnr" v="25022" />
	</node>
	<node lat="57.995719447303" lon="7.177355550000406" id="-39179">
		<tag k="name" v="Grundflua" />
		<tag k="place" v="locality" />
		<tag k="seamark:type" v="rock" />
		<tag k="ssr:stedsnr" v="25092" />
	</node>
	<node lat="58.01170833765863" lon="7.5017361070136825" id="-39180">
		<tag k="name" v="Knibben" />
		<tag k="natural" v="hill" />
		<tag k="place" v="locality" />
		<tag k="ssr:stedsnr" v="25213" />
	</node>
	<node lat="57.98771388962339" lon="7.572508337513182" id="-39181">
		<tag k="name" v="Krossvika" />
		<tag k="natural" v="bay" />
		<tag k="ssr:stedsnr" v="25106" />
	</node>
	<node lat="58.042477774366326" lon="7.5642027718634335" id="-39182">
		<tag k="name" v="Roholmen" />
		<tag k="place" v="islet" />
		<tag k="ssr:stedsnr" v="25271" />
	</node>
	<node lat="58.007253173375375" lon="7.6025657898247845" id="-39183">
		<tag k="alt_name" v="Nordre Lille Ørpholmen" />
		<tag k="name" v="Nordre Lille Ørpeholmen" />
		<tag k="place" v="islet" />
		<tag k="ssr:stedsnr" v="25289" />
	</node>
	<node lat="58.00263333573052" lon="7.4009027749056" id="-39184">
		<tag k="name" v="Gunningsholman" />
		<tag k="place" v="islet" />
		<tag k="ssr:stedsnr" v="25730" />
	</node>
	<node lat="57.9957611129201" lon="7.424747227454634" id="-39185">
		<tag k="fixme" v="consider seamark:type=rock or natural=shoal" />
		<tag k="name" v="Manneværskjæran" />
		<tag k="place" v="islet" />
		<tag k="ssr:stedsnr" v="25801" />
	</node>
	<node lat="57.984086110922114" lon="7.4488305596535564" id="-39186">
		<tag k="fixme" v="consider seamark:type=rock or natural=shoal" />
		<tag k="name" v="Springen" />
		<tag k="place" v="islet" />
		<tag k="ssr:stedsnr" v="25806" />
	</node>
	<node lat="58.003322224488244" lon="7.504430555452003" id="-39187">
		<tag k="name" v="Breibyggodden" />
		<tag k="natural" v="cape" />
		<tag k="ssr:stedsnr" v="26025" />
	</node>
	<node lat="58.004633337040396" lon="7.4875527779505635" id="-39188">
		<tag k="name" v="Sørdalen" />
		<tag k="natural" v="valley" />
		<tag k="place" v="locality" />
		<tag k="ssr:stedsnr" v="26028" />
	</node>
	<node lat="58.044461111817625" lon="7.43418055245205" id="-39189">
		<tag k="name" v="Svolgjelet" />
		<tag k="natural" v="valley" />
		<tag k="place" v="locality" />
		<tag k="ssr:stedsnr" v="26218" />
	</node>
	<node lat="58.04384999896759" lon="7.435347229410645" id="-39190">
		<tag k="fixme" v="consider natural=peak for the most distinct mountains in the district" />
		<tag k="name" v="Langebakken" />
		<tag k="natural" v="hill" />
		<tag k="place" v="locality" />
		<tag k="ssr:stedsnr" v="26220" />
	</node>
	<node lat="58.05200000099138" lon="7.468191671541395" id="-39191">
		<tag k="name" v="Hålandsheia østre" />
		<tag k="natural" v="hill" />
		<tag k="place" v="locality" />
		<tag k="ssr:stedsnr" v="26224" />
	</node>
	<node lat="58.06001944310436" lon="7.480808340882008" id="-39192">
		<tag k="name" v="Saumyrknibben" />
		<tag k="natural" v="hill" />
		<tag k="place" v="locality" />
		<tag k="ssr:stedsnr" v="26228" />
	</node>
	<node lat="58.04691666548493" lon="7.526811110237427" id="-39193">
		<tag k="name" v="Teinela" />
		<tag k="natural" v="bay" />
		<tag k="ssr:stedsnr" v="26502" />
	</node>
	<node lat="57.98584444168495" lon="7.596302770451528" id="-39194">
		<tag k="name" v="Prestholmsundet" />
		<tag k="natural" v="strait" />
		<tag k="ssr:stedsnr" v="26422" />
	</node>
	<node lat="58.02892499864036" lon="7.558283327024403" id="-39195">
		<tag k="fixme" v="consider natural=peak for the most distinct mountains in the district" />
		<tag k="name" v="Ravneheia" />
		<tag k="natural" v="hill" />
		<tag k="place" v="locality" />
		<tag k="ssr:stedsnr" v="26481" />
	</node>
	<node lat="58.02897500075823" lon="7.5647166721546935" id="-39196">
		<tag k="name" v="Slåteodden" />
		<tag k="natural" v="cape" />
		<tag k="ssr:stedsnr" v="26492" />
	</node>
	<node lat="57.984555552041705" lon="7.632369436693923" id="-39197">
		<tag k="alt_name" v="Nordreskjæran" />
		<tag k="name" v="Nordreskjeran" />
		<tag k="place" v="islet" />
		<tag k="ssr:stedsnr" v="26621" />
	</node>
	<node lat="58.0351000003839" lon="7.648505548148829" id="-39198">
		<tag k="name" v="Ramsetjønn" />
		<tag k="natural" v="water" />
		<tag k="ssr:stedsnr" v="26625" />
	</node>
	<node lat="57.9766277761151" lon="7.602202774429582" id="-39199">
		<tag k="alt_name" v="Knuten" />
		<tag k="name" v="Knuden" />
		<tag k="natural" v="hill" />
		<tag k="place" v="locality" />
		<tag k="ssr:stedsnr" v="26626" />
	</node>
	<node lat="58.03032500202977" lon="7.362208325422101" id="-39200">
		<tag k="name" v="Utforheia" />
		<tag k="natural" v="hill" />
		<tag k="place" v="locality" />
		<tag k="ssr:stedsnr" v="26777" />
	</node>
	<node lat="57.99041666894068" lon="7.349061119328074" id="-39201">
		<tag k="fixme" v="consider seamark:type=rock or natural=shoal" />
		<tag k="name" v="Hålet" />
		<tag k="place" v="islet" />
		<tag k="ssr:stedsnr" v="26913" />
	</node>
	<node lat="58.006808335984765" lon="7.555447219075932" id="-39202">
		<tag k="name" v="Bjørholmen" />
		<tag k="place" v="islet" />
		<tag k="ssr:stedsnr" v="26919" />
	</node>
	<node lat="58.001055551279684" lon="7.536858329268443" id="-39203">
		<tag k="name" v="Raunholmen" />
		<tag k="place" v="islet" />
		<tag k="ssr:stedsnr" v="26920" />
	</node>
	<node lat="58.00102777712104" lon="7.572222213841839" id="-39204">
		<tag k="name" v="Langøyholmen" />
		<tag k="place" v="islet" />
		<tag k="ssr:stedsnr" v="26921" />
	</node>
	<node lat="58.026136112053464" lon="7.397991665410294" id="-39205">
		<tag k="name" v="Fiskefjell" />
		<tag k="natural" v="hill" />
		<tag k="place" v="locality" />
		<tag k="ssr:stedsnr" v="26814" />
	</node>
	<node lat="57.991091662543795" lon="7.382822228600862" id="-39206">
		<tag k="name" v="Naudsundet" />
		<tag k="natural" v="strait" />
		<tag k="ssr:stedsnr" v="26870" />
	</node>
	<node lat="58.02960000432421" lon="7.378161103274779" id="-39207">
		<tag k="name" v="Fløybakken" />
		<tag k="natural" v="hill" />
		<tag k="place" v="locality" />
		<tag k="ssr:stedsnr" v="26820" />
	</node>
	<node lat="58.0236611117028" lon="7.384791667309289" id="-39208">
		<tag k="name" v="Stormyr" />
		<tag k="natural" v="wetland" />
		<tag k="ssr:stedsnr" v="26823" />
	</node>
	<node lat="58.05297499936837" lon="7.457508338072978" id="-39239">
		<tag k="fixme" v="consider natural=peak for the most distinct mountains in the district" />
		<tag k="name" v="Hålandsfjell" />
		<tag k="natural" v="hill" />
		<tag k="place" v="locality" />
		<tag k="ssr:stedsnr" v="236939" />
	</node>
	<node lat="58.169577780997265" lon="7.573644449382208" id="-39254">
		<tag k="bridge" v="yes" />
		<tag k="layer" v="1" />
		<tag k="name" v="Sagbrua" />
		<tag k="ssr:stedsnr" v="46003" />
	</node>
	<node lat="57.969661115598335" lon="7.540294452296077" id="-39255">
		<tag k="name" v="Lille Vengelsholman" />
		<tag k="place" v="islet" />
		<tag k="ssr:stedsnr" v="238840" />
	</node>
	<node lat="58.12231389207062" lon="7.343074999030849" id="-39256">
		<tag k="name" v="Melhus" />
		<tag k="place" v="farm" />
		<tag k="ssr:stedsnr" v="50484" />
	</node>
	<node lat="58.125711113777385" lon="7.352616658092608" id="-39257">
		<tag k="name" v="Melhus" />
		<tag k="place" v="farm" />
		<tag k="ssr:stedsnr" v="50487" />
	</node>
	<node lat="58.05592222135529" lon="7.110750005257743" id="-39282">
		<tag k="name" v="Øksnevik" />
		<tag k="place" v="neighbourhood" />
		<tag k="ssr:stedsnr" v="57911" />
	</node>
	<node lat="58.006361106973614" lon="7.04109444556723" id="-39283">
		<tag k="name" v="Stusvik" />
		<tag k="place" v="neighbourhood" />
		<tag k="ssr:stedsnr" v="57912" />
	</node>
	<node lat="58.048713890540846" lon="7.257327774621432" id="-39284">
		<tag k="name" v="Vardebakken" />
		<tag k="place" v="neighbourhood" />
		<tag k="ssr:stedsnr" v="57918" />
	</node>
	<node lat="58.18017500410214" lon="7.306352773594304" id="-39300">
		<tag k="alt_name" v="Risdalsvannet" />
		<tag k="name" v="Risdalsvatnet" />
		<tag k="natural" v="water" />
		<tag k="ssr:stedsnr" v="60426" />
		<tag k="water" v="lake" />
	</node>
	<node lat="58.17392500408048" lon="7.278813893486869" id="-39301">
		<tag k="alt_name" v="Krogvannet" />
		<tag k="name" v="Krokevatnet" />
		<tag k="natural" v="water" />
		<tag k="ssr:stedsnr" v="60472" />
	</node>
	<node lat="58.17978333522883" lon="7.590950005495813" id="-39303">
		<tag k="alt_name" v="Ravnåsvann" />
		<tag k="name" v="Ramnåsvatnet" />
		<tag k="natural" v="water" />
		<tag k="ssr:stedsnr" v="60810" />
	</node>
	<node lat="58.16980278126401" lon="7.477505547184035" id="-39304">
		<tag k="alt_name" v="Stevlevann" />
		<tag k="name" v="Stevlvatnet" />
		<tag k="natural" v="water" />
		<tag k="ssr:stedsnr" v="60819" />
	</node>
	<node lat="58.09608055842372" lon="7.287436107842889" id="-39306">
		<tag k="alt_name" v="Giskedal" />
		<tag k="fixme" v="consider place=hamlet" />
		<tag k="name" v="Geiskedal" />
		<tag k="place" v="farm" />
		<tag k="ssr:stedsnr" v="60576" />
	</node>
	<node lat="58.048891670964885" lon="7.126286104712268" id="-39307">
		<tag k="name" v="Gare" />
		<tag k="place" v="farm" />
		<tag k="ssr:stedsnr" v="60909" />
	</node>
	<node lat="58.04587499807064" lon="7.29645277887887" id="-39308">
		<tag k="name" v="Ytre Eigeland" />
		<tag k="place" v="farm" />
		<tag k="ssr:stedsnr" v="60912" />
	</node>
	<node lat="57.99893610958873" lon="7.0393277709938555" id="-39309">
		<tag k="name" v="Sjoneheia" />
		<tag k="natural" v="hill" />
		<tag k="place" v="locality" />
		<tag k="ssr:stedsnr" v="61002" />
	</node>
	<node lat="57.99457500020348" lon="7.037977785173341" id="-39310">
		<tag k="alt_name" v="Sulebatjønna" />
		<tag k="name" v="Sulebartjerna" />
		<tag k="natural" v="water" />
		<tag k="ssr:stedsnr" v="61011" />
	</node>
	<node lat="58.04759765783562" lon="7.1253128754561414" id="-39311">
		<tag k="name" v="Gare" />
		<tag k="place" v="farm" />
		<tag k="ssr:stedsnr" v="60996" />
	</node>
	<node lat="58.209730142466555" lon="7.719612889379561" id="-39312">
		<tag k="alt_name" v="Stemtjønn" />
		<tag k="name" v="Stemtjørn" />
		<tag k="natural" v="water" />
		<tag k="ssr:stedsnr" v="61104" />
	</node>
	<node lat="58.22999444034241" lon="7.299772221930918" id="-39313">
		<tag k="fixme" v="consider place=hamlet" />
		<tag k="name" v="Brådland" />
		<tag k="place" v="farm" />
		<tag k="ssr:stedsnr" v="61415" />
	</node>
	<node lat="58.17397499745519" lon="7.330961109151381" id="-39314">
		<tag k="alt_name" v="Stølsås" />
		<tag k="fixme" v="consider place=hamlet" />
		<tag k="name" v="Stølsåsen" />
		<tag k="place" v="farm" />
		<tag k="ssr:stedsnr" v="61472" />
	</node>
	<node lat="58.173469446210994" lon="7.305883324983053" id="-39315">
		<tag k="alt_name" v="Risdal, store" />
		<tag k="fixme" v="consider place=hamlet" />
		<tag k="name" v="Store Risdal" />
		<tag k="place" v="farm" />
		<tag k="ssr:stedsnr" v="61476" />
	</node>
	<node lat="58.10813888858504" lon="7.189316669235193" id="-39316">
		<tag k="alt_name" v="Molandslien" />
		<tag k="fixme" v="consider place=hamlet" />
		<tag k="name" v="Molandsli" />
		<tag k="place" v="farm" />
		<tag k="ssr:stedsnr" v="61486" />
	</node>
	<node lat="58.00186666366013" lon="7.342808330987773" id="-39317">
		<tag k="alt_name" v="Meavra" />
		<tag k="fixme" v="consider seamark:type=rock or natural=shoal" />
		<tag k="name" v="Meavraskjer" />
		<tag k="place" v="islet" />
		<tag k="ssr:stedsnr" v="61615" />
	</node>
	<node lat="58.23903611366897" lon="7.547750002937372" id="-39318">
		<tag k="alt_name" v="Kvasshammervann" />
		<tag k="name" v="Kvasshamarvatnet" />
		<tag k="natural" v="water" />
		<tag k="ssr:stedsnr" v="61623" />
	</node>
	<node lat="58.13540000345261" lon="7.271127775585637" id="-39319">
		<tag k="alt_name" v="Stilandsvannet" />
		<tag k="name" v="Stilandsvatnet" />
		<tag k="natural" v="water" />
		<tag k="ssr:stedsnr" v="61515" />
	</node>
	<node lat="58.16108055234689" lon="7.346436112311361" id="-39320">
		<tag k="alt_name" v="Kleiven;Kleven" />
		<tag k="fixme" v="consider place=hamlet" />
		<tag k="name" v="Kleiva" />
		<tag k="place" v="farm" />
		<tag k="ssr:stedsnr" v="61722" />
	</node>
	<node lat="58.233066665921655" lon="7.507766668311015" id="-39321">
		<tag k="alt_name" v="Kåland" />
		<tag k="name" v="Koland" />
		<tag k="place" v="farm" />
		<tag k="ssr:stedsnr" v="61726" />
	</node>
	<node lat="58.16518889034363" lon="7.509030557965163" id="-39322">
		<tag k="alt_name" v="Josdalsvann" />
		<tag k="name" v="Jorsdalsvatnet" />
		<tag k="natural" v="water" />
		<tag k="ssr:stedsnr" v="61794" />
	</node>
	<node lat="58.091427776740595" lon="7.642861112448578" id="-39323">
		<tag k="alt_name" v="Hestehei" />
		<tag k="name" v="Hestheia" />
		<tag k="natural" v="hill" />
		<tag k="place" v="locality" />
		<tag k="ssr:stedsnr" v="61931" />
	</node>
	<node lat="58.02148333742174" lon="7.630511115115877" id="-39324">
		<tag k="alt_name" v="Ærekjær" />
		<tag k="name" v="Ærekjerr" />
		<tag k="place" v="farm" />
		<tag k="ssr:stedsnr" v="61939" />
	</node>
	<node lat="58.37782153924318" lon="7.61345757681881" id="-39325">
		<tag k="alt_name" v="Geitetjønn" />
		<tag k="name" v="Geittjørn" />
		<tag k="natural" v="water" />
		<tag k="ssr:stedsnr" v="61943" />
	</node>
	<node lat="58.398413892989595" lon="7.55187500456304" id="-39326">
		<tag k="alt_name" v="Styggedal" />
		<tag k="name" v="Styggedalen" />
		<tag k="natural" v="valley" />
		<tag k="place" v="locality" />
		<tag k="ssr:stedsnr" v="61969" />
	</node>
	<node lat="58.201183329963705" lon="7.426561104300371" id="-39327">
		<tag k="alt_name" v="Kjelingheia" />
		<tag k="fixme" v="consider natural=peak for the most distinct mountains in the district" />
		<tag k="name" v="Kjellingsheia" />
		<tag k="natural" v="hill" />
		<tag k="place" v="locality" />
		<tag k="ssr:stedsnr" v="61691" />
	</node>
	<node lat="58.17503055834426" lon="7.347338892866406" id="-39328">
		<tag k="fixme" v="consider place=hamlet" />
		<tag k="name" v="Løland" />
		<tag k="place" v="farm" />
		<tag k="ssr:stedsnr" v="61697" />
	</node>
	<node lat="58.08585833705624" lon="7.521736111509516" id="-39329">
		<tag k="alt_name" v="Møll, midtre" />
		<tag k="name" v="Midtre Møll" />
		<tag k="place" v="farm" />
		<tag k="ssr:stedsnr" v="61815" />
	</node>
	<node lat="58.09867029333927" lon="7.462144190248398" id="-39330">
		<tag k="alt_name" v="Ljosevannet" />
		<tag k="name" v="Ljosevatnet" />
		<tag k="natural" v="water" />
		<tag k="ssr:stedsnr" v="61825" />
	</node>
	<node lat="58.05707777613603" lon="7.408224999903315" id="-39331">
		<tag k="name" v="Lyseheia" />
		<tag k="natural" v="hill" />
		<tag k="place" v="locality" />
		<tag k="ssr:stedsnr" v="61886" />
	</node>
	<node lat="58.41089722378233" lon="7.487355554783831" id="-39332">
		<tag k="alt_name" v="Sogehei" />
		<tag k="name" v="Sogeheii" />
		<tag k="natural" v="hill" />
		<tag k="place" v="locality" />
		<tag k="ssr:stedsnr" v="61890" />
	</node>
	<node lat="58.40931944355057" lon="7.531855552069568" id="-39333">
		<tag k="alt_name" v="Sundet;Lille Sundet" />
		<tag k="fixme" v="consider place=hamlet" />
		<tag k="name" v="Sunde" />
		<tag k="place" v="farm" />
		<tag k="ssr:stedsnr" v="61894" />
	</node>
	<node lat="58.06999166484276" lon="7.59315277083457" id="-39334">
		<tag k="alt_name" v="Skagestadvannet" />
		<tag k="name" v="Skagestadvatnet" />
		<tag k="natural" v="water" />
		<tag k="ssr:stedsnr" v="61897" />
		<tag k="water" v="lake" />
	</node>
	<node lat="57.996072217764855" lon="7.388197220631252" id="-39339">
		<tag k="bay" v="fjord" />
		<tag k="name" v="Tungefjorden" />
		<tag k="natural" v="bay" />
		<tag k="ssr:stedsnr" v="242028" />
	</node>
	<node lat="57.99356666275143" lon="7.545022217313743" id="-39340">
		<tag k="name" v="Bergeneset" />
		<tag k="natural" v="cape" />
		<tag k="ssr:stedsnr" v="242038" />
	</node>
	<node lat="58.09644999920716" lon="7.3193666626326666" id="-39341">
		<tag k="name" v="Valle" />
		<tag k="place" v="farm" />
		<tag k="ssr:stedsnr" v="242562" />
	</node>
	<node lat="58.07454722046759" lon="7.197127770568535" id="-39343">
		<tag k="alt_name" v="Hesteheia" />
		<tag k="name" v="Hestheia" />
		<tag k="natural" v="hill" />
		<tag k="place" v="locality" />
		<tag k="ssr:stedsnr" v="242596" />
	</node>
	<node lat="58.31168289074479" lon="7.474964191442604" id="-39345">
		<tag k="alt_name" v="Lammetjønn" />
		<tag k="name" v="Lammetjørn" />
		<tag k="natural" v="water" />
		<tag k="ssr:stedsnr" v="242744" />
	</node>
	<node lat="58.30391944130514" lon="7.432177774040062" id="-39346">
		<tag k="alt_name" v="Bjørnhom" />
		<tag k="fixme" v="consider place=hamlet" />
		<tag k="name" v="Bjørnhommen" />
		<tag k="place" v="farm" />
		<tag k="ssr:stedsnr" v="242834" />
	</node>
	<node lat="58.28604166466239" lon="7.432200004538515" id="-39347">
		<tag k="fixme" v="consider place=hamlet" />
		<tag k="name" v="Tisland" />
		<tag k="place" v="farm" />
		<tag k="ssr:stedsnr" v="242843" />
	</node>
	<node lat="58.29281666716568" lon="7.4360638963048284" id="-39348">
		<tag k="fixme" v="consider natural=peak for the most distinct mountains in the district" />
		<tag k="name" v="Dovrehei" />
		<tag k="natural" v="hill" />
		<tag k="place" v="locality" />
		<tag k="ssr:stedsnr" v="242851" />
	</node>
	<node lat="58.35401944735444" lon="7.451424998799967" id="-39349">
		<tag k="fixme" v="consider place=hamlet" />
		<tag k="name" v="Øvre Abelset" />
		<tag k="place" v="farm" />
		<tag k="ssr:stedsnr" v="242859" />
	</node>
	<node lat="58.04878332975585" lon="7.284419442179446" id="-39350">
		<tag k="name" v="Ytre Eigeland" />
		<tag k="place" v="farm" />
		<tag k="ssr:stedsnr" v="242897" />
	</node>
	<node lat="58.06638611224665" lon="7.375727769526461" id="-39351">
		<tag k="name" v="Sjølingstad" />
		<tag k="place" v="farm" />
		<tag k="ssr:stedsnr" v="242901" />
	</node>
	<node lat="58.05085555498333" lon="7.287369446799648" id="-39352">
		<tag k="name" v="Ytre Eigeland" />
		<tag k="place" v="farm" />
		<tag k="ssr:stedsnr" v="242903" />
	</node>
	<node lat="58.18279444767738" lon="7.392736103086815" id="-39353">
		<tag k="name" v="Oppsal" />
		<tag k="place" v="farm" />
		<tag k="ssr:stedsnr" v="242922" />
	</node>
	<node lat="58.051930554822654" lon="7.192422223839037" id="-39354">
		<tag k="name" v="Østre Reme" />
		<tag k="place" v="farm" />
		<tag k="ssr:stedsnr" v="242929" />
	</node>
	<node lat="57.97455278081394" lon="7.498936114500128" id="-39355">
		<tag k="bay" v="fjord" />
		<tag k="name" v="Eigelandsrenna" />
		<tag k="natural" v="bay" />
		<tag k="ssr:stedsnr" v="243044" />
	</node>
	<node lat="58.01041111457377" lon="7.593597226588133" id="-39356">
		<tag k="name" v="Sandvika" />
		<tag k="place" v="farm" />
		<tag k="ssr:stedsnr" v="243051" />
	</node>
	<node lat="58.384874997901456" lon="7.4853055550876775" id="-39357">
		<tag k="alt_name" v="Indrejordstjønna" />
		<tag k="name" v="Indrejordstjørni" />
		<tag k="natural" v="water" />
		<tag k="ssr:stedsnr" v="242995" />
	</node>
	<node lat="57.98098333496262" lon="7.2043861039916255" id="-39358">
		<tag k="name" v="Smellodden" />
		<tag k="natural" v="cape" />
		<tag k="ssr:stedsnr" v="243019" />
	</node>
	<node lat="58.1474083333827" lon="7.275272214524369" id="-39359">
		<tag k="alt_name" v="Døblevannet" />
		<tag k="name" v="Døblevatnet" />
		<tag k="natural" v="water" />
		<tag k="ssr:stedsnr" v="243547" />
	</node>
	<node lat="58.12347777953907" lon="7.320949994815494" id="-39360">
		<tag k="name" v="Grasdal" />
		<tag k="place" v="farm" />
		<tag k="ssr:stedsnr" v="243570" />
	</node>
	<node lat="58.20662777394852" lon="7.245199994289009" id="-39361">
		<tag k="alt_name" v="Langevannet" />
		<tag k="name" v="Langevatnet" />
		<tag k="natural" v="water" />
		<tag k="ssr:stedsnr" v="243412" />
	</node>
	<node lat="58.216300519987975" lon="7.24017504771145" id="-39362">
		<tag k="name" v="Sandtjørn" />
		<tag k="natural" v="water" />
		<tag k="ssr:stedsnr" v="243417" />
	</node>
	<node lat="58.22157222636656" lon="7.337994437691158" id="-39363">
		<tag k="alt_name" v="Audnedalselva" />
		<tag k="name" v="Audna" />
		<tag k="ssr:stedsnr" v="243429" />
		<tag k="waterway" v="river" />
	</node>
	<node lat="58.165666666953825" lon="7.2893111136375985" id="-39364">
		<tag k="alt_name" v="Stolpehei" />
		<tag k="name" v="Stolpeheia" />
		<tag k="natural" v="hill" />
		<tag k="place" v="locality" />
		<tag k="ssr:stedsnr" v="243477" />
	</node>
	<node lat="58.119861110045775" lon="7.34270277321728" id="-39365">
		<tag k="fixme" v="consider place=suburb, village or hamlet" />
		<tag k="name" v="Buhølen" />
		<tag k="place" v="quarter" />
		<tag k="ssr:stedsnr" v="243504" />
	</node>
	<node lat="58.11105555206122" lon="7.2121000086020075" id="-39366">
		<tag k="fixme" v="consider place=hamlet" />
		<tag k="name" v="Osestad" />
		<tag k="place" v="farm" />
		<tag k="ssr:stedsnr" v="243518" />
	</node>
	<node lat="58.0648777805575" lon="7.257991668048556" id="-39367">
		<tag k="alt_name" v="Mågevannet" />
		<tag k="name" v="Mågetjern" />
		<tag k="natural" v="water" />
		<tag k="ssr:stedsnr" v="243578" />
	</node>
	<node lat="58.05212222420862" lon="7.195175004645942" id="-39368">
		<tag k="name" v="Reme" />
		<tag k="place" v="hamlet" />
		<tag k="ssr:stedsnr" v="243582" />
	</node>
	<node lat="58.23428055750792" lon="7.436325007904008" id="-39369">
		<tag k="alt_name" v="Stokkevannet" />
		<tag k="name" v="Stokkevatnet" />
		<tag k="natural" v="water" />
		<tag k="ssr:stedsnr" v="243658" />
	</node>
	<node lat="58.24696960263961" lon="7.504531851388135" id="-39370">
		<tag k="amenity" v="place_of_worship" />
		<tag k="denomination" v="lutheran" />
		<tag k="name" v="Laudal kyrkje" />
		<tag k="religion" v="christian" />
		<tag k="ssr:stedsnr" v="243627" />
	</node>
	<node lat="58.03120278060853" lon="7.240886114125509" id="-39371">
		<tag k="alt_name" v="Håbåane" />
		<tag k="fixme" v="consider seamark:type=rock or natural=shoal" />
		<tag k="name" v="Håboan" />
		<tag k="place" v="islet" />
		<tag k="ssr:stedsnr" v="243696" />
	</node>
	<node lat="58.02617500249435" lon="7.277916673801702" id="-39372">
		<tag k="name" v="Fløyholmen" />
		<tag k="place" v="islet" />
		<tag k="ssr:stedsnr" v="243698" />
	</node>
	<node lat="58.18306666240604" lon="7.556699996402512" id="-39373">
		<tag k="name" v="Uslandsheia" />
		<tag k="natural" v="hill" />
		<tag k="place" v="locality" />
		<tag k="ssr:stedsnr" v="243712" />
	</node>
	<node lat="58.039074999567696" lon="7.336025002073331" id="-39374">
		<tag k="alt_name" v="Lundevig" />
		<tag k="name" v="Lundevik" />
		<tag k="place" v="hamlet" />
		<tag k="ssr:stedsnr" v="243673" />
	</node>
	<node lat="58.223708336035855" lon="7.649094452131128" id="-39375">
		<tag k="fixme" v="consider place=hamlet" />
		<tag k="name" v="Bjeddan" />
		<tag k="place" v="farm" />
		<tag k="ssr:stedsnr" v="243760" />
	</node>
	<node lat="58.19290000118036" lon="7.452686118200921" id="-39376">
		<tag k="alt_name" v="Flumeråsen" />
		<tag k="fixme" v="consider natural=peak for the most distinct mountains in the district" />
		<tag k="name" v="Flagmyråsen" />
		<tag k="natural" v="hill" />
		<tag k="place" v="locality" />
		<tag k="ssr:stedsnr" v="243720" />
	</node>
	<node lat="58.19156111013276" lon="7.618924996244124" id="-39377">
		<tag k="alt_name" v="Stemtjønn" />
		<tag k="name" v="Stemmetjørna" />
		<tag k="natural" v="water" />
		<tag k="ssr:stedsnr" v="243722" />
	</node>
	<node lat="58.169752777752464" lon="7.422433337271082" id="-39378">
		<tag k="alt_name" v="Tjomslandsvannet" />
		<tag k="name" v="Tjomslandsvatnet" />
		<tag k="natural" v="water" />
		<tag k="ssr:stedsnr" v="243798" />
		<tag k="water" v="lake" />
	</node>
	<node lat="58.336897225648734" lon="7.518175004377604" id="-39379">
		<tag k="alt_name" v="Homme;Homme ytre" />
		<tag k="fixme" v="consider place=hamlet" />
		<tag k="name" v="Ytre Homme" />
		<tag k="place" v="farm" />
		<tag k="ssr:stedsnr" v="243799" />
	</node>
	<node lat="58.169502779912676" lon="7.502847226607787" id="-39380">
		<tag k="fixme" v="consider place=hamlet" />
		<tag k="name" v="Gangså" />
		<tag k="place" v="farm" />
		<tag k="ssr:stedsnr" v="243801" />
	</node>
	<node lat="58.168863891886055" lon="7.359055563639914" id="-39381">
		<tag k="alt_name" v="Einarsmo" />
		<tag k="fixme" v="consider place=hamlet" />
		<tag k="name" v="Einarsmonen" />
		<tag k="place" v="farm" />
		<tag k="ssr:stedsnr" v="243805" />
	</node>
	<node lat="58.16805000274073" lon="7.386036105090102" id="-39382">
		<tag k="alt_name" v="Heddan" />
		<tag k="fixme" v="consider place=hamlet" />
		<tag k="name" v="Helland" />
		<tag k="place" v="farm" />
		<tag k="ssr:stedsnr" v="243809" />
	</node>
	<node lat="58.09789166843666" lon="7.58919167256507" id="-39383">
		<tag k="alt_name" v="Krogevannet" />
		<tag k="name" v="Krokvatnet" />
		<tag k="natural" v="water" />
		<tag k="ssr:stedsnr" v="243812" />
	</node>
	<node lat="58.081913888817084" lon="7.426761116416138" id="-39384">
		<tag k="alt_name" v="Gjervoldstad" />
		<tag k="fixme" v="consider place=hamlet" />
		<tag k="name" v="Gjervollstad" />
		<tag k="place" v="farm" />
		<tag k="ssr:stedsnr" v="243815" />
	</node>
	<node lat="58.32232222222405" lon="7.485591658725184" id="-39385">
		<tag k="alt_name" v="Haraldstad, nedre;Haraldstad nedre" />
		<tag k="fixme" v="consider place=hamlet" />
		<tag k="name" v="Nedre Haraldstad" />
		<tag k="place" v="farm" />
		<tag k="ssr:stedsnr" v="243779" />
	</node>
	<node lat="58.12295555729837" lon="7.412841668456893" id="-39386">
		<tag k="alt_name" v="Goksem" />
		<tag k="fixme" v="consider place=hamlet" />
		<tag k="name" v="Gauksum" />
		<tag k="place" v="farm" />
		<tag k="ssr:stedsnr" v="243852" />
	</node>
	<node lat="58.093849997435804" lon="7.438199999502064" id="-39387">
		<tag k="alt_name" v="Møglandsvannet" />
		<tag k="name" v="Møglandsvatnet" />
		<tag k="natural" v="water" />
		<tag k="ssr:stedsnr" v="243829" />
		<tag k="water" v="lake" />
	</node>
	<node lat="58.10881666398015" lon="7.400827777140781" id="-39388">
		<tag k="fixme" v="consider place=hamlet" />
		<tag k="name" v="Birkeland" />
		<tag k="place" v="farm" />
		<tag k="ssr:stedsnr" v="243862" />
	</node>
	<node lat="58.43075555541464" lon="7.629269439172076" id="-39389">
		<tag k="fixme" v="consider natural=peak for the most distinct mountains in the district" />
		<tag k="name" v="Skaren" />
		<tag k="natural" v="hill" />
		<tag k="place" v="locality" />
		<tag k="ssr:stedsnr" v="243875" />
	</node>
	<node lat="58.41720277716721" lon="7.564038892970195" id="-39390">
		<tag k="alt_name" v="Jørensvatn" />
		<tag k="name" v="Jorunstjørn" />
		<tag k="natural" v="water" />
		<tag k="ssr:stedsnr" v="243878" />
	</node>
	<node lat="58.06437777995227" lon="7.595733337102334" id="-39391">
		<tag k="alt_name" v="Vetnes" />
		<tag k="fixme" v="consider place=hamlet" />
		<tag k="name" v="Vætnes" />
		<tag k="place" v="farm" />
		<tag k="ssr:stedsnr" v="243880" />
	</node>
	<node lat="58.02269444466387" lon="7.659019446983058" id="-39392">
		<tag k="bay" v="fjord" />
		<tag k="name" v="Dalskilen" />
		<tag k="natural" v="bay" />
		<tag k="ssr:stedsnr" v="243951" />
	</node>
	<node lat="58.02278333317564" lon="7.375075002576384" id="-39393">
		<tag k="fixme" v="consider place=hamlet" />
		<tag k="name" v="Høksås" />
		<tag k="place" v="farm" />
		<tag k="ssr:stedsnr" v="243955" />
	</node>
	<node lat="58.06934999897207" lon="7.398049992388955" id="-39394">
		<tag k="alt_name" v="Stuvannet" />
		<tag k="name" v="Stuvvatnet" />
		<tag k="natural" v="water" />
		<tag k="ssr:stedsnr" v="243905" />
	</node>
	<node lat="58.06246111348845" lon="7.376855561870875" id="-39395">
		<tag k="alt_name" v="Hegrestadvannet" />
		<tag k="name" v="Hegrestadvatnet" />
		<tag k="natural" v="water" />
		<tag k="ssr:stedsnr" v="243908" />
	</node>
	<node lat="58.02510555341903" lon="7.494500008146312" id="-39396">
		<tag k="alt_name" v="Stovetjønna" />
		<tag k="name" v="Jordtjørna" />
		<tag k="natural" v="water" />
		<tag k="ssr:stedsnr" v="243961" />
	</node>
	<node lat="58.36354166621049" lon="7.525352786090598" id="-39397">
		<tag k="fixme" v="consider place=hamlet" />
		<tag k="name" v="Trygsland" />
		<tag k="place" v="farm" />
		<tag k="ssr:stedsnr" v="243965" />
	</node>
	<node lat="58.03488333041334" lon="7.619188883424439" id="-39398">
		<tag k="fixme" v="consider place=hamlet" />
		<tag k="name" v="Osnes" />
		<tag k="place" v="farm" />
		<tag k="ssr:stedsnr" v="243972" />
	</node>
	<node lat="58.03462500428814" lon="7.499030551853753" id="-39399">
		<tag k="fixme" v="consider place=hamlet" />
		<tag k="name" v="Ime" />
		<tag k="place" v="farm" />
		<tag k="ssr:stedsnr" v="243979" />
	</node>
	<node lat="58.40076944496925" lon="7.584522228394576" id="-39400">
		<tag k="name" v="Huset" />
		<tag k="place" v="farm" />
		<tag k="ssr:stedsnr" v="243980" />
	</node>
	<node lat="58.446558331265464" lon="7.6295444472288425" id="-39401">
		<tag k="alt_name" v="Stemlona" />
		<tag k="name" v="Stemmeloni" />
		<tag k="natural" v="water" />
		<tag k="ssr:stedsnr" v="243920" />
		<tag k="water" v="lake" />
	</node>
	<node lat="58.44903481029914" lon="7.626088431734715" id="-39402">
		<tag k="alt_name" v="Knibetjønn" />
		<tag k="name" v="Kjærtjørn" />
		<tag k="natural" v="water" />
		<tag k="ssr:stedsnr" v="243921" />
	</node>
	<node lat="58.44764166710171" lon="7.509355558789336" id="-39403">
		<tag k="alt_name" v="Øvre Homme" />
		<tag k="fixme" v="consider place=hamlet" />
		<tag k="name" v="Homme" />
		<tag k="place" v="farm" />
		<tag k="ssr:stedsnr" v="243925" />
	</node>
	<node lat="58.076110027494074" lon="7.344218319782857" id="-39404">
		<tag k="name" v="Tredal" />
		<tag k="place" v="farm" />
		<tag k="ssr:stedsnr" v="243926" />
	</node>
	<node lat="58.43373611324368" lon="7.59186110548781" id="-39405">
		<tag k="alt_name" v="Furuåsen" />
		<tag k="fixme" v="consider natural=peak for the most distinct mountains in the district" />
		<tag k="name" v="Furåsen" />
		<tag k="natural" v="hill" />
		<tag k="place" v="locality" />
		<tag k="ssr:stedsnr" v="243929" />
	</node>
	<node lat="58.055969444996485" lon="7.130780548144223" id="-39406">
		<tag k="name" v="Mollekleiva" />
		<tag k="natural" v="slope" />
		<tag k="place" v="locality" />
		<tag k="ssr:stedsnr" v="82103" />
	</node>
	<node lat="58.07671110796591" lon="7.171161115815675" id="-39407">
		<tag k="name" v="Kniben" />
		<tag k="natural" v="hill" />
		<tag k="place" v="locality" />
		<tag k="ssr:stedsnr" v="82132" />
	</node>
	<node lat="58.076200000651795" lon="7.175538886015758" id="-39408">
		<tag k="name" v="Lille Kniben" />
		<tag k="natural" v="hill" />
		<tag k="place" v="locality" />
		<tag k="ssr:stedsnr" v="82133" />
	</node>
	<node lat="58.21582500093881" lon="7.422105550551847" id="-39409">
		<tag k="name" v="Brendan" />
		<tag k="natural" v="hill" />
		<tag k="place" v="locality" />
		<tag k="ssr:stedsnr" v="82192" />
	</node>
	<node lat="58.174633332764216" lon="7.386302779077438" id="-39410">
		<tag k="name" v="Tyrihei" />
		<tag k="natural" v="hill" />
		<tag k="place" v="locality" />
		<tag k="ssr:stedsnr" v="82201" />
	</node>
	<node lat="57.981258334142225" lon="7.213713892920459" id="-39411">
		<tag k="name" v="Kaddanvika" />
		<tag k="natural" v="bay" />
		<tag k="ssr:stedsnr" v="82303" />
	</node>
	<node lat="58.034158330407074" lon="7.189000007451856" id="-39413">
		<tag k="name" v="Nodevika" />
		<tag k="natural" v="bay" />
		<tag k="ssr:stedsnr" v="82315" />
	</node>
	<node lat="58.000180558119986" lon="7.088608332538476" id="-39414">
		<tag k="name" v="Sjonefjellet" />
		<tag k="natural" v="hill" />
		<tag k="place" v="locality" />
		<tag k="ssr:stedsnr" v="82333" />
	</node>
	<node lat="58.02753889181391" lon="7.183788892268886" id="-39415">
		<tag k="name" v="Langevika" />
		<tag k="natural" v="bay" />
		<tag k="ssr:stedsnr" v="82346" />
	</node>
	<node lat="58.04416110856689" lon="7.073486106703678" id="-39416">
		<tag k="name" v="Veahogget" />
		<tag k="place" v="locality" />
		<tag k="ssr:stedsnr" v="82097" />
	</node>
	<node lat="58.06070833188287" lon="7.130947221977194" id="-39417">
		<tag k="name" v="Voringsheia" />
		<tag k="natural" v="hill" />
		<tag k="place" v="locality" />
		<tag k="ssr:stedsnr" v="82101" />
	</node>
	<node lat="58.17201110829217" lon="7.383930564067187" id="-39418">
		<tag k="name" v="Heddansmyra" />
		<tag k="natural" v="wetland" />
		<tag k="ssr:stedsnr" v="82210" />
	</node>
	<node lat="58.18173055542945" lon="7.366138894932827" id="-39419">
		<tag k="name" v="Svartufsa" />
		<tag k="natural" v="cliff" />
		<tag k="ssr:stedsnr" v="82215" />
	</node>
	<node lat="58.224827780438666" lon="7.346577785475927" id="-39420">
		<tag k="fixme" v="consider natural=peak for the most distinct mountains in the district" />
		<tag k="name" v="Rinnan" />
		<tag k="natural" v="hill" />
		<tag k="place" v="locality" />
		<tag k="ssr:stedsnr" v="82225" />
	</node>
	<node lat="58.22706111347584" lon="7.296916664288882" id="-39421">
		<tag k="name" v="Rosseneset" />
		<tag k="natural" v="cape" />
		<tag k="ssr:stedsnr" v="82228" />
	</node>
	<node lat="58.00380277982537" lon="7.046188892626397" id="-39422">
		<tag k="name" v="Heikniben" />
		<tag k="natural" v="hill" />
		<tag k="place" v="locality" />
		<tag k="ssr:stedsnr" v="82409" />
	</node>
	<node lat="58.00606666357852" lon="7.034161109807285" id="-39423">
		<tag k="name" v="Kolnesodden" />
		<tag k="natural" v="cape" />
		<tag k="ssr:stedsnr" v="82411" />
	</node>
	<node lat="58.174650002733344" lon="7.588327778205532" id="-39424">
		<tag k="name" v="Laksesteinen" />
		<tag k="natural" v="stone" />
		<tag k="ssr:stedsnr" v="83006" />
	</node>
	<node lat="58.23906944857846" lon="7.578622218301345" id="-39425">
		<tag k="fixme" v="consider natural=peak for the most distinct mountains in the district" />
		<tag k="name" v="Berhei" />
		<tag k="natural" v="hill" />
		<tag k="place" v="locality" />
		<tag k="ssr:stedsnr" v="83021" />
	</node>
	<node lat="58.249947221507654" lon="7.60271944156157" id="-39426">
		<tag k="name" v="Dynestølheia" />
		<tag k="natural" v="hill" />
		<tag k="place" v="locality" />
		<tag k="ssr:stedsnr" v="83025" />
	</node>
	<node lat="58.05339722431887" lon="7.184136111088312" id="-39427">
		<tag k="name" v="Heptebakken" />
		<tag k="natural" v="hill" />
		<tag k="place" v="locality" />
		<tag k="ssr:stedsnr" v="83027" />
	</node>
	<node lat="58.052955556138755" lon="7.18186666465594" id="-39428">
		<tag k="name" v="Heptevika" />
		<tag k="natural" v="bay" />
		<tag k="ssr:stedsnr" v="83028" />
	</node>
	<node lat="58.04144166821441" lon="7.169816673363482" id="-39429">
		<tag k="name" v="Stamsnes" />
		<tag k="natural" v="cape" />
		<tag k="ssr:stedsnr" v="83040" />
	</node>
	<node lat="58.36544444748257" lon="7.589894450245145" id="-39430">
		<tag k="name" v="Slettebrokmyr" />
		<tag k="natural" v="wetland" />
		<tag k="ssr:stedsnr" v="83043" />
	</node>
	<node lat="58.04186389286319" lon="7.150630549598002" id="-39431">
		<tag k="name" v="Åsen" />
		<tag k="natural" v="hill" />
		<tag k="place" v="locality" />
		<tag k="ssr:stedsnr" v="83045" />
	</node>
	<node lat="58.05658055835312" lon="7.200224992660517" id="-39432">
		<tag k="fixme" v="consider natural=peak for the most distinct mountains in the district" />
		<tag k="name" v="Kastriheia" />
		<tag k="natural" v="hill" />
		<tag k="place" v="locality" />
		<tag k="ssr:stedsnr" v="83049" />
	</node>
	<node lat="58.16330277792659" lon="7.487694440313944" id="-39433">
		<tag k="name" v="Svinsoksdalen" />
		<tag k="natural" v="valley" />
		<tag k="place" v="locality" />
		<tag k="ssr:stedsnr" v="83111" />
	</node>
	<node lat="58.32347500021618" lon="7.496455547996966" id="-39434">
		<tag k="name" v="Fosshei" />
		<tag k="natural" v="slope" />
		<tag k="place" v="locality" />
		<tag k="ssr:stedsnr" v="83116" />
	</node>
	<node lat="58.30081944327221" lon="7.455125001588021" id="-39435">
		<tag k="name" v="Varåsmyra" />
		<tag k="natural" v="wetland" />
		<tag k="ssr:stedsnr" v="83126" />
	</node>
	<node lat="58.30546389063304" lon="7.421888896891507" id="-39436">
		<tag k="name" v="Rustehei" />
		<tag k="natural" v="hill" />
		<tag k="place" v="locality" />
		<tag k="ssr:stedsnr" v="83130" />
	</node>
	<node lat="58.36900833304957" lon="7.433188882950752" id="-39437">
		<tag k="name" v="Glåpen" />
		<tag k="natural" v="valley" />
		<tag k="place" v="locality" />
		<tag k="ssr:stedsnr" v="83138" />
	</node>
	<node lat="58.3505749959999" lon="7.473811117644464" id="-39438">
		<tag k="name" v="Stor-Stedjan" />
		<tag k="natural" v="wetland" />
		<tag k="ssr:stedsnr" v="83205" />
	</node>
	<node lat="58.35473333310192" lon="7.508097219791065" id="-39439">
		<tag k="name" v="Øvre Igledalen" />
		<tag k="natural" v="valley" />
		<tag k="place" v="locality" />
		<tag k="ssr:stedsnr" v="83208" />
	</node>
	<node lat="58.19190277370789" lon="7.597858339017074" id="-39440">
		<tag k="fixme" v="consider natural=peak for the most distinct mountains in the district" />
		<tag k="name" v="Nesholtan" />
		<tag k="natural" v="hill" />
		<tag k="place" v="locality" />
		<tag k="ssr:stedsnr" v="83235" />
	</node>
	<node lat="58.13839444049977" lon="7.581041673884545" id="-39441">
		<tag k="name" v="Byringsdalen" />
		<tag k="natural" v="valley" />
		<tag k="place" v="locality" />
		<tag k="ssr:stedsnr" v="83238" />
	</node>
	<node lat="58.143741664114415" lon="7.5918611058931225" id="-39442">
		<tag k="name" v="Kresjerstjønn" />
		<tag k="natural" v="water" />
		<tag k="ssr:stedsnr" v="83239" />
	</node>
	<node lat="58.191497219566386" lon="7.588311113188729" id="-39443">
		<tag k="name" v="Brendehei" />
		<tag k="natural" v="hill" />
		<tag k="place" v="locality" />
		<tag k="ssr:stedsnr" v="83240" />
	</node>
	<node lat="58.14037777519508" lon="7.6052749938396875" id="-39444">
		<tag k="name" v="Homevann" />
		<tag k="natural" v="water" />
		<tag k="ssr:stedsnr" v="83242" />
		<tag k="water" v="lake" />
	</node>
	<node lat="58.13947222291078" lon="7.593375001849207" id="-39445">
		<tag k="fixme" v="consider natural=peak for the most distinct mountains in the district" />
		<tag k="name" v="Mauråsen" />
		<tag k="natural" v="hill" />
		<tag k="place" v="locality" />
		<tag k="ssr:stedsnr" v="83244" />
	</node>
	<node lat="58.240341667723754" lon="7.431269444849756" id="-39446">
		<tag k="name" v="Kaddansmyr" />
		<tag k="natural" v="wetland" />
		<tag k="ssr:stedsnr" v="83282" />
	</node>
	<node lat="58.38113055960862" lon="7.529666662716346" id="-39447">
		<tag k="fixme" v="consider natural=peak for the most distinct mountains in the district" />
		<tag k="name" v="Norig" />
		<tag k="natural" v="hill" />
		<tag k="place" v="locality" />
		<tag k="ssr:stedsnr" v="83286" />
	</node>
	<node lat="58.30666389241802" lon="7.540411106140887" id="-39448">
		<tag k="name" v="Folldalen" />
		<tag k="natural" v="valley" />
		<tag k="place" v="locality" />
		<tag k="ssr:stedsnr" v="83292" />
	</node>
	<node lat="58.2801583305444" lon="7.451752771941215" id="-39449">
		<tag k="name" v="Kyrdalsmyr" />
		<tag k="natural" v="wetland" />
		<tag k="ssr:stedsnr" v="83293" />
	</node>
	<node lat="58.28792499769737" lon="7.4191500053818915" id="-39450">
		<tag k="name" v="Svanemyr" />
		<tag k="natural" v="wetland" />
		<tag k="ssr:stedsnr" v="83301" />
	</node>
	<node lat="58.45819722319569" lon="7.542997228068407" id="-39451">
		<tag k="name" v="Åsand" />
		<tag k="natural" v="slope" />
		<tag k="place" v="locality" />
		<tag k="ssr:stedsnr" v="83405" />
	</node>
	<node lat="58.13151666266156" lon="7.356977783176273" id="-39452">
		<tag k="name" v="Todnehaugen" />
		<tag k="natural" v="hill" />
		<tag k="place" v="locality" />
		<tag k="ssr:stedsnr" v="83406" />
	</node>
	<node lat="58.17082222416585" lon="7.3288166648468005" id="-39453">
		<tag k="name" v="Stølstjønn" />
		<tag k="natural" v="water" />
		<tag k="ssr:stedsnr" v="83409" />
	</node>
	<node lat="58.149733335369206" lon="7.431027784060819" id="-39454">
		<tag k="name" v="Teremyr" />
		<tag k="natural" v="wetland" />
		<tag k="ssr:stedsnr" v="83420" />
	</node>
	<node lat="58.44731111360624" lon="7.614786114293435" id="-39455">
		<tag k="name" v="Laudalslåtta" />
		<tag k="natural" v="wetland" />
		<tag k="ssr:stedsnr" v="83434" />
	</node>
	<node lat="58.1345750017097" lon="7.414550006781199" id="-39456">
		<tag k="name" v="Husemønen" />
		<tag k="natural" v="hill" />
		<tag k="place" v="locality" />
		<tag k="ssr:stedsnr" v="83436" />
	</node>
	<node lat="58.129447221859884" lon="7.420616673030728" id="-39457">
		<tag k="name" v="Sandvannsbekken" />
		<tag k="ssr:stedsnr" v="83437" />
		<tag k="waterway" v="stream" />
	</node>
	<node lat="58.12960555689808" lon="7.453541663767241" id="-39458">
		<tag k="name" v="Åsetjønna" />
		<tag k="natural" v="water" />
		<tag k="ssr:stedsnr" v="83438" />
	</node>
	<node lat="58.34478889081568" lon="7.535016666897923" id="-39459">
		<tag k="fixme" v="consider natural=peak for the most distinct mountains in the district" />
		<tag k="name" v="Homsknuten" />
		<tag k="natural" v="hill" />
		<tag k="place" v="locality" />
		<tag k="ssr:stedsnr" v="83440" />
	</node>
	<node lat="58.42621944276043" lon="7.519644437549295" id="-39460">
		<tag k="name" v="Lunnan" />
		<tag k="place" v="farm" />
		<tag k="ssr:stedsnr" v="83442" />
	</node>
	<node lat="58.35759444116917" lon="7.458402782689532" id="-39461">
		<tag k="name" v="Langemyr" />
		<tag k="natural" v="wetland" />
		<tag k="ssr:stedsnr" v="83188" />
	</node>
	<node lat="58.34670277519989" lon="7.444652784451128" id="-39462">
		<tag k="name" v="Skrubbeskora" />
		<tag k="natural" v="valley" />
		<tag k="place" v="locality" />
		<tag k="ssr:stedsnr" v="83194" />
	</node>
	<node lat="58.34767499641929" lon="7.467133330222145" id="-39463">
		<tag k="fixme" v="consider natural=peak for the most distinct mountains in the district" />
		<tag k="name" v="Timberåsen" />
		<tag k="natural" v="hill" />
		<tag k="place" v="locality" />
		<tag k="ssr:stedsnr" v="83198" />
	</node>
	<node lat="58.28568889034375" lon="7.421008341702224" id="-39464">
		<tag k="fixme" v="consider natural=peak for the most distinct mountains in the district" />
		<tag k="name" v="Vestre Årehei" />
		<tag k="natural" v="hill" />
		<tag k="place" v="locality" />
		<tag k="ssr:stedsnr" v="83302" />
	</node>
	<node lat="58.288599997837274" lon="7.4060833332671425" id="-39465">
		<tag k="name" v="Sveinebekk" />
		<tag k="ssr:stedsnr" v="83307" />
		<tag k="waterway" v="stream" />
	</node>
	<node lat="58.2819805572364" lon="7.421963880814774" id="-39466">
		<tag k="name" v="Dauredalen" />
		<tag k="natural" v="valley" />
		<tag k="place" v="locality" />
		<tag k="ssr:stedsnr" v="83310" />
	</node>
	<node lat="58.27282221862372" lon="7.4823555515067675" id="-39467">
		<tag k="name" v="Langemyr" />
		<tag k="natural" v="wetland" />
		<tag k="ssr:stedsnr" v="83331" />
	</node>
	<node lat="58.266880553002935" lon="7.425061111503078" id="-39468">
		<tag k="name" v="Torvmyr" />
		<tag k="natural" v="wetland" />
		<tag k="ssr:stedsnr" v="83334" />
	</node>
	<node lat="58.27736111390024" lon="7.4769277819668725" id="-39469">
		<tag k="name" v="Tjovetjønn" />
		<tag k="natural" v="water" />
		<tag k="ssr:stedsnr" v="83336" />
	</node>
	<node lat="58.27414999771196" lon="7.448141671592418" id="-39470">
		<tag k="name" v="Spelebakken" />
		<tag k="natural" v="hill" />
		<tag k="place" v="locality" />
		<tag k="ssr:stedsnr" v="83339" />
	</node>
	<node lat="58.30793055868076" lon="7.463747229721656" id="-39471">
		<tag k="name" v="Kildredalen" />
		<tag k="natural" v="valley" />
		<tag k="place" v="locality" />
		<tag k="ssr:stedsnr" v="83340" />
	</node>
	<node lat="58.316488887382725" lon="7.47356111813507" id="-39472">
		<tag k="name" v="Hufosheia" />
		<tag k="natural" v="hill" />
		<tag k="place" v="locality" />
		<tag k="ssr:stedsnr" v="83342" />
	</node>
	<node lat="58.27991944041885" lon="7.474622224696331" id="-39473">
		<tag k="name" v="Kvennhusdalen" />
		<tag k="natural" v="valley" />
		<tag k="place" v="locality" />
		<tag k="ssr:stedsnr" v="83344" />
	</node>
	<node lat="58.26146944687071" lon="7.485583340216351" id="-39474">
		<tag k="name" v="Vollan" />
		<tag k="natural" v="slope" />
		<tag k="place" v="locality" />
		<tag k="ssr:stedsnr" v="83382" />
	</node>
	<node lat="58.39013055215448" lon="7.61032499968278" id="-39475">
		<tag k="name" v="Ridderdalen" />
		<tag k="natural" v="valley" />
		<tag k="place" v="locality" />
		<tag k="ssr:stedsnr" v="83383" />
	</node>
	<node lat="58.16955278067815" lon="7.349444443227901" id="-39476">
		<tag k="name" v="Torjeshaugen" />
		<tag k="natural" v="slope" />
		<tag k="place" v="locality" />
		<tag k="ssr:stedsnr" v="83387" />
	</node>
	<node lat="57.99573333498819" lon="7.074488896848882" id="-39477">
		<tag k="name" v="Tangebukta" />
		<tag k="natural" v="bay" />
		<tag k="ssr:stedsnr" v="83388" />
	</node>
	<node lat="58.143297220554004" lon="7.366436105178568" id="-39478">
		<tag k="name" v="Gaupefossen" />
		<tag k="natural" v="waterfall" />
		<tag k="ssr:stedsnr" v="83395" />
	</node>
	<node lat="58.14369444217495" lon="7.3682416597398435" id="-39479">
		<tag k="fixme" v="consider natural=peak for the most distinct mountains in the district" />
		<tag k="name" v="Frøysåsen" />
		<tag k="natural" v="hill" />
		<tag k="place" v="locality" />
		<tag k="ssr:stedsnr" v="83396" />
	</node>
	<node lat="58.22408610786496" lon="7.5721333332440155" id="-39480">
		<tag k="name" v="Kjeldalshei" />
		<tag k="natural" v="hill" />
		<tag k="place" v="locality" />
		<tag k="ssr:stedsnr" v="83509" />
	</node>
	<node lat="58.22751666221074" lon="7.588302777723568" id="-39481">
		<tag k="fixme" v="consider natural=peak for the most distinct mountains in the district" />
		<tag k="name" v="Åsehei" />
		<tag k="natural" v="hill" />
		<tag k="place" v="locality" />
		<tag k="ssr:stedsnr" v="83510" />
	</node>
	<node lat="58.21991389006235" lon="7.6158083373779055" id="-39482">
		<tag k="name" v="Monen" />
		<tag k="place" v="locality" />
		<tag k="ssr:stedsnr" v="83517" />
	</node>
	<node lat="58.22348611105984" lon="7.609513891016537" id="-39483">
		<tag k="name" v="Monehei" />
		<tag k="natural" v="hill" />
		<tag k="place" v="locality" />
		<tag k="ssr:stedsnr" v="83520" />
	</node>
	<node lat="58.19896389080337" lon="7.44410000085691" id="-39484">
		<tag k="fixme" v="consider natural=peak for the most distinct mountains in the district" />
		<tag k="name" v="Haukåsen" />
		<tag k="natural" v="hill" />
		<tag k="place" v="locality" />
		<tag k="ssr:stedsnr" v="83480" />
	</node>
	<node lat="58.271247223808984" lon="7.545694439588636" id="-39485">
		<tag k="fixme" v="consider natural=peak for the most distinct mountains in the district" />
		<tag k="name" v="Kjåmåsen" />
		<tag k="natural" v="hill" />
		<tag k="place" v="locality" />
		<tag k="ssr:stedsnr" v="83482" />
	</node>
	<node lat="58.16527777534478" lon="7.341758336656411" id="-39486">
		<tag k="name" v="Rasmuspaulen" />
		<tag k="natural" v="water" />
		<tag k="ssr:stedsnr" v="83487" />
	</node>
	<node lat="58.158827780381245" lon="7.399180553915422" id="-39487">
		<tag k="name" v="Svartetjønna" />
		<tag k="natural" v="water" />
		<tag k="ssr:stedsnr" v="83605" />
	</node>
	<node lat="58.16124166627138" lon="7.363658341299047" id="-39488">
		<tag k="name" v="Myran" />
		<tag k="place" v="locality" />
		<tag k="ssr:stedsnr" v="83608" />
	</node>
	<node lat="58.153608334085575" lon="7.365391662884397" id="-39489">
		<tag k="name" v="Spillingsfidjan" />
		<tag k="place" v="locality" />
		<tag k="ssr:stedsnr" v="83613" />
	</node>
	<node lat="58.15955833052336" lon="7.379725005721523" id="-39490">
		<tag k="name" v="Ålmedalen" />
		<tag k="natural" v="valley" />
		<tag k="place" v="locality" />
		<tag k="ssr:stedsnr" v="83615" />
	</node>
	<node lat="58.1693305517385" lon="7.251630548990524" id="-39491">
		<tag k="name" v="Lelandsbakken" />
		<tag k="natural" v="hill" />
		<tag k="place" v="locality" />
		<tag k="ssr:stedsnr" v="83630" />
	</node>
	<node lat="58.07692777450779" lon="7.309183328002617" id="-39492">
		<tag k="name" v="Kiddelsbekken" />
		<tag k="ssr:stedsnr" v="83637" />
		<tag k="waterway" v="stream" />
	</node>
	<node lat="58.08113055684306" lon="7.334736117138984" id="-39493">
		<tag k="name" v="Heddermyra" />
		<tag k="natural" v="wetland" />
		<tag k="ssr:stedsnr" v="83638" />
	</node>
	<node lat="58.18122499559013" lon="7.243672214125263" id="-39494">
		<tag k="historic" v="boundary_stone" />
		<tag k="man_made" v="cairn" />
		<tag k="name" v="Bervannsteinen" />
		<tag k="place" v="locality" />
		<tag k="ssr:stedsnr" v="83641" />
	</node>
	<node lat="58.07862499916537" lon="7.305480548873575" id="-39495">
		<tag k="name" v="Hestehagen" />
		<tag k="place" v="locality" />
		<tag k="ssr:stedsnr" v="83643" />
	</node>
	<node lat="58.16862222601407" lon="7.282449996099681" id="-39496">
		<tag k="name" v="Høgebakken" />
		<tag k="natural" v="hill" />
		<tag k="place" v="locality" />
		<tag k="ssr:stedsnr" v="83682" />
	</node>
	<node lat="58.187008337748516" lon="7.246249999885027" id="-39497">
		<tag k="name" v="Sanddalen" />
		<tag k="natural" v="valley" />
		<tag k="place" v="locality" />
		<tag k="ssr:stedsnr" v="83683" />
	</node>
	<node lat="58.20641666877941" lon="7.653513896671475" id="-39498">
		<tag k="name" v="Lihei" />
		<tag k="natural" v="hill" />
		<tag k="place" v="locality" />
		<tag k="ssr:stedsnr" v="83690" />
	</node>
	<node lat="58.1074944452407" lon="7.330238882179375" id="-39499">
		<tag k="fixme" v="consider natural=peak for the most distinct mountains in the district" />
		<tag k="name" v="Monefjellan" />
		<tag k="natural" v="hill" />
		<tag k="place" v="locality" />
		<tag k="ssr:stedsnr" v="83695" />
	</node>
	<node lat="58.110172221955715" lon="7.316061106790767" id="-39500">
		<tag k="fixme" v="consider natural=peak for the most distinct mountains in the district" />
		<tag k="name" v="Fagerlifjellan" />
		<tag k="natural" v="hill" />
		<tag k="place" v="locality" />
		<tag k="ssr:stedsnr" v="83696" />
	</node>
	<node lat="58.23908055208371" lon="7.4765333281229465" id="-39501">
		<tag k="fixme" v="consider natural=peak for the most distinct mountains in the district" />
		<tag k="name" v="Tereknoddan" />
		<tag k="natural" v="hill" />
		<tag k="place" v="locality" />
		<tag k="ssr:stedsnr" v="83802" />
	</node>
	<node lat="58.07433888602035" lon="7.280205547925363" id="-39502">
		<tag k="name" v="Haran" />
		<tag k="place" v="farm" />
		<tag k="ssr:stedsnr" v="83808" />
	</node>
	<node lat="58.076383336542655" lon="7.28614166773501" id="-39503">
		<tag k="fixme" v="consider natural=peak for the most distinct mountains in the district" />
		<tag k="name" v="Rapteskårheia" />
		<tag k="natural" v="hill" />
		<tag k="place" v="locality" />
		<tag k="ssr:stedsnr" v="83810" />
	</node>
	<node lat="58.237563889892904" lon="7.495994441168322" id="-39504">
		<tag k="fixme" v="consider natural=peak for the most distinct mountains in the district" />
		<tag k="name" v="Kogåsen" />
		<tag k="natural" v="hill" />
		<tag k="place" v="locality" />
		<tag k="ssr:stedsnr" v="83811" />
	</node>
	<node lat="58.13629721822092" lon="7.267052783074908" id="-39505">
		<tag k="name" v="Stemlon" />
		<tag k="natural" v="water" />
		<tag k="ssr:stedsnr" v="83835" />
	</node>
	<node lat="58.13874722355748" lon="7.2875972293228575" id="-39506">
		<tag k="name" v="Skrubbemyr" />
		<tag k="natural" v="wetland" />
		<tag k="ssr:stedsnr" v="83845" />
	</node>
	<node lat="58.226408334894224" lon="7.6193666711465" id="-39507">
		<tag k="name" v="Åsehølen" />
		<tag k="place" v="locality" />
		<tag k="ssr:stedsnr" v="83530" />
	</node>
	<node lat="58.16494166918195" lon="7.396377769503267" id="-39508">
		<tag k="name" v="Tjomslandsbekken" />
		<tag k="ssr:stedsnr" v="83587" />
		<tag k="waterway" v="stream" />
	</node>
	<node lat="58.15131666850561" lon="7.317216668678862" id="-39509">
		<tag k="name" v="Høgkniben" />
		<tag k="natural" v="hill" />
		<tag k="place" v="locality" />
		<tag k="ssr:stedsnr" v="83591" />
	</node>
	<node lat="58.25309999760233" lon="7.547094444663677" id="-39510">
		<tag k="fixme" v="consider natural=peak for the most distinct mountains in the district" />
		<tag k="name" v="Gausåshei" />
		<tag k="natural" v="hill" />
		<tag k="place" v="locality" />
		<tag k="ssr:stedsnr" v="83595" />
	</node>
	<node lat="58.15348055136156" lon="7.331011109053862" id="-39511">
		<tag k="name" v="Møgedalsodden" />
		<tag k="place" v="island" />
		<tag k="ssr:stedsnr" v="83598" />
	</node>
	<node lat="58.199172221640275" lon="7.663855552816673" id="-39512">
		<tag k="name" v="Styggetjønn" />
		<tag k="natural" v="water" />
		<tag k="ssr:stedsnr" v="83702" />
	</node>
	<node lat="58.11766110772074" lon="7.358011113032624" id="-39513">
		<tag k="name" v="Helleren" />
		<tag k="place" v="locality" />
		<tag k="ssr:stedsnr" v="83703" />
	</node>
	<node lat="58.11838889287898" lon="7.376569439885376" id="-39514">
		<tag k="name" v="Langetjønna" />
		<tag k="natural" v="water" />
		<tag k="ssr:stedsnr" v="83704" />
	</node>
	<node lat="58.155330556111565" lon="7.693019440374512" id="-39515">
		<tag k="name" v="Vårkilen" />
		<tag k="natural" v="bay" />
		<tag k="ssr:stedsnr" v="83705" />
	</node>
	<node lat="58.11789166399064" lon="7.392127785548921" id="-39516">
		<tag k="fixme" v="consider natural=peak for the most distinct mountains in the district" />
		<tag k="name" v="Høgeheia" />
		<tag k="natural" v="hill" />
		<tag k="place" v="locality" />
		<tag k="ssr:stedsnr" v="83707" />
	</node>
	<node lat="58.16486389082564" lon="7.703052785544774" id="-39517">
		<tag k="name" v="Spjottjønn" />
		<tag k="natural" v="water" />
		<tag k="ssr:stedsnr" v="83708" />
	</node>
	<node lat="58.1599416697693" lon="7.706833324782972" id="-39518">
		<tag k="name" v="Langedalsheia" />
		<tag k="natural" v="hill" />
		<tag k="place" v="locality" />
		<tag k="ssr:stedsnr" v="83712" />
	</node>
	<node lat="58.21211944736074" lon="7.675058340435648" id="-39519">
		<tag k="fixme" v="consider natural=peak for the most distinct mountains in the district" />
		<tag k="name" v="Knøa" />
		<tag k="natural" v="hill" />
		<tag k="place" v="locality" />
		<tag k="ssr:stedsnr" v="83713" />
	</node>
	<node lat="58.10550555233453" lon="7.380016666472294" id="-39520">
		<tag k="name" v="Stønnjufjellet" />
		<tag k="natural" v="hill" />
		<tag k="place" v="locality" />
		<tag k="ssr:stedsnr" v="83714" />
	</node>
	<node lat="58.104691666647426" lon="7.37777500415254" id="-39521">
		<tag k="name" v="Tjønna" />
		<tag k="natural" v="water" />
		<tag k="ssr:stedsnr" v="83716" />
	</node>
	<node lat="58.10897778221031" lon="7.384077774112736" id="-39522">
		<tag k="name" v="Skårvannet" />
		<tag k="natural" v="water" />
		<tag k="ssr:stedsnr" v="83720" />
		<tag k="water" v="lake" />
	</node>
	<node lat="58.049736109858635" lon="7.320269441196413" id="-39523">
		<tag k="name" v="Åsheian" />
		<tag k="natural" v="hill" />
		<tag k="place" v="locality" />
		<tag k="ssr:stedsnr" v="83731" />
	</node>
	<node lat="58.1524916708337" lon="7.642861113018677" id="-39524">
		<tag k="name" v="Lille Tvitjønn" />
		<tag k="natural" v="water" />
		<tag k="ssr:stedsnr" v="83732" />
	</node>
	<node lat="58.1539388872337" lon="7.639411119200848" id="-39525">
		<tag k="name" v="Fosstjønn" />
		<tag k="natural" v="water" />
		<tag k="ssr:stedsnr" v="83733" />
	</node>
	<node lat="58.04997500343925" lon="7.329913889507845" id="-39526">
		<tag k="name" v="Longevann" />
		<tag k="natural" v="water" />
		<tag k="ssr:stedsnr" v="83735" />
		<tag k="water" v="lake" />
	</node>
	<node lat="58.259813892137984" lon="7.519958328591129" id="-39527">
		<tag k="name" v="Kvivollen" />
		<tag k="place" v="locality" />
		<tag k="ssr:stedsnr" v="83738" />
	</node>
	<node lat="58.09109721934067" lon="7.19389444815743" id="-39528">
		<tag k="fixme" v="consider place=hamlet" />
		<tag k="name" v="Grennan" />
		<tag k="place" v="farm" />
		<tag k="ssr:stedsnr" v="83902" />
	</node>
	<node lat="58.09696944668258" lon="7.216677785172217" id="-39529">
		<tag k="name" v="Øygardsmyra" />
		<tag k="natural" v="wetland" />
		<tag k="ssr:stedsnr" v="83903" />
	</node>
	<node lat="58.18961111404878" lon="7.555383332494283" id="-39530">
		<tag k="name" v="Langemyr" />
		<tag k="natural" v="wetland" />
		<tag k="ssr:stedsnr" v="83891" />
	</node>
	<node lat="58.19404721916957" lon="7.5191833341788055" id="-39531">
		<tag k="name" v="Monbrotet" />
		<tag k="natural" v="slope" />
		<tag k="place" v="locality" />
		<tag k="ssr:stedsnr" v="83930" />
	</node>
	<node lat="58.21329722607903" lon="7.60828055411556" id="-39532">
		<tag k="name" v="Tømmerkilen" />
		<tag k="natural" v="bay" />
		<tag k="ssr:stedsnr" v="83932" />
	</node>
	<node lat="58.208425000685736" lon="7.621144438462327" id="-39533">
		<tag k="name" v="Leirkilen" />
		<tag k="natural" v="bay" />
		<tag k="ssr:stedsnr" v="83934" />
	</node>
	<node lat="58.153247224167224" lon="7.562177769911705" id="-39534">
		<tag k="name" v="Skaptet" />
		<tag k="natural" v="water" />
		<tag k="ssr:stedsnr" v="83981" />
		<tag k="water" v="lake" />
	</node>
	<node lat="58.03728888479293" lon="7.278202771838691" id="-39535">
		<tag k="name" v="Sveiheia" />
		<tag k="natural" v="hill" />
		<tag k="place" v="locality" />
		<tag k="ssr:stedsnr" v="83983" />
	</node>
	<node lat="58.159369448491255" lon="7.540836118160829" id="-39536">
		<tag k="name" v="Slettebrokhei" />
		<tag k="natural" v="hill" />
		<tag k="place" v="locality" />
		<tag k="ssr:stedsnr" v="83987" />
	</node>
	<node lat="58.16208610980585" lon="7.562658340628868" id="-39537">
		<tag k="fixme" v="consider natural=peak for the most distinct mountains in the district" />
		<tag k="name" v="Galteråsen" />
		<tag k="natural" v="hill" />
		<tag k="place" v="locality" />
		<tag k="ssr:stedsnr" v="83992" />
	</node>
	<node lat="58.16728333171796" lon="7.6106194399258875" id="-39538">
		<tag k="fixme" v="consider natural=peak for the most distinct mountains in the district" />
		<tag k="name" v="Bustøkniben" />
		<tag k="natural" v="hill" />
		<tag k="place" v="locality" />
		<tag k="ssr:stedsnr" v="83994" />
	</node>
	<node lat="58.108219447505306" lon="7.231016660966902" id="-39539">
		<tag k="name" v="Gumpen" />
		<tag k="place" v="locality" />
		<tag k="ssr:stedsnr" v="84000" />
	</node>
	<node lat="58.0126305542643" lon="7.57527500655272" id="-39540">
		<tag k="name" v="Skogsdalen" />
		<tag k="natural" v="valley" />
		<tag k="place" v="locality" />
		<tag k="ssr:stedsnr" v="85197" />
	</node>
	<node lat="57.978174998516494" lon="7.539141668330458" id="-39541">
		<tag k="name" v="Jyvikodden" />
		<tag k="natural" v="cape" />
		<tag k="ssr:stedsnr" v="85078" />
	</node>
	<node lat="57.978877773672195" lon="7.526161104434499" id="-39542">
		<tag k="name" v="Torjushola" />
		<tag k="natural" v="bay" />
		<tag k="ssr:stedsnr" v="85079" />
	</node>
	<node lat="58.09304722536049" lon="7.624991663741061" id="-39543">
		<tag k="junction" v="yes" />
		<tag k="name" v="Døle bru" />
		<tag k="place" v="locality" />
		<tag k="ssr:stedsnr" v="85086" />
	</node>
	<node lat="57.95850555808025" lon="7.564524997189187" id="-39544">
		<tag k="fixme" v="consider seamark:type=rock or natural=shoal" />
		<tag k="name" v="Pysen" />
		<tag k="place" v="islet" />
		<tag k="ssr:stedsnr" v="85089" />
	</node>
	<node lat="58.00783055141508" lon="7.5901694459388676" id="-39545">
		<tag k="name" v="Ørpevollen" />
		<tag k="place" v="locality" />
		<tag k="ssr:stedsnr" v="85202" />
	</node>
	<node lat="58.00791111490895" lon="7.585836114939663" id="-39546">
		<tag k="name" v="Skogøysundet" />
		<tag k="natural" v="strait" />
		<tag k="ssr:stedsnr" v="85205" />
	</node>
	<node lat="58.02882222396934" lon="7.625191658936424" id="-39547">
		<tag k="name" v="Amboheia" />
		<tag k="natural" v="hill" />
		<tag k="place" v="locality" />
		<tag k="ssr:stedsnr" v="85226" />
	</node>
	<node lat="58.112038886620766" lon="7.501538896400239" id="-39548">
		<tag k="name" v="Furomstjønn" />
		<tag k="natural" v="water" />
		<tag k="ssr:stedsnr" v="85405" />
	</node>
	<node lat="58.12076389028009" lon="7.476852777465197" id="-39549">
		<tag k="name" v="Skarpeheia" />
		<tag k="natural" v="hill" />
		<tag k="place" v="locality" />
		<tag k="ssr:stedsnr" v="85430" />
	</node>
	<node lat="58.00415833517395" lon="7.654336108103476" id="-39550">
		<tag k="fixme" v="consider seamark:type=rock or natural=shoal" />
		<tag k="name" v="Selbryden" />
		<tag k="place" v="islet" />
		<tag k="ssr:stedsnr" v="85606" />
	</node>
	<node lat="58.11668889025384" lon="7.451319439745936" id="-39551">
		<tag k="name" v="Mjåvannet" />
		<tag k="natural" v="water" />
		<tag k="ssr:stedsnr" v="85662" />
		<tag k="water" v="lake" />
	</node>
	<node lat="58.141958334632335" lon="7.4665500042666295" id="-39552">
		<tag k="name" v="Kåreheia" />
		<tag k="natural" v="hill" />
		<tag k="place" v="locality" />
		<tag k="ssr:stedsnr" v="85388" />
	</node>
	<node lat="58.079441669373445" lon="7.566891662007192" id="-39553">
		<tag k="name" v="Kolbjørnstjønna" />
		<tag k="natural" v="water" />
		<tag k="ssr:stedsnr" v="85502" />
	</node>
	<node lat="58.0854388856633" lon="7.532391663386181" id="-39554">
		<tag k="name" v="Stemsheia" />
		<tag k="natural" v="hill" />
		<tag k="place" v="locality" />
		<tag k="ssr:stedsnr" v="85513" />
	</node>
	<node lat="57.975438891026194" lon="7.526005552877486" id="-39555">
		<tag k="alt_name" v="Nodeviga" />
		<tag k="fixme" v="multiple name tags, choose one and add the other to alt_name" />
		<tag k="name" v="Skiftenesvika;Nodevika" />
		<tag k="natural" v="bay" />
		<tag k="ssr:stedsnr" v="85577" />
	</node>
	<node lat="58.01939721882067" lon="7.630013893339738" id="-39556">
		<tag k="bay" v="fjord" />
		<tag k="name" v="Havnefjorden" />
		<tag k="natural" v="bay" />
		<tag k="ssr:stedsnr" v="85579" />
	</node>
	<node lat="58.008708329261296" lon="7.660333326840247" id="-39557">
		<tag k="name" v="Stolsboen" />
		<tag k="place" v="locality" />
		<tag k="seamark:type" v="rock" />
		<tag k="ssr:stedsnr" v="85592" />
	</node>
	<node lat="58.108622222598775" lon="7.602419452843783" id="-39558">
		<tag k="name" v="Svartefjell" />
		<tag k="place" v="locality" />
		<tag k="ssr:stedsnr" v="85704" />
	</node>
	<node lat="58.07349721845477" lon="7.627730559639818" id="-39559">
		<tag k="name" v="Grimsmyra" />
		<tag k="natural" v="wetland" />
		<tag k="ssr:stedsnr" v="85712" />
	</node>
	<node lat="58.000652776355956" lon="7.33337500205726" id="-39560">
		<tag k="name" v="Grunnesund" />
		<tag k="natural" v="strait" />
		<tag k="ssr:stedsnr" v="85802" />
	</node>
	<node lat="58.13574999968926" lon="7.569855547770073" id="-39561">
		<tag k="fixme" v="consider natural=peak for the most distinct mountains in the district" />
		<tag k="name" v="Slottet" />
		<tag k="natural" v="hill" />
		<tag k="place" v="locality" />
		<tag k="ssr:stedsnr" v="85861" />
	</node>
	<node lat="58.13260833207249" lon="7.568466668144932" id="-39562">
		<tag k="name" v="Tjødnemyra" />
		<tag k="natural" v="wetland" />
		<tag k="ssr:stedsnr" v="85865" />
	</node>
	<node lat="58.145383333422785" lon="7.558647215714953" id="-39563">
		<tag k="name" v="Tømmeråsen" />
		<tag k="natural" v="hill" />
		<tag k="place" v="locality" />
		<tag k="ssr:stedsnr" v="85870" />
	</node>
	<node lat="58.14453055790069" lon="7.562658332072066" id="-39564">
		<tag k="name" v="Gullkleiv" />
		<tag k="natural" v="slope" />
		<tag k="place" v="locality" />
		<tag k="ssr:stedsnr" v="85876" />
	</node>
	<node lat="58.14698888576604" lon="7.541883338874789" id="-39565">
		<tag k="highway" v="path" />
		<tag k="name" v="Aksteveien" />
		<tag k="ssr:stedsnr" v="85877" />
	</node>
	<node lat="57.993194445613575" lon="7.486688887479594" id="-39566">
		<tag k="name" v="Mågeheia" />
		<tag k="natural" v="hill" />
		<tag k="place" v="locality" />
		<tag k="ssr:stedsnr" v="86026" />
	</node>
	<node lat="57.9987916633496" lon="7.33364721407246" id="-39567">
		<tag k="name" v="Yste Avra" />
		<tag k="natural" v="cape" />
		<tag k="ssr:stedsnr" v="85776" />
	</node>
	<node lat="58.05245277601413" lon="7.3613749929211805" id="-39568">
		<tag k="name" v="Librotan" />
		<tag k="natural" v="slope" />
		<tag k="place" v="locality" />
		<tag k="ssr:stedsnr" v="85791" />
	</node>
	<node lat="58.12261944304083" lon="7.541630564041389" id="-39569">
		<tag k="name" v="Storskodet" />
		<tag k="natural" v="cliff" />
		<tag k="ssr:stedsnr" v="85910" />
	</node>
	<node lat="58.12430000348822" lon="7.532511103114048" id="-39570">
		<tag k="name" v="Øya" />
		<tag k="place" v="island" />
		<tag k="ssr:stedsnr" v="85914" />
	</node>
	<node lat="57.981380552763554" lon="7.0888277856883395" id="-39571">
		<tag k="fixme" v="consider seamark:type=rock or natural=shoal" />
		<tag k="name" v="Amiensflua" />
		<tag k="place" v="islet" />
		<tag k="ssr:stedsnr" v="85923" />
	</node>
	<node lat="58.151341671178976" lon="7.537602780169781" id="-39572">
		<tag k="name" v="Fuglebakken" />
		<tag k="natural" v="slope" />
		<tag k="place" v="locality" />
		<tag k="ssr:stedsnr" v="85975" />
	</node>
	<node lat="58.08021944541503" lon="7.573383332590401" id="-39573">
		<tag k="name" v="Kinnsdalen" />
		<tag k="natural" v="valley" />
		<tag k="place" v="locality" />
		<tag k="ssr:stedsnr" v="85979" />
	</node>
	<node lat="58.03630833741147" lon="7.3392666709431715" id="-39574">
		<tag k="fixme" v="consider natural=peak for the most distinct mountains in the district" />
		<tag k="name" v="Bugdeåsen" />
		<tag k="natural" v="hill" />
		<tag k="place" v="locality" />
		<tag k="ssr:stedsnr" v="85996" />
	</node>
	<node lat="58.00892499612895" lon="7.506913897035836" id="-39575">
		<tag k="name" v="Geitemyra" />
		<tag k="natural" v="wetland" />
		<tag k="ssr:stedsnr" v="86227" />
	</node>
	<node lat="58.04858889044934" lon="7.579083338267242" id="-39576">
		<tag k="name" v="Stedjan" />
		<tag k="place" v="locality" />
		<tag k="ssr:stedsnr" v="86279" />
	</node>
	<node lat="58.02585833239305" lon="7.568663881160675" id="-39577">
		<tag k="name" v="Aksdalen" />
		<tag k="natural" v="valley" />
		<tag k="place" v="locality" />
		<tag k="ssr:stedsnr" v="86432" />
	</node>
	<node lat="58.04082222518498" lon="7.555572216662197" id="-39578">
		<tag k="name" v="Dybobukta" />
		<tag k="natural" v="bay" />
		<tag k="ssr:stedsnr" v="86436" />
	</node>
	<node lat="58.04067222296204" lon="7.547769447600064" id="-39579">
		<tag k="name" v="Skeia" />
		<tag k="natural" v="slope" />
		<tag k="place" v="locality" />
		<tag k="ssr:stedsnr" v="86438" />
	</node>
	<node lat="58.09450277561653" lon="7.628011114531279" id="-39580">
		<tag k="fixme" v="consider natural=peak for the most distinct mountains in the district" />
		<tag k="name" v="Teinåsen" />
		<tag k="natural" v="hill" />
		<tag k="place" v="locality" />
		<tag k="ssr:stedsnr" v="86902" />
	</node>
	<node lat="58.04770555834935" lon="7.460072223018227" id="-39581">
		<tag k="fixme" v="consider natural=peak for the most distinct mountains in the district" />
		<tag k="name" v="Blåbærpallen" />
		<tag k="natural" v="hill" />
		<tag k="place" v="locality" />
		<tag k="ssr:stedsnr" v="87127" />
	</node>
	<node lat="58.03196666982355" lon="7.339700002366578" id="-39582">
		<tag k="fixme" v="consider place=hamlet" />
		<tag k="name" v="Brattestø" />
		<tag k="place" v="farm" />
		<tag k="ssr:stedsnr" v="86875" />
	</node>
	<node lat="57.98406944875491" lon="7.574247228196975" id="-39583">
		<tag k="name" v="Sekkebukta" />
		<tag k="natural" v="bay" />
		<tag k="ssr:stedsnr" v="87386" />
	</node>
	<node lat="57.98422500339754" lon="7.580277776149309" id="-39584">
		<tag k="name" v="Høgheia" />
		<tag k="natural" v="hill" />
		<tag k="place" v="locality" />
		<tag k="ssr:stedsnr" v="87388" />
	</node>
	<node lat="57.98420833618224" lon="7.382411107685615" id="-39585">
		<tag k="name" v="Tungeskjerboen" />
		<tag k="natural" v="shoal" />
		<tag k="place" v="locality" />
		<tag k="ssr:stedsnr" v="87476" />
	</node>
	<node lat="57.98263888678743" lon="7.429158341862244" id="-39586">
		<tag k="fixme" v="consider seamark:type=rock or natural=shoal" />
		<tag k="name" v="Bryden" />
		<tag k="place" v="islet" />
		<tag k="ssr:stedsnr" v="87482" />
	</node>
	<node lat="58.010352779659534" lon="7.451233339172642" id="-39587">
		<tag k="name" v="Buskeboen" />
		<tag k="place" v="locality" />
		<tag k="seamark:type" v="rock" />
		<tag k="ssr:stedsnr" v="87489" />
	</node>
	<node lat="58.06084444747901" lon="7.528405557905496" id="-39588">
		<tag k="name" v="Bjorungsdalen" />
		<tag k="natural" v="valley" />
		<tag k="place" v="locality" />
		<tag k="ssr:stedsnr" v="87490" />
	</node>
	<node lat="57.98205000383124" lon="7.42309722685428" id="-39589">
		<tag k="name" v="Svartskjerflakket" />
		<tag k="place" v="locality" />
		<tag k="seamark:type" v="rock" />
		<tag k="ssr:stedsnr" v="87491" />
	</node>
	<node lat="57.95759999677391" lon="7.408097227306723" id="-39590">
		<tag k="name" v="Tungegrunnen" />
		<tag k="natural" v="shoal" />
		<tag k="place" v="locality" />
		<tag k="ssr:stedsnr" v="87493" />
	</node>
	<node lat="57.99857777628761" lon="7.499355554555572" id="-39591">
		<tag k="name" v="Skarnes" />
		<tag k="natural" v="cape" />
		<tag k="ssr:stedsnr" v="87691" />
	</node>
	<node lat="58.096377775290364" lon="7.551952769549644" id="-39592">
		<tag k="name" v="Skjellsletta" />
		<tag k="place" v="locality" />
		<tag k="ssr:stedsnr" v="87904" />
	</node>
	<node lat="58.13169166612631" lon="7.538394440345102" id="-39594">
		<tag k="alt_name" v="Øvre Nøding" />
		<tag k="fixme" v="consider place=hamlet" />
		<tag k="name" v="Nøding" />
		<tag k="place" v="farm" />
		<tag k="ssr:stedsnr" v="303719" />
	</node>
	<node lat="58.30232777692033" lon="7.415286111486477" id="-39606">
		<tag k="alt_name" v="Rustad" />
		<tag k="fixme" v="consider place=hamlet" />
		<tag k="name" v="Rusta" />
		<tag k="place" v="farm" />
		<tag k="ssr:stedsnr" v="303842" />
	</node>
	<node lat="58.24452777367777" lon="7.5032111190194675" id="-39607">
		<tag k="bridge" v="yes" />
		<tag k="layer" v="1" />
		<tag k="name" v="Lågåna" />
		<tag k="ssr:stedsnr" v="107002" />
	</node>
	<node lat="58.06859722629611" lon="7.388086102656286" id="-39608">
		<tag k="bridge" v="yes" />
		<tag k="layer" v="1" />
		<tag k="name" v="Sjølingstad bru" />
		<tag k="ssr:stedsnr" v="107517" />
	</node>
	<node lat="58.10347778179339" lon="7.484386114032132" id="-39609">
		<tag k="alt_name" v="Haddeheia" />
		<tag k="name" v="Halleheia" />
		<tag k="natural" v="hill" />
		<tag k="place" v="locality" />
		<tag k="ssr:stedsnr" v="303844" />
	</node>
	<node lat="58.037608337238204" lon="7.3351277858973125" id="-39624">
		<tag k="name" v="Lundevig" />
		<tag k="natural" v="bay" />
		<tag k="ssr:stedsnr" v="117177" />
	</node>
	<node lat="58.227791664831074" lon="7.270250008216976" id="-39633">
		<tag k="alt_name" v="Sandvannet" />
		<tag k="name" v="Sandvatnet" />
		<tag k="natural" v="water" />
		<tag k="ssr:stedsnr" v="121413" />
	</node>
	<node lat="58.11070833179114" lon="7.2821361161004825" id="-39634">
		<tag k="alt_name" v="Store Faksevann" />
		<tag k="name" v="Faksevatnet" />
		<tag k="natural" v="water" />
		<tag k="ssr:stedsnr" v="121511" />
	</node>
	<node lat="58.06159999811955" lon="7.127808326181444" id="-39635">
		<tag k="alt_name" v="Grisefjellet" />
		<tag k="name" v="Midtbøknipen" />
		<tag k="natural" v="hill" />
		<tag k="place" v="locality" />
		<tag k="ssr:stedsnr" v="121566" />
	</node>
	<node lat="58.46363888856114" lon="7.540438883011872" id="-39636">
		<tag k="alt_name" v="Hestebekk" />
		<tag k="name" v="Hestbekken" />
		<tag k="ssr:stedsnr" v="121570" />
		<tag k="waterway" v="stream" />
	</node>
	<node lat="58.050630558240066" lon="7.1408749948742045" id="-39637">
		<tag k="fixme" v="consider place=hamlet" />
		<tag k="name" v="Stokke" />
		<tag k="place" v="farm" />
		<tag k="ssr:stedsnr" v="121574" />
	</node>
	<node lat="58.05124373464291" lon="7.246904796808714" id="-39638">
		<tag k="name" v="Lonestrand" />
		<tag k="place" v="hamlet" />
		<tag k="ssr:stedsnr" v="121585" />
	</node>
	<node lat="58.20194166347136" lon="7.453600001389734" id="-39639">
		<tag k="fixme" v="consider place=hamlet" />
		<tag k="name" v="Homestad" />
		<tag k="place" v="farm" />
		<tag k="ssr:stedsnr" v="121702" />
	</node>
	<node lat="58.18658055916656" lon="7.347186103367349" id="-39640">
		<tag k="alt_name" v="Lølandsmoen" />
		<tag k="fixme" v="consider place=hamlet" />
		<tag k="name" v="Lølandsmonen" />
		<tag k="place" v="farm" />
		<tag k="ssr:stedsnr" v="121705" />
	</node>
	<node lat="58.19468675836866" lon="7.525267458365257" id="-39641">
		<tag k="name" v="Heddelandsmonen" />
		<tag k="place" v="locality" />
		<tag k="ssr:stedsnr" v="121712" />
	</node>
	<node lat="58.19109999922487" lon="7.684866661435768" id="-39642">
		<tag k="alt_name" v="Mjåvann" />
		<tag k="name" v="Mjåvatn" />
		<tag k="natural" v="water" />
		<tag k="ssr:stedsnr" v="121715" />
	</node>
	<node lat="58.21000833455654" lon="7.258597223862635" id="-39643">
		<tag k="alt_name" v="Støle vestre" />
		<tag k="fixme" v="consider place=hamlet" />
		<tag k="loc_name" v="Støle ytre" />
		<tag k="name" v="Vestre Støle" />
		<tag k="place" v="farm" />
		<tag k="ssr:stedsnr" v="121720" />
	</node>
	<node lat="58.2323888918663" lon="7.452036112296922" id="-39644">
		<tag k="alt_name" v="Sandvannet" />
		<tag k="name" v="Sandvatnet" />
		<tag k="natural" v="water" />
		<tag k="ssr:stedsnr" v="121722" />
		<tag k="water" v="lake" />
	</node>
	<node lat="58.230530558368805" lon="7.482049997280326" id="-39645">
		<tag k="alt_name" v="Kniben" />
		<tag k="name" v="Knipen" />
		<tag k="natural" v="hill" />
		<tag k="place" v="locality" />
		<tag k="ssr:stedsnr" v="121723" />
	</node>
	<node lat="58.077013887625746" lon="7.228691670789253" id="-39646">
		<tag k="alt_name" v="Fidje" />
		<tag k="fixme" v="consider place=hamlet" />
		<tag k="name" v="Fidja" />
		<tag k="place" v="farm" />
		<tag k="ssr:stedsnr" v="121625" />
	</node>
	<node lat="58.02060278225644" lon="7.0552138935808255" id="-39647">
		<tag k="alt_name" v="Skibmannsheia" />
		<tag k="fixme" v="consider natural=peak for the most distinct mountains in the district" />
		<tag k="name" v="Skipmannsheia" />
		<tag k="natural" v="hill" />
		<tag k="place" v="locality" />
		<tag k="ssr:stedsnr" v="121664" />
	</node>
	<node lat="58.022666662258565" lon="7.23935554939446" id="-39648">
		<tag k="alt_name" v="Olavskjæran" />
		<tag k="fixme" v="consider seamark:type=rock or natural=shoal" />
		<tag k="name" v="Olavsskjeran" />
		<tag k="place" v="islet" />
		<tag k="ssr:stedsnr" v="121677" />
	</node>
	<node lat="58.26990000020386" lon="7.437894442059485" id="-39649">
		<tag k="alt_name" v="Fidje" />
		<tag k="fixme" v="consider place=hamlet" />
		<tag k="name" v="Fidja" />
		<tag k="place" v="farm" />
		<tag k="ssr:stedsnr" v="121824" />
	</node>
	<node lat="58.26808889196698" lon="7.450666671238863" id="-39650">
		<tag k="name" v="Leivoll" />
		<tag k="place" v="farm" />
		<tag k="ssr:stedsnr" v="121826" />
	</node>
	<node lat="58.09037221778869" lon="7.469813887193996" id="-39651">
		<tag k="fixme" v="consider place=hamlet" />
		<tag k="name" v="Klepp" />
		<tag k="place" v="farm" />
		<tag k="ssr:stedsnr" v="121831" />
	</node>
	<node lat="58.08770555769189" lon="7.467374994153865" id="-39652">
		<tag k="name" v="Kleppssalan" />
		<tag k="natural" v="hill" />
		<tag k="place" v="locality" />
		<tag k="ssr:stedsnr" v="121833" />
	</node>
	<node lat="58.05347499645754" lon="7.2851611129963265" id="-39653">
		<tag k="fixme" v="consider place=hamlet" />
		<tag k="name" v="Ytre Eigeland" />
		<tag k="place" v="farm" />
		<tag k="ssr:stedsnr" v="121905" />
	</node>
	<node lat="58.064824998161875" lon="7.487249998552205" id="-39654">
		<tag k="name" v="Sodelandsbekken" />
		<tag k="ssr:stedsnr" v="121907" />
		<tag k="waterway" v="stream" />
	</node>
	<node lat="58.07008888817209" lon="7.425008341494635" id="-39655">
		<tag k="name" v="Holteheia" />
		<tag k="natural" v="hill" />
		<tag k="place" v="locality" />
		<tag k="ssr:stedsnr" v="121909" />
	</node>
	<node lat="58.07879444683856" lon="7.602516668125033" id="-39656">
		<tag k="alt_name" v="Vestre Vatne" />
		<tag k="fixme" v="consider place=hamlet" />
		<tag k="name" v="Vatne" />
		<tag k="place" v="farm" />
		<tag k="ssr:stedsnr" v="121916" />
	</node>
	<node lat="58.06064722215774" lon="7.179286111860627" id="-39657">
		<tag k="name" v="Remesvik" />
		<tag k="place" v="farm" />
		<tag k="ssr:stedsnr" v="121920" />
	</node>
	<node lat="58.45124238797955" lon="7.537618802424586" id="-39658">
		<tag k="name" v="Ørnehei" />
		<tag k="natural" v="hill" />
		<tag k="place" v="locality" />
		<tag k="ssr:stedsnr" v="121924" />
	</node>
	<node lat="58.0361031372715" lon="7.609381311992483" id="-39659">
		<tag k="alt_name" v="Osnesvannet" />
		<tag k="name" v="Osnesvatnet" />
		<tag k="natural" v="water" />
		<tag k="ssr:stedsnr" v="121968" />
	</node>
	<node lat="58.01981944168044" lon="7.351916659623472" id="-39660">
		<tag k="alt_name" v="Nakøy" />
		<tag k="name" v="Nakkøya" />
		<tag k="place" v="island" />
		<tag k="ssr:stedsnr" v="121972" />
	</node>
	<node lat="58.033630554166116" lon="7.47711110681043" id="-39661">
		<tag k="building" v="industrial" />
		<tag k="name" v="Buøya" />
		<tag k="ssr:stedsnr" v="121976" />
	</node>
	<node lat="58.395213885857565" lon="7.5360944401871715" id="-39662">
		<tag k="alt_name" v="Nautardalen" />
		<tag k="name" v="Nautårdalen" />
		<tag k="natural" v="valley" />
		<tag k="place" v="locality" />
		<tag k="ssr:stedsnr" v="121978" />
	</node>
	<node lat="58.3965861125109" lon="7.572541665748616" id="-39663">
		<tag k="alt_name" v="Høgahei" />
		<tag k="name" v="Høgehei" />
		<tag k="natural" v="hill" />
		<tag k="place" v="locality" />
		<tag k="ssr:stedsnr" v="121979" />
	</node>
	<node lat="58.03929722491534" lon="7.565358334275046" id="-39664">
		<tag k="alt_name" v="Dybovannet" />
		<tag k="name" v="Djubovatnet" />
		<tag k="natural" v="water" />
		<tag k="ssr:stedsnr" v="121980" />
		<tag k="water" v="lake" />
	</node>
	<node lat="58.045908329497685" lon="7.634294440176768" id="-39665">
		<tag k="fixme" v="consider place=hamlet" />
		<tag k="name" v="Lian" />
		<tag k="place" v="farm" />
		<tag k="ssr:stedsnr" v="121987" />
	</node>
	<node lat="58.05599444339964" lon="7.627102783142481" id="-39666">
		<tag k="fixme" v="multiple name tags, choose one and add the other to alt_name; consider place=hamlet" />
		<tag k="name" v="Ormestrengen;Ormestreng" />
		<tag k="place" v="farm" />
		<tag k="ssr:stedsnr" v="121993" />
	</node>
	<node lat="58.10720000075251" lon="7.3771249965232375" id="-39667">
		<tag k="fixme" v="consider place=hamlet" />
		<tag k="name" v="Skogen" />
		<tag k="place" v="farm" />
		<tag k="ssr:stedsnr" v="121873" />
	</node>
	<node lat="58.43062777482116" lon="7.515538888101831" id="-39668">
		<tag k="alt_name" v="Fossetjønnan" />
		<tag k="name" v="Fosstjørn" />
		<tag k="natural" v="water" />
		<tag k="ssr:stedsnr" v="121879" />
	</node>
	<node lat="58.04644999849477" lon="7.493361112913346" id="-39669">
		<tag k="name" v="Årekjerr" />
		<tag k="place" v="farm" />
		<tag k="ssr:stedsnr" v="121882" />
	</node>
	<node lat="58.05601388536415" lon="7.189180551259058" id="-39670">
		<tag k="name" v="Skipsheia" />
		<tag k="natural" v="hill" />
		<tag k="place" v="locality" />
		<tag k="ssr:stedsnr" v="265023" />
	</node>
	<node lat="58.378738892699545" lon="7.594233327934927" id="-39671">
		<tag k="name" v="Andersmyr" />
		<tag k="natural" v="wetland" />
		<tag k="ssr:stedsnr" v="265025" />
	</node>
	<node lat="58.36868888589149" lon="7.593147228220261" id="-39672">
		<tag k="name" v="Liheia" />
		<tag k="natural" v="hill" />
		<tag k="place" v="locality" />
		<tag k="ssr:stedsnr" v="265026" />
	</node>
	<node lat="58.035130553022825" lon="7.099347229454846" id="-39673">
		<tag k="name" v="Bessedalen" />
		<tag k="natural" v="valley" />
		<tag k="place" v="locality" />
		<tag k="ssr:stedsnr" v="142087" />
	</node>
	<node lat="58.03557499697486" lon="7.115119446520305" id="-39674">
		<tag k="name" v="Grønnavika" />
		<tag k="natural" v="bay" />
		<tag k="ssr:stedsnr" v="142088" />
	</node>
	<node lat="58.034355559643224" lon="7.1298666736881575" id="-39675">
		<tag k="fixme" v="consider seamark:type=rock or natural=shoal" />
		<tag k="name" v="Skarveskjær" />
		<tag k="place" v="islet" />
		<tag k="ssr:stedsnr" v="142091" />
	</node>
	<node lat="58.026627780896696" lon="7.107647229790807" id="-39676">
		<tag k="name" v="Indrestø" />
		<tag k="natural" v="bay" />
		<tag k="ssr:stedsnr" v="142103" />
	</node>
	<node lat="58.06583888494475" lon="7.125352771632892" id="-39677">
		<tag k="name" v="Kvassekleiva" />
		<tag k="natural" v="slope" />
		<tag k="place" v="locality" />
		<tag k="ssr:stedsnr" v="142112" />
	</node>
	<node lat="58.13281389166338" lon="7.4637833357481025" id="-39678">
		<tag k="name" v="Kolldalsheia" />
		<tag k="natural" v="hill" />
		<tag k="place" v="locality" />
		<tag k="ssr:stedsnr" v="142176" />
	</node>
	<node lat="58.116013888586465" lon="7.437408331269097" id="-39679">
		<tag k="name" v="Hepteheia" />
		<tag k="natural" v="hill" />
		<tag k="place" v="locality" />
		<tag k="ssr:stedsnr" v="142185" />
	</node>
	<node lat="58.22356666733859" lon="7.288677773981489" id="-39680">
		<tag k="highway" v="path" />
		<tag k="name" v="Steinkleiv" />
		<tag k="ssr:stedsnr" v="142305" />
	</node>
	<node lat="58.203366665782774" lon="7.311261104163888" id="-39681">
		<tag k="name" v="Mjåvannet" />
		<tag k="natural" v="water" />
		<tag k="ssr:stedsnr" v="142312" />
		<tag k="water" v="lake" />
	</node>
	<node lat="57.988833332651716" lon="7.0383472248763" id="-39682">
		<tag k="name" v="Suleba" />
		<tag k="natural" v="bay" />
		<tag k="ssr:stedsnr" v="142414" />
	</node>
	<node lat="58.18067777950266" lon="7.610641671624503" id="-39683">
		<tag k="name" v="Holtan" />
		<tag k="natural" v="hill" />
		<tag k="place" v="locality" />
		<tag k="ssr:stedsnr" v="143003" />
	</node>
	<node lat="58.174100003109245" lon="7.592202781226059" id="-39684">
		<tag k="name" v="Plomåskjerret" />
		<tag k="natural" v="wetland" />
		<tag k="ssr:stedsnr" v="143005" />
	</node>
	<node lat="58.179522223716475" lon="7.61736111736122" id="-39685">
		<tag k="name" v="Lonåsen" />
		<tag k="natural" v="hill" />
		<tag k="place" v="locality" />
		<tag k="ssr:stedsnr" v="143007" />
	</node>
	<node lat="58.18373055130391" lon="7.614655554248961" id="-39686">
		<tag k="name" v="Måsetjønn" />
		<tag k="natural" v="water" />
		<tag k="ssr:stedsnr" v="143010" />
	</node>
	<node lat="58.05903333113183" lon="7.17780555426865" id="-39687">
		<tag k="landuse" v="meadow" />
		<tag k="name" v="Vrålsplassen" />
		<tag k="ssr:stedsnr" v="143031" />
	</node>
	<node lat="58.38319999792526" lon="7.605902775382832" id="-39688">
		<tag k="name" v="Linbakken" />
		<tag k="natural" v="slope" />
		<tag k="place" v="locality" />
		<tag k="ssr:stedsnr" v="143033" />
	</node>
	<node lat="58.14660833556873" lon="7.582855559063731" id="-39689">
		<tag k="name" v="Grindalen" />
		<tag k="natural" v="valley" />
		<tag k="place" v="locality" />
		<tag k="ssr:stedsnr" v="143208" />
	</node>
	<node lat="58.010261110885914" lon="7.19821111355748" id="-39690">
		<tag k="name" v="Bjorvika" />
		<tag k="natural" v="bay" />
		<tag k="ssr:stedsnr" v="143314" />
	</node>
	<node lat="58.338663891079975" lon="7.467783331058871" id="-39691">
		<tag k="fixme" v="consider natural=peak for the most distinct mountains in the district" />
		<tag k="name" v="Flånehei" />
		<tag k="natural" v="hill" />
		<tag k="place" v="locality" />
		<tag k="ssr:stedsnr" v="143315" />
	</node>
	<node lat="58.33638611294587" lon="7.476291658620182" id="-39692">
		<tag k="name" v="Audestø" />
		<tag k="natural" v="valley" />
		<tag k="place" v="locality" />
		<tag k="ssr:stedsnr" v="143318" />
	</node>
	<node lat="58.015230555596716" lon="7.1984083400678776" id="-39693">
		<tag k="bay" v="fjord" />
		<tag k="name" v="Vårefjorden" />
		<tag k="natural" v="bay" />
		<tag k="ssr:stedsnr" v="143319" />
	</node>
	<node lat="58.01241111118919" lon="7.194444450004405" id="-39694">
		<tag k="name" v="Diskeura" />
		<tag k="natural" v="scree" />
		<tag k="ssr:stedsnr" v="143320" />
	</node>
	<node lat="58.30277777695756" lon="7.4615333285064285" id="-39695">
		<tag k="fixme" v="consider natural=peak for the most distinct mountains in the district" />
		<tag k="name" v="Storaheia" />
		<tag k="natural" v="hill" />
		<tag k="place" v="locality" />
		<tag k="ssr:stedsnr" v="143325" />
	</node>
	<node lat="58.00099722150971" lon="7.201124997332481" id="-39696">
		<tag k="name" v="Flåholmen" />
		<tag k="place" v="island" />
		<tag k="ssr:stedsnr" v="143326" />
	</node>
	<node lat="58.39218611275485" lon="7.463908331018758" id="-39697">
		<tag k="name" v="Reverhei" />
		<tag k="natural" v="hill" />
		<tag k="place" v="locality" />
		<tag k="ssr:stedsnr" v="143332" />
	</node>
	<node lat="58.33338332982593" lon="7.422124998357106" id="-39698">
		<tag k="name" v="Maurbakken" />
		<tag k="natural" v="slope" />
		<tag k="place" v="locality" />
		<tag k="ssr:stedsnr" v="143333" />
	</node>
	<node lat="58.26313611217788" lon="7.4594694503212775" id="-39699">
		<tag k="fixme" v="consider natural=peak for the most distinct mountains in the district" />
		<tag k="name" v="Duekniben" />
		<tag k="natural" v="hill" />
		<tag k="place" v="locality" />
		<tag k="ssr:stedsnr" v="143334" />
	</node>
	<node lat="58.26632777856725" lon="7.459838889274869" id="-39700">
		<tag k="name" v="Lian" />
		<tag k="place" v="farm" />
		<tag k="ssr:stedsnr" v="143335" />
	</node>
	<node lat="58.259427773866626" lon="7.4663472296317215" id="-39701">
		<tag k="name" v="Haugedalen" />
		<tag k="natural" v="valley" />
		<tag k="place" v="locality" />
		<tag k="ssr:stedsnr" v="143337" />
	</node>
	<node lat="58.2233750012836" lon="7.410236107077015" id="-39702">
		<tag k="name" v="Kjeddingsvannet" />
		<tag k="natural" v="water" />
		<tag k="ssr:stedsnr" v="143281" />
		<tag k="water" v="lake" />
	</node>
	<node lat="58.289188885663584" lon="7.452469446657527" id="-39703">
		<tag k="fixme" v="consider natural=peak for the most distinct mountains in the district" />
		<tag k="name" v="Grohei" />
		<tag k="natural" v="hill" />
		<tag k="place" v="locality" />
		<tag k="ssr:stedsnr" v="143283" />
	</node>
	<node lat="58.29543333000086" lon="7.455433331272314" id="-39704">
		<tag k="name" v="Krossløa" />
		<tag k="natural" v="wetland" />
		<tag k="ssr:stedsnr" v="143285" />
	</node>
	<node lat="58.383136112803996" lon="7.519116664903911" id="-39705">
		<tag k="name" v="Gladværen" />
		<tag k="place" v="locality" />
		<tag k="ssr:stedsnr" v="143286" />
	</node>
	<node lat="58.18261666977408" lon="7.307255551094123" id="-39706">
		<tag k="name" v="Brannsnesbukta" />
		<tag k="natural" v="bay" />
		<tag k="ssr:stedsnr" v="143403" />
	</node>
	<node lat="58.18293333393665" lon="7.3188527714189835" id="-39707">
		<tag k="name" v="Storemyr" />
		<tag k="natural" v="wetland" />
		<tag k="ssr:stedsnr" v="143407" />
	</node>
	<node lat="58.430108335176975" lon="7.526836112183945" id="-39708">
		<tag k="name" v="Hestebeite" />
		<tag k="natural" v="valley" />
		<tag k="place" v="locality" />
		<tag k="ssr:stedsnr" v="143408" />
	</node>
	<node lat="58.435147220025044" lon="7.514855558012285" id="-39709">
		<tag k="name" v="Fosslian" />
		<tag k="natural" v="slope" />
		<tag k="place" v="locality" />
		<tag k="ssr:stedsnr" v="143409" />
	</node>
	<node lat="58.425513891992765" lon="7.534291673158783" id="-39710">
		<tag k="name" v="Eikenesan" />
		<tag k="natural" v="cape" />
		<tag k="ssr:stedsnr" v="143431" />
	</node>
	<node lat="58.42710555159362" lon="7.5599583329996225" id="-39711">
		<tag k="name" v="Stikksdalen" />
		<tag k="natural" v="valley" />
		<tag k="place" v="locality" />
		<tag k="ssr:stedsnr" v="143435" />
	</node>
	<node lat="58.41001111515673" lon="7.524980560641136" id="-39712">
		<tag k="highway" v="path" />
		<tag k="name" v="Stien" />
		<tag k="ssr:stedsnr" v="143437" />
	</node>
	<node lat="58.40748888822547" lon="7.529852779398643" id="-39713">
		<tag k="name" v="Sundskilen" />
		<tag k="natural" v="bay" />
		<tag k="ssr:stedsnr" v="143439" />
	</node>
	<node lat="58.414811107355014" lon="7.536599993851141" id="-39714">
		<tag k="name" v="Toneskår" />
		<tag k="natural" v="valley" />
		<tag k="place" v="locality" />
		<tag k="ssr:stedsnr" v="143441" />
	</node>
	<node lat="58.39527222149954" lon="7.524758330988828" id="-39715">
		<tag k="name" v="Monan" />
		<tag k="place" v="hamlet" />
		<tag k="ssr:stedsnr" v="143484" />
	</node>
	<node lat="58.404397219327734" lon="7.584886115123925" id="-39716">
		<tag k="fixme" v="consider natural=peak for the most distinct mountains in the district" />
		<tag k="name" v="Husefjellet" />
		<tag k="natural" v="hill" />
		<tag k="place" v="locality" />
		<tag k="ssr:stedsnr" v="143493" />
	</node>
	<node lat="58.263247221315616" lon="7.52975554721315" id="-39717">
		<tag k="fixme" v="consider natural=peak for the most distinct mountains in the district" />
		<tag k="name" v="Knabberlihei" />
		<tag k="natural" v="hill" />
		<tag k="place" v="locality" />
		<tag k="ssr:stedsnr" v="143497" />
	</node>
	<node lat="58.16760555646568" lon="7.3296861187856" id="-39718">
		<tag k="name" v="Rebåslia" />
		<tag k="natural" v="slope" />
		<tag k="place" v="locality" />
		<tag k="ssr:stedsnr" v="143499" />
	</node>
	<node lat="58.28284444483386" lon="7.524352771917387" id="-39719">
		<tag k="name" v="Moldbrodet" />
		<tag k="natural" v="slope" />
		<tag k="place" v="locality" />
		<tag k="ssr:stedsnr" v="143500" />
	</node>
	<node lat="58.14958888716206" lon="7.345066664369283" id="-39720">
		<tag k="fixme" v="consider natural=peak for the most distinct mountains in the district" />
		<tag k="name" v="Mauråsen" />
		<tag k="natural" v="hill" />
		<tag k="place" v="locality" />
		<tag k="ssr:stedsnr" v="143603" />
	</node>
	<node lat="58.170525003765746" lon="7.541866670763475" id="-39721">
		<tag k="name" v="Steigebrokkhei" />
		<tag k="natural" v="hill" />
		<tag k="place" v="locality" />
		<tag k="ssr:stedsnr" v="143608" />
	</node>
	<node lat="58.15531944889242" lon="7.404672220642793" id="-39722">
		<tag k="name" v="Mjåvannet" />
		<tag k="natural" v="water" />
		<tag k="ssr:stedsnr" v="143615" />
		<tag k="water" v="lake" />
	</node>
	<node lat="58.16460277891637" lon="7.374888880893915" id="-39723">
		<tag k="name" v="Holtet" />
		<tag k="natural" v="hill" />
		<tag k="place" v="locality" />
		<tag k="ssr:stedsnr" v="143617" />
	</node>
	<node lat="58.22990555703906" lon="7.650544437293102" id="-39724">
		<tag k="name" v="Stien" />
		<tag k="place" v="locality" />
		<tag k="ssr:stedsnr" v="143629" />
	</node>
	<node lat="58.079175003267416" lon="7.315911105811749" id="-39725">
		<tag k="name" v="Mørkelia" />
		<tag k="place" v="quarter" />
		<tag k="ssr:stedsnr" v="143634" />
	</node>
	<node lat="58.18022499783718" lon="7.66038610304307" id="-39726">
		<tag k="name" v="Eigedalen" />
		<tag k="natural" v="valley" />
		<tag k="place" v="locality" />
		<tag k="ssr:stedsnr" v="143637" />
	</node>
	<node lat="58.182974996435036" lon="7.632761115640042" id="-39727">
		<tag k="name" v="Mauråsen" />
		<tag k="natural" v="hill" />
		<tag k="place" v="locality" />
		<tag k="ssr:stedsnr" v="143641" />
	</node>
	<node lat="58.06171013654412" lon="7.33386456425834" id="-39728">
		<tag k="name" v="Krokevannet" />
		<tag k="natural" v="water" />
		<tag k="ssr:stedsnr" v="143642" />
		<tag k="water" v="lake" />
	</node>
	<node lat="58.275969444373835" lon="7.539630562952454" id="-39729">
		<tag k="name" v="Skremyr" />
		<tag k="natural" v="wetland" />
		<tag k="ssr:stedsnr" v="143504" />
	</node>
	<node lat="58.155827782108545" lon="7.34988333668129" id="-39730">
		<tag k="name" v="Stølsåsen" />
		<tag k="natural" v="hill" />
		<tag k="place" v="locality" />
		<tag k="ssr:stedsnr" v="143510" />
	</node>
	<node lat="58.2310944439048" lon="7.621036110783619" id="-39731">
		<tag k="name" v="Austre Høydalen" />
		<tag k="natural" v="valley" />
		<tag k="place" v="locality" />
		<tag k="ssr:stedsnr" v="143511" />
	</node>
	<node lat="58.08798333368063" lon="7.302100006212525" id="-39732">
		<tag k="fixme" v="consider natural=peak for the most distinct mountains in the district" />
		<tag k="name" v="Fløyheia" />
		<tag k="natural" v="hill" />
		<tag k="place" v="locality" />
		<tag k="ssr:stedsnr" v="143521" />
	</node>
	<node lat="58.11070000374239" lon="7.393366667036774" id="-39733">
		<tag k="name" v="Kvernhusbakken" />
		<tag k="natural" v="slope" />
		<tag k="place" v="locality" />
		<tag k="ssr:stedsnr" v="143539" />
	</node>
	<node lat="58.23369166845797" lon="7.610866661017894" id="-39734">
		<tag k="name" v="Valleslåttjønn" />
		<tag k="natural" v="water" />
		<tag k="ssr:stedsnr" v="143540" />
	</node>
	<node lat="58.099513891601966" lon="7.3676000070227685" id="-39735">
		<tag k="name" v="Løebakken" />
		<tag k="natural" v="hill" />
		<tag k="place" v="locality" />
		<tag k="ssr:stedsnr" v="143543" />
	</node>
	<node lat="58.131272218078244" lon="7.346127784355205" id="-39736">
		<tag k="fixme" v="consider natural=peak for the most distinct mountains in the district" />
		<tag k="name" v="Hagefjell" />
		<tag k="natural" v="hill" />
		<tag k="place" v="locality" />
		<tag k="ssr:stedsnr" v="143583" />
	</node>
	<node lat="58.14800000180863" lon="7.321069449439163" id="-39737">
		<tag k="name" v="Røsseheia" />
		<tag k="natural" v="hill" />
		<tag k="place" v="locality" />
		<tag k="ssr:stedsnr" v="143586" />
	</node>
	<node lat="58.25141666870506" lon="7.524341673154962" id="-39738">
		<tag k="name" v="Heptekjerr" />
		<tag k="natural" v="wetland" />
		<tag k="ssr:stedsnr" v="143592" />
	</node>
	<node lat="58.25577777744314" lon="7.555769447726381" id="-39739">
		<tag k="name" v="Oljordsmyr" />
		<tag k="natural" v="wetland" />
		<tag k="ssr:stedsnr" v="143597" />
	</node>
	<node lat="58.14809999647056" lon="7.3500916721061955" id="-39740">
		<tag k="name" v="Skiftingsmyr" />
		<tag k="natural" v="wetland" />
		<tag k="ssr:stedsnr" v="143598" />
	</node>
	<node lat="58.15962499790122" lon="7.62901110526475" id="-39741">
		<tag k="name" v="Varehei" />
		<tag k="natural" v="hill" />
		<tag k="place" v="locality" />
		<tag k="ssr:stedsnr" v="143715" />
	</node>
	<node lat="58.11020000217818" lon="7.339127779943558" id="-39742">
		<tag k="name" v="Heimermonen" />
		<tag k="place" v="locality" />
		<tag k="ssr:stedsnr" v="143682" />
	</node>
	<node lat="58.10499444864773" lon="7.31982222286996" id="-39743">
		<tag k="name" v="Hogsåna" />
		<tag k="ssr:stedsnr" v="143683" />
		<tag k="waterway" v="stream" />
	</node>
	<node lat="58.211030551944596" lon="7.664066667035291" id="-39744">
		<tag k="name" v="Gullringsdalen" />
		<tag k="natural" v="valley" />
		<tag k="place" v="locality" />
		<tag k="ssr:stedsnr" v="143692" />
	</node>
	<node lat="58.20527499738534" lon="7.672355559725217" id="-39745">
		<tag k="name" v="Forehei" />
		<tag k="natural" v="hill" />
		<tag k="place" v="locality" />
		<tag k="ssr:stedsnr" v="143694" />
	</node>
	<node lat="58.12589722183321" lon="7.290080553441246" id="-39746">
		<tag k="name" v="Småkniben" />
		<tag k="natural" v="hill" />
		<tag k="place" v="locality" />
		<tag k="ssr:stedsnr" v="143804" />
	</node>
	<node lat="58.20480277602519" lon="7.501499996979963" id="-39747">
		<tag k="name" v="Ådnesdalen" />
		<tag k="natural" v="valley" />
		<tag k="place" v="locality" />
		<tag k="ssr:stedsnr" v="143805" />
	</node>
	<node lat="58.14370833134366" lon="7.274533327817979" id="-39748">
		<tag k="name" v="Skogkumstjønn" />
		<tag k="natural" v="water" />
		<tag k="ssr:stedsnr" v="143811" />
	</node>
	<node lat="58.1596499994069" lon="7.510969438108675" id="-39749">
		<tag k="name" v="Sagåsen" />
		<tag k="natural" v="hill" />
		<tag k="place" v="locality" />
		<tag k="ssr:stedsnr" v="143831" />
	</node>
	<node lat="58.15857222279316" lon="7.512344437334805" id="-39750">
		<tag k="name" v="Svartelona" />
		<tag k="natural" v="water" />
		<tag k="ssr:stedsnr" v="143832" />
	</node>
	<node lat="58.164166667716316" lon="7.278033327173165" id="-39751">
		<tag k="name" v="Eigedalshola" />
		<tag k="natural" v="valley" />
		<tag k="place" v="locality" />
		<tag k="ssr:stedsnr" v="143839" />
	</node>
	<node lat="58.164327780552334" lon="7.274533331533639" id="-39752">
		<tag k="name" v="Kleivshola" />
		<tag k="place" v="locality" />
		<tag k="ssr:stedsnr" v="143840" />
	</node>
	<node lat="58.197824995770226" lon="7.483550000317874" id="-39753">
		<tag k="fixme" v="consider natural=peak for the most distinct mountains in the district" />
		<tag k="name" v="Plankan" />
		<tag k="natural" v="hill" />
		<tag k="place" v="locality" />
		<tag k="ssr:stedsnr" v="143841" />
	</node>
	<node lat="58.19037777506621" lon="7.552952771603506" id="-39754">
		<tag k="fixme" v="consider natural=peak for the most distinct mountains in the district" />
		<tag k="name" v="Langemyråsen" />
		<tag k="natural" v="hill" />
		<tag k="place" v="locality" />
		<tag k="ssr:stedsnr" v="143880" />
	</node>
	<node lat="58.19031666694322" lon="7.538369443625217" id="-39755">
		<tag k="name" v="Hovedalen" />
		<tag k="natural" v="valley" />
		<tag k="place" v="locality" />
		<tag k="ssr:stedsnr" v="143882" />
	</node>
	<node lat="58.18804444768272" lon="7.539583340341159" id="-39756">
		<tag k="name" v="Storedalen" />
		<tag k="natural" v="valley" />
		<tag k="place" v="locality" />
		<tag k="ssr:stedsnr" v="143891" />
	</node>
	<node lat="58.09157499628059" lon="7.2032888813602" id="-39757">
		<tag k="name" v="Kringlemyra" />
		<tag k="natural" v="wetland" />
		<tag k="ssr:stedsnr" v="143892" />
	</node>
	<node lat="58.07496388559705" lon="7.253044443435173" id="-39758">
		<tag k="name" v="Stoa" />
		<tag k="natural" v="bay" />
		<tag k="ssr:stedsnr" v="143783" />
	</node>
	<node lat="58.206752776825084" lon="7.25755832806975" id="-39759">
		<tag k="name" v="Holebakken" />
		<tag k="natural" v="hill" />
		<tag k="place" v="locality" />
		<tag k="ssr:stedsnr" v="143795" />
	</node>
	<node lat="58.19002221832903" lon="7.508113895894931" id="-39760">
		<tag k="name" v="Trøkjerr" />
		<tag k="natural" v="wetland" />
		<tag k="ssr:stedsnr" v="143797" />
	</node>
	<node lat="58.101524998628975" lon="7.187024995420526" id="-39761">
		<tag k="name" v="Havelandstjønna" />
		<tag k="natural" v="water" />
		<tag k="ssr:stedsnr" v="143910" />
	</node>
	<node lat="58.033352777823566" lon="7.256783334982528" id="-39762">
		<tag k="alt_name" v="Breivika" />
		<tag k="name" v="Breiviga" />
		<tag k="natural" v="bay" />
		<tag k="ssr:stedsnr" v="143982" />
	</node>
	<node lat="58.0429388859502" lon="7.239147224018874" id="-39763">
		<tag k="name" v="Russevika" />
		<tag k="natural" v="bay" />
		<tag k="ssr:stedsnr" v="143984" />
	</node>
	<node lat="58.04376944485264" lon="7.242419449808" id="-39764">
		<tag k="name" v="Langvika" />
		<tag k="natural" v="bay" />
		<tag k="ssr:stedsnr" v="143985" />
	</node>
	<node lat="58.16115277656481" lon="7.558183327024512" id="-39765">
		<tag k="name" v="Løbakk" />
		<tag k="natural" v="hill" />
		<tag k="place" v="locality" />
		<tag k="ssr:stedsnr" v="143989" />
	</node>
	<node lat="58.296627776471965" lon="7.4991166720647495" id="-39766">
		<tag k="name" v="Osdalen" />
		<tag k="natural" v="valley" />
		<tag k="place" v="locality" />
		<tag k="ssr:stedsnr" v="144302" />
	</node>
	<node lat="58.28495000316761" lon="7.4528722269733985" id="-39767">
		<tag k="name" v="Sjendybel" />
		<tag k="natural" v="wetland" />
		<tag k="ssr:stedsnr" v="144311" />
	</node>
	<node lat="58.26965833709215" lon="7.475508333979673" id="-39768">
		<tag k="name" v="Skaran" />
		<tag k="natural" v="valley" />
		<tag k="place" v="locality" />
		<tag k="ssr:stedsnr" v="144339" />
	</node>
	<node lat="58.27953611551745" lon="7.5000250024190995" id="-39769">
		<tag k="name" v="Tangdalen" />
		<tag k="natural" v="valley" />
		<tag k="place" v="locality" />
		<tag k="ssr:stedsnr" v="144361" />
	</node>
	<node lat="58.277972225102495" lon="7.471686111889017" id="-39770">
		<tag k="name" v="Nertjønn" />
		<tag k="natural" v="water" />
		<tag k="ssr:stedsnr" v="144364" />
	</node>
	<node lat="58.06437778133333" lon="7.5358111065418" id="-39771">
		<tag k="name" v="Hesteheia" />
		<tag k="natural" v="hill" />
		<tag k="place" v="locality" />
		<tag k="ssr:stedsnr" v="144589" />
	</node>
	<node lat="58.25621944661345" lon="7.5024333345475" id="-39772">
		<tag k="fixme" v="consider natural=peak for the most distinct mountains in the district" />
		<tag k="name" v="Timberåsen" />
		<tag k="natural" v="hill" />
		<tag k="place" v="locality" />
		<tag k="ssr:stedsnr" v="144769" />
	</node>
	<node lat="57.96418610977573" lon="7.529925001883914" id="-39773">
		<tag k="name" v="Fiskodden" />
		<tag k="natural" v="cape" />
		<tag k="ssr:stedsnr" v="145076" />
	</node>
	<node lat="57.9802194483406" lon="7.557550001715817" id="-39774">
		<tag k="name" v="Havnen" />
		<tag k="natural" v="bay" />
		<tag k="ssr:stedsnr" v="145104" />
	</node>
	<node lat="57.98116666416418" lon="7.5367722205561565" id="-39775">
		<tag k="name" v="Kommodeskuffa" />
		<tag k="natural" v="bay" />
		<tag k="ssr:stedsnr" v="145111" />
	</node>
	<node lat="57.98500555202352" lon="7.5414472197701885" id="-39776">
		<tag k="name" v="Hellesdalsodden" />
		<tag k="natural" v="cape" />
		<tag k="ssr:stedsnr" v="145113" />
	</node>
	<node lat="57.9864333312002" lon="7.64485832879616" id="-39777">
		<tag k="name" v="Svartodden" />
		<tag k="natural" v="cape" />
		<tag k="ssr:stedsnr" v="145325" />
	</node>
	<node lat="57.97595555603993" lon="7.613405559937659" id="-39778">
		<tag k="name" v="Flatodden" />
		<tag k="natural" v="cape" />
		<tag k="ssr:stedsnr" v="145329" />
	</node>
	<node lat="58.01856944764049" lon="7.561805555423577" id="-39779">
		<tag k="name" v="Østre Vassbotten" />
		<tag k="natural" v="bay" />
		<tag k="ssr:stedsnr" v="145379" />
	</node>
	<node lat="58.00573889012365" lon="7.552613886347883" id="-39780">
		<tag k="name" v="Kverna" />
		<tag k="natural" v="shoal" />
		<tag k="place" v="locality" />
		<tag k="ssr:stedsnr" v="145384" />
	</node>
	<node lat="58.01076666302808" lon="7.551008341527958" id="-39781">
		<tag k="name" v="Myrtoppen" />
		<tag k="natural" v="hill" />
		<tag k="place" v="locality" />
		<tag k="ssr:stedsnr" v="145386" />
	</node>
	<node lat="58.089938890365936" lon="7.502461118224795" id="-39782">
		<tag k="fixme" v="consider natural=peak for the most distinct mountains in the district" />
		<tag k="name" v="Skarpåsen" />
		<tag k="natural" v="hill" />
		<tag k="place" v="locality" />
		<tag k="ssr:stedsnr" v="145509" />
	</node>
	<node lat="58.11843888611097" lon="7.488316664939013" id="-39783">
		<tag k="name" v="Stormyra" />
		<tag k="natural" v="wetland" />
		<tag k="ssr:stedsnr" v="145512" />
	</node>
	<node lat="58.096472220081715" lon="7.471624997564165" id="-39784">
		<tag k="name" v="Døblemyra" />
		<tag k="natural" v="wetland" />
		<tag k="ssr:stedsnr" v="145514" />
	</node>
	<node lat="58.14218889035735" lon="7.508108331940167" id="-39785">
		<tag k="name" v="Hauheia" />
		<tag k="natural" v="hill" />
		<tag k="place" v="locality" />
		<tag k="ssr:stedsnr" v="145478" />
	</node>
	<node lat="58.023616665570266" lon="7.665783325300121" id="-39786">
		<tag k="name" v="Østerstranda" />
		<tag k="natural" v="bay" />
		<tag k="ssr:stedsnr" v="145611" />
	</node>
	<node lat="58.01688610945311" lon="7.638491672162691" id="-39787">
		<tag k="name" v="Audevikboen" />
		<tag k="place" v="locality" />
		<tag k="seamark:type" v="rock" />
		<tag k="ssr:stedsnr" v="145654" />
	</node>
	<node lat="58.01773055684815" lon="7.632230548994665" id="-39788">
		<tag k="name" v="Årvika" />
		<tag k="natural" v="bay" />
		<tag k="ssr:stedsnr" v="145656" />
	</node>
	<node lat="58.01422499925686" lon="7.639444436369751" id="-39789">
		<tag k="name" v="Stangholmsundet" />
		<tag k="natural" v="strait" />
		<tag k="ssr:stedsnr" v="145658" />
	</node>
	<node lat="58.076136108132744" lon="7.508769444467402" id="-39790">
		<tag k="name" v="Håvollsheia" />
		<tag k="natural" v="hill" />
		<tag k="place" v="locality" />
		<tag k="ssr:stedsnr" v="145665" />
	</node>
	<node lat="58.07221911684578" lon="7.480033875701191" id="-39791">
		<tag k="name" v="Østre Kjerr" />
		<tag k="place" v="farm" />
		<tag k="ssr:stedsnr" v="145667" />
	</node>
	<node lat="58.07689999771746" lon="7.4856499940989645" id="-39792">
		<tag k="name" v="Tollakshei" />
		<tag k="natural" v="hill" />
		<tag k="place" v="locality" />
		<tag k="ssr:stedsnr" v="145674" />
	</node>
	<node lat="58.04870833690998" lon="7.38859443823057" id="-39793">
		<tag k="name" v="Norderåsdalen" />
		<tag k="natural" v="valley" />
		<tag k="place" v="locality" />
		<tag k="ssr:stedsnr" v="145819" />
	</node>
	<node lat="58.07934722048329" lon="7.564605547888952" id="-39794">
		<tag k="name" v="Kvernhusdalen" />
		<tag k="natural" v="valley" />
		<tag k="place" v="locality" />
		<tag k="ssr:stedsnr" v="145576" />
	</node>
	<node lat="58.08679444468753" lon="7.544686118642339" id="-39795">
		<tag k="name" v="Langemyrheia" />
		<tag k="natural" v="hill" />
		<tag k="place" v="locality" />
		<tag k="ssr:stedsnr" v="145581" />
	</node>
	<node lat="58.085605557510846" lon="7.428675006905443" id="-39796">
		<tag k="name" v="Spanstøl" />
		<tag k="place" v="locality" />
		<tag k="ssr:stedsnr" v="145717" />
	</node>
	<node lat="58.10323610768214" lon="7.422161103691463" id="-39797">
		<tag k="name" v="Steinheia" />
		<tag k="natural" v="hill" />
		<tag k="place" v="locality" />
		<tag k="ssr:stedsnr" v="145720" />
	</node>
	<node lat="58.088672226562196" lon="7.6444777828779005" id="-39798">
		<tag k="name" v="Nøkkeheia" />
		<tag k="natural" v="hill" />
		<tag k="place" v="locality" />
		<tag k="ssr:stedsnr" v="145722" />
	</node>
	<node lat="58.08430555147378" lon="7.640636112605572" id="-39799">
		<tag k="name" v="Storheia" />
		<tag k="natural" v="hill" />
		<tag k="place" v="locality" />
		<tag k="ssr:stedsnr" v="145723" />
	</node>
	<node lat="58.0893722178783" lon="7.636597216478033" id="-39800">
		<tag k="name" v="Klomran" />
		<tag k="natural" v="slope" />
		<tag k="place" v="locality" />
		<tag k="ssr:stedsnr" v="145725" />
	</node>
	<node lat="58.12190000314262" lon="7.581611116656206" id="-39801">
		<tag k="name" v="Bumyr" />
		<tag k="natural" v="wetland" />
		<tag k="ssr:stedsnr" v="145728" />
	</node>
	<node lat="58.1084249988898" lon="7.58508888260668" id="-39802">
		<tag k="fixme" v="consider highway=path" />
		<tag k="highway" v="track" />
		<tag k="name" v="Kleivan" />
		<tag k="ssr:stedsnr" v="145734" />
	</node>
	<node lat="58.107383331447" lon="7.59961388823032" id="-39803">
		<tag k="name" v="Kringlemyr" />
		<tag k="natural" v="wetland" />
		<tag k="ssr:stedsnr" v="145762" />
	</node>
	<node lat="58.106313888318056" lon="7.59344721599907" id="-39804">
		<tag k="name" v="Knøbakkan" />
		<tag k="natural" v="hill" />
		<tag k="place" v="locality" />
		<tag k="ssr:stedsnr" v="145764" />
	</node>
	<node lat="58.10212222538758" lon="7.5851944359059535" id="-39805">
		<tag k="name" v="Ålgårdslia" />
		<tag k="natural" v="slope" />
		<tag k="place" v="locality" />
		<tag k="ssr:stedsnr" v="145770" />
	</node>
	<node lat="58.04151666787017" lon="7.340402773818786" id="-39806">
		<tag k="name" v="Grunvollsheia" />
		<tag k="natural" v="hill" />
		<tag k="place" v="locality" />
		<tag k="ssr:stedsnr" v="145776" />
	</node>
	<node lat="58.03985278077776" lon="7.327211118400308" id="-39807">
		<tag k="name" v="Råba" />
		<tag k="natural" v="hill" />
		<tag k="place" v="locality" />
		<tag k="ssr:stedsnr" v="145777" />
	</node>
	<node lat="58.043783331028095" lon="7.345499995998287" id="-39808">
		<tag k="name" v="Svartefjellan" />
		<tag k="place" v="locality" />
		<tag k="ssr:stedsnr" v="145780" />
	</node>
	<node lat="58.10776944856108" lon="7.623113885089502" id="-39809">
		<tag k="name" v="Stordalsheia" />
		<tag k="natural" v="hill" />
		<tag k="place" v="locality" />
		<tag k="ssr:stedsnr" v="145783" />
	</node>
	<node lat="58.04294166994113" lon="7.353247228037954" id="-39810">
		<tag k="name" v="Agnefidja" />
		<tag k="natural" v="valley" />
		<tag k="place" v="locality" />
		<tag k="ssr:stedsnr" v="145784" />
	</node>
	<node lat="58.05526666885832" lon="7.351874996402637" id="-39811">
		<tag k="name" v="Langekjerr" />
		<tag k="natural" v="wetland" />
		<tag k="ssr:stedsnr" v="145793" />
	</node>
</osm>
