<?xml version="1.0" encoding="UTF-8"?>
<osm version="0.6" generator="osmapis">
	<node lat="58.210563885649755" lon="7.308233328009721" id="-26739">
		<tag k="fixme" v="consider place=hamlet" />
		<tag k="name" v="Landås" />
		<tag k="place" v="farm" />
		<tag k="ssr:stedsnr" v="420" />
	</node>
	<node lat="58.179666662952535" lon="7.291722219700401" id="-26740">
		<tag k="alt_name" v="Fladen" />
		<tag k="fixme" v="consider place=hamlet" />
		<tag k="name" v="Flaten" />
		<tag k="place" v="farm" />
		<tag k="ssr:stedsnr" v="457" />
	</node>
	<node lat="58.078474998012126" lon="7.188550007693317" id="-26741">
		<tag k="fixme" v="consider place=hamlet" />
		<tag k="name" v="Hesteland" />
		<tag k="place" v="farm" />
		<tag k="ssr:stedsnr" v="602" />
	</node>
	<node lat="58.340438884413146" lon="7.463711107335768" id="-26743">
		<tag k="alt_name" v="Hjemlestad" />
		<tag k="fixme" v="consider place=hamlet" />
		<tag k="name" v="Gjemlestad" />
		<tag k="place" v="farm" />
		<tag k="ssr:stedsnr" v="809" />
	</node>
	<node lat="58.153013890567806" lon="7.4956916695515154" id="-26745">
		<tag k="fixme" v="consider place=hamlet" />
		<tag k="name" v="Listad" />
		<tag k="place" v="farm" />
		<tag k="ssr:stedsnr" v="797" />
	</node>
	<node lat="58.058541664003954" lon="7.447361109676423" id="-26746">
		<tag k="name" v="Løkke" />
		<tag k="place" v="farm" />
		<tag k="ssr:stedsnr" v="903" />
	</node>
	<node lat="58.06659166926952" lon="7.479649999378337" id="-26748">
		<tag k="alt_name" v="Helland" />
		<tag k="fixme" v="consider place=hamlet" />
		<tag k="name" v="Haddeland" />
		<tag k="place" v="farm" />
		<tag k="ssr:stedsnr" v="914" />
	</node>
	<node lat="58.06277499940054" lon="7.574813897219851" id="-26750">
		<tag k="name" v="Skagestad" />
		<tag k="place" v="farm" />
		<tag k="ssr:stedsnr" v="893" />
	</node>
	<node lat="58.047680557227494" lon="7.584788893770129" id="-26751">
		<tag k="fixme" v="consider place=hamlet" />
		<tag k="name" v="Skeie" />
		<tag k="place" v="farm" />
		<tag k="ssr:stedsnr" v="994" />
	</node>
	<node lat="58.383938887072205" lon="7.5594361135784505" id="-26752">
		<tag k="alt_name" v="Sølvskar;Sølvskaret" />
		<tag k="fixme" v="consider place=hamlet" />
		<tag k="name" v="Sylvskardet" />
		<tag k="place" v="farm" />
		<tag k="ssr:stedsnr" v="998" />
	</node>
	<node lat="58.12539722409351" lon="7.347241673204021" id="-26753">
		<tag k="name" v="Melhus" />
		<tag k="place" v="farm" />
		<tag k="ssr:stedsnr" v="232567" />
	</node>
	<node lat="58.1977388872341" lon="7.651663894067902" id="-26855">
		<tag k="name" v="Timra" />
		<tag k="place" v="locality" />
		<tag k="ssr:stedsnr" v="23708" />
	</node>
	<node lat="58.12231389207062" lon="7.343074999030849" id="-26980">
		<tag k="name" v="Melhus" />
		<tag k="place" v="farm" />
		<tag k="ssr:stedsnr" v="50484" />
	</node>
	<node lat="58.125711113777385" lon="7.352616658092608" id="-26981">
		<tag k="name" v="Melhus" />
		<tag k="place" v="farm" />
		<tag k="ssr:stedsnr" v="50487" />
	</node>
	<node lat="58.05592222135529" lon="7.110750005257743" id="-27006">
		<tag k="name" v="Øksnevik" />
		<tag k="place" v="neighbourhood" />
		<tag k="ssr:stedsnr" v="57911" />
	</node>
	<node lat="58.006361106973614" lon="7.04109444556723" id="-27007">
		<tag k="name" v="Stusvik" />
		<tag k="place" v="neighbourhood" />
		<tag k="ssr:stedsnr" v="57912" />
	</node>
	<node lat="58.048713890540846" lon="7.257327774621432" id="-27008">
		<tag k="name" v="Vardebakken" />
		<tag k="place" v="neighbourhood" />
		<tag k="ssr:stedsnr" v="57918" />
	</node>
	<node lat="58.09608055842372" lon="7.287436107842889" id="-27030">
		<tag k="alt_name" v="Giskedal" />
		<tag k="fixme" v="consider place=hamlet" />
		<tag k="name" v="Geiskedal" />
		<tag k="place" v="farm" />
		<tag k="ssr:stedsnr" v="60576" />
	</node>
	<node lat="58.048891670964885" lon="7.126286104712268" id="-27031">
		<tag k="name" v="Gare" />
		<tag k="place" v="farm" />
		<tag k="ssr:stedsnr" v="60909" />
	</node>
	<node lat="58.04587499807064" lon="7.29645277887887" id="-27032">
		<tag k="name" v="Ytre Eigeland" />
		<tag k="place" v="farm" />
		<tag k="ssr:stedsnr" v="60912" />
	</node>
	<node lat="58.04759765783562" lon="7.1253128754561414" id="-27035">
		<tag k="name" v="Gare" />
		<tag k="place" v="farm" />
		<tag k="ssr:stedsnr" v="60996" />
	</node>
	<node lat="58.22999444034241" lon="7.299772221930918" id="-27037">
		<tag k="fixme" v="consider place=hamlet" />
		<tag k="name" v="Brådland" />
		<tag k="place" v="farm" />
		<tag k="ssr:stedsnr" v="61415" />
	</node>
	<node lat="58.17397499745519" lon="7.330961109151381" id="-27038">
		<tag k="alt_name" v="Stølsås" />
		<tag k="fixme" v="consider place=hamlet" />
		<tag k="name" v="Stølsåsen" />
		<tag k="place" v="farm" />
		<tag k="ssr:stedsnr" v="61472" />
	</node>
	<node lat="58.173469446210994" lon="7.305883324983053" id="-27039">
		<tag k="alt_name" v="Risdal, store" />
		<tag k="fixme" v="consider place=hamlet" />
		<tag k="name" v="Store Risdal" />
		<tag k="place" v="farm" />
		<tag k="ssr:stedsnr" v="61476" />
	</node>
	<node lat="58.10813888858504" lon="7.189316669235193" id="-27040">
		<tag k="alt_name" v="Molandslien" />
		<tag k="fixme" v="consider place=hamlet" />
		<tag k="name" v="Molandsli" />
		<tag k="place" v="farm" />
		<tag k="ssr:stedsnr" v="61486" />
	</node>
	<node lat="58.16108055234689" lon="7.346436112311361" id="-27044">
		<tag k="alt_name" v="Kleiven;Kleven" />
		<tag k="fixme" v="consider place=hamlet" />
		<tag k="name" v="Kleiva" />
		<tag k="place" v="farm" />
		<tag k="ssr:stedsnr" v="61722" />
	</node>
	<node lat="58.233066665921655" lon="7.507766668311015" id="-27045">
		<tag k="alt_name" v="Kåland" />
		<tag k="name" v="Koland" />
		<tag k="place" v="farm" />
		<tag k="ssr:stedsnr" v="61726" />
	</node>
	<node lat="58.02148333742174" lon="7.630511115115877" id="-27048">
		<tag k="alt_name" v="Ærekjær" />
		<tag k="name" v="Ærekjerr" />
		<tag k="place" v="farm" />
		<tag k="ssr:stedsnr" v="61939" />
	</node>
	<node lat="58.17503055834426" lon="7.347338892866406" id="-27052">
		<tag k="fixme" v="consider place=hamlet" />
		<tag k="name" v="Løland" />
		<tag k="place" v="farm" />
		<tag k="ssr:stedsnr" v="61697" />
	</node>
	<node lat="58.08585833705624" lon="7.521736111509516" id="-27053">
		<tag k="alt_name" v="Møll, midtre" />
		<tag k="name" v="Midtre Møll" />
		<tag k="place" v="farm" />
		<tag k="ssr:stedsnr" v="61815" />
	</node>
	<node lat="58.40931944355057" lon="7.531855552069568" id="-27057">
		<tag k="alt_name" v="Sundet;Lille Sundet" />
		<tag k="fixme" v="consider place=hamlet" />
		<tag k="name" v="Sunde" />
		<tag k="place" v="farm" />
		<tag k="ssr:stedsnr" v="61894" />
	</node>
	<node lat="58.09644999920716" lon="7.3193666626326666" id="-27065">
		<tag k="name" v="Valle" />
		<tag k="place" v="farm" />
		<tag k="ssr:stedsnr" v="242562" />
	</node>
	<node lat="58.30391944130514" lon="7.432177774040062" id="-27070">
		<tag k="alt_name" v="Bjørnhom" />
		<tag k="fixme" v="consider place=hamlet" />
		<tag k="name" v="Bjørnhommen" />
		<tag k="place" v="farm" />
		<tag k="ssr:stedsnr" v="242834" />
	</node>
	<node lat="58.28604166466239" lon="7.432200004538515" id="-27071">
		<tag k="fixme" v="consider place=hamlet" />
		<tag k="name" v="Tisland" />
		<tag k="place" v="farm" />
		<tag k="ssr:stedsnr" v="242843" />
	</node>
	<node lat="58.35401944735444" lon="7.451424998799967" id="-27073">
		<tag k="fixme" v="consider place=hamlet" />
		<tag k="name" v="Øvre Abelset" />
		<tag k="place" v="farm" />
		<tag k="ssr:stedsnr" v="242859" />
	</node>
	<node lat="58.04878332975585" lon="7.284419442179446" id="-27074">
		<tag k="name" v="Ytre Eigeland" />
		<tag k="place" v="farm" />
		<tag k="ssr:stedsnr" v="242897" />
	</node>
	<node lat="58.06638611224665" lon="7.375727769526461" id="-27075">
		<tag k="name" v="Sjølingstad" />
		<tag k="place" v="farm" />
		<tag k="ssr:stedsnr" v="242901" />
	</node>
	<node lat="58.05085555498333" lon="7.287369446799648" id="-27076">
		<tag k="name" v="Ytre Eigeland" />
		<tag k="place" v="farm" />
		<tag k="ssr:stedsnr" v="242903" />
	</node>
	<node lat="58.18279444767738" lon="7.392736103086815" id="-27077">
		<tag k="name" v="Oppsal" />
		<tag k="place" v="farm" />
		<tag k="ssr:stedsnr" v="242922" />
	</node>
	<node lat="58.051930554822654" lon="7.192422223839037" id="-27078">
		<tag k="name" v="Østre Reme" />
		<tag k="place" v="farm" />
		<tag k="ssr:stedsnr" v="242929" />
	</node>
	<node lat="58.01041111457377" lon="7.593597226588133" id="-27080">
		<tag k="name" v="Sandvika" />
		<tag k="place" v="farm" />
		<tag k="ssr:stedsnr" v="243051" />
	</node>
	<node lat="58.12347777953907" lon="7.320949994815494" id="-27084">
		<tag k="name" v="Grasdal" />
		<tag k="place" v="farm" />
		<tag k="ssr:stedsnr" v="243570" />
	</node>
	<node lat="58.119861110045775" lon="7.34270277321728" id="-27089">
		<tag k="fixme" v="consider place=suburb, village or hamlet" />
		<tag k="name" v="Buhølen" />
		<tag k="place" v="quarter" />
		<tag k="ssr:stedsnr" v="243504" />
	</node>
	<node lat="58.11105555206122" lon="7.2121000086020075" id="-27090">
		<tag k="fixme" v="consider place=hamlet" />
		<tag k="name" v="Osestad" />
		<tag k="place" v="farm" />
		<tag k="ssr:stedsnr" v="243518" />
	</node>
	<node lat="58.05212222420862" lon="7.195175004645942" id="-27092">
		<tag k="name" v="Reme" />
		<tag k="place" v="hamlet" />
		<tag k="ssr:stedsnr" v="243582" />
	</node>
	<node lat="58.039074999567696" lon="7.336025002073331" id="-27098">
		<tag k="alt_name" v="Lundevig" />
		<tag k="name" v="Lundevik" />
		<tag k="place" v="hamlet" />
		<tag k="ssr:stedsnr" v="243673" />
	</node>
	<node lat="58.223708336035855" lon="7.649094452131128" id="-27099">
		<tag k="fixme" v="consider place=hamlet" />
		<tag k="name" v="Bjeddan" />
		<tag k="place" v="farm" />
		<tag k="ssr:stedsnr" v="243760" />
	</node>
	<node lat="58.336897225648734" lon="7.518175004377604" id="-27103">
		<tag k="alt_name" v="Homme;Homme ytre" />
		<tag k="fixme" v="consider place=hamlet" />
		<tag k="name" v="Ytre Homme" />
		<tag k="place" v="farm" />
		<tag k="ssr:stedsnr" v="243799" />
	</node>
	<node lat="58.169502779912676" lon="7.502847226607787" id="-27104">
		<tag k="fixme" v="consider place=hamlet" />
		<tag k="name" v="Gangså" />
		<tag k="place" v="farm" />
		<tag k="ssr:stedsnr" v="243801" />
	</node>
	<node lat="58.168863891886055" lon="7.359055563639914" id="-27105">
		<tag k="alt_name" v="Einarsmo" />
		<tag k="fixme" v="consider place=hamlet" />
		<tag k="name" v="Einarsmonen" />
		<tag k="place" v="farm" />
		<tag k="ssr:stedsnr" v="243805" />
	</node>
	<node lat="58.16805000274073" lon="7.386036105090102" id="-27106">
		<tag k="alt_name" v="Heddan" />
		<tag k="fixme" v="consider place=hamlet" />
		<tag k="name" v="Helland" />
		<tag k="place" v="farm" />
		<tag k="ssr:stedsnr" v="243809" />
	</node>
	<node lat="58.081913888817084" lon="7.426761116416138" id="-27108">
		<tag k="alt_name" v="Gjervoldstad" />
		<tag k="fixme" v="consider place=hamlet" />
		<tag k="name" v="Gjervollstad" />
		<tag k="place" v="farm" />
		<tag k="ssr:stedsnr" v="243815" />
	</node>
	<node lat="58.32232222222405" lon="7.485591658725184" id="-27109">
		<tag k="alt_name" v="Haraldstad, nedre;Haraldstad nedre" />
		<tag k="fixme" v="consider place=hamlet" />
		<tag k="name" v="Nedre Haraldstad" />
		<tag k="place" v="farm" />
		<tag k="ssr:stedsnr" v="243779" />
	</node>
	<node lat="58.12295555729837" lon="7.412841668456893" id="-27110">
		<tag k="alt_name" v="Goksem" />
		<tag k="fixme" v="consider place=hamlet" />
		<tag k="name" v="Gauksum" />
		<tag k="place" v="farm" />
		<tag k="ssr:stedsnr" v="243852" />
	</node>
	<node lat="58.10881666398015" lon="7.400827777140781" id="-27112">
		<tag k="fixme" v="consider place=hamlet" />
		<tag k="name" v="Birkeland" />
		<tag k="place" v="farm" />
		<tag k="ssr:stedsnr" v="243862" />
	</node>
	<node lat="58.06437777995227" lon="7.595733337102334" id="-27115">
		<tag k="alt_name" v="Vetnes" />
		<tag k="fixme" v="consider place=hamlet" />
		<tag k="name" v="Vætnes" />
		<tag k="place" v="farm" />
		<tag k="ssr:stedsnr" v="243880" />
	</node>
	<node lat="58.02278333317564" lon="7.375075002576384" id="-27117">
		<tag k="fixme" v="consider place=hamlet" />
		<tag k="name" v="Høksås" />
		<tag k="place" v="farm" />
		<tag k="ssr:stedsnr" v="243955" />
	</node>
	<node lat="58.36354166621049" lon="7.525352786090598" id="-27121">
		<tag k="fixme" v="consider place=hamlet" />
		<tag k="name" v="Trygsland" />
		<tag k="place" v="farm" />
		<tag k="ssr:stedsnr" v="243965" />
	</node>
	<node lat="58.03488333041334" lon="7.619188883424439" id="-27122">
		<tag k="fixme" v="consider place=hamlet" />
		<tag k="name" v="Osnes" />
		<tag k="place" v="farm" />
		<tag k="ssr:stedsnr" v="243972" />
	</node>
	<node lat="58.03462500428814" lon="7.499030551853753" id="-27123">
		<tag k="fixme" v="consider place=hamlet" />
		<tag k="name" v="Ime" />
		<tag k="place" v="farm" />
		<tag k="ssr:stedsnr" v="243979" />
	</node>
	<node lat="58.40076944496925" lon="7.584522228394576" id="-27124">
		<tag k="name" v="Huset" />
		<tag k="place" v="farm" />
		<tag k="ssr:stedsnr" v="243980" />
	</node>
	<node lat="58.44764166710171" lon="7.509355558789336" id="-27127">
		<tag k="alt_name" v="Øvre Homme" />
		<tag k="fixme" v="consider place=hamlet" />
		<tag k="name" v="Homme" />
		<tag k="place" v="farm" />
		<tag k="ssr:stedsnr" v="243925" />
	</node>
	<node lat="58.076110027494074" lon="7.344218319782857" id="-27128">
		<tag k="name" v="Tredal" />
		<tag k="place" v="farm" />
		<tag k="ssr:stedsnr" v="243926" />
	</node>
	<node lat="58.42621944276043" lon="7.519644437549295" id="-27184">
		<tag k="name" v="Lunnan" />
		<tag k="place" v="farm" />
		<tag k="ssr:stedsnr" v="83442" />
	</node>
	<node lat="58.07433888602035" lon="7.280205547925363" id="-27226">
		<tag k="name" v="Haran" />
		<tag k="place" v="farm" />
		<tag k="ssr:stedsnr" v="83808" />
	</node>
	<node lat="58.09109721934067" lon="7.19389444815743" id="-27252">
		<tag k="fixme" v="consider place=hamlet" />
		<tag k="name" v="Grennan" />
		<tag k="place" v="farm" />
		<tag k="ssr:stedsnr" v="83902" />
	</node>
	<node lat="58.03196666982355" lon="7.339700002366578" id="-27306">
		<tag k="fixme" v="consider place=hamlet" />
		<tag k="name" v="Brattestø" />
		<tag k="place" v="farm" />
		<tag k="ssr:stedsnr" v="86875" />
	</node>
	<node lat="58.13169166612631" lon="7.538394440345102" id="-27318">
		<tag k="alt_name" v="Øvre Nøding" />
		<tag k="fixme" v="consider place=hamlet" />
		<tag k="name" v="Nøding" />
		<tag k="place" v="farm" />
		<tag k="ssr:stedsnr" v="303719" />
	</node>
	<node lat="58.30232777692033" lon="7.415286111486477" id="-27330">
		<tag k="alt_name" v="Rustad" />
		<tag k="fixme" v="consider place=hamlet" />
		<tag k="name" v="Rusta" />
		<tag k="place" v="farm" />
		<tag k="ssr:stedsnr" v="303842" />
	</node>
	<node lat="58.050630558240066" lon="7.1408749948742045" id="-27361">
		<tag k="fixme" v="consider place=hamlet" />
		<tag k="name" v="Stokke" />
		<tag k="place" v="farm" />
		<tag k="ssr:stedsnr" v="121574" />
	</node>
	<node lat="58.05124373464291" lon="7.246904796808714" id="-27362">
		<tag k="name" v="Lonestrand" />
		<tag k="place" v="hamlet" />
		<tag k="ssr:stedsnr" v="121585" />
	</node>
	<node lat="58.20194166347136" lon="7.453600001389734" id="-27363">
		<tag k="fixme" v="consider place=hamlet" />
		<tag k="name" v="Homestad" />
		<tag k="place" v="farm" />
		<tag k="ssr:stedsnr" v="121702" />
	</node>
	<node lat="58.18658055916656" lon="7.347186103367349" id="-27364">
		<tag k="alt_name" v="Lølandsmoen" />
		<tag k="fixme" v="consider place=hamlet" />
		<tag k="name" v="Lølandsmonen" />
		<tag k="place" v="farm" />
		<tag k="ssr:stedsnr" v="121705" />
	</node>
	<node lat="58.21000833455654" lon="7.258597223862635" id="-27367">
		<tag k="alt_name" v="Støle vestre" />
		<tag k="fixme" v="consider place=hamlet" />
		<tag k="loc_name" v="Støle ytre" />
		<tag k="name" v="Vestre Støle" />
		<tag k="place" v="farm" />
		<tag k="ssr:stedsnr" v="121720" />
	</node>
	<node lat="58.077013887625746" lon="7.228691670789253" id="-27370">
		<tag k="alt_name" v="Fidje" />
		<tag k="fixme" v="consider place=hamlet" />
		<tag k="name" v="Fidja" />
		<tag k="place" v="farm" />
		<tag k="ssr:stedsnr" v="121625" />
	</node>
	<node lat="58.26990000020386" lon="7.437894442059485" id="-27373">
		<tag k="alt_name" v="Fidje" />
		<tag k="fixme" v="consider place=hamlet" />
		<tag k="name" v="Fidja" />
		<tag k="place" v="farm" />
		<tag k="ssr:stedsnr" v="121824" />
	</node>
	<node lat="58.26808889196698" lon="7.450666671238863" id="-27374">
		<tag k="name" v="Leivoll" />
		<tag k="place" v="farm" />
		<tag k="ssr:stedsnr" v="121826" />
	</node>
	<node lat="58.09037221778869" lon="7.469813887193996" id="-27375">
		<tag k="fixme" v="consider place=hamlet" />
		<tag k="name" v="Klepp" />
		<tag k="place" v="farm" />
		<tag k="ssr:stedsnr" v="121831" />
	</node>
	<node lat="58.05347499645754" lon="7.2851611129963265" id="-27377">
		<tag k="fixme" v="consider place=hamlet" />
		<tag k="name" v="Ytre Eigeland" />
		<tag k="place" v="farm" />
		<tag k="ssr:stedsnr" v="121905" />
	</node>
	<node lat="58.07879444683856" lon="7.602516668125033" id="-27380">
		<tag k="alt_name" v="Vestre Vatne" />
		<tag k="fixme" v="consider place=hamlet" />
		<tag k="name" v="Vatne" />
		<tag k="place" v="farm" />
		<tag k="ssr:stedsnr" v="121916" />
	</node>
	<node lat="58.06064722215774" lon="7.179286111860627" id="-27381">
		<tag k="name" v="Remesvik" />
		<tag k="place" v="farm" />
		<tag k="ssr:stedsnr" v="121920" />
	</node>
	<node lat="58.033630554166116" lon="7.47711110681043" id="-27385">
		<tag k="building" v="industrial" />
		<tag k="name" v="Buøya" />
		<tag k="ssr:stedsnr" v="121976" />
	</node>
	<node lat="58.045908329497685" lon="7.634294440176768" id="-27389">
		<tag k="fixme" v="consider place=hamlet" />
		<tag k="name" v="Lian" />
		<tag k="place" v="farm" />
		<tag k="ssr:stedsnr" v="121987" />
	</node>
	<node lat="58.05599444339964" lon="7.627102783142481" id="-27390">
		<tag k="fixme" v="multiple name tags, choose one and add the other to alt_name; consider place=hamlet" />
		<tag k="name" v="Ormestrengen;Ormestreng" />
		<tag k="place" v="farm" />
		<tag k="ssr:stedsnr" v="121993" />
	</node>
	<node lat="58.10720000075251" lon="7.3771249965232375" id="-27391">
		<tag k="fixme" v="consider place=hamlet" />
		<tag k="name" v="Skogen" />
		<tag k="place" v="farm" />
		<tag k="ssr:stedsnr" v="121873" />
	</node>
	<node lat="58.04644999849477" lon="7.493361112913346" id="-27393">
		<tag k="name" v="Årekjerr" />
		<tag k="place" v="farm" />
		<tag k="ssr:stedsnr" v="121882" />
	</node>
	<node lat="58.26632777856725" lon="7.459838889274869" id="-27424">
		<tag k="name" v="Lian" />
		<tag k="place" v="farm" />
		<tag k="ssr:stedsnr" v="143335" />
	</node>
	<node lat="58.39527222149954" lon="7.524758330988828" id="-27439">
		<tag k="name" v="Monan" />
		<tag k="place" v="hamlet" />
		<tag k="ssr:stedsnr" v="143484" />
	</node>
	<node lat="58.22990555703906" lon="7.650544437293102" id="-27448">
		<tag k="name" v="Stien" />
		<tag k="place" v="locality" />
		<tag k="ssr:stedsnr" v="143629" />
	</node>
	<node lat="58.079175003267416" lon="7.315911105811749" id="-27449">
		<tag k="name" v="Mørkelia" />
		<tag k="place" v="quarter" />
		<tag k="ssr:stedsnr" v="143634" />
	</node>
	<node lat="58.07221911684578" lon="7.480033875701191" id="-27515">
		<tag k="name" v="Østre Kjerr" />
		<tag k="place" v="farm" />
		<tag k="ssr:stedsnr" v="145667" />
	</node>
	<node lat="58.1270027813479" lon="7.349355562049949" id="-27571">
		<tag k="name" v="Melhus" />
		<tag k="place" v="farm" />
		<tag k="ssr:stedsnr" v="171657" />
	</node>
	<node lat="58.051769448185155" lon="7.184177784584058" id="-27589">
		<tag k="name" v="Skotberget" />
		<tag k="place" v="farm" />
		<tag k="ssr:stedsnr" v="177063" />
	</node>
	<node lat="58.011349999985825" lon="7.630025001736246" id="-27599">
		<tag k="name" v="Kåløy" />
		<tag k="place" v="farm" />
		<tag k="ssr:stedsnr" v="182060" />
	</node>
	<node lat="58.257436107082675" lon="7.5262111085771055" id="-27603">
		<tag k="fixme" v="consider place=hamlet" />
		<tag k="name" v="Kimestad" />
		<tag k="place" v="farm" />
		<tag k="ssr:stedsnr" v="182205" />
	</node>
	<node lat="58.19958333476675" lon="7.336024995954989" id="-27606">
		<tag k="alt_name" v="Nedre Vigmostad" />
		<tag k="fixme" v="consider place=hamlet" />
		<tag k="name" v="Vigmostad" />
		<tag k="place" v="farm" />
		<tag k="ssr:stedsnr" v="182458" />
	</node>
	<node lat="58.11175833200289" lon="7.24710000527149" id="-27607">
		<tag k="alt_name" v="Stedjedal" />
		<tag k="fixme" v="consider place=hamlet" />
		<tag k="name" v="Steggedalen" />
		<tag k="place" v="farm" />
		<tag k="ssr:stedsnr" v="182503" />
	</node>
	<node lat="58.145677781773855" lon="7.28069443908931" id="-27608">
		<tag k="alt_name" v="Døble" />
		<tag k="fixme" v="consider place=hamlet" />
		<tag k="name" v="Døbla" />
		<tag k="place" v="farm" />
		<tag k="ssr:stedsnr" v="182527" />
	</node>
	<node lat="58.135949510189086" lon="7.330199133539941" id="-27609">
		<tag k="name" v="Øygarden" />
		<tag k="place" v="farm" />
		<tag k="ssr:stedsnr" v="182531" />
	</node>
	<node lat="58.060533335403065" lon="7.178886103169716" id="-27610">
		<tag k="fixme" v="consider place=hamlet" />
		<tag k="name" v="Remesvik" />
		<tag k="place" v="farm" />
		<tag k="ssr:stedsnr" v="182564" />
	</node>
	<node lat="58.06253889120187" lon="7.321008331109359" id="-27611">
		<tag k="name" v="Ponsen" />
		<tag k="place" v="isolated_dwelling" />
		<tag k="ssr:stedsnr" v="182568" />
	</node>
	<node lat="58.089758337692416" lon="7.291269446354537" id="-27612">
		<tag k="name" v="Livoll" />
		<tag k="place" v="farm" />
		<tag k="ssr:stedsnr" v="182598" />
	</node>
	<node lat="58.117177777843175" lon="7.410316674098751" id="-27618">
		<tag k="fixme" v="consider place=hamlet" />
		<tag k="name" v="Skarstad" />
		<tag k="place" v="farm" />
		<tag k="ssr:stedsnr" v="182851" />
	</node>
	<node lat="58.06861944627679" lon="7.388105563755471" id="-27622">
		<tag k="alt_name" v="Skjøllungsstad" />
		<tag k="name" v="Sjølingstad" />
		<tag k="place" v="hamlet" />
		<tag k="ssr:stedsnr" v="182905" />
	</node>
	<node lat="58.07331389317618" lon="7.486500005731213" id="-27623">
		<tag k="alt_name" v="Undal" />
		<tag k="name" v="Unndal" />
		<tag k="place" v="farm" />
		<tag k="ssr:stedsnr" v="182913" />
	</node>
	<node lat="58.37123888921887" lon="7.4414111161913254" id="-27627">
		<tag k="name" v="Rosseland" />
		<tag k="place" v="farm" />
		<tag k="ssr:stedsnr" v="182934" />
	</node>
	<node lat="58.0637472191348" lon="7.203744452705103" id="-27630">
		<tag k="name" v="Gloppa" />
		<tag k="place" v="farm" />
		<tag k="ssr:stedsnr" v="264029" />
	</node>
	<node lat="58.06503888983951" lon="7.371491668550525" id="-27674">
		<tag k="name" v="Hegrestad" />
		<tag k="place" v="locality" />
		<tag k="ssr:stedsnr" v="265756" />
	</node>
	<node lat="58.37914721835482" lon="7.483441661130943" id="-27706">
		<tag k="name" v="Voddan" />
		<tag k="place" v="farm" />
		<tag k="ssr:stedsnr" v="265170" />
	</node>
	<node lat="58.04577372523202" lon="7.374696669793024" id="-27849">
		<tag k="name" v="Røllandstø" />
		<tag k="place" v="farm" />
		<tag k="ssr:stedsnr" v="267751" />
	</node>
	<node lat="58.056113884545056" lon="7.338925008042324" id="-27855">
		<tag k="fixme" v="consider place=hamlet" />
		<tag k="name" v="Bjermundshaven" />
		<tag k="place" v="farm" />
		<tag k="ssr:stedsnr" v="267778" />
	</node>
	<node lat="58.0305027774462" lon="7.4511583347189285" id="-28009">
		<tag k="name" v="Oksevollen" />
		<tag k="place" v="quarter" />
		<tag k="ssr:stedsnr" v="208141" />
	</node>
	<node lat="58.25991110910018" lon="7.493622214621906" id="-28182">
		<tag k="fixme" v="consider place=hamlet" />
		<tag k="name" v="Sveinall" />
		<tag k="place" v="farm" />
		<tag k="ssr:stedsnr" v="242206" />
	</node>
	<node lat="58.028708336894844" lon="7.380249991616889" id="-28191">
		<tag k="name" v="Myrvang" />
		<tag k="place" v="farm" />
		<tag k="ssr:stedsnr" v="451886" />
	</node>
	<node lat="58.03933055594422" lon="7.086769449120854" id="-28200">
		<tag k="fixme" v="consider place=hamlet" />
		<tag k="name" v="Mønestad" />
		<tag k="place" v="farm" />
		<tag k="ssr:stedsnr" v="243588" />
	</node>
	<node lat="58.04747892954463" lon="7.125634816545457" id="-28201">
		<tag k="alt_name" v="Gahre" />
		<tag k="name" v="Gare" />
		<tag k="place" v="hamlet" />
		<tag k="ssr:stedsnr" v="243595" />
	</node>
	<node lat="58.210366670279" lon="7.5258805500703305" id="-28202">
		<tag k="alt_name" v="Madland" />
		<tag k="name" v="Maddan" />
		<tag k="place" v="farm" />
		<tag k="ssr:stedsnr" v="243752" />
	</node>
	<node lat="58.096055552307746" lon="7.487050000416865" id="-28204">
		<tag k="name" v="Li" />
		<tag k="place" v="farm" />
		<tag k="ssr:stedsnr" v="243833" />
	</node>
	<node lat="58.0965805538792" lon="7.513086103643441" id="-28205">
		<tag k="fixme" v="multiple name tags, choose one and add the other to alt_name" />
		<tag k="name" v="Holum;Holmegård" />
		<tag k="place" v="farm" />
		<tag k="ssr:stedsnr" v="243836" />
	</node>
	<node lat="58.05584166956605" lon="7.426558331448446" id="-28206">
		<tag k="fixme" v="consider place=hamlet" />
		<tag k="name" v="Hesland" />
		<tag k="place" v="farm" />
		<tag k="ssr:stedsnr" v="243883" />
	</node>
	<node lat="58.06634722513403" lon="7.421838892558002" id="-28208">
		<tag k="fixme" v="consider place=hamlet" />
		<tag k="name" v="Holte" />
		<tag k="place" v="farm" />
		<tag k="ssr:stedsnr" v="243899" />
	</node>
	<node lat="58.1604888899256" lon="7.412525004391044" id="-28209">
		<tag k="alt_name" v="Støle øvre;Støle" />
		<tag k="fixme" v="consider place=hamlet" />
		<tag k="name" v="Øvre Støle" />
		<tag k="place" v="farm" />
		<tag k="ssr:stedsnr" v="243782" />
	</node>
	<node lat="58.35602777878056" lon="7.525113890222257" id="-28212">
		<tag k="fixme" v="consider place=hamlet" />
		<tag k="name" v="Hesså" />
		<tag k="place" v="farm" />
		<tag k="ssr:stedsnr" v="243792" />
	</node>
	<node lat="58.039100003079774" lon="7.363374991532175" id="-28214">
		<tag k="alt_name" v="Hogganvik" />
		<tag k="fixme" v="consider place=hamlet" />
		<tag k="name" v="Hoggandvik" />
		<tag k="place" v="farm" />
		<tag k="ssr:stedsnr" v="243987" />
	</node>
	<node lat="58.040094442951265" lon="7.480519445850316" id="-28215">
		<tag k="fixme" v="consider place=hamlet" />
		<tag k="name" v="Ormestad" />
		<tag k="place" v="farm" />
		<tag k="ssr:stedsnr" v="243990" />
	</node>
	<node lat="58.442547225128706" lon="7.624422214989404" id="-28260">
		<tag k="name" v="Kniben" />
		<tag k="place" v="locality" />
		<tag k="ssr:stedsnr" v="265119" />
	</node>
	<node lat="58.24419166663851" lon="7.417852776052227" id="-28303">
		<tag k="name" v="Heia" />
		<tag k="place" v="locality" />
		<tag k="ssr:stedsnr" v="265494" />
	</node>
	<node lat="58.24329444327123" lon="7.509644436510536" id="-28316">
		<tag k="name" v="Kjerrvaneset" />
		<tag k="place" v="quarter" />
		<tag k="ssr:stedsnr" v="265813" />
	</node>
	<node lat="58.12014722350827" lon="7.526419439472735" id="-28389">
		<tag k="name" v="Kjølemonen" />
		<tag k="place" v="farm" />
		<tag k="ssr:stedsnr" v="267884" />
	</node>
	<node lat="58.05803888610633" lon="7.235263880724113" id="-28440">
		<tag k="name" v="Lone" />
		<tag k="place" v="farm" />
		<tag k="ssr:stedsnr" v="284414" />
	</node>
	<node lat="58.1258138850059" lon="7.347800002674663" id="-28444">
		<tag k="name" v="Melhus" />
		<tag k="place" v="farm" />
		<tag k="ssr:stedsnr" v="293633" />
	</node>
	<node lat="58.254850000543726" lon="7.549102771280982" id="-28476">
		<tag k="fixme" v="consider place=hamlet" />
		<tag k="name" v="Apesland" />
		<tag k="place" v="farm" />
		<tag k="ssr:stedsnr" v="303221" />
	</node>
	<node lat="58.081791669004446" lon="7.24565000563378" id="-28477">
		<tag k="fixme" v="consider place=hamlet" />
		<tag k="name" v="Saudland" />
		<tag k="place" v="farm" />
		<tag k="ssr:stedsnr" v="303608" />
	</node>
	<node lat="58.07385278072347" lon="7.339305549492602" id="-28478">
		<tag k="alt_name" v="Toreland" />
		<tag k="fixme" v="consider place=hamlet" />
		<tag k="name" v="Torland" />
		<tag k="place" v="farm" />
		<tag k="ssr:stedsnr" v="303621" />
	</node>
	<node lat="58.15025000158355" lon="7.333038889688472" id="-28482">
		<tag k="fixme" v="consider place=hamlet" />
		<tag k="name" v="Røsstad" />
		<tag k="place" v="farm" />
		<tag k="ssr:stedsnr" v="303543" />
	</node>
	<node lat="58.052372223628254" lon="7.215627773257198" id="-28483">
		<tag k="alt_name" v="Opshus, l;Opshus lille" />
		<tag k="fixme" v="consider place=hamlet" />
		<tag k="name" v="Lille Opshus" />
		<tag k="place" v="farm" />
		<tag k="ssr:stedsnr" v="303579" />
	</node>
	<node lat="58.06157499704647" lon="7.437313894954131" id="-28489">
		<tag k="alt_name" v="Haven" />
		<tag k="fixme" v="consider place=hamlet" />
		<tag k="name" v="Hagen" />
		<tag k="place" v="farm" />
		<tag k="ssr:stedsnr" v="303887" />
	</node>
	<node lat="58.04828333087829" lon="7.286611119466711" id="-28492">
		<tag k="name" v="Ytre Eigeland" />
		<tag k="place" v="farm" />
		<tag k="ssr:stedsnr" v="303895" />
	</node>
	<node lat="58.063950000872005" lon="7.421716663888034" id="-28501">
		<tag k="alt_name" v="Skjerpta" />
		<tag k="name" v="Skjerpla" />
		<tag k="place" v="farm" />
		<tag k="ssr:stedsnr" v="303907" />
	</node>
	<node lat="58.062125001038176" lon="7.367438885150279" id="-28502">
		<tag k="alt_name" v="Ramsdal" />
		<tag k="fixme" v="consider place=hamlet" />
		<tag k="name" v="Ramsdalen" />
		<tag k="place" v="farm" />
		<tag k="ssr:stedsnr" v="303913" />
	</node>
	<node lat="58.06808610941998" lon="7.387891665353488" id="-28503">
		<tag k="name" v="Sjølingstad" />
		<tag k="place" v="farm" />
		<tag k="ssr:stedsnr" v="303918" />
	</node>
	<node lat="58.07210277796943" lon="7.3717722301660675" id="-28504">
		<tag k="name" v="Sjølingstad" />
		<tag k="place" v="farm" />
		<tag k="ssr:stedsnr" v="303923" />
	</node>
	<node lat="58.18027777756386" lon="7.387797227220224" id="-28505">
		<tag k="name" v="Oppsal" />
		<tag k="place" v="farm" />
		<tag k="ssr:stedsnr" v="303928" />
	</node>
	<node lat="58.07717500362921" lon="7.4411500022611" id="-28506">
		<tag k="name" v="Jordet" />
		<tag k="place" v="farm" />
		<tag k="ssr:stedsnr" v="303930" />
	</node>
	<node lat="58.01891388962026" lon="7.535063893705753" id="-28508">
		<tag k="alt_name" v="Tofte" />
		<tag k="fixme" v="consider place=hamlet" />
		<tag k="name" v="Tufte" />
		<tag k="place" v="farm" />
		<tag k="ssr:stedsnr" v="303950" />
	</node>
	<node lat="57.99599999557422" lon="7.084536108382869" id="-28510">
		<tag k="name" v="Ytre Fjellskår" />
		<tag k="place" v="farm" />
		<tag k="ssr:stedsnr" v="303986" />
	</node>
	<node lat="58.389127774841405" lon="7.570447219815796" id="-28511">
		<tag k="alt_name" v="Øvregården" />
		<tag k="name" v="Øvergarden" />
		<tag k="place" v="farm" />
		<tag k="ssr:stedsnr" v="303987" />
	</node>
	<node lat="58.04208333114575" lon="7.494975004713901" id="-28512">
		<tag k="fixme" v="consider place=hamlet" />
		<tag k="name" v="Sandnes" />
		<tag k="place" v="farm" />
		<tag k="ssr:stedsnr" v="303991" />
	</node>
	<node lat="58.0372416673008" lon="7.45583055894949" id="-28513">
		<tag k="name" v="Frøysland" />
		<tag k="place" v="village" />
		<tag k="ssr:stedsnr" v="303995" />
	</node>
	<node lat="58.38370308145298" lon="7.602416005227208" id="-28515">
		<tag k="fixme" v="consider place=hamlet" />
		<tag k="name" v="Koland" />
		<tag k="place" v="farm" />
		<tag k="ssr:stedsnr" v="303999" />
	</node>
	<node lat="58.20339722647942" lon="7.710852784241591" id="-28516">
		<tag k="alt_name" v="Skor" />
		<tag k="fixme" v="consider place=hamlet" />
		<tag k="name" v="Skår" />
		<tag k="place" v="farm" />
		<tag k="ssr:stedsnr" v="304706" />
	</node>
	<node lat="58.04948889304384" lon="7.130286115157548" id="-28517">
		<tag k="alt_name" v="Præsthus" />
		<tag k="fixme" v="consider place=hamlet" />
		<tag k="name" v="Presthus" />
		<tag k="place" v="farm" />
		<tag k="ssr:stedsnr" v="304604" />
	</node>
	<node lat="58.17997222239448" lon="7.450222228416745" id="-28518">
		<tag k="fixme" v="consider place=hamlet" />
		<tag k="name" v="Grimestad" />
		<tag k="place" v="farm" />
		<tag k="ssr:stedsnr" v="304816" />
	</node>
	<node lat="58.061258334921085" lon="7.231630551182448" id="-28527">
		<tag k="name" v="Lone" />
		<tag k="place" v="farm" />
		<tag k="ssr:stedsnr" v="466444" />
	</node>
	<node lat="58.18137778186402" lon="7.292083336466379" id="-28623">
		<tag k="name" v="Fladen" />
		<tag k="place" v="farm" />
		<tag k="ssr:stedsnr" v="325628" />
	</node>
	<node lat="58.17355277629844" lon="7.556888888932048" id="-28627">
		<tag k="name" v="Nesan" />
		<tag k="place" v="quarter" />
		<tag k="ssr:stedsnr" v="325609" />
	</node>
	<node lat="58.049505552616964" lon="7.244102779515668" id="-28653">
		<tag k="name" v="Opshusstranda" />
		<tag k="place" v="farm" />
		<tag k="ssr:stedsnr" v="325868" />
	</node>
	<node lat="58.055366663464916" lon="7.392797225393538" id="-28668">
		<tag k="name" v="Frostestad mølle" />
		<tag k="place" v="locality" />
		<tag k="ssr:stedsnr" v="327764" />
	</node>
	<node lat="58.12586944312589" lon="7.3397583270091165" id="-28741">
		<tag k="name" v="Melhus" />
		<tag k="place" v="farm" />
		<tag k="ssr:stedsnr" v="353526" />
	</node>
	<node lat="58.115286108160305" lon="7.342105552087219" id="-28772">
		<tag k="alt_name" v="Monen" />
		<tag k="fixme" v="consider place=hamlet" />
		<tag k="name" v="Moen" />
		<tag k="place" v="farm" />
		<tag k="ssr:stedsnr" v="364515" />
	</node>
	<node lat="58.10706388491484" lon="7.319527781267946" id="-28773">
		<tag k="alt_name" v="Hogstøl;Hovstøl" />
		<tag k="fixme" v="consider place=hamlet" />
		<tag k="name" v="Hovsdøl" />
		<tag k="place" v="farm" />
		<tag k="ssr:stedsnr" v="364519" />
	</node>
	<node lat="58.00657500057053" lon="7.106555547812848" id="-28775">
		<tag k="fixme" v="consider place=hamlet" />
		<tag k="name" v="Gauksum" />
		<tag k="place" v="farm" />
		<tag k="ssr:stedsnr" v="364651" />
	</node>
	<node lat="58.238441665397126" lon="7.515427780528898" id="-28776">
		<tag k="fixme" v="consider place=hamlet" />
		<tag k="name" v="Mjåland" />
		<tag k="place" v="farm" />
		<tag k="ssr:stedsnr" v="364660" />
	</node>
	<node lat="58.045032056388386" lon="7.221538678984948" id="-28778">
		<tag k="fixme" v="consider place=hamlet" />
		<tag k="name" v="Syrdal" />
		<tag k="place" v="farm" />
		<tag k="ssr:stedsnr" v="364604" />
	</node>
	<node lat="58.05562499908242" lon="7.22410556033331" id="-28781">
		<tag k="alt_name" v="Opshus store" />
		<tag k="fixme" v="consider place=hamlet" />
		<tag k="name" v="Opshus" />
		<tag k="place" v="farm" />
		<tag k="ssr:stedsnr" v="364601" />
	</node>
	<node lat="58.1483555523899" lon="7.6740666712332875" id="-28784">
		<tag k="alt_name" v="Ytre Solås" />
		<tag k="name" v="Solås" />
		<tag k="place" v="farm" />
		<tag k="ssr:stedsnr" v="364789" />
	</node>
	<node lat="58.06219999658585" lon="7.419086114558213" id="-28786">
		<tag k="name" v="Bjørklund" />
		<tag k="place" v="farm" />
		<tag k="ssr:stedsnr" v="364912" />
	</node>
	<node lat="58.052555555569015" lon="7.183833334483668" id="-28788">
		<tag k="name" v="Vestre Reme" />
		<tag k="place" v="farm" />
		<tag k="ssr:stedsnr" v="364846" />
	</node>
	<node lat="58.16784444133707" lon="7.550236105418349" id="-28806">
		<tag k="fixme" v="multiple name tags, choose one and add the other to alt_name" />
		<tag k="name" v="Øyslebø sentrum;Kjerrvaneset" />
		<tag k="place" v="quarter" />
		<tag k="ssr:stedsnr" v="482088" />
	</node>
	<node lat="58.077033333035345" lon="7.414200007558744" id="-28813">
		<tag k="name" v="Romedalsli" />
		<tag k="place" v="locality" />
		<tag k="ssr:stedsnr" v="385156" />
	</node>
	<node lat="58.1917694411454" lon="7.347077781909689" id="-28821">
		<tag k="name" v="Bjørkeneset" />
		<tag k="place" v="farm" />
		<tag k="ssr:stedsnr" v="385299" />
	</node>
	<node lat="58.10148889147124" lon="7.33785555450756" id="-28870">
		<tag k="name" v="Lopsvollen" />
		<tag k="place" v="farm" />
		<tag k="ssr:stedsnr" v="386516" />
	</node>
	<node lat="58.21337777759215" lon="7.712294437288525" id="-28894">
		<tag k="name" v="Øygarden" />
		<tag k="place" v="locality" />
		<tag k="ssr:stedsnr" v="386657" />
	</node>
	<node lat="58.09924722132666" lon="7.5299083355350325" id="-28989">
		<tag k="name" v="Nødbekk" />
		<tag k="place" v="farm" />
		<tag k="ssr:stedsnr" v="390908" />
	</node>
	<node lat="58.05292777705037" lon="7.191777772926982" id="-29000">
		<tag k="name" v="Østre Reme" />
		<tag k="place" v="farm" />
		<tag k="ssr:stedsnr" v="484924" />
	</node>
	<node lat="58.13109444253533" lon="7.4829555489175545" id="-29001">
		<tag k="name" v="Solås" />
		<tag k="place" v="farm" />
		<tag k="ssr:stedsnr" v="546731" />
	</node>
	<node lat="57.9904388888174" lon="7.509252778155231" id="-29004">
		<tag k="name" v="Valvik" />
		<tag k="place" v="hamlet" />
		<tag k="ssr:stedsnr" v="485043" />
	</node>
	<node lat="58.167866667231806" lon="7.308130554497636" id="-29006">
		<tag k="alt_name" v="Risdal, l;Risdal lille" />
		<tag k="fixme" v="consider place=hamlet" />
		<tag k="name" v="Lille Risdal" />
		<tag k="place" v="farm" />
		<tag k="ssr:stedsnr" v="485438" />
	</node>
	<node lat="58.072461112868446" lon="7.276197215396106" id="-29008">
		<tag k="alt_name" v="Geiteland" />
		<tag k="fixme" v="consider place=hamlet" />
		<tag k="name" v="Gjedeland" />
		<tag k="place" v="village" />
		<tag k="ssr:stedsnr" v="485574" />
	</node>
	<node lat="58.03450000139112" lon="7.085400000951138" id="-29014">
		<tag k="alt_name" v="Hegeland" />
		<tag k="fixme" v="consider place=hamlet" />
		<tag k="name" v="Hægeland" />
		<tag k="place" v="farm" />
		<tag k="ssr:stedsnr" v="485623" />
	</node>
	<node lat="58.20741111530392" lon="7.666605553874678" id="-29016">
		<tag k="fixme" v="consider place=hamlet" />
		<tag k="name" v="Krossen" />
		<tag k="place" v="farm" />
		<tag k="ssr:stedsnr" v="485637" />
	</node>
	<node lat="58.05915555149694" lon="7.199463882771184" id="-29027">
		<tag k="name" v="Østre Reme" />
		<tag k="place" v="farm" />
		<tag k="ssr:stedsnr" v="485790" />
	</node>
	<node lat="58.124116663004216" lon="7.534711116095196" id="-29028">
		<tag k="fixme" v="consider place=hamlet" />
		<tag k="name" v="Stoveland" />
		<tag k="place" v="village" />
		<tag k="ssr:stedsnr" v="485853" />
	</node>
	<node lat="58.2889000018524" lon="7.528947216460718" id="-29029">
		<tag k="alt_name" v="Solkroen" />
		<tag k="fixme" v="consider place=hamlet" />
		<tag k="name" v="Solkrona" />
		<tag k="place" v="farm" />
		<tag k="ssr:stedsnr" v="485860" />
	</node>
	<node lat="58.03968825090929" lon="7.361642283391198" id="-29030">
		<tag k="name" v="Hoggandvik" />
		<tag k="place" v="farm" />
		<tag k="ssr:stedsnr" v="485683" />
	</node>
	<node lat="58.44752222096195" lon="7.519966671525788" id="-29036">
		<tag k="alt_name" v="Åsand" />
		<tag k="fixme" v="consider place=hamlet" />
		<tag k="name" v="Åsan" />
		<tag k="place" v="farm" />
		<tag k="ssr:stedsnr" v="485932" />
	</node>
	<node lat="58.08882222588958" lon="7.622844449242298" id="-29037">
		<tag k="alt_name" v="Suvatne;Suvann" />
		<tag k="fixme" v="consider place=hamlet" />
		<tag k="name" v="Suvatnet" />
		<tag k="place" v="farm" />
		<tag k="ssr:stedsnr" v="485944" />
	</node>
	<node lat="58.022625002629546" lon="7.5682527816634195" id="-29038">
		<tag k="name" v="Kvistedal" />
		<tag k="place" v="farm" />
		<tag k="ssr:stedsnr" v="485958" />
	</node>
	<node lat="58.043150001203664" lon="7.470399997365461" id="-29041">
		<tag k="fixme" v="consider place=hamlet" />
		<tag k="name" v="Hjorteland" />
		<tag k="place" v="village" />
		<tag k="ssr:stedsnr" v="485997" />
	</node>
	<node lat="58.12551110772792" lon="7.348419440356716" id="-29049">
		<tag k="name" v="Melhus" />
		<tag k="place" v="farm" />
		<tag k="ssr:stedsnr" v="414507" />
	</node>
	<node lat="58.001950000734944" lon="7.0883138908482195" id="-29087">
		<tag k="name" v="Indre Fjellskår" />
		<tag k="place" v="farm" />
		<tag k="ssr:stedsnr" v="424997" />
	</node>
	<node lat="58.00944166951458" lon="7.0756416706711125" id="-29088">
		<tag k="name" v="Indre Fjellskår" />
		<tag k="place" v="farm" />
		<tag k="ssr:stedsnr" v="424999" />
	</node>
	<node lat="58.20221666801937" lon="7.287313894893624" id="-29089">
		<tag k="alt_name" v="Trondstad" />
		<tag k="fixme" v="consider place=hamlet" />
		<tag k="name" v="Tronstad" />
		<tag k="place" v="farm" />
		<tag k="ssr:stedsnr" v="425447" />
	</node>
	<node lat="58.10285555951789" lon="7.246669446688504" id="-29091">
		<tag k="fixme" v="consider place=hamlet" />
		<tag k="name" v="Steinsland" />
		<tag k="place" v="farm" />
		<tag k="ssr:stedsnr" v="425507" />
	</node>
	<node lat="58.06344722063759" lon="7.186913888079564" id="-29092">
		<tag k="fixme" v="consider place=hamlet" />
		<tag k="name" v="Håvestøl" />
		<tag k="place" v="farm" />
		<tag k="ssr:stedsnr" v="425546" />
	</node>
	<node lat="58.06763888891869" lon="7.335033335362433" id="-29093">
		<tag k="fixme" v="consider place=hamlet" />
		<tag k="name" v="Fasseland" />
		<tag k="place" v="farm" />
		<tag k="ssr:stedsnr" v="425551" />
	</node>
	<node lat="58.05971388571377" lon="7.22043055805115" id="-29094">
		<tag k="alt_name" v="Lysestøl" />
		<tag k="fixme" v="consider place=hamlet" />
		<tag k="name" v="Ljosestøl" />
		<tag k="place" v="farm" />
		<tag k="ssr:stedsnr" v="425555" />
	</node>
	<node lat="58.186877776972295" lon="7.359266675074517" id="-29098">
		<tag k="loc_name" v="Hægebostad" />
		<tag k="name" v="Hægbostad" />
		<tag k="place" v="farm" />
		<tag k="ssr:stedsnr" v="425698" />
	</node>
	<node lat="58.15930833006971" lon="7.363727769957825" id="-29105">
		<tag k="fixme" v="consider place=hamlet" />
		<tag k="name" v="Spilling" />
		<tag k="place" v="farm" />
		<tag k="ssr:stedsnr" v="425822" />
	</node>
	<node lat="58.10595833676889" lon="7.344750007886771" id="-29110">
		<tag k="name" v="Skofteland" />
		<tag k="place" v="farm" />
		<tag k="ssr:stedsnr" v="425860" />
	</node>
	<node lat="58.209799999332255" lon="7.680800008488063" id="-29111">
		<tag k="alt_name" v="Villehei" />
		<tag k="fixme" v="consider place=hamlet" />
		<tag k="name" v="Villeheia" />
		<tag k="place" v="farm" />
		<tag k="ssr:stedsnr" v="425704" />
	</node>
	<node lat="58.065619443533876" lon="7.440816658722906" id="-29116">
		<tag k="fixme" v="consider place=hamlet" />
		<tag k="name" v="Skadberg" />
		<tag k="place" v="farm" />
		<tag k="ssr:stedsnr" v="425906" />
	</node>
	<node lat="58.06304166866117" lon="7.432741660282344" id="-29117">
		<tag k="fixme" v="consider place=hamlet" />
		<tag k="name" v="Lia" />
		<tag k="place" v="farm" />
		<tag k="ssr:stedsnr" v="425907" />
	</node>
	<node lat="58.02323611095324" lon="7.398883331098949" id="-29120">
		<tag k="alt_name" v="Tuftenes" />
		<tag k="name" v="Toftenes" />
		<tag k="place" v="hamlet" />
		<tag k="ssr:stedsnr" v="425949" />
	</node>
	<node lat="58.42356389337297" lon="7.608127775016703" id="-29122">
		<tag k="name" v="Myran" />
		<tag k="place" v="farm" />
		<tag k="ssr:stedsnr" v="425894" />
	</node>
	<node lat="58.154075003000564" lon="7.6856916628155165" id="-29147">
		<tag k="name" v="Solås store" />
		<tag k="place" v="farm" />
		<tag k="ssr:stedsnr" v="447106" />
	</node>
	<node lat="58.37930833133005" lon="7.6260972140288406" id="-29154">
		<tag k="name" v="Øygarden" />
		<tag k="place" v="locality" />
		<tag k="ssr:stedsnr" v="447071" />
	</node>
	<node lat="58.41507222141607" lon="7.535069436547104" id="-29180">
		<tag k="name" v="Lille-Sundet" />
		<tag k="place" v="locality" />
		<tag k="ssr:stedsnr" v="447422" />
	</node>
	<node lat="58.17534166822989" lon="7.48459721965067" id="-29217">
		<tag k="name" v="Myran" />
		<tag k="place" v="farm" />
		<tag k="ssr:stedsnr" v="447804" />
	</node>
	<node lat="58.08913055451918" lon="7.515672215097209" id="-29256">
		<tag k="name" v="Hovmonen" />
		<tag k="place" v="farm" />
		<tag k="ssr:stedsnr" v="449490" />
	</node>
	<node lat="58.07762222543442" lon="7.6077861153645125" id="-29270">
		<tag k="name" v="Austre Vatne" />
		<tag k="place" v="hamlet" />
		<tag k="ssr:stedsnr" v="449921" />
	</node>
	<node lat="58.06104444727389" lon="7.231677770577919" id="-29314">
		<tag k="fixme" v="consider place=hamlet" />
		<tag k="name" v="Lone" />
		<tag k="place" v="village" />
		<tag k="ssr:stedsnr" v="480467" />
	</node>
	<node lat="58.18569166241933" lon="7.294975006826002" id="-29325">
		<tag k="alt_name" v="Leland lille" />
		<tag k="fixme" v="consider place=hamlet" />
		<tag k="name" v="Lille Leland" />
		<tag k="place" v="farm" />
		<tag k="ssr:stedsnr" v="485375" />
	</node>
	<node lat="58.06868055479939" lon="7.131591660945352" id="-29326">
		<tag k="alt_name" v="Lindalen" />
		<tag k="name" v="Linddalen" />
		<tag k="place" v="hamlet" />
		<tag k="ssr:stedsnr" v="485505" />
	</node>
	<node lat="58.156188893234315" lon="7.308994449241328" id="-29327">
		<tag k="alt_name" v="Eigedal" />
		<tag k="fixme" v="consider place=hamlet" />
		<tag k="name" v="Eikedal" />
		<tag k="place" v="farm" />
		<tag k="ssr:stedsnr" v="485415" />
	</node>
	<node lat="58.111250004173385" lon="7.234736105595469" id="-29328">
		<tag k="alt_name" v="Støle vestre;Støle" />
		<tag k="fixme" v="consider place=hamlet" />
		<tag k="name" v="Vestre Støle" />
		<tag k="place" v="farm" />
		<tag k="ssr:stedsnr" v="485462" />
	</node>
	<node lat="58.2373638903823" lon="7.550680560936997" id="-29329">
		<tag k="alt_name" v="Kvasshammer" />
		<tag k="fixme" v="consider place=hamlet" />
		<tag k="name" v="Kvasshamar" />
		<tag k="place" v="farm" />
		<tag k="ssr:stedsnr" v="485602" />
	</node>
	<node lat="58.13414722141659" lon="7.539033331447613" id="-29330">
		<tag k="fixme" v="consider place=hamlet" />
		<tag k="name" v="Hauge" />
		<tag k="place" v="farm" />
		<tag k="ssr:stedsnr" v="485708" />
	</node>
	<node lat="58.1278361098272" lon="7.531902770088764" id="-29331">
		<tag k="fixme" v="consider place=hamlet" />
		<tag k="name" v="Bjørkenes" />
		<tag k="place" v="farm" />
		<tag k="ssr:stedsnr" v="485710" />
	</node>
	<node lat="58.132505553257914" lon="7.44472499733094" id="-29332">
		<tag k="fixme" v="consider place=hamlet" />
		<tag k="name" v="Engeland" />
		<tag k="place" v="farm" />
		<tag k="ssr:stedsnr" v="485716" />
	</node>
	<node lat="58.146399998540566" lon="7.402186109533979" id="-29333">
		<tag k="fixme" v="consider place=hamlet" />
		<tag k="name" v="Hagen" />
		<tag k="place" v="farm" />
		<tag k="ssr:stedsnr" v="485718" />
	</node>
	<node lat="58.31376666258531" lon="7.533222223367003" id="-29335">
		<tag k="alt_name" v="Rekevik" />
		<tag k="fixme" v="consider place=hamlet" />
		<tag k="name" v="Regevik" />
		<tag k="place" v="farm" />
		<tag k="ssr:stedsnr" v="485721" />
	</node>
	<node lat="58.137224995830984" lon="7.347086115782574" id="-29336">
		<tag k="alt_name" v="Hagehei" />
		<tag k="fixme" v="consider place=hamlet" />
		<tag k="name" v="Hageheia" />
		<tag k="place" v="farm" />
		<tag k="ssr:stedsnr" v="485729" />
	</node>
	<node lat="58.1482750028336" lon="7.704074992256891" id="-29337">
		<tag k="name" v="Folåsen" />
		<tag k="place" v="farm" />
		<tag k="ssr:stedsnr" v="485731" />
	</node>
	<node lat="58.13926389229615" lon="7.395049996868566" id="-29338">
		<tag k="alt_name" v="Mersland;Mærsland" />
		<tag k="fixme" v="consider place=hamlet" />
		<tag k="name" v="Mæresland" />
		<tag k="place" v="farm" />
		<tag k="ssr:stedsnr" v="485732" />
	</node>
	<node lat="58.06528889290562" lon="7.386705559310931" id="-29339">
		<tag k="name" v="Skogly" />
		<tag k="place" v="farm" />
		<tag k="ssr:stedsnr" v="485909" />
	</node>
	<node lat="58.07177500036618" lon="7.389777774032927" id="-29340">
		<tag k="name" v="Sjølingstad" />
		<tag k="place" v="farm" />
		<tag k="ssr:stedsnr" v="485918" />
	</node>
	<node lat="58.07273862351" lon="7.4758116512878185" id="-29341">
		<tag k="alt_name" v="Vestre Kjerr" />
		<tag k="name" v="Kjerr" />
		<tag k="place" v="farm" />
		<tag k="ssr:stedsnr" v="485925" />
	</node>
	<node lat="58.07514444677784" lon="7.469849998698615" id="-29342">
		<tag k="alt_name" v="Stiland" />
		<tag k="name" v="Stigland" />
		<tag k="place" v="farm" />
		<tag k="ssr:stedsnr" v="485926" />
	</node>
	<node lat="58.2682388930876" lon="7.455116659082401" id="-29343">
		<tag k="alt_name" v="Laudal, øvre;Laudal øvre" />
		<tag k="name" v="Øvre Laudal" />
		<tag k="place" v="hamlet" />
		<tag k="ssr:stedsnr" v="485802" />
	</node>
	<node lat="58.22270833092098" lon="7.38706111906681" id="-29345">
		<tag k="fixme" v="consider place=hamlet" />
		<tag k="name" v="Teland" />
		<tag k="place" v="farm" />
		<tag k="ssr:stedsnr" v="485667" />
	</node>
	<node lat="58.089633334987376" lon="7.335508341609914" id="-29346">
		<tag k="alt_name" v="Vallehei" />
		<tag k="fixme" v="consider place=hamlet" />
		<tag k="name" v="Valleheia" />
		<tag k="place" v="farm" />
		<tag k="ssr:stedsnr" v="485671" />
	</node>
	<node lat="58.29438333497135" lon="7.5322944516106505" id="-29348">
		<tag k="alt_name" v="Haukedal" />
		<tag k="fixme" v="consider place=hamlet" />
		<tag k="name" v="Haugedal" />
		<tag k="place" v="farm" />
		<tag k="ssr:stedsnr" v="485862" />
	</node>
	<node lat="58.05101666901872" lon="7.515974994161501" id="-29351">
		<tag k="fixme" v="consider place=hamlet" />
		<tag k="name" v="Greipsland" />
		<tag k="place" v="farm" />
		<tag k="ssr:stedsnr" v="485869" />
	</node>
	<node lat="58.024958331138095" lon="7.4584083401798695" id="-29353">
		<tag k="alt_name" v="Malmøy" />
		<tag k="name" v="Malmø" />
		<tag k="place" v="suburb" />
		<tag k="ssr:stedsnr" v="485970" />
	</node>
	<node lat="58.3683111134181" lon="7.553666663429466" id="-29354">
		<tag k="alt_name" v="Tversland" />
		<tag k="name" v="Tvørsland" />
		<tag k="place" v="hamlet" />
		<tag k="ssr:stedsnr" v="485971" />
	</node>
	<node lat="58.22073888468227" lon="7.320772223743088" id="-29386">
		<tag k="name" v="Akland" />
		<tag k="place" v="farm" />
		<tag k="ssr:stedsnr" v="507217" />
	</node>
	<node lat="58.12867460138284" lon="7.339644004087542" id="-29418">
		<tag k="name" v="Haga" />
		<tag k="place" v="farm" />
		<tag k="ssr:stedsnr" v="507565" />
	</node>
	<node lat="58.11213889118622" lon="7.211908330949926" id="-29454">
		<tag k="fixme" v="consider place=hamlet" />
		<tag k="name" v="Stubakken" />
		<tag k="place" v="farm" />
		<tag k="ssr:stedsnr" v="507904" />
	</node>
	<node lat="58.07526388633508" lon="7.305099994839095" id="-29471">
		<tag k="name" v="Vallenes" />
		<tag k="place" v="farm" />
		<tag k="ssr:stedsnr" v="508657" />
	</node>
	<node lat="58.15512778074722" lon="7.50661388310354" id="-29486">
		<tag k="alt_name" v="Klev" />
		<tag k="fixme" v="consider place=hamlet" />
		<tag k="name" v="Kleiv" />
		<tag k="place" v="farm" />
		<tag k="ssr:stedsnr" v="509668" />
	</node>
	<node lat="58.01479167041416" lon="7.440197215882414" id="-29507">
		<tag k="fixme" v="consider natural=beach + surface=sand" />
		<tag k="leisure" v="swimming_area" />
		<tag k="name" v="Stumpestrendene" />
		<tag k="place" v="locality" />
		<tag k="ssr:stedsnr" v="510761" />
	</node>
	<node lat="58.04357221901773" lon="7.44023333173574" id="-29550">
		<tag k="name" v="Kirkevollen" />
		<tag k="place" v="farm" />
		<tag k="ssr:stedsnr" v="511985" />
	</node>
	<node lat="58.058427778783255" lon="7.5347999942758666" id="-29554">
		<tag k="name" v="Øygarden" />
		<tag k="place" v="locality" />
		<tag k="ssr:stedsnr" v="512516" />
	</node>
	<node lat="58.12743333066668" lon="7.350049998028307" id="-29580">
		<tag k="name" v="Melhus" />
		<tag k="place" v="farm" />
		<tag k="ssr:stedsnr" v="536626" />
	</node>
	<node lat="58.052783335645195" lon="7.2475722298452805" id="-29591">
		<tag k="name" v="Lonestrand" />
		<tag k="place" v="farm" />
		<tag k="ssr:stedsnr" v="540176" />
	</node>
	<node lat="58.2031111097773" lon="7.521180550780277" id="-29595">
		<tag k="name" v="Manneskaret" />
		<tag k="place" v="quarter" />
		<tag k="ssr:stedsnr" v="544014" />
	</node>
	<node lat="58.19250000431219" lon="7.522369441858208" id="-29596">
		<tag k="name" v="Heddeland" />
		<tag k="place" v="quarter" />
		<tag k="ssr:stedsnr" v="544017" />
	</node>
	<node lat="58.046622226070674" lon="7.130761102801466" id="-29602">
		<tag k="name" v="Gare" />
		<tag k="place" v="farm" />
		<tag k="ssr:stedsnr" v="545886" />
	</node>
	<node lat="58.180933329757025" lon="7.401322224338242" id="-29603">
		<tag k="name" v="Oppsal" />
		<tag k="place" v="farm" />
		<tag k="ssr:stedsnr" v="545915" />
	</node>
	<node lat="58.04010277453224" lon="7.116955557441423" id="-29606">
		<tag k="name" v="Gare" />
		<tag k="place" v="farm" />
		<tag k="ssr:stedsnr" v="545988" />
	</node>
	<node lat="58.24327500027351" lon="7.593216670825367" id="-29608">
		<tag k="fixme" v="consider place=hamlet" />
		<tag k="name" v="Skogen" />
		<tag k="place" v="farm" />
		<tag k="ssr:stedsnr" v="546604" />
	</node>
	<node lat="58.02545833265487" lon="7.07557778536112" id="-29611">
		<tag k="alt_name" v="Jørgenstad" />
		<tag k="name" v="Jørenstad" />
		<tag k="place" v="hamlet" />
		<tag k="ssr:stedsnr" v="546617" />
	</node>
	<node lat="58.22777778210306" lon="7.316455560048362" id="-29612">
		<tag k="alt_name" v="Bergstøl" />
		<tag k="fixme" v="consider place=hamlet" />
		<tag k="name" v="Barstøl" />
		<tag k="place" v="farm" />
		<tag k="ssr:stedsnr" v="546397" />
	</node>
	<node lat="58.249127773812106" lon="7.502463882766587" id="-29615">
		<tag k="name" v="Laudal" />
		<tag k="place" v="farm" />
		<tag k="ssr:stedsnr" v="546588" />
	</node>
	<node lat="58.21898055285664" lon="7.491505549166653" id="-29618">
		<tag k="fixme" v="consider place=hamlet" />
		<tag k="name" v="Klamdalen" />
		<tag k="place" v="farm" />
		<tag k="ssr:stedsnr" v="546704" />
	</node>
	<node lat="58.175874999034974" lon="7.360311110778848" id="-29619">
		<tag k="alt_name" v="Hægebostadøygarden" />
		<tag k="name" v="Øygarden" />
		<tag k="place" v="farm" />
		<tag k="ssr:stedsnr" v="546676" />
	</node>
	<node lat="58.09798611269494" lon="7.450891659232953" id="-29621">
		<tag k="fixme" v="consider place=hamlet" />
		<tag k="name" v="Skrøvje" />
		<tag k="place" v="farm" />
		<tag k="ssr:stedsnr" v="546815" />
	</node>
	<node lat="58.04530277398802" lon="7.448502770375556" id="-29623">
		<tag k="alt_name" v="Skogsfjord, Austre;Østre Skogsfjord" />
		<tag k="fixme" v="consider place=hamlet" />
		<tag k="name" v="Austre Skogsfjord" />
		<tag k="place" v="village" />
		<tag k="ssr:stedsnr" v="546870" />
	</node>
	<node lat="58.05955555912329" lon="7.473605554822304" id="-29626">
		<tag k="name" v="Skogen" />
		<tag k="place" v="farm" />
		<tag k="ssr:stedsnr" v="546887" />
	</node>
	<node lat="58.27724444170474" lon="7.438991674169128" id="-29630">
		<tag k="fixme" v="consider place=hamlet" />
		<tag k="name" v="Kleiven" />
		<tag k="place" v="farm" />
		<tag k="ssr:stedsnr" v="546784" />
	</node>
	<node lat="58.2722916675995" lon="7.430319437681854" id="-29631">
		<tag k="alt_name" v="Vestre Lian" />
		<tag k="name" v="Lian" />
		<tag k="place" v="farm" />
		<tag k="ssr:stedsnr" v="546785" />
	</node>
	<node lat="58.00931111398121" lon="7.353800005949546" id="-29635">
		<tag k="fixme" v="consider place=hamlet" />
		<tag k="name" v="Hille" />
		<tag k="place" v="farm" />
		<tag k="ssr:stedsnr" v="546927" />
	</node>
	<node lat="58.405866668122734" lon="7.594508329923092" id="-29636">
		<tag k="fixme" v="consider place=hamlet" />
		<tag k="name" v="Haugland" />
		<tag k="place" v="farm" />
		<tag k="ssr:stedsnr" v="546971" />
	</node>
	<node lat="58.03661110706266" lon="7.423027774540336" id="-29637">
		<tag k="fixme" v="consider place=hamlet" />
		<tag k="name" v="Valle" />
		<tag k="place" v="farm" />
		<tag k="ssr:stedsnr" v="546982" />
	</node>
	<node lat="58.11681111325333" lon="7.2983555638848845" id="-29717">
		<tag k="alt_name" v="Øvre Ås" />
		<tag k="fixme" v="consider place=hamlet" />
		<tag k="name" v="Ås" />
		<tag k="place" v="farm" />
		<tag k="ssr:stedsnr" v="689720" />
	</node>
	<node lat="58.06885555459987" lon="7.2949638910152865" id="-29737">
		<tag k="name" v="Hellekjær" />
		<tag k="place" v="farm" />
		<tag k="ssr:stedsnr" v="689765" />
	</node>
	<node lat="58.123377196191925" lon="7.339097207250604" id="-29779">
		<tag k="fixme" v="consider place=hamlet" />
		<tag k="name" v="Kristiansminde" />
		<tag k="place" v="farm" />
		<tag k="ssr:stedsnr" v="690762" />
	</node>
	<node lat="58.00281110883478" lon="7.513205556763872" id="-29819">
		<tag k="name" v="Skjernøysund" />
		<tag k="place" v="hamlet" />
		<tag k="ssr:stedsnr" v="692755" />
	</node>
	<node lat="57.99370555507477" lon="7.06981388173902" id="-29851">
		<tag k="name" v="Mikkelsbakken" />
		<tag k="place" v="farm" />
		<tag k="ssr:stedsnr" v="567366" />
	</node>
	<node lat="58.05631667084738" lon="7.28962777174429" id="-29862">
		<tag k="alt_name" v="Løkka" />
		<tag k="fixme" v="consider place=hamlet" />
		<tag k="name" v="Løkke" />
		<tag k="place" v="farm" />
		<tag k="ssr:stedsnr" v="567782" />
	</node>
	<node lat="58.15096944299562" lon="7.257661104134522" id="-29868">
		<tag k="name" v="Gåselia" />
		<tag k="place" v="locality" />
		<tag k="ssr:stedsnr" v="567855" />
	</node>
	<node lat="58.07646110656479" lon="7.330819438206204" id="-29907">
		<tag k="name" v="Lian" />
		<tag k="place" v="hamlet" />
		<tag k="ssr:stedsnr" v="568626" />
	</node>
	<node lat="58.17522500224462" lon="7.460794442356538" id="-29939">
		<tag k="historic" v="shieling" />
		<tag k="name" v="Goåsløa" />
		<tag k="place" v="isolated_dwelling" />
		<tag k="ssr:stedsnr" v="568766" />
	</node>
	<node lat="58.03227221842059" lon="7.280547225624559" id="-29945">
		<tag k="name" v="Vestgården" />
		<tag k="place" v="farm" />
		<tag k="ssr:stedsnr" v="568959" />
	</node>
	<node lat="58.201547220743116" lon="7.563691671616433" id="-29947">
		<tag k="name" v="Øygarden" />
		<tag k="place" v="locality" />
		<tag k="ssr:stedsnr" v="568963" />
	</node>
	<node lat="58.04800000428773" lon="7.326816666127363" id="-29992">
		<tag k="fixme" v="multiple name tags, choose one and add the other to alt_name; consider place=hamlet" />
		<tag k="name" v="Ås;Ytre Ås" />
		<tag k="place" v="farm" />
		<tag k="ssr:stedsnr" v="693437" />
	</node>
	<node lat="58.045433334780626" lon="7.144072221919094" id="-30106">
		<tag k="fixme" v="consider place=hamlet" />
		<tag k="name" v="Spangereid" />
		<tag k="place" v="village" />
		<tag k="ssr:stedsnr" v="698211" />
	</node>
	<node lat="58.05478055601836" lon="7.238627779794843" id="-30123">
		<tag k="name" v="Lone" />
		<tag k="place" v="farm" />
		<tag k="ssr:stedsnr" v="603463" />
	</node>
	<node lat="58.061263885610714" lon="7.231241673201665" id="-30124">
		<tag k="name" v="Lone" />
		<tag k="place" v="farm" />
		<tag k="ssr:stedsnr" v="603466" />
	</node>
	<node lat="58.05901110954264" lon="7.234777785881055" id="-30125">
		<tag k="name" v="Lone" />
		<tag k="place" v="farm" />
		<tag k="ssr:stedsnr" v="603469" />
	</node>
	<node lat="57.98979444667172" lon="7.062163895223487" id="-30138">
		<tag k="alt_name" v="Våga, nedre;Nedre Våga" />
		<tag k="fixme" v="consider place=hamlet" />
		<tag k="name" v="Nedre Våge" />
		<tag k="place" v="farm" />
		<tag k="ssr:stedsnr" v="606007" />
	</node>
	<node lat="58.01921944644606" lon="7.661083341324637" id="-30139">
		<tag k="name" v="Tånes" />
		<tag k="place" v="farm" />
		<tag k="ssr:stedsnr" v="606073" />
	</node>
	<node lat="58.240055554147794" lon="7.31612777032931" id="-30141">
		<tag k="fixme" v="consider place=hamlet" />
		<tag k="name" v="Røydland" />
		<tag k="place" v="farm" />
		<tag k="ssr:stedsnr" v="606415" />
	</node>
	<node lat="58.11780278003973" lon="7.18940832949874" id="-30142">
		<tag k="fixme" v="consider place=hamlet" />
		<tag k="name" v="Sandnes" />
		<tag k="place" v="farm" />
		<tag k="ssr:stedsnr" v="606496" />
	</node>
	<node lat="58.08658055528654" lon="7.3388833317152535" id="-30144">
		<tag k="name" v="Valleheia" />
		<tag k="place" v="farm" />
		<tag k="ssr:stedsnr" v="606602" />
	</node>
	<node lat="58.215111107487694" lon="7.331250001990878" id="-30146">
		<tag k="fixme" v="consider place=hamlet" />
		<tag k="name" v="Lian" />
		<tag k="place" v="farm" />
		<tag k="ssr:stedsnr" v="606398" />
	</node>
	<node lat="58.209458332987715" lon="7.514797222423494" id="-30148">
		<tag k="fixme" v="consider place=hamlet" />
		<tag k="name" v="Bue" />
		<tag k="place" v="farm" />
		<tag k="ssr:stedsnr" v="606724" />
	</node>
	<node lat="58.22378611346771" lon="7.489736110475044" id="-30150">
		<tag k="fixme" v="consider place=hamlet" />
		<tag k="name" v="Sangesland" />
		<tag k="place" v="farm" />
		<tag k="ssr:stedsnr" v="606731" />
	</node>
	<node lat="58.222816668039485" lon="7.461808339631527" id="-30151">
		<tag k="fixme" v="consider place=hamlet" />
		<tag k="name" v="Høneland" />
		<tag k="place" v="farm" />
		<tag k="ssr:stedsnr" v="606732" />
	</node>
	<node lat="58.14169999913326" lon="7.479324991586306" id="-30152">
		<tag k="fixme" v="consider place=hamlet" />
		<tag k="name" v="Eikeland" />
		<tag k="place" v="farm" />
		<tag k="ssr:stedsnr" v="606742" />
	</node>
	<node lat="58.33244722293718" lon="7.531116669273348" id="-30153">
		<tag k="alt_name" v="Stronnen" />
		<tag k="name" v="Stronda" />
		<tag k="place" v="locality" />
		<tag k="ssr:stedsnr" v="606750" />
	</node>
	<node lat="58.1567888883252" lon="7.682691663703995" id="-30154">
		<tag k="name" v="Solås" />
		<tag k="place" v="farm" />
		<tag k="ssr:stedsnr" v="606759" />
	</node>
	<node lat="58.31391110815418" lon="7.44720000678373" id="-30155">
		<tag k="name" v="Fjellheim" />
		<tag k="place" v="farm" />
		<tag k="ssr:stedsnr" v="606760" />
	</node>
	<node lat="58.16730968276533" lon="7.403601096709469" id="-30161">
		<tag k="name" v="Tjomsland" />
		<tag k="place" v="hamlet" />
		<tag k="ssr:stedsnr" v="606797" />
	</node>
	<node lat="58.06749999550594" lon="7.349088881302978" id="-30162">
		<tag k="alt_name" v="Fasselandsnes" />
		<tag k="name" v="Neset" />
		<tag k="place" v="farm" />
		<tag k="ssr:stedsnr" v="606909" />
	</node>
	<node lat="58.06768888446765" lon="7.356777770456662" id="-30163">
		<tag k="alt_name" v="Bue" />
		<tag k="historic" v="shieling" />
		<tag k="name" v="Bua" />
		<tag k="place" v="isolated_dwelling" />
		<tag k="ssr:stedsnr" v="606910" />
	</node>
	<node lat="58.069809069178284" lon="7.389439122397386" id="-30164">
		<tag k="name" v="Sjølingstad" />
		<tag k="place" v="farm" />
		<tag k="ssr:stedsnr" v="606911" />
	</node>
	<node lat="58.02185555314142" lon="7.6346138905331635" id="-30167">
		<tag k="name" v="Dammen" />
		<tag k="place" v="farm" />
		<tag k="ssr:stedsnr" v="606951" />
	</node>
	<node lat="58.38507500028958" lon="7.5698249939854705" id="-30168">
		<tag k="fixme" v="consider place=hamlet" />
		<tag k="name" v="Tønnesland" />
		<tag k="place" v="farm" />
		<tag k="ssr:stedsnr" v="606998" />
	</node>
	<node lat="58.38060277816599" lon="7.532724998738536" id="-30169">
		<tag k="fixme" v="consider place=hamlet" />
		<tag k="name" v="Skjeggestad" />
		<tag k="old_name" v="Skjeggestøl" />
		<tag k="place" v="farm" />
		<tag k="ssr:stedsnr" v="607000" />
	</node>
	<node lat="58.17970000135739" lon="7.393827772651104" id="-30171">
		<tag k="fixme" v="consider place=hamlet" />
		<tag k="name" v="Oppsal" />
		<tag k="place" v="farm" />
		<tag k="ssr:stedsnr" v="607702" />
	</node>
	<node lat="58.08556111276329" lon="7.413588885512555" id="-30175">
		<tag k="fixme" v="consider place=hamlet" />
		<tag k="name" v="Vrå" />
		<tag k="place" v="farm" />
		<tag k="ssr:stedsnr" v="607806" />
	</node>
	<node lat="58.18803889031075" lon="7.2976666655617075" id="-30231">
		<tag k="name" v="Brådan" />
		<tag k="place" v="farm" />
		<tag k="ssr:stedsnr" v="628415" />
	</node>
	<node lat="58.07461666576977" lon="7.499316665856204" id="-30314">
		<tag k="name" v="Haven" />
		<tag k="place" v="farm" />
		<tag k="ssr:stedsnr" v="630617" />
	</node>
	<node lat="58.07458611062828" lon="7.57966389575985" id="-30348">
		<tag k="name" v="Øygarden" />
		<tag k="place" v="locality" />
		<tag k="ssr:stedsnr" v="631985" />
	</node>
	<node lat="58.0212083335424" lon="7.627619438405405" id="-30364">
		<tag k="name" v="Strømmen" />
		<tag k="place" v="hamlet" />
		<tag k="ssr:stedsnr" v="632309" />
	</node>
	<node lat="58.003566666828156" lon="7.0900027751835974" id="-30389">
		<tag k="fixme" v="consider place=hamlet" />
		<tag k="name" v="Indre Fjellskår" />
		<tag k="place" v="farm" />
		<tag k="ssr:stedsnr" v="707421" />
	</node>
	<node lat="58.31528055773708" lon="7.463147219937504" id="-30407">
		<tag k="fixme" v="multiple name tags, choose one and add the other to alt_name" />
		<tag k="loc_name" v="Der Veste" />
		<tag k="name" v="Brauskeland;Bruskeland" />
		<tag k="place" v="farm" />
		<tag k="ssr:stedsnr" v="660687" />
	</node>
	<node lat="57.99184444233861" lon="7.069377780063947" id="-30428">
		<tag k="alt_name" v="Våga, øvre;Øvre Våga" />
		<tag k="name" v="Øvre Våge" />
		<tag k="place" v="hamlet" />
		<tag k="ssr:stedsnr" v="667025" />
	</node>
	<node lat="58.065052781846475" lon="7.204125003010038" id="-30431">
		<tag k="alt_name" v="Bjerge" />
		<tag k="fixme" v="consider place=hamlet" />
		<tag k="name" v="Bjerga" />
		<tag k="place" v="farm" />
		<tag k="ssr:stedsnr" v="667530" />
	</node>
	<node lat="58.06258836251827" lon="7.294342516991372" id="-30434">
		<tag k="fixme" v="consider place=hamlet" />
		<tag k="name" v="Homme" />
		<tag k="place" v="farm" />
		<tag k="ssr:stedsnr" v="667538" />
	</node>
	<node lat="58.22602221972633" lon="7.438011115015744" id="-30436">
		<tag k="fixme" v="consider place=hamlet" />
		<tag k="name" v="Stokkeland" />
		<tag k="place" v="farm" />
		<tag k="ssr:stedsnr" v="667683" />
	</node>
	<node lat="58.21284166705036" lon="7.536877777418593" id="-30437">
		<tag k="alt_name" v="Finnsdal" />
		<tag k="name" v="Finsdal" />
		<tag k="place" v="hamlet" />
		<tag k="ssr:stedsnr" v="667691" />
	</node>
	<node lat="58.12743404598146" lon="7.349091335933233" id="-30439">
		<tag k="fixme" v="consider place=hamlet" />
		<tag k="name" v="Melhus" />
		<tag k="place" v="farm" />
		<tag k="ssr:stedsnr" v="667699" />
	</node>
	<node lat="58.29816389267445" lon="7.490052776170764" id="-30440">
		<tag k="name" v="Solbakken" />
		<tag k="place" v="farm" />
		<tag k="ssr:stedsnr" v="667811" />
	</node>
	<node lat="58.116177778116324" lon="7.522475003364907" id="-30441">
		<tag k="fixme" v="consider place=hamlet" />
		<tag k="name" v="Fuskeland" />
		<tag k="place" v="farm" />
		<tag k="ssr:stedsnr" v="667813" />
	</node>
	<node lat="58.14020833093536" lon="7.53878610385118" id="-30443">
		<tag k="fixme" v="consider place=hamlet" />
		<tag k="name" v="Holmesland" />
		<tag k="place" v="farm" />
		<tag k="ssr:stedsnr" v="667704" />
	</node>
	<node lat="58.13072777980238" lon="7.5298805577577035" id="-30445">
		<tag k="alt_name" v="Smeland" />
		<tag k="fixme" v="consider place=hamlet" />
		<tag k="name" v="Smedland" />
		<tag k="place" v="farm" />
		<tag k="ssr:stedsnr" v="667716" />
	</node>
	<node lat="58.16028889158412" lon="7.648891669147808" id="-30448">
		<tag k="alt_name" v="Rødland" />
		<tag k="fixme" v="consider place=hamlet" />
		<tag k="name" v="Rødlend" />
		<tag k="place" v="farm" />
		<tag k="ssr:stedsnr" v="667740" />
	</node>
	<node lat="58.26374978486471" lon="7.520939954297343" id="-30451">
		<tag k="alt_name" v="Kleveland nedre" />
		<tag k="fixme" v="consider place=hamlet" />
		<tag k="name" v="Nedre Kleveland" />
		<tag k="place" v="farm" />
		<tag k="ssr:stedsnr" v="667798" />
	</node>
	<node lat="58.080041663550446" lon="7.577624991687269" id="-30452">
		<tag k="alt_name" v="Fjell" />
		<tag k="fixme" v="consider place=hamlet" />
		<tag k="name" v="Fjellet" />
		<tag k="place" v="farm" />
		<tag k="ssr:stedsnr" v="667905" />
	</node>
	<node lat="58.06907355734782" lon="7.380125973657646" id="-30453">
		<tag k="name" v="Sjølingstad" />
		<tag k="place" v="farm" />
		<tag k="ssr:stedsnr" v="667907" />
	</node>
	<node lat="58.076405558176226" lon="7.449316668020511" id="-30456">
		<tag k="name" v="Kleivan" />
		<tag k="place" v="farm" />
		<tag k="ssr:stedsnr" v="667913" />
	</node>
	<node lat="58.07255278147292" lon="7.348652776392677" id="-30457">
		<tag k="fixme" v="consider place=hamlet" />
		<tag k="name" v="Torp" />
		<tag k="place" v="farm" />
		<tag k="ssr:stedsnr" v="667918" />
	</node>
	<node lat="58.278125000200774" lon="7.465274999506379" id="-30458">
		<tag k="name" v="Aukland" />
		<tag k="place" v="farm" />
		<tag k="ssr:stedsnr" v="667837" />
	</node>
	<node lat="58.451147222792315" lon="7.516388881215695" id="-30460">
		<tag k="fixme" v="consider place=hamlet" />
		<tag k="name" v="Øvrebø" />
		<tag k="place" v="farm" />
		<tag k="ssr:stedsnr" v="667895" />
	</node>
	<node lat="58.068397218552796" lon="7.4162416585276905" id="-30461">
		<tag k="name" v="Holtebakken" />
		<tag k="place" v="farm" />
		<tag k="ssr:stedsnr" v="667899" />
	</node>
	<node lat="58.042202259961066" lon="7.315538794056083" id="-30462">
		<tag k="alt_name" v="Kåfjord" />
		<tag k="name" v="Kvåfjord" />
		<tag k="place" v="hamlet" />
		<tag k="ssr:stedsnr" v="668694" />
	</node>
	<node lat="58.03175555398376" lon="7.072502772391201" id="-30463">
		<tag k="fixme" v="consider place=hamlet" />
		<tag k="name" v="Haraldstad" />
		<tag k="place" v="farm" />
		<tag k="ssr:stedsnr" v="668697" />
	</node>
	<node lat="58.09940555656722" lon="7.6002305611461285" id="-30466">
		<tag k="fixme" v="consider place=hamlet" />
		<tag k="name" v="Systad" />
		<tag k="place" v="farm" />
		<tag k="ssr:stedsnr" v="668820" />
	</node>
	<node lat="58.08869166614036" lon="7.50850832858002" id="-30467">
		<tag k="alt_name" v="Kaddeland" />
		<tag k="name" v="Kalland" />
		<tag k="place" v="farm" />
		<tag k="ssr:stedsnr" v="668828" />
	</node>
	<node lat="58.15663888614036" lon="7.430413881184327" id="-30527">
		<tag k="name" v="Esperås" />
		<tag k="place" v="locality" />
		<tag k="ssr:stedsnr" v="689406" />
	</node>
	<node lat="58.35197777700095" lon="7.558844445110991" id="-30588">
		<tag k="alt_name" v="Eldhusdalen" />
		<tag k="name" v="Eldhusdal" />
		<tag k="place" v="locality" />
		<tag k="ssr:stedsnr" v="690337" />
	</node>
	<node lat="57.99355277336994" lon="7.541177773657647" id="-30608">
		<tag k="name" v="Bergenes" />
		<tag k="place" v="farm" />
		<tag k="ssr:stedsnr" v="691333" />
	</node>
	<node lat="58.111391669587206" lon="7.1894555632102355" id="-30721">
		<tag k="fixme" v="consider place=hamlet" />
		<tag k="name" v="Osestadstranda" />
		<tag k="place" v="farm" />
		<tag k="ssr:stedsnr" v="728507" />
	</node>
	<node lat="58.09702500275861" lon="7.2649555636748895" id="-30722">
		<tag k="fixme" v="consider place=hamlet" />
		<tag k="name" v="Fardal" />
		<tag k="place" v="farm" />
		<tag k="ssr:stedsnr" v="728519" />
	</node>
	<node lat="58.162919441840096" lon="7.339288890607704" id="-30723">
		<tag k="alt_name" v="Esperås" />
		<tag k="name" v="Esperåsen" />
		<tag k="place" v="isolated_dwelling" />
		<tag k="ssr:stedsnr" v="728473" />
	</node>
	<node lat="58.24591666346602" lon="7.511777771638244" id="-30725">
		<tag k="name" v="Storehagen" />
		<tag k="place" v="farm" />
		<tag k="ssr:stedsnr" v="728606" />
	</node>
	<node lat="58.246833333922325" lon="7.429469443792873" id="-30726">
		<tag k="fixme" v="consider place=hamlet" />
		<tag k="name" v="Leineland" />
		<tag k="place" v="farm" />
		<tag k="ssr:stedsnr" v="728609" />
	</node>
	<node lat="58.173850000113816" lon="7.381811102947415" id="-30727">
		<tag k="alt_name" v="Josal" />
		<tag k="fixme" v="consider place=hamlet" />
		<tag k="name" v="Jorsal" />
		<tag k="place" v="farm" />
		<tag k="ssr:stedsnr" v="728668" />
	</node>
	<node lat="58.232061112715996" lon="7.421011114290533" id="-30730">
		<tag k="alt_name" v="Kaddan" />
		<tag k="name" v="Kalland" />
		<tag k="place" v="hamlet" />
		<tag k="ssr:stedsnr" v="728691" />
	</node>
	<node lat="58.31434999670034" lon="7.466233329667294" id="-30736">
		<tag k="alt_name" v="Brauskeland" />
		<tag k="fixme" v="consider place=hamlet" />
		<tag k="name" v="Bruskeland" />
		<tag k="place" v="farm" />
		<tag k="ssr:stedsnr" v="728715" />
	</node>
	<node lat="58.180216664173805" lon="7.673305548930949" id="-30738">
		<tag k="fixme" v="consider place=hamlet" />
		<tag k="name" v="Sløgedal" />
		<tag k="place" v="farm" />
		<tag k="ssr:stedsnr" v="728792" />
	</node>
	<node lat="58.06905277753989" lon="7.374894445704699" id="-30740">
		<tag k="name" v="Sjølingstad" />
		<tag k="place" v="farm" />
		<tag k="ssr:stedsnr" v="728910" />
	</node>
	<node lat="58.08029722459472" lon="7.44756388496723" id="-30741">
		<tag k="fixme" v="consider place=hamlet" />
		<tag k="name" v="Hageland" />
		<tag k="place" v="farm" />
		<tag k="ssr:stedsnr" v="728918" />
	</node>
	<node lat="58.04420423590594" lon="7.358170508207069" id="-30742">
		<tag k="fixme" v="consider place=hamlet" />
		<tag k="name" v="Haddeland" />
		<tag k="place" v="farm" />
		<tag k="ssr:stedsnr" v="728878" />
	</node>
	<node lat="58.063274997381946" lon="7.503291674161719" id="-30745">
		<tag k="alt_name" v="Sodeland" />
		<tag k="fixme" v="consider place=hamlet" />
		<tag k="name" v="Sodland" />
		<tag k="place" v="farm" />
		<tag k="ssr:stedsnr" v="728888" />
	</node>
	<node lat="58.05200277824014" lon="7.292008325015153" id="-30747">
		<tag k="name" v="Ytre Eigeland" />
		<tag k="place" v="farm" />
		<tag k="ssr:stedsnr" v="728893" />
	</node>
	<node lat="58.056411114707196" lon="7.387261105711523" id="-30748">
		<tag k="fixme" v="consider place=hamlet" />
		<tag k="name" v="Frostestad" />
		<tag k="place" v="farm" />
		<tag k="ssr:stedsnr" v="728895" />
	</node>
	<node lat="58.35255833708718" lon="7.457861107731203" id="-30749">
		<tag k="fixme" v="multiple name tags, choose one and add the other to alt_name" />
		<tag k="name" v="Nedre Abelset;Hola" />
		<tag k="place" v="farm" />
		<tag k="ssr:stedsnr" v="728971" />
	</node>
	<node lat="57.99463333019831" lon="7.088736107113777" id="-30752">
		<tag k="name" v="Ytre Fjellskår" />
		<tag k="place" v="farm" />
		<tag k="ssr:stedsnr" v="728983" />
	</node>
	<node lat="58.13277778085957" lon="7.297036105764279" id="-30844">
		<tag k="name" v="Hella" />
		<tag k="place" v="locality" />
		<tag k="ssr:stedsnr" v="750804" />
	</node>
	<node lat="58.29057222595618" lon="7.510316668518349" id="-30867">
		<tag k="name" v="Snøskar" />
		<tag k="place" v="farm" />
		<tag k="ssr:stedsnr" v="751361" />
	</node>
	<node lat="58.06107499952238" lon="7.393399999036544" id="-30908">
		<tag k="name" v="Heimatt" />
		<tag k="place" v="farm" />
		<tag k="ssr:stedsnr" v="752813" />
	</node>
	<node lat="58.04828055753613" lon="7.373213895590106" id="-30910">
		<tag k="name" v="Bjorneset" />
		<tag k="place" v="farm" />
		<tag k="ssr:stedsnr" v="752817" />
	</node>
	<node lat="58.02442222596894" lon="7.462377777261757" id="-30945">
		<tag k="name" v="Sande" />
		<tag k="place" v="suburb" />
		<tag k="ssr:stedsnr" v="905126" />
	</node>
	<node lat="58.0374444452703" lon="7.062686107226225" id="-30971">
		<tag k="name" v="Haraldstadstrand" />
		<tag k="place" v="neighbourhood" />
		<tag k="ssr:stedsnr" v="907899" />
	</node>
	<node lat="57.99075278161045" lon="7.593700004820816" id="-31000">
		<tag k="name" v="Landøy" />
		<tag k="place" v="hamlet" />
		<tag k="ssr:stedsnr" v="910063" />
	</node>
	<node lat="58.19946388597411" lon="7.523441670140921" id="-31007">
		<tag k="name" v="Timberåsen" />
		<tag k="place" v="quarter" />
		<tag k="ssr:stedsnr" v="785020" />
	</node>
	<node lat="58.09702499559453" lon="7.310536106126998" id="-31008">
		<tag k="fixme" v="consider place=hamlet" />
		<tag k="name" v="Roland" />
		<tag k="place" v="farm" />
		<tag k="ssr:stedsnr" v="910540" />
	</node>
	<node lat="58.10347500127857" lon="7.247077770209731" id="-31009">
		<tag k="alt_name" v="Tveida;Tveiten" />
		<tag k="fixme" v="consider place=hamlet" />
		<tag k="name" v="Tveita" />
		<tag k="place" v="farm" />
		<tag k="ssr:stedsnr" v="910542" />
	</node>
	<node lat="58.20248611442683" lon="7.378566668384756" id="-31013">
		<tag k="name" v="Seland" />
		<tag k="place" v="farm" />
		<tag k="ssr:stedsnr" v="910682" />
	</node>
	<node lat="58.2129305596781" lon="7.410438883908206" id="-31019">
		<tag k="fixme" v="consider place=hamlet" />
		<tag k="name" v="Bjåstad" />
		<tag k="place" v="farm" />
		<tag k="ssr:stedsnr" v="910728" />
	</node>
	<node lat="58.13960555738326" lon="7.504419437895044" id="-31020">
		<tag k="alt_name" v="Kvitbergsskor;Kvidbergskår" />
		<tag k="fixme" v="consider place=hamlet" />
		<tag k="name" v="Kvitbergskår" />
		<tag k="place" v="farm" />
		<tag k="ssr:stedsnr" v="910740" />
	</node>
	<node lat="58.05927500294462" lon="7.232272221258062" id="-31022">
		<tag k="name" v="Lone" />
		<tag k="place" v="farm" />
		<tag k="ssr:stedsnr" v="786512" />
	</node>
	<node lat="58.3119083358014" lon="7.497422215447551" id="-31023">
		<tag k="fixme" v="consider place=hamlet" />
		<tag k="name" v="Skogen" />
		<tag k="place" v="farm" />
		<tag k="ssr:stedsnr" v="910757" />
	</node>
	<node lat="58.13582569750653" lon="7.37007929256283" id="-31026">
		<tag k="fixme" v="consider place=hamlet" />
		<tag k="name" v="Erseid" />
		<tag k="place" v="farm" />
		<tag k="ssr:stedsnr" v="910769" />
	</node>
	<node lat="58.3210472204573" lon="7.51878610481344" id="-31028">
		<tag k="alt_name" v="Haugeneset;Haukenes" />
		<tag k="fixme" v="consider place=hamlet" />
		<tag k="name" v="Haukeneset" />
		<tag k="place" v="farm" />
		<tag k="ssr:stedsnr" v="910776" />
	</node>
	<node lat="58.164877781132226" lon="7.438674991551581" id="-31030">
		<tag k="fixme" v="consider place=hamlet" />
		<tag k="name" v="Vågestad" />
		<tag k="place" v="farm" />
		<tag k="ssr:stedsnr" v="910798" />
	</node>
	<node lat="58.105925000857034" lon="7.442486104388693" id="-31031">
		<tag k="alt_name" v="Bjølland" />
		<tag k="fixme" v="consider place=hamlet" />
		<tag k="name" v="Bjelland" />
		<tag k="place" v="farm" />
		<tag k="ssr:stedsnr" v="910852" />
	</node>
	<node lat="58.10200000353868" lon="7.36553610593672" id="-31033">
		<tag k="fixme" v="consider place=hamlet" />
		<tag k="name" v="Vallerås" />
		<tag k="place" v="farm" />
		<tag k="ssr:stedsnr" v="910857" />
	</node>
	<node lat="58.05942221843482" lon="7.200586118767284" id="-31034">
		<tag k="name" v="Østre Reme" />
		<tag k="place" v="farm" />
		<tag k="ssr:stedsnr" v="910807" />
	</node>
	<node lat="58.30040833673409" lon="7.485230555950049" id="-31036">
		<tag k="fixme" v="consider place=hamlet" />
		<tag k="name" v="Skuland" />
		<tag k="place" v="farm" />
		<tag k="ssr:stedsnr" v="910838" />
	</node>
	<node lat="58.10142499909929" lon="7.530577769851588" id="-31037">
		<tag k="name" v="Vådne" />
		<tag k="place" v="farm" />
		<tag k="ssr:stedsnr" v="910861" />
	</node>
	<node lat="58.11432500428975" lon="7.371180555846151" id="-31038">
		<tag k="alt_name" v="Rørseland" />
		<tag k="fixme" v="consider place=hamlet" />
		<tag k="name" v="Røyseland" />
		<tag k="place" v="farm" />
		<tag k="ssr:stedsnr" v="910883" />
	</node>
	<node lat="58.04645555210608" lon="7.534255561484249" id="-31043">
		<tag k="fixme" v="consider place=hamlet" />
		<tag k="name" v="Aurebekk" />
		<tag k="place" v="farm" />
		<tag k="ssr:stedsnr" v="910888" />
	</node>
	<node lat="58.42763055173883" lon="7.610244448487306" id="-31044">
		<tag k="alt_name" v="Myra" />
		<tag k="name" v="Myri" />
		<tag k="place" v="farm" />
		<tag k="ssr:stedsnr" v="910894" />
	</node>
	<node lat="58.060758337797154" lon="7.535661118893591" id="-31046">
		<tag k="fixme" v="consider place=hamlet" />
		<tag k="name" v="Vatnedal" />
		<tag k="place" v="farm" />
		<tag k="ssr:stedsnr" v="910898" />
	</node>
	<node lat="58.371438892260976" lon="7.458166665467505" id="-31047">
		<tag k="alt_name" v="Rydlende" />
		<tag k="name" v="Rydlendet" />
		<tag k="place" v="hamlet" />
		<tag k="ssr:stedsnr" v="910949" />
	</node>
	<node lat="57.99768610699106" lon="7.087847227176206" id="-31049">
		<tag k="name" v="Ytre Fjellskår" />
		<tag k="place" v="farm" />
		<tag k="ssr:stedsnr" v="910988" />
	</node>
	<node lat="58.04814166689486" lon="7.125327775376877" id="-31050">
		<tag k="name" v="Gare" />
		<tag k="place" v="farm" />
		<tag k="ssr:stedsnr" v="910989" />
	</node>
	<node lat="58.05460555171621" lon="7.639480563289124" id="-31051">
		<tag k="fixme" v="consider place=hamlet" />
		<tag k="name" v="Røyseland" />
		<tag k="place" v="farm" />
		<tag k="ssr:stedsnr" v="910990" />
	</node>
	<node lat="58.0694583312239" lon="7.284547217666668" id="-31053">
		<tag k="alt_name" v="Rødberg" />
		<tag k="fixme" v="consider place=hamlet" />
		<tag k="name" v="Raudberg" />
		<tag k="place" v="village" />
		<tag k="ssr:stedsnr" v="788549" />
	</node>
	<node lat="58.06098611408449" lon="7.208686103326921" id="-31054">
		<tag k="fixme" v="consider place=hamlet" />
		<tag k="name" v="Feland" />
		<tag k="place" v="farm" />
		<tag k="ssr:stedsnr" v="788554" />
	</node>
	<node lat="58.28723055531863" lon="7.509624996841173" id="-31056">
		<tag k="alt_name" v="Øygard" />
		<tag k="name" v="Øygarden" />
		<tag k="place" v="hamlet" />
		<tag k="ssr:stedsnr" v="788809" />
	</node>
	<node lat="58.12236388599262" lon="7.228036107763357" id="-31062">
		<tag k="fixme" v="consider place=hamlet" />
		<tag k="name" v="Bjelland" />
		<tag k="place" v="farm" />
		<tag k="ssr:stedsnr" v="789508" />
	</node>
	<node lat="58.117277777852756" lon="7.249669437433262" id="-31065">
		<tag k="name" v="Banken" />
		<tag k="place" v="isolated_dwelling" />
		<tag k="ssr:stedsnr" v="789501" />
	</node>
	<node lat="58.11856111356572" lon="7.272180550359787" id="-31066">
		<tag k="alt_name" v="Helland" />
		<tag k="name" v="Heddan" />
		<tag k="place" v="isolated_dwelling" />
		<tag k="ssr:stedsnr" v="789502" />
	</node>
	<node lat="58.176924998254215" lon="7.4228055635084065" id="-31067">
		<tag k="alt_name" v="Ljosstøl;Ljosestøl" />
		<tag k="fixme" v="consider place=hamlet" />
		<tag k="name" v="Lysestøl" />
		<tag k="place" v="farm" />
		<tag k="ssr:stedsnr" v="789811" />
	</node>
	<node lat="58.09224444538854" lon="7.391024992373761" id="-31069">
		<tag k="name" v="Eikeland" />
		<tag k="place" v="farm" />
		<tag k="ssr:stedsnr" v="789838" />
	</node>
	<node lat="58.10594999691714" lon="7.527700000899998" id="-31070">
		<tag k="fixme" v="consider place=hamlet" />
		<tag k="name" v="Slettan" />
		<tag k="place" v="farm" />
		<tag k="ssr:stedsnr" v="789856" />
	</node>
	<node lat="58.10578611468954" lon="7.52395000533367" id="-31071">
		<tag k="fixme" v="consider place=hamlet" />
		<tag k="name" v="Bakken" />
		<tag k="place" v="farm" />
		<tag k="ssr:stedsnr" v="789857" />
	</node>
	<node lat="58.1286361146434" lon="7.53609999813495" id="-31076">
		<tag k="name" v="Nøding" />
		<tag k="place" v="farm" />
		<tag k="ssr:stedsnr" v="789760" />
	</node>
	<node lat="58.031152778162614" lon="7.074813884698687" id="-31084">
		<tag k="name" v="Hauan" />
		<tag k="place" v="farm" />
		<tag k="ssr:stedsnr" v="810199" />
	</node>
	<node lat="57.985316667635544" lon="7.5322138835084385" id="-31199">
		<tag k="name" v="Ytre Farestad" />
		<tag k="place" v="hamlet" />
		<tag k="ssr:stedsnr" v="813087" />
	</node>
	<node lat="58.102136110919155" lon="7.5159472214773535" id="-31206">
		<tag k="name" v="Kjørkelia" />
		<tag k="place" v="farm" />
		<tag k="ssr:stedsnr" v="813476" />
	</node>
	<node lat="58.019258333876685" lon="7.371527775005671" id="-31253">
		<tag k="name" v="Persneset" />
		<tag k="place" v="locality" />
		<tag k="ssr:stedsnr" v="815819" />
	</node>
	<node lat="58.051694726028344" lon="7.248024406776681" id="-31285">
		<tag k="fixme" v="consider place=hamlet" />
		<tag k="name" v="Lonestrand" />
		<tag k="place" v="farm" />
		<tag k="ssr:stedsnr" v="831405" />
	</node>
	<node lat="58.05208333226738" lon="7.191736118377434" id="-31286">
		<tag k="fixme" v="consider place=hamlet" />
		<tag k="name" v="Østre Reme" />
		<tag k="place" v="farm" />
		<tag k="ssr:stedsnr" v="831407" />
	</node>
	<node lat="58.01391111129402" lon="7.098675002213224" id="-31310">
		<tag k="fixme" v="consider place=hamlet" />
		<tag k="name" v="Flatebø" />
		<tag k="place" v="farm" />
		<tag k="ssr:stedsnr" v="849714" />
	</node>
	<node lat="58.04054797476906" lon="7.116798916716996" id="-31311">
		<tag k="name" v="Gare" />
		<tag k="place" v="farm" />
		<tag k="ssr:stedsnr" v="849998" />
	</node>
	<node lat="58.047638885103545" lon="7.126741664336134" id="-31314">
		<tag k="name" v="Gare" />
		<tag k="place" v="farm" />
		<tag k="ssr:stedsnr" v="849897" />
	</node>
	<node lat="57.997311969006816" lon="7.047689721357837" id="-31315">
		<tag k="fixme" v="consider place=hamlet" />
		<tag k="name" v="Syrdal" />
		<tag k="place" v="farm" />
		<tag k="ssr:stedsnr" v="850004" />
	</node>
	<node lat="58.10116667110638" lon="7.3214055616041565" id="-31321">
		<tag k="alt_name" v="Nyland" />
		<tag k="fixme" v="consider place=hamlet" />
		<tag k="name" v="Nylund" />
		<tag k="place" v="farm" />
		<tag k="ssr:stedsnr" v="850529" />
	</node>
	<node lat="58.099380555724125" lon="7.301024995066269" id="-31322">
		<tag k="alt_name" v="Hovsdal" />
		<tag k="fixme" v="consider place=hamlet" />
		<tag k="name" v="Hovsdalen" />
		<tag k="place" v="farm" />
		<tag k="ssr:stedsnr" v="850531" />
	</node>
	<node lat="58.229049996634885" lon="7.487400008387518" id="-31325">
		<tag k="fixme" v="consider place=hamlet" />
		<tag k="name" v="Aukland" />
		<tag k="place" v="farm" />
		<tag k="ssr:stedsnr" v="850717" />
	</node>
	<node lat="58.01858346557804" lon="7.535857829401158" id="-31326">
		<tag k="name" v="Tufte" />
		<tag k="place" v="farm" />
		<tag k="ssr:stedsnr" v="850725" />
	</node>
	<node lat="58.19611666302016" lon="7.625688897137526" id="-31330">
		<tag k="alt_name" v="Skoddan" />
		<tag k="fixme" v="consider place=hamlet" />
		<tag k="name" v="Skolland" />
		<tag k="place" v="farm" />
		<tag k="ssr:stedsnr" v="850698" />
	</node>
	<node lat="58.27699444860239" lon="7.5217500081576" id="-31332">
		<tag k="name" v="Lislestræde" />
		<tag k="place" v="farm" />
		<tag k="ssr:stedsnr" v="850808" />
	</node>
	<node lat="58.07785833171154" lon="7.515563894742067" id="-31334">
		<tag k="fixme" v="consider place=hamlet" />
		<tag k="name" v="Langeland" />
		<tag k="place" v="village" />
		<tag k="ssr:stedsnr" v="850912" />
	</node>
	<node lat="58.03306110960431" lon="7.451708329287491" id="-31338">
		<tag k="alt_name" v="Halshaug" />
		<tag k="name" v="Halse" />
		<tag k="place" v="village" />
		<tag k="ssr:stedsnr" v="850978" />
	</node>
	<node lat="58.095283336169054" lon="7.219588882688898" id="-31447">
		<tag k="name" v="Rymtelandsøygard" />
		<tag k="place" v="locality" />
		<tag k="ssr:stedsnr" v="932251" />
	</node>
	<node lat="58.200561107579915" lon="7.300558341524698" id="-31481">
		<tag k="fixme" v="consider place=hamlet" />
		<tag k="name" v="Ådnebergli" />
		<tag k="place" v="farm" />
		<tag k="ssr:stedsnr" v="932301" />
	</node>
	<node lat="58.13858055459495" lon="7.4583194443894" id="-31522">
		<tag k="fixme" v="consider place=hamlet" />
		<tag k="name" v="Kårstøl" />
		<tag k="place" v="farm" />
		<tag k="ssr:stedsnr" v="932443" />
	</node>
	<node lat="58.07183610742376" lon="7.283738889088756" id="-31576">
		<tag k="name" v="Haven" />
		<tag k="place" v="farm" />
		<tag k="ssr:stedsnr" v="932764" />
	</node>
	<node lat="58.06747777549836" lon="7.287491670218358" id="-31577">
		<tag k="name" v="Vollan" />
		<tag k="place" v="farm" />
		<tag k="ssr:stedsnr" v="932767" />
	</node>
	<node lat="58.07407222384609" lon="7.2941944508410606" id="-31580">
		<tag k="name" v="Hovan" />
		<tag k="place" v="farm" />
		<tag k="ssr:stedsnr" v="932773" />
	</node>
	<node lat="58.16135000108172" lon="7.556433335257753" id="-31595">
		<tag k="name" v="Skaue" />
		<tag k="place" v="hamlet" />
		<tag k="ssr:stedsnr" v="932975" />
	</node>
	<node lat="58.289522221341564" lon="7.510616672519121" id="-31608">
		<tag k="name" v="Stykket" />
		<tag k="place" v="locality" />
		<tag k="ssr:stedsnr" v="933372" />
	</node>
	<node lat="58.20260000317405" lon="7.6753916656907135" id="-31612">
		<tag k="name" v="Kvitveisholtet" />
		<tag k="place" v="locality" />
		<tag k="ssr:stedsnr" v="933729" />
	</node>
	<node lat="58.016308332165295" lon="7.538863890256653" id="-31622">
		<tag k="name" v="Tjømdalen" />
		<tag k="place" v="farm" />
		<tag k="ssr:stedsnr" v="934355" />
	</node>
	<node lat="58.023527775218355" lon="7.65481944480285" id="-31625">
		<tag k="name" v="Fladen" />
		<tag k="place" v="farm" />
		<tag k="ssr:stedsnr" v="934571" />
	</node>
	<node lat="58.16860277813634" lon="7.578424991577533" id="-31678">
		<tag k="name" v="Brendebakke" />
		<tag k="place" v="quarter" />
		<tag k="ssr:stedsnr" v="907101" />
	</node>
	<node lat="58.24329444327123" lon="7.509644436510536" id="-31681">
		<tag k="name" v="Skjeggestadlia" />
		<tag k="place" v="quarter" />
		<tag k="ssr:stedsnr" v="908018" />
	</node>
	<node lat="57.99622500056022" lon="7.086074995527754" id="-31690">
		<tag k="name" v="Myra" />
		<tag k="place" v="farm" />
		<tag k="ssr:stedsnr" v="910006" />
	</node>
	<node lat="58.134352778136495" lon="7.304874998293598" id="-31695">
		<tag k="alt_name" v="Hedderåsen" />
		<tag k="fixme" v="consider place=hamlet" />
		<tag k="name" v="Hellerås" />
		<tag k="place" v="farm" />
		<tag k="ssr:stedsnr" v="910553" />
	</node>
	<node lat="58.19825555254091" lon="7.587986113210065" id="-31696">
		<tag k="fixme" v="consider place=hamlet" />
		<tag k="name" v="Surteland" />
		<tag k="place" v="farm" />
		<tag k="ssr:stedsnr" v="910705" />
	</node>
	<node lat="58.24246388799217" lon="7.464305553184723" id="-31697">
		<tag k="alt_name" v="Hallingskår" />
		<tag k="fixme" v="consider place=hamlet" />
		<tag k="name" v="Haddingskor" />
		<tag k="place" v="farm" />
		<tag k="ssr:stedsnr" v="910646" />
	</node>
	<node lat="58.04841111375367" lon="7.127786112190941" id="-31699">
		<tag k="name" v="Gare" />
		<tag k="place" v="farm" />
		<tag k="ssr:stedsnr" v="910907" />
	</node>
	<node lat="58.069149997711285" lon="7.550486118382995" id="-31700">
		<tag k="alt_name" v="Skoie" />
		<tag k="fixme" v="consider place=hamlet" />
		<tag k="name" v="Skoge" />
		<tag k="place" v="farm" />
		<tag k="ssr:stedsnr" v="910909" />
	</node>
	<node lat="58.05085555498333" lon="7.287369446799648" id="-31701">
		<tag k="name" v="Ytre Eigeland" />
		<tag k="place" v="farm" />
		<tag k="ssr:stedsnr" v="910910" />
	</node>
	<node lat="58.23139999890564" lon="7.420683336838812" id="-31703">
		<tag k="fixme" v="consider place=hamlet" />
		<tag k="name" v="Kaddan" />
		<tag k="place" v="farm" />
		<tag k="ssr:stedsnr" v="910918" />
	</node>
	<node lat="58.08014721914254" lon="7.520263882826046" id="-31705">
		<tag k="alt_name" v="Møll, yt" />
		<tag k="fixme" v="consider place=hamlet" />
		<tag k="name" v="Ytre Møll" />
		<tag k="place" v="farm" />
		<tag k="ssr:stedsnr" v="910929" />
	</node>
	<node lat="58.07320000412104" lon="7.402086110763138" id="-31706">
		<tag k="fixme" v="consider place=hamlet" />
		<tag k="name" v="Romedal" />
		<tag k="place" v="farm" />
		<tag k="ssr:stedsnr" v="910935" />
	</node>
	<node lat="58.374088888558" lon="7.604450001542259" id="-31709">
		<tag k="fixme" v="consider place=hamlet" />
		<tag k="name" v="Ask" />
		<tag k="place" v="farm" />
		<tag k="ssr:stedsnr" v="910956" />
	</node>
	<node lat="58.02202267530855" lon="7.476520025302825" id="-31710">
		<tag k="fixme" v="consider place=suburb, village or hamlet" />
		<tag k="name" v="Kleven" />
		<tag k="place" v="quarter" />
		<tag k="ssr:stedsnr" v="910962" />
	</node>
	<node lat="58.030877775800235" lon="7.631708331220586" id="-31711">
		<tag k="alt_name" v="Fidjan" />
		<tag k="fixme" v="consider place=hamlet" />
		<tag k="loc_name" v="Rørvik" />
		<tag k="name" v="Røyrvik" />
		<tag k="place" v="farm" />
		<tag k="ssr:stedsnr" v="910970" />
	</node>
	<node lat="58.03466666364229" lon="7.347688884967905" id="-31712">
		<tag k="alt_name" v="Myra" />
		<tag k="name" v="Nygård" />
		<tag k="place" v="farm" />
		<tag k="ssr:stedsnr" v="910976" />
	</node>
	<node lat="58.374508330166734" lon="7.438477786105604" id="-31733">
		<tag k="name" v="Skaddan" />
		<tag k="place" v="locality" />
		<tag k="ssr:stedsnr" v="932156" />
	</node>
	<node lat="58.072588890308545" lon="7.4917583320961905" id="-31799">
		<tag k="name" v="Nedre Undal" />
		<tag k="place" v="farm" />
		<tag k="ssr:stedsnr" v="934644" />
	</node>
	<node lat="58.044097222538596" lon="7.389047213908517" id="-31802">
		<tag k="name" v="Øygarden" />
		<tag k="place" v="locality" />
		<tag k="ssr:stedsnr" v="934745" />
	</node>
	<node lat="58.082497220085784" lon="7.519119451659464" id="-31849">
		<tag k="name" v="Midtre Møll" />
		<tag k="place" v="hamlet" />
		<tag k="ssr:stedsnr" v="936284" />
	</node>
	<node lat="58.03658055823557" lon="7.519863883456049" id="-31851">
		<tag k="name" v="Østre Berge" />
		<tag k="place" v="farm" />
		<tag k="ssr:stedsnr" v="936453" />
	</node>
	<node lat="57.99729156072259" lon="7.088202668699224" id="-31866">
		<tag k="fixme" v="consider place=hamlet" />
		<tag k="name" v="Ytre Fjellskår" />
		<tag k="place" v="farm" />
		<tag k="ssr:stedsnr" v="950410" />
	</node>
	<node lat="58.20213055866675" lon="7.341763881907324" id="-31870">
		<tag k="name" v="Kyrehagen" />
		<tag k="place" v="quarter" />
		<tag k="ssr:stedsnr" v="950988" />
	</node>
	<node lat="58.07852499881101" lon="7.319824998629105" id="-31871">
		<tag k="name" v="Hestehaven" />
		<tag k="place" v="quarter" />
		<tag k="ssr:stedsnr" v="950992" />
	</node>
	<node lat="58.07852499881101" lon="7.319824998629105" id="-31872">
		<tag k="name" v="Trædalslia" />
		<tag k="place" v="quarter" />
		<tag k="ssr:stedsnr" v="950996" />
	</node>
	<node lat="58.04325555578379" lon="7.116316666750064" id="-31903">
		<tag k="name" v="Gare" />
		<tag k="place" v="farm" />
		<tag k="ssr:stedsnr" v="970599" />
	</node>
	<node lat="58.051638887310894" lon="7.111536119623413" id="-31904">
		<tag k="name" v="Gare" />
		<tag k="place" v="farm" />
		<tag k="ssr:stedsnr" v="970606" />
	</node>
	<node lat="58.048947223378036" lon="7.286477773693" id="-31905">
		<tag k="name" v="Eigeland" />
		<tag k="place" v="farm" />
		<tag k="ssr:stedsnr" v="970616" />
	</node>
	<node lat="58.06446944752156" lon="7.396055550777101" id="-31906">
		<tag k="name" v="Sjølingstad" />
		<tag k="place" v="farm" />
		<tag k="ssr:stedsnr" v="970645" />
	</node>
	<node lat="58.22368847782339" lon="7.64827709589823" id="-31907">
		<tag k="name" v="Bjeddan" />
		<tag k="place" v="farm" />
		<tag k="ssr:stedsnr" v="974163" />
	</node>
	<node lat="58.17166913849969" lon="7.661020880778508" id="-31908">
		<tag k="name" v="Eikså" />
		<tag k="place" v="farm" />
		<tag k="ssr:stedsnr" v="974165" />
	</node>
	<node lat="58.17109649376104" lon="7.657803021765105" id="-31909">
		<tag k="name" v="Eikså" />
		<tag k="place" v="farm" />
		<tag k="ssr:stedsnr" v="974166" />
	</node>
	<node lat="58.17035171011748" lon="7.65690726260542" id="-31910">
		<tag k="name" v="Eikså" />
		<tag k="place" v="farm" />
		<tag k="ssr:stedsnr" v="974167" />
	</node>
	<node lat="58.1976548457135" lon="7.5193444931522615" id="-31911">
		<tag k="name" v="Heddeland" />
		<tag k="place" v="farm" />
		<tag k="ssr:stedsnr" v="974168" />
	</node>
</osm>
