<?xml version="1.0" encoding="UTF-8"?>
<osm version="0.6" generator="osmapis">
	<node lat="57.97004444620818" lon="7.4963111139402505" id="-39011">
		<tag k="name" v="Låven" />
		<tag k="place" v="locality" />
		<tag k="ssr:stedsnr" v="59" />
	</node>
	<node lat="58.00694444422989" lon="7.5047638806818915" id="-39013">
		<tag k="alt_name" v="Hobdeheia" />
		<tag k="name" v="Hovden" />
		<tag k="natural" v="hill" />
		<tag k="place" v="locality" />
		<tag k="ssr:stedsnr" v="63" />
	</node>
	<node lat="58.08401666950049" lon="7.629880558344409" id="-39025">
		<tag k="alt_name" v="Blegeheia" />
		<tag k="name" v="Blekeheia" />
		<tag k="natural" v="hill" />
		<tag k="place" v="locality" />
		<tag k="ssr:stedsnr" v="939" />
	</node>
	<node lat="58.03878889321898" lon="7.101874999799514" id="-39031">
		<tag k="name" v="Skikleiva" />
		<tag k="natural" v="slope" />
		<tag k="place" v="locality" />
		<tag k="ssr:stedsnr" v="21085" />
	</node>
	<node lat="58.18575278197511" lon="7.374691667270694" id="-39036">
		<tag k="name" v="Styggedalen" />
		<tag k="natural" v="valley" />
		<tag k="place" v="locality" />
		<tag k="ssr:stedsnr" v="21244" />
	</node>
	<node lat="58.22557500203109" lon="7.298291663972289" id="-39037">
		<tag k="fixme" v="consider natural=peak for the most distinct mountains in the district" />
		<tag k="name" v="Åsen" />
		<tag k="natural" v="hill" />
		<tag k="place" v="locality" />
		<tag k="ssr:stedsnr" v="21246" />
	</node>
	<node lat="58.22813611076768" lon="7.400163882637264" id="-39039">
		<tag k="name" v="Kvasshammeren" />
		<tag k="natural" v="hill" />
		<tag k="place" v="locality" />
		<tag k="ssr:stedsnr" v="21285" />
	</node>
	<node lat="57.996391667212066" lon="7.054533339475092" id="-39041">
		<tag k="name" v="Syrdalsheia" />
		<tag k="natural" v="hill" />
		<tag k="place" v="locality" />
		<tag k="ssr:stedsnr" v="21403" />
	</node>
	<node lat="58.01613888580079" lon="7.099333325170451" id="-39043">
		<tag k="name" v="Meheia" />
		<tag k="natural" v="hill" />
		<tag k="place" v="locality" />
		<tag k="ssr:stedsnr" v="21437" />
	</node>
	<node lat="58.16238888971053" lon="7.490983326128651" id="-39044">
		<tag k="name" v="Stampestemmen" />
		<tag k="place" v="locality" />
		<tag k="ssr:stedsnr" v="22107" />
	</node>
	<node lat="58.18136666355727" lon="7.573716662849833" id="-39047">
		<tag k="fixme" v="consider natural=peak for the most distinct mountains in the district" />
		<tag k="name" v="Ogneshei" />
		<tag k="natural" v="hill" />
		<tag k="place" v="locality" />
		<tag k="ssr:stedsnr" v="22002" />
	</node>
	<node lat="58.3816777751225" lon="7.598852778911115" id="-39048">
		<tag k="name" v="Smådalan" />
		<tag k="natural" v="valley" />
		<tag k="place" v="locality" />
		<tag k="ssr:stedsnr" v="22034" />
	</node>
	<node lat="58.362530555999484" lon="7.575511107373004" id="-39051">
		<tag k="fixme" v="consider natural=peak for the most distinct mountains in the district" />
		<tag k="name" v="Stolåsen" />
		<tag k="natural" v="hill" />
		<tag k="place" v="locality" />
		<tag k="ssr:stedsnr" v="22044" />
	</node>
	<node lat="58.38135278212349" lon="7.568730557096398" id="-39052">
		<tag k="name" v="Stedal" />
		<tag k="place" v="locality" />
		<tag k="ssr:stedsnr" v="22046" />
	</node>
	<node lat="58.3726749956743" lon="7.572086102968537" id="-39053">
		<tag k="fixme" v="consider natural=peak for the most distinct mountains in the district" />
		<tag k="name" v="Sigmundshei" />
		<tag k="natural" v="hill" />
		<tag k="place" v="locality" />
		<tag k="ssr:stedsnr" v="22047" />
	</node>
	<node lat="58.36373610867737" lon="7.620622217258599" id="-39055">
		<tag k="name" v="Fuglehei" />
		<tag k="natural" v="hill" />
		<tag k="place" v="locality" />
		<tag k="ssr:stedsnr" v="22088" />
	</node>
	<node lat="58.22190277940637" lon="7.419038889738105" id="-39057">
		<tag k="name" v="Budalen" />
		<tag k="natural" v="valley" />
		<tag k="place" v="locality" />
		<tag k="ssr:stedsnr" v="22236" />
	</node>
	<node lat="58.35465000294854" lon="7.466530552184272" id="-39059">
		<tag k="name" v="Espeflaten" />
		<tag k="place" v="locality" />
		<tag k="ssr:stedsnr" v="22187" />
	</node>
	<node lat="58.30877777631504" lon="7.466399994746624" id="-39063">
		<tag k="fixme" v="consider natural=peak for the most distinct mountains in the district" />
		<tag k="name" v="Skorshei" />
		<tag k="natural" v="hill" />
		<tag k="place" v="locality" />
		<tag k="ssr:stedsnr" v="22309" />
	</node>
	<node lat="58.00747777651748" lon="7.202091662590691" id="-39065">
		<tag k="name" v="Nesfladebergan" />
		<tag k="natural" v="hill" />
		<tag k="place" v="locality" />
		<tag k="ssr:stedsnr" v="22337" />
	</node>
	<node lat="58.132250000994176" lon="7.40347221740981" id="-39067">
		<tag k="name" v="Grodalen" />
		<tag k="natural" v="valley" />
		<tag k="place" v="locality" />
		<tag k="ssr:stedsnr" v="22387" />
	</node>
	<node lat="58.44418889124893" lon="7.552216661625013" id="-39070">
		<tag k="name" v="Galne Rasmus" />
		<tag k="place" v="locality" />
		<tag k="ssr:stedsnr" v="22397" />
	</node>
	<node lat="58.29623055238213" lon="7.531480560383945" id="-39071">
		<tag k="name" v="Husefjellan" />
		<tag k="natural" v="hill" />
		<tag k="place" v="locality" />
		<tag k="ssr:stedsnr" v="22501" />
	</node>
	<node lat="58.2931972191518" lon="7.541827774266015" id="-39072">
		<tag k="name" v="Brendebakk" />
		<tag k="natural" v="slope" />
		<tag k="place" v="locality" />
		<tag k="ssr:stedsnr" v="22505" />
	</node>
	<node lat="58.28246666559854" lon="7.424363888806247" id="-39074">
		<tag k="name" v="Rossedalen" />
		<tag k="natural" v="valley" />
		<tag k="place" v="locality" />
		<tag k="ssr:stedsnr" v="22286" />
	</node>
	<node lat="58.36174444422406" lon="7.526388883788264" id="-39075">
		<tag k="name" v="Lauvollen" />
		<tag k="place" v="locality" />
		<tag k="ssr:stedsnr" v="22287" />
	</node>
	<node lat="58.29755833345373" lon="7.446980549529078" id="-39076">
		<tag k="name" v="Urevannshei" />
		<tag k="natural" v="hill" />
		<tag k="place" v="locality" />
		<tag k="ssr:stedsnr" v="22288" />
	</node>
	<node lat="58.2234249972557" lon="7.668561109387078" id="-39078">
		<tag k="name" v="Høysnesdalen" />
		<tag k="natural" v="valley" />
		<tag k="place" v="locality" />
		<tag k="ssr:stedsnr" v="22297" />
	</node>
	<node lat="58.181608335902624" lon="7.316405551292186" id="-39081">
		<tag k="name" v="Sollihei" />
		<tag k="natural" v="hill" />
		<tag k="place" v="locality" />
		<tag k="ssr:stedsnr" v="22408" />
	</node>
	<node lat="58.1765694454821" lon="7.3019916692942575" id="-39083">
		<tag k="name" v="Lelandsbakken" />
		<tag k="natural" v="slope" />
		<tag k="place" v="locality" />
		<tag k="ssr:stedsnr" v="22410" />
	</node>
	<node lat="58.354797220624384" lon="7.523980562696035" id="-39084">
		<tag k="name" v="Dølda" />
		<tag k="natural" v="valley" />
		<tag k="place" v="locality" />
		<tag k="ssr:stedsnr" v="22414" />
	</node>
	<node lat="58.354230557371565" lon="7.5195694441348415" id="-39085">
		<tag k="name" v="Gyrodalen" />
		<tag k="natural" v="valley" />
		<tag k="place" v="locality" />
		<tag k="ssr:stedsnr" v="22415" />
	</node>
	<node lat="58.41799999838332" lon="7.533216667801265" id="-39087">
		<tag k="name" v="Helvede" />
		<tag k="place" v="locality" />
		<tag k="ssr:stedsnr" v="22432" />
	</node>
	<node lat="58.41963888986279" lon="7.520038885422635" id="-39088">
		<tag k="name" v="Breiaskora" />
		<tag k="place" v="locality" />
		<tag k="ssr:stedsnr" v="22433" />
	</node>
	<node lat="58.427208329973" lon="7.571827778097298" id="-39089">
		<tag k="name" v="Dyråsen" />
		<tag k="natural" v="hill" />
		<tag k="place" v="locality" />
		<tag k="ssr:stedsnr" v="22434" />
	</node>
	<node lat="58.151797224550805" lon="7.4588694358646785" id="-39090">
		<tag k="name" v="Glugåsheia" />
		<tag k="natural" v="hill" />
		<tag k="place" v="locality" />
		<tag k="ssr:stedsnr" v="22438" />
	</node>
	<node lat="58.29726944353015" lon="7.524177775063011" id="-39091">
		<tag k="name" v="Makkhelleren" />
		<tag k="natural" v="gorge" />
		<tag k="ssr:stedsnr" v="22497" />
	</node>
	<node lat="58.14988333229763" lon="7.323555554837387" id="-39093">
		<tag k="name" v="Sagebakken" />
		<tag k="natural" v="slope" />
		<tag k="place" v="locality" />
		<tag k="ssr:stedsnr" v="22601" />
	</node>
	<node lat="58.108458330021854" lon="7.380588891332919" id="-39096">
		<tag k="name" v="Rundåsen" />
		<tag k="natural" v="hill" />
		<tag k="place" v="locality" />
		<tag k="ssr:stedsnr" v="22704" />
	</node>
	<node lat="58.260011111110025" lon="7.533447227311126" id="-39099">
		<tag k="alt_name" v="Norskogen" />
		<tag k="name" v="Nordskogen" />
		<tag k="natural" v="hill" />
		<tag k="place" v="locality" />
		<tag k="ssr:stedsnr" v="22721" />
	</node>
	<node lat="58.182575004267576" lon="7.4972638807648755" id="-39106">
		<tag k="fixme" v="consider natural=peak for the most distinct mountains in the district" />
		<tag k="name" v="Sommeråsen" />
		<tag k="natural" v="hill" />
		<tag k="place" v="locality" />
		<tag k="ssr:stedsnr" v="22808" />
	</node>
	<node lat="58.21027499557571" lon="7.270705548922428" id="-39107">
		<tag k="name" v="Store Jernkleivdalen" />
		<tag k="natural" v="valley" />
		<tag k="place" v="locality" />
		<tag k="ssr:stedsnr" v="22812" />
	</node>
	<node lat="58.20717222466069" lon="7.275811109205652" id="-39108">
		<tag k="name" v="Jernkleivfjell" />
		<tag k="natural" v="hill" />
		<tag k="place" v="locality" />
		<tag k="ssr:stedsnr" v="22815" />
	</node>
	<node lat="58.18944444135779" lon="7.462600006459679" id="-39109">
		<tag k="name" v="Midringkleiv" />
		<tag k="natural" v="hill" />
		<tag k="place" v="locality" />
		<tag k="ssr:stedsnr" v="22816" />
	</node>
	<node lat="58.13376666668535" lon="7.284830557567775" id="-39110">
		<tag k="name" v="Lomshei" />
		<tag k="natural" v="hill" />
		<tag k="place" v="locality" />
		<tag k="ssr:stedsnr" v="22820" />
	</node>
	<node lat="58.092622221890515" lon="7.189808337932257" id="-39112">
		<tag k="name" v="Tjortelandsheia" />
		<tag k="natural" v="hill" />
		<tag k="place" v="locality" />
		<tag k="ssr:stedsnr" v="22885" />
	</node>
	<node lat="58.18613889123261" lon="7.54357221390233" id="-39113">
		<tag k="name" v="Veådalen" />
		<tag k="natural" v="valley" />
		<tag k="place" v="locality" />
		<tag k="ssr:stedsnr" v="22891" />
	</node>
	<node lat="58.14605000441036" lon="7.26206389413535" id="-39115">
		<tag k="name" v="Reet" />
		<tag k="natural" v="ridge" />
		<tag k="place" v="locality" />
		<tag k="ssr:stedsnr" v="22839" />
	</node>
	<node lat="58.125486113277745" lon="7.27641665870876" id="-39116">
		<tag k="name" v="Huseheia" />
		<tag k="natural" v="hill" />
		<tag k="place" v="locality" />
		<tag k="ssr:stedsnr" v="22840" />
	</node>
	<node lat="58.15548889318068" lon="7.543841670753826" id="-39119">
		<tag k="name" v="Støttåsen" />
		<tag k="natural" v="hill" />
		<tag k="place" v="locality" />
		<tag k="ssr:stedsnr" v="22983" />
	</node>
	<node lat="58.03831944709483" lon="7.266575006330821" id="-39120">
		<tag k="name" v="Mollsheia" />
		<tag k="natural" v="hill" />
		<tag k="place" v="locality" />
		<tag k="ssr:stedsnr" v="22984" />
	</node>
	<node lat="58.10970277936902" lon="7.239011119289903" id="-39125">
		<tag k="name" v="Hedderheia" />
		<tag k="natural" v="hill" />
		<tag k="place" v="locality" />
		<tag k="ssr:stedsnr" v="22999" />
	</node>
	<node lat="58.27847500134707" lon="7.434972218010193" id="-39126">
		<tag k="name" v="Kleivsdalen" />
		<tag k="natural" v="valley" />
		<tag k="place" v="locality" />
		<tag k="ssr:stedsnr" v="23335" />
	</node>
	<node lat="58.284536113941755" lon="7.439622219164199" id="-39127">
		<tag k="name" v="Stembakkan" />
		<tag k="natural" v="hill" />
		<tag k="place" v="locality" />
		<tag k="ssr:stedsnr" v="23336" />
	</node>
	<node lat="58.06332500224568" lon="7.532636114167952" id="-39128">
		<tag k="name" v="Fontedalen" />
		<tag k="natural" v="valley" />
		<tag k="place" v="locality" />
		<tag k="ssr:stedsnr" v="23602" />
	</node>
	<node lat="58.09607778126997" lon="7.526949995932896" id="-39129">
		<tag k="name" v="Laustø" />
		<tag k="natural" v="slope" />
		<tag k="place" v="locality" />
		<tag k="ssr:stedsnr" v="23604" />
	</node>
	<node lat="58.074338891196156" lon="7.524286114220777" id="-39130">
		<tag k="name" v="Linåsen" />
		<tag k="natural" v="hill" />
		<tag k="place" v="locality" />
		<tag k="ssr:stedsnr" v="23618" />
	</node>
	<node lat="58.072705554967996" lon="7.369013889395411" id="-39132">
		<tag k="name" v="Skiftesheia" />
		<tag k="natural" v="hill" />
		<tag k="place" v="locality" />
		<tag k="ssr:stedsnr" v="23736" />
	</node>
	<node lat="58.250919443781065" lon="7.510447217781447" id="-39134">
		<tag k="name" v="Dyrdalen" />
		<tag k="natural" v="valley" />
		<tag k="place" v="locality" />
		<tag k="ssr:stedsnr" v="23805" />
	</node>
	<node lat="58.01514722264088" lon="7.542477776309058" id="-39142">
		<tag k="name" v="Fureheia" />
		<tag k="natural" v="hill" />
		<tag k="place" v="locality" />
		<tag k="ssr:stedsnr" v="24378" />
	</node>
	<node lat="58.08601944813127" lon="7.525258338212841" id="-39147">
		<tag k="name" v="Bjørkåsen" />
		<tag k="natural" v="hill" />
		<tag k="place" v="locality" />
		<tag k="ssr:stedsnr" v="24592" />
	</node>
	<node lat="58.07549444613855" lon="7.478602774143534" id="-39154">
		<tag k="name" v="Djubedalen" />
		<tag k="natural" v="valley" />
		<tag k="place" v="locality" />
		<tag k="ssr:stedsnr" v="24677" />
	</node>
	<node lat="58.08261110698995" lon="7.503763888607763" id="-39159">
		<tag k="fixme" v="consider natural=peak for the most distinct mountains in the district" />
		<tag k="name" v="Kolåsen" />
		<tag k="natural" v="hill" />
		<tag k="place" v="locality" />
		<tag k="ssr:stedsnr" v="24823" />
	</node>
	<node lat="58.10518055556039" lon="7.563636117032503" id="-39160">
		<tag k="name" v="Grindeskåra" />
		<tag k="place" v="locality" />
		<tag k="ssr:stedsnr" v="24904" />
	</node>
	<node lat="58.09793333724498" lon="7.53845277348829" id="-39161">
		<tag k="name" v="Vinterheia" />
		<tag k="natural" v="hill" />
		<tag k="place" v="locality" />
		<tag k="ssr:stedsnr" v="24910" />
	</node>
	<node lat="58.12109444351031" lon="7.528619449817937" id="-39162">
		<tag k="name" v="Nodebakken" />
		<tag k="natural" v="hill" />
		<tag k="place" v="locality" />
		<tag k="ssr:stedsnr" v="24912" />
	</node>
	<node lat="58.12118333187673" lon="7.558227776241572" id="-39163">
		<tag k="fixme" v="consider natural=peak for the most distinct mountains in the district" />
		<tag k="name" v="Buråsen" />
		<tag k="natural" v="hill" />
		<tag k="place" v="locality" />
		<tag k="ssr:stedsnr" v="24921" />
	</node>
	<node lat="58.08679999636285" lon="7.622580551171698" id="-39165">
		<tag k="name" v="Munkedalen" />
		<tag k="natural" v="valley" />
		<tag k="place" v="locality" />
		<tag k="ssr:stedsnr" v="24940" />
	</node>
	<node lat="58.12344166521657" lon="7.4610694482041415" id="-39168">
		<tag k="name" v="Nordstø" />
		<tag k="natural" v="hill" />
		<tag k="place" v="locality" />
		<tag k="ssr:stedsnr" v="24952" />
	</node>
	<node lat="58.10806944742705" lon="7.536955558008784" id="-39174">
		<tag k="name" v="Skaran" />
		<tag k="place" v="locality" />
		<tag k="ssr:stedsnr" v="24875" />
	</node>
	<node lat="58.12877222121155" lon="7.583694448466616" id="-39175">
		<tag k="name" v="Bjønnåsen" />
		<tag k="natural" v="hill" />
		<tag k="place" v="locality" />
		<tag k="ssr:stedsnr" v="24883" />
	</node>
	<node lat="58.01170833765863" lon="7.5017361070136825" id="-39180">
		<tag k="name" v="Knibben" />
		<tag k="natural" v="hill" />
		<tag k="place" v="locality" />
		<tag k="ssr:stedsnr" v="25213" />
	</node>
	<node lat="58.004633337040396" lon="7.4875527779505635" id="-39188">
		<tag k="name" v="Sørdalen" />
		<tag k="natural" v="valley" />
		<tag k="place" v="locality" />
		<tag k="ssr:stedsnr" v="26028" />
	</node>
	<node lat="58.044461111817625" lon="7.43418055245205" id="-39189">
		<tag k="name" v="Svolgjelet" />
		<tag k="natural" v="valley" />
		<tag k="place" v="locality" />
		<tag k="ssr:stedsnr" v="26218" />
	</node>
	<node lat="58.04384999896759" lon="7.435347229410645" id="-39190">
		<tag k="fixme" v="consider natural=peak for the most distinct mountains in the district" />
		<tag k="name" v="Langebakken" />
		<tag k="natural" v="hill" />
		<tag k="place" v="locality" />
		<tag k="ssr:stedsnr" v="26220" />
	</node>
	<node lat="58.05200000099138" lon="7.468191671541395" id="-39191">
		<tag k="name" v="Hålandsheia østre" />
		<tag k="natural" v="hill" />
		<tag k="place" v="locality" />
		<tag k="ssr:stedsnr" v="26224" />
	</node>
	<node lat="58.06001944310436" lon="7.480808340882008" id="-39192">
		<tag k="name" v="Saumyrknibben" />
		<tag k="natural" v="hill" />
		<tag k="place" v="locality" />
		<tag k="ssr:stedsnr" v="26228" />
	</node>
	<node lat="58.02892499864036" lon="7.558283327024403" id="-39195">
		<tag k="fixme" v="consider natural=peak for the most distinct mountains in the district" />
		<tag k="name" v="Ravneheia" />
		<tag k="natural" v="hill" />
		<tag k="place" v="locality" />
		<tag k="ssr:stedsnr" v="26481" />
	</node>
	<node lat="57.9766277761151" lon="7.602202774429582" id="-39199">
		<tag k="alt_name" v="Knuten" />
		<tag k="name" v="Knuden" />
		<tag k="natural" v="hill" />
		<tag k="place" v="locality" />
		<tag k="ssr:stedsnr" v="26626" />
	</node>
	<node lat="58.03032500202977" lon="7.362208325422101" id="-39200">
		<tag k="name" v="Utforheia" />
		<tag k="natural" v="hill" />
		<tag k="place" v="locality" />
		<tag k="ssr:stedsnr" v="26777" />
	</node>
	<node lat="58.026136112053464" lon="7.397991665410294" id="-39205">
		<tag k="name" v="Fiskefjell" />
		<tag k="natural" v="hill" />
		<tag k="place" v="locality" />
		<tag k="ssr:stedsnr" v="26814" />
	</node>
	<node lat="58.02960000432421" lon="7.378161103274779" id="-39207">
		<tag k="name" v="Fløybakken" />
		<tag k="natural" v="hill" />
		<tag k="place" v="locality" />
		<tag k="ssr:stedsnr" v="26820" />
	</node>
	<node lat="58.05297499936837" lon="7.457508338072978" id="-39239">
		<tag k="fixme" v="consider natural=peak for the most distinct mountains in the district" />
		<tag k="name" v="Hålandsfjell" />
		<tag k="natural" v="hill" />
		<tag k="place" v="locality" />
		<tag k="ssr:stedsnr" v="236939" />
	</node>
	<node lat="57.99893610958873" lon="7.0393277709938555" id="-39309">
		<tag k="name" v="Sjoneheia" />
		<tag k="natural" v="hill" />
		<tag k="place" v="locality" />
		<tag k="ssr:stedsnr" v="61002" />
	</node>
	<node lat="58.091427776740595" lon="7.642861112448578" id="-39323">
		<tag k="alt_name" v="Hestehei" />
		<tag k="name" v="Hestheia" />
		<tag k="natural" v="hill" />
		<tag k="place" v="locality" />
		<tag k="ssr:stedsnr" v="61931" />
	</node>
	<node lat="58.398413892989595" lon="7.55187500456304" id="-39326">
		<tag k="alt_name" v="Styggedal" />
		<tag k="name" v="Styggedalen" />
		<tag k="natural" v="valley" />
		<tag k="place" v="locality" />
		<tag k="ssr:stedsnr" v="61969" />
	</node>
	<node lat="58.201183329963705" lon="7.426561104300371" id="-39327">
		<tag k="alt_name" v="Kjelingheia" />
		<tag k="fixme" v="consider natural=peak for the most distinct mountains in the district" />
		<tag k="name" v="Kjellingsheia" />
		<tag k="natural" v="hill" />
		<tag k="place" v="locality" />
		<tag k="ssr:stedsnr" v="61691" />
	</node>
	<node lat="58.05707777613603" lon="7.408224999903315" id="-39331">
		<tag k="name" v="Lyseheia" />
		<tag k="natural" v="hill" />
		<tag k="place" v="locality" />
		<tag k="ssr:stedsnr" v="61886" />
	</node>
	<node lat="58.41089722378233" lon="7.487355554783831" id="-39332">
		<tag k="alt_name" v="Sogehei" />
		<tag k="name" v="Sogeheii" />
		<tag k="natural" v="hill" />
		<tag k="place" v="locality" />
		<tag k="ssr:stedsnr" v="61890" />
	</node>
	<node lat="58.07454722046759" lon="7.197127770568535" id="-39343">
		<tag k="alt_name" v="Hesteheia" />
		<tag k="name" v="Hestheia" />
		<tag k="natural" v="hill" />
		<tag k="place" v="locality" />
		<tag k="ssr:stedsnr" v="242596" />
	</node>
	<node lat="58.29281666716568" lon="7.4360638963048284" id="-39348">
		<tag k="fixme" v="consider natural=peak for the most distinct mountains in the district" />
		<tag k="name" v="Dovrehei" />
		<tag k="natural" v="hill" />
		<tag k="place" v="locality" />
		<tag k="ssr:stedsnr" v="242851" />
	</node>
	<node lat="58.165666666953825" lon="7.2893111136375985" id="-39364">
		<tag k="alt_name" v="Stolpehei" />
		<tag k="name" v="Stolpeheia" />
		<tag k="natural" v="hill" />
		<tag k="place" v="locality" />
		<tag k="ssr:stedsnr" v="243477" />
	</node>
	<node lat="58.18306666240604" lon="7.556699996402512" id="-39373">
		<tag k="name" v="Uslandsheia" />
		<tag k="natural" v="hill" />
		<tag k="place" v="locality" />
		<tag k="ssr:stedsnr" v="243712" />
	</node>
	<node lat="58.19290000118036" lon="7.452686118200921" id="-39376">
		<tag k="alt_name" v="Flumeråsen" />
		<tag k="fixme" v="consider natural=peak for the most distinct mountains in the district" />
		<tag k="name" v="Flagmyråsen" />
		<tag k="natural" v="hill" />
		<tag k="place" v="locality" />
		<tag k="ssr:stedsnr" v="243720" />
	</node>
	<node lat="58.43075555541464" lon="7.629269439172076" id="-39389">
		<tag k="fixme" v="consider natural=peak for the most distinct mountains in the district" />
		<tag k="name" v="Skaren" />
		<tag k="natural" v="hill" />
		<tag k="place" v="locality" />
		<tag k="ssr:stedsnr" v="243875" />
	</node>
	<node lat="58.43373611324368" lon="7.59186110548781" id="-39405">
		<tag k="alt_name" v="Furuåsen" />
		<tag k="fixme" v="consider natural=peak for the most distinct mountains in the district" />
		<tag k="name" v="Furåsen" />
		<tag k="natural" v="hill" />
		<tag k="place" v="locality" />
		<tag k="ssr:stedsnr" v="243929" />
	</node>
	<node lat="58.055969444996485" lon="7.130780548144223" id="-39406">
		<tag k="name" v="Mollekleiva" />
		<tag k="natural" v="slope" />
		<tag k="place" v="locality" />
		<tag k="ssr:stedsnr" v="82103" />
	</node>
	<node lat="58.07671110796591" lon="7.171161115815675" id="-39407">
		<tag k="name" v="Kniben" />
		<tag k="natural" v="hill" />
		<tag k="place" v="locality" />
		<tag k="ssr:stedsnr" v="82132" />
	</node>
	<node lat="58.076200000651795" lon="7.175538886015758" id="-39408">
		<tag k="name" v="Lille Kniben" />
		<tag k="natural" v="hill" />
		<tag k="place" v="locality" />
		<tag k="ssr:stedsnr" v="82133" />
	</node>
	<node lat="58.21582500093881" lon="7.422105550551847" id="-39409">
		<tag k="name" v="Brendan" />
		<tag k="natural" v="hill" />
		<tag k="place" v="locality" />
		<tag k="ssr:stedsnr" v="82192" />
	</node>
	<node lat="58.174633332764216" lon="7.386302779077438" id="-39410">
		<tag k="name" v="Tyrihei" />
		<tag k="natural" v="hill" />
		<tag k="place" v="locality" />
		<tag k="ssr:stedsnr" v="82201" />
	</node>
	<node lat="58.000180558119986" lon="7.088608332538476" id="-39414">
		<tag k="name" v="Sjonefjellet" />
		<tag k="natural" v="hill" />
		<tag k="place" v="locality" />
		<tag k="ssr:stedsnr" v="82333" />
	</node>
	<node lat="58.06070833188287" lon="7.130947221977194" id="-39417">
		<tag k="name" v="Voringsheia" />
		<tag k="natural" v="hill" />
		<tag k="place" v="locality" />
		<tag k="ssr:stedsnr" v="82101" />
	</node>
	<node lat="58.18173055542945" lon="7.366138894932827" id="-39419">
		<tag k="name" v="Svartufsa" />
		<tag k="natural" v="cliff" />
		<tag k="ssr:stedsnr" v="82215" />
	</node>
	<node lat="58.224827780438666" lon="7.346577785475927" id="-39420">
		<tag k="fixme" v="consider natural=peak for the most distinct mountains in the district" />
		<tag k="name" v="Rinnan" />
		<tag k="natural" v="hill" />
		<tag k="place" v="locality" />
		<tag k="ssr:stedsnr" v="82225" />
	</node>
	<node lat="58.00380277982537" lon="7.046188892626397" id="-39422">
		<tag k="name" v="Heikniben" />
		<tag k="natural" v="hill" />
		<tag k="place" v="locality" />
		<tag k="ssr:stedsnr" v="82409" />
	</node>
	<node lat="58.23906944857846" lon="7.578622218301345" id="-39425">
		<tag k="fixme" v="consider natural=peak for the most distinct mountains in the district" />
		<tag k="name" v="Berhei" />
		<tag k="natural" v="hill" />
		<tag k="place" v="locality" />
		<tag k="ssr:stedsnr" v="83021" />
	</node>
	<node lat="58.249947221507654" lon="7.60271944156157" id="-39426">
		<tag k="name" v="Dynestølheia" />
		<tag k="natural" v="hill" />
		<tag k="place" v="locality" />
		<tag k="ssr:stedsnr" v="83025" />
	</node>
	<node lat="58.05339722431887" lon="7.184136111088312" id="-39427">
		<tag k="name" v="Heptebakken" />
		<tag k="natural" v="hill" />
		<tag k="place" v="locality" />
		<tag k="ssr:stedsnr" v="83027" />
	</node>
	<node lat="58.04186389286319" lon="7.150630549598002" id="-39431">
		<tag k="name" v="Åsen" />
		<tag k="natural" v="hill" />
		<tag k="place" v="locality" />
		<tag k="ssr:stedsnr" v="83045" />
	</node>
	<node lat="58.05658055835312" lon="7.200224992660517" id="-39432">
		<tag k="fixme" v="consider natural=peak for the most distinct mountains in the district" />
		<tag k="name" v="Kastriheia" />
		<tag k="natural" v="hill" />
		<tag k="place" v="locality" />
		<tag k="ssr:stedsnr" v="83049" />
	</node>
	<node lat="58.16330277792659" lon="7.487694440313944" id="-39433">
		<tag k="name" v="Svinsoksdalen" />
		<tag k="natural" v="valley" />
		<tag k="place" v="locality" />
		<tag k="ssr:stedsnr" v="83111" />
	</node>
	<node lat="58.32347500021618" lon="7.496455547996966" id="-39434">
		<tag k="name" v="Fosshei" />
		<tag k="natural" v="slope" />
		<tag k="place" v="locality" />
		<tag k="ssr:stedsnr" v="83116" />
	</node>
	<node lat="58.30546389063304" lon="7.421888896891507" id="-39436">
		<tag k="name" v="Rustehei" />
		<tag k="natural" v="hill" />
		<tag k="place" v="locality" />
		<tag k="ssr:stedsnr" v="83130" />
	</node>
	<node lat="58.36900833304957" lon="7.433188882950752" id="-39437">
		<tag k="name" v="Glåpen" />
		<tag k="natural" v="valley" />
		<tag k="place" v="locality" />
		<tag k="ssr:stedsnr" v="83138" />
	</node>
	<node lat="58.35473333310192" lon="7.508097219791065" id="-39439">
		<tag k="name" v="Øvre Igledalen" />
		<tag k="natural" v="valley" />
		<tag k="place" v="locality" />
		<tag k="ssr:stedsnr" v="83208" />
	</node>
	<node lat="58.19190277370789" lon="7.597858339017074" id="-39440">
		<tag k="fixme" v="consider natural=peak for the most distinct mountains in the district" />
		<tag k="name" v="Nesholtan" />
		<tag k="natural" v="hill" />
		<tag k="place" v="locality" />
		<tag k="ssr:stedsnr" v="83235" />
	</node>
	<node lat="58.13839444049977" lon="7.581041673884545" id="-39441">
		<tag k="name" v="Byringsdalen" />
		<tag k="natural" v="valley" />
		<tag k="place" v="locality" />
		<tag k="ssr:stedsnr" v="83238" />
	</node>
	<node lat="58.191497219566386" lon="7.588311113188729" id="-39443">
		<tag k="name" v="Brendehei" />
		<tag k="natural" v="hill" />
		<tag k="place" v="locality" />
		<tag k="ssr:stedsnr" v="83240" />
	</node>
	<node lat="58.13947222291078" lon="7.593375001849207" id="-39445">
		<tag k="fixme" v="consider natural=peak for the most distinct mountains in the district" />
		<tag k="name" v="Mauråsen" />
		<tag k="natural" v="hill" />
		<tag k="place" v="locality" />
		<tag k="ssr:stedsnr" v="83244" />
	</node>
	<node lat="58.38113055960862" lon="7.529666662716346" id="-39447">
		<tag k="fixme" v="consider natural=peak for the most distinct mountains in the district" />
		<tag k="name" v="Norig" />
		<tag k="natural" v="hill" />
		<tag k="place" v="locality" />
		<tag k="ssr:stedsnr" v="83286" />
	</node>
	<node lat="58.30666389241802" lon="7.540411106140887" id="-39448">
		<tag k="name" v="Folldalen" />
		<tag k="natural" v="valley" />
		<tag k="place" v="locality" />
		<tag k="ssr:stedsnr" v="83292" />
	</node>
	<node lat="58.45819722319569" lon="7.542997228068407" id="-39451">
		<tag k="name" v="Åsand" />
		<tag k="natural" v="slope" />
		<tag k="place" v="locality" />
		<tag k="ssr:stedsnr" v="83405" />
	</node>
	<node lat="58.13151666266156" lon="7.356977783176273" id="-39452">
		<tag k="name" v="Todnehaugen" />
		<tag k="natural" v="hill" />
		<tag k="place" v="locality" />
		<tag k="ssr:stedsnr" v="83406" />
	</node>
	<node lat="58.1345750017097" lon="7.414550006781199" id="-39456">
		<tag k="name" v="Husemønen" />
		<tag k="natural" v="hill" />
		<tag k="place" v="locality" />
		<tag k="ssr:stedsnr" v="83436" />
	</node>
	<node lat="58.34478889081568" lon="7.535016666897923" id="-39459">
		<tag k="fixme" v="consider natural=peak for the most distinct mountains in the district" />
		<tag k="name" v="Homsknuten" />
		<tag k="natural" v="hill" />
		<tag k="place" v="locality" />
		<tag k="ssr:stedsnr" v="83440" />
	</node>
	<node lat="58.34670277519989" lon="7.444652784451128" id="-39462">
		<tag k="name" v="Skrubbeskora" />
		<tag k="natural" v="valley" />
		<tag k="place" v="locality" />
		<tag k="ssr:stedsnr" v="83194" />
	</node>
	<node lat="58.34767499641929" lon="7.467133330222145" id="-39463">
		<tag k="fixme" v="consider natural=peak for the most distinct mountains in the district" />
		<tag k="name" v="Timberåsen" />
		<tag k="natural" v="hill" />
		<tag k="place" v="locality" />
		<tag k="ssr:stedsnr" v="83198" />
	</node>
	<node lat="58.28568889034375" lon="7.421008341702224" id="-39464">
		<tag k="fixme" v="consider natural=peak for the most distinct mountains in the district" />
		<tag k="name" v="Vestre Årehei" />
		<tag k="natural" v="hill" />
		<tag k="place" v="locality" />
		<tag k="ssr:stedsnr" v="83302" />
	</node>
	<node lat="58.2819805572364" lon="7.421963880814774" id="-39466">
		<tag k="name" v="Dauredalen" />
		<tag k="natural" v="valley" />
		<tag k="place" v="locality" />
		<tag k="ssr:stedsnr" v="83310" />
	</node>
	<node lat="58.27414999771196" lon="7.448141671592418" id="-39470">
		<tag k="name" v="Spelebakken" />
		<tag k="natural" v="hill" />
		<tag k="place" v="locality" />
		<tag k="ssr:stedsnr" v="83339" />
	</node>
	<node lat="58.30793055868076" lon="7.463747229721656" id="-39471">
		<tag k="name" v="Kildredalen" />
		<tag k="natural" v="valley" />
		<tag k="place" v="locality" />
		<tag k="ssr:stedsnr" v="83340" />
	</node>
	<node lat="58.316488887382725" lon="7.47356111813507" id="-39472">
		<tag k="name" v="Hufosheia" />
		<tag k="natural" v="hill" />
		<tag k="place" v="locality" />
		<tag k="ssr:stedsnr" v="83342" />
	</node>
	<node lat="58.27991944041885" lon="7.474622224696331" id="-39473">
		<tag k="name" v="Kvennhusdalen" />
		<tag k="natural" v="valley" />
		<tag k="place" v="locality" />
		<tag k="ssr:stedsnr" v="83344" />
	</node>
	<node lat="58.26146944687071" lon="7.485583340216351" id="-39474">
		<tag k="name" v="Vollan" />
		<tag k="natural" v="slope" />
		<tag k="place" v="locality" />
		<tag k="ssr:stedsnr" v="83382" />
	</node>
	<node lat="58.39013055215448" lon="7.61032499968278" id="-39475">
		<tag k="name" v="Ridderdalen" />
		<tag k="natural" v="valley" />
		<tag k="place" v="locality" />
		<tag k="ssr:stedsnr" v="83383" />
	</node>
	<node lat="58.16955278067815" lon="7.349444443227901" id="-39476">
		<tag k="name" v="Torjeshaugen" />
		<tag k="natural" v="slope" />
		<tag k="place" v="locality" />
		<tag k="ssr:stedsnr" v="83387" />
	</node>
	<node lat="58.14369444217495" lon="7.3682416597398435" id="-39479">
		<tag k="fixme" v="consider natural=peak for the most distinct mountains in the district" />
		<tag k="name" v="Frøysåsen" />
		<tag k="natural" v="hill" />
		<tag k="place" v="locality" />
		<tag k="ssr:stedsnr" v="83396" />
	</node>
	<node lat="58.22408610786496" lon="7.5721333332440155" id="-39480">
		<tag k="name" v="Kjeldalshei" />
		<tag k="natural" v="hill" />
		<tag k="place" v="locality" />
		<tag k="ssr:stedsnr" v="83509" />
	</node>
	<node lat="58.22751666221074" lon="7.588302777723568" id="-39481">
		<tag k="fixme" v="consider natural=peak for the most distinct mountains in the district" />
		<tag k="name" v="Åsehei" />
		<tag k="natural" v="hill" />
		<tag k="place" v="locality" />
		<tag k="ssr:stedsnr" v="83510" />
	</node>
	<node lat="58.21991389006235" lon="7.6158083373779055" id="-39482">
		<tag k="name" v="Monen" />
		<tag k="place" v="locality" />
		<tag k="ssr:stedsnr" v="83517" />
	</node>
	<node lat="58.22348611105984" lon="7.609513891016537" id="-39483">
		<tag k="name" v="Monehei" />
		<tag k="natural" v="hill" />
		<tag k="place" v="locality" />
		<tag k="ssr:stedsnr" v="83520" />
	</node>
	<node lat="58.19896389080337" lon="7.44410000085691" id="-39484">
		<tag k="fixme" v="consider natural=peak for the most distinct mountains in the district" />
		<tag k="name" v="Haukåsen" />
		<tag k="natural" v="hill" />
		<tag k="place" v="locality" />
		<tag k="ssr:stedsnr" v="83480" />
	</node>
	<node lat="58.271247223808984" lon="7.545694439588636" id="-39485">
		<tag k="fixme" v="consider natural=peak for the most distinct mountains in the district" />
		<tag k="name" v="Kjåmåsen" />
		<tag k="natural" v="hill" />
		<tag k="place" v="locality" />
		<tag k="ssr:stedsnr" v="83482" />
	</node>
	<node lat="58.15955833052336" lon="7.379725005721523" id="-39490">
		<tag k="name" v="Ålmedalen" />
		<tag k="natural" v="valley" />
		<tag k="place" v="locality" />
		<tag k="ssr:stedsnr" v="83615" />
	</node>
	<node lat="58.1693305517385" lon="7.251630548990524" id="-39491">
		<tag k="name" v="Lelandsbakken" />
		<tag k="natural" v="hill" />
		<tag k="place" v="locality" />
		<tag k="ssr:stedsnr" v="83630" />
	</node>
	<node lat="58.07862499916537" lon="7.305480548873575" id="-39495">
		<tag k="name" v="Hestehagen" />
		<tag k="place" v="locality" />
		<tag k="ssr:stedsnr" v="83643" />
	</node>
	<node lat="58.16862222601407" lon="7.282449996099681" id="-39496">
		<tag k="name" v="Høgebakken" />
		<tag k="natural" v="hill" />
		<tag k="place" v="locality" />
		<tag k="ssr:stedsnr" v="83682" />
	</node>
	<node lat="58.187008337748516" lon="7.246249999885027" id="-39497">
		<tag k="name" v="Sanddalen" />
		<tag k="natural" v="valley" />
		<tag k="place" v="locality" />
		<tag k="ssr:stedsnr" v="83683" />
	</node>
	<node lat="58.20641666877941" lon="7.653513896671475" id="-39498">
		<tag k="name" v="Lihei" />
		<tag k="natural" v="hill" />
		<tag k="place" v="locality" />
		<tag k="ssr:stedsnr" v="83690" />
	</node>
	<node lat="58.1074944452407" lon="7.330238882179375" id="-39499">
		<tag k="fixme" v="consider natural=peak for the most distinct mountains in the district" />
		<tag k="name" v="Monefjellan" />
		<tag k="natural" v="hill" />
		<tag k="place" v="locality" />
		<tag k="ssr:stedsnr" v="83695" />
	</node>
	<node lat="58.110172221955715" lon="7.316061106790767" id="-39500">
		<tag k="fixme" v="consider natural=peak for the most distinct mountains in the district" />
		<tag k="name" v="Fagerlifjellan" />
		<tag k="natural" v="hill" />
		<tag k="place" v="locality" />
		<tag k="ssr:stedsnr" v="83696" />
	</node>
	<node lat="58.23908055208371" lon="7.4765333281229465" id="-39501">
		<tag k="fixme" v="consider natural=peak for the most distinct mountains in the district" />
		<tag k="name" v="Tereknoddan" />
		<tag k="natural" v="hill" />
		<tag k="place" v="locality" />
		<tag k="ssr:stedsnr" v="83802" />
	</node>
	<node lat="58.076383336542655" lon="7.28614166773501" id="-39503">
		<tag k="fixme" v="consider natural=peak for the most distinct mountains in the district" />
		<tag k="name" v="Rapteskårheia" />
		<tag k="natural" v="hill" />
		<tag k="place" v="locality" />
		<tag k="ssr:stedsnr" v="83810" />
	</node>
	<node lat="58.237563889892904" lon="7.495994441168322" id="-39504">
		<tag k="fixme" v="consider natural=peak for the most distinct mountains in the district" />
		<tag k="name" v="Kogåsen" />
		<tag k="natural" v="hill" />
		<tag k="place" v="locality" />
		<tag k="ssr:stedsnr" v="83811" />
	</node>
	<node lat="58.15131666850561" lon="7.317216668678862" id="-39509">
		<tag k="name" v="Høgkniben" />
		<tag k="natural" v="hill" />
		<tag k="place" v="locality" />
		<tag k="ssr:stedsnr" v="83591" />
	</node>
	<node lat="58.25309999760233" lon="7.547094444663677" id="-39510">
		<tag k="fixme" v="consider natural=peak for the most distinct mountains in the district" />
		<tag k="name" v="Gausåshei" />
		<tag k="natural" v="hill" />
		<tag k="place" v="locality" />
		<tag k="ssr:stedsnr" v="83595" />
	</node>
	<node lat="58.11766110772074" lon="7.358011113032624" id="-39513">
		<tag k="name" v="Helleren" />
		<tag k="place" v="locality" />
		<tag k="ssr:stedsnr" v="83703" />
	</node>
	<node lat="58.11789166399064" lon="7.392127785548921" id="-39516">
		<tag k="fixme" v="consider natural=peak for the most distinct mountains in the district" />
		<tag k="name" v="Høgeheia" />
		<tag k="natural" v="hill" />
		<tag k="place" v="locality" />
		<tag k="ssr:stedsnr" v="83707" />
	</node>
	<node lat="58.1599416697693" lon="7.706833324782972" id="-39518">
		<tag k="name" v="Langedalsheia" />
		<tag k="natural" v="hill" />
		<tag k="place" v="locality" />
		<tag k="ssr:stedsnr" v="83712" />
	</node>
	<node lat="58.21211944736074" lon="7.675058340435648" id="-39519">
		<tag k="fixme" v="consider natural=peak for the most distinct mountains in the district" />
		<tag k="name" v="Knøa" />
		<tag k="natural" v="hill" />
		<tag k="place" v="locality" />
		<tag k="ssr:stedsnr" v="83713" />
	</node>
	<node lat="58.10550555233453" lon="7.380016666472294" id="-39520">
		<tag k="name" v="Stønnjufjellet" />
		<tag k="natural" v="hill" />
		<tag k="place" v="locality" />
		<tag k="ssr:stedsnr" v="83714" />
	</node>
	<node lat="58.049736109858635" lon="7.320269441196413" id="-39523">
		<tag k="name" v="Åsheian" />
		<tag k="natural" v="hill" />
		<tag k="place" v="locality" />
		<tag k="ssr:stedsnr" v="83731" />
	</node>
	<node lat="58.19404721916957" lon="7.5191833341788055" id="-39531">
		<tag k="name" v="Monbrotet" />
		<tag k="natural" v="slope" />
		<tag k="place" v="locality" />
		<tag k="ssr:stedsnr" v="83930" />
	</node>
	<node lat="58.03728888479293" lon="7.278202771838691" id="-39535">
		<tag k="name" v="Sveiheia" />
		<tag k="natural" v="hill" />
		<tag k="place" v="locality" />
		<tag k="ssr:stedsnr" v="83983" />
	</node>
	<node lat="58.159369448491255" lon="7.540836118160829" id="-39536">
		<tag k="name" v="Slettebrokhei" />
		<tag k="natural" v="hill" />
		<tag k="place" v="locality" />
		<tag k="ssr:stedsnr" v="83987" />
	</node>
	<node lat="58.16208610980585" lon="7.562658340628868" id="-39537">
		<tag k="fixme" v="consider natural=peak for the most distinct mountains in the district" />
		<tag k="name" v="Galteråsen" />
		<tag k="natural" v="hill" />
		<tag k="place" v="locality" />
		<tag k="ssr:stedsnr" v="83992" />
	</node>
	<node lat="58.16728333171796" lon="7.6106194399258875" id="-39538">
		<tag k="fixme" v="consider natural=peak for the most distinct mountains in the district" />
		<tag k="name" v="Bustøkniben" />
		<tag k="natural" v="hill" />
		<tag k="place" v="locality" />
		<tag k="ssr:stedsnr" v="83994" />
	</node>
	<node lat="58.0126305542643" lon="7.57527500655272" id="-39540">
		<tag k="name" v="Skogsdalen" />
		<tag k="natural" v="valley" />
		<tag k="place" v="locality" />
		<tag k="ssr:stedsnr" v="85197" />
	</node>
	<node lat="58.00783055141508" lon="7.5901694459388676" id="-39545">
		<tag k="name" v="Ørpevollen" />
		<tag k="place" v="locality" />
		<tag k="ssr:stedsnr" v="85202" />
	</node>
	<node lat="58.02882222396934" lon="7.625191658936424" id="-39547">
		<tag k="name" v="Amboheia" />
		<tag k="natural" v="hill" />
		<tag k="place" v="locality" />
		<tag k="ssr:stedsnr" v="85226" />
	</node>
	<node lat="58.12076389028009" lon="7.476852777465197" id="-39549">
		<tag k="name" v="Skarpeheia" />
		<tag k="natural" v="hill" />
		<tag k="place" v="locality" />
		<tag k="ssr:stedsnr" v="85430" />
	</node>
	<node lat="58.141958334632335" lon="7.4665500042666295" id="-39552">
		<tag k="name" v="Kåreheia" />
		<tag k="natural" v="hill" />
		<tag k="place" v="locality" />
		<tag k="ssr:stedsnr" v="85388" />
	</node>
	<node lat="58.0854388856633" lon="7.532391663386181" id="-39554">
		<tag k="name" v="Stemsheia" />
		<tag k="natural" v="hill" />
		<tag k="place" v="locality" />
		<tag k="ssr:stedsnr" v="85513" />
	</node>
	<node lat="58.108622222598775" lon="7.602419452843783" id="-39558">
		<tag k="name" v="Svartefjell" />
		<tag k="place" v="locality" />
		<tag k="ssr:stedsnr" v="85704" />
	</node>
	<node lat="58.13574999968926" lon="7.569855547770073" id="-39561">
		<tag k="fixme" v="consider natural=peak for the most distinct mountains in the district" />
		<tag k="name" v="Slottet" />
		<tag k="natural" v="hill" />
		<tag k="place" v="locality" />
		<tag k="ssr:stedsnr" v="85861" />
	</node>
	<node lat="58.145383333422785" lon="7.558647215714953" id="-39563">
		<tag k="name" v="Tømmeråsen" />
		<tag k="natural" v="hill" />
		<tag k="place" v="locality" />
		<tag k="ssr:stedsnr" v="85870" />
	</node>
	<node lat="58.14453055790069" lon="7.562658332072066" id="-39564">
		<tag k="name" v="Gullkleiv" />
		<tag k="natural" v="slope" />
		<tag k="place" v="locality" />
		<tag k="ssr:stedsnr" v="85876" />
	</node>
	<node lat="57.993194445613575" lon="7.486688887479594" id="-39566">
		<tag k="name" v="Mågeheia" />
		<tag k="natural" v="hill" />
		<tag k="place" v="locality" />
		<tag k="ssr:stedsnr" v="86026" />
	</node>
	<node lat="58.05245277601413" lon="7.3613749929211805" id="-39568">
		<tag k="name" v="Librotan" />
		<tag k="natural" v="slope" />
		<tag k="place" v="locality" />
		<tag k="ssr:stedsnr" v="85791" />
	</node>
	<node lat="58.12261944304083" lon="7.541630564041389" id="-39569">
		<tag k="name" v="Storskodet" />
		<tag k="natural" v="cliff" />
		<tag k="ssr:stedsnr" v="85910" />
	</node>
	<node lat="58.151341671178976" lon="7.537602780169781" id="-39572">
		<tag k="name" v="Fuglebakken" />
		<tag k="natural" v="slope" />
		<tag k="place" v="locality" />
		<tag k="ssr:stedsnr" v="85975" />
	</node>
	<node lat="58.08021944541503" lon="7.573383332590401" id="-39573">
		<tag k="name" v="Kinnsdalen" />
		<tag k="natural" v="valley" />
		<tag k="place" v="locality" />
		<tag k="ssr:stedsnr" v="85979" />
	</node>
	<node lat="58.03630833741147" lon="7.3392666709431715" id="-39574">
		<tag k="fixme" v="consider natural=peak for the most distinct mountains in the district" />
		<tag k="name" v="Bugdeåsen" />
		<tag k="natural" v="hill" />
		<tag k="place" v="locality" />
		<tag k="ssr:stedsnr" v="85996" />
	</node>
	<node lat="58.02585833239305" lon="7.568663881160675" id="-39577">
		<tag k="name" v="Aksdalen" />
		<tag k="natural" v="valley" />
		<tag k="place" v="locality" />
		<tag k="ssr:stedsnr" v="86432" />
	</node>
	<node lat="58.04067222296204" lon="7.547769447600064" id="-39579">
		<tag k="name" v="Skeia" />
		<tag k="natural" v="slope" />
		<tag k="place" v="locality" />
		<tag k="ssr:stedsnr" v="86438" />
	</node>
	<node lat="58.09450277561653" lon="7.628011114531279" id="-39580">
		<tag k="fixme" v="consider natural=peak for the most distinct mountains in the district" />
		<tag k="name" v="Teinåsen" />
		<tag k="natural" v="hill" />
		<tag k="place" v="locality" />
		<tag k="ssr:stedsnr" v="86902" />
	</node>
	<node lat="58.04770555834935" lon="7.460072223018227" id="-39581">
		<tag k="fixme" v="consider natural=peak for the most distinct mountains in the district" />
		<tag k="name" v="Blåbærpallen" />
		<tag k="natural" v="hill" />
		<tag k="place" v="locality" />
		<tag k="ssr:stedsnr" v="87127" />
	</node>
	<node lat="57.98422500339754" lon="7.580277776149309" id="-39584">
		<tag k="name" v="Høgheia" />
		<tag k="natural" v="hill" />
		<tag k="place" v="locality" />
		<tag k="ssr:stedsnr" v="87388" />
	</node>
	<node lat="58.06084444747901" lon="7.528405557905496" id="-39588">
		<tag k="name" v="Bjorungsdalen" />
		<tag k="natural" v="valley" />
		<tag k="place" v="locality" />
		<tag k="ssr:stedsnr" v="87490" />
	</node>
	<node lat="58.096377775290364" lon="7.551952769549644" id="-39592">
		<tag k="name" v="Skjellsletta" />
		<tag k="place" v="locality" />
		<tag k="ssr:stedsnr" v="87904" />
	</node>
	<node lat="58.10347778179339" lon="7.484386114032132" id="-39609">
		<tag k="alt_name" v="Haddeheia" />
		<tag k="name" v="Halleheia" />
		<tag k="natural" v="hill" />
		<tag k="place" v="locality" />
		<tag k="ssr:stedsnr" v="303844" />
	</node>
	<node lat="58.06159999811955" lon="7.127808326181444" id="-39635">
		<tag k="alt_name" v="Grisefjellet" />
		<tag k="name" v="Midtbøknipen" />
		<tag k="natural" v="hill" />
		<tag k="place" v="locality" />
		<tag k="ssr:stedsnr" v="121566" />
	</node>
	<node lat="58.19468675836866" lon="7.525267458365257" id="-39641">
		<tag k="name" v="Heddelandsmonen" />
		<tag k="place" v="locality" />
		<tag k="ssr:stedsnr" v="121712" />
	</node>
	<node lat="58.230530558368805" lon="7.482049997280326" id="-39645">
		<tag k="alt_name" v="Kniben" />
		<tag k="name" v="Knipen" />
		<tag k="natural" v="hill" />
		<tag k="place" v="locality" />
		<tag k="ssr:stedsnr" v="121723" />
	</node>
	<node lat="58.02060278225644" lon="7.0552138935808255" id="-39647">
		<tag k="alt_name" v="Skibmannsheia" />
		<tag k="fixme" v="consider natural=peak for the most distinct mountains in the district" />
		<tag k="name" v="Skipmannsheia" />
		<tag k="natural" v="hill" />
		<tag k="place" v="locality" />
		<tag k="ssr:stedsnr" v="121664" />
	</node>
	<node lat="58.08770555769189" lon="7.467374994153865" id="-39652">
		<tag k="name" v="Kleppssalan" />
		<tag k="natural" v="hill" />
		<tag k="place" v="locality" />
		<tag k="ssr:stedsnr" v="121833" />
	</node>
	<node lat="58.07008888817209" lon="7.425008341494635" id="-39655">
		<tag k="name" v="Holteheia" />
		<tag k="natural" v="hill" />
		<tag k="place" v="locality" />
		<tag k="ssr:stedsnr" v="121909" />
	</node>
	<node lat="58.45124238797955" lon="7.537618802424586" id="-39658">
		<tag k="name" v="Ørnehei" />
		<tag k="natural" v="hill" />
		<tag k="place" v="locality" />
		<tag k="ssr:stedsnr" v="121924" />
	</node>
	<node lat="58.395213885857565" lon="7.5360944401871715" id="-39662">
		<tag k="alt_name" v="Nautardalen" />
		<tag k="name" v="Nautårdalen" />
		<tag k="natural" v="valley" />
		<tag k="place" v="locality" />
		<tag k="ssr:stedsnr" v="121978" />
	</node>
	<node lat="58.3965861125109" lon="7.572541665748616" id="-39663">
		<tag k="alt_name" v="Høgahei" />
		<tag k="name" v="Høgehei" />
		<tag k="natural" v="hill" />
		<tag k="place" v="locality" />
		<tag k="ssr:stedsnr" v="121979" />
	</node>
	<node lat="58.05601388536415" lon="7.189180551259058" id="-39670">
		<tag k="name" v="Skipsheia" />
		<tag k="natural" v="hill" />
		<tag k="place" v="locality" />
		<tag k="ssr:stedsnr" v="265023" />
	</node>
	<node lat="58.36868888589149" lon="7.593147228220261" id="-39672">
		<tag k="name" v="Liheia" />
		<tag k="natural" v="hill" />
		<tag k="place" v="locality" />
		<tag k="ssr:stedsnr" v="265026" />
	</node>
	<node lat="58.035130553022825" lon="7.099347229454846" id="-39673">
		<tag k="name" v="Bessedalen" />
		<tag k="natural" v="valley" />
		<tag k="place" v="locality" />
		<tag k="ssr:stedsnr" v="142087" />
	</node>
	<node lat="58.06583888494475" lon="7.125352771632892" id="-39677">
		<tag k="name" v="Kvassekleiva" />
		<tag k="natural" v="slope" />
		<tag k="place" v="locality" />
		<tag k="ssr:stedsnr" v="142112" />
	</node>
	<node lat="58.13281389166338" lon="7.4637833357481025" id="-39678">
		<tag k="name" v="Kolldalsheia" />
		<tag k="natural" v="hill" />
		<tag k="place" v="locality" />
		<tag k="ssr:stedsnr" v="142176" />
	</node>
	<node lat="58.116013888586465" lon="7.437408331269097" id="-39679">
		<tag k="name" v="Hepteheia" />
		<tag k="natural" v="hill" />
		<tag k="place" v="locality" />
		<tag k="ssr:stedsnr" v="142185" />
	</node>
	<node lat="58.18067777950266" lon="7.610641671624503" id="-39683">
		<tag k="name" v="Holtan" />
		<tag k="natural" v="hill" />
		<tag k="place" v="locality" />
		<tag k="ssr:stedsnr" v="143003" />
	</node>
	<node lat="58.179522223716475" lon="7.61736111736122" id="-39685">
		<tag k="name" v="Lonåsen" />
		<tag k="natural" v="hill" />
		<tag k="place" v="locality" />
		<tag k="ssr:stedsnr" v="143007" />
	</node>
	<node lat="58.38319999792526" lon="7.605902775382832" id="-39688">
		<tag k="name" v="Linbakken" />
		<tag k="natural" v="slope" />
		<tag k="place" v="locality" />
		<tag k="ssr:stedsnr" v="143033" />
	</node>
	<node lat="58.14660833556873" lon="7.582855559063731" id="-39689">
		<tag k="name" v="Grindalen" />
		<tag k="natural" v="valley" />
		<tag k="place" v="locality" />
		<tag k="ssr:stedsnr" v="143208" />
	</node>
	<node lat="58.338663891079975" lon="7.467783331058871" id="-39691">
		<tag k="fixme" v="consider natural=peak for the most distinct mountains in the district" />
		<tag k="name" v="Flånehei" />
		<tag k="natural" v="hill" />
		<tag k="place" v="locality" />
		<tag k="ssr:stedsnr" v="143315" />
	</node>
	<node lat="58.33638611294587" lon="7.476291658620182" id="-39692">
		<tag k="name" v="Audestø" />
		<tag k="natural" v="valley" />
		<tag k="place" v="locality" />
		<tag k="ssr:stedsnr" v="143318" />
	</node>
	<node lat="58.30277777695756" lon="7.4615333285064285" id="-39695">
		<tag k="fixme" v="consider natural=peak for the most distinct mountains in the district" />
		<tag k="name" v="Storaheia" />
		<tag k="natural" v="hill" />
		<tag k="place" v="locality" />
		<tag k="ssr:stedsnr" v="143325" />
	</node>
	<node lat="58.39218611275485" lon="7.463908331018758" id="-39697">
		<tag k="name" v="Reverhei" />
		<tag k="natural" v="hill" />
		<tag k="place" v="locality" />
		<tag k="ssr:stedsnr" v="143332" />
	</node>
	<node lat="58.33338332982593" lon="7.422124998357106" id="-39698">
		<tag k="name" v="Maurbakken" />
		<tag k="natural" v="slope" />
		<tag k="place" v="locality" />
		<tag k="ssr:stedsnr" v="143333" />
	</node>
	<node lat="58.26313611217788" lon="7.4594694503212775" id="-39699">
		<tag k="fixme" v="consider natural=peak for the most distinct mountains in the district" />
		<tag k="name" v="Duekniben" />
		<tag k="natural" v="hill" />
		<tag k="place" v="locality" />
		<tag k="ssr:stedsnr" v="143334" />
	</node>
	<node lat="58.259427773866626" lon="7.4663472296317215" id="-39701">
		<tag k="name" v="Haugedalen" />
		<tag k="natural" v="valley" />
		<tag k="place" v="locality" />
		<tag k="ssr:stedsnr" v="143337" />
	</node>
	<node lat="58.289188885663584" lon="7.452469446657527" id="-39703">
		<tag k="fixme" v="consider natural=peak for the most distinct mountains in the district" />
		<tag k="name" v="Grohei" />
		<tag k="natural" v="hill" />
		<tag k="place" v="locality" />
		<tag k="ssr:stedsnr" v="143283" />
	</node>
	<node lat="58.383136112803996" lon="7.519116664903911" id="-39705">
		<tag k="name" v="Gladværen" />
		<tag k="place" v="locality" />
		<tag k="ssr:stedsnr" v="143286" />
	</node>
	<node lat="58.430108335176975" lon="7.526836112183945" id="-39708">
		<tag k="name" v="Hestebeite" />
		<tag k="natural" v="valley" />
		<tag k="place" v="locality" />
		<tag k="ssr:stedsnr" v="143408" />
	</node>
	<node lat="58.435147220025044" lon="7.514855558012285" id="-39709">
		<tag k="name" v="Fosslian" />
		<tag k="natural" v="slope" />
		<tag k="place" v="locality" />
		<tag k="ssr:stedsnr" v="143409" />
	</node>
	<node lat="58.42710555159362" lon="7.5599583329996225" id="-39711">
		<tag k="name" v="Stikksdalen" />
		<tag k="natural" v="valley" />
		<tag k="place" v="locality" />
		<tag k="ssr:stedsnr" v="143435" />
	</node>
	<node lat="58.414811107355014" lon="7.536599993851141" id="-39714">
		<tag k="name" v="Toneskår" />
		<tag k="natural" v="valley" />
		<tag k="place" v="locality" />
		<tag k="ssr:stedsnr" v="143441" />
	</node>
	<node lat="58.404397219327734" lon="7.584886115123925" id="-39716">
		<tag k="fixme" v="consider natural=peak for the most distinct mountains in the district" />
		<tag k="name" v="Husefjellet" />
		<tag k="natural" v="hill" />
		<tag k="place" v="locality" />
		<tag k="ssr:stedsnr" v="143493" />
	</node>
	<node lat="58.263247221315616" lon="7.52975554721315" id="-39717">
		<tag k="fixme" v="consider natural=peak for the most distinct mountains in the district" />
		<tag k="name" v="Knabberlihei" />
		<tag k="natural" v="hill" />
		<tag k="place" v="locality" />
		<tag k="ssr:stedsnr" v="143497" />
	</node>
	<node lat="58.16760555646568" lon="7.3296861187856" id="-39718">
		<tag k="name" v="Rebåslia" />
		<tag k="natural" v="slope" />
		<tag k="place" v="locality" />
		<tag k="ssr:stedsnr" v="143499" />
	</node>
	<node lat="58.28284444483386" lon="7.524352771917387" id="-39719">
		<tag k="name" v="Moldbrodet" />
		<tag k="natural" v="slope" />
		<tag k="place" v="locality" />
		<tag k="ssr:stedsnr" v="143500" />
	</node>
	<node lat="58.14958888716206" lon="7.345066664369283" id="-39720">
		<tag k="fixme" v="consider natural=peak for the most distinct mountains in the district" />
		<tag k="name" v="Mauråsen" />
		<tag k="natural" v="hill" />
		<tag k="place" v="locality" />
		<tag k="ssr:stedsnr" v="143603" />
	</node>
	<node lat="58.170525003765746" lon="7.541866670763475" id="-39721">
		<tag k="name" v="Steigebrokkhei" />
		<tag k="natural" v="hill" />
		<tag k="place" v="locality" />
		<tag k="ssr:stedsnr" v="143608" />
	</node>
	<node lat="58.16460277891637" lon="7.374888880893915" id="-39723">
		<tag k="name" v="Holtet" />
		<tag k="natural" v="hill" />
		<tag k="place" v="locality" />
		<tag k="ssr:stedsnr" v="143617" />
	</node>
	<node lat="58.18022499783718" lon="7.66038610304307" id="-39726">
		<tag k="name" v="Eigedalen" />
		<tag k="natural" v="valley" />
		<tag k="place" v="locality" />
		<tag k="ssr:stedsnr" v="143637" />
	</node>
	<node lat="58.182974996435036" lon="7.632761115640042" id="-39727">
		<tag k="name" v="Mauråsen" />
		<tag k="natural" v="hill" />
		<tag k="place" v="locality" />
		<tag k="ssr:stedsnr" v="143641" />
	</node>
	<node lat="58.155827782108545" lon="7.34988333668129" id="-39730">
		<tag k="name" v="Stølsåsen" />
		<tag k="natural" v="hill" />
		<tag k="place" v="locality" />
		<tag k="ssr:stedsnr" v="143510" />
	</node>
	<node lat="58.2310944439048" lon="7.621036110783619" id="-39731">
		<tag k="name" v="Austre Høydalen" />
		<tag k="natural" v="valley" />
		<tag k="place" v="locality" />
		<tag k="ssr:stedsnr" v="143511" />
	</node>
	<node lat="58.08798333368063" lon="7.302100006212525" id="-39732">
		<tag k="fixme" v="consider natural=peak for the most distinct mountains in the district" />
		<tag k="name" v="Fløyheia" />
		<tag k="natural" v="hill" />
		<tag k="place" v="locality" />
		<tag k="ssr:stedsnr" v="143521" />
	</node>
	<node lat="58.11070000374239" lon="7.393366667036774" id="-39733">
		<tag k="name" v="Kvernhusbakken" />
		<tag k="natural" v="slope" />
		<tag k="place" v="locality" />
		<tag k="ssr:stedsnr" v="143539" />
	</node>
	<node lat="58.099513891601966" lon="7.3676000070227685" id="-39735">
		<tag k="name" v="Løebakken" />
		<tag k="natural" v="hill" />
		<tag k="place" v="locality" />
		<tag k="ssr:stedsnr" v="143543" />
	</node>
	<node lat="58.131272218078244" lon="7.346127784355205" id="-39736">
		<tag k="fixme" v="consider natural=peak for the most distinct mountains in the district" />
		<tag k="name" v="Hagefjell" />
		<tag k="natural" v="hill" />
		<tag k="place" v="locality" />
		<tag k="ssr:stedsnr" v="143583" />
	</node>
	<node lat="58.14800000180863" lon="7.321069449439163" id="-39737">
		<tag k="name" v="Røsseheia" />
		<tag k="natural" v="hill" />
		<tag k="place" v="locality" />
		<tag k="ssr:stedsnr" v="143586" />
	</node>
	<node lat="58.15962499790122" lon="7.62901110526475" id="-39741">
		<tag k="name" v="Varehei" />
		<tag k="natural" v="hill" />
		<tag k="place" v="locality" />
		<tag k="ssr:stedsnr" v="143715" />
	</node>
	<node lat="58.211030551944596" lon="7.664066667035291" id="-39744">
		<tag k="name" v="Gullringsdalen" />
		<tag k="natural" v="valley" />
		<tag k="place" v="locality" />
		<tag k="ssr:stedsnr" v="143692" />
	</node>
	<node lat="58.20527499738534" lon="7.672355559725217" id="-39745">
		<tag k="name" v="Forehei" />
		<tag k="natural" v="hill" />
		<tag k="place" v="locality" />
		<tag k="ssr:stedsnr" v="143694" />
	</node>
	<node lat="58.12589722183321" lon="7.290080553441246" id="-39746">
		<tag k="name" v="Småkniben" />
		<tag k="natural" v="hill" />
		<tag k="place" v="locality" />
		<tag k="ssr:stedsnr" v="143804" />
	</node>
	<node lat="58.20480277602519" lon="7.501499996979963" id="-39747">
		<tag k="name" v="Ådnesdalen" />
		<tag k="natural" v="valley" />
		<tag k="place" v="locality" />
		<tag k="ssr:stedsnr" v="143805" />
	</node>
	<node lat="58.1596499994069" lon="7.510969438108675" id="-39749">
		<tag k="name" v="Sagåsen" />
		<tag k="natural" v="hill" />
		<tag k="place" v="locality" />
		<tag k="ssr:stedsnr" v="143831" />
	</node>
	<node lat="58.164166667716316" lon="7.278033327173165" id="-39751">
		<tag k="name" v="Eigedalshola" />
		<tag k="natural" v="valley" />
		<tag k="place" v="locality" />
		<tag k="ssr:stedsnr" v="143839" />
	</node>
	<node lat="58.164327780552334" lon="7.274533331533639" id="-39752">
		<tag k="name" v="Kleivshola" />
		<tag k="place" v="locality" />
		<tag k="ssr:stedsnr" v="143840" />
	</node>
	<node lat="58.197824995770226" lon="7.483550000317874" id="-39753">
		<tag k="fixme" v="consider natural=peak for the most distinct mountains in the district" />
		<tag k="name" v="Plankan" />
		<tag k="natural" v="hill" />
		<tag k="place" v="locality" />
		<tag k="ssr:stedsnr" v="143841" />
	</node>
	<node lat="58.19037777506621" lon="7.552952771603506" id="-39754">
		<tag k="fixme" v="consider natural=peak for the most distinct mountains in the district" />
		<tag k="name" v="Langemyråsen" />
		<tag k="natural" v="hill" />
		<tag k="place" v="locality" />
		<tag k="ssr:stedsnr" v="143880" />
	</node>
	<node lat="58.19031666694322" lon="7.538369443625217" id="-39755">
		<tag k="name" v="Hovedalen" />
		<tag k="natural" v="valley" />
		<tag k="place" v="locality" />
		<tag k="ssr:stedsnr" v="143882" />
	</node>
	<node lat="58.18804444768272" lon="7.539583340341159" id="-39756">
		<tag k="name" v="Storedalen" />
		<tag k="natural" v="valley" />
		<tag k="place" v="locality" />
		<tag k="ssr:stedsnr" v="143891" />
	</node>
	<node lat="58.206752776825084" lon="7.25755832806975" id="-39759">
		<tag k="name" v="Holebakken" />
		<tag k="natural" v="hill" />
		<tag k="place" v="locality" />
		<tag k="ssr:stedsnr" v="143795" />
	</node>
	<node lat="58.16115277656481" lon="7.558183327024512" id="-39765">
		<tag k="name" v="Løbakk" />
		<tag k="natural" v="hill" />
		<tag k="place" v="locality" />
		<tag k="ssr:stedsnr" v="143989" />
	</node>
	<node lat="58.296627776471965" lon="7.4991166720647495" id="-39766">
		<tag k="name" v="Osdalen" />
		<tag k="natural" v="valley" />
		<tag k="place" v="locality" />
		<tag k="ssr:stedsnr" v="144302" />
	</node>
	<node lat="58.26965833709215" lon="7.475508333979673" id="-39768">
		<tag k="name" v="Skaran" />
		<tag k="natural" v="valley" />
		<tag k="place" v="locality" />
		<tag k="ssr:stedsnr" v="144339" />
	</node>
	<node lat="58.27953611551745" lon="7.5000250024190995" id="-39769">
		<tag k="name" v="Tangdalen" />
		<tag k="natural" v="valley" />
		<tag k="place" v="locality" />
		<tag k="ssr:stedsnr" v="144361" />
	</node>
	<node lat="58.06437778133333" lon="7.5358111065418" id="-39771">
		<tag k="name" v="Hesteheia" />
		<tag k="natural" v="hill" />
		<tag k="place" v="locality" />
		<tag k="ssr:stedsnr" v="144589" />
	</node>
	<node lat="58.25621944661345" lon="7.5024333345475" id="-39772">
		<tag k="fixme" v="consider natural=peak for the most distinct mountains in the district" />
		<tag k="name" v="Timberåsen" />
		<tag k="natural" v="hill" />
		<tag k="place" v="locality" />
		<tag k="ssr:stedsnr" v="144769" />
	</node>
	<node lat="58.01076666302808" lon="7.551008341527958" id="-39781">
		<tag k="name" v="Myrtoppen" />
		<tag k="natural" v="hill" />
		<tag k="place" v="locality" />
		<tag k="ssr:stedsnr" v="145386" />
	</node>
	<node lat="58.089938890365936" lon="7.502461118224795" id="-39782">
		<tag k="fixme" v="consider natural=peak for the most distinct mountains in the district" />
		<tag k="name" v="Skarpåsen" />
		<tag k="natural" v="hill" />
		<tag k="place" v="locality" />
		<tag k="ssr:stedsnr" v="145509" />
	</node>
	<node lat="58.14218889035735" lon="7.508108331940167" id="-39785">
		<tag k="name" v="Hauheia" />
		<tag k="natural" v="hill" />
		<tag k="place" v="locality" />
		<tag k="ssr:stedsnr" v="145478" />
	</node>
	<node lat="58.076136108132744" lon="7.508769444467402" id="-39790">
		<tag k="name" v="Håvollsheia" />
		<tag k="natural" v="hill" />
		<tag k="place" v="locality" />
		<tag k="ssr:stedsnr" v="145665" />
	</node>
	<node lat="58.07689999771746" lon="7.4856499940989645" id="-39792">
		<tag k="name" v="Tollakshei" />
		<tag k="natural" v="hill" />
		<tag k="place" v="locality" />
		<tag k="ssr:stedsnr" v="145674" />
	</node>
	<node lat="58.04870833690998" lon="7.38859443823057" id="-39793">
		<tag k="name" v="Norderåsdalen" />
		<tag k="natural" v="valley" />
		<tag k="place" v="locality" />
		<tag k="ssr:stedsnr" v="145819" />
	</node>
	<node lat="58.07934722048329" lon="7.564605547888952" id="-39794">
		<tag k="name" v="Kvernhusdalen" />
		<tag k="natural" v="valley" />
		<tag k="place" v="locality" />
		<tag k="ssr:stedsnr" v="145576" />
	</node>
	<node lat="58.08679444468753" lon="7.544686118642339" id="-39795">
		<tag k="name" v="Langemyrheia" />
		<tag k="natural" v="hill" />
		<tag k="place" v="locality" />
		<tag k="ssr:stedsnr" v="145581" />
	</node>
	<node lat="58.10323610768214" lon="7.422161103691463" id="-39797">
		<tag k="name" v="Steinheia" />
		<tag k="natural" v="hill" />
		<tag k="place" v="locality" />
		<tag k="ssr:stedsnr" v="145720" />
	</node>
	<node lat="58.088672226562196" lon="7.6444777828779005" id="-39798">
		<tag k="name" v="Nøkkeheia" />
		<tag k="natural" v="hill" />
		<tag k="place" v="locality" />
		<tag k="ssr:stedsnr" v="145722" />
	</node>
	<node lat="58.08430555147378" lon="7.640636112605572" id="-39799">
		<tag k="name" v="Storheia" />
		<tag k="natural" v="hill" />
		<tag k="place" v="locality" />
		<tag k="ssr:stedsnr" v="145723" />
	</node>
	<node lat="58.0893722178783" lon="7.636597216478033" id="-39800">
		<tag k="name" v="Klomran" />
		<tag k="natural" v="slope" />
		<tag k="place" v="locality" />
		<tag k="ssr:stedsnr" v="145725" />
	</node>
	<node lat="58.106313888318056" lon="7.59344721599907" id="-39804">
		<tag k="name" v="Knøbakkan" />
		<tag k="natural" v="hill" />
		<tag k="place" v="locality" />
		<tag k="ssr:stedsnr" v="145764" />
	</node>
	<node lat="58.10212222538758" lon="7.5851944359059535" id="-39805">
		<tag k="name" v="Ålgårdslia" />
		<tag k="natural" v="slope" />
		<tag k="place" v="locality" />
		<tag k="ssr:stedsnr" v="145770" />
	</node>
	<node lat="58.04151666787017" lon="7.340402773818786" id="-39806">
		<tag k="name" v="Grunvollsheia" />
		<tag k="natural" v="hill" />
		<tag k="place" v="locality" />
		<tag k="ssr:stedsnr" v="145776" />
	</node>
	<node lat="58.03985278077776" lon="7.327211118400308" id="-39807">
		<tag k="name" v="Råba" />
		<tag k="natural" v="hill" />
		<tag k="place" v="locality" />
		<tag k="ssr:stedsnr" v="145777" />
	</node>
	<node lat="58.043783331028095" lon="7.345499995998287" id="-39808">
		<tag k="name" v="Svartefjellan" />
		<tag k="place" v="locality" />
		<tag k="ssr:stedsnr" v="145780" />
	</node>
	<node lat="58.10776944856108" lon="7.623113885089502" id="-39809">
		<tag k="name" v="Stordalsheia" />
		<tag k="natural" v="hill" />
		<tag k="place" v="locality" />
		<tag k="ssr:stedsnr" v="145783" />
	</node>
	<node lat="58.04294166994113" lon="7.353247228037954" id="-39810">
		<tag k="name" v="Agnefidja" />
		<tag k="natural" v="valley" />
		<tag k="place" v="locality" />
		<tag k="ssr:stedsnr" v="145784" />
	</node>
</osm>
