<?xml version="1.0" encoding="UTF-8"?>
<osm version="0.6" generator="osmapis">
	<node lat="58.437936108425504" lon="7.51894443798076" id="-24521">
		<tag k="junction" v="yes" />
		<tag k="name" v="Brusletta" />
		<tag k="place" v="locality" />
		<tag k="ssr:stedsnr" v="22392" />
	</node>
	<node lat="58.16520000088614" lon="7.577547213761768" id="-24569">
		<tag k="highway" v="path" />
		<tag k="name" v="Klubbestien" />
		<tag k="ssr:stedsnr" v="22943" />
	</node>
	<node lat="58.00816389285379" lon="7.536300006052927" id="-24596">
		<tag k="leisure" v="marina" />
		<tag k="name" v="Åmlandsstranda" />
		<tag k="ssr:stedsnr" v="24391" />
	</node>
	<node lat="58.10163055911348" lon="7.436502776937061" id="-24601">
		<tag k="bridge" v="yes" />
		<tag k="layer" v="1" />
		<tag k="name" v="Ronebrua" />
		<tag k="ssr:stedsnr" v="24705" />
	</node>
	<node lat="58.169577780997265" lon="7.573644449382208" id="-24706">
		<tag k="bridge" v="yes" />
		<tag k="layer" v="1" />
		<tag k="name" v="Sagbrua" />
		<tag k="ssr:stedsnr" v="46003" />
	</node>
	<node lat="58.09304722536049" lon="7.624991663741061" id="-24995">
		<tag k="junction" v="yes" />
		<tag k="name" v="Døle bru" />
		<tag k="place" v="locality" />
		<tag k="ssr:stedsnr" v="85086" />
	</node>
	<node lat="58.14698888576604" lon="7.541883338874789" id="-25017">
		<tag k="highway" v="path" />
		<tag k="name" v="Aksteveien" />
		<tag k="ssr:stedsnr" v="85877" />
	</node>
	<node lat="58.24452777367777" lon="7.5032111190194675" id="-25059">
		<tag k="bridge" v="yes" />
		<tag k="layer" v="1" />
		<tag k="name" v="Lågåna" />
		<tag k="ssr:stedsnr" v="107002" />
	</node>
	<node lat="58.06859722629611" lon="7.388086102656286" id="-25060">
		<tag k="bridge" v="yes" />
		<tag k="layer" v="1" />
		<tag k="name" v="Sjølingstad bru" />
		<tag k="ssr:stedsnr" v="107517" />
	</node>
	<node lat="58.22356666733859" lon="7.288677773981489" id="-25132">
		<tag k="highway" v="path" />
		<tag k="name" v="Steinkleiv" />
		<tag k="ssr:stedsnr" v="142305" />
	</node>
	<node lat="58.41001111515673" lon="7.524980560641136" id="-25164">
		<tag k="highway" v="path" />
		<tag k="name" v="Stien" />
		<tag k="ssr:stedsnr" v="143437" />
	</node>
	<node lat="58.1084249988898" lon="7.58508888260668" id="-25254">
		<tag k="fixme" v="consider highway=path" />
		<tag k="highway" v="track" />
		<tag k="name" v="Kleivan" />
		<tag k="ssr:stedsnr" v="145734" />
	</node>
	<node lat="57.993466667692545" lon="7.589586112679789" id="-25278">
		<tag k="man_made" v="quay" />
		<tag k="name" v="Nordstranda" />
		<tag k="place" v="locality" />
		<tag k="ssr:stedsnr" v="147630" />
	</node>
	<node lat="58.374663889111424" lon="7.474647213931517" id="-25295">
		<tag k="bridge" v="yes" />
		<tag k="layer" v="1" />
		<tag k="name" v="Mindrebø bru" />
		<tag k="ssr:stedsnr" v="168002" />
	</node>
	<node lat="58.19919722412127" lon="7.3362833293782" id="-25296">
		<tag k="bridge" v="yes" />
		<tag k="layer" v="1" />
		<tag k="name" v="Vigmostad" />
		<tag k="ssr:stedsnr" v="168463" />
	</node>
	<node lat="58.160411109121874" lon="7.372469440360999" id="-25297">
		<tag k="bridge" v="yes" />
		<tag k="layer" v="1" />
		<tag k="name" v="Libekk" />
		<tag k="ssr:stedsnr" v="168465" />
	</node>
	<node lat="58.212141670474146" lon="7.5251833293120995" id="-25391">
		<tag k="alt_name" v="Bue" />
		<tag k="bridge" v="yes" />
		<tag k="layer" v="1" />
		<tag k="name" v="Finsdal bru" />
		<tag k="ssr:stedsnr" v="265961" />
	</node>
	<node lat="58.00780555935565" lon="7.526836103461476" id="-25517">
		<tag k="leisure" v="marina" />
		<tag k="name" v="Kigestranda" />
		<tag k="ssr:stedsnr" v="267369" />
	</node>
	<node lat="58.4555777803234" lon="7.549811111937647" id="-25615">
		<tag k="ford" v="yes" />
		<tag k="name" v="Vaet" />
		<tag k="place" v="locality" />
		<tag k="ssr:stedsnr" v="204358" />
	</node>
	<node lat="58.41508888455" lon="7.5207972236317895" id="-25623">
		<tag k="fixme" v="consider highway=path" />
		<tag k="highway" v="track" />
		<tag k="name" v="Matforkleiv" />
		<tag k="ssr:stedsnr" v="204387" />
	</node>
	<node lat="58.018227780915524" lon="7.480119446914395" id="-25678">
		<tag k="man_made" v="quay" />
		<tag k="name" v="Brygga" />
		<tag k="place" v="locality" />
		<tag k="ssr:stedsnr" v="268216" />
	</node>
	<node lat="58.312352774209515" lon="7.518150008205996" id="-25806">
		<tag k="bridge" v="yes" />
		<tag k="layer" v="1" />
		<tag k="name" v="Nesset" />
		<tag k="ssr:stedsnr" v="228003" />
	</node>
	<node lat="58.45802777806937" lon="7.518886102980553" id="-26002">
		<tag k="highway" v="path" />
		<tag k="name" v="Høyvegen" />
		<tag k="ssr:stedsnr" v="265424" />
	</node>
	<node lat="58.17340555693096" lon="7.54404166824424" id="-26041">
		<tag k="fixme" v="consider highway=path" />
		<tag k="highway" v="track" />
		<tag k="name" v="Mjunskleiv" />
		<tag k="ssr:stedsnr" v="265642" />
	</node>
	<node lat="58.05157777704039" lon="7.243466672560172" id="-26171">
		<tag k="bridge" v="yes" />
		<tag k="layer" v="1" />
		<tag k="name" v="Lonestrand bru" />
		<tag k="ssr:stedsnr" v="289526" />
	</node>
	<node lat="58.029827775996914" lon="7.475955548533996" id="-26401">
		<tag k="bridge" v="yes" />
		<tag k="layer" v="1" />
		<tag k="name" v="Skinsnes" />
		<tag k="ssr:stedsnr" v="470125" />
	</node>
	<node lat="58.01919721774852" lon="7.476094442163806" id="-26402">
		<tag k="bridge" v="yes" />
		<tag k="layer" v="1" />
		<tag k="name" v="Gismerøy" />
		<tag k="ssr:stedsnr" v="470134" />
	</node>
	<node lat="58.02471944501439" lon="7.465563881770478" id="-26403">
		<tag k="bridge" v="yes" />
		<tag k="layer" v="1" />
		<tag k="name" v="Fiskåbekk kulvert" />
		<tag k="ssr:stedsnr" v="470136" />
	</node>
	<node lat="58.027233334214294" lon="7.45961111109082" id="-26404">
		<tag k="bridge" v="yes" />
		<tag k="layer" v="1" />
		<tag k="name" v="Mandal" />
		<tag k="ssr:stedsnr" v="470138" />
	</node>
	<node lat="58.270569444158255" lon="7.434616659793062" id="-26456">
		<tag k="bridge" v="yes" />
		<tag k="layer" v="1" />
		<tag k="name" v="Fidje øvre" />
		<tag k="ssr:stedsnr" v="471057" />
	</node>
	<node lat="58.10111111145539" lon="7.5354222243463855" id="-26466">
		<tag k="bridge" v="yes" />
		<tag k="layer" v="1" />
		<tag k="name" v="Nøding" />
		<tag k="ssr:stedsnr" v="348168" />
	</node>
	<node lat="58.18263332926574" lon="7.527755547637993" id="-26468">
		<tag k="bridge" v="yes" />
		<tag k="layer" v="1" />
		<tag k="name" v="Øvre Heddelandsbrua" />
		<tag k="ssr:stedsnr" v="350057" />
	</node>
	<node lat="58.199483909743044" lon="7.719689805136545" id="-26498">
		<tag k="name" v="Breland stasjon" />
		<tag k="railway" v="station" />
		<tag k="ssr:stedsnr" v="364008" />
		<tag k="train" v="yes" />
	</node>
	<node lat="58.18233055648634" lon="7.404491659447598" id="-26539">
		<tag k="bridge" v="yes" />
		<tag k="layer" v="1" />
		<tag k="name" v="Kjempebrua" />
		<tag k="ssr:stedsnr" v="385211" />
	</node>
	<node lat="58.22759166425898" lon="7.4831638834203895" id="-26774">
		<tag k="bridge" v="yes" />
		<tag k="layer" v="1" />
		<tag k="name" v="Mjunåsen" />
		<tag k="ssr:stedsnr" v="410004" />
	</node>
	<node lat="58.199630559583134" lon="7.714872227868696" id="-26775">
		<tag k="bridge" v="yes" />
		<tag k="layer" v="1" />
		<tag k="name" v="Snig" />
		<tag k="ssr:stedsnr" v="410005" />
	</node>
	<node lat="58.10385000327823" lon="7.24215555082701" id="-26776">
		<tag k="bridge" v="yes" />
		<tag k="layer" v="1" />
		<tag k="name" v="Tveiten" />
		<tag k="ssr:stedsnr" v="411443" />
	</node>
	<node lat="58.36998333380667" lon="7.474227785601834" id="-26879">
		<tag k="highway" v="path" />
		<tag k="name" v="Breistien" />
		<tag k="ssr:stedsnr" v="447147" />
	</node>
</osm>
