<?xml version="1.0" encoding="UTF-8"?>
<osm generator="osmapis" version="0.6">
	<node id="-1919" lat="59.9666749975" lon="10.668983337">
		<tag k="amenity" v="cafe" />
		<tag k="loc_name" v="Peisestuen;Peisestua" />
		<tag k="ssr:date" v="2016-09-30" />
		<tag k="ssr:gruppe" v="næring" />
		<tag k="ssr:hovedgruppe" v="bebyggelse" />
		<tag k="ssr:stedsnr" v="907790" />
		<tag k="ssr:type" v="serveringssted" />
	</node>
	<node id="-2046" lat="59.9221694414" lon="10.7476555596">
		<tag k="building" v="commercial" />
		<tag k="old_name" v="Statens teknologiske institutt;Teknologisk Institutt" />
		<tag k="ssr:date" v="2016-05-11" />
		<tag k="ssr:gruppe" v="næring" />
		<tag k="ssr:hovedgruppe" v="bebyggelse" />
		<tag k="ssr:stedsnr" v="934802" />
		<tag k="ssr:type" v="forretningsbygg" />
	</node>
	<node id="-1657" lat="59.9097916667" lon="10.7705499987">
		<tag k="amenity" v="prison" />
		<tag k="old_name" v="Botsfengselet" />
		<tag k="ssr:date" v="2016-05-11" />
		<tag k="ssr:gruppe" v="institusjoner" />
		<tag k="ssr:hovedgruppe" v="bebyggelse" />
		<tag k="ssr:stedsnr" v="691764" />
		<tag k="ssr:type" v="fengsel" />
	</node>
	<node id="-1091" lat="59.8877277799" lon="10.8053472252">
		<tag k="old_name" v="Østli" />
		<tag k="place" v="locality" />
		<tag k="ssr:date" v="2016-05-10" />
		<tag k="ssr:gruppe" v="kulturminner" />
		<tag k="ssr:hovedgruppe" v="kultur" />
		<tag k="ssr:stedsnr" v="266429" />
		<tag k="ssr:type" v="annenKulturdetalj" />
	</node>
	<node id="-1398" lat="59.9029166638" lon="10.7827027808">
		<tag k="layer" v="-1" />
		<tag k="old_name" v="Ekebergtunnelen 4" />
		<tag k="ssr:date" v="2016-05-10" />
		<tag k="ssr:gruppe" v="samferdselsanlegg" />
		<tag k="ssr:hovedgruppe" v="infrastruktur" />
		<tag k="ssr:stedsnr" v="408432" />
		<tag k="ssr:type" v="tunnel" />
		<tag k="tunnel" v="yes" />
	</node>
	<node id="-1269" lat="59.9026194436" lon="10.7821138976">
		<tag k="layer" v="-1" />
		<tag k="old_name" v="Svartdal-/Ekebergtunnelen 2" />
		<tag k="ssr:date" v="2016-05-10" />
		<tag k="ssr:gruppe" v="samferdselsanlegg" />
		<tag k="ssr:hovedgruppe" v="infrastruktur" />
		<tag k="ssr:stedsnr" v="469726" />
		<tag k="ssr:type" v="tunnel" />
		<tag k="tunnel" v="yes" />
	</node>
	<node id="-1267" lat="59.9534138849" lon="10.7592277744">
		<tag k="layer" v="-1" />
		<tag k="old_name" v="Tåsentunnelen 1" />
		<tag k="ssr:date" v="2016-05-10" />
		<tag k="ssr:gruppe" v="samferdselsanlegg" />
		<tag k="ssr:hovedgruppe" v="infrastruktur" />
		<tag k="ssr:stedsnr" v="469674" />
		<tag k="ssr:type" v="tunnel" />
		<tag k="tunnel" v="yes" />
	</node>
	<node id="-1266" lat="59.9934277803" lon="10.6614555584">
		<tag k="leisure" v="pitch" />
		<tag k="loc_name" v="Lille Hyttli" />
		<tag k="ssr:date" v="2016-05-10" />
		<tag k="ssr:gruppe" v="fritidsanlegg" />
		<tag k="ssr:hovedgruppe" v="bebyggelse" />
		<tag k="ssr:stedsnr" v="300859" />
		<tag k="ssr:type" v="idrettsanlegg" />
	</node>
	<node id="-1263" lat="59.9113611098" lon="10.7247444502">
		<tag k="layer" v="-1" />
		<tag k="old_name" v="Festningstunnelen 4" />
		<tag k="ssr:date" v="2016-05-10" />
		<tag k="ssr:gruppe" v="samferdselsanlegg" />
		<tag k="ssr:hovedgruppe" v="infrastruktur" />
		<tag k="ssr:stedsnr" v="469455" />
		<tag k="ssr:type" v="tunnel" />
		<tag k="tunnel" v="yes" />
	</node>
	<node id="-1132" lat="59.9301388847" lon="10.8428333292">
		<tag k="old_name" v="Ødegården" />
		<tag k="place" v="locality" />
		<tag k="ssr:date" v="2016-05-10" />
		<tag k="ssr:gruppe" v="kulturminner" />
		<tag k="ssr:hovedgruppe" v="kultur" />
		<tag k="ssr:stedsnr" v="266953" />
		<tag k="ssr:type" v="annenKulturdetalj" />
	</node>
	<node id="-1259" lat="59.9000166688" lon="10.7620944527">
		<tag k="layer" v="-1" />
		<tag k="old_name" v="Ekebergtunnelen 3" />
		<tag k="ssr:date" v="2016-05-10" />
		<tag k="ssr:gruppe" v="samferdselsanlegg" />
		<tag k="ssr:hovedgruppe" v="infrastruktur" />
		<tag k="ssr:stedsnr" v="469424" />
		<tag k="ssr:type" v="tunnel" />
		<tag k="tunnel" v="yes" />
	</node>
	<node id="-1423" lat="59.9113166638" lon="10.7680361098">
		<tag k="amenity" v="school" />
		<tag k="old_name" v="F. Nissens v.g. sk." />
		<tag k="ssr:date" v="2016-05-10" />
		<tag k="ssr:gruppe" v="institusjoner" />
		<tag k="ssr:hovedgruppe" v="bebyggelse" />
		<tag k="ssr:stedsnr" v="509793" />
		<tag k="ssr:type" v="skole" />
	</node>
	<node id="-1252" lat="59.9426305563" lon="10.6535055584">
		<tag k="old_name" v="England" />
		<tag k="place" v="locality" />
		<tag k="ssr:date" v="2016-05-10" />
		<tag k="ssr:gruppe" v="kulturminner" />
		<tag k="ssr:hovedgruppe" v="kultur" />
		<tag k="ssr:stedsnr" v="464884" />
		<tag k="ssr:type" v="annenKulturdetalj" />
	</node>
	<node id="-1506" lat="59.9557694446" lon="10.6549861164">
		<tag k="old_name" v="Jarbakken" />
		<tag k="place" v="locality" />
		<tag k="ssr:date" v="2016-05-10" />
		<tag k="ssr:gruppe" v="kulturminner" />
		<tag k="ssr:hovedgruppe" v="kultur" />
		<tag k="ssr:stedsnr" v="464867" />
		<tag k="ssr:type" v="annenKulturdetalj" />
	</node>
	<node id="-1121" lat="59.9608472201" lon="10.72240833">
		<tag k="old_name" v="Elverhøy" />
		<tag k="place" v="locality" />
		<tag k="ssr:date" v="2016-05-10" />
		<tag k="ssr:gruppe" v="kulturminner" />
		<tag k="ssr:hovedgruppe" v="kultur" />
		<tag k="ssr:stedsnr" v="266795" />
		<tag k="ssr:type" v="annenKulturdetalj" />
	</node>
	<node id="-1882" lat="59.9064750027" lon="10.739894449">
		<tag k="layer" v="-1" />
		<tag k="old_name" v="Festningstunnelen 1" />
		<tag k="ssr:date" v="2016-05-11" />
		<tag k="ssr:gruppe" v="samferdselsanlegg" />
		<tag k="ssr:hovedgruppe" v="infrastruktur" />
		<tag k="ssr:stedsnr" v="711426" />
		<tag k="ssr:type" v="tunnel" />
		<tag k="tunnel" v="yes" />
	</node>
	<node id="-1753" lat="59.9303777809" lon="10.6862527779">
		<tag k="old_name" v="Nordre Skøyen" />
		<tag k="place" v="locality" />
		<tag k="ssr:date" v="2016-05-11" />
		<tag k="ssr:gruppe" v="kulturminner" />
		<tag k="ssr:hovedgruppe" v="kultur" />
		<tag k="ssr:stedsnr" v="726779" />
		<tag k="ssr:type" v="annenKulturdetalj" />
	</node>
	<node id="-1877" lat="60.0212805545" lon="10.6675722193">
		<tag k="natural" v="slope" />
		<tag k="old_name" v="Slakteren" />
		<tag k="place" v="locality" />
		<tag k="ssr:date" v="2016-05-11" />
		<tag k="ssr:gruppe" v="skråninger" />
		<tag k="ssr:hovedgruppe" v="terreng" />
		<tag k="ssr:stedsnr" v="891236" />
		<tag k="ssr:type" v="bakke" />
	</node>
	<node id="-1229" lat="59.9662328536" lon="10.9234493942">
		<tag k="old_name" v="Tokerud s." />
		<tag k="place" v="farm" />
		<tag k="ssr:date" v="2020-02-05" />
		<tag k="ssr:gruppe" v="gardsbebyggelse" />
		<tag k="ssr:hovedgruppe" v="bebyggelse" />
		<tag k="ssr:stedsnr" v="448956" />
		<tag k="ssr:type" v="bruk" />
	</node>
	<node id="-1864" lat="59.9517194447" lon="10.6355333374">
		<tag k="old_name" v="Svingen" />
		<tag k="place" v="locality" />
		<tag k="ssr:date" v="2016-05-11" />
		<tag k="ssr:gruppe" v="kulturminner" />
		<tag k="ssr:hovedgruppe" v="kultur" />
		<tag k="ssr:stedsnr" v="889856" />
		<tag k="ssr:type" v="annenKulturdetalj" />
	</node>
	<node id="-1606" lat="59.9458944428" lon="10.8062916675">
		<tag k="old_name" v="Østvangen" />
		<tag k="place" v="locality" />
		<tag k="ssr:date" v="2016-05-10" />
		<tag k="ssr:gruppe" v="kulturminner" />
		<tag k="ssr:hovedgruppe" v="kultur" />
		<tag k="ssr:stedsnr" v="509726" />
		<tag k="ssr:type" v="annenKulturdetalj" />
	</node>
	<node id="-1270" lat="59.9024138911" lon="10.7824805616">
		<tag k="layer" v="-1" />
		<tag k="old_name" v="Svartdal 6" />
		<tag k="ssr:date" v="2016-05-10" />
		<tag k="ssr:gruppe" v="samferdselsanlegg" />
		<tag k="ssr:hovedgruppe" v="infrastruktur" />
		<tag k="ssr:stedsnr" v="469728" />
		<tag k="ssr:type" v="tunnel" />
		<tag k="tunnel" v="yes" />
	</node>
	<node id="-2112" lat="59.9159250034" lon="10.8630694482">
		<tag k="old_name" v="Larsbråten" />
		<tag k="place" v="locality" />
		<tag k="ssr:date" v="2016-05-11" />
		<tag k="ssr:gruppe" v="kulturminner" />
		<tag k="ssr:hovedgruppe" v="kultur" />
		<tag k="ssr:stedsnr" v="873964" />
		<tag k="ssr:type" v="annenKulturdetalj" />
	</node>
	<node id="-2111" lat="59.9204999991" lon="10.846175002">
		<tag k="old_name" v="Luren" />
		<tag k="place" v="locality" />
		<tag k="ssr:date" v="2016-05-11" />
		<tag k="ssr:gruppe" v="kulturminner" />
		<tag k="ssr:hovedgruppe" v="kultur" />
		<tag k="ssr:stedsnr" v="873955" />
		<tag k="ssr:type" v="annenKulturdetalj" />
	</node>
	<node id="-1397" lat="59.9029611127" lon="10.7821416662">
		<tag k="layer" v="-1" />
		<tag k="old_name" v="Ekebergtunnelen 5" />
		<tag k="ssr:date" v="2016-05-10" />
		<tag k="ssr:gruppe" v="samferdselsanlegg" />
		<tag k="ssr:hovedgruppe" v="infrastruktur" />
		<tag k="ssr:stedsnr" v="408430" />
		<tag k="ssr:type" v="tunnel" />
		<tag k="tunnel" v="yes" />
	</node>
	<node id="-1707" lat="59.9424861123" lon="10.6406999944">
		<tag k="old_name" v="N. Ødegården" />
		<tag k="place" v="locality" />
		<tag k="ssr:date" v="2016-05-10" />
		<tag k="ssr:gruppe" v="kulturminner" />
		<tag k="ssr:hovedgruppe" v="kultur" />
		<tag k="ssr:stedsnr" v="585876" />
		<tag k="ssr:type" v="annenKulturdetalj" />
	</node>
	<node id="-1974" lat="59.9884972249" lon="10.6855166665">
		<tag k="leisure" v="pitch" />
		<tag k="old_name" v="Heggehullet" />
		<tag k="ssr:date" v="2016-05-11" />
		<tag k="ssr:gruppe" v="fritidsanlegg" />
		<tag k="ssr:hovedgruppe" v="bebyggelse" />
		<tag k="ssr:stedsnr" v="786834" />
		<tag k="ssr:type" v="idrettsanlegg" />
	</node>
	<node id="-2185" lat="59.9238916701" lon="10.861944445">
		<tag k="loc_name" v="Haugerud" />
		<tag k="place" v="locality" />
		<tag k="ssr:date" v="2016-05-11" />
		<tag k="ssr:gruppe" v="kulturminner" />
		<tag k="ssr:hovedgruppe" v="kultur" />
		<tag k="ssr:stedsnr" v="935627" />
		<tag k="ssr:type" v="annenKulturdetalj" />
	</node>
	<node id="-1713" lat="59.9082888932" lon="10.7551305586">
		<tag k="bridge" v="yes" />
		<tag k="layer" v="1" />
		<tag k="old_name" v="Bispelokket, Ramped-ned mot Festningstun" />
		<tag k="ssr:date" v="2016-05-11" />
		<tag k="ssr:gruppe" v="samferdselsanlegg" />
		<tag k="ssr:hovedgruppe" v="infrastruktur" />
		<tag k="ssr:stedsnr" v="714876" />
		<tag k="ssr:type" v="bru" />
	</node>
	<node id="-943" lat="59.9013833293" lon="10.7842222283">
		<tag k="layer" v="-1" />
		<tag k="old_name" v="Svartdal 8" />
		<tag k="ssr:date" v="2016-05-10" />
		<tag k="ssr:gruppe" v="samferdselsanlegg" />
		<tag k="ssr:hovedgruppe" v="infrastruktur" />
		<tag k="ssr:stedsnr" v="44712" />
		<tag k="ssr:type" v="tunnel" />
		<tag k="tunnel" v="yes" />
	</node>
	<node id="-2201" lat="59.9791060649" lon="10.8671125679">
		<tag k="loc_name" v="Breisjøbekken" />
		<tag k="ssr:date" v="2018-06-27" />
		<tag k="ssr:gruppe" v="rennendeVann" />
		<tag k="ssr:hovedgruppe" v="ferskvann" />
		<tag k="ssr:stedsnr" v="985451" />
		<tag k="ssr:type" v="bekk" />
		<tag k="waterway" v="stream" />
	</node>
	<node id="-1835" lat="59.9500138853" lon="10.6497750066">
		<tag k="old_name" v="Meklenborg" />
		<tag k="place" v="locality" />
		<tag k="ssr:date" v="2016-05-10" />
		<tag k="ssr:gruppe" v="kulturminner" />
		<tag k="ssr:hovedgruppe" v="kultur" />
		<tag k="ssr:stedsnr" v="646855" />
		<tag k="ssr:type" v="annenKulturdetalj" />
	</node>
	<node id="-1063" lat="59.9207361104" lon="10.83380834">
		<tag k="old_name" v="Østre Alna" />
		<tag k="place" v="locality" />
		<tag k="ssr:date" v="2016-05-10" />
		<tag k="ssr:gruppe" v="kulturminner" />
		<tag k="ssr:hovedgruppe" v="kultur" />
		<tag k="ssr:stedsnr" v="84973" />
		<tag k="ssr:type" v="annenKulturdetalj" />
	</node>
	<node id="-1062" lat="59.9624083308" lon="10.9253888817">
		<tag k="old_name" v="Tokerud ø." />
		<tag k="place" v="locality" />
		<tag k="ssr:date" v="2016-05-10" />
		<tag k="ssr:gruppe" v="kulturminner" />
		<tag k="ssr:hovedgruppe" v="kultur" />
		<tag k="ssr:stedsnr" v="84959" />
		<tag k="ssr:type" v="annenKulturdetalj" />
	</node>
	<node id="-1881" lat="59.901191667" lon="10.7805055585">
		<tag k="layer" v="-1" />
		<tag k="old_name" v="Svartdal 3" />
		<tag k="ssr:date" v="2016-05-11" />
		<tag k="ssr:gruppe" v="samferdselsanlegg" />
		<tag k="ssr:hovedgruppe" v="infrastruktur" />
		<tag k="ssr:stedsnr" v="893693" />
		<tag k="ssr:type" v="tunnel" />
		<tag k="tunnel" v="yes" />
	</node>
	<node id="-929" lat="59.9267250014" lon="10.8262027725">
		<tag k="old_name" v="Haraldrud" />
		<tag k="place" v="locality" />
		<tag k="ssr:date" v="2016-05-10" />
		<tag k="ssr:gruppe" v="kulturminner" />
		<tag k="ssr:hovedgruppe" v="kultur" />
		<tag k="ssr:stedsnr" v="23812" />
		<tag k="ssr:type" v="annenKulturdetalj" />
	</node>
	<node id="-1693" lat="59.9432277768" lon="10.6531611081">
		<tag k="old_name" v="London" />
		<tag k="place" v="locality" />
		<tag k="ssr:date" v="2016-05-11" />
		<tag k="ssr:gruppe" v="kulturminner" />
		<tag k="ssr:hovedgruppe" v="kultur" />
		<tag k="ssr:stedsnr" v="707871" />
		<tag k="ssr:type" v="annenKulturdetalj" />
	</node>
	<node id="-1436" lat="59.9282638856" lon="10.8223583392">
		<tag k="old_name" v="Nylenda" />
		<tag k="place" v="locality" />
		<tag k="ssr:date" v="2016-05-10" />
		<tag k="ssr:gruppe" v="kulturminner" />
		<tag k="ssr:hovedgruppe" v="kultur" />
		<tag k="ssr:stedsnr" v="509951" />
		<tag k="ssr:type" v="annenKulturdetalj" />
	</node>
	<node id="-1690" lat="59.9437250023" lon="10.6889527726">
		<tag k="old_name" v="Giskehagen" />
		<tag k="place" v="locality" />
		<tag k="ssr:date" v="2016-05-11" />
		<tag k="ssr:gruppe" v="kulturminner" />
		<tag k="ssr:hovedgruppe" v="kultur" />
		<tag k="ssr:stedsnr" v="707852" />
		<tag k="ssr:type" v="annenKulturdetalj" />
	</node>
	<node id="-921" lat="59.9018361097" lon="10.7812833373">
		<tag k="layer" v="-1" />
		<tag k="old_name" v="Svartdal 1" />
		<tag k="ssr:date" v="2016-05-10" />
		<tag k="ssr:gruppe" v="samferdselsanlegg" />
		<tag k="ssr:hovedgruppe" v="infrastruktur" />
		<tag k="ssr:stedsnr" v="225715" />
		<tag k="ssr:type" v="tunnel" />
		<tag k="tunnel" v="yes" />
	</node>
	<node id="-1688" lat="59.9403083302" lon="10.6724194415">
		<tag k="old_name" v="Gjetebråten" />
		<tag k="place" v="locality" />
		<tag k="ssr:date" v="2016-05-11" />
		<tag k="ssr:gruppe" v="kulturminner" />
		<tag k="ssr:hovedgruppe" v="kultur" />
		<tag k="ssr:stedsnr" v="707845" />
		<tag k="ssr:type" v="annenKulturdetalj" />
	</node>
	<node id="-1303" lat="59.9845583313" lon="10.6695777815">
		<tag k="man_made" v="tower" />
		<tag k="old_name" v="Tryvann radio" />
		<tag k="ssr:date" v="2016-05-10" />
		<tag k="ssr:gruppe" v="kommunikasjon" />
		<tag k="ssr:hovedgruppe" v="infrastruktur" />
		<tag k="ssr:stedsnr" v="482828" />
		<tag k="ssr:type" v="tV-Radio-EllerMobiltelefontårn" />
		<tag k="tower:type" v="communications" />
	</node>
	<node id="-2197" lat="59.9141632026" lon="10.7174956311">
		<tag k="loc_name" v="Nasjonalbiblioteket" />
		<tag k="ssr:date" v="2017-12-07" />
		<tag k="ssr:gruppe" v="kulturinstitusjoner" />
		<tag k="ssr:hovedgruppe" v="kultur" />
		<tag k="ssr:stedsnr" v="980778" />
		<tag k="ssr:type" v="museumGalleriBibliotek" />
		<tag k="tourism" v="museum" />
	</node>
	<node id="-1689" lat="59.9509444463" lon="10.6587916662">
		<tag k="old_name" v="Frantsebråten" />
		<tag k="place" v="locality" />
		<tag k="ssr:date" v="2016-05-11" />
		<tag k="ssr:gruppe" v="kulturminner" />
		<tag k="ssr:hovedgruppe" v="kultur" />
		<tag k="ssr:stedsnr" v="707848" />
		<tag k="ssr:type" v="annenKulturdetalj" />
	</node>
	<node id="-1169" lat="59.9011305514" lon="10.784505553">
		<tag k="layer" v="-1" />
		<tag k="old_name" v="Svartdal 4" />
		<tag k="ssr:date" v="2016-05-10" />
		<tag k="ssr:gruppe" v="samferdselsanlegg" />
		<tag k="ssr:hovedgruppe" v="infrastruktur" />
		<tag k="ssr:stedsnr" v="286735" />
		<tag k="ssr:type" v="tunnel" />
		<tag k="tunnel" v="yes" />
	</node>
	<node id="-2200" lat="59.9636263533" lon="10.8804121487">
		<tag k="loc_name" v="Grorudbekken" />
		<tag k="ssr:date" v="2018-06-21" />
		<tag k="ssr:gruppe" v="rennendeVann" />
		<tag k="ssr:hovedgruppe" v="ferskvann" />
		<tag k="ssr:stedsnr" v="985082" />
		<tag k="ssr:type" v="bekk" />
		<tag k="waterway" v="stream" />
	</node>
	<node id="-910" lat="59.9546333336" lon="10.698497226">
		<tag k="leisure" v="pitch" />
		<tag k="loc_name" v="Hemingbanen" />
		<tag k="ssr:date" v="2016-05-10" />
		<tag k="ssr:gruppe" v="fritidsanlegg" />
		<tag k="ssr:hovedgruppe" v="bebyggelse" />
		<tag k="ssr:stedsnr" v="222756" />
		<tag k="ssr:type" v="idrettsanlegg" />
	</node>
	<node id="-2060" lat="59.9117916638" lon="10.7269277695">
		<tag k="layer" v="-1" />
		<tag k="old_name" v="Festningstunnelen 3" />
		<tag k="ssr:date" v="2016-05-11" />
		<tag k="ssr:gruppe" v="samferdselsanlegg" />
		<tag k="ssr:hovedgruppe" v="infrastruktur" />
		<tag k="ssr:stedsnr" v="833422" />
		<tag k="ssr:type" v="tunnel" />
		<tag k="tunnel" v="yes" />
	</node>
	<node id="-2199" lat="59.9668430976" lon="10.8603800326">
		<tag k="loc_name" v="Alunsjøbekken" />
		<tag k="ssr:date" v="2018-06-21" />
		<tag k="ssr:gruppe" v="rennendeVann" />
		<tag k="ssr:hovedgruppe" v="ferskvann" />
		<tag k="ssr:stedsnr" v="985081" />
		<tag k="ssr:type" v="bekk" />
		<tag k="waterway" v="stream" />
	</node>
	<node id="-1669" lat="59.9539777798" lon="10.9007666711">
		<tag k="old_name" v="Sannerud" />
		<tag k="place" v="locality" />
		<tag k="ssr:date" v="2016-05-11" />
		<tag k="ssr:gruppe" v="kulturminner" />
		<tag k="ssr:hovedgruppe" v="kultur" />
		<tag k="ssr:stedsnr" v="691924" />
		<tag k="ssr:type" v="annenKulturdetalj" />
	</node>
	<node id="-1154" lat="59.9432027782" lon="10.634936106">
		<tag k="old_name" v="Holtet" />
		<tag k="place" v="locality" />
		<tag k="ssr:date" v="2016-05-10" />
		<tag k="ssr:gruppe" v="kulturminner" />
		<tag k="ssr:hovedgruppe" v="kultur" />
		<tag k="ssr:stedsnr" v="282868" />
		<tag k="ssr:type" v="annenKulturdetalj" />
	</node>
	<node id="-2049" lat="59.922449999" lon="10.8619638854">
		<tag k="old_name" v="Nordvoll" />
		<tag k="place" v="locality" />
		<tag k="ssr:date" v="2016-05-11" />
		<tag k="ssr:gruppe" v="kulturminner" />
		<tag k="ssr:hovedgruppe" v="kultur" />
		<tag k="ssr:stedsnr" v="934955" />
		<tag k="ssr:type" v="annenKulturdetalj" />
	</node>
</osm>
