<?xml version="1.0" encoding="UTF-8"?>
<osm version="0.6" generator="osmapis">
	<node id="21651172" lat="68.4681719" lon="15.8936152" version="13" timestamp="2022-01-26T06:22:04Z" changeset="116610177" uid="3497659" user="NKA">
		<tag k="junction" v="yes" />
		<tag k="name" v="Kanstadkrysset" />
		<tag k="ssr:stedsnr" v="1081921" />
	</node>
	<node id="205404382" lat="68.4104652" lon="15.9901966" version="7" timestamp="2022-07-04T05:04:06Z" changeset="123171353" uid="3497659" user="NKA">
		<tag k="loc_name:se" v="Lodek;Lodegak" />
		<tag k="name" v="Lødingen" />
		<tag k="name:no" v="Lødingen" />
		<tag k="place" v="village" />
		<tag k="population" v="1613" />
		<tag k="population:date" v="2021-01-01" />
		<tag k="ref:ssb_tettsted" v="7731" />
		<tag k="source:population" v="SSB - befolkning i tettstedet" />
		<tag k="ssr:stedsnr" v="502257" />
	</node>
	<node id="764620821" lat="68.3671511" lon="15.7149093" version="3" timestamp="2022-07-04T05:04:06Z" changeset="123171353" uid="3497659" user="NKA">
		<tag k="alt_name:no" v="Rinbø" />
		<tag k="name" v="Rindbø - Rinbiddja" />
		<tag k="name:no" v="Rindbø" />
		<tag k="name:se" v="Rinbiddja" />
		<tag k="place" v="hamlet" />
		<tag k="ssr:stedsnr" v="502334" />
	</node>
	<node id="764622492" lat="68.4026556" lon="15.4179473" version="2" timestamp="2022-07-04T05:04:06Z" changeset="123171353" uid="3497659" user="NKA">
		<tag k="name" v="Forneset" />
		<tag k="place" v="farm" />
		<tag k="ssr:stedsnr" v="199844" />
	</node>
	<node id="764624339" lat="68.3101691" lon="15.642127" version="6" timestamp="2022-07-04T05:04:06Z" changeset="123171353" uid="3497659" user="NKA">
		<tag k="alt_name" v="Offersøy" />
		<tag k="name" v="Offersøya" />
		<tag k="place" v="hamlet" />
		<tag k="ssr:stedsnr" v="320356" />
	</node>
	<node id="1585014989" lat="68.3759825" lon="15.7521379" version="2" timestamp="2022-07-04T05:04:06Z" changeset="123171353" uid="3497659" user="NKA">
		<tag k="name" v="Kattberget" />
		<tag k="place" v="locality" />
		<tag k="ssr:stedsnr" v="446636" />
	</node>
	<node id="1585039012" lat="68.3192691" lon="15.6429543" version="2" timestamp="2022-07-04T05:04:06Z" changeset="123171353" uid="3497659" user="NKA">
		<tag k="name" v="Nygård" />
		<tag k="place" v="farm" />
		<tag k="ssr:stedsnr" v="17395" />
	</node>
	<node id="1585039062" lat="68.3158832" lon="15.621138" version="2" timestamp="2022-07-04T05:04:06Z" changeset="123171353" uid="3497659" user="NKA">
		<tag k="name" v="Sjøvoll" />
		<tag k="place" v="hamlet" />
		<tag k="ssr:stedsnr" v="320367" />
	</node>
	<node id="1585039068" lat="68.316724" lon="15.6536143" version="2" timestamp="2022-07-04T05:04:06Z" changeset="123171353" uid="3497659" user="NKA">
		<tag k="alt_name" v="Stranda" />
		<tag k="name" v="Skarpstrand" />
		<tag k="place" v="hamlet" />
		<tag k="ssr:stedsnr" v="806352" />
	</node>
	<node id="1585039179" lat="68.3213509" lon="15.5816272" version="2" timestamp="2022-07-04T05:04:06Z" changeset="123171353" uid="3497659" user="NKA">
		<tag k="name" v="Vestøy" />
		<tag k="place" v="farm" />
		<tag k="ssr:stedsnr" v="138031" />
	</node>
	<node id="1585052386" lat="68.3333858" lon="15.5826447" version="2" timestamp="2022-07-04T05:04:06Z" changeset="123171353" uid="3497659" user="NKA">
		<tag k="alt_name" v="Heggstad" />
		<tag k="name" v="Hegstad" />
		<tag k="place" v="hamlet" />
		<tag k="ssr:stedsnr" v="441948" />
	</node>
	<node id="2524599616" lat="68.4270266" lon="15.4297324" version="2" timestamp="2022-07-04T05:04:06Z" changeset="123171353" uid="3497659" user="NKA">
		<tag k="name" v="Bjerknes" />
		<tag k="place" v="farm" />
		<tag k="ssr:stedsnr" v="199773" />
	</node>
	<node id="3376163127" lat="68.4501812" lon="16.0135043" version="2" timestamp="2022-07-04T05:04:06Z" changeset="123171353" uid="3497659" user="NKA">
		<tag k="name" v="Kåringen" />
		<tag k="place" v="isolated_dwelling" />
		<tag k="ssr:stedsnr" v="320205" />
	</node>
	<node id="3376177551" lat="68.4661848" lon="15.8884858" version="2" timestamp="2022-07-04T05:04:06Z" changeset="123171353" uid="3497659" user="NKA">
		<tag k="name" v="Kanstad - Gánas" />
		<tag k="name:no" v="Kanstad" />
		<tag k="name:se" v="Gánas" />
		<tag k="place" v="farm" />
		<tag k="ssr:stedsnr" v="989409" />
	</node>
	<node id="5303563819" lat="68.441642" lon="16.0072477" version="2" timestamp="2022-01-26T06:22:04Z" changeset="116610177" uid="3497659" user="NKA">
		<tag k="junction" v="yes" />
		<tag k="name" v="Kåringskrysset" />
		<tag k="ssr:stedsnr" v="570455" />
	</node>
	<node id="9780863769" lat="68.3718066" lon="15.2392593" version="2" timestamp="2022-07-04T05:04:06Z" changeset="123171353" uid="3497659" user="NKA">
		<tag k="name" v="Kvannkjosen" />
		<tag k="place" v="hamlet" />
		<tag k="ssr:stedsnr" v="684942" />
	</node>
	<node id="9844779212" lat="68.4821949" lon="15.4132073" version="1" timestamp="2022-06-24T18:34:38Z" changeset="122814165" uid="3497659" user="NKA">
		<tag k="name" v="Møysalen statsgrunn" />
		<tag k="place" v="locality" />
		<tag k="ssr:stedsnr" v="1080503" />
	</node>
	<node id="9864979595" lat="68.3371722" lon="15.6589862" version="1" timestamp="2022-07-04T05:04:06Z" changeset="123171353" uid="3497659" user="NKA">
		<tag k="name" v="Oppheim" />
		<tag k="place" v="farm" />
		<tag k="ssr:stedsnr" v="282703" />
	</node>
	<node id="9864979596" lat="68.4656445" lon="15.5389556" version="1" timestamp="2022-07-04T05:04:06Z" changeset="123171353" uid="3497659" user="NKA">
		<tag k="name" v="Brynnelslåttene" />
		<tag k="place" v="locality" />
		<tag k="ssr:stedsnr" v="563776" />
	</node>
	<node id="9864979597" lat="68.3212972" lon="15.6047223" version="1" timestamp="2022-07-04T05:04:06Z" changeset="123171353" uid="3497659" user="NKA">
		<tag k="name" v="Valstad" />
		<tag k="place" v="farm" />
		<tag k="ssr:stedsnr" v="562020" />
	</node>
	<node id="9864979598" lat="68.3145101" lon="15.6503978" version="1" timestamp="2022-07-04T05:04:06Z" changeset="123171353" uid="3497659" user="NKA">
		<tag k="name" v="Viklund" />
		<tag k="place" v="farm" />
		<tag k="ssr:stedsnr" v="282238" />
	</node>
	<node id="9864979599" lat="68.3563027" lon="15.4205333" version="1" timestamp="2022-07-04T05:04:06Z" changeset="123171353" uid="3497659" user="NKA">
		<tag k="name" v="Daleng" />
		<tag k="place" v="farm" />
		<tag k="ssr:stedsnr" v="692839" />
	</node>
	<node id="9864979600" lat="68.3452786" lon="15.6840647" version="1" timestamp="2022-07-04T05:04:06Z" changeset="123171353" uid="3497659" user="NKA">
		<tag k="alt_name" v="Lyngmo" />
		<tag k="name" v="Lyngmoen" />
		<tag k="place" v="farm" />
		<tag k="ssr:stedsnr" v="320328" />
	</node>
	<node id="9864979601" lat="68.3077632" lon="15.6316548" version="1" timestamp="2022-07-04T05:04:06Z" changeset="123171353" uid="3497659" user="NKA">
		<tag k="name" v="Hanskjellvik" />
		<tag k="place" v="farm" />
		<tag k="ssr:stedsnr" v="223425" />
	</node>
	<node id="9864979602" lat="68.32045" lon="15.648389" version="1" timestamp="2022-07-04T05:04:06Z" changeset="123171353" uid="3497659" user="NKA">
		<tag k="name" v="Nordøy" />
		<tag k="place" v="farm" />
		<tag k="ssr:stedsnr" v="160217" />
	</node>
	<node id="9864979603" lat="68.416075" lon="15.7566722" version="1" timestamp="2022-07-04T05:04:06Z" changeset="123171353" uid="3497659" user="NKA">
		<tag k="name" v="Skovro" />
		<tag k="place" v="farm" />
		<tag k="ssr:stedsnr" v="221603" />
	</node>
	<node id="9864979604" lat="68.4120445" lon="15.9925528" version="1" timestamp="2022-07-04T05:04:06Z" changeset="123171353" uid="3497659" user="NKA">
		<tag k="name" v="Lådik" />
		<tag k="place" v="neighbourhood" />
		<tag k="ssr:stedsnr" v="287728" />
	</node>
	<node id="9864979605" lat="68.4126417" lon="15.9919001" version="1" timestamp="2022-07-04T05:04:06Z" changeset="123171353" uid="3497659" user="NKA">
		<tag k="name" v="Skaret" />
		<tag k="place" v="neighbourhood" />
		<tag k="ssr:stedsnr" v="142668" />
	</node>
	<node id="9864979606" lat="68.4697916" lon="16.0730861" version="1" timestamp="2022-07-04T05:04:06Z" changeset="123171353" uid="3497659" user="NKA">
		<tag k="name" v="Skoglund" />
		<tag k="place" v="farm" />
		<tag k="ssr:stedsnr" v="85708" />
	</node>
	<node id="9864979607" lat="68.4559884" lon="15.4889207" version="1" timestamp="2022-07-04T05:04:06Z" changeset="123171353" uid="3497659" user="NKA">
		<tag k="name" v="Sommarset" />
		<tag k="place" v="farm" />
		<tag k="ssr:stedsnr" v="1076398" />
	</node>
	<node id="9864979608" lat="68.3561577" lon="15.3896559" version="1" timestamp="2022-07-04T05:04:06Z" changeset="123171353" uid="3497659" user="NKA">
		<tag k="name" v="Fredvang" />
		<tag k="place" v="farm" />
		<tag k="ssr:stedsnr" v="461321" />
	</node>
	<node id="9864979609" lat="68.3385264" lon="15.5559468" version="1" timestamp="2022-07-04T05:04:06Z" changeset="123171353" uid="3497659" user="NKA">
		<tag k="name" v="Høgset" />
		<tag k="place" v="farm" />
		<tag k="ssr:stedsnr" v="623945" />
	</node>
	<node id="9864979610" lat="68.349252" lon="15.4708262" version="1" timestamp="2022-07-04T05:04:06Z" changeset="123171353" uid="3497659" user="NKA">
		<tag k="name" v="Engan" />
		<tag k="place" v="farm" />
		<tag k="ssr:stedsnr" v="623999" />
	</node>
	<node id="9864979611" lat="68.4547847" lon="15.8723259" version="1" timestamp="2022-07-04T05:04:06Z" changeset="123171353" uid="3497659" user="NKA">
		<tag k="name" v="Lømo" />
		<tag k="place" v="farm" />
		<tag k="ssr:stedsnr" v="805152" />
	</node>
	<node id="9864979612" lat="68.3400428" lon="15.5334765" version="1" timestamp="2022-07-04T05:04:06Z" changeset="123171353" uid="3497659" user="NKA">
		<tag k="name" v="Høyvågen" />
		<tag k="place" v="farm" />
		<tag k="ssr:stedsnr" v="623960" />
	</node>
	<node id="9864979613" lat="68.3352763" lon="15.6671173" version="1" timestamp="2022-07-04T05:04:06Z" changeset="123171353" uid="3497659" user="NKA">
		<tag k="name" v="Ytterstad - Ihtterstáddi" />
		<tag k="name:no" v="Ytterstad" />
		<tag k="name:se" v="Ihtterstáddi" />
		<tag k="place" v="farm" />
		<tag k="ssr:stedsnr" v="39657" />
	</node>
	<node id="9864979614" lat="68.352626" lon="15.3831416" version="1" timestamp="2022-07-04T05:04:06Z" changeset="123171353" uid="3497659" user="NKA">
		<tag k="alt_name" v="Naustvik" />
		<tag k="name" v="Naustvika" />
		<tag k="place" v="hamlet" />
		<tag k="ssr:stedsnr" v="442988" />
	</node>
	<node id="9864979615" lat="68.4394889" lon="16.004339" version="1" timestamp="2022-07-04T05:04:06Z" changeset="123171353" uid="3497659" user="NKA">
		<tag k="name" v="Nyheim" />
		<tag k="place" v="farm" />
		<tag k="ssr:stedsnr" v="450766" />
	</node>
	<node id="9864979616" lat="68.3212449" lon="15.6291054" version="1" timestamp="2022-07-04T05:04:06Z" changeset="123171353" uid="3497659" user="NKA">
		<tag k="name" v="Valnes" />
		<tag k="place" v="farm" />
		<tag k="ssr:stedsnr" v="21738" />
	</node>
	<node id="9864996617" lat="68.4627445" lon="16.0397416" version="1" timestamp="2022-07-04T05:04:06Z" changeset="123171353" uid="3497659" user="NKA">
		<tag k="alt_name" v="Nybrot" />
		<tag k="name" v="Nybrott" />
		<tag k="place" v="farm" />
		<tag k="ssr:stedsnr" v="562168" />
	</node>
	<node id="9864996618" lat="68.3227361" lon="15.5989861" version="1" timestamp="2022-07-04T05:04:06Z" changeset="123171353" uid="3497659" user="NKA">
		<tag k="name" v="Grønvoll" />
		<tag k="place" v="farm" />
		<tag k="ssr:stedsnr" v="380008" />
	</node>
	<node id="9864996619" lat="68.3649456" lon="15.335584" version="1" timestamp="2022-07-04T05:04:06Z" changeset="123171353" uid="3497659" user="NKA">
		<tag k="name" v="Øyneset" />
		<tag k="old_name" v="Øines" />
		<tag k="place" v="farm" />
		<tag k="ssr:stedsnr" v="303289" />
	</node>
	<node id="9864996620" lat="68.4618833" lon="16.0334528" version="1" timestamp="2022-07-04T05:04:06Z" changeset="123171353" uid="3497659" user="NKA">
		<tag k="name" v="Solstad" />
		<tag k="place" v="farm" />
		<tag k="ssr:stedsnr" v="874739" />
	</node>
	<node id="9864996621" lat="68.4621" lon="16.0298806" version="1" timestamp="2022-07-04T05:04:06Z" changeset="123171353" uid="3497659" user="NKA">
		<tag k="name" v="Lundli" />
		<tag k="place" v="hamlet" />
		<tag k="ssr:stedsnr" v="78175" />
	</node>
	<node id="9864996622" lat="68.4006765" lon="15.3472199" version="1" timestamp="2022-07-04T05:04:06Z" changeset="123171353" uid="3497659" user="NKA">
		<tag k="name" v="Svartskaret" />
		<tag k="place" v="farm" />
		<tag k="ssr:stedsnr" v="1076397" />
	</node>
	<node id="9864996623" lat="68.4367195" lon="16.0047027" version="1" timestamp="2022-07-04T05:04:06Z" changeset="123171353" uid="3497659" user="NKA">
		<tag k="name" v="Fjellheim" />
		<tag k="place" v="farm" />
		<tag k="ssr:stedsnr" v="78249" />
	</node>
	<node id="9864996624" lat="68.494588" lon="16.0933118" version="1" timestamp="2022-07-04T05:04:06Z" changeset="123171353" uid="3497659" user="NKA">
		<tag k="name" v="Djupfest" />
		<tag k="place" v="farm" />
		<tag k="ssr:stedsnr" v="381152" />
	</node>
	<node id="9864996625" lat="68.4506389" lon="15.8958945" version="1" timestamp="2022-07-04T05:04:06Z" changeset="123171353" uid="3497659" user="NKA">
		<tag k="name" v="Brattland" />
		<tag k="place" v="farm" />
		<tag k="ssr:stedsnr" v="380189" />
	</node>
	<node id="9864996626" lat="68.3573586" lon="15.2524533" version="1" timestamp="2022-07-04T05:04:06Z" changeset="123171353" uid="3497659" user="NKA">
		<tag k="name" v="Hamnes" />
		<tag k="place" v="farm" />
		<tag k="ssr:stedsnr" v="562881" />
	</node>
	<node id="9864996627" lat="68.4700611" lon="15.5476473" version="1" timestamp="2022-07-04T05:04:06Z" changeset="123171353" uid="3497659" user="NKA">
		<tag k="name" v="Rørneset" />
		<tag k="place" v="isolated_dwelling" />
		<tag k="ssr:stedsnr" v="806772" />
	</node>
	<node id="9864996628" lat="68.334814" lon="15.5264361" version="1" timestamp="2022-07-04T05:04:06Z" changeset="123171353" uid="3497659" user="NKA">
		<tag k="name" v="Hopaslåtta" />
		<tag k="place" v="locality" />
		<tag k="ssr:stedsnr" v="204602" />
	</node>
	<node id="9864996629" lat="68.3462402" lon="15.3543354" version="1" timestamp="2022-07-04T05:04:06Z" changeset="123171353" uid="3497659" user="NKA">
		<tag k="alt_name" v="Kålsvik" />
		<tag k="name" v="Kolsvik" />
		<tag k="place" v="farm" />
		<tag k="ssr:stedsnr" v="867968" />
	</node>
	<node id="9864996630" lat="68.3850298" lon="15.8724465" version="1" timestamp="2022-07-04T05:04:06Z" changeset="123171353" uid="3497659" user="NKA">
		<tag k="name" v="Buktvika" />
		<tag k="place" v="farm" />
		<tag k="ssr:stedsnr" v="806304" />
	</node>
	<node id="9864996631" lat="68.5056306" lon="16.0974861" version="1" timestamp="2022-07-04T05:04:06Z" changeset="123171353" uid="3497659" user="NKA">
		<tag k="name" v="Beretheimen" />
		<tag k="place" v="farm" />
		<tag k="ssr:stedsnr" v="510977" />
	</node>
	<node id="9864996632" lat="68.4625611" lon="15.8972445" version="1" timestamp="2022-07-04T05:04:06Z" changeset="123171353" uid="3497659" user="NKA">
		<tag k="name" v="Harkeneset" />
		<tag k="place" v="farm" />
		<tag k="ssr:stedsnr" v="157416" />
	</node>
	<node id="9864996633" lat="68.4726704" lon="16.0743464" version="1" timestamp="2022-07-04T05:04:06Z" changeset="123171353" uid="3497659" user="NKA">
		<tag k="name" v="Berg" />
		<tag k="place" v="hamlet" />
		<tag k="ssr:stedsnr" v="78160" />
	</node>
	<node id="9864996634" lat="68.4337638" lon="15.8435081" version="1" timestamp="2022-07-04T05:04:06Z" changeset="123171353" uid="3497659" user="NKA">
		<tag k="name" v="Bukta" />
		<tag k="place" v="hamlet" />
		<tag k="ssr:stedsnr" v="17264" />
	</node>
	<node id="9864996635" lat="68.4382817" lon="15.5013216" version="1" timestamp="2022-07-04T05:04:06Z" changeset="123171353" uid="3497659" user="NKA">
		<tag k="name" v="Husjorda" />
		<tag k="place" v="hamlet" />
		<tag k="ssr:stedsnr" v="17795" />
	</node>
	<node id="9864996636" lat="68.3631922" lon="15.5098056" version="1" timestamp="2022-07-04T05:04:06Z" changeset="123171353" uid="3497659" user="NKA">
		<tag k="name" v="Kyllingstad" />
		<tag k="place" v="locality" />
		<tag k="ssr:stedsnr" v="142649" />
	</node>
	<node id="9864996637" lat="68.4636223" lon="15.8824694" version="1" timestamp="2022-07-04T05:04:06Z" changeset="123171353" uid="3497659" user="NKA">
		<tag k="alt_name" v="Kanstad, vestre;Kanstad vestre" />
		<tag k="name" v="Vestre Kanstad" />
		<tag k="place" v="hamlet" />
		<tag k="ssr:stedsnr" v="442196" />
	</node>
	<node id="9864996638" lat="68.3815512" lon="15.7128484" version="1" timestamp="2022-07-04T05:04:06Z" changeset="123171353" uid="3497659" user="NKA">
		<tag k="name" v="Øyjorda" />
		<tag k="place" v="farm" />
		<tag k="ssr:stedsnr" v="137253" />
	</node>
	<node id="9864996639" lat="68.4718088" lon="16.0695915" version="1" timestamp="2022-07-04T05:04:06Z" changeset="123171353" uid="3497659" user="NKA">
		<tag k="name" v="Strand" />
		<tag k="old_name" v="Strand-nedre" />
		<tag k="place" v="farm" />
		<tag k="ssr:stedsnr" v="137128" />
	</node>
	<node id="9864996640" lat="68.3305644" lon="15.6172461" version="1" timestamp="2022-07-04T05:04:06Z" changeset="123171353" uid="3497659" user="NKA">
		<tag k="name" v="Fjellheim" />
		<tag k="place" v="farm" />
		<tag k="ssr:stedsnr" v="810747" />
	</node>
	<node id="9864996641" lat="68.3562375" lon="15.3349863" version="1" timestamp="2022-07-04T05:04:06Z" changeset="123171353" uid="3497659" user="NKA">
		<tag k="name" v="Øksnes" />
		<tag k="place" v="hamlet" />
		<tag k="ssr:stedsnr" v="745993" />
	</node>
	<node id="9864996642" lat="68.5157005" lon="16.1070405" version="1" timestamp="2022-07-04T05:04:06Z" changeset="123171353" uid="3497659" user="NKA">
		<tag k="alt_name" v="Fiskøy" />
		<tag k="name" v="Fiskøya" />
		<tag k="place" v="farm" />
		<tag k="ssr:stedsnr" v="1076426" />
	</node>
	<node id="9864996643" lat="68.3291017" lon="15.5946418" version="1" timestamp="2022-07-04T05:04:06Z" changeset="123171353" uid="3497659" user="NKA">
		<tag k="name" v="Solheim" />
		<tag k="place" v="farm" />
		<tag k="ssr:stedsnr" v="810749" />
	</node>
	<node id="9864996644" lat="68.3395351" lon="15.6619825" version="1" timestamp="2022-07-04T05:04:06Z" changeset="123171353" uid="3497659" user="NKA">
		<tag k="name" v="Elvan" />
		<tag k="place" v="farm" />
		<tag k="ssr:stedsnr" v="806326" />
	</node>
	<node id="9864996645" lat="68.3466251" lon="15.5066749" version="1" timestamp="2022-07-04T05:04:06Z" changeset="123171353" uid="3497659" user="NKA">
		<tag k="name" v="Våge" />
		<tag k="place" v="farm" />
		<tag k="ssr:stedsnr" v="138971" />
	</node>
	<node id="9864996646" lat="68.4576076" lon="15.898293" version="1" timestamp="2022-07-04T05:04:06Z" changeset="123171353" uid="3497659" user="NKA">
		<tag k="name" v="Strandmo" />
		<tag k="place" v="farm" />
		<tag k="ssr:stedsnr" v="143664" />
	</node>
	<node id="9864996647" lat="68.3407269" lon="15.6682919" version="1" timestamp="2022-07-04T05:04:06Z" changeset="123171353" uid="3497659" user="NKA">
		<tag k="alt_name" v="Flåten" />
		<tag k="name" v="Flåta" />
		<tag k="place" v="farm" />
		<tag k="ssr:stedsnr" v="806325" />
	</node>
	<node id="9864996648" lat="68.4418416" lon="15.8883722" version="1" timestamp="2022-07-04T05:04:06Z" changeset="123171353" uid="3497659" user="NKA">
		<tag k="name" v="Myrset" />
		<tag k="place" v="locality" />
		<tag k="ssr:stedsnr" v="22666" />
	</node>
	<node id="9864996649" lat="68.4585222" lon="15.8987499" version="1" timestamp="2022-07-04T05:04:06Z" changeset="123171353" uid="3497659" user="NKA">
		<tag k="name" v="Lyngmo" />
		<tag k="place" v="farm" />
		<tag k="ssr:stedsnr" v="83685" />
	</node>
	<node id="9864996650" lat="68.4403423" lon="16.0070026" version="1" timestamp="2022-07-04T05:04:06Z" changeset="123171353" uid="3497659" user="NKA">
		<tag k="name" v="Lavollen" />
		<tag k="place" v="farm" />
		<tag k="ssr:stedsnr" v="927229" />
	</node>
	<node id="9864996651" lat="68.4153528" lon="15.9890193" version="1" timestamp="2022-07-04T05:04:06Z" changeset="123171353" uid="3497659" user="NKA">
		<tag k="name" v="Vika" />
		<tag k="place" v="neighbourhood" />
		<tag k="ssr:stedsnr" v="810663" />
	</node>
	<node id="9864996652" lat="68.3914222" lon="15.8703416" version="1" timestamp="2022-07-04T05:04:06Z" changeset="123171353" uid="3497659" user="NKA">
		<tag k="name" v="Skjåvik" />
		<tag k="place" v="farm" />
		<tag k="ssr:stedsnr" v="40572" />
	</node>
	<node id="9864996653" lat="68.3979743" lon="15.9211213" version="1" timestamp="2022-07-04T05:04:06Z" changeset="123171353" uid="3497659" user="NKA">
		<tag k="name" v="Øygård" />
		<tag k="place" v="farm" />
		<tag k="ssr:stedsnr" v="806312" />
	</node>
	<node id="9864996654" lat="68.4008969" lon="15.8786153" version="1" timestamp="2022-07-04T05:04:06Z" changeset="123171353" uid="3497659" user="NKA">
		<tag k="name" v="Neshamn" />
		<tag k="place" v="hamlet" />
		<tag k="ssr:stedsnr" v="199293" />
	</node>
	<node id="9864996655" lat="68.4623944" lon="16.0367029" version="1" timestamp="2022-07-04T05:04:06Z" changeset="123171353" uid="3497659" user="NKA">
		<tag k="name" v="Solbakken" />
		<tag k="place" v="farm" />
		<tag k="ssr:stedsnr" v="692718" />
	</node>
	<node id="9864996656" lat="68.3663889" lon="15.714889" version="1" timestamp="2022-07-04T05:04:06Z" changeset="123171353" uid="3497659" user="NKA">
		<tag k="name" v="Nygård" />
		<tag k="place" v="farm" />
		<tag k="ssr:stedsnr" v="199342" />
	</node>
	<node id="9864996657" lat="68.3917594" lon="15.3953469" version="1" timestamp="2022-07-04T05:04:06Z" changeset="123171353" uid="3497659" user="NKA">
		<tag k="name" v="Myrvang" />
		<tag k="place" v="farm" />
		<tag k="ssr:stedsnr" v="745854" />
	</node>
	<node id="9864996658" lat="68.3883954" lon="15.3858198" version="1" timestamp="2022-07-04T05:04:06Z" changeset="123171353" uid="3497659" user="NKA">
		<tag k="name" v="Berget" />
		<tag k="place" v="farm" />
		<tag k="ssr:stedsnr" v="745851" />
	</node>
	<node id="9864996659" lat="68.4122305" lon="16.0023862" version="1" timestamp="2022-07-04T05:04:06Z" changeset="123171353" uid="3497659" user="NKA">
		<tag k="name" v="Melkebukta" />
		<tag k="place" v="neighbourhood" />
		<tag k="ssr:stedsnr" v="507581" />
	</node>
	<node id="9864996660" lat="68.4600055" lon="16.028075" version="1" timestamp="2022-07-04T05:04:06Z" changeset="123171353" uid="3497659" user="NKA">
		<tag k="name" v="Fredheim" />
		<tag k="place" v="farm" />
		<tag k="ssr:stedsnr" v="684193" />
	</node>
	<node id="9864996661" lat="68.4678472" lon="16.0556028" version="1" timestamp="2022-07-04T05:04:06Z" changeset="123171353" uid="3497659" user="NKA">
		<tag k="name" v="Breidablikk" />
		<tag k="place" v="farm" />
		<tag k="ssr:stedsnr" v="502148" />
	</node>
	<node id="9864996662" lat="68.3442121" lon="15.5136879" version="1" timestamp="2022-07-04T05:04:06Z" changeset="123171353" uid="3497659" user="NKA">
		<tag k="name" v="Dalen" />
		<tag k="place" v="farm" />
		<tag k="ssr:stedsnr" v="689596" />
	</node>
	<node id="9864996663" lat="68.4168194" lon="15.9819028" version="1" timestamp="2022-07-04T05:04:06Z" changeset="123171353" uid="3497659" user="NKA">
		<tag k="name" v="Hamndalen" />
		<tag k="place" v="neighbourhood" />
		<tag k="ssr:stedsnr" v="507580" />
	</node>
	<node id="9864996664" lat="68.3146194" lon="15.2715306" version="1" timestamp="2022-07-04T05:04:06Z" changeset="123171353" uid="3497659" user="NKA">
		<tag k="name" v="Selsøya" />
		<tag k="place" v="locality" />
		<tag k="ssr:stedsnr" v="684028" />
	</node>
	<node id="9864996665" lat="68.4196305" lon="15.9875196" version="1" timestamp="2022-07-04T05:04:06Z" changeset="123171353" uid="3497659" user="NKA">
		<tag k="name" v="Breivika" />
		<tag k="place" v="neighbourhood" />
		<tag k="ssr:stedsnr" v="82640" />
	</node>
	<node id="9864996666" lat="68.3360484" lon="15.6522907" version="1" timestamp="2022-07-04T05:04:06Z" changeset="123171353" uid="3497659" user="NKA">
		<tag k="name" v="Nyvoll" />
		<tag k="place" v="farm" />
		<tag k="ssr:stedsnr" v="464741" />
	</node>
	<node id="9864996667" lat="68.3761355" lon="15.754998" version="1" timestamp="2022-07-04T05:04:06Z" changeset="123171353" uid="3497659" user="NKA">
		<tag k="name" v="Rinøya" />
		<tag k="place" v="hamlet" />
		<tag k="ssr:stedsnr" v="689585" />
	</node>
	<node id="9864996668" lat="68.3515917" lon="15.3773194" version="1" timestamp="2022-07-04T05:04:06Z" changeset="123171353" uid="3497659" user="NKA">
		<tag k="name" v="Bergly" />
		<tag k="place" v="farm" />
		<tag k="ssr:stedsnr" v="464435" />
	</node>
	<node id="9864996669" lat="68.3286054" lon="15.6039346" version="1" timestamp="2022-07-04T05:04:06Z" changeset="123171353" uid="3497659" user="NKA">
		<tag k="name" v="Øyjorda" />
		<tag k="place" v="farm" />
		<tag k="ssr:stedsnr" v="562011" />
	</node>
	<node id="9864996670" lat="68.4086722" lon="15.9822529" version="1" timestamp="2022-07-04T05:04:06Z" changeset="123171353" uid="3497659" user="NKA">
		<tag k="name" v="Dalen" />
		<tag k="place" v="neighbourhood" />
		<tag k="ssr:stedsnr" v="264638" />
	</node>
	<node id="9864996671" lat="68.4130528" lon="15.3539612" version="1" timestamp="2022-07-04T05:04:06Z" changeset="123171353" uid="3497659" user="NKA">
		<tag k="name" v="Solum" />
		<tag k="place" v="farm" />
		<tag k="ssr:stedsnr" v="199871" />
	</node>
	<node id="9864996672" lat="68.3956976" lon="15.9592679" version="1" timestamp="2022-07-04T05:04:06Z" changeset="123171353" uid="3497659" user="NKA">
		<tag k="name" v="Feneset" />
		<tag k="place" v="hamlet" />
		<tag k="ssr:stedsnr" v="745340" />
	</node>
	<node id="9864996673" lat="68.3351612" lon="15.5545663" version="1" timestamp="2022-07-04T05:04:06Z" changeset="123171353" uid="3497659" user="NKA">
		<tag k="name" v="Solvang" />
		<tag k="place" v="farm" />
		<tag k="ssr:stedsnr" v="441949" />
	</node>
	<node id="9864996674" lat="68.3513445" lon="15.3638585" version="1" timestamp="2022-07-04T05:04:06Z" changeset="123171353" uid="3497659" user="NKA">
		<tag k="name" v="Lia" />
		<tag k="place" v="farm" />
		<tag k="ssr:stedsnr" v="342381" />
	</node>
	<node id="9864996675" lat="68.3976334" lon="15.9187222" version="1" timestamp="2022-07-04T05:04:06Z" changeset="123171353" uid="3497659" user="NKA">
		<tag k="name" v="Øygård Vestre" />
		<tag k="place" v="farm" />
		<tag k="ssr:stedsnr" v="162625" />
	</node>
	<node id="9864996676" lat="68.52055" lon="15.8700332" version="1" timestamp="2022-07-04T05:04:06Z" changeset="123171353" uid="3497659" user="NKA">
		<tag k="alt_name" v="Eidisheimen" />
		<tag k="name" v="Eidesheimen" />
		<tag k="place" v="isolated_dwelling" />
		<tag k="ssr:stedsnr" v="867795" />
	</node>
	<node id="9864996677" lat="68.4065624" lon="15.8826884" version="1" timestamp="2022-07-04T05:04:06Z" changeset="123171353" uid="3497659" user="NKA">
		<tag k="alt_name" v="Neshamn, in;Indre Neshamn" />
		<tag k="name" v="Inner Neshamn" />
		<tag k="place" v="farm" />
		<tag k="ssr:stedsnr" v="138298" />
	</node>
	<node id="9864996678" lat="68.3469538" lon="15.4608666" version="1" timestamp="2022-07-04T05:04:06Z" changeset="123171353" uid="3497659" user="NKA">
		<tag k="name" v="Hustad" />
		<tag k="place" v="farm" />
		<tag k="ssr:stedsnr" v="199983" />
	</node>
	<node id="9864996679" lat="68.3501224" lon="15.4309619" version="1" timestamp="2022-07-04T05:04:06Z" changeset="123171353" uid="3497659" user="NKA">
		<tag k="alt_name" v="Annfinnslett" />
		<tag k="name" v="Annfinnsletta" />
		<tag k="place" v="farm" />
		<tag k="ssr:stedsnr" v="706374" />
	</node>
	<node id="9864996680" lat="68.4079972" lon="15.9953361" version="1" timestamp="2022-07-04T05:04:06Z" changeset="123171353" uid="3497659" user="NKA">
		<tag k="name" v="Tippen" />
		<tag k="place" v="neighbourhood" />
		<tag k="ssr:stedsnr" v="142665" />
	</node>
	<node id="9864996681" lat="68.3579913" lon="15.3916956" version="1" timestamp="2022-07-04T05:04:06Z" changeset="123171353" uid="3497659" user="NKA">
		<tag k="name" v="Åndervåg" />
		<tag k="place" v="hamlet" />
		<tag k="ssr:stedsnr" v="77898" />
	</node>
	<node id="9864996682" lat="68.3949" lon="15.7548223" version="1" timestamp="2022-07-04T05:04:06Z" changeset="123171353" uid="3497659" user="NKA">
		<tag k="name" v="Solstad" />
		<tag k="place" v="farm" />
		<tag k="ssr:stedsnr" v="78282" />
	</node>
	<node id="9864996683" lat="68.3980389" lon="15.4103226" version="1" timestamp="2022-07-04T05:04:06Z" changeset="123171353" uid="3497659" user="NKA">
		<tag k="name" v="Myrtun" />
		<tag k="place" v="farm" />
		<tag k="ssr:stedsnr" v="502848" />
	</node>
	<node id="9864996684" lat="68.4081222" lon="15.9893167" version="1" timestamp="2022-07-04T05:04:06Z" changeset="123171353" uid="3497659" user="NKA">
		<tag k="name" v="Nymoen" />
		<tag k="place" v="neighbourhood" />
		<tag k="ssr:stedsnr" v="82637" />
	</node>
	<node id="9864996685" lat="68.3549527" lon="15.4340527" version="1" timestamp="2022-07-04T05:04:06Z" changeset="123171353" uid="3497659" user="NKA">
		<tag k="name" v="Solstrand" />
		<tag k="place" v="farm" />
		<tag k="ssr:stedsnr" v="643285" />
	</node>
	<node id="9864996686" lat="68.418611" lon="15.8247766" version="1" timestamp="2022-07-04T05:04:06Z" changeset="123171353" uid="3497659" user="NKA">
		<tag k="name" v="Erikstad" />
		<tag k="place" v="farm" />
		<tag k="ssr:stedsnr" v="989407" />
	</node>
	<node id="9864996687" lat="68.4132167" lon="15.9964556" version="1" timestamp="2022-07-04T05:04:06Z" changeset="123171353" uid="3497659" user="NKA">
		<tag k="name" v="Hamnbakken" />
		<tag k="place" v="neighbourhood" />
		<tag k="ssr:stedsnr" v="871550" />
	</node>
	<node id="9864996688" lat="68.4122928" lon="15.9732342" version="1" timestamp="2022-07-04T05:04:06Z" changeset="123171353" uid="3497659" user="NKA">
		<tag k="name" v="Lødingen - Lodegak" />
		<tag k="name:no" v="Lødingen" />
		<tag k="name:se" v="Lodegak" />
		<tag k="place" v="farm" />
		<tag k="ssr:stedsnr" v="1076423" />
	</node>
	<node id="9864996689" lat="68.4545039" lon="15.4803601" version="1" timestamp="2022-07-04T05:04:06Z" changeset="123171353" uid="3497659" user="NKA">
		<tag k="alt_name" v="Sommarset, yt" />
		<tag k="name" v="Ytre Sommarset" />
		<tag k="place" v="farm" />
		<tag k="ssr:stedsnr" v="502809" />
	</node>
	<node id="9864996690" lat="68.4136257" lon="15.8326011" version="1" timestamp="2022-07-04T05:04:06Z" changeset="123171353" uid="3497659" user="NKA">
		<tag k="name" v="Bakken" />
		<tag k="place" v="farm" />
		<tag k="ssr:stedsnr" v="1081896" />
	</node>
	<node id="9864996691" lat="68.3372333" lon="15.6755917" version="1" timestamp="2022-07-04T05:04:06Z" changeset="123171353" uid="3497659" user="NKA">
		<tag k="name" v="Sandvoll" />
		<tag k="place" v="farm" />
		<tag k="ssr:stedsnr" v="502296" />
	</node>
	<node id="9864996692" lat="68.461225" lon="15.8735888" version="1" timestamp="2022-07-04T05:04:06Z" changeset="123171353" uid="3497659" user="NKA">
		<tag k="name" v="Gammelgården" />
		<tag k="place" v="isolated_dwelling" />
		<tag k="ssr:stedsnr" v="521446" />
	</node>
	<node id="9864996693" lat="68.3836084" lon="15.8790916" version="1" timestamp="2022-07-04T05:04:06Z" changeset="123171353" uid="3497659" user="NKA">
		<tag k="name" v="Moen" />
		<tag k="place" v="locality" />
		<tag k="ssr:stedsnr" v="927315" />
	</node>
	<node id="9864996694" lat="68.4026276" lon="15.7333411" version="1" timestamp="2022-07-04T05:04:06Z" changeset="123171353" uid="3497659" user="NKA">
		<tag k="name" v="Sneisa - Snáisá" />
		<tag k="name:no" v="Sneisa" />
		<tag k="name:se" v="Snáisá" />
		<tag k="place" v="hamlet" />
		<tag k="ssr:stedsnr" v="684276" />
	</node>
	<node id="9864996695" lat="68.4260745" lon="15.8380341" version="1" timestamp="2022-07-04T05:04:06Z" changeset="123171353" uid="3497659" user="NKA">
		<tag k="name" v="Erikstad" />
		<tag k="place" v="farm" />
		<tag k="ssr:stedsnr" v="989405" />
	</node>
	<node id="9864996696" lat="68.4469021" lon="15.8952719" version="1" timestamp="2022-07-04T05:04:06Z" changeset="123171353" uid="3497659" user="NKA">
		<tag k="name" v="Straumneset" />
		<tag k="place" v="farm" />
		<tag k="ssr:stedsnr" v="441189" />
	</node>
	<node id="9864996697" lat="68.4672245" lon="15.8875906" version="1" timestamp="2022-07-04T05:04:06Z" changeset="123171353" uid="3497659" user="NKA">
		<tag k="name" v="Vika" />
		<tag k="place" v="locality" />
		<tag k="ssr:stedsnr" v="400465" />
	</node>
	<node id="9864996698" lat="68.5024555" lon="15.8653027" version="1" timestamp="2022-07-04T05:04:06Z" changeset="123171353" uid="3497659" user="NKA">
		<tag k="alt_name" v="Sætra" />
		<tag k="name" v="Kanstadsætra" />
		<tag k="place" v="isolated_dwelling" />
		<tag k="ssr:stedsnr" v="200765" />
	</node>
	<node id="9864996699" lat="68.3310583" lon="15.6135723" version="1" timestamp="2022-07-04T05:04:06Z" changeset="123171353" uid="3497659" user="NKA">
		<tag k="name" v="Høgtun" />
		<tag k="place" v="farm" />
		<tag k="ssr:stedsnr" v="137942" />
	</node>
	<node id="9864996700" lat="68.337901" lon="15.6584035" version="1" timestamp="2022-07-04T05:04:06Z" changeset="123171353" uid="3497659" user="NKA">
		<tag k="loc_name:se" v="Ihtterstáddi;Itterstáddi" />
		<tag k="name" v="Ytterstad" />
		<tag k="name:no" v="Ytterstad" />
		<tag k="place" v="hamlet" />
		<tag k="ssr:stedsnr" v="441313" />
	</node>
	<node id="9864996701" lat="68.4626249" lon="15.899032" version="1" timestamp="2022-07-04T05:04:06Z" changeset="123171353" uid="3497659" user="NKA">
		<tag k="name" v="Sylfestplassen" />
		<tag k="place" v="farm" />
		<tag k="ssr:stedsnr" v="143666" />
	</node>
	<node id="9864996702" lat="68.3992541" lon="15.7403807" version="1" timestamp="2022-07-04T05:04:06Z" changeset="123171353" uid="3497659" user="NKA">
		<tag k="name" v="Heimstad" />
		<tag k="place" v="farm" />
		<tag k="ssr:stedsnr" v="138290" />
	</node>
	<node id="9864996703" lat="68.3585226" lon="15.4409133" version="1" timestamp="2022-07-04T05:04:06Z" changeset="123171353" uid="3497659" user="NKA">
		<tag k="name" v="Nordgård" />
		<tag k="place" v="farm" />
		<tag k="ssr:stedsnr" v="97308" />
	</node>
	<node id="9864996704" lat="68.4140449" lon="15.8337357" version="1" timestamp="2022-07-04T05:04:06Z" changeset="123171353" uid="3497659" user="NKA">
		<tag k="name" v="Erikstad - Erstá" />
		<tag k="name:no" v="Erikstad" />
		<tag k="name:se" v="Erstá" />
		<tag k="place" v="hamlet" />
		<tag k="ssr:stedsnr" v="989384" />
	</node>
	<node id="9864996705" lat="68.4061136" lon="15.7998177" version="1" timestamp="2022-07-04T05:04:06Z" changeset="123171353" uid="3497659" user="NKA">
		<tag k="name" v="Svensgam - Sveangápma" />
		<tag k="name:no" v="Svensgam" />
		<tag k="name:se" v="Sveangápma" />
		<tag k="place" v="farm" />
		<tag k="ssr:stedsnr" v="745301" />
	</node>
	<node id="9864996706" lat="68.3200478" lon="15.6265171" version="1" timestamp="2022-07-04T05:04:06Z" changeset="123171353" uid="3497659" user="NKA">
		<tag k="name" v="Vollen" />
		<tag k="place" v="farm" />
		<tag k="ssr:stedsnr" v="82721" />
	</node>
	<node id="9864996707" lat="68.3897538" lon="15.3894682" version="1" timestamp="2022-07-04T05:04:06Z" changeset="123171353" uid="3497659" user="NKA">
		<tag k="name" v="Skogstrand" />
		<tag k="place" v="farm" />
		<tag k="ssr:stedsnr" v="745853" />
	</node>
	<node id="9864996708" lat="68.4682314" lon="15.8939204" version="1" timestamp="2022-07-04T05:04:06Z" changeset="123171353" uid="3497659" user="NKA">
		<tag k="alt_name:no" v="Kanstad, austre;Kanstad østre" />
		<tag k="loc_name:se" v="Gánas" />
		<tag k="name" v="Austre Kanstad" />
		<tag k="name:no" v="Austre Kanstad" />
		<tag k="place" v="hamlet" />
		<tag k="ssr:stedsnr" v="867198" />
	</node>
	<node id="9864996709" lat="68.3317055" lon="15.5377973" version="1" timestamp="2022-07-04T05:04:06Z" changeset="123171353" uid="3497659" user="NKA">
		<tag k="name" v="Ivergamman" />
		<tag k="place" v="locality" />
		<tag k="ssr:stedsnr" v="82618" />
	</node>
	<node id="9864996710" lat="68.3718111" lon="15.4009584" version="1" timestamp="2022-07-04T05:04:06Z" changeset="123171353" uid="3497659" user="NKA">
		<tag k="name" v="Nordvoll" />
		<tag k="place" v="farm" />
		<tag k="ssr:stedsnr" v="381923" />
	</node>
	<node id="9864996711" lat="68.366885" lon="15.4015566" version="1" timestamp="2022-07-04T05:04:06Z" changeset="123171353" uid="3497659" user="NKA">
		<tag k="name" v="Skogvang" />
		<tag k="place" v="farm" />
		<tag k="ssr:stedsnr" v="138902" />
	</node>
	<node id="9864996712" lat="68.3696972" lon="15.2423084" version="1" timestamp="2022-07-04T05:04:06Z" changeset="123171353" uid="3497659" user="NKA">
		<tag k="name" v="Gammelgården" />
		<tag k="place" v="farm" />
		<tag k="ssr:stedsnr" v="695632" />
	</node>
	<node id="9864996713" lat="68.3618666" lon="15.7136278" version="1" timestamp="2022-07-04T05:04:06Z" changeset="123171353" uid="3497659" user="NKA">
		<tag k="name" v="Vikly" />
		<tag k="place" v="farm" />
		<tag k="ssr:stedsnr" v="585659" />
	</node>
	<node id="9864996714" lat="68.3852266" lon="15.3830891" version="1" timestamp="2022-07-04T05:04:06Z" changeset="123171353" uid="3497659" user="NKA">
		<tag k="name" v="Stormyr" />
		<tag k="place" v="farm" />
		<tag k="ssr:stedsnr" v="380828" />
	</node>
	<node id="9864996715" lat="68.3334914" lon="15.5309998" version="1" timestamp="2022-07-04T05:04:06Z" changeset="123171353" uid="3497659" user="NKA">
		<tag k="name" v="Borgarvika" />
		<tag k="place" v="farm" />
		<tag k="ssr:stedsnr" v="689595" />
	</node>
	<node id="9864996716" lat="68.3380471" lon="15.6676996" version="1" timestamp="2022-07-04T05:04:06Z" changeset="123171353" uid="3497659" user="NKA">
		<tag k="alt_name" v="Langseth" />
		<tag k="name" v="Langset" />
		<tag k="place" v="farm" />
		<tag k="ssr:stedsnr" v="464736" />
	</node>
	<node id="9864996717" lat="68.4099306" lon="15.3626777" version="1" timestamp="2022-07-04T05:04:06Z" changeset="123171353" uid="3497659" user="NKA">
		<tag k="name" v="Skjelvika" />
		<tag k="place" v="hamlet" />
		<tag k="ssr:stedsnr" v="684862" />
	</node>
	<node id="9864996718" lat="68.4236111" lon="15.4233278" version="1" timestamp="2022-07-04T05:04:06Z" changeset="123171353" uid="3497659" user="NKA">
		<tag k="name" v="Bjerkneshamn" />
		<tag k="place" v="isolated_dwelling" />
		<tag k="ssr:stedsnr" v="684747" />
	</node>
	<node id="9864996719" lat="68.3649" lon="15.7149139" version="1" timestamp="2022-07-04T05:04:06Z" changeset="123171353" uid="3497659" user="NKA">
		<tag k="alt_name" v="Sletten" />
		<tag k="name" v="Sletta" />
		<tag k="place" v="farm" />
		<tag k="ssr:stedsnr" v="320331" />
	</node>
	<node id="9864996720" lat="68.4608972" lon="15.5043001" version="1" timestamp="2022-07-04T05:04:06Z" changeset="123171353" uid="3497659" user="NKA">
		<tag k="alt_name" v="Sommarset, in" />
		<tag k="name" v="Indre Sommarset" />
		<tag k="place" v="farm" />
		<tag k="ssr:stedsnr" v="260739" />
	</node>
	<node id="9864996721" lat="68.3870724" lon="15.8731444" version="1" timestamp="2022-07-04T05:04:06Z" changeset="123171353" uid="3497659" user="NKA">
		<tag k="name" v="Nes" />
		<tag k="place" v="hamlet" />
		<tag k="ssr:stedsnr" v="381310" />
	</node>
	<node id="9864996722" lat="68.3115134" lon="15.6482971" version="1" timestamp="2022-07-04T05:04:06Z" changeset="123171353" uid="3497659" user="NKA">
		<tag k="name" v="Langstranda" />
		<tag k="place" v="farm" />
		<tag k="ssr:stedsnr" v="706261" />
	</node>
	<node id="9864996723" lat="68.3702167" lon="15.2450418" version="1" timestamp="2022-07-04T05:04:06Z" changeset="123171353" uid="3497659" user="NKA">
		<tag k="name" v="Nergården" />
		<tag k="place" v="farm" />
		<tag k="ssr:stedsnr" v="573599" />
	</node>
	<node id="9864996724" lat="68.3316694" lon="15.5779862" version="1" timestamp="2022-07-04T05:04:06Z" changeset="123171353" uid="3497659" user="NKA">
		<tag k="name" v="Gåsvoll" />
		<tag k="place" v="farm" />
		<tag k="ssr:stedsnr" v="40331" />
	</node>
	<node id="9864996725" lat="68.4013722" lon="15.7391166" version="1" timestamp="2022-07-04T05:04:06Z" changeset="123171353" uid="3497659" user="NKA">
		<tag k="name" v="Nysneisa" />
		<tag k="place" v="farm" />
		<tag k="ssr:stedsnr" v="39574" />
	</node>
	<node id="9864996726" lat="68.3373028" lon="15.6804972" version="1" timestamp="2022-07-04T05:04:06Z" changeset="123171353" uid="3497659" user="NKA">
		<tag k="name" v="Einan" />
		<tag k="place" v="farm" />
		<tag k="ssr:stedsnr" v="77329" />
	</node>
	<node id="9864996727" lat="68.4243195" lon="15.4820607" version="1" timestamp="2022-07-04T05:04:06Z" changeset="123171353" uid="3497659" user="NKA">
		<tag k="name" v="Nordmanndalen" />
		<tag k="place" v="farm" />
		<tag k="ssr:stedsnr" v="442793" />
	</node>
	<node id="9864996728" lat="68.3558833" lon="15.5131251" version="1" timestamp="2022-07-04T05:04:06Z" changeset="123171353" uid="3497659" user="NKA">
		<tag k="name" v="Halsen" />
		<tag k="place" v="farm" />
		<tag k="ssr:stedsnr" v="17986" />
	</node>
	<node id="9864996729" lat="68.3859389" lon="15.7443805" version="1" timestamp="2022-07-04T05:04:06Z" changeset="123171353" uid="3497659" user="NKA">
		<tag k="name" v="Dalheim" />
		<tag k="place" v="isolated_dwelling" />
		<tag k="ssr:stedsnr" v="381313" />
	</node>
	<node id="9864996730" lat="68.3802753" lon="15.7109121" version="1" timestamp="2022-07-04T05:04:06Z" changeset="123171353" uid="3497659" user="NKA">
		<tag k="name" v="Hesten" />
		<tag k="place" v="hamlet" />
		<tag k="ssr:stedsnr" v="16261" />
	</node>
	<node id="9864996731" lat="68.398366" lon="15.8716137" version="1" timestamp="2022-07-04T05:04:06Z" changeset="123171353" uid="3497659" user="NKA">
		<tag k="alt_name" v="Neshamn, yt;Ytre Neshamn" />
		<tag k="name" v="Ytter Neshamn" />
		<tag k="place" v="farm" />
		<tag k="ssr:stedsnr" v="381282" />
	</node>
	<node id="9864996732" lat="68.403725" lon="15.879361" version="1" timestamp="2022-07-04T05:04:06Z" changeset="123171353" uid="3497659" user="NKA">
		<tag k="alt_name" v="Enbakken;Enebakken" />
		<tag k="name" v="Einebakken" />
		<tag k="place" v="farm" />
		<tag k="ssr:stedsnr" v="927286" />
	</node>
	<node id="9864996733" lat="68.3719556" lon="15.2367722" version="1" timestamp="2022-07-04T05:04:06Z" changeset="123171353" uid="3497659" user="NKA">
		<tag k="name" v="Bakkan" />
		<tag k="place" v="farm" />
		<tag k="ssr:stedsnr" v="270972" />
	</node>
	<node id="9864996734" lat="68.4482722" lon="15.8956306" version="1" timestamp="2022-07-04T05:04:06Z" changeset="123171353" uid="3497659" user="NKA">
		<tag k="name" v="Nymoen" />
		<tag k="place" v="farm" />
		<tag k="ssr:stedsnr" v="745237" />
	</node>
	<node id="9864996735" lat="68.4209579" lon="15.3921539" version="1" timestamp="2022-07-04T05:04:06Z" changeset="123171353" uid="3497659" user="NKA">
		<tag k="alt_name" v="Limskjelvik" />
		<tag k="name" v="Limskjelvika" />
		<tag k="place" v="farm" />
		<tag k="ssr:stedsnr" v="513291" />
	</node>
	<node id="9864996736" lat="68.3281222" lon="15.6476112" version="1" timestamp="2022-07-04T05:04:06Z" changeset="123171353" uid="3497659" user="NKA">
		<tag k="name" v="Fenes" />
		<tag k="place" v="farm" />
		<tag k="ssr:stedsnr" v="461500" />
	</node>
	<node id="9864996737" lat="68.3155055" lon="15.6609305" version="1" timestamp="2022-07-04T05:04:06Z" changeset="123171353" uid="3497659" user="NKA">
		<tag k="name" v="Vika" />
		<tag k="place" v="farm" />
		<tag k="ssr:stedsnr" v="867367" />
	</node>
	<node id="9864996738" lat="68.3554584" lon="15.4897668" version="1" timestamp="2022-07-04T05:04:06Z" changeset="123171353" uid="3497659" user="NKA">
		<tag k="name" v="Hustadstranda" />
		<tag k="place" v="hamlet" />
		<tag k="ssr:stedsnr" v="199990" />
	</node>
	<node id="9864996739" lat="68.3506604" lon="15.3637834" version="1" timestamp="2022-07-04T05:04:06Z" changeset="123171353" uid="3497659" user="NKA">
		<tag k="name" v="Haug" />
		<tag k="place" v="farm" />
		<tag k="ssr:stedsnr" v="259991" />
	</node>
	<node id="9864996740" lat="68.3683723" lon="15.7212471" version="1" timestamp="2022-07-04T05:04:06Z" changeset="123171353" uid="3497659" user="NKA">
		<tag k="name" v="Stranden" />
		<tag k="place" v="farm" />
		<tag k="ssr:stedsnr" v="160651" />
	</node>
	<node id="9864996741" lat="68.37285" lon="15.6885167" version="1" timestamp="2022-07-04T05:04:06Z" changeset="123171353" uid="3497659" user="NKA">
		<tag k="name" v="Sætran" />
		<tag k="place" v="locality" />
		<tag k="ssr:stedsnr" v="706689" />
	</node>
	<node id="9864996742" lat="68.4086166" lon="15.3605138" version="1" timestamp="2022-07-04T05:04:06Z" changeset="123171353" uid="3497659" user="NKA">
		<tag k="name" v="Storvika" />
		<tag k="place" v="farm" />
		<tag k="ssr:stedsnr" v="502861" />
	</node>
	<node id="9864996743" lat="68.42175" lon="15.8831667" version="1" timestamp="2022-07-04T05:04:06Z" changeset="123171353" uid="3497659" user="NKA">
		<tag k="name" v="Josarsaklubben" />
		<tag k="place" v="isolated_dwelling" />
		<tag k="ssr:stedsnr" v="17282" />
	</node>
	<node id="9864996744" lat="68.3862389" lon="15.8852999" version="1" timestamp="2022-07-04T05:04:06Z" changeset="123171353" uid="3497659" user="NKA">
		<tag k="name" v="Solberg" />
		<tag k="place" v="locality" />
		<tag k="ssr:stedsnr" v="17331" />
	</node>
	<node id="9864996745" lat="68.3754778" lon="15.5028917" version="1" timestamp="2022-07-04T05:04:06Z" changeset="123171353" uid="3497659" user="NKA">
		<tag k="name" v="Heimerskjåen" />
		<tag k="place" v="locality" />
		<tag k="ssr:stedsnr" v="647371" />
	</node>
	<node id="9864996746" lat="68.4080262" lon="15.7386094" version="1" timestamp="2022-07-04T05:04:06Z" changeset="123171353" uid="3497659" user="NKA">
		<tag k="name" v="Gamvika" />
		<tag k="place" v="farm" />
		<tag k="ssr:stedsnr" v="562249" />
	</node>
	<node id="9864996747" lat="68.3216429" lon="15.620702" version="1" timestamp="2022-07-04T05:04:06Z" changeset="123171353" uid="3497659" user="NKA">
		<tag k="name" v="Øya" />
		<tag k="place" v="farm" />
		<tag k="ssr:stedsnr" v="623373" />
	</node>
	<node id="9864996748" lat="68.3596333" lon="15.4241333" version="1" timestamp="2022-07-04T05:04:06Z" changeset="123171353" uid="3497659" user="NKA">
		<tag k="name" v="Bråten" />
		<tag k="place" v="farm" />
		<tag k="ssr:stedsnr" v="692838" />
	</node>
	<node id="9864996749" lat="68.4064639" lon="15.9890333" version="1" timestamp="2022-07-04T05:04:06Z" changeset="123171353" uid="3497659" user="NKA">
		<tag k="name" v="Klokkerjordet" />
		<tag k="place" v="neighbourhood" />
		<tag k="ssr:stedsnr" v="871551" />
	</node>
	<node id="9864996750" lat="68.3731942" lon="15.4138909" version="1" timestamp="2022-07-04T05:04:06Z" changeset="123171353" uid="3497659" user="NKA">
		<tag k="name" v="Fjellmo" />
		<tag k="place" v="farm" />
		<tag k="ssr:stedsnr" v="927928" />
	</node>
	<node id="9864996751" lat="68.5290805" lon="15.6176418" version="1" timestamp="2022-07-04T05:04:06Z" changeset="123171353" uid="3497659" user="NKA">
		<tag k="name" v="Øvre Storelvvatnet statsgrunn" />
		<tag k="place" v="locality" />
		<tag k="ssr:stedsnr" v="1080504" />
	</node>
	<node id="9864996752" lat="68.5792025" lon="15.9760816" version="1" timestamp="2022-07-04T05:04:06Z" changeset="123171353" uid="3497659" user="NKA">
		<tag k="name" v="Svartvatnet statsgrunn - Stuorajávrri stáhtaeana" />
		<tag k="name:no" v="Svartvatnet statsgrunn" />
		<tag k="name:se" v="Stuorajávrri stáhtaeana" />
		<tag k="place" v="locality" />
		<tag k="ssr:stedsnr" v="1080502" />
	</node>
	<node id="9864996753" lat="68.5089936" lon="15.4323132" version="1" timestamp="2022-07-04T05:04:06Z" changeset="123171353" uid="3497659" user="NKA">
		<tag k="name" v="Møysalen statsgrunn" />
		<tag k="place" v="locality" />
		<tag k="ssr:stedsnr" v="1080503" />
	</node>
	<node id="9864996754" lat="68.4477941" lon="15.6491668" version="1" timestamp="2022-07-04T05:04:06Z" changeset="123171353" uid="3497659" user="NKA">
		<tag k="name" v="Bukketinden statsgrunn" />
		<tag k="place" v="locality" />
		<tag k="ssr:stedsnr" v="1080501" />
	</node>
	<node id="9864996755" lat="68.5178985" lon="15.8770886" version="1" timestamp="2022-07-04T05:04:06Z" changeset="123171353" uid="3497659" user="NKA">
		<tag k="name" v="Kanstadbotn" />
		<tag k="place" v="farm" />
		<tag k="ssr:stedsnr" v="405964" />
	</node>
	<node id="9864996756" lat="68.3739166" lon="15.7534194" version="1" timestamp="2022-07-04T05:04:06Z" changeset="123171353" uid="3497659" user="NKA">
		<tag k="name" v="Toften" />
		<tag k="place" v="farm" />
		<tag k="ssr:stedsnr" v="767662" />
	</node>
	<node id="9864996757" lat="68.4048473" lon="15.9857529" version="1" timestamp="2022-07-04T05:04:06Z" changeset="123171353" uid="3497659" user="NKA">
		<tag k="name" v="Lødingssjøen" />
		<tag k="place" v="neighbourhood" />
		<tag k="ssr:stedsnr" v="507667" />
	</node>
	<node id="9864996758" lat="68.3716444" lon="15.2398806" version="1" timestamp="2022-07-04T05:04:06Z" changeset="123171353" uid="3497659" user="NKA">
		<tag k="name" v="Mellomgården" />
		<tag k="place" v="farm" />
		<tag k="ssr:stedsnr" v="513979" />
	</node>
	<node id="9864996759" lat="68.3595695" lon="15.4310862" version="1" timestamp="2022-07-04T05:04:06Z" changeset="123171353" uid="3497659" user="NKA">
		<tag k="name" v="Nordmo" />
		<tag k="place" v="farm" />
		<tag k="ssr:stedsnr" v="388822" />
	</node>
	<node id="9864996760" lat="68.4526611" lon="16.0250057" version="1" timestamp="2022-07-04T05:04:06Z" changeset="123171353" uid="3497659" user="NKA">
		<tag k="alt_name" v="Slotstrand" />
		<tag k="name" v="Slåttstrand" />
		<tag k="place" v="farm" />
		<tag k="ssr:stedsnr" v="745246" />
	</node>
	<node id="9865049993" lat="68.539185" lon="15.6005559" version="1" timestamp="2022-07-04T05:49:14Z" changeset="123172518" uid="3497659" user="NKA">
		<tag k="name" v="Øvre Storelvvatnet statsgrunn" />
		<tag k="place" v="locality" />
		<tag k="ssr:stedsnr" v="1080504" />
	</node>
	<node id="9865049996" lat="68.53515" lon="15.4665512" version="1" timestamp="2022-07-04T05:49:14Z" changeset="123172518" uid="3497659" user="NKA">
		<tag k="name" v="Møysalen statsgrunn" />
		<tag k="place" v="locality" />
		<tag k="ssr:stedsnr" v="1080503" />
	</node>
	<node id="9865096442" lat="68.5937525" lon="16.0037151" version="1" timestamp="2022-07-04T06:29:14Z" changeset="123173796" uid="3497659" user="NKA">
		<tag k="name" v="Svartvatnet statsgrunn - Stuorajávrri stáhtaeana" />
		<tag k="name:no" v="Svartvatnet statsgrunn" />
		<tag k="name:se" v="Stuorajávrri stáhtaeana" />
		<tag k="place" v="locality" />
		<tag k="ssr:stedsnr" v="1080502" />
	</node>
	<node id="5303567120" lat="68.5231505" lon="15.8474119" version="1" timestamp="2017-12-25T18:55:18Z" changeset="54913567" uid="3296383" user="Reitstoen_import" />
	<node id="5303567221" lat="68.5231264" lon="15.8476166" version="1" timestamp="2017-12-25T18:55:18Z" changeset="54913567" uid="3296383" user="Reitstoen_import" />
	<node id="5303567101" lat="68.5169946" lon="15.8686915" version="1" timestamp="2017-12-25T18:55:18Z" changeset="54913567" uid="3296383" user="Reitstoen_import" />
	<node id="5303567103" lat="68.5171572" lon="15.8677442" version="1" timestamp="2017-12-25T18:55:18Z" changeset="54913567" uid="3296383" user="Reitstoen_import" />
	<node id="5303568655" lat="68.4608488" lon="16.0305482" version="1" timestamp="2017-12-25T18:55:37Z" changeset="54913567" uid="3296383" user="Reitstoen_import" />
	<node id="5303568661" lat="68.4607811" lon="16.0303759" version="1" timestamp="2017-12-25T18:55:37Z" changeset="54913567" uid="3296383" user="Reitstoen_import" />
	<node id="5303568587" lat="68.4724328" lon="16.0654783" version="2" timestamp="2020-01-02T17:06:32Z" changeset="79123045" uid="2800603" user="skifans" />
	<node id="5303568592" lat="68.4723953" lon="16.0653131" version="1" timestamp="2017-12-25T18:55:36Z" changeset="54913567" uid="3296383" user="Reitstoen_import" />
	<node id="5303566825" lat="68.4924821" lon="16.0814155" version="2" timestamp="2020-01-02T17:06:32Z" changeset="79123045" uid="2800603" user="skifans" />
	<node id="5303566827" lat="68.4925451" lon="16.081432" version="1" timestamp="2017-12-25T18:55:13Z" changeset="54913567" uid="3296383" user="Reitstoen_import" />
	<node id="5303566526" lat="68.5265643" lon="16.1057985" version="1" timestamp="2017-12-25T18:55:08Z" changeset="54913567" uid="3296383" user="Reitstoen_import" />
	<node id="5303566533" lat="68.5264676" lon="16.1056398" version="1" timestamp="2017-12-25T18:55:08Z" changeset="54913567" uid="3296383" user="Reitstoen_import" />
	<way id="200876490" version="7" timestamp="2022-01-24T06:56:00Z" changeset="116526664" uid="3497659" user="NKA">
		<tag k="bridge" v="yes" />
		<tag k="highway" v="trunk" />
		<tag k="lanes" v="2" />
		<tag k="layer" v="1" />
		<tag k="lit" v="no" />
		<tag k="maxspeed" v="80" />
		<tag k="name" v="Botnbrua - Heargeváhjogarovvi" />
		<tag k="name:no" v="Botnbrua" />
		<tag k="name:se" v="Heargeváhjogarovvi" />
		<tag k="ref" v="E 10;85" />
		<tag k="sidewalk" v="none" />
		<tag k="source:maxspeed" v="NO:rural" />
		<tag k="ssr:stedsnr" v="1073134" />
		<tag k="surface" v="asphalt" />
		<tag k="width" v="6.5" />
		<nd ref="5303567101" />
		<nd ref="5303567103" />
	</way>
	<way id="200876491" version="8" timestamp="2022-01-24T06:56:00Z" changeset="116526664" uid="3497659" user="NKA">
		<tag k="bridge" v="yes" />
		<tag k="highway" v="trunk" />
		<tag k="lanes" v="2" />
		<tag k="layer" v="1" />
		<tag k="lit" v="no" />
		<tag k="maxspeed" v="80" />
		<tag k="name" v="Austerdalsbrua" />
		<tag k="ref" v="E 10;85" />
		<tag k="source:maxspeed" v="NO:rural" />
		<tag k="ssr:stedsnr" v="1073222" />
		<tag k="surface" v="asphalt" />
		<tag k="width" v="6.5" />
		<nd ref="5303567221" />
		<nd ref="5303567120" />
	</way>
	<way id="549021157" version="3" timestamp="2022-01-24T06:56:00Z" changeset="116526664" uid="3497659" user="NKA">
		<tag k="bridge" v="yes" />
		<tag k="highway" v="trunk" />
		<tag k="layer" v="1" />
		<tag k="maxspeed" v="80" />
		<tag k="name" v="Stielvbrua" />
		<tag k="ref" v="E 10" />
		<tag k="ssr:stedsnr" v="1073242" />
		<nd ref="5303566526" />
		<nd ref="5303566533" />
	</way>
	<way id="549021158" version="3" timestamp="2022-01-24T06:56:00Z" changeset="116526664" uid="3497659" user="NKA">
		<tag k="bridge" v="yes" />
		<tag k="highway" v="trunk" />
		<tag k="layer" v="1" />
		<tag k="maxspeed" v="80" />
		<tag k="name" v="Djupfestbrua" />
		<tag k="ref" v="E 10" />
		<tag k="ssr:stedsnr" v="1073151" />
		<nd ref="5303566827" />
		<nd ref="5303566825" />
	</way>
	<way id="549021164" version="3" timestamp="2022-01-24T06:56:00Z" changeset="116526664" uid="3497659" user="NKA">
		<tag k="bridge" v="yes" />
		<tag k="highway" v="trunk" />
		<tag k="layer" v="1" />
		<tag k="maxspeed" v="80" />
		<tag k="name" v="Strandsbrua" />
		<tag k="ref" v="E 10" />
		<tag k="ssr:stedsnr" v="1073149" />
		<nd ref="5303568587" />
		<nd ref="5303568592" />
	</way>
	<way id="549021166" version="4" timestamp="2022-01-24T06:56:00Z" changeset="116526664" uid="3497659" user="NKA">
		<tag k="bridge" v="yes" />
		<tag k="highway" v="trunk" />
		<tag k="layer" v="1" />
		<tag k="maxspeed" v="60" />
		<tag k="name" v="Slåttdalsbrua" />
		<tag k="ref" v="E 10" />
		<tag k="ssr:stedsnr" v="1073136" />
		<nd ref="5303568655" />
		<nd ref="5303568661" />
	</way>
</osm>
