<?xml version="1.0" encoding="UTF-8"?>
<osm version="0.6" generator="osmapis">
	<node lat="64.25363333024166" lon="10.313611109399618" id="-43324">
		<tag k="name" v="Bessaker" />
		<tag k="ssr:date" v="2019-12-27" />
		<tag k="ssr:gruppe" v="navigasjon" />
		<tag k="ssr:hovedgruppe" v="infrastruktur" />
		<tag k="ssr:stedsnr" v="13465" />
		<tag k="ssr:type" v="fyrlykt" />
	</node>
	<node lat="63.97667877199101" lon="9.832906727732334" id="-43464">
		<tag k="name" v="Synstskjæret" />
		<tag k="ssr:date" v="2021-06-08" />
		<tag k="ssr:gruppe" v="navigasjon" />
		<tag k="ssr:hovedgruppe" v="infrastruktur" />
		<tag k="ssr:stedsnr" v="73725" />
		<tag k="ssr:type" v="fyrlykt" />
	</node>
	<node lat="64.05108888972511" lon="10.051961101660888" id="-43677">
		<tag k="name" v="Stokkneset" />
		<tag k="ssr:date" v="2019-12-27" />
		<tag k="ssr:gruppe" v="navigasjon" />
		<tag k="ssr:hovedgruppe" v="infrastruktur" />
		<tag k="ssr:stedsnr" v="151312" />
		<tag k="ssr:type" v="fyrlykt" />
	</node>
	<node lat="64.16224627597697" lon="10.132657816592829" id="-43820">
		<tag k="name" v="Marflesa" />
		<tag k="ssr:date" v="2020-09-10" />
		<tag k="ssr:gruppe" v="navigasjon" />
		<tag k="ssr:hovedgruppe" v="infrastruktur" />
		<tag k="ssr:stedsnr" v="196234" />
		<tag k="ssr:type" v="fyrlykt" />
	</node>
	<node lat="63.961958329715216" lon="10.22587500263487" id="-43841">
		<tag k="name" v="Åfjord kommune" />
		<tag k="ssr:date" v="2019-12-27" />
		<tag k="ssr:gruppe" v="administrativeIndelinger" />
		<tag k="ssr:hovedgruppe" v="offentligAdministrasjon" />
		<tag k="ssr:stedsnr" v="268143" />
		<tag k="ssr:type" v="kommune" />
	</node>
	<node lat="64.00360555450833" lon="9.968747227656133" id="-43851">
		<tag k="name" v="Støyten varde" />
		<tag k="ssr:date" v="2019-12-27" />
		<tag k="ssr:gruppe" v="navigasjon" />
		<tag k="ssr:hovedgruppe" v="infrastruktur" />
		<tag k="ssr:stedsnr" v="212280" />
		<tag k="ssr:type" v="lanterne" />
	</node>
	<node lat="63.89874537339158" lon="9.962857849781336" id="-44057">
		<tag k="name" v="Åfjord" />
		<tag k="old_name" v="Åfjord lykt" />
		<tag k="ssr:date" v="2020-09-10" />
		<tag k="ssr:gruppe" v="navigasjon" />
		<tag k="ssr:hovedgruppe" v="infrastruktur" />
		<tag k="ssr:stedsnr" v="256571" />
		<tag k="ssr:type" v="fyrlykt" />
	</node>
	<node lat="63.92686041445967" lon="9.884163803883583" id="-44165">
		<tag k="name" v="Leikubåen" />
		<tag k="old_name" v="Leikuboen lykt" />
		<tag k="ssr:date" v="2020-09-01" />
		<tag k="ssr:gruppe" v="navigasjon" />
		<tag k="ssr:hovedgruppe" v="infrastruktur" />
		<tag k="ssr:stedsnr" v="273177" />
		<tag k="ssr:type" v="lanterne" />
	</node>
	<node lat="64.04158809105644" lon="10.022395443544644" id="-44168">
		<tag k="name" v="Krokholmen" />
		<tag k="ssr:date" v="2020-09-10" />
		<tag k="ssr:gruppe" v="navigasjon" />
		<tag k="ssr:hovedgruppe" v="infrastruktur" />
		<tag k="ssr:stedsnr" v="273310" />
		<tag k="ssr:type" v="fyrlykt" />
	</node>
	<node lat="63.87500000308966" lon="10.333333342769109" id="-44391">
		<tag k="name" v="Fosen" />
		<tag k="ssr:date" v="2019-12-27" />
		<tag k="ssr:gruppe" v="terrengområder" />
		<tag k="ssr:hovedgruppe" v="terreng" />
		<tag k="ssr:stedsnr" v="389100" />
		<tag k="ssr:type" v="landskapsområde" />
	</node>
	<node lat="64.04698121881052" lon="9.923316424673313" id="-44524">
		<tag k="alt_name" v="Lina lykt" />
		<tag k="name" v="Lina" />
		<tag k="ssr:date" v="2020-09-10" />
		<tag k="ssr:gruppe" v="navigasjon" />
		<tag k="ssr:hovedgruppe" v="infrastruktur" />
		<tag k="ssr:stedsnr" v="453810" />
		<tag k="ssr:type" v="fyrlykt" />
	</node>
	<node lat="63.954820381575765" lon="9.99607354330997" id="-44546">
		<tag k="name" v="Tårnes" />
		<tag k="old_name" v="Tornes lykt" />
		<tag k="ssr:date" v="2020-09-10" />
		<tag k="ssr:gruppe" v="navigasjon" />
		<tag k="ssr:hovedgruppe" v="infrastruktur" />
		<tag k="ssr:stedsnr" v="456109" />
		<tag k="ssr:type" v="fyrlykt" />
	</node>
	<node lat="64.23011307720328" lon="10.133202534159324" id="-44706">
		<tag k="name" v="Kaura fyr" />
		<tag k="ssr:date" v="2021-06-08" />
		<tag k="ssr:gruppe" v="navigasjon" />
		<tag k="ssr:hovedgruppe" v="infrastruktur" />
		<tag k="ssr:stedsnr" v="499995" />
		<tag k="ssr:type" v="fyrstasjon" />
	</node>
	<node lat="64.02420555302947" lon="9.89869443547494" id="-45385">
		<tag k="name" v="Sjøvegen" />
		<tag k="ssr:date" v="2019-12-27" />
		<tag k="ssr:gruppe" v="veg" />
		<tag k="ssr:hovedgruppe" v="infrastruktur" />
		<tag k="ssr:stedsnr" v="759128" />
		<tag k="ssr:type" v="vegstrekning" />
	</node>
	<node lat="64.19331388578298" lon="10.071208331208211" id="-45504">
		<tag k="name" v="Almenningsværet" />
		<tag k="ssr:date" v="2019-12-27" />
		<tag k="ssr:gruppe" v="navigasjon" />
		<tag k="ssr:hovedgruppe" v="infrastruktur" />
		<tag k="ssr:stedsnr" v="815707" />
		<tag k="ssr:type" v="fyrlykt" />
	</node>
	<node lat="64.19275598056231" lon="10.13066547851794" id="-45622">
		<tag k="name" v="Farmannsøya" />
		<tag k="ssr:date" v="2021-06-08" />
		<tag k="ssr:gruppe" v="navigasjon" />
		<tag k="ssr:hovedgruppe" v="infrastruktur" />
		<tag k="ssr:stedsnr" v="924203" />
		<tag k="ssr:type" v="fyrlykt" />
	</node>
	<node lat="64.09939166476481" lon="10.03189166790145" id="-45709">
		<tag k="name" v="Pålodden" />
		<tag k="ssr:date" v="2019-12-27" />
		<tag k="ssr:gruppe" v="navigasjon" />
		<tag k="ssr:hovedgruppe" v="infrastruktur" />
		<tag k="ssr:stedsnr" v="880504" />
		<tag k="ssr:type" v="fyrlykt" />
	</node>
	<node lat="63.9284638895099" lon="10.061247230789043" id="-45749">
		<tag k="name" v="Sjøvegen" />
		<tag k="ssr:date" v="2019-12-27" />
		<tag k="ssr:gruppe" v="veg" />
		<tag k="ssr:hovedgruppe" v="infrastruktur" />
		<tag k="ssr:stedsnr" v="881303" />
		<tag k="ssr:type" v="vegstrekning" />
	</node>
	<node lat="64.0508888054162" lon="9.84842818164143" id="-45797">
		<tag k="name" v="Storskjæret" />
		<tag k="old_name" v="Storskjær;Stovskjer" />
		<tag k="ssr:date" v="2019-12-27" />
		<tag k="ssr:gruppe" v="navigasjon" />
		<tag k="ssr:hovedgruppe" v="infrastruktur" />
		<tag k="ssr:stedsnr" v="924130" />
		<tag k="ssr:type" v="fyrlykt" />
	</node>
	<node lat="63.95018418051475" lon="10.158730727261197" id="-46006">
		<tag k="name" v="Strandaunskjæret" />
		<tag k="ssr:date" v="2021-06-08" />
		<tag k="ssr:gruppe" v="navigasjon" />
		<tag k="ssr:hovedgruppe" v="infrastruktur" />
		<tag k="ssr:stedsnr" v="46945" />
		<tag k="ssr:type" v="fyrlykt" />
	</node>
	<node lat="64.02184999808512" lon="9.96908610583824" id="-46215">
		<tag k="name" v="Maltsekken" />
		<tag k="ssr:date" v="2019-12-27" />
		<tag k="ssr:gruppe" v="navigasjon" />
		<tag k="ssr:hovedgruppe" v="infrastruktur" />
		<tag k="ssr:stedsnr" v="91853" />
		<tag k="ssr:type" v="lanterne" />
	</node>
	<node lat="64.08833333746266" lon="10.187208338431814" id="-46604">
		<tag k="name" v="Skjørafjorden" />
		<tag k="ssr:date" v="2021-06-08" />
		<tag k="ssr:gruppe" v="navigasjon" />
		<tag k="ssr:hovedgruppe" v="infrastruktur" />
		<tag k="ssr:stedsnr" v="212396" />
		<tag k="ssr:type" v="fyrlykt" />
	</node>
	<node lat="64.18062500437681" lon="10.19586667362132" id="-46846">
		<tag k="name" v="Roan" />
		<tag k="ssr:date" v="2019-12-27" />
		<tag k="ssr:gruppe" v="navigasjon" />
		<tag k="ssr:hovedgruppe" v="infrastruktur" />
		<tag k="ssr:stedsnr" v="297498" />
		<tag k="ssr:type" v="fyrlykt" />
	</node>
	<node lat="64.0394341806918" lon="10.023316320600584" id="-46871">
		<tag k="loc_name" v="Brennholmen" />
		<tag k="name" v="Stegleholmen" />
		<tag k="old_name" v="Krokholmen" />
		<tag k="ssr:date" v="2020-09-10" />
		<tag k="ssr:gruppe" v="navigasjon" />
		<tag k="ssr:hovedgruppe" v="infrastruktur" />
		<tag k="ssr:stedsnr" v="317082" />
		<tag k="ssr:type" v="fyrlykt" />
	</node>
	<node lat="64.05787937582362" lon="10.042343046231858" id="-47597">
		<tag k="name" v="Skjærvikpynten" />
		<tag k="old_name" v="Skjærviklykta" />
		<tag k="ssr:date" v="2020-09-10" />
		<tag k="ssr:gruppe" v="navigasjon" />
		<tag k="ssr:hovedgruppe" v="infrastruktur" />
		<tag k="ssr:stedsnr" v="516793" />
		<tag k="ssr:type" v="fyrlykt" />
	</node>
	<node lat="63.92420555121267" lon="9.884663882987594" id="-48078">
		<tag k="name" v="Smørholmskjærene" />
		<tag k="ssr:date" v="2019-12-27" />
		<tag k="ssr:gruppe" v="navigasjon" />
		<tag k="ssr:hovedgruppe" v="infrastruktur" />
		<tag k="ssr:stedsnr" v="721501" />
		<tag k="ssr:type" v="fyrlykt" />
	</node>
	<node lat="64.00473313533767" lon="9.949001812557295" id="-48111">
		<tag k="name" v="Bruskjærbåan" />
		<tag k="ssr:date" v="2021-06-08" />
		<tag k="ssr:gruppe" v="navigasjon" />
		<tag k="ssr:hovedgruppe" v="infrastruktur" />
		<tag k="ssr:stedsnr" v="742071" />
		<tag k="ssr:type" v="fyrlykt" />
	</node>
	<node lat="64.10694582728593" lon="9.895937893682778" id="-48368">
		<tag k="name" v="Hosnaøyan" />
		<tag k="ssr:date" v="2021-06-08" />
		<tag k="ssr:gruppe" v="navigasjon" />
		<tag k="ssr:hovedgruppe" v="infrastruktur" />
		<tag k="ssr:stedsnr" v="812471" />
		<tag k="ssr:type" v="fyrlykt" />
	</node>
	<node lat="64.22313696652668" lon="10.237028389522584" id="-48743">
		<tag k="name" v="Terningen" />
		<tag k="ssr:date" v="2020-09-15" />
		<tag k="ssr:gruppe" v="navigasjon" />
		<tag k="ssr:hovedgruppe" v="infrastruktur" />
		<tag k="ssr:stedsnr" v="936711" />
		<tag k="ssr:type" v="fyrlykt" />
	</node>
	<node lat="63.993033336718945" lon="9.863783324904515" id="-48746">
		<tag k="name" v="Slåttøya" />
		<tag k="old_name" v="Slåttøy" />
		<tag k="ssr:date" v="2019-12-27" />
		<tag k="ssr:gruppe" v="navigasjon" />
		<tag k="ssr:hovedgruppe" v="infrastruktur" />
		<tag k="ssr:stedsnr" v="940127" />
		<tag k="ssr:type" v="fyrlykt" />
	</node>
	<node lat="63.935741664206375" lon="9.965669438829414" id="-48748">
		<tag k="name" v="Bingsholmsråsa" />
		<tag k="old_name" v="Bingsholmråsa;Bingsholmsråsa lykt" />
		<tag k="ssr:date" v="2019-12-27" />
		<tag k="ssr:gruppe" v="navigasjon" />
		<tag k="ssr:hovedgruppe" v="infrastruktur" />
		<tag k="ssr:stedsnr" v="940300" />
		<tag k="ssr:type" v="fyrlykt" />
	</node>
	<node lat="64.014446801577" lon="11.48188662926966" id="-49000">
		<tag k="name" v="Trøndelag fylke - Trööndelagen fylhke" />
		<tag k="name:no" v="Trøndelag fylke" />
		<tag k="name:sma" v="Trööndelagen fylhke" />
		<tag k="ssr:date" v="2021-06-08" />
		<tag k="ssr:gruppe" v="administrativeIndelinger" />
		<tag k="ssr:hovedgruppe" v="offentligAdministrasjon" />
		<tag k="ssr:stedsnr" v="980645" />
		<tag k="ssr:type" v="fylke" />
	</node>
	<node lat="64.25496282568822" lon="10.356854147475453" id="-49001">
		<tag k="name" v="Moanveien" />
		<tag k="ssr:date" v="2019-12-27" />
		<tag k="ssr:gruppe" v="veg" />
		<tag k="ssr:hovedgruppe" v="infrastruktur" />
		<tag k="ssr:stedsnr" v="981414" />
		<tag k="ssr:type" v="adressenavn" />
	</node>
	<node lat="63.94452700363683" lon="10.038433582748313" id="-49002">
		<tag k="name" v="Grimstadøya" />
		<tag k="ssr:date" v="2019-12-27" />
		<tag k="ssr:gruppe" v="veg" />
		<tag k="ssr:hovedgruppe" v="infrastruktur" />
		<tag k="ssr:stedsnr" v="1021307" />
		<tag k="ssr:type" v="adressenavn" />
	</node>
	<node lat="63.89474147772113" lon="9.992133529101022" id="-49003">
		<tag k="name" v="Kjørem" />
		<tag k="ssr:date" v="2019-12-27" />
		<tag k="ssr:gruppe" v="veg" />
		<tag k="ssr:hovedgruppe" v="infrastruktur" />
		<tag k="ssr:stedsnr" v="1021308" />
		<tag k="ssr:type" v="adressenavn" />
	</node>
	<node lat="64.10645529602692" lon="10.222737997142175" id="-49005">
		<tag k="name" v="Vorpstranda" />
		<tag k="ssr:date" v="2020-04-15" />
		<tag k="ssr:gruppe" v="veg" />
		<tag k="ssr:hovedgruppe" v="infrastruktur" />
		<tag k="ssr:stedsnr" v="1076462" />
		<tag k="ssr:type" v="adressenavn" />
	</node>
	<node lat="63.93287125995168" lon="10.029259885018595" id="-49010">
		<tag k="name" v="Øvre Flatlia" />
		<tag k="ssr:date" v="2020-12-03" />
		<tag k="ssr:gruppe" v="veg" />
		<tag k="ssr:hovedgruppe" v="infrastruktur" />
		<tag k="ssr:stedsnr" v="1079156" />
		<tag k="ssr:type" v="adressenavn" />
	</node>
	<node lat="63.95083589715651" lon="10.147410358189406" id="-49013">
		<tag k="name" v="Brannaveien" />
		<tag k="ssr:date" v="2020-12-03" />
		<tag k="ssr:gruppe" v="veg" />
		<tag k="ssr:hovedgruppe" v="infrastruktur" />
		<tag k="ssr:stedsnr" v="1079155" />
		<tag k="ssr:type" v="adressenavn" />
	</node>
	<node lat="64.22035157761708" lon="10.414481636232335" id="-49018">
		<tag k="name" v="Bessakerfjellveien" />
		<tag k="ssr:date" v="2021-10-13" />
		<tag k="ssr:gruppe" v="veg" />
		<tag k="ssr:hovedgruppe" v="infrastruktur" />
		<tag k="ssr:stedsnr" v="1082575" />
		<tag k="ssr:type" v="adressenavn" />
	</node>
</osm>
