<?xml version="1.0" encoding="UTF-8"?>
<osm version="0.6" generator="osmapis">
	<node id="73988841" lat="60.4130291" lon="11.061156" version="9" timestamp="2022-04-24T05:01:17Z" changeset="120110716" uid="3497659" user="NKA">
		<tag k="alt_name" v="Prestegårdshagen" />
		<tag k="name" v="Prestegardshagan" />
		<tag k="place" v="village" />
		<tag k="population" v="362" />
		<tag k="population:date" v="2021-01-01" />
		<tag k="ref:ssb_tettsted" v="0691" />
		<tag k="source:population" v="SSB - befolkning i tettstedet" />
		<tag k="ssr:stedsnr" v="734645" />
	</node>
	<node id="75486115" lat="60.3473011" lon="11.0129468" version="4" timestamp="2022-04-24T05:01:17Z" changeset="120110716" uid="3497659" user="NKA">
		<tag k="alt_name" v="Rustad" />
		<tag k="name" v="Rustaden" />
		<tag k="place" v="quarter" />
		<tag k="ssr:stedsnr" v="626954" />
	</node>
	<node id="75487029" lat="60.3763113" lon="11.0539355" version="3" timestamp="2022-04-24T05:01:17Z" changeset="120110716" uid="3497659" user="NKA">
		<tag k="name" v="Haugnes" />
		<tag k="place" v="hamlet" />
		<tag k="ssr:stedsnr" v="552616" />
	</node>
	<node id="75491703" lat="60.4349656" lon="11.0656394" version="10" timestamp="2022-04-24T05:01:17Z" changeset="120110716" uid="3497659" user="NKA">
		<tag k="alt_name" v="Torget;Hurdal" />
		<tag k="junction" v="yes" />
		<tag k="name" v="Hurdal torg" />
		<tag k="place" v="village" />
		<tag k="population" v="726" />
		<tag k="population:date" v="2021-01-01" />
		<tag k="ref:ssb_tettsted" v="0692" />
		<tag k="source:population" v="SSB - befolkning i tettstedet" />
		<tag k="ssr:stedsnr" v="505932" />
	</node>
	<node id="75496353" lat="60.4240697" lon="11.0403277" version="3" timestamp="2022-04-24T05:01:17Z" changeset="120110716" uid="3497659" user="NKA">
		<tag k="alt_name" v="Buråsen;Buraas" />
		<tag k="name" v="Burås" />
		<tag k="place" v="hamlet" />
		<tag k="ssr:stedsnr" v="856641" />
	</node>
	<node id="330989981" lat="60.3678746" lon="10.9945507" version="3" timestamp="2022-04-24T05:01:17Z" changeset="120110716" uid="3497659" user="NKA">
		<tag k="name" v="Tajet" />
		<tag k="place" v="hamlet" />
		<tag k="ssr:stedsnr" v="552607" />
	</node>
	<node id="330990111" lat="60.3736562" lon="10.9202428" version="3" timestamp="2022-04-24T05:01:17Z" changeset="120110716" uid="3497659" user="NKA">
		<tag k="name" v="Jeppedalen" />
		<tag k="place" v="hamlet" />
		<tag k="ssr:stedsnr" v="103710" />
	</node>
	<node id="330990491" lat="60.3671944" lon="11.0134318" version="4" timestamp="2022-04-24T05:01:17Z" changeset="120110716" uid="3497659" user="NKA">
		<tag k="name" v="Viken" />
		<tag k="place" v="hamlet" />
		<tag k="ssr:stedsnr" v="188588" />
	</node>
	<node id="330990726" lat="60.3861547" lon="11.0395814" version="3" timestamp="2022-04-24T05:01:17Z" changeset="120110716" uid="3497659" user="NKA">
		<tag k="alt_name" v="Rudsgardane;Rud" />
		<tag k="name" v="Rudsgardene" />
		<tag k="place" v="hamlet" />
		<tag k="ssr:stedsnr" v="491594" />
	</node>
	<node id="330990850" lat="60.4057898" lon="11.0461447" version="3" timestamp="2022-04-24T05:01:17Z" changeset="120110716" uid="3497659" user="NKA">
		<tag k="name" v="Lundby" />
		<tag k="place" v="hamlet" />
		<tag k="ssr:stedsnr" v="309627" />
	</node>
	<node id="330991015" lat="60.4141377" lon="11.0309843" version="4" timestamp="2022-04-24T05:01:17Z" changeset="120110716" uid="3497659" user="NKA">
		<tag k="name" v="Klokkermoen" />
		<tag k="place" v="quarter" />
		<tag k="ssr:stedsnr" v="249600" />
	</node>
	<node id="330991735" lat="60.4433161" lon="10.8542371" version="3" timestamp="2022-04-24T05:01:17Z" changeset="120110716" uid="3497659" user="NKA">
		<tag k="name" v="Skabland" />
		<tag k="place" v="hamlet" />
		<tag k="ssr:stedsnr" v="309680" />
	</node>
	<node id="331054369" lat="60.4688045" lon="11.0398748" version="2" timestamp="2022-04-24T05:01:17Z" changeset="120110716" uid="3497659" user="NKA">
		<tag k="name" v="Flaen" />
		<tag k="place" v="hamlet" />
		<tag k="ssr:stedsnr" v="491694" />
	</node>
	<node id="331054550" lat="60.4938948" lon="11.0511823" version="2" timestamp="2022-04-24T05:01:17Z" changeset="120110716" uid="3497659" user="NKA">
		<tag k="name" v="Sæteråsen" />
		<tag k="official_name" v="Seteråsen" />
		<tag k="place" v="hamlet" />
		<tag k="ssr:stedsnr" v="831037" />
	</node>
	<node id="331094457" lat="60.4174892" lon="11.0624477" version="2" timestamp="2022-04-24T05:01:17Z" changeset="120110716" uid="3497659" user="NKA">
		<tag k="name" v="Knaienga" />
		<tag k="place" v="farm" />
		<tag k="ssr:stedsnr" v="674609" />
	</node>
	<node id="331094544" lat="60.4355161" lon="11.0389495" version="2" timestamp="2022-04-24T05:01:17Z" changeset="120110716" uid="3497659" user="NKA">
		<tag k="name" v="Morten" />
		<tag k="place" v="farm" />
		<tag k="ssr:stedsnr" v="431672" />
	</node>
	<node id="382490986" lat="60.4308061" lon="10.6872905" version="4" timestamp="2021-04-27T11:11:44Z" changeset="103701442" uid="435265" user="Ansgar G Grimsrud">
		<tag k="ele" v="812" />
		<tag k="name" v="Lushaugen" />
		<tag k="natural" v="peak" />
		<tag k="source" v="survey" />
		<tag k="ssr:stedsnr" v="492114" />
	</node>
	<node id="1162060737" lat="60.4537181" lon="10.8946277" version="2" timestamp="2022-04-24T05:01:17Z" changeset="120110716" uid="3497659" user="NKA">
		<tag k="name" v="Bjørtomt" />
		<tag k="place" v="hamlet" />
		<tag k="ssr:stedsnr" v="856681" />
	</node>
	<node id="1162087706" lat="60.4449497" lon="10.9652751" version="2" timestamp="2022-04-24T05:01:17Z" changeset="120110716" uid="3497659" user="NKA">
		<tag k="name" v="Gjødingsetra" />
		<tag k="official_name" v="Gjødingssætra" />
		<tag k="place" v="hamlet" />
		<tag k="ssr:stedsnr" v="6663" />
	</node>
	<node id="1236519612" lat="60.3571115" lon="11.0628918" version="2" timestamp="2022-04-24T05:01:17Z" changeset="120110716" uid="3497659" user="NKA">
		<tag k="name" v="Bogen" />
		<tag k="place" v="hamlet" />
		<tag k="ssr:stedsnr" v="492495" />
	</node>
	<node id="1247449567" lat="60.4141568" lon="11.0457273" version="2" timestamp="2022-04-24T05:01:17Z" changeset="120110716" uid="3497659" user="NKA">
		<tag k="name" v="Jåterud" />
		<tag k="place" v="hamlet" />
		<tag k="ssr:stedsnr" v="795650" />
	</node>
	<node id="1704725581" lat="60.4386272" lon="10.7082746" version="2" timestamp="2022-04-24T05:01:17Z" changeset="120110716" uid="3497659" user="NKA">
		<tag k="name" v="Bustevollen" />
		<tag k="place" v="isolated_dwelling" />
		<tag k="ssr:stedsnr" v="613141" />
	</node>
	<node id="5684758031" lat="60.4028061" lon="11.0943269" version="2" timestamp="2022-02-01T07:28:18Z" changeset="116853439" uid="3497659" user="NKA">
		<tag k="junction" v="yes" />
		<tag k="name" v="Jakkesvingen" />
		<tag k="ssr:stedsnr" v="770758" />
	</node>
	<node id="9689088919" lat="60.4545655" lon="10.7570494" version="1" timestamp="2022-04-24T05:01:17Z" changeset="120110716" uid="3497659" user="NKA">
		<tag k="name" v="Søndre Skimten" />
		<tag k="place" v="farm" />
		<tag k="ssr:stedsnr" v="544456" />
	</node>
	<node id="9689088920" lat="60.46045" lon="10.8229862" version="1" timestamp="2022-04-24T05:01:17Z" changeset="120110716" uid="3497659" user="NKA">
		<tag k="name" v="Presteseter" />
		<tag k="place" v="locality" />
		<tag k="ssr:stedsnr" v="540900" />
	</node>
	<node id="9689088921" lat="60.4540028" lon="10.7817695" version="1" timestamp="2022-04-24T05:01:17Z" changeset="120110716" uid="3497659" user="NKA">
		<tag k="name" v="Odalen" />
		<tag k="place" v="locality" />
		<tag k="ssr:stedsnr" v="545356" />
	</node>
	<node id="9689088922" lat="60.4419334" lon="10.7619862" version="1" timestamp="2022-04-24T05:01:17Z" changeset="120110716" uid="3497659" user="NKA">
		<tag k="alt_name" v="Granstua" />
		<tag k="name" v="Gransstua" />
		<tag k="place" v="isolated_dwelling" />
		<tag k="ssr:stedsnr" v="370679" />
	</node>
	<node id="9689088923" lat="60.4388914" lon="10.7274699" version="1" timestamp="2022-04-24T05:01:17Z" changeset="120110716" uid="3497659" user="NKA">
		<tag k="alt_name" v="Tuv Sr;Tuvsætra" />
		<tag k="historic" v="shieling" />
		<tag k="name" v="Tuvssetra" />
		<tag k="place" v="isolated_dwelling" />
		<tag k="ssr:stedsnr" v="370666" />
	</node>
	<node id="9689088924" lat="60.4533833" lon="10.8399" version="1" timestamp="2022-04-24T05:01:17Z" changeset="120110716" uid="3497659" user="NKA">
		<tag k="name" v="Øvre Østbråtan" />
		<tag k="place" v="locality" />
		<tag k="ssr:stedsnr" v="404284" />
	</node>
	<node id="9689088925" lat="60.4591083" lon="10.8434056" version="1" timestamp="2022-04-24T05:01:17Z" changeset="120110716" uid="3497659" user="NKA">
		<tag k="name" v="Kusnarbråtan" />
		<tag k="place" v="locality" />
		<tag k="ssr:stedsnr" v="298889" />
	</node>
	<node id="9689088926" lat="60.3803563" lon="11.027231" version="1" timestamp="2022-04-24T05:01:17Z" changeset="120110716" uid="3497659" user="NKA">
		<tag k="name" v="Rudsenga" />
		<tag k="place" v="farm" />
		<tag k="ssr:stedsnr" v="968578" />
	</node>
	<node id="9689088927" lat="60.4456" lon="10.744675" version="1" timestamp="2022-04-24T05:01:17Z" changeset="120110716" uid="3497659" user="NKA">
		<tag k="name" v="Dumpidal" />
		<tag k="place" v="isolated_dwelling" />
		<tag k="ssr:stedsnr" v="67687" />
	</node>
	<node id="9689088928" lat="60.3802833" lon="11.0314749" version="1" timestamp="2022-04-24T05:01:17Z" changeset="120110716" uid="3497659" user="NKA">
		<tag k="name" v="Holmen" />
		<tag k="place" v="farm" />
		<tag k="ssr:stedsnr" v="665613" />
	</node>
	<node id="9689088929" lat="60.3458499" lon="11.0206188" version="1" timestamp="2022-04-24T05:01:17Z" changeset="120110716" uid="3497659" user="NKA">
		<tag k="alt_name" v="Grensa" />
		<tag k="name" v="Grensen" />
		<tag k="place" v="farm" />
		<tag k="ssr:stedsnr" v="431546" />
	</node>
	<node id="9689088930" lat="60.362125" lon="10.9964027" version="1" timestamp="2022-04-24T05:01:17Z" changeset="120110716" uid="3497659" user="NKA">
		<tag k="name" v="Bakken" />
		<tag k="place" v="farm" />
		<tag k="ssr:stedsnr" v="492492" />
	</node>
	<node id="9689088931" lat="60.3683947" lon="11.0162271" version="1" timestamp="2022-04-24T05:01:17Z" changeset="120110716" uid="3497659" user="NKA">
		<tag k="name" v="Støen" />
		<tag k="place" v="isolated_dwelling" />
		<tag k="ssr:stedsnr" v="249549" />
	</node>
	<node id="9689088932" lat="60.3737974" lon="10.9209965" version="1" timestamp="2022-04-24T05:01:17Z" changeset="120110716" uid="3497659" user="NKA">
		<tag k="name" v="Jølmyr" />
		<tag k="place" v="locality" />
		<tag k="ssr:stedsnr" v="431578" />
	</node>
	<node id="9689088933" lat="60.3779028" lon="10.9343972" version="1" timestamp="2022-04-24T05:01:17Z" changeset="120110716" uid="3497659" user="NKA">
		<tag k="name" v="Hagaseter" />
		<tag k="place" v="locality" />
		<tag k="ssr:stedsnr" v="42690" />
	</node>
	<node id="9689088934" lat="60.3754305" lon="10.9198306" version="1" timestamp="2022-04-24T05:01:17Z" changeset="120110716" uid="3497659" user="NKA">
		<tag k="name" v="Jeppeli" />
		<tag k="place" v="isolated_dwelling" />
		<tag k="ssr:stedsnr" v="309585" />
	</node>
	<node id="9689088935" lat="60.3473857" lon="11.0090062" version="1" timestamp="2022-04-24T05:01:17Z" changeset="120110716" uid="3497659" user="NKA">
		<tag k="name" v="Roaldtun" />
		<tag k="old_name" v="Aspelund" />
		<tag k="place" v="farm" />
		<tag k="ssr:stedsnr" v="1082069" />
	</node>
	<node id="9689088936" lat="60.3521833" lon="10.99395" version="1" timestamp="2022-04-24T05:01:17Z" changeset="120110716" uid="3497659" user="NKA">
		<tag k="name" v="Haugen" />
		<tag k="place" v="farm" />
		<tag k="ssr:stedsnr" v="67554" />
	</node>
	<node id="9689088937" lat="60.3844306" lon="10.9719277" version="1" timestamp="2022-04-24T05:01:17Z" changeset="120110716" uid="3497659" user="NKA">
		<tag k="alt_name" v="Olufhytta" />
		<tag k="name" v="Olufstua" />
		<tag k="place" v="isolated_dwelling" />
		<tag k="ssr:stedsnr" v="673586" />
	</node>
	<node id="9689088938" lat="60.3513374" lon="11.0049654" version="1" timestamp="2022-04-24T05:01:17Z" changeset="120110716" uid="3497659" user="NKA">
		<tag k="name" v="Grindbråten" />
		<tag k="place" v="farm" />
		<tag k="ssr:stedsnr" v="856569" />
	</node>
	<node id="9689088939" lat="60.4467528" lon="10.8763778" version="1" timestamp="2022-04-24T05:01:17Z" changeset="120110716" uid="3497659" user="NKA">
		<tag k="name" v="Nordenga" />
		<tag k="place" v="farm" />
		<tag k="ssr:stedsnr" v="431694" />
	</node>
	<node id="9689088940" lat="60.4250582" lon="10.9155477" version="1" timestamp="2022-04-24T05:01:17Z" changeset="120110716" uid="3497659" user="NKA">
		<tag k="name" v="Nedre Grasbakken" />
		<tag k="place" v="farm" />
		<tag k="ssr:stedsnr" v="613630" />
	</node>
	<node id="9689088941" lat="60.4140556" lon="10.9820028" version="1" timestamp="2022-04-24T05:01:17Z" changeset="120110716" uid="3497659" user="NKA">
		<tag k="name" v="Lundbyseter" />
		<tag k="place" v="locality" />
		<tag k="ssr:stedsnr" v="163185" />
	</node>
	<node id="9689088942" lat="60.4467997" lon="10.8844044" version="1" timestamp="2022-04-24T05:01:17Z" changeset="120110716" uid="3497659" user="NKA">
		<tag k="name" v="Oppegårdstua" />
		<tag k="place" v="isolated_dwelling" />
		<tag k="ssr:stedsnr" v="161293" />
	</node>
	<node id="9689088943" lat="60.44515" lon="10.973425" version="1" timestamp="2022-04-24T05:01:17Z" changeset="120110716" uid="3497659" user="NKA">
		<tag k="name" v="Øvreenga" />
		<tag k="place" v="locality" />
		<tag k="ssr:stedsnr" v="102727" />
	</node>
	<node id="9689088944" lat="60.447425" lon="10.8633223" version="1" timestamp="2022-04-24T05:01:17Z" changeset="120110716" uid="3497659" user="NKA">
		<tag k="name" v="Benterud" />
		<tag k="place" v="locality" />
		<tag k="ssr:stedsnr" v="161290" />
	</node>
	<node id="9689088945" lat="60.3800181" lon="10.9115812" version="1" timestamp="2022-04-24T05:01:17Z" changeset="120110716" uid="3497659" user="NKA">
		<tag k="name" v="Øvre Jeppedalen" />
		<tag k="place" v="farm" />
		<tag k="ssr:stedsnr" v="856604" />
	</node>
	<node id="9689088946" lat="60.4224552" lon="10.9677695" version="1" timestamp="2022-04-24T05:01:17Z" changeset="120110716" uid="3497659" user="NKA">
		<tag k="name" v="Nedre Lykkja" />
		<tag k="place" v="locality" />
		<tag k="ssr:stedsnr" v="795664" />
	</node>
	<node id="9689088947" lat="60.4442126" lon="10.8789083" version="1" timestamp="2022-04-24T05:01:17Z" changeset="120110716" uid="3497659" user="NKA">
		<tag k="name" v="Nordgård" />
		<tag k="place" v="farm" />
		<tag k="ssr:stedsnr" v="848420" />
	</node>
	<node id="9689088948" lat="60.4216068" lon="10.9192548" version="1" timestamp="2022-04-24T05:01:17Z" changeset="120110716" uid="3497659" user="NKA">
		<tag k="name" v="Tuftelia" />
		<tag k="place" v="farm" />
		<tag k="ssr:stedsnr" v="856652" />
	</node>
	<node id="9689088949" lat="60.4399835" lon="10.8545548" version="1" timestamp="2022-04-24T05:01:17Z" changeset="120110716" uid="3497659" user="NKA">
		<tag k="name" v="Skablandstua" />
		<tag k="place" v="isolated_dwelling" />
		<tag k="ssr:stedsnr" v="612668" />
	</node>
	<node id="9689088950" lat="60.4376181" lon="10.8777114" version="1" timestamp="2022-04-24T05:01:17Z" changeset="120110716" uid="3497659" user="NKA">
		<tag k="name" v="Leivstøa" />
		<tag k="place" v="isolated_dwelling" />
		<tag k="ssr:stedsnr" v="848428" />
	</node>
	<node id="9689088951" lat="60.3713588" lon="10.9244189" version="1" timestamp="2022-04-24T05:01:17Z" changeset="120110716" uid="3497659" user="NKA">
		<tag k="name" v="Kroken" />
		<tag k="place" v="locality" />
		<tag k="ssr:stedsnr" v="552608" />
	</node>
	<node id="9689088952" lat="60.378584" lon="10.9135734" version="1" timestamp="2022-04-24T05:01:17Z" changeset="120110716" uid="3497659" user="NKA">
		<tag k="name" v="Nedre Jeppedalen" />
		<tag k="place" v="farm" />
		<tag k="ssr:stedsnr" v="552623" />
	</node>
	<node id="9689088953" lat="60.3777278" lon="10.9204917" version="1" timestamp="2022-04-24T05:01:17Z" changeset="120110716" uid="3497659" user="NKA">
		<tag k="name" v="Gorobråtan" />
		<tag k="place" v="locality" />
		<tag k="ssr:stedsnr" v="406724" />
	</node>
	<node id="9689088954" lat="60.440648" lon="10.8840233" version="1" timestamp="2022-04-24T05:01:17Z" changeset="120110716" uid="3497659" user="NKA">
		<tag k="name" v="Nedre Sørgård" />
		<tag k="place" v="farm" />
		<tag k="ssr:stedsnr" v="423453" />
	</node>
	<node id="9689088955" lat="60.4287083" lon="10.9241166" version="1" timestamp="2022-04-24T05:01:17Z" changeset="120110716" uid="3497659" user="NKA">
		<tag k="name" v="Badstuenga" />
		<tag k="place" v="locality" />
		<tag k="ssr:stedsnr" v="284175" />
	</node>
	<node id="9689088956" lat="60.42485" lon="10.96584" version="1" timestamp="2022-04-24T05:01:17Z" changeset="120110716" uid="3497659" user="NKA">
		<tag k="name" v="Brattlia" />
		<tag k="place" v="hamlet" />
		<tag k="ssr:stedsnr" v="301038" />
	</node>
	<node id="9689088957" lat="60.4448612" lon="10.8734598" version="1" timestamp="2022-04-24T05:01:17Z" changeset="120110716" uid="3497659" user="NKA">
		<tag k="name" v="Brustua" />
		<tag k="place" v="farm" />
		<tag k="ssr:stedsnr" v="343262" />
	</node>
	<node id="9689088958" lat="60.4203611" lon="10.9260751" version="1" timestamp="2022-04-24T05:01:17Z" changeset="120110716" uid="3497659" user="NKA">
		<tag k="name" v="Lyuholen" />
		<tag k="place" v="locality" />
		<tag k="ssr:stedsnr" v="284170" />
	</node>
	<node id="9689088959" lat="60.4154305" lon="10.8796166" version="1" timestamp="2022-04-24T05:01:17Z" changeset="120110716" uid="3497659" user="NKA">
		<tag k="name" v="Svettingshytta" />
		<tag k="place" v="locality" />
		<tag k="ssr:stedsnr" v="163208" />
	</node>
	<node id="9689088960" lat="60.435475" lon="10.8842638" version="1" timestamp="2022-04-24T05:01:17Z" changeset="120110716" uid="3497659" user="NKA">
		<tag k="name" v="Jørnsrud" />
		<tag k="place" v="locality" />
		<tag k="ssr:stedsnr" v="404306" />
	</node>
	<node id="9689088961" lat="60.4393461" lon="10.8869001" version="1" timestamp="2022-04-24T05:01:17Z" changeset="120110716" uid="3497659" user="NKA">
		<tag k="alt_name" v="Sørgarden" />
		<tag k="name" v="Øvre Sørgård" />
		<tag k="place" v="farm" />
		<tag k="ssr:stedsnr" v="59411" />
	</node>
	<node id="9689088962" lat="60.4097617" lon="10.9900371" version="1" timestamp="2022-04-24T05:01:17Z" changeset="120110716" uid="3497659" user="NKA">
		<tag k="name" v="Velgjortstua" />
		<tag k="place" v="locality" />
		<tag k="ssr:stedsnr" v="42833" />
	</node>
	<node id="9689088963" lat="60.4192694" lon="10.9146778" version="1" timestamp="2022-04-24T05:01:17Z" changeset="120110716" uid="3497659" user="NKA">
		<tag k="name" v="Sørseterbråtan" />
		<tag k="place" v="locality" />
		<tag k="ssr:stedsnr" v="102204" />
	</node>
	<node id="9689088964" lat="60.4531222" lon="10.9050695" version="1" timestamp="2022-04-24T05:01:17Z" changeset="120110716" uid="3497659" user="NKA">
		<tag k="name" v="Marka" />
		<tag k="place" v="locality" />
		<tag k="ssr:stedsnr" v="724635" />
	</node>
	<node id="9689088965" lat="60.4296806" lon="10.8645611" version="1" timestamp="2022-04-24T05:01:17Z" changeset="120110716" uid="3497659" user="NKA">
		<tag k="name" v="Skjeggerudstua" />
		<tag k="place" v="locality" />
		<tag k="ssr:stedsnr" v="6654" />
	</node>
	<node id="9689088966" lat="60.3924867" lon="11.0788046" version="1" timestamp="2022-04-24T05:01:17Z" changeset="120110716" uid="3497659" user="NKA">
		<tag k="name" v="Skogly" />
		<tag k="place" v="locality" />
		<tag k="ssr:stedsnr" v="770880" />
	</node>
	<node id="9689088967" lat="60.44416" lon="11.0232943" version="1" timestamp="2022-04-24T05:01:17Z" changeset="120110716" uid="3497659" user="NKA">
		<tag k="name" v="Haug" />
		<tag k="place" v="hamlet" />
		<tag k="ssr:stedsnr" v="127687" />
	</node>
	<node id="9689088968" lat="60.4684417" lon="11.061793" version="1" timestamp="2022-04-24T05:01:17Z" changeset="120110716" uid="3497659" user="NKA">
		<tag k="name" v="Solsrud" />
		<tag k="place" v="farm" />
		<tag k="ssr:stedsnr" v="127730" />
	</node>
	<node id="9689088969" lat="60.3653076" lon="10.9932936" version="1" timestamp="2022-04-24T05:01:17Z" changeset="120110716" uid="3497659" user="NKA">
		<tag k="name" v="Øverbakken" />
		<tag k="place" v="farm" />
		<tag k="ssr:stedsnr" v="127579" />
	</node>
	<node id="9689088970" lat="60.4185396" lon="11.0671135" version="1" timestamp="2022-04-24T05:01:17Z" changeset="120110716" uid="3497659" user="NKA">
		<tag k="name" v="Framnes" />
		<tag k="place" v="locality" />
		<tag k="ssr:stedsnr" v="965453" />
	</node>
	<node id="9689088971" lat="60.3648925" lon="11.0006993" version="1" timestamp="2022-04-24T05:01:17Z" changeset="120110716" uid="3497659" user="NKA">
		<tag k="name" v="Nordre Nordgarden" />
		<tag k="place" v="farm" />
		<tag k="ssr:stedsnr" v="103533" />
	</node>
	<node id="9689088972" lat="60.4405917" lon="10.8704195" version="1" timestamp="2022-04-24T05:01:17Z" changeset="120110716" uid="3497659" user="NKA">
		<tag k="name" v="Nordgårdsvangen" />
		<tag k="place" v="locality" />
		<tag k="ssr:stedsnr" v="787419" />
	</node>
	<node id="9689088973" lat="60.4431885" lon="10.871836" version="1" timestamp="2022-04-24T05:01:17Z" changeset="120110716" uid="3497659" user="NKA">
		<tag k="name" v="Sørenga" />
		<tag k="place" v="farm" />
		<tag k="ssr:stedsnr" v="916695" />
	</node>
	<node id="9689088974" lat="60.4357328" lon="11.0492065" version="1" timestamp="2022-04-24T05:01:17Z" changeset="120110716" uid="3497659" user="NKA">
		<tag k="alt_name" v="Gråterud" />
		<tag k="name" v="Gråtrud" />
		<tag k="place" v="farm" />
		<tag k="ssr:stedsnr" v="673648" />
	</node>
	<node id="9689088975" lat="60.4390222" lon="11.0590028" version="1" timestamp="2022-04-24T05:01:17Z" changeset="120110716" uid="3497659" user="NKA">
		<tag k="name" v="Moen" />
		<tag k="place" v="farm" />
		<tag k="ssr:stedsnr" v="795670" />
	</node>
	<node id="9689088976" lat="60.3803998" lon="11.0743154" version="1" timestamp="2022-04-24T05:01:17Z" changeset="120110716" uid="3497659" user="NKA">
		<tag k="loc_name" v="Nedsetra" />
		<tag k="name" v="Vestre Eidsæter" />
		<tag k="place" v="farm" />
		<tag k="ssr:stedsnr" v="673566" />
	</node>
	<node id="9689088977" lat="60.4137" lon="10.9071944" version="1" timestamp="2022-04-24T05:01:17Z" changeset="120110716" uid="3497659" user="NKA">
		<tag k="alt_name" v="Sørseterstua" />
		<tag k="historic" v="shieling" />
		<tag k="name" v="Sørsæterstua" />
		<tag k="place" v="isolated_dwelling" />
		<tag k="ssr:stedsnr" v="674608" />
	</node>
	<node id="9689088978" lat="60.4869921" lon="10.9775969" version="1" timestamp="2022-04-24T05:01:17Z" changeset="120110716" uid="3497659" user="NKA">
		<tag k="name" v="Rogne" />
		<tag k="place" v="locality" />
		<tag k="ssr:stedsnr" v="431740" />
	</node>
	<node id="9689088979" lat="60.4393666" lon="10.9721473" version="1" timestamp="2022-04-24T05:01:17Z" changeset="120110716" uid="3497659" user="NKA">
		<tag k="alt_name" v="Gjødingeseterkroken" />
		<tag k="name" v="Kroken" />
		<tag k="place" v="farm" />
		<tag k="ssr:stedsnr" v="673661" />
	</node>
	<node id="9689088980" lat="60.3989361" lon="10.9252639" version="1" timestamp="2022-04-24T05:01:17Z" changeset="120110716" uid="3497659" user="NKA">
		<tag k="name" v="Bekkemyrstua" />
		<tag k="place" v="locality" />
		<tag k="ssr:stedsnr" v="431613" />
	</node>
	<node id="9689088981" lat="60.4438147" lon="11.0635143" version="1" timestamp="2022-04-24T05:01:17Z" changeset="120110716" uid="3497659" user="NKA">
		<tag k="name" v="Opperud" />
		<tag k="place" v="farm" />
		<tag k="ssr:stedsnr" v="345704" />
	</node>
	<node id="9689088982" lat="60.367101" lon="11.072521" version="1" timestamp="2022-04-24T05:01:17Z" changeset="120110716" uid="3497659" user="NKA">
		<tag k="name" v="Østerud" />
		<tag k="place" v="hamlet" />
		<tag k="ssr:stedsnr" v="67574" />
	</node>
	<node id="9689088983" lat="60.3494889" lon="11.0172016" version="1" timestamp="2022-04-24T05:01:17Z" changeset="120110716" uid="3497659" user="NKA">
		<tag k="alt_name" v="Rustadbruk" />
		<tag k="name" v="Rustad bruk" />
		<tag k="place" v="hamlet" />
		<tag k="ssr:stedsnr" v="310519" />
	</node>
	<node id="9689088984" lat="60.4150306" lon="11.0162778" version="1" timestamp="2022-04-24T05:01:17Z" changeset="120110716" uid="3497659" user="NKA">
		<tag k="alt_name" v="Raudfossen" />
		<tag k="name" v="Raufossen" />
		<tag k="place" v="farm" />
		<tag k="ssr:stedsnr" v="6640" />
	</node>
	<node id="9689088985" lat="60.4758394" lon="11.0679585" version="1" timestamp="2022-04-24T05:01:17Z" changeset="120110716" uid="3497659" user="NKA">
		<tag k="name" v="Vestli" />
		<tag k="place" v="farm" />
		<tag k="ssr:stedsnr" v="952247" />
	</node>
	<node id="9689088986" lat="60.4164393" lon="11.0307096" version="1" timestamp="2022-04-24T05:01:17Z" changeset="120110716" uid="3497659" user="NKA">
		<tag k="name" v="Tømte" />
		<tag k="place" v="farm" />
		<tag k="ssr:stedsnr" v="6638" />
	</node>
	<node id="9689088987" lat="60.4252694" lon="11.0671999" version="1" timestamp="2022-04-24T05:01:17Z" changeset="120110716" uid="3497659" user="NKA">
		<tag k="alt_name" v="Nordgarden" />
		<tag k="name" v="Nergården" />
		<tag k="place" v="farm" />
		<tag k="ssr:stedsnr" v="6643" />
	</node>
	<node id="9689088988" lat="60.3614793" lon="10.9716169" version="1" timestamp="2022-04-24T05:01:17Z" changeset="120110716" uid="3497659" user="NKA">
		<tag k="name" v="Heggetjennstua" />
		<tag k="place" v="isolated_dwelling" />
		<tag k="ssr:stedsnr" v="6565" />
	</node>
	<node id="9689088989" lat="60.4873944" lon="10.9959056" version="1" timestamp="2022-04-24T05:01:17Z" changeset="120110716" uid="3497659" user="NKA">
		<tag k="name" v="Solbakken" />
		<tag k="place" v="farm" />
		<tag k="ssr:stedsnr" v="891063" />
	</node>
	<node id="9689088990" lat="60.5053917" lon="11.0241668" version="1" timestamp="2022-04-24T05:01:17Z" changeset="120110716" uid="3497659" user="NKA">
		<tag k="name" v="Garsjøhytta" />
		<tag k="place" v="isolated_dwelling" />
		<tag k="ssr:stedsnr" v="891029" />
	</node>
	<node id="9689088991" lat="60.451998" lon="10.8579213" version="1" timestamp="2022-04-24T05:01:17Z" changeset="120110716" uid="3497659" user="NKA">
		<tag k="name" v="Vollenga" />
		<tag k="place" v="farm" />
		<tag k="ssr:stedsnr" v="67680" />
	</node>
	<node id="9689088992" lat="60.5113686" lon="10.7190143" version="1" timestamp="2022-04-24T05:01:17Z" changeset="120110716" uid="3497659" user="NKA">
		<tag k="historic" v="shieling" />
		<tag k="name" v="Rognholen" />
		<tag k="place" v="isolated_dwelling" />
		<tag k="ssr:stedsnr" v="466050" />
	</node>
	<node id="9689088993" lat="60.453075" lon="10.7855999" version="1" timestamp="2022-04-24T05:01:17Z" changeset="120110716" uid="3497659" user="NKA">
		<tag k="name" v="Dølerud" />
		<tag k="place" v="locality" />
		<tag k="ssr:stedsnr" v="370686" />
	</node>
	<node id="9689088994" lat="60.4025722" lon="11.0428501" version="1" timestamp="2022-04-24T05:01:17Z" changeset="120110716" uid="3497659" user="NKA">
		<tag k="name" v="Røysa" />
		<tag k="place" v="farm" />
		<tag k="ssr:stedsnr" v="119070" />
	</node>
	<node id="9689088995" lat="60.340099" lon="11.0928273" version="1" timestamp="2022-04-24T05:01:17Z" changeset="120110716" uid="3497659" user="NKA">
		<tag k="name" v="Langton" />
		<tag k="place" v="hamlet" />
		<tag k="ssr:stedsnr" v="127552" />
	</node>
	<node id="9689088996" lat="60.4286012" lon="10.9122519" version="1" timestamp="2022-04-24T05:01:17Z" changeset="120110716" uid="3497659" user="NKA">
		<tag k="name" v="Øvre Grasbakken" />
		<tag k="place" v="farm" />
		<tag k="ssr:stedsnr" v="42182" />
	</node>
	<node id="9689088997" lat="60.4791528" lon="11.0659889" version="1" timestamp="2022-04-24T05:01:17Z" changeset="120110716" uid="3497659" user="NKA">
		<tag k="name" v="Siljuholtet" />
		<tag k="place" v="locality" />
		<tag k="ssr:stedsnr" v="916742" />
	</node>
	<node id="9689088998" lat="60.3534139" lon="10.9267306" version="1" timestamp="2022-04-24T05:01:17Z" changeset="120110716" uid="3497659" user="NKA">
		<tag k="name" v="Damstua" />
		<tag k="place" v="isolated_dwelling" />
		<tag k="ssr:stedsnr" v="127570" />
	</node>
	<node id="9689088999" lat="60.450025" lon="11.0599778" version="1" timestamp="2022-04-24T05:01:17Z" changeset="120110716" uid="3497659" user="NKA">
		<tag k="name" v="Brattbakken" />
		<tag k="place" v="farm" />
		<tag k="ssr:stedsnr" v="795681" />
	</node>
	<node id="9689089000" lat="60.3857004" lon="11.0378437" version="1" timestamp="2022-04-24T05:01:17Z" changeset="120110716" uid="3497659" user="NKA">
		<tag k="name" v="Søstuen Rud" />
		<tag k="place" v="farm" />
		<tag k="ssr:stedsnr" v="787962" />
	</node>
	<node id="9689089001" lat="60.4526912" lon="11.0321662" version="1" timestamp="2022-04-24T05:01:17Z" changeset="120110716" uid="3497659" user="NKA">
		<tag k="alt_name" v="Slåttbråtan" />
		<tag k="name" v="Slåttbråten" />
		<tag k="place" v="farm" />
		<tag k="ssr:stedsnr" v="673670" />
	</node>
	<node id="9689089002" lat="60.4735037" lon="11.0701089" version="1" timestamp="2022-04-24T05:01:17Z" changeset="120110716" uid="3497659" user="NKA">
		<tag k="alt_name" v="Solsrudstuen;Bergli" />
		<tag k="name" v="Stuen" />
		<tag k="old_name" v="Bergebakken" />
		<tag k="place" v="farm" />
		<tag k="ssr:stedsnr" v="687716" />
	</node>
	<node id="9689089003" lat="60.4272521" lon="11.066752" version="1" timestamp="2022-04-24T05:01:17Z" changeset="120110716" uid="3497659" user="NKA">
		<tag k="name" v="Hulderhaugen" />
		<tag k="place" v="farm" />
		<tag k="ssr:stedsnr" v="662453" />
	</node>
	<node id="9689089004" lat="60.4174982" lon="11.0360625" version="1" timestamp="2022-04-24T05:01:17Z" changeset="120110716" uid="3497659" user="NKA">
		<tag k="name" v="Tømtebakken" />
		<tag k="place" v="farm" />
		<tag k="ssr:stedsnr" v="525135" />
	</node>
	<node id="9689089005" lat="60.3767764" lon="11.0806601" version="1" timestamp="2022-04-24T05:01:17Z" changeset="120110716" uid="3497659" user="NKA">
		<tag k="alt_name" v="Seterbråtan" />
		<tag k="name" v="Sæterbråten" />
		<tag k="place" v="farm" />
		<tag k="ssr:stedsnr" v="612577" />
	</node>
	<node id="9689089006" lat="60.3591334" lon="11.001476" version="1" timestamp="2022-04-24T05:01:17Z" changeset="120110716" uid="3497659" user="NKA">
		<tag k="name" v="Sørgarden" />
		<tag k="place" v="farm" />
		<tag k="ssr:stedsnr" v="249540" />
	</node>
	<node id="9689089007" lat="60.3881547" lon="11.0391808" version="1" timestamp="2022-04-24T05:01:17Z" changeset="120110716" uid="3497659" user="NKA">
		<tag k="alt_name" v="Rud" />
		<tag k="name" v="Rud nordstuen" />
		<tag k="place" v="farm" />
		<tag k="ssr:stedsnr" v="787965" />
	</node>
	<node id="9689089008" lat="60.4089908" lon="11.04097" version="1" timestamp="2022-04-24T05:01:17Z" changeset="120110716" uid="3497659" user="NKA">
		<tag k="alt_name" v="Nilsstuen" />
		<tag k="name" v="Nilsstua" />
		<tag k="place" v="farm" />
		<tag k="ssr:stedsnr" v="916626" />
	</node>
	<node id="9689089009" lat="60.3629608" lon="11.0734361" version="1" timestamp="2022-04-24T05:01:17Z" changeset="120110716" uid="3497659" user="NKA">
		<tag k="name" v="Østerudhytta" />
		<tag k="place" v="isolated_dwelling" />
		<tag k="ssr:stedsnr" v="734581" />
	</node>
	<node id="9689089010" lat="60.4614951" lon="11.061737" version="1" timestamp="2022-04-24T05:01:17Z" changeset="120110716" uid="3497659" user="NKA">
		<tag k="name" v="Ødemark" />
		<tag k="place" v="hamlet" />
		<tag k="ssr:stedsnr" v="67698" />
	</node>
	<node id="9689089011" lat="60.4310011" lon="11.0753798" version="1" timestamp="2022-04-24T05:01:17Z" changeset="120110716" uid="3497659" user="NKA">
		<tag k="name" v="Bruhaug" />
		<tag k="place" v="farm" />
		<tag k="ssr:stedsnr" v="727452" />
	</node>
	<node id="9689089012" lat="60.4388994" lon="11.0555565" version="1" timestamp="2022-04-24T05:01:17Z" changeset="120110716" uid="3497659" user="NKA">
		<tag k="name" v="Haug" />
		<tag k="place" v="farm" />
		<tag k="ssr:stedsnr" v="769738" />
	</node>
	<node id="9689089013" lat="60.4461363" lon="11.0443879" version="1" timestamp="2022-04-24T05:01:17Z" changeset="120110716" uid="3497659" user="NKA">
		<tag k="name" v="Tangen" />
		<tag k="place" v="farm" />
		<tag k="ssr:stedsnr" v="6675" />
	</node>
	<node id="9689089014" lat="60.3835379" lon="11.0789691" version="1" timestamp="2022-04-24T05:01:17Z" changeset="120110716" uid="3497659" user="NKA">
		<tag k="alt_name" v="Nordsetra" />
		<tag k="name" v="Nordre Eidsæter" />
		<tag k="place" v="farm" />
		<tag k="ssr:stedsnr" v="612592" />
	</node>
	<node id="9689089015" lat="60.4142119" lon="11.0655177" version="1" timestamp="2022-04-24T05:01:17Z" changeset="120110716" uid="3497659" user="NKA">
		<tag k="name" v="Gårder" />
		<tag k="place" v="farm" />
		<tag k="ssr:stedsnr" v="604047" />
	</node>
	<node id="9689089016" lat="60.346225" lon="11.008125" version="1" timestamp="2022-04-24T05:01:17Z" changeset="120110716" uid="3497659" user="NKA">
		<tag k="alt_name" v="Finngården" />
		<tag k="name" v="Finngarden" />
		<tag k="place" v="farm" />
		<tag k="ssr:stedsnr" v="6550" />
	</node>
	<node id="9689089017" lat="60.3447078" lon="11.0141188" version="1" timestamp="2022-04-24T05:01:17Z" changeset="120110716" uid="3497659" user="NKA">
		<tag k="name" v="Øvre Holen" />
		<tag k="place" v="farm" />
		<tag k="ssr:stedsnr" v="707776" />
	</node>
	<node id="9689089018" lat="60.3842417" lon="11.0316266" version="1" timestamp="2022-04-24T05:01:17Z" changeset="120110716" uid="3497659" user="NKA">
		<tag k="name" v="Dagali" />
		<tag k="place" v="farm" />
		<tag k="ssr:stedsnr" v="604979" />
	</node>
	<node id="9689089019" lat="60.3465009" lon="11.0207003" version="1" timestamp="2022-04-24T05:01:17Z" changeset="120110716" uid="3497659" user="NKA">
		<tag k="name" v="Strand" />
		<tag k="place" v="farm" />
		<tag k="ssr:stedsnr" v="551487" />
	</node>
	<node id="9689089020" lat="60.4353383" lon="11.0686212" version="1" timestamp="2022-04-24T05:01:17Z" changeset="120110716" uid="3497659" user="NKA">
		<tag k="name" v="Brustadfeltet" />
		<tag k="place" v="neighbourhood" />
		<tag k="ssr:stedsnr" v="540879" />
	</node>
	<node id="9689089021" lat="60.3449679" lon="11.01438" version="1" timestamp="2022-04-24T05:01:17Z" changeset="120110716" uid="3497659" user="NKA">
		<tag k="name" v="Holen" />
		<tag k="place" v="locality" />
		<tag k="ssr:stedsnr" v="370554" />
	</node>
	<node id="9689089022" lat="60.3468669" lon="11.0043374" version="1" timestamp="2022-04-24T05:01:17Z" changeset="120110716" uid="3497659" user="NKA">
		<tag k="name" v="Skogly" />
		<tag k="place" v="farm" />
		<tag k="ssr:stedsnr" v="646840" />
	</node>
	<node id="9689089023" lat="60.4111178" lon="11.0396442" version="1" timestamp="2022-04-24T05:01:17Z" changeset="120110716" uid="3497659" user="NKA">
		<tag k="name" v="Lundemo" />
		<tag k="place" v="farm" />
		<tag k="ssr:stedsnr" v="491626" />
	</node>
	<node id="9689089024" lat="60.4368404" lon="11.0617508" version="1" timestamp="2022-04-24T05:01:17Z" changeset="120110716" uid="3497659" user="NKA">
		<tag k="name" v="Gamlemoen" />
		<tag k="place" v="farm" />
		<tag k="ssr:stedsnr" v="431681" />
	</node>
	<node id="9689089025" lat="60.4336667" lon="10.9990417" version="1" timestamp="2022-04-24T05:01:17Z" changeset="120110716" uid="3497659" user="NKA">
		<tag k="alt_name" v="Skogerud" />
		<tag k="name" v="Skaugerud" />
		<tag k="place" v="locality" />
		<tag k="ssr:stedsnr" v="916680" />
	</node>
	<node id="9689089026" lat="60.3955984" lon="11.0782726" version="1" timestamp="2022-04-24T05:01:17Z" changeset="120110716" uid="3497659" user="NKA">
		<tag k="name" v="Myrvoll" />
		<tag k="place" v="farm" />
		<tag k="ssr:stedsnr" v="309615" />
	</node>
	<node id="9689089027" lat="60.4479325" lon="10.7197402" version="1" timestamp="2022-04-24T05:01:17Z" changeset="120110716" uid="3497659" user="NKA">
		<tag k="alt_name" v="Falla vestre" />
		<tag k="name" v="Vestre Falla" />
		<tag k="old_name" v="Bentefaldet" />
		<tag k="place" v="farm" />
		<tag k="ssr:stedsnr" v="119485" />
	</node>
	<node id="9689089028" lat="60.4788917" lon="10.7372611" version="1" timestamp="2022-04-24T05:01:17Z" changeset="120110716" uid="3497659" user="NKA">
		<tag k="alt_name" v="Damhaughytta" />
		<tag k="name" v="Damhaugstua" />
		<tag k="place" v="isolated_dwelling" />
		<tag k="ssr:stedsnr" v="6731" />
	</node>
	<node id="9689089029" lat="60.4481083" lon="10.7252556" version="1" timestamp="2022-04-24T05:01:17Z" changeset="120110716" uid="3497659" user="NKA">
		<tag k="alt_name" v="Falla østre" />
		<tag k="name" v="Østre Falla" />
		<tag k="place" v="locality" />
		<tag k="ssr:stedsnr" v="666461" />
	</node>
	<node id="9689089030" lat="60.3975709" lon="11.0462286" version="1" timestamp="2022-04-24T05:01:17Z" changeset="120110716" uid="3497659" user="NKA">
		<tag k="name" v="Fagerli" />
		<tag k="place" v="farm" />
		<tag k="ssr:stedsnr" v="127634" />
	</node>
	<node id="9689089031" lat="60.41695" lon="11.0442499" version="1" timestamp="2022-04-24T05:01:17Z" changeset="120110716" uid="3497659" user="NKA">
		<tag k="alt_name" v="Madserud" />
		<tag k="name" v="Madsrud" />
		<tag k="place" v="farm" />
		<tag k="ssr:stedsnr" v="249597" />
	</node>
	<node id="9689089032" lat="60.4285371" lon="11.0677381" version="1" timestamp="2022-04-24T05:01:17Z" changeset="120110716" uid="3497659" user="NKA">
		<tag k="name" v="Mjølnerhaugen" />
		<tag k="place" v="farm" />
		<tag k="ssr:stedsnr" v="116450" />
	</node>
	<node id="9689089033" lat="60.4139075" lon="11.0379371" version="1" timestamp="2022-04-24T05:01:17Z" changeset="120110716" uid="3497659" user="NKA">
		<tag k="name" v="Nordby" />
		<tag k="place" v="farm" />
		<tag k="ssr:stedsnr" v="127660" />
	</node>
	<node id="9689089034" lat="60.4435947" lon="10.9731448" version="1" timestamp="2022-04-24T05:01:17Z" changeset="120110716" uid="3497659" user="NKA">
		<tag k="name" v="Enga" />
		<tag k="place" v="farm" />
		<tag k="ssr:stedsnr" v="249638" />
	</node>
	<node id="9689089035" lat="60.3863481" lon="11.0377881" version="1" timestamp="2022-04-24T05:01:17Z" changeset="120110716" uid="3497659" user="NKA">
		<tag k="name" v="Nystuen Rud" />
		<tag k="place" v="farm" />
		<tag k="ssr:stedsnr" v="119978" />
	</node>
	<node id="9689089036" lat="60.382625" lon="11.0297194" version="1" timestamp="2022-04-24T05:01:17Z" changeset="120110716" uid="3497659" user="NKA">
		<tag k="alt_name" v="Lauvli" />
		<tag k="name" v="Løvli" />
		<tag k="place" v="farm" />
		<tag k="ssr:stedsnr" v="6589" />
	</node>
	<node id="9689089037" lat="60.4439841" lon="11.0619286" version="1" timestamp="2022-04-24T05:01:17Z" changeset="120110716" uid="3497659" user="NKA">
		<tag k="name" v="Nordre Opperud" />
		<tag k="place" v="farm" />
		<tag k="ssr:stedsnr" v="67658" />
	</node>
	<node id="9689089038" lat="60.3919018" lon="11.0473266" version="1" timestamp="2022-04-24T05:01:17Z" changeset="120110716" uid="3497659" user="NKA">
		<tag k="name" v="Sand" />
		<tag k="place" v="farm" />
		<tag k="ssr:stedsnr" v="6617" />
	</node>
	<node id="9689089039" lat="60.4237879" lon="11.0636214" version="1" timestamp="2022-04-24T05:01:17Z" changeset="120110716" uid="3497659" user="NKA">
		<tag k="alt_name" v="Nordgården;Nordgarden" />
		<tag k="name" v="Nordgarden Knai" />
		<tag k="old_name" v="Nordgaarden Knai" />
		<tag k="place" v="farm" />
		<tag k="ssr:stedsnr" v="157061" />
	</node>
	<node id="9689089040" lat="60.394675" lon="11.0779528" version="1" timestamp="2022-04-24T05:01:17Z" changeset="120110716" uid="3497659" user="NKA">
		<tag k="name" v="Nordlund" />
		<tag k="place" v="farm" />
		<tag k="ssr:stedsnr" v="916607" />
	</node>
	<node id="9689089041" lat="60.4699945" lon="10.9665111" version="1" timestamp="2022-04-24T05:01:17Z" changeset="120110716" uid="3497659" user="NKA">
		<tag k="name" v="Holenseter" />
		<tag k="place" v="locality" />
		<tag k="ssr:stedsnr" v="57862" />
	</node>
	<node id="9689089042" lat="60.4205426" lon="11.0641804" version="1" timestamp="2022-04-24T05:01:17Z" changeset="120110716" uid="3497659" user="NKA">
		<tag k="alt_name" v="Søgarden;Søndre Knai;Knai søndre" />
		<tag k="name" v="Søgarden Knai" />
		<tag k="place" v="farm" />
		<tag k="ssr:stedsnr" v="856639" />
	</node>
	<node id="9689089043" lat="60.4479952" lon="10.7227104" version="1" timestamp="2022-04-24T05:01:17Z" changeset="120110716" uid="3497659" user="NKA">
		<tag k="name" v="Falla" />
		<tag k="old_name" v="Bentefaldet" />
		<tag k="place" v="locality" />
		<tag k="ssr:stedsnr" v="673676" />
	</node>
	<node id="9689089044" lat="60.4474533" lon="11.0325517" version="1" timestamp="2022-04-24T05:01:17Z" changeset="120110716" uid="3497659" user="NKA">
		<tag k="name" v="Nedre Rognstad" />
		<tag k="place" v="farm" />
		<tag k="ssr:stedsnr" v="769751" />
	</node>
	<node id="9689089045" lat="60.4260799" lon="10.95903" version="1" timestamp="2022-04-24T05:01:17Z" changeset="120110716" uid="3497659" user="NKA">
		<tag k="name" v="Oppistua" />
		<tag k="place" v="farm" />
		<tag k="ssr:stedsnr" v="952159" />
	</node>
	<node id="9689089046" lat="60.40005" lon="11.0510083" version="1" timestamp="2022-04-24T05:01:17Z" changeset="120110716" uid="3497659" user="NKA">
		<tag k="name" v="Fagerliflaen" />
		<tag k="place" v="farm" />
		<tag k="ssr:stedsnr" v="855593" />
	</node>
	<node id="9689089047" lat="60.4393519" lon="11.0640387" version="1" timestamp="2022-04-24T05:01:17Z" changeset="120110716" uid="3497659" user="NKA">
		<tag k="name" v="Hagaholtet" />
		<tag k="place" v="neighbourhood" />
		<tag k="ssr:stedsnr" v="709739" />
	</node>
	<node id="9689089048" lat="60.4079953" lon="11.0367178" version="1" timestamp="2022-04-24T05:01:17Z" changeset="120110716" uid="3497659" user="NKA">
		<tag k="alt_name" v="Rønnestuen" />
		<tag k="name" v="Rønnestua" />
		<tag k="place" v="farm" />
		<tag k="ssr:stedsnr" v="709886" />
	</node>
	<node id="9689089049" lat="60.3560799" lon="11.0015401" version="1" timestamp="2022-04-24T05:01:17Z" changeset="120110716" uid="3497659" user="NKA">
		<tag k="name" v="Solvang" />
		<tag k="place" v="farm" />
		<tag k="ssr:stedsnr" v="552581" />
	</node>
	<node id="9689089050" lat="60.4232221" lon="11.0660238" version="1" timestamp="2022-04-24T05:01:17Z" changeset="120110716" uid="3497659" user="NKA">
		<tag k="name" v="Knai" />
		<tag k="old_name" v="Knain" />
		<tag k="place" v="hamlet" />
		<tag k="ssr:stedsnr" v="613605" />
	</node>
	<node id="9689089051" lat="60.4059229" lon="11.0463268" version="1" timestamp="2022-04-24T05:01:17Z" changeset="120110716" uid="3497659" user="NKA">
		<tag k="name" v="Nordre Lundby" />
		<tag k="place" v="farm" />
		<tag k="ssr:stedsnr" v="648891" />
	</node>
	<node id="9689089052" lat="60.4055702" lon="11.0456043" version="1" timestamp="2022-04-24T05:01:17Z" changeset="120110716" uid="3497659" user="NKA">
		<tag k="name" v="Søndre Lundby" />
		<tag k="place" v="farm" />
		<tag k="ssr:stedsnr" v="648888" />
	</node>
	<node id="9689089053" lat="60.4482403" lon="11.049128" version="1" timestamp="2022-04-24T05:01:17Z" changeset="120110716" uid="3497659" user="NKA">
		<tag k="name" v="Gullaker" />
		<tag k="place" v="farm" />
		<tag k="ssr:stedsnr" v="648740" />
	</node>
	<node id="9689089054" lat="60.4413445" lon="11.0586971" version="1" timestamp="2022-04-24T05:01:17Z" changeset="120110716" uid="3497659" user="NKA">
		<tag k="name" v="Opperudholtet" />
		<tag k="place" v="neighbourhood" />
		<tag k="ssr:stedsnr" v="952732" />
	</node>
	<node id="9689089055" lat="60.4431811" lon="11.0629726" version="1" timestamp="2022-04-24T05:01:17Z" changeset="120110716" uid="3497659" user="NKA">
		<tag k="name" v="Søndre Opperud" />
		<tag k="place" v="farm" />
		<tag k="ssr:stedsnr" v="552686" />
	</node>
	<node id="9689089056" lat="60.4444749" lon="11.0459475" version="1" timestamp="2022-04-24T05:01:17Z" changeset="120110716" uid="3497659" user="NKA">
		<tag k="name" v="Parken" />
		<tag k="place" v="farm" />
		<tag k="ssr:stedsnr" v="648721" />
	</node>
	<node id="9689089057" lat="60.423875" lon="11.1103138" version="1" timestamp="2022-04-24T05:01:17Z" changeset="120110716" uid="3497659" user="NKA">
		<tag k="name" v="Jensbråtan" />
		<tag k="place" v="locality" />
		<tag k="ssr:stedsnr" v="965460" />
	</node>
	<node id="9689089058" lat="60.4140412" lon="11.0857577" version="1" timestamp="2022-04-24T05:01:17Z" changeset="120110716" uid="3497659" user="NKA">
		<tag k="name" v="Søndre Bundli" />
		<tag k="place" v="farm" />
		<tag k="ssr:stedsnr" v="492567" />
	</node>
	<node id="9689089059" lat="60.4106274" lon="11.0523323" version="1" timestamp="2022-04-24T05:01:17Z" changeset="120110716" uid="3497659" user="NKA">
		<tag k="name" v="Hurdal prestegård" />
		<tag k="place" v="farm" />
		<tag k="ssr:stedsnr" v="831858" />
	</node>
	<node id="9689089060" lat="60.4398137" lon="11.0676282" version="1" timestamp="2022-04-24T05:01:17Z" changeset="120110716" uid="3497659" user="NKA">
		<tag k="alt_name" v="Hagaholtet" />
		<tag k="name" v="Hagan" />
		<tag k="old_name" v="Hagen" />
		<tag k="place" v="farm" />
		<tag k="ssr:stedsnr" v="370664" />
	</node>
	<node id="9689089061" lat="60.4318662" lon="11.0655971" version="1" timestamp="2022-04-24T05:01:17Z" changeset="120110716" uid="3497659" user="NKA">
		<tag k="name" v="Knaibakken" />
		<tag k="place" v="farm" />
		<tag k="ssr:stedsnr" v="370642" />
	</node>
	<node id="9689089062" lat="60.3981088" lon="11.0773707" version="1" timestamp="2022-04-24T05:01:17Z" changeset="120110716" uid="3497659" user="NKA">
		<tag k="name" v="Fautbråten" />
		<tag k="place" v="farm" />
		<tag k="ssr:stedsnr" v="831730" />
	</node>
	<node id="9689089063" lat="60.3851662" lon="11.0122979" version="1" timestamp="2022-04-24T05:01:17Z" changeset="120110716" uid="3497659" user="NKA">
		<tag k="name" v="Smørbukkhytta" />
		<tag k="place" v="isolated_dwelling" />
		<tag k="ssr:stedsnr" v="908593" />
	</node>
	<node id="9689089064" lat="60.4457725" lon="11.0220326" version="1" timestamp="2022-04-24T05:01:17Z" changeset="120110716" uid="3497659" user="NKA">
		<tag k="name" v="Søndre Rognstad" />
		<tag k="place" v="farm" />
		<tag k="ssr:stedsnr" v="406750" />
	</node>
	<node id="9689089065" lat="60.3962944" lon="11.0914306" version="1" timestamp="2022-04-24T05:01:17Z" changeset="120110716" uid="3497659" user="NKA">
		<tag k="name" v="Jerperud" />
		<tag k="place" v="locality" />
		<tag k="ssr:stedsnr" v="224768" />
	</node>
	<node id="9689089066" lat="60.3834331" lon="11.0311689" version="1" timestamp="2022-04-24T05:01:17Z" changeset="120110716" uid="3497659" user="NKA">
		<tag k="name" v="Bjørkeli" />
		<tag k="place" v="farm" />
		<tag k="ssr:stedsnr" v="423973" />
	</node>
	<node id="9689089067" lat="60.3917026" lon="11.0776681" version="1" timestamp="2022-04-24T05:01:17Z" changeset="120110716" uid="3497659" user="NKA">
		<tag k="name" v="Sandsbråten" />
		<tag k="place" v="farm" />
		<tag k="ssr:stedsnr" v="431608" />
	</node>
	<node id="9689089068" lat="60.4294363" lon="11.061203" version="1" timestamp="2022-04-24T05:01:17Z" changeset="120110716" uid="3497659" user="NKA">
		<tag k="name" v="Knaibråten" />
		<tag k="place" v="farm" />
		<tag k="ssr:stedsnr" v="431652" />
	</node>
	<node id="9689089069" lat="60.4158713" lon="11.034356" version="1" timestamp="2022-04-24T05:01:17Z" changeset="120110716" uid="3497659" user="NKA">
		<tag k="name" v="Gjødingsbråten" />
		<tag k="place" v="farm" />
		<tag k="ssr:stedsnr" v="423046" />
	</node>
	<node id="9689089070" lat="60.442175" lon="10.9710306" version="1" timestamp="2022-04-24T05:01:17Z" changeset="120110716" uid="3497659" user="NKA">
		<tag k="alt_name" v="Gjødingseterbråtan" />
		<tag k="name" v="Bråten" />
		<tag k="place" v="farm" />
		<tag k="ssr:stedsnr" v="309669" />
	</node>
	<node id="9689089071" lat="60.4496" lon="10.8613751" version="1" timestamp="2022-04-24T05:01:17Z" changeset="120110716" uid="3497659" user="NKA">
		<tag k="name" v="Karigjerdinga" />
		<tag k="place" v="locality" />
		<tag k="ssr:stedsnr" v="526277" />
	</node>
	<node id="9689089072" lat="60.4273152" lon="11.0639834" version="1" timestamp="2022-04-24T05:01:17Z" changeset="120110716" uid="3497659" user="NKA">
		<tag k="name" v="Grue" />
		<tag k="place" v="farm" />
		<tag k="ssr:stedsnr" v="224070" />
	</node>
	<node id="9689089073" lat="60.3814638" lon="11.0755412" version="1" timestamp="2022-04-24T05:01:17Z" changeset="120110716" uid="3497659" user="NKA">
		<tag k="loc_name" v="Eidsæter" />
		<tag k="name" v="Eidseter" />
		<tag k="place" v="hamlet" />
		<tag k="ssr:stedsnr" v="224921" />
	</node>
	<node id="9689089074" lat="60.4202111" lon="10.9052862" version="1" timestamp="2022-04-24T05:01:17Z" changeset="120110716" uid="3497659" user="NKA">
		<tag k="name" v="Knuthølet" />
		<tag k="place" v="locality" />
		<tag k="ssr:stedsnr" v="345192" />
	</node>
	<node id="9689089075" lat="60.4375017" lon="11.047795" version="1" timestamp="2022-04-24T05:01:17Z" changeset="120110716" uid="3497659" user="NKA">
		<tag k="name" v="Flattum" />
		<tag k="place" v="farm" />
		<tag k="ssr:stedsnr" v="224653" />
	</node>
	<node id="9689089076" lat="60.4437263" lon="11.0506333" version="1" timestamp="2022-04-24T05:01:17Z" changeset="120110716" uid="3497659" user="NKA">
		<tag k="name" v="Moen" />
		<tag k="place" v="farm" />
		<tag k="ssr:stedsnr" v="795669" />
	</node>
	<node id="9689089077" lat="60.3858695" lon="11.0291555" version="1" timestamp="2022-04-24T05:01:17Z" changeset="120110716" uid="3497659" user="NKA">
		<tag k="name" v="Rognbråtan" />
		<tag k="place" v="locality" />
		<tag k="ssr:stedsnr" v="180963" />
	</node>
	<node id="9689089078" lat="60.4298354" lon="11.0541683" version="1" timestamp="2022-04-24T05:01:17Z" changeset="120110716" uid="3497659" user="NKA">
		<tag k="name" v="Bjørhus" />
		<tag k="place" v="farm" />
		<tag k="ssr:stedsnr" v="180039" />
	</node>
	<node id="9689089079" lat="60.3870354" lon="11.0390031" version="1" timestamp="2022-04-24T05:01:17Z" changeset="120110716" uid="3497659" user="NKA">
		<tag k="name" v="Rud arstuen" />
		<tag k="place" v="farm" />
		<tag k="ssr:stedsnr" v="180966" />
	</node>
	<node id="9689089080" lat="60.4394984" lon="11.0240282" version="1" timestamp="2022-04-24T05:01:17Z" changeset="120110716" uid="3497659" user="NKA">
		<tag k="name" v="Halsteinbakken" />
		<tag k="place" v="farm" />
		<tag k="ssr:stedsnr" v="188687" />
	</node>
	<node id="9689089081" lat="60.3698917" lon="10.9479972" version="1" timestamp="2022-04-24T05:01:17Z" changeset="120110716" uid="3497659" user="NKA">
		<tag k="name" v="Tomta" />
		<tag k="place" v="isolated_dwelling" />
		<tag k="ssr:stedsnr" v="249550" />
	</node>
	<node id="9689089082" lat="60.433704" lon="11.0664781" version="1" timestamp="2022-04-24T05:01:17Z" changeset="120110716" uid="3497659" user="NKA">
		<tag k="name" v="Brustad" />
		<tag k="place" v="farm" />
		<tag k="ssr:stedsnr" v="188675" />
	</node>
	<node id="9689089083" lat="60.3483158" lon="11.0070321" version="1" timestamp="2022-04-24T05:01:17Z" changeset="120110716" uid="3497659" user="NKA">
		<tag k="name" v="Bergset" />
		<tag k="place" v="hamlet" />
		<tag k="ssr:stedsnr" v="249523" />
	</node>
	<node id="9689089084" lat="60.3831333" lon="11.022489" version="1" timestamp="2022-04-24T05:01:17Z" changeset="120110716" uid="3497659" user="NKA">
		<tag k="name" v="Steinbråten" />
		<tag k="place" v="locality" />
		<tag k="ssr:stedsnr" v="241548" />
	</node>
	<node id="9689089085" lat="60.4332528" lon="11.0530278" version="1" timestamp="2022-04-24T05:01:17Z" changeset="120110716" uid="3497659" user="NKA">
		<tag k="alt_name" v="Garverhjemmet" />
		<tag k="name" v="Garverheimet" />
		<tag k="place" v="farm" />
		<tag k="ssr:stedsnr" v="188680" />
	</node>
	<node id="9689089086" lat="60.35555" lon="10.9997394" version="1" timestamp="2022-04-24T05:01:17Z" changeset="120110716" uid="3497659" user="NKA">
		<tag k="name" v="Bekken" />
		<tag k="place" v="farm" />
		<tag k="ssr:stedsnr" v="795570" />
	</node>
	<node id="9689089087" lat="60.4488571" lon="11.0439117" version="1" timestamp="2022-04-24T05:01:17Z" changeset="120110716" uid="3497659" user="NKA">
		<tag k="name" v="Elverhøy" />
		<tag k="place" v="locality" />
		<tag k="ssr:stedsnr" v="163746" />
	</node>
	<node id="9689089088" lat="60.4889195" lon="10.9997667" version="1" timestamp="2022-04-24T05:01:17Z" changeset="120110716" uid="3497659" user="NKA">
		<tag k="name" v="Vestenga" />
		<tag k="place" v="farm" />
		<tag k="ssr:stedsnr" v="127756" />
	</node>
	<node id="9689089089" lat="60.4852226" lon="10.9982532" version="1" timestamp="2022-04-24T05:01:17Z" changeset="120110716" uid="3497659" user="NKA">
		<tag k="name" v="Holtet" />
		<tag k="place" v="farm" />
		<tag k="ssr:stedsnr" v="127755" />
	</node>
	<node id="9689089090" lat="60.4245877" lon="10.9669949" version="1" timestamp="2022-04-24T05:01:17Z" changeset="120110716" uid="3497659" user="NKA">
		<tag k="name" v="Øvre Lykkja" />
		<tag k="place" v="farm" />
		<tag k="ssr:stedsnr" v="674637" />
	</node>
	<node id="9689089091" lat="60.4126055" lon="10.9561472" version="1" timestamp="2022-04-24T05:01:17Z" changeset="120110716" uid="3497659" user="NKA">
		<tag k="alt_name" v="Knaisætra" />
		<tag k="historic" v="shieling" />
		<tag k="name" v="Knaisetra" />
		<tag k="place" v="isolated_dwelling" />
		<tag k="ssr:stedsnr" v="674607" />
	</node>
	<node id="9689089092" lat="60.4258" lon="10.9976195" version="1" timestamp="2022-04-24T05:01:17Z" changeset="120110716" uid="3497659" user="NKA">
		<tag k="alt_name" v="Engebretsæter;Sætre" />
		<tag k="name" v="Embretsæter" />
		<tag k="place" v="farm" />
		<tag k="ssr:stedsnr" v="613628" />
	</node>
	<node id="9689089093" lat="60.4723599" lon="11.0223674" version="1" timestamp="2022-04-24T05:01:17Z" changeset="120110716" uid="3497659" user="NKA">
		<tag k="name" v="Nordlia" />
		<tag k="place" v="farm" />
		<tag k="ssr:stedsnr" v="127721" />
	</node>
	<node id="9689089094" lat="60.387572" lon="10.9854399" version="1" timestamp="2022-04-24T05:01:17Z" changeset="120110716" uid="3497659" user="NKA">
		<tag k="name" v="Kollhytta" />
		<tag k="place" v="isolated_dwelling" />
		<tag k="ssr:stedsnr" v="467659" />
	</node>
	<node id="9689089095" lat="60.3709175" lon="10.9941037" version="1" timestamp="2022-04-24T05:01:17Z" changeset="120110716" uid="3497659" user="NKA">
		<tag k="name" v="Tajetbråten" />
		<tag k="place" v="farm" />
		<tag k="ssr:stedsnr" v="431574" />
	</node>
	<node id="9689089096" lat="60.3593806" lon="11.0105243" version="1" timestamp="2022-04-24T05:01:17Z" changeset="120110716" uid="3497659" user="NKA">
		<tag k="name" v="Lykkja" />
		<tag k="place" v="farm" />
		<tag k="ssr:stedsnr" v="249539" />
	</node>
	<node id="9689089097" lat="60.4832782" lon="11.0239121" version="1" timestamp="2022-04-24T05:01:17Z" changeset="120110716" uid="3497659" user="NKA">
		<tag k="name" v="Sørli" />
		<tag k="place" v="farm" />
		<tag k="ssr:stedsnr" v="102001" />
	</node>
	<node id="9689089098" lat="60.37045" lon="10.9530388" version="1" timestamp="2022-04-24T05:01:17Z" changeset="120110716" uid="3497659" user="NKA">
		<tag k="name" v="Tomtestua" />
		<tag k="place" v="locality" />
		<tag k="ssr:stedsnr" v="916564" />
	</node>
	<node id="9689089099" lat="60.419625" lon="10.9785832" version="1" timestamp="2022-04-24T05:01:17Z" changeset="120110716" uid="3497659" user="NKA">
		<tag k="alt_name" v="Nygård" />
		<tag k="name" v="Nygard" />
		<tag k="place" v="farm" />
		<tag k="ssr:stedsnr" v="795662" />
	</node>
	<node id="9689089100" lat="60.3749129" lon="10.9701872" version="1" timestamp="2022-04-24T05:01:17Z" changeset="120110716" uid="3497659" user="NKA">
		<tag k="name" v="Vestlia" />
		<tag k="place" v="farm" />
		<tag k="ssr:stedsnr" v="6580" />
	</node>
	<node id="9689089101" lat="60.4774" lon="11.0568167" version="1" timestamp="2022-04-24T05:01:17Z" changeset="120110716" uid="3497659" user="NKA">
		<tag k="name" v="Hytta" />
		<tag k="place" v="isolated_dwelling" />
		<tag k="ssr:stedsnr" v="725175" />
	</node>
	<node id="9689089102" lat="60.3449301" lon="11.0152003" version="1" timestamp="2022-04-24T05:01:17Z" changeset="120110716" uid="3497659" user="NKA">
		<tag k="name" v="Nedre Holen" />
		<tag k="place" v="farm" />
		<tag k="ssr:stedsnr" v="889764" />
	</node>
	<node id="9689089103" lat="60.425275" lon="11.0636083" version="1" timestamp="2022-04-24T05:01:17Z" changeset="120110716" uid="3497659" user="NKA">
		<tag k="name" v="Nystua" />
		<tag k="place" v="farm" />
		<tag k="ssr:stedsnr" v="674615" />
	</node>
	<node id="9689089104" lat="60.4347333" lon="10.9154222" version="1" timestamp="2022-04-24T05:01:17Z" changeset="120110716" uid="3497659" user="NKA">
		<tag k="name" v="Taraldsetra" />
		<tag k="place" v="locality" />
		<tag k="ssr:stedsnr" v="709206" />
	</node>
	<node id="9689089105" lat="60.475046" lon="11.0188741" version="1" timestamp="2022-04-24T05:01:17Z" changeset="120110716" uid="3497659" user="NKA">
		<tag k="name" v="Gulliksrud" />
		<tag k="place" v="farm" />
		<tag k="ssr:stedsnr" v="674717" />
	</node>
	<node id="9689089106" lat="60.4195484" lon="10.971625" version="1" timestamp="2022-04-24T05:01:17Z" changeset="120110716" uid="3497659" user="NKA">
		<tag k="name" v="Brattlisaga" />
		<tag k="place" v="farm" />
		<tag k="ssr:stedsnr" v="648156" />
	</node>
	<node id="9689089107" lat="60.4542294" lon="10.80673" version="1" timestamp="2022-04-24T05:01:17Z" changeset="120110716" uid="3497659" user="NKA">
		<tag k="name" v="Sibilrud" />
		<tag k="place" v="farm" />
		<tag k="ssr:stedsnr" v="673685" />
	</node>
	<node id="9689089108" lat="60.427069" lon="10.9642372" version="1" timestamp="2022-04-24T05:01:17Z" changeset="120110716" uid="3497659" user="NKA">
		<tag k="name" v="Brattlistua" />
		<tag k="place" v="farm" />
		<tag k="ssr:stedsnr" v="552679" />
	</node>
	<node id="9689089109" lat="60.498056" lon="11.0763893" version="1" timestamp="2022-04-24T05:01:17Z" changeset="120110716" uid="3497659" user="NKA">
		<tag k="name" v="Bergvatn" />
		<tag k="place" v="farm" />
		<tag k="ssr:stedsnr" v="612746" />
	</node>
	<node id="9689089110" lat="60.4516862" lon="10.8398056" version="1" timestamp="2022-04-24T05:01:17Z" changeset="120110716" uid="3497659" user="NKA">
		<tag k="name" v="Nedre Østbråtan" />
		<tag k="place" v="locality" />
		<tag k="ssr:stedsnr" v="586307" />
	</node>
	<node id="9689089111" lat="60.42875" lon="10.9976528" version="1" timestamp="2022-04-24T05:01:17Z" changeset="120110716" uid="3497659" user="NKA">
		<tag k="name" v="Kabberud" />
		<tag k="place" v="farm" />
		<tag k="ssr:stedsnr" v="309650" />
	</node>
	<node id="9689089112" lat="60.4212818" lon="10.9153642" version="1" timestamp="2022-04-24T05:01:17Z" changeset="120110716" uid="3497659" user="NKA">
		<tag k="name" v="Tangen" />
		<tag k="place" v="farm" />
		<tag k="ssr:stedsnr" v="309660" />
	</node>
	<node id="9689089113" lat="60.3826583" lon="10.9721999" version="1" timestamp="2022-04-24T05:01:17Z" changeset="120110716" uid="3497659" user="NKA">
		<tag k="name" v="Hølsetra" />
		<tag k="place" v="locality" />
		<tag k="ssr:stedsnr" v="406739" />
	</node>
	<node id="9689089114" lat="60.346911" lon="11.0132069" version="1" timestamp="2022-04-24T05:01:17Z" changeset="120110716" uid="3497659" user="NKA">
		<tag k="name" v="Smedbakken" />
		<tag k="place" v="farm" />
		<tag k="ssr:stedsnr" v="404756" />
	</node>
	<node id="9689089115" lat="60.4499889" lon="10.7381167" version="1" timestamp="2022-04-24T05:01:17Z" changeset="120110716" uid="3497659" user="NKA">
		<tag k="name" v="Botnløkka" />
		<tag k="place" v="locality" />
		<tag k="ssr:stedsnr" v="969473" />
	</node>
	<node id="9689089116" lat="60.4901185" lon="10.7109785" version="1" timestamp="2022-04-24T05:01:17Z" changeset="120110716" uid="3497659" user="NKA">
		<tag k="alt_name" v="Brennelvhytta" />
		<tag k="loc_name" v="Brannelvstua" />
		<tag k="name" v="Brannelvhytta" />
		<tag k="place" v="isolated_dwelling" />
		<tag k="ssr:stedsnr" v="612336" />
	</node>
	<node id="9689089117" lat="60.4929714" lon="10.7372557" version="1" timestamp="2022-04-24T05:01:17Z" changeset="120110716" uid="3497659" user="NKA">
		<tag k="alt_name" v="Flårudseter" />
		<tag k="historic" v="shieling" />
		<tag k="name" v="Flårudsætra" />
		<tag k="place" v="isolated_dwelling" />
		<tag k="ssr:stedsnr" v="916772" />
	</node>
	<node id="9689089118" lat="60.3710556" lon="10.9217695" version="1" timestamp="2022-04-24T05:01:17Z" changeset="120110716" uid="3497659" user="NKA">
		<tag k="name" v="Lia" />
		<tag k="place" v="locality" />
		<tag k="ssr:stedsnr" v="734594" />
	</node>
	<node id="9689089119" lat="60.4246472" lon="10.9884417" version="1" timestamp="2022-04-24T05:01:17Z" changeset="120110716" uid="3497659" user="NKA">
		<tag k="name" v="Fjellsjøsaga" />
		<tag k="place" v="locality" />
		<tag k="ssr:stedsnr" v="224161" />
	</node>
	<node id="9689089120" lat="60.3641846" lon="11.0009171" version="1" timestamp="2022-04-24T05:01:17Z" changeset="120110716" uid="3497659" user="NKA">
		<tag k="name" v="Nordgarden" />
		<tag k="place" v="hamlet" />
		<tag k="ssr:stedsnr" v="552593" />
	</node>
	<node id="9689089121" lat="60.347298" lon="11.0113226" version="1" timestamp="2022-04-24T05:01:17Z" changeset="120110716" uid="3497659" user="NKA">
		<tag k="name" v="Heggeli" />
		<tag k="place" v="farm" />
		<tag k="ssr:stedsnr" v="343806" />
	</node>
	<node id="9689089122" lat="60.4008421" lon="11.0444273" version="1" timestamp="2022-04-24T05:01:17Z" changeset="120110716" uid="3497659" user="NKA">
		<tag k="name" v="Østbakken" />
		<tag k="place" v="farm" />
		<tag k="ssr:stedsnr" v="431615" />
	</node>
	<node id="9689089123" lat="60.350775" lon="11.0662999" version="1" timestamp="2022-04-24T05:01:17Z" changeset="120110716" uid="3497659" user="NKA">
		<tag k="alt_name" v="Svensgardhytta" />
		<tag k="name" v="Svensgårdhytta" />
		<tag k="place" v="isolated_dwelling" />
		<tag k="ssr:stedsnr" v="310521" />
	</node>
	<node id="9689089124" lat="60.3736772" lon="11.021528" version="1" timestamp="2022-04-24T05:01:17Z" changeset="120110716" uid="3497659" user="NKA">
		<tag k="name" v="Sjursrud" />
		<tag k="place" v="farm" />
		<tag k="ssr:stedsnr" v="309582" />
	</node>
	<node id="9689089125" lat="60.3541217" lon="11.0030979" version="1" timestamp="2022-04-24T05:01:17Z" changeset="120110716" uid="3497659" user="NKA">
		<tag k="name" v="Lund" />
		<tag k="place" v="farm" />
		<tag k="ssr:stedsnr" v="188571" />
	</node>
	<node id="9689089126" lat="60.3887389" lon="11.0253417" version="1" timestamp="2022-04-24T05:01:17Z" changeset="120110716" uid="3497659" user="NKA">
		<tag k="name" v="Saubråtan" />
		<tag k="place" v="locality" />
		<tag k="ssr:stedsnr" v="301961" />
	</node>
	<node id="9689089127" lat="60.3634627" lon="11.0017724" version="1" timestamp="2022-04-24T05:01:17Z" changeset="120110716" uid="3497659" user="NKA">
		<tag k="name" v="Søndre Nordgarden" />
		<tag k="place" v="farm" />
		<tag k="ssr:stedsnr" v="188582" />
	</node>
	<node id="9689089128" lat="60.3608664" lon="10.9965937" version="1" timestamp="2022-04-24T05:01:17Z" changeset="120110716" uid="3497659" user="NKA">
		<tag k="name" v="Åsli" />
		<tag k="place" v="farm" />
		<tag k="ssr:stedsnr" v="127578" />
	</node>
	<node id="9689089129" lat="60.4438333" lon="10.9785444" version="1" timestamp="2022-04-24T05:01:17Z" changeset="120110716" uid="3497659" user="NKA">
		<tag k="name" v="Ospebråtan" />
		<tag k="place" v="locality" />
		<tag k="ssr:stedsnr" v="42635" />
	</node>
	<node id="9689089130" lat="60.3779805" lon="11.080625" version="1" timestamp="2022-04-24T05:01:17Z" changeset="120110716" uid="3497659" user="NKA">
		<tag k="alt_name" v="Søsetra" />
		<tag k="name" v="Søndre Eidsæter" />
		<tag k="place" v="farm" />
		<tag k="ssr:stedsnr" v="916578" />
	</node>
	<node id="9689089131" lat="60.4613945" lon="10.8418639" version="1" timestamp="2022-04-24T05:01:17Z" changeset="120110716" uid="3497659" user="NKA">
		<tag k="name" v="Jonsestellet" />
		<tag k="place" v="locality" />
		<tag k="ssr:stedsnr" v="905961" />
	</node>
	<node id="9689089132" lat="60.4173793" lon="11.08703" version="1" timestamp="2022-04-24T05:01:17Z" changeset="120110716" uid="3497659" user="NKA">
		<tag k="name" v="Bundli" />
		<tag k="place" v="hamlet" />
		<tag k="ssr:stedsnr" v="674602" />
	</node>
	<node id="9689089133" lat="60.3816805" lon="11.008575" version="1" timestamp="2022-04-24T05:01:17Z" changeset="120110716" uid="3497659" user="NKA">
		<tag k="alt_name" v="Rudsætra;Rudsetra;Rudssætra" />
		<tag k="historic" v="shieling" />
		<tag k="name" v="Rudssetra" />
		<tag k="place" v="isolated_dwelling" />
		<tag k="ssr:stedsnr" v="795597" />
	</node>
	<node id="9689089134" lat="60.4556945" lon="10.8513055" version="1" timestamp="2022-04-24T05:01:17Z" changeset="120110716" uid="3497659" user="NKA">
		<tag k="name" v="Slåttbråtan" />
		<tag k="place" v="locality" />
		<tag k="ssr:stedsnr" v="829285" />
	</node>
	<node id="9689089135" lat="60.4720413" lon="11.0145812" version="1" timestamp="2022-04-24T05:01:17Z" changeset="120110716" uid="3497659" user="NKA">
		<tag k="name" v="Nordby" />
		<tag k="place" v="farm" />
		<tag k="ssr:stedsnr" v="785162" />
	</node>
	<node id="9689089136" lat="60.4429056" lon="11.0828532" version="1" timestamp="2022-04-24T05:01:17Z" changeset="120110716" uid="3497659" user="NKA">
		<tag k="name" v="Prestberget" />
		<tag k="place" v="isolated_dwelling" />
		<tag k="ssr:stedsnr" v="540882" />
	</node>
	<node id="9689089137" lat="60.4579917" lon="10.8456528" version="1" timestamp="2022-04-24T05:01:17Z" changeset="120110716" uid="3497659" user="NKA">
		<tag k="name" v="Simarud" />
		<tag k="place" v="farm" />
		<tag k="ssr:stedsnr" v="734696" />
	</node>
	<node id="9689089138" lat="60.4549222" lon="10.8985028" version="1" timestamp="2022-04-24T05:01:17Z" changeset="120110716" uid="3497659" user="NKA">
		<tag k="name" v="Maritrud" />
		<tag k="place" v="locality" />
		<tag k="ssr:stedsnr" v="724634" />
	</node>
	<node id="9689089139" lat="60.4835201" lon="11.0027939" version="1" timestamp="2022-04-24T05:01:17Z" changeset="120110716" uid="3497659" user="NKA">
		<tag k="name" v="Slåttvang" />
		<tag k="place" v="farm" />
		<tag k="ssr:stedsnr" v="709058" />
	</node>
	<node id="9689089140" lat="60.3394756" lon="11.0874792" version="1" timestamp="2022-04-24T05:01:17Z" changeset="120110716" uid="3497659" user="NKA">
		<tag k="alt_name" v="Langton nedre" />
		<tag k="name" v="Nedre Langton" />
		<tag k="place" v="farm" />
		<tag k="ssr:stedsnr" v="40086" />
	</node>
	<node id="9689089141" lat="60.4034874" lon="11.0848201" version="1" timestamp="2022-04-24T05:01:17Z" changeset="120110716" uid="3497659" user="NKA">
		<tag k="name" v="Hammerstua" />
		<tag k="place" v="farm" />
		<tag k="ssr:stedsnr" v="892749" />
	</node>
	<node id="9689089142" lat="60.3604534" lon="11.0945555" version="1" timestamp="2022-04-24T05:01:17Z" changeset="120110716" uid="3497659" user="NKA">
		<tag k="name" v="Lomtjernstua" />
		<tag k="place" v="isolated_dwelling" />
		<tag k="ssr:stedsnr" v="892542" />
	</node>
	<node id="9689089143" lat="60.4596924" lon="11.0651676" version="1" timestamp="2022-04-24T05:01:17Z" changeset="120110716" uid="3497659" user="NKA">
		<tag k="name" v="Nedre Røsrud" />
		<tag k="place" v="farm" />
		<tag k="ssr:stedsnr" v="239164" />
	</node>
	<node id="9689089144" lat="60.4216061" lon="11.0839283" version="1" timestamp="2022-04-24T05:01:17Z" changeset="120110716" uid="3497659" user="NKA">
		<tag k="name" v="Nordenga" />
		<tag k="place" v="farm" />
		<tag k="ssr:stedsnr" v="613602" />
	</node>
	<node id="9689089145" lat="60.4040306" lon="11.081625" version="1" timestamp="2022-04-24T05:01:17Z" changeset="120110716" uid="3497659" user="NKA">
		<tag k="alt_name" v="Hammaren" />
		<tag k="name" v="Hammeren" />
		<tag k="place" v="farm" />
		<tag k="ssr:stedsnr" v="551587" />
	</node>
	<node id="9689089146" lat="60.4321222" lon="11.0949944" version="1" timestamp="2022-04-24T05:01:17Z" changeset="120110716" uid="3497659" user="NKA">
		<tag k="name" v="Storhoggstua" />
		<tag k="place" v="locality" />
		<tag k="ssr:stedsnr" v="552513" />
	</node>
	<node id="9689089147" lat="60.4242388" lon="11.1128444" version="1" timestamp="2022-04-24T05:01:17Z" changeset="120110716" uid="3497659" user="NKA">
		<tag k="name" v="Bundliseter" />
		<tag k="place" v="locality" />
		<tag k="ssr:stedsnr" v="540448" />
	</node>
	<node id="9689089148" lat="60.4820182" lon="11.0122805" version="1" timestamp="2022-04-24T05:01:17Z" changeset="120110716" uid="3497659" user="NKA">
		<tag k="name" v="Erikstellet" />
		<tag k="place" v="farm" />
		<tag k="ssr:stedsnr" v="552749" />
	</node>
	<node id="9689089149" lat="60.4039012" lon="11.0445235" version="1" timestamp="2022-04-24T05:01:17Z" changeset="120110716" uid="3497659" user="NKA">
		<tag k="name" v="Haugar" />
		<tag k="place" v="isolated_dwelling" />
		<tag k="ssr:stedsnr" v="527871" />
	</node>
	<node id="9689089150" lat="60.4038617" lon="11.1051253" version="1" timestamp="2022-04-24T05:01:17Z" changeset="120110716" uid="3497659" user="NKA">
		<tag k="name" v="Dalseterstua" />
		<tag k="place" v="isolated_dwelling" />
		<tag k="ssr:stedsnr" v="406776" />
	</node>
	<node id="9689089151" lat="60.350322" lon="11.0056809" version="1" timestamp="2022-04-24T05:01:17Z" changeset="120110716" uid="3497659" user="NKA">
		<tag k="name" v="Myrvoll" />
		<tag k="place" v="farm" />
		<tag k="ssr:stedsnr" v="492478" />
	</node>
	<node id="9689089152" lat="60.4651017" lon="11.0652591" version="1" timestamp="2022-04-24T05:01:17Z" changeset="120110716" uid="3497659" user="NKA">
		<tag k="alt_name" v="Melby nedre;Søndre Melby" />
		<tag k="name" v="Nedre Melby" />
		<tag k="place" v="farm" />
		<tag k="ssr:stedsnr" v="431717" />
	</node>
	<node id="9689089153" lat="60.421875" lon="10.9653334" version="1" timestamp="2022-04-24T05:01:17Z" changeset="120110716" uid="3497659" user="NKA">
		<tag k="name" v="Hagen" />
		<tag k="place" v="farm" />
		<tag k="ssr:stedsnr" v="310636" />
	</node>
	<node id="9689089154" lat="60.3725583" lon="11.0804027" version="1" timestamp="2022-04-24T05:01:17Z" changeset="120110716" uid="3497659" user="NKA">
		<tag k="name" v="Langbråten" />
		<tag k="place" v="locality" />
		<tag k="ssr:stedsnr" v="285907" />
	</node>
	<node id="9689089155" lat="60.4921989" lon="10.9693775" version="1" timestamp="2022-04-24T05:01:17Z" changeset="120110716" uid="3497659" user="NKA">
		<tag k="name" v="Bonkerud" />
		<tag k="place" v="farm" />
		<tag k="ssr:stedsnr" v="309731" />
	</node>
	<node id="9689089156" lat="60.3971555" lon="11.0909389" version="1" timestamp="2022-04-24T05:01:17Z" changeset="120110716" uid="3497659" user="NKA">
		<tag k="name" v="Stallen" />
		<tag k="place" v="locality" />
		<tag k="ssr:stedsnr" v="285768" />
	</node>
	<node id="9689089157" lat="60.3408211" lon="11.0929418" version="1" timestamp="2022-04-24T05:01:17Z" changeset="120110716" uid="3497659" user="NKA">
		<tag k="name" v="Langtonstua" />
		<tag k="place" v="isolated_dwelling" />
		<tag k="ssr:stedsnr" v="282738" />
	</node>
	<node id="9689089158" lat="60.4366021" lon="11.0566667" version="1" timestamp="2022-04-24T05:01:17Z" changeset="120110716" uid="3497659" user="NKA">
		<tag k="name" v="Tørrtopp" />
		<tag k="place" v="farm" />
		<tag k="ssr:stedsnr" v="309665" />
	</node>
	<node id="9689089159" lat="60.485749" lon="10.803448" version="1" timestamp="2022-04-24T05:01:17Z" changeset="120110716" uid="3497659" user="NKA">
		<tag k="alt_name" v="Svartungshytta" />
		<tag k="name" v="Svartungstua" />
		<tag k="place" v="isolated_dwelling" />
		<tag k="ssr:stedsnr" v="249728" />
	</node>
	<node id="9689089160" lat="60.449425" lon="10.7855001" version="1" timestamp="2022-04-24T05:01:17Z" changeset="120110716" uid="3497659" user="NKA">
		<tag k="name" v="Valby" />
		<tag k="place" v="locality" />
		<tag k="ssr:stedsnr" v="302419" />
	</node>
	<node id="9689089161" lat="60.4432361" lon="10.9981778" version="1" timestamp="2022-04-24T05:01:17Z" changeset="120110716" uid="3497659" user="NKA">
		<tag k="name" v="Haugseter" />
		<tag k="place" v="locality" />
		<tag k="ssr:stedsnr" v="178621" />
	</node>
	<node id="9689089162" lat="60.4763194" lon="10.8412166" version="1" timestamp="2022-04-24T05:01:17Z" changeset="120110716" uid="3497659" user="NKA">
		<tag k="name" v="Finnvollen" />
		<tag k="place" v="locality" />
		<tag k="ssr:stedsnr" v="239857" />
	</node>
	<node id="9689089163" lat="60.4309639" lon="11.0771388" version="1" timestamp="2022-04-24T05:01:17Z" changeset="120110716" uid="3497659" user="NKA">
		<tag k="name" v="Skogstad" />
		<tag k="place" v="farm" />
		<tag k="ssr:stedsnr" v="127666" />
	</node>
	<node id="9689089164" lat="60.4410202" lon="11.0474882" version="1" timestamp="2022-04-24T05:01:17Z" changeset="120110716" uid="3497659" user="NKA">
		<tag k="name" v="Furulund" />
		<tag k="place" v="farm" />
		<tag k="ssr:stedsnr" v="224706" />
	</node>
	<node id="9689089165" lat="60.4686824" lon="11.0696508" version="1" timestamp="2022-04-24T05:01:17Z" changeset="120110716" uid="3497659" user="NKA">
		<tag k="name" v="Melbybakken" />
		<tag k="place" v="farm" />
		<tag k="ssr:stedsnr" v="102254" />
	</node>
	<node id="9689089166" lat="60.4487761" lon="11.0256634" version="1" timestamp="2022-04-24T05:01:17Z" changeset="120110716" uid="3497659" user="NKA">
		<tag k="name" v="Rognstad" />
		<tag k="place" v="hamlet" />
		<tag k="ssr:stedsnr" v="127692" />
	</node>
	<node id="9689089167" lat="60.4855328" lon="10.9621144" version="1" timestamp="2022-04-24T05:01:17Z" changeset="120110716" uid="3497659" user="NKA">
		<tag k="name" v="Dalen" />
		<tag k="place" v="farm" />
		<tag k="ssr:stedsnr" v="795726" />
	</node>
	<node id="9689089168" lat="60.4631528" lon="10.8433278" version="1" timestamp="2022-04-24T05:01:17Z" changeset="120110716" uid="3497659" user="NKA">
		<tag k="loc_name" v="Stellet" />
		<tag k="name" v="Christofferstellet" />
		<tag k="place" v="locality" />
		<tag k="ssr:stedsnr" v="967815" />
	</node>
	<node id="9689089169" lat="60.4676195" lon="10.9886528" version="1" timestamp="2022-04-24T05:01:17Z" changeset="120110716" uid="3497659" user="NKA">
		<tag k="name" v="Glabak" />
		<tag k="place" v="locality" />
		<tag k="ssr:stedsnr" v="725862" />
	</node>
	<node id="9689089170" lat="60.4204348" lon="10.9515626" version="1" timestamp="2022-04-24T05:01:17Z" changeset="120110716" uid="3497659" user="NKA">
		<tag k="name" v="Geitbergstua" />
		<tag k="place" v="farm" />
		<tag k="ssr:stedsnr" v="952225" />
	</node>
	<node id="9689089171" lat="60.4122867" lon="11.0348107" version="1" timestamp="2022-04-24T05:01:17Z" changeset="120110716" uid="3497659" user="NKA">
		<tag k="name" v="Vestby" />
		<tag k="place" v="farm" />
		<tag k="ssr:stedsnr" v="952858" />
	</node>
	<node id="9689089172" lat="60.4905926" lon="11.0098441" version="1" timestamp="2022-04-24T05:01:17Z" changeset="120110716" uid="3497659" user="NKA">
		<tag k="name" v="Nertømta" />
		<tag k="place" v="farm" />
		<tag k="ssr:stedsnr" v="770042" />
	</node>
	<node id="9689089173" lat="60.4191583" lon="10.9329084" version="1" timestamp="2022-04-24T05:01:17Z" changeset="120110716" uid="3497659" user="NKA">
		<tag k="name" v="Teljebakken" />
		<tag k="place" v="locality" />
		<tag k="ssr:stedsnr" v="952190" />
	</node>
	<node id="9689089174" lat="60.4660804" lon="11.0645074" version="1" timestamp="2022-04-24T05:01:17Z" changeset="120110716" uid="3497659" user="NKA">
		<tag k="name" v="Melby" />
		<tag k="place" v="hamlet" />
		<tag k="ssr:stedsnr" v="725178" />
	</node>
	<node id="9689089175" lat="60.47175" lon="11.0300083" version="1" timestamp="2022-04-24T05:01:17Z" changeset="120110716" uid="3497659" user="NKA">
		<tag k="name" v="Nordstrand" />
		<tag k="place" v="farm" />
		<tag k="ssr:stedsnr" v="795699" />
	</node>
	<node id="9689089176" lat="60.4887358" lon="11.0180808" version="1" timestamp="2022-04-24T05:01:17Z" changeset="120110716" uid="3497659" user="NKA">
		<tag k="alt_name" v="Garsjø" />
		<tag k="name" v="Garsjøen" />
		<tag k="place" v="hamlet" />
		<tag k="ssr:stedsnr" v="673728" />
	</node>
	<node id="9689089177" lat="60.4744611" lon="11.0310638" version="1" timestamp="2022-04-24T05:01:17Z" changeset="120110716" uid="3497659" user="NKA">
		<tag k="alt_name" v="Møllerfeltet" />
		<tag k="name" v="Møllefeltet" />
		<tag k="place" v="neighbourhood" />
		<tag k="ssr:stedsnr" v="664157" />
	</node>
	<node id="9689089178" lat="60.4415138" lon="11.1082056" version="1" timestamp="2022-04-24T05:01:17Z" changeset="120110716" uid="3497659" user="NKA">
		<tag k="name" v="Brustadseter" />
		<tag k="place" v="locality" />
		<tag k="ssr:stedsnr" v="783885" />
	</node>
	<node id="9689089179" lat="60.4523528" lon="11.0654" version="1" timestamp="2022-04-24T05:01:17Z" changeset="120110716" uid="3497659" user="NKA">
		<tag k="name" v="Tømte" />
		<tag k="place" v="farm" />
		<tag k="ssr:stedsnr" v="673667" />
	</node>
	<node id="9689089180" lat="60.4675305" lon="11.0525166" version="1" timestamp="2022-04-24T05:01:17Z" changeset="120110716" uid="3497659" user="NKA">
		<tag k="name" v="Elvesvingen" />
		<tag k="place" v="farm" />
		<tag k="ssr:stedsnr" v="785148" />
	</node>
	<node id="9689089181" lat="60.5025534" lon="11.0757868" version="1" timestamp="2022-04-24T05:01:17Z" changeset="120110716" uid="3497659" user="NKA">
		<tag k="name" v="Nord-Bergvatn" />
		<tag k="place" v="farm" />
		<tag k="ssr:stedsnr" v="527153" />
	</node>
	<node id="9689089182" lat="60.4779956" lon="11.0220728" version="1" timestamp="2022-04-24T05:01:17Z" changeset="120110716" uid="3497659" user="NKA">
		<tag k="name" v="Garsjømoen" />
		<tag k="place" v="farm" />
		<tag k="ssr:stedsnr" v="664155" />
	</node>
	<node id="9689089183" lat="60.4611366" lon="11.0598448" version="1" timestamp="2022-04-24T05:01:17Z" changeset="120110716" uid="3497659" user="NKA">
		<tag k="alt_name" v="Nedre Ødemark;Nedgarden;Ødemark, midtre" />
		<tag k="name" v="Midtre Ødemark" />
		<tag k="old_name" v="Ødemark, m" />
		<tag k="place" v="farm" />
		<tag k="ssr:stedsnr" v="284152" />
	</node>
	<node id="9689089184" lat="60.4828608" lon="11.0738763" version="1" timestamp="2022-04-24T05:01:17Z" changeset="120110716" uid="3497659" user="NKA">
		<tag k="name" v="Røbekken hyttefelt" />
		<tag k="place" v="neighbourhood" />
		<tag k="ssr:stedsnr" v="527027" />
	</node>
	<node id="9689089185" lat="60.4592556" lon="10.7298191" version="1" timestamp="2022-04-24T05:01:17Z" changeset="120110716" uid="3497659" user="NKA">
		<tag k="name" v="Nedre Røsåsen" />
		<tag k="place" v="farm" />
		<tag k="ssr:stedsnr" v="723899" />
	</node>
	<node id="9689089186" lat="60.3967861" lon="11.0783723" version="1" timestamp="2022-04-24T05:01:17Z" changeset="120110716" uid="3497659" user="NKA">
		<tag k="name" v="Hammersborg" />
		<tag k="place" v="farm" />
		<tag k="ssr:stedsnr" v="734623" />
	</node>
	<node id="9689089187" lat="60.4508083" lon="11.0727166" version="1" timestamp="2022-04-24T05:01:17Z" changeset="120110716" uid="3497659" user="NKA">
		<tag k="name" v="Moseter" />
		<tag k="place" v="locality" />
		<tag k="ssr:stedsnr" v="480898" />
	</node>
	<node id="9689089188" lat="60.4028103" lon="11.0514705" version="1" timestamp="2022-04-24T05:01:17Z" changeset="120110716" uid="3497659" user="NKA">
		<tag k="name" v="Skredderbakken" />
		<tag k="place" v="farm" />
		<tag k="ssr:stedsnr" v="795634" />
	</node>
	<node id="9689089189" lat="60.4614379" lon="11.0606859" version="1" timestamp="2022-04-24T05:01:17Z" changeset="120110716" uid="3497659" user="NKA">
		<tag k="loc_name" v="Oppgarden" />
		<tag k="name" v="Øvre Ødemark" />
		<tag k="place" v="farm" />
		<tag k="ssr:stedsnr" v="466150" />
	</node>
	<node id="9689089190" lat="60.4667099" lon="11.0858085" version="1" timestamp="2022-04-24T05:01:17Z" changeset="120110716" uid="3497659" user="NKA">
		<tag k="name" v="Ekrastua" />
		<tag k="place" v="isolated_dwelling" />
		<tag k="ssr:stedsnr" v="284221" />
	</node>
	<node id="9689089191" lat="60.4854162" lon="11.0200376" version="1" timestamp="2022-04-24T05:01:17Z" changeset="120110716" uid="3497659" user="NKA">
		<tag k="name" v="Rønningen" />
		<tag k="place" v="farm" />
		<tag k="ssr:stedsnr" v="431743" />
	</node>
	<node id="9689089192" lat="60.477375" lon="11.01025" version="1" timestamp="2022-04-24T05:01:17Z" changeset="120110716" uid="3497659" user="NKA">
		<tag k="alt_name" v="Stenset" />
		<tag k="name" v="Steinset" />
		<tag k="place" v="farm" />
		<tag k="ssr:stedsnr" v="234723" />
	</node>
	<node id="9689089193" lat="60.4728223" lon="10.9920639" version="1" timestamp="2022-04-24T05:01:17Z" changeset="120110716" uid="3497659" user="NKA">
		<tag k="name" v="Nilsbu" />
		<tag k="place" v="isolated_dwelling" />
		<tag k="ssr:stedsnr" v="239883" />
	</node>
	<node id="9689089194" lat="60.4915508" lon="10.9975323" version="1" timestamp="2022-04-24T05:01:17Z" changeset="120110716" uid="3497659" user="NKA">
		<tag k="name" v="Fagerlund" />
		<tag k="place" v="farm" />
		<tag k="ssr:stedsnr" v="6729" />
	</node>
	<node id="9689089195" lat="60.4855252" lon="11.0052819" version="1" timestamp="2022-04-24T05:01:17Z" changeset="120110716" uid="3497659" user="NKA">
		<tag k="name" v="Inngjerdinga" />
		<tag k="place" v="farm" />
		<tag k="ssr:stedsnr" v="67729" />
	</node>
	<node id="9689089196" lat="60.4571845" lon="11.0447531" version="1" timestamp="2022-04-24T05:01:17Z" changeset="120110716" uid="3497659" user="NKA">
		<tag k="name" v="Snippen" />
		<tag k="place" v="farm" />
		<tag k="ssr:stedsnr" v="6695" />
	</node>
	<node id="9689089197" lat="60.492488" lon="10.9844151" version="1" timestamp="2022-04-24T05:01:17Z" changeset="120110716" uid="3497659" user="NKA">
		<tag k="name" v="Rognlienga" />
		<tag k="place" v="farm" />
		<tag k="ssr:stedsnr" v="6743" />
	</node>
	<node id="9689089198" lat="60.4937644" lon="11.0101415" version="1" timestamp="2022-04-24T05:01:17Z" changeset="120110716" uid="3497659" user="NKA">
		<tag k="name" v="Innleggen" />
		<tag k="place" v="farm" />
		<tag k="ssr:stedsnr" v="916765" />
	</node>
	<node id="9689089199" lat="60.465111" lon="11.0442286" version="1" timestamp="2022-04-24T05:01:17Z" changeset="120110716" uid="3497659" user="NKA">
		<tag k="name" v="Sørflaen" />
		<tag k="place" v="farm" />
		<tag k="ssr:stedsnr" v="6699" />
	</node>
	<node id="9689089200" lat="60.476675" lon="11.0205611" version="1" timestamp="2022-04-24T05:01:17Z" changeset="120110716" uid="3497659" user="NKA">
		<tag k="name" v="Nordenga" />
		<tag k="place" v="farm" />
		<tag k="ssr:stedsnr" v="795713" />
	</node>
	<node id="9689089201" lat="60.4730418" lon="11.0267163" version="1" timestamp="2022-04-24T05:01:17Z" changeset="120110716" uid="3497659" user="NKA">
		<tag k="name" v="Elvenga" />
		<tag k="place" v="farm" />
		<tag k="ssr:stedsnr" v="795712" />
	</node>
	<node id="9689089202" lat="60.4867426" lon="10.9612745" version="1" timestamp="2022-04-24T05:01:17Z" changeset="120110716" uid="3497659" user="NKA">
		<tag k="name" v="Nydalen" />
		<tag k="place" v="farm" />
		<tag k="ssr:stedsnr" v="770058" />
	</node>
	<node id="9689089203" lat="60.4795139" lon="11.0125638" version="1" timestamp="2022-04-24T05:01:17Z" changeset="120110716" uid="3497659" user="NKA">
		<tag k="alt_name" v="Ringen, søndre" />
		<tag k="name" v="Sør-Ringen" />
		<tag k="place" v="farm" />
		<tag k="ssr:stedsnr" v="795710" />
	</node>
	<node id="9689089204" lat="60.4520564" lon="11.0560211" version="1" timestamp="2022-04-24T05:01:17Z" changeset="120110716" uid="3497659" user="NKA">
		<tag k="name" v="Bråtalykkja" />
		<tag k="place" v="farm" />
		<tag k="ssr:stedsnr" v="734685" />
	</node>
	<node id="9689089205" lat="60.4867305" lon="11.0725616" version="1" timestamp="2022-04-24T05:01:17Z" changeset="120110716" uid="3497659" user="NKA">
		<tag k="name" v="Melby hyttefelt" />
		<tag k="place" v="neighbourhood" />
		<tag k="ssr:stedsnr" v="770004" />
	</node>
	<node id="9689089206" lat="60.4899518" lon="11.0020104" version="1" timestamp="2022-04-24T05:01:17Z" changeset="120110716" uid="3497659" user="NKA">
		<tag k="alt_name" v="Tomta" />
		<tag k="name" v="Tømta" />
		<tag k="place" v="farm" />
		<tag k="ssr:stedsnr" v="856732" />
	</node>
	<node id="9689089207" lat="60.4692639" lon="11.0507888" version="1" timestamp="2022-04-24T05:01:17Z" changeset="120110716" uid="3497659" user="NKA">
		<tag k="name" v="Oreholtet" />
		<tag k="place" v="farm" />
		<tag k="ssr:stedsnr" v="734709" />
	</node>
	<node id="9689089208" lat="60.4761859" lon="11.0358234" version="1" timestamp="2022-04-24T05:01:17Z" changeset="120110716" uid="3497659" user="NKA">
		<tag k="name" v="Skjelstad" />
		<tag k="place" v="farm" />
		<tag k="ssr:stedsnr" v="856718" />
	</node>
	<node id="9689089209" lat="60.46795" lon="11.0324751" version="1" timestamp="2022-04-24T05:01:17Z" changeset="120110716" uid="3497659" user="NKA">
		<tag k="name" v="Strand" />
		<tag k="place" v="farm" />
		<tag k="ssr:stedsnr" v="855711" />
	</node>
	<node id="9689089210" lat="60.471006" lon="11.0428488" version="1" timestamp="2022-04-24T05:01:17Z" changeset="120110716" uid="3497659" user="NKA">
		<tag k="alt_name" v="Ødemarksbakken" />
		<tag k="name" v="Lundstad" />
		<tag k="place" v="farm" />
		<tag k="ssr:stedsnr" v="855709" />
	</node>
	<node id="9689089211" lat="60.4587136" lon="11.0586323" version="1" timestamp="2022-04-24T05:01:17Z" changeset="120110716" uid="3497659" user="NKA">
		<tag k="alt_name" v="Søndre Ødemark;Ødemark, søndre;Nedre Ødemark" />
		<tag k="name" v="Nedgarden" />
		<tag k="place" v="farm" />
		<tag k="ssr:stedsnr" v="855701" />
	</node>
	<node id="9689089212" lat="60.4997361" lon="10.9922584" version="1" timestamp="2022-04-24T05:01:17Z" changeset="120110716" uid="3497659" user="NKA">
		<tag k="name" v="Skålerud" />
		<tag k="place" v="locality" />
		<tag k="ssr:stedsnr" v="648008" />
	</node>
	<node id="9689089213" lat="60.4668527" lon="11.0806694" version="1" timestamp="2022-04-24T05:01:17Z" changeset="120110716" uid="3497659" user="NKA">
		<tag k="name" v="Lukasrud" />
		<tag k="place" v="locality" />
		<tag k="ssr:stedsnr" v="648245" />
	</node>
	<node id="9689089214" lat="60.4880661" lon="10.955898" version="1" timestamp="2022-04-24T05:01:17Z" changeset="120110716" uid="3497659" user="NKA">
		<tag k="name" v="Baronbakken" />
		<tag k="place" v="farm" />
		<tag k="ssr:stedsnr" v="709013" />
	</node>
	<node id="9689089215" lat="60.4596819" lon="11.0596936" version="1" timestamp="2022-04-24T05:01:17Z" changeset="120110716" uid="3497659" user="NKA">
		<tag k="name" v="Nedre Ødemark" />
		<tag k="place" v="farm" />
		<tag k="ssr:stedsnr" v="709145" />
	</node>
	<node id="9689089216" lat="60.4689389" lon="10.9953167" version="1" timestamp="2022-04-24T05:01:17Z" changeset="120110716" uid="3497659" user="NKA">
		<tag k="name" v="Ulriksbråtan" />
		<tag k="place" v="locality" />
		<tag k="ssr:stedsnr" v="847871" />
	</node>
	<node id="9689089217" lat="60.470225" lon="11.0759028" version="1" timestamp="2022-04-24T05:01:17Z" changeset="120110716" uid="3497659" user="NKA">
		<tag k="name" v="Melbybråten" />
		<tag k="place" v="farm" />
		<tag k="ssr:stedsnr" v="612705" />
	</node>
	<node id="9689089218" lat="60.488475" lon="10.9661555" version="1" timestamp="2022-04-24T05:01:17Z" changeset="120110716" uid="3497659" user="NKA">
		<tag k="name" v="Dalabråtan" />
		<tag k="place" v="locality" />
		<tag k="ssr:stedsnr" v="648013" />
	</node>
	<node id="9689089219" lat="60.4923418" lon="11.0550746" version="1" timestamp="2022-04-24T05:01:17Z" changeset="120110716" uid="3497659" user="NKA">
		<tag k="name" v="Neråsen" />
		<tag k="place" v="farm" />
		<tag k="ssr:stedsnr" v="648036" />
	</node>
	<node id="9689089220" lat="60.4835305" lon="11.0598973" version="1" timestamp="2022-04-24T05:01:17Z" changeset="120110716" uid="3497659" user="NKA">
		<tag k="name" v="Seteråsbrua" />
		<tag k="place" v="farm" />
		<tag k="ssr:stedsnr" v="527011" />
	</node>
	<node id="9689089221" lat="60.4918642" lon="11.0081874" version="1" timestamp="2022-04-24T05:01:17Z" changeset="120110716" uid="3497659" user="NKA">
		<tag k="name" v="Øvre Tømta" />
		<tag k="place" v="farm" />
		<tag k="ssr:stedsnr" v="648015" />
	</node>
	<node id="9689089222" lat="60.4898646" lon="10.9983373" version="1" timestamp="2022-04-24T05:01:17Z" changeset="120110716" uid="3497659" user="NKA">
		<tag k="name" v="Gran" />
		<tag k="place" v="farm" />
		<tag k="ssr:stedsnr" v="552762" />
	</node>
	<node id="9689089223" lat="60.4806778" lon="11.0227722" version="1" timestamp="2022-04-24T05:01:17Z" changeset="120110716" uid="3497659" user="NKA">
		<tag k="name" v="Lysgårdslia" />
		<tag k="place" v="hamlet" />
		<tag k="ssr:stedsnr" v="527013" />
	</node>
	<node id="9689089224" lat="60.471475" lon="11.0816749" version="1" timestamp="2022-04-24T05:01:17Z" changeset="120110716" uid="3497659" user="NKA">
		<tag k="name" v="Harstad" />
		<tag k="place" v="farm" />
		<tag k="ssr:stedsnr" v="552737" />
	</node>
	<node id="9689089225" lat="60.4702696" lon="11.016342" version="1" timestamp="2022-04-24T05:01:17Z" changeset="120110716" uid="3497659" user="NKA">
		<tag k="name" v="Øverby" />
		<tag k="place" v="farm" />
		<tag k="ssr:stedsnr" v="552724" />
	</node>
	<node id="9689089226" lat="60.4968171" lon="11.0235067" version="1" timestamp="2022-04-24T05:01:17Z" changeset="120110716" uid="3497659" user="NKA">
		<tag k="alt_name" v="Kakubråten" />
		<tag k="name" v="Kakubråtan" />
		<tag k="place" v="farm" />
		<tag k="ssr:stedsnr" v="370751" />
	</node>
	<node id="9689089227" lat="60.4706946" lon="10.9561683" version="1" timestamp="2022-04-24T05:01:17Z" changeset="120110716" uid="3497659" user="NKA">
		<tag k="historic" v="shieling" />
		<tag k="name" v="Snultra" />
		<tag k="place" v="isolated_dwelling" />
		<tag k="ssr:stedsnr" v="552722" />
	</node>
	<node id="9689089228" lat="60.4616513" lon="11.0689271" version="1" timestamp="2022-04-24T05:01:17Z" changeset="120110716" uid="3497659" user="NKA">
		<tag k="alt_name" v="Røsrud øvre" />
		<tag k="name" v="Øvre Røsrud" />
		<tag k="place" v="farm" />
		<tag k="ssr:stedsnr" v="406222" />
	</node>
	<node id="9689089229" lat="60.4538389" lon="11.0411222" version="1" timestamp="2022-04-24T05:01:17Z" changeset="120110716" uid="3497659" user="NKA">
		<tag k="name" v="Monsrud" />
		<tag k="place" v="farm" />
		<tag k="ssr:stedsnr" v="831493" />
	</node>
	<node id="9689089230" lat="60.4664539" lon="11.0665867" version="1" timestamp="2022-04-24T05:01:17Z" changeset="120110716" uid="3497659" user="NKA">
		<tag k="alt_name" v="Nordre Melby" />
		<tag k="name" v="Øvre Melby" />
		<tag k="place" v="farm" />
		<tag k="ssr:stedsnr" v="309704" />
	</node>
	<node id="9689089231" lat="60.473375" lon="10.994225" version="1" timestamp="2022-04-24T05:01:17Z" changeset="120110716" uid="3497659" user="NKA">
		<tag k="name" v="Bjønnbråtan" />
		<tag k="place" v="locality" />
		<tag k="ssr:stedsnr" v="361874" />
	</node>
	<node id="9689089232" lat="60.4955012" lon="10.9805709" version="1" timestamp="2022-04-24T05:01:17Z" changeset="120110716" uid="3497659" user="NKA">
		<tag k="name" v="Rognlia" />
		<tag k="place" v="hamlet" />
		<tag k="ssr:stedsnr" v="831015" />
	</node>
	<node id="9689089233" lat="60.4805007" lon="11.0232618" version="1" timestamp="2022-04-24T05:01:17Z" changeset="120110716" uid="3497659" user="NKA">
		<tag k="name" v="Kalvbråten" />
		<tag k="place" v="farm" />
		<tag k="ssr:stedsnr" v="406011" />
	</node>
	<node id="9689089234" lat="60.4848647" lon="10.9975118" version="1" timestamp="2022-04-24T05:01:17Z" changeset="120110716" uid="3497659" user="NKA">
		<tag k="name" v="Ringstad" />
		<tag k="place" v="farm" />
		<tag k="ssr:stedsnr" v="249706" />
	</node>
	<node id="9689089235" lat="60.4710757" lon="11.0859833" version="1" timestamp="2022-04-24T05:01:17Z" changeset="120110716" uid="3497659" user="NKA">
		<tag k="name" v="Ekralia hyttefelt" />
		<tag k="place" v="neighbourhood" />
		<tag k="ssr:stedsnr" v="239395" />
	</node>
	<node id="9689089236" lat="60.4829233" lon="11.0095445" version="1" timestamp="2022-04-24T05:01:17Z" changeset="120110716" uid="3497659" user="NKA">
		<tag k="name" v="Lundgård" />
		<tag k="place" v="farm" />
		<tag k="ssr:stedsnr" v="285007" />
	</node>
	<node id="9689089237" lat="60.4512612" lon="11.0611025" version="1" timestamp="2022-04-24T05:01:17Z" changeset="120110716" uid="3497659" user="NKA">
		<tag k="name" v="Karinastua" />
		<tag k="place" v="isolated_dwelling" />
		<tag k="ssr:stedsnr" v="224737" />
	</node>
	<node id="9689089238" lat="60.4836833" lon="10.9877777" version="1" timestamp="2022-04-24T05:01:17Z" changeset="120110716" uid="3497659" user="NKA">
		<tag k="name" v="Mikalshytta" />
		<tag k="place" v="locality" />
		<tag k="ssr:stedsnr" v="345071" />
	</node>
	<node id="9689089239" lat="60.4603124" lon="11.0680011" version="1" timestamp="2022-04-24T05:01:17Z" changeset="120110716" uid="3497659" user="NKA">
		<tag k="name" v="Røsrud" />
		<tag k="place" v="hamlet" />
		<tag k="ssr:stedsnr" v="188716" />
	</node>
	<node id="9689089240" lat="60.4844139" lon="11.0368194" version="1" timestamp="2022-04-24T05:01:17Z" changeset="120110716" uid="3497659" user="NKA">
		<tag k="name" v="Garsjøsetra" />
		<tag k="place" v="locality" />
		<tag k="ssr:stedsnr" v="224010" />
	</node>
	<node id="9689089241" lat="60.458779" lon="11.0446412" version="1" timestamp="2022-04-24T05:01:17Z" changeset="120110716" uid="3497659" user="NKA">
		<tag k="name" v="Steinrud" />
		<tag k="place" v="locality" />
		<tag k="ssr:stedsnr" v="188709" />
	</node>
	<node id="9689089242" lat="60.4912555" lon="11.016386" version="1" timestamp="2022-04-24T05:01:17Z" changeset="120110716" uid="3497659" user="NKA">
		<tag k="name" v="Åsheim" />
		<tag k="place" v="farm" />
		<tag k="ssr:stedsnr" v="188765" />
	</node>
	<node id="9689089243" lat="60.4899979" lon="11.0186459" version="1" timestamp="2022-04-24T05:01:17Z" changeset="120110716" uid="3497659" user="NKA">
		<tag k="alt_name" v="Tajet" />
		<tag k="name" v="Granlund" />
		<tag k="place" v="farm" />
		<tag k="ssr:stedsnr" v="188756" />
	</node>
	<node id="9689089244" lat="60.4775723" lon="11.0023805" version="1" timestamp="2022-04-24T05:01:17Z" changeset="120110716" uid="3497659" user="NKA">
		<tag k="name" v="Geitsetra" />
		<tag k="place" v="locality" />
		<tag k="ssr:stedsnr" v="179176" />
	</node>
	<node id="9689089245" lat="60.4793912" lon="11.0183489" version="1" timestamp="2022-04-24T05:01:17Z" changeset="120110716" uid="3497659" user="NKA">
		<tag k="name" v="Tangen" />
		<tag k="place" v="farm" />
		<tag k="ssr:stedsnr" v="188731" />
	</node>
	<node id="9689089246" lat="60.4931453" lon="10.980502" version="1" timestamp="2022-04-24T05:01:17Z" changeset="120110716" uid="3497659" user="NKA">
		<tag k="name" v="Søndre Rognlia" />
		<tag k="place" v="farm" />
		<tag k="ssr:stedsnr" v="188760" />
	</node>
	<node id="9689089247" lat="60.4950888" lon="11.0063194" version="1" timestamp="2022-04-24T05:01:17Z" changeset="120110716" uid="3497659" user="NKA">
		<tag k="name" v="Holtemarka" />
		<tag k="place" v="neighbourhood" />
		<tag k="ssr:stedsnr" v="102015" />
	</node>
	<node id="9689089248" lat="60.4963958" lon="10.979139" version="1" timestamp="2022-04-24T05:01:17Z" changeset="120110716" uid="3497659" user="NKA">
		<tag k="name" v="Nordre Rognlia" />
		<tag k="place" v="farm" />
		<tag k="ssr:stedsnr" v="67739" />
	</node>
	<node id="9689089249" lat="60.4671785" lon="11.0502853" version="1" timestamp="2022-04-24T05:01:17Z" changeset="120110716" uid="3497659" user="NKA">
		<tag k="alt_name" v="Skogly" />
		<tag k="name" v="Skogli" />
		<tag k="place" v="farm" />
		<tag k="ssr:stedsnr" v="66682" />
	</node>
	<node id="9689089250" lat="60.4688863" lon="11.0253099" version="1" timestamp="2022-04-24T05:01:17Z" changeset="120110716" uid="3497659" user="NKA">
		<tag k="name" v="Lisbakken" />
		<tag k="place" v="farm" />
		<tag k="ssr:stedsnr" v="66681" />
	</node>
	<node id="9689089251" lat="60.4661" lon="11.059325" version="1" timestamp="2022-04-24T05:01:17Z" changeset="120110716" uid="3497659" user="NKA">
		<tag k="name" v="Bekkelund" />
		<tag k="place" v="farm" />
		<tag k="ssr:stedsnr" v="6702" />
	</node>
	<node id="9689089252" lat="60.5140956" lon="11.064501" version="1" timestamp="2022-04-24T05:01:17Z" changeset="120110716" uid="3497659" user="NKA">
		<tag k="name" v="Damstua" />
		<tag k="place" v="isolated_dwelling" />
		<tag k="ssr:stedsnr" v="42125" />
	</node>
	<node id="9689089253" lat="60.415325" lon="11.1192833" version="1" timestamp="2022-04-24T05:01:17Z" changeset="120110716" uid="3497659" user="NKA">
		<tag k="name" v="Vålsjøstua" />
		<tag k="place" v="isolated_dwelling" />
		<tag k="ssr:stedsnr" v="795534" />
	</node>
	<node id="9689089254" lat="60.4813504" lon="11.0104083" version="1" timestamp="2022-04-24T05:01:17Z" changeset="120110716" uid="3497659" user="NKA">
		<tag k="alt_name" v="Ringen, nordre" />
		<tag k="name" v="Nord-Ringen" />
		<tag k="place" v="farm" />
		<tag k="ssr:stedsnr" v="6708" />
	</node>
	<node id="9689089255" lat="60.3960498" lon="11.1262667" version="1" timestamp="2022-04-24T05:01:17Z" changeset="120110716" uid="3497659" user="NKA">
		<tag k="name" v="Vingerdalstua" />
		<tag k="place" v="isolated_dwelling" />
		<tag k="ssr:stedsnr" v="370003" />
	</node>
	<node id="9689089256" lat="60.3380266" lon="11.0915724" version="1" timestamp="2022-04-24T05:01:17Z" changeset="120110716" uid="3497659" user="NKA">
		<tag k="name" v="Grønerud" />
		<tag k="place" v="isolated_dwelling" />
		<tag k="ssr:stedsnr" v="127551" />
	</node>
	<node id="9689089257" lat="60.4629861" lon="10.7407221" version="1" timestamp="2022-04-24T05:01:17Z" changeset="120110716" uid="3497659" user="NKA">
		<tag k="alt_name" v="Hallum" />
		<tag k="name" v="Hallom" />
		<tag k="place" v="farm" />
		<tag k="ssr:stedsnr" v="916731" />
	</node>
	<node id="9689089258" lat="60.3921005" lon="11.1287857" version="1" timestamp="2022-04-24T05:01:17Z" changeset="120110716" uid="3497659" user="NKA">
		<tag k="name" v="Tasketjennshytta" />
		<tag k="place" v="isolated_dwelling" />
		<tag k="ssr:stedsnr" v="831717" />
	</node>
	<node id="9689089259" lat="60.4506713" lon="10.8003193" version="1" timestamp="2022-04-24T05:01:17Z" changeset="120110716" uid="3497659" user="NKA">
		<tag k="alt_name" v="Dølerudseter;Dølerudsæter" />
		<tag k="name" v="Dølsætra" />
		<tag k="place" v="farm" />
		<tag k="ssr:stedsnr" v="795696" />
	</node>
	<node id="9689089260" lat="60.446225" lon="10.8596999" version="1" timestamp="2022-04-24T05:01:17Z" changeset="120110716" uid="3497659" user="NKA">
		<tag k="alt_name" v="Steinsrud" />
		<tag k="name" v="Stensrud" />
		<tag k="place" v="farm" />
		<tag k="ssr:stedsnr" v="795686" />
	</node>
	<node id="9689089261" lat="60.4516139" lon="10.8893083" version="1" timestamp="2022-04-24T05:01:17Z" changeset="120110716" uid="3497659" user="NKA">
		<tag k="name" v="Husværbråtan" />
		<tag k="place" v="locality" />
		<tag k="ssr:stedsnr" v="768268" />
	</node>
	<node id="9689089262" lat="60.462825" lon="10.7352027" version="1" timestamp="2022-04-24T05:01:17Z" changeset="120110716" uid="3497659" user="NKA">
		<tag k="name" v="Pålsrud" />
		<tag k="place" v="locality" />
		<tag k="ssr:stedsnr" v="783923" />
	</node>
	<node id="9689089263" lat="60.4634278" lon="10.7136028" version="1" timestamp="2022-04-24T05:01:17Z" changeset="120110716" uid="3497659" user="NKA">
		<tag k="name" v="Røsåsberget" />
		<tag k="place" v="locality" />
		<tag k="ssr:stedsnr" v="734220" />
	</node>
	<node id="9689089264" lat="60.4656196" lon="10.7719188" version="1" timestamp="2022-04-24T05:01:17Z" changeset="120110716" uid="3497659" user="NKA">
		<tag k="alt_name" v="Osttjennshytta" />
		<tag k="name" v="Osttjennstua" />
		<tag k="place" v="isolated_dwelling" />
		<tag k="ssr:stedsnr" v="734713" />
	</node>
	<node id="9689089265" lat="60.4465416" lon="10.7943389" version="1" timestamp="2022-04-24T05:01:17Z" changeset="120110716" uid="3497659" user="NKA">
		<tag k="name" v="Tollan" />
		<tag k="place" v="locality" />
		<tag k="ssr:stedsnr" v="666420" />
	</node>
	<node id="9689089266" lat="60.452175" lon="10.712761" version="1" timestamp="2022-04-24T05:01:17Z" changeset="120110716" uid="3497659" user="NKA">
		<tag k="alt_name" v="Haugenseter" />
		<tag k="historic" v="shieling" />
		<tag k="name" v="Fallhaugsætra" />
		<tag k="place" v="isolated_dwelling" />
		<tag k="ssr:stedsnr" v="734260" />
	</node>
	<node id="9689089267" lat="60.4472184" lon="10.8695406" version="1" timestamp="2022-04-24T05:01:17Z" changeset="120110716" uid="3497659" user="NKA">
		<tag k="alt_name" v="Elvebakken" />
		<tag k="name" v="Elvbakken" />
		<tag k="place" v="farm" />
		<tag k="ssr:stedsnr" v="491670" />
	</node>
	<node id="9689089268" lat="60.4448861" lon="10.7126499" version="1" timestamp="2022-04-24T05:01:17Z" changeset="120110716" uid="3497659" user="NKA">
		<tag k="alt_name" v="Julabo" />
		<tag k="name" v="Jularbo" />
		<tag k="place" v="isolated_dwelling" />
		<tag k="ssr:stedsnr" v="613226" />
	</node>
	<node id="9689089269" lat="60.4385444" lon="10.8315916" version="1" timestamp="2022-04-24T05:01:17Z" changeset="120110716" uid="3497659" user="NKA">
		<tag k="alt_name" v="Lisætra" />
		<tag k="historic" v="shieling" />
		<tag k="name" v="Lisetra" />
		<tag k="place" v="isolated_dwelling" />
		<tag k="ssr:stedsnr" v="491662" />
	</node>
	<node id="9689089270" lat="60.4512806" lon="10.8484721" version="1" timestamp="2022-04-24T05:01:17Z" changeset="120110716" uid="3497659" user="NKA">
		<tag k="name" v="Sålerud" />
		<tag k="place" v="locality" />
		<tag k="ssr:stedsnr" v="526282" />
	</node>
	<node id="9689089271" lat="60.4373556" lon="10.8134056" version="1" timestamp="2022-04-24T05:01:17Z" changeset="120110716" uid="3497659" user="NKA">
		<tag k="alt_name" v="Liseterhytta" />
		<tag k="name" v="Lisæterstua" />
		<tag k="place" v="locality" />
		<tag k="ssr:stedsnr" v="249650" />
	</node>
	<node id="9689089272" lat="60.454817" lon="10.75589" version="1" timestamp="2022-04-24T05:01:17Z" changeset="120110716" uid="3497659" user="NKA">
		<tag k="name" v="Skimten" />
		<tag k="place" v="locality" />
		<tag k="ssr:stedsnr" v="370688" />
	</node>
	<node id="9689089273" lat="60.4558972" lon="10.7525417" version="1" timestamp="2022-04-24T05:01:17Z" changeset="120110716" uid="3497659" user="NKA">
		<tag k="name" v="Åkerbråtan" />
		<tag k="place" v="locality" />
		<tag k="ssr:stedsnr" v="787457" />
	</node>
	<node id="9689089274" lat="60.4540849" lon="10.8478402" version="1" timestamp="2022-04-24T05:01:17Z" changeset="120110716" uid="3497659" user="NKA">
		<tag k="alt_name" v="Rugroten" />
		<tag k="name" v="Rugrota" />
		<tag k="place" v="farm" />
		<tag k="ssr:stedsnr" v="6678" />
	</node>
	<node id="9689089275" lat="60.4592944" lon="10.7353417" version="1" timestamp="2022-04-24T05:01:17Z" changeset="120110716" uid="3497659" user="NKA">
		<tag k="name" v="Stenberg" />
		<tag k="place" v="locality" />
		<tag k="ssr:stedsnr" v="419913" />
	</node>
	<node id="9689089276" lat="60.4538917" lon="10.8717111" version="1" timestamp="2022-04-24T05:01:17Z" changeset="120110716" uid="3497659" user="NKA">
		<tag k="name" v="Hanserud" />
		<tag k="place" v="locality" />
		<tag k="ssr:stedsnr" v="647314" />
	</node>
	<node id="9689089277" lat="60.4555278" lon="10.76365" version="1" timestamp="2022-04-24T05:01:17Z" changeset="120110716" uid="3497659" user="NKA">
		<tag k="name" v="Slåttbråtan" />
		<tag k="place" v="locality" />
		<tag k="ssr:stedsnr" v="181443" />
	</node>
	<node id="9689089278" lat="60.4619389" lon="10.7307528" version="1" timestamp="2022-04-24T05:01:17Z" changeset="120110716" uid="3497659" user="NKA">
		<tag k="name" v="Hagan" />
		<tag k="place" v="locality" />
		<tag k="ssr:stedsnr" v="358914" />
	</node>
	<node id="9689089279" lat="60.4902648" lon="10.7546491" version="1" timestamp="2022-04-24T05:01:17Z" changeset="120110716" uid="3497659" user="NKA">
		<tag k="name" v="Vindflohytta" />
		<tag k="place" v="isolated_dwelling" />
		<tag k="ssr:stedsnr" v="42228" />
	</node>
	<node id="9689089280" lat="60.45685" lon="10.8527889" version="1" timestamp="2022-04-24T05:01:17Z" changeset="120110716" uid="3497659" user="NKA">
		<tag k="name" v="Borgersrud" />
		<tag k="place" v="locality" />
		<tag k="ssr:stedsnr" v="179839" />
	</node>
	<node id="9689089281" lat="60.4531472" lon="10.9171999" version="1" timestamp="2022-04-24T05:01:17Z" changeset="120110716" uid="3497659" user="NKA">
		<tag k="name" v="Fjellsjøberget" />
		<tag k="place" v="locality" />
		<tag k="ssr:stedsnr" v="846635" />
	</node>
	<node id="9689089282" lat="60.4597471" lon="10.7285917" version="1" timestamp="2022-04-24T05:01:17Z" changeset="120110716" uid="3497659" user="NKA">
		<tag k="name" v="Røsåsen" />
		<tag k="place" v="locality" />
		<tag k="ssr:stedsnr" v="6703" />
	</node>
	<node id="9689089283" lat="60.4454778" lon="10.8859722" version="1" timestamp="2022-04-24T05:01:17Z" changeset="120110716" uid="3497659" user="NKA">
		<tag k="name" v="Oppgarden" />
		<tag k="place" v="locality" />
		<tag k="ssr:stedsnr" v="916693" />
	</node>
	<node id="9689089284" lat="60.4413333" lon="10.8610305" version="1" timestamp="2022-04-24T05:01:17Z" changeset="120110716" uid="3497659" user="NKA">
		<tag k="name" v="Elvebekkvangen" />
		<tag k="place" v="locality" />
		<tag k="ssr:stedsnr" v="969427" />
	</node>
	<node id="9689089285" lat="60.4522306" lon="10.8619805" version="1" timestamp="2022-04-24T05:01:17Z" changeset="120110716" uid="3497659" user="NKA">
		<tag k="name" v="Myraløkka" />
		<tag k="place" v="locality" />
		<tag k="ssr:stedsnr" v="829283" />
	</node>
	<node id="9689089286" lat="60.438275" lon="11.0426" version="1" timestamp="2022-04-24T05:01:17Z" changeset="120110716" uid="3497659" user="NKA">
		<tag k="name" v="Holtet" />
		<tag k="place" v="farm" />
		<tag k="ssr:stedsnr" v="673659" />
	</node>
	<node id="9689089287" lat="60.4457472" lon="10.8497194" version="1" timestamp="2022-04-24T05:01:17Z" changeset="120110716" uid="3497659" user="NKA">
		<tag k="name" v="Brenna" />
		<tag k="place" v="locality" />
		<tag k="ssr:stedsnr" v="708326" />
	</node>
	<node id="9689089288" lat="60.408883" lon="11.0336012" version="1" timestamp="2022-04-24T05:01:17Z" changeset="120110716" uid="3497659" user="NKA">
		<tag k="name" v="Vestlund" />
		<tag k="place" v="farm" />
		<tag k="ssr:stedsnr" v="673609" />
	</node>
	<node id="9689089289" lat="60.4588473" lon="10.7420279" version="1" timestamp="2022-04-24T05:01:17Z" changeset="120110716" uid="3497659" user="NKA">
		<tag k="alt_name" v="Røsåsbråtan" />
		<tag k="name" v="Røsåsbråten" />
		<tag k="place" v="farm" />
		<tag k="ssr:stedsnr" v="673699" />
	</node>
	<node id="9689089290" lat="60.4600942" lon="10.7267968" version="1" timestamp="2022-04-24T05:01:17Z" changeset="120110716" uid="3497659" user="NKA">
		<tag k="name" v="Øvre Røsåsen" />
		<tag k="place" v="farm" />
		<tag k="ssr:stedsnr" v="601912" />
	</node>
	<node id="9689089291" lat="60.4440318" lon="11.034541" version="1" timestamp="2022-04-24T05:01:17Z" changeset="120110716" uid="3497659" user="NKA">
		<tag k="name" v="Jensrud" />
		<tag k="place" v="farm" />
		<tag k="ssr:stedsnr" v="673658" />
	</node>
	<node id="9689089292" lat="60.4536142" lon="11.0438961" version="1" timestamp="2022-04-24T05:01:17Z" changeset="120110716" uid="3497659" user="NKA">
		<tag k="name" v="Lykkja" />
		<tag k="place" v="farm" />
		<tag k="ssr:stedsnr" v="431688" />
	</node>
	<node id="9689089293" lat="60.4415055" lon="10.781339" version="1" timestamp="2022-04-24T05:01:17Z" changeset="120110716" uid="3497659" user="NKA">
		<tag k="loc_name" v="Tuvslistua" />
		<tag k="name" v="Tuvlistua" />
		<tag k="place" v="isolated_dwelling" />
		<tag k="ssr:stedsnr" v="491673" />
	</node>
	<node id="9689089294" lat="60.4145472" lon="10.9971611" version="1" timestamp="2022-04-24T05:01:17Z" changeset="120110716" uid="3497659" user="NKA">
		<tag k="name" v="Velgjort" />
		<tag k="place" v="locality" />
		<tag k="ssr:stedsnr" v="284153" />
	</node>
	<node id="9689089295" lat="60.4315055" lon="10.8599416" version="1" timestamp="2022-04-24T05:01:17Z" changeset="120110716" uid="3497659" user="NKA">
		<tag k="name" v="Skjeggerud" />
		<tag k="place" v="locality" />
		<tag k="ssr:stedsnr" v="466188" />
	</node>
	<node id="9689089296" lat="60.4498513" lon="11.0238387" version="1" timestamp="2022-04-24T05:01:17Z" changeset="120110716" uid="3497659" user="NKA">
		<tag k="name" v="Øvre Rognstad" />
		<tag k="place" v="farm" />
		<tag k="ssr:stedsnr" v="249653" />
	</node>
	<node id="9689089297" lat="60.4545861" lon="10.7531915" version="1" timestamp="2022-04-24T05:01:17Z" changeset="120110716" uid="3497659" user="NKA">
		<tag k="name" v="Nordre Skimten" />
		<tag k="place" v="farm" />
		<tag k="ssr:stedsnr" v="241427" />
	</node>
	<node id="9689089298" lat="60.4483857" lon="10.8341012" version="1" timestamp="2022-04-24T05:01:17Z" changeset="120110716" uid="3497659" user="NKA">
		<tag k="name" v="Skrukkelia" />
		<tag k="place" v="quarter" />
		<tag k="ssr:stedsnr" v="127713" />
	</node>
	<node id="9689089299" lat="60.4497394" lon="10.8279862" version="1" timestamp="2022-04-24T05:01:17Z" changeset="120110716" uid="3497659" user="NKA">
		<tag k="name" v="Lundberg" />
		<tag k="place" v="hamlet" />
		<tag k="ssr:stedsnr" v="127711" />
	</node>
	<node id="9689089300" lat="60.4107239" lon="11.0382255" version="1" timestamp="2022-04-24T05:01:17Z" changeset="120110716" uid="3497659" user="NKA">
		<tag k="name" v="Lundbymoen" />
		<tag k="place" v="farm" />
		<tag k="ssr:stedsnr" v="202951" />
	</node>
	<node id="9689089301" lat="60.4504272" lon="10.8024107" version="1" timestamp="2022-04-24T05:01:17Z" changeset="120110716" uid="3497659" user="NKA">
		<tag k="name" v="Dølhaug" />
		<tag k="place" v="locality" />
		<tag k="ssr:stedsnr" v="856695" />
	</node>
	<node id="9689089302" lat="60.4393306" lon="10.7046334" version="1" timestamp="2022-04-24T05:01:17Z" changeset="120110716" uid="3497659" user="NKA">
		<tag k="alt_name" v="Ellingsbråtan" />
		<tag k="name" v="Ellingbråtån" />
		<tag k="place" v="isolated_dwelling" />
		<tag k="ssr:stedsnr" v="856143" />
	</node>
	<node id="9689089303" lat="60.4508456" lon="10.841313" version="1" timestamp="2022-04-24T05:01:17Z" changeset="120110716" uid="3497659" user="NKA">
		<tag k="name" v="Solbakken" />
		<tag k="place" v="farm" />
		<tag k="ssr:stedsnr" v="856693" />
	</node>
	<node id="9689089304" lat="60.4157853" lon="11.0310687" version="1" timestamp="2022-04-24T05:01:17Z" changeset="120110716" uid="3497659" user="NKA">
		<tag k="name" v="Hvile" />
		<tag k="place" v="farm" />
		<tag k="ssr:stedsnr" v="848043" />
	</node>
	<node id="9689089305" lat="60.4446528" lon="10.7361055" version="1" timestamp="2022-04-24T05:01:17Z" changeset="120110716" uid="3497659" user="NKA">
		<tag k="name" v="Kølabånn" />
		<tag k="place" v="locality" />
		<tag k="ssr:stedsnr" v="848470" />
	</node>
	<node id="9689089306" lat="60.46005" lon="10.7984334" version="1" timestamp="2022-04-24T05:01:17Z" changeset="120110716" uid="3497659" user="NKA">
		<tag k="name" v="Dalen" />
		<tag k="place" v="farm" />
		<tag k="ssr:stedsnr" v="491704" />
	</node>
	<node id="9689089307" lat="60.433625" lon="10.9125584" version="1" timestamp="2022-04-24T05:01:17Z" changeset="120110716" uid="3497659" user="NKA">
		<tag k="name" v="Hansebakken" />
		<tag k="place" v="locality" />
		<tag k="ssr:stedsnr" v="587206" />
	</node>
	<node id="9127984505" lat="60.4142142" lon="10.8581094" version="1" timestamp="2021-09-27T21:37:05Z" changeset="111789765" uid="435265" user="Ansgar G Grimsrud" />
	<node id="9127984506" lat="60.4139741" lon="10.8582175" version="1" timestamp="2021-09-27T21:37:05Z" changeset="111789765" uid="435265" user="Ansgar G Grimsrud" />
	<node id="9127984507" lat="60.4136629" lon="10.8586497" version="1" timestamp="2021-09-27T21:37:05Z" changeset="111789765" uid="435265" user="Ansgar G Grimsrud" />
	<node id="9127984508" lat="60.4133783" lon="10.8587398" version="1" timestamp="2021-09-27T21:37:05Z" changeset="111789765" uid="435265" user="Ansgar G Grimsrud" />
	<node id="9127984509" lat="60.4132983" lon="10.8580914" version="1" timestamp="2021-09-27T21:37:05Z" changeset="111789765" uid="435265" user="Ansgar G Grimsrud" />
	<node id="9127984510" lat="60.4128714" lon="10.8580734" version="1" timestamp="2021-09-27T21:37:05Z" changeset="111789765" uid="435265" user="Ansgar G Grimsrud" />
	<node id="9127984511" lat="60.4126313" lon="10.8581094" version="1" timestamp="2021-09-27T21:37:05Z" changeset="111789765" uid="435265" user="Ansgar G Grimsrud" />
	<node id="9127984512" lat="60.4121066" lon="10.8587218" version="1" timestamp="2021-09-27T21:37:05Z" changeset="111789765" uid="435265" user="Ansgar G Grimsrud" />
	<node id="9127984516" lat="60.4111372" lon="10.859082" version="1" timestamp="2021-09-27T21:37:05Z" changeset="111789765" uid="435265" user="Ansgar G Grimsrud" />
	<node id="9128002217" lat="60.4113863" lon="10.8584336" version="1" timestamp="2021-09-27T21:37:05Z" changeset="111789765" uid="435265" user="Ansgar G Grimsrud" />
	<node id="9128002218" lat="60.4116086" lon="10.8579473" version="1" timestamp="2021-09-27T21:37:05Z" changeset="111789765" uid="435265" user="Ansgar G Grimsrud" />
	<node id="9128002219" lat="60.4120177" lon="10.8570648" version="1" timestamp="2021-09-27T21:37:05Z" changeset="111789765" uid="435265" user="Ansgar G Grimsrud" />
	<node id="9128002220" lat="60.4123912" lon="10.8560381" version="1" timestamp="2021-09-27T21:37:05Z" changeset="111789765" uid="435265" user="Ansgar G Grimsrud" />
	<node id="9128002221" lat="60.4127202" lon="10.8553537" version="1" timestamp="2021-09-27T21:37:05Z" changeset="111789765" uid="435265" user="Ansgar G Grimsrud" />
	<node id="9128002222" lat="60.4128625" lon="10.8554257" version="1" timestamp="2021-09-27T21:37:05Z" changeset="111789765" uid="435265" user="Ansgar G Grimsrud" />
	<node id="9128002223" lat="60.412827" lon="10.8560201" version="1" timestamp="2021-09-27T21:37:05Z" changeset="111789765" uid="435265" user="Ansgar G Grimsrud" />
	<node id="9128002224" lat="60.4130226" lon="10.8564163" version="1" timestamp="2021-09-27T21:37:05Z" changeset="111789765" uid="435265" user="Ansgar G Grimsrud" />
	<node id="9128002225" lat="60.4133605" lon="10.8562903" version="1" timestamp="2021-09-27T21:37:05Z" changeset="111789765" uid="435265" user="Ansgar G Grimsrud" />
	<node id="9128002226" lat="60.4138585" lon="10.8564163" version="1" timestamp="2021-09-27T21:37:05Z" changeset="111789765" uid="435265" user="Ansgar G Grimsrud" />
	<node id="9128002227" lat="60.414232" lon="10.8565244" version="1" timestamp="2021-09-27T21:37:05Z" changeset="111789765" uid="435265" user="Ansgar G Grimsrud" />
	<node id="9127984513" lat="60.4115286" lon="10.8596404" version="1" timestamp="2021-09-27T21:37:05Z" changeset="111789765" uid="435265" user="Ansgar G Grimsrud" />
	<node id="9127984514" lat="60.4110305" lon="10.8599646" version="1" timestamp="2021-09-27T21:37:05Z" changeset="111789765" uid="435265" user="Ansgar G Grimsrud" />
	<node id="9127984515" lat="60.4109949" lon="10.8595863" version="1" timestamp="2021-09-27T21:37:05Z" changeset="111789765" uid="435265" user="Ansgar G Grimsrud" />
	<node id="3143448209" lat="60.49184" lon="10.6884044" version="2" timestamp="2021-02-28T18:14:29Z" changeset="100150066" uid="7392967" user="FredrikEdler" />
	<node id="3143448210" lat="60.4918627" lon="10.6887332" version="2" timestamp="2021-02-28T18:14:29Z" changeset="100150066" uid="7392967" user="FredrikEdler" />
	<node id="3143448212" lat="60.4918804" lon="10.6888218" version="2" timestamp="2021-02-28T18:14:29Z" changeset="100150066" uid="7392967" user="FredrikEdler" />
	<node id="3143448215" lat="60.4919325" lon="10.6881907" version="2" timestamp="2021-02-28T18:14:29Z" changeset="100150066" uid="7392967" user="FredrikEdler" />
	<node id="3143448216" lat="60.4919457" lon="10.6881169" version="2" timestamp="2021-02-28T18:14:29Z" changeset="100150066" uid="7392967" user="FredrikEdler" />
	<node id="3143448224" lat="60.4920387" lon="10.6875955" version="2" timestamp="2021-02-28T18:14:29Z" changeset="100150066" uid="7392967" user="FredrikEdler" />
	<node id="3143448330" lat="60.4921128" lon="10.6874174" version="2" timestamp="2021-02-28T18:14:29Z" changeset="100150066" uid="7392967" user="FredrikEdler" />
	<node id="3143448335" lat="60.4922035" lon="10.6876038" version="2" timestamp="2021-02-28T18:14:29Z" changeset="100150066" uid="7392967" user="FredrikEdler" />
	<node id="3143448336" lat="60.4922136" lon="10.6880519" version="2" timestamp="2021-02-28T18:14:29Z" changeset="100150066" uid="7392967" user="FredrikEdler" />
	<node id="3143448337" lat="60.4922187" lon="10.6882782" version="2" timestamp="2021-02-28T18:14:29Z" changeset="100150066" uid="7392967" user="FredrikEdler" />
	<node id="3143448342" lat="60.4922871" lon="10.688555" version="2" timestamp="2021-02-28T18:14:29Z" changeset="100150066" uid="7392967" user="FredrikEdler" />
	<node id="3143448345" lat="60.4923364" lon="10.6885667" version="2" timestamp="2021-02-28T18:14:29Z" changeset="100150066" uid="7392967" user="FredrikEdler" />
	<node id="3143448353" lat="60.492484" lon="10.6886018" version="2" timestamp="2021-02-28T18:14:29Z" changeset="100150066" uid="7392967" user="FredrikEdler" />
	<node id="3143448360" lat="60.4926646" lon="10.68852" version="2" timestamp="2021-02-28T18:14:29Z" changeset="100150066" uid="7392967" user="FredrikEdler" />
	<node id="3143448365" lat="60.4927862" lon="10.6881442" version="2" timestamp="2021-02-28T18:14:29Z" changeset="100150066" uid="7392967" user="FredrikEdler" />
	<node id="3143448374" lat="60.4928962" lon="10.6879677" version="2" timestamp="2021-02-28T18:14:29Z" changeset="100150066" uid="7392967" user="FredrikEdler" />
	<node id="3143448200" lat="60.4917291" lon="10.6946833" version="1" timestamp="2014-10-22T08:33:53Z" changeset="26250717" uid="435265" user="Ansgar G Grimsrud" />
	<node id="3143448201" lat="60.491732" lon="10.6941506" version="1" timestamp="2014-10-22T08:33:53Z" changeset="26250717" uid="435265" user="Ansgar G Grimsrud" />
	<node id="3143448203" lat="60.4917516" lon="10.6946774" version="1" timestamp="2014-10-22T08:33:53Z" changeset="26250717" uid="435265" user="Ansgar G Grimsrud" />
	<node id="3143448205" lat="60.4918048" lon="10.6904594" version="2" timestamp="2021-02-28T18:14:29Z" changeset="100150066" uid="7392967" user="FredrikEdler" />
	<node id="3143448206" lat="60.4918073" lon="10.6902696" version="2" timestamp="2021-02-28T18:14:29Z" changeset="100150066" uid="7392967" user="FredrikEdler" />
	<node id="3143448207" lat="60.491809" lon="10.6901319" version="2" timestamp="2021-02-28T18:14:29Z" changeset="100150066" uid="7392967" user="FredrikEdler" />
	<node id="3143448211" lat="60.4918673" lon="10.6904593" version="2" timestamp="2021-02-28T18:14:29Z" changeset="100150066" uid="7392967" user="FredrikEdler" />
	<node id="3143448213" lat="60.4918825" lon="10.6935399" version="1" timestamp="2014-10-22T08:33:53Z" changeset="26250717" uid="435265" user="Ansgar G Grimsrud" />
	<node id="3143448214" lat="60.4918923" lon="10.6934096" version="1" timestamp="2014-10-22T08:33:53Z" changeset="26250717" uid="435265" user="Ansgar G Grimsrud" />
	<node id="3143448218" lat="60.4919499" lon="10.6896479" version="2" timestamp="2021-02-28T18:14:29Z" changeset="100150066" uid="7392967" user="FredrikEdler" />
	<node id="3143448219" lat="60.4919724" lon="10.6892849" version="2" timestamp="2021-02-28T18:14:29Z" changeset="100150066" uid="7392967" user="FredrikEdler" />
	<node id="3143448221" lat="60.492026" lon="10.6921458" version="2" timestamp="2021-02-28T18:14:29Z" changeset="100150066" uid="7392967" user="FredrikEdler" />
	<node id="3143448222" lat="60.4920272" lon="10.6920532" version="2" timestamp="2021-02-28T18:14:29Z" changeset="100150066" uid="7392967" user="FredrikEdler" />
	<node id="3143448223" lat="60.4920306" lon="10.691782" version="2" timestamp="2021-02-28T18:14:29Z" changeset="100150066" uid="7392967" user="FredrikEdler" />
	<node id="3143448225" lat="60.4920426" lon="10.6929107" version="1" timestamp="2014-10-22T08:33:54Z" changeset="26250717" uid="435265" user="Ansgar G Grimsrud" />
	<node id="3143448226" lat="60.4920457" lon="10.6926934" version="1" timestamp="2014-10-22T08:33:54Z" changeset="26250717" uid="435265" user="Ansgar G Grimsrud" />
	<node id="3143448227" lat="60.4920803" lon="10.694064" version="1" timestamp="2014-10-22T08:33:54Z" changeset="26250717" uid="435265" user="Ansgar G Grimsrud" />
	<node id="3143448228" lat="60.4920809" lon="10.6926171" version="2" timestamp="2021-02-28T18:14:29Z" changeset="100150066" uid="7392967" user="FredrikEdler" />
	<node id="3143448329" lat="60.4921028" lon="10.6922495" version="2" timestamp="2021-02-28T18:14:29Z" changeset="100150066" uid="7392967" user="FredrikEdler" />
	<node id="3143448331" lat="60.4921462" lon="10.6904591" version="2" timestamp="2021-02-28T18:14:29Z" changeset="100150066" uid="7392967" user="FredrikEdler" />
	<node id="3143448332" lat="60.4921676" lon="10.691607" version="2" timestamp="2021-02-28T18:14:29Z" changeset="100150066" uid="7392967" user="FredrikEdler" />
	<node id="3143448333" lat="60.4921901" lon="10.6930187" version="2" timestamp="2021-02-28T18:14:29Z" changeset="100150066" uid="7392967" user="FredrikEdler" />
	<node id="3143448334" lat="60.4921938" lon="10.6923728" version="2" timestamp="2021-02-28T18:14:29Z" changeset="100150066" uid="7392967" user="FredrikEdler" />
	<node id="3143448339" lat="60.4922625" lon="10.6939246" version="1" timestamp="2014-10-22T08:33:54Z" changeset="26250717" uid="435265" user="Ansgar G Grimsrud" />
	<node id="3143448340" lat="60.4922675" lon="10.6930757" version="2" timestamp="2021-02-28T18:14:29Z" changeset="100150066" uid="7392967" user="FredrikEdler" />
	<node id="3143448344" lat="60.4922992" lon="10.6934203" version="2" timestamp="2021-02-28T18:14:29Z" changeset="100150066" uid="7392967" user="FredrikEdler" />
	<node id="3143448347" lat="60.4923975" lon="10.693171" version="2" timestamp="2021-02-28T18:14:29Z" changeset="100150066" uid="7392967" user="FredrikEdler" />
	<node id="3143448351" lat="60.4924678" lon="10.6934247" version="2" timestamp="2021-02-28T18:14:29Z" changeset="100150066" uid="7392967" user="FredrikEdler" />
	<node id="3143448352" lat="60.4924799" lon="10.6931887" version="2" timestamp="2021-02-28T18:14:29Z" changeset="100150066" uid="7392967" user="FredrikEdler" />
	<node id="3143448354" lat="60.4925022" lon="10.6941674" version="2" timestamp="2021-02-28T18:14:29Z" changeset="100150066" uid="7392967" user="FredrikEdler" />
	<node id="3143448355" lat="60.4925186" lon="10.6915525" version="2" timestamp="2021-02-28T18:14:29Z" changeset="100150066" uid="7392967" user="FredrikEdler" />
	<node id="3143448359" lat="60.4926557" lon="10.6899395" version="2" timestamp="2021-02-28T18:14:29Z" changeset="100150066" uid="7392967" user="FredrikEdler" />
	<node id="3143448363" lat="60.4927497" lon="10.6944201" version="2" timestamp="2021-02-28T18:14:29Z" changeset="100150066" uid="7392967" user="FredrikEdler" />
	<node id="3143448364" lat="60.4927531" lon="10.6914034" version="2" timestamp="2021-02-28T18:14:29Z" changeset="100150066" uid="7392967" user="FredrikEdler" />
	<node id="3143448366" lat="60.4928083" lon="10.6900822" version="2" timestamp="2021-02-28T18:14:29Z" changeset="100150066" uid="7392967" user="FredrikEdler" />
	<node id="3143448370" lat="60.4928626" lon="10.6913337" version="2" timestamp="2021-02-28T18:14:29Z" changeset="100150066" uid="7392967" user="FredrikEdler" />
	<node id="3143448375" lat="60.4929044" lon="10.6901527" version="2" timestamp="2021-02-28T18:14:29Z" changeset="100150066" uid="7392967" user="FredrikEdler" />
	<node id="3143448378" lat="60.4929856" lon="10.6943802" version="2" timestamp="2021-02-28T18:14:29Z" changeset="100150066" uid="7392967" user="FredrikEdler" />
	<node id="3143448383" lat="60.4930777" lon="10.6878317" version="2" timestamp="2021-02-28T18:14:29Z" changeset="100150066" uid="7392967" user="FredrikEdler" />
	<node id="3143448388" lat="60.4932109" lon="10.6879295" version="2" timestamp="2021-02-28T18:14:29Z" changeset="100150066" uid="7392967" user="FredrikEdler" />
	<node id="3143448393" lat="60.4932933" lon="10.6880913" version="2" timestamp="2021-02-28T18:14:29Z" changeset="100150066" uid="7392967" user="FredrikEdler" />
	<node id="3143448396" lat="60.4933483" lon="10.6881996" version="2" timestamp="2021-02-28T18:14:29Z" changeset="100150066" uid="7392967" user="FredrikEdler" />
	<node id="3143448398" lat="60.4934119" lon="10.6883247" version="2" timestamp="2021-02-28T18:14:29Z" changeset="100150066" uid="7392967" user="FredrikEdler" />
	<node id="3143448401" lat="60.4934477" lon="10.6883952" version="2" timestamp="2021-02-28T18:14:29Z" changeset="100150066" uid="7392967" user="FredrikEdler" />
	<node id="3143448404" lat="60.4936093" lon="10.688387" version="2" timestamp="2021-02-28T18:14:29Z" changeset="100150066" uid="7392967" user="FredrikEdler" />
	<node id="3143448413" lat="60.4936885" lon="10.6885126" version="2" timestamp="2021-02-28T18:14:29Z" changeset="100150066" uid="7392967" user="FredrikEdler" />
	<node id="3143448420" lat="60.4937754" lon="10.6886513" version="2" timestamp="2021-02-28T18:14:29Z" changeset="100150066" uid="7392967" user="FredrikEdler" />
	<node id="3143448426" lat="60.4939296" lon="10.6887365" version="2" timestamp="2021-02-28T18:14:29Z" changeset="100150066" uid="7392967" user="FredrikEdler" />
	<node id="3143448481" lat="60.4952298" lon="10.6887808" version="2" timestamp="2021-02-28T18:14:29Z" changeset="100150066" uid="7392967" user="FredrikEdler" />
	<node id="3143448379" lat="60.4930411" lon="10.6905426" version="2" timestamp="2021-02-28T18:14:29Z" changeset="100150066" uid="7392967" user="FredrikEdler" />
	<node id="3143448381" lat="60.4930642" lon="10.6910165" version="2" timestamp="2021-02-28T18:14:29Z" changeset="100150066" uid="7392967" user="FredrikEdler" />
	<node id="3143448384" lat="60.4931031" lon="10.6907193" version="2" timestamp="2021-02-28T18:14:29Z" changeset="100150066" uid="7392967" user="FredrikEdler" />
	<node id="3143448385" lat="60.4931409" lon="10.6941699" version="2" timestamp="2021-02-28T18:14:29Z" changeset="100150066" uid="7392967" user="FredrikEdler" />
	<node id="3143448390" lat="60.4932184" lon="10.6941543" version="2" timestamp="2021-02-28T18:14:29Z" changeset="100150066" uid="7392967" user="FredrikEdler" />
	<node id="3143448400" lat="60.4934263" lon="10.6941857" version="2" timestamp="2021-02-28T18:14:29Z" changeset="100150066" uid="7392967" user="FredrikEdler" />
	<node id="3143448407" lat="60.4936447" lon="10.6942189" version="2" timestamp="2021-02-28T18:14:29Z" changeset="100150066" uid="7392967" user="FredrikEdler" />
	<node id="3143448429" lat="60.4939884" lon="10.6943892" version="2" timestamp="2021-02-28T18:14:29Z" changeset="100150066" uid="7392967" user="FredrikEdler" />
	<node id="3143448431" lat="60.4941177" lon="10.6944479" version="2" timestamp="2021-02-28T18:14:29Z" changeset="100150066" uid="7392967" user="FredrikEdler" />
	<node id="3143448432" lat="60.4941747" lon="10.6944877" version="2" timestamp="2021-02-28T18:14:29Z" changeset="100150066" uid="7392967" user="FredrikEdler" />
	<node id="3143448436" lat="60.4943784" lon="10.6890676" version="2" timestamp="2021-02-28T18:14:29Z" changeset="100150066" uid="7392967" user="FredrikEdler" />
	<node id="3143448437" lat="60.4943794" lon="10.6945935" version="2" timestamp="2021-02-28T18:14:29Z" changeset="100150066" uid="7392967" user="FredrikEdler" />
	<node id="3143448444" lat="60.4946454" lon="10.6945032" version="2" timestamp="2021-02-28T18:14:29Z" changeset="100150066" uid="7392967" user="FredrikEdler" />
	<node id="3143448447" lat="60.4947229" lon="10.6945301" version="2" timestamp="2021-02-28T18:14:29Z" changeset="100150066" uid="7392967" user="FredrikEdler" />
	<node id="3143448448" lat="60.4947333" lon="10.6889918" version="2" timestamp="2021-02-28T18:14:29Z" changeset="100150066" uid="7392967" user="FredrikEdler" />
	<node id="3143448453" lat="60.4948476" lon="10.6945729" version="2" timestamp="2021-02-28T18:14:29Z" changeset="100150066" uid="7392967" user="FredrikEdler" />
	<node id="3143448455" lat="60.4948921" lon="10.6945583" version="2" timestamp="2021-02-28T18:14:29Z" changeset="100150066" uid="7392967" user="FredrikEdler" />
	<node id="3143448462" lat="60.4949393" lon="10.6932806" version="2" timestamp="2021-02-28T18:14:29Z" changeset="100150066" uid="7392967" user="FredrikEdler" />
	<node id="3143448464" lat="60.4949716" lon="10.6935735" version="2" timestamp="2021-02-28T18:14:29Z" changeset="100150066" uid="7392967" user="FredrikEdler" />
	<node id="3143448472" lat="60.4950943" lon="10.6938847" version="2" timestamp="2021-02-28T18:14:29Z" changeset="100150066" uid="7392967" user="FredrikEdler" />
	<node id="3143448475" lat="60.4951247" lon="10.6928351" version="2" timestamp="2021-02-28T18:14:29Z" changeset="100150066" uid="7392967" user="FredrikEdler" />
	<node id="3143448484" lat="60.4952588" lon="10.6948925" version="2" timestamp="2021-02-28T18:14:29Z" changeset="100150066" uid="7392967" user="FredrikEdler" />
	<node id="3143448489" lat="60.4953216" lon="10.6889341" version="2" timestamp="2021-02-28T18:14:29Z" changeset="100150066" uid="7392967" user="FredrikEdler" />
	<node id="3143448490" lat="60.4953443" lon="10.6949526" version="2" timestamp="2021-02-28T18:14:29Z" changeset="100150066" uid="7392967" user="FredrikEdler" />
	<node id="3143448495" lat="60.4953586" lon="10.6940825" version="2" timestamp="2021-02-28T18:14:29Z" changeset="100150066" uid="7392967" user="FredrikEdler" />
	<node id="3143448496" lat="60.4953671" lon="10.6928295" version="2" timestamp="2021-02-28T18:14:29Z" changeset="100150066" uid="7392967" user="FredrikEdler" />
	<node id="3143448497" lat="60.4953712" lon="10.6890168" version="2" timestamp="2021-02-28T18:14:29Z" changeset="100150066" uid="7392967" user="FredrikEdler" />
	<node id="3143448498" lat="60.4953838" lon="10.6950194" version="2" timestamp="2021-02-28T18:14:29Z" changeset="100150066" uid="7392967" user="FredrikEdler" />
	<node id="3143448505" lat="60.4955085" lon="10.6891254" version="2" timestamp="2021-02-28T18:14:29Z" changeset="100150066" uid="7392967" user="FredrikEdler" />
	<node id="3143448507" lat="60.495562" lon="10.6929126" version="2" timestamp="2021-02-28T18:14:29Z" changeset="100150066" uid="7392967" user="FredrikEdler" />
	<node id="3143448508" lat="60.4955655" lon="10.6941872" version="2" timestamp="2021-02-28T18:14:29Z" changeset="100150066" uid="7392967" user="FredrikEdler" />
	<node id="3143448509" lat="60.4955718" lon="10.6891757" version="2" timestamp="2021-02-28T18:14:29Z" changeset="100150066" uid="7392967" user="FredrikEdler" />
	<node id="3143448517" lat="60.4957433" lon="10.6929901" version="2" timestamp="2021-02-28T18:14:29Z" changeset="100150066" uid="7392967" user="FredrikEdler" />
	<node id="3143448520" lat="60.4957662" lon="10.6889727" version="2" timestamp="2021-02-28T18:14:29Z" changeset="100150066" uid="7392967" user="FredrikEdler" />
	<node id="3143448527" lat="60.4958988" lon="10.6930728" version="2" timestamp="2021-02-28T18:14:29Z" changeset="100150066" uid="7392967" user="FredrikEdler" />
	<node id="3143448530" lat="60.4959226" lon="10.6943807" version="2" timestamp="2021-02-28T18:14:29Z" changeset="100150066" uid="7392967" user="FredrikEdler" />
	<node id="3143448532" lat="60.495981" lon="10.6889729" version="2" timestamp="2021-02-28T18:14:29Z" changeset="100150066" uid="7392967" user="FredrikEdler" />
	<node id="3143448533" lat="60.4959898" lon="10.6944857" version="2" timestamp="2021-02-28T18:14:29Z" changeset="100150066" uid="7392967" user="FredrikEdler" />
	<node id="3143448537" lat="60.4960727" lon="10.6932509" version="2" timestamp="2021-02-28T18:14:29Z" changeset="100150066" uid="7392967" user="FredrikEdler" />
	<node id="3143448539" lat="60.4961165" lon="10.6946838" version="2" timestamp="2021-02-28T18:14:29Z" changeset="100150066" uid="7392967" user="FredrikEdler" />
	<node id="3143448541" lat="60.4961254" lon="10.6889732" version="2" timestamp="2021-02-28T18:14:29Z" changeset="100150066" uid="7392967" user="FredrikEdler" />
	<node id="3143448543" lat="60.496157" lon="10.6907406" version="2" timestamp="2021-02-28T18:14:29Z" changeset="100150066" uid="7392967" user="FredrikEdler" />
	<node id="3143448544" lat="60.4961611" lon="10.6947916" version="2" timestamp="2021-02-28T18:14:29Z" changeset="100150066" uid="7392967" user="FredrikEdler" />
	<node id="3143448545" lat="60.4961617" lon="10.6933289" version="2" timestamp="2021-02-28T18:14:29Z" changeset="100150066" uid="7392967" user="FredrikEdler" />
	<node id="3143448546" lat="60.4961633" lon="10.6902494" version="2" timestamp="2021-02-28T18:14:29Z" changeset="100150066" uid="7392967" user="FredrikEdler" />
	<node id="3143448548" lat="60.4961913" lon="10.6949469" version="2" timestamp="2021-02-28T18:14:29Z" changeset="100150066" uid="7392967" user="FredrikEdler" />
	<node id="3143448549" lat="60.4962048" lon="10.6908436" version="2" timestamp="2021-02-28T18:14:29Z" changeset="100150066" uid="7392967" user="FredrikEdler" />
	<node id="3143448550" lat="60.4962115" lon="10.689145" version="2" timestamp="2021-02-28T18:14:29Z" changeset="100150066" uid="7392967" user="FredrikEdler" />
	<node id="3143448551" lat="60.4962137" lon="10.6899865" version="2" timestamp="2021-02-28T18:14:29Z" changeset="100150066" uid="7392967" user="FredrikEdler" />
	<node id="3143448552" lat="60.4962337" lon="10.6950988" version="2" timestamp="2021-02-28T18:14:29Z" changeset="100150066" uid="7392967" user="FredrikEdler" />
	<node id="3143448555" lat="60.4962497" lon="10.6897988" version="2" timestamp="2021-02-28T18:14:29Z" changeset="100150066" uid="7392967" user="FredrikEdler" />
	<node id="3143448556" lat="60.4962612" lon="10.6892443" version="2" timestamp="2021-02-28T18:14:29Z" changeset="100150066" uid="7392967" user="FredrikEdler" />
	<node id="3143448557" lat="60.4963211" lon="10.6933708" version="2" timestamp="2021-02-28T18:14:29Z" changeset="100150066" uid="7392967" user="FredrikEdler" />
	<node id="3143448560" lat="60.4963727" lon="10.691205" version="2" timestamp="2021-02-28T18:14:29Z" changeset="100150066" uid="7392967" user="FredrikEdler" />
	<node id="3143448561" lat="60.4963969" lon="10.6930653" version="2" timestamp="2021-02-28T18:14:29Z" changeset="100150066" uid="7392967" user="FredrikEdler" />
	<node id="3143448565" lat="60.4964585" lon="10.6914218" version="2" timestamp="2021-02-28T18:14:29Z" changeset="100150066" uid="7392967" user="FredrikEdler" />
	<node id="3143448568" lat="60.4965069" lon="10.6930951" version="2" timestamp="2021-02-28T18:14:29Z" changeset="100150066" uid="7392967" user="FredrikEdler" />
	<node id="3143448573" lat="60.4965759" lon="10.6915805" version="2" timestamp="2021-02-28T18:14:29Z" changeset="100150066" uid="7392967" user="FredrikEdler" />
	<node id="3143448580" lat="60.4967153" lon="10.6916128" version="2" timestamp="2021-02-28T18:14:29Z" changeset="100150066" uid="7392967" user="FredrikEdler" />
	<node id="3143448582" lat="60.4967751" lon="10.6931676" version="2" timestamp="2021-02-28T18:14:29Z" changeset="100150066" uid="7392967" user="FredrikEdler" />
	<node id="3143448588" lat="60.4969893" lon="10.6916761" version="2" timestamp="2021-02-28T18:14:29Z" changeset="100150066" uid="7392967" user="FredrikEdler" />
	<node id="3143448590" lat="60.4970199" lon="10.6932625" version="2" timestamp="2021-02-28T18:14:29Z" changeset="100150066" uid="7392967" user="FredrikEdler" />
	<node id="3143448591" lat="60.4970679" lon="10.6932982" version="2" timestamp="2021-02-28T18:14:29Z" changeset="100150066" uid="7392967" user="FredrikEdler" />
	<node id="3143448602" lat="60.4973835" lon="10.6931715" version="2" timestamp="2021-02-28T18:14:29Z" changeset="100150066" uid="7392967" user="FredrikEdler" />
	<node id="3143448606" lat="60.4976097" lon="10.6930375" version="2" timestamp="2021-02-28T18:14:30Z" changeset="100150066" uid="7392967" user="FredrikEdler" />
	<node id="3143448608" lat="60.4976338" lon="10.6925473" version="2" timestamp="2021-02-28T18:14:30Z" changeset="100150066" uid="7392967" user="FredrikEdler" />
	<node id="3143448611" lat="60.497745" lon="10.69228" version="2" timestamp="2021-02-28T18:14:30Z" changeset="100150066" uid="7392967" user="FredrikEdler" />
	<node id="3143448617" lat="60.4980848" lon="10.6916969" version="2" timestamp="2021-02-28T18:14:30Z" changeset="100150066" uid="7392967" user="FredrikEdler" />
	<node id="3143448618" lat="60.4980867" lon="10.6922432" version="2" timestamp="2021-02-28T18:14:30Z" changeset="100150066" uid="7392967" user="FredrikEdler" />
	<node id="3143448623" lat="60.4981817" lon="10.6917914" version="2" timestamp="2021-02-28T18:14:30Z" changeset="100150066" uid="7392967" user="FredrikEdler" />
	<node id="3143448624" lat="60.4982278" lon="10.6918365" version="2" timestamp="2021-02-28T18:14:30Z" changeset="100150066" uid="7392967" user="FredrikEdler" />
	<node id="3143448625" lat="60.4982411" lon="10.6921054" version="2" timestamp="2021-02-28T18:14:30Z" changeset="100150066" uid="7392967" user="FredrikEdler" />
	<node id="3143448626" lat="60.4982621" lon="10.69187" version="2" timestamp="2021-02-28T18:14:30Z" changeset="100150066" uid="7392967" user="FredrikEdler" />
	<node id="3143364139" lat="60.4502499" lon="10.6990618" version="1" timestamp="2014-10-22T07:22:35Z" changeset="26249662" uid="435265" user="Ansgar G Grimsrud" />
	<node id="3143364140" lat="60.4502577" lon="10.6991532" version="1" timestamp="2014-10-22T07:22:35Z" changeset="26249662" uid="435265" user="Ansgar G Grimsrud" />
	<node id="3143364141" lat="60.4502655" lon="10.6992445" version="1" timestamp="2014-10-22T07:22:35Z" changeset="26249662" uid="435265" user="Ansgar G Grimsrud" />
	<node id="3143364142" lat="60.4502994" lon="10.6986148" version="2" timestamp="2022-04-04T12:00:51Z" changeset="119300242" uid="11560" user="zidel" />
	<node id="3143364144" lat="60.4502996" lon="10.6986644" version="1" timestamp="2014-10-22T07:22:35Z" changeset="26249662" uid="435265" user="Ansgar G Grimsrud" />
	<node id="3143364145" lat="60.4502997" lon="10.6986826" version="1" timestamp="2014-10-22T07:22:35Z" changeset="26249662" uid="435265" user="Ansgar G Grimsrud" />
	<node id="3143364146" lat="60.450404" lon="10.6996519" version="1" timestamp="2014-10-22T07:22:35Z" changeset="26249662" uid="435265" user="Ansgar G Grimsrud" />
	<node id="3143364147" lat="60.4505076" lon="10.6999844" version="1" timestamp="2014-10-22T07:22:35Z" changeset="26249662" uid="435265" user="Ansgar G Grimsrud" />
	<node id="3143364149" lat="60.4505132" lon="10.7" version="1" timestamp="2014-10-22T07:22:35Z" changeset="26249662" uid="435265" user="Ansgar G Grimsrud" />
	<node id="3143364150" lat="60.4506551" lon="10.7003921" version="1" timestamp="2014-10-22T07:22:35Z" changeset="26249662" uid="435265" user="Ansgar G Grimsrud" />
	<node id="3143364155" lat="60.450913" lon="10.7012963" version="1" timestamp="2014-10-22T07:22:35Z" changeset="26249662" uid="435265" user="Ansgar G Grimsrud" />
	<node id="3143364159" lat="60.4510837" lon="10.7019637" version="1" timestamp="2014-10-22T07:22:36Z" changeset="26249662" uid="435265" user="Ansgar G Grimsrud" />
	<node id="3143364161" lat="60.4511439" lon="10.7021993" version="1" timestamp="2014-10-22T07:22:36Z" changeset="26249662" uid="435265" user="Ansgar G Grimsrud" />
	<node id="3143364163" lat="60.4511704" lon="10.7022369" version="1" timestamp="2014-10-22T07:22:36Z" changeset="26249662" uid="435265" user="Ansgar G Grimsrud" />
	<node id="3143470698" lat="60.4717581" lon="10.7009791" version="1" timestamp="2014-10-22T08:53:30Z" changeset="26251034" uid="435265" user="Ansgar G Grimsrud" />
	<node id="3143594045" lat="60.4715048" lon="10.695716" version="2" timestamp="2021-02-28T18:14:31Z" changeset="100150066" uid="7392967" user="FredrikEdler" />
	<node id="3143594046" lat="60.4715181" lon="10.6960805" version="2" timestamp="2021-02-28T18:14:31Z" changeset="100150066" uid="7392967" user="FredrikEdler" />
	<node id="3143594048" lat="60.4716031" lon="10.6985772" version="2" timestamp="2021-02-28T18:14:31Z" changeset="100150066" uid="7392967" user="FredrikEdler" />
	<node id="3143594049" lat="60.4716141" lon="10.6991236" version="2" timestamp="2021-02-28T18:14:31Z" changeset="100150066" uid="7392967" user="FredrikEdler" />
	<node id="3143594050" lat="60.4716292" lon="10.6979419" version="2" timestamp="2021-02-28T18:14:31Z" changeset="100150066" uid="7392967" user="FredrikEdler" />
	<node id="3143594051" lat="60.4716309" lon="10.6993192" version="2" timestamp="2021-02-28T18:14:31Z" changeset="100150066" uid="7392967" user="FredrikEdler" />
	<node id="3143594052" lat="60.4716767" lon="10.6998545" version="2" timestamp="2021-02-28T18:14:31Z" changeset="100150066" uid="7392967" user="FredrikEdler" />
	<node id="3143594054" lat="60.4716987" lon="10.7" version="2" timestamp="2021-02-28T18:14:31Z" changeset="100150066" uid="7392967" user="FredrikEdler" />
	<node id="3143594055" lat="60.4717264" lon="10.7001845" version="2" timestamp="2021-02-28T18:14:31Z" changeset="100150066" uid="7392967" user="FredrikEdler" />
	<node id="3143594058" lat="60.4717582" lon="10.7009779" version="2" timestamp="2021-02-28T18:14:31Z" changeset="100150066" uid="7392967" user="FredrikEdler" />
	<node id="3143594059" lat="60.4717616" lon="10.7009353" version="2" timestamp="2021-02-28T18:14:31Z" changeset="100150066" uid="7392967" user="FredrikEdler" />
	<node id="3143594060" lat="60.4717723" lon="10.7008055" version="2" timestamp="2021-02-28T18:14:31Z" changeset="100150066" uid="7392967" user="FredrikEdler" />
	<node id="3143470686" lat="60.4716292" lon="10.7028719" version="1" timestamp="2014-10-22T08:53:30Z" changeset="26251034" uid="435265" user="Ansgar G Grimsrud" />
	<node id="3143470687" lat="60.4716311" lon="10.70328" version="1" timestamp="2014-10-22T08:53:30Z" changeset="26251034" uid="435265" user="Ansgar G Grimsrud" />
	<node id="3143470688" lat="60.4716364" lon="10.7044186" version="1" timestamp="2014-10-22T08:53:30Z" changeset="26251034" uid="435265" user="Ansgar G Grimsrud" />
	<node id="3143470689" lat="60.4716449" lon="10.7023451" version="1" timestamp="2014-10-22T08:53:30Z" changeset="26251034" uid="435265" user="Ansgar G Grimsrud" />
	<node id="3143470690" lat="60.4716599" lon="10.7051264" version="1" timestamp="2014-10-22T08:53:30Z" changeset="26251034" uid="435265" user="Ansgar G Grimsrud" />
	<node id="3143470691" lat="60.4716818" lon="10.7057854" version="1" timestamp="2014-10-22T08:53:30Z" changeset="26251034" uid="435265" user="Ansgar G Grimsrud" />
	<node id="3143470692" lat="60.4717206" lon="10.7062606" version="1" timestamp="2014-10-22T08:53:30Z" changeset="26251034" uid="435265" user="Ansgar G Grimsrud" />
	<node id="3143470693" lat="60.4717283" lon="10.7063975" version="1" timestamp="2014-10-22T08:53:30Z" changeset="26251034" uid="435265" user="Ansgar G Grimsrud" />
	<node id="3143470694" lat="60.4717414" lon="10.7066336" version="1" timestamp="2014-10-22T08:53:30Z" changeset="26251034" uid="435265" user="Ansgar G Grimsrud" />
	<node id="3143470695" lat="60.4717455" lon="10.7067085" version="1" timestamp="2014-10-22T08:53:30Z" changeset="26251034" uid="435265" user="Ansgar G Grimsrud" />
	<node id="3143470696" lat="60.4717553" lon="10.7068851" version="1" timestamp="2014-10-22T08:53:30Z" changeset="26251034" uid="435265" user="Ansgar G Grimsrud" />
	<node id="3143470697" lat="60.4717571" lon="10.7069173" version="1" timestamp="2014-10-22T08:53:30Z" changeset="26251034" uid="435265" user="Ansgar G Grimsrud" />
	<node id="3143470699" lat="60.4718385" lon="10.7075765" version="1" timestamp="2014-10-22T08:53:30Z" changeset="26251034" uid="435265" user="Ansgar G Grimsrud" />
	<node id="3143470700" lat="60.4719124" lon="10.7081078" version="1" timestamp="2014-10-22T08:53:30Z" changeset="26251034" uid="435265" user="Ansgar G Grimsrud" />
	<node id="3143470701" lat="60.4719692" lon="10.7085839" version="1" timestamp="2014-10-22T08:53:30Z" changeset="26251034" uid="435265" user="Ansgar G Grimsrud" />
	<node id="3143470702" lat="60.472047" lon="10.7088244" version="1" timestamp="2014-10-22T08:53:30Z" changeset="26251034" uid="435265" user="Ansgar G Grimsrud" />
	<node id="3143470703" lat="60.4724495" lon="10.709646" version="1" timestamp="2014-10-22T08:53:30Z" changeset="26251034" uid="435265" user="Ansgar G Grimsrud" />
	<node id="3143470704" lat="60.4725333" lon="10.7101235" version="1" timestamp="2014-10-22T08:53:30Z" changeset="26251034" uid="435265" user="Ansgar G Grimsrud" />
	<node id="3143470705" lat="60.4725735" lon="10.7104894" version="1" timestamp="2014-10-22T08:53:30Z" changeset="26251034" uid="435265" user="Ansgar G Grimsrud" />
	<node id="3143470706" lat="60.4725767" lon="10.7106186" version="1" timestamp="2014-10-22T08:53:30Z" changeset="26251034" uid="435265" user="Ansgar G Grimsrud" />
	<node id="3143470707" lat="60.4725869" lon="10.7110246" version="1" timestamp="2014-10-22T08:53:30Z" changeset="26251034" uid="435265" user="Ansgar G Grimsrud" />
	<node id="3143470708" lat="60.4725913" lon="10.7111999" version="1" timestamp="2014-10-22T08:53:30Z" changeset="26251034" uid="435265" user="Ansgar G Grimsrud" />
	<node id="3143470709" lat="60.4726143" lon="10.7122016" version="1" timestamp="2014-10-22T08:53:30Z" changeset="26251034" uid="435265" user="Ansgar G Grimsrud" />
	<node id="3143470710" lat="60.4726766" lon="10.7129509" version="1" timestamp="2014-10-22T08:53:30Z" changeset="26251034" uid="435265" user="Ansgar G Grimsrud" />
	<node id="3143470711" lat="60.4727168" lon="10.7132666" version="1" timestamp="2014-10-22T08:53:30Z" changeset="26251034" uid="435265" user="Ansgar G Grimsrud" />
	<node id="3143470712" lat="60.4727255" lon="10.7133355" version="1" timestamp="2014-10-22T08:53:30Z" changeset="26251034" uid="435265" user="Ansgar G Grimsrud" />
	<node id="3143448470" lat="60.4950636" lon="10.696928" version="2" timestamp="2021-02-28T18:14:29Z" changeset="100150066" uid="7392967" user="FredrikEdler" />
	<node id="3143448471" lat="60.4950859" lon="10.6972934" version="2" timestamp="2021-02-28T18:14:29Z" changeset="100150066" uid="7392967" user="FredrikEdler" />
	<node id="3143448476" lat="60.4951294" lon="10.6966949" version="2" timestamp="2021-02-28T18:14:29Z" changeset="100150066" uid="7392967" user="FredrikEdler" />
	<node id="3143448478" lat="60.4951742" lon="10.6974073" version="2" timestamp="2021-02-28T18:14:29Z" changeset="100150066" uid="7392967" user="FredrikEdler" />
	<node id="3143448480" lat="60.4952184" lon="10.6974641" version="2" timestamp="2021-02-28T18:14:29Z" changeset="100150066" uid="7392967" user="FredrikEdler" />
	<node id="3143448482" lat="60.4952477" lon="10.69655" version="2" timestamp="2021-02-28T18:14:29Z" changeset="100150066" uid="7392967" user="FredrikEdler" />
	<node id="3143448492" lat="60.4953537" lon="10.6974166" version="2" timestamp="2021-02-28T18:14:29Z" changeset="100150066" uid="7392967" user="FredrikEdler" />
	<node id="3143448494" lat="60.4953574" lon="10.6964155" version="2" timestamp="2021-02-28T18:14:29Z" changeset="100150066" uid="7392967" user="FredrikEdler" />
	<node id="3143448510" lat="60.4955936" lon="10.6954993" version="2" timestamp="2021-02-28T18:14:29Z" changeset="100150066" uid="7392967" user="FredrikEdler" />
	<node id="3143448512" lat="60.4956236" lon="10.6973761" version="2" timestamp="2021-02-28T18:14:29Z" changeset="100150066" uid="7392967" user="FredrikEdler" />
	<node id="3143448521" lat="60.4957946" lon="10.695695" version="2" timestamp="2021-02-28T18:14:29Z" changeset="100150066" uid="7392967" user="FredrikEdler" />
	<node id="3143448524" lat="60.4958678" lon="10.6972432" version="2" timestamp="2021-02-28T18:14:29Z" changeset="100150066" uid="7392967" user="FredrikEdler" />
	<node id="3143448526" lat="60.4958877" lon="10.6957856" version="2" timestamp="2021-02-28T18:14:29Z" changeset="100150066" uid="7392967" user="FredrikEdler" />
	<node id="3143448531" lat="60.4959531" lon="10.6962436" version="2" timestamp="2021-02-28T18:14:29Z" changeset="100150066" uid="7392967" user="FredrikEdler" />
	<node id="3143448536" lat="60.4960515" lon="10.696215" version="2" timestamp="2021-02-28T18:14:29Z" changeset="100150066" uid="7392967" user="FredrikEdler" />
	<node id="3143448538" lat="60.4960756" lon="10.6959685" version="2" timestamp="2021-02-28T18:14:29Z" changeset="100150066" uid="7392967" user="FredrikEdler" />
	<node id="3143448540" lat="60.4961169" lon="10.6960182" version="2" timestamp="2021-02-28T18:14:29Z" changeset="100150066" uid="7392967" user="FredrikEdler" />
	<node id="3143448553" lat="60.4962338" lon="10.6967162" version="2" timestamp="2021-02-28T18:14:29Z" changeset="100150066" uid="7392967" user="FredrikEdler" />
	<node id="3143448558" lat="60.4963571" lon="10.6955407" version="2" timestamp="2021-02-28T18:14:29Z" changeset="100150066" uid="7392967" user="FredrikEdler" />
	<node id="3143448559" lat="60.4963664" lon="10.6967146" version="2" timestamp="2021-02-28T18:14:29Z" changeset="100150066" uid="7392967" user="FredrikEdler" />
	<node id="3143448562" lat="60.4964001" lon="10.6957391" version="2" timestamp="2021-02-28T18:14:29Z" changeset="100150066" uid="7392967" user="FredrikEdler" />
	<node id="3143448567" lat="60.4964968" lon="10.6967131" version="2" timestamp="2021-02-28T18:14:29Z" changeset="100150066" uid="7392967" user="FredrikEdler" />
	<node id="3143448570" lat="60.4965211" lon="10.696713" version="2" timestamp="2021-02-28T18:14:29Z" changeset="100150066" uid="7392967" user="FredrikEdler" />
	<node id="3143448571" lat="60.4965268" lon="10.6967212" version="2" timestamp="2021-02-28T18:14:29Z" changeset="100150066" uid="7392967" user="FredrikEdler" />
	<node id="3143448572" lat="60.4965332" lon="10.696014" version="2" timestamp="2021-02-28T18:14:29Z" changeset="100150066" uid="7392967" user="FredrikEdler" />
	<node id="3143448574" lat="60.4965771" lon="10.696103" version="2" timestamp="2021-02-28T18:14:29Z" changeset="100150066" uid="7392967" user="FredrikEdler" />
	<node id="3143448575" lat="60.496606" lon="10.6968386" version="2" timestamp="2021-02-28T18:14:29Z" changeset="100150066" uid="7392967" user="FredrikEdler" />
	<node id="3143448578" lat="60.4966925" lon="10.6969668" version="2" timestamp="2021-02-28T18:14:29Z" changeset="100150066" uid="7392967" user="FredrikEdler" />
	<node id="3143448579" lat="60.4967144" lon="10.6969854" version="2" timestamp="2021-02-28T18:14:29Z" changeset="100150066" uid="7392967" user="FredrikEdler" />
	<node id="3143448581" lat="60.4967737" lon="10.6963249" version="2" timestamp="2021-02-28T18:14:29Z" changeset="100150066" uid="7392967" user="FredrikEdler" />
	<node id="3143448584" lat="60.4968233" lon="10.6970778" version="2" timestamp="2021-02-28T18:14:29Z" changeset="100150066" uid="7392967" user="FredrikEdler" />
	<node id="3143448585" lat="60.496884" lon="10.6964404" version="2" timestamp="2021-02-28T18:14:29Z" changeset="100150066" uid="7392967" user="FredrikEdler" />
	<node id="3143448586" lat="60.4969229" lon="10.6968979" version="2" timestamp="2021-02-28T18:14:29Z" changeset="100150066" uid="7392967" user="FredrikEdler" />
	<node id="3143448587" lat="60.4969515" lon="10.6965758" version="2" timestamp="2021-02-28T18:14:29Z" changeset="100150066" uid="7392967" user="FredrikEdler" />
	<node id="9127984483" lat="60.415806" lon="10.8561102" version="1" timestamp="2021-09-27T21:37:05Z" changeset="111789765" uid="435265" user="Ansgar G Grimsrud" />
	<node id="9127984484" lat="60.4157926" lon="10.855831" version="1" timestamp="2021-09-27T21:37:05Z" changeset="111789765" uid="435265" user="Ansgar G Grimsrud" />
	<node id="9127984485" lat="60.4156593" lon="10.855804" version="1" timestamp="2021-09-27T21:37:05Z" changeset="111789765" uid="435265" user="Ansgar G Grimsrud" />
	<node id="9127984486" lat="60.4156726" lon="10.8563263" version="1" timestamp="2021-09-27T21:37:05Z" changeset="111789765" uid="435265" user="Ansgar G Grimsrud" />
	<node id="9127984487" lat="60.4156015" lon="10.8564884" version="1" timestamp="2021-09-27T21:37:05Z" changeset="111789765" uid="435265" user="Ansgar G Grimsrud" />
	<node id="9127984488" lat="60.415477" lon="10.8566325" version="1" timestamp="2021-09-27T21:37:05Z" changeset="111789765" uid="435265" user="Ansgar G Grimsrud" />
	<node id="9127984489" lat="60.4154058" lon="10.8568306" version="1" timestamp="2021-09-27T21:37:05Z" changeset="111789765" uid="435265" user="Ansgar G Grimsrud" />
	<node id="9127984490" lat="60.4154859" lon="10.8573529" version="1" timestamp="2021-09-27T21:37:05Z" changeset="111789765" uid="435265" user="Ansgar G Grimsrud" />
	<node id="9127984491" lat="60.4156193" lon="10.857407" version="1" timestamp="2021-09-27T21:37:05Z" changeset="111789765" uid="435265" user="Ansgar G Grimsrud" />
	<node id="9127984492" lat="60.415726" lon="10.8573349" version="1" timestamp="2021-09-27T21:37:05Z" changeset="111789765" uid="435265" user="Ansgar G Grimsrud" />
	<node id="9127984493" lat="60.4159305" lon="10.8572449" version="1" timestamp="2021-09-27T21:37:05Z" changeset="111789765" uid="435265" user="Ansgar G Grimsrud" />
	<node id="9127984494" lat="60.4161172" lon="10.8573529" version="1" timestamp="2021-09-27T21:37:05Z" changeset="111789765" uid="435265" user="Ansgar G Grimsrud" />
	<node id="9127984495" lat="60.4161972" lon="10.8576771" version="1" timestamp="2021-09-27T21:37:05Z" changeset="111789765" uid="435265" user="Ansgar G Grimsrud" />
	<node id="9127984496" lat="60.4160728" lon="10.8578572" version="1" timestamp="2021-09-27T21:37:05Z" changeset="111789765" uid="435265" user="Ansgar G Grimsrud" />
	<node id="9127984497" lat="60.4159216" lon="10.8577672" version="1" timestamp="2021-09-27T21:37:05Z" changeset="111789765" uid="435265" user="Ansgar G Grimsrud" />
	<node id="9127984498" lat="60.415726" lon="10.8578392" version="1" timestamp="2021-09-27T21:37:05Z" changeset="111789765" uid="435265" user="Ansgar G Grimsrud" />
	<node id="9127984499" lat="60.415477" lon="10.8578392" version="1" timestamp="2021-09-27T21:37:05Z" changeset="111789765" uid="435265" user="Ansgar G Grimsrud" />
	<node id="9127984500" lat="60.4152013" lon="10.8581274" version="1" timestamp="2021-09-27T21:37:05Z" changeset="111789765" uid="435265" user="Ansgar G Grimsrud" />
	<node id="9127984501" lat="60.4148723" lon="10.8583616" version="1" timestamp="2021-09-27T21:37:05Z" changeset="111789765" uid="435265" user="Ansgar G Grimsrud" />
	<node id="9127984503" lat="60.4147033" lon="10.8578572" version="1" timestamp="2021-09-27T21:37:05Z" changeset="111789765" uid="435265" user="Ansgar G Grimsrud" />
	<node id="9127984504" lat="60.4144721" lon="10.8579293" version="1" timestamp="2021-09-27T21:37:05Z" changeset="111789765" uid="435265" user="Ansgar G Grimsrud" />
	<node id="9128002228" lat="60.4146589" lon="10.8565424" version="1" timestamp="2021-09-27T21:37:05Z" changeset="111789765" uid="435265" user="Ansgar G Grimsrud" />
	<node id="9128002229" lat="60.4150679" lon="10.8562002" version="1" timestamp="2021-09-27T21:37:05Z" changeset="111789765" uid="435265" user="Ansgar G Grimsrud" />
	<node id="9128002230" lat="60.4154414" lon="10.855894" version="1" timestamp="2021-09-27T21:37:05Z" changeset="111789765" uid="435265" user="Ansgar G Grimsrud" />
	<way id="309027555" version="3" timestamp="2022-04-04T12:00:51Z" changeset="119300242" uid="11560" user="zidel">
		<tag k="name" v="Nysæterbekken" />
		<tag k="source" v="Kartverket" />
		<tag k="ssr:date" v="2019-12-27" />
		<tag k="ssr:gruppe" v="rennendeVann" />
		<tag k="ssr:hovedgruppe" v="ferskvann" />
		<tag k="ssr:stedsnr" v="760577" />
		<tag k="ssr:type" v="bekk" />
		<tag k="waterway" v="stream" />
		<nd ref="3143364142" />
		<nd ref="3143364144" />
		<nd ref="3143364145" />
		<nd ref="3143364139" />
		<nd ref="3143364140" />
		<nd ref="3143364141" />
		<nd ref="3143364146" />
		<nd ref="3143364147" />
		<nd ref="3143364149" />
		<nd ref="3143364150" />
		<nd ref="3143364155" />
		<nd ref="3143364159" />
		<nd ref="3143364161" />
		<nd ref="3143364163" />
	</way>
	<way id="309034175" version="2" timestamp="2021-09-24T20:16:33Z" changeset="111665546" uid="435265" user="Ansgar G Grimsrud">
		<tag k="name" v="Stormyra" />
		<tag k="natural" v="wetland" />
		<tag k="source" v="Kartverket" />
		<tag k="ssr:date" v="2019-12-27" />
		<tag k="ssr:gruppe" v="våtmark" />
		<tag k="ssr:hovedgruppe" v="markslag" />
		<tag k="ssr:stedsnr" v="882428" />
		<tag k="ssr:type" v="myr" />
		<nd ref="3143448344" />
		<nd ref="3143448214" />
		<nd ref="3143448213" />
		<nd ref="3143448201" />
		<nd ref="3143448200" />
		<nd ref="3143448203" />
		<nd ref="3143448227" />
		<nd ref="3143448339" />
		<nd ref="3143448354" />
		<nd ref="3143448363" />
		<nd ref="3143448378" />
		<nd ref="3143448385" />
		<nd ref="3143448390" />
		<nd ref="3143448400" />
		<nd ref="3143448407" />
		<nd ref="3143448429" />
		<nd ref="3143448431" />
		<nd ref="3143448432" />
		<nd ref="3143448437" />
		<nd ref="3143448444" />
		<nd ref="3143448447" />
		<nd ref="3143448453" />
		<nd ref="3143448455" />
		<nd ref="3143448484" />
		<nd ref="3143448490" />
		<nd ref="3143448498" />
		<nd ref="3143448510" />
		<nd ref="3143448521" />
		<nd ref="3143448526" />
		<nd ref="3143448538" />
		<nd ref="3143448540" />
		<nd ref="3143448536" />
		<nd ref="3143448531" />
		<nd ref="3143448494" />
		<nd ref="3143448482" />
		<nd ref="3143448476" />
		<nd ref="3143448470" />
		<nd ref="3143448471" />
		<nd ref="3143448478" />
		<nd ref="3143448480" />
		<nd ref="3143448492" />
		<nd ref="3143448512" />
		<nd ref="3143448524" />
		<nd ref="3143448553" />
		<nd ref="3143448559" />
		<nd ref="3143448567" />
		<nd ref="3143448570" />
		<nd ref="3143448571" />
		<nd ref="3143448575" />
		<nd ref="3143448578" />
		<nd ref="3143448579" />
		<nd ref="3143448584" />
		<nd ref="3143448586" />
		<nd ref="3143448587" />
		<nd ref="3143448585" />
		<nd ref="3143448581" />
		<nd ref="3143448574" />
		<nd ref="3143448572" />
		<nd ref="3143448562" />
		<nd ref="3143448558" />
		<nd ref="3143448552" />
		<nd ref="3143448548" />
		<nd ref="3143448544" />
		<nd ref="3143448539" />
		<nd ref="3143448533" />
		<nd ref="3143448530" />
		<nd ref="3143448508" />
		<nd ref="3143448495" />
		<nd ref="3143448472" />
		<nd ref="3143448464" />
		<nd ref="3143448462" />
		<nd ref="3143448475" />
		<nd ref="3143448496" />
		<nd ref="3143448507" />
		<nd ref="3143448517" />
		<nd ref="3143448527" />
		<nd ref="3143448537" />
		<nd ref="3143448545" />
		<nd ref="3143448557" />
		<nd ref="3143448561" />
		<nd ref="3143448568" />
		<nd ref="3143448582" />
		<nd ref="3143448590" />
		<nd ref="3143448591" />
		<nd ref="3143448602" />
		<nd ref="3143448606" />
		<nd ref="3143448608" />
		<nd ref="3143448611" />
		<nd ref="3143448618" />
		<nd ref="3143448625" />
		<nd ref="3143448626" />
		<nd ref="3143448624" />
		<nd ref="3143448623" />
		<nd ref="3143448617" />
		<nd ref="3143448588" />
		<nd ref="3143448580" />
		<nd ref="3143448573" />
		<nd ref="3143448565" />
		<nd ref="3143448560" />
		<nd ref="3143448549" />
		<nd ref="3143448543" />
		<nd ref="3143448546" />
		<nd ref="3143448551" />
		<nd ref="3143448555" />
		<nd ref="3143448556" />
		<nd ref="3143448550" />
		<nd ref="3143448541" />
		<nd ref="3143448532" />
		<nd ref="3143448520" />
		<nd ref="3143448509" />
		<nd ref="3143448505" />
		<nd ref="3143448497" />
		<nd ref="3143448489" />
		<nd ref="3143448481" />
		<nd ref="3143448448" />
		<nd ref="3143448436" />
		<nd ref="3143448426" />
		<nd ref="3143448420" />
		<nd ref="3143448413" />
		<nd ref="3143448404" />
		<nd ref="3143448401" />
		<nd ref="3143448398" />
		<nd ref="3143448396" />
		<nd ref="3143448393" />
		<nd ref="3143448388" />
		<nd ref="3143448383" />
		<nd ref="3143448374" />
		<nd ref="3143448365" />
		<nd ref="3143448360" />
		<nd ref="3143448353" />
		<nd ref="3143448345" />
		<nd ref="3143448342" />
		<nd ref="3143448337" />
		<nd ref="3143448336" />
		<nd ref="3143448335" />
		<nd ref="3143448330" />
		<nd ref="3143448224" />
		<nd ref="3143448216" />
		<nd ref="3143448215" />
		<nd ref="3143448209" />
		<nd ref="3143448210" />
		<nd ref="3143448212" />
		<nd ref="3143448219" />
		<nd ref="3143448218" />
		<nd ref="3143448207" />
		<nd ref="3143448206" />
		<nd ref="3143448205" />
		<nd ref="3143448211" />
		<nd ref="3143448331" />
		<nd ref="3143448359" />
		<nd ref="3143448366" />
		<nd ref="3143448375" />
		<nd ref="3143448379" />
		<nd ref="3143448384" />
		<nd ref="3143448381" />
		<nd ref="3143448370" />
		<nd ref="3143448364" />
		<nd ref="3143448355" />
		<nd ref="3143448332" />
		<nd ref="3143448223" />
		<nd ref="3143448222" />
		<nd ref="3143448221" />
		<nd ref="3143448329" />
		<nd ref="3143448334" />
		<nd ref="3143448228" />
		<nd ref="3143448226" />
		<nd ref="3143448225" />
		<nd ref="3143448333" />
		<nd ref="3143448340" />
		<nd ref="3143448347" />
		<nd ref="3143448352" />
		<nd ref="3143448351" />
		<nd ref="3143448344" />
	</way>
	<way id="309049531" version="4" timestamp="2021-09-24T20:12:09Z" changeset="111665410" uid="435265" user="Ansgar G Grimsrud">
		<tag k="name" v="Grandalsbekken" />
		<tag k="source" v="Kartverket" />
		<tag k="ssr:date" v="2019-12-27" />
		<tag k="ssr:gruppe" v="rennendeVann" />
		<tag k="ssr:hovedgruppe" v="ferskvann" />
		<tag k="ssr:stedsnr" v="795229" />
		<tag k="ssr:type" v="bekk" />
		<tag k="waterway" v="stream" />
		<nd ref="3143470712" />
		<nd ref="3143470711" />
		<nd ref="3143470710" />
		<nd ref="3143470709" />
		<nd ref="3143470708" />
		<nd ref="3143470707" />
		<nd ref="3143470706" />
		<nd ref="3143470705" />
		<nd ref="3143470704" />
		<nd ref="3143470703" />
		<nd ref="3143470702" />
		<nd ref="3143470701" />
		<nd ref="3143470700" />
		<nd ref="3143470699" />
		<nd ref="3143470697" />
		<nd ref="3143470696" />
		<nd ref="3143470695" />
		<nd ref="3143470694" />
		<nd ref="3143470693" />
		<nd ref="3143470692" />
		<nd ref="3143470691" />
		<nd ref="3143470690" />
		<nd ref="3143470688" />
		<nd ref="3143470687" />
		<nd ref="3143470686" />
		<nd ref="3143470689" />
		<nd ref="3143470698" />
		<nd ref="3143594058" />
		<nd ref="3143594059" />
		<nd ref="3143594060" />
		<nd ref="3143594055" />
		<nd ref="3143594054" />
		<nd ref="3143594052" />
		<nd ref="3143594051" />
		<nd ref="3143594049" />
		<nd ref="3143594048" />
		<nd ref="3143594050" />
		<nd ref="3143594046" />
		<nd ref="3143594045" />
	</way>
	<way id="987532405" version="1" timestamp="2021-09-27T21:37:05Z" changeset="111789765" uid="435265" user="Ansgar G Grimsrud">
		<tag k="name" v="Sjuputtmyra" />
		<tag k="natural" v="wetland" />
		<tag k="ssr:date" v="2019-12-27" />
		<tag k="ssr:gruppe" v="våtmark" />
		<tag k="ssr:hovedgruppe" v="markslag" />
		<tag k="ssr:stedsnr" v="491624" />
		<tag k="ssr:type" v="myr" />
		<nd ref="9127984486" />
		<nd ref="9127984483" />
		<nd ref="9127984484" />
		<nd ref="9127984485" />
		<nd ref="9128002230" />
		<nd ref="9128002229" />
		<nd ref="9128002228" />
		<nd ref="9128002227" />
		<nd ref="9128002226" />
		<nd ref="9128002225" />
		<nd ref="9128002224" />
		<nd ref="9128002223" />
		<nd ref="9128002222" />
		<nd ref="9128002221" />
		<nd ref="9128002220" />
		<nd ref="9128002219" />
		<nd ref="9128002218" />
		<nd ref="9128002217" />
		<nd ref="9127984516" />
		<nd ref="9127984515" />
		<nd ref="9127984514" />
		<nd ref="9127984513" />
		<nd ref="9127984512" />
		<nd ref="9127984511" />
		<nd ref="9127984510" />
		<nd ref="9127984509" />
		<nd ref="9127984508" />
		<nd ref="9127984507" />
		<nd ref="9127984506" />
		<nd ref="9127984505" />
		<nd ref="9127984504" />
		<nd ref="9127984503" />
		<nd ref="9127984501" />
		<nd ref="9127984500" />
		<nd ref="9127984499" />
		<nd ref="9127984498" />
		<nd ref="9127984497" />
		<nd ref="9127984496" />
		<nd ref="9127984495" />
		<nd ref="9127984494" />
		<nd ref="9127984493" />
		<nd ref="9127984492" />
		<nd ref="9127984491" />
		<nd ref="9127984490" />
		<nd ref="9127984489" />
		<nd ref="9127984488" />
		<nd ref="9127984487" />
		<nd ref="9127984486" />
	</way>
</osm>
