<?xml version="1.0" encoding="UTF-8"?>
<osm generator="osmapis" version="0.6">
	<node id="-126524" lat="61.6632305573" lon="10.4733611061">
		<tag k="name" v="Friisvegen" />
		<tag k="ssr:date" v="2016-05-11" />
		<tag k="ssr:gruppe" v="veg" />
		<tag k="ssr:hovedgruppe" v="infrastruktur" />
		<tag k="ssr:stedsnr" v="813534" />
		<tag k="ssr:type" v="vegstrekning" />
	</node>
	<node id="-125812" lat="61.5297972249" lon="10.1418027788">
		<tag k="name" v="Ringebu kommune" />
		<tag k="ssr:date" v="2016-05-10" />
		<tag k="ssr:gruppe" v="administrativeIndelinger" />
		<tag k="ssr:hovedgruppe" v="offentligAdministrasjon" />
		<tag k="ssr:stedsnr" v="450476" />
		<tag k="ssr:type" v="kommune" />
	</node>
	<node id="-125202" lat="61.4499261047" lon="10.1294181725">
		<tag k="name" v="Furuvegen" />
		<tag k="ssr:date" v="2019-05-30" />
		<tag k="ssr:gruppe" v="veg" />
		<tag k="ssr:hovedgruppe" v="infrastruktur" />
		<tag k="ssr:stedsnr" v="1013520" />
		<tag k="ssr:type" v="adressenavn" />
	</node>
	<node id="-125201" lat="61.5360483605" lon="10.0552756206">
		<tag k="name" v="Baksidevegen" />
		<tag k="ssr:date" v="2019-05-30" />
		<tag k="ssr:gruppe" v="veg" />
		<tag k="ssr:hovedgruppe" v="infrastruktur" />
		<tag k="ssr:stedsnr" v="1013393" />
		<tag k="ssr:type" v="adressenavn" />
	</node>
	<node id="-125200" lat="61.5738488777" lon="10.4025158857">
		<tag k="name" v="Kluftbua" />
		<tag k="ssr:date" v="2019-05-30" />
		<tag k="ssr:gruppe" v="veg" />
		<tag k="ssr:hovedgruppe" v="infrastruktur" />
		<tag k="ssr:stedsnr" v="1013390" />
		<tag k="ssr:type" v="adressenavn" />
	</node>
	<node id="-125199" lat="61.4532352309" lon="10.0059271481">
		<tag k="name" v="Søre-Lia Seterveg" />
		<tag k="ssr:date" v="2019-05-30" />
		<tag k="ssr:gruppe" v="veg" />
		<tag k="ssr:hovedgruppe" v="infrastruktur" />
		<tag k="ssr:stedsnr" v="1013387" />
		<tag k="ssr:type" v="adressenavn" />
	</node>
	<node id="-125198" lat="61.6754242863" lon="10.3232856022">
		<tag k="name" v="Hirisjøbuin" />
		<tag k="ssr:date" v="2019-05-30" />
		<tag k="ssr:gruppe" v="veg" />
		<tag k="ssr:hovedgruppe" v="infrastruktur" />
		<tag k="ssr:stedsnr" v="1013385" />
		<tag k="ssr:type" v="adressenavn" />
	</node>
	<node id="-125197" lat="61.5812197533" lon="10.4494620865">
		<tag k="name" v="Søre Breitjønnet" />
		<tag k="ssr:date" v="2019-05-30" />
		<tag k="ssr:gruppe" v="veg" />
		<tag k="ssr:hovedgruppe" v="infrastruktur" />
		<tag k="ssr:stedsnr" v="1013383" />
		<tag k="ssr:type" v="adressenavn" />
	</node>
	<node id="-126796" lat="61.4013116481" lon="10.3017872141">
		<tag k="name" v="Rolldalen" />
		<tag k="ssr:date" v="2019-05-30" />
		<tag k="ssr:gruppe" v="veg" />
		<tag k="ssr:hovedgruppe" v="infrastruktur" />
		<tag k="ssr:stedsnr" v="978797" />
		<tag k="ssr:type" v="adressenavn" />
	</node>
	<node id="-126795" lat="61.6486191109" lon="10.1030110004">
		<tag k="name" v="Venabuvegen" />
		<tag k="ssr:date" v="2019-05-30" />
		<tag k="ssr:gruppe" v="veg" />
		<tag k="ssr:hovedgruppe" v="infrastruktur" />
		<tag k="ssr:stedsnr" v="978784" />
		<tag k="ssr:type" v="adressenavn" />
	</node>
	<node id="-125194" lat="61.5688745653" lon="10.4914533773">
		<tag k="name" v="Borkebua" />
		<tag k="ssr:date" v="2019-05-30" />
		<tag k="ssr:gruppe" v="veg" />
		<tag k="ssr:hovedgruppe" v="infrastruktur" />
		<tag k="ssr:stedsnr" v="1013374" />
		<tag k="ssr:type" v="adressenavn" />
	</node>
	<node id="-126793" lat="60.5908609473" lon="9.63819281559">
		<tag k="fixme" v="multiple name tags, choose one and add the other to alt_name" />
		<tag k="name" v="Austlandet;Østlandet" />
		<tag k="ssr:date" v="2018-01-09" />
		<tag k="ssr:gruppe" v="administrativeIndelinger" />
		<tag k="ssr:hovedgruppe" v="offentligAdministrasjon" />
		<tag k="ssr:stedsnr" v="974775" />
		<tag k="ssr:type" v="annenAdministrativInndeling" />
	</node>
	<node id="-125196" lat="61.5887355092" lon="10.4226598316">
		<tag k="name" v="Nørdre Breitjønnet" />
		<tag k="ssr:date" v="2019-05-30" />
		<tag k="ssr:gruppe" v="veg" />
		<tag k="ssr:hovedgruppe" v="infrastruktur" />
		<tag k="ssr:stedsnr" v="1013382" />
		<tag k="ssr:type" v="adressenavn" />
	</node>
	<node id="-126563" lat="61.3710333351" lon="10.220636103">
		<tag k="name" v="Veslesætervegen" />
		<tag k="ssr:date" v="2016-05-11" />
		<tag k="ssr:gruppe" v="veg" />
		<tag k="ssr:hovedgruppe" v="infrastruktur" />
		<tag k="ssr:stedsnr" v="828809" />
		<tag k="ssr:type" v="vegstrekning" />
	</node>
	<node id="-125195" lat="61.3978583085" lon="10.07941312">
		<tag k="name" v="Svartvatnet" />
		<tag k="ssr:date" v="2019-05-30" />
		<tag k="ssr:gruppe" v="veg" />
		<tag k="ssr:hovedgruppe" v="infrastruktur" />
		<tag k="ssr:stedsnr" v="1013376" />
		<tag k="ssr:type" v="adressenavn" />
	</node>
</osm>
