<?xml version="1.0" encoding="UTF-8"?>
<osm generator="osmapis" version="0.6">
	<node id="-420288" lat="59.198222225" lon="5.8665805521">
		<tag k="name" v="Kjeringgrunnen lanterne" />
		<tag k="ssr:date" v="2016-05-10" />
		<tag k="ssr:gruppe" v="navigasjon" />
		<tag k="ssr:hovedgruppe" v="infrastruktur" />
		<tag k="ssr:stedsnr" v="647206" />
		<tag k="ssr:type" v="lanterne" />
	</node>
	<node id="-420437" lat="59.1371666685" lon="5.88374166712">
		<tag k="name" v="Ystholmen" />
		<tag k="ssr:date" v="2016-05-11" />
		<tag k="ssr:gruppe" v="navigasjon" />
		<tag k="ssr:hovedgruppe" v="infrastruktur" />
		<tag k="ssr:stedsnr" v="768027" />
		<tag k="ssr:type" v="lanterne" />
	</node>
	<node id="-419531" lat="59.2040416651" lon="5.92020556324">
		<tag k="name" v="Øksnes" />
		<tag k="ssr:date" v="2016-05-10" />
		<tag k="ssr:gruppe" v="navigasjon" />
		<tag k="ssr:hovedgruppe" v="infrastruktur" />
		<tag k="ssr:stedsnr" v="324962" />
		<tag k="ssr:type" v="fyrlykt" />
	</node>
	<node id="-419706" lat="59.20186254" lon="5.82900103828">
		<tag k="alt_name" v="Høna" />
		<tag k="name" v="Høna lykt" />
		<tag k="ssr:date" v="2018-08-09" />
		<tag k="ssr:gruppe" v="navigasjon" />
		<tag k="ssr:hovedgruppe" v="infrastruktur" />
		<tag k="ssr:stedsnr" v="26811" />
		<tag k="ssr:type" v="fyrlykt" />
	</node>
	<node id="-420436" lat="59.1406555512" lon="5.89213333981">
		<tag k="name" v="Bøholmen lanterne" />
		<tag k="ssr:date" v="2016-05-11" />
		<tag k="ssr:gruppe" v="navigasjon" />
		<tag k="ssr:hovedgruppe" v="infrastruktur" />
		<tag k="ssr:stedsnr" v="768026" />
		<tag k="ssr:type" v="lanterne" />
	</node>
	<node id="-419859" lat="59.2486722265" lon="5.82355833166">
		<tag k="name" v="Hestholmgrunnen lanterne" />
		<tag k="ssr:date" v="2016-05-10" />
		<tag k="ssr:gruppe" v="navigasjon" />
		<tag k="ssr:hovedgruppe" v="infrastruktur" />
		<tag k="ssr:stedsnr" v="160603" />
		<tag k="ssr:type" v="lanterne" />
	</node>
	<node id="-420435" lat="59.1541444401" lon="5.94624999491">
		<tag k="name" v="Lindøygrunnen lanterne" />
		<tag k="ssr:date" v="2016-05-11" />
		<tag k="ssr:gruppe" v="navigasjon" />
		<tag k="ssr:hovedgruppe" v="infrastruktur" />
		<tag k="ssr:stedsnr" v="768014" />
		<tag k="ssr:type" v="lanterne" />
	</node>
	<node id="-420720" lat="60.8816104596" lon="6.30047518531">
		<tag k="name" v="Vestlandet" />
		<tag k="ssr:date" v="2019-01-06" />
		<tag k="ssr:gruppe" v="administrativeIndelinger" />
		<tag k="ssr:hovedgruppe" v="offentligAdministrasjon" />
		<tag k="ssr:stedsnr" v="974777" />
		<tag k="ssr:type" v="annenAdministrativInndeling" />
	</node>
	<node id="-419858" lat="59.2425388885" lon="5.83409444634">
		<tag k="name" v="Tjul østre" />
		<tag k="ssr:date" v="2016-05-10" />
		<tag k="ssr:gruppe" v="navigasjon" />
		<tag k="ssr:hovedgruppe" v="infrastruktur" />
		<tag k="ssr:stedsnr" v="160602" />
		<tag k="ssr:type" v="lanterne" />
	</node>
	<node id="-420199" lat="59.1344055541" lon="5.89343610824">
		<tag k="name" v="Sauholmgrunnen lanterne" />
		<tag k="ssr:date" v="2016-05-10" />
		<tag k="ssr:gruppe" v="navigasjon" />
		<tag k="ssr:hovedgruppe" v="infrastruktur" />
		<tag k="ssr:stedsnr" v="586010" />
		<tag k="ssr:type" v="lanterne" />
	</node>
	<node id="-419537" lat="59.1410083327" lon="5.85009167418">
		<tag k="name" v="Espholmflu" />
		<tag k="ssr:date" v="2016-12-30" />
		<tag k="ssr:gruppe" v="navigasjon" />
		<tag k="ssr:hovedgruppe" v="infrastruktur" />
		<tag k="ssr:stedsnr" v="344072" />
		<tag k="ssr:type" v="lanterne" />
	</node>
	<node id="-419680" lat="59.1453815113" lon="5.90937211932">
		<tag k="name" v="Høgastevegen" />
		<tag k="ssr:date" v="2019-05-30" />
		<tag k="ssr:gruppe" v="veg" />
		<tag k="ssr:hovedgruppe" v="infrastruktur" />
		<tag k="ssr:stedsnr" v="1028318" />
		<tag k="ssr:type" v="adressenavn" />
	</node>
	<node id="-419679" lat="59.1534414356" lon="5.91877762505">
		<tag k="name" v="Sæbøvegen" />
		<tag k="ssr:date" v="2019-05-30" />
		<tag k="ssr:gruppe" v="veg" />
		<tag k="ssr:hovedgruppe" v="infrastruktur" />
		<tag k="ssr:stedsnr" v="1028310" />
		<tag k="ssr:type" v="adressenavn" />
	</node>
	<node id="-419678" lat="59.1266051147" lon="5.90433446982">
		<tag k="name" v="Eidsvåg" />
		<tag k="ssr:date" v="2019-05-30" />
		<tag k="ssr:gruppe" v="veg" />
		<tag k="ssr:hovedgruppe" v="infrastruktur" />
		<tag k="ssr:stedsnr" v="1028301" />
		<tag k="ssr:type" v="adressenavn" />
	</node>
	<node id="-419677" lat="59.2733014535" lon="6.00850228713">
		<tag k="name" v="Bandåsvegen" />
		<tag k="ssr:date" v="2019-05-30" />
		<tag k="ssr:gruppe" v="veg" />
		<tag k="ssr:hovedgruppe" v="infrastruktur" />
		<tag k="ssr:stedsnr" v="1028298" />
		<tag k="ssr:type" v="adressenavn" />
	</node>
	<node id="-419676" lat="59.2367202975" lon="5.97427459235">
		<tag k="name" v="Atlatveit" />
		<tag k="ssr:date" v="2019-05-30" />
		<tag k="ssr:gruppe" v="veg" />
		<tag k="ssr:hovedgruppe" v="infrastruktur" />
		<tag k="ssr:stedsnr" v="1028296" />
		<tag k="ssr:type" v="adressenavn" />
	</node>
	<node id="-419675" lat="59.2366678987" lon="5.93893765184">
		<tag k="name" v="Vestre Ombovegen" />
		<tag k="ssr:date" v="2019-05-30" />
		<tag k="ssr:gruppe" v="veg" />
		<tag k="ssr:hovedgruppe" v="infrastruktur" />
		<tag k="ssr:stedsnr" v="1028293" />
		<tag k="ssr:type" v="adressenavn" />
	</node>
	<node id="-419674" lat="59.2805366891" lon="5.95711327516">
		<tag k="name" v="Alveskjervegen" />
		<tag k="ssr:date" v="2019-05-30" />
		<tag k="ssr:gruppe" v="veg" />
		<tag k="ssr:hovedgruppe" v="infrastruktur" />
		<tag k="ssr:stedsnr" v="1028291" />
		<tag k="ssr:type" v="adressenavn" />
	</node>
	<node id="-419673" lat="59.2677404085" lon="6.02820429813">
		<tag k="name" v="Nårstadvegen" />
		<tag k="ssr:date" v="2019-05-30" />
		<tag k="ssr:gruppe" v="veg" />
		<tag k="ssr:hovedgruppe" v="infrastruktur" />
		<tag k="ssr:stedsnr" v="1028288" />
		<tag k="ssr:type" v="adressenavn" />
	</node>
	<node id="-419672" lat="59.2789453722" lon="5.95879629394">
		<tag k="name" v="Vatlandsvegen" />
		<tag k="ssr:date" v="2019-05-30" />
		<tag k="ssr:gruppe" v="veg" />
		<tag k="ssr:hovedgruppe" v="infrastruktur" />
		<tag k="ssr:stedsnr" v="1028286" />
		<tag k="ssr:type" v="adressenavn" />
	</node>
	<node id="-419671" lat="59.142683725" lon="5.84838288989">
		<tag k="name" v="Finnøyfjorden" />
		<tag k="ssr:date" v="2019-05-30" />
		<tag k="ssr:gruppe" v="veg" />
		<tag k="ssr:hovedgruppe" v="infrastruktur" />
		<tag k="ssr:stedsnr" v="1028284" />
		<tag k="ssr:type" v="adressenavn" />
	</node>
	<node id="-419670" lat="59.2826571854" lon="5.95617520728">
		<tag k="name" v="Jørstadvågen" />
		<tag k="ssr:date" v="2019-05-30" />
		<tag k="ssr:gruppe" v="veg" />
		<tag k="ssr:hovedgruppe" v="infrastruktur" />
		<tag k="ssr:stedsnr" v="1028281" />
		<tag k="ssr:type" v="adressenavn" />
	</node>
	<node id="-419669" lat="59.280246466" lon="5.9552558924">
		<tag k="name" v="Jørstadneset" />
		<tag k="ssr:date" v="2019-05-30" />
		<tag k="ssr:gruppe" v="veg" />
		<tag k="ssr:hovedgruppe" v="infrastruktur" />
		<tag k="ssr:stedsnr" v="1028278" />
		<tag k="ssr:type" v="adressenavn" />
	</node>
	<node id="-419668" lat="59.2367316411" lon="5.93600566132">
		<tag k="name" v="Brakastien" />
		<tag k="ssr:date" v="2019-05-30" />
		<tag k="ssr:gruppe" v="veg" />
		<tag k="ssr:hovedgruppe" v="infrastruktur" />
		<tag k="ssr:stedsnr" v="1028276" />
		<tag k="ssr:type" v="adressenavn" />
	</node>
	<node id="-419667" lat="59.2297754427" lon="5.94721941762">
		<tag k="name" v="Eidebakken" />
		<tag k="ssr:date" v="2019-05-30" />
		<tag k="ssr:gruppe" v="veg" />
		<tag k="ssr:hovedgruppe" v="infrastruktur" />
		<tag k="ssr:stedsnr" v="1028271" />
		<tag k="ssr:type" v="adressenavn" />
	</node>
	<node id="-419666" lat="59.2353108368" lon="5.9443679474">
		<tag k="name" v="Eidssundbakken" />
		<tag k="ssr:date" v="2019-05-30" />
		<tag k="ssr:gruppe" v="veg" />
		<tag k="ssr:hovedgruppe" v="infrastruktur" />
		<tag k="ssr:stedsnr" v="1028269" />
		<tag k="ssr:type" v="adressenavn" />
	</node>
	<node id="-419665" lat="59.2376917467" lon="5.96839700822">
		<tag k="name" v="Havåsen" />
		<tag k="ssr:date" v="2019-05-30" />
		<tag k="ssr:gruppe" v="veg" />
		<tag k="ssr:hovedgruppe" v="infrastruktur" />
		<tag k="ssr:stedsnr" v="1028267" />
		<tag k="ssr:type" v="adressenavn" />
	</node>
	<node id="-419664" lat="59.2354532376" lon="5.94583616559">
		<tag k="name" v="Eidevegen" />
		<tag k="ssr:date" v="2019-05-30" />
		<tag k="ssr:gruppe" v="veg" />
		<tag k="ssr:hovedgruppe" v="infrastruktur" />
		<tag k="ssr:stedsnr" v="1028266" />
		<tag k="ssr:type" v="adressenavn" />
	</node>
	<node id="-419663" lat="59.1093809735" lon="5.81856098984">
		<tag k="name" v="Østabøkroken" />
		<tag k="ssr:date" v="2019-05-30" />
		<tag k="ssr:gruppe" v="veg" />
		<tag k="ssr:hovedgruppe" v="infrastruktur" />
		<tag k="ssr:stedsnr" v="1028259" />
		<tag k="ssr:type" v="adressenavn" />
	</node>
	<node id="-419662" lat="59.1724916713" lon="5.87547347726">
		<tag k="name" v="Rygjabøvegen" />
		<tag k="ssr:date" v="2019-05-30" />
		<tag k="ssr:gruppe" v="veg" />
		<tag k="ssr:hovedgruppe" v="infrastruktur" />
		<tag k="ssr:stedsnr" v="1028225" />
		<tag k="ssr:type" v="adressenavn" />
	</node>
	<node id="-419661" lat="59.1351563279" lon="5.90080647702">
		<tag k="name" v="Bjønnstøvegen" />
		<tag k="ssr:date" v="2019-05-30" />
		<tag k="ssr:gruppe" v="veg" />
		<tag k="ssr:hovedgruppe" v="infrastruktur" />
		<tag k="ssr:stedsnr" v="1028845" />
		<tag k="ssr:type" v="adressenavn" />
	</node>
	<node id="-419660" lat="59.1562937719" lon="5.92317052102">
		<tag k="name" v="Sæbøneset" />
		<tag k="ssr:date" v="2019-05-30" />
		<tag k="ssr:gruppe" v="veg" />
		<tag k="ssr:hovedgruppe" v="infrastruktur" />
		<tag k="ssr:stedsnr" v="1028841" />
		<tag k="ssr:type" v="adressenavn" />
	</node>
	<node id="-419659" lat="59.1404638658" lon="5.89866590488">
		<tag k="name" v="Holmastø" />
		<tag k="ssr:date" v="2019-05-30" />
		<tag k="ssr:gruppe" v="veg" />
		<tag k="ssr:hovedgruppe" v="infrastruktur" />
		<tag k="ssr:stedsnr" v="1028840" />
		<tag k="ssr:type" v="adressenavn" />
	</node>
	<node id="-419657" lat="59.1771107826" lon="5.87397664544">
		<tag k="name" v="Øvre Hauskjevegen" />
		<tag k="ssr:date" v="2019-05-30" />
		<tag k="ssr:gruppe" v="veg" />
		<tag k="ssr:hovedgruppe" v="infrastruktur" />
		<tag k="ssr:stedsnr" v="990427" />
		<tag k="ssr:type" v="adressenavn" />
	</node>
	<node id="-419784" lat="59.1016694467" lon="5.81423889239">
		<tag k="name" v="Prestnesboen" />
		<tag k="ssr:date" v="2016-05-10" />
		<tag k="ssr:gruppe" v="navigasjon" />
		<tag k="ssr:hovedgruppe" v="infrastruktur" />
		<tag k="ssr:stedsnr" v="102078" />
		<tag k="ssr:type" v="lanterne" />
	</node>
	<node id="-420421" lat="59.2671777779" lon="5.84246111823">
		<tag k="alt_name" v="Furasundet" />
		<tag k="name" v="Furasundet lykt" />
		<tag k="old_name" v="Furasund;Forasund" />
		<tag k="ssr:date" v="2016-05-11" />
		<tag k="ssr:gruppe" v="navigasjon" />
		<tag k="ssr:hovedgruppe" v="infrastruktur" />
		<tag k="ssr:stedsnr" v="730662" />
		<tag k="ssr:type" v="fyrlykt" />
	</node>
	<node id="-419651" lat="59.1352429647" lon="5.90741873414">
		<tag k="name" v="Vestre Fognavegen" />
		<tag k="ssr:date" v="2019-06-18" />
		<tag k="ssr:gruppe" v="veg" />
		<tag k="ssr:hovedgruppe" v="infrastruktur" />
		<tag k="ssr:stedsnr" v="1071962" />
		<tag k="ssr:type" v="adressenavn" />
	</node>
	<node id="-419650" lat="59.126009573" lon="5.87947669293">
		<tag k="name" v="Fjellberg" />
		<tag k="ssr:date" v="2019-06-18" />
		<tag k="ssr:gruppe" v="veg" />
		<tag k="ssr:hovedgruppe" v="infrastruktur" />
		<tag k="ssr:stedsnr" v="1071961" />
		<tag k="ssr:type" v="adressenavn" />
	</node>
	<node id="-419649" lat="59.1253936502" lon="5.90516059686">
		<tag k="name" v="Hovda" />
		<tag k="ssr:date" v="2019-06-18" />
		<tag k="ssr:gruppe" v="veg" />
		<tag k="ssr:hovedgruppe" v="infrastruktur" />
		<tag k="ssr:stedsnr" v="1071960" />
		<tag k="ssr:type" v="adressenavn" />
	</node>
	<node id="-419648" lat="59.1373069885" lon="5.90051727549">
		<tag k="name" v="Fognavegen" />
		<tag k="ssr:date" v="2019-06-18" />
		<tag k="ssr:gruppe" v="veg" />
		<tag k="ssr:hovedgruppe" v="infrastruktur" />
		<tag k="ssr:stedsnr" v="1071959" />
		<tag k="ssr:type" v="adressenavn" />
	</node>
	<node id="-419936" lat="59.2505166636" lon="5.82293055731">
		<tag k="name" v="Stornes lanterne" />
		<tag k="ssr:date" v="2016-05-10" />
		<tag k="ssr:gruppe" v="navigasjon" />
		<tag k="ssr:hovedgruppe" v="infrastruktur" />
		<tag k="ssr:stedsnr" v="221614" />
		<tag k="ssr:type" v="lanterne" />
	</node>
	<node id="-420286" lat="59.1551972183" lon="5.95821111942">
		<tag k="name" v="Kråka lanterne" />
		<tag k="ssr:date" v="2016-05-10" />
		<tag k="ssr:gruppe" v="navigasjon" />
		<tag k="ssr:hovedgruppe" v="infrastruktur" />
		<tag k="ssr:stedsnr" v="647013" />
		<tag k="ssr:type" v="lanterne" />
	</node>
	<node id="-419935" lat="59.246033332" lon="5.82741945158">
		<tag k="name" v="Tjul varde" />
		<tag k="ssr:date" v="2016-05-10" />
		<tag k="ssr:gruppe" v="navigasjon" />
		<tag k="ssr:hovedgruppe" v="infrastruktur" />
		<tag k="ssr:stedsnr" v="221613" />
		<tag k="ssr:type" v="lanterne" />
	</node>
	<node id="-420662" lat="59.1035972212" lon="5.85868054821">
		<tag k="alt_name" v="Talgje" />
		<tag k="name" v="Talgje lykt" />
		<tag k="ssr:date" v="2016-05-11" />
		<tag k="ssr:gruppe" v="navigasjon" />
		<tag k="ssr:hovedgruppe" v="infrastruktur" />
		<tag k="ssr:stedsnr" v="912731" />
		<tag k="ssr:type" v="fyrlykt" />
	</node>
	<node id="-420361" lat="59.1297305555" lon="5.94596111811">
		<tag k="name" v="Sørvåggrunnen lanterne" />
		<tag k="ssr:date" v="2016-05-11" />
		<tag k="ssr:gruppe" v="navigasjon" />
		<tag k="ssr:hovedgruppe" v="infrastruktur" />
		<tag k="ssr:stedsnr" v="708006" />
		<tag k="ssr:type" v="lanterne" />
	</node>
	<node id="-419635" lat="59.1632138853" lon="5.97748333713">
		<tag k="name" v="Sjoarvegen" />
		<tag k="ssr:date" v="2019-05-31" />
		<tag k="ssr:gruppe" v="veg" />
		<tag k="ssr:hovedgruppe" v="infrastruktur" />
		<tag k="ssr:stedsnr" v="417273" />
		<tag k="ssr:type" v="vegstrekning" />
	</node>
	<node id="-420016" lat="59.2235916632" lon="5.83951389766">
		<tag k="alt_name" v="Helgøysund" />
		<tag k="name" v="Helgøysund lykt" />
		<tag k="ssr:date" v="2016-05-10" />
		<tag k="ssr:gruppe" v="navigasjon" />
		<tag k="ssr:hovedgruppe" v="infrastruktur" />
		<tag k="ssr:stedsnr" v="267845" />
		<tag k="ssr:type" v="fyrlykt" />
	</node>
	<node id="-420138" lat="59.1354277764" lon="5.89404166589">
		<tag k="name" v="Uppsahlholmen" />
		<tag k="ssr:date" v="2016-12-29" />
		<tag k="ssr:gruppe" v="navigasjon" />
		<tag k="ssr:hovedgruppe" v="infrastruktur" />
		<tag k="ssr:stedsnr" v="526017" />
		<tag k="ssr:type" v="lanterne" />
	</node>
	<node id="-420520" lat="59.135869444" lon="5.79875000152">
		<tag k="name" v="Navarskjeret lanterne" />
		<tag k="ssr:date" v="2016-12-30" />
		<tag k="ssr:gruppe" v="navigasjon" />
		<tag k="ssr:hovedgruppe" v="infrastruktur" />
		<tag k="ssr:stedsnr" v="830074" />
		<tag k="ssr:type" v="lanterne" />
	</node>
	<node id="-420517" lat="59.2454694489" lon="5.83962778557">
		<tag k="alt_name" v="Audbøneset lanterne" />
		<tag k="name" v="Aubøneset lanterne" />
		<tag k="ssr:date" v="2016-05-11" />
		<tag k="ssr:gruppe" v="navigasjon" />
		<tag k="ssr:hovedgruppe" v="infrastruktur" />
		<tag k="ssr:stedsnr" v="828620" />
		<tag k="ssr:type" v="lanterne" />
	</node>
	<node id="-420514" lat="59.0952416635" lon="5.87626667517">
		<tag k="name" v="Taade" />
		<tag k="ssr:date" v="2016-05-11" />
		<tag k="ssr:gruppe" v="navigasjon" />
		<tag k="ssr:hovedgruppe" v="infrastruktur" />
		<tag k="ssr:stedsnr" v="828424" />
		<tag k="ssr:type" v="lanterne" />
	</node>
	<node id="-419931" lat="59.2631499993" lon="5.84383610507">
		<tag k="name" v="Kalvanesgrunnen" />
		<tag k="ssr:date" v="2016-05-10" />
		<tag k="ssr:gruppe" v="navigasjon" />
		<tag k="ssr:hovedgruppe" v="infrastruktur" />
		<tag k="ssr:stedsnr" v="221341" />
		<tag k="ssr:type" v="lanterne" />
	</node>
	<node id="-420427" lat="59.1711861094" lon="5.87393889641">
		<tag k="loc_name" v="Finnøy" />
		<tag k="name" v="Finnøy kommune" />
		<tag k="ssr:date" v="2017-03-24" />
		<tag k="ssr:gruppe" v="administrativeIndelinger" />
		<tag k="ssr:hovedgruppe" v="offentligAdministrasjon" />
		<tag k="ssr:stedsnr" v="752843" />
		<tag k="ssr:type" v="kommune" />
	</node>
	<node id="-419862" lat="59.1594666681" lon="5.93415555083">
		<tag k="name" v="Torskjer" />
		<tag k="ssr:date" v="2016-05-10" />
		<tag k="ssr:gruppe" v="navigasjon" />
		<tag k="ssr:hovedgruppe" v="infrastruktur" />
		<tag k="ssr:stedsnr" v="162006" />
		<tag k="ssr:type" v="lanterne" />
	</node>
	<node id="-420569" lat="59.1546833342" lon="5.77244165957">
		<tag k="alt_name" v="Vignes" />
		<tag k="name" v="Vignes lykt" />
		<tag k="ssr:date" v="2016-05-11" />
		<tag k="ssr:gruppe" v="navigasjon" />
		<tag k="ssr:hovedgruppe" v="infrastruktur" />
		<tag k="ssr:stedsnr" v="851252" />
		<tag k="ssr:type" v="fyrlykt" />
	</node>
	<node id="-420115" lat="59.2744277764" lon="5.92482222977">
		<tag k="alt_name" v="Ombo" />
		<tag k="name" v="Ombo lykt" />
		<tag k="ssr:date" v="2016-05-10" />
		<tag k="ssr:gruppe" v="navigasjon" />
		<tag k="ssr:hovedgruppe" v="infrastruktur" />
		<tag k="ssr:stedsnr" v="487626" />
		<tag k="ssr:type" v="fyrlykt" />
	</node>
	<node id="-419602" lat="59.1554916706" lon="5.96959166987">
		<tag k="name" v="Skarveskjer" />
		<tag k="ssr:date" v="2016-12-29" />
		<tag k="ssr:gruppe" v="navigasjon" />
		<tag k="ssr:hovedgruppe" v="infrastruktur" />
		<tag k="ssr:stedsnr" v="404014" />
		<tag k="ssr:type" v="lanterne" />
	</node>
	<node id="-419536" lat="59.148808332" lon="5.95249721879">
		<tag k="name" v="Teistholmgrunnen lanterne" />
		<tag k="ssr:date" v="2016-05-10" />
		<tag k="ssr:gruppe" v="navigasjon" />
		<tag k="ssr:hovedgruppe" v="infrastruktur" />
		<tag k="ssr:stedsnr" v="344011" />
		<tag k="ssr:type" v="lanterne" />
	</node>
	<node id="-420439" lat="59.0979444448" lon="5.84945277403">
		<tag k="name" v="Gardsgrunnen" />
		<tag k="ssr:date" v="2016-12-30" />
		<tag k="ssr:gruppe" v="navigasjon" />
		<tag k="ssr:hovedgruppe" v="infrastruktur" />
		<tag k="ssr:stedsnr" v="769069" />
		<tag k="ssr:type" v="lanterne" />
	</node>
	<node id="-419463" lat="59.1203694406" lon="5.81453056017">
		<tag k="name" v="Langholmen lysbøye" />
		<tag k="ssr:date" v="2016-05-10" />
		<tag k="ssr:gruppe" v="navigasjon" />
		<tag k="ssr:hovedgruppe" v="infrastruktur" />
		<tag k="ssr:stedsnr" v="284129" />
		<tag k="ssr:type" v="lysbøye" />
	</node>
	<node id="-419462" lat="59.138386114" lon="5.82691667382">
		<tag k="name" v="Vardaneset lanterne" />
		<tag k="ssr:date" v="2016-12-29" />
		<tag k="ssr:gruppe" v="navigasjon" />
		<tag k="ssr:hovedgruppe" v="infrastruktur" />
		<tag k="ssr:stedsnr" v="284072" />
		<tag k="ssr:type" v="lanterne" />
	</node>
	<node id="-420356" lat="59.265655556" lon="5.84044444724">
		<tag k="name" v="Kyrkjøyna lanterne" />
		<tag k="ssr:date" v="2016-05-11" />
		<tag k="ssr:gruppe" v="navigasjon" />
		<tag k="ssr:hovedgruppe" v="infrastruktur" />
		<tag k="ssr:stedsnr" v="706337" />
		<tag k="ssr:type" v="lanterne" />
	</node>
	<node id="-420438" lat="59.1481805517" lon="5.97823332924">
		<tag k="name" v="Buøytangane lanterne" />
		<tag k="ssr:date" v="2016-05-11" />
		<tag k="ssr:gruppe" v="navigasjon" />
		<tag k="ssr:hovedgruppe" v="infrastruktur" />
		<tag k="ssr:stedsnr" v="768032" />
		<tag k="ssr:type" v="lanterne" />
	</node>
	<node id="-420610" lat="59.1317777743" lon="5.92684166481">
		<tag k="name" v="Runastadsvingen" />
		<tag k="ssr:date" v="2016-05-11" />
		<tag k="ssr:gruppe" v="veg" />
		<tag k="ssr:hovedgruppe" v="infrastruktur" />
		<tag k="ssr:stedsnr" v="903302" />
		<tag k="ssr:type" v="vegstrekning" />
	</node>
</osm>
