<?xml version="1.0" encoding="UTF-8"?>
<osm generator="osmapis" version="0.6">
	<node changeset="66626481" id="6235716694" lat="59.3726806" lon="10.828225" timestamp="2019-01-25T10:01:41Z" uid="633013" user="Honning" version="1">
		<tag k="name" v="Engene" />
		<tag k="place" v="farm" />
		<tag k="ssr:stedsnr" v="731234" />
	</node>
	<node changeset="66626481" id="6235716695" lat="59.3242111" lon="10.8726694" timestamp="2019-01-25T10:01:42Z" uid="633013" user="Honning" version="1">
		<tag k="alt_name" v="Berg;Berg østre" />
		<tag k="name" v="Østre Berg" />
		<tag k="place" v="farm" />
		<tag k="ssr:stedsnr" v="731396" />
	</node>
	<node changeset="66626481" id="6235716696" lat="59.340775" lon="10.9231361" timestamp="2019-01-25T10:01:42Z" uid="633013" user="Honning" version="1">
		<tag k="name" v="Borgedalen" />
		<tag k="place" v="farm" />
		<tag k="ssr:stedsnr" v="786199" />
	</node>
	<node changeset="66626481" id="6235716697" lat="59.34795" lon="10.8444111" timestamp="2019-01-25T10:01:42Z" uid="633013" user="Honning" version="1">
		<tag k="name" v="Kjellerød" />
		<tag k="place" v="farm" />
		<tag k="ssr:stedsnr" v="786380" />
	</node>
	<node changeset="66626481" id="6235716698" lat="59.3518056" lon="10.8359333" timestamp="2019-01-25T10:01:42Z" uid="633013" user="Honning" version="1">
		<tag k="name" v="Elvestad" />
		<tag k="place" v="farm" />
		<tag k="ssr:stedsnr" v="786382" />
	</node>
	<node changeset="66626481" id="6235716699" lat="59.3173972" lon="10.921675" timestamp="2019-01-25T10:01:42Z" uid="633013" user="Honning" version="1">
		<tag k="name" v="Hovland" />
		<tag k="place" v="farm" />
		<tag k="ssr:stedsnr" v="786773" />
	</node>
	<node changeset="66626481" id="281329188" lat="59.2904353" lon="10.7548338" timestamp="2019-01-25T10:01:49Z" uid="633013" user="Honning" version="6">
		<tag k="name" v="Saltnes" />
		<tag k="place" v="village" />
		<tag k="ssr:stedsnr" v="853401" />
	</node>
	<node changeset="67100427" id="6271664678" lat="59.3218694" lon="10.7833861" timestamp="2019-02-11T13:29:54Z" uid="633013" user="Honning" version="1">
		<tag k="name" v="Lårbu" />
		<tag k="place" v="farm" />
		<tag k="ssr:stedsnr" v="906531" />
	</node>
	<node changeset="66626481" id="6235716700" lat="59.35655" lon="10.8338278" timestamp="2019-01-25T10:01:42Z" uid="633013" user="Honning" version="1">
		<tag k="alt_name" v="Jonstein" />
		<tag k="name" v="Jonsten" />
		<tag k="place" v="farm" />
		<tag k="ssr:stedsnr" v="791259" />
	</node>
	<node changeset="66626481" id="6235716701" lat="59.3600194" lon="10.8535111" timestamp="2019-01-25T10:01:42Z" uid="633013" user="Honning" version="1">
		<tag k="name" v="Burumbråten" />
		<tag k="place" v="farm" />
		<tag k="ssr:stedsnr" v="791260" />
	</node>
	<node changeset="66626481" id="6235716702" lat="59.3231583" lon="10.7627472" timestamp="2019-01-25T10:01:42Z" uid="633013" user="Honning" version="1">
		<tag k="name" v="Fuglevik" />
		<tag k="place" v="hamlet" />
		<tag k="ssr:stedsnr" v="791426" />
	</node>
	<node changeset="66626481" id="6235715642" lat="59.3721833" lon="10.9518083" timestamp="2019-01-25T10:01:39Z" uid="633013" user="Honning" version="1">
		<tag k="name" v="Leiedalen" />
		<tag k="place" v="farm" />
		<tag k="ssr:stedsnr" v="488243" />
	</node>
	<node changeset="66626481" id="6235715643" lat="59.3709861" lon="10.9355583" timestamp="2019-01-25T10:01:39Z" uid="633013" user="Honning" version="1">
		<tag k="name" v="Bjørndalen" />
		<tag k="place" v="locality" />
		<tag k="ssr:stedsnr" v="488254" />
	</node>
	<node changeset="66626481" id="6235715644" lat="59.3248667" lon="10.8857472" timestamp="2019-01-25T10:01:39Z" uid="633013" user="Honning" version="1">
		<tag k="name" v="Enebekk" />
		<tag k="place" v="hamlet" />
		<tag k="ssr:stedsnr" v="488399" />
	</node>
	<node changeset="66626481" id="6235715645" lat="59.3161139" lon="10.7661639" timestamp="2019-01-25T10:01:39Z" uid="633013" user="Honning" version="1">
		<tag k="alt_name" v="Røstad store" />
		<tag k="name" v="Store Røstad" />
		<tag k="place" v="farm" />
		<tag k="ssr:stedsnr" v="541568" />
	</node>
	<node changeset="66626481" id="6235715646" lat="59.3611962" lon="10.8242484" timestamp="2019-01-25T10:01:39Z" uid="633013" user="Honning" version="1">
		<tag k="alt_name" v="Haugesten" />
		<tag k="name" v="Øvre Haugsten" />
		<tag k="place" v="farm" />
		<tag k="ssr:stedsnr" v="542944" />
	</node>
	<node changeset="66626481" id="6235715647" lat="59.3574583" lon="10.8567861" timestamp="2019-01-25T10:01:39Z" uid="633013" user="Honning" version="1">
		<tag k="name" v="Burummyra" />
		<tag k="place" v="farm" />
		<tag k="ssr:stedsnr" v="543276" />
	</node>
	<node changeset="66626481" id="6235715648" lat="59.3474889" lon="10.8934583" timestamp="2019-01-25T10:01:39Z" uid="633013" user="Honning" version="1">
		<tag k="name" v="Klokkergården" />
		<tag k="place" v="farm" />
		<tag k="ssr:stedsnr" v="543398" />
	</node>
	<node changeset="66626481" id="6235715649" lat="59.3548833" lon="10.943425" timestamp="2019-01-25T10:01:39Z" uid="633013" user="Honning" version="1">
		<tag k="alt_name" v="Slangsvoll søndre" />
		<tag k="name" v="Søndre Slangsvoll" />
		<tag k="place" v="farm" />
		<tag k="ssr:stedsnr" v="543588" />
	</node>
	<node changeset="66626481" id="6235715650" lat="59.3581639" lon="10.7763361" timestamp="2019-01-25T10:01:39Z" uid="633013" user="Honning" version="1">
		<tag k="name" v="Solberg" />
		<tag k="place" v="farm" />
		<tag k="ssr:stedsnr" v="548263" />
	</node>
	<node changeset="66626481" id="6235715651" lat="59.382625" lon="10.9712472" timestamp="2019-01-25T10:01:39Z" uid="633013" user="Honning" version="1">
		<tag k="alt_name" v="Slangsvold" />
		<tag k="name" v="Slangsvoll" />
		<tag k="place" v="farm" />
		<tag k="ssr:stedsnr" v="548314" />
	</node>
	<node changeset="66626481" id="6235715652" lat="59.32365" lon="10.8982083" timestamp="2019-01-25T10:01:39Z" uid="633013" user="Honning" version="1">
		<tag k="name" v="Solvang" />
		<tag k="place" v="farm" />
		<tag k="ssr:stedsnr" v="548438" />
	</node>
	<node changeset="66626481" id="6235715653" lat="59.311925" lon="10.7349389" timestamp="2019-01-25T10:01:39Z" uid="633013" user="Honning" version="1">
		<tag k="name" v="Åven" />
		<tag k="place" v="farm" />
		<tag k="ssr:stedsnr" v="548443" />
	</node>
	<node changeset="66626481" id="6235715654" lat="59.3311472" lon="10.88555" timestamp="2019-01-25T10:01:39Z" uid="633013" user="Honning" version="1">
		<tag k="name" v="Haugen" />
		<tag k="place" v="farm" />
		<tag k="ssr:stedsnr" v="548468" />
	</node>
	<node changeset="66626481" id="6235715655" lat="59.3365083" lon="10.9280639" timestamp="2019-01-25T10:01:39Z" uid="633013" user="Honning" version="1">
		<tag k="name" v="Missingen" />
		<tag k="place" v="farm" />
		<tag k="ssr:stedsnr" v="548487" />
	</node>
	<node changeset="66626481" id="6235715656" lat="59.3130111" lon="10.9072639" timestamp="2019-01-25T10:01:39Z" uid="633013" user="Honning" version="1">
		<tag k="alt_name" v="Reklingsholm vestre" />
		<tag k="name" v="Vestre Reklingsholm" />
		<tag k="place" v="farm" />
		<tag k="ssr:stedsnr" v="602890" />
	</node>
	<node changeset="66626481" id="6235715657" lat="59.3603083" lon="10.7903639" timestamp="2019-01-25T10:01:39Z" uid="633013" user="Honning" version="1">
		<tag k="name" v="Stomner" />
		<tag k="place" v="farm" />
		<tag k="ssr:stedsnr" v="602932" />
	</node>
	<node changeset="66626481" id="6235715658" lat="59.3157472" lon="10.8564778" timestamp="2019-01-25T10:01:39Z" uid="633013" user="Honning" version="1">
		<tag k="name" v="Hissingbydalen" />
		<tag k="place" v="locality" />
		<tag k="ssr:stedsnr" v="603815" />
	</node>
	<node changeset="66626481" id="6235715659" lat="59.3533639" lon="10.9201833" timestamp="2019-01-25T10:01:40Z" uid="633013" user="Honning" version="1">
		<tag k="name" v="Hukeberg" />
		<tag k="place" v="farm" />
		<tag k="ssr:stedsnr" v="608236" />
	</node>
	<node changeset="66626481" id="6235715660" lat="59.2991833" lon="10.7746472" timestamp="2019-01-25T10:01:40Z" uid="633013" user="Honning" version="1">
		<tag k="name" v="Spetalen" />
		<tag k="place" v="farm" />
		<tag k="ssr:stedsnr" v="608400" />
	</node>
	<node changeset="66626481" id="6235715661" lat="59.341325" lon="10.774975" timestamp="2019-01-25T10:01:40Z" uid="633013" user="Honning" version="1">
		<tag k="name" v="Gammelsrød" />
		<tag k="place" v="hamlet" />
		<tag k="ssr:stedsnr" v="608496" />
	</node>
	<node changeset="66626481" id="6235715662" lat="59.3402556" lon="10.7841222" timestamp="2019-01-25T10:01:40Z" uid="633013" user="Honning" version="1">
		<tag k="alt_name" v="Brånan" />
		<tag k="name" v="Brånen" />
		<tag k="place" v="farm" />
		<tag k="ssr:stedsnr" v="608501" />
	</node>
	<node changeset="66626481" id="6235716687" lat="59.3353472" lon="10.9390389" timestamp="2019-01-25T10:01:41Z" uid="633013" user="Honning" version="1">
		<tag k="name" v="Gyllerås" />
		<tag k="place" v="isolated_dwelling" />
		<tag k="ssr:stedsnr" v="725747" />
	</node>
	<node changeset="66626481" id="6235716688" lat="59.332525" lon="10.8734583" timestamp="2019-01-25T10:01:41Z" uid="633013" user="Honning" version="1">
		<tag k="name" v="Augeberg" />
		<tag k="place" v="farm" />
		<tag k="ssr:stedsnr" v="730486" />
	</node>
	<node changeset="66626481" id="6235715665" lat="59.2922306" lon="10.9191472" timestamp="2019-01-25T10:01:40Z" uid="633013" user="Honning" version="1">
		<tag k="alt_name" v="Kjelshus" />
		<tag k="name" v="Kjelshuset" />
		<tag k="place" v="isolated_dwelling" />
		<tag k="ssr:stedsnr" v="609386" />
	</node>
	<node changeset="66626481" id="6235715666" lat="59.3158861" lon="10.7664972" timestamp="2019-01-25T10:01:40Z" uid="633013" user="Honning" version="1">
		<tag k="name" v="Røstad" />
		<tag k="place" v="hamlet" />
		<tag k="ssr:stedsnr" v="609419" />
	</node>
	<node changeset="66626481" id="6235715667" lat="59.3316917" lon="10.8263" timestamp="2019-01-25T10:01:40Z" uid="633013" user="Honning" version="1">
		<tag k="name" v="Kolbjørnrød" />
		<tag k="place" v="farm" />
		<tag k="ssr:stedsnr" v="609440" />
	</node>
	<node changeset="66626481" id="6235715668" lat="59.3474917" lon="10.9209639" timestamp="2019-01-25T10:01:40Z" uid="633013" user="Honning" version="1">
		<tag k="alt_name" v="Bråten" />
		<tag k="name" v="Borgebråten" />
		<tag k="old_name" v="Braaten" />
		<tag k="place" v="farm" />
		<tag k="ssr:stedsnr" v="660082" />
	</node>
	<node changeset="66626481" id="6235715669" lat="59.3349278" lon="10.8063639" timestamp="2019-01-25T10:01:40Z" uid="633013" user="Honning" version="1">
		<tag k="name" v="Haga" />
		<tag k="place" v="farm" />
		<tag k="ssr:stedsnr" v="663493" />
	</node>
	<node changeset="66626481" id="6235715670" lat="59.368425" lon="10.7996639" timestamp="2019-01-25T10:01:40Z" uid="633013" user="Honning" version="1">
		<tag k="name" v="Løkenbråten" />
		<tag k="place" v="farm" />
		<tag k="ssr:stedsnr" v="663890" />
	</node>
	<node changeset="66626481" id="6235715671" lat="59.3504694" lon="10.7932945" timestamp="2019-01-25T10:01:40Z" uid="633013" user="Honning" version="1">
		<tag k="name" v="Røstad" />
		<tag k="place" v="farm" />
		<tag k="ssr:stedsnr" v="663929" />
	</node>
	<node changeset="66626481" id="6235715672" lat="59.3700722" lon="10.9560861" timestamp="2019-01-25T10:01:40Z" uid="633013" user="Honning" version="1">
		<tag k="name" v="Slangsvoll" />
		<tag k="place" v="farm" />
		<tag k="ssr:stedsnr" v="664542" />
	</node>
	<node changeset="66626481" id="6235715673" lat="59.3204" lon="10.8150083" timestamp="2019-01-25T10:01:40Z" uid="633013" user="Honning" version="1">
		<tag k="name" v="Tom" />
		<tag k="place" v="farm" />
		<tag k="ssr:stedsnr" v="665296" />
	</node>
	<node changeset="66626481" id="6235715674" lat="59.3592028" lon="10.8521472" timestamp="2019-01-25T10:01:40Z" uid="633013" user="Honning" version="1">
		<tag k="name" v="Ringstad" />
		<tag k="place" v="farm" />
		<tag k="ssr:stedsnr" v="669240" />
	</node>
	<node changeset="66626481" id="6235715675" lat="59.29405" lon="10.7925833" timestamp="2019-01-25T10:01:40Z" uid="633013" user="Honning" version="1">
		<tag k="name" v="Røtne" />
		<tag k="place" v="farm" />
		<tag k="ssr:stedsnr" v="669389" />
	</node>
	<node changeset="66626481" id="6235715676" lat="59.3054667" lon="10.810525" timestamp="2019-01-25T10:01:40Z" uid="633013" user="Honning" version="1">
		<tag k="name" v="Solbakken" />
		<tag k="place" v="farm" />
		<tag k="ssr:stedsnr" v="669428" />
	</node>
	<node changeset="66626481" id="6235715677" lat="59.3383556" lon="10.8406222" timestamp="2019-01-25T10:01:41Z" uid="633013" user="Honning" version="1">
		<tag k="alt_name" v="Årneberg" />
		<tag k="name" v="Arneberg" />
		<tag k="place" v="farm" />
		<tag k="ssr:stedsnr" v="669497" />
	</node>
	<node changeset="66626481" id="6235715678" lat="59.3496611" lon="10.887625" timestamp="2019-01-25T10:01:41Z" uid="633013" user="Honning" version="1">
		<tag k="name" v="Raet" />
		<tag k="place" v="farm" />
		<tag k="ssr:stedsnr" v="669514" />
	</node>
	<node changeset="66626481" id="4335692895" lat="59.3076278" lon="10.8667667" timestamp="2019-01-25T10:01:51Z" uid="633013" user="Honning" version="2">
		<tag k="alt_name" v="Kil midtre;Kil mellem" />
		<tag k="name" v="Midtre Kil" />
		<tag k="place" v="farm" />
		<tag k="ssr:stedsnr" v="669425" />
	</node>
	<node changeset="66626481" id="6235715680" lat="59.3759694" lon="10.9018028" timestamp="2019-01-25T10:01:41Z" uid="633013" user="Honning" version="1">
		<tag k="name" v="Kilen" />
		<tag k="place" v="farm" />
		<tag k="ssr:stedsnr" v="670280" />
	</node>
	<node changeset="66626481" id="6235715681" lat="59.3159333" lon="10.7952111" timestamp="2019-01-25T10:01:41Z" uid="633013" user="Honning" version="1">
		<tag k="name" v="Hestevoll" />
		<tag k="place" v="hamlet" />
		<tag k="ssr:stedsnr" v="670424" />
	</node>
	<node changeset="66626481" id="6235715682" lat="59.312779" lon="10.9092727" timestamp="2019-01-25T10:01:41Z" uid="633013" user="Honning" version="1">
		<tag k="name" v="Reklingsholm" />
		<tag k="place" v="hamlet" />
		<tag k="ssr:stedsnr" v="670425" />
	</node>
	<node changeset="66626481" id="6235715683" lat="59.303875" lon="10.7724167" timestamp="2019-01-25T10:01:41Z" uid="633013" user="Honning" version="1">
		<tag k="name" v="Agnes" />
		<tag k="place" v="farm" />
		<tag k="ssr:stedsnr" v="725191" />
	</node>
	<node changeset="66626481" id="6235715684" lat="59.3508833" lon="10.9003306" timestamp="2019-01-25T10:01:41Z" uid="633013" user="Honning" version="1">
		<tag k="name" v="Nordby" />
		<tag k="place" v="farm" />
		<tag k="ssr:stedsnr" v="725346" />
	</node>
	<node changeset="66626481" id="6235716709" lat="59.3390833" lon="10.9222139" timestamp="2019-01-25T10:01:42Z" uid="633013" user="Honning" version="1">
		<tag k="name" v="Dalen" />
		<tag k="place" v="farm" />
		<tag k="ssr:stedsnr" v="847230" />
	</node>
	<node changeset="66626481" id="6235716710" lat="59.3513806" lon="10.8355583" timestamp="2019-01-25T10:01:42Z" uid="633013" user="Honning" version="1">
		<tag k="alt_name" v="Elvestad søndre" />
		<tag k="name" v="Søndre Elvestad" />
		<tag k="place" v="farm" />
		<tag k="ssr:stedsnr" v="847397" />
	</node>
	<node changeset="66626481" id="6235716712" lat="59.3370917" lon="10.9575833" timestamp="2019-01-25T10:01:42Z" uid="633013" user="Honning" version="1">
		<tag k="name" v="Grepet" />
		<tag k="place" v="farm" />
		<tag k="ssr:stedsnr" v="847581" />
	</node>
	<node changeset="66626481" id="6235716713" lat="59.3258528" lon="10.89445" timestamp="2019-01-25T10:01:43Z" uid="633013" user="Honning" version="1">
		<tag k="name" v="Granly" />
		<tag k="place" v="farm" />
		<tag k="ssr:stedsnr" v="847787" />
	</node>
	<node changeset="66626481" id="6235716715" lat="59.3038028" lon="10.7964194" timestamp="2019-01-25T10:01:43Z" uid="633013" user="Honning" version="1">
		<tag k="name" v="Holmebråten" />
		<tag k="place" v="farm" />
		<tag k="ssr:stedsnr" v="852408" />
	</node>
	<node changeset="66626481" id="4335692908" lat="59.3031528" lon="10.8619194" timestamp="2019-01-25T10:01:51Z" uid="633013" user="Honning" version="2">
		<tag k="alt_name" v="Kil vestre" />
		<tag k="name" v="Vestre Kil" />
		<tag k="place" v="farm" />
		<tag k="ssr:stedsnr" v="366425" />
	</node>
	<node changeset="66626481" id="6235716717" lat="59.338" lon="10.7643306" timestamp="2019-01-25T10:01:43Z" uid="633013" user="Honning" version="1">
		<tag k="alt_name" v="Tasken nordre" />
		<tag k="name" v="Nordre Tasken" />
		<tag k="place" v="farm" />
		<tag k="ssr:stedsnr" v="906917" />
	</node>
	<node changeset="66626481" id="6235716718" lat="59.3259639" lon="10.9303833" timestamp="2019-01-25T10:01:43Z" uid="633013" user="Honning" version="1">
		<tag k="name" v="Ileby" />
		<tag k="place" v="farm" />
		<tag k="ssr:stedsnr" v="907736" />
	</node>
	<node changeset="66626481" id="6235716719" lat="59.3404667" lon="10.8821278" timestamp="2019-01-25T10:01:43Z" uid="633013" user="Honning" version="1">
		<tag k="name" v="Lunder" />
		<tag k="place" v="farm" />
		<tag k="ssr:stedsnr" v="912505" />
	</node>
	<node changeset="66626481" id="6235716721" lat="59.3458" lon="10.7655556" timestamp="2019-01-25T10:01:43Z" uid="633013" user="Honning" version="1">
		<tag k="alt_name" v="Viersholm" />
		<tag k="name" v="Viersholmen" />
		<tag k="place" v="farm" />
		<tag k="ssr:stedsnr" v="912517" />
	</node>
	<node changeset="66626481" id="6235716722" lat="59.3172306" lon="10.7713472" timestamp="2019-01-25T10:01:43Z" uid="633013" user="Honning" version="1">
		<tag k="name" v="Solsletta" />
		<tag k="place" v="isolated_dwelling" />
		<tag k="ssr:stedsnr" v="913417" />
	</node>
	<node changeset="66626481" id="6235716723" lat="59.3343139" lon="10.8008278" timestamp="2019-01-25T10:01:43Z" uid="633013" user="Honning" version="1">
		<tag k="alt_name" v="Åker" />
		<tag k="name" v="Aker" />
		<tag k="place" v="hamlet" />
		<tag k="ssr:stedsnr" v="913434" />
	</node>
	<node changeset="66626481" id="6235716724" lat="59.3255556" lon="10.8064472" timestamp="2019-01-25T10:01:43Z" uid="633013" user="Honning" version="1">
		<tag k="alt_name" v="Hauga;Krokstad" />
		<tag k="name" v="Haga" />
		<tag k="place" v="farm" />
		<tag k="ssr:stedsnr" v="913441" />
	</node>
	<node changeset="66626481" id="6235716725" lat="59.3452833" lon="10.9366333" timestamp="2019-01-25T10:01:43Z" uid="633013" user="Honning" version="1">
		<tag k="name" v="Missingmyr" />
		<tag k="place" v="neighbourhood" />
		<tag k="ssr:stedsnr" v="935075" />
	</node>
	<node changeset="66626481" id="6235716726" lat="59.3193694" lon="10.9035972" timestamp="2019-01-25T10:01:43Z" uid="633013" user="Honning" version="1">
		<tag k="alt_name" v="Tofteberg vestre" />
		<tag k="name" v="Vestre Tofteberg" />
		<tag k="place" v="farm" />
		<tag k="ssr:stedsnr" v="968785" />
	</node>
	<node changeset="66626481" id="6235716727" lat="59.3481472" lon="10.8859472" timestamp="2019-01-25T10:01:43Z" uid="633013" user="Honning" version="1">
		<tag k="name" v="Roe" />
		<tag k="place" v="farm" />
		<tag k="ssr:stedsnr" v="289401" />
	</node>
	<node changeset="66626481" id="6235716728" lat="59.3397472" lon="10.7707861" timestamp="2019-01-25T10:01:43Z" uid="633013" user="Honning" version="1">
		<tag k="alt_name" v="Gammelsrød søndre" />
		<tag k="name" v="Søndre Gammelsrød" />
		<tag k="place" v="farm" />
		<tag k="ssr:stedsnr" v="299922" />
	</node>
	<node changeset="66626481" id="6235716729" lat="59.3494833" lon="10.7759694" timestamp="2019-01-25T10:01:43Z" uid="633013" user="Honning" version="1">
		<tag k="name" v="Heia" />
		<tag k="place" v="locality" />
		<tag k="ssr:stedsnr" v="299924" />
	</node>
	<node changeset="66626481" id="6235716730" lat="59.3487306" lon="10.7600667" timestamp="2019-01-25T10:01:43Z" uid="633013" user="Honning" version="1">
		<tag k="name" v="Tyggelite" />
		<tag k="place" v="farm" />
		<tag k="ssr:stedsnr" v="300214" />
	</node>
	<node changeset="66626481" id="6235716731" lat="59.36225" lon="10.9518167" timestamp="2019-01-25T10:01:44Z" uid="633013" user="Honning" version="1">
		<tag k="name" v="Engen" />
		<tag k="place" v="farm" />
		<tag k="ssr:stedsnr" v="300574" />
	</node>
	<node changeset="66626481" id="6235716732" lat="59.3050556" lon="10.7860472" timestamp="2019-01-25T10:01:44Z" uid="633013" user="Honning" version="1">
		<tag k="name" v="Andersrød" />
		<tag k="place" v="hamlet" />
		<tag k="ssr:stedsnr" v="305433" />
	</node>
	<node changeset="66626481" id="6235716733" lat="59.3339056" lon="10.9310917" timestamp="2019-01-25T10:01:44Z" uid="633013" user="Honning" version="1">
		<tag k="name" v="Åkeberg" />
		<tag k="place" v="hamlet" />
		<tag k="ssr:stedsnr" v="305509" />
	</node>
	<node changeset="66626481" id="6235716734" lat="59.3410333" lon="10.9559444" timestamp="2019-01-25T10:01:44Z" uid="633013" user="Honning" version="1">
		<tag k="name" v="Åkebergbråten" />
		<tag k="place" v="farm" />
		<tag k="ssr:stedsnr" v="305511" />
	</node>
	<node changeset="66626481" id="6235716735" lat="59.3457889" lon="10.7861528" timestamp="2019-01-25T10:01:44Z" uid="633013" user="Honning" version="1">
		<tag k="name" v="Myra" />
		<tag k="place" v="farm" />
		<tag k="ssr:stedsnr" v="305519" />
	</node>
	<node changeset="66626481" id="6235716736" lat="59.3499194" lon="10.9347861" timestamp="2019-01-25T10:01:44Z" uid="633013" user="Honning" version="1">
		<tag k="name" v="Lund" />
		<tag k="place" v="farm" />
		<tag k="ssr:stedsnr" v="305527" />
	</node>
	<node changeset="66626481" id="6235716737" lat="59.3632861" lon="10.8719722" timestamp="2019-01-25T10:01:44Z" uid="633013" user="Honning" version="1">
		<tag k="alt_name" v="Starengen" />
		<tag k="name" v="Starenga" />
		<tag k="place" v="farm" />
		<tag k="ssr:stedsnr" v="306245" />
	</node>
	<node changeset="66626481" id="6235716738" lat="59.3050889" lon="10.7234361" timestamp="2019-01-25T10:01:44Z" uid="633013" user="Honning" version="1">
		<tag k="name" v="Åventangen" />
		<tag k="place" v="isolated_dwelling" />
		<tag k="ssr:stedsnr" v="306400" />
	</node>
	<node changeset="66626481" id="6235716739" lat="59.3193111" lon="10.90405" timestamp="2019-01-25T10:01:44Z" uid="633013" user="Honning" version="1">
		<tag k="name" v="Tofteberg" />
		<tag k="place" v="hamlet" />
		<tag k="ssr:stedsnr" v="306411" />
	</node>
	<node changeset="66626481" id="6235716740" lat="59.3277167" lon="10.7577333" timestamp="2019-01-25T10:01:44Z" uid="633013" user="Honning" version="1">
		<tag k="name" v="Helgerød" />
		<tag k="place" v="farm" />
		<tag k="ssr:stedsnr" v="306433" />
	</node>
	<node changeset="66626481" id="6235716741" lat="59.3333083" lon="10.7758833" timestamp="2019-01-25T10:01:44Z" uid="633013" user="Honning" version="1">
		<tag k="name" v="Holer" />
		<tag k="place" v="farm" />
		<tag k="ssr:stedsnr" v="306434" />
	</node>
	<node changeset="66626481" id="6235716742" lat="59.3302444" lon="10.8235" timestamp="2019-01-25T10:01:44Z" uid="633013" user="Honning" version="1">
		<tag k="name" v="Sønsterød" />
		<tag k="place" v="farm" />
		<tag k="ssr:stedsnr" v="306440" />
	</node>
	<node changeset="66626481" id="6235716743" lat="59.3215111" lon="10.8007167" timestamp="2019-01-25T10:01:44Z" uid="633013" user="Honning" version="1">
		<tag k="name" v="Bua" />
		<tag k="place" v="farm" />
		<tag k="ssr:stedsnr" v="331815" />
	</node>
	<node changeset="66626481" id="6235716744" lat="59.3594028" lon="10.8266139" timestamp="2019-01-25T10:01:44Z" uid="633013" user="Honning" version="1">
		<tag k="alt_name" v="Haug øvre" />
		<tag k="name" v="Øvre Haug" />
		<tag k="place" v="farm" />
		<tag k="ssr:stedsnr" v="359923" />
	</node>
	<node changeset="66626481" id="6235716716" lat="59.3391806" lon="10.8257167" timestamp="2019-01-25T10:01:43Z" uid="633013" user="Honning" version="1">
		<tag k="name" v="Løkka" />
		<tag k="place" v="farm" />
		<tag k="ssr:stedsnr" v="852472" />
	</node>
	<node changeset="66626481" id="6235716746" lat="59.3334944" lon="10.9307945" timestamp="2019-01-25T10:01:44Z" uid="633013" user="Honning" version="1">
		<tag k="alt_name" v="Åkeberg østre" />
		<tag k="name" v="Østre Åkeberg" />
		<tag k="place" v="farm" />
		<tag k="ssr:stedsnr" v="361788" />
	</node>
	<node changeset="66626481" id="6235716747" lat="59.3517" lon="10.9276528" timestamp="2019-01-25T10:01:44Z" uid="633013" user="Honning" version="1">
		<tag k="alt_name" v="Skaugen" />
		<tag k="name" v="Skogen" />
		<tag k="place" v="farm" />
		<tag k="ssr:stedsnr" v="366245" />
	</node>
	<node changeset="66626481" id="6235716748" lat="59.3573306" lon="10.8807389" timestamp="2019-01-25T10:01:44Z" uid="633013" user="Honning" version="1">
		<tag k="building" v="industrial" />
		<tag k="industrial" v="factory" />
		<tag k="name" v="Karlshus bruk" />
		<tag k="ssr:stedsnr" v="366251" />
	</node>
	<node changeset="66626481" id="6235716749" lat="59.3541534" lon="10.815948" timestamp="2019-01-25T10:01:45Z" uid="633013" user="Honning" version="1">
		<tag k="name" v="Haug" />
		<tag k="place" v="hamlet" />
		<tag k="ssr:stedsnr" v="366261" />
	</node>
	<node changeset="66626481" id="6235716750" lat="59.3691245" lon="10.8302136" timestamp="2019-01-25T10:01:45Z" uid="633013" user="Honning" version="1">
		<tag k="name" v="Haugstenstøa" />
		<tag k="place" v="farm" />
		<tag k="ssr:stedsnr" v="366267" />
	</node>
	<node changeset="66626481" id="6235716751" lat="59.3864583" lon="10.914875" timestamp="2019-01-25T10:01:45Z" uid="633013" user="Honning" version="1">
		<tag k="name" v="Bjørkå" />
		<tag k="place" v="farm" />
		<tag k="ssr:stedsnr" v="366295" />
	</node>
	<node changeset="66626481" id="6235716752" lat="59.3046306" lon="10.8200028" timestamp="2019-01-25T10:01:45Z" uid="633013" user="Honning" version="1">
		<tag k="alt_name" v="Jerndalen" />
		<tag k="name" v="Jerndal" />
		<tag k="place" v="farm" />
		<tag k="ssr:stedsnr" v="366423" />
	</node>
	<node changeset="66626481" id="6235716753" lat="59.3102611" lon="10.7858639" timestamp="2019-01-25T10:01:45Z" uid="633013" user="Honning" version="1">
		<tag k="name" v="Holme" />
		<tag k="place" v="farm" />
		<tag k="ssr:stedsnr" v="366442" />
	</node>
	<node changeset="66697739" id="6235716754" lat="59.3268389" lon="10.935775" timestamp="2019-01-28T08:26:37Z" uid="633013" user="Honning" version="2">
		<tag k="name" v="Jørsø" />
		<tag k="place" v="farm" />
		<tag k="ssr:stedsnr" v="366452" />
	</node>
	<node changeset="66626481" id="6235716756" lat="59.3051722" lon="10.7853944" timestamp="2019-01-25T10:01:45Z" uid="633013" user="Honning" version="1">
		<tag k="name" v="Andersrød" />
		<tag k="place" v="farm" />
		<tag k="ssr:stedsnr" v="299545" />
	</node>
	<node changeset="66626481" id="6235716757" lat="59.3079444" lon="10.779075" timestamp="2019-01-25T10:01:45Z" uid="633013" user="Honning" version="1">
		<tag k="name" v="Makrellrød" />
		<tag k="place" v="hamlet" />
		<tag k="ssr:stedsnr" v="663496" />
	</node>
	<node changeset="66626481" id="6235716758" lat="59.2951389" lon="10.7735056" timestamp="2019-01-25T10:01:45Z" uid="633013" user="Honning" version="1">
		<tag k="name" v="Andersrød" />
		<tag k="place" v="farm" />
		<tag k="ssr:stedsnr" v="56546" />
	</node>
	<node changeset="66626481" id="6235716759" lat="59.2979944" lon="10.784825" timestamp="2019-01-25T10:01:45Z" uid="633013" user="Honning" version="1">
		<tag k="name" v="Andersrød" />
		<tag k="place" v="farm" />
		<tag k="ssr:stedsnr" v="117546" />
	</node>
	<node changeset="66626481" id="6235716760" lat="59.3014111" lon="10.7832833" timestamp="2019-01-25T10:01:45Z" uid="633013" user="Honning" version="1">
		<tag k="name" v="Andersrød" />
		<tag k="place" v="farm" />
		<tag k="ssr:stedsnr" v="784558" />
	</node>
	<node changeset="66626481" id="6235716761" lat="59.3570833" lon="10.7897194" timestamp="2019-01-25T10:01:45Z" uid="633013" user="Honning" version="1">
		<tag k="name" v="Stomner" />
		<tag k="place" v="farm" />
		<tag k="ssr:stedsnr" v="2269" />
	</node>
	<node changeset="66626481" id="6235716762" lat="59.3607098" lon="10.8226982" timestamp="2019-01-25T10:01:45Z" uid="633013" user="Honning" version="1">
		<tag k="name" v="Haugsten" />
		<tag k="place" v="hamlet" />
		<tag k="ssr:stedsnr" v="2272" />
	</node>
	<node changeset="66626481" id="6235716763" lat="59.3750694" lon="10.9226833" timestamp="2019-01-25T10:01:45Z" uid="633013" user="Honning" version="1">
		<tag k="name" v="Gillingsrød" />
		<tag k="place" v="hamlet" />
		<tag k="ssr:stedsnr" v="2309" />
	</node>
	<node changeset="66626481" id="6235716764" lat="59.3218667" lon="10.9383222" timestamp="2019-01-25T10:01:45Z" uid="633013" user="Honning" version="1">
		<tag k="name" v="Finstad" />
		<tag k="place" v="farm" />
		<tag k="ssr:stedsnr" v="2452" />
	</node>
	<node changeset="66626481" id="4335692058" lat="59.3386083" lon="10.8626667" timestamp="2019-01-25T10:01:51Z" uid="633013" user="Honning" version="2">
		<tag k="name" v="Strømnes" />
		<tag k="place" v="farm" />
		<tag k="ssr:stedsnr" v="427492" />
	</node>
	<node changeset="66626481" id="6235716766" lat="59.3347583" lon="10.8314944" timestamp="2019-01-25T10:01:45Z" uid="633013" user="Honning" version="1">
		<tag k="name" v="Ringsrød" />
		<tag k="place" v="farm" />
		<tag k="ssr:stedsnr" v="2489" />
	</node>
	<node changeset="66626481" id="6235716767" lat="59.3435066" lon="10.8021973" timestamp="2019-01-25T10:01:45Z" uid="633013" user="Honning" version="1">
		<tag k="name" v="Norum" />
		<tag k="place" v="hamlet" />
		<tag k="ssr:stedsnr" v="2497" />
	</node>
	<node changeset="66626481" id="6235716768" lat="59.3447361" lon="10.870525" timestamp="2019-01-25T10:01:46Z" uid="633013" user="Honning" version="1">
		<tag k="name" v="Strømshaug" />
		<tag k="place" v="farm" />
		<tag k="ssr:stedsnr" v="2511" />
	</node>
	<node changeset="66626481" id="6235716769" lat="59.312258" lon="10.7916303" timestamp="2019-01-25T10:01:46Z" uid="633013" user="Honning" version="1">
		<tag k="name" v="Sandvegen" />
		<tag k="place" v="farm" />
		<tag k="ssr:stedsnr" v="28840" />
	</node>
	<node changeset="66626481" id="6235716770" lat="59.336925" lon="10.7596333" timestamp="2019-01-25T10:01:46Z" uid="633013" user="Honning" version="1">
		<tag k="alt_name" v="Tasken søndre" />
		<tag k="name" v="Søndre Tasken" />
		<tag k="place" v="farm" />
		<tag k="ssr:stedsnr" v="56922" />
	</node>
	<node changeset="66626481" id="6235716771" lat="59.3108611" lon="10.8809139" timestamp="2019-01-25T10:01:46Z" uid="633013" user="Honning" version="1">
		<tag k="name" v="Kongsrød" />
		<tag k="place" v="farm" />
		<tag k="ssr:stedsnr" v="56895" />
	</node>
	<node changeset="66626481" id="6235716772" lat="59.3559806" lon="10.8771111" timestamp="2019-01-25T10:01:46Z" uid="633013" user="Honning" version="1">
		<tag k="name" v="Halvorsrød" />
		<tag k="place" v="farm" />
		<tag k="ssr:stedsnr" v="58300" />
	</node>
	<node changeset="66626481" id="6235716773" lat="59.3753972" lon="10.9496333" timestamp="2019-01-25T10:01:46Z" uid="633013" user="Honning" version="1">
		<tag k="alt_name" v="Leiedalen nordre" />
		<tag k="name" v="Nordre Leiedalen" />
		<tag k="place" v="farm" />
		<tag k="ssr:stedsnr" v="58600" />
	</node>
	<node changeset="66626481" id="6235716774" lat="59.3318583" lon="10.8837083" timestamp="2019-01-25T10:01:46Z" uid="633013" user="Honning" version="1">
		<tag k="name" v="Haugan" />
		<tag k="place" v="farm" />
		<tag k="ssr:stedsnr" v="58823" />
	</node>
	<node changeset="66626481" id="6235716775" lat="59.3311806" lon="10.8714555" timestamp="2019-01-25T10:01:46Z" uid="633013" user="Honning" version="1">
		<tag k="alt_name" v="Auberg" />
		<tag k="name" v="Augeberg" />
		<tag k="place" v="farm" />
		<tag k="ssr:stedsnr" v="58856" />
	</node>
	<node changeset="66626481" id="6235716776" lat="59.362775" lon="10.9561528" timestamp="2019-01-25T10:01:46Z" uid="633013" user="Honning" version="1">
		<tag k="name" v="Kleiva" />
		<tag k="place" v="farm" />
		<tag k="ssr:stedsnr" v="63296" />
	</node>
	<node changeset="66626481" id="6235716777" lat="59.3763611" lon="10.9678889" timestamp="2019-01-25T10:01:46Z" uid="633013" user="Honning" version="1">
		<tag k="name" v="Slangsvoll" />
		<tag k="place" v="farm" />
		<tag k="ssr:stedsnr" v="63301" />
	</node>
	<node changeset="66626481" id="6235716778" lat="59.322175" lon="10.7926472" timestamp="2019-01-25T10:01:46Z" uid="633013" user="Honning" version="1">
		<tag k="alt_name" v="Torkelstad" />
		<tag k="name" v="Torkilstad" />
		<tag k="place" v="farm" />
		<tag k="ssr:stedsnr" v="63469" />
	</node>
	<node changeset="66626481" id="6235716779" lat="59.3341194" lon="10.8891389" timestamp="2019-01-25T10:01:46Z" uid="633013" user="Honning" version="1">
		<tag k="alt_name" v="Salby" />
		<tag k="name" v="Salbu" />
		<tag k="place" v="farm" />
		<tag k="ssr:stedsnr" v="63490" />
	</node>
	<node changeset="66626481" id="6235716780" lat="59.3337583" lon="10.8116639" timestamp="2019-01-25T10:01:46Z" uid="633013" user="Honning" version="1">
		<tag k="alt_name" v="Hauga" />
		<tag k="name" v="Haga" />
		<tag k="place" v="farm" />
		<tag k="ssr:stedsnr" v="63494" />
	</node>
	<node changeset="66626481" id="6235716781" lat="59.3516667" lon="10.8535778" timestamp="2019-01-25T10:01:46Z" uid="633013" user="Honning" version="1">
		<tag k="name" v="Skråtorp" />
		<tag k="place" v="farm" />
		<tag k="ssr:stedsnr" v="63509" />
	</node>
	<node changeset="66626481" id="6235716782" lat="59.3470667" lon="10.8062" timestamp="2019-01-25T10:01:46Z" uid="633013" user="Honning" version="1">
		<tag k="name" v="Huseby" />
		<tag k="place" v="hamlet" />
		<tag k="ssr:stedsnr" v="63508" />
	</node>
	<node changeset="66626481" id="6235716783" lat="59.3486083" lon="10.8950944" timestamp="2019-01-25T10:01:46Z" uid="633013" user="Honning" version="1">
		<tag k="name" v="Kirkebø" />
		<tag k="place" v="farm" />
		<tag k="ssr:stedsnr" v="63525" />
	</node>
	<node changeset="66632565" id="6235716784" lat="59.3460165" lon="10.9044638" timestamp="2019-01-25T13:51:35Z" uid="633013" user="Honning" version="2">
		<tag k="name" v="Lundeby" />
		<tag k="place" v="hamlet" />
		<tag k="ssr:stedsnr" v="63526" />
	</node>
	<node changeset="66626481" id="4335692062" lat="59.31015" lon="10.8809806" timestamp="2019-01-25T10:01:51Z" uid="633013" user="Honning" version="2">
		<tag k="name" v="Kongsveien" />
		<tag k="place" v="farm" />
		<tag k="ssr:stedsnr" v="63455" />
	</node>
	<node changeset="66626481" id="6235716918" lat="59.321625" lon="10.8625444" timestamp="2019-01-25T10:01:48Z" uid="633013" user="Honning" version="1">
		<tag k="alt_name" v="Brekke" />
		<tag k="name" v="Brekka" />
		<tag k="place" v="farm" />
		<tag k="ssr:stedsnr" v="245406" />
	</node>
	<node changeset="66626481" id="6235715679" lat="59.3650806" lon="10.9552528" timestamp="2019-01-25T10:01:41Z" uid="633013" user="Honning" version="1">
		<tag k="alt_name" v="Harehaugen" />
		<tag k="name" v="Harahaugen" />
		<tag k="place" v="farm" />
		<tag k="ssr:stedsnr" v="670257" />
	</node>
	<node changeset="67100427" id="6271665791" lat="59.3173306" lon="10.7914083" timestamp="2019-02-11T13:30:12Z" uid="633013" user="Honning" version="1">
		<tag k="name" v="Hestevoll" />
		<tag k="place" v="farm" />
		<tag k="ssr:stedsnr" v="238554" />
	</node>
	<node changeset="66626481" id="6235716703" lat="59.3327861" lon="10.8853611" timestamp="2019-01-25T10:01:42Z" uid="633013" user="Honning" version="1">
		<tag k="name" v="Stene" />
		<tag k="place" v="farm" />
		<tag k="ssr:stedsnr" v="791439" />
	</node>
	<node changeset="66626481" id="2953747213" lat="59.3174639" lon="10.856025" timestamp="2019-01-25T10:01:50Z" uid="633013" user="Honning" version="2">
		<tag k="name" v="Vårli" />
		<tag k="place" v="farm" />
		<tag k="ssr:stedsnr" v="548457" />
	</node>
	<node changeset="66626481" id="6235716909" lat="59.3505361" lon="10.9167917" timestamp="2019-01-25T10:01:48Z" uid="633013" user="Honning" version="1">
		<tag k="name" v="Borge" />
		<tag k="place" v="farm" />
		<tag k="ssr:stedsnr" v="184505" />
	</node>
	<node changeset="66626481" id="4331245955" lat="59.3339778" lon="10.7992111" timestamp="2019-01-25T10:01:50Z" uid="633013" user="Honning" version="2">
		<tag k="alt_name" v="Aker søndre" />
		<tag k="name" v="Søndre Aker" />
		<tag k="place" v="farm" />
		<tag k="ssr:stedsnr" v="541544" />
	</node>
	<node changeset="66626481" id="6235716885" lat="59.31335" lon="10.9111667" timestamp="2019-01-25T10:01:46Z" uid="633013" user="Honning" version="1">
		<tag k="alt_name" v="Reklingsholm østre" />
		<tag k="name" v="Østre Reklingsholm" />
		<tag k="place" v="farm" />
		<tag k="ssr:stedsnr" v="117888" />
	</node>
	<node changeset="66626481" id="6235716886" lat="59.343775" lon="10.7776778" timestamp="2019-01-25T10:01:47Z" uid="633013" user="Honning" version="1">
		<tag k="name" v="Heia" />
		<tag k="place" v="farm" />
		<tag k="ssr:stedsnr" v="117924" />
	</node>
	<node changeset="66626481" id="6235716887" lat="59.3497583" lon="10.8638222" timestamp="2019-01-25T10:01:47Z" uid="633013" user="Honning" version="1">
		<tag k="name" v="Skråtorp" />
		<tag k="place" v="farm" />
		<tag k="ssr:stedsnr" v="118364" />
	</node>
	<node changeset="66626481" id="6235716889" lat="59.3174611" lon="10.9179167" timestamp="2019-01-25T10:01:47Z" uid="633013" user="Honning" version="1">
		<tag k="name" v="Elverhøy" />
		<tag k="place" v="farm" />
		<tag k="ssr:stedsnr" v="118750" />
	</node>
	<node changeset="66626481" id="6235716890" lat="59.3118778" lon="10.8360278" timestamp="2019-01-25T10:01:47Z" uid="633013" user="Honning" version="1">
		<tag k="name" v="Løkka" />
		<tag k="place" v="farm" />
		<tag k="ssr:stedsnr" v="118822" />
	</node>
	<node changeset="66626481" id="4335692059" lat="59.3251972" lon="10.8745889" timestamp="2019-01-25T10:01:51Z" uid="633013" user="Honning" version="2">
		<tag k="alt_name" v="Musangen østre" />
		<tag k="name" v="Østre Musangen" />
		<tag k="place" v="farm" />
		<tag k="ssr:stedsnr" v="543797" />
	</node>
	<node changeset="66626481" id="4335692060" lat="59.3210583" lon="10.8783305" timestamp="2019-01-25T10:01:51Z" uid="633013" user="Honning" version="2">
		<tag k="name" v="Haugen" />
		<tag k="place" v="farm" />
		<tag k="ssr:stedsnr" v="847827" />
	</node>
	<node changeset="66626481" id="4335692061" lat="59.3138139" lon="10.8798472" timestamp="2019-01-25T10:01:51Z" uid="633013" user="Honning" version="2">
		<tag k="name" v="Holtet" />
		<tag k="place" v="farm" />
		<tag k="ssr:stedsnr" v="752769" />
	</node>
	<node changeset="66626481" id="6235716894" lat="59.326175" lon="10.8889111" timestamp="2019-01-25T10:01:47Z" uid="633013" user="Honning" version="1">
		<tag k="name" v="Tverrbekk" />
		<tag k="place" v="farm" />
		<tag k="ssr:stedsnr" v="123516" />
	</node>
	<node changeset="66626481" id="6235716895" lat="59.3363944" lon="10.8453861" timestamp="2019-01-25T10:01:47Z" uid="633013" user="Honning" version="1">
		<tag k="name" v="Husbakke" />
		<tag k="place" v="farm" />
		<tag k="ssr:stedsnr" v="123530" />
	</node>
	<node changeset="66626481" id="6235716896" lat="59.3472889" lon="10.8918639" timestamp="2019-01-25T10:01:47Z" uid="633013" user="Honning" version="1">
		<tag k="name" v="Kåpegot" />
		<tag k="place" v="farm" />
		<tag k="ssr:stedsnr" v="123547" />
	</node>
	<node changeset="66626481" id="6235716897" lat="59.3575556" lon="10.8057833" timestamp="2019-01-25T10:01:47Z" uid="633013" user="Honning" version="1">
		<tag k="name" v="Løken" />
		<tag k="place" v="hamlet" />
		<tag k="ssr:stedsnr" v="124212" />
	</node>
	<node changeset="66697739" id="6235716898" lat="59.3609138" lon="10.9488429" timestamp="2019-01-28T08:26:37Z" uid="633013" user="Honning" version="2">
		<tag k="name" v="Slangsvoll" />
		<tag k="place" v="hamlet" />
		<tag k="ssr:stedsnr" v="124214" />
	</node>
	<node changeset="66626481" id="6235716899" lat="59.3621833" lon="10.9002583" timestamp="2019-01-25T10:01:47Z" uid="633013" user="Honning" version="1">
		<tag k="name" v="Bjørnebekk" />
		<tag k="place" v="farm" />
		<tag k="ssr:stedsnr" v="124217" />
	</node>
	<node changeset="66626481" id="6235716900" lat="59.3751194" lon="10.9645444" timestamp="2019-01-25T10:01:47Z" uid="633013" user="Honning" version="1">
		<tag k="name" v="Gullhaug" />
		<tag k="place" v="farm" />
		<tag k="ssr:stedsnr" v="124227" />
	</node>
	<node changeset="66626481" id="6235716901" lat="59.3069611" lon="10.729675" timestamp="2019-01-25T10:01:47Z" uid="633013" user="Honning" version="1">
		<tag k="name" v="Storesand" />
		<tag k="place" v="isolated_dwelling" />
		<tag k="ssr:stedsnr" v="124357" />
	</node>
	<node changeset="66626481" id="6235716902" lat="59.3207667" lon="10.932075" timestamp="2019-01-25T10:01:47Z" uid="633013" user="Honning" version="1">
		<tag k="alt_name" v="Sølvland" />
		<tag k="name" v="Søland" />
		<tag k="place" v="farm" />
		<tag k="ssr:stedsnr" v="124364" />
	</node>
	<node changeset="66626481" id="6235716903" lat="59.3669806" lon="10.8041083" timestamp="2019-01-25T10:01:47Z" uid="633013" user="Honning" version="1">
		<tag k="name" v="Nygård" />
		<tag k="place" v="farm" />
		<tag k="ssr:stedsnr" v="177888" />
	</node>
	<node changeset="66626481" id="6235716904" lat="59.3403694" lon="10.7804722" timestamp="2019-01-25T10:01:47Z" uid="633013" user="Honning" version="1">
		<tag k="name" v="Gammelsrød" />
		<tag k="place" v="farm" />
		<tag k="ssr:stedsnr" v="178917" />
	</node>
	<node changeset="66626481" id="6235716905" lat="59.3412667" lon="10.7757889" timestamp="2019-01-25T10:01:48Z" uid="633013" user="Honning" version="1">
		<tag k="alt_name" v="Gammelsrød nordre" />
		<tag k="name" v="Nordre Gammelsrød" />
		<tag k="place" v="farm" />
		<tag k="ssr:stedsnr" v="178919" />
	</node>
	<node changeset="66626481" id="6235716906" lat="59.3536944" lon="10.8817889" timestamp="2019-01-25T10:01:48Z" uid="633013" user="Honning" version="1">
		<tag k="name" v="Karlshusbunn" />
		<tag k="place" v="farm" />
		<tag k="ssr:stedsnr" v="179272" />
	</node>
	<node changeset="66626481" id="6235716907" lat="59.3269556" lon="10.9131611" timestamp="2019-01-25T10:01:48Z" uid="633013" user="Honning" version="1">
		<tag k="name" v="Revhaug" />
		<tag k="place" v="hamlet" />
		<tag k="ssr:stedsnr" v="184459" />
	</node>
	<node changeset="66626481" id="6235716908" lat="59.3265583" lon="10.8751306" timestamp="2019-01-25T10:01:48Z" uid="633013" user="Honning" version="1">
		<tag k="name" v="Musangen" />
		<tag k="place" v="hamlet" />
		<tag k="ssr:stedsnr" v="184479" />
	</node>
	<node changeset="66626481" id="6235716704" lat="59.3393556" lon="10.8057389" timestamp="2019-01-25T10:01:42Z" uid="633013" user="Honning" version="1">
		<tag k="alt_name" v="Åker" />
		<tag k="name" v="Aker" />
		<tag k="place" v="farm" />
		<tag k="ssr:stedsnr" v="791462" />
	</node>
	<node changeset="66626481" id="6235716910" lat="59.361075" lon="10.8096" timestamp="2019-01-25T10:01:48Z" uid="633013" user="Honning" version="1">
		<tag k="name" v="Grimstad" />
		<tag k="place" v="hamlet" />
		<tag k="ssr:stedsnr" v="185249" />
	</node>
	<node changeset="66626481" id="6235716911" lat="59.3661833" lon="10.9667195" timestamp="2019-01-25T10:01:48Z" uid="633013" user="Honning" version="1">
		<tag k="alt_name" v="Fensbekk" />
		<tag k="name" v="Finnsbekk" />
		<tag k="place" v="farm" />
		<tag k="ssr:stedsnr" v="185259" />
	</node>
	<node changeset="66626481" id="6235716912" lat="59.3603194" lon="10.8507139" timestamp="2019-01-25T10:01:48Z" uid="633013" user="Honning" version="1">
		<tag k="name" v="Elvestadstøa" />
		<tag k="place" v="farm" />
		<tag k="ssr:stedsnr" v="240282" />
	</node>
	<node changeset="66626481" id="6235716913" lat="59.3378806" lon="10.9080611" timestamp="2019-01-25T10:01:48Z" uid="633013" user="Honning" version="1">
		<tag k="name" v="Borge" />
		<tag k="place" v="farm" />
		<tag k="ssr:stedsnr" v="240383" />
	</node>
	<node changeset="66626481" id="6235716914" lat="59.3263083" lon="10.8754222" timestamp="2019-01-25T10:01:48Z" uid="633013" user="Honning" version="1">
		<tag k="alt_name" v="Musangen nordre" />
		<tag k="name" v="Nordre Musangen" />
		<tag k="place" v="farm" />
		<tag k="ssr:stedsnr" v="240822" />
	</node>
	<node changeset="66626481" id="6235716915" lat="59.3534278" lon="10.9258028" timestamp="2019-01-25T10:01:48Z" uid="633013" user="Honning" version="1">
		<tag k="alt_name" v="Borgebotn" />
		<tag k="name" v="Borgebunn" />
		<tag k="place" v="farm" />
		<tag k="ssr:stedsnr" v="245233" />
	</node>
	<node changeset="66626481" id="6235716916" lat="59.354575" lon="10.7734056" timestamp="2019-01-25T10:01:48Z" uid="633013" user="Honning" version="1">
		<tag k="name" v="Sarpebakken" />
		<tag k="place" v="farm" />
		<tag k="ssr:stedsnr" v="245238" />
	</node>
	<node changeset="66626481" id="6235716917" lat="59.3555056" lon="10.8126444" timestamp="2019-01-25T10:01:48Z" uid="633013" user="Honning" version="1">
		<tag k="alt_name" v="Vold" />
		<tag k="name" v="Voll" />
		<tag k="place" v="farm" />
		<tag k="ssr:stedsnr" v="245249" />
	</node>
	<node changeset="66626481" id="6235716892" lat="59.3179028" lon="10.7393361" timestamp="2019-01-25T10:01:47Z" uid="633013" user="Honning" version="1">
		<tag k="name" v="Åven" />
		<tag k="place" v="farm" />
		<tag k="ssr:stedsnr" v="123498" />
	</node>
	<node changeset="66626481" id="6235716745" lat="59.3598377" lon="10.8204192" timestamp="2019-01-25T10:01:44Z" uid="633013" user="Honning" version="1">
		<tag k="alt_name" v="Haugesten nedre;Nedre Haugesten" />
		<tag k="name" v="Nedre Haugsten" />
		<tag k="place" v="farm" />
		<tag k="ssr:stedsnr" v="359926" />
	</node>
	<node changeset="66626481" id="6235716920" lat="59.3662111" lon="10.8220861" timestamp="2019-01-25T10:01:48Z" uid="633013" user="Honning" version="1">
		<tag k="name" v="Vollebekk" />
		<tag k="place" v="farm" />
		<tag k="ssr:stedsnr" v="420888" />
	</node>
	<node changeset="66626481" id="6235716921" lat="59.3239722" lon="10.7944111" timestamp="2019-01-25T10:01:48Z" uid="633013" user="Honning" version="1">
		<tag k="name" v="Fjell" />
		<tag k="place" v="farm" />
		<tag k="ssr:stedsnr" v="422196" />
	</node>
	<node changeset="66626481" id="6235716923" lat="59.3289722" lon="10.9317667" timestamp="2019-01-25T10:01:48Z" uid="633013" user="Honning" version="1">
		<tag k="name" v="Ileby" />
		<tag k="place" v="farm" />
		<tag k="ssr:stedsnr" v="422778" />
	</node>
	<node changeset="66626481" id="6235716924" lat="59.3821611" lon="10.906725" timestamp="2019-01-25T10:01:49Z" uid="633013" user="Honning" version="1">
		<tag k="name" v="Henes" />
		<tag k="place" v="farm" />
		<tag k="ssr:stedsnr" v="427322" />
	</node>
	<node changeset="66626481" id="6235716925" lat="59.3270806" lon="10.923575" timestamp="2019-01-25T10:01:49Z" uid="633013" user="Honning" version="1">
		<tag k="name" v="Hovland" />
		<tag k="place" v="farm" />
		<tag k="ssr:stedsnr" v="427460" />
	</node>
	<node changeset="66626481" id="6235716926" lat="59.3298389" lon="10.9220028" timestamp="2019-01-25T10:01:49Z" uid="633013" user="Honning" version="1">
		<tag k="name" v="Sørby" />
		<tag k="place" v="farm" />
		<tag k="ssr:stedsnr" v="427462" />
	</node>
	<node changeset="66626481" id="6235716927" lat="59.3372806" lon="10.7593278" timestamp="2019-01-25T10:01:49Z" uid="633013" user="Honning" version="1">
		<tag k="name" v="Tasken" />
		<tag k="place" v="hamlet" />
		<tag k="ssr:stedsnr" v="427478" />
	</node>
	<node changeset="66626481" id="6235716928" lat="59.3122778" lon="10.7971611" timestamp="2019-01-25T10:01:49Z" uid="633013" user="Honning" version="1">
		<tag k="name" v="Skogly" />
		<tag k="place" v="farm" />
		<tag k="ssr:stedsnr" v="453815" />
	</node>
	<node changeset="66626481" id="6235716929" lat="59.35695" lon="10.8033306" timestamp="2019-01-25T10:01:49Z" uid="633013" user="Honning" version="1">
		<tag k="alt_name" v="Løken søndre" />
		<tag k="name" v="Søndre Løken" />
		<tag k="place" v="farm" />
		<tag k="ssr:stedsnr" v="481924" />
	</node>
	<node changeset="66632565" id="6235716930" lat="59.34612" lon="10.8420826" timestamp="2019-01-25T13:51:35Z" uid="633013" user="Honning" version="2">
		<tag k="name" v="Kjellerød" />
		<tag k="place" v="hamlet" />
		<tag k="ssr:stedsnr" v="482363" />
	</node>
	<node changeset="66626481" id="6235716931" lat="59.3581306" lon="10.8738" timestamp="2019-01-25T10:01:49Z" uid="633013" user="Honning" version="1">
		<tag k="name" v="Halvorsrød" />
		<tag k="place" v="farm" />
		<tag k="ssr:stedsnr" v="487251" />
	</node>
	<node changeset="66626481" id="6235716932" lat="59.3253194" lon="10.9260583" timestamp="2019-01-25T10:01:49Z" uid="633013" user="Honning" version="1">
		<tag k="name" v="Frakkestad" />
		<tag k="place" v="farm" />
		<tag k="ssr:stedsnr" v="487473" />
	</node>
	<node changeset="66626481" id="6235716933" lat="59.3411444" lon="10.8900083" timestamp="2019-01-25T10:01:49Z" uid="633013" user="Honning" version="1">
		<tag k="name" v="Rød" />
		<tag k="place" v="farm" />
		<tag k="ssr:stedsnr" v="487518" />
	</node>
	<node changeset="66626481" id="6235716705" lat="59.342275" lon="10.9140222" timestamp="2019-01-25T10:01:42Z" uid="633013" user="Honning" version="1">
		<tag k="name" v="Borge" />
		<tag k="place" v="hamlet" />
		<tag k="ssr:stedsnr" v="791486" />
	</node>
	<node changeset="66626481" id="6235716919" lat="59.3245889" lon="10.9105083" timestamp="2019-01-25T10:01:48Z" uid="633013" user="Honning" version="1">
		<tag k="alt_name" v="Søgård" />
		<tag k="name" v="Sørgård" />
		<tag k="place" v="farm" />
		<tag k="ssr:stedsnr" v="245410" />
	</node>
	<node changeset="66626481" id="6235716893" lat="59.3300889" lon="10.8857861" timestamp="2019-01-25T10:01:47Z" uid="633013" user="Honning" version="1">
		<tag k="name" v="Bekkhus" />
		<tag k="place" v="farm" />
		<tag k="ssr:stedsnr" v="123515" />
	</node>
	<node changeset="67008788" id="6264815452" lat="59.3303194" lon="10.9533778" timestamp="2019-02-07T22:18:58Z" uid="633013" user="Honning" version="1">
		<tag k="alt_name" v="Jørsø store" />
		<tag k="name" v="Store Jørsø" />
		<tag k="place" v="farm" />
		<tag k="ssr:stedsnr" v="780312" />
	</node>
	<node changeset="66626481" id="6235716706" lat="59.3473056" lon="10.9292556" timestamp="2019-01-25T10:01:42Z" uid="633013" user="Honning" version="1">
		<tag k="name" v="Løkka" />
		<tag k="place" v="farm" />
		<tag k="ssr:stedsnr" v="815373" />
	</node>
	<node changeset="66626481" id="4331245948" lat="59.3431444" lon="10.8524305" timestamp="2019-01-25T10:01:50Z" uid="633013" user="Honning" version="2">
		<tag k="alt_name" v="Hafeld" />
		<tag k="name" v="Hafjell" />
		<tag k="place" v="farm" />
		<tag k="ssr:stedsnr" v="912507" />
	</node>
	<node changeset="66626481" id="4331245949" lat="59.3400944" lon="10.8479083" timestamp="2019-01-25T10:01:50Z" uid="633013" user="Honning" version="2">
		<tag k="name" v="Stranden" />
		<tag k="place" v="farm" />
		<tag k="ssr:stedsnr" v="968362" />
	</node>
	<node changeset="66626481" id="4331245950" lat="59.3339361" lon="10.8400139" timestamp="2019-01-25T10:01:50Z" uid="633013" user="Honning" version="2">
		<tag k="name" v="Myre" />
		<tag k="place" v="farm" />
		<tag k="ssr:stedsnr" v="366477" />
	</node>
	<node changeset="66626481" id="4331245951" lat="59.3291806" lon="10.8407194" timestamp="2019-01-25T10:01:50Z" uid="633013" user="Honning" version="2">
		<tag k="name" v="Myre" />
		<tag k="place" v="farm" />
		<tag k="ssr:stedsnr" v="123520" />
	</node>
	<node changeset="66626481" id="4331245952" lat="59.3272972" lon="10.8388278" timestamp="2019-01-25T10:01:50Z" uid="633013" user="Honning" version="2">
		<tag k="name" v="Nøysom" />
		<tag k="place" v="farm" />
		<tag k="ssr:stedsnr" v="670444" />
	</node>
	<node changeset="66626481" id="4331245953" lat="59.3228917" lon="10.8318556" timestamp="2019-01-25T10:01:50Z" uid="633013" user="Honning" version="2">
		<tag k="name" v="Rød" />
		<tag k="place" v="farm" />
		<tag k="ssr:stedsnr" v="366455" />
	</node>
	<node changeset="66626481" id="4331245954" lat="59.3367528" lon="10.8017667" timestamp="2019-01-25T10:01:50Z" uid="633013" user="Honning" version="2">
		<tag k="alt_name" v="Aker vestre" />
		<tag k="name" v="Vestre Aker" />
		<tag k="place" v="farm" />
		<tag k="ssr:stedsnr" v="784543" />
	</node>
	<node changeset="66626481" id="6235716707" lat="59.3018194" lon="10.7743278" timestamp="2019-01-25T10:01:42Z" uid="633013" user="Honning" version="1">
		<tag k="alt_name" v="Tangen" />
		<tag k="name" v="Kløfta" />
		<tag k="place" v="farm" />
		<tag k="ssr:stedsnr" v="817827" />
	</node>
	<node changeset="66626481" id="4331245956" lat="59.335325" lon="10.8011111" timestamp="2019-01-25T10:01:50Z" uid="633013" user="Honning" version="2">
		<tag k="alt_name" v="Aker mellem" />
		<tag k="name" v="Mellom-Aker" />
		<tag k="place" v="farm" />
		<tag k="ssr:stedsnr" v="845562" />
	</node>
	<node changeset="66626481" id="4331245957" lat="59.3398" lon="10.7951583" timestamp="2019-01-25T10:01:50Z" uid="633013" user="Honning" version="2">
		<tag k="alt_name" v="Berg vestre" />
		<tag k="name" v="Vestre Berg" />
		<tag k="place" v="farm" />
		<tag k="ssr:stedsnr" v="117909" />
	</node>
	<node changeset="66626481" id="4331245958" lat="59.3412611" lon="10.80195" timestamp="2019-01-25T10:01:50Z" uid="633013" user="Honning" version="2">
		<tag k="name" v="Sørgård" />
		<tag k="place" v="farm" />
		<tag k="ssr:stedsnr" v="245449" />
	</node>
	<node changeset="66626481" id="4331245959" lat="59.3428667" lon="10.8012806" timestamp="2019-01-25T10:01:50Z" uid="633013" user="Honning" version="2">
		<tag k="alt_name" v="Norum søndre" />
		<tag k="name" v="Søndre Norum" />
		<tag k="place" v="farm" />
		<tag k="ssr:stedsnr" v="542922" />
	</node>
	<node changeset="66626481" id="4331245960" lat="59.3435417" lon="10.7999806" timestamp="2019-01-25T10:01:51Z" uid="633013" user="Honning" version="2">
		<tag k="alt_name" v="Norum nordre" />
		<tag k="name" v="Nordre Norum" />
		<tag k="place" v="farm" />
		<tag k="ssr:stedsnr" v="663916" />
	</node>
	<node changeset="66626481" id="4331245961" lat="59.3480639" lon="10.8279917" timestamp="2019-01-25T10:01:51Z" uid="633013" user="Honning" version="2">
		<tag k="name" v="Burum" />
		<tag k="place" v="farm" />
		<tag k="ssr:stedsnr" v="791466" />
	</node>
	<node changeset="66626481" id="281387408" lat="59.2969844" lon="10.767603" timestamp="2019-01-25T10:01:49Z" uid="633013" user="Honning" version="6">
		<tag k="name" v="Spetalen" />
		<tag k="place" v="village" />
		<tag k="population" v="2265" />
		<tag k="population:date" v="2017-01-01" />
		<tag k="ssr:stedsnr" v="631201" />
	</node>
	<node changeset="66626481" id="281387409" lat="59.3194306" lon="10.8052444" timestamp="2019-01-25T10:01:49Z" uid="633013" user="Honning" version="2">
		<tag k="alt_name" v="Tom" />
		<tag k="name" v="Tomb" />
		<tag k="place" v="village" />
		<tag k="ssr:stedsnr" v="913431" />
	</node>
	<node changeset="67100427" id="6271665043" lat="59.3141278" lon="10.7976694" timestamp="2019-02-11T13:29:57Z" uid="633013" user="Honning" version="1">
		<tag k="name" v="Hestevoll" />
		<tag k="place" v="farm" />
		<tag k="ssr:stedsnr" v="299535" />
	</node>
	<node changeset="66626481" id="4331245975" lat="59.3680556" lon="10.8046556" timestamp="2019-01-25T10:01:51Z" uid="633013" user="Honning" version="2">
		<tag k="name" v="Ramyr" />
		<tag k="place" v="farm" />
		<tag k="ssr:stedsnr" v="184261" />
	</node>
	<node changeset="66626481" id="4331245978" lat="59.3692833" lon="10.7942167" timestamp="2019-01-25T10:01:51Z" uid="633013" user="Honning" version="2">
		<tag k="name" v="Askerød" />
		<tag k="place" v="farm" />
		<tag k="ssr:stedsnr" v="178865" />
	</node>
	<node changeset="66626481" id="4331245979" lat="59.3683583" lon="10.7960695" timestamp="2019-01-25T10:01:51Z" uid="633013" user="Honning" version="2">
		<tag k="name" v="Granum" />
		<tag k="place" v="farm" />
		<tag k="ssr:stedsnr" v="178864" />
	</node>
	<node changeset="66626481" id="4331245980" lat="59.3697694" lon="10.7895083" timestamp="2019-01-25T10:01:51Z" uid="633013" user="Honning" version="2">
		<tag k="name" v="Stomnerhuset" />
		<tag k="place" v="farm" />
		<tag k="ssr:stedsnr" v="602871" />
	</node>
	<node changeset="66626481" id="2953746845" lat="59.3083833" lon="10.872375" timestamp="2019-01-25T10:01:49Z" uid="633013" user="Honning" version="3">
		<tag k="alt_name" v="Kil østre" />
		<tag k="name" v="Østre Kil" />
		<tag k="place" v="farm" />
		<tag k="ssr:stedsnr" v="791392" />
	</node>
	<node changeset="66626481" id="4331245982" lat="59.3621444" lon="10.7856056" timestamp="2019-01-25T10:01:51Z" uid="633013" user="Honning" version="2">
		<tag k="name" v="Sandakerhuset" />
		<tag k="place" v="farm" />
		<tag k="ssr:stedsnr" v="724896" />
	</node>
	<node changeset="66626481" id="4331245983" lat="59.3606972" lon="10.79415" timestamp="2019-01-25T10:01:51Z" uid="633013" user="Honning" version="2">
		<tag k="name" v="Sogn" />
		<tag k="place" v="farm" />
		<tag k="ssr:stedsnr" v="852264" />
	</node>
	<node changeset="66626481" id="4331245984" lat="59.359025" lon="10.7818694" timestamp="2019-01-25T10:01:51Z" uid="633013" user="Honning" version="2">
		<tag k="name" v="Sandaker" />
		<tag k="place" v="farm" />
		<tag k="ssr:stedsnr" v="178924" />
	</node>
	<node changeset="66626481" id="6235716708" lat="59.3575639" lon="10.8057889" timestamp="2019-01-25T10:01:42Z" uid="633013" user="Honning" version="1">
		<tag k="alt_name" v="Løken nordre" />
		<tag k="name" v="Nordre Løken" />
		<tag k="place" v="farm" />
		<tag k="ssr:stedsnr" v="845938" />
	</node>
	<node changeset="66727849" id="254380968" lat="59.3517161" lon="10.8723725" timestamp="2019-01-29T06:43:56Z" uid="9023103" user="alice-hawthorne" version="10">
		<tag k="name" v="Karlshus" />
		<tag k="old_name" v="Råde" />
		<tag k="place" v="village" />
		<tag k="population" v="2233" />
		<tag k="population:date" v="2017-01-01" />
		<tag k="ssr:stedsnr" v="391341" />
	</node>
	<node changeset="66626481" id="4331245981" lat="59.3699194" lon="10.7850278" timestamp="2019-01-25T10:01:51Z" uid="633013" user="Honning" version="2">
		<tag k="name" v="Eggeroa" />
		<tag k="place" v="farm" />
		<tag k="ssr:stedsnr" v="420939" />
	</node>
	<node changeset="66626481" id="2953746872" lat="59.3145694" lon="10.8715417" timestamp="2019-01-25T10:01:50Z" uid="633013" user="Honning" version="3">
		<tag k="alt_name" v="Hissingby mellem" />
		<tag k="name" v="Mellom-Hissingby" />
		<tag k="place" v="farm" />
		<tag k="ssr:stedsnr" v="179874" />
	</node>
	<node changeset="66626481" id="6235716685" lat="59.3204333" lon="10.9131111" timestamp="2019-01-25T10:01:41Z" uid="633013" user="Honning" version="1">
		<tag k="alt_name" v="Tofteberg østre" />
		<tag k="name" v="Østre Tofteberg" />
		<tag k="place" v="farm" />
		<tag k="ssr:stedsnr" v="725739" />
	</node>
	<node changeset="67100427" id="6271664082" lat="59.3161139" lon="10.7661639" timestamp="2019-02-11T13:29:48Z" uid="633013" user="Honning" version="1">
		<tag k="alt_name" v="Røstad store" />
		<tag k="name" v="Store Røstad" />
		<tag k="place" v="farm" />
		<tag k="ssr:stedsnr" v="784570" />
	</node>
	<node changeset="66626481" id="6235716686" lat="59.3361139" lon="10.9359167" timestamp="2019-01-25T10:01:41Z" uid="633013" user="Honning" version="1">
		<tag k="name" v="Åkeberg" />
		<tag k="place" v="farm" />
		<tag k="ssr:stedsnr" v="725740" />
	</node>
	<node changeset="66626481" id="6235715663" lat="59.3376667" lon="10.949925" timestamp="2019-01-25T10:01:40Z" uid="633013" user="Honning" version="1">
		<tag k="name" v="Sulerød" />
		<tag k="place" v="farm" />
		<tag k="ssr:stedsnr" v="608508" />
	</node>
	<node changeset="66626481" id="2953746909" lat="59.3189972" lon="10.8728417" timestamp="2019-01-25T10:01:50Z" uid="633013" user="Honning" version="2">
		<tag k="alt_name" v="Hisingby" />
		<tag k="name" v="Hissingby" />
		<tag k="place" v="hamlet" />
		<tag k="ssr:stedsnr" v="245408" />
	</node>
	<node changeset="66626481" id="2953746912" lat="59.3142917" lon="10.8665722" timestamp="2019-01-25T10:01:50Z" uid="633013" user="Honning" version="4">
		<tag k="name" v="Hissingby" />
		<tag k="place" v="farm" />
		<tag k="ssr:stedsnr" v="118859" />
	</node>
	<node changeset="66626481" id="6235715664" lat="59.3473528" lon="10.7873972" timestamp="2019-01-25T10:01:40Z" uid="633013" user="Honning" version="1">
		<tag k="name" v="Heia" />
		<tag k="place" v="farm" />
		<tag k="ssr:stedsnr" v="608512" />
	</node>
	<node changeset="66626481" id="6235716689" lat="59.3357722" lon="10.7913778" timestamp="2019-01-25T10:01:41Z" uid="633013" user="Honning" version="1">
		<tag k="name" v="Meum" />
		<tag k="place" v="farm" />
		<tag k="ssr:stedsnr" v="730498" />
	</node>
	<node changeset="66626481" id="6235716690" lat="59.3386417" lon="10.9119028" timestamp="2019-01-25T10:01:41Z" uid="633013" user="Honning" version="1">
		<tag k="name" v="Hauger" />
		<tag k="place" v="farm" />
		<tag k="ssr:stedsnr" v="730503" />
	</node>
	<node changeset="66626481" id="6235716691" lat="59.3405806" lon="10.9399" timestamp="2019-01-25T10:01:41Z" uid="633013" user="Honning" version="1">
		<tag k="name" v="Åkebergrød" />
		<tag k="place" v="farm" />
		<tag k="ssr:stedsnr" v="730506" />
	</node>
	<node changeset="66626481" id="6235716692" lat="59.3489333" lon="10.9273417" timestamp="2019-01-25T10:01:41Z" uid="633013" user="Honning" version="1">
		<tag k="alt_name" v="Branndalen" />
		<tag k="name" v="Branddalen" />
		<tag k="place" v="farm" />
		<tag k="ssr:stedsnr" v="730527" />
	</node>
	<node changeset="66626481" id="6235716693" lat="59.3680194" lon="10.9238667" timestamp="2019-01-25T10:01:41Z" uid="633013" user="Honning" version="1">
		<tag k="alt_name" v="Knappervika" />
		<tag k="name" v="Knapperviken" />
		<tag k="place" v="farm" />
		<tag k="ssr:stedsnr" v="731215" />
	</node>
</osm>
