<?xml version="1.0" encoding="UTF-8"?>
<osm version="0.6" generator="osmapis">
	<node lat="59.094469448977975" lon="11.251977773419483" id="-24154">
		<tag k="name" v="Svinesundbroen D" />
		<tag k="ssr:date" v="2019-12-27" />
		<tag k="ssr:gruppe" v="navigasjon" />
		<tag k="ssr:hovedgruppe" v="infrastruktur" />
		<tag k="ssr:stedsnr" v="539054" />
		<tag k="ssr:type" v="fyrlykt" />
	</node>
	<node lat="59.094430553405154" lon="11.251641668478264" id="-24171">
		<tag k="name" v="Svinesundbroen A" />
		<tag k="ssr:date" v="2019-12-27" />
		<tag k="ssr:gruppe" v="navigasjon" />
		<tag k="ssr:hovedgruppe" v="infrastruktur" />
		<tag k="ssr:stedsnr" v="357074" />
		<tag k="ssr:type" v="fyrlykt" />
	</node>
	<node lat="59.093691669638666" lon="11.246983331707996" id="-24244">
		<tag k="name" v="Mølodden lykt" />
		<tag k="ssr:date" v="2019-12-27" />
		<tag k="ssr:gruppe" v="navigasjon" />
		<tag k="ssr:hovedgruppe" v="infrastruktur" />
		<tag k="ssr:stedsnr" v="478919" />
		<tag k="ssr:type" v="fyrlykt" />
	</node>
	<node lat="59.09802528033018" lon="11.205824198581094" id="-24270">
		<tag k="name" v="Mørvikvarden" />
		<tag k="ssr:date" v="2019-12-27" />
		<tag k="ssr:gruppe" v="veg" />
		<tag k="ssr:hovedgruppe" v="infrastruktur" />
		<tag k="ssr:stedsnr" v="485336" />
		<tag k="ssr:type" v="adressenavn" />
	</node>
	<node lat="59.23442772066215" lon="11.462275845492055" id="-24271">
		<tag k="name" v="Høvikveien" />
		<tag k="ssr:date" v="2019-12-27" />
		<tag k="ssr:gruppe" v="veg" />
		<tag k="ssr:hovedgruppe" v="infrastruktur" />
		<tag k="ssr:stedsnr" v="485340" />
		<tag k="ssr:type" v="adressenavn" />
	</node>
	<node lat="59.088408332499526" lon="11.22558333108217" id="-24289">
		<tag k="name" v="Sponvikskansen lykt" />
		<tag k="ssr:date" v="2019-12-27" />
		<tag k="ssr:gruppe" v="navigasjon" />
		<tag k="ssr:hovedgruppe" v="infrastruktur" />
		<tag k="ssr:stedsnr" v="487201" />
		<tag k="ssr:type" v="fyrlykt" />
	</node>
	<node lat="59.04014166600714" lon="11.419300000530946" id="-24292">
		<tag k="name" v="Fløberg lykt" />
		<tag k="ssr:date" v="2019-12-27" />
		<tag k="ssr:gruppe" v="navigasjon" />
		<tag k="ssr:hovedgruppe" v="infrastruktur" />
		<tag k="ssr:stedsnr" v="487235" />
		<tag k="ssr:type" v="fyrlykt" />
	</node>
	<node lat="59.11226944793781" lon="11.326025000994905" id="-24442">
		<tag k="name" v="Knivsøyholmen lykt" />
		<tag k="ssr:date" v="2019-12-27" />
		<tag k="ssr:gruppe" v="navigasjon" />
		<tag k="ssr:hovedgruppe" v="infrastruktur" />
		<tag k="ssr:stedsnr" v="539868" />
		<tag k="ssr:type" v="fyrlykt" />
	</node>
	<node lat="59.11760278071363" lon="11.361508326873185" id="-24544">
		<tag k="name" v="Hollenderen lykt" />
		<tag k="ssr:date" v="2019-12-27" />
		<tag k="ssr:gruppe" v="navigasjon" />
		<tag k="ssr:hovedgruppe" v="infrastruktur" />
		<tag k="ssr:stedsnr" v="601049" />
		<tag k="ssr:type" v="fyrlykt" />
	</node>
	<node lat="59.10098022156284" lon="11.207285540570837" id="-24549">
		<tag k="name" v="Mørvikåsen" />
		<tag k="ssr:date" v="2019-12-27" />
		<tag k="ssr:gruppe" v="veg" />
		<tag k="ssr:hovedgruppe" v="infrastruktur" />
		<tag k="ssr:stedsnr" v="606377" />
		<tag k="ssr:type" v="adressenavn" />
	</node>
	<node lat="59.10768333743993" lon="11.300124997959388" id="-24550">
		<tag k="name" v="Unnebergholmene" />
		<tag k="ssr:date" v="2019-12-27" />
		<tag k="ssr:gruppe" v="veg" />
		<tag k="ssr:hovedgruppe" v="infrastruktur" />
		<tag k="ssr:stedsnr" v="606382" />
		<tag k="ssr:type" v="adressenavn" />
	</node>
	<node lat="59.11100035105515" lon="11.213137061481621" id="-24635">
		<tag k="name" v="Flatskjær" />
		<tag k="ssr:date" v="2019-12-27" />
		<tag k="ssr:gruppe" v="veg" />
		<tag k="ssr:hovedgruppe" v="infrastruktur" />
		<tag k="ssr:stedsnr" v="667383" />
		<tag k="ssr:type" v="adressenavn" />
	</node>
	<node lat="59.09945386529065" lon="11.374876362413644" id="-24661">
		<tag k="name" v="Skysskafferen lykt" />
		<tag k="old_name" v="Skyskafferen lykt" />
		<tag k="ssr:date" v="2019-12-27" />
		<tag k="ssr:gruppe" v="navigasjon" />
		<tag k="ssr:hovedgruppe" v="infrastruktur" />
		<tag k="ssr:stedsnr" v="669816" />
		<tag k="ssr:type" v="fyrlykt" />
	</node>
	<node lat="58.93082319297472" lon="11.636452736226216" id="-24739">
		<tag k="name" v="Finnsvikøya" />
		<tag k="ssr:date" v="2019-12-27" />
		<tag k="ssr:gruppe" v="veg" />
		<tag k="ssr:hovedgruppe" v="infrastruktur" />
		<tag k="ssr:stedsnr" v="728375" />
		<tag k="ssr:type" v="adressenavn" />
	</node>
	<node lat="59.09471111072322" lon="11.251888895249717" id="-24778">
		<tag k="name" v="Svinesundbroen F" />
		<tag k="ssr:date" v="2019-12-27" />
		<tag k="ssr:gruppe" v="navigasjon" />
		<tag k="ssr:hovedgruppe" v="infrastruktur" />
		<tag k="ssr:stedsnr" v="737060" />
		<tag k="ssr:type" v="fyrlykt" />
	</node>
	<node lat="59.11444807545066" lon="11.298775215925863" id="-24805">
		<tag k="name" v="Unnebergveien" />
		<tag k="ssr:date" v="2019-12-27" />
		<tag k="ssr:gruppe" v="veg" />
		<tag k="ssr:hovedgruppe" v="infrastruktur" />
		<tag k="ssr:stedsnr" v="910393" />
		<tag k="ssr:type" v="adressenavn" />
	</node>
	<node lat="59.094683332028794" lon="11.25157221662514" id="-24908">
		<tag k="name" v="Svinesundbroen C" />
		<tag k="ssr:date" v="2019-12-27" />
		<tag k="ssr:gruppe" v="navigasjon" />
		<tag k="ssr:hovedgruppe" v="infrastruktur" />
		<tag k="ssr:stedsnr" v="843066" />
		<tag k="ssr:type" v="fyrlykt" />
	</node>
	<node lat="59.09646172836995" lon="11.20180855261969" id="-25049">
		<tag k="name" v="Store Mørvikholmen" />
		<tag k="ssr:date" v="2019-12-27" />
		<tag k="ssr:gruppe" v="veg" />
		<tag k="ssr:hovedgruppe" v="infrastruktur" />
		<tag k="ssr:stedsnr" v="970614" />
		<tag k="ssr:type" v="adressenavn" />
	</node>
	<node lat="59.109344450572074" lon="11.213814601631634" id="-25051">
		<tag k="name" v="Varpet" />
		<tag k="ssr:date" v="2019-12-27" />
		<tag k="ssr:gruppe" v="veg" />
		<tag k="ssr:hovedgruppe" v="infrastruktur" />
		<tag k="ssr:stedsnr" v="975592" />
		<tag k="ssr:type" v="adressenavn" />
	</node>
	<node lat="59.11115620772806" lon="11.22191688451471" id="-25053">
		<tag k="name" v="Røsnesåsen" />
		<tag k="ssr:date" v="2019-12-27" />
		<tag k="ssr:gruppe" v="veg" />
		<tag k="ssr:hovedgruppe" v="infrastruktur" />
		<tag k="ssr:stedsnr" v="975875" />
		<tag k="ssr:type" v="adressenavn" />
	</node>
	<node lat="59.105202152873446" lon="11.218983045184276" id="-25054">
		<tag k="name" v="Penlia" />
		<tag k="ssr:date" v="2019-12-27" />
		<tag k="ssr:gruppe" v="veg" />
		<tag k="ssr:hovedgruppe" v="infrastruktur" />
		<tag k="ssr:stedsnr" v="975876" />
		<tag k="ssr:type" v="adressenavn" />
	</node>
	<node lat="59.10777942932848" lon="11.227362868881341" id="-25055">
		<tag k="name" v="Svalerødveien" />
		<tag k="ssr:date" v="2019-12-27" />
		<tag k="ssr:gruppe" v="veg" />
		<tag k="ssr:hovedgruppe" v="infrastruktur" />
		<tag k="ssr:stedsnr" v="975877" />
		<tag k="ssr:type" v="adressenavn" />
	</node>
	<node lat="59.10212931456954" lon="11.223372085317754" id="-25056">
		<tag k="name" v="Stensvikveien" />
		<tag k="ssr:date" v="2019-12-27" />
		<tag k="ssr:gruppe" v="veg" />
		<tag k="ssr:hovedgruppe" v="infrastruktur" />
		<tag k="ssr:stedsnr" v="975878" />
		<tag k="ssr:type" v="adressenavn" />
	</node>
	<node lat="59.10010187760182" lon="11.221361726849407" id="-25057">
		<tag k="name" v="Korterødfjella" />
		<tag k="ssr:date" v="2019-12-27" />
		<tag k="ssr:gruppe" v="veg" />
		<tag k="ssr:hovedgruppe" v="infrastruktur" />
		<tag k="ssr:stedsnr" v="975879" />
		<tag k="ssr:type" v="adressenavn" />
	</node>
	<node lat="59.09090197906911" lon="11.225613731191737" id="-25058">
		<tag k="name" v="Kjeøya" />
		<tag k="ssr:date" v="2019-12-27" />
		<tag k="ssr:gruppe" v="veg" />
		<tag k="ssr:hovedgruppe" v="infrastruktur" />
		<tag k="ssr:stedsnr" v="975880" />
		<tag k="ssr:type" v="adressenavn" />
	</node>
	<node lat="59.13200968323079" lon="11.265941634567312" id="-25059">
		<tag k="name" v="Røsnesveien" />
		<tag k="ssr:date" v="2019-12-27" />
		<tag k="ssr:gruppe" v="veg" />
		<tag k="ssr:hovedgruppe" v="infrastruktur" />
		<tag k="ssr:stedsnr" v="975881" />
		<tag k="ssr:type" v="adressenavn" />
	</node>
	<node lat="59.132582902047574" lon="11.235086051953392" id="-25060">
		<tag k="name" v="Emanuelveien" />
		<tag k="ssr:date" v="2019-12-27" />
		<tag k="ssr:gruppe" v="veg" />
		<tag k="ssr:hovedgruppe" v="infrastruktur" />
		<tag k="ssr:stedsnr" v="975882" />
		<tag k="ssr:type" v="adressenavn" />
	</node>
	<node lat="59.13206738012856" lon="11.232193272502878" id="-25061">
		<tag k="name" v="Sjøbyveien" />
		<tag k="ssr:date" v="2019-12-27" />
		<tag k="ssr:gruppe" v="veg" />
		<tag k="ssr:hovedgruppe" v="infrastruktur" />
		<tag k="ssr:stedsnr" v="975893" />
		<tag k="ssr:type" v="adressenavn" />
	</node>
	<node lat="59.10580873633762" lon="11.221278052248662" id="-25062">
		<tag k="name" v="Vikeneveien" />
		<tag k="ssr:date" v="2019-12-27" />
		<tag k="ssr:gruppe" v="veg" />
		<tag k="ssr:hovedgruppe" v="infrastruktur" />
		<tag k="ssr:stedsnr" v="980848" />
		<tag k="ssr:type" v="adressenavn" />
	</node>
	<node lat="59.04448940188116" lon="11.445862255349674" id="-25064">
		<tag k="name" v="Holtegrenda" />
		<tag k="ssr:date" v="2019-12-27" />
		<tag k="ssr:gruppe" v="veg" />
		<tag k="ssr:hovedgruppe" v="infrastruktur" />
		<tag k="ssr:stedsnr" v="980850" />
		<tag k="ssr:type" v="adressenavn" />
	</node>
	<node lat="59.04760777956177" lon="11.447241530023442" id="-25065">
		<tag k="name" v="Holteliveien" />
		<tag k="ssr:date" v="2019-12-27" />
		<tag k="ssr:gruppe" v="veg" />
		<tag k="ssr:hovedgruppe" v="infrastruktur" />
		<tag k="ssr:stedsnr" v="980851" />
		<tag k="ssr:type" v="adressenavn" />
	</node>
	<node lat="59.016640047259905" lon="11.449291983840057" id="-25066">
		<tag k="name" v="Bakke brygge" />
		<tag k="ssr:date" v="2019-12-27" />
		<tag k="ssr:gruppe" v="veg" />
		<tag k="ssr:hovedgruppe" v="infrastruktur" />
		<tag k="ssr:stedsnr" v="980852" />
		<tag k="ssr:type" v="adressenavn" />
	</node>
	<node lat="59.00578795517216" lon="11.525587051149781" id="-25067">
		<tag k="name" v="Buerskogen" />
		<tag k="ssr:date" v="2019-12-27" />
		<tag k="ssr:gruppe" v="veg" />
		<tag k="ssr:hovedgruppe" v="infrastruktur" />
		<tag k="ssr:stedsnr" v="980853" />
		<tag k="ssr:type" v="adressenavn" />
	</node>
	<node lat="59.122572722400264" lon="11.387105188124883" id="-25420">
		<tag k="alt_name" v="Halden" />
		<tag k="name" v="Halden kommune" />
		<tag k="ssr:date" v="2019-12-27" />
		<tag k="ssr:gruppe" v="administrativeIndelinger" />
		<tag k="ssr:hovedgruppe" v="offentligAdministrasjon" />
		<tag k="ssr:stedsnr" v="206430" />
		<tag k="ssr:type" v="kommune" />
	</node>
	<node lat="59.17225390766243" lon="11.536518495635738" id="-25469">
		<tag k="name" v="Storøya" />
		<tag k="ssr:date" v="2019-12-27" />
		<tag k="ssr:gruppe" v="veg" />
		<tag k="ssr:hovedgruppe" v="infrastruktur" />
		<tag k="ssr:stedsnr" v="303397" />
		<tag k="ssr:type" v="adressenavn" />
	</node>
	<node lat="59.102983336951525" lon="11.192266665687368" id="-25549">
		<tag k="name" v="Varperenna" />
		<tag k="ssr:date" v="2019-12-27" />
		<tag k="ssr:gruppe" v="sjøbunn" />
		<tag k="ssr:hovedgruppe" v="sjø" />
		<tag k="ssr:stedsnr" v="343255" />
		<tag k="ssr:type" v="renneKløftISjø" />
	</node>
	<node lat="59.125269447391894" lon="11.388947230714825" id="-25550">
		<tag k="name" v="Halden postkontor" />
		<tag k="ssr:date" v="2019-12-27" />
		<tag k="ssr:gruppe" v="administrativeIndelinger" />
		<tag k="ssr:hovedgruppe" v="offentligAdministrasjon" />
		<tag k="ssr:stedsnr" v="343628" />
		<tag k="ssr:type" v="poststed" />
	</node>
	<node lat="59.09908889089246" lon="11.27800277629059" id="-25583">
		<tag k="name" v="Blåsoppynten lykt" />
		<tag k="ssr:date" v="2019-12-27" />
		<tag k="ssr:gruppe" v="navigasjon" />
		<tag k="ssr:hovedgruppe" v="infrastruktur" />
		<tag k="ssr:stedsnr" v="357897" />
		<tag k="ssr:type" v="fyrlykt" />
	</node>
	<node lat="59.100747220741034" lon="11.288536118047784" id="-25584">
		<tag k="name" v="Kråkenebbet lykt" />
		<tag k="ssr:date" v="2019-12-27" />
		<tag k="ssr:gruppe" v="navigasjon" />
		<tag k="ssr:hovedgruppe" v="infrastruktur" />
		<tag k="ssr:stedsnr" v="357874" />
		<tag k="ssr:type" v="fyrlykt" />
	</node>
	<node lat="59.09481389248131" lon="11.251247218783753" id="-26295">
		<tag k="name" v="Rørbek lykt" />
		<tag k="ssr:date" v="2019-12-27" />
		<tag k="ssr:gruppe" v="navigasjon" />
		<tag k="ssr:hovedgruppe" v="infrastruktur" />
		<tag k="ssr:stedsnr" v="843909" />
		<tag k="ssr:type" v="fyrlykt" />
	</node>
	<node lat="59.02942013963704" lon="11.43930718329555" id="-26297">
		<tag k="name" v="Liholtsetre" />
		<tag k="ssr:date" v="2019-12-27" />
		<tag k="ssr:gruppe" v="veg" />
		<tag k="ssr:hovedgruppe" v="infrastruktur" />
		<tag k="ssr:stedsnr" v="849420" />
		<tag k="ssr:type" v="adressenavn" />
	</node>
	<node lat="59.04230855729997" lon="11.423500157872226" id="-26424">
		<tag k="name" v="Gullvikveien" />
		<tag k="ssr:date" v="2019-12-27" />
		<tag k="ssr:gruppe" v="veg" />
		<tag k="ssr:hovedgruppe" v="infrastruktur" />
		<tag k="ssr:stedsnr" v="975897" />
		<tag k="ssr:type" v="adressenavn" />
	</node>
	<node lat="59.04179517810479" lon="11.427262951727394" id="-26425">
		<tag k="name" v="Fløbergveien" />
		<tag k="ssr:date" v="2019-12-27" />
		<tag k="ssr:gruppe" v="veg" />
		<tag k="ssr:hovedgruppe" v="infrastruktur" />
		<tag k="ssr:stedsnr" v="975898" />
		<tag k="ssr:type" v="adressenavn" />
	</node>
	<node lat="59.041322704987884" lon="11.429856387618559" id="-26426">
		<tag k="name" v="Sanderødstranda" />
		<tag k="ssr:date" v="2019-12-27" />
		<tag k="ssr:gruppe" v="veg" />
		<tag k="ssr:hovedgruppe" v="infrastruktur" />
		<tag k="ssr:stedsnr" v="975899" />
		<tag k="ssr:type" v="adressenavn" />
	</node>
	<node lat="59.03567916969096" lon="11.436052013131082" id="-26427">
		<tag k="name" v="Osdalen" />
		<tag k="ssr:date" v="2019-12-27" />
		<tag k="ssr:gruppe" v="veg" />
		<tag k="ssr:hovedgruppe" v="infrastruktur" />
		<tag k="ssr:stedsnr" v="975900" />
		<tag k="ssr:type" v="adressenavn" />
	</node>
	<node lat="59.0311426417258" lon="11.435396783375372" id="-26428">
		<tag k="name" v="Rødhella" />
		<tag k="ssr:date" v="2019-12-27" />
		<tag k="ssr:gruppe" v="veg" />
		<tag k="ssr:hovedgruppe" v="infrastruktur" />
		<tag k="ssr:stedsnr" v="975901" />
		<tag k="ssr:type" v="adressenavn" />
	</node>
	<node lat="59.02896099631937" lon="11.444350171578156" id="-26429">
		<tag k="name" v="Øvre Liholtbanen" />
		<tag k="ssr:date" v="2019-12-27" />
		<tag k="ssr:gruppe" v="veg" />
		<tag k="ssr:hovedgruppe" v="infrastruktur" />
		<tag k="ssr:stedsnr" v="975902" />
		<tag k="ssr:type" v="adressenavn" />
	</node>
	<node lat="59.02666638435935" lon="11.443909766380617" id="-26430">
		<tag k="name" v="Liholtbanen" />
		<tag k="ssr:date" v="2019-12-27" />
		<tag k="ssr:gruppe" v="veg" />
		<tag k="ssr:hovedgruppe" v="infrastruktur" />
		<tag k="ssr:stedsnr" v="975903" />
		<tag k="ssr:type" v="adressenavn" />
	</node>
	<node lat="59.015251312595616" lon="11.447104940829519" id="-26431">
		<tag k="name" v="Frantzebakken" />
		<tag k="ssr:date" v="2019-12-27" />
		<tag k="ssr:gruppe" v="veg" />
		<tag k="ssr:hovedgruppe" v="infrastruktur" />
		<tag k="ssr:stedsnr" v="975904" />
		<tag k="ssr:type" v="adressenavn" />
	</node>
	<node lat="58.897144717576346" lon="11.477310888786256" id="-26432">
		<tag k="name" v="Signebøenfjellet" />
		<tag k="ssr:date" v="2019-12-27" />
		<tag k="ssr:gruppe" v="veg" />
		<tag k="ssr:hovedgruppe" v="infrastruktur" />
		<tag k="ssr:stedsnr" v="975905" />
		<tag k="ssr:type" v="adressenavn" />
	</node>
	<node lat="58.931368802261154" lon="11.635304524140889" id="-26433">
		<tag k="name" v="Finnsvikveien" />
		<tag k="ssr:date" v="2019-12-27" />
		<tag k="ssr:gruppe" v="veg" />
		<tag k="ssr:hovedgruppe" v="infrastruktur" />
		<tag k="ssr:stedsnr" v="975906" />
		<tag k="ssr:type" v="adressenavn" />
	</node>
	<node lat="58.97996808083121" lon="11.642157829300917" id="-26434">
		<tag k="name" v="Bollerødveien" />
		<tag k="ssr:date" v="2019-12-27" />
		<tag k="ssr:gruppe" v="veg" />
		<tag k="ssr:hovedgruppe" v="infrastruktur" />
		<tag k="ssr:stedsnr" v="975907" />
		<tag k="ssr:type" v="adressenavn" />
	</node>
	<node lat="59.058402593763944" lon="11.516192784440854" id="-26435">
		<tag k="name" v="Holvannsveien" />
		<tag k="ssr:date" v="2019-12-27" />
		<tag k="ssr:gruppe" v="veg" />
		<tag k="ssr:hovedgruppe" v="infrastruktur" />
		<tag k="ssr:stedsnr" v="975908" />
		<tag k="ssr:type" v="adressenavn" />
	</node>
	<node lat="59.13355044524915" lon="11.277047000462403" id="-26436">
		<tag k="name" v="Viksletta" />
		<tag k="ssr:date" v="2019-12-27" />
		<tag k="ssr:gruppe" v="veg" />
		<tag k="ssr:hovedgruppe" v="infrastruktur" />
		<tag k="ssr:stedsnr" v="975909" />
		<tag k="ssr:type" v="adressenavn" />
	</node>
	<node lat="59.147591524390236" lon="11.279500807620678" id="-26437">
		<tag k="name" v="Husebyveien" />
		<tag k="ssr:date" v="2019-12-27" />
		<tag k="ssr:gruppe" v="veg" />
		<tag k="ssr:hovedgruppe" v="infrastruktur" />
		<tag k="ssr:stedsnr" v="975910" />
		<tag k="ssr:type" v="adressenavn" />
	</node>
	<node lat="59.15091885404047" lon="11.245593513641243" id="-26438">
		<tag k="name" v="Stenkloppveien" />
		<tag k="ssr:date" v="2019-12-27" />
		<tag k="ssr:gruppe" v="veg" />
		<tag k="ssr:hovedgruppe" v="infrastruktur" />
		<tag k="ssr:stedsnr" v="975911" />
		<tag k="ssr:type" v="adressenavn" />
	</node>
	<node lat="59.23804177999537" lon="11.379342471504522" id="-26439">
		<tag k="name" v="Bergsmarkveien" />
		<tag k="ssr:date" v="2019-12-27" />
		<tag k="ssr:gruppe" v="veg" />
		<tag k="ssr:hovedgruppe" v="infrastruktur" />
		<tag k="ssr:stedsnr" v="975912" />
		<tag k="ssr:type" v="adressenavn" />
	</node>
	<node lat="59.22772930014536" lon="11.488048583042731" id="-26440">
		<tag k="name" v="Ulveholtveien" />
		<tag k="ssr:date" v="2019-12-27" />
		<tag k="ssr:gruppe" v="veg" />
		<tag k="ssr:hovedgruppe" v="infrastruktur" />
		<tag k="ssr:stedsnr" v="975913" />
		<tag k="ssr:type" v="adressenavn" />
	</node>
	<node lat="59.09557816183923" lon="11.202555647967081" id="-26441">
		<tag k="name" v="Mørvikveien" />
		<tag k="ssr:date" v="2019-12-27" />
		<tag k="ssr:gruppe" v="veg" />
		<tag k="ssr:hovedgruppe" v="infrastruktur" />
		<tag k="ssr:stedsnr" v="975591" />
		<tag k="ssr:type" v="adressenavn" />
	</node>
	<node lat="59.2201250739751" lon="11.471270814938585" id="-26442">
		<tag k="name" v="Bunesveien" />
		<tag k="ssr:date" v="2019-12-27" />
		<tag k="ssr:gruppe" v="veg" />
		<tag k="ssr:hovedgruppe" v="infrastruktur" />
		<tag k="ssr:stedsnr" v="976084" />
		<tag k="ssr:type" v="adressenavn" />
	</node>
	<node lat="59.1490072693835" lon="11.42591202306877" id="-26443">
		<tag k="name" v="Høyåsveien" />
		<tag k="ssr:date" v="2019-12-27" />
		<tag k="ssr:gruppe" v="veg" />
		<tag k="ssr:hovedgruppe" v="infrastruktur" />
		<tag k="ssr:stedsnr" v="976085" />
		<tag k="ssr:type" v="adressenavn" />
	</node>
	<node lat="59.16158872721457" lon="11.533666587279175" id="-26444">
		<tag k="name" v="Seljevikveien" />
		<tag k="ssr:date" v="2019-12-27" />
		<tag k="ssr:gruppe" v="veg" />
		<tag k="ssr:hovedgruppe" v="infrastruktur" />
		<tag k="ssr:stedsnr" v="976086" />
		<tag k="ssr:type" v="adressenavn" />
	</node>
	<node lat="59.15001957998502" lon="11.519491368315576" id="-26445">
		<tag k="name" v="Nestangen" />
		<tag k="ssr:date" v="2019-12-27" />
		<tag k="ssr:gruppe" v="veg" />
		<tag k="ssr:hovedgruppe" v="infrastruktur" />
		<tag k="ssr:stedsnr" v="976087" />
		<tag k="ssr:type" v="adressenavn" />
	</node>
	<node lat="58.97663957902483" lon="11.509869338733548" id="-26446">
		<tag k="name" v="Iddefjordsveien" />
		<tag k="ssr:date" v="2019-12-27" />
		<tag k="ssr:gruppe" v="veg" />
		<tag k="ssr:hovedgruppe" v="infrastruktur" />
		<tag k="ssr:stedsnr" v="976088" />
		<tag k="ssr:type" v="adressenavn" />
	</node>
	<node lat="58.944413484056014" lon="11.461423127643755" id="-26447">
		<tag k="name" v="Berbyveien" />
		<tag k="ssr:date" v="2019-12-27" />
		<tag k="ssr:gruppe" v="veg" />
		<tag k="ssr:hovedgruppe" v="infrastruktur" />
		<tag k="ssr:stedsnr" v="976089" />
		<tag k="ssr:type" v="adressenavn" />
	</node>
	<node lat="59.081833859215685" lon="11.435917635885431" id="-26448">
		<tag k="name" v="Bøveien" />
		<tag k="ssr:date" v="2019-12-27" />
		<tag k="ssr:gruppe" v="veg" />
		<tag k="ssr:hovedgruppe" v="infrastruktur" />
		<tag k="ssr:stedsnr" v="976090" />
		<tag k="ssr:type" v="adressenavn" />
	</node>
	<node lat="59.02099672154499" lon="11.514635366011332" id="-26449">
		<tag k="name" v="Hisåsveien" />
		<tag k="ssr:date" v="2019-12-27" />
		<tag k="ssr:gruppe" v="veg" />
		<tag k="ssr:hovedgruppe" v="infrastruktur" />
		<tag k="ssr:stedsnr" v="976091" />
		<tag k="ssr:type" v="adressenavn" />
	</node>
	<node lat="59.00387792234982" lon="11.529157661854853" id="-26451">
		<tag k="name" v="Stenersrød" />
		<tag k="ssr:date" v="2019-12-27" />
		<tag k="ssr:gruppe" v="veg" />
		<tag k="ssr:hovedgruppe" v="infrastruktur" />
		<tag k="ssr:stedsnr" v="976093" />
		<tag k="ssr:type" v="adressenavn" />
	</node>
	<node lat="58.91850226713268" lon="11.56858589762895" id="-26452">
		<tag k="name" v="Fjellet" />
		<tag k="ssr:date" v="2019-12-27" />
		<tag k="ssr:gruppe" v="veg" />
		<tag k="ssr:hovedgruppe" v="infrastruktur" />
		<tag k="ssr:stedsnr" v="976094" />
		<tag k="ssr:type" v="adressenavn" />
	</node>
	<node lat="59.027626877345014" lon="11.606068621254206" id="-26453">
		<tag k="name" v="Ørsveien" />
		<tag k="ssr:date" v="2019-12-27" />
		<tag k="ssr:gruppe" v="veg" />
		<tag k="ssr:hovedgruppe" v="infrastruktur" />
		<tag k="ssr:stedsnr" v="976095" />
		<tag k="ssr:type" v="adressenavn" />
	</node>
	<node lat="59.127990091232824" lon="11.44443276448316" id="-26473">
		<tag k="name" v="Fosseveien" />
		<tag k="ssr:date" v="2019-12-27" />
		<tag k="ssr:gruppe" v="veg" />
		<tag k="ssr:hovedgruppe" v="infrastruktur" />
		<tag k="ssr:stedsnr" v="1060310" />
		<tag k="ssr:type" v="adressenavn" />
	</node>
	<node lat="59.12634188941789" lon="11.399418355551505" id="-26474">
		<tag k="name" v="Brattveien" />
		<tag k="ssr:date" v="2019-12-27" />
		<tag k="ssr:gruppe" v="veg" />
		<tag k="ssr:hovedgruppe" v="infrastruktur" />
		<tag k="ssr:stedsnr" v="1059090" />
		<tag k="ssr:type" v="adressenavn" />
	</node>
	<node lat="59.11032437216434" lon="11.400695496054375" id="-26475">
		<tag k="name" v="Dragonveien" />
		<tag k="ssr:date" v="2019-12-27" />
		<tag k="ssr:gruppe" v="veg" />
		<tag k="ssr:hovedgruppe" v="infrastruktur" />
		<tag k="ssr:stedsnr" v="1059293" />
		<tag k="ssr:type" v="adressenavn" />
	</node>
	<node lat="59.12893671509354" lon="11.361531546489376" id="-26476">
		<tag k="name" v="Dikterstubben" />
		<tag k="ssr:date" v="2019-12-27" />
		<tag k="ssr:gruppe" v="veg" />
		<tag k="ssr:hovedgruppe" v="infrastruktur" />
		<tag k="ssr:stedsnr" v="1059302" />
		<tag k="ssr:type" v="adressenavn" />
	</node>
	<node lat="59.12490920608933" lon="11.387083726273604" id="-26477">
		<tag k="name" v="Busterudgata" />
		<tag k="ssr:date" v="2019-12-27" />
		<tag k="ssr:gruppe" v="veg" />
		<tag k="ssr:hovedgruppe" v="infrastruktur" />
		<tag k="ssr:stedsnr" v="1059326" />
		<tag k="ssr:type" v="adressenavn" />
	</node>
	<node lat="59.12634427715311" lon="11.443685677988404" id="-26479">
		<tag k="name" v="Aremarkveien" />
		<tag k="ssr:date" v="2019-12-27" />
		<tag k="ssr:gruppe" v="veg" />
		<tag k="ssr:hovedgruppe" v="infrastruktur" />
		<tag k="ssr:stedsnr" v="1059388" />
		<tag k="ssr:type" v="adressenavn" />
	</node>
	<node lat="59.114047534188344" lon="11.39046032828595" id="-26480">
		<tag k="name" v="Enerbakken" />
		<tag k="ssr:date" v="2019-12-27" />
		<tag k="ssr:gruppe" v="veg" />
		<tag k="ssr:hovedgruppe" v="infrastruktur" />
		<tag k="ssr:stedsnr" v="1060141" />
		<tag k="ssr:type" v="adressenavn" />
	</node>
	<node lat="59.10943737767306" lon="11.433433824832234" id="-26481">
		<tag k="name" v="Brattåsveien" />
		<tag k="ssr:date" v="2019-12-27" />
		<tag k="ssr:gruppe" v="veg" />
		<tag k="ssr:hovedgruppe" v="infrastruktur" />
		<tag k="ssr:stedsnr" v="1059075" />
		<tag k="ssr:type" v="adressenavn" />
	</node>
	<node lat="59.11356799294478" lon="11.400024636774479" id="-26484">
		<tag k="name" v="Brigadeveien" />
		<tag k="ssr:date" v="2019-12-27" />
		<tag k="ssr:gruppe" v="veg" />
		<tag k="ssr:hovedgruppe" v="infrastruktur" />
		<tag k="ssr:stedsnr" v="1059136" />
		<tag k="ssr:type" v="adressenavn" />
	</node>
	<node lat="59.12670280452642" lon="11.352918714877944" id="-26486">
		<tag k="name" v="B R A veien" />
		<tag k="ssr:date" v="2019-12-27" />
		<tag k="ssr:gruppe" v="veg" />
		<tag k="ssr:hovedgruppe" v="infrastruktur" />
		<tag k="ssr:stedsnr" v="1059140" />
		<tag k="ssr:type" v="adressenavn" />
	</node>
	<node lat="59.12564664686721" lon="11.416574928928235" id="-26489">
		<tag k="name" v="Bondebakken" />
		<tag k="ssr:date" v="2019-12-27" />
		<tag k="ssr:gruppe" v="veg" />
		<tag k="ssr:hovedgruppe" v="infrastruktur" />
		<tag k="ssr:stedsnr" v="1059145" />
		<tag k="ssr:type" v="adressenavn" />
	</node>
	<node lat="59.13540993243272" lon="11.383781773859264" id="-26491">
		<tag k="name" v="Brattliveien" />
		<tag k="ssr:date" v="2019-12-27" />
		<tag k="ssr:gruppe" v="veg" />
		<tag k="ssr:hovedgruppe" v="infrastruktur" />
		<tag k="ssr:stedsnr" v="1059099" />
		<tag k="ssr:type" v="adressenavn" />
	</node>
	<node lat="59.144868657093575" lon="11.415092129243828" id="-26492">
		<tag k="name" v="Bratner terrasse" />
		<tag k="ssr:date" v="2019-12-27" />
		<tag k="ssr:gruppe" v="veg" />
		<tag k="ssr:hovedgruppe" v="infrastruktur" />
		<tag k="ssr:stedsnr" v="1059105" />
		<tag k="ssr:type" v="adressenavn" />
	</node>
	<node lat="59.1398984410609" lon="11.379684698077252" id="-26495">
		<tag k="name" v="Brødløsveien" />
		<tag k="ssr:date" v="2019-12-27" />
		<tag k="ssr:gruppe" v="veg" />
		<tag k="ssr:hovedgruppe" v="infrastruktur" />
		<tag k="ssr:stedsnr" v="1059115" />
		<tag k="ssr:type" v="adressenavn" />
	</node>
	<node lat="59.126134169055724" lon="11.444067858760272" id="-26497">
		<tag k="name" v="Bruveien" />
		<tag k="ssr:date" v="2019-12-27" />
		<tag k="ssr:gruppe" v="veg" />
		<tag k="ssr:hovedgruppe" v="infrastruktur" />
		<tag k="ssr:stedsnr" v="1059121" />
		<tag k="ssr:type" v="adressenavn" />
	</node>
	<node lat="59.128861880210934" lon="11.44734832557018" id="-26499">
		<tag k="name" v="Borggata" />
		<tag k="ssr:date" v="2019-12-27" />
		<tag k="ssr:gruppe" v="veg" />
		<tag k="ssr:hovedgruppe" v="infrastruktur" />
		<tag k="ssr:stedsnr" v="1059197" />
		<tag k="ssr:type" v="adressenavn" />
	</node>
	<node lat="59.11968942539124" lon="11.391309484288422" id="-26500">
		<tag k="name" v="Borgerskansen" />
		<tag k="ssr:date" v="2019-12-27" />
		<tag k="ssr:gruppe" v="veg" />
		<tag k="ssr:hovedgruppe" v="infrastruktur" />
		<tag k="ssr:stedsnr" v="1059202" />
		<tag k="ssr:type" v="adressenavn" />
	</node>
	<node lat="59.12009563591917" lon="11.390385915370171" id="-26501">
		<tag k="name" v="Borgergata" />
		<tag k="ssr:date" v="2019-12-27" />
		<tag k="ssr:gruppe" v="veg" />
		<tag k="ssr:hovedgruppe" v="infrastruktur" />
		<tag k="ssr:stedsnr" v="1059204" />
		<tag k="ssr:type" v="adressenavn" />
	</node>
	<node lat="59.144637728736335" lon="11.390615669093455" id="-26502">
		<tag k="name" v="Diamantveien" />
		<tag k="ssr:date" v="2019-12-27" />
		<tag k="ssr:gruppe" v="veg" />
		<tag k="ssr:hovedgruppe" v="infrastruktur" />
		<tag k="ssr:stedsnr" v="1059208" />
		<tag k="ssr:type" v="adressenavn" />
	</node>
	<node lat="59.12084905228701" lon="11.440648901624103" id="-26503">
		<tag k="name" v="Danseberget" />
		<tag k="ssr:date" v="2019-12-27" />
		<tag k="ssr:gruppe" v="veg" />
		<tag k="ssr:hovedgruppe" v="infrastruktur" />
		<tag k="ssr:stedsnr" v="1059210" />
		<tag k="ssr:type" v="adressenavn" />
	</node>
	<node lat="59.134145721529336" lon="11.431085891351533" id="-26505">
		<tag k="name" v="Damveien" />
		<tag k="ssr:date" v="2019-12-27" />
		<tag k="ssr:gruppe" v="veg" />
		<tag k="ssr:hovedgruppe" v="infrastruktur" />
		<tag k="ssr:stedsnr" v="1059212" />
		<tag k="ssr:type" v="adressenavn" />
	</node>
	<node lat="59.12523971510861" lon="11.396565268610635" id="-26506">
		<tag k="name" v="Damstredet" />
		<tag k="ssr:date" v="2019-12-27" />
		<tag k="ssr:gruppe" v="veg" />
		<tag k="ssr:hovedgruppe" v="infrastruktur" />
		<tag k="ssr:stedsnr" v="1059218" />
		<tag k="ssr:type" v="adressenavn" />
	</node>
	<node lat="59.127235036662526" lon="11.384971994947152" id="-26507">
		<tag k="name" v="Hannibal Sehesteds gate" />
		<tag k="ssr:date" v="2019-12-27" />
		<tag k="ssr:gruppe" v="veg" />
		<tag k="ssr:hovedgruppe" v="infrastruktur" />
		<tag k="ssr:stedsnr" v="1060087" />
		<tag k="ssr:type" v="adressenavn" />
	</node>
	<node lat="59.13703162388875" lon="11.443672788104337" id="-26509">
		<tag k="name" v="Hageveien" />
		<tag k="ssr:date" v="2019-12-27" />
		<tag k="ssr:gruppe" v="veg" />
		<tag k="ssr:hovedgruppe" v="infrastruktur" />
		<tag k="ssr:stedsnr" v="1060091" />
		<tag k="ssr:type" v="adressenavn" />
	</node>
	<node lat="59.123294290801454" lon="11.389863902339172" id="-26510">
		<tag k="name" v="Hagegata" />
		<tag k="ssr:date" v="2019-12-27" />
		<tag k="ssr:gruppe" v="veg" />
		<tag k="ssr:hovedgruppe" v="infrastruktur" />
		<tag k="ssr:stedsnr" v="1060094" />
		<tag k="ssr:type" v="adressenavn" />
	</node>
	<node lat="59.12602157191658" lon="11.362694906344121" id="-26513">
		<tag k="name" v="Blåklokkeveien" />
		<tag k="ssr:date" v="2019-12-27" />
		<tag k="ssr:gruppe" v="veg" />
		<tag k="ssr:hovedgruppe" v="infrastruktur" />
		<tag k="ssr:stedsnr" v="1059155" />
		<tag k="ssr:type" v="adressenavn" />
	</node>
	<node lat="59.12368736523466" lon="11.36339934415984" id="-26514">
		<tag k="name" v="Blomsterveien" />
		<tag k="ssr:date" v="2019-12-27" />
		<tag k="ssr:gruppe" v="veg" />
		<tag k="ssr:hovedgruppe" v="infrastruktur" />
		<tag k="ssr:stedsnr" v="1059160" />
		<tag k="ssr:type" v="adressenavn" />
	</node>
	<node lat="59.140941527491904" lon="11.40528172117781" id="-26515">
		<tag k="name" v="Blokkveien" />
		<tag k="ssr:date" v="2019-12-27" />
		<tag k="ssr:gruppe" v="veg" />
		<tag k="ssr:hovedgruppe" v="infrastruktur" />
		<tag k="ssr:stedsnr" v="1059171" />
		<tag k="ssr:type" v="adressenavn" />
	</node>
	<node lat="59.13273836016295" lon="11.358014641966626" id="-26516">
		<tag k="name" v="Brages vei" />
		<tag k="ssr:date" v="2019-12-27" />
		<tag k="ssr:gruppe" v="veg" />
		<tag k="ssr:hovedgruppe" v="infrastruktur" />
		<tag k="ssr:stedsnr" v="1059175" />
		<tag k="ssr:type" v="adressenavn" />
	</node>
	<node lat="59.12614318737495" lon="11.392756411123878" id="-26517">
		<tag k="name" v="Damhauggata" />
		<tag k="ssr:date" v="2019-12-27" />
		<tag k="ssr:gruppe" v="veg" />
		<tag k="ssr:hovedgruppe" v="infrastruktur" />
		<tag k="ssr:stedsnr" v="1059256" />
		<tag k="ssr:type" v="adressenavn" />
	</node>
	<node lat="59.12359942273566" lon="11.37258395438931" id="-26518">
		<tag k="name" v="Christian Svendsens gate" />
		<tag k="ssr:date" v="2019-12-27" />
		<tag k="ssr:gruppe" v="veg" />
		<tag k="ssr:hovedgruppe" v="infrastruktur" />
		<tag k="ssr:stedsnr" v="1059264" />
		<tag k="ssr:type" v="adressenavn" />
	</node>
	<node lat="59.135972011029004" lon="11.400010179493226" id="-26519">
		<tag k="name" v="Dueveien" />
		<tag k="ssr:date" v="2019-12-27" />
		<tag k="ssr:gruppe" v="veg" />
		<tag k="ssr:hovedgruppe" v="infrastruktur" />
		<tag k="ssr:stedsnr" v="1059275" />
		<tag k="ssr:type" v="adressenavn" />
	</node>
	<node lat="59.10696232807402" lon="11.40251474958484" id="-26520">
		<tag k="name" v="Bueveien" />
		<tag k="ssr:date" v="2019-12-27" />
		<tag k="ssr:gruppe" v="veg" />
		<tag k="ssr:hovedgruppe" v="infrastruktur" />
		<tag k="ssr:stedsnr" v="1059341" />
		<tag k="ssr:type" v="adressenavn" />
	</node>
	<node lat="59.112364367552175" lon="11.390693274663672" id="-26523">
		<tag k="name" v="Brønnhøydveien" />
		<tag k="ssr:date" v="2019-12-27" />
		<tag k="ssr:gruppe" v="veg" />
		<tag k="ssr:hovedgruppe" v="infrastruktur" />
		<tag k="ssr:stedsnr" v="1059346" />
		<tag k="ssr:type" v="adressenavn" />
	</node>
	<node lat="59.127533113604755" lon="11.44665022894541" id="-26524">
		<tag k="name" v="Båtveien" />
		<tag k="ssr:date" v="2019-12-27" />
		<tag k="ssr:gruppe" v="veg" />
		<tag k="ssr:hovedgruppe" v="infrastruktur" />
		<tag k="ssr:stedsnr" v="1059354" />
		<tag k="ssr:type" v="adressenavn" />
	</node>
	<node lat="59.131070676394195" lon="11.442980213929678" id="-26525">
		<tag k="name" v="Cathrineholmsveien" />
		<tag k="ssr:date" v="2019-12-27" />
		<tag k="ssr:gruppe" v="veg" />
		<tag k="ssr:hovedgruppe" v="infrastruktur" />
		<tag k="ssr:stedsnr" v="1059356" />
		<tag k="ssr:type" v="adressenavn" />
	</node>
	<node lat="59.13162964113703" lon="11.368388156089111" id="-26526">
		<tag k="name" v="Båstadlundveien" />
		<tag k="ssr:date" v="2019-12-27" />
		<tag k="ssr:gruppe" v="veg" />
		<tag k="ssr:hovedgruppe" v="infrastruktur" />
		<tag k="ssr:stedsnr" v="1059363" />
		<tag k="ssr:type" v="adressenavn" />
	</node>
	<node lat="59.119545004334555" lon="11.362940187832882" id="-26528">
		<tag k="name" v="Bøkeveien" />
		<tag k="ssr:date" v="2019-12-27" />
		<tag k="ssr:gruppe" v="veg" />
		<tag k="ssr:hovedgruppe" v="infrastruktur" />
		<tag k="ssr:stedsnr" v="1059365" />
		<tag k="ssr:type" v="adressenavn" />
	</node>
	<node lat="59.12152802419192" lon="11.42549724142798" id="-26529">
		<tag k="name" v="Bygdeborgveien" />
		<tag k="ssr:date" v="2019-12-27" />
		<tag k="ssr:gruppe" v="veg" />
		<tag k="ssr:hovedgruppe" v="infrastruktur" />
		<tag k="ssr:stedsnr" v="1059366" />
		<tag k="ssr:type" v="adressenavn" />
	</node>
	<node lat="59.12346036679064" lon="11.38887459920091" id="-26530">
		<tag k="name" v="Busterudparken" />
		<tag k="ssr:date" v="2019-12-27" />
		<tag k="ssr:gruppe" v="veg" />
		<tag k="ssr:hovedgruppe" v="infrastruktur" />
		<tag k="ssr:stedsnr" v="1059369" />
		<tag k="ssr:type" v="adressenavn" />
	</node>
	<node lat="59.09694728737459" lon="11.231275515733223" id="-26531">
		<tag k="name" v="Bybakken" />
		<tag k="ssr:date" v="2019-12-27" />
		<tag k="ssr:gruppe" v="veg" />
		<tag k="ssr:hovedgruppe" v="infrastruktur" />
		<tag k="ssr:stedsnr" v="1059372" />
		<tag k="ssr:type" v="adressenavn" />
	</node>
	<node lat="59.12809960207664" lon="11.382957187603715" id="-26532">
		<tag k="name" v="Busterudkleiva" />
		<tag k="ssr:date" v="2019-12-27" />
		<tag k="ssr:gruppe" v="veg" />
		<tag k="ssr:hovedgruppe" v="infrastruktur" />
		<tag k="ssr:stedsnr" v="1059376" />
		<tag k="ssr:type" v="adressenavn" />
	</node>
	<node lat="59.129546800187036" lon="11.390826131939244" id="-26533">
		<tag k="name" v="Arild Huitfeldts gate" />
		<tag k="ssr:date" v="2019-12-27" />
		<tag k="ssr:gruppe" v="veg" />
		<tag k="ssr:hovedgruppe" v="infrastruktur" />
		<tag k="ssr:stedsnr" v="1059380" />
		<tag k="ssr:type" v="adressenavn" />
	</node>
	<node lat="59.13755507890506" lon="11.398075389087992" id="-26535">
		<tag k="name" v="Asakveien" />
		<tag k="ssr:date" v="2019-12-27" />
		<tag k="ssr:gruppe" v="veg" />
		<tag k="ssr:hovedgruppe" v="infrastruktur" />
		<tag k="ssr:stedsnr" v="1059385" />
		<tag k="ssr:type" v="adressenavn" />
	</node>
	<node lat="59.13086590390043" lon="11.39667699455327" id="-26536">
		<tag k="name" v="Astersveien" />
		<tag k="ssr:date" v="2019-12-27" />
		<tag k="ssr:gruppe" v="veg" />
		<tag k="ssr:hovedgruppe" v="infrastruktur" />
		<tag k="ssr:stedsnr" v="1059465" />
		<tag k="ssr:type" v="adressenavn" />
	</node>
	<node lat="59.12599634926127" lon="11.384503936366636" id="-26537">
		<tag k="name" v="Arbeidergata" />
		<tag k="ssr:date" v="2019-12-27" />
		<tag k="ssr:gruppe" v="veg" />
		<tag k="ssr:hovedgruppe" v="infrastruktur" />
		<tag k="ssr:stedsnr" v="1059411" />
		<tag k="ssr:type" v="adressenavn" />
	</node>
	<node lat="59.11462857576418" lon="11.39043115160945" id="-26538">
		<tag k="name" v="Apalveien" />
		<tag k="ssr:date" v="2019-12-27" />
		<tag k="ssr:gruppe" v="veg" />
		<tag k="ssr:hovedgruppe" v="infrastruktur" />
		<tag k="ssr:stedsnr" v="1059420" />
		<tag k="ssr:type" v="adressenavn" />
	</node>
	<node lat="59.12849352515968" lon="11.37189450814511" id="-26540">
		<tag k="name" v="Aspeveien" />
		<tag k="ssr:date" v="2019-12-27" />
		<tag k="ssr:gruppe" v="veg" />
		<tag k="ssr:hovedgruppe" v="infrastruktur" />
		<tag k="ssr:stedsnr" v="1059494" />
		<tag k="ssr:type" v="adressenavn" />
	</node>
	<node lat="59.11145975899755" lon="11.42905492295373" id="-26541">
		<tag k="name" v="Akebakken" />
		<tag k="ssr:date" v="2019-12-27" />
		<tag k="ssr:gruppe" v="veg" />
		<tag k="ssr:hovedgruppe" v="infrastruktur" />
		<tag k="ssr:stedsnr" v="1059500" />
		<tag k="ssr:type" v="adressenavn" />
	</node>
	<node lat="59.1287453878642" lon="11.445786570778916" id="-26543">
		<tag k="name" v="Andreas Danielsens vei" />
		<tag k="ssr:date" v="2019-12-27" />
		<tag k="ssr:gruppe" v="veg" />
		<tag k="ssr:hovedgruppe" v="infrastruktur" />
		<tag k="ssr:stedsnr" v="1059612" />
		<tag k="ssr:type" v="adressenavn" />
	</node>
	<node lat="59.128523441826125" lon="11.445382562621626" id="-26544">
		<tag k="name" v="Anders Syvertsens vei" />
		<tag k="ssr:date" v="2019-12-27" />
		<tag k="ssr:gruppe" v="veg" />
		<tag k="ssr:hovedgruppe" v="infrastruktur" />
		<tag k="ssr:stedsnr" v="1059618" />
		<tag k="ssr:type" v="adressenavn" />
	</node>
	<node lat="59.11964263489387" lon="11.38705296640599" id="-26545">
		<tag k="name" v="Blokkhusgata" />
		<tag k="ssr:date" v="2019-12-27" />
		<tag k="ssr:gruppe" v="veg" />
		<tag k="ssr:hovedgruppe" v="infrastruktur" />
		<tag k="ssr:stedsnr" v="1059688" />
		<tag k="ssr:type" v="adressenavn" />
	</node>
	<node lat="59.124023655713984" lon="11.393433755360517" id="-26546">
		<tag k="name" v="Blekergata" />
		<tag k="ssr:date" v="2019-12-27" />
		<tag k="ssr:gruppe" v="veg" />
		<tag k="ssr:hovedgruppe" v="infrastruktur" />
		<tag k="ssr:stedsnr" v="1059698" />
		<tag k="ssr:type" v="adressenavn" />
	</node>
	<node lat="59.12515075574494" lon="11.452563610399284" id="-26547">
		<tag k="name" v="Bjørnstadgata" />
		<tag k="ssr:date" v="2019-12-27" />
		<tag k="ssr:gruppe" v="veg" />
		<tag k="ssr:hovedgruppe" v="infrastruktur" />
		<tag k="ssr:stedsnr" v="1059704" />
		<tag k="ssr:type" v="adressenavn" />
	</node>
	<node lat="59.14247564452929" lon="11.382764577852944" id="-26548">
		<tag k="name" v="Bakkelundveien" />
		<tag k="ssr:date" v="2019-12-27" />
		<tag k="ssr:gruppe" v="veg" />
		<tag k="ssr:hovedgruppe" v="infrastruktur" />
		<tag k="ssr:stedsnr" v="1059718" />
		<tag k="ssr:type" v="adressenavn" />
	</node>
	<node lat="59.1299956446568" lon="11.398206031410657" id="-26549">
		<tag k="name" v="Bakkegata" />
		<tag k="ssr:date" v="2019-12-27" />
		<tag k="ssr:gruppe" v="veg" />
		<tag k="ssr:hovedgruppe" v="infrastruktur" />
		<tag k="ssr:stedsnr" v="1059721" />
		<tag k="ssr:type" v="adressenavn" />
	</node>
	<node lat="59.121523918881806" lon="11.384559752692311" id="-26550">
		<tag k="name" v="Bakbanken" />
		<tag k="ssr:date" v="2019-12-27" />
		<tag k="ssr:gruppe" v="veg" />
		<tag k="ssr:hovedgruppe" v="infrastruktur" />
		<tag k="ssr:stedsnr" v="1059727" />
		<tag k="ssr:type" v="adressenavn" />
	</node>
	<node lat="59.11873822120092" lon="11.389904723106568" id="-26551">
		<tag k="name" v="Adelgata" />
		<tag k="ssr:date" v="2019-12-27" />
		<tag k="ssr:gruppe" v="veg" />
		<tag k="ssr:hovedgruppe" v="infrastruktur" />
		<tag k="ssr:stedsnr" v="1059553" />
		<tag k="ssr:type" v="adressenavn" />
	</node>
	<node lat="59.114047534188344" lon="11.39046032828595" id="-26552">
		<tag k="name" v="Almeveien" />
		<tag k="ssr:date" v="2019-12-27" />
		<tag k="ssr:gruppe" v="veg" />
		<tag k="ssr:hovedgruppe" v="infrastruktur" />
		<tag k="ssr:stedsnr" v="1059640" />
		<tag k="ssr:type" v="adressenavn" />
	</node>
	<node lat="59.13521122284866" lon="11.383264036858078" id="-26553">
		<tag k="name" v="Alfheimveien" />
		<tag k="ssr:date" v="2019-12-27" />
		<tag k="ssr:gruppe" v="veg" />
		<tag k="ssr:hovedgruppe" v="infrastruktur" />
		<tag k="ssr:stedsnr" v="1059653" />
		<tag k="ssr:type" v="adressenavn" />
	</node>
	<node lat="59.136308451420824" lon="11.435382850186315" id="-26554">
		<tag k="name" v="Bjørkeboveien" />
		<tag k="ssr:date" v="2019-12-27" />
		<tag k="ssr:gruppe" v="veg" />
		<tag k="ssr:hovedgruppe" v="infrastruktur" />
		<tag k="ssr:stedsnr" v="1059660" />
		<tag k="ssr:type" v="adressenavn" />
	</node>
	<node lat="59.12407091204829" lon="11.37208642537577" id="-26555">
		<tag k="name" v="Bjerkeveien" />
		<tag k="ssr:date" v="2019-12-27" />
		<tag k="ssr:gruppe" v="veg" />
		<tag k="ssr:hovedgruppe" v="infrastruktur" />
		<tag k="ssr:stedsnr" v="1059663" />
		<tag k="ssr:type" v="adressenavn" />
	</node>
	<node lat="59.12527345225906" lon="11.44343992465739" id="-26556">
		<tag k="name" v="Bjerkelundveien" />
		<tag k="ssr:date" v="2019-12-27" />
		<tag k="ssr:gruppe" v="veg" />
		<tag k="ssr:hovedgruppe" v="infrastruktur" />
		<tag k="ssr:stedsnr" v="1059667" />
		<tag k="ssr:type" v="adressenavn" />
	</node>
	<node lat="59.13470749044753" lon="11.351284727951874" id="-26557">
		<tag k="name" v="Billebakkeveien" />
		<tag k="ssr:date" v="2019-12-27" />
		<tag k="ssr:gruppe" v="veg" />
		<tag k="ssr:hovedgruppe" v="infrastruktur" />
		<tag k="ssr:stedsnr" v="1059677" />
		<tag k="ssr:type" v="adressenavn" />
	</node>
	<node lat="59.13552835250416" lon="11.348064604193995" id="-26558">
		<tag k="name" v="Billebakken terrasse" />
		<tag k="ssr:date" v="2019-12-27" />
		<tag k="ssr:gruppe" v="veg" />
		<tag k="ssr:hovedgruppe" v="infrastruktur" />
		<tag k="ssr:stedsnr" v="1059681" />
		<tag k="ssr:type" v="adressenavn" />
	</node>
	<node lat="59.13558285293086" lon="11.38189198646345" id="-26559">
		<tag k="name" v="Bergstien" />
		<tag k="ssr:date" v="2019-12-27" />
		<tag k="ssr:gruppe" v="veg" />
		<tag k="ssr:hovedgruppe" v="infrastruktur" />
		<tag k="ssr:stedsnr" v="1059685" />
		<tag k="ssr:type" v="adressenavn" />
	</node>
	<node lat="59.12986450386673" lon="11.396517180398988" id="-26560">
		<tag k="name" v="Axel Dahls terrasse" />
		<tag k="ssr:date" v="2019-12-27" />
		<tag k="ssr:gruppe" v="veg" />
		<tag k="ssr:hovedgruppe" v="infrastruktur" />
		<tag k="ssr:stedsnr" v="1059738" />
		<tag k="ssr:type" v="adressenavn" />
	</node>
	<node lat="59.12400945260672" lon="11.364948470949926" id="-26561">
		<tag k="name" v="Glenneveien" />
		<tag k="ssr:date" v="2019-12-27" />
		<tag k="ssr:gruppe" v="veg" />
		<tag k="ssr:hovedgruppe" v="infrastruktur" />
		<tag k="ssr:stedsnr" v="1059791" />
		<tag k="ssr:type" v="adressenavn" />
	</node>
	<node lat="59.1152940513585" lon="11.303097585352464" id="-26562">
		<tag k="name" v="Gjørseberget" />
		<tag k="ssr:date" v="2019-12-27" />
		<tag k="ssr:gruppe" v="veg" />
		<tag k="ssr:hovedgruppe" v="infrastruktur" />
		<tag k="ssr:stedsnr" v="1059793" />
		<tag k="ssr:type" v="adressenavn" />
	</node>
	<node lat="59.12849114913318" lon="11.389263594417152" id="-26563">
		<tag k="name" v="Gimleveien" />
		<tag k="ssr:date" v="2019-12-27" />
		<tag k="ssr:gruppe" v="veg" />
		<tag k="ssr:hovedgruppe" v="infrastruktur" />
		<tag k="ssr:stedsnr" v="1059797" />
		<tag k="ssr:type" v="adressenavn" />
	</node>
	<node lat="59.131170585864346" lon="11.389541763449923" id="-26564">
		<tag k="name" v="Georg Stangs gate" />
		<tag k="ssr:date" v="2019-12-27" />
		<tag k="ssr:gruppe" v="veg" />
		<tag k="ssr:hovedgruppe" v="infrastruktur" />
		<tag k="ssr:stedsnr" v="1059805" />
		<tag k="ssr:type" v="adressenavn" />
	</node>
	<node lat="59.14230861264945" lon="11.390903121404591" id="-26565">
		<tag k="name" v="Granittveien" />
		<tag k="ssr:date" v="2019-12-27" />
		<tag k="ssr:gruppe" v="veg" />
		<tag k="ssr:hovedgruppe" v="infrastruktur" />
		<tag k="ssr:stedsnr" v="1059810" />
		<tag k="ssr:type" v="adressenavn" />
	</node>
	<node lat="59.14343976297743" lon="11.396461374483371" id="-26566">
		<tag k="name" v="Gneisveien" />
		<tag k="ssr:date" v="2019-12-27" />
		<tag k="ssr:gruppe" v="veg" />
		<tag k="ssr:hovedgruppe" v="infrastruktur" />
		<tag k="ssr:stedsnr" v="1059811" />
		<tag k="ssr:type" v="adressenavn" />
	</node>
	<node lat="59.110124227857135" lon="11.433241806599092" id="-26567">
		<tag k="name" v="Glitreveien" />
		<tag k="ssr:date" v="2019-12-27" />
		<tag k="ssr:gruppe" v="veg" />
		<tag k="ssr:hovedgruppe" v="infrastruktur" />
		<tag k="ssr:stedsnr" v="1059815" />
		<tag k="ssr:type" v="adressenavn" />
	</node>
	<node lat="59.14458060020601" lon="11.392149061063348" id="-26568">
		<tag k="name" v="Glimmerveien" />
		<tag k="ssr:date" v="2019-12-27" />
		<tag k="ssr:gruppe" v="veg" />
		<tag k="ssr:hovedgruppe" v="infrastruktur" />
		<tag k="ssr:stedsnr" v="1059817" />
		<tag k="ssr:type" v="adressenavn" />
	</node>
	<node lat="59.12528207960638" lon="11.391222966045541" id="-26570">
		<tag k="name" v="Garvergata" />
		<tag k="ssr:date" v="2019-12-27" />
		<tag k="ssr:gruppe" v="veg" />
		<tag k="ssr:hovedgruppe" v="infrastruktur" />
		<tag k="ssr:stedsnr" v="1059824" />
		<tag k="ssr:type" v="adressenavn" />
	</node>
	<node lat="59.11409105239444" lon="11.387056061584135" id="-26572">
		<tag k="name" v="Gamle Sørhaugen" />
		<tag k="ssr:date" v="2019-12-27" />
		<tag k="ssr:gruppe" v="veg" />
		<tag k="ssr:hovedgruppe" v="infrastruktur" />
		<tag k="ssr:stedsnr" v="1059827" />
		<tag k="ssr:type" v="adressenavn" />
	</node>
	<node lat="59.140784468564604" lon="11.431384820064942" id="-26574">
		<tag k="name" v="Heiderødveien" />
		<tag k="ssr:date" v="2019-12-27" />
		<tag k="ssr:gruppe" v="veg" />
		<tag k="ssr:hovedgruppe" v="infrastruktur" />
		<tag k="ssr:stedsnr" v="1059932" />
		<tag k="ssr:type" v="adressenavn" />
	</node>
	<node lat="59.12992066477131" lon="11.396305958311563" id="-26576">
		<tag k="name" v="Atomveien" />
		<tag k="ssr:date" v="2019-12-27" />
		<tag k="ssr:gruppe" v="veg" />
		<tag k="ssr:hovedgruppe" v="infrastruktur" />
		<tag k="ssr:stedsnr" v="1059745" />
		<tag k="ssr:type" v="adressenavn" />
	</node>
	<node lat="59.11285841086809" lon="11.39053220429205" id="-26577">
		<tag k="name" v="Berglyveien" />
		<tag k="ssr:date" v="2019-12-27" />
		<tag k="ssr:gruppe" v="veg" />
		<tag k="ssr:hovedgruppe" v="infrastruktur" />
		<tag k="ssr:stedsnr" v="1059748" />
		<tag k="ssr:type" v="adressenavn" />
	</node>
	<node lat="59.13392251476512" lon="11.448826137289679" id="-26579">
		<tag k="name" v="Bekkevoldveien" />
		<tag k="ssr:date" v="2019-12-27" />
		<tag k="ssr:gruppe" v="veg" />
		<tag k="ssr:hovedgruppe" v="infrastruktur" />
		<tag k="ssr:stedsnr" v="1059763" />
		<tag k="ssr:type" v="adressenavn" />
	</node>
	<node lat="59.1376176980036" lon="11.398161501566943" id="-26581">
		<tag k="name" v="Bekkeveien" />
		<tag k="ssr:date" v="2019-12-27" />
		<tag k="ssr:gruppe" v="veg" />
		<tag k="ssr:hovedgruppe" v="infrastruktur" />
		<tag k="ssr:stedsnr" v="1059771" />
		<tag k="ssr:type" v="adressenavn" />
	</node>
	<node lat="59.12578134926197" lon="11.44154075841069" id="-26584">
		<tag k="name" v="Bakkeveien" />
		<tag k="ssr:date" v="2019-12-27" />
		<tag k="ssr:gruppe" v="veg" />
		<tag k="ssr:hovedgruppe" v="infrastruktur" />
		<tag k="ssr:stedsnr" v="1059783" />
		<tag k="ssr:type" v="adressenavn" />
	</node>
	<node lat="59.13243510255354" lon="11.373806367166777" id="-26585">
		<tag k="name" v="Balders vei" />
		<tag k="ssr:date" v="2019-12-27" />
		<tag k="ssr:gruppe" v="veg" />
		<tag k="ssr:hovedgruppe" v="infrastruktur" />
		<tag k="ssr:stedsnr" v="1059785" />
		<tag k="ssr:type" v="adressenavn" />
	</node>
	<node lat="59.125416497094655" lon="11.37034927300909" id="-26587">
		<tag k="name" v="Furuveien" />
		<tag k="ssr:date" v="2019-12-27" />
		<tag k="ssr:gruppe" v="veg" />
		<tag k="ssr:hovedgruppe" v="infrastruktur" />
		<tag k="ssr:stedsnr" v="1059837" />
		<tag k="ssr:type" v="adressenavn" />
	</node>
	<node lat="59.072388208325826" lon="11.41546246703831" id="-26588">
		<tag k="name" v="Furuvarpveien" />
		<tag k="ssr:date" v="2019-12-27" />
		<tag k="ssr:gruppe" v="veg" />
		<tag k="ssr:hovedgruppe" v="infrastruktur" />
		<tag k="ssr:stedsnr" v="1059839" />
		<tag k="ssr:type" v="adressenavn" />
	</node>
	<node lat="59.12888870644668" lon="11.403704471234466" id="-26589">
		<tag k="name" v="Furuboveien" />
		<tag k="ssr:date" v="2019-12-27" />
		<tag k="ssr:gruppe" v="veg" />
		<tag k="ssr:hovedgruppe" v="infrastruktur" />
		<tag k="ssr:stedsnr" v="1059840" />
		<tag k="ssr:type" v="adressenavn" />
	</node>
	<node lat="59.12527345225906" lon="11.44343992465739" id="-26590">
		<tag k="name" v="Georg Feydts gate" />
		<tag k="ssr:date" v="2019-12-27" />
		<tag k="ssr:gruppe" v="veg" />
		<tag k="ssr:hovedgruppe" v="infrastruktur" />
		<tag k="ssr:stedsnr" v="1059841" />
		<tag k="ssr:type" v="adressenavn" />
	</node>
	<node lat="59.13015093856443" lon="11.38944702523282" id="-26592">
		<tag k="name" v="General Spørcks gate" />
		<tag k="ssr:date" v="2019-12-27" />
		<tag k="ssr:gruppe" v="veg" />
		<tag k="ssr:hovedgruppe" v="infrastruktur" />
		<tag k="ssr:stedsnr" v="1059851" />
		<tag k="ssr:type" v="adressenavn" />
	</node>
	<node lat="59.133676072992934" lon="11.389548460192074" id="-26594">
		<tag k="name" v="Haslundsveien" />
		<tag k="ssr:date" v="2019-12-27" />
		<tag k="ssr:gruppe" v="veg" />
		<tag k="ssr:hovedgruppe" v="infrastruktur" />
		<tag k="ssr:stedsnr" v="1059881" />
		<tag k="ssr:type" v="adressenavn" />
	</node>
	<node lat="59.11070546331891" lon="11.432683928296985" id="-26595">
		<tag k="name" v="Harestien" />
		<tag k="ssr:date" v="2019-12-27" />
		<tag k="ssr:gruppe" v="veg" />
		<tag k="ssr:hovedgruppe" v="infrastruktur" />
		<tag k="ssr:stedsnr" v="1059883" />
		<tag k="ssr:type" v="adressenavn" />
	</node>
	<node lat="59.114280645580216" lon="11.395017137154314" id="-26596">
		<tag k="name" v="Hasselveien" />
		<tag k="ssr:date" v="2019-12-27" />
		<tag k="ssr:gruppe" v="veg" />
		<tag k="ssr:hovedgruppe" v="infrastruktur" />
		<tag k="ssr:stedsnr" v="1059957" />
		<tag k="ssr:type" v="adressenavn" />
	</node>
	<node lat="59.11329326249771" lon="11.402368117362558" id="-26597">
		<tag k="name" v="Grenaderveien" />
		<tag k="ssr:date" v="2019-12-27" />
		<tag k="ssr:gruppe" v="veg" />
		<tag k="ssr:hovedgruppe" v="infrastruktur" />
		<tag k="ssr:stedsnr" v="1060040" />
		<tag k="ssr:type" v="adressenavn" />
	</node>
	<node lat="59.12539131807164" lon="11.443476651925144" id="-26599">
		<tag k="name" v="Granveien" />
		<tag k="ssr:date" v="2019-12-27" />
		<tag k="ssr:gruppe" v="veg" />
		<tag k="ssr:hovedgruppe" v="infrastruktur" />
		<tag k="ssr:stedsnr" v="1060079" />
		<tag k="ssr:type" v="adressenavn" />
	</node>
	<node lat="59.106937389546935" lon="11.386943388997373" id="-26601">
		<tag k="name" v="Engevikveien" />
		<tag k="ssr:date" v="2019-12-27" />
		<tag k="ssr:gruppe" v="veg" />
		<tag k="ssr:hovedgruppe" v="infrastruktur" />
		<tag k="ssr:stedsnr" v="1060138" />
		<tag k="ssr:type" v="adressenavn" />
	</node>
	<node lat="59.13380581614801" lon="11.410318626120132" id="-26602">
		<tag k="name" v="Grimsrødkollen" />
		<tag k="ssr:date" v="2019-12-27" />
		<tag k="ssr:gruppe" v="veg" />
		<tag k="ssr:hovedgruppe" v="infrastruktur" />
		<tag k="ssr:stedsnr" v="1060018" />
		<tag k="ssr:type" v="adressenavn" />
	</node>
	<node lat="59.130242997376655" lon="11.408811561193266" id="-26604">
		<tag k="name" v="Grimsrødhøgda" />
		<tag k="ssr:date" v="2019-12-27" />
		<tag k="ssr:gruppe" v="veg" />
		<tag k="ssr:hovedgruppe" v="infrastruktur" />
		<tag k="ssr:stedsnr" v="1060029" />
		<tag k="ssr:type" v="adressenavn" />
	</node>
	<node lat="59.143293450469024" lon="11.388629974863031" id="-26605">
		<tag k="name" v="Feltspatveien" />
		<tag k="ssr:date" v="2019-12-27" />
		<tag k="ssr:gruppe" v="veg" />
		<tag k="ssr:hovedgruppe" v="infrastruktur" />
		<tag k="ssr:stedsnr" v="1060187" />
		<tag k="ssr:type" v="adressenavn" />
	</node>
	<node lat="59.11470195248939" lon="11.305123158204978" id="-26606">
		<tag k="name" v="Fangebakken" />
		<tag k="ssr:date" v="2019-12-27" />
		<tag k="ssr:gruppe" v="veg" />
		<tag k="ssr:hovedgruppe" v="infrastruktur" />
		<tag k="ssr:stedsnr" v="1060188" />
		<tag k="ssr:type" v="adressenavn" />
	</node>
	<node lat="59.120941597084304" lon="11.298027872717926" id="-26607">
		<tag k="name" v="Fangeveien" />
		<tag k="ssr:date" v="2019-12-27" />
		<tag k="ssr:gruppe" v="veg" />
		<tag k="ssr:hovedgruppe" v="infrastruktur" />
		<tag k="ssr:stedsnr" v="1060189" />
		<tag k="ssr:type" v="adressenavn" />
	</node>
	<node lat="59.124602212889656" lon="11.366216241231744" id="-26608">
		<tag k="name" v="Eventyrveien" />
		<tag k="ssr:date" v="2019-12-27" />
		<tag k="ssr:gruppe" v="veg" />
		<tag k="ssr:hovedgruppe" v="infrastruktur" />
		<tag k="ssr:stedsnr" v="1060190" />
		<tag k="ssr:type" v="adressenavn" />
	</node>
	<node lat="59.11609304389585" lon="11.314073347609723" id="-26609">
		<tag k="name" v="Fagernesveien" />
		<tag k="ssr:date" v="2019-12-27" />
		<tag k="ssr:gruppe" v="veg" />
		<tag k="ssr:hovedgruppe" v="infrastruktur" />
		<tag k="ssr:stedsnr" v="1060193" />
		<tag k="ssr:type" v="adressenavn" />
	</node>
	<node lat="58.937514446003064" lon="11.667650075315612" id="-26610">
		<tag k="name" v="Fagerliveien" />
		<tag k="ssr:date" v="2019-12-27" />
		<tag k="ssr:gruppe" v="veg" />
		<tag k="ssr:hovedgruppe" v="infrastruktur" />
		<tag k="ssr:stedsnr" v="1060194" />
		<tag k="ssr:type" v="adressenavn" />
	</node>
	<node lat="59.116690816664835" lon="11.390324686049055" id="-26612">
		<tag k="name" v="Ekeveien" />
		<tag k="ssr:date" v="2019-12-27" />
		<tag k="ssr:gruppe" v="veg" />
		<tag k="ssr:hovedgruppe" v="infrastruktur" />
		<tag k="ssr:stedsnr" v="1060202" />
		<tag k="ssr:type" v="adressenavn" />
	</node>
	<node lat="59.12762255215156" lon="11.44676511321561" id="-26613">
		<tag k="name" v="E Engebretsens gate" />
		<tag k="ssr:date" v="2019-12-27" />
		<tag k="ssr:gruppe" v="veg" />
		<tag k="ssr:hovedgruppe" v="infrastruktur" />
		<tag k="ssr:stedsnr" v="1060210" />
		<tag k="ssr:type" v="adressenavn" />
	</node>
	<node lat="59.12906944652332" lon="11.38298719518055" id="-26614">
		<tag k="name" v="Dyrendalsveien" />
		<tag k="ssr:date" v="2019-12-27" />
		<tag k="ssr:gruppe" v="veg" />
		<tag k="ssr:hovedgruppe" v="infrastruktur" />
		<tag k="ssr:stedsnr" v="1060220" />
		<tag k="ssr:type" v="adressenavn" />
	</node>
	<node lat="59.12857812463788" lon="11.4489340663696" id="-26615">
		<tag k="name" v="Elveveien" />
		<tag k="ssr:date" v="2019-12-27" />
		<tag k="ssr:gruppe" v="veg" />
		<tag k="ssr:hovedgruppe" v="infrastruktur" />
		<tag k="ssr:stedsnr" v="1060227" />
		<tag k="ssr:type" v="adressenavn" />
	</node>
	<node lat="59.12181764857549" lon="11.390705493331792" id="-26616">
		<tag k="name" v="Elvestredet" />
		<tag k="ssr:date" v="2019-12-27" />
		<tag k="ssr:gruppe" v="veg" />
		<tag k="ssr:hovedgruppe" v="infrastruktur" />
		<tag k="ssr:stedsnr" v="1060234" />
		<tag k="ssr:type" v="adressenavn" />
	</node>
	<node lat="59.12405048428575" lon="11.441258861148762" id="-26617">
		<tag k="name" v="Fredliveien" />
		<tag k="ssr:date" v="2019-12-27" />
		<tag k="ssr:gruppe" v="veg" />
		<tag k="ssr:hovedgruppe" v="infrastruktur" />
		<tag k="ssr:stedsnr" v="1060297" />
		<tag k="ssr:type" v="adressenavn" />
	</node>
	<node lat="59.12181764857549" lon="11.390705493331792" id="-26619">
		<tag k="name" v="Grønland" />
		<tag k="ssr:date" v="2019-12-27" />
		<tag k="ssr:gruppe" v="veg" />
		<tag k="ssr:hovedgruppe" v="infrastruktur" />
		<tag k="ssr:stedsnr" v="1060100" />
		<tag k="ssr:type" v="adressenavn" />
	</node>
	<node lat="59.137848502108255" lon="11.379781015915306" id="-26620">
		<tag k="name" v="Grønliveien" />
		<tag k="ssr:date" v="2019-12-27" />
		<tag k="ssr:gruppe" v="veg" />
		<tag k="ssr:hovedgruppe" v="infrastruktur" />
		<tag k="ssr:stedsnr" v="1060102" />
		<tag k="ssr:type" v="adressenavn" />
	</node>
	<node lat="59.13140179123991" lon="11.408206365584684" id="-26624">
		<tag k="name" v="Grimsrødveien" />
		<tag k="ssr:date" v="2019-12-27" />
		<tag k="ssr:gruppe" v="veg" />
		<tag k="ssr:hovedgruppe" v="infrastruktur" />
		<tag k="ssr:stedsnr" v="1060109" />
		<tag k="ssr:type" v="adressenavn" />
	</node>
	<node lat="59.131161443632976" lon="11.411437903232878" id="-26625">
		<tag k="name" v="Grimsrød terrasse" />
		<tag k="ssr:date" v="2019-12-27" />
		<tag k="ssr:gruppe" v="veg" />
		<tag k="ssr:hovedgruppe" v="infrastruktur" />
		<tag k="ssr:stedsnr" v="1060110" />
		<tag k="ssr:type" v="adressenavn" />
	</node>
	<node lat="59.10800773986438" lon="11.386212641741766" id="-26626">
		<tag k="name" v="Eskeviksletta" />
		<tag k="ssr:date" v="2019-12-27" />
		<tag k="ssr:gruppe" v="veg" />
		<tag k="ssr:hovedgruppe" v="infrastruktur" />
		<tag k="ssr:stedsnr" v="1060116" />
		<tag k="ssr:type" v="adressenavn" />
	</node>
	<node lat="59.11409105239444" lon="11.387056061584135" id="-26627">
		<tag k="name" v="Eskevikveien" />
		<tag k="ssr:date" v="2019-12-27" />
		<tag k="ssr:gruppe" v="veg" />
		<tag k="ssr:hovedgruppe" v="infrastruktur" />
		<tag k="ssr:stedsnr" v="1060118" />
		<tag k="ssr:type" v="adressenavn" />
	</node>
	<node lat="59.13640594458003" lon="11.401505039928132" id="-26629">
		<tag k="name" v="Erleveien" />
		<tag k="ssr:date" v="2019-12-27" />
		<tag k="ssr:gruppe" v="veg" />
		<tag k="ssr:hovedgruppe" v="infrastruktur" />
		<tag k="ssr:stedsnr" v="1060122" />
		<tag k="ssr:type" v="adressenavn" />
	</node>
	<node lat="59.13401245598682" lon="11.433397920321818" id="-26631">
		<tag k="name" v="Engveien" />
		<tag k="ssr:date" v="2019-12-27" />
		<tag k="ssr:gruppe" v="veg" />
		<tag k="ssr:hovedgruppe" v="infrastruktur" />
		<tag k="ssr:stedsnr" v="1060127" />
		<tag k="ssr:type" v="adressenavn" />
	</node>
	<node lat="59.133276330065804" lon="11.352911573004386" id="-26632">
		<tag k="name" v="Englekorveien" />
		<tag k="ssr:date" v="2019-12-27" />
		<tag k="ssr:gruppe" v="veg" />
		<tag k="ssr:hovedgruppe" v="infrastruktur" />
		<tag k="ssr:stedsnr" v="1060128" />
		<tag k="ssr:type" v="adressenavn" />
	</node>
	<node lat="59.12414962901056" lon="11.438321638945618" id="-26633">
		<tag k="name" v="Helleveien" />
		<tag k="ssr:date" v="2019-12-27" />
		<tag k="ssr:gruppe" v="veg" />
		<tag k="ssr:hovedgruppe" v="infrastruktur" />
		<tag k="ssr:stedsnr" v="1060977" />
		<tag k="ssr:type" v="adressenavn" />
	</node>
	<node lat="59.118833319803414" lon="11.392391715196537" id="-26634">
		<tag k="name" v="Festningsgata" />
		<tag k="ssr:date" v="2019-12-27" />
		<tag k="ssr:gruppe" v="veg" />
		<tag k="ssr:hovedgruppe" v="infrastruktur" />
		<tag k="ssr:stedsnr" v="1060149" />
		<tag k="ssr:type" v="adressenavn" />
	</node>
	<node lat="59.13319019371367" lon="11.449853465147799" id="-26635">
		<tag k="name" v="Femsjøveien" />
		<tag k="ssr:date" v="2019-12-27" />
		<tag k="ssr:gruppe" v="veg" />
		<tag k="ssr:hovedgruppe" v="infrastruktur" />
		<tag k="ssr:stedsnr" v="1060165" />
		<tag k="ssr:type" v="adressenavn" />
	</node>
	<node lat="59.11996206070982" lon="11.423015392190578" id="-26636">
		<tag k="name" v="Felttogsveien" />
		<tag k="ssr:date" v="2019-12-27" />
		<tag k="ssr:gruppe" v="veg" />
		<tag k="ssr:hovedgruppe" v="infrastruktur" />
		<tag k="ssr:stedsnr" v="1060178" />
		<tag k="ssr:type" v="adressenavn" />
	</node>
	<node lat="59.12235353159266" lon="11.393977352752177" id="-26637">
		<tag k="name" v="Elvegata" />
		<tag k="ssr:date" v="2019-12-27" />
		<tag k="ssr:gruppe" v="veg" />
		<tag k="ssr:hovedgruppe" v="infrastruktur" />
		<tag k="ssr:stedsnr" v="1060239" />
		<tag k="ssr:type" v="adressenavn" />
	</node>
	<node lat="59.138641504699876" lon="11.395636385872967" id="-26638">
		<tag k="name" v="Ekornveien" />
		<tag k="ssr:date" v="2019-12-27" />
		<tag k="ssr:gruppe" v="veg" />
		<tag k="ssr:hovedgruppe" v="infrastruktur" />
		<tag k="ssr:stedsnr" v="1060246" />
		<tag k="ssr:type" v="adressenavn" />
	</node>
	<node lat="59.13519348707136" lon="11.404061136915002" id="-26639">
		<tag k="name" v="Eklundveien" />
		<tag k="ssr:date" v="2019-12-27" />
		<tag k="ssr:gruppe" v="veg" />
		<tag k="ssr:hovedgruppe" v="infrastruktur" />
		<tag k="ssr:stedsnr" v="1060251" />
		<tag k="ssr:type" v="adressenavn" />
	</node>
	<node lat="59.12248751313036" lon="11.442312803663814" id="-26640">
		<tag k="name" v="Fredriksfrydveien" />
		<tag k="ssr:date" v="2019-12-27" />
		<tag k="ssr:gruppe" v="veg" />
		<tag k="ssr:hovedgruppe" v="infrastruktur" />
		<tag k="ssr:stedsnr" v="1060263" />
		<tag k="ssr:type" v="adressenavn" />
	</node>
	<node lat="59.12791224221859" lon="11.382302141576872" id="-26642">
		<tag k="name" v="Fridheimveien" />
		<tag k="ssr:date" v="2019-12-27" />
		<tag k="ssr:gruppe" v="veg" />
		<tag k="ssr:hovedgruppe" v="infrastruktur" />
		<tag k="ssr:stedsnr" v="1060344" />
		<tag k="ssr:type" v="adressenavn" />
	</node>
	<node lat="59.12424600530413" lon="11.451182074915724" id="-26643">
		<tag k="name" v="Flatebyveien" />
		<tag k="ssr:date" v="2019-12-27" />
		<tag k="ssr:gruppe" v="veg" />
		<tag k="ssr:hovedgruppe" v="infrastruktur" />
		<tag k="ssr:stedsnr" v="1060349" />
		<tag k="ssr:type" v="adressenavn" />
	</node>
	<node lat="59.1286938276192" lon="11.426898957017832" id="-26644">
		<tag k="name" v="Fosseløkka" />
		<tag k="ssr:date" v="2019-12-27" />
		<tag k="ssr:gruppe" v="veg" />
		<tag k="ssr:hovedgruppe" v="infrastruktur" />
		<tag k="ssr:stedsnr" v="1060320" />
		<tag k="ssr:type" v="adressenavn" />
	</node>
	<node lat="59.12494154482525" lon="11.440613821234027" id="-26645">
		<tag k="name" v="Fuglesangveien" />
		<tag k="ssr:date" v="2019-12-27" />
		<tag k="ssr:gruppe" v="veg" />
		<tag k="ssr:hovedgruppe" v="infrastruktur" />
		<tag k="ssr:stedsnr" v="1060328" />
		<tag k="ssr:type" v="adressenavn" />
	</node>
	<node lat="59.13265385808528" lon="11.36358885524764" id="-26647">
		<tag k="name" v="Frøyas vei" />
		<tag k="ssr:date" v="2019-12-27" />
		<tag k="ssr:gruppe" v="veg" />
		<tag k="ssr:hovedgruppe" v="infrastruktur" />
		<tag k="ssr:stedsnr" v="1060330" />
		<tag k="ssr:type" v="adressenavn" />
	</node>
	<node lat="59.136191868804374" lon="11.360990122762063" id="-26648">
		<tag k="name" v="Friggs vei" />
		<tag k="ssr:date" v="2019-12-27" />
		<tag k="ssr:gruppe" v="veg" />
		<tag k="ssr:hovedgruppe" v="infrastruktur" />
		<tag k="ssr:stedsnr" v="1060332" />
		<tag k="ssr:type" v="adressenavn" />
	</node>
	<node lat="59.118833319803414" lon="11.392391715196537" id="-26651">
		<tag k="name" v="Festningsstredet" />
		<tag k="ssr:date" v="2019-12-27" />
		<tag k="ssr:gruppe" v="veg" />
		<tag k="ssr:hovedgruppe" v="infrastruktur" />
		<tag k="ssr:stedsnr" v="1060403" />
		<tag k="ssr:type" v="adressenavn" />
	</node>
	<node lat="59.121478608626866" lon="11.384933439811327" id="-26652">
		<tag k="name" v="Fisketorget" />
		<tag k="ssr:date" v="2019-12-27" />
		<tag k="ssr:gruppe" v="veg" />
		<tag k="ssr:hovedgruppe" v="infrastruktur" />
		<tag k="ssr:stedsnr" v="1060408" />
		<tag k="ssr:type" v="adressenavn" />
	</node>
	<node lat="59.12798645935691" lon="11.382484749047327" id="-26653">
		<tag k="name" v="Forstrøms vei" />
		<tag k="ssr:date" v="2019-12-27" />
		<tag k="ssr:gruppe" v="veg" />
		<tag k="ssr:hovedgruppe" v="infrastruktur" />
		<tag k="ssr:stedsnr" v="1060445" />
		<tag k="ssr:type" v="adressenavn" />
	</node>
	<node lat="59.12931562770389" lon="11.367480944872781" id="-26654">
		<tag k="name" v="Foltmars vei" />
		<tag k="ssr:date" v="2019-12-27" />
		<tag k="ssr:gruppe" v="veg" />
		<tag k="ssr:hovedgruppe" v="infrastruktur" />
		<tag k="ssr:stedsnr" v="1060459" />
		<tag k="ssr:type" v="adressenavn" />
	</node>
	<node lat="59.14140465896371" lon="11.406651875497552" id="-26655">
		<tag k="name" v="Flintveien" />
		<tag k="ssr:date" v="2019-12-27" />
		<tag k="ssr:gruppe" v="veg" />
		<tag k="ssr:hovedgruppe" v="infrastruktur" />
		<tag k="ssr:stedsnr" v="1060472" />
		<tag k="ssr:type" v="adressenavn" />
	</node>
	<node lat="59.0675095825469" lon="11.414295779798897" id="-26656">
		<tag k="name" v="Fjordgløttveien" />
		<tag k="ssr:date" v="2019-12-27" />
		<tag k="ssr:gruppe" v="veg" />
		<tag k="ssr:hovedgruppe" v="infrastruktur" />
		<tag k="ssr:stedsnr" v="1060360" />
		<tag k="ssr:type" v="adressenavn" />
	</node>
	<node lat="59.12840686669253" lon="11.39717723623336" id="-26660">
		<tag k="name" v="Fjellstua" />
		<tag k="ssr:date" v="2019-12-27" />
		<tag k="ssr:gruppe" v="veg" />
		<tag k="ssr:hovedgruppe" v="infrastruktur" />
		<tag k="ssr:stedsnr" v="1060374" />
		<tag k="ssr:type" v="adressenavn" />
	</node>
	<node lat="58.941571577399046" lon="11.659050394850587" id="-26661">
		<tag k="name" v="Fjellåsveien" />
		<tag k="ssr:date" v="2019-12-27" />
		<tag k="ssr:gruppe" v="veg" />
		<tag k="ssr:hovedgruppe" v="infrastruktur" />
		<tag k="ssr:stedsnr" v="1060376" />
		<tag k="ssr:type" v="adressenavn" />
	</node>
	<node lat="59.1242948487145" lon="11.441257450112568" id="-26662">
		<tag k="name" v="Fjellveien" />
		<tag k="ssr:date" v="2019-12-27" />
		<tag k="ssr:gruppe" v="veg" />
		<tag k="ssr:hovedgruppe" v="infrastruktur" />
		<tag k="ssr:stedsnr" v="1060380" />
		<tag k="ssr:type" v="adressenavn" />
	</node>
	<node lat="59.13992175286987" lon="11.402250507382522" id="-26663">
		<tag k="name" v="Fjellknattveien" />
		<tag k="ssr:date" v="2019-12-27" />
		<tag k="ssr:gruppe" v="veg" />
		<tag k="ssr:hovedgruppe" v="infrastruktur" />
		<tag k="ssr:stedsnr" v="1060383" />
		<tag k="ssr:type" v="adressenavn" />
	</node>
	<node lat="59.1184080733501" lon="11.384359531019667" id="-26664">
		<tag k="name" v="Kiellands gate" />
		<tag k="ssr:date" v="2019-12-27" />
		<tag k="ssr:gruppe" v="veg" />
		<tag k="ssr:hovedgruppe" v="infrastruktur" />
		<tag k="ssr:stedsnr" v="1060503" />
		<tag k="ssr:type" v="adressenavn" />
	</node>
	<node lat="59.125103885125455" lon="11.443385830054979" id="-26665">
		<tag k="name" v="Kinoveien" />
		<tag k="ssr:date" v="2019-12-27" />
		<tag k="ssr:gruppe" v="veg" />
		<tag k="ssr:hovedgruppe" v="infrastruktur" />
		<tag k="ssr:stedsnr" v="1060508" />
		<tag k="ssr:type" v="adressenavn" />
	</node>
	<node lat="59.14456486173885" lon="11.387633007100979" id="-26666">
		<tag k="name" v="Kattestenveien" />
		<tag k="ssr:date" v="2019-12-27" />
		<tag k="ssr:gruppe" v="veg" />
		<tag k="ssr:hovedgruppe" v="infrastruktur" />
		<tag k="ssr:stedsnr" v="1060513" />
		<tag k="ssr:type" v="adressenavn" />
	</node>
	<node lat="59.11229824620465" lon="11.429897478052407" id="-26667">
		<tag k="name" v="Kaseveien" />
		<tag k="ssr:date" v="2019-12-27" />
		<tag k="ssr:gruppe" v="veg" />
		<tag k="ssr:hovedgruppe" v="infrastruktur" />
		<tag k="ssr:stedsnr" v="1060514" />
		<tag k="ssr:type" v="adressenavn" />
	</node>
	<node lat="59.1385349940357" lon="11.391837758875676" id="-26668">
		<tag k="name" v="Kjelkebakken" />
		<tag k="ssr:date" v="2019-12-27" />
		<tag k="ssr:gruppe" v="veg" />
		<tag k="ssr:hovedgruppe" v="infrastruktur" />
		<tag k="ssr:stedsnr" v="1060521" />
		<tag k="ssr:type" v="adressenavn" />
	</node>
	<node lat="59.12808984553957" lon="11.444628744568703" id="-26670">
		<tag k="name" v="Kirkeveien" />
		<tag k="ssr:date" v="2019-12-27" />
		<tag k="ssr:gruppe" v="veg" />
		<tag k="ssr:hovedgruppe" v="infrastruktur" />
		<tag k="ssr:stedsnr" v="1060531" />
		<tag k="ssr:type" v="adressenavn" />
	</node>
	<node lat="59.1233269359706" lon="11.382171733521526" id="-26672">
		<tag k="name" v="Karl Johans gate" />
		<tag k="ssr:date" v="2019-12-27" />
		<tag k="ssr:gruppe" v="veg" />
		<tag k="ssr:hovedgruppe" v="infrastruktur" />
		<tag k="ssr:stedsnr" v="1060592" />
		<tag k="ssr:type" v="adressenavn" />
	</node>
	<node lat="59.134346114421426" lon="11.369312817437255" id="-26673">
		<tag k="name" v="Karrestadveien" />
		<tag k="ssr:date" v="2019-12-27" />
		<tag k="ssr:gruppe" v="veg" />
		<tag k="ssr:hovedgruppe" v="infrastruktur" />
		<tag k="ssr:stedsnr" v="1060604" />
		<tag k="ssr:type" v="adressenavn" />
	</node>
	<node lat="59.12864447375686" lon="11.389065395592981" id="-26674">
		<tag k="name" v="Kancelliråd Dahls gate" />
		<tag k="ssr:date" v="2019-12-27" />
		<tag k="ssr:gruppe" v="veg" />
		<tag k="ssr:hovedgruppe" v="infrastruktur" />
		<tag k="ssr:stedsnr" v="1060620" />
		<tag k="ssr:type" v="adressenavn" />
	</node>
	<node lat="59.12162252954033" lon="11.390952283138272" id="-26675">
		<tag k="name" v="Kirkebakken" />
		<tag k="ssr:date" v="2019-12-27" />
		<tag k="ssr:gruppe" v="veg" />
		<tag k="ssr:hovedgruppe" v="infrastruktur" />
		<tag k="ssr:stedsnr" v="1060484" />
		<tag k="ssr:type" v="adressenavn" />
	</node>
	<node lat="59.120798544815095" lon="11.38979736937825" id="-26677">
		<tag k="name" v="Kirkegata" />
		<tag k="ssr:date" v="2019-12-27" />
		<tag k="ssr:gruppe" v="veg" />
		<tag k="ssr:hovedgruppe" v="infrastruktur" />
		<tag k="ssr:stedsnr" v="1060548" />
		<tag k="ssr:type" v="adressenavn" />
	</node>
	<node lat="59.1320616718124" lon="11.406911751453162" id="-26678">
		<tag k="name" v="Kaisaveien" />
		<tag k="ssr:date" v="2019-12-27" />
		<tag k="ssr:gruppe" v="veg" />
		<tag k="ssr:hovedgruppe" v="infrastruktur" />
		<tag k="ssr:stedsnr" v="1060553" />
		<tag k="ssr:type" v="adressenavn" />
	</node>
	<node lat="59.12791858858593" lon="11.386999028334225" id="-26679">
		<tag k="name" v="Jørgen Bjelkes gate" />
		<tag k="ssr:date" v="2019-12-27" />
		<tag k="ssr:gruppe" v="veg" />
		<tag k="ssr:hovedgruppe" v="infrastruktur" />
		<tag k="ssr:stedsnr" v="1060568" />
		<tag k="ssr:type" v="adressenavn" />
	</node>
	<node lat="59.1171802719587" lon="11.427425973158678" id="-26681">
		<tag k="name" v="Juniveien" />
		<tag k="ssr:date" v="2019-12-27" />
		<tag k="ssr:gruppe" v="veg" />
		<tag k="ssr:hovedgruppe" v="infrastruktur" />
		<tag k="ssr:stedsnr" v="1060573" />
		<tag k="ssr:type" v="adressenavn" />
	</node>
	<node lat="59.12490920608933" lon="11.387083726273604" id="-26682">
		<tag k="name" v="Kristian Augusts gate" />
		<tag k="ssr:date" v="2019-12-27" />
		<tag k="ssr:gruppe" v="veg" />
		<tag k="ssr:hovedgruppe" v="infrastruktur" />
		<tag k="ssr:stedsnr" v="1060636" />
		<tag k="ssr:type" v="adressenavn" />
	</node>
	<node lat="58.93509954752125" lon="11.67068930309081" id="-26685">
		<tag k="name" v="Kornsjøveien" />
		<tag k="ssr:date" v="2019-12-27" />
		<tag k="ssr:gruppe" v="veg" />
		<tag k="ssr:hovedgruppe" v="infrastruktur" />
		<tag k="ssr:stedsnr" v="1060641" />
		<tag k="ssr:type" v="adressenavn" />
	</node>
	<node lat="59.13039076135583" lon="11.3979716011866" id="-26686">
		<tag k="name" v="Konvallveien" />
		<tag k="ssr:date" v="2019-12-27" />
		<tag k="ssr:gruppe" v="veg" />
		<tag k="ssr:hovedgruppe" v="infrastruktur" />
		<tag k="ssr:stedsnr" v="1060653" />
		<tag k="ssr:type" v="adressenavn" />
	</node>
	<node lat="59.13382537046382" lon="11.37934213063396" id="-26687">
		<tag k="name" v="Kullveien" />
		<tag k="ssr:date" v="2019-12-27" />
		<tag k="ssr:gruppe" v="veg" />
		<tag k="ssr:hovedgruppe" v="infrastruktur" />
		<tag k="ssr:stedsnr" v="1060681" />
		<tag k="ssr:type" v="adressenavn" />
	</node>
	<node lat="59.14551786167377" lon="11.390717110450005" id="-26688">
		<tag k="name" v="Kalkspatveien" />
		<tag k="ssr:date" v="2019-12-27" />
		<tag k="ssr:gruppe" v="veg" />
		<tag k="ssr:hovedgruppe" v="infrastruktur" />
		<tag k="ssr:stedsnr" v="1060622" />
		<tag k="ssr:type" v="adressenavn" />
	</node>
	<node lat="59.10800773986438" lon="11.386212641741766" id="-26689">
		<tag k="name" v="Kalvehaugveien" />
		<tag k="ssr:date" v="2019-12-27" />
		<tag k="ssr:gruppe" v="veg" />
		<tag k="ssr:hovedgruppe" v="infrastruktur" />
		<tag k="ssr:stedsnr" v="1060624" />
		<tag k="ssr:type" v="adressenavn" />
	</node>
	<node lat="59.14198587996662" lon="11.374590474866103" id="-26691">
		<tag k="name" v="Krokstien" />
		<tag k="ssr:date" v="2019-12-27" />
		<tag k="ssr:gruppe" v="veg" />
		<tag k="ssr:hovedgruppe" v="infrastruktur" />
		<tag k="ssr:stedsnr" v="1060713" />
		<tag k="ssr:type" v="adressenavn" />
	</node>
	<node lat="59.11877658816197" lon="11.391344560471705" id="-26693">
		<tag k="name" v="Knardalsbakken" />
		<tag k="ssr:date" v="2019-12-27" />
		<tag k="ssr:gruppe" v="veg" />
		<tag k="ssr:hovedgruppe" v="infrastruktur" />
		<tag k="ssr:stedsnr" v="1060721" />
		<tag k="ssr:type" v="adressenavn" />
	</node>
	<node lat="59.13936108471798" lon="11.387139088737891" id="-26695">
		<tag k="name" v="Klippeveien" />
		<tag k="ssr:date" v="2019-12-27" />
		<tag k="ssr:gruppe" v="veg" />
		<tag k="ssr:hovedgruppe" v="infrastruktur" />
		<tag k="ssr:stedsnr" v="1060725" />
		<tag k="ssr:type" v="adressenavn" />
	</node>
	<node lat="59.130637858994156" lon="11.390370347860436" id="-26696">
		<tag k="name" v="Hofgårdløkkveien" />
		<tag k="ssr:date" v="2019-12-27" />
		<tag k="ssr:gruppe" v="veg" />
		<tag k="ssr:hovedgruppe" v="infrastruktur" />
		<tag k="ssr:stedsnr" v="1060788" />
		<tag k="ssr:type" v="adressenavn" />
	</node>
	<node lat="59.13964312729102" lon="11.388600265438473" id="-26697">
		<tag k="name" v="Hjortsbergveien" />
		<tag k="ssr:date" v="2019-12-27" />
		<tag k="ssr:gruppe" v="veg" />
		<tag k="ssr:hovedgruppe" v="infrastruktur" />
		<tag k="ssr:stedsnr" v="1060809" />
		<tag k="ssr:type" v="adressenavn" />
	</node>
	<node lat="59.09505527934647" lon="11.453609237908738" id="-26699">
		<tag k="name" v="Klepperveien" />
		<tag k="ssr:date" v="2019-12-27" />
		<tag k="ssr:gruppe" v="veg" />
		<tag k="ssr:hovedgruppe" v="infrastruktur" />
		<tag k="ssr:stedsnr" v="1060741" />
		<tag k="ssr:type" v="adressenavn" />
	</node>
	<node lat="59.14172077629588" lon="11.389483315197577" id="-26700">
		<tag k="name" v="Kleberstien" />
		<tag k="ssr:date" v="2019-12-27" />
		<tag k="ssr:gruppe" v="veg" />
		<tag k="ssr:hovedgruppe" v="infrastruktur" />
		<tag k="ssr:stedsnr" v="1060745" />
		<tag k="ssr:type" v="adressenavn" />
	</node>
	<node lat="59.12386097450649" lon="11.368551989754058" id="-26701">
		<tag k="name" v="Kjærlighetsstien" />
		<tag k="ssr:date" v="2019-12-27" />
		<tag k="ssr:gruppe" v="veg" />
		<tag k="ssr:hovedgruppe" v="infrastruktur" />
		<tag k="ssr:stedsnr" v="1060748" />
		<tag k="ssr:type" v="adressenavn" />
	</node>
	<node lat="59.11091730812056" lon="11.428419283552252" id="-26702">
		<tag k="name" v="Kongleveien" />
		<tag k="ssr:date" v="2019-12-27" />
		<tag k="ssr:gruppe" v="veg" />
		<tag k="ssr:hovedgruppe" v="infrastruktur" />
		<tag k="ssr:stedsnr" v="1060753" />
		<tag k="ssr:type" v="adressenavn" />
	</node>
	<node lat="59.119029109111715" lon="11.38689699733974" id="-26704">
		<tag k="name" v="Kongens brygge" />
		<tag k="ssr:date" v="2019-12-27" />
		<tag k="ssr:gruppe" v="veg" />
		<tag k="ssr:hovedgruppe" v="infrastruktur" />
		<tag k="ssr:stedsnr" v="1060758" />
		<tag k="ssr:type" v="adressenavn" />
	</node>
	<node lat="59.11335648243194" lon="11.402009612747088" id="-26707">
		<tag k="name" v="Kommandantveien" />
		<tag k="ssr:date" v="2019-12-27" />
		<tag k="ssr:gruppe" v="veg" />
		<tag k="ssr:hovedgruppe" v="infrastruktur" />
		<tag k="ssr:stedsnr" v="1060768" />
		<tag k="ssr:type" v="adressenavn" />
	</node>
	<node lat="59.1166964981171" lon="11.31711659819468" id="-26709">
		<tag k="name" v="Knivsøveien" />
		<tag k="ssr:date" v="2019-12-27" />
		<tag k="ssr:gruppe" v="veg" />
		<tag k="ssr:hovedgruppe" v="infrastruktur" />
		<tag k="ssr:stedsnr" v="1060771" />
		<tag k="ssr:type" v="adressenavn" />
	</node>
	<node lat="59.114129394084415" lon="11.39371540171555" id="-26710">
		<tag k="name" v="Knardalveien" />
		<tag k="ssr:date" v="2019-12-27" />
		<tag k="ssr:gruppe" v="veg" />
		<tag k="ssr:hovedgruppe" v="infrastruktur" />
		<tag k="ssr:stedsnr" v="1060772" />
		<tag k="ssr:type" v="adressenavn" />
	</node>
	<node lat="59.137314058921646" lon="11.380890505696833" id="-26711">
		<tag k="name" v="Hjortefaret" />
		<tag k="ssr:date" v="2019-12-27" />
		<tag k="ssr:gruppe" v="veg" />
		<tag k="ssr:hovedgruppe" v="infrastruktur" />
		<tag k="ssr:stedsnr" v="1060855" />
		<tag k="ssr:type" v="adressenavn" />
	</node>
	<node lat="59.12441053939577" lon="11.442128944499705" id="-26712">
		<tag k="name" v="Hjerperødveien" />
		<tag k="ssr:date" v="2019-12-27" />
		<tag k="ssr:gruppe" v="veg" />
		<tag k="ssr:hovedgruppe" v="infrastruktur" />
		<tag k="ssr:stedsnr" v="1060869" />
		<tag k="ssr:type" v="adressenavn" />
	</node>
	<node lat="59.114543735087075" lon="11.43039082881785" id="-26713">
		<tag k="name" v="Høstbakken" />
		<tag k="ssr:date" v="2019-12-27" />
		<tag k="ssr:gruppe" v="veg" />
		<tag k="ssr:hovedgruppe" v="infrastruktur" />
		<tag k="ssr:stedsnr" v="1060881" />
		<tag k="ssr:type" v="adressenavn" />
	</node>
	<node lat="59.120768195219846" lon="11.45387259247875" id="-26715">
		<tag k="name" v="Høistadveien" />
		<tag k="ssr:date" v="2019-12-27" />
		<tag k="ssr:gruppe" v="veg" />
		<tag k="ssr:hovedgruppe" v="infrastruktur" />
		<tag k="ssr:stedsnr" v="1060891" />
		<tag k="ssr:type" v="adressenavn" />
	</node>
	<node lat="59.13603199501855" lon="11.361507358600383" id="-26716">
		<tag k="name" v="Hugins vei" />
		<tag k="ssr:date" v="2019-12-27" />
		<tag k="ssr:gruppe" v="veg" />
		<tag k="ssr:hovedgruppe" v="infrastruktur" />
		<tag k="ssr:stedsnr" v="1060902" />
		<tag k="ssr:type" v="adressenavn" />
	</node>
	<node lat="59.109999978493065" lon="11.404813747827593" id="-26718">
		<tag k="name" v="Hovsveien" />
		<tag k="ssr:date" v="2019-12-27" />
		<tag k="ssr:gruppe" v="veg" />
		<tag k="ssr:hovedgruppe" v="infrastruktur" />
		<tag k="ssr:stedsnr" v="1060908" />
		<tag k="ssr:type" v="adressenavn" />
	</node>
	<node lat="59.12463294911232" lon="11.39055274621234" id="-26719">
		<tag k="name" v="Hougens gate" />
		<tag k="ssr:date" v="2019-12-27" />
		<tag k="ssr:gruppe" v="veg" />
		<tag k="ssr:hovedgruppe" v="infrastruktur" />
		<tag k="ssr:stedsnr" v="1060915" />
		<tag k="ssr:type" v="adressenavn" />
	</node>
	<node lat="59.14116320284947" lon="11.374294433416697" id="-26720">
		<tag k="name" v="Holteveien" />
		<tag k="ssr:date" v="2019-12-27" />
		<tag k="ssr:gruppe" v="veg" />
		<tag k="ssr:hovedgruppe" v="infrastruktur" />
		<tag k="ssr:stedsnr" v="1060918" />
		<tag k="ssr:type" v="adressenavn" />
	</node>
	<node lat="59.135827102551744" lon="11.436694881609842" id="-26721">
		<tag k="name" v="Heimveien" />
		<tag k="ssr:date" v="2019-12-27" />
		<tag k="ssr:gruppe" v="veg" />
		<tag k="ssr:hovedgruppe" v="infrastruktur" />
		<tag k="ssr:stedsnr" v="1061081" />
		<tag k="ssr:type" v="adressenavn" />
	</node>
	<node lat="59.12073935719363" lon="11.317769196241718" id="-26722">
		<tag k="name" v="Hesthaugveien" />
		<tag k="ssr:date" v="2019-12-27" />
		<tag k="ssr:gruppe" v="veg" />
		<tag k="ssr:hovedgruppe" v="infrastruktur" />
		<tag k="ssr:stedsnr" v="1061251" />
		<tag k="ssr:type" v="adressenavn" />
	</node>
	<node lat="59.124068819635916" lon="11.375837217270949" id="-26724">
		<tag k="name" v="Heimdalsveien" />
		<tag k="ssr:date" v="2019-12-27" />
		<tag k="ssr:gruppe" v="veg" />
		<tag k="ssr:hovedgruppe" v="infrastruktur" />
		<tag k="ssr:stedsnr" v="1061130" />
		<tag k="ssr:type" v="adressenavn" />
	</node>
	<node lat="59.12759229231335" lon="11.370622436054742" id="-26725">
		<tag k="name" v="Hestemyrveien" />
		<tag k="ssr:date" v="2019-12-27" />
		<tag k="ssr:gruppe" v="veg" />
		<tag k="ssr:hovedgruppe" v="infrastruktur" />
		<tag k="ssr:stedsnr" v="1061226" />
		<tag k="ssr:type" v="adressenavn" />
	</node>
	<node lat="59.12374568977732" lon="11.373281857256089" id="-26726">
		<tag k="name" v="Herregårdsveien" />
		<tag k="ssr:date" v="2019-12-27" />
		<tag k="ssr:gruppe" v="veg" />
		<tag k="ssr:hovedgruppe" v="infrastruktur" />
		<tag k="ssr:stedsnr" v="1061261" />
		<tag k="ssr:type" v="adressenavn" />
	</node>
	<node lat="59.12885110679123" lon="11.448563036719145" id="-26727">
		<tag k="name" v="Hermongata" />
		<tag k="ssr:date" v="2019-12-27" />
		<tag k="ssr:gruppe" v="veg" />
		<tag k="ssr:hovedgruppe" v="infrastruktur" />
		<tag k="ssr:stedsnr" v="1061375" />
		<tag k="ssr:type" v="adressenavn" />
	</node>
	<node lat="59.13237771192258" lon="11.364095632394505" id="-26728">
		<tag k="name" v="Jotunveien" />
		<tag k="ssr:date" v="2019-12-27" />
		<tag k="ssr:gruppe" v="veg" />
		<tag k="ssr:hovedgruppe" v="infrastruktur" />
		<tag k="ssr:stedsnr" v="1061439" />
		<tag k="ssr:type" v="adressenavn" />
	</node>
	<node lat="59.11049143441919" lon="11.433095248102957" id="-26729">
		<tag k="name" v="Jonsokveien" />
		<tag k="ssr:date" v="2019-12-27" />
		<tag k="ssr:gruppe" v="veg" />
		<tag k="ssr:hovedgruppe" v="infrastruktur" />
		<tag k="ssr:stedsnr" v="1061453" />
		<tag k="ssr:type" v="adressenavn" />
	</node>
	<node lat="59.11982462276948" lon="11.38610648445106" id="-26730">
		<tag k="name" v="Jernbanegata" />
		<tag k="ssr:date" v="2019-12-27" />
		<tag k="ssr:gruppe" v="veg" />
		<tag k="ssr:hovedgruppe" v="infrastruktur" />
		<tag k="ssr:stedsnr" v="1061395" />
		<tag k="ssr:type" v="adressenavn" />
	</node>
	<node lat="59.12433703043435" lon="11.389619421913354" id="-26732">
		<tag k="name" v="Jacob Stuarts gate" />
		<tag k="ssr:date" v="2019-12-27" />
		<tag k="ssr:gruppe" v="veg" />
		<tag k="ssr:hovedgruppe" v="infrastruktur" />
		<tag k="ssr:stedsnr" v="1061401" />
		<tag k="ssr:type" v="adressenavn" />
	</node>
	<node lat="59.12369592004084" lon="11.390807207435254" id="-26733">
		<tag k="name" v="Jacob Blochs gate" />
		<tag k="ssr:date" v="2019-12-27" />
		<tag k="ssr:gruppe" v="veg" />
		<tag k="ssr:hovedgruppe" v="infrastruktur" />
		<tag k="ssr:stedsnr" v="1061413" />
		<tag k="ssr:type" v="adressenavn" />
	</node>
	<node lat="59.11972419742217" lon="11.306959414193923" id="-26734">
		<tag k="name" v="Isebakkeveien" />
		<tag k="ssr:date" v="2019-12-27" />
		<tag k="ssr:gruppe" v="veg" />
		<tag k="ssr:hovedgruppe" v="infrastruktur" />
		<tag k="ssr:stedsnr" v="1061426" />
		<tag k="ssr:type" v="adressenavn" />
	</node>
	<node lat="59.114481251814766" lon="11.308641396771035" id="-26735">
		<tag k="name" v="Ingerfjellveien" />
		<tag k="ssr:date" v="2019-12-27" />
		<tag k="ssr:gruppe" v="veg" />
		<tag k="ssr:hovedgruppe" v="infrastruktur" />
		<tag k="ssr:stedsnr" v="1061428" />
		<tag k="ssr:type" v="adressenavn" />
	</node>
	<node lat="59.131455449062045" lon="11.39528148176298" id="-26736">
		<tag k="name" v="Irisveien" />
		<tag k="ssr:date" v="2019-12-27" />
		<tag k="ssr:gruppe" v="veg" />
		<tag k="ssr:hovedgruppe" v="infrastruktur" />
		<tag k="ssr:stedsnr" v="1061431" />
		<tag k="ssr:type" v="adressenavn" />
	</node>
	<node lat="59.12518505790295" lon="11.441331651086882" id="-26737">
		<tag k="name" v="Hårbyveien" />
		<tag k="ssr:date" v="2019-12-27" />
		<tag k="ssr:gruppe" v="veg" />
		<tag k="ssr:hovedgruppe" v="infrastruktur" />
		<tag k="ssr:stedsnr" v="1061502" />
		<tag k="ssr:type" v="adressenavn" />
	</node>
	<node lat="59.11873822120092" lon="11.389904723106568" id="-26738">
		<tag k="name" v="Johan Stangs plass" />
		<tag k="ssr:date" v="2019-12-27" />
		<tag k="ssr:gruppe" v="veg" />
		<tag k="ssr:hovedgruppe" v="infrastruktur" />
		<tag k="ssr:stedsnr" v="1061476" />
		<tag k="ssr:type" v="adressenavn" />
	</node>
	<node lat="59.120323942735595" lon="11.38499035080866" id="-26739">
		<tag k="name" v="Jernbanetorget" />
		<tag k="ssr:date" v="2019-12-27" />
		<tag k="ssr:gruppe" v="veg" />
		<tag k="ssr:hovedgruppe" v="infrastruktur" />
		<tag k="ssr:stedsnr" v="1061480" />
		<tag k="ssr:type" v="adressenavn" />
	</node>
	<node lat="58.93586837741933" lon="11.671192448493164" id="-26740">
		<tag k="name" v="Høyden" />
		<tag k="ssr:date" v="2019-12-27" />
		<tag k="ssr:gruppe" v="veg" />
		<tag k="ssr:hovedgruppe" v="infrastruktur" />
		<tag k="ssr:stedsnr" v="1061561" />
		<tag k="ssr:type" v="adressenavn" />
	</node>
	<node lat="59.11867878899323" lon="11.377742915150804" id="-26741">
		<tag k="name" v="Indre Mølbrygge" />
		<tag k="ssr:date" v="2019-12-27" />
		<tag k="ssr:gruppe" v="veg" />
		<tag k="ssr:hovedgruppe" v="infrastruktur" />
		<tag k="ssr:stedsnr" v="1061584" />
		<tag k="ssr:type" v="adressenavn" />
	</node>
	<node lat="59.1348652183472" lon="11.397236180007823" id="-26743">
		<tag k="name" v="Meiseveien" />
		<tag k="ssr:date" v="2019-12-27" />
		<tag k="ssr:gruppe" v="veg" />
		<tag k="ssr:hovedgruppe" v="infrastruktur" />
		<tag k="ssr:stedsnr" v="1061651" />
		<tag k="ssr:type" v="adressenavn" />
	</node>
	<node lat="59.144655289146776" lon="11.384628586710015" id="-26744">
		<tag k="name" v="Marmorveien" />
		<tag k="ssr:date" v="2019-12-27" />
		<tag k="ssr:gruppe" v="veg" />
		<tag k="ssr:hovedgruppe" v="infrastruktur" />
		<tag k="ssr:stedsnr" v="1061657" />
		<tag k="ssr:type" v="adressenavn" />
	</node>
	<node lat="59.11193250381035" lon="11.41507877144358" id="-26745">
		<tag k="name" v="Markveien" />
		<tag k="ssr:date" v="2019-12-27" />
		<tag k="ssr:gruppe" v="veg" />
		<tag k="ssr:hovedgruppe" v="infrastruktur" />
		<tag k="ssr:stedsnr" v="1061660" />
		<tag k="ssr:type" v="adressenavn" />
	</node>
	<node lat="59.135434227818" lon="11.446030155083852" id="-26746">
		<tag k="name" v="Marienlystveien" />
		<tag k="ssr:date" v="2019-12-27" />
		<tag k="ssr:gruppe" v="veg" />
		<tag k="ssr:hovedgruppe" v="infrastruktur" />
		<tag k="ssr:stedsnr" v="1061666" />
		<tag k="ssr:type" v="adressenavn" />
	</node>
	<node lat="59.09511143946857" lon="11.230476054573359" id="-26752">
		<tag k="name" v="Hårbyløkka" />
		<tag k="ssr:date" v="2019-12-27" />
		<tag k="ssr:gruppe" v="veg" />
		<tag k="ssr:hovedgruppe" v="infrastruktur" />
		<tag k="ssr:stedsnr" v="1061519" />
		<tag k="ssr:type" v="adressenavn" />
	</node>
	<node lat="59.11644783089566" lon="11.308947105931937" id="-26754">
		<tag k="name" v="Ingerila" />
		<tag k="ssr:date" v="2019-12-27" />
		<tag k="ssr:gruppe" v="veg" />
		<tag k="ssr:hovedgruppe" v="infrastruktur" />
		<tag k="ssr:stedsnr" v="1061587" />
		<tag k="ssr:type" v="adressenavn" />
	</node>
	<node lat="59.13392251476512" lon="11.448826137289679" id="-26755">
		<tag k="name" v="Ilaveien" />
		<tag k="ssr:date" v="2019-12-27" />
		<tag k="ssr:gruppe" v="veg" />
		<tag k="ssr:hovedgruppe" v="infrastruktur" />
		<tag k="ssr:stedsnr" v="1061590" />
		<tag k="ssr:type" v="adressenavn" />
	</node>
	<node lat="59.13103322414925" lon="11.357889833258865" id="-26757">
		<tag k="name" v="Idunns vei" />
		<tag k="ssr:date" v="2019-12-27" />
		<tag k="ssr:gruppe" v="veg" />
		<tag k="ssr:hovedgruppe" v="infrastruktur" />
		<tag k="ssr:stedsnr" v="1061617" />
		<tag k="ssr:type" v="adressenavn" />
	</node>
	<node lat="59.08410757884934" lon="11.428839583425475" id="-26758">
		<tag k="name" v="Iddeveien" />
		<tag k="ssr:date" v="2019-12-27" />
		<tag k="ssr:gruppe" v="veg" />
		<tag k="ssr:hovedgruppe" v="infrastruktur" />
		<tag k="ssr:stedsnr" v="1061628" />
		<tag k="ssr:type" v="adressenavn" />
	</node>
	<node lat="59.11906425265782" lon="11.3920333324306" id="-26759">
		<tag k="name" v="Morianstredet" />
		<tag k="ssr:date" v="2019-12-27" />
		<tag k="ssr:gruppe" v="veg" />
		<tag k="ssr:hovedgruppe" v="infrastruktur" />
		<tag k="ssr:stedsnr" v="1061694" />
		<tag k="ssr:type" v="adressenavn" />
	</node>
	<node lat="59.11889258112943" lon="11.39261870103143" id="-26760">
		<tag k="name" v="Moriangata" />
		<tag k="ssr:date" v="2019-12-27" />
		<tag k="ssr:gruppe" v="veg" />
		<tag k="ssr:hovedgruppe" v="infrastruktur" />
		<tag k="ssr:stedsnr" v="1061711" />
		<tag k="ssr:type" v="adressenavn" />
	</node>
	<node lat="59.124361839846294" lon="11.37136845281801" id="-26761">
		<tag k="name" v="Marcus Thranes gate" />
		<tag k="ssr:date" v="2019-12-27" />
		<tag k="ssr:gruppe" v="veg" />
		<tag k="ssr:hovedgruppe" v="infrastruktur" />
		<tag k="ssr:stedsnr" v="1061680" />
		<tag k="ssr:type" v="adressenavn" />
	</node>
	<node lat="59.134949622654865" lon="11.392171655631115" id="-26762">
		<tag k="name" v="Midtstuveien" />
		<tag k="ssr:date" v="2019-12-27" />
		<tag k="ssr:gruppe" v="veg" />
		<tag k="ssr:hovedgruppe" v="infrastruktur" />
		<tag k="ssr:stedsnr" v="1061749" />
		<tag k="ssr:type" v="adressenavn" />
	</node>
	<node lat="59.123392143323734" lon="11.380968360992702" id="-26763">
		<tag k="name" v="Mette Mengs gate" />
		<tag k="ssr:date" v="2019-12-27" />
		<tag k="ssr:gruppe" v="veg" />
		<tag k="ssr:hovedgruppe" v="infrastruktur" />
		<tag k="ssr:stedsnr" v="1061768" />
		<tag k="ssr:type" v="adressenavn" />
	</node>
	<node lat="59.123713964240046" lon="11.377067225133422" id="-26764">
		<tag k="name" v="Major Forbus gate" />
		<tag k="ssr:date" v="2019-12-27" />
		<tag k="ssr:gruppe" v="veg" />
		<tag k="ssr:hovedgruppe" v="infrastruktur" />
		<tag k="ssr:stedsnr" v="1061785" />
		<tag k="ssr:type" v="adressenavn" />
	</node>
	<node lat="59.12767832367485" lon="11.381846819493871" id="-26766">
		<tag k="name" v="Marcus Nilsens gate" />
		<tag k="ssr:date" v="2019-12-27" />
		<tag k="ssr:gruppe" v="veg" />
		<tag k="ssr:hovedgruppe" v="infrastruktur" />
		<tag k="ssr:stedsnr" v="1061854" />
		<tag k="ssr:type" v="adressenavn" />
	</node>
	<node lat="59.11735499137296" lon="11.425937577111453" id="-26768">
		<tag k="name" v="Maiveien" />
		<tag k="ssr:date" v="2019-12-27" />
		<tag k="ssr:gruppe" v="veg" />
		<tag k="ssr:hovedgruppe" v="infrastruktur" />
		<tag k="ssr:stedsnr" v="1061794" />
		<tag k="ssr:type" v="adressenavn" />
	</node>
	<node lat="59.12602157191658" lon="11.362694906344121" id="-26769">
		<tag k="name" v="Låbyveien" />
		<tag k="ssr:date" v="2019-12-27" />
		<tag k="ssr:gruppe" v="veg" />
		<tag k="ssr:hovedgruppe" v="infrastruktur" />
		<tag k="ssr:stedsnr" v="1061829" />
		<tag k="ssr:type" v="adressenavn" />
	</node>
	<node lat="59.12823373013835" lon="11.359864434230953" id="-26770">
		<tag k="name" v="Nini Roll Ankers vei" />
		<tag k="ssr:date" v="2019-12-27" />
		<tag k="ssr:gruppe" v="veg" />
		<tag k="ssr:hovedgruppe" v="infrastruktur" />
		<tag k="ssr:stedsnr" v="1061926" />
		<tag k="ssr:type" v="adressenavn" />
	</node>
	<node lat="59.12442589815974" lon="11.387375090186424" id="-26771">
		<tag k="name" v="Nils Ankers gate" />
		<tag k="ssr:date" v="2019-12-27" />
		<tag k="ssr:gruppe" v="veg" />
		<tag k="ssr:hovedgruppe" v="infrastruktur" />
		<tag k="ssr:stedsnr" v="1061940" />
		<tag k="ssr:type" v="adressenavn" />
	</node>
	<node lat="59.12652631050048" lon="11.385935049270712" id="-26772">
		<tag k="name" v="Niels Stubs gate" />
		<tag k="ssr:date" v="2019-12-27" />
		<tag k="ssr:gruppe" v="veg" />
		<tag k="ssr:hovedgruppe" v="infrastruktur" />
		<tag k="ssr:stedsnr" v="1061961" />
		<tag k="ssr:type" v="adressenavn" />
	</node>
	<node lat="59.12763659776098" lon="11.376836124888312" id="-26773">
		<tag k="name" v="Niels A.Stangs gate" />
		<tag k="ssr:date" v="2019-12-27" />
		<tag k="ssr:gruppe" v="veg" />
		<tag k="ssr:hovedgruppe" v="infrastruktur" />
		<tag k="ssr:stedsnr" v="1061969" />
		<tag k="ssr:type" v="adressenavn" />
	</node>
	<node lat="59.12635102714682" lon="11.39453490066062" id="-26775">
		<tag k="name" v="Nystredet" />
		<tag k="ssr:date" v="2019-12-27" />
		<tag k="ssr:gruppe" v="veg" />
		<tag k="ssr:hovedgruppe" v="infrastruktur" />
		<tag k="ssr:stedsnr" v="1062000" />
		<tag k="ssr:type" v="adressenavn" />
	</node>
	<node lat="59.13603041986196" lon="11.438078941525992" id="-26778">
		<tag k="name" v="Nyboveien" />
		<tag k="ssr:date" v="2019-12-27" />
		<tag k="ssr:gruppe" v="veg" />
		<tag k="ssr:hovedgruppe" v="infrastruktur" />
		<tag k="ssr:stedsnr" v="1062019" />
		<tag k="ssr:type" v="adressenavn" />
	</node>
	<node lat="59.120304942478306" lon="11.426942978758316" id="-26779">
		<tag k="name" v="Nordliveien" />
		<tag k="ssr:date" v="2019-12-27" />
		<tag k="ssr:gruppe" v="veg" />
		<tag k="ssr:hovedgruppe" v="infrastruktur" />
		<tag k="ssr:stedsnr" v="1062030" />
		<tag k="ssr:type" v="adressenavn" />
	</node>
	<node lat="59.12123488113599" lon="11.42441760587058" id="-26781">
		<tag k="name" v="Myrveien" />
		<tag k="ssr:date" v="2019-12-27" />
		<tag k="ssr:gruppe" v="veg" />
		<tag k="ssr:hovedgruppe" v="infrastruktur" />
		<tag k="ssr:stedsnr" v="1062088" />
		<tag k="ssr:type" v="adressenavn" />
	</node>
	<node lat="59.13602967781238" lon="11.36004707143541" id="-26782">
		<tag k="name" v="Munins vei" />
		<tag k="ssr:date" v="2019-12-27" />
		<tag k="ssr:gruppe" v="veg" />
		<tag k="ssr:hovedgruppe" v="infrastruktur" />
		<tag k="ssr:stedsnr" v="1062096" />
		<tag k="ssr:type" v="adressenavn" />
	</node>
	<node lat="58.94466200576063" lon="11.654478202510166" id="-26783">
		<tag k="name" v="Mosevikveien" />
		<tag k="ssr:date" v="2019-12-27" />
		<tag k="ssr:gruppe" v="veg" />
		<tag k="ssr:hovedgruppe" v="infrastruktur" />
		<tag k="ssr:stedsnr" v="1062098" />
		<tag k="ssr:type" v="adressenavn" />
	</node>
	<node lat="59.12946345271352" lon="11.39824954575256" id="-26784">
		<tag k="name" v="Nedregate" />
		<tag k="ssr:date" v="2019-12-27" />
		<tag k="ssr:gruppe" v="veg" />
		<tag k="ssr:hovedgruppe" v="infrastruktur" />
		<tag k="ssr:stedsnr" v="1062114" />
		<tag k="ssr:type" v="adressenavn" />
	</node>
	<node lat="59.12169492183717" lon="11.386666702752501" id="-26785">
		<tag k="name" v="Nedre Bankegate" />
		<tag k="ssr:date" v="2019-12-27" />
		<tag k="ssr:gruppe" v="veg" />
		<tag k="ssr:hovedgruppe" v="infrastruktur" />
		<tag k="ssr:stedsnr" v="1062118" />
		<tag k="ssr:type" v="adressenavn" />
	</node>
	<node lat="59.13450161314372" lon="11.383669514946524" id="-26786">
		<tag k="name" v="Lensmannsveien" />
		<tag k="ssr:date" v="2019-12-27" />
		<tag k="ssr:gruppe" v="veg" />
		<tag k="ssr:hovedgruppe" v="infrastruktur" />
		<tag k="ssr:stedsnr" v="1062135" />
		<tag k="ssr:type" v="adressenavn" />
	</node>
	<node lat="59.135183560894596" lon="11.37046364386635" id="-26787">
		<tag k="name" v="Njårds vei" />
		<tag k="ssr:date" v="2019-12-27" />
		<tag k="ssr:gruppe" v="veg" />
		<tag k="ssr:hovedgruppe" v="infrastruktur" />
		<tag k="ssr:stedsnr" v="1062053" />
		<tag k="ssr:type" v="adressenavn" />
	</node>
	<node lat="59.11082513170235" lon="11.43293993454034" id="-26788">
		<tag k="name" v="Måstadveien" />
		<tag k="ssr:date" v="2019-12-27" />
		<tag k="ssr:gruppe" v="veg" />
		<tag k="ssr:hovedgruppe" v="infrastruktur" />
		<tag k="ssr:stedsnr" v="1062060" />
		<tag k="ssr:type" v="adressenavn" />
	</node>
	<node lat="59.11216828852371" lon="11.415641405452122" id="-26789">
		<tag k="name" v="Mårbakken" />
		<tag k="ssr:date" v="2019-12-27" />
		<tag k="ssr:gruppe" v="veg" />
		<tag k="ssr:hovedgruppe" v="infrastruktur" />
		<tag k="ssr:stedsnr" v="1062076" />
		<tag k="ssr:type" v="adressenavn" />
	</node>
	<node lat="59.12332531965832" lon="11.397140189900751" id="-26790">
		<tag k="name" v="Møllergata" />
		<tag k="ssr:date" v="2019-12-27" />
		<tag k="ssr:gruppe" v="veg" />
		<tag k="ssr:hovedgruppe" v="infrastruktur" />
		<tag k="ssr:stedsnr" v="1062084" />
		<tag k="ssr:type" v="adressenavn" />
	</node>
	<node lat="59.11328463594628" lon="11.415021298616008" id="-26791">
		<tag k="name" v="Lensmann J Knudsens vei" />
		<tag k="ssr:date" v="2019-12-27" />
		<tag k="ssr:gruppe" v="veg" />
		<tag k="ssr:hovedgruppe" v="infrastruktur" />
		<tag k="ssr:stedsnr" v="1062238" />
		<tag k="ssr:type" v="adressenavn" />
	</node>
	<node lat="59.11594304814529" lon="11.309271366527959" id="-26792">
		<tag k="name" v="Lerveien" />
		<tag k="ssr:date" v="2019-12-27" />
		<tag k="ssr:gruppe" v="veg" />
		<tag k="ssr:hovedgruppe" v="infrastruktur" />
		<tag k="ssr:stedsnr" v="1062365" />
		<tag k="ssr:type" v="adressenavn" />
	</node>
	<node lat="59.124409595267835" lon="11.365337915955017" id="-26794">
		<tag k="name" v="Lerkestien" />
		<tag k="ssr:date" v="2019-12-27" />
		<tag k="ssr:gruppe" v="veg" />
		<tag k="ssr:hovedgruppe" v="infrastruktur" />
		<tag k="ssr:stedsnr" v="1062372" />
		<tag k="ssr:type" v="adressenavn" />
	</node>
	<node lat="59.126778573841804" lon="11.447620250123503" id="-26795">
		<tag k="name" v="Løkenveien" />
		<tag k="ssr:date" v="2019-12-27" />
		<tag k="ssr:gruppe" v="veg" />
		<tag k="ssr:hovedgruppe" v="infrastruktur" />
		<tag k="ssr:stedsnr" v="1062787" />
		<tag k="ssr:type" v="adressenavn" />
	</node>
	<node lat="59.13527215160785" lon="11.396168417300753" id="-26796">
		<tag k="name" v="Lyngåsveien" />
		<tag k="ssr:date" v="2019-12-27" />
		<tag k="ssr:gruppe" v="veg" />
		<tag k="ssr:hovedgruppe" v="infrastruktur" />
		<tag k="ssr:stedsnr" v="1062793" />
		<tag k="ssr:type" v="adressenavn" />
	</node>
	<node lat="59.130220657361306" lon="11.393118847382864" id="-26797">
		<tag k="name" v="Lektor Adlers gate" />
		<tag k="ssr:date" v="2019-12-27" />
		<tag k="ssr:gruppe" v="veg" />
		<tag k="ssr:hovedgruppe" v="infrastruktur" />
		<tag k="ssr:stedsnr" v="1062271" />
		<tag k="ssr:type" v="adressenavn" />
	</node>
	<node lat="59.14582168845804" lon="11.378839968884517" id="-26798">
		<tag k="name" v="Lerdalveien" />
		<tag k="ssr:date" v="2019-12-27" />
		<tag k="ssr:gruppe" v="veg" />
		<tag k="ssr:hovedgruppe" v="infrastruktur" />
		<tag k="ssr:stedsnr" v="1062414" />
		<tag k="ssr:type" v="adressenavn" />
	</node>
	<node lat="59.118356404119254" lon="11.391559700209278" id="-26799">
		<tag k="name" v="Landsbergs plass" />
		<tag k="ssr:date" v="2019-12-27" />
		<tag k="ssr:gruppe" v="veg" />
		<tag k="ssr:hovedgruppe" v="infrastruktur" />
		<tag k="ssr:stedsnr" v="1062491" />
		<tag k="ssr:type" v="adressenavn" />
	</node>
	<node lat="59.14102802690143" lon="11.396476862772664" id="-26800">
		<tag k="name" v="Kvartsveien" />
		<tag k="ssr:date" v="2019-12-27" />
		<tag k="ssr:gruppe" v="veg" />
		<tag k="ssr:hovedgruppe" v="infrastruktur" />
		<tag k="ssr:stedsnr" v="1062552" />
		<tag k="ssr:type" v="adressenavn" />
	</node>
	<node lat="59.1236280890686" lon="11.375464012011516" id="-26801">
		<tag k="name" v="Legangers gate" />
		<tag k="ssr:date" v="2019-12-27" />
		<tag k="ssr:gruppe" v="veg" />
		<tag k="ssr:hovedgruppe" v="infrastruktur" />
		<tag k="ssr:stedsnr" v="1062578" />
		<tag k="ssr:type" v="adressenavn" />
	</node>
	<node lat="59.11882278945772" lon="11.384616308859288" id="-26802">
		<tag k="name" v="Langbrygga" />
		<tag k="ssr:date" v="2019-12-27" />
		<tag k="ssr:gruppe" v="veg" />
		<tag k="ssr:hovedgruppe" v="infrastruktur" />
		<tag k="ssr:stedsnr" v="1062758" />
		<tag k="ssr:type" v="adressenavn" />
	</node>
	<node lat="59.12444716329862" lon="11.392016590730428" id="-26803">
		<tag k="name" v="Laxegata" />
		<tag k="ssr:date" v="2019-12-27" />
		<tag k="ssr:gruppe" v="veg" />
		<tag k="ssr:hovedgruppe" v="infrastruktur" />
		<tag k="ssr:stedsnr" v="1062621" />
		<tag k="ssr:type" v="adressenavn" />
	</node>
	<node lat="59.11705088547956" lon="11.388812739535592" id="-26804">
		<tag k="name" v="Lavendelstredet" />
		<tag k="ssr:date" v="2019-12-27" />
		<tag k="ssr:gruppe" v="veg" />
		<tag k="ssr:hovedgruppe" v="infrastruktur" />
		<tag k="ssr:stedsnr" v="1062628" />
		<tag k="ssr:type" v="adressenavn" />
	</node>
	<node lat="59.121215561885" lon="11.391583801647794" id="-26805">
		<tag k="name" v="Ringerbakken" />
		<tag k="ssr:date" v="2019-12-27" />
		<tag k="ssr:gruppe" v="veg" />
		<tag k="ssr:hovedgruppe" v="infrastruktur" />
		<tag k="ssr:stedsnr" v="1063440" />
		<tag k="ssr:type" v="adressenavn" />
	</node>
	<node lat="59.1193448421352" lon="11.42299414554746" id="-26806">
		<tag k="name" v="Revehiveien" />
		<tag k="ssr:date" v="2019-12-27" />
		<tag k="ssr:gruppe" v="veg" />
		<tag k="ssr:hovedgruppe" v="infrastruktur" />
		<tag k="ssr:stedsnr" v="1063446" />
		<tag k="ssr:type" v="adressenavn" />
	</node>
	<node lat="59.12316276667553" lon="11.381503662263588" id="-26807">
		<tag k="name" v="Repslagergata" />
		<tag k="ssr:date" v="2019-12-27" />
		<tag k="ssr:gruppe" v="veg" />
		<tag k="ssr:hovedgruppe" v="infrastruktur" />
		<tag k="ssr:stedsnr" v="1063451" />
		<tag k="ssr:type" v="adressenavn" />
	</node>
	<node lat="59.12200390188605" lon="11.355958130366002" id="-26808">
		<tag k="name" v="Remmen" />
		<tag k="ssr:date" v="2019-12-27" />
		<tag k="ssr:gruppe" v="veg" />
		<tag k="ssr:hovedgruppe" v="infrastruktur" />
		<tag k="ssr:stedsnr" v="1063453" />
		<tag k="ssr:type" v="adressenavn" />
	</node>
	<node lat="59.10768502061769" lon="11.40249819337424" id="-26809">
		<tag k="name" v="Pilveien" />
		<tag k="ssr:date" v="2019-12-27" />
		<tag k="ssr:gruppe" v="veg" />
		<tag k="ssr:hovedgruppe" v="infrastruktur" />
		<tag k="ssr:stedsnr" v="1063468" />
		<tag k="ssr:type" v="adressenavn" />
	</node>
	<node lat="59.1289807575332" lon="11.366260465780869" id="-26810">
		<tag k="name" v="Landstads vei" />
		<tag k="ssr:date" v="2019-12-27" />
		<tag k="ssr:gruppe" v="veg" />
		<tag k="ssr:hovedgruppe" v="infrastruktur" />
		<tag k="ssr:stedsnr" v="1062765" />
		<tag k="ssr:type" v="adressenavn" />
	</node>
	<node lat="59.12385777976841" lon="11.444326414250407" id="-26811">
		<tag k="name" v="Løkkebergveien" />
		<tag k="ssr:date" v="2019-12-27" />
		<tag k="ssr:gruppe" v="veg" />
		<tag k="ssr:hovedgruppe" v="infrastruktur" />
		<tag k="ssr:stedsnr" v="1062836" />
		<tag k="ssr:type" v="adressenavn" />
	</node>
	<node lat="59.136163339343284" lon="11.438935655894293" id="-26815">
		<tag k="name" v="Liljeveien" />
		<tag k="ssr:date" v="2019-12-27" />
		<tag k="ssr:gruppe" v="veg" />
		<tag k="ssr:hovedgruppe" v="infrastruktur" />
		<tag k="ssr:stedsnr" v="1062852" />
		<tag k="ssr:type" v="adressenavn" />
	</node>
	<node lat="59.122451378398665" lon="11.382264147539697" id="-26816">
		<tag k="name" v="Liljegata" />
		<tag k="ssr:date" v="2019-12-27" />
		<tag k="ssr:gruppe" v="veg" />
		<tag k="ssr:hovedgruppe" v="infrastruktur" />
		<tag k="ssr:stedsnr" v="1062869" />
		<tag k="ssr:type" v="adressenavn" />
	</node>
	<node lat="59.12654302686137" lon="11.362945061896607" id="-26817">
		<tag k="name" v="Likollveien" />
		<tag k="ssr:date" v="2019-12-27" />
		<tag k="ssr:gruppe" v="veg" />
		<tag k="ssr:hovedgruppe" v="infrastruktur" />
		<tag k="ssr:stedsnr" v="1062885" />
		<tag k="ssr:type" v="adressenavn" />
	</node>
	<node lat="59.129465807972366" lon="11.430810850547793" id="-26818">
		<tag k="name" v="Linåkerbakken" />
		<tag k="ssr:date" v="2019-12-27" />
		<tag k="ssr:gruppe" v="veg" />
		<tag k="ssr:hovedgruppe" v="infrastruktur" />
		<tag k="ssr:stedsnr" v="1062937" />
		<tag k="ssr:type" v="adressenavn" />
	</node>
	<node lat="59.11521532192366" lon="11.39040345484457" id="-26819">
		<tag k="name" v="Lindeveien" />
		<tag k="ssr:date" v="2019-12-27" />
		<tag k="ssr:gruppe" v="veg" />
		<tag k="ssr:hovedgruppe" v="infrastruktur" />
		<tag k="ssr:stedsnr" v="1062941" />
		<tag k="ssr:type" v="adressenavn" />
	</node>
	<node lat="59.11023254461946" lon="11.430220882182729" id="-26822">
		<tag k="name" v="Lilleveien" />
		<tag k="ssr:date" v="2019-12-27" />
		<tag k="ssr:gruppe" v="veg" />
		<tag k="ssr:hovedgruppe" v="infrastruktur" />
		<tag k="ssr:stedsnr" v="1062959" />
		<tag k="ssr:type" v="adressenavn" />
	</node>
	<node lat="59.121005518533025" lon="11.372884683024376" id="-26825">
		<tag k="name" v="Rødsbakken" />
		<tag k="ssr:date" v="2019-12-27" />
		<tag k="ssr:gruppe" v="veg" />
		<tag k="ssr:hovedgruppe" v="infrastruktur" />
		<tag k="ssr:stedsnr" v="1062964" />
		<tag k="ssr:type" v="adressenavn" />
	</node>
	<node lat="59.146597359968034" lon="11.418511906708082" id="-26826">
		<tag k="name" v="Ryfjeldveien" />
		<tag k="ssr:date" v="2019-12-27" />
		<tag k="ssr:gruppe" v="veg" />
		<tag k="ssr:hovedgruppe" v="infrastruktur" />
		<tag k="ssr:stedsnr" v="1062972" />
		<tag k="ssr:type" v="adressenavn" />
	</node>
	<node lat="59.131455449062045" lon="11.39528148176298" id="-26827">
		<tag k="name" v="Lupinveien" />
		<tag k="ssr:date" v="2019-12-27" />
		<tag k="ssr:gruppe" v="veg" />
		<tag k="ssr:hovedgruppe" v="infrastruktur" />
		<tag k="ssr:stedsnr" v="1062804" />
		<tag k="ssr:type" v="adressenavn" />
	</node>
	<node lat="59.121882943206984" lon="11.321150590054689" id="-26828">
		<tag k="name" v="Lundestadveien" />
		<tag k="ssr:date" v="2019-12-27" />
		<tag k="ssr:gruppe" v="veg" />
		<tag k="ssr:hovedgruppe" v="infrastruktur" />
		<tag k="ssr:stedsnr" v="1062810" />
		<tag k="ssr:type" v="adressenavn" />
	</node>
	<node lat="59.13485845657797" lon="11.379222459090725" id="-26829">
		<tag k="name" v="Lorangløkka" />
		<tag k="ssr:date" v="2019-12-27" />
		<tag k="ssr:gruppe" v="veg" />
		<tag k="ssr:hovedgruppe" v="infrastruktur" />
		<tag k="ssr:stedsnr" v="1062811" />
		<tag k="ssr:type" v="adressenavn" />
	</node>
	<node lat="59.13435131214469" lon="11.391825563966707" id="-26830">
		<tag k="name" v="Løvveien" />
		<tag k="ssr:date" v="2019-12-27" />
		<tag k="ssr:gruppe" v="veg" />
		<tag k="ssr:hovedgruppe" v="infrastruktur" />
		<tag k="ssr:stedsnr" v="1062817" />
		<tag k="ssr:type" v="adressenavn" />
	</node>
	<node lat="59.12933965387574" lon="11.390672892826409" id="-26831">
		<tag k="name" v="Løkkeveien" />
		<tag k="ssr:date" v="2019-12-27" />
		<tag k="ssr:gruppe" v="veg" />
		<tag k="ssr:hovedgruppe" v="infrastruktur" />
		<tag k="ssr:stedsnr" v="1062830" />
		<tag k="ssr:type" v="adressenavn" />
	</node>
	<node lat="59.13348783034547" lon="11.36056899942329" id="-26832">
		<tag k="name" v="Lokes vei" />
		<tag k="ssr:date" v="2019-12-27" />
		<tag k="ssr:gruppe" v="veg" />
		<tag k="ssr:hovedgruppe" v="infrastruktur" />
		<tag k="ssr:stedsnr" v="1062915" />
		<tag k="ssr:type" v="adressenavn" />
	</node>
	<node lat="59.11447756505282" lon="11.418701075592141" id="-26833">
		<tag k="name" v="Liveien" />
		<tag k="ssr:date" v="2019-12-27" />
		<tag k="ssr:gruppe" v="veg" />
		<tag k="ssr:hovedgruppe" v="infrastruktur" />
		<tag k="ssr:stedsnr" v="1062925" />
		<tag k="ssr:type" v="adressenavn" />
	</node>
	<node lat="59.13941345871487" lon="11.379136295208276" id="-26834">
		<tag k="name" v="Liumveien" />
		<tag k="ssr:date" v="2019-12-27" />
		<tag k="ssr:gruppe" v="veg" />
		<tag k="ssr:hovedgruppe" v="infrastruktur" />
		<tag k="ssr:stedsnr" v="1062929" />
		<tag k="ssr:type" v="adressenavn" />
	</node>
	<node lat="59.13742226340062" lon="11.437239116928897" id="-26835">
		<tag k="name" v="Roseveien" />
		<tag k="ssr:date" v="2019-12-27" />
		<tag k="ssr:gruppe" v="veg" />
		<tag k="ssr:hovedgruppe" v="infrastruktur" />
		<tag k="ssr:stedsnr" v="1062988" />
		<tag k="ssr:type" v="adressenavn" />
	</node>
	<node lat="59.12915819939525" lon="11.448190206697397" id="-26836">
		<tag k="name" v="Rosenborggata" />
		<tag k="ssr:date" v="2019-12-27" />
		<tag k="ssr:gruppe" v="veg" />
		<tag k="ssr:hovedgruppe" v="infrastruktur" />
		<tag k="ssr:stedsnr" v="1062991" />
		<tag k="ssr:type" v="adressenavn" />
	</node>
	<node lat="59.123853433392895" lon="11.37511967318328" id="-26837">
		<tag k="name" v="Rødsveien" />
		<tag k="ssr:date" v="2019-12-27" />
		<tag k="ssr:gruppe" v="veg" />
		<tag k="ssr:hovedgruppe" v="infrastruktur" />
		<tag k="ssr:stedsnr" v="1062995" />
		<tag k="ssr:type" v="adressenavn" />
	</node>
	<node lat="59.12270034305898" lon="11.380388189567686" id="-26840">
		<tag k="name" v="Rødsbergstien" />
		<tag k="ssr:date" v="2019-12-27" />
		<tag k="ssr:gruppe" v="veg" />
		<tag k="ssr:hovedgruppe" v="infrastruktur" />
		<tag k="ssr:stedsnr" v="1063014" />
		<tag k="ssr:type" v="adressenavn" />
	</node>
	<node lat="59.14539250471406" lon="11.392285718539434" id="-26841">
		<tag k="name" v="Rubinveien" />
		<tag k="ssr:date" v="2019-12-27" />
		<tag k="ssr:gruppe" v="veg" />
		<tag k="ssr:hovedgruppe" v="infrastruktur" />
		<tag k="ssr:stedsnr" v="1062977" />
		<tag k="ssr:type" v="adressenavn" />
	</node>
	<node lat="59.13394161276548" lon="11.380994912937672" id="-26842">
		<tag k="name" v="Rodeløkka" />
		<tag k="ssr:date" v="2019-12-27" />
		<tag k="ssr:gruppe" v="veg" />
		<tag k="ssr:hovedgruppe" v="infrastruktur" />
		<tag k="ssr:stedsnr" v="1063037" />
		<tag k="ssr:type" v="adressenavn" />
	</node>
	<node lat="59.12135280955394" lon="11.373860236533263" id="-26843">
		<tag k="name" v="Roald Amundsens gate" />
		<tag k="ssr:date" v="2019-12-27" />
		<tag k="ssr:gruppe" v="veg" />
		<tag k="ssr:hovedgruppe" v="infrastruktur" />
		<tag k="ssr:stedsnr" v="1063043" />
		<tag k="ssr:type" v="adressenavn" />
	</node>
	<node lat="59.123607579606805" lon="11.366870724123514" id="-26844">
		<tag k="name" v="Ringveien" />
		<tag k="ssr:date" v="2019-12-27" />
		<tag k="ssr:gruppe" v="veg" />
		<tag k="ssr:hovedgruppe" v="infrastruktur" />
		<tag k="ssr:stedsnr" v="1063047" />
		<tag k="ssr:type" v="adressenavn" />
	</node>
	<node lat="59.1174260506492" lon="11.31108266605283" id="-26845">
		<tag k="name" v="Roliga" />
		<tag k="ssr:date" v="2019-12-27" />
		<tag k="ssr:gruppe" v="veg" />
		<tag k="ssr:hovedgruppe" v="infrastruktur" />
		<tag k="ssr:stedsnr" v="1063055" />
		<tag k="ssr:type" v="adressenavn" />
	</node>
	<node lat="59.11846951224278" lon="11.392423009674209" id="-26846">
		<tag k="name" v="Rolandstredet" />
		<tag k="ssr:date" v="2019-12-27" />
		<tag k="ssr:gruppe" v="veg" />
		<tag k="ssr:hovedgruppe" v="infrastruktur" />
		<tag k="ssr:stedsnr" v="1063058" />
		<tag k="ssr:type" v="adressenavn" />
	</node>
	<node lat="59.13844862229229" lon="11.380284336260456" id="-26847">
		<tag k="name" v="Rokkeveien" />
		<tag k="ssr:date" v="2019-12-27" />
		<tag k="ssr:gruppe" v="veg" />
		<tag k="ssr:hovedgruppe" v="infrastruktur" />
		<tag k="ssr:stedsnr" v="1063061" />
		<tag k="ssr:type" v="adressenavn" />
	</node>
	<node lat="59.130298934512886" lon="11.394430796957758" id="-26849">
		<tag k="name" v="Rognalleen" />
		<tag k="ssr:date" v="2019-12-27" />
		<tag k="ssr:gruppe" v="veg" />
		<tag k="ssr:hovedgruppe" v="infrastruktur" />
		<tag k="ssr:stedsnr" v="1063074" />
		<tag k="ssr:type" v="adressenavn" />
	</node>
	<node lat="59.12009563591917" lon="11.390385915370171" id="-26850">
		<tag k="name" v="Skomakerstredet" />
		<tag k="ssr:date" v="2019-12-27" />
		<tag k="ssr:gruppe" v="veg" />
		<tag k="ssr:hovedgruppe" v="infrastruktur" />
		<tag k="ssr:stedsnr" v="1063085" />
		<tag k="ssr:type" v="adressenavn" />
	</node>
	<node lat="59.12799359932911" lon="11.447349158199916" id="-26851">
		<tag k="name" v="Skanseløkka" />
		<tag k="ssr:date" v="2019-12-27" />
		<tag k="ssr:gruppe" v="veg" />
		<tag k="ssr:hovedgruppe" v="infrastruktur" />
		<tag k="ssr:stedsnr" v="1063138" />
		<tag k="ssr:type" v="adressenavn" />
	</node>
	<node lat="59.10983792133454" lon="11.400055479980626" id="-26852">
		<tag k="name" v="Signalveien" />
		<tag k="ssr:date" v="2019-12-27" />
		<tag k="ssr:gruppe" v="veg" />
		<tag k="ssr:hovedgruppe" v="infrastruktur" />
		<tag k="ssr:stedsnr" v="1063141" />
		<tag k="ssr:type" v="adressenavn" />
	</node>
	<node lat="59.12654715532887" lon="11.371628434715294" id="-26853">
		<tag k="name" v="Seljeveien" />
		<tag k="ssr:date" v="2019-12-27" />
		<tag k="ssr:gruppe" v="veg" />
		<tag k="ssr:hovedgruppe" v="infrastruktur" />
		<tag k="ssr:stedsnr" v="1063142" />
		<tag k="ssr:type" v="adressenavn" />
	</node>
	<node lat="59.132569987194344" lon="11.388150435118233" id="-26854">
		<tag k="name" v="Schultz vei" />
		<tag k="ssr:date" v="2019-12-27" />
		<tag k="ssr:gruppe" v="veg" />
		<tag k="ssr:hovedgruppe" v="infrastruktur" />
		<tag k="ssr:stedsnr" v="1063144" />
		<tag k="ssr:type" v="adressenavn" />
	</node>
	<node lat="59.11963650476129" lon="11.388152761641765" id="-26857">
		<tag k="name" v="Rådhusgata" />
		<tag k="ssr:date" v="2019-12-27" />
		<tag k="ssr:gruppe" v="veg" />
		<tag k="ssr:hovedgruppe" v="infrastruktur" />
		<tag k="ssr:stedsnr" v="1063152" />
		<tag k="ssr:type" v="adressenavn" />
	</node>
	<node lat="59.12673119395282" lon="11.368697430852505" id="-26858">
		<tag k="name" v="Rådyrfaret" />
		<tag k="ssr:date" v="2019-12-27" />
		<tag k="ssr:gruppe" v="veg" />
		<tag k="ssr:hovedgruppe" v="infrastruktur" />
		<tag k="ssr:stedsnr" v="1063155" />
		<tag k="ssr:type" v="adressenavn" />
	</node>
	<node lat="59.13996172483743" lon="11.390422698581236" id="-26859">
		<tag k="name" v="Skiveien" />
		<tag k="ssr:date" v="2019-12-27" />
		<tag k="ssr:gruppe" v="veg" />
		<tag k="ssr:hovedgruppe" v="infrastruktur" />
		<tag k="ssr:stedsnr" v="1063165" />
		<tag k="ssr:type" v="adressenavn" />
	</node>
	<node lat="59.11714263950885" lon="11.387976195477806" id="-26860">
		<tag k="name" v="Skippergata" />
		<tag k="ssr:date" v="2019-12-27" />
		<tag k="ssr:gruppe" v="veg" />
		<tag k="ssr:hovedgruppe" v="infrastruktur" />
		<tag k="ssr:stedsnr" v="1063167" />
		<tag k="ssr:type" v="adressenavn" />
	</node>
	<node lat="59.14315246692275" lon="11.3902176288076" id="-26862">
		<tag k="name" v="Skiferveien" />
		<tag k="ssr:date" v="2019-12-27" />
		<tag k="ssr:gruppe" v="veg" />
		<tag k="ssr:hovedgruppe" v="infrastruktur" />
		<tag k="ssr:stedsnr" v="1063178" />
		<tag k="ssr:type" v="adressenavn" />
	</node>
	<node lat="59.123392143323734" lon="11.380968360992702" id="-26865">
		<tag k="name" v="Rødsbergs plass" />
		<tag k="ssr:date" v="2019-12-27" />
		<tag k="ssr:gruppe" v="veg" />
		<tag k="ssr:hovedgruppe" v="infrastruktur" />
		<tag k="ssr:stedsnr" v="1063021" />
		<tag k="ssr:type" v="adressenavn" />
	</node>
	<node lat="59.13602431385061" lon="11.43867181850434" id="-26866">
		<tag k="name" v="Skoleveien" />
		<tag k="ssr:date" v="2019-12-27" />
		<tag k="ssr:gruppe" v="veg" />
		<tag k="ssr:hovedgruppe" v="infrastruktur" />
		<tag k="ssr:stedsnr" v="1063091" />
		<tag k="ssr:type" v="adressenavn" />
	</node>
	<node lat="59.12598807228985" lon="11.443538865912155" id="-26867">
		<tag k="name" v="Skolegata" />
		<tag k="ssr:date" v="2019-12-27" />
		<tag k="ssr:gruppe" v="veg" />
		<tag k="ssr:hovedgruppe" v="infrastruktur" />
		<tag k="ssr:stedsnr" v="1063104" />
		<tag k="ssr:type" v="adressenavn" />
	</node>
	<node lat="59.13410745248463" lon="11.432406853520074" id="-26868">
		<tag k="name" v="Snarveien" />
		<tag k="ssr:date" v="2019-12-27" />
		<tag k="ssr:gruppe" v="veg" />
		<tag k="ssr:hovedgruppe" v="infrastruktur" />
		<tag k="ssr:stedsnr" v="1063110" />
		<tag k="ssr:type" v="adressenavn" />
	</node>
	<node lat="59.09582105102055" lon="11.230400533043298" id="-26869">
		<tag k="name" v="Smedveien" />
		<tag k="ssr:date" v="2019-12-27" />
		<tag k="ssr:gruppe" v="veg" />
		<tag k="ssr:hovedgruppe" v="infrastruktur" />
		<tag k="ssr:stedsnr" v="1063112" />
		<tag k="ssr:type" v="adressenavn" />
	</node>
	<node lat="59.126526737334295" lon="11.440074987579054" id="-26870">
		<tag k="name" v="Slyngveien" />
		<tag k="ssr:date" v="2019-12-27" />
		<tag k="ssr:gruppe" v="veg" />
		<tag k="ssr:hovedgruppe" v="infrastruktur" />
		<tag k="ssr:stedsnr" v="1063113" />
		<tag k="ssr:type" v="adressenavn" />
	</node>
	<node lat="59.10983792133454" lon="11.400055479980626" id="-26871">
		<tag k="name" v="Skytterveien" />
		<tag k="ssr:date" v="2019-12-27" />
		<tag k="ssr:gruppe" v="veg" />
		<tag k="ssr:hovedgruppe" v="infrastruktur" />
		<tag k="ssr:stedsnr" v="1063124" />
		<tag k="ssr:type" v="adressenavn" />
	</node>
	<node lat="59.136126548364416" lon="11.40045133580676" id="-26872">
		<tag k="name" v="Sletteveien" />
		<tag k="ssr:date" v="2019-12-27" />
		<tag k="ssr:gruppe" v="veg" />
		<tag k="ssr:hovedgruppe" v="infrastruktur" />
		<tag k="ssr:stedsnr" v="1063126" />
		<tag k="ssr:type" v="adressenavn" />
	</node>
	<node lat="59.079772211180135" lon="11.436748048774938" id="-26873">
		<tag k="name" v="Skriverøveien" />
		<tag k="ssr:date" v="2019-12-27" />
		<tag k="ssr:gruppe" v="veg" />
		<tag k="ssr:hovedgruppe" v="infrastruktur" />
		<tag k="ssr:stedsnr" v="1063130" />
		<tag k="ssr:type" v="adressenavn" />
	</node>
	<node lat="59.12872550456258" lon="11.449592923492968" id="-26874">
		<tag k="name" v="Skovveien" />
		<tag k="ssr:date" v="2019-12-27" />
		<tag k="ssr:gruppe" v="veg" />
		<tag k="ssr:hovedgruppe" v="infrastruktur" />
		<tag k="ssr:stedsnr" v="1063131" />
		<tag k="ssr:type" v="adressenavn" />
	</node>
	<node lat="59.12614318737495" lon="11.392756411123878" id="-26876">
		<tag k="name" v="Oskleiva" />
		<tag k="ssr:date" v="2019-12-27" />
		<tag k="ssr:gruppe" v="veg" />
		<tag k="ssr:hovedgruppe" v="infrastruktur" />
		<tag k="ssr:stedsnr" v="1063203" />
		<tag k="ssr:type" v="adressenavn" />
	</node>
	<node lat="59.122105095480556" lon="11.384286883823723" id="-26877">
		<tag k="name" v="Oscars gate" />
		<tag k="ssr:date" v="2019-12-27" />
		<tag k="ssr:gruppe" v="veg" />
		<tag k="ssr:hovedgruppe" v="infrastruktur" />
		<tag k="ssr:stedsnr" v="1063209" />
		<tag k="ssr:type" v="adressenavn" />
	</node>
	<node lat="59.12369592004084" lon="11.390807207435254" id="-26878">
		<tag k="name" v="Osbekkgata" />
		<tag k="ssr:date" v="2019-12-27" />
		<tag k="ssr:gruppe" v="veg" />
		<tag k="ssr:hovedgruppe" v="infrastruktur" />
		<tag k="ssr:stedsnr" v="1063219" />
		<tag k="ssr:type" v="adressenavn" />
	</node>
	<node lat="59.11992818364736" lon="11.39250832965162" id="-26879">
		<tag k="name" v="Peder Colbjørnsens gate" />
		<tag k="ssr:date" v="2019-12-27" />
		<tag k="ssr:gruppe" v="veg" />
		<tag k="ssr:hovedgruppe" v="infrastruktur" />
		<tag k="ssr:stedsnr" v="1063234" />
		<tag k="ssr:type" v="adressenavn" />
	</node>
	<node lat="59.12807151125488" lon="11.386504440570947" id="-26880">
		<tag k="name" v="Olavs plass" />
		<tag k="ssr:date" v="2019-12-27" />
		<tag k="ssr:gruppe" v="veg" />
		<tag k="ssr:hovedgruppe" v="infrastruktur" />
		<tag k="ssr:stedsnr" v="1063286" />
		<tag k="ssr:type" v="adressenavn" />
	</node>
	<node lat="59.12065142674273" lon="11.389678938248903" id="-26882">
		<tag k="name" v="Ohmes plass" />
		<tag k="ssr:date" v="2019-12-27" />
		<tag k="ssr:gruppe" v="veg" />
		<tag k="ssr:hovedgruppe" v="infrastruktur" />
		<tag k="ssr:stedsnr" v="1063295" />
		<tag k="ssr:type" v="adressenavn" />
	</node>
	<node lat="59.13140644418236" lon="11.36552261523166" id="-26883">
		<tag k="name" v="Odins vei" />
		<tag k="ssr:date" v="2019-12-27" />
		<tag k="ssr:gruppe" v="veg" />
		<tag k="ssr:hovedgruppe" v="infrastruktur" />
		<tag k="ssr:stedsnr" v="1063313" />
		<tag k="ssr:type" v="adressenavn" />
	</node>
	<node lat="59.138964896090876" lon="11.402882772303874" id="-26884">
		<tag k="name" v="Næridsrødveien" />
		<tag k="ssr:date" v="2019-12-27" />
		<tag k="ssr:gruppe" v="veg" />
		<tag k="ssr:hovedgruppe" v="infrastruktur" />
		<tag k="ssr:stedsnr" v="1063318" />
		<tag k="ssr:type" v="adressenavn" />
	</node>
	<node lat="59.1247928899504" lon="11.387858178923286" id="-26885">
		<tag k="name" v="Os alle" />
		<tag k="ssr:date" v="2019-12-27" />
		<tag k="ssr:gruppe" v="veg" />
		<tag k="ssr:hovedgruppe" v="infrastruktur" />
		<tag k="ssr:stedsnr" v="1063325" />
		<tag k="ssr:type" v="adressenavn" />
	</node>
	<node lat="59.11936789170022" lon="11.361564725054272" id="-26886">
		<tag k="name" v="Refneveien" />
		<tag k="ssr:date" v="2019-12-27" />
		<tag k="ssr:gruppe" v="veg" />
		<tag k="ssr:hovedgruppe" v="infrastruktur" />
		<tag k="ssr:stedsnr" v="1063394" />
		<tag k="ssr:type" v="adressenavn" />
	</node>
	<node lat="59.13048373057565" lon="11.443259405677665" id="-26887">
		<tag k="name" v="Raveien" />
		<tag k="ssr:date" v="2019-12-27" />
		<tag k="ssr:gruppe" v="veg" />
		<tag k="ssr:hovedgruppe" v="infrastruktur" />
		<tag k="ssr:stedsnr" v="1063410" />
		<tag k="ssr:type" v="adressenavn" />
	</node>
	<node lat="59.11920351306898" lon="11.391197507302037" id="-26888">
		<tag k="name" v="Rascheprangen" />
		<tag k="ssr:date" v="2019-12-27" />
		<tag k="ssr:gruppe" v="veg" />
		<tag k="ssr:hovedgruppe" v="infrastruktur" />
		<tag k="ssr:stedsnr" v="1063415" />
		<tag k="ssr:type" v="adressenavn" />
	</node>
	<node lat="59.11714263950885" lon="11.387976195477806" id="-26889">
		<tag k="name" v="Pyntestredet" />
		<tag k="ssr:date" v="2019-12-27" />
		<tag k="ssr:gruppe" v="veg" />
		<tag k="ssr:hovedgruppe" v="infrastruktur" />
		<tag k="ssr:stedsnr" v="1063425" />
		<tag k="ssr:type" v="adressenavn" />
	</node>
	<node lat="59.129446341924805" lon="11.376781182559446" id="-26891">
		<tag k="name" v="Søsterveien" />
		<tag k="ssr:date" v="2019-12-27" />
		<tag k="ssr:gruppe" v="veg" />
		<tag k="ssr:hovedgruppe" v="infrastruktur" />
		<tag k="ssr:stedsnr" v="1063589" />
		<tag k="ssr:type" v="adressenavn" />
	</node>
	<node lat="59.12257940390741" lon="11.380151800451486" id="-26892">
		<tag k="name" v="Peder Ankers gate" />
		<tag k="ssr:date" v="2019-12-27" />
		<tag k="ssr:gruppe" v="veg" />
		<tag k="ssr:hovedgruppe" v="infrastruktur" />
		<tag k="ssr:stedsnr" v="1063243" />
		<tag k="ssr:type" v="adressenavn" />
	</node>
	<node lat="59.11344835293102" lon="11.390490022481647" id="-26893">
		<tag k="name" v="Parkveien" />
		<tag k="ssr:date" v="2019-12-27" />
		<tag k="ssr:gruppe" v="veg" />
		<tag k="ssr:hovedgruppe" v="infrastruktur" />
		<tag k="ssr:stedsnr" v="1063250" />
		<tag k="ssr:type" v="adressenavn" />
	</node>
	<node lat="59.12636973503422" lon="11.379045702297804" id="-26895">
		<tag k="name" v="Ole Dahls gate" />
		<tag k="ssr:date" v="2019-12-27" />
		<tag k="ssr:gruppe" v="veg" />
		<tag k="ssr:hovedgruppe" v="infrastruktur" />
		<tag k="ssr:stedsnr" v="1063276" />
		<tag k="ssr:type" v="adressenavn" />
	</node>
	<node lat="59.12518516772799" lon="11.443760327096587" id="-26897">
		<tag k="name" v="Orødveien" />
		<tag k="ssr:date" v="2019-12-27" />
		<tag k="ssr:gruppe" v="veg" />
		<tag k="ssr:hovedgruppe" v="infrastruktur" />
		<tag k="ssr:stedsnr" v="1063351" />
		<tag k="ssr:type" v="adressenavn" />
	</node>
	<node lat="59.145373290984935" lon="11.394569207764771" id="-26898">
		<tag k="name" v="Opalveien" />
		<tag k="ssr:date" v="2019-12-27" />
		<tag k="ssr:gruppe" v="veg" />
		<tag k="ssr:hovedgruppe" v="infrastruktur" />
		<tag k="ssr:stedsnr" v="1063357" />
		<tag k="ssr:type" v="adressenavn" />
	</node>
	<node lat="59.13408123897808" lon="11.43266319080517" id="-26899">
		<tag k="name" v="Olleveien" />
		<tag k="ssr:date" v="2019-12-27" />
		<tag k="ssr:gruppe" v="veg" />
		<tag k="ssr:hovedgruppe" v="infrastruktur" />
		<tag k="ssr:stedsnr" v="1063358" />
		<tag k="ssr:type" v="adressenavn" />
	</node>
	<node lat="59.11844190139325" lon="11.42300968240765" id="-26900">
		<tag k="name" v="Olinejordet" />
		<tag k="ssr:date" v="2019-12-27" />
		<tag k="ssr:gruppe" v="veg" />
		<tag k="ssr:hovedgruppe" v="infrastruktur" />
		<tag k="ssr:stedsnr" v="1063362" />
		<tag k="ssr:type" v="adressenavn" />
	</node>
	<node lat="59.127684252363096" lon="11.388883988746217" id="-26901">
		<tag k="name" v="Rektor Frølichs gate" />
		<tag k="ssr:date" v="2019-12-27" />
		<tag k="ssr:gruppe" v="veg" />
		<tag k="ssr:hovedgruppe" v="infrastruktur" />
		<tag k="ssr:stedsnr" v="1063376" />
		<tag k="ssr:type" v="adressenavn" />
	</node>
	<node lat="59.12438771575655" lon="11.397023602831835" id="-26903">
		<tag k="name" v="Porsnesveien" />
		<tag k="ssr:date" v="2019-12-27" />
		<tag k="ssr:gruppe" v="veg" />
		<tag k="ssr:hovedgruppe" v="infrastruktur" />
		<tag k="ssr:stedsnr" v="1063489" />
		<tag k="ssr:type" v="adressenavn" />
	</node>
	<node lat="59.12444716329862" lon="11.392016590730428" id="-26904">
		<tag k="name" v="Pilestredet" />
		<tag k="ssr:date" v="2019-12-27" />
		<tag k="ssr:gruppe" v="veg" />
		<tag k="ssr:hovedgruppe" v="infrastruktur" />
		<tag k="ssr:stedsnr" v="1063473" />
		<tag k="ssr:type" v="adressenavn" />
	</node>
	<node lat="59.13293971503633" lon="11.448189969197816" id="-26905">
		<tag k="name" v="Prestegårdsveien" />
		<tag k="ssr:date" v="2019-12-27" />
		<tag k="ssr:gruppe" v="veg" />
		<tag k="ssr:hovedgruppe" v="infrastruktur" />
		<tag k="ssr:stedsnr" v="1063482" />
		<tag k="ssr:type" v="adressenavn" />
	</node>
	<node lat="59.142353233756715" lon="11.401939279446072" id="-26906">
		<tag k="name" v="Toppveien" />
		<tag k="ssr:date" v="2019-12-27" />
		<tag k="ssr:gruppe" v="veg" />
		<tag k="ssr:hovedgruppe" v="infrastruktur" />
		<tag k="ssr:stedsnr" v="1063538" />
		<tag k="ssr:type" v="adressenavn" />
	</node>
	<node lat="59.119030346998635" lon="11.379371686552629" id="-26907">
		<tag k="name" v="Tomtegata" />
		<tag k="ssr:date" v="2019-12-27" />
		<tag k="ssr:gruppe" v="veg" />
		<tag k="ssr:hovedgruppe" v="infrastruktur" />
		<tag k="ssr:stedsnr" v="1063544" />
		<tag k="ssr:type" v="adressenavn" />
	</node>
	<node lat="59.119029109111715" lon="11.38689699733974" id="-26908">
		<tag k="name" v="Tollbugata" />
		<tag k="ssr:date" v="2019-12-27" />
		<tag k="ssr:gruppe" v="veg" />
		<tag k="ssr:hovedgruppe" v="infrastruktur" />
		<tag k="ssr:stedsnr" v="1063549" />
		<tag k="ssr:type" v="adressenavn" />
	</node>
	<node lat="59.12481734578077" lon="11.320150854242472" id="-26909">
		<tag k="name" v="Sørliveien" />
		<tag k="ssr:date" v="2019-12-27" />
		<tag k="ssr:gruppe" v="veg" />
		<tag k="ssr:hovedgruppe" v="infrastruktur" />
		<tag k="ssr:stedsnr" v="1063555" />
		<tag k="ssr:type" v="adressenavn" />
	</node>
	<node lat="59.119337372012836" lon="11.306757013012307" id="-26910">
		<tag k="name" v="Sørlifjellet" />
		<tag k="ssr:date" v="2019-12-27" />
		<tag k="ssr:gruppe" v="veg" />
		<tag k="ssr:hovedgruppe" v="infrastruktur" />
		<tag k="ssr:stedsnr" v="1063560" />
		<tag k="ssr:type" v="adressenavn" />
	</node>
	<node lat="59.11609749582005" lon="11.387688952263217" id="-26911">
		<tag k="name" v="Sølvgata" />
		<tag k="ssr:date" v="2019-12-27" />
		<tag k="ssr:gruppe" v="veg" />
		<tag k="ssr:hovedgruppe" v="infrastruktur" />
		<tag k="ssr:stedsnr" v="1063563" />
		<tag k="ssr:type" v="adressenavn" />
	</node>
	<node lat="59.13051886698484" lon="11.394863224144782" id="-26912">
		<tag k="name" v="Syrenveien" />
		<tag k="ssr:date" v="2019-12-27" />
		<tag k="ssr:gruppe" v="veg" />
		<tag k="ssr:hovedgruppe" v="infrastruktur" />
		<tag k="ssr:stedsnr" v="1063566" />
		<tag k="ssr:type" v="adressenavn" />
	</node>
	<node lat="59.123063659111345" lon="11.396289622350553" id="-26913">
		<tag k="name" v="Sykehusgata" />
		<tag k="ssr:date" v="2019-12-27" />
		<tag k="ssr:gruppe" v="veg" />
		<tag k="ssr:hovedgruppe" v="infrastruktur" />
		<tag k="ssr:stedsnr" v="1063571" />
		<tag k="ssr:type" v="adressenavn" />
	</node>
	<node lat="59.13905026395068" lon="11.37672044424956" id="-26914">
		<tag k="name" v="Thorsheimveien" />
		<tag k="ssr:date" v="2019-12-27" />
		<tag k="ssr:gruppe" v="veg" />
		<tag k="ssr:hovedgruppe" v="infrastruktur" />
		<tag k="ssr:stedsnr" v="1063574" />
		<tag k="ssr:type" v="adressenavn" />
	</node>
	<node lat="59.128351761335196" lon="11.381137601761832" id="-26916">
		<tag k="name" v="Thomas Fearnleys gate" />
		<tag k="ssr:date" v="2019-12-27" />
		<tag k="ssr:gruppe" v="veg" />
		<tag k="ssr:hovedgruppe" v="infrastruktur" />
		<tag k="ssr:stedsnr" v="1063576" />
		<tag k="ssr:type" v="adressenavn" />
	</node>
	<node lat="59.12331436697155" lon="11.387427916116879" id="-26917">
		<tag k="name" v="Teatergata" />
		<tag k="ssr:date" v="2019-12-27" />
		<tag k="ssr:gruppe" v="veg" />
		<tag k="ssr:hovedgruppe" v="infrastruktur" />
		<tag k="ssr:stedsnr" v="1063577" />
		<tag k="ssr:type" v="adressenavn" />
	</node>
	<node lat="59.12382275828848" lon="11.444950748506576" id="-26918">
		<tag k="name" v="Tangenveien" />
		<tag k="ssr:date" v="2019-12-27" />
		<tag k="ssr:gruppe" v="veg" />
		<tag k="ssr:hovedgruppe" v="infrastruktur" />
		<tag k="ssr:stedsnr" v="1063580" />
		<tag k="ssr:type" v="adressenavn" />
	</node>
	<node lat="59.11144291637906" lon="11.402187148416278" id="-26919">
		<tag k="name" v="Tamburveien" />
		<tag k="ssr:date" v="2019-12-27" />
		<tag k="ssr:gruppe" v="veg" />
		<tag k="ssr:hovedgruppe" v="infrastruktur" />
		<tag k="ssr:stedsnr" v="1063585" />
		<tag k="ssr:type" v="adressenavn" />
	</node>
	<node lat="59.11963650476129" lon="11.388152761641765" id="-26920">
		<tag k="name" v="Torget" />
		<tag k="ssr:date" v="2019-12-27" />
		<tag k="ssr:gruppe" v="veg" />
		<tag k="ssr:hovedgruppe" v="infrastruktur" />
		<tag k="ssr:stedsnr" v="1063638" />
		<tag k="ssr:type" v="adressenavn" />
	</node>
	<node lat="59.122693280632085" lon="11.387320098872802" id="-26921">
		<tag k="name" v="Tordenskjolds gate" />
		<tag k="ssr:date" v="2019-12-27" />
		<tag k="ssr:gruppe" v="veg" />
		<tag k="ssr:hovedgruppe" v="infrastruktur" />
		<tag k="ssr:stedsnr" v="1063649" />
		<tag k="ssr:type" v="adressenavn" />
	</node>
	<node lat="59.14212952760111" lon="11.383199391765073" id="-26922">
		<tag k="name" v="Trafoveien" />
		<tag k="ssr:date" v="2019-12-27" />
		<tag k="ssr:gruppe" v="veg" />
		<tag k="ssr:hovedgruppe" v="infrastruktur" />
		<tag k="ssr:stedsnr" v="1063652" />
		<tag k="ssr:type" v="adressenavn" />
	</node>
	<node lat="59.12431396516703" lon="11.443654893864665" id="-26923">
		<tag k="name" v="Trosteveien" />
		<tag k="ssr:date" v="2019-12-27" />
		<tag k="ssr:gruppe" v="veg" />
		<tag k="ssr:hovedgruppe" v="infrastruktur" />
		<tag k="ssr:stedsnr" v="1063653" />
		<tag k="ssr:type" v="adressenavn" />
	</node>
	<node lat="59.13197575813125" lon="11.364507305987692" id="-26924">
		<tag k="name" v="Tors vei" />
		<tag k="ssr:date" v="2019-12-27" />
		<tag k="ssr:gruppe" v="veg" />
		<tag k="ssr:hovedgruppe" v="infrastruktur" />
		<tag k="ssr:stedsnr" v="1063659" />
		<tag k="ssr:type" v="adressenavn" />
	</node>
	<node lat="59.12780018699441" lon="11.443997814647277" id="-26926">
		<tag k="name" v="Torpedalsveien" />
		<tag k="ssr:date" v="2019-12-27" />
		<tag k="ssr:gruppe" v="veg" />
		<tag k="ssr:hovedgruppe" v="infrastruktur" />
		<tag k="ssr:stedsnr" v="1063667" />
		<tag k="ssr:type" v="adressenavn" />
	</node>
	<node lat="59.11866633688699" lon="11.42302560409705" id="-26928">
		<tag k="name" v="Sommerroåsen" />
		<tag k="ssr:date" v="2019-12-27" />
		<tag k="ssr:gruppe" v="veg" />
		<tag k="ssr:hovedgruppe" v="infrastruktur" />
		<tag k="ssr:stedsnr" v="1063679" />
		<tag k="ssr:type" v="adressenavn" />
	</node>
	<node lat="59.116960274272614" lon="11.429849052130946" id="-26929">
		<tag k="name" v="Sommerroveien" />
		<tag k="ssr:date" v="2019-12-27" />
		<tag k="ssr:gruppe" v="veg" />
		<tag k="ssr:hovedgruppe" v="infrastruktur" />
		<tag k="ssr:stedsnr" v="1063681" />
		<tag k="ssr:type" v="adressenavn" />
	</node>
	<node lat="59.12496455850765" lon="11.395695102777989" id="-26930">
		<tag k="name" v="Porsnesbakken" />
		<tag k="ssr:date" v="2019-12-27" />
		<tag k="ssr:gruppe" v="veg" />
		<tag k="ssr:hovedgruppe" v="infrastruktur" />
		<tag k="ssr:stedsnr" v="1063507" />
		<tag k="ssr:type" v="adressenavn" />
	</node>
	<node lat="59.14397503742072" lon="11.38334625830464" id="-26932">
		<tag k="name" v="Porfyrveien" />
		<tag k="ssr:date" v="2019-12-27" />
		<tag k="ssr:gruppe" v="veg" />
		<tag k="ssr:hovedgruppe" v="infrastruktur" />
		<tag k="ssr:stedsnr" v="1063511" />
		<tag k="ssr:type" v="adressenavn" />
	</node>
	<node lat="59.11609749582005" lon="11.387688952263217" id="-26933">
		<tag k="name" v="Pistolstredet" />
		<tag k="ssr:date" v="2019-12-27" />
		<tag k="ssr:gruppe" v="veg" />
		<tag k="ssr:hovedgruppe" v="infrastruktur" />
		<tag k="ssr:stedsnr" v="1063514" />
		<tag k="ssr:type" v="adressenavn" />
	</node>
	<node lat="59.12595856102558" lon="11.411857863110189" id="-26934">
		<tag k="name" v="Tistedalsveien" />
		<tag k="ssr:date" v="2019-12-27" />
		<tag k="ssr:gruppe" v="veg" />
		<tag k="ssr:hovedgruppe" v="infrastruktur" />
		<tag k="ssr:stedsnr" v="1063518" />
		<tag k="ssr:type" v="adressenavn" />
	</node>
	<node lat="59.124615192328754" lon="11.395628320209644" id="-26935">
		<tag k="name" v="Tistedalsgata" />
		<tag k="ssr:date" v="2019-12-27" />
		<tag k="ssr:gruppe" v="veg" />
		<tag k="ssr:hovedgruppe" v="infrastruktur" />
		<tag k="ssr:stedsnr" v="1063529" />
		<tag k="ssr:type" v="adressenavn" />
	</node>
	<node lat="59.12639252648946" lon="11.397302455967619" id="-26936">
		<tag k="name" v="Tista plass" />
		<tag k="ssr:date" v="2019-12-27" />
		<tag k="ssr:gruppe" v="veg" />
		<tag k="ssr:hovedgruppe" v="infrastruktur" />
		<tag k="ssr:stedsnr" v="1063533" />
		<tag k="ssr:type" v="adressenavn" />
	</node>
	<node lat="59.11700965442646" lon="11.387668199527308" id="-26937">
		<tag k="name" v="Tønne Huitfeldts plass" />
		<tag k="ssr:date" v="2019-12-27" />
		<tag k="ssr:gruppe" v="veg" />
		<tag k="ssr:hovedgruppe" v="infrastruktur" />
		<tag k="ssr:stedsnr" v="1063592" />
		<tag k="ssr:type" v="adressenavn" />
	</node>
	<node lat="59.13237184026864" lon="11.389072725390882" id="-26938">
		<tag k="name" v="Tverrveien" />
		<tag k="ssr:date" v="2019-12-27" />
		<tag k="ssr:gruppe" v="veg" />
		<tag k="ssr:hovedgruppe" v="infrastruktur" />
		<tag k="ssr:stedsnr" v="1063595" />
		<tag k="ssr:type" v="adressenavn" />
	</node>
	<node lat="59.113893684815785" lon="11.416015135292609" id="-26939">
		<tag k="name" v="Tunveien" />
		<tag k="ssr:date" v="2019-12-27" />
		<tag k="ssr:gruppe" v="veg" />
		<tag k="ssr:hovedgruppe" v="infrastruktur" />
		<tag k="ssr:stedsnr" v="1063602" />
		<tag k="ssr:type" v="adressenavn" />
	</node>
	<node lat="59.13099767100654" lon="11.362580633755206" id="-26940">
		<tag k="name" v="Tryms vei" />
		<tag k="ssr:date" v="2019-12-27" />
		<tag k="ssr:gruppe" v="veg" />
		<tag k="ssr:hovedgruppe" v="infrastruktur" />
		<tag k="ssr:stedsnr" v="1063604" />
		<tag k="ssr:type" v="adressenavn" />
	</node>
	<node lat="59.13293971503633" lon="11.448189969197816" id="-26941">
		<tag k="name" v="Trygves vei" />
		<tag k="ssr:date" v="2019-12-27" />
		<tag k="ssr:gruppe" v="veg" />
		<tag k="ssr:hovedgruppe" v="infrastruktur" />
		<tag k="ssr:stedsnr" v="1063607" />
		<tag k="ssr:type" v="adressenavn" />
	</node>
	<node lat="59.13314244476943" lon="11.44850299983509" id="-26942">
		<tag k="name" v="Utsiktsveien" />
		<tag k="ssr:date" v="2019-12-27" />
		<tag k="ssr:gruppe" v="veg" />
		<tag k="ssr:hovedgruppe" v="infrastruktur" />
		<tag k="ssr:stedsnr" v="1063609" />
		<tag k="ssr:type" v="adressenavn" />
	</node>
	<node lat="59.12480219057533" lon="11.390132408383273" id="-26943">
		<tag k="name" v="Urtegata" />
		<tag k="ssr:date" v="2019-12-27" />
		<tag k="ssr:gruppe" v="veg" />
		<tag k="ssr:hovedgruppe" v="infrastruktur" />
		<tag k="ssr:stedsnr" v="1063617" />
		<tag k="ssr:type" v="adressenavn" />
	</node>
	<node lat="59.12915819939525" lon="11.448190206697397" id="-26944">
		<tag k="name" v="Uranienborgveien" />
		<tag k="ssr:date" v="2019-12-27" />
		<tag k="ssr:gruppe" v="veg" />
		<tag k="ssr:hovedgruppe" v="infrastruktur" />
		<tag k="ssr:stedsnr" v="1063621" />
		<tag k="ssr:type" v="adressenavn" />
	</node>
	<node lat="59.137814705667125" lon="11.398425900825504" id="-26945">
		<tag k="name" v="Ulvåsveien" />
		<tag k="ssr:date" v="2019-12-27" />
		<tag k="ssr:gruppe" v="veg" />
		<tag k="ssr:hovedgruppe" v="infrastruktur" />
		<tag k="ssr:stedsnr" v="1063626" />
		<tag k="ssr:type" v="adressenavn" />
	</node>
	<node lat="59.13623508782816" lon="11.36217845612098" id="-26946">
		<tag k="name" v="Ulls vei" />
		<tag k="ssr:date" v="2019-12-27" />
		<tag k="ssr:gruppe" v="veg" />
		<tag k="ssr:hovedgruppe" v="infrastruktur" />
		<tag k="ssr:stedsnr" v="1063628" />
		<tag k="ssr:type" v="adressenavn" />
	</node>
	<node lat="59.13600254845321" lon="11.436569941955758" id="-26947">
		<tag k="name" v="Solåsveien" />
		<tag k="ssr:date" v="2019-12-27" />
		<tag k="ssr:gruppe" v="veg" />
		<tag k="ssr:hovedgruppe" v="infrastruktur" />
		<tag k="ssr:stedsnr" v="1063687" />
		<tag k="ssr:type" v="adressenavn" />
	</node>
	<node lat="59.12386097450649" lon="11.368551989754058" id="-26948">
		<tag k="name" v="Solveien" />
		<tag k="ssr:date" v="2019-12-27" />
		<tag k="ssr:gruppe" v="veg" />
		<tag k="ssr:hovedgruppe" v="infrastruktur" />
		<tag k="ssr:stedsnr" v="1063691" />
		<tag k="ssr:type" v="adressenavn" />
	</node>
	<node lat="59.13417538554088" lon="11.390862360522219" id="-26949">
		<tag k="name" v="Solliveien" />
		<tag k="ssr:date" v="2019-12-27" />
		<tag k="ssr:gruppe" v="veg" />
		<tag k="ssr:hovedgruppe" v="infrastruktur" />
		<tag k="ssr:stedsnr" v="1063693" />
		<tag k="ssr:type" v="adressenavn" />
	</node>
	<node lat="59.136390267550844" lon="11.353842952632691" id="-26950">
		<tag k="name" v="Sollihøyda" />
		<tag k="ssr:date" v="2019-12-27" />
		<tag k="ssr:gruppe" v="veg" />
		<tag k="ssr:hovedgruppe" v="infrastruktur" />
		<tag k="ssr:stedsnr" v="1063694" />
		<tag k="ssr:type" v="adressenavn" />
	</node>
	<node lat="59.11657489310908" lon="11.387750183352857" id="-26951">
		<tag k="name" v="Springstredet" />
		<tag k="ssr:date" v="2019-12-27" />
		<tag k="ssr:gruppe" v="veg" />
		<tag k="ssr:hovedgruppe" v="infrastruktur" />
		<tag k="ssr:stedsnr" v="1063701" />
		<tag k="ssr:type" v="adressenavn" />
	</node>
	<node lat="59.0974854779446" lon="11.231252917237017" id="-26952">
		<tag k="name" v="Sponvikveien" />
		<tag k="ssr:date" v="2019-12-27" />
		<tag k="ssr:gruppe" v="veg" />
		<tag k="ssr:hovedgruppe" v="infrastruktur" />
		<tag k="ssr:stedsnr" v="1063702" />
		<tag k="ssr:type" v="adressenavn" />
	</node>
	<node lat="59.119552557082606" lon="11.39050655830534" id="-26954">
		<tag k="name" v="Spinnestredet" />
		<tag k="ssr:date" v="2019-12-27" />
		<tag k="ssr:gruppe" v="veg" />
		<tag k="ssr:hovedgruppe" v="infrastruktur" />
		<tag k="ssr:stedsnr" v="1063711" />
		<tag k="ssr:type" v="adressenavn" />
	</node>
	<node lat="59.10415651437727" lon="11.403171636210393" id="-26955">
		<tag k="name" v="Soldatveien" />
		<tag k="ssr:date" v="2019-12-27" />
		<tag k="ssr:gruppe" v="veg" />
		<tag k="ssr:hovedgruppe" v="infrastruktur" />
		<tag k="ssr:stedsnr" v="1063712" />
		<tag k="ssr:type" v="adressenavn" />
	</node>
	<node lat="59.13193805601284" lon="11.389115304423933" id="-26956">
		<tag k="name" v="Solbakkeveien" />
		<tag k="ssr:date" v="2019-12-27" />
		<tag k="ssr:gruppe" v="veg" />
		<tag k="ssr:hovedgruppe" v="infrastruktur" />
		<tag k="ssr:stedsnr" v="1063718" />
		<tag k="ssr:type" v="adressenavn" />
	</node>
	<node lat="59.13492264920514" lon="11.397025314409056" id="-26960">
		<tag k="name" v="Svalsrødveien" />
		<tag k="ssr:date" v="2019-12-27" />
		<tag k="ssr:gruppe" v="veg" />
		<tag k="ssr:hovedgruppe" v="infrastruktur" />
		<tag k="ssr:stedsnr" v="1063788" />
		<tag k="ssr:type" v="adressenavn" />
	</node>
	<node lat="59.144637728736335" lon="11.390615669093455" id="-26962">
		<tag k="name" v="Stenliveien" />
		<tag k="ssr:date" v="2019-12-27" />
		<tag k="ssr:gruppe" v="veg" />
		<tag k="ssr:hovedgruppe" v="infrastruktur" />
		<tag k="ssr:stedsnr" v="1063796" />
		<tag k="ssr:type" v="adressenavn" />
	</node>
	<node lat="59.12904860534547" lon="11.390360084580449" id="-26964">
		<tag k="name" v="Statsråd Tanks gate" />
		<tag k="ssr:date" v="2019-12-27" />
		<tag k="ssr:gruppe" v="veg" />
		<tag k="ssr:hovedgruppe" v="infrastruktur" />
		<tag k="ssr:stedsnr" v="1063800" />
		<tag k="ssr:type" v="adressenavn" />
	</node>
	<node lat="59.13599058244174" lon="11.391042287566824" id="-26965">
		<tag k="name" v="Solerødveien" />
		<tag k="ssr:date" v="2019-12-27" />
		<tag k="ssr:gruppe" v="veg" />
		<tag k="ssr:hovedgruppe" v="infrastruktur" />
		<tag k="ssr:stedsnr" v="1063739" />
		<tag k="ssr:type" v="adressenavn" />
	</node>
	<node lat="59.1367666936229" lon="11.39619922687279" id="-26966">
		<tag k="name" v="Solerødbakken" />
		<tag k="ssr:date" v="2019-12-27" />
		<tag k="ssr:gruppe" v="veg" />
		<tag k="ssr:hovedgruppe" v="infrastruktur" />
		<tag k="ssr:stedsnr" v="1063745" />
		<tag k="ssr:type" v="adressenavn" />
	</node>
	<node lat="58.93509359816059" lon="11.67147054141408" id="-26967">
		<tag k="name" v="Sundsliåsen" />
		<tag k="ssr:date" v="2019-12-27" />
		<tag k="ssr:gruppe" v="veg" />
		<tag k="ssr:hovedgruppe" v="infrastruktur" />
		<tag k="ssr:stedsnr" v="1063757" />
		<tag k="ssr:type" v="adressenavn" />
	</node>
	<node lat="59.13602114934727" lon="11.40021648033571" id="-26968">
		<tag k="name" v="Svaleveien" />
		<tag k="ssr:date" v="2019-12-27" />
		<tag k="ssr:gruppe" v="veg" />
		<tag k="ssr:hovedgruppe" v="infrastruktur" />
		<tag k="ssr:stedsnr" v="1063758" />
		<tag k="ssr:type" v="adressenavn" />
	</node>
	<node lat="58.93509954752125" lon="11.67068930309081" id="-26969">
		<tag k="name" v="Sundet" />
		<tag k="ssr:date" v="2019-12-27" />
		<tag k="ssr:gruppe" v="veg" />
		<tag k="ssr:hovedgruppe" v="infrastruktur" />
		<tag k="ssr:stedsnr" v="1063759" />
		<tag k="ssr:type" v="adressenavn" />
	</node>
	<node lat="59.133577810593174" lon="11.406934103303556" id="-26970">
		<tag k="name" v="Stubberudveien" />
		<tag k="ssr:date" v="2019-12-27" />
		<tag k="ssr:gruppe" v="veg" />
		<tag k="ssr:hovedgruppe" v="infrastruktur" />
		<tag k="ssr:stedsnr" v="1063761" />
		<tag k="ssr:type" v="adressenavn" />
	</node>
	<node lat="59.13621801061742" lon="11.3791084968821" id="-26971">
		<tag k="name" v="Strupeveien" />
		<tag k="ssr:date" v="2019-12-27" />
		<tag k="ssr:gruppe" v="veg" />
		<tag k="ssr:hovedgruppe" v="infrastruktur" />
		<tag k="ssr:stedsnr" v="1063769" />
		<tag k="ssr:type" v="adressenavn" />
	</node>
	<node lat="59.11780843516299" lon="11.38872418592915" id="-26972">
		<tag k="name" v="Strandstredet" />
		<tag k="ssr:date" v="2019-12-27" />
		<tag k="ssr:gruppe" v="veg" />
		<tag k="ssr:hovedgruppe" v="infrastruktur" />
		<tag k="ssr:stedsnr" v="1063771" />
		<tag k="ssr:type" v="adressenavn" />
	</node>
	<node lat="59.12108733761254" lon="11.31147559542125" id="-26976">
		<tag k="name" v="Svinesundsveien" />
		<tag k="ssr:date" v="2019-12-27" />
		<tag k="ssr:gruppe" v="veg" />
		<tag k="ssr:hovedgruppe" v="infrastruktur" />
		<tag k="ssr:stedsnr" v="1063776" />
		<tag k="ssr:type" v="adressenavn" />
	</node>
	<node lat="59.12231081070196" lon="11.387320373466434" id="-26979">
		<tag k="name" v="Svenskegata" />
		<tag k="ssr:date" v="2019-12-27" />
		<tag k="ssr:gruppe" v="veg" />
		<tag k="ssr:hovedgruppe" v="infrastruktur" />
		<tag k="ssr:stedsnr" v="1063783" />
		<tag k="ssr:type" v="adressenavn" />
	</node>
	<node lat="59.12426546104861" lon="11.444649384284174" id="-26980">
		<tag k="name" v="Stensveien" />
		<tag k="ssr:date" v="2019-12-27" />
		<tag k="ssr:gruppe" v="veg" />
		<tag k="ssr:hovedgruppe" v="infrastruktur" />
		<tag k="ssr:stedsnr" v="1063838" />
		<tag k="ssr:type" v="adressenavn" />
	</node>
	<node lat="59.13992393927955" lon="11.39014399263334" id="-26981">
		<tag k="name" v="Stenrødveien" />
		<tag k="ssr:date" v="2019-12-27" />
		<tag k="ssr:gruppe" v="veg" />
		<tag k="ssr:hovedgruppe" v="infrastruktur" />
		<tag k="ssr:stedsnr" v="1063841" />
		<tag k="ssr:type" v="adressenavn" />
	</node>
	<node lat="59.12911233938447" lon="11.399356509627424" id="-26982">
		<tag k="name" v="Øvregate" />
		<tag k="ssr:date" v="2019-12-27" />
		<tag k="ssr:gruppe" v="veg" />
		<tag k="ssr:hovedgruppe" v="infrastruktur" />
		<tag k="ssr:stedsnr" v="1063937" />
		<tag k="ssr:type" v="adressenavn" />
	</node>
	<node lat="59.12763659776098" lon="11.376836124888312" id="-26983">
		<tag k="name" v="Stangeløkkveien" />
		<tag k="ssr:date" v="2019-12-27" />
		<tag k="ssr:gruppe" v="veg" />
		<tag k="ssr:hovedgruppe" v="infrastruktur" />
		<tag k="ssr:stedsnr" v="1063808" />
		<tag k="ssr:type" v="adressenavn" />
	</node>
	<node lat="59.13150657716425" lon="11.453258866117832" id="-26984">
		<tag k="name" v="Stadionveien" />
		<tag k="ssr:date" v="2019-12-27" />
		<tag k="ssr:gruppe" v="veg" />
		<tag k="ssr:hovedgruppe" v="infrastruktur" />
		<tag k="ssr:stedsnr" v="1063811" />
		<tag k="ssr:type" v="adressenavn" />
	</node>
	<node lat="59.1351168551337" lon="11.405188042652474" id="-26985">
		<tag k="name" v="Spurveveien" />
		<tag k="ssr:date" v="2019-12-27" />
		<tag k="ssr:gruppe" v="veg" />
		<tag k="ssr:hovedgruppe" v="infrastruktur" />
		<tag k="ssr:stedsnr" v="1063812" />
		<tag k="ssr:type" v="adressenavn" />
	</node>
	<node lat="59.119029109111715" lon="11.38689699733974" id="-26986">
		<tag k="name" v="Storgata" />
		<tag k="ssr:date" v="2019-12-27" />
		<tag k="ssr:gruppe" v="veg" />
		<tag k="ssr:hovedgruppe" v="infrastruktur" />
		<tag k="ssr:stedsnr" v="1063816" />
		<tag k="ssr:type" v="adressenavn" />
	</node>
	<node lat="59.14042566522992" lon="11.39779975726624" id="-26989">
		<tag k="name" v="Stigveien" />
		<tag k="ssr:date" v="2019-12-27" />
		<tag k="ssr:gruppe" v="veg" />
		<tag k="ssr:hovedgruppe" v="infrastruktur" />
		<tag k="ssr:stedsnr" v="1063826" />
		<tag k="ssr:type" v="adressenavn" />
	</node>
	<node lat="59.13257051397593" lon="11.384594611073936" id="-26990">
		<tag k="name" v="Åsveien" />
		<tag k="ssr:date" v="2019-12-27" />
		<tag k="ssr:gruppe" v="veg" />
		<tag k="ssr:hovedgruppe" v="infrastruktur" />
		<tag k="ssr:stedsnr" v="1063901" />
		<tag k="ssr:type" v="adressenavn" />
	</node>
	<node lat="59.134650975460424" lon="11.392377129751248" id="-26991">
		<tag k="name" v="Åserødveien" />
		<tag k="ssr:date" v="2019-12-27" />
		<tag k="ssr:gruppe" v="veg" />
		<tag k="ssr:hovedgruppe" v="infrastruktur" />
		<tag k="ssr:stedsnr" v="1063908" />
		<tag k="ssr:type" v="adressenavn" />
	</node>
	<node lat="59.11177305791412" lon="11.43635799463558" id="-26993">
		<tag k="name" v="Åsengveien" />
		<tag k="ssr:date" v="2019-12-27" />
		<tag k="ssr:gruppe" v="veg" />
		<tag k="ssr:hovedgruppe" v="infrastruktur" />
		<tag k="ssr:stedsnr" v="1063926" />
		<tag k="ssr:type" v="adressenavn" />
	</node>
	<node lat="59.11414628257104" lon="11.417283979375682" id="-26994">
		<tag k="name" v="Øvreveien" />
		<tag k="ssr:date" v="2019-12-27" />
		<tag k="ssr:gruppe" v="veg" />
		<tag k="ssr:hovedgruppe" v="infrastruktur" />
		<tag k="ssr:stedsnr" v="1063935" />
		<tag k="ssr:type" v="adressenavn" />
	</node>
	<node lat="59.14166919848314" lon="11.377347834740803" id="-26995">
		<tag k="name" v="Vestveien" />
		<tag k="ssr:date" v="2019-12-27" />
		<tag k="ssr:gruppe" v="veg" />
		<tag k="ssr:hovedgruppe" v="infrastruktur" />
		<tag k="ssr:stedsnr" v="1064042" />
		<tag k="ssr:type" v="adressenavn" />
	</node>
	<node lat="59.11783403857046" lon="11.413077121814904" id="-26997">
		<tag k="name" v="Vesleveien" />
		<tag k="ssr:date" v="2019-12-27" />
		<tag k="ssr:gruppe" v="veg" />
		<tag k="ssr:hovedgruppe" v="infrastruktur" />
		<tag k="ssr:stedsnr" v="1064050" />
		<tag k="ssr:type" v="adressenavn" />
	</node>
	<node lat="59.13359172363506" lon="11.447578453690202" id="-26998">
		<tag k="name" v="Villaveien" />
		<tag k="ssr:date" v="2019-12-27" />
		<tag k="ssr:gruppe" v="veg" />
		<tag k="ssr:hovedgruppe" v="infrastruktur" />
		<tag k="ssr:stedsnr" v="1064060" />
		<tag k="ssr:type" v="adressenavn" />
	</node>
	<node lat="59.10789311562727" lon="11.405025867686035" id="-26999">
		<tag k="name" v="Vekterveien" />
		<tag k="ssr:date" v="2019-12-27" />
		<tag k="ssr:gruppe" v="veg" />
		<tag k="ssr:hovedgruppe" v="infrastruktur" />
		<tag k="ssr:stedsnr" v="1064099" />
		<tag k="ssr:type" v="adressenavn" />
	</node>
	<node lat="59.13222696180195" lon="11.448158916422493" id="-27000">
		<tag k="name" v="Vedenveien" />
		<tag k="ssr:date" v="2019-12-27" />
		<tag k="ssr:gruppe" v="veg" />
		<tag k="ssr:hovedgruppe" v="infrastruktur" />
		<tag k="ssr:stedsnr" v="1064100" />
		<tag k="ssr:type" v="adressenavn" />
	</node>
	<node lat="59.12639252648946" lon="11.397302455967619" id="-27002">
		<tag k="name" v="Willerups gate" />
		<tag k="ssr:date" v="2019-12-27" />
		<tag k="ssr:gruppe" v="veg" />
		<tag k="ssr:hovedgruppe" v="infrastruktur" />
		<tag k="ssr:stedsnr" v="1064108" />
		<tag k="ssr:type" v="adressenavn" />
	</node>
	<node lat="59.12183659446138" lon="11.387296229041546" id="-27003">
		<tag k="name" v="Wiels plass" />
		<tag k="ssr:date" v="2019-12-27" />
		<tag k="ssr:gruppe" v="veg" />
		<tag k="ssr:hovedgruppe" v="infrastruktur" />
		<tag k="ssr:stedsnr" v="1064109" />
		<tag k="ssr:type" v="adressenavn" />
	</node>
	<node lat="59.13342537576076" lon="11.368892152699626" id="-27004">
		<tag k="name" v="Vidars vei" />
		<tag k="ssr:date" v="2019-12-27" />
		<tag k="ssr:gruppe" v="veg" />
		<tag k="ssr:hovedgruppe" v="infrastruktur" />
		<tag k="ssr:stedsnr" v="1064074" />
		<tag k="ssr:type" v="adressenavn" />
	</node>
	<node lat="59.10878318370461" lon="11.386533957302772" id="-27005">
		<tag k="name" v="Vaskernveien" />
		<tag k="ssr:date" v="2019-12-27" />
		<tag k="ssr:gruppe" v="veg" />
		<tag k="ssr:hovedgruppe" v="infrastruktur" />
		<tag k="ssr:stedsnr" v="1064078" />
		<tag k="ssr:type" v="adressenavn" />
	</node>
	<node lat="59.12155184127018" lon="11.43868964982163" id="-27006">
		<tag k="name" v="Vangenveien" />
		<tag k="ssr:date" v="2019-12-27" />
		<tag k="ssr:gruppe" v="veg" />
		<tag k="ssr:hovedgruppe" v="infrastruktur" />
		<tag k="ssr:stedsnr" v="1064081" />
		<tag k="ssr:type" v="adressenavn" />
	</node>
	<node lat="59.136601481193274" lon="11.365756824245484" id="-27008">
		<tag k="name" v="Valhall" />
		<tag k="ssr:date" v="2019-12-27" />
		<tag k="ssr:gruppe" v="veg" />
		<tag k="ssr:hovedgruppe" v="infrastruktur" />
		<tag k="ssr:stedsnr" v="1064083" />
		<tag k="ssr:type" v="adressenavn" />
	</node>
	<node lat="59.141119138677126" lon="11.374969129731642" id="-27011">
		<tag k="name" v="Ødegårdveien" />
		<tag k="ssr:date" v="2019-12-27" />
		<tag k="ssr:gruppe" v="veg" />
		<tag k="ssr:hovedgruppe" v="infrastruktur" />
		<tag k="ssr:stedsnr" v="1064146" />
		<tag k="ssr:type" v="adressenavn" />
	</node>
	<node lat="59.107966519395006" lon="11.418684554594803" id="-27012">
		<tag k="name" v="Øbergveien" />
		<tag k="ssr:date" v="2019-12-27" />
		<tag k="ssr:gruppe" v="veg" />
		<tag k="ssr:hovedgruppe" v="infrastruktur" />
		<tag k="ssr:stedsnr" v="1064151" />
		<tag k="ssr:type" v="adressenavn" />
	</node>
	<node lat="59.12579296642428" lon="11.384614911467434" id="-27013">
		<tag k="name" v="Wærns gate" />
		<tag k="ssr:date" v="2019-12-27" />
		<tag k="ssr:gruppe" v="veg" />
		<tag k="ssr:hovedgruppe" v="infrastruktur" />
		<tag k="ssr:stedsnr" v="1064159" />
		<tag k="ssr:type" v="adressenavn" />
	</node>
	<node lat="59.122778650717876" lon="11.38594819563481" id="-27014">
		<tag k="name" v="Violgata" />
		<tag k="ssr:date" v="2019-12-27" />
		<tag k="ssr:gruppe" v="veg" />
		<tag k="ssr:hovedgruppe" v="infrastruktur" />
		<tag k="ssr:stedsnr" v="1064160" />
		<tag k="ssr:type" v="adressenavn" />
	</node>
	<node lat="59.114829757771034" lon="11.421299406735386" id="-27015">
		<tag k="name" v="Vinterstubben" />
		<tag k="ssr:date" v="2019-12-27" />
		<tag k="ssr:gruppe" v="veg" />
		<tag k="ssr:hovedgruppe" v="infrastruktur" />
		<tag k="ssr:stedsnr" v="1064164" />
		<tag k="ssr:type" v="adressenavn" />
	</node>
	<node lat="59.11563551484523" lon="11.430443234129307" id="-27016">
		<tag k="name" v="Vinkelveien" />
		<tag k="ssr:date" v="2019-12-27" />
		<tag k="ssr:gruppe" v="veg" />
		<tag k="ssr:hovedgruppe" v="infrastruktur" />
		<tag k="ssr:stedsnr" v="1064169" />
		<tag k="ssr:type" v="adressenavn" />
	</node>
	<node lat="59.12925010180645" lon="11.421091100371456" id="-27017">
		<tag k="name" v="Våkemark" />
		<tag k="ssr:date" v="2019-12-27" />
		<tag k="ssr:gruppe" v="veg" />
		<tag k="ssr:hovedgruppe" v="infrastruktur" />
		<tag k="ssr:stedsnr" v="1064178" />
		<tag k="ssr:type" v="adressenavn" />
	</node>
	<node lat="59.10968467316058" lon="11.416746894781973" id="-27018">
		<tag k="name" v="Wiboveien" />
		<tag k="ssr:date" v="2019-12-27" />
		<tag k="ssr:gruppe" v="veg" />
		<tag k="ssr:hovedgruppe" v="infrastruktur" />
		<tag k="ssr:stedsnr" v="1064113" />
		<tag k="ssr:type" v="adressenavn" />
	</node>
	<node lat="59.141219826268895" lon="11.378123121221652" id="-27019">
		<tag k="name" v="Watvedtveien" />
		<tag k="ssr:date" v="2019-12-27" />
		<tag k="ssr:gruppe" v="veg" />
		<tag k="ssr:hovedgruppe" v="infrastruktur" />
		<tag k="ssr:stedsnr" v="1064120" />
		<tag k="ssr:type" v="adressenavn" />
	</node>
	<node lat="59.12167394245481" lon="11.382622449827277" id="-27020">
		<tag k="name" v="Walkers gate" />
		<tag k="ssr:date" v="2019-12-27" />
		<tag k="ssr:gruppe" v="veg" />
		<tag k="ssr:hovedgruppe" v="infrastruktur" />
		<tag k="ssr:stedsnr" v="1064124" />
		<tag k="ssr:type" v="adressenavn" />
	</node>
	<node lat="59.116045684315715" lon="11.421322824878448" id="-27021">
		<tag k="name" v="Vårstien" />
		<tag k="ssr:date" v="2019-12-27" />
		<tag k="ssr:gruppe" v="veg" />
		<tag k="ssr:hovedgruppe" v="infrastruktur" />
		<tag k="ssr:stedsnr" v="1064126" />
		<tag k="ssr:type" v="adressenavn" />
	</node>
	<node lat="59.121738462227114" lon="11.386835548774789" id="-27022">
		<tag k="name" v="Øvre Bankegate" />
		<tag k="ssr:date" v="2019-12-27" />
		<tag k="ssr:gruppe" v="veg" />
		<tag k="ssr:hovedgruppe" v="infrastruktur" />
		<tag k="ssr:stedsnr" v="1064133" />
		<tag k="ssr:type" v="adressenavn" />
	</node>
	<node lat="59.1261139932563" lon="11.386796373020708" id="-27023">
		<tag k="name" v="Vognmakergata" />
		<tag k="ssr:date" v="2019-12-27" />
		<tag k="ssr:gruppe" v="veg" />
		<tag k="ssr:hovedgruppe" v="infrastruktur" />
		<tag k="ssr:stedsnr" v="1064191" />
		<tag k="ssr:type" v="adressenavn" />
	</node>
</osm>
