<?xml version="1.0" encoding="UTF-8"?>
<osm version="0.6" generator="osmapis">
	<node lat="64.81300833468768" lon="13.656708338020453" id="-48373">
		<tag k="name" v="Finnkrulia" />
		<tag k="name:no" v="Finnkrulia" />
		<tag k="natural" v="slope" />
		<tag k="place" v="locality" />
		<tag k="ssr:stedsnr" v="229615" />
	</node>
	<node lat="64.87057777383986" lon="13.488094444828617" id="-48375">
		<tag k="name" v="Litlfjellet" />
		<tag k="name:no" v="Litlfjellet" />
		<tag k="natural" v="hill" />
		<tag k="place" v="locality" />
		<tag k="ssr:stedsnr" v="229848" />
	</node>
	<node lat="64.82673055261658" lon="13.358811109824964" id="-48378">
		<tag k="name" v="Reajnoe-sjåellie" />
		<tag k="name:no" v="Reajnoe-sjåellie" />
		<tag k="natural" v="slope" />
		<tag k="place" v="locality" />
		<tag k="ssr:stedsnr" v="230171" />
	</node>
	<node lat="64.95779722467816" lon="13.558291676122808" id="-48382">
		<tag k="name" v="Knulen" />
		<tag k="name:no" v="Knulen" />
		<tag k="natural" v="hill" />
		<tag k="place" v="locality" />
		<tag k="ssr:stedsnr" v="14017" />
	</node>
	<node lat="64.70989166644998" lon="13.063777772295238" id="-48386">
		<tag k="name" v="Tjørrudalen" />
		<tag k="name:no" v="Tjørrudalen" />
		<tag k="natural" v="valley" />
		<tag k="place" v="locality" />
		<tag k="ssr:stedsnr" v="14268" />
	</node>
	<node lat="64.8538527740267" lon="13.573908333501018" id="-48388">
		<tag k="name" v="Litlklumpen" />
		<tag k="name:no" v="Litlklumpen" />
		<tag k="natural" v="hill" />
		<tag k="place" v="locality" />
		<tag k="ssr:stedsnr" v="14316" />
	</node>
	<node lat="64.8487527796174" lon="13.665550009678446" id="-48390">
		<tag k="fixme" v="consider natural=peak for the most distinct mountains in the district" />
		<tag k="name" v="Njueniesjaevriennjuenie" />
		<tag k="name:sma" v="Njueniesjaevriennjuenie" />
		<tag k="natural" v="hill" />
		<tag k="place" v="locality" />
		<tag k="ssr:stedsnr" v="14318" />
	</node>
	<node lat="64.9403250030027" lon="13.397958334767896" id="-48391">
		<tag k="name" v="Saksvasskardet" />
		<tag k="name:no" v="Saksvasskardet" />
		<tag k="natural" v="valley" />
		<tag k="place" v="locality" />
		<tag k="ssr:stedsnr" v="14366" />
	</node>
	<node lat="65.09416944526275" lon="14.183750002328921" id="-48393">
		<tag k="fixme" v="consider natural=peak for the most distinct mountains in the district" />
		<tag k="name" v="Vuepertjahke" />
		<tag k="name:sma" v="Vuepertjahke" />
		<tag k="natural" v="hill" />
		<tag k="place" v="locality" />
		<tag k="ssr:stedsnr" v="14771" />
	</node>
	<node lat="64.68296388834658" lon="13.187472231198038" id="-48394">
		<tag k="name" v="Lia" />
		<tag k="name:no" v="Lia" />
		<tag k="natural" v="hill" />
		<tag k="place" v="locality" />
		<tag k="ssr:stedsnr" v="15409" />
	</node>
	<node lat="64.60759443988252" lon="13.20705556187592" id="-48397">
		<tag k="name" v="Tjirrehtse" />
		<tag k="name:sma" v="Tjirrehtse" />
		<tag k="natural" v="valley" />
		<tag k="place" v="locality" />
		<tag k="ssr:stedsnr" v="15371" />
	</node>
	<node lat="64.63547221757696" lon="13.150913897090406" id="-48409">
		<tag k="name" v="Finnburhaugen" />
		<tag k="name:no" v="Finnburhaugen" />
		<tag k="natural" v="hill" />
		<tag k="place" v="locality" />
		<tag k="ssr:stedsnr" v="46271" />
	</node>
	<node lat="64.78067499760935" lon="13.445388887408026" id="-48413">
		<tag k="name" v="Seterdalen" />
		<tag k="name:no" v="Seterdalen" />
		<tag k="natural" v="valley" />
		<tag k="place" v="locality" />
		<tag k="ssr:stedsnr" v="47122" />
	</node>
	<node lat="65.03446111492619" lon="13.707238889748016" id="-48416">
		<tag k="name" v="Ræjhkere-jallah" />
		<tag k="name:sma" v="Ræjhkere-jallah" />
		<tag k="natural" v="valley" />
		<tag k="place" v="locality" />
		<tag k="ssr:stedsnr" v="48630" />
	</node>
	<node lat="64.77357499774159" lon="13.432755547543533" id="-48426">
		<tag k="name" v="Leikhaugen" />
		<tag k="name:no" v="Leikhaugen" />
		<tag k="natural" v="hill" />
		<tag k="place" v="locality" />
		<tag k="ssr:stedsnr" v="76348" />
	</node>
	<node lat="64.77671388823393" lon="13.330997222562738" id="-48427">
		<tag k="fixme" v="consider natural=peak for the most distinct mountains in the district" />
		<tag k="name" v="Austre Mykkelvikfjellet" />
		<tag k="name:no" v="Austre Mykkelvikfjellet" />
		<tag k="natural" v="hill" />
		<tag k="place" v="locality" />
		<tag k="ssr:stedsnr" v="76349" />
	</node>
	<node lat="64.95670277460265" lon="13.964313898442052" id="-48430">
		<tag k="fixme" v="consider natural=peak for the most distinct mountains in the district" />
		<tag k="name" v="Noeresfiellie - Nursfjellet" />
		<tag k="name:no" v="Nursfjellet" />
		<tag k="name:sma" v="Noeresfiellie" />
		<tag k="natural" v="hill" />
		<tag k="place" v="locality" />
		<tag k="ssr:stedsnr" v="81391" />
	</node>
	<node lat="64.8448916650136" lon="13.811413888424875" id="-48431">
		<tag k="fixme" v="consider natural=peak for the most distinct mountains in the district" />
		<tag k="name" v="Snuhkie" />
		<tag k="name:sma" v="Snuhkie" />
		<tag k="natural" v="hill" />
		<tag k="place" v="locality" />
		<tag k="ssr:stedsnr" v="81906" />
	</node>
	<node lat="64.96386111457545" lon="13.473588893213597" id="-48432">
		<tag k="name" v="Goeblenbaahkoe" />
		<tag k="name:sma" v="Goeblenbaahkoe" />
		<tag k="natural" v="slope" />
		<tag k="place" v="locality" />
		<tag k="ssr:stedsnr" v="82907" />
	</node>
	<node lat="64.6374083339645" lon="13.196900000135882" id="-48435">
		<tag k="name" v="Litlskavhaugen" />
		<tag k="name:no" v="Litlskavhaugen" />
		<tag k="natural" v="hill" />
		<tag k="place" v="locality" />
		<tag k="ssr:stedsnr" v="105174" />
	</node>
	<node lat="64.69157777700347" lon="13.213174994986572" id="-48437">
		<tag k="name" v="Damhaugan" />
		<tag k="name:no" v="Damhaugan" />
		<tag k="natural" v="hill" />
		<tag k="place" v="locality" />
		<tag k="ssr:stedsnr" v="106300" />
	</node>
	<node lat="64.87833332952144" lon="13.866761113424433" id="-48438">
		<tag k="name" v="Midtimoan" />
		<tag k="name:no" v="Midtimoan" />
		<tag k="place" v="locality" />
		<tag k="ssr:stedsnr" v="107198" />
	</node>
	<node lat="64.87278611467931" lon="13.905994449239984" id="-48439">
		<tag k="name" v="Elgskaret" />
		<tag k="name:no" v="Elgskaret" />
		<tag k="natural" v="valley" />
		<tag k="place" v="locality" />
		<tag k="ssr:stedsnr" v="107207" />
	</node>
	<node lat="64.78699722428094" lon="13.440205554213025" id="-48441">
		<tag k="name" v="Gamseterlia" />
		<tag k="name:no" v="Gamseterlia" />
		<tag k="natural" v="slope" />
		<tag k="place" v="locality" />
		<tag k="ssr:stedsnr" v="108120" />
	</node>
	<node lat="64.7946749979784" lon="13.356627776835133" id="-48442">
		<tag k="name" v="Storlihøgda" />
		<tag k="name:no" v="Storlihøgda" />
		<tag k="place" v="locality" />
		<tag k="ssr:stedsnr" v="108122" />
	</node>
	<node lat="64.7449722244839" lon="13.216708337012074" id="-48445">
		<tag k="name" v="Høghaugen" />
		<tag k="name:no" v="Høghaugen" />
		<tag k="natural" v="hill" />
		<tag k="place" v="locality" />
		<tag k="ssr:stedsnr" v="109112" />
	</node>
	<node lat="64.7150277780302" lon="13.088152774924223" id="-48451">
		<tag k="fixme" v="multiple name tags, choose one and add the other to alt_name; consider natural=peak for the most distinct mountains in the district" />
		<tag k="name" v="Småvasshøgda;Litlfjellet" />
		<tag k="name:no" v="Småvasshøgda;Litlfjellet" />
		<tag k="natural" v="hill" />
		<tag k="place" v="locality" />
		<tag k="ssr:stedsnr" v="135322" />
	</node>
	<node lat="64.91769999840704" lon="13.725675006423511" id="-48453">
		<tag k="name" v="Gåetbielesdurrie" />
		<tag k="name:sma" v="Gåetbielesdurrie" />
		<tag k="natural" v="valley" />
		<tag k="place" v="locality" />
		<tag k="ssr:stedsnr" v="135255" />
	</node>
	<node lat="64.83154444692865" lon="13.378141657607717" id="-48455">
		<tag k="name" v="Båskrubba" />
		<tag k="name:no" v="Båskrubba" />
		<tag k="natural" v="hill" />
		<tag k="place" v="locality" />
		<tag k="ssr:stedsnr" v="135405" />
	</node>
	<node lat="65.04267499928326" lon="14.11852221169685" id="-48465">
		<tag k="fixme" v="consider natural=peak for the most distinct mountains in the district" />
		<tag k="name" v="Skaanjehtahke" />
		<tag k="name:sma" v="Skaanjehtahke" />
		<tag k="natural" v="hill" />
		<tag k="place" v="locality" />
		<tag k="ssr:stedsnr" v="145510" />
	</node>
	<node lat="64.90685833316623" lon="14.012463897793163" id="-48472">
		<tag k="name" v="Bjørkhaugen" />
		<tag k="name:no" v="Bjørkhaugen" />
		<tag k="natural" v="hill" />
		<tag k="place" v="locality" />
		<tag k="ssr:stedsnr" v="257286" />
	</node>
	<node lat="64.7064749993156" lon="13.178716659848144" id="-48476">
		<tag k="name" v="Brattmyrdalen" />
		<tag k="name:no" v="Brattmyrdalen" />
		<tag k="natural" v="valley" />
		<tag k="place" v="locality" />
		<tag k="ssr:stedsnr" v="257388" />
	</node>
	<node lat="65.08080555684313" lon="13.634863881179689" id="-48490">
		<tag k="name" v="Ruffie" />
		<tag k="name:sma" v="Ruffie" />
		<tag k="natural" v="slope" />
		<tag k="place" v="locality" />
		<tag k="ssr:stedsnr" v="257692" />
	</node>
	<node lat="65.03878611285568" lon="13.527641666702674" id="-48492">
		<tag k="fixme" v="consider natural=peak for the most distinct mountains in the district" />
		<tag k="name" v="Kaajjenaesie" />
		<tag k="name:sma" v="Kaajjenaesie" />
		<tag k="natural" v="hill" />
		<tag k="place" v="locality" />
		<tag k="ssr:stedsnr" v="257893" />
	</node>
	<node lat="64.97587222097498" lon="13.595791658175623" id="-48497">
		<tag k="fixme" v="consider natural=peak for the most distinct mountains in the district" />
		<tag k="name" v="Båatskjas-loebpelen jallah" />
		<tag k="name:sma" v="Båatskjas-loebpelen jallah" />
		<tag k="natural" v="hill" />
		<tag k="place" v="locality" />
		<tag k="ssr:stedsnr" v="167117" />
	</node>
	<node lat="64.9773388855236" lon="13.559680565345996" id="-48498">
		<tag k="name" v="Grubbmyrlia" />
		<tag k="name:no" v="Grubbmyrlia" />
		<tag k="natural" v="slope" />
		<tag k="place" v="locality" />
		<tag k="ssr:stedsnr" v="167118" />
	</node>
	<node lat="64.83966389038486" lon="13.591291666380899" id="-48503">
		<tag k="name" v="Høgda" />
		<tag k="name:no" v="Høgda" />
		<tag k="natural" v="hill" />
		<tag k="place" v="locality" />
		<tag k="ssr:stedsnr" v="168865" />
	</node>
	<node lat="64.83910277496595" lon="13.599963883273562" id="-48504">
		<tag k="name" v="Litlklompen" />
		<tag k="name:no" v="Litlklompen" />
		<tag k="natural" v="hill" />
		<tag k="place" v="locality" />
		<tag k="ssr:stedsnr" v="168866" />
	</node>
	<node lat="65.11002777597567" lon="13.085422216082504" id="-48509">
		<tag k="fixme" v="consider natural=peak for the most distinct mountains in the district" />
		<tag k="name" v="Kløftfjellet - Sloeptjenguevtele" />
		<tag k="name:no" v="Kløftfjellet" />
		<tag k="name:sma" v="Sloeptjenguevtele" />
		<tag k="natural" v="hill" />
		<tag k="place" v="locality" />
		<tag k="ssr:stedsnr" v="196523" />
	</node>
	<node lat="65.07877777751008" lon="13.815125008650268" id="-48511">
		<tag k="name" v="Viermevuemie - Virmadalen" />
		<tag k="name:no" v="Virmadalen" />
		<tag k="name:sma" v="Viermevuemie" />
		<tag k="natural" v="valley" />
		<tag k="place" v="locality" />
		<tag k="ssr:stedsnr" v="196806" />
	</node>
	<node lat="64.62705833090357" lon="13.174624999529057" id="-48514">
		<tag k="fixme" v="consider natural=peak for the most distinct mountains in the district" />
		<tag k="name" v="Høa" />
		<tag k="name:no" v="Høa" />
		<tag k="natural" v="hill" />
		<tag k="place" v="locality" />
		<tag k="ssr:stedsnr" v="197368" />
	</node>
	<node lat="64.59323333424969" lon="13.339133327927396" id="-48524">
		<tag k="fixme" v="consider natural=peak for the most distinct mountains in the district" />
		<tag k="name" v="Havdalsfjellet - Vaellie" />
		<tag k="name:no" v="Havdalsfjellet" />
		<tag k="name:sma" v="Vaellie" />
		<tag k="natural" v="hill" />
		<tag k="place" v="locality" />
		<tag k="ssr:stedsnr" v="202395" />
	</node>
	<node lat="64.84675555452453" lon="13.3813777672409" id="-48525">
		<tag k="name" v="Moan" />
		<tag k="name:no" v="Moan" />
		<tag k="place" v="locality" />
		<tag k="ssr:stedsnr" v="227204" />
	</node>
	<node lat="64.88797222422683" lon="13.632272220372078" id="-48527">
		<tag k="name" v="Kalkdalen" />
		<tag k="name:no" v="Kalkdalen" />
		<tag k="natural" v="valley" />
		<tag k="place" v="locality" />
		<tag k="ssr:stedsnr" v="228212" />
	</node>
	<node lat="64.7306666628816" lon="13.209008328408137" id="-48533">
		<tag k="name" v="Domma" />
		<tag k="name:no" v="Domma" />
		<tag k="natural" v="slope" />
		<tag k="place" v="locality" />
		<tag k="ssr:stedsnr" v="230120" />
	</node>
	<node lat="64.60139999865714" lon="13.199361113690442" id="-48541">
		<tag k="name" v="Luvlie-Balhkohke - Svartberget" />
		<tag k="name:no" v="Svartberget" />
		<tag k="name:sma" v="Luvlie-Balhkohke" />
		<tag k="natural" v="hill" />
		<tag k="place" v="locality" />
		<tag k="ssr:stedsnr" v="257365" />
	</node>
	<node lat="64.77171111517073" lon="13.34902778663281" id="-48542">
		<tag k="fixme" v="consider natural=peak for the most distinct mountains in the district" />
		<tag k="name" v="Toklumpen" />
		<tag k="name:no" v="Toklumpen" />
		<tag k="natural" v="hill" />
		<tag k="place" v="locality" />
		<tag k="ssr:stedsnr" v="257371" />
	</node>
	<node lat="64.84775000400546" lon="13.609975002487003" id="-48547">
		<tag k="name" v="Gourre - Djupdalen" />
		<tag k="name:no" v="Djupdalen" />
		<tag k="name:sma" v="Gourre" />
		<tag k="natural" v="valley" />
		<tag k="place" v="locality" />
		<tag k="ssr:stedsnr" v="257458" />
	</node>
	<node lat="64.85704166490632" lon="13.632641675976998" id="-48548">
		<tag k="fixme" v="consider natural=peak for the most distinct mountains in the district" />
		<tag k="name" v="Faavrehtjahke - Seterklumpen" />
		<tag k="name:no" v="Seterklumpen" />
		<tag k="name:sma" v="Faavrehtjahke" />
		<tag k="natural" v="hill" />
		<tag k="place" v="locality" />
		<tag k="ssr:stedsnr" v="257460" />
	</node>
	<node lat="65.05253888834739" lon="13.687730564854832" id="-48550">
		<tag k="name" v="Finnbursdalen" />
		<tag k="name:no" v="Finnbursdalen" />
		<tag k="natural" v="valley" />
		<tag k="place" v="locality" />
		<tag k="ssr:stedsnr" v="257909" />
	</node>
	<node lat="65.0923999979886" lon="13.907552772404774" id="-48551">
		<tag k="name" v="Saapmanlåemie - Sapmandalen" />
		<tag k="name:no" v="Sapmandalen" />
		<tag k="name:sma" v="Saapmanlåemie" />
		<tag k="natural" v="valley" />
		<tag k="place" v="locality" />
		<tag k="ssr:stedsnr" v="263803" />
	</node>
	<node lat="64.95173888581148" lon="14.089994433345797" id="-48553">
		<tag k="fixme" v="consider natural=peak for the most distinct mountains in the district" />
		<tag k="name" v="Vaellie" />
		<tag k="name:sma" v="Vaellie" />
		<tag k="natural" v="hill" />
		<tag k="place" v="locality" />
		<tag k="ssr:stedsnr" v="282775" />
	</node>
	<node lat="64.89177777477529" lon="13.72279721624524" id="-48561">
		<tag k="name" v="Fjellrevberget" />
		<tag k="name:no" v="Fjellrevberget" />
		<tag k="place" v="locality" />
		<tag k="ssr:stedsnr" v="288189" />
	</node>
	<node lat="64.94926389051678" lon="13.56042777304145" id="-48562">
		<tag k="name" v="Rirhke" />
		<tag k="name:sma" v="Rirhke" />
		<tag k="natural" v="slope" />
		<tag k="place" v="locality" />
		<tag k="ssr:stedsnr" v="289086" />
	</node>
	<node lat="64.88962222465473" lon="13.986986109212074" id="-48567">
		<tag k="name" v="Leipikmodalen" />
		<tag k="name:no" v="Leipikmodalen" />
		<tag k="natural" v="valley" />
		<tag k="place" v="locality" />
		<tag k="ssr:stedsnr" v="289235" />
	</node>
	<node lat="65.01941388603245" lon="13.865708327000146" id="-48568">
		<tag k="name" v="Jaassegen-åårke" />
		<tag k="name:sma" v="Jaassegen-åårke" />
		<tag k="place" v="locality" />
		<tag k="ssr:stedsnr" v="289503" />
	</node>
	<node lat="64.90920278050179" lon="13.950025000689543" id="-48579">
		<tag k="name" v="Elgdalen" />
		<tag k="name:no" v="Elgdalen" />
		<tag k="natural" v="valley" />
		<tag k="place" v="locality" />
		<tag k="ssr:stedsnr" v="318253" />
	</node>
	<node lat="64.76802777808554" lon="13.368886120674096" id="-48582">
		<tag k="name" v="Nordre Mursteinsberget" />
		<tag k="name:no" v="Nordre Mursteinsberget" />
		<tag k="natural" v="hill" />
		<tag k="place" v="locality" />
		<tag k="ssr:stedsnr" v="318340" />
	</node>
	<node lat="64.7755750002842" lon="13.378458328228609" id="-48583">
		<tag k="name" v="Brattbakken" />
		<tag k="name:no" v="Brattbakken" />
		<tag k="natural" v="slope" />
		<tag k="place" v="locality" />
		<tag k="ssr:stedsnr" v="318344" />
	</node>
	<node lat="64.93863889299982" lon="13.490424993178078" id="-48587">
		<tag k="fixme" v="consider natural=peak for the most distinct mountains in the district" />
		<tag k="name" v="Saaksen-båvne - Saksvassruet" />
		<tag k="name:no" v="Saksvassruet" />
		<tag k="name:sma" v="Saaksen-båvne" />
		<tag k="natural" v="hill" />
		<tag k="place" v="locality" />
		<tag k="ssr:stedsnr" v="318453" />
	</node>
	<node lat="64.90987778174143" lon="13.478175005786843" id="-48589">
		<tag k="name" v="Tomashaugen" />
		<tag k="name:no" v="Tomashaugen" />
		<tag k="natural" v="hill" />
		<tag k="place" v="locality" />
		<tag k="ssr:stedsnr" v="318488" />
	</node>
	<node lat="64.68747500175948" lon="13.341313881120982" id="-48595">
		<tag k="name" v="Tjurudalen" />
		<tag k="name:no" v="Tjurudalen" />
		<tag k="natural" v="valley" />
		<tag k="place" v="locality" />
		<tag k="ssr:stedsnr" v="318513" />
	</node>
	<node lat="64.86317778078725" lon="13.827652785515006" id="-48597">
		<tag k="name" v="Finnhushaugan" />
		<tag k="name:no" v="Finnhushaugan" />
		<tag k="natural" v="hill" />
		<tag k="place" v="locality" />
		<tag k="ssr:stedsnr" v="469230" />
	</node>
	<node lat="65.06081944620719" lon="13.901386103667553" id="-48600">
		<tag k="fixme" v="consider natural=peak for the most distinct mountains in the district" />
		<tag k="name" v="Lohtere - Lotterfjellet" />
		<tag k="name:no" v="Lotterfjellet" />
		<tag k="name:sma" v="Lohtere" />
		<tag k="natural" v="hill" />
		<tag k="place" v="locality" />
		<tag k="ssr:stedsnr" v="324803" />
	</node>
	<node lat="64.89261110791158" lon="13.475011104735513" id="-48603">
		<tag k="name" v="Klumpen" />
		<tag k="name:no" v="Klumpen" />
		<tag k="natural" v="hill" />
		<tag k="place" v="locality" />
		<tag k="ssr:stedsnr" v="470155" />
	</node>
	<node lat="64.64749166835229" lon="13.207391671138767" id="-48606">
		<tag k="name" v="Storbakken" />
		<tag k="name:no" v="Storbakken" />
		<tag k="natural" v="slope" />
		<tag k="place" v="locality" />
		<tag k="ssr:stedsnr" v="470231" />
	</node>
	<node lat="64.73314999892933" lon="13.280555556273042" id="-48608">
		<tag k="name" v="Brentberget" />
		<tag k="name:no" v="Brentberget" />
		<tag k="natural" v="hill" />
		<tag k="place" v="locality" />
		<tag k="ssr:stedsnr" v="470091" />
	</node>
	<node lat="64.9813305592095" lon="13.593686108065878" id="-48609">
		<tag k="fixme" v="consider natural=peak for the most distinct mountains in the district" />
		<tag k="name" v="Båvne" />
		<tag k="name:sma" v="Båvne" />
		<tag k="natural" v="hill" />
		<tag k="place" v="locality" />
		<tag k="ssr:stedsnr" v="470100" />
	</node>
	<node lat="64.8882777769365" lon="13.779097214512447" id="-48613">
		<tag k="name" v="Svartberga" />
		<tag k="name:no" v="Svartberga" />
		<tag k="natural" v="cliff" />
		<tag k="ssr:stedsnr" v="470176" />
	</node>
	<node lat="64.65743889208" lon="13.151630554146593" id="-48617">
		<tag k="name" v="Mariahuslia" />
		<tag k="name:no" v="Mariahuslia" />
		<tag k="natural" v="slope" />
		<tag k="place" v="locality" />
		<tag k="ssr:stedsnr" v="470238" />
	</node>
	<node lat="64.74375555557452" lon="13.308252774306393" id="-48622">
		<tag k="name" v="Bergstakkslettet" />
		<tag k="name:no" v="Bergstakkslettet" />
		<tag k="place" v="locality" />
		<tag k="ssr:stedsnr" v="472119" />
	</node>
	<node lat="64.86409444155713" lon="13.723611117004742" id="-48626">
		<tag k="name" v="Toklumpen" />
		<tag k="name:no" v="Toklumpen" />
		<tag k="natural" v="hill" />
		<tag k="place" v="locality" />
		<tag k="ssr:stedsnr" v="472584" />
	</node>
	<node lat="64.91473333500005" lon="13.478197214006764" id="-48632">
		<tag k="name" v="Tomashaugen" />
		<tag k="name:no" v="Tomashaugen" />
		<tag k="natural" v="hill" />
		<tag k="place" v="locality" />
		<tag k="ssr:stedsnr" v="473194" />
	</node>
	<node lat="64.74408333006839" lon="13.239824992028938" id="-48633">
		<tag k="fixme" v="consider natural=peak for the most distinct mountains in the district" />
		<tag k="name" v="Vesterruet" />
		<tag k="name:no" v="Vesterruet" />
		<tag k="natural" v="hill" />
		<tag k="place" v="locality" />
		<tag k="ssr:stedsnr" v="347104" />
	</node>
	<node lat="64.81487777768456" lon="13.373066676475261" id="-48653">
		<tag k="name" v="Gamseterlia" />
		<tag k="name:no" v="Gamseterlia" />
		<tag k="natural" v="slope" />
		<tag k="place" v="locality" />
		<tag k="ssr:stedsnr" v="351156" />
	</node>
	<node lat="64.73584166523136" lon="13.060652776325337" id="-48669">
		<tag k="name" v="Stordomma" />
		<tag k="name:no" v="Stordomma" />
		<tag k="natural" v="slope" />
		<tag k="place" v="locality" />
		<tag k="ssr:stedsnr" v="378684" />
	</node>
	<node lat="65.04406389232913" lon="14.053733327749404" id="-48670">
		<tag k="fixme" v="consider natural=peak for the most distinct mountains in the district" />
		<tag k="name" v="Lijkietjåalhte" />
		<tag k="name:sma" v="Lijkietjåalhte" />
		<tag k="natural" v="hill" />
		<tag k="place" v="locality" />
		<tag k="ssr:stedsnr" v="378817" />
	</node>
	<node lat="64.82292500018266" lon="13.281816658845965" id="-48671">
		<tag k="fixme" v="consider natural=peak for the most distinct mountains in the district" />
		<tag k="name" v="Lievkiesåajja - Bjørkvassklumpen" />
		<tag k="name:no" v="Bjørkvassklumpen" />
		<tag k="name:sma" v="Lievkiesåajja" />
		<tag k="natural" v="hill" />
		<tag k="place" v="locality" />
		<tag k="ssr:stedsnr" v="384415" />
	</node>
	<node lat="64.88945277898628" lon="13.514880564712582" id="-48674">
		<tag k="name" v="Tjønndalen" />
		<tag k="name:no" v="Tjønndalen" />
		<tag k="natural" v="valley" />
		<tag k="place" v="locality" />
		<tag k="ssr:stedsnr" v="409202" />
	</node>
	<node lat="64.93923610975118" lon="13.579630548834265" id="-48677">
		<tag k="name" v="Blautmyrhaugen" />
		<tag k="name:no" v="Blautmyrhaugen" />
		<tag k="natural" v="hill" />
		<tag k="place" v="locality" />
		<tag k="ssr:stedsnr" v="410103" />
	</node>
	<node lat="64.90801666393098" lon="13.633972225694063" id="-48678">
		<tag k="name" v="Fremmer Husvikdalen" />
		<tag k="name:no" v="Fremmer Husvikdalen" />
		<tag k="natural" v="valley" />
		<tag k="place" v="locality" />
		<tag k="ssr:stedsnr" v="410093" />
	</node>
	<node lat="64.88184444118579" lon="13.884613883150053" id="-48679">
		<tag k="name" v="Øvermoan" />
		<tag k="name:no" v="Øvermoan" />
		<tag k="natural" v="hill" />
		<tag k="place" v="locality" />
		<tag k="ssr:stedsnr" v="410210" />
	</node>
	<node lat="64.82206944288949" lon="13.39005554871425" id="-48683">
		<tag k="name" v="Gjersvikruet" />
		<tag k="name:no" v="Gjersvikruet" />
		<tag k="natural" v="hill" />
		<tag k="place" v="locality" />
		<tag k="ssr:stedsnr" v="412143" />
	</node>
	<node lat="64.95207222586944" lon="13.746794435817622" id="-48705">
		<tag k="name" v="Tjaeksienjælla" />
		<tag k="name:sma" v="Tjaeksienjælla" />
		<tag k="natural" v="hill" />
		<tag k="place" v="locality" />
		<tag k="ssr:stedsnr" v="445284" />
	</node>
	<node lat="65.0131305595514" lon="13.416669440866453" id="-48706">
		<tag k="fixme" v="consider natural=peak for the most distinct mountains in the district" />
		<tag k="name" v="Jijse - Gisen" />
		<tag k="name:no" v="Gisen" />
		<tag k="name:sma" v="Jijse" />
		<tag k="natural" v="hill" />
		<tag k="place" v="locality" />
		<tag k="ssr:stedsnr" v="445879" />
	</node>
	<node lat="64.9038658295405" lon="13.682433197976406" id="-48707">
		<tag k="fixme" v="consider natural=peak for the most distinct mountains in the district" />
		<tag k="name" v="Svaalenjunie - Søluberget" />
		<tag k="name:no" v="Søluberget" />
		<tag k="name:sma" v="Svaalenjunie" />
		<tag k="natural" v="hill" />
		<tag k="place" v="locality" />
		<tag k="ssr:stedsnr" v="446907" />
	</node>
	<node lat="64.69219999772393" lon="13.137711106159328" id="-48709">
		<tag k="fixme" v="consider natural=peak for the most distinct mountains in the district" />
		<tag k="name" v="Langvassåsen" />
		<tag k="name:no" v="Langvassåsen" />
		<tag k="natural" v="hill" />
		<tag k="place" v="locality" />
		<tag k="ssr:stedsnr" v="673020" />
	</node>
	<node lat="64.92334722231281" lon="13.622877778208537" id="-48712">
		<tag k="fixme" v="consider natural=peak for the most distinct mountains in the district" />
		<tag k="name" v="Flatfjellet" />
		<tag k="name:no" v="Flatfjellet" />
		<tag k="natural" v="hill" />
		<tag k="place" v="locality" />
		<tag k="ssr:stedsnr" v="470119" />
	</node>
	<node lat="64.73658333504673" lon="13.252183339222782" id="-48715">
		<tag k="name" v="Krubua" />
		<tag k="name:no" v="Krubua" />
		<tag k="place" v="locality" />
		<tag k="ssr:stedsnr" v="471184" />
	</node>
	<node lat="64.80096388710618" lon="13.374249990526609" id="-48717">
		<tag k="name" v="Litlklumpen" />
		<tag k="name:no" v="Litlklumpen" />
		<tag k="natural" v="hill" />
		<tag k="place" v="locality" />
		<tag k="ssr:stedsnr" v="472110" />
	</node>
	<node lat="64.76123055731178" lon="13.489377788071302" id="-48727">
		<tag k="name" v="Steinhusa" />
		<tag k="name:no" v="Steinhusa" />
		<tag k="natural" v="hill" />
		<tag k="place" v="locality" />
		<tag k="ssr:stedsnr" v="681348" />
	</node>
	<node lat="64.98163333294335" lon="13.84373054503828" id="-48728">
		<tag k="fixme" v="consider natural=peak for the most distinct mountains in the district" />
		<tag k="name" v="Tjuenjere - Grønklumpen" />
		<tag k="name:no" v="Grønklumpen" />
		<tag k="name:sma" v="Tjuenjere" />
		<tag k="natural" v="hill" />
		<tag k="place" v="locality" />
		<tag k="ssr:stedsnr" v="499307" />
	</node>
	<node lat="65.00648332926951" lon="14.077530549121688" id="-48729">
		<tag k="fixme" v="consider natural=peak for the most distinct mountains in the district" />
		<tag k="name" v="Gaske-Seavrije" />
		<tag k="name:sma" v="Gaske-Seavrije" />
		<tag k="natural" v="hill" />
		<tag k="place" v="locality" />
		<tag k="ssr:stedsnr" v="499741" />
	</node>
	<node lat="65.12669999919464" lon="13.949199995685783" id="-48730">
		<tag k="fixme" v="consider natural=peak for the most distinct mountains in the district" />
		<tag k="name" v="Viermetjahke - Virmafjellet" />
		<tag k="name:no" v="Virmafjellet" />
		<tag k="name:sma" v="Viermetjahke" />
		<tag k="natural" v="hill" />
		<tag k="place" v="locality" />
		<tag k="ssr:stedsnr" v="499794" />
	</node>
	<node lat="64.90205277521736" lon="13.764566663517872" id="-48731">
		<tag k="fixme" v="consider natural=peak for the most distinct mountains in the district" />
		<tag k="name" v="Mealhkoe" />
		<tag k="name:sma" v="Mealhkoe" />
		<tag k="natural" v="hill" />
		<tag k="place" v="locality" />
		<tag k="ssr:stedsnr" v="500302" />
	</node>
	<node lat="64.8291401502888" lon="13.641063496861305" id="-48741">
		<tag k="fixme" v="consider natural=peak for the most distinct mountains in the district" />
		<tag k="name" v="Båvne - Ruet" />
		<tag k="name:no" v="Ruet" />
		<tag k="name:sma" v="Båvne" />
		<tag k="natural" v="hill" />
		<tag k="place" v="locality" />
		<tag k="ssr:stedsnr" v="500506" />
	</node>
	<node lat="64.92584444410069" lon="13.355341665754755" id="-48746">
		<tag k="name" v="Stoerrebaertie - Steinfjellet" />
		<tag k="name:no" v="Steinfjellet" />
		<tag k="name:sma" v="Stoerrebaertie" />
		<tag k="natural" v="mountain_range" />
		<tag k="ssr:stedsnr" v="500632" />
	</node>
</osm>
