<?xml version="1.0" encoding="UTF-8"?>
<osm version="0.6" generator="osmapis">
	<node lat="65.04462777735264" lon="13.674469442842815" id="-49855">
		<tag k="name" v="Jillie Giedtie-njuana - Vester Krutangen" />
		<tag k="name:no" v="Vester Krutangen" />
		<tag k="name:sma" v="Jillie Giedtie-njuana" />
		<tag k="natural" v="cape" />
		<tag k="ssr:stedsnr" v="229668" />
	</node>
	<node lat="64.80823333290002" lon="13.369155549430376" id="-49858">
		<tag k="name" v="Lykkrosrommet" />
		<tag k="name:no" v="Lykkrosrommet" />
		<tag k="natural" v="beach" />
		<tag k="ssr:stedsnr" v="230165" />
	</node>
	<node lat="64.9626055532" lon="14.101838889730011" id="-49861">
		<tag k="name" v="Buhtjeme-njuana" />
		<tag k="name:sma" v="Buhtjeme-njuana" />
		<tag k="natural" v="cape" />
		<tag k="ssr:stedsnr" v="230383" />
	</node>
	<node lat="64.99027500304935" lon="13.671494441384" id="-49862">
		<tag k="name" v="Litlflyen" />
		<tag k="name:no" v="Litlflyen" />
		<tag k="natural" v="water" />
		<tag k="ssr:stedsnr" v="230547" />
		<tag k="water" v="lake" />
	</node>
	<node lat="64.95623888955039" lon="13.565083342195168" id="-49864">
		<tag k="name" v="Storsteinbekken" />
		<tag k="name:no" v="Storsteinbekken" />
		<tag k="ssr:stedsnr" v="14018" />
		<tag k="waterway" v="stream" />
	</node>
	<node lat="64.74432778025586" lon="13.352280545555608" id="-49865">
		<tag k="name" v="Holmen" />
		<tag k="name:no" v="Holmen" />
		<tag k="place" v="islet" />
		<tag k="ssr:stedsnr" v="14206" />
	</node>
	<node lat="64.58564166779254" lon="13.13216387919833" id="-49866">
		<tag k="name" v="Bukktjønna" />
		<tag k="name:no" v="Bukktjønna" />
		<tag k="natural" v="water" />
		<tag k="ssr:stedsnr" v="14223" />
	</node>
	<node lat="65.0112500010202" lon="13.871027769280234" id="-49873">
		<tag k="name" v="Lomtjønnin" />
		<tag k="name:no" v="Lomtjønnin" />
		<tag k="natural" v="water" />
		<tag k="ssr:stedsnr" v="14760" />
	</node>
	<node lat="64.60736388606426" lon="13.147627777101999" id="-49879">
		<tag k="name" v="Blindtarmen" />
		<tag k="name:no" v="Blindtarmen" />
		<tag k="natural" v="water" />
		<tag k="ssr:stedsnr" v="15372" />
	</node>
	<node lat="64.91202499877788" lon="13.594063880729443" id="-49880">
		<tag k="name" v="Nytjønna" />
		<tag k="name:no" v="Nytjønna" />
		<tag k="natural" v="water" />
		<tag k="ssr:stedsnr" v="15503" />
	</node>
	<node lat="64.8430305528658" lon="13.8030611148433" id="-49882">
		<tag k="name" v="Govre" />
		<tag k="name:sma" v="Govre" />
		<tag k="ssr:stedsnr" v="20258" />
		<tag k="waterway" v="stream" />
	</node>
	<node lat="64.8437861092824" lon="13.772147226749697" id="-49883">
		<tag k="name" v="Govrenjohke" />
		<tag k="name:sma" v="Govrenjohke" />
		<tag k="ssr:stedsnr" v="21948" />
		<tag k="waterway" v="river" />
	</node>
	<node lat="64.89969722055135" lon="13.662969443680613" id="-49885">
		<tag k="name" v="Femstakkmyra" />
		<tag k="name:no" v="Femstakkmyra" />
		<tag k="natural" v="cape" />
		<tag k="ssr:stedsnr" v="45180" />
	</node>
	<node lat="64.87675000277073" lon="13.744611120264404" id="-49886">
		<tag k="name" v="Mursteinholmen" />
		<tag k="name:no" v="Mursteinholmen" />
		<tag k="place" v="islet" />
		<tag k="ssr:stedsnr" v="45184" />
	</node>
	<node lat="64.88147500030051" lon="13.697238882367172" id="-49887">
		<tag k="name" v="Vestertjønna" />
		<tag k="name:no" v="Vestertjønna" />
		<tag k="natural" v="water" />
		<tag k="ssr:stedsnr" v="45210" />
	</node>
	<node lat="64.88581111082735" lon="13.707088881243678" id="-49888">
		<tag k="name" v="Gappaloddobekken" />
		<tag k="name:no" v="Gappaloddobekken" />
		<tag k="ssr:stedsnr" v="45214" />
		<tag k="waterway" v="stream" />
	</node>
	<node lat="64.66734444463056" lon="13.184727771380626" id="-49891">
		<tag k="name" v="Geitkløyvtangen" />
		<tag k="name:no" v="Geitkløyvtangen" />
		<tag k="natural" v="cape" />
		<tag k="ssr:stedsnr" v="46278" />
	</node>
	<node lat="64.80338610724205" lon="13.363763896648985" id="-49895">
		<tag k="name" v="Spiltangen" />
		<tag k="name:no" v="Spiltangen" />
		<tag k="natural" v="cape" />
		<tag k="ssr:stedsnr" v="47125" />
	</node>
	<node lat="64.96396666258771" lon="13.644252777065267" id="-49896">
		<tag k="name" v="Skånalivika" />
		<tag k="name:no" v="Skånalivika" />
		<tag k="natural" v="bay" />
		<tag k="ssr:stedsnr" v="48514" />
	</node>
	<node lat="64.99738055209299" lon="13.575861110883887" id="-49898">
		<tag k="name" v="Nååmesjenjaevrie - Namsvatnet" />
		<tag k="name:no" v="Namsvatnet" />
		<tag k="name:sma" v="Nååmesjenjaevrie" />
		<tag k="natural" v="water" />
		<tag k="ssr:stedsnr" v="75002" />
		<tag k="water" v="lake" />
	</node>
	<node lat="64.5770000012582" lon="13.164330553930249" id="-49899">
		<tag k="name" v="Langtarmen" />
		<tag k="name:no" v="Langtarmen" />
		<tag k="natural" v="water" />
		<tag k="ssr:stedsnr" v="75301" />
	</node>
	<node lat="64.8885888854687" lon="13.824233330443862" id="-49900">
		<tag k="name" v="Styggbekken" />
		<tag k="name:no" v="Styggbekken" />
		<tag k="ssr:stedsnr" v="75252" />
		<tag k="waterway" v="stream" />
	</node>
	<node lat="64.87424166544506" lon="13.534172222174648" id="-49902">
		<tag k="name" v="Rørviktangen" />
		<tag k="name:no" v="Rørviktangen" />
		<tag k="natural" v="cape" />
		<tag k="ssr:stedsnr" v="75408" />
	</node>
	<node lat="64.80315000020605" lon="13.396833343466788" id="-49904">
		<tag k="name" v="Kvernbekken" />
		<tag k="name:no" v="Kvernbekken" />
		<tag k="ssr:stedsnr" v="75456" />
		<tag k="waterway" v="stream" />
	</node>
	<node lat="65.01476666518693" lon="13.480491657841458" id="-49906">
		<tag k="name" v="Eallanjohke" />
		<tag k="name:sma" v="Eallanjohke" />
		<tag k="ssr:stedsnr" v="75906" />
		<tag k="waterway" v="stream" />
	</node>
	<node lat="64.59432500319733" lon="13.120969448905962" id="-49909">
		<tag k="name" v="Åarjel-Balhkohkejaevrie - Nesåflyan" />
		<tag k="name:no" v="Nesåflyan" />
		<tag k="name:sma" v="Åarjel-Balhkohkejaevrie" />
		<tag k="natural" v="water" />
		<tag k="ssr:stedsnr" v="76350" />
	</node>
	<node lat="64.68183055140791" lon="13.312780561011742" id="-49910">
		<tag k="name" v="Sparfelttangen" />
		<tag k="name:no" v="Sparfelttangen" />
		<tag k="natural" v="cape" />
		<tag k="ssr:stedsnr" v="76497" />
	</node>
	<node lat="64.93407499910849" lon="13.605272219182256" id="-49914">
		<tag k="name" v="Austre Storbekken" />
		<tag k="name:no" v="Austre Storbekken" />
		<tag k="ssr:stedsnr" v="105084" />
		<tag k="waterway" v="stream" />
	</node>
	<node lat="64.88245833034225" lon="13.759094437167978" id="-49915">
		<tag k="name" v="Kvennbekken" />
		<tag k="name:no" v="Kvennbekken" />
		<tag k="ssr:stedsnr" v="105230" />
		<tag k="waterway" v="stream" />
	</node>
	<node lat="64.8995833298471" lon="13.637583339303683" id="-49917">
		<tag k="name" v="Vester Lomtjønna" />
		<tag k="name:no" v="Vester Lomtjønna" />
		<tag k="natural" v="water" />
		<tag k="ssr:stedsnr" v="106104" />
	</node>
	<node lat="64.8732472259161" lon="13.856680555105113" id="-49921">
		<tag k="name" v="Nordtjønnbekken" />
		<tag k="name:no" v="Nordtjønnbekken" />
		<tag k="ssr:stedsnr" v="107223" />
		<tag k="waterway" v="stream" />
	</node>
	<node lat="64.75382499827235" lon="13.43596944831789" id="-49924">
		<tag k="name" v="Litlsandvika" />
		<tag k="name:no" v="Litlsandvika" />
		<tag k="natural" v="bay" />
		<tag k="ssr:stedsnr" v="108126" />
	</node>
	<node lat="64.73781110802992" lon="13.371502781060679" id="-49927">
		<tag k="name" v="Skankmyrbekken" />
		<tag k="name:no" v="Skankmyrbekken" />
		<tag k="ssr:stedsnr" v="109139" />
		<tag k="waterway" v="stream" />
	</node>
	<node lat="64.66027221863206" lon="13.218500006064259" id="-49930">
		<tag k="name" v="Båstangen" />
		<tag k="name:no" v="Båstangen" />
		<tag k="natural" v="cape" />
		<tag k="ssr:stedsnr" v="122018" />
	</node>
	<node lat="64.75404166533315" lon="13.284186113397716" id="-49931">
		<tag k="name" v="Litlfisktjønna" />
		<tag k="name:no" v="Litlfisktjønna" />
		<tag k="natural" v="water" />
		<tag k="ssr:stedsnr" v="135319" />
	</node>
	<node lat="64.73647500191245" lon="13.225911112902859" id="-49935">
		<tag k="name" v="Seterviktjønna" />
		<tag k="name:no" v="Seterviktjønna" />
		<tag k="natural" v="water" />
		<tag k="ssr:stedsnr" v="135256" />
	</node>
	<node lat="64.82743055376109" lon="13.67589722341575" id="-49937">
		<tag k="name" v="Gåasajaevrie - Gåsvatnet" />
		<tag k="name:no" v="Gåsvatnet" />
		<tag k="name:sma" v="Gåasajaevrie" />
		<tag k="natural" v="water" />
		<tag k="ssr:stedsnr" v="135409" />
		<tag k="water" v="lake" />
	</node>
	<node lat="64.64583611294506" lon="13.18640278616639" id="-49942">
		<tag k="name" v="Tverrelva" />
		<tag k="name:no" v="Tverrelva" />
		<tag k="ssr:stedsnr" v="136363" />
		<tag k="waterway" v="stream" />
	</node>
	<node lat="64.79190277901068" lon="13.472327769342835" id="-49944">
		<tag k="name" v="Stortjønna" />
		<tag k="name:no" v="Stortjønna" />
		<tag k="natural" v="water" />
		<tag k="ssr:stedsnr" v="136369" />
	</node>
	<node lat="64.7898833355478" lon="13.384950000466786" id="-49945">
		<tag k="name" v="Tunnsjørørvika" />
		<tag k="name:no" v="Tunnsjørørvika" />
		<tag k="natural" v="bay" />
		<tag k="ssr:stedsnr" v="136370" />
	</node>
	<node lat="64.95696389059844" lon="13.450227781539635" id="-49947">
		<tag k="name" v="Saaksenbaarmoenjaevrie" />
		<tag k="name:sma" v="Saaksenbaarmoenjaevrie" />
		<tag k="natural" v="water" />
		<tag k="ssr:stedsnr" v="257032" />
	</node>
	<node lat="64.980291664844" lon="13.603613888620394" id="-49949">
		<tag k="name" v="Trolltjønna" />
		<tag k="name:no" v="Trolltjønna" />
		<tag k="natural" v="water" />
		<tag k="ssr:stedsnr" v="257049" />
	</node>
	<node lat="64.99286000785304" lon="13.695828793243392" id="-49951">
		<tag k="name" v="Lomtjønna" />
		<tag k="name:no" v="Lomtjønna" />
		<tag k="natural" v="water" />
		<tag k="ssr:stedsnr" v="257052" />
	</node>
	<node lat="64.99228889190209" lon="13.503122230009739" id="-49952">
		<tag k="name" v="Savjenjohke - Merkesbekken" />
		<tag k="name:no" v="Merkesbekken" />
		<tag k="name:sma" v="Savjenjohke" />
		<tag k="ssr:stedsnr" v="257053" />
		<tag k="waterway" v="stream" />
	</node>
	<node lat="64.84304722606554" lon="13.879766677540548" id="-49954">
		<tag k="name" v="Sjapmenjohke" />
		<tag k="name:sma" v="Sjapmenjohke" />
		<tag k="ssr:stedsnr" v="257298" />
		<tag k="waterway" v="stream" />
	</node>
	<node lat="64.8606694414133" lon="13.881824992139817" id="-49955">
		<tag k="alt_name:sma" v="Ovre-jaevrie" />
		<tag k="name" v="Ovrejaevrie - Orvatnet" />
		<tag k="name:no" v="Orvatnet" />
		<tag k="name:sma" v="Ovrejaevrie" />
		<tag k="natural" v="water" />
		<tag k="ssr:stedsnr" v="257299" />
		<tag k="water" v="lake" />
	</node>
	<node lat="64.67054722212318" lon="13.199152787030929" id="-49959">
		<tag k="name" v="Bustadtangen" />
		<tag k="name:no" v="Bustadtangen" />
		<tag k="natural" v="cape" />
		<tag k="ssr:stedsnr" v="257419" />
	</node>
	<node lat="64.63161388778768" lon="13.244619450872104" id="-49962">
		<tag k="name" v="Setertjønna" />
		<tag k="name:no" v="Setertjønna" />
		<tag k="natural" v="water" />
		<tag k="ssr:stedsnr" v="257443" />
	</node>
	<node lat="64.90043055775587" lon="13.64915554952873" id="-49965">
		<tag k="name" v="Lomtjønnin" />
		<tag k="name:no" v="Lomtjønnin" />
		<tag k="natural" v="water" />
		<tag k="ssr:stedsnr" v="257538" />
	</node>
	<node lat="64.88278439627392" lon="13.379045226038832" id="-49966">
		<tag k="name" v="Tjiermejaevrieh - Tjermavatna" />
		<tag k="name:no" v="Tjermavatna" />
		<tag k="name:sma" v="Tjiermejaevrieh" />
		<tag k="natural" v="water" />
		<tag k="ssr:stedsnr" v="257542" />
		<tag k="water" v="lake" />
	</node>
	<node lat="64.88569167068555" lon="13.5114833442798" id="-49967">
		<tag k="name" v="Småtjønnin" />
		<tag k="name:no" v="Småtjønnin" />
		<tag k="natural" v="water" />
		<tag k="ssr:stedsnr" v="257547" />
	</node>
	<node lat="64.78582777664812" lon="13.377038891892393" id="-49969">
		<tag k="alt_name:no" v="Sandtangen" />
		<tag k="name" v="Bjørktangen" />
		<tag k="name:no" v="Bjørktangen" />
		<tag k="natural" v="cape" />
		<tag k="ssr:stedsnr" v="257599" />
	</node>
	<node lat="64.83519999639475" lon="13.658383330234457" id="-49970">
		<tag k="name" v="Storbekken" />
		<tag k="name:no" v="Storbekken" />
		<tag k="ssr:stedsnr" v="257601" />
		<tag k="waterway" v="stream" />
	</node>
	<node lat="65.02802777643372" lon="13.618494446639518" id="-49972">
		<tag k="name" v="Jonastjønna" />
		<tag k="name:no" v="Jonastjønna" />
		<tag k="natural" v="water" />
		<tag k="ssr:stedsnr" v="257881" />
	</node>
	<node lat="64.87674722169442" lon="13.727013880475974" id="-49974">
		<tag k="name" v="Elvekjeften" />
		<tag k="name:no" v="Elvekjeften" />
		<tag k="natural" v="bay" />
		<tag k="ssr:stedsnr" v="166213" />
	</node>
	<node lat="64.88491388752429" lon="13.940413894083989" id="-49975">
		<tag k="name" v="Sandtangen" />
		<tag k="name:no" v="Sandtangen" />
		<tag k="natural" v="cape" />
		<tag k="ssr:stedsnr" v="166302" />
	</node>
	<node lat="64.98071944265764" lon="13.575397227246567" id="-49977">
		<tag k="name" v="Storholmen" />
		<tag k="name:no" v="Storholmen" />
		<tag k="natural" v="bay" />
		<tag k="ssr:stedsnr" v="167116" />
	</node>
	<node lat="64.8764166704483" lon="13.606966664148166" id="-49980">
		<tag k="name" v="Seterbekkplutten" />
		<tag k="name:no" v="Seterbekkplutten" />
		<tag k="natural" v="water" />
		<tag k="ssr:stedsnr" v="167212" />
	</node>
	<node lat="64.84608055826652" lon="13.748083336496226" id="-49986">
		<tag k="name" v="Tjuahpa-joke" />
		<tag k="name:sma" v="Tjuahpa-joke" />
		<tag k="ssr:stedsnr" v="169590" />
		<tag k="waterway" v="stream" />
	</node>
	<node lat="65.01081110976212" lon="13.527041657754152" id="-49987">
		<tag k="name" v="Smådamman" />
		<tag k="name:no" v="Smådamman" />
		<tag k="ssr:stedsnr" v="169969" />
		<tag k="waterway" v="dam" />
	</node>
	<node lat="64.92437222279202" lon="13.763480564001066" id="-49988">
		<tag k="name" v="Sjielejaevrie" />
		<tag k="name:sma" v="Sjielejaevrie" />
		<tag k="natural" v="water" />
		<tag k="ssr:stedsnr" v="263953" />
		<tag k="water" v="lake" />
	</node>
	<node lat="64.98886388953697" lon="13.566922225289913" id="-49989">
		<tag k="name" v="Rundvika" />
		<tag k="name:no" v="Rundvika" />
		<tag k="natural" v="bay" />
		<tag k="ssr:stedsnr" v="196055" />
	</node>
	<node lat="65.01718611318594" lon="13.81119999448951" id="-49991">
		<tag k="name" v="Litlvasstangen" />
		<tag k="name:no" v="Litlvasstangen" />
		<tag k="natural" v="cape" />
		<tag k="ssr:stedsnr" v="196802" />
	</node>
	<node lat="64.87317499566315" lon="13.98730000692964" id="-49993">
		<tag k="name" v="Luvlie-Vuallerejaevrie - Auster-Vallervatnet" />
		<tag k="name:no" v="Auster-Vallervatnet" />
		<tag k="name:sma" v="Luvlie-Vuallerejaevrie" />
		<tag k="natural" v="water" />
		<tag k="ssr:stedsnr" v="197307" />
	</node>
	<node lat="64.65931944700436" lon="13.161825004243507" id="-49994">
		<tag k="name" v="Leirbekken" />
		<tag k="name:no" v="Leirbekken" />
		<tag k="ssr:stedsnr" v="197358" />
		<tag k="waterway" v="stream" />
	</node>
	<node lat="64.77762499613252" lon="13.4716888790024" id="-49997">
		<tag k="name" v="Stormyrplutten" />
		<tag k="name:no" v="Stormyrplutten" />
		<tag k="natural" v="water" />
		<tag k="ssr:stedsnr" v="197374" />
	</node>
	<node lat="64.69803333171008" lon="13.224886101785726" id="-49998">
		<tag k="name" v="Storholmen" />
		<tag k="name:no" v="Storholmen" />
		<tag k="place" v="islet" />
		<tag k="ssr:stedsnr" v="197511" />
	</node>
	<node lat="64.90777777421691" lon="13.476575008091295" id="-49999">
		<tag k="name" v="Tomastjønna" />
		<tag k="name:no" v="Tomastjønna" />
		<tag k="natural" v="water" />
		<tag k="ssr:stedsnr" v="197512" />
	</node>
	<node lat="64.82282500319742" lon="13.705347222750655" id="-50001">
		<tag k="name" v="Guertiesjaevrienjohke" />
		<tag k="name:sma" v="Guertiesjaevrienjohke" />
		<tag k="ssr:stedsnr" v="197469" />
		<tag k="waterway" v="stream" />
	</node>
	<node lat="64.81059999605694" lon="13.610152785585514" id="-50002">
		<tag k="name" v="Storplutten" />
		<tag k="name:no" v="Storplutten" />
		<tag k="natural" v="water" />
		<tag k="ssr:stedsnr" v="197476" />
	</node>
	<node lat="65.02007777336561" lon="13.578286120882678" id="-50003">
		<tag k="name" v="Guhkiesjaavretje - Langtjønna" />
		<tag k="name:no" v="Langtjønna" />
		<tag k="name:sma" v="Guhkiesjaavretje" />
		<tag k="natural" v="water" />
		<tag k="ssr:stedsnr" v="197863" />
		<tag k="water" v="lake" />
	</node>
	<node lat="65.04353055797118" lon="13.520677774156859" id="-50004">
		<tag k="name" v="Langtjønna" />
		<tag k="name:no" v="Langtjønna" />
		<tag k="natural" v="water" />
		<tag k="ssr:stedsnr" v="197871" />
	</node>
	<node lat="64.87335833444432" lon="13.851491666101241" id="-50011">
		<tag k="name" v="Stranda" />
		<tag k="name:no" v="Stranda" />
		<tag k="natural" v="beach" />
		<tag k="ssr:stedsnr" v="228240" />
	</node>
	<node lat="64.95424444343735" lon="13.516791665464696" id="-50016">
		<tag k="name" v="Litl-Langtjønna" />
		<tag k="name:no" v="Litl-Langtjønna" />
		<tag k="natural" v="water" />
		<tag k="ssr:stedsnr" v="471929" />
	</node>
	<node lat="64.67330833368109" lon="13.2803416593897" id="-50017">
		<tag k="name" v="Lauvtangen" />
		<tag k="name:no" v="Lauvtangen" />
		<tag k="natural" v="cape" />
		<tag k="ssr:stedsnr" v="257203" />
	</node>
	<node lat="64.97076110977626" lon="13.786069451172587" id="-50018">
		<tag k="name" v="Tjuenjerenjaevrie - Sultifiskflyen" />
		<tag k="name:no" v="Sultifiskflyen" />
		<tag k="name:sma" v="Tjuenjerenjaevrie" />
		<tag k="natural" v="water" />
		<tag k="ssr:stedsnr" v="257403" />
	</node>
	<node lat="64.96608888520228" lon="14.110944438244246" id="-50019">
		<tag k="name" v="Grensebekken" />
		<tag k="name:no" v="Grensebekken" />
		<tag k="ssr:stedsnr" v="257410" />
		<tag k="waterway" v="stream" />
	</node>
	<node lat="64.87071944070077" lon="13.779691675045665" id="-50020">
		<tag k="name" v="Sørsundet" />
		<tag k="name:no" v="Sørsundet" />
		<tag k="natural" v="strait" />
		<tag k="ssr:stedsnr" v="257305" />
	</node>
	<node lat="64.75441666441617" lon="13.222524997343434" id="-50021">
		<tag k="name" v="Styggdalsbekken" />
		<tag k="name:no" v="Styggdalsbekken" />
		<tag k="ssr:stedsnr" v="257363" />
		<tag k="waterway" v="stream" />
	</node>
	<node lat="64.58989999595349" lon="13.124675003039302" id="-50024">
		<tag k="name" v="Grastjønna" />
		<tag k="name:no" v="Grastjønna" />
		<tag k="natural" v="water" />
		<tag k="ssr:stedsnr" v="257375" />
	</node>
	<node lat="64.92642499564775" lon="13.596047231681796" id="-50025">
		<tag k="name" v="Loddotjønna" />
		<tag k="name:no" v="Loddotjønna" />
		<tag k="natural" v="water" />
		<tag k="ssr:stedsnr" v="257512" />
	</node>
	<node lat="64.9179583333858" lon="13.490158328829045" id="-50026">
		<tag k="name" v="Saaksenjohke - Saksvasselva" />
		<tag k="name:no" v="Saksvasselva" />
		<tag k="name:sma" v="Saaksenjohke" />
		<tag k="ssr:stedsnr" v="257514" />
		<tag k="waterway" v="stream" />
	</node>
	<node lat="65.09508889207359" lon="14.033780562255345" id="-50033">
		<tag k="name" v="Nåebrienjaevrie" />
		<tag k="name:sma" v="Nåebrienjaevrie" />
		<tag k="natural" v="water" />
		<tag k="ssr:stedsnr" v="264887" />
		<tag k="water" v="lake" />
	</node>
	<node lat="65.01895833003915" lon="13.564466673096769" id="-50035">
		<tag k="name" v="Bergtjønna" />
		<tag k="name:no" v="Bergtjønna" />
		<tag k="natural" v="water" />
		<tag k="ssr:stedsnr" v="283805" />
	</node>
	<node lat="64.73774444468604" lon="13.234194436467243" id="-50037">
		<tag k="name" v="Tjønnbekken" />
		<tag k="name:no" v="Tjønnbekken" />
		<tag k="ssr:stedsnr" v="287135" />
		<tag k="waterway" v="stream" />
	</node>
	<node lat="64.8815583331686" lon="13.702347230625188" id="-50039">
		<tag k="name" v="Austertjønna" />
		<tag k="name:no" v="Austertjønna" />
		<tag k="natural" v="water" />
		<tag k="ssr:stedsnr" v="288210" />
	</node>
	<node lat="64.85010277363602" lon="13.395963885423171" id="-50040">
		<tag k="name" v="Myrtangen" />
		<tag k="name:no" v="Myrtangen" />
		<tag k="natural" v="cape" />
		<tag k="ssr:stedsnr" v="288177" />
	</node>
	<node lat="64.96390277600193" lon="13.59035555140101" id="-50044">
		<tag k="name" v="Luvlie-jaevrie" />
		<tag k="name:sma" v="Luvlie-jaevrie" />
		<tag k="natural" v="water" />
		<tag k="ssr:stedsnr" v="289087" />
		<tag k="water" v="lake" />
	</node>
	<node lat="64.94976667088537" lon="13.607574998642566" id="-50045">
		<tag k="name" v="Skånalidalbekken" />
		<tag k="name:no" v="Skånalidalbekken" />
		<tag k="ssr:stedsnr" v="289090" />
		<tag k="waterway" v="stream" />
	</node>
	<node lat="64.9623944404067" lon="13.564466674853815" id="-50046">
		<tag k="name" v="Litltjønnbekken" />
		<tag k="name:no" v="Litltjønnbekken" />
		<tag k="ssr:stedsnr" v="289094" />
		<tag k="waterway" v="stream" />
	</node>
	<node lat="64.71631389034526" lon="13.21463611265519" id="-50051">
		<tag k="name" v="Storbekken" />
		<tag k="name:no" v="Storbekken" />
		<tag k="ssr:stedsnr" v="290127" />
		<tag k="waterway" v="stream" />
	</node>
	<node lat="65.03799999624057" lon="13.47260554757777" id="-50052">
		<tag k="name" v="Væjroe-johke" />
		<tag k="name:sma" v="Væjroe-johke" />
		<tag k="ssr:stedsnr" v="290313" />
		<tag k="waterway" v="stream" />
	</node>
	<node lat="65.01371389119602" lon="13.667477778359059" id="-50054">
		<tag k="name" v="Litlflyen" />
		<tag k="name:no" v="Litlflyen" />
		<tag k="natural" v="water" />
		<tag k="ssr:stedsnr" v="290594" />
		<tag k="water" v="lake" />
	</node>
	<node lat="65.00196388622761" lon="13.506441671243948" id="-50055">
		<tag k="name" v="Grønmyrbekken" />
		<tag k="name:no" v="Grønmyrbekken" />
		<tag k="ssr:stedsnr" v="290980" />
		<tag k="waterway" v="stream" />
	</node>
	<node lat="64.99529444381206" lon="13.526102787029883" id="-50056">
		<tag k="name" v="Giedtie-njuana - Krutangen" />
		<tag k="name:no" v="Krutangen" />
		<tag k="name:sma" v="Giedtie-njuana" />
		<tag k="place" v="islet" />
		<tag k="ssr:stedsnr" v="290990" />
	</node>
	<node lat="64.70299722039498" lon="13.108827770070993" id="-50057">
		<tag k="name" v="Litltjønna" />
		<tag k="name:no" v="Litltjønna" />
		<tag k="natural" v="water" />
		<tag k="ssr:stedsnr" v="309046" />
	</node>
	<node lat="64.54938055302695" lon="13.121986103794328" id="-50061">
		<tag k="name" v="Gaajsjaevrie" />
		<tag k="name:sma" v="Gaajsjaevrie" />
		<tag k="natural" v="water" />
		<tag k="ssr:stedsnr" v="318303" />
		<tag k="water" v="lake" />
	</node>
	<node lat="64.51827499697008" lon="13.122002775181873" id="-50062">
		<tag k="name" v="Bergtjønnin, Vestre" />
		<tag k="name:no" v="Bergtjønnin, Vestre" />
		<tag k="natural" v="water" />
		<tag k="ssr:stedsnr" v="318311" />
	</node>
	<node lat="64.84803055886832" lon="13.377616668742306" id="-50065">
		<tag k="name" v="Bjørkvassfossen" />
		<tag k="name:no" v="Bjørkvassfossen" />
		<tag k="natural" v="waterfall" />
		<tag k="ssr:stedsnr" v="318406" />
	</node>
	<node lat="64.80357500330861" lon="13.49143333882107" id="-50066">
		<tag k="name" v="Digertangen" />
		<tag k="name:no" v="Digertangen" />
		<tag k="natural" v="cape" />
		<tag k="ssr:stedsnr" v="318442" />
	</node>
	<node lat="64.80120833464292" lon="13.363669437040253" id="-50067">
		<tag k="name" v="Raavrenjaevrie luspie - Hovden" />
		<tag k="name:no" v="Hovden" />
		<tag k="name:sma" v="Raavrenjaevrie luspie" />
		<tag k="natural" v="bay" />
		<tag k="ssr:stedsnr" v="318445" />
	</node>
	<node lat="64.90545277565683" lon="13.37989722628114" id="-50069">
		<tag k="name" v="Presttjønnbekken" />
		<tag k="name:no" v="Presttjønnbekken" />
		<tag k="ssr:stedsnr" v="318487" />
		<tag k="waterway" v="stream" />
	</node>
	<node lat="64.90790833466008" lon="13.568666674964613" id="-50071">
		<tag k="name" v="Speerregejaevrie - Vektarbotn" />
		<tag k="name:no" v="Vektarbotn" />
		<tag k="name:sma" v="Speerregejaevrie" />
		<tag k="natural" v="bay" />
		<tag k="ssr:stedsnr" v="318495" />
	</node>
	<node lat="64.90940277819931" lon="13.584105560964549" id="-50072">
		<tag k="name" v="Rotangen" />
		<tag k="name:no" v="Rotangen" />
		<tag k="place" v="islet" />
		<tag k="ssr:stedsnr" v="318496" />
	</node>
	<node lat="64.91845000177051" lon="13.686455545522467" id="-50073">
		<tag k="name" v="Gåetbielesdurrienjaevrieh - Husviktjønnin" />
		<tag k="name:no" v="Husviktjønnin" />
		<tag k="name:sma" v="Gåetbielesdurrienjaevrieh" />
		<tag k="natural" v="water" />
		<tag k="ssr:stedsnr" v="318499" />
	</node>
	<node lat="64.6866055593133" lon="13.259702773754244" id="-50075">
		<tag k="name" v="Litlfjelltangen" />
		<tag k="name:no" v="Litlfjelltangen" />
		<tag k="place" v="islet" />
		<tag k="ssr:stedsnr" v="318510" />
	</node>
	<node lat="65.00826389277229" lon="14.002483327492266" id="-50077">
		<tag k="name" v="Gaajhtjaevrie - Getsvatnet" />
		<tag k="name:no" v="Getsvatnet" />
		<tag k="name:sma" v="Gaajhtjaevrie" />
		<tag k="natural" v="water" />
		<tag k="ssr:stedsnr" v="318806" />
		<tag k="water" v="lake" />
	</node>
	<node lat="64.87267028345515" lon="13.816377893109976" id="-50079">
		<tag k="alt_name:no" v="Auster Huddingsvatnet;Auster-Huddingsvatnet" />
		<tag k="name" v="Otnege-jaevrie - Auster Hudningsvatnet" />
		<tag k="name:no" v="Auster Hudningsvatnet" />
		<tag k="name:sma" v="Otnege-jaevrie" />
		<tag k="natural" v="water" />
		<tag k="ssr:stedsnr" v="469231" />
	</node>
	<node lat="64.8859083332383" lon="13.707280564820076" id="-50082">
		<tag k="name" v="Gabpen-johke" />
		<tag k="name:sma" v="Gabpen-johke" />
		<tag k="ssr:stedsnr" v="470131" />
		<tag k="waterway" v="stream" />
	</node>
	<node lat="64.68603333552703" lon="13.211794437760192" id="-50083">
		<tag k="name" v="Litlfossen" />
		<tag k="name:no" v="Litlfossen" />
		<tag k="natural" v="waterfall" />
		<tag k="ssr:stedsnr" v="470139" />
	</node>
	<node lat="64.86425555758996" lon="13.465380560604396" id="-50085">
		<tag k="name" v="Brattbekken" />
		<tag k="name:no" v="Brattbekken" />
		<tag k="ssr:stedsnr" v="470157" />
		<tag k="waterway" v="stream" />
	</node>
	<node lat="64.65901666903889" lon="13.199119437200974" id="-50086">
		<tag k="name" v="Gamstalltangen" />
		<tag k="name:no" v="Gamstalltangen" />
		<tag k="natural" v="cape" />
		<tag k="ssr:stedsnr" v="470228" />
	</node>
	<node lat="64.89584444217986" lon="13.659463884228753" id="-50091">
		<tag k="name" v="Kustakkslettet" />
		<tag k="name:no" v="Kustakkslettet" />
		<tag k="natural" v="cape" />
		<tag k="ssr:stedsnr" v="470165" />
	</node>
	<node lat="64.88160585043332" lon="13.746509410276223" id="-50095">
		<tag k="name" v="Matbekken" />
		<tag k="name:no" v="Matbekken" />
		<tag k="ssr:stedsnr" v="470180" />
		<tag k="waterway" v="stream" />
	</node>
	<node lat="64.88546388541889" lon="13.644161105158387" id="-50096">
		<tag k="name" v="Tjuahpa-johke" />
		<tag k="name:sma" v="Tjuahpa-johke" />
		<tag k="ssr:stedsnr" v="470194" />
		<tag k="waterway" v="stream" />
	</node>
	<node lat="65.05238611141014" lon="13.837725002640015" id="-50100">
		<tag k="name" v="Lohtere-johke - Norddalsbekken" />
		<tag k="name:no" v="Norddalsbekken" />
		<tag k="name:sma" v="Lohtere-johke" />
		<tag k="ssr:stedsnr" v="471497" />
		<tag k="waterway" v="stream" />
	</node>
	<node lat="64.79464999766981" lon="13.685213879249282" id="-50101">
		<tag k="name" v="Syvfisketjønn" />
		<tag k="name:no" v="Syvfisketjønn" />
		<tag k="natural" v="water" />
		<tag k="ssr:stedsnr" v="471616" />
	</node>
	<node lat="64.79138611407495" lon="13.380886107478004" id="-50104">
		<tag k="name" v="Bustatangen" />
		<tag k="name:no" v="Bustatangen" />
		<tag k="natural" v="cape" />
		<tag k="ssr:stedsnr" v="472124" />
	</node>
	<node lat="64.97270000433309" lon="14.093680557318166" id="-50105">
		<tag k="name" v="Giedtie-njuana" />
		<tag k="name:sma" v="Giedtie-njuana" />
		<tag k="natural" v="cape" />
		<tag k="ssr:stedsnr" v="472379" />
	</node>
	<node lat="64.90151111290658" lon="14.017441669758908" id="-50106">
		<tag k="name" v="Seterbekken" />
		<tag k="name:no" v="Seterbekken" />
		<tag k="ssr:stedsnr" v="472358" />
		<tag k="waterway" v="stream" />
	</node>
	<node lat="64.83194999955721" lon="13.645280559564133" id="-50109">
		<tag k="name" v="Vester-Skoforplutten" />
		<tag k="name:no" v="Vester-Skoforplutten" />
		<tag k="natural" v="water" />
		<tag k="ssr:stedsnr" v="472592" />
	</node>
	<node lat="64.68714722133006" lon="13.07859722659747" id="-50110">
		<tag k="name" v="Flyan" />
		<tag k="place" v="locality" />
		<tag k="ssr:stedsnr" v="472764" />
	</node>
	<node lat="64.82425833544661" lon="13.60685278583152" id="-50111">
		<tag k="name" v="Kuholmen" />
		<tag k="name:no" v="Kuholmen" />
		<tag k="natural" v="cape" />
		<tag k="ssr:stedsnr" v="472748" />
	</node>
	<node lat="65.04103889229458" lon="13.5470250070056" id="-50112">
		<tag k="name" v="Luvlie Kaajien-jaevrie - Auster Karivatnet" />
		<tag k="name:no" v="Auster Karivatnet" />
		<tag k="name:sma" v="Luvlie Kaajien-jaevrie" />
		<tag k="natural" v="water" />
		<tag k="ssr:stedsnr" v="472937" />
		<tag k="water" v="lake" />
	</node>
	<node lat="64.85867778237993" lon="13.430094439594615" id="-50117">
		<tag k="name" v="Revåsbekken" />
		<tag k="name:no" v="Revåsbekken" />
		<tag k="ssr:stedsnr" v="348174" />
		<tag k="waterway" v="stream" />
	</node>
	<node lat="64.87229167100647" lon="13.742266671797447" id="-50119">
		<tag k="name" v="Auribekkvika" />
		<tag k="name:no" v="Auribekkvika" />
		<tag k="natural" v="bay" />
		<tag k="ssr:stedsnr" v="348203" />
	</node>
	<node lat="64.98610277326051" lon="13.586105558325233" id="-50122">
		<tag k="name" v="Setemnstakkslettet" />
		<tag k="name:no" v="Setemnstakkslettet" />
		<tag k="natural" v="cape" />
		<tag k="ssr:stedsnr" v="349106" />
	</node>
	<node lat="64.66884167098864" lon="13.181397226711216" id="-50127">
		<tag k="name" v="Bjørknestangen" />
		<tag k="name:no" v="Bjørknestangen" />
		<tag k="natural" v="cape" />
		<tag k="ssr:stedsnr" v="349320" />
	</node>
	<node lat="64.67166666294291" lon="13.174105558681848" id="-50128">
		<tag k="name" v="Finnhusbekken" />
		<tag k="name:no" v="Finnhusbekken" />
		<tag k="ssr:stedsnr" v="349323" />
		<tag k="waterway" v="stream" />
	</node>
	<node lat="64.78871666289669" lon="13.409702786254481" id="-50129">
		<tag k="name" v="Bjønnbekken" />
		<tag k="name:no" v="Bjønnbekken" />
		<tag k="ssr:stedsnr" v="350115" />
		<tag k="waterway" v="stream" />
	</node>
	<node lat="65.00104444805086" lon="13.797491662833378" id="-50130">
		<tag k="name" v="Solodden" />
		<tag k="name:no" v="Solodden" />
		<tag k="natural" v="cape" />
		<tag k="ssr:stedsnr" v="350402" />
	</node>
	<node lat="64.90456111466048" lon="13.494299996094469" id="-50133">
		<tag k="name" v="Seterbekken" />
		<tag k="name:no" v="Seterbekken" />
		<tag k="ssr:stedsnr" v="350809" />
		<tag k="waterway" v="stream" />
	</node>
	<node lat="64.83739722629305" lon="13.406355553611757" id="-50136">
		<tag k="name" v="Vakkerdalsbekken" />
		<tag k="name:no" v="Vakkerdalsbekken" />
		<tag k="ssr:stedsnr" v="351169" />
		<tag k="waterway" v="stream" />
	</node>
	<node lat="65.05243611508091" lon="13.690447224632434" id="-50137">
		<tag k="name" v="Buvrie-johke - Finnburselva" />
		<tag k="name:no" v="Finnburselva" />
		<tag k="name:sma" v="Buvrie-johke" />
		<tag k="ssr:stedsnr" v="351654" />
		<tag k="waterway" v="river" />
	</node>
	<node lat="64.9875583348188" lon="13.633544447051559" id="-50138">
		<tag k="name" v="Storplutten" />
		<tag k="name:no" v="Storplutten" />
		<tag k="natural" v="water" />
		<tag k="ssr:stedsnr" v="351553" />
		<tag k="water" v="pond" />
	</node>
	<node lat="64.98834999964748" lon="13.663475006927731" id="-50139">
		<tag k="name" v="Naustervika" />
		<tag k="name:no" v="Naustervika" />
		<tag k="natural" v="bay" />
		<tag k="ssr:stedsnr" v="351555" />
	</node>
	<node lat="64.98246595187383" lon="13.670616442800448" id="-50140">
		<tag k="name" v="Strohke - Strokken" />
		<tag k="name:no" v="Strokken" />
		<tag k="name:sma" v="Strohke" />
		<tag k="place" v="locality" />
		<tag k="ssr:stedsnr" v="351557" />
	</node>
	<node lat="64.68933055781004" lon="13.188238891162474" id="-50143">
		<tag k="name" v="Jakopsundet" />
		<tag k="name:no" v="Jakopsundet" />
		<tag k="natural" v="strait" />
		<tag k="ssr:stedsnr" v="378368" />
	</node>
	<node lat="64.68683888823595" lon="13.198969433937814" id="-50144">
		<tag k="name" v="Sandtangen" />
		<tag k="name:no" v="Sandtangen" />
		<tag k="natural" v="cape" />
		<tag k="ssr:stedsnr" v="378369" />
	</node>
	<node lat="64.67618611506502" lon="13.174286117704002" id="-50145">
		<tag k="name" v="Naustbukta" />
		<tag k="name:no" v="Naustbukta" />
		<tag k="natural" v="bay" />
		<tag k="ssr:stedsnr" v="378373" />
	</node>
	<node lat="64.72783055392253" lon="13.243044447704133" id="-50146">
		<tag k="name" v="Setervika" />
		<tag k="name:no" v="Setervika" />
		<tag k="natural" v="bay" />
		<tag k="ssr:stedsnr" v="378267" />
	</node>
	<node lat="64.85295277521838" lon="13.7375750007293" id="-50147">
		<tag k="name" v="Laagkoenjuenientjonne" />
		<tag k="name:sma" v="Laagkoenjuenientjonne" />
		<tag k="natural" v="water" />
		<tag k="ssr:stedsnr" v="378272" />
	</node>
	<node lat="64.8625249974417" lon="13.561750003255678" id="-50148">
		<tag k="name" v="Storbekken" />
		<tag k="name:no" v="Storbekken" />
		<tag k="ssr:stedsnr" v="378417" />
		<tag k="waterway" v="stream" />
	</node>
	<node lat="64.92295555510461" lon="13.547927784650488" id="-50149">
		<tag k="name" v="Rørtangen" />
		<tag k="name:no" v="Rørtangen" />
		<tag k="natural" v="cape" />
		<tag k="ssr:stedsnr" v="378481" />
	</node>
	<node lat="64.63025555959258" lon="13.288663892558285" id="-50153">
		<tag k="name" v="Skardtjønnin" />
		<tag k="name:no" v="Skardtjønnin" />
		<tag k="natural" v="water" />
		<tag k="ssr:stedsnr" v="389390" />
	</node>
	<node lat="64.89080833432895" lon="13.56412500791431" id="-50157">
		<tag k="name" v="Ravren-johke" />
		<tag k="name:sma" v="Ravren-johke" />
		<tag k="ssr:stedsnr" v="409201" />
		<tag k="waterway" v="river" />
	</node>
	<node lat="64.69641110858913" lon="13.205230552570002" id="-50161">
		<tag k="name" v="Damsvika" />
		<tag k="name:no" v="Damsvika" />
		<tag k="natural" v="bay" />
		<tag k="ssr:stedsnr" v="410244" />
	</node>
	<node lat="64.8806388931423" lon="13.956255547274527" id="-50162">
		<tag k="name" v="Luvlie Våelleren-johke" />
		<tag k="name:sma" v="Luvlie Våelleren-johke" />
		<tag k="ssr:stedsnr" v="410142" />
		<tag k="waterway" v="river" />
	</node>
	<node lat="64.86402222217096" lon="13.328902773832613" id="-50165">
		<tag k="name" v="Fiskbekken" />
		<tag k="name:no" v="Fiskbekken" />
		<tag k="ssr:stedsnr" v="412144" />
		<tag k="waterway" v="stream" />
	</node>
	<node lat="64.98632500410741" lon="13.695752771572593" id="-50166">
		<tag k="name" v="Storvika" />
		<tag k="name:no" v="Storvika" />
		<tag k="natural" v="bay" />
		<tag k="ssr:stedsnr" v="412537" />
	</node>
	<node lat="64.98080277374405" lon="13.52131944955661" id="-50167">
		<tag k="name" v="Midtibekkholmen" />
		<tag k="name:no" v="Midtibekkholmen" />
		<tag k="place" v="islet" />
		<tag k="ssr:stedsnr" v="412987" />
	</node>
	<node lat="64.91834721784366" lon="13.928169449625187" id="-50168">
		<tag k="name" v="Nordre Arnolsa-bekken" />
		<tag k="name:no" v="Nordre Arnolsa-bekken" />
		<tag k="ssr:stedsnr" v="439245" />
		<tag k="waterway" v="stream" />
	</node>
	<node lat="64.93077777821343" lon="14.058374993941067" id="-50169">
		<tag k="name" v="Giedtie-johke - Litlelva" />
		<tag k="name:no" v="Litlelva" />
		<tag k="name:sma" v="Giedtie-johke" />
		<tag k="ssr:stedsnr" v="439247" />
		<tag k="waterway" v="stream" />
	</node>
	<node lat="64.93635833591956" lon="13.981024991684837" id="-50170">
		<tag k="name" v="Guevtelejaevrie - Henrikvatnet" />
		<tag k="name:no" v="Henrikvatnet" />
		<tag k="name:sma" v="Guevtelejaevrie" />
		<tag k="natural" v="water" />
		<tag k="ssr:stedsnr" v="439249" />
		<tag k="water" v="lake" />
	</node>
	<node lat="64.87743332925211" lon="13.783763883594096" id="-50172">
		<tag k="name" v="Hutnegejaevrie - Hudningsvatnet" />
		<tag k="name:no" v="Hudningsvatnet" />
		<tag k="name:sma" v="Hutnegejaevrie" />
		<tag k="natural" v="water" />
		<tag k="ssr:stedsnr" v="439256" />
		<tag k="water" v="lake" />
	</node>
	<node lat="64.78103055241232" lon="13.355275009892551" id="-50173">
		<tag k="name" v="Styggbekken" />
		<tag k="name:no" v="Styggbekken" />
		<tag k="ssr:stedsnr" v="439303" />
		<tag k="waterway" v="stream" />
	</node>
	<node lat="64.7898527771882" lon="13.493855552509222" id="-50174">
		<tag k="name" v="Nedsttjønna" />
		<tag k="name:no" v="Nedsttjønna" />
		<tag k="natural" v="water" />
		<tag k="ssr:stedsnr" v="439307" />
	</node>
	<node lat="64.64001666817437" lon="13.149577767868177" id="-50175">
		<tag k="name" v="Hitertjønna" />
		<tag k="name:no" v="Hitertjønna" />
		<tag k="natural" v="water" />
		<tag k="ssr:stedsnr" v="439309" />
	</node>
	<node lat="64.6827305571774" lon="13.16831665678042" id="-50176">
		<tag k="name" v="Vertangen" />
		<tag k="name:no" v="Vertangen" />
		<tag k="place" v="islet" />
		<tag k="ssr:stedsnr" v="439344" />
	</node>
	<node lat="64.9822694461516" lon="13.730063884866006" id="-50177">
		<tag k="name" v="Berettjønna" />
		<tag k="name:no" v="Berettjønna" />
		<tag k="natural" v="water" />
		<tag k="ssr:stedsnr" v="439354" />
	</node>
	<node lat="64.83101111316583" lon="13.316008335083687" id="-50178">
		<tag k="name" v="Åarjeljaevrie - Sørvatnet" />
		<tag k="name:no" v="Sørvatnet" />
		<tag k="name:sma" v="Åarjeljaevrie" />
		<tag k="natural" v="water" />
		<tag k="ssr:stedsnr" v="439394" />
	</node>
	<node lat="64.64738055207283" lon="13.307133326973842" id="-50179">
		<tag k="name" v="Midtre Havdalstjønna" />
		<tag k="name:no" v="Midtre Havdalstjønna" />
		<tag k="natural" v="water" />
		<tag k="ssr:stedsnr" v="439396" />
	</node>
	<node lat="64.8321166635746" lon="13.37525833998153" id="-50180">
		<tag k="name" v="Nesbekken" />
		<tag k="name:no" v="Nesbekken" />
		<tag k="ssr:stedsnr" v="439397" />
		<tag k="waterway" v="stream" />
	</node>
	<node lat="64.64342499801037" lon="13.306947228025498" id="-50181">
		<tag k="name" v="Nedre Havdalstjønna" />
		<tag k="name:no" v="Nedre Havdalstjønna" />
		<tag k="natural" v="water" />
		<tag k="ssr:stedsnr" v="439399" />
	</node>
	<node lat="64.72728333579914" lon="13.107033324035982" id="-50182">
		<tag k="name" v="Litltjønna" />
		<tag k="name:no" v="Litltjønna" />
		<tag k="natural" v="water" />
		<tag k="ssr:stedsnr" v="439655" />
	</node>
	<node lat="64.72529999945742" lon="13.121891675706374" id="-50183">
		<tag k="name" v="Finnhustjønna" />
		<tag k="name:no" v="Finnhustjønna" />
		<tag k="natural" v="water" />
		<tag k="ssr:stedsnr" v="439656" />
	</node>
	<node lat="65.0100305559208" lon="13.771955549632072" id="-50184">
		<tag k="name" v="Stoerresååle - Storøya" />
		<tag k="name:no" v="Storøya" />
		<tag k="name:sma" v="Stoerresååle" />
		<tag k="place" v="islet" />
		<tag k="ssr:stedsnr" v="439806" />
	</node>
	<node lat="65.00785555916532" lon="13.61105000555428" id="-50185">
		<tag k="name" v="Jonasmotangen" />
		<tag k="name:no" v="Jonasmotangen" />
		<tag k="natural" v="cape" />
		<tag k="ssr:stedsnr" v="439851" />
	</node>
	<node lat="64.84957777999468" lon="13.444213892096286" id="-50189">
		<tag k="name" v="Geitbergtangen" />
		<tag k="name:no" v="Geitbergtangen" />
		<tag k="natural" v="cape" />
		<tag k="ssr:stedsnr" v="446896" />
	</node>
	<node lat="64.88603611030601" lon="13.84630000157331" id="-50191">
		<tag k="name" v="Finnbursbekken" />
		<tag k="name:no" v="Finnbursbekken" />
		<tag k="ssr:stedsnr" v="469224" />
		<tag k="waterway" v="stream" />
	</node>
	<node lat="64.88007777839495" lon="13.476833323528243" id="-50194">
		<tag k="name" v="Tjønnbekken" />
		<tag k="name:no" v="Tjønnbekken" />
		<tag k="ssr:stedsnr" v="470148" />
		<tag k="waterway" v="stream" />
	</node>
	<node lat="64.89316111405905" lon="13.659758333408906" id="-50195">
		<tag k="name" v="Setermyrbekken" />
		<tag k="name:no" v="Setermyrbekken" />
		<tag k="ssr:stedsnr" v="470160" />
		<tag k="waterway" v="stream" />
	</node>
	<node lat="64.9875944402792" lon="13.742408335726925" id="-50199">
		<tag k="name" v="Tjuenjeren-johke - Sultifiskelva" />
		<tag k="name:no" v="Sultifiskelva" />
		<tag k="name:sma" v="Tjuenjeren-johke" />
		<tag k="ssr:stedsnr" v="472562" />
		<tag k="waterway" v="river" />
	</node>
	<node lat="64.70021389118287" lon="13.10448055609064" id="-50201">
		<tag k="name" v="Heimvatnet" />
		<tag k="name:no" v="Heimvatnet" />
		<tag k="natural" v="water" />
		<tag k="ssr:stedsnr" v="491023" />
	</node>
	<node lat="64.99400833405787" lon="13.712638897052786" id="-50202">
		<tag k="name" v="Godfisktjønna" />
		<tag k="name:no" v="Godfisktjønna" />
		<tag k="natural" v="water" />
		<tag k="ssr:stedsnr" v="681055" />
		<tag k="water" v="lake" />
	</node>
	<node lat="64.66355000324032" lon="13.244036101223635" id="-50203">
		<tag k="name" v="Dåeriesjohke - Brattbekken" />
		<tag k="name:no" v="Brattbekken" />
		<tag k="name:sma" v="Dåeriesjohke" />
		<tag k="ssr:stedsnr" v="681436" />
		<tag k="waterway" v="stream" />
	</node>
	<node lat="64.66623611299597" lon="13.232183327706718" id="-50204">
		<tag k="name" v="Brattbekktangen" />
		<tag k="name:no" v="Brattbekktangen" />
		<tag k="natural" v="cape" />
		<tag k="ssr:stedsnr" v="681437" />
	</node>
	<node lat="64.98500000067365" lon="13.653313882863873" id="-50205">
		<tag k="name" v="Naustertjønna" />
		<tag k="name:no" v="Naustertjønna" />
		<tag k="natural" v="water" />
		<tag k="ssr:stedsnr" v="499036" />
	</node>
	<node lat="64.99357777794651" lon="13.655236114415084" id="-50206">
		<tag k="name" v="Golmesjohke - Gollomselva" />
		<tag k="name:no" v="Gollomselva" />
		<tag k="name:sma" v="Golmesjohke" />
		<tag k="ssr:stedsnr" v="499040" />
		<tag k="waterway" v="stream" />
	</node>
	<node lat="64.76815000221431" lon="13.378680563502803" id="-50207">
		<tag k="name" v="Setertangen" />
		<tag k="name:no" v="Setertangen" />
		<tag k="natural" v="cape" />
		<tag k="ssr:stedsnr" v="499290" />
	</node>
	<node lat="64.90806389017065" lon="13.804397218147844" id="-50213">
		<tag k="fixme" v="multiple name tags, choose one and add the other to alt_name" />
		<tag k="name" v="Guelehtsjaevrie;Såålejaevrie - Fiskløystjønna" />
		<tag k="name:no" v="Fiskløystjønna" />
		<tag k="name:sma" v="Guelehtsjaevrie;Såålejaevrie" />
		<tag k="natural" v="water" />
		<tag k="ssr:stedsnr" v="500306" />
	</node>
	<node lat="64.89121944451531" lon="13.887111117932735" id="-50214">
		<tag k="name" v="Stormyrbekken" />
		<tag k="name:no" v="Stormyrbekken" />
		<tag k="ssr:stedsnr" v="500295" />
		<tag k="waterway" v="stream" />
	</node>
	<node lat="64.78825555668088" lon="13.480222224229008" id="-50216">
		<tag k="name" v="Djuptjønna" />
		<tag k="name:no" v="Djuptjønna" />
		<tag k="natural" v="water" />
		<tag k="ssr:stedsnr" v="500410" />
	</node>
	<node lat="64.83412499923507" lon="13.706816667046052" id="-50218">
		<tag k="name" v="Njueniesjaevrienjohke" />
		<tag k="name:sma" v="Njueniesjaevrienjohke" />
		<tag k="ssr:stedsnr" v="500485" />
		<tag k="waterway" v="stream" />
	</node>
	<node lat="64.62292500195771" lon="13.194516672121825" id="-50220">
		<tag k="name" v="Olatjønna" />
		<tag k="name:no" v="Olatjønna" />
		<tag k="natural" v="water" />
		<tag k="ssr:stedsnr" v="500401" />
	</node>
	<node lat="64.81335555937899" lon="13.608788879153137" id="-50223">
		<tag k="name" v="Litlplutten" />
		<tag k="name:no" v="Litlplutten" />
		<tag k="natural" v="water" />
		<tag k="ssr:stedsnr" v="500509" />
	</node>
	<node lat="64.67183888908333" lon="13.245925004482315" id="-50225">
		<tag k="alt_name:no" v="Halvmiltangen, austre" />
		<tag k="name" v="Auster Halvmiltangen" />
		<tag k="name:no" v="Auster Halvmiltangen" />
		<tag k="natural" v="cape" />
		<tag k="ssr:stedsnr" v="500533" />
	</node>
	<node lat="64.93207778199051" lon="13.556002783617148" id="-50226">
		<tag k="name" v="Sundet" />
		<tag k="name:no" v="Sundet" />
		<tag k="natural" v="strait" />
		<tag k="ssr:stedsnr" v="500536" />
	</node>
	<node lat="64.79599166413927" lon="13.705572212396389" id="-50228">
		<tag k="fixme" v="multiple name tags, choose one and add the other to alt_name" />
		<tag k="name" v="Dievienjaevrie;Duvvienjaevrie - Devikvatnet" />
		<tag k="name:no" v="Devikvatnet" />
		<tag k="name:sma" v="Dievienjaevrie;Duvvienjaevrie" />
		<tag k="natural" v="water" />
		<tag k="ssr:stedsnr" v="682353" />
		<tag k="water" v="lake" />
	</node>
	<node lat="64.74585555835506" lon="13.244863891513175" id="-50233">
		<tag k="name" v="Litlholbekken" />
		<tag k="name:no" v="Litlholbekken" />
		<tag k="ssr:stedsnr" v="682284" />
		<tag k="waterway" v="stream" />
	</node>
	<node lat="64.73577778179133" lon="13.284491657002498" id="-50234">
		<tag k="name" v="Litltjønna" />
		<tag k="name:no" v="Litltjønna" />
		<tag k="natural" v="water" />
		<tag k="ssr:stedsnr" v="682290" />
	</node>
	<node lat="64.93262499759604" lon="14.049819434235188" id="-50236">
		<tag k="name" v="Giedtiejaevrie - Litlelvvatnet" />
		<tag k="name:no" v="Litlelvvatnet" />
		<tag k="name:sma" v="Giedtiejaevrie" />
		<tag k="natural" v="water" />
		<tag k="ssr:stedsnr" v="682293" />
	</node>
	<node lat="64.87291388530902" lon="13.786427781692511" id="-50237">
		<tag k="name" v="Storøya" />
		<tag k="name:no" v="Storøya" />
		<tag k="place" v="islet" />
		<tag k="ssr:stedsnr" v="682301" />
	</node>
	<node lat="64.79112499731887" lon="13.391666665930057" id="-50239">
		<tag k="name" v="Stoerre-sååle - Storholmen" />
		<tag k="name:no" v="Storholmen" />
		<tag k="name:sma" v="Stoerre-sååle" />
		<tag k="place" v="islet" />
		<tag k="ssr:stedsnr" v="682365" />
	</node>
	<node lat="64.68468333641586" lon="13.144283326404354" id="-50241">
		<tag k="name" v="Storholmen" />
		<tag k="name:no" v="Storholmen" />
		<tag k="place" v="islet" />
		<tag k="ssr:stedsnr" v="682390" />
	</node>
	<node lat="64.61292499773646" lon="13.232861113154053" id="-50246">
		<tag k="name" v="Blåhammartjønna" />
		<tag k="name:no" v="Blåhammartjønna" />
		<tag k="natural" v="water" />
		<tag k="ssr:stedsnr" v="682441" />
	</node>
	<node lat="64.65111110673155" lon="13.307747228954797" id="-50247">
		<tag k="name" v="Øvre Havdalstjønna" />
		<tag k="name:no" v="Øvre Havdalstjønna" />
		<tag k="natural" v="water" />
		<tag k="ssr:stedsnr" v="682453" />
	</node>
	<node lat="64.95653611222848" lon="13.655024995665617" id="-50248">
		<tag k="name" v="Brattbekken" />
		<tag k="name:no" v="Brattbekken" />
		<tag k="ssr:stedsnr" v="682488" />
		<tag k="waterway" v="stream" />
	</node>
	<node lat="64.6741499979172" lon="13.294033342869461" id="-50250">
		<tag k="name" v="Ingjelsvassbukta" />
		<tag k="name:no" v="Ingjelsvassbukta" />
		<tag k="natural" v="bay" />
		<tag k="ssr:stedsnr" v="682499" />
	</node>
	<node lat="65.08549166821899" lon="13.698149998848464" id="-50253">
		<tag k="name" v="Giengelvihkenjohke" />
		<tag k="name:sma" v="Giengelvihkenjohke" />
		<tag k="ssr:stedsnr" v="682691" />
		<tag k="waterway" v="river" />
	</node>
	<node lat="65.05590555243768" lon="13.613427783097722" id="-50256">
		<tag k="name" v="Jillie-Raajhkere - Vestre Rekarvatnet" />
		<tag k="name:no" v="Vestre Rekarvatnet" />
		<tag k="name:sma" v="Jillie-Raajhkere" />
		<tag k="natural" v="water" />
		<tag k="ssr:stedsnr" v="682897" />
		<tag k="water" v="lake" />
	</node>
	<node lat="64.68525000034664" lon="13.160924997620533" id="-50257">
		<tag k="name" v="Veiksundet" />
		<tag k="name:no" v="Veiksundet" />
		<tag k="natural" v="strait" />
		<tag k="ssr:stedsnr" v="530194" />
	</node>
	<node lat="64.90834722569906" lon="13.610338889180126" id="-50258">
		<tag k="name" v="Gåetien-loekte" />
		<tag k="name:sma" v="Gåetien-loekte" />
		<tag k="natural" v="bay" />
		<tag k="ssr:stedsnr" v="530220" />
	</node>
	<node lat="64.85482222471096" lon="13.401202769053658" id="-50259">
		<tag k="name" v="Gjersvika" />
		<tag k="name:no" v="Gjersvika" />
		<tag k="natural" v="water" />
		<tag k="ssr:stedsnr" v="530225" />
	</node>
	<node lat="64.97161388994274" lon="14.09222499858799" id="-50266">
		<tag k="name" v="Buvrie-sååle" />
		<tag k="name:sma" v="Buvrie-sååle" />
		<tag k="place" v="islet" />
		<tag k="ssr:stedsnr" v="533403" />
	</node>
	<node lat="65.03485278110054" lon="13.649427781722473" id="-50269">
		<tag k="name" v="Pe-Arnsatjønna" />
		<tag k="name:no" v="Pe-Arnsatjønna" />
		<tag k="natural" v="water" />
		<tag k="ssr:stedsnr" v="533675" />
	</node>
	<node lat="64.82168333554124" lon="13.617788897081878" id="-50271">
		<tag k="name" v="Jerpbekken" />
		<tag k="name:no" v="Jerpbekken" />
		<tag k="ssr:stedsnr" v="533777" />
		<tag k="waterway" v="stream" />
	</node>
	<node lat="65.0075472241857" lon="13.604588886229493" id="-50273">
		<tag k="name" v="Jonasmovika" />
		<tag k="name:no" v="Jonasmovika" />
		<tag k="natural" v="bay" />
		<tag k="ssr:stedsnr" v="533984" />
	</node>
	<node lat="65.02004166429371" lon="13.588405554692239" id="-50274">
		<tag k="name" v="Sandtjønna" />
		<tag k="name:no" v="Sandtjønna" />
		<tag k="natural" v="water" />
		<tag k="ssr:stedsnr" v="533986" />
	</node>
	<node lat="65.01055555240619" lon="13.577511108025403" id="-50275">
		<tag k="name" v="Vester Hopbekken" />
		<tag k="name:no" v="Vester Hopbekken" />
		<tag k="ssr:stedsnr" v="533987" />
		<tag k="waterway" v="stream" />
	</node>
	<node lat="64.75302777833396" lon="13.301497218102194" id="-50284">
		<tag k="name" v="Mariatjønna" />
		<tag k="name:no" v="Mariatjønna" />
		<tag k="natural" v="water" />
		<tag k="ssr:stedsnr" v="560335" />
	</node>
	<node lat="64.86047500420494" lon="13.564213897083842" id="-50285">
		<tag k="name" v="Sagbekken" />
		<tag k="name:no" v="Sagbekken" />
		<tag k="ssr:stedsnr" v="560386" />
		<tag k="waterway" v="stream" />
	</node>
	<node lat="64.85474999975693" lon="13.277538887505282" id="-50286">
		<tag k="name" v="Kleivbekken" />
		<tag k="name:no" v="Kleivbekken" />
		<tag k="ssr:stedsnr" v="560388" />
		<tag k="waterway" v="stream" />
	</node>
	<node lat="64.8487611151812" lon="13.548277783047919" id="-50287">
		<tag k="name" v="Okstjønnbekken" />
		<tag k="name:no" v="Okstjønnbekken" />
		<tag k="ssr:stedsnr" v="560393" />
		<tag k="waterway" v="stream" />
	</node>
	<node lat="64.82932777725465" lon="13.374952769846553" id="-50289">
		<tag k="name" v="Petjønna" />
		<tag k="name:no" v="Petjønna" />
		<tag k="natural" v="water" />
		<tag k="ssr:stedsnr" v="560401" />
	</node>
	<node lat="64.90855277910617" lon="13.537349999391308" id="-50290">
		<tag k="name" v="Finnhustangen" />
		<tag k="name:no" v="Finnhustangen" />
		<tag k="natural" v="cape" />
		<tag k="ssr:stedsnr" v="560484" />
	</node>
	<node lat="65.02251388789047" lon="13.72216111689541" id="-50291">
		<tag k="name" v="Elgvika" />
		<tag k="name:no" v="Elgvika" />
		<tag k="natural" v="bay" />
		<tag k="ssr:stedsnr" v="560821" />
	</node>
	<node lat="65.06479999745648" lon="14.018311111693091" id="-50292">
		<tag k="name" v="Sjaarenjaevrie" />
		<tag k="name:sma" v="Sjaarenjaevrie" />
		<tag k="natural" v="water" />
		<tag k="ssr:stedsnr" v="560795" />
	</node>
	<node lat="64.98899166765247" lon="13.70773889629599" id="-50293">
		<tag k="name" v="Vulien Golmen-jaevrie - Litlgollomsvatnet" />
		<tag k="name:no" v="Litlgollomsvatnet" />
		<tag k="name:sma" v="Vulien Golmen-jaevrie" />
		<tag k="natural" v="water" />
		<tag k="ssr:stedsnr" v="567908" />
		<tag k="water" v="lake" />
	</node>
	<node lat="64.87304166925028" lon="13.479888896727832" id="-50295">
		<tag k="name" v="Høstmyrbekken" />
		<tag k="name:no" v="Høstmyrbekken" />
		<tag k="ssr:stedsnr" v="591126" />
		<tag k="waterway" v="stream" />
	</node>
	<node lat="64.91265833071485" lon="13.618683335627109" id="-50298">
		<tag k="name" v="Goetiebiels-johke" />
		<tag k="name:sma" v="Goetiebiels-johke" />
		<tag k="ssr:stedsnr" v="591157" />
		<tag k="waterway" v="river" />
	</node>
	<node lat="64.90066388424026" lon="13.648602785337205" id="-50299">
		<tag k="name" v="Midter Lomtjønna" />
		<tag k="name:no" v="Midter Lomtjønna" />
		<tag k="natural" v="water" />
		<tag k="ssr:stedsnr" v="591160" />
	</node>
	<node lat="65.03505833672735" lon="13.700202770958226" id="-50304">
		<tag k="name" v="Stortjønna" />
		<tag k="name:no" v="Stortjønna" />
		<tag k="natural" v="water" />
		<tag k="ssr:stedsnr" v="593606" />
	</node>
	<node lat="64.87096666267185" lon="13.54121665627406" id="-50305">
		<tag k="name" v="Litlbutangen" />
		<tag k="name:no" v="Litlbutangen" />
		<tag k="natural" v="cape" />
		<tag k="ssr:stedsnr" v="593797" />
	</node>
	<node lat="64.9853583301143" lon="13.677555559913259" id="-50306">
		<tag k="name" v="Strokkvika" />
		<tag k="name:no" v="Strokkvika" />
		<tag k="natural" v="bay" />
		<tag k="ssr:stedsnr" v="594552" />
	</node>
	<node lat="64.98228333642211" lon="13.677016658767801" id="-50307">
		<tag k="name" v="Strokktangen" />
		<tag k="name:no" v="Strokktangen" />
		<tag k="natural" v="cape" />
		<tag k="ssr:stedsnr" v="594553" />
	</node>
	<node lat="64.57885277787764" lon="13.222041666486673" id="-50309">
		<tag k="name" v="Bijjie-Gaajsjaevrie - Stor-Gaiseren" />
		<tag k="name:no" v="Stor-Gaiseren" />
		<tag k="name:sma" v="Bijjie-Gaajsjaevrie" />
		<tag k="natural" v="water" />
		<tag k="ssr:stedsnr" v="621311" />
	</node>
	<node lat="64.86684166388555" lon="13.417805549538054" id="-50310">
		<tag k="name" v="Langtjønna" />
		<tag k="name:no" v="Langtjønna" />
		<tag k="natural" v="water" />
		<tag k="ssr:stedsnr" v="621403" />
	</node>
	<node lat="64.94961388555826" lon="13.521130555780513" id="-50312">
		<tag k="name" v="Giedtie-loebpele - Reinkrutjønna" />
		<tag k="name:no" v="Reinkrutjønna" />
		<tag k="name:sma" v="Giedtie-loebpele" />
		<tag k="natural" v="water" />
		<tag k="ssr:stedsnr" v="621474" />
	</node>
	<node lat="64.91958888563954" lon="13.599088887685074" id="-50315">
		<tag k="name" v="Holmtjønna" />
		<tag k="name:no" v="Holmtjønna" />
		<tag k="natural" v="water" />
		<tag k="ssr:stedsnr" v="621504" />
	</node>
	<node lat="64.92112777881657" lon="13.603275005137558" id="-50316">
		<tag k="name" v="Langtjønna" />
		<tag k="name:no" v="Langtjønna" />
		<tag k="natural" v="water" />
		<tag k="ssr:stedsnr" v="621517" />
	</node>
	<node lat="64.90942500357605" lon="13.50988332574972" id="-50317">
		<tag k="name" v="Setervika" />
		<tag k="name:no" v="Setervika" />
		<tag k="natural" v="bay" />
		<tag k="ssr:stedsnr" v="621524" />
	</node>
	<node lat="64.74503055647465" lon="13.180702773090168" id="-50318">
		<tag k="name" v="Skardtjønna" />
		<tag k="name:no" v="Skardtjønna" />
		<tag k="natural" v="water" />
		<tag k="ssr:stedsnr" v="621722" />
	</node>
	<node lat="65.09906111243394" lon="13.686252772233567" id="-50324">
		<tag k="name" v="Gaskejaevrie - Blyvatnet" />
		<tag k="name:no" v="Blyvatnet" />
		<tag k="name:sma" v="Gaskejaevrie" />
		<tag k="natural" v="water" />
		<tag k="ssr:stedsnr" v="627653" />
		<tag k="water" v="lake" />
	</node>
	<node lat="64.66056666529065" lon="13.199522213736754" id="-50326">
		<tag k="name" v="Stallvika" />
		<tag k="name:no" v="Stallvika" />
		<tag k="natural" v="bay" />
		<tag k="ssr:stedsnr" v="707427" />
	</node>
	<node lat="64.88547222072384" lon="13.766183323788146" id="-50327">
		<tag k="name" v="Såmmårfjøsbekken" />
		<tag k="name:no" v="Såmmårfjøsbekken" />
		<tag k="ssr:stedsnr" v="651217" />
		<tag k="waterway" v="stream" />
	</node>
	<node lat="64.9123861068556" lon="13.50621388867908" id="-50328">
		<tag k="name" v="Langtangen" />
		<tag k="name:no" v="Langtangen" />
		<tag k="natural" v="cape" />
		<tag k="ssr:stedsnr" v="652114" />
	</node>
	<node lat="64.81850277477663" lon="13.66997778722129" id="-50332">
		<tag k="name" v="Seterbekken" />
		<tag k="name:no" v="Seterbekken" />
		<tag k="ssr:stedsnr" v="653634" />
		<tag k="waterway" v="stream" />
	</node>
	<node lat="64.76000555275336" lon="13.347969438138923" id="-50333">
		<tag k="name" v="Fiskbekken" />
		<tag k="name:no" v="Fiskbekken" />
		<tag k="ssr:stedsnr" v="654104" />
		<tag k="waterway" v="stream" />
	</node>
	<node lat="64.892588892646" lon="13.966272223483289" id="-50336">
		<tag k="name" v="Svarttjønna" />
		<tag k="name:no" v="Svarttjønna" />
		<tag k="natural" v="water" />
		<tag k="ssr:stedsnr" v="654391" />
		<tag k="water" v="pond" />
	</node>
	<node lat="64.92540277933217" lon="13.913636121697195" id="-50337">
		<tag k="name" v="Gåetie-johke - Finnhusbekken" />
		<tag k="name:no" v="Finnhusbekken" />
		<tag k="name:sma" v="Gåetie-johke" />
		<tag k="ssr:stedsnr" v="654397" />
		<tag k="waterway" v="stream" />
	</node>
	<node lat="64.91780555696351" lon="13.92521110927032" id="-50338">
		<tag k="name" v="Aallije-johke - Arn-Olsabekkan" />
		<tag k="name:no" v="Arn-Olsabekkan" />
		<tag k="name:sma" v="Aallije-johke" />
		<tag k="ssr:stedsnr" v="654401" />
		<tag k="waterway" v="stream" />
	</node>
	<node lat="64.56661388680998" lon="13.158000005175866" id="-50341">
		<tag k="name" v="Mårtjønna" />
		<tag k="name:no" v="Mårtjønna" />
		<tag k="natural" v="water" />
		<tag k="ssr:stedsnr" v="681275" />
	</node>
	<node lat="64.97460000219978" lon="13.623713886751682" id="-50342">
		<tag k="name" v="Kråavvajaevrie - Krokvatnet" />
		<tag k="name:no" v="Krokvatnet" />
		<tag k="name:sma" v="Kråavvajaevrie" />
		<tag k="natural" v="water" />
		<tag k="ssr:stedsnr" v="682058" />
		<tag k="water" v="lake" />
	</node>
	<node lat="64.975700004385" lon="13.500516660021082" id="-50343">
		<tag k="name" v="Goeblenjohke - Midtibekken" />
		<tag k="name:no" v="Midtibekken" />
		<tag k="name:sma" v="Goeblenjohke" />
		<tag k="ssr:stedsnr" v="682060" />
		<tag k="waterway" v="stream" />
	</node>
	<node lat="64.85086111196047" lon="13.433375008196512" id="-50346">
		<tag k="name" v="Geitbergvika" />
		<tag k="name:no" v="Geitbergvika" />
		<tag k="natural" v="bay" />
		<tag k="ssr:stedsnr" v="682427" />
	</node>
	<node lat="64.83190277783865" lon="13.584174994764352" id="-50348">
		<tag k="name" v="Litlsundet" />
		<tag k="name:no" v="Litlsundet" />
		<tag k="natural" v="strait" />
		<tag k="ssr:stedsnr" v="682468" />
	</node>
	<node lat="65.06970833593124" lon="13.71690278169943" id="-50349">
		<tag k="name" v="Bajhkejaevrie - Djupvatnet" />
		<tag k="name:no" v="Djupvatnet" />
		<tag k="name:sma" v="Bajhkejaevrie" />
		<tag k="natural" v="water" />
		<tag k="ssr:stedsnr" v="682703" />
		<tag k="water" v="lake" />
	</node>
	<node lat="64.929438885806" lon="13.637638883653148" id="-50350">
		<tag k="name" v="Ytjønna" />
		<tag k="name:no" v="Ytjønna" />
		<tag k="natural" v="water" />
		<tag k="ssr:stedsnr" v="682517" />
	</node>
	<node lat="64.99683333101741" lon="14.133838884308828" id="-50352">
		<tag k="name" v="Baajmenjohke - Tverrelva" />
		<tag k="name:no" v="Tverrelva" />
		<tag k="name:sma" v="Baajmenjohke" />
		<tag k="ssr:stedsnr" v="682575" />
		<tag k="waterway" v="river" />
	</node>
	<node lat="64.78177500247126" lon="13.54135833819657" id="-50353">
		<tag k="name" v="Finnbursvika" />
		<tag k="name:no" v="Finnbursvika" />
		<tag k="natural" v="bay" />
		<tag k="ssr:stedsnr" v="682604" />
	</node>
	<node lat="64.85027499710014" lon="13.589761102729646" id="-50354">
		<tag k="name" v="Buvriejaevrie - Litlvatnet" />
		<tag k="name:no" v="Litlvatnet" />
		<tag k="name:sma" v="Buvriejaevrie" />
		<tag k="natural" v="water" />
		<tag k="ssr:stedsnr" v="682610" />
		<tag k="water" v="lake" />
	</node>
	<node lat="64.84817500045676" lon="13.351761115622581" id="-50355">
		<tag k="name" v="Såekie-johke - Bjørkvasselva" />
		<tag k="name:no" v="Bjørkvasselva" />
		<tag k="name:sma" v="Såekie-johke" />
		<tag k="ssr:stedsnr" v="682612" />
		<tag k="waterway" v="river" />
	</node>
	<node lat="64.97925833226454" lon="13.575377774116458" id="-50359">
		<tag k="name" v="Kaukartangen" />
		<tag k="name:no" v="Kaukartangen" />
		<tag k="natural" v="bay" />
		<tag k="ssr:stedsnr" v="895135" />
	</node>
	<node lat="64.87638664479894" lon="13.74149963862726" id="-50360">
		<tag k="name" v="Krutangen" />
		<tag k="name:no" v="Krutangen" />
		<tag k="natural" v="cape" />
		<tag k="ssr:stedsnr" v="895151" />
	</node>
	<node lat="64.87976176375736" lon="13.741819853805133" id="-50362">
		<tag k="name" v="Storbuodden" />
		<tag k="name:no" v="Storbuodden" />
		<tag k="natural" v="cape" />
		<tag k="ssr:stedsnr" v="895177" />
	</node>
	<node lat="64.87618312227458" lon="13.741470643953821" id="-50363">
		<tag k="name" v="Giedtie-njuana" />
		<tag k="name:sma" v="Giedtie-njuana" />
		<tag k="natural" v="cape" />
		<tag k="ssr:stedsnr" v="895182" />
	</node>
	<node lat="64.87985000098236" lon="13.750727783412932" id="-50365">
		<tag k="name" v="Sandtangen" />
		<tag k="name:no" v="Sandtangen" />
		<tag k="natural" v="cape" />
		<tag k="ssr:stedsnr" v="895193" />
	</node>
	<node lat="64.87621944631081" lon="13.858058330854007" id="-50367">
		<tag k="name" v="Nordtjønna" />
		<tag k="name:no" v="Nordtjønna" />
		<tag k="natural" v="water" />
		<tag k="ssr:stedsnr" v="895227" />
	</node>
	<node lat="64.6589555543072" lon="13.21100833894868" id="-50368">
		<tag k="name" v="Litlholmen" />
		<tag k="name:no" v="Litlholmen" />
		<tag k="place" v="islet" />
		<tag k="ssr:stedsnr" v="895230" />
	</node>
	<node lat="64.88314166787495" lon="13.933633341579888" id="-50370">
		<tag k="name" v="Onne-sååle" />
		<tag k="name:sma" v="Onne-sååle" />
		<tag k="place" v="islet" />
		<tag k="ssr:stedsnr" v="895271" />
	</node>
	<node lat="64.94059999784339" lon="13.614591671200403" id="-50373">
		<tag k="name" v="Jillie Skænnjan-johke" />
		<tag k="name:sma" v="Jillie Skænnjan-johke" />
		<tag k="ssr:stedsnr" v="895102" />
		<tag k="waterway" v="stream" />
	</node>
	<node lat="64.9808138931732" lon="13.569511103800957" id="-50374">
		<tag k="name" v="Holmstakklettet" />
		<tag k="name:no" v="Holmstakklettet" />
		<tag k="natural" v="cape" />
		<tag k="ssr:stedsnr" v="895106" />
	</node>
	<node lat="64.66734721929518" lon="13.197708328030618" id="-50377">
		<tag k="name" v="Setertangen" />
		<tag k="name:no" v="Setertangen" />
		<tag k="natural" v="cape" />
		<tag k="ssr:stedsnr" v="896251" />
	</node>
	<node lat="64.74156944122424" lon="13.319225001054415" id="-50384">
		<tag k="name" v="Litlvikbekken" />
		<tag k="name:no" v="Litlvikbekken" />
		<tag k="ssr:stedsnr" v="897100" />
		<tag k="waterway" v="stream" />
	</node>
	<node lat="64.81164722510651" lon="13.60108888780745" id="-50385">
		<tag k="name" v="Høgda" />
		<tag k="name:no" v="Høgda" />
		<tag k="natural" v="cape" />
		<tag k="ssr:stedsnr" v="897738" />
	</node>
	<node lat="64.83642221988643" lon="13.613791658981343" id="-50386">
		<tag k="name" v="Styggbekken" />
		<tag k="name:no" v="Styggbekken" />
		<tag k="ssr:stedsnr" v="897832" />
		<tag k="waterway" v="stream" />
	</node>
	<node lat="64.73201944486914" lon="13.065094448287272" id="-50387">
		<tag k="name" v="Stortjønnelva" />
		<tag k="name:no" v="Stortjønnelva" />
		<tag k="ssr:stedsnr" v="897836" />
		<tag k="waterway" v="stream" />
	</node>
	<node lat="65.04728055854996" lon="13.530686112289986" id="-50388">
		<tag k="name" v="Småtjønnin" />
		<tag k="name:no" v="Småtjønnin" />
		<tag k="natural" v="water" />
		<tag k="ssr:stedsnr" v="897918" />
	</node>
	<node lat="65.03264721961203" lon="13.620038884868888" id="-50389">
		<tag k="name" v="Langreggeltjønnin" />
		<tag k="name:no" v="Langreggeltjønnin" />
		<tag k="natural" v="water" />
		<tag k="ssr:stedsnr" v="897922" />
	</node>
	<node lat="65.0403527820534" lon="13.616886102485315" id="-50390">
		<tag k="name" v="Gåetie-tjonne - Gammeltjønna" />
		<tag k="name:no" v="Gammeltjønna" />
		<tag k="name:sma" v="Gåetie-tjonne" />
		<tag k="natural" v="water" />
		<tag k="ssr:stedsnr" v="897925" />
	</node>
	<node lat="64.86072777579047" lon="13.397594450802726" id="-50394">
		<tag k="name" v="Rønningbekken" />
		<tag k="name:no" v="Rønningbekken" />
		<tag k="ssr:stedsnr" v="713088" />
		<tag k="waterway" v="stream" />
	</node>
	<node lat="64.8462111119906" lon="13.384874994448316" id="-50395">
		<tag k="name" v="Seterålen" />
		<tag k="name:no" v="Seterålen" />
		<tag k="ssr:stedsnr" v="713091" />
		<tag k="waterway" v="stream" />
	</node>
	<node lat="64.86455277527413" lon="13.87421110774942" id="-50397">
		<tag k="name" v="Ovre-johke - Orvasselva" />
		<tag k="name:no" v="Orvasselva" />
		<tag k="name:sma" v="Ovre-johke" />
		<tag k="ssr:stedsnr" v="713230" />
		<tag k="waterway" v="river" />
	</node>
	<node lat="64.88176388605423" lon="13.732213887944614" id="-50402">
		<tag k="name" v="Takrombekken" />
		<tag k="name:no" v="Takrombekken" />
		<tag k="ssr:stedsnr" v="713181" />
		<tag k="waterway" v="stream" />
	</node>
	<node lat="65.01671388877715" lon="13.829308330490795" id="-50404">
		<tag k="name" v="Litltjønna" />
		<tag k="name:no" v="Litltjønna" />
		<tag k="natural" v="water" />
		<tag k="ssr:stedsnr" v="714405" />
	</node>
	<node lat="64.81123055333252" lon="13.62226666622833" id="-50407">
		<tag k="name" v="Nyvikeidet" />
		<tag k="name:no" v="Nyvikeidet" />
		<tag k="place" v="locality" />
		<tag k="ssr:stedsnr" v="714590" />
	</node>
	<node lat="64.9636444420599" lon="13.521530560720215" id="-50408">
		<tag k="name" v="Merkesbekken" />
		<tag k="name:no" v="Merkesbekken" />
		<tag k="ssr:stedsnr" v="714888" />
		<tag k="waterway" v="stream" />
	</node>
	<node lat="64.89330833535551" lon="13.992558326302143" id="-50409">
		<tag k="name" v="Jensplutten" />
		<tag k="name:no" v="Jensplutten" />
		<tag k="natural" v="water" />
		<tag k="ssr:stedsnr" v="715405" />
		<tag k="water" v="pond" />
	</node>
	<node lat="64.90667777956772" lon="13.504272228750473" id="-50410">
		<tag k="name" v="Seterneset" />
		<tag k="name:no" v="Seterneset" />
		<tag k="natural" v="cape" />
		<tag k="ssr:stedsnr" v="715820" />
	</node>
	<node lat="65.03288611304156" lon="13.493486105270334" id="-50412">
		<tag k="name" v="Elibekken" />
		<tag k="name:no" v="Elibekken" />
		<tag k="ssr:stedsnr" v="715936" />
		<tag k="waterway" v="stream" />
	</node>
	<node lat="64.9706027788412" lon="13.67155277057731" id="-50413">
		<tag k="name" v="Golmesjaevrieh - Storgollomsvatnet" />
		<tag k="name:no" v="Storgollomsvatnet" />
		<tag k="name:sma" v="Golmesjaevrieh" />
		<tag k="natural" v="water" />
		<tag k="ssr:stedsnr" v="742032" />
		<tag k="water" v="lake" />
	</node>
	<node lat="64.98005277851856" lon="13.579852780900508" id="-50414">
		<tag k="name" v="Båaktjasloebpele - Heimvatnet" />
		<tag k="name:no" v="Heimvatnet" />
		<tag k="name:sma" v="Båaktjasloebpele" />
		<tag k="natural" v="water" />
		<tag k="ssr:stedsnr" v="742036" />
		<tag k="water" v="lake" />
	</node>
	<node lat="64.74298055689863" lon="13.225141662236783" id="-50415">
		<tag k="name" v="Mohkelejohke - Mykkelvikelva" />
		<tag k="name:no" v="Mykkelvikelva" />
		<tag k="name:sma" v="Mohkelejohke" />
		<tag k="ssr:stedsnr" v="742237" />
		<tag k="waterway" v="river" />
	</node>
	<node lat="64.88433888716382" lon="13.945244436830613" id="-50423">
		<tag k="name" v="Jillie-Vuallerejaevrie - Vester-Vallervatnet" />
		<tag k="name:no" v="Vester-Vallervatnet" />
		<tag k="name:sma" v="Jillie-Vuallerejaevrie" />
		<tag k="natural" v="water" />
		<tag k="ssr:stedsnr" v="743311" />
	</node>
	<node lat="64.7292194443948" lon="13.343011109360464" id="-50424">
		<tag k="name" v="Skavika" />
		<tag k="name:no" v="Skavika" />
		<tag k="natural" v="bay" />
		<tag k="ssr:stedsnr" v="743313" />
	</node>
	<node lat="64.69269166942979" lon="13.294830564433118" id="-50427">
		<tag k="name" v="Litlfjellholmen" />
		<tag k="name:no" v="Litlfjellholmen" />
		<tag k="place" v="islet" />
		<tag k="ssr:stedsnr" v="743503" />
	</node>
	<node lat="64.90035277926214" lon="13.535877788319748" id="-50428">
		<tag k="name" v="Båthusbekken" />
		<tag k="name:no" v="Båthusbekken" />
		<tag k="ssr:stedsnr" v="743490" />
		<tag k="waterway" v="stream" />
	</node>
	<node lat="64.90936667079939" lon="13.56064444901436" id="-50432">
		<tag k="name" v="Sperregen-njuana" />
		<tag k="name:sma" v="Sperregen-njuana" />
		<tag k="natural" v="cape" />
		<tag k="ssr:stedsnr" v="773206" />
	</node>
	<node lat="64.98688333038234" lon="13.578783328411372" id="-50437">
		<tag k="name" v="Plutten" />
		<tag k="name:no" v="Plutten" />
		<tag k="natural" v="water" />
		<tag k="ssr:stedsnr" v="774119" />
	</node>
	<node lat="64.88366666238278" lon="13.903930559943362" id="-50438">
		<tag k="name" v="Våellere-johke" />
		<tag k="name:sma" v="Våellere-johke" />
		<tag k="ssr:stedsnr" v="774162" />
		<tag k="waterway" v="river" />
	</node>
	<node lat="64.76401389119604" lon="13.430291664734838" id="-50446">
		<tag k="name" v="Stoerre-njuana - Tangen" />
		<tag k="name:no" v="Tangen" />
		<tag k="name:sma" v="Stoerre-njuana" />
		<tag k="natural" v="cape" />
		<tag k="ssr:stedsnr" v="775118" />
	</node>
	<node lat="64.70326944148569" lon="13.162269435745893" id="-50447">
		<tag k="name" v="Langvassbekken" />
		<tag k="name:no" v="Langvassbekken" />
		<tag k="ssr:stedsnr" v="776113" />
		<tag k="waterway" v="stream" />
	</node>
	<node lat="64.88153931370158" lon="13.368884324910239" id="-50452">
		<tag k="name" v="Jillie Tjierme-jaevrie - Tjerma" />
		<tag k="name:no" v="Tjerma" />
		<tag k="name:sma" v="Jillie Tjierme-jaevrie" />
		<tag k="natural" v="water" />
		<tag k="ssr:stedsnr" v="776164" />
	</node>
	<node lat="65.04081110679384" lon="13.537025000558828" id="-50454">
		<tag k="name" v="Jillie Kaajien-jaevrie - Vester Karivatnet" />
		<tag k="name:no" v="Vester Karivatnet" />
		<tag k="name:sma" v="Jillie Kaajien-jaevrie" />
		<tag k="natural" v="water" />
		<tag k="ssr:stedsnr" v="776944" />
		<tag k="water" v="lake" />
	</node>
	<node lat="64.67075000301553" lon="13.188002770464138" id="-50457">
		<tag k="name" v="Storhusvika" />
		<tag k="name:no" v="Storhusvika" />
		<tag k="natural" v="bay" />
		<tag k="ssr:stedsnr" v="803370" />
	</node>
	<node lat="64.74034722450396" lon="13.678747220291921" id="-50460">
		<tag k="name" v="Limingen - Lyjmede" />
		<tag k="name:no" v="Limingen" />
		<tag k="name:sma" v="Lyjmede" />
		<tag k="natural" v="water" />
		<tag k="ssr:stedsnr" v="803279" />
		<tag k="water" v="lake" />
	</node>
	<node lat="64.87968332910002" lon="13.874305550471206" id="-50462">
		<tag k="name" v="Raentserenjohke - Renselelva" />
		<tag k="name:no" v="Renselelva" />
		<tag k="name:sma" v="Raentserenjohke" />
		<tag k="ssr:stedsnr" v="803509" />
		<tag k="waterway" v="river" />
	</node>
	<node lat="64.83765000052195" lon="13.572924993356967" id="-50463">
		<tag k="name" v="Svartvika" />
		<tag k="name:no" v="Svartvika" />
		<tag k="natural" v="bay" />
		<tag k="ssr:stedsnr" v="803565" />
	</node>
	<node lat="64.87743889139456" lon="13.537483329012549" id="-50464">
		<tag k="name" v="Sundet" />
		<tag k="name:no" v="Sundet" />
		<tag k="natural" v="strait" />
		<tag k="ssr:stedsnr" v="803567" />
	</node>
	<node lat="64.77182499721373" lon="13.438808323737675" id="-50471">
		<tag k="name" v="Setertjønna" />
		<tag k="name:no" v="Setertjønna" />
		<tag k="natural" v="water" />
		<tag k="ssr:stedsnr" v="804363" />
	</node>
	<node lat="64.59498611267296" lon="13.200669441344813" id="-50472">
		<tag k="name" v="Kvilvatnet" />
		<tag k="name:no" v="Kvilvatnet" />
		<tag k="natural" v="water" />
		<tag k="ssr:stedsnr" v="804372" />
	</node>
	<node lat="64.89897499989335" lon="13.497816662224492" id="-50473">
		<tag k="name" v="Ragnhildtjønna" />
		<tag k="name:no" v="Ragnhildtjønna" />
		<tag k="natural" v="water" />
		<tag k="ssr:stedsnr" v="804505" />
	</node>
	<node lat="64.90188610969808" lon="13.711916669652735" id="-50474">
		<tag k="name" v="Storbekktjønnin" />
		<tag k="name:no" v="Storbekktjønnin" />
		<tag k="natural" v="water" />
		<tag k="old_name:no" v="Storbekktjønna;Storbekktjørna" />
		<tag k="ssr:stedsnr" v="804510" />
	</node>
	<node lat="64.68129721835139" lon="13.345405560628892" id="-50475">
		<tag k="name" v="Nedstflyen" />
		<tag k="name:no" v="Nedstflyen" />
		<tag k="place" v="locality" />
		<tag k="ssr:stedsnr" v="804511" />
	</node>
	<node lat="65.00823611230754" lon="13.523499994394648" id="-50477">
		<tag k="name" v="Grønmyrvika" />
		<tag k="name:no" v="Grønmyrvika" />
		<tag k="natural" v="bay" />
		<tag k="ssr:stedsnr" v="804853" />
	</node>
	<node lat="64.99547500362375" lon="13.571577786617501" id="-50479">
		<tag k="name" v="Sundtangen" />
		<tag k="name:no" v="Sundtangen" />
		<tag k="natural" v="cape" />
		<tag k="ssr:stedsnr" v="924001" />
	</node>
	<node lat="64.9900305537518" lon="13.583063880432274" id="-50480">
		<tag k="name" v="Naustervika" />
		<tag k="name:no" v="Naustervika" />
		<tag k="natural" v="bay" />
		<tag k="ssr:stedsnr" v="924048" />
	</node>
	<node lat="64.8994388915292" lon="13.600874994724101" id="-50485">
		<tag k="name" v="Vealma" />
		<tag k="name:sma" v="Vealma" />
		<tag k="natural" v="water" />
		<tag k="ssr:stedsnr" v="835179" />
		<tag k="water" v="lake" />
	</node>
	<node lat="64.57465833009435" lon="13.121211115351022" id="-50490">
		<tag k="name" v="Trollnasvatnet" />
		<tag k="name:no" v="Trollnasvatnet" />
		<tag k="natural" v="water" />
		<tag k="ssr:stedsnr" v="924262" />
	</node>
	<node lat="64.90128055977209" lon="13.9256250057696" id="-50496">
		<tag k="name" v="Luspie" />
		<tag k="name:sma" v="Luspie" />
		<tag k="natural" v="bay" />
		<tag k="ssr:stedsnr" v="837389" />
	</node>
	<node lat="64.98132500394402" lon="13.686675010497781" id="-50500">
		<tag k="name" v="Strokktangen" />
		<tag k="name:no" v="Strokktangen" />
		<tag k="natural" v="cape" />
		<tag k="ssr:stedsnr" v="925064" />
	</node>
	<node lat="64.98013610833289" lon="13.634950009450884" id="-50501">
		<tag k="name" v="Oletjønna" />
		<tag k="name:no" v="Oletjønna" />
		<tag k="natural" v="water" />
		<tag k="ssr:stedsnr" v="925066" />
	</node>
	<node lat="64.7422805517814" lon="13.36440832929854" id="-50503">
		<tag k="name" v="Skanken" />
		<tag k="name:no" v="Skanken" />
		<tag k="place" v="islet" />
		<tag k="ssr:stedsnr" v="925295" />
	</node>
	<node lat="64.62000833799411" lon="13.18648332392518" id="-50505">
		<tag k="name" v="Trolltjønna" />
		<tag k="name:no" v="Trolltjønna" />
		<tag k="natural" v="water" />
		<tag k="ssr:stedsnr" v="925378" />
	</node>
	<node lat="64.7851305531224" lon="13.438891673898189" id="-50506">
		<tag k="name" v="Gamseterplutten" />
		<tag k="name:no" v="Gamseterplutten" />
		<tag k="natural" v="water" />
		<tag k="ssr:stedsnr" v="925382" />
	</node>
	<node lat="64.77519166453419" lon="13.441244450026938" id="-50507">
		<tag k="name" v="Setertjønnbekken" />
		<tag k="name:no" v="Setertjønnbekken" />
		<tag k="ssr:stedsnr" v="925385" />
		<tag k="waterway" v="stream" />
	</node>
	<node lat="64.97822777483479" lon="13.756744435833369" id="-50508">
		<tag k="name" v="Ner Sultifiskflyen" />
		<tag k="name:no" v="Ner Sultifiskflyen" />
		<tag k="natural" v="water" />
		<tag k="ssr:stedsnr" v="925401" />
	</node>
	<node lat="64.88900000086687" lon="13.39110555490151" id="-50513">
		<tag k="name" v="Birjen-låemie - Beretholet" />
		<tag k="name:no" v="Beretholet" />
		<tag k="name:sma" v="Birjen-låemie" />
		<tag k="natural" v="water" />
		<tag k="ssr:stedsnr" v="925529" />
		<tag k="water" v="pond" />
	</node>
	<node lat="64.68943055656607" lon="13.326463885027291" id="-50515">
		<tag k="name" v="Tjurudalstangen" />
		<tag k="name:no" v="Tjurudalstangen" />
		<tag k="natural" v="cape" />
		<tag k="ssr:stedsnr" v="925539" />
	</node>
	<node lat="64.88101389049945" lon="13.509888887109458" id="-50517">
		<tag k="name" v="Svartvika" />
		<tag k="name:no" v="Svartvika" />
		<tag k="natural" v="bay" />
		<tag k="ssr:stedsnr" v="925590" />
	</node>
	<node lat="65.01137500058027" lon="13.64312500422852" id="-50518">
		<tag k="name" v="Storbekken" />
		<tag k="name:no" v="Storbekken" />
		<tag k="ssr:stedsnr" v="925801" />
		<tag k="waterway" v="stream" />
	</node>
	<node lat="65.02989166751769" lon="13.512877772866918" id="-50519">
		<tag k="fixme" v="multiple name tags, choose one and add the other to alt_name" />
		<tag k="name" v="Jarpesovvene;Gaskesovvene - Langflyen" />
		<tag k="name:no" v="Langflyen" />
		<tag k="name:sma" v="Jarpesovvene;Gaskesovvene" />
		<tag k="natural" v="water" />
		<tag k="ssr:stedsnr" v="925900" />
	</node>
	<node lat="64.46250000176778" lon="11.741666676112082" id="-50520">
		<tag k="name" v="Namsen - Nååmesje" />
		<tag k="name:no" v="Namsen" />
		<tag k="name:sma" v="Nååmesje" />
		<tag k="ssr:stedsnr" v="863214" />
		<tag k="waterway" v="river" />
	</node>
	<node lat="64.62752778047965" lon="13.136880565869575" id="-50522">
		<tag k="name" v="Damtjønna" />
		<tag k="name:no" v="Damtjønna" />
		<tag k="natural" v="water" />
		<tag k="ssr:stedsnr" v="864344" />
	</node>
	<node lat="64.85324722238832" lon="13.316822224201596" id="-50525">
		<tag k="name" v="Såekiesjaevrie - Bjørkvatnet" />
		<tag k="name:no" v="Bjørkvatnet" />
		<tag k="name:sma" v="Såekiesjaevrie" />
		<tag k="natural" v="water" />
		<tag k="ssr:stedsnr" v="870412" />
		<tag k="water" v="lake" />
	</node>
	<node lat="64.9277000013469" lon="13.732233329245735" id="-50527">
		<tag k="name" v="Bielnientjonne" />
		<tag k="name:sma" v="Bielnientjonne" />
		<tag k="natural" v="water" />
		<tag k="ssr:stedsnr" v="931961" />
	</node>
	<node lat="64.8186111070583" lon="13.580286109928625" id="-50528">
		<tag k="name" v="Orrevijhken njuana - Nyviktangen" />
		<tag k="name:no" v="Nyviktangen" />
		<tag k="name:sma" v="Orrevijhken njuana" />
		<tag k="natural" v="cape" />
		<tag k="ssr:stedsnr" v="934361" />
	</node>
	<node lat="64.97881388540348" lon="13.573211120920304" id="-50529">
		<tag k="name" v="Rundvika" />
		<tag k="name:no" v="Rundvika" />
		<tag k="natural" v="bay" />
		<tag k="ssr:stedsnr" v="895126" />
	</node>
	<node lat="64.87033611410688" lon="13.880575010015459" id="-50530">
		<tag k="name" v="Auster Sørtjønna" />
		<tag k="name:no" v="Auster Sørtjønna" />
		<tag k="natural" v="water" />
		<tag k="ssr:stedsnr" v="896214" />
	</node>
	<node lat="64.87251666413711" lon="13.406691665919702" id="-50537">
		<tag k="name" v="Litlkroktjønna" />
		<tag k="name:no" v="Litlkroktjønna" />
		<tag k="natural" v="water" />
		<tag k="ssr:stedsnr" v="924341" />
	</node>
	<node lat="65.06876389260013" lon="13.817327788541863" id="-50538">
		<tag k="name" v="Viermejohke - Virmaelva" />
		<tag k="name:no" v="Virmaelva" />
		<tag k="name:sma" v="Viermejohke" />
		<tag k="ssr:stedsnr" v="924806" />
		<tag k="waterway" v="river" />
	</node>
	<node lat="64.8527388870541" lon="13.77617499873304" id="-50539">
		<tag k="name" v="Kroktjønna" />
		<tag k="name:no" v="Kroktjønna" />
		<tag k="natural" v="water" />
		<tag k="ssr:stedsnr" v="925305" />
	</node>
	<node lat="64.87497777622237" lon="13.80824722455575" id="-50540">
		<tag k="name" v="Austersundet" />
		<tag k="name:no" v="Austersundet" />
		<tag k="natural" v="strait" />
		<tag k="ssr:stedsnr" v="925317" />
	</node>
	<node lat="64.98103055482729" lon="13.720649992966258" id="-50545">
		<tag k="name" v="Fisklaustjønna" />
		<tag k="name:no" v="Fisklaustjønna" />
		<tag k="natural" v="water" />
		<tag k="ssr:stedsnr" v="925411" />
	</node>
	<node lat="64.84398055853073" lon="13.566652781115408" id="-50546">
		<tag k="name" v="Okstjønna" />
		<tag k="name:no" v="Okstjønna" />
		<tag k="natural" v="water" />
		<tag k="ssr:stedsnr" v="925440" />
	</node>
	<node lat="64.94858888599286" lon="13.536066671645543" id="-50548">
		<tag k="name" v="Nybekktjønna" />
		<tag k="name:no" v="Nybekktjønna" />
		<tag k="natural" v="water" />
		<tag k="ssr:stedsnr" v="925487" />
	</node>
	<node lat="64.66964166701746" lon="13.236530556296126" id="-50549">
		<tag k="name" v="Vestre Halvmiltangen" />
		<tag k="name:no" v="Vestre Halvmiltangen" />
		<tag k="natural" v="cape" />
		<tag k="ssr:stedsnr" v="925490" />
	</node>
	<node lat="64.74137499781263" lon="13.109366674398206" id="-50552">
		<tag k="name" v="Stortjønna" />
		<tag k="name:no" v="Stortjønna" />
		<tag k="natural" v="water" />
		<tag k="ssr:stedsnr" v="925728" />
	</node>
	<node lat="65.00797777351114" lon="13.627991663737712" id="-50553">
		<tag k="name" v="Sandvika" />
		<tag k="name:no" v="Sandvika" />
		<tag k="natural" v="bay" />
		<tag k="ssr:stedsnr" v="925870" />
	</node>
	<node lat="64.88748333606084" lon="13.974174998226664" id="-50561">
		<tag k="name" v="Sagbekken" />
		<tag k="name:no" v="Sagbekken" />
		<tag k="ssr:stedsnr" v="955296" />
		<tag k="waterway" v="stream" />
	</node>
	<node lat="64.96242221957682" lon="13.54719443362361" id="-50562">
		<tag k="name" v="Noamesjen-loekte" />
		<tag k="name:sma" v="Noamesjen-loekte" />
		<tag k="natural" v="bay" />
		<tag k="ssr:stedsnr" v="956105" />
	</node>
	<node lat="64.88295277504866" lon="13.924386112674872" id="-50566">
		<tag k="name" v="Vallervassflyan" />
		<tag k="name:no" v="Vallervassflyan" />
		<tag k="natural" v="water" />
		<tag k="ssr:stedsnr" v="956265" />
		<tag k="water" v="lake" />
	</node>
	<node lat="65.00006111013485" lon="13.770147232367057" id="-50568">
		<tag k="name" v="Guhkies-njuana" />
		<tag k="name:sma" v="Guhkies-njuana" />
		<tag k="natural" v="cape" />
		<tag k="ssr:stedsnr" v="957440" />
	</node>
	<node lat="64.73309721760805" lon="13.393430562716183" id="-50574">
		<tag k="name" v="Brattbekken" />
		<tag k="name:no" v="Brattbekken" />
		<tag k="ssr:stedsnr" v="958144" />
		<tag k="waterway" v="stream" />
	</node>
	<node lat="64.927783335267" lon="13.909175006369711" id="-50575">
		<tag k="name" v="Rorrehke-johke - Rurukelva" />
		<tag k="name:no" v="Rurukelva" />
		<tag k="name:sma" v="Rorrehke-johke" />
		<tag k="ssr:stedsnr" v="958408" />
		<tag k="waterway" v="stream" />
	</node>
	<node lat="64.7409361129006" lon="13.314436121055726" id="-50577">
		<tag k="name" v="Sagbekken" />
		<tag k="name:no" v="Sagbekken" />
		<tag k="ssr:stedsnr" v="229093" />
		<tag k="waterway" v="stream" />
	</node>
	<node lat="64.76891388680227" lon="13.414924995511287" id="-50578">
		<tag k="name" v="Røyrvikmyra" />
		<tag k="name:no" v="Røyrvikmyra" />
		<tag k="natural" v="bay" />
		<tag k="ssr:stedsnr" v="229141" />
	</node>
	<node lat="64.7832972250622" lon="13.380227774254825" id="-50579">
		<tag k="name" v="Sandtangen" />
		<tag k="name:no" v="Sandtangen" />
		<tag k="natural" v="cape" />
		<tag k="ssr:stedsnr" v="229143" />
	</node>
	<node lat="64.75501389125375" lon="13.353050005606363" id="-50580">
		<tag k="name" v="Sagbekken" />
		<tag k="name:no" v="Sagbekken" />
		<tag k="ssr:stedsnr" v="229145" />
		<tag k="waterway" v="stream" />
	</node>
	<node lat="64.52452500194953" lon="13.13311111153609" id="-50582">
		<tag k="name" v="Bergtjønnin, Austre" />
		<tag k="name:no" v="Bergtjønnin, Austre" />
		<tag k="natural" v="water" />
		<tag k="ssr:stedsnr" v="14235" />
	</node>
	<node lat="64.92164166704943" lon="13.461802778548623" id="-50583">
		<tag k="name" v="Saaksenjaevrie - Saksvatnet" />
		<tag k="name:no" v="Saksvatnet" />
		<tag k="name:sma" v="Saaksenjaevrie" />
		<tag k="natural" v="water" />
		<tag k="ssr:stedsnr" v="14387" />
		<tag k="water" v="lake" />
	</node>
	<node lat="64.92741667033101" lon="13.418450008243026" id="-50584">
		<tag k="name" v="Sealmanjohke - Skardselva" />
		<tag k="name:no" v="Skardselva" />
		<tag k="name:sma" v="Sealmanjohke" />
		<tag k="ssr:stedsnr" v="14485" />
		<tag k="waterway" v="river" />
	</node>
	<node lat="64.82320278102843" lon="13.733116667586431" id="-50585">
		<tag k="name" v="Guertiesjaevrie - Borvatnet" />
		<tag k="name:no" v="Borvatnet" />
		<tag k="name:sma" v="Guertiesjaevrie" />
		<tag k="natural" v="water" />
		<tag k="ssr:stedsnr" v="15327" />
		<tag k="water" v="lake" />
	</node>
	<node lat="64.79944166247063" lon="13.660655548462247" id="-50586">
		<tag k="name" v="Arndalsbekken" />
		<tag k="name:no" v="Arndalsbekken" />
		<tag k="ssr:stedsnr" v="15346" />
		<tag k="waterway" v="stream" />
	</node>
	<node lat="64.79657499620654" lon="13.623252774303854" id="-50587">
		<tag k="name" v="Slåttvika" />
		<tag k="name:no" v="Slåttvika" />
		<tag k="natural" v="bay" />
		<tag k="ssr:stedsnr" v="15348" />
	</node>
	<node lat="64.7796333335348" lon="13.292886119242189" id="-50588">
		<tag k="name" v="Storbekktjønna" />
		<tag k="name:no" v="Storbekktjønna" />
		<tag k="natural" v="water" />
		<tag k="ssr:stedsnr" v="15353" />
	</node>
	<node lat="64.9383944433636" lon="13.924397223892122" id="-50591">
		<tag k="name" v="Rorkejaevrie - Rurukvatnet" />
		<tag k="name:no" v="Rurukvatnet" />
		<tag k="name:sma" v="Rorkejaevrie" />
		<tag k="natural" v="water" />
		<tag k="ssr:stedsnr" v="14289" />
	</node>
	<node lat="65.03633610826469" lon="13.776647231549546" id="-50593">
		<tag k="name" v="Reirtangen" />
		<tag k="name:no" v="Reirtangen" />
		<tag k="natural" v="cape" />
		<tag k="ssr:stedsnr" v="14782" />
	</node>
	<node lat="65.03272499990767" lon="13.886591671885103" id="-50594">
		<tag k="name" v="Lohterentjonne" />
		<tag k="name:sma" v="Lohterentjonne" />
		<tag k="natural" v="water" />
		<tag k="ssr:stedsnr" v="14783" />
	</node>
	<node lat="64.734755559585" lon="13.353411107228219" id="-50595">
		<tag k="name" v="Køyvika" />
		<tag k="name:no" v="Køyvika" />
		<tag k="natural" v="bay" />
		<tag k="ssr:stedsnr" v="15284" />
	</node>
	<node lat="64.74158888903226" lon="13.328841660273422" id="-50596">
		<tag k="name" v="Litlvika" />
		<tag k="name:no" v="Litlvika" />
		<tag k="natural" v="bay" />
		<tag k="ssr:stedsnr" v="15285" />
	</node>
	<node lat="64.85465277988241" lon="13.759161113128112" id="-50597">
		<tag k="name" v="Stortjønna" />
		<tag k="name:no" v="Stortjønna" />
		<tag k="natural" v="water" />
		<tag k="ssr:stedsnr" v="15297" />
	</node>
	<node lat="64.91664999607278" lon="13.599580555089624" id="-50603">
		<tag k="name" v="Kroktjønna" />
		<tag k="name:no" v="Kroktjønna" />
		<tag k="natural" v="water" />
		<tag k="ssr:stedsnr" v="15492" />
	</node>
	<node lat="64.69689999603494" lon="13.371144446301939" id="-50604">
		<tag k="name" v="Jervvika" />
		<tag k="name:no" v="Jervvika" />
		<tag k="natural" v="bay" />
		<tag k="ssr:stedsnr" v="15500" />
	</node>
	<node lat="64.67908055577055" lon="13.23595277054067" id="-50605">
		<tag k="name" v="Slåttmyrtangen" />
		<tag k="name:no" v="Slåttmyrtangen" />
		<tag k="natural" v="cape" />
		<tag k="ssr:stedsnr" v="15529" />
	</node>
	<node lat="65.0025499973155" lon="13.670777771265024" id="-50606">
		<tag k="name" v="Tjåelmie - Storsundet" />
		<tag k="name:no" v="Storsundet" />
		<tag k="name:sma" v="Tjåelmie" />
		<tag k="natural" v="strait" />
		<tag k="ssr:stedsnr" v="20909" />
	</node>
	<node lat="64.97428333577956" lon="13.613516664914266" id="-50611">
		<tag k="name" v="Harratangen" />
		<tag k="name:no" v="Harratangen" />
		<tag k="natural" v="cape" />
		<tag k="ssr:stedsnr" v="44132" />
	</node>
	<node lat="64.93205277973443" lon="13.567419450753391" id="-50616">
		<tag k="name" v="Ohtje-jaevrie" />
		<tag k="name:sma" v="Ohtje-jaevrie" />
		<tag k="natural" v="water" />
		<tag k="ssr:stedsnr" v="46101" />
		<tag k="water" v="lake" />
	</node>
	<node lat="64.88301666511596" lon="13.589733328796349" id="-50620">
		<tag k="name" v="Tjønnbekken" />
		<tag k="name:no" v="Tjønnbekken" />
		<tag k="ssr:stedsnr" v="46143" />
		<tag k="waterway" v="stream" />
	</node>
	<node lat="64.89027222384831" lon="13.957933344026568" id="-50623">
		<tag k="name" v="Stortjønna" />
		<tag k="name:no" v="Stortjønna" />
		<tag k="natural" v="water" />
		<tag k="ssr:stedsnr" v="46263" />
	</node>
	<node lat="64.9996361103564" lon="13.822369437451378" id="-50624">
		<tag k="name" v="Auster Storbekken" />
		<tag k="name:no" v="Auster Storbekken" />
		<tag k="ssr:stedsnr" v="47451" />
		<tag k="waterway" v="stream" />
	</node>
	<node lat="64.83196944674872" lon="13.618063890775936" id="-50626">
		<tag k="name" v="Kvennbekken" />
		<tag k="name:no" v="Kvennbekken" />
		<tag k="ssr:stedsnr" v="47851" />
		<tag k="waterway" v="stream" />
	</node>
	<node lat="64.99273055331372" lon="13.671727770517474" id="-50627">
		<tag k="name" v="Midtiflyen" />
		<tag k="name:no" v="Midtiflyen" />
		<tag k="natural" v="water" />
		<tag k="ssr:stedsnr" v="48529" />
		<tag k="water" v="lake" />
	</node>
	<node lat="64.88510612289461" lon="13.386422390536586" id="-50632">
		<tag k="name" v="Luvlie Tjierme-jaevrie - Tjerma" />
		<tag k="name:no" v="Tjerma" />
		<tag k="name:sma" v="Luvlie Tjierme-jaevrie" />
		<tag k="natural" v="water" />
		<tag k="ssr:stedsnr" v="48148" />
	</node>
	<node lat="64.98935555837234" lon="13.58694999376186" id="-50637">
		<tag k="name" v="Hansvika" />
		<tag k="name:no" v="Hansvika" />
		<tag k="natural" v="bay" />
		<tag k="ssr:stedsnr" v="75043" />
	</node>
	<node lat="64.82481666868715" lon="13.576677769668443" id="-50641">
		<tag k="name" v="Orrholmen" />
		<tag k="name:no" v="Orrholmen" />
		<tag k="place" v="islet" />
		<tag k="ssr:stedsnr" v="75444" />
	</node>
	<node lat="64.79643888549005" lon="13.59849166142885" id="-50645">
		<tag k="name" v="Toskholmen" />
		<tag k="name:no" v="Toskholmen" />
		<tag k="place" v="islet" />
		<tag k="ssr:stedsnr" v="75327" />
	</node>
	<node lat="64.9139138865359" lon="13.881569446540148" id="-50649">
		<tag k="name" v="Buhtjeme-njuana - Krutangen" />
		<tag k="name:no" v="Krutangen" />
		<tag k="name:sma" v="Buhtjeme-njuana" />
		<tag k="natural" v="cape" />
		<tag k="ssr:stedsnr" v="75263" />
	</node>
	<node lat="64.72125277378296" lon="13.150119450392385" id="-50650">
		<tag k="name" v="Storfisktjønna" />
		<tag k="name:no" v="Storfisktjønna" />
		<tag k="natural" v="water" />
		<tag k="ssr:stedsnr" v="75352" />
	</node>
	<node lat="64.71216111532208" lon="13.142925010731695" id="-50651">
		<tag k="name" v="Volltjønna" />
		<tag k="name:no" v="Volltjønna" />
		<tag k="natural" v="water" />
		<tag k="ssr:stedsnr" v="75359" />
	</node>
	<node lat="64.76583889172468" lon="13.44751387935049" id="-50652">
		<tag k="name" v="Folabekken" />
		<tag k="name:no" v="Folabekken" />
		<tag k="ssr:stedsnr" v="75364" />
		<tag k="waterway" v="stream" />
	</node>
	<node lat="64.90926944209296" lon="13.914680548423428" id="-50654">
		<tag k="name" v="Sundtangen" />
		<tag k="name:no" v="Sundtangen" />
		<tag k="natural" v="cape" />
		<tag k="ssr:stedsnr" v="75532" />
	</node>
	<node lat="64.69880000305746" lon="13.159761106167792" id="-50655">
		<tag k="name" v="Langvasstjønna" />
		<tag k="name:no" v="Langvasstjønna" />
		<tag k="natural" v="water" />
		<tag k="ssr:stedsnr" v="75365" />
	</node>
	<node lat="64.93242221925048" lon="13.506402787107104" id="-50658">
		<tag k="name" v="Sandåmovika" />
		<tag k="name:no" v="Sandåmovika" />
		<tag k="natural" v="bay" />
		<tag k="ssr:stedsnr" v="75478" />
	</node>
	<node lat="64.9218638846817" lon="13.593244447773772" id="-50659">
		<tag k="name" v="Rørtjønna" />
		<tag k="name:no" v="Rørtjønna" />
		<tag k="natural" v="water" />
		<tag k="ssr:stedsnr" v="75489" />
	</node>
	<node lat="65.10504999760134" lon="14.101386117893348" id="-50661">
		<tag k="name" v="Såålejaevrie" />
		<tag k="name:sma" v="Såålejaevrie" />
		<tag k="natural" v="water" />
		<tag k="ssr:stedsnr" v="75873" />
	</node>
	<node lat="65.04354444464957" lon="13.643580559288699" id="-50662">
		<tag k="name" v="Stortjønna" />
		<tag k="name:no" v="Stortjønna" />
		<tag k="natural" v="water" />
		<tag k="ssr:stedsnr" v="75888" />
	</node>
	<node lat="65.0342333291073" lon="13.693980560457147" id="-50663">
		<tag k="name" v="Litlvatnet" />
		<tag k="name:no" v="Litlvatnet" />
		<tag k="natural" v="water" />
		<tag k="ssr:stedsnr" v="75889" />
	</node>
	<node lat="65.00909999756966" lon="13.5400111124966" id="-50664">
		<tag k="name" v="Nååmesjenluspie" />
		<tag k="name:sma" v="Nååmesjenluspie" />
		<tag k="natural" v="bay" />
		<tag k="ssr:stedsnr" v="75892" />
	</node>
	<node lat="65.04605833535388" lon="13.574916659087632" id="-50665">
		<tag k="name" v="Slerke-johke - Risbekken" />
		<tag k="name:no" v="Risbekken" />
		<tag k="name:sma" v="Slerke-johke" />
		<tag k="ssr:stedsnr" v="75898" />
		<tag k="waterway" v="stream" />
	</node>
	<node lat="64.68374999787002" lon="13.332844452180415" id="-50667">
		<tag k="name" v="Finntjønna" />
		<tag k="name:no" v="Finntjønna" />
		<tag k="natural" v="water" />
		<tag k="ssr:stedsnr" v="76496" />
	</node>
	<node lat="65.0619222234705" lon="13.812680557703953" id="-50668">
		<tag k="name" v="Gaaloe" />
		<tag k="name:sma" v="Gaaloe" />
		<tag k="natural" v="water" />
		<tag k="ssr:stedsnr" v="229457" />
		<tag k="water" v="lake" />
	</node>
	<node lat="64.91708889289265" lon="13.924105555289579" id="-50669">
		<tag k="name" v="Arnolsa-bekkan" />
		<tag k="name:no" v="Arnolsa-bekkan" />
		<tag k="ssr:stedsnr" v="86521" />
		<tag k="waterway" v="stream" />
	</node>
	<node lat="64.89100833151467" lon="13.816986108956266" id="-50672">
		<tag k="name" v="Pertjønnbekken" />
		<tag k="name:no" v="Pertjønnbekken" />
		<tag k="ssr:stedsnr" v="106243" />
		<tag k="waterway" v="stream" />
	</node>
	<node lat="64.92424166277443" lon="13.502024990978128" id="-50673">
		<tag k="name" v="Kjeholmen" />
		<tag k="name:no" v="Kjeholmen" />
		<tag k="place" v="islet" />
		<tag k="ssr:stedsnr" v="106143" />
	</node>
	<node lat="64.87227499629228" lon="13.816213892394119" id="-50675">
		<tag k="alt_name:sma" v="Luvlie Otnegejaevrie" />
		<tag k="name" v="Luvlie Otnege-jaevrie" />
		<tag k="name:sma" v="Luvlie Otnege-jaevrie" />
		<tag k="natural" v="water" />
		<tag k="ssr:stedsnr" v="106154" />
	</node>
	<node lat="64.886983333184" lon="13.925755564616981" id="-50676">
		<tag k="name" v="Flasketjønn" />
		<tag k="name:no" v="Flasketjønn" />
		<tag k="natural" v="water" />
		<tag k="ssr:stedsnr" v="106155" />
	</node>
	<node lat="64.85269721931776" lon="13.377113898725893" id="-50678">
		<tag k="name" v="Litlbekkålen" />
		<tag k="name:no" v="Litlbekkålen" />
		<tag k="ssr:stedsnr" v="106181" />
		<tag k="waterway" v="stream" />
	</node>
	<node lat="64.88464166933409" lon="13.558813895781196" id="-50682">
		<tag k="name" v="Ravren-loekte" />
		<tag k="name:sma" v="Ravren-loekte" />
		<tag k="natural" v="bay" />
		<tag k="ssr:stedsnr" v="106210" />
	</node>
	<node lat="64.87667777391347" lon="13.592263892671692" id="-50683">
		<tag k="name" v="Seterbekken" />
		<tag k="name:no" v="Seterbekken" />
		<tag k="ssr:stedsnr" v="106212" />
		<tag k="waterway" v="stream" />
	</node>
	<node lat="64.88596111561004" lon="13.94797777775172" id="-50686">
		<tag k="name" v="Bjørkneset" />
		<tag k="name:no" v="Bjørkneset" />
		<tag k="natural" v="cape" />
		<tag k="ssr:stedsnr" v="107236" />
	</node>
	<node lat="64.8995638908833" lon="13.600919454436887" id="-50688">
		<tag k="name" v="Lona" />
		<tag k="name:no" v="Lona" />
		<tag k="natural" v="water" />
		<tag k="ssr:stedsnr" v="107137" />
		<tag k="water" v="lake" />
	</node>
	<node lat="64.664630559797" lon="13.194738895738128" id="-50691">
		<tag k="name" v="Bergtangen" />
		<tag k="name:no" v="Bergtangen" />
		<tag k="natural" v="cape" />
		<tag k="ssr:stedsnr" v="107262" />
	</node>
	<node lat="65.03813611557625" lon="13.69429444371202" id="-50694">
		<tag k="name" v="Tjønnin" />
		<tag k="name:no" v="Tjønnin" />
		<tag k="natural" v="water" />
		<tag k="ssr:stedsnr" v="108663" />
	</node>
	<node lat="65.02586389000867" lon="13.688983327541399" id="-50695">
		<tag k="name" v="Elgtjønna" />
		<tag k="name:no" v="Elgtjønna" />
		<tag k="natural" v="water" />
		<tag k="ssr:stedsnr" v="108666" />
	</node>
	<node lat="64.72218611130779" lon="13.37393334225086" id="-50698">
		<tag k="name" v="Fisktjønna" />
		<tag k="name:no" v="Fisktjønna" />
		<tag k="natural" v="water" />
		<tag k="ssr:stedsnr" v="109150" />
	</node>
	<node lat="64.72290833000929" lon="13.375447223547855" id="-50699">
		<tag k="name" v="Kaffetjønna" />
		<tag k="name:no" v="Kaffetjønna" />
		<tag k="natural" v="water" />
		<tag k="ssr:stedsnr" v="109151" />
	</node>
	<node lat="64.87235555963589" lon="13.324830561792743" id="-50707">
		<tag k="name" v="Årranjaevrie - Orrvatnet" />
		<tag k="name:no" v="Orrvatnet" />
		<tag k="name:sma" v="Årranjaevrie" />
		<tag k="natural" v="water" />
		<tag k="ssr:stedsnr" v="135356" />
	</node>
	<node lat="64.88484722366705" lon="13.596469454008925" id="-50708">
		<tag k="name" v="Setertjønna" />
		<tag k="name:no" v="Setertjønna" />
		<tag k="natural" v="water" />
		<tag k="ssr:stedsnr" v="135364" />
	</node>
	<node lat="64.87817778151049" lon="13.468888884270644" id="-50709">
		<tag k="name" v="Vestertjønna" />
		<tag k="name:no" v="Vestertjønna" />
		<tag k="natural" v="water" />
		<tag k="ssr:stedsnr" v="135379" />
	</node>
	<node lat="64.84937500099578" lon="13.388161108126157" id="-50710">
		<tag k="name" v="Gjersvikbukta" />
		<tag k="name:no" v="Gjersvikbukta" />
		<tag k="natural" v="bay" />
		<tag k="ssr:stedsnr" v="135382" />
	</node>
	<node lat="64.88592222506081" lon="13.748694434948915" id="-50713">
		<tag k="name" v="Storbekken" />
		<tag k="name:no" v="Storbekken" />
		<tag k="ssr:stedsnr" v="135237" />
		<tag k="waterway" v="stream" />
	</node>
	<node lat="64.74925833347794" lon="13.355158334509957" id="-50714">
		<tag k="name" v="Holmmyrtangen" />
		<tag k="name:no" v="Holmmyrtangen" />
		<tag k="natural" v="cape" />
		<tag k="ssr:stedsnr" v="135240" />
	</node>
	<node lat="64.96133889192625" lon="13.63137221800649" id="-50719">
		<tag k="name" v="Skærnjan-johke - Skånalibekken" />
		<tag k="name:no" v="Skånalibekken" />
		<tag k="name:sma" v="Skærnjan-johke" />
		<tag k="ssr:stedsnr" v="135431" />
		<tag k="waterway" v="stream" />
	</node>
	<node lat="64.93948888686701" lon="13.610841661175447" id="-50721">
		<tag k="name" v="Vestre Storbekken" />
		<tag k="name:no" v="Vestre Storbekken" />
		<tag k="ssr:stedsnr" v="135438" />
		<tag k="waterway" v="stream" />
	</node>
	<node lat="64.81047499614384" lon="13.356236099988097" id="-50722">
		<tag k="name" v="Langtangen" />
		<tag k="name:no" v="Langtangen" />
		<tag k="natural" v="cape" />
		<tag k="ssr:stedsnr" v="135535" />
	</node>
	<node lat="64.7848777770263" lon="13.410902775736613" id="-50723">
		<tag k="name" v="Storbekken" />
		<tag k="name:no" v="Storbekken" />
		<tag k="ssr:stedsnr" v="135539" />
		<tag k="waterway" v="stream" />
	</node>
	<node lat="64.91274999680365" lon="13.506736117597203" id="-50724">
		<tag k="name" v="Giedtie-njuana - Krutangen" />
		<tag k="name:no" v="Krutangen" />
		<tag k="name:sma" v="Giedtie-njuana" />
		<tag k="natural" v="cape" />
		<tag k="ssr:stedsnr" v="135543" />
	</node>
	<node lat="64.92335277440657" lon="14.035455548509868" id="-50725">
		<tag k="name" v="Guevtelejohke - Storelva" />
		<tag k="name:no" v="Storelva" />
		<tag k="name:sma" v="Guevtelejohke" />
		<tag k="ssr:stedsnr" v="135491" />
		<tag k="waterway" v="river" />
	</node>
	<node lat="64.72233333167372" lon="13.10302500275597" id="-50726">
		<tag k="name" v="Grubbtjønna" />
		<tag k="name:no" v="Grubbtjønna" />
		<tag k="natural" v="water" />
		<tag k="ssr:stedsnr" v="135643" />
	</node>
	<node lat="65.02784999713424" lon="14.18659167638573" id="-50727">
		<tag k="name" v="Vuelie-Sipmehke - Austre Sipmeken" />
		<tag k="name:no" v="Austre Sipmeken" />
		<tag k="name:sma" v="Vuelie-Sipmehke" />
		<tag k="natural" v="water" />
		<tag k="ssr:stedsnr" v="135768" />
		<tag k="water" v="lake" />
	</node>
	<node lat="65.10683333205573" lon="13.994580563058811" id="-50728">
		<tag k="name" v="Saapmanjaevrie" />
		<tag k="name:sma" v="Saapmanjaevrie" />
		<tag k="natural" v="water" />
		<tag k="ssr:stedsnr" v="135777" />
		<tag k="water" v="lake" />
	</node>
	<node lat="65.02524999870408" lon="14.097513892522363" id="-50729">
		<tag k="name" v="Såålejaevrie - Holmvatnet" />
		<tag k="name:no" v="Holmvatnet" />
		<tag k="name:sma" v="Såålejaevrie" />
		<tag k="natural" v="water" />
		<tag k="ssr:stedsnr" v="135778" />
		<tag k="water" v="lake" />
	</node>
	<node lat="65.04663332946915" lon="13.836722220117355" id="-50730">
		<tag k="name" v="Buvriejohke - Matbekken" />
		<tag k="name:no" v="Matbekken" />
		<tag k="name:sma" v="Buvriejohke" />
		<tag k="ssr:stedsnr" v="135786" />
		<tag k="waterway" v="stream" />
	</node>
	<node lat="65.06068333746933" lon="14.156955550724023" id="-50731">
		<tag k="name" v="Bijjie-Sipmehke - Vestre Sipmeken" />
		<tag k="name:no" v="Vestre Sipmeken" />
		<tag k="name:sma" v="Bijjie-Sipmehke" />
		<tag k="natural" v="water" />
		<tag k="ssr:stedsnr" v="135789" />
		<tag k="water" v="lake" />
	</node>
	<node lat="65.02439999634991" lon="13.708113883945263" id="-50732">
		<tag k="name" v="Merkesbekken" />
		<tag k="name:no" v="Merkesbekken" />
		<tag k="ssr:stedsnr" v="136857" />
		<tag k="waterway" v="stream" />
	</node>
	<node lat="65.03152778080828" lon="13.530108335972868" id="-50733">
		<tag k="name" v="Kaajjenjohke - Karielva" />
		<tag k="name:no" v="Karielva" />
		<tag k="name:sma" v="Kaajjenjohke" />
		<tag k="ssr:stedsnr" v="136875" />
		<tag k="waterway" v="stream" />
	</node>
	<node lat="64.93057778159519" lon="13.687841677000677" id="-50737">
		<tag k="name" v="Gaelmientjonne - Mannbeintjønna" />
		<tag k="name:no" v="Mannbeintjønna" />
		<tag k="name:sma" v="Gaelmientjonne" />
		<tag k="natural" v="water" />
		<tag k="ssr:stedsnr" v="136479" />
	</node>
	<node lat="64.91670277531811" lon="13.65105000134422" id="-50738">
		<tag k="name" v="Gråtjønna" />
		<tag k="name:no" v="Gråtjønna" />
		<tag k="natural" v="water" />
		<tag k="ssr:stedsnr" v="136484" />
	</node>
	<node lat="65.00106389050237" lon="13.560638887108253" id="-50739">
		<tag k="name" v="Langtangen" />
		<tag k="name:no" v="Langtangen" />
		<tag k="place" v="islet" />
		<tag k="ssr:stedsnr" v="136838" />
	</node>
	<node lat="65.01496666333142" lon="13.611149989730157" id="-50740">
		<tag k="name" v="Storbekken" />
		<tag k="name:no" v="Storbekken" />
		<tag k="ssr:stedsnr" v="136840" />
		<tag k="waterway" v="stream" />
	</node>
	<node lat="64.87830833183007" lon="13.814888880582942" id="-50746">
		<tag k="name" v="Båtvika" />
		<tag k="name:no" v="Båtvika" />
		<tag k="natural" v="bay" />
		<tag k="ssr:stedsnr" v="166256" />
	</node>
	<node lat="64.93450555979557" lon="13.505916670599944" id="-50749">
		<tag k="name" v="Sandåmobekken" />
		<tag k="name:no" v="Sandåmobekken" />
		<tag k="ssr:stedsnr" v="167093" />
		<tag k="waterway" v="stream" />
	</node>
	<node lat="64.95221389222816" lon="13.579105562663077" id="-50750">
		<tag k="name" v="Gullsidalbekken" />
		<tag k="name:no" v="Gullsidalbekken" />
		<tag k="ssr:stedsnr" v="167101" />
		<tag k="waterway" v="stream" />
	</node>
	<node lat="64.88167222630659" lon="13.845397218307017" id="-50754">
		<tag k="name" v="Brubekken" />
		<tag k="name:no" v="Brubekken" />
		<tag k="ssr:stedsnr" v="167248" />
		<tag k="waterway" v="stream" />
	</node>
	<node lat="64.723086109442" lon="13.340180550518971" id="-50758">
		<tag k="name" v="Stortangen" />
		<tag k="name:no" v="Stortangen" />
		<tag k="natural" v="cape" />
		<tag k="ssr:stedsnr" v="168094" />
	</node>
	<node lat="64.75756666303185" lon="13.34701110712698" id="-50762">
		<tag k="name" v="Sagbekken" />
		<tag k="name:no" v="Sagbekken" />
		<tag k="ssr:stedsnr" v="169100" />
		<tag k="waterway" v="stream" />
	</node>
	<node lat="64.97067499987806" lon="14.106955545149164" id="-50765">
		<tag k="name" v="Finnhusbekken" />
		<tag k="name:no" v="Finnhusbekken" />
		<tag k="ssr:stedsnr" v="169398" />
		<tag k="waterway" v="stream" />
	</node>
	<node lat="64.98311388845994" lon="13.651036101442411" id="-50766">
		<tag k="name" v="Litl-Naustertjønna" />
		<tag k="name:no" v="Litl-Naustertjønna" />
		<tag k="natural" v="water" />
		<tag k="ssr:stedsnr" v="169570" />
	</node>
</osm>
