<?xml version="1.0" encoding="UTF-8"?>
<osm version="0.6" generator="osmapis">
	<node lat="64.86868611116067" lon="13.554763880179577" id="-49868">
		<tag k="name" v="Sagvika" />
		<tag k="name:no" v="Sagvika" />
		<tag k="place" v="farm" />
		<tag k="ssr:stedsnr" v="14304" />
	</node>
	<node lat="64.85338333268871" lon="13.406450003230672" id="-49870">
		<tag k="historic" v="shieling" />
		<tag k="name" v="Austre Gjersviksætra" />
		<tag k="name:no" v="Austre Gjersviksætra" />
		<tag k="place" v="isolated_dwelling" />
		<tag k="ssr:stedsnr" v="14317" />
	</node>
	<node lat="64.72356944464852" lon="13.34313611261077" id="-49877">
		<tag k="name" v="Øyheim" />
		<tag k="name:no" v="Øyheim" />
		<tag k="place" v="farm" />
		<tag k="ssr:stedsnr" v="15303" />
	</node>
	<node lat="64.88871666339635" lon="13.549427770665828" id="-49881">
		<tag k="name" v="Røset" />
		<tag k="name:no" v="Røset" />
		<tag k="place" v="farm" />
		<tag k="ssr:stedsnr" v="15516" />
	</node>
	<node lat="64.66021944771465" lon="13.245008343333144" id="-49884">
		<tag k="name" v="Stallvik-Reinøya" />
		<tag k="name:no" v="Stallvik-Reinøya" />
		<tag k="place" v="farm" />
		<tag k="ssr:stedsnr" v="40446" />
	</node>
	<node lat="64.79190555632717" lon="13.425100008610867" id="-49893">
		<tag k="name" v="Nybua" />
		<tag k="name:no" v="Nybua" />
		<tag k="place" v="locality" />
		<tag k="ssr:stedsnr" v="47121" />
	</node>
	<node lat="64.74859722606494" lon="13.349638889128787" id="-49901">
		<tag k="name" v="Heimly" />
		<tag k="name:no" v="Heimly" />
		<tag k="place" v="farm" />
		<tag k="ssr:stedsnr" v="75255" />
	</node>
	<node lat="64.79919722290887" lon="13.620944442675292" id="-49903">
		<tag k="name" v="Slåttvika" />
		<tag k="name:no" v="Slåttvika" />
		<tag k="place" v="farm" />
		<tag k="ssr:stedsnr" v="75452" />
	</node>
	<node lat="64.80391111445869" lon="13.373502774008177" id="-49905">
		<tag k="name" v="Oskarstakken" />
		<tag k="name:no" v="Oskarstakken" />
		<tag k="place" v="locality" />
		<tag k="ssr:stedsnr" v="75457" />
	</node>
	<node lat="64.73734721968019" lon="13.313836101735868" id="-49925">
		<tag k="name" v="Åsli" />
		<tag k="name:no" v="Åsli" />
		<tag k="place" v="farm" />
		<tag k="ssr:stedsnr" v="108102" />
	</node>
	<node lat="64.7687805544316" lon="13.428238896782897" id="-49933">
		<tag k="name" v="Lauvnes" />
		<tag k="name:no" v="Lauvnes" />
		<tag k="place" v="farm" />
		<tag k="ssr:stedsnr" v="135327" />
	</node>
	<node lat="64.73837985926458" lon="13.316335871432" id="-49938">
		<tag k="fixme" v="consider place=hamlet" />
		<tag k="name" v="Mykkelvika" />
		<tag k="name:no" v="Mykkelvika" />
		<tag k="place" v="farm" />
		<tag k="ssr:stedsnr" v="136300" />
	</node>
	<node lat="64.86969166840322" lon="13.856858325674835" id="-49940">
		<tag k="name" v="Ornes" />
		<tag k="name:no" v="Ornes" />
		<tag k="place" v="farm" />
		<tag k="ssr:stedsnr" v="136316" />
	</node>
	<node lat="64.6586416641286" lon="13.198280563282092" id="-49941">
		<tag k="name" v="Stallheim" />
		<tag k="name:no" v="Stallheim" />
		<tag k="place" v="farm" />
		<tag k="ssr:stedsnr" v="136358" />
	</node>
	<node lat="64.8032055533397" lon="13.700947228414542" id="-49943">
		<tag k="name" v="Nyvikmoseteren" />
		<tag k="name:no" v="Nyvikmoseteren" />
		<tag k="place" v="locality" />
		<tag k="ssr:stedsnr" v="136367" />
	</node>
	<node lat="64.97674166697571" lon="13.587480557021827" id="-49948">
		<tag k="name" v="Heggvoll" />
		<tag k="name:no" v="Heggvoll" />
		<tag k="place" v="farm" />
		<tag k="ssr:stedsnr" v="257041" />
	</node>
	<node lat="64.98435555658745" lon="13.584624997145376" id="-49950">
		<tag k="name" v="Norheim" />
		<tag k="name:no" v="Norheim" />
		<tag k="place" v="farm" />
		<tag k="ssr:stedsnr" v="257050" />
	</node>
	<node lat="64.75069999625077" lon="13.355480565352014" id="-49956">
		<tag k="loc_name:no" v="Holmo" />
		<tag k="name" v="Holmmo" />
		<tag k="name:no" v="Holmmo" />
		<tag k="place" v="farm" />
		<tag k="ssr:stedsnr" v="257383" />
	</node>
	<node lat="64.79603055689371" lon="13.390777785502971" id="-49958">
		<tag k="name" v="Åsheim" />
		<tag k="name:no" v="Åsheim" />
		<tag k="place" v="farm" />
		<tag k="ssr:stedsnr" v="257342" />
	</node>
	<node lat="64.77077222647503" lon="13.550399998991551" id="-49960">
		<tag k="name" v="Myrvoll" />
		<tag k="name:no" v="Myrvoll" />
		<tag k="place" v="farm" />
		<tag k="ssr:stedsnr" v="257398" />
	</node>
	<node lat="64.85931111392112" lon="13.405772213031975" id="-49961">
		<tag k="name" v="Austre Gjersvika" />
		<tag k="name:no" v="Austre Gjersvika" />
		<tag k="place" v="farm" />
		<tag k="ssr:stedsnr" v="257440" />
	</node>
	<node lat="64.85953889170733" lon="13.412402785733747" id="-49963">
		<tag k="name" v="Gjersvika" />
		<tag k="name:no" v="Gjersvika" />
		<tag k="place" v="hamlet" />
		<tag k="ssr:stedsnr" v="257450" />
	</node>
	<node lat="64.67704166840655" lon="13.316344444971634" id="-49964">
		<tag k="name" v="Bukta" />
		<tag k="name:no" v="Bukta" />
		<tag k="place" v="farm" />
		<tag k="ssr:stedsnr" v="257501" />
	</node>
	<node lat="64.88394444023139" lon="13.562561113288602" id="-49968">
		<tag k="name" v="Raarvihke - Røyrvik" />
		<tag k="name:no" v="Røyrvik" />
		<tag k="name:sma" v="Raarvihke" />
		<tag k="place" v="village" />
		<tag k="ssr:stedsnr" v="257548" />
	</node>
	<node lat="64.88766667055869" lon="13.684513896228667" id="-49983">
		<tag k="name" v="Sandbakken" />
		<tag k="name:no" v="Sandbakken" />
		<tag k="place" v="locality" />
		<tag k="ssr:stedsnr" v="167222" />
	</node>
	<node lat="64.81762499952357" lon="13.369122221256552" id="-50000">
		<tag k="name" v="Gamsetervollen" />
		<tag k="name:no" v="Gamsetervollen" />
		<tag k="place" v="locality" />
		<tag k="ssr:stedsnr" v="197458" />
	</node>
	<node lat="64.88994722129941" lon="13.632177784504838" id="-50009">
		<tag k="name" v="Fossbakk" />
		<tag k="name:no" v="Fossbakk" />
		<tag k="place" v="locality" />
		<tag k="ssr:stedsnr" v="228213" />
	</node>
	<node lat="64.79950000398162" lon="13.631074995563202" id="-50012">
		<tag k="name" v="Nergård" />
		<tag k="name:no" v="Nergård" />
		<tag k="place" v="farm" />
		<tag k="ssr:stedsnr" v="229595" />
	</node>
	<node lat="64.90636388949113" lon="13.50052500918809" id="-50027">
		<tag k="name" v="Tomasseteren" />
		<tag k="name:no" v="Tomasseteren" />
		<tag k="place" v="isolated_dwelling" />
		<tag k="ssr:stedsnr" v="257523" />
	</node>
	<node lat="65.01132777982222" lon="13.636369442269862" id="-50053">
		<tag k="name" v="Sandvika" />
		<tag k="name:no" v="Sandvika" />
		<tag k="place" v="isolated_dwelling" />
		<tag k="ssr:stedsnr" v="290593" />
	</node>
	<node lat="64.888463892147" lon="13.603530548870662" id="-50058">
		<tag k="name" v="Kvilåsen" />
		<tag k="name:no" v="Kvilåsen" />
		<tag k="place" v="locality" />
		<tag k="ssr:stedsnr" v="317344" />
	</node>
	<node lat="64.88200277878413" lon="13.564161114537091" id="-50059">
		<tag k="name" v="Heggli" />
		<tag k="name:no" v="Heggli" />
		<tag k="place" v="farm" />
		<tag k="ssr:stedsnr" v="317441" />
	</node>
	<node lat="64.88101111206484" lon="13.70993610942799" id="-50092">
		<tag k="name" v="Buheim" />
		<tag k="name:no" v="Buheim" />
		<tag k="place" v="farm" />
		<tag k="ssr:stedsnr" v="470170" />
	</node>
	<node lat="64.88162222585062" lon="13.761505549510167" id="-50120">
		<tag k="name" v="Huddingsvatn" />
		<tag k="name:no" v="Huddingsvatn" />
		<tag k="place" v="farm" />
		<tag k="ssr:stedsnr" v="348212" />
	</node>
	<node lat="64.99841666379578" lon="13.756566666782115" id="-50141">
		<tag k="name" v="Rokstad" />
		<tag k="name:no" v="Rokstad" />
		<tag k="place" v="isolated_dwelling" />
		<tag k="ssr:stedsnr" v="351559" />
	</node>
	<node lat="64.72278055199726" lon="13.345530556107528" id="-50171">
		<tag k="name" v="Fredøy" />
		<tag k="name:no" v="Fredøy" />
		<tag k="place" v="farm" />
		<tag k="ssr:stedsnr" v="439253" />
	</node>
	<node lat="64.83618889010074" lon="13.60809999634391" id="-50217">
		<tag k="name" v="Vesterås" />
		<tag k="name:no" v="Vesterås" />
		<tag k="place" v="farm" />
		<tag k="ssr:stedsnr" v="500482" />
	</node>
	<node lat="64.83066111459786" lon="13.611672230241329" id="-50221">
		<tag k="fixme" v="multiple name tags, choose one and add the other to alt_name" />
		<tag k="name" v="Vestre Nyvika;Vestergården" />
		<tag k="name:no" v="Vestre Nyvika;Vestergården" />
		<tag k="place" v="farm" />
		<tag k="ssr:stedsnr" v="500503" />
	</node>
	<node lat="64.81847500436214" lon="13.661399999624651" id="-50229">
		<tag k="name" v="Nyvikseteren" />
		<tag k="name:no" v="Nyvikseteren" />
		<tag k="place" v="locality" />
		<tag k="ssr:stedsnr" v="682480" />
	</node>
	<node lat="64.80253046966138" lon="13.641762709853499" id="-50230">
		<tag k="name" v="Oppgård" />
		<tag k="name:no" v="Oppgård" />
		<tag k="place" v="locality" />
		<tag k="ssr:stedsnr" v="682483" />
	</node>
	<node lat="64.73726597481458" lon="13.242118696367903" id="-50235">
		<tag k="name" v="Elvnesa" />
		<tag k="name:no" v="Elvnesa" />
		<tag k="place" v="locality" />
		<tag k="ssr:stedsnr" v="682291" />
	</node>
	<node lat="64.8513944440146" lon="13.59699444969835" id="-50244">
		<tag k="name" v="Seterhaug" />
		<tag k="name:no" v="Seterhaug" />
		<tag k="place" v="farm" />
		<tag k="ssr:stedsnr" v="682436" />
	</node>
	<node lat="64.93340277820805" lon="13.538000004974544" id="-50251">
		<tag k="name" v="Myrheim" />
		<tag k="name:no" v="Myrheim" />
		<tag k="place" v="farm" />
		<tag k="ssr:stedsnr" v="682502" />
	</node>
	<node lat="64.87047777686146" lon="13.85811110381206" id="-50300">
		<tag k="name" v="Ornes" />
		<tag k="name:no" v="Ornes" />
		<tag k="place" v="locality" />
		<tag k="ssr:stedsnr" v="591217" />
	</node>
	<node lat="65.05198437462678" lon="13.817498110957477" id="-50322">
		<tag k="name" v="Johkegaske - Virmaneset" />
		<tag k="name:no" v="Virmaneset" />
		<tag k="name:sma" v="Johkegaske" />
		<tag k="place" v="locality" />
		<tag k="ssr:stedsnr" v="621813" />
	</node>
	<node lat="64.88421944593269" lon="13.703819442153867" id="-50340">
		<tag k="name" v="Lauvmoen" />
		<tag k="name:no" v="Lauvmoen" />
		<tag k="place" v="farm" />
		<tag k="ssr:stedsnr" v="681368" />
	</node>
	<node lat="65.00935277448968" lon="13.621086113011296" id="-50356">
		<tag k="name" v="Jonasmoen" />
		<tag k="name:no" v="Jonasmoen" />
		<tag k="place" v="isolated_dwelling" />
		<tag k="ssr:stedsnr" v="682874" />
	</node>
	<node lat="64.69216666593377" lon="13.198002778358115" id="-50358">
		<tag k="name" v="Småvatna statsallmenning" />
		<tag k="name:no" v="Småvatna statsallmenning" />
		<tag k="old_name:no" v="Småvatnan statsskog" />
		<tag k="place" v="locality" />
		<tag k="ssr:stedsnr" v="894152" />
	</node>
	<node lat="64.9381527809061" lon="13.589197212188584" id="-50375">
		<tag k="name" v="Auster Skånalia" />
		<tag k="name:no" v="Auster Skånalia" />
		<tag k="place" v="farm" />
		<tag k="ssr:stedsnr" v="896089" />
	</node>
	<node lat="64.85949982285746" lon="13.402352806736081" id="-50393">
		<tag k="fixme" v="consider place=hamlet" />
		<tag k="name" v="Gjersvika" />
		<tag k="name:no" v="Gjersvika" />
		<tag k="place" v="farm" />
		<tag k="ssr:stedsnr" v="711777" />
	</node>
	<node lat="64.92947500164011" lon="13.527280561701389" id="-50396">
		<tag k="name" v="Berntbua" />
		<tag k="name:no" v="Berntbua" />
		<tag k="place" v="isolated_dwelling" />
		<tag k="ssr:stedsnr" v="713094" />
	</node>
	<node lat="64.93536111439288" lon="13.405199995523406" id="-50417">
		<tag k="name" v="Sturjenhytta" />
		<tag k="name:no" v="Sturjenhytta" />
		<tag k="place" v="isolated_dwelling" />
		<tag k="ssr:stedsnr" v="742405" />
	</node>
	<node lat="64.8904694483533" lon="13.67786943940085" id="-50429">
		<tag k="name" v="Myrmo" />
		<tag k="name:no" v="Myrmo" />
		<tag k="place" v="farm" />
		<tag k="ssr:stedsnr" v="743497" />
	</node>
	<node lat="64.98754999586203" lon="13.58131389155997" id="-50436">
		<tag k="name" v="Nordbakk" />
		<tag k="name:no" v="Nordbakk" />
		<tag k="place" v="isolated_dwelling" />
		<tag k="ssr:stedsnr" v="774117" />
	</node>
	<node lat="64.85482499693096" lon="13.854347217530448" id="-50442">
		<tag k="name" v="Jomali statsskog" />
		<tag k="name:no" v="Jomali statsskog" />
		<tag k="place" v="locality" />
		<tag k="ssr:stedsnr" v="774252" />
	</node>
	<node lat="65.04545796126206" lon="13.77639619376467" id="-50467">
		<tag k="name" v="Reiret" />
		<tag k="name:no" v="Reiret" />
		<tag k="place" v="neighbourhood" />
		<tag k="ssr:stedsnr" v="803811" />
	</node>
	<node lat="64.79363611265153" lon="13.391405556390259" id="-50468">
		<tag k="fixme" v="consider place=hamlet" />
		<tag k="name" v="Tunnsjørørvika" />
		<tag k="name:no" v="Tunnsjørørvika" />
		<tag k="place" v="village" />
		<tag k="ssr:stedsnr" v="804458" />
	</node>
	<node lat="64.66021944771465" lon="13.245008343333144" id="-50478">
		<tag k="name" v="Stallvikskogen" />
		<tag k="name:no" v="Stallvikskogen" />
		<tag k="place" v="farm" />
		<tag k="ssr:stedsnr" v="829414" />
	</node>
	<node lat="64.82837777782996" lon="13.61438055770123" id="-50509">
		<tag k="name" v="Skogli" />
		<tag k="name:no" v="Skogli" />
		<tag k="place" v="farm" />
		<tag k="ssr:stedsnr" v="925468" />
	</node>
	<node lat="64.96818055261109" lon="13.551458327958942" id="-50521">
		<tag k="name" v="Bustadmo" />
		<tag k="name:no" v="Bustadmo" />
		<tag k="place" v="farm" />
		<tag k="ssr:stedsnr" v="864031" />
	</node>
	<node lat="64.88278889036556" lon="13.823422220101003" id="-50524">
		<tag k="name" v="Skoglund" />
		<tag k="name:no" v="Skoglund" />
		<tag k="place" v="farm" />
		<tag k="ssr:stedsnr" v="864290" />
	</node>
	<node lat="64.96005555935454" lon="13.539536122185062" id="-50536">
		<tag k="name" v="Nybekkvika hyttefelt" />
		<tag k="name:no" v="Nybekkvika hyttefelt" />
		<tag k="place" v="neighbourhood" />
		<tag k="ssr:stedsnr" v="907714" />
	</node>
	<node lat="64.70651695144113" lon="13.101132999286062" id="-50543">
		<tag k="fixme" v="consider place=hamlet" />
		<tag k="name" v="Småvatna" />
		<tag k="name:no" v="Småvatna" />
		<tag k="place" v="farm" />
		<tag k="ssr:stedsnr" v="925388" />
	</node>
	<node lat="64.9425615594839" lon="13.582494926745513" id="-50550">
		<tag k="fixme" v="multiple name tags, choose one and add the other to alt_name" />
		<tag k="name" v="Skånalia;Vestre Skånalia" />
		<tag k="name:no" v="Skånalia;Vestre Skånalia" />
		<tag k="place" v="farm" />
		<tag k="ssr:stedsnr" v="925491" />
	</node>
	<node lat="64.6600830460717" lon="13.190202652369106" id="-50556">
		<tag k="name" v="Stallvikgrenda" />
		<tag k="name:no" v="Stallvikgrenda" />
		<tag k="place" v="hamlet" />
		<tag k="ssr:stedsnr" v="936491" />
	</node>
	<node lat="64.65915957963111" lon="13.19486212743221" id="-50557">
		<tag k="name" v="Stallvika" />
		<tag k="name:no" v="Stallvika" />
		<tag k="place" v="farm" />
		<tag k="ssr:stedsnr" v="950412" />
	</node>
	<node lat="64.98003610993545" lon="13.58701666585631" id="-50559">
		<tag k="name" v="Heggvoll" />
		<tag k="name:no" v="Heggvoll" />
		<tag k="place" v="isolated_dwelling" />
		<tag k="ssr:stedsnr" v="955146" />
	</node>
	<node lat="64.88178608820732" lon="13.744470554361783" id="-50576">
		<tag k="fixme" v="consider place=hamlet" />
		<tag k="name" v="Hudningslia" />
		<tag k="place" v="farm" />
		<tag k="ssr:stedsnr" v="971319" />
	</node>
	<node lat="64.88244444389157" lon="13.810000003179457" id="-50614">
		<tag k="name" v="Huddingsvatn Camping" />
		<tag k="name:no" v="Huddingsvatn Camping" />
		<tag k="ssr:stedsnr" v="45237" />
		<tag k="tourism" v="camp_site" />
	</node>
	<node lat="64.88041944016555" lon="13.848744453409507" id="-50615">
		<tag k="name" v="Elvebakken" />
		<tag k="name:no" v="Elvebakken" />
		<tag k="place" v="farm" />
		<tag k="ssr:stedsnr" v="45242" />
	</node>
	<node lat="64.79417500112658" lon="13.636274999827052" id="-50644">
		<tag k="name" v="Barbo" />
		<tag k="name:no" v="Barbo" />
		<tag k="place" v="farm" />
		<tag k="ssr:stedsnr" v="75326" />
	</node>
	<node lat="64.65944166787537" lon="13.17952777762918" id="-50646">
		<tag k="name" v="Vollheim" />
		<tag k="name:no" v="Vollheim" />
		<tag k="place" v="farm" />
		<tag k="ssr:stedsnr" v="75329" />
	</node>
	<node lat="64.79341388772079" lon="13.392377767967517" id="-50647">
		<tag k="name" v="Bergli" />
		<tag k="name:no" v="Bergli" />
		<tag k="place" v="farm" />
		<tag k="ssr:stedsnr" v="75339" />
	</node>
	<node lat="64.78773055582481" lon="13.644758323187274" id="-50653">
		<tag k="name" v="Kringstad" />
		<tag k="name:no" v="Kringstad" />
		<tag k="place" v="farm" />
		<tag k="ssr:stedsnr" v="75345" />
	</node>
	<node lat="64.88135278135036" lon="13.85110833236122" id="-50689">
		<tag k="name" v="Elvemoen" />
		<tag k="name:no" v="Elvemoen" />
		<tag k="place" v="farm" />
		<tag k="ssr:stedsnr" v="107220" />
	</node>
	<node lat="65.0243638859571" lon="13.539186119312426" id="-50701">
		<tag k="name" v="Vollheim" />
		<tag k="name:no" v="Vollheim" />
		<tag k="place" v="isolated_dwelling" />
		<tag k="ssr:stedsnr" v="109930" />
	</node>
	<node lat="64.8854805511073" lon="13.515216673439717" id="-50702">
		<tag k="name" v="Småtjønnin hytteområde" />
		<tag k="name:no" v="Småtjønnin hytteområde" />
		<tag k="place" v="neighbourhood" />
		<tag k="ssr:stedsnr" v="118748" />
	</node>
	<node lat="64.6621972182365" lon="13.194655564689757" id="-50703">
		<tag k="name" v="Berg" />
		<tag k="name:no" v="Berg" />
		<tag k="place" v="farm" />
		<tag k="ssr:stedsnr" v="121471" />
	</node>
	<node lat="64.98531666522244" lon="13.58434999674567" id="-50705">
		<tag k="name" v="Moen" />
		<tag k="name:no" v="Moen" />
		<tag k="place" v="farm" />
		<tag k="ssr:stedsnr" v="135037" />
	</node>
	<node lat="64.88395277738374" lon="13.813916669473432" id="-50712">
		<tag k="name" v="Kjærnes" />
		<tag k="name:no" v="Kjærnes" />
		<tag k="place" v="farm" />
		<tag k="ssr:stedsnr" v="135234" />
	</node>
	<node lat="64.88134154114618" lon="13.745505834665042" id="-50715">
		<tag k="name" v="Vestgård" />
		<tag k="name:no" v="Vestgård" />
		<tag k="place" v="farm" />
		<tag k="ssr:stedsnr" v="135241" />
	</node>
	<node lat="64.94715555858022" lon="13.585000008811715" id="-50720">
		<tag k="name" v="Trongen" />
		<tag k="name:no" v="Trongen" />
		<tag k="place" v="locality" />
		<tag k="ssr:stedsnr" v="135436" />
	</node>
	<node lat="64.89278611451734" lon="13.636824992690189" id="-50734">
		<tag k="name" v="Seteråsen" />
		<tag k="name:no" v="Seteråsen" />
		<tag k="place" v="isolated_dwelling" />
		<tag k="ssr:stedsnr" v="136506" />
	</node>
	<node lat="64.78868611223653" lon="13.64325832700808" id="-50735">
		<tag k="name" v="Nyvikmoen" />
		<tag k="name:no" v="Nyvikmoen" />
		<tag k="place" v="farm" />
		<tag k="ssr:stedsnr" v="136386" />
	</node>
	<node lat="65.00883333449764" lon="13.60328889484522" id="-50741">
		<tag k="name" v="Nerli" />
		<tag k="name:no" v="Nerli" />
		<tag k="place" v="farm" />
		<tag k="ssr:stedsnr" v="136841" />
	</node>
	<node lat="64.88176389194571" lon="13.516400006184723" id="-50747">
		<tag k="name" v="Plassbakken" />
		<tag k="name:no" v="Plassbakken" />
		<tag k="place" v="farm" />
		<tag k="ssr:stedsnr" v="167085" />
	</node>
	<node lat="64.86965555336934" lon="13.7790277775737" id="-50756">
		<tag k="name" v="Sundtangen" />
		<tag k="name:no" v="Sundtangen" />
		<tag k="place" v="isolated_dwelling" />
		<tag k="ssr:stedsnr" v="168687" />
	</node>
	<node lat="64.75231111155006" lon="13.358644450105553" id="-50757">
		<tag k="name" v="Sagmoen" />
		<tag k="name:no" v="Sagmoen" />
		<tag k="place" v="farm" />
		<tag k="ssr:stedsnr" v="168133" />
	</node>
</osm>
