<?xml version="1.0" encoding="UTF-8"?>
<osm version="0.6" generator="osmapis">
	<node lat="64.84428055288431" lon="13.557908342177402" id="-90639">
		<tag k="name" v="Stormyra" />
		<tag k="natural" v="wetland" />
		<tag k="ssr:stedsnr" v="229868" />
	</node>
	<node lat="64.90995278252053" lon="13.467799992805356" id="-90642">
		<tag k="name" v="Femstakkmyra" />
		<tag k="natural" v="wetland" />
		<tag k="ssr:stedsnr" v="230175" />
	</node>
	<node lat="64.88774999856415" lon="13.504474994940706" id="-90671">
		<tag k="name" v="Hølbekkmyra" />
		<tag k="natural" v="wetland" />
		<tag k="ssr:stedsnr" v="46089" />
	</node>
	<node lat="64.79539166473776" lon="13.435202787712823" id="-90674">
		<tag k="name" v="Flatmyra" />
		<tag k="natural" v="wetland" />
		<tag k="ssr:stedsnr" v="47119" />
	</node>
	<node lat="64.97540277752005" lon="13.5709444371255" id="-90762">
		<tag k="name" v="Låvhaugmyrin" />
		<tag k="natural" v="wetland" />
		<tag k="ssr:stedsnr" v="167111" />
	</node>
	<node lat="64.88492499921823" lon="13.62566110945519" id="-90767">
		<tag k="name" v="Halvvegesmyra" />
		<tag k="natural" v="wetland" />
		<tag k="ssr:stedsnr" v="167214" />
	</node>
	<node lat="64.890522225517" lon="13.628850003082562" id="-90768">
		<tag k="name" v="Fossmyra" />
		<tag k="natural" v="wetland" />
		<tag k="ssr:stedsnr" v="167221" />
	</node>
	<node lat="64.87869444498192" lon="13.70820554737511" id="-90799">
		<tag k="name" v="Blautmyra" />
		<tag k="natural" v="wetland" />
		<tag k="ssr:stedsnr" v="228206" />
	</node>
	<node lat="64.8866944480232" lon="13.680211112852062" id="-90802">
		<tag k="landuse" v="meadow" />
		<tag k="name" v="Teltstakkslettet" />
		<tag k="ssr:stedsnr" v="228214" />
	</node>
	<node lat="64.644950000641" lon="13.197394453651922" id="-90830">
		<tag k="name" v="Grubba" />
		<tag k="natural" v="wetland" />
		<tag k="ssr:stedsnr" v="287189" />
	</node>
	<node lat="64.85309444388487" lon="13.406736114272665" id="-90833">
		<tag k="historic" v="shieling" />
		<tag k="name" v="Danmark Austgårdseter" />
		<tag k="place" v="locality" />
		<tag k="ssr:stedsnr" v="288178" />
	</node>
	<node lat="64.88564166639078" lon="13.983200006795604" id="-90839">
		<tag k="landuse" v="meadow" />
		<tag k="name" v="Oksstakkslettet" />
		<tag k="ssr:stedsnr" v="289234" />
	</node>
	<node lat="64.74136389049018" lon="13.30389999824573" id="-90842">
		<tag k="name" v="Setermyra" />
		<tag k="natural" v="wetland" />
		<tag k="ssr:stedsnr" v="290108" />
	</node>
	<node lat="64.72949166699063" lon="13.234611111207766" id="-90874">
		<tag k="name" v="Hestbottarmyra" />
		<tag k="natural" v="wetland" />
		<tag k="ssr:stedsnr" v="469110" />
	</node>
	<node lat="64.65713055203643" lon="13.195688896195405" id="-90882">
		<tag k="name" v="Gamstallmyra" />
		<tag k="natural" v="wetland" />
		<tag k="ssr:stedsnr" v="470232" />
	</node>
	<node lat="64.8850777745942" lon="13.768941655783513" id="-90887">
		<tag k="name" v="Stormyra" />
		<tag k="natural" v="wetland" />
		<tag k="ssr:stedsnr" v="470173" />
	</node>
	<node lat="64.88969408420395" lon="13.94449709708216" id="-90891">
		<tag k="name" v="Langmyra" />
		<tag k="natural" v="wetland" />
		<tag k="ssr:stedsnr" v="470235" />
	</node>
	<node lat="64.64608611505828" lon="13.152724999042691" id="-90893">
		<tag k="name" v="Skavhauglodo" />
		<tag k="natural" v="wetland" />
		<tag k="ssr:stedsnr" v="470239" />
	</node>
	<node lat="64.96367222634208" lon="13.516261115660965" id="-90896">
		<tag k="name" v="Sandåmomyra" />
		<tag k="natural" v="wetland" />
		<tag k="ssr:stedsnr" v="471888" />
	</node>
	<node lat="64.83029166243001" lon="13.647319448267059" id="-90902">
		<tag k="name" v="Stormyra" />
		<tag k="natural" v="wetland" />
		<tag k="ssr:stedsnr" v="472587" />
	</node>
	<node lat="64.74870000396419" lon="13.25847778515441" id="-90909">
		<tag k="name" v="Pluttmyra" />
		<tag k="natural" v="wetland" />
		<tag k="ssr:stedsnr" v="347114" />
	</node>
	<node lat="64.65112222458602" lon="13.20245278401852" id="-90910">
		<tag k="name" v="Finnhusa" />
		<tag k="natural" v="wetland" />
		<tag k="ssr:stedsnr" v="348166" />
	</node>
	<node lat="64.8727916706064" lon="13.963172220852448" id="-90912">
		<tag k="landuse" v="meadow" />
		<tag k="name" v="Femstakkmyra" />
		<tag k="ssr:stedsnr" v="348304" />
	</node>
	<node lat="64.8788194430697" lon="13.483111115266928" id="-90915">
		<tag k="name" v="Pe-Bengtsamyra" />
		<tag k="natural" v="wetland" />
		<tag k="ssr:stedsnr" v="349102" />
	</node>
	<node lat="64.98502222536462" lon="13.573083323489367" id="-90917">
		<tag k="name" v="Kumerkesmyra" />
		<tag k="natural" v="wetland" />
		<tag k="ssr:stedsnr" v="349124" />
	</node>
	<node lat="64.86805555651156" lon="13.852252772530507" id="-90918">
		<tag k="landuse" v="quarry" />
		<tag k="name" v="Joma" />
		<tag k="name:sma" v="Joma" />
		<tag k="ssr:stedsnr" v="349273" />
	</node>
	<node lat="64.63884999947338" lon="13.157575002075733" id="-90919">
		<tag k="landuse" v="meadow" />
		<tag k="name" v="Storstakkslettet" />
		<tag k="ssr:stedsnr" v="349306" />
	</node>
	<node lat="64.6638027748527" lon="13.18600834036089" id="-90920">
		<tag k="name" v="Blautmyra" />
		<tag k="natural" v="wetland" />
		<tag k="ssr:stedsnr" v="349318" />
	</node>
	<node lat="64.8092527809426" lon="13.630572220686325" id="-90925">
		<tag k="name" v="Reinstakkslettet" />
		<tag k="natural" v="wetland" />
		<tag k="ssr:stedsnr" v="350589" />
	</node>
	<node lat="64.71723333645271" lon="13.374177776698373" id="-90930">
		<tag k="name" v="Røddurda" />
		<tag k="natural" v="scree" />
		<tag k="ssr:stedsnr" v="351163" />
	</node>
	<node lat="64.86824722370623" lon="13.460775006657702" id="-90953">
		<tag k="name" v="Merkesmyra" />
		<tag k="natural" v="wetland" />
		<tag k="ssr:stedsnr" v="409197" />
	</node>
	<node lat="64.87986111481352" lon="13.830266675930694" id="-90992">
		<tag k="name" v="Storfloen" />
		<tag k="natural" v="wetland" />
		<tag k="ssr:stedsnr" v="469227" />
	</node>
	<node lat="64.73184999845975" lon="13.350377784274547" id="-90997">
		<tag k="name" v="Skavikfloen" />
		<tag k="natural" v="wetland" />
		<tag k="ssr:stedsnr" v="472079" />
	</node>
	<node lat="64.99470833465865" lon="13.510180551751407" id="-91068">
		<tag k="name" v="Grønmyra" />
		<tag k="natural" v="wetland" />
		<tag k="ssr:stedsnr" v="532931" />
	</node>
	<node lat="64.89339722308891" lon="13.661661109030971" id="-91103">
		<tag k="name" v="Hyttfloen" />
		<tag k="natural" v="wetland" />
		<tag k="ssr:stedsnr" v="591156" />
	</node>
	<node lat="65.0420416652816" lon="13.829883324190138" id="-91108">
		<tag k="name" v="Stoerre-pluevie" />
		<tag k="name:sma" v="Stoerre-pluevie" />
		<tag k="natural" v="wetland" />
		<tag k="ssr:stedsnr" v="592513" />
	</node>
	<node lat="64.66439999970659" lon="13.172505554479327" id="-91137">
		<tag k="name" v="Kjerrmyra" />
		<tag k="natural" v="wetland" />
		<tag k="ssr:stedsnr" v="652234" />
	</node>
	<node lat="64.8847361148625" lon="13.741472222788486" id="-91174">
		<tag k="landuse" v="meadow" />
		<tag k="name" v="Setemnet" />
		<tag k="ssr:stedsnr" v="895192" />
	</node>
	<node lat="64.88448888829188" lon="13.828302773866936" id="-91176">
		<tag k="landuse" v="meadow" />
		<tag k="name" v="Godslåtten" />
		<tag k="ssr:stedsnr" v="895221" />
	</node>
	<node lat="64.88841666573039" lon="13.972299990123137" id="-91181">
		<tag k="landuse" v="meadow" />
		<tag k="name" v="Hestforstakkslettet" />
		<tag k="ssr:stedsnr" v="895276" />
	</node>
	<node lat="64.85786389011619" lon="13.385366673638034" id="-91182">
		<tag k="name" v="Fiskbekkmyra" />
		<tag k="natural" v="wetland" />
		<tag k="ssr:stedsnr" v="895096" />
	</node>
	<node lat="64.87344722369737" lon="13.884575009586923" id="-91186">
		<tag k="landuse" v="meadow" />
		<tag k="name" v="Vakkserstakkslettet" />
		<tag k="ssr:stedsnr" v="896229" />
	</node>
	<node lat="64.84621111151772" lon="13.887805557709124" id="-91192">
		<tag k="name" v="Stoere-pluevie" />
		<tag k="name:sma" v="Stoere-pluevie" />
		<tag k="natural" v="wetland" />
		<tag k="ssr:stedsnr" v="896747" />
	</node>
	<node lat="64.74691110997766" lon="13.34950278338703" id="-91193">
		<tag k="name" v="Holmmyra" />
		<tag k="natural" v="wetland" />
		<tag k="ssr:stedsnr" v="897123" />
	</node>
	<node lat="64.8168749969315" lon="13.391813887594976" id="-91202">
		<tag k="name" v="Blautstakkslettet" />
		<tag k="natural" v="wetland" />
		<tag k="ssr:stedsnr" v="898161" />
	</node>
	<node lat="64.88826388532844" lon="13.585877774033781" id="-91209">
		<tag k="name" v="Nordmyrin" />
		<tag k="natural" v="wetland" />
		<tag k="ssr:stedsnr" v="713204" />
	</node>
	<node lat="64.86325833534735" lon="13.455711111498418" id="-91211">
		<tag k="name" v="Ole-Pedermyra" />
		<tag k="natural" v="wetland" />
		<tag k="ssr:stedsnr" v="713170" />
	</node>
	<node lat="64.83996389173967" lon="13.38076944165325" id="-91212">
		<tag k="name" v="Båsgrubba" />
		<tag k="natural" v="wetland" />
		<tag k="ssr:stedsnr" v="713179" />
	</node>
	<node lat="64.81154721833569" lon="13.650097211144637" id="-91216">
		<tag k="name" v="Bustadmyra" />
		<tag k="natural" v="wetland" />
		<tag k="ssr:stedsnr" v="714582" />
	</node>
	<node lat="64.73291666976178" lon="13.236269446831676" id="-91248">
		<tag k="name" v="Puttmyra" />
		<tag k="natural" v="wetland" />
		<tag k="ssr:stedsnr" v="772110" />
	</node>
	<node lat="64.87453332941446" lon="13.705427773640737" id="-91250">
		<tag k="landuse" v="meadow" />
		<tag k="name" v="Jensstakkslettet" />
		<tag k="ssr:stedsnr" v="773222" />
	</node>
	<node lat="64.88681944345122" lon="13.484222226274651" id="-91251">
		<tag k="name" v="Potetåkermyra" />
		<tag k="natural" v="wetland" />
		<tag k="ssr:stedsnr" v="773192" />
	</node>
	<node lat="64.88502222483497" lon="13.877749999771806" id="-91256">
		<tag k="name" v="Stormyra" />
		<tag k="natural" v="wetland" />
		<tag k="ssr:stedsnr" v="774223" />
	</node>
	<node lat="64.87192777997622" lon="13.859180551009276" id="-91257">
		<tag k="landuse" v="meadow" />
		<tag k="name" v="Hesjeemnet" />
		<tag k="ssr:stedsnr" v="774224" />
	</node>
	<node lat="64.80094444378351" lon="13.385044447344567" id="-91262">
		<tag k="name" v="Bumyra" />
		<tag k="natural" v="wetland" />
		<tag k="ssr:stedsnr" v="775113" />
	</node>
	<node lat="64.75039166489447" lon="13.335722215959704" id="-91266">
		<tag k="name" v="Gamstakkmyra" />
		<tag k="natural" v="wetland" />
		<tag k="ssr:stedsnr" v="776117" />
	</node>
	<node lat="64.74597221916707" lon="13.319975006997986" id="-91267">
		<tag k="name" v="Stormyra" />
		<tag k="natural" v="wetland" />
		<tag k="ssr:stedsnr" v="776119" />
	</node>
	<node lat="64.67535277482274" lon="13.222163884433167" id="-91275">
		<tag k="name" v="Morstakkslettet" />
		<tag k="natural" v="wetland" />
		<tag k="ssr:stedsnr" v="789012" />
	</node>
	<node lat="64.9097055519418" lon="13.496169449331834" id="-91301">
		<tag k="name" v="Bustadmyra" />
		<tag k="natural" v="wetland" />
		<tag k="ssr:stedsnr" v="835134" />
	</node>
	<node lat="64.8819888927451" lon="13.779366675780594" id="-91303">
		<tag k="name" v="Einvollmyra" />
		<tag k="natural" v="wetland" />
		<tag k="ssr:stedsnr" v="835143" />
	</node>
	<node lat="64.88848888952192" lon="13.907049997509096" id="-91304">
		<tag k="name" v="Stoerre-pluevie" />
		<tag k="name:sma" v="Stoerre-pluevie" />
		<tag k="natural" v="wetland" />
		<tag k="ssr:stedsnr" v="835145" />
	</node>
	<node lat="64.8912833344042" lon="13.572872223631814" id="-91307">
		<tag k="name" v="Pluttmyra" />
		<tag k="natural" v="wetland" />
		<tag k="ssr:stedsnr" v="835212" />
	</node>
	<node lat="64.70867222500789" lon="13.204194451417985" id="-91313">
		<tag k="name" v="Brattmyra" />
		<tag k="natural" v="wetland" />
		<tag k="ssr:stedsnr" v="837091" />
	</node>
	<node lat="64.64651666625055" lon="13.180844442764311" id="-91354">
		<tag k="landuse" v="meadow" />
		<tag k="name" v="Sjefstakkslettet" />
		<tag k="ssr:stedsnr" v="896273" />
	</node>
	<node lat="64.6527888858458" lon="13.190544451717274" id="-91355">
		<tag k="name" v="Grubbmyra" />
		<tag k="natural" v="wetland" />
		<tag k="ssr:stedsnr" v="896275" />
	</node>
	<node lat="64.86187777936183" lon="13.550811118259416" id="-91358">
		<tag k="name" v="Skjærmyrin" />
		<tag k="natural" v="wetland" />
		<tag k="ssr:stedsnr" v="897817" />
	</node>
	<node lat="64.86267777892611" lon="13.386766674220125" id="-91389">
		<tag k="name" v="Leirgravmyra" />
		<tag k="natural" v="wetland" />
		<tag k="ssr:stedsnr" v="956192" />
	</node>
	<node lat="64.84120000137517" lon="13.384549991557707" id="-91390">
		<tag k="name" v="Nyvikmyra" />
		<tag k="natural" v="wetland" />
		<tag k="ssr:stedsnr" v="956193" />
	</node>
	<node lat="64.6562861100834" lon="13.186500006133677" id="-91392">
		<tag k="name" v="Langmyra" />
		<tag k="natural" v="wetland" />
		<tag k="ssr:stedsnr" v="956293" />
	</node>
	<node lat="64.81567778047497" lon="13.629216669517747" id="-91394">
		<tag k="name" v="Storfloen" />
		<tag k="natural" v="wetland" />
		<tag k="ssr:stedsnr" v="957600" />
	</node>
	<node lat="64.7454194483286" lon="13.196044454591247" id="-91398">
		<tag k="historic" v="shieling" />
		<tag k="name" v="Vakkervollen" />
		<tag k="place" v="locality" />
		<tag k="ssr:stedsnr" v="958112" />
	</node>
	<node lat="64.97376666468229" lon="13.556352777737233" id="-91434">
		<tag k="name" v="Sørhaldsmyra" />
		<tag k="natural" v="wetland" />
		<tag k="ssr:stedsnr" v="44125" />
	</node>
	<node lat="64.88120278225354" lon="13.837324998940208" id="-91438">
		<tag k="name" v="Brubekkfloen" />
		<tag k="natural" v="wetland" />
		<tag k="ssr:stedsnr" v="45233" />
	</node>
	<node lat="64.96702777736938" lon="13.558152779511827" id="-91442">
		<tag k="name" v="Pluttmyra" />
		<tag k="natural" v="wetland" />
		<tag k="ssr:stedsnr" v="46105" />
	</node>
	<node lat="64.94164722517299" lon="13.572619438769097" id="-91443">
		<tag k="name" v="Larsmyra" />
		<tag k="natural" v="wetland" />
		<tag k="ssr:stedsnr" v="46108" />
	</node>
	<node lat="64.87628055512015" lon="13.873208333107971" id="-91446">
		<tag k="landuse" v="meadow" />
		<tag k="name" v="Trestakkslettet" />
		<tag k="ssr:stedsnr" v="46217" />
	</node>
	<node lat="64.88098888419206" lon="13.88353889656936" id="-91447">
		<tag k="name" v="Storsvingen" />
		<tag k="place" v="locality" />
		<tag k="ssr:stedsnr" v="46235" />
	</node>
	<node lat="64.85180833229417" lon="13.56919722669122" id="-91450">
		<tag k="name" v="Langmyra" />
		<tag k="natural" v="wetland" />
		<tag k="ssr:stedsnr" v="47827" />
	</node>
	<node lat="64.92749166362992" lon="13.602580555275928" id="-91499">
		<tag k="name" v="Skærnjan-pluevie" />
		<tag k="name:sma" v="Skærnjan-pluevie" />
		<tag k="natural" v="wetland" />
		<tag k="ssr:stedsnr" v="106145" />
	</node>
	<node lat="64.8749722222587" lon="13.482713878690777" id="-91502">
		<tag k="name" v="Høstmyra" />
		<tag k="natural" v="wetland" />
		<tag k="ssr:stedsnr" v="106165" />
	</node>
	<node lat="64.884716663745" lon="13.728408343082885" id="-91504">
		<tag k="landuse" v="meadow" />
		<tag k="name" v="Stakkslettet" />
		<tag k="ssr:stedsnr" v="106195" />
	</node>
	<node lat="64.86102777707885" lon="13.454594444917225" id="-91512">
		<tag k="historic" v="shieling" />
		<tag k="name" v="Vårseteren" />
		<tag k="place" v="locality" />
		<tag k="ssr:stedsnr" v="107069" />
	</node>
	<node lat="65.00721388810852" lon="13.641650005618805" id="-91518">
		<tag k="name" v="Langmyra" />
		<tag k="natural" v="wetland" />
		<tag k="ssr:stedsnr" v="108658" />
	</node>
	<node lat="64.86357777374681" lon="13.567702768983294" id="-91521">
		<tag k="name" v="Stormyra" />
		<tag k="natural" v="wetland" />
		<tag k="ssr:stedsnr" v="108823" />
	</node>
	<node lat="64.73586389211118" lon="13.262322215035159" id="-91571">
		<tag k="name" v="Krubumyra" />
		<tag k="natural" v="wetland" />
		<tag k="ssr:stedsnr" v="166117" />
	</node>
	<node lat="64.96965277467211" lon="13.563544451830886" id="-91572">
		<tag k="name" v="ØverPlyttmyra" />
		<tag k="natural" v="wetland" />
		<tag k="ssr:stedsnr" v="166126" />
	</node>
	<node lat="64.63889722063848" lon="13.205325009281673" id="-91582">
		<tag k="historic" v="shieling" />
		<tag k="name" v="Gamseteren" />
		<tag k="place" v="locality" />
		<tag k="ssr:stedsnr" v="167254" />
	</node>
	<node lat="64.8418361148327" lon="13.54023887943138" id="-91588">
		<tag k="name" v="Stormyra" />
		<tag k="natural" v="wetland" />
		<tag k="ssr:stedsnr" v="168850" />
	</node>
	<node lat="64.90837778008613" lon="14.022991674565564" id="-91590">
		<tag k="historic" v="shieling" />
		<tag k="name" v="Vallervasseteren" />
		<tag k="place" v="locality" />
		<tag k="ssr:stedsnr" v="169381" />
	</node>
	<node lat="64.911736112183" lon="14.037122219506367" id="-91591">
		<tag k="name" v="Austermyra" />
		<tag k="natural" v="wetland" />
		<tag k="ssr:stedsnr" v="169395" />
	</node>
	<node lat="65.0196277795407" lon="13.49402778436307" id="-91595">
		<tag k="name" v="Namsvatn statsallmenning" />
		<tag k="place" v="locality" />
		<tag k="ssr:stedsnr" v="169939" />
	</node>
	<node lat="65.01175555805747" lon="13.546880558405409" id="-91596">
		<tag k="name" v="Kleivmyrin" />
		<tag k="natural" v="wetland" />
		<tag k="ssr:stedsnr" v="169981" />
	</node>
	<node lat="64.98217777930358" lon="13.561647219678541" id="-91637">
		<tag k="name" v="Kvennhusmyra" />
		<tag k="natural" v="wetland" />
		<tag k="ssr:stedsnr" v="227136" />
	</node>
	<node lat="64.88460277358082" lon="13.845972218350838" id="-91639">
		<tag k="name" v="Flomyrin" />
		<tag k="natural" v="wetland" />
		<tag k="ssr:stedsnr" v="227240" />
	</node>
	<node lat="64.73732499560397" lon="13.2663333324593" id="-91641">
		<tag k="historic" v="shieling" />
		<tag k="name" v="Øverlibua" />
		<tag k="place" v="locality" />
		<tag k="ssr:stedsnr" v="227124" />
	</node>
	<node lat="64.88375555322757" lon="13.50219722721273" id="-91654">
		<tag k="name" v="Grubbmyra" />
		<tag k="natural" v="wetland" />
		<tag k="ssr:stedsnr" v="288163" />
	</node>
	<node lat="64.89355832954206" lon="13.64352777446696" id="-91656">
		<tag k="name" v="Setermyra" />
		<tag k="natural" v="wetland" />
		<tag k="ssr:stedsnr" v="289168" />
	</node>
	<node lat="64.8889112583614" lon="13.941081545086684" id="-91657">
		<tag k="name" v="Guhkies-pluvie" />
		<tag k="name:sma" v="Guhkies-pluvie" />
		<tag k="natural" v="wetland" />
		<tag k="ssr:stedsnr" v="289241" />
	</node>
	<node lat="64.64516667066998" lon="13.191849993728493" id="-91658">
		<tag k="landuse" v="meadow" />
		<tag k="name" v="Bjønnstakkslettet" />
		<tag k="ssr:stedsnr" v="289252" />
	</node>
	<node lat="64.64776666735392" lon="13.16330833633269" id="-91660">
		<tag k="historic" v="shieling" />
		<tag k="name" v="Nersela" />
		<tag k="place" v="locality" />
		<tag k="ssr:stedsnr" v="289258" />
	</node>
	<node lat="64.7515111147113" lon="13.22409999373158" id="-91663">
		<tag k="name" v="Nestmyra" />
		<tag k="natural" v="wetland" />
		<tag k="ssr:stedsnr" v="290130" />
	</node>
	<node lat="64.9132472183257" lon="13.442750006268344" id="-91670">
		<tag k="name" v="Grubbmyra" />
		<tag k="natural" v="wetland" />
		<tag k="ssr:stedsnr" v="291186" />
	</node>
	<node lat="64.97617499706607" lon="13.51207777399903" id="-91673">
		<tag k="name" v="Trestakkmyra" />
		<tag k="natural" v="wetland" />
		<tag k="ssr:stedsnr" v="290858" />
	</node>
	<node lat="64.87484166409317" lon="13.865558322471387" id="-91719">
		<tag k="landuse" v="meadow" />
		<tag k="name" v="Storsteinstakkslettet" />
		<tag k="ssr:stedsnr" v="349172" />
	</node>
	<node lat="64.73853889230864" lon="13.29912500123848" id="-91729">
		<tag k="name" v="Stormyra" />
		<tag k="natural" v="wetland" />
		<tag k="ssr:stedsnr" v="350092" />
	</node>
	<node lat="64.73711666929873" lon="13.366986121548871" id="-91743">
		<tag k="name" v="Raudmåssåfloen" />
		<tag k="natural" v="wetland" />
		<tag k="ssr:stedsnr" v="351148" />
	</node>
	<node lat="64.73287777526804" lon="13.259944441182027" id="-91779">
		<tag k="name" v="Gamstakkmyra" />
		<tag k="natural" v="wetland" />
		<tag k="ssr:stedsnr" v="409134" />
	</node>
	<node lat="64.97358610717538" lon="13.569352775359691" id="-91782">
		<tag k="name" v="Brattmyra" />
		<tag k="natural" v="wetland" />
		<tag k="ssr:stedsnr" v="409166" />
	</node>
	<node lat="64.88375833510014" lon="13.848547218368383" id="-91786">
		<tag k="name" v="Blautmyra" />
		<tag k="natural" v="wetland" />
		<tag k="ssr:stedsnr" v="409253" />
	</node>
	<node lat="64.88203055582859" lon="13.815183338515189" id="-91787">
		<tag k="name" v="Kjerrmyra" />
		<tag k="place" v="locality" />
		<tag k="ssr:stedsnr" v="409257" />
	</node>
	<node lat="64.88246666541097" lon="13.480697217431624" id="-91789">
		<tag k="name" v="Børresmyra" />
		<tag k="natural" v="wetland" />
		<tag k="ssr:stedsnr" v="410152" />
	</node>
	<node lat="64.87984166291614" lon="13.582155557121496" id="-91793">
		<tag k="name" v="Blautmyra" />
		<tag k="natural" v="wetland" />
		<tag k="ssr:stedsnr" v="410198" />
	</node>
	<node lat="64.87902777700192" lon="13.908433336907184" id="-91799">
		<tag k="name" v="Bustadmyrin" />
		<tag k="natural" v="wetland" />
		<tag k="ssr:stedsnr" v="410227" />
	</node>
	<node lat="64.84837222031177" lon="13.664213893324563" id="-91803">
		<tag k="name" v="Tosteinan" />
		<tag k="natural" v="stone" />
		<tag k="ssr:stedsnr" v="411599" />
	</node>
	<node lat="64.7754250006956" lon="13.175269453419954" id="-91807">
		<tag k="name" v="Tromsfjell statsskog" />
		<tag k="place" v="locality" />
		<tag k="ssr:stedsnr" v="412089" />
	</node>
	<node lat="64.75329999969644" lon="13.318888879094555" id="-91811">
		<tag k="historic" v="shieling" />
		<tag k="name" v="Vakkervollen" />
		<tag k="place" v="locality" />
		<tag k="ssr:stedsnr" v="412104" />
	</node>
	<node lat="64.87765555854774" lon="13.47238055077666" id="-91889">
		<tag k="name" v="Skånalimyran" />
		<tag k="natural" v="wetland" />
		<tag k="ssr:stedsnr" v="530201" />
	</node>
	<node lat="64.73437777940475" lon="13.247038897639921" id="-91890">
		<tag k="name" v="Elvmyra" />
		<tag k="natural" v="wetland" />
		<tag k="ssr:stedsnr" v="530142" />
	</node>
	<node lat="64.88276667033752" lon="13.96486111063933" id="-91892">
		<tag k="landuse" v="meadow" />
		<tag k="name" v="Fiskarstakkslettet" />
		<tag k="ssr:stedsnr" v="530335" />
	</node>
	<node lat="64.87744999608091" lon="13.69334722249321" id="-91899">
		<tag k="landuse" v="meadow" />
		<tag k="name" v="Krustakkslettet" />
		<tag k="ssr:stedsnr" v="531215" />
	</node>
	<node lat="64.86593055818916" lon="13.87285277620494" id="-91901">
		<tag k="landuse" v="meadow" />
		<tag k="name" v="Anders Ol-stallslettet" />
		<tag k="ssr:stedsnr" v="531219" />
	</node>
	<node lat="64.87256666329245" lon="13.483936110053532" id="-91903">
		<tag k="name" v="Flåmyra" />
		<tag k="natural" v="wetland" />
		<tag k="ssr:stedsnr" v="531161" />
	</node>
	<node lat="64.90918888921749" lon="13.531466659797239" id="-91957">
		<tag k="name" v="Sjulmyra" />
		<tag k="natural" v="wetland" />
		<tag k="ssr:stedsnr" v="591091" />
	</node>
	<node lat="64.87750833690596" lon="13.98094444034571" id="-91959">
		<tag k="name" v="Lodomyra" />
		<tag k="natural" v="wetland" />
		<tag k="ssr:stedsnr" v="592280" />
	</node>
	<node lat="64.87614999634182" lon="13.863900003432656" id="-91965">
		<tag k="landuse" v="meadow" />
		<tag k="name" v="Lørdagsstakkslettet" />
		<tag k="ssr:stedsnr" v="592232" />
	</node>
	<node lat="64.6633027774046" lon="13.164344442655961" id="-91968">
		<tag k="name" v="Furumyra" />
		<tag k="natural" v="wetland" />
		<tag k="ssr:stedsnr" v="592284" />
	</node>
	<node lat="64.90602499647323" lon="13.50680000764525" id="-91975">
		<tag k="name" v="Blautmyra" />
		<tag k="natural" v="wetland" />
		<tag k="ssr:stedsnr" v="593769" />
	</node>
	<node lat="64.86862222639733" lon="13.74997777118615" id="-91980">
		<tag k="name" v="Setern" />
		<tag k="place" v="locality" />
		<tag k="ssr:stedsnr" v="594583" />
	</node>
	<node lat="64.74025555981447" lon="13.544230554253495" id="-91981">
		<tag k="name" v="Limingskogan" />
		<tag k="place" v="locality" />
		<tag k="ssr:stedsnr" v="594788" />
	</node>
	<node lat="64.88009444181631" lon="13.721294437687826" id="-92040">
		<tag k="name" v="Botnmyra" />
		<tag k="natural" v="wetland" />
		<tag k="ssr:stedsnr" v="652162" />
	</node>
	<node lat="64.87905277858576" lon="13.895138890843075" id="-92043">
		<tag k="landuse" v="meadow" />
		<tag k="name" v="Sjurstakkslettet" />
		<tag k="ssr:stedsnr" v="652125" />
	</node>
	<node lat="64.88649166939878" lon="13.802722232472854" id="-92046">
		<tag k="landuse" v="meadow" />
		<tag k="name" v="Tostakkmyra" />
		<tag k="ssr:stedsnr" v="652198" />
	</node>
	<node lat="64.73541944856368" lon="13.297897222496564" id="-92048">
		<tag k="name" v="Langmyra" />
		<tag k="natural" v="wetland" />
		<tag k="ssr:stedsnr" v="653069" />
	</node>
	<node lat="64.8105305550588" lon="13.622822215648249" id="-92051">
		<tag k="name" v="Flatmyra" />
		<tag k="natural" v="wetland" />
		<tag k="ssr:stedsnr" v="653649" />
	</node>
	<node lat="64.75751944094051" lon="13.476416661524592" id="-92054">
		<tag k="name" v="Jens-Gundersenmyra" />
		<tag k="natural" v="wetland" />
		<tag k="ssr:stedsnr" v="654118" />
	</node>
	<node lat="64.99380555491454" lon="13.5678777672872" id="-92061">
		<tag k="name" v="Remmargjøtmyra" />
		<tag k="natural" v="wetland" />
		<tag k="ssr:stedsnr" v="712121" />
	</node>
	<node lat="64.91715555303405" lon="13.581619448899321" id="-92064">
		<tag k="name" v="Langmyra" />
		<tag k="natural" v="wetland" />
		<tag k="ssr:stedsnr" v="713143" />
	</node>
	<node lat="64.97958055595377" lon="13.563733335639352" id="-92065">
		<tag k="name" v="Grubbmyra" />
		<tag k="natural" v="wetland" />
		<tag k="ssr:stedsnr" v="713120" />
	</node>
	<node lat="64.89019722442754" lon="13.967663884965356" id="-92069">
		<tag k="name" v="Langmyra" />
		<tag k="natural" v="wetland" />
		<tag k="ssr:stedsnr" v="713306" />
	</node>
	<node lat="64.65347778088785" lon="13.17859443619891" id="-92076">
		<tag k="name" v="Stormyra" />
		<tag k="natural" v="wetland" />
		<tag k="ssr:stedsnr" v="713268" />
	</node>
	<node lat="64.64464166408276" lon="13.156036114606042" id="-92120">
		<tag k="historic" v="shieling" />
		<tag k="name" v="Øversela" />
		<tag k="place" v="locality" />
		<tag k="ssr:stedsnr" v="773149" />
	</node>
	<node lat="64.87702778160191" lon="13.964111107542061" id="-92122">
		<tag k="name" v="Halvvegesmyra" />
		<tag k="natural" v="wetland" />
		<tag k="ssr:stedsnr" v="773323" />
	</node>
	<node lat="64.88954999968657" lon="13.53345832585791" id="-92124">
		<tag k="name" v="Litlgrubba" />
		<tag k="natural" v="wetland" />
		<tag k="ssr:stedsnr" v="773200" />
	</node>
	<node lat="64.88249167119831" lon="13.871841658420411" id="-92127">
		<tag k="name" v="Merkesgrubba" />
		<tag k="natural" v="wetland" />
		<tag k="ssr:stedsnr" v="774228" />
	</node>
	<node lat="65.01254166745545" lon="13.654394445136177" id="-92132">
		<tag k="name" v="Tiurlimyra" />
		<tag k="natural" v="wetland" />
		<tag k="ssr:stedsnr" v="775645" />
	</node>
	<node lat="64.90269444253548" lon="13.548500005654802" id="-92139">
		<tag k="name" v="Jakobstakkslettet" />
		<tag k="natural" v="wetland" />
		<tag k="ssr:stedsnr" v="775923" />
	</node>
	<node lat="64.98502777772337" lon="13.639755558354794" id="-92140">
		<tag k="name" v="Langstakkslettet" />
		<tag k="natural" v="wetland" />
		<tag k="ssr:stedsnr" v="776546" />
	</node>
	<node lat="64.95353888923339" lon="13.568944439370894" id="-92184">
		<tag k="name" v="Bumyra" />
		<tag k="natural" v="wetland" />
		<tag k="ssr:stedsnr" v="834150" />
	</node>
	<node lat="64.73552778099274" lon="13.229555552587389" id="-92185">
		<tag k="name" v="Langmyra" />
		<tag k="natural" v="wetland" />
		<tag k="ssr:stedsnr" v="834126" />
	</node>
	<node lat="64.88493055212854" lon="13.840533327195438" id="-92186">
		<tag k="name" v="Sagbukkmyrin" />
		<tag k="natural" v="wetland" />
		<tag k="ssr:stedsnr" v="834250" />
	</node>
	<node lat="64.88170833327213" lon="13.952041660959559" id="-92191">
		<tag k="name" v="Blautmyra" />
		<tag k="natural" v="wetland" />
		<tag k="ssr:stedsnr" v="834286" />
	</node>
	<node lat="64.88032221963145" lon="13.932716669128448" id="-92193">
		<tag k="name" v="Stormyra" />
		<tag k="natural" v="wetland" />
		<tag k="ssr:stedsnr" v="834293" />
	</node>
	<node lat="64.963444443418" lon="13.560352779189538" id="-92195">
		<tag k="name" v="Kjerrmyra" />
		<tag k="natural" v="wetland" />
		<tag k="ssr:stedsnr" v="835097" />
	</node>
	<node lat="64.73774999589837" lon="13.249141671750207" id="-92258">
		<tag k="name" v="Finnmyra" />
		<tag k="natural" v="wetland" />
		<tag k="ssr:stedsnr" v="955123" />
	</node>
	<node lat="64.73456388479084" lon="13.256233332673197" id="-92259">
		<tag k="name" v="Bumyra" />
		<tag k="natural" v="wetland" />
		<tag k="ssr:stedsnr" v="955127" />
	</node>
	<node lat="64.88321111404687" lon="13.531802773778299" id="-92262">
		<tag k="name" v="Gammel-Andersmyra" />
		<tag k="natural" v="wetland" />
		<tag k="ssr:stedsnr" v="955177" />
	</node>
	<node lat="64.88451388891947" lon="13.735369434111046" id="-92264">
		<tag k="name" v="Limyra" />
		<tag k="natural" v="wetland" />
		<tag k="ssr:stedsnr" v="955198" />
	</node>
	<node lat="64.87265277873925" lon="13.599022216171573" id="-92271">
		<tag k="name" v="Storlimyrin" />
		<tag k="natural" v="wetland" />
		<tag k="ssr:stedsnr" v="956148" />
	</node>
	<node lat="64.79399444597036" lon="13.661872221886659" id="-92286">
		<tag k="name" v="Pluttmyra" />
		<tag k="natural" v="wetland" />
		<tag k="ssr:stedsnr" v="957580" />
	</node>
	<node lat="64.91589444037294" lon="13.469672223494737" id="-92290">
		<tag k="name" v="Haustmyra" />
		<tag k="natural" v="wetland" />
		<tag k="ssr:stedsnr" v="958191" />
	</node>
	<node lat="64.91237778236444" lon="13.460533328203505" id="-92291">
		<tag k="name" v="Elgstakkslettet" />
		<tag k="natural" v="wetland" />
		<tag k="ssr:stedsnr" v="958173" />
	</node>
	<node lat="65.04839999860975" lon="13.723272227545847" id="-92293">
		<tag k="name" v="Gåetie-sealma" />
		<tag k="name:sma" v="Gåetie-sealma" />
		<tag k="natural" v="wetland" />
		<tag k="ssr:stedsnr" v="958683" />
	</node>
</osm>
