<?xml version="1.0" encoding="UTF-8"?>
<osm generator="osmapis" version="0.6">
	<node id="-913021" lat="64.8898010722" lon="14.0152257998">
		<tag k="historic" v="boundary_stone" />
		<tag k="man_made" v="cairn" />
		<tag k="name" v="Røysfjellrøysa" />
		<tag k="name:no" v="Røysfjellrøysa" />
		<tag k="old_name:no" v="Jodarøysa;Joda Røset" />
		<tag k="place" v="locality" />
		<tag k="ssr:stedsnr" v="717938" />
	</node>
	<node id="-912280" lat="64.9389333301" lon="14.0772916606">
		<tag k="historic" v="boundary_stone" />
		<tag k="man_made" v="cairn" />
		<tag k="name" v="Giedtietjahkerøysa" />
		<tag k="name:no" v="Giedtietjahkerøysa" />
		<tag k="old_name:no" v="Nordsvells Røset;Nordsvellsrøysa" />
		<tag k="place" v="locality" />
		<tag k="ssr:stedsnr" v="171938" />
	</node>
	<node id="-912151" lat="65.0125184033" lon="14.1768301927">
		<tag k="historic" v="boundary_stone" />
		<tag k="man_made" v="cairn" />
		<tag k="name" v="Baajmerøysa" />
		<tag k="name:no" v="Baajmerøysa" />
		<tag k="place" v="locality" />
		<tag k="ssr:stedsnr" v="413883" />
	</node>
	<node id="-912054" lat="64.9513240672" lon="14.0936772717">
		<tag k="historic" v="boundary_stone" />
		<tag k="man_made" v="cairn" />
		<tag k="name" v="Vaellierøysa" />
		<tag k="name:no" v="Vaellierøysa" />
		<tag k="place" v="locality" />
		<tag k="ssr:stedsnr" v="480384" />
	</node>
	<node id="-912818" lat="65.1189196906" lon="14.325958172">
		<tag k="historic" v="boundary_stone" />
		<tag k="man_made" v="cairn" />
		<tag k="name" v="Jetnamsrøysa" />
		<tag k="name:no" v="Jetnamsrøysa" />
		<tag k="place" v="locality" />
		<tag k="ssr:stedsnr" v="49870" />
	</node>
	<node id="-912016" lat="65.0620203216" lon="14.2457068282">
		<tag k="historic" v="boundary_stone" />
		<tag k="man_made" v="cairn" />
		<tag k="name" v="Sipmektindrøysa" />
		<tag k="name:no" v="Sipmektindrøysa" />
		<tag k="place" v="locality" />
		<tag k="ssr:stedsnr" v="284677" />
	</node>
	<node id="-912012" lat="65.1955062865" lon="13.9421417132">
		<tag k="fixme" v="consider boundary=protected_area and relevant protect_class if not nature reserve" />
		<tag k="leisure" v="nature_reserve" />
		<tag k="name" v="Børgefjell/Byrkije nasjonalpark" />
		<tag k="name:no" v="Børgefjell/Byrkije nasjonalpark" />
		<tag k="old_name:no" v="Børgefjell nasjonalpark" />
		<tag k="ssr:stedsnr" v="317726" />
	</node>
	<node id="-912810" lat="64.97855393" lon="14.1298674536">
		<tag k="historic" v="boundary_stone" />
		<tag k="man_made" v="cairn" />
		<tag k="name" v="Gruksfjellsrøysa" />
		<tag k="name:no" v="Gruksfjellsrøysa" />
		<tag k="place" v="locality" />
		<tag k="ssr:stedsnr" v="49865" />
	</node>
	<node id="-911846" lat="65.0486791573" lon="14.2269741549">
		<tag k="historic" v="boundary_stone" />
		<tag k="man_made" v="cairn" />
		<tag k="name" v="Sipmekrøysa" />
		<tag k="name:no" v="Sipmekrøysa" />
		<tag k="place" v="locality" />
		<tag k="ssr:stedsnr" v="110878" />
	</node>
	<node id="-913253" lat="64.9237750208" lon="14.0581157816">
		<tag k="historic" v="boundary_stone" />
		<tag k="man_made" v="cairn" />
		<tag k="name" v="Gåetievartoerøysa" />
		<tag k="name:no" v="Gåetievartoerøysa" />
		<tag k="place" v="locality" />
		<tag k="ssr:stedsnr" v="231934" />
	</node>
	<node id="-912546" lat="64.8596579292" lon="13.9775459541">
		<tag k="historic" v="boundary_stone" />
		<tag k="man_made" v="cairn" />
		<tag k="name" v="Middagsklumprøysa" />
		<tag k="name:no" v="Middagsklumprøysa" />
		<tag k="place" v="locality" />
		<tag k="ssr:stedsnr" v="595908" />
	</node>
</osm>
