<?xml version="1.0" encoding="UTF-8"?>
<osm version="0.6" generator="osmapis">
	<node id="247468745" lat="60.4043308" lon="5.7233589" version="3" timestamp="2022-08-24T17:19:41Z" changeset="125325689" uid="3497659" user="NKA">
		<tag k="name" v="Samnanger" />
		<tag k="place" v="quarter" />
		<tag k="ssr:stedsnr" v="328266" />
	</node>
	<node id="253032344" lat="60.3773782" lon="5.7627474" version="5" timestamp="2022-08-24T17:19:41Z" changeset="125325689" uid="3497659" user="NKA">
		<tag k="name" v="Tysse" />
		<tag k="place" v="village" />
		<tag k="ssr:stedsnr" v="369145" />
	</node>
	<node id="253040492" lat="60.3856926" lon="5.7956954" version="4" timestamp="2022-08-24T17:19:41Z" changeset="125325689" uid="3497659" user="NKA">
		<tag k="name" v="Tysseland" />
		<tag k="place" v="farm" />
		<tag k="ssr:stedsnr" v="369130" />
	</node>
	<node id="253040493" lat="60.3782095" lon="5.8029707" version="4" timestamp="2022-08-24T17:19:41Z" changeset="125325689" uid="3497659" user="NKA">
		<tag k="name" v="Ulland" />
		<tag k="place" v="farm" />
		<tag k="ssr:stedsnr" v="455330" />
	</node>
	<node id="253040495" lat="60.3800731" lon="5.8079881" version="4" timestamp="2022-08-24T17:19:41Z" changeset="125325689" uid="3497659" user="NKA">
		<tag k="name" v="Frøland" />
		<tag k="place" v="hamlet" />
		<tag k="ssr:stedsnr" v="66156" />
	</node>
	<node id="253040498" lat="60.3869468" lon="5.7674578" version="5" timestamp="2022-08-24T17:19:41Z" changeset="125325689" uid="3497659" user="NKA">
		<tag k="name" v="Haga" />
		<tag k="place" v="village" />
		<tag k="population" v="1069" />
		<tag k="population:date" v="2021-01-01" />
		<tag k="ref:ssb_tettsted" v="5161" />
		<tag k="source:population" v="SSB - befolkning i tettstedet" />
		<tag k="ssr:stedsnr" v="940156" />
	</node>
	<node id="315456186" lat="60.3904522" lon="5.907186" version="2" timestamp="2022-08-24T17:19:41Z" changeset="125325689" uid="3497659" user="NKA">
		<tag k="name" v="Eikedalen" />
		<tag k="place" v="village" />
		<tag k="ssr:stedsnr" v="673732" />
	</node>
	<node id="4192523102" lat="60.3442353" lon="5.6808159" version="2" timestamp="2022-08-24T17:19:41Z" changeset="125325689" uid="3497659" user="NKA">
		<tag k="alt_name" v="Bjørkelund" />
		<tag k="name" v="Bjørkeland" />
		<tag k="place" v="farm" />
		<tag k="ssr:stedsnr" v="631283" />
	</node>
	<node id="4192523103" lat="60.345481" lon="5.6836732" version="3" timestamp="2022-08-24T17:19:41Z" changeset="125325689" uid="3497659" user="NKA">
		<tag k="alt_name" v="Djuvvik" />
		<tag k="name" v="Djupviki" />
		<tag k="place" v="farm" />
		<tag k="ssr:stedsnr" v="916232" />
	</node>
	<node id="4192523104" lat="60.3404778" lon="5.6700383" version="2" timestamp="2022-08-24T17:19:41Z" changeset="125325689" uid="3497659" user="NKA">
		<tag k="alt_name" v="Fagerlia" />
		<tag k="name" v="Fagerli" />
		<tag k="place" v="farm" />
		<tag k="ssr:stedsnr" v="388277" />
	</node>
	<node id="4192523105" lat="60.3387083" lon="5.6653003" version="2" timestamp="2022-08-24T17:19:41Z" changeset="125325689" uid="3497659" user="NKA">
		<tag k="name" v="Yndestad" />
		<tag k="place" v="farm" />
		<tag k="ssr:stedsnr" v="673230" />
	</node>
	<node id="4471945671" lat="60.3360698" lon="5.6607355" version="2" timestamp="2022-08-24T17:19:41Z" changeset="125325689" uid="3497659" user="NKA">
		<tag k="name" v="Stølen" />
		<tag k="place" v="farm" />
		<tag k="ssr:stedsnr" v="692278" />
	</node>
	<node id="4471945672" lat="60.3359824" lon="5.6571002" version="2" timestamp="2022-08-24T17:19:41Z" changeset="125325689" uid="3497659" user="NKA">
		<tag k="name" v="Utskot" />
		<tag k="place" v="hamlet" />
		<tag k="ssr:stedsnr" v="66202" />
	</node>
	<node id="4472304527" lat="60.3569861" lon="5.6987448" version="2" timestamp="2022-08-24T17:19:41Z" changeset="125325689" uid="3497659" user="NKA">
		<tag k="name" v="Espeli" />
		<tag k="place" v="farm" />
		<tag k="ssr:stedsnr" v="696604" />
	</node>
	<node id="4472304529" lat="60.34705" lon="5.6888781" version="2" timestamp="2022-08-24T17:19:41Z" changeset="125325689" uid="3497659" user="NKA">
		<tag k="name" v="Lundebø" />
		<tag k="place" v="farm" />
		<tag k="ssr:stedsnr" v="813275" />
	</node>
	<node id="4472306228" lat="60.3458788" lon="5.69073" version="2" timestamp="2022-08-24T17:19:41Z" changeset="125325689" uid="3497659" user="NKA">
		<tag k="alt_name" v="Øvstebø" />
		<tag k="name" v="Øpstebø" />
		<tag k="old_name" v="Øystebø" />
		<tag k="place" v="farm" />
		<tag k="ssr:stedsnr" v="855210" />
	</node>
	<node id="4869731861" lat="60.3905361" lon="5.6552365" version="2" timestamp="2022-08-24T17:19:41Z" changeset="125325689" uid="3497659" user="NKA">
		<tag k="name" v="Oppheim" />
		<tag k="place" v="farm" />
		<tag k="ssr:stedsnr" v="551145" />
	</node>
	<node id="4940323094" lat="60.4002362" lon="5.7118101" version="3" timestamp="2022-08-24T17:19:41Z" changeset="125325689" uid="3497659" user="NKA">
		<tag k="alt_name" v="Årland" />
		<tag k="name" v="Ådland" />
		<tag k="place" v="hamlet" />
		<tag k="ssr:stedsnr" v="672103" />
	</node>
	<node id="5199767954" lat="60.4374745" lon="5.7476783" version="2" timestamp="2022-08-24T17:19:41Z" changeset="125325689" uid="3497659" user="NKA">
		<tag k="historic" v="shieling" />
		<tag k="name" v="Nordvikasetret" />
		<tag k="place" v="isolated_dwelling" />
		<tag k="ssr:stedsnr" v="308044" />
	</node>
	<node id="8383065478" lat="60.4632841" lon="5.8936465" version="2" timestamp="2022-08-24T17:19:41Z" changeset="125325689" uid="3497659" user="NKA">
		<tag k="name" v="Kvitingen" />
		<tag k="place" v="hamlet" />
		<tag k="ssr:stedsnr" v="5330" />
	</node>
	<node id="8383088032" lat="60.4515763" lon="5.8665298" version="2" timestamp="2022-08-24T17:19:41Z" changeset="125325689" uid="3497659" user="NKA">
		<tag k="name" v="Kleivane" />
		<tag k="place" v="hamlet" />
		<tag k="ssr:stedsnr" v="248380" />
	</node>
	<node id="9975399711" lat="60.2978517" lon="5.61817" version="1" timestamp="2022-08-24T17:19:41Z" changeset="125325689" uid="3497659" user="NKA">
		<tag k="name" v="Hagen" />
		<tag k="place" v="farm" />
		<tag k="ssr:stedsnr" v="692818" />
	</node>
	<node id="9975399712" lat="60.3359394" lon="5.6915245" version="1" timestamp="2022-08-24T17:19:41Z" changeset="125325689" uid="3497659" user="NKA">
		<tag k="name" v="Liabøen" />
		<tag k="place" v="farm" />
		<tag k="ssr:stedsnr" v="479128" />
	</node>
	<node id="9975399713" lat="60.294625" lon="5.6174392" version="1" timestamp="2022-08-24T17:19:41Z" changeset="125325689" uid="3497659" user="NKA">
		<tag k="name" v="Træet" />
		<tag k="place" v="farm" />
		<tag k="ssr:stedsnr" v="733260" />
	</node>
	<node id="9975399714" lat="60.2894641" lon="5.6150068" version="1" timestamp="2022-08-24T17:19:41Z" changeset="125325689" uid="3497659" user="NKA">
		<tag k="name" v="Skiftesvika" />
		<tag k="place" v="farm" />
		<tag k="ssr:stedsnr" v="5264" />
	</node>
	<node id="9975399715" lat="60.3318062" lon="5.6260282" version="1" timestamp="2022-08-24T17:19:41Z" changeset="125325689" uid="3497659" user="NKA">
		<tag k="name" v="Våga" />
		<tag k="place" v="farm" />
		<tag k="ssr:stedsnr" v="126201" />
	</node>
	<node id="9975399716" lat="60.3268222" lon="5.6185837" version="1" timestamp="2022-08-24T17:19:41Z" changeset="125325689" uid="3497659" user="NKA">
		<tag k="name" v="Gryvlet" />
		<tag k="place" v="farm" />
		<tag k="ssr:stedsnr" v="28551" />
	</node>
	<node id="9975402217" lat="60.3479334" lon="5.5957142" version="1" timestamp="2022-08-24T17:19:41Z" changeset="125325689" uid="3497659" user="NKA">
		<tag k="name" v="Brekkehytta" />
		<tag k="place" v="isolated_dwelling" />
		<tag k="ssr:stedsnr" v="673215" />
	</node>
	<node id="9975402218" lat="60.2997148" lon="5.618526" version="1" timestamp="2022-08-24T17:19:41Z" changeset="125325689" uid="3497659" user="NKA">
		<tag k="name" v="Solbjørg" />
		<tag k="place" v="hamlet" />
		<tag k="ssr:stedsnr" v="66271" />
	</node>
	<node id="9975402219" lat="60.3171808" lon="5.6236847" version="1" timestamp="2022-08-24T17:19:41Z" changeset="125325689" uid="3497659" user="NKA">
		<tag k="name" v="Berget" />
		<tag k="place" v="farm" />
		<tag k="ssr:stedsnr" v="874825" />
	</node>
	<node id="9975402220" lat="60.3477273" lon="5.685856" version="1" timestamp="2022-08-24T17:19:41Z" changeset="125325689" uid="3497659" user="NKA">
		<tag k="name" v="Bakke" />
		<tag k="place" v="farm" />
		<tag k="ssr:stedsnr" v="248209" />
	</node>
	<node id="9975402221" lat="60.3922645" lon="5.7700202" version="1" timestamp="2022-08-24T17:19:41Z" changeset="125325689" uid="3497659" user="NKA">
		<tag k="name" v="Steinsland" />
		<tag k="place" v="farm" />
		<tag k="ssr:stedsnr" v="491142" />
	</node>
	<node id="9975402222" lat="60.4216472" lon="5.7178588" version="1" timestamp="2022-08-24T17:19:41Z" changeset="125325689" uid="3497659" user="NKA">
		<tag k="historic" v="shieling" />
		<tag k="name" v="Heiasetret" />
		<tag k="place" v="isolated_dwelling" />
		<tag k="ssr:stedsnr" v="612082" />
	</node>
	<node id="9975402223" lat="60.3142778" lon="5.6219532" version="1" timestamp="2022-08-24T17:19:41Z" changeset="125325689" uid="3497659" user="NKA">
		<tag k="name" v="Rinden" />
		<tag k="place" v="farm" />
		<tag k="ssr:stedsnr" v="855250" />
	</node>
	<node id="9975402224" lat="60.4116657" lon="5.7387381" version="1" timestamp="2022-08-24T17:19:41Z" changeset="125325689" uid="3497659" user="NKA">
		<tag k="name" v="Steintveit" />
		<tag k="place" v="farm" />
		<tag k="ssr:stedsnr" v="309081" />
	</node>
	<node id="9975402225" lat="60.3762035" lon="5.6943742" version="1" timestamp="2022-08-24T17:19:41Z" changeset="125325689" uid="3497659" user="NKA">
		<tag k="name" v="Nedre-Kvernes" />
		<tag k="place" v="farm" />
		<tag k="ssr:stedsnr" v="916155" />
	</node>
	<node id="9975402226" lat="60.3831903" lon="5.7668979" version="1" timestamp="2022-08-24T17:19:41Z" changeset="125325689" uid="3497659" user="NKA">
		<tag k="alt_name" v="Haga;Ytra Haga" />
		<tag k="name" v="Ytre Haga" />
		<tag k="place" v="farm" />
		<tag k="ssr:stedsnr" v="309170" />
	</node>
	<node id="9975402227" lat="60.368775" lon="5.7225587" version="1" timestamp="2022-08-24T17:19:41Z" changeset="125325689" uid="3497659" user="NKA">
		<tag k="name" v="Sætreviki" />
		<tag k="place" v="farm" />
		<tag k="ssr:stedsnr" v="915153" />
	</node>
	<node id="9975402228" lat="60.3921056" lon="5.7143115" version="1" timestamp="2022-08-24T17:19:41Z" changeset="125325689" uid="3497659" user="NKA">
		<tag k="alt_name" v="Sørvika" />
		<tag k="name" v="Søvik" />
		<tag k="place" v="farm" />
		<tag k="ssr:stedsnr" v="794132" />
	</node>
	<node id="9975402229" lat="60.3552798" lon="5.6966053" version="1" timestamp="2022-08-24T17:19:41Z" changeset="125325689" uid="3497659" user="NKA">
		<tag k="name" v="Ytste-Kampen" />
		<tag k="place" v="farm" />
		<tag k="ssr:stedsnr" v="90913" />
	</node>
	<node id="9975402230" lat="60.3783414" lon="5.6919471" version="1" timestamp="2022-08-24T17:19:41Z" changeset="125325689" uid="3497659" user="NKA">
		<tag k="name" v="Kleppe" />
		<tag k="place" v="farm" />
		<tag k="ssr:stedsnr" v="248145" />
	</node>
	<node id="9975402231" lat="60.3501651" lon="5.6837217" version="1" timestamp="2022-08-24T17:19:41Z" changeset="125325689" uid="3497659" user="NKA">
		<tag k="name" v="Sagi" />
		<tag k="place" v="farm" />
		<tag k="ssr:stedsnr" v="855201" />
	</node>
	<node id="9975402232" lat="60.3765154" lon="5.6634401" version="1" timestamp="2022-08-24T17:19:41Z" changeset="125325689" uid="3497659" user="NKA">
		<tag k="name" v="Skjeljåna" />
		<tag k="place" v="farm" />
		<tag k="ssr:stedsnr" v="734162" />
	</node>
	<node id="9975402233" lat="60.4103195" lon="5.7891309" version="1" timestamp="2022-08-24T17:19:41Z" changeset="125325689" uid="3497659" user="NKA">
		<tag k="historic" v="shieling" />
		<tag k="name" v="Kloppastølen" />
		<tag k="place" v="isolated_dwelling" />
		<tag k="ssr:stedsnr" v="939208" />
	</node>
	<node id="9975402234" lat="60.4185348" lon="5.7821729" version="1" timestamp="2022-08-24T17:19:41Z" changeset="125325689" uid="3497659" user="NKA">
		<tag k="name" v="Totræna" />
		<tag k="place" v="farm" />
		<tag k="ssr:stedsnr" v="941474" />
	</node>
	<node id="9975402235" lat="60.3518861" lon="5.669367" version="1" timestamp="2022-08-24T17:19:41Z" changeset="125325689" uid="3497659" user="NKA">
		<tag k="name" v="Stykket" />
		<tag k="place" v="farm" />
		<tag k="ssr:stedsnr" v="90919" />
	</node>
	<node id="9975402236" lat="60.3830833" lon="5.6589058" version="1" timestamp="2022-08-24T17:19:41Z" changeset="125325689" uid="3497659" user="NKA">
		<tag k="name" v="Krossaleitet" />
		<tag k="place" v="farm" />
		<tag k="ssr:stedsnr" v="66135" />
	</node>
	<node id="9975402237" lat="60.4096354" lon="5.723921" version="1" timestamp="2022-08-24T17:19:41Z" changeset="125325689" uid="3497659" user="NKA">
		<tag k="name" v="Reistad" />
		<tag k="place" v="farm" />
		<tag k="ssr:stedsnr" v="672089" />
	</node>
	<node id="9975402238" lat="60.4271139" lon="5.789842" version="1" timestamp="2022-08-24T17:19:41Z" changeset="125325689" uid="3497659" user="NKA">
		<tag k="historic" v="shieling" />
		<tag k="name" v="Tosetret" />
		<tag k="place" v="isolated_dwelling" />
		<tag k="ssr:stedsnr" v="819463" />
	</node>
	<node id="9975402239" lat="60.3522305" lon="5.7310558" version="1" timestamp="2022-08-24T17:19:41Z" changeset="125325689" uid="3497659" user="NKA">
		<tag k="name" v="Fossåsen" />
		<tag k="place" v="farm" />
		<tag k="ssr:stedsnr" v="66184" />
	</node>
	<node id="9975402240" lat="60.4201028" lon="5.7150431" version="1" timestamp="2022-08-24T17:19:41Z" changeset="125325689" uid="3497659" user="NKA">
		<tag k="historic" v="shieling" />
		<tag k="name" v="Reistadsetret" />
		<tag k="place" v="isolated_dwelling" />
		<tag k="ssr:stedsnr" v="673092" />
	</node>
	<node id="9975402241" lat="60.3928144" lon="5.6770832" version="1" timestamp="2022-08-24T17:19:41Z" changeset="125325689" uid="3497659" user="NKA">
		<tag k="name" v="Haugen" />
		<tag k="place" v="farm" />
		<tag k="ssr:stedsnr" v="66130" />
	</node>
	<node id="9975402242" lat="60.4198301" lon="5.7563665" version="1" timestamp="2022-08-24T17:19:41Z" changeset="125325689" uid="3497659" user="NKA">
		<tag k="name" v="Hildersmark" />
		<tag k="place" v="farm" />
		<tag k="ssr:stedsnr" v="819311" />
	</node>
	<node id="9975402243" lat="60.3957715" lon="5.7478531" version="1" timestamp="2022-08-24T17:19:41Z" changeset="125325689" uid="3497659" user="NKA">
		<tag k="name" v="Haukaneset" />
		<tag k="place" v="farm" />
		<tag k="ssr:stedsnr" v="612130" />
	</node>
	<node id="9975402244" lat="60.3967417" lon="5.8553502" version="1" timestamp="2022-08-24T17:19:41Z" changeset="125325689" uid="3497659" user="NKA">
		<tag k="historic" v="shieling" />
		<tag k="name" v="Børdalssetret" />
		<tag k="place" v="isolated_dwelling" />
		<tag k="ssr:stedsnr" v="369711" />
	</node>
	<node id="9975402245" lat="60.4347928" lon="5.8146441" version="1" timestamp="2022-08-24T17:19:41Z" changeset="125325689" uid="3497659" user="NKA">
		<tag k="name" v="Dyrhovden" />
		<tag k="place" v="farm" />
		<tag k="ssr:stedsnr" v="794041" />
	</node>
	<node id="9975402246" lat="60.3860317" lon="5.8010285" version="1" timestamp="2022-08-24T17:19:41Z" changeset="125325689" uid="3497659" user="NKA">
		<tag k="name" v="Totland" />
		<tag k="place" v="hamlet" />
		<tag k="ssr:stedsnr" v="551153" />
	</node>
	<node id="9975402247" lat="60.3517889" lon="5.6697809" version="1" timestamp="2022-08-24T17:19:41Z" changeset="125325689" uid="3497659" user="NKA">
		<tag k="name" v="Brattli" />
		<tag k="place" v="locality" />
		<tag k="ssr:stedsnr" v="612215" />
	</node>
	<node id="9975402248" lat="60.4019495" lon="5.7311212" version="1" timestamp="2022-08-24T17:19:41Z" changeset="125325689" uid="3497659" user="NKA">
		<tag k="name" v="Bjørkheim" />
		<tag k="place" v="village" />
		<tag k="ssr:stedsnr" v="5102" />
	</node>
	<node id="9975402249" lat="60.3947028" lon="5.7668697" version="1" timestamp="2022-08-24T17:19:41Z" changeset="125325689" uid="3497659" user="NKA">
		<tag k="name" v="Neset" />
		<tag k="place" v="farm" />
		<tag k="ssr:stedsnr" v="696814" />
	</node>
	<node id="9975402250" lat="60.4025535" lon="5.7559959" version="1" timestamp="2022-08-24T17:19:41Z" changeset="125325689" uid="3497659" user="NKA">
		<tag k="name" v="Slåtta" />
		<tag k="place" v="farm" />
		<tag k="ssr:stedsnr" v="734117" />
	</node>
	<node id="9975402251" lat="60.3196465" lon="5.6240446" version="1" timestamp="2022-08-24T17:19:41Z" changeset="125325689" uid="3497659" user="NKA">
		<tag k="name" v="Rolsvåg" />
		<tag k="place" v="hamlet" />
		<tag k="ssr:stedsnr" v="188271" />
	</node>
	<node id="9975402252" lat="60.4283222" lon="5.7918476" version="1" timestamp="2022-08-24T17:19:41Z" changeset="125325689" uid="3497659" user="NKA">
		<tag k="historic" v="shieling" />
		<tag k="name" v="Tveitasetret" />
		<tag k="place" v="isolated_dwelling" />
		<tag k="ssr:stedsnr" v="698411" />
	</node>
	<node id="9975402253" lat="60.4244725" lon="5.8204957" version="1" timestamp="2022-08-24T17:19:41Z" changeset="125325689" uid="3497659" user="NKA">
		<tag k="name" v="Fisket" />
		<tag k="place" v="farm" />
		<tag k="ssr:stedsnr" v="698361" />
	</node>
	<node id="9975402254" lat="60.3966196" lon="5.6794813" version="1" timestamp="2022-08-24T17:19:41Z" changeset="125325689" uid="3497659" user="NKA">
		<tag k="alt_name" v="Hisdalen" />
		<tag k="name" v="Hisdal" />
		<tag k="place" v="hamlet" />
		<tag k="ssr:stedsnr" v="5101" />
	</node>
	<node id="9975402255" lat="60.4181379" lon="5.7550545" version="1" timestamp="2022-08-24T17:19:41Z" changeset="125325689" uid="3497659" user="NKA">
		<tag k="name" v="Myrland" />
		<tag k="place" v="farm" />
		<tag k="ssr:stedsnr" v="151301" />
	</node>
	<node id="9975402256" lat="60.4133111" lon="5.786867" version="1" timestamp="2022-08-24T17:19:41Z" changeset="125325689" uid="3497659" user="NKA">
		<tag k="name" v="Nygård" />
		<tag k="place" v="farm" />
		<tag k="ssr:stedsnr" v="551100" />
	</node>
	<node id="9975402257" lat="60.3694389" lon="5.7472143" version="1" timestamp="2022-08-24T17:19:41Z" changeset="125325689" uid="3497659" user="NKA">
		<tag k="name" v="Indre Barmen" />
		<tag k="place" v="farm" />
		<tag k="ssr:stedsnr" v="449300" />
	</node>
	<node id="9975402258" lat="60.3678038" lon="5.7342836" version="1" timestamp="2022-08-24T17:19:41Z" changeset="125325689" uid="3497659" user="NKA">
		<tag k="name" v="Ytste Barmen" />
		<tag k="place" v="locality" />
		<tag k="ssr:stedsnr" v="483060" />
	</node>
	<node id="9975402259" lat="60.3407583" lon="5.6357532" version="1" timestamp="2022-08-24T17:19:41Z" changeset="125325689" uid="3497659" user="NKA">
		<tag k="name" v="Austavik" />
		<tag k="place" v="farm" />
		<tag k="ssr:stedsnr" v="126205" />
	</node>
	<node id="9975402260" lat="60.3691263" lon="5.7290439" version="1" timestamp="2022-08-24T17:19:41Z" changeset="125325689" uid="3497659" user="NKA">
		<tag k="name" v="Nymark" />
		<tag k="place" v="farm" />
		<tag k="ssr:stedsnr" v="388275" />
	</node>
	<node id="9975402261" lat="60.3669718" lon="5.6792486" version="1" timestamp="2022-08-24T17:19:41Z" changeset="125325689" uid="3497659" user="NKA">
		<tag k="name" v="Litangen" />
		<tag k="place" v="farm" />
		<tag k="ssr:stedsnr" v="393574" />
	</node>
	<node id="9975402262" lat="60.4352341" lon="5.8956936" version="1" timestamp="2022-08-24T17:19:41Z" changeset="125325689" uid="3497659" user="NKA">
		<tag k="historic" v="shieling" />
		<tag k="name" v="Kvanndalen" />
		<tag k="place" v="isolated_dwelling" />
		<tag k="ssr:stedsnr" v="611440" />
	</node>
	<node id="9975402263" lat="60.3301438" lon="5.6936553" version="1" timestamp="2022-08-24T17:19:41Z" changeset="125325689" uid="3497659" user="NKA">
		<tag k="name" v="Sævell" />
		<tag k="place" v="farm" />
		<tag k="ssr:stedsnr" v="145481" />
	</node>
	<node id="9975402264" lat="60.374566" lon="5.8087099" version="1" timestamp="2022-08-24T17:19:41Z" changeset="125325689" uid="3497659" user="NKA">
		<tag k="name" v="Haug" />
		<tag k="place" v="hamlet" />
		<tag k="ssr:stedsnr" v="490155" />
	</node>
	<node id="9975402265" lat="60.3643634" lon="5.6762706" version="1" timestamp="2022-08-24T17:19:41Z" changeset="125325689" uid="3497659" user="NKA">
		<tag k="name" v="Li" />
		<tag k="place" v="hamlet" />
		<tag k="ssr:stedsnr" v="369163" />
	</node>
	<node id="9975402266" lat="60.3963333" lon="5.7689891" version="1" timestamp="2022-08-24T17:19:41Z" changeset="125325689" uid="3497659" user="NKA">
		<tag k="name" v="Gjerde" />
		<tag k="place" v="farm" />
		<tag k="ssr:stedsnr" v="510347" />
	</node>
	<node id="9975402267" lat="60.3996537" lon="5.7836067" version="1" timestamp="2022-08-24T17:19:41Z" changeset="125325689" uid="3497659" user="NKA">
		<tag k="name" v="Tveitarås" />
		<tag k="place" v="farm" />
		<tag k="ssr:stedsnr" v="430105" />
	</node>
	<node id="9975402268" lat="60.3245555" lon="5.6141366" version="1" timestamp="2022-08-24T17:19:41Z" changeset="125325689" uid="3497659" user="NKA">
		<tag k="name" v="Nymark" />
		<tag k="place" v="farm" />
		<tag k="ssr:stedsnr" v="855224" />
	</node>
	<node id="9975402269" lat="60.3999169" lon="5.7408023" version="1" timestamp="2022-08-24T17:19:41Z" changeset="125325689" uid="3497659" user="NKA">
		<tag k="name" v="Lauskar" />
		<tag k="place" v="farm" />
		<tag k="ssr:stedsnr" v="309112" />
	</node>
	<node id="9975402270" lat="60.3737329" lon="5.8166497" version="1" timestamp="2022-08-24T17:19:41Z" changeset="125325689" uid="3497659" user="NKA">
		<tag k="name" v="Jarland" />
		<tag k="place" v="farm" />
		<tag k="ssr:stedsnr" v="490180" />
	</node>
	<node id="9975402271" lat="60.3769229" lon="5.6979191" version="1" timestamp="2022-08-24T17:19:41Z" changeset="125325689" uid="3497659" user="NKA">
		<tag k="name" v="Øvre-Kvernes" />
		<tag k="place" v="farm" />
		<tag k="ssr:stedsnr" v="248144" />
	</node>
	<node id="9975402272" lat="60.3665075" lon="5.6795347" version="1" timestamp="2022-08-24T17:19:41Z" changeset="125325689" uid="3497659" user="NKA">
		<tag k="name" v="Oldervollen" />
		<tag k="place" v="farm" />
		<tag k="ssr:stedsnr" v="272535" />
	</node>
	<node id="9975402273" lat="60.3583566" lon="5.6905924" version="1" timestamp="2022-08-24T17:19:41Z" changeset="125325689" uid="3497659" user="NKA">
		<tag k="alt_name" v="Nygård" />
		<tag k="name" v="Nygard" />
		<tag k="place" v="locality" />
		<tag k="ssr:stedsnr" v="308152" />
	</node>
	<node id="9975402274" lat="60.3736455" lon="5.7558402" version="1" timestamp="2022-08-24T17:19:41Z" changeset="125325689" uid="3497659" user="NKA">
		<tag k="name" v="Ytre-Tysse" />
		<tag k="place" v="farm" />
		<tag k="ssr:stedsnr" v="394236" />
	</node>
	<node id="9975402275" lat="60.3989528" lon="5.8442059" version="1" timestamp="2022-08-24T17:19:41Z" changeset="125325689" uid="3497659" user="NKA">
		<tag k="name" v="Kråni" />
		<tag k="place" v="farm" />
		<tag k="ssr:stedsnr" v="308443" />
	</node>
	<node id="9975402276" lat="60.3944611" lon="5.6743004" version="1" timestamp="2022-08-24T17:19:41Z" changeset="125325689" uid="3497659" user="NKA">
		<tag k="name" v="Holdhus" />
		<tag k="place" v="farm" />
		<tag k="ssr:stedsnr" v="248099" />
	</node>
	<node id="9975402277" lat="60.4191" lon="5.7246864" version="1" timestamp="2022-08-24T17:19:41Z" changeset="125325689" uid="3497659" user="NKA">
		<tag k="name" v="Bjørnåsen" />
		<tag k="place" v="farm" />
		<tag k="ssr:stedsnr" v="916089" />
	</node>
	<node id="9975402278" lat="60.3744555" lon="5.6620309" version="1" timestamp="2022-08-24T17:19:41Z" changeset="125325689" uid="3497659" user="NKA">
		<tag k="name" v="Nordbøfeta" />
		<tag k="place" v="locality" />
		<tag k="ssr:stedsnr" v="757970" />
	</node>
	<node id="9975402279" lat="60.4037663" lon="5.7891462" version="1" timestamp="2022-08-24T17:19:41Z" changeset="125325689" uid="3497659" user="NKA">
		<tag k="name" v="Tveit" />
		<tag k="place" v="hamlet" />
		<tag k="ssr:stedsnr" v="309117" />
	</node>
	<node id="9975402280" lat="60.3763381" lon="5.6508084" version="1" timestamp="2022-08-24T17:19:41Z" changeset="125325689" uid="3497659" user="NKA">
		<tag k="name" v="Trengereid" />
		<tag k="place" v="hamlet" />
		<tag k="ssr:stedsnr" v="127158" />
	</node>
	<node id="9975402281" lat="60.3578667" lon="5.6099449" version="1" timestamp="2022-08-24T17:19:41Z" changeset="125325689" uid="3497659" user="NKA">
		<tag k="historic" v="shieling" />
		<tag k="name" v="Brekkesetret" />
		<tag k="place" v="isolated_dwelling" />
		<tag k="ssr:stedsnr" v="28653" />
	</node>
	<node id="9975402282" lat="60.3967889" lon="5.6884781" version="1" timestamp="2022-08-24T17:19:41Z" changeset="125325689" uid="3497659" user="NKA">
		<tag k="name" v="Leitet" />
		<tag k="place" v="farm" />
		<tag k="ssr:stedsnr" v="5100" />
	</node>
	<node id="9975402283" lat="60.3682491" lon="5.7336246" version="1" timestamp="2022-08-24T17:19:41Z" changeset="125325689" uid="3497659" user="NKA">
		<tag k="name" v="Barmen" />
		<tag k="place" v="hamlet" />
		<tag k="ssr:stedsnr" v="611150" />
	</node>
	<node id="9975402284" lat="60.3867469" lon="5.7650466" version="1" timestamp="2022-08-24T17:19:41Z" changeset="125325689" uid="3497659" user="NKA">
		<tag k="alt_name" v="Indra Haga" />
		<tag k="name" v="Indre Haga" />
		<tag k="place" v="farm" />
		<tag k="ssr:stedsnr" v="267260" />
	</node>
	<node id="9975402285" lat="60.3510126" lon="5.6856341" version="1" timestamp="2022-08-24T17:19:41Z" changeset="125325689" uid="3497659" user="NKA">
		<tag k="name" v="Sandvika" />
		<tag k="place" v="farm" />
		<tag k="ssr:stedsnr" v="855200" />
	</node>
	<node id="9975402286" lat="60.3467227" lon="5.6410232" version="1" timestamp="2022-08-24T17:19:41Z" changeset="125325689" uid="3497659" user="NKA">
		<tag k="name" v="Sagi" />
		<tag k="place" v="hamlet" />
		<tag k="ssr:stedsnr" v="794204" />
	</node>
	<node id="9975402287" lat="60.3539666" lon="5.7977392" version="1" timestamp="2022-08-24T17:19:41Z" changeset="125325689" uid="3497659" user="NKA">
		<tag k="historic" v="shieling" />
		<tag k="name" v="Haugssetret" />
		<tag k="place" v="isolated_dwelling" />
		<tag k="ssr:stedsnr" v="241035" />
	</node>
	<node id="9975402288" lat="60.4135106" lon="5.7320853" version="1" timestamp="2022-08-24T17:19:41Z" changeset="125325689" uid="3497659" user="NKA">
		<tag k="name" v="Nordbygda" />
		<tag k="place" v="hamlet" />
		<tag k="ssr:stedsnr" v="794074" />
	</node>
	<node id="9975402289" lat="60.4294438" lon="5.8082157" version="1" timestamp="2022-08-24T17:19:41Z" changeset="125325689" uid="3497659" user="NKA">
		<tag k="name" v="Øvrebø" />
		<tag k="place" v="farm" />
		<tag k="ssr:stedsnr" v="126064" />
	</node>
	<node id="9975402290" lat="60.3738991" lon="5.6632805" version="1" timestamp="2022-08-24T17:19:41Z" changeset="125325689" uid="3497659" user="NKA">
		<tag k="name" v="Skarsvågen" />
		<tag k="place" v="farm" />
		<tag k="ssr:stedsnr" v="878962" />
	</node>
	<node id="9975402291" lat="60.4414952" lon="5.8476859" version="1" timestamp="2022-08-24T17:19:41Z" changeset="125325689" uid="3497659" user="NKA">
		<tag k="name" v="Grønsdalen" />
		<tag k="place" v="hamlet" />
		<tag k="ssr:stedsnr" v="126382" />
	</node>
	<node id="9975402292" lat="60.4300666" lon="5.7844253" version="1" timestamp="2022-08-24T17:19:41Z" changeset="125325689" uid="3497659" user="NKA">
		<tag k="historic" v="shieling" />
		<tag k="name" v="Steinslandssetret" />
		<tag k="place" v="isolated_dwelling" />
		<tag k="ssr:stedsnr" v="819460" />
	</node>
	<node id="9975402293" lat="60.3661247" lon="5.6960858" version="1" timestamp="2022-08-24T17:19:41Z" changeset="125325689" uid="3497659" user="NKA">
		<tag k="name" v="Gaupholm" />
		<tag k="place" v="hamlet" />
		<tag k="ssr:stedsnr" v="126147" />
	</node>
	<node id="9975402294" lat="60.4402889" lon="5.8817447" version="1" timestamp="2022-08-24T17:19:41Z" changeset="125325689" uid="3497659" user="NKA">
		<tag k="name" v="Tverrlia" />
		<tag k="place" v="farm" />
		<tag k="ssr:stedsnr" v="672410" />
	</node>
	<node id="9975402295" lat="60.4297361" lon="5.8513337" version="1" timestamp="2022-08-24T17:19:41Z" changeset="125325689" uid="3497659" user="NKA">
		<tag k="name" v="Tøene" />
		<tag k="place" v="farm" />
		<tag k="ssr:stedsnr" v="794405" />
	</node>
	<node id="9975402296" lat="60.3563806" lon="5.7731697" version="1" timestamp="2022-08-24T17:19:41Z" changeset="125325689" uid="3497659" user="NKA">
		<tag k="name" v="Dunsengi" />
		<tag k="place" v="isolated_dwelling" />
		<tag k="ssr:stedsnr" v="844023" />
	</node>
	<node id="9975402297" lat="60.3679504" lon="5.6796166" version="1" timestamp="2022-08-24T17:19:41Z" changeset="125325689" uid="3497659" user="NKA">
		<tag k="name" v="Oldervik" />
		<tag k="place" v="farm" />
		<tag k="ssr:stedsnr" v="874307" />
	</node>
	<node id="9975402298" lat="60.4032678" lon="5.8435589" version="1" timestamp="2022-08-24T17:19:41Z" changeset="125325689" uid="3497659" user="NKA">
		<tag k="name" v="Børdalen" />
		<tag k="place" v="hamlet" />
		<tag k="ssr:stedsnr" v="672441" />
	</node>
	<node id="9975402299" lat="60.4037164" lon="5.7649318" version="1" timestamp="2022-08-24T17:19:41Z" changeset="125325689" uid="3497659" user="NKA">
		<tag k="name" v="Myra" />
		<tag k="place" v="farm" />
		<tag k="ssr:stedsnr" v="879249" />
	</node>
	<node id="9975402300" lat="60.3999872" lon="5.7906125" version="1" timestamp="2022-08-24T17:19:41Z" changeset="125325689" uid="3497659" user="NKA">
		<tag k="name" v="Austbø" />
		<tag k="place" v="farm" />
		<tag k="ssr:stedsnr" v="855111" />
	</node>
	<node id="9975402301" lat="60.3654361" lon="5.6554672" version="1" timestamp="2022-08-24T17:19:41Z" changeset="125325689" uid="3497659" user="NKA">
		<tag k="name" v="Liøyna" />
		<tag k="place" v="farm" />
		<tag k="ssr:stedsnr" v="635920" />
	</node>
	<node id="9975402302" lat="60.3796945" lon="5.8931976" version="1" timestamp="2022-08-24T17:19:41Z" changeset="125325689" uid="3497659" user="NKA">
		<tag k="name" v="Fossen" />
		<tag k="place" v="locality" />
		<tag k="ssr:stedsnr" v="577609" />
	</node>
	<node id="9975402303" lat="60.4286139" lon="5.7895392" version="1" timestamp="2022-08-24T17:19:41Z" changeset="125325689" uid="3497659" user="NKA">
		<tag k="historic" v="shieling" />
		<tag k="name" v="Hagasetret" />
		<tag k="place" v="isolated_dwelling" />
		<tag k="ssr:stedsnr" v="698414" />
	</node>
	<node id="9975402304" lat="60.4080806" lon="5.7690586" version="1" timestamp="2022-08-24T17:19:41Z" changeset="125325689" uid="3497659" user="NKA">
		<tag k="name" v="Dalane" />
		<tag k="place" v="farm" />
		<tag k="ssr:stedsnr" v="187086" />
	</node>
	<node id="9975402305" lat="60.4425334" lon="5.9210586" version="1" timestamp="2022-08-24T17:19:41Z" changeset="125325689" uid="3497659" user="NKA">
		<tag k="historic" v="shieling" />
		<tag k="name" v="Bjørkestølane" />
		<tag k="place" v="isolated_dwelling" />
		<tag k="ssr:stedsnr" v="274695" />
	</node>
	<node id="9975402306" lat="60.4191961" lon="5.7136561" version="1" timestamp="2022-08-24T17:19:41Z" changeset="125325689" uid="3497659" user="NKA">
		<tag k="historic" v="shieling" />
		<tag k="name" v="Utgjerdesetret" />
		<tag k="place" v="isolated_dwelling" />
		<tag k="ssr:stedsnr" v="576282" />
	</node>
	<node id="9975402307" lat="60.4479361" lon="5.869478" version="1" timestamp="2022-08-24T17:19:41Z" changeset="125325689" uid="3497659" user="NKA">
		<tag k="name" v="Steinhushaugen" />
		<tag k="place" v="farm" />
		<tag k="ssr:stedsnr" v="490367" />
	</node>
	<node id="9975402308" lat="60.4120556" lon="5.8141892" version="1" timestamp="2022-08-24T17:19:41Z" changeset="125325689" uid="3497659" user="NKA">
		<tag k="name" v="Svensdalen" />
		<tag k="place" v="farm" />
		<tag k="ssr:stedsnr" v="514937" />
	</node>
	<node id="9975402309" lat="60.4129167" lon="5.9135031" version="1" timestamp="2022-08-24T17:19:41Z" changeset="125325689" uid="3497659" user="NKA">
		<tag k="historic" v="shieling" />
		<tag k="name" v="Svensdalssetret" />
		<tag k="place" v="isolated_dwelling" />
		<tag k="ssr:stedsnr" v="915424" />
	</node>
	<node id="9975402310" lat="60.4127277" lon="5.7341906" version="1" timestamp="2022-08-24T17:19:41Z" changeset="125325689" uid="3497659" user="NKA">
		<tag k="name" v="Nordvika" />
		<tag k="place" v="farm" />
		<tag k="ssr:stedsnr" v="454960" />
	</node>
	<node id="9975402311" lat="60.4036367" lon="5.7924646" version="1" timestamp="2022-08-24T17:19:41Z" changeset="125325689" uid="3497659" user="NKA">
		<tag k="name" v="Langeland" />
		<tag k="place" v="farm" />
		<tag k="ssr:stedsnr" v="551119" />
	</node>
	<node id="9975402312" lat="60.4334278" lon="5.7579198" version="1" timestamp="2022-08-24T17:19:41Z" changeset="125325689" uid="3497659" user="NKA">
		<tag k="historic" v="shieling" />
		<tag k="name" v="Rødssetret" />
		<tag k="place" v="isolated_dwelling" />
		<tag k="ssr:stedsnr" v="5035" />
	</node>
	<node id="9975402313" lat="60.3760326" lon="5.7599565" version="1" timestamp="2022-08-24T17:19:41Z" changeset="125325689" uid="3497659" user="NKA">
		<tag k="name" v="Indre-Tysse" />
		<tag k="place" v="farm" />
		<tag k="ssr:stedsnr" v="638198" />
	</node>
	<node id="9975402314" lat="60.4429568" lon="5.8654318" version="1" timestamp="2022-08-24T17:19:41Z" changeset="125325689" uid="3497659" user="NKA">
		<tag k="name" v="Røyrbotnen" />
		<tag k="place" v="farm" />
		<tag k="ssr:stedsnr" v="855376" />
	</node>
	<node id="9975402315" lat="60.3969333" lon="5.7862614" version="1" timestamp="2022-08-24T17:19:41Z" changeset="125325689" uid="3497659" user="NKA">
		<tag k="name" v="Nytveit" />
		<tag k="place" v="farm" />
		<tag k="ssr:stedsnr" v="454254" />
	</node>
	<node id="9975402316" lat="60.3944611" lon="5.8380808" version="1" timestamp="2022-08-24T17:19:41Z" changeset="125325689" uid="3497659" user="NKA">
		<tag k="historic" v="shieling" />
		<tag k="name" v="Engjalistølen" />
		<tag k="place" v="isolated_dwelling" />
		<tag k="ssr:stedsnr" v="516394" />
	</node>
	<node id="9975402317" lat="60.3635358" lon="5.8129815" version="1" timestamp="2022-08-24T17:19:41Z" changeset="125325689" uid="3497659" user="NKA">
		<tag k="name" v="Holmane" />
		<tag k="place" v="hamlet" />
		<tag k="ssr:stedsnr" v="187182" />
	</node>
	<node id="9975402318" lat="60.381506" lon="5.6472282" version="1" timestamp="2022-08-24T17:19:41Z" changeset="125325689" uid="3497659" user="NKA">
		<tag k="name" v="Nordbø" />
		<tag k="place" v="farm" />
		<tag k="ssr:stedsnr" v="309183" />
	</node>
	<node id="9975402319" lat="60.415088" lon="5.843733" version="1" timestamp="2022-08-24T17:19:41Z" changeset="125325689" uid="3497659" user="NKA">
		<tag k="name" v="Haugen" />
		<tag k="place" v="farm" />
		<tag k="ssr:stedsnr" v="490434" />
	</node>
	<node id="9975402320" lat="60.3996972" lon="5.7367447" version="1" timestamp="2022-08-24T17:19:41Z" changeset="125325689" uid="3497659" user="NKA">
		<tag k="name" v="Myrvang" />
		<tag k="place" v="farm" />
		<tag k="ssr:stedsnr" v="752319" />
	</node>
	<node id="9975402321" lat="60.4005265" lon="5.7545234" version="1" timestamp="2022-08-24T17:19:41Z" changeset="125325689" uid="3497659" user="NKA">
		<tag k="alt_name" v="Aldal" />
		<tag k="name" v="Alldalen" />
		<tag k="place" v="farm" />
		<tag k="ssr:stedsnr" v="66114" />
	</node>
	<node id="9975402322" lat="60.4055795" lon="5.7390933" version="1" timestamp="2022-08-24T17:19:41Z" changeset="125325689" uid="3497659" user="NKA">
		<tag k="name" v="Rødne" />
		<tag k="place" v="farm" />
		<tag k="ssr:stedsnr" v="66097" />
	</node>
	<node id="9975402323" lat="60.3776899" lon="5.6624347" version="1" timestamp="2022-08-24T17:19:41Z" changeset="125325689" uid="3497659" user="NKA">
		<tag k="name" v="Stolpane" />
		<tag k="place" v="farm" />
		<tag k="ssr:stedsnr" v="696980" />
	</node>
	<node id="9975402324" lat="60.4140222" lon="5.7608199" version="1" timestamp="2022-08-24T17:19:41Z" changeset="125325689" uid="3497659" user="NKA">
		<tag k="historic" v="shieling" />
		<tag k="name" v="Heimasetret" />
		<tag k="place" v="isolated_dwelling" />
		<tag k="ssr:stedsnr" v="455263" />
	</node>
	<node id="9975402325" lat="60.37482" lon="5.6864579" version="1" timestamp="2022-08-24T17:19:41Z" changeset="125325689" uid="3497659" user="NKA">
		<tag k="name" v="Skar" />
		<tag k="place" v="farm" />
		<tag k="ssr:stedsnr" v="916154" />
	</node>
	<node id="9975402326" lat="60.4422898" lon="5.8550408" version="1" timestamp="2022-08-24T17:19:41Z" changeset="125325689" uid="3497659" user="NKA">
		<tag k="historic" v="shieling" />
		<tag k="name" v="Geitastølen" />
		<tag k="place" v="isolated_dwelling" />
		<tag k="ssr:stedsnr" v="31580" />
	</node>
	<node id="9975402327" lat="60.4168738" lon="5.7889236" version="1" timestamp="2022-08-24T17:19:41Z" changeset="125325689" uid="3497659" user="NKA">
		<tag k="name" v="Nordtveit" />
		<tag k="place" v="farm" />
		<tag k="ssr:stedsnr" v="698453" />
	</node>
	<node id="9975402328" lat="60.3160389" lon="5.6226365" version="1" timestamp="2022-08-24T17:19:41Z" changeset="125325689" uid="3497659" user="NKA">
		<tag k="name" v="Øvenane" />
		<tag k="place" v="locality" />
		<tag k="ssr:stedsnr" v="696615" />
	</node>
	<node id="9975402329" lat="60.3220277" lon="5.600542" version="1" timestamp="2022-08-24T17:19:41Z" changeset="125325689" uid="3497659" user="NKA">
		<tag k="historic" v="shieling" />
		<tag k="name" v="Vågasetret" />
		<tag k="place" v="isolated_dwelling" />
		<tag k="ssr:stedsnr" v="29609" />
	</node>
	<node id="9975402330" lat="60.4161803" lon="5.834729" version="1" timestamp="2022-08-24T17:19:41Z" changeset="125325689" uid="3497659" user="NKA">
		<tag k="name" v="Høyseter" />
		<tag k="place" v="hamlet" />
		<tag k="ssr:stedsnr" v="674620" />
	</node>
	<node id="9975402331" lat="60.3755579" lon="5.7838592" version="1" timestamp="2022-08-24T17:19:41Z" changeset="125325689" uid="3497659" user="NKA">
		<tag k="name" v="Gåsdalen" />
		<tag k="place" v="farm" />
		<tag k="ssr:stedsnr" v="855156" />
	</node>
	<node id="9975402332" lat="60.3509306" lon="5.7536865" version="1" timestamp="2022-08-24T17:19:41Z" changeset="125325689" uid="3497659" user="NKA">
		<tag k="name" v="Steinstølen" />
		<tag k="place" v="locality" />
		<tag k="ssr:stedsnr" v="423032" />
	</node>
	<node id="9975402333" lat="60.4279416" lon="5.8088058" version="1" timestamp="2022-08-24T17:19:41Z" changeset="125325689" uid="3497659" user="NKA">
		<tag k="name" v="Nyutløtræ" />
		<tag k="place" v="farm" />
		<tag k="ssr:stedsnr" v="516479" />
	</node>
	<node id="9975402334" lat="60.3548533" lon="5.6963273" version="1" timestamp="2022-08-24T17:19:41Z" changeset="125325689" uid="3497659" user="NKA">
		<tag k="name" v="Kampen" />
		<tag k="place" v="farm" />
		<tag k="ssr:stedsnr" v="551218" />
	</node>
	<node id="9975402335" lat="60.3540805" lon="5.7549225" version="1" timestamp="2022-08-24T17:19:41Z" changeset="125325689" uid="3497659" user="NKA">
		<tag k="name" v="Skaråstølen" />
		<tag k="place" v="locality" />
		<tag k="ssr:stedsnr" v="969062" />
	</node>
	<node id="9975402336" lat="60.3807222" lon="5.8765863" version="1" timestamp="2022-08-24T17:19:41Z" changeset="125325689" uid="3497659" user="NKA">
		<tag k="name" v="Storlia" />
		<tag k="place" v="hamlet" />
		<tag k="ssr:stedsnr" v="430704" />
	</node>
	<node id="9975402337" lat="60.3959473" lon="5.7651392" version="1" timestamp="2022-08-24T17:19:41Z" changeset="125325689" uid="3497659" user="NKA">
		<tag k="historic" v="shieling" />
		<tag k="name" v="Stølen" />
		<tag k="place" v="isolated_dwelling" />
		<tag k="ssr:stedsnr" v="757785" />
	</node>
	<node id="9975402338" lat="60.3598806" lon="5.6898447" version="1" timestamp="2022-08-24T17:19:41Z" changeset="125325689" uid="3497659" user="NKA">
		<tag k="name" v="Solbakken" />
		<tag k="place" v="farm" />
		<tag k="ssr:stedsnr" v="388269" />
	</node>
	<node id="9975402339" lat="60.4047416" lon="5.6752698" version="1" timestamp="2022-08-24T17:19:41Z" changeset="125325689" uid="3497659" user="NKA">
		<tag k="historic" v="shieling" />
		<tag k="name" v="Huldastølen" />
		<tag k="place" v="isolated_dwelling" />
		<tag k="ssr:stedsnr" v="818889" />
	</node>
	<node id="9975402340" lat="60.4406991" lon="5.8453295" version="1" timestamp="2022-08-24T17:19:41Z" changeset="125325689" uid="3497659" user="NKA">
		<tag k="historic" v="shieling" />
		<tag k="name" v="Storemyrstølen" />
		<tag k="place" v="isolated_dwelling" />
		<tag k="ssr:stedsnr" v="820981" />
	</node>
</osm>
