<?xml version="1.0" encoding="UTF-8"?>
<osm generator="osmapis" version="0.6">
	<node id="-528095" lat="61.3587499987" lon="5.18841944589">
		<tag k="alt_name" v="Holmedal" />
		<tag k="amenity" v="place_of_worship" />
		<tag k="denomination" v="lutheran" />
		<tag k="name" v="Holmedal kyrkje" />
		<tag k="religion" v="christian" />
		<tag k="ssr:stedsnr" v="857194" />
	</node>
	<node id="-528155" lat="61.4286358997" lon="5.16971207451">
		<tag k="amenity" v="place_of_worship" />
		<tag k="denomination" v="lutheran" />
		<tag k="name" v="Stongfjorden kapell" />
		<tag k="religion" v="christian" />
		<tag k="ssr:stedsnr" v="907562" />
	</node>
	<node id="-527417" lat="61.3481166663" lon="5.0699805605">
		<tag k="alt_name" v="Askvoll" />
		<tag k="amenity" v="place_of_worship" />
		<tag k="denomination" v="lutheran" />
		<tag k="name" v="Askvoll kyrkje" />
		<tag k="religion" v="christian" />
		<tag k="ssr:stedsnr" v="554239" />
	</node>
	<node id="-526128" lat="61.2950653464" lon="4.76726352725">
		<tag k="name" v="Værøy A" />
		<tag k="place" v="locality" />
		<tag k="ssr:stedsnr" v="340348" />
	</node>
	<node id="-526831" lat="61.433678679" lon="5.37617499622">
		<tag k="name" v="Leknesvatna NV" />
		<tag k="place" v="locality" />
		<tag k="ssr:stedsnr" v="158817" />
	</node>
	<node id="-527376" lat="61.4607106838" lon="5.42262937701">
		<tag k="alt_name" v="Kvammen kyrkje" />
		<tag k="amenity" v="place_of_worship" />
		<tag k="denomination" v="lutheran" />
		<tag k="name" v="Kvammen kapell" />
		<tag k="religion" v="christian" />
		<tag k="ssr:stedsnr" v="553105" />
	</node>
	<node id="-527528" lat="61.3187333359" lon="4.96241388023">
		<tag k="alt_name" v="Vilnes" />
		<tag k="amenity" v="place_of_worship" />
		<tag k="denomination" v="lutheran" />
		<tag k="name" v="Vilnes kyrkje" />
		<tag k="religion" v="christian" />
		<tag k="ssr:stedsnr" v="614171" />
	</node>
	<node id="-526273" lat="61.412625003" lon="5.04808332842">
		<tag k="name" v="Ølkona" />
		<tag k="place" v="locality" />
		<tag k="ssr:stedsnr" v="400636" />
	</node>
</osm>
