<?xml version="1.0" encoding="UTF-8"?>
<osm generator="osmapis" version="0.6">
	<node id="-525822" lat="61.4365888851" lon="5.32998055405">
		<tag k="name" v="Langøyra" />
		<tag k="natural" v="cape" />
		<tag k="ssr:stedsnr" v="68022" />
	</node>
	<node id="-526333" lat="61.3500500008" lon="5.00390277292">
		<tag k="name" v="Kvernhuselva" />
		<tag k="ssr:stedsnr" v="251766" />
		<tag k="waterway" v="stream" />
	</node>
	<node id="-526839" lat="61.3507999997" lon="5.07137778086">
		<tag k="alt_name" v="Storelva" />
		<tag k="name" v="Presteelva" />
		<tag k="ssr:stedsnr" v="640875" />
		<tag k="waterway" v="river" />
	</node>
	<node id="-525812" lat="61.4547138846" lon="5.35263333382">
		<tag k="alt_name" v="Rumpeelva" />
		<tag k="name" v="Rumpelva" />
		<tag k="ssr:stedsnr" v="68113" />
		<tag k="waterway" v="stream" />
	</node>
	<node id="-526323" lat="61.3412611076" lon="4.90450555968">
		<tag k="alt_name" v="Laukelandsvatnet" />
		<tag k="name" v="Lauklandsvatnet" />
		<tag k="natural" v="water" />
		<tag k="ssr:stedsnr" v="251252" />
	</node>
	<node id="-525291" lat="61.4291277762" lon="5.38528888309">
		<tag k="name" v="Leknesvatna" />
		<tag k="natural" v="water" />
		<tag k="ssr:stedsnr" v="311061" />
	</node>
	<node id="-527331" lat="61.4204944464" lon="5.14683056153">
		<tag k="alt_name" v="Fremsteelva" />
		<tag k="name" v="Fremstelva" />
		<tag k="ssr:stedsnr" v="857054" />
		<tag k="waterway" v="stream" />
	</node>
	<node id="-527327" lat="61.4236499997" lon="5.463641672">
		<tag k="name" v="Tobbedalsvatnet" />
		<tag k="natural" v="water" />
		<tag k="ssr:stedsnr" v="857038" />
	</node>
	<node id="-525790" lat="61.3611333313" lon="4.96843054929">
		<tag k="name" v="Nonatjørnet" />
		<tag k="natural" v="water" />
		<tag k="ssr:stedsnr" v="37513" />
	</node>
	<node id="-526299" lat="61.3807944467" lon="5.1675555469">
		<tag k="name" v="Brekkelva" />
		<tag k="ssr:stedsnr" v="250245" />
		<tag k="waterway" v="stream" />
	</node>
	<node id="-525391" lat="61.4293444472" lon="5.01713332413">
		<tag k="name" v="Olabåtelva" />
		<tag k="ssr:stedsnr" v="339827" />
		<tag k="waterway" v="stream" />
	</node>
	<node id="-527316" lat="61.4408499965" lon="5.09016110801">
		<tag k="name" v="Storelva" />
		<tag k="ssr:stedsnr" v="841706" />
		<tag k="waterway" v="river" />
	</node>
	<node id="-526803" lat="61.386541664" lon="5.1533583269">
		<tag k="name" v="Nyksvatnet" />
		<tag k="natural" v="water" />
		<tag k="ssr:stedsnr" v="614253" />
	</node>
	<node id="-525778" lat="61.3135159039" lon="4.72321480212">
		<tag k="name" v="Hølevatnet" />
		<tag k="natural" v="water" />
		<tag k="ssr:stedsnr" v="37241" />
		<tag k="water" v="lake" />
	</node>
	<node id="-526798" lat="61.4042001546" lon="5.24242343397">
		<tag k="alt_name" v="Svelivatnet;Svævatna" />
		<tag k="name" v="Svædvatnet" />
		<tag k="natural" v="water" />
		<tag k="ssr:stedsnr" v="614217" />
		<tag k="water" v="lake" />
	</node>
	<node id="-526285" lat="61.3572000014" lon="5.1553194423">
		<tag k="name" v="Hellesetvatnet" />
		<tag k="natural" v="water" />
		<tag k="ssr:stedsnr" v="250167" />
	</node>
	<node id="-526796" lat="61.4135805528" lon="5.3127111131">
		<tag k="name" v="Stordalsvatnet" />
		<tag k="natural" v="water" />
		<tag k="ssr:stedsnr" v="614212" />
	</node>
	<node id="-526242" lat="61.4347361086" lon="5.31815833313">
		<tag k="name" v="Grasvika" />
		<tag k="natural" v="bay" />
		<tag k="ssr:stedsnr" v="219873" />
	</node>
	<node id="-525769" lat="61.3904055532" lon="5.28162777628">
		<tag k="alt_name" v="Storelva" />
		<tag k="name" v="Rivedalselva" />
		<tag k="ssr:stedsnr" v="36943" />
		<tag k="waterway" v="river" />
	</node>
	<node id="-527300" lat="61.2848499978" lon="4.60887500203">
		<tag k="name" v="Halsøyosen" />
		<tag k="natural" v="bay" />
		<tag k="ssr:stedsnr" v="826193" />
	</node>
	<node id="-525763" lat="61.4093611091" lon="4.99527222663">
		<tag k="name" v="Illevikelva" />
		<tag k="ssr:stedsnr" v="36694" />
		<tag k="waterway" v="stream" />
	</node>
	<node id="-525367" lat="61.4240305513" lon="5.17639444392">
		<tag k="name" v="Gjerdeelva" />
		<tag k="ssr:stedsnr" v="337261" />
		<tag k="waterway" v="river" />
	</node>
	<node id="-525758" lat="61.431049571" lon="5.0803246878">
		<tag k="name" v="Stubseidvatnet" />
		<tag k="natural" v="water" />
		<tag k="ssr:stedsnr" v="36579" />
		<tag k="water" v="lake" />
	</node>
	<node id="-526268" lat="61.4502555595" lon="5.16747221974">
		<tag k="name" v="Tverrelva" />
		<tag k="ssr:stedsnr" v="250070" />
		<tag k="waterway" v="stream" />
	</node>
	<node id="-525755" lat="61.3337638897" lon="4.95084723025">
		<tag k="name" v="Skatjørnelva" />
		<tag k="ssr:stedsnr" v="36493" />
		<tag k="waterway" v="stream" />
	</node>
	<node id="-526265" lat="61.4227833366" lon="5.45117499574">
		<tag k="name" v="Blåvatnet" />
		<tag k="natural" v="water" />
		<tag k="ssr:stedsnr" v="250042" />
	</node>
	<node id="-527288" lat="61.4359249972" lon="5.21236110633">
		<tag k="name" v="Tverrelva" />
		<tag k="ssr:stedsnr" v="825596" />
		<tag k="waterway" v="stream" />
	</node>
	<node id="-526262" lat="61.4186749961" lon="5.25788055778">
		<tag k="name" v="Portavatnet" />
		<tag k="natural" v="water" />
		<tag k="ssr:stedsnr" v="250034" />
	</node>
	<node id="-525236" lat="61.4533027764" lon="5.15404444995">
		<tag k="name" v="Geitegroelva" />
		<tag k="ssr:stedsnr" v="278984" />
		<tag k="waterway" v="stream" />
	</node>
	<node id="-525235" lat="61.3615444452" lon="5.01504444264">
		<tag k="name" v="Graneelva" />
		<tag k="ssr:stedsnr" v="278931" />
		<tag k="waterway" v="stream" />
	</node>
	<node id="-526928" lat="61.3656805544" lon="5.21965277844">
		<tag k="alt_name" v="Bakkevatn" />
		<tag k="name" v="Bakkevatnet" />
		<tag k="natural" v="water" />
		<tag k="ssr:stedsnr" v="675207" />
	</node>
	<node id="-525468" lat="61.3870250032" lon="5.13270556119">
		<tag k="alt_name" v="Eidsvatn" />
		<tag k="name" v="Eidsvatnet" />
		<tag k="natural" v="water" />
		<tag k="ssr:stedsnr" v="371231" />
	</node>
	<node id="-525221" lat="61.3518388876" lon="4.98105000695">
		<tag k="name" v="Fridalselva" />
		<tag k="ssr:stedsnr" v="276659" />
		<tag k="waterway" v="stream" />
	</node>
	<node id="-525219" lat="61.42790121" lon="5.18605783606">
		<tag k="name" v="Litlevatnet" />
		<tag k="natural" v="water" />
		<tag k="ssr:stedsnr" v="276297" />
		<tag k="water" v="lake" />
	</node>
	<node id="-525218" lat="61.4271472258" lon="5.20937499067">
		<tag k="name" v="Søre Vika" />
		<tag k="natural" v="bay" />
		<tag k="ssr:stedsnr" v="276226" />
	</node>
	<node id="-525714" lat="61.3844916658" lon="5.04586387988">
		<tag k="name" v="Kvernhuselva" />
		<tag k="ssr:stedsnr" v="8239" />
		<tag k="waterway" v="stream" />
	</node>
	<node id="-527000" lat="61.4079277737" lon="5.23640832861">
		<tag k="name" v="Skjerve" />
		<tag k="place" v="locality" />
		<tag k="ssr:stedsnr" v="703697" />
	</node>
	<node id="-526220" lat="61.3125037391" lon="4.72069726201">
		<tag k="name" v="Langevatnet" />
		<tag k="natural" v="water" />
		<tag k="ssr:stedsnr" v="219233" />
		<tag k="water" v="lake" />
	</node>
	<node id="-525706" lat="61.3680833289" lon="5.18789999652">
		<tag k="alt_name" v="Bakkeelva" />
		<tag k="name" v="Bakkelva" />
		<tag k="ssr:stedsnr" v="8151" />
		<tag k="waterway" v="stream" />
	</node>
	<node id="-525849" lat="61.4000249977" lon="5.20061110961">
		<tag k="name" v="Siklabergvatnet" />
		<tag k="natural" v="water" />
		<tag k="ssr:stedsnr" v="68198" />
	</node>
	<node id="-526714" lat="61.3918160312" lon="5.36746142621">
		<tag k="name" v="Lonene" />
		<tag k="natural" v="water" />
		<tag k="ssr:stedsnr" v="582338" />
		<tag k="water" v="lake" />
	</node>
	<node id="-525687" lat="61.4077750039" lon="5.36918055346">
		<tag k="alt_name" v="Grøndalstjørna" />
		<tag k="name" v="Grøndalstjerna" />
		<tag k="natural" v="water" />
		<tag k="ssr:stedsnr" v="7190" />
	</node>
	<node id="-526198" lat="61.3916250009" lon="5.38803888937">
		<tag k="name" v="Gunnhildvika" />
		<tag k="natural" v="bay" />
		<tag k="ssr:stedsnr" v="218159" />
	</node>
	<node id="-526196" lat="61.3352126048" lon="5.08195799921">
		<tag k="name" v="Olsetvatn" />
		<tag k="natural" v="water" />
		<tag k="ssr:stedsnr" v="216906" />
		<tag k="water" v="lake" />
	</node>
	<node id="-525683" lat="61.3414888851" lon="4.95551388667">
		<tag k="name" v="Langetjerna" />
		<tag k="natural" v="water" />
		<tag k="ssr:stedsnr" v="7155" />
	</node>
	<node id="-527215" lat="61.4074750029" lon="5.21856944342">
		<tag k="name" v="Svartetjørna" />
		<tag k="natural" v="water" />
		<tag k="ssr:stedsnr" v="796213" />
	</node>
	<node id="-526701" lat="61.4634583328" lon="5.38543332969">
		<tag k="name" v="Nordgardselva" />
		<tag k="ssr:stedsnr" v="581562" />
		<tag k="waterway" v="stream" />
	</node>
	<node id="-527506" lat="61.3515611099" lon="4.89913888831">
		<tag k="name" v="Storeelva" />
		<tag k="ssr:stedsnr" v="944635" />
		<tag k="waterway" v="river" />
	</node>
	<node id="-525672" lat="61.4463527773" lon="5.22142500664">
		<tag k="alt_name" v="Vågeelva" />
		<tag k="name" v="Vågelva" />
		<tag k="ssr:stedsnr" v="7109" />
		<tag k="waterway" v="stream" />
	</node>
	<node id="-527437" lat="61.327572224" lon="4.95465278687">
		<tag k="name" v="Sætrevatnet" />
		<tag k="natural" v="water" />
		<tag k="ssr:stedsnr" v="918143" />
	</node>
	<node id="-527202" lat="61.4513527777" lon="5.26779999572">
		<tag k="alt_name" v="Nerviktjørna" />
		<tag k="name" v="Nærviktjerna" />
		<tag k="natural" v="water" />
		<tag k="ssr:stedsnr" v="796067" />
	</node>
	<node id="-525371" lat="61.3731638932" lon="5.1830972273">
		<tag k="name" v="Knoltelva" />
		<tag k="ssr:stedsnr" v="337788" />
		<tag k="waterway" v="stream" />
	</node>
	<node id="-525663" lat="61.4190027748" lon="5.20631388926">
		<tag k="alt_name" v="Stangstølsvatnet" />
		<tag k="name" v="Stongsstølsvatnet" />
		<tag k="natural" v="water" />
		<tag k="ssr:stedsnr" v="7047" />
	</node>
	<node id="-526686" lat="61.4075583294" lon="5.27147777422">
		<tag k="name" v="Portavatnet" />
		<tag k="natural" v="water" />
		<tag k="ssr:stedsnr" v="554732" />
	</node>
	<node id="-527195" lat="61.4371250015" lon="5.29791666367">
		<tag k="name" v="Kvernhusvatna" />
		<tag k="natural" v="water" />
		<tag k="ssr:stedsnr" v="796024" />
	</node>
	<node id="-525656" lat="61.438483336" lon="5.17619999182">
		<tag k="name" v="Hjartebuvatnet" />
		<tag k="natural" v="water" />
		<tag k="ssr:stedsnr" v="7022" />
	</node>
	<node id="-525654" lat="61.4296777765" lon="5.17795554722">
		<tag k="alt_name" v="Stangselva" />
		<tag k="name" v="Stongselva" />
		<tag k="ssr:stedsnr" v="7018" />
		<tag k="waterway" v="stream" />
	</node>
	<node id="-526162" lat="61.3428222207" lon="4.94210834225">
		<tag k="name" v="Kjøtjørna" />
		<tag k="natural" v="water" />
		<tag k="ssr:stedsnr" v="190231" />
	</node>
	<node id="-526933" lat="61.3963749956" lon="5.13645833077">
		<tag k="name" v="Nyksvatna" />
		<tag k="natural" v="water" />
		<tag k="ssr:stedsnr" v="675222" />
	</node>
	<node id="-526159" lat="61.4009749959" lon="5.11716111241">
		<tag k="alt_name" v="Svinaelva" />
		<tag k="name" v="Svinelva" />
		<tag k="ssr:stedsnr" v="190215" />
		<tag k="waterway" v="stream" />
	</node>
	<node id="-526903" lat="61.4183750015" lon="5.37492500778">
		<tag k="name" v="Skoraelva" />
		<tag k="ssr:stedsnr" v="675052" />
		<tag k="waterway" v="stream" />
	</node>
	<node id="-525537" lat="61.4560749995" lon="5.29046389144">
		<tag k="name" v="Rumpeelva" />
		<tag k="ssr:stedsnr" v="400504" />
		<tag k="waterway" v="river" />
	</node>
	<node id="-526148" lat="61.3901166633" lon="5.35539443803">
		<tag k="alt_name" v="Grautedalstjørna" />
		<tag k="name" v="Gavledalsvatnet" />
		<tag k="natural" v="water" />
		<tag k="ssr:stedsnr" v="190159" />
	</node>
	<node id="-527171" lat="61.3639250021" lon="4.98525555695">
		<tag k="name" v="Hamreelva" />
		<tag k="ssr:stedsnr" v="765831" />
		<tag k="waterway" v="stream" />
	</node>
	<node id="-526146" lat="61.3860277816" lon="5.38975000789">
		<tag k="alt_name" v="Fossedalstjørna" />
		<tag k="name" v="Fossdalstjørna" />
		<tag k="natural" v="water" />
		<tag k="ssr:stedsnr" v="190155" />
	</node>
	<node id="-526657" lat="61.3977138859" lon="5.38686110808">
		<tag k="alt_name" v="Fossedalsvatnet" />
		<tag k="name" v="Fossdalsvatnet" />
		<tag k="natural" v="water" />
		<tag k="ssr:stedsnr" v="553227" />
		<tag k="water" v="lake" />
	</node>
	<node id="-526138" lat="61.435747982" lon="5.53676428798">
		<tag k="alt_name" v="Hestvikvatnet" />
		<tag k="name" v="Hestvikevatnet" />
		<tag k="natural" v="water" />
		<tag k="ssr:stedsnr" v="189866" />
	</node>
	<node id="-526137" lat="61.4412722181" lon="5.48379444284">
		<tag k="alt_name" v="Sagavatnet" />
		<tag k="name" v="Sagevatnet" />
		<tag k="natural" v="water" />
		<tag k="ssr:stedsnr" v="189823" />
	</node>
	<node id="-527158" lat="61.3128844853" lon="4.72841758492">
		<tag k="name" v="Eiavatnet" />
		<tag k="natural" v="water" />
		<tag k="ssr:stedsnr" v="765240" />
		<tag k="water" v="lake" />
	</node>
	<node id="-525617" lat="61.4528999979" lon="5.28114721645">
		<tag k="name" v="Holmane" />
		<tag k="place" v="islet" />
		<tag k="ssr:stedsnr" v="886496" />
	</node>
	<node id="-527146" lat="61.4629249971" lon="5.31362777218">
		<tag k="name" v="Skorveelva" />
		<tag k="ssr:stedsnr" v="764707" />
		<tag k="waterway" v="stream" />
	</node>
	<node id="-526121" lat="61.4612805543" lon="5.27258334038">
		<tag k="name" v="Vasslivatnet" />
		<tag k="natural" v="water" />
		<tag k="ssr:stedsnr" v="189070" />
	</node>
	<node id="-527144" lat="61.4286305552" lon="5.21686666825">
		<tag k="name" v="Haugenden" />
		<tag k="natural" v="cape" />
		<tag k="ssr:stedsnr" v="764621" />
	</node>
	<node id="-525605" lat="61.4530361102" lon="5.34236389239">
		<tag k="name" v="Fossen" />
		<tag k="natural" v="waterfall" />
		<tag k="ssr:stedsnr" v="885546" />
	</node>
	<node id="-526115" lat="61.43391389" lon="5.33410555371">
		<tag k="name" v="Markavatnet" />
		<tag k="natural" v="water" />
		<tag k="ssr:stedsnr" v="189049" />
		<tag k="water" v="lake" />
	</node>
	<node id="-526626" lat="61.4354555594" lon="5.11306943978">
		<tag k="name" v="Svartevatnet" />
		<tag k="natural" v="water" />
		<tag k="ssr:stedsnr" v="553015" />
	</node>
	<node id="-525787" lat="61.384905557" lon="5.17975833714">
		<tag k="name" v="Storelva" />
		<tag k="ssr:stedsnr" v="37389" />
		<tag k="waterway" v="river" />
	</node>
	<node id="-526624" lat="61.4293194477" lon="5.19819166621">
		<tag k="alt_name" v="Stangsvatnet" />
		<tag k="name" v="Stongsvatnet" />
		<tag k="natural" v="water" />
		<tag k="ssr:stedsnr" v="553009" />
	</node>
	<node id="-526109" lat="61.4394000033" lon="5.11340833059">
		<tag k="name" v="Grunnevatnet" />
		<tag k="natural" v="water" />
		<tag k="ssr:stedsnr" v="189014" />
	</node>
	<node id="-525593" lat="61.3367027736" lon="5.01506388775">
		<tag k="name" v="Storeelva" />
		<tag k="ssr:stedsnr" v="883598" />
		<tag k="waterway" v="river" />
	</node>
	<node id="-527126" lat="61.3772555549" lon="5.1705083301">
		<tag k="name" v="Sveelva" />
		<tag k="ssr:stedsnr" v="761818" />
		<tag k="waterway" v="stream" />
	</node>
	<node id="-527123" lat="61.3604777777" lon="4.90498054742">
		<tag k="name" v="Kvernhuselva" />
		<tag k="ssr:stedsnr" v="761616" />
		<tag k="waterway" v="river" />
	</node>
	<node id="-526092" lat="61.4275638862" lon="5.2496055531">
		<tag k="name" v="Tverrelva" />
		<tag k="ssr:stedsnr" v="158849" />
		<tag k="waterway" v="stream" />
	</node>
	<node id="-526070" lat="61.3947861151" lon="5.34241944856">
		<tag k="name" v="Dalsstordalselva" />
		<tag k="ssr:stedsnr" v="158369" />
		<tag k="waterway" v="river" />
	</node>
	<node id="-526082" lat="61.4431187315" lon="5.46755173643">
		<tag k="name" v="Storelva" />
		<tag k="ssr:stedsnr" v="158978" />
		<tag k="waterway" v="river" />
	</node>
	<node id="-525679" lat="61.4434444486" lon="5.11526943906">
		<tag k="name" v="Mangevatna" />
		<tag k="natural" v="water" />
		<tag k="ssr:stedsnr" v="7138" />
	</node>
	<node id="-526122" lat="61.4519916644" lon="5.28492499812">
		<tag k="name" v="Lindelivatnet" />
		<tag k="natural" v="water" />
		<tag k="ssr:stedsnr" v="189103" />
	</node>
	<node id="-527098" lat="61.3553111106" lon="4.97082223051">
		<tag k="name" v="Fridalselva" />
		<tag k="ssr:stedsnr" v="736249" />
		<tag k="waterway" v="stream" />
	</node>
	<node id="-526585" lat="61.4278611128" lon="5.00024721671">
		<tag k="name" v="Ospevikelva" />
		<tag k="ssr:stedsnr" v="521853" />
		<tag k="waterway" v="stream" />
	</node>
	<node id="-526072" lat="61.385527778" lon="5.19246388438">
		<tag k="name" v="Kleppenestjørn" />
		<tag k="natural" v="water" />
		<tag k="ssr:stedsnr" v="158404" />
	</node>
	<node id="-527095" lat="61.3449388931" lon="4.90363055769">
		<tag k="alt_name" v="Andalsvatnet" />
		<tag k="name" v="Anddalsvatnet" />
		<tag k="natural" v="water" />
		<tag k="ssr:stedsnr" v="736233" />
	</node>
	<node id="-527094" lat="61.4114416645" lon="5.34234999164">
		<tag k="alt_name" v="Hengenipvatnet" />
		<tag k="name" v="Nipevatnet" />
		<tag k="natural" v="water" />
		<tag k="ssr:stedsnr" v="736218" />
	</node>
	<node id="-526581" lat="61.4569333315" lon="5.30763888415">
		<tag k="name" v="Kvernhuselva" />
		<tag k="ssr:stedsnr" v="521705" />
		<tag k="waterway" v="river" />
	</node>
	<node id="-526580" lat="61.4552111077" lon="5.31114722546">
		<tag k="name" v="Langeneset" />
		<tag k="natural" v="cape" />
		<tag k="ssr:stedsnr" v="521706" />
	</node>
	<node id="-526579" lat="61.4519277747" lon="5.31426388338">
		<tag k="name" v="Holtaelva" />
		<tag k="ssr:stedsnr" v="521701" />
		<tag k="waterway" v="stream" />
	</node>
	<node id="-525552" lat="61.433991667" lon="5.32151111465">
		<tag k="name" v="Tangane" />
		<tag k="natural" v="cape" />
		<tag k="ssr:stedsnr" v="400880" />
	</node>
	<node id="-525547" lat="61.4222444483" lon="5.23217221942">
		<tag k="name" v="Stølselva" />
		<tag k="ssr:stedsnr" v="400698" />
		<tag k="waterway" v="river" />
	</node>
	<node id="-526057" lat="61.4244805587" lon="4.99972499598">
		<tag k="name" v="Storedalselva" />
		<tag k="ssr:stedsnr" v="157860" />
		<tag k="waterway" v="stream" />
	</node>
	<node id="-526056" lat="61.4119361115" lon="5.00917222786">
		<tag k="name" v="Gravarstitjørna" />
		<tag k="natural" v="water" />
		<tag k="ssr:stedsnr" v="157808" />
	</node>
	<node id="-525666" lat="61.4278946799" lon="5.43374482417">
		<tag k="name" v="Bjørnastigvatnet" />
		<tag k="natural" v="water" />
		<tag k="ssr:stedsnr" v="7055" />
		<tag k="water" v="lake" />
	</node>
	<node id="-527078" lat="61.4207027779" lon="5.14935555386">
		<tag k="alt_name" v="Kvieelva" />
		<tag k="name" v="Kvielva" />
		<tag k="ssr:stedsnr" v="736061" />
		<tag k="waterway" v="stream" />
	</node>
	<node id="-526053" lat="61.4488388914" lon="5.34289166204">
		<tag k="name" v="Styggedalselva" />
		<tag k="ssr:stedsnr" v="157514" />
		<tag k="waterway" v="stream" />
	</node>
	<node id="-526049" lat="61.3870555568" lon="5.36592777429">
		<tag k="name" v="Kvernkrabikkja" />
		<tag k="ssr:stedsnr" v="157274" />
		<tag k="waterway" v="river" />
	</node>
	<node id="-527059" lat="61.4403694427" lon="5.14430000468">
		<tag k="name" v="Krikavatna" />
		<tag k="natural" v="water" />
		<tag k="ssr:stedsnr" v="735111" />
	</node>
	<node id="-527056" lat="61.4497305555" lon="5.20460277076">
		<tag k="name" v="Flatelva" />
		<tag k="ssr:stedsnr" v="735067" />
		<tag k="waterway" v="stream" />
	</node>
	<node id="-527562" lat="61.438022218" lon="5.3436611091">
		<tag k="name" v="Timrevika" />
		<tag k="natural" v="bay" />
		<tag k="ssr:stedsnr" v="947794" />
	</node>
	<node id="-527560" lat="61.4135972182" lon="5.38165276935">
		<tag k="name" v="Haleneset" />
		<tag k="natural" v="cape" />
		<tag k="ssr:stedsnr" v="947742" />
	</node>
	<node id="-527559" lat="61.4121972227" lon="5.37780554708">
		<tag k="name" v="Staurdalstjørna" />
		<tag k="natural" v="water" />
		<tag k="ssr:stedsnr" v="947738" />
	</node>
	<node id="-527558" lat="61.4344444485" lon="5.03388610568">
		<tag k="name" v="Liavikelva" />
		<tag k="ssr:stedsnr" v="947659" />
		<tag k="waterway" v="stream" />
	</node>
	<node id="-525506" lat="61.4220416637" lon="5.0545611049">
		<tag k="alt_name" v="Tjørna" />
		<tag k="name" v="Mjåsettjørna" />
		<tag k="natural" v="water" />
		<tag k="ssr:stedsnr" v="372289" />
	</node>
	<node id="-525502" lat="61.3578722204" lon="5.01404443775">
		<tag k="name" v="Granevatnet" />
		<tag k="natural" v="water" />
		<tag k="ssr:stedsnr" v="372240" />
	</node>
	<node id="-526522" lat="61.3909027743" lon="5.21901944669">
		<tag k="name" v="Langevatnet" />
		<tag k="natural" v="water" />
		<tag k="ssr:stedsnr" v="493256" />
	</node>
	<node id="-526009" lat="61.3895277813" lon="5.32450555194">
		<tag k="alt_name" v="Svartetjørna" />
		<tag k="name" v="Svartetjerna" />
		<tag k="natural" v="water" />
		<tag k="ssr:stedsnr" v="129245" />
	</node>
	<node id="-526008" lat="61.4116472256" lon="5.22352500569">
		<tag k="name" v="Svartetjørnelva" />
		<tag k="ssr:stedsnr" v="129239" />
		<tag k="waterway" v="stream" />
	</node>
	<node id="-527543" lat="61.455944443" lon="5.45632777528">
		<tag k="name" v="Skoraelva" />
		<tag k="ssr:stedsnr" v="947275" />
		<tag k="waterway" v="stream" />
	</node>
	<node id="-525494" lat="61.3579916689" lon="5.11965000656">
		<tag k="name" v="Ringstadelva" />
		<tag k="ssr:stedsnr" v="372196" />
		<tag k="waterway" v="stream" />
	</node>
	<node id="-525491" lat="61.3690555511" lon="5.13136666149">
		<tag k="alt_name" v="Ringstadvatn" />
		<tag k="name" v="Ringstadvatnet" />
		<tag k="natural" v="water" />
		<tag k="ssr:stedsnr" v="372153" />
	</node>
	<node id="-526001" lat="61.403091665" lon="5.33792777516">
		<tag k="name" v="Langevatnet" />
		<tag k="natural" v="water" />
		<tag k="ssr:stedsnr" v="129258" />
		<tag k="water" v="lake" />
	</node>
	<node id="-526512" lat="61.4124666707" lon="5.11833888095">
		<tag k="name" v="Størdalselva" />
		<tag k="ssr:stedsnr" v="493215" />
		<tag k="waterway" v="stream" />
	</node>
	<node id="-525999" lat="61.4074499992" lon="5.39640554652">
		<tag k="name" v="Instelva" />
		<tag k="ssr:stedsnr" v="129201" />
		<tag k="waterway" v="stream" />
	</node>
	<node id="-527016" lat="61.3508802562" lon="4.85214299025">
		<tag k="name" v="Litlevatnet" />
		<tag k="natural" v="water" />
		<tag k="ssr:stedsnr" v="704282" />
		<tag k="water" v="lake" />
	</node>
	<node id="-525851" lat="61.4006277764" lon="5.25601667088">
		<tag k="name" v="Nyksvatnet" />
		<tag k="natural" v="water" />
		<tag k="ssr:stedsnr" v="68203" />
	</node>
	<node id="-525980" lat="61.4065833358" lon="5.29167500722">
		<tag k="name" v="Sandtjørna" />
		<tag k="natural" v="water" />
		<tag k="ssr:stedsnr" v="129207" />
	</node>
	<node id="-525467" lat="61.3932999974" lon="5.40633888773">
		<tag k="alt_name" v="Løtjørna" />
		<tag k="name" v="Løtjerna" />
		<tag k="natural" v="water" />
		<tag k="ssr:stedsnr" v="371228" />
	</node>
	<node id="-527514" lat="61.2837972256" lon="4.63574443592">
		<tag k="name" v="Nikøyosen" />
		<tag k="natural" v="bay" />
		<tag k="ssr:stedsnr" v="946198" />
	</node>
	<node id="-526703" lat="61.4518833334" lon="5.33946389292">
		<tag k="name" v="Grova" />
		<tag k="ssr:stedsnr" v="581575" />
		<tag k="waterway" v="stream" />
	</node>
	<node id="-526488" lat="61.4282611128" lon="5.34685277602">
		<tag k="name" v="Grunnevatnet" />
		<tag k="natural" v="water" />
		<tag k="ssr:stedsnr" v="493064" />
	</node>
	<node id="-525461" lat="61.3862472198" lon="5.07631944401">
		<tag k="alt_name" v="Fismavatn" />
		<tag k="name" v="Fismavatnet" />
		<tag k="natural" v="water" />
		<tag k="ssr:stedsnr" v="371195" />
	</node>
	<node id="-525460" lat="61.3911462407" lon="5.07186172923">
		<tag k="alt_name" v="Follevågvatnet" />
		<tag k="name" v="Dokkevatnet" />
		<tag k="natural" v="water" />
		<tag k="ssr:stedsnr" v="371192" />
		<tag k="water" v="lake" />
	</node>
	<node id="-526482" lat="61.4288638861" lon="5.22763055364">
		<tag k="name" v="Oslandsvatnet" />
		<tag k="natural" v="water" />
		<tag k="ssr:stedsnr" v="493017" />
	</node>
	<node id="-525457" lat="61.3815055563" lon="5.06312500899">
		<tag k="name" v="Askvatnet" />
		<tag k="natural" v="water" />
		<tag k="ssr:stedsnr" v="371183" />
	</node>
	<node id="-526991" lat="61.3228138917" lon="4.96211944168">
		<tag k="name" v="Sætreelva" />
		<tag k="ssr:stedsnr" v="703550" />
		<tag k="waterway" v="river" />
	</node>
	<node id="-527502" lat="61.3718697381" lon="5.30461788489">
		<tag k="name" v="Kvernhuselva" />
		<tag k="ssr:stedsnr" v="944599" />
		<tag k="waterway" v="river" />
	</node>
	<node id="-525964" lat="61.4487361138" lon="5.16976111914">
		<tag k="name" v="Strandaelva" />
		<tag k="ssr:stedsnr" v="128052" />
		<tag k="waterway" v="stream" />
	</node>
	<node id="-525447" lat="61.4548166633" lon="5.31940278567">
		<tag k="name" v="Holmen" />
		<tag k="place" v="islet" />
		<tag k="ssr:stedsnr" v="371104" />
	</node>
	<node id="-525443" lat="61.4519694417" lon="5.3244333325">
		<tag k="name" v="Øyravatnet" />
		<tag k="natural" v="water" />
		<tag k="ssr:stedsnr" v="371089" />
		<tag k="water" v="lake" />
	</node>
	<node id="-525442" lat="61.4495750028" lon="5.31057777637">
		<tag k="alt_name" v="Holtatjørna" />
		<tag k="name" v="Holtatjerna" />
		<tag k="natural" v="water" />
		<tag k="ssr:stedsnr" v="371088" />
	</node>
	<node id="-525438" lat="61.4585055515" lon="5.29652777631">
		<tag k="alt_name" v="Dyrhovdvatnet" />
		<tag k="name" v="Kvernhusvatnet" />
		<tag k="natural" v="water" />
		<tag k="ssr:stedsnr" v="371060" />
	</node>
	<node id="-525947" lat="61.4324166643" lon="5.06454722963">
		<tag k="name" v="Stubbseidet" />
		<tag k="natural" v="strait" />
		<tag k="ssr:stedsnr" v="113417" />
	</node>
	<node id="-526449" lat="61.4181888891" lon="5.04103054642">
		<tag k="name" v="Maratjørna" />
		<tag k="natural" v="water" />
		<tag k="ssr:stedsnr" v="461748" />
	</node>
	<node id="-525932" lat="61.4344805525" lon="5.06206945361">
		<tag k="name" v="Vågaelva" />
		<tag k="ssr:stedsnr" v="98662" />
		<tag k="waterway" v="river" />
	</node>
	<node id="-525930" lat="61.435129023" lon="5.119706492">
		<tag k="name" v="Litlevatnet" />
		<tag k="natural" v="water" />
		<tag k="ssr:stedsnr" v="98501" />
		<tag k="water" v="lake" />
	</node>
	<node id="-525927" lat="61.3397722206" lon="4.84204722478">
		<tag k="name" v="Svartekatten" />
		<tag k="natural" v="water" />
		<tag k="ssr:stedsnr" v="98267" />
	</node>
	<node id="-525926" lat="61.2846805554" lon="4.62671666321">
		<tag k="name" v="Kjempenesosen" />
		<tag k="natural" v="bay" />
		<tag k="ssr:stedsnr" v="98187" />
	</node>
	<node id="-526353" lat="61.3391194451" lon="4.98660276854">
		<tag k="name" v="Skredvatnet" />
		<tag k="natural" v="water" />
		<tag k="ssr:stedsnr" v="432139" />
	</node>
	<node id="-525921" lat="61.3327722219" lon="4.96263332845">
		<tag k="name" v="Skredvasselva" />
		<tag k="ssr:stedsnr" v="97524" />
		<tag k="waterway" v="stream" />
	</node>
	<node id="-525408" lat="61.4620055574" lon="5.23474444702">
		<tag k="name" v="Nesatjørna" />
		<tag k="natural" v="water" />
		<tag k="ssr:stedsnr" v="340661" />
	</node>
	<node id="-525404" lat="61.3378111136" lon="4.94446667331">
		<tag k="name" v="Skatjørna" />
		<tag k="natural" v="water" />
		<tag k="ssr:stedsnr" v="340506" />
	</node>
	<node id="-527450" lat="61.415483335" lon="5.37983610882">
		<tag k="name" v="Krokavatnet" />
		<tag k="natural" v="water" />
		<tag k="ssr:stedsnr" v="918235" />
		<tag k="water" v="lake" />
	</node>
	<node id="-525912" lat="61.4179777815" lon="4.99677778408">
		<tag k="name" v="Holevikelva" />
		<tag k="ssr:stedsnr" v="96727" />
		<tag k="waterway" v="stream" />
	</node>
	<node id="-526521" lat="61.3580767944" lon="4.93676301427">
		<tag k="name" v="Herlandsvatnet" />
		<tag k="natural" v="water" />
		<tag k="ssr:stedsnr" v="493254" />
		<tag k="water" v="lake" />
	</node>
	<node id="-527444" lat="61.3085777797" lon="4.72943054914">
		<tag k="name" v="Gåsevatnet" />
		<tag k="natural" v="water" />
		<tag k="ssr:stedsnr" v="918181" />
	</node>
	<node id="-527440" lat="61.3899972182" lon="5.39969444196">
		<tag k="name" v="Steinelva" />
		<tag k="ssr:stedsnr" v="918166" />
		<tag k="waterway" v="stream" />
	</node>
	<node id="-527032" lat="61.4541500012" lon="5.18636666987">
		<tag k="name" v="Botnaelva" />
		<tag k="ssr:stedsnr" v="704984" />
		<tag k="waterway" v="stream" />
	</node>
	<node id="-525390" lat="61.3912555526" lon="5.24717222617">
		<tag k="name" v="Sveelva" />
		<tag k="ssr:stedsnr" v="339824" />
		<tag k="waterway" v="river" />
	</node>
	<node id="-526413" lat="61.4211166648" lon="5.48865554866">
		<tag k="name" v="Nipevatnet" />
		<tag k="natural" v="water" />
		<tag k="ssr:stedsnr" v="433794" />
	</node>
	<node id="-526771" lat="61.4311666709" lon="5.3723527807">
		<tag k="alt_name" v="Ertefossen" />
		<tag k="name" v="Eitrefossen" />
		<tag k="natural" v="waterfall" />
		<tag k="ssr:stedsnr" v="614062" />
	</node>
	<node id="-525387" lat="61.4503055579" lon="5.32991945061">
		<tag k="name" v="Øyraneset" />
		<tag k="natural" v="cape" />
		<tag k="ssr:stedsnr" v="339668" />
	</node>
	<node id="-526410" lat="61.3725416694" lon="5.24489999802">
		<tag k="alt_name" v="Kvieelva" />
		<tag k="name" v="Kvielva" />
		<tag k="ssr:stedsnr" v="433701" />
		<tag k="waterway" v="stream" />
	</node>
	<node id="-526007" lat="61.4078111088" lon="5.1933444535">
		<tag k="name" v="Skålefjellsvatnet" />
		<tag k="natural" v="water" />
		<tag k="ssr:stedsnr" v="129238" />
	</node>
	<node id="-527429" lat="61.4354027764" lon="5.39726667457">
		<tag k="name" v="Trollevatnet" />
		<tag k="natural" v="water" />
		<tag k="ssr:stedsnr" v="918051" />
	</node>
	<node id="-527427" lat="61.4142277772" lon="5.24114166292">
		<tag k="name" v="Botnastølsvatnet" />
		<tag k="natural" v="water" />
		<tag k="ssr:stedsnr" v="918032" />
	</node>
	<node id="-526914" lat="61.4446138904" lon="5.27673332999">
		<tag k="name" v="Skatelva" />
		<tag k="ssr:stedsnr" v="675107" />
		<tag k="waterway" v="stream" />
	</node>
	<node id="-527424" lat="61.4388944461" lon="5.4052527862">
		<tag k="alt_name" v="Keiservatnet" />
		<tag k="name" v="Keisarlivatnet" />
		<tag k="natural" v="water" />
		<tag k="ssr:stedsnr" v="918009" />
	</node>
	<node id="-526909" lat="61.4472944481" lon="5.13276111007">
		<tag k="alt_name" v="Molvikelva" />
		<tag k="name" v="Moldvikelva" />
		<tag k="ssr:stedsnr" v="675073" />
		<tag k="waterway" v="stream" />
	</node>
	<node id="-526907" lat="61.4265750004" lon="5.28838056282">
		<tag k="name" v="Norddalstjerna" />
		<tag k="natural" v="water" />
		<tag k="ssr:stedsnr" v="675062" />
	</node>
	<node id="-526906" lat="61.4280027818" lon="5.3056611139">
		<tag k="alt_name" v="Nordalselva" />
		<tag k="name" v="Norddalselva" />
		<tag k="ssr:stedsnr" v="675061" />
		<tag k="waterway" v="stream" />
	</node>
	<node id="-526905" lat="61.4299694471" lon="5.34286110394">
		<tag k="name" v="Hammarstjørna" />
		<tag k="natural" v="water" />
		<tag k="ssr:stedsnr" v="675058" />
	</node>
	<node id="-527416" lat="61.4658611141" lon="5.26718889492">
		<tag k="name" v="Storetjørna" />
		<tag k="natural" v="water" />
		<tag k="ssr:stedsnr" v="917071" />
	</node>
	<node id="-525879" lat="61.4387222204" lon="5.51773333573">
		<tag k="alt_name" v="Hundsåa" />
		<tag k="name" v="Hundsåna" />
		<tag k="ssr:stedsnr" v="68853" />
		<tag k="waterway" v="stream" />
	</node>
	<node id="-526389" lat="61.2936777755" lon="4.75513888443">
		<tag k="name" v="Fløvatnet" />
		<tag k="natural" v="water" />
		<tag k="ssr:stedsnr" v="433160" />
	</node>
	<node id="-526259" lat="61.4418277748" lon="5.4128750041">
		<tag k="name" v="Ruggevatnet" />
		<tag k="natural" v="water" />
		<tag k="ssr:stedsnr" v="250004" />
	</node>
	<node id="-526891" lat="61.3855277765" lon="5.39987221891">
		<tag k="name" v="Fossedalselva" />
		<tag k="ssr:stedsnr" v="659280" />
		<tag k="waterway" v="river" />
	</node>
	<node id="-525861" lat="61.3923333349" lon="5.29312500479">
		<tag k="name" v="Fossane" />
		<tag k="natural" v="waterfall" />
		<tag k="ssr:stedsnr" v="68242" />
	</node>
	<node id="-525860" lat="61.3947944471" lon="5.3185638923">
		<tag k="name" v="Atlevatnet" />
		<tag k="natural" v="water" />
		<tag k="ssr:stedsnr" v="68243" />
	</node>
	<node id="-525659" lat="61.4318249981" lon="5.12251666154">
		<tag k="name" v="Rindaelva" />
		<tag k="ssr:stedsnr" v="7027" />
		<tag k="waterway" v="stream" />
	</node>
	<node id="-526880" lat="61.3650388847" lon="5.07356665817">
		<tag k="name" v="Kannefossen" />
		<tag k="natural" v="waterfall" />
		<tag k="ssr:stedsnr" v="643905" />
	</node>
	<node id="-526873" lat="61.4342972201" lon="5.2218111073">
		<tag k="name" v="Gjelelva" />
		<tag k="ssr:stedsnr" v="643624" />
		<tag k="waterway" v="stream" />
	</node>
	<node id="-525854" lat="61.4080249988" lon="5.16487500221">
		<tag k="name" v="Langevatnet" />
		<tag k="natural" v="water" />
		<tag k="ssr:stedsnr" v="68217" />
	</node>
	<node id="-527388" lat="61.361366668" lon="5.00051111552">
		<tag k="alt_name" v="Svartetjørn" />
		<tag k="name" v="Svartetjerna" />
		<tag k="natural" v="water" />
		<tag k="ssr:stedsnr" v="858241" />
	</node>
	<node id="-526363" lat="61.3855861084" lon="5.21310556257">
		<tag k="name" v="Bogetjørna" />
		<tag k="natural" v="water" />
		<tag k="ssr:stedsnr" v="432192" />
	</node>
	<node id="-526362" lat="61.4068694417" lon="5.29183332499">
		<tag k="alt_name" v="Gavlevatnet" />
		<tag k="name" v="Gavllivatnet" />
		<tag k="natural" v="water" />
		<tag k="ssr:stedsnr" v="432185" />
	</node>
	<node id="-526361" lat="61.4097249965" lon="5.3708083301">
		<tag k="alt_name" v="Svartetjørna" />
		<tag k="name" v="Svartetjerna" />
		<tag k="natural" v="water" />
		<tag k="ssr:stedsnr" v="432183" />
	</node>
	<node id="-526865" lat="61.3407995349" lon="4.83899723633">
		<tag k="name" v="Storevatnet" />
		<tag k="natural" v="water" />
		<tag k="ssr:stedsnr" v="643288" />
		<tag k="water" v="lake" />
	</node>
	<node id="-527376" lat="61.303075" lon="4.71462500328">
		<tag k="alt_name" v="Duevatnet;Duvatnet" />
		<tag k="name" v="Duvevatnet" />
		<tag k="natural" v="water" />
		<tag k="ssr:stedsnr" v="857440" />
	</node>
	<node id="-526861" lat="61.3123828322" lon="4.72620962917">
		<tag k="name" v="Fadersvatnet" />
		<tag k="natural" v="water" />
		<tag k="ssr:stedsnr" v="643265" />
		<tag k="water" v="lake" />
	</node>
	<node id="-526348" lat="61.4411888905" lon="5.09734444556">
		<tag k="name" v="Grønålane" />
		<tag k="ssr:stedsnr" v="432113" />
		<tag k="waterway" v="stream" />
	</node>
	<node id="-525323" lat="61.3651666703" lon="5.00043611122">
		<tag k="alt_name" v="Skoltetjørn" />
		<tag k="name" v="Skoltetjørna" />
		<tag k="natural" v="water" />
		<tag k="ssr:stedsnr" v="311242" />
	</node>
	<node id="-526345" lat="61.4349083324" lon="5.36140555173">
		<tag k="alt_name" v="Trolleelva" />
		<tag k="name" v="Trollelva" />
		<tag k="ssr:stedsnr" v="432037" />
		<tag k="waterway" v="stream" />
	</node>
	<node id="-526854" lat="61.4395444449" lon="5.44299721861">
		<tag k="name" v="Botnaelva" />
		<tag k="ssr:stedsnr" v="642927" />
		<tag k="waterway" v="river" />
	</node>
	<node id="-525826" lat="61.4325333309" lon="5.34948888767">
		<tag k="name" v="Grunnevasselva" />
		<tag k="ssr:stedsnr" v="68042" />
		<tag k="waterway" v="stream" />
	</node>
	<node id="-527362" lat="61.4144444462" lon="5.4094555615">
		<tag k="alt_name" v="Tjørnabotntjørna" />
		<tag k="name" v="Botnatjerna" />
		<tag k="natural" v="water" />
		<tag k="ssr:stedsnr" v="857228" />
	</node>
	<node id="-526849" lat="61.4611305555" lon="5.38835277283">
		<tag k="name" v="Gjelsvikelva" />
		<tag k="ssr:stedsnr" v="642514" />
		<tag k="waterway" v="stream" />
	</node>
</osm>
