<?xml version="1.0" encoding="UTF-8"?>
<osm generator="osmapis" version="0.6">
	<node id="-526331" lat="61.3447054665" lon="5.11630485917">
		<tag k="fixme" v="consider place=hamlet" />
		<tag k="name" v="Straumen" />
		<tag k="place" v="farm" />
		<tag k="ssr:stedsnr" v="251722" />
	</node>
	<node id="-525817" lat="61.329123797" lon="5.01477546967">
		<tag k="alt_name" v="Grov;Grov nedre" />
		<tag k="fixme" v="consider place=hamlet" />
		<tag k="name" v="Nedre Grov" />
		<tag k="place" v="farm" />
		<tag k="ssr:stedsnr" v="68126" />
	</node>
	<node id="-525816" lat="61.3332310634" lon="5.02075895932">
		<tag k="fixme" v="consider place=hamlet" />
		<tag k="name" v="Kumle" />
		<tag k="place" v="farm" />
		<tag k="ssr:stedsnr" v="68124" />
	</node>
	<node id="-527351" lat="61.3610836906" lon="5.24765386032">
		<tag k="fixme" v="consider place=hamlet" />
		<tag k="name" v="Liset" />
		<tag k="place" v="farm" />
		<tag k="ssr:stedsnr" v="857186" />
	</node>
	<node id="-525814" lat="61.4604579265" lon="5.42790420198">
		<tag k="name" v="Åla" />
		<tag k="place" v="hamlet" />
		<tag k="ssr:stedsnr" v="68118" />
	</node>
	<node id="-527347" lat="61.3157972232" lon="4.95886666764">
		<tag k="name" v="Bardsnes" />
		<tag k="place" v="farm" />
		<tag k="ssr:stedsnr" v="857171" />
	</node>
	<node id="-526834" lat="61.3572416701" lon="5.19844443789">
		<tag k="name" v="Bakkenes" />
		<tag k="place" v="farm" />
		<tag k="ssr:stedsnr" v="640656" />
	</node>
	<node id="-526833" lat="61.3418749998" lon="5.16886666942">
		<tag k="name" v="Åsen" />
		<tag k="place" v="farm" />
		<tag k="ssr:stedsnr" v="640652" />
	</node>
	<node id="-525807" lat="61.4755055563" lon="5.35762777064">
		<tag k="name" v="Øvrebø" />
		<tag k="place" v="farm" />
		<tag k="ssr:stedsnr" v="53690" />
	</node>
	<node id="-527341" lat="61.4448638856" lon="5.3978638937">
		<tag k="name" v="Gjelsvikestølen" />
		<tag k="place" v="isolated_dwelling" />
		<tag k="ssr:stedsnr" v="857113" />
	</node>
	<node id="-527340" lat="61.451011113" lon="5.34356665858">
		<tag k="name" v="Øyraplassen" />
		<tag k="place" v="locality" />
		<tag k="ssr:stedsnr" v="857112" />
	</node>
	<node id="-525650" lat="61.4267577594" lon="5.1086128414">
		<tag k="alt_name" v="Fauskevik" />
		<tag k="fixme" v="consider place=hamlet" />
		<tag k="name" v="Fauskevika" />
		<tag k="place" v="farm" />
		<tag k="ssr:stedsnr" v="7006" />
	</node>
	<node id="-527336" lat="61.4573000016" lon="5.24832499497">
		<tag k="alt_name" v="Nygård" />
		<tag k="name" v="Nygard" />
		<tag k="place" v="farm" />
		<tag k="ssr:stedsnr" v="857077" />
	</node>
	<node id="-526823" lat="61.4443861126" lon="5.4710750044">
		<tag k="alt_name" v="Rørvik" />
		<tag k="name" v="Rørvika" />
		<tag k="place" v="farm" />
		<tag k="ssr:stedsnr" v="615529" />
	</node>
	<node id="-526309" lat="61.3420777737" lon="5.12341666547">
		<tag k="name" v="Straumen" />
		<tag k="place" v="farm" />
		<tag k="ssr:stedsnr" v="250335" />
	</node>
	<node id="-525284" lat="61.4714750005" lon="5.27696110327">
		<tag k="name" v="Fredheim" />
		<tag k="place" v="farm" />
		<tag k="ssr:stedsnr" v="311047" />
	</node>
	<node id="-525281" lat="61.4238333317" lon="5.15238610684">
		<tag k="name" v="Urdaneset" />
		<tag k="place" v="farm" />
		<tag k="ssr:stedsnr" v="311016" />
	</node>
	<node id="-526304" lat="61.3933349712" lon="4.92479620956">
		<tag k="alt_name" v="Heggøy" />
		<tag k="fixme" v="consider place=hamlet" />
		<tag k="name" v="Heggøyna" />
		<tag k="place" v="farm" />
		<tag k="ssr:stedsnr" v="250297" />
	</node>
	<node id="-525279" lat="61.457352781" lon="5.4350722127">
		<tag k="name" v="Lauvvik" />
		<tag k="place" v="farm" />
		<tag k="ssr:stedsnr" v="296649" />
	</node>
	<node id="-527323" lat="61.4329161533" lon="5.10210617171">
		<tag k="alt_name" v="Fjeldet;Fjellet" />
		<tag k="fixme" v="consider place=hamlet" />
		<tag k="name" v="Fjella" />
		<tag k="place" v="farm" />
		<tag k="ssr:stedsnr" v="857023" />
	</node>
	<node id="-527321" lat="61.4438689391" lon="5.4676714292">
		<tag k="fixme" v="consider place=hamlet" />
		<tag k="name" v="Rørvika" />
		<tag k="place" v="farm" />
		<tag k="ssr:stedsnr" v="857002" />
	</node>
	<node id="-527320" lat="61.4276500025" lon="5.12046389306">
		<tag k="name" v="Haugane" />
		<tag k="place" v="farm" />
		<tag k="ssr:stedsnr" v="857001" />
	</node>
	<node id="-525305" lat="61.3738833336" lon="5.23685277109">
		<tag k="alt_name" v="Flatabø" />
		<tag k="name" v="Flatebøen" />
		<tag k="place" v="farm" />
		<tag k="ssr:stedsnr" v="311171" />
	</node>
	<node id="-526291" lat="61.3775444403" lon="4.99190278461">
		<tag k="name" v="Kalvvika" />
		<tag k="place" v="farm" />
		<tag k="ssr:stedsnr" v="250211" />
	</node>
	<node id="-526802" lat="61.3795822417" lon="5.10860902486">
		<tag k="alt_name" v="Eidet nordre" />
		<tag k="fixme" v="consider place=hamlet" />
		<tag k="name" v="Nordeidet" />
		<tag k="place" v="farm" />
		<tag k="ssr:stedsnr" v="614231" />
	</node>
	<node id="-526801" lat="61.3503450599" lon="5.05155061347">
		<tag k="fixme" v="consider place=hamlet" />
		<tag k="name" v="Røyset" />
		<tag k="place" v="farm" />
		<tag k="ssr:stedsnr" v="614226" />
	</node>
	<node id="-525304" lat="61.3743750035" lon="5.38957777903">
		<tag k="alt_name" v="Otterstein" />
		<tag k="name" v="Ottersteinen" />
		<tag k="place" v="farm" />
		<tag k="ssr:stedsnr" v="311164" />
	</node>
	<node id="-527310" lat="61.3567722244" lon="4.90071667543">
		<tag k="name" v="Nordheim" />
		<tag k="place" v="farm" />
		<tag k="ssr:stedsnr" v="841120" />
	</node>
	<node id="-526797" lat="61.3762972198" lon="4.92850832793">
		<tag k="alt_name" v="Kjørvik;Kjørrvik" />
		<tag k="name" v="Kjørrvika" />
		<tag k="place" v="farm" />
		<tag k="ssr:stedsnr" v="614214" />
	</node>
	<node id="-526284" lat="61.3478583338" lon="5.11276111469">
		<tag k="name" v="Melen" />
		<tag k="place" v="farm" />
		<tag k="ssr:stedsnr" v="250165" />
	</node>
	<node id="-526283" lat="61.3496999981" lon="5.16211110805">
		<tag k="name" v="Nyheim" />
		<tag k="place" v="isolated_dwelling" />
		<tag k="ssr:stedsnr" v="250161" />
	</node>
	<node id="-527306" lat="61.4432833327" lon="5.07079444974">
		<tag k="fixme" v="consider place=hamlet" />
		<tag k="name" v="Grimelia" />
		<tag k="place" v="farm" />
		<tag k="ssr:stedsnr" v="829870" />
	</node>
	<node id="-526793" lat="61.3666872225" lon="4.98436525004">
		<tag k="alt_name" v="Høyvik" />
		<tag k="fixme" v="consider place=hamlet" />
		<tag k="name" v="Høyvika" />
		<tag k="place" v="farm" />
		<tag k="ssr:stedsnr" v="614194" />
	</node>
	<node id="-527190" lat="61.4275646735" lon="5.13232565252">
		<tag k="fixme" v="consider place=hamlet" />
		<tag k="name" v="Yndestad" />
		<tag k="place" v="farm" />
		<tag k="ssr:stedsnr" v="796001" />
	</node>
	<node id="-527302" lat="61.4332916679" lon="5.12746945038">
		<tag k="historic" v="shieling" />
		<tag k="name" v="Solheimsstølen" />
		<tag k="place" v="locality" />
		<tag k="ssr:stedsnr" v="826483" />
	</node>
	<node id="-526789" lat="61.3225472223" lon="4.98126388152">
		<tag k="name" v="Gardvika" />
		<tag k="place" v="farm" />
		<tag k="ssr:stedsnr" v="614173" />
	</node>
	<node id="-526263" lat="61.4747080816" lon="5.25435798629">
		<tag k="alt_name" v="Flokenes" />
		<tag k="fixme" v="consider place=hamlet" />
		<tag k="name" v="Flokeneset" />
		<tag k="place" v="farm" />
		<tag k="ssr:stedsnr" v="250036" />
	</node>
	<node id="-526774" lat="61.4684692224" lon="5.39260558796">
		<tag k="alt_name" v="Bjørndal" />
		<tag k="fixme" v="consider place=hamlet" />
		<tag k="name" v="Bjørndalen" />
		<tag k="place" v="farm" />
		<tag k="ssr:stedsnr" v="614091" />
	</node>
	<node id="-526773" lat="61.4617583329" lon="5.24741110853">
		<tag k="alt_name" v="Merkesvik" />
		<tag k="name" v="Merkesvika" />
		<tag k="place" v="farm" />
		<tag k="ssr:stedsnr" v="614082" />
	</node>
	<node id="-526770" lat="61.4737051798" lon="5.34635707367">
		<tag k="alt_name" v="Hegrenes" />
		<tag k="fixme" v="consider place=hamlet" />
		<tag k="name" v="Hegreneset" />
		<tag k="place" v="farm" />
		<tag k="ssr:stedsnr" v="614055" />
	</node>
	<node id="-526767" lat="61.4720592057" lon="5.26935116071">
		<tag k="name" v="Storevika" />
		<tag k="place" v="farm" />
		<tag k="ssr:stedsnr" v="614047" />
	</node>
	<node id="-526254" lat="61.4596333326" lon="5.23865555165">
		<tag k="name" v="Urda" />
		<tag k="place" v="isolated_dwelling" />
		<tag k="ssr:stedsnr" v="234754" />
	</node>
	<node id="-526765" lat="61.4251499977" lon="5.23012500433">
		<tag k="alt_name" v="Oslandsbotten" />
		<tag k="name" v="Oslandsbotnen" />
		<tag k="place" v="farm" />
		<tag k="ssr:stedsnr" v="614015" />
	</node>
	<node id="-527276" lat="61.2915475285" lon="4.61821207178">
		<tag k="fixme" v="consider place=hamlet" />
		<tag k="name" v="Fedøy" />
		<tag k="place" v="farm" />
		<tag k="ssr:stedsnr" v="825145" />
	</node>
	<node id="-526763" lat="61.4421944486" lon="5.44021667025">
		<tag k="name" v="Løvikestølen" />
		<tag k="place" v="locality" />
		<tag k="ssr:stedsnr" v="614008" />
	</node>
	<node id="-526761" lat="61.3823794393" lon="5.03592796282">
		<tag k="alt_name" v="Eimind" />
		<tag k="name" v="Eidmind" />
		<tag k="place" v="hamlet" />
		<tag k="ssr:stedsnr" v="606068" />
	</node>
	<node id="-526759" lat="61.4430333364" lon="5.48539999812">
		<tag k="name" v="Saga" />
		<tag k="place" v="isolated_dwelling" />
		<tag k="ssr:stedsnr" v="599747" />
	</node>
	<node id="-525734" lat="61.4383638916" lon="5.05427778207">
		<tag k="alt_name" v="Vågen" />
		<tag k="name" v="Stubseidvågen" />
		<tag k="place" v="farm" />
		<tag k="ssr:stedsnr" v="8397" />
	</node>
	<node id="-525297" lat="61.465619531" lon="5.41875674789">
		<tag k="fixme" v="consider place=hamlet" />
		<tag k="name" v="Kvammen" />
		<tag k="place" v="farm" />
		<tag k="ssr:stedsnr" v="311107" />
	</node>
	<node id="-527267" lat="61.3371333296" lon="5.15864721982">
		<tag k="alt_name" v="Ytre Vårdal" />
		<tag k="fixme" v="consider place=hamlet" />
		<tag k="name" v="Ytre-Vårdal" />
		<tag k="place" v="village" />
		<tag k="ssr:stedsnr" v="822680" />
	</node>
	<node id="-526754" lat="61.4643416682" lon="5.25751388808">
		<tag k="name" v="Solheim" />
		<tag k="place" v="farm" />
		<tag k="ssr:stedsnr" v="598711" />
	</node>
	<node id="-525325" lat="61.40198611" lon="5.23072777921">
		<tag k="name" v="Morkstølen" />
		<tag k="place" v="isolated_dwelling" />
		<tag k="ssr:stedsnr" v="311247" />
	</node>
	<node id="-526751" lat="61.3263944478" lon="5.10044722752">
		<tag k="name" v="Torsheim" />
		<tag k="place" v="farm" />
		<tag k="ssr:stedsnr" v="598672" />
	</node>
	<node id="-525725" lat="61.4206626086" lon="4.9941676287">
		<tag k="alt_name" v="Holevik" />
		<tag k="fixme" v="consider place=hamlet" />
		<tag k="name" v="Holevika" />
		<tag k="place" v="farm" />
		<tag k="ssr:stedsnr" v="8294" />
	</node>
	<node id="-526744" lat="61.4254361104" lon="5.08801943715">
		<tag k="name" v="Skjolden" />
		<tag k="place" v="isolated_dwelling" />
		<tag k="ssr:stedsnr" v="598433" />
	</node>
	<node id="-526743" lat="61.3872388908" lon="5.38762499243">
		<tag k="alt_name" v="Fossdal, nedre" />
		<tag k="name" v="Nedre Fossedal" />
		<tag k="old_name" v="Nedre - Fossedal" />
		<tag k="place" v="farm" />
		<tag k="ssr:stedsnr" v="587174" />
	</node>
	<node id="-525581" lat="61.4629744566" lon="5.31856435453">
		<tag k="alt_name" v="Skorven;Skarven" />
		<tag k="fixme" v="consider place=hamlet" />
		<tag k="name" v="Skorva" />
		<tag k="place" v="farm" />
		<tag k="ssr:stedsnr" v="476097" />
	</node>
	<node id="-527200" lat="61.4554277737" lon="5.16799999946">
		<tag k="alt_name" v="Stavestrand" />
		<tag k="name" v="Stavestranda" />
		<tag k="place" v="farm" />
		<tag k="ssr:stedsnr" v="796061" />
	</node>
	<node id="-525716" lat="61.3547472253" lon="5.05291667544">
		<tag k="name" v="Røysheim" />
		<tag k="place" v="farm" />
		<tag k="ssr:stedsnr" v="8251" />
	</node>
	<node id="-526403" lat="61.4429588026" lon="5.06462348225">
		<tag k="alt_name" v="Grimelid nedre;Grimelia, nedre" />
		<tag k="fixme" v="consider place=hamlet" />
		<tag k="name" v="Nedre Grimelia" />
		<tag k="place" v="farm" />
		<tag k="ssr:stedsnr" v="433351" />
	</node>
	<node id="-527243" lat="61.3499572285" lon="5.06783441881">
		<tag k="alt_name" v="Øvreaskvoll;Askvoll øvre" />
		<tag k="fixme" v="consider place=hamlet" />
		<tag k="name" v="Øvre Askvoll" />
		<tag k="place" v="farm" />
		<tag k="ssr:stedsnr" v="797219" />
	</node>
	<node id="-526218" lat="61.3644499992" lon="5.27189166951">
		<tag k="name" v="Fagerheim" />
		<tag k="place" v="farm" />
		<tag k="ssr:stedsnr" v="218998" />
	</node>
	<node id="-525704" lat="61.3737330797" lon="5.27593135887">
		<tag k="alt_name" v="Vindeim" />
		<tag k="fixme" v="consider place=hamlet" />
		<tag k="name" v="Vindheim" />
		<tag k="place" v="farm" />
		<tag k="ssr:stedsnr" v="8145" />
	</node>
	<node id="-525292" lat="61.4206552243" lon="5.13663157786">
		<tag k="alt_name" v="Stafsnes;Stavnes" />
		<tag k="fixme" v="consider place=hamlet" />
		<tag k="name" v="Stavsnes" />
		<tag k="place" v="farm" />
		<tag k="ssr:stedsnr" v="311069" />
	</node>
	<node id="-527370" lat="61.3438027794" lon="5.17296665764">
		<tag k="name" v="Under fjella" />
		<tag k="place" v="farm" />
		<tag k="ssr:stedsnr" v="857354" />
	</node>
	<node id="-526210" lat="61.4582194416" lon="5.42738334011">
		<tag k="fixme" v="consider place=hamlet" />
		<tag k="name" v="Indre Ålen" />
		<tag k="place" v="farm" />
		<tag k="ssr:stedsnr" v="218817" />
	</node>
	<node id="-526200" lat="61.3627833357" lon="5.12802499415">
		<tag k="name" v="Brun" />
		<tag k="place" v="locality" />
		<tag k="ssr:stedsnr" v="218374" />
	</node>
	<node id="-525684" lat="61.3481919488" lon="5.17425853467">
		<tag k="fixme" v="consider place=hamlet" />
		<tag k="name" v="Vik" />
		<tag k="place" v="farm" />
		<tag k="ssr:stedsnr" v="7170" />
	</node>
	<node id="-525675" lat="61.4462694412" lon="5.36081111192">
		<tag k="name" v="Skorvestølen" />
		<tag k="place" v="locality" />
		<tag k="ssr:stedsnr" v="7116" />
	</node>
	<node id="-525680" lat="61.3273075561" lon="5.00499976219">
		<tag k="fixme" v="consider place=hamlet" />
		<tag k="name" v="Spor" />
		<tag k="place" v="farm" />
		<tag k="ssr:stedsnr" v="7142" />
	</node>
	<node id="-527211" lat="61.3247291008" lon="4.99988714183">
		<tag k="fixme" v="consider place=hamlet" />
		<tag k="name" v="Leirvåg" />
		<tag k="place" v="farm" />
		<tag k="ssr:stedsnr" v="796175" />
	</node>
	<node id="-527209" lat="61.3569944465" lon="5.17268054808">
		<tag k="name" v="Solbakken" />
		<tag k="place" v="farm" />
		<tag k="ssr:stedsnr" v="796162" />
	</node>
	<node id="-527204" lat="61.4741740481" lon="5.41646213138">
		<tag k="fixme" v="consider place=hamlet" />
		<tag k="name" v="Leknes" />
		<tag k="place" v="farm" />
		<tag k="ssr:stedsnr" v="796078" />
	</node>
	<node id="-526179" lat="61.3347634836" lon="5.0999341498">
		<tag k="fixme" v="consider place=hamlet" />
		<tag k="name" v="Nes" />
		<tag k="place" v="farm" />
		<tag k="ssr:stedsnr" v="190367" />
	</node>
	<node id="-527419" lat="61.46018611" lon="5.3234472168">
		<tag k="name" v="Botnen" />
		<tag k="place" v="locality" />
		<tag k="ssr:stedsnr" v="917092" />
	</node>
	<node id="-526176" lat="61.3448264793" lon="5.12053667261">
		<tag k="alt_name" v="Lofteim" />
		<tag k="fixme" v="consider place=hamlet" />
		<tag k="name" v="Loftheim" />
		<tag k="place" v="farm" />
		<tag k="ssr:stedsnr" v="190333" />
	</node>
	<node id="-525285" lat="61.4202111134" lon="5.2064277731">
		<tag k="alt_name" v="Stangstølen" />
		<tag k="historic" v="shieling" />
		<tag k="name" v="Stongsstølen" />
		<tag k="place" v="locality" />
		<tag k="ssr:stedsnr" v="311048" />
	</node>
	<node id="-525882" lat="61.3730310807" lon="5.26617979472">
		<tag k="fixme" v="consider place=hamlet" />
		<tag k="name" v="Vagstad" />
		<tag k="place" v="farm" />
		<tag k="ssr:stedsnr" v="69145" />
	</node>
	<node id="-525658" lat="61.4374249985" lon="5.12260833908">
		<tag k="name" v="Yndestadstølen" />
		<tag k="place" v="locality" />
		<tag k="ssr:stedsnr" v="7028" />
	</node>
	<node id="-526681" lat="61.3355034551" lon="5.15429709305">
		<tag k="alt_name" v="Vårdal, ytre;Vårdal" />
		<tag k="fixme" v="consider place=hamlet" />
		<tag k="name" v="Ytre Vårdal" />
		<tag k="place" v="farm" />
		<tag k="ssr:stedsnr" v="554379" />
	</node>
	<node id="-527192" lat="61.4252638867" lon="5.1535444469">
		<tag k="name" v="Urdheim" />
		<tag k="place" v="isolated_dwelling" />
		<tag k="ssr:stedsnr" v="796011" />
	</node>
	<node id="-525655" lat="61.4264726801" lon="5.1685786515">
		<tag k="fixme" v="consider place=hamlet" />
		<tag k="name" v="Gjerde" />
		<tag k="place" v="farm" />
		<tag k="ssr:stedsnr" v="7020" />
	</node>
	<node id="-526166" lat="61.4260638516" lon="5.03740819373">
		<tag k="alt_name" v="Lien" />
		<tag k="fixme" v="consider place=hamlet" />
		<tag k="name" v="Lia" />
		<tag k="place" v="farm" />
		<tag k="ssr:stedsnr" v="190267" />
	</node>
	<node id="-525653" lat="61.4277249967" lon="5.16742778053">
		<tag k="fixme" v="consider place=suburb, village or hamlet" />
		<tag k="name" v="Stongfjorden" />
		<tag k="place" v="quarter" />
		<tag k="ssr:stedsnr" v="7017" />
	</node>
	<node id="-525652" lat="61.4422638844" lon="5.38352221695">
		<tag k="alt_name" v="Selvikstølen" />
		<tag k="name" v="Selvikestølen" />
		<tag k="place" v="isolated_dwelling" />
		<tag k="ssr:stedsnr" v="7013" />
	</node>
	<node id="-526674" lat="61.371352781" lon="5.19677500234">
		<tag k="name" v="Solbakken" />
		<tag k="place" v="farm" />
		<tag k="ssr:stedsnr" v="554149" />
	</node>
	<node id="-526959" lat="61.3448166637" lon="5.17418332603">
		<tag k="name" v="Gjerdet" />
		<tag k="place" v="farm" />
		<tag k="ssr:stedsnr" v="675360" />
	</node>
	<node id="-527183" lat="61.3239111145" lon="4.99057221956">
		<tag k="name" v="Leitet" />
		<tag k="place" v="farm" />
		<tag k="ssr:stedsnr" v="780705" />
	</node>
	<node id="-527182" lat="61.4712111138" lon="5.35164721366">
		<tag k="name" v="Bakken" />
		<tag k="place" v="farm" />
		<tag k="ssr:stedsnr" v="780673" />
	</node>
	<node id="-527180" lat="61.4395833351" lon="5.06959444781">
		<tag k="name" v="Myra" />
		<tag k="place" v="farm" />
		<tag k="ssr:stedsnr" v="780396" />
	</node>
	<node id="-525643" lat="61.3310766464" lon="5.01908391713">
		<tag k="name" v="Skarheim" />
		<tag k="place" v="farm" />
		<tag k="ssr:stedsnr" v="1071895" />
	</node>
	<node id="-526154" lat="61.3571205868" lon="5.18572765012">
		<tag k="fixme" v="consider place=hamlet" />
		<tag k="name" v="Holmedal" />
		<tag k="place" v="village" />
		<tag k="ssr:stedsnr" v="190191" />
	</node>
	<node id="-526153" lat="61.364589894" lon="5.16051781252">
		<tag k="alt_name" v="Blakstad" />
		<tag k="fixme" v="consider place=hamlet" />
		<tag k="name" v="Blakkstad" />
		<tag k="place" v="farm" />
		<tag k="ssr:stedsnr" v="190189" />
	</node>
	<node id="-527175" lat="61.3566361117" lon="5.17958055351">
		<tag k="name" v="Haugane" />
		<tag k="place" v="quarter" />
		<tag k="ssr:stedsnr" v="770446" />
	</node>
	<node id="-526662" lat="61.3432999965" lon="5.11111945236">
		<tag k="name" v="Tunet" />
		<tag k="place" v="farm" />
		<tag k="ssr:stedsnr" v="553314" />
	</node>
	<node id="-526145" lat="61.3671027357" lon="5.1775797054">
		<tag k="fixme" v="consider place=hamlet" />
		<tag k="name" v="Håland" />
		<tag k="place" v="farm" />
		<tag k="ssr:stedsnr" v="190149" />
	</node>
	<node id="-526656" lat="61.3953750008" lon="5.2853388863">
		<tag k="name" v="Vagstadstølen" />
		<tag k="place" v="isolated_dwelling" />
		<tag k="ssr:stedsnr" v="553219" />
	</node>
	<node id="-525280" lat="61.3286552138" lon="5.10503593636">
		<tag k="fixme" v="multiple name tags, choose one and add the other to alt_name" />
		<tag k="name" v="Flaten;Myrane" />
		<tag k="place" v="locality" />
		<tag k="ssr:stedsnr" v="310260" />
	</node>
	<node id="-526901" lat="61.4393249966" lon="5.21623056132">
		<tag k="alt_name" v="Lien" />
		<tag k="name" v="Lia" />
		<tag k="place" v="farm" />
		<tag k="ssr:stedsnr" v="675037" />
	</node>
	<node id="-527591" lat="61.4142184205" lon="4.89411046437">
		<tag k="fixme" v="consider place=hamlet" />
		<tag k="name" v="Smelvær" />
		<tag k="place" v="farm" />
		<tag k="ssr:stedsnr" v="973900" />
	</node>
	<node id="-527161" lat="61.3105833347" lon="4.69865554708">
		<tag k="name" v="Landøy" />
		<tag k="place" v="farm" />
		<tag k="ssr:stedsnr" v="765262" />
	</node>
	<node id="-526647" lat="61.321472223" lon="4.97103889697">
		<tag k="name" v="Gjerdet" />
		<tag k="place" v="farm" />
		<tag k="ssr:stedsnr" v="553160" />
	</node>
	<node id="-526129" lat="61.4052555527" lon="5.13684167477">
		<tag k="name" v="Selbøen" />
		<tag k="place" v="locality" />
		<tag k="ssr:stedsnr" v="189192" />
	</node>
	<node id="-526639" lat="61.3316366505" lon="5.0775362564">
		<tag k="fixme" v="consider place=hamlet" />
		<tag k="name" v="Olset" />
		<tag k="place" v="farm" />
		<tag k="ssr:stedsnr" v="553124" />
	</node>
	<node id="-526638" lat="61.3110557808" lon="4.73329462283">
		<tag k="fixme" v="consider place=hamlet" />
		<tag k="name" v="Værøy" />
		<tag k="place" v="farm" />
		<tag k="ssr:stedsnr" v="553120" />
	</node>
	<node id="-527069" lat="61.3624138931" lon="5.16364999473">
		<tag k="alt_name" v="Klongrehaugen" />
		<tag k="name" v="Klungrehaugen" />
		<tag k="place" v="farm" />
		<tag k="ssr:stedsnr" v="735176" />
	</node>
	<node id="-526636" lat="61.4605102948" lon="5.38710700428">
		<tag k="alt_name" v="Gjelsvik;Søre Gjelsvik" />
		<tag k="fixme" v="consider place=hamlet" />
		<tag k="name" v="Gjelsvika" />
		<tag k="place" v="farm" />
		<tag k="ssr:stedsnr" v="553107" />
	</node>
	<node id="-527147" lat="61.4167611082" lon="5.05789443722">
		<tag k="name" v="Steinset" />
		<tag k="place" v="farm" />
		<tag k="ssr:stedsnr" v="764749" />
	</node>
	<node id="-526286" lat="61.3661801301" lon="5.28795902553">
		<tag k="alt_name" v="Eikenes" />
		<tag k="fixme" v="consider place=hamlet" />
		<tag k="name" v="Eikeneset" />
		<tag k="place" v="farm" />
		<tag k="ssr:stedsnr" v="250171" />
	</node>
	<node id="-526119" lat="61.4542583363" lon="5.22001388564">
		<tag k="name" v="Vågane" />
		<tag k="place" v="farm" />
		<tag k="ssr:stedsnr" v="189063" />
	</node>
	<node id="-525845" lat="61.3155998364" lon="4.77100506109">
		<tag k="fixme" v="consider place=hamlet" />
		<tag k="name" v="Alden" />
		<tag k="place" v="farm" />
		<tag k="ssr:stedsnr" v="68185" />
	</node>
	<node id="-525446" lat="61.4490886359" lon="5.44900092627">
		<tag k="alt_name" v="Løvik" />
		<tag k="fixme" v="consider place=hamlet" />
		<tag k="name" v="Løvika" />
		<tag k="place" v="farm" />
		<tag k="ssr:stedsnr" v="371103" />
	</node>
	<node id="-526114" lat="61.4296722219" lon="5.30116945224">
		<tag k="name" v="Kvamsstølen" />
		<tag k="place" v="locality" />
		<tag k="ssr:stedsnr" v="189047" />
	</node>
	<node id="-527137" lat="61.4155611099" lon="5.17226944067">
		<tag k="name" v="Mosestølen" />
		<tag k="place" v="locality" />
		<tag k="ssr:stedsnr" v="764440" />
	</node>
	<node id="-526112" lat="61.4166555572" lon="5.24707500653">
		<tag k="name" v="Litlestølen" />
		<tag k="place" v="isolated_dwelling" />
		<tag k="ssr:stedsnr" v="189027" />
	</node>
	<node id="-526110" lat="61.4384384099" lon="5.32294500622">
		<tag k="alt_name" v="Hatlelid" />
		<tag k="fixme" v="consider place=hamlet" />
		<tag k="name" v="Haslelia" />
		<tag k="place" v="farm" />
		<tag k="ssr:stedsnr" v="189016" />
	</node>
	<node id="-525595" lat="61.3678804112" lon="4.88256595352">
		<tag k="fixme" v="consider place=hamlet" />
		<tag k="name" v="Hindøy" />
		<tag k="place" v="farm" />
		<tag k="ssr:stedsnr" v="883728" />
	</node>
	<node id="-526616" lat="61.3532722223" lon="5.07832222906">
		<tag k="name" v="Solheim" />
		<tag k="place" v="farm" />
		<tag k="ssr:stedsnr" v="537078" />
	</node>
	<node id="-526613" lat="61.3320666628" lon="5.14286388898">
		<tag k="name" v="Hellegjerdet" />
		<tag k="place" v="quarter" />
		<tag k="ssr:stedsnr" v="527443" />
	</node>
	<node id="-526126" lat="61.36782099" lon="5.26544278271">
		<tag k="fixme" v="consider place=hamlet" />
		<tag k="name" v="Hyllset" />
		<tag k="place" v="farm" />
		<tag k="ssr:stedsnr" v="189147" />
	</node>
	<node id="-526098" lat="61.3689888894" lon="5.2624250057">
		<tag k="name" v="Kleiva" />
		<tag k="place" v="farm" />
		<tag k="ssr:stedsnr" v="173428" />
	</node>
	<node id="-526296" lat="61.3832113044" lon="5.03655798825">
		<tag k="alt_name" v="Eidmind, nordre;Eimind nordre" />
		<tag k="fixme" v="consider place=hamlet" />
		<tag k="name" v="Nordre Eidmind" />
		<tag k="place" v="farm" />
		<tag k="ssr:stedsnr" v="250225" />
	</node>
	<node id="-525272" lat="61.3528222227" lon="5.06583610729">
		<tag k="name" v="Storehaugen" />
		<tag k="place" v="quarter" />
		<tag k="ssr:stedsnr" v="285454" />
	</node>
	<node id="-525579" lat="61.3395934386" lon="5.16266301512">
		<tag k="alt_name" v="Vårdal, in" />
		<tag k="fixme" v="consider place=hamlet" />
		<tag k="name" v="Indre Vårdal" />
		<tag k="place" v="farm" />
		<tag k="ssr:stedsnr" v="405356" />
	</node>
	<node id="-525578" lat="61.4040195721" lon="5.39104358775">
		<tag k="alt_name" v="Fossdalen, øvre;Øvre Fossdalen" />
		<tag k="name" v="Øvre Fossedal" />
		<tag k="place" v="farm" />
		<tag k="ssr:stedsnr" v="405207" />
	</node>
	<node id="-526038" lat="61.3560972244" lon="5.09968055572">
		<tag k="name" v="Øyrane" />
		<tag k="place" v="farm" />
		<tag k="ssr:stedsnr" v="155810" />
	</node>
	<node id="-526123" lat="61.4603519586" lon="5.35735676804">
		<tag k="alt_name" v="Selvik" />
		<tag k="fixme" v="consider place=hamlet" />
		<tag k="name" v="Selvika" />
		<tag k="place" v="farm" />
		<tag k="ssr:stedsnr" v="189105" />
	</node>
	<node id="-527536" lat="61.293075264" lon="4.59247194447">
		<tag k="fixme" v="consider place=hamlet" />
		<tag k="name" v="Sandøy" />
		<tag k="place" v="farm" />
		<tag k="ssr:stedsnr" v="947158" />
	</node>
	<node id="-527314" lat="61.4119749981" lon="5.03544445132">
		<tag k="name" v="Åreskog" />
		<tag k="place" v="farm" />
		<tag k="ssr:stedsnr" v="841313" />
	</node>
	<node id="-527092" lat="61.3632372715" lon="5.1163143601">
		<tag k="fixme" v="consider place=hamlet" />
		<tag k="name" v="Ringstad" />
		<tag k="place" v="farm" />
		<tag k="ssr:stedsnr" v="736193" />
	</node>
	<node id="-525967" lat="61.4572694417" lon="5.2394249991">
		<tag k="alt_name" v="Nervik" />
		<tag k="name" v="Nærvika" />
		<tag k="place" v="farm" />
		<tag k="ssr:stedsnr" v="128057" />
	</node>
	<node id="-525340" lat="61.3880666693" lon="5.17646667502">
		<tag k="alt_name" v="Tveit - Hålandstølen" />
		<tag k="name" v="Hålandsstølen" />
		<tag k="place" v="isolated_dwelling" />
		<tag k="ssr:stedsnr" v="311312" />
	</node>
	<node id="-525623" lat="61.4208138857" lon="4.98287777408">
		<tag k="name" v="Holevik" />
		<tag k="place" v="farm" />
		<tag k="ssr:stedsnr" v="886746" />
	</node>
	<node id="-526574" lat="61.3615638908" lon="5.15227222004">
		<tag k="name" v="Nedre Mork" />
		<tag k="place" v="farm" />
		<tag k="ssr:stedsnr" v="521379" />
	</node>
	<node id="-527595" lat="61.4000048065" lon="5.0714515775">
		<tag k="name" v="Steinebakken" />
		<tag k="place" v="farm" />
		<tag k="ssr:stedsnr" v="974181" />
	</node>
	<node id="-526570" lat="61.401772218" lon="5.33546389055">
		<tag k="fixme" v="consider tourism=alpine_hut or tourism=chalet" />
		<tag k="name" v="Nipebu" />
		<tag k="ssr:stedsnr" v="521278" />
		<tag k="tourism" v="wilderness_hut" />
	</node>
	<node id="-527593" lat="61.4022573045" lon="5.38999126726">
		<tag k="fixme" v="consider place=hamlet" />
		<tag k="name" v="Fossedal" />
		<tag k="place" v="farm" />
		<tag k="ssr:stedsnr" v="973951" />
	</node>
	<node id="-527592" lat="61.2791124133" lon="4.87649229849">
		<tag k="fixme" v="consider place=hamlet" />
		<tag k="name" v="Aralden" />
		<tag k="place" v="farm" />
		<tag k="ssr:stedsnr" v="973901" />
	</node>
	<node id="-526055" lat="61.2921472265" lon="4.626711106">
		<tag k="fixme" v="consider place=hamlet" />
		<tag k="name" v="Hågøy" />
		<tag k="place" v="farm" />
		<tag k="ssr:stedsnr" v="158251" />
	</node>
	<node id="-527590" lat="61.3599405594" lon="5.1835457976">
		<tag k="fixme" v="consider place=hamlet" />
		<tag k="name" v="Holmedal" />
		<tag k="place" v="farm" />
		<tag k="ssr:stedsnr" v="973861" />
	</node>
	<node id="-527077" lat="61.4206361128" lon="5.18906388915">
		<tag k="name" v="Slettestølen" />
		<tag k="place" v="locality" />
		<tag k="ssr:stedsnr" v="736042" />
	</node>
	<node id="-527588" lat="61.4621549758" lon="5.42466926638">
		<tag k="fixme" v="consider place=hamlet" />
		<tag k="name" v="Ytre Ålen" />
		<tag k="place" v="farm" />
		<tag k="ssr:stedsnr" v="972594" />
	</node>
	<node id="-527074" lat="61.4015472216" lon="5.07449165847">
		<tag k="name" v="Halsane" />
		<tag k="place" v="farm" />
		<tag k="ssr:stedsnr" v="735308" />
	</node>
	<node id="-526561" lat="61.3365611084" lon="5.15781389542">
		<tag k="amenity" v="school" />
		<tag k="name" v="Vårdal skule" />
		<tag k="ssr:stedsnr" v="519686" />
	</node>
	<node id="-527071" lat="61.3286527742" lon="5.11086389288">
		<tag k="name" v="Tangen" />
		<tag k="place" v="isolated_dwelling" />
		<tag k="ssr:stedsnr" v="735256" />
	</node>
	<node id="-527581" lat="61.3524724059" lon="4.89738600164">
		<tag k="fixme" v="consider place=hamlet" />
		<tag k="name" v="Herland" />
		<tag k="place" v="farm" />
		<tag k="ssr:stedsnr" v="971088" />
	</node>
	<node id="-527580" lat="61.3817333367" lon="5.39706944621">
		<tag k="name" v="Fossevik" />
		<tag k="place" v="isolated_dwelling" />
		<tag k="ssr:stedsnr" v="963300" />
	</node>
	<node id="-525530" lat="61.4161027737" lon="5.14831944699">
		<tag k="name" v="Slettestølen" />
		<tag k="place" v="locality" />
		<tag k="ssr:stedsnr" v="400434" />
	</node>
	<node id="-527062" lat="61.312747222" lon="4.73391389606">
		<tag k="name" v="Hamnen" />
		<tag k="place" v="hamlet" />
		<tag k="ssr:stedsnr" v="735123" />
	</node>
	<node id="-527061" lat="61.3350382738" lon="5.01981122723">
		<tag k="fixme" v="consider place=hamlet" />
		<tag k="name" v="England" />
		<tag k="place" v="farm" />
		<tag k="ssr:stedsnr" v="735117" />
	</node>
	<node id="-525524" lat="61.3468833359" lon="5.08233888572">
		<tag k="name" v="Haugen" />
		<tag k="place" v="farm" />
		<tag k="ssr:stedsnr" v="397899" />
	</node>
	<node id="-525774" lat="61.2846148543" lon="4.61506005227">
		<tag k="fixme" v="consider place=hamlet" />
		<tag k="name" v="Halsøy" />
		<tag k="place" v="farm" />
		<tag k="ssr:stedsnr" v="37205" />
	</node>
	<node id="-525625" lat="61.3698694465" lon="5.06531666206">
		<tag k="name" v="Stølen" />
		<tag k="place" v="locality" />
		<tag k="ssr:stedsnr" v="886902" />
	</node>
	<node id="-525432" lat="61.4515412854" lon="5.4602875544">
		<tag k="fixme" v="consider place=hamlet" />
		<tag k="name" v="Nesskog" />
		<tag k="place" v="farm" />
		<tag k="ssr:stedsnr" v="371018" />
	</node>
	<node id="-526026" lat="61.4405555548" lon="5.07161111973">
		<tag k="name" v="Haugen" />
		<tag k="place" v="farm" />
		<tag k="ssr:stedsnr" v="129378" />
	</node>
	<node id="-526025" lat="61.3300273723" lon="5.11670497465">
		<tag k="fixme" v="consider place=hamlet" />
		<tag k="name" v="Helle" />
		<tag k="place" v="farm" />
		<tag k="ssr:stedsnr" v="129369" />
	</node>
	<node id="-526536" lat="61.3488388865" lon="5.16967500744">
		<tag k="name" v="Haugen" />
		<tag k="place" v="farm" />
		<tag k="ssr:stedsnr" v="493339" />
	</node>
	<node id="-526022" lat="61.3393249961" lon="5.10341666425">
		<tag k="name" v="Festarvollen" />
		<tag k="place" v="isolated_dwelling" />
		<tag k="ssr:stedsnr" v="129359" />
	</node>
	<node id="-525601" lat="61.4181694452" lon="5.16792499661">
		<tag k="name" v="Gjerdestølen" />
		<tag k="place" v="locality" />
		<tag k="ssr:stedsnr" v="885442" />
	</node>
	<node id="-527043" lat="61.4089666679" lon="5.02695554771">
		<tag k="name" v="Unneset" />
		<tag k="place" v="farm" />
		<tag k="ssr:stedsnr" v="720303" />
	</node>
	<node id="-526529" lat="61.4091982206" lon="5.02741174618">
		<tag k="fixme" v="consider place=hamlet" />
		<tag k="name" v="Unneset" />
		<tag k="place" v="farm" />
		<tag k="ssr:stedsnr" v="493289" />
	</node>
	<node id="-525522" lat="61.3450333368" lon="5.10874444799">
		<tag k="name" v="Brunn" />
		<tag k="place" v="farm" />
		<tag k="ssr:stedsnr" v="397836" />
	</node>
	<node id="-525556" lat="61.3600472248" lon="5.24046389189">
		<tag k="name" v="Lisetvollen" />
		<tag k="place" v="farm" />
		<tag k="ssr:stedsnr" v="400984" />
	</node>
	<node id="-525931" lat="61.4286194451" lon="5.04949722891">
		<tag k="name" v="Gunnhildstølen" />
		<tag k="place" v="locality" />
		<tag k="ssr:stedsnr" v="98659" />
	</node>
	<node id="-525495" lat="61.3637745232" lon="5.14310118279">
		<tag k="fixme" v="consider place=hamlet" />
		<tag k="name" v="Mork" />
		<tag k="place" v="farm" />
		<tag k="ssr:stedsnr" v="372197" />
	</node>
	<node id="-526281" lat="61.3704239392" lon="5.19296992379">
		<tag k="alt_name" v="Engebø" />
		<tag k="fixme" v="consider place=hamlet" />
		<tag k="name" v="Engjabøen" />
		<tag k="place" v="farm" />
		<tag k="ssr:stedsnr" v="250145" />
	</node>
	<node id="-527540" lat="61.2946615343" lon="4.62885984369">
		<tag k="fixme" v="consider place=hamlet" />
		<tag k="name" v="Gjørøy" />
		<tag k="place" v="farm" />
		<tag k="ssr:stedsnr" v="947236" />
	</node>
	<node id="-526003" lat="61.3870805584" lon="5.17844167283">
		<tag k="alt_name" v="Holmedalstølen" />
		<tag k="name" v="Holmedalsstølen" />
		<tag k="place" v="locality" />
		<tag k="ssr:stedsnr" v="129266" />
	</node>
	<node id="-526963" lat="61.3343999988" lon="5.12240277715">
		<tag k="alt_name" v="Flatbø" />
		<tag k="name" v="Flatebø" />
		<tag k="place" v="farm" />
		<tag k="ssr:stedsnr" v="675399" />
	</node>
	<node id="-525488" lat="61.3746055586" lon="5.31946111314">
		<tag k="historic" v="shieling" />
		<tag k="name" v="Eikenesstølen" />
		<tag k="place" v="locality" />
		<tag k="ssr:stedsnr" v="372141" />
	</node>
	<node id="-527534" lat="61.3749083339" lon="5.26306389407">
		<tag k="name" v="Ura" />
		<tag k="place" v="farm" />
		<tag k="ssr:stedsnr" v="947000" />
	</node>
	<node id="-525997" lat="61.355636108" lon="5.17361388467">
		<tag k="name" v="Lia" />
		<tag k="place" v="farm" />
		<tag k="ssr:stedsnr" v="129181" />
	</node>
	<node id="-526508" lat="61.3623824352" lon="5.12985620676">
		<tag k="fixme" v="consider place=hamlet" />
		<tag k="name" v="Helleset" />
		<tag k="place" v="farm" />
		<tag k="ssr:stedsnr" v="493193" />
	</node>
	<node id="-526507" lat="61.3609334754" lon="5.09778651907">
		<tag k="fixme" v="consider place=hamlet" />
		<tag k="name" v="Fristad" />
		<tag k="place" v="farm" />
		<tag k="ssr:stedsnr" v="493191" />
	</node>
	<node id="-525994" lat="61.3737027745" lon="5.25195000887">
		<tag k="name" v="Midtbø" />
		<tag k="place" v="farm" />
		<tag k="ssr:stedsnr" v="129161" />
	</node>
	<node id="-526503" lat="61.3737666649" lon="5.24223888216">
		<tag k="name" v="Fossheim" />
		<tag k="place" v="farm" />
		<tag k="ssr:stedsnr" v="493155" />
	</node>
	<node id="-526497" lat="61.4565666651" lon="5.32926111568">
		<tag k="name" v="Solbakken" />
		<tag k="place" v="farm" />
		<tag k="ssr:stedsnr" v="493120" />
	</node>
	<node id="-525810" lat="61.4515470196" lon="5.45039698724">
		<tag k="fixme" v="consider place=hamlet" />
		<tag k="name" v="Åsen" />
		<tag k="place" v="farm" />
		<tag k="ssr:stedsnr" v="68109" />
	</node>
	<node id="-525470" lat="61.3275166687" lon="5.10047499161">
		<tag k="name" v="Stuven" />
		<tag k="place" v="farm" />
		<tag k="ssr:stedsnr" v="371253" />
	</node>
	<node id="-525469" lat="61.3877361134" lon="5.19579167024">
		<tag k="alt_name" v="Bakke - Engebøstølen" />
		<tag k="name" v="Bakkestølen" />
		<tag k="place" v="isolated_dwelling" />
		<tag k="ssr:stedsnr" v="371236" />
	</node>
	<node id="-526492" lat="61.413762982" lon="5.11696625872">
		<tag k="fixme" v="consider place=hamlet" />
		<tag k="name" v="Størdal" />
		<tag k="place" v="farm" />
		<tag k="ssr:stedsnr" v="493072" />
	</node>
	<node id="-525465" lat="61.385377775" lon="5.19594999561">
		<tag k="alt_name" v="Kleppenes - Bogestølen" />
		<tag k="historic" v="shieling" />
		<tag k="name" v="Bogestølen" />
		<tag k="place" v="locality" />
		<tag k="ssr:stedsnr" v="371222" />
	</node>
	<node id="-526486" lat="61.414605558" lon="5.23273055628">
		<tag k="alt_name" v="Storestølen" />
		<tag k="name" v="Skorestølen" />
		<tag k="place" v="isolated_dwelling" />
		<tag k="ssr:stedsnr" v="493045" />
	</node>
	<node id="-525998" lat="61.3089861114" lon="4.73448056244">
		<tag k="name" v="Nybø" />
		<tag k="place" v="farm" />
		<tag k="ssr:stedsnr" v="129188" />
	</node>
	<node id="-526052" lat="61.3263222258" lon="4.94632778562">
		<tag k="name" v="Eidet" />
		<tag k="place" v="farm" />
		<tag k="ssr:stedsnr" v="157508" />
	</node>
	<node id="-525458" lat="61.3736166699" lon="4.94077222377">
		<tag k="alt_name" v="Tevik" />
		<tag k="name" v="Tevika" />
		<tag k="place" v="farm" />
		<tag k="ssr:stedsnr" v="371189" />
	</node>
	<node id="-526731" lat="61.367716671" lon="5.26126666709">
		<tag k="name" v="Åsen" />
		<tag k="place" v="farm" />
		<tag k="ssr:stedsnr" v="582996" />
	</node>
	<node id="-526480" lat="61.4387222228" lon="5.44380000128">
		<tag k="name" v="Ålastølen" />
		<tag k="place" v="isolated_dwelling" />
		<tag k="ssr:stedsnr" v="493003" />
	</node>
	<node id="-527128" lat="61.3290666657" lon="5.12276666318">
		<tag k="building" v="industrial" />
		<tag k="industrial" v="factory" />
		<tag k="name" v="Helle teglverk" />
		<tag k="ssr:stedsnr" v="761891" />
	</node>
	<node id="-525453" lat="61.3070444472" lon="4.7341999965">
		<tag k="name" v="Hittun" />
		<tag k="place" v="farm" />
		<tag k="ssr:stedsnr" v="371167" />
	</node>
	<node id="-526475" lat="61.4759694446" lon="5.24947777949">
		<tag k="name" v="Nyland" />
		<tag k="place" v="farm" />
		<tag k="ssr:stedsnr" v="492027" />
	</node>
	<node id="-525962" lat="61.4326167072" lon="5.31405517212">
		<tag k="alt_name" v="Skjerlid" />
		<tag k="fixme" v="consider place=hamlet" />
		<tag k="name" v="Skjerlia" />
		<tag k="place" v="farm" />
		<tag k="ssr:stedsnr" v="128044" />
	</node>
	<node id="-527191" lat="61.425980554" lon="5.21996667037">
		<tag k="name" v="Botnaplassen" />
		<tag k="place" v="locality" />
		<tag k="ssr:stedsnr" v="796007" />
	</node>
	<node id="-525958" lat="61.4757386173" lon="5.35476056483">
		<tag k="fixme" v="consider place=hamlet" />
		<tag k="name" v="Liset" />
		<tag k="place" v="farm" />
		<tag k="ssr:stedsnr" v="128031" />
	</node>
	<node id="-525956" lat="61.4366032476" lon="5.315675764">
		<tag k="alt_name" v="Mandelid" />
		<tag k="fixme" v="consider place=hamlet" />
		<tag k="name" v="Mandelia" />
		<tag k="place" v="farm" />
		<tag k="ssr:stedsnr" v="128018" />
	</node>
	<node id="-526465" lat="61.2856161857" lon="4.63156376492">
		<tag k="fixme" v="consider place=hamlet" />
		<tag k="name" v="Nikøy" />
		<tag k="place" v="farm" />
		<tag k="ssr:stedsnr" v="462179" />
	</node>
	<node id="-526464" lat="61.2833171825" lon="4.62598443665">
		<tag k="fixme" v="consider place=hamlet" />
		<tag k="name" v="Kjempenes" />
		<tag k="place" v="farm" />
		<tag k="ssr:stedsnr" v="462178" />
	</node>
	<node id="-526461" lat="61.4558694421" lon="5.17608055973">
		<tag k="name" v="Garen" />
		<tag k="place" v="farm" />
		<tag k="ssr:stedsnr" v="461981" />
	</node>
	<node id="-527480" lat="61.3397333344" lon="5.17351666764">
		<tag k="name" v="Vårneset" />
		<tag k="place" v="farm" />
		<tag k="ssr:stedsnr" v="918411" />
	</node>
	<node id="-525430" lat="61.352555556" lon="5.17446388821">
		<tag k="name" v="Hammaren" />
		<tag k="place" v="farm" />
		<tag k="ssr:stedsnr" v="356760" />
	</node>
	<node id="-525429" lat="61.4631194473" lon="5.38561666631">
		<tag k="name" v="Nordre Gjelsvik" />
		<tag k="place" v="farm" />
		<tag k="ssr:stedsnr" v="356672" />
	</node>
	<node id="-526964" lat="61.4445211997" lon="5.07568300372">
		<tag k="alt_name" v="Grimelid øvre" />
		<tag k="fixme" v="consider place=hamlet" />
		<tag k="name" v="Øvre Grimelia" />
		<tag k="old_name" v="Grimeli, øvre" />
		<tag k="place" v="farm" />
		<tag k="ssr:stedsnr" v="675401" />
	</node>
	<node id="-527475" lat="61.3453416656" lon="5.10254167487">
		<tag k="name" v="Ask" />
		<tag k="place" v="farm" />
		<tag k="ssr:stedsnr" v="918376" />
	</node>
	<node id="-527471" lat="61.3579834764" lon="5.20879198072">
		<tag k="alt_name" v="Kleppenes" />
		<tag k="fixme" v="consider place=hamlet" />
		<tag k="name" v="Kleppeneset" />
		<tag k="place" v="farm" />
		<tag k="ssr:stedsnr" v="918365" />
	</node>
	<node id="-525422" lat="61.4545998026" lon="5.23441086721">
		<tag k="alt_name" v="Nerheim" />
		<tag k="name" v="Nærheim" />
		<tag k="place" v="farm" />
		<tag k="ssr:stedsnr" v="355711" />
	</node>
	<node id="-525501" lat="61.3457602136" lon="4.85636766433">
		<tag k="alt_name" v="Tvibyrgje" />
		<tag k="fixme" v="consider place=hamlet" />
		<tag k="name" v="Tvibyrge" />
		<tag k="place" v="farm" />
		<tag k="ssr:stedsnr" v="372235" />
	</node>
	<node id="-527468" lat="61.3992489923" lon="5.06701379671">
		<tag k="fixme" v="consider place=hamlet" />
		<tag k="name" v="Follevåg" />
		<tag k="place" v="farm" />
		<tag k="ssr:stedsnr" v="918352" />
	</node>
	<node id="-525940" lat="61.3451160002" lon="5.09761532411">
		<tag k="fixme" v="consider place=hamlet" />
		<tag k="name" v="Ask" />
		<tag k="place" v="farm" />
		<tag k="ssr:stedsnr" v="106780" />
	</node>
	<node id="-525418" lat="61.3774055545" lon="5.0075472234">
		<tag k="name" v="Nordre Grane" />
		<tag k="place" v="locality" />
		<tag k="ssr:stedsnr" v="355113" />
	</node>
	<node id="-525451" lat="61.3468787783" lon="5.01223241845">
		<tag k="fixme" v="consider place=hamlet" />
		<tag k="name" v="Gjervik" />
		<tag k="place" v="farm" />
		<tag k="ssr:stedsnr" v="371142" />
	</node>
	<node id="-526440" lat="61.3187527821" lon="4.95906944376">
		<tag k="fixme" v="consider place=hamlet" />
		<tag k="name" v="Vilnes" />
		<tag k="place" v="farm" />
		<tag k="ssr:stedsnr" v="461549" />
	</node>
	<node id="-525455" lat="61.3602939304" lon="5.21438685426">
		<tag k="fixme" v="consider place=hamlet" />
		<tag k="name" v="Boge" />
		<tag k="place" v="farm" />
		<tag k="ssr:stedsnr" v="371173" />
	</node>
	<node id="-527460" lat="61.4337166665" lon="5.03292500488">
		<tag k="alt_name" v="Liavik" />
		<tag k="name" v="Liavika" />
		<tag k="place" v="farm" />
		<tag k="ssr:stedsnr" v="918300" />
	</node>
	<node id="-527459" lat="61.3895111142" lon="5.25320278647">
		<tag k="alt_name" v="Nedgard - Liset - stølen" />
		<tag k="name" v="Lisetstølen" />
		<tag k="place" v="isolated_dwelling" />
		<tag k="ssr:stedsnr" v="918298" />
	</node>
	<node id="-526943" lat="61.3925249978" lon="5.36371665897">
		<tag k="name" v="Dalsstølen" />
		<tag k="place" v="isolated_dwelling" />
		<tag k="ssr:stedsnr" v="675273" />
	</node>
	<node id="-526941" lat="61.3966361112" lon="5.32650000526">
		<tag k="name" v="Vårdalsstølen" />
		<tag k="place" v="isolated_dwelling" />
		<tag k="ssr:stedsnr" v="675270" />
	</node>
	<node id="-527452" lat="61.3467305537" lon="5.06224167055">
		<tag k="name" v="Askvoll" />
		<tag k="place" v="village" />
		<tag k="ssr:stedsnr" v="918246" />
	</node>
	<node id="-526427" lat="61.3287135719" lon="5.01190208945">
		<tag k="alt_name" v="Grov øvre" />
		<tag k="fixme" v="consider place=hamlet" />
		<tag k="name" v="Øvre Grov" />
		<tag k="place" v="farm" />
		<tag k="ssr:stedsnr" v="458712" />
	</node>
	<node id="-527119" lat="61.4147416691" lon="4.97991944819">
		<tag k="name" v="Stavenes" />
		<tag k="place" v="farm" />
		<tag k="ssr:stedsnr" v="753854" />
	</node>
	<node id="-527448" lat="61.3688949425" lon="4.98873981243">
		<tag k="alt_name" v="Sellevoll" />
		<tag k="fixme" v="consider place=hamlet" />
		<tag k="name" v="Seljevoll" />
		<tag k="place" v="farm" />
		<tag k="ssr:stedsnr" v="918213" />
	</node>
	<node id="-526180" lat="61.333455552" lon="5.16663333638">
		<tag k="alt_name" v="Sandviken" />
		<tag k="name" v="Sandvika" />
		<tag k="place" v="farm" />
		<tag k="ssr:stedsnr" v="190377" />
	</node>
	<node id="-527439" lat="61.3738249983" lon="5.17496667254">
		<tag k="alt_name" v="Blakstadstølen" />
		<tag k="historic" v="shieling" />
		<tag k="name" v="Blakkstadstølen" />
		<tag k="place" v="locality" />
		<tag k="ssr:stedsnr" v="918151" />
	</node>
	<node id="-525902" lat="61.3375250003" lon="5.10652223131">
		<tag k="name" v="Vollen" />
		<tag k="place" v="farm" />
		<tag k="ssr:stedsnr" v="94867" />
	</node>
	<node id="-526925" lat="61.3556527812" lon="5.11117777121">
		<tag k="name" v="Litlestraumen" />
		<tag k="place" v="farm" />
		<tag k="ssr:stedsnr" v="675188" />
	</node>
	<node id="-525318" lat="61.3632611076" lon="5.19768055744">
		<tag k="alt_name" v="Rondane" />
		<tag k="name" v="Rundane" />
		<tag k="place" v="locality" />
		<tag k="ssr:stedsnr" v="311224" />
	</node>
	<node id="-526921" lat="61.3718583367" lon="5.18600000127">
		<tag k="name" v="Fossheim" />
		<tag k="place" v="locality" />
		<tag k="ssr:stedsnr" v="675164" />
	</node>
	<node id="-525673" lat="61.4450250043" lon="5.28389445067">
		<tag k="alt_name" v="Nervikstølen" />
		<tag k="name" v="Nærvikstølen" />
		<tag k="place" v="locality" />
		<tag k="ssr:stedsnr" v="7112" />
	</node>
	<node id="-527428" lat="61.4233749996" lon="5.35935554883">
		<tag k="alt_name" v="Krokavasstølen;Svortevikstølane" />
		<tag k="name" v="Svortevikstølen" />
		<tag k="place" v="locality" />
		<tag k="ssr:stedsnr" v="918049" />
	</node>
	<node id="-526915" lat="61.4520055518" lon="5.33449445413">
		<tag k="name" v="Øyra" />
		<tag k="place" v="farm" />
		<tag k="ssr:stedsnr" v="675112" />
	</node>
	<node id="-527426" lat="61.4325249959" lon="5.21938055471">
		<tag k="name" v="Osland" />
		<tag k="place" v="farm" />
		<tag k="ssr:stedsnr" v="918026" />
	</node>
	<node id="-525889" lat="61.4254871978" lon="5.08267498328">
		<tag k="alt_name" v="Stubbseid" />
		<tag k="fixme" v="consider place=hamlet" />
		<tag k="name" v="Stubseid" />
		<tag k="place" v="farm" />
		<tag k="ssr:stedsnr" v="69288" />
	</node>
	<node id="-525888" lat="61.4197196714" lon="5.06492345808">
		<tag k="fixme" v="consider place=hamlet" />
		<tag k="name" v="Mjåset" />
		<tag k="place" v="farm" />
		<tag k="ssr:stedsnr" v="69287" />
	</node>
	<node id="-527423" lat="61.4415992045" lon="5.4973778624">
		<tag k="alt_name" v="Hestvik" />
		<tag k="fixme" v="consider place=hamlet" />
		<tag k="name" v="Hestvika" />
		<tag k="place" v="farm" />
		<tag k="ssr:stedsnr" v="917846" />
	</node>
	<node id="-525333" lat="61.3816305589" lon="5.234516669">
		<tag k="alt_name" v="Rivedalstølen" />
		<tag k="historic" v="shieling" />
		<tag k="name" v="Rivedalsstølen" />
		<tag k="old_name" v="Rivdalsstølen" />
		<tag k="place" v="locality" />
		<tag k="ssr:stedsnr" v="311278" />
	</node>
	<node id="-525237" lat="61.3155166684" lon="4.70738610234">
		<tag k="name" v="Kalvøy" />
		<tag k="place" v="farm" />
		<tag k="ssr:stedsnr" v="279267" />
	</node>
	<node id="-525884" lat="61.3385734527" lon="4.91113510711">
		<tag k="alt_name" v="Laukeland" />
		<tag k="fixme" v="consider place=hamlet" />
		<tag k="name" v="Laukland" />
		<tag k="place" v="farm" />
		<tag k="ssr:stedsnr" v="69161" />
	</node>
	<node id="-525322" lat="61.3652944426" lon="5.18683332897">
		<tag k="name" v="Fosshamar" />
		<tag k="place" v="locality" />
		<tag k="ssr:stedsnr" v="311238" />
	</node>
	<node id="-526394" lat="61.3516665353" lon="5.07669348021">
		<tag k="alt_name" v="Nedreaskvoll;Askvoll nedre" />
		<tag k="fixme" v="consider place=hamlet" />
		<tag k="name" v="Nedre Askvoll" />
		<tag k="place" v="farm" />
		<tag k="ssr:stedsnr" v="433215" />
	</node>
	<node id="-525881" lat="61.3773138915" lon="5.38318610933">
		<tag k="alt_name" v="Bjergestølen" />
		<tag k="historic" v="shieling" />
		<tag k="name" v="Bjergastølen" />
		<tag k="place" v="locality" />
		<tag k="ssr:stedsnr" v="69137" />
	</node>
	<node id="-525878" lat="61.300228619" lon="4.66620518888">
		<tag k="alt_name" v="Melvær" />
		<tag k="fixme" v="consider place=hamlet" />
		<tag k="name" v="Melværet" />
		<tag k="place" v="farm" />
		<tag k="ssr:stedsnr" v="68456" />
	</node>
	<node id="-526404" lat="61.4419583362" lon="5.07280555565">
		<tag k="name" v="Plassen" />
		<tag k="place" v="farm" />
		<tag k="ssr:stedsnr" v="433352" />
	</node>
	<node id="-526899" lat="61.4411000042" lon="5.44201388189">
		<tag k="name" v="Nesskogstølen" />
		<tag k="place" v="isolated_dwelling" />
		<tag k="ssr:stedsnr" v="675007" />
	</node>
	<node id="-525872" lat="61.439513889" lon="5.0694694443">
		<tag k="name" v="Urda" />
		<tag k="place" v="farm" />
		<tag k="ssr:stedsnr" v="68398" />
	</node>
	<node id="-526173" lat="61.2921388862" lon="4.69750554754">
		<tag k="name" v="Myrevågen" />
		<tag k="place" v="farm" />
		<tag k="ssr:stedsnr" v="190323" />
	</node>
	<node id="-525866" lat="61.3240345121" lon="5.09694857511">
		<tag k="fixme" v="consider place=hamlet" />
		<tag k="name" v="Dørhella" />
		<tag k="place" v="farm" />
		<tag k="ssr:stedsnr" v="68272" />
	</node>
	<node id="-525862" lat="61.3533472232" lon="4.89418055053">
		<tag k="name" v="Herland" />
		<tag k="place" v="hamlet" />
		<tag k="ssr:stedsnr" v="68246" />
	</node>
	<node id="-525892" lat="61.4102777814" lon="5.03087778396">
		<tag k="name" v="Steinset" />
		<tag k="place" v="farm" />
		<tag k="ssr:stedsnr" v="69306" />
	</node>
	<node id="-526342" lat="61.4301828872" lon="5.16774510722">
		<tag k="alt_name" v="Stang" />
		<tag k="name" v="Stong" />
		<tag k="place" v="farm" />
		<tag k="ssr:stedsnr" v="432013" />
	</node>
	<node id="-527393" lat="61.3298083318" lon="5.12578055121">
		<tag k="fixme" v="consider place=hamlet" />
		<tag k="name" v="Helle" />
		<tag k="place" v="village" />
		<tag k="ssr:stedsnr" v="858371" />
	</node>
	<node id="-526879" lat="61.4727666699" lon="5.26024167257">
		<tag k="name" v="Skaret" />
		<tag k="place" v="farm" />
		<tag k="ssr:stedsnr" v="643787" />
	</node>
	<node id="-526366" lat="61.3960749966" lon="5.28437500262">
		<tag k="name" v="Hyllsetstølen" />
		<tag k="place" v="isolated_dwelling" />
		<tag k="ssr:stedsnr" v="432223" />
	</node>
	<node id="-527389" lat="61.4209888899" lon="4.98452221533">
		<tag k="name" v="Dalen" />
		<tag k="place" v="farm" />
		<tag k="ssr:stedsnr" v="858260" />
	</node>
	<node id="-525852" lat="61.3744277099" lon="5.01220199993">
		<tag k="alt_name" v="Søre Grane" />
		<tag k="fixme" v="consider place=hamlet" />
		<tag k="name" v="Grane" />
		<tag k="place" v="farm" />
		<tag k="ssr:stedsnr" v="68205" />
	</node>
	<node id="-525336" lat="61.3888083347" lon="5.28128332448">
		<tag k="alt_name" v="Vindeimsstølen;Vindheimstølen" />
		<tag k="historic" v="shieling" />
		<tag k="name" v="Vindheimsstølen" />
		<tag k="place" v="locality" />
		<tag k="ssr:stedsnr" v="311285" />
	</node>
	<node id="-525846" lat="61.3643065698" lon="5.16842741852">
		<tag k="alt_name" v="Tveit" />
		<tag k="fixme" v="consider place=hamlet" />
		<tag k="name" v="Tveita" />
		<tag k="place" v="farm" />
		<tag k="ssr:stedsnr" v="68186" />
	</node>
	<node id="-527193" lat="61.4307743005" lon="5.146201561">
		<tag k="alt_name" v="Stang" />
		<tag k="fixme" v="consider place=hamlet" />
		<tag k="name" v="Stong" />
		<tag k="place" v="farm" />
		<tag k="ssr:stedsnr" v="796017" />
	</node>
	<node id="-526868" lat="61.378855557" lon="4.90780277431">
		<tag k="name" v="Avløyp" />
		<tag k="place" v="farm" />
		<tag k="ssr:stedsnr" v="643443" />
	</node>
	<node id="-526510" lat="61.3865264542" lon="5.09583396159">
		<tag k="fixme" v="consider place=hamlet" />
		<tag k="name" v="Fisma" />
		<tag k="place" v="farm" />
		<tag k="ssr:stedsnr" v="493199" />
	</node>
	<node id="-526290" lat="61.3772444642" lon="5.034540747">
		<tag k="alt_name" v="Eimind søndre;Eidmind, s;Søndre Eimind" />
		<tag k="fixme" v="consider place=hamlet" />
		<tag k="name" v="Søre Eidmind" />
		<tag k="place" v="farm" />
		<tag k="ssr:stedsnr" v="250208" />
	</node>
	<node id="-525827" lat="61.4384444417" lon="5.43807221529">
		<tag k="name" v="Åsastølen" />
		<tag k="place" v="isolated_dwelling" />
		<tag k="ssr:stedsnr" v="68052" />
	</node>
	<node id="-525840" lat="61.3614206867" lon="5.19050089025">
		<tag k="fixme" v="consider place=hamlet" />
		<tag k="name" v="Bakke" />
		<tag k="place" v="farm" />
		<tag k="ssr:stedsnr" v="68174" />
	</node>
	<node id="-525839" lat="61.3651572857" lon="5.26034997179">
		<tag k="fixme" v="consider place=hamlet" />
		<tag k="name" v="Rivedal" />
		<tag k="place" v="farm" />
		<tag k="ssr:stedsnr" v="68172" />
	</node>
	<node id="-526349" lat="61.326438562" lon="4.96129684937">
		<tag k="fixme" v="consider place=hamlet" />
		<tag k="name" v="Sætre" />
		<tag k="place" v="farm" />
		<tag k="ssr:stedsnr" v="432131" />
	</node>
	<node id="-525836" lat="61.371907535" lon="5.1072079468">
		<tag k="alt_name" v="Eidet søndre" />
		<tag k="fixme" v="consider place=hamlet" />
		<tag k="name" v="Søreidet" />
		<tag k="place" v="farm" />
		<tag k="ssr:stedsnr" v="68154" />
	</node>
	<node id="-526347" lat="61.4553777807" lon="5.18254166027">
		<tag k="name" v="Sund" />
		<tag k="place" v="farm" />
		<tag k="ssr:stedsnr" v="432061" />
	</node>
	<node id="-526858" lat="61.2890541086" lon="4.62220531622">
		<tag k="fixme" v="consider place=hamlet" />
		<tag k="name" v="Gjelsa" />
		<tag k="place" v="farm" />
		<tag k="ssr:stedsnr" v="643235" />
	</node>
	<node id="-526857" lat="61.2822749982" lon="4.62343056231">
		<tag k="fixme" v="consider place=hamlet" />
		<tag k="name" v="Hellersøyna" />
		<tag k="place" v="farm" />
		<tag k="ssr:stedsnr" v="643232" />
	</node>
	<node id="-525319" lat="61.327778404" lon="5.02995879636">
		<tag k="alt_name" v="Sauesund" />
		<tag k="fixme" v="consider place=hamlet" />
		<tag k="name" v="Sauesundet" />
		<tag k="place" v="farm" />
		<tag k="ssr:stedsnr" v="311226" />
	</node>
	<node id="-527366" lat="61.3780888923" lon="5.17137500059">
		<tag k="historic" v="shieling" />
		<tag k="name" v="Vikastølen" />
		<tag k="place" v="locality" />
		<tag k="ssr:stedsnr" v="857256" />
	</node>
	<node id="-525569" lat="61.4446638889" lon="5.06894445089">
		<tag k="name" v="Nytun" />
		<tag k="place" v="farm" />
		<tag k="ssr:stedsnr" v="401560" />
	</node>
	<node id="-525316" lat="61.3050527741" lon="4.73834167276">
		<tag k="name" v="Vika" />
		<tag k="place" v="farm" />
		<tag k="ssr:stedsnr" v="311215" />
	</node>
	<node id="-526339" lat="61.4756055537" lon="5.26189167169">
		<tag k="name" v="Solbakken" />
		<tag k="place" v="farm" />
		<tag k="ssr:stedsnr" v="417549" />
	</node>
	<node id="-526338" lat="61.3645611123" lon="5.25758055506">
		<tag k="name" v="Midttun" />
		<tag k="place" v="farm" />
		<tag k="ssr:stedsnr" v="416420" />
	</node>
	<node id="-525995" lat="61.3759555542" lon="5.17472499403">
		<tag k="historic" v="shieling" />
		<tag k="name" v="Morkastølen" />
		<tag k="place" v="locality" />
		<tag k="ssr:stedsnr" v="129165" />
	</node>
</osm>
