<?xml version="1.0" encoding="UTF-8"?>
<osm version="0.6" generator="osmapis">
	<node lat="59.672417794875045" lon="10.591975591216205" id="-27997">
		<tag k="alt_name" v="Bergholmen østre" />
		<tag k="name" v="Bergholmen Ø flomlys" />
		<tag k="ssr:date" v="2021-06-09" />
		<tag k="ssr:gruppe" v="navigasjon" />
		<tag k="ssr:hovedgruppe" v="infrastruktur" />
		<tag k="ssr:stedsnr" v="236051" />
		<tag k="ssr:type" v="sjømerkeMedIndirekteBelysning" />
	</node>
	<node lat="59.70309166324904" lon="10.592269443911151" id="-27998">
		<tag k="alt_name" v="Askholmene" />
		<tag k="name" v="Askholmene lykt" />
		<tag k="ssr:date" v="2019-12-27" />
		<tag k="ssr:gruppe" v="navigasjon" />
		<tag k="ssr:hovedgruppe" v="infrastruktur" />
		<tag k="ssr:stedsnr" v="236053" />
		<tag k="ssr:type" v="fyrlykt" />
	</node>
	<node lat="59.7679722252238" lon="10.552583328557095" id="-28047">
		<tag k="name" v="Torpene lysbøye" />
		<tag k="ssr:date" v="2019-12-27" />
		<tag k="ssr:gruppe" v="navigasjon" />
		<tag k="ssr:hovedgruppe" v="infrastruktur" />
		<tag k="ssr:stedsnr" v="175025" />
		<tag k="ssr:type" v="fyrlykt" />
	</node>
	<node lat="59.70190555714932" lon="10.923388886075552" id="-28052">
		<tag k="name" v="Follo" />
		<tag k="ssr:date" v="2019-12-27" />
		<tag k="ssr:gruppe" v="terrengområder" />
		<tag k="ssr:hovedgruppe" v="terreng" />
		<tag k="ssr:stedsnr" v="267868" />
		<tag k="ssr:type" v="landskapsområde" />
	</node>
	<node lat="59.67401374114596" lon="10.583249425676918" id="-28095">
		<tag k="alt_name" v="Bergholmen vestre" />
		<tag k="name" v="Bergholmen V lanterne" />
		<tag k="ssr:date" v="2019-12-27" />
		<tag k="ssr:gruppe" v="navigasjon" />
		<tag k="ssr:hovedgruppe" v="infrastruktur" />
		<tag k="ssr:stedsnr" v="357059" />
		<tag k="ssr:type" v="fyrlykt" />
	</node>
	<node lat="59.69201666567253" lon="10.590872222332319" id="-28104">
		<tag k="alt_name" v="Tronstadodden" />
		<tag k="name" v="Tronstadodden lykt" />
		<tag k="ssr:date" v="2019-12-27" />
		<tag k="ssr:gruppe" v="navigasjon" />
		<tag k="ssr:hovedgruppe" v="infrastruktur" />
		<tag k="ssr:stedsnr" v="390498" />
		<tag k="ssr:type" v="fyrlykt" />
	</node>
	<node lat="59.666960015761205" lon="10.619356445956289" id="-28190">
		<tag k="name" v="Drøbakgrunnen lykt" />
		<tag k="ssr:date" v="2019-12-27" />
		<tag k="ssr:gruppe" v="navigasjon" />
		<tag k="ssr:hovedgruppe" v="infrastruktur" />
		<tag k="ssr:stedsnr" v="706845" />
		<tag k="ssr:type" v="fyrlykt" />
	</node>
	<node lat="59.69487222366482" lon="10.60276945137158" id="-28215">
		<tag k="alt_name" v="Båtstø" />
		<tag k="name" v="Båtstø lykt" />
		<tag k="ssr:date" v="2019-12-27" />
		<tag k="ssr:gruppe" v="navigasjon" />
		<tag k="ssr:hovedgruppe" v="infrastruktur" />
		<tag k="ssr:stedsnr" v="904077" />
		<tag k="ssr:type" v="fyrlykt" />
	</node>
	<node lat="59.70103611458469" lon="10.581633339847484" id="-28255">
		<tag k="alt_name" v="Galleryggen" />
		<tag k="name" v="Galleryggen lykt" />
		<tag k="ssr:date" v="2019-12-27" />
		<tag k="ssr:gruppe" v="navigasjon" />
		<tag k="ssr:hovedgruppe" v="infrastruktur" />
		<tag k="ssr:stedsnr" v="843038" />
		<tag k="ssr:type" v="fyrlykt" />
	</node>
	<node lat="59.709263886880585" lon="10.589077778826065" id="-28258">
		<tag k="alt_name" v="Storegrunnen" />
		<tag k="name" v="Storegrunnen lykt" />
		<tag k="ssr:date" v="2019-12-27" />
		<tag k="ssr:gruppe" v="navigasjon" />
		<tag k="ssr:hovedgruppe" v="infrastruktur" />
		<tag k="ssr:stedsnr" v="853804" />
		<tag k="ssr:type" v="fyrlykt" />
	</node>
	<node lat="59.69119722507063" lon="10.591686107879164" id="-28278">
		<tag k="alt_name" v="Søre Tronstadodden" />
		<tag k="name" v="Søre Tronstadodden lykt" />
		<tag k="ssr:date" v="2019-12-27" />
		<tag k="ssr:gruppe" v="navigasjon" />
		<tag k="ssr:hovedgruppe" v="infrastruktur" />
		<tag k="ssr:stedsnr" v="919054" />
		<tag k="ssr:type" v="fyrlykt" />
	</node>
	<node lat="59.7178973925433" lon="10.586035432953233" id="-28290">
		<tag k="name" v="Digerud S lykt" />
		<tag k="ssr:date" v="2019-12-27" />
		<tag k="ssr:gruppe" v="navigasjon" />
		<tag k="ssr:hovedgruppe" v="infrastruktur" />
		<tag k="ssr:stedsnr" v="985739" />
		<tag k="ssr:type" v="fyrlykt" />
	</node>
	<node lat="59.72048673576889" lon="10.584302045308345" id="-28291">
		<tag k="name" v="Digerud N lykt" />
		<tag k="ssr:date" v="2019-12-27" />
		<tag k="ssr:gruppe" v="navigasjon" />
		<tag k="ssr:hovedgruppe" v="infrastruktur" />
		<tag k="ssr:stedsnr" v="985740" />
		<tag k="ssr:type" v="fyrlykt" />
	</node>
	<node lat="59.66664444178961" lon="10.635658324843202" id="-28300">
		<tag k="alt_name" v="Frogn" />
		<tag k="name" v="Frogn kommune" />
		<tag k="ssr:date" v="2019-12-27" />
		<tag k="ssr:gruppe" v="administrativeIndelinger" />
		<tag k="ssr:hovedgruppe" v="offentligAdministrasjon" />
		<tag k="ssr:stedsnr" v="24776" />
		<tag k="ssr:type" v="kommune" />
	</node>
	<node lat="59.72535555959914" lon="10.578191665423901" id="-28331">
		<tag k="alt_name" v="Aspond" />
		<tag k="name" v="Aspond lykt" />
		<tag k="ssr:date" v="2019-12-27" />
		<tag k="ssr:gruppe" v="navigasjon" />
		<tag k="ssr:hovedgruppe" v="infrastruktur" />
		<tag k="ssr:stedsnr" v="115052" />
		<tag k="ssr:type" v="fyrlykt" />
	</node>
	<node lat="59.70068889156548" lon="10.577050000564855" id="-28421">
		<tag k="name" v="Kjellerenna" />
		<tag k="ssr:date" v="2019-12-27" />
		<tag k="ssr:gruppe" v="sjøbunn" />
		<tag k="ssr:hovedgruppe" v="sjø" />
		<tag k="ssr:stedsnr" v="361875" />
		<tag k="ssr:type" v="renneKløftISjø" />
	</node>
	<node lat="59.7566277813976" lon="10.566938893818454" id="-28429">
		<tag k="alt_name" v="Langåra" />
		<tag k="name" v="Langåra lykt" />
		<tag k="ssr:date" v="2019-12-27" />
		<tag k="ssr:gruppe" v="navigasjon" />
		<tag k="ssr:hovedgruppe" v="infrastruktur" />
		<tag k="ssr:stedsnr" v="372045" />
		<tag k="ssr:type" v="fyrlykt" />
	</node>
	<node lat="59.640541663056084" lon="10.637077774117884" id="-28449">
		<tag k="alt_name" v="Elle" />
		<tag k="name" v="Elle lykt" />
		<tag k="ssr:date" v="2019-12-27" />
		<tag k="ssr:gruppe" v="navigasjon" />
		<tag k="ssr:hovedgruppe" v="infrastruktur" />
		<tag k="ssr:stedsnr" v="428849" />
		<tag k="ssr:type" v="fyrlykt" />
	</node>
	<node lat="59.70563332943043" lon="10.582686114773106" id="-28459">
		<tag k="alt_name" v="Torskekrakken" />
		<tag k="name" v="Torskekrakken lykt" />
		<tag k="ssr:date" v="2019-12-27" />
		<tag k="ssr:gruppe" v="navigasjon" />
		<tag k="ssr:hovedgruppe" v="infrastruktur" />
		<tag k="ssr:stedsnr" v="539032" />
		<tag k="ssr:type" v="fyrlykt" />
	</node>
	<node lat="59.69947222121894" lon="10.587833340600174" id="-28478">
		<tag k="alt_name" v="Askholmgrunnen" />
		<tag k="name" v="Askholmgrunnen lykt" />
		<tag k="ssr:date" v="2019-12-27" />
		<tag k="ssr:gruppe" v="navigasjon" />
		<tag k="ssr:hovedgruppe" v="infrastruktur" />
		<tag k="ssr:stedsnr" v="599045" />
		<tag k="ssr:type" v="fyrlykt" />
	</node>
	<node lat="59.67861418177181" lon="10.608733374951598" id="-28491">
		<tag k="alt_name" v="Kaholmen" />
		<tag k="name" v="Kaholmen lykt" />
		<tag k="ssr:date" v="2019-12-27" />
		<tag k="ssr:gruppe" v="navigasjon" />
		<tag k="ssr:hovedgruppe" v="infrastruktur" />
		<tag k="ssr:stedsnr" v="610870" />
		<tag k="ssr:type" v="fyrlykt" />
	</node>
	<node lat="59.685678798802016" lon="10.6084636877048" id="-28591">
		<tag k="alt_name" v="Langebåt" />
		<tag k="name" v="Langebåt lykt" />
		<tag k="ssr:date" v="2019-12-27" />
		<tag k="ssr:gruppe" v="navigasjon" />
		<tag k="ssr:hovedgruppe" v="infrastruktur" />
		<tag k="ssr:stedsnr" v="964067" />
		<tag k="ssr:type" v="fyrlykt" />
	</node>
	<node lat="59.67433187294154" lon="10.659315484282438" id="-28600">
		<tag k="name" v="Holter terrasse" />
		<tag k="ssr:date" v="2019-12-27" />
		<tag k="ssr:gruppe" v="veg" />
		<tag k="ssr:hovedgruppe" v="infrastruktur" />
		<tag k="ssr:stedsnr" v="1066448" />
		<tag k="ssr:type" v="adressenavn" />
	</node>
	<node lat="59.64575809203554" lon="10.637928518705104" id="-28602">
		<tag k="name" v="Klokkeveien" />
		<tag k="ssr:date" v="2019-12-27" />
		<tag k="ssr:gruppe" v="veg" />
		<tag k="ssr:hovedgruppe" v="infrastruktur" />
		<tag k="ssr:stedsnr" v="1066453" />
		<tag k="ssr:type" v="adressenavn" />
	</node>
	<node lat="59.67537900994192" lon="10.622726168395898" id="-28603">
		<tag k="name" v="Husvikholmen" />
		<tag k="ssr:date" v="2019-12-27" />
		<tag k="ssr:gruppe" v="veg" />
		<tag k="ssr:hovedgruppe" v="infrastruktur" />
		<tag k="ssr:stedsnr" v="1066395" />
		<tag k="ssr:type" v="adressenavn" />
	</node>
	<node lat="59.67224609790012" lon="10.628628776198703" id="-28604">
		<tag k="name" v="Humlestien" />
		<tag k="ssr:date" v="2019-12-27" />
		<tag k="ssr:gruppe" v="veg" />
		<tag k="ssr:hovedgruppe" v="infrastruktur" />
		<tag k="ssr:stedsnr" v="1066400" />
		<tag k="ssr:type" v="adressenavn" />
	</node>
	<node lat="59.68392604854316" lon="10.657978523545568" id="-28605">
		<tag k="name" v="Huldreveien" />
		<tag k="ssr:date" v="2019-12-27" />
		<tag k="ssr:gruppe" v="veg" />
		<tag k="ssr:hovedgruppe" v="infrastruktur" />
		<tag k="ssr:stedsnr" v="1066409" />
		<tag k="ssr:type" v="adressenavn" />
	</node>
	<node lat="59.66287667777387" lon="10.653570990675068" id="-28606">
		<tag k="name" v="Hubrofaret" />
		<tag k="ssr:date" v="2019-12-27" />
		<tag k="ssr:gruppe" v="veg" />
		<tag k="ssr:hovedgruppe" v="infrastruktur" />
		<tag k="ssr:stedsnr" v="1066426" />
		<tag k="ssr:type" v="adressenavn" />
	</node>
	<node lat="59.68429886820064" lon="10.652354737083927" id="-28607">
		<tag k="name" v="Hugins vei" />
		<tag k="ssr:date" v="2019-12-27" />
		<tag k="ssr:gruppe" v="veg" />
		<tag k="ssr:hovedgruppe" v="infrastruktur" />
		<tag k="ssr:stedsnr" v="1066431" />
		<tag k="ssr:type" v="adressenavn" />
	</node>
	<node lat="59.669553767285386" lon="10.624722538495979" id="-28608">
		<tag k="name" v="Husvikveien" />
		<tag k="ssr:date" v="2019-12-27" />
		<tag k="ssr:gruppe" v="veg" />
		<tag k="ssr:hovedgruppe" v="infrastruktur" />
		<tag k="ssr:stedsnr" v="1066488" />
		<tag k="ssr:type" v="adressenavn" />
	</node>
	<node lat="59.66149328603928" lon="10.62838516235437" id="-28609">
		<tag k="name" v="Havnegata" />
		<tag k="ssr:date" v="2019-12-27" />
		<tag k="ssr:gruppe" v="veg" />
		<tag k="ssr:hovedgruppe" v="infrastruktur" />
		<tag k="ssr:stedsnr" v="1066497" />
		<tag k="ssr:type" v="adressenavn" />
	</node>
	<node lat="59.663346193868385" lon="10.654972868843988" id="-28610">
		<tag k="name" v="Haukåsen" />
		<tag k="ssr:date" v="2019-12-27" />
		<tag k="ssr:gruppe" v="veg" />
		<tag k="ssr:hovedgruppe" v="infrastruktur" />
		<tag k="ssr:stedsnr" v="1066503" />
		<tag k="ssr:type" v="adressenavn" />
	</node>
	<node lat="59.663183399787194" lon="10.629192262946995" id="-28611">
		<tag k="name" v="Havnebakken" />
		<tag k="ssr:date" v="2019-12-27" />
		<tag k="ssr:gruppe" v="veg" />
		<tag k="ssr:hovedgruppe" v="infrastruktur" />
		<tag k="ssr:stedsnr" v="1066510" />
		<tag k="ssr:type" v="adressenavn" />
	</node>
	<node lat="59.64851452767973" lon="10.637517122119913" id="-28612">
		<tag k="name" v="Harestien" />
		<tag k="ssr:date" v="2019-12-27" />
		<tag k="ssr:gruppe" v="veg" />
		<tag k="ssr:hovedgruppe" v="infrastruktur" />
		<tag k="ssr:stedsnr" v="1066514" />
		<tag k="ssr:type" v="adressenavn" />
	</node>
	<node lat="59.65999337354564" lon="10.630231942025691" id="-28613">
		<tag k="name" v="Hamborgveien" />
		<tag k="ssr:date" v="2019-12-27" />
		<tag k="ssr:gruppe" v="veg" />
		<tag k="ssr:hovedgruppe" v="infrastruktur" />
		<tag k="ssr:stedsnr" v="1066526" />
		<tag k="ssr:type" v="adressenavn" />
	</node>
	<node lat="59.67353999452029" lon="10.65885110140736" id="-28615">
		<tag k="name" v="Holterveien" />
		<tag k="ssr:date" v="2019-12-27" />
		<tag k="ssr:gruppe" v="veg" />
		<tag k="ssr:hovedgruppe" v="infrastruktur" />
		<tag k="ssr:stedsnr" v="1066587" />
		<tag k="ssr:type" v="adressenavn" />
	</node>
	<node lat="59.66145696647839" lon="10.64556177409061" id="-28616">
		<tag k="name" v="Holterteigen" />
		<tag k="ssr:date" v="2019-12-27" />
		<tag k="ssr:gruppe" v="veg" />
		<tag k="ssr:hovedgruppe" v="infrastruktur" />
		<tag k="ssr:stedsnr" v="1066596" />
		<tag k="ssr:type" v="adressenavn" />
	</node>
	<node lat="59.672048668833895" lon="10.629802467498944" id="-28617">
		<tag k="name" v="Konvallveien" />
		<tag k="ssr:date" v="2019-12-27" />
		<tag k="ssr:gruppe" v="veg" />
		<tag k="ssr:hovedgruppe" v="infrastruktur" />
		<tag k="ssr:stedsnr" v="1066457" />
		<tag k="ssr:type" v="adressenavn" />
	</node>
	<node lat="59.66390406877081" lon="10.628529535837808" id="-28618">
		<tag k="name" v="Kirkegata" />
		<tag k="ssr:date" v="2019-12-27" />
		<tag k="ssr:gruppe" v="veg" />
		<tag k="ssr:hovedgruppe" v="infrastruktur" />
		<tag k="ssr:stedsnr" v="1066460" />
		<tag k="ssr:type" v="adressenavn" />
	</node>
	<node lat="59.66622690585741" lon="10.6384295249248" id="-28619">
		<tag k="name" v="Karlsrud" />
		<tag k="ssr:date" v="2019-12-27" />
		<tag k="ssr:gruppe" v="veg" />
		<tag k="ssr:hovedgruppe" v="infrastruktur" />
		<tag k="ssr:stedsnr" v="1066464" />
		<tag k="ssr:type" v="adressenavn" />
	</node>
	<node lat="59.65868701271103" lon="10.630328789192966" id="-28620">
		<tag k="name" v="Jørnsebakken" />
		<tag k="ssr:date" v="2019-12-27" />
		<tag k="ssr:gruppe" v="veg" />
		<tag k="ssr:hovedgruppe" v="infrastruktur" />
		<tag k="ssr:stedsnr" v="1066471" />
		<tag k="ssr:type" v="adressenavn" />
	</node>
	<node lat="59.65893016326766" lon="10.65172615858948" id="-28621">
		<tag k="name" v="Jerpefaret" />
		<tag k="ssr:date" v="2019-12-27" />
		<tag k="ssr:gruppe" v="veg" />
		<tag k="ssr:hovedgruppe" v="infrastruktur" />
		<tag k="ssr:stedsnr" v="1066473" />
		<tag k="ssr:type" v="adressenavn" />
	</node>
	<node lat="59.655111804296375" lon="10.633063466549492" id="-28622">
		<tag k="name" v="Johanne Dybwads vei" />
		<tag k="ssr:date" v="2019-12-27" />
		<tag k="ssr:gruppe" v="veg" />
		<tag k="ssr:hovedgruppe" v="infrastruktur" />
		<tag k="ssr:stedsnr" v="1066475" />
		<tag k="ssr:type" v="adressenavn" />
	</node>
	<node lat="59.682789897315914" lon="10.656880927491763" id="-28623">
		<tag k="name" v="Jutulveien" />
		<tag k="ssr:date" v="2019-12-27" />
		<tag k="ssr:gruppe" v="veg" />
		<tag k="ssr:hovedgruppe" v="infrastruktur" />
		<tag k="ssr:stedsnr" v="1066478" />
		<tag k="ssr:type" v="adressenavn" />
	</node>
	<node lat="59.66415470182849" lon="10.640256148936928" id="-28624">
		<tag k="name" v="Høyenhallveien" />
		<tag k="ssr:date" v="2019-12-27" />
		<tag k="ssr:gruppe" v="veg" />
		<tag k="ssr:hovedgruppe" v="infrastruktur" />
		<tag k="ssr:stedsnr" v="1066480" />
		<tag k="ssr:type" v="adressenavn" />
	</node>
	<node lat="59.640753974672045" lon="10.64124207948032" id="-28625">
		<tag k="name" v="Indre Elleodden" />
		<tag k="ssr:date" v="2019-12-27" />
		<tag k="ssr:gruppe" v="veg" />
		<tag k="ssr:hovedgruppe" v="infrastruktur" />
		<tag k="ssr:stedsnr" v="1066482" />
		<tag k="ssr:type" v="adressenavn" />
	</node>
	<node lat="59.68607795032227" lon="10.653694259521938" id="-28626">
		<tag k="name" v="Iduns vei" />
		<tag k="ssr:date" v="2019-12-27" />
		<tag k="ssr:gruppe" v="veg" />
		<tag k="ssr:hovedgruppe" v="infrastruktur" />
		<tag k="ssr:stedsnr" v="1066483" />
		<tag k="ssr:type" v="adressenavn" />
	</node>
	<node lat="59.68620474679589" lon="10.669363683764587" id="-28628">
		<tag k="name" v="Høilundveien" />
		<tag k="ssr:date" v="2019-12-27" />
		<tag k="ssr:gruppe" v="veg" />
		<tag k="ssr:hovedgruppe" v="infrastruktur" />
		<tag k="ssr:stedsnr" v="1066485" />
		<tag k="ssr:type" v="adressenavn" />
	</node>
	<node lat="59.678166142681235" lon="10.629204914238704" id="-28629">
		<tag k="name" v="Gylteåsveien" />
		<tag k="ssr:date" v="2019-12-27" />
		<tag k="ssr:gruppe" v="veg" />
		<tag k="ssr:hovedgruppe" v="infrastruktur" />
		<tag k="ssr:stedsnr" v="1066544" />
		<tag k="ssr:type" v="adressenavn" />
	</node>
	<node lat="59.67828789404857" lon="10.624872890075002" id="-28630">
		<tag k="name" v="Gylteveien" />
		<tag k="ssr:date" v="2019-12-27" />
		<tag k="ssr:gruppe" v="veg" />
		<tag k="ssr:hovedgruppe" v="infrastruktur" />
		<tag k="ssr:stedsnr" v="1066546" />
		<tag k="ssr:type" v="adressenavn" />
	</node>
	<node lat="59.67804995309947" lon="10.629215452503088" id="-28631">
		<tag k="name" v="Gyltebakken" />
		<tag k="ssr:date" v="2019-12-27" />
		<tag k="ssr:gruppe" v="veg" />
		<tag k="ssr:hovedgruppe" v="infrastruktur" />
		<tag k="ssr:stedsnr" v="1066548" />
		<tag k="ssr:type" v="adressenavn" />
	</node>
	<node lat="59.669491364220214" lon="10.624631133706819" id="-28632">
		<tag k="name" v="Hagenbakken" />
		<tag k="ssr:date" v="2019-12-27" />
		<tag k="ssr:gruppe" v="veg" />
		<tag k="ssr:hovedgruppe" v="infrastruktur" />
		<tag k="ssr:stedsnr" v="1066550" />
		<tag k="ssr:type" v="adressenavn" />
	</node>
	<node lat="59.66288007516751" lon="10.632768726888992" id="-28634">
		<tag k="name" v="Gulliksbakken" />
		<tag k="ssr:date" v="2019-12-27" />
		<tag k="ssr:gruppe" v="veg" />
		<tag k="ssr:hovedgruppe" v="infrastruktur" />
		<tag k="ssr:stedsnr" v="1066564" />
		<tag k="ssr:type" v="adressenavn" />
	</node>
	<node lat="59.665858315539346" lon="10.635247796778787" id="-28635">
		<tag k="name" v="Grandeveien" />
		<tag k="ssr:date" v="2019-12-27" />
		<tag k="ssr:gruppe" v="veg" />
		<tag k="ssr:hovedgruppe" v="infrastruktur" />
		<tag k="ssr:stedsnr" v="1066567" />
		<tag k="ssr:type" v="adressenavn" />
	</node>
	<node lat="59.67887097709034" lon="10.63111608514877" id="-28636">
		<tag k="name" v="Glosliveien" />
		<tag k="ssr:date" v="2019-12-27" />
		<tag k="ssr:gruppe" v="veg" />
		<tag k="ssr:hovedgruppe" v="infrastruktur" />
		<tag k="ssr:stedsnr" v="1066572" />
		<tag k="ssr:type" v="adressenavn" />
	</node>
	<node lat="59.66261378086455" lon="10.654824297697214" id="-28637">
		<tag k="name" v="Grågåsveien" />
		<tag k="ssr:date" v="2019-12-27" />
		<tag k="ssr:gruppe" v="veg" />
		<tag k="ssr:hovedgruppe" v="infrastruktur" />
		<tag k="ssr:stedsnr" v="1066575" />
		<tag k="ssr:type" v="adressenavn" />
	</node>
	<node lat="59.68621777048685" lon="10.630700225872463" id="-28638">
		<tag k="name" v="Grenseveien" />
		<tag k="ssr:date" v="2019-12-27" />
		<tag k="ssr:gruppe" v="veg" />
		<tag k="ssr:hovedgruppe" v="infrastruktur" />
		<tag k="ssr:stedsnr" v="1066577" />
		<tag k="ssr:type" v="adressenavn" />
	</node>
	<node lat="59.662722582663356" lon="10.646801292178619" id="-28639">
		<tag k="name" v="Granheiveien" />
		<tag k="ssr:date" v="2019-12-27" />
		<tag k="ssr:gruppe" v="veg" />
		<tag k="ssr:hovedgruppe" v="infrastruktur" />
		<tag k="ssr:stedsnr" v="1066580" />
		<tag k="ssr:type" v="adressenavn" />
	</node>
	<node lat="59.66432846651022" lon="10.640370423849536" id="-28640">
		<tag k="name" v="Holterteigveien" />
		<tag k="ssr:date" v="2019-12-27" />
		<tag k="ssr:gruppe" v="veg" />
		<tag k="ssr:hovedgruppe" v="infrastruktur" />
		<tag k="ssr:stedsnr" v="1066582" />
		<tag k="ssr:type" v="adressenavn" />
	</node>
	<node lat="59.68090938915178" lon="10.657146083220178" id="-28641">
		<tag k="name" v="Heer terrasse" />
		<tag k="ssr:date" v="2019-12-27" />
		<tag k="ssr:gruppe" v="veg" />
		<tag k="ssr:hovedgruppe" v="infrastruktur" />
		<tag k="ssr:stedsnr" v="1066643" />
		<tag k="ssr:type" v="adressenavn" />
	</node>
	<node lat="59.68000373799946" lon="10.661294692071426" id="-28642">
		<tag k="name" v="Heerløkka" />
		<tag k="ssr:date" v="2019-12-27" />
		<tag k="ssr:gruppe" v="veg" />
		<tag k="ssr:hovedgruppe" v="infrastruktur" />
		<tag k="ssr:stedsnr" v="1066646" />
		<tag k="ssr:type" v="adressenavn" />
	</node>
	<node lat="59.68150007777308" lon="10.660860831884445" id="-28643">
		<tag k="name" v="Heer alle" />
		<tag k="ssr:date" v="2019-12-27" />
		<tag k="ssr:gruppe" v="veg" />
		<tag k="ssr:hovedgruppe" v="infrastruktur" />
		<tag k="ssr:stedsnr" v="1066658" />
		<tag k="ssr:type" v="adressenavn" />
	</node>
	<node lat="59.66527731036586" lon="10.633871791353242" id="-28644">
		<tag k="name" v="Holmåsveien" />
		<tag k="ssr:date" v="2019-12-27" />
		<tag k="ssr:gruppe" v="veg" />
		<tag k="ssr:hovedgruppe" v="infrastruktur" />
		<tag k="ssr:stedsnr" v="1066601" />
		<tag k="ssr:type" v="adressenavn" />
	</node>
	<node lat="59.67513109127496" lon="10.661250026886933" id="-28645">
		<tag k="name" v="Holterkroken" />
		<tag k="ssr:date" v="2019-12-27" />
		<tag k="ssr:gruppe" v="veg" />
		<tag k="ssr:hovedgruppe" v="infrastruktur" />
		<tag k="ssr:stedsnr" v="1066606" />
		<tag k="ssr:type" v="adressenavn" />
	</node>
	<node lat="59.669692406569126" lon="10.660356707899247" id="-28646">
		<tag k="name" v="Holterkollveien" />
		<tag k="ssr:date" v="2019-12-27" />
		<tag k="ssr:gruppe" v="veg" />
		<tag k="ssr:hovedgruppe" v="infrastruktur" />
		<tag k="ssr:stedsnr" v="1066611" />
		<tag k="ssr:type" v="adressenavn" />
	</node>
	<node lat="59.66972540763981" lon="10.660763783119029" id="-28648">
		<tag k="name" v="Hestehagen" />
		<tag k="ssr:date" v="2019-12-27" />
		<tag k="ssr:gruppe" v="veg" />
		<tag k="ssr:hovedgruppe" v="infrastruktur" />
		<tag k="ssr:stedsnr" v="1066624" />
		<tag k="ssr:type" v="adressenavn" />
	</node>
	<node lat="59.68006053728485" lon="10.657174317873208" id="-28649">
		<tag k="name" v="Heerveien" />
		<tag k="ssr:date" v="2019-12-27" />
		<tag k="ssr:gruppe" v="veg" />
		<tag k="ssr:hovedgruppe" v="infrastruktur" />
		<tag k="ssr:stedsnr" v="1066629" />
		<tag k="ssr:type" v="adressenavn" />
	</node>
	<node lat="59.682640211992016" lon="10.653560576413119" id="-28650">
		<tag k="name" v="Pers vei" />
		<tag k="ssr:date" v="2019-12-27" />
		<tag k="ssr:gruppe" v="veg" />
		<tag k="ssr:hovedgruppe" v="infrastruktur" />
		<tag k="ssr:stedsnr" v="1066693" />
		<tag k="ssr:type" v="adressenavn" />
	</node>
	<node lat="59.66288007516751" lon="10.632768726888992" id="-28651">
		<tag k="name" v="Osloveien" />
		<tag k="ssr:date" v="2019-12-27" />
		<tag k="ssr:gruppe" v="veg" />
		<tag k="ssr:hovedgruppe" v="infrastruktur" />
		<tag k="ssr:stedsnr" v="1066701" />
		<tag k="ssr:type" v="adressenavn" />
	</node>
	<node lat="59.663361333535484" lon="10.641983652945786" id="-28652">
		<tag k="name" v="Oreveien" />
		<tag k="ssr:date" v="2019-12-27" />
		<tag k="ssr:gruppe" v="veg" />
		<tag k="ssr:hovedgruppe" v="infrastruktur" />
		<tag k="ssr:stedsnr" v="1066704" />
		<tag k="ssr:type" v="adressenavn" />
	</node>
	<node lat="59.66133672230896" lon="10.654223834105252" id="-28653">
		<tag k="name" v="Orrelia" />
		<tag k="ssr:date" v="2019-12-27" />
		<tag k="ssr:gruppe" v="veg" />
		<tag k="ssr:hovedgruppe" v="infrastruktur" />
		<tag k="ssr:stedsnr" v="1066708" />
		<tag k="ssr:type" v="adressenavn" />
	</node>
	<node lat="59.68576359733516" lon="10.653299311789413" id="-28654">
		<tag k="name" v="Odins vei" />
		<tag k="ssr:date" v="2019-12-27" />
		<tag k="ssr:gruppe" v="veg" />
		<tag k="ssr:hovedgruppe" v="infrastruktur" />
		<tag k="ssr:stedsnr" v="1066713" />
		<tag k="ssr:type" v="adressenavn" />
	</node>
	<node lat="59.66623926316335" lon="10.633983065772377" id="-28656">
		<tag k="name" v="Rådhusveien" />
		<tag k="ssr:date" v="2019-12-27" />
		<tag k="ssr:gruppe" v="veg" />
		<tag k="ssr:hovedgruppe" v="infrastruktur" />
		<tag k="ssr:stedsnr" v="1066786" />
		<tag k="ssr:type" v="adressenavn" />
	</node>
	<node lat="59.65132273638575" lon="10.654572492021583" id="-28657">
		<tag k="name" v="Røysepytten" />
		<tag k="ssr:date" v="2019-12-27" />
		<tag k="ssr:gruppe" v="veg" />
		<tag k="ssr:hovedgruppe" v="infrastruktur" />
		<tag k="ssr:stedsnr" v="1066788" />
		<tag k="ssr:type" v="adressenavn" />
	</node>
	<node lat="59.67804995309947" lon="10.629215452503088" id="-28658">
		<tag k="name" v="Rundtomveien" />
		<tag k="ssr:date" v="2019-12-27" />
		<tag k="ssr:gruppe" v="veg" />
		<tag k="ssr:hovedgruppe" v="infrastruktur" />
		<tag k="ssr:stedsnr" v="1066794" />
		<tag k="ssr:type" v="adressenavn" />
	</node>
	<node lat="59.66249692267839" lon="10.652725532990988" id="-28659">
		<tag k="name" v="Rugdeveien" />
		<tag k="ssr:date" v="2019-12-27" />
		<tag k="ssr:gruppe" v="veg" />
		<tag k="ssr:hovedgruppe" v="infrastruktur" />
		<tag k="ssr:stedsnr" v="1066796" />
		<tag k="ssr:type" v="adressenavn" />
	</node>
	<node lat="59.651651112237175" lon="10.635215303119066" id="-28660">
		<tag k="name" v="Rosekollen" />
		<tag k="ssr:date" v="2019-12-27" />
		<tag k="ssr:gruppe" v="veg" />
		<tag k="ssr:hovedgruppe" v="infrastruktur" />
		<tag k="ssr:stedsnr" v="1066798" />
		<tag k="ssr:type" v="adressenavn" />
	</node>
	<node lat="59.65582466802669" lon="10.644611481236952" id="-28661">
		<tag k="name" v="Rogneveien" />
		<tag k="ssr:date" v="2019-12-27" />
		<tag k="ssr:gruppe" v="veg" />
		<tag k="ssr:hovedgruppe" v="infrastruktur" />
		<tag k="ssr:stedsnr" v="1066800" />
		<tag k="ssr:type" v="adressenavn" />
	</node>
	<node lat="59.669190521095125" lon="10.62469707535194" id="-28662">
		<tag k="name" v="Ringeplan" />
		<tag k="ssr:date" v="2019-12-27" />
		<tag k="ssr:gruppe" v="veg" />
		<tag k="ssr:hovedgruppe" v="infrastruktur" />
		<tag k="ssr:stedsnr" v="1066808" />
		<tag k="ssr:type" v="adressenavn" />
	</node>
	<node lat="59.683258193172236" lon="10.653403923172538" id="-28663">
		<tag k="name" v="Påls vei" />
		<tag k="ssr:date" v="2019-12-27" />
		<tag k="ssr:gruppe" v="veg" />
		<tag k="ssr:hovedgruppe" v="infrastruktur" />
		<tag k="ssr:stedsnr" v="1066674" />
		<tag k="ssr:type" v="adressenavn" />
	</node>
	<node lat="59.662679136441085" lon="10.653092213184044" id="-28664">
		<tag k="name" v="Ravnefaret" />
		<tag k="ssr:date" v="2019-12-27" />
		<tag k="ssr:gruppe" v="veg" />
		<tag k="ssr:hovedgruppe" v="infrastruktur" />
		<tag k="ssr:stedsnr" v="1066678" />
		<tag k="ssr:type" v="adressenavn" />
	</node>
	<node lat="59.65670885842462" lon="10.631620457424873" id="-28665">
		<tag k="name" v="Petersbakken" />
		<tag k="ssr:date" v="2019-12-27" />
		<tag k="ssr:gruppe" v="veg" />
		<tag k="ssr:hovedgruppe" v="infrastruktur" />
		<tag k="ssr:stedsnr" v="1066683" />
		<tag k="ssr:type" v="adressenavn" />
	</node>
	<node lat="59.667136504656554" lon="10.638119192065512" id="-28666">
		<tag k="name" v="Seiersten Sentrum" />
		<tag k="ssr:date" v="2019-12-27" />
		<tag k="ssr:gruppe" v="veg" />
		<tag k="ssr:hovedgruppe" v="infrastruktur" />
		<tag k="ssr:stedsnr" v="1066744" />
		<tag k="ssr:type" v="adressenavn" />
	</node>
	<node lat="59.67105681025468" lon="10.626906922112003" id="-28668">
		<tag k="name" v="Sagaveien" />
		<tag k="ssr:date" v="2019-12-27" />
		<tag k="ssr:gruppe" v="veg" />
		<tag k="ssr:hovedgruppe" v="infrastruktur" />
		<tag k="ssr:stedsnr" v="1066761" />
		<tag k="ssr:type" v="adressenavn" />
	</node>
	<node lat="59.662821406048195" lon="10.63198579972364" id="-28669">
		<tag k="name" v="Råkeløkkveien" />
		<tag k="ssr:date" v="2019-12-27" />
		<tag k="ssr:gruppe" v="veg" />
		<tag k="ssr:hovedgruppe" v="infrastruktur" />
		<tag k="ssr:stedsnr" v="1066765" />
		<tag k="ssr:type" v="adressenavn" />
	</node>
	<node lat="59.65234628255661" lon="10.640272141537816" id="-28671">
		<tag k="name" v="Røsslyngveien" />
		<tag k="ssr:date" v="2019-12-27" />
		<tag k="ssr:gruppe" v="veg" />
		<tag k="ssr:hovedgruppe" v="infrastruktur" />
		<tag k="ssr:stedsnr" v="1066779" />
		<tag k="ssr:type" v="adressenavn" />
	</node>
	<node lat="59.64449465864827" lon="10.639743017900845" id="-28673">
		<tag k="name" v="Rådyrveien" />
		<tag k="ssr:date" v="2019-12-27" />
		<tag k="ssr:gruppe" v="veg" />
		<tag k="ssr:hovedgruppe" v="infrastruktur" />
		<tag k="ssr:stedsnr" v="1066784" />
		<tag k="ssr:type" v="adressenavn" />
	</node>
	<node lat="59.65998751853587" lon="10.675836459109819" id="-28674">
		<tag k="name" v="Mjølners vei" />
		<tag k="ssr:date" v="2019-12-27" />
		<tag k="ssr:gruppe" v="veg" />
		<tag k="ssr:hovedgruppe" v="infrastruktur" />
		<tag k="ssr:stedsnr" v="1066940" />
		<tag k="ssr:type" v="adressenavn" />
	</node>
	<node lat="59.65999337354564" lon="10.630231942025691" id="-28675">
		<tag k="name" v="Løktabakken" />
		<tag k="ssr:date" v="2019-12-27" />
		<tag k="ssr:gruppe" v="veg" />
		<tag k="ssr:hovedgruppe" v="infrastruktur" />
		<tag k="ssr:stedsnr" v="1066942" />
		<tag k="ssr:type" v="adressenavn" />
	</node>
	<node lat="59.67026056685773" lon="10.632513811964953" id="-28676">
		<tag k="name" v="Batteriveien" />
		<tag k="ssr:date" v="2019-12-27" />
		<tag k="ssr:gruppe" v="veg" />
		<tag k="ssr:hovedgruppe" v="infrastruktur" />
		<tag k="ssr:stedsnr" v="1066966" />
		<tag k="ssr:type" v="adressenavn" />
	</node>
	<node lat="59.66433910248386" lon="10.649208059421897" id="-28677">
		<tag k="name" v="Bassengveien" />
		<tag k="ssr:date" v="2019-12-27" />
		<tag k="ssr:gruppe" v="veg" />
		<tag k="ssr:hovedgruppe" v="infrastruktur" />
		<tag k="ssr:stedsnr" v="1066970" />
		<tag k="ssr:type" v="adressenavn" />
	</node>
	<node lat="59.683740589119765" lon="10.651925698413596" id="-28678">
		<tag k="name" v="Balders vei" />
		<tag k="ssr:date" v="2019-12-27" />
		<tag k="ssr:gruppe" v="veg" />
		<tag k="ssr:hovedgruppe" v="infrastruktur" />
		<tag k="ssr:stedsnr" v="1066979" />
		<tag k="ssr:type" v="adressenavn" />
	</node>
	<node lat="59.661025206822195" lon="10.62846540080091" id="-28679">
		<tag k="name" v="Badehusgata" />
		<tag k="ssr:date" v="2019-12-27" />
		<tag k="ssr:gruppe" v="veg" />
		<tag k="ssr:hovedgruppe" v="infrastruktur" />
		<tag k="ssr:stedsnr" v="1066981" />
		<tag k="ssr:type" v="adressenavn" />
	</node>
	<node lat="59.686082296120844" lon="10.650844460741938" id="-28681">
		<tag k="name" v="Regins vei" />
		<tag k="ssr:date" v="2019-12-27" />
		<tag k="ssr:gruppe" v="veg" />
		<tag k="ssr:hovedgruppe" v="infrastruktur" />
		<tag k="ssr:stedsnr" v="1066817" />
		<tag k="ssr:type" v="adressenavn" />
	</node>
	<node lat="59.67129753703722" lon="10.625005627407905" id="-28682">
		<tag k="name" v="Ringedammen" />
		<tag k="ssr:date" v="2019-12-27" />
		<tag k="ssr:gruppe" v="veg" />
		<tag k="ssr:hovedgruppe" v="infrastruktur" />
		<tag k="ssr:stedsnr" v="1066823" />
		<tag k="ssr:type" v="adressenavn" />
	</node>
	<node lat="59.650752581220694" lon="10.641534661560822" id="-28683">
		<tag k="name" v="Løkkedal terrasse" />
		<tag k="ssr:date" v="2019-12-27" />
		<tag k="ssr:gruppe" v="veg" />
		<tag k="ssr:hovedgruppe" v="infrastruktur" />
		<tag k="ssr:stedsnr" v="1066830" />
		<tag k="ssr:type" v="adressenavn" />
	</node>
	<node lat="59.654297769687716" lon="10.635956504150936" id="-28685">
		<tag k="name" v="Løkkedalsveien" />
		<tag k="ssr:date" v="2019-12-27" />
		<tag k="ssr:gruppe" v="veg" />
		<tag k="ssr:hovedgruppe" v="infrastruktur" />
		<tag k="ssr:stedsnr" v="1066845" />
		<tag k="ssr:type" v="adressenavn" />
	</node>
	<node lat="59.683342668728045" lon="10.651315787680709" id="-28686">
		<tag k="name" v="Lokes vei" />
		<tag k="ssr:date" v="2019-12-27" />
		<tag k="ssr:gruppe" v="veg" />
		<tag k="ssr:hovedgruppe" v="infrastruktur" />
		<tag k="ssr:stedsnr" v="1066846" />
		<tag k="ssr:type" v="adressenavn" />
	</node>
	<node lat="59.66251181098257" lon="10.655301403076718" id="-28688">
		<tag k="name" v="Lerkesvingen" />
		<tag k="ssr:date" v="2019-12-27" />
		<tag k="ssr:gruppe" v="veg" />
		<tag k="ssr:hovedgruppe" v="infrastruktur" />
		<tag k="ssr:stedsnr" v="1066850" />
		<tag k="ssr:type" v="adressenavn" />
	</node>
	<node lat="59.663075291859336" lon="10.632943771512615" id="-28689">
		<tag k="name" v="Lindtruppbakken" />
		<tag k="ssr:date" v="2019-12-27" />
		<tag k="ssr:gruppe" v="veg" />
		<tag k="ssr:hovedgruppe" v="infrastruktur" />
		<tag k="ssr:stedsnr" v="1066853" />
		<tag k="ssr:type" v="adressenavn" />
	</node>
	<node lat="59.66390406877081" lon="10.628529535837808" id="-28690">
		<tag k="name" v="Kroketønna" />
		<tag k="ssr:date" v="2019-12-27" />
		<tag k="ssr:gruppe" v="veg" />
		<tag k="ssr:hovedgruppe" v="infrastruktur" />
		<tag k="ssr:stedsnr" v="1066854" />
		<tag k="ssr:type" v="adressenavn" />
	</node>
	<node lat="59.67754975088753" lon="10.659349330058344" id="-28692">
		<tag k="name" v="Kringerudåsen" />
		<tag k="ssr:date" v="2019-12-27" />
		<tag k="ssr:gruppe" v="veg" />
		<tag k="ssr:hovedgruppe" v="infrastruktur" />
		<tag k="ssr:stedsnr" v="1066859" />
		<tag k="ssr:type" v="adressenavn" />
	</node>
	<node lat="59.685001164391984" lon="10.661061755274442" id="-28693">
		<tag k="name" v="Oberst Eriksens vei" />
		<tag k="ssr:date" v="2019-12-27" />
		<tag k="ssr:gruppe" v="veg" />
		<tag k="ssr:hovedgruppe" v="infrastruktur" />
		<tag k="ssr:stedsnr" v="1066872" />
		<tag k="ssr:type" v="adressenavn" />
	</node>
	<node lat="59.669590686195434" lon="10.624869348972643" id="-28695">
		<tag k="name" v="Nordveien" />
		<tag k="ssr:date" v="2019-12-27" />
		<tag k="ssr:gruppe" v="veg" />
		<tag k="ssr:hovedgruppe" v="infrastruktur" />
		<tag k="ssr:stedsnr" v="1066887" />
		<tag k="ssr:type" v="adressenavn" />
	</node>
	<node lat="59.66380619354309" lon="10.630802787300064" id="-28696">
		<tag k="name" v="Niels Carlsens gate" />
		<tag k="ssr:date" v="2019-12-27" />
		<tag k="ssr:gruppe" v="veg" />
		<tag k="ssr:hovedgruppe" v="infrastruktur" />
		<tag k="ssr:stedsnr" v="1066890" />
		<tag k="ssr:type" v="adressenavn" />
	</node>
	<node lat="59.68355533650653" lon="10.651654525505494" id="-28697">
		<tag k="name" v="Nannas vei" />
		<tag k="ssr:date" v="2019-12-27" />
		<tag k="ssr:gruppe" v="veg" />
		<tag k="ssr:hovedgruppe" v="infrastruktur" />
		<tag k="ssr:stedsnr" v="1066906" />
		<tag k="ssr:type" v="adressenavn" />
	</node>
	<node lat="59.667414585926444" lon="10.638692704133874" id="-28698">
		<tag k="name" v="Museumsveien" />
		<tag k="ssr:date" v="2019-12-27" />
		<tag k="ssr:gruppe" v="veg" />
		<tag k="ssr:hovedgruppe" v="infrastruktur" />
		<tag k="ssr:stedsnr" v="1066926" />
		<tag k="ssr:type" v="adressenavn" />
	</node>
	<node lat="59.64509645544155" lon="10.64207945901108" id="-28699">
		<tag k="name" v="Elleflaten" />
		<tag k="ssr:date" v="2019-12-27" />
		<tag k="ssr:gruppe" v="veg" />
		<tag k="ssr:hovedgruppe" v="infrastruktur" />
		<tag k="ssr:stedsnr" v="1067042" />
		<tag k="ssr:type" v="adressenavn" />
	</node>
	<node lat="59.64618054365561" lon="10.643310027142519" id="-28700">
		<tag k="name" v="Ellefaret" />
		<tag k="ssr:date" v="2019-12-27" />
		<tag k="ssr:gruppe" v="veg" />
		<tag k="ssr:hovedgruppe" v="infrastruktur" />
		<tag k="ssr:stedsnr" v="1067045" />
		<tag k="ssr:type" v="adressenavn" />
	</node>
	<node lat="59.64657484185404" lon="10.639336210681034" id="-28701">
		<tag k="name" v="Elleskjærveien" />
		<tag k="ssr:date" v="2019-12-27" />
		<tag k="ssr:gruppe" v="veg" />
		<tag k="ssr:hovedgruppe" v="infrastruktur" />
		<tag k="ssr:stedsnr" v="1067049" />
		<tag k="ssr:type" v="adressenavn" />
	</node>
	<node lat="59.649196394235446" lon="10.643105929172343" id="-28702">
		<tag k="name" v="Ellelia" />
		<tag k="ssr:date" v="2019-12-27" />
		<tag k="ssr:gruppe" v="veg" />
		<tag k="ssr:hovedgruppe" v="infrastruktur" />
		<tag k="ssr:stedsnr" v="1067051" />
		<tag k="ssr:type" v="adressenavn" />
	</node>
	<node lat="59.65529092284418" lon="10.648320994861193" id="-28704">
		<tag k="name" v="Ekeveien" />
		<tag k="ssr:date" v="2019-12-27" />
		<tag k="ssr:gruppe" v="veg" />
		<tag k="ssr:hovedgruppe" v="infrastruktur" />
		<tag k="ssr:stedsnr" v="1067055" />
		<tag k="ssr:type" v="adressenavn" />
	</node>
	<node lat="59.656019709546825" lon="10.642865149436023" id="-28705">
		<tag k="name" v="Ekestubben" />
		<tag k="ssr:date" v="2019-12-27" />
		<tag k="ssr:gruppe" v="veg" />
		<tag k="ssr:hovedgruppe" v="infrastruktur" />
		<tag k="ssr:stedsnr" v="1067057" />
		<tag k="ssr:type" v="adressenavn" />
	</node>
	<node lat="59.655249625611326" lon="10.64948117162822" id="-28706">
		<tag k="name" v="Ekebakken" />
		<tag k="ssr:date" v="2019-12-27" />
		<tag k="ssr:gruppe" v="veg" />
		<tag k="ssr:hovedgruppe" v="infrastruktur" />
		<tag k="ssr:stedsnr" v="1067059" />
		<tag k="ssr:type" v="adressenavn" />
	</node>
	<node lat="59.64804336423452" lon="10.640001780415705" id="-28707">
		<tag k="name" v="Ekornveien" />
		<tag k="ssr:date" v="2019-12-27" />
		<tag k="ssr:gruppe" v="veg" />
		<tag k="ssr:hovedgruppe" v="infrastruktur" />
		<tag k="ssr:stedsnr" v="1067061" />
		<tag k="ssr:type" v="adressenavn" />
	</node>
	<node lat="59.67257886584813" lon="10.653866476913132" id="-28708">
		<tag k="name" v="Dyrløkkeveien" />
		<tag k="ssr:date" v="2019-12-27" />
		<tag k="ssr:gruppe" v="veg" />
		<tag k="ssr:hovedgruppe" v="infrastruktur" />
		<tag k="ssr:stedsnr" v="1067067" />
		<tag k="ssr:type" v="adressenavn" />
	</node>
	<node lat="59.66399130712104" lon="10.655850809607466" id="-28710">
		<tag k="name" v="Dueveien" />
		<tag k="ssr:date" v="2019-12-27" />
		<tag k="ssr:gruppe" v="veg" />
		<tag k="ssr:hovedgruppe" v="infrastruktur" />
		<tag k="ssr:stedsnr" v="1067072" />
		<tag k="ssr:type" v="adressenavn" />
	</node>
	<node lat="59.6693862211457" lon="10.641138206595281" id="-28711">
		<tag k="name" v="Eikskollen" />
		<tag k="ssr:date" v="2019-12-27" />
		<tag k="ssr:gruppe" v="veg" />
		<tag k="ssr:hovedgruppe" v="infrastruktur" />
		<tag k="ssr:stedsnr" v="1067077" />
		<tag k="ssr:type" v="adressenavn" />
	</node>
	<node lat="59.66249436532299" lon="10.630754255464144" id="-28712">
		<tag k="name" v="Damveien" />
		<tag k="ssr:date" v="2019-12-27" />
		<tag k="ssr:gruppe" v="veg" />
		<tag k="ssr:hovedgruppe" v="infrastruktur" />
		<tag k="ssr:stedsnr" v="1067081" />
		<tag k="ssr:type" v="adressenavn" />
	</node>
	<node lat="59.64507307855192" lon="10.639082171136005" id="-28714">
		<tag k="name" v="Fyrveien" />
		<tag k="ssr:date" v="2019-12-27" />
		<tag k="ssr:gruppe" v="veg" />
		<tag k="ssr:hovedgruppe" v="infrastruktur" />
		<tag k="ssr:stedsnr" v="1067104" />
		<tag k="ssr:type" v="adressenavn" />
	</node>
	<node lat="59.66989953814635" lon="10.62988077568711" id="-28715">
		<tag k="name" v="Furuveien" />
		<tag k="ssr:date" v="2019-12-27" />
		<tag k="ssr:gruppe" v="veg" />
		<tag k="ssr:hovedgruppe" v="infrastruktur" />
		<tag k="ssr:stedsnr" v="1067108" />
		<tag k="ssr:type" v="adressenavn" />
	</node>
	<node lat="59.66599884445844" lon="10.636013184299468" id="-28716">
		<tag k="name" v="Gamle Oslovei" />
		<tag k="ssr:date" v="2019-12-27" />
		<tag k="ssr:gruppe" v="veg" />
		<tag k="ssr:hovedgruppe" v="infrastruktur" />
		<tag k="ssr:stedsnr" v="1067112" />
		<tag k="ssr:type" v="adressenavn" />
	</node>
	<node lat="59.666384936149214" lon="10.659100923181931" id="-28717">
		<tag k="name" v="Fugleveien" />
		<tag k="ssr:date" v="2019-12-27" />
		<tag k="ssr:gruppe" v="veg" />
		<tag k="ssr:hovedgruppe" v="infrastruktur" />
		<tag k="ssr:stedsnr" v="1067119" />
		<tag k="ssr:type" v="adressenavn" />
	</node>
	<node lat="59.68416717396739" lon="10.6522882479429" id="-28718">
		<tag k="name" v="Frøyas vei" />
		<tag k="ssr:date" v="2019-12-27" />
		<tag k="ssr:gruppe" v="veg" />
		<tag k="ssr:hovedgruppe" v="infrastruktur" />
		<tag k="ssr:stedsnr" v="1067133" />
		<tag k="ssr:type" v="adressenavn" />
	</node>
	<node lat="59.658785897055026" lon="10.630810125711545" id="-28719">
		<tag k="name" v="Finnes vei" />
		<tag k="ssr:date" v="2019-12-27" />
		<tag k="ssr:gruppe" v="veg" />
		<tag k="ssr:hovedgruppe" v="infrastruktur" />
		<tag k="ssr:stedsnr" v="1067191" />
		<tag k="ssr:type" v="adressenavn" />
	</node>
	<node lat="59.670498692745596" lon="10.623936067839649" id="-28720">
		<tag k="name" v="Bentsebakken" />
		<tag k="ssr:date" v="2019-12-27" />
		<tag k="ssr:gruppe" v="veg" />
		<tag k="ssr:hovedgruppe" v="infrastruktur" />
		<tag k="ssr:stedsnr" v="1067195" />
		<tag k="ssr:type" v="adressenavn" />
	</node>
	<node lat="59.66735022127407" lon="10.638029167806172" id="-28721">
		<tag k="name" v="Belsjøveien" />
		<tag k="ssr:date" v="2019-12-27" />
		<tag k="ssr:gruppe" v="veg" />
		<tag k="ssr:hovedgruppe" v="infrastruktur" />
		<tag k="ssr:stedsnr" v="1067204" />
		<tag k="ssr:type" v="adressenavn" />
	</node>
	<node lat="59.64961858039068" lon="10.63658202653968" id="-28722">
		<tag k="name" v="Badeveien" />
		<tag k="ssr:date" v="2019-12-27" />
		<tag k="ssr:gruppe" v="veg" />
		<tag k="ssr:hovedgruppe" v="infrastruktur" />
		<tag k="ssr:stedsnr" v="1066986" />
		<tag k="ssr:type" v="adressenavn" />
	</node>
	<node lat="59.64435983134519" lon="10.640668257879224" id="-28723">
		<tag k="name" v="Arne Høilands vei" />
		<tag k="ssr:date" v="2019-12-27" />
		<tag k="ssr:gruppe" v="veg" />
		<tag k="ssr:hovedgruppe" v="infrastruktur" />
		<tag k="ssr:stedsnr" v="1066988" />
		<tag k="ssr:type" v="adressenavn" />
	</node>
	<node lat="59.66576696616991" lon="10.630262089563315" id="-28724">
		<tag k="name" v="Apalveien" />
		<tag k="ssr:date" v="2019-12-27" />
		<tag k="ssr:gruppe" v="veg" />
		<tag k="ssr:hovedgruppe" v="infrastruktur" />
		<tag k="ssr:stedsnr" v="1066989" />
		<tag k="ssr:type" v="adressenavn" />
	</node>
	<node lat="59.65582078761296" lon="10.646238774891861" id="-28725">
		<tag k="name" v="Askveien" />
		<tag k="ssr:date" v="2019-12-27" />
		<tag k="ssr:gruppe" v="veg" />
		<tag k="ssr:hovedgruppe" v="infrastruktur" />
		<tag k="ssr:stedsnr" v="1066990" />
		<tag k="ssr:type" v="adressenavn" />
	</node>
	<node lat="59.681890010888296" lon="10.655071683190917" id="-28726">
		<tag k="name" v="Askeladdveien" />
		<tag k="ssr:date" v="2019-12-27" />
		<tag k="ssr:gruppe" v="veg" />
		<tag k="ssr:hovedgruppe" v="infrastruktur" />
		<tag k="ssr:stedsnr" v="1066991" />
		<tag k="ssr:type" v="adressenavn" />
	</node>
	<node lat="59.65706541457608" lon="10.631359162304625" id="-28727">
		<tag k="name" v="Anton Thoresens vei" />
		<tag k="ssr:date" v="2019-12-27" />
		<tag k="ssr:gruppe" v="veg" />
		<tag k="ssr:hovedgruppe" v="infrastruktur" />
		<tag k="ssr:stedsnr" v="1066994" />
		<tag k="ssr:type" v="adressenavn" />
	</node>
	<node lat="59.66478137203255" lon="10.632394093650237" id="-28729">
		<tag k="name" v="Akershusveien" />
		<tag k="ssr:date" v="2019-12-27" />
		<tag k="ssr:gruppe" v="veg" />
		<tag k="ssr:hovedgruppe" v="infrastruktur" />
		<tag k="ssr:stedsnr" v="1066998" />
		<tag k="ssr:type" v="adressenavn" />
	</node>
	<node lat="59.683920430347655" lon="10.657239418715042" id="-28731">
		<tag k="name" v="Espens vei" />
		<tag k="ssr:date" v="2019-12-27" />
		<tag k="ssr:gruppe" v="veg" />
		<tag k="ssr:hovedgruppe" v="infrastruktur" />
		<tag k="ssr:stedsnr" v="1067014" />
		<tag k="ssr:type" v="adressenavn" />
	</node>
	<node lat="59.665855569306416" lon="10.633573752096222" id="-28732">
		<tag k="name" v="Engenehøy" />
		<tag k="ssr:date" v="2019-12-27" />
		<tag k="ssr:gruppe" v="veg" />
		<tag k="ssr:hovedgruppe" v="infrastruktur" />
		<tag k="ssr:stedsnr" v="1067017" />
		<tag k="ssr:type" v="adressenavn" />
	</node>
	<node lat="59.64938245624109" lon="10.642700854276722" id="-28733">
		<tag k="name" v="Elletoppen" />
		<tag k="ssr:date" v="2019-12-27" />
		<tag k="ssr:gruppe" v="veg" />
		<tag k="ssr:hovedgruppe" v="infrastruktur" />
		<tag k="ssr:stedsnr" v="1067031" />
		<tag k="ssr:type" v="adressenavn" />
	</node>
	<node lat="59.642960426968074" lon="10.642394201842786" id="-28734">
		<tag k="name" v="Elleveien" />
		<tag k="ssr:date" v="2019-12-27" />
		<tag k="ssr:gruppe" v="veg" />
		<tag k="ssr:hovedgruppe" v="infrastruktur" />
		<tag k="ssr:stedsnr" v="1067032" />
		<tag k="ssr:type" v="adressenavn" />
	</node>
	<node lat="59.68465915398008" lon="10.652453819137294" id="-28735">
		<tag k="name" v="Friggs vei" />
		<tag k="ssr:date" v="2019-12-27" />
		<tag k="ssr:gruppe" v="veg" />
		<tag k="ssr:hovedgruppe" v="infrastruktur" />
		<tag k="ssr:stedsnr" v="1067148" />
		<tag k="ssr:type" v="adressenavn" />
	</node>
	<node lat="59.66459797464129" lon="10.630945219509394" id="-28736">
		<tag k="name" v="Fjellveien" />
		<tag k="ssr:date" v="2019-12-27" />
		<tag k="ssr:gruppe" v="veg" />
		<tag k="ssr:hovedgruppe" v="infrastruktur" />
		<tag k="ssr:stedsnr" v="1067151" />
		<tag k="ssr:type" v="adressenavn" />
	</node>
	<node lat="59.66312982685241" lon="10.645769808834832" id="-28737">
		<tag k="name" v="Fjelltunveien" />
		<tag k="ssr:date" v="2019-12-27" />
		<tag k="ssr:gruppe" v="veg" />
		<tag k="ssr:hovedgruppe" v="infrastruktur" />
		<tag k="ssr:stedsnr" v="1067155" />
		<tag k="ssr:type" v="adressenavn" />
	</node>
	<node lat="59.662931899910724" lon="10.629505341078875" id="-28739">
		<tag k="name" v="Fiskerkroken" />
		<tag k="ssr:date" v="2019-12-27" />
		<tag k="ssr:gruppe" v="veg" />
		<tag k="ssr:hovedgruppe" v="infrastruktur" />
		<tag k="ssr:stedsnr" v="1067167" />
		<tag k="ssr:type" v="adressenavn" />
	</node>
	<node lat="59.67476445206671" lon="10.650601386203501" id="-28741">
		<tag k="name" v="Belsjøparken" />
		<tag k="ssr:date" v="2019-12-27" />
		<tag k="ssr:gruppe" v="veg" />
		<tag k="ssr:hovedgruppe" v="infrastruktur" />
		<tag k="ssr:stedsnr" v="1067238" />
		<tag k="ssr:type" v="adressenavn" />
	</node>
	<node lat="59.66404967403247" lon="10.630467468379544" id="-28743">
		<tag k="name" v="Baybakken" />
		<tag k="ssr:date" v="2019-12-27" />
		<tag k="ssr:gruppe" v="veg" />
		<tag k="ssr:hovedgruppe" v="infrastruktur" />
		<tag k="ssr:stedsnr" v="1067250" />
		<tag k="ssr:type" v="adressenavn" />
	</node>
	<node lat="59.67695973569198" lon="10.649768762772089" id="-28744">
		<tag k="name" v="Belsjøtoppen" />
		<tag k="ssr:date" v="2019-12-27" />
		<tag k="ssr:gruppe" v="veg" />
		<tag k="ssr:hovedgruppe" v="infrastruktur" />
		<tag k="ssr:stedsnr" v="1067222" />
		<tag k="ssr:type" v="adressenavn" />
	</node>
	<node lat="59.67187991702716" lon="10.645357928253603" id="-28745">
		<tag k="name" v="Belsjø terrasse" />
		<tag k="ssr:date" v="2019-12-27" />
		<tag k="ssr:gruppe" v="veg" />
		<tag k="ssr:hovedgruppe" v="infrastruktur" />
		<tag k="ssr:stedsnr" v="1067234" />
		<tag k="ssr:type" v="adressenavn" />
	</node>
	<node lat="59.66145589964855" lon="10.629555045618348" id="-28746">
		<tag k="name" v="Carlsebakken" />
		<tag k="ssr:date" v="2019-12-27" />
		<tag k="ssr:gruppe" v="veg" />
		<tag k="ssr:hovedgruppe" v="infrastruktur" />
		<tag k="ssr:stedsnr" v="1067287" />
		<tag k="ssr:type" v="adressenavn" />
	</node>
	<node lat="59.66371195950933" lon="10.631288201925571" id="-28747">
		<tag k="name" v="Buggebakken" />
		<tag k="ssr:date" v="2019-12-27" />
		<tag k="ssr:gruppe" v="veg" />
		<tag k="ssr:hovedgruppe" v="infrastruktur" />
		<tag k="ssr:stedsnr" v="1067302" />
		<tag k="ssr:type" v="adressenavn" />
	</node>
	<node lat="59.657967555836755" lon="10.630823104393782" id="-28748">
		<tag k="name" v="Bråtabakken" />
		<tag k="ssr:date" v="2019-12-27" />
		<tag k="ssr:gruppe" v="veg" />
		<tag k="ssr:hovedgruppe" v="infrastruktur" />
		<tag k="ssr:stedsnr" v="1067307" />
		<tag k="ssr:type" v="adressenavn" />
	</node>
	<node lat="59.65639969478365" lon="10.635776063368091" id="-28749">
		<tag k="name" v="Bråtanveien" />
		<tag k="ssr:date" v="2019-12-27" />
		<tag k="ssr:gruppe" v="veg" />
		<tag k="ssr:hovedgruppe" v="infrastruktur" />
		<tag k="ssr:stedsnr" v="1067316" />
		<tag k="ssr:type" v="adressenavn" />
	</node>
	<node lat="59.65711957929103" lon="10.641808667341222" id="-28750">
		<tag k="name" v="Bjerkeveien" />
		<tag k="ssr:date" v="2019-12-27" />
		<tag k="ssr:gruppe" v="veg" />
		<tag k="ssr:hovedgruppe" v="infrastruktur" />
		<tag k="ssr:stedsnr" v="1067321" />
		<tag k="ssr:type" v="adressenavn" />
	</node>
	<node lat="59.686157879382144" lon="10.651669320449686" id="-28751">
		<tag k="name" v="Brages vei" />
		<tag k="ssr:date" v="2019-12-27" />
		<tag k="ssr:gruppe" v="veg" />
		<tag k="ssr:hovedgruppe" v="infrastruktur" />
		<tag k="ssr:stedsnr" v="1067325" />
		<tag k="ssr:type" v="adressenavn" />
	</node>
	<node lat="59.685568064003036" lon="10.668465166704422" id="-28753">
		<tag k="name" v="Bekkenstenveien" />
		<tag k="ssr:date" v="2019-12-27" />
		<tag k="ssr:gruppe" v="veg" />
		<tag k="ssr:hovedgruppe" v="infrastruktur" />
		<tag k="ssr:stedsnr" v="1067255" />
		<tag k="ssr:type" v="adressenavn" />
	</node>
	<node lat="59.6597170176489" lon="10.63229624285472" id="-28755">
		<tag k="name" v="Chalmers vei" />
		<tag k="ssr:date" v="2019-12-27" />
		<tag k="ssr:gruppe" v="veg" />
		<tag k="ssr:hovedgruppe" v="infrastruktur" />
		<tag k="ssr:stedsnr" v="1067276" />
		<tag k="ssr:type" v="adressenavn" />
	</node>
	<node lat="59.65397461150569" lon="10.63581199425271" id="-28756">
		<tag k="name" v="Carl Størmers vei" />
		<tag k="ssr:date" v="2019-12-27" />
		<tag k="ssr:gruppe" v="veg" />
		<tag k="ssr:hovedgruppe" v="infrastruktur" />
		<tag k="ssr:stedsnr" v="1067279" />
		<tag k="ssr:type" v="adressenavn" />
	</node>
	<node lat="59.67485691407343" lon="10.625267544351487" id="-28757">
		<tag k="name" v="Buktaveien" />
		<tag k="ssr:date" v="2019-12-27" />
		<tag k="ssr:gruppe" v="veg" />
		<tag k="ssr:hovedgruppe" v="infrastruktur" />
		<tag k="ssr:stedsnr" v="1067283" />
		<tag k="ssr:type" v="adressenavn" />
	</node>
	<node lat="59.66198335659212" lon="10.646886440243811" id="-28759">
		<tag k="name" v="Bergløkka" />
		<tag k="ssr:date" v="2019-12-27" />
		<tag k="ssr:gruppe" v="veg" />
		<tag k="ssr:hovedgruppe" v="infrastruktur" />
		<tag k="ssr:stedsnr" v="1067358" />
		<tag k="ssr:type" v="adressenavn" />
	</node>
	<node lat="59.678569109485004" lon="10.653336579524716" id="-28760">
		<tag k="name" v="Bergsvea" />
		<tag k="ssr:date" v="2019-12-27" />
		<tag k="ssr:gruppe" v="veg" />
		<tag k="ssr:hovedgruppe" v="infrastruktur" />
		<tag k="ssr:stedsnr" v="1067363" />
		<tag k="ssr:type" v="adressenavn" />
	</node>
	<node lat="59.65289225168185" lon="10.63960062358844" id="-28761">
		<tag k="name" v="Vårstigen" />
		<tag k="ssr:date" v="2019-12-27" />
		<tag k="ssr:gruppe" v="veg" />
		<tag k="ssr:hovedgruppe" v="infrastruktur" />
		<tag k="ssr:stedsnr" v="1068748" />
		<tag k="ssr:type" v="adressenavn" />
	</node>
	<node lat="59.655111804296375" lon="10.633063466549492" id="-28762">
		<tag k="name" v="Wilhelmsbakken" />
		<tag k="ssr:date" v="2019-12-27" />
		<tag k="ssr:gruppe" v="veg" />
		<tag k="ssr:hovedgruppe" v="infrastruktur" />
		<tag k="ssr:stedsnr" v="1068752" />
		<tag k="ssr:type" v="adressenavn" />
	</node>
	<node lat="59.657255141665026" lon="10.631161890255061" id="-28763">
		<tag k="name" v="Strandveien" />
		<tag k="ssr:date" v="2019-12-27" />
		<tag k="ssr:gruppe" v="veg" />
		<tag k="ssr:hovedgruppe" v="infrastruktur" />
		<tag k="ssr:stedsnr" v="1068050" />
		<tag k="ssr:type" v="adressenavn" />
	</node>
	<node lat="59.664171008426706" lon="10.628215486003217" id="-28764">
		<tag k="name" v="Tamburbakken" />
		<tag k="ssr:date" v="2019-12-27" />
		<tag k="ssr:gruppe" v="veg" />
		<tag k="ssr:hovedgruppe" v="infrastruktur" />
		<tag k="ssr:stedsnr" v="1067987" />
		<tag k="ssr:type" v="adressenavn" />
	</node>
	<node lat="59.66417170608168" lon="10.65658316843656" id="-28766">
		<tag k="name" v="Svaleveien" />
		<tag k="ssr:date" v="2019-12-27" />
		<tag k="ssr:gruppe" v="veg" />
		<tag k="ssr:hovedgruppe" v="infrastruktur" />
		<tag k="ssr:stedsnr" v="1068011" />
		<tag k="ssr:type" v="adressenavn" />
	</node>
	<node lat="59.66407650770692" lon="10.656687222459189" id="-28767">
		<tag k="name" v="Svalestien" />
		<tag k="ssr:date" v="2019-12-27" />
		<tag k="ssr:gruppe" v="veg" />
		<tag k="ssr:hovedgruppe" v="infrastruktur" />
		<tag k="ssr:stedsnr" v="1068015" />
		<tag k="ssr:type" v="adressenavn" />
	</node>
	<node lat="59.66261146154778" lon="10.630566060872281" id="-28768">
		<tag k="name" v="Stubs vei" />
		<tag k="ssr:date" v="2019-12-27" />
		<tag k="ssr:gruppe" v="veg" />
		<tag k="ssr:hovedgruppe" v="infrastruktur" />
		<tag k="ssr:stedsnr" v="1068021" />
		<tag k="ssr:type" v="adressenavn" />
	</node>
	<node lat="59.6893929670852" lon="10.667274429740056" id="-28769">
		<tag k="name" v="Steensletta" />
		<tag k="ssr:date" v="2019-12-27" />
		<tag k="ssr:gruppe" v="veg" />
		<tag k="ssr:hovedgruppe" v="infrastruktur" />
		<tag k="ssr:stedsnr" v="1068089" />
		<tag k="ssr:type" v="adressenavn" />
	</node>
	<node lat="59.6743095162174" lon="10.629558108499014" id="-28770">
		<tag k="name" v="Sorenskriver Qvigstads vei" />
		<tag k="ssr:date" v="2019-12-27" />
		<tag k="ssr:gruppe" v="veg" />
		<tag k="ssr:hovedgruppe" v="infrastruktur" />
		<tag k="ssr:stedsnr" v="1068106" />
		<tag k="ssr:type" v="adressenavn" />
	</node>
	<node lat="59.66662673399255" lon="10.627820700513897" id="-28771">
		<tag k="name" v="Sorenskriver Ellefsens vei" />
		<tag k="ssr:date" v="2019-12-27" />
		<tag k="ssr:gruppe" v="veg" />
		<tag k="ssr:hovedgruppe" v="infrastruktur" />
		<tag k="ssr:stedsnr" v="1068110" />
		<tag k="ssr:type" v="adressenavn" />
	</node>
	<node lat="59.66291272010139" lon="10.654239927658578" id="-28772">
		<tag k="name" v="Spurvefaret" />
		<tag k="ssr:date" v="2019-12-27" />
		<tag k="ssr:gruppe" v="veg" />
		<tag k="ssr:hovedgruppe" v="infrastruktur" />
		<tag k="ssr:stedsnr" v="1068079" />
		<tag k="ssr:type" v="adressenavn" />
	</node>
	<node lat="59.65868701271103" lon="10.630328789192966" id="-28773">
		<tag k="name" v="Storgata" />
		<tag k="ssr:date" v="2019-12-27" />
		<tag k="ssr:gruppe" v="veg" />
		<tag k="ssr:hovedgruppe" v="infrastruktur" />
		<tag k="ssr:stedsnr" v="1068085" />
		<tag k="ssr:type" v="adressenavn" />
	</node>
	<node lat="59.66004553346668" lon="10.649813214538497" id="-28774">
		<tag k="name" v="Traneveien" />
		<tag k="ssr:date" v="2019-12-27" />
		<tag k="ssr:gruppe" v="veg" />
		<tag k="ssr:hovedgruppe" v="infrastruktur" />
		<tag k="ssr:stedsnr" v="1068146" />
		<tag k="ssr:type" v="adressenavn" />
	</node>
	<node lat="59.685125906330164" lon="10.652699136168934" id="-28775">
		<tag k="name" v="Tors vei" />
		<tag k="ssr:date" v="2019-12-27" />
		<tag k="ssr:gruppe" v="veg" />
		<tag k="ssr:hovedgruppe" v="infrastruktur" />
		<tag k="ssr:stedsnr" v="1068174" />
		<tag k="ssr:type" v="adressenavn" />
	</node>
	<node lat="59.66341378565506" lon="10.629978753376218" id="-28776">
		<tag k="name" v="Torggata" />
		<tag k="ssr:date" v="2019-12-27" />
		<tag k="ssr:gruppe" v="veg" />
		<tag k="ssr:hovedgruppe" v="infrastruktur" />
		<tag k="ssr:stedsnr" v="1068245" />
		<tag k="ssr:type" v="adressenavn" />
	</node>
	<node lat="59.684395638534255" lon="10.63315267175665" id="-28777">
		<tag k="name" v="Gylteåstoppen" />
		<tag k="ssr:date" v="2019-12-27" />
		<tag k="ssr:gruppe" v="veg" />
		<tag k="ssr:hovedgruppe" v="infrastruktur" />
		<tag k="ssr:stedsnr" v="1068273" />
		<tag k="ssr:type" v="adressenavn" />
	</node>
	<node lat="59.66066844059847" lon="10.630062198183126" id="-28778">
		<tag k="name" v="Tranga" />
		<tag k="ssr:date" v="2019-12-27" />
		<tag k="ssr:gruppe" v="veg" />
		<tag k="ssr:hovedgruppe" v="infrastruktur" />
		<tag k="ssr:stedsnr" v="1068131" />
		<tag k="ssr:type" v="adressenavn" />
	</node>
	<node lat="59.658080401657756" lon="10.64204292455351" id="-28779">
		<tag k="name" v="Tomtefaret" />
		<tag k="ssr:date" v="2019-12-27" />
		<tag k="ssr:gruppe" v="veg" />
		<tag k="ssr:hovedgruppe" v="infrastruktur" />
		<tag k="ssr:stedsnr" v="1068294" />
		<tag k="ssr:type" v="adressenavn" />
	</node>
	<node lat="59.65878494379742" lon="10.630304487323421" id="-28780">
		<tag k="name" v="Tollbubakken" />
		<tag k="ssr:date" v="2019-12-27" />
		<tag k="ssr:gruppe" v="veg" />
		<tag k="ssr:hovedgruppe" v="infrastruktur" />
		<tag k="ssr:stedsnr" v="1068333" />
		<tag k="ssr:type" v="adressenavn" />
	</node>
	<node lat="59.662931899910724" lon="10.629505341078875" id="-28781">
		<tag k="name" v="Torget" />
		<tag k="ssr:date" v="2019-12-27" />
		<tag k="ssr:gruppe" v="veg" />
		<tag k="ssr:hovedgruppe" v="infrastruktur" />
		<tag k="ssr:stedsnr" v="1068285" />
		<tag k="ssr:type" v="adressenavn" />
	</node>
	<node lat="59.66050909523453" lon="10.652074084725577" id="-28782">
		<tag k="name" v="Tiurveien" />
		<tag k="ssr:date" v="2019-12-27" />
		<tag k="ssr:gruppe" v="veg" />
		<tag k="ssr:hovedgruppe" v="infrastruktur" />
		<tag k="ssr:stedsnr" v="1068357" />
		<tag k="ssr:type" v="adressenavn" />
	</node>
	<node lat="59.65210189861923" lon="10.635366293801278" id="-28784">
		<tag k="name" v="Sjøstuveien" />
		<tag k="ssr:date" v="2019-12-27" />
		<tag k="ssr:gruppe" v="veg" />
		<tag k="ssr:hovedgruppe" v="infrastruktur" />
		<tag k="ssr:stedsnr" v="1068451" />
		<tag k="ssr:type" v="adressenavn" />
	</node>
	<node lat="59.657479109311424" lon="10.64410603738933" id="-28785">
		<tag k="name" v="Seljeveien" />
		<tag k="ssr:date" v="2019-12-27" />
		<tag k="ssr:gruppe" v="veg" />
		<tag k="ssr:hovedgruppe" v="infrastruktur" />
		<tag k="ssr:stedsnr" v="1068464" />
		<tag k="ssr:type" v="adressenavn" />
	</node>
	<node lat="59.68424380920933" lon="10.652863421627728" id="-28786">
		<tag k="name" v="Sigyns vei" />
		<tag k="ssr:date" v="2019-12-27" />
		<tag k="ssr:gruppe" v="veg" />
		<tag k="ssr:hovedgruppe" v="infrastruktur" />
		<tag k="ssr:stedsnr" v="1068470" />
		<tag k="ssr:type" v="adressenavn" />
	</node>
	<node lat="59.665560113421954" lon="10.628517969068302" id="-28787">
		<tag k="name" v="Seimbakken" />
		<tag k="ssr:date" v="2019-12-27" />
		<tag k="ssr:gruppe" v="veg" />
		<tag k="ssr:hovedgruppe" v="infrastruktur" />
		<tag k="ssr:stedsnr" v="1068474" />
		<tag k="ssr:type" v="adressenavn" />
	</node>
	<node lat="59.663627836600455" lon="10.64523199289917" id="-28788">
		<tag k="name" v="Skogroveien" />
		<tag k="ssr:date" v="2019-12-27" />
		<tag k="ssr:gruppe" v="veg" />
		<tag k="ssr:hovedgruppe" v="infrastruktur" />
		<tag k="ssr:stedsnr" v="1068397" />
		<tag k="ssr:type" v="adressenavn" />
	</node>
	<node lat="59.669190521095125" lon="10.62469707535194" id="-28789">
		<tag k="name" v="Skipperveien" />
		<tag k="ssr:date" v="2019-12-27" />
		<tag k="ssr:gruppe" v="veg" />
		<tag k="ssr:hovedgruppe" v="infrastruktur" />
		<tag k="ssr:stedsnr" v="1068400" />
		<tag k="ssr:type" v="adressenavn" />
	</node>
	<node lat="59.68006053728485" lon="10.657174317873208" id="-28791">
		<tag k="name" v="Skanseveien" />
		<tag k="ssr:date" v="2019-12-27" />
		<tag k="ssr:gruppe" v="veg" />
		<tag k="ssr:hovedgruppe" v="infrastruktur" />
		<tag k="ssr:stedsnr" v="1068420" />
		<tag k="ssr:type" v="adressenavn" />
	</node>
	<node lat="59.66527731036586" lon="10.633871791353242" id="-28792">
		<tag k="name" v="Seierstenveien" />
		<tag k="ssr:date" v="2019-12-27" />
		<tag k="ssr:gruppe" v="veg" />
		<tag k="ssr:hovedgruppe" v="infrastruktur" />
		<tag k="ssr:stedsnr" v="1068498" />
		<tag k="ssr:type" v="adressenavn" />
	</node>
	<node lat="59.66922839074921" lon="10.638785022730746" id="-28793">
		<tag k="name" v="Solefallsveien" />
		<tag k="ssr:date" v="2019-12-27" />
		<tag k="ssr:gruppe" v="veg" />
		<tag k="ssr:hovedgruppe" v="infrastruktur" />
		<tag k="ssr:stedsnr" v="1068518" />
		<tag k="ssr:type" v="adressenavn" />
	</node>
	<node lat="59.6530221042177" lon="10.639530421229612" id="-28795">
		<tag k="name" v="Sogstiveien" />
		<tag k="ssr:date" v="2019-12-27" />
		<tag k="ssr:gruppe" v="veg" />
		<tag k="ssr:hovedgruppe" v="infrastruktur" />
		<tag k="ssr:stedsnr" v="1068588" />
		<tag k="ssr:type" v="adressenavn" />
	</node>
	<node lat="59.67291666655127" lon="10.626823866290902" id="-28797">
		<tag k="name" v="Slyngveien" />
		<tag k="ssr:date" v="2019-12-27" />
		<tag k="ssr:gruppe" v="veg" />
		<tag k="ssr:hovedgruppe" v="infrastruktur" />
		<tag k="ssr:stedsnr" v="1068592" />
		<tag k="ssr:type" v="adressenavn" />
	</node>
	<node lat="59.674829023239205" lon="10.650162743046016" id="-28798">
		<tag k="name" v="Smieveien" />
		<tag k="ssr:date" v="2019-12-27" />
		<tag k="ssr:gruppe" v="veg" />
		<tag k="ssr:hovedgruppe" v="infrastruktur" />
		<tag k="ssr:stedsnr" v="1068607" />
		<tag k="ssr:type" v="adressenavn" />
	</node>
	<node lat="59.67040887371046" lon="10.62738293828806" id="-28800">
		<tag k="name" v="Solveien" />
		<tag k="ssr:date" v="2019-12-27" />
		<tag k="ssr:gruppe" v="veg" />
		<tag k="ssr:hovedgruppe" v="infrastruktur" />
		<tag k="ssr:stedsnr" v="1068567" />
		<tag k="ssr:type" v="adressenavn" />
	</node>
	<node lat="59.65541881992125" lon="10.63680499259362" id="-28801">
		<tag k="name" v="Sogstikollen" />
		<tag k="ssr:date" v="2019-12-27" />
		<tag k="ssr:gruppe" v="veg" />
		<tag k="ssr:hovedgruppe" v="infrastruktur" />
		<tag k="ssr:stedsnr" v="1068576" />
		<tag k="ssr:type" v="adressenavn" />
	</node>
	<node lat="59.65841970817233" lon="10.649055643994" id="-28804">
		<tag k="name" v="Skorkebergåsen" />
		<tag k="ssr:date" v="2019-12-27" />
		<tag k="ssr:gruppe" v="veg" />
		<tag k="ssr:hovedgruppe" v="infrastruktur" />
		<tag k="ssr:stedsnr" v="1068649" />
		<tag k="ssr:type" v="adressenavn" />
	</node>
	<node lat="59.65065221981469" lon="10.64173425304567" id="-28805">
		<tag k="name" v="Skogveien" />
		<tag k="ssr:date" v="2019-12-27" />
		<tag k="ssr:gruppe" v="veg" />
		<tag k="ssr:hovedgruppe" v="infrastruktur" />
		<tag k="ssr:stedsnr" v="1068657" />
		<tag k="ssr:type" v="adressenavn" />
	</node>
	<node lat="59.67426236413636" lon="10.629546478733179" id="-28806">
		<tag k="name" v="Åsenveien" />
		<tag k="ssr:date" v="2019-12-27" />
		<tag k="ssr:gruppe" v="veg" />
		<tag k="ssr:hovedgruppe" v="infrastruktur" />
		<tag k="ssr:stedsnr" v="1068676" />
		<tag k="ssr:type" v="adressenavn" />
	</node>
	<node lat="59.65363600283449" lon="10.640196888447228" id="-28807">
		<tag k="name" v="Veståsveien" />
		<tag k="ssr:date" v="2019-12-27" />
		<tag k="ssr:gruppe" v="veg" />
		<tag k="ssr:hovedgruppe" v="infrastruktur" />
		<tag k="ssr:stedsnr" v="1068845" />
		<tag k="ssr:type" v="adressenavn" />
	</node>
	<node lat="59.685382175307" lon="10.652888188542976" id="-28808">
		<tag k="name" v="Sleipners vei" />
		<tag k="ssr:date" v="2019-12-27" />
		<tag k="ssr:gruppe" v="veg" />
		<tag k="ssr:hovedgruppe" v="infrastruktur" />
		<tag k="ssr:stedsnr" v="1068618" />
		<tag k="ssr:type" v="adressenavn" />
	</node>
	<node lat="59.65882416215171" lon="10.64640343866921" id="-28809">
		<tag k="name" v="Skorkeberg alle" />
		<tag k="ssr:date" v="2019-12-27" />
		<tag k="ssr:gruppe" v="veg" />
		<tag k="ssr:hovedgruppe" v="infrastruktur" />
		<tag k="ssr:stedsnr" v="1068631" />
		<tag k="ssr:type" v="adressenavn" />
	</node>
	<node lat="59.66618049495437" lon="10.659994986177095" id="-28813">
		<tag k="name" v="Åsveien" />
		<tag k="ssr:date" v="2019-12-27" />
		<tag k="ssr:gruppe" v="veg" />
		<tag k="ssr:hovedgruppe" v="infrastruktur" />
		<tag k="ssr:stedsnr" v="1068699" />
		<tag k="ssr:type" v="adressenavn" />
	</node>
	<node lat="59.66729961121928" lon="10.629821417072005" id="-28814">
		<tag k="name" v="Øvre Villaveien" />
		<tag k="ssr:date" v="2019-12-27" />
		<tag k="ssr:gruppe" v="veg" />
		<tag k="ssr:hovedgruppe" v="infrastruktur" />
		<tag k="ssr:stedsnr" v="1068717" />
		<tag k="ssr:type" v="adressenavn" />
	</node>
	<node lat="59.65390868526449" lon="10.653662271646263" id="-28815">
		<tag k="name" v="Øierudbråten" />
		<tag k="ssr:date" v="2019-12-27" />
		<tag k="ssr:gruppe" v="veg" />
		<tag k="ssr:hovedgruppe" v="infrastruktur" />
		<tag k="ssr:stedsnr" v="1068722" />
		<tag k="ssr:type" v="adressenavn" />
	</node>
	<node lat="59.64157474573801" lon="10.64255819119577" id="-28816">
		<tag k="name" v="Ytre Elleodden" />
		<tag k="ssr:date" v="2019-12-27" />
		<tag k="ssr:gruppe" v="veg" />
		<tag k="ssr:hovedgruppe" v="infrastruktur" />
		<tag k="ssr:stedsnr" v="1068727" />
		<tag k="ssr:type" v="adressenavn" />
	</node>
	<node lat="59.669421556228535" lon="10.637203171778" id="-28818">
		<tag k="name" v="Vollveien" />
		<tag k="ssr:date" v="2019-12-27" />
		<tag k="ssr:gruppe" v="veg" />
		<tag k="ssr:hovedgruppe" v="infrastruktur" />
		<tag k="ssr:stedsnr" v="1068790" />
		<tag k="ssr:type" v="adressenavn" />
	</node>
	<node lat="59.670501805802125" lon="10.625617406122693" id="-28819">
		<tag k="name" v="Vindfangerveien" />
		<tag k="ssr:date" v="2019-12-27" />
		<tag k="ssr:gruppe" v="veg" />
		<tag k="ssr:hovedgruppe" v="infrastruktur" />
		<tag k="ssr:stedsnr" v="1068799" />
		<tag k="ssr:type" v="adressenavn" />
	</node>
	<node lat="59.667341617720176" lon="10.629587169148607" id="-28820">
		<tag k="name" v="Villaveien" />
		<tag k="ssr:date" v="2019-12-27" />
		<tag k="ssr:gruppe" v="veg" />
		<tag k="ssr:hovedgruppe" v="infrastruktur" />
		<tag k="ssr:stedsnr" v="1068914" />
		<tag k="ssr:type" v="adressenavn" />
	</node>
	<node lat="59.66674092464367" lon="10.650695152122365" id="-28829">
		<tag k="name" v="Ullerudhellinga" />
		<tag k="ssr:date" v="2019-12-27" />
		<tag k="ssr:gruppe" v="veg" />
		<tag k="ssr:hovedgruppe" v="infrastruktur" />
		<tag k="ssr:stedsnr" v="1069177" />
		<tag k="ssr:type" v="adressenavn" />
	</node>
	<node lat="59.66622947666964" lon="10.652028872906396" id="-28830">
		<tag k="name" v="Ullerudfaret" />
		<tag k="ssr:date" v="2019-12-27" />
		<tag k="ssr:gruppe" v="veg" />
		<tag k="ssr:hovedgruppe" v="infrastruktur" />
		<tag k="ssr:stedsnr" v="1069182" />
		<tag k="ssr:type" v="adressenavn" />
	</node>
	<node lat="59.68454962827784" lon="10.657421059266653" id="-28831">
		<tag k="name" v="Tyrihansveien" />
		<tag k="ssr:date" v="2019-12-27" />
		<tag k="ssr:gruppe" v="veg" />
		<tag k="ssr:hovedgruppe" v="infrastruktur" />
		<tag k="ssr:stedsnr" v="1069241" />
		<tag k="ssr:type" v="adressenavn" />
	</node>
	<node lat="59.6823811670994" lon="10.629680337069114" id="-28832">
		<tag k="name" v="Tverrbakken" />
		<tag k="ssr:date" v="2019-12-27" />
		<tag k="ssr:gruppe" v="veg" />
		<tag k="ssr:hovedgruppe" v="infrastruktur" />
		<tag k="ssr:stedsnr" v="1069260" />
		<tag k="ssr:type" v="adressenavn" />
	</node>
	<node lat="59.662437418954646" lon="10.638142145740021" id="-28833">
		<tag k="name" v="Tverkjeglaveien" />
		<tag k="ssr:date" v="2019-12-27" />
		<tag k="ssr:gruppe" v="veg" />
		<tag k="ssr:hovedgruppe" v="infrastruktur" />
		<tag k="ssr:stedsnr" v="1069283" />
		<tag k="ssr:type" v="adressenavn" />
	</node>
	<node lat="59.66573531434197" lon="10.64515637999104" id="-28835">
		<tag k="name" v="Ullerudbakken" />
		<tag k="ssr:date" v="2019-12-27" />
		<tag k="ssr:gruppe" v="veg" />
		<tag k="ssr:hovedgruppe" v="infrastruktur" />
		<tag k="ssr:stedsnr" v="1069189" />
		<tag k="ssr:type" v="adressenavn" />
	</node>
	<node lat="59.66713669619875" lon="10.644664115358285" id="-28837">
		<tag k="name" v="Ullerudveien" />
		<tag k="ssr:date" v="2019-12-27" />
		<tag k="ssr:gruppe" v="veg" />
		<tag k="ssr:hovedgruppe" v="infrastruktur" />
		<tag k="ssr:stedsnr" v="1069204" />
		<tag k="ssr:type" v="adressenavn" />
	</node>
	<node lat="59.66261150727964" lon="10.646381347123825" id="-28838">
		<tag k="name" v="Ullerudåsen" />
		<tag k="ssr:date" v="2019-12-27" />
		<tag k="ssr:gruppe" v="veg" />
		<tag k="ssr:hovedgruppe" v="infrastruktur" />
		<tag k="ssr:stedsnr" v="1069210" />
		<tag k="ssr:type" v="adressenavn" />
	</node>
	<node lat="59.66483186638477" lon="10.65042561689026" id="-28839">
		<tag k="name" v="Ullerudkroken" />
		<tag k="ssr:date" v="2019-12-27" />
		<tag k="ssr:gruppe" v="veg" />
		<tag k="ssr:hovedgruppe" v="infrastruktur" />
		<tag k="ssr:stedsnr" v="1069215" />
		<tag k="ssr:type" v="adressenavn" />
	</node>
	<node lat="59.66435916312215" lon="10.64146841868169" id="-28840">
		<tag k="name" v="Ullerudstien" />
		<tag k="ssr:date" v="2019-12-27" />
		<tag k="ssr:gruppe" v="veg" />
		<tag k="ssr:hovedgruppe" v="infrastruktur" />
		<tag k="ssr:stedsnr" v="1069221" />
		<tag k="ssr:type" v="adressenavn" />
	</node>
	<node lat="59.659388807547806" lon="10.643259035660119" id="-28842">
		<tag k="name" v="Tussefaret" />
		<tag k="ssr:date" v="2019-12-27" />
		<tag k="ssr:gruppe" v="veg" />
		<tag k="ssr:hovedgruppe" v="infrastruktur" />
		<tag k="ssr:stedsnr" v="1069293" />
		<tag k="ssr:type" v="adressenavn" />
	</node>
	<node lat="59.67098804888493" lon="10.639255218462276" id="-28843">
		<tag k="name" v="Tunveien" />
		<tag k="ssr:date" v="2019-12-27" />
		<tag k="ssr:gruppe" v="veg" />
		<tag k="ssr:hovedgruppe" v="infrastruktur" />
		<tag k="ssr:stedsnr" v="1069334" />
		<tag k="ssr:type" v="adressenavn" />
	</node>
	<node lat="59.68285985921515" lon="10.658557748064696" id="-28844">
		<tag k="name" v="Trollveien" />
		<tag k="ssr:date" v="2019-12-27" />
		<tag k="ssr:gruppe" v="veg" />
		<tag k="ssr:hovedgruppe" v="infrastruktur" />
		<tag k="ssr:stedsnr" v="1069398" />
		<tag k="ssr:type" v="adressenavn" />
	</node>
	<node lat="59.6587136133825" lon="10.640126647702802" id="-28845">
		<tag k="name" v="Trollstigen" />
		<tag k="ssr:date" v="2019-12-27" />
		<tag k="ssr:gruppe" v="veg" />
		<tag k="ssr:hovedgruppe" v="infrastruktur" />
		<tag k="ssr:stedsnr" v="1069429" />
		<tag k="ssr:type" v="adressenavn" />
	</node>
	<node lat="59.68573501117823" lon="10.6567105029048" id="-28846">
		<tag k="name" v="Tryms vei" />
		<tag k="ssr:date" v="2019-12-27" />
		<tag k="ssr:gruppe" v="veg" />
		<tag k="ssr:hovedgruppe" v="infrastruktur" />
		<tag k="ssr:stedsnr" v="1069382" />
		<tag k="ssr:type" v="adressenavn" />
	</node>
	<node lat="59.64898913338449" lon="10.666102914297934" id="-28847">
		<tag k="name" v="Vestbyveien" />
		<tag k="ssr:date" v="2019-12-27" />
		<tag k="ssr:gruppe" v="veg" />
		<tag k="ssr:hovedgruppe" v="infrastruktur" />
		<tag k="ssr:stedsnr" v="1069463" />
		<tag k="ssr:type" v="adressenavn" />
	</node>
	<node lat="59.650269473030015" lon="10.642579037243468" id="-28848">
		<tag k="name" v="Vardeveien" />
		<tag k="ssr:date" v="2019-12-27" />
		<tag k="ssr:gruppe" v="veg" />
		<tag k="ssr:hovedgruppe" v="infrastruktur" />
		<tag k="ssr:stedsnr" v="1069472" />
		<tag k="ssr:type" v="adressenavn" />
	</node>
	<node lat="59.67355408729387" lon="10.629440619633183" id="-28849">
		<tag k="name" v="Vannverksveien" />
		<tag k="ssr:date" v="2019-12-27" />
		<tag k="ssr:gruppe" v="veg" />
		<tag k="ssr:hovedgruppe" v="infrastruktur" />
		<tag k="ssr:stedsnr" v="1069517" />
		<tag k="ssr:type" v="adressenavn" />
	</node>
	<node lat="59.68319152007518" lon="10.651102251266106" id="-28850">
		<tag k="name" v="Valvas vei" />
		<tag k="ssr:date" v="2019-12-27" />
		<tag k="ssr:gruppe" v="veg" />
		<tag k="ssr:hovedgruppe" v="infrastruktur" />
		<tag k="ssr:stedsnr" v="1069596" />
		<tag k="ssr:type" v="adressenavn" />
	</node>
	<node lat="59.66993006811254" lon="10.671256147973612" id="-28853">
		<tag k="name" v="Tomtaveien" />
		<tag k="ssr:date" v="2019-12-27" />
		<tag k="ssr:gruppe" v="veg" />
		<tag k="ssr:hovedgruppe" v="infrastruktur" />
		<tag k="ssr:stedsnr" v="1069756" />
		<tag k="ssr:type" v="adressenavn" />
	</node>
	<node lat="59.67729906165175" lon="10.661111518763166" id="-28854">
		<tag k="name" v="Kykkelsrudveien" />
		<tag k="ssr:date" v="2019-12-27" />
		<tag k="ssr:gruppe" v="veg" />
		<tag k="ssr:hovedgruppe" v="infrastruktur" />
		<tag k="ssr:stedsnr" v="1069757" />
		<tag k="ssr:type" v="adressenavn" />
	</node>
	<node lat="59.68294004398009" lon="10.650781185365105" id="-28855">
		<tag k="name" v="Urds vei" />
		<tag k="ssr:date" v="2019-12-27" />
		<tag k="ssr:gruppe" v="veg" />
		<tag k="ssr:hovedgruppe" v="infrastruktur" />
		<tag k="ssr:stedsnr" v="1069688" />
		<tag k="ssr:type" v="adressenavn" />
	</node>
	<node lat="59.6485586424727" lon="10.668034028781015" id="-28858">
		<tag k="name" v="Haveråsveien" />
		<tag k="ssr:date" v="2019-12-27" />
		<tag k="ssr:gruppe" v="veg" />
		<tag k="ssr:hovedgruppe" v="infrastruktur" />
		<tag k="ssr:stedsnr" v="1069797" />
		<tag k="ssr:type" v="adressenavn" />
	</node>
	<node lat="59.64792770630802" lon="10.66864721532923" id="-28859">
		<tag k="name" v="Haverløkka" />
		<tag k="ssr:date" v="2019-12-27" />
		<tag k="ssr:gruppe" v="veg" />
		<tag k="ssr:hovedgruppe" v="infrastruktur" />
		<tag k="ssr:stedsnr" v="1069798" />
		<tag k="ssr:type" v="adressenavn" />
	</node>
	<node lat="59.68602284400387" lon="10.653713872392148" id="-28860">
		<tag k="name" v="Valhallveien" />
		<tag k="ssr:date" v="2019-12-27" />
		<tag k="ssr:gruppe" v="veg" />
		<tag k="ssr:hovedgruppe" v="infrastruktur" />
		<tag k="ssr:stedsnr" v="1069638" />
		<tag k="ssr:type" v="adressenavn" />
	</node>
	<node lat="59.672665391677455" lon="10.629797431538078" id="-28861">
		<tag k="name" v="Utsikten" />
		<tag k="ssr:date" v="2019-12-27" />
		<tag k="ssr:gruppe" v="veg" />
		<tag k="ssr:hovedgruppe" v="infrastruktur" />
		<tag k="ssr:stedsnr" v="1069647" />
		<tag k="ssr:type" v="adressenavn" />
	</node>
	<node lat="59.61642490641043" lon="10.655847696812435" id="-28876">
		<tag k="name" v="Isbakken" />
		<tag k="ssr:date" v="2019-12-27" />
		<tag k="ssr:gruppe" v="veg" />
		<tag k="ssr:hovedgruppe" v="infrastruktur" />
		<tag k="ssr:stedsnr" v="1070036" />
		<tag k="ssr:type" v="adressenavn" />
	</node>
	<node lat="59.62501713419592" lon="10.654879647035736" id="-28877">
		<tag k="name" v="Ringveien" />
		<tag k="ssr:date" v="2019-12-27" />
		<tag k="ssr:gruppe" v="veg" />
		<tag k="ssr:hovedgruppe" v="infrastruktur" />
		<tag k="ssr:stedsnr" v="1070038" />
		<tag k="ssr:type" v="adressenavn" />
	</node>
	<node lat="59.62596468400051" lon="10.654000176713394" id="-28878">
		<tag k="name" v="Nedreveien" />
		<tag k="ssr:date" v="2019-12-27" />
		<tag k="ssr:gruppe" v="veg" />
		<tag k="ssr:hovedgruppe" v="infrastruktur" />
		<tag k="ssr:stedsnr" v="1070041" />
		<tag k="ssr:type" v="adressenavn" />
	</node>
	<node lat="59.62685040105153" lon="10.657954042028546" id="-28879">
		<tag k="name" v="Øvreveien" />
		<tag k="ssr:date" v="2019-12-27" />
		<tag k="ssr:gruppe" v="veg" />
		<tag k="ssr:hovedgruppe" v="infrastruktur" />
		<tag k="ssr:stedsnr" v="1070013" />
		<tag k="ssr:type" v="adressenavn" />
	</node>
	<node lat="59.61521049652143" lon="10.658210646677249" id="-28880">
		<tag k="name" v="Tråkka" />
		<tag k="ssr:date" v="2019-12-27" />
		<tag k="ssr:gruppe" v="veg" />
		<tag k="ssr:hovedgruppe" v="infrastruktur" />
		<tag k="ssr:stedsnr" v="1070015" />
		<tag k="ssr:type" v="adressenavn" />
	</node>
	<node lat="59.62685040105153" lon="10.657954042028546" id="-28881">
		<tag k="name" v="Solbergstrandveien" />
		<tag k="ssr:date" v="2019-12-27" />
		<tag k="ssr:gruppe" v="veg" />
		<tag k="ssr:hovedgruppe" v="infrastruktur" />
		<tag k="ssr:stedsnr" v="1070017" />
		<tag k="ssr:type" v="adressenavn" />
	</node>
	<node lat="59.615743587730556" lon="10.654633114578573" id="-28882">
		<tag k="name" v="Sagakollen" />
		<tag k="ssr:date" v="2019-12-27" />
		<tag k="ssr:gruppe" v="veg" />
		<tag k="ssr:hovedgruppe" v="infrastruktur" />
		<tag k="ssr:stedsnr" v="1070018" />
		<tag k="ssr:type" v="adressenavn" />
	</node>
	<node lat="59.61522240965414" lon="10.658306904013557" id="-28886">
		<tag k="name" v="Løkkeveien" />
		<tag k="ssr:date" v="2019-12-27" />
		<tag k="ssr:gruppe" v="veg" />
		<tag k="ssr:hovedgruppe" v="infrastruktur" />
		<tag k="ssr:stedsnr" v="1070029" />
		<tag k="ssr:type" v="adressenavn" />
	</node>
	<node lat="59.617054558662765" lon="10.655744952785218" id="-28887">
		<tag k="name" v="Kjøitakroken" />
		<tag k="ssr:date" v="2019-12-27" />
		<tag k="ssr:gruppe" v="veg" />
		<tag k="ssr:hovedgruppe" v="infrastruktur" />
		<tag k="ssr:stedsnr" v="1070031" />
		<tag k="ssr:type" v="adressenavn" />
	</node>
	<node lat="59.62102377474453" lon="10.65430841789116" id="-28888">
		<tag k="name" v="Karl Sagas vei" />
		<tag k="ssr:date" v="2019-12-27" />
		<tag k="ssr:gruppe" v="veg" />
		<tag k="ssr:hovedgruppe" v="infrastruktur" />
		<tag k="ssr:stedsnr" v="1070034" />
		<tag k="ssr:type" v="adressenavn" />
	</node>
	<node lat="59.631229546277446" lon="10.645466467638006" id="-28889">
		<tag k="name" v="Nordstubben" />
		<tag k="ssr:date" v="2019-12-27" />
		<tag k="ssr:gruppe" v="veg" />
		<tag k="ssr:hovedgruppe" v="infrastruktur" />
		<tag k="ssr:stedsnr" v="1070088" />
		<tag k="ssr:type" v="adressenavn" />
	</node>
	<node lat="59.6293693761686" lon="10.646264403489806" id="-28890">
		<tag k="name" v="Lensmannsveien" />
		<tag k="ssr:date" v="2019-12-27" />
		<tag k="ssr:gruppe" v="veg" />
		<tag k="ssr:hovedgruppe" v="infrastruktur" />
		<tag k="ssr:stedsnr" v="1070089" />
		<tag k="ssr:type" v="adressenavn" />
	</node>
	<node lat="59.63194983780655" lon="10.65068852075773" id="-28891">
		<tag k="name" v="Kroklia" />
		<tag k="ssr:date" v="2019-12-27" />
		<tag k="ssr:gruppe" v="veg" />
		<tag k="ssr:hovedgruppe" v="infrastruktur" />
		<tag k="ssr:stedsnr" v="1070090" />
		<tag k="ssr:type" v="adressenavn" />
	</node>
	<node lat="59.627917082962504" lon="10.649918921809055" id="-28892">
		<tag k="name" v="Isdamveien" />
		<tag k="ssr:date" v="2019-12-27" />
		<tag k="ssr:gruppe" v="veg" />
		<tag k="ssr:hovedgruppe" v="infrastruktur" />
		<tag k="ssr:stedsnr" v="1070092" />
		<tag k="ssr:type" v="adressenavn" />
	</node>
	<node lat="59.63616955431397" lon="10.651649414369713" id="-28893">
		<tag k="name" v="Tennisveien" />
		<tag k="ssr:date" v="2019-12-27" />
		<tag k="ssr:gruppe" v="veg" />
		<tag k="ssr:hovedgruppe" v="infrastruktur" />
		<tag k="ssr:stedsnr" v="1070093" />
		<tag k="ssr:type" v="adressenavn" />
	</node>
	<node lat="59.637583526784944" lon="10.655018147996449" id="-28894">
		<tag k="name" v="Sydveien" />
		<tag k="ssr:date" v="2019-12-27" />
		<tag k="ssr:gruppe" v="veg" />
		<tag k="ssr:hovedgruppe" v="infrastruktur" />
		<tag k="ssr:stedsnr" v="1070094" />
		<tag k="ssr:type" v="adressenavn" />
	</node>
	<node lat="59.629839823159195" lon="10.644406690299366" id="-28895">
		<tag k="name" v="Stranda" />
		<tag k="ssr:date" v="2019-12-27" />
		<tag k="ssr:gruppe" v="veg" />
		<tag k="ssr:hovedgruppe" v="infrastruktur" />
		<tag k="ssr:stedsnr" v="1070096" />
		<tag k="ssr:type" v="adressenavn" />
	</node>
	<node lat="59.630079055071356" lon="10.65130025122884" id="-28896">
		<tag k="name" v="Rabben" />
		<tag k="ssr:date" v="2019-12-27" />
		<tag k="ssr:gruppe" v="veg" />
		<tag k="ssr:hovedgruppe" v="infrastruktur" />
		<tag k="ssr:stedsnr" v="1070097" />
		<tag k="ssr:type" v="adressenavn" />
	</node>
	<node lat="59.615741792295445" lon="10.656035978853389" id="-28897">
		<tag k="name" v="Mølleveien" />
		<tag k="ssr:date" v="2019-12-27" />
		<tag k="ssr:gruppe" v="veg" />
		<tag k="ssr:hovedgruppe" v="infrastruktur" />
		<tag k="ssr:stedsnr" v="1070043" />
		<tag k="ssr:type" v="adressenavn" />
	</node>
	<node lat="59.62213437223001" lon="10.648805471467545" id="-28898">
		<tag k="name" v="Melkeveien" />
		<tag k="ssr:date" v="2019-12-27" />
		<tag k="ssr:gruppe" v="veg" />
		<tag k="ssr:hovedgruppe" v="infrastruktur" />
		<tag k="ssr:stedsnr" v="1070046" />
		<tag k="ssr:type" v="adressenavn" />
	</node>
	<node lat="59.61704686146127" lon="10.658658532016876" id="-28899">
		<tag k="name" v="Høgåsveien" />
		<tag k="ssr:date" v="2019-12-27" />
		<tag k="ssr:gruppe" v="veg" />
		<tag k="ssr:hovedgruppe" v="infrastruktur" />
		<tag k="ssr:stedsnr" v="1070056" />
		<tag k="ssr:type" v="adressenavn" />
	</node>
	<node lat="59.615807029736395" lon="10.659773634979159" id="-28900">
		<tag k="name" v="Damstuveien" />
		<tag k="ssr:date" v="2019-12-27" />
		<tag k="ssr:gruppe" v="veg" />
		<tag k="ssr:hovedgruppe" v="infrastruktur" />
		<tag k="ssr:stedsnr" v="1070060" />
		<tag k="ssr:type" v="adressenavn" />
	</node>
	<node lat="59.625692061208305" lon="10.656536051928832" id="-28901">
		<tag k="name" v="Krokveien" />
		<tag k="ssr:date" v="2019-12-27" />
		<tag k="ssr:gruppe" v="veg" />
		<tag k="ssr:hovedgruppe" v="infrastruktur" />
		<tag k="ssr:stedsnr" v="1070062" />
		<tag k="ssr:type" v="adressenavn" />
	</node>
	<node lat="59.62323607528461" lon="10.653048757795561" id="-28902">
		<tag k="name" v="Gutua" />
		<tag k="ssr:date" v="2019-12-27" />
		<tag k="ssr:gruppe" v="veg" />
		<tag k="ssr:hovedgruppe" v="infrastruktur" />
		<tag k="ssr:stedsnr" v="1070065" />
		<tag k="ssr:type" v="adressenavn" />
	</node>
	<node lat="59.64333748773313" lon="10.65051438267725" id="-28904">
		<tag k="name" v="Leiumlia" />
		<tag k="ssr:date" v="2019-12-27" />
		<tag k="ssr:gruppe" v="veg" />
		<tag k="ssr:hovedgruppe" v="infrastruktur" />
		<tag k="ssr:stedsnr" v="1070324" />
		<tag k="ssr:type" v="adressenavn" />
	</node>
	<node lat="59.64037267483105" lon="10.648577118828381" id="-28905">
		<tag k="name" v="Leiumkleiva" />
		<tag k="ssr:date" v="2019-12-27" />
		<tag k="ssr:gruppe" v="veg" />
		<tag k="ssr:hovedgruppe" v="infrastruktur" />
		<tag k="ssr:stedsnr" v="1070325" />
		<tag k="ssr:type" v="adressenavn" />
	</node>
	<node lat="59.64261507666379" lon="10.650307134763581" id="-28906">
		<tag k="name" v="Leiumfaret" />
		<tag k="ssr:date" v="2019-12-27" />
		<tag k="ssr:gruppe" v="veg" />
		<tag k="ssr:hovedgruppe" v="infrastruktur" />
		<tag k="ssr:stedsnr" v="1070326" />
		<tag k="ssr:type" v="adressenavn" />
	</node>
	<node lat="59.6404703547589" lon="10.648483117086982" id="-28907">
		<tag k="name" v="Leiumbakken" />
		<tag k="ssr:date" v="2019-12-27" />
		<tag k="ssr:gruppe" v="veg" />
		<tag k="ssr:hovedgruppe" v="infrastruktur" />
		<tag k="ssr:stedsnr" v="1070328" />
		<tag k="ssr:type" v="adressenavn" />
	</node>
	<node lat="59.64192271686113" lon="10.655326564851825" id="-28908">
		<tag k="name" v="Leiumveien" />
		<tag k="ssr:date" v="2019-12-27" />
		<tag k="ssr:gruppe" v="veg" />
		<tag k="ssr:hovedgruppe" v="infrastruktur" />
		<tag k="ssr:stedsnr" v="1070330" />
		<tag k="ssr:type" v="adressenavn" />
	</node>
	<node lat="59.642344885258034" lon="10.65121234427783" id="-28909">
		<tag k="name" v="Leiumtoppen" />
		<tag k="ssr:date" v="2019-12-27" />
		<tag k="ssr:gruppe" v="veg" />
		<tag k="ssr:hovedgruppe" v="infrastruktur" />
		<tag k="ssr:stedsnr" v="1070331" />
		<tag k="ssr:type" v="adressenavn" />
	</node>
	<node lat="59.63893229474688" lon="10.651243280754645" id="-28910">
		<tag k="name" v="Skredderjordet" />
		<tag k="ssr:date" v="2019-12-27" />
		<tag k="ssr:gruppe" v="veg" />
		<tag k="ssr:hovedgruppe" v="infrastruktur" />
		<tag k="ssr:stedsnr" v="1070386" />
		<tag k="ssr:type" v="adressenavn" />
	</node>
	<node lat="59.70707255720005" lon="10.632468053601634" id="-28911">
		<tag k="name" v="Strandmyrbakken" />
		<tag k="ssr:date" v="2019-12-27" />
		<tag k="ssr:gruppe" v="veg" />
		<tag k="ssr:hovedgruppe" v="infrastruktur" />
		<tag k="ssr:stedsnr" v="1070487" />
		<tag k="ssr:type" v="adressenavn" />
	</node>
	<node lat="59.70309648218223" lon="10.630910281919766" id="-28912">
		<tag k="name" v="Lundsbakken" />
		<tag k="ssr:date" v="2019-12-27" />
		<tag k="ssr:gruppe" v="veg" />
		<tag k="ssr:hovedgruppe" v="infrastruktur" />
		<tag k="ssr:stedsnr" v="1070489" />
		<tag k="ssr:type" v="adressenavn" />
	</node>
	<node lat="59.70327198393254" lon="10.621884918730123" id="-28913">
		<tag k="name" v="Polleveien" />
		<tag k="ssr:date" v="2019-12-27" />
		<tag k="ssr:gruppe" v="veg" />
		<tag k="ssr:hovedgruppe" v="infrastruktur" />
		<tag k="ssr:stedsnr" v="1070491" />
		<tag k="ssr:type" v="adressenavn" />
	</node>
	<node lat="59.703216907025976" lon="10.622255129662625" id="-28914">
		<tag k="name" v="Damholtet" />
		<tag k="ssr:date" v="2019-12-27" />
		<tag k="ssr:gruppe" v="veg" />
		<tag k="ssr:hovedgruppe" v="infrastruktur" />
		<tag k="ssr:stedsnr" v="1070493" />
		<tag k="ssr:type" v="adressenavn" />
	</node>
	<node lat="59.70686038567546" lon="10.621050424227827" id="-28915">
		<tag k="name" v="Bekkeholtet" />
		<tag k="ssr:date" v="2019-12-27" />
		<tag k="ssr:gruppe" v="veg" />
		<tag k="ssr:hovedgruppe" v="infrastruktur" />
		<tag k="ssr:stedsnr" v="1070494" />
		<tag k="ssr:type" v="adressenavn" />
	</node>
	<node lat="59.70603005506249" lon="10.623814127576583" id="-28916">
		<tag k="name" v="Olsokveien" />
		<tag k="ssr:date" v="2019-12-27" />
		<tag k="ssr:gruppe" v="veg" />
		<tag k="ssr:hovedgruppe" v="infrastruktur" />
		<tag k="ssr:stedsnr" v="1070496" />
		<tag k="ssr:type" v="adressenavn" />
	</node>
	<node lat="59.705000308946296" lon="10.62763182174403" id="-28917">
		<tag k="name" v="Høybråtenbakken" />
		<tag k="ssr:date" v="2019-12-27" />
		<tag k="ssr:gruppe" v="veg" />
		<tag k="ssr:hovedgruppe" v="infrastruktur" />
		<tag k="ssr:stedsnr" v="1070497" />
		<tag k="ssr:type" v="adressenavn" />
	</node>
	<node lat="59.702043481455235" lon="10.625587028161668" id="-28918">
		<tag k="name" v="Konrad Garders vei" />
		<tag k="ssr:date" v="2019-12-27" />
		<tag k="ssr:gruppe" v="veg" />
		<tag k="ssr:hovedgruppe" v="infrastruktur" />
		<tag k="ssr:stedsnr" v="1070502" />
		<tag k="ssr:type" v="adressenavn" />
	</node>
	<node lat="59.70365880652351" lon="10.618148917720012" id="-28919">
		<tag k="name" v="Strandmyrveien" />
		<tag k="ssr:date" v="2019-12-27" />
		<tag k="ssr:gruppe" v="veg" />
		<tag k="ssr:hovedgruppe" v="infrastruktur" />
		<tag k="ssr:stedsnr" v="1070503" />
		<tag k="ssr:type" v="adressenavn" />
	</node>
	<node lat="59.70345103764372" lon="10.622143718657851" id="-28920">
		<tag k="name" v="Hilmars vei" />
		<tag k="ssr:date" v="2019-12-27" />
		<tag k="ssr:gruppe" v="veg" />
		<tag k="ssr:hovedgruppe" v="infrastruktur" />
		<tag k="ssr:stedsnr" v="1070504" />
		<tag k="ssr:type" v="adressenavn" />
	</node>
	<node lat="59.70379585749741" lon="10.625233961032237" id="-28921">
		<tag k="name" v="Henrik Lunds vei" />
		<tag k="ssr:date" v="2019-12-27" />
		<tag k="ssr:gruppe" v="veg" />
		<tag k="ssr:hovedgruppe" v="infrastruktur" />
		<tag k="ssr:stedsnr" v="1070505" />
		<tag k="ssr:type" v="adressenavn" />
	</node>
	<node lat="59.633958774801584" lon="10.647800034315212" id="-28922">
		<tag k="name" v="Blåskjellveien" />
		<tag k="ssr:date" v="2019-12-27" />
		<tag k="ssr:gruppe" v="veg" />
		<tag k="ssr:hovedgruppe" v="infrastruktur" />
		<tag k="ssr:stedsnr" v="1070366" />
		<tag k="ssr:type" v="adressenavn" />
	</node>
	<node lat="59.634568659503294" lon="10.645199807237004" id="-28923">
		<tag k="name" v="Sommerstien" />
		<tag k="ssr:date" v="2019-12-27" />
		<tag k="ssr:gruppe" v="veg" />
		<tag k="ssr:hovedgruppe" v="infrastruktur" />
		<tag k="ssr:stedsnr" v="1070368" />
		<tag k="ssr:type" v="adressenavn" />
	</node>
	<node lat="59.63376411135265" lon="10.647554653649813" id="-28924">
		<tag k="name" v="Lunden" />
		<tag k="ssr:date" v="2019-12-27" />
		<tag k="ssr:gruppe" v="veg" />
		<tag k="ssr:hovedgruppe" v="infrastruktur" />
		<tag k="ssr:stedsnr" v="1070369" />
		<tag k="ssr:type" v="adressenavn" />
	</node>
	<node lat="59.63645892725307" lon="10.650810448585995" id="-28925">
		<tag k="name" v="Måkeveien" />
		<tag k="ssr:date" v="2019-12-27" />
		<tag k="ssr:gruppe" v="veg" />
		<tag k="ssr:hovedgruppe" v="infrastruktur" />
		<tag k="ssr:stedsnr" v="1070370" />
		<tag k="ssr:type" v="adressenavn" />
	</node>
	<node lat="59.632396954432124" lon="10.646745352074246" id="-28926">
		<tag k="name" v="Løvfaret" />
		<tag k="ssr:date" v="2019-12-27" />
		<tag k="ssr:gruppe" v="veg" />
		<tag k="ssr:hovedgruppe" v="infrastruktur" />
		<tag k="ssr:stedsnr" v="1070373" />
		<tag k="ssr:type" v="adressenavn" />
	</node>
	<node lat="59.63703274501709" lon="10.650781016118415" id="-28927">
		<tag k="name" v="Terneveien" />
		<tag k="ssr:date" v="2019-12-27" />
		<tag k="ssr:gruppe" v="veg" />
		<tag k="ssr:hovedgruppe" v="infrastruktur" />
		<tag k="ssr:stedsnr" v="1070374" />
		<tag k="ssr:type" v="adressenavn" />
	</node>
	<node lat="59.635206063387734" lon="10.648993789522711" id="-28928">
		<tag k="name" v="Sommerveien" />
		<tag k="ssr:date" v="2019-12-27" />
		<tag k="ssr:gruppe" v="veg" />
		<tag k="ssr:hovedgruppe" v="infrastruktur" />
		<tag k="ssr:stedsnr" v="1070377" />
		<tag k="ssr:type" v="adressenavn" />
	</node>
	<node lat="59.63194983780655" lon="10.65068852075773" id="-28930">
		<tag k="name" v="Øståsen" />
		<tag k="ssr:date" v="2019-12-27" />
		<tag k="ssr:gruppe" v="veg" />
		<tag k="ssr:hovedgruppe" v="infrastruktur" />
		<tag k="ssr:stedsnr" v="1070379" />
		<tag k="ssr:type" v="adressenavn" />
	</node>
	<node lat="59.63106067465624" lon="10.646583053150877" id="-28931">
		<tag k="name" v="Østbakken" />
		<tag k="ssr:date" v="2019-12-27" />
		<tag k="ssr:gruppe" v="veg" />
		<tag k="ssr:hovedgruppe" v="infrastruktur" />
		<tag k="ssr:stedsnr" v="1070380" />
		<tag k="ssr:type" v="adressenavn" />
	</node>
	<node lat="59.63109642512283" lon="10.646468339123505" id="-28932">
		<tag k="name" v="Vestlia" />
		<tag k="ssr:date" v="2019-12-27" />
		<tag k="ssr:gruppe" v="veg" />
		<tag k="ssr:hovedgruppe" v="infrastruktur" />
		<tag k="ssr:stedsnr" v="1070381" />
		<tag k="ssr:type" v="adressenavn" />
	</node>
	<node lat="59.634976496139814" lon="10.647138864738299" id="-28933">
		<tag k="name" v="Makrellveien" />
		<tag k="ssr:date" v="2019-12-27" />
		<tag k="ssr:gruppe" v="veg" />
		<tag k="ssr:hovedgruppe" v="infrastruktur" />
		<tag k="ssr:stedsnr" v="1070382" />
		<tag k="ssr:type" v="adressenavn" />
	</node>
	<node lat="59.63808068749525" lon="10.652712451755932" id="-28934">
		<tag k="name" v="Sønnavinden" />
		<tag k="ssr:date" v="2019-12-27" />
		<tag k="ssr:gruppe" v="veg" />
		<tag k="ssr:hovedgruppe" v="infrastruktur" />
		<tag k="ssr:stedsnr" v="1070383" />
		<tag k="ssr:type" v="adressenavn" />
	</node>
	<node lat="59.637184929038156" lon="10.65414448559398" id="-28935">
		<tag k="name" v="Skredderveien" />
		<tag k="ssr:date" v="2019-12-27" />
		<tag k="ssr:gruppe" v="veg" />
		<tag k="ssr:hovedgruppe" v="infrastruktur" />
		<tag k="ssr:stedsnr" v="1070385" />
		<tag k="ssr:type" v="adressenavn" />
	</node>
	<node lat="59.7047440591598" lon="10.624526129381877" id="-28936">
		<tag k="name" v="Jonsokveien" />
		<tag k="ssr:date" v="2019-12-27" />
		<tag k="ssr:gruppe" v="veg" />
		<tag k="ssr:hovedgruppe" v="infrastruktur" />
		<tag k="ssr:stedsnr" v="1070480" />
		<tag k="ssr:type" v="adressenavn" />
	</node>
	<node lat="59.70372801298632" lon="10.619250639275814" id="-28937">
		<tag k="name" v="Svartlagveien" />
		<tag k="ssr:date" v="2019-12-27" />
		<tag k="ssr:gruppe" v="veg" />
		<tag k="ssr:hovedgruppe" v="infrastruktur" />
		<tag k="ssr:stedsnr" v="1070481" />
		<tag k="ssr:type" v="adressenavn" />
	</node>
	<node lat="59.70707255720005" lon="10.632468053601634" id="-28938">
		<tag k="name" v="Strandmyrtoppen" />
		<tag k="ssr:date" v="2019-12-27" />
		<tag k="ssr:gruppe" v="veg" />
		<tag k="ssr:hovedgruppe" v="infrastruktur" />
		<tag k="ssr:stedsnr" v="1070482" />
		<tag k="ssr:type" v="adressenavn" />
	</node>
	<node lat="59.707877763303294" lon="10.635308605231213" id="-28939">
		<tag k="name" v="Strandmyrfaret" />
		<tag k="ssr:date" v="2019-12-27" />
		<tag k="ssr:gruppe" v="veg" />
		<tag k="ssr:hovedgruppe" v="infrastruktur" />
		<tag k="ssr:stedsnr" v="1070483" />
		<tag k="ssr:type" v="adressenavn" />
	</node>
	<node lat="59.70249062812469" lon="10.611743101344576" id="-28940">
		<tag k="name" v="Sønderstøveien" />
		<tag k="ssr:date" v="2019-12-27" />
		<tag k="ssr:gruppe" v="veg" />
		<tag k="ssr:hovedgruppe" v="infrastruktur" />
		<tag k="ssr:stedsnr" v="1070536" />
		<tag k="ssr:type" v="adressenavn" />
	</node>
	<node lat="59.703677537822266" lon="10.601312607528481" id="-28941">
		<tag k="name" v="Mollbakken" />
		<tag k="ssr:date" v="2019-12-27" />
		<tag k="ssr:gruppe" v="veg" />
		<tag k="ssr:hovedgruppe" v="infrastruktur" />
		<tag k="ssr:stedsnr" v="1070538" />
		<tag k="ssr:type" v="adressenavn" />
	</node>
	<node lat="59.70233261261968" lon="10.611651370440507" id="-28942">
		<tag k="name" v="Mariveien" />
		<tag k="ssr:date" v="2019-12-27" />
		<tag k="ssr:gruppe" v="veg" />
		<tag k="ssr:hovedgruppe" v="infrastruktur" />
		<tag k="ssr:stedsnr" v="1070539" />
		<tag k="ssr:type" v="adressenavn" />
	</node>
	<node lat="59.705378068105965" lon="10.606720554941107" id="-28943">
		<tag k="name" v="Elgtråkka" />
		<tag k="ssr:date" v="2019-12-27" />
		<tag k="ssr:gruppe" v="veg" />
		<tag k="ssr:hovedgruppe" v="infrastruktur" />
		<tag k="ssr:stedsnr" v="1070541" />
		<tag k="ssr:type" v="adressenavn" />
	</node>
	<node lat="59.70290318568996" lon="10.60321292912196" id="-28944">
		<tag k="name" v="Eikelia" />
		<tag k="ssr:date" v="2019-12-27" />
		<tag k="ssr:gruppe" v="veg" />
		<tag k="ssr:hovedgruppe" v="infrastruktur" />
		<tag k="ssr:stedsnr" v="1070542" />
		<tag k="ssr:type" v="adressenavn" />
	</node>
	<node lat="59.7037134252479" lon="10.604902031725478" id="-28945">
		<tag k="name" v="Dyreskaret" />
		<tag k="ssr:date" v="2019-12-27" />
		<tag k="ssr:gruppe" v="veg" />
		<tag k="ssr:hovedgruppe" v="infrastruktur" />
		<tag k="ssr:stedsnr" v="1070543" />
		<tag k="ssr:type" v="adressenavn" />
	</node>
	<node lat="59.70304953409481" lon="10.60325954301483" id="-28946">
		<tag k="name" v="Båtmannskaret" />
		<tag k="ssr:date" v="2019-12-27" />
		<tag k="ssr:gruppe" v="veg" />
		<tag k="ssr:hovedgruppe" v="infrastruktur" />
		<tag k="ssr:stedsnr" v="1070544" />
		<tag k="ssr:type" v="adressenavn" />
	</node>
	<node lat="59.7103774483409" lon="10.60581369480639" id="-28947">
		<tag k="name" v="Maristien" />
		<tag k="ssr:date" v="2019-12-27" />
		<tag k="ssr:gruppe" v="veg" />
		<tag k="ssr:hovedgruppe" v="infrastruktur" />
		<tag k="ssr:stedsnr" v="1070545" />
		<tag k="ssr:type" v="adressenavn" />
	</node>
	<node lat="59.700691678587894" lon="10.609163813809879" id="-28948">
		<tag k="name" v="Marikollen" />
		<tag k="ssr:date" v="2019-12-27" />
		<tag k="ssr:gruppe" v="veg" />
		<tag k="ssr:hovedgruppe" v="infrastruktur" />
		<tag k="ssr:stedsnr" v="1070546" />
		<tag k="ssr:type" v="adressenavn" />
	</node>
	<node lat="59.711453904633714" lon="10.600294897185924" id="-28949">
		<tag k="name" v="Islia" />
		<tag k="ssr:date" v="2019-12-27" />
		<tag k="ssr:gruppe" v="veg" />
		<tag k="ssr:hovedgruppe" v="infrastruktur" />
		<tag k="ssr:stedsnr" v="1070547" />
		<tag k="ssr:type" v="adressenavn" />
	</node>
	<node lat="59.7048506214622" lon="10.601277481176218" id="-28950">
		<tag k="name" v="Fjordroa" />
		<tag k="ssr:date" v="2019-12-27" />
		<tag k="ssr:gruppe" v="veg" />
		<tag k="ssr:hovedgruppe" v="infrastruktur" />
		<tag k="ssr:stedsnr" v="1070548" />
		<tag k="ssr:type" v="adressenavn" />
	</node>
	<node lat="59.703708759196665" lon="10.604601905276157" id="-28952">
		<tag k="name" v="Revjebakken" />
		<tag k="ssr:date" v="2019-12-27" />
		<tag k="ssr:gruppe" v="veg" />
		<tag k="ssr:hovedgruppe" v="infrastruktur" />
		<tag k="ssr:stedsnr" v="1070535" />
		<tag k="ssr:type" v="adressenavn" />
	</node>
	<node lat="59.70058952139002" lon="10.645902796376182" id="-28956">
		<tag k="name" v="Tomters Øvre vei" />
		<tag k="ssr:date" v="2019-12-27" />
		<tag k="ssr:gruppe" v="veg" />
		<tag k="ssr:hovedgruppe" v="infrastruktur" />
		<tag k="ssr:stedsnr" v="1070715" />
		<tag k="ssr:type" v="adressenavn" />
	</node>
	<node lat="59.70262191689166" lon="10.650805343488397" id="-28957">
		<tag k="name" v="Tomters vei" />
		<tag k="ssr:date" v="2019-12-27" />
		<tag k="ssr:gruppe" v="veg" />
		<tag k="ssr:hovedgruppe" v="infrastruktur" />
		<tag k="ssr:stedsnr" v="1070716" />
		<tag k="ssr:type" v="adressenavn" />
	</node>
	<node lat="59.70244550925288" lon="10.652575838699807" id="-28958">
		<tag k="name" v="Spervikaveien" />
		<tag k="ssr:date" v="2019-12-27" />
		<tag k="ssr:gruppe" v="veg" />
		<tag k="ssr:hovedgruppe" v="infrastruktur" />
		<tag k="ssr:stedsnr" v="1070717" />
		<tag k="ssr:type" v="adressenavn" />
	</node>
	<node lat="59.71822860409347" lon="10.62685537437138" id="-28967">
		<tag k="name" v="Vestgårdsslyngen" />
		<tag k="ssr:date" v="2019-12-27" />
		<tag k="ssr:gruppe" v="veg" />
		<tag k="ssr:hovedgruppe" v="infrastruktur" />
		<tag k="ssr:stedsnr" v="1070578" />
		<tag k="ssr:type" v="adressenavn" />
	</node>
	<node lat="59.71465298553745" lon="10.622396369699686" id="-28968">
		<tag k="name" v="Jordveien" />
		<tag k="ssr:date" v="2019-12-27" />
		<tag k="ssr:gruppe" v="veg" />
		<tag k="ssr:hovedgruppe" v="infrastruktur" />
		<tag k="ssr:stedsnr" v="1070579" />
		<tag k="ssr:type" v="adressenavn" />
	</node>
	<node lat="59.717481402029364" lon="10.625793053548929" id="-28969">
		<tag k="name" v="Hallangsvingen" />
		<tag k="ssr:date" v="2019-12-27" />
		<tag k="ssr:gruppe" v="veg" />
		<tag k="ssr:hovedgruppe" v="infrastruktur" />
		<tag k="ssr:stedsnr" v="1070580" />
		<tag k="ssr:type" v="adressenavn" />
	</node>
	<node lat="59.69647224893714" lon="10.609669016526688" id="-28984">
		<tag k="name" v="Øsekaret" />
		<tag k="ssr:date" v="2019-12-27" />
		<tag k="ssr:gruppe" v="veg" />
		<tag k="ssr:hovedgruppe" v="infrastruktur" />
		<tag k="ssr:stedsnr" v="1070887" />
		<tag k="ssr:type" v="adressenavn" />
	</node>
	<node lat="59.69785576592706" lon="10.610820572799064" id="-28985">
		<tag k="name" v="Kutterstien" />
		<tag k="ssr:date" v="2019-12-27" />
		<tag k="ssr:gruppe" v="veg" />
		<tag k="ssr:hovedgruppe" v="infrastruktur" />
		<tag k="ssr:stedsnr" v="1070888" />
		<tag k="ssr:type" v="adressenavn" />
	</node>
	<node lat="59.696800823871634" lon="10.610965681500712" id="-28986">
		<tag k="name" v="Klyveren" />
		<tag k="ssr:date" v="2019-12-27" />
		<tag k="ssr:gruppe" v="veg" />
		<tag k="ssr:hovedgruppe" v="infrastruktur" />
		<tag k="ssr:stedsnr" v="1070889" />
		<tag k="ssr:type" v="adressenavn" />
	</node>
	<node lat="59.69945955072513" lon="10.603611892573742" id="-28987">
		<tag k="name" v="Kjølstripen" />
		<tag k="ssr:date" v="2019-12-27" />
		<tag k="ssr:gruppe" v="veg" />
		<tag k="ssr:hovedgruppe" v="infrastruktur" />
		<tag k="ssr:stedsnr" v="1070891" />
		<tag k="ssr:type" v="adressenavn" />
	</node>
	<node lat="59.69794769610877" lon="10.610324566321417" id="-28988">
		<tag k="name" v="Kapteinstien" />
		<tag k="ssr:date" v="2019-12-27" />
		<tag k="ssr:gruppe" v="veg" />
		<tag k="ssr:hovedgruppe" v="infrastruktur" />
		<tag k="ssr:stedsnr" v="1070892" />
		<tag k="ssr:type" v="adressenavn" />
	</node>
	<node lat="59.69789048794176" lon="10.611035747668625" id="-28989">
		<tag k="name" v="Råen" />
		<tag k="ssr:date" v="2019-12-27" />
		<tag k="ssr:gruppe" v="veg" />
		<tag k="ssr:hovedgruppe" v="infrastruktur" />
		<tag k="ssr:stedsnr" v="1070893" />
		<tag k="ssr:type" v="adressenavn" />
	</node>
	<node lat="59.696956961181236" lon="10.613557531001954" id="-28990">
		<tag k="name" v="Røylen" />
		<tag k="ssr:date" v="2019-12-27" />
		<tag k="ssr:gruppe" v="veg" />
		<tag k="ssr:hovedgruppe" v="infrastruktur" />
		<tag k="ssr:stedsnr" v="1070895" />
		<tag k="ssr:type" v="adressenavn" />
	</node>
	<node lat="59.69646179147456" lon="10.609759351054095" id="-28991">
		<tag k="name" v="Losleideren" />
		<tag k="ssr:date" v="2019-12-27" />
		<tag k="ssr:gruppe" v="veg" />
		<tag k="ssr:hovedgruppe" v="infrastruktur" />
		<tag k="ssr:stedsnr" v="1070897" />
		<tag k="ssr:type" v="adressenavn" />
	</node>
	<node lat="59.69559874693579" lon="10.614388599652159" id="-28992">
		<tag k="name" v="Laukdalen" />
		<tag k="ssr:date" v="2019-12-27" />
		<tag k="ssr:gruppe" v="veg" />
		<tag k="ssr:hovedgruppe" v="infrastruktur" />
		<tag k="ssr:stedsnr" v="1070898" />
		<tag k="ssr:type" v="adressenavn" />
	</node>
	<node lat="59.7007945421903" lon="10.60619885726388" id="-28993">
		<tag k="name" v="Fallrepet" />
		<tag k="ssr:date" v="2019-12-27" />
		<tag k="ssr:gruppe" v="veg" />
		<tag k="ssr:hovedgruppe" v="infrastruktur" />
		<tag k="ssr:stedsnr" v="1070899" />
		<tag k="ssr:type" v="adressenavn" />
	</node>
	<node lat="59.69883264264932" lon="10.60929058046187" id="-28994">
		<tag k="name" v="Brovingen" />
		<tag k="ssr:date" v="2019-12-27" />
		<tag k="ssr:gruppe" v="veg" />
		<tag k="ssr:hovedgruppe" v="infrastruktur" />
		<tag k="ssr:stedsnr" v="1070900" />
		<tag k="ssr:type" v="adressenavn" />
	</node>
	<node lat="59.7063738063101" lon="10.602652098952646" id="-28995">
		<tag k="name" v="Bjellegrunna" />
		<tag k="ssr:date" v="2019-12-27" />
		<tag k="ssr:gruppe" v="veg" />
		<tag k="ssr:hovedgruppe" v="infrastruktur" />
		<tag k="ssr:stedsnr" v="1070902" />
		<tag k="ssr:type" v="adressenavn" />
	</node>
	<node lat="59.69876406614713" lon="10.60906080438522" id="-28996">
		<tag k="name" v="Bestikken" />
		<tag k="ssr:date" v="2019-12-27" />
		<tag k="ssr:gruppe" v="veg" />
		<tag k="ssr:hovedgruppe" v="infrastruktur" />
		<tag k="ssr:stedsnr" v="1070903" />
		<tag k="ssr:type" v="adressenavn" />
	</node>
	<node lat="59.699906072034445" lon="10.608983764230208" id="-28997">
		<tag k="name" v="Jollebakken" />
		<tag k="ssr:date" v="2019-12-27" />
		<tag k="ssr:gruppe" v="veg" />
		<tag k="ssr:hovedgruppe" v="infrastruktur" />
		<tag k="ssr:stedsnr" v="1070905" />
		<tag k="ssr:type" v="adressenavn" />
	</node>
	<node lat="59.700819067986835" lon="10.606232820715157" id="-28998">
		<tag k="name" v="Fyrglimtet" />
		<tag k="ssr:date" v="2019-12-27" />
		<tag k="ssr:gruppe" v="veg" />
		<tag k="ssr:hovedgruppe" v="infrastruktur" />
		<tag k="ssr:stedsnr" v="1070906" />
		<tag k="ssr:type" v="adressenavn" />
	</node>
	<node lat="59.694877796884924" lon="10.613415773531388" id="-28999">
		<tag k="name" v="Fokken" />
		<tag k="ssr:date" v="2019-12-27" />
		<tag k="ssr:gruppe" v="veg" />
		<tag k="ssr:hovedgruppe" v="infrastruktur" />
		<tag k="ssr:stedsnr" v="1070907" />
		<tag k="ssr:type" v="adressenavn" />
	</node>
	<node lat="59.69485074396947" lon="10.60863453639333" id="-29000">
		<tag k="name" v="Fenderen" />
		<tag k="ssr:date" v="2019-12-27" />
		<tag k="ssr:gruppe" v="veg" />
		<tag k="ssr:hovedgruppe" v="infrastruktur" />
		<tag k="ssr:stedsnr" v="1070909" />
		<tag k="ssr:type" v="adressenavn" />
	</node>
	<node lat="59.702791914816345" lon="10.643609782596391" id="-29002">
		<tag k="name" v="Røeds vei" />
		<tag k="ssr:date" v="2019-12-27" />
		<tag k="ssr:gruppe" v="veg" />
		<tag k="ssr:hovedgruppe" v="infrastruktur" />
		<tag k="ssr:stedsnr" v="1070837" />
		<tag k="ssr:type" v="adressenavn" />
	</node>
	<node lat="59.704244281210805" lon="10.643263435880916" id="-29003">
		<tag k="name" v="Propsveien" />
		<tag k="ssr:date" v="2019-12-27" />
		<tag k="ssr:gruppe" v="veg" />
		<tag k="ssr:hovedgruppe" v="infrastruktur" />
		<tag k="ssr:stedsnr" v="1070838" />
		<tag k="ssr:type" v="adressenavn" />
	</node>
	<node lat="59.70034935763081" lon="10.656339426649817" id="-29004">
		<tag k="name" v="Kleivaveien" />
		<tag k="ssr:date" v="2019-12-27" />
		<tag k="ssr:gruppe" v="veg" />
		<tag k="ssr:hovedgruppe" v="infrastruktur" />
		<tag k="ssr:stedsnr" v="1070839" />
		<tag k="ssr:type" v="adressenavn" />
	</node>
	<node lat="59.701405735826796" lon="10.641273458950348" id="-29005">
		<tag k="name" v="Isveien" />
		<tag k="ssr:date" v="2019-12-27" />
		<tag k="ssr:gruppe" v="veg" />
		<tag k="ssr:hovedgruppe" v="infrastruktur" />
		<tag k="ssr:stedsnr" v="1070841" />
		<tag k="ssr:type" v="adressenavn" />
	</node>
	<node lat="59.69647224893714" lon="10.609669016526688" id="-29006">
		<tag k="name" v="Båtstøtråkket" />
		<tag k="ssr:date" v="2019-12-27" />
		<tag k="ssr:gruppe" v="veg" />
		<tag k="ssr:hovedgruppe" v="infrastruktur" />
		<tag k="ssr:stedsnr" v="1070874" />
		<tag k="ssr:type" v="adressenavn" />
	</node>
	<node lat="59.698836644456804" lon="10.609031536131667" id="-29007">
		<tag k="name" v="Utkikken" />
		<tag k="ssr:date" v="2019-12-27" />
		<tag k="ssr:gruppe" v="veg" />
		<tag k="ssr:hovedgruppe" v="infrastruktur" />
		<tag k="ssr:stedsnr" v="1070876" />
		<tag k="ssr:type" v="adressenavn" />
	</node>
	<node lat="59.69789048794176" lon="10.611035747668625" id="-29008">
		<tag k="name" v="Stortoppen" />
		<tag k="ssr:date" v="2019-12-27" />
		<tag k="ssr:gruppe" v="veg" />
		<tag k="ssr:hovedgruppe" v="infrastruktur" />
		<tag k="ssr:stedsnr" v="1070878" />
		<tag k="ssr:type" v="adressenavn" />
	</node>
	<node lat="59.697782932544264" lon="10.610552194868742" id="-29009">
		<tag k="name" v="Slepet" />
		<tag k="ssr:date" v="2019-12-27" />
		<tag k="ssr:gruppe" v="veg" />
		<tag k="ssr:hovedgruppe" v="infrastruktur" />
		<tag k="ssr:stedsnr" v="1070880" />
		<tag k="ssr:type" v="adressenavn" />
	</node>
	<node lat="59.6970462590782" lon="10.609999399086394" id="-29010">
		<tag k="name" v="Åretaket" />
		<tag k="ssr:date" v="2019-12-27" />
		<tag k="ssr:gruppe" v="veg" />
		<tag k="ssr:hovedgruppe" v="infrastruktur" />
		<tag k="ssr:stedsnr" v="1070882" />
		<tag k="ssr:type" v="adressenavn" />
	</node>
	<node lat="59.69702981362232" lon="10.6100748587356" id="-29011">
		<tag k="name" v="Vantet" />
		<tag k="ssr:date" v="2019-12-27" />
		<tag k="ssr:gruppe" v="veg" />
		<tag k="ssr:hovedgruppe" v="infrastruktur" />
		<tag k="ssr:stedsnr" v="1070884" />
		<tag k="ssr:type" v="adressenavn" />
	</node>
	<node lat="59.692449835530205" lon="10.610487839452063" id="-29012">
		<tag k="name" v="Sandbuktstien" />
		<tag k="ssr:date" v="2019-12-27" />
		<tag k="ssr:gruppe" v="veg" />
		<tag k="ssr:hovedgruppe" v="infrastruktur" />
		<tag k="ssr:stedsnr" v="1071036" />
		<tag k="ssr:type" v="adressenavn" />
	</node>
	<node lat="59.69121648321819" lon="10.61537829589883" id="-29013">
		<tag k="name" v="Myrabakken" />
		<tag k="ssr:date" v="2019-12-27" />
		<tag k="ssr:gruppe" v="veg" />
		<tag k="ssr:hovedgruppe" v="infrastruktur" />
		<tag k="ssr:stedsnr" v="1071039" />
		<tag k="ssr:type" v="adressenavn" />
	</node>
	<node lat="59.69491493007987" lon="10.609189538594956" id="-29014">
		<tag k="name" v="Langebåtveien" />
		<tag k="ssr:date" v="2019-12-27" />
		<tag k="ssr:gruppe" v="veg" />
		<tag k="ssr:hovedgruppe" v="infrastruktur" />
		<tag k="ssr:stedsnr" v="1071043" />
		<tag k="ssr:type" v="adressenavn" />
	</node>
	<node lat="59.69007850529589" lon="10.61947943770672" id="-29015">
		<tag k="name" v="Tiurlibakken" />
		<tag k="ssr:date" v="2019-12-27" />
		<tag k="ssr:gruppe" v="veg" />
		<tag k="ssr:hovedgruppe" v="infrastruktur" />
		<tag k="ssr:stedsnr" v="1071021" />
		<tag k="ssr:type" v="adressenavn" />
	</node>
	<node lat="59.69201388566461" lon="10.611293565641823" id="-29016">
		<tag k="name" v="Svarttrostveien" />
		<tag k="ssr:date" v="2019-12-27" />
		<tag k="ssr:gruppe" v="veg" />
		<tag k="ssr:hovedgruppe" v="infrastruktur" />
		<tag k="ssr:stedsnr" v="1071023" />
		<tag k="ssr:type" v="adressenavn" />
	</node>
	<node lat="59.68998766045854" lon="10.613347711276425" id="-29017">
		<tag k="name" v="Lyksetveien" />
		<tag k="ssr:date" v="2019-12-27" />
		<tag k="ssr:gruppe" v="veg" />
		<tag k="ssr:hovedgruppe" v="infrastruktur" />
		<tag k="ssr:stedsnr" v="1071025" />
		<tag k="ssr:type" v="adressenavn" />
	</node>
	<node lat="59.68978933453927" lon="10.618818731237386" id="-29018">
		<tag k="name" v="Harebakken" />
		<tag k="ssr:date" v="2019-12-27" />
		<tag k="ssr:gruppe" v="veg" />
		<tag k="ssr:hovedgruppe" v="infrastruktur" />
		<tag k="ssr:stedsnr" v="1071027" />
		<tag k="ssr:type" v="adressenavn" />
	</node>
	<node lat="59.6896286263965" lon="10.611139066651019" id="-29019">
		<tag k="name" v="Linjeveien" />
		<tag k="ssr:date" v="2019-12-27" />
		<tag k="ssr:gruppe" v="veg" />
		<tag k="ssr:hovedgruppe" v="infrastruktur" />
		<tag k="ssr:stedsnr" v="1071034" />
		<tag k="ssr:type" v="adressenavn" />
	</node>
	<node lat="59.745897561832955" lon="10.696473120267724" id="-29020">
		<tag k="name" v="Brevikveien" />
		<tag k="ssr:date" v="2019-12-27" />
		<tag k="ssr:gruppe" v="veg" />
		<tag k="ssr:hovedgruppe" v="infrastruktur" />
		<tag k="ssr:stedsnr" v="1071100" />
		<tag k="ssr:type" v="adressenavn" />
	</node>
	<node lat="59.75224402765078" lon="10.712982767668436" id="-29021">
		<tag k="name" v="Bergabakken" />
		<tag k="ssr:date" v="2019-12-27" />
		<tag k="ssr:gruppe" v="veg" />
		<tag k="ssr:hovedgruppe" v="infrastruktur" />
		<tag k="ssr:stedsnr" v="1071101" />
		<tag k="ssr:type" v="adressenavn" />
	</node>
	<node lat="59.68959314687997" lon="10.61537864327274" id="-29022">
		<tag k="name" v="Harelabben" />
		<tag k="ssr:date" v="2019-12-27" />
		<tag k="ssr:gruppe" v="veg" />
		<tag k="ssr:hovedgruppe" v="infrastruktur" />
		<tag k="ssr:stedsnr" v="1071046" />
		<tag k="ssr:type" v="adressenavn" />
	</node>
	<node lat="59.689169856223295" lon="10.617415780143013" id="-29023">
		<tag k="name" v="Ulveveien" />
		<tag k="ssr:date" v="2019-12-27" />
		<tag k="ssr:gruppe" v="veg" />
		<tag k="ssr:hovedgruppe" v="infrastruktur" />
		<tag k="ssr:stedsnr" v="1071048" />
		<tag k="ssr:type" v="adressenavn" />
	</node>
	<node lat="59.69033288938996" lon="10.61122375830217" id="-29024">
		<tag k="name" v="Tiurliveien" />
		<tag k="ssr:date" v="2019-12-27" />
		<tag k="ssr:gruppe" v="veg" />
		<tag k="ssr:hovedgruppe" v="infrastruktur" />
		<tag k="ssr:stedsnr" v="1071050" />
		<tag k="ssr:type" v="adressenavn" />
	</node>
	<node lat="59.68974916161874" lon="10.619868311772839" id="-29025">
		<tag k="name" v="Skafstadveien" />
		<tag k="ssr:date" v="2019-12-27" />
		<tag k="ssr:gruppe" v="veg" />
		<tag k="ssr:hovedgruppe" v="infrastruktur" />
		<tag k="ssr:stedsnr" v="1071053" />
		<tag k="ssr:type" v="adressenavn" />
	</node>
	<node lat="59.69209913439788" lon="10.610673294516827" id="-29026">
		<tag k="name" v="Sandbuktveien" />
		<tag k="ssr:date" v="2019-12-27" />
		<tag k="ssr:gruppe" v="veg" />
		<tag k="ssr:hovedgruppe" v="infrastruktur" />
		<tag k="ssr:stedsnr" v="1071056" />
		<tag k="ssr:type" v="adressenavn" />
	</node>
	<node lat="59.6908061203836" lon="10.610894540500796" id="-29027">
		<tag k="name" v="Grevlingveien" />
		<tag k="ssr:date" v="2019-12-27" />
		<tag k="ssr:gruppe" v="veg" />
		<tag k="ssr:hovedgruppe" v="infrastruktur" />
		<tag k="ssr:stedsnr" v="1071060" />
		<tag k="ssr:type" v="adressenavn" />
	</node>
	<node lat="59.68636467599107" lon="10.613379021896934" id="-29028">
		<tag k="name" v="Godthullia" />
		<tag k="ssr:date" v="2019-12-27" />
		<tag k="ssr:gruppe" v="veg" />
		<tag k="ssr:hovedgruppe" v="infrastruktur" />
		<tag k="ssr:stedsnr" v="1071061" />
		<tag k="ssr:type" v="adressenavn" />
	</node>
	<node lat="59.68963955185705" lon="10.61050136018766" id="-29029">
		<tag k="name" v="Dronningveien" />
		<tag k="ssr:date" v="2019-12-27" />
		<tag k="ssr:gruppe" v="veg" />
		<tag k="ssr:hovedgruppe" v="infrastruktur" />
		<tag k="ssr:stedsnr" v="1071063" />
		<tag k="ssr:type" v="adressenavn" />
	</node>
	<node lat="59.69007850529589" lon="10.61947943770672" id="-29030">
		<tag k="name" v="Bryggeveien" />
		<tag k="ssr:date" v="2019-12-27" />
		<tag k="ssr:gruppe" v="veg" />
		<tag k="ssr:hovedgruppe" v="infrastruktur" />
		<tag k="ssr:stedsnr" v="1071064" />
		<tag k="ssr:type" v="adressenavn" />
	</node>
	<node lat="59.755277854168725" lon="10.70871430668758" id="-29031">
		<tag k="name" v="Åsebuktveien" />
		<tag k="ssr:date" v="2019-12-27" />
		<tag k="ssr:gruppe" v="veg" />
		<tag k="ssr:hovedgruppe" v="infrastruktur" />
		<tag k="ssr:stedsnr" v="1071065" />
		<tag k="ssr:type" v="adressenavn" />
	</node>
	<node lat="59.75221748184156" lon="10.711559847476865" id="-29032">
		<tag k="name" v="Kollen" />
		<tag k="ssr:date" v="2019-12-27" />
		<tag k="ssr:gruppe" v="veg" />
		<tag k="ssr:hovedgruppe" v="infrastruktur" />
		<tag k="ssr:stedsnr" v="1071066" />
		<tag k="ssr:type" v="adressenavn" />
	</node>
	<node lat="59.75054274456358" lon="10.708354437124989" id="-29033">
		<tag k="name" v="Kjøyaveien" />
		<tag k="ssr:date" v="2019-12-27" />
		<tag k="ssr:gruppe" v="veg" />
		<tag k="ssr:hovedgruppe" v="infrastruktur" />
		<tag k="ssr:stedsnr" v="1071067" />
		<tag k="ssr:type" v="adressenavn" />
	</node>
	<node lat="59.75224402765078" lon="10.712982767668436" id="-29034">
		<tag k="name" v="Kjøyakollveien" />
		<tag k="ssr:date" v="2019-12-27" />
		<tag k="ssr:gruppe" v="veg" />
		<tag k="ssr:hovedgruppe" v="infrastruktur" />
		<tag k="ssr:stedsnr" v="1071068" />
		<tag k="ssr:type" v="adressenavn" />
	</node>
	<node lat="59.7122959219081" lon="10.663515571724984" id="-29035">
		<tag k="name" v="Vårveien" />
		<tag k="ssr:date" v="2019-12-27" />
		<tag k="ssr:gruppe" v="veg" />
		<tag k="ssr:hovedgruppe" v="infrastruktur" />
		<tag k="ssr:stedsnr" v="1071346" />
		<tag k="ssr:type" v="adressenavn" />
	</node>
	<node lat="59.711995296619726" lon="10.663887386121825" id="-29036">
		<tag k="name" v="Skydsrudveien" />
		<tag k="ssr:date" v="2019-12-27" />
		<tag k="ssr:gruppe" v="veg" />
		<tag k="ssr:hovedgruppe" v="infrastruktur" />
		<tag k="ssr:stedsnr" v="1071348" />
		<tag k="ssr:type" v="adressenavn" />
	</node>
	<node lat="59.70198561888293" lon="10.74233239535688" id="-29055">
		<tag k="name" v="Vassumveien" />
		<tag k="ssr:date" v="2019-12-27" />
		<tag k="ssr:gruppe" v="veg" />
		<tag k="ssr:hovedgruppe" v="infrastruktur" />
		<tag k="ssr:stedsnr" v="1071515" />
		<tag k="ssr:type" v="adressenavn" />
	</node>
	<node lat="59.73394663755336" lon="10.716120883476716" id="-29058">
		<tag k="name" v="Kramsveien" />
		<tag k="ssr:date" v="2019-12-27" />
		<tag k="ssr:gruppe" v="veg" />
		<tag k="ssr:hovedgruppe" v="infrastruktur" />
		<tag k="ssr:stedsnr" v="1071460" />
		<tag k="ssr:type" v="adressenavn" />
	</node>
	<node lat="59.73065484547473" lon="10.721836580608667" id="-29059">
		<tag k="name" v="Bueveien" />
		<tag k="ssr:date" v="2019-12-27" />
		<tag k="ssr:gruppe" v="veg" />
		<tag k="ssr:hovedgruppe" v="infrastruktur" />
		<tag k="ssr:stedsnr" v="1071461" />
		<tag k="ssr:type" v="adressenavn" />
	</node>
	<node lat="59.73066340737263" lon="10.719869607149874" id="-29060">
		<tag k="name" v="Avstikkeren" />
		<tag k="ssr:date" v="2019-12-27" />
		<tag k="ssr:gruppe" v="veg" />
		<tag k="ssr:hovedgruppe" v="infrastruktur" />
		<tag k="ssr:stedsnr" v="1071463" />
		<tag k="ssr:type" v="adressenavn" />
	</node>
	<node lat="59.73644763011009" lon="10.714484449173804" id="-29061">
		<tag k="name" v="Fuglesangveien" />
		<tag k="ssr:date" v="2019-12-27" />
		<tag k="ssr:gruppe" v="veg" />
		<tag k="ssr:hovedgruppe" v="infrastruktur" />
		<tag k="ssr:stedsnr" v="1071464" />
		<tag k="ssr:type" v="adressenavn" />
	</node>
	<node lat="59.72948081427292" lon="10.706298945367896" id="-29063">
		<tag k="name" v="Bølerveien" />
		<tag k="ssr:date" v="2019-12-27" />
		<tag k="ssr:gruppe" v="veg" />
		<tag k="ssr:hovedgruppe" v="infrastruktur" />
		<tag k="ssr:stedsnr" v="1071467" />
		<tag k="ssr:type" v="adressenavn" />
	</node>
	<node lat="59.73123173203098" lon="10.723260661926314" id="-29064">
		<tag k="name" v="Slåttvikveien" />
		<tag k="ssr:date" v="2019-12-27" />
		<tag k="ssr:gruppe" v="veg" />
		<tag k="ssr:hovedgruppe" v="infrastruktur" />
		<tag k="ssr:stedsnr" v="1071468" />
		<tag k="ssr:type" v="adressenavn" />
	</node>
	<node lat="59.73208563207243" lon="10.721345575861719" id="-29065">
		<tag k="name" v="Kvarten" />
		<tag k="ssr:date" v="2019-12-27" />
		<tag k="ssr:gruppe" v="veg" />
		<tag k="ssr:hovedgruppe" v="infrastruktur" />
		<tag k="ssr:stedsnr" v="1071470" />
		<tag k="ssr:type" v="adressenavn" />
	</node>
	<node lat="59.76714086475424" lon="10.709555695874883" id="-29068">
		<tag k="name" v="Havreveien" />
		<tag k="ssr:date" v="2019-12-27" />
		<tag k="ssr:gruppe" v="veg" />
		<tag k="ssr:hovedgruppe" v="infrastruktur" />
		<tag k="ssr:stedsnr" v="1071789" />
		<tag k="ssr:type" v="adressenavn" />
	</node>
	<node lat="59.77081499495014" lon="10.704431077794034" id="-29073">
		<tag k="name" v="Nissedalsveien" />
		<tag k="ssr:date" v="2019-12-27" />
		<tag k="ssr:gruppe" v="veg" />
		<tag k="ssr:hovedgruppe" v="infrastruktur" />
		<tag k="ssr:stedsnr" v="1071796" />
		<tag k="ssr:type" v="adressenavn" />
	</node>
	<node lat="59.7699464967659" lon="10.708706562225679" id="-29074">
		<tag k="name" v="Korsveien" />
		<tag k="ssr:date" v="2019-12-27" />
		<tag k="ssr:gruppe" v="veg" />
		<tag k="ssr:hovedgruppe" v="infrastruktur" />
		<tag k="ssr:stedsnr" v="1071797" />
		<tag k="ssr:type" v="adressenavn" />
	</node>
	<node lat="59.76693154059604" lon="10.709616471930444" id="-29076">
		<tag k="name" v="Kornveien" />
		<tag k="ssr:date" v="2019-12-27" />
		<tag k="ssr:gruppe" v="veg" />
		<tag k="ssr:hovedgruppe" v="infrastruktur" />
		<tag k="ssr:stedsnr" v="1071799" />
		<tag k="ssr:type" v="adressenavn" />
	</node>
	<node lat="59.766497984433784" lon="10.705507638043196" id="-29077">
		<tag k="name" v="Jettegrytestien" />
		<tag k="ssr:date" v="2019-12-27" />
		<tag k="ssr:gruppe" v="veg" />
		<tag k="ssr:hovedgruppe" v="infrastruktur" />
		<tag k="ssr:stedsnr" v="1071800" />
		<tag k="ssr:type" v="adressenavn" />
	</node>
	<node lat="59.7708870027628" lon="10.700920864243994" id="-29078">
		<tag k="name" v="Haslumholtet" />
		<tag k="ssr:date" v="2019-12-27" />
		<tag k="ssr:gruppe" v="veg" />
		<tag k="ssr:hovedgruppe" v="infrastruktur" />
		<tag k="ssr:stedsnr" v="1071801" />
		<tag k="ssr:type" v="adressenavn" />
	</node>
	<node lat="59.771065390222276" lon="10.702057037845181" id="-29079">
		<tag k="name" v="Haslumbråteveien" />
		<tag k="ssr:date" v="2019-12-27" />
		<tag k="ssr:gruppe" v="veg" />
		<tag k="ssr:hovedgruppe" v="infrastruktur" />
		<tag k="ssr:stedsnr" v="1071802" />
		<tag k="ssr:type" v="adressenavn" />
	</node>
	<node lat="59.767305734105555" lon="10.704754773002279" id="-29080">
		<tag k="name" v="Tyttebærveien" />
		<tag k="ssr:date" v="2019-12-27" />
		<tag k="ssr:gruppe" v="veg" />
		<tag k="ssr:hovedgruppe" v="infrastruktur" />
		<tag k="ssr:stedsnr" v="1071804" />
		<tag k="ssr:type" v="adressenavn" />
	</node>
	<node lat="59.7699464967659" lon="10.708706562225679" id="-29081">
		<tag k="name" v="Skirstadveien" />
		<tag k="ssr:date" v="2019-12-27" />
		<tag k="ssr:gruppe" v="veg" />
		<tag k="ssr:hovedgruppe" v="infrastruktur" />
		<tag k="ssr:stedsnr" v="1071806" />
		<tag k="ssr:type" v="adressenavn" />
	</node>
	<node lat="59.763209836799014" lon="10.71240366775636" id="-29082">
		<tag k="name" v="Glennestrandveien" />
		<tag k="ssr:date" v="2019-12-27" />
		<tag k="ssr:gruppe" v="veg" />
		<tag k="ssr:hovedgruppe" v="infrastruktur" />
		<tag k="ssr:stedsnr" v="1071813" />
		<tag k="ssr:type" v="adressenavn" />
	</node>
	<node lat="59.75580841943392" lon="10.700338045985632" id="-29083">
		<tag k="name" v="Glenneveien" />
		<tag k="ssr:date" v="2019-12-27" />
		<tag k="ssr:gruppe" v="veg" />
		<tag k="ssr:hovedgruppe" v="infrastruktur" />
		<tag k="ssr:stedsnr" v="1071814" />
		<tag k="ssr:type" v="adressenavn" />
	</node>
	<node lat="59.770544166338354" lon="10.699003537535553" id="-29084">
		<tag k="name" v="Garderbråtevegen" />
		<tag k="ssr:date" v="2019-12-27" />
		<tag k="ssr:gruppe" v="veg" />
		<tag k="ssr:hovedgruppe" v="infrastruktur" />
		<tag k="ssr:stedsnr" v="1071815" />
		<tag k="ssr:type" v="adressenavn" />
	</node>
	<node lat="59.76593954860255" lon="10.7049475225159" id="-29085">
		<tag k="name" v="Blåbærveien" />
		<tag k="ssr:date" v="2019-12-27" />
		<tag k="ssr:gruppe" v="veg" />
		<tag k="ssr:hovedgruppe" v="infrastruktur" />
		<tag k="ssr:stedsnr" v="1071817" />
		<tag k="ssr:type" v="adressenavn" />
	</node>
	<node lat="59.73562710305696" lon="10.565788406028984" id="-29088">
		<tag k="name" v="Lågøya" />
		<tag k="ssr:date" v="2021-09-08" />
		<tag k="ssr:gruppe" v="veg" />
		<tag k="ssr:hovedgruppe" v="infrastruktur" />
		<tag k="ssr:stedsnr" v="1078512" />
		<tag k="ssr:type" v="adressenavn" />
	</node>
	<node lat="59.72688382861069" lon="10.574278388957854" id="-29089">
		<tag k="name" v="Aspond" />
		<tag k="ssr:date" v="2021-09-08" />
		<tag k="ssr:gruppe" v="veg" />
		<tag k="ssr:hovedgruppe" v="infrastruktur" />
		<tag k="ssr:stedsnr" v="1078511" />
		<tag k="ssr:type" v="adressenavn" />
	</node>
</osm>
