<?xml version="1.0" encoding="UTF-8"?>
<osm generator="osmapis" version="0.6">
	<node id="-350080" lat="58.2546111078" lon="7.70627221549">
		<tag k="bridge" v="yes" />
		<tag k="layer" v="1" />
		<tag k="name" v="Vestre Dalane" />
		<tag k="ssr:stedsnr" v="46036" />
	</node>
	<node id="-353728" lat="58.1212861092" lon="7.84311389258">
		<tag k="bridge" v="yes" />
		<tag k="layer" v="1" />
		<tag k="name" v="Storenes" />
		<tag k="ssr:stedsnr" v="957038" />
	</node>
	<node id="-352886" lat="58.1650694483" lon="7.87939166972">
		<tag k="highway" v="path" />
		<tag k="name" v="Elgestien" />
		<tag k="ssr:stedsnr" v="766818" />
	</node>
	<node id="-352745" lat="58.150191668" lon="7.83545833827">
		<tag k="bridge" v="yes" />
		<tag k="layer" v="1" />
		<tag k="name" v="Rismyrbekken" />
		<tag k="ssr:stedsnr" v="714041" />
	</node>
	<node id="-353139" lat="58.3313277773" lon="7.6160527847">
		<tag k="fixme" v="consider highway=path" />
		<tag k="highway" v="track" />
		<tag k="name" v="Kvellandsvegen" />
		<tag k="ssr:stedsnr" v="827178" />
	</node>
	<node id="-349810" lat="58.3418111141" lon="7.56435277619">
		<tag k="highway" v="path" />
		<tag k="name" v="Stien" />
		<tag k="ssr:stedsnr" v="38158" />
	</node>
	<node id="-353085" lat="58.2178027785" lon="7.7596611089">
		<tag k="bridge" v="yes" />
		<tag k="layer" v="1" />
		<tag k="name" v="Underåsen" />
		<tag k="ssr:stedsnr" v="775040" />
	</node>
	<node id="-349162" lat="58.1540888896" lon="7.82820832649">
		<tag k="bridge" v="yes" />
		<tag k="layer" v="1" />
		<tag k="name" v="Nodeland" />
		<tag k="ssr:stedsnr" v="350029" />
	</node>
	<node id="-349161" lat="58.2477555552" lon="7.69989167498">
		<tag k="bridge" v="yes" />
		<tag k="layer" v="1" />
		<tag k="name" v="Fossan" />
		<tag k="ssr:stedsnr" v="350025" />
	</node>
	<node id="-352744" lat="58.2178638854" lon="7.7521666728">
		<tag k="bridge" v="yes" />
		<tag k="layer" v="1" />
		<tag k="name" v="Gumpen" />
		<tag k="ssr:stedsnr" v="714038" />
	</node>
	<node id="-352743" lat="58.269919448" lon="7.65931110698">
		<tag k="bridge" v="yes" />
		<tag k="layer" v="1" />
		<tag k="name" v="Kilen" />
		<tag k="ssr:stedsnr" v="714036" />
	</node>
	<node id="-349286" lat="58.2011861114" lon="7.7373777747">
		<tag k="layer" v="-1" />
		<tag k="name" v="Ørkneheitunellen" />
		<tag k="ssr:stedsnr" v="402716" />
		<tag k="tunnel" v="yes" />
	</node>
	<node id="-351845" lat="58.2959416646" lon="7.58614443637">
		<tag k="junction" v="yes" />
		<tag k="name" v="Breivoll" />
		<tag k="place" v="locality" />
		<tag k="ssr:stedsnr" v="584248" />
	</node>
	<node id="-348644" lat="58.1700499979" lon="7.83386389501">
		<tag k="alt_name" v="Nygård" />
		<tag k="bridge" v="yes" />
		<tag k="layer" v="1" />
		<tag k="name" v="Nygårdsbrua" />
		<tag k="ssr:stedsnr" v="281782" />
	</node>
	<node id="-349282" lat="58.2144999977" lon="7.80065832776">
		<tag k="fixme" v="consider highway=path" />
		<tag k="highway" v="track" />
		<tag k="name" v="Hjulvegen" />
		<tag k="ssr:stedsnr" v="402680" />
	</node>
	<node id="-353377" lat="58.3037138903" lon="7.63119166849">
		<tag k="bridge" v="yes" />
		<tag k="layer" v="1" />
		<tag k="name" v="Djupesland" />
		<tag k="ssr:stedsnr" v="836060" />
	</node>
	<node id="-352089" lat="58.2446916646" lon="7.69428332569">
		<tag k="bridge" v="yes" />
		<tag k="layer" v="1" />
		<tag k="name" v="Stupstad" />
		<tag k="ssr:stedsnr" v="592041" />
	</node>
	<node id="-352088" lat="58.2968166681" lon="7.58508055597">
		<tag k="bridge" v="yes" />
		<tag k="layer" v="1" />
		<tag k="name" v="Frikstad" />
		<tag k="ssr:stedsnr" v="592034" />
	</node>
	<node id="-349781" lat="58.1547222231" lon="7.82328888411">
		<tag k="bridge" v="yes" />
		<tag k="layer" v="1" />
		<tag k="name" v="Trobbevassbekk" />
		<tag k="ssr:stedsnr" v="896029" />
	</node>
	<node id="-350158" lat="58.2833138932" lon="7.57921944174">
		<tag k="highway" v="path" />
		<tag k="name" v="Stien" />
		<tag k="ssr:stedsnr" v="99138" />
	</node>
	<node id="-350797" lat="58.3358999959" lon="7.60788055482">
		<tag k="ford" v="yes" />
		<tag k="name" v="Strengebekkvaet" />
		<tag k="place" v="locality" />
		<tag k="ssr:stedsnr" v="220213" />
	</node>
	<node id="-351051" lat="58.1786777744" lon="7.75262500142">
		<tag k="bridge" v="yes" />
		<tag k="layer" v="1" />
		<tag k="name" v="Birkelandsvassbekk" />
		<tag k="ssr:stedsnr" v="228088" />
	</node>
	<node id="-351050" lat="58.2415055578" lon="7.69829166245">
		<tag k="bridge" v="yes" />
		<tag k="layer" v="1" />
		<tag k="name" v="Stupstad" />
		<tag k="ssr:stedsnr" v="228048" />
	</node>
	<node id="-351049" lat="58.2089916682" lon="7.80048889551">
		<tag k="bridge" v="yes" />
		<tag k="layer" v="1" />
		<tag k="name" v="Nedre Fidje" />
		<tag k="ssr:stedsnr" v="228045" />
	</node>
	<node id="-349511" lat="58.3178861152" lon="7.59281389362">
		<tag k="bridge" v="yes" />
		<tag k="layer" v="1" />
		<tag k="name" v="Finsåna" />
		<tag k="ssr:stedsnr" v="411096" />
	</node>
	<node id="-349510" lat="58.2974777774" lon="7.67182778204">
		<tag k="bridge" v="yes" />
		<tag k="layer" v="1" />
		<tag k="name" v="Sogna" />
		<tag k="ssr:stedsnr" v="411035" />
	</node>
	<node id="-349509" lat="58.2110222235" lon="7.77228888988">
		<tag k="bridge" v="yes" />
		<tag k="layer" v="1" />
		<tag k="name" v="Jostadvassbekk" />
		<tag k="ssr:stedsnr" v="411029" />
	</node>
	<node id="-351426" lat="58.1398833292" lon="7.84735555876">
		<tag k="bridge" v="yes" />
		<tag k="layer" v="1" />
		<tag k="name" v="Birkenes" />
		<tag k="ssr:stedsnr" v="471083" />
	</node>
	<node id="-351425" lat="58.2904083333" lon="7.67771389007">
		<tag k="bridge" v="yes" />
		<tag k="layer" v="1" />
		<tag k="name" v="Leipsland" />
		<tag k="ssr:stedsnr" v="471032" />
	</node>
	<node id="-351424" lat="58.272938885" lon="7.58193611197">
		<tag k="bridge" v="yes" />
		<tag k="layer" v="1" />
		<tag k="name" v="Geirhøl" />
		<tag k="ssr:stedsnr" v="471028" />
	</node>
	<node id="-353727" lat="58.3457027822" lon="7.60079722878">
		<tag k="bridge" v="yes" />
		<tag k="layer" v="1" />
		<tag k="name" v="Hærås" />
		<tag k="ssr:stedsnr" v="957028" />
	</node>
	<node id="-353214" lat="58.3017611142" lon="7.60921388552">
		<tag k="bridge" v="yes" />
		<tag k="layer" v="1" />
		<tag k="name" v="Normannsbrua" />
		<tag k="ssr:stedsnr" v="828250" />
	</node>
	<node id="-350397" lat="58.2015999957" lon="7.78891110587">
		<tag k="bridge" v="yes" />
		<tag k="layer" v="1" />
		<tag k="name" v="Stokkeland" />
		<tag k="ssr:stedsnr" v="107036" />
	</node>
	<node id="-353084" lat="58.2332055543" lon="7.81379166242">
		<tag k="bridge" v="yes" />
		<tag k="layer" v="1" />
		<tag k="name" v="Utsogn bru" />
		<tag k="ssr:stedsnr" v="775039" />
	</node>
	<node id="-353083" lat="58.2048861106" lon="7.79737778441">
		<tag k="bridge" v="yes" />
		<tag k="layer" v="1" />
		<tag k="name" v="Røysvatn" />
		<tag k="ssr:stedsnr" v="775035" />
	</node>
	<node id="-353729" lat="58.273250004" lon="7.64113054867">
		<tag k="bridge" v="yes" />
		<tag k="layer" v="1" />
		<tag k="name" v="Fjellskår" />
		<tag k="ssr:stedsnr" v="957089" />
	</node>
	<node id="-352969" lat="58.1753472213" lon="7.80156666245">
		<tag k="fixme" v="consider highway=path" />
		<tag k="highway" v="track" />
		<tag k="name" v="Orremyrvegen" />
		<tag k="ssr:stedsnr" v="767847" />
	</node>
	<node id="-348593" lat="58.3155416672" lon="7.55582221574">
		<tag k="highway" v="path" />
		<tag k="name" v="Prestvegen" />
		<tag k="ssr:stedsnr" v="281350" />
	</node>
	<node id="-350523" lat="58.194250003" lon="7.78532222737">
		<tag k="highway" v="path" />
		<tag k="name" v="Greibesvegen" />
		<tag k="ssr:stedsnr" v="159733" />
	</node>
	<node id="-351789" lat="58.1571444427" lon="7.83476667463">
		<tag k="name" v="Nodeland" />
		<tag k="railway" v="station" />
		<tag k="ssr:stedsnr" v="546189" />
		<tag k="train" v="yes" />
	</node>
	<node id="-352428" lat="58.3103222204" lon="7.64038055975">
		<tag k="bridge" v="yes" />
		<tag k="layer" v="1" />
		<tag k="name" v="Hønemyr" />
		<tag k="ssr:stedsnr" v="653028" />
	</node>
	<node id="-349554" lat="58.3167777777" lon="7.58327499322">
		<tag k="fixme" v="consider highway=path" />
		<tag k="highway" v="track" />
		<tag k="name" v="Langebakken" />
		<tag k="ssr:stedsnr" v="888326" />
	</node>
	<node id="-348968" lat="58.2106472222" lon="7.77251110615">
		<tag k="bridge" v="yes" />
		<tag k="layer" v="1" />
		<tag k="name" v="Bubrua" />
		<tag k="ssr:stedsnr" v="341754" />
	</node>
	<node id="-352430" lat="58.1398499982" lon="7.85152222349">
		<tag k="bridge" v="yes" />
		<tag k="layer" v="1" />
		<tag k="name" v="Brennåsdølan" />
		<tag k="ssr:stedsnr" v="653073" />
	</node>
	<node id="-351632" lat="58.1832138873" lon="7.79973610592">
		<tag k="layer" v="-1" />
		<tag k="name" v="Gjervoldstadtunellen" />
		<tag k="ssr:stedsnr" v="524816" />
		<tag k="tunnel" v="yes" />
	</node>
	<node id="-352429" lat="58.2863083377" lon="7.60470000739">
		<tag k="bridge" v="yes" />
		<tag k="layer" v="1" />
		<tag k="name" v="Skinsnes" />
		<tag k="ssr:stedsnr" v="653032" />
	</node>
	<node id="-351495" lat="58.2671305519" lon="7.59465833899">
		<tag k="bridge" v="yes" />
		<tag k="layer" v="1" />
		<tag k="name" v="Teinelagsbrua" />
		<tag k="ssr:stedsnr" v="523153" />
	</node>
	<node id="-350853" lat="58.2008361095" lon="7.75157777228">
		<tag k="layer" v="-1" />
		<tag k="name" v="Pinneskottunellen" />
		<tag k="ssr:stedsnr" v="220736" />
		<tag k="tunnel" v="yes" />
	</node>
</osm>
