<?xml version="1.0" encoding="UTF-8"?>
<osm generator="osmapis" version="0.6">
	<node id="-351229" lat="58.2987166647" lon="7.68568333216">
		<tag k="fixme" v="consider place=hamlet" />
		<tag k="name" v="Leipsland" />
		<tag k="place" v="farm" />
		<tag k="ssr:stedsnr" v="182845" />
	</node>
	<node id="-351220" lat="58.2217250031" lon="7.7439444463">
		<tag k="fixme" v="consider place=hamlet" />
		<tag k="name" v="Gumpen" />
		<tag k="place" v="farm" />
		<tag k="ssr:stedsnr" v="182081" />
	</node>
	<node id="-351217" lat="58.1806111142" lon="7.85678055922">
		<tag k="name" v="Moradsen" />
		<tag k="place" v="locality" />
		<tag k="ssr:stedsnr" v="182018" />
	</node>
	<node id="-352238" lat="58.2781222184" lon="7.6144527812">
		<tag k="alt_name" v="Omdal" />
		<tag k="fixme" v="consider place=hamlet" />
		<tag k="name" v="Åmdal" />
		<tag k="place" v="farm" />
		<tag k="ssr:stedsnr" v="546816" />
	</node>
	<node id="-349677" lat="58.313625004" lon="7.57146389332">
		<tag k="name" v="Øygarden" />
		<tag k="place" v="locality" />
		<tag k="ssr:stedsnr" v="402373" />
	</node>
	<node id="-352236" lat="58.2439333342" lon="7.63506666463">
		<tag k="name" v="Mesel" />
		<tag k="place" v="farm" />
		<tag k="ssr:stedsnr" v="546695" />
	</node>
	<node id="-352234" lat="58.1307694467" lon="7.85789166126">
		<tag k="fixme" v="consider place=hamlet" />
		<tag k="name" v="Rosseland" />
		<tag k="place" v="farm" />
		<tag k="ssr:stedsnr" v="546218" />
	</node>
	<node id="-352745" lat="58.1442972239" lon="7.869550004">
		<tag k="name" v="Farvannet terrasse" />
		<tag k="place" v="quarter" />
		<tag k="ssr:stedsnr" v="645750" />
	</node>
	<node id="-352231" lat="58.2051500022" lon="7.82759167188">
		<tag k="fixme" v="consider place=hamlet" />
		<tag k="name" v="Pantestøl" />
		<tag k="place" v="farm" />
		<tag k="ssr:stedsnr" v="546126" />
	</node>
	<node id="-353958" lat="58.1514722238" lon="7.84101111609">
		<tag k="name" v="Solvoll" />
		<tag k="place" v="quarter" />
		<tag k="ssr:stedsnr" v="948781" />
	</node>
	<node id="-352226" lat="58.2959111116" lon="7.71912500725">
		<tag k="fixme" v="consider place=hamlet" />
		<tag k="name" v="Fleskåsen" />
		<tag k="place" v="farm" />
		<tag k="ssr:stedsnr" v="546033" />
	</node>
	<node id="-352225" lat="58.1835277764" lon="7.86039444372">
		<tag k="name" v="Djuphommen" />
		<tag k="place" v="farm" />
		<tag k="ssr:stedsnr" v="546026" />
	</node>
	<node id="-349661" lat="58.2536805564" lon="7.63819443872">
		<tag k="building" v="industrial" />
		<tag k="industrial" v="factory" />
		<tag k="name" v="Mæsels sag" />
		<tag k="ssr:stedsnr" v="402295" />
	</node>
	<node id="-354207" lat="58.2989588485" lon="7.59045785446">
		<tag k="fixme" v="consider place=hamlet" />
		<tag k="name" v="Frikstad" />
		<tag k="place" v="farm" />
		<tag k="ssr:stedsnr" v="978547" />
	</node>
	<node id="-352932" lat="58.2979083355" lon="7.59021945055">
		<tag k="alt_name" v="Frigstad" />
		<tag k="name" v="Frikstad" />
		<tag k="place" v="hamlet" />
		<tag k="ssr:stedsnr" v="667848" />
	</node>
	<node id="-353236" lat="58.277591665" lon="7.68848055499">
		<tag k="fixme" v="consider place=hamlet" />
		<tag k="name" v="Spikkeland" />
		<tag k="place" v="farm" />
		<tag k="ssr:stedsnr" v="728827" />
	</node>
	<node id="-353234" lat="58.318561109" lon="7.5927777726">
		<tag k="alt_name" v="Finnsland" />
		<tag k="name" v="Finsland" />
		<tag k="place" v="hamlet" />
		<tag k="ssr:stedsnr" v="728745" />
	</node>
	<node id="-353233" lat="58.3282500016" lon="7.57388056239">
		<tag k="alt_name" v="Eikelien" />
		<tag k="fixme" v="consider place=hamlet" />
		<tag k="name" v="Eikeli" />
		<tag k="place" v="farm" />
		<tag k="ssr:stedsnr" v="728728" />
	</node>
	<node id="-353232" lat="58.2457999961" lon="7.63590278099">
		<tag k="alt_name" v="Mæsel" />
		<tag k="name" v="Mesel" />
		<tag k="place" v="hamlet" />
		<tag k="ssr:stedsnr" v="728625" />
	</node>
	<node id="-353228" lat="58.2162249995" lon="7.75990277042">
		<tag k="fixme" v="consider place=hamlet" />
		<tag k="name" v="Underåsen" />
		<tag k="place" v="farm" />
		<tag k="ssr:stedsnr" v="728102" />
	</node>
	<node id="-352202" lat="58.2301750002" lon="7.72974722605">
		<tag k="name" v="Øygarden" />
		<tag k="place" v="farm" />
		<tag k="ssr:stedsnr" v="533124" />
	</node>
	<node id="-353222" lat="58.1805138875" lon="7.80503889083">
		<tag k="alt_name" v="Gjærelstad" />
		<tag k="fixme" v="consider place=hamlet" />
		<tag k="name" v="Gjervoldstad" />
		<tag k="place" v="farm" />
		<tag k="ssr:stedsnr" v="728020" />
	</node>
	<node id="-351905" lat="58.1805777751" lon="7.86611666662">
		<tag k="fixme" v="consider place=hamlet" />
		<tag k="name" v="Kulia" />
		<tag k="place" v="farm" />
		<tag k="ssr:stedsnr" v="485042" />
	</node>
	<node id="-350657" lat="58.3134583378" lon="7.66367777392">
		<tag k="name" v="Persdalen" />
		<tag k="place" v="farm" />
		<tag k="ssr:stedsnr" v="99559" />
	</node>
	<node id="-351904" lat="58.1937999972" lon="7.79625556009">
		<tag k="name" v="Auglandsmoen" />
		<tag k="place" v="farm" />
		<tag k="ssr:stedsnr" v="485005" />
	</node>
	<node id="-352701" lat="58.2299972263" lon="7.72658888898">
		<tag k="name" v="Digervoll" />
		<tag k="place" v="farm" />
		<tag k="ssr:stedsnr" v="645428" />
	</node>
	<node id="-349626" lat="58.2831527817" lon="7.68164443823">
		<tag k="name" v="Monen" />
		<tag k="place" v="farm" />
		<tag k="ssr:stedsnr" v="364849" />
	</node>
	<node id="-351673" lat="58.1571388857" lon="7.81796389618">
		<tag k="name" v="Stavlia" />
		<tag k="place" v="farm" />
		<tag k="ssr:stedsnr" v="463682" />
	</node>
	<node id="-352927" lat="58.3421027819" lon="7.59841944125">
		<tag k="fixme" v="consider place=hamlet" />
		<tag k="name" v="Røyrås" />
		<tag k="place" v="farm" />
		<tag k="ssr:stedsnr" v="667758" />
	</node>
	<node id="-349097" lat="58.1750499994" lon="7.82231388628">
		<tag k="name" v="Øvre Hortemo" />
		<tag k="place" v="farm" />
		<tag k="ssr:stedsnr" v="281886" />
	</node>
	<node id="-354215" lat="58.1409558718" lon="7.8857498346">
		<tag k="name" v="Bukskinsdalen" />
		<tag k="place" v="locality" />
		<tag k="ssr:stedsnr" v="978698" />
	</node>
	<node id="-354214" lat="58.1676771677" lon="7.85870136018">
		<tag k="fixme" v="consider place=hamlet" />
		<tag k="name" v="Tunballen" />
		<tag k="place" v="farm" />
		<tag k="ssr:stedsnr" v="978696" />
	</node>
	<node id="-354213" lat="58.1540475688" lon="7.87259953299">
		<tag k="fixme" v="consider place=hamlet" />
		<tag k="name" v="Nådelands Ødegården" />
		<tag k="place" v="farm" />
		<tag k="ssr:stedsnr" v="978697" />
	</node>
	<node id="-354212" lat="58.1742772205" lon="7.833013264">
		<tag k="fixme" v="consider place=hamlet" />
		<tag k="name" v="Hortemo" />
		<tag k="place" v="farm" />
		<tag k="ssr:stedsnr" v="978695" />
	</node>
	<node id="-354211" lat="58.1638384889" lon="7.82978397579">
		<tag k="fixme" v="consider place=hamlet" />
		<tag k="name" v="Skinnarsmoen" />
		<tag k="place" v="farm" />
		<tag k="ssr:stedsnr" v="978694" />
	</node>
	<node id="-354210" lat="58.1543061829" lon="7.82521302389">
		<tag k="fixme" v="consider place=hamlet" />
		<tag k="name" v="Greipstad" />
		<tag k="place" v="farm" />
		<tag k="ssr:stedsnr" v="978554" />
	</node>
	<node id="-354209" lat="58.1398967307" lon="7.85599357928">
		<tag k="fixme" v="consider place=hamlet" />
		<tag k="name" v="Brennåsen" />
		<tag k="place" v="farm" />
		<tag k="ssr:stedsnr" v="978553" />
	</node>
	<node id="-354208" lat="58.3163255795" lon="7.58866616065">
		<tag k="fixme" v="consider place=hamlet" />
		<tag k="name" v="Finsland" />
		<tag k="place" v="farm" />
		<tag k="ssr:stedsnr" v="978548" />
	</node>
	<node id="-349087" lat="58.1266972211" lon="7.84588889406">
		<tag k="name" v="Birkelid" />
		<tag k="place" v="farm" />
		<tag k="ssr:stedsnr" v="281824" />
	</node>
	<node id="-354206" lat="58.2477838635" lon="7.63784940632">
		<tag k="fixme" v="consider place=hamlet" />
		<tag k="name" v="Mæsel" />
		<tag k="place" v="farm" />
		<tag k="ssr:stedsnr" v="978542" />
	</node>
	<node id="-354205" lat="58.2746723833" lon="7.63490471392">
		<tag k="fixme" v="consider place=hamlet" />
		<tag k="name" v="Fjellskår" />
		<tag k="place" v="farm" />
		<tag k="ssr:stedsnr" v="978540" />
	</node>
	<node id="-354204" lat="58.2647677582" lon="7.65826612008">
		<tag k="fixme" v="consider place=hamlet" />
		<tag k="name" v="Vatneli" />
		<tag k="place" v="farm" />
		<tag k="ssr:stedsnr" v="978541" />
	</node>
	<node id="-354203" lat="58.300121648" lon="7.62540226126">
		<tag k="fixme" v="consider place=hamlet" />
		<tag k="name" v="Djupesland" />
		<tag k="place" v="farm" />
		<tag k="ssr:stedsnr" v="978538" />
	</node>
	<node id="-354202" lat="58.2872345361" lon="7.6797613696">
		<tag k="fixme" v="consider place=hamlet" />
		<tag k="name" v="Øveland" />
		<tag k="place" v="farm" />
		<tag k="ssr:stedsnr" v="978536" />
	</node>
	<node id="-350600" lat="58.2816361102" lon="7.58308333506">
		<tag k="name" v="Kvivollen" />
		<tag k="place" v="farm" />
		<tag k="ssr:stedsnr" v="99135" />
	</node>
	<node id="-351622" lat="58.2849388929" lon="7.60618888856">
		<tag k="name" v="Kirkehei" />
		<tag k="place" v="farm" />
		<tag k="ssr:stedsnr" v="463234" />
	</node>
	<node id="-353856" lat="58.3503944452" lon="7.59352777761">
		<tag k="name" v="Skogli" />
		<tag k="place" v="farm" />
		<tag k="ssr:stedsnr" v="850805" />
	</node>
	<node id="-352636" lat="58.3052083302" lon="7.60763610358">
		<tag k="name" v="Stokkåsen" />
		<tag k="place" v="isolated_dwelling" />
		<tag k="ssr:stedsnr" v="644365" />
	</node>
	<node id="-351090" lat="58.2378055581" lon="7.85094166806">
		<tag k="name" v="Godheia" />
		<tag k="place" v="locality" />
		<tag k="ssr:stedsnr" v="160980" />
	</node>
	<node id="-350879" lat="58.1668444449" lon="7.82580833176">
		<tag k="fixme" v="consider place=hamlet" />
		<tag k="name" v="Hagen" />
		<tag k="place" v="farm" />
		<tag k="ssr:stedsnr" v="121036" />
	</node>
	<node id="-352108" lat="58.3007194453" lon="7.68455277709">
		<tag k="fixme" v="consider place=hamlet" />
		<tag k="name" v="Heivollen" />
		<tag k="place" v="farm" />
		<tag k="ssr:stedsnr" v="525865" />
	</node>
	<node id="-350571" lat="58.2718472201" lon="7.58290000547">
		<tag k="alt_name" v="Lauslandsmoen" />
		<tag k="name" v="Lauvslandsmoen" />
		<tag k="place" v="hamlet" />
		<tag k="ssr:stedsnr" v="61811" />
	</node>
	<node id="-350569" lat="58.3560083322" lon="7.61923054824">
		<tag k="alt_name" v="Dyble" />
		<tag k="fixme" v="consider place=hamlet" />
		<tag k="name" v="Dybla" />
		<tag k="place" v="farm" />
		<tag k="ssr:stedsnr" v="61780" />
	</node>
	<node id="-350567" lat="58.2366055591" lon="7.70250554871">
		<tag k="loc_name" v="Heggeland" />
		<tag k="name" v="Heggland" />
		<tag k="place" v="farm" />
		<tag k="ssr:stedsnr" v="61720" />
	</node>
	<node id="-350566" lat="58.2288666695" lon="7.72975277207">
		<tag k="alt_name" v="Fidje;Fidje vestre" />
		<tag k="name" v="Vestre Fidje" />
		<tag k="place" v="farm" />
		<tag k="ssr:stedsnr" v="61074" />
	</node>
	<node id="-350564" lat="58.180027774" lon="7.75355833058">
		<tag k="alt_name" v="Åsene" />
		<tag k="fixme" v="consider place=hamlet" />
		<tag k="name" v="Åsane" />
		<tag k="place" v="farm" />
		<tag k="ssr:stedsnr" v="61014" />
	</node>
	<node id="-350563" lat="58.3119222215" lon="7.65522500572">
		<tag k="name" v="Sjurstad" />
		<tag k="place" v="farm" />
		<tag k="ssr:stedsnr" v="60866" />
	</node>
	<node id="-350562" lat="58.3133159269" lon="7.65044918546">
		<tag k="fixme" v="consider place=hamlet" />
		<tag k="name" v="Hønemyr" />
		<tag k="place" v="farm" />
		<tag k="ssr:stedsnr" v="60864" />
	</node>
	<node id="-350561" lat="58.1495805529" lon="7.87318610456">
		<tag k="alt_name" v="Hastebulia" />
		<tag k="fixme" v="consider place=hamlet" />
		<tag k="name" v="Haslebulia" />
		<tag k="place" v="farm" />
		<tag k="ssr:stedsnr" v="60203" />
	</node>
	<node id="-350560" lat="58.1625999968" lon="7.79306110552">
		<tag k="name" v="Broksmyra" />
		<tag k="place" v="farm" />
		<tag k="ssr:stedsnr" v="60074" />
	</node>
	<node id="-351581" lat="58.2935916707" lon="7.56007500463">
		<tag k="fixme" v="consider place=hamlet" />
		<tag k="name" v="Skogen" />
		<tag k="place" v="farm" />
		<tag k="ssr:stedsnr" v="425877" />
	</node>
	<node id="-351580" lat="58.2907222185" lon="7.6068472253">
		<tag k="alt_name" v="Nerebø" />
		<tag k="name" v="Nerbø" />
		<tag k="place" v="farm" />
		<tag k="ssr:stedsnr" v="425864" />
	</node>
	<node id="-351578" lat="58.2689888898" lon="7.57698055129">
		<tag k="alt_name" v="Lausland" />
		<tag k="fixme" v="consider place=hamlet" />
		<tag k="name" v="Lauvsland" />
		<tag k="place" v="farm" />
		<tag k="ssr:stedsnr" v="425849" />
	</node>
	<node id="-351577" lat="58.2835555513" lon="7.58963056073">
		<tag k="fixme" v="consider place=hamlet" />
		<tag k="name" v="Esperås" />
		<tag k="place" v="farm" />
		<tag k="ssr:stedsnr" v="425841" />
	</node>
	<node id="-351575" lat="58.3360361118" lon="7.59456110931">
		<tag k="alt_name" v="Storaker" />
		<tag k="name" v="Storåker" />
		<tag k="place" v="farm" />
		<tag k="ssr:stedsnr" v="425818" />
	</node>
	<node id="-351574" lat="58.3190527746" lon="7.62319722515">
		<tag k="fixme" v="consider place=hamlet" />
		<tag k="name" v="Espeland" />
		<tag k="place" v="farm" />
		<tag k="ssr:stedsnr" v="425787" />
	</node>
	<node id="-353849" lat="58.3227472233" lon="7.71059166201">
		<tag k="fixme" v="consider place=hamlet" />
		<tag k="name" v="Dåstøl" />
		<tag k="place" v="farm" />
		<tag k="ssr:stedsnr" v="849800" />
	</node>
	<node id="-351572" lat="58.1323527766" lon="7.84930833747">
		<tag k="name" v="Birkenesmoen" />
		<tag k="place" v="farm" />
		<tag k="ssr:stedsnr" v="425216" />
	</node>
	<node id="-351567" lat="58.2274583346" lon="7.85501944692">
		<tag k="alt_name" v="Jonsgård" />
		<tag k="name" v="Jonsgard" />
		<tag k="place" v="isolated_dwelling" />
		<tag k="ssr:stedsnr" v="425088" />
	</node>
	<node id="-351566" lat="58.1621944411" lon="7.75388055536">
		<tag k="name" v="Holmen" />
		<tag k="place" v="farm" />
		<tag k="ssr:stedsnr" v="425045" />
	</node>
	<node id="-351565" lat="58.2028000043" lon="7.83066388623">
		<tag k="fixme" v="consider place=hamlet" />
		<tag k="name" v="Røyrås" />
		<tag k="place" v="farm" />
		<tag k="ssr:stedsnr" v="425002" />
	</node>
	<node id="-353847" lat="58.2549027803" lon="7.67374167208">
		<tag k="name" v="Nergard" />
		<tag k="place" v="farm" />
		<tag k="ssr:stedsnr" v="849236" />
	</node>
	<node id="-348999" lat="58.3441222227" lon="7.59315278579">
		<tag k="name" v="Lian" />
		<tag k="place" v="farm" />
		<tag k="ssr:stedsnr" v="280235" />
	</node>
	<node id="-352580" lat="58.2588055552" lon="7.61668888348">
		<tag k="alt_name" v="Dynestøl" />
		<tag k="fixme" v="consider place=hamlet" />
		<tag k="name" v="Døynestøl" />
		<tag k="place" v="farm" />
		<tag k="ssr:stedsnr" v="606201" />
	</node>
	<node id="-352579" lat="58.2581472201" lon="7.58694167314">
		<tag k="alt_name" v="Evja" />
		<tag k="name" v="Evjen" />
		<tag k="place" v="farm" />
		<tag k="ssr:stedsnr" v="606199" />
	</node>
	<node id="-352577" lat="58.1821666705" lon="7.80823332948">
		<tag k="name" v="Utkjerr" />
		<tag k="place" v="farm" />
		<tag k="ssr:stedsnr" v="606008" />
	</node>
	<node id="-352562" lat="58.2997722247" lon="7.62276944878">
		<tag k="alt_name" v="Djupesland" />
		<tag k="name" v="Djubesland" />
		<tag k="place" v="hamlet" />
		<tag k="ssr:stedsnr" v="606845" />
	</node>
	<node id="-350000" lat="58.2757027763" lon="7.64305555786">
		<tag k="name" v="Brotan" />
		<tag k="place" v="farm" />
		<tag k="ssr:stedsnr" v="888362" />
	</node>
	<node id="-351535" lat="58.1551499979" lon="7.83581665895">
		<tag k="name" v="Nodeland" />
		<tag k="place" v="village" />
		<tag k="ssr:stedsnr" v="267056" />
	</node>
	<node id="-351531" lat="58.172769449" lon="7.82755555657">
		<tag k="fixme" v="consider place=suburb, village or hamlet" />
		<tag k="name" v="Hortemo" />
		<tag k="place" v="quarter" />
		<tag k="ssr:stedsnr" v="243016" />
	</node>
	<node id="-351530" lat="58.2675805582" lon="7.58862777259">
		<tag k="name" v="Nesheim" />
		<tag k="place" v="farm" />
		<tag k="ssr:stedsnr" v="242808" />
	</node>
	<node id="-353057" lat="58.2238333313" lon="7.73790000437">
		<tag k="name" v="Brustean" />
		<tag k="place" v="farm" />
		<tag k="ssr:stedsnr" v="706810" />
	</node>
	<node id="-351536" lat="58.167602778" lon="7.85016388426">
		<tag k="fixme" v="consider place=suburb, village or hamlet" />
		<tag k="name" v="Nodelandsheia" />
		<tag k="place" v="quarter" />
		<tag k="ssr:stedsnr" v="267375" />
	</node>
	<node id="-353566" lat="58.3371250023" lon="7.59178332927">
		<tag k="name" v="Lunden" />
		<tag k="place" v="farm" />
		<tag k="ssr:stedsnr" v="789810" />
	</node>
	<node id="-353564" lat="58.3473749992" lon="7.58445555385">
		<tag k="fixme" v="consider place=hamlet" />
		<tag k="name" v="Helland" />
		<tag k="place" v="farm" />
		<tag k="ssr:stedsnr" v="789788" />
	</node>
	<node id="-352559" lat="58.284547221" lon="7.58324722644">
		<tag k="name" v="Slottet" />
		<tag k="place" v="farm" />
		<tag k="ssr:stedsnr" v="606809" />
	</node>
	<node id="-353559" lat="58.1798444405" lon="7.74894444737">
		<tag k="fixme" v="consider place=hamlet" />
		<tag k="name" v="Birkeland" />
		<tag k="place" v="farm" />
		<tag k="ssr:stedsnr" v="789016" />
	</node>
	<node id="-353558" lat="58.2923083332" lon="7.66794167349">
		<tag k="name" v="Bergstøl" />
		<tag k="place" v="farm" />
		<tag k="ssr:stedsnr" v="788854" />
	</node>
	<node id="-353555" lat="58.2585611093" lon="7.66359999828">
		<tag k="name" v="Myran" />
		<tag k="place" v="farm" />
		<tag k="ssr:stedsnr" v="788210" />
	</node>
	<node id="-349314" lat="58.2454833365" lon="7.82896945088">
		<tag k="name" v="Skogen" />
		<tag k="place" v="farm" />
		<tag k="ssr:stedsnr" v="303097" />
	</node>
	<node id="-352002" lat="58.315561108" lon="7.60879444854">
		<tag k="name" v="Stomnås" />
		<tag k="place" v="farm" />
		<tag k="ssr:stedsnr" v="524323" />
	</node>
	<node id="-350975" lat="58.1575305533" lon="7.83575554826">
		<tag k="name" v="Fossmoen" />
		<tag k="place" v="quarter" />
		<tag k="ssr:stedsnr" v="159793" />
	</node>
	<node id="-353021" lat="58.249124996" lon="7.69821667412">
		<tag k="name" v="Øygarden" />
		<tag k="place" v="farm" />
		<tag k="ssr:stedsnr" v="706434" />
	</node>
	<node id="-350967" lat="58.2090916649" lon="7.77403888997">
		<tag k="name" v="Borvedalen" />
		<tag k="place" v="farm" />
		<tag k="ssr:stedsnr" v="159743" />
	</node>
	<node id="-352648" lat="58.3044527786" lon="7.63288334134">
		<tag k="name" v="Solbakken" />
		<tag k="place" v="farm" />
		<tag k="ssr:stedsnr" v="644591" />
	</node>
	<node id="-349396" lat="58.3319777784" lon="7.628847226">
		<tag k="fixme" v="consider place=hamlet" />
		<tag k="name" v="Kvelland" />
		<tag k="place" v="farm" />
		<tag k="ssr:stedsnr" v="341649" />
	</node>
	<node id="-350922" lat="58.2907638897" lon="7.600983338">
		<tag k="name" v="Buås" />
		<tag k="place" v="farm" />
		<tag k="ssr:stedsnr" v="159262" />
	</node>
	<node id="-352957" lat="58.329833334" lon="7.59902499741">
		<tag k="name" v="Fjellheim" />
		<tag k="place" v="farm" />
		<tag k="ssr:stedsnr" v="705370" />
	</node>
	<node id="-353226" lat="58.2079083362" lon="7.77697499423">
		<tag k="name" v="Loftsmoen" />
		<tag k="place" v="farm" />
		<tag k="ssr:stedsnr" v="728097" />
	</node>
	<node id="-353567" lat="58.2746055568" lon="7.63798333499">
		<tag k="alt_name" v="Fjeldsgård" />
		<tag k="name" v="Fjellskår" />
		<tag k="place" v="hamlet" />
		<tag k="ssr:stedsnr" v="789840" />
	</node>
	<node id="-352949" lat="58.2937777756" lon="7.58168056362">
		<tag k="alt_name" v="Harbakken" />
		<tag k="fixme" v="consider place=hamlet" />
		<tag k="name" v="Harbakk" />
		<tag k="place" v="farm" />
		<tag k="ssr:stedsnr" v="705241" />
	</node>
	<node id="-351918" lat="58.3160694464" lon="7.69770832526">
		<tag k="alt_name" v="Grindeland" />
		<tag k="fixme" v="consider place=hamlet" />
		<tag k="name" v="Grindland" />
		<tag k="place" v="farm" />
		<tag k="ssr:stedsnr" v="485834" />
	</node>
	<node id="-350893" lat="58.2904777735" lon="7.59592222469">
		<tag k="name" v="Myrstad" />
		<tag k="place" v="farm" />
		<tag k="ssr:stedsnr" v="121820" />
	</node>
	<node id="-350892" lat="58.3502722245" lon="7.60614166967">
		<tag k="alt_name" v="Hæråsen" />
		<tag k="fixme" v="consider place=hamlet" />
		<tag k="name" v="Hærås" />
		<tag k="place" v="farm" />
		<tag k="ssr:stedsnr" v="121809" />
	</node>
	<node id="-351915" lat="58.2883444489" lon="7.67880556194">
		<tag k="alt_name" v="Øveland" />
		<tag k="name" v="Øvland" />
		<tag k="place" v="hamlet" />
		<tag k="ssr:stedsnr" v="485798" />
	</node>
	<node id="-350890" lat="58.306266664" lon="7.55618055353">
		<tag k="fixme" v="consider place=hamlet" />
		<tag k="name" v="Fløystøl" />
		<tag k="place" v="farm" />
		<tag k="ssr:stedsnr" v="121759" />
	</node>
	<node id="-350888" lat="58.2445527801" lon="7.68986388118">
		<tag k="name" v="Eikeland" />
		<tag k="place" v="farm" />
		<tag k="ssr:stedsnr" v="121645" />
	</node>
	<node id="-351910" lat="58.2396416677" lon="7.69355554967">
		<tag k="name" v="Eikeland" />
		<tag k="place" v="farm" />
		<tag k="ssr:stedsnr" v="485595" />
	</node>
	<node id="-350884" lat="58.2155166663" lon="7.83581111308">
		<tag k="fixme" v="consider place=hamlet" />
		<tag k="name" v="Eidså" />
		<tag k="place" v="farm" />
		<tag k="ssr:stedsnr" v="121130" />
	</node>
	<node id="-351907" lat="58.1501472238" lon="7.84712500747">
		<tag k="alt_name" v="Nådeland" />
		<tag k="fixme" v="consider place=hamlet" />
		<tag k="name" v="Nodeland" />
		<tag k="place" v="farm" />
		<tag k="ssr:stedsnr" v="485158" />
	</node>
	<node id="-351906" lat="58.1594444406" lon="7.83304166067">
		<tag k="name" v="Skinnarsmoen" />
		<tag k="place" v="quarter" />
		<tag k="ssr:stedsnr" v="485046" />
	</node>
	<node id="-350881" lat="58.1765194406" lon="7.86939166345">
		<tag k="fixme" v="consider place=hamlet" />
		<tag k="name" v="Bergstøl" />
		<tag k="place" v="farm" />
		<tag k="ssr:stedsnr" v="121055" />
	</node>
	<node id="-350880" lat="58.1658749971" lon="7.75407500072">
		<tag k="fixme" v="consider place=hamlet" />
		<tag k="name" v="Tronstad" />
		<tag k="place" v="farm" />
		<tag k="ssr:stedsnr" v="121038" />
	</node>
	<node id="-351903" lat="58.2184416641" lon="7.80271111163">
		<tag k="alt_name" v="Fidje;Fidje østre" />
		<tag k="fixme" v="consider place=hamlet" />
		<tag k="name" v="Østre Fidje" />
		<tag k="place" v="farm" />
		<tag k="ssr:stedsnr" v="485103" />
	</node>
	<node id="-350877" lat="58.1989694419" lon="7.74275833337">
		<tag k="fixme" v="consider place=hamlet" />
		<tag k="name" v="Skår" />
		<tag k="place" v="farm" />
		<tag k="ssr:stedsnr" v="121019" />
	</node>
	<node id="-353948" lat="58.2068388881" lon="7.80380277759">
		<tag k="name" v="Dyplan" />
		<tag k="place" v="locality" />
		<tag k="ssr:stedsnr" v="948700" />
	</node>
	<node id="-352923" lat="58.2357138861" lon="7.71497777142">
		<tag k="name" v="Grødal" />
		<tag k="place" v="farm" />
		<tag k="ssr:stedsnr" v="667674" />
	</node>
	<node id="-352922" lat="58.2459583304" lon="7.69750278186">
		<tag k="alt_name" v="Stubstad" />
		<tag k="name" v="Stupstad" />
		<tag k="place" v="hamlet" />
		<tag k="ssr:stedsnr" v="667611" />
	</node>
	<node id="-351383" lat="58.1529111072" lon="7.87267778007">
		<tag k="name" v="Nodeland Øygard" />
		<tag k="place" v="hamlet" />
		<tag k="ssr:stedsnr" v="221736" />
	</node>
	<node id="-352918" lat="58.2161083327" lon="7.82481110647">
		<tag k="fixme" v="consider place=hamlet" />
		<tag k="name" v="Lia" />
		<tag k="place" v="farm" />
		<tag k="ssr:stedsnr" v="667151" />
	</node>
	<node id="-351690" lat="58.1554000036" lon="7.88541667254">
		<tag k="name" v="Frydenlund" />
		<tag k="place" v="locality" />
		<tag k="ssr:stedsnr" v="463785" />
	</node>
	<node id="-349325" lat="58.2811055544" lon="7.60596388773">
		<tag k="fixme" v="consider place=hamlet" />
		<tag k="name" v="Solås" />
		<tag k="place" v="farm" />
		<tag k="ssr:stedsnr" v="303805" />
	</node>
	<node id="-349324" lat="58.274916669" lon="7.55842778323">
		<tag k="alt_name" v="Øvre Kleveland" />
		<tag k="fixme" v="consider place=hamlet" />
		<tag k="name" v="Kleveland" />
		<tag k="place" v="farm" />
		<tag k="ssr:stedsnr" v="303803" />
	</node>
	<node id="-349323" lat="58.3404194475" lon="7.57684165958">
		<tag k="alt_name" v="Omsland" />
		<tag k="fixme" v="consider place=hamlet" />
		<tag k="name" v="Åmsland" />
		<tag k="place" v="farm" />
		<tag k="ssr:stedsnr" v="303790" />
	</node>
	<node id="-349322" lat="58.3312722179" lon="7.61105834081">
		<tag k="alt_name" v="Abåsland" />
		<tag k="fixme" v="consider place=hamlet" />
		<tag k="name" v="Apåsland" />
		<tag k="place" v="farm" />
		<tag k="ssr:stedsnr" v="303741" />
	</node>
	<node id="-349036" lat="58.3346222232" lon="7.59431111035">
		<tag k="name" v="Myran" />
		<tag k="place" v="farm" />
		<tag k="ssr:stedsnr" v="281357" />
	</node>
	<node id="-349316" lat="58.1506027789" lon="7.78677500448">
		<tag k="name" v="Skogen" />
		<tag k="place" v="isolated_dwelling" />
		<tag k="ssr:stedsnr" v="303195" />
	</node>
	<node id="-349315" lat="58.203988891" lon="7.7880999945">
		<tag k="fixme" v="consider place=hamlet" />
		<tag k="name" v="Stokkeland" />
		<tag k="place" v="farm" />
		<tag k="ssr:stedsnr" v="303120" />
	</node>
	<node id="-350338" lat="58.2269444446" lon="7.79098888327">
		<tag k="fixme" v="consider place=hamlet" />
		<tag k="loc_name" v="Horndalen" />
		<tag k="name" v="Hundalen" />
		<tag k="place" v="farm" />
		<tag k="ssr:stedsnr" v="38857" />
	</node>
	<node id="-349312" lat="58.1710083374" lon="7.8318583415">
		<tag k="name" v="Hamre" />
		<tag k="place" v="farm" />
		<tag k="ssr:stedsnr" v="303031" />
	</node>
	<node id="-349311" lat="58.1910333352" lon="7.83103333921">
		<tag k="name" v="Solheia" />
		<tag k="place" v="locality" />
		<tag k="ssr:stedsnr" v="303021" />
	</node>
	<node id="-349631" lat="58.2227388854" lon="7.73347777703">
		<tag k="alt_name" v="Fidje" />
		<tag k="fixme" v="consider place=hamlet" />
		<tag k="name" v="Vestre Fidje" />
		<tag k="place" v="farm" />
		<tag k="ssr:stedsnr" v="364101" />
	</node>
	<node id="-353905" lat="58.1483999971" lon="7.83153333646">
		<tag k="name" v="Rismyr" />
		<tag k="place" v="quarter" />
		<tag k="ssr:stedsnr" v="938460" />
	</node>
	<node id="-353901" lat="58.3065111135" lon="7.60542777024">
		<tag k="name" v="Stokkåsen" />
		<tag k="place" v="isolated_dwelling" />
		<tag k="ssr:stedsnr" v="910848" />
	</node>
	<node id="-353900" lat="58.3045694409" lon="7.65341943908">
		<tag k="name" v="Solheim" />
		<tag k="place" v="farm" />
		<tag k="ssr:stedsnr" v="910844" />
	</node>
	<node id="-353899" lat="58.2806666628" lon="7.61505000596">
		<tag k="name" v="Brandsvoll" />
		<tag k="place" v="farm" />
		<tag k="ssr:stedsnr" v="910823" />
	</node>
	<node id="-353897" lat="58.2860638902" lon="7.60617778131">
		<tag k="alt_name" v="Skinnsnes" />
		<tag k="name" v="Skinsnes" />
		<tag k="place" v="farm" />
		<tag k="ssr:stedsnr" v="910812" />
	</node>
	<node id="-353895" lat="58.1388083368" lon="7.85736111909">
		<tag k="fixme" v="consider place=suburb, village or hamlet" />
		<tag k="name" v="Brennåsen" />
		<tag k="place" v="quarter" />
		<tag k="ssr:stedsnr" v="910219" />
	</node>
	<node id="-353893" lat="58.1422222195" lon="7.84495000222">
		<tag k="fixme" v="consider place=hamlet" />
		<tag k="name" v="Birkenes" />
		<tag k="place" v="farm" />
		<tag k="ssr:stedsnr" v="910207" />
	</node>
	<node id="-353892" lat="58.2615111098" lon="7.65324721795">
		<tag k="name" v="Vatneli" />
		<tag k="place" v="quarter" />
		<tag k="ssr:stedsnr" v="910208" />
	</node>
	<node id="-353891" lat="58.141461109" lon="7.76432499681">
		<tag k="name" v="Nepstadmyra" />
		<tag k="place" v="farm" />
		<tag k="ssr:stedsnr" v="910200" />
	</node>
	<node id="-350306" lat="58.314202779" lon="7.62813611011">
		<tag k="name" v="Øygard" />
		<tag k="place" v="locality" />
		<tag k="ssr:stedsnr" v="38547" />
	</node>
	<node id="-353889" lat="58.1714694404" lon="7.82822500454">
		<tag k="name" v="Nygård" />
		<tag k="place" v="farm" />
		<tag k="ssr:stedsnr" v="910038" />
	</node>
	<node id="-353888" lat="58.1928666699" lon="7.7332611126">
		<tag k="alt_name" v="Skårs Øygarden" />
		<tag k="name" v="Øygard" />
		<tag k="place" v="locality" />
		<tag k="ssr:stedsnr" v="910012" />
	</node>
	<node id="-350300" lat="58.3050499989" lon="7.66286111614">
		<tag k="name" v="Kleiveløa" />
		<tag k="place" v="isolated_dwelling" />
		<tag k="ssr:stedsnr" v="38513" />
	</node>
	<node id="-350299" lat="58.3197638904" lon="7.69053055579">
		<tag k="name" v="Kleiveløa" />
		<tag k="place" v="isolated_dwelling" />
		<tag k="ssr:stedsnr" v="38511" />
	</node>
	<node id="-351245" lat="58.2816972215" lon="7.58982777098">
		<tag k="name" v="Plassen" />
		<tag k="place" v="locality" />
		<tag k="ssr:stedsnr" v="220284" />
	</node>
	<node id="-353890" lat="58.2284916637" lon="7.83780833152">
		<tag k="alt_name" v="Hemming-Augland;Hemmnings Augland;Hammnings Augland" />
		<tag k="fixme" v="consider place=hamlet" />
		<tag k="name" v="Hemmes-Augland" />
		<tag k="place" v="farm" />
		<tag k="ssr:stedsnr" v="910111" />
	</node>
	<node id="-352329" lat="58.2663166628" lon="7.6596972232">
		<tag k="name" v="Askekjerran" />
		<tag k="place" v="quarter" />
		<tag k="ssr:stedsnr" v="584627" />
	</node>
	<node id="-351304" lat="58.1457416642" lon="7.84916111625">
		<tag k="name" v="Lysgårdslia" />
		<tag k="place" v="quarter" />
		<tag k="ssr:stedsnr" v="220819" />
	</node>
	<node id="-353859" lat="58.1220083348" lon="7.84932499953">
		<tag k="name" v="Volleberg" />
		<tag k="place" v="quarter" />
		<tag k="ssr:stedsnr" v="874047" />
	</node>
	<node id="-350274" lat="58.2878361098" lon="7.59865833507">
		<tag k="name" v="Myrvang" />
		<tag k="place" v="farm" />
		<tag k="ssr:stedsnr" v="38271" />
	</node>
	<node id="-350272" lat="58.2976527802" lon="7.59572222565">
		<tag k="name" v="Husmannshola" />
		<tag k="place" v="locality" />
		<tag k="ssr:stedsnr" v="38264" />
	</node>
	<node id="-353851" lat="58.1894500008" lon="7.80444721516">
		<tag k="fixme" v="consider place=hamlet" />
		<tag k="name" v="Augland" />
		<tag k="place" v="farm" />
		<tag k="ssr:stedsnr" v="850023" />
	</node>
	<node id="-353850" lat="58.3092166643" lon="7.66042777285">
		<tag k="alt_name" v="Eptestad" />
		<tag k="fixme" v="consider place=hamlet" />
		<tag k="name" v="Eftestad" />
		<tag k="place" v="farm" />
		<tag k="ssr:stedsnr" v="849860" />
	</node>
	<node id="-349753" lat="58.1796027812" lon="7.8709166616">
		<tag k="fixme" v="consider tourism=alpine_hut or tourism=chalet" />
		<tag k="name" v="Bergstølhytta" />
		<tag k="ssr:stedsnr" v="402980" />
		<tag k="tourism" v="wilderness_hut" />
	</node>
	<node id="-349751" lat="58.1767194489" lon="7.81938333238">
		<tag k="name" v="Skrean" />
		<tag k="place" v="quarter" />
		<tag k="ssr:stedsnr" v="402885" />
	</node>
	<node id="-353846" lat="58.2542277774" lon="7.66076388203">
		<tag k="fixme" v="consider place=hamlet" />
		<tag k="name" v="Røysland" />
		<tag k="place" v="farm" />
		<tag k="ssr:stedsnr" v="849232" />
	</node>
	<node id="-353332" lat="58.2253722191" lon="7.73643334079">
		<tag k="name" v="Øygarden" />
		<tag k="place" v="farm" />
		<tag k="ssr:stedsnr" v="766830" />
	</node>
	<node id="-351280" lat="58.3085000004" lon="7.64139443876">
		<tag k="name" v="Heimstad" />
		<tag k="place" v="farm" />
		<tag k="ssr:stedsnr" v="220601" />
	</node>
	<node id="-353323" lat="58.142930555" lon="7.851572226">
		<tag k="name" v="Haggrinda" />
		<tag k="place" v="farm" />
		<tag k="ssr:stedsnr" v="766786" />
	</node>
	<node id="-349738" lat="58.144741669" lon="7.84636667484">
		<tag k="name" v="Lysgård" />
		<tag k="place" v="farm" />
		<tag k="ssr:stedsnr" v="402801" />
	</node>
	<node id="-353320" lat="58.1631277807" lon="7.82181111069">
		<tag k="name" v="Leirdalen" />
		<tag k="place" v="farm" />
		<tag k="ssr:stedsnr" v="766771" />
	</node>
	<node id="-349731" lat="58.1549138896" lon="7.83363056015">
		<tag k="name" v="Vestmoen" />
		<tag k="place" v="quarter" />
		<tag k="ssr:stedsnr" v="402746" />
	</node>
	<node id="-350242" lat="58.3072361137" lon="7.69842499592">
		<tag k="alt_name" v="Østre Hægland" />
		<tag k="fixme" v="consider place=hamlet" />
		<tag k="name" v="Heggland" />
		<tag k="place" v="farm" />
		<tag k="ssr:stedsnr" v="869" />
	</node>
	<node id="-350241" lat="58.3034861105" lon="7.64349445144">
		<tag k="name" v="Åsvik" />
		<tag k="place" v="farm" />
		<tag k="ssr:stedsnr" v="848" />
	</node>
	<node id="-350239" lat="58.3210980979" lon="7.6434874229">
		<tag k="name" v="Heimtun" />
		<tag k="place" v="farm" />
		<tag k="ssr:stedsnr" v="778" />
	</node>
	<node id="-350238" lat="58.3314111154" lon="7.58113054936">
		<tag k="name" v="Hagen" />
		<tag k="place" v="farm" />
		<tag k="ssr:stedsnr" v="757" />
	</node>
	<node id="-350235" lat="58.2702777822" lon="7.66003611274">
		<tag k="name" v="Kilen" />
		<tag k="place" v="farm" />
		<tag k="ssr:stedsnr" v="218" />
	</node>
	<node id="-350234" lat="58.2544527819" lon="7.58587778332">
		<tag k="alt_name" v="Nygård" />
		<tag k="name" v="Nygard" />
		<tag k="place" v="farm" />
		<tag k="ssr:stedsnr" v="215" />
	</node>
	<node id="-350233" lat="58.2043694448" lon="7.82310833176">
		<tag k="name" v="Vollan" />
		<tag k="place" v="farm" />
		<tag k="ssr:stedsnr" v="122" />
	</node>
	<node id="-350232" lat="58.2339055513" lon="7.81521389389">
		<tag k="fixme" v="consider place=hamlet" />
		<tag k="name" v="Utsogn" />
		<tag k="place" v="farm" />
		<tag k="ssr:stedsnr" v="106" />
	</node>
	<node id="-350230" lat="58.1695694421" lon="7.85026667358">
		<tag k="name" v="Magnusdalen" />
		<tag k="place" v="locality" />
		<tag k="ssr:stedsnr" v="33" />
	</node>
	<node id="-350228" lat="58.2097500034" lon="7.83548888154">
		<tag k="alt_name" v="Haugland" />
		<tag k="fixme" v="consider place=hamlet" />
		<tag k="name" v="Haugeland" />
		<tag k="place" v="farm" />
		<tag k="ssr:stedsnr" v="11" />
	</node>
	<node id="-351250" lat="58.1751611099" lon="7.71788889572">
		<tag k="fixme" v="consider place=hamlet" />
		<tag k="name" v="Eikåsen" />
		<tag k="place" v="farm" />
		<tag k="ssr:stedsnr" v="220333" />
	</node>
	<node id="-351917" lat="58.303047219" lon="7.54788333762">
		<tag k="fixme" v="consider place=hamlet" />
		<tag k="name" v="Follerås" />
		<tag k="place" v="farm" />
		<tag k="ssr:stedsnr" v="485824" />
	</node>
	<node id="-351916" lat="58.262925001" lon="7.58579722178">
		<tag k="alt_name" v="Monen" />
		<tag k="name" v="Moen" />
		<tag k="place" v="farm" />
		<tag k="ssr:stedsnr" v="485813" />
	</node>
	<node id="-349699" lat="58.2399638906" lon="7.69286111884">
		<tag k="name" v="Ytrejorde" />
		<tag k="place" v="farm" />
		<tag k="ssr:stedsnr" v="402519" />
	</node>
</osm>
